{"geometry": {"coordinates": [-66.722049, 18.163407], "type": "Point"}, "id": "hmmxkmE9d1pmsOrpgSjTIzDhIis=", "properties": {"@source_uri": "https://tools.usps.com/UspsToolsRestServices/rest/POLocator/findLocations", "@spider": "usps_collection_boxes", "addr:city": "ADJUNTAS", "addr:country": "US", "addr:postcode": "00601", "addr:state": "PR", "addr:street_address": "37 CALLE MUNOZ RIVERA", "amenity": "post_box", "collection_times": "Mo-Fr 15:00; Sa 08:00", "note": "ON 12/24 AND 12/31, THIS BOX MAY BE COLLECTED AS EARLY AS 12 NOON.", "nsi_id": "unitedstatespostalservice-a77078", "operator": "United States Postal Service", "operator:short": "USPS", "operator:type": "public", "operator:wikidata": "Q668687", "ref": "0060100002"}, "type": "Feature"}
{"geometry": {"coordinates": [-66.7220449, 18.163438], "type": "Point"}, "id": "mlRQm6-aCiHp--wfjXXCyucEVuw=", "properties": {"@source_uri": "https://tools.usps.com/UspsToolsRestServices/rest/POLocator/findLocations", "@spider": "usps_collection_boxes", "addr:city": "ADJUNTAS", "addr:country": "US", "addr:postcode": "00601", "addr:state": "PR", "addr:street_address": "37 CALLE MUNOZ RIVERA", "amenity": "post_box", "collection_times": "Mo-Fr 15:00; Sa 08:00", "indoor": "yes", "note": "ON 12/24 AND 12/31, THIS BOX MAY BE COLLECTED AS EARLY AS 12 NOON.", "nsi_id": "unitedstatespostalservice-a77078", "operator": "United States Postal Service", "operator:short": "USPS", "operator:type": "public", "operator:wikidata": "Q668687", "ref": "0060100005"}, "type": "Feature"}
{"geometry": {"coordinates": [-66.722073999, 18.163449408], "type": "Point"}, "id": "PwOk60OlnKWc3P_IHse4O5t45QA=", "properties": {"@source_uri": "https://tools.usps.com/UspsToolsRestServices/rest/POLocator/findLocations", "@spider": "usps_collection_boxes", "addr:city": "ADJUNTAS", "addr:country": "US", "addr:postcode": "00601", "addr:state": "PR", "addr:street_address": "37 CALLE MUNOZ RIVERA", "amenity": "post_box", "collection_times": "Mo-Fr 16:30; Sa 12:00", "indoor": "yes", "note": "ON 12/24 AND 12/31, THIS BOX MAY BE COLLECTED AS EARLY AS 12 NOON.", "nsi_id": "unitedstatespostalservice-a77078", "operator": "United States Postal Service", "operator:short": "USPS", "operator:type": "public", "operator:wikidata": "Q668687", "ref": "0060100006"}, "type": "Feature"}
{"geometry": {"coordinates": [-67.1870727, 18.37961], "type": "Point"}, "id": "jpH7sbOWJh8nGSOIjHCGZVVNuOU=", "properties": {"@source_uri": "https://tools.usps.com/UspsToolsRestServices/rest/POLocator/findLocations", "@spider": "usps_collection_boxes", "addr:city": "AGUADA", "addr:country": "US", "addr:postcode": "00602", "addr:state": "PR", "addr:street_address": "200 CALLE COLON", "amenity": "post_box", "collection_times": "Mo-Sa 08:00", "nsi_id": "unitedstatespostalservice-a77078", "operator": "United States Postal Service", "operator:short": "USPS", "operator:type": "public", "operator:wikidata": "Q668687", "ref": "0060200001"}, "type": "Feature"}
{"geometry": {"coordinates": [-67.1917227, 18.380783], "type": "Point"}, "id": "FTY2skOnYJ2HtwgvQi5GpaaZJMo=", "properties": {"@source_uri": "https://tools.usps.com/UspsToolsRestServices/rest/POLocator/findLocations", "@spider": "usps_collection_boxes", "addr:city": "AGUADA", "addr:country": "US", "addr:postcode": "00602", "addr:state": "PR", "addr:street_address": "78 CALLE ESTACION", "amenity": "post_box", "collection_times": "Mo-Sa 08:00", "nsi_id": "unitedstatespostalservice-a77078", "operator": "United States Postal Service", "operator:short": "USPS", "operator:type": "public", "operator:wikidata": "Q668687", "ref": "0060200002"}, "type": "Feature"}
{"geometry": {"coordinates": [-67.1830718, 18.3812], "type": "Point"}, "id": "d5UMIduC_IrzOkUYQ1nbIbJsC1w=", "properties": {"@source_uri": "https://tools.usps.com/UspsToolsRestServices/rest/POLocator/findLocations", "@spider": "usps_collection_boxes", "addr:city": "AGUADA", "addr:country": "US", "addr:postcode": "00602", "addr:state": "PR", "addr:street_address": "1 CALLE FLAMBOYANES", "amenity": "post_box", "collection_times": "Mo-Sa 08:15", "nsi_id": "unitedstatespostalservice-a77078", "operator": "United States Postal Service", "operator:short": "USPS", "operator:type": "public", "operator:wikidata": "Q668687", "ref": "0060200004"}, "type": "Feature"}
{"geometry": {"coordinates": [-67.1920421, 18.378389], "type": "Point"}, "id": "w_bZIqY-NgH9xmk96W9n24sdbVo=", "properties": {"@source_uri": "https://tools.usps.com/UspsToolsRestServices/rest/POLocator/findLocations", "@spider": "usps_collection_boxes", "addr:city": "AGUADA", "addr:country": "US", "addr:postcode": "00602", "addr:state": "PR", "addr:street_address": "5 AVE NATIVO ALERS", "amenity": "post_box", "collection_times": "Mo-Fr 15:00; Sa 08:30", "note": "ON 12/24 AND 12/31, THIS BOX MAY BE COLLECTED AS EARLY AS 12 NOON.", "nsi_id": "unitedstatespostalservice-a77078", "operator": "United States Postal Service", "operator:short": "USPS", "operator:type": "public", "operator:wikidata": "Q668687", "ref": "0060200007"}, "type": "Feature"}
{"geometry": {"coordinates": [-67.1763199, 18.38597], "type": "Point"}, "id": "VHNz3l0CZvvr5Zxx3Pn6gO2K43s=", "properties": {"@source_uri": "https://tools.usps.com/UspsToolsRestServices/rest/POLocator/findLocations", "@spider": "usps_collection_boxes", "addr:city": "AGUADA", "addr:country": "US", "addr:postcode": "00602", "addr:state": "PR", "addr:street_address": "2 CALLE COLON", "amenity": "post_box", "collection_times": "Mo-Sa 08:15", "nsi_id": "unitedstatespostalservice-a77078", "operator": "United States Postal Service", "operator:short": "USPS", "operator:type": "public", "operator:wikidata": "Q668687", "ref": "0060200008"}, "type": "Feature"}
{"geometry": {"coordinates": [-67.1924168387, 18.3784386406], "type": "Point"}, "id": "OQ1r-jNf6Tlu_mN8Zj42ySAHTDk=", "properties": {"@source_uri": "https://tools.usps.com/UspsToolsRestServices/rest/POLocator/findLocations", "@spider": "usps_collection_boxes", "addr:city": "AGUADA", "addr:country": "US", "addr:postcode": "00602", "addr:state": "PR", "addr:street_address": "5 AVE NATIVO ALERS", "amenity": "post_box", "collection_times": "Mo-Fr 15:00; Sa 08:30", "indoor": "yes", "note": "ON 12/24 AND 12/31, THIS BOX MAY BE COLLECTED AS EARLY AS 12 NOON.", "nsi_id": "unitedstatespostalservice-a77078", "operator": "United States Postal Service", "operator:short": "USPS", "operator:type": "public", "operator:wikidata": "Q668687", "ref": "0060200009"}, "type": "Feature"}
{"geometry": {"coordinates": [-67.192416839, 18.378438641], "type": "Point"}, "id": "V0HYj9lUBeecyx0Xv4TwgW0HhmQ=", "properties": {"@source_uri": "https://tools.usps.com/UspsToolsRestServices/rest/POLocator/findLocations", "@spider": "usps_collection_boxes", "addr:city": "AGUADA", "addr:country": "US", "addr:postcode": "00602", "addr:state": "PR", "addr:street_address": "5 AVE NATIVO ALERS", "amenity": "post_box", "collection_times": "Mo-Fr 16:15; Sa 12:15", "indoor": "yes", "note": "ON 12/24 AND 12/31, THIS BOX MAY BE COLLECTED AS EARLY AS 12 NOON.", "nsi_id": "unitedstatespostalservice-a77078", "operator": "United States Postal Service", "operator:short": "USPS", "operator:type": "public", "operator:wikidata": "Q668687", "ref": "0060200010"}, "type": "Feature"}
{"geometry": {"coordinates": [-67.1547231, 18.432803], "type": "Point"}, "id": "cNfpLf7HZCWIE6OOReShGLIEIk4=", "properties": {"@source_uri": "https://tools.usps.com/UspsToolsRestServices/rest/POLocator/findLocations", "@spider": "usps_collection_boxes", "addr:city": "AGUADILLA", "addr:country": "US", "addr:postcode": "00603", "addr:state": "PR", "addr:street_address": "2 CALLE J JESUS ESTEVES", "amenity": "post_box", "collection_times": "Mo-Sa 08:30", "nsi_id": "unitedstatespostalservice-a77078", "operator": "United States Postal Service", "operator:short": "USPS", "operator:type": "public", "operator:wikidata": "Q668687", "ref": "0060300005"}, "type": "Feature"}
{"geometry": {"coordinates": [-67.1545746, 18.429658], "type": "Point"}, "id": "F9pjxscbJBnj0SvER0YIe3iqJT0=", "properties": {"@source_uri": "https://tools.usps.com/UspsToolsRestServices/rest/POLocator/findLocations", "@spider": "usps_collection_boxes", "addr:city": "AGUADILLA", "addr:country": "US", "addr:postcode": "00603", "addr:state": "PR", "addr:street_address": "4 AVE SAN CARLOS", "amenity": "post_box", "collection_times": "Mo-Sa 08:30", "nsi_id": "unitedstatespostalservice-a77078", "operator": "United States Postal Service", "operator:short": "USPS", "operator:type": "public", "operator:wikidata": "Q668687", "ref": "0060300010"}, "type": "Feature"}
{"geometry": {"coordinates": [-67.1471548, 18.494997], "type": "Point"}, "id": "RwPR7wQPHXsELbDdl22oRJYEmDk=", "properties": {"@source_uri": "https://tools.usps.com/UspsToolsRestServices/rest/POLocator/findLocations", "@spider": "usps_collection_boxes", "addr:city": "AGUADILLA", "addr:country": "US", "addr:postcode": "00603", "addr:state": "PR", "addr:street_address": "100 AVE BORINQUEN", "amenity": "post_box", "collection_times": "Mo-Fr 15:00; Sa 08:00", "note": "ON 12/24 AND 12/31, THIS BOX MAY BE COLLECTED AS EARLY AS 12 NOON.", "nsi_id": "unitedstatespostalservice-a77078", "operator": "United States Postal Service", "operator:short": "USPS", "operator:type": "public", "operator:wikidata": "Q668687", "ref": "0060300011"}, "type": "Feature"}
{"geometry": {"coordinates": [-67.1548747, 18.428355], "type": "Point"}, "id": "xbwvf_DJj9VWu0YWjZQY5vZXPYI=", "properties": {"@source_uri": "https://tools.usps.com/UspsToolsRestServices/rest/POLocator/findLocations", "@spider": "usps_collection_boxes", "addr:city": "AGUADILLA", "addr:country": "US", "addr:postcode": "00603", "addr:state": "PR", "addr:street_address": "68 CALLE RAMON E BETANCES", "amenity": "post_box", "collection_times": "Mo-Fr 15:00; Sa 08:30", "note": "ON 12/24 AND 12/31, THIS BOX MAY BE COLLECTED AS EARLY AS 12 NOON.", "nsi_id": "unitedstatespostalservice-a77078", "operator": "United States Postal Service", "operator:short": "USPS", "operator:type": "public", "operator:wikidata": "Q668687", "ref": "0060300012"}, "type": "Feature"}
{"geometry": {"coordinates": [-67.1486794, 18.42614], "type": "Point"}, "id": "tfFAryWUbXKb2GtPHoMvOvFl5AQ=", "properties": {"@source_uri": "https://tools.usps.com/UspsToolsRestServices/rest/POLocator/findLocations", "@spider": "usps_collection_boxes", "addr:city": "AGUADILLA", "addr:country": "US", "addr:postcode": "00603", "addr:state": "PR", "addr:street_address": "17005 CARR 2", "amenity": "post_box", "collection_times": "Mo-Sa 09:00", "nsi_id": "unitedstatespostalservice-a77078", "operator": "United States Postal Service", "operator:short": "USPS", "operator:type": "public", "operator:wikidata": "Q668687", "ref": "0060300020"}, "type": "Feature"}
{"geometry": {"coordinates": [-67.1543319, 18.425457], "type": "Point"}, "id": "G82pyt5Pb02iX_IxR0tZCpW53H0=", "properties": {"@source_uri": "https://tools.usps.com/UspsToolsRestServices/rest/POLocator/findLocations", "@spider": "usps_collection_boxes", "addr:city": "AGUADILLA", "addr:country": "US", "addr:postcode": "00603", "addr:state": "PR", "addr:street_address": "72 CALLE PROGRESO", "amenity": "post_box", "collection_times": "Mo-Sa 08:15", "nsi_id": "unitedstatespostalservice-a77078", "operator": "United States Postal Service", "operator:short": "USPS", "operator:type": "public", "operator:wikidata": "Q668687", "ref": "0060300021"}, "type": "Feature"}
{"geometry": {"coordinates": [-67.1416063, 18.443204], "type": "Point"}, "id": "xiHhLzBKRRvhm7VxlIAj4YobMLA=", "properties": {"@source_uri": "https://tools.usps.com/UspsToolsRestServices/rest/POLocator/findLocations", "@spider": "usps_collection_boxes", "addr:city": "AGUADILLA", "addr:country": "US", "addr:postcode": "00603", "addr:state": "PR", "addr:street_address": "50 CARR 459", "amenity": "post_box", "collection_times": "Mo-Fr 17:00; Sa 13:00", "note": "ON 12/24 AND 12/31, THIS BOX MAY BE COLLECTED AS EARLY AS 12 NOON.", "nsi_id": "unitedstatespostalservice-a77078", "operator": "United States Postal Service", "operator:short": "USPS", "operator:type": "public", "operator:wikidata": "Q668687", "ref": "0060300028"}, "type": "Feature"}
{"geometry": {"coordinates": [-67.1487949, 18.445107], "type": "Point"}, "id": "J3Dgf2Xhz5plTwPtwwybRZZZsQg=", "properties": {"@source_uri": "https://tools.usps.com/UspsToolsRestServices/rest/POLocator/findLocations", "@spider": "usps_collection_boxes", "addr:city": "AGUADILLA", "addr:country": "US", "addr:postcode": "00603", "addr:state": "PR", "addr:street_address": "24 AVE SEVERIANO CUEVAS", "amenity": "post_box", "collection_times": "Mo-Sa 09:30", "nsi_id": "unitedstatespostalservice-a77078", "operator": "United States Postal Service", "operator:short": "USPS", "operator:type": "public", "operator:wikidata": "Q668687", "ref": "0060300029"}, "type": "Feature"}
{"geometry": {"coordinates": [-67.1529192, 18.457286], "type": "Point"}, "id": "-f3udetDH-Gdu6_vlIh76z5iCeM=", "properties": {"@source_uri": "https://tools.usps.com/UspsToolsRestServices/rest/POLocator/findLocations", "@spider": "usps_collection_boxes", "addr:city": "AGUADILLA", "addr:country": "US", "addr:postcode": "00603", "addr:state": "PR", "addr:street_address": "36 CALLE MALLORCA", "amenity": "post_box", "collection_times": "Mo-Sa 08:15", "nsi_id": "unitedstatespostalservice-a77078", "operator": "United States Postal Service", "operator:short": "USPS", "operator:type": "public", "operator:wikidata": "Q668687", "ref": "0060300031"}, "type": "Feature"}
{"geometry": {"coordinates": [-67.1541382, 18.411774], "type": "Point"}, "id": "pf-6jYoe1IMZHX5CgXoOd8SAOWQ=", "properties": {"@source_uri": "https://tools.usps.com/UspsToolsRestServices/rest/POLocator/findLocations", "@spider": "usps_collection_boxes", "addr:city": "AGUADILLA", "addr:country": "US", "addr:postcode": "00603", "addr:state": "PR", "addr:street_address": "515 AVE VICTORIA", "amenity": "post_box", "collection_times": "Mo-Sa 08:45", "nsi_id": "unitedstatespostalservice-a77078", "operator": "United States Postal Service", "operator:short": "USPS", "operator:type": "public", "operator:wikidata": "Q668687", "ref": "0060300033"}, "type": "Feature"}
{"geometry": {"coordinates": [-67.1376371, 18.501263], "type": "Point"}, "id": "M6z2H0J3sYBgYMNpYbsaBMVBFsE=", "properties": {"@source_uri": "https://tools.usps.com/UspsToolsRestServices/rest/POLocator/findLocations", "@spider": "usps_collection_boxes", "addr:city": "AGUADILLA", "addr:country": "US", "addr:postcode": "00603", "addr:state": "PR", "addr:street_address": "245 EAST PARADE", "amenity": "post_box", "collection_times": "Mo-Sa 08:15", "nsi_id": "unitedstatespostalservice-a77078", "operator": "United States Postal Service", "operator:short": "USPS", "operator:type": "public", "operator:wikidata": "Q668687", "ref": "0060300034"}, "type": "Feature"}
{"geometry": {"coordinates": [-67.139047464, 18.450180008], "type": "Point"}, "id": "vrmkJfizWMTITyhSMHa9jALDX9A=", "properties": {"@source_uri": "https://tools.usps.com/UspsToolsRestServices/rest/POLocator/findLocations", "@spider": "usps_collection_boxes", "addr:city": "AGUADILLA", "addr:country": "US", "addr:postcode": "00603", "addr:state": "PR", "addr:street_address": "50 CARR 459 STE 1", "amenity": "post_box", "collection_times": "Mo-Fr 17:00; Sa 14:00", "indoor": "yes", "note": "ON 12/24 AND 12/31, THIS BOX MAY BE COLLECTED AS EARLY AS 12 NOON.", "nsi_id": "unitedstatespostalservice-a77078", "operator": "United States Postal Service", "operator:short": "USPS", "operator:type": "public", "operator:wikidata": "Q668687", "ref": "0060300037"}, "type": "Feature"}
{"geometry": {"coordinates": [-67.139047464, 18.450180008], "type": "Point"}, "id": "ZtB5Tz6NH8wyy5bPA61zshsKkUY=", "properties": {"@source_uri": "https://tools.usps.com/UspsToolsRestServices/rest/POLocator/findLocations", "@spider": "usps_collection_boxes", "addr:city": "AGUADILLA", "addr:country": "US", "addr:postcode": "00603", "addr:state": "PR", "addr:street_address": "50 CARR 459 STE 1", "amenity": "post_box", "collection_times": "Mo-Fr 17:00; Sa 14:15", "indoor": "yes", "note": "ON 12/24 AND 12/31, THIS BOX MAY BE COLLECTED AS EARLY AS 12 NOON.", "nsi_id": "unitedstatespostalservice-a77078", "operator": "United States Postal Service", "operator:short": "USPS", "operator:type": "public", "operator:wikidata": "Q668687", "ref": "0060300038"}, "type": "Feature"}
{"geometry": {"coordinates": [-67.147310436, 18.496047514], "type": "Point"}, "id": "vgp1OaDrlsY5qCjtxwEjssXS3QM=", "properties": {"@source_uri": "https://tools.usps.com/UspsToolsRestServices/rest/POLocator/findLocations", "@spider": "usps_collection_boxes", "addr:city": "AGUADILLA", "addr:country": "US", "addr:postcode": "00603", "addr:state": "PR", "addr:street_address": "100 AVE BORINQUEN", "amenity": "post_box", "collection_times": "Mo-Fr 16:00; Sa 12:00", "indoor": "yes", "note": "ON 12/24 AND 12/31, THIS BOX MAY BE COLLECTED AS EARLY AS 12 NOON.", "nsi_id": "unitedstatespostalservice-a77078", "operator": "United States Postal Service", "operator:short": "USPS", "operator:type": "public", "operator:wikidata": "Q668687", "ref": "0060300039"}, "type": "Feature"}
{"geometry": {"coordinates": [-67.1518, 18.44936], "type": "Point"}, "id": "6TzORR4eMIi0fEI7xgQk_UscBgc=", "properties": {"@source_uri": "https://tools.usps.com/UspsToolsRestServices/rest/POLocator/findLocations", "@spider": "usps_collection_boxes", "addr:city": "AGUADILLA", "addr:country": "US", "addr:postcode": "00603", "addr:state": "PR", "addr:street_address": "68 CALLE RAMON E BETANCES", "amenity": "post_box", "collection_times": "Mo-Fr 16:00; Sa 12:00", "indoor": "yes", "note": "ON 12/24 AND 12/31, THIS BOX MAY BE COLLECTED AS EARLY AS 12 NOON.", "nsi_id": "unitedstatespostalservice-a77078", "operator": "United States Postal Service", "operator:short": "USPS", "operator:type": "public", "operator:wikidata": "Q668687", "ref": "0060300040"}, "type": "Feature"}
{"geometry": {"coordinates": [-66.9798448, 18.181239], "type": "Point"}, "id": "dro5QvELB-u1MUB-77a5wANTajU=", "properties": {"@source_uri": "https://tools.usps.com/UspsToolsRestServices/rest/POLocator/findLocations", "@spider": "usps_collection_boxes", "addr:city": "MARICAO", "addr:country": "US", "addr:postcode": "00606", "addr:state": "PR", "addr:street_address": "9 CALLE ZUZUARREGUI", "amenity": "post_box", "collection_times": "Mo-Fr 15:00; Sa 08:00", "note": "ON 12/24 AND 12/31, THIS BOX MAY BE COLLECTED AS EARLY AS 12 NOON.", "nsi_id": "unitedstatespostalservice-a77078", "operator": "United States Postal Service", "operator:short": "USPS", "operator:type": "public", "operator:wikidata": "Q668687", "ref": "0060600001"}, "type": "Feature"}
{"geometry": {"coordinates": [-66.9797765, 18.181398], "type": "Point"}, "id": "11tnoFCsigiAXWM_PGG4qZAyPvE=", "properties": {"@source_uri": "https://tools.usps.com/UspsToolsRestServices/rest/POLocator/findLocations", "@spider": "usps_collection_boxes", "addr:city": "MARICAO", "addr:country": "US", "addr:postcode": "00606", "addr:state": "PR", "addr:street_address": "9 CALLE ZUZUARREGUI", "amenity": "post_box", "collection_times": "Mo-Fr 15:00; Sa 08:00", "indoor": "yes", "note": "ON 12/24 AND 12/31, THIS BOX MAY BE COLLECTED AS EARLY AS 12 NOON.", "nsi_id": "unitedstatespostalservice-a77078", "operator": "United States Postal Service", "operator:short": "USPS", "operator:type": "public", "operator:wikidata": "Q668687", "ref": "0060600002"}, "type": "Feature"}
{"geometry": {"coordinates": [-66.979589008, 18.181262682], "type": "Point"}, "id": "5jCs43iGllsBlR1U3J1BhHGWpZM=", "properties": {"@source_uri": "https://tools.usps.com/UspsToolsRestServices/rest/POLocator/findLocations", "@spider": "usps_collection_boxes", "addr:city": "MARICAO", "addr:country": "US", "addr:postcode": "00606", "addr:state": "PR", "addr:street_address": "9 CALLE ZUZUARREGUI", "amenity": "post_box", "collection_times": "Mo-Fr 15:00; Sa 11:30", "indoor": "yes", "note": "ON 12/24 AND 12/31, THIS BOX MAY BE COLLECTED AS EARLY AS 12 NOON.", "nsi_id": "unitedstatespostalservice-a77078", "operator": "United States Postal Service", "operator:short": "USPS", "operator:type": "public", "operator:wikidata": "Q668687", "ref": "0060600003"}, "type": "Feature"}
{"geometry": {"coordinates": [-67.1392979879, 18.2883279809], "type": "Point"}, "id": "uRx_fTf9nzXPYoL0hRk3FwKhVPs=", "properties": {"@source_uri": "https://tools.usps.com/UspsToolsRestServices/rest/POLocator/findLocations", "@spider": "usps_collection_boxes", "addr:city": "ANASCO", "addr:country": "US", "addr:postcode": "00610", "addr:state": "PR", "addr:street_address": "I9 CALLE VICTORIA", "amenity": "post_box", "collection_times": "Mo-Sa 15:00", "note": "ON 12/24 AND 12/31, THIS BOX MAY BE COLLECTED AS EARLY AS 12 NOON.", "nsi_id": "unitedstatespostalservice-a77078", "operator": "United States Postal Service", "operator:short": "USPS", "operator:type": "public", "operator:wikidata": "Q668687", "ref": "0061000004"}, "type": "Feature"}
{"geometry": {"coordinates": [-67.1426520064, 18.2956600088], "type": "Point"}, "id": "JGjVVmRDWZZg9fcx07z3uZNp7Rw=", "properties": {"@source_uri": "https://tools.usps.com/UspsToolsRestServices/rest/POLocator/findLocations", "@spider": "usps_collection_boxes", "addr:city": "ANASCO", "addr:country": "US", "addr:postcode": "00610", "addr:state": "PR", "addr:street_address": "1 CARR 402", "amenity": "post_box", "collection_times": "Mo-Sa 08:30", "nsi_id": "unitedstatespostalservice-a77078", "operator": "United States Postal Service", "operator:short": "USPS", "operator:type": "public", "operator:wikidata": "Q668687", "ref": "0061000005"}, "type": "Feature"}
{"geometry": {"coordinates": [-67.13651704, 18.2945049826], "type": "Point"}, "id": "GKEelrwCyaoyRPMBxDO4fljXBLY=", "properties": {"@source_uri": "https://tools.usps.com/UspsToolsRestServices/rest/POLocator/findLocations", "@spider": "usps_collection_boxes", "addr:city": "ANASCO", "addr:country": "US", "addr:postcode": "00610", "addr:state": "PR", "addr:street_address": "1 EDWARDS BLVD", "amenity": "post_box", "collection_times": "Mo-Sa 08:30", "nsi_id": "unitedstatespostalservice-a77078", "operator": "United States Postal Service", "operator:short": "USPS", "operator:type": "public", "operator:wikidata": "Q668687", "ref": "0061000006"}, "type": "Feature"}
{"geometry": {"coordinates": [-67.1457379717, 18.2807120161], "type": "Point"}, "id": "wMi_4iy7AWmidf2o0CC2MbXHgDk=", "properties": {"@source_uri": "https://tools.usps.com/UspsToolsRestServices/rest/POLocator/findLocations", "@spider": "usps_collection_boxes", "addr:city": "ANASCO", "addr:country": "US", "addr:postcode": "00610", "addr:state": "PR", "addr:street_address": "93 CALLE 65 INFANTERIA STE 1", "amenity": "post_box", "collection_times": "Mo-Fr 15:00; Sa 09:00", "note": "ON 12/24 AND 12/31, THIS BOX MAY BE COLLECTED AS EARLY AS 12 NOON.", "nsi_id": "unitedstatespostalservice-a77078", "operator": "United States Postal Service", "operator:short": "USPS", "operator:type": "public", "operator:wikidata": "Q668687", "ref": "0061000007"}, "type": "Feature"}
{"geometry": {"coordinates": [-67.145769, 18.280433], "type": "Point"}, "id": "d5IBO8j4u738h1W4iNCHMvkFoMw=", "properties": {"@source_uri": "https://tools.usps.com/UspsToolsRestServices/rest/POLocator/findLocations", "@spider": "usps_collection_boxes", "addr:city": "ANASCO", "addr:country": "US", "addr:postcode": "00610", "addr:state": "PR", "addr:street_address": "93 CALLE 65 INFANTERIA STE 1", "amenity": "post_box", "collection_times": "Mo-Fr 15:00; Sa 09:00", "indoor": "yes", "note": "ON 12/24 AND 12/31, THIS BOX MAY BE COLLECTED AS EARLY AS 12 NOON.", "nsi_id": "unitedstatespostalservice-a77078", "operator": "United States Postal Service", "operator:short": "USPS", "operator:type": "public", "operator:wikidata": "Q668687", "ref": "0061000008"}, "type": "Feature"}
{"geometry": {"coordinates": [-67.14446085, 18.28107956], "type": "Point"}, "id": "thHOlumyp3b5YFMszzGr7EQQyek=", "properties": {"@source_uri": "https://tools.usps.com/UspsToolsRestServices/rest/POLocator/findLocations", "@spider": "usps_collection_boxes", "addr:city": "ANASCO", "addr:country": "US", "addr:postcode": "00610", "addr:state": "PR", "addr:street_address": "93 CALLE 65 INFANTERIA STE 1", "amenity": "post_box", "collection_times": "Mo-Fr 15:45; Sa 12:15", "indoor": "yes", "note": "ON 12/24 AND 12/31, THIS BOX MAY BE COLLECTED AS EARLY AS 12 NOON.", "nsi_id": "unitedstatespostalservice-a77078", "operator": "United States Postal Service", "operator:short": "USPS", "operator:type": "public", "operator:wikidata": "Q668687", "ref": "0061000009"}, "type": "Feature"}
{"geometry": {"coordinates": [-66.802137, 18.292354], "type": "Point"}, "id": "TNwHNvw19Vnocww3quWhrjjww30=", "properties": {"@source_uri": "https://tools.usps.com/UspsToolsRestServices/rest/POLocator/findLocations", "@spider": "usps_collection_boxes", "addr:city": "ANGELES", "addr:country": "US", "addr:postcode": "00611", "addr:state": "PR", "addr:street_address": "100 CARR 111", "amenity": "post_box", "collection_times": "Mo-Fr 15:00; Sa 08:00", "note": "ON 12/24 AND 12/31, THIS BOX MAY BE COLLECTED AS EARLY AS 12 NOON.", "nsi_id": "unitedstatespostalservice-a77078", "operator": "United States Postal Service", "operator:short": "USPS", "operator:type": "public", "operator:wikidata": "Q668687", "ref": "0061100001"}, "type": "Feature"}
{"geometry": {"coordinates": [-66.802137, 18.292354], "type": "Point"}, "id": "sNGu0vic8D3_w5FMpLb-mE3yXRY=", "properties": {"@source_uri": "https://tools.usps.com/UspsToolsRestServices/rest/POLocator/findLocations", "@spider": "usps_collection_boxes", "addr:city": "ANGELES", "addr:country": "US", "addr:postcode": "00611", "addr:state": "PR", "addr:street_address": "100 CARR 111", "amenity": "post_box", "collection_times": "Mo-Fr 15:00; Sa 08:00", "indoor": "yes", "note": "ON 12/24 AND 12/31, THIS BOX MAY BE COLLECTED AS EARLY AS 12 NOON.", "nsi_id": "unitedstatespostalservice-a77078", "operator": "United States Postal Service", "operator:short": "USPS", "operator:type": "public", "operator:wikidata": "Q668687", "ref": "0061100002"}, "type": "Feature"}
{"geometry": {"coordinates": [-66.802018094, 18.292189094], "type": "Point"}, "id": "W36nJWcne3ix0vDJhR4ASGqKPmg=", "properties": {"@source_uri": "https://tools.usps.com/UspsToolsRestServices/rest/POLocator/findLocations", "@spider": "usps_collection_boxes", "addr:city": "ANGELES", "addr:country": "US", "addr:postcode": "00611", "addr:state": "PR", "addr:street_address": "100 CARR 111", "amenity": "post_box", "collection_times": "Mo-Fr 14:30", "indoor": "yes", "note": "ON 12/24 AND 12/31, THIS BOX MAY BE COLLECTED AS EARLY AS 12 NOON.", "nsi_id": "unitedstatespostalservice-a77078", "operator": "United States Postal Service", "operator:short": "USPS", "operator:type": "public", "operator:wikidata": "Q668687", "ref": "0061100003"}, "type": "Feature"}
{"geometry": {"coordinates": [-66.7597629, 18.478435], "type": "Point"}, "id": "pnTm14MpkXJaGnnxrHH--g_AQM0=", "properties": {"@source_uri": "https://tools.usps.com/UspsToolsRestServices/rest/POLocator/findLocations", "@spider": "usps_collection_boxes", "addr:city": "ARECIBO", "addr:country": "US", "addr:postcode": "00612", "addr:state": "PR", "addr:street_address": "10 AVE SAN PATRICIO", "amenity": "post_box", "collection_times": "Mo-Fr 17:00; Sa 13:00", "note": "ON 12/24 AND 12/31, THIS BOX MAY BE COLLECTED AS EARLY AS 12 NOON.", "nsi_id": "unitedstatespostalservice-a77078", "operator": "United States Postal Service", "operator:short": "USPS", "operator:type": "public", "operator:wikidata": "Q668687", "ref": "0061200002"}, "type": "Feature"}
{"geometry": {"coordinates": [-66.7211749, 18.471526], "type": "Point"}, "id": "mH-uJ_JJJMbe63Hfg3fs9I_eFPY=", "properties": {"@source_uri": "https://tools.usps.com/UspsToolsRestServices/rest/POLocator/findLocations", "@spider": "usps_collection_boxes", "addr:city": "ARECIBO", "addr:country": "US", "addr:postcode": "00612", "addr:state": "PR", "addr:street_address": "306 CALLE CAPITAN ABREU", "amenity": "post_box", "collection_times": "Mo-Sa 10:15", "nsi_id": "unitedstatespostalservice-a77078", "operator": "United States Postal Service", "operator:short": "USPS", "operator:type": "public", "operator:wikidata": "Q668687", "ref": "0061200004"}, "type": "Feature"}
{"geometry": {"coordinates": [-66.7405341, 18.456169], "type": "Point"}, "id": "UETzEWwlXqBZJv8dDs9wetIvbqk=", "properties": {"@source_uri": "https://tools.usps.com/UspsToolsRestServices/rest/POLocator/findLocations", "@spider": "usps_collection_boxes", "addr:city": "ARECIBO", "addr:country": "US", "addr:postcode": "00612", "addr:state": "PR", "addr:street_address": "H35 CALLE AMAPOLA", "amenity": "post_box", "collection_times": "Mo-Sa 09:45", "nsi_id": "unitedstatespostalservice-a77078", "operator": "United States Postal Service", "operator:short": "USPS", "operator:type": "public", "operator:wikidata": "Q668687", "ref": "0061200009"}, "type": "Feature"}
{"geometry": {"coordinates": [-66.7192699, 18.473197], "type": "Point"}, "id": "Dj8DQ1rxh6KCVeKYX40lxyewvoc=", "properties": {"@source_uri": "https://tools.usps.com/UspsToolsRestServices/rest/POLocator/findLocations", "@spider": "usps_collection_boxes", "addr:city": "ARECIBO", "addr:country": "US", "addr:postcode": "00612", "addr:state": "PR", "addr:street_address": "50 CALLE CERVANTES", "amenity": "post_box", "collection_times": "Mo-Sa 10:30", "nsi_id": "unitedstatespostalservice-a77078", "operator": "United States Postal Service", "operator:short": "USPS", "operator:type": "public", "operator:wikidata": "Q668687", "ref": "0061200012"}, "type": "Feature"}
{"geometry": {"coordinates": [-66.7225593, 18.4707936], "type": "Point"}, "id": "IRUnSgBjGshQ8UUqoddcHrqAP_o=", "properties": {"@source_uri": "https://tools.usps.com/UspsToolsRestServices/rest/POLocator/findLocations", "@spider": "usps_collection_boxes", "addr:city": "ARECIBO", "addr:country": "US", "addr:postcode": "00612", "addr:state": "PR", "addr:street_address": "1400 AVE MIRAMAR", "amenity": "post_box", "collection_times": "Mo-Sa 12:30", "note": "ON 12/24 AND 12/31, THIS BOX MAY BE COLLECTED AS EARLY AS 12 NOON.", "nsi_id": "unitedstatespostalservice-a77078", "operator": "United States Postal Service", "operator:short": "USPS", "operator:type": "public", "operator:wikidata": "Q668687", "ref": "0061200019"}, "type": "Feature"}
{"geometry": {"coordinates": [-66.7216832, 18.47235], "type": "Point"}, "id": "qGhWmg99z_-PEu-g8QPPXklvzVQ=", "properties": {"@source_uri": "https://tools.usps.com/UspsToolsRestServices/rest/POLocator/findLocations", "@spider": "usps_collection_boxes", "addr:city": "ARECIBO", "addr:country": "US", "addr:postcode": "00612", "addr:state": "PR", "addr:street_address": "60 CALLE DOMINGO RUBIO", "amenity": "post_box", "collection_times": "Mo-Sa 10:15", "nsi_id": "unitedstatespostalservice-a77078", "operator": "United States Postal Service", "operator:short": "USPS", "operator:type": "public", "operator:wikidata": "Q668687", "ref": "0061200024"}, "type": "Feature"}
{"geometry": {"coordinates": [-66.715268241, 18.471568079], "type": "Point"}, "id": "GSroAMN4TsrzDFRlUi-wLb6wvx0=", "properties": {"@source_uri": "https://tools.usps.com/UspsToolsRestServices/rest/POLocator/findLocations", "@spider": "usps_collection_boxes", "addr:city": "ARECIBO", "addr:country": "US", "addr:postcode": "00612", "addr:state": "PR", "addr:street_address": "151 AVE EUGENIO M DE HOSTOS", "amenity": "post_box", "collection_times": "Mo-Sa 10:30", "nsi_id": "unitedstatespostalservice-a77078", "operator": "United States Postal Service", "operator:short": "USPS", "operator:type": "public", "operator:wikidata": "Q668687", "ref": "0061200026"}, "type": "Feature"}
{"geometry": {"coordinates": [-66.7164496, 18.472268], "type": "Point"}, "id": "mv6YNBvEioN7O1kBG4mpC0TvJIE=", "properties": {"@source_uri": "https://tools.usps.com/UspsToolsRestServices/rest/POLocator/findLocations", "@spider": "usps_collection_boxes", "addr:city": "ARECIBO", "addr:country": "US", "addr:postcode": "00612", "addr:state": "PR", "addr:street_address": "150 AVE JOSE DE DIEGO", "amenity": "post_box", "collection_times": "Mo-Sa 10:30", "nsi_id": "unitedstatespostalservice-a77078", "operator": "United States Postal Service", "operator:short": "USPS", "operator:type": "public", "operator:wikidata": "Q668687", "ref": "0061200027"}, "type": "Feature"}
{"geometry": {"coordinates": [-66.7235599, 18.472329], "type": "Point"}, "id": "Lu21Y3NiAEoUbSg58nw6epwerWE=", "properties": {"@source_uri": "https://tools.usps.com/UspsToolsRestServices/rest/POLocator/findLocations", "@spider": "usps_collection_boxes", "addr:city": "ARECIBO", "addr:country": "US", "addr:postcode": "00612", "addr:state": "PR", "addr:street_address": "352 AVE JOSE DE DIEGO", "amenity": "post_box", "collection_times": "Mo-Sa 10:15", "nsi_id": "unitedstatespostalservice-a77078", "operator": "United States Postal Service", "operator:short": "USPS", "operator:type": "public", "operator:wikidata": "Q668687", "ref": "0061200029"}, "type": "Feature"}
{"geometry": {"coordinates": [-66.7305633, 18.472268], "type": "Point"}, "id": "Zws58W8H4wcWgVOVmXfsdlVw-yE=", "properties": {"@source_uri": "https://tools.usps.com/UspsToolsRestServices/rest/POLocator/findLocations", "@spider": "usps_collection_boxes", "addr:city": "ARECIBO", "addr:country": "US", "addr:postcode": "00612", "addr:state": "PR", "addr:street_address": "540 AVE MIRAMAR", "amenity": "post_box", "collection_times": "Mo-Sa 12:30", "note": "ON 12/24 AND 12/31, THIS BOX MAY BE COLLECTED AS EARLY AS 12 NOON.", "nsi_id": "unitedstatespostalservice-a77078", "operator": "United States Postal Service", "operator:short": "USPS", "operator:type": "public", "operator:wikidata": "Q668687", "ref": "0061200030"}, "type": "Feature"}
{"geometry": {"coordinates": [-66.7287119696, 18.4683959877], "type": "Point"}, "id": "hpv2RDNUOFqujhMQBsY9T9cPNcU=", "properties": {"@source_uri": "https://tools.usps.com/UspsToolsRestServices/rest/POLocator/findLocations", "@spider": "usps_collection_boxes", "addr:city": "ARECIBO", "addr:country": "US", "addr:postcode": "00612", "addr:state": "PR", "addr:street_address": "549 AVE JOSE A CEDENO", "amenity": "post_box", "collection_times": "Mo-Sa 10:00", "nsi_id": "unitedstatespostalservice-a77078", "operator": "United States Postal Service", "operator:short": "USPS", "operator:type": "public", "operator:wikidata": "Q668687", "ref": "0061200031"}, "type": "Feature"}
{"geometry": {"coordinates": [-66.7249479921, 18.4694920054], "type": "Point"}, "id": "z4pRd4ldIw2yj-yO4NYe5nrU7NY=", "properties": {"@source_uri": "https://tools.usps.com/UspsToolsRestServices/rest/POLocator/findLocations", "@spider": "usps_collection_boxes", "addr:city": "ARECIBO", "addr:country": "US", "addr:postcode": "00612", "addr:state": "PR", "addr:street_address": "521 AVE JOSE A CEDENO", "amenity": "post_box", "collection_times": "Mo-Sa 10:00", "nsi_id": "unitedstatespostalservice-a77078", "operator": "United States Postal Service", "operator:short": "USPS", "operator:type": "public", "operator:wikidata": "Q668687", "ref": "0061200032"}, "type": "Feature"}
{"geometry": {"coordinates": [-66.731198, 18.468589], "type": "Point"}, "id": "kK-fWRmc0Csd3T16CFnMlPldyd8=", "properties": {"@source_uri": "https://tools.usps.com/UspsToolsRestServices/rest/POLocator/findLocations", "@spider": "usps_collection_boxes", "addr:city": "ARECIBO", "addr:country": "US", "addr:postcode": "00612", "addr:state": "PR", "addr:street_address": "619 AVE SAN LUIS", "amenity": "post_box", "collection_times": "Mo-Sa 10:00", "nsi_id": "unitedstatespostalservice-a77078", "operator": "United States Postal Service", "operator:short": "USPS", "operator:type": "public", "operator:wikidata": "Q668687", "ref": "0061200039"}, "type": "Feature"}
{"geometry": {"coordinates": [-66.7156124118, 18.469847841], "type": "Point"}, "id": "q9iRPt5wGfH-pLuVr1VMt8oNk3M=", "properties": {"@source_uri": "https://tools.usps.com/UspsToolsRestServices/rest/POLocator/findLocations", "@spider": "usps_collection_boxes", "addr:city": "ARECIBO", "addr:country": "US", "addr:postcode": "00612", "addr:state": "PR", "addr:street_address": "442 AVE JUAN ROSADO", "amenity": "post_box", "collection_times": "Mo-Fr 15:00; Sa 10:00", "note": "ON 12/24 AND 12/31, THIS BOX MAY BE COLLECTED AS EARLY AS 12 NOON.", "nsi_id": "unitedstatespostalservice-a77078", "operator": "United States Postal Service", "operator:short": "USPS", "operator:type": "public", "operator:wikidata": "Q668687", "ref": "0061200040"}, "type": "Feature"}
{"geometry": {"coordinates": [-66.7156124118, 18.469847841], "type": "Point"}, "id": "FIxoBcOM68vyA_PPaRWQ66sRsm4=", "properties": {"@source_uri": "https://tools.usps.com/UspsToolsRestServices/rest/POLocator/findLocations", "@spider": "usps_collection_boxes", "addr:city": "ARECIBO", "addr:country": "US", "addr:postcode": "00612", "addr:state": "PR", "addr:street_address": "442 AVE JUAN ROSADO", "amenity": "post_box", "collection_times": "Mo-Fr 15:00; Sa 10:00", "indoor": "yes", "note": "ON 12/24 AND 12/31, THIS BOX MAY BE COLLECTED AS EARLY AS 12 NOON.", "nsi_id": "unitedstatespostalservice-a77078", "operator": "United States Postal Service", "operator:short": "USPS", "operator:type": "public", "operator:wikidata": "Q668687", "ref": "0061200041"}, "type": "Feature"}
{"geometry": {"coordinates": [-66.7597469719, 18.4775339805], "type": "Point"}, "id": "9UfV5PNd_iJHQF00WvFRd1DjaH4=", "properties": {"@source_uri": "https://tools.usps.com/UspsToolsRestServices/rest/POLocator/findLocations", "@spider": "usps_collection_boxes", "addr:city": "ARECIBO", "addr:country": "US", "addr:postcode": "00612", "addr:state": "PR", "addr:street_address": "10 AVE SAN PATRICIO", "amenity": "post_box", "collection_times": "Mo-Fr 17:00; Sa 13:00", "note": "ON 12/24 AND 12/31, THIS BOX MAY BE COLLECTED AS EARLY AS 12 NOON.", "nsi_id": "unitedstatespostalservice-a77078", "operator": "United States Postal Service", "operator:short": "USPS", "operator:type": "public", "operator:wikidata": "Q668687", "ref": "0061200042"}, "type": "Feature"}
{"geometry": {"coordinates": [-66.744059991, 18.465814728], "type": "Point"}, "id": "s5PY2ItUTvTtBem-u-V5xcgllNQ=", "properties": {"@source_uri": "https://tools.usps.com/UspsToolsRestServices/rest/POLocator/findLocations", "@spider": "usps_collection_boxes", "addr:city": "ARECIBO", "addr:country": "US", "addr:postcode": "00612", "addr:state": "PR", "addr:street_address": "169 AVE UNIVERSIDAD", "amenity": "post_box", "collection_times": "Mo-Sa 09:45", "nsi_id": "unitedstatespostalservice-a77078", "operator": "United States Postal Service", "operator:short": "USPS", "operator:type": "public", "operator:wikidata": "Q668687", "ref": "0061200043"}, "type": "Feature"}
{"geometry": {"coordinates": [-66.7597986, 18.47758], "type": "Point"}, "id": "cpM-uu86wXBEn7R12My0UnRqe3M=", "properties": {"@source_uri": "https://tools.usps.com/UspsToolsRestServices/rest/POLocator/findLocations", "@spider": "usps_collection_boxes", "addr:city": "ARECIBO", "addr:country": "US", "addr:postcode": "00612", "addr:state": "PR", "addr:street_address": "10 AVE SAN PATRICIO", "amenity": "post_box", "collection_times": "Mo-Fr 17:00; Sa 13:00", "indoor": "yes", "note": "ON 12/24 AND 12/31, THIS BOX MAY BE COLLECTED AS EARLY AS 12 NOON.", "nsi_id": "unitedstatespostalservice-a77078", "operator": "United States Postal Service", "operator:short": "USPS", "operator:type": "public", "operator:wikidata": "Q668687", "ref": "0061200045"}, "type": "Feature"}
{"geometry": {"coordinates": [-66.7181455, 18.467216], "type": "Point"}, "id": "azRA2Z7pBMISemWtCRkQF3PO-8U=", "properties": {"@source_uri": "https://tools.usps.com/UspsToolsRestServices/rest/POLocator/findLocations", "@spider": "usps_collection_boxes", "addr:city": "ARECIBO", "addr:country": "US", "addr:postcode": "00612", "addr:state": "PR", "addr:street_address": "259 AVE JUAN ROSADO", "amenity": "post_box", "collection_times": "Mo-Sa 10:45", "nsi_id": "unitedstatespostalservice-a77078", "operator": "United States Postal Service", "operator:short": "USPS", "operator:type": "public", "operator:wikidata": "Q668687", "ref": "0061200046"}, "type": "Feature"}
{"geometry": {"coordinates": [-66.7597469719, 18.4775339805], "type": "Point"}, "id": "DeTTTzJ2tu9-BR3dDvQbXdE1woA=", "properties": {"@source_uri": "https://tools.usps.com/UspsToolsRestServices/rest/POLocator/findLocations", "@spider": "usps_collection_boxes", "addr:city": "ARECIBO", "addr:country": "US", "addr:postcode": "00612", "addr:state": "PR", "addr:street_address": "10 AVE SAN PATRICIO", "amenity": "post_box", "collection_times": "Mo-Fr 18:00; Sa 14:15", "indoor": "yes", "note": "ON 12/24 AND 12/31, THIS BOX MAY BE COLLECTED AS EARLY AS 12 NOON.", "nsi_id": "unitedstatespostalservice-a77078", "operator": "United States Postal Service", "operator:short": "USPS", "operator:type": "public", "operator:wikidata": "Q668687", "ref": "0061200047"}, "type": "Feature"}
{"geometry": {"coordinates": [-66.7156419137, 18.4698802108], "type": "Point"}, "id": "dMEigdJJmhNR5j21BE3C64e-0jM=", "properties": {"@source_uri": "https://tools.usps.com/UspsToolsRestServices/rest/POLocator/findLocations", "@spider": "usps_collection_boxes", "addr:city": "ARECIBO", "addr:country": "US", "addr:postcode": "00612", "addr:state": "PR", "addr:street_address": "442 AVE JUAN ROSADO", "amenity": "post_box", "collection_times": "Mo-Fr 16:00; Sa 14:15", "indoor": "yes", "note": "ON 12/24 AND 12/31, THIS BOX MAY BE COLLECTED AS EARLY AS 12 NOON.", "nsi_id": "unitedstatespostalservice-a77078", "operator": "United States Postal Service", "operator:short": "USPS", "operator:type": "public", "operator:wikidata": "Q668687", "ref": "0061200048"}, "type": "Feature"}
{"geometry": {"coordinates": [-66.7342367905, 18.4610592084], "type": "Point"}, "id": "q7fEVOLSi44sTdI-qs20klsb-yM=", "properties": {"@source_uri": "https://tools.usps.com/UspsToolsRestServices/rest/POLocator/findLocations", "@spider": "usps_collection_boxes", "addr:city": "ARECIBO", "addr:country": "US", "addr:postcode": "00612", "addr:state": "PR", "addr:street_address": "22 CALLE CENTRO COMERCIAL", "amenity": "post_box", "collection_times": "Mo-Fr 15:00", "indoor": "yes", "note": "ON 12/24 AND 12/31, THIS BOX MAY BE COLLECTED AS EARLY AS 12 NOON.", "nsi_id": "unitedstatespostalservice-a77078", "operator": "United States Postal Service", "operator:short": "USPS", "operator:type": "public", "operator:wikidata": "Q668687", "ref": "0061200049"}, "type": "Feature"}
{"geometry": {"coordinates": [-66.7342367905, 18.4610592084], "type": "Point"}, "id": "4vFBya8OvvOU63D9EazXGaPLHBY=", "properties": {"@source_uri": "https://tools.usps.com/UspsToolsRestServices/rest/POLocator/findLocations", "@spider": "usps_collection_boxes", "addr:city": "ARECIBO", "addr:country": "US", "addr:postcode": "00612", "addr:state": "PR", "addr:street_address": "22 CALLE CENTRO COMERCIAL", "amenity": "post_box", "collection_times": "Mo-Fr 15:30; Sa 11:30", "indoor": "yes", "note": "ON 12/24 AND 12/31, THIS BOX MAY BE COLLECTED AS EARLY AS 12 NOON.", "nsi_id": "unitedstatespostalservice-a77078", "operator": "United States Postal Service", "operator:short": "USPS", "operator:type": "public", "operator:wikidata": "Q668687", "ref": "0061200050"}, "type": "Feature"}
{"geometry": {"coordinates": [-66.6773633, 18.428651], "type": "Point"}, "id": "wgOq0qyOVRj0zEOkTfMOSdl4vhI=", "properties": {"@source_uri": "https://tools.usps.com/UspsToolsRestServices/rest/POLocator/findLocations", "@spider": "usps_collection_boxes", "addr:city": "BAJADERO", "addr:country": "US", "addr:postcode": "00616", "addr:state": "PR", "addr:street_address": "100 CARR 656", "amenity": "post_box", "collection_times": "Mo-Fr 15:00; Sa 08:00", "note": "ON 12/24 AND 12/31, THIS BOX MAY BE COLLECTED AS EARLY AS 12 NOON.", "nsi_id": "unitedstatespostalservice-a77078", "operator": "United States Postal Service", "operator:short": "USPS", "operator:type": "public", "operator:wikidata": "Q668687", "ref": "0061600001"}, "type": "Feature"}
{"geometry": {"coordinates": [-66.6774174, 18.428506], "type": "Point"}, "id": "LV-mqX2j2VBSaNRkZJey9h9mlqw=", "properties": {"@source_uri": "https://tools.usps.com/UspsToolsRestServices/rest/POLocator/findLocations", "@spider": "usps_collection_boxes", "addr:city": "BAJADERO", "addr:country": "US", "addr:postcode": "00616", "addr:state": "PR", "addr:street_address": "100 CARR 656", "amenity": "post_box", "collection_times": "Mo-Fr 15:00; Sa 08:00", "indoor": "yes", "note": "ON 12/24 AND 12/31, THIS BOX MAY BE COLLECTED AS EARLY AS 12 NOON.", "nsi_id": "unitedstatespostalservice-a77078", "operator": "United States Postal Service", "operator:short": "USPS", "operator:type": "public", "operator:wikidata": "Q668687", "ref": "0061600002"}, "type": "Feature"}
{"geometry": {"coordinates": [-66.681843484, 18.416221009], "type": "Point"}, "id": "DkRGeZqzA0n9c7Vr44GhrOJK118=", "properties": {"@source_uri": "https://tools.usps.com/UspsToolsRestServices/rest/POLocator/findLocations", "@spider": "usps_collection_boxes", "addr:city": "BAJADERO", "addr:country": "US", "addr:postcode": "00616", "addr:state": "PR", "addr:street_address": "100 CARR 656", "amenity": "post_box", "collection_times": "Mo-Fr 16:30; Sa 12:00", "indoor": "yes", "note": "ON 12/24 AND 12/31, THIS BOX MAY BE COLLECTED AS EARLY AS 12 NOON.", "nsi_id": "unitedstatespostalservice-a77078", "operator": "United States Postal Service", "operator:short": "USPS", "operator:type": "public", "operator:wikidata": "Q668687", "ref": "0061600003"}, "type": "Feature"}
{"geometry": {"coordinates": [-66.5376338, 18.45022], "type": "Point"}, "id": "JjZw4ynD1HqNLYtyNxlDWw-dKSw=", "properties": {"@source_uri": "https://tools.usps.com/UspsToolsRestServices/rest/POLocator/findLocations", "@spider": "usps_collection_boxes", "addr:city": "BARCELONETA", "addr:country": "US", "addr:postcode": "00617", "addr:state": "PR", "addr:street_address": "H1 CALLE 5", "amenity": "post_box", "collection_times": "Mo-Fr 15:00; Sa 08:30", "note": "ON 12/24 AND 12/31, THIS BOX MAY BE COLLECTED AS EARLY AS 12 NOON.", "nsi_id": "unitedstatespostalservice-a77078", "operator": "United States Postal Service", "operator:short": "USPS", "operator:type": "public", "operator:wikidata": "Q668687", "ref": "0061700002"}, "type": "Feature"}
{"geometry": {"coordinates": [-66.540085, 18.453225], "type": "Point"}, "id": "RcXFJvbyOhZM4AvgSx55BvEilbU=", "properties": {"@source_uri": "https://tools.usps.com/UspsToolsRestServices/rest/POLocator/findLocations", "@spider": "usps_collection_boxes", "addr:city": "BARCELONETA", "addr:country": "US", "addr:postcode": "00617", "addr:state": "PR", "addr:street_address": "33 CARR 2", "amenity": "post_box", "collection_times": "Mo-Sa 08:30", "nsi_id": "unitedstatespostalservice-a77078", "operator": "United States Postal Service", "operator:short": "USPS", "operator:type": "public", "operator:wikidata": "Q668687", "ref": "0061700003"}, "type": "Feature"}
{"geometry": {"coordinates": [-66.5378304, 18.45007], "type": "Point"}, "id": "217pnbtVLeJ72nMQScXXp7Tlvr8=", "properties": {"@source_uri": "https://tools.usps.com/UspsToolsRestServices/rest/POLocator/findLocations", "@spider": "usps_collection_boxes", "addr:city": "BARCELONETA", "addr:country": "US", "addr:postcode": "00617", "addr:state": "PR", "addr:street_address": "H1 CALLE 5", "amenity": "post_box", "collection_times": "Mo-Fr 15:00; Sa 08:30", "indoor": "yes", "note": "ON 12/24 AND 12/31, THIS BOX MAY BE COLLECTED AS EARLY AS 12 NOON.", "nsi_id": "unitedstatespostalservice-a77078", "operator": "United States Postal Service", "operator:short": "USPS", "operator:type": "public", "operator:wikidata": "Q668687", "ref": "0061700006"}, "type": "Feature"}
{"geometry": {"coordinates": [-66.538377, 18.454992], "type": "Point"}, "id": "EGVWtr1cP2Klcpt8_wsPiRma-hM=", "properties": {"@source_uri": "https://tools.usps.com/UspsToolsRestServices/rest/POLocator/findLocations", "@spider": "usps_collection_boxes", "addr:city": "BARCELONETA", "addr:country": "US", "addr:postcode": "00617", "addr:state": "PR", "addr:street_address": "40 CALLE GEORGETTI", "amenity": "post_box", "collection_times": "Mo-Sa 13:30", "note": "ON 12/24 AND 12/31, THIS BOX MAY BE COLLECTED AS EARLY AS 12 NOON.", "nsi_id": "unitedstatespostalservice-a77078", "operator": "United States Postal Service", "operator:short": "USPS", "operator:type": "public", "operator:wikidata": "Q668687", "ref": "0061700007"}, "type": "Feature"}
{"geometry": {"coordinates": [-66.537630754, 18.450482731], "type": "Point"}, "id": "iImKgFXUQiarEWdZ_BNqHMghylQ=", "properties": {"@source_uri": "https://tools.usps.com/UspsToolsRestServices/rest/POLocator/findLocations", "@spider": "usps_collection_boxes", "addr:city": "BARCELONETA", "addr:country": "US", "addr:postcode": "00617", "addr:state": "PR", "addr:street_address": "H1 CALLE 5", "amenity": "post_box", "collection_times": "Mo-Fr 16:45; Sa 12:15", "indoor": "yes", "note": "ON 12/24 AND 12/31, THIS BOX MAY BE COLLECTED AS EARLY AS 12 NOON.", "nsi_id": "unitedstatespostalservice-a77078", "operator": "United States Postal Service", "operator:short": "USPS", "operator:type": "public", "operator:wikidata": "Q668687", "ref": "0061700008"}, "type": "Feature"}
{"geometry": {"coordinates": [-66.540085, 18.453225], "type": "Point"}, "id": "bqpBp1jLGByQiK4PlqDPnIgpH3c=", "properties": {"@source_uri": "https://tools.usps.com/UspsToolsRestServices/rest/POLocator/findLocations", "@spider": "usps_collection_boxes", "addr:city": "BARCELONETA", "addr:country": "US", "addr:postcode": "00617", "addr:state": "PR", "addr:street_address": "1 PREMIUM OUTLETS BLVD", "amenity": "post_box", "collection_times": "Mo-Sa 09:00", "nsi_id": "unitedstatespostalservice-a77078", "operator": "United States Postal Service", "operator:short": "USPS", "operator:type": "public", "operator:wikidata": "Q668687", "ref": "0061700010"}, "type": "Feature"}
{"geometry": {"coordinates": [-67.1643993, 18.027942], "type": "Point"}, "id": "D_yEZ0Hb99madS9TMJ1jJ-i4b5M=", "properties": {"@source_uri": "https://tools.usps.com/UspsToolsRestServices/rest/POLocator/findLocations", "@spider": "usps_collection_boxes", "addr:city": "BOQUERON", "addr:country": "US", "addr:postcode": "00622", "addr:state": "PR", "addr:street_address": "300 CARR 101", "amenity": "post_box", "collection_times": "Mo-Fr 15:00; Sa 08:15", "note": "ON 12/24 AND 12/31, THIS BOX MAY BE COLLECTED AS EARLY AS 12 NOON.", "nsi_id": "unitedstatespostalservice-a77078", "operator": "United States Postal Service", "operator:short": "USPS", "operator:type": "public", "operator:wikidata": "Q668687", "ref": "0062200001"}, "type": "Feature"}
{"geometry": {"coordinates": [-67.1644485, 18.027767], "type": "Point"}, "id": "9CBqBaRluXISnw9f1E3GanRjPqg=", "properties": {"@source_uri": "https://tools.usps.com/UspsToolsRestServices/rest/POLocator/findLocations", "@spider": "usps_collection_boxes", "addr:city": "BOQUERON", "addr:country": "US", "addr:postcode": "00622", "addr:state": "PR", "addr:street_address": "300 CARR 101", "amenity": "post_box", "collection_times": "Mo-Fr 15:00; Sa 08:15", "indoor": "yes", "note": "ON 12/24 AND 12/31, THIS BOX MAY BE COLLECTED AS EARLY AS 12 NOON.", "nsi_id": "unitedstatespostalservice-a77078", "operator": "United States Postal Service", "operator:short": "USPS", "operator:type": "public", "operator:wikidata": "Q668687", "ref": "0062200003"}, "type": "Feature"}
{"geometry": {"coordinates": [-67.165851464, 18.028429647], "type": "Point"}, "id": "SawuI-pc10fNyb60UD6ZBh857Rk=", "properties": {"@source_uri": "https://tools.usps.com/UspsToolsRestServices/rest/POLocator/findLocations", "@spider": "usps_collection_boxes", "addr:city": "BOQUERON", "addr:country": "US", "addr:postcode": "00622", "addr:state": "PR", "addr:street_address": "300 CARR 101", "amenity": "post_box", "collection_times": "Mo-Fr 16:00; Sa 12:00", "indoor": "yes", "note": "ON 12/24 AND 12/31, THIS BOX MAY BE COLLECTED AS EARLY AS 12 NOON.", "nsi_id": "unitedstatespostalservice-a77078", "operator": "United States Postal Service", "operator:short": "USPS", "operator:type": "public", "operator:wikidata": "Q668687", "ref": "0062200004"}, "type": "Feature"}
{"geometry": {"coordinates": [-67.145648, 18.086605], "type": "Point"}, "id": "cxrj3gMTVWpF3-Q7CcZbR_Yx1OQ=", "properties": {"@source_uri": "https://tools.usps.com/UspsToolsRestServices/rest/POLocator/findLocations", "@spider": "usps_collection_boxes", "addr:city": "CABO ROJO", "addr:country": "US", "addr:postcode": "00623", "addr:state": "PR", "addr:street_address": "61 CALLE MUNOZ RIVERA", "amenity": "post_box", "collection_times": "Mo-Sa 08:15", "nsi_id": "unitedstatespostalservice-a77078", "operator": "United States Postal Service", "operator:short": "USPS", "operator:type": "public", "operator:wikidata": "Q668687", "ref": "0062300003"}, "type": "Feature"}
{"geometry": {"coordinates": [-67.1459866, 18.089665], "type": "Point"}, "id": "q9eAs4qSq-bNebSTn5XxZuMDOa0=", "properties": {"@source_uri": "https://tools.usps.com/UspsToolsRestServices/rest/POLocator/findLocations", "@spider": "usps_collection_boxes", "addr:city": "CABO ROJO", "addr:country": "US", "addr:postcode": "00623", "addr:state": "PR", "addr:street_address": "33 CALLE JOSE DE DIEGO", "amenity": "post_box", "collection_times": "Mo-Sa 08:15", "nsi_id": "unitedstatespostalservice-a77078", "operator": "United States Postal Service", "operator:short": "USPS", "operator:type": "public", "operator:wikidata": "Q668687", "ref": "0062300006"}, "type": "Feature"}
{"geometry": {"coordinates": [-67.1513795, 18.090997], "type": "Point"}, "id": "uhUl329X5gQJTJyiAjoQ6JESwQ0=", "properties": {"@source_uri": "https://tools.usps.com/UspsToolsRestServices/rest/POLocator/findLocations", "@spider": "usps_collection_boxes", "addr:city": "CABO ROJO", "addr:country": "US", "addr:postcode": "00623", "addr:state": "PR", "addr:street_address": "B15 CALLE MARIANA BRACETTI", "amenity": "post_box", "collection_times": "Mo-Sa 08:30", "nsi_id": "unitedstatespostalservice-a77078", "operator": "United States Postal Service", "operator:short": "USPS", "operator:type": "public", "operator:wikidata": "Q668687", "ref": "0062300008"}, "type": "Feature"}
{"geometry": {"coordinates": [-67.1577079, 18.089874], "type": "Point"}, "id": "OQypbCnW-dE8aa7tGQn-Toboi3Y=", "properties": {"@source_uri": "https://tools.usps.com/UspsToolsRestServices/rest/POLocator/findLocations", "@spider": "usps_collection_boxes", "addr:city": "CABO ROJO", "addr:country": "US", "addr:postcode": "00623", "addr:state": "PR", "addr:street_address": "98 CALLE NOEL ESTRADA", "amenity": "post_box", "collection_times": "Mo-Sa 08:15", "nsi_id": "unitedstatespostalservice-a77078", "operator": "United States Postal Service", "operator:short": "USPS", "operator:type": "public", "operator:wikidata": "Q668687", "ref": "0062300013"}, "type": "Feature"}
{"geometry": {"coordinates": [-67.1493976, 18.088439], "type": "Point"}, "id": "QmGsyu0o45M9-x8s_2-9EvUxovw=", "properties": {"@source_uri": "https://tools.usps.com/UspsToolsRestServices/rest/POLocator/findLocations", "@spider": "usps_collection_boxes", "addr:city": "CABO ROJO", "addr:country": "US", "addr:postcode": "00623", "addr:state": "PR", "addr:street_address": "64 CALLE CARBONELL", "amenity": "post_box", "collection_times": "Mo-Fr 15:00; Sa 08:15", "note": "ON 12/24 AND 12/31, THIS BOX MAY BE COLLECTED AS EARLY AS 12 NOON.", "nsi_id": "unitedstatespostalservice-a77078", "operator": "United States Postal Service", "operator:short": "USPS", "operator:type": "public", "operator:wikidata": "Q668687", "ref": "0062300014"}, "type": "Feature"}
{"geometry": {"coordinates": [-67.1492665, 18.088578], "type": "Point"}, "id": "PbnGzgRb9mtMyB3waTZvmOjttHA=", "properties": {"@source_uri": "https://tools.usps.com/UspsToolsRestServices/rest/POLocator/findLocations", "@spider": "usps_collection_boxes", "addr:city": "CABO ROJO", "addr:country": "US", "addr:postcode": "00623", "addr:state": "PR", "addr:street_address": "64 CALLE CARBONELL", "amenity": "post_box", "collection_times": "Mo-Fr 15:00; Sa 08:15", "indoor": "yes", "note": "ON 12/24 AND 12/31, THIS BOX MAY BE COLLECTED AS EARLY AS 12 NOON.", "nsi_id": "unitedstatespostalservice-a77078", "operator": "United States Postal Service", "operator:short": "USPS", "operator:type": "public", "operator:wikidata": "Q668687", "ref": "0062300015"}, "type": "Feature"}
{"geometry": {"coordinates": [-67.148661463, 18.088349446], "type": "Point"}, "id": "fuKmMnzbkhK3fYvxtleRUtWr9ho=", "properties": {"@source_uri": "https://tools.usps.com/UspsToolsRestServices/rest/POLocator/findLocations", "@spider": "usps_collection_boxes", "addr:city": "CABO ROJO", "addr:country": "US", "addr:postcode": "00623", "addr:state": "PR", "addr:street_address": "64 CALLE CARBONELL", "amenity": "post_box", "collection_times": "Mo-Fr 16:00; Sa 12:15", "indoor": "yes", "note": "ON 12/24 AND 12/31, THIS BOX MAY BE COLLECTED AS EARLY AS 12 NOON.", "nsi_id": "unitedstatespostalservice-a77078", "operator": "United States Postal Service", "operator:short": "USPS", "operator:type": "public", "operator:wikidata": "Q668687", "ref": "0062300016"}, "type": "Feature"}
{"geometry": {"coordinates": [-66.7191254, 18.049775], "type": "Point"}, "id": "HMQo_PoBdFynjCOcpVlGfeRdKBE=", "properties": {"@source_uri": "https://tools.usps.com/UspsToolsRestServices/rest/POLocator/findLocations", "@spider": "usps_collection_boxes", "addr:city": "PE\u00b9UELAS", "addr:country": "US", "addr:postcode": "00624", "addr:state": "PR", "addr:street_address": "100 CARR 132", "amenity": "post_box", "collection_times": "Mo-Fr 15:00; Sa 08:15", "note": "ON 12/24 AND 12/31, THIS BOX MAY BE COLLECTED AS EARLY AS 12 NOON.", "nsi_id": "unitedstatespostalservice-a77078", "operator": "United States Postal Service", "operator:short": "USPS", "operator:type": "public", "operator:wikidata": "Q668687", "ref": "0062400001"}, "type": "Feature"}
{"geometry": {"coordinates": [-66.7189541, 18.046009], "type": "Point"}, "id": "Xd9NFF2DJz2CAch6I7BfRdl8PY4=", "properties": {"@source_uri": "https://tools.usps.com/UspsToolsRestServices/rest/POLocator/findLocations", "@spider": "usps_collection_boxes", "addr:city": "PE\u00b9UELAS", "addr:country": "US", "addr:postcode": "00624", "addr:state": "PR", "addr:street_address": "175 CARR 385", "amenity": "post_box", "collection_times": "Mo-Sa 08:15", "nsi_id": "unitedstatespostalservice-a77078", "operator": "United States Postal Service", "operator:short": "USPS", "operator:type": "public", "operator:wikidata": "Q668687", "ref": "0062400002"}, "type": "Feature"}
{"geometry": {"coordinates": [-66.72148078, 18.052840064], "type": "Point"}, "id": "ttfbPwJ2ojWPirq6wWf2cL4CSNw=", "properties": {"@source_uri": "https://tools.usps.com/UspsToolsRestServices/rest/POLocator/findLocations", "@spider": "usps_collection_boxes", "addr:city": "PE\u00b9UELAS", "addr:country": "US", "addr:postcode": "00624", "addr:state": "PR", "addr:street_address": "55 CALLE MUNOZ RIVERA", "amenity": "post_box", "collection_times": "Mo-Sa 08:15", "nsi_id": "unitedstatespostalservice-a77078", "operator": "United States Postal Service", "operator:short": "USPS", "operator:type": "public", "operator:wikidata": "Q668687", "ref": "0062400005"}, "type": "Feature"}
{"geometry": {"coordinates": [-66.7190729, 18.049495], "type": "Point"}, "id": "kTh5tfDl0Usk28idMhoBGKuiE7A=", "properties": {"@source_uri": "https://tools.usps.com/UspsToolsRestServices/rest/POLocator/findLocations", "@spider": "usps_collection_boxes", "addr:city": "PE\u00b9UELAS", "addr:country": "US", "addr:postcode": "00624", "addr:state": "PR", "addr:street_address": "100 CARR 132", "amenity": "post_box", "collection_times": "Mo-Fr 15:00; Sa 08:00", "indoor": "yes", "note": "ON 12/24 AND 12/31, THIS BOX MAY BE COLLECTED AS EARLY AS 12 NOON.", "nsi_id": "unitedstatespostalservice-a77078", "operator": "United States Postal Service", "operator:short": "USPS", "operator:type": "public", "operator:wikidata": "Q668687", "ref": "0062400006"}, "type": "Feature"}
{"geometry": {"coordinates": [-66.721482807, 18.052735254], "type": "Point"}, "id": "cUKYQZkjAeaR_NzdAQAd1V_Woas=", "properties": {"@source_uri": "https://tools.usps.com/UspsToolsRestServices/rest/POLocator/findLocations", "@spider": "usps_collection_boxes", "addr:city": "PE\u00b9UELAS", "addr:country": "US", "addr:postcode": "00624", "addr:state": "PR", "addr:street_address": "100 CARR 132", "amenity": "post_box", "collection_times": "Mo-Fr 16:30; Sa 12:15", "indoor": "yes", "note": "ON 12/24 AND 12/31, THIS BOX MAY BE COLLECTED AS EARLY AS 12 NOON.", "nsi_id": "unitedstatespostalservice-a77078", "operator": "United States Postal Service", "operator:short": "USPS", "operator:type": "public", "operator:wikidata": "Q668687", "ref": "0062400007"}, "type": "Feature"}
{"geometry": {"coordinates": [-66.8503856, 18.472915], "type": "Point"}, "id": "DX_A4k1DOi9Opf7gvIWuDIm_1pY=", "properties": {"@source_uri": "https://tools.usps.com/UspsToolsRestServices/rest/POLocator/findLocations", "@spider": "usps_collection_boxes", "addr:city": "CAMUY", "addr:country": "US", "addr:postcode": "00627", "addr:state": "PR", "addr:street_address": "1050 AVE INO ROMAN", "amenity": "post_box", "collection_times": "Mo-Sa 08:30", "nsi_id": "unitedstatespostalservice-a77078", "operator": "United States Postal Service", "operator:short": "USPS", "operator:type": "public", "operator:wikidata": "Q668687", "ref": "0062700001"}, "type": "Feature"}
{"geometry": {"coordinates": [-66.8491967, 18.484785], "type": "Point"}, "id": "FrCLO0nE2eCtcFOAnN_Q3letCqc=", "properties": {"@source_uri": "https://tools.usps.com/UspsToolsRestServices/rest/POLocator/findLocations", "@spider": "usps_collection_boxes", "addr:city": "CAMUY", "addr:country": "US", "addr:postcode": "00627", "addr:state": "PR", "addr:street_address": "2 CALLE CORREO", "amenity": "post_box", "collection_times": "Mo-Fr 15:00; Sa 08:30", "note": "ON 12/24 AND 12/31, THIS BOX MAY BE COLLECTED AS EARLY AS 12 NOON.", "nsi_id": "unitedstatespostalservice-a77078", "operator": "United States Postal Service", "operator:short": "USPS", "operator:type": "public", "operator:wikidata": "Q668687", "ref": "0062700002"}, "type": "Feature"}
{"geometry": {"coordinates": [-66.8477043, 18.486673], "type": "Point"}, "id": "1b5uBxQL8UIN6-BxnH0DzFA4zgg=", "properties": {"@source_uri": "https://tools.usps.com/UspsToolsRestServices/rest/POLocator/findLocations", "@spider": "usps_collection_boxes", "addr:city": "CAMUY", "addr:country": "US", "addr:postcode": "00627", "addr:state": "PR", "addr:street_address": "115 CALLE AMADOR OESTE", "amenity": "post_box", "collection_times": "Mo-Sa 08:30", "nsi_id": "unitedstatespostalservice-a77078", "operator": "United States Postal Service", "operator:short": "USPS", "operator:type": "public", "operator:wikidata": "Q668687", "ref": "0062700003"}, "type": "Feature"}
{"geometry": {"coordinates": [-66.8445305, 18.484721], "type": "Point"}, "id": "WZoP4h3TvwQMfpwxqs3OPGQUpAQ=", "properties": {"@source_uri": "https://tools.usps.com/UspsToolsRestServices/rest/POLocator/findLocations", "@spider": "usps_collection_boxes", "addr:city": "CAMUY", "addr:country": "US", "addr:postcode": "00627", "addr:state": "PR", "addr:street_address": "5 CALLE IGUINA E", "amenity": "post_box", "collection_times": "Mo-Sa 11:00", "nsi_id": "unitedstatespostalservice-a77078", "operator": "United States Postal Service", "operator:short": "USPS", "operator:type": "public", "operator:wikidata": "Q668687", "ref": "0062700004"}, "type": "Feature"}
{"geometry": {"coordinates": [-66.8491955, 18.484803], "type": "Point"}, "id": "B2JA2AixE8yS3AMHpyrtwLXc65g=", "properties": {"@source_uri": "https://tools.usps.com/UspsToolsRestServices/rest/POLocator/findLocations", "@spider": "usps_collection_boxes", "addr:city": "CAMUY", "addr:country": "US", "addr:postcode": "00627", "addr:state": "PR", "addr:street_address": "2 CALLE CORREO", "amenity": "post_box", "collection_times": "Mo-Fr 15:00; Sa 08:30", "indoor": "yes", "note": "ON 12/24 AND 12/31, THIS BOX MAY BE COLLECTED AS EARLY AS 12 NOON.", "nsi_id": "unitedstatespostalservice-a77078", "operator": "United States Postal Service", "operator:short": "USPS", "operator:type": "public", "operator:wikidata": "Q668687", "ref": "0062700005"}, "type": "Feature"}
{"geometry": {"coordinates": [-66.87545625, 18.480879], "type": "Point"}, "id": "F2kz_r3Kesgps1-1tBiGPe5J8Y4=", "properties": {"@source_uri": "https://tools.usps.com/UspsToolsRestServices/rest/POLocator/findLocations", "@spider": "usps_collection_boxes", "addr:city": "CAMUY", "addr:country": "US", "addr:postcode": "00627", "addr:state": "PR", "addr:street_address": "2 CALLE CORREO", "amenity": "post_box", "collection_times": "Mo-Fr 16:30; Sa 12:15", "indoor": "yes", "note": "ON 12/24 AND 12/31, THIS BOX MAY BE COLLECTED AS EARLY AS 12 NOON.", "nsi_id": "unitedstatespostalservice-a77078", "operator": "United States Postal Service", "operator:short": "USPS", "operator:type": "public", "operator:wikidata": "Q668687", "ref": "0062700006"}, "type": "Feature"}
{"geometry": {"coordinates": [-66.9608075, 18.076478], "type": "Point"}, "id": "narDoQX2bUbEEeS5GR2eVqC4xYE=", "properties": {"@source_uri": "https://tools.usps.com/UspsToolsRestServices/rest/POLocator/findLocations", "@spider": "usps_collection_boxes", "addr:city": "SABANA GRANDE", "addr:country": "US", "addr:postcode": "00637", "addr:state": "PR", "addr:street_address": "1 AVE VICENTE QUILINCHINI STE 4", "amenity": "post_box", "collection_times": "Mo-Fr 15:00; Sa 09:00", "note": "ON 12/24 AND 12/31, THIS BOX MAY BE COLLECTED AS EARLY AS 12 NOON.", "nsi_id": "unitedstatespostalservice-a77078", "operator": "United States Postal Service", "operator:short": "USPS", "operator:type": "public", "operator:wikidata": "Q668687", "ref": "0063700010"}, "type": "Feature"}
{"geometry": {"coordinates": [-66.9795947, 18.080829], "type": "Point"}, "id": "JpgIpA4ph_pvmBjk3Vi8D5QglIk=", "properties": {"@source_uri": "https://tools.usps.com/UspsToolsRestServices/rest/POLocator/findLocations", "@spider": "usps_collection_boxes", "addr:city": "SABANA GRANDE", "addr:country": "US", "addr:postcode": "00637", "addr:state": "PR", "addr:street_address": "301 AVE 5 DE DICIEMBRE", "amenity": "post_box", "collection_times": "Mo-Sa 08:30", "nsi_id": "unitedstatespostalservice-a77078", "operator": "United States Postal Service", "operator:short": "USPS", "operator:type": "public", "operator:wikidata": "Q668687", "ref": "0063700011"}, "type": "Feature"}
{"geometry": {"coordinates": [-66.9608296, 18.076382], "type": "Point"}, "id": "AOVz6hnLF9qr0K3Z05jIvBmAHVg=", "properties": {"@source_uri": "https://tools.usps.com/UspsToolsRestServices/rest/POLocator/findLocations", "@spider": "usps_collection_boxes", "addr:city": "SABANA GRANDE", "addr:country": "US", "addr:postcode": "00637", "addr:state": "PR", "addr:street_address": "1 AVE VICENTE QUILINCHINI STE 4", "amenity": "post_box", "collection_times": "Mo-Fr 15:00; Sa 09:00", "indoor": "yes", "note": "ON 12/24 AND 12/31, THIS BOX MAY BE COLLECTED AS EARLY AS 12 NOON.", "nsi_id": "unitedstatespostalservice-a77078", "operator": "United States Postal Service", "operator:short": "USPS", "operator:type": "public", "operator:wikidata": "Q668687", "ref": "0063700012"}, "type": "Feature"}
{"geometry": {"coordinates": [-66.9602017, 18.0799759], "type": "Point"}, "id": "2-iP8-Ta-ooxMV1npcGVAB5ygEc=", "properties": {"@source_uri": "https://tools.usps.com/UspsToolsRestServices/rest/POLocator/findLocations", "@spider": "usps_collection_boxes", "addr:city": "SABANA GRANDE", "addr:country": "US", "addr:postcode": "00637", "addr:state": "PR", "addr:street_address": "1 AVE VICENTE QUILINCHINI STE 4", "amenity": "post_box", "collection_times": "Mo-Fr 16:00; Sa 12:15", "indoor": "yes", "note": "ON 12/24 AND 12/31, THIS BOX MAY BE COLLECTED AS EARLY AS 12 NOON.", "nsi_id": "unitedstatespostalservice-a77078", "operator": "United States Postal Service", "operator:short": "USPS", "operator:type": "public", "operator:wikidata": "Q668687", "ref": "0063700013"}, "type": "Feature"}
{"geometry": {"coordinates": [-66.4686770022, 18.3338369794], "type": "Point"}, "id": "ICKpgMWRptGttnJ0jMBkobZd8F8=", "properties": {"@source_uri": "https://tools.usps.com/UspsToolsRestServices/rest/POLocator/findLocations", "@spider": "usps_collection_boxes", "addr:city": "CIALES", "addr:country": "US", "addr:postcode": "00638", "addr:state": "PR", "addr:street_address": "50 CALLE PALMER", "amenity": "post_box", "collection_times": "Mo-Sa 09:00", "nsi_id": "unitedstatespostalservice-a77078", "operator": "United States Postal Service", "operator:short": "USPS", "operator:type": "public", "operator:wikidata": "Q668687", "ref": "0063800001"}, "type": "Feature"}
{"geometry": {"coordinates": [-66.4672009, 18.345736], "type": "Point"}, "id": "tz-xhVnurBOrhwNId_841fgQlcc=", "properties": {"@source_uri": "https://tools.usps.com/UspsToolsRestServices/rest/POLocator/findLocations", "@spider": "usps_collection_boxes", "addr:city": "CIALES", "addr:country": "US", "addr:postcode": "00638", "addr:state": "PR", "addr:street_address": "25 CARR 149", "amenity": "post_box", "collection_times": "Mo-Fr 15:00; Sa 08:30", "note": "ON 12/24 AND 12/31, THIS BOX MAY BE COLLECTED AS EARLY AS 12 NOON.", "nsi_id": "unitedstatespostalservice-a77078", "operator": "United States Postal Service", "operator:short": "USPS", "operator:type": "public", "operator:wikidata": "Q668687", "ref": "0063800004"}, "type": "Feature"}
{"geometry": {"coordinates": [-66.4676007, 18.345476], "type": "Point"}, "id": "4rTTLDt-wTu7E62Yz1kmKLw51FE=", "properties": {"@source_uri": "https://tools.usps.com/UspsToolsRestServices/rest/POLocator/findLocations", "@spider": "usps_collection_boxes", "addr:city": "CIALES", "addr:country": "US", "addr:postcode": "00638", "addr:state": "PR", "addr:street_address": "25 CARR 149", "amenity": "post_box", "collection_times": "Mo-Fr 15:00; Sa 08:30", "indoor": "yes", "note": "ON 12/24 AND 12/31, THIS BOX MAY BE COLLECTED AS EARLY AS 12 NOON.", "nsi_id": "unitedstatespostalservice-a77078", "operator": "United States Postal Service", "operator:short": "USPS", "operator:type": "public", "operator:wikidata": "Q668687", "ref": "0063800005"}, "type": "Feature"}
{"geometry": {"coordinates": [-66.467932454, 18.336078587], "type": "Point"}, "id": "1zzxB7-VxJsUpXvdXH_xzr_LDhg=", "properties": {"@source_uri": "https://tools.usps.com/UspsToolsRestServices/rest/POLocator/findLocations", "@spider": "usps_collection_boxes", "addr:city": "CIALES", "addr:country": "US", "addr:postcode": "00638", "addr:state": "PR", "addr:street_address": "25 CARR 149", "amenity": "post_box", "collection_times": "Mo-Fr 16:30; Sa 12:15", "indoor": "yes", "note": "ON 12/24 AND 12/31, THIS BOX MAY BE COLLECTED AS EARLY AS 12 NOON.", "nsi_id": "unitedstatespostalservice-a77078", "operator": "United States Postal Service", "operator:short": "USPS", "operator:type": "public", "operator:wikidata": "Q668687", "ref": "0063800006"}, "type": "Feature"}
{"geometry": {"coordinates": [-66.6963938, 18.268399], "type": "Point"}, "id": "wqoUxM8z-kcg3fGtqSrDrI6jt2U=", "properties": {"@source_uri": "https://tools.usps.com/UspsToolsRestServices/rest/POLocator/findLocations", "@spider": "usps_collection_boxes", "addr:city": "UTUADO", "addr:country": "US", "addr:postcode": "00641", "addr:state": "PR", "addr:street_address": "41 AVE FERNANDO L RIBAS", "amenity": "post_box", "collection_times": "Mo-Fr 15:00; Sa 08:30", "note": "ON 12/24 AND 12/31, THIS BOX MAY BE COLLECTED AS EARLY AS 12 NOON.", "nsi_id": "unitedstatespostalservice-a77078", "operator": "United States Postal Service", "operator:short": "USPS", "operator:type": "public", "operator:wikidata": "Q668687", "ref": "0064100001"}, "type": "Feature"}
{"geometry": {"coordinates": [-66.7003878, 18.265604], "type": "Point"}, "id": "4iaxjPfvkOcOKJPpDFpXd2-llZ4=", "properties": {"@source_uri": "https://tools.usps.com/UspsToolsRestServices/rest/POLocator/findLocations", "@spider": "usps_collection_boxes", "addr:city": "UTUADO", "addr:country": "US", "addr:postcode": "00641", "addr:state": "PR", "addr:street_address": "27 CALLE BARCELO", "amenity": "post_box", "collection_times": "Mo-Sa 08:30", "nsi_id": "unitedstatespostalservice-a77078", "operator": "United States Postal Service", "operator:short": "USPS", "operator:type": "public", "operator:wikidata": "Q668687", "ref": "0064100002"}, "type": "Feature"}
{"geometry": {"coordinates": [-66.7116324, 18.269082], "type": "Point"}, "id": "GEOiKmLtbR3lpLyzcju86_8r2R4=", "properties": {"@source_uri": "https://tools.usps.com/UspsToolsRestServices/rest/POLocator/findLocations", "@spider": "usps_collection_boxes", "addr:city": "UTUADO", "addr:country": "US", "addr:postcode": "00641", "addr:state": "PR", "addr:street_address": "940 CARR 123", "amenity": "post_box", "collection_times": "Mo-Sa 08:30", "nsi_id": "unitedstatespostalservice-a77078", "operator": "United States Postal Service", "operator:short": "USPS", "operator:type": "public", "operator:wikidata": "Q668687", "ref": "0064100005"}, "type": "Feature"}
{"geometry": {"coordinates": [-66.6985074, 18.26512], "type": "Point"}, "id": "F-VfIbhegOLELXRplFj03suz4lE=", "properties": {"@source_uri": "https://tools.usps.com/UspsToolsRestServices/rest/POLocator/findLocations", "@spider": "usps_collection_boxes", "addr:city": "UTUADO", "addr:country": "US", "addr:postcode": "00641", "addr:state": "PR", "addr:street_address": "3 CALLE PEREZ SOTO", "amenity": "post_box", "collection_times": "Mo-Sa 08:30", "nsi_id": "unitedstatespostalservice-a77078", "operator": "United States Postal Service", "operator:short": "USPS", "operator:type": "public", "operator:wikidata": "Q668687", "ref": "0064100006"}, "type": "Feature"}
{"geometry": {"coordinates": [-66.7037161839, 18.2660433964], "type": "Point"}, "id": "wztnn-faIRXE7vOZEyFqtco9zug=", "properties": {"@source_uri": "https://tools.usps.com/UspsToolsRestServices/rest/POLocator/findLocations", "@spider": "usps_collection_boxes", "addr:city": "UTUADO", "addr:country": "US", "addr:postcode": "00641", "addr:state": "PR", "addr:street_address": "91 CALLE DR CUETO", "amenity": "post_box", "collection_times": "Mo-Fr 12:00; Sa 11:00", "nsi_id": "unitedstatespostalservice-a77078", "operator": "United States Postal Service", "operator:short": "USPS", "operator:type": "public", "operator:wikidata": "Q668687", "ref": "0064100007"}, "type": "Feature"}
{"geometry": {"coordinates": [-66.6964865, 18.268373], "type": "Point"}, "id": "Z9b_tFemBMHTf3g54LFDS0joqP4=", "properties": {"@source_uri": "https://tools.usps.com/UspsToolsRestServices/rest/POLocator/findLocations", "@spider": "usps_collection_boxes", "addr:city": "UTUADO", "addr:country": "US", "addr:postcode": "00641", "addr:state": "PR", "addr:street_address": "41 AVE FERNANDO L RIBAS", "amenity": "post_box", "collection_times": "Mo-Fr 15:00; Sa 08:30", "indoor": "yes", "note": "ON 12/24 AND 12/31, THIS BOX MAY BE COLLECTED AS EARLY AS 12 NOON.", "nsi_id": "unitedstatespostalservice-a77078", "operator": "United States Postal Service", "operator:short": "USPS", "operator:type": "public", "operator:wikidata": "Q668687", "ref": "0064100008"}, "type": "Feature"}
{"geometry": {"coordinates": [-66.6964935, 18.268551], "type": "Point"}, "id": "UbHAWg07rhxQCykQY4DRwqNfCZ8=", "properties": {"@source_uri": "https://tools.usps.com/UspsToolsRestServices/rest/POLocator/findLocations", "@spider": "usps_collection_boxes", "addr:city": "UTUADO", "addr:country": "US", "addr:postcode": "00641", "addr:state": "PR", "addr:street_address": "41 AVE FERNANDO L RIBAS", "amenity": "post_box", "collection_times": "Mo-Fr 16:30; Sa 12:15", "indoor": "yes", "note": "ON 12/24 AND 12/31, THIS BOX MAY BE COLLECTED AS EARLY AS 12 NOON.", "nsi_id": "unitedstatespostalservice-a77078", "operator": "United States Postal Service", "operator:short": "USPS", "operator:type": "public", "operator:wikidata": "Q668687", "ref": "0064100009"}, "type": "Feature"}
{"geometry": {"coordinates": [-66.269901, 18.462525], "type": "Point"}, "id": "sm7o-Z6Wkq7WNu-sij3qqPFWmCo=", "properties": {"@source_uri": "https://tools.usps.com/UspsToolsRestServices/rest/POLocator/findLocations", "@spider": "usps_collection_boxes", "addr:city": "DORADO", "addr:country": "US", "addr:postcode": "00646", "addr:state": "PR", "addr:street_address": "100 CARR 698", "amenity": "post_box", "collection_times": "Mo-Fr 17:00; Sa 13:00", "note": "ON 12/24 AND 12/31, THIS BOX MAY BE COLLECTED AS EARLY AS 12 NOON.", "nsi_id": "unitedstatespostalservice-a77078", "operator": "United States Postal Service", "operator:short": "USPS", "operator:type": "public", "operator:wikidata": "Q668687", "ref": "0064600001"}, "type": "Feature"}
{"geometry": {"coordinates": [-66.2725088, 18.462468], "type": "Point"}, "id": "PZFX5wT3GKbyVXxQ2zEaAlz3oVo=", "properties": {"@source_uri": "https://tools.usps.com/UspsToolsRestServices/rest/POLocator/findLocations", "@spider": "usps_collection_boxes", "addr:city": "DORADO", "addr:country": "US", "addr:postcode": "00646", "addr:state": "PR", "addr:street_address": "1 CARR 696", "amenity": "post_box", "collection_times": "Mo-Sa 08:00", "nsi_id": "unitedstatespostalservice-a77078", "operator": "United States Postal Service", "operator:short": "USPS", "operator:type": "public", "operator:wikidata": "Q668687", "ref": "0064600007"}, "type": "Feature"}
{"geometry": {"coordinates": [-66.2624284, 18.460053], "type": "Point"}, "id": "vaU7Pjjp8Yrio-JJA-rF9u9iURQ=", "properties": {"@source_uri": "https://tools.usps.com/UspsToolsRestServices/rest/POLocator/findLocations", "@spider": "usps_collection_boxes", "addr:city": "DORADO", "addr:country": "US", "addr:postcode": "00646", "addr:state": "PR", "addr:street_address": "202 CALLE NORTE", "amenity": "post_box", "collection_times": "Mo-Sa 12:00", "nsi_id": "unitedstatespostalservice-a77078", "operator": "United States Postal Service", "operator:short": "USPS", "operator:type": "public", "operator:wikidata": "Q668687", "ref": "0064600010"}, "type": "Feature"}
{"geometry": {"coordinates": [-66.2766249, 18.4482231], "type": "Point"}, "id": "XdxBUQe-2TqYb0dgLAPrNsSAFtk=", "properties": {"@source_uri": "https://tools.usps.com/UspsToolsRestServices/rest/POLocator/findLocations", "@spider": "usps_collection_boxes", "addr:city": "DORADO", "addr:country": "US", "addr:postcode": "00646", "addr:state": "PR", "addr:street_address": "618 AVE JOSE EFRON", "amenity": "post_box", "collection_times": "Mo-Fr 17:00; Sa 13:00", "indoor": "yes", "note": "ON 12/24 AND 12/31, THIS BOX MAY BE COLLECTED AS EARLY AS 12 NOON.", "nsi_id": "unitedstatespostalservice-a77078", "operator": "United States Postal Service", "operator:short": "USPS", "operator:type": "public", "operator:wikidata": "Q668687", "ref": "0064600013"}, "type": "Feature"}
{"geometry": {"coordinates": [-66.2766249, 18.4482231], "type": "Point"}, "id": "YYDlybVSNQBiVEV0ZYvOnjvqqmA=", "properties": {"@source_uri": "https://tools.usps.com/UspsToolsRestServices/rest/POLocator/findLocations", "@spider": "usps_collection_boxes", "addr:city": "DORADO", "addr:country": "US", "addr:postcode": "00646", "addr:state": "PR", "addr:street_address": "618 AVE JOSE EFRON", "amenity": "post_box", "collection_times": "Mo-Fr 16:45; Sa 12:15", "indoor": "yes", "note": "ON 12/24 AND 12/31, THIS BOX MAY BE COLLECTED AS EARLY AS 12 NOON.", "nsi_id": "unitedstatespostalservice-a77078", "operator": "United States Postal Service", "operator:short": "USPS", "operator:type": "public", "operator:wikidata": "Q668687", "ref": "0064600014"}, "type": "Feature"}
{"geometry": {"coordinates": [-66.9319169628, 17.9686900126], "type": "Point"}, "id": "kIgIIH-pfswqsvW8mYO-4H2TvXI=", "properties": {"@source_uri": "https://tools.usps.com/UspsToolsRestServices/rest/POLocator/findLocations", "@spider": "usps_collection_boxes", "addr:city": "ENSENADA", "addr:country": "US", "addr:postcode": "00647", "addr:state": "PR", "addr:street_address": "6 CALLE SEGUNDA SUR", "amenity": "post_box", "collection_times": "Mo-Fr 15:00; Sa 08:30", "note": "ON 12/24 AND 12/31, THIS BOX MAY BE COLLECTED AS EARLY AS 12 NOON.", "nsi_id": "unitedstatespostalservice-a77078", "operator": "United States Postal Service", "operator:short": "USPS", "operator:type": "public", "operator:wikidata": "Q668687", "ref": "0064700005"}, "type": "Feature"}
{"geometry": {"coordinates": [-66.9319169628, 17.9686900126], "type": "Point"}, "id": "nmm9wlDIEWywEYs2n8K3hUtGiZw=", "properties": {"@source_uri": "https://tools.usps.com/UspsToolsRestServices/rest/POLocator/findLocations", "@spider": "usps_collection_boxes", "addr:city": "ENSENADA", "addr:country": "US", "addr:postcode": "00647", "addr:state": "PR", "addr:street_address": "6 CALLE SEGUNDA SUR", "amenity": "post_box", "collection_times": "Mo-Fr 15:00; Sa 08:30", "indoor": "yes", "note": "ON 12/24 AND 12/31, THIS BOX MAY BE COLLECTED AS EARLY AS 12 NOON.", "nsi_id": "unitedstatespostalservice-a77078", "operator": "United States Postal Service", "operator:short": "USPS", "operator:type": "public", "operator:wikidata": "Q668687", "ref": "0064700006"}, "type": "Feature"}
{"geometry": {"coordinates": [-66.9319169628, 17.9686900126], "type": "Point"}, "id": "7L0tE1jjgXZfLHEA5mGQCMHDTwI=", "properties": {"@source_uri": "https://tools.usps.com/UspsToolsRestServices/rest/POLocator/findLocations", "@spider": "usps_collection_boxes", "addr:city": "ENSENADA", "addr:country": "US", "addr:postcode": "00647", "addr:state": "PR", "addr:street_address": "6 CALLE SEGUNDA SUR", "amenity": "post_box", "collection_times": "Mo-Fr 15:30; Sa 12:00", "indoor": "yes", "note": "ON 12/24 AND 12/31, THIS BOX MAY BE COLLECTED AS EARLY AS 12 NOON.", "nsi_id": "unitedstatespostalservice-a77078", "operator": "United States Postal Service", "operator:short": "USPS", "operator:type": "public", "operator:wikidata": "Q668687", "ref": "0064700007"}, "type": "Feature"}
{"geometry": {"coordinates": [-66.5695785, 18.363323], "type": "Point"}, "id": "c1jqBFX27o3P_GBJ83NAeZqa-gs=", "properties": {"@source_uri": "https://tools.usps.com/UspsToolsRestServices/rest/POLocator/findLocations", "@spider": "usps_collection_boxes", "addr:city": "FLORIDA", "addr:country": "US", "addr:postcode": "00650", "addr:state": "PR", "addr:street_address": "66 CALLE MUNOZ RIVERA", "amenity": "post_box", "collection_times": "Mo-Fr 15:00; Sa 08:30", "note": "ON 12/24 AND 12/31, THIS BOX MAY BE COLLECTED AS EARLY AS 12 NOON.", "nsi_id": "unitedstatespostalservice-a77078", "operator": "United States Postal Service", "operator:short": "USPS", "operator:type": "public", "operator:wikidata": "Q668687", "ref": "0065000004"}, "type": "Feature"}
{"geometry": {"coordinates": [-66.569811, 18.363309], "type": "Point"}, "id": "JTx5sSlrgBmxsMbM6Y0i6vzXfpA=", "properties": {"@source_uri": "https://tools.usps.com/UspsToolsRestServices/rest/POLocator/findLocations", "@spider": "usps_collection_boxes", "addr:city": "FLORIDA", "addr:country": "US", "addr:postcode": "00650", "addr:state": "PR", "addr:street_address": "66 CALLE MUNOZ RIVERA", "amenity": "post_box", "collection_times": "Mo-Fr 15:00; Sa 08:30", "indoor": "yes", "note": "ON 12/24 AND 12/31, THIS BOX MAY BE COLLECTED AS EARLY AS 12 NOON.", "nsi_id": "unitedstatespostalservice-a77078", "operator": "United States Postal Service", "operator:short": "USPS", "operator:type": "public", "operator:wikidata": "Q668687", "ref": "0065000005"}, "type": "Feature"}
{"geometry": {"coordinates": [-66.569632699, 18.363143995], "type": "Point"}, "id": "-7m3zYpbvljCkXdH5nBCn4x9Szo=", "properties": {"@source_uri": "https://tools.usps.com/UspsToolsRestServices/rest/POLocator/findLocations", "@spider": "usps_collection_boxes", "addr:city": "FLORIDA", "addr:country": "US", "addr:postcode": "00650", "addr:state": "PR", "addr:street_address": "66 CALLE MUNOZ RIVERA", "amenity": "post_box", "collection_times": "Mo-Fr 16:30; Sa 12:15", "indoor": "yes", "note": "ON 12/24 AND 12/31, THIS BOX MAY BE COLLECTED AS EARLY AS 12 NOON.", "nsi_id": "unitedstatespostalservice-a77078", "operator": "United States Postal Service", "operator:short": "USPS", "operator:type": "public", "operator:wikidata": "Q668687", "ref": "0065000006"}, "type": "Feature"}
{"geometry": {"coordinates": [-66.613009, 18.458075], "type": "Point"}, "id": "m2oYPI4nr4UDQjSzSVCA6i9JtPQ=", "properties": {"@source_uri": "https://tools.usps.com/UspsToolsRestServices/rest/POLocator/findLocations", "@spider": "usps_collection_boxes", "addr:city": "GARROCHALES", "addr:country": "US", "addr:postcode": "00652", "addr:state": "PR", "addr:street_address": "100 CARR 682", "amenity": "post_box", "collection_times": "Mo-Fr 15:00; Sa 08:00", "note": "ON 12/24 AND 12/31, THIS BOX MAY BE COLLECTED AS EARLY AS 12 NOON.", "nsi_id": "unitedstatespostalservice-a77078", "operator": "United States Postal Service", "operator:short": "USPS", "operator:type": "public", "operator:wikidata": "Q668687", "ref": "0065200001"}, "type": "Feature"}
{"geometry": {"coordinates": [-66.613009, 18.458075], "type": "Point"}, "id": "gpiBlWcg5rSlT8RWaCtrU4pvRB4=", "properties": {"@source_uri": "https://tools.usps.com/UspsToolsRestServices/rest/POLocator/findLocations", "@spider": "usps_collection_boxes", "addr:city": "GARROCHALES", "addr:country": "US", "addr:postcode": "00652", "addr:state": "PR", "addr:street_address": "100 CARR 682", "amenity": "post_box", "collection_times": "Mo-Fr 15:00; Sa 08:00", "indoor": "yes", "note": "ON 12/24 AND 12/31, THIS BOX MAY BE COLLECTED AS EARLY AS 12 NOON.", "nsi_id": "unitedstatespostalservice-a77078", "operator": "United States Postal Service", "operator:short": "USPS", "operator:type": "public", "operator:wikidata": "Q668687", "ref": "0065200002"}, "type": "Feature"}
{"geometry": {"coordinates": [-66.605463434, 18.457370476], "type": "Point"}, "id": "r9yaO0dKIWwGwBF8NpGRL-Re7-U=", "properties": {"@source_uri": "https://tools.usps.com/UspsToolsRestServices/rest/POLocator/findLocations", "@spider": "usps_collection_boxes", "addr:city": "GARROCHALES", "addr:country": "US", "addr:postcode": "00652", "addr:state": "PR", "addr:street_address": "100 CARR 682", "amenity": "post_box", "collection_times": "Mo-Fr 16:15; Sa 12:00", "indoor": "yes", "note": "ON 12/24 AND 12/31, THIS BOX MAY BE COLLECTED AS EARLY AS 12 NOON.", "nsi_id": "unitedstatespostalservice-a77078", "operator": "United States Postal Service", "operator:short": "USPS", "operator:type": "public", "operator:wikidata": "Q668687", "ref": "0065200003"}, "type": "Feature"}
{"geometry": {"coordinates": [-66.9071031, 17.971484], "type": "Point"}, "id": "dgJUYSG-A6MbNujwH9K2dNm1tyc=", "properties": {"@source_uri": "https://tools.usps.com/UspsToolsRestServices/rest/POLocator/findLocations", "@spider": "usps_collection_boxes", "addr:city": "GUANICA", "addr:country": "US", "addr:postcode": "00653", "addr:state": "PR", "addr:street_address": "39 CALLE 13 DE MARZO", "amenity": "post_box", "collection_times": "Mo-Fr 15:00; Sa 08:30", "note": "ON 12/24 AND 12/31, THIS BOX MAY BE COLLECTED AS EARLY AS 12 NOON.", "nsi_id": "unitedstatespostalservice-a77078", "operator": "United States Postal Service", "operator:short": "USPS", "operator:type": "public", "operator:wikidata": "Q668687", "ref": "0065300006"}, "type": "Feature"}
{"geometry": {"coordinates": [-66.9070214, 17.971533], "type": "Point"}, "id": "MzOfoaUI9hux6dkMr3z7h4zAtyU=", "properties": {"@source_uri": "https://tools.usps.com/UspsToolsRestServices/rest/POLocator/findLocations", "@spider": "usps_collection_boxes", "addr:city": "GUANICA", "addr:country": "US", "addr:postcode": "00653", "addr:state": "PR", "addr:street_address": "39 CALLE 13 DE MARZO", "amenity": "post_box", "collection_times": "Mo-Fr 15:00; Sa 08:30", "indoor": "yes", "note": "ON 12/24 AND 12/31, THIS BOX MAY BE COLLECTED AS EARLY AS 12 NOON.", "nsi_id": "unitedstatespostalservice-a77078", "operator": "United States Postal Service", "operator:short": "USPS", "operator:type": "public", "operator:wikidata": "Q668687", "ref": "0065300007"}, "type": "Feature"}
{"geometry": {"coordinates": [-66.907019824, 17.971462424], "type": "Point"}, "id": "mJBkjIgmiDrODlBDodclWdPMvPs=", "properties": {"@source_uri": "https://tools.usps.com/UspsToolsRestServices/rest/POLocator/findLocations", "@spider": "usps_collection_boxes", "addr:city": "GUANICA", "addr:country": "US", "addr:postcode": "00653", "addr:state": "PR", "addr:street_address": "39 CALLE 13 DE MARZO", "amenity": "post_box", "collection_times": "Mo-Fr 16:15; Sa 12:00", "indoor": "yes", "note": "ON 12/24 AND 12/31, THIS BOX MAY BE COLLECTED AS EARLY AS 12 NOON.", "nsi_id": "unitedstatespostalservice-a77078", "operator": "United States Postal Service", "operator:short": "USPS", "operator:type": "public", "operator:wikidata": "Q668687", "ref": "0065300008"}, "type": "Feature"}
{"geometry": {"coordinates": [-66.7934215, 18.024829], "type": "Point"}, "id": "8k0RS3HFk1VsieXibM7NEe29QvU=", "properties": {"@source_uri": "https://tools.usps.com/UspsToolsRestServices/rest/POLocator/findLocations", "@spider": "usps_collection_boxes", "addr:city": "GUAYANILLA", "addr:country": "US", "addr:postcode": "00656", "addr:state": "PR", "addr:street_address": "B1 CALLE ORQUIDEA", "amenity": "post_box", "collection_times": "Mo-Sa 08:00", "nsi_id": "unitedstatespostalservice-a77078", "operator": "United States Postal Service", "operator:short": "USPS", "operator:type": "public", "operator:wikidata": "Q668687", "ref": "0065600002"}, "type": "Feature"}
{"geometry": {"coordinates": [-66.7952719, 18.02887], "type": "Point"}, "id": "wuEXW3LyufaKucPu0hukMmmFwM8=", "properties": {"@source_uri": "https://tools.usps.com/UspsToolsRestServices/rest/POLocator/findLocations", "@spider": "usps_collection_boxes", "addr:city": "GUAYANILLA", "addr:country": "US", "addr:postcode": "00656", "addr:state": "PR", "addr:street_address": "D1A HACIENDA LA GLORIA", "amenity": "post_box", "collection_times": "Mo-Sa 08:00", "nsi_id": "unitedstatespostalservice-a77078", "operator": "United States Postal Service", "operator:short": "USPS", "operator:type": "public", "operator:wikidata": "Q668687", "ref": "0065600003"}, "type": "Feature"}
{"geometry": {"coordinates": [-66.7908518, 18.018075], "type": "Point"}, "id": "4DbTZGLliIUZKSgn29DvGkdbuhs=", "properties": {"@source_uri": "https://tools.usps.com/UspsToolsRestServices/rest/POLocator/findLocations", "@spider": "usps_collection_boxes", "addr:city": "GUAYANILLA", "addr:country": "US", "addr:postcode": "00656", "addr:state": "PR", "addr:street_address": "109 CALLE LUIS MUNOZ RIVERA", "amenity": "post_box", "collection_times": "Mo-Sa 08:30", "nsi_id": "unitedstatespostalservice-a77078", "operator": "United States Postal Service", "operator:short": "USPS", "operator:type": "public", "operator:wikidata": "Q668687", "ref": "0065600005"}, "type": "Feature"}
{"geometry": {"coordinates": [-66.7975894, 18.030696], "type": "Point"}, "id": "TJ0Wl6fRHU2UNmNH6kWCiWfKJ6s=", "properties": {"@source_uri": "https://tools.usps.com/UspsToolsRestServices/rest/POLocator/findLocations", "@spider": "usps_collection_boxes", "addr:city": "GUAYANILLA", "addr:country": "US", "addr:postcode": "00656", "addr:state": "PR", "addr:street_address": "285 CALLE LUIS MUNOZ RIVERA", "amenity": "post_box", "collection_times": "Mo-Fr 15:00; Sa 08:30", "note": "ON 12/24 AND 12/31, THIS BOX MAY BE COLLECTED AS EARLY AS 12 NOON.", "nsi_id": "unitedstatespostalservice-a77078", "operator": "United States Postal Service", "operator:short": "USPS", "operator:type": "public", "operator:wikidata": "Q668687", "ref": "0065600006"}, "type": "Feature"}
{"geometry": {"coordinates": [-66.7972699, 18.030956], "type": "Point"}, "id": "b8fJqo-MhpaPWJWl4n_dZDHtjio=", "properties": {"@source_uri": "https://tools.usps.com/UspsToolsRestServices/rest/POLocator/findLocations", "@spider": "usps_collection_boxes", "addr:city": "GUAYANILLA", "addr:country": "US", "addr:postcode": "00656", "addr:state": "PR", "addr:street_address": "285 CALLE LUIS MUNOZ RIVERA", "amenity": "post_box", "collection_times": "Mo-Fr 15:00; Sa 08:00", "indoor": "yes", "note": "ON 12/24 AND 12/31, THIS BOX MAY BE COLLECTED AS EARLY AS 12 NOON.", "nsi_id": "unitedstatespostalservice-a77078", "operator": "United States Postal Service", "operator:short": "USPS", "operator:type": "public", "operator:wikidata": "Q668687", "ref": "0065600007"}, "type": "Feature"}
{"geometry": {"coordinates": [-66.797243587, 18.030262913], "type": "Point"}, "id": "A3V2KS3OZj3lGWcPWiIOkoOmwvY=", "properties": {"@source_uri": "https://tools.usps.com/UspsToolsRestServices/rest/POLocator/findLocations", "@spider": "usps_collection_boxes", "addr:city": "GUAYANILLA", "addr:country": "US", "addr:postcode": "00656", "addr:state": "PR", "addr:street_address": "285 CALLE LUIS MUNOZ RIVERA", "amenity": "post_box", "collection_times": "Mo-Fr 16:00; Sa 12:00", "indoor": "yes", "note": "ON 12/24 AND 12/31, THIS BOX MAY BE COLLECTED AS EARLY AS 12 NOON.", "nsi_id": "unitedstatespostalservice-a77078", "operator": "United States Postal Service", "operator:short": "USPS", "operator:type": "public", "operator:wikidata": "Q668687", "ref": "0065600008"}, "type": "Feature"}
{"geometry": {"coordinates": [-66.7701670186, 18.4802490047], "type": "Point"}, "id": "9huN8BpRBixmWLXKFaAKp5hR__8=", "properties": {"@source_uri": "https://tools.usps.com/UspsToolsRestServices/rest/POLocator/findLocations", "@spider": "usps_collection_boxes", "addr:city": "HATILLO", "addr:country": "US", "addr:postcode": "00659", "addr:state": "PR", "addr:street_address": "506 CALLE TRUNCADO", "amenity": "post_box", "collection_times": "Mo-Sa 08:45", "nsi_id": "unitedstatespostalservice-a77078", "operator": "United States Postal Service", "operator:short": "USPS", "operator:type": "public", "operator:wikidata": "Q668687", "ref": "0065900002"}, "type": "Feature"}
{"geometry": {"coordinates": [-66.787803926, 18.487988915], "type": "Point"}, "id": "8M9MmyIySqw4G8-z3MlEueNQdM0=", "properties": {"@source_uri": "https://tools.usps.com/UspsToolsRestServices/rest/POLocator/findLocations", "@spider": "usps_collection_boxes", "addr:city": "HATILLO", "addr:country": "US", "addr:postcode": "00659", "addr:state": "PR", "addr:street_address": "381 CARR 2", "amenity": "post_box", "collection_times": "Mo-Sa 08:45", "nsi_id": "unitedstatespostalservice-a77078", "operator": "United States Postal Service", "operator:short": "USPS", "operator:type": "public", "operator:wikidata": "Q668687", "ref": "0065900004"}, "type": "Feature"}
{"geometry": {"coordinates": [-66.8194186, 18.488383], "type": "Point"}, "id": "9Re1B6wRMyUVz-VsfZEQ_hkZXfU=", "properties": {"@source_uri": "https://tools.usps.com/UspsToolsRestServices/rest/POLocator/findLocations", "@spider": "usps_collection_boxes", "addr:city": "HATILLO", "addr:country": "US", "addr:postcode": "00659", "addr:state": "PR", "addr:street_address": "192 AVE DR SUSONI", "amenity": "post_box", "collection_times": "Mo-Fr 15:00; Sa 08:45", "note": "ON 12/24 AND 12/31, THIS BOX MAY BE COLLECTED AS EARLY AS 12 NOON.", "nsi_id": "unitedstatespostalservice-a77078", "operator": "United States Postal Service", "operator:short": "USPS", "operator:type": "public", "operator:wikidata": "Q668687", "ref": "0065900006"}, "type": "Feature"}
{"geometry": {"coordinates": [-66.8195465, 18.488164], "type": "Point"}, "id": "GwfbPPeAky7FGrIRgkgfmBNeDo8=", "properties": {"@source_uri": "https://tools.usps.com/UspsToolsRestServices/rest/POLocator/findLocations", "@spider": "usps_collection_boxes", "addr:city": "HATILLO", "addr:country": "US", "addr:postcode": "00659", "addr:state": "PR", "addr:street_address": "192 AVE DR SUSONI", "amenity": "post_box", "collection_times": "Mo-Fr 15:00; Sa 08:45", "indoor": "yes", "note": "ON 12/24 AND 12/31, THIS BOX MAY BE COLLECTED AS EARLY AS 12 NOON.", "nsi_id": "unitedstatespostalservice-a77078", "operator": "United States Postal Service", "operator:short": "USPS", "operator:type": "public", "operator:wikidata": "Q668687", "ref": "0065900007"}, "type": "Feature"}
{"geometry": {"coordinates": [-66.819509686, 18.488384594], "type": "Point"}, "id": "DlNGHG_2wrqPl7-uxnRhMoOxTgI=", "properties": {"@source_uri": "https://tools.usps.com/UspsToolsRestServices/rest/POLocator/findLocations", "@spider": "usps_collection_boxes", "addr:city": "HATILLO", "addr:country": "US", "addr:postcode": "00659", "addr:state": "PR", "addr:street_address": "192 AVE DR SUSONI", "amenity": "post_box", "collection_times": "Mo-Fr 16:15; Sa 12:15", "indoor": "yes", "note": "ON 12/24 AND 12/31, THIS BOX MAY BE COLLECTED AS EARLY AS 12 NOON.", "nsi_id": "unitedstatespostalservice-a77078", "operator": "United States Postal Service", "operator:short": "USPS", "operator:type": "public", "operator:wikidata": "Q668687", "ref": "0065900008"}, "type": "Feature"}
{"geometry": {"coordinates": [-67.1133538, 18.13316], "type": "Point"}, "id": "jTvmYyl2J_MwGpq1kPHQfq7mFC4=", "properties": {"@source_uri": "https://tools.usps.com/UspsToolsRestServices/rest/POLocator/findLocations", "@spider": "usps_collection_boxes", "addr:city": "HORMIGUEROS", "addr:country": "US", "addr:postcode": "00660", "addr:state": "PR", "addr:street_address": "J8 CALLE MARGINAL", "amenity": "post_box", "collection_times": "Mo-Sa 08:30", "nsi_id": "unitedstatespostalservice-a77078", "operator": "United States Postal Service", "operator:short": "USPS", "operator:type": "public", "operator:wikidata": "Q668687", "ref": "0066000001"}, "type": "Feature"}
{"geometry": {"coordinates": [-67.1468361, 18.153515], "type": "Point"}, "id": "sUnpSPceQuK2i5W2jFRMq16I88w=", "properties": {"@source_uri": "https://tools.usps.com/UspsToolsRestServices/rest/POLocator/findLocations", "@spider": "usps_collection_boxes", "addr:city": "HORMIGUEROS", "addr:country": "US", "addr:postcode": "00660", "addr:state": "PR", "addr:street_address": "70 CARR 343 S", "amenity": "post_box", "collection_times": "Mo-Sa 08:15", "nsi_id": "unitedstatespostalservice-a77078", "operator": "United States Postal Service", "operator:short": "USPS", "operator:type": "public", "operator:wikidata": "Q668687", "ref": "0066000002"}, "type": "Feature"}
{"geometry": {"coordinates": [-67.1274264, 18.139838], "type": "Point"}, "id": "ncNkpYK8Cx7Gbwpz7ITt8vazzC0=", "properties": {"@source_uri": "https://tools.usps.com/UspsToolsRestServices/rest/POLocator/findLocations", "@spider": "usps_collection_boxes", "addr:city": "HORMIGUEROS", "addr:country": "US", "addr:postcode": "00660", "addr:state": "PR", "addr:street_address": "13 CALLE MATEO FAJARDO", "amenity": "post_box", "collection_times": "Mo-Sa 08:30", "nsi_id": "unitedstatespostalservice-a77078", "operator": "United States Postal Service", "operator:short": "USPS", "operator:type": "public", "operator:wikidata": "Q668687", "ref": "0066000005"}, "type": "Feature"}
{"geometry": {"coordinates": [-67.1236273, 18.140115], "type": "Point"}, "id": "Lg4tzDumyylpXjOKsl2t7rxcCOE=", "properties": {"@source_uri": "https://tools.usps.com/UspsToolsRestServices/rest/POLocator/findLocations", "@spider": "usps_collection_boxes", "addr:city": "HORMIGUEROS", "addr:country": "US", "addr:postcode": "00660", "addr:state": "PR", "addr:street_address": "250 CARR 344", "amenity": "post_box", "collection_times": "Mo-Fr 15:00; Sa 08:15", "note": "ON 12/24 AND 12/31, THIS BOX MAY BE COLLECTED AS EARLY AS 12 NOON.", "nsi_id": "unitedstatespostalservice-a77078", "operator": "United States Postal Service", "operator:short": "USPS", "operator:type": "public", "operator:wikidata": "Q668687", "ref": "0066000010"}, "type": "Feature"}
{"geometry": {"coordinates": [-67.126849, 18.140446], "type": "Point"}, "id": "swTkUF0WpR36lUAyLSnZmGi1d08=", "properties": {"@source_uri": "https://tools.usps.com/UspsToolsRestServices/rest/POLocator/findLocations", "@spider": "usps_collection_boxes", "addr:city": "HORMIGUEROS", "addr:country": "US", "addr:postcode": "00660", "addr:state": "PR", "addr:street_address": "250 CARR 344", "amenity": "post_box", "collection_times": "Mo-Fr 15:00; Sa 08:15", "indoor": "yes", "note": "ON 12/24 AND 12/31, THIS BOX MAY BE COLLECTED AS EARLY AS 12 NOON.", "nsi_id": "unitedstatespostalservice-a77078", "operator": "United States Postal Service", "operator:short": "USPS", "operator:type": "public", "operator:wikidata": "Q668687", "ref": "0066000011"}, "type": "Feature"}
{"geometry": {"coordinates": [-67.120872161, 18.150699892], "type": "Point"}, "id": "fKoOhtzBQRT_dQuduzOakqgvT9o=", "properties": {"@source_uri": "https://tools.usps.com/UspsToolsRestServices/rest/POLocator/findLocations", "@spider": "usps_collection_boxes", "addr:city": "HORMIGUEROS", "addr:country": "US", "addr:postcode": "00660", "addr:state": "PR", "addr:street_address": "250 CARR 344", "amenity": "post_box", "collection_times": "Mo-Fr 16:00; Sa 12:15", "indoor": "yes", "note": "ON 12/24 AND 12/31, THIS BOX MAY BE COLLECTED AS EARLY AS 12 NOON.", "nsi_id": "unitedstatespostalservice-a77078", "operator": "United States Postal Service", "operator:short": "USPS", "operator:type": "public", "operator:wikidata": "Q668687", "ref": "0066000012"}, "type": "Feature"}
{"geometry": {"coordinates": [-67.0230582, 18.467928], "type": "Point"}, "id": "BsH8WKAqGJkFBemZ8gkhPyzwnV8=", "properties": {"@source_uri": "https://tools.usps.com/UspsToolsRestServices/rest/POLocator/findLocations", "@spider": "usps_collection_boxes", "addr:city": "ISABELA", "addr:country": "US", "addr:postcode": "00662", "addr:state": "PR", "addr:street_address": "3535 AVE MILITAR", "amenity": "post_box", "collection_times": "Mo-Sa 08:15", "nsi_id": "unitedstatespostalservice-a77078", "operator": "United States Postal Service", "operator:short": "USPS", "operator:type": "public", "operator:wikidata": "Q668687", "ref": "0066200008"}, "type": "Feature"}
{"geometry": {"coordinates": [-67.0244316, 18.499921], "type": "Point"}, "id": "vtE5cxaBrHAQJ3ofhejvazngNnQ=", "properties": {"@source_uri": "https://tools.usps.com/UspsToolsRestServices/rest/POLocator/findLocations", "@spider": "usps_collection_boxes", "addr:city": "ISABELA", "addr:country": "US", "addr:postcode": "00662", "addr:state": "PR", "addr:street_address": "5 CALLE PINEIRO", "amenity": "post_box", "collection_times": "Mo-Fr 15:00; Sa 08:30", "note": "ON 12/24 AND 12/31, THIS BOX MAY BE COLLECTED AS EARLY AS 12 NOON.", "nsi_id": "unitedstatespostalservice-a77078", "operator": "United States Postal Service", "operator:short": "USPS", "operator:type": "public", "operator:wikidata": "Q668687", "ref": "0066200010"}, "type": "Feature"}
{"geometry": {"coordinates": [-67.0244091, 18.500092], "type": "Point"}, "id": "vuBvFZCnDSGxndG_tkbfY1Iti98=", "properties": {"@source_uri": "https://tools.usps.com/UspsToolsRestServices/rest/POLocator/findLocations", "@spider": "usps_collection_boxes", "addr:city": "ISABELA", "addr:country": "US", "addr:postcode": "00662", "addr:state": "PR", "addr:street_address": "5 CALLE PINEIRO", "amenity": "post_box", "collection_times": "Mo-Fr 15:00; Sa 08:30", "indoor": "yes", "note": "ON 12/24 AND 12/31, THIS BOX MAY BE COLLECTED AS EARLY AS 12 NOON.", "nsi_id": "unitedstatespostalservice-a77078", "operator": "United States Postal Service", "operator:short": "USPS", "operator:type": "public", "operator:wikidata": "Q668687", "ref": "0066200011"}, "type": "Feature"}
{"geometry": {"coordinates": [-67.072770651, 18.503630431], "type": "Point"}, "id": "zXJw-9iBxygSsdhfe7A2x8GlRiE=", "properties": {"@source_uri": "https://tools.usps.com/UspsToolsRestServices/rest/POLocator/findLocations", "@spider": "usps_collection_boxes", "addr:city": "ISABELA", "addr:country": "US", "addr:postcode": "00662", "addr:state": "PR", "addr:street_address": "5 CALLE PINEIRO", "amenity": "post_box", "collection_times": "Mo-Fr 16:00; Sa 12:00", "indoor": "yes", "note": "ON 12/24 AND 12/31, THIS BOX MAY BE COLLECTED AS EARLY AS 12 NOON.", "nsi_id": "unitedstatespostalservice-a77078", "operator": "United States Postal Service", "operator:short": "USPS", "operator:type": "public", "operator:wikidata": "Q668687", "ref": "0066200012"}, "type": "Feature"}
{"geometry": {"coordinates": [-66.59375, 18.21902], "type": "Point"}, "id": "v9k9f_dUGEJD-lI8_WAgf17NZEU=", "properties": {"@source_uri": "https://tools.usps.com/UspsToolsRestServices/rest/POLocator/findLocations", "@spider": "usps_collection_boxes", "addr:city": "JAYUYA", "addr:country": "US", "addr:postcode": "00664", "addr:state": "PR", "addr:street_address": "15 CALLE A BARCELO", "amenity": "post_box", "collection_times": "Mo-Fr 15:00; Sa 08:00", "note": "ON 12/24 AND 12/31, THIS BOX MAY BE COLLECTED AS EARLY AS 12 NOON.", "nsi_id": "unitedstatespostalservice-a77078", "operator": "United States Postal Service", "operator:short": "USPS", "operator:type": "public", "operator:wikidata": "Q668687", "ref": "0066400000"}, "type": "Feature"}
{"geometry": {"coordinates": [-66.59375, 18.21902], "type": "Point"}, "id": "Ya6UUmv6r2SbsC56IXoCcK8sQTo=", "properties": {"@source_uri": "https://tools.usps.com/UspsToolsRestServices/rest/POLocator/findLocations", "@spider": "usps_collection_boxes", "addr:city": "JAYUYA", "addr:country": "US", "addr:postcode": "00664", "addr:state": "PR", "addr:street_address": "15 CALLE A BARCELO", "amenity": "post_box", "collection_times": "Mo-Fr 15:00; Sa 08:00", "indoor": "yes", "note": "ON 12/24 AND 12/31, THIS BOX MAY BE COLLECTED AS EARLY AS 12 NOON.", "nsi_id": "unitedstatespostalservice-a77078", "operator": "United States Postal Service", "operator:short": "USPS", "operator:type": "public", "operator:wikidata": "Q668687", "ref": "0066400005"}, "type": "Feature"}
{"geometry": {"coordinates": [-66.593683005, 18.218851134], "type": "Point"}, "id": "MhzU8ZHZBO5nQlB_UXp_y-gj-MM=", "properties": {"@source_uri": "https://tools.usps.com/UspsToolsRestServices/rest/POLocator/findLocations", "@spider": "usps_collection_boxes", "addr:city": "JAYUYA", "addr:country": "US", "addr:postcode": "00664", "addr:state": "PR", "addr:street_address": "15 CALLE A BARCELO", "amenity": "post_box", "collection_times": "Mo-Fr 16:00; Sa 11:30", "indoor": "yes", "note": "ON 12/24 AND 12/31, THIS BOX MAY BE COLLECTED AS EARLY AS 12 NOON.", "nsi_id": "unitedstatespostalservice-a77078", "operator": "United States Postal Service", "operator:short": "USPS", "operator:type": "public", "operator:wikidata": "Q668687", "ref": "0066400006"}, "type": "Feature"}
{"geometry": {"coordinates": [-67.0682856, 18.047313], "type": "Point"}, "id": "EeEKplcYApLhYxcMUKSAARwwuIk=", "properties": {"@source_uri": "https://tools.usps.com/UspsToolsRestServices/rest/POLocator/findLocations", "@spider": "usps_collection_boxes", "addr:city": "LAJAS", "addr:country": "US", "addr:postcode": "00667", "addr:state": "PR", "addr:street_address": "126 CALLE UN", "amenity": "post_box", "collection_times": "Mo-Sa 13:30", "note": "ON 12/24 AND 12/31, THIS BOX MAY BE COLLECTED AS EARLY AS 12 NOON.", "nsi_id": "unitedstatespostalservice-a77078", "operator": "United States Postal Service", "operator:short": "USPS", "operator:type": "public", "operator:wikidata": "Q668687", "ref": "0066700002"}, "type": "Feature"}
{"geometry": {"coordinates": [-67.0539449, 18.041531], "type": "Point"}, "id": "53am_ruRQaBp2_g8Xeu027exFyw=", "properties": {"@source_uri": "https://tools.usps.com/UspsToolsRestServices/rest/POLocator/findLocations", "@spider": "usps_collection_boxes", "addr:city": "LAJAS", "addr:country": "US", "addr:postcode": "00667", "addr:state": "PR", "addr:street_address": "19 CALLE ROSALES", "amenity": "post_box", "collection_times": "Mo-Sa 08:00", "nsi_id": "unitedstatespostalservice-a77078", "operator": "United States Postal Service", "operator:short": "USPS", "operator:type": "public", "operator:wikidata": "Q668687", "ref": "0066700005"}, "type": "Feature"}
{"geometry": {"coordinates": [-67.0582562, 18.042561], "type": "Point"}, "id": "5ZvuUYLQAUVTb53lXD4o1J6k9_g=", "properties": {"@source_uri": "https://tools.usps.com/UspsToolsRestServices/rest/POLocator/findLocations", "@spider": "usps_collection_boxes", "addr:city": "LAJAS", "addr:country": "US", "addr:postcode": "00667", "addr:state": "PR", "addr:street_address": "72 CALLE 65 DE INFANTERIA S", "amenity": "post_box", "collection_times": "Mo-Fr 15:00; Sa 08:00", "note": "ON 12/24 AND 12/31, THIS BOX MAY BE COLLECTED AS EARLY AS 12 NOON.", "nsi_id": "unitedstatespostalservice-a77078", "operator": "United States Postal Service", "operator:short": "USPS", "operator:type": "public", "operator:wikidata": "Q668687", "ref": "0066700006"}, "type": "Feature"}
{"geometry": {"coordinates": [-67.0483923, 17.974221], "type": "Point"}, "id": "FNPRerlaBWOr87mEt8RnraJjZ3E=", "properties": {"@source_uri": "https://tools.usps.com/UspsToolsRestServices/rest/POLocator/findLocations", "@spider": "usps_collection_boxes", "addr:city": "LAJAS", "addr:country": "US", "addr:postcode": "00667", "addr:state": "PR", "addr:street_address": "5000 CARR 304", "amenity": "post_box", "collection_times": "Mo-Sa 09:00", "nsi_id": "unitedstatespostalservice-a77078", "operator": "United States Postal Service", "operator:short": "USPS", "operator:type": "public", "operator:wikidata": "Q668687", "ref": "0066700010"}, "type": "Feature"}
{"geometry": {"coordinates": [-67.0591572, 18.050558], "type": "Point"}, "id": "viGGZfcUhupl2_BvW_Bbxs2V9Ys=", "properties": {"@source_uri": "https://tools.usps.com/UspsToolsRestServices/rest/POLocator/findLocations", "@spider": "usps_collection_boxes", "addr:city": "LAJAS", "addr:country": "US", "addr:postcode": "00667", "addr:state": "PR", "addr:street_address": "15 CALLE 65 DE INFANTERIA S", "amenity": "post_box", "collection_times": "Mo-Sa 09:00", "nsi_id": "unitedstatespostalservice-a77078", "operator": "United States Postal Service", "operator:short": "USPS", "operator:type": "public", "operator:wikidata": "Q668687", "ref": "0066700011"}, "type": "Feature"}
{"geometry": {"coordinates": [-67.0584092, 18.042455], "type": "Point"}, "id": "raD_l9-ax5Uz8918LVhO7AExe9Q=", "properties": {"@source_uri": "https://tools.usps.com/UspsToolsRestServices/rest/POLocator/findLocations", "@spider": "usps_collection_boxes", "addr:city": "LAJAS", "addr:country": "US", "addr:postcode": "00667", "addr:state": "PR", "addr:street_address": "72 CALLE 65 DE INFANTERIA S", "amenity": "post_box", "collection_times": "Mo-Fr 15:00; Sa 08:00", "indoor": "yes", "note": "ON 12/24 AND 12/31, THIS BOX MAY BE COLLECTED AS EARLY AS 12 NOON.", "nsi_id": "unitedstatespostalservice-a77078", "operator": "United States Postal Service", "operator:short": "USPS", "operator:type": "public", "operator:wikidata": "Q668687", "ref": "0066700012"}, "type": "Feature"}
{"geometry": {"coordinates": [-67.059385483, 18.047048385], "type": "Point"}, "id": "1JyXY-VLeX2ci7uAvKrs-YgYAes=", "properties": {"@source_uri": "https://tools.usps.com/UspsToolsRestServices/rest/POLocator/findLocations", "@spider": "usps_collection_boxes", "addr:city": "LAJAS", "addr:country": "US", "addr:postcode": "00667", "addr:state": "PR", "addr:street_address": "72 CALLE 65 DE INFANTERIA S", "amenity": "post_box", "collection_times": "Mo-Fr 15:45; Sa 12:00", "indoor": "yes", "note": "ON 12/24 AND 12/31, THIS BOX MAY BE COLLECTED AS EARLY AS 12 NOON.", "nsi_id": "unitedstatespostalservice-a77078", "operator": "United States Postal Service", "operator:short": "USPS", "operator:type": "public", "operator:wikidata": "Q668687", "ref": "0066700013"}, "type": "Feature"}
{"geometry": {"coordinates": [-66.8774026, 18.296295], "type": "Point"}, "id": "N2v-gNKCDchv24dscKZYbjGz76E=", "properties": {"@source_uri": "https://tools.usps.com/UspsToolsRestServices/rest/POLocator/findLocations", "@spider": "usps_collection_boxes", "addr:city": "LARES", "addr:country": "US", "addr:postcode": "00669", "addr:state": "PR", "addr:street_address": "4 CALLE ARANA", "amenity": "post_box", "collection_times": "Mo-Sa 08:00", "nsi_id": "unitedstatespostalservice-a77078", "operator": "United States Postal Service", "operator:short": "USPS", "operator:type": "public", "operator:wikidata": "Q668687", "ref": "0066900003"}, "type": "Feature"}
{"geometry": {"coordinates": [-66.8779822, 18.294867], "type": "Point"}, "id": "ZH0TjF1JXQYNeVVsY0TMHiogKwE=", "properties": {"@source_uri": "https://tools.usps.com/UspsToolsRestServices/rest/POLocator/findLocations", "@spider": "usps_collection_boxes", "addr:city": "LARES", "addr:country": "US", "addr:postcode": "00669", "addr:state": "PR", "addr:street_address": "4 CALLE PEDRO ALBIZU CAMPOS", "amenity": "post_box", "collection_times": "Mo-Sa 08:00", "nsi_id": "unitedstatespostalservice-a77078", "operator": "United States Postal Service", "operator:short": "USPS", "operator:type": "public", "operator:wikidata": "Q668687", "ref": "0066900004"}, "type": "Feature"}
{"geometry": {"coordinates": [-66.8749887, 18.299048], "type": "Point"}, "id": "tZNfb0ADZ_yWcTuVGWz4WDCljMk=", "properties": {"@source_uri": "https://tools.usps.com/UspsToolsRestServices/rest/POLocator/findLocations", "@spider": "usps_collection_boxes", "addr:city": "LARES", "addr:country": "US", "addr:postcode": "00669", "addr:state": "PR", "addr:street_address": "100 AVE LOS PATRIOTAS", "amenity": "post_box", "collection_times": "Mo-Fr 15:00; Sa 08:00", "note": "ON 12/24 AND 12/31, THIS BOX MAY BE COLLECTED AS EARLY AS 12 NOON.", "nsi_id": "unitedstatespostalservice-a77078", "operator": "United States Postal Service", "operator:short": "USPS", "operator:type": "public", "operator:wikidata": "Q668687", "ref": "0066900005"}, "type": "Feature"}
{"geometry": {"coordinates": [-66.8748073, 18.299076], "type": "Point"}, "id": "6KaUmUSMUC9PXeecn4XBa7oL2dE=", "properties": {"@source_uri": "https://tools.usps.com/UspsToolsRestServices/rest/POLocator/findLocations", "@spider": "usps_collection_boxes", "addr:city": "LARES", "addr:country": "US", "addr:postcode": "00669", "addr:state": "PR", "addr:street_address": "100 AVE LOS PATRIOTAS", "amenity": "post_box", "collection_times": "Mo-Fr 15:00; Sa 08:00", "indoor": "yes", "note": "ON 12/24 AND 12/31, THIS BOX MAY BE COLLECTED AS EARLY AS 12 NOON.", "nsi_id": "unitedstatespostalservice-a77078", "operator": "United States Postal Service", "operator:short": "USPS", "operator:type": "public", "operator:wikidata": "Q668687", "ref": "0066900006"}, "type": "Feature"}
{"geometry": {"coordinates": [-66.875020572, 18.298893056], "type": "Point"}, "id": "KUGKgP8W8OP2QLRBbfSq1XpDl_4=", "properties": {"@source_uri": "https://tools.usps.com/UspsToolsRestServices/rest/POLocator/findLocations", "@spider": "usps_collection_boxes", "addr:city": "LARES", "addr:country": "US", "addr:postcode": "00669", "addr:state": "PR", "addr:street_address": "100 AVE LOS PATRIOTAS", "amenity": "post_box", "collection_times": "Mo-Fr 16:30; Sa 12:00", "indoor": "yes", "note": "ON 12/24 AND 12/31, THIS BOX MAY BE COLLECTED AS EARLY AS 12 NOON.", "nsi_id": "unitedstatespostalservice-a77078", "operator": "United States Postal Service", "operator:short": "USPS", "operator:type": "public", "operator:wikidata": "Q668687", "ref": "0066900007"}, "type": "Feature"}
{"geometry": {"coordinates": [-66.9907190311, 18.2519470007], "type": "Point"}, "id": "5sujKixmFMqayE37vatPeVfD0JM=", "properties": {"@source_uri": "https://tools.usps.com/UspsToolsRestServices/rest/POLocator/findLocations", "@spider": "usps_collection_boxes", "addr:city": "LAS MARIAS", "addr:country": "US", "addr:postcode": "00670", "addr:state": "PR", "addr:street_address": "78 AVE MATIAS BRUGMAN", "amenity": "post_box", "collection_times": "Mo-Fr 15:00; Sa 08:00", "note": "ON 12/24 AND 12/31, THIS BOX MAY BE COLLECTED AS EARLY AS 12 NOON.", "nsi_id": "unitedstatespostalservice-a77078", "operator": "United States Postal Service", "operator:short": "USPS", "operator:type": "public", "operator:wikidata": "Q668687", "ref": "0067000001"}, "type": "Feature"}
{"geometry": {"coordinates": [-66.9907190311, 18.2519470007], "type": "Point"}, "id": "rk_AFZ7HtppJtHWO_CcMvnmLBpY=", "properties": {"@source_uri": "https://tools.usps.com/UspsToolsRestServices/rest/POLocator/findLocations", "@spider": "usps_collection_boxes", "addr:city": "LAS MARIAS", "addr:country": "US", "addr:postcode": "00670", "addr:state": "PR", "addr:street_address": "78 AVE MATIAS BRUGMAN", "amenity": "post_box", "collection_times": "Mo-Fr 15:00; Sa 08:00", "indoor": "yes", "note": "ON 12/24 AND 12/31, THIS BOX MAY BE COLLECTED AS EARLY AS 12 NOON.", "nsi_id": "unitedstatespostalservice-a77078", "operator": "United States Postal Service", "operator:short": "USPS", "operator:type": "public", "operator:wikidata": "Q668687", "ref": "0067000002"}, "type": "Feature"}
{"geometry": {"coordinates": [-66.9907190311, 18.2519470007], "type": "Point"}, "id": "6c2SNq3iaoRJXxO1yuTMAa5Sgis=", "properties": {"@source_uri": "https://tools.usps.com/UspsToolsRestServices/rest/POLocator/findLocations", "@spider": "usps_collection_boxes", "addr:city": "LAS MARIAS", "addr:country": "US", "addr:postcode": "00670", "addr:state": "PR", "addr:street_address": "78 AVE MATIAS BRUGMAN", "amenity": "post_box", "collection_times": "Mo-Fr 15:30; Sa 12:00", "indoor": "yes", "note": "ON 12/24 AND 12/31, THIS BOX MAY BE COLLECTED AS EARLY AS 12 NOON.", "nsi_id": "unitedstatespostalservice-a77078", "operator": "United States Postal Service", "operator:short": "USPS", "operator:type": "public", "operator:wikidata": "Q668687", "ref": "0067000003"}, "type": "Feature"}
{"geometry": {"coordinates": [-66.4844836, 18.432769], "type": "Point"}, "id": "DATUrmaztayQBJf4c5WQvwrsCz0=", "properties": {"@source_uri": "https://tools.usps.com/UspsToolsRestServices/rest/POLocator/findLocations", "@spider": "usps_collection_boxes", "addr:city": "MANATI", "addr:country": "US", "addr:postcode": "00674", "addr:state": "PR", "addr:street_address": "29 CALLE ELLIOT VELEZ", "amenity": "post_box", "collection_times": "Mo-Fr 17:00; Sa 13:00", "note": "ON 12/24 AND 12/31, THIS BOX MAY BE COLLECTED AS EARLY AS 12 NOON.", "nsi_id": "unitedstatespostalservice-a77078", "operator": "United States Postal Service", "operator:short": "USPS", "operator:type": "public", "operator:wikidata": "Q668687", "ref": "0067400001"}, "type": "Feature"}
{"geometry": {"coordinates": [-66.4825072, 18.431727], "type": "Point"}, "id": "sWAq50_Z3wOnSBSH9f31PJHRxNU=", "properties": {"@source_uri": "https://tools.usps.com/UspsToolsRestServices/rest/POLocator/findLocations", "@spider": "usps_collection_boxes", "addr:city": "MANATI", "addr:country": "US", "addr:postcode": "00674", "addr:state": "PR", "addr:street_address": "78 CALLE FELIX CORDOVA DAVILA", "amenity": "post_box", "collection_times": "Mo-Sa 08:00", "nsi_id": "unitedstatespostalservice-a77078", "operator": "United States Postal Service", "operator:short": "USPS", "operator:type": "public", "operator:wikidata": "Q668687", "ref": "0067400002"}, "type": "Feature"}
{"geometry": {"coordinates": [-66.4923705, 18.431035], "type": "Point"}, "id": "DQBRZjH6zlI4qQqLEIBSLsQrMBQ=", "properties": {"@source_uri": "https://tools.usps.com/UspsToolsRestServices/rest/POLocator/findLocations", "@spider": "usps_collection_boxes", "addr:city": "MANATI", "addr:country": "US", "addr:postcode": "00674", "addr:state": "PR", "addr:street_address": "54 CARR 2 STE 13", "amenity": "post_box", "collection_times": "Mo-Sa 08:30", "nsi_id": "unitedstatespostalservice-a77078", "operator": "United States Postal Service", "operator:short": "USPS", "operator:type": "public", "operator:wikidata": "Q668687", "ref": "0067400003"}, "type": "Feature"}
{"geometry": {"coordinates": [-66.4748594, 18.432532], "type": "Point"}, "id": "1KSA12QUY6umemZEaJrFyDj4jJQ=", "properties": {"@source_uri": "https://tools.usps.com/UspsToolsRestServices/rest/POLocator/findLocations", "@spider": "usps_collection_boxes", "addr:city": "MANATI", "addr:country": "US", "addr:postcode": "00674", "addr:state": "PR", "addr:street_address": "10 CARR 149 STE 100", "amenity": "post_box", "collection_times": "Mo-Sa 08:15", "nsi_id": "unitedstatespostalservice-a77078", "operator": "United States Postal Service", "operator:short": "USPS", "operator:type": "public", "operator:wikidata": "Q668687", "ref": "0067400004"}, "type": "Feature"}
{"geometry": {"coordinates": [-66.4883229, 18.429979], "type": "Point"}, "id": "NxPRPCsg-MFtQKa-hKpxADXRD4c=", "properties": {"@source_uri": "https://tools.usps.com/UspsToolsRestServices/rest/POLocator/findLocations", "@spider": "usps_collection_boxes", "addr:city": "MANATI", "addr:country": "US", "addr:postcode": "00674", "addr:state": "PR", "addr:street_address": "98 PASEO DE LA ATENAS", "amenity": "post_box", "collection_times": "Mo-Sa 08:00", "nsi_id": "unitedstatespostalservice-a77078", "operator": "United States Postal Service", "operator:short": "USPS", "operator:type": "public", "operator:wikidata": "Q668687", "ref": "0067400005"}, "type": "Feature"}
{"geometry": {"coordinates": [-66.4906908, 18.429413], "type": "Point"}, "id": "Ga22VzSVxUU6FJupWTGtWKzNDog=", "properties": {"@source_uri": "https://tools.usps.com/UspsToolsRestServices/rest/POLocator/findLocations", "@spider": "usps_collection_boxes", "addr:city": "MANATI", "addr:country": "US", "addr:postcode": "00674", "addr:state": "PR", "addr:street_address": "56 PASEO DE LA ATENAS", "amenity": "post_box", "collection_times": "Mo-Sa 11:00", "nsi_id": "unitedstatespostalservice-a77078", "operator": "United States Postal Service", "operator:short": "USPS", "operator:type": "public", "operator:wikidata": "Q668687", "ref": "0067400007"}, "type": "Feature"}
{"geometry": {"coordinates": [-66.4855805, 18.424395], "type": "Point"}, "id": "Wb-MjW7q4IvUVvYylYAkPVq31Xg=", "properties": {"@source_uri": "https://tools.usps.com/UspsToolsRestServices/rest/POLocator/findLocations", "@spider": "usps_collection_boxes", "addr:city": "MANATI", "addr:country": "US", "addr:postcode": "00674", "addr:state": "PR", "addr:street_address": "5 CALLE E", "amenity": "post_box", "collection_times": "Mo-Sa 14:30", "note": "ON 12/24 AND 12/31, THIS BOX MAY BE COLLECTED AS EARLY AS 12 NOON.", "nsi_id": "unitedstatespostalservice-a77078", "operator": "United States Postal Service", "operator:short": "USPS", "operator:type": "public", "operator:wikidata": "Q668687", "ref": "0067400008"}, "type": "Feature"}
{"geometry": {"coordinates": [-66.4826599, 18.418177], "type": "Point"}, "id": "736ngKx_91NuHhueozgJ5kyZejY=", "properties": {"@source_uri": "https://tools.usps.com/UspsToolsRestServices/rest/POLocator/findLocations", "@spider": "usps_collection_boxes", "addr:city": "MANATI", "addr:country": "US", "addr:postcode": "00674", "addr:state": "PR", "addr:street_address": "190 BDA FELIX CORDOVA DAVILA", "amenity": "post_box", "collection_times": "Mo-Sa 08:15", "nsi_id": "unitedstatespostalservice-a77078", "operator": "United States Postal Service", "operator:short": "USPS", "operator:type": "public", "operator:wikidata": "Q668687", "ref": "0067400009"}, "type": "Feature"}
{"geometry": {"coordinates": [-66.4938699, 18.428479], "type": "Point"}, "id": "c1HIzaT-j2uu5LqjW1eDJbsl_LU=", "properties": {"@source_uri": "https://tools.usps.com/UspsToolsRestServices/rest/POLocator/findLocations", "@spider": "usps_collection_boxes", "addr:city": "MANATI", "addr:country": "US", "addr:postcode": "00674", "addr:state": "PR", "addr:street_address": "18 CALLE E", "amenity": "post_box", "collection_times": "Mo-Sa 08:30", "nsi_id": "unitedstatespostalservice-a77078", "operator": "United States Postal Service", "operator:short": "USPS", "operator:type": "public", "operator:wikidata": "Q668687", "ref": "0067400013"}, "type": "Feature"}
{"geometry": {"coordinates": [-66.4925124, 18.430086], "type": "Point"}, "id": "jwHkEMEwnkCLkE4QHeu4xRrRECc=", "properties": {"@source_uri": "https://tools.usps.com/UspsToolsRestServices/rest/POLocator/findLocations", "@spider": "usps_collection_boxes", "addr:city": "MANATI", "addr:country": "US", "addr:postcode": "00674", "addr:state": "PR", "addr:street_address": "47 CARR 2", "amenity": "post_box", "collection_times": "Mo-Sa 12:00", "nsi_id": "unitedstatespostalservice-a77078", "operator": "United States Postal Service", "operator:short": "USPS", "operator:type": "public", "operator:wikidata": "Q668687", "ref": "0067400014"}, "type": "Feature"}
{"geometry": {"coordinates": [-66.48433, 18.43315], "type": "Point"}, "id": "Kq3sGgqrUTtTYCNKyGvMYrBY1X4=", "properties": {"@source_uri": "https://tools.usps.com/UspsToolsRestServices/rest/POLocator/findLocations", "@spider": "usps_collection_boxes", "addr:city": "MANATI", "addr:country": "US", "addr:postcode": "00674", "addr:state": "PR", "addr:street_address": "29 CALLE ELLIOT VELEZ", "amenity": "post_box", "collection_times": "Mo-Fr 17:00; Sa 13:00", "indoor": "yes", "note": "ON 12/24 AND 12/31, THIS BOX MAY BE COLLECTED AS EARLY AS 12 NOON.", "nsi_id": "unitedstatespostalservice-a77078", "operator": "United States Postal Service", "operator:short": "USPS", "operator:type": "public", "operator:wikidata": "Q668687", "ref": "0067400017"}, "type": "Feature"}
{"geometry": {"coordinates": [-66.484180874, 18.43313554], "type": "Point"}, "id": "TOC0wDgpUKvC6yXKnsFrUIgqqR4=", "properties": {"@source_uri": "https://tools.usps.com/UspsToolsRestServices/rest/POLocator/findLocations", "@spider": "usps_collection_boxes", "addr:city": "MANATI", "addr:country": "US", "addr:postcode": "00674", "addr:state": "PR", "addr:street_address": "29 CALLE ELLIOT VELEZ", "amenity": "post_box", "collection_times": "Mo-Fr 16:45; Sa 12:15", "indoor": "yes", "note": "ON 12/24 AND 12/31, THIS BOX MAY BE COLLECTED AS EARLY AS 12 NOON.", "nsi_id": "unitedstatespostalservice-a77078", "operator": "United States Postal Service", "operator:short": "USPS", "operator:type": "public", "operator:wikidata": "Q668687", "ref": "0067400018"}, "type": "Feature"}
{"geometry": {"coordinates": [-67.1092721, 18.395002], "type": "Point"}, "id": "7Bgoeogh7W1L0OdB5ogFLQSVImI=", "properties": {"@source_uri": "https://tools.usps.com/UspsToolsRestServices/rest/POLocator/findLocations", "@spider": "usps_collection_boxes", "addr:city": "MOCA", "addr:country": "US", "addr:postcode": "00676", "addr:state": "PR", "addr:street_address": "212 AVE LA MOCA", "amenity": "post_box", "collection_times": "Mo-Fr 15:00; Sa 08:00", "note": "ON 12/24 AND 12/31, THIS BOX MAY BE COLLECTED AS EARLY AS 12 NOON.", "nsi_id": "unitedstatespostalservice-a77078", "operator": "United States Postal Service", "operator:short": "USPS", "operator:type": "public", "operator:wikidata": "Q668687", "ref": "0067600001"}, "type": "Feature"}
{"geometry": {"coordinates": [-67.1135081, 18.394468], "type": "Point"}, "id": "3pKVI5U2qW6Xr1ivxSjZoVlCsZI=", "properties": {"@source_uri": "https://tools.usps.com/UspsToolsRestServices/rest/POLocator/findLocations", "@spider": "usps_collection_boxes", "addr:city": "MOCA", "addr:country": "US", "addr:postcode": "00676", "addr:state": "PR", "addr:street_address": "210 CALLE BLANCA E CHICO", "amenity": "post_box", "collection_times": "Mo-Sa 08:00", "nsi_id": "unitedstatespostalservice-a77078", "operator": "United States Postal Service", "operator:short": "USPS", "operator:type": "public", "operator:wikidata": "Q668687", "ref": "0067600002"}, "type": "Feature"}
{"geometry": {"coordinates": [-67.1115935, 18.394408], "type": "Point"}, "id": "mK5EZ6Fr6b42hwIY9Dq5myWONKk=", "properties": {"@source_uri": "https://tools.usps.com/UspsToolsRestServices/rest/POLocator/findLocations", "@spider": "usps_collection_boxes", "addr:city": "MOCA", "addr:country": "US", "addr:postcode": "00676", "addr:state": "PR", "addr:street_address": "235 CALLE JOSE C BARBOSA STE 1", "amenity": "post_box", "collection_times": "Mo-Sa 08:00", "nsi_id": "unitedstatespostalservice-a77078", "operator": "United States Postal Service", "operator:short": "USPS", "operator:type": "public", "operator:wikidata": "Q668687", "ref": "0067600005"}, "type": "Feature"}
{"geometry": {"coordinates": [-67.1094217, 18.394678], "type": "Point"}, "id": "EQXC_9BKplxLj3jWMQ8v49ynD-A=", "properties": {"@source_uri": "https://tools.usps.com/UspsToolsRestServices/rest/POLocator/findLocations", "@spider": "usps_collection_boxes", "addr:city": "MOCA", "addr:country": "US", "addr:postcode": "00676", "addr:state": "PR", "addr:street_address": "212 AVE LA MOCA", "amenity": "post_box", "collection_times": "Mo-Fr 15:00; Sa 08:00", "indoor": "yes", "note": "ON 12/24 AND 12/31, THIS BOX MAY BE COLLECTED AS EARLY AS 12 NOON.", "nsi_id": "unitedstatespostalservice-a77078", "operator": "United States Postal Service", "operator:short": "USPS", "operator:type": "public", "operator:wikidata": "Q668687", "ref": "0067600006"}, "type": "Feature"}
{"geometry": {"coordinates": [-67.113812084, 18.39669367], "type": "Point"}, "id": "icZx5HdY4gnpws_JDxUeqQa_aJQ=", "properties": {"@source_uri": "https://tools.usps.com/UspsToolsRestServices/rest/POLocator/findLocations", "@spider": "usps_collection_boxes", "addr:city": "MOCA", "addr:country": "US", "addr:postcode": "00676", "addr:state": "PR", "addr:street_address": "212 AVE LA MOCA", "amenity": "post_box", "collection_times": "Mo-Fr 16:00; Sa 12:15", "indoor": "yes", "note": "ON 12/24 AND 12/31, THIS BOX MAY BE COLLECTED AS EARLY AS 12 NOON.", "nsi_id": "unitedstatespostalservice-a77078", "operator": "United States Postal Service", "operator:short": "USPS", "operator:type": "public", "operator:wikidata": "Q668687", "ref": "0067600007"}, "type": "Feature"}
{"geometry": {"coordinates": [-67.2514747, 18.338309], "type": "Point"}, "id": "RBpQnoDSvHL1hwEUmfNs7a15Qx0=", "properties": {"@source_uri": "https://tools.usps.com/UspsToolsRestServices/rest/POLocator/findLocations", "@spider": "usps_collection_boxes", "addr:city": "RINCON", "addr:country": "US", "addr:postcode": "00677", "addr:state": "PR", "addr:street_address": "33 CALLE MUNOZ RIVERA W", "amenity": "post_box", "collection_times": "Mo-Sa 08:15", "nsi_id": "unitedstatespostalservice-a77078", "operator": "United States Postal Service", "operator:short": "USPS", "operator:type": "public", "operator:wikidata": "Q668687", "ref": "0067700001"}, "type": "Feature"}
{"geometry": {"coordinates": [-67.2498347, 18.344776], "type": "Point"}, "id": "rm_ajZ8dSoCRXvFhGZR-lhP0rkE=", "properties": {"@source_uri": "https://tools.usps.com/UspsToolsRestServices/rest/POLocator/findLocations", "@spider": "usps_collection_boxes", "addr:city": "RINCON", "addr:country": "US", "addr:postcode": "00677", "addr:state": "PR", "addr:street_address": "100 CARR 115", "amenity": "post_box", "collection_times": "Mo-Fr 15:00; Sa 08:30", "note": "ON 12/24 AND 12/31, THIS BOX MAY BE COLLECTED AS EARLY AS 12 NOON.", "nsi_id": "unitedstatespostalservice-a77078", "operator": "United States Postal Service", "operator:short": "USPS", "operator:type": "public", "operator:wikidata": "Q668687", "ref": "0067700002"}, "type": "Feature"}
{"geometry": {"coordinates": [-67.2435094, 18.323231], "type": "Point"}, "id": "C_wfoYIH9TRnqF3m5H0iMF3F7ag=", "properties": {"@source_uri": "https://tools.usps.com/UspsToolsRestServices/rest/POLocator/findLocations", "@spider": "usps_collection_boxes", "addr:city": "RINCON", "addr:country": "US", "addr:postcode": "00677", "addr:state": "PR", "addr:street_address": "2289 CALLE MARGINAL", "amenity": "post_box", "collection_times": "Mo-Sa 08:00", "nsi_id": "unitedstatespostalservice-a77078", "operator": "United States Postal Service", "operator:short": "USPS", "operator:type": "public", "operator:wikidata": "Q668687", "ref": "0067700003"}, "type": "Feature"}
{"geometry": {"coordinates": [-67.2493446, 18.345018], "type": "Point"}, "id": "OSfzGtZZtz8cBtlhAVZg9tcurys=", "properties": {"@source_uri": "https://tools.usps.com/UspsToolsRestServices/rest/POLocator/findLocations", "@spider": "usps_collection_boxes", "addr:city": "RINCON", "addr:country": "US", "addr:postcode": "00677", "addr:state": "PR", "addr:street_address": "100 CARR 115", "amenity": "post_box", "collection_times": "Mo-Fr 15:00; Sa 08:30", "indoor": "yes", "note": "ON 12/24 AND 12/31, THIS BOX MAY BE COLLECTED AS EARLY AS 12 NOON.", "nsi_id": "unitedstatespostalservice-a77078", "operator": "United States Postal Service", "operator:short": "USPS", "operator:type": "public", "operator:wikidata": "Q668687", "ref": "0067700004"}, "type": "Feature"}
{"geometry": {"coordinates": [-67.249818058, 18.344707825], "type": "Point"}, "id": "zmv4QMiL-zvI7lP1-WX5B_9JKRs=", "properties": {"@source_uri": "https://tools.usps.com/UspsToolsRestServices/rest/POLocator/findLocations", "@spider": "usps_collection_boxes", "addr:city": "RINCON", "addr:country": "US", "addr:postcode": "00677", "addr:state": "PR", "addr:street_address": "100 CARR 115", "amenity": "post_box", "collection_times": "Mo-Fr 15:45; Sa 12:15", "indoor": "yes", "note": "ON 12/24 AND 12/31, THIS BOX MAY BE COLLECTED AS EARLY AS 12 NOON.", "nsi_id": "unitedstatespostalservice-a77078", "operator": "United States Postal Service", "operator:short": "USPS", "operator:type": "public", "operator:wikidata": "Q668687", "ref": "0067700005"}, "type": "Feature"}
{"geometry": {"coordinates": [-66.9383194, 18.469061], "type": "Point"}, "id": "6c15ta_cugfFvpK8TYgI9c8ngaA=", "properties": {"@source_uri": "https://tools.usps.com/UspsToolsRestServices/rest/POLocator/findLocations", "@spider": "usps_collection_boxes", "addr:city": "QUEBRADILLAS", "addr:country": "US", "addr:postcode": "00678", "addr:state": "PR", "addr:street_address": "64 CALLE JOSE L LINARES", "amenity": "post_box", "collection_times": "Mo-Fr 15:00; Sa 08:15", "note": "ON 12/24 AND 12/31, THIS BOX MAY BE COLLECTED AS EARLY AS 12 NOON.", "nsi_id": "unitedstatespostalservice-a77078", "operator": "United States Postal Service", "operator:short": "USPS", "operator:type": "public", "operator:wikidata": "Q668687", "ref": "0067800001"}, "type": "Feature"}
{"geometry": {"coordinates": [-66.9351848155, 18.472441129], "type": "Point"}, "id": "FJk30mDCXvIYug3pFxNcKbWc4cE=", "properties": {"@source_uri": "https://tools.usps.com/UspsToolsRestServices/rest/POLocator/findLocations", "@spider": "usps_collection_boxes", "addr:city": "QUEBRADILLAS", "addr:country": "US", "addr:postcode": "00678", "addr:state": "PR", "addr:street_address": "100 QUEBRADILLAS SHOPP CTR", "amenity": "post_box", "collection_times": "Mo-Sa 08:30", "nsi_id": "unitedstatespostalservice-a77078", "operator": "United States Postal Service", "operator:short": "USPS", "operator:type": "public", "operator:wikidata": "Q668687", "ref": "0067800002"}, "type": "Feature"}
{"geometry": {"coordinates": [-66.9382055, 18.473017], "type": "Point"}, "id": "cQkz4cpMH3LZJhq8ZwRRmfSdxyI=", "properties": {"@source_uri": "https://tools.usps.com/UspsToolsRestServices/rest/POLocator/findLocations", "@spider": "usps_collection_boxes", "addr:city": "QUEBRADILLAS", "addr:country": "US", "addr:postcode": "00678", "addr:state": "PR", "addr:street_address": "152 CALLE SOCORRO", "amenity": "post_box", "collection_times": "Mo-Sa 08:15", "nsi_id": "unitedstatespostalservice-a77078", "operator": "United States Postal Service", "operator:short": "USPS", "operator:type": "public", "operator:wikidata": "Q668687", "ref": "0067800005"}, "type": "Feature"}
{"geometry": {"coordinates": [-66.9372427, 18.471521], "type": "Point"}, "id": "Hd1aFcFhQ6IUEmYDSCxF0cy2PfA=", "properties": {"@source_uri": "https://tools.usps.com/UspsToolsRestServices/rest/POLocator/findLocations", "@spider": "usps_collection_boxes", "addr:city": "QUEBRADILLAS", "addr:country": "US", "addr:postcode": "00678", "addr:state": "PR", "addr:street_address": "95 CALLE PEREZ SOLER", "amenity": "post_box", "collection_times": "Mo-Sa 08:30", "nsi_id": "unitedstatespostalservice-a77078", "operator": "United States Postal Service", "operator:short": "USPS", "operator:type": "public", "operator:wikidata": "Q668687", "ref": "0067800006"}, "type": "Feature"}
{"geometry": {"coordinates": [-66.9380468, 18.469123], "type": "Point"}, "id": "pzSO69fbsxRV34A34LK02UrKR2I=", "properties": {"@source_uri": "https://tools.usps.com/UspsToolsRestServices/rest/POLocator/findLocations", "@spider": "usps_collection_boxes", "addr:city": "QUEBRADILLAS", "addr:country": "US", "addr:postcode": "00678", "addr:state": "PR", "addr:street_address": "64 CALLE JOSE L LINARES", "amenity": "post_box", "collection_times": "Mo-Fr 15:00; Sa 08:15", "indoor": "yes", "note": "ON 12/24 AND 12/31, THIS BOX MAY BE COLLECTED AS EARLY AS 12 NOON.", "nsi_id": "unitedstatespostalservice-a77078", "operator": "United States Postal Service", "operator:short": "USPS", "operator:type": "public", "operator:wikidata": "Q668687", "ref": "0067800007"}, "type": "Feature"}
{"geometry": {"coordinates": [-66.937786663, 18.474039891], "type": "Point"}, "id": "OCOTJ_xmn8gKs83k-bk-3ndhfE4=", "properties": {"@source_uri": "https://tools.usps.com/UspsToolsRestServices/rest/POLocator/findLocations", "@spider": "usps_collection_boxes", "addr:city": "QUEBRADILLAS", "addr:country": "US", "addr:postcode": "00678", "addr:state": "PR", "addr:street_address": "64 CALLE JOSE L LINARES", "amenity": "post_box", "collection_times": "Mo-Fr 16:30; Sa 12:15", "indoor": "yes", "note": "ON 12/24 AND 12/31, THIS BOX MAY BE COLLECTED AS EARLY AS 12 NOON.", "nsi_id": "unitedstatespostalservice-a77078", "operator": "United States Postal Service", "operator:short": "USPS", "operator:type": "public", "operator:wikidata": "Q668687", "ref": "0067800008"}, "type": "Feature"}
{"geometry": {"coordinates": [-67.1328019, 18.19966], "type": "Point"}, "id": "F2qfc5bYyGazylgQFeMQlZ2liwM=", "properties": {"@source_uri": "https://tools.usps.com/UspsToolsRestServices/rest/POLocator/findLocations", "@spider": "usps_collection_boxes", "addr:city": "MAYAGUEZ", "addr:country": "US", "addr:postcode": "00680", "addr:state": "PR", "addr:street_address": "233 CALLE SAN RAFAEL", "amenity": "post_box", "collection_times": "Mo-Sa 09:45", "nsi_id": "unitedstatespostalservice-a77078", "operator": "United States Postal Service", "operator:short": "USPS", "operator:type": "public", "operator:wikidata": "Q668687", "ref": "0068000005"}, "type": "Feature"}
{"geometry": {"coordinates": [-67.143789, 18.209452], "type": "Point"}, "id": "svcwDG2C75K6qa3dSFDSvtMj8yY=", "properties": {"@source_uri": "https://tools.usps.com/UspsToolsRestServices/rest/POLocator/findLocations", "@spider": "usps_collection_boxes", "addr:city": "MAYAGUEZ", "addr:country": "US", "addr:postcode": "00680", "addr:state": "PR", "addr:street_address": "252 BLVD ALFONSO VALDES", "amenity": "post_box", "collection_times": "Mo-Sa 09:30", "nsi_id": "unitedstatespostalservice-a77078", "operator": "United States Postal Service", "operator:short": "USPS", "operator:type": "public", "operator:wikidata": "Q668687", "ref": "0068000006"}, "type": "Feature"}
{"geometry": {"coordinates": [-67.1420299, 18.211751], "type": "Point"}, "id": "1QE9Whsl5kxMtRaFkYA6grglNZ0=", "properties": {"@source_uri": "https://tools.usps.com/UspsToolsRestServices/rest/POLocator/findLocations", "@spider": "usps_collection_boxes", "addr:city": "MAYAGUEZ", "addr:country": "US", "addr:postcode": "00680", "addr:state": "PR", "addr:street_address": "259 BLVD ALFONSO VALDES", "amenity": "post_box", "collection_times": "Mo-Sa 08:30", "nsi_id": "unitedstatespostalservice-a77078", "operator": "United States Postal Service", "operator:short": "USPS", "operator:type": "public", "operator:wikidata": "Q668687", "ref": "0068000007"}, "type": "Feature"}
{"geometry": {"coordinates": [-67.1487366, 18.215155], "type": "Point"}, "id": "Y_shmQrFfqqJFYzdva7qhT9Ee_c=", "properties": {"@source_uri": "https://tools.usps.com/UspsToolsRestServices/rest/POLocator/findLocations", "@spider": "usps_collection_boxes", "addr:city": "MAYAGUEZ", "addr:country": "US", "addr:postcode": "00680", "addr:state": "PR", "addr:street_address": "1064 CALLE LINO MINGUELA", "amenity": "post_box", "collection_times": "Mo-Sa 08:30", "nsi_id": "unitedstatespostalservice-a77078", "operator": "United States Postal Service", "operator:short": "USPS", "operator:type": "public", "operator:wikidata": "Q668687", "ref": "0068000010"}, "type": "Feature"}
{"geometry": {"coordinates": [-67.1436058, 18.201627], "type": "Point"}, "id": "2siuYJFDAXEAW55YrEypI7Llb_E=", "properties": {"@source_uri": "https://tools.usps.com/UspsToolsRestServices/rest/POLocator/findLocations", "@spider": "usps_collection_boxes", "addr:city": "MAYAGUEZ", "addr:country": "US", "addr:postcode": "00680", "addr:state": "PR", "addr:street_address": "60 CALLE DE LA CANDELARIA W", "amenity": "post_box", "collection_times": "Mo-Fr 15:00; Sa 10:45", "note": "ON 12/24 AND 12/31, THIS BOX MAY BE COLLECTED AS EARLY AS 12 NOON.", "nsi_id": "unitedstatespostalservice-a77078", "operator": "United States Postal Service", "operator:short": "USPS", "operator:type": "public", "operator:wikidata": "Q668687", "ref": "0068000012"}, "type": "Feature"}
{"geometry": {"coordinates": [-67.1477283, 18.161542], "type": "Point"}, "id": "dL9Rg1Amxzf9YevyzO906vzoBXc=", "properties": {"@source_uri": "https://tools.usps.com/UspsToolsRestServices/rest/POLocator/findLocations", "@spider": "usps_collection_boxes", "addr:city": "MAYAGUEZ", "addr:country": "US", "addr:postcode": "00680", "addr:state": "PR", "addr:street_address": "830 AVE HOSTOS", "amenity": "post_box", "collection_times": "Mo-Sa 09:00", "nsi_id": "unitedstatespostalservice-a77078", "operator": "United States Postal Service", "operator:short": "USPS", "operator:type": "public", "operator:wikidata": "Q668687", "ref": "0068000018"}, "type": "Feature"}
{"geometry": {"coordinates": [-67.1506806, 18.206197], "type": "Point"}, "id": "hNcExwORKX3KxLECf0FwCt2lVnE=", "properties": {"@source_uri": "https://tools.usps.com/UspsToolsRestServices/rest/POLocator/findLocations", "@spider": "usps_collection_boxes", "addr:city": "MAYAGUEZ", "addr:country": "US", "addr:postcode": "00680", "addr:state": "PR", "addr:street_address": "270 CALLE DE LA CANDELARIA", "amenity": "post_box", "collection_times": "Mo-Fr 15:00; Sa 10:30", "note": "ON 12/24 AND 12/31, THIS BOX MAY BE COLLECTED AS EARLY AS 12 NOON.", "nsi_id": "unitedstatespostalservice-a77078", "operator": "United States Postal Service", "operator:short": "USPS", "operator:type": "public", "operator:wikidata": "Q668687", "ref": "0068000019"}, "type": "Feature"}
{"geometry": {"coordinates": [-67.1508529, 18.161717], "type": "Point"}, "id": "YaxVoSvNwwBdFkWvEerdGiPo2Q8=", "properties": {"@source_uri": "https://tools.usps.com/UspsToolsRestServices/rest/POLocator/findLocations", "@spider": "usps_collection_boxes", "addr:city": "MAYAGUEZ", "addr:country": "US", "addr:postcode": "00680", "addr:state": "PR", "addr:street_address": "1020 CALLE WF BRENNAN", "amenity": "post_box", "collection_times": "Mo-Sa 09:00", "nsi_id": "unitedstatespostalservice-a77078", "operator": "United States Postal Service", "operator:short": "USPS", "operator:type": "public", "operator:wikidata": "Q668687", "ref": "0068000021"}, "type": "Feature"}
{"geometry": {"coordinates": [-67.151637, 18.185002], "type": "Point"}, "id": "6X7iHiuJXHtEOONAHoNmPs2aysU=", "properties": {"@source_uri": "https://tools.usps.com/UspsToolsRestServices/rest/POLocator/findLocations", "@spider": "usps_collection_boxes", "addr:city": "MAYAGUEZ", "addr:country": "US", "addr:postcode": "00680", "addr:state": "PR", "addr:street_address": "1 CALLE AMATISTA", "amenity": "post_box", "collection_times": "Mo-Sa 08:30", "nsi_id": "unitedstatespostalservice-a77078", "operator": "United States Postal Service", "operator:short": "USPS", "operator:type": "public", "operator:wikidata": "Q668687", "ref": "0068000023"}, "type": "Feature"}
{"geometry": {"coordinates": [-67.1508859, 18.183968], "type": "Point"}, "id": "ap7desVJXFmp6nckyT0ojfGiQiI=", "properties": {"@source_uri": "https://tools.usps.com/UspsToolsRestServices/rest/POLocator/findLocations", "@spider": "usps_collection_boxes", "addr:city": "MAYAGUEZ", "addr:country": "US", "addr:postcode": "00680", "addr:state": "PR", "addr:street_address": "345 AVE HOSTOS", "amenity": "post_box", "collection_times": "Mo-Sa 08:45", "nsi_id": "unitedstatespostalservice-a77078", "operator": "United States Postal Service", "operator:short": "USPS", "operator:type": "public", "operator:wikidata": "Q668687", "ref": "0068000024"}, "type": "Feature"}
{"geometry": {"coordinates": [-67.1371099, 18.200901], "type": "Point"}, "id": "BhuC__UysC9R2bHFGUUBhuipo5Y=", "properties": {"@source_uri": "https://tools.usps.com/UspsToolsRestServices/rest/POLocator/findLocations", "@spider": "usps_collection_boxes", "addr:city": "MAYAGUEZ", "addr:country": "US", "addr:postcode": "00680", "addr:state": "PR", "addr:street_address": "111 CALLE RAMOS ANTONINI E", "amenity": "post_box", "collection_times": "Mo-Sa 09:45", "nsi_id": "unitedstatespostalservice-a77078", "operator": "United States Postal Service", "operator:short": "USPS", "operator:type": "public", "operator:wikidata": "Q668687", "ref": "0068000025"}, "type": "Feature"}
{"geometry": {"coordinates": [-67.1455713, 18.196396], "type": "Point"}, "id": "HwoaIbdxEPo8lM06a_rwCVXf08k=", "properties": {"@source_uri": "https://tools.usps.com/UspsToolsRestServices/rest/POLocator/findLocations", "@spider": "usps_collection_boxes", "addr:city": "MAYAGUEZ", "addr:country": "US", "addr:postcode": "00680", "addr:state": "PR", "addr:street_address": "50 CALLE NENADICH W", "amenity": "post_box", "collection_times": "Mo-Sa 10:15", "nsi_id": "unitedstatespostalservice-a77078", "operator": "United States Postal Service", "operator:short": "USPS", "operator:type": "public", "operator:wikidata": "Q668687", "ref": "0068000027"}, "type": "Feature"}
{"geometry": {"coordinates": [-67.1402607, 18.202613], "type": "Point"}, "id": "whnfFH2InF7CMPV8HRv4_gQgLx8=", "properties": {"@source_uri": "https://tools.usps.com/UspsToolsRestServices/rest/POLocator/findLocations", "@spider": "usps_collection_boxes", "addr:city": "MAYAGUEZ", "addr:country": "US", "addr:postcode": "00680", "addr:state": "PR", "addr:street_address": "15 CALLE DE DIEGO E", "amenity": "post_box", "collection_times": "Mo-Sa 10:00", "nsi_id": "unitedstatespostalservice-a77078", "operator": "United States Postal Service", "operator:short": "USPS", "operator:type": "public", "operator:wikidata": "Q668687", "ref": "0068000028"}, "type": "Feature"}
{"geometry": {"coordinates": [-67.1522903, 18.180794], "type": "Point"}, "id": "XNs8wRuMhbr3ChKzE2kkzRd4UBU=", "properties": {"@source_uri": "https://tools.usps.com/UspsToolsRestServices/rest/POLocator/findLocations", "@spider": "usps_collection_boxes", "addr:city": "MAYAGUEZ", "addr:country": "US", "addr:postcode": "00680", "addr:state": "PR", "addr:street_address": "410 AVE HOSTOS", "amenity": "post_box", "collection_times": "Mo-Sa 08:30", "nsi_id": "unitedstatespostalservice-a77078", "operator": "United States Postal Service", "operator:short": "USPS", "operator:type": "public", "operator:wikidata": "Q668687", "ref": "0068000029"}, "type": "Feature"}
{"geometry": {"coordinates": [-67.1508185, 18.167104], "type": "Point"}, "id": "mHPXJVRdAu8oRu0mhssw49eo6Hs=", "properties": {"@source_uri": "https://tools.usps.com/UspsToolsRestServices/rest/POLocator/findLocations", "@spider": "usps_collection_boxes", "addr:city": "MAYAGUEZ", "addr:country": "US", "addr:postcode": "00680", "addr:state": "PR", "addr:street_address": "637 AVE STA TERESA JOURNET", "amenity": "post_box", "collection_times": "Mo-Sa 09:15", "nsi_id": "unitedstatespostalservice-a77078", "operator": "United States Postal Service", "operator:short": "USPS", "operator:type": "public", "operator:wikidata": "Q668687", "ref": "0068000030"}, "type": "Feature"}
{"geometry": {"coordinates": [-67.1416468, 18.197855], "type": "Point"}, "id": "BV22jysJXP162KuOY769CqWe-VE=", "properties": {"@source_uri": "https://tools.usps.com/UspsToolsRestServices/rest/POLocator/findLocations", "@spider": "usps_collection_boxes", "addr:city": "MAYAGUEZ", "addr:country": "US", "addr:postcode": "00680", "addr:state": "PR", "addr:street_address": "119 CALLE DR RAMON E BETANCES S", "amenity": "post_box", "collection_times": "Mo-Sa 09:00", "nsi_id": "unitedstatespostalservice-a77078", "operator": "United States Postal Service", "operator:short": "USPS", "operator:type": "public", "operator:wikidata": "Q668687", "ref": "0068000032"}, "type": "Feature"}
{"geometry": {"coordinates": [-67.1453639, 18.204171], "type": "Point"}, "id": "F6gHvWcQ9pWvbhEecAl78d6ElBk=", "properties": {"@source_uri": "https://tools.usps.com/UspsToolsRestServices/rest/POLocator/findLocations", "@spider": "usps_collection_boxes", "addr:city": "MAYAGUEZ", "addr:country": "US", "addr:postcode": "00680", "addr:state": "PR", "addr:street_address": "101 CALLE MENDEZ VIGO W", "amenity": "post_box", "collection_times": "Mo-Sa 10:45", "nsi_id": "unitedstatespostalservice-a77078", "operator": "United States Postal Service", "operator:short": "USPS", "operator:type": "public", "operator:wikidata": "Q668687", "ref": "0068000041"}, "type": "Feature"}
{"geometry": {"coordinates": [-67.1407318, 18.200373], "type": "Point"}, "id": "nbV3s008NeR9Ugl36j5crqt0xAM=", "properties": {"@source_uri": "https://tools.usps.com/UspsToolsRestServices/rest/POLocator/findLocations", "@spider": "usps_collection_boxes", "addr:city": "MAYAGUEZ", "addr:country": "US", "addr:postcode": "00680", "addr:state": "PR", "addr:street_address": "6 CALLE SANTIAGO R PALMER E", "amenity": "post_box", "collection_times": "Mo-Sa 09:45", "nsi_id": "unitedstatespostalservice-a77078", "operator": "United States Postal Service", "operator:short": "USPS", "operator:type": "public", "operator:wikidata": "Q668687", "ref": "0068000042"}, "type": "Feature"}
{"geometry": {"coordinates": [-67.1389221, 18.202831], "type": "Point"}, "id": "LJm-uy0u_vB5CAzBToIqE41GPzU=", "properties": {"@source_uri": "https://tools.usps.com/UspsToolsRestServices/rest/POLocator/findLocations", "@spider": "usps_collection_boxes", "addr:city": "MAYAGUEZ", "addr:country": "US", "addr:postcode": "00680", "addr:state": "PR", "addr:street_address": "55 CALLE MEDITACION", "amenity": "post_box", "collection_times": "Mo-Sa 10:00", "nsi_id": "unitedstatespostalservice-a77078", "operator": "United States Postal Service", "operator:short": "USPS", "operator:type": "public", "operator:wikidata": "Q668687", "ref": "0068000047"}, "type": "Feature"}
{"geometry": {"coordinates": [-67.1407218, 18.203403], "type": "Point"}, "id": "qxTYdYM9wYRpCGrOwUvfrBHVURg=", "properties": {"@source_uri": "https://tools.usps.com/UspsToolsRestServices/rest/POLocator/findLocations", "@spider": "usps_collection_boxes", "addr:city": "MAYAGUEZ", "addr:country": "US", "addr:postcode": "00680", "addr:state": "PR", "addr:street_address": "18 CALLE DR RAMON E BETANCES N", "amenity": "post_box", "collection_times": "Mo-Sa 10:45", "nsi_id": "unitedstatespostalservice-a77078", "operator": "United States Postal Service", "operator:short": "USPS", "operator:type": "public", "operator:wikidata": "Q668687", "ref": "0068000049"}, "type": "Feature"}
{"geometry": {"coordinates": [-67.1350642, 18.201623], "type": "Point"}, "id": "nvNyWIMeRtwo6aNltRuldzuwRP4=", "properties": {"@source_uri": "https://tools.usps.com/UspsToolsRestServices/rest/POLocator/findLocations", "@spider": "usps_collection_boxes", "addr:city": "MAYAGUEZ", "addr:country": "US", "addr:postcode": "00680", "addr:state": "PR", "addr:street_address": "169 CALLE MENDEZ VIGO E", "amenity": "post_box", "collection_times": "Mo-Sa 09:30", "nsi_id": "unitedstatespostalservice-a77078", "operator": "United States Postal Service", "operator:short": "USPS", "operator:type": "public", "operator:wikidata": "Q668687", "ref": "0068000050"}, "type": "Feature"}
{"geometry": {"coordinates": [-67.1371945, 18.204144], "type": "Point"}, "id": "xL9mbfiGdOa9oncqj0ltzfd6i7A=", "properties": {"@source_uri": "https://tools.usps.com/UspsToolsRestServices/rest/POLocator/findLocations", "@spider": "usps_collection_boxes", "addr:city": "MAYAGUEZ", "addr:country": "US", "addr:postcode": "00680", "addr:state": "PR", "addr:street_address": "59 CALLE MARTINZ NDL N", "amenity": "post_box", "collection_times": "Mo-Sa 09:30", "nsi_id": "unitedstatespostalservice-a77078", "operator": "United States Postal Service", "operator:short": "USPS", "operator:type": "public", "operator:wikidata": "Q668687", "ref": "0068000060"}, "type": "Feature"}
{"geometry": {"coordinates": [-67.13683, 18.198755], "type": "Point"}, "id": "oosEXRLA2XiDjPSZIITLSqlW_oQ=", "properties": {"@source_uri": "https://tools.usps.com/UspsToolsRestServices/rest/POLocator/findLocations", "@spider": "usps_collection_boxes", "addr:city": "MAYAGUEZ", "addr:country": "US", "addr:postcode": "00680", "addr:state": "PR", "addr:street_address": "1 CALLE 1", "amenity": "post_box", "collection_times": "Mo-Sa 10:15", "nsi_id": "unitedstatespostalservice-a77078", "operator": "United States Postal Service", "operator:short": "USPS", "operator:type": "public", "operator:wikidata": "Q668687", "ref": "0068000065"}, "type": "Feature"}
{"geometry": {"coordinates": [-67.1576347, 18.235895], "type": "Point"}, "id": "9BsMpA0dPdvDKWjfud-RNjCoGfg=", "properties": {"@source_uri": "https://tools.usps.com/UspsToolsRestServices/rest/POLocator/findLocations", "@spider": "usps_collection_boxes", "addr:city": "MAYAGUEZ", "addr:country": "US", "addr:postcode": "00680", "addr:state": "PR", "addr:street_address": "205 AVE ALGARROBO", "amenity": "post_box", "collection_times": "Mo-Sa 09:15", "nsi_id": "unitedstatespostalservice-a77078", "operator": "United States Postal Service", "operator:short": "USPS", "operator:type": "public", "operator:wikidata": "Q668687", "ref": "0068000073"}, "type": "Feature"}
{"geometry": {"coordinates": [-67.1392205, 18.17972], "type": "Point"}, "id": "xXZ4QXqgjU-xeXY5pmgka61mwuw=", "properties": {"@source_uri": "https://tools.usps.com/UspsToolsRestServices/rest/POLocator/findLocations", "@spider": "usps_collection_boxes", "addr:city": "MAYAGUEZ", "addr:country": "US", "addr:postcode": "00680", "addr:state": "PR", "addr:street_address": "500 CALLE ROBERTO COLE", "amenity": "post_box", "collection_times": "Mo-Sa 09:30", "nsi_id": "unitedstatespostalservice-a77078", "operator": "United States Postal Service", "operator:short": "USPS", "operator:type": "public", "operator:wikidata": "Q668687", "ref": "0068000074"}, "type": "Feature"}
{"geometry": {"coordinates": [-67.1364076, 18.229081], "type": "Point"}, "id": "he3dyXalERh8gurNfqS6GM9gooo=", "properties": {"@source_uri": "https://tools.usps.com/UspsToolsRestServices/rest/POLocator/findLocations", "@spider": "usps_collection_boxes", "addr:city": "MAYAGUEZ", "addr:country": "US", "addr:postcode": "00680", "addr:state": "PR", "addr:street_address": "1445 CARR 108", "amenity": "post_box", "collection_times": "Mo-Sa 10:30", "nsi_id": "unitedstatespostalservice-a77078", "operator": "United States Postal Service", "operator:short": "USPS", "operator:type": "public", "operator:wikidata": "Q668687", "ref": "0068000076"}, "type": "Feature"}
{"geometry": {"coordinates": [-67.1469288, 18.173521], "type": "Point"}, "id": "6kFyuVNd1CnrMcbfva-GyEERxtk=", "properties": {"@source_uri": "https://tools.usps.com/UspsToolsRestServices/rest/POLocator/findLocations", "@spider": "usps_collection_boxes", "addr:city": "MAYAGUEZ", "addr:country": "US", "addr:postcode": "00680", "addr:state": "PR", "addr:street_address": "1040 AVE LOS CORAZONES", "amenity": "post_box", "collection_times": "Mo-Sa 09:30", "nsi_id": "unitedstatespostalservice-a77078", "operator": "United States Postal Service", "operator:short": "USPS", "operator:type": "public", "operator:wikidata": "Q668687", "ref": "0068000082"}, "type": "Feature"}
{"geometry": {"coordinates": [-67.1632206, 18.242735], "type": "Point"}, "id": "L-CGLx21xaVgu987lHpl26WuncY=", "properties": {"@source_uri": "https://tools.usps.com/UspsToolsRestServices/rest/POLocator/findLocations", "@spider": "usps_collection_boxes", "addr:city": "MAYAGUEZ", "addr:country": "US", "addr:postcode": "00680", "addr:state": "PR", "addr:street_address": "2765 AVE HOSTOS", "amenity": "post_box", "collection_times": "Mo-Sa 09:15", "nsi_id": "unitedstatespostalservice-a77078", "operator": "United States Postal Service", "operator:short": "USPS", "operator:type": "public", "operator:wikidata": "Q668687", "ref": "0068000088"}, "type": "Feature"}
{"geometry": {"coordinates": [-67.1425304, 18.187823], "type": "Point"}, "id": "XikfFh-De2Kh43hFL_k0wNtEA8w=", "properties": {"@source_uri": "https://tools.usps.com/UspsToolsRestServices/rest/POLocator/findLocations", "@spider": "usps_collection_boxes", "addr:city": "MAYAGUEZ", "addr:country": "US", "addr:postcode": "00680", "addr:state": "PR", "addr:street_address": "345 CALLE DR RAMON E BETANCES S", "amenity": "post_box", "collection_times": "Mo-Sa 09:30", "nsi_id": "unitedstatespostalservice-a77078", "operator": "United States Postal Service", "operator:short": "USPS", "operator:type": "public", "operator:wikidata": "Q668687", "ref": "0068000089"}, "type": "Feature"}
{"geometry": {"coordinates": [-67.1427852, 18.155145], "type": "Point"}, "id": "EjJiuhmSje4u1RtqdvnBrsRs5Ao=", "properties": {"@source_uri": "https://tools.usps.com/UspsToolsRestServices/rest/POLocator/findLocations", "@spider": "usps_collection_boxes", "addr:city": "MAYAGUEZ", "addr:country": "US", "addr:postcode": "00680", "addr:state": "PR", "addr:street_address": "975 AVE HOSTOS", "amenity": "post_box", "collection_times": "Mo-Sa 09:15", "nsi_id": "unitedstatespostalservice-a77078", "operator": "United States Postal Service", "operator:short": "USPS", "operator:type": "public", "operator:wikidata": "Q668687", "ref": "0068000090"}, "type": "Feature"}
{"geometry": {"coordinates": [-67.1396082, 18.201301], "type": "Point"}, "id": "NC6bWNKq4d-9c0RSeHqvNmB8RKY=", "properties": {"@source_uri": "https://tools.usps.com/UspsToolsRestServices/rest/POLocator/findLocations", "@spider": "usps_collection_boxes", "addr:city": "MAYAGUEZ", "addr:country": "US", "addr:postcode": "00680", "addr:state": "PR", "addr:street_address": "8 CALLE PERAL S", "amenity": "post_box", "collection_times": "Mo-Sa 10:00", "nsi_id": "unitedstatespostalservice-a77078", "operator": "United States Postal Service", "operator:short": "USPS", "operator:type": "public", "operator:wikidata": "Q668687", "ref": "0068000091"}, "type": "Feature"}
{"geometry": {"coordinates": [-67.1492672, 18.18727], "type": "Point"}, "id": "sy6Qifh0iqlg-aflWqNacurG4Mk=", "properties": {"@source_uri": "https://tools.usps.com/UspsToolsRestServices/rest/POLocator/findLocations", "@spider": "usps_collection_boxes", "addr:city": "MAYAGUEZ", "addr:country": "US", "addr:postcode": "00680", "addr:state": "PR", "addr:street_address": "91 AVE HIRAM D CABASSA", "amenity": "post_box", "collection_times": "Mo-Fr 08:30; Sa 09:00", "nsi_id": "unitedstatespostalservice-a77078", "operator": "United States Postal Service", "operator:short": "USPS", "operator:type": "public", "operator:wikidata": "Q668687", "ref": "0068000092"}, "type": "Feature"}
{"geometry": {"coordinates": [-67.1398924737, 18.2012846725], "type": "Point"}, "id": "HvacTg2tZHRtH3Ub4xeSo8JYBFE=", "properties": {"@source_uri": "https://tools.usps.com/UspsToolsRestServices/rest/POLocator/findLocations", "@spider": "usps_collection_boxes", "addr:city": "MAYAGUEZ", "addr:country": "US", "addr:postcode": "00680", "addr:state": "PR", "addr:street_address": "60 CALLE DE LA CANDELARIA W", "amenity": "post_box", "collection_times": "Mo-Fr 15:00; Sa 10:45", "indoor": "yes", "note": "ON 12/24 AND 12/31, THIS BOX MAY BE COLLECTED AS EARLY AS 12 NOON.", "nsi_id": "unitedstatespostalservice-a77078", "operator": "United States Postal Service", "operator:short": "USPS", "operator:type": "public", "operator:wikidata": "Q668687", "ref": "0068000094"}, "type": "Feature"}
{"geometry": {"coordinates": [-67.1506272, 18.205929], "type": "Point"}, "id": "xD9bGgXE873e8M1cLnQslPj8eu4=", "properties": {"@source_uri": "https://tools.usps.com/UspsToolsRestServices/rest/POLocator/findLocations", "@spider": "usps_collection_boxes", "addr:city": "MAYAGUEZ", "addr:country": "US", "addr:postcode": "00680", "addr:state": "PR", "addr:street_address": "270 CALLE DE LA CANDELARIA", "amenity": "post_box", "collection_times": "Mo-Fr 15:00; Sa 10:30", "indoor": "yes", "note": "ON 12/24 AND 12/31, THIS BOX MAY BE COLLECTED AS EARLY AS 12 NOON.", "nsi_id": "unitedstatespostalservice-a77078", "operator": "United States Postal Service", "operator:short": "USPS", "operator:type": "public", "operator:wikidata": "Q668687", "ref": "0068000095"}, "type": "Feature"}
{"geometry": {"coordinates": [-67.1398924737, 18.2012846725], "type": "Point"}, "id": "nqUGgKps9M9k8LKQlCoxrvDYMXM=", "properties": {"@source_uri": "https://tools.usps.com/UspsToolsRestServices/rest/POLocator/findLocations", "@spider": "usps_collection_boxes", "addr:city": "MAYAGUEZ", "addr:country": "US", "addr:postcode": "00680", "addr:state": "PR", "addr:street_address": "60 CALLE DE LA CANDELARIA W", "amenity": "post_box", "collection_times": "Mo-Fr 17:00; Sa 13:15", "indoor": "yes", "note": "ON 12/24 AND 12/31, THIS BOX MAY BE COLLECTED AS EARLY AS 12 NOON.", "nsi_id": "unitedstatespostalservice-a77078", "operator": "United States Postal Service", "operator:short": "USPS", "operator:type": "public", "operator:wikidata": "Q668687", "ref": "0068000097"}, "type": "Feature"}
{"geometry": {"coordinates": [-67.134962917, 18.201090991], "type": "Point"}, "id": "xXJEzw2XHLjAT6G7oGitFSNCiuU=", "properties": {"@source_uri": "https://tools.usps.com/UspsToolsRestServices/rest/POLocator/findLocations", "@spider": "usps_collection_boxes", "addr:city": "MAYAGUEZ", "addr:country": "US", "addr:postcode": "00680", "addr:state": "PR", "addr:street_address": "270 CALLE DE LA CANDELARIA E", "amenity": "post_box", "collection_times": "Mo-Fr 16:30; Sa 12:15", "indoor": "yes", "note": "ON 12/24 AND 12/31, THIS BOX MAY BE COLLECTED AS EARLY AS 12 NOON.", "nsi_id": "unitedstatespostalservice-a77078", "operator": "United States Postal Service", "operator:short": "USPS", "operator:type": "public", "operator:wikidata": "Q668687", "ref": "0068000098"}, "type": "Feature"}
{"geometry": {"coordinates": [-67.0304638, 18.07871], "type": "Point"}, "id": "hDYw9Q53tLY6ZS1lUUXXa9OG10U=", "properties": {"@source_uri": "https://tools.usps.com/UspsToolsRestServices/rest/POLocator/findLocations", "@spider": "usps_collection_boxes", "addr:city": "SAN GERMAN", "addr:country": "US", "addr:postcode": "00683", "addr:state": "PR", "addr:street_address": "A28 AVE UNIV INTERAMERICANA", "amenity": "post_box", "collection_times": "Mo-Sa 15:00", "note": "ON 12/24 AND 12/31, THIS BOX MAY BE COLLECTED AS EARLY AS 12 NOON.", "nsi_id": "unitedstatespostalservice-a77078", "operator": "United States Postal Service", "operator:short": "USPS", "operator:type": "public", "operator:wikidata": "Q668687", "ref": "0068300004"}, "type": "Feature"}
{"geometry": {"coordinates": [-67.0412936, 18.081337], "type": "Point"}, "id": "QtWb010M7BYWj-7VodjgY2aD9B8=", "properties": {"@source_uri": "https://tools.usps.com/UspsToolsRestServices/rest/POLocator/findLocations", "@spider": "usps_collection_boxes", "addr:city": "SAN GERMAN", "addr:country": "US", "addr:postcode": "00683", "addr:state": "PR", "addr:street_address": "94 AVE UNIV INTERAMERICANA", "amenity": "post_box", "collection_times": "Mo-Sa 09:00", "nsi_id": "unitedstatespostalservice-a77078", "operator": "United States Postal Service", "operator:short": "USPS", "operator:type": "public", "operator:wikidata": "Q668687", "ref": "0068300005"}, "type": "Feature"}
{"geometry": {"coordinates": [-67.0422715, 18.082986], "type": "Point"}, "id": "TddUyoqzp0chjGdDWvN_Jp5Qsqc=", "properties": {"@source_uri": "https://tools.usps.com/UspsToolsRestServices/rest/POLocator/findLocations", "@spider": "usps_collection_boxes", "addr:city": "SAN GERMAN", "addr:country": "US", "addr:postcode": "00683", "addr:state": "PR", "addr:street_address": "1 AVE DEL VETERANO", "amenity": "post_box", "collection_times": "Mo-Sa 08:15", "nsi_id": "unitedstatespostalservice-a77078", "operator": "United States Postal Service", "operator:short": "USPS", "operator:type": "public", "operator:wikidata": "Q668687", "ref": "0068300010"}, "type": "Feature"}
{"geometry": {"coordinates": [-67.0357104, 18.080016], "type": "Point"}, "id": "da6B7qO9hxjNldI7c3kC-3p9TqU=", "properties": {"@source_uri": "https://tools.usps.com/UspsToolsRestServices/rest/POLocator/findLocations", "@spider": "usps_collection_boxes", "addr:city": "SAN GERMAN", "addr:country": "US", "addr:postcode": "00683", "addr:state": "PR", "addr:street_address": "181 AVE UNIV INTERAMERICANA", "amenity": "post_box", "collection_times": "Mo-Fr 15:00; Sa 08:30", "note": "ON 12/24 AND 12/31, THIS BOX MAY BE COLLECTED AS EARLY AS 12 NOON.", "nsi_id": "unitedstatespostalservice-a77078", "operator": "United States Postal Service", "operator:short": "USPS", "operator:type": "public", "operator:wikidata": "Q668687", "ref": "0068300011"}, "type": "Feature"}
{"geometry": {"coordinates": [-67.0315049, 18.090701], "type": "Point"}, "id": "n5t90A5iPeAyKyizY8w8Lcc8GTE=", "properties": {"@source_uri": "https://tools.usps.com/UspsToolsRestServices/rest/POLocator/findLocations", "@spider": "usps_collection_boxes", "addr:city": "SAN GERMAN", "addr:country": "US", "addr:postcode": "00683", "addr:state": "PR", "addr:street_address": "355 AVE CASTO PEREZ", "amenity": "post_box", "collection_times": "Mo-Sa 08:15", "nsi_id": "unitedstatespostalservice-a77078", "operator": "United States Postal Service", "operator:short": "USPS", "operator:type": "public", "operator:wikidata": "Q668687", "ref": "0068300012"}, "type": "Feature"}
{"geometry": {"coordinates": [-67.0383182, 18.098381], "type": "Point"}, "id": "XarMULCdeoqgXHTyT7Fko5eibJA=", "properties": {"@source_uri": "https://tools.usps.com/UspsToolsRestServices/rest/POLocator/findLocations", "@spider": "usps_collection_boxes", "addr:city": "SAN GERMAN", "addr:country": "US", "addr:postcode": "00683", "addr:state": "PR", "addr:street_address": "915 CARR 2", "amenity": "post_box", "collection_times": "Mo-Sa 09:30", "nsi_id": "unitedstatespostalservice-a77078", "operator": "United States Postal Service", "operator:short": "USPS", "operator:type": "public", "operator:wikidata": "Q668687", "ref": "0068300013"}, "type": "Feature"}
{"geometry": {"coordinates": [-67.039965, 18.08119], "type": "Point"}, "id": "ytdtlRtlOgRz0Qskbeum89uRE14=", "properties": {"@source_uri": "https://tools.usps.com/UspsToolsRestServices/rest/POLocator/findLocations", "@spider": "usps_collection_boxes", "addr:city": "SAN GERMAN", "addr:country": "US", "addr:postcode": "00683", "addr:state": "PR", "addr:street_address": "5 AVE CASTO PEREZ", "amenity": "post_box", "collection_times": "Mo-Sa 09:30", "nsi_id": "unitedstatespostalservice-a77078", "operator": "United States Postal Service", "operator:short": "USPS", "operator:type": "public", "operator:wikidata": "Q668687", "ref": "0068300014"}, "type": "Feature"}
{"geometry": {"coordinates": [-67.0462493, 18.081074], "type": "Point"}, "id": "ZHI2qCI70d4MK5f9uSGJ6svQxXc=", "properties": {"@source_uri": "https://tools.usps.com/UspsToolsRestServices/rest/POLocator/findLocations", "@spider": "usps_collection_boxes", "addr:city": "SAN GERMAN", "addr:country": "US", "addr:postcode": "00683", "addr:state": "PR", "addr:street_address": "12 CALLE CONCEPCION", "amenity": "post_box", "collection_times": "Mo-Sa 10:30", "nsi_id": "unitedstatespostalservice-a77078", "operator": "United States Postal Service", "operator:short": "USPS", "operator:type": "public", "operator:wikidata": "Q668687", "ref": "0068300016"}, "type": "Feature"}
{"geometry": {"coordinates": [-67.0357784, 18.080018], "type": "Point"}, "id": "nAZgsUJ5QDaDvPA8rdliOl1mf9s=", "properties": {"@source_uri": "https://tools.usps.com/UspsToolsRestServices/rest/POLocator/findLocations", "@spider": "usps_collection_boxes", "addr:city": "SAN GERMAN", "addr:country": "US", "addr:postcode": "00683", "addr:state": "PR", "addr:street_address": "181 AVE UNIV INTERAMERICANA", "amenity": "post_box", "collection_times": "Mo-Fr 15:00; Sa 08:30", "indoor": "yes", "note": "ON 12/24 AND 12/31, THIS BOX MAY BE COLLECTED AS EARLY AS 12 NOON.", "nsi_id": "unitedstatespostalservice-a77078", "operator": "United States Postal Service", "operator:short": "USPS", "operator:type": "public", "operator:wikidata": "Q668687", "ref": "0068300017"}, "type": "Feature"}
{"geometry": {"coordinates": [-67.035777212, 18.080137385], "type": "Point"}, "id": "M3Yd2VhLts5lksAUHsLVOAS34FA=", "properties": {"@source_uri": "https://tools.usps.com/UspsToolsRestServices/rest/POLocator/findLocations", "@spider": "usps_collection_boxes", "addr:city": "SAN GERMAN", "addr:country": "US", "addr:postcode": "00683", "addr:state": "PR", "addr:street_address": "181 AVE UNIV INTERAMERICANA", "amenity": "post_box", "collection_times": "Mo-Fr 15:45; Sa 12:15", "indoor": "yes", "note": "ON 12/24 AND 12/31, THIS BOX MAY BE COLLECTED AS EARLY AS 12 NOON.", "nsi_id": "unitedstatespostalservice-a77078", "operator": "United States Postal Service", "operator:short": "USPS", "operator:type": "public", "operator:wikidata": "Q668687", "ref": "0068300018"}, "type": "Feature"}
{"geometry": {"coordinates": [-66.9958349, 18.337183], "type": "Point"}, "id": "YpQrf9rkewUnmp7lSFsB8bss5s8=", "properties": {"@source_uri": "https://tools.usps.com/UspsToolsRestServices/rest/POLocator/findLocations", "@spider": "usps_collection_boxes", "addr:city": "SAN SEBASTIAN", "addr:country": "US", "addr:postcode": "00685", "addr:state": "PR", "addr:street_address": "1001 AVE EMERITO ESTRADA", "amenity": "post_box", "collection_times": "Mo-Sa 08:00", "nsi_id": "unitedstatespostalservice-a77078", "operator": "United States Postal Service", "operator:short": "USPS", "operator:type": "public", "operator:wikidata": "Q668687", "ref": "0068500007"}, "type": "Feature"}
{"geometry": {"coordinates": [-66.989992165, 18.338198417], "type": "Point"}, "id": "d1_AV48rPeA5G324oyiiQ5DDK_8=", "properties": {"@source_uri": "https://tools.usps.com/UspsToolsRestServices/rest/POLocator/findLocations", "@spider": "usps_collection_boxes", "addr:city": "SAN SEBASTIAN", "addr:country": "US", "addr:postcode": "00685", "addr:state": "PR", "addr:street_address": "54 CALLE MJ CABRERO", "amenity": "post_box", "collection_times": "Mo-Sa 08:15", "nsi_id": "unitedstatespostalservice-a77078", "operator": "United States Postal Service", "operator:short": "USPS", "operator:type": "public", "operator:wikidata": "Q668687", "ref": "0068500009"}, "type": "Feature"}
{"geometry": {"coordinates": [-66.9898119, 18.33595], "type": "Point"}, "id": "sFKmwMM9cxqhVxIpE8JdMpQ1-mM=", "properties": {"@source_uri": "https://tools.usps.com/UspsToolsRestServices/rest/POLocator/findLocations", "@spider": "usps_collection_boxes", "addr:city": "SAN SEBASTIAN", "addr:country": "US", "addr:postcode": "00685", "addr:state": "PR", "addr:street_address": "29 CALLE HOSTOS", "amenity": "post_box", "collection_times": "Mo-Sa 08:15", "nsi_id": "unitedstatespostalservice-a77078", "operator": "United States Postal Service", "operator:short": "USPS", "operator:type": "public", "operator:wikidata": "Q668687", "ref": "0068500012"}, "type": "Feature"}
{"geometry": {"coordinates": [-66.9909559, 18.337077], "type": "Point"}, "id": "pMmbboEw9XmlmO9TLkE8OznafZk=", "properties": {"@source_uri": "https://tools.usps.com/UspsToolsRestServices/rest/POLocator/findLocations", "@spider": "usps_collection_boxes", "addr:city": "SAN SEBASTIAN", "addr:country": "US", "addr:postcode": "00685", "addr:state": "PR", "addr:street_address": "9 CALLE PADRE FELICIANO", "amenity": "post_box", "collection_times": "Mo-Sa 08:00", "nsi_id": "unitedstatespostalservice-a77078", "operator": "United States Postal Service", "operator:short": "USPS", "operator:type": "public", "operator:wikidata": "Q668687", "ref": "0068500013"}, "type": "Feature"}
{"geometry": {"coordinates": [-66.9939399, 18.335621], "type": "Point"}, "id": "me-UlLMGGZ0TPnBGGpmwSemDod8=", "properties": {"@source_uri": "https://tools.usps.com/UspsToolsRestServices/rest/POLocator/findLocations", "@spider": "usps_collection_boxes", "addr:city": "SAN SEBASTIAN", "addr:country": "US", "addr:postcode": "00685", "addr:state": "PR", "addr:street_address": "206 CALLE RUIZ BELVIS", "amenity": "post_box", "collection_times": "Mo-Fr 15:00; Sa 08:15", "note": "ON 12/24 AND 12/31, THIS BOX MAY BE COLLECTED AS EARLY AS 12 NOON.", "nsi_id": "unitedstatespostalservice-a77078", "operator": "United States Postal Service", "operator:short": "USPS", "operator:type": "public", "operator:wikidata": "Q668687", "ref": "0068500015"}, "type": "Feature"}
{"geometry": {"coordinates": [-66.9940859, 18.336112], "type": "Point"}, "id": "1cnhQ83VIfLw7OpgS1kzI_26nro=", "properties": {"@source_uri": "https://tools.usps.com/UspsToolsRestServices/rest/POLocator/findLocations", "@spider": "usps_collection_boxes", "addr:city": "SAN SEBASTIAN", "addr:country": "US", "addr:postcode": "00685", "addr:state": "PR", "addr:street_address": "206 CALLE RUIZ BELVIS", "amenity": "post_box", "collection_times": "Mo-Fr 15:00; Sa 08:15", "indoor": "yes", "note": "ON 12/24 AND 12/31, THIS BOX MAY BE COLLECTED AS EARLY AS 12 NOON.", "nsi_id": "unitedstatespostalservice-a77078", "operator": "United States Postal Service", "operator:short": "USPS", "operator:type": "public", "operator:wikidata": "Q668687", "ref": "0068500016"}, "type": "Feature"}
{"geometry": {"coordinates": [-66.993935951, 18.335575729], "type": "Point"}, "id": "ujIXf7MK6np-6yGfDs7ngdjWSyA=", "properties": {"@source_uri": "https://tools.usps.com/UspsToolsRestServices/rest/POLocator/findLocations", "@spider": "usps_collection_boxes", "addr:city": "SAN SEBASTIAN", "addr:country": "US", "addr:postcode": "00685", "addr:state": "PR", "addr:street_address": "206 CALLE RUIZ BELVIS", "amenity": "post_box", "collection_times": "Mo-Fr 16:00; Sa 12:15", "indoor": "yes", "note": "ON 12/24 AND 12/31, THIS BOX MAY BE COLLECTED AS EARLY AS 12 NOON.", "nsi_id": "unitedstatespostalservice-a77078", "operator": "United States Postal Service", "operator:short": "USPS", "operator:type": "public", "operator:wikidata": "Q668687", "ref": "0068500017"}, "type": "Feature"}
{"geometry": {"coordinates": [-66.406937, 18.328821], "type": "Point"}, "id": "g8Ecdy6gGiLVJGfJbBRaKBrVouc=", "properties": {"@source_uri": "https://tools.usps.com/UspsToolsRestServices/rest/POLocator/findLocations", "@spider": "usps_collection_boxes", "addr:city": "MOROVIS", "addr:country": "US", "addr:postcode": "00687", "addr:state": "PR", "addr:street_address": "66 CALLE BUENA VIS", "amenity": "post_box", "collection_times": "Mo-Sa 10:00", "nsi_id": "unitedstatespostalservice-a77078", "operator": "United States Postal Service", "operator:short": "USPS", "operator:type": "public", "operator:wikidata": "Q668687", "ref": "0068700001"}, "type": "Feature"}
{"geometry": {"coordinates": [-66.4062623, 18.326535], "type": "Point"}, "id": "MTgDcAJCWCz5or8TaRlKzRkwR_A=", "properties": {"@source_uri": "https://tools.usps.com/UspsToolsRestServices/rest/POLocator/findLocations", "@spider": "usps_collection_boxes", "addr:city": "MOROVIS", "addr:country": "US", "addr:postcode": "00687", "addr:state": "PR", "addr:street_address": "5 CALLE BUENA VIS", "amenity": "post_box", "collection_times": "Mo-Sa 10:30", "nsi_id": "unitedstatespostalservice-a77078", "operator": "United States Postal Service", "operator:short": "USPS", "operator:type": "public", "operator:wikidata": "Q668687", "ref": "0068700005"}, "type": "Feature"}
{"geometry": {"coordinates": [-66.40455, 18.32269], "type": "Point"}, "id": "pNZSib67JJo74RJLUi8bqpwqatQ=", "properties": {"@source_uri": "https://tools.usps.com/UspsToolsRestServices/rest/POLocator/findLocations", "@spider": "usps_collection_boxes", "addr:city": "MOROVIS", "addr:country": "US", "addr:postcode": "00687", "addr:state": "PR", "addr:street_address": "200 CARR 155", "amenity": "post_box", "collection_times": "Mo-Fr 16:00; Sa 09:00", "note": "ON 12/24 AND 12/31, THIS BOX MAY BE COLLECTED AS EARLY AS 12 NOON.", "nsi_id": "unitedstatespostalservice-a77078", "operator": "United States Postal Service", "operator:short": "USPS", "operator:type": "public", "operator:wikidata": "Q668687", "ref": "0068700006"}, "type": "Feature"}
{"geometry": {"coordinates": [-66.612569, 18.422435], "type": "Point"}, "id": "u1OJnJYM3pn7icXsuceXwelF2qA=", "properties": {"@source_uri": "https://tools.usps.com/UspsToolsRestServices/rest/POLocator/findLocations", "@spider": "usps_collection_boxes", "addr:city": "SABANA HOYOS", "addr:country": "US", "addr:postcode": "00688", "addr:state": "PR", "addr:street_address": "50 CARR 639", "amenity": "post_box", "collection_times": "Mo-Fr 15:00; Sa 08:00", "note": "ON 12/24 AND 12/31, THIS BOX MAY BE COLLECTED AS EARLY AS 12 NOON.", "nsi_id": "unitedstatespostalservice-a77078", "operator": "United States Postal Service", "operator:short": "USPS", "operator:type": "public", "operator:wikidata": "Q668687", "ref": "0068800001"}, "type": "Feature"}
{"geometry": {"coordinates": [-66.612569, 18.422435], "type": "Point"}, "id": "nN_DtcG14QCz-4MSWdCcFgTsmZo=", "properties": {"@source_uri": "https://tools.usps.com/UspsToolsRestServices/rest/POLocator/findLocations", "@spider": "usps_collection_boxes", "addr:city": "SABANA HOYOS", "addr:country": "US", "addr:postcode": "00688", "addr:state": "PR", "addr:street_address": "50 CARR 639", "amenity": "post_box", "collection_times": "Mo-Fr 15:00; Sa 08:00", "indoor": "yes", "note": "ON 12/24 AND 12/31, THIS BOX MAY BE COLLECTED AS EARLY AS 12 NOON.", "nsi_id": "unitedstatespostalservice-a77078", "operator": "United States Postal Service", "operator:short": "USPS", "operator:type": "public", "operator:wikidata": "Q668687", "ref": "0068800002"}, "type": "Feature"}
{"geometry": {"coordinates": [-66.602304415, 18.397342014], "type": "Point"}, "id": "IQSRzgmMShjBmUXvWXoi2E6KI88=", "properties": {"@source_uri": "https://tools.usps.com/UspsToolsRestServices/rest/POLocator/findLocations", "@spider": "usps_collection_boxes", "addr:city": "SABANA HOYOS", "addr:country": "US", "addr:postcode": "00688", "addr:state": "PR", "addr:street_address": "50 CARR 639", "amenity": "post_box", "collection_times": "Mo-Fr 16:15; Sa 12:00", "indoor": "yes", "note": "ON 12/24 AND 12/31, THIS BOX MAY BE COLLECTED AS EARLY AS 12 NOON.", "nsi_id": "unitedstatespostalservice-a77078", "operator": "United States Postal Service", "operator:short": "USPS", "operator:type": "public", "operator:wikidata": "Q668687", "ref": "0068800003"}, "type": "Feature"}
{"geometry": {"coordinates": [-67.097885, 18.495415], "type": "Point"}, "id": "yklxcsEgsktvrwKMgXN8Y9pkXAY=", "properties": {"@source_uri": "https://tools.usps.com/UspsToolsRestServices/rest/POLocator/findLocations", "@spider": "usps_collection_boxes", "addr:city": "SAN ANTONIO", "addr:country": "US", "addr:postcode": "00690", "addr:state": "PR", "addr:street_address": "1068 AVE GENERAL RAMEY", "amenity": "post_box", "collection_times": "Mo-Fr 15:00; Sa 08:00", "note": "ON 12/24 AND 12/31, THIS BOX MAY BE COLLECTED AS EARLY AS 12 NOON.", "nsi_id": "unitedstatespostalservice-a77078", "operator": "United States Postal Service", "operator:short": "USPS", "operator:type": "public", "operator:wikidata": "Q668687", "ref": "0069000001"}, "type": "Feature"}
{"geometry": {"coordinates": [-67.09953, 18.492139], "type": "Point"}, "id": "HCguIvG23gJprZJNY__uQXWwQps=", "properties": {"@source_uri": "https://tools.usps.com/UspsToolsRestServices/rest/POLocator/findLocations", "@spider": "usps_collection_boxes", "addr:city": "SAN ANTONIO", "addr:country": "US", "addr:postcode": "00690", "addr:state": "PR", "addr:street_address": "1068 AVE GENERAL RAMEY", "amenity": "post_box", "collection_times": "Mo-Fr 15:00; Sa 08:00", "indoor": "yes", "note": "ON 12/24 AND 12/31, THIS BOX MAY BE COLLECTED AS EARLY AS 12 NOON.", "nsi_id": "unitedstatespostalservice-a77078", "operator": "United States Postal Service", "operator:short": "USPS", "operator:type": "public", "operator:wikidata": "Q668687", "ref": "0069000002"}, "type": "Feature"}
{"geometry": {"coordinates": [-67.098380162, 18.492102293], "type": "Point"}, "id": "O349f14R1H9vVep0Sj7pCzqb5tU=", "properties": {"@source_uri": "https://tools.usps.com/UspsToolsRestServices/rest/POLocator/findLocations", "@spider": "usps_collection_boxes", "addr:city": "SAN ANTONIO", "addr:country": "US", "addr:postcode": "00690", "addr:state": "PR", "addr:street_address": "1068 AVE GENERAL RAMEY", "amenity": "post_box", "collection_times": "Mo-Fr 16:00; Sa 12:00", "indoor": "yes", "note": "ON 12/24 AND 12/31, THIS BOX MAY BE COLLECTED AS EARLY AS 12 NOON.", "nsi_id": "unitedstatespostalservice-a77078", "operator": "United States Postal Service", "operator:short": "USPS", "operator:type": "public", "operator:wikidata": "Q668687", "ref": "0069000003"}, "type": "Feature"}
{"geometry": {"coordinates": [-66.329314241, 18.411866757], "type": "Point"}, "id": "oxHrjyfp6ohLNviUI9wRXPUUXY8=", "properties": {"@source_uri": "https://tools.usps.com/UspsToolsRestServices/rest/POLocator/findLocations", "@spider": "usps_collection_boxes", "addr:city": "VEGA ALTA", "addr:country": "US", "addr:postcode": "00692", "addr:state": "PR", "addr:street_address": "100 CARR 678", "amenity": "post_box", "collection_times": "Mo-Sa 08:30", "nsi_id": "unitedstatespostalservice-a77078", "operator": "United States Postal Service", "operator:short": "USPS", "operator:type": "public", "operator:wikidata": "Q668687", "ref": "0069200001"}, "type": "Feature"}
{"geometry": {"coordinates": [-66.3297047, 18.414617], "type": "Point"}, "id": "7Br4Z1XI0V4nyYAx5EE3SlCc0Io=", "properties": {"@source_uri": "https://tools.usps.com/UspsToolsRestServices/rest/POLocator/findLocations", "@spider": "usps_collection_boxes", "addr:city": "VEGA ALTA", "addr:country": "US", "addr:postcode": "00692", "addr:state": "PR", "addr:street_address": "100 CARR 2", "amenity": "post_box", "collection_times": "Mo-Fr 15:00; Sa 08:30", "note": "ON 12/24 AND 12/31, THIS BOX MAY BE COLLECTED AS EARLY AS 12 NOON.", "nsi_id": "unitedstatespostalservice-a77078", "operator": "United States Postal Service", "operator:short": "USPS", "operator:type": "public", "operator:wikidata": "Q668687", "ref": "0069200002"}, "type": "Feature"}
{"geometry": {"coordinates": [-66.3309439767, 18.4125730155], "type": "Point"}, "id": "yN-U3Z1Bjj807_r5zB9ZG9ZAddg=", "properties": {"@source_uri": "https://tools.usps.com/UspsToolsRestServices/rest/POLocator/findLocations", "@spider": "usps_collection_boxes", "addr:city": "VEGA ALTA", "addr:country": "US", "addr:postcode": "00692", "addr:state": "PR", "addr:street_address": "21 CALLE GABRIEL HERNANDEZ", "amenity": "post_box", "collection_times": "Mo-Sa 08:30", "nsi_id": "unitedstatespostalservice-a77078", "operator": "United States Postal Service", "operator:short": "USPS", "operator:type": "public", "operator:wikidata": "Q668687", "ref": "0069200003"}, "type": "Feature"}
{"geometry": {"coordinates": [-66.3249549, 18.412689], "type": "Point"}, "id": "Z-BGCVMOu0n6eOLvQzmgk8RlGj0=", "properties": {"@source_uri": "https://tools.usps.com/UspsToolsRestServices/rest/POLocator/findLocations", "@spider": "usps_collection_boxes", "addr:city": "VEGA ALTA", "addr:country": "US", "addr:postcode": "00692", "addr:state": "PR", "addr:street_address": "300 CALLE 1", "amenity": "post_box", "collection_times": "Mo-Sa 08:30", "nsi_id": "unitedstatespostalservice-a77078", "operator": "United States Postal Service", "operator:short": "USPS", "operator:type": "public", "operator:wikidata": "Q668687", "ref": "0069200004"}, "type": "Feature"}
{"geometry": {"coordinates": [-66.337673331, 18.48556999], "type": "Point"}, "id": "6Hf9TMBa5xa1F9wqigWn9gMrAQc=", "properties": {"@source_uri": "https://tools.usps.com/UspsToolsRestServices/rest/POLocator/findLocations", "@spider": "usps_collection_boxes", "addr:city": "VEGA ALTA", "addr:country": "US", "addr:postcode": "00692", "addr:state": "PR", "addr:street_address": "180 CARR 678", "amenity": "post_box", "collection_times": "Mo-Sa 08:30", "nsi_id": "unitedstatespostalservice-a77078", "operator": "United States Postal Service", "operator:short": "USPS", "operator:type": "public", "operator:wikidata": "Q668687", "ref": "0069200006"}, "type": "Feature"}
{"geometry": {"coordinates": [-66.3293819, 18.41466], "type": "Point"}, "id": "hB8NK6nwrKBkrDLr6lqNyPzhpfY=", "properties": {"@source_uri": "https://tools.usps.com/UspsToolsRestServices/rest/POLocator/findLocations", "@spider": "usps_collection_boxes", "addr:city": "VEGA ALTA", "addr:country": "US", "addr:postcode": "00692", "addr:state": "PR", "addr:street_address": "100 CARR 2", "amenity": "post_box", "collection_times": "Mo-Fr 15:00; Sa 08:30", "indoor": "yes", "note": "ON 12/24 AND 12/31, THIS BOX MAY BE COLLECTED AS EARLY AS 12 NOON.", "nsi_id": "unitedstatespostalservice-a77078", "operator": "United States Postal Service", "operator:short": "USPS", "operator:type": "public", "operator:wikidata": "Q668687", "ref": "0069200007"}, "type": "Feature"}
{"geometry": {"coordinates": [-66.329379178, 18.414386118], "type": "Point"}, "id": "xyQDKI_8wd9amnxgfEHbJLWBsrg=", "properties": {"@source_uri": "https://tools.usps.com/UspsToolsRestServices/rest/POLocator/findLocations", "@spider": "usps_collection_boxes", "addr:city": "VEGA ALTA", "addr:country": "US", "addr:postcode": "00692", "addr:state": "PR", "addr:street_address": "100 CARR 2", "amenity": "post_box", "collection_times": "Mo-Fr 16:30; Sa 12:15", "indoor": "yes", "note": "ON 12/24 AND 12/31, THIS BOX MAY BE COLLECTED AS EARLY AS 12 NOON.", "nsi_id": "unitedstatespostalservice-a77078", "operator": "United States Postal Service", "operator:short": "USPS", "operator:type": "public", "operator:wikidata": "Q668687", "ref": "0069200008"}, "type": "Feature"}
{"geometry": {"coordinates": [-66.387653, 18.444784], "type": "Point"}, "id": "QrsgtYS9VVlHsKFNnRj8QCRL6R8=", "properties": {"@source_uri": "https://tools.usps.com/UspsToolsRestServices/rest/POLocator/findLocations", "@spider": "usps_collection_boxes", "addr:city": "VEGA BAJA", "addr:country": "US", "addr:postcode": "00693", "addr:state": "PR", "addr:street_address": "38 CALLE RAMON E BETANCES", "amenity": "post_box", "collection_times": "Mo-Sa 12:00", "nsi_id": "unitedstatespostalservice-a77078", "operator": "United States Postal Service", "operator:short": "USPS", "operator:type": "public", "operator:wikidata": "Q668687", "ref": "0069300009"}, "type": "Feature"}
{"geometry": {"coordinates": [-66.3897746, 18.444895], "type": "Point"}, "id": "DDg5JJ1xIBNthvJH3BNeG3nmfWY=", "properties": {"@source_uri": "https://tools.usps.com/UspsToolsRestServices/rest/POLocator/findLocations", "@spider": "usps_collection_boxes", "addr:city": "VEGA BAJA", "addr:country": "US", "addr:postcode": "00693", "addr:state": "PR", "addr:street_address": "28 PLAZA DEL MERCADO", "amenity": "post_box", "collection_times": "Mo-Sa 12:00", "nsi_id": "unitedstatespostalservice-a77078", "operator": "United States Postal Service", "operator:short": "USPS", "operator:type": "public", "operator:wikidata": "Q668687", "ref": "0069300012"}, "type": "Feature"}
{"geometry": {"coordinates": [-66.3769118, 18.444415], "type": "Point"}, "id": "wEpCI3YM6dYj3G7yQMiWyCX9MZg=", "properties": {"@source_uri": "https://tools.usps.com/UspsToolsRestServices/rest/POLocator/findLocations", "@spider": "usps_collection_boxes", "addr:city": "VEGA BAJA", "addr:country": "US", "addr:postcode": "00693", "addr:state": "PR", "addr:street_address": "15 CARR 155", "amenity": "post_box", "collection_times": "Mo-Sa 08:00", "nsi_id": "unitedstatespostalservice-a77078", "operator": "United States Postal Service", "operator:short": "USPS", "operator:type": "public", "operator:wikidata": "Q668687", "ref": "0069300013"}, "type": "Feature"}
{"geometry": {"coordinates": [-66.3856247, 18.447311], "type": "Point"}, "id": "d3pc3266I0jLauE1vvGzz7MMzEo=", "properties": {"@source_uri": "https://tools.usps.com/UspsToolsRestServices/rest/POLocator/findLocations", "@spider": "usps_collection_boxes", "addr:city": "VEGA BAJA", "addr:country": "US", "addr:postcode": "00693", "addr:state": "PR", "addr:street_address": "A10 CALLE 2", "amenity": "post_box", "collection_times": "Mo-Fr 15:00; Sa 08:00", "note": "ON 12/24 AND 12/31, THIS BOX MAY BE COLLECTED AS EARLY AS 12 NOON.", "nsi_id": "unitedstatespostalservice-a77078", "operator": "United States Postal Service", "operator:short": "USPS", "operator:type": "public", "operator:wikidata": "Q668687", "ref": "0069300017"}, "type": "Feature"}
{"geometry": {"coordinates": [-66.3857818, 18.447297], "type": "Point"}, "id": "2UskKZilrRisRNxHWW9bhlg-Nx0=", "properties": {"@source_uri": "https://tools.usps.com/UspsToolsRestServices/rest/POLocator/findLocations", "@spider": "usps_collection_boxes", "addr:city": "VEGA BAJA", "addr:country": "US", "addr:postcode": "00693", "addr:state": "PR", "addr:street_address": "A 10 CALLE 2", "amenity": "post_box", "collection_times": "Mo-Fr 15:00; Sa 08:00", "indoor": "yes", "note": "ON 12/24 AND 12/31, THIS BOX MAY BE COLLECTED AS EARLY AS 12 NOON.", "nsi_id": "unitedstatespostalservice-a77078", "operator": "United States Postal Service", "operator:short": "USPS", "operator:type": "public", "operator:wikidata": "Q668687", "ref": "0069300018"}, "type": "Feature"}
{"geometry": {"coordinates": [-66.383405765, 18.455131825], "type": "Point"}, "id": "BP6ejlQYHEZJFXMGarcDbFAA1Uo=", "properties": {"@source_uri": "https://tools.usps.com/UspsToolsRestServices/rest/POLocator/findLocations", "@spider": "usps_collection_boxes", "addr:city": "VEGA BAJA", "addr:country": "US", "addr:postcode": "00693", "addr:state": "PR", "addr:street_address": "A 10 CALLE 2", "amenity": "post_box", "collection_times": "Mo-Fr 16:45; Sa 12:15", "indoor": "yes", "note": "ON 12/24 AND 12/31, THIS BOX MAY BE COLLECTED AS EARLY AS 12 NOON.", "nsi_id": "unitedstatespostalservice-a77078", "operator": "United States Postal Service", "operator:short": "USPS", "operator:type": "public", "operator:wikidata": "Q668687", "ref": "0069300019"}, "type": "Feature"}
{"geometry": {"coordinates": [-66.85986, 18.02725], "type": "Point"}, "id": "8zX2nYK9LXnK1WHKYjVrPAJYP8Y=", "properties": {"@source_uri": "https://tools.usps.com/UspsToolsRestServices/rest/POLocator/findLocations", "@spider": "usps_collection_boxes", "addr:city": "YAUCO", "addr:country": "US", "addr:postcode": "00698", "addr:state": "PR", "addr:street_address": "329 YAUCO PLAZA I", "amenity": "post_box", "collection_times": "Mo-Fr 15:00; Sa 09:30", "note": "ON 12/24 AND 12/31, THIS BOX MAY BE COLLECTED AS EARLY AS 12 NOON.", "nsi_id": "unitedstatespostalservice-a77078", "operator": "United States Postal Service", "operator:short": "USPS", "operator:type": "public", "operator:wikidata": "Q668687", "ref": "0069800005"}, "type": "Feature"}
{"geometry": {"coordinates": [-66.8497599, 18.034932], "type": "Point"}, "id": "PcAziRy6UgJE-ie1WZVpzSqDdkI=", "properties": {"@source_uri": "https://tools.usps.com/UspsToolsRestServices/rest/POLocator/findLocations", "@spider": "usps_collection_boxes", "addr:city": "YAUCO", "addr:country": "US", "addr:postcode": "00698", "addr:state": "PR", "addr:street_address": "28 CALLE COMERCIO", "amenity": "post_box", "collection_times": "Mo-Sa 09:30", "nsi_id": "unitedstatespostalservice-a77078", "operator": "United States Postal Service", "operator:short": "USPS", "operator:type": "public", "operator:wikidata": "Q668687", "ref": "0069800014"}, "type": "Feature"}
{"geometry": {"coordinates": [-66.8623612453, 18.1133906856], "type": "Point"}, "id": "RB314pFkz7X_iF52mPN7Y4_s0ew=", "properties": {"@source_uri": "https://tools.usps.com/UspsToolsRestServices/rest/POLocator/findLocations", "@spider": "usps_collection_boxes", "addr:city": "YAUCO", "addr:country": "US", "addr:postcode": "00698", "addr:state": "PR", "addr:street_address": "550 CARR 128", "amenity": "post_box", "collection_times": "Mo-Sa 09:30", "nsi_id": "unitedstatespostalservice-a77078", "operator": "United States Postal Service", "operator:short": "USPS", "operator:type": "public", "operator:wikidata": "Q668687", "ref": "0069800016"}, "type": "Feature"}
{"geometry": {"coordinates": [-66.84762, 18.032498], "type": "Point"}, "id": "YDIHMSbrS-UCktQJBrwpFIiT-ZE=", "properties": {"@source_uri": "https://tools.usps.com/UspsToolsRestServices/rest/POLocator/findLocations", "@spider": "usps_collection_boxes", "addr:city": "YAUCO", "addr:country": "US", "addr:postcode": "00698", "addr:state": "PR", "addr:street_address": "60 YAUCO PLAZA I", "amenity": "post_box", "collection_times": "Mo-Sa 09:30", "nsi_id": "unitedstatespostalservice-a77078", "operator": "United States Postal Service", "operator:short": "USPS", "operator:type": "public", "operator:wikidata": "Q668687", "ref": "0069800018"}, "type": "Feature"}
{"geometry": {"coordinates": [-66.849375644, 18.035660246], "type": "Point"}, "id": "KEURu651j2eDLWuoxxXZVvoRrdM=", "properties": {"@source_uri": "https://tools.usps.com/UspsToolsRestServices/rest/POLocator/findLocations", "@spider": "usps_collection_boxes", "addr:city": "YAUCO", "addr:country": "US", "addr:postcode": "00698", "addr:state": "PR", "addr:street_address": "1 CAFETAL SHOPP CTR STE 7", "amenity": "post_box", "collection_times": "Mo-Sa 11:00", "nsi_id": "unitedstatespostalservice-a77078", "operator": "United States Postal Service", "operator:short": "USPS", "operator:type": "public", "operator:wikidata": "Q668687", "ref": "0069800020"}, "type": "Feature"}
{"geometry": {"coordinates": [-66.8417268, 18.021582], "type": "Point"}, "id": "-9LMrq3en8O566gS-v4YMeUNLN4=", "properties": {"@source_uri": "https://tools.usps.com/UspsToolsRestServices/rest/POLocator/findLocations", "@spider": "usps_collection_boxes", "addr:city": "YAUCO", "addr:country": "US", "addr:postcode": "00698", "addr:state": "PR", "addr:street_address": "100 CC PROFESIONAL PLZ", "amenity": "post_box", "collection_times": "Mo-Sa 11:00", "nsi_id": "unitedstatespostalservice-a77078", "operator": "United States Postal Service", "operator:short": "USPS", "operator:type": "public", "operator:wikidata": "Q668687", "ref": "0069800021"}, "type": "Feature"}
{"geometry": {"coordinates": [-66.85986, 18.02725], "type": "Point"}, "id": "hSw1IbSrAwXQ4t_fLYDvy0Jry9M=", "properties": {"@source_uri": "https://tools.usps.com/UspsToolsRestServices/rest/POLocator/findLocations", "@spider": "usps_collection_boxes", "addr:city": "YAUCO", "addr:country": "US", "addr:postcode": "00698", "addr:state": "PR", "addr:street_address": "329 YAUCO PLAZA I", "amenity": "post_box", "collection_times": "Mo-Fr 15:00; Sa 09:30", "indoor": "yes", "note": "ON 12/24 AND 12/31, THIS BOX MAY BE COLLECTED AS EARLY AS 12 NOON.", "nsi_id": "unitedstatespostalservice-a77078", "operator": "United States Postal Service", "operator:short": "USPS", "operator:type": "public", "operator:wikidata": "Q668687", "ref": "0069800022"}, "type": "Feature"}
{"geometry": {"coordinates": [-66.85986, 18.02725], "type": "Point"}, "id": "hpA5k5GGMxvvMu1LZpeB3LBfZCo=", "properties": {"@source_uri": "https://tools.usps.com/UspsToolsRestServices/rest/POLocator/findLocations", "@spider": "usps_collection_boxes", "addr:city": "YAUCO", "addr:country": "US", "addr:postcode": "00698", "addr:state": "PR", "addr:street_address": "329 YAUCO PLAZA I", "amenity": "post_box", "collection_times": "Mo-Fr 16:30; Sa 12:15", "indoor": "yes", "note": "ON 12/24 AND 12/31, THIS BOX MAY BE COLLECTED AS EARLY AS 12 NOON.", "nsi_id": "unitedstatespostalservice-a77078", "operator": "United States Postal Service", "operator:short": "USPS", "operator:type": "public", "operator:wikidata": "Q668687", "ref": "0069800023"}, "type": "Feature"}
