{"geometry": {"coordinates": [-66.1030892, 18.256279], "type": "Point"}, "id": "5ZUG9LQvp7h-axXQkU7GIIcKRIY=", "properties": {"@source_uri": "https://tools.usps.com/UspsToolsRestServices/rest/POLocator/findLocations", "@spider": "usps_collection_boxes", "addr:city": "AGUAS BUENAS", "addr:country": "US", "addr:postcode": "00703", "addr:state": "PR", "addr:street_address": "13 CALLE PIO RECHANI", "amenity": "post_box", "collection_times": "Mo-Fr 15:00; Sa 08:30", "note": "ON 12/24 AND 12/31, THIS BOX MAY BE COLLECTED AS EARLY AS 12 NOON.", "nsi_id": "unitedstatespostalservice-a77078", "operator": "United States Postal Service", "operator:short": "USPS", "operator:type": "public", "operator:wikidata": "Q668687", "ref": "0070300001"}, "type": "Feature"}
{"geometry": {"coordinates": [-66.1066763, 18.257017], "type": "Point"}, "id": "0skQ15d6_26o00C724femE29SS8=", "properties": {"@source_uri": "https://tools.usps.com/UspsToolsRestServices/rest/POLocator/findLocations", "@spider": "usps_collection_boxes", "addr:city": "AGUAS BUENAS", "addr:country": "US", "addr:postcode": "00703", "addr:state": "PR", "addr:street_address": "8 CALLE RAFAEL LASA", "amenity": "post_box", "collection_times": "Mo-Sa 08:30", "nsi_id": "unitedstatespostalservice-a77078", "operator": "United States Postal Service", "operator:short": "USPS", "operator:type": "public", "operator:wikidata": "Q668687", "ref": "0070300003"}, "type": "Feature"}
{"geometry": {"coordinates": [-66.1031348, 18.256215], "type": "Point"}, "id": "VKPBd4Bn3YZhuvN9BbtFn2AyhTY=", "properties": {"@source_uri": "https://tools.usps.com/UspsToolsRestServices/rest/POLocator/findLocations", "@spider": "usps_collection_boxes", "addr:city": "AGUAS BUENAS", "addr:country": "US", "addr:postcode": "00703", "addr:state": "PR", "addr:street_address": "13 CALLE PIO RECHANI", "amenity": "post_box", "collection_times": "Mo-Fr 15:00; Sa 08:30", "indoor": "yes", "note": "ON 12/24 AND 12/31, THIS BOX MAY BE COLLECTED AS EARLY AS 12 NOON.", "nsi_id": "unitedstatespostalservice-a77078", "operator": "United States Postal Service", "operator:short": "USPS", "operator:type": "public", "operator:wikidata": "Q668687", "ref": "0070300004"}, "type": "Feature"}
{"geometry": {"coordinates": [-66.103740676, 18.256335318], "type": "Point"}, "id": "49hpW0_LrHvbe78NjSzCLwivoFk=", "properties": {"@source_uri": "https://tools.usps.com/UspsToolsRestServices/rest/POLocator/findLocations", "@spider": "usps_collection_boxes", "addr:city": "AGUAS BUENAS", "addr:country": "US", "addr:postcode": "00703", "addr:state": "PR", "addr:street_address": "13 CALLE PIO RECHANI", "amenity": "post_box", "collection_times": "Mo-Fr 16:30; Sa 12:00", "indoor": "yes", "note": "ON 12/24 AND 12/31, THIS BOX MAY BE COLLECTED AS EARLY AS 12 NOON.", "nsi_id": "unitedstatespostalservice-a77078", "operator": "United States Postal Service", "operator:short": "USPS", "operator:type": "public", "operator:wikidata": "Q668687", "ref": "0070300005"}, "type": "Feature"}
{"geometry": {"coordinates": [-66.2278099, 17.972138], "type": "Point"}, "id": "C6gZrNyT8i9z8AFpUBfI6ZzT2QM=", "properties": {"@source_uri": "https://tools.usps.com/UspsToolsRestServices/rest/POLocator/findLocations", "@spider": "usps_collection_boxes", "addr:city": "AGUIRRE", "addr:country": "US", "addr:postcode": "00704", "addr:state": "PR", "addr:street_address": "2 CALLE BARBOSA", "amenity": "post_box", "collection_times": "Mo-Sa 10:00", "nsi_id": "unitedstatespostalservice-a77078", "operator": "United States Postal Service", "operator:short": "USPS", "operator:type": "public", "operator:wikidata": "Q668687", "ref": "0070400001"}, "type": "Feature"}
{"geometry": {"coordinates": [-66.2227651, 17.954927], "type": "Point"}, "id": "Kein9zzOd6J9FM6w3UM6OEcueaM=", "properties": {"@source_uri": "https://tools.usps.com/UspsToolsRestServices/rest/POLocator/findLocations", "@spider": "usps_collection_boxes", "addr:city": "AGUIRRE", "addr:country": "US", "addr:postcode": "00704", "addr:state": "PR", "addr:street_address": "100 CALLE PRINCIPAL", "amenity": "post_box", "collection_times": "Mo-Fr 15:00; Sa 08:30", "note": "ON 12/24 AND 12/31, THIS BOX MAY BE COLLECTED AS EARLY AS 12 NOON.", "nsi_id": "unitedstatespostalservice-a77078", "operator": "United States Postal Service", "operator:short": "USPS", "operator:type": "public", "operator:wikidata": "Q668687", "ref": "0070400002"}, "type": "Feature"}
{"geometry": {"coordinates": [-66.2227704, 17.954878], "type": "Point"}, "id": "OylyKgwq0Jc1z4GswDvsSBNVUjs=", "properties": {"@source_uri": "https://tools.usps.com/UspsToolsRestServices/rest/POLocator/findLocations", "@spider": "usps_collection_boxes", "addr:city": "AGUIRRE", "addr:country": "US", "addr:postcode": "00704", "addr:state": "PR", "addr:street_address": "100 CALLE PRINCIPAL", "amenity": "post_box", "collection_times": "Mo-Fr 15:00; Sa 08:30", "indoor": "yes", "note": "ON 12/24 AND 12/31, THIS BOX MAY BE COLLECTED AS EARLY AS 12 NOON.", "nsi_id": "unitedstatespostalservice-a77078", "operator": "United States Postal Service", "operator:short": "USPS", "operator:type": "public", "operator:wikidata": "Q668687", "ref": "0070400003"}, "type": "Feature"}
{"geometry": {"coordinates": [-66.225000738, 17.961739373], "type": "Point"}, "id": "iWEzd6Jf9O531kgqLTcLzajk0t8=", "properties": {"@source_uri": "https://tools.usps.com/UspsToolsRestServices/rest/POLocator/findLocations", "@spider": "usps_collection_boxes", "addr:city": "AGUIRRE", "addr:country": "US", "addr:postcode": "00704", "addr:state": "PR", "addr:street_address": "100 CALLE PRINCIPAL", "amenity": "post_box", "collection_times": "Mo-Fr 16:30; Sa 12:00", "indoor": "yes", "note": "ON 12/24 AND 12/31, THIS BOX MAY BE COLLECTED AS EARLY AS 12 NOON.", "nsi_id": "unitedstatespostalservice-a77078", "operator": "United States Postal Service", "operator:short": "USPS", "operator:type": "public", "operator:wikidata": "Q668687", "ref": "0070400004"}, "type": "Feature"}
{"geometry": {"coordinates": [-66.2642685, 18.139043], "type": "Point"}, "id": "SGq9kFNbNVBl94g-NLjW2YoqF4I=", "properties": {"@source_uri": "https://tools.usps.com/UspsToolsRestServices/rest/POLocator/findLocations", "@spider": "usps_collection_boxes", "addr:city": "AIBONITO", "addr:country": "US", "addr:postcode": "00705", "addr:state": "PR", "addr:street_address": "20 CALLE IGNACIO LOPEZ", "amenity": "post_box", "collection_times": "Mo-Fr 15:00; Sa 09:30", "note": "ON 12/24 AND 12/31, THIS BOX MAY BE COLLECTED AS EARLY AS 12 NOON.", "nsi_id": "unitedstatespostalservice-a77078", "operator": "United States Postal Service", "operator:short": "USPS", "operator:type": "public", "operator:wikidata": "Q668687", "ref": "0070500001"}, "type": "Feature"}
{"geometry": {"coordinates": [-66.264297, 18.141866], "type": "Point"}, "id": "hinbhdMak1y5abNh9yHazI1zQNA=", "properties": {"@source_uri": "https://tools.usps.com/UspsToolsRestServices/rest/POLocator/findLocations", "@spider": "usps_collection_boxes", "addr:city": "AIBONITO", "addr:country": "US", "addr:postcode": "00705", "addr:state": "PR", "addr:street_address": "100 CALLE JOSE C VAZQUEZ", "amenity": "post_box", "collection_times": "Mo-Sa 09:30", "nsi_id": "unitedstatespostalservice-a77078", "operator": "United States Postal Service", "operator:short": "USPS", "operator:type": "public", "operator:wikidata": "Q668687", "ref": "0070500003"}, "type": "Feature"}
{"geometry": {"coordinates": [-66.2619277, 18.143328], "type": "Point"}, "id": "1lYh9nh8HGB-mX2uvdz1FRBkF_0=", "properties": {"@source_uri": "https://tools.usps.com/UspsToolsRestServices/rest/POLocator/findLocations", "@spider": "usps_collection_boxes", "addr:city": "AIBONITO", "addr:country": "US", "addr:postcode": "00705", "addr:state": "PR", "addr:street_address": "10 CALLE MENONITA", "amenity": "post_box", "collection_times": "Mo-Sa 09:30", "nsi_id": "unitedstatespostalservice-a77078", "operator": "United States Postal Service", "operator:short": "USPS", "operator:type": "public", "operator:wikidata": "Q668687", "ref": "0070500004"}, "type": "Feature"}
{"geometry": {"coordinates": [-66.2621066, 18.140245], "type": "Point"}, "id": "CIT4uxVf8iQNqlueECv2KnS_m_A=", "properties": {"@source_uri": "https://tools.usps.com/UspsToolsRestServices/rest/POLocator/findLocations", "@spider": "usps_collection_boxes", "addr:city": "AIBONITO", "addr:country": "US", "addr:postcode": "00705", "addr:state": "PR", "addr:street_address": "252 CALLE SAN JOSE E", "amenity": "post_box", "collection_times": "Mo-Sa 09:30", "nsi_id": "unitedstatespostalservice-a77078", "operator": "United States Postal Service", "operator:short": "USPS", "operator:type": "public", "operator:wikidata": "Q668687", "ref": "0070500005"}, "type": "Feature"}
{"geometry": {"coordinates": [-66.2659658, 18.139233], "type": "Point"}, "id": "dUxcBrN24Amb5-wfg9kLMqlBA_Y=", "properties": {"@source_uri": "https://tools.usps.com/UspsToolsRestServices/rest/POLocator/findLocations", "@spider": "usps_collection_boxes", "addr:city": "AIBONITO", "addr:country": "US", "addr:postcode": "00705", "addr:state": "PR", "addr:street_address": "55 CALLE DEGETAU S", "amenity": "post_box", "collection_times": "Mo-Sa 09:30", "nsi_id": "unitedstatespostalservice-a77078", "operator": "United States Postal Service", "operator:short": "USPS", "operator:type": "public", "operator:wikidata": "Q668687", "ref": "0070500007"}, "type": "Feature"}
{"geometry": {"coordinates": [-66.2678833, 18.143388], "type": "Point"}, "id": "aGyfyEBb0PAcBhIEYDi6tusTCRY=", "properties": {"@source_uri": "https://tools.usps.com/UspsToolsRestServices/rest/POLocator/findLocations", "@spider": "usps_collection_boxes", "addr:city": "AIBONITO", "addr:country": "US", "addr:postcode": "00705", "addr:state": "PR", "addr:street_address": "165 CALLE BALDORIOTY N", "amenity": "post_box", "collection_times": "Mo-Sa 09:30", "nsi_id": "unitedstatespostalservice-a77078", "operator": "United States Postal Service", "operator:short": "USPS", "operator:type": "public", "operator:wikidata": "Q668687", "ref": "0070500008"}, "type": "Feature"}
{"geometry": {"coordinates": [-66.2606189, 18.137781], "type": "Point"}, "id": "FHZc9aQJfxOQgqFh3aZm-vhe6Gc=", "properties": {"@source_uri": "https://tools.usps.com/UspsToolsRestServices/rest/POLocator/findLocations", "@spider": "usps_collection_boxes", "addr:city": "AIBONITO", "addr:country": "US", "addr:postcode": "00705", "addr:state": "PR", "addr:street_address": "B98 CALLE ESMERALDA", "amenity": "post_box", "collection_times": "Mo-Sa 09:00", "nsi_id": "unitedstatespostalservice-a77078", "operator": "United States Postal Service", "operator:short": "USPS", "operator:type": "public", "operator:wikidata": "Q668687", "ref": "0070500009"}, "type": "Feature"}
{"geometry": {"coordinates": [-66.2569819, 18.137586], "type": "Point"}, "id": "1naROMYsFsSgQDsuNMm4pQKxoy8=", "properties": {"@source_uri": "https://tools.usps.com/UspsToolsRestServices/rest/POLocator/findLocations", "@spider": "usps_collection_boxes", "addr:city": "AIBONITO", "addr:country": "US", "addr:postcode": "00705", "addr:state": "PR", "addr:street_address": "150 CALLE TURQUESA", "amenity": "post_box", "collection_times": "Mo-Sa 10:00", "nsi_id": "unitedstatespostalservice-a77078", "operator": "United States Postal Service", "operator:short": "USPS", "operator:type": "public", "operator:wikidata": "Q668687", "ref": "0070500010"}, "type": "Feature"}
{"geometry": {"coordinates": [-66.2641412, 18.138795], "type": "Point"}, "id": "gDKZSbUFH-Vumoy-CMBsiema-LU=", "properties": {"@source_uri": "https://tools.usps.com/UspsToolsRestServices/rest/POLocator/findLocations", "@spider": "usps_collection_boxes", "addr:city": "AIBONITO", "addr:country": "US", "addr:postcode": "00705", "addr:state": "PR", "addr:street_address": "20 CALLE IGNACIO LOPEZ", "amenity": "post_box", "collection_times": "Mo-Fr 15:00; Sa 09:30", "indoor": "yes", "note": "ON 12/24 AND 12/31, THIS BOX MAY BE COLLECTED AS EARLY AS 12 NOON.", "nsi_id": "unitedstatespostalservice-a77078", "operator": "United States Postal Service", "operator:short": "USPS", "operator:type": "public", "operator:wikidata": "Q668687", "ref": "0070500011"}, "type": "Feature"}
{"geometry": {"coordinates": [-66.263968874, 18.138789671], "type": "Point"}, "id": "4e7R2gHyGB260oFzuHj-VslnXMY=", "properties": {"@source_uri": "https://tools.usps.com/UspsToolsRestServices/rest/POLocator/findLocations", "@spider": "usps_collection_boxes", "addr:city": "AIBONITO", "addr:country": "US", "addr:postcode": "00705", "addr:state": "PR", "addr:street_address": "20 CALLE IGNACIO LOPEZ", "amenity": "post_box", "collection_times": "Mo-Fr 16:30; Sa 12:15", "indoor": "yes", "note": "ON 12/24 AND 12/31, THIS BOX MAY BE COLLECTED AS EARLY AS 12 NOON.", "nsi_id": "unitedstatespostalservice-a77078", "operator": "United States Postal Service", "operator:short": "USPS", "operator:type": "public", "operator:wikidata": "Q668687", "ref": "0070500012"}, "type": "Feature"}
{"geometry": {"coordinates": [-65.897799, 18.005995], "type": "Point"}, "id": "cknDj1tCFLRNPq2JlSXuL4AD-dE=", "properties": {"@source_uri": "https://tools.usps.com/UspsToolsRestServices/rest/POLocator/findLocations", "@spider": "usps_collection_boxes", "addr:city": "MAUNABO", "addr:country": "US", "addr:postcode": "00707", "addr:state": "PR", "addr:street_address": "184 AVE CALIMANO", "amenity": "post_box", "collection_times": "Mo-Fr 15:00; Sa 08:30", "note": "ON 12/24 AND 12/31, THIS BOX MAY BE COLLECTED AS EARLY AS 12 NOON.", "nsi_id": "unitedstatespostalservice-a77078", "operator": "United States Postal Service", "operator:short": "USPS", "operator:type": "public", "operator:wikidata": "Q668687", "ref": "0070700001"}, "type": "Feature"}
{"geometry": {"coordinates": [-65.9000081, 18.007723], "type": "Point"}, "id": "DqRinBXAsdfqANaG9VBT6cFbKyg=", "properties": {"@source_uri": "https://tools.usps.com/UspsToolsRestServices/rest/POLocator/findLocations", "@spider": "usps_collection_boxes", "addr:city": "MAUNABO", "addr:country": "US", "addr:postcode": "00707", "addr:state": "PR", "addr:street_address": "32 CALLE MUNOZ RIVERA", "amenity": "post_box", "collection_times": "Mo-Sa 08:00", "nsi_id": "unitedstatespostalservice-a77078", "operator": "United States Postal Service", "operator:short": "USPS", "operator:type": "public", "operator:wikidata": "Q668687", "ref": "0070700003"}, "type": "Feature"}
{"geometry": {"coordinates": [-65.8990535, 18.006585], "type": "Point"}, "id": "fZnjjvqJ3Msb7BViId6Ej-ydHl4=", "properties": {"@source_uri": "https://tools.usps.com/UspsToolsRestServices/rest/POLocator/findLocations", "@spider": "usps_collection_boxes", "addr:city": "MAUNABO", "addr:country": "US", "addr:postcode": "00707", "addr:state": "PR", "addr:street_address": "17 CALLE ANTONIO R BARCELO", "amenity": "post_box", "collection_times": "Mo-Sa 08:00", "nsi_id": "unitedstatespostalservice-a77078", "operator": "United States Postal Service", "operator:short": "USPS", "operator:type": "public", "operator:wikidata": "Q668687", "ref": "0070700005"}, "type": "Feature"}
{"geometry": {"coordinates": [-65.8976716, 18.005765], "type": "Point"}, "id": "6Iq8ZoWdIOjx0iHjf_tFY2nTg_M=", "properties": {"@source_uri": "https://tools.usps.com/UspsToolsRestServices/rest/POLocator/findLocations", "@spider": "usps_collection_boxes", "addr:city": "MAUNABO", "addr:country": "US", "addr:postcode": "00707", "addr:state": "PR", "addr:street_address": "184 AVE CALIMANO", "amenity": "post_box", "collection_times": "Mo-Fr 15:00; Sa 08:30", "indoor": "yes", "note": "ON 12/24 AND 12/31, THIS BOX MAY BE COLLECTED AS EARLY AS 12 NOON.", "nsi_id": "unitedstatespostalservice-a77078", "operator": "United States Postal Service", "operator:short": "USPS", "operator:type": "public", "operator:wikidata": "Q668687", "ref": "0070700006"}, "type": "Feature"}
{"geometry": {"coordinates": [-65.896810949, 18.010492481], "type": "Point"}, "id": "fjHg_sn8eN32JJYFkAxMP1jK4J8=", "properties": {"@source_uri": "https://tools.usps.com/UspsToolsRestServices/rest/POLocator/findLocations", "@spider": "usps_collection_boxes", "addr:city": "MAUNABO", "addr:country": "US", "addr:postcode": "00707", "addr:state": "PR", "addr:street_address": "184 AVE CALIMANO", "amenity": "post_box", "collection_times": "Mo-Fr 16:30; Sa 12:15", "indoor": "yes", "note": "ON 12/24 AND 12/31, THIS BOX MAY BE COLLECTED AS EARLY AS 12 NOON.", "nsi_id": "unitedstatespostalservice-a77078", "operator": "United States Postal Service", "operator:short": "USPS", "operator:type": "public", "operator:wikidata": "Q668687", "ref": "0070700007"}, "type": "Feature"}
{"geometry": {"coordinates": [-66.0669056, 17.971622], "type": "Point"}, "id": "0ADf_RA57ifiW-g2grdqzF9Imuc=", "properties": {"@source_uri": "https://tools.usps.com/UspsToolsRestServices/rest/POLocator/findLocations", "@spider": "usps_collection_boxes", "addr:city": "ARROYO", "addr:country": "US", "addr:postcode": "00714", "addr:state": "PR", "addr:street_address": "C1 CALLE A", "amenity": "post_box", "collection_times": "Mo-Sa 11:00", "nsi_id": "unitedstatespostalservice-a77078", "operator": "United States Postal Service", "operator:short": "USPS", "operator:type": "public", "operator:wikidata": "Q668687", "ref": "0071400004"}, "type": "Feature"}
{"geometry": {"coordinates": [-66.063025, 17.969375], "type": "Point"}, "id": "xbUTc42yXu2mIi7yvgG0XMozQOA=", "properties": {"@source_uri": "https://tools.usps.com/UspsToolsRestServices/rest/POLocator/findLocations", "@spider": "usps_collection_boxes", "addr:city": "ARROYO", "addr:country": "US", "addr:postcode": "00714", "addr:state": "PR", "addr:street_address": "212 CALLE MORSE", "amenity": "post_box", "collection_times": "Mo-Sa 08:15", "nsi_id": "unitedstatespostalservice-a77078", "operator": "United States Postal Service", "operator:short": "USPS", "operator:type": "public", "operator:wikidata": "Q668687", "ref": "0071400005"}, "type": "Feature"}
{"geometry": {"coordinates": [-66.0610285, 17.968266], "type": "Point"}, "id": "kinaQ7NemeUJRZTngWDrpMjhXFg=", "properties": {"@source_uri": "https://tools.usps.com/UspsToolsRestServices/rest/POLocator/findLocations", "@spider": "usps_collection_boxes", "addr:city": "ARROYO", "addr:country": "US", "addr:postcode": "00714", "addr:state": "PR", "addr:street_address": "111 CALLE MORSE", "amenity": "post_box", "collection_times": "Mo-Fr 15:00; Sa 08:15", "note": "ON 12/24 AND 12/31, THIS BOX MAY BE COLLECTED AS EARLY AS 12 NOON.", "nsi_id": "unitedstatespostalservice-a77078", "operator": "United States Postal Service", "operator:short": "USPS", "operator:type": "public", "operator:wikidata": "Q668687", "ref": "0071400006"}, "type": "Feature"}
{"geometry": {"coordinates": [-66.0611349, 17.968252], "type": "Point"}, "id": "830gomzR0TXwBOA3alTYs8AJxvI=", "properties": {"@source_uri": "https://tools.usps.com/UspsToolsRestServices/rest/POLocator/findLocations", "@spider": "usps_collection_boxes", "addr:city": "ARROYO", "addr:country": "US", "addr:postcode": "00714", "addr:state": "PR", "addr:street_address": "111 CALLE MORSE", "amenity": "post_box", "collection_times": "Mo-Fr 15:00; Sa 08:15", "indoor": "yes", "note": "ON 12/24 AND 12/31, THIS BOX MAY BE COLLECTED AS EARLY AS 12 NOON.", "nsi_id": "unitedstatespostalservice-a77078", "operator": "United States Postal Service", "operator:short": "USPS", "operator:type": "public", "operator:wikidata": "Q668687", "ref": "0071400007"}, "type": "Feature"}
{"geometry": {"coordinates": [-66.061300326, 17.96652287], "type": "Point"}, "id": "vdXQdQHyBTr61Eglf3Z2_8oLn4s=", "properties": {"@source_uri": "https://tools.usps.com/UspsToolsRestServices/rest/POLocator/findLocations", "@spider": "usps_collection_boxes", "addr:city": "ARROYO", "addr:country": "US", "addr:postcode": "00714", "addr:state": "PR", "addr:street_address": "111 CALLE MORSE", "amenity": "post_box", "collection_times": "Mo-Fr 16:45; Sa 12:15", "indoor": "yes", "note": "ON 12/24 AND 12/31, THIS BOX MAY BE COLLECTED AS EARLY AS 12 NOON.", "nsi_id": "unitedstatespostalservice-a77078", "operator": "United States Postal Service", "operator:short": "USPS", "operator:type": "public", "operator:wikidata": "Q668687", "ref": "0071400008"}, "type": "Feature"}
{"geometry": {"coordinates": [-66.569702, 18.008818], "type": "Point"}, "id": "_ULZ2Y3UAdb0t5m4DnpKdyrVn3Q=", "properties": {"@source_uri": "https://tools.usps.com/UspsToolsRestServices/rest/POLocator/findLocations", "@spider": "usps_collection_boxes", "addr:city": "MERCEDITA", "addr:country": "US", "addr:postcode": "00715", "addr:state": "PR", "addr:street_address": "100 TURPEAUX IND PARK", "amenity": "post_box", "collection_times": "Mo-Fr 15:00; Sa 09:45", "note": "ON 12/24 AND 12/31, THIS BOX MAY BE COLLECTED AS EARLY AS 12 NOON.", "nsi_id": "unitedstatespostalservice-a77078", "operator": "United States Postal Service", "operator:short": "USPS", "operator:type": "public", "operator:wikidata": "Q668687", "ref": "0071500003"}, "type": "Feature"}
{"geometry": {"coordinates": [-66.569702, 18.008818], "type": "Point"}, "id": "MfUP-RlJ0PGQu_iEddRMWxPSEoQ=", "properties": {"@source_uri": "https://tools.usps.com/UspsToolsRestServices/rest/POLocator/findLocations", "@spider": "usps_collection_boxes", "addr:city": "MERCEDITA", "addr:country": "US", "addr:postcode": "00715", "addr:state": "PR", "addr:street_address": "100 TURPEAUX IND PARK", "amenity": "post_box", "collection_times": "Mo-Fr 15:00; Sa 09:45", "indoor": "yes", "note": "ON 12/24 AND 12/31, THIS BOX MAY BE COLLECTED AS EARLY AS 12 NOON.", "nsi_id": "unitedstatespostalservice-a77078", "operator": "United States Postal Service", "operator:short": "USPS", "operator:type": "public", "operator:wikidata": "Q668687", "ref": "0071500009"}, "type": "Feature"}
{"geometry": {"coordinates": [-66.569672571, 18.008837852], "type": "Point"}, "id": "wUNMLnhsVh0rmzDMb54vzGK-amo=", "properties": {"@source_uri": "https://tools.usps.com/UspsToolsRestServices/rest/POLocator/findLocations", "@spider": "usps_collection_boxes", "addr:city": "MERCEDITA", "addr:country": "US", "addr:postcode": "00715", "addr:state": "PR", "addr:street_address": "100 TURPEAUX IND PARK", "amenity": "post_box", "collection_times": "Mo-Fr 16:30; Sa 12:00", "indoor": "yes", "note": "ON 12/24 AND 12/31, THIS BOX MAY BE COLLECTED AS EARLY AS 12 NOON.", "nsi_id": "unitedstatespostalservice-a77078", "operator": "United States Postal Service", "operator:short": "USPS", "operator:type": "public", "operator:wikidata": "Q668687", "ref": "0071500010"}, "type": "Feature"}
{"geometry": {"coordinates": [-65.7360604, 18.214762], "type": "Point"}, "id": "KObN57hOs-dSsxQvT090pFDyPow=", "properties": {"@source_uri": "https://tools.usps.com/UspsToolsRestServices/rest/POLocator/findLocations", "@spider": "usps_collection_boxes", "addr:city": "NAGUABO", "addr:country": "US", "addr:postcode": "00718", "addr:state": "PR", "addr:street_address": "100 CARR 31", "amenity": "post_box", "collection_times": "Mo-Fr 15:00; Sa 08:00", "note": "ON 12/24 AND 12/31, THIS BOX MAY BE COLLECTED AS EARLY AS 12 NOON.", "nsi_id": "unitedstatespostalservice-a77078", "operator": "United States Postal Service", "operator:short": "USPS", "operator:type": "public", "operator:wikidata": "Q668687", "ref": "0071800001"}, "type": "Feature"}
{"geometry": {"coordinates": [-65.7369686, 18.206674], "type": "Point"}, "id": "4jsML4UN_HLw_zX5r2aJmiDIQ00=", "properties": {"@source_uri": "https://tools.usps.com/UspsToolsRestServices/rest/POLocator/findLocations", "@spider": "usps_collection_boxes", "addr:city": "NAGUABO", "addr:country": "US", "addr:postcode": "00718", "addr:state": "PR", "addr:street_address": "H15 CALLE 7", "amenity": "post_box", "collection_times": "Mo-Fr 14:00; Sa 08:00", "note": "ON 12/24 AND 12/31, THIS BOX MAY BE COLLECTED AS EARLY AS 12 NOON.", "nsi_id": "unitedstatespostalservice-a77078", "operator": "United States Postal Service", "operator:short": "USPS", "operator:type": "public", "operator:wikidata": "Q668687", "ref": "0071800003"}, "type": "Feature"}
{"geometry": {"coordinates": [-65.7360953, 18.215053], "type": "Point"}, "id": "vhkG7MV7YpDAfQGNukyCvATI0Go=", "properties": {"@source_uri": "https://tools.usps.com/UspsToolsRestServices/rest/POLocator/findLocations", "@spider": "usps_collection_boxes", "addr:city": "NAGUABO", "addr:country": "US", "addr:postcode": "00718", "addr:state": "PR", "addr:street_address": "100 CARR 31", "amenity": "post_box", "collection_times": "Mo-Fr 15:00; Sa 08:00", "indoor": "yes", "note": "ON 12/24 AND 12/31, THIS BOX MAY BE COLLECTED AS EARLY AS 12 NOON.", "nsi_id": "unitedstatespostalservice-a77078", "operator": "United States Postal Service", "operator:short": "USPS", "operator:type": "public", "operator:wikidata": "Q668687", "ref": "0071800004"}, "type": "Feature"}
{"geometry": {"coordinates": [-65.735732614, 18.214752392], "type": "Point"}, "id": "B55m1haI6gU1A5J5QPVO99xChRE=", "properties": {"@source_uri": "https://tools.usps.com/UspsToolsRestServices/rest/POLocator/findLocations", "@spider": "usps_collection_boxes", "addr:city": "NAGUABO", "addr:country": "US", "addr:postcode": "00718", "addr:state": "PR", "addr:street_address": "100 CARR 31", "amenity": "post_box", "collection_times": "Mo-Fr 16:30; Sa 12:15", "indoor": "yes", "note": "ON 12/24 AND 12/31, THIS BOX MAY BE COLLECTED AS EARLY AS 12 NOON.", "nsi_id": "unitedstatespostalservice-a77078", "operator": "United States Postal Service", "operator:short": "USPS", "operator:type": "public", "operator:wikidata": "Q668687", "ref": "0071800005"}, "type": "Feature"}
{"geometry": {"coordinates": [-66.2419099, 18.300479], "type": "Point"}, "id": "6bO2E9dVu5Hl2hB-BQ7ADpFyg_A=", "properties": {"@source_uri": "https://tools.usps.com/UspsToolsRestServices/rest/POLocator/findLocations", "@spider": "usps_collection_boxes", "addr:city": "NARANJITO", "addr:country": "US", "addr:postcode": "00719", "addr:state": "PR", "addr:street_address": "40 CALLE GEORGETTI", "amenity": "post_box", "collection_times": "Mo-Fr 15:00; Sa 09:00", "note": "ON 12/24 AND 12/31, THIS BOX MAY BE COLLECTED AS EARLY AS 12 NOON.", "nsi_id": "unitedstatespostalservice-a77078", "operator": "United States Postal Service", "operator:short": "USPS", "operator:type": "public", "operator:wikidata": "Q668687", "ref": "0071900002"}, "type": "Feature"}
{"geometry": {"coordinates": [-66.241959004, 18.300549121], "type": "Point"}, "id": "akKz4-EmMIS13R3GUwkHiyozYJk=", "properties": {"@source_uri": "https://tools.usps.com/UspsToolsRestServices/rest/POLocator/findLocations", "@spider": "usps_collection_boxes", "addr:city": "NARANJITO", "addr:country": "US", "addr:postcode": "00719", "addr:state": "PR", "addr:street_address": "40 CALLE GEORGETTI", "amenity": "post_box", "collection_times": "Mo-Fr 16:15; Sa 12:15", "indoor": "yes", "note": "ON 12/24 AND 12/31, THIS BOX MAY BE COLLECTED AS EARLY AS 12 NOON.", "nsi_id": "unitedstatespostalservice-a77078", "operator": "United States Postal Service", "operator:short": "USPS", "operator:type": "public", "operator:wikidata": "Q668687", "ref": "0071900006"}, "type": "Feature"}
{"geometry": {"coordinates": [-66.3912666, 18.231717], "type": "Point"}, "id": "YTyRNUy4RErpcKMqiHCI67aGlRY=", "properties": {"@source_uri": "https://tools.usps.com/UspsToolsRestServices/rest/POLocator/findLocations", "@spider": "usps_collection_boxes", "addr:city": "OROCOVIS", "addr:country": "US", "addr:postcode": "00720", "addr:state": "PR", "addr:street_address": "35 AVE ERNESTO RAMOS ANTONINI", "amenity": "post_box", "collection_times": "Mo-Fr 15:00; Sa 08:00", "note": "ON 12/24 AND 12/31, THIS BOX MAY BE COLLECTED AS EARLY AS 12 NOON.", "nsi_id": "unitedstatespostalservice-a77078", "operator": "United States Postal Service", "operator:short": "USPS", "operator:type": "public", "operator:wikidata": "Q668687", "ref": "0072000002"}, "type": "Feature"}
{"geometry": {"coordinates": [-66.3910319, 18.231815], "type": "Point"}, "id": "4FB_5A2ae2ZXaQRW4x2x-BXuuJc=", "properties": {"@source_uri": "https://tools.usps.com/UspsToolsRestServices/rest/POLocator/findLocations", "@spider": "usps_collection_boxes", "addr:city": "OROCOVIS", "addr:country": "US", "addr:postcode": "00720", "addr:state": "PR", "addr:street_address": "35 AVE ERNESTO RAMOS ANTONINI", "amenity": "post_box", "collection_times": "Mo-Fr 15:00; Sa 08:00", "indoor": "yes", "note": "ON 12/24 AND 12/31, THIS BOX MAY BE COLLECTED AS EARLY AS 12 NOON.", "nsi_id": "unitedstatespostalservice-a77078", "operator": "United States Postal Service", "operator:short": "USPS", "operator:type": "public", "operator:wikidata": "Q668687", "ref": "0072000003"}, "type": "Feature"}
{"geometry": {"coordinates": [-66.3926254, 18.2255222], "type": "Point"}, "id": "U2I904-4pUsDETuzN_ppaDAK2KI=", "properties": {"@source_uri": "https://tools.usps.com/UspsToolsRestServices/rest/POLocator/findLocations", "@spider": "usps_collection_boxes", "addr:city": "OROCOVIS", "addr:country": "US", "addr:postcode": "00720", "addr:state": "PR", "addr:street_address": "35 AVE ERNESTO RAMOS ANTONINI", "amenity": "post_box", "collection_times": "Mo-Fr 16:45; Sa 12:15", "indoor": "yes", "note": "ON 12/24 AND 12/31, THIS BOX MAY BE COLLECTED AS EARLY AS 12 NOON.", "nsi_id": "unitedstatespostalservice-a77078", "operator": "United States Postal Service", "operator:short": "USPS", "operator:type": "public", "operator:wikidata": "Q668687", "ref": "0072000004"}, "type": "Feature"}
{"geometry": {"coordinates": [-65.828843246, 18.383771163], "type": "Point"}, "id": "OdZmoznZ6XhbtwuTDor9_QOvt5U=", "properties": {"@source_uri": "https://tools.usps.com/UspsToolsRestServices/rest/POLocator/findLocations", "@spider": "usps_collection_boxes", "addr:city": "PALMER", "addr:country": "US", "addr:postcode": "00721", "addr:state": "PR", "addr:street_address": "23 CALLE PRINCIPAL", "amenity": "post_box", "collection_times": "Mo-Fr 16:30; Sa 12:15", "indoor": "yes", "note": "ON 12/24 AND 12/31, THIS BOX MAY BE COLLECTED AS EARLY AS 12 NOON.", "nsi_id": "unitedstatespostalservice-a77078", "operator": "United States Postal Service", "operator:short": "USPS", "operator:type": "public", "operator:wikidata": "Q668687", "ref": "0072100002"}, "type": "Feature"}
{"geometry": {"coordinates": [-65.76992, 18.1503], "type": "Point"}, "id": "1m6_Lx_a7fqR2DTpEsXrPhzOhvI=", "properties": {"@source_uri": "https://tools.usps.com/UspsToolsRestServices/rest/POLocator/findLocations", "@spider": "usps_collection_boxes", "addr:city": "PALMER", "addr:country": "US", "addr:postcode": "00721", "addr:state": "PR", "addr:street_address": "23 CALLE PRINCIPAL", "amenity": "post_box", "collection_times": "Mo-Sa 08:00", "nsi_id": "unitedstatespostalservice-a77078", "operator": "United States Postal Service", "operator:short": "USPS", "operator:type": "public", "operator:wikidata": "Q668687", "ref": "0072100003"}, "type": "Feature"}
{"geometry": {"coordinates": [-66.0148211, 18.005211], "type": "Point"}, "id": "Ffs_CFLN9weTm8n5h9_Cb9RQq18=", "properties": {"@source_uri": "https://tools.usps.com/UspsToolsRestServices/rest/POLocator/findLocations", "@spider": "usps_collection_boxes", "addr:city": "PATILLAS", "addr:country": "US", "addr:postcode": "00723", "addr:state": "PR", "addr:street_address": "27 CALLE MUNOZ RIVERA", "amenity": "post_box", "collection_times": "Mo-Sa 08:00", "nsi_id": "unitedstatespostalservice-a77078", "operator": "United States Postal Service", "operator:short": "USPS", "operator:type": "public", "operator:wikidata": "Q668687", "ref": "0072300001"}, "type": "Feature"}
{"geometry": {"coordinates": [-66.0130224, 18.003273], "type": "Point"}, "id": "ai893aUlocNq4BpV_FkWTGUfods=", "properties": {"@source_uri": "https://tools.usps.com/UspsToolsRestServices/rest/POLocator/findLocations", "@spider": "usps_collection_boxes", "addr:city": "PATILLAS", "addr:country": "US", "addr:postcode": "00723", "addr:state": "PR", "addr:street_address": "101 CARR 3", "amenity": "post_box", "collection_times": "Mo-Fr 15:00; Sa 08:15", "note": "ON 12/24 AND 12/31, THIS BOX MAY BE COLLECTED AS EARLY AS 12 NOON.", "nsi_id": "unitedstatespostalservice-a77078", "operator": "United States Postal Service", "operator:short": "USPS", "operator:type": "public", "operator:wikidata": "Q668687", "ref": "0072300005"}, "type": "Feature"}
{"geometry": {"coordinates": [-66.0128695, 18.00324], "type": "Point"}, "id": "tTBbnFEDhCoafIYiOazTAXCW9Tc=", "properties": {"@source_uri": "https://tools.usps.com/UspsToolsRestServices/rest/POLocator/findLocations", "@spider": "usps_collection_boxes", "addr:city": "PATILLAS", "addr:country": "US", "addr:postcode": "00723", "addr:state": "PR", "addr:street_address": "101 CARR 3", "amenity": "post_box", "collection_times": "Mo-Fr 15:00; Sa 08:15", "indoor": "yes", "note": "ON 12/24 AND 12/31, THIS BOX MAY BE COLLECTED AS EARLY AS 12 NOON.", "nsi_id": "unitedstatespostalservice-a77078", "operator": "United States Postal Service", "operator:short": "USPS", "operator:type": "public", "operator:wikidata": "Q668687", "ref": "0072300006"}, "type": "Feature"}
{"geometry": {"coordinates": [-66.012846367, 18.002938201], "type": "Point"}, "id": "UY9IrPGbOZ3s-INzv9nisitDTzA=", "properties": {"@source_uri": "https://tools.usps.com/UspsToolsRestServices/rest/POLocator/findLocations", "@spider": "usps_collection_boxes", "addr:city": "PATILLAS", "addr:country": "US", "addr:postcode": "00723", "addr:state": "PR", "addr:street_address": "101 CARR 3", "amenity": "post_box", "collection_times": "Mo-Fr 16:15; Sa 12:15", "indoor": "yes", "note": "ON 12/24 AND 12/31, THIS BOX MAY BE COLLECTED AS EARLY AS 12 NOON.", "nsi_id": "unitedstatespostalservice-a77078", "operator": "United States Postal Service", "operator:short": "USPS", "operator:type": "public", "operator:wikidata": "Q668687", "ref": "0072300007"}, "type": "Feature"}
{"geometry": {"coordinates": [-66.0421727, 18.217147], "type": "Point"}, "id": "E2jQEc5SF5kR1k2euS5gPl3ZgIk=", "properties": {"@source_uri": "https://tools.usps.com/UspsToolsRestServices/rest/POLocator/findLocations", "@spider": "usps_collection_boxes", "addr:city": "CAGUAS", "addr:country": "US", "addr:postcode": "00725", "addr:state": "PR", "addr:street_address": "50 CARR 1", "amenity": "post_box", "collection_times": "Mo-Sa 08:00", "nsi_id": "unitedstatespostalservice-a77078", "operator": "United States Postal Service", "operator:short": "USPS", "operator:type": "public", "operator:wikidata": "Q668687", "ref": "0072500002"}, "type": "Feature"}
{"geometry": {"coordinates": [-66.0436935, 18.217589], "type": "Point"}, "id": "3BjqBgPpv6xTNNVpcxgyk-ZAdag=", "properties": {"@source_uri": "https://tools.usps.com/UspsToolsRestServices/rest/POLocator/findLocations", "@spider": "usps_collection_boxes", "addr:city": "CAGUAS", "addr:country": "US", "addr:postcode": "00725", "addr:state": "PR", "addr:street_address": "320 CALLE GAUTIER BENITEZ", "amenity": "post_box", "collection_times": "Mo-Sa 08:00", "nsi_id": "unitedstatespostalservice-a77078", "operator": "United States Postal Service", "operator:short": "USPS", "operator:type": "public", "operator:wikidata": "Q668687", "ref": "0072500003"}, "type": "Feature"}
{"geometry": {"coordinates": [-66.0525866, 18.202261], "type": "Point"}, "id": "6tyfkRmRwVYcWc2FL_B39Q253Us=", "properties": {"@source_uri": "https://tools.usps.com/UspsToolsRestServices/rest/POLocator/findLocations", "@spider": "usps_collection_boxes", "addr:city": "CAGUAS", "addr:country": "US", "addr:postcode": "00725", "addr:state": "PR", "addr:street_address": "B6 CALLE 7", "amenity": "post_box", "collection_times": "Mo-Sa 08:00", "nsi_id": "unitedstatespostalservice-a77078", "operator": "United States Postal Service", "operator:short": "USPS", "operator:type": "public", "operator:wikidata": "Q668687", "ref": "0072500004"}, "type": "Feature"}
{"geometry": {"coordinates": [-66.0494155, 18.220295], "type": "Point"}, "id": "61d20F8FVNyd_qXMdDCyJVCYEQI=", "properties": {"@source_uri": "https://tools.usps.com/UspsToolsRestServices/rest/POLocator/findLocations", "@spider": "usps_collection_boxes", "addr:city": "CAGUAS", "addr:country": "US", "addr:postcode": "00725", "addr:state": "PR", "addr:street_address": "100 CARR 172", "amenity": "post_box", "collection_times": "Mo-Sa 10:30", "nsi_id": "unitedstatespostalservice-a77078", "operator": "United States Postal Service", "operator:short": "USPS", "operator:type": "public", "operator:wikidata": "Q668687", "ref": "0072500005"}, "type": "Feature"}
{"geometry": {"coordinates": [-66.0550637, 18.21284], "type": "Point"}, "id": "5Gf4g2VlzZgkjlfIVhazlw5HhpE=", "properties": {"@source_uri": "https://tools.usps.com/UspsToolsRestServices/rest/POLocator/findLocations", "@spider": "usps_collection_boxes", "addr:city": "CAGUAS", "addr:country": "US", "addr:postcode": "00725", "addr:state": "PR", "addr:street_address": "4P6 CALLE 1", "amenity": "post_box", "collection_times": "Mo-Sa 08:15", "nsi_id": "unitedstatespostalservice-a77078", "operator": "United States Postal Service", "operator:short": "USPS", "operator:type": "public", "operator:wikidata": "Q668687", "ref": "0072500006"}, "type": "Feature"}
{"geometry": {"coordinates": [-66.0562266, 18.2214], "type": "Point"}, "id": "t4IM5gdE3ngEFw0hmrJLumrzsFo=", "properties": {"@source_uri": "https://tools.usps.com/UspsToolsRestServices/rest/POLocator/findLocations", "@spider": "usps_collection_boxes", "addr:city": "CAGUAS", "addr:country": "US", "addr:postcode": "00725", "addr:state": "PR", "addr:street_address": "K59 CALLE 28", "amenity": "post_box", "collection_times": "Mo-Sa 08:15", "nsi_id": "unitedstatespostalservice-a77078", "operator": "United States Postal Service", "operator:short": "USPS", "operator:type": "public", "operator:wikidata": "Q668687", "ref": "0072500008"}, "type": "Feature"}
{"geometry": {"coordinates": [-66.035045, 18.229715], "type": "Point"}, "id": "teYqZuBaBhQq8opB5VBn9YcONFo=", "properties": {"@source_uri": "https://tools.usps.com/UspsToolsRestServices/rest/POLocator/findLocations", "@spider": "usps_collection_boxes", "addr:city": "CAGUAS", "addr:country": "US", "addr:postcode": "00725", "addr:state": "PR", "addr:street_address": "4 AVE SHUFFORD", "amenity": "post_box", "collection_times": "Mo-Sa 08:15", "nsi_id": "unitedstatespostalservice-a77078", "operator": "United States Postal Service", "operator:short": "USPS", "operator:type": "public", "operator:wikidata": "Q668687", "ref": "0072500009"}, "type": "Feature"}
{"geometry": {"coordinates": [-66.0477005, 18.224676], "type": "Point"}, "id": "snnqsAgmUAaQDDJgVXF242dAJ-U=", "properties": {"@source_uri": "https://tools.usps.com/UspsToolsRestServices/rest/POLocator/findLocations", "@spider": "usps_collection_boxes", "addr:city": "CAGUAS", "addr:country": "US", "addr:postcode": "00725", "addr:state": "PR", "addr:street_address": "1B CALLE 2 URB BONNEVILLE HGTS", "amenity": "post_box", "collection_times": "Mo-Sa 08:00", "nsi_id": "unitedstatespostalservice-a77078", "operator": "United States Postal Service", "operator:short": "USPS", "operator:type": "public", "operator:wikidata": "Q668687", "ref": "0072500010"}, "type": "Feature"}
{"geometry": {"coordinates": [-66.0325611, 18.230135], "type": "Point"}, "id": "QgVNTkp4C6vKUKL-zcBaX8l_60Q=", "properties": {"@source_uri": "https://tools.usps.com/UspsToolsRestServices/rest/POLocator/findLocations", "@spider": "usps_collection_boxes", "addr:city": "CAGUAS", "addr:country": "US", "addr:postcode": "00725", "addr:state": "PR", "addr:street_address": "52 CALLE GEORGETTI", "amenity": "post_box", "collection_times": "Mo-Sa 08:30", "nsi_id": "unitedstatespostalservice-a77078", "operator": "United States Postal Service", "operator:short": "USPS", "operator:type": "public", "operator:wikidata": "Q668687", "ref": "0072500017"}, "type": "Feature"}
{"geometry": {"coordinates": [-66.025450804, 18.216000873], "type": "Point"}, "id": "x2-8PuG3Vr0R68TNGQIsSW5JUrE=", "properties": {"@source_uri": "https://tools.usps.com/UspsToolsRestServices/rest/POLocator/findLocations", "@spider": "usps_collection_boxes", "addr:city": "CAGUAS", "addr:country": "US", "addr:postcode": "00725", "addr:state": "PR", "addr:street_address": "2 CALLE JOHN F KENNEDY", "amenity": "post_box", "collection_times": "Mo-Sa 08:30", "nsi_id": "unitedstatespostalservice-a77078", "operator": "United States Postal Service", "operator:short": "USPS", "operator:type": "public", "operator:wikidata": "Q668687", "ref": "0072500018"}, "type": "Feature"}
{"geometry": {"coordinates": [-66.0413238, 18.218393], "type": "Point"}, "id": "JTcKBfQNjwl_RsUp1H8c0O4A5oQ=", "properties": {"@source_uri": "https://tools.usps.com/UspsToolsRestServices/rest/POLocator/findLocations", "@spider": "usps_collection_boxes", "addr:city": "CAGUAS", "addr:country": "US", "addr:postcode": "00725", "addr:state": "PR", "addr:street_address": "201 CALLE GAUTIER BENITEZ", "amenity": "post_box", "collection_times": "Mo-Fr 10:00; Sa 09:45", "nsi_id": "unitedstatespostalservice-a77078", "operator": "United States Postal Service", "operator:short": "USPS", "operator:type": "public", "operator:wikidata": "Q668687", "ref": "0072500022"}, "type": "Feature"}
{"geometry": {"coordinates": [-66.0400204, 18.221513], "type": "Point"}, "id": "7cT0ErVypen7IbzKPFns7LqFK6Y=", "properties": {"@source_uri": "https://tools.usps.com/UspsToolsRestServices/rest/POLocator/findLocations", "@spider": "usps_collection_boxes", "addr:city": "CAGUAS", "addr:country": "US", "addr:postcode": "00725", "addr:state": "PR", "addr:street_address": "225 CALLE GAUTIER BENITEZ", "amenity": "post_box", "collection_times": "Mo-Fr 17:00; Sa 13:00", "note": "ON 12/24 AND 12/31, THIS BOX MAY BE COLLECTED AS EARLY AS 12 NOON.", "nsi_id": "unitedstatespostalservice-a77078", "operator": "United States Postal Service", "operator:short": "USPS", "operator:type": "public", "operator:wikidata": "Q668687", "ref": "0072500024"}, "type": "Feature"}
{"geometry": {"coordinates": [-66.0256176, 18.22864], "type": "Point"}, "id": "xfjCCOUDroRiYDvyTYC5mLfplSU=", "properties": {"@source_uri": "https://tools.usps.com/UspsToolsRestServices/rest/POLocator/findLocations", "@spider": "usps_collection_boxes", "addr:city": "CAGUAS", "addr:country": "US", "addr:postcode": "00725", "addr:state": "PR", "addr:street_address": "F24 CALLE SAN ANDRES", "amenity": "post_box", "collection_times": "Mo-Sa 09:00", "nsi_id": "unitedstatespostalservice-a77078", "operator": "United States Postal Service", "operator:short": "USPS", "operator:type": "public", "operator:wikidata": "Q668687", "ref": "0072500027"}, "type": "Feature"}
{"geometry": {"coordinates": [-66.0311466, 18.233321], "type": "Point"}, "id": "YklL6zSjfgpc02OoA5ewksGCLyc=", "properties": {"@source_uri": "https://tools.usps.com/UspsToolsRestServices/rest/POLocator/findLocations", "@spider": "usps_collection_boxes", "addr:city": "CAGUAS", "addr:country": "US", "addr:postcode": "00725", "addr:state": "PR", "addr:street_address": "29 CALLE RAFAEL CORDERO", "amenity": "post_box", "collection_times": "Mo-Sa 08:30", "nsi_id": "unitedstatespostalservice-a77078", "operator": "United States Postal Service", "operator:short": "USPS", "operator:type": "public", "operator:wikidata": "Q668687", "ref": "0072500028"}, "type": "Feature"}
{"geometry": {"coordinates": [-66.0145546, 18.23486], "type": "Point"}, "id": "RjpEwqcncmmb0B8EcltnMu2HSQE=", "properties": {"@source_uri": "https://tools.usps.com/UspsToolsRestServices/rest/POLocator/findLocations", "@spider": "usps_collection_boxes", "addr:city": "CAGUAS", "addr:country": "US", "addr:postcode": "00725", "addr:state": "PR", "addr:street_address": "B31 CALLE VIOLETA", "amenity": "post_box", "collection_times": "Mo-Sa 09:30", "nsi_id": "unitedstatespostalservice-a77078", "operator": "United States Postal Service", "operator:short": "USPS", "operator:type": "public", "operator:wikidata": "Q668687", "ref": "0072500031"}, "type": "Feature"}
{"geometry": {"coordinates": [-66.0373221, 18.254884], "type": "Point"}, "id": "CsU60cg0_b3YQ1AwAceAZaC7S-Y=", "properties": {"@source_uri": "https://tools.usps.com/UspsToolsRestServices/rest/POLocator/findLocations", "@spider": "usps_collection_boxes", "addr:city": "CAGUAS", "addr:country": "US", "addr:postcode": "00725", "addr:state": "PR", "addr:street_address": "190 CARR 1", "amenity": "post_box", "collection_times": "Mo-Sa 09:45", "nsi_id": "unitedstatespostalservice-a77078", "operator": "United States Postal Service", "operator:short": "USPS", "operator:type": "public", "operator:wikidata": "Q668687", "ref": "0072500032"}, "type": "Feature"}
{"geometry": {"coordinates": [-66.0197605, 18.247055], "type": "Point"}, "id": "FWnbHfUE0-h-RWZNaQ_ffNMhpL8=", "properties": {"@source_uri": "https://tools.usps.com/UspsToolsRestServices/rest/POLocator/findLocations", "@spider": "usps_collection_boxes", "addr:city": "CAGUAS", "addr:country": "US", "addr:postcode": "00725", "addr:state": "PR", "addr:street_address": "500 AVE RAFAEL CORDERO", "amenity": "post_box", "collection_times": "Mo-Sa 09:15", "nsi_id": "unitedstatespostalservice-a77078", "operator": "United States Postal Service", "operator:short": "USPS", "operator:type": "public", "operator:wikidata": "Q668687", "ref": "0072500033"}, "type": "Feature"}
{"geometry": {"coordinates": [-66.0295244, 18.238157], "type": "Point"}, "id": "rpJloJ0HTuGDyHFg0knPFlATB-4=", "properties": {"@source_uri": "https://tools.usps.com/UspsToolsRestServices/rest/POLocator/findLocations", "@spider": "usps_collection_boxes", "addr:city": "CAGUAS", "addr:country": "US", "addr:postcode": "00725", "addr:state": "PR", "addr:street_address": "524 AVE RAFAEL CORDERO", "amenity": "post_box", "collection_times": "Mo-Sa 09:30", "nsi_id": "unitedstatespostalservice-a77078", "operator": "United States Postal Service", "operator:short": "USPS", "operator:type": "public", "operator:wikidata": "Q668687", "ref": "0072500037"}, "type": "Feature"}
{"geometry": {"coordinates": [-66.0302263, 18.236347], "type": "Point"}, "id": "n64uhzBKuu8aSWGkhFvoATa_oWA=", "properties": {"@source_uri": "https://tools.usps.com/UspsToolsRestServices/rest/POLocator/findLocations", "@spider": "usps_collection_boxes", "addr:city": "CAGUAS", "addr:country": "US", "addr:postcode": "00725", "addr:state": "PR", "addr:street_address": "530 AVE RAFAEL CORDERO", "amenity": "post_box", "collection_times": "Mo-Sa 09:30", "nsi_id": "unitedstatespostalservice-a77078", "operator": "United States Postal Service", "operator:short": "USPS", "operator:type": "public", "operator:wikidata": "Q668687", "ref": "0072500038"}, "type": "Feature"}
{"geometry": {"coordinates": [-66.0327078, 18.235569], "type": "Point"}, "id": "aISP2oXYy5BQWYLtcfZrK7vcMXw=", "properties": {"@source_uri": "https://tools.usps.com/UspsToolsRestServices/rest/POLocator/findLocations", "@spider": "usps_collection_boxes", "addr:city": "CAGUAS", "addr:country": "US", "addr:postcode": "00725", "addr:state": "PR", "addr:street_address": "39 CALLE GOYCO", "amenity": "post_box", "collection_times": "Mo-Sa 08:30", "nsi_id": "unitedstatespostalservice-a77078", "operator": "United States Postal Service", "operator:short": "USPS", "operator:type": "public", "operator:wikidata": "Q668687", "ref": "0072500041"}, "type": "Feature"}
{"geometry": {"coordinates": [-66.0334759, 18.246528], "type": "Point"}, "id": "7YDt3td-jj0gJH7grjVsuhqWVsU=", "properties": {"@source_uri": "https://tools.usps.com/UspsToolsRestServices/rest/POLocator/findLocations", "@spider": "usps_collection_boxes", "addr:city": "CAGUAS", "addr:country": "US", "addr:postcode": "00725", "addr:state": "PR", "addr:street_address": "24 CALLE DIAMANTE", "amenity": "post_box", "collection_times": "Mo-Sa 09:30", "nsi_id": "unitedstatespostalservice-a77078", "operator": "United States Postal Service", "operator:short": "USPS", "operator:type": "public", "operator:wikidata": "Q668687", "ref": "0072500043"}, "type": "Feature"}
{"geometry": {"coordinates": [-66.0359352, 18.252402], "type": "Point"}, "id": "3vxev1jPScJYa9kZA7_gM3mP6cY=", "properties": {"@source_uri": "https://tools.usps.com/UspsToolsRestServices/rest/POLocator/findLocations", "@spider": "usps_collection_boxes", "addr:city": "CAGUAS", "addr:country": "US", "addr:postcode": "00725", "addr:state": "PR", "addr:street_address": "40 CARR 1", "amenity": "post_box", "collection_times": "Mo-Sa 09:45", "nsi_id": "unitedstatespostalservice-a77078", "operator": "United States Postal Service", "operator:short": "USPS", "operator:type": "public", "operator:wikidata": "Q668687", "ref": "0072500044"}, "type": "Feature"}
{"geometry": {"coordinates": [-66.0346889617, 18.2412899976], "type": "Point"}, "id": "0kaxxpgNzG_sqI22PqFXb5HN3MU=", "properties": {"@source_uri": "https://tools.usps.com/UspsToolsRestServices/rest/POLocator/findLocations", "@spider": "usps_collection_boxes", "addr:city": "CAGUAS", "addr:country": "US", "addr:postcode": "00725", "addr:state": "PR", "addr:street_address": "2 CALLE AQUAMARINA", "amenity": "post_box", "collection_times": "Mo-Sa 09:30", "nsi_id": "unitedstatespostalservice-a77078", "operator": "United States Postal Service", "operator:short": "USPS", "operator:type": "public", "operator:wikidata": "Q668687", "ref": "0072500045"}, "type": "Feature"}
{"geometry": {"coordinates": [-66.035045, 18.229715], "type": "Point"}, "id": "d51M3f9EqJCvMD2O9eO0ZxY-2h4=", "properties": {"@source_uri": "https://tools.usps.com/UspsToolsRestServices/rest/POLocator/findLocations", "@spider": "usps_collection_boxes", "addr:city": "CAGUAS", "addr:country": "US", "addr:postcode": "00725", "addr:state": "PR", "addr:street_address": "51 CARR 1", "amenity": "post_box", "collection_times": "Mo-Sa 09:45", "nsi_id": "unitedstatespostalservice-a77078", "operator": "United States Postal Service", "operator:short": "USPS", "operator:type": "public", "operator:wikidata": "Q668687", "ref": "0072500048"}, "type": "Feature"}
{"geometry": {"coordinates": [-66.0345663, 18.233958], "type": "Point"}, "id": "uLRP43fooLBoBdtrUmdyrxlMsdk=", "properties": {"@source_uri": "https://tools.usps.com/UspsToolsRestServices/rest/POLocator/findLocations", "@spider": "usps_collection_boxes", "addr:city": "CAGUAS", "addr:country": "US", "addr:postcode": "00725", "addr:state": "PR", "addr:street_address": "1 CALLE CORCHADO", "amenity": "post_box", "collection_times": "Mo-Sa 08:30", "nsi_id": "unitedstatespostalservice-a77078", "operator": "United States Postal Service", "operator:short": "USPS", "operator:type": "public", "operator:wikidata": "Q668687", "ref": "0072500053"}, "type": "Feature"}
{"geometry": {"coordinates": [-66.0317511, 18.218508], "type": "Point"}, "id": "617T7Nb52Twk9aoTHjUN0qmDIp0=", "properties": {"@source_uri": "https://tools.usps.com/UspsToolsRestServices/rest/POLocator/findLocations", "@spider": "usps_collection_boxes", "addr:city": "CAGUAS", "addr:country": "US", "addr:postcode": "00725", "addr:state": "PR", "addr:street_address": "500 AVE DEGETAU", "amenity": "post_box", "collection_times": "Mo-Sa 08:30", "nsi_id": "unitedstatespostalservice-a77078", "operator": "United States Postal Service", "operator:short": "USPS", "operator:type": "public", "operator:wikidata": "Q668687", "ref": "0072500059"}, "type": "Feature"}
{"geometry": {"coordinates": [-66.0434261, 18.257566], "type": "Point"}, "id": "aisaEYjns1SxwWzMcPsrSrGTtPo=", "properties": {"@source_uri": "https://tools.usps.com/UspsToolsRestServices/rest/POLocator/findLocations", "@spider": "usps_collection_boxes", "addr:city": "CAGUAS", "addr:country": "US", "addr:postcode": "00725", "addr:state": "PR", "addr:street_address": "Q1 PARQ DE LOS ANGELES", "amenity": "post_box", "collection_times": "Mo-Sa 09:45", "nsi_id": "unitedstatespostalservice-a77078", "operator": "United States Postal Service", "operator:short": "USPS", "operator:type": "public", "operator:wikidata": "Q668687", "ref": "0072500060"}, "type": "Feature"}
{"geometry": {"coordinates": [-66.0350852, 18.23656], "type": "Point"}, "id": "ssKLmZbS7lh5kWKutfL6SyExXSQ=", "properties": {"@source_uri": "https://tools.usps.com/UspsToolsRestServices/rest/POLocator/findLocations", "@spider": "usps_collection_boxes", "addr:city": "CAGUAS", "addr:country": "US", "addr:postcode": "00725", "addr:state": "PR", "addr:street_address": "555 CALLE EXT MUNOZ RIVERA STE 1", "amenity": "post_box", "collection_times": "Mo-Fr 15:00; Sa 09:45", "note": "ON 12/24 AND 12/31, THIS BOX MAY BE COLLECTED AS EARLY AS 12 NOON.", "nsi_id": "unitedstatespostalservice-a77078", "operator": "United States Postal Service", "operator:short": "USPS", "operator:type": "public", "operator:wikidata": "Q668687", "ref": "0072500061"}, "type": "Feature"}
{"geometry": {"coordinates": [-66.0461779, 18.233097], "type": "Point"}, "id": "dR92StzMl8qZmdnNl8HDxCdQmMU=", "properties": {"@source_uri": "https://tools.usps.com/UspsToolsRestServices/rest/POLocator/findLocations", "@spider": "usps_collection_boxes", "addr:city": "CAGUAS", "addr:country": "US", "addr:postcode": "00725", "addr:state": "PR", "addr:street_address": "A17 CALLE A", "amenity": "post_box", "collection_times": "Mo-Sa 08:30", "nsi_id": "unitedstatespostalservice-a77078", "operator": "United States Postal Service", "operator:short": "USPS", "operator:type": "public", "operator:wikidata": "Q668687", "ref": "0072500062"}, "type": "Feature"}
{"geometry": {"coordinates": [-66.0195079, 18.232232], "type": "Point"}, "id": "_BhLq4Z3H89YnIg_yK4qQDW7rr0=", "properties": {"@source_uri": "https://tools.usps.com/UspsToolsRestServices/rest/POLocator/findLocations", "@spider": "usps_collection_boxes", "addr:city": "CAGUAS", "addr:country": "US", "addr:postcode": "00725", "addr:state": "PR", "addr:street_address": "D1 CALLE 3", "amenity": "post_box", "collection_times": "Mo-Sa 08:30", "nsi_id": "unitedstatespostalservice-a77078", "operator": "United States Postal Service", "operator:short": "USPS", "operator:type": "public", "operator:wikidata": "Q668687", "ref": "0072500063"}, "type": "Feature"}
{"geometry": {"coordinates": [-66.0256443, 18.242153], "type": "Point"}, "id": "TGx54dFAOMEuFUFypxBXRqrETXE=", "properties": {"@source_uri": "https://tools.usps.com/UspsToolsRestServices/rest/POLocator/findLocations", "@spider": "usps_collection_boxes", "addr:city": "CAGUAS", "addr:country": "US", "addr:postcode": "00725", "addr:state": "PR", "addr:street_address": "300 CALLE LA PAZ", "amenity": "post_box", "collection_times": "Mo-Sa 09:30", "nsi_id": "unitedstatespostalservice-a77078", "operator": "United States Postal Service", "operator:short": "USPS", "operator:type": "public", "operator:wikidata": "Q668687", "ref": "0072500064"}, "type": "Feature"}
{"geometry": {"coordinates": [-66.0399129, 18.221342], "type": "Point"}, "id": "eP0mAwusEIjdM8bm3HpofnUdNCk=", "properties": {"@source_uri": "https://tools.usps.com/UspsToolsRestServices/rest/POLocator/findLocations", "@spider": "usps_collection_boxes", "addr:city": "CAGUAS", "addr:country": "US", "addr:postcode": "00725", "addr:state": "PR", "addr:street_address": "225 CALLE GAUTIER BENITEZ", "amenity": "post_box", "collection_times": "Mo-Fr 17:00; Sa 13:00", "indoor": "yes", "note": "ON 12/24 AND 12/31, THIS BOX MAY BE COLLECTED AS EARLY AS 12 NOON.", "nsi_id": "unitedstatespostalservice-a77078", "operator": "United States Postal Service", "operator:short": "USPS", "operator:type": "public", "operator:wikidata": "Q668687", "ref": "0072500066"}, "type": "Feature"}
{"geometry": {"coordinates": [-66.0314799463, 18.2318118664], "type": "Point"}, "id": "LM2rqucPS6VtpjyuFvireXaSj14=", "properties": {"@source_uri": "https://tools.usps.com/UspsToolsRestServices/rest/POLocator/findLocations", "@spider": "usps_collection_boxes", "addr:city": "CAGUAS", "addr:country": "US", "addr:postcode": "00725", "addr:state": "PR", "addr:street_address": "555 CALLE EXT MUNOZ RIVERA STE 1", "amenity": "post_box", "collection_times": "Mo-Fr 15:00; Sa 09:45", "indoor": "yes", "note": "ON 12/24 AND 12/31, THIS BOX MAY BE COLLECTED AS EARLY AS 12 NOON.", "nsi_id": "unitedstatespostalservice-a77078", "operator": "United States Postal Service", "operator:short": "USPS", "operator:type": "public", "operator:wikidata": "Q668687", "ref": "0072500067"}, "type": "Feature"}
{"geometry": {"coordinates": [-66.035045, 18.229715], "type": "Point"}, "id": "-TEyiAlxy6PtszlifhZvgnorgA4=", "properties": {"@source_uri": "https://tools.usps.com/UspsToolsRestServices/rest/POLocator/findLocations", "@spider": "usps_collection_boxes", "addr:city": "CAGUAS", "addr:country": "US", "addr:postcode": "00725", "addr:state": "PR", "addr:street_address": "225 CALLE GAUTIER BENITEZ", "amenity": "post_box", "collection_times": "Mo-Fr 18:15; Sa 16:15", "indoor": "yes", "note": "ON 12/24 AND 12/31, THIS BOX MAY BE COLLECTED AS EARLY AS 12 NOON.", "nsi_id": "unitedstatespostalservice-a77078", "operator": "United States Postal Service", "operator:short": "USPS", "operator:type": "public", "operator:wikidata": "Q668687", "ref": "0072500069"}, "type": "Feature"}
{"geometry": {"coordinates": [-66.0355026, 18.229493], "type": "Point"}, "id": "w1zmgzR5i3zBI-YvpXnLmgQ-5RU=", "properties": {"@source_uri": "https://tools.usps.com/UspsToolsRestServices/rest/POLocator/findLocations", "@spider": "usps_collection_boxes", "addr:city": "CAGUAS", "addr:country": "US", "addr:postcode": "00725", "addr:state": "PR", "addr:street_address": "555 CALLE EXT MUNOZ RIVERA STE 1", "amenity": "post_box", "collection_times": "Mo-Fr 16:45; Sa 12:15", "indoor": "yes", "note": "ON 12/24 AND 12/31, THIS BOX MAY BE COLLECTED AS EARLY AS 12 NOON.", "nsi_id": "unitedstatespostalservice-a77078", "operator": "United States Postal Service", "operator:short": "USPS", "operator:type": "public", "operator:wikidata": "Q668687", "ref": "0072500070"}, "type": "Feature"}
{"geometry": {"coordinates": [-65.8986263, 18.380362], "type": "Point"}, "id": "SjTmG9v9A-OaPfjSb28jt5RDCeo=", "properties": {"@source_uri": "https://tools.usps.com/UspsToolsRestServices/rest/POLocator/findLocations", "@spider": "usps_collection_boxes", "addr:city": "CANOVANAS", "addr:country": "US", "addr:postcode": "00729", "addr:state": "PR", "addr:street_address": "150 CALLE PALMER", "amenity": "post_box", "collection_times": "Mo-Sa 08:15", "nsi_id": "unitedstatespostalservice-a77078", "operator": "United States Postal Service", "operator:short": "USPS", "operator:type": "public", "operator:wikidata": "Q668687", "ref": "0072900001"}, "type": "Feature"}
{"geometry": {"coordinates": [-65.8721479, 18.380304], "type": "Point"}, "id": "4gRyTdgVcvveNI04JOyVGeUJUDw=", "properties": {"@source_uri": "https://tools.usps.com/UspsToolsRestServices/rest/POLocator/findLocations", "@spider": "usps_collection_boxes", "addr:city": "CANOVANAS", "addr:country": "US", "addr:postcode": "00729", "addr:state": "PR", "addr:street_address": "300 CALLE 1", "amenity": "post_box", "collection_times": "Mo-Sa 08:15", "nsi_id": "unitedstatespostalservice-a77078", "operator": "United States Postal Service", "operator:short": "USPS", "operator:type": "public", "operator:wikidata": "Q668687", "ref": "0072900002"}, "type": "Feature"}
{"geometry": {"coordinates": [-65.8999799, 18.371222], "type": "Point"}, "id": "z_3fOeRZcgu9Xhfnk1JfNLfp3HE=", "properties": {"@source_uri": "https://tools.usps.com/UspsToolsRestServices/rest/POLocator/findLocations", "@spider": "usps_collection_boxes", "addr:city": "CANOVANAS", "addr:country": "US", "addr:postcode": "00729", "addr:state": "PR", "addr:street_address": "273 CALLE 2", "amenity": "post_box", "collection_times": "Mo-Sa 08:15", "nsi_id": "unitedstatespostalservice-a77078", "operator": "United States Postal Service", "operator:short": "USPS", "operator:type": "public", "operator:wikidata": "Q668687", "ref": "0072900005"}, "type": "Feature"}
{"geometry": {"coordinates": [-65.9130573, 18.375878], "type": "Point"}, "id": "CcFd7a2QQ1mqR1vDHffyGeAX1Ps=", "properties": {"@source_uri": "https://tools.usps.com/UspsToolsRestServices/rest/POLocator/findLocations", "@spider": "usps_collection_boxes", "addr:city": "CANOVANAS", "addr:country": "US", "addr:postcode": "00729", "addr:state": "PR", "addr:street_address": "AA12 CALLE BAUHINIA", "amenity": "post_box", "collection_times": "Mo-Sa 08:15", "nsi_id": "unitedstatespostalservice-a77078", "operator": "United States Postal Service", "operator:short": "USPS", "operator:type": "public", "operator:wikidata": "Q668687", "ref": "0072900006"}, "type": "Feature"}
{"geometry": {"coordinates": [-65.9011971, 18.378757], "type": "Point"}, "id": "PwxSTIG_ZmVwjSZNG4x7NrYTDtw=", "properties": {"@source_uri": "https://tools.usps.com/UspsToolsRestServices/rest/POLocator/findLocations", "@spider": "usps_collection_boxes", "addr:city": "CANOVANAS", "addr:country": "US", "addr:postcode": "00729", "addr:state": "PR", "addr:street_address": "65 CALLE CALDERON MUJICA", "amenity": "post_box", "collection_times": "Mo-Sa 08:15", "nsi_id": "unitedstatespostalservice-a77078", "operator": "United States Postal Service", "operator:short": "USPS", "operator:type": "public", "operator:wikidata": "Q668687", "ref": "0072900007"}, "type": "Feature"}
{"geometry": {"coordinates": [-65.8827179, 18.378022], "type": "Point"}, "id": "5imkuTkeaJerl7Kk8kw_IaHBSJ4=", "properties": {"@source_uri": "https://tools.usps.com/UspsToolsRestServices/rest/POLocator/findLocations", "@spider": "usps_collection_boxes", "addr:city": "CANOVANAS", "addr:country": "US", "addr:postcode": "00729", "addr:state": "PR", "addr:street_address": "18400 CARR 3", "amenity": "post_box", "collection_times": "Mo-Fr 17:00; Sa 13:00", "note": "ON 12/24 AND 12/31, THIS BOX MAY BE COLLECTED AS EARLY AS 12 NOON.", "nsi_id": "unitedstatespostalservice-a77078", "operator": "United States Postal Service", "operator:short": "USPS", "operator:type": "public", "operator:wikidata": "Q668687", "ref": "0072900008"}, "type": "Feature"}
{"geometry": {"coordinates": [-65.8859527229, 18.3960874668], "type": "Point"}, "id": "7Fky43HxSwDBKOOaUQdI1Cq4s6s=", "properties": {"@source_uri": "https://tools.usps.com/UspsToolsRestServices/rest/POLocator/findLocations", "@spider": "usps_collection_boxes", "addr:city": "CANOVANAS", "addr:country": "US", "addr:postcode": "00729", "addr:state": "PR", "addr:street_address": "18400 CARR 3 STE 136", "amenity": "post_box", "collection_times": "Mo-Fr 17:00; Sa 08:15", "indoor": "yes", "note": "ON 12/24 AND 12/31, THIS BOX MAY BE COLLECTED AS EARLY AS 12 NOON.", "nsi_id": "unitedstatespostalservice-a77078", "operator": "United States Postal Service", "operator:short": "USPS", "operator:type": "public", "operator:wikidata": "Q668687", "ref": "0072900009"}, "type": "Feature"}
{"geometry": {"coordinates": [-65.896039958, 18.376377728], "type": "Point"}, "id": "1OVbmDNHk8Skxdt2APctMlKV23U=", "properties": {"@source_uri": "https://tools.usps.com/UspsToolsRestServices/rest/POLocator/findLocations", "@spider": "usps_collection_boxes", "addr:city": "CANOVANAS", "addr:country": "US", "addr:postcode": "00729", "addr:state": "PR", "addr:street_address": "18400 CARR 3", "amenity": "post_box", "collection_times": "Mo-Fr 17:45; Sa 15:15", "indoor": "yes", "note": "ON 12/24 AND 12/31, THIS BOX MAY BE COLLECTED AS EARLY AS 12 NOON.", "nsi_id": "unitedstatespostalservice-a77078", "operator": "United States Postal Service", "operator:short": "USPS", "operator:type": "public", "operator:wikidata": "Q668687", "ref": "0072900010"}, "type": "Feature"}
{"geometry": {"coordinates": [-66.6270599, 17.999315], "type": "Point"}, "id": "s98-bLRuUKG1Wh2IGhrjCxJM79Q=", "properties": {"@source_uri": "https://tools.usps.com/UspsToolsRestServices/rest/POLocator/findLocations", "@spider": "usps_collection_boxes", "addr:city": "PONCE", "addr:country": "US", "addr:postcode": "00731", "addr:state": "PR", "addr:street_address": "4003 CALLE CARLOS CARTAGENA", "amenity": "post_box", "collection_times": "Mo-Sa 09:15", "nsi_id": "unitedstatespostalservice-a77078", "operator": "United States Postal Service", "operator:short": "USPS", "operator:type": "public", "operator:wikidata": "Q668687", "ref": "0073100003"}, "type": "Feature"}
{"geometry": {"coordinates": [-66.6210462, 17.998663], "type": "Point"}, "id": "nWWgxEz-9uqYCaPeTDK7ni--y8Q=", "properties": {"@source_uri": "https://tools.usps.com/UspsToolsRestServices/rest/POLocator/findLocations", "@spider": "usps_collection_boxes", "addr:city": "PONCE", "addr:country": "US", "addr:postcode": "00731", "addr:state": "PR", "addr:street_address": "1145 AVE MUNOZ RIVERA", "amenity": "post_box", "collection_times": "Mo-Sa 11:00", "nsi_id": "unitedstatespostalservice-a77078", "operator": "United States Postal Service", "operator:short": "USPS", "operator:type": "public", "operator:wikidata": "Q668687", "ref": "0073100006"}, "type": "Feature"}
{"geometry": {"coordinates": [-66.6046599, 17.992797], "type": "Point"}, "id": "Iu84SPp2dSApDvk7ulFKTZmqP40=", "properties": {"@source_uri": "https://tools.usps.com/UspsToolsRestServices/rest/POLocator/findLocations", "@spider": "usps_collection_boxes", "addr:city": "PONCE", "addr:country": "US", "addr:postcode": "00731", "addr:state": "PR", "addr:street_address": "2150 AVE SANTIAGO DE LOS CABALLER", "amenity": "post_box", "collection_times": "Mo-Sa 09:30", "nsi_id": "unitedstatespostalservice-a77078", "operator": "United States Postal Service", "operator:short": "USPS", "operator:type": "public", "operator:wikidata": "Q668687", "ref": "0073100016"}, "type": "Feature"}
{"geometry": {"coordinates": [-66.6015405, 18.004362], "type": "Point"}, "id": "H8285fHKPVd6DEg2ryMZw5QIZ-E=", "properties": {"@source_uri": "https://tools.usps.com/UspsToolsRestServices/rest/POLocator/findLocations", "@spider": "usps_collection_boxes", "addr:city": "PONCE", "addr:country": "US", "addr:postcode": "00731", "addr:state": "PR", "addr:street_address": "2836 CALLE SAN FRANCISCO", "amenity": "post_box", "collection_times": "Mo-Sa 09:00", "nsi_id": "unitedstatespostalservice-a77078", "operator": "United States Postal Service", "operator:short": "USPS", "operator:type": "public", "operator:wikidata": "Q668687", "ref": "0073100021"}, "type": "Feature"}
{"geometry": {"coordinates": [-66.6020691, 18.012029], "type": "Point"}, "id": "tsjF3IGXKKgjf9d4zrDZ6VfZ0xw=", "properties": {"@source_uri": "https://tools.usps.com/UspsToolsRestServices/rest/POLocator/findLocations", "@spider": "usps_collection_boxes", "addr:city": "PONCE", "addr:country": "US", "addr:postcode": "00731", "addr:state": "PR", "addr:street_address": "1485 BLVD MIGUEL POU", "amenity": "post_box", "collection_times": "Mo-Sa 10:00", "nsi_id": "unitedstatespostalservice-a77078", "operator": "United States Postal Service", "operator:short": "USPS", "operator:type": "public", "operator:wikidata": "Q668687", "ref": "0073100026"}, "type": "Feature"}
{"geometry": {"coordinates": [-66.6085827, 18.011775], "type": "Point"}, "id": "SUGguQx6q0ggd1n2zbjutfPdkUs=", "properties": {"@source_uri": "https://tools.usps.com/UspsToolsRestServices/rest/POLocator/findLocations", "@spider": "usps_collection_boxes", "addr:city": "PONCE", "addr:country": "US", "addr:postcode": "00731", "addr:state": "PR", "addr:street_address": "15 CALLE CRISTINA", "amenity": "post_box", "collection_times": "Mo-Sa 10:00", "nsi_id": "unitedstatespostalservice-a77078", "operator": "United States Postal Service", "operator:short": "USPS", "operator:type": "public", "operator:wikidata": "Q668687", "ref": "0073100029"}, "type": "Feature"}
{"geometry": {"coordinates": [-66.6143017, 18.009092], "type": "Point"}, "id": "czHopaPYrbBdB2d3VprTkC-158o=", "properties": {"@source_uri": "https://tools.usps.com/UspsToolsRestServices/rest/POLocator/findLocations", "@spider": "usps_collection_boxes", "addr:city": "PONCE", "addr:country": "US", "addr:postcode": "00731", "addr:state": "PR", "addr:street_address": "8169 CALLE CONCORDIA", "amenity": "post_box", "collection_times": "Mo-Sa 10:30", "nsi_id": "unitedstatespostalservice-a77078", "operator": "United States Postal Service", "operator:short": "USPS", "operator:type": "public", "operator:wikidata": "Q668687", "ref": "0073100036"}, "type": "Feature"}
{"geometry": {"coordinates": [-66.6135316, 18.01236], "type": "Point"}, "id": "BRral6tZCJ_kHWlYSk5Erx2nxiE=", "properties": {"@source_uri": "https://tools.usps.com/UspsToolsRestServices/rest/POLocator/findLocations", "@spider": "usps_collection_boxes", "addr:city": "PONCE", "addr:country": "US", "addr:postcode": "00731", "addr:state": "PR", "addr:street_address": "8197 CALLE CONCORDIA", "amenity": "post_box", "collection_times": "Mo-Sa 10:30", "nsi_id": "unitedstatespostalservice-a77078", "operator": "United States Postal Service", "operator:short": "USPS", "operator:type": "public", "operator:wikidata": "Q668687", "ref": "0073100038"}, "type": "Feature"}
{"geometry": {"coordinates": [-66.6143162, 18.010962], "type": "Point"}, "id": "qOWaYoczeoiX1ImrXruH_mwt8O0=", "properties": {"@source_uri": "https://tools.usps.com/UspsToolsRestServices/rest/POLocator/findLocations", "@spider": "usps_collection_boxes", "addr:city": "PONCE", "addr:country": "US", "addr:postcode": "00731", "addr:state": "PR", "addr:street_address": "9245 CALLE MARINA", "amenity": "post_box", "collection_times": "Mo-Sa 10:30", "nsi_id": "unitedstatespostalservice-a77078", "operator": "United States Postal Service", "operator:short": "USPS", "operator:type": "public", "operator:wikidata": "Q668687", "ref": "0073100039"}, "type": "Feature"}
{"geometry": {"coordinates": [-66.615586, 18.006455], "type": "Point"}, "id": "79MxwtlTOUNrmqndp1wUMkX0jic=", "properties": {"@source_uri": "https://tools.usps.com/UspsToolsRestServices/rest/POLocator/findLocations", "@spider": "usps_collection_boxes", "addr:city": "PONCE", "addr:country": "US", "addr:postcode": "00731", "addr:state": "PR", "addr:street_address": "610 CALLE FERROCARRIL", "amenity": "post_box", "collection_times": "Mo-Sa 09:00", "nsi_id": "unitedstatespostalservice-a77078", "operator": "United States Postal Service", "operator:short": "USPS", "operator:type": "public", "operator:wikidata": "Q668687", "ref": "0073100041"}, "type": "Feature"}
{"geometry": {"coordinates": [-66.6185915, 18.006501], "type": "Point"}, "id": "QcBauTUq-5OXmd4Ticab2KbH1Hc=", "properties": {"@source_uri": "https://tools.usps.com/UspsToolsRestServices/rest/POLocator/findLocations", "@spider": "usps_collection_boxes", "addr:city": "PONCE", "addr:country": "US", "addr:postcode": "00731", "addr:state": "PR", "addr:street_address": "441 CALLE FERROCARRIL", "amenity": "post_box", "collection_times": "Mo-Sa 09:00", "nsi_id": "unitedstatespostalservice-a77078", "operator": "United States Postal Service", "operator:short": "USPS", "operator:type": "public", "operator:wikidata": "Q668687", "ref": "0073100046"}, "type": "Feature"}
{"geometry": {"coordinates": [-66.6319866, 17.998897], "type": "Point"}, "id": "EFYcGuiH7EiMmdwu1wTLtskbugI=", "properties": {"@source_uri": "https://tools.usps.com/UspsToolsRestServices/rest/POLocator/findLocations", "@spider": "usps_collection_boxes", "addr:city": "PONCE", "addr:country": "US", "addr:postcode": "00731", "addr:state": "PR", "addr:street_address": "2340 AVE EDUARDO RUBERTE", "amenity": "post_box", "collection_times": "Mo-Fr 17:00; Sa 13:00", "note": "ON 12/24 AND 12/31, THIS BOX MAY BE COLLECTED AS EARLY AS 12 NOON.", "nsi_id": "unitedstatespostalservice-a77078", "operator": "United States Postal Service", "operator:short": "USPS", "operator:type": "public", "operator:wikidata": "Q668687", "ref": "0073100050"}, "type": "Feature"}
{"geometry": {"coordinates": [-66.6185836, 18.010102], "type": "Point"}, "id": "HzY_GAm-JAUGoSahPAn39UbIkdg=", "properties": {"@source_uri": "https://tools.usps.com/UspsToolsRestServices/rest/POLocator/findLocations", "@spider": "usps_collection_boxes", "addr:city": "PONCE", "addr:country": "US", "addr:postcode": "00731", "addr:state": "PR", "addr:street_address": "157 CALLE VILLA", "amenity": "post_box", "collection_times": "Mo-Sa 09:15", "nsi_id": "unitedstatespostalservice-a77078", "operator": "United States Postal Service", "operator:short": "USPS", "operator:type": "public", "operator:wikidata": "Q668687", "ref": "0073100057"}, "type": "Feature"}
{"geometry": {"coordinates": [-66.6011587, 18.024485], "type": "Point"}, "id": "Jw8DSV0JvMRCqz6ggiy3f0iiG8M=", "properties": {"@source_uri": "https://tools.usps.com/UspsToolsRestServices/rest/POLocator/findLocations", "@spider": "usps_collection_boxes", "addr:city": "PONCE", "addr:country": "US", "addr:postcode": "00731", "addr:state": "PR", "addr:street_address": "472 AVE TITO CASTRO", "amenity": "post_box", "collection_times": "Mo-Sa 09:00", "nsi_id": "unitedstatespostalservice-a77078", "operator": "United States Postal Service", "operator:short": "USPS", "operator:type": "public", "operator:wikidata": "Q668687", "ref": "0073100061"}, "type": "Feature"}
{"geometry": {"coordinates": [-66.5990114, 18.026235], "type": "Point"}, "id": "M48fIXLD-XeItErCDgTcFqoa5fQ=", "properties": {"@source_uri": "https://tools.usps.com/UspsToolsRestServices/rest/POLocator/findLocations", "@spider": "usps_collection_boxes", "addr:city": "PONCE", "addr:country": "US", "addr:postcode": "00731", "addr:state": "PR", "addr:street_address": "624 AVE TITO CASTRO", "amenity": "post_box", "collection_times": "Mo-Sa 09:00", "nsi_id": "unitedstatespostalservice-a77078", "operator": "United States Postal Service", "operator:short": "USPS", "operator:type": "public", "operator:wikidata": "Q668687", "ref": "0073100062"}, "type": "Feature"}
{"geometry": {"coordinates": [-66.6335805, 18.011425], "type": "Point"}, "id": "uzjmsXyoaolBDD9MzHBtk4BtqfE=", "properties": {"@source_uri": "https://tools.usps.com/UspsToolsRestServices/rest/POLocator/findLocations", "@spider": "usps_collection_boxes", "addr:city": "PONCE", "addr:country": "US", "addr:postcode": "00731", "addr:state": "PR", "addr:street_address": "409 CARR 123", "amenity": "post_box", "collection_times": "Mo-Sa 09:00", "nsi_id": "unitedstatespostalservice-a77078", "operator": "United States Postal Service", "operator:short": "USPS", "operator:type": "public", "operator:wikidata": "Q668687", "ref": "0073100072"}, "type": "Feature"}
{"geometry": {"coordinates": [-66.6565366, 17.986737], "type": "Point"}, "id": "x1wiW-uOIizvFNty1Hh8rJQjaJg=", "properties": {"@source_uri": "https://tools.usps.com/UspsToolsRestServices/rest/POLocator/findLocations", "@spider": "usps_collection_boxes", "addr:city": "PONCE", "addr:country": "US", "addr:postcode": "00731", "addr:state": "PR", "addr:street_address": "3060 CARR 591", "amenity": "post_box", "collection_times": "Mo-Sa 09:00", "nsi_id": "unitedstatespostalservice-a77078", "operator": "United States Postal Service", "operator:short": "USPS", "operator:type": "public", "operator:wikidata": "Q668687", "ref": "0073100077"}, "type": "Feature"}
{"geometry": {"coordinates": [-66.6001009692, 18.0180370007], "type": "Point"}, "id": "IzFxT_3uBqjVbQIwfce0xeKu7DA=", "properties": {"@source_uri": "https://tools.usps.com/UspsToolsRestServices/rest/POLocator/findLocations", "@spider": "usps_collection_boxes", "addr:city": "PONCE", "addr:country": "US", "addr:postcode": "00731", "addr:state": "PR", "addr:street_address": "2979 AVE EMILIO FAGOT", "amenity": "post_box", "collection_times": "Mo-Sa 09:30", "nsi_id": "unitedstatespostalservice-a77078", "operator": "United States Postal Service", "operator:short": "USPS", "operator:type": "public", "operator:wikidata": "Q668687", "ref": "0073100080"}, "type": "Feature"}
{"geometry": {"coordinates": [-66.6091935, 18.0387793], "type": "Point"}, "id": "cBU6yzcqG5HNiIZNXr9k_5cDYm0=", "properties": {"@source_uri": "https://tools.usps.com/UspsToolsRestServices/rest/POLocator/findLocations", "@spider": "usps_collection_boxes", "addr:city": "PONCE", "addr:country": "US", "addr:postcode": "00731", "addr:state": "PR", "addr:street_address": "1802 CALLE ALCAZAR", "amenity": "post_box", "collection_times": "Mo-Sa 10:00", "nsi_id": "unitedstatespostalservice-a77078", "operator": "United States Postal Service", "operator:short": "USPS", "operator:type": "public", "operator:wikidata": "Q668687", "ref": "0073100082"}, "type": "Feature"}
{"geometry": {"coordinates": [-66.5961071, 18.009758], "type": "Point"}, "id": "o24bZMFq8OUyVdbrsz4raT43sWw=", "properties": {"@source_uri": "https://tools.usps.com/UspsToolsRestServices/rest/POLocator/findLocations", "@spider": "usps_collection_boxes", "addr:city": "PONCE", "addr:country": "US", "addr:postcode": "00731", "addr:state": "PR", "addr:street_address": "1016 PASEO REAL", "amenity": "post_box", "collection_times": "Mo-Sa 09:15", "nsi_id": "unitedstatespostalservice-a77078", "operator": "United States Postal Service", "operator:short": "USPS", "operator:type": "public", "operator:wikidata": "Q668687", "ref": "0073100086"}, "type": "Feature"}
{"geometry": {"coordinates": [-66.6471095, 18.012651], "type": "Point"}, "id": "idrazCct11Q1JVyV95Lx8xBqR20=", "properties": {"@source_uri": "https://tools.usps.com/UspsToolsRestServices/rest/POLocator/findLocations", "@spider": "usps_collection_boxes", "addr:city": "PONCE", "addr:country": "US", "addr:postcode": "00731", "addr:state": "PR", "addr:street_address": "111 AVE PRINCIPAL", "amenity": "post_box", "collection_times": "Mo-Sa 09:00", "nsi_id": "unitedstatespostalservice-a77078", "operator": "United States Postal Service", "operator:short": "USPS", "operator:type": "public", "operator:wikidata": "Q668687", "ref": "0073100087"}, "type": "Feature"}
{"geometry": {"coordinates": [-66.6432673, 18.030695], "type": "Point"}, "id": "6xyvRcptHZ8ebom9ksOcRx1hJAU=", "properties": {"@source_uri": "https://tools.usps.com/UspsToolsRestServices/rest/POLocator/findLocations", "@spider": "usps_collection_boxes", "addr:city": "PONCE", "addr:country": "US", "addr:postcode": "00731", "addr:state": "PR", "addr:street_address": "934 AVE PONCE DE LEON", "amenity": "post_box", "collection_times": "Mo-Sa 09:15", "nsi_id": "unitedstatespostalservice-a77078", "operator": "United States Postal Service", "operator:short": "USPS", "operator:type": "public", "operator:wikidata": "Q668687", "ref": "0073100089"}, "type": "Feature"}
{"geometry": {"coordinates": [-66.6466614, 17.991525], "type": "Point"}, "id": "vT8sqI_5KevQdewFh-UMqXyqb6c=", "properties": {"@source_uri": "https://tools.usps.com/UspsToolsRestServices/rest/POLocator/findLocations", "@spider": "usps_collection_boxes", "addr:city": "PONCE", "addr:country": "US", "addr:postcode": "00731", "addr:state": "PR", "addr:street_address": "503 AVE PUNTO ORO", "amenity": "post_box", "collection_times": "Mo-Sa 09:00", "nsi_id": "unitedstatespostalservice-a77078", "operator": "United States Postal Service", "operator:short": "USPS", "operator:type": "public", "operator:wikidata": "Q668687", "ref": "0073100095"}, "type": "Feature"}
{"geometry": {"coordinates": [-66.5896509, 18.004019], "type": "Point"}, "id": "F6Cc0PTkQ1B03rijaAmYSpF34-o=", "properties": {"@source_uri": "https://tools.usps.com/UspsToolsRestServices/rest/POLocator/findLocations", "@spider": "usps_collection_boxes", "addr:city": "PONCE", "addr:country": "US", "addr:postcode": "00731", "addr:state": "PR", "addr:street_address": "775 CALLE CAOBA", "amenity": "post_box", "collection_times": "Mo-Sa 09:45", "nsi_id": "unitedstatespostalservice-a77078", "operator": "United States Postal Service", "operator:short": "USPS", "operator:type": "public", "operator:wikidata": "Q668687", "ref": "0073100106"}, "type": "Feature"}
{"geometry": {"coordinates": [-66.6213237, 17.981878], "type": "Point"}, "id": "hKeLkSaK9e99Lc1hqwmxyekPXjY=", "properties": {"@source_uri": "https://tools.usps.com/UspsToolsRestServices/rest/POLocator/findLocations", "@spider": "usps_collection_boxes", "addr:city": "PONCE", "addr:country": "US", "addr:postcode": "00731", "addr:state": "PR", "addr:street_address": "21 CALLE DR ULISES CLAVELL", "amenity": "post_box", "collection_times": "Mo-Sa 09:15", "nsi_id": "unitedstatespostalservice-a77078", "operator": "United States Postal Service", "operator:short": "USPS", "operator:type": "public", "operator:wikidata": "Q668687", "ref": "0073100113"}, "type": "Feature"}
{"geometry": {"coordinates": [-66.609973, 17.977815], "type": "Point"}, "id": "d71IvTa0hi5FnoUKZQEjkgG1YCc=", "properties": {"@source_uri": "https://tools.usps.com/UspsToolsRestServices/rest/POLocator/findLocations", "@spider": "usps_collection_boxes", "addr:city": "PONCE", "addr:country": "US", "addr:postcode": "00731", "addr:state": "PR", "addr:street_address": "705 AVE CARIBE", "amenity": "post_box", "collection_times": "Mo-Sa 09:30", "nsi_id": "unitedstatespostalservice-a77078", "operator": "United States Postal Service", "operator:short": "USPS", "operator:type": "public", "operator:wikidata": "Q668687", "ref": "0073100123"}, "type": "Feature"}
{"geometry": {"coordinates": [-66.5857326, 18.006401], "type": "Point"}, "id": "iEjiFnTwlGbgyi4P53P90vtTBro=", "properties": {"@source_uri": "https://tools.usps.com/UspsToolsRestServices/rest/POLocator/findLocations", "@spider": "usps_collection_boxes", "addr:city": "PONCE", "addr:country": "US", "addr:postcode": "00731", "addr:state": "PR", "addr:street_address": "1698 PASEO VILLA FLORES", "amenity": "post_box", "collection_times": "Mo-Sa 09:30", "nsi_id": "unitedstatespostalservice-a77078", "operator": "United States Postal Service", "operator:short": "USPS", "operator:type": "public", "operator:wikidata": "Q668687", "ref": "0073100128"}, "type": "Feature"}
{"geometry": {"coordinates": [-66.6180713, 17.996782], "type": "Point"}, "id": "k0HmMUtxj-MBPCV26xYzmuwMhSQ=", "properties": {"@source_uri": "https://tools.usps.com/UspsToolsRestServices/rest/POLocator/findLocations", "@spider": "usps_collection_boxes", "addr:city": "PONCE", "addr:country": "US", "addr:postcode": "00731", "addr:state": "PR", "addr:street_address": "2213 PONCE BYP", "amenity": "post_box", "collection_times": "Mo-Sa 09:00", "nsi_id": "unitedstatespostalservice-a77078", "operator": "United States Postal Service", "operator:short": "USPS", "operator:type": "public", "operator:wikidata": "Q668687", "ref": "0073100130"}, "type": "Feature"}
{"geometry": {"coordinates": [-66.6121672, 18.003259], "type": "Point"}, "id": "Yv9-inowzJz11jQRv9KaSaKQhrU=", "properties": {"@source_uri": "https://tools.usps.com/UspsToolsRestServices/rest/POLocator/findLocations", "@spider": "usps_collection_boxes", "addr:city": "PONCE", "addr:country": "US", "addr:postcode": "00731", "addr:state": "PR", "addr:street_address": "2440 BLVD LUIS A FERRE STE 101", "amenity": "post_box", "collection_times": "Mo-Sa 09:15", "nsi_id": "unitedstatespostalservice-a77078", "operator": "United States Postal Service", "operator:short": "USPS", "operator:type": "public", "operator:wikidata": "Q668687", "ref": "0073100135"}, "type": "Feature"}
{"geometry": {"coordinates": [-66.6256878003, 18.1038663608], "type": "Point"}, "id": "gwSEX68IUCg4DG6SwFh8ElTmSI8=", "properties": {"@source_uri": "https://tools.usps.com/UspsToolsRestServices/rest/POLocator/findLocations", "@spider": "usps_collection_boxes", "addr:city": "PONCE", "addr:country": "US", "addr:postcode": "00731", "addr:state": "PR", "addr:street_address": "2340 AVE EDUARDO RUBERTE", "amenity": "post_box", "collection_times": "Mo-Fr 17:00; Sa 13:00", "indoor": "yes", "note": "ON 12/24 AND 12/31, THIS BOX MAY BE COLLECTED AS EARLY AS 12 NOON.", "nsi_id": "unitedstatespostalservice-a77078", "operator": "United States Postal Service", "operator:short": "USPS", "operator:type": "public", "operator:wikidata": "Q668687", "ref": "0073100137"}, "type": "Feature"}
{"geometry": {"coordinates": [-66.6418543, 17.997567], "type": "Point"}, "id": "mhLzsSCqlCXQL4SyHmwvXlg7mN8=", "properties": {"@source_uri": "https://tools.usps.com/UspsToolsRestServices/rest/POLocator/findLocations", "@spider": "usps_collection_boxes", "addr:city": "PONCE", "addr:country": "US", "addr:postcode": "00731", "addr:state": "PR", "addr:street_address": "3305 AVE BARAMAYA STE 100", "amenity": "post_box", "collection_times": "Mo-Sa 09:00", "nsi_id": "unitedstatespostalservice-a77078", "operator": "United States Postal Service", "operator:short": "USPS", "operator:type": "public", "operator:wikidata": "Q668687", "ref": "0073100139"}, "type": "Feature"}
{"geometry": {"coordinates": [-66.631907565, 17.998508743], "type": "Point"}, "id": "9GCcltgdiYeKLxhKonOagyCq4Gk=", "properties": {"@source_uri": "https://tools.usps.com/UspsToolsRestServices/rest/POLocator/findLocations", "@spider": "usps_collection_boxes", "addr:city": "PONCE", "addr:country": "US", "addr:postcode": "00731", "addr:state": "PR", "addr:street_address": "2340 AVE EDUARDO RUBERTE", "amenity": "post_box", "collection_times": "Mo-Fr 18:00; Sa 16:15", "indoor": "yes", "note": "ON 12/24 AND 12/31, THIS BOX MAY BE COLLECTED AS EARLY AS 12 NOON.", "nsi_id": "unitedstatespostalservice-a77078", "operator": "United States Postal Service", "operator:short": "USPS", "operator:type": "public", "operator:wikidata": "Q668687", "ref": "0073100141"}, "type": "Feature"}
{"geometry": {"coordinates": [-65.647991, 18.264801], "type": "Point"}, "id": "F3tZVgDhjBwKDaadTLmNn9pGsoE=", "properties": {"@source_uri": "https://tools.usps.com/UspsToolsRestServices/rest/POLocator/findLocations", "@spider": "usps_collection_boxes", "addr:city": "CEIBA", "addr:country": "US", "addr:postcode": "00735", "addr:state": "PR", "addr:street_address": "250 AVE LAURO PINERO", "amenity": "post_box", "collection_times": "Mo-Sa 08:30", "nsi_id": "unitedstatespostalservice-a77078", "operator": "United States Postal Service", "operator:short": "USPS", "operator:type": "public", "operator:wikidata": "Q668687", "ref": "0073500003"}, "type": "Feature"}
{"geometry": {"coordinates": [-65.6482784, 18.261315], "type": "Point"}, "id": "7p-moajdh2Rghpp2gJHYhi51fMY=", "properties": {"@source_uri": "https://tools.usps.com/UspsToolsRestServices/rest/POLocator/findLocations", "@spider": "usps_collection_boxes", "addr:city": "CEIBA", "addr:country": "US", "addr:postcode": "00735", "addr:state": "PR", "addr:street_address": "305 AVE LAURO PINERO", "amenity": "post_box", "collection_times": "Mo-Fr 15:00; Sa 08:30", "note": "ON 12/24 AND 12/31, THIS BOX MAY BE COLLECTED AS EARLY AS 12 NOON.", "nsi_id": "unitedstatespostalservice-a77078", "operator": "United States Postal Service", "operator:short": "USPS", "operator:type": "public", "operator:wikidata": "Q668687", "ref": "0073500007"}, "type": "Feature"}
{"geometry": {"coordinates": [-65.6485252, 18.261413], "type": "Point"}, "id": "gBZh6evbMhj8VB5BBEC9DtP8nsw=", "properties": {"@source_uri": "https://tools.usps.com/UspsToolsRestServices/rest/POLocator/findLocations", "@spider": "usps_collection_boxes", "addr:city": "CEIBA", "addr:country": "US", "addr:postcode": "00735", "addr:state": "PR", "addr:street_address": "305 AVE LAURO PINERO", "amenity": "post_box", "collection_times": "Mo-Fr 15:00; Sa 08:30", "indoor": "yes", "note": "ON 12/24 AND 12/31, THIS BOX MAY BE COLLECTED AS EARLY AS 12 NOON.", "nsi_id": "unitedstatespostalservice-a77078", "operator": "United States Postal Service", "operator:short": "USPS", "operator:type": "public", "operator:wikidata": "Q668687", "ref": "0073500009"}, "type": "Feature"}
{"geometry": {"coordinates": [-65.648180371, 18.261315953], "type": "Point"}, "id": "mxbfSRAq0Fuku8JH-OGD1zfGvUM=", "properties": {"@source_uri": "https://tools.usps.com/UspsToolsRestServices/rest/POLocator/findLocations", "@spider": "usps_collection_boxes", "addr:city": "CEIBA", "addr:country": "US", "addr:postcode": "00735", "addr:state": "PR", "addr:street_address": "305 AVE LAURO PINERO", "amenity": "post_box", "collection_times": "Mo-Fr 16:45; Sa 12:15", "indoor": "yes", "note": "ON 12/24 AND 12/31, THIS BOX MAY BE COLLECTED AS EARLY AS 12 NOON.", "nsi_id": "unitedstatespostalservice-a77078", "operator": "United States Postal Service", "operator:short": "USPS", "operator:type": "public", "operator:wikidata": "Q668687", "ref": "0073500010"}, "type": "Feature"}
{"geometry": {"coordinates": [-66.1571486, 18.10879], "type": "Point"}, "id": "9VZrvIYF9l63qFHa9fD186c4PnA=", "properties": {"@source_uri": "https://tools.usps.com/UspsToolsRestServices/rest/POLocator/findLocations", "@spider": "usps_collection_boxes", "addr:city": "CAYEY", "addr:country": "US", "addr:postcode": "00736", "addr:state": "PR", "addr:street_address": "1000 AVE JESUS T PINERO", "amenity": "post_box", "collection_times": "Mo-Sa 09:30", "nsi_id": "unitedstatespostalservice-a77078", "operator": "United States Postal Service", "operator:short": "USPS", "operator:type": "public", "operator:wikidata": "Q668687", "ref": "0073600002"}, "type": "Feature"}
{"geometry": {"coordinates": [-66.1469479, 18.117005], "type": "Point"}, "id": "rvudfU5-B-oOgu6V4Eyp9Y4V9XE=", "properties": {"@source_uri": "https://tools.usps.com/UspsToolsRestServices/rest/POLocator/findLocations", "@spider": "usps_collection_boxes", "addr:city": "CAYEY", "addr:country": "US", "addr:postcode": "00736", "addr:state": "PR", "addr:street_address": "C17 CALLE A", "amenity": "post_box", "collection_times": "Mo-Sa 09:30", "nsi_id": "unitedstatespostalservice-a77078", "operator": "United States Postal Service", "operator:short": "USPS", "operator:type": "public", "operator:wikidata": "Q668687", "ref": "0073600003"}, "type": "Feature"}
{"geometry": {"coordinates": [-66.1653064, 18.112981], "type": "Point"}, "id": "mnpGRXgD5aUOOBysZIA3rLzj-nA=", "properties": {"@source_uri": "https://tools.usps.com/UspsToolsRestServices/rest/POLocator/findLocations", "@spider": "usps_collection_boxes", "addr:city": "CAYEY", "addr:country": "US", "addr:postcode": "00736", "addr:state": "PR", "addr:street_address": "52 CALLE MANUEL CORCHADO", "amenity": "post_box", "collection_times": "Mo-Sa 08:00", "nsi_id": "unitedstatespostalservice-a77078", "operator": "United States Postal Service", "operator:short": "USPS", "operator:type": "public", "operator:wikidata": "Q668687", "ref": "0073600004"}, "type": "Feature"}
{"geometry": {"coordinates": [-66.1630894, 18.114776], "type": "Point"}, "id": "uVGZGgjcFBZ3GYsmsKDXPgcZ7xM=", "properties": {"@source_uri": "https://tools.usps.com/UspsToolsRestServices/rest/POLocator/findLocations", "@spider": "usps_collection_boxes", "addr:city": "CAYEY", "addr:country": "US", "addr:postcode": "00736", "addr:state": "PR", "addr:street_address": "20 AVE ANTONIO R BARCELO", "amenity": "post_box", "collection_times": "Mo-Sa 08:00", "nsi_id": "unitedstatespostalservice-a77078", "operator": "United States Postal Service", "operator:short": "USPS", "operator:type": "public", "operator:wikidata": "Q668687", "ref": "0073600005"}, "type": "Feature"}
{"geometry": {"coordinates": [-66.1333442, 18.123544], "type": "Point"}, "id": "cmvL4xVwC-XyCOnath8Z7QiXY0o=", "properties": {"@source_uri": "https://tools.usps.com/UspsToolsRestServices/rest/POLocator/findLocations", "@spider": "usps_collection_boxes", "addr:city": "CAYEY", "addr:country": "US", "addr:postcode": "00736", "addr:state": "PR", "addr:street_address": "8000 AVE JESUS T PINERO", "amenity": "post_box", "collection_times": "Mo-Sa 08:30", "nsi_id": "unitedstatespostalservice-a77078", "operator": "United States Postal Service", "operator:short": "USPS", "operator:type": "public", "operator:wikidata": "Q668687", "ref": "0073600010"}, "type": "Feature"}
{"geometry": {"coordinates": [-66.1621251739, 18.1119466289], "type": "Point"}, "id": "HE8db7af-JsOuEp93wLtRpS94u8=", "properties": {"@source_uri": "https://tools.usps.com/UspsToolsRestServices/rest/POLocator/findLocations", "@spider": "usps_collection_boxes", "addr:city": "CAYEY", "addr:country": "US", "addr:postcode": "00736", "addr:state": "PR", "addr:street_address": "64 AVE INDUSTRIAL", "amenity": "post_box", "collection_times": "Mo-Sa 08:30", "nsi_id": "unitedstatespostalservice-a77078", "operator": "United States Postal Service", "operator:short": "USPS", "operator:type": "public", "operator:wikidata": "Q668687", "ref": "0073600011"}, "type": "Feature"}
{"geometry": {"coordinates": [-66.1658536, 18.114197], "type": "Point"}, "id": "0bp-JEH7X9cVvWYUSVkpxou40bg=", "properties": {"@source_uri": "https://tools.usps.com/UspsToolsRestServices/rest/POLocator/findLocations", "@spider": "usps_collection_boxes", "addr:city": "CAYEY", "addr:country": "US", "addr:postcode": "00736", "addr:state": "PR", "addr:street_address": "11 AVE BALDORIOTY E", "amenity": "post_box", "collection_times": "Mo-Fr 17:00; Sa 13:00", "note": "ON 12/24 AND 12/31, THIS BOX MAY BE COLLECTED AS EARLY AS 12 NOON.", "nsi_id": "unitedstatespostalservice-a77078", "operator": "United States Postal Service", "operator:short": "USPS", "operator:type": "public", "operator:wikidata": "Q668687", "ref": "0073600013"}, "type": "Feature"}
{"geometry": {"coordinates": [-66.1471299, 18.11447], "type": "Point"}, "id": "ggvr52_SyZKOOUA4h8iBJ3AKdAs=", "properties": {"@source_uri": "https://tools.usps.com/UspsToolsRestServices/rest/POLocator/findLocations", "@spider": "usps_collection_boxes", "addr:city": "CAYEY", "addr:country": "US", "addr:postcode": "00736", "addr:state": "PR", "addr:street_address": "3000 AVE JESUS T PINERO", "amenity": "post_box", "collection_times": "Mo-Sa 09:30", "nsi_id": "unitedstatespostalservice-a77078", "operator": "United States Postal Service", "operator:short": "USPS", "operator:type": "public", "operator:wikidata": "Q668687", "ref": "0073600014"}, "type": "Feature"}
{"geometry": {"coordinates": [-66.1387086, 18.11876], "type": "Point"}, "id": "A94tNBSYKM63u2wR4qRWbtl7Stc=", "properties": {"@source_uri": "https://tools.usps.com/UspsToolsRestServices/rest/POLocator/findLocations", "@spider": "usps_collection_boxes", "addr:city": "CAYEY", "addr:country": "US", "addr:postcode": "00736", "addr:state": "PR", "addr:street_address": "4500 AVE JESUS T PINERO", "amenity": "post_box", "collection_times": "Mo-Sa 10:30", "nsi_id": "unitedstatespostalservice-a77078", "operator": "United States Postal Service", "operator:short": "USPS", "operator:type": "public", "operator:wikidata": "Q668687", "ref": "0073600015"}, "type": "Feature"}
{"geometry": {"coordinates": [-66.1660436, 18.114406], "type": "Point"}, "id": "nw_IbYp87H3-A0_6FMpwAYWEDFQ=", "properties": {"@source_uri": "https://tools.usps.com/UspsToolsRestServices/rest/POLocator/findLocations", "@spider": "usps_collection_boxes", "addr:city": "CAYEY", "addr:country": "US", "addr:postcode": "00736", "addr:state": "PR", "addr:street_address": "11 AVE BALDORIOTY E", "amenity": "post_box", "collection_times": "Mo-Fr 17:00; Sa 13:00", "indoor": "yes", "note": "ON 12/24 AND 12/31, THIS BOX MAY BE COLLECTED AS EARLY AS 12 NOON.", "nsi_id": "unitedstatespostalservice-a77078", "operator": "United States Postal Service", "operator:short": "USPS", "operator:type": "public", "operator:wikidata": "Q668687", "ref": "0073600017"}, "type": "Feature"}
{"geometry": {"coordinates": [-66.166796103, 18.114281369], "type": "Point"}, "id": "-m4x8pzQo2nAE7lmEPQFuB0AiGo=", "properties": {"@source_uri": "https://tools.usps.com/UspsToolsRestServices/rest/POLocator/findLocations", "@spider": "usps_collection_boxes", "addr:city": "CAYEY", "addr:country": "US", "addr:postcode": "00736", "addr:state": "PR", "addr:street_address": "11 AVE BALDORIOTY E", "amenity": "post_box", "collection_times": "Mo-Fr 16:45; Sa 12:15", "indoor": "yes", "note": "ON 12/24 AND 12/31, THIS BOX MAY BE COLLECTED AS EARLY AS 12 NOON.", "nsi_id": "unitedstatespostalservice-a77078", "operator": "United States Postal Service", "operator:short": "USPS", "operator:type": "public", "operator:wikidata": "Q668687", "ref": "0073600018"}, "type": "Feature"}
{"geometry": {"coordinates": [-65.6609, 18.32976], "type": "Point"}, "id": "1l-lSHfzHGVJeKXVh1B6lgh5o1c=", "properties": {"@source_uri": "https://tools.usps.com/UspsToolsRestServices/rest/POLocator/findLocations", "@spider": "usps_collection_boxes", "addr:city": "FAJARDO", "addr:country": "US", "addr:postcode": "00738", "addr:state": "PR", "addr:street_address": "10 CALLE A", "amenity": "post_box", "collection_times": "Mo-Sa 11:30", "nsi_id": "unitedstatespostalservice-a77078", "operator": "United States Postal Service", "operator:short": "USPS", "operator:type": "public", "operator:wikidata": "Q668687", "ref": "0073800001"}, "type": "Feature"}
{"geometry": {"coordinates": [-65.657543, 18.328937], "type": "Point"}, "id": "1bog84lYUeCTh0ssylDLs3ZRkTA=", "properties": {"@source_uri": "https://tools.usps.com/UspsToolsRestServices/rest/POLocator/findLocations", "@spider": "usps_collection_boxes", "addr:city": "FAJARDO", "addr:country": "US", "addr:postcode": "00738", "addr:state": "PR", "addr:street_address": "410 AVE MONTE SOL STE 15", "amenity": "post_box", "collection_times": "Mo-Sa 08:30", "nsi_id": "unitedstatespostalservice-a77078", "operator": "United States Postal Service", "operator:short": "USPS", "operator:type": "public", "operator:wikidata": "Q668687", "ref": "0073800003"}, "type": "Feature"}
{"geometry": {"coordinates": [-65.663347, 18.336404], "type": "Point"}, "id": "-baNPX6oKn0Gz0yYyyuFmVx20XM=", "properties": {"@source_uri": "https://tools.usps.com/UspsToolsRestServices/rest/POLocator/findLocations", "@spider": "usps_collection_boxes", "addr:city": "FAJARDO", "addr:country": "US", "addr:postcode": "00738", "addr:state": "PR", "addr:street_address": "E4 CALLE PRINCIPAL", "amenity": "post_box", "collection_times": "Mo-Sa 13:00", "note": "ON 12/24 AND 12/31, THIS BOX MAY BE COLLECTED AS EARLY AS 12 NOON.", "nsi_id": "unitedstatespostalservice-a77078", "operator": "United States Postal Service", "operator:short": "USPS", "operator:type": "public", "operator:wikidata": "Q668687", "ref": "0073800005"}, "type": "Feature"}
{"geometry": {"coordinates": [-65.6671579, 18.345589], "type": "Point"}, "id": "I0jak_hI7s5bv4uhmGzMiCdg9mA=", "properties": {"@source_uri": "https://tools.usps.com/UspsToolsRestServices/rest/POLocator/findLocations", "@spider": "usps_collection_boxes", "addr:city": "FAJARDO", "addr:country": "US", "addr:postcode": "00738", "addr:state": "PR", "addr:street_address": "593 CALLE HIGUERILLO", "amenity": "post_box", "collection_times": "Mo-Sa 11:30", "nsi_id": "unitedstatespostalservice-a77078", "operator": "United States Postal Service", "operator:short": "USPS", "operator:type": "public", "operator:wikidata": "Q668687", "ref": "0073800006"}, "type": "Feature"}
{"geometry": {"coordinates": [-65.6736821, 18.343119], "type": "Point"}, "id": "aCl6JlSDpjBV7uuR209KlMMj-ZA=", "properties": {"@source_uri": "https://tools.usps.com/UspsToolsRestServices/rest/POLocator/findLocations", "@spider": "usps_collection_boxes", "addr:city": "FAJARDO", "addr:country": "US", "addr:postcode": "00738", "addr:state": "PR", "addr:street_address": "180 CARR 940", "amenity": "post_box", "collection_times": "Mo-Sa 13:30", "note": "ON 12/24 AND 12/31, THIS BOX MAY BE COLLECTED AS EARLY AS 12 NOON.", "nsi_id": "unitedstatespostalservice-a77078", "operator": "United States Postal Service", "operator:short": "USPS", "operator:type": "public", "operator:wikidata": "Q668687", "ref": "0073800007"}, "type": "Feature"}
{"geometry": {"coordinates": [-65.637142333, 18.3395936145], "type": "Point"}, "id": "dQnnHgel_pTTVFic1ab1RpuED0E=", "properties": {"@source_uri": "https://tools.usps.com/UspsToolsRestServices/rest/POLocator/findLocations", "@spider": "usps_collection_boxes", "addr:city": "FAJARDO", "addr:country": "US", "addr:postcode": "00738", "addr:state": "PR", "addr:street_address": "200 AVE A", "amenity": "post_box", "collection_times": "Mo-Sa 13:30", "note": "ON 12/24 AND 12/31, THIS BOX MAY BE COLLECTED AS EARLY AS 12 NOON.", "nsi_id": "unitedstatespostalservice-a77078", "operator": "United States Postal Service", "operator:short": "USPS", "operator:type": "public", "operator:wikidata": "Q668687", "ref": "0073800011"}, "type": "Feature"}
{"geometry": {"coordinates": [-65.6508699, 18.328441], "type": "Point"}, "id": "4rMy7PWQCmg7B6UWpRITweMiYv4=", "properties": {"@source_uri": "https://tools.usps.com/UspsToolsRestServices/rest/POLocator/findLocations", "@spider": "usps_collection_boxes", "addr:city": "FAJARDO", "addr:country": "US", "addr:postcode": "00738", "addr:state": "PR", "addr:street_address": "250 AVE GENERAL VALERO", "amenity": "post_box", "collection_times": "Mo-Sa 08:30", "nsi_id": "unitedstatespostalservice-a77078", "operator": "United States Postal Service", "operator:short": "USPS", "operator:type": "public", "operator:wikidata": "Q668687", "ref": "0073800013"}, "type": "Feature"}
{"geometry": {"coordinates": [-65.6520610348, 18.3247307337], "type": "Point"}, "id": "DmqCop-s4ZfAc53n1benL8vVJjk=", "properties": {"@source_uri": "https://tools.usps.com/UspsToolsRestServices/rest/POLocator/findLocations", "@spider": "usps_collection_boxes", "addr:city": "FAJARDO", "addr:country": "US", "addr:postcode": "00738", "addr:state": "PR", "addr:street_address": "2 CALLE GARRIDO MORALES E", "amenity": "post_box", "collection_times": "Mo-Sa 09:30", "nsi_id": "unitedstatespostalservice-a77078", "operator": "United States Postal Service", "operator:short": "USPS", "operator:type": "public", "operator:wikidata": "Q668687", "ref": "0073800015"}, "type": "Feature"}
{"geometry": {"coordinates": [-65.6551713, 18.326009], "type": "Point"}, "id": "pu2b2FMWkczvckMDRTHeuKVCeIU=", "properties": {"@source_uri": "https://tools.usps.com/UspsToolsRestServices/rest/POLocator/findLocations", "@spider": "usps_collection_boxes", "addr:city": "FAJARDO", "addr:country": "US", "addr:postcode": "00738", "addr:state": "PR", "addr:street_address": "113 CALLE GARRIDO MORALES W", "amenity": "post_box", "collection_times": "Mo-Fr 17:00; Sa 13:00", "note": "ON 12/24 AND 12/31, THIS BOX MAY BE COLLECTED AS EARLY AS 12 NOON.", "nsi_id": "unitedstatespostalservice-a77078", "operator": "United States Postal Service", "operator:short": "USPS", "operator:type": "public", "operator:wikidata": "Q668687", "ref": "0073800017"}, "type": "Feature"}
{"geometry": {"coordinates": [-65.6551121, 18.32622], "type": "Point"}, "id": "lI05HTBV_XT1tCjr0vXqSqNc3e4=", "properties": {"@source_uri": "https://tools.usps.com/UspsToolsRestServices/rest/POLocator/findLocations", "@spider": "usps_collection_boxes", "addr:city": "FAJARDO", "addr:country": "US", "addr:postcode": "00738", "addr:state": "PR", "addr:street_address": "113 CALLE GARRIDO MORALES W", "amenity": "post_box", "collection_times": "Mo-Fr 17:00; Sa 13:00", "indoor": "yes", "note": "ON 12/24 AND 12/31, THIS BOX MAY BE COLLECTED AS EARLY AS 12 NOON.", "nsi_id": "unitedstatespostalservice-a77078", "operator": "United States Postal Service", "operator:short": "USPS", "operator:type": "public", "operator:wikidata": "Q668687", "ref": "0073800019"}, "type": "Feature"}
{"geometry": {"coordinates": [-65.653826184, 18.325315355], "type": "Point"}, "id": "vJANfMrafs_Io3UA3BWL0t-cz6o=", "properties": {"@source_uri": "https://tools.usps.com/UspsToolsRestServices/rest/POLocator/findLocations", "@spider": "usps_collection_boxes", "addr:city": "FAJARDO", "addr:country": "US", "addr:postcode": "00738", "addr:state": "PR", "addr:street_address": "113 CALLE GARRIDO MORALES W", "amenity": "post_box", "collection_times": "Mo-Fr 17:00; Sa 15:00", "indoor": "yes", "note": "ON 12/24 AND 12/31, THIS BOX MAY BE COLLECTED AS EARLY AS 12 NOON.", "nsi_id": "unitedstatespostalservice-a77078", "operator": "United States Postal Service", "operator:short": "USPS", "operator:type": "public", "operator:wikidata": "Q668687", "ref": "0073800020"}, "type": "Feature"}
{"geometry": {"coordinates": [-66.1610274, 18.17611], "type": "Point"}, "id": "zdOCmAh7hH2WztW2StjTR6MfsSQ=", "properties": {"@source_uri": "https://tools.usps.com/UspsToolsRestServices/rest/POLocator/findLocations", "@spider": "usps_collection_boxes", "addr:city": "CIDRA", "addr:country": "US", "addr:postcode": "00739", "addr:state": "PR", "addr:street_address": "31 CALLE VICENTE MUNOZ BARRIOS", "amenity": "post_box", "collection_times": "Mo-Sa 08:30", "nsi_id": "unitedstatespostalservice-a77078", "operator": "United States Postal Service", "operator:short": "USPS", "operator:type": "public", "operator:wikidata": "Q668687", "ref": "0073900001"}, "type": "Feature"}
{"geometry": {"coordinates": [-66.1582534, 18.176844], "type": "Point"}, "id": "tVwHLO931y0uGR5MTVHV4xqpFrM=", "properties": {"@source_uri": "https://tools.usps.com/UspsToolsRestServices/rest/POLocator/findLocations", "@spider": "usps_collection_boxes", "addr:city": "CIDRA", "addr:country": "US", "addr:postcode": "00739", "addr:state": "PR", "addr:street_address": "49 CALLE ANTONIO R BARCELO", "amenity": "post_box", "collection_times": "Mo-Sa 08:30", "nsi_id": "unitedstatespostalservice-a77078", "operator": "United States Postal Service", "operator:short": "USPS", "operator:type": "public", "operator:wikidata": "Q668687", "ref": "0073900004"}, "type": "Feature"}
{"geometry": {"coordinates": [-66.1576716, 18.171792], "type": "Point"}, "id": "hp4k72DR9HQYO-_JHJ3eL7BoojM=", "properties": {"@source_uri": "https://tools.usps.com/UspsToolsRestServices/rest/POLocator/findLocations", "@spider": "usps_collection_boxes", "addr:city": "CIDRA", "addr:country": "US", "addr:postcode": "00739", "addr:state": "PR", "addr:street_address": "100 AVE INDUSTRIAL", "amenity": "post_box", "collection_times": "Mo-Fr 15:00; Sa 08:30", "note": "ON 12/24 AND 12/31, THIS BOX MAY BE COLLECTED AS EARLY AS 12 NOON.", "nsi_id": "unitedstatespostalservice-a77078", "operator": "United States Postal Service", "operator:short": "USPS", "operator:type": "public", "operator:wikidata": "Q668687", "ref": "0073900005"}, "type": "Feature"}
{"geometry": {"coordinates": [-66.1609845424, 18.1737249391], "type": "Point"}, "id": "eh7rxJesnaShsxQGb2ugAjZvOaA=", "properties": {"@source_uri": "https://tools.usps.com/UspsToolsRestServices/rest/POLocator/findLocations", "@spider": "usps_collection_boxes", "addr:city": "CIDRA", "addr:country": "US", "addr:postcode": "00739", "addr:state": "PR", "addr:street_address": "100 AVE INDUSTRIAL", "amenity": "post_box", "collection_times": "Mo-Fr 15:00; Sa 08:30", "indoor": "yes", "note": "ON 12/24 AND 12/31, THIS BOX MAY BE COLLECTED AS EARLY AS 12 NOON.", "nsi_id": "unitedstatespostalservice-a77078", "operator": "United States Postal Service", "operator:short": "USPS", "operator:type": "public", "operator:wikidata": "Q668687", "ref": "0073900006"}, "type": "Feature"}
{"geometry": {"coordinates": [-66.159177519, 18.185528301], "type": "Point"}, "id": "sYQMHTUrwFzp7LEHG2EP-GXLrLw=", "properties": {"@source_uri": "https://tools.usps.com/UspsToolsRestServices/rest/POLocator/findLocations", "@spider": "usps_collection_boxes", "addr:city": "CIDRA", "addr:country": "US", "addr:postcode": "00739", "addr:state": "PR", "addr:street_address": "100 AVE INDUSTRIAL", "amenity": "post_box", "collection_times": "Mo-Fr 16:45; Sa 12:15", "indoor": "yes", "note": "ON 12/24 AND 12/31, THIS BOX MAY BE COLLECTED AS EARLY AS 12 NOON.", "nsi_id": "unitedstatespostalservice-a77078", "operator": "United States Postal Service", "operator:short": "USPS", "operator:type": "public", "operator:wikidata": "Q668687", "ref": "0073900007"}, "type": "Feature"}
{"geometry": {"coordinates": [-65.6367784, 18.3300078], "type": "Point"}, "id": "YDENpXle_u1xbTS7VCAIS6AwwQE=", "properties": {"@source_uri": "https://tools.usps.com/UspsToolsRestServices/rest/POLocator/findLocations", "@spider": "usps_collection_boxes", "addr:city": "PUERTO REAL", "addr:country": "US", "addr:postcode": "00740", "addr:state": "PR", "addr:street_address": "477 CALLE UN", "amenity": "post_box", "collection_times": "Mo-Fr 15:00; Sa 08:15", "note": "ON 12/24 AND 12/31, THIS BOX MAY BE COLLECTED AS EARLY AS 12 NOON.", "nsi_id": "unitedstatespostalservice-a77078", "operator": "United States Postal Service", "operator:short": "USPS", "operator:type": "public", "operator:wikidata": "Q668687", "ref": "0074000001"}, "type": "Feature"}
{"geometry": {"coordinates": [-65.6367784, 18.3300078], "type": "Point"}, "id": "tMBxSJ9F4IW47GsnAyyWPvPHvyQ=", "properties": {"@source_uri": "https://tools.usps.com/UspsToolsRestServices/rest/POLocator/findLocations", "@spider": "usps_collection_boxes", "addr:city": "PUERTO REAL", "addr:country": "US", "addr:postcode": "00740", "addr:state": "PR", "addr:street_address": "477 CALLE UN", "amenity": "post_box", "collection_times": "Mo-Fr 16:30; Sa 12:15", "indoor": "yes", "note": "ON 12/24 AND 12/31, THIS BOX MAY BE COLLECTED AS EARLY AS 12 NOON.", "nsi_id": "unitedstatespostalservice-a77078", "operator": "United States Postal Service", "operator:short": "USPS", "operator:type": "public", "operator:wikidata": "Q668687", "ref": "0074000003"}, "type": "Feature"}
{"geometry": {"coordinates": [-65.7443472883, 18.1649770641], "type": "Point"}, "id": "SK4XljFfNiRATddUl4QxCJDg-PY=", "properties": {"@source_uri": "https://tools.usps.com/UspsToolsRestServices/rest/POLocator/findLocations", "@spider": "usps_collection_boxes", "addr:city": "PUNTA SANTIAGO", "addr:country": "US", "addr:postcode": "00741", "addr:state": "PR", "addr:street_address": "15 CALLE ADUANA", "amenity": "post_box", "collection_times": "Mo-Fr 15:00; Sa 08:15", "note": "ON 12/24 AND 12/31, THIS BOX MAY BE COLLECTED AS EARLY AS 12 NOON.", "nsi_id": "unitedstatespostalservice-a77078", "operator": "United States Postal Service", "operator:short": "USPS", "operator:type": "public", "operator:wikidata": "Q668687", "ref": "0074100002"}, "type": "Feature"}
{"geometry": {"coordinates": [-65.7443472883, 18.1649770641], "type": "Point"}, "id": "5UR6y-i5Kt1UCNWYSEFZE9yeeTY=", "properties": {"@source_uri": "https://tools.usps.com/UspsToolsRestServices/rest/POLocator/findLocations", "@spider": "usps_collection_boxes", "addr:city": "PUNTA SANTIAGO", "addr:country": "US", "addr:postcode": "00741", "addr:state": "PR", "addr:street_address": "15 CALLE ADUANA", "amenity": "post_box", "collection_times": "Mo-Fr 15:00; Sa 08:15", "indoor": "yes", "note": "ON 12/24 AND 12/31, THIS BOX MAY BE COLLECTED AS EARLY AS 12 NOON.", "nsi_id": "unitedstatespostalservice-a77078", "operator": "United States Postal Service", "operator:short": "USPS", "operator:type": "public", "operator:wikidata": "Q668687", "ref": "0074100003"}, "type": "Feature"}
{"geometry": {"coordinates": [-65.744347288, 18.164977064], "type": "Point"}, "id": "MDHLkmqnP_WBNBoXP9avF7wDOLE=", "properties": {"@source_uri": "https://tools.usps.com/UspsToolsRestServices/rest/POLocator/findLocations", "@spider": "usps_collection_boxes", "addr:city": "PUNTA SANTIAGO", "addr:country": "US", "addr:postcode": "00741", "addr:state": "PR", "addr:street_address": "15 CALLE ADUANA", "amenity": "post_box", "collection_times": "Mo-Fr 16:15; Sa 12:15", "indoor": "yes", "note": "ON 12/24 AND 12/31, THIS BOX MAY BE COLLECTED AS EARLY AS 12 NOON.", "nsi_id": "unitedstatespostalservice-a77078", "operator": "United States Postal Service", "operator:short": "USPS", "operator:type": "public", "operator:wikidata": "Q668687", "ref": "0074100004"}, "type": "Feature"}
{"geometry": {"coordinates": [-65.787205, 18.21873], "type": "Point"}, "id": "SS2t0z370VaPZvd4I4PIXgeNJ4s=", "properties": {"@source_uri": "https://tools.usps.com/UspsToolsRestServices/rest/POLocator/findLocations", "@spider": "usps_collection_boxes", "addr:city": "RIO BLANCO", "addr:country": "US", "addr:postcode": "00744", "addr:state": "PR", "addr:street_address": "100 CARR 31", "amenity": "post_box", "collection_times": "Mo-Fr 15:00; Sa 08:00", "note": "ON 12/24 AND 12/31, THIS BOX MAY BE COLLECTED AS EARLY AS 12 NOON.", "nsi_id": "unitedstatespostalservice-a77078", "operator": "United States Postal Service", "operator:short": "USPS", "operator:type": "public", "operator:wikidata": "Q668687", "ref": "0074400001"}, "type": "Feature"}
{"geometry": {"coordinates": [-65.787205, 18.21873], "type": "Point"}, "id": "lMihMnHpEYZJNS_KW9M3seuDDSw=", "properties": {"@source_uri": "https://tools.usps.com/UspsToolsRestServices/rest/POLocator/findLocations", "@spider": "usps_collection_boxes", "addr:city": "RIO BLANCO", "addr:country": "US", "addr:postcode": "00744", "addr:state": "PR", "addr:street_address": "100 CARR 31", "amenity": "post_box", "collection_times": "Mo-Fr 15:00; Sa 08:00", "indoor": "yes", "note": "ON 12/24 AND 12/31, THIS BOX MAY BE COLLECTED AS EARLY AS 12 NOON.", "nsi_id": "unitedstatespostalservice-a77078", "operator": "United States Postal Service", "operator:short": "USPS", "operator:type": "public", "operator:wikidata": "Q668687", "ref": "0074400002"}, "type": "Feature"}
{"geometry": {"coordinates": [-65.735732614, 18.214752392], "type": "Point"}, "id": "nJ45D4haKHZQwRx7NGtpqOMR1JU=", "properties": {"@source_uri": "https://tools.usps.com/UspsToolsRestServices/rest/POLocator/findLocations", "@spider": "usps_collection_boxes", "addr:city": "RIO BLANCO", "addr:country": "US", "addr:postcode": "00744", "addr:state": "PR", "addr:street_address": "100 CARR 31", "amenity": "post_box", "collection_times": "Mo-Fr 15:00; Sa 12:00", "indoor": "yes", "note": "ON 12/24 AND 12/31, THIS BOX MAY BE COLLECTED AS EARLY AS 12 NOON.", "nsi_id": "unitedstatespostalservice-a77078", "operator": "United States Postal Service", "operator:short": "USPS", "operator:type": "public", "operator:wikidata": "Q668687", "ref": "0074400003"}, "type": "Feature"}
{"geometry": {"coordinates": [-65.7926613, 18.381428], "type": "Point"}, "id": "AeeHmuVLS8BLG-uafFBmJo9UoZo=", "properties": {"@source_uri": "https://tools.usps.com/UspsToolsRestServices/rest/POLocator/findLocations", "@spider": "usps_collection_boxes", "addr:city": "RIO GRANDE", "addr:country": "US", "addr:postcode": "00745", "addr:state": "PR", "addr:street_address": "10 CALLE PRINCIPAL", "amenity": "post_box", "collection_times": "Mo-Sa 09:00", "nsi_id": "unitedstatespostalservice-a77078", "operator": "United States Postal Service", "operator:short": "USPS", "operator:type": "public", "operator:wikidata": "Q668687", "ref": "0074500003"}, "type": "Feature"}
{"geometry": {"coordinates": [-65.8455696, 18.379669], "type": "Point"}, "id": "jNGv9KYoVRxfIZuAs-WBtyqSGws=", "properties": {"@source_uri": "https://tools.usps.com/UspsToolsRestServices/rest/POLocator/findLocations", "@spider": "usps_collection_boxes", "addr:city": "RIO GRANDE", "addr:country": "US", "addr:postcode": "00745", "addr:state": "PR", "addr:street_address": "HH14 CALLE R", "amenity": "post_box", "collection_times": "Mo-Sa 08:30", "nsi_id": "unitedstatespostalservice-a77078", "operator": "United States Postal Service", "operator:short": "USPS", "operator:type": "public", "operator:wikidata": "Q668687", "ref": "0074500004"}, "type": "Feature"}
{"geometry": {"coordinates": [-65.8308027, 18.380422], "type": "Point"}, "id": "jqELdg5pAjNtHdfq8Do3VvVSsG4=", "properties": {"@source_uri": "https://tools.usps.com/UspsToolsRestServices/rest/POLocator/findLocations", "@spider": "usps_collection_boxes", "addr:city": "RIO GRANDE", "addr:country": "US", "addr:postcode": "00745", "addr:state": "PR", "addr:street_address": "12 CALLE SOLEDAD", "amenity": "post_box", "collection_times": "Mo-Sa 08:30", "nsi_id": "unitedstatespostalservice-a77078", "operator": "United States Postal Service", "operator:short": "USPS", "operator:type": "public", "operator:wikidata": "Q668687", "ref": "0074500005"}, "type": "Feature"}
{"geometry": {"coordinates": [-65.8334231, 18.380113], "type": "Point"}, "id": "ZKy4xofvhz1rfooBBY4ZAAlz6nA=", "properties": {"@source_uri": "https://tools.usps.com/UspsToolsRestServices/rest/POLocator/findLocations", "@spider": "usps_collection_boxes", "addr:city": "RIO GRANDE", "addr:country": "US", "addr:postcode": "00745", "addr:state": "PR", "addr:street_address": "99 CALLE PIMENTEL", "amenity": "post_box", "collection_times": "Mo-Fr 15:00; Sa 08:30", "note": "ON 12/24 AND 12/31, THIS BOX MAY BE COLLECTED AS EARLY AS 12 NOON.", "nsi_id": "unitedstatespostalservice-a77078", "operator": "United States Postal Service", "operator:short": "USPS", "operator:type": "public", "operator:wikidata": "Q668687", "ref": "0074500006"}, "type": "Feature"}
{"geometry": {"coordinates": [-65.8400268, 18.3785], "type": "Point"}, "id": "bbHx616jeoZRtOpK8LQnHjbkeYs=", "properties": {"@source_uri": "https://tools.usps.com/UspsToolsRestServices/rest/POLocator/findLocations", "@spider": "usps_collection_boxes", "addr:city": "RIO GRANDE", "addr:country": "US", "addr:postcode": "00745", "addr:state": "PR", "addr:street_address": "HC 3 BOX 23113", "amenity": "post_box", "collection_times": "Mo-Sa 08:30", "nsi_id": "unitedstatespostalservice-a77078", "operator": "United States Postal Service", "operator:short": "USPS", "operator:type": "public", "operator:wikidata": "Q668687", "ref": "0074500007"}, "type": "Feature"}
{"geometry": {"coordinates": [-65.8335291, 18.380185], "type": "Point"}, "id": "z_jYy-u3vHikB0ECCYrUAC1xQn4=", "properties": {"@source_uri": "https://tools.usps.com/UspsToolsRestServices/rest/POLocator/findLocations", "@spider": "usps_collection_boxes", "addr:city": "RIO GRANDE", "addr:country": "US", "addr:postcode": "00745", "addr:state": "PR", "addr:street_address": "99 CALLE PIMENTEL", "amenity": "post_box", "collection_times": "Mo-Fr 15:00; Sa 08:30", "indoor": "yes", "note": "ON 12/24 AND 12/31, THIS BOX MAY BE COLLECTED AS EARLY AS 12 NOON.", "nsi_id": "unitedstatespostalservice-a77078", "operator": "United States Postal Service", "operator:short": "USPS", "operator:type": "public", "operator:wikidata": "Q668687", "ref": "0074500009"}, "type": "Feature"}
{"geometry": {"coordinates": [-65.830569564, 18.380266859], "type": "Point"}, "id": "d4p_iSe76m2UQeRBNIJGCC14gsI=", "properties": {"@source_uri": "https://tools.usps.com/UspsToolsRestServices/rest/POLocator/findLocations", "@spider": "usps_collection_boxes", "addr:city": "RIO GRANDE", "addr:country": "US", "addr:postcode": "00745", "addr:state": "PR", "addr:street_address": "99 CALLE PIMENTEL", "amenity": "post_box", "collection_times": "Mo-Fr 17:15; Sa 14:15", "indoor": "yes", "note": "ON 12/24 AND 12/31, THIS BOX MAY BE COLLECTED AS EARLY AS 12 NOON.", "nsi_id": "unitedstatespostalservice-a77078", "operator": "United States Postal Service", "operator:short": "USPS", "operator:type": "public", "operator:wikidata": "Q668687", "ref": "0074500010"}, "type": "Feature"}
{"geometry": {"coordinates": [-66.3012879651, 17.97602598], "type": "Point"}, "id": "LaXukm4FCpIhGecRsU0sNPQHRn4=", "properties": {"@source_uri": "https://tools.usps.com/UspsToolsRestServices/rest/POLocator/findLocations", "@spider": "usps_collection_boxes", "addr:city": "SALINAS", "addr:country": "US", "addr:postcode": "00751", "addr:state": "PR", "addr:street_address": "100 CARR PLAYA", "amenity": "post_box", "collection_times": "Mo-Fr 15:00; Sa 08:30", "note": "ON 12/24 AND 12/31, THIS BOX MAY BE COLLECTED AS EARLY AS 12 NOON.", "nsi_id": "unitedstatespostalservice-a77078", "operator": "United States Postal Service", "operator:short": "USPS", "operator:type": "public", "operator:wikidata": "Q668687", "ref": "0075100001"}, "type": "Feature"}
{"geometry": {"coordinates": [-66.2912524, 17.984746], "type": "Point"}, "id": "7TyN1uoeVrgzkOt5qpCPb1YHaGs=", "properties": {"@source_uri": "https://tools.usps.com/UspsToolsRestServices/rest/POLocator/findLocations", "@spider": "usps_collection_boxes", "addr:city": "SALINAS", "addr:country": "US", "addr:postcode": "00751", "addr:state": "PR", "addr:street_address": "700 CARR 1", "amenity": "post_box", "collection_times": "Mo-Sa 08:30", "nsi_id": "unitedstatespostalservice-a77078", "operator": "United States Postal Service", "operator:short": "USPS", "operator:type": "public", "operator:wikidata": "Q668687", "ref": "0075100002"}, "type": "Feature"}
{"geometry": {"coordinates": [-66.2968099, 17.98017], "type": "Point"}, "id": "zh8CFLd-Dc9Lmyzj4S44MzlABlc=", "properties": {"@source_uri": "https://tools.usps.com/UspsToolsRestServices/rest/POLocator/findLocations", "@spider": "usps_collection_boxes", "addr:city": "SALINAS", "addr:country": "US", "addr:postcode": "00751", "addr:state": "PR", "addr:street_address": "500 CALLE MUNOZ RIVERA", "amenity": "post_box", "collection_times": "Mo-Sa 08:30", "nsi_id": "unitedstatespostalservice-a77078", "operator": "United States Postal Service", "operator:short": "USPS", "operator:type": "public", "operator:wikidata": "Q668687", "ref": "0075100003"}, "type": "Feature"}
{"geometry": {"coordinates": [-66.2986939, 17.97637], "type": "Point"}, "id": "aZlyA82jod_lvVu0AnNXSgvhCzI=", "properties": {"@source_uri": "https://tools.usps.com/UspsToolsRestServices/rest/POLocator/findLocations", "@spider": "usps_collection_boxes", "addr:city": "SALINAS", "addr:country": "US", "addr:postcode": "00751", "addr:state": "PR", "addr:street_address": "1 CALLE MUNOZ RIVERA", "amenity": "post_box", "collection_times": "Mo-Sa 08:30", "nsi_id": "unitedstatespostalservice-a77078", "operator": "United States Postal Service", "operator:short": "USPS", "operator:type": "public", "operator:wikidata": "Q668687", "ref": "0075100004"}, "type": "Feature"}
{"geometry": {"coordinates": [-66.3012879651, 17.97602598], "type": "Point"}, "id": "Pk7kO0DLQ9FVMt_UztqrFTBfo9Y=", "properties": {"@source_uri": "https://tools.usps.com/UspsToolsRestServices/rest/POLocator/findLocations", "@spider": "usps_collection_boxes", "addr:city": "SALINAS", "addr:country": "US", "addr:postcode": "00751", "addr:state": "PR", "addr:street_address": "100 CARR PLAYA", "amenity": "post_box", "collection_times": "Mo-Fr 15:00; Sa 08:30", "indoor": "yes", "note": "ON 12/24 AND 12/31, THIS BOX MAY BE COLLECTED AS EARLY AS 12 NOON.", "nsi_id": "unitedstatespostalservice-a77078", "operator": "United States Postal Service", "operator:short": "USPS", "operator:type": "public", "operator:wikidata": "Q668687", "ref": "0075100005"}, "type": "Feature"}
{"geometry": {"coordinates": [-66.3012879651, 17.97602598], "type": "Point"}, "id": "GspBBkKKOH7F6Go__hawEZAKTfU=", "properties": {"@source_uri": "https://tools.usps.com/UspsToolsRestServices/rest/POLocator/findLocations", "@spider": "usps_collection_boxes", "addr:city": "SALINAS", "addr:country": "US", "addr:postcode": "00751", "addr:state": "PR", "addr:street_address": "100 CARR PLAYA", "amenity": "post_box", "collection_times": "Mo-Fr 16:45; Sa 12:15", "indoor": "yes", "note": "ON 12/24 AND 12/31, THIS BOX MAY BE COLLECTED AS EARLY AS 12 NOON.", "nsi_id": "unitedstatespostalservice-a77078", "operator": "United States Postal Service", "operator:short": "USPS", "operator:type": "public", "operator:wikidata": "Q668687", "ref": "0075100006"}, "type": "Feature"}
{"geometry": {"coordinates": [-65.9614523, 18.188998], "type": "Point"}, "id": "_92cQwvlJosoHtaSwlMyFi4m9QM=", "properties": {"@source_uri": "https://tools.usps.com/UspsToolsRestServices/rest/POLocator/findLocations", "@spider": "usps_collection_boxes", "addr:city": "SAN LORENZO", "addr:country": "US", "addr:postcode": "00754", "addr:state": "PR", "addr:street_address": "51 CALLE MUNOZ RIVERA S", "amenity": "post_box", "collection_times": "Mo-Sa 10:00", "nsi_id": "unitedstatespostalservice-a77078", "operator": "United States Postal Service", "operator:short": "USPS", "operator:type": "public", "operator:wikidata": "Q668687", "ref": "0075400001"}, "type": "Feature"}
{"geometry": {"coordinates": [-65.9625999, 18.186295], "type": "Point"}, "id": "HiDuHpZXlslKgtlYc08QwnWS4tQ=", "properties": {"@source_uri": "https://tools.usps.com/UspsToolsRestServices/rest/POLocator/findLocations", "@spider": "usps_collection_boxes", "addr:city": "SAN LORENZO", "addr:country": "US", "addr:postcode": "00754", "addr:state": "PR", "addr:street_address": "176 CALLE MUNOZ RIVERA S", "amenity": "post_box", "collection_times": "Mo-Sa 11:00", "nsi_id": "unitedstatespostalservice-a77078", "operator": "United States Postal Service", "operator:short": "USPS", "operator:type": "public", "operator:wikidata": "Q668687", "ref": "0075400003"}, "type": "Feature"}
{"geometry": {"coordinates": [-65.9607031, 18.189245], "type": "Point"}, "id": "VSGAlKr4sQtcd40RLfyn-1y_Jnk=", "properties": {"@source_uri": "https://tools.usps.com/UspsToolsRestServices/rest/POLocator/findLocations", "@spider": "usps_collection_boxes", "addr:city": "SAN LORENZO", "addr:country": "US", "addr:postcode": "00754", "addr:state": "PR", "addr:street_address": "8 CALLE DE DIEGO E", "amenity": "post_box", "collection_times": "Mo-Sa 11:30", "nsi_id": "unitedstatespostalservice-a77078", "operator": "United States Postal Service", "operator:short": "USPS", "operator:type": "public", "operator:wikidata": "Q668687", "ref": "0075400005"}, "type": "Feature"}
{"geometry": {"coordinates": [-65.9646499, 18.191188], "type": "Point"}, "id": "X7JDs3Yw7LXTsRCrdNg6hb2aT5o=", "properties": {"@source_uri": "https://tools.usps.com/UspsToolsRestServices/rest/POLocator/findLocations", "@spider": "usps_collection_boxes", "addr:city": "SAN LORENZO", "addr:country": "US", "addr:postcode": "00754", "addr:state": "PR", "addr:street_address": "123 CALLE DE DIEGO", "amenity": "post_box", "collection_times": "Mo-Fr 15:00; Sa 08:30", "note": "ON 12/24 AND 12/31, THIS BOX MAY BE COLLECTED AS EARLY AS 12 NOON.", "nsi_id": "unitedstatespostalservice-a77078", "operator": "United States Postal Service", "operator:short": "USPS", "operator:type": "public", "operator:wikidata": "Q668687", "ref": "0075400009"}, "type": "Feature"}
{"geometry": {"coordinates": [-65.9648093, 18.191022], "type": "Point"}, "id": "zI2CRi52nqHhz-TBbERcwsUtTbA=", "properties": {"@source_uri": "https://tools.usps.com/UspsToolsRestServices/rest/POLocator/findLocations", "@spider": "usps_collection_boxes", "addr:city": "SAN LORENZO", "addr:country": "US", "addr:postcode": "00754", "addr:state": "PR", "addr:street_address": "123 CALLE DE DIEGO", "amenity": "post_box", "collection_times": "Mo-Fr 15:00; Sa 08:30", "indoor": "yes", "note": "ON 12/24 AND 12/31, THIS BOX MAY BE COLLECTED AS EARLY AS 12 NOON.", "nsi_id": "unitedstatespostalservice-a77078", "operator": "United States Postal Service", "operator:short": "USPS", "operator:type": "public", "operator:wikidata": "Q668687", "ref": "0075400010"}, "type": "Feature"}
{"geometry": {"coordinates": [-65.962495952, 18.19034877], "type": "Point"}, "id": "sXAyWSouRSfLKp16q7aFnzy8jok=", "properties": {"@source_uri": "https://tools.usps.com/UspsToolsRestServices/rest/POLocator/findLocations", "@spider": "usps_collection_boxes", "addr:city": "SAN LORENZO", "addr:country": "US", "addr:postcode": "00754", "addr:state": "PR", "addr:street_address": "123 CALLE DE DIEGO", "amenity": "post_box", "collection_times": "Mo-Fr 16:45; Sa 12:15", "indoor": "yes", "note": "ON 12/24 AND 12/31, THIS BOX MAY BE COLLECTED AS EARLY AS 12 NOON.", "nsi_id": "unitedstatespostalservice-a77078", "operator": "United States Postal Service", "operator:short": "USPS", "operator:type": "public", "operator:wikidata": "Q668687", "ref": "0075400011"}, "type": "Feature"}
{"geometry": {"coordinates": [-66.4038722, 17.965059], "type": "Point"}, "id": "5kguVZ2SotsHGOkeI7IjwRLY1Yk=", "properties": {"@source_uri": "https://tools.usps.com/UspsToolsRestServices/rest/POLocator/findLocations", "@spider": "usps_collection_boxes", "addr:city": "SANTA ISABEL", "addr:country": "US", "addr:postcode": "00757", "addr:state": "PR", "addr:street_address": "36 CALLE LUIS MUNOZ RIVERA STE 1", "amenity": "post_box", "collection_times": "Mo-Fr 15:00; Sa 09:00", "note": "ON 12/24 AND 12/31, THIS BOX MAY BE COLLECTED AS EARLY AS 12 NOON.", "nsi_id": "unitedstatespostalservice-a77078", "operator": "United States Postal Service", "operator:short": "USPS", "operator:type": "public", "operator:wikidata": "Q668687", "ref": "0075700001"}, "type": "Feature"}
{"geometry": {"coordinates": [-66.4093049, 17.969536], "type": "Point"}, "id": "klp5EGouiLk1lt9ve94r62mRw08=", "properties": {"@source_uri": "https://tools.usps.com/UspsToolsRestServices/rest/POLocator/findLocations", "@spider": "usps_collection_boxes", "addr:city": "SANTA ISABEL", "addr:country": "US", "addr:postcode": "00757", "addr:state": "PR", "addr:street_address": "200 AVE MONSENOR SEVERO FERRER", "amenity": "post_box", "collection_times": "Mo-Sa 08:30", "nsi_id": "unitedstatespostalservice-a77078", "operator": "United States Postal Service", "operator:short": "USPS", "operator:type": "public", "operator:wikidata": "Q668687", "ref": "0075700002"}, "type": "Feature"}
{"geometry": {"coordinates": [-66.438916853, 17.984593737], "type": "Point"}, "id": "C1cacGyoRrPmxpy83XjDqdba5Pw=", "properties": {"@source_uri": "https://tools.usps.com/UspsToolsRestServices/rest/POLocator/findLocations", "@spider": "usps_collection_boxes", "addr:city": "SANTA ISABEL", "addr:country": "US", "addr:postcode": "00757", "addr:state": "PR", "addr:street_address": "36 CALLE LUIS MUNOZ RIVERA STE 1", "amenity": "post_box", "collection_times": "Mo-Fr 15:00; Sa 09:00", "indoor": "yes", "note": "ON 12/24 AND 12/31, THIS BOX MAY BE COLLECTED AS EARLY AS 12 NOON.", "nsi_id": "unitedstatespostalservice-a77078", "operator": "United States Postal Service", "operator:short": "USPS", "operator:type": "public", "operator:wikidata": "Q668687", "ref": "0075700003"}, "type": "Feature"}
{"geometry": {"coordinates": [-66.404823146, 17.964965854], "type": "Point"}, "id": "4WSfgfrRlOJs3lLr5pmemznRagY=", "properties": {"@source_uri": "https://tools.usps.com/UspsToolsRestServices/rest/POLocator/findLocations", "@spider": "usps_collection_boxes", "addr:city": "SANTA ISABEL", "addr:country": "US", "addr:postcode": "00757", "addr:state": "PR", "addr:street_address": "36 CALLE LUIS MUNOZ RIVERA STE 1", "amenity": "post_box", "collection_times": "Mo-Fr 16:45; Sa 12:15", "indoor": "yes", "note": "ON 12/24 AND 12/31, THIS BOX MAY BE COLLECTED AS EARLY AS 12 NOON.", "nsi_id": "unitedstatespostalservice-a77078", "operator": "United States Postal Service", "operator:short": "USPS", "operator:type": "public", "operator:wikidata": "Q668687", "ref": "0075700004"}, "type": "Feature"}
{"geometry": {"coordinates": [-65.4413377232, 18.1467768233], "type": "Point"}, "id": "eBa53cr2iTGyV3xAQrXCiSfZ4s4=", "properties": {"@source_uri": "https://tools.usps.com/UspsToolsRestServices/rest/POLocator/findLocations", "@spider": "usps_collection_boxes", "addr:city": "VIEQUES", "addr:country": "US", "addr:postcode": "00765", "addr:state": "PR", "addr:street_address": "300 CALLE ANTONIO G. MELLADO STE 1", "amenity": "post_box", "collection_times": "Mo-Fr 15:00; Sa 08:00", "note": "ON 12/24 AND 12/31, THIS BOX MAY BE COLLECTED AS EARLY AS 12 NOON.", "nsi_id": "unitedstatespostalservice-a77078", "operator": "United States Postal Service", "operator:short": "USPS", "operator:type": "public", "operator:wikidata": "Q668687", "ref": "0076500001"}, "type": "Feature"}
{"geometry": {"coordinates": [-65.4413377232, 18.1467768233], "type": "Point"}, "id": "7KNGLn4Y0t7p8XSdzNDk9YGuXHo=", "properties": {"@source_uri": "https://tools.usps.com/UspsToolsRestServices/rest/POLocator/findLocations", "@spider": "usps_collection_boxes", "addr:city": "VIEQUES", "addr:country": "US", "addr:postcode": "00765", "addr:state": "PR", "addr:street_address": "300 CALLE ANTONIO G. MELLADO STE 1", "amenity": "post_box", "collection_times": "Mo-Fr 15:00; Sa 08:00", "indoor": "yes", "note": "ON 12/24 AND 12/31, THIS BOX MAY BE COLLECTED AS EARLY AS 12 NOON.", "nsi_id": "unitedstatespostalservice-a77078", "operator": "United States Postal Service", "operator:short": "USPS", "operator:type": "public", "operator:wikidata": "Q668687", "ref": "0076500002"}, "type": "Feature"}
{"geometry": {"coordinates": [-65.4413377232, 18.1467768233], "type": "Point"}, "id": "XX7Z1BEcdLSc4hBV-ZBhthOQiEk=", "properties": {"@source_uri": "https://tools.usps.com/UspsToolsRestServices/rest/POLocator/findLocations", "@spider": "usps_collection_boxes", "addr:city": "VIEQUES", "addr:country": "US", "addr:postcode": "00765", "addr:state": "PR", "addr:street_address": "300 CALLE ANTONIO G. MELLADO STE 1", "amenity": "post_box", "collection_times": "Mo-Fr 16:45; Sa 12:15", "indoor": "yes", "note": "ON 12/24 AND 12/31, THIS BOX MAY BE COLLECTED AS EARLY AS 12 NOON.", "nsi_id": "unitedstatespostalservice-a77078", "operator": "United States Postal Service", "operator:short": "USPS", "operator:type": "public", "operator:wikidata": "Q668687", "ref": "0076500003"}, "type": "Feature"}
{"geometry": {"coordinates": [-66.5043059, 18.117023], "type": "Point"}, "id": "4zV6c4HbsxWCJTweHrXmfL6GX9w=", "properties": {"@source_uri": "https://tools.usps.com/UspsToolsRestServices/rest/POLocator/findLocations", "@spider": "usps_collection_boxes", "addr:city": "VILLALBA", "addr:country": "US", "addr:postcode": "00766", "addr:state": "PR", "addr:street_address": "A54 CALLE 1", "amenity": "post_box", "collection_times": "Mo-Sa 11:30", "nsi_id": "unitedstatespostalservice-a77078", "operator": "United States Postal Service", "operator:short": "USPS", "operator:type": "public", "operator:wikidata": "Q668687", "ref": "0076600001"}, "type": "Feature"}
{"geometry": {"coordinates": [-66.4887694, 18.128401], "type": "Point"}, "id": "3raCwEeAANf_kfVq4p_4c26QZ4I=", "properties": {"@source_uri": "https://tools.usps.com/UspsToolsRestServices/rest/POLocator/findLocations", "@spider": "usps_collection_boxes", "addr:city": "VILLALBA", "addr:country": "US", "addr:postcode": "00766", "addr:state": "PR", "addr:street_address": "303 CALLE PRINCIPAL", "amenity": "post_box", "collection_times": "Mo-Sa 10:00", "nsi_id": "unitedstatespostalservice-a77078", "operator": "United States Postal Service", "operator:short": "USPS", "operator:type": "public", "operator:wikidata": "Q668687", "ref": "0076600002"}, "type": "Feature"}
{"geometry": {"coordinates": [-66.5018463, 18.123326], "type": "Point"}, "id": "yncJIFlo8sABf2UejqjlZVmo10M=", "properties": {"@source_uri": "https://tools.usps.com/UspsToolsRestServices/rest/POLocator/findLocations", "@spider": "usps_collection_boxes", "addr:city": "VILLALBA", "addr:country": "US", "addr:postcode": "00766", "addr:state": "PR", "addr:street_address": "500 BO TIERRA SANTA", "amenity": "post_box", "collection_times": "Mo-Sa 11:30", "nsi_id": "unitedstatespostalservice-a77078", "operator": "United States Postal Service", "operator:short": "USPS", "operator:type": "public", "operator:wikidata": "Q668687", "ref": "0076600005"}, "type": "Feature"}
{"geometry": {"coordinates": [-66.4926357, 18.126825], "type": "Point"}, "id": "oZxqTUy46eEI-3MvER-G_Z_zUfI=", "properties": {"@source_uri": "https://tools.usps.com/UspsToolsRestServices/rest/POLocator/findLocations", "@spider": "usps_collection_boxes", "addr:city": "VILLALBA", "addr:country": "US", "addr:postcode": "00766", "addr:state": "PR", "addr:street_address": "25 CALLE MUNOZ RIVERA", "amenity": "post_box", "collection_times": "Mo-Fr 15:00; Sa 08:00", "note": "ON 12/24 AND 12/31, THIS BOX MAY BE COLLECTED AS EARLY AS 12 NOON.", "nsi_id": "unitedstatespostalservice-a77078", "operator": "United States Postal Service", "operator:short": "USPS", "operator:type": "public", "operator:wikidata": "Q668687", "ref": "0076600007"}, "type": "Feature"}
{"geometry": {"coordinates": [-66.492647, 18.130165], "type": "Point"}, "id": "tDsBa8Lm_rq49Lk6WST0kPttKD8=", "properties": {"@source_uri": "https://tools.usps.com/UspsToolsRestServices/rest/POLocator/findLocations", "@spider": "usps_collection_boxes", "addr:city": "VILLALBA", "addr:country": "US", "addr:postcode": "00766", "addr:state": "PR", "addr:street_address": "25 CALLE MUNOZ RIVERA", "amenity": "post_box", "collection_times": "Mo-Fr 15:00; Sa 08:00", "indoor": "yes", "note": "ON 12/24 AND 12/31, THIS BOX MAY BE COLLECTED AS EARLY AS 12 NOON.", "nsi_id": "unitedstatespostalservice-a77078", "operator": "United States Postal Service", "operator:short": "USPS", "operator:type": "public", "operator:wikidata": "Q668687", "ref": "0076600008"}, "type": "Feature"}
{"geometry": {"coordinates": [-66.492667958, 18.13013742], "type": "Point"}, "id": "d3zJh8zmTIGYubvpZqq5tMhObkE=", "properties": {"@source_uri": "https://tools.usps.com/UspsToolsRestServices/rest/POLocator/findLocations", "@spider": "usps_collection_boxes", "addr:city": "VILLALBA", "addr:country": "US", "addr:postcode": "00766", "addr:state": "PR", "addr:street_address": "25 CALLE MUNOZ RIVERA", "amenity": "post_box", "collection_times": "Mo-Fr 16:15; Sa 12:15", "indoor": "yes", "note": "ON 12/24 AND 12/31, THIS BOX MAY BE COLLECTED AS EARLY AS 12 NOON.", "nsi_id": "unitedstatespostalservice-a77078", "operator": "United States Postal Service", "operator:short": "USPS", "operator:type": "public", "operator:wikidata": "Q668687", "ref": "0076600009"}, "type": "Feature"}
{"geometry": {"coordinates": [-65.8671728, 18.044613], "type": "Point"}, "id": "h7lUwxWk2dMjV9k98TXvuaf1UUM=", "properties": {"@source_uri": "https://tools.usps.com/UspsToolsRestServices/rest/POLocator/findLocations", "@spider": "usps_collection_boxes", "addr:city": "YABUCOA", "addr:country": "US", "addr:postcode": "00767", "addr:state": "PR", "addr:street_address": "350 CARR ERNESTO CARRASQUILLO", "amenity": "post_box", "collection_times": "Mo-Sa 09:30", "nsi_id": "unitedstatespostalservice-a77078", "operator": "United States Postal Service", "operator:short": "USPS", "operator:type": "public", "operator:wikidata": "Q668687", "ref": "0076700002"}, "type": "Feature"}
{"geometry": {"coordinates": [-65.8820209, 18.048918], "type": "Point"}, "id": "H20-NZrWtaHQQxxNGhC-9L8TWn4=", "properties": {"@source_uri": "https://tools.usps.com/UspsToolsRestServices/rest/POLocator/findLocations", "@spider": "usps_collection_boxes", "addr:city": "YABUCOA", "addr:country": "US", "addr:postcode": "00767", "addr:state": "PR", "addr:street_address": "4 CALLE CATALINA MORALES", "amenity": "post_box", "collection_times": "Mo-Sa 11:00", "nsi_id": "unitedstatespostalservice-a77078", "operator": "United States Postal Service", "operator:short": "USPS", "operator:type": "public", "operator:wikidata": "Q668687", "ref": "0076700003"}, "type": "Feature"}
{"geometry": {"coordinates": [-65.8788872, 18.050733], "type": "Point"}, "id": "zttjhgnJe8R5p2_784UpYHXp-E4=", "properties": {"@source_uri": "https://tools.usps.com/UspsToolsRestServices/rest/POLocator/findLocations", "@spider": "usps_collection_boxes", "addr:city": "YABUCOA", "addr:country": "US", "addr:postcode": "00767", "addr:state": "PR", "addr:street_address": "1 CALLE DEGETAU", "amenity": "post_box", "collection_times": "Mo-Sa 09:30", "nsi_id": "unitedstatespostalservice-a77078", "operator": "United States Postal Service", "operator:short": "USPS", "operator:type": "public", "operator:wikidata": "Q668687", "ref": "0076700004"}, "type": "Feature"}
{"geometry": {"coordinates": [-65.8796386, 18.046909], "type": "Point"}, "id": "YCex2E3ajcnXcb6xd_lwt55GY6A=", "properties": {"@source_uri": "https://tools.usps.com/UspsToolsRestServices/rest/POLocator/findLocations", "@spider": "usps_collection_boxes", "addr:city": "YABUCOA", "addr:country": "US", "addr:postcode": "00767", "addr:state": "PR", "addr:street_address": "100 CALLE CATALINA MORALES", "amenity": "post_box", "collection_times": "Mo-Fr 15:00; Sa 08:30", "note": "ON 12/24 AND 12/31, THIS BOX MAY BE COLLECTED AS EARLY AS 12 NOON.", "nsi_id": "unitedstatespostalservice-a77078", "operator": "United States Postal Service", "operator:short": "USPS", "operator:type": "public", "operator:wikidata": "Q668687", "ref": "0076700005"}, "type": "Feature"}
{"geometry": {"coordinates": [-65.8797647, 18.046677], "type": "Point"}, "id": "etpvTKq8_t5pdnXOX0puga4Ji34=", "properties": {"@source_uri": "https://tools.usps.com/UspsToolsRestServices/rest/POLocator/findLocations", "@spider": "usps_collection_boxes", "addr:city": "YABUCOA", "addr:country": "US", "addr:postcode": "00767", "addr:state": "PR", "addr:street_address": "100 CALLE CATALINA MORALES", "amenity": "post_box", "collection_times": "Mo-Fr 15:00; Sa 08:30", "indoor": "yes", "note": "ON 12/24 AND 12/31, THIS BOX MAY BE COLLECTED AS EARLY AS 12 NOON.", "nsi_id": "unitedstatespostalservice-a77078", "operator": "United States Postal Service", "operator:short": "USPS", "operator:type": "public", "operator:wikidata": "Q668687", "ref": "0076700006"}, "type": "Feature"}
{"geometry": {"coordinates": [-65.879644855, 18.046956155], "type": "Point"}, "id": "9pyAoiTvPDju5CaCS8dnSB3kv6s=", "properties": {"@source_uri": "https://tools.usps.com/UspsToolsRestServices/rest/POLocator/findLocations", "@spider": "usps_collection_boxes", "addr:city": "YABUCOA", "addr:country": "US", "addr:postcode": "00767", "addr:state": "PR", "addr:street_address": "100 CALLE CATALINA MORALES", "amenity": "post_box", "collection_times": "Mo-Fr 16:45; Sa 12:15", "indoor": "yes", "note": "ON 12/24 AND 12/31, THIS BOX MAY BE COLLECTED AS EARLY AS 12 NOON.", "nsi_id": "unitedstatespostalservice-a77078", "operator": "United States Postal Service", "operator:short": "USPS", "operator:type": "public", "operator:wikidata": "Q668687", "ref": "0076700007"}, "type": "Feature"}
{"geometry": {"coordinates": [-66.3619941, 18.07604], "type": "Point"}, "id": "5fq2xSr-nZugu0oZEio_-HO75DM=", "properties": {"@source_uri": "https://tools.usps.com/UspsToolsRestServices/rest/POLocator/findLocations", "@spider": "usps_collection_boxes", "addr:city": "COAMO", "addr:country": "US", "addr:postcode": "00769", "addr:state": "PR", "addr:street_address": "137 CALLE JOSE I QUINTON", "amenity": "post_box", "collection_times": "Mo-Sa 08:30", "nsi_id": "unitedstatespostalservice-a77078", "operator": "United States Postal Service", "operator:short": "USPS", "operator:type": "public", "operator:wikidata": "Q668687", "ref": "0076900002"}, "type": "Feature"}
{"geometry": {"coordinates": [-66.3610738, 18.080806], "type": "Point"}, "id": "zkW4-u9jn5V1ZD9R_m8qEIVlJsA=", "properties": {"@source_uri": "https://tools.usps.com/UspsToolsRestServices/rest/POLocator/findLocations", "@spider": "usps_collection_boxes", "addr:city": "COAMO", "addr:country": "US", "addr:postcode": "00769", "addr:state": "PR", "addr:street_address": "54 CALLE BALDORIOTY", "amenity": "post_box", "collection_times": "Mo-Sa 08:30", "nsi_id": "unitedstatespostalservice-a77078", "operator": "United States Postal Service", "operator:short": "USPS", "operator:type": "public", "operator:wikidata": "Q668687", "ref": "0076900003"}, "type": "Feature"}
{"geometry": {"coordinates": [-66.3577895, 18.080821], "type": "Point"}, "id": "kYeCl-Ts0ualjfq2ZdQWLnLpc3M=", "properties": {"@source_uri": "https://tools.usps.com/UspsToolsRestServices/rest/POLocator/findLocations", "@spider": "usps_collection_boxes", "addr:city": "COAMO", "addr:country": "US", "addr:postcode": "00769", "addr:state": "PR", "addr:street_address": "3 CALLE MARIO BRASCHI", "amenity": "post_box", "collection_times": "Mo-Sa 08:30", "nsi_id": "unitedstatespostalservice-a77078", "operator": "United States Postal Service", "operator:short": "USPS", "operator:type": "public", "operator:wikidata": "Q668687", "ref": "0076900004"}, "type": "Feature"}
{"geometry": {"coordinates": [-66.3557586, 18.079309], "type": "Point"}, "id": "ZyXvArrUztw2PqXnb4Vp-gyX6_4=", "properties": {"@source_uri": "https://tools.usps.com/UspsToolsRestServices/rest/POLocator/findLocations", "@spider": "usps_collection_boxes", "addr:city": "COAMO", "addr:country": "US", "addr:postcode": "00769", "addr:state": "PR", "addr:street_address": "12 CALLE RUIZ BELVIS S", "amenity": "post_box", "collection_times": "Mo-Sa 08:30", "nsi_id": "unitedstatespostalservice-a77078", "operator": "United States Postal Service", "operator:short": "USPS", "operator:type": "public", "operator:wikidata": "Q668687", "ref": "0076900008"}, "type": "Feature"}
{"geometry": {"coordinates": [-66.3626189, 18.073364], "type": "Point"}, "id": "cJxbvGJrVJxpWti-67SjU9Rugk4=", "properties": {"@source_uri": "https://tools.usps.com/UspsToolsRestServices/rest/POLocator/findLocations", "@spider": "usps_collection_boxes", "addr:city": "COAMO", "addr:country": "US", "addr:postcode": "00769", "addr:state": "PR", "addr:street_address": "100 CALLE A", "amenity": "post_box", "collection_times": "Mo-Fr 15:00; Sa 08:30", "note": "ON 12/24 AND 12/31, THIS BOX MAY BE COLLECTED AS EARLY AS 12 NOON.", "nsi_id": "unitedstatespostalservice-a77078", "operator": "United States Postal Service", "operator:short": "USPS", "operator:type": "public", "operator:wikidata": "Q668687", "ref": "0076900010"}, "type": "Feature"}
{"geometry": {"coordinates": [-66.3624485, 18.073183], "type": "Point"}, "id": "jtnUwjC08mt6MEyGopZOvBiTxlk=", "properties": {"@source_uri": "https://tools.usps.com/UspsToolsRestServices/rest/POLocator/findLocations", "@spider": "usps_collection_boxes", "addr:city": "COAMO", "addr:country": "US", "addr:postcode": "00769", "addr:state": "PR", "addr:street_address": "100 CALLE A", "amenity": "post_box", "collection_times": "Mo-Fr 15:00; Sa 08:30", "indoor": "yes", "note": "ON 12/24 AND 12/31, THIS BOX MAY BE COLLECTED AS EARLY AS 12 NOON.", "nsi_id": "unitedstatespostalservice-a77078", "operator": "United States Postal Service", "operator:short": "USPS", "operator:type": "public", "operator:wikidata": "Q668687", "ref": "0076900011"}, "type": "Feature"}
{"geometry": {"coordinates": [-66.362308628, 18.073417591], "type": "Point"}, "id": "1G-a2wjvQcov0dMBdvMZdxrYAEM=", "properties": {"@source_uri": "https://tools.usps.com/UspsToolsRestServices/rest/POLocator/findLocations", "@spider": "usps_collection_boxes", "addr:city": "COAMO", "addr:country": "US", "addr:postcode": "00769", "addr:state": "PR", "addr:street_address": "100 CALLE A", "amenity": "post_box", "collection_times": "Mo-Fr 16:45; Sa 12:15", "indoor": "yes", "note": "ON 12/24 AND 12/31, THIS BOX MAY BE COLLECTED AS EARLY AS 12 NOON.", "nsi_id": "unitedstatespostalservice-a77078", "operator": "United States Postal Service", "operator:short": "USPS", "operator:type": "public", "operator:wikidata": "Q668687", "ref": "0076900012"}, "type": "Feature"}
{"geometry": {"coordinates": [-65.8729318, 18.1851], "type": "Point"}, "id": "ISC16yEbQNwjr9ytcNLLtyEwG4Y=", "properties": {"@source_uri": "https://tools.usps.com/UspsToolsRestServices/rest/POLocator/findLocations", "@spider": "usps_collection_boxes", "addr:city": "LAS PIEDRAS", "addr:country": "US", "addr:postcode": "00771", "addr:state": "PR", "addr:street_address": "211 CALLE BARBOSA", "amenity": "post_box", "collection_times": "Mo-Sa 09:30", "nsi_id": "unitedstatespostalservice-a77078", "operator": "United States Postal Service", "operator:short": "USPS", "operator:type": "public", "operator:wikidata": "Q668687", "ref": "0077100004"}, "type": "Feature"}
{"geometry": {"coordinates": [-65.8719026, 18.179612], "type": "Point"}, "id": "7qx4w3PRtO6DgF_2RdzV6-yRut0=", "properties": {"@source_uri": "https://tools.usps.com/UspsToolsRestServices/rest/POLocator/findLocations", "@spider": "usps_collection_boxes", "addr:city": "LAS PIEDRAS", "addr:country": "US", "addr:postcode": "00771", "addr:state": "PR", "addr:street_address": "77 CALLE JT PINERO", "amenity": "post_box", "collection_times": "Mo-Fr 15:00; Sa 08:15", "note": "ON 12/24 AND 12/31, THIS BOX MAY BE COLLECTED AS EARLY AS 12 NOON.", "nsi_id": "unitedstatespostalservice-a77078", "operator": "United States Postal Service", "operator:short": "USPS", "operator:type": "public", "operator:wikidata": "Q668687", "ref": "0077100006"}, "type": "Feature"}
{"geometry": {"coordinates": [-65.8718515, 18.179698], "type": "Point"}, "id": "HevX77RA8MGOpYdNFkrzWh6niLg=", "properties": {"@source_uri": "https://tools.usps.com/UspsToolsRestServices/rest/POLocator/findLocations", "@spider": "usps_collection_boxes", "addr:city": "LAS PIEDRAS", "addr:country": "US", "addr:postcode": "00771", "addr:state": "PR", "addr:street_address": "77 CALLE JT PINERO", "amenity": "post_box", "collection_times": "Mo-Fr 15:00; Sa 08:15", "indoor": "yes", "note": "ON 12/24 AND 12/31, THIS BOX MAY BE COLLECTED AS EARLY AS 12 NOON.", "nsi_id": "unitedstatespostalservice-a77078", "operator": "United States Postal Service", "operator:short": "USPS", "operator:type": "public", "operator:wikidata": "Q668687", "ref": "0077100007"}, "type": "Feature"}
{"geometry": {"coordinates": [-65.872478525, 18.179933793], "type": "Point"}, "id": "kaRiou8qrpSOFl3KQe0qIq0yBPg=", "properties": {"@source_uri": "https://tools.usps.com/UspsToolsRestServices/rest/POLocator/findLocations", "@spider": "usps_collection_boxes", "addr:city": "LAS PIEDRAS", "addr:country": "US", "addr:postcode": "00771", "addr:state": "PR", "addr:street_address": "77 CALLE JT PINERO", "amenity": "post_box", "collection_times": "Mo-Fr 16:45; Sa 12:15", "indoor": "yes", "note": "ON 12/24 AND 12/31, THIS BOX MAY BE COLLECTED AS EARLY AS 12 NOON.", "nsi_id": "unitedstatespostalservice-a77078", "operator": "United States Postal Service", "operator:short": "USPS", "operator:type": "public", "operator:wikidata": "Q668687", "ref": "0077100008"}, "type": "Feature"}
{"geometry": {"coordinates": [-65.8803922, 18.430848], "type": "Point"}, "id": "hZaK4xcsndPZcPIMUliv6-C3yq8=", "properties": {"@source_uri": "https://tools.usps.com/UspsToolsRestServices/rest/POLocator/findLocations", "@spider": "usps_collection_boxes", "addr:city": "LOIZA", "addr:country": "US", "addr:postcode": "00772", "addr:state": "PR", "addr:street_address": "64 CALLE SAN PATRICIO", "amenity": "post_box", "collection_times": "Mo-Fr 15:00; Sa 08:15", "note": "ON 12/24 AND 12/31, THIS BOX MAY BE COLLECTED AS EARLY AS 12 NOON.", "nsi_id": "unitedstatespostalservice-a77078", "operator": "United States Postal Service", "operator:short": "USPS", "operator:type": "public", "operator:wikidata": "Q668687", "ref": "0077200001"}, "type": "Feature"}
{"geometry": {"coordinates": [-65.8804574, 18.430804], "type": "Point"}, "id": "l2cHVCXtU_ZQP2S6Nrdm2nP3fvA=", "properties": {"@source_uri": "https://tools.usps.com/UspsToolsRestServices/rest/POLocator/findLocations", "@spider": "usps_collection_boxes", "addr:city": "LOIZA", "addr:country": "US", "addr:postcode": "00772", "addr:state": "PR", "addr:street_address": "64 CALLE SAN PATRICIO", "amenity": "post_box", "collection_times": "Mo-Fr 15:00; Sa 08:15", "indoor": "yes", "note": "ON 12/24 AND 12/31, THIS BOX MAY BE COLLECTED AS EARLY AS 12 NOON.", "nsi_id": "unitedstatespostalservice-a77078", "operator": "United States Postal Service", "operator:short": "USPS", "operator:type": "public", "operator:wikidata": "Q668687", "ref": "0077200002"}, "type": "Feature"}
{"geometry": {"coordinates": [-65.880025767, 18.431858069], "type": "Point"}, "id": "Wpqbgr0nd8zxmgCC2yIUWojjFaE=", "properties": {"@source_uri": "https://tools.usps.com/UspsToolsRestServices/rest/POLocator/findLocations", "@spider": "usps_collection_boxes", "addr:city": "LOIZA", "addr:country": "US", "addr:postcode": "00772", "addr:state": "PR", "addr:street_address": "64 CALLE SAN PATRICIO", "amenity": "post_box", "collection_times": "Mo-Fr 16:15; Sa 12:15", "indoor": "yes", "note": "ON 12/24 AND 12/31, THIS BOX MAY BE COLLECTED AS EARLY AS 12 NOON.", "nsi_id": "unitedstatespostalservice-a77078", "operator": "United States Postal Service", "operator:short": "USPS", "operator:type": "public", "operator:wikidata": "Q668687", "ref": "0077200003"}, "type": "Feature"}
{"geometry": {"coordinates": [-65.7167945, 18.374992], "type": "Point"}, "id": "m299CPHGaXXKCNOGjuBBwZEuZXY=", "properties": {"@source_uri": "https://tools.usps.com/UspsToolsRestServices/rest/POLocator/findLocations", "@spider": "usps_collection_boxes", "addr:city": "LUQUILLO", "addr:country": "US", "addr:postcode": "00773", "addr:state": "PR", "addr:street_address": "160 CALLE QUINTO CENTENARIO", "amenity": "post_box", "collection_times": "Mo-Fr 15:00; Sa 08:00", "note": "ON 12/24 AND 12/31, THIS BOX MAY BE COLLECTED AS EARLY AS 12 NOON.", "nsi_id": "unitedstatespostalservice-a77078", "operator": "United States Postal Service", "operator:short": "USPS", "operator:type": "public", "operator:wikidata": "Q668687", "ref": "0077300001"}, "type": "Feature"}
{"geometry": {"coordinates": [-65.7204282, 18.379769], "type": "Point"}, "id": "VseyQdK0L9Ha7XfT3NCGvvLmPdk=", "properties": {"@source_uri": "https://tools.usps.com/UspsToolsRestServices/rest/POLocator/findLocations", "@spider": "usps_collection_boxes", "addr:city": "LUQUILLO", "addr:country": "US", "addr:postcode": "00773", "addr:state": "PR", "addr:street_address": "31 CARR 193", "amenity": "post_box", "collection_times": "Mo-Sa 08:00", "nsi_id": "unitedstatespostalservice-a77078", "operator": "United States Postal Service", "operator:short": "USPS", "operator:type": "public", "operator:wikidata": "Q668687", "ref": "0077300004"}, "type": "Feature"}
{"geometry": {"coordinates": [-65.7168574, 18.375075], "type": "Point"}, "id": "Yyf9TR_cm_Uc_xkYI9iZdDXn44E=", "properties": {"@source_uri": "https://tools.usps.com/UspsToolsRestServices/rest/POLocator/findLocations", "@spider": "usps_collection_boxes", "addr:city": "LUQUILLO", "addr:country": "US", "addr:postcode": "00773", "addr:state": "PR", "addr:street_address": "160 CALLE QUINTO CENTENARIO", "amenity": "post_box", "collection_times": "Mo-Fr 15:00; Sa 08:00", "indoor": "yes", "note": "ON 12/24 AND 12/31, THIS BOX MAY BE COLLECTED AS EARLY AS 12 NOON.", "nsi_id": "unitedstatespostalservice-a77078", "operator": "United States Postal Service", "operator:short": "USPS", "operator:type": "public", "operator:wikidata": "Q668687", "ref": "0077300010"}, "type": "Feature"}
{"geometry": {"coordinates": [-65.7216482, 18.3726667], "type": "Point"}, "id": "AxNo5GFpgszIft-kR1qIxGgXiFg=", "properties": {"@source_uri": "https://tools.usps.com/UspsToolsRestServices/rest/POLocator/findLocations", "@spider": "usps_collection_boxes", "addr:city": "LUQUILLO", "addr:country": "US", "addr:postcode": "00773", "addr:state": "PR", "addr:street_address": "160 CALLE QUINTO CENTENARIO", "amenity": "post_box", "collection_times": "Mo-Fr 16:30; Sa 12:15", "indoor": "yes", "note": "ON 12/24 AND 12/31, THIS BOX MAY BE COLLECTED AS EARLY AS 12 NOON.", "nsi_id": "unitedstatespostalservice-a77078", "operator": "United States Postal Service", "operator:short": "USPS", "operator:type": "public", "operator:wikidata": "Q668687", "ref": "0077300011"}, "type": "Feature"}
{"geometry": {"coordinates": [-65.30209, 18.301163], "type": "Point"}, "id": "vbqwN6IqK-xtQ-yodPTlC_8OOf8=", "properties": {"@source_uri": "https://tools.usps.com/UspsToolsRestServices/rest/POLocator/findLocations", "@spider": "usps_collection_boxes", "addr:city": "CULEBRA", "addr:country": "US", "addr:postcode": "00775", "addr:state": "PR", "addr:street_address": "26 CALLE PEDRO MARQUEZ", "amenity": "post_box", "collection_times": "Mo-Fr 15:00; Sa 08:00", "note": "ON 12/24 AND 12/31, THIS BOX MAY BE COLLECTED AS EARLY AS 12 NOON.", "nsi_id": "unitedstatespostalservice-a77078", "operator": "United States Postal Service", "operator:short": "USPS", "operator:type": "public", "operator:wikidata": "Q668687", "ref": "0077500001"}, "type": "Feature"}
{"geometry": {"coordinates": [-65.30209, 18.301163], "type": "Point"}, "id": "tFi70hvERaDcGveEtJXajMZBfRY=", "properties": {"@source_uri": "https://tools.usps.com/UspsToolsRestServices/rest/POLocator/findLocations", "@spider": "usps_collection_boxes", "addr:city": "CULEBRA", "addr:country": "US", "addr:postcode": "00775", "addr:state": "PR", "addr:street_address": "26 CALLE PEDRO MARQUEZ", "amenity": "post_box", "collection_times": "Mo-Fr 15:00; Sa 08:00", "indoor": "yes", "note": "ON 12/24 AND 12/31, THIS BOX MAY BE COLLECTED AS EARLY AS 12 NOON.", "nsi_id": "unitedstatespostalservice-a77078", "operator": "United States Postal Service", "operator:short": "USPS", "operator:type": "public", "operator:wikidata": "Q668687", "ref": "0077500002"}, "type": "Feature"}
{"geometry": {"coordinates": [-65.301657534, 18.302292646], "type": "Point"}, "id": "6pEutPyRDXfeHbKNknW915SGjAU=", "properties": {"@source_uri": "https://tools.usps.com/UspsToolsRestServices/rest/POLocator/findLocations", "@spider": "usps_collection_boxes", "addr:city": "CULEBRA", "addr:country": "US", "addr:postcode": "00775", "addr:state": "PR", "addr:street_address": "26 CALLE PEDRO MARQUEZ", "amenity": "post_box", "collection_times": "Mo-Fr 16:15; Sa 12:00", "indoor": "yes", "note": "ON 12/24 AND 12/31, THIS BOX MAY BE COLLECTED AS EARLY AS 12 NOON.", "nsi_id": "unitedstatespostalservice-a77078", "operator": "United States Postal Service", "operator:short": "USPS", "operator:type": "public", "operator:wikidata": "Q668687", "ref": "0077500003"}, "type": "Feature"}
{"geometry": {"coordinates": [-65.9226252, 18.234638], "type": "Point"}, "id": "1-lSvgeVHRquV-UbxNKekapBYOg=", "properties": {"@source_uri": "https://tools.usps.com/UspsToolsRestServices/rest/POLocator/findLocations", "@spider": "usps_collection_boxes", "addr:city": "JUNCOS", "addr:country": "US", "addr:postcode": "00777", "addr:state": "PR", "addr:street_address": "1 CALLE MUNOZ RIVERA", "amenity": "post_box", "collection_times": "Mo-Fr 15:00; Sa 08:00", "note": "ON 12/24 AND 12/31, THIS BOX MAY BE COLLECTED AS EARLY AS 12 NOON.", "nsi_id": "unitedstatespostalservice-a77078", "operator": "United States Postal Service", "operator:short": "USPS", "operator:type": "public", "operator:wikidata": "Q668687", "ref": "0077700001"}, "type": "Feature"}
{"geometry": {"coordinates": [-65.9157848, 18.225681], "type": "Point"}, "id": "UYPaY57Y6e2gBiakLAaH9GlxdG0=", "properties": {"@source_uri": "https://tools.usps.com/UspsToolsRestServices/rest/POLocator/findLocations", "@spider": "usps_collection_boxes", "addr:city": "JUNCOS", "addr:country": "US", "addr:postcode": "00777", "addr:state": "PR", "addr:street_address": "19 CALLE SANTIAGO FERNANDEZ", "amenity": "post_box", "collection_times": "Mo-Sa 10:30", "nsi_id": "unitedstatespostalservice-a77078", "operator": "United States Postal Service", "operator:short": "USPS", "operator:type": "public", "operator:wikidata": "Q668687", "ref": "0077700002"}, "type": "Feature"}
{"geometry": {"coordinates": [-65.9099774, 18.230386], "type": "Point"}, "id": "qTuuId5842LVzxPbOqo6Zc3eD6c=", "properties": {"@source_uri": "https://tools.usps.com/UspsToolsRestServices/rest/POLocator/findLocations", "@spider": "usps_collection_boxes", "addr:city": "JUNCOS", "addr:country": "US", "addr:postcode": "00777", "addr:state": "PR", "addr:street_address": "79 CARR 31", "amenity": "post_box", "collection_times": "Mo-Sa 08:30", "nsi_id": "unitedstatespostalservice-a77078", "operator": "United States Postal Service", "operator:short": "USPS", "operator:type": "public", "operator:wikidata": "Q668687", "ref": "0077700003"}, "type": "Feature"}
{"geometry": {"coordinates": [-65.9216354, 18.228051], "type": "Point"}, "id": "_9_C_ekG_HlbN0TA79oDO-0NLWo=", "properties": {"@source_uri": "https://tools.usps.com/UspsToolsRestServices/rest/POLocator/findLocations", "@spider": "usps_collection_boxes", "addr:city": "JUNCOS", "addr:country": "US", "addr:postcode": "00777", "addr:state": "PR", "addr:street_address": "34 CALLE MARTINEZ", "amenity": "post_box", "collection_times": "Mo-Sa 10:30", "nsi_id": "unitedstatespostalservice-a77078", "operator": "United States Postal Service", "operator:short": "USPS", "operator:type": "public", "operator:wikidata": "Q668687", "ref": "0077700004"}, "type": "Feature"}
{"geometry": {"coordinates": [-65.9240007, 18.22887], "type": "Point"}, "id": "MM_ldvsaA6fUtPk6na9VyoIGkrM=", "properties": {"@source_uri": "https://tools.usps.com/UspsToolsRestServices/rest/POLocator/findLocations", "@spider": "usps_collection_boxes", "addr:city": "JUNCOS", "addr:country": "US", "addr:postcode": "00777", "addr:state": "PR", "addr:street_address": "12 CALLE ESCUTE", "amenity": "post_box", "collection_times": "Mo-Sa 12:00", "nsi_id": "unitedstatespostalservice-a77078", "operator": "United States Postal Service", "operator:short": "USPS", "operator:type": "public", "operator:wikidata": "Q668687", "ref": "0077700005"}, "type": "Feature"}
{"geometry": {"coordinates": [-65.9211431, 18.229343], "type": "Point"}, "id": "DSLm8k6dfSLORFOZoc6_NC_eBZg=", "properties": {"@source_uri": "https://tools.usps.com/UspsToolsRestServices/rest/POLocator/findLocations", "@spider": "usps_collection_boxes", "addr:city": "JUNCOS", "addr:country": "US", "addr:postcode": "00777", "addr:state": "PR", "addr:street_address": "59 CALLE JOSE N ARZUAGA", "amenity": "post_box", "collection_times": "Mo-Sa 10:30", "nsi_id": "unitedstatespostalservice-a77078", "operator": "United States Postal Service", "operator:short": "USPS", "operator:type": "public", "operator:wikidata": "Q668687", "ref": "0077700006"}, "type": "Feature"}
{"geometry": {"coordinates": [-65.9207224, 18.230274], "type": "Point"}, "id": "yJpMRMJ9tTYU3ZjHFWS6WxyAnoY=", "properties": {"@source_uri": "https://tools.usps.com/UspsToolsRestServices/rest/POLocator/findLocations", "@spider": "usps_collection_boxes", "addr:city": "JUNCOS", "addr:country": "US", "addr:postcode": "00777", "addr:state": "PR", "addr:street_address": "42 CALLE MUNOZ RIVERA", "amenity": "post_box", "collection_times": "Mo-Sa 09:00", "nsi_id": "unitedstatespostalservice-a77078", "operator": "United States Postal Service", "operator:short": "USPS", "operator:type": "public", "operator:wikidata": "Q668687", "ref": "0077700007"}, "type": "Feature"}
{"geometry": {"coordinates": [-65.921863, 18.233346], "type": "Point"}, "id": "Mp8-9bXsyWOHfZgb8frE5g0BUAU=", "properties": {"@source_uri": "https://tools.usps.com/UspsToolsRestServices/rest/POLocator/findLocations", "@spider": "usps_collection_boxes", "addr:city": "JUNCOS", "addr:country": "US", "addr:postcode": "00777", "addr:state": "PR", "addr:street_address": "1 CALLE MUNOZ RIVERA", "amenity": "post_box", "collection_times": "Mo-Fr 15:00; Sa 08:00", "indoor": "yes", "note": "ON 12/24 AND 12/31, THIS BOX MAY BE COLLECTED AS EARLY AS 12 NOON.", "nsi_id": "unitedstatespostalservice-a77078", "operator": "United States Postal Service", "operator:short": "USPS", "operator:type": "public", "operator:wikidata": "Q668687", "ref": "0077700008"}, "type": "Feature"}
{"geometry": {"coordinates": [-65.921900121, 18.233357662], "type": "Point"}, "id": "kXWqSK32d57mYZUACkxclGbvwp0=", "properties": {"@source_uri": "https://tools.usps.com/UspsToolsRestServices/rest/POLocator/findLocations", "@spider": "usps_collection_boxes", "addr:city": "JUNCOS", "addr:country": "US", "addr:postcode": "00777", "addr:state": "PR", "addr:street_address": "1 CALLE MUNOZ RIVERA", "amenity": "post_box", "collection_times": "Mo-Fr 16:45; Sa 12:15", "indoor": "yes", "note": "ON 12/24 AND 12/31, THIS BOX MAY BE COLLECTED AS EARLY AS 12 NOON.", "nsi_id": "unitedstatespostalservice-a77078", "operator": "United States Postal Service", "operator:short": "USPS", "operator:type": "public", "operator:wikidata": "Q668687", "ref": "0077700009"}, "type": "Feature"}
{"geometry": {"coordinates": [-65.9792544, 18.251582], "type": "Point"}, "id": "x5BJIj9wH8cmk8HOpof5l7KXxB4=", "properties": {"@source_uri": "https://tools.usps.com/UspsToolsRestServices/rest/POLocator/findLocations", "@spider": "usps_collection_boxes", "addr:city": "GURABO", "addr:country": "US", "addr:postcode": "00778", "addr:state": "PR", "addr:street_address": "450 CARR 189", "amenity": "post_box", "collection_times": "Mo-Sa 08:45", "nsi_id": "unitedstatespostalservice-a77078", "operator": "United States Postal Service", "operator:short": "USPS", "operator:type": "public", "operator:wikidata": "Q668687", "ref": "0077800004"}, "type": "Feature"}
{"geometry": {"coordinates": [-65.9720499, 18.25552], "type": "Point"}, "id": "qBQLbs8tgRpyQFelt23s-YiQ1QQ=", "properties": {"@source_uri": "https://tools.usps.com/UspsToolsRestServices/rest/POLocator/findLocations", "@spider": "usps_collection_boxes", "addr:city": "GURABO", "addr:country": "US", "addr:postcode": "00778", "addr:state": "PR", "addr:street_address": "56 CALLE SAN JOSE S", "amenity": "post_box", "collection_times": "Mo-Sa 08:45", "nsi_id": "unitedstatespostalservice-a77078", "operator": "United States Postal Service", "operator:short": "USPS", "operator:type": "public", "operator:wikidata": "Q668687", "ref": "0077800006"}, "type": "Feature"}
{"geometry": {"coordinates": [-65.9694947, 18.256078], "type": "Point"}, "id": "iV4uHkheG2yIvmaPWNQR6tmC0vM=", "properties": {"@source_uri": "https://tools.usps.com/UspsToolsRestServices/rest/POLocator/findLocations", "@spider": "usps_collection_boxes", "addr:city": "GURABO", "addr:country": "US", "addr:postcode": "00778", "addr:state": "PR", "addr:street_address": "106 CALLE ANGEL C MORALES E", "amenity": "post_box", "collection_times": "Mo-Fr 15:00; Sa 08:45", "note": "ON 12/24 AND 12/31, THIS BOX MAY BE COLLECTED AS EARLY AS 12 NOON.", "nsi_id": "unitedstatespostalservice-a77078", "operator": "United States Postal Service", "operator:short": "USPS", "operator:type": "public", "operator:wikidata": "Q668687", "ref": "0077800009"}, "type": "Feature"}
{"geometry": {"coordinates": [-65.9991736, 18.229257], "type": "Point"}, "id": "e7EbumAzpIUnC6RJe4t9FamUpBY=", "properties": {"@source_uri": "https://tools.usps.com/UspsToolsRestServices/rest/POLocator/findLocations", "@spider": "usps_collection_boxes", "addr:city": "GURABO", "addr:country": "US", "addr:postcode": "00778", "addr:state": "PR", "addr:street_address": "CARR 931", "amenity": "post_box", "collection_times": "Mo-Sa 08:45", "nsi_id": "unitedstatespostalservice-a77078", "operator": "United States Postal Service", "operator:short": "USPS", "operator:type": "public", "operator:wikidata": "Q668687", "ref": "0077800011"}, "type": "Feature"}
{"geometry": {"coordinates": [-65.9670749, 18.252966], "type": "Point"}, "id": "vlVSU0jLlqHE3BQ46ni6mMFegmw=", "properties": {"@source_uri": "https://tools.usps.com/UspsToolsRestServices/rest/POLocator/findLocations", "@spider": "usps_collection_boxes", "addr:city": "GURABO", "addr:country": "US", "addr:postcode": "00778", "addr:state": "PR", "addr:street_address": "1 CALLE 7", "amenity": "post_box", "collection_times": "Mo-Sa 08:45", "nsi_id": "unitedstatespostalservice-a77078", "operator": "United States Postal Service", "operator:short": "USPS", "operator:type": "public", "operator:wikidata": "Q668687", "ref": "0077800012"}, "type": "Feature"}
{"geometry": {"coordinates": [-65.9695199, 18.256463], "type": "Point"}, "id": "BJFm5xO7IE1bQDwDpLQKwzElqrg=", "properties": {"@source_uri": "https://tools.usps.com/UspsToolsRestServices/rest/POLocator/findLocations", "@spider": "usps_collection_boxes", "addr:city": "GURABO", "addr:country": "US", "addr:postcode": "00778", "addr:state": "PR", "addr:street_address": "106 CALLE ANGEL C MORALES E", "amenity": "post_box", "collection_times": "Mo-Fr 15:00; Sa 08:15", "indoor": "yes", "note": "ON 12/24 AND 12/31, THIS BOX MAY BE COLLECTED AS EARLY AS 12 NOON.", "nsi_id": "unitedstatespostalservice-a77078", "operator": "United States Postal Service", "operator:short": "USPS", "operator:type": "public", "operator:wikidata": "Q668687", "ref": "0077800013"}, "type": "Feature"}
{"geometry": {"coordinates": [-65.970983184, 18.25587031], "type": "Point"}, "id": "Am1okzXDoe0tytCVlQAGo-nzxow=", "properties": {"@source_uri": "https://tools.usps.com/UspsToolsRestServices/rest/POLocator/findLocations", "@spider": "usps_collection_boxes", "addr:city": "GURABO", "addr:country": "US", "addr:postcode": "00778", "addr:state": "PR", "addr:street_address": "106 CALLE ANGEL C MORALES E", "amenity": "post_box", "collection_times": "Mo-Fr 16:45; Sa 12:15", "indoor": "yes", "note": "ON 12/24 AND 12/31, THIS BOX MAY BE COLLECTED AS EARLY AS 12 NOON.", "nsi_id": "unitedstatespostalservice-a77078", "operator": "United States Postal Service", "operator:short": "USPS", "operator:type": "public", "operator:wikidata": "Q668687", "ref": "0077800014"}, "type": "Feature"}
{"geometry": {"coordinates": [-66.5468166, 18.040389], "type": "Point"}, "id": "D3I5naG5suPkJWSaAanClrVZzbE=", "properties": {"@source_uri": "https://tools.usps.com/UspsToolsRestServices/rest/POLocator/findLocations", "@spider": "usps_collection_boxes", "addr:city": "COTO LAUREL", "addr:country": "US", "addr:postcode": "00780", "addr:state": "PR", "addr:street_address": "3007 AVE SAN CRISTOBAL", "amenity": "post_box", "collection_times": "Mo-Fr 15:00; Sa 09:30", "note": "ON 12/24 AND 12/31, THIS BOX MAY BE COLLECTED AS EARLY AS 12 NOON.", "nsi_id": "unitedstatespostalservice-a77078", "operator": "United States Postal Service", "operator:short": "USPS", "operator:type": "public", "operator:wikidata": "Q668687", "ref": "0078000001"}, "type": "Feature"}
{"geometry": {"coordinates": [-66.5530633, 18.048882], "type": "Point"}, "id": "n1ni0XlMgtqdrtWqyH6jjFIjhyQ=", "properties": {"@source_uri": "https://tools.usps.com/UspsToolsRestServices/rest/POLocator/findLocations", "@spider": "usps_collection_boxes", "addr:city": "COTO LAUREL", "addr:country": "US", "addr:postcode": "00780", "addr:state": "PR", "addr:street_address": "12 CALLE CENTRAL", "amenity": "post_box", "collection_times": "Mo-Sa 08:00", "nsi_id": "unitedstatespostalservice-a77078", "operator": "United States Postal Service", "operator:short": "USPS", "operator:type": "public", "operator:wikidata": "Q668687", "ref": "0078000002"}, "type": "Feature"}
{"geometry": {"coordinates": [-66.5470238, 18.039913], "type": "Point"}, "id": "zzqxzJ8C5yp6E1H1C0tDKuCc9vA=", "properties": {"@source_uri": "https://tools.usps.com/UspsToolsRestServices/rest/POLocator/findLocations", "@spider": "usps_collection_boxes", "addr:city": "COTO LAUREL", "addr:country": "US", "addr:postcode": "00780", "addr:state": "PR", "addr:street_address": "3007 AVE SAN CRISTOBAL", "amenity": "post_box", "collection_times": "Mo-Fr 15:00; Sa 09:30", "indoor": "yes", "note": "ON 12/24 AND 12/31, THIS BOX MAY BE COLLECTED AS EARLY AS 12 NOON.", "nsi_id": "unitedstatespostalservice-a77078", "operator": "United States Postal Service", "operator:short": "USPS", "operator:type": "public", "operator:wikidata": "Q668687", "ref": "0078000003"}, "type": "Feature"}
{"geometry": {"coordinates": [-66.541427181, 18.039675085], "type": "Point"}, "id": "BxY0GHddGNgICKo20_to7T_iyV4=", "properties": {"@source_uri": "https://tools.usps.com/UspsToolsRestServices/rest/POLocator/findLocations", "@spider": "usps_collection_boxes", "addr:city": "COTO LAUREL", "addr:country": "US", "addr:postcode": "00780", "addr:state": "PR", "addr:street_address": "3007 AVE SAN CRISTOBAL", "amenity": "post_box", "collection_times": "Mo-Fr 16:45; Sa 12:15", "indoor": "yes", "note": "ON 12/24 AND 12/31, THIS BOX MAY BE COLLECTED AS EARLY AS 12 NOON.", "nsi_id": "unitedstatespostalservice-a77078", "operator": "United States Postal Service", "operator:short": "USPS", "operator:type": "public", "operator:wikidata": "Q668687", "ref": "0078000004"}, "type": "Feature"}
{"geometry": {"coordinates": [-66.223191477, 18.222227463], "type": "Point"}, "id": "C2oJzd06oz4RY8KwraQ5HGnNtJY=", "properties": {"@source_uri": "https://tools.usps.com/UspsToolsRestServices/rest/POLocator/findLocations", "@spider": "usps_collection_boxes", "addr:city": "COMERIO", "addr:country": "US", "addr:postcode": "00782", "addr:state": "PR", "addr:street_address": "37 CARR 778 STE 3", "amenity": "post_box", "collection_times": "Mo-Fr 15:00; Sa 08:30", "note": "ON 12/24 AND 12/31, THIS BOX MAY BE COLLECTED AS EARLY AS 12 NOON.", "nsi_id": "unitedstatespostalservice-a77078", "operator": "United States Postal Service", "operator:short": "USPS", "operator:type": "public", "operator:wikidata": "Q668687", "ref": "0078200002"}, "type": "Feature"}
{"geometry": {"coordinates": [-66.223191477, 18.222227463], "type": "Point"}, "id": "p-en3YGWHGj6IFpNkz5nKM8JLY8=", "properties": {"@source_uri": "https://tools.usps.com/UspsToolsRestServices/rest/POLocator/findLocations", "@spider": "usps_collection_boxes", "addr:city": "COMERIO", "addr:country": "US", "addr:postcode": "00782", "addr:state": "PR", "addr:street_address": "37 CARR 778 STE 3", "amenity": "post_box", "collection_times": "Mo-Fr 15:00; Sa 08:30", "indoor": "yes", "note": "ON 12/24 AND 12/31, THIS BOX MAY BE COLLECTED AS EARLY AS 12 NOON.", "nsi_id": "unitedstatespostalservice-a77078", "operator": "United States Postal Service", "operator:short": "USPS", "operator:type": "public", "operator:wikidata": "Q668687", "ref": "0078200003"}, "type": "Feature"}
{"geometry": {"coordinates": [-66.223191477, 18.222227463], "type": "Point"}, "id": "SYpLgyFImQuwkZ5CSoflzgiqU_A=", "properties": {"@source_uri": "https://tools.usps.com/UspsToolsRestServices/rest/POLocator/findLocations", "@spider": "usps_collection_boxes", "addr:city": "COMERIO", "addr:country": "US", "addr:postcode": "00782", "addr:state": "PR", "addr:street_address": "37 CARR 778 STE 3", "amenity": "post_box", "collection_times": "Mo-Fr 16:30; Sa 12:15", "indoor": "yes", "note": "ON 12/24 AND 12/31, THIS BOX MAY BE COLLECTED AS EARLY AS 12 NOON.", "nsi_id": "unitedstatespostalservice-a77078", "operator": "United States Postal Service", "operator:short": "USPS", "operator:type": "public", "operator:wikidata": "Q668687", "ref": "0078200005"}, "type": "Feature"}
{"geometry": {"coordinates": [-66.3268027, 18.344692], "type": "Point"}, "id": "TWJbU5O185o21nLDeCU3Q0l7A0k=", "properties": {"@source_uri": "https://tools.usps.com/UspsToolsRestServices/rest/POLocator/findLocations", "@spider": "usps_collection_boxes", "addr:city": "COROZAL", "addr:country": "US", "addr:postcode": "00783", "addr:state": "PR", "addr:street_address": "C1 CALLE 1", "amenity": "post_box", "collection_times": "Mo-Sa 15:00", "note": "ON 12/24 AND 12/31, THIS BOX MAY BE COLLECTED AS EARLY AS 12 NOON.", "nsi_id": "unitedstatespostalservice-a77078", "operator": "United States Postal Service", "operator:short": "USPS", "operator:type": "public", "operator:wikidata": "Q668687", "ref": "0078300001"}, "type": "Feature"}
{"geometry": {"coordinates": [-66.3107444934, 18.3421927709], "type": "Point"}, "id": "uZhaxwd_yxjDkeKNjO0ys0BGxLI=", "properties": {"@source_uri": "https://tools.usps.com/UspsToolsRestServices/rest/POLocator/findLocations", "@spider": "usps_collection_boxes", "addr:city": "COROZAL", "addr:country": "US", "addr:postcode": "00783", "addr:state": "PR", "addr:street_address": "955 CARR 891", "amenity": "post_box", "collection_times": "Mo-Sa 12:30", "note": "ON 12/24 AND 12/31, THIS BOX MAY BE COLLECTED AS EARLY AS 12 NOON.", "nsi_id": "unitedstatespostalservice-a77078", "operator": "United States Postal Service", "operator:short": "USPS", "operator:type": "public", "operator:wikidata": "Q668687", "ref": "0078300002"}, "type": "Feature"}
{"geometry": {"coordinates": [-66.3048549, 18.338884], "type": "Point"}, "id": "OsP9iky2eF_7r-oiXdz2Ofrl0Ow=", "properties": {"@source_uri": "https://tools.usps.com/UspsToolsRestServices/rest/POLocator/findLocations", "@spider": "usps_collection_boxes", "addr:city": "COROZAL", "addr:country": "US", "addr:postcode": "00783", "addr:state": "PR", "addr:street_address": "F13 CALLE 5", "amenity": "post_box", "collection_times": "Mo-Sa 15:00", "note": "ON 12/24 AND 12/31, THIS BOX MAY BE COLLECTED AS EARLY AS 12 NOON.", "nsi_id": "unitedstatespostalservice-a77078", "operator": "United States Postal Service", "operator:short": "USPS", "operator:type": "public", "operator:wikidata": "Q668687", "ref": "0078300003"}, "type": "Feature"}
{"geometry": {"coordinates": [-66.3175856, 18.340149], "type": "Point"}, "id": "8PgeSKm8EArKPqZI8Ry77uWeFLg=", "properties": {"@source_uri": "https://tools.usps.com/UspsToolsRestServices/rest/POLocator/findLocations", "@spider": "usps_collection_boxes", "addr:city": "COROZAL", "addr:country": "US", "addr:postcode": "00783", "addr:state": "PR", "addr:street_address": "1 CALLE SAN MANUEL", "amenity": "post_box", "collection_times": "Mo-Sa 09:30", "nsi_id": "unitedstatespostalservice-a77078", "operator": "United States Postal Service", "operator:short": "USPS", "operator:type": "public", "operator:wikidata": "Q668687", "ref": "0078300004"}, "type": "Feature"}
{"geometry": {"coordinates": [-66.3225930027, 18.3375310098], "type": "Point"}, "id": "V0SPnc8YUxdx3VapXzn_8TRzWgM=", "properties": {"@source_uri": "https://tools.usps.com/UspsToolsRestServices/rest/POLocator/findLocations", "@spider": "usps_collection_boxes", "addr:city": "COROZAL", "addr:country": "US", "addr:postcode": "00783", "addr:state": "PR", "addr:street_address": "100 COROZAL SHOP CTR STE 104", "amenity": "post_box", "collection_times": "Mo-Fr 15:00; Sa 08:15", "note": "ON 12/24 AND 12/31, THIS BOX MAY BE COLLECTED AS EARLY AS 12 NOON.", "nsi_id": "unitedstatespostalservice-a77078", "operator": "United States Postal Service", "operator:short": "USPS", "operator:type": "public", "operator:wikidata": "Q668687", "ref": "0078300006"}, "type": "Feature"}
{"geometry": {"coordinates": [-66.3225930027, 18.3375310098], "type": "Point"}, "id": "hJ808wNYDTzj9Z1_OurUdjMfW8Y=", "properties": {"@source_uri": "https://tools.usps.com/UspsToolsRestServices/rest/POLocator/findLocations", "@spider": "usps_collection_boxes", "addr:city": "COROZAL", "addr:country": "US", "addr:postcode": "00783", "addr:state": "PR", "addr:street_address": "100 COROZAL SHOP CTR STE 104", "amenity": "post_box", "collection_times": "Mo-Fr 15:00; Sa 08:15", "indoor": "yes", "note": "ON 12/24 AND 12/31, THIS BOX MAY BE COLLECTED AS EARLY AS 12 NOON.", "nsi_id": "unitedstatespostalservice-a77078", "operator": "United States Postal Service", "operator:short": "USPS", "operator:type": "public", "operator:wikidata": "Q668687", "ref": "0078300009"}, "type": "Feature"}
{"geometry": {"coordinates": [-66.3225930027, 18.3375310098], "type": "Point"}, "id": "s2ek3lH5MSYssp7SkZt3Ygyjsj4=", "properties": {"@source_uri": "https://tools.usps.com/UspsToolsRestServices/rest/POLocator/findLocations", "@spider": "usps_collection_boxes", "addr:city": "COROZAL", "addr:country": "US", "addr:postcode": "00783", "addr:state": "PR", "addr:street_address": "100 COROZAL SHOP CTR STE 104", "amenity": "post_box", "collection_times": "Mo-Fr 16:45; Sa 12:15", "indoor": "yes", "note": "ON 12/24 AND 12/31, THIS BOX MAY BE COLLECTED AS EARLY AS 12 NOON.", "nsi_id": "unitedstatespostalservice-a77078", "operator": "United States Postal Service", "operator:short": "USPS", "operator:type": "public", "operator:wikidata": "Q668687", "ref": "0078300010"}, "type": "Feature"}
{"geometry": {"coordinates": [-66.112595, 17.98276], "type": "Point"}, "id": "QMNIzx-iuhuxqyTFKws_sd278aE=", "properties": {"@source_uri": "https://tools.usps.com/UspsToolsRestServices/rest/POLocator/findLocations", "@spider": "usps_collection_boxes", "addr:city": "GUAYAMA", "addr:country": "US", "addr:postcode": "00784", "addr:state": "PR", "addr:street_address": "1 CARR 3", "amenity": "post_box", "collection_times": "Mo-Sa 08:00", "nsi_id": "unitedstatespostalservice-a77078", "operator": "United States Postal Service", "operator:short": "USPS", "operator:type": "public", "operator:wikidata": "Q668687", "ref": "0078400005"}, "type": "Feature"}
{"geometry": {"coordinates": [-66.1139711, 17.987228], "type": "Point"}, "id": "cIECpBsFPbpLRvNnbi7a0rPvadM=", "properties": {"@source_uri": "https://tools.usps.com/UspsToolsRestServices/rest/POLocator/findLocations", "@spider": "usps_collection_boxes", "addr:city": "GUAYAMA", "addr:country": "US", "addr:postcode": "00784", "addr:state": "PR", "addr:street_address": "47 CALLE CALIMANO N", "amenity": "post_box", "collection_times": "Mo-Sa 08:00", "nsi_id": "unitedstatespostalservice-a77078", "operator": "United States Postal Service", "operator:short": "USPS", "operator:type": "public", "operator:wikidata": "Q668687", "ref": "0078400010"}, "type": "Feature"}
{"geometry": {"coordinates": [-66.121789886, 17.969195043], "type": "Point"}, "id": "6HK4aJ9-TiCuqerDRgNT1pbgYNo=", "properties": {"@source_uri": "https://tools.usps.com/UspsToolsRestServices/rest/POLocator/findLocations", "@spider": "usps_collection_boxes", "addr:city": "GUAYAMA", "addr:country": "US", "addr:postcode": "00784", "addr:state": "PR", "addr:street_address": "22 CALLE PALMER S", "amenity": "post_box", "collection_times": "Mo-Sa 08:00", "nsi_id": "unitedstatespostalservice-a77078", "operator": "United States Postal Service", "operator:short": "USPS", "operator:type": "public", "operator:wikidata": "Q668687", "ref": "0078400011"}, "type": "Feature"}
{"geometry": {"coordinates": [-66.1162447, 17.98451], "type": "Point"}, "id": "8Wej3JyFW2nny8ElFzRQfspxm1E=", "properties": {"@source_uri": "https://tools.usps.com/UspsToolsRestServices/rest/POLocator/findLocations", "@spider": "usps_collection_boxes", "addr:city": "GUAYAMA", "addr:country": "US", "addr:postcode": "00784", "addr:state": "PR", "addr:street_address": "2 CALLE MCARTHUR", "amenity": "post_box", "collection_times": "Mo-Sa 08:00", "nsi_id": "unitedstatespostalservice-a77078", "operator": "United States Postal Service", "operator:short": "USPS", "operator:type": "public", "operator:wikidata": "Q668687", "ref": "0078400012"}, "type": "Feature"}
{"geometry": {"coordinates": [-66.112595, 17.98276], "type": "Point"}, "id": "UlYRM8WSDH6xveBe9jBP5IpbFSY=", "properties": {"@source_uri": "https://tools.usps.com/UspsToolsRestServices/rest/POLocator/findLocations", "@spider": "usps_collection_boxes", "addr:city": "GUAYAMA", "addr:country": "US", "addr:postcode": "00784", "addr:state": "PR", "addr:street_address": "151 CALLE ASHFORD S", "amenity": "post_box", "collection_times": "Mo-Fr 17:00; Sa 13:00", "note": "ON 12/24 AND 12/31, THIS BOX MAY BE COLLECTED AS EARLY AS 12 NOON.", "nsi_id": "unitedstatespostalservice-a77078", "operator": "United States Postal Service", "operator:short": "USPS", "operator:type": "public", "operator:wikidata": "Q668687", "ref": "0078400014"}, "type": "Feature"}
{"geometry": {"coordinates": [-66.0970111, 17.97968], "type": "Point"}, "id": "FKKAHT1duDZhOgAJJmTT164ITbs=", "properties": {"@source_uri": "https://tools.usps.com/UspsToolsRestServices/rest/POLocator/findLocations", "@spider": "usps_collection_boxes", "addr:city": "GUAYAMA", "addr:country": "US", "addr:postcode": "00784", "addr:state": "PR", "addr:street_address": "1993 AVE LOS VETERANOS", "amenity": "post_box", "collection_times": "Mo-Sa 08:00", "nsi_id": "unitedstatespostalservice-a77078", "operator": "United States Postal Service", "operator:short": "USPS", "operator:type": "public", "operator:wikidata": "Q668687", "ref": "0078400016"}, "type": "Feature"}
{"geometry": {"coordinates": [-66.1121115, 17.980817], "type": "Point"}, "id": "pvO75tDnQfNJ2Nb0FnNwrtijDaY=", "properties": {"@source_uri": "https://tools.usps.com/UspsToolsRestServices/rest/POLocator/findLocations", "@spider": "usps_collection_boxes", "addr:city": "GUAYAMA", "addr:country": "US", "addr:postcode": "00784", "addr:state": "PR", "addr:street_address": "151 CALLE ASHFORD S", "amenity": "post_box", "collection_times": "Mo-Fr 17:00; Sa 13:00", "indoor": "yes", "note": "ON 12/24 AND 12/31, THIS BOX MAY BE COLLECTED AS EARLY AS 12 NOON.", "nsi_id": "unitedstatespostalservice-a77078", "operator": "United States Postal Service", "operator:short": "USPS", "operator:type": "public", "operator:wikidata": "Q668687", "ref": "0078400020"}, "type": "Feature"}
{"geometry": {"coordinates": [-66.112484636, 17.980553557], "type": "Point"}, "id": "VHUSwj1-tanwQhcX2s5lQsSwetA=", "properties": {"@source_uri": "https://tools.usps.com/UspsToolsRestServices/rest/POLocator/findLocations", "@spider": "usps_collection_boxes", "addr:city": "GUAYAMA", "addr:country": "US", "addr:postcode": "00784", "addr:state": "PR", "addr:street_address": "151 CALLE ASHFORD S", "amenity": "post_box", "collection_times": "Mo-Fr 16:45; Sa 12:15", "indoor": "yes", "note": "ON 12/24 AND 12/31, THIS BOX MAY BE COLLECTED AS EARLY AS 12 NOON.", "nsi_id": "unitedstatespostalservice-a77078", "operator": "United States Postal Service", "operator:short": "USPS", "operator:type": "public", "operator:wikidata": "Q668687", "ref": "0078400021"}, "type": "Feature"}
{"geometry": {"coordinates": [-66.2329491613, 18.1544012484], "type": "Point"}, "id": "l-t75aClnG7mOMAIpqcRa-sSJqw=", "properties": {"@source_uri": "https://tools.usps.com/UspsToolsRestServices/rest/POLocator/findLocations", "@spider": "usps_collection_boxes", "addr:city": "LA PLATA", "addr:country": "US", "addr:postcode": "00786", "addr:state": "PR", "addr:street_address": "5 CARR 173", "amenity": "post_box", "collection_times": "Mo-Fr 12:00; Sa 09:30", "nsi_id": "unitedstatespostalservice-a77078", "operator": "United States Postal Service", "operator:short": "USPS", "operator:type": "public", "operator:wikidata": "Q668687", "ref": "0078600001"}, "type": "Feature"}
{"geometry": {"coordinates": [-66.231032578, 18.157293362], "type": "Point"}, "id": "BEoDVIiKaRS16OXiwdeql0E4Dnc=", "properties": {"@source_uri": "https://tools.usps.com/UspsToolsRestServices/rest/POLocator/findLocations", "@spider": "usps_collection_boxes", "addr:city": "LA PLATA", "addr:country": "US", "addr:postcode": "00786", "addr:state": "PR", "addr:street_address": "5 CARR 173", "amenity": "post_box", "collection_times": "Mo-Fr 12:00", "indoor": "yes", "nsi_id": "unitedstatespostalservice-a77078", "operator": "United States Postal Service", "operator:short": "USPS", "operator:type": "public", "operator:wikidata": "Q668687", "ref": "0078600003"}, "type": "Feature"}
{"geometry": {"coordinates": [-65.8294262, 18.151089], "type": "Point"}, "id": "pZgpy3vC6Gl3NgITptVzY0jwmjA=", "properties": {"@source_uri": "https://tools.usps.com/UspsToolsRestServices/rest/POLocator/findLocations", "@spider": "usps_collection_boxes", "addr:city": "HUMACAO", "addr:country": "US", "addr:postcode": "00791", "addr:state": "PR", "addr:street_address": "122 CALLE FONT MARTELO", "amenity": "post_box", "collection_times": "Mo-Fr 17:00; Sa 12:15", "note": "ON 12/24 AND 12/31, THIS BOX MAY BE COLLECTED AS EARLY AS 12 NOON.", "nsi_id": "unitedstatespostalservice-a77078", "operator": "United States Postal Service", "operator:short": "USPS", "operator:type": "public", "operator:wikidata": "Q668687", "ref": "0079100001"}, "type": "Feature"}
{"geometry": {"coordinates": [-65.8252424, 18.151559], "type": "Point"}, "id": "y0JyH70fDz6FfSppKxUyggXxmG0=", "properties": {"@source_uri": "https://tools.usps.com/UspsToolsRestServices/rest/POLocator/findLocations", "@spider": "usps_collection_boxes", "addr:city": "HUMACAO", "addr:country": "US", "addr:postcode": "00791", "addr:state": "PR", "addr:street_address": "45 CALLE CRUZ ORTIZ STELLA N", "amenity": "post_box", "collection_times": "Mo-Sa 08:15", "nsi_id": "unitedstatespostalservice-a77078", "operator": "United States Postal Service", "operator:short": "USPS", "operator:type": "public", "operator:wikidata": "Q668687", "ref": "0079100010"}, "type": "Feature"}
{"geometry": {"coordinates": [-65.8229819, 18.151654], "type": "Point"}, "id": "2E3guG2v_FI4Fj9qbVXzrASsDT0=", "properties": {"@source_uri": "https://tools.usps.com/UspsToolsRestServices/rest/POLocator/findLocations", "@spider": "usps_collection_boxes", "addr:city": "HUMACAO", "addr:country": "US", "addr:postcode": "00791", "addr:state": "PR", "addr:street_address": "A1 CARR 924", "amenity": "post_box", "collection_times": "Mo-Sa 08:15", "nsi_id": "unitedstatespostalservice-a77078", "operator": "United States Postal Service", "operator:short": "USPS", "operator:type": "public", "operator:wikidata": "Q668687", "ref": "0079100011"}, "type": "Feature"}
{"geometry": {"coordinates": [-65.8176441, 18.146461], "type": "Point"}, "id": "VBPWy4btr4mcpOtx_nLs_bSvmEI=", "properties": {"@source_uri": "https://tools.usps.com/UspsToolsRestServices/rest/POLocator/findLocations", "@spider": "usps_collection_boxes", "addr:city": "HUMACAO", "addr:country": "US", "addr:postcode": "00791", "addr:state": "PR", "addr:street_address": "200 BLVD DEL RIO", "amenity": "post_box", "collection_times": "Mo-Sa 08:00", "nsi_id": "unitedstatespostalservice-a77078", "operator": "United States Postal Service", "operator:short": "USPS", "operator:type": "public", "operator:wikidata": "Q668687", "ref": "0079100013"}, "type": "Feature"}
{"geometry": {"coordinates": [-65.8190194, 18.148884], "type": "Point"}, "id": "tgFBc30myGrxzJaP3lCuf5jQ_JE=", "properties": {"@source_uri": "https://tools.usps.com/UspsToolsRestServices/rest/POLocator/findLocations", "@spider": "usps_collection_boxes", "addr:city": "HUMACAO", "addr:country": "US", "addr:postcode": "00791", "addr:state": "PR", "addr:street_address": "147 CALLE DR VIDAL E", "amenity": "post_box", "collection_times": "Mo-Sa 08:15", "nsi_id": "unitedstatespostalservice-a77078", "operator": "United States Postal Service", "operator:short": "USPS", "operator:type": "public", "operator:wikidata": "Q668687", "ref": "0079100014"}, "type": "Feature"}
{"geometry": {"coordinates": [-65.8294131, 18.151108], "type": "Point"}, "id": "iKqHCpgmKwes68tVbKQlo_ASwvw=", "properties": {"@source_uri": "https://tools.usps.com/UspsToolsRestServices/rest/POLocator/findLocations", "@spider": "usps_collection_boxes", "addr:city": "HUMACAO", "addr:country": "US", "addr:postcode": "00791", "addr:state": "PR", "addr:street_address": "122 CALLE FONT MARTELO", "amenity": "post_box", "collection_times": "Mo-Fr 17:00; Sa 12:15", "indoor": "yes", "note": "ON 12/24 AND 12/31, THIS BOX MAY BE COLLECTED AS EARLY AS 12 NOON.", "nsi_id": "unitedstatespostalservice-a77078", "operator": "United States Postal Service", "operator:short": "USPS", "operator:type": "public", "operator:wikidata": "Q668687", "ref": "0079100025"}, "type": "Feature"}
{"geometry": {"coordinates": [-65.829985985, 18.151229855], "type": "Point"}, "id": "EbeDRLOV_jCYS6rcGJtMINaBA1Q=", "properties": {"@source_uri": "https://tools.usps.com/UspsToolsRestServices/rest/POLocator/findLocations", "@spider": "usps_collection_boxes", "addr:city": "HUMACAO", "addr:country": "US", "addr:postcode": "00791", "addr:state": "PR", "addr:street_address": "122 CALLE FONT MARTELO", "amenity": "post_box", "collection_times": "Mo-Fr 17:00; Sa 12:15", "indoor": "yes", "note": "ON 12/24 AND 12/31, THIS BOX MAY BE COLLECTED AS EARLY AS 12 NOON.", "nsi_id": "unitedstatespostalservice-a77078", "operator": "United States Postal Service", "operator:short": "USPS", "operator:type": "public", "operator:wikidata": "Q668687", "ref": "0079100026"}, "type": "Feature"}
{"geometry": {"coordinates": [-66.3073331, 18.184002], "type": "Point"}, "id": "37zqejIxiHOgbFwovVvjbRGC9Yc=", "properties": {"@source_uri": "https://tools.usps.com/UspsToolsRestServices/rest/POLocator/findLocations", "@spider": "usps_collection_boxes", "addr:city": "BARRANQUITAS", "addr:country": "US", "addr:postcode": "00794", "addr:state": "PR", "addr:street_address": "20 CALLE PADRE BERRIOS", "amenity": "post_box", "collection_times": "Mo-Sa 10:00", "nsi_id": "unitedstatespostalservice-a77078", "operator": "United States Postal Service", "operator:short": "USPS", "operator:type": "public", "operator:wikidata": "Q668687", "ref": "0079400001"}, "type": "Feature"}
{"geometry": {"coordinates": [-66.299019, 18.183446], "type": "Point"}, "id": "k6d3F8PZZ8orAKBsuu6ZRmfjYw0=", "properties": {"@source_uri": "https://tools.usps.com/UspsToolsRestServices/rest/POLocator/findLocations", "@spider": "usps_collection_boxes", "addr:city": "BARRANQUITAS", "addr:country": "US", "addr:postcode": "00794", "addr:state": "PR", "addr:street_address": "3 CALLE BARCELO", "amenity": "post_box", "collection_times": "Mo-Sa 11:30", "nsi_id": "unitedstatespostalservice-a77078", "operator": "United States Postal Service", "operator:short": "USPS", "operator:type": "public", "operator:wikidata": "Q668687", "ref": "0079400002"}, "type": "Feature"}
{"geometry": {"coordinates": [-66.3080388, 18.185793], "type": "Point"}, "id": "a6nHiqhLcoKB759KnDfADUhrJWc=", "properties": {"@source_uri": "https://tools.usps.com/UspsToolsRestServices/rest/POLocator/findLocations", "@spider": "usps_collection_boxes", "addr:city": "BARRANQUITAS", "addr:country": "US", "addr:postcode": "00794", "addr:state": "PR", "addr:street_address": "41 CALLE MUNOZ RIVERA", "amenity": "post_box", "collection_times": "Mo-Fr 15:00; Sa 08:00", "note": "ON 12/24 AND 12/31, THIS BOX MAY BE COLLECTED AS EARLY AS 12 NOON.", "nsi_id": "unitedstatespostalservice-a77078", "operator": "United States Postal Service", "operator:short": "USPS", "operator:type": "public", "operator:wikidata": "Q668687", "ref": "0079400003"}, "type": "Feature"}
{"geometry": {"coordinates": [-66.306956, 18.18618], "type": "Point"}, "id": "Cp9F_AZyUBDiPC4mT2HPfelTxFY=", "properties": {"@source_uri": "https://tools.usps.com/UspsToolsRestServices/rest/POLocator/findLocations", "@spider": "usps_collection_boxes", "addr:city": "BARRANQUITAS", "addr:country": "US", "addr:postcode": "00794", "addr:state": "PR", "addr:street_address": "41 CALLE MUNOZ RIVERA", "amenity": "post_box", "collection_times": "Mo-Fr 15:00; Sa 08:00", "indoor": "yes", "note": "ON 12/24 AND 12/31, THIS BOX MAY BE COLLECTED AS EARLY AS 12 NOON.", "nsi_id": "unitedstatespostalservice-a77078", "operator": "United States Postal Service", "operator:short": "USPS", "operator:type": "public", "operator:wikidata": "Q668687", "ref": "0079400004"}, "type": "Feature"}
{"geometry": {"coordinates": [-66.306988222, 18.186140952], "type": "Point"}, "id": "DgfZA-7c5vsxzs99RkD06DhaxOo=", "properties": {"@source_uri": "https://tools.usps.com/UspsToolsRestServices/rest/POLocator/findLocations", "@spider": "usps_collection_boxes", "addr:city": "BARRANQUITAS", "addr:country": "US", "addr:postcode": "00794", "addr:state": "PR", "addr:street_address": "41 CALLE MUNOZ RIVERA", "amenity": "post_box", "collection_times": "Mo-Fr 16:00; Sa 12:15", "indoor": "yes", "note": "ON 12/24 AND 12/31, THIS BOX MAY BE COLLECTED AS EARLY AS 12 NOON.", "nsi_id": "unitedstatespostalservice-a77078", "operator": "United States Postal Service", "operator:short": "USPS", "operator:type": "public", "operator:wikidata": "Q668687", "ref": "0079400005"}, "type": "Feature"}
{"geometry": {"coordinates": [-66.5045173, 18.055188], "type": "Point"}, "id": "bAEj4NO7KJOM-W2EW6t1tK7zYKc=", "properties": {"@source_uri": "https://tools.usps.com/UspsToolsRestServices/rest/POLocator/findLocations", "@spider": "usps_collection_boxes", "addr:city": "JUANA DIAZ", "addr:country": "US", "addr:postcode": "00795", "addr:state": "PR", "addr:street_address": "72 CALLE EXT MUNOZ RIVERA", "amenity": "post_box", "collection_times": "Mo-Fr 15:00; Sa 08:15", "note": "ON 12/24 AND 12/31, THIS BOX MAY BE COLLECTED AS EARLY AS 12 NOON.", "nsi_id": "unitedstatespostalservice-a77078", "operator": "United States Postal Service", "operator:short": "USPS", "operator:type": "public", "operator:wikidata": "Q668687", "ref": "0079500002"}, "type": "Feature"}
{"geometry": {"coordinates": [-66.5076495, 18.045138], "type": "Point"}, "id": "IE4mgf8Rpw8QHIG87woDTUkvXxA=", "properties": {"@source_uri": "https://tools.usps.com/UspsToolsRestServices/rest/POLocator/findLocations", "@spider": "usps_collection_boxes", "addr:city": "JUANA DIAZ", "addr:country": "US", "addr:postcode": "00795", "addr:state": "PR", "addr:street_address": "110 AVE VICTOR CRUZ", "amenity": "post_box", "collection_times": "Mo-Sa 08:00", "nsi_id": "unitedstatespostalservice-a77078", "operator": "United States Postal Service", "operator:short": "USPS", "operator:type": "public", "operator:wikidata": "Q668687", "ref": "0079500005"}, "type": "Feature"}
{"geometry": {"coordinates": [-66.5062854, 18.053497], "type": "Point"}, "id": "ChWCiGmvZv97n7wcSxztOiGP4e8=", "properties": {"@source_uri": "https://tools.usps.com/UspsToolsRestServices/rest/POLocator/findLocations", "@spider": "usps_collection_boxes", "addr:city": "JUANA DIAZ", "addr:country": "US", "addr:postcode": "00795", "addr:state": "PR", "addr:street_address": "29 CALLE F DEGETAU", "amenity": "post_box", "collection_times": "Mo-Sa 08:00", "nsi_id": "unitedstatespostalservice-a77078", "operator": "United States Postal Service", "operator:short": "USPS", "operator:type": "public", "operator:wikidata": "Q668687", "ref": "0079500009"}, "type": "Feature"}
{"geometry": {"coordinates": [-66.5048541, 18.055413], "type": "Point"}, "id": "VEyS8q4-BLxnJPzeEx491gHU834=", "properties": {"@source_uri": "https://tools.usps.com/UspsToolsRestServices/rest/POLocator/findLocations", "@spider": "usps_collection_boxes", "addr:city": "JUANA DIAZ", "addr:country": "US", "addr:postcode": "00795", "addr:state": "PR", "addr:street_address": "72 CALLE EXT MUNOZ RIVERA", "amenity": "post_box", "collection_times": "Mo-Fr 15:00; Sa 08:15", "indoor": "yes", "note": "ON 12/24 AND 12/31, THIS BOX MAY BE COLLECTED AS EARLY AS 12 NOON.", "nsi_id": "unitedstatespostalservice-a77078", "operator": "United States Postal Service", "operator:short": "USPS", "operator:type": "public", "operator:wikidata": "Q668687", "ref": "0079500011"}, "type": "Feature"}
{"geometry": {"coordinates": [-66.504314608, 18.055679721], "type": "Point"}, "id": "RINOWD94uUpdQxv8VR29IvtASoI=", "properties": {"@source_uri": "https://tools.usps.com/UspsToolsRestServices/rest/POLocator/findLocations", "@spider": "usps_collection_boxes", "addr:city": "JUANA DIAZ", "addr:country": "US", "addr:postcode": "00795", "addr:state": "PR", "addr:street_address": "72 CALLE EXT MUNOZ RIVERA", "amenity": "post_box", "collection_times": "Mo-Fr 16:15; Sa 12:15", "indoor": "yes", "note": "ON 12/24 AND 12/31, THIS BOX MAY BE COLLECTED AS EARLY AS 12 NOON.", "nsi_id": "unitedstatespostalservice-a77078", "operator": "United States Postal Service", "operator:short": "USPS", "operator:type": "public", "operator:wikidata": "Q668687", "ref": "0079500012"}, "type": "Feature"}
