{"geometry": {"coordinates": [-64.974439998, 18.354299997], "type": "Point"}, "id": "1sCjVvnyUT3rPwFNMno35z_RbMI=", "properties": {"@source_uri": "https://tools.usps.com/UspsToolsRestServices/rest/POLocator/findLocations", "@spider": "usps_collection_boxes", "addr:city": "ST THOMAS", "addr:country": "US", "addr:postcode": "00802", "addr:state": "VI", "addr:street_address": "6500 RED HOOK PLZ", "amenity": "post_box", "collection_times": "Mo-Sa 08:15", "nsi_id": "unitedstatespostalservice-a77078", "operator": "United States Postal Service", "operator:short": "USPS", "operator:type": "public", "operator:wikidata": "Q668687", "ref": "0080200009"}, "type": "Feature"}
{"geometry": {"coordinates": [-64.974439998, 18.354299997], "type": "Point"}, "id": "W5b3Q8qIulQOXrmHdegYR2J7XWA=", "properties": {"@source_uri": "https://tools.usps.com/UspsToolsRestServices/rest/POLocator/findLocations", "@spider": "usps_collection_boxes", "addr:city": "ST THOMAS", "addr:country": "US", "addr:postcode": "00802", "addr:state": "VI", "addr:street_address": "6500 RED HOOK PLZ", "amenity": "post_box", "collection_times": "Mo-Sa 08:15", "nsi_id": "unitedstatespostalservice-a77078", "operator": "United States Postal Service", "operator:short": "USPS", "operator:type": "public", "operator:wikidata": "Q668687", "ref": "0080200010"}, "type": "Feature"}
{"geometry": {"coordinates": [-64.9332588415, 18.3401332913], "type": "Point"}, "id": "-ysQBDafojzRKNXBNrhWNfIgyE0=", "properties": {"@source_uri": "https://tools.usps.com/UspsToolsRestServices/rest/POLocator/findLocations", "@spider": "usps_collection_boxes", "addr:city": "ST THOMAS", "addr:country": "US", "addr:postcode": "00802", "addr:state": "VI", "addr:street_address": "3000 VETERANS DR", "amenity": "post_box", "collection_times": "Mo-Fr 15:00; Sa 09:00", "note": "ON 12/24 AND 12/31, THIS BOX MAY BE COLLECTED AS EARLY AS 12 NOON.", "nsi_id": "unitedstatespostalservice-a77078", "operator": "United States Postal Service", "operator:short": "USPS", "operator:type": "public", "operator:wikidata": "Q668687", "ref": "0080200021"}, "type": "Feature"}
{"geometry": {"coordinates": [-64.974439998, 18.354299997], "type": "Point"}, "id": "jSIykxPQFdW4W0kbCXnnAwpkpb8=", "properties": {"@source_uri": "https://tools.usps.com/UspsToolsRestServices/rest/POLocator/findLocations", "@spider": "usps_collection_boxes", "addr:city": "ST THOMAS", "addr:country": "US", "addr:postcode": "00802", "addr:state": "VI", "addr:street_address": "9846 ESTATE THOMAS", "amenity": "post_box", "collection_times": "Mo-Fr 17:00; Sa 13:00", "note": "ON 12/24 AND 12/31, THIS BOX MAY BE COLLECTED AS EARLY AS 12 NOON.", "nsi_id": "unitedstatespostalservice-a77078", "operator": "United States Postal Service", "operator:short": "USPS", "operator:type": "public", "operator:wikidata": "Q668687", "ref": "0080200025"}, "type": "Feature"}
{"geometry": {"coordinates": [-64.974439998, 18.354299997], "type": "Point"}, "id": "0xVT6tgrEHJHxvU9G99pXxxzveE=", "properties": {"@source_uri": "https://tools.usps.com/UspsToolsRestServices/rest/POLocator/findLocations", "@spider": "usps_collection_boxes", "addr:city": "ST THOMAS", "addr:country": "US", "addr:postcode": "00802", "addr:state": "VI", "addr:street_address": "9846 ESTATE THOMAS", "amenity": "post_box", "collection_times": "Mo-Fr 17:00; Sa 13:00", "note": "ON 12/24 AND 12/31, THIS BOX MAY BE COLLECTED AS EARLY AS 12 NOON.", "nsi_id": "unitedstatespostalservice-a77078", "operator": "United States Postal Service", "operator:short": "USPS", "operator:type": "public", "operator:wikidata": "Q668687", "ref": "0080200027"}, "type": "Feature"}
{"geometry": {"coordinates": [-64.8841477842, 18.3323584273], "type": "Point"}, "id": "Cn4vc6cdHL_dqQJgwPIIYI9tjhA=", "properties": {"@source_uri": "https://tools.usps.com/UspsToolsRestServices/rest/POLocator/findLocations", "@spider": "usps_collection_boxes", "addr:city": "ST THOMAS", "addr:country": "US", "addr:postcode": "00802", "addr:state": "VI", "addr:street_address": "8100 LINDBERG BAY", "amenity": "post_box", "collection_times": "Mo-Sa 09:15", "nsi_id": "unitedstatespostalservice-a77078", "operator": "United States Postal Service", "operator:short": "USPS", "operator:type": "public", "operator:wikidata": "Q668687", "ref": "0080200033"}, "type": "Feature"}
{"geometry": {"coordinates": [-64.974439998, 18.354299997], "type": "Point"}, "id": "ftfMiFJLccMjEJsLSYn02uqLh5s=", "properties": {"@source_uri": "https://tools.usps.com/UspsToolsRestServices/rest/POLocator/findLocations", "@spider": "usps_collection_boxes", "addr:city": "ST THOMAS", "addr:country": "US", "addr:postcode": "00802", "addr:state": "VI", "addr:street_address": "9848 ESTATE THOMAS", "amenity": "post_box", "collection_times": "Mo-Sa 08:00", "nsi_id": "unitedstatespostalservice-a77078", "operator": "United States Postal Service", "operator:short": "USPS", "operator:type": "public", "operator:wikidata": "Q668687", "ref": "0080200037"}, "type": "Feature"}
{"geometry": {"coordinates": [-64.9339707799, 18.3425800941], "type": "Point"}, "id": "k2MU85_qLZxjoMNRHVvMlquJ79Y=", "properties": {"@source_uri": "https://tools.usps.com/UspsToolsRestServices/rest/POLocator/findLocations", "@spider": "usps_collection_boxes", "addr:city": "ST THOMAS", "addr:country": "US", "addr:postcode": "00802", "addr:state": "VI", "addr:street_address": "5046 NORRE GADE", "amenity": "post_box", "collection_times": "Mo-Fr 15:00; Sa 08:45", "note": "ON 12/24 AND 12/31, THIS BOX MAY BE COLLECTED AS EARLY AS 12 NOON.", "nsi_id": "unitedstatespostalservice-a77078", "operator": "United States Postal Service", "operator:short": "USPS", "operator:type": "public", "operator:wikidata": "Q668687", "ref": "0080200047"}, "type": "Feature"}
{"geometry": {"coordinates": [-64.9339707799, 18.3425800941], "type": "Point"}, "id": "kGz5-sb7Gwt58U0LA918YLTmZNM=", "properties": {"@source_uri": "https://tools.usps.com/UspsToolsRestServices/rest/POLocator/findLocations", "@spider": "usps_collection_boxes", "addr:city": "ST THOMAS", "addr:country": "US", "addr:postcode": "00802", "addr:state": "VI", "addr:street_address": "5046 NORRE GADE", "amenity": "post_box", "collection_times": "Mo-Fr 15:00; Sa 08:45", "note": "ON 12/24 AND 12/31, THIS BOX MAY BE COLLECTED AS EARLY AS 12 NOON.", "nsi_id": "unitedstatespostalservice-a77078", "operator": "United States Postal Service", "operator:short": "USPS", "operator:type": "public", "operator:wikidata": "Q668687", "ref": "0080200048"}, "type": "Feature"}
{"geometry": {"coordinates": [-64.9339707799, 18.3425800941], "type": "Point"}, "id": "qlSQlq3ttWu5uxI1_KxfzIGHNpw=", "properties": {"@source_uri": "https://tools.usps.com/UspsToolsRestServices/rest/POLocator/findLocations", "@spider": "usps_collection_boxes", "addr:city": "ST THOMAS", "addr:country": "US", "addr:postcode": "00802", "addr:state": "VI", "addr:street_address": "5046 NORRE GADE", "amenity": "post_box", "collection_times": "Mo-Fr 15:00; Sa 08:45", "note": "ON 12/24 AND 12/31, THIS BOX MAY BE COLLECTED AS EARLY AS 12 NOON.", "nsi_id": "unitedstatespostalservice-a77078", "operator": "United States Postal Service", "operator:short": "USPS", "operator:type": "public", "operator:wikidata": "Q668687", "ref": "0080200049"}, "type": "Feature"}
{"geometry": {"coordinates": [-64.974439998, 18.354299997], "type": "Point"}, "id": "U1_EX5TQg5eyQHIcwO-seDU8qIc=", "properties": {"@source_uri": "https://tools.usps.com/UspsToolsRestServices/rest/POLocator/findLocations", "@spider": "usps_collection_boxes", "addr:city": "ST THOMAS", "addr:country": "US", "addr:postcode": "00802", "addr:state": "VI", "addr:street_address": "4605 TUTU PARK MALL STE 179", "amenity": "post_box", "collection_times": "Mo-Fr 15:00; Sa 08:15", "note": "ON 12/24 AND 12/31, THIS BOX MAY BE COLLECTED AS EARLY AS 12 NOON.", "nsi_id": "unitedstatespostalservice-a77078", "operator": "United States Postal Service", "operator:short": "USPS", "operator:type": "public", "operator:wikidata": "Q668687", "ref": "0080200058"}, "type": "Feature"}
{"geometry": {"coordinates": [-64.88969, 18.33657], "type": "Point"}, "id": "WhH4ryfGv2y1XWNehwrw50ysauI=", "properties": {"@source_uri": "https://tools.usps.com/UspsToolsRestServices/rest/POLocator/findLocations", "@spider": "usps_collection_boxes", "addr:city": "ST THOMAS", "addr:country": "US", "addr:postcode": "00802", "addr:state": "VI", "addr:street_address": "4605 TUTU PARK MALL STE 179", "amenity": "post_box", "collection_times": "Mo-Fr 15:00; Sa 08:15", "note": "ON 12/24 AND 12/31, THIS BOX MAY BE COLLECTED AS EARLY AS 12 NOON.", "nsi_id": "unitedstatespostalservice-a77078", "operator": "United States Postal Service", "operator:short": "USPS", "operator:type": "public", "operator:wikidata": "Q668687", "ref": "0080200059"}, "type": "Feature"}
{"geometry": {"coordinates": [-64.9158476441, 18.3392725425], "type": "Point"}, "id": "3bZB-XhQEx5ol4Jh_QTPdLx_4sk=", "properties": {"@source_uri": "https://tools.usps.com/UspsToolsRestServices/rest/POLocator/findLocations", "@spider": "usps_collection_boxes", "addr:city": "ST THOMAS", "addr:country": "US", "addr:postcode": "00802", "addr:state": "VI", "addr:street_address": "8000 NISKY SHOPPING CTR STE 35", "amenity": "post_box", "collection_times": "Mo-Sa 09:15", "nsi_id": "unitedstatespostalservice-a77078", "operator": "United States Postal Service", "operator:short": "USPS", "operator:type": "public", "operator:wikidata": "Q668687", "ref": "0080200060"}, "type": "Feature"}
{"geometry": {"coordinates": [-64.974439998, 18.354299997], "type": "Point"}, "id": "pDxY2sdFGb7MfmW2bEyFQ_n_1FY=", "properties": {"@source_uri": "https://tools.usps.com/UspsToolsRestServices/rest/POLocator/findLocations", "@spider": "usps_collection_boxes", "addr:city": "ST THOMAS", "addr:country": "US", "addr:postcode": "00802", "addr:state": "VI", "addr:street_address": "9007 HAVENSIGHT SHOPP CTR STE D", "amenity": "post_box", "collection_times": "Mo-Fr 15:00; Sa 08:30", "note": "ON 12/24 AND 12/31, THIS BOX MAY BE COLLECTED AS EARLY AS 12 NOON.", "nsi_id": "unitedstatespostalservice-a77078", "operator": "United States Postal Service", "operator:short": "USPS", "operator:type": "public", "operator:wikidata": "Q668687", "ref": "0080200064"}, "type": "Feature"}
{"geometry": {"coordinates": [-64.974439998, 18.354299997], "type": "Point"}, "id": "VYLiR4QpE_y3KhSaWGMSxQVi_o0=", "properties": {"@source_uri": "https://tools.usps.com/UspsToolsRestServices/rest/POLocator/findLocations", "@spider": "usps_collection_boxes", "addr:city": "ST THOMAS", "addr:country": "US", "addr:postcode": "00802", "addr:state": "VI", "addr:street_address": "9007 HAVENSIGHT SHOPP CTR STE D", "amenity": "post_box", "collection_times": "Mo-Fr 15:00; Sa 08:30", "note": "ON 12/24 AND 12/31, THIS BOX MAY BE COLLECTED AS EARLY AS 12 NOON.", "nsi_id": "unitedstatespostalservice-a77078", "operator": "United States Postal Service", "operator:short": "USPS", "operator:type": "public", "operator:wikidata": "Q668687", "ref": "0080200065"}, "type": "Feature"}
{"geometry": {"coordinates": [-64.974439998, 18.354299997], "type": "Point"}, "id": "iR3sBL7E2xZVwTrkKci0lyKL-Ck=", "properties": {"@source_uri": "https://tools.usps.com/UspsToolsRestServices/rest/POLocator/findLocations", "@spider": "usps_collection_boxes", "addr:city": "ST THOMAS", "addr:country": "US", "addr:postcode": "00802", "addr:state": "VI", "addr:street_address": "4605 TUTU PARK MALL STE 179", "amenity": "post_box", "collection_times": "Mo-Fr 15:00; Sa 08:15", "indoor": "yes", "note": "ON 12/24 AND 12/31, THIS BOX MAY BE COLLECTED AS EARLY AS 12 NOON.", "nsi_id": "unitedstatespostalservice-a77078", "operator": "United States Postal Service", "operator:short": "USPS", "operator:type": "public", "operator:wikidata": "Q668687", "ref": "0080200068"}, "type": "Feature"}
{"geometry": {"coordinates": [-64.974439998, 18.354299997], "type": "Point"}, "id": "tfaLFe01wkm9rIj7s8GZvF3owzw=", "properties": {"@source_uri": "https://tools.usps.com/UspsToolsRestServices/rest/POLocator/findLocations", "@spider": "usps_collection_boxes", "addr:city": "ST THOMAS", "addr:country": "US", "addr:postcode": "00802", "addr:state": "VI", "addr:street_address": "9007 HAVENSIGHT SHOPP CTR STE D", "amenity": "post_box", "collection_times": "Mo-Fr 15:00; Sa 08:30", "indoor": "yes", "note": "ON 12/24 AND 12/31, THIS BOX MAY BE COLLECTED AS EARLY AS 12 NOON.", "nsi_id": "unitedstatespostalservice-a77078", "operator": "United States Postal Service", "operator:short": "USPS", "operator:type": "public", "operator:wikidata": "Q668687", "ref": "0080200069"}, "type": "Feature"}
{"geometry": {"coordinates": [-64.9339707799, 18.3425800941], "type": "Point"}, "id": "WGeHqJ9WlQNRK-W1V14RjpEB8-w=", "properties": {"@source_uri": "https://tools.usps.com/UspsToolsRestServices/rest/POLocator/findLocations", "@spider": "usps_collection_boxes", "addr:city": "ST THOMAS", "addr:country": "US", "addr:postcode": "00802", "addr:state": "VI", "addr:street_address": "5046 NORRE GADE", "amenity": "post_box", "collection_times": "Mo-Fr 15:00; Sa 08:45", "indoor": "yes", "note": "ON 12/24 AND 12/31, THIS BOX MAY BE COLLECTED AS EARLY AS 12 NOON.", "nsi_id": "unitedstatespostalservice-a77078", "operator": "United States Postal Service", "operator:short": "USPS", "operator:type": "public", "operator:wikidata": "Q668687", "ref": "0080200070"}, "type": "Feature"}
{"geometry": {"coordinates": [-64.974439998, 18.354299997], "type": "Point"}, "id": "4Vao_9bD4QHvu--KVKlCyK46Ojg=", "properties": {"@source_uri": "https://tools.usps.com/UspsToolsRestServices/rest/POLocator/findLocations", "@spider": "usps_collection_boxes", "addr:city": "ST THOMAS", "addr:country": "US", "addr:postcode": "00802", "addr:state": "VI", "addr:street_address": "9846 ESTATE THOMAS", "amenity": "post_box", "collection_times": "Mo-Fr 17:00; Sa 13:00", "indoor": "yes", "note": "ON 12/24 AND 12/31, THIS BOX MAY BE COLLECTED AS EARLY AS 12 NOON.", "nsi_id": "unitedstatespostalservice-a77078", "operator": "United States Postal Service", "operator:short": "USPS", "operator:type": "public", "operator:wikidata": "Q668687", "ref": "0080200071"}, "type": "Feature"}
{"geometry": {"coordinates": [-64.933258841, 18.340133291], "type": "Point"}, "id": "uhdkiPFCOCLoSvcdxaCDvQlQiJ0=", "properties": {"@source_uri": "https://tools.usps.com/UspsToolsRestServices/rest/POLocator/findLocations", "@spider": "usps_collection_boxes", "addr:city": "ST THOMAS", "addr:country": "US", "addr:postcode": "00802", "addr:state": "VI", "addr:street_address": "3000 VETERANS DR", "amenity": "post_box", "collection_times": "Mo-Fr 15:00; Sa 09:00", "indoor": "yes", "note": "ON 12/24 AND 12/31, THIS BOX MAY BE COLLECTED AS EARLY AS 12 NOON.", "nsi_id": "unitedstatespostalservice-a77078", "operator": "United States Postal Service", "operator:short": "USPS", "operator:type": "public", "operator:wikidata": "Q668687", "ref": "0080200072"}, "type": "Feature"}
{"geometry": {"coordinates": [-64.91616, 18.34012], "type": "Point"}, "id": "mwSs8a6HnH84p_byYeNPW4LqjJ0=", "properties": {"@source_uri": "https://tools.usps.com/UspsToolsRestServices/rest/POLocator/findLocations", "@spider": "usps_collection_boxes", "addr:city": "ST THOMAS", "addr:country": "US", "addr:postcode": "00802", "addr:state": "VI", "addr:street_address": "9846 ESTATE THOMAS", "amenity": "post_box", "collection_times": "Mo-Fr 17:15; Sa 12:15", "indoor": "yes", "note": "ON 12/24 AND 12/31, THIS BOX MAY BE COLLECTED AS EARLY AS 12 NOON.", "nsi_id": "unitedstatespostalservice-a77078", "operator": "United States Postal Service", "operator:short": "USPS", "operator:type": "public", "operator:wikidata": "Q668687", "ref": "0080200075"}, "type": "Feature"}
{"geometry": {"coordinates": [-64.93268, 18.34133], "type": "Point"}, "id": "pRV08G3ENX9bilYD_vlZnmWBg-8=", "properties": {"@source_uri": "https://tools.usps.com/UspsToolsRestServices/rest/POLocator/findLocations", "@spider": "usps_collection_boxes", "addr:city": "ST THOMAS", "addr:country": "US", "addr:postcode": "00802", "addr:state": "VI", "addr:street_address": "9007 HAVENSIGHT SHOPP CTR STE D", "amenity": "post_box", "collection_times": "Mo-Fr 16:30; Sa 13:00", "indoor": "yes", "note": "ON 12/24 AND 12/31, THIS BOX MAY BE COLLECTED AS EARLY AS 12 NOON.", "nsi_id": "unitedstatespostalservice-a77078", "operator": "United States Postal Service", "operator:short": "USPS", "operator:type": "public", "operator:wikidata": "Q668687", "ref": "0080200076"}, "type": "Feature"}
{"geometry": {"coordinates": [-64.93268, 18.34133], "type": "Point"}, "id": "5LWVEZmOx7xnEDmPQ1_a-uM2u5M=", "properties": {"@source_uri": "https://tools.usps.com/UspsToolsRestServices/rest/POLocator/findLocations", "@spider": "usps_collection_boxes", "addr:city": "ST THOMAS", "addr:country": "US", "addr:postcode": "00802", "addr:state": "VI", "addr:street_address": "4605 TUTU PARK MALL STE 179", "amenity": "post_box", "collection_times": "Mo-Fr 16:30; Sa 12:00", "indoor": "yes", "note": "ON 12/24 AND 12/31, THIS BOX MAY BE COLLECTED AS EARLY AS 12 NOON.", "nsi_id": "unitedstatespostalservice-a77078", "operator": "United States Postal Service", "operator:short": "USPS", "operator:type": "public", "operator:wikidata": "Q668687", "ref": "0080200077"}, "type": "Feature"}
{"geometry": {"coordinates": [-64.9339707799, 18.3425800941], "type": "Point"}, "id": "PupLjumI92hcrSP1qZxaHJNxKQE=", "properties": {"@source_uri": "https://tools.usps.com/UspsToolsRestServices/rest/POLocator/findLocations", "@spider": "usps_collection_boxes", "addr:city": "ST THOMAS", "addr:country": "US", "addr:postcode": "00802", "addr:state": "VI", "addr:street_address": "5046 NORRE GADE", "amenity": "post_box", "collection_times": "Mo-Fr 16:30; Sa 12:00", "indoor": "yes", "note": "ON 12/24 AND 12/31, THIS BOX MAY BE COLLECTED AS EARLY AS 12 NOON.", "nsi_id": "unitedstatespostalservice-a77078", "operator": "United States Postal Service", "operator:short": "USPS", "operator:type": "public", "operator:wikidata": "Q668687", "ref": "0080200078"}, "type": "Feature"}
{"geometry": {"coordinates": [-64.933258841, 18.340133291], "type": "Point"}, "id": "UdNPSurFWWJKgCY-LXqhs4jS3Ec=", "properties": {"@source_uri": "https://tools.usps.com/UspsToolsRestServices/rest/POLocator/findLocations", "@spider": "usps_collection_boxes", "addr:city": "ST THOMAS", "addr:country": "US", "addr:postcode": "00802", "addr:state": "VI", "addr:street_address": "3000 VETERANS DR", "amenity": "post_box", "collection_times": "Mo-Fr 16:30; Sa 12:00", "indoor": "yes", "note": "ON 12/24 AND 12/31, THIS BOX MAY BE COLLECTED AS EARLY AS 12 NOON.", "nsi_id": "unitedstatespostalservice-a77078", "operator": "United States Postal Service", "operator:short": "USPS", "operator:type": "public", "operator:wikidata": "Q668687", "ref": "0080200079"}, "type": "Feature"}
{"geometry": {"coordinates": [-64.7040282, 17.745081], "type": "Point"}, "id": "PLXwMvY_WbbsPKFAjKw4ykp31lk=", "properties": {"@source_uri": "https://tools.usps.com/UspsToolsRestServices/rest/POLocator/findLocations", "@spider": "usps_collection_boxes", "addr:city": "CHRISTIANSTED", "addr:country": "US", "addr:postcode": "00820", "addr:state": "VI", "addr:street_address": "2119 MARKET SQ", "amenity": "post_box", "collection_times": "Mo-Fr 15:00; Sa 08:00", "note": "ON 12/24 AND 12/31, THIS BOX MAY BE COLLECTED AS EARLY AS 12 NOON.", "nsi_id": "unitedstatespostalservice-a77078", "operator": "United States Postal Service", "operator:short": "USPS", "operator:type": "public", "operator:wikidata": "Q668687", "ref": "0082000003"}, "type": "Feature"}
{"geometry": {"coordinates": [-64.7126972, 17.743502], "type": "Point"}, "id": "upWcH-IjtcC2rZIhev6_aInqrDk=", "properties": {"@source_uri": "https://tools.usps.com/UspsToolsRestServices/rest/POLocator/findLocations", "@spider": "usps_collection_boxes", "addr:city": "CHRISTIANSTED", "addr:country": "US", "addr:postcode": "00820", "addr:state": "VI", "addr:street_address": "1104 ESTATE RICHMOND", "amenity": "post_box", "collection_times": "Mo-Fr 15:00; Sa 08:00", "note": "ON 12/24 AND 12/31, THIS BOX MAY BE COLLECTED AS EARLY AS 12 NOON.", "nsi_id": "unitedstatespostalservice-a77078", "operator": "United States Postal Service", "operator:short": "USPS", "operator:type": "public", "operator:wikidata": "Q668687", "ref": "0082000005"}, "type": "Feature"}
{"geometry": {"coordinates": [-64.6963281, 17.746261], "type": "Point"}, "id": "IxK7Iwwd1stQm7xLqeCIW2xhxnc=", "properties": {"@source_uri": "https://tools.usps.com/UspsToolsRestServices/rest/POLocator/findLocations", "@spider": "usps_collection_boxes", "addr:city": "CHRISTIANSTED", "addr:country": "US", "addr:postcode": "00820", "addr:state": "VI", "addr:street_address": "5027 ANCHOR WAY", "amenity": "post_box", "collection_times": "Mo-Fr 15:00; Sa 08:30", "note": "ON 12/24 AND 12/31, THIS BOX MAY BE COLLECTED AS EARLY AS 12 NOON.", "nsi_id": "unitedstatespostalservice-a77078", "operator": "United States Postal Service", "operator:short": "USPS", "operator:type": "public", "operator:wikidata": "Q668687", "ref": "0082000006"}, "type": "Feature"}
{"geometry": {"coordinates": [-64.7040862, 17.74601], "type": "Point"}, "id": "oeeBZ45s_KxEN5UFF5fZeJib5cA=", "properties": {"@source_uri": "https://tools.usps.com/UspsToolsRestServices/rest/POLocator/findLocations", "@spider": "usps_collection_boxes", "addr:city": "CHRISTIANSTED", "addr:country": "US", "addr:postcode": "00820", "addr:state": "VI", "addr:street_address": "1114 KING ST", "amenity": "post_box", "collection_times": "Mo-Sa 08:15", "nsi_id": "unitedstatespostalservice-a77078", "operator": "United States Postal Service", "operator:short": "USPS", "operator:type": "public", "operator:wikidata": "Q668687", "ref": "0082000012"}, "type": "Feature"}
{"geometry": {"coordinates": [-64.7045923, 17.74652], "type": "Point"}, "id": "lAlOzeEjn597qEnSKi40Pas3jG4=", "properties": {"@source_uri": "https://tools.usps.com/UspsToolsRestServices/rest/POLocator/findLocations", "@spider": "usps_collection_boxes", "addr:city": "CHRISTIANSTED", "addr:country": "US", "addr:postcode": "00820", "addr:state": "VI", "addr:street_address": "1104 STRAND ST", "amenity": "post_box", "collection_times": "Mo-Sa 08:15", "nsi_id": "unitedstatespostalservice-a77078", "operator": "United States Postal Service", "operator:short": "USPS", "operator:type": "public", "operator:wikidata": "Q668687", "ref": "0082000013"}, "type": "Feature"}
{"geometry": {"coordinates": [-64.7203249, 17.745171], "type": "Point"}, "id": "H0RghL5fftanBS5O3xokaHmbSoY=", "properties": {"@source_uri": "https://tools.usps.com/UspsToolsRestServices/rest/POLocator/findLocations", "@spider": "usps_collection_boxes", "addr:city": "CHRISTIANSTED", "addr:country": "US", "addr:postcode": "00820", "addr:state": "VI", "addr:street_address": "3000 ESTATE ORANGE GRV", "amenity": "post_box", "collection_times": "Mo-Sa 08:45", "nsi_id": "unitedstatespostalservice-a77078", "operator": "United States Postal Service", "operator:short": "USPS", "operator:type": "public", "operator:wikidata": "Q668687", "ref": "0082000018"}, "type": "Feature"}
{"geometry": {"coordinates": [-64.7477145, 17.728975], "type": "Point"}, "id": "gDYwwru5U1bbo5pw1hc0FnLgtY8=", "properties": {"@source_uri": "https://tools.usps.com/UspsToolsRestServices/rest/POLocator/findLocations", "@spider": "usps_collection_boxes", "addr:city": "CHRISTIANSTED", "addr:country": "US", "addr:postcode": "00820", "addr:state": "VI", "addr:street_address": "4500 SUNNY ISLE", "amenity": "post_box", "collection_times": "Mo-Sa 09:15", "nsi_id": "unitedstatespostalservice-a77078", "operator": "United States Postal Service", "operator:short": "USPS", "operator:type": "public", "operator:wikidata": "Q668687", "ref": "0082000022"}, "type": "Feature"}
{"geometry": {"coordinates": [-64.7521295, 17.733451], "type": "Point"}, "id": "igw2qVX9_jmcqivVo5KePzxNGmE=", "properties": {"@source_uri": "https://tools.usps.com/UspsToolsRestServices/rest/POLocator/findLocations", "@spider": "usps_collection_boxes", "addr:city": "CHRISTIANSTED", "addr:country": "US", "addr:postcode": "00820", "addr:state": "VI", "addr:street_address": "4007 ESTATE DIAMOND RUBY", "amenity": "post_box", "collection_times": "Mo-Sa 09:30", "nsi_id": "unitedstatespostalservice-a77078", "operator": "United States Postal Service", "operator:short": "USPS", "operator:type": "public", "operator:wikidata": "Q668687", "ref": "0082000026"}, "type": "Feature"}
{"geometry": {"coordinates": [-64.7405976, 17.730424], "type": "Point"}, "id": "62__1875dF1ZyYf6lRLzfZT1EW4=", "properties": {"@source_uri": "https://tools.usps.com/UspsToolsRestServices/rest/POLocator/findLocations", "@spider": "usps_collection_boxes", "addr:city": "CHRISTIANSTED", "addr:country": "US", "addr:postcode": "00820", "addr:state": "VI", "addr:street_address": "4200 UNITED SHOPP PLZ", "amenity": "post_box", "collection_times": "Mo-Sa 09:00", "nsi_id": "unitedstatespostalservice-a77078", "operator": "United States Postal Service", "operator:short": "USPS", "operator:type": "public", "operator:wikidata": "Q668687", "ref": "0082000031"}, "type": "Feature"}
{"geometry": {"coordinates": [-64.712576, 17.743409], "type": "Point"}, "id": "GNmgJ1lMeaSoayqAXQUcdTdkYpA=", "properties": {"@source_uri": "https://tools.usps.com/UspsToolsRestServices/rest/POLocator/findLocations", "@spider": "usps_collection_boxes", "addr:city": "CHRISTIANSTED", "addr:country": "US", "addr:postcode": "00820", "addr:state": "VI", "addr:street_address": "1104 ESTATE RICHMOND", "amenity": "post_box", "collection_times": "Mo-Fr 15:00; Sa 08:00", "indoor": "yes", "note": "ON 12/24 AND 12/31, THIS BOX MAY BE COLLECTED AS EARLY AS 12 NOON.", "nsi_id": "unitedstatespostalservice-a77078", "operator": "United States Postal Service", "operator:short": "USPS", "operator:type": "public", "operator:wikidata": "Q668687", "ref": "0082000040"}, "type": "Feature"}
{"geometry": {"coordinates": [-64.732359638, 17.7340530719], "type": "Point"}, "id": "jFr-iOvmEKSmNRYlxppVgPW8_-M=", "properties": {"@source_uri": "https://tools.usps.com/UspsToolsRestServices/rest/POLocator/findLocations", "@spider": "usps_collection_boxes", "addr:city": "CHRISTIANSTED", "addr:country": "US", "addr:postcode": "00820", "addr:state": "VI", "addr:street_address": "5027 ANCHOR WAY", "amenity": "post_box", "collection_times": "Mo-Fr 15:00", "indoor": "yes", "note": "ON 12/24 AND 12/31, THIS BOX MAY BE COLLECTED AS EARLY AS 12 NOON.", "nsi_id": "unitedstatespostalservice-a77078", "operator": "United States Postal Service", "operator:short": "USPS", "operator:type": "public", "operator:wikidata": "Q668687", "ref": "0082000041"}, "type": "Feature"}
{"geometry": {"coordinates": [-64.704180004, 17.746720008], "type": "Point"}, "id": "xrTlQpz-ZLMo-HF5ypFwefOGMpU=", "properties": {"@source_uri": "https://tools.usps.com/UspsToolsRestServices/rest/POLocator/findLocations", "@spider": "usps_collection_boxes", "addr:city": "CHRISTIANSTED", "addr:country": "US", "addr:postcode": "00820", "addr:state": "VI", "addr:street_address": "2119 MARKET SQ", "amenity": "post_box", "collection_times": "Mo-Fr 15:00", "indoor": "yes", "note": "ON 12/24 AND 12/31, THIS BOX MAY BE COLLECTED AS EARLY AS 12 NOON.", "nsi_id": "unitedstatespostalservice-a77078", "operator": "United States Postal Service", "operator:short": "USPS", "operator:type": "public", "operator:wikidata": "Q668687", "ref": "0082000042"}, "type": "Feature"}
{"geometry": {"coordinates": [-64.748384, 17.72972], "type": "Point"}, "id": "-WwgDPrCQpsx7t5bWe3m05mqRZE=", "properties": {"@source_uri": "https://tools.usps.com/UspsToolsRestServices/rest/POLocator/findLocations", "@spider": "usps_collection_boxes", "addr:city": "CHRISTIANSTED", "addr:country": "US", "addr:postcode": "00820", "addr:state": "VI", "addr:street_address": "4500 SUNNY ISLE STE 53", "amenity": "post_box", "collection_times": "Mo-Fr 15:00; Sa 09:15", "indoor": "yes", "note": "ON 12/24 AND 12/31, THIS BOX MAY BE COLLECTED AS EARLY AS 12 NOON.", "nsi_id": "unitedstatespostalservice-a77078", "operator": "United States Postal Service", "operator:short": "USPS", "operator:type": "public", "operator:wikidata": "Q668687", "ref": "0082000043"}, "type": "Feature"}
{"geometry": {"coordinates": [-64.7023208, 17.7435673], "type": "Point"}, "id": "VGzf-B4alcosBuZeRYkjZR3Pf3E=", "properties": {"@source_uri": "https://tools.usps.com/UspsToolsRestServices/rest/POLocator/findLocations", "@spider": "usps_collection_boxes", "addr:city": "CHRISTIANSTED", "addr:country": "US", "addr:postcode": "00820", "addr:state": "VI", "addr:street_address": "1104 ESTATE RICHMOND", "amenity": "post_box", "collection_times": "Mo-Fr 17:00; Sa 12:00", "indoor": "yes", "note": "ON 12/24 AND 12/31, THIS BOX MAY BE COLLECTED AS EARLY AS 12 NOON.", "nsi_id": "unitedstatespostalservice-a77078", "operator": "United States Postal Service", "operator:short": "USPS", "operator:type": "public", "operator:wikidata": "Q668687", "ref": "0082000044"}, "type": "Feature"}
{"geometry": {"coordinates": [-64.706574495, 17.743511615], "type": "Point"}, "id": "_rAg3_EUBgkMks0NDpVpwE-0H_4=", "properties": {"@source_uri": "https://tools.usps.com/UspsToolsRestServices/rest/POLocator/findLocations", "@spider": "usps_collection_boxes", "addr:city": "CHRISTIANSTED", "addr:country": "US", "addr:postcode": "00820", "addr:state": "VI", "addr:street_address": "2119 MARKET SQ", "amenity": "post_box", "collection_times": "Mo-Fr 16:30", "indoor": "yes", "note": "ON 12/24 AND 12/31, THIS BOX MAY BE COLLECTED AS EARLY AS 12 NOON.", "nsi_id": "unitedstatespostalservice-a77078", "operator": "United States Postal Service", "operator:short": "USPS", "operator:type": "public", "operator:wikidata": "Q668687", "ref": "0082000045"}, "type": "Feature"}
{"geometry": {"coordinates": [-64.696439603, 17.746212079], "type": "Point"}, "id": "R-ISGK8gD_OSBm18YmCn0n0FXpg=", "properties": {"@source_uri": "https://tools.usps.com/UspsToolsRestServices/rest/POLocator/findLocations", "@spider": "usps_collection_boxes", "addr:city": "CHRISTIANSTED", "addr:country": "US", "addr:postcode": "00820", "addr:state": "VI", "addr:street_address": "5027 ANCHOR WAY", "amenity": "post_box", "collection_times": "Mo-Fr 16:30", "indoor": "yes", "note": "ON 12/24 AND 12/31, THIS BOX MAY BE COLLECTED AS EARLY AS 12 NOON.", "nsi_id": "unitedstatespostalservice-a77078", "operator": "United States Postal Service", "operator:short": "USPS", "operator:type": "public", "operator:wikidata": "Q668687", "ref": "0082000046"}, "type": "Feature"}
{"geometry": {"coordinates": [-64.7023208, 17.7435673], "type": "Point"}, "id": "GFZiXMesrUhWlkqWLK4kbxwiA9Q=", "properties": {"@source_uri": "https://tools.usps.com/UspsToolsRestServices/rest/POLocator/findLocations", "@spider": "usps_collection_boxes", "addr:city": "CHRISTIANSTED", "addr:country": "US", "addr:postcode": "00820", "addr:state": "VI", "addr:street_address": "4500 SUNNY ISLE STE 53", "amenity": "post_box", "collection_times": "Mo-Fr 17:00; Sa 12:00", "indoor": "yes", "note": "ON 12/24 AND 12/31, THIS BOX MAY BE COLLECTED AS EARLY AS 12 NOON.", "nsi_id": "unitedstatespostalservice-a77078", "operator": "United States Postal Service", "operator:short": "USPS", "operator:type": "public", "operator:wikidata": "Q668687", "ref": "0082000047"}, "type": "Feature"}
{"geometry": {"coordinates": [-64.7937805715, 18.3316822428], "type": "Point"}, "id": "RN1Z-FGojezSfo5zfZ9JTwe4jhA=", "properties": {"@source_uri": "https://tools.usps.com/UspsToolsRestServices/rest/POLocator/findLocations", "@spider": "usps_collection_boxes", "addr:city": "ST JOHN", "addr:country": "US", "addr:postcode": "00830", "addr:state": "VI", "addr:street_address": "100 VESTER GADE", "amenity": "post_box", "collection_times": "Mo-Fr 15:00; Sa 08:00", "note": "ON 12/24 AND 12/31, THIS BOX MAY BE COLLECTED AS EARLY AS 12 NOON.", "nsi_id": "unitedstatespostalservice-a77078", "operator": "United States Postal Service", "operator:short": "USPS", "operator:type": "public", "operator:wikidata": "Q668687", "ref": "0083000002"}, "type": "Feature"}
{"geometry": {"coordinates": [-64.7371675747, 18.3384564366], "type": "Point"}, "id": "K7zFFoIirUj_8v_88ZNILUq6nSc=", "properties": {"@source_uri": "https://tools.usps.com/UspsToolsRestServices/rest/POLocator/findLocations", "@spider": "usps_collection_boxes", "addr:city": "ST JOHN", "addr:country": "US", "addr:postcode": "00830", "addr:state": "VI", "addr:street_address": "100 VESTER GADE", "amenity": "post_box", "collection_times": "Mo-Fr 15:00; Sa 08:00", "indoor": "yes", "note": "ON 12/24 AND 12/31, THIS BOX MAY BE COLLECTED AS EARLY AS 12 NOON.", "nsi_id": "unitedstatespostalservice-a77078", "operator": "United States Postal Service", "operator:short": "USPS", "operator:type": "public", "operator:wikidata": "Q668687", "ref": "0083000004"}, "type": "Feature"}
{"geometry": {"coordinates": [-64.79424, 18.33113], "type": "Point"}, "id": "V2KvxtBKvKCsIeJZ1ze3nbPQaFQ=", "properties": {"@source_uri": "https://tools.usps.com/UspsToolsRestServices/rest/POLocator/findLocations", "@spider": "usps_collection_boxes", "addr:city": "ST JOHN", "addr:country": "US", "addr:postcode": "00830", "addr:state": "VI", "addr:street_address": "100 VESTER GADE", "amenity": "post_box", "collection_times": "Mo-Fr 16:00; Sa 12:00", "indoor": "yes", "note": "ON 12/24 AND 12/31, THIS BOX MAY BE COLLECTED AS EARLY AS 12 NOON.", "nsi_id": "unitedstatespostalservice-a77078", "operator": "United States Postal Service", "operator:short": "USPS", "operator:type": "public", "operator:wikidata": "Q668687", "ref": "0083000005"}, "type": "Feature"}
{"geometry": {"coordinates": [-64.882185, 17.71228], "type": "Point"}, "id": "j86djPUDjPSFpw1yPjlfUyG2SQ4=", "properties": {"@source_uri": "https://tools.usps.com/UspsToolsRestServices/rest/POLocator/findLocations", "@spider": "usps_collection_boxes", "addr:city": "FREDERIKSTED", "addr:country": "US", "addr:postcode": "00840", "addr:state": "VI", "addr:street_address": "228 STRAND ST", "amenity": "post_box", "collection_times": "Mo-Sa 08:00", "nsi_id": "unitedstatespostalservice-a77078", "operator": "United States Postal Service", "operator:short": "USPS", "operator:type": "public", "operator:wikidata": "Q668687", "ref": "0084000002"}, "type": "Feature"}
{"geometry": {"coordinates": [-64.8831146, 17.7092302], "type": "Point"}, "id": "GoIEKTw3LYlt_993fdbVtz2zCK8=", "properties": {"@source_uri": "https://tools.usps.com/UspsToolsRestServices/rest/POLocator/findLocations", "@spider": "usps_collection_boxes", "addr:city": "FREDERIKSTED", "addr:country": "US", "addr:postcode": "00840", "addr:state": "VI", "addr:street_address": "1 MARS HL", "amenity": "post_box", "collection_times": "Mo-Fr 15:00; Sa 08:15", "note": "ON 12/24 AND 12/31, THIS BOX MAY BE COLLECTED AS EARLY AS 12 NOON.", "nsi_id": "unitedstatespostalservice-a77078", "operator": "United States Postal Service", "operator:short": "USPS", "operator:type": "public", "operator:wikidata": "Q668687", "ref": "0084000004"}, "type": "Feature"}
{"geometry": {"coordinates": [-64.882185, 17.71228], "type": "Point"}, "id": "YCphAUsgXRLzyhKi0E33pMRVEzs=", "properties": {"@source_uri": "https://tools.usps.com/UspsToolsRestServices/rest/POLocator/findLocations", "@spider": "usps_collection_boxes", "addr:city": "FREDERIKSTED", "addr:country": "US", "addr:postcode": "00840", "addr:state": "VI", "addr:street_address": "228 STRAND ST", "amenity": "post_box", "collection_times": "Mo-Sa 08:00", "nsi_id": "unitedstatespostalservice-a77078", "operator": "United States Postal Service", "operator:short": "USPS", "operator:type": "public", "operator:wikidata": "Q668687", "ref": "0084000010"}, "type": "Feature"}
{"geometry": {"coordinates": [-64.8426268, 17.706968], "type": "Point"}, "id": "k4ZTLnfGxCQqEDT4qqs0v4EO4e0=", "properties": {"@source_uri": "https://tools.usps.com/UspsToolsRestServices/rest/POLocator/findLocations", "@spider": "usps_collection_boxes", "addr:city": "FREDERIKSTED", "addr:country": "US", "addr:postcode": "00840", "addr:state": "VI", "addr:street_address": "1 ESTATE CANE", "amenity": "post_box", "collection_times": "Mo-Sa 08:00", "nsi_id": "unitedstatespostalservice-a77078", "operator": "United States Postal Service", "operator:short": "USPS", "operator:type": "public", "operator:wikidata": "Q668687", "ref": "0084000016"}, "type": "Feature"}
{"geometry": {"coordinates": [-64.8831146, 17.7092302], "type": "Point"}, "id": "GwU_PNzhXEJxoD_Ll7SHCHZiwVU=", "properties": {"@source_uri": "https://tools.usps.com/UspsToolsRestServices/rest/POLocator/findLocations", "@spider": "usps_collection_boxes", "addr:city": "FREDERIKSTED", "addr:country": "US", "addr:postcode": "00840", "addr:state": "VI", "addr:street_address": "1 MARS HL", "amenity": "post_box", "collection_times": "Mo-Fr 15:00; Sa 08:15", "indoor": "yes", "note": "ON 12/24 AND 12/31, THIS BOX MAY BE COLLECTED AS EARLY AS 12 NOON.", "nsi_id": "unitedstatespostalservice-a77078", "operator": "United States Postal Service", "operator:short": "USPS", "operator:type": "public", "operator:wikidata": "Q668687", "ref": "0084000020"}, "type": "Feature"}
{"geometry": {"coordinates": [-64.8830497, 17.7110187], "type": "Point"}, "id": "_6nbbzpzUuGnPtjHs7SM1IVqr8k=", "properties": {"@source_uri": "https://tools.usps.com/UspsToolsRestServices/rest/POLocator/findLocations", "@spider": "usps_collection_boxes", "addr:city": "FREDERIKSTED", "addr:country": "US", "addr:postcode": "00840", "addr:state": "VI", "addr:street_address": "1 MARS HL", "amenity": "post_box", "collection_times": "Mo-Fr 16:30; Sa 12:00", "indoor": "yes", "note": "ON 12/24 AND 12/31, THIS BOX MAY BE COLLECTED AS EARLY AS 12 NOON.", "nsi_id": "unitedstatespostalservice-a77078", "operator": "United States Postal Service", "operator:short": "USPS", "operator:type": "public", "operator:wikidata": "Q668687", "ref": "0084000021"}, "type": "Feature"}
{"geometry": {"coordinates": [-64.7971443, 17.698948], "type": "Point"}, "id": "8HbAOn6zV72aCLTtAiY50Fbd0k0=", "properties": {"@source_uri": "https://tools.usps.com/UspsToolsRestServices/rest/POLocator/findLocations", "@spider": "usps_collection_boxes", "addr:city": "KINGSHILL", "addr:country": "US", "addr:postcode": "00850", "addr:state": "VI", "addr:street_address": "RR 1 BOX 9914", "amenity": "post_box", "collection_times": "Mo-Sa 08:15", "nsi_id": "unitedstatespostalservice-a77078", "operator": "United States Postal Service", "operator:short": "USPS", "operator:type": "public", "operator:wikidata": "Q668687", "ref": "0085000001"}, "type": "Feature"}
{"geometry": {"coordinates": [-64.7751219, 17.733114], "type": "Point"}, "id": "WKTY74l8nyBNxqOZatjunPGsxls=", "properties": {"@source_uri": "https://tools.usps.com/UspsToolsRestServices/rest/POLocator/findLocations", "@spider": "usps_collection_boxes", "addr:city": "KINGSHILL", "addr:country": "US", "addr:postcode": "00850", "addr:state": "VI", "addr:street_address": "2 EST LA REINE", "amenity": "post_box", "collection_times": "Mo-Fr 17:00; Sa 13:00", "note": "ON 12/24 AND 12/31, THIS BOX MAY BE COLLECTED AS EARLY AS 12 NOON.", "nsi_id": "unitedstatespostalservice-a77078", "operator": "United States Postal Service", "operator:short": "USPS", "operator:type": "public", "operator:wikidata": "Q668687", "ref": "0085000004"}, "type": "Feature"}
{"geometry": {"coordinates": [-64.7926189431, 17.7339524462], "type": "Point"}, "id": "FYuYKBZiPkqczoP0cyC_3VxMj-Q=", "properties": {"@source_uri": "https://tools.usps.com/UspsToolsRestServices/rest/POLocator/findLocations", "@spider": "usps_collection_boxes", "addr:city": "KINGSHILL", "addr:country": "US", "addr:postcode": "00850", "addr:state": "VI", "addr:street_address": "2 EST LA REINE", "amenity": "post_box", "collection_times": "Mo-Fr 17:00; Sa 13:00", "indoor": "yes", "note": "ON 12/24 AND 12/31, THIS BOX MAY BE COLLECTED AS EARLY AS 12 NOON.", "nsi_id": "unitedstatespostalservice-a77078", "operator": "United States Postal Service", "operator:short": "USPS", "operator:type": "public", "operator:wikidata": "Q668687", "ref": "0085000010"}, "type": "Feature"}
{"geometry": {"coordinates": [-64.788845, 17.738767107], "type": "Point"}, "id": "QPbkjv4L9cidBijqjnvx8o5m-UE=", "properties": {"@source_uri": "https://tools.usps.com/UspsToolsRestServices/rest/POLocator/findLocations", "@spider": "usps_collection_boxes", "addr:city": "KINGSHILL", "addr:country": "US", "addr:postcode": "00850", "addr:state": "VI", "addr:street_address": "2 EST LA REINE", "amenity": "post_box", "collection_times": "Mo-Fr 17:15; Sa 12:15", "indoor": "yes", "note": "ON 12/24 AND 12/31, THIS BOX MAY BE COLLECTED AS EARLY AS 12 NOON.", "nsi_id": "unitedstatespostalservice-a77078", "operator": "United States Postal Service", "operator:short": "USPS", "operator:type": "public", "operator:wikidata": "Q668687", "ref": "0085000011"}, "type": "Feature"}
