{"geometry": {"coordinates": [-66.11506, 18.466505], "type": "Point"}, "id": "WVr5td2XOATvfvmJQXb4D1PUBys=", "properties": {"@source_uri": "https://tools.usps.com/UspsToolsRestServices/rest/POLocator/findLocations", "@spider": "usps_collection_boxes", "addr:city": "SAN JUAN", "addr:country": "US", "addr:postcode": "00901", "addr:state": "PR", "addr:street_address": "150 AVE DE LA CONSTITUCION", "amenity": "post_box", "collection_times": "Mo-Sa 09:30", "nsi_id": "unitedstatespostalservice-a77078", "operator": "United States Postal Service", "operator:short": "USPS", "operator:type": "public", "operator:wikidata": "Q668687", "ref": "0090100009"}, "type": "Feature"}
{"geometry": {"coordinates": [-66.11506, 18.466505], "type": "Point"}, "id": "32MGGtb4Prw9I26VilqHPsArhk0=", "properties": {"@source_uri": "https://tools.usps.com/UspsToolsRestServices/rest/POLocator/findLocations", "@spider": "usps_collection_boxes", "addr:city": "SAN JUAN", "addr:country": "US", "addr:postcode": "00901", "addr:state": "PR", "addr:street_address": "100 PASEO DE COLON", "amenity": "post_box", "collection_times": "Mo-Fr 16:30; Sa 15:00", "note": "ON 12/24 AND 12/31, THIS BOX MAY BE COLLECTED AS EARLY AS 12 NOON.", "nsi_id": "unitedstatespostalservice-a77078", "operator": "United States Postal Service", "operator:short": "USPS", "operator:type": "public", "operator:wikidata": "Q668687", "ref": "0090100014"}, "type": "Feature"}
{"geometry": {"coordinates": [-66.11506, 18.466505], "type": "Point"}, "id": "PbX2N4zdBZ5FZGpBP1Pp7pRD-rw=", "properties": {"@source_uri": "https://tools.usps.com/UspsToolsRestServices/rest/POLocator/findLocations", "@spider": "usps_collection_boxes", "addr:city": "SAN JUAN", "addr:country": "US", "addr:postcode": "00901", "addr:state": "PR", "addr:street_address": "450 AVE DE LA CONSTITUCION", "amenity": "post_box", "collection_times": "Mo-Sa 12:00", "nsi_id": "unitedstatespostalservice-a77078", "operator": "United States Postal Service", "operator:short": "USPS", "operator:type": "public", "operator:wikidata": "Q668687", "ref": "0090100023"}, "type": "Feature"}
{"geometry": {"coordinates": [-66.11506, 18.466505], "type": "Point"}, "id": "LOlEPqC9oaFj_5kc1j03XwPg6Gs=", "properties": {"@source_uri": "https://tools.usps.com/UspsToolsRestServices/rest/POLocator/findLocations", "@spider": "usps_collection_boxes", "addr:city": "SAN JUAN", "addr:country": "US", "addr:postcode": "00901", "addr:state": "PR", "addr:street_address": "15 AVE DE LA CONSTITUCION", "amenity": "post_box", "collection_times": "Mo-Sa 09:30", "nsi_id": "unitedstatespostalservice-a77078", "operator": "United States Postal Service", "operator:short": "USPS", "operator:type": "public", "operator:wikidata": "Q668687", "ref": "0090100025"}, "type": "Feature"}
{"geometry": {"coordinates": [-66.11506, 18.466505], "type": "Point"}, "id": "Afg9fA62NZV1ZmCJJr4Mg5ZzmFQ=", "properties": {"@source_uri": "https://tools.usps.com/UspsToolsRestServices/rest/POLocator/findLocations", "@spider": "usps_collection_boxes", "addr:city": "SAN JUAN", "addr:country": "US", "addr:postcode": "00901", "addr:state": "PR", "addr:street_address": "4 CALLE LA PUNTILLA", "amenity": "post_box", "collection_times": "Mo-Sa 09:30", "nsi_id": "unitedstatespostalservice-a77078", "operator": "United States Postal Service", "operator:short": "USPS", "operator:type": "public", "operator:wikidata": "Q668687", "ref": "0090100028"}, "type": "Feature"}
{"geometry": {"coordinates": [-66.11506, 18.466505], "type": "Point"}, "id": "vJSKvEZ-Wo-SUJguJixnEZGPFLc=", "properties": {"@source_uri": "https://tools.usps.com/UspsToolsRestServices/rest/POLocator/findLocations", "@spider": "usps_collection_boxes", "addr:city": "SAN JUAN", "addr:country": "US", "addr:postcode": "00901", "addr:state": "PR", "addr:street_address": "11 AVE DE LA CONSTITUCION", "amenity": "post_box", "collection_times": "Mo-Sa 09:30", "nsi_id": "unitedstatespostalservice-a77078", "operator": "United States Postal Service", "operator:short": "USPS", "operator:type": "public", "operator:wikidata": "Q668687", "ref": "0090100031"}, "type": "Feature"}
{"geometry": {"coordinates": [-66.11506, 18.466505], "type": "Point"}, "id": "T1bL3ppn9Bc_rLCIxtpHHJtmRMg=", "properties": {"@source_uri": "https://tools.usps.com/UspsToolsRestServices/rest/POLocator/findLocations", "@spider": "usps_collection_boxes", "addr:city": "SAN JUAN", "addr:country": "US", "addr:postcode": "00901", "addr:state": "PR", "addr:street_address": "306 AVE DE LA CONSTITUCION", "amenity": "post_box", "collection_times": "Mo-Sa 10:30", "nsi_id": "unitedstatespostalservice-a77078", "operator": "United States Postal Service", "operator:short": "USPS", "operator:type": "public", "operator:wikidata": "Q668687", "ref": "0090100032"}, "type": "Feature"}
{"geometry": {"coordinates": [-66.11506, 18.466505], "type": "Point"}, "id": "r0imdOzxGEDPzqMrY16I-Za3UWM=", "properties": {"@source_uri": "https://tools.usps.com/UspsToolsRestServices/rest/POLocator/findLocations", "@spider": "usps_collection_boxes", "addr:city": "SAN JUAN", "addr:country": "US", "addr:postcode": "00901", "addr:state": "PR", "addr:street_address": "153 CALLE DE LA FORTALEZA", "amenity": "post_box", "collection_times": "Mo-Sa 12:00", "nsi_id": "unitedstatespostalservice-a77078", "operator": "United States Postal Service", "operator:short": "USPS", "operator:type": "public", "operator:wikidata": "Q668687", "ref": "0090100033"}, "type": "Feature"}
{"geometry": {"coordinates": [-66.112816144, 18.463975502], "type": "Point"}, "id": "pQQ3H3aQJvCLvamH_Jjh4eHa1Ug=", "properties": {"@source_uri": "https://tools.usps.com/UspsToolsRestServices/rest/POLocator/findLocations", "@spider": "usps_collection_boxes", "addr:city": "SAN JUAN", "addr:country": "US", "addr:postcode": "00901", "addr:state": "PR", "addr:street_address": "100 PASEO DE COLON", "amenity": "post_box", "collection_times": "Mo-Fr 17:00; Sa 14:00", "indoor": "yes", "note": "ON 12/24 AND 12/31, THIS BOX MAY BE COLLECTED AS EARLY AS 12 NOON.", "nsi_id": "unitedstatespostalservice-a77078", "operator": "United States Postal Service", "operator:short": "USPS", "operator:type": "public", "operator:wikidata": "Q668687", "ref": "0090100036"}, "type": "Feature"}
{"geometry": {"coordinates": [-66.112816144, 18.463975502], "type": "Point"}, "id": "X0Ua3HFN6KaCayrLfDZls_FmoKM=", "properties": {"@source_uri": "https://tools.usps.com/UspsToolsRestServices/rest/POLocator/findLocations", "@spider": "usps_collection_boxes", "addr:city": "SAN JUAN", "addr:country": "US", "addr:postcode": "00901", "addr:state": "PR", "addr:street_address": "100 PASEO DE COLON", "amenity": "post_box", "collection_times": "Mo-Fr 16:30; Sa 12:30", "indoor": "yes", "note": "ON 12/24 AND 12/31, THIS BOX MAY BE COLLECTED AS EARLY AS 12 NOON.", "nsi_id": "unitedstatespostalservice-a77078", "operator": "United States Postal Service", "operator:short": "USPS", "operator:type": "public", "operator:wikidata": "Q668687", "ref": "0090100037"}, "type": "Feature"}
{"geometry": {"coordinates": [-66.0659631, 18.45481], "type": "Point"}, "id": "nLwfsPyMh_66OiJ480f_nzICnjA=", "properties": {"@source_uri": "https://tools.usps.com/UspsToolsRestServices/rest/POLocator/findLocations", "@spider": "usps_collection_boxes", "addr:city": "SAN JUAN", "addr:country": "US", "addr:postcode": "00907", "addr:state": "PR", "addr:street_address": "29 CALLE WASHINGTON", "amenity": "post_box", "collection_times": "Mo-Sa 10:30", "nsi_id": "unitedstatespostalservice-a77078", "operator": "United States Postal Service", "operator:short": "USPS", "operator:type": "public", "operator:wikidata": "Q668687", "ref": "0090700053"}, "type": "Feature"}
{"geometry": {"coordinates": [-66.0724194, 18.455186], "type": "Point"}, "id": "NvzHpIuMymHp8TbWVxCvy8whxGU=", "properties": {"@source_uri": "https://tools.usps.com/UspsToolsRestServices/rest/POLocator/findLocations", "@spider": "usps_collection_boxes", "addr:city": "SAN JUAN", "addr:country": "US", "addr:postcode": "00907", "addr:state": "PR", "addr:street_address": "1160 AVE MAGDALENA", "amenity": "post_box", "collection_times": "Mo-Sa 11:00", "nsi_id": "unitedstatespostalservice-a77078", "operator": "United States Postal Service", "operator:short": "USPS", "operator:type": "public", "operator:wikidata": "Q668687", "ref": "0090700060"}, "type": "Feature"}
{"geometry": {"coordinates": [-66.0752875691, 18.4514156081], "type": "Point"}, "id": "ZswVIqdv1Zm9HCkHf-digth1Ywo=", "properties": {"@source_uri": "https://tools.usps.com/UspsToolsRestServices/rest/POLocator/findLocations", "@spider": "usps_collection_boxes", "addr:city": "SAN JUAN", "addr:country": "US", "addr:postcode": "00907", "addr:state": "PR", "addr:street_address": "1155 AVE PONCE DE LEON", "amenity": "post_box", "collection_times": "Mo-Sa 10:30", "nsi_id": "unitedstatespostalservice-a77078", "operator": "United States Postal Service", "operator:short": "USPS", "operator:type": "public", "operator:wikidata": "Q668687", "ref": "0090700067"}, "type": "Feature"}
{"geometry": {"coordinates": [-66.083072543, 18.455054155], "type": "Point"}, "id": "uzPDXNrNhFOKo6bluKgpRJSxm60=", "properties": {"@source_uri": "https://tools.usps.com/UspsToolsRestServices/rest/POLocator/findLocations", "@spider": "usps_collection_boxes", "addr:city": "SAN JUAN", "addr:country": "US", "addr:postcode": "00907", "addr:state": "PR", "addr:street_address": "800 AVE PONCE DE LEON STE A", "amenity": "post_box", "collection_times": "Mo-Fr 17:00; Sa 12:30", "indoor": "yes", "note": "ON 12/24 AND 12/31, THIS BOX MAY BE COLLECTED AS EARLY AS 12 NOON.", "nsi_id": "unitedstatespostalservice-a77078", "operator": "United States Postal Service", "operator:short": "USPS", "operator:type": "public", "operator:wikidata": "Q668687", "ref": "0090700068"}, "type": "Feature"}
{"geometry": {"coordinates": [-66.0604906, 18.439281], "type": "Point"}, "id": "yG2K4KuEX_WeSIOjzMsUe7c7Y4E=", "properties": {"@source_uri": "https://tools.usps.com/UspsToolsRestServices/rest/POLocator/findLocations", "@spider": "usps_collection_boxes", "addr:city": "SAN JUAN", "addr:country": "US", "addr:postcode": "00909", "addr:state": "PR", "addr:street_address": "1857 AVE PONCE DE LEON", "amenity": "post_box", "collection_times": "Mo-Sa 09:30", "nsi_id": "unitedstatespostalservice-a77078", "operator": "United States Postal Service", "operator:short": "USPS", "operator:type": "public", "operator:wikidata": "Q668687", "ref": "0090900024"}, "type": "Feature"}
{"geometry": {"coordinates": [-66.0826267, 18.455647], "type": "Point"}, "id": "X-7USYIXNVV4dB0KBw6nUR6-Wjw=", "properties": {"@source_uri": "https://tools.usps.com/UspsToolsRestServices/rest/POLocator/findLocations", "@spider": "usps_collection_boxes", "addr:city": "SAN JUAN", "addr:country": "US", "addr:postcode": "00909", "addr:state": "PR", "addr:street_address": "705 AVE PONCE DE LEON", "amenity": "post_box", "collection_times": "Mo-Sa 13:30", "note": "ON 12/24 AND 12/31, THIS BOX MAY BE COLLECTED AS EARLY AS 12 NOON.", "nsi_id": "unitedstatespostalservice-a77078", "operator": "United States Postal Service", "operator:short": "USPS", "operator:type": "public", "operator:wikidata": "Q668687", "ref": "0090900030"}, "type": "Feature"}
{"geometry": {"coordinates": [-66.0662736, 18.44441], "type": "Point"}, "id": "ix9_eRxoZNwNhvOjJoUvyUOoY7w=", "properties": {"@source_uri": "https://tools.usps.com/UspsToolsRestServices/rest/POLocator/findLocations", "@spider": "usps_collection_boxes", "addr:city": "SAN JUAN", "addr:country": "US", "addr:postcode": "00909", "addr:state": "PR", "addr:street_address": "1605 AVE PONCE DE LEON", "amenity": "post_box", "collection_times": "Mo-Sa 11:00", "nsi_id": "unitedstatespostalservice-a77078", "operator": "United States Postal Service", "operator:short": "USPS", "operator:type": "public", "operator:wikidata": "Q668687", "ref": "0090900040"}, "type": "Feature"}
{"geometry": {"coordinates": [-66.069578388, 18.444288071], "type": "Point"}, "id": "HOqpO_p18xpOOcatLYEuP5vX8rg=", "properties": {"@source_uri": "https://tools.usps.com/UspsToolsRestServices/rest/POLocator/findLocations", "@spider": "usps_collection_boxes", "addr:city": "SAN JUAN", "addr:country": "US", "addr:postcode": "00909", "addr:state": "PR", "addr:street_address": "1498 AVE FERNANDEZ JUNCOS", "amenity": "post_box", "collection_times": "Mo-Fr 16:30; Sa 12:30", "indoor": "yes", "note": "ON 12/24 AND 12/31, THIS BOX MAY BE COLLECTED AS EARLY AS 12 NOON.", "nsi_id": "unitedstatespostalservice-a77078", "operator": "United States Postal Service", "operator:short": "USPS", "operator:type": "public", "operator:wikidata": "Q668687", "ref": "0090900041"}, "type": "Feature"}
{"geometry": {"coordinates": [-66.0667002, 18.4427732], "type": "Point"}, "id": "WtTDldr6BIe-5TpKr-ilMmwVhfk=", "properties": {"@source_uri": "https://tools.usps.com/UspsToolsRestServices/rest/POLocator/findLocations", "@spider": "usps_collection_boxes", "addr:city": "SAN JUAN", "addr:country": "US", "addr:postcode": "00909", "addr:state": "PR", "addr:street_address": "100 CENTRO GUBERNAMENTAL", "amenity": "post_box", "collection_times": "Mo-Fr 16:15", "indoor": "yes", "note": "ON 12/24 AND 12/31, THIS BOX MAY BE COLLECTED AS EARLY AS 12 NOON.", "nsi_id": "unitedstatespostalservice-a77078", "operator": "United States Postal Service", "operator:short": "USPS", "operator:type": "public", "operator:wikidata": "Q668687", "ref": "0090900042"}, "type": "Feature"}
{"geometry": {"coordinates": [-66.055516, 18.451047], "type": "Point"}, "id": "XfF1EqY9YgK8743XRphL75rr3XQ=", "properties": {"@source_uri": "https://tools.usps.com/UspsToolsRestServices/rest/POLocator/findLocations", "@spider": "usps_collection_boxes", "addr:city": "SAN JUAN", "addr:country": "US", "addr:postcode": "00911", "addr:state": "PR", "addr:street_address": "1959 CALLE LOIZA", "amenity": "post_box", "collection_times": "Mo-Fr 16:00; Sa 12:00", "note": "ON 12/24 AND 12/31, THIS BOX MAY BE COLLECTED AS EARLY AS 12 NOON.", "nsi_id": "unitedstatespostalservice-a77078", "operator": "United States Postal Service", "operator:short": "USPS", "operator:type": "public", "operator:wikidata": "Q668687", "ref": "0091100012"}, "type": "Feature"}
{"geometry": {"coordinates": [-66.0667061, 18.444856], "type": "Point"}, "id": "-MPjTQovsOi2ixiXNJo373fXpwQ=", "properties": {"@source_uri": "https://tools.usps.com/UspsToolsRestServices/rest/POLocator/findLocations", "@spider": "usps_collection_boxes", "addr:city": "SAN JUAN", "addr:country": "US", "addr:postcode": "00911", "addr:state": "PR", "addr:street_address": "1519 AVE PONCE DE LEON", "amenity": "post_box", "collection_times": "Mo-Sa 11:30", "nsi_id": "unitedstatespostalservice-a77078", "operator": "United States Postal Service", "operator:short": "USPS", "operator:type": "public", "operator:wikidata": "Q668687", "ref": "0091100013"}, "type": "Feature"}
{"geometry": {"coordinates": [-66.0555, 18.451205], "type": "Point"}, "id": "GxITFOmkXC2nX3M2dSSmOJ3yfJ4=", "properties": {"@source_uri": "https://tools.usps.com/UspsToolsRestServices/rest/POLocator/findLocations", "@spider": "usps_collection_boxes", "addr:city": "SAN JUAN", "addr:country": "US", "addr:postcode": "00911", "addr:state": "PR", "addr:street_address": "1959 CALLE LOIZA", "amenity": "post_box", "collection_times": "Mo-Fr 16:30; Sa 12:00", "indoor": "yes", "note": "ON 12/24 AND 12/31, THIS BOX MAY BE COLLECTED AS EARLY AS 12 NOON.", "nsi_id": "unitedstatespostalservice-a77078", "operator": "United States Postal Service", "operator:short": "USPS", "operator:type": "public", "operator:wikidata": "Q668687", "ref": "0091100016"}, "type": "Feature"}
{"geometry": {"coordinates": [-66.055699367, 18.451079245], "type": "Point"}, "id": "WlEu46__xQAWSHtLsuFsbjiYP_U=", "properties": {"@source_uri": "https://tools.usps.com/UspsToolsRestServices/rest/POLocator/findLocations", "@spider": "usps_collection_boxes", "addr:city": "SAN JUAN", "addr:country": "US", "addr:postcode": "00911", "addr:state": "PR", "addr:street_address": "1959 CALLE LOIZA", "amenity": "post_box", "collection_times": "Mo-Fr 17:00; Sa 12:30", "indoor": "yes", "note": "ON 12/24 AND 12/31, THIS BOX MAY BE COLLECTED AS EARLY AS 12 NOON.", "nsi_id": "unitedstatespostalservice-a77078", "operator": "United States Postal Service", "operator:short": "USPS", "operator:type": "public", "operator:wikidata": "Q668687", "ref": "0091100017"}, "type": "Feature"}
{"geometry": {"coordinates": [-66.0525988, 18.43848], "type": "Point"}, "id": "y6D0nrIDPhMG2-Ao64KWjCaZCdc=", "properties": {"@source_uri": "https://tools.usps.com/UspsToolsRestServices/rest/POLocator/findLocations", "@spider": "usps_collection_boxes", "addr:city": "SAN JUAN", "addr:country": "US", "addr:postcode": "00915", "addr:state": "PR", "addr:street_address": "100 CALLE BELLA VIS", "amenity": "post_box", "collection_times": "Mo-Fr 15:00; Sa 12:00", "note": "ON 12/24 AND 12/31, THIS BOX MAY BE COLLECTED AS EARLY AS 12 NOON.", "nsi_id": "unitedstatespostalservice-a77078", "operator": "United States Postal Service", "operator:short": "USPS", "operator:type": "public", "operator:wikidata": "Q668687", "ref": "0091500009"}, "type": "Feature"}
{"geometry": {"coordinates": [-66.05087, 18.4386699], "type": "Point"}, "id": "z0sRxnoBWY7zmWbOhWT0lo5S3UI=", "properties": {"@source_uri": "https://tools.usps.com/UspsToolsRestServices/rest/POLocator/findLocations", "@spider": "usps_collection_boxes", "addr:city": "SAN JUAN", "addr:country": "US", "addr:postcode": "00915", "addr:state": "PR", "addr:street_address": "100 CALLE BELLA VIS", "amenity": "post_box", "collection_times": "Mo-Fr 16:00", "indoor": "yes", "note": "ON 12/24 AND 12/31, THIS BOX MAY BE COLLECTED AS EARLY AS 12 NOON.", "nsi_id": "unitedstatespostalservice-a77078", "operator": "United States Postal Service", "operator:short": "USPS", "operator:type": "public", "operator:wikidata": "Q668687", "ref": "0091500010"}, "type": "Feature"}
{"geometry": {"coordinates": [-66.0549184, 18.4247], "type": "Point"}, "id": "sWQFb6MGNV3wjXItnds0ZTcs5Lk=", "properties": {"@source_uri": "https://tools.usps.com/UspsToolsRestServices/rest/POLocator/findLocations", "@spider": "usps_collection_boxes", "addr:city": "SAN JUAN", "addr:country": "US", "addr:postcode": "00917", "addr:state": "PR", "addr:street_address": "103 AVENUE ROOSEVELT", "amenity": "post_box", "collection_times": "Mo-Sa 15:30", "note": "ON 12/24 AND 12/31, THIS BOX MAY BE COLLECTED AS EARLY AS 12 NOON.", "nsi_id": "unitedstatespostalservice-a77078", "operator": "United States Postal Service", "operator:short": "USPS", "operator:type": "public", "operator:wikidata": "Q668687", "ref": "0091700002"}, "type": "Feature"}
{"geometry": {"coordinates": [-66.0572520392, 18.4248429902], "type": "Point"}, "id": "Au5iiuK3ez--EOv3wHnlQJ28SKQ=", "properties": {"@source_uri": "https://tools.usps.com/UspsToolsRestServices/rest/POLocator/findLocations", "@spider": "usps_collection_boxes", "addr:city": "SAN JUAN", "addr:country": "US", "addr:postcode": "00917", "addr:state": "PR", "addr:street_address": "273 AVE PONCE DE LEON", "amenity": "post_box", "collection_times": "Mo-Sa 13:30", "note": "ON 12/24 AND 12/31, THIS BOX MAY BE COLLECTED AS EARLY AS 12 NOON.", "nsi_id": "unitedstatespostalservice-a77078", "operator": "United States Postal Service", "operator:short": "USPS", "operator:type": "public", "operator:wikidata": "Q668687", "ref": "0091700013"}, "type": "Feature"}
{"geometry": {"coordinates": [-66.0506723, 18.412524], "type": "Point"}, "id": "6-W4iWIq8HDy9hyJpskqpRhLqDU=", "properties": {"@source_uri": "https://tools.usps.com/UspsToolsRestServices/rest/POLocator/findLocations", "@spider": "usps_collection_boxes", "addr:city": "SAN JUAN", "addr:country": "US", "addr:postcode": "00917", "addr:state": "PR", "addr:street_address": "47 CALLE MAYAGUEZ", "amenity": "post_box", "collection_times": "Mo-Fr 09:00; Sa 10:45", "nsi_id": "unitedstatespostalservice-a77078", "operator": "United States Postal Service", "operator:short": "USPS", "operator:type": "public", "operator:wikidata": "Q668687", "ref": "0091700028"}, "type": "Feature"}
{"geometry": {"coordinates": [-66.051161, 18.4238638], "type": "Point"}, "id": "TtvOy2238Pa9r5CM9E3U8T5YwPY=", "properties": {"@source_uri": "https://tools.usps.com/UspsToolsRestServices/rest/POLocator/findLocations", "@spider": "usps_collection_boxes", "addr:city": "SAN JUAN", "addr:country": "US", "addr:postcode": "00917", "addr:state": "PR", "addr:street_address": "255 AVE PONCE DE LEON", "amenity": "post_box", "collection_times": "Mo-Sa 14:30", "note": "ON 12/24 AND 12/31, THIS BOX MAY BE COLLECTED AS EARLY AS 12 NOON.", "nsi_id": "unitedstatespostalservice-a77078", "operator": "United States Postal Service", "operator:short": "USPS", "operator:type": "public", "operator:wikidata": "Q668687", "ref": "0091700040"}, "type": "Feature"}
{"geometry": {"coordinates": [-66.0696959, 18.427203], "type": "Point"}, "id": "4Jb9ieYqCtIawDBOPeOql6WYjb4=", "properties": {"@source_uri": "https://tools.usps.com/UspsToolsRestServices/rest/POLocator/findLocations", "@spider": "usps_collection_boxes", "addr:city": "SAN JUAN", "addr:country": "US", "addr:postcode": "00918", "addr:state": "PR", "addr:street_address": "361 CALLE JUAN CALAF", "amenity": "post_box", "collection_times": "Mo-Sa 11:15", "nsi_id": "unitedstatespostalservice-a77078", "operator": "United States Postal Service", "operator:short": "USPS", "operator:type": "public", "operator:wikidata": "Q668687", "ref": "0091800004"}, "type": "Feature"}
{"geometry": {"coordinates": [-66.0591544, 18.432118], "type": "Point"}, "id": "iOo4feylroGfYE9Fgb-76r9ZFAI=", "properties": {"@source_uri": "https://tools.usps.com/UspsToolsRestServices/rest/POLocator/findLocations", "@spider": "usps_collection_boxes", "addr:city": "SAN JUAN", "addr:country": "US", "addr:postcode": "00918", "addr:state": "PR", "addr:street_address": "2 AVE PONCE DE LEON", "amenity": "post_box", "collection_times": "Mo-Sa 15:00", "note": "ON 12/24 AND 12/31, THIS BOX MAY BE COLLECTED AS EARLY AS 12 NOON.", "nsi_id": "unitedstatespostalservice-a77078", "operator": "United States Postal Service", "operator:short": "USPS", "operator:type": "public", "operator:wikidata": "Q668687", "ref": "0091800013"}, "type": "Feature"}
{"geometry": {"coordinates": [-66.0588637, 18.426612], "type": "Point"}, "id": "rUzRKcegLRFfSzMaV07impH2_9c=", "properties": {"@source_uri": "https://tools.usps.com/UspsToolsRestServices/rest/POLocator/findLocations", "@spider": "usps_collection_boxes", "addr:city": "SAN JUAN", "addr:country": "US", "addr:postcode": "00918", "addr:state": "PR", "addr:street_address": "250 AVE MUNOZ RIVERA", "amenity": "post_box", "collection_times": "Mo-Sa 09:00", "nsi_id": "unitedstatespostalservice-a77078", "operator": "United States Postal Service", "operator:short": "USPS", "operator:type": "public", "operator:wikidata": "Q668687", "ref": "0091800021"}, "type": "Feature"}
{"geometry": {"coordinates": [-66.067858328, 18.410973124], "type": "Point"}, "id": "p7nlYCIhhVSaq5uK1DIzh0VkDKc=", "properties": {"@source_uri": "https://tools.usps.com/UspsToolsRestServices/rest/POLocator/findLocations", "@spider": "usps_collection_boxes", "addr:city": "SAN JUAN", "addr:country": "US", "addr:postcode": "00918", "addr:state": "PR", "addr:street_address": "650 CALLE CUEVAS BUSTAMANTE", "amenity": "post_box", "collection_times": "Mo-Fr 09:30; Sa 09:45", "nsi_id": "unitedstatespostalservice-a77078", "operator": "United States Postal Service", "operator:short": "USPS", "operator:type": "public", "operator:wikidata": "Q668687", "ref": "0091800049"}, "type": "Feature"}
{"geometry": {"coordinates": [-66.0568268, 18.409361], "type": "Point"}, "id": "IbJAiJoQ185suEZck3qiOVdFh98=", "properties": {"@source_uri": "https://tools.usps.com/UspsToolsRestServices/rest/POLocator/findLocations", "@spider": "usps_collection_boxes", "addr:city": "SAN JUAN", "addr:country": "US", "addr:postcode": "00918", "addr:state": "PR", "addr:street_address": "652 AVE MUNOZ RIVERA", "amenity": "post_box", "collection_times": "Mo-Sa 13:30", "note": "ON 12/24 AND 12/31, THIS BOX MAY BE COLLECTED AS EARLY AS 12 NOON.", "nsi_id": "unitedstatespostalservice-a77078", "operator": "United States Postal Service", "operator:short": "USPS", "operator:type": "public", "operator:wikidata": "Q668687", "ref": "0091800054"}, "type": "Feature"}
{"geometry": {"coordinates": [-66.0645744, 18.409049], "type": "Point"}, "id": "gfdDeZuq2X1T167hZbgqkj3ZBrE=", "properties": {"@source_uri": "https://tools.usps.com/UspsToolsRestServices/rest/POLocator/findLocations", "@spider": "usps_collection_boxes", "addr:city": "SAN JUAN", "addr:country": "US", "addr:postcode": "00918", "addr:state": "PR", "addr:street_address": "675 CALLE CESAR GONZALEZ", "amenity": "post_box", "collection_times": "Mo-Fr 14:30; Sa 09:45", "note": "ON 12/24 AND 12/31, THIS BOX MAY BE COLLECTED AS EARLY AS 12 NOON.", "nsi_id": "unitedstatespostalservice-a77078", "operator": "United States Postal Service", "operator:short": "USPS", "operator:type": "public", "operator:wikidata": "Q668687", "ref": "0091800055"}, "type": "Feature"}
{"geometry": {"coordinates": [-66.0578999603, 18.4272250014], "type": "Point"}, "id": "jGw6kO7ov0uwD7hBBGKxjYXVFzg=", "properties": {"@source_uri": "https://tools.usps.com/UspsToolsRestServices/rest/POLocator/findLocations", "@spider": "usps_collection_boxes", "addr:city": "SAN JUAN", "addr:country": "US", "addr:postcode": "00918", "addr:state": "PR", "addr:street_address": "207 AVE PONCE DE LEON", "amenity": "post_box", "collection_times": "Mo-Sa 15:30", "note": "ON 12/24 AND 12/31, THIS BOX MAY BE COLLECTED AS EARLY AS 12 NOON.", "nsi_id": "unitedstatespostalservice-a77078", "operator": "United States Postal Service", "operator:short": "USPS", "operator:type": "public", "operator:wikidata": "Q668687", "ref": "0091800057"}, "type": "Feature"}
{"geometry": {"coordinates": [-66.0642891, 18.426913], "type": "Point"}, "id": "fLZv_w1_1ypTO0wR7Qxru1flwas=", "properties": {"@source_uri": "https://tools.usps.com/UspsToolsRestServices/rest/POLocator/findLocations", "@spider": "usps_collection_boxes", "addr:city": "SAN JUAN", "addr:country": "US", "addr:postcode": "00918", "addr:state": "PR", "addr:street_address": "239 AVE ARTERIAL HOSTOS", "amenity": "post_box", "collection_times": "Mo-Sa 15:00", "note": "ON 12/24 AND 12/31, THIS BOX MAY BE COLLECTED AS EARLY AS 12 NOON.", "nsi_id": "unitedstatespostalservice-a77078", "operator": "United States Postal Service", "operator:short": "USPS", "operator:type": "public", "operator:wikidata": "Q668687", "ref": "0091800059"}, "type": "Feature"}
{"geometry": {"coordinates": [-66.0685564, 18.426884], "type": "Point"}, "id": "LFKKfHPAlVxrGepyjId3PJb2zuw=", "properties": {"@source_uri": "https://tools.usps.com/UspsToolsRestServices/rest/POLocator/findLocations", "@spider": "usps_collection_boxes", "addr:city": "SAN JUAN", "addr:country": "US", "addr:postcode": "00918", "addr:state": "PR", "addr:street_address": "200 CALLE CESAR GONZALEZ", "amenity": "post_box", "collection_times": "Mo-Sa 10:00", "nsi_id": "unitedstatespostalservice-a77078", "operator": "United States Postal Service", "operator:short": "USPS", "operator:type": "public", "operator:wikidata": "Q668687", "ref": "0091800060"}, "type": "Feature"}
{"geometry": {"coordinates": [-66.0756146, 18.417802], "type": "Point"}, "id": "JbKlP0DTmv0yi5FANi3cnAcqtUs=", "properties": {"@source_uri": "https://tools.usps.com/UspsToolsRestServices/rest/POLocator/findLocations", "@spider": "usps_collection_boxes", "addr:city": "SAN JUAN", "addr:country": "US", "addr:postcode": "00918", "addr:state": "PR", "addr:street_address": "575 AVE FD ROOSEVELT", "amenity": "post_box", "collection_times": "Mo-Sa 09:00", "nsi_id": "unitedstatespostalservice-a77078", "operator": "United States Postal Service", "operator:short": "USPS", "operator:type": "public", "operator:wikidata": "Q668687", "ref": "0091800073"}, "type": "Feature"}
{"geometry": {"coordinates": [-66.062915, 18.415855], "type": "Point"}, "id": "lfjR-H9DyjY_1YJ-uGf2mKvuTBM=", "properties": {"@source_uri": "https://tools.usps.com/UspsToolsRestServices/rest/POLocator/findLocations", "@spider": "usps_collection_boxes", "addr:city": "SAN JUAN", "addr:country": "US", "addr:postcode": "00918", "addr:state": "PR", "addr:street_address": "525 AVE FD ROOSEVELT", "amenity": "post_box", "collection_times": "Mo-Fr 17:00; Sa 15:00", "indoor": "yes", "note": "ON 12/24 AND 12/31, THIS BOX MAY BE COLLECTED AS EARLY AS 12 NOON.", "nsi_id": "unitedstatespostalservice-a77078", "operator": "United States Postal Service", "operator:short": "USPS", "operator:type": "public", "operator:wikidata": "Q668687", "ref": "0091800081"}, "type": "Feature"}
{"geometry": {"coordinates": [-66.062915, 18.415855], "type": "Point"}, "id": "ihrt2oRJgnM9i2STW4rf5TuUaTs=", "properties": {"@source_uri": "https://tools.usps.com/UspsToolsRestServices/rest/POLocator/findLocations", "@spider": "usps_collection_boxes", "addr:city": "SAN JUAN", "addr:country": "US", "addr:postcode": "00918", "addr:state": "PR", "addr:street_address": "525 AVE FD ROOSEVELT STE 111", "amenity": "post_box", "collection_times": "Mo-Sa 18:00", "indoor": "yes", "note": "ON 12/24 AND 12/31, THIS BOX MAY BE COLLECTED AS EARLY AS 12 NOON.", "nsi_id": "unitedstatespostalservice-a77078", "operator": "United States Postal Service", "operator:short": "USPS", "operator:type": "public", "operator:wikidata": "Q668687", "ref": "0091800090"}, "type": "Feature"}
{"geometry": {"coordinates": [-66.06994, 18.427074], "type": "Point"}, "id": "S-BmzhIb7UmSlQzn7qBzY_r0xWI=", "properties": {"@source_uri": "https://tools.usps.com/UspsToolsRestServices/rest/POLocator/findLocations", "@spider": "usps_collection_boxes", "addr:city": "SAN JUAN", "addr:country": "US", "addr:postcode": "00919", "addr:state": "PR", "addr:street_address": "361 CALLE JUAN CALAF", "amenity": "post_box", "collection_times": "Mo-Fr 18:00; Sa 15:30", "indoor": "yes", "note": "ON 12/24 AND 12/31, THIS BOX MAY BE COLLECTED AS EARLY AS 12 NOON.", "nsi_id": "unitedstatespostalservice-a77078", "operator": "United States Postal Service", "operator:short": "USPS", "operator:type": "public", "operator:wikidata": "Q668687", "ref": "0091900001"}, "type": "Feature"}
{"geometry": {"coordinates": [-66.070440538, 18.426958183], "type": "Point"}, "id": "mNptbbi1gIRiMxuEg49l67XSz5E=", "properties": {"@source_uri": "https://tools.usps.com/UspsToolsRestServices/rest/POLocator/findLocations", "@spider": "usps_collection_boxes", "addr:city": "SAN JUAN", "addr:country": "US", "addr:postcode": "00919", "addr:state": "PR", "addr:street_address": "361 CALLE JUAN CALAF", "amenity": "post_box", "collection_times": "Mo-Fr 17:30; Sa 12:30", "indoor": "yes", "note": "ON 12/24 AND 12/31, THIS BOX MAY BE COLLECTED AS EARLY AS 12 NOON.", "nsi_id": "unitedstatespostalservice-a77078", "operator": "United States Postal Service", "operator:short": "USPS", "operator:type": "public", "operator:wikidata": "Q668687", "ref": "0091900002"}, "type": "Feature"}
{"geometry": {"coordinates": [-66.088812, 18.3926246], "type": "Point"}, "id": "dtzglFh_PvjKVViZQkUhyoLLC6k=", "properties": {"@source_uri": "https://tools.usps.com/UspsToolsRestServices/rest/POLocator/findLocations", "@spider": "usps_collection_boxes", "addr:city": "SAN JUAN", "addr:country": "US", "addr:postcode": "00921", "addr:state": "PR", "addr:street_address": "1901 AVE JESUS T PINERO", "amenity": "post_box", "collection_times": "Mo-Sa 10:00", "nsi_id": "unitedstatespostalservice-a77078", "operator": "United States Postal Service", "operator:short": "USPS", "operator:type": "public", "operator:wikidata": "Q668687", "ref": "0092100046"}, "type": "Feature"}
{"geometry": {"coordinates": [-66.035313, 18.404412], "type": "Point"}, "id": "RxmGe5qvyUvH5_4_1d4V0wnWuCU=", "properties": {"@source_uri": "https://tools.usps.com/UspsToolsRestServices/rest/POLocator/findLocations", "@spider": "usps_collection_boxes", "addr:city": "SAN JUAN", "addr:country": "US", "addr:postcode": "00923", "addr:state": "PR", "addr:street_address": "811 CALLE JOSE B ACEVEDO", "amenity": "post_box", "collection_times": "Mo-Fr 12:15; Sa 11:15", "note": "ON 12/24 AND 12/31, THIS BOX MAY BE COLLECTED AS EARLY AS 12 NOON.", "nsi_id": "unitedstatespostalservice-a77078", "operator": "United States Postal Service", "operator:short": "USPS", "operator:type": "public", "operator:wikidata": "Q668687", "ref": "0092300014"}, "type": "Feature"}
{"geometry": {"coordinates": [-66.0416899, 18.395867], "type": "Point"}, "id": "k12H37Ol863pDD3R549NmseB5V4=", "properties": {"@source_uri": "https://tools.usps.com/UspsToolsRestServices/rest/POLocator/findLocations", "@spider": "usps_collection_boxes", "addr:city": "SAN JUAN", "addr:country": "US", "addr:postcode": "00924", "addr:state": "PR", "addr:street_address": "49 AVE 65 INFANTERIA", "amenity": "post_box", "collection_times": "Mo-Sa 09:30", "nsi_id": "unitedstatespostalservice-a77078", "operator": "United States Postal Service", "operator:short": "USPS", "operator:type": "public", "operator:wikidata": "Q668687", "ref": "0092400020"}, "type": "Feature"}
{"geometry": {"coordinates": [-66.0288488, 18.395064], "type": "Point"}, "id": "RP45UtoMvx9THuo99VcESzYwENM=", "properties": {"@source_uri": "https://tools.usps.com/UspsToolsRestServices/rest/POLocator/findLocations", "@spider": "usps_collection_boxes", "addr:city": "SAN JUAN", "addr:country": "US", "addr:postcode": "00924", "addr:state": "PR", "addr:street_address": "570 CALLE NAPOLES", "amenity": "post_box", "collection_times": "Mo-Sa 13:00", "note": "ON 12/24 AND 12/31, THIS BOX MAY BE COLLECTED AS EARLY AS 12 NOON.", "nsi_id": "unitedstatespostalservice-a77078", "operator": "United States Postal Service", "operator:short": "USPS", "operator:type": "public", "operator:wikidata": "Q668687", "ref": "0092400023"}, "type": "Feature"}
{"geometry": {"coordinates": [-66.0140279, 18.389102], "type": "Point"}, "id": "T0I-ehr1l1au7IYxu91QoDYRM3A=", "properties": {"@source_uri": "https://tools.usps.com/UspsToolsRestServices/rest/POLocator/findLocations", "@spider": "usps_collection_boxes", "addr:city": "SAN JUAN", "addr:country": "US", "addr:postcode": "00924", "addr:state": "PR", "addr:street_address": "1306 AVE MONTE CARLO", "amenity": "post_box", "collection_times": "Mo-Sa 15:00", "note": "ON 12/24 AND 12/31, THIS BOX MAY BE COLLECTED AS EARLY AS 12 NOON.", "nsi_id": "unitedstatespostalservice-a77078", "operator": "United States Postal Service", "operator:short": "USPS", "operator:type": "public", "operator:wikidata": "Q668687", "ref": "0092400026"}, "type": "Feature"}
{"geometry": {"coordinates": [-66.0104405, 18.39739], "type": "Point"}, "id": "ir9VInyOgGFZ-KvYhyNEYkmtE2k=", "properties": {"@source_uri": "https://tools.usps.com/UspsToolsRestServices/rest/POLocator/findLocations", "@spider": "usps_collection_boxes", "addr:city": "SAN JUAN", "addr:country": "US", "addr:postcode": "00924", "addr:state": "PR", "addr:street_address": "100 CALLE ALONDRA", "amenity": "post_box", "collection_times": "Mo-Fr 16:30; Sa 11:30", "note": "ON 12/24 AND 12/31, THIS BOX MAY BE COLLECTED AS EARLY AS 12 NOON.", "nsi_id": "unitedstatespostalservice-a77078", "operator": "United States Postal Service", "operator:short": "USPS", "operator:type": "public", "operator:wikidata": "Q668687", "ref": "0092400033"}, "type": "Feature"}
{"geometry": {"coordinates": [-65.9943524, 18.402529], "type": "Point"}, "id": "b2E9k40j42QqxiEB_TYxkHYKJAg=", "properties": {"@source_uri": "https://tools.usps.com/UspsToolsRestServices/rest/POLocator/findLocations", "@spider": "usps_collection_boxes", "addr:city": "SAN JUAN", "addr:country": "US", "addr:postcode": "00924", "addr:state": "PR", "addr:street_address": "1194 CALLE ALEJO CRUZADO", "amenity": "post_box", "collection_times": "Mo-Sa 10:00", "nsi_id": "unitedstatespostalservice-a77078", "operator": "United States Postal Service", "operator:short": "USPS", "operator:type": "public", "operator:wikidata": "Q668687", "ref": "0092400047"}, "type": "Feature"}
{"geometry": {"coordinates": [-66.0006999, 18.399758], "type": "Point"}, "id": "THkgk-o64vIxRUAPGPYKlLDK8vU=", "properties": {"@source_uri": "https://tools.usps.com/UspsToolsRestServices/rest/POLocator/findLocations", "@spider": "usps_collection_boxes", "addr:city": "SAN JUAN", "addr:country": "US", "addr:postcode": "00924", "addr:state": "PR", "addr:street_address": "929 CALLE DEMETRIO O DALY", "amenity": "post_box", "collection_times": "Mo-Sa 14:00", "note": "ON 12/24 AND 12/31, THIS BOX MAY BE COLLECTED AS EARLY AS 12 NOON.", "nsi_id": "unitedstatespostalservice-a77078", "operator": "United States Postal Service", "operator:short": "USPS", "operator:type": "public", "operator:wikidata": "Q668687", "ref": "0092400049"}, "type": "Feature"}
{"geometry": {"coordinates": [-66.007947, 18.404612], "type": "Point"}, "id": "RAXAO1abns0kGvC6tqjzS8ui6xs=", "properties": {"@source_uri": "https://tools.usps.com/UspsToolsRestServices/rest/POLocator/findLocations", "@spider": "usps_collection_boxes", "addr:city": "SAN JUAN", "addr:country": "US", "addr:postcode": "00924", "addr:state": "PR", "addr:street_address": "926 CALLE EIDER", "amenity": "post_box", "collection_times": "Mo-Sa 14:00", "note": "ON 12/24 AND 12/31, THIS BOX MAY BE COLLECTED AS EARLY AS 12 NOON.", "nsi_id": "unitedstatespostalservice-a77078", "operator": "United States Postal Service", "operator:short": "USPS", "operator:type": "public", "operator:wikidata": "Q668687", "ref": "0092400050"}, "type": "Feature"}
{"geometry": {"coordinates": [-66.010581, 18.39751], "type": "Point"}, "id": "skyYJchluWVvbkd_pA_NNk_Wiro=", "properties": {"@source_uri": "https://tools.usps.com/UspsToolsRestServices/rest/POLocator/findLocations", "@spider": "usps_collection_boxes", "addr:city": "SAN JUAN", "addr:country": "US", "addr:postcode": "00924", "addr:state": "PR", "addr:street_address": "100 CALLE ALONDRA", "amenity": "post_box", "collection_times": "Mo-Fr 16:30; Sa 12:00", "indoor": "yes", "note": "ON 12/24 AND 12/31, THIS BOX MAY BE COLLECTED AS EARLY AS 12 NOON.", "nsi_id": "unitedstatespostalservice-a77078", "operator": "United States Postal Service", "operator:short": "USPS", "operator:type": "public", "operator:wikidata": "Q668687", "ref": "0092400051"}, "type": "Feature"}
{"geometry": {"coordinates": [-66.010571026, 18.397310468], "type": "Point"}, "id": "efxrTlHmApV44WdtJNbyZX6wM4M=", "properties": {"@source_uri": "https://tools.usps.com/UspsToolsRestServices/rest/POLocator/findLocations", "@spider": "usps_collection_boxes", "addr:city": "SAN JUAN", "addr:country": "US", "addr:postcode": "00924", "addr:state": "PR", "addr:street_address": "100 CALLE ALONDRA", "amenity": "post_box", "collection_times": "Mo-Fr 17:00; Sa 12:30", "indoor": "yes", "note": "ON 12/24 AND 12/31, THIS BOX MAY BE COLLECTED AS EARLY AS 12 NOON.", "nsi_id": "unitedstatespostalservice-a77078", "operator": "United States Postal Service", "operator:short": "USPS", "operator:type": "public", "operator:wikidata": "Q668687", "ref": "0092400053"}, "type": "Feature"}
{"geometry": {"coordinates": [-66.0559746, 18.399622], "type": "Point"}, "id": "0tVKnr4aO6l72EmHBYmYUpfy-xQ=", "properties": {"@source_uri": "https://tools.usps.com/UspsToolsRestServices/rest/POLocator/findLocations", "@spider": "usps_collection_boxes", "addr:city": "SAN JUAN", "addr:country": "US", "addr:postcode": "00925", "addr:state": "PR", "addr:street_address": "1103 AVE MUNOZ RIVERA", "amenity": "post_box", "collection_times": "Mo-Sa 10:00", "nsi_id": "unitedstatespostalservice-a77078", "operator": "United States Postal Service", "operator:short": "USPS", "operator:type": "public", "operator:wikidata": "Q668687", "ref": "0092500004"}, "type": "Feature"}
{"geometry": {"coordinates": [-66.0482852, 18.397622], "type": "Point"}, "id": "jfFS87yczreGup_oxJR0Cub6QsY=", "properties": {"@source_uri": "https://tools.usps.com/UspsToolsRestServices/rest/POLocator/findLocations", "@spider": "usps_collection_boxes", "addr:city": "SAN JUAN", "addr:country": "US", "addr:postcode": "00925", "addr:state": "PR", "addr:street_address": "108 CALLE ARZUAGA", "amenity": "post_box", "collection_times": "Mo-Sa 15:30", "note": "ON 12/24 AND 12/31, THIS BOX MAY BE COLLECTED AS EARLY AS 12 NOON.", "nsi_id": "unitedstatespostalservice-a77078", "operator": "United States Postal Service", "operator:short": "USPS", "operator:type": "public", "operator:wikidata": "Q668687", "ref": "0092500020"}, "type": "Feature"}
{"geometry": {"coordinates": [-66.048432502, 18.397439749], "type": "Point"}, "id": "nA4X2LpPx3B6zBq01w5Hni7aSDk=", "properties": {"@source_uri": "https://tools.usps.com/UspsToolsRestServices/rest/POLocator/findLocations", "@spider": "usps_collection_boxes", "addr:city": "SAN JUAN", "addr:country": "US", "addr:postcode": "00925", "addr:state": "PR", "addr:street_address": "112 CALLE ARZUAGA STE 3", "amenity": "post_box", "collection_times": "Mo-Fr 16:30; Sa 12:30", "indoor": "yes", "note": "ON 12/24 AND 12/31, THIS BOX MAY BE COLLECTED AS EARLY AS 12 NOON.", "nsi_id": "unitedstatespostalservice-a77078", "operator": "United States Postal Service", "operator:short": "USPS", "operator:type": "public", "operator:wikidata": "Q668687", "ref": "0092500022"}, "type": "Feature"}
{"geometry": {"coordinates": [-66.0621005, 18.3760301], "type": "Point"}, "id": "GzKEgK9Vdun4oECxEZOJ8q6oCXc=", "properties": {"@source_uri": "https://tools.usps.com/UspsToolsRestServices/rest/POLocator/findLocations", "@spider": "usps_collection_boxes", "addr:city": "SAN JUAN", "addr:country": "US", "addr:postcode": "00926", "addr:state": "PR", "addr:street_address": "369 CALLE SAN CLAUDIO", "amenity": "post_box", "collection_times": "Mo-Fr 17:00; Sa 15:00", "note": "ON 12/24 AND 12/31, THIS BOX MAY BE COLLECTED AS EARLY AS 12 NOON.", "nsi_id": "unitedstatespostalservice-a77078", "operator": "United States Postal Service", "operator:short": "USPS", "operator:type": "public", "operator:wikidata": "Q668687", "ref": "0092600001"}, "type": "Feature"}
{"geometry": {"coordinates": [-66.0588857, 18.3644717], "type": "Point"}, "id": "8_sji7TB57iEoAKhX_eI_TomGiM=", "properties": {"@source_uri": "https://tools.usps.com/UspsToolsRestServices/rest/POLocator/findLocations", "@spider": "usps_collection_boxes", "addr:city": "SAN JUAN", "addr:country": "US", "addr:postcode": "00926", "addr:state": "PR", "addr:street_address": "1760 CALLE PARANA", "amenity": "post_box", "collection_times": "Mo-Sa 10:00", "nsi_id": "unitedstatespostalservice-a77078", "operator": "United States Postal Service", "operator:short": "USPS", "operator:type": "public", "operator:wikidata": "Q668687", "ref": "0092600002"}, "type": "Feature"}
{"geometry": {"coordinates": [-66.0684709, 18.339519], "type": "Point"}, "id": "f5HrubOMm3eC_VTEln_hV4K8Pjo=", "properties": {"@source_uri": "https://tools.usps.com/UspsToolsRestServices/rest/POLocator/findLocations", "@spider": "usps_collection_boxes", "addr:city": "SAN JUAN", "addr:country": "US", "addr:postcode": "00926", "addr:state": "PR", "addr:street_address": "9410 AVE LOS ROMEROS", "amenity": "post_box", "collection_times": "Mo-Sa 11:30", "nsi_id": "unitedstatespostalservice-a77078", "operator": "United States Postal Service", "operator:short": "USPS", "operator:type": "public", "operator:wikidata": "Q668687", "ref": "0092600004"}, "type": "Feature"}
{"geometry": {"coordinates": [-66.0743037, 18.363575], "type": "Point"}, "id": "Lg3l4dC-5LgeQqFw1frR2rDU9Fo=", "properties": {"@source_uri": "https://tools.usps.com/UspsToolsRestServices/rest/POLocator/findLocations", "@spider": "usps_collection_boxes", "addr:city": "SAN JUAN", "addr:country": "US", "addr:postcode": "00926", "addr:state": "PR", "addr:street_address": "1 LAS CUMBRES SHOPP CTR STE 17", "amenity": "post_box", "collection_times": "Mo-Sa 12:00", "nsi_id": "unitedstatespostalservice-a77078", "operator": "United States Postal Service", "operator:short": "USPS", "operator:type": "public", "operator:wikidata": "Q668687", "ref": "0092600009"}, "type": "Feature"}
{"geometry": {"coordinates": [-66.0730523, 18.369071], "type": "Point"}, "id": "C9fpC9cAOAOjGT9ZyIAimIwabdk=", "properties": {"@source_uri": "https://tools.usps.com/UspsToolsRestServices/rest/POLocator/findLocations", "@spider": "usps_collection_boxes", "addr:city": "SAN JUAN", "addr:country": "US", "addr:postcode": "00926", "addr:state": "PR", "addr:street_address": "RR 37 BOX 3144B", "amenity": "post_box", "collection_times": "Mo-Sa 11:30", "nsi_id": "unitedstatespostalservice-a77078", "operator": "United States Postal Service", "operator:short": "USPS", "operator:type": "public", "operator:wikidata": "Q668687", "ref": "0092600011"}, "type": "Feature"}
{"geometry": {"coordinates": [-66.0367931, 18.371059], "type": "Point"}, "id": "_hyVDpsRgQf2HllQErrjfHLIHIc=", "properties": {"@source_uri": "https://tools.usps.com/UspsToolsRestServices/rest/POLocator/findLocations", "@spider": "usps_collection_boxes", "addr:city": "SAN JUAN", "addr:country": "US", "addr:postcode": "00926", "addr:state": "PR", "addr:street_address": "19 CALLE ACUARIO", "amenity": "post_box", "collection_times": "Mo-Sa 10:30", "nsi_id": "unitedstatespostalservice-a77078", "operator": "United States Postal Service", "operator:short": "USPS", "operator:type": "public", "operator:wikidata": "Q668687", "ref": "0092600023"}, "type": "Feature"}
{"geometry": {"coordinates": [-66.0843477, 18.363537113], "type": "Point"}, "id": "-GmFAzxY5-0L-yy695rJQIUYFZU=", "properties": {"@source_uri": "https://tools.usps.com/UspsToolsRestServices/rest/POLocator/findLocations", "@spider": "usps_collection_boxes", "addr:city": "SAN JUAN", "addr:country": "US", "addr:postcode": "00926", "addr:state": "PR", "addr:street_address": "173 CARR 1", "amenity": "post_box", "collection_times": "Mo-Sa 11:30", "nsi_id": "unitedstatespostalservice-a77078", "operator": "United States Postal Service", "operator:short": "USPS", "operator:type": "public", "operator:wikidata": "Q668687", "ref": "0092600032"}, "type": "Feature"}
{"geometry": {"coordinates": [-66.0662446, 18.374574], "type": "Point"}, "id": "LPz-ec6rm0bWoDtGhCHLjXdyQy4=", "properties": {"@source_uri": "https://tools.usps.com/UspsToolsRestServices/rest/POLocator/findLocations", "@spider": "usps_collection_boxes", "addr:city": "SAN JUAN", "addr:country": "US", "addr:postcode": "00926", "addr:state": "PR", "addr:street_address": "1695 CALLE PARANA", "amenity": "post_box", "collection_times": "Mo-Sa 10:00", "nsi_id": "unitedstatespostalservice-a77078", "operator": "United States Postal Service", "operator:short": "USPS", "operator:type": "public", "operator:wikidata": "Q668687", "ref": "0092600036"}, "type": "Feature"}
{"geometry": {"coordinates": [-66.0356771, 18.394445], "type": "Point"}, "id": "nravvJ9fm-1V16PqW8Szz1VGBlM=", "properties": {"@source_uri": "https://tools.usps.com/UspsToolsRestServices/rest/POLocator/findLocations", "@spider": "usps_collection_boxes", "addr:city": "SAN JUAN", "addr:country": "US", "addr:postcode": "00926", "addr:state": "PR", "addr:street_address": "1202 CALLE 13", "amenity": "post_box", "collection_times": "Mo-Sa 09:30", "nsi_id": "unitedstatespostalservice-a77078", "operator": "United States Postal Service", "operator:short": "USPS", "operator:type": "public", "operator:wikidata": "Q668687", "ref": "0092600039"}, "type": "Feature"}
{"geometry": {"coordinates": [-66.0273426, 18.382345], "type": "Point"}, "id": "0XkvGivNt5rSYiq7OMeJsx2Jy9I=", "properties": {"@source_uri": "https://tools.usps.com/UspsToolsRestServices/rest/POLocator/findLocations", "@spider": "usps_collection_boxes", "addr:city": "SAN JUAN", "addr:country": "US", "addr:postcode": "00926", "addr:state": "PR", "addr:street_address": "D1 CALLE FRONTERA", "amenity": "post_box", "collection_times": "Mo-Sa 10:30", "nsi_id": "unitedstatespostalservice-a77078", "operator": "United States Postal Service", "operator:short": "USPS", "operator:type": "public", "operator:wikidata": "Q668687", "ref": "0092600051"}, "type": "Feature"}
{"geometry": {"coordinates": [-66.052513, 18.379099], "type": "Point"}, "id": "l12VjeJnvbCjY2_6ERZO_cbx7s0=", "properties": {"@source_uri": "https://tools.usps.com/UspsToolsRestServices/rest/POLocator/findLocations", "@spider": "usps_collection_boxes", "addr:city": "SAN JUAN", "addr:country": "US", "addr:postcode": "00926", "addr:state": "PR", "addr:street_address": "369 CALLE SAN CLAUDIO FRNT", "amenity": "post_box", "collection_times": "Mo-Fr 16:30; Sa 12:00", "indoor": "yes", "note": "ON 12/24 AND 12/31, THIS BOX MAY BE COLLECTED AS EARLY AS 12 NOON.", "nsi_id": "unitedstatespostalservice-a77078", "operator": "United States Postal Service", "operator:short": "USPS", "operator:type": "public", "operator:wikidata": "Q668687", "ref": "0092600053"}, "type": "Feature"}
{"geometry": {"coordinates": [-66.052487839, 18.379122288], "type": "Point"}, "id": "xx3Td89A0afIs6ubo7my01nQmW8=", "properties": {"@source_uri": "https://tools.usps.com/UspsToolsRestServices/rest/POLocator/findLocations", "@spider": "usps_collection_boxes", "addr:city": "SAN JUAN", "addr:country": "US", "addr:postcode": "00926", "addr:state": "PR", "addr:street_address": "369 CALLE SAN CLAUDIO", "amenity": "post_box", "collection_times": "Mo-Fr 17:00; Sa 12:30", "indoor": "yes", "note": "ON 12/24 AND 12/31, THIS BOX MAY BE COLLECTED AS EARLY AS 12 NOON.", "nsi_id": "unitedstatespostalservice-a77078", "operator": "United States Postal Service", "operator:short": "USPS", "operator:type": "public", "operator:wikidata": "Q668687", "ref": "0092600054"}, "type": "Feature"}
{"geometry": {"coordinates": [-66.0820671, 18.385634], "type": "Point"}, "id": "IdknkSEWLCzMq6t3cq5zj2DfxsM=", "properties": {"@source_uri": "https://tools.usps.com/UspsToolsRestServices/rest/POLocator/findLocations", "@spider": "usps_collection_boxes", "addr:city": "SAN JUAN", "addr:country": "US", "addr:postcode": "00927", "addr:state": "PR", "addr:street_address": "201 AVE DE DIEGO STE 10", "amenity": "post_box", "collection_times": "Mo-Sa 10:00", "nsi_id": "unitedstatespostalservice-a77078", "operator": "United States Postal Service", "operator:short": "USPS", "operator:type": "public", "operator:wikidata": "Q668687", "ref": "0092700005"}, "type": "Feature"}
{"geometry": {"coordinates": [-66.0733431, 18.383293], "type": "Point"}, "id": "yufedce2dgIiRJeeJy4IYt2fiWw=", "properties": {"@source_uri": "https://tools.usps.com/UspsToolsRestServices/rest/POLocator/findLocations", "@spider": "usps_collection_boxes", "addr:city": "SAN JUAN", "addr:country": "US", "addr:postcode": "00927", "addr:state": "PR", "addr:street_address": "87 AVE DE DIEGO", "amenity": "post_box", "collection_times": "Mo-Sa 09:30", "nsi_id": "unitedstatespostalservice-a77078", "operator": "United States Postal Service", "operator:short": "USPS", "operator:type": "public", "operator:wikidata": "Q668687", "ref": "0092700007"}, "type": "Feature"}
{"geometry": {"coordinates": [-66.0660512, 18.400391], "type": "Point"}, "id": "-wEs6Rx1bwoquCmc1RMhlXE3EL8=", "properties": {"@source_uri": "https://tools.usps.com/UspsToolsRestServices/rest/POLocator/findLocations", "@spider": "usps_collection_boxes", "addr:city": "SAN JUAN", "addr:country": "US", "addr:postcode": "00927", "addr:state": "PR", "addr:street_address": "973 CALLE GUTEMBERG", "amenity": "post_box", "collection_times": "Mo-Sa 12:30", "note": "ON 12/24 AND 12/31, THIS BOX MAY BE COLLECTED AS EARLY AS 12 NOON.", "nsi_id": "unitedstatespostalservice-a77078", "operator": "United States Postal Service", "operator:short": "USPS", "operator:type": "public", "operator:wikidata": "Q668687", "ref": "0092700009"}, "type": "Feature"}
{"geometry": {"coordinates": [-66.0751023, 18.37409], "type": "Point"}, "id": "ij-e-k68JiqPSY7mgAsGqRWoP7I=", "properties": {"@source_uri": "https://tools.usps.com/UspsToolsRestServices/rest/POLocator/findLocations", "@spider": "usps_collection_boxes", "addr:city": "SAN JUAN", "addr:country": "US", "addr:postcode": "00927", "addr:state": "PR", "addr:street_address": "2 CALLE SAN ROBERTO", "amenity": "post_box", "collection_times": "Mo-Sa 13:30", "note": "ON 12/24 AND 12/31, THIS BOX MAY BE COLLECTED AS EARLY AS 12 NOON.", "nsi_id": "unitedstatespostalservice-a77078", "operator": "United States Postal Service", "operator:short": "USPS", "operator:type": "public", "operator:wikidata": "Q668687", "ref": "0092700015"}, "type": "Feature"}
{"geometry": {"coordinates": [-66.0651004, 18.406647], "type": "Point"}, "id": "QpjEe4xbi6L7roGitrq2RVwWiOk=", "properties": {"@source_uri": "https://tools.usps.com/UspsToolsRestServices/rest/POLocator/findLocations", "@spider": "usps_collection_boxes", "addr:city": "SAN JUAN", "addr:country": "US", "addr:postcode": "00927", "addr:state": "PR", "addr:street_address": "300 CALLE CLEMSON", "amenity": "post_box", "collection_times": "Mo-Sa 14:30", "note": "ON 12/24 AND 12/31, THIS BOX MAY BE COLLECTED AS EARLY AS 12 NOON.", "nsi_id": "unitedstatespostalservice-a77078", "operator": "United States Postal Service", "operator:short": "USPS", "operator:type": "public", "operator:wikidata": "Q668687", "ref": "0092700018"}, "type": "Feature"}
{"geometry": {"coordinates": [-66.0606929, 18.401753], "type": "Point"}, "id": "Y1IO2zIHCyiOC2OF62mgFAkT6pI=", "properties": {"@source_uri": "https://tools.usps.com/UspsToolsRestServices/rest/POLocator/findLocations", "@spider": "usps_collection_boxes", "addr:city": "SAN JUAN", "addr:country": "US", "addr:postcode": "00927", "addr:state": "PR", "addr:street_address": "912 CALLE HARVARD", "amenity": "post_box", "collection_times": "Mo-Sa 09:30", "nsi_id": "unitedstatespostalservice-a77078", "operator": "United States Postal Service", "operator:short": "USPS", "operator:type": "public", "operator:wikidata": "Q668687", "ref": "0092700020"}, "type": "Feature"}
{"geometry": {"coordinates": [-66.0695173, 18.391304], "type": "Point"}, "id": "agRp-u91iQ2Q6Nrr9nNiS9RVVpE=", "properties": {"@source_uri": "https://tools.usps.com/UspsToolsRestServices/rest/POLocator/findLocations", "@spider": "usps_collection_boxes", "addr:city": "SAN JUAN", "addr:country": "US", "addr:postcode": "00927", "addr:state": "PR", "addr:street_address": "1131 CALLE 5", "amenity": "post_box", "collection_times": "Mo-Sa 13:00", "note": "ON 12/24 AND 12/31, THIS BOX MAY BE COLLECTED AS EARLY AS 12 NOON.", "nsi_id": "unitedstatespostalservice-a77078", "operator": "United States Postal Service", "operator:short": "USPS", "operator:type": "public", "operator:wikidata": "Q668687", "ref": "0092700023"}, "type": "Feature"}
{"geometry": {"coordinates": [-66.0761699947, 18.417889992], "type": "Point"}, "id": "2JS3W1T5wW-6GYZnFWd6XOxZxxQ=", "properties": {"@source_uri": "https://tools.usps.com/UspsToolsRestServices/rest/POLocator/findLocations", "@spider": "usps_collection_boxes", "addr:city": "SAN JUAN", "addr:country": "US", "addr:postcode": "00936", "addr:state": "PR", "addr:street_address": "585 AVE FD ROOSEVELT", "amenity": "post_box", "collection_times": "Mo-Fr 18:45; Sa 15:45", "note": "ON 12/24 AND 12/31, THIS BOX MAY BE COLLECTED AS EARLY AS 12 NOON.", "nsi_id": "unitedstatespostalservice-a77078", "operator": "United States Postal Service", "operator:short": "USPS", "operator:type": "public", "operator:wikidata": "Q668687", "ref": "0093600007"}, "type": "Feature"}
{"geometry": {"coordinates": [-66.0771069, 18.41784], "type": "Point"}, "id": "aVCkjYumvvzQt9eGNu79OFmZDEQ=", "properties": {"@source_uri": "https://tools.usps.com/UspsToolsRestServices/rest/POLocator/findLocations", "@spider": "usps_collection_boxes", "addr:city": "SAN JUAN", "addr:country": "US", "addr:postcode": "00936", "addr:state": "PR", "addr:street_address": "585 AVE FD ROOSEVELT", "amenity": "post_box", "collection_times": "Mo-Fr 18:45; Sa 15:45", "note": "ON 12/24 AND 12/31, THIS BOX MAY BE COLLECTED AS EARLY AS 12 NOON.", "nsi_id": "unitedstatespostalservice-a77078", "operator": "United States Postal Service", "operator:short": "USPS", "operator:type": "public", "operator:wikidata": "Q668687", "ref": "0093600009"}, "type": "Feature"}
{"geometry": {"coordinates": [-66.0769099, 18.417609], "type": "Point"}, "id": "Jkud1zpKOCjPbja61mknyrk_u1o=", "properties": {"@source_uri": "https://tools.usps.com/UspsToolsRestServices/rest/POLocator/findLocations", "@spider": "usps_collection_boxes", "addr:city": "SAN JUAN", "addr:country": "US", "addr:postcode": "00936", "addr:state": "PR", "addr:street_address": "585 AVE FD ROOSEVELT", "amenity": "post_box", "collection_times": "Mo-Fr 19:00; Sa 16:00", "name": "USPS COLLECTION BOX - APC", "note": "ON 12/24 AND 12/31, THIS BOX MAY BE COLLECTED AS EARLY AS 12 NOON.", "nsi_id": "unitedstatespostalservice-a77078", "operator": "United States Postal Service", "operator:short": "USPS", "operator:type": "public", "operator:wikidata": "Q668687", "ref": "0093600020"}, "type": "Feature"}
{"geometry": {"coordinates": [-66.076969, 18.41777], "type": "Point"}, "id": "qxIZm6lGh_A7SZKJ7LpOBd0c4OA=", "properties": {"@source_uri": "https://tools.usps.com/UspsToolsRestServices/rest/POLocator/findLocations", "@spider": "usps_collection_boxes", "addr:city": "SAN JUAN", "addr:country": "US", "addr:postcode": "00936", "addr:state": "PR", "addr:street_address": "585 AVE FD ROOSEVELT", "amenity": "post_box", "collection_times": "Mo-Fr 19:00; Sa 16:00", "indoor": "yes", "note": "ON 12/24 AND 12/31, THIS BOX MAY BE COLLECTED AS EARLY AS 12 NOON.", "nsi_id": "unitedstatespostalservice-a77078", "operator": "United States Postal Service", "operator:short": "USPS", "operator:type": "public", "operator:wikidata": "Q668687", "ref": "0093600021"}, "type": "Feature"}
{"geometry": {"coordinates": [-66.076719137, 18.417290489], "type": "Point"}, "id": "eKrOU3SjgiZ0-0zItKW7UZcii0Y=", "properties": {"@source_uri": "https://tools.usps.com/UspsToolsRestServices/rest/POLocator/findLocations", "@spider": "usps_collection_boxes", "addr:city": "SAN JUAN", "addr:country": "US", "addr:postcode": "00936", "addr:state": "PR", "addr:street_address": "585 AVE FD ROOSEVELT", "amenity": "post_box", "collection_times": "Mo-Fr 18:15; Sa 16:15", "indoor": "yes", "note": "ON 12/24 AND 12/31, THIS BOX MAY BE COLLECTED AS EARLY AS 12 NOON.", "nsi_id": "unitedstatespostalservice-a77078", "operator": "United States Postal Service", "operator:short": "USPS", "operator:type": "public", "operator:wikidata": "Q668687", "ref": "0093600022"}, "type": "Feature"}
{"geometry": {"coordinates": [-66.1730303, 18.4429626], "type": "Point"}, "id": "pRHrjlWj-cb50tzgEVyLihq8QPk=", "properties": {"@source_uri": "https://tools.usps.com/UspsToolsRestServices/rest/POLocator/findLocations", "@spider": "usps_collection_boxes", "addr:city": "TOA BAJA", "addr:country": "US", "addr:postcode": "00949", "addr:state": "PR", "addr:street_address": "2682 PASEO ANON", "amenity": "post_box", "collection_times": "Mo-Sa 08:00", "nsi_id": "unitedstatespostalservice-a77078", "operator": "United States Postal Service", "operator:short": "USPS", "operator:type": "public", "operator:wikidata": "Q668687", "ref": "0094900000"}, "type": "Feature"}
{"geometry": {"coordinates": [-66.1857564, 18.43876], "type": "Point"}, "id": "qbeQD5OSY-7vMUdAfD4mBg3-S3g=", "properties": {"@source_uri": "https://tools.usps.com/UspsToolsRestServices/rest/POLocator/findLocations", "@spider": "usps_collection_boxes", "addr:city": "TOA BAJA", "addr:country": "US", "addr:postcode": "00949", "addr:state": "PR", "addr:street_address": "BM24 CALLE DR E ANTIQUE", "amenity": "post_box", "collection_times": "Mo-Sa 09:15", "nsi_id": "unitedstatespostalservice-a77078", "operator": "United States Postal Service", "operator:short": "USPS", "operator:type": "public", "operator:wikidata": "Q668687", "ref": "0094900017"}, "type": "Feature"}
{"geometry": {"coordinates": [-66.1881004, 18.46002], "type": "Point"}, "id": "-pmmPbn0CbfjmknaHPimIvcSWGI=", "properties": {"@source_uri": "https://tools.usps.com/UspsToolsRestServices/rest/POLocator/findLocations", "@spider": "usps_collection_boxes", "addr:city": "TOA BAJA", "addr:country": "US", "addr:postcode": "00949", "addr:state": "PR", "addr:street_address": "3556 PASEO CONDE", "amenity": "post_box", "collection_times": "Mo-Sa 08:15", "nsi_id": "unitedstatespostalservice-a77078", "operator": "United States Postal Service", "operator:short": "USPS", "operator:type": "public", "operator:wikidata": "Q668687", "ref": "0094900023"}, "type": "Feature"}
{"geometry": {"coordinates": [-66.2559372, 18.447615], "type": "Point"}, "id": "eeSPh8NT75jkrOqmcCkEgHnOuog=", "properties": {"@source_uri": "https://tools.usps.com/UspsToolsRestServices/rest/POLocator/findLocations", "@spider": "usps_collection_boxes", "addr:city": "TOA BAJA", "addr:country": "US", "addr:postcode": "00949", "addr:state": "PR", "addr:street_address": "100 AVE LUIS MUNOZ RIVERA", "amenity": "post_box", "collection_times": "Mo-Sa 08:30", "nsi_id": "unitedstatespostalservice-a77078", "operator": "United States Postal Service", "operator:short": "USPS", "operator:type": "public", "operator:wikidata": "Q668687", "ref": "0094900026"}, "type": "Feature"}
{"geometry": {"coordinates": [-66.2232327, 18.404882], "type": "Point"}, "id": "JreaZwBBrP8mV1mQ7_-qvhSShKg=", "properties": {"@source_uri": "https://tools.usps.com/UspsToolsRestServices/rest/POLocator/findLocations", "@spider": "usps_collection_boxes", "addr:city": "TOA BAJA", "addr:country": "US", "addr:postcode": "00949", "addr:state": "PR", "addr:street_address": "105 CARR 2", "amenity": "post_box", "collection_times": "Mo-Sa 08:45", "nsi_id": "unitedstatespostalservice-a77078", "operator": "United States Postal Service", "operator:short": "USPS", "operator:type": "public", "operator:wikidata": "Q668687", "ref": "0094900029"}, "type": "Feature"}
{"geometry": {"coordinates": [-66.2013729, 18.402789], "type": "Point"}, "id": "-lCKBP7RUWcIwQJeaySceSPt7VQ=", "properties": {"@source_uri": "https://tools.usps.com/UspsToolsRestServices/rest/POLocator/findLocations", "@spider": "usps_collection_boxes", "addr:city": "TOA BAJA", "addr:country": "US", "addr:postcode": "00949", "addr:state": "PR", "addr:street_address": "1A8 AVE DON PELAYO", "amenity": "post_box", "collection_times": "Mo-Sa 08:45", "nsi_id": "unitedstatespostalservice-a77078", "operator": "United States Postal Service", "operator:short": "USPS", "operator:type": "public", "operator:wikidata": "Q668687", "ref": "0094900033"}, "type": "Feature"}
{"geometry": {"coordinates": [-66.1953558, 18.463798], "type": "Point"}, "id": "nvTOcnMq2FjTqWtMThb3VGMlXy0=", "properties": {"@source_uri": "https://tools.usps.com/UspsToolsRestServices/rest/POLocator/findLocations", "@spider": "usps_collection_boxes", "addr:city": "TOA BAJA", "addr:country": "US", "addr:postcode": "00949", "addr:state": "PR", "addr:street_address": "1001 VIA PLAYERA", "amenity": "post_box", "collection_times": "Mo-Sa 11:50", "nsi_id": "unitedstatespostalservice-a77078", "operator": "United States Postal Service", "operator:short": "USPS", "operator:type": "public", "operator:wikidata": "Q668687", "ref": "0094900042"}, "type": "Feature"}
{"geometry": {"coordinates": [-66.2124663, 18.4190979], "type": "Point"}, "id": "TK5ZozVAqL2lr8OpkUenroWSZn4=", "properties": {"@source_uri": "https://tools.usps.com/UspsToolsRestServices/rest/POLocator/findLocations", "@spider": "usps_collection_boxes", "addr:city": "TOA BAJA", "addr:country": "US", "addr:postcode": "00949", "addr:state": "PR", "addr:street_address": "71 BRUNO CRUZ BLVD", "amenity": "post_box", "collection_times": "Mo-Sa 08:30", "nsi_id": "unitedstatespostalservice-a77078", "operator": "United States Postal Service", "operator:short": "USPS", "operator:type": "public", "operator:wikidata": "Q668687", "ref": "0094900043"}, "type": "Feature"}
{"geometry": {"coordinates": [-66.1851756, 18.452808], "type": "Point"}, "id": "jOW_6xq_pSOn0TRQKIDe6LzcMtk=", "properties": {"@source_uri": "https://tools.usps.com/UspsToolsRestServices/rest/POLocator/findLocations", "@spider": "usps_collection_boxes", "addr:city": "TOA BAJA", "addr:country": "US", "addr:postcode": "00949", "addr:state": "PR", "addr:street_address": "3359 PASEO COLINA", "amenity": "post_box", "collection_times": "Mo-Sa 08:15", "nsi_id": "unitedstatespostalservice-a77078", "operator": "United States Postal Service", "operator:short": "USPS", "operator:type": "public", "operator:wikidata": "Q668687", "ref": "0094900044"}, "type": "Feature"}
{"geometry": {"coordinates": [-66.2015181, 18.412825], "type": "Point"}, "id": "LPtMwCOpSn0iFZ2-YQoJPUzC5II=", "properties": {"@source_uri": "https://tools.usps.com/UspsToolsRestServices/rest/POLocator/findLocations", "@spider": "usps_collection_boxes", "addr:city": "TOA BAJA", "addr:country": "US", "addr:postcode": "00949", "addr:state": "PR", "addr:street_address": "N1 CALLE ROSA IMPERIAL", "amenity": "post_box", "collection_times": "Mo-Sa 09:00", "nsi_id": "unitedstatespostalservice-a77078", "operator": "United States Postal Service", "operator:short": "USPS", "operator:type": "public", "operator:wikidata": "Q668687", "ref": "0094900045"}, "type": "Feature"}
{"geometry": {"coordinates": [-66.1649629, 18.439997], "type": "Point"}, "id": "GS5k6DZgr0Dmnj0qE51KsYfZwPo=", "properties": {"@source_uri": "https://tools.usps.com/UspsToolsRestServices/rest/POLocator/findLocations", "@spider": "usps_collection_boxes", "addr:city": "TOA BAJA", "addr:country": "US", "addr:postcode": "00949", "addr:state": "PR", "addr:street_address": "600 CALLE DR HERNAN CORTES STE 4", "amenity": "post_box", "collection_times": "Mo-Fr 17:00; Sa 13:00", "note": "ON 12/24 AND 12/31, THIS BOX MAY BE COLLECTED AS EARLY AS 12 NOON.", "nsi_id": "unitedstatespostalservice-a77078", "operator": "United States Postal Service", "operator:short": "USPS", "operator:type": "public", "operator:wikidata": "Q668687", "ref": "0094900046"}, "type": "Feature"}
{"geometry": {"coordinates": [-66.191640006, 18.435759995], "type": "Point"}, "id": "DLWbB0BghXnBaSgfh7af5jfVsD8=", "properties": {"@source_uri": "https://tools.usps.com/UspsToolsRestServices/rest/POLocator/findLocations", "@spider": "usps_collection_boxes", "addr:city": "TOA BAJA", "addr:country": "US", "addr:postcode": "00949", "addr:state": "PR", "addr:street_address": "600 CALLE DR HERNAN CORTES STE 4", "amenity": "post_box", "collection_times": "Mo-Fr 17:00; Sa 13:00", "indoor": "yes", "note": "ON 12/24 AND 12/31, THIS BOX MAY BE COLLECTED AS EARLY AS 12 NOON.", "nsi_id": "unitedstatespostalservice-a77078", "operator": "United States Postal Service", "operator:short": "USPS", "operator:type": "public", "operator:wikidata": "Q668687", "ref": "0094900047"}, "type": "Feature"}
{"geometry": {"coordinates": [-66.17322, 18.44499], "type": "Point"}, "id": "fOaGuoIJxs6TR9C8K763v8zhZtU=", "properties": {"@source_uri": "https://tools.usps.com/UspsToolsRestServices/rest/POLocator/findLocations", "@spider": "usps_collection_boxes", "addr:city": "TOA BAJA", "addr:country": "US", "addr:postcode": "00949", "addr:state": "PR", "addr:street_address": "600 CALLE DR HERNAN CORTES STE 4", "amenity": "post_box", "collection_times": "Mo-Fr 16:45; Sa 14:15", "indoor": "yes", "note": "ON 12/24 AND 12/31, THIS BOX MAY BE COLLECTED AS EARLY AS 12 NOON.", "nsi_id": "unitedstatespostalservice-a77078", "operator": "United States Postal Service", "operator:short": "USPS", "operator:type": "public", "operator:wikidata": "Q668687", "ref": "0094900048"}, "type": "Feature"}
{"geometry": {"coordinates": [-66.253857107, 18.443414908], "type": "Point"}, "id": "pWbRY9gKDLYzoRZMLd3MWkQ7v1Y=", "properties": {"@source_uri": "https://tools.usps.com/UspsToolsRestServices/rest/POLocator/findLocations", "@spider": "usps_collection_boxes", "addr:city": "TOA BAJA", "addr:country": "US", "addr:postcode": "00949", "addr:state": "PR", "addr:street_address": "100 AVE LUIS MUNOZ RIVERA", "amenity": "post_box", "collection_times": "Mo-Fr 16:45", "indoor": "yes", "note": "ON 12/24 AND 12/31, THIS BOX MAY BE COLLECTED AS EARLY AS 12 NOON.", "nsi_id": "unitedstatespostalservice-a77078", "operator": "United States Postal Service", "operator:short": "USPS", "operator:type": "public", "operator:wikidata": "Q668687", "ref": "0094900049"}, "type": "Feature"}
{"geometry": {"coordinates": [-66.1876215, 18.427098], "type": "Point"}, "id": "STGpauz_-yDHbb1I245abwyRPKI=", "properties": {"@source_uri": "https://tools.usps.com/UspsToolsRestServices/rest/POLocator/findLocations", "@spider": "usps_collection_boxes", "addr:city": "TOA BAJA", "addr:country": "US", "addr:postcode": "00952", "addr:state": "PR", "addr:street_address": "100 CARR 866", "amenity": "post_box", "collection_times": "Mo-Sa 09:15", "nsi_id": "unitedstatespostalservice-a77078", "operator": "United States Postal Service", "operator:short": "USPS", "operator:type": "public", "operator:wikidata": "Q668687", "ref": "0095200001"}, "type": "Feature"}
{"geometry": {"coordinates": [-66.187486, 18.42719], "type": "Point"}, "id": "gUzI65EO8r4EqUfunqq0Rm8tIc4=", "properties": {"@source_uri": "https://tools.usps.com/UspsToolsRestServices/rest/POLocator/findLocations", "@spider": "usps_collection_boxes", "addr:city": "TOA BAJA", "addr:country": "US", "addr:postcode": "00952", "addr:state": "PR", "addr:street_address": "100 CARR 866", "amenity": "post_box", "collection_times": "Mo-Sa 09:15", "indoor": "yes", "nsi_id": "unitedstatespostalservice-a77078", "operator": "United States Postal Service", "operator:short": "USPS", "operator:type": "public", "operator:wikidata": "Q668687", "ref": "0095200002"}, "type": "Feature"}
{"geometry": {"coordinates": [-66.186142447, 18.427242469], "type": "Point"}, "id": "aH-bgvoLBab9fOtYkvsd_IuR9Ug=", "properties": {"@source_uri": "https://tools.usps.com/UspsToolsRestServices/rest/POLocator/findLocations", "@spider": "usps_collection_boxes", "addr:city": "TOA BAJA", "addr:country": "US", "addr:postcode": "00952", "addr:state": "PR", "addr:street_address": "100 CARR 866", "amenity": "post_box", "collection_times": "Mo-Fr 16:15; Sa 12:15", "indoor": "yes", "note": "ON 12/24 AND 12/31, THIS BOX MAY BE COLLECTED AS EARLY AS 12 NOON.", "nsi_id": "unitedstatespostalservice-a77078", "operator": "United States Postal Service", "operator:short": "USPS", "operator:type": "public", "operator:wikidata": "Q668687", "ref": "0095200003"}, "type": "Feature"}
{"geometry": {"coordinates": [-66.266773258, 18.358367806], "type": "Point"}, "id": "_kBERMyujg2VBT9GAwhnsUt18q4=", "properties": {"@source_uri": "https://tools.usps.com/UspsToolsRestServices/rest/POLocator/findLocations", "@spider": "usps_collection_boxes", "addr:city": "TOA ALTA", "addr:country": "US", "addr:postcode": "00953", "addr:state": "PR", "addr:street_address": "125 CARR 165 STE 1", "amenity": "post_box", "collection_times": "Mo-Fr 15:00; Sa 08:00", "note": "ON 12/24 AND 12/31, THIS BOX MAY BE COLLECTED AS EARLY AS 12 NOON.", "nsi_id": "unitedstatespostalservice-a77078", "operator": "United States Postal Service", "operator:short": "USPS", "operator:type": "public", "operator:wikidata": "Q668687", "ref": "0095300000"}, "type": "Feature"}
{"geometry": {"coordinates": [-66.2120295, 18.362739], "type": "Point"}, "id": "TGnULH4MPHZ25el9DGIyCsaisjk=", "properties": {"@source_uri": "https://tools.usps.com/UspsToolsRestServices/rest/POLocator/findLocations", "@spider": "usps_collection_boxes", "addr:city": "TOA ALTA", "addr:country": "US", "addr:postcode": "00953", "addr:state": "PR", "addr:street_address": "N15 CALLE 18", "amenity": "post_box", "collection_times": "Mo-Sa 08:00", "nsi_id": "unitedstatespostalservice-a77078", "operator": "United States Postal Service", "operator:short": "USPS", "operator:type": "public", "operator:wikidata": "Q668687", "ref": "0095300004"}, "type": "Feature"}
{"geometry": {"coordinates": [-66.2002372, 18.366616], "type": "Point"}, "id": "zKahzAaZR-mDu0_aZHWk9rFjpGc=", "properties": {"@source_uri": "https://tools.usps.com/UspsToolsRestServices/rest/POLocator/findLocations", "@spider": "usps_collection_boxes", "addr:city": "TOA ALTA", "addr:country": "US", "addr:postcode": "00953", "addr:state": "PR", "addr:street_address": "24 CALLE UCAR", "amenity": "post_box", "collection_times": "Mo-Sa 08:00", "nsi_id": "unitedstatespostalservice-a77078", "operator": "United States Postal Service", "operator:short": "USPS", "operator:type": "public", "operator:wikidata": "Q668687", "ref": "0095300006"}, "type": "Feature"}
{"geometry": {"coordinates": [-66.2050487, 18.390397], "type": "Point"}, "id": "mTN90oV56t266ee-wFLUiqy8hEc=", "properties": {"@source_uri": "https://tools.usps.com/UspsToolsRestServices/rest/POLocator/findLocations", "@spider": "usps_collection_boxes", "addr:city": "TOA ALTA", "addr:country": "US", "addr:postcode": "00953", "addr:state": "PR", "addr:street_address": "500 AVE NORFE", "amenity": "post_box", "collection_times": "Mo-Sa 08:00", "nsi_id": "unitedstatespostalservice-a77078", "operator": "United States Postal Service", "operator:short": "USPS", "operator:type": "public", "operator:wikidata": "Q668687", "ref": "0095300007"}, "type": "Feature"}
{"geometry": {"coordinates": [-66.266773258, 18.358367806], "type": "Point"}, "id": "XccLxMF4nS2xzQKr-bKHD8FOJiA=", "properties": {"@source_uri": "https://tools.usps.com/UspsToolsRestServices/rest/POLocator/findLocations", "@spider": "usps_collection_boxes", "addr:city": "TOA ALTA", "addr:country": "US", "addr:postcode": "00953", "addr:state": "PR", "addr:street_address": "125 CARR 165 STE 1", "amenity": "post_box", "collection_times": "Mo-Fr 15:00; Sa 08:00", "indoor": "yes", "note": "ON 12/24 AND 12/31, THIS BOX MAY BE COLLECTED AS EARLY AS 12 NOON.", "nsi_id": "unitedstatespostalservice-a77078", "operator": "United States Postal Service", "operator:short": "USPS", "operator:type": "public", "operator:wikidata": "Q668687", "ref": "0095300009"}, "type": "Feature"}
{"geometry": {"coordinates": [-66.266773258, 18.358367806], "type": "Point"}, "id": "5Eat0Qs1bl-dkt8AnW1tCh7at7E=", "properties": {"@source_uri": "https://tools.usps.com/UspsToolsRestServices/rest/POLocator/findLocations", "@spider": "usps_collection_boxes", "addr:city": "TOA ALTA", "addr:country": "US", "addr:postcode": "00953", "addr:state": "PR", "addr:street_address": "125 CARR 165 STE 1", "amenity": "post_box", "collection_times": "Mo-Fr 16:15; Sa 12:15", "indoor": "yes", "note": "ON 12/24 AND 12/31, THIS BOX MAY BE COLLECTED AS EARLY AS 12 NOON.", "nsi_id": "unitedstatespostalservice-a77078", "operator": "United States Postal Service", "operator:short": "USPS", "operator:type": "public", "operator:wikidata": "Q668687", "ref": "0095300010"}, "type": "Feature"}
{"geometry": {"coordinates": [-66.1567423, 18.36929], "type": "Point"}, "id": "z28Np4Jud7o5eUrdH_RMiOPhcOs=", "properties": {"@source_uri": "https://tools.usps.com/UspsToolsRestServices/rest/POLocator/findLocations", "@spider": "usps_collection_boxes", "addr:city": "BAYAMON", "addr:country": "US", "addr:postcode": "00956", "addr:state": "PR", "addr:street_address": "AQ36 AVE LAUREL", "amenity": "post_box", "collection_times": "Mo-Sa 12:30", "note": "ON 12/24 AND 12/31, THIS BOX MAY BE COLLECTED AS EARLY AS 12 NOON.", "nsi_id": "unitedstatespostalservice-a77078", "operator": "United States Postal Service", "operator:short": "USPS", "operator:type": "public", "operator:wikidata": "Q668687", "ref": "0095600014"}, "type": "Feature"}
{"geometry": {"coordinates": [-66.150657825, 18.364683021], "type": "Point"}, "id": "0d-PvWl1XSjRiSuweaW-DyIU-fE=", "properties": {"@source_uri": "https://tools.usps.com/UspsToolsRestServices/rest/POLocator/findLocations", "@spider": "usps_collection_boxes", "addr:city": "BAYAMON", "addr:country": "US", "addr:postcode": "00956", "addr:state": "PR", "addr:street_address": "DC1 AVE MINILLAS", "amenity": "post_box", "collection_times": "Mo-Sa 08:30", "nsi_id": "unitedstatespostalservice-a77078", "operator": "United States Postal Service", "operator:short": "USPS", "operator:type": "public", "operator:wikidata": "Q668687", "ref": "0095600036"}, "type": "Feature"}
{"geometry": {"coordinates": [-66.1730144, 18.379167], "type": "Point"}, "id": "rCH4-nMcHJQa9iffQ14-smiVUGg=", "properties": {"@source_uri": "https://tools.usps.com/UspsToolsRestServices/rest/POLocator/findLocations", "@spider": "usps_collection_boxes", "addr:city": "BAYAMON", "addr:country": "US", "addr:postcode": "00957", "addr:state": "PR", "addr:street_address": "100 VICTORY SHOPP CTR STE 1", "amenity": "post_box", "collection_times": "Mo-Fr 17:00; Sa 15:00", "note": "ON 12/24 AND 12/31, THIS BOX MAY BE COLLECTED AS EARLY AS 12 NOON.", "nsi_id": "unitedstatespostalservice-a77078", "operator": "United States Postal Service", "operator:short": "USPS", "operator:type": "public", "operator:wikidata": "Q668687", "ref": "0095700025"}, "type": "Feature"}
{"geometry": {"coordinates": [-66.187510008, 18.372429978], "type": "Point"}, "id": "NChVvvdNnqOnEa5v3JA8MlcNdtc=", "properties": {"@source_uri": "https://tools.usps.com/UspsToolsRestServices/rest/POLocator/findLocations", "@spider": "usps_collection_boxes", "addr:city": "BAYAMON", "addr:country": "US", "addr:postcode": "00957", "addr:state": "PR", "addr:street_address": "100 VICTORY SHOPP CTR", "amenity": "post_box", "collection_times": "Mo-Fr 16:30; Sa 12:00", "indoor": "yes", "note": "ON 12/24 AND 12/31, THIS BOX MAY BE COLLECTED AS EARLY AS 12 NOON.", "nsi_id": "unitedstatespostalservice-a77078", "operator": "United States Postal Service", "operator:short": "USPS", "operator:type": "public", "operator:wikidata": "Q668687", "ref": "0095700032"}, "type": "Feature"}
{"geometry": {"coordinates": [-66.1904908, 18.373412], "type": "Point"}, "id": "fB7bodSZx3FI4SSRm0q_Dnnn1SI=", "properties": {"@source_uri": "https://tools.usps.com/UspsToolsRestServices/rest/POLocator/findLocations", "@spider": "usps_collection_boxes", "addr:city": "BAYAMON", "addr:country": "US", "addr:postcode": "00957", "addr:state": "PR", "addr:street_address": "100 VICTORY SHOPP CTR", "amenity": "post_box", "collection_times": "Mo-Fr 16:30; Sa 12:30", "indoor": "yes", "note": "ON 12/24 AND 12/31, THIS BOX MAY BE COLLECTED AS EARLY AS 12 NOON.", "nsi_id": "unitedstatespostalservice-a77078", "operator": "United States Postal Service", "operator:short": "USPS", "operator:type": "public", "operator:wikidata": "Q668687", "ref": "0095700033"}, "type": "Feature"}
{"geometry": {"coordinates": [-66.1327328, 18.392798], "type": "Point"}, "id": "ttkG5vu9CefPhBiSZezS9FyM3r8=", "properties": {"@source_uri": "https://tools.usps.com/UspsToolsRestServices/rest/POLocator/findLocations", "@spider": "usps_collection_boxes", "addr:city": "BAYAMON", "addr:country": "US", "addr:postcode": "00959", "addr:state": "PR", "addr:street_address": "W13 AVE RUIZ SOLER", "amenity": "post_box", "collection_times": "Mo-Sa 15:15", "note": "ON 12/24 AND 12/31, THIS BOX MAY BE COLLECTED AS EARLY AS 12 NOON.", "nsi_id": "unitedstatespostalservice-a77078", "operator": "United States Postal Service", "operator:short": "USPS", "operator:type": "public", "operator:wikidata": "Q668687", "ref": "0095900039"}, "type": "Feature"}
{"geometry": {"coordinates": [-66.1567464, 18.392896], "type": "Point"}, "id": "kZXOE_SV1aKBCbngX6e_O4Nw97g=", "properties": {"@source_uri": "https://tools.usps.com/UspsToolsRestServices/rest/POLocator/findLocations", "@spider": "usps_collection_boxes", "addr:city": "BAYAMON", "addr:country": "US", "addr:postcode": "00959", "addr:state": "PR", "addr:street_address": "100 AVE RAMON R RODRIGUEZ", "amenity": "post_box", "collection_times": "Mo-Fr 17:00; Sa 15:00", "note": "ON 12/24 AND 12/31, THIS BOX MAY BE COLLECTED AS EARLY AS 12 NOON.", "nsi_id": "unitedstatespostalservice-a77078", "operator": "United States Postal Service", "operator:short": "USPS", "operator:type": "public", "operator:wikidata": "Q668687", "ref": "0095900069"}, "type": "Feature"}
{"geometry": {"coordinates": [-66.156411, 18.393059], "type": "Point"}, "id": "WwDsuf7RhIGB77_aBpCjnX5ecj8=", "properties": {"@source_uri": "https://tools.usps.com/UspsToolsRestServices/rest/POLocator/findLocations", "@spider": "usps_collection_boxes", "addr:city": "BAYAMON", "addr:country": "US", "addr:postcode": "00959", "addr:state": "PR", "addr:street_address": "100 AVE RAMON L RODRIGUEZ", "amenity": "post_box", "collection_times": "Mo-Fr 16:30; Sa 12:00", "indoor": "yes", "note": "ON 12/24 AND 12/31, THIS BOX MAY BE COLLECTED AS EARLY AS 12 NOON.", "nsi_id": "unitedstatespostalservice-a77078", "operator": "United States Postal Service", "operator:short": "USPS", "operator:type": "public", "operator:wikidata": "Q668687", "ref": "0095900073"}, "type": "Feature"}
{"geometry": {"coordinates": [-66.155700588, 18.393401003], "type": "Point"}, "id": "NHDjPgLMAfjkegaCTrgXORBwkJM=", "properties": {"@source_uri": "https://tools.usps.com/UspsToolsRestServices/rest/POLocator/findLocations", "@spider": "usps_collection_boxes", "addr:city": "BAYAMON", "addr:country": "US", "addr:postcode": "00959", "addr:state": "PR", "addr:street_address": "100 AVE RAMON L RODRIGUEZ", "amenity": "post_box", "collection_times": "Mo-Fr 17:00; Sa 12:30", "indoor": "yes", "note": "ON 12/24 AND 12/31, THIS BOX MAY BE COLLECTED AS EARLY AS 12 NOON.", "nsi_id": "unitedstatespostalservice-a77078", "operator": "United States Postal Service", "operator:short": "USPS", "operator:type": "public", "operator:wikidata": "Q668687", "ref": "0095900075"}, "type": "Feature"}
{"geometry": {"coordinates": [-66.1558777, 18.3924343], "type": "Point"}, "id": "PloVkqbfoIf0yd1-mSSmxINbUu8=", "properties": {"@source_uri": "https://tools.usps.com/UspsToolsRestServices/rest/POLocator/findLocations", "@spider": "usps_collection_boxes", "addr:city": "BAYAMON", "addr:country": "US", "addr:postcode": "00959", "addr:state": "PR", "addr:street_address": "100 AVE RAMON L RODRIGUEZ", "amenity": "post_box", "collection_times": "Mo-Fr 11:30; Sa 10:30", "nsi_id": "unitedstatespostalservice-a77078", "operator": "United States Postal Service", "operator:short": "USPS", "operator:type": "public", "operator:wikidata": "Q668687", "ref": "0095900076"}, "type": "Feature"}
{"geometry": {"coordinates": [-66.1695577, 18.405347], "type": "Point"}, "id": "JnIL61q5SVYI54rl9FMGUqrsC4Q=", "properties": {"@source_uri": "https://tools.usps.com/UspsToolsRestServices/rest/POLocator/findLocations", "@spider": "usps_collection_boxes", "addr:city": "SAN JUAN", "addr:country": "US", "addr:postcode": "00961", "addr:state": "PR", "addr:street_address": "39A-16 CALLE 35B", "amenity": "post_box", "collection_times": "Mo-Sa 11:00", "nsi_id": "unitedstatespostalservice-a77078", "operator": "United States Postal Service", "operator:short": "USPS", "operator:type": "public", "operator:wikidata": "Q668687", "ref": "0096100024"}, "type": "Feature"}
{"geometry": {"coordinates": [-66.1204234, 18.440795], "type": "Point"}, "id": "7AH1I2D3hJ4ltiU-1EbPgZYbTPA=", "properties": {"@source_uri": "https://tools.usps.com/UspsToolsRestServices/rest/POLocator/findLocations", "@spider": "usps_collection_boxes", "addr:city": "SAN JUAN", "addr:country": "US", "addr:postcode": "00962", "addr:state": "PR", "addr:street_address": "131 AVE BARBOSA", "amenity": "post_box", "collection_times": "Mo-Fr 16:30; Sa 09:45", "note": "ON 12/24 AND 12/31, THIS BOX MAY BE COLLECTED AS EARLY AS 12 NOON.", "nsi_id": "unitedstatespostalservice-a77078", "operator": "United States Postal Service", "operator:short": "USPS", "operator:type": "public", "operator:wikidata": "Q668687", "ref": "0096200001"}, "type": "Feature"}
{"geometry": {"coordinates": [-66.1443264, 18.428234], "type": "Point"}, "id": "ePDqPe4Xj07HpCvCUhzjh76-xqQ=", "properties": {"@source_uri": "https://tools.usps.com/UspsToolsRestServices/rest/POLocator/findLocations", "@spider": "usps_collection_boxes", "addr:city": "SAN JUAN", "addr:country": "US", "addr:postcode": "00962", "addr:state": "PR", "addr:street_address": "BB1 AVE FLOR DEL VALLE", "amenity": "post_box", "collection_times": "Mo-Sa 09:30", "nsi_id": "unitedstatespostalservice-a77078", "operator": "United States Postal Service", "operator:short": "USPS", "operator:type": "public", "operator:wikidata": "Q668687", "ref": "0096200008"}, "type": "Feature"}
{"geometry": {"coordinates": [-66.1499961, 18.429639], "type": "Point"}, "id": "Ar2ZAdXvAnuh8fqb5CW9hLKzQVY=", "properties": {"@source_uri": "https://tools.usps.com/UspsToolsRestServices/rest/POLocator/findLocations", "@spider": "usps_collection_boxes", "addr:city": "SAN JUAN", "addr:country": "US", "addr:postcode": "00962", "addr:state": "PR", "addr:street_address": "500 CARR 869", "amenity": "post_box", "collection_times": "Mo-Sa 13:30", "note": "ON 12/24 AND 12/31, THIS BOX MAY BE COLLECTED AS EARLY AS 12 NOON.", "nsi_id": "unitedstatespostalservice-a77078", "operator": "United States Postal Service", "operator:short": "USPS", "operator:type": "public", "operator:wikidata": "Q668687", "ref": "0096200011"}, "type": "Feature"}
{"geometry": {"coordinates": [-66.10473, 18.46633], "type": "Point"}, "id": "0AqBUuGIgE94XUICpmgyvmjEL4s=", "properties": {"@source_uri": "https://tools.usps.com/UspsToolsRestServices/rest/POLocator/findLocations", "@spider": "usps_collection_boxes", "addr:city": "SAN JUAN", "addr:country": "US", "addr:postcode": "00962", "addr:state": "PR", "addr:street_address": "10 BLVD LAS PALMAS", "amenity": "post_box", "collection_times": "Mo-Sa 14:30", "note": "ON 12/24 AND 12/31, THIS BOX MAY BE COLLECTED AS EARLY AS 12 NOON.", "nsi_id": "unitedstatespostalservice-a77078", "operator": "United States Postal Service", "operator:short": "USPS", "operator:type": "public", "operator:wikidata": "Q668687", "ref": "0096200013"}, "type": "Feature"}
{"geometry": {"coordinates": [-66.1142415, 18.431237], "type": "Point"}, "id": "MHgiIhjTeHhqe_f1WGgqaIbw_Zg=", "properties": {"@source_uri": "https://tools.usps.com/UspsToolsRestServices/rest/POLocator/findLocations", "@spider": "usps_collection_boxes", "addr:city": "SAN JUAN", "addr:country": "US", "addr:postcode": "00962", "addr:state": "PR", "addr:street_address": "2 AVE PONCE DE LEON", "amenity": "post_box", "collection_times": "Mo-Sa 11:00", "nsi_id": "unitedstatespostalservice-a77078", "operator": "United States Postal Service", "operator:short": "USPS", "operator:type": "public", "operator:wikidata": "Q668687", "ref": "0096200016"}, "type": "Feature"}
{"geometry": {"coordinates": [-66.120061, 18.44105], "type": "Point"}, "id": "4xR-80GgHrcMKQicICYkn_Nhdnc=", "properties": {"@source_uri": "https://tools.usps.com/UspsToolsRestServices/rest/POLocator/findLocations", "@spider": "usps_collection_boxes", "addr:city": "SAN JUAN", "addr:country": "US", "addr:postcode": "00962", "addr:state": "PR", "addr:street_address": "131 AVE BARBOSA", "amenity": "post_box", "collection_times": "Mo-Fr 16:30; Sa 12:00", "indoor": "yes", "note": "ON 12/24 AND 12/31, THIS BOX MAY BE COLLECTED AS EARLY AS 12 NOON.", "nsi_id": "unitedstatespostalservice-a77078", "operator": "United States Postal Service", "operator:short": "USPS", "operator:type": "public", "operator:wikidata": "Q668687", "ref": "0096200019"}, "type": "Feature"}
{"geometry": {"coordinates": [-66.048032791, 18.428128486], "type": "Point"}, "id": "_KBk6v05hFCr3TjIQ108D69ixwI=", "properties": {"@source_uri": "https://tools.usps.com/UspsToolsRestServices/rest/POLocator/findLocations", "@spider": "usps_collection_boxes", "addr:city": "SAN JUAN", "addr:country": "US", "addr:postcode": "00962", "addr:state": "PR", "addr:street_address": "131 AVE BARBOSA", "amenity": "post_box", "collection_times": "Mo-Fr 17:00; Sa 12:30", "indoor": "yes", "note": "ON 12/24 AND 12/31, THIS BOX MAY BE COLLECTED AS EARLY AS 12 NOON.", "nsi_id": "unitedstatespostalservice-a77078", "operator": "United States Postal Service", "operator:short": "USPS", "operator:type": "public", "operator:wikidata": "Q668687", "ref": "0096200020"}, "type": "Feature"}
{"geometry": {"coordinates": [-66.1221149, 18.399222], "type": "Point"}, "id": "UZ3vtb-z7SauOUrBNi7vx8Gl3bU=", "properties": {"@source_uri": "https://tools.usps.com/UspsToolsRestServices/rest/POLocator/findLocations", "@spider": "usps_collection_boxes", "addr:city": "GUAYNABO", "addr:country": "US", "addr:postcode": "00966", "addr:state": "PR", "addr:street_address": "99 CARR 2", "amenity": "post_box", "collection_times": "Mo-Sa 08:45", "nsi_id": "unitedstatespostalservice-a77078", "operator": "United States Postal Service", "operator:short": "USPS", "operator:type": "public", "operator:wikidata": "Q668687", "ref": "0096600009"}, "type": "Feature"}
{"geometry": {"coordinates": [-66.1089152, 18.406233], "type": "Point"}, "id": "1KuyE6m-FAMaqxtuEkT3h3mPiBs=", "properties": {"@source_uri": "https://tools.usps.com/UspsToolsRestServices/rest/POLocator/findLocations", "@spider": "usps_collection_boxes", "addr:city": "GUAYNABO", "addr:country": "US", "addr:postcode": "00966", "addr:state": "PR", "addr:street_address": "1019 AVE LUIS VIGOREAUX", "amenity": "post_box", "collection_times": "Mo-Sa 09:00", "nsi_id": "unitedstatespostalservice-a77078", "operator": "United States Postal Service", "operator:short": "USPS", "operator:type": "public", "operator:wikidata": "Q668687", "ref": "0096600013"}, "type": "Feature"}
{"geometry": {"coordinates": [-66.1087262, 18.400107], "type": "Point"}, "id": "hSScyP3-7syZRgeCgDkhdmy1cS4=", "properties": {"@source_uri": "https://tools.usps.com/UspsToolsRestServices/rest/POLocator/findLocations", "@spider": "usps_collection_boxes", "addr:city": "GUAYNABO", "addr:country": "US", "addr:postcode": "00966", "addr:state": "PR", "addr:street_address": "1325 AVE LUIS VIGOREAUX", "amenity": "post_box", "collection_times": "Mo-Sa 09:00", "nsi_id": "unitedstatespostalservice-a77078", "operator": "United States Postal Service", "operator:short": "USPS", "operator:type": "public", "operator:wikidata": "Q668687", "ref": "0096600014"}, "type": "Feature"}
{"geometry": {"coordinates": [-66.1059874, 18.416088], "type": "Point"}, "id": "mI_u5Jvt4hmoJFroPEdLyVj2Rzk=", "properties": {"@source_uri": "https://tools.usps.com/UspsToolsRestServices/rest/POLocator/findLocations", "@spider": "usps_collection_boxes", "addr:city": "GUAYNABO", "addr:country": "US", "addr:postcode": "00968", "addr:state": "PR", "addr:street_address": "18 CALLE 1", "amenity": "post_box", "collection_times": "Mo-Sa 12:00", "nsi_id": "unitedstatespostalservice-a77078", "operator": "United States Postal Service", "operator:short": "USPS", "operator:type": "public", "operator:wikidata": "Q668687", "ref": "0096800001"}, "type": "Feature"}
{"geometry": {"coordinates": [-66.1048504, 18.408602], "type": "Point"}, "id": "hpKN6v6-hzkplicSYan24W9N-BQ=", "properties": {"@source_uri": "https://tools.usps.com/UspsToolsRestServices/rest/POLocator/findLocations", "@spider": "usps_collection_boxes", "addr:city": "GUAYNABO", "addr:country": "US", "addr:postcode": "00968", "addr:state": "PR", "addr:street_address": "100 AVE SAN PATRICIO", "amenity": "post_box", "collection_times": "Mo-Sa 14:00", "note": "ON 12/24 AND 12/31, THIS BOX MAY BE COLLECTED AS EARLY AS 12 NOON.", "nsi_id": "unitedstatespostalservice-a77078", "operator": "United States Postal Service", "operator:short": "USPS", "operator:type": "public", "operator:wikidata": "Q668687", "ref": "0096800008"}, "type": "Feature"}
{"geometry": {"coordinates": [-66.1036136, 18.410561], "type": "Point"}, "id": "cvCs0cnihpecFMHk6aziG2m0ybA=", "properties": {"@source_uri": "https://tools.usps.com/UspsToolsRestServices/rest/POLocator/findLocations", "@spider": "usps_collection_boxes", "addr:city": "GUAYNABO", "addr:country": "US", "addr:postcode": "00968", "addr:state": "PR", "addr:street_address": "1510 AVE FD ROOSEVELT", "amenity": "post_box", "collection_times": "Mo-Sa 15:00", "note": "ON 12/24 AND 12/31, THIS BOX MAY BE COLLECTED AS EARLY AS 12 NOON.", "nsi_id": "unitedstatespostalservice-a77078", "operator": "United States Postal Service", "operator:short": "USPS", "operator:type": "public", "operator:wikidata": "Q668687", "ref": "0096800010"}, "type": "Feature"}
{"geometry": {"coordinates": [-66.1146042, 18.418523], "type": "Point"}, "id": "qIK0MTblARiDxsvKSGt5Ox8vtN8=", "properties": {"@source_uri": "https://tools.usps.com/UspsToolsRestServices/rest/POLocator/findLocations", "@spider": "usps_collection_boxes", "addr:city": "GUAYNABO", "addr:country": "US", "addr:postcode": "00968", "addr:state": "PR", "addr:street_address": "10 CALLE CLAUDIA", "amenity": "post_box", "collection_times": "Mo-Sa 10:30", "nsi_id": "unitedstatespostalservice-a77078", "operator": "United States Postal Service", "operator:short": "USPS", "operator:type": "public", "operator:wikidata": "Q668687", "ref": "0096800011"}, "type": "Feature"}
{"geometry": {"coordinates": [-66.1001759, 18.411994], "type": "Point"}, "id": "9N2zL1ZmEt8Qfh15eBDHE-xOa7M=", "properties": {"@source_uri": "https://tools.usps.com/UspsToolsRestServices/rest/POLocator/findLocations", "@spider": "usps_collection_boxes", "addr:city": "GUAYNABO", "addr:country": "US", "addr:postcode": "00968", "addr:state": "PR", "addr:street_address": "1505 AVE FD ROOSEVELT", "amenity": "post_box", "collection_times": "Mo-Sa 15:00", "note": "ON 12/24 AND 12/31, THIS BOX MAY BE COLLECTED AS EARLY AS 12 NOON.", "nsi_id": "unitedstatespostalservice-a77078", "operator": "United States Postal Service", "operator:short": "USPS", "operator:type": "public", "operator:wikidata": "Q668687", "ref": "0096800014"}, "type": "Feature"}
{"geometry": {"coordinates": [-66.1000210355, 18.4104790065], "type": "Point"}, "id": "7L0qAiCOHQ8bPQ7zAqiLnCLQqYk=", "properties": {"@source_uri": "https://tools.usps.com/UspsToolsRestServices/rest/POLocator/findLocations", "@spider": "usps_collection_boxes", "addr:city": "GUAYNABO", "addr:country": "US", "addr:postcode": "00968", "addr:state": "PR", "addr:street_address": "1498 AVE FD ROOSEVELT STE 5B", "amenity": "post_box", "collection_times": "Mo-Fr 17:00", "indoor": "yes", "note": "ON 12/24 AND 12/31, THIS BOX MAY BE COLLECTED AS EARLY AS 12 NOON.", "nsi_id": "unitedstatespostalservice-a77078", "operator": "United States Postal Service", "operator:short": "USPS", "operator:type": "public", "operator:wikidata": "Q668687", "ref": "0096800015"}, "type": "Feature"}
{"geometry": {"coordinates": [-66.1000210355, 18.4104790065], "type": "Point"}, "id": "6rDruERTmYmSqhswWLIYEavWN6s=", "properties": {"@source_uri": "https://tools.usps.com/UspsToolsRestServices/rest/POLocator/findLocations", "@spider": "usps_collection_boxes", "addr:city": "GUAYNABO", "addr:country": "US", "addr:postcode": "00968", "addr:state": "PR", "addr:street_address": "1498 AVE FD ROOSEVELT STE 5B", "amenity": "post_box", "collection_times": "Mo-Fr 17:00", "indoor": "yes", "note": "ON 12/24 AND 12/31, THIS BOX MAY BE COLLECTED AS EARLY AS 12 NOON.", "nsi_id": "unitedstatespostalservice-a77078", "operator": "United States Postal Service", "operator:short": "USPS", "operator:type": "public", "operator:wikidata": "Q668687", "ref": "0096800016"}, "type": "Feature"}
{"geometry": {"coordinates": [-66.1131831, 18.355916], "type": "Point"}, "id": "dn5mgWZ9fv7yL5KQfv1z4ZWl7QU=", "properties": {"@source_uri": "https://tools.usps.com/UspsToolsRestServices/rest/POLocator/findLocations", "@spider": "usps_collection_boxes", "addr:city": "GUAYNABO", "addr:country": "US", "addr:postcode": "00969", "addr:state": "PR", "addr:street_address": "100 CALLE CECILIO URBINA", "amenity": "post_box", "collection_times": "Mo-Fr 17:00; Sa 13:00", "note": "ON 12/24 AND 12/31, THIS BOX MAY BE COLLECTED AS EARLY AS 12 NOON.", "nsi_id": "unitedstatespostalservice-a77078", "operator": "United States Postal Service", "operator:short": "USPS", "operator:type": "public", "operator:wikidata": "Q668687", "ref": "0096900001"}, "type": "Feature"}
{"geometry": {"coordinates": [-66.112000032, 18.362219989], "type": "Point"}, "id": "uPDTI5Qgy60KWlJiqFVFpGbOnT0=", "properties": {"@source_uri": "https://tools.usps.com/UspsToolsRestServices/rest/POLocator/findLocations", "@spider": "usps_collection_boxes", "addr:city": "GUAYNABO", "addr:country": "US", "addr:postcode": "00969", "addr:state": "PR", "addr:street_address": "2 AVE ALBOLOTE", "amenity": "post_box", "collection_times": "Mo-Sa 08:00", "nsi_id": "unitedstatespostalservice-a77078", "operator": "United States Postal Service", "operator:short": "USPS", "operator:type": "public", "operator:wikidata": "Q668687", "ref": "0096900006"}, "type": "Feature"}
{"geometry": {"coordinates": [-66.1006434, 18.371283], "type": "Point"}, "id": "xVWQblkAio2eYy8l6c5sGQ8ECD8=", "properties": {"@source_uri": "https://tools.usps.com/UspsToolsRestServices/rest/POLocator/findLocations", "@spider": "usps_collection_boxes", "addr:city": "GUAYNABO", "addr:country": "US", "addr:postcode": "00969", "addr:state": "PR", "addr:street_address": "210 AVE ESMERALDA", "amenity": "post_box", "collection_times": "Mo-Sa 08:00", "nsi_id": "unitedstatespostalservice-a77078", "operator": "United States Postal Service", "operator:short": "USPS", "operator:type": "public", "operator:wikidata": "Q668687", "ref": "0096900016"}, "type": "Feature"}
{"geometry": {"coordinates": [-66.115661, 18.35801], "type": "Point"}, "id": "AOAoR2qB_s07nuK9H4kVn-wgi6A=", "properties": {"@source_uri": "https://tools.usps.com/UspsToolsRestServices/rest/POLocator/findLocations", "@spider": "usps_collection_boxes", "addr:city": "GUAYNABO", "addr:country": "US", "addr:postcode": "00969", "addr:state": "PR", "addr:street_address": "100 CALLE CECILIO URBINA", "amenity": "post_box", "collection_times": "Mo-Fr 17:00; Sa 13:00", "indoor": "yes", "note": "ON 12/24 AND 12/31, THIS BOX MAY BE COLLECTED AS EARLY AS 12 NOON.", "nsi_id": "unitedstatespostalservice-a77078", "operator": "United States Postal Service", "operator:short": "USPS", "operator:type": "public", "operator:wikidata": "Q668687", "ref": "0096900029"}, "type": "Feature"}
{"geometry": {"coordinates": [-66.115558241, 18.358100236], "type": "Point"}, "id": "Zego_6BNDS9wwdkbnM-b0tAla9A=", "properties": {"@source_uri": "https://tools.usps.com/UspsToolsRestServices/rest/POLocator/findLocations", "@spider": "usps_collection_boxes", "addr:city": "GUAYNABO", "addr:country": "US", "addr:postcode": "00969", "addr:state": "PR", "addr:street_address": "100 CALLE CECILIO URBINA", "amenity": "post_box", "collection_times": "Mo-Fr 16:45; Sa 12:15", "indoor": "yes", "note": "ON 12/24 AND 12/31, THIS BOX MAY BE COLLECTED AS EARLY AS 12 NOON.", "nsi_id": "unitedstatespostalservice-a77078", "operator": "United States Postal Service", "operator:short": "USPS", "operator:type": "public", "operator:wikidata": "Q668687", "ref": "0096900031"}, "type": "Feature"}
{"geometry": {"coordinates": [-66.0022273, 18.356042], "type": "Point"}, "id": "iowIWpxXpmuupb2QPQZL1PQFk-8=", "properties": {"@source_uri": "https://tools.usps.com/UspsToolsRestServices/rest/POLocator/findLocations", "@spider": "usps_collection_boxes", "addr:city": "TRUJILLO ALTO", "addr:country": "US", "addr:postcode": "00976", "addr:state": "PR", "addr:street_address": "8 VIA ENCANTADA STE 1", "amenity": "post_box", "collection_times": "Mo-Sa 16:00", "note": "ON 12/24 AND 12/31, THIS BOX MAY BE COLLECTED AS EARLY AS 12 NOON.", "nsi_id": "unitedstatespostalservice-a77078", "operator": "United States Postal Service", "operator:short": "USPS", "operator:type": "public", "operator:wikidata": "Q668687", "ref": "0097600001"}, "type": "Feature"}
{"geometry": {"coordinates": [-66.0066323, 18.365352], "type": "Point"}, "id": "jcXTWKTSqbp9r2DmVC5O0qaCm6s=", "properties": {"@source_uri": "https://tools.usps.com/UspsToolsRestServices/rest/POLocator/findLocations", "@spider": "usps_collection_boxes", "addr:city": "TRUJILLO ALTO", "addr:country": "US", "addr:postcode": "00976", "addr:state": "PR", "addr:street_address": "13 CALLE LOIZA STE 1", "amenity": "post_box", "collection_times": "Mo-Sa 10:30", "nsi_id": "unitedstatespostalservice-a77078", "operator": "United States Postal Service", "operator:short": "USPS", "operator:type": "public", "operator:wikidata": "Q668687", "ref": "0097600002"}, "type": "Feature"}
{"geometry": {"coordinates": [-66.0173136, 18.369443], "type": "Point"}, "id": "INH5T02EtLwGJuW6Wk5C_xTXe54=", "properties": {"@source_uri": "https://tools.usps.com/UspsToolsRestServices/rest/POLocator/findLocations", "@spider": "usps_collection_boxes", "addr:city": "TRUJILLO ALTO", "addr:country": "US", "addr:postcode": "00976", "addr:state": "PR", "addr:street_address": "200 CARR 181", "amenity": "post_box", "collection_times": "Mo-Sa 16:00", "note": "ON 12/24 AND 12/31, THIS BOX MAY BE COLLECTED AS EARLY AS 12 NOON.", "nsi_id": "unitedstatespostalservice-a77078", "operator": "United States Postal Service", "operator:short": "USPS", "operator:type": "public", "operator:wikidata": "Q668687", "ref": "0097600003"}, "type": "Feature"}
{"geometry": {"coordinates": [-66.0177633, 18.374379], "type": "Point"}, "id": "wcdtpmClWjgPJoN5eXm-60dPyvk=", "properties": {"@source_uri": "https://tools.usps.com/UspsToolsRestServices/rest/POLocator/findLocations", "@spider": "usps_collection_boxes", "addr:city": "TRUJILLO ALTO", "addr:country": "US", "addr:postcode": "00976", "addr:state": "PR", "addr:street_address": "928 CALLE LIRIO", "amenity": "post_box", "collection_times": "Mo-Sa 11:00", "nsi_id": "unitedstatespostalservice-a77078", "operator": "United States Postal Service", "operator:short": "USPS", "operator:type": "public", "operator:wikidata": "Q668687", "ref": "0097600005"}, "type": "Feature"}
{"geometry": {"coordinates": [-66.0253278, 18.3703], "type": "Point"}, "id": "fgVuvayZrFej_57wnYsropB_IaM=", "properties": {"@source_uri": "https://tools.usps.com/UspsToolsRestServices/rest/POLocator/findLocations", "@spider": "usps_collection_boxes", "addr:city": "TRUJILLO ALTO", "addr:country": "US", "addr:postcode": "00976", "addr:state": "PR", "addr:street_address": "K1 CARR 846", "amenity": "post_box", "collection_times": "Mo-Sa 10:30", "nsi_id": "unitedstatespostalservice-a77078", "operator": "United States Postal Service", "operator:short": "USPS", "operator:type": "public", "operator:wikidata": "Q668687", "ref": "0097600008"}, "type": "Feature"}
{"geometry": {"coordinates": [-66.0059431, 18.355073], "type": "Point"}, "id": "LZWhHDl-bX2IWqE4w5aIZcvp4IQ=", "properties": {"@source_uri": "https://tools.usps.com/UspsToolsRestServices/rest/POLocator/findLocations", "@spider": "usps_collection_boxes", "addr:city": "TRUJILLO ALTO", "addr:country": "US", "addr:postcode": "00976", "addr:state": "PR", "addr:street_address": "100 CALLE BORINQUEN", "amenity": "post_box", "collection_times": "Mo-Fr 17:00; Sa 15:00", "note": "ON 12/24 AND 12/31, THIS BOX MAY BE COLLECTED AS EARLY AS 12 NOON.", "nsi_id": "unitedstatespostalservice-a77078", "operator": "United States Postal Service", "operator:short": "USPS", "operator:type": "public", "operator:wikidata": "Q668687", "ref": "0097600014"}, "type": "Feature"}
{"geometry": {"coordinates": [-66.0028192, 18.344888], "type": "Point"}, "id": "OxnrfHAdUsFOMPdhyZqjTXQvozs=", "properties": {"@source_uri": "https://tools.usps.com/UspsToolsRestServices/rest/POLocator/findLocations", "@spider": "usps_collection_boxes", "addr:city": "TRUJILLO ALTO", "addr:country": "US", "addr:postcode": "00976", "addr:state": "PR", "addr:street_address": "A1 AVE HERNAN CORTES", "amenity": "post_box", "collection_times": "Mo-Sa 16:00", "note": "ON 12/24 AND 12/31, THIS BOX MAY BE COLLECTED AS EARLY AS 12 NOON.", "nsi_id": "unitedstatespostalservice-a77078", "operator": "United States Postal Service", "operator:short": "USPS", "operator:type": "public", "operator:wikidata": "Q668687", "ref": "0097600016"}, "type": "Feature"}
{"geometry": {"coordinates": [-66.0058765, 18.354906], "type": "Point"}, "id": "ekLYSfA_zbwqnuCno2qvNeZzTa4=", "properties": {"@source_uri": "https://tools.usps.com/UspsToolsRestServices/rest/POLocator/findLocations", "@spider": "usps_collection_boxes", "addr:city": "TRUJILLO ALTO", "addr:country": "US", "addr:postcode": "00976", "addr:state": "PR", "addr:street_address": "100 CALLE BORINQUEN", "amenity": "post_box", "collection_times": "Mo-Fr 17:00; Sa 15:00", "indoor": "yes", "note": "ON 12/24 AND 12/31, THIS BOX MAY BE COLLECTED AS EARLY AS 12 NOON.", "nsi_id": "unitedstatespostalservice-a77078", "operator": "United States Postal Service", "operator:short": "USPS", "operator:type": "public", "operator:wikidata": "Q668687", "ref": "0097600018"}, "type": "Feature"}
{"geometry": {"coordinates": [-66.005966363, 18.355077839], "type": "Point"}, "id": "9oz5JFFLMvKYHDkncgKVWVfK1es=", "properties": {"@source_uri": "https://tools.usps.com/UspsToolsRestServices/rest/POLocator/findLocations", "@spider": "usps_collection_boxes", "addr:city": "TRUJILLO ALTO", "addr:country": "US", "addr:postcode": "00976", "addr:state": "PR", "addr:street_address": "100 CALLE BORINQUEN", "amenity": "post_box", "collection_times": "Mo-Fr 17:00; Sa 12:30", "indoor": "yes", "note": "ON 12/24 AND 12/31, THIS BOX MAY BE COLLECTED AS EARLY AS 12 NOON.", "nsi_id": "unitedstatespostalservice-a77078", "operator": "United States Postal Service", "operator:short": "USPS", "operator:type": "public", "operator:wikidata": "Q668687", "ref": "0097600019"}, "type": "Feature"}
{"geometry": {"coordinates": [-65.984169152, 18.43568256], "type": "Point"}, "id": "18lMGgeFGw1AhGRZYqdjnH0Wq08=", "properties": {"@source_uri": "https://tools.usps.com/UspsToolsRestServices/rest/POLocator/findLocations", "@spider": "usps_collection_boxes", "addr:city": "CAROLINA", "addr:country": "US", "addr:postcode": "00979", "addr:state": "PR", "addr:street_address": "35 AVE JOSE A TONY SANTANA", "amenity": "post_box", "collection_times": "Mo-Fr 17:00", "indoor": "yes", "note": "ON 12/24 AND 12/31, THIS BOX MAY BE COLLECTED AS EARLY AS 12 NOON.", "nsi_id": "unitedstatespostalservice-a77078", "operator": "United States Postal Service", "operator:short": "USPS", "operator:type": "public", "operator:wikidata": "Q668687", "ref": "0097900032"}, "type": "Feature"}
{"geometry": {"coordinates": [-65.9889895, 18.416572], "type": "Point"}, "id": "F7FjVubg2CBw5WQ77-kW1zuJpqA=", "properties": {"@source_uri": "https://tools.usps.com/UspsToolsRestServices/rest/POLocator/findLocations", "@spider": "usps_collection_boxes", "addr:city": "CAROLINA", "addr:country": "US", "addr:postcode": "00982", "addr:state": "PR", "addr:street_address": "1000 AVE ROBERTO SANCHEZ VILELLA", "amenity": "post_box", "collection_times": "Mo-Sa 09:00", "nsi_id": "unitedstatespostalservice-a77078", "operator": "United States Postal Service", "operator:short": "USPS", "operator:type": "public", "operator:wikidata": "Q668687", "ref": "0098200016"}, "type": "Feature"}
{"geometry": {"coordinates": [-65.973895, 18.401915], "type": "Point"}, "id": "WC-1yDZGncUUiJGeyM_fUH5iXBE=", "properties": {"@source_uri": "https://tools.usps.com/UspsToolsRestServices/rest/POLocator/findLocations", "@spider": "usps_collection_boxes", "addr:city": "CAROLINA", "addr:country": "US", "addr:postcode": "00983", "addr:state": "PR", "addr:street_address": "200 AVE FRAGOSO STE 3180", "amenity": "post_box", "collection_times": "Mo-Sa 10:00", "nsi_id": "unitedstatespostalservice-a77078", "operator": "United States Postal Service", "operator:short": "USPS", "operator:type": "public", "operator:wikidata": "Q668687", "ref": "0098300029"}, "type": "Feature"}
{"geometry": {"coordinates": [-65.9771647, 18.410128], "type": "Point"}, "id": "VR5HkSMGoKxfSWnmh-o04gvYAo0=", "properties": {"@source_uri": "https://tools.usps.com/UspsToolsRestServices/rest/POLocator/findLocations", "@spider": "usps_collection_boxes", "addr:city": "CAROLINA", "addr:country": "US", "addr:postcode": "00983", "addr:state": "PR", "addr:street_address": "1000 AVE SANCHEZ OSORIO", "amenity": "post_box", "collection_times": "Mo-Fr 17:00; Sa 13:00", "note": "ON 12/24 AND 12/31, THIS BOX MAY BE COLLECTED AS EARLY AS 12 NOON.", "nsi_id": "unitedstatespostalservice-a77078", "operator": "United States Postal Service", "operator:short": "USPS", "operator:type": "public", "operator:wikidata": "Q668687", "ref": "0098300030"}, "type": "Feature"}
{"geometry": {"coordinates": [-65.97717, 18.41034], "type": "Point"}, "id": "7CRygPltIOC5bLEiggZ7R8iCwhQ=", "properties": {"@source_uri": "https://tools.usps.com/UspsToolsRestServices/rest/POLocator/findLocations", "@spider": "usps_collection_boxes", "addr:city": "CAROLINA", "addr:country": "US", "addr:postcode": "00983", "addr:state": "PR", "addr:street_address": "1000 AVE SANCHEZ OSORIO", "amenity": "post_box", "collection_times": "Mo-Fr 17:00; Sa 13:00", "indoor": "yes", "note": "ON 12/24 AND 12/31, THIS BOX MAY BE COLLECTED AS EARLY AS 12 NOON.", "nsi_id": "unitedstatespostalservice-a77078", "operator": "United States Postal Service", "operator:short": "USPS", "operator:type": "public", "operator:wikidata": "Q668687", "ref": "0098300036"}, "type": "Feature"}
{"geometry": {"coordinates": [-65.9740635104, 18.3940344533], "type": "Point"}, "id": "AY0aw-HJzvDoIglqj7KIMwJOHHY=", "properties": {"@source_uri": "https://tools.usps.com/UspsToolsRestServices/rest/POLocator/findLocations", "@spider": "usps_collection_boxes", "addr:city": "CAROLINA", "addr:country": "US", "addr:postcode": "00983", "addr:state": "PR", "addr:street_address": "100 AVE FRAGOSO", "amenity": "post_box", "collection_times": "Mo-Fr 16:30; Sa 15:30", "indoor": "yes", "note": "ON 12/24 AND 12/31, THIS BOX MAY BE COLLECTED AS EARLY AS 12 NOON.", "nsi_id": "unitedstatespostalservice-a77078", "operator": "United States Postal Service", "operator:short": "USPS", "operator:type": "public", "operator:wikidata": "Q668687", "ref": "0098300040"}, "type": "Feature"}
{"geometry": {"coordinates": [-65.977425379, 18.410265251], "type": "Point"}, "id": "A9tlnyPGh2kY4-eFC2gn9dhOEeM=", "properties": {"@source_uri": "https://tools.usps.com/UspsToolsRestServices/rest/POLocator/findLocations", "@spider": "usps_collection_boxes", "addr:city": "CAROLINA", "addr:country": "US", "addr:postcode": "00983", "addr:state": "PR", "addr:street_address": "1000 AVE SANCHEZ OSORIO", "amenity": "post_box", "collection_times": "Mo-Fr 18:00; Sa 14:00", "indoor": "yes", "note": "ON 12/24 AND 12/31, THIS BOX MAY BE COLLECTED AS EARLY AS 12 NOON.", "nsi_id": "unitedstatespostalservice-a77078", "operator": "United States Postal Service", "operator:short": "USPS", "operator:type": "public", "operator:wikidata": "Q668687", "ref": "0098300041"}, "type": "Feature"}
{"geometry": {"coordinates": [-65.973895, 18.401915], "type": "Point"}, "id": "hMInS6Ni9Wdqin_j-SSjfqrQUgs=", "properties": {"@source_uri": "https://tools.usps.com/UspsToolsRestServices/rest/POLocator/findLocations", "@spider": "usps_collection_boxes", "addr:city": "CAROLINA", "addr:country": "US", "addr:postcode": "00983", "addr:state": "PR", "addr:street_address": "200 AVE FRAGOSO STE 322", "amenity": "post_box", "collection_times": "Mo-Fr 17:00; Sa 16:00", "indoor": "yes", "note": "ON 12/24 AND 12/31, THIS BOX MAY BE COLLECTED AS EARLY AS 12 NOON.", "nsi_id": "unitedstatespostalservice-a77078", "operator": "United States Postal Service", "operator:short": "USPS", "operator:type": "public", "operator:wikidata": "Q668687", "ref": "0098300042"}, "type": "Feature"}
{"geometry": {"coordinates": [-65.9561574, 18.379833], "type": "Point"}, "id": "3ZFk9_Lit_uZocgbU7kCwtT12kE=", "properties": {"@source_uri": "https://tools.usps.com/UspsToolsRestServices/rest/POLocator/findLocations", "@spider": "usps_collection_boxes", "addr:city": "CAROLINA", "addr:country": "US", "addr:postcode": "00985", "addr:state": "PR", "addr:street_address": "108 CALLE MUNOZ RIVERA N STE 1", "amenity": "post_box", "collection_times": "Mo-Sa 09:45", "nsi_id": "unitedstatespostalservice-a77078", "operator": "United States Postal Service", "operator:short": "USPS", "operator:type": "public", "operator:wikidata": "Q668687", "ref": "0098500022"}, "type": "Feature"}
{"geometry": {"coordinates": [-65.9569269859, 18.3829110881], "type": "Point"}, "id": "mXFqKVox0HeGU0xsvlXu2375USo=", "properties": {"@source_uri": "https://tools.usps.com/UspsToolsRestServices/rest/POLocator/findLocations", "@spider": "usps_collection_boxes", "addr:city": "CAROLINA", "addr:country": "US", "addr:postcode": "00985", "addr:state": "PR", "addr:street_address": "108 CALLE MUNOZ RIVERA S", "amenity": "post_box", "collection_times": "Mo-Fr 15:30; Sa 11:30", "indoor": "yes", "note": "ON 12/24 AND 12/31, THIS BOX MAY BE COLLECTED AS EARLY AS 12 NOON.", "nsi_id": "unitedstatespostalservice-a77078", "operator": "United States Postal Service", "operator:short": "USPS", "operator:type": "public", "operator:wikidata": "Q668687", "ref": "0098500026"}, "type": "Feature"}
{"geometry": {"coordinates": [-65.956926986, 18.382911088], "type": "Point"}, "id": "VNAhHNHc8JUmHZdzd6sRawbI4U0=", "properties": {"@source_uri": "https://tools.usps.com/UspsToolsRestServices/rest/POLocator/findLocations", "@spider": "usps_collection_boxes", "addr:city": "CAROLINA", "addr:country": "US", "addr:postcode": "00985", "addr:state": "PR", "addr:street_address": "108 CALLE MUNOZ RIVERA S STE 1", "amenity": "post_box", "collection_times": "Mo-Fr 14:00; Sa 12:00", "indoor": "yes", "note": "ON 12/24 AND 12/31, THIS BOX MAY BE COLLECTED AS EARLY AS 12 NOON.", "nsi_id": "unitedstatespostalservice-a77078", "operator": "United States Postal Service", "operator:short": "USPS", "operator:type": "public", "operator:wikidata": "Q668687", "ref": "0098500027"}, "type": "Feature"}
{"geometry": {"coordinates": [-65.941329983, 18.3715899933], "type": "Point"}, "id": "Xbm47lWjDORjU4olOqGLhPqkY0g=", "properties": {"@source_uri": "https://tools.usps.com/UspsToolsRestServices/rest/POLocator/findLocations", "@spider": "usps_collection_boxes", "addr:city": "CAROLINA", "addr:country": "US", "addr:postcode": "00987", "addr:state": "PR", "addr:street_address": "2A10 CALLE YUNQUESITO", "amenity": "post_box", "collection_times": "Mo-Sa 09:30", "nsi_id": "unitedstatespostalservice-a77078", "operator": "United States Postal Service", "operator:short": "USPS", "operator:type": "public", "operator:wikidata": "Q668687", "ref": "0098700003"}, "type": "Feature"}
{"geometry": {"coordinates": [-65.9470722, 18.374837], "type": "Point"}, "id": "gadi-VWuxISm7IS-24bMM8idKeo=", "properties": {"@source_uri": "https://tools.usps.com/UspsToolsRestServices/rest/POLocator/findLocations", "@spider": "usps_collection_boxes", "addr:city": "CAROLINA", "addr:country": "US", "addr:postcode": "00987", "addr:state": "PR", "addr:street_address": "11300 AVE 65 INFANTERIA", "amenity": "post_box", "collection_times": "Mo-Sa 09:30", "nsi_id": "unitedstatespostalservice-a77078", "operator": "United States Postal Service", "operator:short": "USPS", "operator:type": "public", "operator:wikidata": "Q668687", "ref": "0098700010"}, "type": "Feature"}
