{"geometry": {"coordinates": [-73.2416141002, 42.4451665126], "type": "Point"}, "id": "I9Sdi641QYHmt2NrIIZ3I5qTlsM=", "properties": {"@source_uri": "https://tools.usps.com/UspsToolsRestServices/rest/POLocator/findLocations", "@spider": "usps_collection_boxes", "addr:city": "PITTSFIELD", "addr:country": "US", "addr:postcode": "01201", "addr:state": "MA", "addr:street_address": "103 ELM ST", "amenity": "post_box", "brand": "United States Postal Service", "brand:wikidata": "Q668687", "collection_times": "Mo-Sa 15:00", "note": "ON 12/24 AND 12/31, THIS BOX MAY BE COLLECTED AS EARLY AS 12 NOON.", "nsi_id": "unitedstatespostalservice-a77078", "operator": "United States Postal Service", "operator:short": "USPS", "operator:type": "public", "operator:wikidata": "Q668687", "ref": "0120100002"}, "type": "Feature"}
{"geometry": {"coordinates": [-73.3069257, 42.435995], "type": "Point"}, "id": "Rx9uUM1AhZJCScDb2w4sLsQg2x8=", "properties": {"@source_uri": "https://tools.usps.com/UspsToolsRestServices/rest/POLocator/findLocations", "@spider": "usps_collection_boxes", "addr:city": "PITTSFIELD", "addr:country": "US", "addr:postcode": "01201", "addr:state": "MA", "addr:street_address": "1245 W HOUSATONIC ST", "amenity": "post_box", "brand": "United States Postal Service", "brand:wikidata": "Q668687", "collection_times": "Mo-Sa 11:00", "nsi_id": "unitedstatespostalservice-a77078", "operator": "United States Postal Service", "operator:short": "USPS", "operator:type": "public", "operator:wikidata": "Q668687", "ref": "0120100005"}, "type": "Feature"}
{"geometry": {"coordinates": [-73.2533233, 42.450935], "type": "Point"}, "id": "W8if97iDRBLdpJ-rKqs9CvhcYEs=", "properties": {"@source_uri": "https://tools.usps.com/UspsToolsRestServices/rest/POLocator/findLocations", "@spider": "usps_collection_boxes", "addr:city": "PITTSFIELD", "addr:country": "US", "addr:postcode": "01201", "addr:state": "MA", "addr:street_address": "161 NORTH ST", "amenity": "post_box", "brand": "United States Postal Service", "brand:wikidata": "Q668687", "collection_times": "Mo-Fr 15:30; Sa 15:00", "note": "ON 12/24 AND 12/31, THIS BOX MAY BE COLLECTED AS EARLY AS 12 NOON.", "nsi_id": "unitedstatespostalservice-a77078", "operator": "United States Postal Service", "operator:short": "USPS", "operator:type": "public", "operator:wikidata": "Q668687", "ref": "0120100007"}, "type": "Feature"}
{"geometry": {"coordinates": [-73.2531453, 42.451204], "type": "Point"}, "id": "4eFEtQLzp0KId4FzZ0SqApRN0hg=", "properties": {"@source_uri": "https://tools.usps.com/UspsToolsRestServices/rest/POLocator/findLocations", "@spider": "usps_collection_boxes", "addr:city": "PITTSFIELD", "addr:country": "US", "addr:postcode": "01201", "addr:state": "MA", "addr:street_address": "184 NORTH ST", "amenity": "post_box", "brand": "United States Postal Service", "brand:wikidata": "Q668687", "collection_times": "Mo-Fr 15:30; Sa 15:00", "note": "ON 12/24 AND 12/31, THIS BOX MAY BE COLLECTED AS EARLY AS 12 NOON.", "nsi_id": "unitedstatespostalservice-a77078", "operator": "United States Postal Service", "operator:short": "USPS", "operator:type": "public", "operator:wikidata": "Q668687", "ref": "0120100011"}, "type": "Feature"}
{"geometry": {"coordinates": [-73.2354405, 42.443495], "type": "Point"}, "id": "fKINqb1wbHRwpN2QXHLC5jMpGM0=", "properties": {"@source_uri": "https://tools.usps.com/UspsToolsRestServices/rest/POLocator/findLocations", "@spider": "usps_collection_boxes", "addr:city": "PITTSFIELD", "addr:country": "US", "addr:postcode": "01201", "addr:state": "MA", "addr:street_address": "221 ELM ST", "amenity": "post_box", "brand": "United States Postal Service", "brand:wikidata": "Q668687", "collection_times": "Mo-Sa 15:00", "note": "ON 12/24 AND 12/31, THIS BOX MAY BE COLLECTED AS EARLY AS 12 NOON.", "nsi_id": "unitedstatespostalservice-a77078", "operator": "United States Postal Service", "operator:short": "USPS", "operator:type": "public", "operator:wikidata": "Q668687", "ref": "0120100014"}, "type": "Feature"}
{"geometry": {"coordinates": [-73.252835081, 42.452192404], "type": "Point"}, "id": "OwL9idYleeXhvvhRK8hiBXvxVUw=", "properties": {"@source_uri": "https://tools.usps.com/UspsToolsRestServices/rest/POLocator/findLocations", "@spider": "usps_collection_boxes", "addr:city": "PITTSFIELD", "addr:country": "US", "addr:postcode": "01201", "addr:state": "MA", "addr:street_address": "246 NORTH ST", "amenity": "post_box", "brand": "United States Postal Service", "brand:wikidata": "Q668687", "collection_times": "Mo-Fr 15:30; Sa 15:00", "note": "ON 12/24 AND 12/31, THIS BOX MAY BE COLLECTED AS EARLY AS 12 NOON.", "nsi_id": "unitedstatespostalservice-a77078", "operator": "United States Postal Service", "operator:short": "USPS", "operator:type": "public", "operator:wikidata": "Q668687", "ref": "0120100015"}, "type": "Feature"}
{"geometry": {"coordinates": [-73.256307463, 42.448707217], "type": "Point"}, "id": "iG8TngdJFZBUMTUFncaFAgCOc4E=", "properties": {"@source_uri": "https://tools.usps.com/UspsToolsRestServices/rest/POLocator/findLocations", "@spider": "usps_collection_boxes", "addr:city": "PITTSFIELD", "addr:country": "US", "addr:postcode": "01201", "addr:state": "MA", "addr:street_address": "100 WEST ST", "amenity": "post_box", "brand": "United States Postal Service", "brand:wikidata": "Q668687", "collection_times": "Mo-Fr 15:00", "note": "ON 12/24 AND 12/31, THIS BOX MAY BE COLLECTED AS EARLY AS 12 NOON.", "nsi_id": "unitedstatespostalservice-a77078", "operator": "United States Postal Service", "operator:short": "USPS", "operator:type": "public", "operator:wikidata": "Q668687", "ref": "0120100017"}, "type": "Feature"}
{"geometry": {"coordinates": [-73.2537986, 42.448951], "type": "Point"}, "id": "NtRp-KLGRLbNmPv8GmeHSbqbDWI=", "properties": {"@source_uri": "https://tools.usps.com/UspsToolsRestServices/rest/POLocator/findLocations", "@spider": "usps_collection_boxes", "addr:city": "PITTSFIELD", "addr:country": "US", "addr:postcode": "01201", "addr:state": "MA", "addr:street_address": "28 NORTH ST", "amenity": "post_box", "brand": "United States Postal Service", "brand:wikidata": "Q668687", "collection_times": "Mo-Sa 15:00", "note": "ON 12/24 AND 12/31, THIS BOX MAY BE COLLECTED AS EARLY AS 12 NOON.", "nsi_id": "unitedstatespostalservice-a77078", "operator": "United States Postal Service", "operator:short": "USPS", "operator:type": "public", "operator:wikidata": "Q668687", "ref": "0120100019"}, "type": "Feature"}
{"geometry": {"coordinates": [-73.2522149, 42.446907], "type": "Point"}, "id": "i0B7qhLYHaZicIMwKZeLyFwPmWI=", "properties": {"@source_uri": "https://tools.usps.com/UspsToolsRestServices/rest/POLocator/findLocations", "@spider": "usps_collection_boxes", "addr:city": "PITTSFIELD", "addr:country": "US", "addr:postcode": "01201", "addr:state": "MA", "addr:street_address": "29 WENDELL AVE", "amenity": "post_box", "brand": "United States Postal Service", "brand:wikidata": "Q668687", "collection_times": "Mo-Fr 15:30", "note": "ON 12/24 AND 12/31, THIS BOX MAY BE COLLECTED AS EARLY AS 12 NOON.", "nsi_id": "unitedstatespostalservice-a77078", "operator": "United States Postal Service", "operator:short": "USPS", "operator:type": "public", "operator:wikidata": "Q668687", "ref": "0120100020"}, "type": "Feature"}
{"geometry": {"coordinates": [-73.2525886, 42.453187], "type": "Point"}, "id": "QZ5R0cW1Mv-K-T2hXEvxkxzx4sg=", "properties": {"@source_uri": "https://tools.usps.com/UspsToolsRestServices/rest/POLocator/findLocations", "@spider": "usps_collection_boxes", "addr:city": "PITTSFIELD", "addr:country": "US", "addr:postcode": "01201", "addr:state": "MA", "addr:street_address": "316 NORTH ST", "amenity": "post_box", "brand": "United States Postal Service", "brand:wikidata": "Q668687", "collection_times": "Mo-Fr 15:30; Sa 14:00", "note": "ON 12/24 AND 12/31, THIS BOX MAY BE COLLECTED AS EARLY AS 12 NOON.", "nsi_id": "unitedstatespostalservice-a77078", "operator": "United States Postal Service", "operator:short": "USPS", "operator:type": "public", "operator:wikidata": "Q668687", "ref": "0120100021"}, "type": "Feature"}
{"geometry": {"coordinates": [-73.25375, 42.452555], "type": "Point"}, "id": "wuFtyao_sxxIYzMMSOxyvdIf7dI=", "properties": {"@source_uri": "https://tools.usps.com/UspsToolsRestServices/rest/POLocator/findLocations", "@spider": "usps_collection_boxes", "addr:city": "PITTSFIELD", "addr:country": "US", "addr:postcode": "01201", "addr:state": "MA", "addr:street_address": "401 NORTH ST", "amenity": "post_box", "brand": "United States Postal Service", "brand:wikidata": "Q668687", "collection_times": "Mo-Fr 15:30; Sa 14:00", "note": "ON 12/24 AND 12/31, THIS BOX MAY BE COLLECTED AS EARLY AS 12 NOON.", "nsi_id": "unitedstatespostalservice-a77078", "operator": "United States Postal Service", "operator:short": "USPS", "operator:type": "public", "operator:wikidata": "Q668687", "ref": "0120100024"}, "type": "Feature"}
{"geometry": {"coordinates": [-73.2578342, 42.434502], "type": "Point"}, "id": "vx5LGCO__xX5v-tvgvxcKGLFKNA=", "properties": {"@source_uri": "https://tools.usps.com/UspsToolsRestServices/rest/POLocator/findLocations", "@spider": "usps_collection_boxes", "addr:city": "PITTSFIELD", "addr:country": "US", "addr:postcode": "01201", "addr:state": "MA", "addr:street_address": "458 SOUTH ST", "amenity": "post_box", "brand": "United States Postal Service", "brand:wikidata": "Q668687", "collection_times": "Mo-Fr 10:00", "nsi_id": "unitedstatespostalservice-a77078", "operator": "United States Postal Service", "operator:short": "USPS", "operator:type": "public", "operator:wikidata": "Q668687", "ref": "0120100026"}, "type": "Feature"}
{"geometry": {"coordinates": [-73.2527914, 42.447925], "type": "Point"}, "id": "2KeQ_AAofv7ur-1xlxEUHNsyS_c=", "properties": {"@source_uri": "https://tools.usps.com/UspsToolsRestServices/rest/POLocator/findLocations", "@spider": "usps_collection_boxes", "addr:city": "PITTSFIELD", "addr:country": "US", "addr:postcode": "01201", "addr:state": "MA", "addr:street_address": "76 EAST ST", "amenity": "post_box", "brand": "United States Postal Service", "brand:wikidata": "Q668687", "collection_times": "Mo-Fr 16:00", "note": "ON 12/24 AND 12/31, THIS BOX MAY BE COLLECTED AS EARLY AS 12 NOON.", "nsi_id": "unitedstatespostalservice-a77078", "operator": "United States Postal Service", "operator:short": "USPS", "operator:type": "public", "operator:wikidata": "Q668687", "ref": "0120100027"}, "type": "Feature"}
{"geometry": {"coordinates": [-73.2536303, 42.449516], "type": "Point"}, "id": "WeP8-StDxtdck-9SJw8F50nzw2Q=", "properties": {"@source_uri": "https://tools.usps.com/UspsToolsRestServices/rest/POLocator/findLocations", "@spider": "usps_collection_boxes", "addr:city": "PITTSFIELD", "addr:country": "US", "addr:postcode": "01201", "addr:state": "MA", "addr:street_address": "75 NORTH ST", "amenity": "post_box", "brand": "United States Postal Service", "brand:wikidata": "Q668687", "collection_times": "Mo-Fr 15:15; Sa 15:00", "note": "ON 12/24 AND 12/31, THIS BOX MAY BE COLLECTED AS EARLY AS 12 NOON.", "nsi_id": "unitedstatespostalservice-a77078", "operator": "United States Postal Service", "operator:short": "USPS", "operator:type": "public", "operator:wikidata": "Q668687", "ref": "0120100032"}, "type": "Feature"}
{"geometry": {"coordinates": [-73.254125994, 42.447873373], "type": "Point"}, "id": "8r0qFrmuOzL6_xvKhOXEkip_MBs=", "properties": {"@source_uri": "https://tools.usps.com/UspsToolsRestServices/rest/POLocator/findLocations", "@spider": "usps_collection_boxes", "addr:city": "PITTSFIELD", "addr:country": "US", "addr:postcode": "01201", "addr:state": "MA", "addr:street_address": "2 SOUTH ST", "amenity": "post_box", "brand": "United States Postal Service", "brand:wikidata": "Q668687", "collection_times": "Mo-Fr 15:30; Sa 14:00", "note": "ON 12/24 AND 12/31, THIS BOX MAY BE COLLECTED AS EARLY AS 12 NOON.", "nsi_id": "unitedstatespostalservice-a77078", "operator": "United States Postal Service", "operator:short": "USPS", "operator:type": "public", "operator:wikidata": "Q668687", "ref": "0120100038"}, "type": "Feature"}
{"geometry": {"coordinates": [-73.2072284, 42.494046], "type": "Point"}, "id": "Ib1aFDThKrMbP45ZcDcbLvhJKrg=", "properties": {"@source_uri": "https://tools.usps.com/UspsToolsRestServices/rest/POLocator/findLocations", "@spider": "usps_collection_boxes", "addr:city": "PITTSFIELD", "addr:country": "US", "addr:postcode": "01201", "addr:state": "MA", "addr:street_address": "655 CHESHIRE RD", "amenity": "post_box", "brand": "United States Postal Service", "brand:wikidata": "Q668687", "collection_times": "Mo-Sa 09:30", "nsi_id": "unitedstatespostalservice-a77078", "operator": "United States Postal Service", "operator:short": "USPS", "operator:type": "public", "operator:wikidata": "Q668687", "ref": "0120100044"}, "type": "Feature"}
{"geometry": {"coordinates": [-73.2483888, 42.459996], "type": "Point"}, "id": "kr6boormDShVxdUZ0TWTzZdaD04=", "properties": {"@source_uri": "https://tools.usps.com/UspsToolsRestServices/rest/POLocator/findLocations", "@spider": "usps_collection_boxes", "addr:city": "PITTSFIELD", "addr:country": "US", "addr:postcode": "01201", "addr:state": "MA", "addr:street_address": "725 NORTH ST", "amenity": "post_box", "brand": "United States Postal Service", "brand:wikidata": "Q668687", "collection_times": "Mo-Sa 09:00", "nsi_id": "unitedstatespostalservice-a77078", "operator": "United States Postal Service", "operator:short": "USPS", "operator:type": "public", "operator:wikidata": "Q668687", "ref": "0120100045"}, "type": "Feature"}
{"geometry": {"coordinates": [-73.2523318, 42.449648], "type": "Point"}, "id": "4m5jAr733yUNJWFKw6gh6Eu6hXM=", "properties": {"@source_uri": "https://tools.usps.com/UspsToolsRestServices/rest/POLocator/findLocations", "@spider": "usps_collection_boxes", "addr:city": "PITTSFIELD", "addr:country": "US", "addr:postcode": "01201", "addr:state": "MA", "addr:street_address": "39 ALLEN ST", "amenity": "post_box", "brand": "United States Postal Service", "brand:wikidata": "Q668687", "collection_times": "Mo-Fr 12:00", "nsi_id": "unitedstatespostalservice-a77078", "operator": "United States Postal Service", "operator:short": "USPS", "operator:type": "public", "operator:wikidata": "Q668687", "ref": "0120100051"}, "type": "Feature"}
{"geometry": {"coordinates": [-73.224817, 42.458884], "type": "Point"}, "id": "xXrbjuZKmVIrAPAXfF9D-2tc114=", "properties": {"@source_uri": "https://tools.usps.com/UspsToolsRestServices/rest/POLocator/findLocations", "@spider": "usps_collection_boxes", "addr:city": "PITTSFIELD", "addr:country": "US", "addr:postcode": "01201", "addr:state": "MA", "addr:street_address": "192 DALTON AVE", "amenity": "post_box", "brand": "United States Postal Service", "brand:wikidata": "Q668687", "collection_times": "Mo-Sa 09:30", "nsi_id": "unitedstatespostalservice-a77078", "operator": "United States Postal Service", "operator:short": "USPS", "operator:type": "public", "operator:wikidata": "Q668687", "ref": "0120100055"}, "type": "Feature"}
{"geometry": {"coordinates": [-73.189448401, 42.458756512], "type": "Point"}, "id": "BL-cM_X38H8RyhTfAR_5DuStaDY=", "properties": {"@source_uri": "https://tools.usps.com/UspsToolsRestServices/rest/POLocator/findLocations", "@spider": "usps_collection_boxes", "addr:city": "PITTSFIELD", "addr:country": "US", "addr:postcode": "01201", "addr:state": "MA", "addr:street_address": "235 HUBBARD AVE", "amenity": "post_box", "brand": "United States Postal Service", "brand:wikidata": "Q668687", "collection_times": "Mo-Fr 09:00", "nsi_id": "unitedstatespostalservice-a77078", "operator": "United States Postal Service", "operator:short": "USPS", "operator:type": "public", "operator:wikidata": "Q668687", "ref": "0120100057"}, "type": "Feature"}
{"geometry": {"coordinates": [-73.2527466, 42.444899], "type": "Point"}, "id": "4F9WlubFCQP-4RaJFwbSiLb5dPs=", "properties": {"@source_uri": "https://tools.usps.com/UspsToolsRestServices/rest/POLocator/findLocations", "@spider": "usps_collection_boxes", "addr:city": "PITTSFIELD", "addr:country": "US", "addr:postcode": "01201", "addr:state": "MA", "addr:street_address": "95 WENDELL AVE", "amenity": "post_box", "brand": "United States Postal Service", "brand:wikidata": "Q668687", "collection_times": "Mo-Fr 15:30", "note": "ON 12/24 AND 12/31, THIS BOX MAY BE COLLECTED AS EARLY AS 12 NOON.", "nsi_id": "unitedstatespostalservice-a77078", "operator": "United States Postal Service", "operator:short": "USPS", "operator:type": "public", "operator:wikidata": "Q668687", "ref": "0120100059"}, "type": "Feature"}
{"geometry": {"coordinates": [-73.2507049, 42.447447], "type": "Point"}, "id": "N3VSqwuwZNLywzF3K0ZeYiD10dw=", "properties": {"@source_uri": "https://tools.usps.com/UspsToolsRestServices/rest/POLocator/findLocations", "@spider": "usps_collection_boxes", "addr:city": "PITTSFIELD", "addr:country": "US", "addr:postcode": "01201", "addr:state": "MA", "addr:street_address": "15 BARTLETT AVE", "amenity": "post_box", "brand": "United States Postal Service", "brand:wikidata": "Q668687", "collection_times": "Mo-Fr 15:30", "note": "ON 12/24 AND 12/31, THIS BOX MAY BE COLLECTED AS EARLY AS 12 NOON.", "nsi_id": "unitedstatespostalservice-a77078", "operator": "United States Postal Service", "operator:short": "USPS", "operator:type": "public", "operator:wikidata": "Q668687", "ref": "0120100060"}, "type": "Feature"}
{"geometry": {"coordinates": [-73.2496004, 42.453211], "type": "Point"}, "id": "qIWWee5XG9c1nEQR-SW4AHsp5i8=", "properties": {"@source_uri": "https://tools.usps.com/UspsToolsRestServices/rest/POLocator/findLocations", "@spider": "usps_collection_boxes", "addr:city": "PITTSFIELD", "addr:country": "US", "addr:postcode": "01201", "addr:state": "MA", "addr:street_address": "160 1ST ST", "amenity": "post_box", "brand": "United States Postal Service", "brand:wikidata": "Q668687", "collection_times": "Mo-Sa 10:00", "nsi_id": "unitedstatespostalservice-a77078", "operator": "United States Postal Service", "operator:short": "USPS", "operator:type": "public", "operator:wikidata": "Q668687", "ref": "0120100064"}, "type": "Feature"}
{"geometry": {"coordinates": [-73.249157, 42.454597], "type": "Point"}, "id": "qpmNQgkIILS-NrZQbu9NJHUnHrg=", "properties": {"@source_uri": "https://tools.usps.com/UspsToolsRestServices/rest/POLocator/findLocations", "@spider": "usps_collection_boxes", "addr:city": "PITTSFIELD", "addr:country": "US", "addr:postcode": "01201", "addr:state": "MA", "addr:street_address": "50 MAPLEWOOD AVE", "amenity": "post_box", "brand": "United States Postal Service", "brand:wikidata": "Q668687", "collection_times": "Mo-Sa 10:00", "nsi_id": "unitedstatespostalservice-a77078", "operator": "United States Postal Service", "operator:short": "USPS", "operator:type": "public", "operator:wikidata": "Q668687", "ref": "0120100065"}, "type": "Feature"}
{"geometry": {"coordinates": [-73.25724702, 42.447883507], "type": "Point"}, "id": "0RvHd1f_UwQeyoFx1DjtTN157eE=", "properties": {"@source_uri": "https://tools.usps.com/UspsToolsRestServices/rest/POLocator/findLocations", "@spider": "usps_collection_boxes", "addr:city": "PITTSFIELD", "addr:country": "US", "addr:postcode": "01201", "addr:state": "MA", "addr:street_address": "99 WEST ST", "amenity": "post_box", "brand": "United States Postal Service", "brand:wikidata": "Q668687", "collection_times": "Mo-Fr 15:30", "note": "ON 12/24 AND 12/31, THIS BOX MAY BE COLLECTED AS EARLY AS 12 NOON.", "nsi_id": "unitedstatespostalservice-a77078", "operator": "United States Postal Service", "operator:short": "USPS", "operator:type": "public", "operator:wikidata": "Q668687", "ref": "0120100067"}, "type": "Feature"}
{"geometry": {"coordinates": [-73.25375, 42.452555], "type": "Point"}, "id": "dGUt53rbqu0PL9_lf7bnBRYEdCA=", "properties": {"@source_uri": "https://tools.usps.com/UspsToolsRestServices/rest/POLocator/findLocations", "@spider": "usps_collection_boxes", "addr:city": "PITTSFIELD", "addr:country": "US", "addr:postcode": "01201", "addr:state": "MA", "addr:street_address": "407 TYLER ST", "amenity": "post_box", "brand": "United States Postal Service", "brand:wikidata": "Q668687", "collection_times": "Mo-Sa 11:00", "nsi_id": "unitedstatespostalservice-a77078", "operator": "United States Postal Service", "operator:short": "USPS", "operator:type": "public", "operator:wikidata": "Q668687", "ref": "0120100073"}, "type": "Feature"}
{"geometry": {"coordinates": [-73.2614447, 42.443421], "type": "Point"}, "id": "J_EXkxi9WJx0jT5sC6a0FWB1at4=", "properties": {"@source_uri": "https://tools.usps.com/UspsToolsRestServices/rest/POLocator/findLocations", "@spider": "usps_collection_boxes", "addr:city": "PITTSFIELD", "addr:country": "US", "addr:postcode": "01201", "addr:state": "MA", "addr:street_address": "141 W HOUSATONIC ST", "amenity": "post_box", "brand": "United States Postal Service", "brand:wikidata": "Q668687", "collection_times": "Mo-Sa 10:00", "nsi_id": "unitedstatespostalservice-a77078", "operator": "United States Postal Service", "operator:short": "USPS", "operator:type": "public", "operator:wikidata": "Q668687", "ref": "0120100074"}, "type": "Feature"}
{"geometry": {"coordinates": [-73.2816148, 42.458091], "type": "Point"}, "id": "q3pzyKdN12g5B9BIEuRGVgFV0NA=", "properties": {"@source_uri": "https://tools.usps.com/UspsToolsRestServices/rest/POLocator/findLocations", "@spider": "usps_collection_boxes", "addr:city": "PITTSFIELD", "addr:country": "US", "addr:postcode": "01201", "addr:state": "MA", "addr:street_address": "165 TOR COURT (INSIDE)", "amenity": "post_box", "brand": "United States Postal Service", "brand:wikidata": "Q668687", "collection_times": "Mo-Sa 09:00", "nsi_id": "unitedstatespostalservice-a77078", "operator": "United States Postal Service", "operator:short": "USPS", "operator:type": "public", "operator:wikidata": "Q668687", "ref": "0120100075"}, "type": "Feature"}
{"geometry": {"coordinates": [-73.2553554, 42.448134], "type": "Point"}, "id": "IDrj9o3GektwjRGzJC9uD0GuTdQ=", "properties": {"@source_uri": "https://tools.usps.com/UspsToolsRestServices/rest/POLocator/findLocations", "@spider": "usps_collection_boxes", "addr:city": "PITTSFIELD", "addr:country": "US", "addr:postcode": "01201", "addr:state": "MA", "addr:street_address": "1 WEST ST", "amenity": "post_box", "brand": "United States Postal Service", "brand:wikidata": "Q668687", "collection_times": "Mo-Fr 15:00; Sa 14:00", "note": "ON 12/24 AND 12/31, THIS BOX MAY BE COLLECTED AS EARLY AS 12 NOON.", "nsi_id": "unitedstatespostalservice-a77078", "operator": "United States Postal Service", "operator:short": "USPS", "operator:type": "public", "operator:wikidata": "Q668687", "ref": "0120100077"}, "type": "Feature"}
{"geometry": {"coordinates": [-73.254315198, 42.449436547], "type": "Point"}, "id": "Apz11fMSaovUStmXp128rPsJY6I=", "properties": {"@source_uri": "https://tools.usps.com/UspsToolsRestServices/rest/POLocator/findLocations", "@spider": "usps_collection_boxes", "addr:city": "PITTSFIELD", "addr:country": "US", "addr:postcode": "01201", "addr:state": "MA", "addr:street_address": "20 MCKAY ST", "amenity": "post_box", "brand": "United States Postal Service", "brand:wikidata": "Q668687", "collection_times": "Mo-Fr 15:30; Sa 14:00", "note": "ON 12/24 AND 12/31, THIS BOX MAY BE COLLECTED AS EARLY AS 12 NOON.", "nsi_id": "unitedstatespostalservice-a77078", "operator": "United States Postal Service", "operator:short": "USPS", "operator:type": "public", "operator:wikidata": "Q668687", "ref": "0120100084"}, "type": "Feature"}
{"geometry": {"coordinates": [-73.2524529, 42.46646], "type": "Point"}, "id": "25ewFJtddS9wEd4BoxNQ4K0OOCA=", "properties": {"@source_uri": "https://tools.usps.com/UspsToolsRestServices/rest/POLocator/findLocations", "@spider": "usps_collection_boxes", "addr:city": "PITTSFIELD", "addr:country": "US", "addr:postcode": "01201", "addr:state": "MA", "addr:street_address": "274 WAHCONAH ST", "amenity": "post_box", "brand": "United States Postal Service", "brand:wikidata": "Q668687", "collection_times": "Mo-Sa 10:00", "nsi_id": "unitedstatespostalservice-a77078", "operator": "United States Postal Service", "operator:short": "USPS", "operator:type": "public", "operator:wikidata": "Q668687", "ref": "0120100085"}, "type": "Feature"}
{"geometry": {"coordinates": [-73.2518712, 42.454985], "type": "Point"}, "id": "GbVVlEJ394C6VVWVkxAhvu_tj2g=", "properties": {"@source_uri": "https://tools.usps.com/UspsToolsRestServices/rest/POLocator/findLocations", "@spider": "usps_collection_boxes", "addr:city": "PITTSFIELD", "addr:country": "US", "addr:postcode": "01201", "addr:state": "MA", "addr:street_address": "444 NORTH ST", "amenity": "post_box", "brand": "United States Postal Service", "brand:wikidata": "Q668687", "collection_times": "Mo-Fr 15:30; Sa 14:00", "note": "ON 12/24 AND 12/31, THIS BOX MAY BE COLLECTED AS EARLY AS 12 NOON.", "nsi_id": "unitedstatespostalservice-a77078", "operator": "United States Postal Service", "operator:short": "USPS", "operator:type": "public", "operator:wikidata": "Q668687", "ref": "0120100086"}, "type": "Feature"}
{"geometry": {"coordinates": [-73.2508176, 42.456661], "type": "Point"}, "id": "kjzsQVntewqDx7wLO5yrr_mmlnU=", "properties": {"@source_uri": "https://tools.usps.com/UspsToolsRestServices/rest/POLocator/findLocations", "@spider": "usps_collection_boxes", "addr:city": "PITTSFIELD", "addr:country": "US", "addr:postcode": "01201", "addr:state": "MA", "addr:street_address": "580 NORTH ST", "amenity": "post_box", "brand": "United States Postal Service", "brand:wikidata": "Q668687", "collection_times": "Mo-Sa 12:00", "nsi_id": "unitedstatespostalservice-a77078", "operator": "United States Postal Service", "operator:short": "USPS", "operator:type": "public", "operator:wikidata": "Q668687", "ref": "0120100087"}, "type": "Feature"}
{"geometry": {"coordinates": [-73.2526499, 42.448547], "type": "Point"}, "id": "m6cSuWGrUry_x_y7ISKFkTIDoxQ=", "properties": {"@source_uri": "https://tools.usps.com/UspsToolsRestServices/rest/POLocator/findLocations", "@spider": "usps_collection_boxes", "addr:city": "PITTSFIELD", "addr:country": "US", "addr:postcode": "01201", "addr:state": "MA", "addr:street_address": "43 EAST ST", "amenity": "post_box", "brand": "United States Postal Service", "brand:wikidata": "Q668687", "collection_times": "Mo-Fr 12:00", "nsi_id": "unitedstatespostalservice-a77078", "operator": "United States Postal Service", "operator:short": "USPS", "operator:type": "public", "operator:wikidata": "Q668687", "ref": "0120100092"}, "type": "Feature"}
{"geometry": {"coordinates": [-73.2363227, 42.436902], "type": "Point"}, "id": "vk9yffSMDEXI3jXuUkxv1GijkfU=", "properties": {"@source_uri": "https://tools.usps.com/UspsToolsRestServices/rest/POLocator/findLocations", "@spider": "usps_collection_boxes", "addr:city": "PITTSFIELD", "addr:country": "US", "addr:postcode": "01201", "addr:state": "MA", "addr:street_address": "4 SAMPSON PKWY", "amenity": "post_box", "brand": "United States Postal Service", "brand:wikidata": "Q668687", "collection_times": "Mo-Sa 13:00", "note": "ON 12/24 AND 12/31, THIS BOX MAY BE COLLECTED AS EARLY AS 12 NOON.", "nsi_id": "unitedstatespostalservice-a77078", "operator": "United States Postal Service", "operator:short": "USPS", "operator:type": "public", "operator:wikidata": "Q668687", "ref": "0120100102"}, "type": "Feature"}
{"geometry": {"coordinates": [-73.2554287, 42.443571], "type": "Point"}, "id": "aNcvNlrzg4CtJxPm6n6bSielkFY=", "properties": {"@source_uri": "https://tools.usps.com/UspsToolsRestServices/rest/POLocator/findLocations", "@spider": "usps_collection_boxes", "addr:city": "PITTSFIELD", "addr:country": "US", "addr:postcode": "01201", "addr:state": "MA", "addr:street_address": "196 SOUTH ST", "amenity": "post_box", "brand": "United States Postal Service", "brand:wikidata": "Q668687", "collection_times": "Mo-Fr 11:00", "nsi_id": "unitedstatespostalservice-a77078", "operator": "United States Postal Service", "operator:short": "USPS", "operator:type": "public", "operator:wikidata": "Q668687", "ref": "0120100104"}, "type": "Feature"}
{"geometry": {"coordinates": [-73.2036096, 42.465429], "type": "Point"}, "id": "wAkDFSIiu8Cc_ohpH_F5NuZyz4k=", "properties": {"@source_uri": "https://tools.usps.com/UspsToolsRestServices/rest/POLocator/findLocations", "@spider": "usps_collection_boxes", "addr:city": "PITTSFIELD", "addr:country": "US", "addr:postcode": "01201", "addr:state": "MA", "addr:street_address": "660 MERRILL RD", "amenity": "post_box", "brand": "United States Postal Service", "brand:wikidata": "Q668687", "collection_times": "Mo-Sa 09:00", "nsi_id": "unitedstatespostalservice-a77078", "operator": "United States Postal Service", "operator:short": "USPS", "operator:type": "public", "operator:wikidata": "Q668687", "ref": "0120100110"}, "type": "Feature"}
{"geometry": {"coordinates": [-73.254544946, 42.4487996485], "type": "Point"}, "id": "M-Ye3Zr_cPBpcKb9BIO6XlTPcJQ=", "properties": {"@source_uri": "https://tools.usps.com/UspsToolsRestServices/rest/POLocator/findLocations", "@spider": "usps_collection_boxes", "addr:city": "PITTSFIELD", "addr:country": "US", "addr:postcode": "01201", "addr:state": "MA", "addr:street_address": "7 NORTH ST", "amenity": "post_box", "brand": "United States Postal Service", "brand:wikidata": "Q668687", "collection_times": "Mo-Fr 15:30", "note": "ON 12/24 AND 12/31, THIS BOX MAY BE COLLECTED AS EARLY AS 12 NOON.", "nsi_id": "unitedstatespostalservice-a77078", "operator": "United States Postal Service", "operator:short": "USPS", "operator:type": "public", "operator:wikidata": "Q668687", "ref": "0120100116"}, "type": "Feature"}
{"geometry": {"coordinates": [-73.24877722, 42.449457356], "type": "Point"}, "id": "WmteCt7dF7vGRQldvBAWTM8aVTw=", "properties": {"@source_uri": "https://tools.usps.com/UspsToolsRestServices/rest/POLocator/findLocations", "@spider": "usps_collection_boxes", "addr:city": "PITTSFIELD", "addr:country": "US", "addr:postcode": "01201", "addr:state": "MA", "addr:street_address": "212 FENN ST", "amenity": "post_box", "brand": "United States Postal Service", "brand:wikidata": "Q668687", "collection_times": "Mo-Fr 18:00; Sa 17:00", "note": "ON 12/24 AND 12/31, THIS BOX MAY BE COLLECTED AS EARLY AS 12 NOON.", "nsi_id": "unitedstatespostalservice-a77078", "operator": "United States Postal Service", "operator:short": "USPS", "operator:type": "public", "operator:wikidata": "Q668687", "ref": "0120100118"}, "type": "Feature"}
{"geometry": {"coordinates": [-73.2493971, 42.449427], "type": "Point"}, "id": "aCaetjarVc-zZSffTadxV11J0cA=", "properties": {"@source_uri": "https://tools.usps.com/UspsToolsRestServices/rest/POLocator/findLocations", "@spider": "usps_collection_boxes", "addr:city": "PITTSFIELD", "addr:country": "US", "addr:postcode": "01201", "addr:state": "MA", "addr:street_address": "212 FENN ST", "amenity": "post_box", "brand": "United States Postal Service", "brand:wikidata": "Q668687", "collection_times": "Mo-Fr 18:00; Sa 17:00", "name": "USPS COLLECTION BOX - EXPRESS", "note": "ON 12/24 AND 12/31, THIS BOX MAY BE COLLECTED AS EARLY AS 12 NOON.", "nsi_id": "unitedstatespostalservice-a77078", "operator": "United States Postal Service", "operator:short": "USPS", "operator:type": "public", "operator:wikidata": "Q668687", "ref": "0120100119"}, "type": "Feature"}
{"geometry": {"coordinates": [-73.2861643, 42.43964], "type": "Point"}, "id": "TPzTBKXjneslkQEZtNTodGfEczE=", "properties": {"@source_uri": "https://tools.usps.com/UspsToolsRestServices/rest/POLocator/findLocations", "@spider": "usps_collection_boxes", "addr:city": "PITTSFIELD", "addr:country": "US", "addr:postcode": "01201", "addr:state": "MA", "addr:street_address": "703 W HOUSATONIC ST", "amenity": "post_box", "brand": "United States Postal Service", "brand:wikidata": "Q668687", "collection_times": "Mo-Sa 14:00", "note": "ON 12/24 AND 12/31, THIS BOX MAY BE COLLECTED AS EARLY AS 12 NOON.", "nsi_id": "unitedstatespostalservice-a77078", "operator": "United States Postal Service", "operator:short": "USPS", "operator:type": "public", "operator:wikidata": "Q668687", "ref": "0120100121"}, "type": "Feature"}
{"geometry": {"coordinates": [-73.2800147, 42.452176], "type": "Point"}, "id": "S53JLR4n7B5cZY8fJIJ8lhIv1kg=", "properties": {"@source_uri": "https://tools.usps.com/UspsToolsRestServices/rest/POLocator/findLocations", "@spider": "usps_collection_boxes", "addr:city": "PITTSFIELD", "addr:country": "US", "addr:postcode": "01201", "addr:state": "MA", "addr:street_address": "645 WEST ST", "amenity": "post_box", "brand": "United States Postal Service", "brand:wikidata": "Q668687", "collection_times": "Mo-Sa 12:00", "nsi_id": "unitedstatespostalservice-a77078", "operator": "United States Postal Service", "operator:short": "USPS", "operator:type": "public", "operator:wikidata": "Q668687", "ref": "0120100123"}, "type": "Feature"}
{"geometry": {"coordinates": [-73.2512658, 42.445725], "type": "Point"}, "id": "zAtj9TnnHNqn_-XF18TuV9XFydM=", "properties": {"@source_uri": "https://tools.usps.com/UspsToolsRestServices/rest/POLocator/findLocations", "@spider": "usps_collection_boxes", "addr:city": "PITTSFIELD", "addr:country": "US", "addr:postcode": "01201", "addr:state": "MA", "addr:street_address": "59 BARTLETT AVE", "amenity": "post_box", "brand": "United States Postal Service", "brand:wikidata": "Q668687", "collection_times": "Mo-Fr 15:30", "note": "ON 12/24 AND 12/31, THIS BOX MAY BE COLLECTED AS EARLY AS 12 NOON.", "nsi_id": "unitedstatespostalservice-a77078", "operator": "United States Postal Service", "operator:short": "USPS", "operator:type": "public", "operator:wikidata": "Q668687", "ref": "0120100124"}, "type": "Feature"}
{"geometry": {"coordinates": [-73.2646821, 42.409751], "type": "Point"}, "id": "FJ3NOfHUODwiUpsUU51ZnRSYteE=", "properties": {"@source_uri": "https://tools.usps.com/UspsToolsRestServices/rest/POLocator/findLocations", "@spider": "usps_collection_boxes", "addr:city": "PITTSFIELD", "addr:country": "US", "addr:postcode": "01201", "addr:state": "MA", "addr:street_address": "1 DAN FOX DR", "amenity": "post_box", "brand": "United States Postal Service", "brand:wikidata": "Q668687", "collection_times": "Mo-Fr 10:00", "nsi_id": "unitedstatespostalservice-a77078", "operator": "United States Postal Service", "operator:short": "USPS", "operator:type": "public", "operator:wikidata": "Q668687", "ref": "0120100125"}, "type": "Feature"}
{"geometry": {"coordinates": [-73.2182095, 42.461555], "type": "Point"}, "id": "1SWFiot2QaW2QoIK-PEjf4_NtHc=", "properties": {"@source_uri": "https://tools.usps.com/UspsToolsRestServices/rest/POLocator/findLocations", "@spider": "usps_collection_boxes", "addr:city": "PITTSFIELD", "addr:country": "US", "addr:postcode": "01201", "addr:state": "MA", "addr:street_address": "358 DALTON AVE", "amenity": "post_box", "brand": "United States Postal Service", "brand:wikidata": "Q668687", "collection_times": "Mo-Sa 09:45", "nsi_id": "unitedstatespostalservice-a77078", "operator": "United States Postal Service", "operator:short": "USPS", "operator:type": "public", "operator:wikidata": "Q668687", "ref": "0120100131"}, "type": "Feature"}
{"geometry": {"coordinates": [-73.2140018, 42.431794], "type": "Point"}, "id": "X6RX_Pm8nxQwoWZMTE3IuyHhnyg=", "properties": {"@source_uri": "https://tools.usps.com/UspsToolsRestServices/rest/POLocator/findLocations", "@spider": "usps_collection_boxes", "addr:city": "PITTSFIELD", "addr:country": "US", "addr:postcode": "01201", "addr:state": "MA", "addr:street_address": "740 WILLIAMS ST", "amenity": "post_box", "brand": "United States Postal Service", "brand:wikidata": "Q668687", "collection_times": "Mo-Sa 14:00", "note": "ON 12/24 AND 12/31, THIS BOX MAY BE COLLECTED AS EARLY AS 12 NOON.", "nsi_id": "unitedstatespostalservice-a77078", "operator": "United States Postal Service", "operator:short": "USPS", "operator:type": "public", "operator:wikidata": "Q668687", "ref": "0120100132"}, "type": "Feature"}
{"geometry": {"coordinates": [-73.2611885, 42.425795], "type": "Point"}, "id": "o_i_YbTDM18yG58iTnn2AWPdS2c=", "properties": {"@source_uri": "https://tools.usps.com/UspsToolsRestServices/rest/POLocator/findLocations", "@spider": "usps_collection_boxes", "addr:city": "PITTSFIELD", "addr:country": "US", "addr:postcode": "01201", "addr:state": "MA", "addr:street_address": "700 SOUTH ST", "amenity": "post_box", "brand": "United States Postal Service", "brand:wikidata": "Q668687", "collection_times": "Mo-Fr 15:30", "note": "ON 12/24 AND 12/31, THIS BOX MAY BE COLLECTED AS EARLY AS 12 NOON.", "nsi_id": "unitedstatespostalservice-a77078", "operator": "United States Postal Service", "operator:short": "USPS", "operator:type": "public", "operator:wikidata": "Q668687", "ref": "0120100133"}, "type": "Feature"}
{"geometry": {"coordinates": [-73.25375, 42.452555], "type": "Point"}, "id": "0ShFi9Ouc8XTgv-EaHarQyTD-BQ=", "properties": {"@source_uri": "https://tools.usps.com/UspsToolsRestServices/rest/POLocator/findLocations", "@spider": "usps_collection_boxes", "addr:city": "PITTSFIELD", "addr:country": "US", "addr:postcode": "01201", "addr:state": "MA", "addr:street_address": "58 BROWN ST", "amenity": "post_box", "brand": "United States Postal Service", "brand:wikidata": "Q668687", "collection_times": "Mo-Sa 11:00", "nsi_id": "unitedstatespostalservice-a77078", "operator": "United States Postal Service", "operator:short": "USPS", "operator:type": "public", "operator:wikidata": "Q668687", "ref": "0120100134"}, "type": "Feature"}
{"geometry": {"coordinates": [-73.2054555, 42.469317], "type": "Point"}, "id": "qck_kgW22AObumlGN04a0bTzxDA=", "properties": {"@source_uri": "https://tools.usps.com/UspsToolsRestServices/rest/POLocator/findLocations", "@spider": "usps_collection_boxes", "addr:city": "PITTSFIELD", "addr:country": "US", "addr:postcode": "01201", "addr:state": "MA", "addr:street_address": "5 CHESHIRE RD", "amenity": "post_box", "brand": "United States Postal Service", "brand:wikidata": "Q668687", "collection_times": "Mo-Sa 10:30", "nsi_id": "unitedstatespostalservice-a77078", "operator": "United States Postal Service", "operator:short": "USPS", "operator:type": "public", "operator:wikidata": "Q668687", "ref": "0120100135"}, "type": "Feature"}
{"geometry": {"coordinates": [-73.2162031, 42.454031], "type": "Point"}, "id": "NDBVtW0Z8kaeDW8mXj3SuO7o29o=", "properties": {"@source_uri": "https://tools.usps.com/UspsToolsRestServices/rest/POLocator/findLocations", "@spider": "usps_collection_boxes", "addr:city": "PITTSFIELD", "addr:country": "US", "addr:postcode": "01201", "addr:state": "MA", "addr:street_address": "1440 EAST ST", "amenity": "post_box", "brand": "United States Postal Service", "brand:wikidata": "Q668687", "collection_times": "Mo-Sa 10:00", "nsi_id": "unitedstatespostalservice-a77078", "operator": "United States Postal Service", "operator:short": "USPS", "operator:type": "public", "operator:wikidata": "Q668687", "ref": "0120100136"}, "type": "Feature"}
{"geometry": {"coordinates": [-73.2521974, 42.446925], "type": "Point"}, "id": "fC5-OAJ-xgdlJvZDl47Bp1xNQ_M=", "properties": {"@source_uri": "https://tools.usps.com/UspsToolsRestServices/rest/POLocator/findLocations", "@spider": "usps_collection_boxes", "addr:city": "PITTSFIELD", "addr:country": "US", "addr:postcode": "01201", "addr:state": "MA", "addr:street_address": "29 WENDELL AVE", "amenity": "post_box", "brand": "United States Postal Service", "brand:wikidata": "Q668687", "collection_times": "Mo-Fr 15:30", "note": "ON 12/24 AND 12/31, THIS BOX MAY BE COLLECTED AS EARLY AS 12 NOON.", "nsi_id": "unitedstatespostalservice-a77078", "operator": "United States Postal Service", "operator:short": "USPS", "operator:type": "public", "operator:wikidata": "Q668687", "ref": "0120100138"}, "type": "Feature"}
{"geometry": {"coordinates": [-73.2491003, 42.449553], "type": "Point"}, "id": "GjJwhence_cPbd8DQxqhRrH2FDk=", "properties": {"@source_uri": "https://tools.usps.com/UspsToolsRestServices/rest/POLocator/findLocations", "@spider": "usps_collection_boxes", "addr:city": "PITTSFIELD", "addr:country": "US", "addr:postcode": "01201", "addr:state": "MA", "addr:street_address": "212 FENN ST", "amenity": "post_box", "brand": "United States Postal Service", "brand:wikidata": "Q668687", "collection_times": "Mo-Fr 18:00; Sa 17:00", "indoor": "yes", "note": "ON 12/24 AND 12/31, THIS BOX MAY BE COLLECTED AS EARLY AS 12 NOON.", "nsi_id": "unitedstatespostalservice-a77078", "operator": "United States Postal Service", "operator:short": "USPS", "operator:type": "public", "operator:wikidata": "Q668687", "ref": "0120100139"}, "type": "Feature"}
{"geometry": {"coordinates": [-73.259975, 42.446882], "type": "Point"}, "id": "dkeFfeMX02GvEkeTJP5X9Hpps_g=", "properties": {"@source_uri": "https://tools.usps.com/UspsToolsRestServices/rest/POLocator/findLocations", "@spider": "usps_collection_boxes", "addr:city": "PITTSFIELD", "addr:country": "US", "addr:postcode": "01201", "addr:state": "MA", "addr:street_address": "75 S CHURCH ST", "amenity": "post_box", "brand": "United States Postal Service", "brand:wikidata": "Q668687", "collection_times": "Mo-Fr 10:00", "nsi_id": "unitedstatespostalservice-a77078", "operator": "United States Postal Service", "operator:short": "USPS", "operator:type": "public", "operator:wikidata": "Q668687", "ref": "0120100140"}, "type": "Feature"}
{"geometry": {"coordinates": [-73.2591039, 42.44825], "type": "Point"}, "id": "76awoCSg-TToYqA_TlKv9He_yEw=", "properties": {"@source_uri": "https://tools.usps.com/UspsToolsRestServices/rest/POLocator/findLocations", "@spider": "usps_collection_boxes", "addr:city": "PITTSFIELD", "addr:country": "US", "addr:postcode": "01201", "addr:state": "MA", "addr:street_address": "200 WEST ST", "amenity": "post_box", "brand": "United States Postal Service", "brand:wikidata": "Q668687", "collection_times": "Mo-Sa 09:30", "nsi_id": "unitedstatespostalservice-a77078", "operator": "United States Postal Service", "operator:short": "USPS", "operator:type": "public", "operator:wikidata": "Q668687", "ref": "0120100143"}, "type": "Feature"}
{"geometry": {"coordinates": [-73.2628944112, 42.4568531906], "type": "Point"}, "id": "mVziigEomwcpcfAatrRnPqcKKKc=", "properties": {"@source_uri": "https://tools.usps.com/UspsToolsRestServices/rest/POLocator/findLocations", "@spider": "usps_collection_boxes", "addr:city": "PITTSFIELD", "addr:country": "US", "addr:postcode": "01201", "addr:state": "MA", "addr:street_address": "180 ONOTA ST", "amenity": "post_box", "brand": "United States Postal Service", "brand:wikidata": "Q668687", "collection_times": "Mo-Sa 09:00", "nsi_id": "unitedstatespostalservice-a77078", "operator": "United States Postal Service", "operator:short": "USPS", "operator:type": "public", "operator:wikidata": "Q668687", "ref": "0120100147"}, "type": "Feature"}
{"geometry": {"coordinates": [-73.25347709, 42.449972375], "type": "Point"}, "id": "nG29cyzlQrwHCcgkE5HZEOz1DK0=", "properties": {"@source_uri": "https://tools.usps.com/UspsToolsRestServices/rest/POLocator/findLocations", "@spider": "usps_collection_boxes", "addr:city": "PITTSFIELD", "addr:country": "US", "addr:postcode": "01201", "addr:state": "MA", "addr:street_address": "100 NORTH ST", "amenity": "post_box", "brand": "United States Postal Service", "brand:wikidata": "Q668687", "collection_times": "Mo-Fr 15:15; Sa 14:00", "note": "ON 12/24 AND 12/31, THIS BOX MAY BE COLLECTED AS EARLY AS 12 NOON.", "nsi_id": "unitedstatespostalservice-a77078", "operator": "United States Postal Service", "operator:short": "USPS", "operator:type": "public", "operator:wikidata": "Q668687", "ref": "0120100150"}, "type": "Feature"}
{"geometry": {"coordinates": [-73.2649108, 42.476226], "type": "Point"}, "id": "FAhXvYZ0Y6-33lF8RfSwld4-fXY=", "properties": {"@source_uri": "https://tools.usps.com/UspsToolsRestServices/rest/POLocator/findLocations", "@spider": "usps_collection_boxes", "addr:city": "PITTSFIELD", "addr:country": "US", "addr:postcode": "01201", "addr:state": "MA", "addr:street_address": "370 PECKS RD", "amenity": "post_box", "brand": "United States Postal Service", "brand:wikidata": "Q668687", "collection_times": "Mo-Sa 10:00", "nsi_id": "unitedstatespostalservice-a77078", "operator": "United States Postal Service", "operator:short": "USPS", "operator:type": "public", "operator:wikidata": "Q668687", "ref": "0120100151"}, "type": "Feature"}
{"geometry": {"coordinates": [-73.2512349, 42.451346], "type": "Point"}, "id": "tGCjbEdoRFUv9Br3i3h0asEycYg=", "properties": {"@source_uri": "https://tools.usps.com/UspsToolsRestServices/rest/POLocator/findLocations", "@spider": "usps_collection_boxes", "addr:city": "PITTSFIELD", "addr:country": "US", "addr:postcode": "01201", "addr:state": "MA", "addr:street_address": "53 EAGLE ST", "amenity": "post_box", "brand": "United States Postal Service", "brand:wikidata": "Q668687", "collection_times": "Mo-Fr 10:00", "nsi_id": "unitedstatespostalservice-a77078", "operator": "United States Postal Service", "operator:short": "USPS", "operator:type": "public", "operator:wikidata": "Q668687", "ref": "0120100152"}, "type": "Feature"}
{"geometry": {"coordinates": [-73.2488462577, 42.4490875669], "type": "Point"}, "id": "1KRt58pnWUxCZcXYZ4E6GEruGzE=", "properties": {"@source_uri": "https://tools.usps.com/UspsToolsRestServices/rest/POLocator/findLocations", "@spider": "usps_collection_boxes", "addr:city": "PITTSFIELD", "addr:country": "US", "addr:postcode": "01201", "addr:state": "MA", "addr:street_address": "212 FENN ST", "amenity": "post_box", "brand": "United States Postal Service", "brand:wikidata": "Q668687", "collection_times": "Mo-Fr 18:00; Sa 17:00", "name": "USPS COLLECTION BOX - APC", "note": "ON 12/24 AND 12/31, THIS BOX MAY BE COLLECTED AS EARLY AS 12 NOON.", "nsi_id": "unitedstatespostalservice-a77078", "operator": "United States Postal Service", "operator:short": "USPS", "operator:type": "public", "operator:wikidata": "Q668687", "ref": "0120100153"}, "type": "Feature"}
{"geometry": {"coordinates": [-73.24839061, 42.4576668096], "type": "Point"}, "id": "pyioMcv5ezAvPq8a4OTRi06RS0s=", "properties": {"@source_uri": "https://tools.usps.com/UspsToolsRestServices/rest/POLocator/findLocations", "@spider": "usps_collection_boxes", "addr:city": "PITTSFIELD", "addr:country": "US", "addr:postcode": "01201", "addr:state": "MA", "addr:street_address": "290 1ST ST", "amenity": "post_box", "brand": "United States Postal Service", "brand:wikidata": "Q668687", "collection_times": "Mo-Sa 10:00", "nsi_id": "unitedstatespostalservice-a77078", "operator": "United States Postal Service", "operator:short": "USPS", "operator:type": "public", "operator:wikidata": "Q668687", "ref": "0120100157"}, "type": "Feature"}
{"geometry": {"coordinates": [-73.248884691, 42.449469688], "type": "Point"}, "id": "jpyV0mpxiSTmoX8hL4wjhbuzFOw=", "properties": {"@source_uri": "https://tools.usps.com/UspsToolsRestServices/rest/POLocator/findLocations", "@spider": "usps_collection_boxes", "addr:city": "PITTSFIELD", "addr:country": "US", "addr:postcode": "01201", "addr:state": "MA", "addr:street_address": "212 FENN ST", "amenity": "post_box", "brand": "United States Postal Service", "brand:wikidata": "Q668687", "collection_times": "Mo-Fr 17:45; Sa 16:45", "indoor": "yes", "note": "ON 12/24 AND 12/31, THIS BOX MAY BE COLLECTED AS EARLY AS 12 NOON.", "nsi_id": "unitedstatespostalservice-a77078", "operator": "United States Postal Service", "operator:short": "USPS", "operator:type": "public", "operator:wikidata": "Q668687", "ref": "0120100160"}, "type": "Feature"}
{"geometry": {"coordinates": [-73.1252466, 42.612181], "type": "Point"}, "id": "SPG0CMOtzwQaaWaDNEV3ul0yu64=", "properties": {"@source_uri": "https://tools.usps.com/UspsToolsRestServices/rest/POLocator/findLocations", "@spider": "usps_collection_boxes", "addr:city": "SAVOY", "addr:country": "US", "addr:postcode": "01220", "addr:state": "MA", "addr:street_address": "119 COMMERCIAL ST", "amenity": "post_box", "brand": "United States Postal Service", "brand:wikidata": "Q668687", "collection_times": "Mo-Sa 10:00", "nsi_id": "unitedstatespostalservice-a77078", "operator": "United States Postal Service", "operator:short": "USPS", "operator:type": "public", "operator:wikidata": "Q668687", "ref": "0122000002"}, "type": "Feature"}
{"geometry": {"coordinates": [-73.1132104, 42.636492], "type": "Point"}, "id": "U-fGGspKy8BczcMzPEX3ol9UWJY=", "properties": {"@source_uri": "https://tools.usps.com/UspsToolsRestServices/rest/POLocator/findLocations", "@spider": "usps_collection_boxes", "addr:city": "SAVOY", "addr:country": "US", "addr:postcode": "01220", "addr:state": "MA", "addr:street_address": "218 COLUMBIA ST", "amenity": "post_box", "brand": "United States Postal Service", "brand:wikidata": "Q668687", "collection_times": "Mo-Sa 10:00", "nsi_id": "unitedstatespostalservice-a77078", "operator": "United States Postal Service", "operator:short": "USPS", "operator:type": "public", "operator:wikidata": "Q668687", "ref": "0122000006"}, "type": "Feature"}
{"geometry": {"coordinates": [-73.1188017, 42.621615], "type": "Point"}, "id": "UN04xbj27-WjoZMLQ-vlDs8WJck=", "properties": {"@source_uri": "https://tools.usps.com/UspsToolsRestServices/rest/POLocator/findLocations", "@spider": "usps_collection_boxes", "addr:city": "SAVOY", "addr:country": "US", "addr:postcode": "01220", "addr:state": "MA", "addr:street_address": "17 PLEASANT ST", "amenity": "post_box", "brand": "United States Postal Service", "brand:wikidata": "Q668687", "collection_times": "Mo-Sa 09:00", "nsi_id": "unitedstatespostalservice-a77078", "operator": "United States Postal Service", "operator:short": "USPS", "operator:type": "public", "operator:wikidata": "Q668687", "ref": "0122000007"}, "type": "Feature"}
{"geometry": {"coordinates": [-73.1138587, 42.625133], "type": "Point"}, "id": "txeDxfH26_orfrMOZo2VU3wNAsU=", "properties": {"@source_uri": "https://tools.usps.com/UspsToolsRestServices/rest/POLocator/findLocations", "@spider": "usps_collection_boxes", "addr:city": "SAVOY", "addr:country": "US", "addr:postcode": "01220", "addr:state": "MA", "addr:street_address": "26 HOOSAC ST", "amenity": "post_box", "brand": "United States Postal Service", "brand:wikidata": "Q668687", "collection_times": "Mo-Sa 10:00", "nsi_id": "unitedstatespostalservice-a77078", "operator": "United States Postal Service", "operator:short": "USPS", "operator:type": "public", "operator:wikidata": "Q668687", "ref": "0122000008"}, "type": "Feature"}
{"geometry": {"coordinates": [-73.120097, 42.623181], "type": "Point"}, "id": "lNGYvobtse5z1d2NkvIeEBhueyk=", "properties": {"@source_uri": "https://tools.usps.com/UspsToolsRestServices/rest/POLocator/findLocations", "@spider": "usps_collection_boxes", "addr:city": "SAVOY", "addr:country": "US", "addr:postcode": "01220", "addr:state": "MA", "addr:street_address": "39 PARK ST", "amenity": "post_box", "brand": "United States Postal Service", "brand:wikidata": "Q668687", "collection_times": "Mo-Sa 16:00", "note": "ON 12/24 AND 12/31, THIS BOX MAY BE COLLECTED AS EARLY AS 12 NOON.", "nsi_id": "unitedstatespostalservice-a77078", "operator": "United States Postal Service", "operator:short": "USPS", "operator:type": "public", "operator:wikidata": "Q668687", "ref": "0122000010"}, "type": "Feature"}
{"geometry": {"coordinates": [-73.1203379, 42.622046], "type": "Point"}, "id": "emC9Eigr8Uvkp_7w56q6QWxvH0I=", "properties": {"@source_uri": "https://tools.usps.com/UspsToolsRestServices/rest/POLocator/findLocations", "@spider": "usps_collection_boxes", "addr:city": "SAVOY", "addr:country": "US", "addr:postcode": "01220", "addr:state": "MA", "addr:street_address": "65 PARK ST", "amenity": "post_box", "brand": "United States Postal Service", "brand:wikidata": "Q668687", "collection_times": "Mo-Sa 16:00", "note": "ON 12/24 AND 12/31, THIS BOX MAY BE COLLECTED AS EARLY AS 12 NOON.", "nsi_id": "unitedstatespostalservice-a77078", "operator": "United States Postal Service", "operator:short": "USPS", "operator:type": "public", "operator:wikidata": "Q668687", "ref": "0122000012"}, "type": "Feature"}
{"geometry": {"coordinates": [-73.1107791, 42.630361], "type": "Point"}, "id": "7VBOBxoHgf2UAOwLSIvS_p10jqc=", "properties": {"@source_uri": "https://tools.usps.com/UspsToolsRestServices/rest/POLocator/findLocations", "@spider": "usps_collection_boxes", "addr:city": "SAVOY", "addr:country": "US", "addr:postcode": "01220", "addr:state": "MA", "addr:street_address": "71 N SUMMER ST", "amenity": "post_box", "brand": "United States Postal Service", "brand:wikidata": "Q668687", "collection_times": "Mo-Sa 09:30", "nsi_id": "unitedstatespostalservice-a77078", "operator": "United States Postal Service", "operator:short": "USPS", "operator:type": "public", "operator:wikidata": "Q668687", "ref": "0122000015"}, "type": "Feature"}
{"geometry": {"coordinates": [-73.1138252, 42.623371], "type": "Point"}, "id": "IyTbg92iPGx85N8ntIlrKCrHeq4=", "properties": {"@source_uri": "https://tools.usps.com/UspsToolsRestServices/rest/POLocator/findLocations", "@spider": "usps_collection_boxes", "addr:city": "SAVOY", "addr:country": "US", "addr:postcode": "01220", "addr:state": "MA", "addr:street_address": "89 SUMMER ST", "amenity": "post_box", "brand": "United States Postal Service", "brand:wikidata": "Q668687", "collection_times": "Mo-Sa 10:00", "nsi_id": "unitedstatespostalservice-a77078", "operator": "United States Postal Service", "operator:short": "USPS", "operator:type": "public", "operator:wikidata": "Q668687", "ref": "0122000017"}, "type": "Feature"}
{"geometry": {"coordinates": [-73.1198746, 42.623864], "type": "Point"}, "id": "O6OZ2bH7nM-OZIQHvEzg1U1nyts=", "properties": {"@source_uri": "https://tools.usps.com/UspsToolsRestServices/rest/POLocator/findLocations", "@spider": "usps_collection_boxes", "addr:city": "SAVOY", "addr:country": "US", "addr:postcode": "01220", "addr:state": "MA", "addr:street_address": "95 PARK ST", "amenity": "post_box", "brand": "United States Postal Service", "brand:wikidata": "Q668687", "collection_times": "Mo-Sa 16:00", "note": "ON 12/24 AND 12/31, THIS BOX MAY BE COLLECTED AS EARLY AS 12 NOON.", "nsi_id": "unitedstatespostalservice-a77078", "operator": "United States Postal Service", "operator:short": "USPS", "operator:type": "public", "operator:wikidata": "Q668687", "ref": "0122000018"}, "type": "Feature"}
{"geometry": {"coordinates": [-73.1203829, 42.620536], "type": "Point"}, "id": "T67N7KLnSMLBD6q8lkVApzd8JsM=", "properties": {"@source_uri": "https://tools.usps.com/UspsToolsRestServices/rest/POLocator/findLocations", "@spider": "usps_collection_boxes", "addr:city": "SAVOY", "addr:country": "US", "addr:postcode": "01220", "addr:state": "MA", "addr:street_address": "2 CENTER ST", "amenity": "post_box", "brand": "United States Postal Service", "brand:wikidata": "Q668687", "collection_times": "Mo-Sa 16:00", "note": "ON 12/24 AND 12/31, THIS BOX MAY BE COLLECTED AS EARLY AS 12 NOON.", "nsi_id": "unitedstatespostalservice-a77078", "operator": "United States Postal Service", "operator:short": "USPS", "operator:type": "public", "operator:wikidata": "Q668687", "ref": "0122000019"}, "type": "Feature"}
{"geometry": {"coordinates": [-73.1195291, 42.620322], "type": "Point"}, "id": "YDil62SHOHnC903KPsz6GBsu1Xs=", "properties": {"@source_uri": "https://tools.usps.com/UspsToolsRestServices/rest/POLocator/findLocations", "@spider": "usps_collection_boxes", "addr:city": "SAVOY", "addr:country": "US", "addr:postcode": "01220", "addr:state": "MA", "addr:street_address": "1 MYRTLE ST", "amenity": "post_box", "brand": "United States Postal Service", "brand:wikidata": "Q668687", "collection_times": "Mo-Sa 16:00", "note": "ON 12/24 AND 12/31, THIS BOX MAY BE COLLECTED AS EARLY AS 12 NOON.", "nsi_id": "unitedstatespostalservice-a77078", "operator": "United States Postal Service", "operator:short": "USPS", "operator:type": "public", "operator:wikidata": "Q668687", "ref": "0122000023"}, "type": "Feature"}
{"geometry": {"coordinates": [-73.1206939, 42.620361], "type": "Point"}, "id": "oOgYhjx_SnO9iB_3vPfSaievRtc=", "properties": {"@source_uri": "https://tools.usps.com/UspsToolsRestServices/rest/POLocator/findLocations", "@spider": "usps_collection_boxes", "addr:city": "SAVOY", "addr:country": "US", "addr:postcode": "01220", "addr:state": "MA", "addr:street_address": "1 CENTER ST", "amenity": "post_box", "brand": "United States Postal Service", "brand:wikidata": "Q668687", "collection_times": "Mo-Fr 17:00; Sa 16:00", "note": "ON 12/24 AND 12/31, THIS BOX MAY BE COLLECTED AS EARLY AS 12 NOON.", "nsi_id": "unitedstatespostalservice-a77078", "operator": "United States Postal Service", "operator:short": "USPS", "operator:type": "public", "operator:wikidata": "Q668687", "ref": "0122000024"}, "type": "Feature"}
{"geometry": {"coordinates": [-73.1174224, 42.632637], "type": "Point"}, "id": "7MaXuWEhbirl1FJo60CKfKVbbDE=", "properties": {"@source_uri": "https://tools.usps.com/UspsToolsRestServices/rest/POLocator/findLocations", "@spider": "usps_collection_boxes", "addr:city": "SAVOY", "addr:country": "US", "addr:postcode": "01220", "addr:state": "MA", "addr:street_address": "37 UPTON ST", "amenity": "post_box", "brand": "United States Postal Service", "brand:wikidata": "Q668687", "collection_times": "Mo-Sa 09:30", "nsi_id": "unitedstatespostalservice-a77078", "operator": "United States Postal Service", "operator:short": "USPS", "operator:type": "public", "operator:wikidata": "Q668687", "ref": "0122000025"}, "type": "Feature"}
{"geometry": {"coordinates": [-73.1206874, 42.62036], "type": "Point"}, "id": "I0IjU1tbMed8bZzI6Dw-q36bFIw=", "properties": {"@source_uri": "https://tools.usps.com/UspsToolsRestServices/rest/POLocator/findLocations", "@spider": "usps_collection_boxes", "addr:city": "SAVOY", "addr:country": "US", "addr:postcode": "01220", "addr:state": "MA", "addr:street_address": "1 CENTER ST", "amenity": "post_box", "brand": "United States Postal Service", "brand:wikidata": "Q668687", "collection_times": "Mo-Fr 17:00; Sa 16:00", "note": "ON 12/24 AND 12/31, THIS BOX MAY BE COLLECTED AS EARLY AS 12 NOON.", "nsi_id": "unitedstatespostalservice-a77078", "operator": "United States Postal Service", "operator:short": "USPS", "operator:type": "public", "operator:wikidata": "Q668687", "ref": "0122000026"}, "type": "Feature"}
{"geometry": {"coordinates": [-73.115625, 42.62501], "type": "Point"}, "id": "zuCJtT9VY2SN7N_WjUYNVT9XFmI=", "properties": {"@source_uri": "https://tools.usps.com/UspsToolsRestServices/rest/POLocator/findLocations", "@spider": "usps_collection_boxes", "addr:city": "SAVOY", "addr:country": "US", "addr:postcode": "01220", "addr:state": "MA", "addr:street_address": "720 MAIN RD", "amenity": "post_box", "brand": "United States Postal Service", "brand:wikidata": "Q668687", "collection_times": "Mo-Sa 10:00", "nsi_id": "unitedstatespostalservice-a77078", "operator": "United States Postal Service", "operator:short": "USPS", "operator:type": "public", "operator:wikidata": "Q668687", "ref": "0122000029"}, "type": "Feature"}
{"geometry": {"coordinates": [-73.1205269, 42.620204], "type": "Point"}, "id": "EL-mLOuhN0zj2BRbr43NIf7OyN8=", "properties": {"@source_uri": "https://tools.usps.com/UspsToolsRestServices/rest/POLocator/findLocations", "@spider": "usps_collection_boxes", "addr:city": "SAVOY", "addr:country": "US", "addr:postcode": "01220", "addr:state": "MA", "addr:street_address": "1 CENTER ST", "amenity": "post_box", "brand": "United States Postal Service", "brand:wikidata": "Q668687", "collection_times": "Mo-Fr 17:00; Sa 16:00", "indoor": "yes", "note": "ON 12/24 AND 12/31, THIS BOX MAY BE COLLECTED AS EARLY AS 12 NOON.", "nsi_id": "unitedstatespostalservice-a77078", "operator": "United States Postal Service", "operator:short": "USPS", "operator:type": "public", "operator:wikidata": "Q668687", "ref": "0122000030"}, "type": "Feature"}
{"geometry": {"coordinates": [-73.120077096, 42.62000869], "type": "Point"}, "id": "RlnzgKnj9vc1O3jIW4u7QG1OnNM=", "properties": {"@source_uri": "https://tools.usps.com/UspsToolsRestServices/rest/POLocator/findLocations", "@spider": "usps_collection_boxes", "addr:city": "SAVOY", "addr:country": "US", "addr:postcode": "01220", "addr:state": "MA", "addr:street_address": "1 CENTER ST", "amenity": "post_box", "brand": "United States Postal Service", "brand:wikidata": "Q668687", "collection_times": "Mo-Fr 17:00; Sa 16:00", "indoor": "yes", "note": "ON 12/24 AND 12/31, THIS BOX MAY BE COLLECTED AS EARLY AS 12 NOON.", "nsi_id": "unitedstatespostalservice-a77078", "operator": "United States Postal Service", "operator:short": "USPS", "operator:type": "public", "operator:wikidata": "Q668687", "ref": "0122000031"}, "type": "Feature"}
{"geometry": {"coordinates": [-73.33534, 42.056232], "type": "Point"}, "id": "zjIALkyKTUs0ipT0pX74IarIjmM=", "properties": {"@source_uri": "https://tools.usps.com/UspsToolsRestServices/rest/POLocator/findLocations", "@spider": "usps_collection_boxes", "addr:city": "ASHLEY FALLS", "addr:country": "US", "addr:postcode": "01222", "addr:state": "MA", "addr:street_address": "1180 ASHLEY FALLS RD", "amenity": "post_box", "brand": "United States Postal Service", "brand:wikidata": "Q668687", "collection_times": "Mo-Fr 16:00; Sa 11:30", "note": "ON 12/24 AND 12/31, THIS BOX MAY BE COLLECTED AS EARLY AS 12 NOON.", "nsi_id": "unitedstatespostalservice-a77078", "operator": "United States Postal Service", "operator:short": "USPS", "operator:type": "public", "operator:wikidata": "Q668687", "ref": "0122200000"}, "type": "Feature"}
{"geometry": {"coordinates": [-73.335277, 42.056151], "type": "Point"}, "id": "zArKPvS8YZr7Rr380lP9DonAa0Y=", "properties": {"@source_uri": "https://tools.usps.com/UspsToolsRestServices/rest/POLocator/findLocations", "@spider": "usps_collection_boxes", "addr:city": "ASHLEY FALLS", "addr:country": "US", "addr:postcode": "01222", "addr:state": "MA", "addr:street_address": "1180 ASHLEY FALLS RD", "amenity": "post_box", "brand": "United States Postal Service", "brand:wikidata": "Q668687", "collection_times": "Mo-Fr 16:00; Sa 11:30", "indoor": "yes", "note": "ON 12/24 AND 12/31, THIS BOX MAY BE COLLECTED AS EARLY AS 12 NOON.", "nsi_id": "unitedstatespostalservice-a77078", "operator": "United States Postal Service", "operator:short": "USPS", "operator:type": "public", "operator:wikidata": "Q668687", "ref": "0122200001"}, "type": "Feature"}
{"geometry": {"coordinates": [-73.335384082, 42.056355311], "type": "Point"}, "id": "TVM5yJVIXxW_A2YZ_4BMUQ_oMwU=", "properties": {"@source_uri": "https://tools.usps.com/UspsToolsRestServices/rest/POLocator/findLocations", "@spider": "usps_collection_boxes", "addr:city": "ASHLEY FALLS", "addr:country": "US", "addr:postcode": "01222", "addr:state": "MA", "addr:street_address": "1180 ASHLEY FALLS RD", "amenity": "post_box", "brand": "United States Postal Service", "brand:wikidata": "Q668687", "collection_times": "Mo-Fr 16:00; Sa 11:30", "indoor": "yes", "note": "ON 12/24 AND 12/31, THIS BOX MAY BE COLLECTED AS EARLY AS 12 NOON.", "nsi_id": "unitedstatespostalservice-a77078", "operator": "United States Postal Service", "operator:short": "USPS", "operator:type": "public", "operator:wikidata": "Q668687", "ref": "0122200002"}, "type": "Feature"}
{"geometry": {"coordinates": [-73.0602633269, 42.2788273926], "type": "Point"}, "id": "PpakTZMFPdEieNL4DF5CtTS0acA=", "properties": {"@source_uri": "https://tools.usps.com/UspsToolsRestServices/rest/POLocator/findLocations", "@spider": "usps_collection_boxes", "addr:city": "BECKET", "addr:country": "US", "addr:postcode": "01223", "addr:state": "MA", "addr:street_address": "623 MAIN ST", "amenity": "post_box", "brand": "United States Postal Service", "brand:wikidata": "Q668687", "collection_times": "Mo-Fr 16:00; Sa 12:00", "indoor": "yes", "note": "ON 12/24 AND 12/31, THIS BOX MAY BE COLLECTED AS EARLY AS 12 NOON.", "nsi_id": "unitedstatespostalservice-a77078", "operator": "United States Postal Service", "operator:short": "USPS", "operator:type": "public", "operator:wikidata": "Q668687", "ref": "0122300002"}, "type": "Feature"}
{"geometry": {"coordinates": [-73.0602633269, 42.2788273926], "type": "Point"}, "id": "Tf0yMTAmYllirirnHR_Cp_UeIeg=", "properties": {"@source_uri": "https://tools.usps.com/UspsToolsRestServices/rest/POLocator/findLocations", "@spider": "usps_collection_boxes", "addr:city": "BECKET", "addr:country": "US", "addr:postcode": "01223", "addr:state": "MA", "addr:street_address": "623 MAIN ST", "amenity": "post_box", "brand": "United States Postal Service", "brand:wikidata": "Q668687", "collection_times": "Mo-Fr 16:00; Sa 12:00", "note": "ON 12/24 AND 12/31, THIS BOX MAY BE COLLECTED AS EARLY AS 12 NOON.", "nsi_id": "unitedstatespostalservice-a77078", "operator": "United States Postal Service", "operator:short": "USPS", "operator:type": "public", "operator:wikidata": "Q668687", "ref": "0122300003"}, "type": "Feature"}
{"geometry": {"coordinates": [-73.0602633269, 42.2788273926], "type": "Point"}, "id": "DVgyMnc-jLBBoS8fCvHfBKsiHaU=", "properties": {"@source_uri": "https://tools.usps.com/UspsToolsRestServices/rest/POLocator/findLocations", "@spider": "usps_collection_boxes", "addr:city": "BECKET", "addr:country": "US", "addr:postcode": "01223", "addr:state": "MA", "addr:street_address": "623 MAIN ST", "amenity": "post_box", "brand": "United States Postal Service", "brand:wikidata": "Q668687", "collection_times": "Mo-Fr 16:10", "indoor": "yes", "note": "ON 12/24 AND 12/31, THIS BOX MAY BE COLLECTED AS EARLY AS 12 NOON.", "nsi_id": "unitedstatespostalservice-a77078", "operator": "United States Postal Service", "operator:short": "USPS", "operator:type": "public", "operator:wikidata": "Q668687", "ref": "0122300006"}, "type": "Feature"}
{"geometry": {"coordinates": [-73.157624, 42.562067], "type": "Point"}, "id": "ssbeXh-2qBDsibW6Kc22JMdYSCw=", "properties": {"@source_uri": "https://tools.usps.com/UspsToolsRestServices/rest/POLocator/findLocations", "@spider": "usps_collection_boxes", "addr:city": "CHESHIRE", "addr:country": "US", "addr:postcode": "01225", "addr:state": "MA", "addr:street_address": "214 CHURCH ST", "amenity": "post_box", "brand": "United States Postal Service", "brand:wikidata": "Q668687", "collection_times": "Mo-Fr 16:15; Sa 11:15", "note": "ON 12/24 AND 12/31, THIS BOX MAY BE COLLECTED AS EARLY AS 12 NOON.", "nsi_id": "unitedstatespostalservice-a77078", "operator": "United States Postal Service", "operator:short": "USPS", "operator:type": "public", "operator:wikidata": "Q668687", "ref": "0122500001"}, "type": "Feature"}
{"geometry": {"coordinates": [-73.157624, 42.562067], "type": "Point"}, "id": "iamn107IA9DPwUlBEC7yhtuvNqM=", "properties": {"@source_uri": "https://tools.usps.com/UspsToolsRestServices/rest/POLocator/findLocations", "@spider": "usps_collection_boxes", "addr:city": "CHESHIRE", "addr:country": "US", "addr:postcode": "01225", "addr:state": "MA", "addr:street_address": "214 CHURCH ST LBBY DROP", "amenity": "post_box", "brand": "United States Postal Service", "brand:wikidata": "Q668687", "collection_times": "Mo-Fr 16:15; Sa 11:15", "indoor": "yes", "note": "ON 12/24 AND 12/31, THIS BOX MAY BE COLLECTED AS EARLY AS 12 NOON.", "nsi_id": "unitedstatespostalservice-a77078", "operator": "United States Postal Service", "operator:short": "USPS", "operator:type": "public", "operator:wikidata": "Q668687", "ref": "0122500002"}, "type": "Feature"}
{"geometry": {"coordinates": [-73.157715057, 42.562067587], "type": "Point"}, "id": "sdmZ_R_X1PhnRrmwVU_ij7Si1cw=", "properties": {"@source_uri": "https://tools.usps.com/UspsToolsRestServices/rest/POLocator/findLocations", "@spider": "usps_collection_boxes", "addr:city": "CHESHIRE", "addr:country": "US", "addr:postcode": "01225", "addr:state": "MA", "addr:street_address": "214 CHURCH ST", "amenity": "post_box", "brand": "United States Postal Service", "brand:wikidata": "Q668687", "collection_times": "Mo-Fr 16:30; Sa 11:30", "indoor": "yes", "note": "ON 12/24 AND 12/31, THIS BOX MAY BE COLLECTED AS EARLY AS 12 NOON.", "nsi_id": "unitedstatespostalservice-a77078", "operator": "United States Postal Service", "operator:short": "USPS", "operator:type": "public", "operator:wikidata": "Q668687", "ref": "0122500003"}, "type": "Feature"}
{"geometry": {"coordinates": [-73.1565549, 42.479244], "type": "Point"}, "id": "0-w1QfsxAJZMb2LUY4f7Jm6X0UY=", "properties": {"@source_uri": "https://tools.usps.com/UspsToolsRestServices/rest/POLocator/findLocations", "@spider": "usps_collection_boxes", "addr:city": "DALTON", "addr:country": "US", "addr:postcode": "01226", "addr:state": "MA", "addr:street_address": "200 NORTH ST", "amenity": "post_box", "brand": "United States Postal Service", "brand:wikidata": "Q668687", "collection_times": "Mo-Sa 10:00", "nsi_id": "unitedstatespostalservice-a77078", "operator": "United States Postal Service", "operator:short": "USPS", "operator:type": "public", "operator:wikidata": "Q668687", "ref": "0122600002"}, "type": "Feature"}
{"geometry": {"coordinates": [-73.164093, 42.472861], "type": "Point"}, "id": "t1OXXZvaBiGzMK-X4pXeTLSKQQk=", "properties": {"@source_uri": "https://tools.usps.com/UspsToolsRestServices/rest/POLocator/findLocations", "@spider": "usps_collection_boxes", "addr:city": "DALTON", "addr:country": "US", "addr:postcode": "01226", "addr:state": "MA", "addr:street_address": "609 MAIN ST", "amenity": "post_box", "brand": "United States Postal Service", "brand:wikidata": "Q668687", "collection_times": "Mo-Fr 16:30; Sa 12:00", "indoor": "yes", "note": "ON 12/24 AND 12/31, THIS BOX MAY BE COLLECTED AS EARLY AS 12 NOON.", "nsi_id": "unitedstatespostalservice-a77078", "operator": "United States Postal Service", "operator:short": "USPS", "operator:type": "public", "operator:wikidata": "Q668687", "ref": "0122600003"}, "type": "Feature"}
{"geometry": {"coordinates": [-73.1724429, 42.473605], "type": "Point"}, "id": "3OUB-vYAHPJySg04Czy12hT1cLo=", "properties": {"@source_uri": "https://tools.usps.com/UspsToolsRestServices/rest/POLocator/findLocations", "@spider": "usps_collection_boxes", "addr:city": "DALTON", "addr:country": "US", "addr:postcode": "01226", "addr:state": "MA", "addr:street_address": "12 FLANSBURG AVE", "amenity": "post_box", "brand": "United States Postal Service", "brand:wikidata": "Q668687", "collection_times": "Mo-Sa 10:00", "nsi_id": "unitedstatespostalservice-a77078", "operator": "United States Postal Service", "operator:short": "USPS", "operator:type": "public", "operator:wikidata": "Q668687", "ref": "0122600005"}, "type": "Feature"}
{"geometry": {"coordinates": [-73.1792283, 42.471275], "type": "Point"}, "id": "qPuEBB6cJ9mfgnhUCdiDd2GHGoo=", "properties": {"@source_uri": "https://tools.usps.com/UspsToolsRestServices/rest/POLocator/findLocations", "@spider": "usps_collection_boxes", "addr:city": "DALTON", "addr:country": "US", "addr:postcode": "01226", "addr:state": "MA", "addr:street_address": "197 SOUTH ST", "amenity": "post_box", "brand": "United States Postal Service", "brand:wikidata": "Q668687", "collection_times": "Mo-Sa 10:00", "nsi_id": "unitedstatespostalservice-a77078", "operator": "United States Postal Service", "operator:short": "USPS", "operator:type": "public", "operator:wikidata": "Q668687", "ref": "0122600012"}, "type": "Feature"}
{"geometry": {"coordinates": [-73.1640031, 42.473086], "type": "Point"}, "id": "7YqbTPz1zs08g_2n_BZz4J5ErQU=", "properties": {"@source_uri": "https://tools.usps.com/UspsToolsRestServices/rest/POLocator/findLocations", "@spider": "usps_collection_boxes", "addr:city": "DALTON", "addr:country": "US", "addr:postcode": "01226", "addr:state": "MA", "addr:street_address": "609 MAIN ST", "amenity": "post_box", "brand": "United States Postal Service", "brand:wikidata": "Q668687", "collection_times": "Mo-Fr 16:00; Sa 11:45", "note": "ON 12/24 AND 12/31, THIS BOX MAY BE COLLECTED AS EARLY AS 12 NOON.", "nsi_id": "unitedstatespostalservice-a77078", "operator": "United States Postal Service", "operator:short": "USPS", "operator:type": "public", "operator:wikidata": "Q668687", "ref": "0122600019"}, "type": "Feature"}
{"geometry": {"coordinates": [-73.1880652, 42.452432], "type": "Point"}, "id": "Ktde7vnI1SYdCs8lyCVWD4V0ruA=", "properties": {"@source_uri": "https://tools.usps.com/UspsToolsRestServices/rest/POLocator/findLocations", "@spider": "usps_collection_boxes", "addr:city": "DALTON", "addr:country": "US", "addr:postcode": "01226", "addr:state": "MA", "addr:street_address": "1088 SOUTH ST", "amenity": "post_box", "brand": "United States Postal Service", "brand:wikidata": "Q668687", "collection_times": "Mo-Sa 10:30", "nsi_id": "unitedstatespostalservice-a77078", "operator": "United States Postal Service", "operator:short": "USPS", "operator:type": "public", "operator:wikidata": "Q668687", "ref": "0122600021"}, "type": "Feature"}
{"geometry": {"coordinates": [-73.164067727, 42.472931474], "type": "Point"}, "id": "zDBerWORSZitS9Lgrqu3Vs5DSLU=", "properties": {"@source_uri": "https://tools.usps.com/UspsToolsRestServices/rest/POLocator/findLocations", "@spider": "usps_collection_boxes", "addr:city": "DALTON", "addr:country": "US", "addr:postcode": "01226", "addr:state": "MA", "addr:street_address": "609 MAIN ST", "amenity": "post_box", "brand": "United States Postal Service", "brand:wikidata": "Q668687", "collection_times": "Mo-Fr 16:00; Sa 12:00", "indoor": "yes", "note": "ON 12/24 AND 12/31, THIS BOX MAY BE COLLECTED AS EARLY AS 12 NOON.", "nsi_id": "unitedstatespostalservice-a77078", "operator": "United States Postal Service", "operator:short": "USPS", "operator:type": "public", "operator:wikidata": "Q668687", "ref": "0122600022"}, "type": "Feature"}
{"geometry": {"coordinates": [-73.3435557, 42.210287], "type": "Point"}, "id": "e8n2r5HSgp0m4O8r3hO47c-aUPc=", "properties": {"@source_uri": "https://tools.usps.com/UspsToolsRestServices/rest/POLocator/findLocations", "@spider": "usps_collection_boxes", "addr:city": "GT BARRINGTON", "addr:country": "US", "addr:postcode": "01230", "addr:state": "MA", "addr:street_address": "336 STOCKBRIDGE RD", "amenity": "post_box", "brand": "United States Postal Service", "brand:wikidata": "Q668687", "collection_times": "Mo-Sa 10:00", "nsi_id": "unitedstatespostalservice-a77078", "operator": "United States Postal Service", "operator:short": "USPS", "operator:type": "public", "operator:wikidata": "Q668687", "ref": "0123000001"}, "type": "Feature"}
{"geometry": {"coordinates": [-73.3656914, 42.180992], "type": "Point"}, "id": "gRp2L2LXHNFf-uNY2VXTZ1g66Sw=", "properties": {"@source_uri": "https://tools.usps.com/UspsToolsRestServices/rest/POLocator/findLocations", "@spider": "usps_collection_boxes", "addr:city": "GT BARRINGTON", "addr:country": "US", "addr:postcode": "01230", "addr:state": "MA", "addr:street_address": "700 MAIN ST", "amenity": "post_box", "brand": "United States Postal Service", "brand:wikidata": "Q668687", "collection_times": "Mo-Sa 10:00", "nsi_id": "unitedstatespostalservice-a77078", "operator": "United States Postal Service", "operator:short": "USPS", "operator:type": "public", "operator:wikidata": "Q668687", "ref": "0123000002"}, "type": "Feature"}
{"geometry": {"coordinates": [-73.3619851, 42.194759], "type": "Point"}, "id": "2eXtzaMS_0mDUqheDluduxMfiwE=", "properties": {"@source_uri": "https://tools.usps.com/UspsToolsRestServices/rest/POLocator/findLocations", "@spider": "usps_collection_boxes", "addr:city": "GT BARRINGTON", "addr:country": "US", "addr:postcode": "01230", "addr:state": "MA", "addr:street_address": "279 MAIN ST", "amenity": "post_box", "brand": "United States Postal Service", "brand:wikidata": "Q668687", "collection_times": "Mo-Fr 13:00; Sa 10:00", "note": "ON 12/24 AND 12/31, THIS BOX MAY BE COLLECTED AS EARLY AS 12 NOON.", "nsi_id": "unitedstatespostalservice-a77078", "operator": "United States Postal Service", "operator:short": "USPS", "operator:type": "public", "operator:wikidata": "Q668687", "ref": "0123000005"}, "type": "Feature"}
{"geometry": {"coordinates": [-73.3622495, 42.194514], "type": "Point"}, "id": "H-2lLH4PLAaupoQx5gUSL4JP4cw=", "properties": {"@source_uri": "https://tools.usps.com/UspsToolsRestServices/rest/POLocator/findLocations", "@spider": "usps_collection_boxes", "addr:city": "GT BARRINGTON", "addr:country": "US", "addr:postcode": "01230", "addr:state": "MA", "addr:street_address": "294 MAIN ST", "amenity": "post_box", "brand": "United States Postal Service", "brand:wikidata": "Q668687", "collection_times": "Mo-Fr 12:00; Sa 10:00", "nsi_id": "unitedstatespostalservice-a77078", "operator": "United States Postal Service", "operator:short": "USPS", "operator:type": "public", "operator:wikidata": "Q668687", "ref": "0123000006"}, "type": "Feature"}
{"geometry": {"coordinates": [-73.3647242, 42.18411], "type": "Point"}, "id": "ZvrqLHQFJJn_lNOLL7tJ5DKS1lU=", "properties": {"@source_uri": "https://tools.usps.com/UspsToolsRestServices/rest/POLocator/findLocations", "@spider": "usps_collection_boxes", "addr:city": "GT BARRINGTON", "addr:country": "US", "addr:postcode": "01230", "addr:state": "MA", "addr:street_address": "620 MAIN ST", "amenity": "post_box", "brand": "United States Postal Service", "brand:wikidata": "Q668687", "collection_times": "Mo-Sa 10:00", "nsi_id": "unitedstatespostalservice-a77078", "operator": "United States Postal Service", "operator:short": "USPS", "operator:type": "public", "operator:wikidata": "Q668687", "ref": "0123000007"}, "type": "Feature"}
{"geometry": {"coordinates": [-73.361037, 42.196386], "type": "Point"}, "id": "vB3nbxD8D32syJqqIB20VY4SNlQ=", "properties": {"@source_uri": "https://tools.usps.com/UspsToolsRestServices/rest/POLocator/findLocations", "@spider": "usps_collection_boxes", "addr:city": "GT BARRINGTON", "addr:country": "US", "addr:postcode": "01230", "addr:state": "MA", "addr:street_address": "222 MAIN ST", "amenity": "post_box", "brand": "United States Postal Service", "brand:wikidata": "Q668687", "collection_times": "Mo-Fr 16:30; Sa 15:30", "name": "USPS COLLECTION BOX - EXPRESS", "note": "ON 12/24 AND 12/31, THIS BOX MAY BE COLLECTED AS EARLY AS 12 NOON.", "nsi_id": "unitedstatespostalservice-a77078", "operator": "United States Postal Service", "operator:short": "USPS", "operator:type": "public", "operator:wikidata": "Q668687", "ref": "0123000008"}, "type": "Feature"}
{"geometry": {"coordinates": [-73.361037, 42.196386], "type": "Point"}, "id": "zy-GAUTvvbokexFGDh2u98zFzC0=", "properties": {"@source_uri": "https://tools.usps.com/UspsToolsRestServices/rest/POLocator/findLocations", "@spider": "usps_collection_boxes", "addr:city": "GT BARRINGTON", "addr:country": "US", "addr:postcode": "01230", "addr:state": "MA", "addr:street_address": "222 MAIN ST", "amenity": "post_box", "brand": "United States Postal Service", "brand:wikidata": "Q668687", "collection_times": "Mo-Fr 16:30; Sa 15:30", "note": "ON 12/24 AND 12/31, THIS BOX MAY BE COLLECTED AS EARLY AS 12 NOON.", "nsi_id": "unitedstatespostalservice-a77078", "operator": "United States Postal Service", "operator:short": "USPS", "operator:type": "public", "operator:wikidata": "Q668687", "ref": "0123000009"}, "type": "Feature"}
{"geometry": {"coordinates": [-73.3627914, 42.193885], "type": "Point"}, "id": "CfhnQbD9e0WNativzPQW2fmNaQk=", "properties": {"@source_uri": "https://tools.usps.com/UspsToolsRestServices/rest/POLocator/findLocations", "@spider": "usps_collection_boxes", "addr:city": "GT BARRINGTON", "addr:country": "US", "addr:postcode": "01230", "addr:state": "MA", "addr:street_address": "323 MAIN ST", "amenity": "post_box", "brand": "United States Postal Service", "brand:wikidata": "Q668687", "collection_times": "Mo-Fr 13:00; Sa 10:00", "note": "ON 12/24 AND 12/31, THIS BOX MAY BE COLLECTED AS EARLY AS 12 NOON.", "nsi_id": "unitedstatespostalservice-a77078", "operator": "United States Postal Service", "operator:short": "USPS", "operator:type": "public", "operator:wikidata": "Q668687", "ref": "0123000011"}, "type": "Feature"}
{"geometry": {"coordinates": [-73.3716849, 42.190831], "type": "Point"}, "id": "2MzgPLpChzpy4bY8uQBbA3hSqDQ=", "properties": {"@source_uri": "https://tools.usps.com/UspsToolsRestServices/rest/POLocator/findLocations", "@spider": "usps_collection_boxes", "addr:city": "GT BARRINGTON", "addr:country": "US", "addr:postcode": "01230", "addr:state": "MA", "addr:street_address": "29 LEWIS AVE", "amenity": "post_box", "brand": "United States Postal Service", "brand:wikidata": "Q668687", "collection_times": "Mo-Fr 10:00", "nsi_id": "unitedstatespostalservice-a77078", "operator": "United States Postal Service", "operator:short": "USPS", "operator:type": "public", "operator:wikidata": "Q668687", "ref": "0123000012"}, "type": "Feature"}
{"geometry": {"coordinates": [-73.361085, 42.196318], "type": "Point"}, "id": "feqSE9t9cKgSgk4iGM4SV4DQdkU=", "properties": {"@source_uri": "https://tools.usps.com/UspsToolsRestServices/rest/POLocator/findLocations", "@spider": "usps_collection_boxes", "addr:city": "GT BARRINGTON", "addr:country": "US", "addr:postcode": "01230", "addr:state": "MA", "addr:street_address": "222 MAIN ST LBBY DROP", "amenity": "post_box", "brand": "United States Postal Service", "brand:wikidata": "Q668687", "collection_times": "Mo-Fr 16:30; Sa 15:30", "indoor": "yes", "note": "ON 12/24 AND 12/31, THIS BOX MAY BE COLLECTED AS EARLY AS 12 NOON.", "nsi_id": "unitedstatespostalservice-a77078", "operator": "United States Postal Service", "operator:short": "USPS", "operator:type": "public", "operator:wikidata": "Q668687", "ref": "0123000014"}, "type": "Feature"}
{"geometry": {"coordinates": [-73.3610867919, 42.196330194], "type": "Point"}, "id": "j510IbpRTQCVvfwad2XhcxrOb0A=", "properties": {"@source_uri": "https://tools.usps.com/UspsToolsRestServices/rest/POLocator/findLocations", "@spider": "usps_collection_boxes", "addr:city": "GT BARRINGTON", "addr:country": "US", "addr:postcode": "01230", "addr:state": "MA", "addr:street_address": "222 MAIN ST", "amenity": "post_box", "brand": "United States Postal Service", "brand:wikidata": "Q668687", "collection_times": "Mo-Fr 16:45; Sa 14:00", "indoor": "yes", "note": "ON 12/24 AND 12/31, THIS BOX MAY BE COLLECTED AS EARLY AS 12 NOON.", "nsi_id": "unitedstatespostalservice-a77078", "operator": "United States Postal Service", "operator:short": "USPS", "operator:type": "public", "operator:wikidata": "Q668687", "ref": "0123000017"}, "type": "Feature"}
{"geometry": {"coordinates": [-73.125154, 42.438245], "type": "Point"}, "id": "czwfq9Eb0Fxm2g9zc1jk1AHGLKc=", "properties": {"@source_uri": "https://tools.usps.com/UspsToolsRestServices/rest/POLocator/findLocations", "@spider": "usps_collection_boxes", "addr:city": "HINSDALE", "addr:country": "US", "addr:postcode": "01235", "addr:state": "MA", "addr:street_address": "25 MAPLE ST", "amenity": "post_box", "brand": "United States Postal Service", "brand:wikidata": "Q668687", "collection_times": "Mo-Fr 16:00; Sa 11:45", "note": "ON 12/24 AND 12/31, THIS BOX MAY BE COLLECTED AS EARLY AS 12 NOON.", "nsi_id": "unitedstatespostalservice-a77078", "operator": "United States Postal Service", "operator:short": "USPS", "operator:type": "public", "operator:wikidata": "Q668687", "ref": "0123500002"}, "type": "Feature"}
{"geometry": {"coordinates": [-73.125154, 42.438245], "type": "Point"}, "id": "yYDUu7ifU6vgftCGWOy3yItEHv4=", "properties": {"@source_uri": "https://tools.usps.com/UspsToolsRestServices/rest/POLocator/findLocations", "@spider": "usps_collection_boxes", "addr:city": "HINSDALE", "addr:country": "US", "addr:postcode": "01235", "addr:state": "MA", "addr:street_address": "25 MAPLE ST LBBY DROP", "amenity": "post_box", "brand": "United States Postal Service", "brand:wikidata": "Q668687", "collection_times": "Mo-Fr 16:30; Sa 12:00", "indoor": "yes", "note": "ON 12/24 AND 12/31, THIS BOX MAY BE COLLECTED AS EARLY AS 12 NOON.", "nsi_id": "unitedstatespostalservice-a77078", "operator": "United States Postal Service", "operator:short": "USPS", "operator:type": "public", "operator:wikidata": "Q668687", "ref": "0123500003"}, "type": "Feature"}
{"geometry": {"coordinates": [-73.125157185, 42.438241172], "type": "Point"}, "id": "tO3_i1B4yPhIM1Dy4eBAmNsbrlM=", "properties": {"@source_uri": "https://tools.usps.com/UspsToolsRestServices/rest/POLocator/findLocations", "@spider": "usps_collection_boxes", "addr:city": "HINSDALE", "addr:country": "US", "addr:postcode": "01235", "addr:state": "MA", "addr:street_address": "25 MAPLE ST", "amenity": "post_box", "brand": "United States Postal Service", "brand:wikidata": "Q668687", "collection_times": "Mo-Fr 16:00; Sa 12:00", "indoor": "yes", "note": "ON 12/24 AND 12/31, THIS BOX MAY BE COLLECTED AS EARLY AS 12 NOON.", "nsi_id": "unitedstatespostalservice-a77078", "operator": "United States Postal Service", "operator:short": "USPS", "operator:type": "public", "operator:wikidata": "Q668687", "ref": "0123500004"}, "type": "Feature"}
{"geometry": {"coordinates": [-73.365086, 42.257125], "type": "Point"}, "id": "PfCEtvsLvHIAhX7becTfY4JuRZg=", "properties": {"@source_uri": "https://tools.usps.com/UspsToolsRestServices/rest/POLocator/findLocations", "@spider": "usps_collection_boxes", "addr:city": "HOUSATONIC", "addr:country": "US", "addr:postcode": "01236", "addr:state": "MA", "addr:street_address": "11 DEPOT ST", "amenity": "post_box", "brand": "United States Postal Service", "brand:wikidata": "Q668687", "collection_times": "Mo-Fr 16:30; Sa 12:00", "indoor": "yes", "note": "ON 12/24 AND 12/31, THIS BOX MAY BE COLLECTED AS EARLY AS 12 NOON.", "nsi_id": "unitedstatespostalservice-a77078", "operator": "United States Postal Service", "operator:short": "USPS", "operator:type": "public", "operator:wikidata": "Q668687", "ref": "0123600002"}, "type": "Feature"}
{"geometry": {"coordinates": [-73.365165, 42.257189], "type": "Point"}, "id": "RgpUjBU-Gpmy7AlmsB9AISEOGfk=", "properties": {"@source_uri": "https://tools.usps.com/UspsToolsRestServices/rest/POLocator/findLocations", "@spider": "usps_collection_boxes", "addr:city": "HOUSATONIC", "addr:country": "US", "addr:postcode": "01236", "addr:state": "MA", "addr:street_address": "11 DEPOT ST", "amenity": "post_box", "brand": "United States Postal Service", "brand:wikidata": "Q668687", "collection_times": "Mo-Fr 16:15; Sa 12:00", "note": "ON 12/24 AND 12/31, THIS BOX MAY BE COLLECTED AS EARLY AS 12 NOON.", "nsi_id": "unitedstatespostalservice-a77078", "operator": "United States Postal Service", "operator:short": "USPS", "operator:type": "public", "operator:wikidata": "Q668687", "ref": "0123600004"}, "type": "Feature"}
{"geometry": {"coordinates": [-73.365084924, 42.257158785], "type": "Point"}, "id": "XKV5itFsNA0yPiZRAGrkAhubehw=", "properties": {"@source_uri": "https://tools.usps.com/UspsToolsRestServices/rest/POLocator/findLocations", "@spider": "usps_collection_boxes", "addr:city": "HOUSATONIC", "addr:country": "US", "addr:postcode": "01236", "addr:state": "MA", "addr:street_address": "11 DEPOT ST", "amenity": "post_box", "brand": "United States Postal Service", "brand:wikidata": "Q668687", "collection_times": "Mo-Fr 16:30; Sa 12:00", "indoor": "yes", "note": "ON 12/24 AND 12/31, THIS BOX MAY BE COLLECTED AS EARLY AS 12 NOON.", "nsi_id": "unitedstatespostalservice-a77078", "operator": "United States Postal Service", "operator:short": "USPS", "operator:type": "public", "operator:wikidata": "Q668687", "ref": "0123600005"}, "type": "Feature"}
{"geometry": {"coordinates": [-73.237735, 42.5008], "type": "Point"}, "id": "HjvzM33iYIxHFEaRk65CqtFi8Ek=", "properties": {"@source_uri": "https://tools.usps.com/UspsToolsRestServices/rest/POLocator/findLocations", "@spider": "usps_collection_boxes", "addr:city": "HANCOCK", "addr:country": "US", "addr:postcode": "01237", "addr:state": "MA", "addr:street_address": "545 S MAIN ST", "amenity": "post_box", "brand": "United States Postal Service", "brand:wikidata": "Q668687", "collection_times": "Mo-Fr 17:00; Sa 12:00", "note": "ON 12/24 AND 12/31, THIS BOX MAY BE COLLECTED AS EARLY AS 12 NOON.", "nsi_id": "unitedstatespostalservice-a77078", "operator": "United States Postal Service", "operator:short": "USPS", "operator:type": "public", "operator:wikidata": "Q668687", "ref": "0123700003"}, "type": "Feature"}
{"geometry": {"coordinates": [-73.237735, 42.5008], "type": "Point"}, "id": "CFFuTkcoW1ThIQMmtFOR5_gvhzs=", "properties": {"@source_uri": "https://tools.usps.com/UspsToolsRestServices/rest/POLocator/findLocations", "@spider": "usps_collection_boxes", "addr:city": "HANCOCK", "addr:country": "US", "addr:postcode": "01237", "addr:state": "MA", "addr:street_address": "545 S MAIN ST LBBY", "amenity": "post_box", "brand": "United States Postal Service", "brand:wikidata": "Q668687", "collection_times": "Mo-Fr 17:00; Sa 12:00", "indoor": "yes", "note": "ON 12/24 AND 12/31, THIS BOX MAY BE COLLECTED AS EARLY AS 12 NOON.", "nsi_id": "unitedstatespostalservice-a77078", "operator": "United States Postal Service", "operator:short": "USPS", "operator:type": "public", "operator:wikidata": "Q668687", "ref": "0123700004"}, "type": "Feature"}
{"geometry": {"coordinates": [-73.29114667, 42.555968477], "type": "Point"}, "id": "-tWwG9XT_tp37xZpbNrkRMhot1Y=", "properties": {"@source_uri": "https://tools.usps.com/UspsToolsRestServices/rest/POLocator/findLocations", "@spider": "usps_collection_boxes", "addr:city": "HANCOCK", "addr:country": "US", "addr:postcode": "01237", "addr:state": "MA", "addr:street_address": "37 COREY RD", "amenity": "post_box", "brand": "United States Postal Service", "brand:wikidata": "Q668687", "collection_times": "Mo-Fr 16:00; Sa 11:30", "indoor": "yes", "note": "ON 12/24 AND 12/31, THIS BOX MAY BE COLLECTED AS EARLY AS 12 NOON.", "nsi_id": "unitedstatespostalservice-a77078", "operator": "United States Postal Service", "operator:short": "USPS", "operator:type": "public", "operator:wikidata": "Q668687", "ref": "0123700008"}, "type": "Feature"}
{"geometry": {"coordinates": [-73.237721009, 42.500765066], "type": "Point"}, "id": "1aQBcKxdIu6PBphqKYqygVbaIRA=", "properties": {"@source_uri": "https://tools.usps.com/UspsToolsRestServices/rest/POLocator/findLocations", "@spider": "usps_collection_boxes", "addr:city": "HANCOCK", "addr:country": "US", "addr:postcode": "01237", "addr:state": "MA", "addr:street_address": "545 S MAIN ST", "amenity": "post_box", "brand": "United States Postal Service", "brand:wikidata": "Q668687", "collection_times": "Mo-Fr 17:00; Sa 12:00", "indoor": "yes", "note": "ON 12/24 AND 12/31, THIS BOX MAY BE COLLECTED AS EARLY AS 12 NOON.", "nsi_id": "unitedstatespostalservice-a77078", "operator": "United States Postal Service", "operator:short": "USPS", "operator:type": "public", "operator:wikidata": "Q668687", "ref": "0123700010"}, "type": "Feature"}
{"geometry": {"coordinates": [-73.250373, 42.305459], "type": "Point"}, "id": "q2FOHMZruSCMo1gqamnLzZp7cjE=", "properties": {"@source_uri": "https://tools.usps.com/UspsToolsRestServices/rest/POLocator/findLocations", "@spider": "usps_collection_boxes", "addr:city": "LEE", "addr:country": "US", "addr:postcode": "01238", "addr:state": "MA", "addr:street_address": "35 FRANK P CONSOLATI WAY", "amenity": "post_box", "brand": "United States Postal Service", "brand:wikidata": "Q668687", "collection_times": "Mo-Fr 17:00; Sa 14:00", "note": "ON 12/24 AND 12/31, THIS BOX MAY BE COLLECTED AS EARLY AS 12 NOON.", "nsi_id": "unitedstatespostalservice-a77078", "operator": "United States Postal Service", "operator:short": "USPS", "operator:type": "public", "operator:wikidata": "Q668687", "ref": "0123800002"}, "type": "Feature"}
{"geometry": {"coordinates": [-73.2510767, 42.3087], "type": "Point"}, "id": "dCuL2PPTxgvy9_33KGUCfNB0MiA=", "properties": {"@source_uri": "https://tools.usps.com/UspsToolsRestServices/rest/POLocator/findLocations", "@spider": "usps_collection_boxes", "addr:city": "LEE", "addr:country": "US", "addr:postcode": "01238", "addr:state": "MA", "addr:street_address": "208 MAIN ST", "amenity": "post_box", "brand": "United States Postal Service", "brand:wikidata": "Q668687", "collection_times": "Mo-Sa 09:30", "nsi_id": "unitedstatespostalservice-a77078", "operator": "United States Postal Service", "operator:short": "USPS", "operator:type": "public", "operator:wikidata": "Q668687", "ref": "0123800004"}, "type": "Feature"}
{"geometry": {"coordinates": [-73.2495973, 42.305646], "type": "Point"}, "id": "kfkU8upGMoq-oqLEOPFhP_iHUD0=", "properties": {"@source_uri": "https://tools.usps.com/UspsToolsRestServices/rest/POLocator/findLocations", "@spider": "usps_collection_boxes", "addr:city": "LEE", "addr:country": "US", "addr:postcode": "01238", "addr:state": "MA", "addr:street_address": "59 MAIN ST", "amenity": "post_box", "brand": "United States Postal Service", "brand:wikidata": "Q668687", "collection_times": "Mo-Sa 09:30", "nsi_id": "unitedstatespostalservice-a77078", "operator": "United States Postal Service", "operator:short": "USPS", "operator:type": "public", "operator:wikidata": "Q668687", "ref": "0123800006"}, "type": "Feature"}
{"geometry": {"coordinates": [-73.2403004, 42.295342], "type": "Point"}, "id": "iPBejwvZlb4P1rCgYNuEUZ1i3h8=", "properties": {"@source_uri": "https://tools.usps.com/UspsToolsRestServices/rest/POLocator/findLocations", "@spider": "usps_collection_boxes", "addr:city": "LEE", "addr:country": "US", "addr:postcode": "01238", "addr:state": "MA", "addr:street_address": "10 PLEASANT ST", "amenity": "post_box", "brand": "United States Postal Service", "brand:wikidata": "Q668687", "collection_times": "Mo-Sa 10:00", "nsi_id": "unitedstatespostalservice-a77078", "operator": "United States Postal Service", "operator:short": "USPS", "operator:type": "public", "operator:wikidata": "Q668687", "ref": "0123800007"}, "type": "Feature"}
{"geometry": {"coordinates": [-73.2476477, 42.285756], "type": "Point"}, "id": "JuIgH4OwBodO5Q5kjhWNWWXOOgU=", "properties": {"@source_uri": "https://tools.usps.com/UspsToolsRestServices/rest/POLocator/findLocations", "@spider": "usps_collection_boxes", "addr:city": "LEE", "addr:country": "US", "addr:postcode": "01238", "addr:state": "MA", "addr:street_address": "480 PLEASANT ST", "amenity": "post_box", "brand": "United States Postal Service", "brand:wikidata": "Q668687", "collection_times": "Mo-Sa 10:00", "nsi_id": "unitedstatespostalservice-a77078", "operator": "United States Postal Service", "operator:short": "USPS", "operator:type": "public", "operator:wikidata": "Q668687", "ref": "0123800010"}, "type": "Feature"}
{"geometry": {"coordinates": [-73.250352, 42.305494], "type": "Point"}, "id": "7uvi_MogZBOeHxa1tztm5z0lFbE=", "properties": {"@source_uri": "https://tools.usps.com/UspsToolsRestServices/rest/POLocator/findLocations", "@spider": "usps_collection_boxes", "addr:city": "LEE", "addr:country": "US", "addr:postcode": "01238", "addr:state": "MA", "addr:street_address": "35 FRANK P CONSOLATI WAY", "amenity": "post_box", "brand": "United States Postal Service", "brand:wikidata": "Q668687", "collection_times": "Mo-Fr 17:00; Sa 15:00", "indoor": "yes", "note": "ON 12/24 AND 12/31, THIS BOX MAY BE COLLECTED AS EARLY AS 12 NOON.", "nsi_id": "unitedstatespostalservice-a77078", "operator": "United States Postal Service", "operator:short": "USPS", "operator:type": "public", "operator:wikidata": "Q668687", "ref": "0123800012"}, "type": "Feature"}
{"geometry": {"coordinates": [-73.2335933, 42.293783], "type": "Point"}, "id": "hl2GXdM0LTn2lIBZSpGymD2sRi4=", "properties": {"@source_uri": "https://tools.usps.com/UspsToolsRestServices/rest/POLocator/findLocations", "@spider": "usps_collection_boxes", "addr:city": "LEE", "addr:country": "US", "addr:postcode": "01238", "addr:state": "MA", "addr:street_address": "50 WATER ST", "amenity": "post_box", "brand": "United States Postal Service", "brand:wikidata": "Q668687", "collection_times": "Mo-Sa 10:00", "nsi_id": "unitedstatespostalservice-a77078", "operator": "United States Postal Service", "operator:short": "USPS", "operator:type": "public", "operator:wikidata": "Q668687", "ref": "0123800013"}, "type": "Feature"}
{"geometry": {"coordinates": [-73.2489883, 42.304996], "type": "Point"}, "id": "kJDYfbn8X6-Xz2AqpXto2Kcc3fk=", "properties": {"@source_uri": "https://tools.usps.com/UspsToolsRestServices/rest/POLocator/findLocations", "@spider": "usps_collection_boxes", "addr:city": "LEE", "addr:country": "US", "addr:postcode": "01238", "addr:state": "MA", "addr:street_address": "32 MAIN ST", "amenity": "post_box", "brand": "United States Postal Service", "brand:wikidata": "Q668687", "collection_times": "Mo-Sa 09:30", "nsi_id": "unitedstatespostalservice-a77078", "operator": "United States Postal Service", "operator:short": "USPS", "operator:type": "public", "operator:wikidata": "Q668687", "ref": "0123800015"}, "type": "Feature"}
{"geometry": {"coordinates": [-73.249436, 42.299737], "type": "Point"}, "id": "L3uZ-zCJGN6ktXkn7H1bEBLd88k=", "properties": {"@source_uri": "https://tools.usps.com/UspsToolsRestServices/rest/POLocator/findLocations", "@spider": "usps_collection_boxes", "addr:city": "LEE", "addr:country": "US", "addr:postcode": "01238", "addr:state": "MA", "addr:street_address": "155 MARBLE ST", "amenity": "post_box", "brand": "United States Postal Service", "brand:wikidata": "Q668687", "collection_times": "Mo-Sa 10:00", "nsi_id": "unitedstatespostalservice-a77078", "operator": "United States Postal Service", "operator:short": "USPS", "operator:type": "public", "operator:wikidata": "Q668687", "ref": "0123800016"}, "type": "Feature"}
{"geometry": {"coordinates": [-73.2043174809, 42.2459122456], "type": "Point"}, "id": "CH3rQR6WGEcJtzGW5tD17dive1Y=", "properties": {"@source_uri": "https://tools.usps.com/UspsToolsRestServices/rest/POLocator/findLocations", "@spider": "usps_collection_boxes", "addr:city": "LEE", "addr:country": "US", "addr:postcode": "01238", "addr:state": "MA", "addr:street_address": "118 MAIN RD", "amenity": "post_box", "brand": "United States Postal Service", "brand:wikidata": "Q668687", "collection_times": "Mo-Sa 09:00", "nsi_id": "unitedstatespostalservice-a77078", "operator": "United States Postal Service", "operator:short": "USPS", "operator:type": "public", "operator:wikidata": "Q668687", "ref": "0123800017"}, "type": "Feature"}
{"geometry": {"coordinates": [-73.250603839, 42.305388111], "type": "Point"}, "id": "StEPNmW5tz9p_XyRBp2sVokYF9Q=", "properties": {"@source_uri": "https://tools.usps.com/UspsToolsRestServices/rest/POLocator/findLocations", "@spider": "usps_collection_boxes", "addr:city": "LEE", "addr:country": "US", "addr:postcode": "01238", "addr:state": "MA", "addr:street_address": "35 FRANK P CONSOLATI WAY", "amenity": "post_box", "brand": "United States Postal Service", "brand:wikidata": "Q668687", "collection_times": "Mo-Fr 16:30; Sa 15:00", "indoor": "yes", "note": "ON 12/24 AND 12/31, THIS BOX MAY BE COLLECTED AS EARLY AS 12 NOON.", "nsi_id": "unitedstatespostalservice-a77078", "operator": "United States Postal Service", "operator:short": "USPS", "operator:type": "public", "operator:wikidata": "Q668687", "ref": "0123800018"}, "type": "Feature"}
{"geometry": {"coordinates": [-73.2835537909, 42.3589583032], "type": "Point"}, "id": "M8r1bxZvq_gxrHSIVHinTPp1EGo=", "properties": {"@source_uri": "https://tools.usps.com/UspsToolsRestServices/rest/POLocator/findLocations", "@spider": "usps_collection_boxes", "addr:city": "LENOX", "addr:country": "US", "addr:postcode": "01240", "addr:state": "MA", "addr:street_address": "68 MAIN ST", "amenity": "post_box", "brand": "United States Postal Service", "brand:wikidata": "Q668687", "collection_times": "Mo-Fr 17:00; Sa 12:00", "note": "ON 12/24 AND 12/31, THIS BOX MAY BE COLLECTED AS EARLY AS 12 NOON.", "nsi_id": "unitedstatespostalservice-a77078", "operator": "United States Postal Service", "operator:short": "USPS", "operator:type": "public", "operator:wikidata": "Q668687", "ref": "0124000004"}, "type": "Feature"}
{"geometry": {"coordinates": [-73.2843652, 42.358114], "type": "Point"}, "id": "wwsfWUphsnS1cFtDdMiWSTolPb0=", "properties": {"@source_uri": "https://tools.usps.com/UspsToolsRestServices/rest/POLocator/findLocations", "@spider": "usps_collection_boxes", "addr:city": "LENOX", "addr:country": "US", "addr:postcode": "01240", "addr:state": "MA", "addr:street_address": "42 MAIN ST", "amenity": "post_box", "brand": "United States Postal Service", "brand:wikidata": "Q668687", "collection_times": "Mo-Fr 10:00; Sa 09:00", "nsi_id": "unitedstatespostalservice-a77078", "operator": "United States Postal Service", "operator:short": "USPS", "operator:type": "public", "operator:wikidata": "Q668687", "ref": "0124000006"}, "type": "Feature"}
{"geometry": {"coordinates": [-73.2846166, 42.356695], "type": "Point"}, "id": "SEnyypWud8OGyV6JuHXk4RFU_4c=", "properties": {"@source_uri": "https://tools.usps.com/UspsToolsRestServices/rest/POLocator/findLocations", "@spider": "usps_collection_boxes", "addr:city": "LENOX", "addr:country": "US", "addr:postcode": "01240", "addr:state": "MA", "addr:street_address": "6 WALKER ST", "amenity": "post_box", "brand": "United States Postal Service", "brand:wikidata": "Q668687", "collection_times": "Mo-Fr 13:00; Sa 12:00", "note": "ON 12/24 AND 12/31, THIS BOX MAY BE COLLECTED AS EARLY AS 12 NOON.", "nsi_id": "unitedstatespostalservice-a77078", "operator": "United States Postal Service", "operator:short": "USPS", "operator:type": "public", "operator:wikidata": "Q668687", "ref": "0124000008"}, "type": "Feature"}
{"geometry": {"coordinates": [-73.2835537909, 42.3589583032], "type": "Point"}, "id": "MERbF6kHimtVnsW5ia4CEopBeSg=", "properties": {"@source_uri": "https://tools.usps.com/UspsToolsRestServices/rest/POLocator/findLocations", "@spider": "usps_collection_boxes", "addr:city": "LENOX", "addr:country": "US", "addr:postcode": "01240", "addr:state": "MA", "addr:street_address": "68 MAIN ST", "amenity": "post_box", "brand": "United States Postal Service", "brand:wikidata": "Q668687", "collection_times": "Mo-Fr 17:00; Sa 12:00", "name": "USPS COLLECTION BOX - EXPRESS", "note": "ON 12/24 AND 12/31, THIS BOX MAY BE COLLECTED AS EARLY AS 12 NOON.", "nsi_id": "unitedstatespostalservice-a77078", "operator": "United States Postal Service", "operator:short": "USPS", "operator:type": "public", "operator:wikidata": "Q668687", "ref": "0124000011"}, "type": "Feature"}
{"geometry": {"coordinates": [-73.2835537909, 42.3589583032], "type": "Point"}, "id": "yXu7Ko3rdEYM8j4nZlSpxVbfog4=", "properties": {"@source_uri": "https://tools.usps.com/UspsToolsRestServices/rest/POLocator/findLocations", "@spider": "usps_collection_boxes", "addr:city": "LENOX", "addr:country": "US", "addr:postcode": "01240", "addr:state": "MA", "addr:street_address": "68 MAIN ST LBBY DROP", "amenity": "post_box", "brand": "United States Postal Service", "brand:wikidata": "Q668687", "collection_times": "Mo-Fr 17:00; Sa 12:00", "indoor": "yes", "note": "ON 12/24 AND 12/31, THIS BOX MAY BE COLLECTED AS EARLY AS 12 NOON.", "nsi_id": "unitedstatespostalservice-a77078", "operator": "United States Postal Service", "operator:short": "USPS", "operator:type": "public", "operator:wikidata": "Q668687", "ref": "0124000012"}, "type": "Feature"}
{"geometry": {"coordinates": [-73.2835537909, 42.3589583032], "type": "Point"}, "id": "PqrERQZ4-tr5oqzGISaObp1atkg=", "properties": {"@source_uri": "https://tools.usps.com/UspsToolsRestServices/rest/POLocator/findLocations", "@spider": "usps_collection_boxes", "addr:city": "LENOX", "addr:country": "US", "addr:postcode": "01240", "addr:state": "MA", "addr:street_address": "68 MAIN ST STE A", "amenity": "post_box", "brand": "United States Postal Service", "brand:wikidata": "Q668687", "collection_times": "Mo-Fr 16:30; Sa 11:30", "indoor": "yes", "note": "ON 12/24 AND 12/31, THIS BOX MAY BE COLLECTED AS EARLY AS 12 NOON.", "nsi_id": "unitedstatespostalservice-a77078", "operator": "United States Postal Service", "operator:short": "USPS", "operator:type": "public", "operator:wikidata": "Q668687", "ref": "0124000015"}, "type": "Feature"}
{"geometry": {"coordinates": [-73.248615, 42.334124501], "type": "Point"}, "id": "p8xcUXaaEXAx5BX4IQAfNPDgls0=", "properties": {"@source_uri": "https://tools.usps.com/UspsToolsRestServices/rest/POLocator/findLocations", "@spider": "usps_collection_boxes", "addr:city": "LENOX DALE", "addr:country": "US", "addr:postcode": "01242", "addr:state": "MA", "addr:street_address": "42 CRYSTAL ST", "amenity": "post_box", "brand": "United States Postal Service", "brand:wikidata": "Q668687", "collection_times": "Mo-Fr 17:00; Sa 12:00", "note": "ON 12/24 AND 12/31, THIS BOX MAY BE COLLECTED AS EARLY AS 12 NOON.", "nsi_id": "unitedstatespostalservice-a77078", "operator": "United States Postal Service", "operator:short": "USPS", "operator:type": "public", "operator:wikidata": "Q668687", "ref": "0124200000"}, "type": "Feature"}
{"geometry": {"coordinates": [-73.244955, 42.336917], "type": "Point"}, "id": "De49QXmHL1obeKNzS_sWsd_0REo=", "properties": {"@source_uri": "https://tools.usps.com/UspsToolsRestServices/rest/POLocator/findLocations", "@spider": "usps_collection_boxes", "addr:city": "LENOX DALE", "addr:country": "US", "addr:postcode": "01242", "addr:state": "MA", "addr:street_address": "42 CRYSTAL ST", "amenity": "post_box", "brand": "United States Postal Service", "brand:wikidata": "Q668687", "collection_times": "Mo-Fr 17:00; Sa 11:30", "indoor": "yes", "note": "ON 12/24 AND 12/31, THIS BOX MAY BE COLLECTED AS EARLY AS 12 NOON.", "nsi_id": "unitedstatespostalservice-a77078", "operator": "United States Postal Service", "operator:short": "USPS", "operator:type": "public", "operator:wikidata": "Q668687", "ref": "0124200001"}, "type": "Feature"}
{"geometry": {"coordinates": [-73.244895546, 42.335754066], "type": "Point"}, "id": "gT3Ak9hemILK7ad1Z_5h9Dt4UAM=", "properties": {"@source_uri": "https://tools.usps.com/UspsToolsRestServices/rest/POLocator/findLocations", "@spider": "usps_collection_boxes", "addr:city": "LENOX DALE", "addr:country": "US", "addr:postcode": "01242", "addr:state": "MA", "addr:street_address": "42 CRYSTAL ST", "amenity": "post_box", "brand": "United States Postal Service", "brand:wikidata": "Q668687", "collection_times": "Mo-Fr 16:30; Sa 11:30", "indoor": "yes", "note": "ON 12/24 AND 12/31, THIS BOX MAY BE COLLECTED AS EARLY AS 12 NOON.", "nsi_id": "unitedstatespostalservice-a77078", "operator": "United States Postal Service", "operator:short": "USPS", "operator:type": "public", "operator:wikidata": "Q668687", "ref": "0124200002"}, "type": "Feature"}
{"geometry": {"coordinates": [-73.014708689, 42.3486970097], "type": "Point"}, "id": "epSWFCxZqNOBshoEjocn8SpU_Fk=", "properties": {"@source_uri": "https://tools.usps.com/UspsToolsRestServices/rest/POLocator/findLocations", "@spider": "usps_collection_boxes", "addr:city": "MIDDLEFIELD", "addr:country": "US", "addr:postcode": "01243", "addr:state": "MA", "addr:street_address": "168 SKYLINE TRL", "amenity": "post_box", "brand": "United States Postal Service", "brand:wikidata": "Q668687", "collection_times": "Mo-Fr 16:00; Sa 11:00", "note": "ON 12/24 AND 12/31, THIS BOX MAY BE COLLECTED AS EARLY AS 12 NOON.", "nsi_id": "unitedstatespostalservice-a77078", "operator": "United States Postal Service", "operator:short": "USPS", "operator:type": "public", "operator:wikidata": "Q668687", "ref": "0124300000"}, "type": "Feature"}
{"geometry": {"coordinates": [-73.014708689, 42.3486970097], "type": "Point"}, "id": "fSyuT0E0HuZNVYNJxn6v2wAVNz0=", "properties": {"@source_uri": "https://tools.usps.com/UspsToolsRestServices/rest/POLocator/findLocations", "@spider": "usps_collection_boxes", "addr:city": "MIDDLEFIELD", "addr:country": "US", "addr:postcode": "01243", "addr:state": "MA", "addr:street_address": "168 SKYLINE TRL LBBY", "amenity": "post_box", "brand": "United States Postal Service", "brand:wikidata": "Q668687", "collection_times": "Mo-Fr 16:00; Sa 11:00", "indoor": "yes", "note": "ON 12/24 AND 12/31, THIS BOX MAY BE COLLECTED AS EARLY AS 12 NOON.", "nsi_id": "unitedstatespostalservice-a77078", "operator": "United States Postal Service", "operator:short": "USPS", "operator:type": "public", "operator:wikidata": "Q668687", "ref": "0124300001"}, "type": "Feature"}
{"geometry": {"coordinates": [-73.0137512242, 42.3489996802], "type": "Point"}, "id": "5gh7Ys93wEvvCLZqmu-h5vWyFhQ=", "properties": {"@source_uri": "https://tools.usps.com/UspsToolsRestServices/rest/POLocator/findLocations", "@spider": "usps_collection_boxes", "addr:city": "MIDDLEFIELD", "addr:country": "US", "addr:postcode": "01243", "addr:state": "MA", "addr:street_address": "6 BELL RD", "amenity": "post_box", "brand": "United States Postal Service", "brand:wikidata": "Q668687", "collection_times": "Mo-Fr 16:15; Sa 11:00", "indoor": "yes", "note": "ON 12/24 AND 12/31, THIS BOX MAY BE COLLECTED AS EARLY AS 12 NOON.", "nsi_id": "unitedstatespostalservice-a77078", "operator": "United States Postal Service", "operator:short": "USPS", "operator:type": "public", "operator:wikidata": "Q668687", "ref": "0124300002"}, "type": "Feature"}
{"geometry": {"coordinates": [-73.2130868794, 42.1793238503], "type": "Point"}, "id": "Qobl9ubAf8D_OcjPPEiNvbaWLws=", "properties": {"@source_uri": "https://tools.usps.com/UspsToolsRestServices/rest/POLocator/findLocations", "@spider": "usps_collection_boxes", "addr:city": "MONTEREY", "addr:country": "US", "addr:postcode": "01245", "addr:state": "MA", "addr:street_address": "444 MAIN RD", "amenity": "post_box", "brand": "United States Postal Service", "brand:wikidata": "Q668687", "collection_times": "Mo-Fr 16:00; Sa 11:15", "note": "ON 12/24 AND 12/31, THIS BOX MAY BE COLLECTED AS EARLY AS 12 NOON.", "nsi_id": "unitedstatespostalservice-a77078", "operator": "United States Postal Service", "operator:short": "USPS", "operator:type": "public", "operator:wikidata": "Q668687", "ref": "0124500000"}, "type": "Feature"}
{"geometry": {"coordinates": [-73.2130868794, 42.1793238503], "type": "Point"}, "id": "Z-F-ZKnT9BPM2biFoUMSL6sc61E=", "properties": {"@source_uri": "https://tools.usps.com/UspsToolsRestServices/rest/POLocator/findLocations", "@spider": "usps_collection_boxes", "addr:city": "MONTEREY", "addr:country": "US", "addr:postcode": "01245", "addr:state": "MA", "addr:street_address": "444 MAIN RD", "amenity": "post_box", "brand": "United States Postal Service", "brand:wikidata": "Q668687", "collection_times": "Mo-Fr 16:15; Sa 11:30", "indoor": "yes", "note": "ON 12/24 AND 12/31, THIS BOX MAY BE COLLECTED AS EARLY AS 12 NOON.", "nsi_id": "unitedstatespostalservice-a77078", "operator": "United States Postal Service", "operator:short": "USPS", "operator:type": "public", "operator:wikidata": "Q668687", "ref": "0124500001"}, "type": "Feature"}
{"geometry": {"coordinates": [-73.2130868794, 42.1793238503], "type": "Point"}, "id": "yrzHsioLcf3XzBt8JK27GLuIoMc=", "properties": {"@source_uri": "https://tools.usps.com/UspsToolsRestServices/rest/POLocator/findLocations", "@spider": "usps_collection_boxes", "addr:city": "MONTEREY", "addr:country": "US", "addr:postcode": "01245", "addr:state": "MA", "addr:street_address": "444 MAIN RD", "amenity": "post_box", "brand": "United States Postal Service", "brand:wikidata": "Q668687", "collection_times": "Mo-Fr 16:15; Sa 11:30", "indoor": "yes", "note": "ON 12/24 AND 12/31, THIS BOX MAY BE COLLECTED AS EARLY AS 12 NOON.", "nsi_id": "unitedstatespostalservice-a77078", "operator": "United States Postal Service", "operator:short": "USPS", "operator:type": "public", "operator:wikidata": "Q668687", "ref": "0124500002"}, "type": "Feature"}
{"geometry": {"coordinates": [-73.2130868794, 42.1793238503], "type": "Point"}, "id": "XkTkpfW-SuV-Em9dK4JsnTeYhps=", "properties": {"@source_uri": "https://tools.usps.com/UspsToolsRestServices/rest/POLocator/findLocations", "@spider": "usps_collection_boxes", "addr:city": "MONTEREY", "addr:country": "US", "addr:postcode": "01245", "addr:state": "MA", "addr:street_address": "444 MAIN RD", "amenity": "post_box", "brand": "United States Postal Service", "brand:wikidata": "Q668687", "collection_times": "Mo-Fr 16:00; Sa 11:00", "indoor": "yes", "note": "ON 12/24 AND 12/31, THIS BOX MAY BE COLLECTED AS EARLY AS 12 NOON.", "nsi_id": "unitedstatespostalservice-a77078", "operator": "United States Postal Service", "operator:short": "USPS", "operator:type": "public", "operator:wikidata": "Q668687", "ref": "0124500003"}, "type": "Feature"}
{"geometry": {"coordinates": [-73.1111279, 42.697852], "type": "Point"}, "id": "N-RdN4s_j0nUsOr6Ap9OpHaZIxI=", "properties": {"@source_uri": "https://tools.usps.com/UspsToolsRestServices/rest/POLocator/findLocations", "@spider": "usps_collection_boxes", "addr:city": "NORTH ADAMS", "addr:country": "US", "addr:postcode": "01247", "addr:state": "MA", "addr:street_address": "67 SUMMER ST", "amenity": "post_box", "brand": "United States Postal Service", "brand:wikidata": "Q668687", "collection_times": "Mo-Fr 17:00; Sa 13:00", "note": "ON 12/24 AND 12/31, THIS BOX MAY BE COLLECTED AS EARLY AS 12 NOON.", "nsi_id": "unitedstatespostalservice-a77078", "operator": "United States Postal Service", "operator:short": "USPS", "operator:type": "public", "operator:wikidata": "Q668687", "ref": "0124700001"}, "type": "Feature"}
{"geometry": {"coordinates": [-73.1120744, 42.69916], "type": "Point"}, "id": "OZN-jP5uWM0uKHYCe54ggY2ldAc=", "properties": {"@source_uri": "https://tools.usps.com/UspsToolsRestServices/rest/POLocator/findLocations", "@spider": "usps_collection_boxes", "addr:city": "NORTH ADAMS", "addr:country": "US", "addr:postcode": "01247", "addr:state": "MA", "addr:street_address": "67 MAIN ST", "amenity": "post_box", "brand": "United States Postal Service", "brand:wikidata": "Q668687", "collection_times": "Mo-Sa 10:00", "nsi_id": "unitedstatespostalservice-a77078", "operator": "United States Postal Service", "operator:short": "USPS", "operator:type": "public", "operator:wikidata": "Q668687", "ref": "0124700002"}, "type": "Feature"}
{"geometry": {"coordinates": [-73.107154199, 42.700382656], "type": "Point"}, "id": "otZyBBUWmNJ6rN5ee9uf2oUKde0=", "properties": {"@source_uri": "https://tools.usps.com/UspsToolsRestServices/rest/POLocator/findLocations", "@spider": "usps_collection_boxes", "addr:city": "NORTH ADAMS", "addr:country": "US", "addr:postcode": "01247", "addr:state": "MA", "addr:street_address": "26 UNION ST", "amenity": "post_box", "brand": "United States Postal Service", "brand:wikidata": "Q668687", "collection_times": "Mo-Sa 09:30", "nsi_id": "unitedstatespostalservice-a77078", "operator": "United States Postal Service", "operator:short": "USPS", "operator:type": "public", "operator:wikidata": "Q668687", "ref": "0124700004"}, "type": "Feature"}
{"geometry": {"coordinates": [-73.1108599, 42.69895], "type": "Point"}, "id": "m0RNOLfvieJY0SM2hRJrPWTcTbU=", "properties": {"@source_uri": "https://tools.usps.com/UspsToolsRestServices/rest/POLocator/findLocations", "@spider": "usps_collection_boxes", "addr:city": "NORTH ADAMS", "addr:country": "US", "addr:postcode": "01247", "addr:state": "MA", "addr:street_address": "103 MAIN ST", "amenity": "post_box", "brand": "United States Postal Service", "brand:wikidata": "Q668687", "collection_times": "Mo-Sa 10:00", "nsi_id": "unitedstatespostalservice-a77078", "operator": "United States Postal Service", "operator:short": "USPS", "operator:type": "public", "operator:wikidata": "Q668687", "ref": "0124700006"}, "type": "Feature"}
{"geometry": {"coordinates": [-73.1128988, 42.699278], "type": "Point"}, "id": "PuuUIqTlw-_2-govIVgbGnd3nhE=", "properties": {"@source_uri": "https://tools.usps.com/UspsToolsRestServices/rest/POLocator/findLocations", "@spider": "usps_collection_boxes", "addr:city": "NORTH ADAMS", "addr:country": "US", "addr:postcode": "01247", "addr:state": "MA", "addr:street_address": "37 MAIN ST", "amenity": "post_box", "brand": "United States Postal Service", "brand:wikidata": "Q668687", "collection_times": "Mo-Sa 10:00", "nsi_id": "unitedstatespostalservice-a77078", "operator": "United States Postal Service", "operator:short": "USPS", "operator:type": "public", "operator:wikidata": "Q668687", "ref": "0124700018"}, "type": "Feature"}
{"geometry": {"coordinates": [-73.1135652, 42.701747], "type": "Point"}, "id": "p0XC43lk3b9EK7Oy0LjFoQ5DXoQ=", "properties": {"@source_uri": "https://tools.usps.com/UspsToolsRestServices/rest/POLocator/findLocations", "@spider": "usps_collection_boxes", "addr:city": "NORTH ADAMS", "addr:country": "US", "addr:postcode": "01247", "addr:state": "MA", "addr:street_address": "76 MARSHALL ST", "amenity": "post_box", "brand": "United States Postal Service", "brand:wikidata": "Q668687", "collection_times": "Mo-Sa 09:00", "nsi_id": "unitedstatespostalservice-a77078", "operator": "United States Postal Service", "operator:short": "USPS", "operator:type": "public", "operator:wikidata": "Q668687", "ref": "0124700025"}, "type": "Feature"}
{"geometry": {"coordinates": [-73.1106687, 42.700872], "type": "Point"}, "id": "2vF5cZa0yApGZ0bl36dhJhQ3gRE=", "properties": {"@source_uri": "https://tools.usps.com/UspsToolsRestServices/rest/POLocator/findLocations", "@spider": "usps_collection_boxes", "addr:city": "NORTH ADAMS", "addr:country": "US", "addr:postcode": "01247", "addr:state": "MA", "addr:street_address": "45 VETERANS MEMORIAL DR", "amenity": "post_box", "brand": "United States Postal Service", "brand:wikidata": "Q668687", "collection_times": "Mo-Sa 09:00", "nsi_id": "unitedstatespostalservice-a77078", "operator": "United States Postal Service", "operator:short": "USPS", "operator:type": "public", "operator:wikidata": "Q668687", "ref": "0124700026"}, "type": "Feature"}
{"geometry": {"coordinates": [-73.1104644, 42.707269], "type": "Point"}, "id": "gKdewc2PbSz4_JquD4vlpaRQPYI=", "properties": {"@source_uri": "https://tools.usps.com/UspsToolsRestServices/rest/POLocator/findLocations", "@spider": "usps_collection_boxes", "addr:city": "NORTH ADAMS", "addr:country": "US", "addr:postcode": "01247", "addr:state": "MA", "addr:street_address": "77 HOSPITAL AVE", "amenity": "post_box", "brand": "United States Postal Service", "brand:wikidata": "Q668687", "collection_times": "Mo-Sa 10:00", "nsi_id": "unitedstatespostalservice-a77078", "operator": "United States Postal Service", "operator:short": "USPS", "operator:type": "public", "operator:wikidata": "Q668687", "ref": "0124700031"}, "type": "Feature"}
{"geometry": {"coordinates": [-73.1383425, 42.699213], "type": "Point"}, "id": "n8c6P3xkmeJmiUVoixuqoRUhs3o=", "properties": {"@source_uri": "https://tools.usps.com/UspsToolsRestServices/rest/POLocator/findLocations", "@spider": "usps_collection_boxes", "addr:city": "NORTH ADAMS", "addr:country": "US", "addr:postcode": "01247", "addr:state": "MA", "addr:street_address": "60 ROBERTS DR.", "amenity": "post_box", "brand": "United States Postal Service", "brand:wikidata": "Q668687", "collection_times": "Mo-Sa 10:00", "nsi_id": "unitedstatespostalservice-a77078", "operator": "United States Postal Service", "operator:short": "USPS", "operator:type": "public", "operator:wikidata": "Q668687", "ref": "0124700040"}, "type": "Feature"}
{"geometry": {"coordinates": [-73.1004888, 42.706659], "type": "Point"}, "id": "KcZQcjqRqfzvS1ypFQtbTNa7z7Q=", "properties": {"@source_uri": "https://tools.usps.com/UspsToolsRestServices/rest/POLocator/findLocations", "@spider": "usps_collection_boxes", "addr:city": "NORTH ADAMS", "addr:country": "US", "addr:postcode": "01247", "addr:state": "MA", "addr:street_address": "175 FRANKLIN ST", "amenity": "post_box", "brand": "United States Postal Service", "brand:wikidata": "Q668687", "collection_times": "Mo-Sa 10:00", "nsi_id": "unitedstatespostalservice-a77078", "operator": "United States Postal Service", "operator:short": "USPS", "operator:type": "public", "operator:wikidata": "Q668687", "ref": "0124700042"}, "type": "Feature"}
{"geometry": {"coordinates": [-73.1069361, 42.6919], "type": "Point"}, "id": "ejFIru5rG0Iw568V3CUsrvfuj8E=", "properties": {"@source_uri": "https://tools.usps.com/UspsToolsRestServices/rest/POLocator/findLocations", "@spider": "usps_collection_boxes", "addr:city": "NORTH ADAMS", "addr:country": "US", "addr:postcode": "01247", "addr:state": "MA", "addr:street_address": "277 ASHLAND ST", "amenity": "post_box", "brand": "United States Postal Service", "brand:wikidata": "Q668687", "collection_times": "Mo-Sa 10:00", "nsi_id": "unitedstatespostalservice-a77078", "operator": "United States Postal Service", "operator:short": "USPS", "operator:type": "public", "operator:wikidata": "Q668687", "ref": "0124700043"}, "type": "Feature"}
{"geometry": {"coordinates": [-73.1653251, 42.699475], "type": "Point"}, "id": "hLMw5pqtB228q7m3zsibA5jPwQQ=", "properties": {"@source_uri": "https://tools.usps.com/UspsToolsRestServices/rest/POLocator/findLocations", "@spider": "usps_collection_boxes", "addr:city": "NORTH ADAMS", "addr:country": "US", "addr:postcode": "01247", "addr:state": "MA", "addr:street_address": "876 STATE RD", "amenity": "post_box", "brand": "United States Postal Service", "brand:wikidata": "Q668687", "collection_times": "Mo-Sa 10:00", "nsi_id": "unitedstatespostalservice-a77078", "operator": "United States Postal Service", "operator:short": "USPS", "operator:type": "public", "operator:wikidata": "Q668687", "ref": "0124700044"}, "type": "Feature"}
{"geometry": {"coordinates": [-73.1107431, 42.698175], "type": "Point"}, "id": "jd7yI519U4H2uYqjx3M73Hj00Io=", "properties": {"@source_uri": "https://tools.usps.com/UspsToolsRestServices/rest/POLocator/findLocations", "@spider": "usps_collection_boxes", "addr:city": "NORTH ADAMS", "addr:country": "US", "addr:postcode": "01247", "addr:state": "MA", "addr:street_address": "67 SUMMER ST", "amenity": "post_box", "brand": "United States Postal Service", "brand:wikidata": "Q668687", "collection_times": "Mo-Fr 17:00; Sa 13:00", "indoor": "yes", "note": "ON 12/24 AND 12/31, THIS BOX MAY BE COLLECTED AS EARLY AS 12 NOON.", "nsi_id": "unitedstatespostalservice-a77078", "operator": "United States Postal Service", "operator:short": "USPS", "operator:type": "public", "operator:wikidata": "Q668687", "ref": "0124700047"}, "type": "Feature"}
{"geometry": {"coordinates": [-73.1107599, 42.69817], "type": "Point"}, "id": "ib9EKwAvZNo0S0kTJjSvz0QX0n0=", "properties": {"@source_uri": "https://tools.usps.com/UspsToolsRestServices/rest/POLocator/findLocations", "@spider": "usps_collection_boxes", "addr:city": "NORTH ADAMS", "addr:country": "US", "addr:postcode": "01247", "addr:state": "MA", "addr:street_address": "67 SUMMER ST", "amenity": "post_box", "brand": "United States Postal Service", "brand:wikidata": "Q668687", "collection_times": "Mo-Fr 17:00; Sa 13:00", "indoor": "yes", "note": "ON 12/24 AND 12/31, THIS BOX MAY BE COLLECTED AS EARLY AS 12 NOON.", "nsi_id": "unitedstatespostalservice-a77078", "operator": "United States Postal Service", "operator:short": "USPS", "operator:type": "public", "operator:wikidata": "Q668687", "ref": "0124700050"}, "type": "Feature"}
{"geometry": {"coordinates": [-73.1112184, 42.699514], "type": "Point"}, "id": "eQa3UnaQTweK_Lsv2jIQ1KTtyrU=", "properties": {"@source_uri": "https://tools.usps.com/UspsToolsRestServices/rest/POLocator/findLocations", "@spider": "usps_collection_boxes", "addr:city": "NORTH ADAMS", "addr:country": "US", "addr:postcode": "01247", "addr:state": "MA", "addr:street_address": "85 MAIN ST", "amenity": "post_box", "brand": "United States Postal Service", "brand:wikidata": "Q668687", "collection_times": "Mo-Sa 10:00", "nsi_id": "unitedstatespostalservice-a77078", "operator": "United States Postal Service", "operator:short": "USPS", "operator:type": "public", "operator:wikidata": "Q668687", "ref": "0124700051"}, "type": "Feature"}
{"geometry": {"coordinates": [-73.110843883, 42.69798459], "type": "Point"}, "id": "kLes_cnush7W4jPc009dltPqsxs=", "properties": {"@source_uri": "https://tools.usps.com/UspsToolsRestServices/rest/POLocator/findLocations", "@spider": "usps_collection_boxes", "addr:city": "NORTH ADAMS", "addr:country": "US", "addr:postcode": "01247", "addr:state": "MA", "addr:street_address": "67 SUMMER ST", "amenity": "post_box", "brand": "United States Postal Service", "brand:wikidata": "Q668687", "collection_times": "Mo-Fr 17:00; Sa 16:30", "indoor": "yes", "note": "ON 12/24 AND 12/31, THIS BOX MAY BE COLLECTED AS EARLY AS 12 NOON.", "nsi_id": "unitedstatespostalservice-a77078", "operator": "United States Postal Service", "operator:short": "USPS", "operator:type": "public", "operator:wikidata": "Q668687", "ref": "0124700053"}, "type": "Feature"}
{"geometry": {"coordinates": [-73.092634, 42.194363], "type": "Point"}, "id": "PgCwSe79yKOLV1c6mXEmTh8Ai1A=", "properties": {"@source_uri": "https://tools.usps.com/UspsToolsRestServices/rest/POLocator/findLocations", "@spider": "usps_collection_boxes", "addr:city": "OTIS", "addr:country": "US", "addr:postcode": "01253", "addr:state": "MA", "addr:street_address": "45 N MAIN RD", "amenity": "post_box", "brand": "United States Postal Service", "brand:wikidata": "Q668687", "collection_times": "Mo-Fr 15:45; Sa 11:45", "note": "ON 12/24 AND 12/31, THIS BOX MAY BE COLLECTED AS EARLY AS 12 NOON.", "nsi_id": "unitedstatespostalservice-a77078", "operator": "United States Postal Service", "operator:short": "USPS", "operator:type": "public", "operator:wikidata": "Q668687", "ref": "0125300000"}, "type": "Feature"}
{"geometry": {"coordinates": [-73.092634, 42.194363], "type": "Point"}, "id": "na5VNubXeLWl2Ez_ye7gO-H_Xfs=", "properties": {"@source_uri": "https://tools.usps.com/UspsToolsRestServices/rest/POLocator/findLocations", "@spider": "usps_collection_boxes", "addr:city": "OTIS", "addr:country": "US", "addr:postcode": "01253", "addr:state": "MA", "addr:street_address": "45 N MAIN RD LBBY DROP", "amenity": "post_box", "brand": "United States Postal Service", "brand:wikidata": "Q668687", "collection_times": "Mo-Fr 16:15; Sa 12:00", "indoor": "yes", "note": "ON 12/24 AND 12/31, THIS BOX MAY BE COLLECTED AS EARLY AS 12 NOON.", "nsi_id": "unitedstatespostalservice-a77078", "operator": "United States Postal Service", "operator:short": "USPS", "operator:type": "public", "operator:wikidata": "Q668687", "ref": "0125300001"}, "type": "Feature"}
{"geometry": {"coordinates": [-73.092650213, 42.194370333], "type": "Point"}, "id": "YwhfWLhHg1rS90y4wv9DeDPuV1I=", "properties": {"@source_uri": "https://tools.usps.com/UspsToolsRestServices/rest/POLocator/findLocations", "@spider": "usps_collection_boxes", "addr:city": "OTIS", "addr:country": "US", "addr:postcode": "01253", "addr:state": "MA", "addr:street_address": "45 N MAIN RD", "amenity": "post_box", "brand": "United States Postal Service", "brand:wikidata": "Q668687", "collection_times": "Mo-Fr 15:45; Sa 11:30", "indoor": "yes", "note": "ON 12/24 AND 12/31, THIS BOX MAY BE COLLECTED AS EARLY AS 12 NOON.", "nsi_id": "unitedstatespostalservice-a77078", "operator": "United States Postal Service", "operator:short": "USPS", "operator:type": "public", "operator:wikidata": "Q668687", "ref": "0125300002"}, "type": "Feature"}
{"geometry": {"coordinates": [-73.367799, 42.374744], "type": "Point"}, "id": "5M3kAG2A4H2AM2in7HEAjB6x2Mg=", "properties": {"@source_uri": "https://tools.usps.com/UspsToolsRestServices/rest/POLocator/findLocations", "@spider": "usps_collection_boxes", "addr:city": "RICHMOND", "addr:country": "US", "addr:postcode": "01254", "addr:state": "MA", "addr:street_address": "2089 STATE RD", "amenity": "post_box", "brand": "United States Postal Service", "brand:wikidata": "Q668687", "collection_times": "Mo-Fr 16:45; Sa 12:00", "indoor": "yes", "note": "ON 12/24 AND 12/31, THIS BOX MAY BE COLLECTED AS EARLY AS 12 NOON.", "nsi_id": "unitedstatespostalservice-a77078", "operator": "United States Postal Service", "operator:short": "USPS", "operator:type": "public", "operator:wikidata": "Q668687", "ref": "0125400001"}, "type": "Feature"}
{"geometry": {"coordinates": [-73.367833, 42.374825], "type": "Point"}, "id": "CVxpOzGxCf330QIPIuacwBi4JGA=", "properties": {"@source_uri": "https://tools.usps.com/UspsToolsRestServices/rest/POLocator/findLocations", "@spider": "usps_collection_boxes", "addr:city": "RICHMOND", "addr:country": "US", "addr:postcode": "01254", "addr:state": "MA", "addr:street_address": "2089 STATE RD", "amenity": "post_box", "brand": "United States Postal Service", "brand:wikidata": "Q668687", "collection_times": "Mo-Fr 16:45; Sa 12:00", "note": "ON 12/24 AND 12/31, THIS BOX MAY BE COLLECTED AS EARLY AS 12 NOON.", "nsi_id": "unitedstatespostalservice-a77078", "operator": "United States Postal Service", "operator:short": "USPS", "operator:type": "public", "operator:wikidata": "Q668687", "ref": "0125400002"}, "type": "Feature"}
{"geometry": {"coordinates": [-73.367795315, 42.374754052], "type": "Point"}, "id": "vSobBUnp0ofOJ0ZppHdw-yE5p9Q=", "properties": {"@source_uri": "https://tools.usps.com/UspsToolsRestServices/rest/POLocator/findLocations", "@spider": "usps_collection_boxes", "addr:city": "RICHMOND", "addr:country": "US", "addr:postcode": "01254", "addr:state": "MA", "addr:street_address": "2089 STATE RD", "amenity": "post_box", "brand": "United States Postal Service", "brand:wikidata": "Q668687", "collection_times": "Mo-Fr 16:30; Sa 12:00", "indoor": "yes", "note": "ON 12/24 AND 12/31, THIS BOX MAY BE COLLECTED AS EARLY AS 12 NOON.", "nsi_id": "unitedstatespostalservice-a77078", "operator": "United States Postal Service", "operator:short": "USPS", "operator:type": "public", "operator:wikidata": "Q668687", "ref": "0125400003"}, "type": "Feature"}
{"geometry": {"coordinates": [-73.105418, 42.106063], "type": "Point"}, "id": "7HLT56lRNkdrtmXBNdo0xBzBnS8=", "properties": {"@source_uri": "https://tools.usps.com/UspsToolsRestServices/rest/POLocator/findLocations", "@spider": "usps_collection_boxes", "addr:city": "SANDISFIELD", "addr:country": "US", "addr:postcode": "01255", "addr:state": "MA", "addr:street_address": "83 SANDISFIELD RD", "amenity": "post_box", "brand": "United States Postal Service", "brand:wikidata": "Q668687", "collection_times": "Mo-Fr 15:45; Sa 11:00", "note": "ON 12/24 AND 12/31, THIS BOX MAY BE COLLECTED AS EARLY AS 12 NOON.", "nsi_id": "unitedstatespostalservice-a77078", "operator": "United States Postal Service", "operator:short": "USPS", "operator:type": "public", "operator:wikidata": "Q668687", "ref": "0125500000"}, "type": "Feature"}
{"geometry": {"coordinates": [-73.105418, 42.106063], "type": "Point"}, "id": "9tawpRYC0SsbpYvyK3RnrjWyiMg=", "properties": {"@source_uri": "https://tools.usps.com/UspsToolsRestServices/rest/POLocator/findLocations", "@spider": "usps_collection_boxes", "addr:city": "SANDISFIELD", "addr:country": "US", "addr:postcode": "01255", "addr:state": "MA", "addr:street_address": "83 SANDISFIELD RD LBBY", "amenity": "post_box", "brand": "United States Postal Service", "brand:wikidata": "Q668687", "collection_times": "Mo-Fr 15:45; Sa 11:30", "indoor": "yes", "note": "ON 12/24 AND 12/31, THIS BOX MAY BE COLLECTED AS EARLY AS 12 NOON.", "nsi_id": "unitedstatespostalservice-a77078", "operator": "United States Postal Service", "operator:short": "USPS", "operator:type": "public", "operator:wikidata": "Q668687", "ref": "0125500001"}, "type": "Feature"}
{"geometry": {"coordinates": [-73.104785104, 42.105260264], "type": "Point"}, "id": "8ZWMSpAkTQTxfLDll7aPFtp3Nr8=", "properties": {"@source_uri": "https://tools.usps.com/UspsToolsRestServices/rest/POLocator/findLocations", "@spider": "usps_collection_boxes", "addr:city": "SANDISFIELD", "addr:country": "US", "addr:postcode": "01255", "addr:state": "MA", "addr:street_address": "83 SANDISFIELD RD", "amenity": "post_box", "brand": "United States Postal Service", "brand:wikidata": "Q668687", "collection_times": "Mo-Fr 15:30; Sa 11:00", "indoor": "yes", "note": "ON 12/24 AND 12/31, THIS BOX MAY BE COLLECTED AS EARLY AS 12 NOON.", "nsi_id": "unitedstatespostalservice-a77078", "operator": "United States Postal Service", "operator:short": "USPS", "operator:type": "public", "operator:wikidata": "Q668687", "ref": "0125500002"}, "type": "Feature"}
{"geometry": {"coordinates": [-73.353888, 42.109574], "type": "Point"}, "id": "LSbsvwwuuVHGfiLE9HVy1XmVLlE=", "properties": {"@source_uri": "https://tools.usps.com/UspsToolsRestServices/rest/POLocator/findLocations", "@spider": "usps_collection_boxes", "addr:city": "SHEFFIELD", "addr:country": "US", "addr:postcode": "01257", "addr:state": "MA", "addr:street_address": "99 MAIN ST", "amenity": "post_box", "brand": "United States Postal Service", "brand:wikidata": "Q668687", "collection_times": "Mo-Fr 16:15; Sa 12:00", "note": "ON 12/24 AND 12/31, THIS BOX MAY BE COLLECTED AS EARLY AS 12 NOON.", "nsi_id": "unitedstatespostalservice-a77078", "operator": "United States Postal Service", "operator:short": "USPS", "operator:type": "public", "operator:wikidata": "Q668687", "ref": "0125700002"}, "type": "Feature"}
{"geometry": {"coordinates": [-73.353801, 42.109642], "type": "Point"}, "id": "RV2kFbE2gnKMtWRgIfokt3wCFyo=", "properties": {"@source_uri": "https://tools.usps.com/UspsToolsRestServices/rest/POLocator/findLocations", "@spider": "usps_collection_boxes", "addr:city": "SHEFFIELD", "addr:country": "US", "addr:postcode": "01257", "addr:state": "MA", "addr:street_address": "99 MAIN ST", "amenity": "post_box", "brand": "United States Postal Service", "brand:wikidata": "Q668687", "collection_times": "Mo-Fr 16:15; Sa 12:00", "indoor": "yes", "note": "ON 12/24 AND 12/31, THIS BOX MAY BE COLLECTED AS EARLY AS 12 NOON.", "nsi_id": "unitedstatespostalservice-a77078", "operator": "United States Postal Service", "operator:short": "USPS", "operator:type": "public", "operator:wikidata": "Q668687", "ref": "0125700003"}, "type": "Feature"}
{"geometry": {"coordinates": [-73.353801, 42.109642], "type": "Point"}, "id": "7Gl3Y4IVVluFx4L_YSHedfam8qE=", "properties": {"@source_uri": "https://tools.usps.com/UspsToolsRestServices/rest/POLocator/findLocations", "@spider": "usps_collection_boxes", "addr:city": "SHEFFIELD", "addr:country": "US", "addr:postcode": "01257", "addr:state": "MA", "addr:street_address": "99 MAIN ST", "amenity": "post_box", "brand": "United States Postal Service", "brand:wikidata": "Q668687", "collection_times": "Mo-Fr 16:15; Sa 12:00", "indoor": "yes", "note": "ON 12/24 AND 12/31, THIS BOX MAY BE COLLECTED AS EARLY AS 12 NOON.", "nsi_id": "unitedstatespostalservice-a77078", "operator": "United States Postal Service", "operator:short": "USPS", "operator:type": "public", "operator:wikidata": "Q668687", "ref": "0125700005"}, "type": "Feature"}
{"geometry": {"coordinates": [-73.353871359, 42.10959559], "type": "Point"}, "id": "WAVfRnb-Ems9E0pnW67eoA7PcSo=", "properties": {"@source_uri": "https://tools.usps.com/UspsToolsRestServices/rest/POLocator/findLocations", "@spider": "usps_collection_boxes", "addr:city": "SHEFFIELD", "addr:country": "US", "addr:postcode": "01257", "addr:state": "MA", "addr:street_address": "99 MAIN ST", "amenity": "post_box", "brand": "United States Postal Service", "brand:wikidata": "Q668687", "collection_times": "Mo-Fr 16:00; Sa 12:00", "indoor": "yes", "note": "ON 12/24 AND 12/31, THIS BOX MAY BE COLLECTED AS EARLY AS 12 NOON.", "nsi_id": "unitedstatespostalservice-a77078", "operator": "United States Postal Service", "operator:short": "USPS", "operator:type": "public", "operator:wikidata": "Q668687", "ref": "0125700006"}, "type": "Feature"}
{"geometry": {"coordinates": [-73.419148, 42.160533], "type": "Point"}, "id": "FMDRIiVINp9Rd7-OQ0PibptG3d8=", "properties": {"@source_uri": "https://tools.usps.com/UspsToolsRestServices/rest/POLocator/findLocations", "@spider": "usps_collection_boxes", "addr:city": "SOUTH EGREMONT", "addr:country": "US", "addr:postcode": "01258", "addr:state": "MA", "addr:street_address": "64 MAIN ST", "amenity": "post_box", "brand": "United States Postal Service", "brand:wikidata": "Q668687", "collection_times": "Mo-Fr 15:45; Sa 11:45", "note": "ON 12/24 AND 12/31, THIS BOX MAY BE COLLECTED AS EARLY AS 12 NOON.", "nsi_id": "unitedstatespostalservice-a77078", "operator": "United States Postal Service", "operator:short": "USPS", "operator:type": "public", "operator:wikidata": "Q668687", "ref": "0125800001"}, "type": "Feature"}
{"geometry": {"coordinates": [-73.419096, 42.160521], "type": "Point"}, "id": "qSLgWjRU58VmDwH7hmqDaF40Zwk=", "properties": {"@source_uri": "https://tools.usps.com/UspsToolsRestServices/rest/POLocator/findLocations", "@spider": "usps_collection_boxes", "addr:city": "SOUTH EGREMONT", "addr:country": "US", "addr:postcode": "01258", "addr:state": "MA", "addr:street_address": "64 MAIN ST", "amenity": "post_box", "brand": "United States Postal Service", "brand:wikidata": "Q668687", "collection_times": "Mo-Fr 15:45; Sa 11:45", "note": "ON 12/24 AND 12/31, THIS BOX MAY BE COLLECTED AS EARLY AS 12 NOON.", "nsi_id": "unitedstatespostalservice-a77078", "operator": "United States Postal Service", "operator:short": "USPS", "operator:type": "public", "operator:wikidata": "Q668687", "ref": "0125800002"}, "type": "Feature"}
{"geometry": {"coordinates": [-73.45731, 42.09073], "type": "Point"}, "id": "9cZhS1CXMg2z463UKFFguPKqvhc=", "properties": {"@source_uri": "https://tools.usps.com/UspsToolsRestServices/rest/POLocator/findLocations", "@spider": "usps_collection_boxes", "addr:city": "SOUTH EGREMONT", "addr:country": "US", "addr:postcode": "01258", "addr:state": "MA", "addr:street_address": "64 MAIN ST", "amenity": "post_box", "brand": "United States Postal Service", "brand:wikidata": "Q668687", "collection_times": "Mo-Fr 16:00; Sa 11:30", "indoor": "yes", "note": "ON 12/24 AND 12/31, THIS BOX MAY BE COLLECTED AS EARLY AS 12 NOON.", "nsi_id": "unitedstatespostalservice-a77078", "operator": "United States Postal Service", "operator:short": "USPS", "operator:type": "public", "operator:wikidata": "Q668687", "ref": "0125800004"}, "type": "Feature"}
{"geometry": {"coordinates": [-73.23297, 42.098773], "type": "Point"}, "id": "1vIsRQmx4ro5hOXMw7XKVN-XANA=", "properties": {"@source_uri": "https://tools.usps.com/UspsToolsRestServices/rest/POLocator/findLocations", "@spider": "usps_collection_boxes", "addr:city": "SOUTHFIELD", "addr:country": "US", "addr:postcode": "01259", "addr:state": "MA", "addr:street_address": "224 NORFOLK RD", "amenity": "post_box", "brand": "United States Postal Service", "brand:wikidata": "Q668687", "collection_times": "Mo-Fr 15:30; Sa 12:30", "note": "ON 12/24 AND 12/31, THIS BOX MAY BE COLLECTED AS EARLY AS 12 NOON.", "nsi_id": "unitedstatespostalservice-a77078", "operator": "United States Postal Service", "operator:short": "USPS", "operator:type": "public", "operator:wikidata": "Q668687", "ref": "0125900000"}, "type": "Feature"}
{"geometry": {"coordinates": [-73.23297, 42.098773], "type": "Point"}, "id": "lwvrx8YYnvzr9OKRe4m1TTsIdpM=", "properties": {"@source_uri": "https://tools.usps.com/UspsToolsRestServices/rest/POLocator/findLocations", "@spider": "usps_collection_boxes", "addr:city": "SOUTHFIELD", "addr:country": "US", "addr:postcode": "01259", "addr:state": "MA", "addr:street_address": "224 NORFOLK RD LBBY", "amenity": "post_box", "brand": "United States Postal Service", "brand:wikidata": "Q668687", "collection_times": "Mo-Fr 15:30; Sa 12:30", "indoor": "yes", "note": "ON 12/24 AND 12/31, THIS BOX MAY BE COLLECTED AS EARLY AS 12 NOON.", "nsi_id": "unitedstatespostalservice-a77078", "operator": "United States Postal Service", "operator:short": "USPS", "operator:type": "public", "operator:wikidata": "Q668687", "ref": "0125900001"}, "type": "Feature"}
{"geometry": {"coordinates": [-73.232951264, 42.098779676], "type": "Point"}, "id": "I-sEfFkuU4vF1y8czEdvWYmWv4U=", "properties": {"@source_uri": "https://tools.usps.com/UspsToolsRestServices/rest/POLocator/findLocations", "@spider": "usps_collection_boxes", "addr:city": "SOUTHFIELD", "addr:country": "US", "addr:postcode": "01259", "addr:state": "MA", "addr:street_address": "224 NORFOLK RD", "amenity": "post_box", "brand": "United States Postal Service", "brand:wikidata": "Q668687", "collection_times": "Mo-Fr 15:00; Sa 12:00", "indoor": "yes", "note": "ON 12/24 AND 12/31, THIS BOX MAY BE COLLECTED AS EARLY AS 12 NOON.", "nsi_id": "unitedstatespostalservice-a77078", "operator": "United States Postal Service", "operator:short": "USPS", "operator:type": "public", "operator:wikidata": "Q668687", "ref": "0125900002"}, "type": "Feature"}
{"geometry": {"coordinates": [-73.277314, 42.278201], "type": "Point"}, "id": "6FuNUOQUZTQxlRG-raoAmPm7FDA=", "properties": {"@source_uri": "https://tools.usps.com/UspsToolsRestServices/rest/POLocator/findLocations", "@spider": "usps_collection_boxes", "addr:city": "SOUTH LEE", "addr:country": "US", "addr:postcode": "01260", "addr:state": "MA", "addr:street_address": "10 CHURCH ST", "amenity": "post_box", "brand": "United States Postal Service", "brand:wikidata": "Q668687", "collection_times": "Mo-Fr 16:45; Sa 11:45", "note": "ON 12/24 AND 12/31, THIS BOX MAY BE COLLECTED AS EARLY AS 12 NOON.", "nsi_id": "unitedstatespostalservice-a77078", "operator": "United States Postal Service", "operator:short": "USPS", "operator:type": "public", "operator:wikidata": "Q668687", "ref": "0126000000"}, "type": "Feature"}
{"geometry": {"coordinates": [-73.277314, 42.278201], "type": "Point"}, "id": "nZOwkvEnLeKzOmFBPaAHkkmwe2s=", "properties": {"@source_uri": "https://tools.usps.com/UspsToolsRestServices/rest/POLocator/findLocations", "@spider": "usps_collection_boxes", "addr:city": "SOUTH LEE", "addr:country": "US", "addr:postcode": "01260", "addr:state": "MA", "addr:street_address": "10 CHURCH ST", "amenity": "post_box", "brand": "United States Postal Service", "brand:wikidata": "Q668687", "collection_times": "Mo-Sa 11:45", "indoor": "yes", "nsi_id": "unitedstatespostalservice-a77078", "operator": "United States Postal Service", "operator:short": "USPS", "operator:type": "public", "operator:wikidata": "Q668687", "ref": "0126000001"}, "type": "Feature"}
{"geometry": {"coordinates": [-73.277305639, 42.278145433], "type": "Point"}, "id": "fIdFGtfcHekNBrPLasS6fZTOrAE=", "properties": {"@source_uri": "https://tools.usps.com/UspsToolsRestServices/rest/POLocator/findLocations", "@spider": "usps_collection_boxes", "addr:city": "SOUTH LEE", "addr:country": "US", "addr:postcode": "01260", "addr:state": "MA", "addr:street_address": "10 CHURCH ST", "amenity": "post_box", "brand": "United States Postal Service", "brand:wikidata": "Q668687", "collection_times": "Mo-Fr 11:45; Sa 11:30", "indoor": "yes", "nsi_id": "unitedstatespostalservice-a77078", "operator": "United States Postal Service", "operator:short": "USPS", "operator:type": "public", "operator:wikidata": "Q668687", "ref": "0126000002"}, "type": "Feature"}
{"geometry": {"coordinates": [-73.310001, 42.281728], "type": "Point"}, "id": "x4L2-O6KV1Ckzohzmk-Iv-r2cMw=", "properties": {"@source_uri": "https://tools.usps.com/UspsToolsRestServices/rest/POLocator/findLocations", "@spider": "usps_collection_boxes", "addr:city": "STOCKBRIDGE", "addr:country": "US", "addr:postcode": "01262", "addr:state": "MA", "addr:street_address": "1 ELM ST", "amenity": "post_box", "brand": "United States Postal Service", "brand:wikidata": "Q668687", "collection_times": "Mo-Fr 16:45; Sa 11:45", "note": "ON 12/24 AND 12/31, THIS BOX MAY BE COLLECTED AS EARLY AS 12 NOON.", "nsi_id": "unitedstatespostalservice-a77078", "operator": "United States Postal Service", "operator:short": "USPS", "operator:type": "public", "operator:wikidata": "Q668687", "ref": "0126200002"}, "type": "Feature"}
{"geometry": {"coordinates": [-73.30995, 42.281814], "type": "Point"}, "id": "GXOAa9ghiNxdRli7JWXIcKeFN90=", "properties": {"@source_uri": "https://tools.usps.com/UspsToolsRestServices/rest/POLocator/findLocations", "@spider": "usps_collection_boxes", "addr:city": "STOCKBRIDGE", "addr:country": "US", "addr:postcode": "01262", "addr:state": "MA", "addr:street_address": "1 ELM ST", "amenity": "post_box", "brand": "United States Postal Service", "brand:wikidata": "Q668687", "collection_times": "Mo-Fr 16:45; Sa 11:45", "indoor": "yes", "note": "ON 12/24 AND 12/31, THIS BOX MAY BE COLLECTED AS EARLY AS 12 NOON.", "nsi_id": "unitedstatespostalservice-a77078", "operator": "United States Postal Service", "operator:short": "USPS", "operator:type": "public", "operator:wikidata": "Q668687", "ref": "0126200003"}, "type": "Feature"}
{"geometry": {"coordinates": [-73.30995, 42.281814], "type": "Point"}, "id": "A7BcFK5A2-_ikOjjPkZbkA5wNDw=", "properties": {"@source_uri": "https://tools.usps.com/UspsToolsRestServices/rest/POLocator/findLocations", "@spider": "usps_collection_boxes", "addr:city": "STOCKBRIDGE", "addr:country": "US", "addr:postcode": "01262", "addr:state": "MA", "addr:street_address": "1 ELM ST", "amenity": "post_box", "brand": "United States Postal Service", "brand:wikidata": "Q668687", "collection_times": "Mo-Fr 16:45; Sa 11:45", "indoor": "yes", "note": "ON 12/24 AND 12/31, THIS BOX MAY BE COLLECTED AS EARLY AS 12 NOON.", "nsi_id": "unitedstatespostalservice-a77078", "operator": "United States Postal Service", "operator:short": "USPS", "operator:type": "public", "operator:wikidata": "Q668687", "ref": "0126200004"}, "type": "Feature"}
{"geometry": {"coordinates": [-73.310222523, 42.281319762], "type": "Point"}, "id": "S8HafNlruxYIuxQRl7PEV3Mn2o8=", "properties": {"@source_uri": "https://tools.usps.com/UspsToolsRestServices/rest/POLocator/findLocations", "@spider": "usps_collection_boxes", "addr:city": "STOCKBRIDGE", "addr:country": "US", "addr:postcode": "01262", "addr:state": "MA", "addr:street_address": "1 ELM ST", "amenity": "post_box", "brand": "United States Postal Service", "brand:wikidata": "Q668687", "collection_times": "Mo-Fr 16:30; Sa 11:30", "indoor": "yes", "note": "ON 12/24 AND 12/31, THIS BOX MAY BE COLLECTED AS EARLY AS 12 NOON.", "nsi_id": "unitedstatespostalservice-a77078", "operator": "United States Postal Service", "operator:short": "USPS", "operator:type": "public", "operator:wikidata": "Q668687", "ref": "0126200005"}, "type": "Feature"}
{"geometry": {"coordinates": [-73.367163, 42.333829], "type": "Point"}, "id": "aIUfBkBRE1r3dcECQAnJTRjH2yc=", "properties": {"@source_uri": "https://tools.usps.com/UspsToolsRestServices/rest/POLocator/findLocations", "@spider": "usps_collection_boxes", "addr:city": "W STOCKBRIDGE", "addr:country": "US", "addr:postcode": "01266", "addr:state": "MA", "addr:street_address": "4 CENTER ST", "amenity": "post_box", "brand": "United States Postal Service", "brand:wikidata": "Q668687", "collection_times": "Mo-Fr 16:45; Sa 11:45", "note": "ON 12/24 AND 12/31, THIS BOX MAY BE COLLECTED AS EARLY AS 12 NOON.", "nsi_id": "unitedstatespostalservice-a77078", "operator": "United States Postal Service", "operator:short": "USPS", "operator:type": "public", "operator:wikidata": "Q668687", "ref": "0126600000"}, "type": "Feature"}
{"geometry": {"coordinates": [-73.3672416, 42.333655], "type": "Point"}, "id": "lconb3LntaQMVRRA8DWIIHO696M=", "properties": {"@source_uri": "https://tools.usps.com/UspsToolsRestServices/rest/POLocator/findLocations", "@spider": "usps_collection_boxes", "addr:city": "W STOCKBRIDGE", "addr:country": "US", "addr:postcode": "01266", "addr:state": "MA", "addr:street_address": "28 MAIN ST", "amenity": "post_box", "brand": "United States Postal Service", "brand:wikidata": "Q668687", "collection_times": "Mo-Sa 13:30", "note": "ON 12/24 AND 12/31, THIS BOX MAY BE COLLECTED AS EARLY AS 12 NOON.", "nsi_id": "unitedstatespostalservice-a77078", "operator": "United States Postal Service", "operator:short": "USPS", "operator:type": "public", "operator:wikidata": "Q668687", "ref": "0126600001"}, "type": "Feature"}
{"geometry": {"coordinates": [-73.367282, 42.333849], "type": "Point"}, "id": "xDXInYLKbtE7ji7NZdQ_7eoRIFI=", "properties": {"@source_uri": "https://tools.usps.com/UspsToolsRestServices/rest/POLocator/findLocations", "@spider": "usps_collection_boxes", "addr:city": "W STOCKBRIDGE", "addr:country": "US", "addr:postcode": "01266", "addr:state": "MA", "addr:street_address": "4 CENTER ST LBBY", "amenity": "post_box", "brand": "United States Postal Service", "brand:wikidata": "Q668687", "collection_times": "Mo-Fr 17:00; Sa 12:00", "indoor": "yes", "note": "ON 12/24 AND 12/31, THIS BOX MAY BE COLLECTED AS EARLY AS 12 NOON.", "nsi_id": "unitedstatespostalservice-a77078", "operator": "United States Postal Service", "operator:short": "USPS", "operator:type": "public", "operator:wikidata": "Q668687", "ref": "0126600003"}, "type": "Feature"}
{"geometry": {"coordinates": [-73.367247423, 42.333893059], "type": "Point"}, "id": "sui8l77mabslCn-ARnpWbfACTJQ=", "properties": {"@source_uri": "https://tools.usps.com/UspsToolsRestServices/rest/POLocator/findLocations", "@spider": "usps_collection_boxes", "addr:city": "W STOCKBRIDGE", "addr:country": "US", "addr:postcode": "01266", "addr:state": "MA", "addr:street_address": "4 CENTER ST", "amenity": "post_box", "brand": "United States Postal Service", "brand:wikidata": "Q668687", "collection_times": "Mo-Fr 16:00; Sa 11:30", "indoor": "yes", "note": "ON 12/24 AND 12/31, THIS BOX MAY BE COLLECTED AS EARLY AS 12 NOON.", "nsi_id": "unitedstatespostalservice-a77078", "operator": "United States Postal Service", "operator:short": "USPS", "operator:type": "public", "operator:wikidata": "Q668687", "ref": "0126600005"}, "type": "Feature"}
{"geometry": {"coordinates": [-73.1970369, 42.717548], "type": "Point"}, "id": "oA0tBsf0R63tUkNqEwkUzyZd-JY=", "properties": {"@source_uri": "https://tools.usps.com/UspsToolsRestServices/rest/POLocator/findLocations", "@spider": "usps_collection_boxes", "addr:city": "WILLIAMSTOWN", "addr:country": "US", "addr:postcode": "01267", "addr:state": "MA", "addr:street_address": "118 CHURCH ST", "amenity": "post_box", "brand": "United States Postal Service", "brand:wikidata": "Q668687", "collection_times": "Mo-Sa 09:30", "nsi_id": "unitedstatespostalservice-a77078", "operator": "United States Postal Service", "operator:short": "USPS", "operator:type": "public", "operator:wikidata": "Q668687", "ref": "0126700001"}, "type": "Feature"}
{"geometry": {"coordinates": [-73.2053586, 42.714195], "type": "Point"}, "id": "UNNmtmK50e15PQPzGVKrXNLcsPM=", "properties": {"@source_uri": "https://tools.usps.com/UspsToolsRestServices/rest/POLocator/findLocations", "@spider": "usps_collection_boxes", "addr:city": "WILLIAMSTOWN", "addr:country": "US", "addr:postcode": "01267", "addr:state": "MA", "addr:street_address": "39 CHAPIN HALL DR", "amenity": "post_box", "brand": "United States Postal Service", "brand:wikidata": "Q668687", "collection_times": "Mo-Fr 15:30; Sa 09:00", "note": "ON 12/24 AND 12/31, THIS BOX MAY BE COLLECTED AS EARLY AS 12 NOON.", "nsi_id": "unitedstatespostalservice-a77078", "operator": "United States Postal Service", "operator:short": "USPS", "operator:type": "public", "operator:wikidata": "Q668687", "ref": "0126700003"}, "type": "Feature"}
{"geometry": {"coordinates": [-73.2061006, 42.734916], "type": "Point"}, "id": "eDW7Oi5xpgs4N5y2gI4g-n-I2Lw=", "properties": {"@source_uri": "https://tools.usps.com/UspsToolsRestServices/rest/POLocator/findLocations", "@spider": "usps_collection_boxes", "addr:city": "WILLIAMSTOWN", "addr:country": "US", "addr:postcode": "01267", "addr:state": "MA", "addr:street_address": "824 SIMONDS RD", "amenity": "post_box", "brand": "United States Postal Service", "brand:wikidata": "Q668687", "collection_times": "Mo-Sa 10:00", "nsi_id": "unitedstatespostalservice-a77078", "operator": "United States Postal Service", "operator:short": "USPS", "operator:type": "public", "operator:wikidata": "Q668687", "ref": "0126700004"}, "type": "Feature"}
{"geometry": {"coordinates": [-73.1919975, 42.716873], "type": "Point"}, "id": "0y0yAxNXLB4lCW_XfpAyW3Lmkkw=", "properties": {"@source_uri": "https://tools.usps.com/UspsToolsRestServices/rest/POLocator/findLocations", "@spider": "usps_collection_boxes", "addr:city": "WILLIAMSTOWN", "addr:country": "US", "addr:postcode": "01267", "addr:state": "MA", "addr:street_address": "264 COLE AVE", "amenity": "post_box", "brand": "United States Postal Service", "brand:wikidata": "Q668687", "collection_times": "Mo-Sa 10:00", "nsi_id": "unitedstatespostalservice-a77078", "operator": "United States Postal Service", "operator:short": "USPS", "operator:type": "public", "operator:wikidata": "Q668687", "ref": "0126700005"}, "type": "Feature"}
{"geometry": {"coordinates": [-73.1935659, 42.715517], "type": "Point"}, "id": "_YX6-fjhcd_KJ78uQDf-QnWaG68=", "properties": {"@source_uri": "https://tools.usps.com/UspsToolsRestServices/rest/POLocator/findLocations", "@spider": "usps_collection_boxes", "addr:city": "WILLIAMSTOWN", "addr:country": "US", "addr:postcode": "01267", "addr:state": "MA", "addr:street_address": "196 COLE AVE", "amenity": "post_box", "brand": "United States Postal Service", "brand:wikidata": "Q668687", "collection_times": "Mo-Sa 10:00", "nsi_id": "unitedstatespostalservice-a77078", "operator": "United States Postal Service", "operator:short": "USPS", "operator:type": "public", "operator:wikidata": "Q668687", "ref": "0126700006"}, "type": "Feature"}
{"geometry": {"coordinates": [-73.1886327, 42.719752], "type": "Point"}, "id": "88PAHW9qAzIdmIHuJZNfhNg6buc=", "properties": {"@source_uri": "https://tools.usps.com/UspsToolsRestServices/rest/POLocator/findLocations", "@spider": "usps_collection_boxes", "addr:city": "WILLIAMSTOWN", "addr:country": "US", "addr:postcode": "01267", "addr:state": "MA", "addr:street_address": "662 N HOOSAC RD", "amenity": "post_box", "brand": "United States Postal Service", "brand:wikidata": "Q668687", "collection_times": "Mo-Sa 09:30", "nsi_id": "unitedstatespostalservice-a77078", "operator": "United States Postal Service", "operator:short": "USPS", "operator:type": "public", "operator:wikidata": "Q668687", "ref": "0126700007"}, "type": "Feature"}
{"geometry": {"coordinates": [-73.1954527, 42.714075], "type": "Point"}, "id": "_t2n2MoUwOXbUCepSxYxPlyPi8Q=", "properties": {"@source_uri": "https://tools.usps.com/UspsToolsRestServices/rest/POLocator/findLocations", "@spider": "usps_collection_boxes", "addr:city": "WILLIAMSTOWN", "addr:country": "US", "addr:postcode": "01267", "addr:state": "MA", "addr:street_address": "119 SCHOOL ST", "amenity": "post_box", "brand": "United States Postal Service", "brand:wikidata": "Q668687", "collection_times": "Mo-Sa 10:00", "nsi_id": "unitedstatespostalservice-a77078", "operator": "United States Postal Service", "operator:short": "USPS", "operator:type": "public", "operator:wikidata": "Q668687", "ref": "0126700008"}, "type": "Feature"}
{"geometry": {"coordinates": [-73.1899045, 42.705825], "type": "Point"}, "id": "RUUib_1Ybv26j03GDQBkT3ugPBc=", "properties": {"@source_uri": "https://tools.usps.com/UspsToolsRestServices/rest/POLocator/findLocations", "@spider": "usps_collection_boxes", "addr:city": "WILLIAMSTOWN", "addr:country": "US", "addr:postcode": "01267", "addr:state": "MA", "addr:street_address": "446 MAIN ST", "amenity": "post_box", "brand": "United States Postal Service", "brand:wikidata": "Q668687", "collection_times": "Mo-Fr 15:30; Sa 10:00", "note": "ON 12/24 AND 12/31, THIS BOX MAY BE COLLECTED AS EARLY AS 12 NOON.", "nsi_id": "unitedstatespostalservice-a77078", "operator": "United States Postal Service", "operator:short": "USPS", "operator:type": "public", "operator:wikidata": "Q668687", "ref": "0126700009"}, "type": "Feature"}
{"geometry": {"coordinates": [-73.1859321, 42.702397], "type": "Point"}, "id": "BLTd1mxxXaVA1iixQ6qV4NnxZ64=", "properties": {"@source_uri": "https://tools.usps.com/UspsToolsRestServices/rest/POLocator/findLocations", "@spider": "usps_collection_boxes", "addr:city": "WILLIAMSTOWN", "addr:country": "US", "addr:postcode": "01267", "addr:state": "MA", "addr:street_address": "273 MAIN ST", "amenity": "post_box", "brand": "United States Postal Service", "brand:wikidata": "Q668687", "collection_times": "Mo-Fr 15:45; Sa 10:00", "note": "ON 12/24 AND 12/31, THIS BOX MAY BE COLLECTED AS EARLY AS 12 NOON.", "nsi_id": "unitedstatespostalservice-a77078", "operator": "United States Postal Service", "operator:short": "USPS", "operator:type": "public", "operator:wikidata": "Q668687", "ref": "0126700010"}, "type": "Feature"}
{"geometry": {"coordinates": [-73.1938459, 42.712243], "type": "Point"}, "id": "h0gGz4VUnHNhnpJSJ38WAoWjVJU=", "properties": {"@source_uri": "https://tools.usps.com/UspsToolsRestServices/rest/POLocator/findLocations", "@spider": "usps_collection_boxes", "addr:city": "WILLIAMSTOWN", "addr:country": "US", "addr:postcode": "01267", "addr:state": "MA", "addr:street_address": "54 GRANDVIEW DR", "amenity": "post_box", "brand": "United States Postal Service", "brand:wikidata": "Q668687", "collection_times": "Mo-Sa 10:00", "nsi_id": "unitedstatespostalservice-a77078", "operator": "United States Postal Service", "operator:short": "USPS", "operator:type": "public", "operator:wikidata": "Q668687", "ref": "0126700011"}, "type": "Feature"}
{"geometry": {"coordinates": [-73.190693, 42.706022], "type": "Point"}, "id": "RsVdvPDqQGdsUsR40XPdLK3KHQM=", "properties": {"@source_uri": "https://tools.usps.com/UspsToolsRestServices/rest/POLocator/findLocations", "@spider": "usps_collection_boxes", "addr:city": "WILLIAMSTOWN", "addr:country": "US", "addr:postcode": "01267", "addr:state": "MA", "addr:street_address": "455 MAIN ST", "amenity": "post_box", "brand": "United States Postal Service", "brand:wikidata": "Q668687", "collection_times": "Mo-Sa 09:30", "nsi_id": "unitedstatespostalservice-a77078", "operator": "United States Postal Service", "operator:short": "USPS", "operator:type": "public", "operator:wikidata": "Q668687", "ref": "0126700012"}, "type": "Feature"}
{"geometry": {"coordinates": [-73.2093719, 42.714695], "type": "Point"}, "id": "ujcntzTNA2g4JH2Gi7KuMdqQL0c=", "properties": {"@source_uri": "https://tools.usps.com/UspsToolsRestServices/rest/POLocator/findLocations", "@spider": "usps_collection_boxes", "addr:city": "WILLIAMSTOWN", "addr:country": "US", "addr:postcode": "01267", "addr:state": "MA", "addr:street_address": "31 NORTH ST", "amenity": "post_box", "brand": "United States Postal Service", "brand:wikidata": "Q668687", "collection_times": "Mo-Sa 09:45", "nsi_id": "unitedstatespostalservice-a77078", "operator": "United States Postal Service", "operator:short": "USPS", "operator:type": "public", "operator:wikidata": "Q668687", "ref": "0126700013"}, "type": "Feature"}
{"geometry": {"coordinates": [-73.2076986, 42.712981], "type": "Point"}, "id": "lTGYCPCLHqtzcNW0_GPewuCb7W0=", "properties": {"@source_uri": "https://tools.usps.com/UspsToolsRestServices/rest/POLocator/findLocations", "@spider": "usps_collection_boxes", "addr:city": "WILLIAMSTOWN", "addr:country": "US", "addr:postcode": "01267", "addr:state": "MA", "addr:street_address": "967 MAIN ST", "amenity": "post_box", "brand": "United States Postal Service", "brand:wikidata": "Q668687", "collection_times": "Mo-Sa 10:00", "nsi_id": "unitedstatespostalservice-a77078", "operator": "United States Postal Service", "operator:short": "USPS", "operator:type": "public", "operator:wikidata": "Q668687", "ref": "0126700014"}, "type": "Feature"}
{"geometry": {"coordinates": [-73.1994595, 42.71144], "type": "Point"}, "id": "OBUZGL3uMnv4kabPk_d6u8e4MyQ=", "properties": {"@source_uri": "https://tools.usps.com/UspsToolsRestServices/rest/POLocator/findLocations", "@spider": "usps_collection_boxes", "addr:city": "WILLIAMSTOWN", "addr:country": "US", "addr:postcode": "01267", "addr:state": "MA", "addr:street_address": "772 MAIN ST", "amenity": "post_box", "brand": "United States Postal Service", "brand:wikidata": "Q668687", "collection_times": "Mo-Sa 09:45", "nsi_id": "unitedstatespostalservice-a77078", "operator": "United States Postal Service", "operator:short": "USPS", "operator:type": "public", "operator:wikidata": "Q668687", "ref": "0126700015"}, "type": "Feature"}
{"geometry": {"coordinates": [-73.1996563, 42.714166], "type": "Point"}, "id": "M4V704dRjka6Wu2-mbpH010guAk=", "properties": {"@source_uri": "https://tools.usps.com/UspsToolsRestServices/rest/POLocator/findLocations", "@spider": "usps_collection_boxes", "addr:city": "WILLIAMSTOWN", "addr:country": "US", "addr:postcode": "01267", "addr:state": "MA", "addr:street_address": "94 SOUTHWORTH ST", "amenity": "post_box", "brand": "United States Postal Service", "brand:wikidata": "Q668687", "collection_times": "Mo-Sa 10:00", "nsi_id": "unitedstatespostalservice-a77078", "operator": "United States Postal Service", "operator:short": "USPS", "operator:type": "public", "operator:wikidata": "Q668687", "ref": "0126700016"}, "type": "Feature"}
{"geometry": {"coordinates": [-73.2411665, 42.660695], "type": "Point"}, "id": "Nw1wOQK8YXTULHslTxNv5a362_Q=", "properties": {"@source_uri": "https://tools.usps.com/UspsToolsRestServices/rest/POLocator/findLocations", "@spider": "usps_collection_boxes", "addr:city": "WILLIAMSTOWN", "addr:country": "US", "addr:postcode": "01267", "addr:state": "MA", "addr:street_address": "5 NEW ASHFORD RD", "amenity": "post_box", "brand": "United States Postal Service", "brand:wikidata": "Q668687", "collection_times": "Mo-Sa 12:00", "nsi_id": "unitedstatespostalservice-a77078", "operator": "United States Postal Service", "operator:short": "USPS", "operator:type": "public", "operator:wikidata": "Q668687", "ref": "0126700018"}, "type": "Feature"}
{"geometry": {"coordinates": [-73.2007323, 42.708214], "type": "Point"}, "id": "rlkFXEKYf8Tzib-K2o8OAz7cMog=", "properties": {"@source_uri": "https://tools.usps.com/UspsToolsRestServices/rest/POLocator/findLocations", "@spider": "usps_collection_boxes", "addr:city": "WILLIAMSTOWN", "addr:country": "US", "addr:postcode": "01267", "addr:state": "MA", "addr:street_address": "115 WATER ST", "amenity": "post_box", "brand": "United States Postal Service", "brand:wikidata": "Q668687", "collection_times": "Mo-Sa 10:00", "nsi_id": "unitedstatespostalservice-a77078", "operator": "United States Postal Service", "operator:short": "USPS", "operator:type": "public", "operator:wikidata": "Q668687", "ref": "0126700019"}, "type": "Feature"}
{"geometry": {"coordinates": [-73.2002771, 42.71117], "type": "Point"}, "id": "OfTeQHqTD1UiunORTO5Fmk7AljQ=", "properties": {"@source_uri": "https://tools.usps.com/UspsToolsRestServices/rest/POLocator/findLocations", "@spider": "usps_collection_boxes", "addr:city": "WILLIAMSTOWN", "addr:country": "US", "addr:postcode": "01267", "addr:state": "MA", "addr:street_address": "795 MAIN ST", "amenity": "post_box", "brand": "United States Postal Service", "brand:wikidata": "Q668687", "collection_times": "Mo-Fr 15:45; Sa 10:00", "note": "ON 12/24 AND 12/31, THIS BOX MAY BE COLLECTED AS EARLY AS 12 NOON.", "nsi_id": "unitedstatespostalservice-a77078", "operator": "United States Postal Service", "operator:short": "USPS", "operator:type": "public", "operator:wikidata": "Q668687", "ref": "0126700020"}, "type": "Feature"}
{"geometry": {"coordinates": [-73.2042705, 42.710523], "type": "Point"}, "id": "QtxcMw3T08AGVnL8eR5ho1PCquI=", "properties": {"@source_uri": "https://tools.usps.com/UspsToolsRestServices/rest/POLocator/findLocations", "@spider": "usps_collection_boxes", "addr:city": "WILLIAMSTOWN", "addr:country": "US", "addr:postcode": "01267", "addr:state": "MA", "addr:street_address": "56 SPRING ST", "amenity": "post_box", "brand": "United States Postal Service", "brand:wikidata": "Q668687", "collection_times": "Mo-Fr 17:00; Sa 16:00", "note": "ON 12/24 AND 12/31, THIS BOX MAY BE COLLECTED AS EARLY AS 12 NOON.", "nsi_id": "unitedstatespostalservice-a77078", "operator": "United States Postal Service", "operator:short": "USPS", "operator:type": "public", "operator:wikidata": "Q668687", "ref": "0126700022"}, "type": "Feature"}
{"geometry": {"coordinates": [-73.1838443, 42.702229], "type": "Point"}, "id": "mGKndCfwCKUPtiHKdsXpg-wWYfE=", "properties": {"@source_uri": "https://tools.usps.com/UspsToolsRestServices/rest/POLocator/findLocations", "@spider": "usps_collection_boxes", "addr:city": "WILLIAMSTOWN", "addr:country": "US", "addr:postcode": "01267", "addr:state": "MA", "addr:street_address": "212 MAIN ST", "amenity": "post_box", "brand": "United States Postal Service", "brand:wikidata": "Q668687", "collection_times": "Mo-Fr 15:30; Sa 10:00", "note": "ON 12/24 AND 12/31, THIS BOX MAY BE COLLECTED AS EARLY AS 12 NOON.", "nsi_id": "unitedstatespostalservice-a77078", "operator": "United States Postal Service", "operator:short": "USPS", "operator:type": "public", "operator:wikidata": "Q668687", "ref": "0126700023"}, "type": "Feature"}
{"geometry": {"coordinates": [-73.204297369, 42.710436021], "type": "Point"}, "id": "lCDa2-2qEiYbfQyyymbMaIug01o=", "properties": {"@source_uri": "https://tools.usps.com/UspsToolsRestServices/rest/POLocator/findLocations", "@spider": "usps_collection_boxes", "addr:city": "WILLIAMSTOWN", "addr:country": "US", "addr:postcode": "01267", "addr:state": "MA", "addr:street_address": "56 SPRING ST", "amenity": "post_box", "brand": "United States Postal Service", "brand:wikidata": "Q668687", "collection_times": "Mo-Fr 16:30; Sa 15:30", "indoor": "yes", "note": "ON 12/24 AND 12/31, THIS BOX MAY BE COLLECTED AS EARLY AS 12 NOON.", "nsi_id": "unitedstatespostalservice-a77078", "operator": "United States Postal Service", "operator:short": "USPS", "operator:type": "public", "operator:wikidata": "Q668687", "ref": "0126700025"}, "type": "Feature"}
