{"geometry": {"coordinates": [-72.5973267, 42.60674], "type": "Point"}, "id": "_qIO_iPqrVgoXT9DcSI4YA4VcKI=", "properties": {"@source_uri": "https://tools.usps.com/UspsToolsRestServices/rest/POLocator/findLocations", "@spider": "usps_collection_boxes", "addr:city": "GREENFIELD", "addr:country": "US", "addr:postcode": "01301", "addr:state": "MA", "addr:street_address": "225 SILVER ST", "amenity": "post_box", "collection_times": "Mo-Sa 10:00", "nsi_id": "unitedstatespostalservice-a77078", "operator": "United States Postal Service", "operator:short": "USPS", "operator:type": "public", "operator:wikidata": "Q668687", "ref": "0130100002"}, "type": "Feature"}
{"geometry": {"coordinates": [-72.5999914, 42.602711], "type": "Point"}, "id": "6Hp2iUqHE7GMZ9tWqPUgcROZ3l4=", "properties": {"@source_uri": "https://tools.usps.com/UspsToolsRestServices/rest/POLocator/findLocations", "@spider": "usps_collection_boxes", "addr:city": "GREENFIELD", "addr:country": "US", "addr:postcode": "01301", "addr:state": "MA", "addr:street_address": "342 DAVIS ST", "amenity": "post_box", "collection_times": "Mo-Sa 10:00", "nsi_id": "unitedstatespostalservice-a77078", "operator": "United States Postal Service", "operator:short": "USPS", "operator:type": "public", "operator:wikidata": "Q668687", "ref": "0130100004"}, "type": "Feature"}
{"geometry": {"coordinates": [-72.6182337, 42.584938], "type": "Point"}, "id": "OzZSk8Tm1byKhXI8PE8dta16Fw4=", "properties": {"@source_uri": "https://tools.usps.com/UspsToolsRestServices/rest/POLocator/findLocations", "@spider": "usps_collection_boxes", "addr:city": "GREENFIELD", "addr:country": "US", "addr:postcode": "01301", "addr:state": "MA", "addr:street_address": "125 MOHAWK TRL", "amenity": "post_box", "collection_times": "Mo-Sa 09:00", "nsi_id": "unitedstatespostalservice-a77078", "operator": "United States Postal Service", "operator:short": "USPS", "operator:type": "public", "operator:wikidata": "Q668687", "ref": "0130100005"}, "type": "Feature"}
{"geometry": {"coordinates": [-72.6017405, 42.585103], "type": "Point"}, "id": "hVF63UdOp65757k5N8xP5I-9UyY=", "properties": {"@source_uri": "https://tools.usps.com/UspsToolsRestServices/rest/POLocator/findLocations", "@spider": "usps_collection_boxes", "addr:city": "GREENFIELD", "addr:country": "US", "addr:postcode": "01301", "addr:state": "MA", "addr:street_address": "10 MILL ST", "amenity": "post_box", "collection_times": "Mo-Sa 12:00", "nsi_id": "unitedstatespostalservice-a77078", "operator": "United States Postal Service", "operator:short": "USPS", "operator:type": "public", "operator:wikidata": "Q668687", "ref": "0130100006"}, "type": "Feature"}
{"geometry": {"coordinates": [-72.597544, 42.587412], "type": "Point"}, "id": "ebVgzfKHE7uLBe8kf5suundHYpc=", "properties": {"@source_uri": "https://tools.usps.com/UspsToolsRestServices/rest/POLocator/findLocations", "@spider": "usps_collection_boxes", "addr:city": "GREENFIELD", "addr:country": "US", "addr:postcode": "01301", "addr:state": "MA", "addr:street_address": "451 MAIN ST", "amenity": "post_box", "collection_times": "Mo-Sa 09:00", "nsi_id": "unitedstatespostalservice-a77078", "operator": "United States Postal Service", "operator:short": "USPS", "operator:type": "public", "operator:wikidata": "Q668687", "ref": "0130100007"}, "type": "Feature"}
{"geometry": {"coordinates": [-72.5978873, 42.587623], "type": "Point"}, "id": "-9D_cT8x7RnhXjBwGMvilfIPtoo=", "properties": {"@source_uri": "https://tools.usps.com/UspsToolsRestServices/rest/POLocator/findLocations", "@spider": "usps_collection_boxes", "addr:city": "GREENFIELD", "addr:country": "US", "addr:postcode": "01301", "addr:state": "MA", "addr:street_address": "442 MAIN ST", "amenity": "post_box", "collection_times": "Mo-Sa 14:30", "note": "ON 12/24 AND 12/31, THIS BOX MAY BE COLLECTED AS EARLY AS 12 NOON.", "nsi_id": "unitedstatespostalservice-a77078", "operator": "United States Postal Service", "operator:short": "USPS", "operator:type": "public", "operator:wikidata": "Q668687", "ref": "0130100008"}, "type": "Feature"}
{"geometry": {"coordinates": [-72.6009528, 42.587916], "type": "Point"}, "id": "2jadQlj8d4Wm5BaUtzrwwqegQ0A=", "properties": {"@source_uri": "https://tools.usps.com/UspsToolsRestServices/rest/POLocator/findLocations", "@spider": "usps_collection_boxes", "addr:city": "GREENFIELD", "addr:country": "US", "addr:postcode": "01301", "addr:state": "MA", "addr:street_address": "289 MAIN ST", "amenity": "post_box", "collection_times": "Mo-Sa 10:00", "nsi_id": "unitedstatespostalservice-a77078", "operator": "United States Postal Service", "operator:short": "USPS", "operator:type": "public", "operator:wikidata": "Q668687", "ref": "0130100009"}, "type": "Feature"}
{"geometry": {"coordinates": [-72.59951, 42.59326], "type": "Point"}, "id": "4V8G6H7LHN5pXImGjS44Tt-i2f4=", "properties": {"@source_uri": "https://tools.usps.com/UspsToolsRestServices/rest/POLocator/findLocations", "@spider": "usps_collection_boxes", "addr:city": "GREENFIELD", "addr:country": "US", "addr:postcode": "01301", "addr:state": "MA", "addr:street_address": "130 MAIN ST", "amenity": "post_box", "collection_times": "Mo-Sa 10:00", "nsi_id": "unitedstatespostalservice-a77078", "operator": "United States Postal Service", "operator:short": "USPS", "operator:type": "public", "operator:wikidata": "Q668687", "ref": "0130100011"}, "type": "Feature"}
{"geometry": {"coordinates": [-72.6024974, 42.587974], "type": "Point"}, "id": "kJ_C6TteTAF-M8twtFzgarJsSIM=", "properties": {"@source_uri": "https://tools.usps.com/UspsToolsRestServices/rest/POLocator/findLocations", "@spider": "usps_collection_boxes", "addr:city": "GREENFIELD", "addr:country": "US", "addr:postcode": "01301", "addr:state": "MA", "addr:street_address": "220 MAIN ST", "amenity": "post_box", "collection_times": "Mo-Sa 10:00", "nsi_id": "unitedstatespostalservice-a77078", "operator": "United States Postal Service", "operator:short": "USPS", "operator:type": "public", "operator:wikidata": "Q668687", "ref": "0130100014"}, "type": "Feature"}
{"geometry": {"coordinates": [-72.586577, 42.59984], "type": "Point"}, "id": "eUbtR492q7-_51kDYn5IPRb9IbY=", "properties": {"@source_uri": "https://tools.usps.com/UspsToolsRestServices/rest/POLocator/findLocations", "@spider": "usps_collection_boxes", "addr:city": "GREENFIELD", "addr:country": "US", "addr:postcode": "01301", "addr:state": "MA", "addr:street_address": "91 SMITH ST", "amenity": "post_box", "collection_times": "Mo-Sa 08:45", "nsi_id": "unitedstatespostalservice-a77078", "operator": "United States Postal Service", "operator:short": "USPS", "operator:type": "public", "operator:wikidata": "Q668687", "ref": "0130100015"}, "type": "Feature"}
{"geometry": {"coordinates": [-72.6122016, 42.592475], "type": "Point"}, "id": "1QHJhFBrkUS1b0T9sJQ3Iw3LTlQ=", "properties": {"@source_uri": "https://tools.usps.com/UspsToolsRestServices/rest/POLocator/findLocations", "@spider": "usps_collection_boxes", "addr:city": "GREENFIELD", "addr:country": "US", "addr:postcode": "01301", "addr:state": "MA", "addr:street_address": "2 PRAY DR", "amenity": "post_box", "collection_times": "Mo-Sa 10:00", "nsi_id": "unitedstatespostalservice-a77078", "operator": "United States Postal Service", "operator:short": "USPS", "operator:type": "public", "operator:wikidata": "Q668687", "ref": "0130100017"}, "type": "Feature"}
{"geometry": {"coordinates": [-72.601566, 42.588033], "type": "Point"}, "id": "ECup6Vc2c8SFjhxV0aNYpRxcbpI=", "properties": {"@source_uri": "https://tools.usps.com/UspsToolsRestServices/rest/POLocator/findLocations", "@spider": "usps_collection_boxes", "addr:city": "GREENFIELD", "addr:country": "US", "addr:postcode": "01301", "addr:state": "MA", "addr:street_address": "270 MAIN ST", "amenity": "post_box", "collection_times": "Mo-Sa 10:00", "nsi_id": "unitedstatespostalservice-a77078", "operator": "United States Postal Service", "operator:short": "USPS", "operator:type": "public", "operator:wikidata": "Q668687", "ref": "0130100018"}, "type": "Feature"}
{"geometry": {"coordinates": [-72.59951, 42.59326], "type": "Point"}, "id": "f01EEnAIsN2eLjhAG6BnnWUFpso=", "properties": {"@source_uri": "https://tools.usps.com/UspsToolsRestServices/rest/POLocator/findLocations", "@spider": "usps_collection_boxes", "addr:city": "GREENFIELD", "addr:country": "US", "addr:postcode": "01301", "addr:state": "MA", "addr:street_address": "162 FEDERAL ST", "amenity": "post_box", "collection_times": "Mo-Sa 10:30", "nsi_id": "unitedstatespostalservice-a77078", "operator": "United States Postal Service", "operator:short": "USPS", "operator:type": "public", "operator:wikidata": "Q668687", "ref": "0130100021"}, "type": "Feature"}
{"geometry": {"coordinates": [-72.5998959, 42.588667], "type": "Point"}, "id": "Oz11hmjTnQyjd244BpFQN_4RJLs=", "properties": {"@source_uri": "https://tools.usps.com/UspsToolsRestServices/rest/POLocator/findLocations", "@spider": "usps_collection_boxes", "addr:city": "GREENFIELD", "addr:country": "US", "addr:postcode": "01301", "addr:state": "MA", "addr:street_address": "28 FEDERAL ST", "amenity": "post_box", "collection_times": "Mo-Sa 10:00", "nsi_id": "unitedstatespostalservice-a77078", "operator": "United States Postal Service", "operator:short": "USPS", "operator:type": "public", "operator:wikidata": "Q668687", "ref": "0130100022"}, "type": "Feature"}
{"geometry": {"coordinates": [-72.6101027, 42.59611], "type": "Point"}, "id": "hdwMIZ5hxMvU1lFpIAkTzc5RhEI=", "properties": {"@source_uri": "https://tools.usps.com/UspsToolsRestServices/rest/POLocator/findLocations", "@spider": "usps_collection_boxes", "addr:city": "GREENFIELD", "addr:country": "US", "addr:postcode": "01301", "addr:state": "MA", "addr:street_address": "26 ELM TER", "amenity": "post_box", "collection_times": "Mo-Sa 09:00", "nsi_id": "unitedstatespostalservice-a77078", "operator": "United States Postal Service", "operator:short": "USPS", "operator:type": "public", "operator:wikidata": "Q668687", "ref": "0130100023"}, "type": "Feature"}
{"geometry": {"coordinates": [-72.5863444, 42.608727], "type": "Point"}, "id": "7FQA_cPWzi5CWyJyG2Et6lIizYE=", "properties": {"@source_uri": "https://tools.usps.com/UspsToolsRestServices/rest/POLocator/findLocations", "@spider": "usps_collection_boxes", "addr:city": "GREENFIELD", "addr:country": "US", "addr:postcode": "01301", "addr:state": "MA", "addr:street_address": "481 BERNARDSTON RD", "amenity": "post_box", "collection_times": "Mo-Sa 09:00", "nsi_id": "unitedstatespostalservice-a77078", "operator": "United States Postal Service", "operator:short": "USPS", "operator:type": "public", "operator:wikidata": "Q668687", "ref": "0130100027"}, "type": "Feature"}
{"geometry": {"coordinates": [-72.6094355, 42.598521], "type": "Point"}, "id": "pNDJZvUVrEVsQdnlIxr_rBA6xEw=", "properties": {"@source_uri": "https://tools.usps.com/UspsToolsRestServices/rest/POLocator/findLocations", "@spider": "usps_collection_boxes", "addr:city": "GREENFIELD", "addr:country": "US", "addr:postcode": "01301", "addr:state": "MA", "addr:street_address": "245 CONWAY ST", "amenity": "post_box", "collection_times": "Mo-Sa 09:00", "nsi_id": "unitedstatespostalservice-a77078", "operator": "United States Postal Service", "operator:short": "USPS", "operator:type": "public", "operator:wikidata": "Q668687", "ref": "0130100028"}, "type": "Feature"}
{"geometry": {"coordinates": [-72.6279737, 42.585125], "type": "Point"}, "id": "b8Kj1mVzqVjkPf5b7ZpDqEX_MGM=", "properties": {"@source_uri": "https://tools.usps.com/UspsToolsRestServices/rest/POLocator/findLocations", "@spider": "usps_collection_boxes", "addr:city": "GREENFIELD", "addr:country": "US", "addr:postcode": "01301", "addr:state": "MA", "addr:street_address": "274 MOHAWK TRL", "amenity": "post_box", "collection_times": "Mo-Sa 10:00", "nsi_id": "unitedstatespostalservice-a77078", "operator": "United States Postal Service", "operator:short": "USPS", "operator:type": "public", "operator:wikidata": "Q668687", "ref": "0130100032"}, "type": "Feature"}
{"geometry": {"coordinates": [-72.5937419, 42.598316], "type": "Point"}, "id": "IXrl5SpuCWSp_qtD8tWa1LOKQKQ=", "properties": {"@source_uri": "https://tools.usps.com/UspsToolsRestServices/rest/POLocator/findLocations", "@spider": "usps_collection_boxes", "addr:city": "GREENFIELD", "addr:country": "US", "addr:postcode": "01301", "addr:state": "MA", "addr:street_address": "33 RIDDELL ST", "amenity": "post_box", "collection_times": "Mo-Sa 09:00", "nsi_id": "unitedstatespostalservice-a77078", "operator": "United States Postal Service", "operator:short": "USPS", "operator:type": "public", "operator:wikidata": "Q668687", "ref": "0130100035"}, "type": "Feature"}
{"geometry": {"coordinates": [-72.59951, 42.59326], "type": "Point"}, "id": "yIzgbD8s0ic59mgq3w4Wqe-M5q4=", "properties": {"@source_uri": "https://tools.usps.com/UspsToolsRestServices/rest/POLocator/findLocations", "@spider": "usps_collection_boxes", "addr:city": "GREENFIELD", "addr:country": "US", "addr:postcode": "01301", "addr:state": "MA", "addr:street_address": "89 FRENCH KING HWY", "amenity": "post_box", "collection_times": "Mo-Sa 09:00", "nsi_id": "unitedstatespostalservice-a77078", "operator": "United States Postal Service", "operator:short": "USPS", "operator:type": "public", "operator:wikidata": "Q668687", "ref": "0130100040"}, "type": "Feature"}
{"geometry": {"coordinates": [-72.597979, 42.587514], "type": "Point"}, "id": "rpoB3e9-R4YzNQpX5zJjddNCwZU=", "properties": {"@source_uri": "https://tools.usps.com/UspsToolsRestServices/rest/POLocator/findLocations", "@spider": "usps_collection_boxes", "addr:city": "GREENFIELD", "addr:country": "US", "addr:postcode": "01301", "addr:state": "MA", "addr:street_address": "442 MAIN ST", "amenity": "post_box", "collection_times": "Mo-Fr 17:00; Sa 13:45", "indoor": "yes", "note": "ON 12/24 AND 12/31, THIS BOX MAY BE COLLECTED AS EARLY AS 12 NOON.", "nsi_id": "unitedstatespostalservice-a77078", "operator": "United States Postal Service", "operator:short": "USPS", "operator:type": "public", "operator:wikidata": "Q668687", "ref": "0130100041"}, "type": "Feature"}
{"geometry": {"coordinates": [-72.6058391, 42.587615], "type": "Point"}, "id": "iZ6F1YFnb8OKCrWca2HtwEgHvcw=", "properties": {"@source_uri": "https://tools.usps.com/UspsToolsRestServices/rest/POLocator/findLocations", "@spider": "usps_collection_boxes", "addr:city": "GREENFIELD", "addr:country": "US", "addr:postcode": "01301", "addr:state": "MA", "addr:street_address": "94 MAIN ST", "amenity": "post_box", "collection_times": "Mo-Sa 10:00", "nsi_id": "unitedstatespostalservice-a77078", "operator": "United States Postal Service", "operator:short": "USPS", "operator:type": "public", "operator:wikidata": "Q668687", "ref": "0130100042"}, "type": "Feature"}
{"geometry": {"coordinates": [-72.597975612, 42.587529315], "type": "Point"}, "id": "P_-3yJ7SALjU3Kjhi6faXOX2MXc=", "properties": {"@source_uri": "https://tools.usps.com/UspsToolsRestServices/rest/POLocator/findLocations", "@spider": "usps_collection_boxes", "addr:city": "GREENFIELD", "addr:country": "US", "addr:postcode": "01301", "addr:state": "MA", "addr:street_address": "442 MAIN ST", "amenity": "post_box", "collection_times": "Mo-Sa 14:30", "note": "ON 12/24 AND 12/31, THIS BOX MAY BE COLLECTED AS EARLY AS 12 NOON.", "nsi_id": "unitedstatespostalservice-a77078", "operator": "United States Postal Service", "operator:short": "USPS", "operator:type": "public", "operator:wikidata": "Q668687", "ref": "0130100043"}, "type": "Feature"}
{"geometry": {"coordinates": [-72.5981976, 42.587787], "type": "Point"}, "id": "CrQbulTaXx4XEtXT2Tusa0UWiKE=", "properties": {"@source_uri": "https://tools.usps.com/UspsToolsRestServices/rest/POLocator/findLocations", "@spider": "usps_collection_boxes", "addr:city": "GREENFIELD", "addr:country": "US", "addr:postcode": "01301", "addr:state": "MA", "addr:street_address": "442 MAIN ST", "amenity": "post_box", "collection_times": "Mo-Sa 14:30", "note": "ON 12/24 AND 12/31, THIS BOX MAY BE COLLECTED AS EARLY AS 12 NOON.", "nsi_id": "unitedstatespostalservice-a77078", "operator": "United States Postal Service", "operator:short": "USPS", "operator:type": "public", "operator:wikidata": "Q668687", "ref": "0130100046"}, "type": "Feature"}
{"geometry": {"coordinates": [-72.6254733, 42.587114], "type": "Point"}, "id": "-5NUBD65hsYir1rnwH7Iy69jNS0=", "properties": {"@source_uri": "https://tools.usps.com/UspsToolsRestServices/rest/POLocator/findLocations", "@spider": "usps_collection_boxes", "addr:city": "GREENFIELD", "addr:country": "US", "addr:postcode": "01301", "addr:state": "MA", "addr:street_address": "237 MOHAWK TRL", "amenity": "post_box", "collection_times": "Mo-Sa 10:00", "nsi_id": "unitedstatespostalservice-a77078", "operator": "United States Postal Service", "operator:short": "USPS", "operator:type": "public", "operator:wikidata": "Q668687", "ref": "0130100047"}, "type": "Feature"}
{"geometry": {"coordinates": [-72.597975612, 42.587529315], "type": "Point"}, "id": "MAW4fFTUg_RJGd59uxr9CGzabpU=", "properties": {"@source_uri": "https://tools.usps.com/UspsToolsRestServices/rest/POLocator/findLocations", "@spider": "usps_collection_boxes", "addr:city": "GREENFIELD", "addr:country": "US", "addr:postcode": "01301", "addr:state": "MA", "addr:street_address": "442 MAIN ST", "amenity": "post_box", "collection_times": "Mo-Fr 17:00; Sa 12:00", "indoor": "yes", "note": "ON 12/24 AND 12/31, THIS BOX MAY BE COLLECTED AS EARLY AS 12 NOON.", "nsi_id": "unitedstatespostalservice-a77078", "operator": "United States Postal Service", "operator:short": "USPS", "operator:type": "public", "operator:wikidata": "Q668687", "ref": "0130100051"}, "type": "Feature"}
{"geometry": {"coordinates": [-72.6272737387, 42.6916616469], "type": "Point"}, "id": "u9LMz3iAAjvxlRY_W-h_DXo-CCI=", "properties": {"@source_uri": "https://tools.usps.com/UspsToolsRestServices/rest/POLocator/findLocations", "@spider": "usps_collection_boxes", "addr:city": "GREENFIELD", "addr:country": "US", "addr:postcode": "01301", "addr:state": "MA", "addr:street_address": "7 BRATTLEBORO RD", "amenity": "post_box", "collection_times": "Mo-Sa 10:00", "nsi_id": "unitedstatespostalservice-a77078", "operator": "United States Postal Service", "operator:short": "USPS", "operator:type": "public", "operator:wikidata": "Q668687", "ref": "0130100052"}, "type": "Feature"}
{"geometry": {"coordinates": [-72.79732, 42.527396], "type": "Point"}, "id": "fg735fkZMVNvpEgcHYXrv2M4xXM=", "properties": {"@source_uri": "https://tools.usps.com/UspsToolsRestServices/rest/POLocator/findLocations", "@spider": "usps_collection_boxes", "addr:city": "ASHFIELD", "addr:country": "US", "addr:postcode": "01330", "addr:state": "MA", "addr:street_address": "258 MAIN ST", "amenity": "post_box", "collection_times": "Mo-Fr 16:30; Sa 12:00", "note": "ON 12/24 AND 12/31, THIS BOX MAY BE COLLECTED AS EARLY AS 12 NOON.", "nsi_id": "unitedstatespostalservice-a77078", "operator": "United States Postal Service", "operator:short": "USPS", "operator:type": "public", "operator:wikidata": "Q668687", "ref": "0133000000"}, "type": "Feature"}
{"geometry": {"coordinates": [-72.797439, 42.527403], "type": "Point"}, "id": "5Ff-bOMoqgZsMWUdcX8do0HCevY=", "properties": {"@source_uri": "https://tools.usps.com/UspsToolsRestServices/rest/POLocator/findLocations", "@spider": "usps_collection_boxes", "addr:city": "ASHFIELD", "addr:country": "US", "addr:postcode": "01330", "addr:state": "MA", "addr:street_address": "258 MAIN ST LBBY", "amenity": "post_box", "collection_times": "Mo-Fr 16:30; Sa 12:30", "indoor": "yes", "note": "ON 12/24 AND 12/31, THIS BOX MAY BE COLLECTED AS EARLY AS 12 NOON.", "nsi_id": "unitedstatespostalservice-a77078", "operator": "United States Postal Service", "operator:short": "USPS", "operator:type": "public", "operator:wikidata": "Q668687", "ref": "0133000001"}, "type": "Feature"}
{"geometry": {"coordinates": [-72.797311638, 42.527361188], "type": "Point"}, "id": "6WV_VSRWJZxfVSgWsnnORV1k1aw=", "properties": {"@source_uri": "https://tools.usps.com/UspsToolsRestServices/rest/POLocator/findLocations", "@spider": "usps_collection_boxes", "addr:city": "ASHFIELD", "addr:country": "US", "addr:postcode": "01330", "addr:state": "MA", "addr:street_address": "258 MAIN ST", "amenity": "post_box", "collection_times": "Mo-Fr 16:30; Sa 12:30", "indoor": "yes", "note": "ON 12/24 AND 12/31, THIS BOX MAY BE COLLECTED AS EARLY AS 12 NOON.", "nsi_id": "unitedstatespostalservice-a77078", "operator": "United States Postal Service", "operator:short": "USPS", "operator:type": "public", "operator:wikidata": "Q668687", "ref": "0133000003"}, "type": "Feature"}
{"geometry": {"coordinates": [-72.23473, 42.593624], "type": "Point"}, "id": "da45lvkOW_8zKPds0KdGjjI6R9c=", "properties": {"@source_uri": "https://tools.usps.com/UspsToolsRestServices/rest/POLocator/findLocations", "@spider": "usps_collection_boxes", "addr:city": "ATHOL", "addr:country": "US", "addr:postcode": "01331", "addr:state": "MA", "addr:street_address": "242 MAIN ST", "amenity": "post_box", "collection_times": "Mo-Fr 17:00; Sa 15:00", "note": "ON 12/24 AND 12/31, THIS BOX MAY BE COLLECTED AS EARLY AS 12 NOON.", "nsi_id": "unitedstatespostalservice-a77078", "operator": "United States Postal Service", "operator:short": "USPS", "operator:type": "public", "operator:wikidata": "Q668687", "ref": "0133100002"}, "type": "Feature"}
{"geometry": {"coordinates": [-72.2352478, 42.603484], "type": "Point"}, "id": "T6rZM3yeznf7FNfSnR90VU0k1rI=", "properties": {"@source_uri": "https://tools.usps.com/UspsToolsRestServices/rest/POLocator/findLocations", "@spider": "usps_collection_boxes", "addr:city": "ATHOL", "addr:country": "US", "addr:postcode": "01331", "addr:state": "MA", "addr:street_address": "229 PINEDALE AVE", "amenity": "post_box", "collection_times": "Mo-Sa 12:00", "nsi_id": "unitedstatespostalservice-a77078", "operator": "United States Postal Service", "operator:short": "USPS", "operator:type": "public", "operator:wikidata": "Q668687", "ref": "0133100005"}, "type": "Feature"}
{"geometry": {"coordinates": [-72.230767, 42.59404], "type": "Point"}, "id": "EeieG76KEzOGqnKLx2OljdfrDYE=", "properties": {"@source_uri": "https://tools.usps.com/UspsToolsRestServices/rest/POLocator/findLocations", "@spider": "usps_collection_boxes", "addr:city": "ATHOL", "addr:country": "US", "addr:postcode": "01331", "addr:state": "MA", "addr:street_address": "444 MAIN ST", "amenity": "post_box", "collection_times": "Mo-Fr 15:30; Sa 09:00", "note": "ON 12/24 AND 12/31, THIS BOX MAY BE COLLECTED AS EARLY AS 12 NOON.", "nsi_id": "unitedstatespostalservice-a77078", "operator": "United States Postal Service", "operator:short": "USPS", "operator:type": "public", "operator:wikidata": "Q668687", "ref": "0133100008"}, "type": "Feature"}
{"geometry": {"coordinates": [-72.2296343, 42.59396], "type": "Point"}, "id": "bG0GyMJfORdqUSxw9k5PlGpgOqs=", "properties": {"@source_uri": "https://tools.usps.com/UspsToolsRestServices/rest/POLocator/findLocations", "@spider": "usps_collection_boxes", "addr:city": "ATHOL", "addr:country": "US", "addr:postcode": "01331", "addr:state": "MA", "addr:street_address": "513 MAIN ST", "amenity": "post_box", "collection_times": "Mo-Fr 15:30; Sa 09:00", "note": "ON 12/24 AND 12/31, THIS BOX MAY BE COLLECTED AS EARLY AS 12 NOON.", "nsi_id": "unitedstatespostalservice-a77078", "operator": "United States Postal Service", "operator:short": "USPS", "operator:type": "public", "operator:wikidata": "Q668687", "ref": "0133100009"}, "type": "Feature"}
{"geometry": {"coordinates": [-72.2281284, 42.593924], "type": "Point"}, "id": "1gknHuC-TKj5R0uBuP-IKdXqXq0=", "properties": {"@source_uri": "https://tools.usps.com/UspsToolsRestServices/rest/POLocator/findLocations", "@spider": "usps_collection_boxes", "addr:city": "ATHOL", "addr:country": "US", "addr:postcode": "01331", "addr:state": "MA", "addr:street_address": "584 MAIN ST", "amenity": "post_box", "collection_times": "Mo-Fr 15:30; Sa 09:00", "note": "ON 12/24 AND 12/31, THIS BOX MAY BE COLLECTED AS EARLY AS 12 NOON.", "nsi_id": "unitedstatespostalservice-a77078", "operator": "United States Postal Service", "operator:short": "USPS", "operator:type": "public", "operator:wikidata": "Q668687", "ref": "0133100011"}, "type": "Feature"}
{"geometry": {"coordinates": [-72.2160266, 42.590045], "type": "Point"}, "id": "k_YEnjcIxMWo6Q34QHt8Xoia0TE=", "properties": {"@source_uri": "https://tools.usps.com/UspsToolsRestServices/rest/POLocator/findLocations", "@spider": "usps_collection_boxes", "addr:city": "ATHOL", "addr:country": "US", "addr:postcode": "01331", "addr:state": "MA", "addr:street_address": "1497 MAIN ST", "amenity": "post_box", "collection_times": "Mo-Sa 10:00", "nsi_id": "unitedstatespostalservice-a77078", "operator": "United States Postal Service", "operator:short": "USPS", "operator:type": "public", "operator:wikidata": "Q668687", "ref": "0133100018"}, "type": "Feature"}
{"geometry": {"coordinates": [-72.262232, 42.581891], "type": "Point"}, "id": "dOlQkeCAfDGIespPxE-2DysKTCQ=", "properties": {"@source_uri": "https://tools.usps.com/UspsToolsRestServices/rest/POLocator/findLocations", "@spider": "usps_collection_boxes", "addr:city": "ATHOL", "addr:country": "US", "addr:postcode": "01331", "addr:state": "MA", "addr:street_address": "150 NEW ATHOL RD", "amenity": "post_box", "collection_times": "Mo-Sa 10:00", "nsi_id": "unitedstatespostalservice-a77078", "operator": "United States Postal Service", "operator:short": "USPS", "operator:type": "public", "operator:wikidata": "Q668687", "ref": "0133100023"}, "type": "Feature"}
{"geometry": {"coordinates": [-72.1322435544, 42.5490664726], "type": "Point"}, "id": "7atiZ0y04nU0c1Ko8ZDiO_gLeMs=", "properties": {"@source_uri": "https://tools.usps.com/UspsToolsRestServices/rest/POLocator/findLocations", "@spider": "usps_collection_boxes", "addr:city": "ATHOL", "addr:country": "US", "addr:postcode": "01331", "addr:state": "MA", "addr:street_address": "50 THE CMN", "amenity": "post_box", "collection_times": "Mo-Sa 10:00", "nsi_id": "unitedstatespostalservice-a77078", "operator": "United States Postal Service", "operator:short": "USPS", "operator:type": "public", "operator:wikidata": "Q668687", "ref": "0133100026"}, "type": "Feature"}
{"geometry": {"coordinates": [-72.23473, 42.593624], "type": "Point"}, "id": "4ZubFwVKRteysaBQWxsFt8rKO3Q=", "properties": {"@source_uri": "https://tools.usps.com/UspsToolsRestServices/rest/POLocator/findLocations", "@spider": "usps_collection_boxes", "addr:city": "ATHOL", "addr:country": "US", "addr:postcode": "01331", "addr:state": "MA", "addr:street_address": "242 MAIN ST", "amenity": "post_box", "collection_times": "Mo-Fr 17:00; Sa 16:15", "indoor": "yes", "note": "ON 12/24 AND 12/31, THIS BOX MAY BE COLLECTED AS EARLY AS 12 NOON.", "nsi_id": "unitedstatespostalservice-a77078", "operator": "United States Postal Service", "operator:short": "USPS", "operator:type": "public", "operator:wikidata": "Q668687", "ref": "0133100027"}, "type": "Feature"}
{"geometry": {"coordinates": [-72.234475779, 42.593682329], "type": "Point"}, "id": "g2oaBj1MOY7uzV7rsbsL4YJv6DE=", "properties": {"@source_uri": "https://tools.usps.com/UspsToolsRestServices/rest/POLocator/findLocations", "@spider": "usps_collection_boxes", "addr:city": "ATHOL", "addr:country": "US", "addr:postcode": "01331", "addr:state": "MA", "addr:street_address": "242 MAIN ST", "amenity": "post_box", "collection_times": "Mo-Fr 17:00; Sa 14:00", "indoor": "yes", "note": "ON 12/24 AND 12/31, THIS BOX MAY BE COLLECTED AS EARLY AS 12 NOON.", "nsi_id": "unitedstatespostalservice-a77078", "operator": "United States Postal Service", "operator:short": "USPS", "operator:type": "public", "operator:wikidata": "Q668687", "ref": "0133100029"}, "type": "Feature"}
{"geometry": {"coordinates": [-72.5499828, 42.671965], "type": "Point"}, "id": "G7ztMbtNxqA3-lyrRx9qh6FmzIY=", "properties": {"@source_uri": "https://tools.usps.com/UspsToolsRestServices/rest/POLocator/findLocations", "@spider": "usps_collection_boxes", "addr:city": "BERNARDSTON", "addr:country": "US", "addr:postcode": "01337", "addr:state": "MA", "addr:street_address": "9 CENTER ST", "amenity": "post_box", "collection_times": "Mo-Fr 15:45; Sa 11:30", "note": "ON 12/24 AND 12/31, THIS BOX MAY BE COLLECTED AS EARLY AS 12 NOON.", "nsi_id": "unitedstatespostalservice-a77078", "operator": "United States Postal Service", "operator:short": "USPS", "operator:type": "public", "operator:wikidata": "Q668687", "ref": "0133700002"}, "type": "Feature"}
{"geometry": {"coordinates": [-72.550015, 42.671418], "type": "Point"}, "id": "aLIqMmkCCinbSx4BNFucq3u3Wac=", "properties": {"@source_uri": "https://tools.usps.com/UspsToolsRestServices/rest/POLocator/findLocations", "@spider": "usps_collection_boxes", "addr:city": "BERNARDSTON", "addr:country": "US", "addr:postcode": "01337", "addr:state": "MA", "addr:street_address": "9 CENTER ST", "amenity": "post_box", "collection_times": "Mo-Fr 15:45; Sa 11:30", "indoor": "yes", "note": "ON 12/24 AND 12/31, THIS BOX MAY BE COLLECTED AS EARLY AS 12 NOON.", "nsi_id": "unitedstatespostalservice-a77078", "operator": "United States Postal Service", "operator:short": "USPS", "operator:type": "public", "operator:wikidata": "Q668687", "ref": "0133700003"}, "type": "Feature"}
{"geometry": {"coordinates": [-72.550013221, 42.671854938], "type": "Point"}, "id": "13ITUR--q4n3S5yFBO1zISbKK6I=", "properties": {"@source_uri": "https://tools.usps.com/UspsToolsRestServices/rest/POLocator/findLocations", "@spider": "usps_collection_boxes", "addr:city": "BERNARDSTON", "addr:country": "US", "addr:postcode": "01337", "addr:state": "MA", "addr:street_address": "9 CENTER ST", "amenity": "post_box", "collection_times": "Mo-Fr 16:00; Sa 11:30", "indoor": "yes", "note": "ON 12/24 AND 12/31, THIS BOX MAY BE COLLECTED AS EARLY AS 12 NOON.", "nsi_id": "unitedstatespostalservice-a77078", "operator": "United States Postal Service", "operator:short": "USPS", "operator:type": "public", "operator:wikidata": "Q668687", "ref": "0133700004"}, "type": "Feature"}
{"geometry": {"coordinates": [-72.799295, 42.58359], "type": "Point"}, "id": "yU5qbKGP9z4VKQmn6D1qEnRbP80=", "properties": {"@source_uri": "https://tools.usps.com/UspsToolsRestServices/rest/POLocator/findLocations", "@spider": "usps_collection_boxes", "addr:city": "BUCKLAND", "addr:country": "US", "addr:postcode": "01338", "addr:state": "MA", "addr:street_address": "67 UPPER ST", "amenity": "post_box", "collection_times": "Mo-Fr 12:00; Sa 11:15", "nsi_id": "unitedstatespostalservice-a77078", "operator": "United States Postal Service", "operator:short": "USPS", "operator:type": "public", "operator:wikidata": "Q668687", "ref": "0133800000"}, "type": "Feature"}
{"geometry": {"coordinates": [-72.799305, 42.58363], "type": "Point"}, "id": "Wu5UBdXoWF4K7CzAGzzrfqFi1I8=", "properties": {"@source_uri": "https://tools.usps.com/UspsToolsRestServices/rest/POLocator/findLocations", "@spider": "usps_collection_boxes", "addr:city": "BUCKLAND", "addr:country": "US", "addr:postcode": "01338", "addr:state": "MA", "addr:street_address": "67 UPPER ST", "amenity": "post_box", "collection_times": "Mo-Fr 12:00; Sa 11:15", "indoor": "yes", "nsi_id": "unitedstatespostalservice-a77078", "operator": "United States Postal Service", "operator:short": "USPS", "operator:type": "public", "operator:wikidata": "Q668687", "ref": "0133800001"}, "type": "Feature"}
{"geometry": {"coordinates": [-72.799305, 42.58363], "type": "Point"}, "id": "hQq4UrD7kXezEFdPfEW7Mrf18mk=", "properties": {"@source_uri": "https://tools.usps.com/UspsToolsRestServices/rest/POLocator/findLocations", "@spider": "usps_collection_boxes", "addr:city": "BUCKLAND", "addr:country": "US", "addr:postcode": "01338", "addr:state": "MA", "addr:street_address": "67 UPPER ST", "amenity": "post_box", "collection_times": "Mo-Fr 12:00; Sa 11:15", "indoor": "yes", "nsi_id": "unitedstatespostalservice-a77078", "operator": "United States Postal Service", "operator:short": "USPS", "operator:type": "public", "operator:wikidata": "Q668687", "ref": "0133800002"}, "type": "Feature"}
{"geometry": {"coordinates": [-72.799624316, 42.583151548], "type": "Point"}, "id": "aKNmWkkSL4jZTCpx4Tb2bZEWBuY=", "properties": {"@source_uri": "https://tools.usps.com/UspsToolsRestServices/rest/POLocator/findLocations", "@spider": "usps_collection_boxes", "addr:city": "BUCKLAND", "addr:country": "US", "addr:postcode": "01338", "addr:state": "MA", "addr:street_address": "67 UPPER ST", "amenity": "post_box", "collection_times": "Mo-Fr 12:00; Sa 10:45", "indoor": "yes", "nsi_id": "unitedstatespostalservice-a77078", "operator": "United States Postal Service", "operator:short": "USPS", "operator:type": "public", "operator:wikidata": "Q668687", "ref": "0133800003"}, "type": "Feature"}
{"geometry": {"coordinates": [-72.886312, 42.627991], "type": "Point"}, "id": "7YV-4NH8ZE91zul8T9_y-SDFfgc=", "properties": {"@source_uri": "https://tools.usps.com/UspsToolsRestServices/rest/POLocator/findLocations", "@spider": "usps_collection_boxes", "addr:city": "CHARLEMONT", "addr:country": "US", "addr:postcode": "01339", "addr:state": "MA", "addr:street_address": "90-3 MAIN ST", "amenity": "post_box", "collection_times": "Mo-Fr 16:45; Sa 11:45", "note": "ON 12/24 AND 12/31, THIS BOX MAY BE COLLECTED AS EARLY AS 12 NOON.", "nsi_id": "unitedstatespostalservice-a77078", "operator": "United States Postal Service", "operator:short": "USPS", "operator:type": "public", "operator:wikidata": "Q668687", "ref": "0133900002"}, "type": "Feature"}
{"geometry": {"coordinates": [-72.886411, 42.62799], "type": "Point"}, "id": "YK0GcA6O2SpklOmarOojpOEi3PQ=", "properties": {"@source_uri": "https://tools.usps.com/UspsToolsRestServices/rest/POLocator/findLocations", "@spider": "usps_collection_boxes", "addr:city": "CHARLEMONT", "addr:country": "US", "addr:postcode": "01339", "addr:state": "MA", "addr:street_address": "90-3 MAIN ST", "amenity": "post_box", "collection_times": "Mo-Fr 16:45; Sa 11:30", "indoor": "yes", "note": "ON 12/24 AND 12/31, THIS BOX MAY BE COLLECTED AS EARLY AS 12 NOON.", "nsi_id": "unitedstatespostalservice-a77078", "operator": "United States Postal Service", "operator:short": "USPS", "operator:type": "public", "operator:wikidata": "Q668687", "ref": "0133900003"}, "type": "Feature"}
{"geometry": {"coordinates": [-72.8217504, 42.673657], "type": "Point"}, "id": "ZT5yTy7uTVVFbK0q-MUhm9JIbg4=", "properties": {"@source_uri": "https://tools.usps.com/UspsToolsRestServices/rest/POLocator/findLocations", "@spider": "usps_collection_boxes", "addr:city": "CHARLEMONT", "addr:country": "US", "addr:postcode": "01339", "addr:state": "MA", "addr:street_address": "1 E MAIN ST", "amenity": "post_box", "collection_times": "Mo-Sa 13:00", "note": "ON 12/24 AND 12/31, THIS BOX MAY BE COLLECTED AS EARLY AS 12 NOON.", "nsi_id": "unitedstatespostalservice-a77078", "operator": "United States Postal Service", "operator:short": "USPS", "operator:type": "public", "operator:wikidata": "Q668687", "ref": "0133900005"}, "type": "Feature"}
{"geometry": {"coordinates": [-72.876876978, 42.627537798], "type": "Point"}, "id": "8N5BfDSFF9JNpYI8GwqLyDBdBUM=", "properties": {"@source_uri": "https://tools.usps.com/UspsToolsRestServices/rest/POLocator/findLocations", "@spider": "usps_collection_boxes", "addr:city": "CHARLEMONT", "addr:country": "US", "addr:postcode": "01339", "addr:state": "MA", "addr:street_address": "90-3 MAIN ST", "amenity": "post_box", "collection_times": "Mo-Fr 16:00; Sa 11:00", "indoor": "yes", "note": "ON 12/24 AND 12/31, THIS BOX MAY BE COLLECTED AS EARLY AS 12 NOON.", "nsi_id": "unitedstatespostalservice-a77078", "operator": "United States Postal Service", "operator:short": "USPS", "operator:type": "public", "operator:wikidata": "Q668687", "ref": "0133900006"}, "type": "Feature"}
{"geometry": {"coordinates": [-72.7162537, 42.6583265], "type": "Point"}, "id": "iNIElVv_UNB-D-iOJM3SrthhQz4=", "properties": {"@source_uri": "https://tools.usps.com/UspsToolsRestServices/rest/POLocator/findLocations", "@spider": "usps_collection_boxes", "addr:city": "COLRAIN", "addr:country": "US", "addr:postcode": "01340", "addr:state": "MA", "addr:street_address": "16 MAIN RD", "amenity": "post_box", "collection_times": "Mo-Fr 16:15; Sa 12:00", "note": "ON 12/24 AND 12/31, THIS BOX MAY BE COLLECTED AS EARLY AS 12 NOON.", "nsi_id": "unitedstatespostalservice-a77078", "operator": "United States Postal Service", "operator:short": "USPS", "operator:type": "public", "operator:wikidata": "Q668687", "ref": "0134000001"}, "type": "Feature"}
{"geometry": {"coordinates": [-72.700092, 42.672666], "type": "Point"}, "id": "NSisC5Lwiq-C5MVsb9yt1huw3sQ=", "properties": {"@source_uri": "https://tools.usps.com/UspsToolsRestServices/rest/POLocator/findLocations", "@spider": "usps_collection_boxes", "addr:city": "COLRAIN", "addr:country": "US", "addr:postcode": "01340", "addr:state": "MA", "addr:street_address": "16 MAIN RD LBBY", "amenity": "post_box", "collection_times": "Mo-Fr 16:15; Sa 12:00", "indoor": "yes", "note": "ON 12/24 AND 12/31, THIS BOX MAY BE COLLECTED AS EARLY AS 12 NOON.", "nsi_id": "unitedstatespostalservice-a77078", "operator": "United States Postal Service", "operator:short": "USPS", "operator:type": "public", "operator:wikidata": "Q668687", "ref": "0134000002"}, "type": "Feature"}
{"geometry": {"coordinates": [-72.700144092, 42.672656558], "type": "Point"}, "id": "JPSUBFKdQp-mZmyuWuRrL9Ntbck=", "properties": {"@source_uri": "https://tools.usps.com/UspsToolsRestServices/rest/POLocator/findLocations", "@spider": "usps_collection_boxes", "addr:city": "COLRAIN", "addr:country": "US", "addr:postcode": "01340", "addr:state": "MA", "addr:street_address": "16 MAIN RD", "amenity": "post_box", "collection_times": "Mo-Fr 16:00; Sa 12:00", "indoor": "yes", "note": "ON 12/24 AND 12/31, THIS BOX MAY BE COLLECTED AS EARLY AS 12 NOON.", "nsi_id": "unitedstatespostalservice-a77078", "operator": "United States Postal Service", "operator:short": "USPS", "operator:type": "public", "operator:wikidata": "Q668687", "ref": "0134000003"}, "type": "Feature"}
{"geometry": {"coordinates": [-72.700714, 42.509332], "type": "Point"}, "id": "xQD5P-wJhrbfBrQP7BxS0YlSzhw=", "properties": {"@source_uri": "https://tools.usps.com/UspsToolsRestServices/rest/POLocator/findLocations", "@spider": "usps_collection_boxes", "addr:city": "CONWAY", "addr:country": "US", "addr:postcode": "01341", "addr:state": "MA", "addr:street_address": "38 RIVER ST", "amenity": "post_box", "collection_times": "Mo-Fr 16:45; Sa 11:45", "note": "ON 12/24 AND 12/31, THIS BOX MAY BE COLLECTED AS EARLY AS 12 NOON.", "nsi_id": "unitedstatespostalservice-a77078", "operator": "United States Postal Service", "operator:short": "USPS", "operator:type": "public", "operator:wikidata": "Q668687", "ref": "0134100000"}, "type": "Feature"}
{"geometry": {"coordinates": [-72.700644, 42.50934], "type": "Point"}, "id": "1EJnTN46fv-1iVRLa4MqddnKXUQ=", "properties": {"@source_uri": "https://tools.usps.com/UspsToolsRestServices/rest/POLocator/findLocations", "@spider": "usps_collection_boxes", "addr:city": "CONWAY", "addr:country": "US", "addr:postcode": "01341", "addr:state": "MA", "addr:street_address": "38 RIVER ST", "amenity": "post_box", "collection_times": "Mo-Fr 16:45; Sa 11:45", "indoor": "yes", "note": "ON 12/24 AND 12/31, THIS BOX MAY BE COLLECTED AS EARLY AS 12 NOON.", "nsi_id": "unitedstatespostalservice-a77078", "operator": "United States Postal Service", "operator:short": "USPS", "operator:type": "public", "operator:wikidata": "Q668687", "ref": "0134100001"}, "type": "Feature"}
{"geometry": {"coordinates": [-72.703127273, 42.508039704], "type": "Point"}, "id": "mN431g9CIM34XvqGyfYxT2m_2M0=", "properties": {"@source_uri": "https://tools.usps.com/UspsToolsRestServices/rest/POLocator/findLocations", "@spider": "usps_collection_boxes", "addr:city": "CONWAY", "addr:country": "US", "addr:postcode": "01341", "addr:state": "MA", "addr:street_address": "38 RIVER ST", "amenity": "post_box", "collection_times": "Mo-Fr 16:30; Sa 11:30", "indoor": "yes", "note": "ON 12/24 AND 12/31, THIS BOX MAY BE COLLECTED AS EARLY AS 12 NOON.", "nsi_id": "unitedstatespostalservice-a77078", "operator": "United States Postal Service", "operator:short": "USPS", "operator:type": "public", "operator:wikidata": "Q668687", "ref": "0134100003"}, "type": "Feature"}
{"geometry": {"coordinates": [-72.6032059, 42.543266], "type": "Point"}, "id": "2vT5_LIwawsiInF5HmI0DL0om80=", "properties": {"@source_uri": "https://tools.usps.com/UspsToolsRestServices/rest/POLocator/findLocations", "@spider": "usps_collection_boxes", "addr:city": "DEERFIELD", "addr:country": "US", "addr:postcode": "01342", "addr:state": "MA", "addr:street_address": "75 OLD MAIN ST", "amenity": "post_box", "collection_times": "Mo-Fr 16:30; Sa 11:30", "note": "ON 12/24 AND 12/31, THIS BOX MAY BE COLLECTED AS EARLY AS 12 NOON.", "nsi_id": "unitedstatespostalservice-a77078", "operator": "United States Postal Service", "operator:short": "USPS", "operator:type": "public", "operator:wikidata": "Q668687", "ref": "0134200002"}, "type": "Feature"}
{"geometry": {"coordinates": [-72.6032059, 42.543266], "type": "Point"}, "id": "Q2ZnVSvbtkzw8tJjNAe7T8WKWYk=", "properties": {"@source_uri": "https://tools.usps.com/UspsToolsRestServices/rest/POLocator/findLocations", "@spider": "usps_collection_boxes", "addr:city": "DEERFIELD", "addr:country": "US", "addr:postcode": "01342", "addr:state": "MA", "addr:street_address": "75 OLD MAIN ST", "amenity": "post_box", "collection_times": "Mo-Fr 16:30; Sa 11:30", "indoor": "yes", "note": "ON 12/24 AND 12/31, THIS BOX MAY BE COLLECTED AS EARLY AS 12 NOON.", "nsi_id": "unitedstatespostalservice-a77078", "operator": "United States Postal Service", "operator:short": "USPS", "operator:type": "public", "operator:wikidata": "Q668687", "ref": "0134200003"}, "type": "Feature"}
{"geometry": {"coordinates": [-72.6032059, 42.543266], "type": "Point"}, "id": "B4vYXYZTRnFnW4FK0lTFTEg498o=", "properties": {"@source_uri": "https://tools.usps.com/UspsToolsRestServices/rest/POLocator/findLocations", "@spider": "usps_collection_boxes", "addr:city": "DEERFIELD", "addr:country": "US", "addr:postcode": "01342", "addr:state": "MA", "addr:street_address": "75 OLD MAIN ST", "amenity": "post_box", "collection_times": "Mo-Fr 16:30; Sa 11:30", "indoor": "yes", "note": "ON 12/24 AND 12/31, THIS BOX MAY BE COLLECTED AS EARLY AS 12 NOON.", "nsi_id": "unitedstatespostalservice-a77078", "operator": "United States Postal Service", "operator:short": "USPS", "operator:type": "public", "operator:wikidata": "Q668687", "ref": "0134200004"}, "type": "Feature"}
{"geometry": {"coordinates": [-72.4899163, 42.585999], "type": "Point"}, "id": "4g1uWjxAVpEyQp22hL_dnNmUwFs=", "properties": {"@source_uri": "https://tools.usps.com/UspsToolsRestServices/rest/POLocator/findLocations", "@spider": "usps_collection_boxes", "addr:city": "ERVING", "addr:country": "US", "addr:postcode": "01344", "addr:state": "MA", "addr:street_address": "54 FRENCH KING HWY", "amenity": "post_box", "collection_times": "Mo-Fr 16:00; Sa 11:00", "note": "ON 12/24 AND 12/31, THIS BOX MAY BE COLLECTED AS EARLY AS 12 NOON.", "nsi_id": "unitedstatespostalservice-a77078", "operator": "United States Postal Service", "operator:short": "USPS", "operator:type": "public", "operator:wikidata": "Q668687", "ref": "0134400000"}, "type": "Feature"}
{"geometry": {"coordinates": [-72.3983339, 42.600248], "type": "Point"}, "id": "y3yde5WptGvTwsl023Yhn74PZdk=", "properties": {"@source_uri": "https://tools.usps.com/UspsToolsRestServices/rest/POLocator/findLocations", "@spider": "usps_collection_boxes", "addr:city": "ERVING", "addr:country": "US", "addr:postcode": "01344", "addr:state": "MA", "addr:street_address": "12 E MAIN ST", "amenity": "post_box", "collection_times": "Mo-Sa 09:00", "nsi_id": "unitedstatespostalservice-a77078", "operator": "United States Postal Service", "operator:short": "USPS", "operator:type": "public", "operator:wikidata": "Q668687", "ref": "0134400001"}, "type": "Feature"}
{"geometry": {"coordinates": [-72.489698, 42.58639], "type": "Point"}, "id": "SVAyPXwhdcVZQVR8S2dBZdg0c-M=", "properties": {"@source_uri": "https://tools.usps.com/UspsToolsRestServices/rest/POLocator/findLocations", "@spider": "usps_collection_boxes", "addr:city": "ERVING", "addr:country": "US", "addr:postcode": "01344", "addr:state": "MA", "addr:street_address": "54 FRENCH KING HWY", "amenity": "post_box", "collection_times": "Mo-Fr 13:00; Sa 11:00", "indoor": "yes", "note": "ON 12/24 AND 12/31, THIS BOX MAY BE COLLECTED AS EARLY AS 12 NOON.", "nsi_id": "unitedstatespostalservice-a77078", "operator": "United States Postal Service", "operator:short": "USPS", "operator:type": "public", "operator:wikidata": "Q668687", "ref": "0134400002"}, "type": "Feature"}
{"geometry": {"coordinates": [-72.489680568, 42.585989585], "type": "Point"}, "id": "Dn3xRNQ5kOrXPV6M2eaI5Zo8AnI=", "properties": {"@source_uri": "https://tools.usps.com/UspsToolsRestServices/rest/POLocator/findLocations", "@spider": "usps_collection_boxes", "addr:city": "ERVING", "addr:country": "US", "addr:postcode": "01344", "addr:state": "MA", "addr:street_address": "54 FRENCH KING HWY", "amenity": "post_box", "collection_times": "Mo-Fr 12:30; Sa 10:30", "indoor": "yes", "note": "ON 12/24 AND 12/31, THIS BOX MAY BE COLLECTED AS EARLY AS 12 NOON.", "nsi_id": "unitedstatespostalservice-a77078", "operator": "United States Postal Service", "operator:short": "USPS", "operator:type": "public", "operator:wikidata": "Q668687", "ref": "0134400003"}, "type": "Feature"}
{"geometry": {"coordinates": [-72.5151516, 42.557016], "type": "Point"}, "id": "TqAXy7CK2uHktxt-2NvcrexDpIk=", "properties": {"@source_uri": "https://tools.usps.com/UspsToolsRestServices/rest/POLocator/findLocations", "@spider": "usps_collection_boxes", "addr:city": "LAKE PLEASANT", "addr:country": "US", "addr:postcode": "01347", "addr:state": "MA", "addr:street_address": "5 MONTAGUE AVE", "amenity": "post_box", "collection_times": "Mo-Fr 16:15; Sa 11:45", "note": "ON 12/24 AND 12/31, THIS BOX MAY BE COLLECTED AS EARLY AS 12 NOON.", "nsi_id": "unitedstatespostalservice-a77078", "operator": "United States Postal Service", "operator:short": "USPS", "operator:type": "public", "operator:wikidata": "Q668687", "ref": "0134700000"}, "type": "Feature"}
{"geometry": {"coordinates": [-72.515174347, 42.557069005], "type": "Point"}, "id": "mV2m1AQnti0vFkZz97WRC-vBFfQ=", "properties": {"@source_uri": "https://tools.usps.com/UspsToolsRestServices/rest/POLocator/findLocations", "@spider": "usps_collection_boxes", "addr:city": "LAKE PLEASANT", "addr:country": "US", "addr:postcode": "01347", "addr:state": "MA", "addr:street_address": "5 MONTAGUE AVE", "amenity": "post_box", "collection_times": "Mo-Fr 16:00; Sa 11:30", "indoor": "yes", "note": "ON 12/24 AND 12/31, THIS BOX MAY BE COLLECTED AS EARLY AS 12 NOON.", "nsi_id": "unitedstatespostalservice-a77078", "operator": "United States Postal Service", "operator:short": "USPS", "operator:type": "public", "operator:wikidata": "Q668687", "ref": "0134700001"}, "type": "Feature"}
{"geometry": {"coordinates": [-72.4944826, 42.578245], "type": "Point"}, "id": "ClmhObOrBj2Js9WuZWZyAfnTn8I=", "properties": {"@source_uri": "https://tools.usps.com/UspsToolsRestServices/rest/POLocator/findLocations", "@spider": "usps_collection_boxes", "addr:city": "MILLERS FALLS", "addr:country": "US", "addr:postcode": "01349", "addr:state": "MA", "addr:street_address": "23 BRIDGE ST", "amenity": "post_box", "collection_times": "Mo-Fr 14:30; Sa 09:00", "note": "ON 12/24 AND 12/31, THIS BOX MAY BE COLLECTED AS EARLY AS 12 NOON.", "nsi_id": "unitedstatespostalservice-a77078", "operator": "United States Postal Service", "operator:short": "USPS", "operator:type": "public", "operator:wikidata": "Q668687", "ref": "0134900001"}, "type": "Feature"}
{"geometry": {"coordinates": [-72.9417316, 42.7216422], "type": "Point"}, "id": "acMPkjnI1cfgAPMhY9P5PzaEoVE=", "properties": {"@source_uri": "https://tools.usps.com/UspsToolsRestServices/rest/POLocator/findLocations", "@spider": "usps_collection_boxes", "addr:city": "MONROE BRIDGE", "addr:country": "US", "addr:postcode": "01350", "addr:state": "MA", "addr:street_address": "3C SCHOOL ST", "amenity": "post_box", "collection_times": "Mo-Fr 13:00; Sa 12:00", "note": "ON 12/24 AND 12/31, THIS BOX MAY BE COLLECTED AS EARLY AS 12 NOON.", "nsi_id": "unitedstatespostalservice-a77078", "operator": "United States Postal Service", "operator:short": "USPS", "operator:type": "public", "operator:wikidata": "Q668687", "ref": "0135000000"}, "type": "Feature"}
{"geometry": {"coordinates": [-72.5318093, 42.533401], "type": "Point"}, "id": "2Cissu6W557_CM2HAytQub-FQVU=", "properties": {"@source_uri": "https://tools.usps.com/UspsToolsRestServices/rest/POLocator/findLocations", "@spider": "usps_collection_boxes", "addr:city": "MONTAGUE", "addr:country": "US", "addr:postcode": "01351", "addr:state": "MA", "addr:street_address": "53 MAIN ST", "amenity": "post_box", "collection_times": "Mo-Fr 16:30; Sa 11:30", "note": "ON 12/24 AND 12/31, THIS BOX MAY BE COLLECTED AS EARLY AS 12 NOON.", "nsi_id": "unitedstatespostalservice-a77078", "operator": "United States Postal Service", "operator:short": "USPS", "operator:type": "public", "operator:wikidata": "Q668687", "ref": "0135100002"}, "type": "Feature"}
{"geometry": {"coordinates": [-72.532006673, 42.533435765], "type": "Point"}, "id": "-NSMrSZamfgIDhv7w_4Mtphdg8c=", "properties": {"@source_uri": "https://tools.usps.com/UspsToolsRestServices/rest/POLocator/findLocations", "@spider": "usps_collection_boxes", "addr:city": "MONTAGUE", "addr:country": "US", "addr:postcode": "01351", "addr:state": "MA", "addr:street_address": "53 MAIN ST", "amenity": "post_box", "collection_times": "Mo-Fr 16:15; Sa 11:30", "indoor": "yes", "note": "ON 12/24 AND 12/31, THIS BOX MAY BE COLLECTED AS EARLY AS 12 NOON.", "nsi_id": "unitedstatespostalservice-a77078", "operator": "United States Postal Service", "operator:short": "USPS", "operator:type": "public", "operator:wikidata": "Q668687", "ref": "0135100005"}, "type": "Feature"}
{"geometry": {"coordinates": [-72.4528339, 42.702496], "type": "Point"}, "id": "LWeqiu4fdY9mQxLT0IpxzLNxsIQ=", "properties": {"@source_uri": "https://tools.usps.com/UspsToolsRestServices/rest/POLocator/findLocations", "@spider": "usps_collection_boxes", "addr:city": "NORTHFIELD", "addr:country": "US", "addr:postcode": "01360", "addr:state": "MA", "addr:street_address": "136 MAIN ST", "amenity": "post_box", "collection_times": "Mo-Fr 16:00; Sa 12:00", "note": "ON 12/24 AND 12/31, THIS BOX MAY BE COLLECTED AS EARLY AS 12 NOON.", "nsi_id": "unitedstatespostalservice-a77078", "operator": "United States Postal Service", "operator:short": "USPS", "operator:type": "public", "operator:wikidata": "Q668687", "ref": "0136000000"}, "type": "Feature"}
{"geometry": {"coordinates": [-72.4497542, 42.706724], "type": "Point"}, "id": "gW8gikmIScs-iAn45MpHoZ12DhY=", "properties": {"@source_uri": "https://tools.usps.com/UspsToolsRestServices/rest/POLocator/findLocations", "@spider": "usps_collection_boxes", "addr:city": "NORTHFIELD", "addr:country": "US", "addr:postcode": "01360", "addr:state": "MA", "addr:street_address": "168 MAIN ST", "amenity": "post_box", "collection_times": "Mo-Sa 10:00", "nsi_id": "unitedstatespostalservice-a77078", "operator": "United States Postal Service", "operator:short": "USPS", "operator:type": "public", "operator:wikidata": "Q668687", "ref": "0136000003"}, "type": "Feature"}
{"geometry": {"coordinates": [-72.4558544, 42.6944], "type": "Point"}, "id": "vwmREKFuaX5uN_eo9AvrW1Z4ge0=", "properties": {"@source_uri": "https://tools.usps.com/UspsToolsRestServices/rest/POLocator/findLocations", "@spider": "usps_collection_boxes", "addr:city": "NORTHFIELD", "addr:country": "US", "addr:postcode": "01360", "addr:state": "MA", "addr:street_address": "75 MAIN ST", "amenity": "post_box", "collection_times": "Mo-Sa 10:00", "nsi_id": "unitedstatespostalservice-a77078", "operator": "United States Postal Service", "operator:short": "USPS", "operator:type": "public", "operator:wikidata": "Q668687", "ref": "0136000005"}, "type": "Feature"}
{"geometry": {"coordinates": [-72.4529876, 42.702455], "type": "Point"}, "id": "8BWcigDAAXUOBY1FtrDvPA8aicU=", "properties": {"@source_uri": "https://tools.usps.com/UspsToolsRestServices/rest/POLocator/findLocations", "@spider": "usps_collection_boxes", "addr:city": "NORTHFIELD", "addr:country": "US", "addr:postcode": "01360", "addr:state": "MA", "addr:street_address": "136 MAIN ST", "amenity": "post_box", "collection_times": "Mo-Fr 16:45; Sa 12:00", "indoor": "yes", "note": "ON 12/24 AND 12/31, THIS BOX MAY BE COLLECTED AS EARLY AS 12 NOON.", "nsi_id": "unitedstatespostalservice-a77078", "operator": "United States Postal Service", "operator:short": "USPS", "operator:type": "public", "operator:wikidata": "Q668687", "ref": "0136000009"}, "type": "Feature"}
{"geometry": {"coordinates": [-72.4529259, 42.702424], "type": "Point"}, "id": "4no-U3E945yeyEY0_N7FyQ5gU3A=", "properties": {"@source_uri": "https://tools.usps.com/UspsToolsRestServices/rest/POLocator/findLocations", "@spider": "usps_collection_boxes", "addr:city": "NORTHFIELD", "addr:country": "US", "addr:postcode": "01360", "addr:state": "MA", "addr:street_address": "136 MAIN ST", "amenity": "post_box", "collection_times": "Mo-Fr 16:45; Sa 12:00", "indoor": "yes", "note": "ON 12/24 AND 12/31, THIS BOX MAY BE COLLECTED AS EARLY AS 12 NOON.", "nsi_id": "unitedstatespostalservice-a77078", "operator": "United States Postal Service", "operator:short": "USPS", "operator:type": "public", "operator:wikidata": "Q668687", "ref": "0136000011"}, "type": "Feature"}
{"geometry": {"coordinates": [-72.452514422, 42.702489817], "type": "Point"}, "id": "WgUtJna7Q4yzwvCYO-8ga7E1W3I=", "properties": {"@source_uri": "https://tools.usps.com/UspsToolsRestServices/rest/POLocator/findLocations", "@spider": "usps_collection_boxes", "addr:city": "NORTHFIELD", "addr:country": "US", "addr:postcode": "01360", "addr:state": "MA", "addr:street_address": "136 MAIN ST", "amenity": "post_box", "collection_times": "Mo-Fr 16:15; Sa 12:00", "indoor": "yes", "note": "ON 12/24 AND 12/31, THIS BOX MAY BE COLLECTED AS EARLY AS 12 NOON.", "nsi_id": "unitedstatespostalservice-a77078", "operator": "United States Postal Service", "operator:short": "USPS", "operator:type": "public", "operator:wikidata": "Q668687", "ref": "0136000012"}, "type": "Feature"}
{"geometry": {"coordinates": [-72.3040484, 42.590294], "type": "Point"}, "id": "LCdGW1Ty7V-rqkOX5Ji_fh6WHQU=", "properties": {"@source_uri": "https://tools.usps.com/UspsToolsRestServices/rest/POLocator/findLocations", "@spider": "usps_collection_boxes", "addr:city": "NEW SALEM", "addr:country": "US", "addr:postcode": "01364", "addr:state": "MA", "addr:street_address": "135 E MAIN ST", "amenity": "post_box", "collection_times": "Mo-Sa 09:30", "nsi_id": "unitedstatespostalservice-a77078", "operator": "United States Postal Service", "operator:short": "USPS", "operator:type": "public", "operator:wikidata": "Q668687", "ref": "0136400006"}, "type": "Feature"}
{"geometry": {"coordinates": [-72.3095919305, 42.5883486966], "type": "Point"}, "id": "0eW6V-hdeRs2lnoKJ_iNoQTPUCs=", "properties": {"@source_uri": "https://tools.usps.com/UspsToolsRestServices/rest/POLocator/findLocations", "@spider": "usps_collection_boxes", "addr:city": "NEW SALEM", "addr:country": "US", "addr:postcode": "01364", "addr:state": "MA", "addr:street_address": "72 S MAIN ST", "amenity": "post_box", "collection_times": "Mo-Fr 17:00; Sa 12:30", "note": "ON 12/24 AND 12/31, THIS BOX MAY BE COLLECTED AS EARLY AS 12 NOON.", "nsi_id": "unitedstatespostalservice-a77078", "operator": "United States Postal Service", "operator:short": "USPS", "operator:type": "public", "operator:wikidata": "Q668687", "ref": "0136400018"}, "type": "Feature"}
{"geometry": {"coordinates": [-72.332553, 42.504796], "type": "Point"}, "id": "Wio5RuwynsuloL3Tf_4cBd_f-1s=", "properties": {"@source_uri": "https://tools.usps.com/UspsToolsRestServices/rest/POLocator/findLocations", "@spider": "usps_collection_boxes", "addr:city": "NEW SALEM", "addr:country": "US", "addr:postcode": "01364", "addr:state": "MA", "addr:street_address": "410 DANIEL SHAYS HWY", "amenity": "post_box", "collection_times": "Mo-Sa 10:00", "nsi_id": "unitedstatespostalservice-a77078", "operator": "United States Postal Service", "operator:short": "USPS", "operator:type": "public", "operator:wikidata": "Q668687", "ref": "0136400021"}, "type": "Feature"}
{"geometry": {"coordinates": [-72.3380511, 42.682204], "type": "Point"}, "id": "BV8todqfuxrR4nxGDhIrurPqFPM=", "properties": {"@source_uri": "https://tools.usps.com/UspsToolsRestServices/rest/POLocator/findLocations", "@spider": "usps_collection_boxes", "addr:city": "NEW SALEM", "addr:country": "US", "addr:postcode": "01364", "addr:state": "MA", "addr:street_address": "12 ATHOL RD", "amenity": "post_box", "collection_times": "Mo-Sa 09:30", "nsi_id": "unitedstatespostalservice-a77078", "operator": "United States Postal Service", "operator:short": "USPS", "operator:type": "public", "operator:wikidata": "Q668687", "ref": "0136400022"}, "type": "Feature"}
{"geometry": {"coordinates": [-72.2842946, 42.588177], "type": "Point"}, "id": "IM2Kf1UbNdTd3zv9VUdZI3KIpKk=", "properties": {"@source_uri": "https://tools.usps.com/UspsToolsRestServices/rest/POLocator/findLocations", "@spider": "usps_collection_boxes", "addr:city": "NEW SALEM", "addr:country": "US", "addr:postcode": "01364", "addr:state": "MA", "addr:street_address": "555 E MAIN ST", "amenity": "post_box", "collection_times": "Mo-Sa 09:00", "nsi_id": "unitedstatespostalservice-a77078", "operator": "United States Postal Service", "operator:short": "USPS", "operator:type": "public", "operator:wikidata": "Q668687", "ref": "0136400026"}, "type": "Feature"}
{"geometry": {"coordinates": [-72.3095919305, 42.5883486966], "type": "Point"}, "id": "MtNjWClUUXzcB_trH0n5tn0cois=", "properties": {"@source_uri": "https://tools.usps.com/UspsToolsRestServices/rest/POLocator/findLocations", "@spider": "usps_collection_boxes", "addr:city": "NEW SALEM", "addr:country": "US", "addr:postcode": "01364", "addr:state": "MA", "addr:street_address": "72 S MAIN ST", "amenity": "post_box", "collection_times": "Mo-Fr 17:00; Sa 12:30", "indoor": "yes", "note": "ON 12/24 AND 12/31, THIS BOX MAY BE COLLECTED AS EARLY AS 12 NOON.", "nsi_id": "unitedstatespostalservice-a77078", "operator": "United States Postal Service", "operator:short": "USPS", "operator:type": "public", "operator:wikidata": "Q668687", "ref": "0136400027"}, "type": "Feature"}
{"geometry": {"coordinates": [-72.3095919305, 42.5883486966], "type": "Point"}, "id": "jd47_qvivhIUCV-fOvoKhLVsZ9o=", "properties": {"@source_uri": "https://tools.usps.com/UspsToolsRestServices/rest/POLocator/findLocations", "@spider": "usps_collection_boxes", "addr:city": "NEW SALEM", "addr:country": "US", "addr:postcode": "01364", "addr:state": "MA", "addr:street_address": "72 S MAIN ST", "amenity": "post_box", "collection_times": "Mo-Fr 17:00; Sa 12:30", "indoor": "yes", "note": "ON 12/24 AND 12/31, THIS BOX MAY BE COLLECTED AS EARLY AS 12 NOON.", "nsi_id": "unitedstatespostalservice-a77078", "operator": "United States Postal Service", "operator:short": "USPS", "operator:type": "public", "operator:wikidata": "Q668687", "ref": "0136400028"}, "type": "Feature"}
{"geometry": {"coordinates": [-72.3095919305, 42.5883486966], "type": "Point"}, "id": "Dhrq3i58wAORjg-ANVDbZHOnTNQ=", "properties": {"@source_uri": "https://tools.usps.com/UspsToolsRestServices/rest/POLocator/findLocations", "@spider": "usps_collection_boxes", "addr:city": "NEW SALEM", "addr:country": "US", "addr:postcode": "01364", "addr:state": "MA", "addr:street_address": "72 S MAIN ST", "amenity": "post_box", "collection_times": "Mo-Fr 17:00; Sa 12:00", "indoor": "yes", "note": "ON 12/24 AND 12/31, THIS BOX MAY BE COLLECTED AS EARLY AS 12 NOON.", "nsi_id": "unitedstatespostalservice-a77078", "operator": "United States Postal Service", "operator:short": "USPS", "operator:type": "public", "operator:wikidata": "Q668687", "ref": "0136400029"}, "type": "Feature"}
{"geometry": {"coordinates": [-72.1920617, 42.485667], "type": "Point"}, "id": "sgMu8xpu5M3zugPk2c2Iy-Ak9iU=", "properties": {"@source_uri": "https://tools.usps.com/UspsToolsRestServices/rest/POLocator/findLocations", "@spider": "usps_collection_boxes", "addr:city": "PETERSHAM", "addr:country": "US", "addr:postcode": "01366", "addr:state": "MA", "addr:street_address": "32 SPRING ST", "amenity": "post_box", "collection_times": "Mo-Fr 16:15; Sa 11:30", "note": "ON 12/24 AND 12/31, THIS BOX MAY BE COLLECTED AS EARLY AS 12 NOON.", "nsi_id": "unitedstatespostalservice-a77078", "operator": "United States Postal Service", "operator:short": "USPS", "operator:type": "public", "operator:wikidata": "Q668687", "ref": "0136600002"}, "type": "Feature"}
{"geometry": {"coordinates": [-72.1923241, 42.485831], "type": "Point"}, "id": "jvRlV7WPp_9bVAmZeQMlxkC3nfE=", "properties": {"@source_uri": "https://tools.usps.com/UspsToolsRestServices/rest/POLocator/findLocations", "@spider": "usps_collection_boxes", "addr:city": "PETERSHAM", "addr:country": "US", "addr:postcode": "01366", "addr:state": "MA", "addr:street_address": "32 SPRING ST", "amenity": "post_box", "collection_times": "Mo-Fr 16:15; Sa 11:30", "indoor": "yes", "note": "ON 12/24 AND 12/31, THIS BOX MAY BE COLLECTED AS EARLY AS 12 NOON.", "nsi_id": "unitedstatespostalservice-a77078", "operator": "United States Postal Service", "operator:short": "USPS", "operator:type": "public", "operator:wikidata": "Q668687", "ref": "0136600003"}, "type": "Feature"}
{"geometry": {"coordinates": [-72.1922936, 42.485825], "type": "Point"}, "id": "U5mgrIHp9LrvZGxjULzCAuWRHPI=", "properties": {"@source_uri": "https://tools.usps.com/UspsToolsRestServices/rest/POLocator/findLocations", "@spider": "usps_collection_boxes", "addr:city": "PETERSHAM", "addr:country": "US", "addr:postcode": "01366", "addr:state": "MA", "addr:street_address": "32 SPRING ST", "amenity": "post_box", "collection_times": "Mo-Fr 16:15; Sa 11:30", "indoor": "yes", "note": "ON 12/24 AND 12/31, THIS BOX MAY BE COLLECTED AS EARLY AS 12 NOON.", "nsi_id": "unitedstatespostalservice-a77078", "operator": "United States Postal Service", "operator:short": "USPS", "operator:type": "public", "operator:wikidata": "Q668687", "ref": "0136600004"}, "type": "Feature"}
{"geometry": {"coordinates": [-72.192011065, 42.485604724], "type": "Point"}, "id": "RkGM0ej-aCjfuOh_kelAMhziy0k=", "properties": {"@source_uri": "https://tools.usps.com/UspsToolsRestServices/rest/POLocator/findLocations", "@spider": "usps_collection_boxes", "addr:city": "PETERSHAM", "addr:country": "US", "addr:postcode": "01366", "addr:state": "MA", "addr:street_address": "32 SPRING ST", "amenity": "post_box", "collection_times": "Mo-Fr 14:00; Sa 11:30", "indoor": "yes", "note": "ON 12/24 AND 12/31, THIS BOX MAY BE COLLECTED AS EARLY AS 12 NOON.", "nsi_id": "unitedstatespostalservice-a77078", "operator": "United States Postal Service", "operator:short": "USPS", "operator:type": "public", "operator:wikidata": "Q668687", "ref": "0136600005"}, "type": "Feature"}
{"geometry": {"coordinates": [-72.8983702198, 42.6947523061], "type": "Point"}, "id": "FTSeSB7HXWx6whe3B7fIa-WHhuk=", "properties": {"@source_uri": "https://tools.usps.com/UspsToolsRestServices/rest/POLocator/findLocations", "@spider": "usps_collection_boxes", "addr:city": "ROWE", "addr:country": "US", "addr:postcode": "01367", "addr:state": "MA", "addr:street_address": "321 ZOAR RD", "amenity": "post_box", "collection_times": "Mo-Fr 16:00; Sa 11:30", "note": "ON 12/24 AND 12/31, THIS BOX MAY BE COLLECTED AS EARLY AS 12 NOON.", "nsi_id": "unitedstatespostalservice-a77078", "operator": "United States Postal Service", "operator:short": "USPS", "operator:type": "public", "operator:wikidata": "Q668687", "ref": "0136700000"}, "type": "Feature"}
{"geometry": {"coordinates": [-72.8983702198, 42.6947523061], "type": "Point"}, "id": "-CCX-rxNegx8ovYVnhi9TqwvYws=", "properties": {"@source_uri": "https://tools.usps.com/UspsToolsRestServices/rest/POLocator/findLocations", "@spider": "usps_collection_boxes", "addr:city": "ROWE", "addr:country": "US", "addr:postcode": "01367", "addr:state": "MA", "addr:street_address": "321 ZOAR RD", "amenity": "post_box", "collection_times": "Mo-Fr 16:00; Sa 11:30", "indoor": "yes", "note": "ON 12/24 AND 12/31, THIS BOX MAY BE COLLECTED AS EARLY AS 12 NOON.", "nsi_id": "unitedstatespostalservice-a77078", "operator": "United States Postal Service", "operator:short": "USPS", "operator:type": "public", "operator:wikidata": "Q668687", "ref": "0136700001"}, "type": "Feature"}
{"geometry": {"coordinates": [-72.8983702198, 42.6947523061], "type": "Point"}, "id": "G0hEsQP9Hb39JpWVY0hPYI07BLo=", "properties": {"@source_uri": "https://tools.usps.com/UspsToolsRestServices/rest/POLocator/findLocations", "@spider": "usps_collection_boxes", "addr:city": "ROWE", "addr:country": "US", "addr:postcode": "01367", "addr:state": "MA", "addr:street_address": "321 ZOAR RD STE 1", "amenity": "post_box", "collection_times": "Mo-Fr 15:45; Sa 11:30", "indoor": "yes", "note": "ON 12/24 AND 12/31, THIS BOX MAY BE COLLECTED AS EARLY AS 12 NOON.", "nsi_id": "unitedstatespostalservice-a77078", "operator": "United States Postal Service", "operator:short": "USPS", "operator:type": "public", "operator:wikidata": "Q668687", "ref": "0136700002"}, "type": "Feature"}
{"geometry": {"coordinates": [-72.7414745, 42.603951], "type": "Point"}, "id": "fZYT6ESro4GIUy32S_aOw0wNnLA=", "properties": {"@source_uri": "https://tools.usps.com/UspsToolsRestServices/rest/POLocator/findLocations", "@spider": "usps_collection_boxes", "addr:city": "SHELBURNE FALLS", "addr:country": "US", "addr:postcode": "01370", "addr:state": "MA", "addr:street_address": "17 STATE ST", "amenity": "post_box", "collection_times": "Mo-Sa 10:00", "nsi_id": "unitedstatespostalservice-a77078", "operator": "United States Postal Service", "operator:short": "USPS", "operator:type": "public", "operator:wikidata": "Q668687", "ref": "0137000006"}, "type": "Feature"}
{"geometry": {"coordinates": [-72.7366129, 42.606645], "type": "Point"}, "id": "BXpXpAq02eVPxKB_53hQuR5_zCA=", "properties": {"@source_uri": "https://tools.usps.com/UspsToolsRestServices/rest/POLocator/findLocations", "@spider": "usps_collection_boxes", "addr:city": "SHELBURNE FALLS", "addr:country": "US", "addr:postcode": "01370", "addr:state": "MA", "addr:street_address": "7 CHURCH ST", "amenity": "post_box", "collection_times": "Mo-Fr 16:30; Sa 12:00", "indoor": "yes", "note": "ON 12/24 AND 12/31, THIS BOX MAY BE COLLECTED AS EARLY AS 12 NOON.", "nsi_id": "unitedstatespostalservice-a77078", "operator": "United States Postal Service", "operator:short": "USPS", "operator:type": "public", "operator:wikidata": "Q668687", "ref": "0137000011"}, "type": "Feature"}
{"geometry": {"coordinates": [-72.7365809, 42.606742], "type": "Point"}, "id": "nb5wNqgan-Br0ho-s1VQbUN3-zY=", "properties": {"@source_uri": "https://tools.usps.com/UspsToolsRestServices/rest/POLocator/findLocations", "@spider": "usps_collection_boxes", "addr:city": "SHELBURNE FALLS", "addr:country": "US", "addr:postcode": "01370", "addr:state": "MA", "addr:street_address": "7 CHURCH ST", "amenity": "post_box", "collection_times": "Mo-Fr 16:15; Sa 11:45", "note": "ON 12/24 AND 12/31, THIS BOX MAY BE COLLECTED AS EARLY AS 12 NOON.", "nsi_id": "unitedstatespostalservice-a77078", "operator": "United States Postal Service", "operator:short": "USPS", "operator:type": "public", "operator:wikidata": "Q668687", "ref": "0137000012"}, "type": "Feature"}
{"geometry": {"coordinates": [-72.73762, 42.60588], "type": "Point"}, "id": "iAHSs2KeYDZRLmdINMacsH5383M=", "properties": {"@source_uri": "https://tools.usps.com/UspsToolsRestServices/rest/POLocator/findLocations", "@spider": "usps_collection_boxes", "addr:city": "SHELBURNE FALLS", "addr:country": "US", "addr:postcode": "01370", "addr:state": "MA", "addr:street_address": "51 BRIDGE ST", "amenity": "post_box", "collection_times": "Mo-Sa 10:00", "nsi_id": "unitedstatespostalservice-a77078", "operator": "United States Postal Service", "operator:short": "USPS", "operator:type": "public", "operator:wikidata": "Q668687", "ref": "0137000013"}, "type": "Feature"}
{"geometry": {"coordinates": [-72.7317995, 42.607532], "type": "Point"}, "id": "2w-tngoFFQuVOoD1BhRgPHPkIdA=", "properties": {"@source_uri": "https://tools.usps.com/UspsToolsRestServices/rest/POLocator/findLocations", "@spider": "usps_collection_boxes", "addr:city": "SHELBURNE FALLS", "addr:country": "US", "addr:postcode": "01370", "addr:state": "MA", "addr:street_address": "4 HIGHLAND AVE", "amenity": "post_box", "collection_times": "Mo-Sa 10:00", "nsi_id": "unitedstatespostalservice-a77078", "operator": "United States Postal Service", "operator:short": "USPS", "operator:type": "public", "operator:wikidata": "Q668687", "ref": "0137000014"}, "type": "Feature"}
{"geometry": {"coordinates": [-72.73656748, 42.606770649], "type": "Point"}, "id": "1hfroWvcMdVTobxZ5zyMHZNZ7Pk=", "properties": {"@source_uri": "https://tools.usps.com/UspsToolsRestServices/rest/POLocator/findLocations", "@spider": "usps_collection_boxes", "addr:city": "SHELBURNE FALLS", "addr:country": "US", "addr:postcode": "01370", "addr:state": "MA", "addr:street_address": "7 CHURCH ST", "amenity": "post_box", "collection_times": "Mo-Fr 16:15; Sa 12:00", "indoor": "yes", "note": "ON 12/24 AND 12/31, THIS BOX MAY BE COLLECTED AS EARLY AS 12 NOON.", "nsi_id": "unitedstatespostalservice-a77078", "operator": "United States Postal Service", "operator:short": "USPS", "operator:type": "public", "operator:wikidata": "Q668687", "ref": "0137000015"}, "type": "Feature"}
{"geometry": {"coordinates": [-72.6022652, 42.472906], "type": "Point"}, "id": "9XFA2GBKckxJO8OMxKcYnQ03wY8=", "properties": {"@source_uri": "https://tools.usps.com/UspsToolsRestServices/rest/POLocator/findLocations", "@spider": "usps_collection_boxes", "addr:city": "SOUTH DEERFIELD", "addr:country": "US", "addr:postcode": "01373", "addr:state": "MA", "addr:street_address": "60 SUGARLOAF ST", "amenity": "post_box", "collection_times": "Mo-Fr 16:30; Sa 12:15", "note": "ON 12/24 AND 12/31, THIS BOX MAY BE COLLECTED AS EARLY AS 12 NOON.", "nsi_id": "unitedstatespostalservice-a77078", "operator": "United States Postal Service", "operator:short": "USPS", "operator:type": "public", "operator:wikidata": "Q668687", "ref": "0137300002"}, "type": "Feature"}
{"geometry": {"coordinates": [-72.607904, 42.477574], "type": "Point"}, "id": "hHYOVsDbQ1JQ8QQGB3dZQFlNmsM=", "properties": {"@source_uri": "https://tools.usps.com/UspsToolsRestServices/rest/POLocator/findLocations", "@spider": "usps_collection_boxes", "addr:city": "SOUTH DEERFIELD", "addr:country": "US", "addr:postcode": "01373", "addr:state": "MA", "addr:street_address": "1 PARK ST", "amenity": "post_box", "collection_times": "Mo-Fr 15:00; Sa 13:30", "note": "ON 12/24 AND 12/31, THIS BOX MAY BE COLLECTED AS EARLY AS 12 NOON.", "nsi_id": "unitedstatespostalservice-a77078", "operator": "United States Postal Service", "operator:short": "USPS", "operator:type": "public", "operator:wikidata": "Q668687", "ref": "0137300003"}, "type": "Feature"}
{"geometry": {"coordinates": [-72.6022947, 42.472797], "type": "Point"}, "id": "_euxZO64vHe45iEyFP5JCPYlON4=", "properties": {"@source_uri": "https://tools.usps.com/UspsToolsRestServices/rest/POLocator/findLocations", "@spider": "usps_collection_boxes", "addr:city": "SOUTH DEERFIELD", "addr:country": "US", "addr:postcode": "01373", "addr:state": "MA", "addr:street_address": "60 SUGARLOAF ST", "amenity": "post_box", "collection_times": "Mo-Fr 17:00; Sa 12:15", "indoor": "yes", "note": "ON 12/24 AND 12/31, THIS BOX MAY BE COLLECTED AS EARLY AS 12 NOON.", "nsi_id": "unitedstatespostalservice-a77078", "operator": "United States Postal Service", "operator:short": "USPS", "operator:type": "public", "operator:wikidata": "Q668687", "ref": "0137300004"}, "type": "Feature"}
{"geometry": {"coordinates": [-72.6022895, 42.472786], "type": "Point"}, "id": "adIHVKJPhKyvnBPJhWPVp8j715o=", "properties": {"@source_uri": "https://tools.usps.com/UspsToolsRestServices/rest/POLocator/findLocations", "@spider": "usps_collection_boxes", "addr:city": "SOUTH DEERFIELD", "addr:country": "US", "addr:postcode": "01373", "addr:state": "MA", "addr:street_address": "60 SUGARLOAF ST", "amenity": "post_box", "collection_times": "Mo-Fr 17:00; Sa 12:15", "indoor": "yes", "note": "ON 12/24 AND 12/31, THIS BOX MAY BE COLLECTED AS EARLY AS 12 NOON.", "nsi_id": "unitedstatespostalservice-a77078", "operator": "United States Postal Service", "operator:short": "USPS", "operator:type": "public", "operator:wikidata": "Q668687", "ref": "0137300005"}, "type": "Feature"}
{"geometry": {"coordinates": [-72.602157623, 42.472931376], "type": "Point"}, "id": "mSGodAybT7v-Cvyg1RaEULW2uaI=", "properties": {"@source_uri": "https://tools.usps.com/UspsToolsRestServices/rest/POLocator/findLocations", "@spider": "usps_collection_boxes", "addr:city": "SOUTH DEERFIELD", "addr:country": "US", "addr:postcode": "01373", "addr:state": "MA", "addr:street_address": "60 SUGARLOAF ST STE 1", "amenity": "post_box", "collection_times": "Mo-Fr 17:00; Sa 12:15", "indoor": "yes", "note": "ON 12/24 AND 12/31, THIS BOX MAY BE COLLECTED AS EARLY AS 12 NOON.", "nsi_id": "unitedstatespostalservice-a77078", "operator": "United States Postal Service", "operator:short": "USPS", "operator:type": "public", "operator:wikidata": "Q668687", "ref": "0137300006"}, "type": "Feature"}
{"geometry": {"coordinates": [-72.5814499, 42.457635], "type": "Point"}, "id": "ocQap5obFLN4UDATi4EKvU4QTrQ=", "properties": {"@source_uri": "https://tools.usps.com/UspsToolsRestServices/rest/POLocator/findLocations", "@spider": "usps_collection_boxes", "addr:city": "SUNDERLAND", "addr:country": "US", "addr:postcode": "01375", "addr:state": "MA", "addr:street_address": "34 RIVER RD", "amenity": "post_box", "collection_times": "Mo-Sa 09:00", "nsi_id": "unitedstatespostalservice-a77078", "operator": "United States Postal Service", "operator:short": "USPS", "operator:type": "public", "operator:wikidata": "Q668687", "ref": "0137500000"}, "type": "Feature"}
{"geometry": {"coordinates": [-72.574939, 42.465658], "type": "Point"}, "id": "8eMtBDlnXiZeBpROdEi4JMaEeHw=", "properties": {"@source_uri": "https://tools.usps.com/UspsToolsRestServices/rest/POLocator/findLocations", "@spider": "usps_collection_boxes", "addr:city": "SUNDERLAND", "addr:country": "US", "addr:postcode": "01375", "addr:state": "MA", "addr:street_address": "12 GARAGE RD", "amenity": "post_box", "collection_times": "Mo-Fr 16:30; Sa 11:30", "note": "ON 12/24 AND 12/31, THIS BOX MAY BE COLLECTED AS EARLY AS 12 NOON.", "nsi_id": "unitedstatespostalservice-a77078", "operator": "United States Postal Service", "operator:short": "USPS", "operator:type": "public", "operator:wikidata": "Q668687", "ref": "0137500001"}, "type": "Feature"}
{"geometry": {"coordinates": [-72.5629129, 42.451491], "type": "Point"}, "id": "En2NY4vbHELIRei1iITEegz-z1o=", "properties": {"@source_uri": "https://tools.usps.com/UspsToolsRestServices/rest/POLocator/findLocations", "@spider": "usps_collection_boxes", "addr:city": "SUNDERLAND", "addr:country": "US", "addr:postcode": "01375", "addr:state": "MA", "addr:street_address": "283 AMHERST RD", "amenity": "post_box", "collection_times": "Mo-Sa 09:00", "nsi_id": "unitedstatespostalservice-a77078", "operator": "United States Postal Service", "operator:short": "USPS", "operator:type": "public", "operator:wikidata": "Q668687", "ref": "0137500002"}, "type": "Feature"}
{"geometry": {"coordinates": [-72.574829, 42.465611], "type": "Point"}, "id": "ln2CAmVBJmOMCMKA35zu23E_zUU=", "properties": {"@source_uri": "https://tools.usps.com/UspsToolsRestServices/rest/POLocator/findLocations", "@spider": "usps_collection_boxes", "addr:city": "SUNDERLAND", "addr:country": "US", "addr:postcode": "01375", "addr:state": "MA", "addr:street_address": "12 GARAGE RD", "amenity": "post_box", "collection_times": "Mo-Fr 16:30; Sa 11:30", "indoor": "yes", "note": "ON 12/24 AND 12/31, THIS BOX MAY BE COLLECTED AS EARLY AS 12 NOON.", "nsi_id": "unitedstatespostalservice-a77078", "operator": "United States Postal Service", "operator:short": "USPS", "operator:type": "public", "operator:wikidata": "Q668687", "ref": "0137500006"}, "type": "Feature"}
{"geometry": {"coordinates": [-72.575285302, 42.465711246], "type": "Point"}, "id": "bn6JN9ZBzVsJR-jyeTecpYa0iOw=", "properties": {"@source_uri": "https://tools.usps.com/UspsToolsRestServices/rest/POLocator/findLocations", "@spider": "usps_collection_boxes", "addr:city": "SUNDERLAND", "addr:country": "US", "addr:postcode": "01375", "addr:state": "MA", "addr:street_address": "12 GARAGE RD", "amenity": "post_box", "collection_times": "Mo-Fr 16:30; Sa 11:30", "indoor": "yes", "note": "ON 12/24 AND 12/31, THIS BOX MAY BE COLLECTED AS EARLY AS 12 NOON.", "nsi_id": "unitedstatespostalservice-a77078", "operator": "United States Postal Service", "operator:short": "USPS", "operator:type": "public", "operator:wikidata": "Q668687", "ref": "0137500007"}, "type": "Feature"}
{"geometry": {"coordinates": [-72.5590016, 42.606385], "type": "Point"}, "id": "eEUnxCudgFilSRnY-QA_q5bFnq0=", "properties": {"@source_uri": "https://tools.usps.com/UspsToolsRestServices/rest/POLocator/findLocations", "@spider": "usps_collection_boxes", "addr:city": "TURNERS FALLS", "addr:country": "US", "addr:postcode": "01376", "addr:state": "MA", "addr:street_address": "1 6TH ST", "amenity": "post_box", "collection_times": "Mo-Fr 17:00; Sa 15:30", "note": "ON 12/24 AND 12/31, THIS BOX MAY BE COLLECTED AS EARLY AS 12 NOON.", "nsi_id": "unitedstatespostalservice-a77078", "operator": "United States Postal Service", "operator:short": "USPS", "operator:type": "public", "operator:wikidata": "Q668687", "ref": "0137600001"}, "type": "Feature"}
{"geometry": {"coordinates": [-72.5552242, 42.609465], "type": "Point"}, "id": "ZeVaunDXtfz2J3nVIhaMVy-vAL0=", "properties": {"@source_uri": "https://tools.usps.com/UspsToolsRestServices/rest/POLocator/findLocations", "@spider": "usps_collection_boxes", "addr:city": "TURNERS FALLS", "addr:country": "US", "addr:postcode": "01376", "addr:state": "MA", "addr:street_address": "1 AVENUE A", "amenity": "post_box", "collection_times": "Mo-Sa 10:00", "nsi_id": "unitedstatespostalservice-a77078", "operator": "United States Postal Service", "operator:short": "USPS", "operator:type": "public", "operator:wikidata": "Q668687", "ref": "0137600003"}, "type": "Feature"}
{"geometry": {"coordinates": [-72.5569904, 42.608347], "type": "Point"}, "id": "ATkyxeMFZdfHKKIFswfnX1uHnv8=", "properties": {"@source_uri": "https://tools.usps.com/UspsToolsRestServices/rest/POLocator/findLocations", "@spider": "usps_collection_boxes", "addr:city": "TURNERS FALLS", "addr:country": "US", "addr:postcode": "01376", "addr:state": "MA", "addr:street_address": "43 3RD ST", "amenity": "post_box", "collection_times": "Mo-Sa 10:00", "nsi_id": "unitedstatespostalservice-a77078", "operator": "United States Postal Service", "operator:short": "USPS", "operator:type": "public", "operator:wikidata": "Q668687", "ref": "0137600005"}, "type": "Feature"}
{"geometry": {"coordinates": [-72.557114311, 42.607243624], "type": "Point"}, "id": "zTwd__GzxJ7heorZKIqBsKrQjkY=", "properties": {"@source_uri": "https://tools.usps.com/UspsToolsRestServices/rest/POLocator/findLocations", "@spider": "usps_collection_boxes", "addr:city": "TURNERS FALLS", "addr:country": "US", "addr:postcode": "01376", "addr:state": "MA", "addr:street_address": "56 4TH ST", "amenity": "post_box", "collection_times": "Mo-Sa 10:00", "nsi_id": "unitedstatespostalservice-a77078", "operator": "United States Postal Service", "operator:short": "USPS", "operator:type": "public", "operator:wikidata": "Q668687", "ref": "0137600007"}, "type": "Feature"}
{"geometry": {"coordinates": [-72.5608968, 42.605015], "type": "Point"}, "id": "Szi1RxhD097u-Ntzx72O637FqLM=", "properties": {"@source_uri": "https://tools.usps.com/UspsToolsRestServices/rest/POLocator/findLocations", "@spider": "usps_collection_boxes", "addr:city": "TURNERS FALLS", "addr:country": "US", "addr:postcode": "01376", "addr:state": "MA", "addr:street_address": "250 AVENUE A", "amenity": "post_box", "collection_times": "Mo-Sa 09:00", "nsi_id": "unitedstatespostalservice-a77078", "operator": "United States Postal Service", "operator:short": "USPS", "operator:type": "public", "operator:wikidata": "Q668687", "ref": "0137600008"}, "type": "Feature"}
{"geometry": {"coordinates": [-72.5513786, 42.599931], "type": "Point"}, "id": "kJvn8dHvtPPJ0ueiRkaGrc4QWOU=", "properties": {"@source_uri": "https://tools.usps.com/UspsToolsRestServices/rest/POLocator/findLocations", "@spider": "usps_collection_boxes", "addr:city": "TURNERS FALLS", "addr:country": "US", "addr:postcode": "01376", "addr:state": "MA", "addr:street_address": "99 UNITY ST", "amenity": "post_box", "collection_times": "Mo-Sa 10:00", "nsi_id": "unitedstatespostalservice-a77078", "operator": "United States Postal Service", "operator:short": "USPS", "operator:type": "public", "operator:wikidata": "Q668687", "ref": "0137600010"}, "type": "Feature"}
{"geometry": {"coordinates": [-72.5738503, 42.588352], "type": "Point"}, "id": "WKez7C6itqqo9dQPqrVChnB5BAU=", "properties": {"@source_uri": "https://tools.usps.com/UspsToolsRestServices/rest/POLocator/findLocations", "@spider": "usps_collection_boxes", "addr:city": "TURNERS FALLS", "addr:country": "US", "addr:postcode": "01376", "addr:state": "MA", "addr:street_address": "1 BURNHAM ST", "amenity": "post_box", "collection_times": "Mo-Sa 09:00", "nsi_id": "unitedstatespostalservice-a77078", "operator": "United States Postal Service", "operator:short": "USPS", "operator:type": "public", "operator:wikidata": "Q668687", "ref": "0137600012"}, "type": "Feature"}
{"geometry": {"coordinates": [-72.5556922, 42.589502], "type": "Point"}, "id": "EurjKghIM2WZM-ZLAvW34UTpY0M=", "properties": {"@source_uri": "https://tools.usps.com/UspsToolsRestServices/rest/POLocator/findLocations", "@spider": "usps_collection_boxes", "addr:city": "TURNERS FALLS", "addr:country": "US", "addr:postcode": "01376", "addr:state": "MA", "addr:street_address": "7 PARK VILLA DR", "amenity": "post_box", "collection_times": "Mo-Sa 10:00", "nsi_id": "unitedstatespostalservice-a77078", "operator": "United States Postal Service", "operator:short": "USPS", "operator:type": "public", "operator:wikidata": "Q668687", "ref": "0137600015"}, "type": "Feature"}
{"geometry": {"coordinates": [-72.5589466, 42.606501], "type": "Point"}, "id": "x3sdKR7FUzqh3wJwmE2Jh6B2AQI=", "properties": {"@source_uri": "https://tools.usps.com/UspsToolsRestServices/rest/POLocator/findLocations", "@spider": "usps_collection_boxes", "addr:city": "TURNERS FALLS", "addr:country": "US", "addr:postcode": "01376", "addr:state": "MA", "addr:street_address": "178 AVENUE A LBBY", "amenity": "post_box", "collection_times": "Mo-Fr 17:00; Sa 15:15", "indoor": "yes", "note": "ON 12/24 AND 12/31, THIS BOX MAY BE COLLECTED AS EARLY AS 12 NOON.", "nsi_id": "unitedstatespostalservice-a77078", "operator": "United States Postal Service", "operator:short": "USPS", "operator:type": "public", "operator:wikidata": "Q668687", "ref": "0137600017"}, "type": "Feature"}
{"geometry": {"coordinates": [-72.5287059, 42.590305], "type": "Point"}, "id": "gx4QoSNQLIecL302nN0Yr2sO300=", "properties": {"@source_uri": "https://tools.usps.com/UspsToolsRestServices/rest/POLocator/findLocations", "@spider": "usps_collection_boxes", "addr:city": "TURNERS FALLS", "addr:country": "US", "addr:postcode": "01376", "addr:state": "MA", "addr:street_address": "10 INDUSTRIAL BLVD", "amenity": "post_box", "collection_times": "Mo-Fr 12:00; Sa 10:00", "nsi_id": "unitedstatespostalservice-a77078", "operator": "United States Postal Service", "operator:short": "USPS", "operator:type": "public", "operator:wikidata": "Q668687", "ref": "0137600018"}, "type": "Feature"}
{"geometry": {"coordinates": [-72.558459049, 42.606675521], "type": "Point"}, "id": "6SNWLcX-EkwY9pcAXptqW-OODaM=", "properties": {"@source_uri": "https://tools.usps.com/UspsToolsRestServices/rest/POLocator/findLocations", "@spider": "usps_collection_boxes", "addr:city": "TURNERS FALLS", "addr:country": "US", "addr:postcode": "01376", "addr:state": "MA", "addr:street_address": "178 AVENUE A", "amenity": "post_box", "collection_times": "Mo-Fr 17:00; Sa 15:30", "indoor": "yes", "note": "ON 12/24 AND 12/31, THIS BOX MAY BE COLLECTED AS EARLY AS 12 NOON.", "nsi_id": "unitedstatespostalservice-a77078", "operator": "United States Postal Service", "operator:short": "USPS", "operator:type": "public", "operator:wikidata": "Q668687", "ref": "0137600019"}, "type": "Feature"}
{"geometry": {"coordinates": [-72.4009563, 42.54146], "type": "Point"}, "id": "RwmV3sUdK6JBBoIaTxdhTn9sHLU=", "properties": {"@source_uri": "https://tools.usps.com/UspsToolsRestServices/rest/POLocator/findLocations", "@spider": "usps_collection_boxes", "addr:city": "WENDELL", "addr:country": "US", "addr:postcode": "01379", "addr:state": "MA", "addr:street_address": "59 LOCKES VILLAGE RD", "amenity": "post_box", "collection_times": "Mo-Fr 16:30; Sa 11:40", "note": "ON 12/24 AND 12/31, THIS BOX MAY BE COLLECTED AS EARLY AS 12 NOON.", "nsi_id": "unitedstatespostalservice-a77078", "operator": "United States Postal Service", "operator:short": "USPS", "operator:type": "public", "operator:wikidata": "Q668687", "ref": "0137900000"}, "type": "Feature"}
{"geometry": {"coordinates": [-72.4009087, 42.541436], "type": "Point"}, "id": "iKWL7UAbh3IOyj6gU92Wz0RUPr8=", "properties": {"@source_uri": "https://tools.usps.com/UspsToolsRestServices/rest/POLocator/findLocations", "@spider": "usps_collection_boxes", "addr:city": "WENDELL", "addr:country": "US", "addr:postcode": "01379", "addr:state": "MA", "addr:street_address": "59 LOCKES VILLAGE RD LBBY", "amenity": "post_box", "collection_times": "Mo-Fr 16:30; Sa 12:00", "indoor": "yes", "note": "ON 12/24 AND 12/31, THIS BOX MAY BE COLLECTED AS EARLY AS 12 NOON.", "nsi_id": "unitedstatespostalservice-a77078", "operator": "United States Postal Service", "operator:short": "USPS", "operator:type": "public", "operator:wikidata": "Q668687", "ref": "0137900001"}, "type": "Feature"}
{"geometry": {"coordinates": [-72.401027177, 42.541764979], "type": "Point"}, "id": "OlZq37rddJJX70ITKumCaV26NSA=", "properties": {"@source_uri": "https://tools.usps.com/UspsToolsRestServices/rest/POLocator/findLocations", "@spider": "usps_collection_boxes", "addr:city": "WENDELL", "addr:country": "US", "addr:postcode": "01379", "addr:state": "MA", "addr:street_address": "59 LOCKES VILLAGE RD", "amenity": "post_box", "collection_times": "Mo-Fr 16:30; Sa 12:00", "indoor": "yes", "note": "ON 12/24 AND 12/31, THIS BOX MAY BE COLLECTED AS EARLY AS 12 NOON.", "nsi_id": "unitedstatespostalservice-a77078", "operator": "United States Postal Service", "operator:short": "USPS", "operator:type": "public", "operator:wikidata": "Q668687", "ref": "0137900002"}, "type": "Feature"}
{"geometry": {"coordinates": [-72.359508, 42.59615], "type": "Point"}, "id": "_Hx_QHjmCMN0Yb_-Uy9lllSnqzU=", "properties": {"@source_uri": "https://tools.usps.com/UspsToolsRestServices/rest/POLocator/findLocations", "@spider": "usps_collection_boxes", "addr:city": "WENDELL DEPOT", "addr:country": "US", "addr:postcode": "01380", "addr:state": "MA", "addr:street_address": "466 WENDELL DEPOT RD", "amenity": "post_box", "collection_times": "Mo-Sa 08:15", "nsi_id": "unitedstatespostalservice-a77078", "operator": "United States Postal Service", "operator:short": "USPS", "operator:type": "public", "operator:wikidata": "Q668687", "ref": "0138000000"}, "type": "Feature"}
