{"geometry": {"coordinates": [-71.804349, 42.586263], "type": "Point"}, "id": "7yvC_SKOHcxDD23PYVdAIcDF3Cs=", "properties": {"@source_uri": "https://tools.usps.com/UspsToolsRestServices/rest/POLocator/findLocations", "@spider": "usps_collection_boxes", "addr:city": "FITCHBURG", "addr:country": "US", "addr:postcode": "01420", "addr:state": "MA", "addr:street_address": "881 MAIN ST", "amenity": "post_box", "collection_times": "Mo-Fr 17:15; Sa 14:00", "note": "ON 12/24 AND 12/31, THIS BOX MAY BE COLLECTED AS EARLY AS 12 NOON.", "nsi_id": "unitedstatespostalservice-a77078", "operator": "United States Postal Service", "operator:short": "USPS", "operator:type": "public", "operator:wikidata": "Q668687", "ref": "0142000002"}, "type": "Feature"}
{"geometry": {"coordinates": [-71.7781939, 42.566813], "type": "Point"}, "id": "IJWRMxa4JlhHNYrlnzsWVCeJjfE=", "properties": {"@source_uri": "https://tools.usps.com/UspsToolsRestServices/rest/POLocator/findLocations", "@spider": "usps_collection_boxes", "addr:city": "FITCHBURG", "addr:country": "US", "addr:postcode": "01420", "addr:state": "MA", "addr:street_address": "19 AIRPORT RD", "amenity": "post_box", "collection_times": "Mo-Fr 16:15; Sa 14:00", "note": "ON 12/24 AND 12/31, THIS BOX MAY BE COLLECTED AS EARLY AS 12 NOON.", "nsi_id": "unitedstatespostalservice-a77078", "operator": "United States Postal Service", "operator:short": "USPS", "operator:type": "public", "operator:wikidata": "Q668687", "ref": "0142000004"}, "type": "Feature"}
{"geometry": {"coordinates": [-71.8007744, 42.603329], "type": "Point"}, "id": "h8U4Imh9E-DWyt-g_G2IawalYM8=", "properties": {"@source_uri": "https://tools.usps.com/UspsToolsRestServices/rest/POLocator/findLocations", "@spider": "usps_collection_boxes", "addr:city": "FITCHBURG", "addr:country": "US", "addr:postcode": "01420", "addr:state": "MA", "addr:street_address": "47 ASHBY STATE RD", "amenity": "post_box", "collection_times": "Mo-Fr 16:15; Sa 14:00", "note": "ON 12/24 AND 12/31, THIS BOX MAY BE COLLECTED AS EARLY AS 12 NOON.", "nsi_id": "unitedstatespostalservice-a77078", "operator": "United States Postal Service", "operator:short": "USPS", "operator:type": "public", "operator:wikidata": "Q668687", "ref": "0142000008"}, "type": "Feature"}
{"geometry": {"coordinates": [-71.8458082, 42.55176], "type": "Point"}, "id": "OXJCpqYP30iJ__-hR1M7RWa2BJo=", "properties": {"@source_uri": "https://tools.usps.com/UspsToolsRestServices/rest/POLocator/findLocations", "@spider": "usps_collection_boxes", "addr:city": "FITCHBURG", "addr:country": "US", "addr:postcode": "01420", "addr:state": "MA", "addr:street_address": "231 AUTHORITY DR", "amenity": "post_box", "collection_times": "Mo-Fr 16:15; Sa 14:00", "note": "ON 12/24 AND 12/31, THIS BOX MAY BE COLLECTED AS EARLY AS 12 NOON.", "nsi_id": "unitedstatespostalservice-a77078", "operator": "United States Postal Service", "operator:short": "USPS", "operator:type": "public", "operator:wikidata": "Q668687", "ref": "0142000009"}, "type": "Feature"}
{"geometry": {"coordinates": [-71.801442717, 42.582595217], "type": "Point"}, "id": "TEpf62I0ofQvzbe0mn7A9CtnTYM=", "properties": {"@source_uri": "https://tools.usps.com/UspsToolsRestServices/rest/POLocator/findLocations", "@spider": "usps_collection_boxes", "addr:city": "FITCHBURG", "addr:country": "US", "addr:postcode": "01420", "addr:state": "MA", "addr:street_address": "166 BOULDER DR", "amenity": "post_box", "collection_times": "Mo-Fr 16:15; Sa 14:00", "note": "ON 12/24 AND 12/31, THIS BOX MAY BE COLLECTED AS EARLY AS 12 NOON.", "nsi_id": "unitedstatespostalservice-a77078", "operator": "United States Postal Service", "operator:short": "USPS", "operator:type": "public", "operator:wikidata": "Q668687", "ref": "0142000012"}, "type": "Feature"}
{"geometry": {"coordinates": [-71.7821994, 42.578395], "type": "Point"}, "id": "93k4ZpLf4BIYCXe02vi6wG-x9X0=", "properties": {"@source_uri": "https://tools.usps.com/UspsToolsRestServices/rest/POLocator/findLocations", "@spider": "usps_collection_boxes", "addr:city": "FITCHBURG", "addr:country": "US", "addr:postcode": "01420", "addr:state": "MA", "addr:street_address": "95 GOODRICH ST", "amenity": "post_box", "collection_times": "Mo-Fr 15:00; Sa 14:00", "note": "ON 12/24 AND 12/31, THIS BOX MAY BE COLLECTED AS EARLY AS 12 NOON.", "nsi_id": "unitedstatespostalservice-a77078", "operator": "United States Postal Service", "operator:short": "USPS", "operator:type": "public", "operator:wikidata": "Q668687", "ref": "0142000013"}, "type": "Feature"}
{"geometry": {"coordinates": [-71.818623, 42.576776], "type": "Point"}, "id": "6Xkptto654_ElN9LWW_F-mf3eBI=", "properties": {"@source_uri": "https://tools.usps.com/UspsToolsRestServices/rest/POLocator/findLocations", "@spider": "usps_collection_boxes", "addr:city": "FITCHBURG", "addr:country": "US", "addr:postcode": "01420", "addr:state": "MA", "addr:street_address": "216 DANIELS ST", "amenity": "post_box", "collection_times": "Mo-Fr 16:15; Sa 14:00", "note": "ON 12/24 AND 12/31, THIS BOX MAY BE COLLECTED AS EARLY AS 12 NOON.", "nsi_id": "unitedstatespostalservice-a77078", "operator": "United States Postal Service", "operator:short": "USPS", "operator:type": "public", "operator:wikidata": "Q668687", "ref": "0142000015"}, "type": "Feature"}
{"geometry": {"coordinates": [-71.8139799, 42.56893], "type": "Point"}, "id": "LbXbw5rfPs15gDryiGKR2Q2jVH4=", "properties": {"@source_uri": "https://tools.usps.com/UspsToolsRestServices/rest/POLocator/findLocations", "@spider": "usps_collection_boxes", "addr:city": "FITCHBURG", "addr:country": "US", "addr:postcode": "01420", "addr:state": "MA", "addr:street_address": "499B ELECTRIC AVE", "amenity": "post_box", "collection_times": "Mo-Fr 16:15; Sa 14:00", "note": "ON 12/24 AND 12/31, THIS BOX MAY BE COLLECTED AS EARLY AS 12 NOON.", "nsi_id": "unitedstatespostalservice-a77078", "operator": "United States Postal Service", "operator:short": "USPS", "operator:type": "public", "operator:wikidata": "Q668687", "ref": "0142000016"}, "type": "Feature"}
{"geometry": {"coordinates": [-71.801775, 42.585858], "type": "Point"}, "id": "6j-w7NmtkPciqXltEWAJH4oXoQE=", "properties": {"@source_uri": "https://tools.usps.com/UspsToolsRestServices/rest/POLocator/findLocations", "@spider": "usps_collection_boxes", "addr:city": "FITCHBURG", "addr:country": "US", "addr:postcode": "01420", "addr:state": "MA", "addr:street_address": "80 GROVE ST", "amenity": "post_box", "collection_times": "Mo-Fr 16:15; Sa 14:00", "note": "ON 12/24 AND 12/31, THIS BOX MAY BE COLLECTED AS EARLY AS 12 NOON.", "nsi_id": "unitedstatespostalservice-a77078", "operator": "United States Postal Service", "operator:short": "USPS", "operator:type": "public", "operator:wikidata": "Q668687", "ref": "0142000019"}, "type": "Feature"}
{"geometry": {"coordinates": [-71.7855439, 42.576408], "type": "Point"}, "id": "wta2c0oUlLg2MyJZegDlpyDW2o0=", "properties": {"@source_uri": "https://tools.usps.com/UspsToolsRestServices/rest/POLocator/findLocations", "@spider": "usps_collection_boxes", "addr:city": "FITCHBURG", "addr:country": "US", "addr:postcode": "01420", "addr:state": "MA", "addr:street_address": "100 HARVARD ST", "amenity": "post_box", "collection_times": "Mo-Fr 16:15; Sa 14:00", "note": "ON 12/24 AND 12/31, THIS BOX MAY BE COLLECTED AS EARLY AS 12 NOON.", "nsi_id": "unitedstatespostalservice-a77078", "operator": "United States Postal Service", "operator:short": "USPS", "operator:type": "public", "operator:wikidata": "Q668687", "ref": "0142000020"}, "type": "Feature"}
{"geometry": {"coordinates": [-71.8572249, 42.563232], "type": "Point"}, "id": "hVQgiBMnaQwCJZgaBGKbbvVA3CQ=", "properties": {"@source_uri": "https://tools.usps.com/UspsToolsRestServices/rest/POLocator/findLocations", "@spider": "usps_collection_boxes", "addr:city": "FITCHBURG", "addr:country": "US", "addr:postcode": "01420", "addr:state": "MA", "addr:street_address": "172 INDUSTRIAL RD", "amenity": "post_box", "collection_times": "Mo-Fr 16:15; Sa 14:00", "note": "ON 12/24 AND 12/31, THIS BOX MAY BE COLLECTED AS EARLY AS 12 NOON.", "nsi_id": "unitedstatespostalservice-a77078", "operator": "United States Postal Service", "operator:short": "USPS", "operator:type": "public", "operator:wikidata": "Q668687", "ref": "0142000021"}, "type": "Feature"}
{"geometry": {"coordinates": [-71.7741259, 42.584182], "type": "Point"}, "id": "U27ZBMroZH_rRrLkS4vRJuv1QiA=", "properties": {"@source_uri": "https://tools.usps.com/UspsToolsRestServices/rest/POLocator/findLocations", "@spider": "usps_collection_boxes", "addr:city": "FITCHBURG", "addr:country": "US", "addr:postcode": "01420", "addr:state": "MA", "addr:street_address": "480 JOHN FITCH HWY", "amenity": "post_box", "collection_times": "Mo-Fr 16:15; Sa 14:00", "note": "ON 12/24 AND 12/31, THIS BOX MAY BE COLLECTED AS EARLY AS 12 NOON.", "nsi_id": "unitedstatespostalservice-a77078", "operator": "United States Postal Service", "operator:short": "USPS", "operator:type": "public", "operator:wikidata": "Q668687", "ref": "0142000023"}, "type": "Feature"}
{"geometry": {"coordinates": [-71.793988292, 42.581851825], "type": "Point"}, "id": "hjoQebpXtfG6VMsTyw0gGQGlpyY=", "properties": {"@source_uri": "https://tools.usps.com/UspsToolsRestServices/rest/POLocator/findLocations", "@spider": "usps_collection_boxes", "addr:city": "FITCHBURG", "addr:country": "US", "addr:postcode": "01420", "addr:state": "MA", "addr:street_address": "161 MAIN ST", "amenity": "post_box", "collection_times": "Mo-Sa 09:00", "nsi_id": "unitedstatespostalservice-a77078", "operator": "United States Postal Service", "operator:short": "USPS", "operator:type": "public", "operator:wikidata": "Q668687", "ref": "0142000024"}, "type": "Feature"}
{"geometry": {"coordinates": [-71.7750742, 42.58597], "type": "Point"}, "id": "brmfES5KXw3XqVyvc6H-81fYwrE=", "properties": {"@source_uri": "https://tools.usps.com/UspsToolsRestServices/rest/POLocator/findLocations", "@spider": "usps_collection_boxes", "addr:city": "FITCHBURG", "addr:country": "US", "addr:postcode": "01420", "addr:state": "MA", "addr:street_address": "313 LUNENBURG ST", "amenity": "post_box", "collection_times": "Mo-Fr 16:15; Sa 14:00", "note": "ON 12/24 AND 12/31, THIS BOX MAY BE COLLECTED AS EARLY AS 12 NOON.", "nsi_id": "unitedstatespostalservice-a77078", "operator": "United States Postal Service", "operator:short": "USPS", "operator:type": "public", "operator:wikidata": "Q668687", "ref": "0142000026"}, "type": "Feature"}
{"geometry": {"coordinates": [-71.796672, 42.582384], "type": "Point"}, "id": "i4NRrxabf9l32dI0RXmiSVFDMOI=", "properties": {"@source_uri": "https://tools.usps.com/UspsToolsRestServices/rest/POLocator/findLocations", "@spider": "usps_collection_boxes", "addr:city": "FITCHBURG", "addr:country": "US", "addr:postcode": "01420", "addr:state": "MA", "addr:street_address": "325 MAIN ST", "amenity": "post_box", "collection_times": "Mo-Fr 16:15; Sa 14:00", "note": "ON 12/24 AND 12/31, THIS BOX MAY BE COLLECTED AS EARLY AS 12 NOON.", "nsi_id": "unitedstatespostalservice-a77078", "operator": "United States Postal Service", "operator:short": "USPS", "operator:type": "public", "operator:wikidata": "Q668687", "ref": "0142000031"}, "type": "Feature"}
{"geometry": {"coordinates": [-71.79942047, 42.583167], "type": "Point"}, "id": "jjsltcAMyPANQzovLG0iM5Pqt_M=", "properties": {"@source_uri": "https://tools.usps.com/UspsToolsRestServices/rest/POLocator/findLocations", "@spider": "usps_collection_boxes", "addr:city": "FITCHBURG", "addr:country": "US", "addr:postcode": "01420", "addr:state": "MA", "addr:street_address": "477 MAIN ST", "amenity": "post_box", "collection_times": "Mo-Fr 16:15; Sa 12:00", "note": "ON 12/24 AND 12/31, THIS BOX MAY BE COLLECTED AS EARLY AS 12 NOON.", "nsi_id": "unitedstatespostalservice-a77078", "operator": "United States Postal Service", "operator:short": "USPS", "operator:type": "public", "operator:wikidata": "Q668687", "ref": "0142000034"}, "type": "Feature"}
{"geometry": {"coordinates": [-71.803168945, 42.584109807], "type": "Point"}, "id": "HtkNwfrPBlZnNsnVNIZbSO7TIeI=", "properties": {"@source_uri": "https://tools.usps.com/UspsToolsRestServices/rest/POLocator/findLocations", "@spider": "usps_collection_boxes", "addr:city": "FITCHBURG", "addr:country": "US", "addr:postcode": "01420", "addr:state": "MA", "addr:street_address": "703 MAIN ST", "amenity": "post_box", "collection_times": "Mo-Fr 16:15; Sa 14:00", "note": "ON 12/24 AND 12/31, THIS BOX MAY BE COLLECTED AS EARLY AS 12 NOON.", "nsi_id": "unitedstatespostalservice-a77078", "operator": "United States Postal Service", "operator:short": "USPS", "operator:type": "public", "operator:wikidata": "Q668687", "ref": "0142000038"}, "type": "Feature"}
{"geometry": {"coordinates": [-71.806266, 42.586074], "type": "Point"}, "id": "PRYj8O-rM-isyfAOy-m1MUmeqyI=", "properties": {"@source_uri": "https://tools.usps.com/UspsToolsRestServices/rest/POLocator/findLocations", "@spider": "usps_collection_boxes", "addr:city": "FITCHBURG", "addr:country": "US", "addr:postcode": "01420", "addr:state": "MA", "addr:street_address": "900 MAIN ST", "amenity": "post_box", "collection_times": "Mo-Fr 16:15; Sa 14:00", "note": "ON 12/24 AND 12/31, THIS BOX MAY BE COLLECTED AS EARLY AS 12 NOON.", "nsi_id": "unitedstatespostalservice-a77078", "operator": "United States Postal Service", "operator:short": "USPS", "operator:type": "public", "operator:wikidata": "Q668687", "ref": "0142000040"}, "type": "Feature"}
{"geometry": {"coordinates": [-71.8219049, 42.581033], "type": "Point"}, "id": "dZPgdtxhRkEA73CX2SxIG7DlJ04=", "properties": {"@source_uri": "https://tools.usps.com/UspsToolsRestServices/rest/POLocator/findLocations", "@spider": "usps_collection_boxes", "addr:city": "FITCHBURG", "addr:country": "US", "addr:postcode": "01420", "addr:state": "MA", "addr:street_address": "1 OAK HILL RD", "amenity": "post_box", "collection_times": "Mo-Fr 15:00; Sa 14:00", "note": "ON 12/24 AND 12/31, THIS BOX MAY BE COLLECTED AS EARLY AS 12 NOON.", "nsi_id": "unitedstatespostalservice-a77078", "operator": "United States Postal Service", "operator:short": "USPS", "operator:type": "public", "operator:wikidata": "Q668687", "ref": "0142000050"}, "type": "Feature"}
{"geometry": {"coordinates": [-71.8137699, 42.568243], "type": "Point"}, "id": "otqQL9UgnUR7-cM1Moc5kpnHqOY=", "properties": {"@source_uri": "https://tools.usps.com/UspsToolsRestServices/rest/POLocator/findLocations", "@spider": "usps_collection_boxes", "addr:city": "FITCHBURG", "addr:country": "US", "addr:postcode": "01420", "addr:state": "MA", "addr:street_address": "57 ROLLSTONE RD", "amenity": "post_box", "collection_times": "Mo-Sa 09:00", "nsi_id": "unitedstatespostalservice-a77078", "operator": "United States Postal Service", "operator:short": "USPS", "operator:type": "public", "operator:wikidata": "Q668687", "ref": "0142000052"}, "type": "Feature"}
{"geometry": {"coordinates": [-71.7950556, 42.5802604], "type": "Point"}, "id": "udKpjymm1TEowopq5tO21E1vRCI=", "properties": {"@source_uri": "https://tools.usps.com/UspsToolsRestServices/rest/POLocator/findLocations", "@spider": "usps_collection_boxes", "addr:city": "FITCHBURG", "addr:country": "US", "addr:postcode": "01420", "addr:state": "MA", "addr:street_address": "160 PEARL ST", "amenity": "post_box", "collection_times": "Mo-Sa 12:00", "nsi_id": "unitedstatespostalservice-a77078", "operator": "United States Postal Service", "operator:short": "USPS", "operator:type": "public", "operator:wikidata": "Q668687", "ref": "0142000054"}, "type": "Feature"}
{"geometry": {"coordinates": [-71.7981489, 42.573166], "type": "Point"}, "id": "Lr7pL87LjZF2EIl0OTzKoTj5oQg=", "properties": {"@source_uri": "https://tools.usps.com/UspsToolsRestServices/rest/POLocator/findLocations", "@spider": "usps_collection_boxes", "addr:city": "FITCHBURG", "addr:country": "US", "addr:postcode": "01420", "addr:state": "MA", "addr:street_address": "288 SOUTH ST", "amenity": "post_box", "collection_times": "Mo-Fr 16:15; Sa 14:00", "note": "ON 12/24 AND 12/31, THIS BOX MAY BE COLLECTED AS EARLY AS 12 NOON.", "nsi_id": "unitedstatespostalservice-a77078", "operator": "United States Postal Service", "operator:short": "USPS", "operator:type": "public", "operator:wikidata": "Q668687", "ref": "0142000059"}, "type": "Feature"}
{"geometry": {"coordinates": [-71.7950556, 42.5802604], "type": "Point"}, "id": "HUo6AficZnBq91wCPcxeLzd_rMc=", "properties": {"@source_uri": "https://tools.usps.com/UspsToolsRestServices/rest/POLocator/findLocations", "@spider": "usps_collection_boxes", "addr:city": "FITCHBURG", "addr:country": "US", "addr:postcode": "01420", "addr:state": "MA", "addr:street_address": "11 ELECTRIC AVE", "amenity": "post_box", "collection_times": "Mo-Fr 16:15; Sa 14:00", "note": "ON 12/24 AND 12/31, THIS BOX MAY BE COLLECTED AS EARLY AS 12 NOON.", "nsi_id": "unitedstatespostalservice-a77078", "operator": "United States Postal Service", "operator:short": "USPS", "operator:type": "public", "operator:wikidata": "Q668687", "ref": "0142000060"}, "type": "Feature"}
{"geometry": {"coordinates": [-71.7863213, 42.579721], "type": "Point"}, "id": "ZCYZiPreNGwq7xa3_tT6dP26gEQ=", "properties": {"@source_uri": "https://tools.usps.com/UspsToolsRestServices/rest/POLocator/findLocations", "@spider": "usps_collection_boxes", "addr:city": "FITCHBURG", "addr:country": "US", "addr:postcode": "01420", "addr:state": "MA", "addr:street_address": "76 SUMMER ST", "amenity": "post_box", "collection_times": "Mo-Fr 16:15; Sa 14:00", "note": "ON 12/24 AND 12/31, THIS BOX MAY BE COLLECTED AS EARLY AS 12 NOON.", "nsi_id": "unitedstatespostalservice-a77078", "operator": "United States Postal Service", "operator:short": "USPS", "operator:type": "public", "operator:wikidata": "Q668687", "ref": "0142000062"}, "type": "Feature"}
{"geometry": {"coordinates": [-71.7752919, 42.571487], "type": "Point"}, "id": "vh5s_DY1iBV5_BtgO0q4NjO73dE=", "properties": {"@source_uri": "https://tools.usps.com/UspsToolsRestServices/rest/POLocator/findLocations", "@spider": "usps_collection_boxes", "addr:city": "FITCHBURG", "addr:country": "US", "addr:postcode": "01420", "addr:state": "MA", "addr:street_address": "364 SUMMER ST", "amenity": "post_box", "collection_times": "Mo-Fr 16:15; Sa 14:00", "note": "ON 12/24 AND 12/31, THIS BOX MAY BE COLLECTED AS EARLY AS 12 NOON.", "nsi_id": "unitedstatespostalservice-a77078", "operator": "United States Postal Service", "operator:short": "USPS", "operator:type": "public", "operator:wikidata": "Q668687", "ref": "0142000063"}, "type": "Feature"}
{"geometry": {"coordinates": [-71.7752599, 42.579313], "type": "Point"}, "id": "0B_5XcVs2TqJo-wfmOPZ-G0DtGM=", "properties": {"@source_uri": "https://tools.usps.com/UspsToolsRestServices/rest/POLocator/findLocations", "@spider": "usps_collection_boxes", "addr:city": "FITCHBURG", "addr:country": "US", "addr:postcode": "01420", "addr:state": "MA", "addr:street_address": "325 JOHN FITCH HWY", "amenity": "post_box", "collection_times": "Mo-Fr 16:15; Sa 14:00", "note": "ON 12/24 AND 12/31, THIS BOX MAY BE COLLECTED AS EARLY AS 12 NOON.", "nsi_id": "unitedstatespostalservice-a77078", "operator": "United States Postal Service", "operator:short": "USPS", "operator:type": "public", "operator:wikidata": "Q668687", "ref": "0142000065"}, "type": "Feature"}
{"geometry": {"coordinates": [-71.801118942, 42.585100763], "type": "Point"}, "id": "LILdRtwHqTEUiwnXw2aup_sIsSE=", "properties": {"@source_uri": "https://tools.usps.com/UspsToolsRestServices/rest/POLocator/findLocations", "@spider": "usps_collection_boxes", "addr:city": "FITCHBURG", "addr:country": "US", "addr:postcode": "01420", "addr:state": "MA", "addr:street_address": "54 WALLACE AVE", "amenity": "post_box", "collection_times": "Mo-Fr 12:00; Sa 14:00", "note": "ON 12/24 AND 12/31, THIS BOX MAY BE COLLECTED AS EARLY AS 12 NOON.", "nsi_id": "unitedstatespostalservice-a77078", "operator": "United States Postal Service", "operator:short": "USPS", "operator:type": "public", "operator:wikidata": "Q668687", "ref": "0142000068"}, "type": "Feature"}
{"geometry": {"coordinates": [-71.7932531, 42.580113], "type": "Point"}, "id": "mGUFj685h6VrNXH4fEiFpkVuzXI=", "properties": {"@source_uri": "https://tools.usps.com/UspsToolsRestServices/rest/POLocator/findLocations", "@spider": "usps_collection_boxes", "addr:city": "FITCHBURG", "addr:country": "US", "addr:postcode": "01420", "addr:state": "MA", "addr:street_address": "130 WATER ST", "amenity": "post_box", "collection_times": "Mo-Fr 16:15; Sa 14:00", "note": "ON 12/24 AND 12/31, THIS BOX MAY BE COLLECTED AS EARLY AS 12 NOON.", "nsi_id": "unitedstatespostalservice-a77078", "operator": "United States Postal Service", "operator:short": "USPS", "operator:type": "public", "operator:wikidata": "Q668687", "ref": "0142000069"}, "type": "Feature"}
{"geometry": {"coordinates": [-71.8448199, 42.565791], "type": "Point"}, "id": "_EieY5C89tk24ZQdKI7-nkq9vMI=", "properties": {"@source_uri": "https://tools.usps.com/UspsToolsRestServices/rest/POLocator/findLocations", "@spider": "usps_collection_boxes", "addr:city": "FITCHBURG", "addr:country": "US", "addr:postcode": "01420", "addr:state": "MA", "addr:street_address": "545 WESTMINSTER ST", "amenity": "post_box", "collection_times": "Mo-Fr 16:15; Sa 14:00", "note": "ON 12/24 AND 12/31, THIS BOX MAY BE COLLECTED AS EARLY AS 12 NOON.", "nsi_id": "unitedstatespostalservice-a77078", "operator": "United States Postal Service", "operator:short": "USPS", "operator:type": "public", "operator:wikidata": "Q668687", "ref": "0142000072"}, "type": "Feature"}
{"geometry": {"coordinates": [-71.7806346, 42.553972], "type": "Point"}, "id": "eyPcSD-dzdnfoSrpomYR3QIZ8fc=", "properties": {"@source_uri": "https://tools.usps.com/UspsToolsRestServices/rest/POLocator/findLocations", "@spider": "usps_collection_boxes", "addr:city": "FITCHBURG", "addr:country": "US", "addr:postcode": "01420", "addr:state": "MA", "addr:street_address": "150 WHALON ST", "amenity": "post_box", "collection_times": "Mo-Fr 16:15; Sa 14:00", "note": "ON 12/24 AND 12/31, THIS BOX MAY BE COLLECTED AS EARLY AS 12 NOON.", "nsi_id": "unitedstatespostalservice-a77078", "operator": "United States Postal Service", "operator:short": "USPS", "operator:type": "public", "operator:wikidata": "Q668687", "ref": "0142000074"}, "type": "Feature"}
{"geometry": {"coordinates": [-71.8335315, 42.577974], "type": "Point"}, "id": "kO1Iioq4sjAT41VXhzykexgRTYs=", "properties": {"@source_uri": "https://tools.usps.com/UspsToolsRestServices/rest/POLocator/findLocations", "@spider": "usps_collection_boxes", "addr:city": "FITCHBURG", "addr:country": "US", "addr:postcode": "01420", "addr:state": "MA", "addr:street_address": "767 RIVER ST", "amenity": "post_box", "collection_times": "Mo-Fr 16:15; Sa 14:00", "note": "ON 12/24 AND 12/31, THIS BOX MAY BE COLLECTED AS EARLY AS 12 NOON.", "nsi_id": "unitedstatespostalservice-a77078", "operator": "United States Postal Service", "operator:short": "USPS", "operator:type": "public", "operator:wikidata": "Q668687", "ref": "0142000078"}, "type": "Feature"}
{"geometry": {"coordinates": [-71.804349, 42.586263], "type": "Point"}, "id": "82PA6a2U4Y4Gp-W7OP7FNKODoU0=", "properties": {"@source_uri": "https://tools.usps.com/UspsToolsRestServices/rest/POLocator/findLocations", "@spider": "usps_collection_boxes", "addr:city": "FITCHBURG", "addr:country": "US", "addr:postcode": "01420", "addr:state": "MA", "addr:street_address": "881 MAIN ST", "amenity": "post_box", "collection_times": "Mo-Fr 17:00; Sa 12:00", "indoor": "yes", "note": "ON 12/24 AND 12/31, THIS BOX MAY BE COLLECTED AS EARLY AS 12 NOON.", "nsi_id": "unitedstatespostalservice-a77078", "operator": "United States Postal Service", "operator:short": "USPS", "operator:type": "public", "operator:wikidata": "Q668687", "ref": "0142000081"}, "type": "Feature"}
{"geometry": {"coordinates": [-71.804349, 42.586263], "type": "Point"}, "id": "A9Zfl1xuCl7AmmYCIQBxgzKijdU=", "properties": {"@source_uri": "https://tools.usps.com/UspsToolsRestServices/rest/POLocator/findLocations", "@spider": "usps_collection_boxes", "addr:city": "FITCHBURG", "addr:country": "US", "addr:postcode": "01420", "addr:state": "MA", "addr:street_address": "881 MAIN ST", "amenity": "post_box", "collection_times": "Mo-Fr 17:00; Sa 12:00", "indoor": "yes", "note": "ON 12/24 AND 12/31, THIS BOX MAY BE COLLECTED AS EARLY AS 12 NOON.", "nsi_id": "unitedstatespostalservice-a77078", "operator": "United States Postal Service", "operator:short": "USPS", "operator:type": "public", "operator:wikidata": "Q668687", "ref": "0142000082"}, "type": "Feature"}
{"geometry": {"coordinates": [-71.8024863, 42.598595], "type": "Point"}, "id": "VdPr8Wudu2JEHOqzZNGiDPf24WA=", "properties": {"@source_uri": "https://tools.usps.com/UspsToolsRestServices/rest/POLocator/findLocations", "@spider": "usps_collection_boxes", "addr:city": "FITCHBURG", "addr:country": "US", "addr:postcode": "01420", "addr:state": "MA", "addr:street_address": "442 MECHANIC ST", "amenity": "post_box", "collection_times": "Mo-Fr 16:15; Sa 14:00", "note": "ON 12/24 AND 12/31, THIS BOX MAY BE COLLECTED AS EARLY AS 12 NOON.", "nsi_id": "unitedstatespostalservice-a77078", "operator": "United States Postal Service", "operator:short": "USPS", "operator:type": "public", "operator:wikidata": "Q668687", "ref": "0142000083"}, "type": "Feature"}
{"geometry": {"coordinates": [-71.7988699, 42.5827], "type": "Point"}, "id": "xT_PHKS15X2J0fWyo1OE_PPeU1M=", "properties": {"@source_uri": "https://tools.usps.com/UspsToolsRestServices/rest/POLocator/findLocations", "@spider": "usps_collection_boxes", "addr:city": "FITCHBURG", "addr:country": "US", "addr:postcode": "01420", "addr:state": "MA", "addr:street_address": "49 NURSERY LN", "amenity": "post_box", "collection_times": "Mo-Fr 15:00", "note": "ON 12/24 AND 12/31, THIS BOX MAY BE COLLECTED AS EARLY AS 12 NOON.", "nsi_id": "unitedstatespostalservice-a77078", "operator": "United States Postal Service", "operator:short": "USPS", "operator:type": "public", "operator:wikidata": "Q668687", "ref": "0142000089"}, "type": "Feature"}
{"geometry": {"coordinates": [-71.91762, 42.62801], "type": "Point"}, "id": "qGwVgPELlWgdDBiYF5o7b6FIAuc=", "properties": {"@source_uri": "https://tools.usps.com/UspsToolsRestServices/rest/POLocator/findLocations", "@spider": "usps_collection_boxes", "addr:city": "ASHBURNHAM", "addr:country": "US", "addr:postcode": "01430", "addr:state": "MA", "addr:street_address": "123 CENTRAL ST", "amenity": "post_box", "collection_times": "Mo-Fr 17:00; Sa 13:45", "note": "ON 12/24 AND 12/31, THIS BOX MAY BE COLLECTED AS EARLY AS 12 NOON.", "nsi_id": "unitedstatespostalservice-a77078", "operator": "United States Postal Service", "operator:short": "USPS", "operator:type": "public", "operator:wikidata": "Q668687", "ref": "0143000001"}, "type": "Feature"}
{"geometry": {"coordinates": [-71.9107899, 42.635559], "type": "Point"}, "id": "FUkokXHehhoIesUz01Q6D3EIssU=", "properties": {"@source_uri": "https://tools.usps.com/UspsToolsRestServices/rest/POLocator/findLocations", "@spider": "usps_collection_boxes", "addr:city": "ASHBURNHAM", "addr:country": "US", "addr:postcode": "01430", "addr:state": "MA", "addr:street_address": "67 MAIN ST", "amenity": "post_box", "collection_times": "Mo-Sa 09:00", "nsi_id": "unitedstatespostalservice-a77078", "operator": "United States Postal Service", "operator:short": "USPS", "operator:type": "public", "operator:wikidata": "Q668687", "ref": "0143000004"}, "type": "Feature"}
{"geometry": {"coordinates": [-71.917662, 42.628029], "type": "Point"}, "id": "KM0sWpl4Ir5PMHkAyww18pYLexI=", "properties": {"@source_uri": "https://tools.usps.com/UspsToolsRestServices/rest/POLocator/findLocations", "@spider": "usps_collection_boxes", "addr:city": "ASHBURNHAM", "addr:country": "US", "addr:postcode": "01430", "addr:state": "MA", "addr:street_address": "123 CENTRAL ST", "amenity": "post_box", "collection_times": "Mo-Fr 17:00; Sa 12:00", "indoor": "yes", "note": "ON 12/24 AND 12/31, THIS BOX MAY BE COLLECTED AS EARLY AS 12 NOON.", "nsi_id": "unitedstatespostalservice-a77078", "operator": "United States Postal Service", "operator:short": "USPS", "operator:type": "public", "operator:wikidata": "Q668687", "ref": "0143000006"}, "type": "Feature"}
{"geometry": {"coordinates": [-71.8208731, 42.678158], "type": "Point"}, "id": "WVep2oEH1fQVKWKIkhjoawDfTQg=", "properties": {"@source_uri": "https://tools.usps.com/UspsToolsRestServices/rest/POLocator/findLocations", "@spider": "usps_collection_boxes", "addr:city": "ASHBY", "addr:country": "US", "addr:postcode": "01431", "addr:state": "MA", "addr:street_address": "10 COMMON RD", "amenity": "post_box", "collection_times": "Mo-Fr 16:45; Sa 12:00", "note": "ON 12/24 AND 12/31, THIS BOX MAY BE COLLECTED AS EARLY AS 12 NOON.", "nsi_id": "unitedstatespostalservice-a77078", "operator": "United States Postal Service", "operator:short": "USPS", "operator:type": "public", "operator:wikidata": "Q668687", "ref": "0143100001"}, "type": "Feature"}
{"geometry": {"coordinates": [-71.8208148, 42.678016], "type": "Point"}, "id": "jCVgv13DfQnihnKrJE0-mqrG6N4=", "properties": {"@source_uri": "https://tools.usps.com/UspsToolsRestServices/rest/POLocator/findLocations", "@spider": "usps_collection_boxes", "addr:city": "ASHBY", "addr:country": "US", "addr:postcode": "01431", "addr:state": "MA", "addr:street_address": "10 COMMON RD", "amenity": "post_box", "collection_times": "Mo-Fr 16:45; Sa 12:00", "indoor": "yes", "note": "ON 12/24 AND 12/31, THIS BOX MAY BE COLLECTED AS EARLY AS 12 NOON.", "nsi_id": "unitedstatespostalservice-a77078", "operator": "United States Postal Service", "operator:short": "USPS", "operator:type": "public", "operator:wikidata": "Q668687", "ref": "0143100003"}, "type": "Feature"}
{"geometry": {"coordinates": [-71.5858714, 42.559586], "type": "Point"}, "id": "EZq8EcWI9tSO8KaGLWuOT_NlCcU=", "properties": {"@source_uri": "https://tools.usps.com/UspsToolsRestServices/rest/POLocator/findLocations", "@spider": "usps_collection_boxes", "addr:city": "AYER", "addr:country": "US", "addr:postcode": "01432", "addr:state": "MA", "addr:street_address": "1 COLUMBIA ST", "amenity": "post_box", "collection_times": "Mo-Fr 17:00; Sa 14:45", "note": "ON 12/24 AND 12/31, THIS BOX MAY BE COLLECTED AS EARLY AS 12 NOON.", "nsi_id": "unitedstatespostalservice-a77078", "operator": "United States Postal Service", "operator:short": "USPS", "operator:type": "public", "operator:wikidata": "Q668687", "ref": "0143200001"}, "type": "Feature"}
{"geometry": {"coordinates": [-71.5828868, 42.555346], "type": "Point"}, "id": "DE6ddJSUW9ag4iO4oabL-mg93dE=", "properties": {"@source_uri": "https://tools.usps.com/UspsToolsRestServices/rest/POLocator/findLocations", "@spider": "usps_collection_boxes", "addr:city": "AYER", "addr:country": "US", "addr:postcode": "01432", "addr:state": "MA", "addr:street_address": "18 POND ST", "amenity": "post_box", "collection_times": "Mo-Sa 10:00", "nsi_id": "unitedstatespostalservice-a77078", "operator": "United States Postal Service", "operator:short": "USPS", "operator:type": "public", "operator:wikidata": "Q668687", "ref": "0143200016"}, "type": "Feature"}
{"geometry": {"coordinates": [-71.5914415, 42.57516], "type": "Point"}, "id": "DKasL3f83kIWtuWttBytQ6kY8SQ=", "properties": {"@source_uri": "https://tools.usps.com/UspsToolsRestServices/rest/POLocator/findLocations", "@spider": "usps_collection_boxes", "addr:city": "AYER", "addr:country": "US", "addr:postcode": "01432", "addr:state": "MA", "addr:street_address": "75 GROTON SCHOOL RD", "amenity": "post_box", "collection_times": "Mo-Sa 10:00", "nsi_id": "unitedstatespostalservice-a77078", "operator": "United States Postal Service", "operator:short": "USPS", "operator:type": "public", "operator:wikidata": "Q668687", "ref": "0143200017"}, "type": "Feature"}
{"geometry": {"coordinates": [-71.5837547, 42.565933], "type": "Point"}, "id": "Sm0hjnFIMg-RM0OyUctAx353Gkc=", "properties": {"@source_uri": "https://tools.usps.com/UspsToolsRestServices/rest/POLocator/findLocations", "@spider": "usps_collection_boxes", "addr:city": "AYER", "addr:country": "US", "addr:postcode": "01432", "addr:state": "MA", "addr:street_address": "92 WASHINGTON ST", "amenity": "post_box", "collection_times": "Mo-Sa 09:00", "nsi_id": "unitedstatespostalservice-a77078", "operator": "United States Postal Service", "operator:short": "USPS", "operator:type": "public", "operator:wikidata": "Q668687", "ref": "0143200019"}, "type": "Feature"}
{"geometry": {"coordinates": [-71.5735991, 42.577287], "type": "Point"}, "id": "yo6dOCa-lHnG-a5b7N5c4XdIPfE=", "properties": {"@source_uri": "https://tools.usps.com/UspsToolsRestServices/rest/POLocator/findLocations", "@spider": "usps_collection_boxes", "addr:city": "AYER", "addr:country": "US", "addr:postcode": "01432", "addr:state": "MA", "addr:street_address": "200 GROTON RD", "amenity": "post_box", "collection_times": "Mo-Fr 10:00; Sa 09:00", "nsi_id": "unitedstatespostalservice-a77078", "operator": "United States Postal Service", "operator:short": "USPS", "operator:type": "public", "operator:wikidata": "Q668687", "ref": "0143200020"}, "type": "Feature"}
{"geometry": {"coordinates": [-71.5745674, 42.576538], "type": "Point"}, "id": "UyvijDn1DT2vK-1Qeoq2PomEpAU=", "properties": {"@source_uri": "https://tools.usps.com/UspsToolsRestServices/rest/POLocator/findLocations", "@spider": "usps_collection_boxes", "addr:city": "AYER", "addr:country": "US", "addr:postcode": "01432", "addr:state": "MA", "addr:street_address": "190 GROTON RD", "amenity": "post_box", "collection_times": "Mo-Fr 10:00; Sa 09:00", "nsi_id": "unitedstatespostalservice-a77078", "operator": "United States Postal Service", "operator:short": "USPS", "operator:type": "public", "operator:wikidata": "Q668687", "ref": "0143200021"}, "type": "Feature"}
{"geometry": {"coordinates": [-71.5330525557, 42.5658827751], "type": "Point"}, "id": "WBEyp0rtZA3UhRPZSMZnbfB-q6k=", "properties": {"@source_uri": "https://tools.usps.com/UspsToolsRestServices/rest/POLocator/findLocations", "@spider": "usps_collection_boxes", "addr:city": "AYER", "addr:country": "US", "addr:postcode": "01432", "addr:state": "MA", "addr:street_address": "6 NEMCO WAY", "amenity": "post_box", "collection_times": "Mo-Sa 10:00", "nsi_id": "unitedstatespostalservice-a77078", "operator": "United States Postal Service", "operator:short": "USPS", "operator:type": "public", "operator:wikidata": "Q668687", "ref": "0143200023"}, "type": "Feature"}
{"geometry": {"coordinates": [-71.5390686, 42.561684], "type": "Point"}, "id": "y92Lo0xIbDgS70KfrLGSf-ejZnY=", "properties": {"@source_uri": "https://tools.usps.com/UspsToolsRestServices/rest/POLocator/findLocations", "@spider": "usps_collection_boxes", "addr:city": "AYER", "addr:country": "US", "addr:postcode": "01432", "addr:state": "MA", "addr:street_address": "18 WESTFORD RD", "amenity": "post_box", "collection_times": "Mo-Sa 10:00", "nsi_id": "unitedstatespostalservice-a77078", "operator": "United States Postal Service", "operator:short": "USPS", "operator:type": "public", "operator:wikidata": "Q668687", "ref": "0143200025"}, "type": "Feature"}
{"geometry": {"coordinates": [-71.58586, 42.561335], "type": "Point"}, "id": "B4sO3t5v0x4Z63FGMBJ2_-GpffI=", "properties": {"@source_uri": "https://tools.usps.com/UspsToolsRestServices/rest/POLocator/findLocations", "@spider": "usps_collection_boxes", "addr:city": "AYER", "addr:country": "US", "addr:postcode": "01432", "addr:state": "MA", "addr:street_address": "2 ATHERTON ST", "amenity": "post_box", "collection_times": "Mo-Sa 10:00", "nsi_id": "unitedstatespostalservice-a77078", "operator": "United States Postal Service", "operator:short": "USPS", "operator:type": "public", "operator:wikidata": "Q668687", "ref": "0143200028"}, "type": "Feature"}
{"geometry": {"coordinates": [-71.5795249, 42.5561], "type": "Point"}, "id": "hqtcNWSicPnrYpNnJ0_0T2tuU_g=", "properties": {"@source_uri": "https://tools.usps.com/UspsToolsRestServices/rest/POLocator/findLocations", "@spider": "usps_collection_boxes", "addr:city": "AYER", "addr:country": "US", "addr:postcode": "01432", "addr:state": "MA", "addr:street_address": "70 E MAIN ST", "amenity": "post_box", "collection_times": "Mo-Sa 09:00", "nsi_id": "unitedstatespostalservice-a77078", "operator": "United States Postal Service", "operator:short": "USPS", "operator:type": "public", "operator:wikidata": "Q668687", "ref": "0143200029"}, "type": "Feature"}
{"geometry": {"coordinates": [-71.5896667, 42.560014], "type": "Point"}, "id": "SYFn14E0XLXHqjE4sDixI9dOJz0=", "properties": {"@source_uri": "https://tools.usps.com/UspsToolsRestServices/rest/POLocator/findLocations", "@spider": "usps_collection_boxes", "addr:city": "AYER", "addr:country": "US", "addr:postcode": "01432", "addr:state": "MA", "addr:street_address": "67 MAIN ST", "amenity": "post_box", "collection_times": "Mo-Sa 09:00", "nsi_id": "unitedstatespostalservice-a77078", "operator": "United States Postal Service", "operator:short": "USPS", "operator:type": "public", "operator:wikidata": "Q668687", "ref": "0143200030"}, "type": "Feature"}
{"geometry": {"coordinates": [-71.5861959, 42.559458], "type": "Point"}, "id": "ceuCB2QLGQov9pJSCRY7vCwQUbA=", "properties": {"@source_uri": "https://tools.usps.com/UspsToolsRestServices/rest/POLocator/findLocations", "@spider": "usps_collection_boxes", "addr:city": "AYER", "addr:country": "US", "addr:postcode": "01432", "addr:state": "MA", "addr:street_address": "1 COLUMBIA ST", "amenity": "post_box", "collection_times": "Mo-Fr 17:00; Sa 14:45", "indoor": "yes", "note": "ON 12/24 AND 12/31, THIS BOX MAY BE COLLECTED AS EARLY AS 12 NOON.", "nsi_id": "unitedstatespostalservice-a77078", "operator": "United States Postal Service", "operator:short": "USPS", "operator:type": "public", "operator:wikidata": "Q668687", "ref": "0143200033"}, "type": "Feature"}
{"geometry": {"coordinates": [-71.5861943, 42.55946], "type": "Point"}, "id": "lmHHh-U2ab-KfgCz5a-AtpLLt9A=", "properties": {"@source_uri": "https://tools.usps.com/UspsToolsRestServices/rest/POLocator/findLocations", "@spider": "usps_collection_boxes", "addr:city": "AYER", "addr:country": "US", "addr:postcode": "01432", "addr:state": "MA", "addr:street_address": "1 COLUMBIA ST", "amenity": "post_box", "collection_times": "Mo-Fr 17:00; Sa 14:45", "indoor": "yes", "note": "ON 12/24 AND 12/31, THIS BOX MAY BE COLLECTED AS EARLY AS 12 NOON.", "nsi_id": "unitedstatespostalservice-a77078", "operator": "United States Postal Service", "operator:short": "USPS", "operator:type": "public", "operator:wikidata": "Q668687", "ref": "0143200034"}, "type": "Feature"}
{"geometry": {"coordinates": [-71.6040486, 42.538918], "type": "Point"}, "id": "ZEe3OiNsJGjrKhNlgxDB4_vCOoc=", "properties": {"@source_uri": "https://tools.usps.com/UspsToolsRestServices/rest/POLocator/findLocations", "@spider": "usps_collection_boxes", "addr:city": "AYER", "addr:country": "US", "addr:postcode": "01432", "addr:state": "MA", "addr:street_address": "240 BARNUM RD", "amenity": "post_box", "collection_times": "Mo-Fr 14:30; Sa 10:00", "note": "ON 12/24 AND 12/31, THIS BOX MAY BE COLLECTED AS EARLY AS 12 NOON.", "nsi_id": "unitedstatespostalservice-a77078", "operator": "United States Postal Service", "operator:short": "USPS", "operator:type": "public", "operator:wikidata": "Q668687", "ref": "0143200035"}, "type": "Feature"}
{"geometry": {"coordinates": [-71.6134779, 42.547904], "type": "Point"}, "id": "mrbAP_O8Rq67wqYuRqL0y4MhXoI=", "properties": {"@source_uri": "https://tools.usps.com/UspsToolsRestServices/rest/POLocator/findLocations", "@spider": "usps_collection_boxes", "addr:city": "AYER", "addr:country": "US", "addr:postcode": "01432", "addr:state": "MA", "addr:street_address": "1 SHERMAN AVE", "amenity": "post_box", "collection_times": "Mo-Sa 10:00", "nsi_id": "unitedstatespostalservice-a77078", "operator": "United States Postal Service", "operator:short": "USPS", "operator:type": "public", "operator:wikidata": "Q668687", "ref": "0143200041"}, "type": "Feature"}
{"geometry": {"coordinates": [-71.6119386, 42.540252], "type": "Point"}, "id": "cbpOTvXihJCqPlWlv4z6Un6PbcQ=", "properties": {"@source_uri": "https://tools.usps.com/UspsToolsRestServices/rest/POLocator/findLocations", "@spider": "usps_collection_boxes", "addr:city": "AYER", "addr:country": "US", "addr:postcode": "01432", "addr:state": "MA", "addr:street_address": "25 ANDREWS PKWY", "amenity": "post_box", "collection_times": "Mo-Sa 10:00", "nsi_id": "unitedstatespostalservice-a77078", "operator": "United States Postal Service", "operator:short": "USPS", "operator:type": "public", "operator:wikidata": "Q668687", "ref": "0143200043"}, "type": "Feature"}
{"geometry": {"coordinates": [-71.6158086, 42.535761], "type": "Point"}, "id": "OdHSOHGQ-hGbwczlNsyukPwQ8cM=", "properties": {"@source_uri": "https://tools.usps.com/UspsToolsRestServices/rest/POLocator/findLocations", "@spider": "usps_collection_boxes", "addr:city": "AYER", "addr:country": "US", "addr:postcode": "01432", "addr:state": "MA", "addr:street_address": "10 LAFAYETTE ST", "amenity": "post_box", "collection_times": "Mo-Sa 10:00", "nsi_id": "unitedstatespostalservice-a77078", "operator": "United States Postal Service", "operator:short": "USPS", "operator:type": "public", "operator:wikidata": "Q668687", "ref": "0143200044"}, "type": "Feature"}
{"geometry": {"coordinates": [-72.0753366, 42.609022], "type": "Point"}, "id": "y2W2RCC5EiJVLL8x0OC1EwTuWh8=", "properties": {"@source_uri": "https://tools.usps.com/UspsToolsRestServices/rest/POLocator/findLocations", "@spider": "usps_collection_boxes", "addr:city": "BALDWINVILLE", "addr:country": "US", "addr:postcode": "01436", "addr:state": "MA", "addr:street_address": "38 ELM ST", "amenity": "post_box", "collection_times": "Mo-Fr 17:00; Sa 12:00", "note": "ON 12/24 AND 12/31, THIS BOX MAY BE COLLECTED AS EARLY AS 12 NOON.", "nsi_id": "unitedstatespostalservice-a77078", "operator": "United States Postal Service", "operator:short": "USPS", "operator:type": "public", "operator:wikidata": "Q668687", "ref": "0143600001"}, "type": "Feature"}
{"geometry": {"coordinates": [-72.0752834474, 42.6090870114], "type": "Point"}, "id": "KDHJ6Y24FWzUSLSdc0F0qfu_lio=", "properties": {"@source_uri": "https://tools.usps.com/UspsToolsRestServices/rest/POLocator/findLocations", "@spider": "usps_collection_boxes", "addr:city": "BALDWINVILLE", "addr:country": "US", "addr:postcode": "01436", "addr:state": "MA", "addr:street_address": "38 ELM ST", "amenity": "post_box", "collection_times": "Mo-Fr 17:00; Sa 12:00", "indoor": "yes", "note": "ON 12/24 AND 12/31, THIS BOX MAY BE COLLECTED AS EARLY AS 12 NOON.", "nsi_id": "unitedstatespostalservice-a77078", "operator": "United States Postal Service", "operator:short": "USPS", "operator:type": "public", "operator:wikidata": "Q668687", "ref": "0143600004"}, "type": "Feature"}
{"geometry": {"coordinates": [-72.038096, 42.562014], "type": "Point"}, "id": "3prM_6uqte0C2LFgwKV8rcIIqG8=", "properties": {"@source_uri": "https://tools.usps.com/UspsToolsRestServices/rest/POLocator/findLocations", "@spider": "usps_collection_boxes", "addr:city": "EAST TEMPLETON", "addr:country": "US", "addr:postcode": "01438", "addr:state": "MA", "addr:street_address": "132B PATRIOTS RD", "amenity": "post_box", "collection_times": "Mo-Fr 17:00; Sa 12:00", "note": "ON 12/24 AND 12/31, THIS BOX MAY BE COLLECTED AS EARLY AS 12 NOON.", "nsi_id": "unitedstatespostalservice-a77078", "operator": "United States Postal Service", "operator:short": "USPS", "operator:type": "public", "operator:wikidata": "Q668687", "ref": "0143800001"}, "type": "Feature"}
{"geometry": {"coordinates": [-72.038053, 42.562066], "type": "Point"}, "id": "GKl8QPHJzW6TeEpaYjF7FVbFYyA=", "properties": {"@source_uri": "https://tools.usps.com/UspsToolsRestServices/rest/POLocator/findLocations", "@spider": "usps_collection_boxes", "addr:city": "EAST TEMPLETON", "addr:country": "US", "addr:postcode": "01438", "addr:state": "MA", "addr:street_address": "132B PATRIOTS RD", "amenity": "post_box", "collection_times": "Mo-Fr 17:00; Sa 12:00", "indoor": "yes", "note": "ON 12/24 AND 12/31, THIS BOX MAY BE COLLECTED AS EARLY AS 12 NOON.", "nsi_id": "unitedstatespostalservice-a77078", "operator": "United States Postal Service", "operator:short": "USPS", "operator:type": "public", "operator:wikidata": "Q668687", "ref": "0143800002"}, "type": "Feature"}
{"geometry": {"coordinates": [-71.9954619, 42.574545], "type": "Point"}, "id": "FADlyvawOiOePpFdJElCJvz9oQI=", "properties": {"@source_uri": "https://tools.usps.com/UspsToolsRestServices/rest/POLocator/findLocations", "@spider": "usps_collection_boxes", "addr:city": "GARDNER", "addr:country": "US", "addr:postcode": "01440", "addr:state": "MA", "addr:street_address": "69 PLEASANT ST", "amenity": "post_box", "collection_times": "Mo-Fr 17:00; Sa 15:45", "note": "ON 12/24 AND 12/31, THIS BOX MAY BE COLLECTED AS EARLY AS 12 NOON.", "nsi_id": "unitedstatespostalservice-a77078", "operator": "United States Postal Service", "operator:short": "USPS", "operator:type": "public", "operator:wikidata": "Q668687", "ref": "0144000001"}, "type": "Feature"}
{"geometry": {"coordinates": [-71.9955983, 42.576075], "type": "Point"}, "id": "CUak0lScA1mGwqdSGsEsInmNU4U=", "properties": {"@source_uri": "https://tools.usps.com/UspsToolsRestServices/rest/POLocator/findLocations", "@spider": "usps_collection_boxes", "addr:city": "GARDNER", "addr:country": "US", "addr:postcode": "01440", "addr:state": "MA", "addr:street_address": "29 PARKER ST", "amenity": "post_box", "collection_times": "Mo-Sa 09:00", "nsi_id": "unitedstatespostalservice-a77078", "operator": "United States Postal Service", "operator:short": "USPS", "operator:type": "public", "operator:wikidata": "Q668687", "ref": "0144000005"}, "type": "Feature"}
{"geometry": {"coordinates": [-72.0037768, 42.578341], "type": "Point"}, "id": "54hQa_g98exkQLnuFlXZgL0JBxA=", "properties": {"@source_uri": "https://tools.usps.com/UspsToolsRestServices/rest/POLocator/findLocations", "@spider": "usps_collection_boxes", "addr:city": "GARDNER", "addr:country": "US", "addr:postcode": "01440", "addr:state": "MA", "addr:street_address": "212 WEST ST", "amenity": "post_box", "collection_times": "Mo-Sa 12:30", "note": "ON 12/24 AND 12/31, THIS BOX MAY BE COLLECTED AS EARLY AS 12 NOON.", "nsi_id": "unitedstatespostalservice-a77078", "operator": "United States Postal Service", "operator:short": "USPS", "operator:type": "public", "operator:wikidata": "Q668687", "ref": "0144000007"}, "type": "Feature"}
{"geometry": {"coordinates": [-72.0006054, 42.575663], "type": "Point"}, "id": "gQKvOMdtKV2LYV4R7WXggX__wLQ=", "properties": {"@source_uri": "https://tools.usps.com/UspsToolsRestServices/rest/POLocator/findLocations", "@spider": "usps_collection_boxes", "addr:city": "GARDNER", "addr:country": "US", "addr:postcode": "01440", "addr:state": "MA", "addr:street_address": "229 PARKER ST", "amenity": "post_box", "collection_times": "Mo-Sa 09:30", "nsi_id": "unitedstatespostalservice-a77078", "operator": "United States Postal Service", "operator:short": "USPS", "operator:type": "public", "operator:wikidata": "Q668687", "ref": "0144000008"}, "type": "Feature"}
{"geometry": {"coordinates": [-71.9896591, 42.558862], "type": "Point"}, "id": "5E0OiA9CcBiXDzPSocHYlXJutbk=", "properties": {"@source_uri": "https://tools.usps.com/UspsToolsRestServices/rest/POLocator/findLocations", "@spider": "usps_collection_boxes", "addr:city": "GARDNER", "addr:country": "US", "addr:postcode": "01440", "addr:state": "MA", "addr:street_address": "372 TIMPANY BLVD", "amenity": "post_box", "collection_times": "Mo-Sa 10:30", "nsi_id": "unitedstatespostalservice-a77078", "operator": "United States Postal Service", "operator:short": "USPS", "operator:type": "public", "operator:wikidata": "Q668687", "ref": "0144000010"}, "type": "Feature"}
{"geometry": {"coordinates": [-71.9798076, 42.557217], "type": "Point"}, "id": "Fj5RN256TcKHK2jph7AARSzKpU0=", "properties": {"@source_uri": "https://tools.usps.com/UspsToolsRestServices/rest/POLocator/findLocations", "@spider": "usps_collection_boxes", "addr:city": "GARDNER", "addr:country": "US", "addr:postcode": "01440", "addr:state": "MA", "addr:street_address": "20 E BROADWAY", "amenity": "post_box", "collection_times": "Mo-Fr 10:00; Sa 10:15", "nsi_id": "unitedstatespostalservice-a77078", "operator": "United States Postal Service", "operator:short": "USPS", "operator:type": "public", "operator:wikidata": "Q668687", "ref": "0144000013"}, "type": "Feature"}
{"geometry": {"coordinates": [-71.9769923, 42.5654], "type": "Point"}, "id": "SIy2NduVewe-z-lIoEp4-Gp3kSQ=", "properties": {"@source_uri": "https://tools.usps.com/UspsToolsRestServices/rest/POLocator/findLocations", "@spider": "usps_collection_boxes", "addr:city": "GARDNER", "addr:country": "US", "addr:postcode": "01440", "addr:state": "MA", "addr:street_address": "52 PEARSON BLVD", "amenity": "post_box", "collection_times": "Mo-Sa 10:00", "nsi_id": "unitedstatespostalservice-a77078", "operator": "United States Postal Service", "operator:short": "USPS", "operator:type": "public", "operator:wikidata": "Q668687", "ref": "0144000014"}, "type": "Feature"}
{"geometry": {"coordinates": [-71.9970224, 42.58368], "type": "Point"}, "id": "W_WFYs7V70etBv2ZT0ucLqkUVfI=", "properties": {"@source_uri": "https://tools.usps.com/UspsToolsRestServices/rest/POLocator/findLocations", "@spider": "usps_collection_boxes", "addr:city": "GARDNER", "addr:country": "US", "addr:postcode": "01440", "addr:state": "MA", "addr:street_address": "236 PARK ST", "amenity": "post_box", "collection_times": "Mo-Sa 11:00", "nsi_id": "unitedstatespostalservice-a77078", "operator": "United States Postal Service", "operator:short": "USPS", "operator:type": "public", "operator:wikidata": "Q668687", "ref": "0144000017"}, "type": "Feature"}
{"geometry": {"coordinates": [-71.9870596, 42.587157], "type": "Point"}, "id": "NsAxJhtyg8BQnl67dI_TOgQLAfU=", "properties": {"@source_uri": "https://tools.usps.com/UspsToolsRestServices/rest/POLocator/findLocations", "@spider": "usps_collection_boxes", "addr:city": "GARDNER", "addr:country": "US", "addr:postcode": "01440", "addr:state": "MA", "addr:street_address": "242 GREEN ST", "amenity": "post_box", "collection_times": "Mo-Sa 10:00", "nsi_id": "unitedstatespostalservice-a77078", "operator": "United States Postal Service", "operator:short": "USPS", "operator:type": "public", "operator:wikidata": "Q668687", "ref": "0144000018"}, "type": "Feature"}
{"geometry": {"coordinates": [-71.9816159, 42.583258], "type": "Point"}, "id": "OGBvgSaMQv04CyLbW2_vfvrnfjU=", "properties": {"@source_uri": "https://tools.usps.com/UspsToolsRestServices/rest/POLocator/findLocations", "@spider": "usps_collection_boxes", "addr:city": "GARDNER", "addr:country": "US", "addr:postcode": "01440", "addr:state": "MA", "addr:street_address": "137 BLANCHARD ST", "amenity": "post_box", "collection_times": "Mo-Sa 11:00", "nsi_id": "unitedstatespostalservice-a77078", "operator": "United States Postal Service", "operator:short": "USPS", "operator:type": "public", "operator:wikidata": "Q668687", "ref": "0144000020"}, "type": "Feature"}
{"geometry": {"coordinates": [-71.99539, 42.57373], "type": "Point"}, "id": "O9a6jrDxnsw8bRSDk8GyvokfBPg=", "properties": {"@source_uri": "https://tools.usps.com/UspsToolsRestServices/rest/POLocator/findLocations", "@spider": "usps_collection_boxes", "addr:city": "GARDNER", "addr:country": "US", "addr:postcode": "01440", "addr:state": "MA", "addr:street_address": "28 PEARL STREET", "amenity": "post_box", "collection_times": "Mo-Sa 12:30", "note": "ON 12/24 AND 12/31, THIS BOX MAY BE COLLECTED AS EARLY AS 12 NOON.", "nsi_id": "unitedstatespostalservice-a77078", "operator": "United States Postal Service", "operator:short": "USPS", "operator:type": "public", "operator:wikidata": "Q668687", "ref": "0144000021"}, "type": "Feature"}
{"geometry": {"coordinates": [-71.9754054, 42.581575], "type": "Point"}, "id": "Pk0LbzoiRnuPTonlLOmAYaY2ZQY=", "properties": {"@source_uri": "https://tools.usps.com/UspsToolsRestServices/rest/POLocator/findLocations", "@spider": "usps_collection_boxes", "addr:city": "GARDNER", "addr:country": "US", "addr:postcode": "01440", "addr:state": "MA", "addr:street_address": "105 RIDGEWOOD LN", "amenity": "post_box", "collection_times": "Mo-Sa 12:00", "nsi_id": "unitedstatespostalservice-a77078", "operator": "United States Postal Service", "operator:short": "USPS", "operator:type": "public", "operator:wikidata": "Q668687", "ref": "0144000025"}, "type": "Feature"}
{"geometry": {"coordinates": [-71.9751631, 42.555866], "type": "Point"}, "id": "Qh3-IYv152I1V6OjmrD0b9JC7Oc=", "properties": {"@source_uri": "https://tools.usps.com/UspsToolsRestServices/rest/POLocator/findLocations", "@spider": "usps_collection_boxes", "addr:city": "GARDNER", "addr:country": "US", "addr:postcode": "01440", "addr:state": "MA", "addr:street_address": "9 SUNRISE LN", "amenity": "post_box", "collection_times": "Mo-Sa 09:30", "nsi_id": "unitedstatespostalservice-a77078", "operator": "United States Postal Service", "operator:short": "USPS", "operator:type": "public", "operator:wikidata": "Q668687", "ref": "0144000027"}, "type": "Feature"}
{"geometry": {"coordinates": [-71.9940699, 42.578001], "type": "Point"}, "id": "ioi8pUlvn_RnNjQHcwJPf4t2lsk=", "properties": {"@source_uri": "https://tools.usps.com/UspsToolsRestServices/rest/POLocator/findLocations", "@spider": "usps_collection_boxes", "addr:city": "GARDNER", "addr:country": "US", "addr:postcode": "01440", "addr:state": "MA", "addr:street_address": "71 LAKE ST", "amenity": "post_box", "collection_times": "Mo-Sa 10:30", "nsi_id": "unitedstatespostalservice-a77078", "operator": "United States Postal Service", "operator:short": "USPS", "operator:type": "public", "operator:wikidata": "Q668687", "ref": "0144000030"}, "type": "Feature"}
{"geometry": {"coordinates": [-71.998234, 42.558681], "type": "Point"}, "id": "YWbYboa5MY21qYuUSkW9MgjJ2Mo=", "properties": {"@source_uri": "https://tools.usps.com/UspsToolsRestServices/rest/POLocator/findLocations", "@spider": "usps_collection_boxes", "addr:city": "GARDNER", "addr:country": "US", "addr:postcode": "01440", "addr:state": "MA", "addr:street_address": "152 MANCA DR", "amenity": "post_box", "collection_times": "Mo-Sa 12:30", "note": "ON 12/24 AND 12/31, THIS BOX MAY BE COLLECTED AS EARLY AS 12 NOON.", "nsi_id": "unitedstatespostalservice-a77078", "operator": "United States Postal Service", "operator:short": "USPS", "operator:type": "public", "operator:wikidata": "Q668687", "ref": "0144000034"}, "type": "Feature"}
{"geometry": {"coordinates": [-71.9955814, 42.574512], "type": "Point"}, "id": "bKgoutV7E7Tyg82gZHhLMXwfxrk=", "properties": {"@source_uri": "https://tools.usps.com/UspsToolsRestServices/rest/POLocator/findLocations", "@spider": "usps_collection_boxes", "addr:city": "GARDNER", "addr:country": "US", "addr:postcode": "01440", "addr:state": "MA", "addr:street_address": "69 PLEASANT ST", "amenity": "post_box", "collection_times": "Mo-Fr 17:00; Sa 15:45", "note": "ON 12/24 AND 12/31, THIS BOX MAY BE COLLECTED AS EARLY AS 12 NOON.", "nsi_id": "unitedstatespostalservice-a77078", "operator": "United States Postal Service", "operator:short": "USPS", "operator:type": "public", "operator:wikidata": "Q668687", "ref": "0144000036"}, "type": "Feature"}
{"geometry": {"coordinates": [-71.9945114, 42.572933], "type": "Point"}, "id": "8vtz7OJcBovJtyIUC7cFLZDXbwU=", "properties": {"@source_uri": "https://tools.usps.com/UspsToolsRestServices/rest/POLocator/findLocations", "@spider": "usps_collection_boxes", "addr:city": "GARDNER", "addr:country": "US", "addr:postcode": "01440", "addr:state": "MA", "addr:street_address": "167 MAIN ST", "amenity": "post_box", "collection_times": "Mo-Sa 09:00", "nsi_id": "unitedstatespostalservice-a77078", "operator": "United States Postal Service", "operator:short": "USPS", "operator:type": "public", "operator:wikidata": "Q668687", "ref": "0144000037"}, "type": "Feature"}
{"geometry": {"coordinates": [-71.9859511, 42.574004], "type": "Point"}, "id": "rT5lR_dk3MAM64oTayVNk4Yb5gE=", "properties": {"@source_uri": "https://tools.usps.com/UspsToolsRestServices/rest/POLocator/findLocations", "@spider": "usps_collection_boxes", "addr:city": "GARDNER", "addr:country": "US", "addr:postcode": "01440", "addr:state": "MA", "addr:street_address": "205 SCHOOL ST", "amenity": "post_box", "collection_times": "Mo-Sa 10:30", "nsi_id": "unitedstatespostalservice-a77078", "operator": "United States Postal Service", "operator:short": "USPS", "operator:type": "public", "operator:wikidata": "Q668687", "ref": "0144000040"}, "type": "Feature"}
{"geometry": {"coordinates": [-71.5697633, 42.607225], "type": "Point"}, "id": "5nt4WvvBJioFBY_8wdwPZ_8CQ9c=", "properties": {"@source_uri": "https://tools.usps.com/UspsToolsRestServices/rest/POLocator/findLocations", "@spider": "usps_collection_boxes", "addr:city": "GROTON", "addr:country": "US", "addr:postcode": "01450", "addr:state": "MA", "addr:street_address": "148 MAIN ST", "amenity": "post_box", "collection_times": "Mo-Sa 11:00", "nsi_id": "unitedstatespostalservice-a77078", "operator": "United States Postal Service", "operator:short": "USPS", "operator:type": "public", "operator:wikidata": "Q668687", "ref": "0145000001"}, "type": "Feature"}
{"geometry": {"coordinates": [-71.5173123, 42.57518], "type": "Point"}, "id": "C1MvlP4VHSLCrIgNe8xXprPQ9iQ=", "properties": {"@source_uri": "https://tools.usps.com/UspsToolsRestServices/rest/POLocator/findLocations", "@spider": "usps_collection_boxes", "addr:city": "GROTON", "addr:country": "US", "addr:postcode": "01450", "addr:state": "MA", "addr:street_address": "871 BOSTON RD", "amenity": "post_box", "collection_times": "Mo-Sa 09:00", "nsi_id": "unitedstatespostalservice-a77078", "operator": "United States Postal Service", "operator:short": "USPS", "operator:type": "public", "operator:wikidata": "Q668687", "ref": "0145000002"}, "type": "Feature"}
{"geometry": {"coordinates": [-71.5700844, 42.607272], "type": "Point"}, "id": "35n4dzxbPVKKEtGJ_iwEa8LGKvs=", "properties": {"@source_uri": "https://tools.usps.com/UspsToolsRestServices/rest/POLocator/findLocations", "@spider": "usps_collection_boxes", "addr:city": "GROTON", "addr:country": "US", "addr:postcode": "01450", "addr:state": "MA", "addr:street_address": "145 MAIN ST", "amenity": "post_box", "collection_times": "Mo-Sa 11:00", "nsi_id": "unitedstatespostalservice-a77078", "operator": "United States Postal Service", "operator:short": "USPS", "operator:type": "public", "operator:wikidata": "Q668687", "ref": "0145000005"}, "type": "Feature"}
{"geometry": {"coordinates": [-71.4984919, 42.58318], "type": "Point"}, "id": "ihho7FUBdyP01pOmz-rM_sGKgn8=", "properties": {"@source_uri": "https://tools.usps.com/UspsToolsRestServices/rest/POLocator/findLocations", "@spider": "usps_collection_boxes", "addr:city": "GROTON", "addr:country": "US", "addr:postcode": "01450", "addr:state": "MA", "addr:street_address": "8 LABBE RD", "amenity": "post_box", "collection_times": "Mo-Sa 11:00", "nsi_id": "unitedstatespostalservice-a77078", "operator": "United States Postal Service", "operator:short": "USPS", "operator:type": "public", "operator:wikidata": "Q668687", "ref": "0145000009"}, "type": "Feature"}
{"geometry": {"coordinates": [-71.562326, 42.597567], "type": "Point"}, "id": "2GsngR0bT1w5qrlXE0JtC7P2Cec=", "properties": {"@source_uri": "https://tools.usps.com/UspsToolsRestServices/rest/POLocator/findLocations", "@spider": "usps_collection_boxes", "addr:city": "GROTON", "addr:country": "US", "addr:postcode": "01450", "addr:state": "MA", "addr:street_address": "80 BOSTON RD", "amenity": "post_box", "collection_times": "Mo-Fr 17:00; Sa 15:00", "note": "ON 12/24 AND 12/31, THIS BOX MAY BE COLLECTED AS EARLY AS 12 NOON.", "nsi_id": "unitedstatespostalservice-a77078", "operator": "United States Postal Service", "operator:short": "USPS", "operator:type": "public", "operator:wikidata": "Q668687", "ref": "0145000011"}, "type": "Feature"}
{"geometry": {"coordinates": [-71.562326, 42.597567], "type": "Point"}, "id": "_L8tT-rJa4gAWPxUUSmHybWRydU=", "properties": {"@source_uri": "https://tools.usps.com/UspsToolsRestServices/rest/POLocator/findLocations", "@spider": "usps_collection_boxes", "addr:city": "GROTON", "addr:country": "US", "addr:postcode": "01450", "addr:state": "MA", "addr:street_address": "80 BOSTON RD", "amenity": "post_box", "collection_times": "Mo-Fr 17:00; Sa 15:00", "indoor": "yes", "note": "ON 12/24 AND 12/31, THIS BOX MAY BE COLLECTED AS EARLY AS 12 NOON.", "nsi_id": "unitedstatespostalservice-a77078", "operator": "United States Postal Service", "operator:short": "USPS", "operator:type": "public", "operator:wikidata": "Q668687", "ref": "0145000013"}, "type": "Feature"}
{"geometry": {"coordinates": [-71.562326, 42.597567], "type": "Point"}, "id": "U-dRIubnnguM62KJ7tCprz4VCeI=", "properties": {"@source_uri": "https://tools.usps.com/UspsToolsRestServices/rest/POLocator/findLocations", "@spider": "usps_collection_boxes", "addr:city": "GROTON", "addr:country": "US", "addr:postcode": "01450", "addr:state": "MA", "addr:street_address": "80 BOSTON RD", "amenity": "post_box", "collection_times": "Mo-Fr 17:00; Sa 15:00", "indoor": "yes", "note": "ON 12/24 AND 12/31, THIS BOX MAY BE COLLECTED AS EARLY AS 12 NOON.", "nsi_id": "unitedstatespostalservice-a77078", "operator": "United States Postal Service", "operator:short": "USPS", "operator:type": "public", "operator:wikidata": "Q668687", "ref": "0145000014"}, "type": "Feature"}
{"geometry": {"coordinates": [-71.573317, 42.61321], "type": "Point"}, "id": "uI2IfZDR29ZBgJRv855PYY5zjBU=", "properties": {"@source_uri": "https://tools.usps.com/UspsToolsRestServices/rest/POLocator/findLocations", "@spider": "usps_collection_boxes", "addr:city": "GROTON", "addr:country": "US", "addr:postcode": "01450", "addr:state": "MA", "addr:street_address": "79 HOLLIS ST", "amenity": "post_box", "collection_times": "Mo-Fr 11:30; Sa 10:00", "nsi_id": "unitedstatespostalservice-a77078", "operator": "United States Postal Service", "operator:short": "USPS", "operator:type": "public", "operator:wikidata": "Q668687", "ref": "0145000017"}, "type": "Feature"}
{"geometry": {"coordinates": [-71.5749844, 42.542822], "type": "Point"}, "id": "DrkZIqDbrZIdZD_LuZF1jweo_j0=", "properties": {"@source_uri": "https://tools.usps.com/UspsToolsRestServices/rest/POLocator/findLocations", "@spider": "usps_collection_boxes", "addr:city": "HARVARD", "addr:country": "US", "addr:postcode": "01451", "addr:state": "MA", "addr:street_address": "325 AYER RD", "amenity": "post_box", "collection_times": "Mo-Fr 10:00", "nsi_id": "unitedstatespostalservice-a77078", "operator": "United States Postal Service", "operator:short": "USPS", "operator:type": "public", "operator:wikidata": "Q668687", "ref": "0145100004"}, "type": "Feature"}
{"geometry": {"coordinates": [-71.583863586, 42.5005270133], "type": "Point"}, "id": "TW87T5H10om3nVmcFfBcZSP-7Es=", "properties": {"@source_uri": "https://tools.usps.com/UspsToolsRestServices/rest/POLocator/findLocations", "@spider": "usps_collection_boxes", "addr:city": "HARVARD", "addr:country": "US", "addr:postcode": "01451", "addr:state": "MA", "addr:street_address": "1 STILL RIVER RD", "amenity": "post_box", "collection_times": "Mo-Sa 10:00", "nsi_id": "unitedstatespostalservice-a77078", "operator": "United States Postal Service", "operator:short": "USPS", "operator:type": "public", "operator:wikidata": "Q668687", "ref": "0145100006"}, "type": "Feature"}
{"geometry": {"coordinates": [-71.578741321, 42.529442023], "type": "Point"}, "id": "X_W9xt0OBxAT4RdEuaN1H8t2i4o=", "properties": {"@source_uri": "https://tools.usps.com/UspsToolsRestServices/rest/POLocator/findLocations", "@spider": "usps_collection_boxes", "addr:city": "HARVARD", "addr:country": "US", "addr:postcode": "01451", "addr:state": "MA", "addr:street_address": "215 AYER RD", "amenity": "post_box", "collection_times": "Mo-Fr 16:30; Sa 12:00", "indoor": "yes", "note": "ON 12/24 AND 12/31, THIS BOX MAY BE COLLECTED AS EARLY AS 12 NOON.", "nsi_id": "unitedstatespostalservice-a77078", "operator": "United States Postal Service", "operator:short": "USPS", "operator:type": "public", "operator:wikidata": "Q668687", "ref": "0145100007"}, "type": "Feature"}
{"geometry": {"coordinates": [-71.578741321, 42.529442023], "type": "Point"}, "id": "tOE5ZARKN27hMax4jwBl9YczycQ=", "properties": {"@source_uri": "https://tools.usps.com/UspsToolsRestServices/rest/POLocator/findLocations", "@spider": "usps_collection_boxes", "addr:city": "HARVARD", "addr:country": "US", "addr:postcode": "01451", "addr:state": "MA", "addr:street_address": "215 AYER RD", "amenity": "post_box", "collection_times": "Mo-Fr 16:30; Sa 12:00", "indoor": "yes", "note": "ON 12/24 AND 12/31, THIS BOX MAY BE COLLECTED AS EARLY AS 12 NOON.", "nsi_id": "unitedstatespostalservice-a77078", "operator": "United States Postal Service", "operator:short": "USPS", "operator:type": "public", "operator:wikidata": "Q668687", "ref": "0145100008"}, "type": "Feature"}
{"geometry": {"coordinates": [-71.578741321, 42.529442023], "type": "Point"}, "id": "V0YrEepQBC-N_nRHFsKRnHykX7s=", "properties": {"@source_uri": "https://tools.usps.com/UspsToolsRestServices/rest/POLocator/findLocations", "@spider": "usps_collection_boxes", "addr:city": "HARVARD", "addr:country": "US", "addr:postcode": "01451", "addr:state": "MA", "addr:street_address": "215 AYER RD", "amenity": "post_box", "collection_times": "Mo-Fr 16:30; Sa 12:00", "note": "ON 12/24 AND 12/31, THIS BOX MAY BE COLLECTED AS EARLY AS 12 NOON.", "nsi_id": "unitedstatespostalservice-a77078", "operator": "United States Postal Service", "operator:short": "USPS", "operator:type": "public", "operator:wikidata": "Q668687", "ref": "0145100011"}, "type": "Feature"}
{"geometry": {"coordinates": [-71.617833093, 42.491670611], "type": "Point"}, "id": "xBwUBx3iy56cCkPIwt0SACuDpp0=", "properties": {"@source_uri": "https://tools.usps.com/UspsToolsRestServices/rest/POLocator/findLocations", "@spider": "usps_collection_boxes", "addr:city": "HARVARD", "addr:country": "US", "addr:postcode": "01451", "addr:state": "MA", "addr:street_address": "210 STILL RIVER RD", "amenity": "post_box", "collection_times": "Mo-Sa 12:30", "note": "ON 12/24 AND 12/31, THIS BOX MAY BE COLLECTED AS EARLY AS 12 NOON.", "nsi_id": "unitedstatespostalservice-a77078", "operator": "United States Postal Service", "operator:short": "USPS", "operator:type": "public", "operator:wikidata": "Q668687", "ref": "0145100012"}, "type": "Feature"}
{"geometry": {"coordinates": [-72.0069186, 42.475429], "type": "Point"}, "id": "qs4OcO88k81fJ7dHYVO81C5Hrnc=", "properties": {"@source_uri": "https://tools.usps.com/UspsToolsRestServices/rest/POLocator/findLocations", "@spider": "usps_collection_boxes", "addr:city": "HUBBARDSTON", "addr:country": "US", "addr:postcode": "01452", "addr:state": "MA", "addr:street_address": "6 MAIN ST", "amenity": "post_box", "collection_times": "Mo-Fr 16:30; Sa 11:45", "note": "ON 12/24 AND 12/31, THIS BOX MAY BE COLLECTED AS EARLY AS 12 NOON.", "nsi_id": "unitedstatespostalservice-a77078", "operator": "United States Postal Service", "operator:short": "USPS", "operator:type": "public", "operator:wikidata": "Q668687", "ref": "0145200001"}, "type": "Feature"}
{"geometry": {"coordinates": [-72.0068585, 42.475466], "type": "Point"}, "id": "H23fcc2qhUmncYu5mpgvmtE5mqQ=", "properties": {"@source_uri": "https://tools.usps.com/UspsToolsRestServices/rest/POLocator/findLocations", "@spider": "usps_collection_boxes", "addr:city": "HUBBARDSTON", "addr:country": "US", "addr:postcode": "01452", "addr:state": "MA", "addr:street_address": "6 MAIN ST", "amenity": "post_box", "collection_times": "Mo-Fr 16:30; Sa 11:45", "indoor": "yes", "note": "ON 12/24 AND 12/31, THIS BOX MAY BE COLLECTED AS EARLY AS 12 NOON.", "nsi_id": "unitedstatespostalservice-a77078", "operator": "United States Postal Service", "operator:short": "USPS", "operator:type": "public", "operator:wikidata": "Q668687", "ref": "0145200002"}, "type": "Feature"}
{"geometry": {"coordinates": [-71.7130409, 42.52458], "type": "Point"}, "id": "4XdFLBT5avERMBzgH8dxyb5GeG4=", "properties": {"@source_uri": "https://tools.usps.com/UspsToolsRestServices/rest/POLocator/findLocations", "@spider": "usps_collection_boxes", "addr:city": "LEOMINSTER", "addr:country": "US", "addr:postcode": "01453", "addr:state": "MA", "addr:street_address": "30 ORCHARD HILL PARK DR", "amenity": "post_box", "collection_times": "Mo-Sa 09:30", "nsi_id": "unitedstatespostalservice-a77078", "operator": "United States Postal Service", "operator:short": "USPS", "operator:type": "public", "operator:wikidata": "Q668687", "ref": "0145300001"}, "type": "Feature"}
{"geometry": {"coordinates": [-71.7511238, 42.485078], "type": "Point"}, "id": "Ci27YGbD1C2KaG29MIaFm-QuINU=", "properties": {"@source_uri": "https://tools.usps.com/UspsToolsRestServices/rest/POLocator/findLocations", "@spider": "usps_collection_boxes", "addr:city": "LEOMINSTER", "addr:country": "US", "addr:postcode": "01453", "addr:state": "MA", "addr:street_address": "30 JYTEK DR", "amenity": "post_box", "collection_times": "Mo-Sa 10:00", "nsi_id": "unitedstatespostalservice-a77078", "operator": "United States Postal Service", "operator:short": "USPS", "operator:type": "public", "operator:wikidata": "Q668687", "ref": "0145300002"}, "type": "Feature"}
{"geometry": {"coordinates": [-71.7663405, 42.528452], "type": "Point"}, "id": "wJn9jX8YBTpN-_fCbP-Y8swHfvM=", "properties": {"@source_uri": "https://tools.usps.com/UspsToolsRestServices/rest/POLocator/findLocations", "@spider": "usps_collection_boxes", "addr:city": "LEOMINSTER", "addr:country": "US", "addr:postcode": "01453", "addr:state": "MA", "addr:street_address": "120 WEST ST", "amenity": "post_box", "collection_times": "Mo-Sa 12:30", "note": "ON 12/24 AND 12/31, THIS BOX MAY BE COLLECTED AS EARLY AS 12 NOON.", "nsi_id": "unitedstatespostalservice-a77078", "operator": "United States Postal Service", "operator:short": "USPS", "operator:type": "public", "operator:wikidata": "Q668687", "ref": "0145300003"}, "type": "Feature"}
{"geometry": {"coordinates": [-71.761365, 42.52716], "type": "Point"}, "id": "76Uw4rQgBitOXKd92_qyaAUkbJc=", "properties": {"@source_uri": "https://tools.usps.com/UspsToolsRestServices/rest/POLocator/findLocations", "@spider": "usps_collection_boxes", "addr:city": "LEOMINSTER", "addr:country": "US", "addr:postcode": "01453", "addr:state": "MA", "addr:street_address": "25 WEST ST", "amenity": "post_box", "collection_times": "Mo-Fr 16:45; Sa 13:00", "note": "ON 12/24 AND 12/31, THIS BOX MAY BE COLLECTED AS EARLY AS 12 NOON.", "nsi_id": "unitedstatespostalservice-a77078", "operator": "United States Postal Service", "operator:short": "USPS", "operator:type": "public", "operator:wikidata": "Q668687", "ref": "0145300005"}, "type": "Feature"}
{"geometry": {"coordinates": [-71.761362232, 42.526662987], "type": "Point"}, "id": "aIOFr6FJTUjG6MNzkEa9Mya5TEU=", "properties": {"@source_uri": "https://tools.usps.com/UspsToolsRestServices/rest/POLocator/findLocations", "@spider": "usps_collection_boxes", "addr:city": "LEOMINSTER", "addr:country": "US", "addr:postcode": "01453", "addr:state": "MA", "addr:street_address": "2 WEST ST", "amenity": "post_box", "collection_times": "Mo-Fr 15:00; Sa 13:00", "note": "ON 12/24 AND 12/31, THIS BOX MAY BE COLLECTED AS EARLY AS 12 NOON.", "nsi_id": "unitedstatespostalservice-a77078", "operator": "United States Postal Service", "operator:short": "USPS", "operator:type": "public", "operator:wikidata": "Q668687", "ref": "0145300006"}, "type": "Feature"}
{"geometry": {"coordinates": [-71.7583513, 42.542947], "type": "Point"}, "id": "d5cNRRao7xyZg6zbifmLgchwXtk=", "properties": {"@source_uri": "https://tools.usps.com/UspsToolsRestServices/rest/POLocator/findLocations", "@spider": "usps_collection_boxes", "addr:city": "LEOMINSTER", "addr:country": "US", "addr:postcode": "01453", "addr:state": "MA", "addr:street_address": "289 N MAIN ST", "amenity": "post_box", "collection_times": "Mo-Sa 09:00", "nsi_id": "unitedstatespostalservice-a77078", "operator": "United States Postal Service", "operator:short": "USPS", "operator:type": "public", "operator:wikidata": "Q668687", "ref": "0145300007"}, "type": "Feature"}
{"geometry": {"coordinates": [-71.7553484, 42.527767], "type": "Point"}, "id": "0W1GUAE23f7FME20ETE3gl7Epyk=", "properties": {"@source_uri": "https://tools.usps.com/UspsToolsRestServices/rest/POLocator/findLocations", "@spider": "usps_collection_boxes", "addr:city": "LEOMINSTER", "addr:country": "US", "addr:postcode": "01453", "addr:state": "MA", "addr:street_address": "106 WATER ST", "amenity": "post_box", "collection_times": "Mo-Sa 13:00", "note": "ON 12/24 AND 12/31, THIS BOX MAY BE COLLECTED AS EARLY AS 12 NOON.", "nsi_id": "unitedstatespostalservice-a77078", "operator": "United States Postal Service", "operator:short": "USPS", "operator:type": "public", "operator:wikidata": "Q668687", "ref": "0145300008"}, "type": "Feature"}
{"geometry": {"coordinates": [-71.7415379, 42.528081], "type": "Point"}, "id": "PZyQ5NV4REX4CoMOn5C7GyNYhVs=", "properties": {"@source_uri": "https://tools.usps.com/UspsToolsRestServices/rest/POLocator/findLocations", "@spider": "usps_collection_boxes", "addr:city": "LEOMINSTER", "addr:country": "US", "addr:postcode": "01453", "addr:state": "MA", "addr:street_address": "100 COMMERCIAL RD", "amenity": "post_box", "collection_times": "Mo-Sa 13:00", "note": "ON 12/24 AND 12/31, THIS BOX MAY BE COLLECTED AS EARLY AS 12 NOON.", "nsi_id": "unitedstatespostalservice-a77078", "operator": "United States Postal Service", "operator:short": "USPS", "operator:type": "public", "operator:wikidata": "Q668687", "ref": "0145300009"}, "type": "Feature"}
{"geometry": {"coordinates": [-71.7451454, 42.530481], "type": "Point"}, "id": "MbvddD4i_4sMtusjcsb-a3YN41U=", "properties": {"@source_uri": "https://tools.usps.com/UspsToolsRestServices/rest/POLocator/findLocations", "@spider": "usps_collection_boxes", "addr:city": "LEOMINSTER", "addr:country": "US", "addr:postcode": "01453", "addr:state": "MA", "addr:street_address": "71 SACK BLVD", "amenity": "post_box", "collection_times": "Mo-Sa 13:00", "note": "ON 12/24 AND 12/31, THIS BOX MAY BE COLLECTED AS EARLY AS 12 NOON.", "nsi_id": "unitedstatespostalservice-a77078", "operator": "United States Postal Service", "operator:short": "USPS", "operator:type": "public", "operator:wikidata": "Q668687", "ref": "0145300011"}, "type": "Feature"}
{"geometry": {"coordinates": [-71.7620233, 42.523473], "type": "Point"}, "id": "QRi1aFbG4I8CBLadBUN7ZUsRSfg=", "properties": {"@source_uri": "https://tools.usps.com/UspsToolsRestServices/rest/POLocator/findLocations", "@spider": "usps_collection_boxes", "addr:city": "LEOMINSTER", "addr:country": "US", "addr:postcode": "01453", "addr:state": "MA", "addr:street_address": "7O PLEASANT ST", "amenity": "post_box", "collection_times": "Mo-Sa 13:00", "note": "ON 12/24 AND 12/31, THIS BOX MAY BE COLLECTED AS EARLY AS 12 NOON.", "nsi_id": "unitedstatespostalservice-a77078", "operator": "United States Postal Service", "operator:short": "USPS", "operator:type": "public", "operator:wikidata": "Q668687", "ref": "0145300015"}, "type": "Feature"}
{"geometry": {"coordinates": [-71.7607535, 42.52521], "type": "Point"}, "id": "NRoqAy80-iC6UV5kegT4KZQU5JE=", "properties": {"@source_uri": "https://tools.usps.com/UspsToolsRestServices/rest/POLocator/findLocations", "@spider": "usps_collection_boxes", "addr:city": "LEOMINSTER", "addr:country": "US", "addr:postcode": "01453", "addr:state": "MA", "addr:street_address": "23 PLEASANT ST", "amenity": "post_box", "collection_times": "Mo-Sa 12:00", "nsi_id": "unitedstatespostalservice-a77078", "operator": "United States Postal Service", "operator:short": "USPS", "operator:type": "public", "operator:wikidata": "Q668687", "ref": "0145300016"}, "type": "Feature"}
{"geometry": {"coordinates": [-71.7678782, 42.530742], "type": "Point"}, "id": "cN72HRaR7XmNO4uhgQ0KexWAcL8=", "properties": {"@source_uri": "https://tools.usps.com/UspsToolsRestServices/rest/POLocator/findLocations", "@spider": "usps_collection_boxes", "addr:city": "LEOMINSTER", "addr:country": "US", "addr:postcode": "01453", "addr:state": "MA", "addr:street_address": "203 MERRIAM AVE", "amenity": "post_box", "collection_times": "Mo-Sa 13:00", "note": "ON 12/24 AND 12/31, THIS BOX MAY BE COLLECTED AS EARLY AS 12 NOON.", "nsi_id": "unitedstatespostalservice-a77078", "operator": "United States Postal Service", "operator:short": "USPS", "operator:type": "public", "operator:wikidata": "Q668687", "ref": "0145300021"}, "type": "Feature"}
{"geometry": {"coordinates": [-71.7638787, 42.540495], "type": "Point"}, "id": "oM3QA29OJqtULwoyU3LeobGuJKc=", "properties": {"@source_uri": "https://tools.usps.com/UspsToolsRestServices/rest/POLocator/findLocations", "@spider": "usps_collection_boxes", "addr:city": "LEOMINSTER", "addr:country": "US", "addr:postcode": "01453", "addr:state": "MA", "addr:street_address": "50 MEMORIAL DR", "amenity": "post_box", "collection_times": "Mo-Sa 09:30", "nsi_id": "unitedstatespostalservice-a77078", "operator": "United States Postal Service", "operator:short": "USPS", "operator:type": "public", "operator:wikidata": "Q668687", "ref": "0145300022"}, "type": "Feature"}
{"geometry": {"coordinates": [-71.7584168, 42.525208], "type": "Point"}, "id": "gt79duEFq_K7mgJjzVtaarzfu4s=", "properties": {"@source_uri": "https://tools.usps.com/UspsToolsRestServices/rest/POLocator/findLocations", "@spider": "usps_collection_boxes", "addr:city": "LEOMINSTER", "addr:country": "US", "addr:postcode": "01453", "addr:state": "MA", "addr:street_address": "14 MANNING AVE", "amenity": "post_box", "collection_times": "Mo-Fr 16:00; Sa 13:00", "note": "ON 12/24 AND 12/31, THIS BOX MAY BE COLLECTED AS EARLY AS 12 NOON.", "nsi_id": "unitedstatespostalservice-a77078", "operator": "United States Postal Service", "operator:short": "USPS", "operator:type": "public", "operator:wikidata": "Q668687", "ref": "0145300023"}, "type": "Feature"}
{"geometry": {"coordinates": [-71.7471736, 42.565313], "type": "Point"}, "id": "IA-fGlt0tUqqtudbA3Hd7XPo7qQ=", "properties": {"@source_uri": "https://tools.usps.com/UspsToolsRestServices/rest/POLocator/findLocations", "@spider": "usps_collection_boxes", "addr:city": "LEOMINSTER", "addr:country": "US", "addr:postcode": "01453", "addr:state": "MA", "addr:street_address": "1287 MAIN ST", "amenity": "post_box", "collection_times": "Mo-Sa 09:00", "nsi_id": "unitedstatespostalservice-a77078", "operator": "United States Postal Service", "operator:short": "USPS", "operator:type": "public", "operator:wikidata": "Q668687", "ref": "0145300024"}, "type": "Feature"}
{"geometry": {"coordinates": [-71.7391472, 42.543557], "type": "Point"}, "id": "lL-9T6ZCgRv9owyUYUfx7AX39l8=", "properties": {"@source_uri": "https://tools.usps.com/UspsToolsRestServices/rest/POLocator/findLocations", "@spider": "usps_collection_boxes", "addr:city": "LEOMINSTER", "addr:country": "US", "addr:postcode": "01453", "addr:state": "MA", "addr:street_address": "636 MAIN ST", "amenity": "post_box", "collection_times": "Mo-Sa 12:00", "nsi_id": "unitedstatespostalservice-a77078", "operator": "United States Postal Service", "operator:short": "USPS", "operator:type": "public", "operator:wikidata": "Q668687", "ref": "0145300025"}, "type": "Feature"}
{"geometry": {"coordinates": [-71.7400646, 42.541282], "type": "Point"}, "id": "SwBmt5ic1pfuM9dJoStOoJtbc8k=", "properties": {"@source_uri": "https://tools.usps.com/UspsToolsRestServices/rest/POLocator/findLocations", "@spider": "usps_collection_boxes", "addr:city": "LEOMINSTER", "addr:country": "US", "addr:postcode": "01453", "addr:state": "MA", "addr:street_address": "568 MAIN ST", "amenity": "post_box", "collection_times": "Mo-Sa 13:00", "note": "ON 12/24 AND 12/31, THIS BOX MAY BE COLLECTED AS EARLY AS 12 NOON.", "nsi_id": "unitedstatespostalservice-a77078", "operator": "United States Postal Service", "operator:short": "USPS", "operator:type": "public", "operator:wikidata": "Q668687", "ref": "0145300026"}, "type": "Feature"}
{"geometry": {"coordinates": [-71.7680429, 42.525157], "type": "Point"}, "id": "ujeWvXXmerXN1ehp5N1Urs615y4=", "properties": {"@source_uri": "https://tools.usps.com/UspsToolsRestServices/rest/POLocator/findLocations", "@spider": "usps_collection_boxes", "addr:city": "LEOMINSTER", "addr:country": "US", "addr:postcode": "01453", "addr:state": "MA", "addr:street_address": "116 POND ST", "amenity": "post_box", "collection_times": "Mo-Sa 12:00", "nsi_id": "unitedstatespostalservice-a77078", "operator": "United States Postal Service", "operator:short": "USPS", "operator:type": "public", "operator:wikidata": "Q668687", "ref": "0145300028"}, "type": "Feature"}
{"geometry": {"coordinates": [-71.7540891, 42.521417], "type": "Point"}, "id": "MS-MU5pHdbptTcXgQt7C0hrCC3Y=", "properties": {"@source_uri": "https://tools.usps.com/UspsToolsRestServices/rest/POLocator/findLocations", "@spider": "usps_collection_boxes", "addr:city": "LEOMINSTER", "addr:country": "US", "addr:postcode": "01453", "addr:state": "MA", "addr:street_address": "118 LANCASTER ST", "amenity": "post_box", "collection_times": "Mo-Fr 12:00; Sa 09:30", "nsi_id": "unitedstatespostalservice-a77078", "operator": "United States Postal Service", "operator:short": "USPS", "operator:type": "public", "operator:wikidata": "Q668687", "ref": "0145300030"}, "type": "Feature"}
{"geometry": {"coordinates": [-71.7552063, 42.534926], "type": "Point"}, "id": "auIh-WT8AQfvtVeuOtNUcp8CkXU=", "properties": {"@source_uri": "https://tools.usps.com/UspsToolsRestServices/rest/POLocator/findLocations", "@spider": "usps_collection_boxes", "addr:city": "LEOMINSTER", "addr:country": "US", "addr:postcode": "01453", "addr:state": "MA", "addr:street_address": "54 GREEN ST", "amenity": "post_box", "collection_times": "Mo-Sa 12:00", "nsi_id": "unitedstatespostalservice-a77078", "operator": "United States Postal Service", "operator:short": "USPS", "operator:type": "public", "operator:wikidata": "Q668687", "ref": "0145300033"}, "type": "Feature"}
{"geometry": {"coordinates": [-71.7581624, 42.547485], "type": "Point"}, "id": "ul5EYhr-6uW9ViatpxyCWr9LdIM=", "properties": {"@source_uri": "https://tools.usps.com/UspsToolsRestServices/rest/POLocator/findLocations", "@spider": "usps_collection_boxes", "addr:city": "LEOMINSTER", "addr:country": "US", "addr:postcode": "01453", "addr:state": "MA", "addr:street_address": "100 ERDMAN WAY", "amenity": "post_box", "collection_times": "Mo-Sa 09:00", "nsi_id": "unitedstatespostalservice-a77078", "operator": "United States Postal Service", "operator:short": "USPS", "operator:type": "public", "operator:wikidata": "Q668687", "ref": "0145300036"}, "type": "Feature"}
{"geometry": {"coordinates": [-71.7453949, 42.49768], "type": "Point"}, "id": "9qf62Lusi-zfqCGcm0A4WO7bjNs=", "properties": {"@source_uri": "https://tools.usps.com/UspsToolsRestServices/rest/POLocator/findLocations", "@spider": "usps_collection_boxes", "addr:city": "LEOMINSTER", "addr:country": "US", "addr:postcode": "01453", "addr:state": "MA", "addr:street_address": "1089 CENTRAL ST", "amenity": "post_box", "collection_times": "Mo-Sa 10:00", "nsi_id": "unitedstatespostalservice-a77078", "operator": "United States Postal Service", "operator:short": "USPS", "operator:type": "public", "operator:wikidata": "Q668687", "ref": "0145300040"}, "type": "Feature"}
{"geometry": {"coordinates": [-71.7597282, 42.523353], "type": "Point"}, "id": "ffdJ2oVReenrOqUoP9x46FPc6kQ=", "properties": {"@source_uri": "https://tools.usps.com/UspsToolsRestServices/rest/POLocator/findLocations", "@spider": "usps_collection_boxes", "addr:city": "LEOMINSTER", "addr:country": "US", "addr:postcode": "01453", "addr:state": "MA", "addr:street_address": "20 ADAMS ST", "amenity": "post_box", "collection_times": "Mo-Sa 13:00", "note": "ON 12/24 AND 12/31, THIS BOX MAY BE COLLECTED AS EARLY AS 12 NOON.", "nsi_id": "unitedstatespostalservice-a77078", "operator": "United States Postal Service", "operator:short": "USPS", "operator:type": "public", "operator:wikidata": "Q668687", "ref": "0145300041"}, "type": "Feature"}
{"geometry": {"coordinates": [-71.7503035, 42.523447], "type": "Point"}, "id": "uj4NLoHSQnwKhqIXjQ2RpvzxRrI=", "properties": {"@source_uri": "https://tools.usps.com/UspsToolsRestServices/rest/POLocator/findLocations", "@spider": "usps_collection_boxes", "addr:city": "LEOMINSTER", "addr:country": "US", "addr:postcode": "01453", "addr:state": "MA", "addr:street_address": "206 MECHANIC ST", "amenity": "post_box", "collection_times": "Mo-Sa 13:00", "note": "ON 12/24 AND 12/31, THIS BOX MAY BE COLLECTED AS EARLY AS 12 NOON.", "nsi_id": "unitedstatespostalservice-a77078", "operator": "United States Postal Service", "operator:short": "USPS", "operator:type": "public", "operator:wikidata": "Q668687", "ref": "0145300043"}, "type": "Feature"}
{"geometry": {"coordinates": [-71.7504327, 42.526018], "type": "Point"}, "id": "_B-QnivKj8VcPGF7XU-gpR1JeGM=", "properties": {"@source_uri": "https://tools.usps.com/UspsToolsRestServices/rest/POLocator/findLocations", "@spider": "usps_collection_boxes", "addr:city": "LEOMINSTER", "addr:country": "US", "addr:postcode": "01453", "addr:state": "MA", "addr:street_address": "140 SPRUCE ST", "amenity": "post_box", "collection_times": "Mo-Sa 13:00", "note": "ON 12/24 AND 12/31, THIS BOX MAY BE COLLECTED AS EARLY AS 12 NOON.", "nsi_id": "unitedstatespostalservice-a77078", "operator": "United States Postal Service", "operator:short": "USPS", "operator:type": "public", "operator:wikidata": "Q668687", "ref": "0145300044"}, "type": "Feature"}
{"geometry": {"coordinates": [-71.7601343, 42.525683], "type": "Point"}, "id": "Lwqw1C4oy1fg-_wqQ0MZwnN4AZw=", "properties": {"@source_uri": "https://tools.usps.com/UspsToolsRestServices/rest/POLocator/findLocations", "@spider": "usps_collection_boxes", "addr:city": "LEOMINSTER", "addr:country": "US", "addr:postcode": "01453", "addr:state": "MA", "addr:street_address": "15 MONUMENT SQ", "amenity": "post_box", "collection_times": "Mo-Sa 09:30", "nsi_id": "unitedstatespostalservice-a77078", "operator": "United States Postal Service", "operator:short": "USPS", "operator:type": "public", "operator:wikidata": "Q668687", "ref": "0145300046"}, "type": "Feature"}
{"geometry": {"coordinates": [-71.7411431, 42.534541], "type": "Point"}, "id": "-UFXd86u07mmw7qOntYGngw0PtU=", "properties": {"@source_uri": "https://tools.usps.com/UspsToolsRestServices/rest/POLocator/findLocations", "@spider": "usps_collection_boxes", "addr:city": "LEOMINSTER", "addr:country": "US", "addr:postcode": "01453", "addr:state": "MA", "addr:street_address": "20 COMMERICAL RD", "amenity": "post_box", "collection_times": "Mo-Sa 13:00", "note": "ON 12/24 AND 12/31, THIS BOX MAY BE COLLECTED AS EARLY AS 12 NOON.", "nsi_id": "unitedstatespostalservice-a77078", "operator": "United States Postal Service", "operator:short": "USPS", "operator:type": "public", "operator:wikidata": "Q668687", "ref": "0145300050"}, "type": "Feature"}
{"geometry": {"coordinates": [-71.7577626, 42.51579], "type": "Point"}, "id": "D3d5HkrO30AH79RpPUp9hz5pHK8=", "properties": {"@source_uri": "https://tools.usps.com/UspsToolsRestServices/rest/POLocator/findLocations", "@spider": "usps_collection_boxes", "addr:city": "LEOMINSTER", "addr:country": "US", "addr:postcode": "01453", "addr:state": "MA", "addr:street_address": "285 CENTRAL ST", "amenity": "post_box", "collection_times": "Mo-Sa 10:30", "nsi_id": "unitedstatespostalservice-a77078", "operator": "United States Postal Service", "operator:short": "USPS", "operator:type": "public", "operator:wikidata": "Q668687", "ref": "0145300051"}, "type": "Feature"}
{"geometry": {"coordinates": [-71.7589755, 42.528213], "type": "Point"}, "id": "StA9hLOH0OWWpxVTwlaVBnTdsE8=", "properties": {"@source_uri": "https://tools.usps.com/UspsToolsRestServices/rest/POLocator/findLocations", "@spider": "usps_collection_boxes", "addr:city": "LEOMINSTER", "addr:country": "US", "addr:postcode": "01453", "addr:state": "MA", "addr:street_address": "68 MAIN ST", "amenity": "post_box", "collection_times": "Mo-Fr 17:00; Sa 13:00", "note": "ON 12/24 AND 12/31, THIS BOX MAY BE COLLECTED AS EARLY AS 12 NOON.", "nsi_id": "unitedstatespostalservice-a77078", "operator": "United States Postal Service", "operator:short": "USPS", "operator:type": "public", "operator:wikidata": "Q668687", "ref": "0145300052"}, "type": "Feature"}
{"geometry": {"coordinates": [-71.7589755, 42.528213], "type": "Point"}, "id": "0cKwy_9GylU7tPIHVzSaM_qmkdY=", "properties": {"@source_uri": "https://tools.usps.com/UspsToolsRestServices/rest/POLocator/findLocations", "@spider": "usps_collection_boxes", "addr:city": "LEOMINSTER", "addr:country": "US", "addr:postcode": "01453", "addr:state": "MA", "addr:street_address": "68 MAIN ST", "amenity": "post_box", "collection_times": "Mo-Fr 17:00; Sa 13:00", "indoor": "yes", "note": "ON 12/24 AND 12/31, THIS BOX MAY BE COLLECTED AS EARLY AS 12 NOON.", "nsi_id": "unitedstatespostalservice-a77078", "operator": "United States Postal Service", "operator:short": "USPS", "operator:type": "public", "operator:wikidata": "Q668687", "ref": "0145300062"}, "type": "Feature"}
{"geometry": {"coordinates": [-71.7589755, 42.528213], "type": "Point"}, "id": "aUBwT20twlc7xQb3gityzFcsbVw=", "properties": {"@source_uri": "https://tools.usps.com/UspsToolsRestServices/rest/POLocator/findLocations", "@spider": "usps_collection_boxes", "addr:city": "LEOMINSTER", "addr:country": "US", "addr:postcode": "01453", "addr:state": "MA", "addr:street_address": "68 MAIN ST", "amenity": "post_box", "collection_times": "Mo-Fr 17:00; Sa 13:00", "indoor": "yes", "note": "ON 12/24 AND 12/31, THIS BOX MAY BE COLLECTED AS EARLY AS 12 NOON.", "nsi_id": "unitedstatespostalservice-a77078", "operator": "United States Postal Service", "operator:short": "USPS", "operator:type": "public", "operator:wikidata": "Q668687", "ref": "0145300063"}, "type": "Feature"}
{"geometry": {"coordinates": [-71.778523, 42.553038], "type": "Point"}, "id": "7pf_5NURviTsDypllH3Jsx3aBSE=", "properties": {"@source_uri": "https://tools.usps.com/UspsToolsRestServices/rest/POLocator/findLocations", "@spider": "usps_collection_boxes", "addr:city": "LEOMINSTER", "addr:country": "US", "addr:postcode": "01453", "addr:state": "MA", "addr:street_address": "875 MERRIAM AVE", "amenity": "post_box", "collection_times": "Mo-Sa 11:00", "nsi_id": "unitedstatespostalservice-a77078", "operator": "United States Postal Service", "operator:short": "USPS", "operator:type": "public", "operator:wikidata": "Q668687", "ref": "0145300065"}, "type": "Feature"}
{"geometry": {"coordinates": [-71.7589755, 42.528213], "type": "Point"}, "id": "-GXVMywG8MLJQjaQ6dh-aBWnQvU=", "properties": {"@source_uri": "https://tools.usps.com/UspsToolsRestServices/rest/POLocator/findLocations", "@spider": "usps_collection_boxes", "addr:city": "LEOMINSTER", "addr:country": "US", "addr:postcode": "01453", "addr:state": "MA", "addr:street_address": "68 MAIN ST", "amenity": "post_box", "collection_times": "Mo-Fr 17:00; Sa 13:00", "name": "USPS COLLECTION BOX - APC", "note": "ON 12/24 AND 12/31, THIS BOX MAY BE COLLECTED AS EARLY AS 12 NOON.", "nsi_id": "unitedstatespostalservice-a77078", "operator": "United States Postal Service", "operator:short": "USPS", "operator:type": "public", "operator:wikidata": "Q668687", "ref": "0145300067"}, "type": "Feature"}
{"geometry": {"coordinates": [-71.751268, 42.51752], "type": "Point"}, "id": "SMyhDP6RwdPlKyzEYQoqYUM5XTM=", "properties": {"@source_uri": "https://tools.usps.com/UspsToolsRestServices/rest/POLocator/findLocations", "@spider": "usps_collection_boxes", "addr:city": "LEOMINSTER", "addr:country": "US", "addr:postcode": "01453", "addr:state": "MA", "addr:street_address": "201 LANCASTER ST", "amenity": "post_box", "collection_times": "Mo-Sa 13:00", "note": "ON 12/24 AND 12/31, THIS BOX MAY BE COLLECTED AS EARLY AS 12 NOON.", "nsi_id": "unitedstatespostalservice-a77078", "operator": "United States Postal Service", "operator:short": "USPS", "operator:type": "public", "operator:wikidata": "Q668687", "ref": "0145300071"}, "type": "Feature"}
{"geometry": {"coordinates": [-71.7564255, 42.535023], "type": "Point"}, "id": "xr-w6bWWWZdXCMq5p60x5wEp_gI=", "properties": {"@source_uri": "https://tools.usps.com/UspsToolsRestServices/rest/POLocator/findLocations", "@spider": "usps_collection_boxes", "addr:city": "LEOMINSTER", "addr:country": "US", "addr:postcode": "01453", "addr:state": "MA", "addr:street_address": "87 N MAIN ST", "amenity": "post_box", "collection_times": "Mo-Sa 12:00", "nsi_id": "unitedstatespostalservice-a77078", "operator": "United States Postal Service", "operator:short": "USPS", "operator:type": "public", "operator:wikidata": "Q668687", "ref": "0145300072"}, "type": "Feature"}
{"geometry": {"coordinates": [-71.7451561, 42.549872], "type": "Point"}, "id": "ZRUDULL-lUPvqBr-RZaGidcJCDY=", "properties": {"@source_uri": "https://tools.usps.com/UspsToolsRestServices/rest/POLocator/findLocations", "@spider": "usps_collection_boxes", "addr:city": "LEOMINSTER", "addr:country": "US", "addr:postcode": "01453", "addr:state": "MA", "addr:street_address": "17 INDUSTRIAL RD", "amenity": "post_box", "collection_times": "Mo-Sa 09:30", "nsi_id": "unitedstatespostalservice-a77078", "operator": "United States Postal Service", "operator:short": "USPS", "operator:type": "public", "operator:wikidata": "Q668687", "ref": "0145300073"}, "type": "Feature"}
{"geometry": {"coordinates": [-71.7453894, 42.532563], "type": "Point"}, "id": "ifzhinWaX5LMFUyRa5yhJbcWFcY=", "properties": {"@source_uri": "https://tools.usps.com/UspsToolsRestServices/rest/POLocator/findLocations", "@spider": "usps_collection_boxes", "addr:city": "LEOMINSTER", "addr:country": "US", "addr:postcode": "01453", "addr:state": "MA", "addr:street_address": "9 SACK BLVD", "amenity": "post_box", "collection_times": "Mo-Sa 13:00", "note": "ON 12/24 AND 12/31, THIS BOX MAY BE COLLECTED AS EARLY AS 12 NOON.", "nsi_id": "unitedstatespostalservice-a77078", "operator": "United States Postal Service", "operator:short": "USPS", "operator:type": "public", "operator:wikidata": "Q668687", "ref": "0145300074"}, "type": "Feature"}
{"geometry": {"coordinates": [-71.7375805, 42.52018], "type": "Point"}, "id": "Ka5ndy-dZbINGiagg00tRkVQIUU=", "properties": {"@source_uri": "https://tools.usps.com/UspsToolsRestServices/rest/POLocator/findLocations", "@spider": "usps_collection_boxes", "addr:city": "LEOMINSTER", "addr:country": "US", "addr:postcode": "01453", "addr:state": "MA", "addr:street_address": "7 CONNECTOR PL", "amenity": "post_box", "collection_times": "Mo-Sa 11:00", "nsi_id": "unitedstatespostalservice-a77078", "operator": "United States Postal Service", "operator:short": "USPS", "operator:type": "public", "operator:wikidata": "Q668687", "ref": "0145300075"}, "type": "Feature"}
{"geometry": {"coordinates": [-71.758157203, 42.52846454], "type": "Point"}, "id": "HG2q6ab99kIIiTbdfJhncTDihNM=", "properties": {"@source_uri": "https://tools.usps.com/UspsToolsRestServices/rest/POLocator/findLocations", "@spider": "usps_collection_boxes", "addr:city": "LEOMINSTER", "addr:country": "US", "addr:postcode": "01453", "addr:state": "MA", "addr:street_address": "75 MAIN ST", "amenity": "post_box", "collection_times": "Mo-Sa 13:00", "note": "ON 12/24 AND 12/31, THIS BOX MAY BE COLLECTED AS EARLY AS 12 NOON.", "nsi_id": "unitedstatespostalservice-a77078", "operator": "United States Postal Service", "operator:short": "USPS", "operator:type": "public", "operator:wikidata": "Q668687", "ref": "0145300076"}, "type": "Feature"}
{"geometry": {"coordinates": [-71.474975, 42.545524], "type": "Point"}, "id": "DEpt3rJHIF-1GE_ZApRoo1od5Ok=", "properties": {"@source_uri": "https://tools.usps.com/UspsToolsRestServices/rest/POLocator/findLocations", "@spider": "usps_collection_boxes", "addr:city": "LITTLETON", "addr:country": "US", "addr:postcode": "01460", "addr:state": "MA", "addr:street_address": "451 KING ST", "amenity": "post_box", "collection_times": "Mo-Fr 17:00; Sa 14:00", "note": "ON 12/24 AND 12/31, THIS BOX MAY BE COLLECTED AS EARLY AS 12 NOON.", "nsi_id": "unitedstatespostalservice-a77078", "operator": "United States Postal Service", "operator:short": "USPS", "operator:type": "public", "operator:wikidata": "Q668687", "ref": "0146000004"}, "type": "Feature"}
{"geometry": {"coordinates": [-71.474975, 42.545524], "type": "Point"}, "id": "WGteBAwjkt8WE_SRmFXNc5kVDqs=", "properties": {"@source_uri": "https://tools.usps.com/UspsToolsRestServices/rest/POLocator/findLocations", "@spider": "usps_collection_boxes", "addr:city": "LITTLETON", "addr:country": "US", "addr:postcode": "01460", "addr:state": "MA", "addr:street_address": "451 KING ST", "amenity": "post_box", "collection_times": "Mo-Fr 17:00; Sa 14:00", "indoor": "yes", "note": "ON 12/24 AND 12/31, THIS BOX MAY BE COLLECTED AS EARLY AS 12 NOON.", "nsi_id": "unitedstatespostalservice-a77078", "operator": "United States Postal Service", "operator:short": "USPS", "operator:type": "public", "operator:wikidata": "Q668687", "ref": "0146000013"}, "type": "Feature"}
{"geometry": {"coordinates": [-71.512166, 42.537444], "type": "Point"}, "id": "B0sPRNOI6nfwl_UbSoZvbOoqSFk=", "properties": {"@source_uri": "https://tools.usps.com/UspsToolsRestServices/rest/POLocator/findLocations", "@spider": "usps_collection_boxes", "addr:city": "LITTLETON", "addr:country": "US", "addr:postcode": "01460", "addr:state": "MA", "addr:street_address": "7 TAYLOR ST", "amenity": "post_box", "collection_times": "Mo-Fr 16:00; Sa 12:00", "indoor": "yes", "note": "ON 12/24 AND 12/31, THIS BOX MAY BE COLLECTED AS EARLY AS 12 NOON.", "nsi_id": "unitedstatespostalservice-a77078", "operator": "United States Postal Service", "operator:short": "USPS", "operator:type": "public", "operator:wikidata": "Q668687", "ref": "0146000015"}, "type": "Feature"}
{"geometry": {"coordinates": [-71.726858, 42.594869], "type": "Point"}, "id": "rupZLZUMAhwDso_moAsQD49-WiM=", "properties": {"@source_uri": "https://tools.usps.com/UspsToolsRestServices/rest/POLocator/findLocations", "@spider": "usps_collection_boxes", "addr:city": "LUNENBURG", "addr:country": "US", "addr:postcode": "01462", "addr:state": "MA", "addr:street_address": "945 MASSACHUSETTS AVE", "amenity": "post_box", "collection_times": "Mo-Fr 17:00; Sa 14:00", "note": "ON 12/24 AND 12/31, THIS BOX MAY BE COLLECTED AS EARLY AS 12 NOON.", "nsi_id": "unitedstatespostalservice-a77078", "operator": "United States Postal Service", "operator:short": "USPS", "operator:type": "public", "operator:wikidata": "Q668687", "ref": "0146200001"}, "type": "Feature"}
{"geometry": {"coordinates": [-71.7483295, 42.576993], "type": "Point"}, "id": "sk83YtaPGBV1Eoem4JxVrtsRlic=", "properties": {"@source_uri": "https://tools.usps.com/UspsToolsRestServices/rest/POLocator/findLocations", "@spider": "usps_collection_boxes", "addr:city": "LUNENBURG", "addr:country": "US", "addr:postcode": "01462", "addr:state": "MA", "addr:street_address": "423 ELECTRIC AVE", "amenity": "post_box", "collection_times": "Mo-Sa 08:00", "nsi_id": "unitedstatespostalservice-a77078", "operator": "United States Postal Service", "operator:short": "USPS", "operator:type": "public", "operator:wikidata": "Q668687", "ref": "0146200003"}, "type": "Feature"}
{"geometry": {"coordinates": [-71.7491212, 42.5784205], "type": "Point"}, "id": "u-iHLYM6g4q_GbciNeDkDrZ98pA=", "properties": {"@source_uri": "https://tools.usps.com/UspsToolsRestServices/rest/POLocator/findLocations", "@spider": "usps_collection_boxes", "addr:city": "LUNENBURG", "addr:country": "US", "addr:postcode": "01462", "addr:state": "MA", "addr:street_address": "131 WHITE ST", "amenity": "post_box", "collection_times": "Mo-Sa 08:00", "nsi_id": "unitedstatespostalservice-a77078", "operator": "United States Postal Service", "operator:short": "USPS", "operator:type": "public", "operator:wikidata": "Q668687", "ref": "0146200004"}, "type": "Feature"}
{"geometry": {"coordinates": [-71.7429608, 42.596844], "type": "Point"}, "id": "ly9ZOmVS0qBQ6SVBd5UPY7fMXtQ=", "properties": {"@source_uri": "https://tools.usps.com/UspsToolsRestServices/rest/POLocator/findLocations", "@spider": "usps_collection_boxes", "addr:city": "LUNENBURG", "addr:country": "US", "addr:postcode": "01462", "addr:state": "MA", "addr:street_address": "603 MASSACHUSETTS AVE", "amenity": "post_box", "collection_times": "Mo-Sa 08:00", "nsi_id": "unitedstatespostalservice-a77078", "operator": "United States Postal Service", "operator:short": "USPS", "operator:type": "public", "operator:wikidata": "Q668687", "ref": "0146200007"}, "type": "Feature"}
{"geometry": {"coordinates": [-71.72683, 42.594834], "type": "Point"}, "id": "IKcd0QhDtfrq-4dYwD_9EBBf_BU=", "properties": {"@source_uri": "https://tools.usps.com/UspsToolsRestServices/rest/POLocator/findLocations", "@spider": "usps_collection_boxes", "addr:city": "LUNENBURG", "addr:country": "US", "addr:postcode": "01462", "addr:state": "MA", "addr:street_address": "945 MASSACHUSETTS AVE", "amenity": "post_box", "collection_times": "Mo-Fr 16:45; Sa 14:00", "indoor": "yes", "note": "ON 12/24 AND 12/31, THIS BOX MAY BE COLLECTED AS EARLY AS 12 NOON.", "nsi_id": "unitedstatespostalservice-a77078", "operator": "United States Postal Service", "operator:short": "USPS", "operator:type": "public", "operator:wikidata": "Q668687", "ref": "0146200008"}, "type": "Feature"}
{"geometry": {"coordinates": [-71.72683, 42.594834], "type": "Point"}, "id": "zexCWKHp0KPYrS86p8YLrNX7nRo=", "properties": {"@source_uri": "https://tools.usps.com/UspsToolsRestServices/rest/POLocator/findLocations", "@spider": "usps_collection_boxes", "addr:city": "LUNENBURG", "addr:country": "US", "addr:postcode": "01462", "addr:state": "MA", "addr:street_address": "945 MASSACHUSETTS AVE", "amenity": "post_box", "collection_times": "Mo-Fr 16:45; Sa 14:00", "indoor": "yes", "note": "ON 12/24 AND 12/31, THIS BOX MAY BE COLLECTED AS EARLY AS 12 NOON.", "nsi_id": "unitedstatespostalservice-a77078", "operator": "United States Postal Service", "operator:short": "USPS", "operator:type": "public", "operator:wikidata": "Q668687", "ref": "0146200009"}, "type": "Feature"}
{"geometry": {"coordinates": [-71.7592203, 42.594765], "type": "Point"}, "id": "c2PoofQQKE1fFloSj69sL4q3zW4=", "properties": {"@source_uri": "https://tools.usps.com/UspsToolsRestServices/rest/POLocator/findLocations", "@spider": "usps_collection_boxes", "addr:city": "LUNENBURG", "addr:country": "US", "addr:postcode": "01462", "addr:state": "MA", "addr:street_address": "301 MASSACHUSETTS AVE", "amenity": "post_box", "collection_times": "Mo-Sa 08:00", "nsi_id": "unitedstatespostalservice-a77078", "operator": "United States Postal Service", "operator:short": "USPS", "operator:type": "public", "operator:wikidata": "Q668687", "ref": "0146200010"}, "type": "Feature"}
{"geometry": {"coordinates": [-71.562501, 42.666821], "type": "Point"}, "id": "3429xgpl70TdWFW-bAES85wCcrk=", "properties": {"@source_uri": "https://tools.usps.com/UspsToolsRestServices/rest/POLocator/findLocations", "@spider": "usps_collection_boxes", "addr:city": "PEPPERELL", "addr:country": "US", "addr:postcode": "01463", "addr:state": "MA", "addr:street_address": "41 LOWELL RD", "amenity": "post_box", "collection_times": "Mo-Fr 17:00; Sa 13:00", "note": "ON 12/24 AND 12/31, THIS BOX MAY BE COLLECTED AS EARLY AS 12 NOON.", "nsi_id": "unitedstatespostalservice-a77078", "operator": "United States Postal Service", "operator:short": "USPS", "operator:type": "public", "operator:wikidata": "Q668687", "ref": "0146300002"}, "type": "Feature"}
{"geometry": {"coordinates": [-71.597857, 42.667527], "type": "Point"}, "id": "IIdKde0iBcYS3E2OdojEMTYvtBk=", "properties": {"@source_uri": "https://tools.usps.com/UspsToolsRestServices/rest/POLocator/findLocations", "@spider": "usps_collection_boxes", "addr:city": "PEPPERELL", "addr:country": "US", "addr:postcode": "01463", "addr:state": "MA", "addr:street_address": "1 MAIN ST", "amenity": "post_box", "collection_times": "Mo-Fr 12:00", "nsi_id": "unitedstatespostalservice-a77078", "operator": "United States Postal Service", "operator:short": "USPS", "operator:type": "public", "operator:wikidata": "Q668687", "ref": "0146300006"}, "type": "Feature"}
{"geometry": {"coordinates": [-71.562501, 42.666821], "type": "Point"}, "id": "kSuWlsM8YklMB-WB0VBgYfMIi94=", "properties": {"@source_uri": "https://tools.usps.com/UspsToolsRestServices/rest/POLocator/findLocations", "@spider": "usps_collection_boxes", "addr:city": "PEPPERELL", "addr:country": "US", "addr:postcode": "01463", "addr:state": "MA", "addr:street_address": "41 LOWELL RD", "amenity": "post_box", "collection_times": "Mo-Fr 17:00; Sa 13:00", "indoor": "yes", "note": "ON 12/24 AND 12/31, THIS BOX MAY BE COLLECTED AS EARLY AS 12 NOON.", "nsi_id": "unitedstatespostalservice-a77078", "operator": "United States Postal Service", "operator:short": "USPS", "operator:type": "public", "operator:wikidata": "Q668687", "ref": "0146300009"}, "type": "Feature"}
{"geometry": {"coordinates": [-71.655208, 42.544333], "type": "Point"}, "id": "HbUlssPvg8qpfEbd8yStPsmG5-4=", "properties": {"@source_uri": "https://tools.usps.com/UspsToolsRestServices/rest/POLocator/findLocations", "@spider": "usps_collection_boxes", "addr:city": "SHIRLEY", "addr:country": "US", "addr:postcode": "01464", "addr:state": "MA", "addr:street_address": "23 MAIN ST", "amenity": "post_box", "collection_times": "Mo-Fr 16:30; Sa 12:00", "note": "ON 12/24 AND 12/31, THIS BOX MAY BE COLLECTED AS EARLY AS 12 NOON.", "nsi_id": "unitedstatespostalservice-a77078", "operator": "United States Postal Service", "operator:short": "USPS", "operator:type": "public", "operator:wikidata": "Q668687", "ref": "0146400003"}, "type": "Feature"}
{"geometry": {"coordinates": [-71.6478427, 42.545067], "type": "Point"}, "id": "ub4WPFUTpV51oO1fU2g-BCjYwMU=", "properties": {"@source_uri": "https://tools.usps.com/UspsToolsRestServices/rest/POLocator/findLocations", "@spider": "usps_collection_boxes", "addr:city": "SHIRLEY", "addr:country": "US", "addr:postcode": "01464", "addr:state": "MA", "addr:street_address": "1 BENJAMIN RD", "amenity": "post_box", "collection_times": "Mo-Sa 10:00", "nsi_id": "unitedstatespostalservice-a77078", "operator": "United States Postal Service", "operator:short": "USPS", "operator:type": "public", "operator:wikidata": "Q668687", "ref": "0146400004"}, "type": "Feature"}
{"geometry": {"coordinates": [-71.6414537, 42.545394], "type": "Point"}, "id": "kbcp2OX4wGdufrFrUHUmRtCULZw=", "properties": {"@source_uri": "https://tools.usps.com/UspsToolsRestServices/rest/POLocator/findLocations", "@spider": "usps_collection_boxes", "addr:city": "SHIRLEY", "addr:country": "US", "addr:postcode": "01464", "addr:state": "MA", "addr:street_address": "7 KEADY WAY", "amenity": "post_box", "collection_times": "Mo-Sa 10:00", "nsi_id": "unitedstatespostalservice-a77078", "operator": "United States Postal Service", "operator:short": "USPS", "operator:type": "public", "operator:wikidata": "Q668687", "ref": "0146400005"}, "type": "Feature"}
{"geometry": {"coordinates": [-71.655208, 42.544333], "type": "Point"}, "id": "ZdFZ3a_PXTv-l_bv_TNQxSVSvtY=", "properties": {"@source_uri": "https://tools.usps.com/UspsToolsRestServices/rest/POLocator/findLocations", "@spider": "usps_collection_boxes", "addr:city": "SHIRLEY", "addr:country": "US", "addr:postcode": "01464", "addr:state": "MA", "addr:street_address": "23 MAIN ST", "amenity": "post_box", "collection_times": "Mo-Fr 16:30; Sa 12:00", "indoor": "yes", "note": "ON 12/24 AND 12/31, THIS BOX MAY BE COLLECTED AS EARLY AS 12 NOON.", "nsi_id": "unitedstatespostalservice-a77078", "operator": "United States Postal Service", "operator:short": "USPS", "operator:type": "public", "operator:wikidata": "Q668687", "ref": "0146400006"}, "type": "Feature"}
{"geometry": {"coordinates": [-71.655208, 42.544333], "type": "Point"}, "id": "sm5_Yfl1GggElYb_9Tar-beuwrE=", "properties": {"@source_uri": "https://tools.usps.com/UspsToolsRestServices/rest/POLocator/findLocations", "@spider": "usps_collection_boxes", "addr:city": "SHIRLEY", "addr:country": "US", "addr:postcode": "01464", "addr:state": "MA", "addr:street_address": "23 MAIN ST", "amenity": "post_box", "collection_times": "Mo-Fr 16:30; Sa 12:00", "indoor": "yes", "note": "ON 12/24 AND 12/31, THIS BOX MAY BE COLLECTED AS EARLY AS 12 NOON.", "nsi_id": "unitedstatespostalservice-a77078", "operator": "United States Postal Service", "operator:short": "USPS", "operator:type": "public", "operator:wikidata": "Q668687", "ref": "0146400007"}, "type": "Feature"}
{"geometry": {"coordinates": [-72.064909, 42.555216], "type": "Point"}, "id": "ZMRM08kVZEVeAlhanLRaW-Lg_CM=", "properties": {"@source_uri": "https://tools.usps.com/UspsToolsRestServices/rest/POLocator/findLocations", "@spider": "usps_collection_boxes", "addr:city": "TEMPLETON", "addr:country": "US", "addr:postcode": "01468", "addr:state": "MA", "addr:street_address": "449 PATRIOTS RD", "amenity": "post_box", "collection_times": "Mo-Fr 17:00; Sa 12:00", "note": "ON 12/24 AND 12/31, THIS BOX MAY BE COLLECTED AS EARLY AS 12 NOON.", "nsi_id": "unitedstatespostalservice-a77078", "operator": "United States Postal Service", "operator:short": "USPS", "operator:type": "public", "operator:wikidata": "Q668687", "ref": "0146800001"}, "type": "Feature"}
{"geometry": {"coordinates": [-72.064929, 42.555191], "type": "Point"}, "id": "wtBe00K6E9clo9Z9TA-oeaEfcJQ=", "properties": {"@source_uri": "https://tools.usps.com/UspsToolsRestServices/rest/POLocator/findLocations", "@spider": "usps_collection_boxes", "addr:city": "TEMPLETON", "addr:country": "US", "addr:postcode": "01468", "addr:state": "MA", "addr:street_address": "449 PATRIOTS RD", "amenity": "post_box", "collection_times": "Mo-Fr 17:00; Sa 12:00", "indoor": "yes", "note": "ON 12/24 AND 12/31, THIS BOX MAY BE COLLECTED AS EARLY AS 12 NOON.", "nsi_id": "unitedstatespostalservice-a77078", "operator": "United States Postal Service", "operator:short": "USPS", "operator:type": "public", "operator:wikidata": "Q668687", "ref": "0146800003"}, "type": "Feature"}
{"geometry": {"coordinates": [-71.7028150033, 42.6653976931], "type": "Point"}, "id": "ld9JSbTtiaqQVzAexQgZcfefOa0=", "properties": {"@source_uri": "https://tools.usps.com/UspsToolsRestServices/rest/POLocator/findLocations", "@spider": "usps_collection_boxes", "addr:city": "TOWNSEND", "addr:country": "US", "addr:postcode": "01469", "addr:state": "MA", "addr:street_address": "227 MAIN ST", "amenity": "post_box", "collection_times": "Mo-Fr 17:00; Sa 14:00", "note": "ON 12/24 AND 12/31, THIS BOX MAY BE COLLECTED AS EARLY AS 12 NOON.", "nsi_id": "unitedstatespostalservice-a77078", "operator": "United States Postal Service", "operator:short": "USPS", "operator:type": "public", "operator:wikidata": "Q668687", "ref": "0146900003"}, "type": "Feature"}
{"geometry": {"coordinates": [-71.660459, 42.648541], "type": "Point"}, "id": "GM8fj8N6aqhFNURE9tnrJmanqXk=", "properties": {"@source_uri": "https://tools.usps.com/UspsToolsRestServices/rest/POLocator/findLocations", "@spider": "usps_collection_boxes", "addr:city": "TOWNSEND", "addr:country": "US", "addr:postcode": "01469", "addr:state": "MA", "addr:street_address": "18 MAIN ST", "amenity": "post_box", "collection_times": "Mo-Sa 09:30", "nsi_id": "unitedstatespostalservice-a77078", "operator": "United States Postal Service", "operator:short": "USPS", "operator:type": "public", "operator:wikidata": "Q668687", "ref": "0146900004"}, "type": "Feature"}
{"geometry": {"coordinates": [-71.626742, 42.603201], "type": "Point"}, "id": "eE2udmi4t5akEU41Axx1hKLFId8=", "properties": {"@source_uri": "https://tools.usps.com/UspsToolsRestServices/rest/POLocator/findLocations", "@spider": "usps_collection_boxes", "addr:city": "WEST GROTON", "addr:country": "US", "addr:postcode": "01472", "addr:state": "MA", "addr:street_address": "6 PEPPERELL RD", "amenity": "post_box", "collection_times": "Mo-Fr 17:00; Sa 12:00", "note": "ON 12/24 AND 12/31, THIS BOX MAY BE COLLECTED AS EARLY AS 12 NOON.", "nsi_id": "unitedstatespostalservice-a77078", "operator": "United States Postal Service", "operator:short": "USPS", "operator:type": "public", "operator:wikidata": "Q668687", "ref": "0147200001"}, "type": "Feature"}
{"geometry": {"coordinates": [-71.626742, 42.603201], "type": "Point"}, "id": "37cZkQms85d9ZkzPffUfCs26c6Q=", "properties": {"@source_uri": "https://tools.usps.com/UspsToolsRestServices/rest/POLocator/findLocations", "@spider": "usps_collection_boxes", "addr:city": "WEST GROTON", "addr:country": "US", "addr:postcode": "01472", "addr:state": "MA", "addr:street_address": "6 PEPPERELL RD", "amenity": "post_box", "collection_times": "Mo-Fr 16:30; Sa 12:00", "indoor": "yes", "note": "ON 12/24 AND 12/31, THIS BOX MAY BE COLLECTED AS EARLY AS 12 NOON.", "nsi_id": "unitedstatespostalservice-a77078", "operator": "United States Postal Service", "operator:short": "USPS", "operator:type": "public", "operator:wikidata": "Q668687", "ref": "0147200002"}, "type": "Feature"}
{"geometry": {"coordinates": [-71.626742, 42.603201], "type": "Point"}, "id": "TaGoqQ3T9mbfDqzJM0TXrQlPdvY=", "properties": {"@source_uri": "https://tools.usps.com/UspsToolsRestServices/rest/POLocator/findLocations", "@spider": "usps_collection_boxes", "addr:city": "WEST GROTON", "addr:country": "US", "addr:postcode": "01472", "addr:state": "MA", "addr:street_address": "6 PEPPERELL RD", "amenity": "post_box", "collection_times": "Mo-Fr 16:30; Sa 12:00", "indoor": "yes", "note": "ON 12/24 AND 12/31, THIS BOX MAY BE COLLECTED AS EARLY AS 12 NOON.", "nsi_id": "unitedstatespostalservice-a77078", "operator": "United States Postal Service", "operator:short": "USPS", "operator:type": "public", "operator:wikidata": "Q668687", "ref": "0147200003"}, "type": "Feature"}
{"geometry": {"coordinates": [-71.916771, 42.547231], "type": "Point"}, "id": "gjUmgKcOQfXG3Js69AnIY3SutBU=", "properties": {"@source_uri": "https://tools.usps.com/UspsToolsRestServices/rest/POLocator/findLocations", "@spider": "usps_collection_boxes", "addr:city": "WESTMINSTER", "addr:country": "US", "addr:postcode": "01473", "addr:state": "MA", "addr:street_address": "6 NICHOLS ST", "amenity": "post_box", "collection_times": "Mo-Fr 17:00; Sa 13:00", "note": "ON 12/24 AND 12/31, THIS BOX MAY BE COLLECTED AS EARLY AS 12 NOON.", "nsi_id": "unitedstatespostalservice-a77078", "operator": "United States Postal Service", "operator:short": "USPS", "operator:type": "public", "operator:wikidata": "Q668687", "ref": "0147300001"}, "type": "Feature"}
{"geometry": {"coordinates": [-71.8739749, 42.55751], "type": "Point"}, "id": "wYZqR3DIGIUy-wQG6KVCorQN2WI=", "properties": {"@source_uri": "https://tools.usps.com/UspsToolsRestServices/rest/POLocator/findLocations", "@spider": "usps_collection_boxes", "addr:city": "WESTMINSTER", "addr:country": "US", "addr:postcode": "01473", "addr:state": "MA", "addr:street_address": "160 STATE RD E", "amenity": "post_box", "collection_times": "Mo-Sa 10:30", "nsi_id": "unitedstatespostalservice-a77078", "operator": "United States Postal Service", "operator:short": "USPS", "operator:type": "public", "operator:wikidata": "Q668687", "ref": "0147300004"}, "type": "Feature"}
{"geometry": {"coordinates": [-71.9135205, 42.545997], "type": "Point"}, "id": "H0gO1GLRI3mcgb62D1pCwQplRMI=", "properties": {"@source_uri": "https://tools.usps.com/UspsToolsRestServices/rest/POLocator/findLocations", "@spider": "usps_collection_boxes", "addr:city": "WESTMINSTER", "addr:country": "US", "addr:postcode": "01473", "addr:state": "MA", "addr:street_address": "109 MAIN ST", "amenity": "post_box", "collection_times": "Mo-Sa 08:00", "nsi_id": "unitedstatespostalservice-a77078", "operator": "United States Postal Service", "operator:short": "USPS", "operator:type": "public", "operator:wikidata": "Q668687", "ref": "0147300005"}, "type": "Feature"}
{"geometry": {"coordinates": [-71.916881, 42.547183], "type": "Point"}, "id": "O-eArU7LLJ5nV-Z-f1p93FmuTFA=", "properties": {"@source_uri": "https://tools.usps.com/UspsToolsRestServices/rest/POLocator/findLocations", "@spider": "usps_collection_boxes", "addr:city": "WESTMINSTER", "addr:country": "US", "addr:postcode": "01473", "addr:state": "MA", "addr:street_address": "6 NICHOLS ST", "amenity": "post_box", "collection_times": "Mo-Fr 17:00; Sa 13:00", "indoor": "yes", "note": "ON 12/24 AND 12/31, THIS BOX MAY BE COLLECTED AS EARLY AS 12 NOON.", "nsi_id": "unitedstatespostalservice-a77078", "operator": "United States Postal Service", "operator:short": "USPS", "operator:type": "public", "operator:wikidata": "Q668687", "ref": "0147300006"}, "type": "Feature"}
{"geometry": {"coordinates": [-71.916881, 42.547183], "type": "Point"}, "id": "AsiDCiZ337YJhxpERJjds7PL0nE=", "properties": {"@source_uri": "https://tools.usps.com/UspsToolsRestServices/rest/POLocator/findLocations", "@spider": "usps_collection_boxes", "addr:city": "WESTMINSTER", "addr:country": "US", "addr:postcode": "01473", "addr:state": "MA", "addr:street_address": "6 NICHOLS ST", "amenity": "post_box", "collection_times": "Mo-Fr 17:00; Sa 13:00", "indoor": "yes", "note": "ON 12/24 AND 12/31, THIS BOX MAY BE COLLECTED AS EARLY AS 12 NOON.", "nsi_id": "unitedstatespostalservice-a77078", "operator": "United States Postal Service", "operator:short": "USPS", "operator:type": "public", "operator:wikidata": "Q668687", "ref": "0147300007"}, "type": "Feature"}
{"geometry": {"coordinates": [-71.9127488, 42.54337], "type": "Point"}, "id": "3P0HuT2lqGOeOYuDhCu4m36TJv0=", "properties": {"@source_uri": "https://tools.usps.com/UspsToolsRestServices/rest/POLocator/findLocations", "@spider": "usps_collection_boxes", "addr:city": "WESTMINSTER", "addr:country": "US", "addr:postcode": "01473", "addr:state": "MA", "addr:street_address": "11 SOUTH ST", "amenity": "post_box", "collection_times": "Mo-Sa 08:00", "nsi_id": "unitedstatespostalservice-a77078", "operator": "United States Postal Service", "operator:short": "USPS", "operator:type": "public", "operator:wikidata": "Q668687", "ref": "0147300008"}, "type": "Feature"}
{"geometry": {"coordinates": [-72.047435, 42.68509], "type": "Point"}, "id": "kW2SRTHm8GMbfbQeLXGjWMLuCcE=", "properties": {"@source_uri": "https://tools.usps.com/UspsToolsRestServices/rest/POLocator/findLocations", "@spider": "usps_collection_boxes", "addr:city": "WINCHENDON", "addr:country": "US", "addr:postcode": "01475", "addr:state": "MA", "addr:street_address": "49 CENTRAL ST", "amenity": "post_box", "collection_times": "Mo-Sa 09:00", "nsi_id": "unitedstatespostalservice-a77078", "operator": "United States Postal Service", "operator:short": "USPS", "operator:type": "public", "operator:wikidata": "Q668687", "ref": "0147500004"}, "type": "Feature"}
{"geometry": {"coordinates": [-72.047435, 42.68509], "type": "Point"}, "id": "PLDcx71oO4fOJ3bvTYr2f6OYepc=", "properties": {"@source_uri": "https://tools.usps.com/UspsToolsRestServices/rest/POLocator/findLocations", "@spider": "usps_collection_boxes", "addr:city": "WINCHENDON", "addr:country": "US", "addr:postcode": "01475", "addr:state": "MA", "addr:street_address": "77 CENTRAL ST", "amenity": "post_box", "collection_times": "Mo-Sa 09:00", "nsi_id": "unitedstatespostalservice-a77078", "operator": "United States Postal Service", "operator:short": "USPS", "operator:type": "public", "operator:wikidata": "Q668687", "ref": "0147500005"}, "type": "Feature"}
{"geometry": {"coordinates": [-72.047435, 42.68509], "type": "Point"}, "id": "Kic0AMpb24rc0Qmret-4EI14ULo=", "properties": {"@source_uri": "https://tools.usps.com/UspsToolsRestServices/rest/POLocator/findLocations", "@spider": "usps_collection_boxes", "addr:city": "WINCHENDON", "addr:country": "US", "addr:postcode": "01475", "addr:state": "MA", "addr:street_address": "109 FRONT ST", "amenity": "post_box", "collection_times": "Mo-Sa 09:00", "nsi_id": "unitedstatespostalservice-a77078", "operator": "United States Postal Service", "operator:short": "USPS", "operator:type": "public", "operator:wikidata": "Q668687", "ref": "0147500008"}, "type": "Feature"}
{"geometry": {"coordinates": [-72.0455079, 42.690904], "type": "Point"}, "id": "myMrkN85gYjMICJNfV8YTG5E-EM=", "properties": {"@source_uri": "https://tools.usps.com/UspsToolsRestServices/rest/POLocator/findLocations", "@spider": "usps_collection_boxes", "addr:city": "WINCHENDON", "addr:country": "US", "addr:postcode": "01475", "addr:state": "MA", "addr:street_address": "108 IPSWICH DR", "amenity": "post_box", "collection_times": "Mo-Sa 10:30", "nsi_id": "unitedstatespostalservice-a77078", "operator": "United States Postal Service", "operator:short": "USPS", "operator:type": "public", "operator:wikidata": "Q668687", "ref": "0147500010"}, "type": "Feature"}
{"geometry": {"coordinates": [-72.068713, 42.674552], "type": "Point"}, "id": "Aj2SIv__v3yraz1_q8Sf7QVBA4A=", "properties": {"@source_uri": "https://tools.usps.com/UspsToolsRestServices/rest/POLocator/findLocations", "@spider": "usps_collection_boxes", "addr:city": "WINCHENDON", "addr:country": "US", "addr:postcode": "01475", "addr:state": "MA", "addr:street_address": "16 MAIN ST", "amenity": "post_box", "collection_times": "Mo-Sa 14:45", "note": "ON 12/24 AND 12/31, THIS BOX MAY BE COLLECTED AS EARLY AS 12 NOON.", "nsi_id": "unitedstatespostalservice-a77078", "operator": "United States Postal Service", "operator:short": "USPS", "operator:type": "public", "operator:wikidata": "Q668687", "ref": "0147500011"}, "type": "Feature"}
{"geometry": {"coordinates": [-72.046076, 42.684267], "type": "Point"}, "id": "YScOBqNT6g34zmbc4ybUByayWMU=", "properties": {"@source_uri": "https://tools.usps.com/UspsToolsRestServices/rest/POLocator/findLocations", "@spider": "usps_collection_boxes", "addr:city": "WINCHENDON", "addr:country": "US", "addr:postcode": "01475", "addr:state": "MA", "addr:street_address": "160 CENTRAL ST", "amenity": "post_box", "collection_times": "Mo-Fr 17:00; Sa 12:00", "note": "ON 12/24 AND 12/31, THIS BOX MAY BE COLLECTED AS EARLY AS 12 NOON.", "nsi_id": "unitedstatespostalservice-a77078", "operator": "United States Postal Service", "operator:short": "USPS", "operator:type": "public", "operator:wikidata": "Q668687", "ref": "0147500012"}, "type": "Feature"}
{"geometry": {"coordinates": [-72.046076, 42.684267], "type": "Point"}, "id": "-yyYD5GPnedstfhCFtWrM4lU8-M=", "properties": {"@source_uri": "https://tools.usps.com/UspsToolsRestServices/rest/POLocator/findLocations", "@spider": "usps_collection_boxes", "addr:city": "WINCHENDON", "addr:country": "US", "addr:postcode": "01475", "addr:state": "MA", "addr:street_address": "160 CENTRAL ST", "amenity": "post_box", "collection_times": "Mo-Fr 17:00; Sa 15:45", "indoor": "yes", "note": "ON 12/24 AND 12/31, THIS BOX MAY BE COLLECTED AS EARLY AS 12 NOON.", "nsi_id": "unitedstatespostalservice-a77078", "operator": "United States Postal Service", "operator:short": "USPS", "operator:type": "public", "operator:wikidata": "Q668687", "ref": "0147500014"}, "type": "Feature"}
{"geometry": {"coordinates": [-72.046076, 42.684267], "type": "Point"}, "id": "9hkencUlqbW0yMlVJZmJ63kcOVc=", "properties": {"@source_uri": "https://tools.usps.com/UspsToolsRestServices/rest/POLocator/findLocations", "@spider": "usps_collection_boxes", "addr:city": "WINCHENDON", "addr:country": "US", "addr:postcode": "01475", "addr:state": "MA", "addr:street_address": "160 CENTRAL ST", "amenity": "post_box", "collection_times": "Mo-Fr 17:00; Sa 15:45", "indoor": "yes", "note": "ON 12/24 AND 12/31, THIS BOX MAY BE COLLECTED AS EARLY AS 12 NOON.", "nsi_id": "unitedstatespostalservice-a77078", "operator": "United States Postal Service", "operator:short": "USPS", "operator:type": "public", "operator:wikidata": "Q668687", "ref": "0147500015"}, "type": "Feature"}
{"geometry": {"coordinates": [-72.046076, 42.684267], "type": "Point"}, "id": "SNMFPNMq40r9KlKroAhwZMWjkN4=", "properties": {"@source_uri": "https://tools.usps.com/UspsToolsRestServices/rest/POLocator/findLocations", "@spider": "usps_collection_boxes", "addr:city": "WINCHENDON", "addr:country": "US", "addr:postcode": "01475", "addr:state": "MA", "addr:street_address": "160 CENTRAL ST", "amenity": "post_box", "collection_times": "Mo-Fr 17:00; Sa 15:45", "indoor": "yes", "note": "ON 12/24 AND 12/31, THIS BOX MAY BE COLLECTED AS EARLY AS 12 NOON.", "nsi_id": "unitedstatespostalservice-a77078", "operator": "United States Postal Service", "operator:short": "USPS", "operator:type": "public", "operator:wikidata": "Q668687", "ref": "0147500016"}, "type": "Feature"}
{"geometry": {"coordinates": [-72.0168115, 42.689365], "type": "Point"}, "id": "P8-dUIBBeklGpWCBIkCL7rJExtA=", "properties": {"@source_uri": "https://tools.usps.com/UspsToolsRestServices/rest/POLocator/findLocations", "@spider": "usps_collection_boxes", "addr:city": "WINCHENDON", "addr:country": "US", "addr:postcode": "01475", "addr:state": "MA", "addr:street_address": "142 GLENALLEN ST", "amenity": "post_box", "collection_times": "Mo-Sa 10:00", "nsi_id": "unitedstatespostalservice-a77078", "operator": "United States Postal Service", "operator:short": "USPS", "operator:type": "public", "operator:wikidata": "Q668687", "ref": "0147500018"}, "type": "Feature"}
