{"geometry": {"coordinates": [-71.8529922, 42.276736], "type": "Point"}, "id": "ddqJCFp2TCx1NifWvS2qwCLCfco=", "properties": {"@source_uri": "https://tools.usps.com/UspsToolsRestServices/rest/POLocator/findLocations", "@spider": "usps_collection_boxes", "addr:city": "WORCESTER", "addr:country": "US", "addr:postcode": "01602", "addr:state": "MA", "addr:street_address": "636 CHANDLER ST", "amenity": "post_box", "collection_times": "Mo-Sa 09:00", "nsi_id": "unitedstatespostalservice-a77078", "operator": "United States Postal Service", "operator:short": "USPS", "operator:type": "public", "operator:wikidata": "Q668687", "ref": "0160200003"}, "type": "Feature"}
{"geometry": {"coordinates": [-71.8216018, 42.270118], "type": "Point"}, "id": "HXQLXV7ExCeP4RQparWHEHfhdgw=", "properties": {"@source_uri": "https://tools.usps.com/UspsToolsRestServices/rest/POLocator/findLocations", "@spider": "usps_collection_boxes", "addr:city": "WORCESTER", "addr:country": "US", "addr:postcode": "01602", "addr:state": "MA", "addr:street_address": "314 HIGHLAND ST", "amenity": "post_box", "collection_times": "Mo-Sa 09:00", "nsi_id": "unitedstatespostalservice-a77078", "operator": "United States Postal Service", "operator:short": "USPS", "operator:type": "public", "operator:wikidata": "Q668687", "ref": "0160200005"}, "type": "Feature"}
{"geometry": {"coordinates": [-71.8310199, 42.263386], "type": "Point"}, "id": "H0oBQ3WLfcLst9wpSRkzag92YUo=", "properties": {"@source_uri": "https://tools.usps.com/UspsToolsRestServices/rest/POLocator/findLocations", "@spider": "usps_collection_boxes", "addr:city": "WORCESTER", "addr:country": "US", "addr:postcode": "01602", "addr:state": "MA", "addr:street_address": "381 CHANDLER ST", "amenity": "post_box", "collection_times": "Mo-Fr 15:00; Sa 13:00", "note": "ON 12/24 AND 12/31, THIS BOX MAY BE COLLECTED AS EARLY AS 12 NOON.", "nsi_id": "unitedstatespostalservice-a77078", "operator": "United States Postal Service", "operator:short": "USPS", "operator:type": "public", "operator:wikidata": "Q668687", "ref": "0160200006"}, "type": "Feature"}
{"geometry": {"coordinates": [-71.8349058, 42.260316], "type": "Point"}, "id": "4olxf-OaRS0_mEIj-9ap5yfMCkI=", "properties": {"@source_uri": "https://tools.usps.com/UspsToolsRestServices/rest/POLocator/findLocations", "@spider": "usps_collection_boxes", "addr:city": "WORCESTER", "addr:country": "US", "addr:postcode": "01602", "addr:state": "MA", "addr:street_address": "189 MAY ST", "amenity": "post_box", "collection_times": "Mo-Sa 09:00", "nsi_id": "unitedstatespostalservice-a77078", "operator": "United States Postal Service", "operator:short": "USPS", "operator:type": "public", "operator:wikidata": "Q668687", "ref": "0160200009"}, "type": "Feature"}
{"geometry": {"coordinates": [-71.8403711, 42.26679], "type": "Point"}, "id": "EsK59rOLrFvCSQbFNYwpXnEnbCk=", "properties": {"@source_uri": "https://tools.usps.com/UspsToolsRestServices/rest/POLocator/findLocations", "@spider": "usps_collection_boxes", "addr:city": "WORCESTER", "addr:country": "US", "addr:postcode": "01602", "addr:state": "MA", "addr:street_address": "265 MAY ST", "amenity": "post_box", "collection_times": "Mo-Sa 09:00", "nsi_id": "unitedstatespostalservice-a77078", "operator": "United States Postal Service", "operator:short": "USPS", "operator:type": "public", "operator:wikidata": "Q668687", "ref": "0160200010"}, "type": "Feature"}
{"geometry": {"coordinates": [-71.83298, 42.268525], "type": "Point"}, "id": "Ou4BaZ8VWWgalNFzomt0H4xxf2w=", "properties": {"@source_uri": "https://tools.usps.com/UspsToolsRestServices/rest/POLocator/findLocations", "@spider": "usps_collection_boxes", "addr:city": "WORCESTER", "addr:country": "US", "addr:postcode": "01602", "addr:state": "MA", "addr:street_address": "253 MILL ST", "amenity": "post_box", "collection_times": "Mo-Sa 09:00", "nsi_id": "unitedstatespostalservice-a77078", "operator": "United States Postal Service", "operator:short": "USPS", "operator:type": "public", "operator:wikidata": "Q668687", "ref": "0160200011"}, "type": "Feature"}
{"geometry": {"coordinates": [-71.8254018, 42.269551], "type": "Point"}, "id": "lbjboWPsl5tTltWXvwklPl5i4dg=", "properties": {"@source_uri": "https://tools.usps.com/UspsToolsRestServices/rest/POLocator/findLocations", "@spider": "usps_collection_boxes", "addr:city": "WORCESTER", "addr:country": "US", "addr:postcode": "01602", "addr:state": "MA", "addr:street_address": "710 PLEASANT ST", "amenity": "post_box", "collection_times": "Mo-Sa 09:30", "nsi_id": "unitedstatespostalservice-a77078", "operator": "United States Postal Service", "operator:short": "USPS", "operator:type": "public", "operator:wikidata": "Q668687", "ref": "0160200013"}, "type": "Feature"}
{"geometry": {"coordinates": [-71.82212545, 42.2651619396], "type": "Point"}, "id": "rT4Yx61EXu6fwkcaY6NCd6Rg81k=", "properties": {"@source_uri": "https://tools.usps.com/UspsToolsRestServices/rest/POLocator/findLocations", "@spider": "usps_collection_boxes", "addr:city": "WORCESTER", "addr:country": "US", "addr:postcode": "01602", "addr:state": "MA", "addr:street_address": "577 PLEASANT ST", "amenity": "post_box", "collection_times": "Mo-Sa 09:00", "nsi_id": "unitedstatespostalservice-a77078", "operator": "United States Postal Service", "operator:short": "USPS", "operator:type": "public", "operator:wikidata": "Q668687", "ref": "0160200016"}, "type": "Feature"}
{"geometry": {"coordinates": [-71.9290029, 42.312035], "type": "Point"}, "id": "b85jNZB9gQOjKJ7pKDdhzzF00LY=", "properties": {"@source_uri": "https://tools.usps.com/UspsToolsRestServices/rest/POLocator/findLocations", "@spider": "usps_collection_boxes", "addr:city": "WORCESTER", "addr:country": "US", "addr:postcode": "01602", "addr:state": "MA", "addr:street_address": "711 PLEASANT ST", "amenity": "post_box", "collection_times": "Mo-Fr 15:00; Sa 12:00", "note": "ON 12/24 AND 12/31, THIS BOX MAY BE COLLECTED AS EARLY AS 12 NOON.", "nsi_id": "unitedstatespostalservice-a77078", "operator": "United States Postal Service", "operator:short": "USPS", "operator:type": "public", "operator:wikidata": "Q668687", "ref": "0160200018"}, "type": "Feature"}
{"geometry": {"coordinates": [-71.8417671, 42.277416], "type": "Point"}, "id": "XRgjKmVYk-9HfyAeYaYkCnFqkHo=", "properties": {"@source_uri": "https://tools.usps.com/UspsToolsRestServices/rest/POLocator/findLocations", "@spider": "usps_collection_boxes", "addr:city": "WORCESTER", "addr:country": "US", "addr:postcode": "01602", "addr:state": "MA", "addr:street_address": "970 PLEASANT ST", "amenity": "post_box", "collection_times": "Mo-Sa 09:00", "nsi_id": "unitedstatespostalservice-a77078", "operator": "United States Postal Service", "operator:short": "USPS", "operator:type": "public", "operator:wikidata": "Q668687", "ref": "0160200020"}, "type": "Feature"}
{"geometry": {"coordinates": [-71.8521279, 42.278076], "type": "Point"}, "id": "5au5xOqa2K5TfOk-q5Qj1DSoFNk=", "properties": {"@source_uri": "https://tools.usps.com/UspsToolsRestServices/rest/POLocator/findLocations", "@spider": "usps_collection_boxes", "addr:city": "WORCESTER", "addr:country": "US", "addr:postcode": "01602", "addr:state": "MA", "addr:street_address": "1102 PLEASANT ST", "amenity": "post_box", "collection_times": "Mo-Sa 10:00", "nsi_id": "unitedstatespostalservice-a77078", "operator": "United States Postal Service", "operator:short": "USPS", "operator:type": "public", "operator:wikidata": "Q668687", "ref": "0160200024"}, "type": "Feature"}
{"geometry": {"coordinates": [-71.8308698907, 42.2635413996], "type": "Point"}, "id": "L3QmAtyodpRp-kBvC3mfIhaqQKM=", "properties": {"@source_uri": "https://tools.usps.com/UspsToolsRestServices/rest/POLocator/findLocations", "@spider": "usps_collection_boxes", "addr:city": "WORCESTER", "addr:country": "US", "addr:postcode": "01602", "addr:state": "MA", "addr:street_address": "381 CHANDLER ST", "amenity": "post_box", "collection_times": "Mo-Fr 16:00; Sa 13:00", "indoor": "yes", "note": "ON 12/24 AND 12/31, THIS BOX MAY BE COLLECTED AS EARLY AS 12 NOON.", "nsi_id": "unitedstatespostalservice-a77078", "operator": "United States Postal Service", "operator:short": "USPS", "operator:type": "public", "operator:wikidata": "Q668687", "ref": "0160200027"}, "type": "Feature"}
{"geometry": {"coordinates": [-71.8308839, 42.263482], "type": "Point"}, "id": "2XfY6-9QD21AgFvV7EbB8_l1FmI=", "properties": {"@source_uri": "https://tools.usps.com/UspsToolsRestServices/rest/POLocator/findLocations", "@spider": "usps_collection_boxes", "addr:city": "WORCESTER", "addr:country": "US", "addr:postcode": "01602", "addr:state": "MA", "addr:street_address": "381 CHANDLER ST", "amenity": "post_box", "collection_times": "Mo-Fr 16:00; Sa 13:00", "indoor": "yes", "note": "ON 12/24 AND 12/31, THIS BOX MAY BE COLLECTED AS EARLY AS 12 NOON.", "nsi_id": "unitedstatespostalservice-a77078", "operator": "United States Postal Service", "operator:short": "USPS", "operator:type": "public", "operator:wikidata": "Q668687", "ref": "0160200028"}, "type": "Feature"}
{"geometry": {"coordinates": [-71.8304661, 42.245711], "type": "Point"}, "id": "KtliPLCnNVAuNlpK6RTgkVC-IQI=", "properties": {"@source_uri": "https://tools.usps.com/UspsToolsRestServices/rest/POLocator/findLocations", "@spider": "usps_collection_boxes", "addr:city": "WORCESTER", "addr:country": "US", "addr:postcode": "01603", "addr:state": "MA", "addr:street_address": "1049 MAIN ST", "amenity": "post_box", "collection_times": "Mo-Sa 12:00", "nsi_id": "unitedstatespostalservice-a77078", "operator": "United States Postal Service", "operator:short": "USPS", "operator:type": "public", "operator:wikidata": "Q668687", "ref": "0160300003"}, "type": "Feature"}
{"geometry": {"coordinates": [-71.8496717, 42.232297], "type": "Point"}, "id": "585z3L1DGcJN9DNM-X_ncLhh0HQ=", "properties": {"@source_uri": "https://tools.usps.com/UspsToolsRestServices/rest/POLocator/findLocations", "@spider": "usps_collection_boxes", "addr:city": "WORCESTER", "addr:country": "US", "addr:postcode": "01603", "addr:state": "MA", "addr:street_address": "70 JAMES ST", "amenity": "post_box", "collection_times": "Mo-Sa 09:00", "nsi_id": "unitedstatespostalservice-a77078", "operator": "United States Postal Service", "operator:short": "USPS", "operator:type": "public", "operator:wikidata": "Q668687", "ref": "0160300008"}, "type": "Feature"}
{"geometry": {"coordinates": [-71.8702306, 42.243097], "type": "Point"}, "id": "_kyPMUBloLvVBMuK46tfi3tukqg=", "properties": {"@source_uri": "https://tools.usps.com/UspsToolsRestServices/rest/POLocator/findLocations", "@spider": "usps_collection_boxes", "addr:city": "WORCESTER", "addr:country": "US", "addr:postcode": "01603", "addr:state": "MA", "addr:street_address": "152 MAIN ST", "amenity": "post_box", "collection_times": "Mo-Sa 10:00", "nsi_id": "unitedstatespostalservice-a77078", "operator": "United States Postal Service", "operator:short": "USPS", "operator:type": "public", "operator:wikidata": "Q668687", "ref": "0160300009"}, "type": "Feature"}
{"geometry": {"coordinates": [-71.8432734, 42.241231], "type": "Point"}, "id": "lApyQfb7VBefMEG705GCWI_AdTg=", "properties": {"@source_uri": "https://tools.usps.com/UspsToolsRestServices/rest/POLocator/findLocations", "@spider": "usps_collection_boxes", "addr:city": "WORCESTER", "addr:country": "US", "addr:postcode": "01603", "addr:state": "MA", "addr:street_address": "68 STAFFORD ST", "amenity": "post_box", "collection_times": "Mo-Sa 09:00", "nsi_id": "unitedstatespostalservice-a77078", "operator": "United States Postal Service", "operator:short": "USPS", "operator:type": "public", "operator:wikidata": "Q668687", "ref": "0160300019"}, "type": "Feature"}
{"geometry": {"coordinates": [-71.8448585327, 42.2393031149], "type": "Point"}, "id": "8XOWVqMk8kQToqLCbdthqaQf0Pc=", "properties": {"@source_uri": "https://tools.usps.com/UspsToolsRestServices/rest/POLocator/findLocations", "@spider": "usps_collection_boxes", "addr:city": "WORCESTER", "addr:country": "US", "addr:postcode": "01603", "addr:state": "MA", "addr:street_address": "120 STAFFORD ST", "amenity": "post_box", "collection_times": "Mo-Sa 09:00", "nsi_id": "unitedstatespostalservice-a77078", "operator": "United States Postal Service", "operator:short": "USPS", "operator:type": "public", "operator:wikidata": "Q668687", "ref": "0160300021"}, "type": "Feature"}
{"geometry": {"coordinates": [-71.8301358, 42.245385], "type": "Point"}, "id": "pDgq3m7ftcUXIJtPE_7F8TE5rIc=", "properties": {"@source_uri": "https://tools.usps.com/UspsToolsRestServices/rest/POLocator/findLocations", "@spider": "usps_collection_boxes", "addr:city": "WORCESTER", "addr:country": "US", "addr:postcode": "01603", "addr:state": "MA", "addr:street_address": "1049 MAIN ST", "amenity": "post_box", "collection_times": "Mo-Fr 16:00; Sa 12:00", "indoor": "yes", "note": "ON 12/24 AND 12/31, THIS BOX MAY BE COLLECTED AS EARLY AS 12 NOON.", "nsi_id": "unitedstatespostalservice-a77078", "operator": "United States Postal Service", "operator:short": "USPS", "operator:type": "public", "operator:wikidata": "Q668687", "ref": "0160300024"}, "type": "Feature"}
{"geometry": {"coordinates": [-71.830171, 42.24582], "type": "Point"}, "id": "mi4ac6Bkf0BHuF5ZiLL4ADww2jU=", "properties": {"@source_uri": "https://tools.usps.com/UspsToolsRestServices/rest/POLocator/findLocations", "@spider": "usps_collection_boxes", "addr:city": "WORCESTER", "addr:country": "US", "addr:postcode": "01603", "addr:state": "MA", "addr:street_address": "1049 MAIN ST", "amenity": "post_box", "collection_times": "Mo-Fr 16:00; Sa 12:00", "indoor": "yes", "note": "ON 12/24 AND 12/31, THIS BOX MAY BE COLLECTED AS EARLY AS 12 NOON.", "nsi_id": "unitedstatespostalservice-a77078", "operator": "United States Postal Service", "operator:short": "USPS", "operator:type": "public", "operator:wikidata": "Q668687", "ref": "0160300025"}, "type": "Feature"}
{"geometry": {"coordinates": [-71.7797052, 42.250815], "type": "Point"}, "id": "ENkqq7Rm34FDBvSAZBuA4Cc9-xQ=", "properties": {"@source_uri": "https://tools.usps.com/UspsToolsRestServices/rest/POLocator/findLocations", "@spider": "usps_collection_boxes", "addr:city": "WORCESTER", "addr:country": "US", "addr:postcode": "01604", "addr:state": "MA", "addr:street_address": "500 GRAFTON ST", "amenity": "post_box", "collection_times": "Mo-Sa 09:00", "nsi_id": "unitedstatespostalservice-a77078", "operator": "United States Postal Service", "operator:short": "USPS", "operator:type": "public", "operator:wikidata": "Q668687", "ref": "0160400006"}, "type": "Feature"}
{"geometry": {"coordinates": [-71.780205, 42.25382], "type": "Point"}, "id": "jqd02xmQ5pc90HP3-Sx1RiDNTZQ=", "properties": {"@source_uri": "https://tools.usps.com/UspsToolsRestServices/rest/POLocator/findLocations", "@spider": "usps_collection_boxes", "addr:city": "WORCESTER", "addr:country": "US", "addr:postcode": "01604", "addr:state": "MA", "addr:street_address": "945 GRAFTON ST", "amenity": "post_box", "collection_times": "Mo-Sa 09:00", "nsi_id": "unitedstatespostalservice-a77078", "operator": "United States Postal Service", "operator:short": "USPS", "operator:type": "public", "operator:wikidata": "Q668687", "ref": "0160400008"}, "type": "Feature"}
{"geometry": {"coordinates": [-71.7592318, 42.273315], "type": "Point"}, "id": "JHwWRdpy2nZCPe-pVP17i7oVV6Y=", "properties": {"@source_uri": "https://tools.usps.com/UspsToolsRestServices/rest/POLocator/findLocations", "@spider": "usps_collection_boxes", "addr:city": "WORCESTER", "addr:country": "US", "addr:postcode": "01604", "addr:state": "MA", "addr:street_address": "14 LAKE AVE", "amenity": "post_box", "collection_times": "Mo-Sa 09:00", "nsi_id": "unitedstatespostalservice-a77078", "operator": "United States Postal Service", "operator:short": "USPS", "operator:type": "public", "operator:wikidata": "Q668687", "ref": "0160400015"}, "type": "Feature"}
{"geometry": {"coordinates": [-71.7730729, 42.246125], "type": "Point"}, "id": "U9GJ-wWiLyp_Do68WkeACc83z5w=", "properties": {"@source_uri": "https://tools.usps.com/UspsToolsRestServices/rest/POLocator/findLocations", "@spider": "usps_collection_boxes", "addr:city": "WORCESTER", "addr:country": "US", "addr:postcode": "01604", "addr:state": "MA", "addr:street_address": "137 MASSASOIT RD", "amenity": "post_box", "collection_times": "Mo-Sa 10:00", "nsi_id": "unitedstatespostalservice-a77078", "operator": "United States Postal Service", "operator:short": "USPS", "operator:type": "public", "operator:wikidata": "Q668687", "ref": "0160400016"}, "type": "Feature"}
{"geometry": {"coordinates": [-71.786587, 42.265262], "type": "Point"}, "id": "mkcKI_HWT3EMC10hW4IOVzh7jjI=", "properties": {"@source_uri": "https://tools.usps.com/UspsToolsRestServices/rest/POLocator/findLocations", "@spider": "usps_collection_boxes", "addr:city": "WORCESTER", "addr:country": "US", "addr:postcode": "01604", "addr:state": "MA", "addr:street_address": "169 SHREWSBURY ST", "amenity": "post_box", "collection_times": "Mo-Sa 09:00", "nsi_id": "unitedstatespostalservice-a77078", "operator": "United States Postal Service", "operator:short": "USPS", "operator:type": "public", "operator:wikidata": "Q668687", "ref": "0160400019"}, "type": "Feature"}
{"geometry": {"coordinates": [-71.7776539, 42.270126], "type": "Point"}, "id": "8nMKrUjioqMd0rv8JyZK16wMYzM=", "properties": {"@source_uri": "https://tools.usps.com/UspsToolsRestServices/rest/POLocator/findLocations", "@spider": "usps_collection_boxes", "addr:city": "WORCESTER", "addr:country": "US", "addr:postcode": "01604", "addr:state": "MA", "addr:street_address": "346 SHREWSBURY ST", "amenity": "post_box", "collection_times": "Mo-Sa 09:00", "nsi_id": "unitedstatespostalservice-a77078", "operator": "United States Postal Service", "operator:short": "USPS", "operator:type": "public", "operator:wikidata": "Q668687", "ref": "0160400020"}, "type": "Feature"}
{"geometry": {"coordinates": [-71.7939705, 42.248801], "type": "Point"}, "id": "WaCbmHqHgJkUJYXPAGJrjGGCL50=", "properties": {"@source_uri": "https://tools.usps.com/UspsToolsRestServices/rest/POLocator/findLocations", "@spider": "usps_collection_boxes", "addr:city": "WORCESTER", "addr:country": "US", "addr:postcode": "01604", "addr:state": "MA", "addr:street_address": "10 WINTHROP ST", "amenity": "post_box", "collection_times": "Mo-Sa 09:00", "nsi_id": "unitedstatespostalservice-a77078", "operator": "United States Postal Service", "operator:short": "USPS", "operator:type": "public", "operator:wikidata": "Q668687", "ref": "0160400026"}, "type": "Feature"}
{"geometry": {"coordinates": [-71.7471941, 42.23911], "type": "Point"}, "id": "w25XbIdz8NhyMZ3RX5GVJdwpb9s=", "properties": {"@source_uri": "https://tools.usps.com/UspsToolsRestServices/rest/POLocator/findLocations", "@spider": "usps_collection_boxes", "addr:city": "WORCESTER", "addr:country": "US", "addr:postcode": "01604", "addr:state": "MA", "addr:street_address": "50 SW CUTOFF", "amenity": "post_box", "collection_times": "Mo-Sa 09:00", "nsi_id": "unitedstatespostalservice-a77078", "operator": "United States Postal Service", "operator:short": "USPS", "operator:type": "public", "operator:wikidata": "Q668687", "ref": "0160400038"}, "type": "Feature"}
{"geometry": {"coordinates": [-71.7516345, 42.236162], "type": "Point"}, "id": "b2zlTlaQdjd4h7BSd2F1pE3QybY=", "properties": {"@source_uri": "https://tools.usps.com/UspsToolsRestServices/rest/POLocator/findLocations", "@spider": "usps_collection_boxes", "addr:city": "WORCESTER", "addr:country": "US", "addr:postcode": "01604", "addr:state": "MA", "addr:street_address": "1280 GRAFTON ST", "amenity": "post_box", "collection_times": "Mo-Sa 09:00", "nsi_id": "unitedstatespostalservice-a77078", "operator": "United States Postal Service", "operator:short": "USPS", "operator:type": "public", "operator:wikidata": "Q668687", "ref": "0160400040"}, "type": "Feature"}
{"geometry": {"coordinates": [-71.7726895, 42.272274], "type": "Point"}, "id": "CyvhRjpyU6n2UGaQBeKbgDVc-hg=", "properties": {"@source_uri": "https://tools.usps.com/UspsToolsRestServices/rest/POLocator/findLocations", "@spider": "usps_collection_boxes", "addr:city": "WORCESTER", "addr:country": "US", "addr:postcode": "01604", "addr:state": "MA", "addr:street_address": "455 SHREWSBURY ST", "amenity": "post_box", "collection_times": "Mo-Sa 09:30", "nsi_id": "unitedstatespostalservice-a77078", "operator": "United States Postal Service", "operator:short": "USPS", "operator:type": "public", "operator:wikidata": "Q668687", "ref": "0160400045"}, "type": "Feature"}
{"geometry": {"coordinates": [-71.791505, 42.274565], "type": "Point"}, "id": "8e4MyoDyf4vqGLfGjOOFcspMK5w=", "properties": {"@source_uri": "https://tools.usps.com/UspsToolsRestServices/rest/POLocator/findLocations", "@spider": "usps_collection_boxes", "addr:city": "WORCESTER", "addr:country": "US", "addr:postcode": "01605", "addr:state": "MA", "addr:street_address": "40 BELMONT ST", "amenity": "post_box", "collection_times": "Mo-Sa 09:00", "nsi_id": "unitedstatespostalservice-a77078", "operator": "United States Postal Service", "operator:short": "USPS", "operator:type": "public", "operator:wikidata": "Q668687", "ref": "0160500001"}, "type": "Feature"}
{"geometry": {"coordinates": [-71.7917673, 42.273286], "type": "Point"}, "id": "IAZ8iEJ5fYGYj-N0AIaj3aVJ1Ns=", "properties": {"@source_uri": "https://tools.usps.com/UspsToolsRestServices/rest/POLocator/findLocations", "@spider": "usps_collection_boxes", "addr:city": "WORCESTER", "addr:country": "US", "addr:postcode": "01605", "addr:state": "MA", "addr:street_address": "119 BELMONT ST", "amenity": "post_box", "collection_times": "Mo-Sa 11:00", "nsi_id": "unitedstatespostalservice-a77078", "operator": "United States Postal Service", "operator:short": "USPS", "operator:type": "public", "operator:wikidata": "Q668687", "ref": "0160500002"}, "type": "Feature"}
{"geometry": {"coordinates": [-71.7946863, 42.276035], "type": "Point"}, "id": "QB1itSCxkvTEUoaJ20p7ziQ8-S4=", "properties": {"@source_uri": "https://tools.usps.com/UspsToolsRestServices/rest/POLocator/findLocations", "@spider": "usps_collection_boxes", "addr:city": "WORCESTER", "addr:country": "US", "addr:postcode": "01605", "addr:state": "MA", "addr:street_address": "5 CATHARINE ST", "amenity": "post_box", "collection_times": "Mo-Fr 12:30; Sa 12:00", "note": "ON 12/24 AND 12/31, THIS BOX MAY BE COLLECTED AS EARLY AS 12 NOON.", "nsi_id": "unitedstatespostalservice-a77078", "operator": "United States Postal Service", "operator:short": "USPS", "operator:type": "public", "operator:wikidata": "Q668687", "ref": "0160500006"}, "type": "Feature"}
{"geometry": {"coordinates": [-71.8007599, 42.275785], "type": "Point"}, "id": "ge5s9FGw4bf2G0RnPc8U3TKqVGk=", "properties": {"@source_uri": "https://tools.usps.com/UspsToolsRestServices/rest/POLocator/findLocations", "@spider": "usps_collection_boxes", "addr:city": "WORCESTER", "addr:country": "US", "addr:postcode": "01605", "addr:state": "MA", "addr:street_address": "102 GROVE ST", "amenity": "post_box", "collection_times": "Mo-Sa 09:00", "nsi_id": "unitedstatespostalservice-a77078", "operator": "United States Postal Service", "operator:short": "USPS", "operator:type": "public", "operator:wikidata": "Q668687", "ref": "0160500015"}, "type": "Feature"}
{"geometry": {"coordinates": [-71.8071182, 42.283897], "type": "Point"}, "id": "QN2qupFwttUaCA9_iGbbKD0S62M=", "properties": {"@source_uri": "https://tools.usps.com/UspsToolsRestServices/rest/POLocator/findLocations", "@spider": "usps_collection_boxes", "addr:city": "WORCESTER", "addr:country": "US", "addr:postcode": "01605", "addr:state": "MA", "addr:street_address": "324 GROVE ST", "amenity": "post_box", "collection_times": "Mo-Sa 11:00", "nsi_id": "unitedstatespostalservice-a77078", "operator": "United States Postal Service", "operator:short": "USPS", "operator:type": "public", "operator:wikidata": "Q668687", "ref": "0160500016"}, "type": "Feature"}
{"geometry": {"coordinates": [-71.8112157, 42.289256], "type": "Point"}, "id": "Op1PjAz446astDhJYUW37v8Z0bA=", "properties": {"@source_uri": "https://tools.usps.com/UspsToolsRestServices/rest/POLocator/findLocations", "@spider": "usps_collection_boxes", "addr:city": "WORCESTER", "addr:country": "US", "addr:postcode": "01605", "addr:state": "MA", "addr:street_address": "485 GROVE ST", "amenity": "post_box", "collection_times": "Mo-Sa 10:00", "nsi_id": "unitedstatespostalservice-a77078", "operator": "United States Postal Service", "operator:short": "USPS", "operator:type": "public", "operator:wikidata": "Q668687", "ref": "0160500020"}, "type": "Feature"}
{"geometry": {"coordinates": [-71.7634421, 42.276798], "type": "Point"}, "id": "6iU18BS_13QQwidfY_PvVzTi-lI=", "properties": {"@source_uri": "https://tools.usps.com/UspsToolsRestServices/rest/POLocator/findLocations", "@spider": "usps_collection_boxes", "addr:city": "WORCESTER", "addr:country": "US", "addr:postcode": "01605", "addr:state": "MA", "addr:street_address": "55 LAKE AVE N", "amenity": "post_box", "collection_times": "Mo-Sa 09:30", "nsi_id": "unitedstatespostalservice-a77078", "operator": "United States Postal Service", "operator:short": "USPS", "operator:type": "public", "operator:wikidata": "Q668687", "ref": "0160500022"}, "type": "Feature"}
{"geometry": {"coordinates": [-71.7948291507, 42.2772436528], "type": "Point"}, "id": "qw2lA5D-3ZxEmX24K45Y0HYT-iI=", "properties": {"@source_uri": "https://tools.usps.com/UspsToolsRestServices/rest/POLocator/findLocations", "@spider": "usps_collection_boxes", "addr:city": "WORCESTER", "addr:country": "US", "addr:postcode": "01605", "addr:state": "MA", "addr:street_address": "121 LINCOLN ST", "amenity": "post_box", "collection_times": "Mo-Sa 09:00", "nsi_id": "unitedstatespostalservice-a77078", "operator": "United States Postal Service", "operator:short": "USPS", "operator:type": "public", "operator:wikidata": "Q668687", "ref": "0160500024"}, "type": "Feature"}
{"geometry": {"coordinates": [-71.7925313, 42.282373], "type": "Point"}, "id": "1to3WCV2oJjY7K5fZS6CMu8uH0c=", "properties": {"@source_uri": "https://tools.usps.com/UspsToolsRestServices/rest/POLocator/findLocations", "@spider": "usps_collection_boxes", "addr:city": "WORCESTER", "addr:country": "US", "addr:postcode": "01605", "addr:state": "MA", "addr:street_address": "208 LINCOLN ST", "amenity": "post_box", "collection_times": "Mo-Sa 09:00", "nsi_id": "unitedstatespostalservice-a77078", "operator": "United States Postal Service", "operator:short": "USPS", "operator:type": "public", "operator:wikidata": "Q668687", "ref": "0160500025"}, "type": "Feature"}
{"geometry": {"coordinates": [-71.7899765, 42.285506], "type": "Point"}, "id": "hwc8xpWEACwlC0pVHoyXgbTqi9c=", "properties": {"@source_uri": "https://tools.usps.com/UspsToolsRestServices/rest/POLocator/findLocations", "@spider": "usps_collection_boxes", "addr:city": "WORCESTER", "addr:country": "US", "addr:postcode": "01605", "addr:state": "MA", "addr:street_address": "281 LINCOLN ST", "amenity": "post_box", "collection_times": "Mo-Sa 09:00", "nsi_id": "unitedstatespostalservice-a77078", "operator": "United States Postal Service", "operator:short": "USPS", "operator:type": "public", "operator:wikidata": "Q668687", "ref": "0160500026"}, "type": "Feature"}
{"geometry": {"coordinates": [-71.7896433, 42.285854], "type": "Point"}, "id": "Lfn-GuiFVxgR-f3hzFixkUlMD3E=", "properties": {"@source_uri": "https://tools.usps.com/UspsToolsRestServices/rest/POLocator/findLocations", "@spider": "usps_collection_boxes", "addr:city": "WORCESTER", "addr:country": "US", "addr:postcode": "01605", "addr:state": "MA", "addr:street_address": "291 LINCOLN ST", "amenity": "post_box", "collection_times": "Mo-Sa 09:00", "nsi_id": "unitedstatespostalservice-a77078", "operator": "United States Postal Service", "operator:short": "USPS", "operator:type": "public", "operator:wikidata": "Q668687", "ref": "0160500027"}, "type": "Feature"}
{"geometry": {"coordinates": [-71.7762936, 42.295837], "type": "Point"}, "id": "Xn0QLUMb7HeEm9woUKv5EO00THY=", "properties": {"@source_uri": "https://tools.usps.com/UspsToolsRestServices/rest/POLocator/findLocations", "@spider": "usps_collection_boxes", "addr:city": "WORCESTER", "addr:country": "US", "addr:postcode": "01605", "addr:state": "MA", "addr:street_address": "490 LINCOLN ST", "amenity": "post_box", "collection_times": "Mo-Sa 09:00", "nsi_id": "unitedstatespostalservice-a77078", "operator": "United States Postal Service", "operator:short": "USPS", "operator:type": "public", "operator:wikidata": "Q668687", "ref": "0160500031"}, "type": "Feature"}
{"geometry": {"coordinates": [-71.77207, 42.29619], "type": "Point"}, "id": "R_1-oLePCSAcF80zCxtpee1NDWY=", "properties": {"@source_uri": "https://tools.usps.com/UspsToolsRestServices/rest/POLocator/findLocations", "@spider": "usps_collection_boxes", "addr:city": "WORCESTER", "addr:country": "US", "addr:postcode": "01605", "addr:state": "MA", "addr:street_address": "560 LINCOLN ST", "amenity": "post_box", "collection_times": "Mo-Sa 09:00", "nsi_id": "unitedstatespostalservice-a77078", "operator": "United States Postal Service", "operator:short": "USPS", "operator:type": "public", "operator:wikidata": "Q668687", "ref": "0160500034"}, "type": "Feature"}
{"geometry": {"coordinates": [-71.7936727, 42.273702], "type": "Point"}, "id": "fTeXmHDcLO5XoPdtROaNaTk_wh8=", "properties": {"@source_uri": "https://tools.usps.com/UspsToolsRestServices/rest/POLocator/findLocations", "@spider": "usps_collection_boxes", "addr:city": "WORCESTER", "addr:country": "US", "addr:postcode": "01605", "addr:state": "MA", "addr:street_address": "33 OAK AVE", "amenity": "post_box", "collection_times": "Mo-Sa 09:00", "nsi_id": "unitedstatespostalservice-a77078", "operator": "United States Postal Service", "operator:short": "USPS", "operator:type": "public", "operator:wikidata": "Q668687", "ref": "0160500039"}, "type": "Feature"}
{"geometry": {"coordinates": [-71.8086237, 42.28348], "type": "Point"}, "id": "hybyRX4XnYLAwQm6r7OGKieWQpI=", "properties": {"@source_uri": "https://tools.usps.com/UspsToolsRestServices/rest/POLocator/findLocations", "@spider": "usps_collection_boxes", "addr:city": "WORCESTER", "addr:country": "US", "addr:postcode": "01605", "addr:state": "MA", "addr:street_address": "28 PARK AVE", "amenity": "post_box", "collection_times": "Mo-Sa 08:30", "nsi_id": "unitedstatespostalservice-a77078", "operator": "United States Postal Service", "operator:short": "USPS", "operator:type": "public", "operator:wikidata": "Q668687", "ref": "0160500041"}, "type": "Feature"}
{"geometry": {"coordinates": [-71.7668177, 42.277373], "type": "Point"}, "id": "wS6fzoALrpH1HhVLdT-c53OtvQI=", "properties": {"@source_uri": "https://tools.usps.com/UspsToolsRestServices/rest/POLocator/findLocations", "@spider": "usps_collection_boxes", "addr:city": "WORCESTER", "addr:country": "US", "addr:postcode": "01605", "addr:state": "MA", "addr:street_address": "365 PLANTATION ST", "amenity": "post_box", "collection_times": "Mo-Sa 09:30", "nsi_id": "unitedstatespostalservice-a77078", "operator": "United States Postal Service", "operator:short": "USPS", "operator:type": "public", "operator:wikidata": "Q668687", "ref": "0160500044"}, "type": "Feature"}
{"geometry": {"coordinates": [-71.7996852, 42.276745], "type": "Point"}, "id": "H8m-nG--VGzv_mZ-UkVaOeKqW5U=", "properties": {"@source_uri": "https://tools.usps.com/UspsToolsRestServices/rest/POLocator/findLocations", "@spider": "usps_collection_boxes", "addr:city": "WORCESTER", "addr:country": "US", "addr:postcode": "01605", "addr:state": "MA", "addr:street_address": "89 PRESCOTT ST", "amenity": "post_box", "collection_times": "Mo-Sa 09:00", "nsi_id": "unitedstatespostalservice-a77078", "operator": "United States Postal Service", "operator:short": "USPS", "operator:type": "public", "operator:wikidata": "Q668687", "ref": "0160500048"}, "type": "Feature"}
{"geometry": {"coordinates": [-71.8073512762, 42.2894577832], "type": "Point"}, "id": "XkpeeVVpn95n--CL6DMRbys9QeE=", "properties": {"@source_uri": "https://tools.usps.com/UspsToolsRestServices/rest/POLocator/findLocations", "@spider": "usps_collection_boxes", "addr:city": "WORCESTER", "addr:country": "US", "addr:postcode": "01605", "addr:state": "MA", "addr:street_address": "29 W BOYLSTON ST", "amenity": "post_box", "collection_times": "Mo-Sa 09:30", "nsi_id": "unitedstatespostalservice-a77078", "operator": "United States Postal Service", "operator:short": "USPS", "operator:type": "public", "operator:wikidata": "Q668687", "ref": "0160500050"}, "type": "Feature"}
{"geometry": {"coordinates": [-71.7721445, 42.296394], "type": "Point"}, "id": "sM_xECCWK2dI7EdeKwN5WjIfvoE=", "properties": {"@source_uri": "https://tools.usps.com/UspsToolsRestServices/rest/POLocator/findLocations", "@spider": "usps_collection_boxes", "addr:city": "WORCESTER", "addr:country": "US", "addr:postcode": "01605", "addr:state": "MA", "addr:street_address": "560 LINCOLN ST", "amenity": "post_box", "collection_times": "Mo-Fr 15:00; Sa 12:00", "indoor": "yes", "note": "ON 12/24 AND 12/31, THIS BOX MAY BE COLLECTED AS EARLY AS 12 NOON.", "nsi_id": "unitedstatespostalservice-a77078", "operator": "United States Postal Service", "operator:short": "USPS", "operator:type": "public", "operator:wikidata": "Q668687", "ref": "0160500063"}, "type": "Feature"}
{"geometry": {"coordinates": [-71.7996879, 42.300236], "type": "Point"}, "id": "kh0JLR3cqj8Edf6rgHRekRnFCzM=", "properties": {"@source_uri": "https://tools.usps.com/UspsToolsRestServices/rest/POLocator/findLocations", "@spider": "usps_collection_boxes", "addr:city": "WORCESTER", "addr:country": "US", "addr:postcode": "01606", "addr:state": "MA", "addr:street_address": "290 W BOYLSTON ST", "amenity": "post_box", "collection_times": "Mo-Fr 15:00; Sa 12:00", "note": "ON 12/24 AND 12/31, THIS BOX MAY BE COLLECTED AS EARLY AS 12 NOON.", "nsi_id": "unitedstatespostalservice-a77078", "operator": "United States Postal Service", "operator:short": "USPS", "operator:type": "public", "operator:wikidata": "Q668687", "ref": "0160600025"}, "type": "Feature"}
{"geometry": {"coordinates": [-71.7998399, 42.300272], "type": "Point"}, "id": "1BxNnEe5RlR3VOx3jdTM8uVotVY=", "properties": {"@source_uri": "https://tools.usps.com/UspsToolsRestServices/rest/POLocator/findLocations", "@spider": "usps_collection_boxes", "addr:city": "WORCESTER", "addr:country": "US", "addr:postcode": "01606", "addr:state": "MA", "addr:street_address": "290 W BOYLSTON ST", "amenity": "post_box", "collection_times": "Mo-Fr 16:00; Sa 12:00", "indoor": "yes", "note": "ON 12/24 AND 12/31, THIS BOX MAY BE COLLECTED AS EARLY AS 12 NOON.", "nsi_id": "unitedstatespostalservice-a77078", "operator": "United States Postal Service", "operator:short": "USPS", "operator:type": "public", "operator:wikidata": "Q668687", "ref": "0160600029"}, "type": "Feature"}
{"geometry": {"coordinates": [-71.7998449, 42.300278], "type": "Point"}, "id": "t7lYzbPpj0BykLVTUhSUI9qhJ_w=", "properties": {"@source_uri": "https://tools.usps.com/UspsToolsRestServices/rest/POLocator/findLocations", "@spider": "usps_collection_boxes", "addr:city": "WORCESTER", "addr:country": "US", "addr:postcode": "01606", "addr:state": "MA", "addr:street_address": "290 W BOYLSTON ST", "amenity": "post_box", "collection_times": "Mo-Fr 16:00; Sa 12:00", "indoor": "yes", "note": "ON 12/24 AND 12/31, THIS BOX MAY BE COLLECTED AS EARLY AS 12 NOON.", "nsi_id": "unitedstatespostalservice-a77078", "operator": "United States Postal Service", "operator:short": "USPS", "operator:type": "public", "operator:wikidata": "Q668687", "ref": "0160600030"}, "type": "Feature"}
{"geometry": {"coordinates": [-71.7994961, 42.30023], "type": "Point"}, "id": "GdBbFTpFNQJlZc8BvJKmmsjOdfU=", "properties": {"@source_uri": "https://tools.usps.com/UspsToolsRestServices/rest/POLocator/findLocations", "@spider": "usps_collection_boxes", "addr:city": "WORCESTER", "addr:country": "US", "addr:postcode": "01606", "addr:state": "MA", "addr:street_address": "290 W BOYLSTON ST", "amenity": "post_box", "collection_times": "Mo-Fr 15:00; Sa 12:00", "note": "ON 12/24 AND 12/31, THIS BOX MAY BE COLLECTED AS EARLY AS 12 NOON.", "nsi_id": "unitedstatespostalservice-a77078", "operator": "United States Postal Service", "operator:short": "USPS", "operator:type": "public", "operator:wikidata": "Q668687", "ref": "0160600031"}, "type": "Feature"}
{"geometry": {"coordinates": [-71.7903544, 42.233024], "type": "Point"}, "id": "g4f_Dxntvo5tRRQBwStbmhmCcbU=", "properties": {"@source_uri": "https://tools.usps.com/UspsToolsRestServices/rest/POLocator/findLocations", "@spider": "usps_collection_boxes", "addr:city": "WORCESTER", "addr:country": "US", "addr:postcode": "01607", "addr:state": "MA", "addr:street_address": "35 TOBIAS BOLAND WAY", "amenity": "post_box", "collection_times": "Mo-Sa 09:00", "nsi_id": "unitedstatespostalservice-a77078", "operator": "United States Postal Service", "operator:short": "USPS", "operator:type": "public", "operator:wikidata": "Q668687", "ref": "0160700007"}, "type": "Feature"}
{"geometry": {"coordinates": [-71.7958008, 42.214132], "type": "Point"}, "id": "ldF4RP3uJhsl2EIKSXRacuyGnxE=", "properties": {"@source_uri": "https://tools.usps.com/UspsToolsRestServices/rest/POLocator/findLocations", "@spider": "usps_collection_boxes", "addr:city": "WORCESTER", "addr:country": "US", "addr:postcode": "01607", "addr:state": "MA", "addr:street_address": "345 GREENWOOD ST", "amenity": "post_box", "collection_times": "Mo-Fr 15:00; Sa 12:00", "note": "ON 12/24 AND 12/31, THIS BOX MAY BE COLLECTED AS EARLY AS 12 NOON.", "nsi_id": "unitedstatespostalservice-a77078", "operator": "United States Postal Service", "operator:short": "USPS", "operator:type": "public", "operator:wikidata": "Q668687", "ref": "0160700010"}, "type": "Feature"}
{"geometry": {"coordinates": [-71.7954957, 42.214009], "type": "Point"}, "id": "QINklEIkET0TYbYO_iSmncSzZrg=", "properties": {"@source_uri": "https://tools.usps.com/UspsToolsRestServices/rest/POLocator/findLocations", "@spider": "usps_collection_boxes", "addr:city": "WORCESTER", "addr:country": "US", "addr:postcode": "01607", "addr:state": "MA", "addr:street_address": "345 GREENWOOD ST", "amenity": "post_box", "collection_times": "Mo-Fr 16:00; Sa 12:00", "indoor": "yes", "note": "ON 12/24 AND 12/31, THIS BOX MAY BE COLLECTED AS EARLY AS 12 NOON.", "nsi_id": "unitedstatespostalservice-a77078", "operator": "United States Postal Service", "operator:short": "USPS", "operator:type": "public", "operator:wikidata": "Q668687", "ref": "0160700014"}, "type": "Feature"}
{"geometry": {"coordinates": [-71.7953328, 42.214065], "type": "Point"}, "id": "Rq6cGMG4tjKbg69pi5xzGEZ3eXk=", "properties": {"@source_uri": "https://tools.usps.com/UspsToolsRestServices/rest/POLocator/findLocations", "@spider": "usps_collection_boxes", "addr:city": "WORCESTER", "addr:country": "US", "addr:postcode": "01607", "addr:state": "MA", "addr:street_address": "345 GREENWOOD ST", "amenity": "post_box", "collection_times": "Mo-Fr 16:00; Sa 12:00", "indoor": "yes", "note": "ON 12/24 AND 12/31, THIS BOX MAY BE COLLECTED AS EARLY AS 12 NOON.", "nsi_id": "unitedstatespostalservice-a77078", "operator": "United States Postal Service", "operator:short": "USPS", "operator:type": "public", "operator:wikidata": "Q668687", "ref": "0160700015"}, "type": "Feature"}
{"geometry": {"coordinates": [-71.8021449, 42.258303], "type": "Point"}, "id": "mSzoK2n9LYaTdwipZ79ip2zujpw=", "properties": {"@source_uri": "https://tools.usps.com/UspsToolsRestServices/rest/POLocator/findLocations", "@spider": "usps_collection_boxes", "addr:city": "WORCESTER", "addr:country": "US", "addr:postcode": "01608", "addr:state": "MA", "addr:street_address": "90 MADISON ST", "amenity": "post_box", "collection_times": "Mo-Sa 11:30", "nsi_id": "unitedstatespostalservice-a77078", "operator": "United States Postal Service", "operator:short": "USPS", "operator:type": "public", "operator:wikidata": "Q668687", "ref": "0160800019"}, "type": "Feature"}
{"geometry": {"coordinates": [-71.8004322, 42.268644], "type": "Point"}, "id": "7wCDsh71PLlI1NWi3fdG46zkrVA=", "properties": {"@source_uri": "https://tools.usps.com/UspsToolsRestServices/rest/POLocator/findLocations", "@spider": "usps_collection_boxes", "addr:city": "WORCESTER", "addr:country": "US", "addr:postcode": "01608", "addr:state": "MA", "addr:street_address": "146 MAIN ST", "amenity": "post_box", "collection_times": "Mo-Sa 10:00", "nsi_id": "unitedstatespostalservice-a77078", "operator": "United States Postal Service", "operator:short": "USPS", "operator:type": "public", "operator:wikidata": "Q668687", "ref": "0160800026"}, "type": "Feature"}
{"geometry": {"coordinates": [-71.800848, 42.265935], "type": "Point"}, "id": "2KuP-VO4OKOLqG_obL536f2rksU=", "properties": {"@source_uri": "https://tools.usps.com/UspsToolsRestServices/rest/POLocator/findLocations", "@spider": "usps_collection_boxes", "addr:city": "WORCESTER", "addr:country": "US", "addr:postcode": "01608", "addr:state": "MA", "addr:street_address": "311 MAIN ST", "amenity": "post_box", "collection_times": "Mo-Sa 09:30", "nsi_id": "unitedstatespostalservice-a77078", "operator": "United States Postal Service", "operator:short": "USPS", "operator:type": "public", "operator:wikidata": "Q668687", "ref": "0160800029"}, "type": "Feature"}
{"geometry": {"coordinates": [-71.8011096, 42.265792], "type": "Point"}, "id": "r9dUkCHc1nM61gxUZIQInAc_C3U=", "properties": {"@source_uri": "https://tools.usps.com/UspsToolsRestServices/rest/POLocator/findLocations", "@spider": "usps_collection_boxes", "addr:city": "WORCESTER", "addr:country": "US", "addr:postcode": "01608", "addr:state": "MA", "addr:street_address": "316 MAIN ST", "amenity": "post_box", "collection_times": "Mo-Sa 10:00", "nsi_id": "unitedstatespostalservice-a77078", "operator": "United States Postal Service", "operator:short": "USPS", "operator:type": "public", "operator:wikidata": "Q668687", "ref": "0160800032"}, "type": "Feature"}
{"geometry": {"coordinates": [-71.8021251596, 42.2651821991], "type": "Point"}, "id": "gFX1pQ7aWj-LFLAecyLo7SylQkw=", "properties": {"@source_uri": "https://tools.usps.com/UspsToolsRestServices/rest/POLocator/findLocations", "@spider": "usps_collection_boxes", "addr:city": "WORCESTER", "addr:country": "US", "addr:postcode": "01608", "addr:state": "MA", "addr:street_address": "340 MAIN ST", "amenity": "post_box", "collection_times": "Mo-Sa 12:00", "nsi_id": "unitedstatespostalservice-a77078", "operator": "United States Postal Service", "operator:short": "USPS", "operator:type": "public", "operator:wikidata": "Q668687", "ref": "0160800039"}, "type": "Feature"}
{"geometry": {"coordinates": [-71.8011010586, 42.2649734059], "type": "Point"}, "id": "rAXiB7nQt_pLCZRs9rHMGFkePts=", "properties": {"@source_uri": "https://tools.usps.com/UspsToolsRestServices/rest/POLocator/findLocations", "@spider": "usps_collection_boxes", "addr:city": "WORCESTER", "addr:country": "US", "addr:postcode": "01608", "addr:state": "MA", "addr:street_address": "359 MAIN ST", "amenity": "post_box", "collection_times": "Mo-Sa 09:30", "nsi_id": "unitedstatespostalservice-a77078", "operator": "United States Postal Service", "operator:short": "USPS", "operator:type": "public", "operator:wikidata": "Q668687", "ref": "0160800042"}, "type": "Feature"}
{"geometry": {"coordinates": [-71.8018782, 42.26427], "type": "Point"}, "id": "p38c304cbDJKkmsiW6vaxaCXkYw=", "properties": {"@source_uri": "https://tools.usps.com/UspsToolsRestServices/rest/POLocator/findLocations", "@spider": "usps_collection_boxes", "addr:city": "WORCESTER", "addr:country": "US", "addr:postcode": "01608", "addr:state": "MA", "addr:street_address": "389 MAIN ST", "amenity": "post_box", "collection_times": "Mo-Fr 13:00; Sa 12:00", "note": "ON 12/24 AND 12/31, THIS BOX MAY BE COLLECTED AS EARLY AS 12 NOON.", "nsi_id": "unitedstatespostalservice-a77078", "operator": "United States Postal Service", "operator:short": "USPS", "operator:type": "public", "operator:wikidata": "Q668687", "ref": "0160800047"}, "type": "Feature"}
{"geometry": {"coordinates": [-71.8017527, 42.264303], "type": "Point"}, "id": "HayZyE983hX3pKywjRo_qRo4Fx0=", "properties": {"@source_uri": "https://tools.usps.com/UspsToolsRestServices/rest/POLocator/findLocations", "@spider": "usps_collection_boxes", "addr:city": "WORCESTER", "addr:country": "US", "addr:postcode": "01608", "addr:state": "MA", "addr:street_address": "390 MAIN ST", "amenity": "post_box", "collection_times": "Mo-Sa 09:30", "nsi_id": "unitedstatespostalservice-a77078", "operator": "United States Postal Service", "operator:short": "USPS", "operator:type": "public", "operator:wikidata": "Q668687", "ref": "0160800051"}, "type": "Feature"}
{"geometry": {"coordinates": [-71.8023865647, 42.2631333104], "type": "Point"}, "id": "JOuYkktGDlvvxrdAqaLVnqueqxg=", "properties": {"@source_uri": "https://tools.usps.com/UspsToolsRestServices/rest/POLocator/findLocations", "@spider": "usps_collection_boxes", "addr:city": "WORCESTER", "addr:country": "US", "addr:postcode": "01608", "addr:state": "MA", "addr:street_address": "440 MAIN ST", "amenity": "post_box", "collection_times": "Mo-Fr 09:00", "nsi_id": "unitedstatespostalservice-a77078", "operator": "United States Postal Service", "operator:short": "USPS", "operator:type": "public", "operator:wikidata": "Q668687", "ref": "0160800053"}, "type": "Feature"}
{"geometry": {"coordinates": [-71.8036029, 42.260681], "type": "Point"}, "id": "_chTcUKmihv0LXhJkx12LU6Kr3g=", "properties": {"@source_uri": "https://tools.usps.com/UspsToolsRestServices/rest/POLocator/findLocations", "@spider": "usps_collection_boxes", "addr:city": "WORCESTER", "addr:country": "US", "addr:postcode": "01608", "addr:state": "MA", "addr:street_address": "38 SOUTHBRIDGE ST", "amenity": "post_box", "collection_times": "Mo-Sa 11:30", "nsi_id": "unitedstatespostalservice-a77078", "operator": "United States Postal Service", "operator:short": "USPS", "operator:type": "public", "operator:wikidata": "Q668687", "ref": "0160800065"}, "type": "Feature"}
{"geometry": {"coordinates": [-71.800805, 42.262865], "type": "Point"}, "id": "oBRb5KzSBSmbMJtZYvCrBI4u0Cw=", "properties": {"@source_uri": "https://tools.usps.com/UspsToolsRestServices/rest/POLocator/findLocations", "@spider": "usps_collection_boxes", "addr:city": "WORCESTER", "addr:country": "US", "addr:postcode": "01608", "addr:state": "MA", "addr:street_address": "34 MECHANIC ST", "amenity": "post_box", "collection_times": "Mo-Sa 09:30", "nsi_id": "unitedstatespostalservice-a77078", "operator": "United States Postal Service", "operator:short": "USPS", "operator:type": "public", "operator:wikidata": "Q668687", "ref": "0160800068"}, "type": "Feature"}
{"geometry": {"coordinates": [-71.8007376, 42.264092], "type": "Point"}, "id": "6rFvgRHj-NYd2xVzWu5XmElwvj4=", "properties": {"@source_uri": "https://tools.usps.com/UspsToolsRestServices/rest/POLocator/findLocations", "@spider": "usps_collection_boxes", "addr:city": "WORCESTER", "addr:country": "US", "addr:postcode": "01608", "addr:state": "MA", "addr:street_address": "16 NORWICH ST", "amenity": "post_box", "collection_times": "Mo-Sa 09:30", "nsi_id": "unitedstatespostalservice-a77078", "operator": "United States Postal Service", "operator:short": "USPS", "operator:type": "public", "operator:wikidata": "Q668687", "ref": "0160800072"}, "type": "Feature"}
{"geometry": {"coordinates": [-71.8000121, 42.265919], "type": "Point"}, "id": "VXAaR70hJSegpDEuiMN75krQqKg=", "properties": {"@source_uri": "https://tools.usps.com/UspsToolsRestServices/rest/POLocator/findLocations", "@spider": "usps_collection_boxes", "addr:city": "WORCESTER", "addr:country": "US", "addr:postcode": "01608", "addr:state": "MA", "addr:street_address": "2 WALDO ST", "amenity": "post_box", "collection_times": "Mo-Sa 10:00", "nsi_id": "unitedstatespostalservice-a77078", "operator": "United States Postal Service", "operator:short": "USPS", "operator:type": "public", "operator:wikidata": "Q668687", "ref": "0160800080"}, "type": "Feature"}
{"geometry": {"coordinates": [-71.7995378, 42.262186], "type": "Point"}, "id": "-gVstnuoPWP87of2GtDrZIeVKZI=", "properties": {"@source_uri": "https://tools.usps.com/UspsToolsRestServices/rest/POLocator/findLocations", "@spider": "usps_collection_boxes", "addr:city": "WORCESTER", "addr:country": "US", "addr:postcode": "01608", "addr:state": "MA", "addr:street_address": "120 FRONT ST", "amenity": "post_box", "collection_times": "Mo-Sa 09:30", "nsi_id": "unitedstatespostalservice-a77078", "operator": "United States Postal Service", "operator:short": "USPS", "operator:type": "public", "operator:wikidata": "Q668687", "ref": "0160800091"}, "type": "Feature"}
{"geometry": {"coordinates": [-71.7983537, 42.269589], "type": "Point"}, "id": "z-yp4whpahpTe0UMXkjDJxj5mZM=", "properties": {"@source_uri": "https://tools.usps.com/UspsToolsRestServices/rest/POLocator/findLocations", "@spider": "usps_collection_boxes", "addr:city": "WORCESTER", "addr:country": "US", "addr:postcode": "01608", "addr:state": "MA", "addr:street_address": "51 UNION ST", "amenity": "post_box", "collection_times": "Mo-Sa 09:30", "nsi_id": "unitedstatespostalservice-a77078", "operator": "United States Postal Service", "operator:short": "USPS", "operator:type": "public", "operator:wikidata": "Q668687", "ref": "0160800093"}, "type": "Feature"}
{"geometry": {"coordinates": [-71.7963795, 42.265018], "type": "Point"}, "id": "RRv8VuxbCBytWksYXavTzuVHnMQ=", "properties": {"@source_uri": "https://tools.usps.com/UspsToolsRestServices/rest/POLocator/findLocations", "@spider": "usps_collection_boxes", "addr:city": "WORCESTER", "addr:country": "US", "addr:postcode": "01608", "addr:state": "MA", "addr:street_address": "123 SUMMER ST", "amenity": "post_box", "collection_times": "Mo-Sa 08:45", "nsi_id": "unitedstatespostalservice-a77078", "operator": "United States Postal Service", "operator:short": "USPS", "operator:type": "public", "operator:wikidata": "Q668687", "ref": "0160800102"}, "type": "Feature"}
{"geometry": {"coordinates": [-71.8065489, 42.26524], "type": "Point"}, "id": "O4F3CaBToxbxBIacRu-Yw6YgBVA=", "properties": {"@source_uri": "https://tools.usps.com/UspsToolsRestServices/rest/POLocator/findLocations", "@spider": "usps_collection_boxes", "addr:city": "WORCESTER", "addr:country": "US", "addr:postcode": "01609", "addr:state": "MA", "addr:street_address": "48 ELM ST", "amenity": "post_box", "collection_times": "Mo-Sa 09:30", "nsi_id": "unitedstatespostalservice-a77078", "operator": "United States Postal Service", "operator:short": "USPS", "operator:type": "public", "operator:wikidata": "Q668687", "ref": "0160900001"}, "type": "Feature"}
{"geometry": {"coordinates": [-71.815413756, 42.26608554], "type": "Point"}, "id": "TNCn1YDCtiKLoI-JXxc3vP-M3As=", "properties": {"@source_uri": "https://tools.usps.com/UspsToolsRestServices/rest/POLocator/findLocations", "@spider": "usps_collection_boxes", "addr:city": "WORCESTER", "addr:country": "US", "addr:postcode": "01609", "addr:state": "MA", "addr:street_address": "128 ELM ST", "amenity": "post_box", "collection_times": "Mo-Sa 10:00", "nsi_id": "unitedstatespostalservice-a77078", "operator": "United States Postal Service", "operator:short": "USPS", "operator:type": "public", "operator:wikidata": "Q668687", "ref": "0160900008"}, "type": "Feature"}
{"geometry": {"coordinates": [-71.8027759, 42.267742], "type": "Point"}, "id": "BhnnXJEh9PSK8V2zHXc3hX4R2Js=", "properties": {"@source_uri": "https://tools.usps.com/UspsToolsRestServices/rest/POLocator/findLocations", "@spider": "usps_collection_boxes", "addr:city": "WORCESTER", "addr:country": "US", "addr:postcode": "01609", "addr:state": "MA", "addr:street_address": "10 HARVARD ST", "amenity": "post_box", "collection_times": "Mo-Sa 09:00", "nsi_id": "unitedstatespostalservice-a77078", "operator": "United States Postal Service", "operator:short": "USPS", "operator:type": "public", "operator:wikidata": "Q668687", "ref": "0160900009"}, "type": "Feature"}
{"geometry": {"coordinates": [-71.8022737, 42.26921], "type": "Point"}, "id": "rwJ05q3GcD5wuUtunWqK8UjjgMk=", "properties": {"@source_uri": "https://tools.usps.com/UspsToolsRestServices/rest/POLocator/findLocations", "@spider": "usps_collection_boxes", "addr:city": "WORCESTER", "addr:country": "US", "addr:postcode": "01609", "addr:state": "MA", "addr:street_address": "26 HARVARD ST", "amenity": "post_box", "collection_times": "Mo-Sa 09:00", "nsi_id": "unitedstatespostalservice-a77078", "operator": "United States Postal Service", "operator:short": "USPS", "operator:type": "public", "operator:wikidata": "Q668687", "ref": "0160900010"}, "type": "Feature"}
{"geometry": {"coordinates": [-71.8020304, 42.270612], "type": "Point"}, "id": "drVVAuh8fIFqXgxJ4DpTIb5f0Cc=", "properties": {"@source_uri": "https://tools.usps.com/UspsToolsRestServices/rest/POLocator/findLocations", "@spider": "usps_collection_boxes", "addr:city": "WORCESTER", "addr:country": "US", "addr:postcode": "01609", "addr:state": "MA", "addr:street_address": "43 HARVARD ST", "amenity": "post_box", "collection_times": "Mo-Sa 09:00", "nsi_id": "unitedstatespostalservice-a77078", "operator": "United States Postal Service", "operator:short": "USPS", "operator:type": "public", "operator:wikidata": "Q668687", "ref": "0160900012"}, "type": "Feature"}
{"geometry": {"coordinates": [-71.8013882, 42.272372], "type": "Point"}, "id": "vWpj0D7TVb15PWEclJE7USlG1pk=", "properties": {"@source_uri": "https://tools.usps.com/UspsToolsRestServices/rest/POLocator/findLocations", "@spider": "usps_collection_boxes", "addr:city": "WORCESTER", "addr:country": "US", "addr:postcode": "01609", "addr:state": "MA", "addr:street_address": "10 INSTITUTE RD", "amenity": "post_box", "collection_times": "Mo-Sa 09:00", "nsi_id": "unitedstatespostalservice-a77078", "operator": "United States Postal Service", "operator:short": "USPS", "operator:type": "public", "operator:wikidata": "Q668687", "ref": "0160900022"}, "type": "Feature"}
{"geometry": {"coordinates": [-71.8062466, 42.262684], "type": "Point"}, "id": "0XZUrliuoMcgqjFA9jESNOe0VI4=", "properties": {"@source_uri": "https://tools.usps.com/UspsToolsRestServices/rest/POLocator/findLocations", "@spider": "usps_collection_boxes", "addr:city": "WORCESTER", "addr:country": "US", "addr:postcode": "01609", "addr:state": "MA", "addr:street_address": "20 IRVING ST", "amenity": "post_box", "collection_times": "Mo-Sa 09:30", "nsi_id": "unitedstatespostalservice-a77078", "operator": "United States Postal Service", "operator:short": "USPS", "operator:type": "public", "operator:wikidata": "Q668687", "ref": "0160900023"}, "type": "Feature"}
{"geometry": {"coordinates": [-71.8153678, 42.271572], "type": "Point"}, "id": "f6iQzAQTnBoptl5V9l3uKapytnc=", "properties": {"@source_uri": "https://tools.usps.com/UspsToolsRestServices/rest/POLocator/findLocations", "@spider": "usps_collection_boxes", "addr:city": "WORCESTER", "addr:country": "US", "addr:postcode": "01609", "addr:state": "MA", "addr:street_address": "210 PARK AVE", "amenity": "post_box", "collection_times": "Mo-Sa 09:00", "nsi_id": "unitedstatespostalservice-a77078", "operator": "United States Postal Service", "operator:short": "USPS", "operator:type": "public", "operator:wikidata": "Q668687", "ref": "0160900024"}, "type": "Feature"}
{"geometry": {"coordinates": [-71.8187634, 42.265099], "type": "Point"}, "id": "WmGRd6azcxOqv6m37kAPm9A1LeE=", "properties": {"@source_uri": "https://tools.usps.com/UspsToolsRestServices/rest/POLocator/findLocations", "@spider": "usps_collection_boxes", "addr:city": "WORCESTER", "addr:country": "US", "addr:postcode": "01609", "addr:state": "MA", "addr:street_address": "255 PARK AVE", "amenity": "post_box", "collection_times": "Mo-Sa 10:00", "nsi_id": "unitedstatespostalservice-a77078", "operator": "United States Postal Service", "operator:short": "USPS", "operator:type": "public", "operator:wikidata": "Q668687", "ref": "0160900027"}, "type": "Feature"}
{"geometry": {"coordinates": [-71.8056308, 42.26371], "type": "Point"}, "id": "xLy-A3B7hiRxVoIyQpCAsCaftK8=", "properties": {"@source_uri": "https://tools.usps.com/UspsToolsRestServices/rest/POLocator/findLocations", "@spider": "usps_collection_boxes", "addr:city": "WORCESTER", "addr:country": "US", "addr:postcode": "01609", "addr:state": "MA", "addr:street_address": "101 PLEASANT ST", "amenity": "post_box", "collection_times": "Mo-Sa 09:00", "nsi_id": "unitedstatespostalservice-a77078", "operator": "United States Postal Service", "operator:short": "USPS", "operator:type": "public", "operator:wikidata": "Q668687", "ref": "0160900034"}, "type": "Feature"}
{"geometry": {"coordinates": [-71.8114699, 42.264165], "type": "Point"}, "id": "QR8qZt5cqNxrQ_qu9806eXHxSD4=", "properties": {"@source_uri": "https://tools.usps.com/UspsToolsRestServices/rest/POLocator/findLocations", "@spider": "usps_collection_boxes", "addr:city": "WORCESTER", "addr:country": "US", "addr:postcode": "01609", "addr:state": "MA", "addr:street_address": "275 PLEASANT ST", "amenity": "post_box", "collection_times": "Mo-Sa 10:00", "nsi_id": "unitedstatespostalservice-a77078", "operator": "United States Postal Service", "operator:short": "USPS", "operator:type": "public", "operator:wikidata": "Q668687", "ref": "0160900035"}, "type": "Feature"}
{"geometry": {"coordinates": [-71.8165727, 42.263445], "type": "Point"}, "id": "MdgGBEwJhsF6D8x2Tf-QbUEq0bY=", "properties": {"@source_uri": "https://tools.usps.com/UspsToolsRestServices/rest/POLocator/findLocations", "@spider": "usps_collection_boxes", "addr:city": "WORCESTER", "addr:country": "US", "addr:postcode": "01609", "addr:state": "MA", "addr:street_address": "425 PLEASANT ST", "amenity": "post_box", "collection_times": "Mo-Sa 10:00", "nsi_id": "unitedstatespostalservice-a77078", "operator": "United States Postal Service", "operator:short": "USPS", "operator:type": "public", "operator:wikidata": "Q668687", "ref": "0160900038"}, "type": "Feature"}
{"geometry": {"coordinates": [-71.8099126, 42.277787], "type": "Point"}, "id": "wFkoxJPAcBacBBZbEPxNKPVJMjo=", "properties": {"@source_uri": "https://tools.usps.com/UspsToolsRestServices/rest/POLocator/findLocations", "@spider": "usps_collection_boxes", "addr:city": "WORCESTER", "addr:country": "US", "addr:postcode": "01609", "addr:state": "MA", "addr:street_address": "185 SALISBURY ST", "amenity": "post_box", "collection_times": "Mo-Sa 09:00", "nsi_id": "unitedstatespostalservice-a77078", "operator": "United States Postal Service", "operator:short": "USPS", "operator:type": "public", "operator:wikidata": "Q668687", "ref": "0160900040"}, "type": "Feature"}
{"geometry": {"coordinates": [-71.8301842, 42.28948], "type": "Point"}, "id": "ZPL9WB8vNwZcnV11w3dvakam-5c=", "properties": {"@source_uri": "https://tools.usps.com/UspsToolsRestServices/rest/POLocator/findLocations", "@spider": "usps_collection_boxes", "addr:city": "WORCESTER", "addr:country": "US", "addr:postcode": "01609", "addr:state": "MA", "addr:street_address": "509 SALISBURY ST", "amenity": "post_box", "collection_times": "Mo-Sa 10:00", "nsi_id": "unitedstatespostalservice-a77078", "operator": "United States Postal Service", "operator:short": "USPS", "operator:type": "public", "operator:wikidata": "Q668687", "ref": "0160900042"}, "type": "Feature"}
{"geometry": {"coordinates": [-71.8195862, 42.261307], "type": "Point"}, "id": "fkdj1QlKtc5TH-JMjfqDNoF2XYM=", "properties": {"@source_uri": "https://tools.usps.com/UspsToolsRestServices/rest/POLocator/findLocations", "@spider": "usps_collection_boxes", "addr:city": "WORCESTER", "addr:country": "US", "addr:postcode": "01609", "addr:state": "MA", "addr:street_address": "227 CHANDLER ST", "amenity": "post_box", "collection_times": "Mo-Sa 10:30", "nsi_id": "unitedstatespostalservice-a77078", "operator": "United States Postal Service", "operator:short": "USPS", "operator:type": "public", "operator:wikidata": "Q668687", "ref": "0160900046"}, "type": "Feature"}
{"geometry": {"coordinates": [-71.7991142961, 42.2532073512], "type": "Point"}, "id": "4zJ5HKOGvNAzu_LU3zMy-3VrjeQ=", "properties": {"@source_uri": "https://tools.usps.com/UspsToolsRestServices/rest/POLocator/findLocations", "@spider": "usps_collection_boxes", "addr:city": "WORCESTER", "addr:country": "US", "addr:postcode": "01610", "addr:state": "MA", "addr:street_address": "82 MILLBURY ST", "amenity": "post_box", "collection_times": "Mo-Sa 10:00", "nsi_id": "unitedstatespostalservice-a77078", "operator": "United States Postal Service", "operator:short": "USPS", "operator:type": "public", "operator:wikidata": "Q668687", "ref": "0161000009"}, "type": "Feature"}
{"geometry": {"coordinates": [-71.8075942, 42.259695], "type": "Point"}, "id": "_AfLoTsv6oEOLiVCRBNRHqZA2NQ=", "properties": {"@source_uri": "https://tools.usps.com/UspsToolsRestServices/rest/POLocator/findLocations", "@spider": "usps_collection_boxes", "addr:city": "WORCESTER", "addr:country": "US", "addr:postcode": "01610", "addr:state": "MA", "addr:street_address": "50 MURRAY AVE", "amenity": "post_box", "collection_times": "Mo-Sa 10:00", "nsi_id": "unitedstatespostalservice-a77078", "operator": "United States Postal Service", "operator:short": "USPS", "operator:type": "public", "operator:wikidata": "Q668687", "ref": "0161000010"}, "type": "Feature"}
{"geometry": {"coordinates": [-71.814972605, 42.259245632], "type": "Point"}, "id": "ZgauSMqsDjGHAiy1Y8AqywQzTz8=", "properties": {"@source_uri": "https://tools.usps.com/UspsToolsRestServices/rest/POLocator/findLocations", "@spider": "usps_collection_boxes", "addr:city": "WORCESTER", "addr:country": "US", "addr:postcode": "01610", "addr:state": "MA", "addr:street_address": "26 QUEEN ST", "amenity": "post_box", "collection_times": "Mo-Sa 08:00", "nsi_id": "unitedstatespostalservice-a77078", "operator": "United States Postal Service", "operator:short": "USPS", "operator:type": "public", "operator:wikidata": "Q668687", "ref": "0161000015"}, "type": "Feature"}
{"geometry": {"coordinates": [-71.8187754, 42.231998], "type": "Point"}, "id": "rPOV8ouF4mu4IGaBCKjcwFvJ7II=", "properties": {"@source_uri": "https://tools.usps.com/UspsToolsRestServices/rest/POLocator/findLocations", "@spider": "usps_collection_boxes", "addr:city": "WORCESTER", "addr:country": "US", "addr:postcode": "01610", "addr:state": "MA", "addr:street_address": "1025 SOUTHBRIDGE ST", "amenity": "post_box", "collection_times": "Mo-Sa 09:00", "nsi_id": "unitedstatespostalservice-a77078", "operator": "United States Postal Service", "operator:short": "USPS", "operator:type": "public", "operator:wikidata": "Q668687", "ref": "0161000017"}, "type": "Feature"}
{"geometry": {"coordinates": [-71.7949003, 42.250167], "type": "Point"}, "id": "N__alVaOhgIkvAgvHLog_7B-_Yo=", "properties": {"@source_uri": "https://tools.usps.com/UspsToolsRestServices/rest/POLocator/findLocations", "@spider": "usps_collection_boxes", "addr:city": "WORCESTER", "addr:country": "US", "addr:postcode": "01610", "addr:state": "MA", "addr:street_address": "66 VERNON ST", "amenity": "post_box", "collection_times": "Mo-Fr 13:00; Sa 12:00", "note": "ON 12/24 AND 12/31, THIS BOX MAY BE COLLECTED AS EARLY AS 12 NOON.", "nsi_id": "unitedstatespostalservice-a77078", "operator": "United States Postal Service", "operator:short": "USPS", "operator:type": "public", "operator:wikidata": "Q668687", "ref": "0161000018"}, "type": "Feature"}
{"geometry": {"coordinates": [-71.7961286, 42.244769], "type": "Point"}, "id": "4khW1B0kLUfiyMW56E_MJJHcnaU=", "properties": {"@source_uri": "https://tools.usps.com/UspsToolsRestServices/rest/POLocator/findLocations", "@spider": "usps_collection_boxes", "addr:city": "WORCESTER", "addr:country": "US", "addr:postcode": "01610", "addr:state": "MA", "addr:street_address": "140 VERNON ST", "amenity": "post_box", "collection_times": "Mo-Sa 09:00", "nsi_id": "unitedstatespostalservice-a77078", "operator": "United States Postal Service", "operator:short": "USPS", "operator:type": "public", "operator:wikidata": "Q668687", "ref": "0161000019"}, "type": "Feature"}
{"geometry": {"coordinates": [-71.8216444, 42.252407], "type": "Point"}, "id": "mSNSyLhdjBE6w_ecYuvrAtkF_x0=", "properties": {"@source_uri": "https://tools.usps.com/UspsToolsRestServices/rest/POLocator/findLocations", "@spider": "usps_collection_boxes", "addr:city": "WORCESTER", "addr:country": "US", "addr:postcode": "01610", "addr:state": "MA", "addr:street_address": "144 WOODLAND ST", "amenity": "post_box", "collection_times": "Mo-Sa 09:00", "nsi_id": "unitedstatespostalservice-a77078", "operator": "United States Postal Service", "operator:short": "USPS", "operator:type": "public", "operator:wikidata": "Q668687", "ref": "0161000020"}, "type": "Feature"}
{"geometry": {"coordinates": [-71.8090224, 42.238998], "type": "Point"}, "id": "z-uuurEV22lpa-xX8H8-TF4ZkXI=", "properties": {"@source_uri": "https://tools.usps.com/UspsToolsRestServices/rest/POLocator/findLocations", "@spider": "usps_collection_boxes", "addr:city": "WORCESTER", "addr:country": "US", "addr:postcode": "01610", "addr:state": "MA", "addr:street_address": "1 COLLEGE ST", "amenity": "post_box", "collection_times": "Mo-Sa 10:00", "nsi_id": "unitedstatespostalservice-a77078", "operator": "United States Postal Service", "operator:short": "USPS", "operator:type": "public", "operator:wikidata": "Q668687", "ref": "0161000022"}, "type": "Feature"}
{"geometry": {"coordinates": [-71.8143994, 42.259641], "type": "Point"}, "id": "T1Fh4ZAZFO4Xll9MAXK6ZpM36fA=", "properties": {"@source_uri": "https://tools.usps.com/UspsToolsRestServices/rest/POLocator/findLocations", "@spider": "usps_collection_boxes", "addr:city": "WORCESTER", "addr:country": "US", "addr:postcode": "01610", "addr:state": "MA", "addr:street_address": "72 JAQUES AVE", "amenity": "post_box", "collection_times": "Mo-Fr 08:00", "nsi_id": "unitedstatespostalservice-a77078", "operator": "United States Postal Service", "operator:short": "USPS", "operator:type": "public", "operator:wikidata": "Q668687", "ref": "0161000034"}, "type": "Feature"}
{"geometry": {"coordinates": [-71.7945435, 42.265512], "type": "Point"}, "id": "lC9e3CD1q-ABXLb7Hj12oW68yrM=", "properties": {"@source_uri": "https://tools.usps.com/UspsToolsRestServices/rest/POLocator/findLocations", "@spider": "usps_collection_boxes", "addr:city": "WORCESTER", "addr:country": "US", "addr:postcode": "01613", "addr:state": "MA", "addr:street_address": "4 E CENTRAL ST", "amenity": "post_box", "collection_times": "Mo-Fr 18:00; Sa 16:00", "note": "ON 12/24 AND 12/31, THIS BOX MAY BE COLLECTED AS EARLY AS 12 NOON.", "nsi_id": "unitedstatespostalservice-a77078", "operator": "United States Postal Service", "operator:short": "USPS", "operator:type": "public", "operator:wikidata": "Q668687", "ref": "0161300004"}, "type": "Feature"}
{"geometry": {"coordinates": [-71.7947016, 42.265745], "type": "Point"}, "id": "1SQhMd2K1DyFDiCeKzlSFfPgjNI=", "properties": {"@source_uri": "https://tools.usps.com/UspsToolsRestServices/rest/POLocator/findLocations", "@spider": "usps_collection_boxes", "addr:city": "WORCESTER", "addr:country": "US", "addr:postcode": "01613", "addr:state": "MA", "addr:street_address": "4 E CENTRAL ST", "amenity": "post_box", "collection_times": "Mo-Fr 18:00; Sa 16:00", "indoor": "yes", "note": "ON 12/24 AND 12/31, THIS BOX MAY BE COLLECTED AS EARLY AS 12 NOON.", "nsi_id": "unitedstatespostalservice-a77078", "operator": "United States Postal Service", "operator:short": "USPS", "operator:type": "public", "operator:wikidata": "Q668687", "ref": "0161300022"}, "type": "Feature"}
{"geometry": {"coordinates": [-71.794742, 42.26592], "type": "Point"}, "id": "ZKXhpV5MUniv6Dl3i8-t7Wggv-A=", "properties": {"@source_uri": "https://tools.usps.com/UspsToolsRestServices/rest/POLocator/findLocations", "@spider": "usps_collection_boxes", "addr:city": "WORCESTER", "addr:country": "US", "addr:postcode": "01613", "addr:state": "MA", "addr:street_address": "4 E CENTRAL ST", "amenity": "post_box", "collection_times": "Mo-Fr 18:00; Sa 16:00", "name": "USPS COLLECTION BOX - APC", "note": "ON 12/24 AND 12/31, THIS BOX MAY BE COLLECTED AS EARLY AS 12 NOON.", "nsi_id": "unitedstatespostalservice-a77078", "operator": "United States Postal Service", "operator:short": "USPS", "operator:type": "public", "operator:wikidata": "Q668687", "ref": "0161300024"}, "type": "Feature"}
{"geometry": {"coordinates": [-71.7947636, 42.265793], "type": "Point"}, "id": "NIp-vD1ZqSEwnOcJpEQ3VY1qdlc=", "properties": {"@source_uri": "https://tools.usps.com/UspsToolsRestServices/rest/POLocator/findLocations", "@spider": "usps_collection_boxes", "addr:city": "WORCESTER", "addr:country": "US", "addr:postcode": "01613", "addr:state": "MA", "addr:street_address": "4 E CENTRAL ST", "amenity": "post_box", "collection_times": "Mo-Fr 18:00; Sa 16:00", "indoor": "yes", "note": "ON 12/24 AND 12/31, THIS BOX MAY BE COLLECTED AS EARLY AS 12 NOON.", "nsi_id": "unitedstatespostalservice-a77078", "operator": "United States Postal Service", "operator:short": "USPS", "operator:type": "public", "operator:wikidata": "Q668687", "ref": "0161300026"}, "type": "Feature"}
