{"dataset_attributes": {"@spider": "usps_collection_boxes"}, "geometry": {"coordinates": [-71.0534536, 42.350753], "type": "Point"}, "id": "dAMek1I-_00_Bn6p0ejFX9DuJmU=", "properties": {"@spider": "usps_collection_boxes", "addr:city": "BOSTON", "addr:country": "US", "addr:full": "25 DORCHESTER AVE", "addr:postcode": "02205", "addr:state": "MA", "amenity": "post_box", "brand": "United States Postal Service", "brand:wikidata": "Q668687", "collection_times": "Mo-Sa 18:00", "name": "USPS COLLECTION BOX - BLUE BOX", "note": "ON 12/24 AND 12/31, THIS BOX MAY BE COLLECTED AS EARLY AS 12 NOON.", "nsi_id": "unitedstatespostalservice-a77078", "operator": "United States Postal Service", "operator:short": "USPS", "operator:type": "public", "operator:wikidata": "Q668687", "ref": "0220500001"}, "type": "Feature"}
{"dataset_attributes": {"@spider": "usps_collection_boxes"}, "geometry": {"coordinates": [-71.0534255, 42.350749], "type": "Point"}, "id": "t_28FXxqo3wmWcPNyrksRD7vKaU=", "properties": {"@spider": "usps_collection_boxes", "addr:city": "BOSTON", "addr:country": "US", "addr:full": "25 DORCHESTER AVE", "addr:postcode": "02205", "addr:state": "MA", "amenity": "post_box", "brand": "United States Postal Service", "brand:wikidata": "Q668687", "collection_times": "Mo-Sa 18:00", "name": "USPS COLLECTION BOX - BLUE BOX", "note": "ON 12/24 AND 12/31, THIS BOX MAY BE COLLECTED AS EARLY AS 12 NOON.", "nsi_id": "unitedstatespostalservice-a77078", "operator": "United States Postal Service", "operator:short": "USPS", "operator:type": "public", "operator:wikidata": "Q668687", "ref": "0220500002"}, "type": "Feature"}
{"dataset_attributes": {"@spider": "usps_collection_boxes"}, "geometry": {"coordinates": [-71.0536221, 42.35053], "type": "Point"}, "id": "g9FHXBPSVYr_2MfJjGIomiksABA=", "properties": {"@spider": "usps_collection_boxes", "addr:city": "BOSTON", "addr:country": "US", "addr:full": "25 DORCHESTER AVE", "addr:postcode": "02205", "addr:state": "MA", "amenity": "post_box", "brand": "United States Postal Service", "brand:wikidata": "Q668687", "collection_times": "Mo-Sa 18:00", "name": "USPS COLLECTION BOX - BLUE BOX", "note": "ON 12/24 AND 12/31, THIS BOX MAY BE COLLECTED AS EARLY AS 12 NOON.", "nsi_id": "unitedstatespostalservice-a77078", "operator": "United States Postal Service", "operator:short": "USPS", "operator:type": "public", "operator:wikidata": "Q668687", "ref": "0220500006"}, "type": "Feature"}
{"dataset_attributes": {"@spider": "usps_collection_boxes"}, "geometry": {"coordinates": [-71.0534392, 42.35075], "type": "Point"}, "id": "lV6OIHEoP32lFgPOPhmPY12xKKQ=", "properties": {"@spider": "usps_collection_boxes", "addr:city": "BOSTON", "addr:country": "US", "addr:full": "25 DORCHESTER AVE", "addr:postcode": "02205", "addr:state": "MA", "amenity": "post_box", "brand": "United States Postal Service", "brand:wikidata": "Q668687", "collection_times": "Mo-Sa 18:00", "name": "USPS COLLECTION BOX - BLUE BOX", "note": "ON 12/24 AND 12/31, THIS BOX MAY BE COLLECTED AS EARLY AS 12 NOON.", "nsi_id": "unitedstatespostalservice-a77078", "operator": "United States Postal Service", "operator:short": "USPS", "operator:type": "public", "operator:wikidata": "Q668687", "ref": "0220500010"}, "type": "Feature"}
{"dataset_attributes": {"@spider": "usps_collection_boxes"}, "geometry": {"coordinates": [-71.0546296, 42.351112], "type": "Point"}, "id": "73OjUKR1wE2EVLkZv0JJWRzMX0o=", "properties": {"@spider": "usps_collection_boxes", "addr:city": "BOSTON", "addr:country": "US", "addr:full": "25 DORCHESTER AVE REAR", "addr:postcode": "02205", "addr:state": "MA", "amenity": "post_box", "brand": "United States Postal Service", "brand:wikidata": "Q668687", "collection_times": "Mo-Sa 17:00", "name": "USPS COLLECTION BOX - BLUE BOX", "note": "ON 12/24 AND 12/31, THIS BOX MAY BE COLLECTED AS EARLY AS 12 NOON.", "nsi_id": "unitedstatespostalservice-a77078", "operator": "United States Postal Service", "operator:short": "USPS", "operator:type": "public", "operator:wikidata": "Q668687", "ref": "0220500013"}, "type": "Feature"}
{"dataset_attributes": {"@spider": "usps_collection_boxes"}, "geometry": {"coordinates": [-71.053556754, 42.350425717], "type": "Point"}, "id": "wbBayJVNPU-G2o1--V9_mvvAOwc=", "properties": {"@spider": "usps_collection_boxes", "addr:city": "BOSTON", "addr:country": "US", "addr:full": "25 DORCHESTER AVE", "addr:postcode": "02205", "addr:state": "MA", "amenity": "post_box", "brand": "United States Postal Service", "brand:wikidata": "Q668687", "collection_times": "Mo-Sa 18:00", "name": "USPS COLLECTION BOX - APC", "note": "ON 12/24 AND 12/31, THIS BOX MAY BE COLLECTED AS EARLY AS 12 NOON.", "nsi_id": "unitedstatespostalservice-a77078", "operator": "United States Postal Service", "operator:short": "USPS", "operator:type": "public", "operator:wikidata": "Q668687", "ref": "0220500014"}, "type": "Feature"}
{"dataset_attributes": {"@spider": "usps_collection_boxes"}, "geometry": {"coordinates": [-71.053556754, 42.350425717], "type": "Point"}, "id": "1fb8Pt7LLfnyDxZmGw-tSsJ0HhQ=", "properties": {"@spider": "usps_collection_boxes", "addr:city": "BOSTON", "addr:country": "US", "addr:full": "25 DORCHESTER AVE", "addr:postcode": "02205", "addr:state": "MA", "amenity": "post_box", "brand": "United States Postal Service", "brand:wikidata": "Q668687", "collection_times": "Mo-Sa 18:00", "name": "USPS COLLECTION BOX - APC", "note": "ON 12/24 AND 12/31, THIS BOX MAY BE COLLECTED AS EARLY AS 12 NOON.", "nsi_id": "unitedstatespostalservice-a77078", "operator": "United States Postal Service", "operator:short": "USPS", "operator:type": "public", "operator:wikidata": "Q668687", "ref": "0220500016"}, "type": "Feature"}
{"dataset_attributes": {"@spider": "usps_collection_boxes"}, "geometry": {"coordinates": [-71.053556754, 42.350425717], "type": "Point"}, "id": "9av1oJUNttU5NGe9j-8yZasY3ow=", "properties": {"@spider": "usps_collection_boxes", "addr:city": "BOSTON", "addr:country": "US", "addr:full": "25 DORCHESTER AVE", "addr:postcode": "02205", "addr:state": "MA", "amenity": "post_box", "brand": "United States Postal Service", "brand:wikidata": "Q668687", "collection_times": "Mo-Fr 18:00; Sa 20:00", "name": "USPS COLLECTION BOX - PO LOBBY", "note": "ON 12/24 AND 12/31, THIS BOX MAY BE COLLECTED AS EARLY AS 12 NOON.", "nsi_id": "unitedstatespostalservice-a77078", "operator": "United States Postal Service", "operator:short": "USPS", "operator:type": "public", "operator:wikidata": "Q668687", "ref": "0220500032"}, "type": "Feature"}
{"dataset_attributes": {"@spider": "usps_collection_boxes"}, "geometry": {"coordinates": [-71.0504228, 42.350261], "type": "Point"}, "id": "xI_QbWqxMnwKZ9xwXyysiC-uh5I=", "properties": {"@spider": "usps_collection_boxes", "addr:city": "BOSTON", "addr:country": "US", "addr:full": "268 SUMMER ST", "addr:postcode": "02210", "addr:state": "MA", "amenity": "post_box", "brand": "United States Postal Service", "brand:wikidata": "Q668687", "collection_times": "Mo-Fr 09:00", "name": "USPS COLLECTION BOX - BLUE BOX", "nsi_id": "unitedstatespostalservice-a77078", "operator": "United States Postal Service", "operator:short": "USPS", "operator:type": "public", "operator:wikidata": "Q668687", "ref": "0221000006"}, "type": "Feature"}
{"dataset_attributes": {"@spider": "usps_collection_boxes"}, "geometry": {"coordinates": [-71.0504509, 42.350296], "type": "Point"}, "id": "ioOq-Fg_VBWHEg7U2O3qnSf2fVU=", "properties": {"@spider": "usps_collection_boxes", "addr:city": "BOSTON", "addr:country": "US", "addr:full": "268 SUMMER ST", "addr:postcode": "02210", "addr:state": "MA", "amenity": "post_box", "brand": "United States Postal Service", "brand:wikidata": "Q668687", "collection_times": "Mo-Fr 09:00", "name": "USPS COLLECTION BOX - BLUE BOX", "nsi_id": "unitedstatespostalservice-a77078", "operator": "United States Postal Service", "operator:short": "USPS", "operator:type": "public", "operator:wikidata": "Q668687", "ref": "0221000008"}, "type": "Feature"}
{"dataset_attributes": {"@spider": "usps_collection_boxes"}, "geometry": {"coordinates": [-71.040991187, 42.350027343], "type": "Point"}, "id": "x1-Hqo9yClCBDX-KMlaoHgLbS08=", "properties": {"@spider": "usps_collection_boxes", "addr:city": "BOSTON", "addr:country": "US", "addr:full": "200 SEAPORT BLVD", "addr:postcode": "02210", "addr:state": "MA", "amenity": "post_box", "brand": "United States Postal Service", "brand:wikidata": "Q668687", "collection_times": "Mo-Fr 09:00; Sa 13:00", "name": "USPS COLLECTION BOX - BLUE BOX", "note": "ON 12/24 AND 12/31, THIS BOX MAY BE COLLECTED AS EARLY AS 12 NOON.", "nsi_id": "unitedstatespostalservice-a77078", "operator": "United States Postal Service", "operator:short": "USPS", "operator:type": "public", "operator:wikidata": "Q668687", "ref": "0221000012"}, "type": "Feature"}
{"dataset_attributes": {"@spider": "usps_collection_boxes"}, "geometry": {"coordinates": [-71.0315284, 42.344604], "type": "Point"}, "id": "OrbG7_KSKjHjAQ6kUNX6RvlM7ZY=", "properties": {"@spider": "usps_collection_boxes", "addr:city": "BOSTON", "addr:country": "US", "addr:full": "23 DRYDOCK AVE", "addr:postcode": "02210", "addr:state": "MA", "amenity": "post_box", "brand": "United States Postal Service", "brand:wikidata": "Q668687", "collection_times": "Mo-Fr 09:00; Sa 13:00", "name": "USPS COLLECTION BOX - BLUE BOX", "note": "ON 12/24 AND 12/31, THIS BOX MAY BE COLLECTED AS EARLY AS 12 NOON.", "nsi_id": "unitedstatespostalservice-a77078", "operator": "United States Postal Service", "operator:short": "USPS", "operator:type": "public", "operator:wikidata": "Q668687", "ref": "0221000013"}, "type": "Feature"}
{"dataset_attributes": {"@spider": "usps_collection_boxes"}, "geometry": {"coordinates": [-71.0336919, 42.344616], "type": "Point"}, "id": "-c-Yq5NtKyTElj0ZGwYI9bB75Us=", "properties": {"@spider": "usps_collection_boxes", "addr:city": "BOSTON", "addr:country": "US", "addr:full": "1 DESIGN CENTER PL", "addr:postcode": "02210", "addr:state": "MA", "amenity": "post_box", "brand": "United States Postal Service", "brand:wikidata": "Q668687", "collection_times": "Mo-Fr 09:00; Sa 13:00", "name": "USPS COLLECTION BOX - BLUE BOX", "note": "ON 12/24 AND 12/31, THIS BOX MAY BE COLLECTED AS EARLY AS 12 NOON.", "nsi_id": "unitedstatespostalservice-a77078", "operator": "United States Postal Service", "operator:short": "USPS", "operator:type": "public", "operator:wikidata": "Q668687", "ref": "0221000014"}, "type": "Feature"}
{"dataset_attributes": {"@spider": "usps_collection_boxes"}, "geometry": {"coordinates": [-71.0336954, 42.344615], "type": "Point"}, "id": "w2nRWwsBa45KGYI5z7Wras9AVRk=", "properties": {"@spider": "usps_collection_boxes", "addr:city": "BOSTON", "addr:country": "US", "addr:full": "1 DESIGN CENTER PL", "addr:postcode": "02210", "addr:state": "MA", "amenity": "post_box", "brand": "United States Postal Service", "brand:wikidata": "Q668687", "collection_times": "Mo-Fr 09:00; Sa 13:00", "name": "USPS COLLECTION BOX - BLUE BOX", "note": "ON 12/24 AND 12/31, THIS BOX MAY BE COLLECTED AS EARLY AS 12 NOON.", "nsi_id": "unitedstatespostalservice-a77078", "operator": "United States Postal Service", "operator:short": "USPS", "operator:type": "public", "operator:wikidata": "Q668687", "ref": "0221000015"}, "type": "Feature"}
{"dataset_attributes": {"@spider": "usps_collection_boxes"}, "geometry": {"coordinates": [-71.0553307, 42.352516], "type": "Point"}, "id": "To0QZLJgxszvETqbqYtu3ma9FFw=", "properties": {"@spider": "usps_collection_boxes", "addr:city": "BOSTON", "addr:country": "US", "addr:full": "1 SOUTH STA", "addr:postcode": "02210", "addr:state": "MA", "amenity": "post_box", "brand": "United States Postal Service", "brand:wikidata": "Q668687", "collection_times": "Mo-Fr 17:00; Sa 13:00", "name": "USPS COLLECTION BOX - BLUE BOX", "note": "ON 12/24 AND 12/31, THIS BOX MAY BE COLLECTED AS EARLY AS 12 NOON.", "nsi_id": "unitedstatespostalservice-a77078", "operator": "United States Postal Service", "operator:short": "USPS", "operator:type": "public", "operator:wikidata": "Q668687", "ref": "0221000017"}, "type": "Feature"}
{"dataset_attributes": {"@spider": "usps_collection_boxes"}, "geometry": {"coordinates": [-71.0511274, 42.347021], "type": "Point"}, "id": "bHIDwgpB7TvX7HMJeUin8FwZ3HA=", "properties": {"@spider": "usps_collection_boxes", "addr:city": "BOSTON", "addr:country": "US", "addr:full": "249 A ST", "addr:postcode": "02210", "addr:state": "MA", "amenity": "post_box", "brand": "United States Postal Service", "brand:wikidata": "Q668687", "collection_times": "Mo-Fr 09:00", "name": "USPS COLLECTION BOX - BLUE BOX", "nsi_id": "unitedstatespostalservice-a77078", "operator": "United States Postal Service", "operator:short": "USPS", "operator:type": "public", "operator:wikidata": "Q668687", "ref": "0221000018"}, "type": "Feature"}
{"dataset_attributes": {"@spider": "usps_collection_boxes"}, "geometry": {"coordinates": [-71.0484123, 42.34951], "type": "Point"}, "id": "sKMPuPYZqMC1PBQ4xaVYTesBHC4=", "properties": {"@spider": "usps_collection_boxes", "addr:city": "BOSTON", "addr:country": "US", "addr:full": "321 SUMMER ST", "addr:postcode": "02210", "addr:state": "MA", "amenity": "post_box", "brand": "United States Postal Service", "brand:wikidata": "Q668687", "collection_times": "Mo-Fr 09:00", "name": "USPS COLLECTION BOX - BLUE BOX", "nsi_id": "unitedstatespostalservice-a77078", "operator": "United States Postal Service", "operator:short": "USPS", "operator:type": "public", "operator:wikidata": "Q668687", "ref": "0221000020"}, "type": "Feature"}
{"dataset_attributes": {"@spider": "usps_collection_boxes"}, "geometry": {"coordinates": [-71.0506977, 42.3505], "type": "Point"}, "id": "M7hkXb3PVpJ9iO7fXigqsjjCP04=", "properties": {"@spider": "usps_collection_boxes", "addr:city": "BOSTON", "addr:country": "US", "addr:full": "263 SUMMER ST", "addr:postcode": "02210", "addr:state": "MA", "amenity": "post_box", "brand": "United States Postal Service", "brand:wikidata": "Q668687", "collection_times": "Mo-Fr 09:00; Sa 13:00", "name": "USPS COLLECTION BOX - BLUE BOX", "note": "ON 12/24 AND 12/31, THIS BOX MAY BE COLLECTED AS EARLY AS 12 NOON.", "nsi_id": "unitedstatespostalservice-a77078", "operator": "United States Postal Service", "operator:short": "USPS", "operator:type": "public", "operator:wikidata": "Q668687", "ref": "0221000021"}, "type": "Feature"}
{"dataset_attributes": {"@spider": "usps_collection_boxes"}, "geometry": {"coordinates": [-71.0495833, 42.350998], "type": "Point"}, "id": "UogTud9da6NF4Qji-SmMFFfwgyI=", "properties": {"@spider": "usps_collection_boxes", "addr:city": "BOSTON", "addr:country": "US", "addr:full": "330 CONGRESS ST", "addr:postcode": "02210", "addr:state": "MA", "amenity": "post_box", "brand": "United States Postal Service", "brand:wikidata": "Q668687", "collection_times": "Mo-Fr 09:00; Sa 13:00", "name": "USPS COLLECTION BOX - BLUE BOX", "note": "ON 12/24 AND 12/31, THIS BOX MAY BE COLLECTED AS EARLY AS 12 NOON.", "nsi_id": "unitedstatespostalservice-a77078", "operator": "United States Postal Service", "operator:short": "USPS", "operator:type": "public", "operator:wikidata": "Q668687", "ref": "0221000023"}, "type": "Feature"}
{"dataset_attributes": {"@spider": "usps_collection_boxes"}, "geometry": {"coordinates": [-71.0487208, 42.350516], "type": "Point"}, "id": "fzWUa9oBefBj1QtGICtPFNL4DOM=", "properties": {"@spider": "usps_collection_boxes", "addr:city": "BOSTON", "addr:country": "US", "addr:full": "368 CONGRESS ST", "addr:postcode": "02210", "addr:state": "MA", "amenity": "post_box", "brand": "United States Postal Service", "brand:wikidata": "Q668687", "collection_times": "Mo-Fr 09:00", "name": "USPS COLLECTION BOX - BLUE BOX", "nsi_id": "unitedstatespostalservice-a77078", "operator": "United States Postal Service", "operator:short": "USPS", "operator:type": "public", "operator:wikidata": "Q668687", "ref": "0221000024"}, "type": "Feature"}
{"dataset_attributes": {"@spider": "usps_collection_boxes"}, "geometry": {"coordinates": [-71.0496519, 42.35097], "type": "Point"}, "id": "gnMi9TbMUfUlz1CRwkqrcSp17_g=", "properties": {"@spider": "usps_collection_boxes", "addr:city": "BOSTON", "addr:country": "US", "addr:full": "330 CONGRESS ST", "addr:postcode": "02210", "addr:state": "MA", "amenity": "post_box", "brand": "United States Postal Service", "brand:wikidata": "Q668687", "collection_times": "Mo-Fr 09:00; Sa 13:00", "name": "USPS COLLECTION BOX - BLUE BOX", "note": "ON 12/24 AND 12/31, THIS BOX MAY BE COLLECTED AS EARLY AS 12 NOON.", "nsi_id": "unitedstatespostalservice-a77078", "operator": "United States Postal Service", "operator:short": "USPS", "operator:type": "public", "operator:wikidata": "Q668687", "ref": "0221000025"}, "type": "Feature"}
{"dataset_attributes": {"@spider": "usps_collection_boxes"}, "geometry": {"coordinates": [-71.0383659, 42.348623], "type": "Point"}, "id": "M4w_WWr36sOyDUBFJhty5zrMzV8=", "properties": {"@spider": "usps_collection_boxes", "addr:city": "BOSTON", "addr:country": "US", "addr:full": "233 NORTHERN AVE", "addr:postcode": "02210", "addr:state": "MA", "amenity": "post_box", "brand": "United States Postal Service", "brand:wikidata": "Q668687", "collection_times": "Mo-Fr 09:00; Sa 13:00", "name": "USPS COLLECTION BOX - BLUE BOX", "note": "ON 12/24 AND 12/31, THIS BOX MAY BE COLLECTED AS EARLY AS 12 NOON.", "nsi_id": "unitedstatespostalservice-a77078", "operator": "United States Postal Service", "operator:short": "USPS", "operator:type": "public", "operator:wikidata": "Q668687", "ref": "0221000027"}, "type": "Feature"}
{"dataset_attributes": {"@spider": "usps_collection_boxes"}, "geometry": {"coordinates": [-71.0494459, 42.349119], "type": "Point"}, "id": "negkqD4qN3bOpIBxaMDOt3c3vJg=", "properties": {"@spider": "usps_collection_boxes", "addr:city": "BOSTON", "addr:country": "US", "addr:full": "319 A ST", "addr:postcode": "02210", "addr:state": "MA", "amenity": "post_box", "brand": "United States Postal Service", "brand:wikidata": "Q668687", "collection_times": "Mo-Fr 09:00", "name": "USPS COLLECTION BOX - BLUE BOX", "nsi_id": "unitedstatespostalservice-a77078", "operator": "United States Postal Service", "operator:short": "USPS", "operator:type": "public", "operator:wikidata": "Q668687", "ref": "0221000028"}, "type": "Feature"}
{"dataset_attributes": {"@spider": "usps_collection_boxes"}, "geometry": {"coordinates": [-71.0498641, 42.349991], "type": "Point"}, "id": "D2O1bvervDld-fT7C1VAVS--dc4=", "properties": {"@spider": "usps_collection_boxes", "addr:city": "BOSTON", "addr:country": "US", "addr:full": "280 SUMMER ST", "addr:postcode": "02210", "addr:state": "MA", "amenity": "post_box", "brand": "United States Postal Service", "brand:wikidata": "Q668687", "collection_times": "Mo-Fr 17:00", "name": "USPS COLLECTION BOX - BLUE BOX", "note": "ON 12/24 AND 12/31, THIS BOX MAY BE COLLECTED AS EARLY AS 12 NOON.", "nsi_id": "unitedstatespostalservice-a77078", "operator": "United States Postal Service", "operator:short": "USPS", "operator:type": "public", "operator:wikidata": "Q668687", "ref": "0221000051"}, "type": "Feature"}
{"dataset_attributes": {"@spider": "usps_collection_boxes"}, "geometry": {"coordinates": [-71.0553206, 42.352518], "type": "Point"}, "id": "vrprl_uNq1mXWztZiX-W2POjpjM=", "properties": {"@spider": "usps_collection_boxes", "addr:city": "BOSTON", "addr:country": "US", "addr:full": "1 SOUTH STA", "addr:postcode": "02210", "addr:state": "MA", "amenity": "post_box", "brand": "United States Postal Service", "brand:wikidata": "Q668687", "collection_times": "Mo-Fr 17:00; Sa 13:00", "name": "USPS COLLECTION BOX - BLUE BOX", "note": "ON 12/24 AND 12/31, THIS BOX MAY BE COLLECTED AS EARLY AS 12 NOON.", "nsi_id": "unitedstatespostalservice-a77078", "operator": "United States Postal Service", "operator:short": "USPS", "operator:type": "public", "operator:wikidata": "Q668687", "ref": "0221000052"}, "type": "Feature"}
{"dataset_attributes": {"@spider": "usps_collection_boxes"}, "geometry": {"coordinates": [-71.0367886, 42.345095], "type": "Point"}, "id": "UY5NLqdX3FhvBctPLlA6xC29jXw=", "properties": {"@spider": "usps_collection_boxes", "addr:city": "BOSTON", "addr:country": "US", "addr:full": "12 CHANNEL ST", "addr:postcode": "02210", "addr:state": "MA", "amenity": "post_box", "brand": "United States Postal Service", "brand:wikidata": "Q668687", "collection_times": "Mo-Fr 17:00", "name": "USPS COLLECTION BOX - BLUE BOX", "note": "ON 12/24 AND 12/31, THIS BOX MAY BE COLLECTED AS EARLY AS 12 NOON.", "nsi_id": "unitedstatespostalservice-a77078", "operator": "United States Postal Service", "operator:short": "USPS", "operator:type": "public", "operator:wikidata": "Q668687", "ref": "0221000053"}, "type": "Feature"}
{"dataset_attributes": {"@spider": "usps_collection_boxes"}, "geometry": {"coordinates": [-71.0385019, 42.350474], "type": "Point"}, "id": "4BqNICUb6VFaJ--gnaC-hODqSWM=", "properties": {"@spider": "usps_collection_boxes", "addr:city": "BOSTON", "addr:country": "US", "addr:full": "2 FISH PIER", "addr:postcode": "02210", "addr:state": "MA", "amenity": "post_box", "brand": "United States Postal Service", "brand:wikidata": "Q668687", "collection_times": "Mo-Fr 09:00", "name": "USPS COLLECTION BOX - BLUE BOX", "nsi_id": "unitedstatespostalservice-a77078", "operator": "United States Postal Service", "operator:short": "USPS", "operator:type": "public", "operator:wikidata": "Q668687", "ref": "0221000058"}, "type": "Feature"}
{"dataset_attributes": {"@spider": "usps_collection_boxes"}, "geometry": {"coordinates": [-71.0423750397, 42.3502527668], "type": "Point"}, "id": "4HZfFXHIHERTSa7bag8V4wAPtgg=", "properties": {"@spider": "usps_collection_boxes", "addr:city": "BOSTON", "addr:country": "US", "addr:full": "155 SEAPORT BLVD", "addr:postcode": "02210", "addr:state": "MA", "amenity": "post_box", "brand": "United States Postal Service", "brand:wikidata": "Q668687", "collection_times": "Mo-Fr 09:00; Sa 13:00", "name": "USPS COLLECTION BOX - BLUE BOX", "note": "ON 12/24 AND 12/31, THIS BOX MAY BE COLLECTED AS EARLY AS 12 NOON.", "nsi_id": "unitedstatespostalservice-a77078", "operator": "United States Postal Service", "operator:short": "USPS", "operator:type": "public", "operator:wikidata": "Q668687", "ref": "0221000087"}, "type": "Feature"}
{"dataset_attributes": {"@spider": "usps_collection_boxes"}, "geometry": {"coordinates": [-71.0411462573, 42.3490438926], "type": "Point"}, "id": "5640XIjB3PkMJ_uHCz5CvivewU0=", "properties": {"@spider": "usps_collection_boxes", "addr:city": "BOSTON", "addr:country": "US", "addr:full": "2 SEAPORT LN", "addr:postcode": "02210", "addr:state": "MA", "amenity": "post_box", "brand": "United States Postal Service", "brand:wikidata": "Q668687", "collection_times": "Mo-Fr 09:00; Sa 13:00", "name": "USPS COLLECTION BOX - BLUE BOX", "note": "ON 12/24 AND 12/31, THIS BOX MAY BE COLLECTED AS EARLY AS 12 NOON.", "nsi_id": "unitedstatespostalservice-a77078", "operator": "United States Postal Service", "operator:short": "USPS", "operator:type": "public", "operator:wikidata": "Q668687", "ref": "0221000088"}, "type": "Feature"}
{"dataset_attributes": {"@spider": "usps_collection_boxes"}, "geometry": {"coordinates": [-71.044986, 42.35309], "type": "Point"}, "id": "SRjF5Nrz7pQB1tFafs80trvhkfE=", "properties": {"@spider": "usps_collection_boxes", "addr:city": "BOSTON", "addr:country": "US", "addr:full": "1 MARINA PARK DR", "addr:postcode": "02210", "addr:state": "MA", "amenity": "post_box", "brand": "United States Postal Service", "brand:wikidata": "Q668687", "collection_times": "Mo-Fr 09:00; Sa 13:00", "name": "USPS COLLECTION BOX - BLUE BOX", "note": "ON 12/24 AND 12/31, THIS BOX MAY BE COLLECTED AS EARLY AS 12 NOON.", "nsi_id": "unitedstatespostalservice-a77078", "operator": "United States Postal Service", "operator:short": "USPS", "operator:type": "public", "operator:wikidata": "Q668687", "ref": "0221000110"}, "type": "Feature"}
{"dataset_attributes": {"@spider": "usps_collection_boxes"}, "geometry": {"coordinates": [-71.1088895, 42.337434], "type": "Point"}, "id": "Y7E6Sb4ToOPqh2-klKwrD56TcTU=", "properties": {"@spider": "usps_collection_boxes", "addr:city": "BOSTON", "addr:country": "US", "addr:full": "454 BROOKLINE AVE", "addr:postcode": "02215", "addr:state": "MA", "amenity": "post_box", "brand": "United States Postal Service", "brand:wikidata": "Q668687", "collection_times": "Mo-Sa 11:00", "name": "USPS COLLECTION BOX - BLUE BOX", "nsi_id": "unitedstatespostalservice-a77078", "operator": "United States Postal Service", "operator:short": "USPS", "operator:type": "public", "operator:wikidata": "Q668687", "ref": "0221500004"}, "type": "Feature"}
{"dataset_attributes": {"@spider": "usps_collection_boxes"}, "geometry": {"coordinates": [-71.1076742, 42.338618], "type": "Point"}, "id": "KS8nslXtmqGe2U7gdSqyJzlljSg=", "properties": {"@spider": "usps_collection_boxes", "addr:city": "BOSTON", "addr:country": "US", "addr:full": "400 BROOKLINE AVE", "addr:postcode": "02215", "addr:state": "MA", "amenity": "post_box", "brand": "United States Postal Service", "brand:wikidata": "Q668687", "collection_times": "Mo-Fr 13:00", "name": "USPS COLLECTION BOX - BLUE BOX", "note": "ON 12/24 AND 12/31, THIS BOX MAY BE COLLECTED AS EARLY AS 12 NOON.", "nsi_id": "unitedstatespostalservice-a77078", "operator": "United States Postal Service", "operator:short": "USPS", "operator:type": "public", "operator:wikidata": "Q668687", "ref": "0221500009"}, "type": "Feature"}
{"dataset_attributes": {"@spider": "usps_collection_boxes"}, "geometry": {"coordinates": [-71.1056854, 42.340203], "type": "Point"}, "id": "aFQRPutxD3b5CzQ0aXT9niNdcs8=", "properties": {"@spider": "usps_collection_boxes", "addr:city": "BOSTON", "addr:country": "US", "addr:full": "330 BROOKLINE AVE", "addr:postcode": "02215", "addr:state": "MA", "amenity": "post_box", "brand": "United States Postal Service", "brand:wikidata": "Q668687", "collection_times": "Mo-Fr 13:00", "name": "USPS COLLECTION BOX - BLUE BOX", "note": "ON 12/24 AND 12/31, THIS BOX MAY BE COLLECTED AS EARLY AS 12 NOON.", "nsi_id": "unitedstatespostalservice-a77078", "operator": "United States Postal Service", "operator:short": "USPS", "operator:type": "public", "operator:wikidata": "Q668687", "ref": "0221500010"}, "type": "Feature"}
{"dataset_attributes": {"@spider": "usps_collection_boxes"}, "geometry": {"coordinates": [-71.090586165, 42.345361122], "type": "Point"}, "id": "zKcbNl6Dz9sBhTnmeJLzYH3_3r4=", "properties": {"@spider": "usps_collection_boxes", "addr:city": "BOSTON", "addr:country": "US", "addr:full": "38 FENWAY", "addr:postcode": "02215", "addr:state": "MA", "amenity": "post_box", "brand": "United States Postal Service", "brand:wikidata": "Q668687", "collection_times": "Mo-Fr 09:00", "name": "USPS COLLECTION BOX - BLUE BOX", "nsi_id": "unitedstatespostalservice-a77078", "operator": "United States Postal Service", "operator:short": "USPS", "operator:type": "public", "operator:wikidata": "Q668687", "ref": "0221500011"}, "type": "Feature"}
{"dataset_attributes": {"@spider": "usps_collection_boxes"}, "geometry": {"coordinates": [-71.0888876445, 42.3467824572], "type": "Point"}, "id": "syj7-xKHs3CYoeI4IdUfMEb1U5E=", "properties": {"@spider": "usps_collection_boxes", "addr:city": "BOSTON", "addr:country": "US", "addr:full": "1126 BOYLSTON ST", "addr:postcode": "02215", "addr:state": "MA", "amenity": "post_box", "brand": "United States Postal Service", "brand:wikidata": "Q668687", "collection_times": "Mo-Sa 09:00", "name": "USPS COLLECTION BOX - BLUE BOX", "nsi_id": "unitedstatespostalservice-a77078", "operator": "United States Postal Service", "operator:short": "USPS", "operator:type": "public", "operator:wikidata": "Q668687", "ref": "0221500013"}, "type": "Feature"}
{"dataset_attributes": {"@spider": "usps_collection_boxes"}, "geometry": {"coordinates": [-71.10100952, 42.349469362], "type": "Point"}, "id": "gFy7kl90j1lagtVAwBVBc_kcbfk=", "properties": {"@spider": "usps_collection_boxes", "addr:city": "BOSTON", "addr:country": "US", "addr:full": "609 COMMONWEALTH AVE", "addr:postcode": "02215", "addr:state": "MA", "amenity": "post_box", "brand": "United States Postal Service", "brand:wikidata": "Q668687", "collection_times": "Mo-Sa 09:00", "name": "USPS COLLECTION BOX - BLUE BOX", "nsi_id": "unitedstatespostalservice-a77078", "operator": "United States Postal Service", "operator:short": "USPS", "operator:type": "public", "operator:wikidata": "Q668687", "ref": "0221500014"}, "type": "Feature"}
{"dataset_attributes": {"@spider": "usps_collection_boxes"}, "geometry": {"coordinates": [-71.090981026, 42.349220453], "type": "Point"}, "id": "rGQyXRQPN4aAgSwrd0fGThAbt1E=", "properties": {"@spider": "usps_collection_boxes", "addr:city": "BOSTON", "addr:country": "US", "addr:full": "409 COMMONWEALTH AVE", "addr:postcode": "02215", "addr:state": "MA", "amenity": "post_box", "brand": "United States Postal Service", "brand:wikidata": "Q668687", "collection_times": "Mo-Fr 09:00", "name": "USPS COLLECTION BOX - BLUE BOX", "nsi_id": "unitedstatespostalservice-a77078", "operator": "United States Postal Service", "operator:short": "USPS", "operator:type": "public", "operator:wikidata": "Q668687", "ref": "0221500015"}, "type": "Feature"}
{"dataset_attributes": {"@spider": "usps_collection_boxes"}, "geometry": {"coordinates": [-71.1069147, 42.349926], "type": "Point"}, "id": "QLDPuyWOL9RjkpH3X1bkY2Wl-Po=", "properties": {"@spider": "usps_collection_boxes", "addr:city": "BOSTON", "addr:country": "US", "addr:full": "728 COMMONWEALTH AVE", "addr:postcode": "02215", "addr:state": "MA", "amenity": "post_box", "brand": "United States Postal Service", "brand:wikidata": "Q668687", "collection_times": "Mo-Sa 13:00", "name": "USPS COLLECTION BOX - BLUE BOX", "note": "ON 12/24 AND 12/31, THIS BOX MAY BE COLLECTED AS EARLY AS 12 NOON.", "nsi_id": "unitedstatespostalservice-a77078", "operator": "United States Postal Service", "operator:short": "USPS", "operator:type": "public", "operator:wikidata": "Q668687", "ref": "0221500019"}, "type": "Feature"}
{"dataset_attributes": {"@spider": "usps_collection_boxes"}, "geometry": {"coordinates": [-71.1252841, 42.352007], "type": "Point"}, "id": "CA98cc4_nV6yN8OJOENnAHcO3fg=", "properties": {"@spider": "usps_collection_boxes", "addr:city": "BOSTON", "addr:country": "US", "addr:full": "1101 COMMONWEALTH AVE", "addr:postcode": "02215", "addr:state": "MA", "amenity": "post_box", "brand": "United States Postal Service", "brand:wikidata": "Q668687", "collection_times": "Mo-Sa 10:00", "name": "USPS COLLECTION BOX - BLUE BOX", "nsi_id": "unitedstatespostalservice-a77078", "operator": "United States Postal Service", "operator:short": "USPS", "operator:type": "public", "operator:wikidata": "Q668687", "ref": "0221500021"}, "type": "Feature"}
{"dataset_attributes": {"@spider": "usps_collection_boxes"}, "geometry": {"coordinates": [-71.1210831, 42.351895], "type": "Point"}, "id": "7mP6E2IE5yf39oy1_qoZ1sx8-k4=", "properties": {"@spider": "usps_collection_boxes", "addr:city": "BOSTON", "addr:country": "US", "addr:full": "1001 COMMONWEALTH AVE", "addr:postcode": "02215", "addr:state": "MA", "amenity": "post_box", "brand": "United States Postal Service", "brand:wikidata": "Q668687", "collection_times": "Mo-Sa 10:00", "name": "USPS COLLECTION BOX - BLUE BOX", "nsi_id": "unitedstatespostalservice-a77078", "operator": "United States Postal Service", "operator:short": "USPS", "operator:type": "public", "operator:wikidata": "Q668687", "ref": "0221500022"}, "type": "Feature"}
{"dataset_attributes": {"@spider": "usps_collection_boxes"}, "geometry": {"coordinates": [-71.1214621707, 42.3516846233], "type": "Point"}, "id": "JhKrztbkGy-xjwyVpNW4c1eefJg=", "properties": {"@spider": "usps_collection_boxes", "addr:city": "BOSTON", "addr:country": "US", "addr:full": "1016 COMMONWEALTH AVE", "addr:postcode": "02215", "addr:state": "MA", "amenity": "post_box", "brand": "United States Postal Service", "brand:wikidata": "Q668687", "collection_times": "Mo-Sa 10:00", "name": "USPS COLLECTION BOX - BLUE BOX", "nsi_id": "unitedstatespostalservice-a77078", "operator": "United States Postal Service", "operator:short": "USPS", "operator:type": "public", "operator:wikidata": "Q668687", "ref": "0221500024"}, "type": "Feature"}
{"dataset_attributes": {"@spider": "usps_collection_boxes"}, "geometry": {"coordinates": [-71.0993712261, 42.3485173436], "type": "Point"}, "id": "VkUb9AXO4Y9FeQ86CXkDSFnRd0M=", "properties": {"@spider": "usps_collection_boxes", "addr:city": "BOSTON", "addr:country": "US", "addr:full": "700 BEACON ST", "addr:postcode": "02215", "addr:state": "MA", "amenity": "post_box", "brand": "United States Postal Service", "brand:wikidata": "Q668687", "collection_times": "Mo-Sa 09:00", "name": "USPS COLLECTION BOX - BLUE BOX", "nsi_id": "unitedstatespostalservice-a77078", "operator": "United States Postal Service", "operator:short": "USPS", "operator:type": "public", "operator:wikidata": "Q668687", "ref": "0221500025"}, "type": "Feature"}
{"dataset_attributes": {"@spider": "usps_collection_boxes"}, "geometry": {"coordinates": [-71.1039664222, 42.3495876233], "type": "Point"}, "id": "4o2y9fg5bptx44AjxUWA5N4hf0g=", "properties": {"@spider": "usps_collection_boxes", "addr:city": "BOSTON", "addr:country": "US", "addr:full": "700 COMMONWEALTH AVE", "addr:postcode": "02215", "addr:state": "MA", "amenity": "post_box", "brand": "United States Postal Service", "brand:wikidata": "Q668687", "collection_times": "Mo-Sa 13:00", "name": "USPS COLLECTION BOX - BLUE BOX", "note": "ON 12/24 AND 12/31, THIS BOX MAY BE COLLECTED AS EARLY AS 12 NOON.", "nsi_id": "unitedstatespostalservice-a77078", "operator": "United States Postal Service", "operator:short": "USPS", "operator:type": "public", "operator:wikidata": "Q668687", "ref": "0221500026"}, "type": "Feature"}
{"dataset_attributes": {"@spider": "usps_collection_boxes"}, "geometry": {"coordinates": [-71.1025380767, 42.3470598144], "type": "Point"}, "id": "CArn1nJ3FRGWrV_TQaJXyjgto8I=", "properties": {"@spider": "usps_collection_boxes", "addr:city": "BOSTON", "addr:country": "US", "addr:full": "829 BEACON ST", "addr:postcode": "02215", "addr:state": "MA", "amenity": "post_box", "brand": "United States Postal Service", "brand:wikidata": "Q668687", "collection_times": "Mo-Sa 11:00", "name": "USPS COLLECTION BOX - BLUE BOX", "nsi_id": "unitedstatespostalservice-a77078", "operator": "United States Postal Service", "operator:short": "USPS", "operator:type": "public", "operator:wikidata": "Q668687", "ref": "0221500028"}, "type": "Feature"}
{"dataset_attributes": {"@spider": "usps_collection_boxes"}, "geometry": {"coordinates": [-71.1057352, 42.347565], "type": "Point"}, "id": "3cxciXn514Q-urcBRRxDgrdtTHI=", "properties": {"@spider": "usps_collection_boxes", "addr:city": "BOSTON", "addr:country": "US", "addr:full": "506 PARK DR", "addr:postcode": "02215", "addr:state": "MA", "amenity": "post_box", "brand": "United States Postal Service", "brand:wikidata": "Q668687", "collection_times": "Mo-Fr 10:00", "name": "USPS COLLECTION BOX - BLUE BOX", "nsi_id": "unitedstatespostalservice-a77078", "operator": "United States Postal Service", "operator:short": "USPS", "operator:type": "public", "operator:wikidata": "Q668687", "ref": "0221500029"}, "type": "Feature"}
{"dataset_attributes": {"@spider": "usps_collection_boxes"}, "geometry": {"coordinates": [-71.1047177, 42.345627], "type": "Point"}, "id": "Kh3KH81Bu6_9ft1JmLFHaob1o8E=", "properties": {"@spider": "usps_collection_boxes", "addr:city": "BOSTON", "addr:country": "US", "addr:full": "452 PARK DR", "addr:postcode": "02215", "addr:state": "MA", "amenity": "post_box", "brand": "United States Postal Service", "brand:wikidata": "Q668687", "collection_times": "Mo-Fr 09:00", "name": "USPS COLLECTION BOX - BLUE BOX", "nsi_id": "unitedstatespostalservice-a77078", "operator": "United States Postal Service", "operator:short": "USPS", "operator:type": "public", "operator:wikidata": "Q668687", "ref": "0221500030"}, "type": "Feature"}
{"dataset_attributes": {"@spider": "usps_collection_boxes"}, "geometry": {"coordinates": [-71.1225318, 42.352065], "type": "Point"}, "id": "_zI7TMqn7Wew2k1Z7LYn1_fwo4M=", "properties": {"@spider": "usps_collection_boxes", "addr:city": "BOSTON", "addr:country": "US", "addr:full": "1041 COMMONWEALTH AVE", "addr:postcode": "02215", "addr:state": "MA", "amenity": "post_box", "brand": "United States Postal Service", "brand:wikidata": "Q668687", "collection_times": "Mo-Sa 10:00", "name": "USPS COLLECTION BOX - BLUE BOX", "nsi_id": "unitedstatespostalservice-a77078", "operator": "United States Postal Service", "operator:short": "USPS", "operator:type": "public", "operator:wikidata": "Q668687", "ref": "0221500031"}, "type": "Feature"}
{"dataset_attributes": {"@spider": "usps_collection_boxes"}, "geometry": {"coordinates": [-71.1140705, 42.350763], "type": "Point"}, "id": "qW_A8htLrRoajMzLf611kFVCLrQ=", "properties": {"@spider": "usps_collection_boxes", "addr:city": "BOSTON", "addr:country": "US", "addr:full": "860 COMMONWEALTH AVE", "addr:postcode": "02215", "addr:state": "MA", "amenity": "post_box", "brand": "United States Postal Service", "brand:wikidata": "Q668687", "collection_times": "Mo-Sa 10:00", "name": "USPS COLLECTION BOX - BLUE BOX", "nsi_id": "unitedstatespostalservice-a77078", "operator": "United States Postal Service", "operator:short": "USPS", "operator:type": "public", "operator:wikidata": "Q668687", "ref": "0221500032"}, "type": "Feature"}
{"dataset_attributes": {"@spider": "usps_collection_boxes"}, "geometry": {"coordinates": [-71.1184389, 42.351279], "type": "Point"}, "id": "Jj0yjVce2qRrOZZoZndX86a0MqQ=", "properties": {"@spider": "usps_collection_boxes", "addr:city": "BOSTON", "addr:country": "US", "addr:full": "940 COMMONWEALTH AVE", "addr:postcode": "02215", "addr:state": "MA", "amenity": "post_box", "brand": "United States Postal Service", "brand:wikidata": "Q668687", "collection_times": "Mo-Sa 11:00", "name": "USPS COLLECTION BOX - BLUE BOX", "nsi_id": "unitedstatespostalservice-a77078", "operator": "United States Postal Service", "operator:short": "USPS", "operator:type": "public", "operator:wikidata": "Q668687", "ref": "0221500034"}, "type": "Feature"}
{"dataset_attributes": {"@spider": "usps_collection_boxes"}, "geometry": {"coordinates": [-71.1161333, 42.351016], "type": "Point"}, "id": "kuBsKBO9GJ26m60NFQwy_AFOze4=", "properties": {"@spider": "usps_collection_boxes", "addr:city": "BOSTON", "addr:country": "US", "addr:full": "900 COMMONWEALTH AVE", "addr:postcode": "02215", "addr:state": "MA", "amenity": "post_box", "brand": "United States Postal Service", "brand:wikidata": "Q668687", "collection_times": "Mo-Sa 11:00", "name": "USPS COLLECTION BOX - BLUE BOX", "nsi_id": "unitedstatespostalservice-a77078", "operator": "United States Postal Service", "operator:short": "USPS", "operator:type": "public", "operator:wikidata": "Q668687", "ref": "0221500035"}, "type": "Feature"}
{"dataset_attributes": {"@spider": "usps_collection_boxes"}, "geometry": {"coordinates": [-71.1090050651, 42.3398697482], "type": "Point"}, "id": "hG3RNkNkvC3pgsd7rpZjpd2hMKg=", "properties": {"@spider": "usps_collection_boxes", "addr:city": "BOSTON", "addr:country": "US", "addr:full": "390 LONGWOOD AVE", "addr:postcode": "02215", "addr:state": "MA", "amenity": "post_box", "brand": "United States Postal Service", "brand:wikidata": "Q668687", "collection_times": "Mo-Sa 10:00", "name": "USPS COLLECTION BOX - BLUE BOX", "nsi_id": "unitedstatespostalservice-a77078", "operator": "United States Postal Service", "operator:short": "USPS", "operator:type": "public", "operator:wikidata": "Q668687", "ref": "0221500037"}, "type": "Feature"}
{"dataset_attributes": {"@spider": "usps_collection_boxes"}, "geometry": {"coordinates": [-71.1050647, 42.34246], "type": "Point"}, "id": "TVWxyDApx5LcV-6mNZAwwNsdYwI=", "properties": {"@spider": "usps_collection_boxes", "addr:city": "BOSTON", "addr:country": "US", "addr:full": "37 PILGRIM RD", "addr:postcode": "02215", "addr:state": "MA", "amenity": "post_box", "brand": "United States Postal Service", "brand:wikidata": "Q668687", "collection_times": "Mo-Fr 10:00", "name": "USPS COLLECTION BOX - BLUE BOX", "nsi_id": "unitedstatespostalservice-a77078", "operator": "United States Postal Service", "operator:short": "USPS", "operator:type": "public", "operator:wikidata": "Q668687", "ref": "0221500038"}, "type": "Feature"}
{"dataset_attributes": {"@spider": "usps_collection_boxes"}, "geometry": {"coordinates": [-71.1066449, 42.341064], "type": "Point"}, "id": "SRwjh9UlkaGrfQVximOz4foPbLk=", "properties": {"@spider": "usps_collection_boxes", "addr:city": "BOSTON", "addr:country": "US", "addr:full": "102 PILGRIM RD", "addr:postcode": "02215", "addr:state": "MA", "amenity": "post_box", "brand": "United States Postal Service", "brand:wikidata": "Q668687", "collection_times": "Mo-Fr 10:00", "name": "USPS COLLECTION BOX - BLUE BOX", "nsi_id": "unitedstatespostalservice-a77078", "operator": "United States Postal Service", "operator:short": "USPS", "operator:type": "public", "operator:wikidata": "Q668687", "ref": "0221500039"}, "type": "Feature"}
{"dataset_attributes": {"@spider": "usps_collection_boxes"}, "geometry": {"coordinates": [-71.099955426, 42.345885508], "type": "Point"}, "id": "x5oZgJuzty1E5KYLmx8lM6FF6Yc=", "properties": {"@spider": "usps_collection_boxes", "addr:city": "BOSTON", "addr:country": "US", "addr:full": "109 BROOKLINE AVE", "addr:postcode": "02215", "addr:state": "MA", "amenity": "post_box", "brand": "United States Postal Service", "brand:wikidata": "Q668687", "collection_times": "Sa 09:00", "name": "USPS COLLECTION BOX - BLUE BOX", "nsi_id": "unitedstatespostalservice-a77078", "operator": "United States Postal Service", "operator:short": "USPS", "operator:type": "public", "operator:wikidata": "Q668687", "ref": "0221500040"}, "type": "Feature"}
{"dataset_attributes": {"@spider": "usps_collection_boxes"}, "geometry": {"coordinates": [-71.0907211858, 42.348627356], "type": "Point"}, "id": "EqejzzFTibH8QvHqahD8sx8jCSA=", "properties": {"@spider": "usps_collection_boxes", "addr:city": "BOSTON", "addr:country": "US", "addr:full": "400 COMMONWEALTH AVE", "addr:postcode": "02215", "addr:state": "MA", "amenity": "post_box", "brand": "United States Postal Service", "brand:wikidata": "Q668687", "collection_times": "Mo-Sa 09:00", "name": "USPS COLLECTION BOX - BLUE BOX", "nsi_id": "unitedstatespostalservice-a77078", "operator": "United States Postal Service", "operator:short": "USPS", "operator:type": "public", "operator:wikidata": "Q668687", "ref": "0221500042"}, "type": "Feature"}
{"dataset_attributes": {"@spider": "usps_collection_boxes"}, "geometry": {"coordinates": [-71.100341928, 42.345440288], "type": "Point"}, "id": "JegZJFhKVpwaUluy4U10jj_nJo4=", "properties": {"@spider": "usps_collection_boxes", "addr:city": "BOSTON", "addr:country": "US", "addr:full": "126 BROOKLINE AVE", "addr:postcode": "02215", "addr:state": "MA", "amenity": "post_box", "brand": "United States Postal Service", "brand:wikidata": "Q668687", "collection_times": "Mo-Sa 09:00", "name": "USPS COLLECTION BOX - BLUE BOX", "nsi_id": "unitedstatespostalservice-a77078", "operator": "United States Postal Service", "operator:short": "USPS", "operator:type": "public", "operator:wikidata": "Q668687", "ref": "0221500047"}, "type": "Feature"}
{"dataset_attributes": {"@spider": "usps_collection_boxes"}, "geometry": {"coordinates": [-71.1233646, 42.3519], "type": "Point"}, "id": "RVNQ47AaXBtF3nYzlbVawMmVxyc=", "properties": {"@spider": "usps_collection_boxes", "addr:city": "BOSTON", "addr:country": "US", "addr:full": "1066 COMMONWEALTH AVE", "addr:postcode": "02215", "addr:state": "MA", "amenity": "post_box", "brand": "United States Postal Service", "brand:wikidata": "Q668687", "collection_times": "Mo-Sa 09:00", "name": "USPS COLLECTION BOX - BLUE BOX", "nsi_id": "unitedstatespostalservice-a77078", "operator": "United States Postal Service", "operator:short": "USPS", "operator:type": "public", "operator:wikidata": "Q668687", "ref": "0221500051"}, "type": "Feature"}
{"dataset_attributes": {"@spider": "usps_collection_boxes"}, "geometry": {"coordinates": [-71.090770682, 42.350521881], "type": "Point"}, "id": "pTpxYt_XfIsqNGxRd1c2L-Nn2so=", "properties": {"@spider": "usps_collection_boxes", "addr:city": "BOSTON", "addr:country": "US", "addr:full": "526 BEACON ST", "addr:postcode": "02215", "addr:state": "MA", "amenity": "post_box", "brand": "United States Postal Service", "brand:wikidata": "Q668687", "collection_times": "Mo-Sa 09:00", "name": "USPS COLLECTION BOX - BLUE BOX", "nsi_id": "unitedstatespostalservice-a77078", "operator": "United States Postal Service", "operator:short": "USPS", "operator:type": "public", "operator:wikidata": "Q668687", "ref": "0221500052"}, "type": "Feature"}
{"dataset_attributes": {"@spider": "usps_collection_boxes"}, "geometry": {"coordinates": [-71.093612654, 42.346290142], "type": "Point"}, "id": "eA38LR1QaZhsrirdjGaVrHUxhfM=", "properties": {"@spider": "usps_collection_boxes", "addr:city": "BOSTON", "addr:country": "US", "addr:full": "1179 BOYLSTON ST", "addr:postcode": "02215", "addr:state": "MA", "amenity": "post_box", "brand": "United States Postal Service", "brand:wikidata": "Q668687", "collection_times": "Mo-Fr 09:00", "name": "USPS COLLECTION BOX - BLUE BOX", "nsi_id": "unitedstatespostalservice-a77078", "operator": "United States Postal Service", "operator:short": "USPS", "operator:type": "public", "operator:wikidata": "Q668687", "ref": "0221500053"}, "type": "Feature"}
{"dataset_attributes": {"@spider": "usps_collection_boxes"}, "geometry": {"coordinates": [-71.097738004, 42.341664074], "type": "Point"}, "id": "6-XWGgt0tKnbWN-JJ9SljwLXxJY=", "properties": {"@spider": "usps_collection_boxes", "addr:city": "BOSTON", "addr:country": "US", "addr:full": "125 PARK DR", "addr:postcode": "02215", "addr:state": "MA", "amenity": "post_box", "brand": "United States Postal Service", "brand:wikidata": "Q668687", "collection_times": "Mo-Sa 09:00", "name": "USPS COLLECTION BOX - BLUE BOX", "nsi_id": "unitedstatespostalservice-a77078", "operator": "United States Postal Service", "operator:short": "USPS", "operator:type": "public", "operator:wikidata": "Q668687", "ref": "0221500055"}, "type": "Feature"}
{"dataset_attributes": {"@spider": "usps_collection_boxes"}, "geometry": {"coordinates": [-71.100279303, 42.342944961], "type": "Point"}, "id": "7pf5-aEMiH10CD09ahCDQ3f3ZGk=", "properties": {"@spider": "usps_collection_boxes", "addr:city": "BOSTON", "addr:country": "US", "addr:full": "133 PETERBOROUGH ST", "addr:postcode": "02215", "addr:state": "MA", "amenity": "post_box", "brand": "United States Postal Service", "brand:wikidata": "Q668687", "collection_times": "Mo-Sa 10:00", "name": "USPS COLLECTION BOX - BLUE BOX", "nsi_id": "unitedstatespostalservice-a77078", "operator": "United States Postal Service", "operator:short": "USPS", "operator:type": "public", "operator:wikidata": "Q668687", "ref": "0221500056"}, "type": "Feature"}
{"dataset_attributes": {"@spider": "usps_collection_boxes"}, "geometry": {"coordinates": [-71.096833452, 42.342626221], "type": "Point"}, "id": "N6fD_PPxFj8JVWfgy5VSa25mW0U=", "properties": {"@spider": "usps_collection_boxes", "addr:city": "BOSTON", "addr:country": "US", "addr:full": "124 JERSEY ST", "addr:postcode": "02215", "addr:state": "MA", "amenity": "post_box", "brand": "United States Postal Service", "brand:wikidata": "Q668687", "collection_times": "Mo-Sa 11:00", "name": "USPS COLLECTION BOX - BLUE BOX", "nsi_id": "unitedstatespostalservice-a77078", "operator": "United States Postal Service", "operator:short": "USPS", "operator:type": "public", "operator:wikidata": "Q668687", "ref": "0221500057"}, "type": "Feature"}
{"dataset_attributes": {"@spider": "usps_collection_boxes"}, "geometry": {"coordinates": [-71.0993196, 42.342304], "type": "Point"}, "id": "bZBpS3fZ4PlmMeYkr8hijeg0rNc=", "properties": {"@spider": "usps_collection_boxes", "addr:city": "BOSTON", "addr:country": "US", "addr:full": "81 KILMARNOCK ST", "addr:postcode": "02215", "addr:state": "MA", "amenity": "post_box", "brand": "United States Postal Service", "brand:wikidata": "Q668687", "collection_times": "Mo-Sa 11:00", "name": "USPS COLLECTION BOX - BLUE BOX", "nsi_id": "unitedstatespostalservice-a77078", "operator": "United States Postal Service", "operator:short": "USPS", "operator:type": "public", "operator:wikidata": "Q668687", "ref": "0221500058"}, "type": "Feature"}
{"dataset_attributes": {"@spider": "usps_collection_boxes"}, "geometry": {"coordinates": [-71.1035396141, 42.3423464728], "type": "Point"}, "id": "iOlOr1LKCDGwwPqxJXJlIzUVeeo=", "properties": {"@spider": "usps_collection_boxes", "addr:city": "BOSTON", "addr:country": "US", "addr:full": "218 BROOKLINE AVE", "addr:postcode": "02215", "addr:state": "MA", "amenity": "post_box", "brand": "United States Postal Service", "brand:wikidata": "Q668687", "collection_times": "Mo-Sa 09:00", "name": "USPS COLLECTION BOX - BLUE BOX", "nsi_id": "unitedstatespostalservice-a77078", "operator": "United States Postal Service", "operator:short": "USPS", "operator:type": "public", "operator:wikidata": "Q668687", "ref": "0221500059"}, "type": "Feature"}
{"dataset_attributes": {"@spider": "usps_collection_boxes"}, "geometry": {"coordinates": [-71.09529119, 42.3452957749], "type": "Point"}, "id": "7eJwh0IzlnIDZKvjxhP0K0bOoqk=", "properties": {"@spider": "usps_collection_boxes", "addr:city": "BOSTON", "addr:country": "US", "addr:full": "1247 BOYLSTON ST", "addr:postcode": "02215", "addr:state": "MA", "amenity": "post_box", "brand": "United States Postal Service", "brand:wikidata": "Q668687", "collection_times": "Mo-Sa 10:00", "name": "USPS COLLECTION BOX - BLUE BOX", "nsi_id": "unitedstatespostalservice-a77078", "operator": "United States Postal Service", "operator:short": "USPS", "operator:type": "public", "operator:wikidata": "Q668687", "ref": "0221500060"}, "type": "Feature"}
{"dataset_attributes": {"@spider": "usps_collection_boxes"}, "geometry": {"coordinates": [-71.094492, 42.347190457], "type": "Point"}, "id": "zcB9z3PEQEjaWne6iOa8lNx9Kmk=", "properties": {"@spider": "usps_collection_boxes", "addr:city": "BOSTON", "addr:country": "US", "addr:full": "1 LANSDOWNE ST", "addr:postcode": "02215", "addr:state": "MA", "amenity": "post_box", "brand": "United States Postal Service", "brand:wikidata": "Q668687", "collection_times": "Mo-Sa 10:00", "name": "USPS COLLECTION BOX - BLUE BOX", "nsi_id": "unitedstatespostalservice-a77078", "operator": "United States Postal Service", "operator:short": "USPS", "operator:type": "public", "operator:wikidata": "Q668687", "ref": "0221500061"}, "type": "Feature"}
{"dataset_attributes": {"@spider": "usps_collection_boxes"}, "geometry": {"coordinates": [-71.095864113, 42.344076039], "type": "Point"}, "id": "mwcOOWzHqbMqM0qKyE3iyA6a-J4=", "properties": {"@spider": "usps_collection_boxes", "addr:city": "BOSTON", "addr:country": "US", "addr:full": "16 PETERBOROUGH ST", "addr:postcode": "02215", "addr:state": "MA", "amenity": "post_box", "brand": "United States Postal Service", "brand:wikidata": "Q668687", "collection_times": "Mo-Sa 09:00", "name": "USPS COLLECTION BOX - BLUE BOX", "nsi_id": "unitedstatespostalservice-a77078", "operator": "United States Postal Service", "operator:short": "USPS", "operator:type": "public", "operator:wikidata": "Q668687", "ref": "0221500062"}, "type": "Feature"}
{"dataset_attributes": {"@spider": "usps_collection_boxes"}, "geometry": {"coordinates": [-71.098568035, 42.347066907], "type": "Point"}, "id": "4NHovN_wt6j45DSA0JjrdRdqgl8=", "properties": {"@spider": "usps_collection_boxes", "addr:city": "BOSTON", "addr:country": "US", "addr:full": "82 BROOKLINE AVE", "addr:postcode": "02215", "addr:state": "MA", "amenity": "post_box", "brand": "United States Postal Service", "brand:wikidata": "Q668687", "collection_times": "Mo-Sa 09:00", "name": "USPS COLLECTION BOX - BLUE BOX", "nsi_id": "unitedstatespostalservice-a77078", "operator": "United States Postal Service", "operator:short": "USPS", "operator:type": "public", "operator:wikidata": "Q668687", "ref": "0221500064"}, "type": "Feature"}
{"dataset_attributes": {"@spider": "usps_collection_boxes"}, "geometry": {"coordinates": [-71.097559264, 42.344645067], "type": "Point"}, "id": "I27Gix7wvY55uPS5MWnPUoJTHqo=", "properties": {"@spider": "usps_collection_boxes", "addr:city": "BOSTON", "addr:country": "US", "addr:full": "1295 BOYLSTON ST", "addr:postcode": "02215", "addr:state": "MA", "amenity": "post_box", "brand": "United States Postal Service", "brand:wikidata": "Q668687", "collection_times": "Mo-Sa 10:00", "name": "USPS COLLECTION BOX - BLUE BOX", "nsi_id": "unitedstatespostalservice-a77078", "operator": "United States Postal Service", "operator:short": "USPS", "operator:type": "public", "operator:wikidata": "Q668687", "ref": "0221500065"}, "type": "Feature"}
{"dataset_attributes": {"@spider": "usps_collection_boxes"}, "geometry": {"coordinates": [-71.1034299, 42.34278], "type": "Point"}, "id": "wk3uLNHN8uepnMu7OV0UUW5ZZA4=", "properties": {"@spider": "usps_collection_boxes", "addr:city": "BOSTON", "addr:country": "US", "addr:full": "100 RIVERWAY", "addr:postcode": "02215", "addr:state": "MA", "amenity": "post_box", "brand": "United States Postal Service", "brand:wikidata": "Q668687", "collection_times": "Mo-Fr 09:00", "name": "USPS COLLECTION BOX - BLUE BOX", "nsi_id": "unitedstatespostalservice-a77078", "operator": "United States Postal Service", "operator:short": "USPS", "operator:type": "public", "operator:wikidata": "Q668687", "ref": "0221500066"}, "type": "Feature"}
{"dataset_attributes": {"@spider": "usps_collection_boxes"}, "geometry": {"coordinates": [-71.1024181, 42.350544], "type": "Point"}, "id": "uLJGwyjH0-ABnzZBw0aXjNK4Ng4=", "properties": {"@spider": "usps_collection_boxes", "addr:city": "BOSTON", "addr:country": "US", "addr:full": "199 BAY STATE RD", "addr:postcode": "02215", "addr:state": "MA", "amenity": "post_box", "brand": "United States Postal Service", "brand:wikidata": "Q668687", "collection_times": "Mo-Sa 10:00", "name": "USPS COLLECTION BOX - BLUE BOX", "nsi_id": "unitedstatespostalservice-a77078", "operator": "United States Postal Service", "operator:short": "USPS", "operator:type": "public", "operator:wikidata": "Q668687", "ref": "0221500067"}, "type": "Feature"}
{"dataset_attributes": {"@spider": "usps_collection_boxes"}, "geometry": {"coordinates": [-71.0954809, 42.349969], "type": "Point"}, "id": "-5MSS2-Yd8aSJcmBM3VrRQAfEhc=", "properties": {"@spider": "usps_collection_boxes", "addr:city": "BOSTON", "addr:country": "US", "addr:full": "59 BAY STATE RD", "addr:postcode": "02215", "addr:state": "MA", "amenity": "post_box", "brand": "United States Postal Service", "brand:wikidata": "Q668687", "collection_times": "Mo-Fr 09:00; Sa 09:15", "name": "USPS COLLECTION BOX - BLUE BOX", "nsi_id": "unitedstatespostalservice-a77078", "operator": "United States Postal Service", "operator:short": "USPS", "operator:type": "public", "operator:wikidata": "Q668687", "ref": "0221500068"}, "type": "Feature"}
{"dataset_attributes": {"@spider": "usps_collection_boxes"}, "geometry": {"coordinates": [-71.0986021865, 42.3481453547], "type": "Point"}, "id": "MxWXZ_na-gHdBifSM4vjWvFdHbQ=", "properties": {"@spider": "usps_collection_boxes", "addr:city": "BOSTON", "addr:country": "US", "addr:full": "677 BEACON ST", "addr:postcode": "02215", "addr:state": "MA", "amenity": "post_box", "brand": "United States Postal Service", "brand:wikidata": "Q668687", "collection_times": "Mo-Sa 09:00", "name": "USPS COLLECTION BOX - BLUE BOX", "nsi_id": "unitedstatespostalservice-a77078", "operator": "United States Postal Service", "operator:short": "USPS", "operator:type": "public", "operator:wikidata": "Q668687", "ref": "0221500069"}, "type": "Feature"}
{"dataset_attributes": {"@spider": "usps_collection_boxes"}, "geometry": {"coordinates": [-71.1034424, 42.35055], "type": "Point"}, "id": "SnJ-sjgVd96FXpgYzmRKB70Uwlo=", "properties": {"@spider": "usps_collection_boxes", "addr:city": "BOSTON", "addr:country": "US", "addr:full": "225 BAY STATE RD", "addr:postcode": "02215", "addr:state": "MA", "amenity": "post_box", "brand": "United States Postal Service", "brand:wikidata": "Q668687", "collection_times": "Mo-Sa 10:00", "name": "USPS COLLECTION BOX - BLUE BOX", "nsi_id": "unitedstatespostalservice-a77078", "operator": "United States Postal Service", "operator:short": "USPS", "operator:type": "public", "operator:wikidata": "Q668687", "ref": "0221500070"}, "type": "Feature"}
{"dataset_attributes": {"@spider": "usps_collection_boxes"}, "geometry": {"coordinates": [-71.0958842995, 42.3491512885], "type": "Point"}, "id": "9_zp3f-rbSTw7dqkKKCEqRauZBY=", "properties": {"@spider": "usps_collection_boxes", "addr:city": "BOSTON", "addr:country": "US", "addr:full": "652 BEACON ST", "addr:postcode": "02215", "addr:state": "MA", "amenity": "post_box", "brand": "United States Postal Service", "brand:wikidata": "Q668687", "collection_times": "Mo-Fr 10:00; Sa 09:15", "name": "USPS COLLECTION BOX - BLUE BOX", "nsi_id": "unitedstatespostalservice-a77078", "operator": "United States Postal Service", "operator:short": "USPS", "operator:type": "public", "operator:wikidata": "Q668687", "ref": "0221500078"}, "type": "Feature"}
{"dataset_attributes": {"@spider": "usps_collection_boxes"}, "geometry": {"coordinates": [-71.1210051, 42.35296], "type": "Point"}, "id": "iHaFwcvqnHB4QVHTD4lPtt-LvPI=", "properties": {"@spider": "usps_collection_boxes", "addr:city": "BOSTON", "addr:country": "US", "addr:full": "275 BABCOCK ST", "addr:postcode": "02215", "addr:state": "MA", "amenity": "post_box", "brand": "United States Postal Service", "brand:wikidata": "Q668687", "collection_times": "Mo-Fr 11:00; Sa 09:00", "name": "USPS COLLECTION BOX - BLUE BOX", "nsi_id": "unitedstatespostalservice-a77078", "operator": "United States Postal Service", "operator:short": "USPS", "operator:type": "public", "operator:wikidata": "Q668687", "ref": "0221500079"}, "type": "Feature"}
{"dataset_attributes": {"@spider": "usps_collection_boxes"}, "geometry": {"coordinates": [-71.106083, 42.350089], "type": "Point"}, "id": "akVPnjSsaic_dBH03cHcROjMgos=", "properties": {"@spider": "usps_collection_boxes", "addr:city": "BOSTON", "addr:country": "US", "addr:full": "725 COMMONWEALTH AVE", "addr:postcode": "02215", "addr:state": "MA", "amenity": "post_box", "brand": "United States Postal Service", "brand:wikidata": "Q668687", "collection_times": "Mo-Sa 09:00", "name": "USPS COLLECTION BOX - BLUE BOX", "nsi_id": "unitedstatespostalservice-a77078", "operator": "United States Postal Service", "operator:short": "USPS", "operator:type": "public", "operator:wikidata": "Q668687", "ref": "0221500091"}, "type": "Feature"}
{"dataset_attributes": {"@spider": "usps_collection_boxes"}, "geometry": {"coordinates": [-71.09686859, 42.344712751], "type": "Point"}, "id": "6iXu_WSdYfzkkKwj_0ehjDSeS28=", "properties": {"@spider": "usps_collection_boxes", "addr:city": "BOSTON", "addr:country": "US", "addr:full": "1280 BOYLSTON ST", "addr:postcode": "02215", "addr:state": "MA", "amenity": "post_box", "brand": "United States Postal Service", "brand:wikidata": "Q668687", "collection_times": "Mo-Fr 13:00; Sa 09:00", "name": "USPS COLLECTION BOX - BLUE BOX", "note": "ON 12/24 AND 12/31, THIS BOX MAY BE COLLECTED AS EARLY AS 12 NOON.", "nsi_id": "unitedstatespostalservice-a77078", "operator": "United States Postal Service", "operator:short": "USPS", "operator:type": "public", "operator:wikidata": "Q668687", "ref": "0221500092"}, "type": "Feature"}
{"dataset_attributes": {"@spider": "usps_collection_boxes"}, "geometry": {"coordinates": [-71.1047312017, 42.3470473254], "type": "Point"}, "id": "uAKyFLKNWHR9b6GBQW43EBd-V00=", "properties": {"@spider": "usps_collection_boxes", "addr:city": "BOSTON", "addr:country": "US", "addr:full": "880 BEACON ST", "addr:postcode": "02215", "addr:state": "MA", "amenity": "post_box", "brand": "United States Postal Service", "brand:wikidata": "Q668687", "collection_times": "Mo-Sa 09:00", "name": "USPS COLLECTION BOX - BLUE BOX", "nsi_id": "unitedstatespostalservice-a77078", "operator": "United States Postal Service", "operator:short": "USPS", "operator:type": "public", "operator:wikidata": "Q668687", "ref": "0221500164"}, "type": "Feature"}
{"dataset_attributes": {"@spider": "usps_collection_boxes"}, "geometry": {"coordinates": [-71.082724, 42.348602], "type": "Point"}, "id": "vH6xT6RBdF2uzOeKj4KWf2Gqj6o=", "properties": {"@spider": "usps_collection_boxes", "addr:city": "BOSTON", "addr:country": "US", "addr:full": "800 BOYLSTON ST", "addr:postcode": "02215", "addr:state": "MA", "amenity": "post_box", "brand": "United States Postal Service", "brand:wikidata": "Q668687", "collection_times": "Mo-Fr 17:00; Sa 12:00", "name": "USPS COLLECTION BOX - APC", "note": "ON 12/24 AND 12/31, THIS BOX MAY BE COLLECTED AS EARLY AS 12 NOON.", "nsi_id": "unitedstatespostalservice-a77078", "operator": "United States Postal Service", "operator:short": "USPS", "operator:type": "public", "operator:wikidata": "Q668687", "ref": "0221500182"}, "type": "Feature"}
{"dataset_attributes": {"@spider": "usps_collection_boxes"}, "geometry": {"coordinates": [-71.098412672, 42.344137338], "type": "Point"}, "id": "H_Jv26ewMzpdBMm6fRbTfdE0gVE=", "properties": {"@spider": "usps_collection_boxes", "addr:city": "BOSTON", "addr:country": "US", "addr:full": "1340 BOYLSTON ST", "addr:postcode": "02215", "addr:state": "MA", "amenity": "post_box", "brand": "United States Postal Service", "brand:wikidata": "Q668687", "collection_times": "Mo-Fr 16:00; Sa 13:00", "name": "USPS COLLECTION BOX - BLUE BOX", "note": "ON 12/24 AND 12/31, THIS BOX MAY BE COLLECTED AS EARLY AS 12 NOON.", "nsi_id": "unitedstatespostalservice-a77078", "operator": "United States Postal Service", "operator:short": "USPS", "operator:type": "public", "operator:wikidata": "Q668687", "ref": "0221500185"}, "type": "Feature"}
