{"geometry": {"coordinates": [-70.6058225, 41.748382], "type": "Point"}, "id": "G-oa5eXnwQJgd-qbuQxd29tMF3s=", "properties": {"@source_uri": "https://tools.usps.com/UspsToolsRestServices/rest/POLocator/findLocations", "@spider": "usps_collection_boxes", "addr:city": "BUZZARDS BAY", "addr:country": "US", "addr:postcode": "02532", "addr:state": "MA", "addr:street_address": "220 MAIN ST", "amenity": "post_box", "collection_times": "Mo-Fr 16:00; Sa 12:30", "note": "ON 12/24 AND 12/31, THIS BOX MAY BE COLLECTED AS EARLY AS 12 NOON.", "nsi_id": "unitedstatespostalservice-a77078", "operator": "United States Postal Service", "operator:short": "USPS", "operator:type": "public", "operator:wikidata": "Q668687", "ref": "0253200008"}, "type": "Feature"}
{"geometry": {"coordinates": [-70.6020073, 41.74788], "type": "Point"}, "id": "7TodXvNtQIjDC54707bhBsul6B0=", "properties": {"@source_uri": "https://tools.usps.com/UspsToolsRestServices/rest/POLocator/findLocations", "@spider": "usps_collection_boxes", "addr:city": "BUZZARDS BAY", "addr:country": "US", "addr:postcode": "02532", "addr:state": "MA", "addr:street_address": "24 PERRY AVE", "amenity": "post_box", "collection_times": "Mo-Sa 08:00", "nsi_id": "unitedstatespostalservice-a77078", "operator": "United States Postal Service", "operator:short": "USPS", "operator:type": "public", "operator:wikidata": "Q668687", "ref": "0253200020"}, "type": "Feature"}
{"geometry": {"coordinates": [-70.595469, 41.742937], "type": "Point"}, "id": "IIb4UzdCobvnRWwx6rwSxbmquzU=", "properties": {"@source_uri": "https://tools.usps.com/UspsToolsRestServices/rest/POLocator/findLocations", "@spider": "usps_collection_boxes", "addr:city": "BUZZARDS BAY", "addr:country": "US", "addr:postcode": "02532", "addr:state": "MA", "addr:street_address": "49 SANDWICH RD", "amenity": "post_box", "collection_times": "Mo-Sa 08:00", "nsi_id": "unitedstatespostalservice-a77078", "operator": "United States Postal Service", "operator:short": "USPS", "operator:type": "public", "operator:wikidata": "Q668687", "ref": "0253200022"}, "type": "Feature"}
{"geometry": {"coordinates": [-70.609021, 41.747411], "type": "Point"}, "id": "ryWQctZXHLo5C2lSxMnTUu7q6Gw=", "properties": {"@source_uri": "https://tools.usps.com/UspsToolsRestServices/rest/POLocator/findLocations", "@spider": "usps_collection_boxes", "addr:city": "BUZZARDS BAY", "addr:country": "US", "addr:postcode": "02532", "addr:state": "MA", "addr:street_address": "175 MAIN ST", "amenity": "post_box", "collection_times": "Mo-Sa 09:00", "nsi_id": "unitedstatespostalservice-a77078", "operator": "United States Postal Service", "operator:short": "USPS", "operator:type": "public", "operator:wikidata": "Q668687", "ref": "0253200027"}, "type": "Feature"}
{"geometry": {"coordinates": [-70.605393, 41.748938], "type": "Point"}, "id": "Axq99aHbZLvscn02I0DXILqoxhU=", "properties": {"@source_uri": "https://tools.usps.com/UspsToolsRestServices/rest/POLocator/findLocations", "@spider": "usps_collection_boxes", "addr:city": "BUZZARDS BAY", "addr:country": "US", "addr:postcode": "02532", "addr:state": "MA", "addr:street_address": "220 MAIN ST", "amenity": "post_box", "collection_times": "Mo-Fr 17:00; Sa 12:30", "indoor": "yes", "note": "ON 12/24 AND 12/31, THIS BOX MAY BE COLLECTED AS EARLY AS 12 NOON.", "nsi_id": "unitedstatespostalservice-a77078", "operator": "United States Postal Service", "operator:short": "USPS", "operator:type": "public", "operator:wikidata": "Q668687", "ref": "0253200029"}, "type": "Feature"}
{"geometry": {"coordinates": [-70.605393, 41.748938], "type": "Point"}, "id": "ZvSQ7itv6qnq14gQFzyESghoqDs=", "properties": {"@source_uri": "https://tools.usps.com/UspsToolsRestServices/rest/POLocator/findLocations", "@spider": "usps_collection_boxes", "addr:city": "BUZZARDS BAY", "addr:country": "US", "addr:postcode": "02532", "addr:state": "MA", "addr:street_address": "220 MAIN ST", "amenity": "post_box", "collection_times": "Mo-Fr 17:00; Sa 12:30", "indoor": "yes", "note": "ON 12/24 AND 12/31, THIS BOX MAY BE COLLECTED AS EARLY AS 12 NOON.", "nsi_id": "unitedstatespostalservice-a77078", "operator": "United States Postal Service", "operator:short": "USPS", "operator:type": "public", "operator:wikidata": "Q668687", "ref": "0253200030"}, "type": "Feature"}
{"geometry": {"coordinates": [-70.595469, 41.742937], "type": "Point"}, "id": "-Fb6bAnC4KGgDqnjFw5iAdnL044=", "properties": {"@source_uri": "https://tools.usps.com/UspsToolsRestServices/rest/POLocator/findLocations", "@spider": "usps_collection_boxes", "addr:city": "BUZZARDS BAY", "addr:country": "US", "addr:postcode": "02532", "addr:state": "MA", "addr:street_address": "49 SANDWICH RD", "amenity": "post_box", "collection_times": "Mo-Fr 17:00; Sa 12:15", "indoor": "yes", "note": "ON 12/24 AND 12/31, THIS BOX MAY BE COLLECTED AS EARLY AS 12 NOON.", "nsi_id": "unitedstatespostalservice-a77078", "operator": "United States Postal Service", "operator:short": "USPS", "operator:type": "public", "operator:wikidata": "Q668687", "ref": "0253200031"}, "type": "Feature"}
{"geometry": {"coordinates": [-70.613551, 41.666445], "type": "Point"}, "id": "EWZzSTjjUxnm5FamZ-EyoIeL95Y=", "properties": {"@source_uri": "https://tools.usps.com/UspsToolsRestServices/rest/POLocator/findLocations", "@spider": "usps_collection_boxes", "addr:city": "CATAUMET", "addr:country": "US", "addr:postcode": "02534", "addr:state": "MA", "addr:street_address": "1 POST OFFICE SQ", "amenity": "post_box", "collection_times": "Mo-Fr 17:00; Sa 12:00", "indoor": "yes", "note": "ON 12/24 AND 12/31, THIS BOX MAY BE COLLECTED AS EARLY AS 12 NOON.", "nsi_id": "unitedstatespostalservice-a77078", "operator": "United States Postal Service", "operator:short": "USPS", "operator:type": "public", "operator:wikidata": "Q668687", "ref": "0253400001"}, "type": "Feature"}
{"geometry": {"coordinates": [-70.613531, 41.666353], "type": "Point"}, "id": "GcTZTmRhv4NO61Jtu4siiippDow=", "properties": {"@source_uri": "https://tools.usps.com/UspsToolsRestServices/rest/POLocator/findLocations", "@spider": "usps_collection_boxes", "addr:city": "CATAUMET", "addr:country": "US", "addr:postcode": "02534", "addr:state": "MA", "addr:street_address": "1 POST OFFICE SQ", "amenity": "post_box", "collection_times": "Mo-Fr 17:00; Sa 12:00", "indoor": "yes", "note": "ON 12/24 AND 12/31, THIS BOX MAY BE COLLECTED AS EARLY AS 12 NOON.", "nsi_id": "unitedstatespostalservice-a77078", "operator": "United States Postal Service", "operator:short": "USPS", "operator:type": "public", "operator:wikidata": "Q668687", "ref": "0253400002"}, "type": "Feature"}
{"geometry": {"coordinates": [-70.6137248457, 41.6665409327], "type": "Point"}, "id": "kN4z7NhXShnx7QK9F6xpmP4DIQ4=", "properties": {"@source_uri": "https://tools.usps.com/UspsToolsRestServices/rest/POLocator/findLocations", "@spider": "usps_collection_boxes", "addr:city": "CATAUMET", "addr:country": "US", "addr:postcode": "02534", "addr:state": "MA", "addr:street_address": "1 POST OFFICE SQ", "amenity": "post_box", "collection_times": "Mo-Fr 17:00; Sa 12:00", "note": "ON 12/24 AND 12/31, THIS BOX MAY BE COLLECTED AS EARLY AS 12 NOON.", "nsi_id": "unitedstatespostalservice-a77078", "operator": "United States Postal Service", "operator:short": "USPS", "operator:type": "public", "operator:wikidata": "Q668687", "ref": "0253400003"}, "type": "Feature"}
{"geometry": {"coordinates": [-70.794547643, 41.3330301183], "type": "Point"}, "id": "Pd6tK9LkWIx4uHCq3Q6kChHNH5E=", "properties": {"@source_uri": "https://tools.usps.com/UspsToolsRestServices/rest/POLocator/findLocations", "@spider": "usps_collection_boxes", "addr:city": "CHILMARK", "addr:country": "US", "addr:postcode": "02535", "addr:state": "MA", "addr:street_address": "4 STATE RD", "amenity": "post_box", "collection_times": "Mo-Sa 14:30", "note": "ON 12/24 AND 12/31, THIS BOX MAY BE COLLECTED AS EARLY AS 12 NOON.", "nsi_id": "unitedstatespostalservice-a77078", "operator": "United States Postal Service", "operator:short": "USPS", "operator:type": "public", "operator:wikidata": "Q668687", "ref": "0253500001"}, "type": "Feature"}
{"geometry": {"coordinates": [-70.794345, 41.334129], "type": "Point"}, "id": "ig842qF1c--f3y7-BBiZ9uP_eDg=", "properties": {"@source_uri": "https://tools.usps.com/UspsToolsRestServices/rest/POLocator/findLocations", "@spider": "usps_collection_boxes", "addr:city": "CHILMARK", "addr:country": "US", "addr:postcode": "02535", "addr:state": "MA", "addr:street_address": "4 STATE RD", "amenity": "post_box", "collection_times": "Mo-Sa 14:30", "indoor": "yes", "note": "ON 12/24 AND 12/31, THIS BOX MAY BE COLLECTED AS EARLY AS 12 NOON.", "nsi_id": "unitedstatespostalservice-a77078", "operator": "United States Postal Service", "operator:short": "USPS", "operator:type": "public", "operator:wikidata": "Q668687", "ref": "0253500003"}, "type": "Feature"}
{"geometry": {"coordinates": [-70.794345, 41.334129], "type": "Point"}, "id": "a2vAW3N0UgdA0BTWFnqupYeGgKc=", "properties": {"@source_uri": "https://tools.usps.com/UspsToolsRestServices/rest/POLocator/findLocations", "@spider": "usps_collection_boxes", "addr:city": "CHILMARK", "addr:country": "US", "addr:postcode": "02535", "addr:state": "MA", "addr:street_address": "4 STATE RD", "amenity": "post_box", "collection_times": "Mo-Sa 14:30", "indoor": "yes", "note": "ON 12/24 AND 12/31, THIS BOX MAY BE COLLECTED AS EARLY AS 12 NOON.", "nsi_id": "unitedstatespostalservice-a77078", "operator": "United States Postal Service", "operator:short": "USPS", "operator:type": "public", "operator:wikidata": "Q668687", "ref": "0253500004"}, "type": "Feature"}
{"geometry": {"coordinates": [-70.8130387081, 41.3432600216], "type": "Point"}, "id": "rp78DVArIwyj-Kcwhn8tRe8_Xak=", "properties": {"@source_uri": "https://tools.usps.com/UspsToolsRestServices/rest/POLocator/findLocations", "@spider": "usps_collection_boxes", "addr:city": "CHILMARK", "addr:country": "US", "addr:postcode": "02535", "addr:state": "MA", "addr:street_address": "955 STATE RD", "amenity": "post_box", "collection_times": "Mo-Sa 10:00", "nsi_id": "unitedstatespostalservice-a77078", "operator": "United States Postal Service", "operator:short": "USPS", "operator:type": "public", "operator:wikidata": "Q668687", "ref": "0253500006"}, "type": "Feature"}
{"geometry": {"coordinates": [-70.557345, 41.578384], "type": "Point"}, "id": "8S1c7t6IUZf7CKDoCgp7PbR4a1c=", "properties": {"@source_uri": "https://tools.usps.com/UspsToolsRestServices/rest/POLocator/findLocations", "@spider": "usps_collection_boxes", "addr:city": "TEATICKET", "addr:country": "US", "addr:postcode": "02536", "addr:state": "MA", "addr:street_address": "451 E FALMOUTH HWY", "amenity": "post_box", "collection_times": "Mo-Fr 17:00; Sa 14:30", "note": "ON 12/24 AND 12/31, THIS BOX MAY BE COLLECTED AS EARLY AS 12 NOON.", "nsi_id": "unitedstatespostalservice-a77078", "operator": "United States Postal Service", "operator:short": "USPS", "operator:type": "public", "operator:wikidata": "Q668687", "ref": "0253600001"}, "type": "Feature"}
{"geometry": {"coordinates": [-70.557317, 41.578408], "type": "Point"}, "id": "MPbReJ4AOLxpv85zk6Sw-f1pA8Y=", "properties": {"@source_uri": "https://tools.usps.com/UspsToolsRestServices/rest/POLocator/findLocations", "@spider": "usps_collection_boxes", "addr:city": "TEATICKET", "addr:country": "US", "addr:postcode": "02536", "addr:state": "MA", "addr:street_address": "451 E FALMOUTH HWY", "amenity": "post_box", "collection_times": "Mo-Fr 17:00; Sa 15:00", "indoor": "yes", "note": "ON 12/24 AND 12/31, THIS BOX MAY BE COLLECTED AS EARLY AS 12 NOON.", "nsi_id": "unitedstatespostalservice-a77078", "operator": "United States Postal Service", "operator:short": "USPS", "operator:type": "public", "operator:wikidata": "Q668687", "ref": "0253600004"}, "type": "Feature"}
{"geometry": {"coordinates": [-70.557317, 41.578408], "type": "Point"}, "id": "-GqxSLK4_Yg2exxSNDs03SGigxU=", "properties": {"@source_uri": "https://tools.usps.com/UspsToolsRestServices/rest/POLocator/findLocations", "@spider": "usps_collection_boxes", "addr:city": "TEATICKET", "addr:country": "US", "addr:postcode": "02536", "addr:state": "MA", "addr:street_address": "451 E FALMOUTH HWY", "amenity": "post_box", "collection_times": "Mo-Fr 17:00; Sa 15:00", "indoor": "yes", "note": "ON 12/24 AND 12/31, THIS BOX MAY BE COLLECTED AS EARLY AS 12 NOON.", "nsi_id": "unitedstatespostalservice-a77078", "operator": "United States Postal Service", "operator:short": "USPS", "operator:type": "public", "operator:wikidata": "Q668687", "ref": "0253600005"}, "type": "Feature"}
{"geometry": {"coordinates": [-70.596086215, 41.564696804], "type": "Point"}, "id": "D2FvNlcgOsp7UGN2GNelBsJYJ4Y=", "properties": {"@source_uri": "https://tools.usps.com/UspsToolsRestServices/rest/POLocator/findLocations", "@spider": "usps_collection_boxes", "addr:city": "TEATICKET", "addr:country": "US", "addr:postcode": "02536", "addr:state": "MA", "addr:street_address": "160 TEATICKET HWY", "amenity": "post_box", "collection_times": "Mo-Fr 17:00; Sa 12:00", "note": "ON 12/24 AND 12/31, THIS BOX MAY BE COLLECTED AS EARLY AS 12 NOON.", "nsi_id": "unitedstatespostalservice-a77078", "operator": "United States Postal Service", "operator:short": "USPS", "operator:type": "public", "operator:wikidata": "Q668687", "ref": "0253600007"}, "type": "Feature"}
{"geometry": {"coordinates": [-70.596085, 41.564703], "type": "Point"}, "id": "TiVihCShZgFe9AcMc2p7mtOwk0E=", "properties": {"@source_uri": "https://tools.usps.com/UspsToolsRestServices/rest/POLocator/findLocations", "@spider": "usps_collection_boxes", "addr:city": "TEATICKET", "addr:country": "US", "addr:postcode": "02536", "addr:state": "MA", "addr:street_address": "160 TEATICKET HWY", "amenity": "post_box", "collection_times": "Mo-Fr 16:45; Sa 12:00", "indoor": "yes", "note": "ON 12/24 AND 12/31, THIS BOX MAY BE COLLECTED AS EARLY AS 12 NOON.", "nsi_id": "unitedstatespostalservice-a77078", "operator": "United States Postal Service", "operator:short": "USPS", "operator:type": "public", "operator:wikidata": "Q668687", "ref": "0253600008"}, "type": "Feature"}
{"geometry": {"coordinates": [-70.596085, 41.564703], "type": "Point"}, "id": "yznxmnrrDE5fAPL4Waopd6IKS40=", "properties": {"@source_uri": "https://tools.usps.com/UspsToolsRestServices/rest/POLocator/findLocations", "@spider": "usps_collection_boxes", "addr:city": "TEATICKET", "addr:country": "US", "addr:postcode": "02536", "addr:state": "MA", "addr:street_address": "160 TEATICKET HWY", "amenity": "post_box", "collection_times": "Mo-Fr 16:45; Sa 12:00", "indoor": "yes", "note": "ON 12/24 AND 12/31, THIS BOX MAY BE COLLECTED AS EARLY AS 12 NOON.", "nsi_id": "unitedstatespostalservice-a77078", "operator": "United States Postal Service", "operator:short": "USPS", "operator:type": "public", "operator:wikidata": "Q668687", "ref": "0253600009"}, "type": "Feature"}
{"geometry": {"coordinates": [-70.517217, 41.588384], "type": "Point"}, "id": "kSy-RowwhsvTCHD0GETnEymP1eo=", "properties": {"@source_uri": "https://tools.usps.com/UspsToolsRestServices/rest/POLocator/findLocations", "@spider": "usps_collection_boxes", "addr:city": "TEATICKET", "addr:country": "US", "addr:postcode": "02536", "addr:state": "MA", "addr:street_address": "36 CARRIAGE SHOP RD", "amenity": "post_box", "collection_times": "Mo-Fr 16:00; Sa 12:00", "note": "ON 12/24 AND 12/31, THIS BOX MAY BE COLLECTED AS EARLY AS 12 NOON.", "nsi_id": "unitedstatespostalservice-a77078", "operator": "United States Postal Service", "operator:short": "USPS", "operator:type": "public", "operator:wikidata": "Q668687", "ref": "0253600010"}, "type": "Feature"}
{"geometry": {"coordinates": [-70.517217, 41.588384], "type": "Point"}, "id": "WpRF8BfoDip5gnW-6ohwjl2rOqU=", "properties": {"@source_uri": "https://tools.usps.com/UspsToolsRestServices/rest/POLocator/findLocations", "@spider": "usps_collection_boxes", "addr:city": "TEATICKET", "addr:country": "US", "addr:postcode": "02536", "addr:state": "MA", "addr:street_address": "36 CARRIAGE SHOP RD", "amenity": "post_box", "collection_times": "Mo-Fr 16:00; Sa 12:00", "indoor": "yes", "note": "ON 12/24 AND 12/31, THIS BOX MAY BE COLLECTED AS EARLY AS 12 NOON.", "nsi_id": "unitedstatespostalservice-a77078", "operator": "United States Postal Service", "operator:short": "USPS", "operator:type": "public", "operator:wikidata": "Q668687", "ref": "0253600012"}, "type": "Feature"}
{"geometry": {"coordinates": [-70.517217, 41.588384], "type": "Point"}, "id": "YnUsQq2_H43_hplEX7Du8qrD5S8=", "properties": {"@source_uri": "https://tools.usps.com/UspsToolsRestServices/rest/POLocator/findLocations", "@spider": "usps_collection_boxes", "addr:city": "TEATICKET", "addr:country": "US", "addr:postcode": "02536", "addr:state": "MA", "addr:street_address": "36 CARRIAGE SHOP RD", "amenity": "post_box", "collection_times": "Mo-Fr 16:00; Sa 12:00", "indoor": "yes", "note": "ON 12/24 AND 12/31, THIS BOX MAY BE COLLECTED AS EARLY AS 12 NOON.", "nsi_id": "unitedstatespostalservice-a77078", "operator": "United States Postal Service", "operator:short": "USPS", "operator:type": "public", "operator:wikidata": "Q668687", "ref": "0253600013"}, "type": "Feature"}
{"geometry": {"coordinates": [-70.5613664, 41.578783], "type": "Point"}, "id": "wVT5zs4OVQxp39vEaG6CFJGydVQ=", "properties": {"@source_uri": "https://tools.usps.com/UspsToolsRestServices/rest/POLocator/findLocations", "@spider": "usps_collection_boxes", "addr:city": "TEATICKET", "addr:country": "US", "addr:postcode": "02536", "addr:state": "MA", "addr:street_address": "340 E FALMOUTH HWY", "amenity": "post_box", "collection_times": "Mo-Sa 09:00", "nsi_id": "unitedstatespostalservice-a77078", "operator": "United States Postal Service", "operator:short": "USPS", "operator:type": "public", "operator:wikidata": "Q668687", "ref": "0253600015"}, "type": "Feature"}
{"geometry": {"coordinates": [-70.547504, 41.577129], "type": "Point"}, "id": "WXfgO2G3VVprqM_tTrb86tp95uw=", "properties": {"@source_uri": "https://tools.usps.com/UspsToolsRestServices/rest/POLocator/findLocations", "@spider": "usps_collection_boxes", "addr:city": "TEATICKET", "addr:country": "US", "addr:postcode": "02536", "addr:state": "MA", "addr:street_address": "769 E FALMOUTH HWY", "amenity": "post_box", "collection_times": "Mo-Fr 09:00; Sa 14:00", "note": "ON 12/24 AND 12/31, THIS BOX MAY BE COLLECTED AS EARLY AS 12 NOON.", "nsi_id": "unitedstatespostalservice-a77078", "operator": "United States Postal Service", "operator:short": "USPS", "operator:type": "public", "operator:wikidata": "Q668687", "ref": "0253600016"}, "type": "Feature"}
{"geometry": {"coordinates": [-70.5989921, 41.562626], "type": "Point"}, "id": "4NTHRdlJrBgk6O1gFGODaguQn6A=", "properties": {"@source_uri": "https://tools.usps.com/UspsToolsRestServices/rest/POLocator/findLocations", "@spider": "usps_collection_boxes", "addr:city": "TEATICKET", "addr:country": "US", "addr:postcode": "02536", "addr:state": "MA", "addr:street_address": "40 TEATICKET HWY", "amenity": "post_box", "collection_times": "Mo-Fr 09:00; Sa 14:00", "note": "ON 12/24 AND 12/31, THIS BOX MAY BE COLLECTED AS EARLY AS 12 NOON.", "nsi_id": "unitedstatespostalservice-a77078", "operator": "United States Postal Service", "operator:short": "USPS", "operator:type": "public", "operator:wikidata": "Q668687", "ref": "0253600017"}, "type": "Feature"}
{"geometry": {"coordinates": [-70.594263, 41.561257], "type": "Point"}, "id": "KTWuf0kZhzfZHh7tAlY7CkZYxgo=", "properties": {"@source_uri": "https://tools.usps.com/UspsToolsRestServices/rest/POLocator/findLocations", "@spider": "usps_collection_boxes", "addr:city": "TEATICKET", "addr:country": "US", "addr:postcode": "02536", "addr:state": "MA", "addr:street_address": "137 TEATICKET HWY", "amenity": "post_box", "collection_times": "Mo-Fr 09:00; Sa 14:00", "note": "ON 12/24 AND 12/31, THIS BOX MAY BE COLLECTED AS EARLY AS 12 NOON.", "nsi_id": "unitedstatespostalservice-a77078", "operator": "United States Postal Service", "operator:short": "USPS", "operator:type": "public", "operator:wikidata": "Q668687", "ref": "0253600019"}, "type": "Feature"}
{"geometry": {"coordinates": [-70.4405329855, 41.7383992037], "type": "Point"}, "id": "0uFOsEU2YllY0TmiWSpS9HbnIj4=", "properties": {"@source_uri": "https://tools.usps.com/UspsToolsRestServices/rest/POLocator/findLocations", "@spider": "usps_collection_boxes", "addr:city": "EAST SANDWICH", "addr:country": "US", "addr:postcode": "02537", "addr:state": "MA", "addr:street_address": "443 ROUTE 6A", "amenity": "post_box", "collection_times": "Mo-Fr 16:30; Sa 12:00", "note": "ON 12/24 AND 12/31, THIS BOX MAY BE COLLECTED AS EARLY AS 12 NOON.", "nsi_id": "unitedstatespostalservice-a77078", "operator": "United States Postal Service", "operator:short": "USPS", "operator:type": "public", "operator:wikidata": "Q668687", "ref": "0253700002"}, "type": "Feature"}
{"geometry": {"coordinates": [-70.440533, 41.738336], "type": "Point"}, "id": "43bbFpOnj1WKo5dpoxFT0KOrQWM=", "properties": {"@source_uri": "https://tools.usps.com/UspsToolsRestServices/rest/POLocator/findLocations", "@spider": "usps_collection_boxes", "addr:city": "EAST SANDWICH", "addr:country": "US", "addr:postcode": "02537", "addr:state": "MA", "addr:street_address": "443 ROUTE 6A", "amenity": "post_box", "collection_times": "Mo-Fr 16:30; Sa 12:00", "indoor": "yes", "note": "ON 12/24 AND 12/31, THIS BOX MAY BE COLLECTED AS EARLY AS 12 NOON.", "nsi_id": "unitedstatespostalservice-a77078", "operator": "United States Postal Service", "operator:short": "USPS", "operator:type": "public", "operator:wikidata": "Q668687", "ref": "0253700004"}, "type": "Feature"}
{"geometry": {"coordinates": [-70.440533, 41.738336], "type": "Point"}, "id": "jq8jkgKzhw5CdCJTJATQvvw-Hq0=", "properties": {"@source_uri": "https://tools.usps.com/UspsToolsRestServices/rest/POLocator/findLocations", "@spider": "usps_collection_boxes", "addr:city": "EAST SANDWICH", "addr:country": "US", "addr:postcode": "02537", "addr:state": "MA", "addr:street_address": "443 ROUTE 6A", "amenity": "post_box", "collection_times": "Mo-Fr 16:30; Sa 12:00", "indoor": "yes", "note": "ON 12/24 AND 12/31, THIS BOX MAY BE COLLECTED AS EARLY AS 12 NOON.", "nsi_id": "unitedstatespostalservice-a77078", "operator": "United States Postal Service", "operator:short": "USPS", "operator:type": "public", "operator:wikidata": "Q668687", "ref": "0253700005"}, "type": "Feature"}
{"geometry": {"coordinates": [-70.664453, 41.759611], "type": "Point"}, "id": "AvStsCjv4JjWIxBDcbVja2qkW48=", "properties": {"@source_uri": "https://tools.usps.com/UspsToolsRestServices/rest/POLocator/findLocations", "@spider": "usps_collection_boxes", "addr:city": "EAST WAREHAM", "addr:country": "US", "addr:postcode": "02538", "addr:state": "MA", "addr:street_address": "2991 CRANBERRY HWY", "amenity": "post_box", "collection_times": "Mo-Fr 17:00; Sa 12:00", "indoor": "yes", "note": "ON 12/24 AND 12/31, THIS BOX MAY BE COLLECTED AS EARLY AS 12 NOON.", "nsi_id": "unitedstatespostalservice-a77078", "operator": "United States Postal Service", "operator:short": "USPS", "operator:type": "public", "operator:wikidata": "Q668687", "ref": "0253800003"}, "type": "Feature"}
{"geometry": {"coordinates": [-70.6672047, 41.75836], "type": "Point"}, "id": "4ZmGtq6hCyD5CdBeIqHZ-xbTxtA=", "properties": {"@source_uri": "https://tools.usps.com/UspsToolsRestServices/rest/POLocator/findLocations", "@spider": "usps_collection_boxes", "addr:city": "EAST WAREHAM", "addr:country": "US", "addr:postcode": "02538", "addr:state": "MA", "addr:street_address": "2991 CRANBERRY HWY", "amenity": "post_box", "collection_times": "Mo-Fr 17:00; Sa 12:00", "indoor": "yes", "note": "ON 12/24 AND 12/31, THIS BOX MAY BE COLLECTED AS EARLY AS 12 NOON.", "nsi_id": "unitedstatespostalservice-a77078", "operator": "United States Postal Service", "operator:short": "USPS", "operator:type": "public", "operator:wikidata": "Q668687", "ref": "0253800004"}, "type": "Feature"}
{"geometry": {"coordinates": [-70.6656156, 41.759025], "type": "Point"}, "id": "62JAcoMs_GMbECcVMgGgUX1LLi8=", "properties": {"@source_uri": "https://tools.usps.com/UspsToolsRestServices/rest/POLocator/findLocations", "@spider": "usps_collection_boxes", "addr:city": "EAST WAREHAM", "addr:country": "US", "addr:postcode": "02538", "addr:state": "MA", "addr:street_address": "2991 CRANBERRY HWY", "amenity": "post_box", "collection_times": "Mo-Sa 12:00", "nsi_id": "unitedstatespostalservice-a77078", "operator": "United States Postal Service", "operator:short": "USPS", "operator:type": "public", "operator:wikidata": "Q668687", "ref": "0253800007"}, "type": "Feature"}
{"geometry": {"coordinates": [-70.529471, 41.395093], "type": "Point"}, "id": "RCL3E01ZWLcir3OcOcBoedI3390=", "properties": {"@source_uri": "https://tools.usps.com/UspsToolsRestServices/rest/POLocator/findLocations", "@spider": "usps_collection_boxes", "addr:city": "EDGARTOWN", "addr:country": "US", "addr:postcode": "02539", "addr:state": "MA", "addr:street_address": "236B EDGARTOWN VINEYARD HAVEN RD", "amenity": "post_box", "collection_times": "Mo-Sa 14:30", "note": "ON 12/24 AND 12/31, THIS BOX MAY BE COLLECTED AS EARLY AS 12 NOON.", "nsi_id": "unitedstatespostalservice-a77078", "operator": "United States Postal Service", "operator:short": "USPS", "operator:type": "public", "operator:wikidata": "Q668687", "ref": "0253900002"}, "type": "Feature"}
{"geometry": {"coordinates": [-70.529471, 41.395093], "type": "Point"}, "id": "o80sCFaAGHYVHr_kon7cwcb1bdQ=", "properties": {"@source_uri": "https://tools.usps.com/UspsToolsRestServices/rest/POLocator/findLocations", "@spider": "usps_collection_boxes", "addr:city": "EDGARTOWN", "addr:country": "US", "addr:postcode": "02539", "addr:state": "MA", "addr:street_address": "236B EDGARTOWN VINEYARD HAVEN RD", "amenity": "post_box", "collection_times": "Mo-Sa 14:30", "indoor": "yes", "note": "ON 12/24 AND 12/31, THIS BOX MAY BE COLLECTED AS EARLY AS 12 NOON.", "nsi_id": "unitedstatespostalservice-a77078", "operator": "United States Postal Service", "operator:short": "USPS", "operator:type": "public", "operator:wikidata": "Q668687", "ref": "0253900005"}, "type": "Feature"}
{"geometry": {"coordinates": [-70.529471, 41.395093], "type": "Point"}, "id": "CX_4SIr436xA75smFHsRCh79U-0=", "properties": {"@source_uri": "https://tools.usps.com/UspsToolsRestServices/rest/POLocator/findLocations", "@spider": "usps_collection_boxes", "addr:city": "EDGARTOWN", "addr:country": "US", "addr:postcode": "02539", "addr:state": "MA", "addr:street_address": "236B EDGARTOWN VINEYARD HAVEN RD", "amenity": "post_box", "collection_times": "Mo-Sa 14:30", "indoor": "yes", "note": "ON 12/24 AND 12/31, THIS BOX MAY BE COLLECTED AS EARLY AS 12 NOON.", "nsi_id": "unitedstatespostalservice-a77078", "operator": "United States Postal Service", "operator:short": "USPS", "operator:type": "public", "operator:wikidata": "Q668687", "ref": "0253900006"}, "type": "Feature"}
{"geometry": {"coordinates": [-70.5144947, 41.39112], "type": "Point"}, "id": "jLgjv9QdlxUeK0maPO6VLB1ihaY=", "properties": {"@source_uri": "https://tools.usps.com/UspsToolsRestServices/rest/POLocator/findLocations", "@spider": "usps_collection_boxes", "addr:city": "EDGARTOWN", "addr:country": "US", "addr:postcode": "02539", "addr:state": "MA", "addr:street_address": "29 CHURCH ST", "amenity": "post_box", "collection_times": "Sa 10:30", "nsi_id": "unitedstatespostalservice-a77078", "operator": "United States Postal Service", "operator:short": "USPS", "operator:type": "public", "operator:wikidata": "Q668687", "ref": "0253900007"}, "type": "Feature"}
{"geometry": {"coordinates": [-70.5144366, 41.39], "type": "Point"}, "id": "uozZKzblIX7hNu8BipsfAxRJv6E=", "properties": {"@source_uri": "https://tools.usps.com/UspsToolsRestServices/rest/POLocator/findLocations", "@spider": "usps_collection_boxes", "addr:city": "EDGARTOWN", "addr:country": "US", "addr:postcode": "02539", "addr:state": "MA", "addr:street_address": "65 MAIN ST", "amenity": "post_box", "collection_times": "Mo-Sa 10:30", "nsi_id": "unitedstatespostalservice-a77078", "operator": "United States Postal Service", "operator:short": "USPS", "operator:type": "public", "operator:wikidata": "Q668687", "ref": "0253900009"}, "type": "Feature"}
{"geometry": {"coordinates": [-70.5216871903, 41.3899885031], "type": "Point"}, "id": "Da7Gs6Q3WHA33nOn10Qjmva6iRU=", "properties": {"@source_uri": "https://tools.usps.com/UspsToolsRestServices/rest/POLocator/findLocations", "@spider": "usps_collection_boxes", "addr:city": "EDGARTOWN", "addr:country": "US", "addr:postcode": "02539", "addr:state": "MA", "addr:street_address": "26 WEST TISBURY", "amenity": "post_box", "collection_times": "Mo-Sa 10:30", "nsi_id": "unitedstatespostalservice-a77078", "operator": "United States Postal Service", "operator:short": "USPS", "operator:type": "public", "operator:wikidata": "Q668687", "ref": "0253900011"}, "type": "Feature"}
{"geometry": {"coordinates": [-70.529471, 41.395093], "type": "Point"}, "id": "fJOTpRbDarJt90OXBHFDxlSDZfY=", "properties": {"@source_uri": "https://tools.usps.com/UspsToolsRestServices/rest/POLocator/findLocations", "@spider": "usps_collection_boxes", "addr:city": "EDGARTOWN", "addr:country": "US", "addr:postcode": "02539", "addr:state": "MA", "addr:street_address": "236B EDGARTOWN VINEYARD HAVEN RD", "amenity": "post_box", "collection_times": "Mo-Sa 14:30", "indoor": "yes", "note": "ON 12/24 AND 12/31, THIS BOX MAY BE COLLECTED AS EARLY AS 12 NOON.", "nsi_id": "unitedstatespostalservice-a77078", "operator": "United States Postal Service", "operator:short": "USPS", "operator:type": "public", "operator:wikidata": "Q668687", "ref": "0253900014"}, "type": "Feature"}
{"geometry": {"coordinates": [-70.509057, 41.358306], "type": "Point"}, "id": "xVG14Kh1-jFhjYuhA2yLrdA60Vs=", "properties": {"@source_uri": "https://tools.usps.com/UspsToolsRestServices/rest/POLocator/findLocations", "@spider": "usps_collection_boxes", "addr:city": "EDGARTOWN", "addr:country": "US", "addr:postcode": "02539", "addr:state": "MA", "addr:street_address": "1 EDGARTOWN BAY RD", "amenity": "post_box", "collection_times": "Mo-Sa 14:30", "note": "ON 12/24 AND 12/31, THIS BOX MAY BE COLLECTED AS EARLY AS 12 NOON.", "nsi_id": "unitedstatespostalservice-a77078", "operator": "United States Postal Service", "operator:short": "USPS", "operator:type": "public", "operator:wikidata": "Q668687", "ref": "0253900015"}, "type": "Feature"}
{"geometry": {"coordinates": [-70.5082850868, 41.3887104444], "type": "Point"}, "id": "PzxDdRxAEREHu0q19ixm6f6_HB4=", "properties": {"@source_uri": "https://tools.usps.com/UspsToolsRestServices/rest/POLocator/findLocations", "@spider": "usps_collection_boxes", "addr:city": "EDGARTOWN", "addr:country": "US", "addr:postcode": "02539", "addr:state": "MA", "addr:street_address": "1 CHAPPAQUIDDICK RD", "amenity": "post_box", "collection_times": "Mo-Sa 10:30", "nsi_id": "unitedstatespostalservice-a77078", "operator": "United States Postal Service", "operator:short": "USPS", "operator:type": "public", "operator:wikidata": "Q668687", "ref": "0253900016"}, "type": "Feature"}
{"geometry": {"coordinates": [-70.5173516, 41.381583], "type": "Point"}, "id": "7wX7remAv_WlXHMlw3dZXoq2yoY=", "properties": {"@source_uri": "https://tools.usps.com/UspsToolsRestServices/rest/POLocator/findLocations", "@spider": "usps_collection_boxes", "addr:city": "EDGARTOWN", "addr:country": "US", "addr:postcode": "02539", "addr:state": "MA", "addr:street_address": "186 KATAMA RD", "amenity": "post_box", "collection_times": "Mo-Sa 10:30", "nsi_id": "unitedstatespostalservice-a77078", "operator": "United States Postal Service", "operator:short": "USPS", "operator:type": "public", "operator:wikidata": "Q668687", "ref": "0253900017"}, "type": "Feature"}
{"geometry": {"coordinates": [-70.618001, 41.553272], "type": "Point"}, "id": "0judlV9iv6oh9eF9EIAnzLUSCMI=", "properties": {"@source_uri": "https://tools.usps.com/UspsToolsRestServices/rest/POLocator/findLocations", "@spider": "usps_collection_boxes", "addr:city": "FALMOUTH", "addr:country": "US", "addr:postcode": "02540", "addr:state": "MA", "addr:street_address": "120 MAIN ST", "amenity": "post_box", "collection_times": "Mo-Fr 17:15; Sa 16:15", "note": "ON 12/24 AND 12/31, THIS BOX MAY BE COLLECTED AS EARLY AS 12 NOON.", "nsi_id": "unitedstatespostalservice-a77078", "operator": "United States Postal Service", "operator:short": "USPS", "operator:type": "public", "operator:wikidata": "Q668687", "ref": "0254000001"}, "type": "Feature"}
{"geometry": {"coordinates": [-70.618001, 41.553272], "type": "Point"}, "id": "7CxEEVjG3dzQHx_SUDQ1enh1uQY=", "properties": {"@source_uri": "https://tools.usps.com/UspsToolsRestServices/rest/POLocator/findLocations", "@spider": "usps_collection_boxes", "addr:city": "FALMOUTH", "addr:country": "US", "addr:postcode": "02540", "addr:state": "MA", "addr:street_address": "120 MAIN ST", "amenity": "post_box", "collection_times": "Mo-Fr 17:15; Sa 16:15", "indoor": "yes", "note": "ON 12/24 AND 12/31, THIS BOX MAY BE COLLECTED AS EARLY AS 12 NOON.", "nsi_id": "unitedstatespostalservice-a77078", "operator": "United States Postal Service", "operator:short": "USPS", "operator:type": "public", "operator:wikidata": "Q668687", "ref": "0254000004"}, "type": "Feature"}
{"geometry": {"coordinates": [-70.618001, 41.553272], "type": "Point"}, "id": "CR2HfzUmKsSmU-Gt52-pCPeY_5k=", "properties": {"@source_uri": "https://tools.usps.com/UspsToolsRestServices/rest/POLocator/findLocations", "@spider": "usps_collection_boxes", "addr:city": "FALMOUTH", "addr:country": "US", "addr:postcode": "02540", "addr:state": "MA", "addr:street_address": "120 MAIN ST", "amenity": "post_box", "collection_times": "Mo-Fr 17:15; Sa 16:15", "indoor": "yes", "note": "ON 12/24 AND 12/31, THIS BOX MAY BE COLLECTED AS EARLY AS 12 NOON.", "nsi_id": "unitedstatespostalservice-a77078", "operator": "United States Postal Service", "operator:short": "USPS", "operator:type": "public", "operator:wikidata": "Q668687", "ref": "0254000005"}, "type": "Feature"}
{"geometry": {"coordinates": [-70.6000287, 41.554305], "type": "Point"}, "id": "zrpslf-WrHUSHpcTjAOmF7ygCNY=", "properties": {"@source_uri": "https://tools.usps.com/UspsToolsRestServices/rest/POLocator/findLocations", "@spider": "usps_collection_boxes", "addr:city": "FALMOUTH", "addr:country": "US", "addr:postcode": "02540", "addr:state": "MA", "addr:street_address": "13 ALMA RD", "amenity": "post_box", "collection_times": "Mo-Fr 16:00; Sa 14:30", "note": "ON 12/24 AND 12/31, THIS BOX MAY BE COLLECTED AS EARLY AS 12 NOON.", "nsi_id": "unitedstatespostalservice-a77078", "operator": "United States Postal Service", "operator:short": "USPS", "operator:type": "public", "operator:wikidata": "Q668687", "ref": "0254000006"}, "type": "Feature"}
{"geometry": {"coordinates": [-70.5984091, 41.556525], "type": "Point"}, "id": "mvALVinYeWcAhxcowfVF4yW3ToU=", "properties": {"@source_uri": "https://tools.usps.com/UspsToolsRestServices/rest/POLocator/findLocations", "@spider": "usps_collection_boxes", "addr:city": "FALMOUTH", "addr:country": "US", "addr:postcode": "02540", "addr:state": "MA", "addr:street_address": "27 DAVIS STRAITS", "amenity": "post_box", "collection_times": "Mo-Fr 16:00; Sa 14:30", "note": "ON 12/24 AND 12/31, THIS BOX MAY BE COLLECTED AS EARLY AS 12 NOON.", "nsi_id": "unitedstatespostalservice-a77078", "operator": "United States Postal Service", "operator:short": "USPS", "operator:type": "public", "operator:wikidata": "Q668687", "ref": "0254000008"}, "type": "Feature"}
{"geometry": {"coordinates": [-70.6098283, 41.562497], "type": "Point"}, "id": "C9m_m4K-bmN2BsbBTQUCMFz1oF4=", "properties": {"@source_uri": "https://tools.usps.com/UspsToolsRestServices/rest/POLocator/findLocations", "@spider": "usps_collection_boxes", "addr:city": "FALMOUTH", "addr:country": "US", "addr:postcode": "02540", "addr:state": "MA", "addr:street_address": "340 GIFFORD ST", "amenity": "post_box", "collection_times": "Mo-Fr 16:00; Sa 14:30", "note": "ON 12/24 AND 12/31, THIS BOX MAY BE COLLECTED AS EARLY AS 12 NOON.", "nsi_id": "unitedstatespostalservice-a77078", "operator": "United States Postal Service", "operator:short": "USPS", "operator:type": "public", "operator:wikidata": "Q668687", "ref": "0254000011"}, "type": "Feature"}
{"geometry": {"coordinates": [-70.6074779, 41.552452], "type": "Point"}, "id": "csYd24a9WZwDIRmRqNQLqx8RXA4=", "properties": {"@source_uri": "https://tools.usps.com/UspsToolsRestServices/rest/POLocator/findLocations", "@spider": "usps_collection_boxes", "addr:city": "FALMOUTH", "addr:country": "US", "addr:postcode": "02540", "addr:state": "MA", "addr:street_address": "556 MAIN ST", "amenity": "post_box", "collection_times": "Mo-Fr 13:30; Sa 12:00", "note": "ON 12/24 AND 12/31, THIS BOX MAY BE COLLECTED AS EARLY AS 12 NOON.", "nsi_id": "unitedstatespostalservice-a77078", "operator": "United States Postal Service", "operator:short": "USPS", "operator:type": "public", "operator:wikidata": "Q668687", "ref": "0254000014"}, "type": "Feature"}
{"geometry": {"coordinates": [-70.6234939, 41.564522], "type": "Point"}, "id": "1aPB0MKD5iDRwRhFX2zqbUzV1JE=", "properties": {"@source_uri": "https://tools.usps.com/UspsToolsRestServices/rest/POLocator/findLocations", "@spider": "usps_collection_boxes", "addr:city": "FALMOUTH", "addr:country": "US", "addr:postcode": "02540", "addr:state": "MA", "addr:street_address": "100 TER HEUN DR", "amenity": "post_box", "collection_times": "Mo-Fr 15:45; Sa 10:00", "note": "ON 12/24 AND 12/31, THIS BOX MAY BE COLLECTED AS EARLY AS 12 NOON.", "nsi_id": "unitedstatespostalservice-a77078", "operator": "United States Postal Service", "operator:short": "USPS", "operator:type": "public", "operator:wikidata": "Q668687", "ref": "0254000024"}, "type": "Feature"}
{"geometry": {"coordinates": [-70.6184266, 41.551604], "type": "Point"}, "id": "2QY8mstm8Q1l4JURhNbWINJH_Bk=", "properties": {"@source_uri": "https://tools.usps.com/UspsToolsRestServices/rest/POLocator/findLocations", "@spider": "usps_collection_boxes", "addr:city": "FALMOUTH", "addr:country": "US", "addr:postcode": "02540", "addr:state": "MA", "addr:street_address": "59 TOWN HALL SQ", "amenity": "post_box", "collection_times": "Mo-Fr 15:45; Sa 10:00", "note": "ON 12/24 AND 12/31, THIS BOX MAY BE COLLECTED AS EARLY AS 12 NOON.", "nsi_id": "unitedstatespostalservice-a77078", "operator": "United States Postal Service", "operator:short": "USPS", "operator:type": "public", "operator:wikidata": "Q668687", "ref": "0254000025"}, "type": "Feature"}
{"geometry": {"coordinates": [-70.597051061, 41.5593209265], "type": "Point"}, "id": "Maem1Zs2Axn4dbdISqOeVsA2yLM=", "properties": {"@source_uri": "https://tools.usps.com/UspsToolsRestServices/rest/POLocator/findLocations", "@spider": "usps_collection_boxes", "addr:city": "FALMOUTH", "addr:country": "US", "addr:postcode": "02540", "addr:state": "MA", "addr:street_address": "205 WORCESTER CT", "amenity": "post_box", "collection_times": "Mo-Fr 16:00; Sa 10:00", "note": "ON 12/24 AND 12/31, THIS BOX MAY BE COLLECTED AS EARLY AS 12 NOON.", "nsi_id": "unitedstatespostalservice-a77078", "operator": "United States Postal Service", "operator:short": "USPS", "operator:type": "public", "operator:wikidata": "Q668687", "ref": "0254000027"}, "type": "Feature"}
{"geometry": {"coordinates": [-70.6044088, 41.550315], "type": "Point"}, "id": "VkIdddJIJryn0IBQudDJZidTFpg=", "properties": {"@source_uri": "https://tools.usps.com/UspsToolsRestServices/rest/POLocator/findLocations", "@spider": "usps_collection_boxes", "addr:city": "FALMOUTH", "addr:country": "US", "addr:postcode": "02540", "addr:state": "MA", "addr:street_address": "135 SCRANTON AVE", "amenity": "post_box", "collection_times": "Mo-Sa 12:15", "note": "ON 12/24 AND 12/31, THIS BOX MAY BE COLLECTED AS EARLY AS 12 NOON.", "nsi_id": "unitedstatespostalservice-a77078", "operator": "United States Postal Service", "operator:short": "USPS", "operator:type": "public", "operator:wikidata": "Q668687", "ref": "0254000029"}, "type": "Feature"}
{"geometry": {"coordinates": [-70.617999, 41.553312], "type": "Point"}, "id": "tj9d1YaT8UTYTLpitNyh7qr8poQ=", "properties": {"@source_uri": "https://tools.usps.com/UspsToolsRestServices/rest/POLocator/findLocations", "@spider": "usps_collection_boxes", "addr:city": "FALMOUTH", "addr:country": "US", "addr:postcode": "02540", "addr:state": "MA", "addr:street_address": "120 MAIN STREET (CORNER POST OFFICE", "amenity": "post_box", "collection_times": "Mo-Fr 17:00; Sa 16:00", "note": "ON 12/24 AND 12/31, THIS BOX MAY BE COLLECTED AS EARLY AS 12 NOON.", "nsi_id": "unitedstatespostalservice-a77078", "operator": "United States Postal Service", "operator:short": "USPS", "operator:type": "public", "operator:wikidata": "Q668687", "ref": "0254000031"}, "type": "Feature"}
{"geometry": {"coordinates": [-70.616061, 41.552276], "type": "Point"}, "id": "1tixuTT_zQvyxuc_xMnWkChVUWM=", "properties": {"@source_uri": "https://tools.usps.com/UspsToolsRestServices/rest/POLocator/findLocations", "@spider": "usps_collection_boxes", "addr:city": "FALMOUTH", "addr:country": "US", "addr:postcode": "02540", "addr:state": "MA", "addr:street_address": "218 MAIN ST", "amenity": "post_box", "collection_times": "Mo-Sa 14:30", "note": "ON 12/24 AND 12/31, THIS BOX MAY BE COLLECTED AS EARLY AS 12 NOON.", "nsi_id": "unitedstatespostalservice-a77078", "operator": "United States Postal Service", "operator:short": "USPS", "operator:type": "public", "operator:wikidata": "Q668687", "ref": "0254000033"}, "type": "Feature"}
{"geometry": {"coordinates": [-70.5662242, 41.660435], "type": "Point"}, "id": "kvswd6v2z-6e36z5hu8wCD4UreA=", "properties": {"@source_uri": "https://tools.usps.com/UspsToolsRestServices/rest/POLocator/findLocations", "@spider": "usps_collection_boxes", "addr:city": "BUZZARDS BAY", "addr:country": "US", "addr:postcode": "02542", "addr:state": "MA", "addr:street_address": "5203 E HOSPITAL RD", "amenity": "post_box", "collection_times": "Mo-Fr 08:00", "nsi_id": "unitedstatespostalservice-a77078", "operator": "United States Postal Service", "operator:short": "USPS", "operator:type": "public", "operator:wikidata": "Q668687", "ref": "0254200007"}, "type": "Feature"}
{"geometry": {"coordinates": [-70.668871, 41.523577], "type": "Point"}, "id": "oDOAX0sO38w1lpl8Q-c8EA7LJpE=", "properties": {"@source_uri": "https://tools.usps.com/UspsToolsRestServices/rest/POLocator/findLocations", "@spider": "usps_collection_boxes", "addr:city": "FALMOUTH", "addr:country": "US", "addr:postcode": "02543", "addr:state": "MA", "addr:street_address": "16 WATER ST", "amenity": "post_box", "collection_times": "Mo-Fr 17:00; Sa 12:30", "note": "ON 12/24 AND 12/31, THIS BOX MAY BE COLLECTED AS EARLY AS 12 NOON.", "nsi_id": "unitedstatespostalservice-a77078", "operator": "United States Postal Service", "operator:short": "USPS", "operator:type": "public", "operator:wikidata": "Q668687", "ref": "0254300001"}, "type": "Feature"}
{"geometry": {"coordinates": [-70.668871, 41.523577], "type": "Point"}, "id": "98WRW3Om4tFMQCzT8eBAMzXUjGE=", "properties": {"@source_uri": "https://tools.usps.com/UspsToolsRestServices/rest/POLocator/findLocations", "@spider": "usps_collection_boxes", "addr:city": "FALMOUTH", "addr:country": "US", "addr:postcode": "02543", "addr:state": "MA", "addr:street_address": "16 WATER ST", "amenity": "post_box", "collection_times": "Mo-Fr 16:00; Sa 12:00", "indoor": "yes", "note": "ON 12/24 AND 12/31, THIS BOX MAY BE COLLECTED AS EARLY AS 12 NOON.", "nsi_id": "unitedstatespostalservice-a77078", "operator": "United States Postal Service", "operator:short": "USPS", "operator:type": "public", "operator:wikidata": "Q668687", "ref": "0254300002"}, "type": "Feature"}
{"geometry": {"coordinates": [-70.668871, 41.523577], "type": "Point"}, "id": "T9WPoxtKsMv6IzdgyfN_QYAC_xc=", "properties": {"@source_uri": "https://tools.usps.com/UspsToolsRestServices/rest/POLocator/findLocations", "@spider": "usps_collection_boxes", "addr:city": "FALMOUTH", "addr:country": "US", "addr:postcode": "02543", "addr:state": "MA", "addr:street_address": "16 WATER ST", "amenity": "post_box", "collection_times": "Mo-Fr 16:00; Sa 12:00", "indoor": "yes", "note": "ON 12/24 AND 12/31, THIS BOX MAY BE COLLECTED AS EARLY AS 12 NOON.", "nsi_id": "unitedstatespostalservice-a77078", "operator": "United States Postal Service", "operator:short": "USPS", "operator:type": "public", "operator:wikidata": "Q668687", "ref": "0254300003"}, "type": "Feature"}
{"geometry": {"coordinates": [-70.6700887, 41.522973], "type": "Point"}, "id": "_5DDAcnRp5EJbDiIJLWUeUnNlL8=", "properties": {"@source_uri": "https://tools.usps.com/UspsToolsRestServices/rest/POLocator/findLocations", "@spider": "usps_collection_boxes", "addr:city": "FALMOUTH", "addr:country": "US", "addr:postcode": "02543", "addr:state": "MA", "addr:street_address": "36 RAILROAD AVE", "amenity": "post_box", "collection_times": "Mo-Fr 14:30; Sa 12:00", "note": "ON 12/24 AND 12/31, THIS BOX MAY BE COLLECTED AS EARLY AS 12 NOON.", "nsi_id": "unitedstatespostalservice-a77078", "operator": "United States Postal Service", "operator:short": "USPS", "operator:type": "public", "operator:wikidata": "Q668687", "ref": "0254300005"}, "type": "Feature"}
{"geometry": {"coordinates": [-70.614277, 41.719303], "type": "Point"}, "id": "jeRzRQDWwCPBW5-FPEx5y7A9M1w=", "properties": {"@source_uri": "https://tools.usps.com/UspsToolsRestServices/rest/POLocator/findLocations", "@spider": "usps_collection_boxes", "addr:city": "MONUMENT BEACH", "addr:country": "US", "addr:postcode": "02553", "addr:state": "MA", "addr:street_address": "436 SHORE RD", "amenity": "post_box", "collection_times": "Mo-Fr 16:30; Sa 12:00", "note": "ON 12/24 AND 12/31, THIS BOX MAY BE COLLECTED AS EARLY AS 12 NOON.", "nsi_id": "unitedstatespostalservice-a77078", "operator": "United States Postal Service", "operator:short": "USPS", "operator:type": "public", "operator:wikidata": "Q668687", "ref": "0255300001"}, "type": "Feature"}
{"geometry": {"coordinates": [-70.614177, 41.719361], "type": "Point"}, "id": "ocdKpXvyaWzWlhnmO_1u75XtrRc=", "properties": {"@source_uri": "https://tools.usps.com/UspsToolsRestServices/rest/POLocator/findLocations", "@spider": "usps_collection_boxes", "addr:city": "MONUMENT BEACH", "addr:country": "US", "addr:postcode": "02553", "addr:state": "MA", "addr:street_address": "436 SHORE RD", "amenity": "post_box", "collection_times": "Mo-Fr 16:30; Sa 12:00", "indoor": "yes", "note": "ON 12/24 AND 12/31, THIS BOX MAY BE COLLECTED AS EARLY AS 12 NOON.", "nsi_id": "unitedstatespostalservice-a77078", "operator": "United States Postal Service", "operator:short": "USPS", "operator:type": "public", "operator:wikidata": "Q668687", "ref": "0255300004"}, "type": "Feature"}
{"geometry": {"coordinates": [-70.098798, 41.283853], "type": "Point"}, "id": "vfX_x706T9oidVR5Ib0dGahBOuE=", "properties": {"@source_uri": "https://tools.usps.com/UspsToolsRestServices/rest/POLocator/findLocations", "@spider": "usps_collection_boxes", "addr:city": "NANTUCKET", "addr:country": "US", "addr:postcode": "02554", "addr:state": "MA", "addr:street_address": "5 FEDERAL ST", "amenity": "post_box", "collection_times": "Mo-Sa 13:00", "note": "ON 12/24 AND 12/31, THIS BOX MAY BE COLLECTED AS EARLY AS 12 NOON.", "nsi_id": "unitedstatespostalservice-a77078", "operator": "United States Postal Service", "operator:short": "USPS", "operator:type": "public", "operator:wikidata": "Q668687", "ref": "0255400004"}, "type": "Feature"}
{"geometry": {"coordinates": [-70.098798, 41.283853], "type": "Point"}, "id": "W64MViyNkJucwmi6XqNAHIkROqs=", "properties": {"@source_uri": "https://tools.usps.com/UspsToolsRestServices/rest/POLocator/findLocations", "@spider": "usps_collection_boxes", "addr:city": "NANTUCKET", "addr:country": "US", "addr:postcode": "02554", "addr:state": "MA", "addr:street_address": "5 FEDERAL ST", "amenity": "post_box", "collection_times": "Mo-Sa 13:00", "indoor": "yes", "note": "ON 12/24 AND 12/31, THIS BOX MAY BE COLLECTED AS EARLY AS 12 NOON.", "nsi_id": "unitedstatespostalservice-a77078", "operator": "United States Postal Service", "operator:short": "USPS", "operator:type": "public", "operator:wikidata": "Q668687", "ref": "0255400005"}, "type": "Feature"}
{"geometry": {"coordinates": [-70.098798, 41.283853], "type": "Point"}, "id": "5dpXx3J6lx_4il9pLxJCyeYuJnA=", "properties": {"@source_uri": "https://tools.usps.com/UspsToolsRestServices/rest/POLocator/findLocations", "@spider": "usps_collection_boxes", "addr:city": "NANTUCKET", "addr:country": "US", "addr:postcode": "02554", "addr:state": "MA", "addr:street_address": "5 FEDERAL ST", "amenity": "post_box", "collection_times": "Mo-Sa 13:00", "indoor": "yes", "note": "ON 12/24 AND 12/31, THIS BOX MAY BE COLLECTED AS EARLY AS 12 NOON.", "nsi_id": "unitedstatespostalservice-a77078", "operator": "United States Postal Service", "operator:short": "USPS", "operator:type": "public", "operator:wikidata": "Q668687", "ref": "0255400006"}, "type": "Feature"}
{"geometry": {"coordinates": [-70.0987846, 41.288131], "type": "Point"}, "id": "lYhKTsPg7p86d3EKI-nF9qYHrEA=", "properties": {"@source_uri": "https://tools.usps.com/UspsToolsRestServices/rest/POLocator/findLocations", "@spider": "usps_collection_boxes", "addr:city": "NANTUCKET", "addr:country": "US", "addr:postcode": "02554", "addr:state": "MA", "addr:street_address": "8 BEACH ST", "amenity": "post_box", "collection_times": "Mo-Sa 09:00", "nsi_id": "unitedstatespostalservice-a77078", "operator": "United States Postal Service", "operator:short": "USPS", "operator:type": "public", "operator:wikidata": "Q668687", "ref": "0255400007"}, "type": "Feature"}
{"geometry": {"coordinates": [-70.099429, 41.285055], "type": "Point"}, "id": "PKY2cU81KYLGLRmlZZZsJpK5oPQ=", "properties": {"@source_uri": "https://tools.usps.com/UspsToolsRestServices/rest/POLocator/findLocations", "@spider": "usps_collection_boxes", "addr:city": "NANTUCKET", "addr:country": "US", "addr:postcode": "02554", "addr:state": "MA", "addr:street_address": "16 BROAD ST", "amenity": "post_box", "collection_times": "Mo-Sa 09:00", "nsi_id": "unitedstatespostalservice-a77078", "operator": "United States Postal Service", "operator:short": "USPS", "operator:type": "public", "operator:wikidata": "Q668687", "ref": "0255400008"}, "type": "Feature"}
{"geometry": {"coordinates": [-70.0995217, 41.283212], "type": "Point"}, "id": "YwCxaqQ-7q04MPKfzZ1PZqe72dA=", "properties": {"@source_uri": "https://tools.usps.com/UspsToolsRestServices/rest/POLocator/findLocations", "@spider": "usps_collection_boxes", "addr:city": "NANTUCKET", "addr:country": "US", "addr:postcode": "02554", "addr:state": "MA", "addr:street_address": "61 MAIN ST", "amenity": "post_box", "collection_times": "Mo-Sa 09:00", "nsi_id": "unitedstatespostalservice-a77078", "operator": "United States Postal Service", "operator:short": "USPS", "operator:type": "public", "operator:wikidata": "Q668687", "ref": "0255400014"}, "type": "Feature"}
{"geometry": {"coordinates": [-70.101453601, 41.275178306], "type": "Point"}, "id": "CDbu24qr4DeO1-wbQM-C44c-3T4=", "properties": {"@source_uri": "https://tools.usps.com/UspsToolsRestServices/rest/POLocator/findLocations", "@spider": "usps_collection_boxes", "addr:city": "NANTUCKET", "addr:country": "US", "addr:postcode": "02554", "addr:state": "MA", "addr:street_address": "57 PROSPECT ST", "amenity": "post_box", "collection_times": "Mo-Sa 09:00", "nsi_id": "unitedstatespostalservice-a77078", "operator": "United States Postal Service", "operator:short": "USPS", "operator:type": "public", "operator:wikidata": "Q668687", "ref": "0255400020"}, "type": "Feature"}
{"geometry": {"coordinates": [-70.0927674, 41.271759], "type": "Point"}, "id": "z3BRtRxf8S_IMZq_u6O96EJ4HNU=", "properties": {"@source_uri": "https://tools.usps.com/UspsToolsRestServices/rest/POLocator/findLocations", "@spider": "usps_collection_boxes", "addr:city": "NANTUCKET", "addr:country": "US", "addr:postcode": "02554", "addr:state": "MA", "addr:street_address": "29 SPARKS AVE", "amenity": "post_box", "collection_times": "Mo-Sa 09:00", "nsi_id": "unitedstatespostalservice-a77078", "operator": "United States Postal Service", "operator:short": "USPS", "operator:type": "public", "operator:wikidata": "Q668687", "ref": "0255400021"}, "type": "Feature"}
{"geometry": {"coordinates": [-70.0955941, 41.285876], "type": "Point"}, "id": "ARmI4wuC5lgIuFr4pdNTjWTqvY0=", "properties": {"@source_uri": "https://tools.usps.com/UspsToolsRestServices/rest/POLocator/findLocations", "@spider": "usps_collection_boxes", "addr:city": "NANTUCKET", "addr:country": "US", "addr:postcode": "02554", "addr:state": "MA", "addr:street_address": "1 STEAMBOAT WHARF", "amenity": "post_box", "collection_times": "Mo-Sa 09:00", "nsi_id": "unitedstatespostalservice-a77078", "operator": "United States Postal Service", "operator:short": "USPS", "operator:type": "public", "operator:wikidata": "Q668687", "ref": "0255400022"}, "type": "Feature"}
{"geometry": {"coordinates": [-70.0971209, 41.283765], "type": "Point"}, "id": "Zreg-3YF1Xc5qN2iNPhhO8ynqSA=", "properties": {"@source_uri": "https://tools.usps.com/UspsToolsRestServices/rest/POLocator/findLocations", "@spider": "usps_collection_boxes", "addr:city": "NANTUCKET", "addr:country": "US", "addr:postcode": "02554", "addr:state": "MA", "addr:street_address": "1 STRAIGHT WHARF", "amenity": "post_box", "collection_times": "Mo-Sa 09:00", "nsi_id": "unitedstatespostalservice-a77078", "operator": "United States Postal Service", "operator:short": "USPS", "operator:type": "public", "operator:wikidata": "Q668687", "ref": "0255400023"}, "type": "Feature"}
{"geometry": {"coordinates": [-70.0636228, 41.257029], "type": "Point"}, "id": "HOTl0tYDfFPN8Sd2WHDpdfMPJAc=", "properties": {"@source_uri": "https://tools.usps.com/UspsToolsRestServices/rest/POLocator/findLocations", "@spider": "usps_collection_boxes", "addr:city": "NANTUCKET", "addr:country": "US", "addr:postcode": "02554", "addr:state": "MA", "addr:street_address": "14 AIRPORT RD", "amenity": "post_box", "collection_times": "Mo-Sa 09:00", "nsi_id": "unitedstatespostalservice-a77078", "operator": "United States Postal Service", "operator:short": "USPS", "operator:type": "public", "operator:wikidata": "Q668687", "ref": "0255400025"}, "type": "Feature"}
{"geometry": {"coordinates": [-70.0954923, 41.281013], "type": "Point"}, "id": "x4L7VPpgnJWLZcZ66tNjnaZdUq0=", "properties": {"@source_uri": "https://tools.usps.com/UspsToolsRestServices/rest/POLocator/findLocations", "@spider": "usps_collection_boxes", "addr:city": "NANTUCKET", "addr:country": "US", "addr:postcode": "02554", "addr:state": "MA", "addr:street_address": "37 WASHINGTON ST", "amenity": "post_box", "collection_times": "Mo-Sa 09:00", "nsi_id": "unitedstatespostalservice-a77078", "operator": "United States Postal Service", "operator:short": "USPS", "operator:type": "public", "operator:wikidata": "Q668687", "ref": "0255400026"}, "type": "Feature"}
{"geometry": {"coordinates": [-70.059663, 41.260547], "type": "Point"}, "id": "hH-ilCcdwYFyLN0zYzVdD6cWY68=", "properties": {"@source_uri": "https://tools.usps.com/UspsToolsRestServices/rest/POLocator/findLocations", "@spider": "usps_collection_boxes", "addr:city": "NANTUCKET", "addr:country": "US", "addr:postcode": "02554", "addr:state": "MA", "addr:street_address": "155 OLD SOUTH RD", "amenity": "post_box", "collection_times": "Mo-Sa 12:30", "note": "ON 12/24 AND 12/31, THIS BOX MAY BE COLLECTED AS EARLY AS 12 NOON.", "nsi_id": "unitedstatespostalservice-a77078", "operator": "United States Postal Service", "operator:short": "USPS", "operator:type": "public", "operator:wikidata": "Q668687", "ref": "0255400028"}, "type": "Feature"}
{"geometry": {"coordinates": [-70.61224, 41.650382], "type": "Point"}, "id": "LIbatJ6LAQblbKgir-DiHdJY37U=", "properties": {"@source_uri": "https://tools.usps.com/UspsToolsRestServices/rest/POLocator/findLocations", "@spider": "usps_collection_boxes", "addr:city": "NORTH FALMOUTH", "addr:country": "US", "addr:postcode": "02556", "addr:state": "MA", "addr:street_address": "634 N FALMOUTH HWY", "amenity": "post_box", "collection_times": "Mo-Fr 17:00; Sa 12:00", "indoor": "yes", "note": "ON 12/24 AND 12/31, THIS BOX MAY BE COLLECTED AS EARLY AS 12 NOON.", "nsi_id": "unitedstatespostalservice-a77078", "operator": "United States Postal Service", "operator:short": "USPS", "operator:type": "public", "operator:wikidata": "Q668687", "ref": "0255600003"}, "type": "Feature"}
{"geometry": {"coordinates": [-70.612205, 41.650399], "type": "Point"}, "id": "Oz15452XHJNr4r_HXCTmS4CPhZM=", "properties": {"@source_uri": "https://tools.usps.com/UspsToolsRestServices/rest/POLocator/findLocations", "@spider": "usps_collection_boxes", "addr:city": "NORTH FALMOUTH", "addr:country": "US", "addr:postcode": "02556", "addr:state": "MA", "addr:street_address": "634 N FALMOUTH HWY", "amenity": "post_box", "collection_times": "Mo-Fr 17:00; Sa 12:00", "indoor": "yes", "note": "ON 12/24 AND 12/31, THIS BOX MAY BE COLLECTED AS EARLY AS 12 NOON.", "nsi_id": "unitedstatespostalservice-a77078", "operator": "United States Postal Service", "operator:short": "USPS", "operator:type": "public", "operator:wikidata": "Q668687", "ref": "0255600004"}, "type": "Feature"}
{"geometry": {"coordinates": [-70.6171964, 41.649192], "type": "Point"}, "id": "_8eFiFk1kjfV9cbHT9jty2gLXN8=", "properties": {"@source_uri": "https://tools.usps.com/UspsToolsRestServices/rest/POLocator/findLocations", "@spider": "usps_collection_boxes", "addr:city": "NORTH FALMOUTH", "addr:country": "US", "addr:postcode": "02556", "addr:state": "MA", "addr:street_address": "78 COUNTY RD", "amenity": "post_box", "collection_times": "Mo-Fr 09:00; Sa 10:00", "nsi_id": "unitedstatespostalservice-a77078", "operator": "United States Postal Service", "operator:short": "USPS", "operator:type": "public", "operator:wikidata": "Q668687", "ref": "0255600005"}, "type": "Feature"}
{"geometry": {"coordinates": [-70.612205, 41.650399], "type": "Point"}, "id": "hkVF0x4etf8JpKh5JtoYjEmy4P0=", "properties": {"@source_uri": "https://tools.usps.com/UspsToolsRestServices/rest/POLocator/findLocations", "@spider": "usps_collection_boxes", "addr:city": "NORTH FALMOUTH", "addr:country": "US", "addr:postcode": "02556", "addr:state": "MA", "addr:street_address": "634 N FALMOUTH HWY", "amenity": "post_box", "collection_times": "Mo-Fr 17:00; Sa 12:00", "note": "ON 12/24 AND 12/31, THIS BOX MAY BE COLLECTED AS EARLY AS 12 NOON.", "nsi_id": "unitedstatespostalservice-a77078", "operator": "United States Postal Service", "operator:short": "USPS", "operator:type": "public", "operator:wikidata": "Q668687", "ref": "0255600006"}, "type": "Feature"}
{"geometry": {"coordinates": [-70.557455, 41.45606], "type": "Point"}, "id": "B9EqVGgvveuXXCtm7sqniVFk9aI=", "properties": {"@source_uri": "https://tools.usps.com/UspsToolsRestServices/rest/POLocator/findLocations", "@spider": "usps_collection_boxes", "addr:city": "OAK BLUFFS", "addr:country": "US", "addr:postcode": "02557", "addr:state": "MA", "addr:street_address": "24E KENNEBEC AVE", "amenity": "post_box", "collection_times": "Mo-Sa 15:00", "note": "ON 12/24 AND 12/31, THIS BOX MAY BE COLLECTED AS EARLY AS 12 NOON.", "nsi_id": "unitedstatespostalservice-a77078", "operator": "United States Postal Service", "operator:short": "USPS", "operator:type": "public", "operator:wikidata": "Q668687", "ref": "0255700002"}, "type": "Feature"}
{"geometry": {"coordinates": [-70.557449, 41.456153], "type": "Point"}, "id": "YwwFLic3SGLNNHyu_aAjqev2CsQ=", "properties": {"@source_uri": "https://tools.usps.com/UspsToolsRestServices/rest/POLocator/findLocations", "@spider": "usps_collection_boxes", "addr:city": "OAK BLUFFS", "addr:country": "US", "addr:postcode": "02557", "addr:state": "MA", "addr:street_address": "24E KENNEBEC AVE", "amenity": "post_box", "collection_times": "Mo-Sa 15:30", "indoor": "yes", "note": "ON 12/24 AND 12/31, THIS BOX MAY BE COLLECTED AS EARLY AS 12 NOON.", "nsi_id": "unitedstatespostalservice-a77078", "operator": "United States Postal Service", "operator:short": "USPS", "operator:type": "public", "operator:wikidata": "Q668687", "ref": "0255700003"}, "type": "Feature"}
{"geometry": {"coordinates": [-70.557449, 41.456153], "type": "Point"}, "id": "Uo1h1MGxJIzZFPBykvhoAAXAa5Q=", "properties": {"@source_uri": "https://tools.usps.com/UspsToolsRestServices/rest/POLocator/findLocations", "@spider": "usps_collection_boxes", "addr:city": "OAK BLUFFS", "addr:country": "US", "addr:postcode": "02557", "addr:state": "MA", "addr:street_address": "24E KENNEBEC AVE", "amenity": "post_box", "collection_times": "Mo-Sa 15:30", "indoor": "yes", "note": "ON 12/24 AND 12/31, THIS BOX MAY BE COLLECTED AS EARLY AS 12 NOON.", "nsi_id": "unitedstatespostalservice-a77078", "operator": "United States Postal Service", "operator:short": "USPS", "operator:type": "public", "operator:wikidata": "Q668687", "ref": "0255700004"}, "type": "Feature"}
{"geometry": {"coordinates": [-70.660737203, 41.7429579503], "type": "Point"}, "id": "YVifJJsWi4n8Kh2sIRs7j87Hu0U=", "properties": {"@source_uri": "https://tools.usps.com/UspsToolsRestServices/rest/POLocator/findLocations", "@spider": "usps_collection_boxes", "addr:city": "ONSET", "addr:country": "US", "addr:postcode": "02558", "addr:state": "MA", "addr:street_address": "214 ONSET AVE", "amenity": "post_box", "collection_times": "Mo-Fr 15:00; Sa 09:00", "note": "ON 12/24 AND 12/31, THIS BOX MAY BE COLLECTED AS EARLY AS 12 NOON.", "nsi_id": "unitedstatespostalservice-a77078", "operator": "United States Postal Service", "operator:short": "USPS", "operator:type": "public", "operator:wikidata": "Q668687", "ref": "0255800002"}, "type": "Feature"}
{"geometry": {"coordinates": [-70.660707, 41.742982], "type": "Point"}, "id": "KAIcBdsQQYKeDlV1BE-znomohw8=", "properties": {"@source_uri": "https://tools.usps.com/UspsToolsRestServices/rest/POLocator/findLocations", "@spider": "usps_collection_boxes", "addr:city": "ONSET", "addr:country": "US", "addr:postcode": "02558", "addr:state": "MA", "addr:street_address": "214 ONSET AVE", "amenity": "post_box", "collection_times": "Mo-Fr 16:30; Sa 12:00", "indoor": "yes", "note": "ON 12/24 AND 12/31, THIS BOX MAY BE COLLECTED AS EARLY AS 12 NOON.", "nsi_id": "unitedstatespostalservice-a77078", "operator": "United States Postal Service", "operator:short": "USPS", "operator:type": "public", "operator:wikidata": "Q668687", "ref": "0255800005"}, "type": "Feature"}
{"geometry": {"coordinates": [-70.613498, 41.694052], "type": "Point"}, "id": "lEJCAvos1KBaDkXN7sU4HpuSy20=", "properties": {"@source_uri": "https://tools.usps.com/UspsToolsRestServices/rest/POLocator/findLocations", "@spider": "usps_collection_boxes", "addr:city": "POCASSET", "addr:country": "US", "addr:postcode": "02559", "addr:state": "MA", "addr:street_address": "301 BARLOWS LANDING RD", "amenity": "post_box", "collection_times": "Mo-Fr 16:30; Sa 14:00", "note": "ON 12/24 AND 12/31, THIS BOX MAY BE COLLECTED AS EARLY AS 12 NOON.", "nsi_id": "unitedstatespostalservice-a77078", "operator": "United States Postal Service", "operator:short": "USPS", "operator:type": "public", "operator:wikidata": "Q668687", "ref": "0255900001"}, "type": "Feature"}
{"geometry": {"coordinates": [-70.613413, 41.694096], "type": "Point"}, "id": "wX6SE5uC9M3Sx-Z6hcExjGwduB8=", "properties": {"@source_uri": "https://tools.usps.com/UspsToolsRestServices/rest/POLocator/findLocations", "@spider": "usps_collection_boxes", "addr:city": "POCASSET", "addr:country": "US", "addr:postcode": "02559", "addr:state": "MA", "addr:street_address": "301 BARLOWS LANDING RD", "amenity": "post_box", "collection_times": "Mo-Fr 16:30; Sa 14:00", "indoor": "yes", "note": "ON 12/24 AND 12/31, THIS BOX MAY BE COLLECTED AS EARLY AS 12 NOON.", "nsi_id": "unitedstatespostalservice-a77078", "operator": "United States Postal Service", "operator:short": "USPS", "operator:type": "public", "operator:wikidata": "Q668687", "ref": "0255900005"}, "type": "Feature"}
{"geometry": {"coordinates": [-70.523027, 41.768034], "type": "Point"}, "id": "0oWc_deYjWijXkU2Pvnuz4zrjEI=", "properties": {"@source_uri": "https://tools.usps.com/UspsToolsRestServices/rest/POLocator/findLocations", "@spider": "usps_collection_boxes", "addr:city": "SAGAMORE", "addr:country": "US", "addr:postcode": "02561", "addr:state": "MA", "addr:street_address": "883 SANDWICH RD", "amenity": "post_box", "collection_times": "Mo-Fr 16:30; Sa 11:30", "note": "ON 12/24 AND 12/31, THIS BOX MAY BE COLLECTED AS EARLY AS 12 NOON.", "nsi_id": "unitedstatespostalservice-a77078", "operator": "United States Postal Service", "operator:short": "USPS", "operator:type": "public", "operator:wikidata": "Q668687", "ref": "0256100002"}, "type": "Feature"}
{"geometry": {"coordinates": [-70.523027, 41.768034], "type": "Point"}, "id": "oS1RthkiSE2Vg9E2nJn4gtANp7w=", "properties": {"@source_uri": "https://tools.usps.com/UspsToolsRestServices/rest/POLocator/findLocations", "@spider": "usps_collection_boxes", "addr:city": "SAGAMORE", "addr:country": "US", "addr:postcode": "02561", "addr:state": "MA", "addr:street_address": "883 SANDWICH RD", "amenity": "post_box", "collection_times": "Mo-Fr 16:30; Sa 11:30", "indoor": "yes", "note": "ON 12/24 AND 12/31, THIS BOX MAY BE COLLECTED AS EARLY AS 12 NOON.", "nsi_id": "unitedstatespostalservice-a77078", "operator": "United States Postal Service", "operator:short": "USPS", "operator:type": "public", "operator:wikidata": "Q668687", "ref": "0256100004"}, "type": "Feature"}
{"geometry": {"coordinates": [-70.538243, 41.781685], "type": "Point"}, "id": "HT0C56odEf9ou_WI2drQMTC07x4=", "properties": {"@source_uri": "https://tools.usps.com/UspsToolsRestServices/rest/POLocator/findLocations", "@spider": "usps_collection_boxes", "addr:city": "SAGAMORE BEACH", "addr:country": "US", "addr:postcode": "02562", "addr:state": "MA", "addr:street_address": "45 MEETINGHOUSE LN", "amenity": "post_box", "collection_times": "Mo-Fr 17:00; Sa 12:00", "indoor": "yes", "note": "ON 12/24 AND 12/31, THIS BOX MAY BE COLLECTED AS EARLY AS 12 NOON.", "nsi_id": "unitedstatespostalservice-a77078", "operator": "United States Postal Service", "operator:short": "USPS", "operator:type": "public", "operator:wikidata": "Q668687", "ref": "0256200000"}, "type": "Feature"}
{"geometry": {"coordinates": [-70.538262, 41.781662], "type": "Point"}, "id": "DjVSmoz5-Sh5cNK6_NoZir2q9u8=", "properties": {"@source_uri": "https://tools.usps.com/UspsToolsRestServices/rest/POLocator/findLocations", "@spider": "usps_collection_boxes", "addr:city": "SAGAMORE BEACH", "addr:country": "US", "addr:postcode": "02562", "addr:state": "MA", "addr:street_address": "45 MEETINGHOUSE LN", "amenity": "post_box", "collection_times": "Mo-Fr 17:00; Sa 12:00", "note": "ON 12/24 AND 12/31, THIS BOX MAY BE COLLECTED AS EARLY AS 12 NOON.", "nsi_id": "unitedstatespostalservice-a77078", "operator": "United States Postal Service", "operator:short": "USPS", "operator:type": "public", "operator:wikidata": "Q668687", "ref": "0256200009"}, "type": "Feature"}
{"geometry": {"coordinates": [-70.5068366, 41.765627], "type": "Point"}, "id": "gDD5qQmECFNO6OMfuiesyPgAjt4=", "properties": {"@source_uri": "https://tools.usps.com/UspsToolsRestServices/rest/POLocator/findLocations", "@spider": "usps_collection_boxes", "addr:city": "SANDWICH", "addr:country": "US", "addr:postcode": "02563", "addr:state": "MA", "addr:street_address": "69 ROUTE 6A", "amenity": "post_box", "collection_times": "Mo-Fr 17:00; Sa 13:00", "indoor": "yes", "note": "ON 12/24 AND 12/31, THIS BOX MAY BE COLLECTED AS EARLY AS 12 NOON.", "nsi_id": "unitedstatespostalservice-a77078", "operator": "United States Postal Service", "operator:short": "USPS", "operator:type": "public", "operator:wikidata": "Q668687", "ref": "0256300004"}, "type": "Feature"}
{"geometry": {"coordinates": [-70.5068405, 41.765633], "type": "Point"}, "id": "bEElZA26xKgIDZ0kiqmrYJA-Gfk=", "properties": {"@source_uri": "https://tools.usps.com/UspsToolsRestServices/rest/POLocator/findLocations", "@spider": "usps_collection_boxes", "addr:city": "SANDWICH", "addr:country": "US", "addr:postcode": "02563", "addr:state": "MA", "addr:street_address": "69 ROUTE 6A", "amenity": "post_box", "collection_times": "Mo-Fr 17:00; Sa 13:00", "indoor": "yes", "note": "ON 12/24 AND 12/31, THIS BOX MAY BE COLLECTED AS EARLY AS 12 NOON.", "nsi_id": "unitedstatespostalservice-a77078", "operator": "United States Postal Service", "operator:short": "USPS", "operator:type": "public", "operator:wikidata": "Q668687", "ref": "0256300005"}, "type": "Feature"}
{"geometry": {"coordinates": [-70.4875755, 41.709011], "type": "Point"}, "id": "X0KIqWX83zf7Ms6gl4QF6eNJHTQ=", "properties": {"@source_uri": "https://tools.usps.com/UspsToolsRestServices/rest/POLocator/findLocations", "@spider": "usps_collection_boxes", "addr:city": "SANDWICH", "addr:country": "US", "addr:postcode": "02563", "addr:state": "MA", "addr:street_address": "331 COTUIT RD", "amenity": "post_box", "collection_times": "Mo-Sa 09:00", "nsi_id": "unitedstatespostalservice-a77078", "operator": "United States Postal Service", "operator:short": "USPS", "operator:type": "public", "operator:wikidata": "Q668687", "ref": "0256300007"}, "type": "Feature"}
{"geometry": {"coordinates": [-70.4854895, 41.701415], "type": "Point"}, "id": "TbElrevG1BNSWUMzsu4GVJybdhE=", "properties": {"@source_uri": "https://tools.usps.com/UspsToolsRestServices/rest/POLocator/findLocations", "@spider": "usps_collection_boxes", "addr:city": "SANDWICH", "addr:country": "US", "addr:postcode": "02563", "addr:state": "MA", "addr:street_address": "61 QUAKER MEETING HOUSE RD", "amenity": "post_box", "collection_times": "Mo-Sa 13:00", "note": "ON 12/24 AND 12/31, THIS BOX MAY BE COLLECTED AS EARLY AS 12 NOON.", "nsi_id": "unitedstatespostalservice-a77078", "operator": "United States Postal Service", "operator:short": "USPS", "operator:type": "public", "operator:wikidata": "Q668687", "ref": "0256300009"}, "type": "Feature"}
{"geometry": {"coordinates": [-70.4919472, 41.733961], "type": "Point"}, "id": "vmeelttcN5nQDXAWjTLZvcXx-TA=", "properties": {"@source_uri": "https://tools.usps.com/UspsToolsRestServices/rest/POLocator/findLocations", "@spider": "usps_collection_boxes", "addr:city": "SANDWICH", "addr:country": "US", "addr:postcode": "02563", "addr:state": "MA", "addr:street_address": "441 ROUTE 130", "amenity": "post_box", "collection_times": "Mo-Sa 09:00", "nsi_id": "unitedstatespostalservice-a77078", "operator": "United States Postal Service", "operator:short": "USPS", "operator:type": "public", "operator:wikidata": "Q668687", "ref": "0256300012"}, "type": "Feature"}
{"geometry": {"coordinates": [-70.4983588, 41.758436], "type": "Point"}, "id": "EVBV8yilwrPmbw_psikHZFu21oE=", "properties": {"@source_uri": "https://tools.usps.com/UspsToolsRestServices/rest/POLocator/findLocations", "@spider": "usps_collection_boxes", "addr:city": "SANDWICH", "addr:country": "US", "addr:postcode": "02563", "addr:state": "MA", "addr:street_address": "145 MAIN ST", "amenity": "post_box", "collection_times": "Mo-Sa 09:00", "nsi_id": "unitedstatespostalservice-a77078", "operator": "United States Postal Service", "operator:short": "USPS", "operator:type": "public", "operator:wikidata": "Q668687", "ref": "0256300013"}, "type": "Feature"}
{"geometry": {"coordinates": [-70.5068404, 41.765639], "type": "Point"}, "id": "8gE43OtNKmi5mpCyXyx7tObcWS4=", "properties": {"@source_uri": "https://tools.usps.com/UspsToolsRestServices/rest/POLocator/findLocations", "@spider": "usps_collection_boxes", "addr:city": "SANDWICH", "addr:country": "US", "addr:postcode": "02563", "addr:state": "MA", "addr:street_address": "69 ROUTE 6A", "amenity": "post_box", "collection_times": "Mo-Fr 17:00; Sa 13:00", "indoor": "yes", "note": "ON 12/24 AND 12/31, THIS BOX MAY BE COLLECTED AS EARLY AS 12 NOON.", "nsi_id": "unitedstatespostalservice-a77078", "operator": "United States Postal Service", "operator:short": "USPS", "operator:type": "public", "operator:wikidata": "Q668687", "ref": "0256300015"}, "type": "Feature"}
{"geometry": {"coordinates": [-70.5068236, 41.765632], "type": "Point"}, "id": "60NWv5fjQC2kPAPqzicT774eBeU=", "properties": {"@source_uri": "https://tools.usps.com/UspsToolsRestServices/rest/POLocator/findLocations", "@spider": "usps_collection_boxes", "addr:city": "SANDWICH", "addr:country": "US", "addr:postcode": "02563", "addr:state": "MA", "addr:street_address": "69 ROUTE 6A", "amenity": "post_box", "collection_times": "Mo-Fr 17:00; Sa 13:00", "indoor": "yes", "note": "ON 12/24 AND 12/31, THIS BOX MAY BE COLLECTED AS EARLY AS 12 NOON.", "nsi_id": "unitedstatespostalservice-a77078", "operator": "United States Postal Service", "operator:short": "USPS", "operator:type": "public", "operator:wikidata": "Q668687", "ref": "0256300016"}, "type": "Feature"}
{"geometry": {"coordinates": [-70.5062683, 41.765842], "type": "Point"}, "id": "R6weXOyZWI-D5RvJ1IoqC3qjCjk=", "properties": {"@source_uri": "https://tools.usps.com/UspsToolsRestServices/rest/POLocator/findLocations", "@spider": "usps_collection_boxes", "addr:city": "SANDWICH", "addr:country": "US", "addr:postcode": "02563", "addr:state": "MA", "addr:street_address": "69 ROUTE 6A", "amenity": "post_box", "collection_times": "Mo-Fr 17:00; Sa 13:00", "note": "ON 12/24 AND 12/31, THIS BOX MAY BE COLLECTED AS EARLY AS 12 NOON.", "nsi_id": "unitedstatespostalservice-a77078", "operator": "United States Postal Service", "operator:short": "USPS", "operator:type": "public", "operator:wikidata": "Q668687", "ref": "0256300017"}, "type": "Feature"}
{"geometry": {"coordinates": [-69.964522, 41.262111], "type": "Point"}, "id": "EkWASnybcmnIuKGogd2jvPoyi7s=", "properties": {"@source_uri": "https://tools.usps.com/UspsToolsRestServices/rest/POLocator/findLocations", "@spider": "usps_collection_boxes", "addr:city": "NANTUCKET", "addr:country": "US", "addr:postcode": "02564", "addr:state": "MA", "addr:street_address": "6 MAIN ST", "amenity": "post_box", "collection_times": "Mo-Sa 09:00", "nsi_id": "unitedstatespostalservice-a77078", "operator": "United States Postal Service", "operator:short": "USPS", "operator:type": "public", "operator:wikidata": "Q668687", "ref": "0256400000"}, "type": "Feature"}
{"geometry": {"coordinates": [-69.964522, 41.262111], "type": "Point"}, "id": "ROHw8TkziZEbz12hAOMvmq-4wO4=", "properties": {"@source_uri": "https://tools.usps.com/UspsToolsRestServices/rest/POLocator/findLocations", "@spider": "usps_collection_boxes", "addr:city": "NANTUCKET", "addr:country": "US", "addr:postcode": "02564", "addr:state": "MA", "addr:street_address": "6 MAIN ST", "amenity": "post_box", "collection_times": "Mo-Sa 09:00", "indoor": "yes", "nsi_id": "unitedstatespostalservice-a77078", "operator": "United States Postal Service", "operator:short": "USPS", "operator:type": "public", "operator:wikidata": "Q668687", "ref": "0256400001"}, "type": "Feature"}
{"geometry": {"coordinates": [-70.601195, 41.453879], "type": "Point"}, "id": "uVEsRQ59i9T9w3fmYIUlwErk9NA=", "properties": {"@source_uri": "https://tools.usps.com/UspsToolsRestServices/rest/POLocator/findLocations", "@spider": "usps_collection_boxes", "addr:city": "VINEYARD HAVEN", "addr:country": "US", "addr:postcode": "02568", "addr:state": "MA", "addr:street_address": "1 LAGOON POND RD", "amenity": "post_box", "collection_times": "Mo-Sa 15:30", "note": "ON 12/24 AND 12/31, THIS BOX MAY BE COLLECTED AS EARLY AS 12 NOON.", "nsi_id": "unitedstatespostalservice-a77078", "operator": "United States Postal Service", "operator:short": "USPS", "operator:type": "public", "operator:wikidata": "Q668687", "ref": "0256800002"}, "type": "Feature"}
{"geometry": {"coordinates": [-70.603014, 41.45627], "type": "Point"}, "id": "GUllUh9ENTjhvwTOU-vqcVllIXI=", "properties": {"@source_uri": "https://tools.usps.com/UspsToolsRestServices/rest/POLocator/findLocations", "@spider": "usps_collection_boxes", "addr:city": "VINEYARD HAVEN", "addr:country": "US", "addr:postcode": "02568", "addr:state": "MA", "addr:street_address": "90 MAIN ST", "amenity": "post_box", "collection_times": "Mo-Sa 14:30", "note": "ON 12/24 AND 12/31, THIS BOX MAY BE COLLECTED AS EARLY AS 12 NOON.", "nsi_id": "unitedstatespostalservice-a77078", "operator": "United States Postal Service", "operator:short": "USPS", "operator:type": "public", "operator:wikidata": "Q668687", "ref": "0256800010"}, "type": "Feature"}
{"geometry": {"coordinates": [-70.6745211, 41.381983], "type": "Point"}, "id": "NK_3FQH7x23irDP_WzWZsRVT1r0=", "properties": {"@source_uri": "https://tools.usps.com/UspsToolsRestServices/rest/POLocator/findLocations", "@spider": "usps_collection_boxes", "addr:city": "VINEYARD HAVEN", "addr:country": "US", "addr:postcode": "02568", "addr:state": "MA", "addr:street_address": "1045 STATE RD", "amenity": "post_box", "collection_times": "Mo-Sa 12:00", "nsi_id": "unitedstatespostalservice-a77078", "operator": "United States Postal Service", "operator:short": "USPS", "operator:type": "public", "operator:wikidata": "Q668687", "ref": "0256800012"}, "type": "Feature"}
{"geometry": {"coordinates": [-70.6156617, 41.4477], "type": "Point"}, "id": "P0YHqhrEq0qcfwYPkblVIXC0SNQ=", "properties": {"@source_uri": "https://tools.usps.com/UspsToolsRestServices/rest/POLocator/findLocations", "@spider": "usps_collection_boxes", "addr:city": "VINEYARD HAVEN", "addr:country": "US", "addr:postcode": "02568", "addr:state": "MA", "addr:street_address": "379 STATE RD", "amenity": "post_box", "collection_times": "Mo-Sa 11:00", "nsi_id": "unitedstatespostalservice-a77078", "operator": "United States Postal Service", "operator:short": "USPS", "operator:type": "public", "operator:wikidata": "Q668687", "ref": "0256800013"}, "type": "Feature"}
{"geometry": {"coordinates": [-70.56791, 41.46318], "type": "Point"}, "id": "XiYXskQT_Y7v4hv9rHKV8AVJ4ho=", "properties": {"@source_uri": "https://tools.usps.com/UspsToolsRestServices/rest/POLocator/findLocations", "@spider": "usps_collection_boxes", "addr:city": "VINEYARD HAVEN", "addr:country": "US", "addr:postcode": "02568", "addr:state": "MA", "addr:street_address": "10 AIRPORT RD", "amenity": "post_box", "collection_times": "Mo-Sa 12:00", "nsi_id": "unitedstatespostalservice-a77078", "operator": "United States Postal Service", "operator:short": "USPS", "operator:type": "public", "operator:wikidata": "Q668687", "ref": "0256800014"}, "type": "Feature"}
{"geometry": {"coordinates": [-70.6091856, 41.439454], "type": "Point"}, "id": "fHt4fHn2Cp0WKazyFsg454PqzUA=", "properties": {"@source_uri": "https://tools.usps.com/UspsToolsRestServices/rest/POLocator/findLocations", "@spider": "usps_collection_boxes", "addr:city": "VINEYARD HAVEN", "addr:country": "US", "addr:postcode": "02568", "addr:state": "MA", "addr:street_address": "421 VINEYARD HAVEN-EDGARTOWN RD", "amenity": "post_box", "collection_times": "Mo-Sa 10:00", "nsi_id": "unitedstatespostalservice-a77078", "operator": "United States Postal Service", "operator:short": "USPS", "operator:type": "public", "operator:wikidata": "Q668687", "ref": "0256800015"}, "type": "Feature"}
{"geometry": {"coordinates": [-70.601332, 41.455385], "type": "Point"}, "id": "oVz8ipf2sX5kj13MhINxNc5WmIo=", "properties": {"@source_uri": "https://tools.usps.com/UspsToolsRestServices/rest/POLocator/findLocations", "@spider": "usps_collection_boxes", "addr:city": "VINEYARD HAVEN", "addr:country": "US", "addr:postcode": "02568", "addr:state": "MA", "addr:street_address": "1 WATER ST", "amenity": "post_box", "collection_times": "Mo-Sa 14:30", "note": "ON 12/24 AND 12/31, THIS BOX MAY BE COLLECTED AS EARLY AS 12 NOON.", "nsi_id": "unitedstatespostalservice-a77078", "operator": "United States Postal Service", "operator:short": "USPS", "operator:type": "public", "operator:wikidata": "Q668687", "ref": "0256800017"}, "type": "Feature"}
{"geometry": {"coordinates": [-70.601195, 41.453879], "type": "Point"}, "id": "4NsTvptagEZXFzs4eTPL1EvsYcc=", "properties": {"@source_uri": "https://tools.usps.com/UspsToolsRestServices/rest/POLocator/findLocations", "@spider": "usps_collection_boxes", "addr:city": "VINEYARD HAVEN", "addr:country": "US", "addr:postcode": "02568", "addr:state": "MA", "addr:street_address": "1 LAGOON POND RD", "amenity": "post_box", "collection_times": "Mo-Fr 15:30; Sa 15:15", "indoor": "yes", "note": "ON 12/24 AND 12/31, THIS BOX MAY BE COLLECTED AS EARLY AS 12 NOON.", "nsi_id": "unitedstatespostalservice-a77078", "operator": "United States Postal Service", "operator:short": "USPS", "operator:type": "public", "operator:wikidata": "Q668687", "ref": "0256800018"}, "type": "Feature"}
{"geometry": {"coordinates": [-70.603304, 41.453724], "type": "Point"}, "id": "mS-SqbNbW-hXxk8s9FsW5nNk3hQ=", "properties": {"@source_uri": "https://tools.usps.com/UspsToolsRestServices/rest/POLocator/findLocations", "@spider": "usps_collection_boxes", "addr:city": "VINEYARD HAVEN", "addr:country": "US", "addr:postcode": "02568", "addr:state": "MA", "addr:street_address": "4 MAIN ST", "amenity": "post_box", "collection_times": "Mo-Sa 14:30", "note": "ON 12/24 AND 12/31, THIS BOX MAY BE COLLECTED AS EARLY AS 12 NOON.", "nsi_id": "unitedstatespostalservice-a77078", "operator": "United States Postal Service", "operator:short": "USPS", "operator:type": "public", "operator:wikidata": "Q668687", "ref": "0256800019"}, "type": "Feature"}
{"geometry": {"coordinates": [-70.6092011, 41.443795], "type": "Point"}, "id": "X0x_-ZGcI3DZcm0bNE6BAlXCcCM=", "properties": {"@source_uri": "https://tools.usps.com/UspsToolsRestServices/rest/POLocator/findLocations", "@spider": "usps_collection_boxes", "addr:city": "VINEYARD HAVEN", "addr:country": "US", "addr:postcode": "02568", "addr:state": "MA", "addr:street_address": "253 EDGARTOWN RD", "amenity": "post_box", "collection_times": "Mo-Sa 10:00", "nsi_id": "unitedstatespostalservice-a77078", "operator": "United States Postal Service", "operator:short": "USPS", "operator:type": "public", "operator:wikidata": "Q668687", "ref": "0256800020"}, "type": "Feature"}
{"geometry": {"coordinates": [-70.7169089237, 41.7587875909], "type": "Point"}, "id": "EfYF1xFSJI8-53Jpg_TlaS7UxXg=", "properties": {"@source_uri": "https://tools.usps.com/UspsToolsRestServices/rest/POLocator/findLocations", "@spider": "usps_collection_boxes", "addr:city": "WAREHAM", "addr:country": "US", "addr:postcode": "02571", "addr:state": "MA", "addr:street_address": "248 MAIN ST", "amenity": "post_box", "collection_times": "Mo-Sa 12:00", "nsi_id": "unitedstatespostalservice-a77078", "operator": "United States Postal Service", "operator:short": "USPS", "operator:type": "public", "operator:wikidata": "Q668687", "ref": "0257100001"}, "type": "Feature"}
{"geometry": {"coordinates": [-70.716321, 41.758968], "type": "Point"}, "id": "PmoW9hq9uQJ-Twm_TOUQwSE8J2s=", "properties": {"@source_uri": "https://tools.usps.com/UspsToolsRestServices/rest/POLocator/findLocations", "@spider": "usps_collection_boxes", "addr:city": "WAREHAM", "addr:country": "US", "addr:postcode": "02571", "addr:state": "MA", "addr:street_address": "248 MAIN ST", "amenity": "post_box", "collection_times": "Mo-Fr 16:30; Sa 14:00", "indoor": "yes", "note": "ON 12/24 AND 12/31, THIS BOX MAY BE COLLECTED AS EARLY AS 12 NOON.", "nsi_id": "unitedstatespostalservice-a77078", "operator": "United States Postal Service", "operator:short": "USPS", "operator:type": "public", "operator:wikidata": "Q668687", "ref": "0257100003"}, "type": "Feature"}
{"geometry": {"coordinates": [-70.716321, 41.758968], "type": "Point"}, "id": "SDsAMEOLEuwERXt6nMnhIz1VKqo=", "properties": {"@source_uri": "https://tools.usps.com/UspsToolsRestServices/rest/POLocator/findLocations", "@spider": "usps_collection_boxes", "addr:city": "WAREHAM", "addr:country": "US", "addr:postcode": "02571", "addr:state": "MA", "addr:street_address": "248 MAIN ST", "amenity": "post_box", "collection_times": "Mo-Fr 16:30; Sa 14:00", "indoor": "yes", "note": "ON 12/24 AND 12/31, THIS BOX MAY BE COLLECTED AS EARLY AS 12 NOON.", "nsi_id": "unitedstatespostalservice-a77078", "operator": "United States Postal Service", "operator:short": "USPS", "operator:type": "public", "operator:wikidata": "Q668687", "ref": "0257100004"}, "type": "Feature"}
{"geometry": {"coordinates": [-70.716321, 41.758968], "type": "Point"}, "id": "fy41u83gRWda-0UY7p8t5Nv32RA=", "properties": {"@source_uri": "https://tools.usps.com/UspsToolsRestServices/rest/POLocator/findLocations", "@spider": "usps_collection_boxes", "addr:city": "WAREHAM", "addr:country": "US", "addr:postcode": "02571", "addr:state": "MA", "addr:street_address": "248 MAIN ST", "amenity": "post_box", "collection_times": "Mo-Fr 16:30; Sa 14:00", "indoor": "yes", "note": "ON 12/24 AND 12/31, THIS BOX MAY BE COLLECTED AS EARLY AS 12 NOON.", "nsi_id": "unitedstatespostalservice-a77078", "operator": "United States Postal Service", "operator:short": "USPS", "operator:type": "public", "operator:wikidata": "Q668687", "ref": "0257100005"}, "type": "Feature"}
{"geometry": {"coordinates": [-70.7155007, 41.758144], "type": "Point"}, "id": "HFv_fSZiJ4N2FiVmo9gaesNOjMU=", "properties": {"@source_uri": "https://tools.usps.com/UspsToolsRestServices/rest/POLocator/findLocations", "@spider": "usps_collection_boxes", "addr:city": "WAREHAM", "addr:country": "US", "addr:postcode": "02571", "addr:state": "MA", "addr:street_address": "218 MAIN ST", "amenity": "post_box", "collection_times": "Mo-Sa 09:00", "nsi_id": "unitedstatespostalservice-a77078", "operator": "United States Postal Service", "operator:short": "USPS", "operator:type": "public", "operator:wikidata": "Q668687", "ref": "0257100010"}, "type": "Feature"}
{"geometry": {"coordinates": [-70.7206985, 41.762676], "type": "Point"}, "id": "2aoHbUtW5NetvJXh76DQfqKKmF0=", "properties": {"@source_uri": "https://tools.usps.com/UspsToolsRestServices/rest/POLocator/findLocations", "@spider": "usps_collection_boxes", "addr:city": "WAREHAM", "addr:country": "US", "addr:postcode": "02571", "addr:state": "MA", "addr:street_address": "419 MAIN ST", "amenity": "post_box", "collection_times": "Mo-Sa 09:00", "nsi_id": "unitedstatespostalservice-a77078", "operator": "United States Postal Service", "operator:short": "USPS", "operator:type": "public", "operator:wikidata": "Q668687", "ref": "0257100011"}, "type": "Feature"}
{"geometry": {"coordinates": [-70.7281699, 41.759667], "type": "Point"}, "id": "-N7terrgU6n2Huhaxp9xxJgdaQU=", "properties": {"@source_uri": "https://tools.usps.com/UspsToolsRestServices/rest/POLocator/findLocations", "@spider": "usps_collection_boxes", "addr:city": "WAREHAM", "addr:country": "US", "addr:postcode": "02571", "addr:state": "MA", "addr:street_address": "121 MARION RD", "amenity": "post_box", "collection_times": "Mo-Sa 09:00", "nsi_id": "unitedstatespostalservice-a77078", "operator": "United States Postal Service", "operator:short": "USPS", "operator:type": "public", "operator:wikidata": "Q668687", "ref": "0257100015"}, "type": "Feature"}
{"geometry": {"coordinates": [-70.7322102556, 41.7548699313], "type": "Point"}, "id": "LNopTnDjbQE0npjl9nWaT79bFsI=", "properties": {"@source_uri": "https://tools.usps.com/UspsToolsRestServices/rest/POLocator/findLocations", "@spider": "usps_collection_boxes", "addr:city": "WAREHAM", "addr:country": "US", "addr:postcode": "02571", "addr:state": "MA", "addr:street_address": "204 MARION RD", "amenity": "post_box", "collection_times": "Mo-Sa 09:00", "nsi_id": "unitedstatespostalservice-a77078", "operator": "United States Postal Service", "operator:short": "USPS", "operator:type": "public", "operator:wikidata": "Q668687", "ref": "0257100016"}, "type": "Feature"}
{"geometry": {"coordinates": [-70.7406639, 41.779612], "type": "Point"}, "id": "c29NFF-8fgD89K4oOJEEvxDE3mE=", "properties": {"@source_uri": "https://tools.usps.com/UspsToolsRestServices/rest/POLocator/findLocations", "@spider": "usps_collection_boxes", "addr:city": "WAREHAM", "addr:country": "US", "addr:postcode": "02571", "addr:state": "MA", "addr:street_address": "2 KENDRICK RD", "amenity": "post_box", "collection_times": "Mo-Sa 09:00", "nsi_id": "unitedstatespostalservice-a77078", "operator": "United States Postal Service", "operator:short": "USPS", "operator:type": "public", "operator:wikidata": "Q668687", "ref": "0257100020"}, "type": "Feature"}
{"geometry": {"coordinates": [-70.7468614, 41.777476], "type": "Point"}, "id": "9ZJWdNhcer2djq0hJx9nj_8pOps=", "properties": {"@source_uri": "https://tools.usps.com/UspsToolsRestServices/rest/POLocator/findLocations", "@spider": "usps_collection_boxes", "addr:city": "WAREHAM", "addr:country": "US", "addr:postcode": "02571", "addr:state": "MA", "addr:street_address": "25 TOBEY RD", "amenity": "post_box", "collection_times": "Mo-Sa 17:30", "note": "ON 12/24 AND 12/31, THIS BOX MAY BE COLLECTED AS EARLY AS 12 NOON.", "nsi_id": "unitedstatespostalservice-a77078", "operator": "United States Postal Service", "operator:short": "USPS", "operator:type": "public", "operator:wikidata": "Q668687", "ref": "0257100027"}, "type": "Feature"}
{"geometry": {"coordinates": [-70.635702, 41.592431], "type": "Point"}, "id": "dRTEZmS5IPfHM3f0pCDLpWe-gyA=", "properties": {"@source_uri": "https://tools.usps.com/UspsToolsRestServices/rest/POLocator/findLocations", "@spider": "usps_collection_boxes", "addr:city": "WEST FALMOUTH", "addr:country": "US", "addr:postcode": "02574", "addr:state": "MA", "addr:street_address": "410 W FALMOUTH HWY", "amenity": "post_box", "collection_times": "Mo-Fr 16:45; Sa 12:00", "note": "ON 12/24 AND 12/31, THIS BOX MAY BE COLLECTED AS EARLY AS 12 NOON.", "nsi_id": "unitedstatespostalservice-a77078", "operator": "United States Postal Service", "operator:short": "USPS", "operator:type": "public", "operator:wikidata": "Q668687", "ref": "0257400001"}, "type": "Feature"}
{"geometry": {"coordinates": [-70.635702, 41.592431], "type": "Point"}, "id": "xFi7m-LFa9dDHSinTg_MQmPKRIU=", "properties": {"@source_uri": "https://tools.usps.com/UspsToolsRestServices/rest/POLocator/findLocations", "@spider": "usps_collection_boxes", "addr:city": "WEST FALMOUTH", "addr:country": "US", "addr:postcode": "02574", "addr:state": "MA", "addr:street_address": "410 W FALMOUTH HWY", "amenity": "post_box", "collection_times": "Mo-Fr 16:45; Sa 12:00", "indoor": "yes", "note": "ON 12/24 AND 12/31, THIS BOX MAY BE COLLECTED AS EARLY AS 12 NOON.", "nsi_id": "unitedstatespostalservice-a77078", "operator": "United States Postal Service", "operator:short": "USPS", "operator:type": "public", "operator:wikidata": "Q668687", "ref": "0257400003"}, "type": "Feature"}
{"geometry": {"coordinates": [-70.635702, 41.592431], "type": "Point"}, "id": "yXVCw1URxd4cBpITdLobMn4i0V0=", "properties": {"@source_uri": "https://tools.usps.com/UspsToolsRestServices/rest/POLocator/findLocations", "@spider": "usps_collection_boxes", "addr:city": "WEST FALMOUTH", "addr:country": "US", "addr:postcode": "02574", "addr:state": "MA", "addr:street_address": "410 W FALMOUTH HWY", "amenity": "post_box", "collection_times": "Mo-Fr 16:45; Sa 12:00", "indoor": "yes", "note": "ON 12/24 AND 12/31, THIS BOX MAY BE COLLECTED AS EARLY AS 12 NOON.", "nsi_id": "unitedstatespostalservice-a77078", "operator": "United States Postal Service", "operator:short": "USPS", "operator:type": "public", "operator:wikidata": "Q668687", "ref": "0257400004"}, "type": "Feature"}
{"geometry": {"coordinates": [-70.667366, 41.416464], "type": "Point"}, "id": "E14NAdCLYCrySO9io3Xe8MGlhBk=", "properties": {"@source_uri": "https://tools.usps.com/UspsToolsRestServices/rest/POLocator/findLocations", "@spider": "usps_collection_boxes", "addr:city": "WEST TISBURY", "addr:country": "US", "addr:postcode": "02575", "addr:state": "MA", "addr:street_address": "479 STATE RD", "amenity": "post_box", "collection_times": "Mo-Fr 15:30; Sa 13:00", "note": "ON 12/24 AND 12/31, THIS BOX MAY BE COLLECTED AS EARLY AS 12 NOON.", "nsi_id": "unitedstatespostalservice-a77078", "operator": "United States Postal Service", "operator:short": "USPS", "operator:type": "public", "operator:wikidata": "Q668687", "ref": "0257500001"}, "type": "Feature"}
{"geometry": {"coordinates": [-70.667312, 41.416487], "type": "Point"}, "id": "lxLs5hLesQw5hq4KU87WlFuq0cQ=", "properties": {"@source_uri": "https://tools.usps.com/UspsToolsRestServices/rest/POLocator/findLocations", "@spider": "usps_collection_boxes", "addr:city": "WEST TISBURY", "addr:country": "US", "addr:postcode": "02575", "addr:state": "MA", "addr:street_address": "479 STATE RD", "amenity": "post_box", "collection_times": "Mo-Fr 15:30; Sa 13:00", "indoor": "yes", "note": "ON 12/24 AND 12/31, THIS BOX MAY BE COLLECTED AS EARLY AS 12 NOON.", "nsi_id": "unitedstatespostalservice-a77078", "operator": "United States Postal Service", "operator:short": "USPS", "operator:type": "public", "operator:wikidata": "Q668687", "ref": "0257500003"}, "type": "Feature"}
{"geometry": {"coordinates": [-70.667312, 41.416487], "type": "Point"}, "id": "6_rDKCACV8s-fOtanu0henl-Rig=", "properties": {"@source_uri": "https://tools.usps.com/UspsToolsRestServices/rest/POLocator/findLocations", "@spider": "usps_collection_boxes", "addr:city": "WEST TISBURY", "addr:country": "US", "addr:postcode": "02575", "addr:state": "MA", "addr:street_address": "479 STATE RD", "amenity": "post_box", "collection_times": "Mo-Fr 15:30; Sa 13:00", "indoor": "yes", "note": "ON 12/24 AND 12/31, THIS BOX MAY BE COLLECTED AS EARLY AS 12 NOON.", "nsi_id": "unitedstatespostalservice-a77078", "operator": "United States Postal Service", "operator:short": "USPS", "operator:type": "public", "operator:wikidata": "Q668687", "ref": "0257500004"}, "type": "Feature"}
{"geometry": {"coordinates": [-70.667312, 41.416487], "type": "Point"}, "id": "dQBpfqHjljDt1YayQGLtBeBaJ6g=", "properties": {"@source_uri": "https://tools.usps.com/UspsToolsRestServices/rest/POLocator/findLocations", "@spider": "usps_collection_boxes", "addr:city": "WEST TISBURY", "addr:country": "US", "addr:postcode": "02575", "addr:state": "MA", "addr:street_address": "479 STATE RD", "amenity": "post_box", "collection_times": "Mo-Sa 09:00", "indoor": "yes", "nsi_id": "unitedstatespostalservice-a77078", "operator": "United States Postal Service", "operator:short": "USPS", "operator:type": "public", "operator:wikidata": "Q668687", "ref": "0257500005"}, "type": "Feature"}
{"geometry": {"coordinates": [-70.751026, 41.788918], "type": "Point"}, "id": "3Szu2f6YtuwDF35tLSZ4MVB5I5w=", "properties": {"@source_uri": "https://tools.usps.com/UspsToolsRestServices/rest/POLocator/findLocations", "@spider": "usps_collection_boxes", "addr:city": "WEST WAREHAM", "addr:country": "US", "addr:postcode": "02576", "addr:state": "MA", "addr:street_address": "2360 CRANBERRY HWY", "amenity": "post_box", "collection_times": "Mo-Fr 16:45; Sa 11:45", "note": "ON 12/24 AND 12/31, THIS BOX MAY BE COLLECTED AS EARLY AS 12 NOON.", "nsi_id": "unitedstatespostalservice-a77078", "operator": "United States Postal Service", "operator:short": "USPS", "operator:type": "public", "operator:wikidata": "Q668687", "ref": "0257600002"}, "type": "Feature"}
{"geometry": {"coordinates": [-70.751026, 41.788918], "type": "Point"}, "id": "WpY4e87TVXp6C_NxJmPNmvZXPAQ=", "properties": {"@source_uri": "https://tools.usps.com/UspsToolsRestServices/rest/POLocator/findLocations", "@spider": "usps_collection_boxes", "addr:city": "WEST WAREHAM", "addr:country": "US", "addr:postcode": "02576", "addr:state": "MA", "addr:street_address": "2360 CRANBERRY HWY", "amenity": "post_box", "collection_times": "Mo-Fr 16:45; Sa 11:45", "indoor": "yes", "note": "ON 12/24 AND 12/31, THIS BOX MAY BE COLLECTED AS EARLY AS 12 NOON.", "nsi_id": "unitedstatespostalservice-a77078", "operator": "United States Postal Service", "operator:short": "USPS", "operator:type": "public", "operator:wikidata": "Q668687", "ref": "0257600003"}, "type": "Feature"}
{"geometry": {"coordinates": [-70.751026, 41.788918], "type": "Point"}, "id": "gdhSVA6kiKoLjjJ_e8oj_r-BpXA=", "properties": {"@source_uri": "https://tools.usps.com/UspsToolsRestServices/rest/POLocator/findLocations", "@spider": "usps_collection_boxes", "addr:city": "WEST WAREHAM", "addr:country": "US", "addr:postcode": "02576", "addr:state": "MA", "addr:street_address": "2360 CRANBERRY HWY", "amenity": "post_box", "collection_times": "Mo-Fr 16:45; Sa 11:45", "indoor": "yes", "note": "ON 12/24 AND 12/31, THIS BOX MAY BE COLLECTED AS EARLY AS 12 NOON.", "nsi_id": "unitedstatespostalservice-a77078", "operator": "United States Postal Service", "operator:short": "USPS", "operator:type": "public", "operator:wikidata": "Q668687", "ref": "0257600004"}, "type": "Feature"}
{"geometry": {"coordinates": [-70.091094, 41.271673], "type": "Point"}, "id": "2wphW1OSmM3k70ndIPO7YOG-GkU=", "properties": {"@source_uri": "https://tools.usps.com/UspsToolsRestServices/rest/POLocator/findLocations", "@spider": "usps_collection_boxes", "addr:city": "NANTUCKET", "addr:country": "US", "addr:postcode": "02584", "addr:state": "MA", "addr:street_address": "144 PLEASANT ST", "amenity": "post_box", "collection_times": "Mo-Fr 15:00; Sa 12:00", "indoor": "yes", "note": "ON 12/24 AND 12/31, THIS BOX MAY BE COLLECTED AS EARLY AS 12 NOON.", "nsi_id": "unitedstatespostalservice-a77078", "operator": "United States Postal Service", "operator:short": "USPS", "operator:type": "public", "operator:wikidata": "Q668687", "ref": "0258400003"}, "type": "Feature"}
{"geometry": {"coordinates": [-70.091191, 41.27171], "type": "Point"}, "id": "_Fulin0XMSw1j_ipbdzBIxqdOww=", "properties": {"@source_uri": "https://tools.usps.com/UspsToolsRestServices/rest/POLocator/findLocations", "@spider": "usps_collection_boxes", "addr:city": "NANTUCKET", "addr:country": "US", "addr:postcode": "02584", "addr:state": "MA", "addr:street_address": "144 PLEASANT ST", "amenity": "post_box", "collection_times": "Mo-Fr 15:00; Sa 12:00", "indoor": "yes", "note": "ON 12/24 AND 12/31, THIS BOX MAY BE COLLECTED AS EARLY AS 12 NOON.", "nsi_id": "unitedstatespostalservice-a77078", "operator": "United States Postal Service", "operator:short": "USPS", "operator:type": "public", "operator:wikidata": "Q668687", "ref": "0258400004"}, "type": "Feature"}
{"geometry": {"coordinates": [-70.091191, 41.27171], "type": "Point"}, "id": "aXSbahqsDjoaAXHFga2vnKKve9M=", "properties": {"@source_uri": "https://tools.usps.com/UspsToolsRestServices/rest/POLocator/findLocations", "@spider": "usps_collection_boxes", "addr:city": "NANTUCKET", "addr:country": "US", "addr:postcode": "02584", "addr:state": "MA", "addr:street_address": "144 PLEASANT ST", "amenity": "post_box", "collection_times": "Mo-Fr 15:00; Sa 12:00", "note": "ON 12/24 AND 12/31, THIS BOX MAY BE COLLECTED AS EARLY AS 12 NOON.", "nsi_id": "unitedstatespostalservice-a77078", "operator": "United States Postal Service", "operator:short": "USPS", "operator:type": "public", "operator:wikidata": "Q668687", "ref": "0258400005"}, "type": "Feature"}
{"geometry": {"coordinates": [-70.0908290983, 41.2713532029], "type": "Point"}, "id": "pnTn82EpBxPyVvU9wqkWepUzEsU=", "properties": {"@source_uri": "https://tools.usps.com/UspsToolsRestServices/rest/POLocator/findLocations", "@spider": "usps_collection_boxes", "addr:city": "NANTUCKET", "addr:country": "US", "addr:postcode": "02584", "addr:state": "MA", "addr:street_address": "144 PLEASANT ST", "amenity": "post_box", "collection_times": "Mo-Fr 15:00; Sa 12:00", "note": "ON 12/24 AND 12/31, THIS BOX MAY BE COLLECTED AS EARLY AS 12 NOON.", "nsi_id": "unitedstatespostalservice-a77078", "operator": "United States Postal Service", "operator:short": "USPS", "operator:type": "public", "operator:wikidata": "Q668687", "ref": "0258400006"}, "type": "Feature"}
