{"geometry": {"coordinates": [-70.2860699, 41.662625], "type": "Point"}, "id": "V4pCQDlPt93OMBVbqBQoFmnEEYM=", "properties": {"@source_uri": "https://tools.usps.com/UspsToolsRestServices/rest/POLocator/findLocations", "@spider": "usps_collection_boxes", "addr:city": "HYANNIS", "addr:country": "US", "addr:postcode": "02601", "addr:state": "MA", "addr:street_address": "360 BARNSTABLE RD", "amenity": "post_box", "collection_times": "Mo-Sa 12:00", "nsi_id": "unitedstatespostalservice-a77078", "operator": "United States Postal Service", "operator:short": "USPS", "operator:type": "public", "operator:wikidata": "Q668687", "ref": "0260100004"}, "type": "Feature"}
{"geometry": {"coordinates": [-70.3048219, 41.648172], "type": "Point"}, "id": "NFb88cbMHU44_FeN_ABsMv_dLEg=", "properties": {"@source_uri": "https://tools.usps.com/UspsToolsRestServices/rest/POLocator/findLocations", "@spider": "usps_collection_boxes", "addr:city": "HYANNIS", "addr:country": "US", "addr:postcode": "02601", "addr:state": "MA", "addr:street_address": "220 W MAIN ST", "amenity": "post_box", "collection_times": "Mo-Sa 10:00", "nsi_id": "unitedstatespostalservice-a77078", "operator": "United States Postal Service", "operator:short": "USPS", "operator:type": "public", "operator:wikidata": "Q668687", "ref": "0260100006"}, "type": "Feature"}
{"geometry": {"coordinates": [-70.2838014, 41.657289], "type": "Point"}, "id": "aZi6jeC9qB08G9yLe1_PSzPiQeI=", "properties": {"@source_uri": "https://tools.usps.com/UspsToolsRestServices/rest/POLocator/findLocations", "@spider": "usps_collection_boxes", "addr:city": "HYANNIS", "addr:country": "US", "addr:postcode": "02601", "addr:state": "MA", "addr:street_address": "134 CENTER ST", "amenity": "post_box", "collection_times": "Mo-Sa 12:00", "nsi_id": "unitedstatespostalservice-a77078", "operator": "United States Postal Service", "operator:short": "USPS", "operator:type": "public", "operator:wikidata": "Q668687", "ref": "0260100009"}, "type": "Feature"}
{"geometry": {"coordinates": [-70.2914294, 41.664769], "type": "Point"}, "id": "gkd-LIYSeFZh9PoWlvFuN0XrwdU=", "properties": {"@source_uri": "https://tools.usps.com/UspsToolsRestServices/rest/POLocator/findLocations", "@spider": "usps_collection_boxes", "addr:city": "HYANNIS", "addr:country": "US", "addr:postcode": "02601", "addr:state": "MA", "addr:street_address": "88 FALMOUTH RD", "amenity": "post_box", "collection_times": "Mo-Sa 12:00", "nsi_id": "unitedstatespostalservice-a77078", "operator": "United States Postal Service", "operator:short": "USPS", "operator:type": "public", "operator:wikidata": "Q668687", "ref": "0260100011"}, "type": "Feature"}
{"geometry": {"coordinates": [-70.2998384, 41.662388], "type": "Point"}, "id": "dNLaPiXc3P28puh24h8hEj9tOnE=", "properties": {"@source_uri": "https://tools.usps.com/UspsToolsRestServices/rest/POLocator/findLocations", "@spider": "usps_collection_boxes", "addr:city": "HYANNIS", "addr:country": "US", "addr:postcode": "02601", "addr:state": "MA", "addr:street_address": "489 BEARSES WAY", "amenity": "post_box", "collection_times": "Mo-Sa 12:00", "nsi_id": "unitedstatespostalservice-a77078", "operator": "United States Postal Service", "operator:short": "USPS", "operator:type": "public", "operator:wikidata": "Q668687", "ref": "0260100012"}, "type": "Feature"}
{"geometry": {"coordinates": [-70.3073068, 41.676367], "type": "Point"}, "id": "zsFElffDXQF0uUWzMay8zJddLgk=", "properties": {"@source_uri": "https://tools.usps.com/UspsToolsRestServices/rest/POLocator/findLocations", "@spider": "usps_collection_boxes", "addr:city": "HYANNIS", "addr:country": "US", "addr:postcode": "02601", "addr:state": "MA", "addr:street_address": "1220 IYANNOUGH RD", "amenity": "post_box", "collection_times": "Mo-Sa 10:00", "nsi_id": "unitedstatespostalservice-a77078", "operator": "United States Postal Service", "operator:short": "USPS", "operator:type": "public", "operator:wikidata": "Q668687", "ref": "0260100013"}, "type": "Feature"}
{"geometry": {"coordinates": [-70.2824665, 41.662873], "type": "Point"}, "id": "2F4unldL3yIdU8jhOvloXrgIRkI=", "properties": {"@source_uri": "https://tools.usps.com/UspsToolsRestServices/rest/POLocator/findLocations", "@spider": "usps_collection_boxes", "addr:city": "HYANNIS", "addr:country": "US", "addr:postcode": "02601", "addr:state": "MA", "addr:street_address": "375 IYANNOUGH RD", "amenity": "post_box", "collection_times": "Mo-Sa 12:00", "nsi_id": "unitedstatespostalservice-a77078", "operator": "United States Postal Service", "operator:short": "USPS", "operator:type": "public", "operator:wikidata": "Q668687", "ref": "0260100015"}, "type": "Feature"}
{"geometry": {"coordinates": [-70.2778683, 41.655783], "type": "Point"}, "id": "XDy53lGnGjfbaGbz22ceEkds4Og=", "properties": {"@source_uri": "https://tools.usps.com/UspsToolsRestServices/rest/POLocator/findLocations", "@spider": "usps_collection_boxes", "addr:city": "HYANNIS", "addr:country": "US", "addr:postcode": "02601", "addr:state": "MA", "addr:street_address": "200 MAIN ST", "amenity": "post_box", "collection_times": "Mo-Sa 12:00", "nsi_id": "unitedstatespostalservice-a77078", "operator": "United States Postal Service", "operator:short": "USPS", "operator:type": "public", "operator:wikidata": "Q668687", "ref": "0260100020"}, "type": "Feature"}
{"geometry": {"coordinates": [-70.2756879, 41.6556], "type": "Point"}, "id": "VZ0lUMW1jAOYzcW3gJb3sV6D8wU=", "properties": {"@source_uri": "https://tools.usps.com/UspsToolsRestServices/rest/POLocator/findLocations", "@spider": "usps_collection_boxes", "addr:city": "HYANNIS", "addr:country": "US", "addr:postcode": "02601", "addr:state": "MA", "addr:street_address": "128 MAIN ST", "amenity": "post_box", "collection_times": "Mo-Sa 10:00", "nsi_id": "unitedstatespostalservice-a77078", "operator": "United States Postal Service", "operator:short": "USPS", "operator:type": "public", "operator:wikidata": "Q668687", "ref": "0260100021"}, "type": "Feature"}
{"geometry": {"coordinates": [-70.2838123, 41.652475], "type": "Point"}, "id": "jDsaUcEP7484EQrYU8OkZWZw3s0=", "properties": {"@source_uri": "https://tools.usps.com/UspsToolsRestServices/rest/POLocator/findLocations", "@spider": "usps_collection_boxes", "addr:city": "HYANNIS", "addr:country": "US", "addr:postcode": "02601", "addr:state": "MA", "addr:street_address": "385 MAIN ST LBBY PICKUP", "amenity": "post_box", "collection_times": "Mo-Fr 17:00; Sa 16:00", "indoor": "yes", "note": "ON 12/24 AND 12/31, THIS BOX MAY BE COLLECTED AS EARLY AS 12 NOON.", "nsi_id": "unitedstatespostalservice-a77078", "operator": "United States Postal Service", "operator:short": "USPS", "operator:type": "public", "operator:wikidata": "Q668687", "ref": "0260100028"}, "type": "Feature"}
{"geometry": {"coordinates": [-70.2838054, 41.652455], "type": "Point"}, "id": "RC_DAYka3JFmI-lm4oLdldSNTVM=", "properties": {"@source_uri": "https://tools.usps.com/UspsToolsRestServices/rest/POLocator/findLocations", "@spider": "usps_collection_boxes", "addr:city": "HYANNIS", "addr:country": "US", "addr:postcode": "02601", "addr:state": "MA", "addr:street_address": "385 MAIN ST LBBY PICKUP", "amenity": "post_box", "collection_times": "Mo-Fr 17:00; Sa 16:00", "indoor": "yes", "note": "ON 12/24 AND 12/31, THIS BOX MAY BE COLLECTED AS EARLY AS 12 NOON.", "nsi_id": "unitedstatespostalservice-a77078", "operator": "United States Postal Service", "operator:short": "USPS", "operator:type": "public", "operator:wikidata": "Q668687", "ref": "0260100029"}, "type": "Feature"}
{"geometry": {"coordinates": [-70.2831837, 41.651379], "type": "Point"}, "id": "SH-e2JuywUs712R29kWI7En9ZpM=", "properties": {"@source_uri": "https://tools.usps.com/UspsToolsRestServices/rest/POLocator/findLocations", "@spider": "usps_collection_boxes", "addr:city": "HYANNIS", "addr:country": "US", "addr:postcode": "02601", "addr:state": "MA", "addr:street_address": "367 MAIN ST", "amenity": "post_box", "collection_times": "Mo-Fr 14:00; Sa 13:00", "note": "ON 12/24 AND 12/31, THIS BOX MAY BE COLLECTED AS EARLY AS 12 NOON.", "nsi_id": "unitedstatespostalservice-a77078", "operator": "United States Postal Service", "operator:short": "USPS", "operator:type": "public", "operator:wikidata": "Q668687", "ref": "0260100030"}, "type": "Feature"}
{"geometry": {"coordinates": [-70.2914568, 41.648956], "type": "Point"}, "id": "MDfxcOquXqG28lg2AjBCVZv5RQQ=", "properties": {"@source_uri": "https://tools.usps.com/UspsToolsRestServices/rest/POLocator/findLocations", "@spider": "usps_collection_boxes", "addr:city": "HYANNIS", "addr:country": "US", "addr:postcode": "02601", "addr:state": "MA", "addr:street_address": "640 MAIN ST", "amenity": "post_box", "collection_times": "Mo-Sa 12:00", "nsi_id": "unitedstatespostalservice-a77078", "operator": "United States Postal Service", "operator:short": "USPS", "operator:type": "public", "operator:wikidata": "Q668687", "ref": "0260100033"}, "type": "Feature"}
{"geometry": {"coordinates": [-70.2852315, 41.653557], "type": "Point"}, "id": "yZVLwXLSZsZNCj59s80yQlO6qw8=", "properties": {"@source_uri": "https://tools.usps.com/UspsToolsRestServices/rest/POLocator/findLocations", "@spider": "usps_collection_boxes", "addr:city": "HYANNIS", "addr:country": "US", "addr:postcode": "02601", "addr:state": "MA", "addr:street_address": "72 NORTH ST", "amenity": "post_box", "collection_times": "Mo-Sa 10:00", "nsi_id": "unitedstatespostalservice-a77078", "operator": "United States Postal Service", "operator:short": "USPS", "operator:type": "public", "operator:wikidata": "Q668687", "ref": "0260100036"}, "type": "Feature"}
{"geometry": {"coordinates": [-70.283901612, 41.652746961], "type": "Point"}, "id": "hUChOkUjb9fLnaFfz3HHWVY-hGM=", "properties": {"@source_uri": "https://tools.usps.com/UspsToolsRestServices/rest/POLocator/findLocations", "@spider": "usps_collection_boxes", "addr:city": "HYANNIS", "addr:country": "US", "addr:postcode": "02601", "addr:state": "MA", "addr:street_address": "385 MAIN ST", "amenity": "post_box", "collection_times": "Mo-Fr 17:00; Sa 16:00", "note": "ON 12/24 AND 12/31, THIS BOX MAY BE COLLECTED AS EARLY AS 12 NOON.", "nsi_id": "unitedstatespostalservice-a77078", "operator": "United States Postal Service", "operator:short": "USPS", "operator:type": "public", "operator:wikidata": "Q668687", "ref": "0260100037"}, "type": "Feature"}
{"geometry": {"coordinates": [-70.2796194, 41.640558], "type": "Point"}, "id": "SSNjbEC0dtNGLla3CIGHxKj1Mnw=", "properties": {"@source_uri": "https://tools.usps.com/UspsToolsRestServices/rest/POLocator/findLocations", "@spider": "usps_collection_boxes", "addr:city": "HYANNIS", "addr:country": "US", "addr:postcode": "02601", "addr:state": "MA", "addr:street_address": "479 OCEAN ST", "amenity": "post_box", "collection_times": "Mo-Sa 12:00", "nsi_id": "unitedstatespostalservice-a77078", "operator": "United States Postal Service", "operator:short": "USPS", "operator:type": "public", "operator:wikidata": "Q668687", "ref": "0260100040"}, "type": "Feature"}
{"geometry": {"coordinates": [-70.2953153, 41.667651], "type": "Point"}, "id": "96WQUvwpSW_u90lJAlmLFE8PvAU=", "properties": {"@source_uri": "https://tools.usps.com/UspsToolsRestServices/rest/POLocator/findLocations", "@spider": "usps_collection_boxes", "addr:city": "HYANNIS", "addr:country": "US", "addr:postcode": "02601", "addr:state": "MA", "addr:street_address": "793 IYANNOUGH RD", "amenity": "post_box", "collection_times": "Mo-Sa 13:00", "note": "ON 12/24 AND 12/31, THIS BOX MAY BE COLLECTED AS EARLY AS 12 NOON.", "nsi_id": "unitedstatespostalservice-a77078", "operator": "United States Postal Service", "operator:short": "USPS", "operator:type": "public", "operator:wikidata": "Q668687", "ref": "0260100045"}, "type": "Feature"}
{"geometry": {"coordinates": [-70.2981499, 41.67597], "type": "Point"}, "id": "rlH6Rg89KdCYPZ1DFgxp8_wIbq0=", "properties": {"@source_uri": "https://tools.usps.com/UspsToolsRestServices/rest/POLocator/findLocations", "@spider": "usps_collection_boxes", "addr:city": "HYANNIS", "addr:country": "US", "addr:postcode": "02601", "addr:state": "MA", "addr:street_address": "700 ATTUCKS LN", "amenity": "post_box", "collection_times": "Mo-Sa 12:00", "nsi_id": "unitedstatespostalservice-a77078", "operator": "United States Postal Service", "operator:short": "USPS", "operator:type": "public", "operator:wikidata": "Q668687", "ref": "0260100046"}, "type": "Feature"}
{"geometry": {"coordinates": [-70.28724, 41.652785], "type": "Point"}, "id": "s5GIU33AW7h1Yx6dW-IeIE88p5g=", "properties": {"@source_uri": "https://tools.usps.com/UspsToolsRestServices/rest/POLocator/findLocations", "@spider": "usps_collection_boxes", "addr:city": "HYANNIS", "addr:country": "US", "addr:postcode": "02601", "addr:state": "MA", "addr:street_address": "1070 IYANNOUGH RD", "amenity": "post_box", "collection_times": "Mo-Sa 10:00", "nsi_id": "unitedstatespostalservice-a77078", "operator": "United States Postal Service", "operator:short": "USPS", "operator:type": "public", "operator:wikidata": "Q668687", "ref": "0260100047"}, "type": "Feature"}
{"geometry": {"coordinates": [-70.2906466, 41.642707], "type": "Point"}, "id": "3yXfFB_xkkORCA1t9C4T7I4ycHU=", "properties": {"@source_uri": "https://tools.usps.com/UspsToolsRestServices/rest/POLocator/findLocations", "@spider": "usps_collection_boxes", "addr:city": "HYANNIS", "addr:country": "US", "addr:postcode": "02601", "addr:state": "MA", "addr:street_address": "231 SEA ST", "amenity": "post_box", "collection_times": "Mo-Sa 10:00", "nsi_id": "unitedstatespostalservice-a77078", "operator": "United States Postal Service", "operator:short": "USPS", "operator:type": "public", "operator:wikidata": "Q668687", "ref": "0260100050"}, "type": "Feature"}
{"geometry": {"coordinates": [-70.3045604, 41.64772], "type": "Point"}, "id": "Kvqms5XStEYZEMNfc5ox4XcNEgg=", "properties": {"@source_uri": "https://tools.usps.com/UspsToolsRestServices/rest/POLocator/findLocations", "@spider": "usps_collection_boxes", "addr:city": "HYANNIS", "addr:country": "US", "addr:postcode": "02601", "addr:state": "MA", "addr:street_address": "215 W MAIN ST", "amenity": "post_box", "collection_times": "Mo-Sa 12:00", "nsi_id": "unitedstatespostalservice-a77078", "operator": "United States Postal Service", "operator:short": "USPS", "operator:type": "public", "operator:wikidata": "Q668687", "ref": "0260100053"}, "type": "Feature"}
{"geometry": {"coordinates": [-70.3182179, 41.651807], "type": "Point"}, "id": "oPujD7uIkb5QSvGto3zMO-CUrog=", "properties": {"@source_uri": "https://tools.usps.com/UspsToolsRestServices/rest/POLocator/findLocations", "@spider": "usps_collection_boxes", "addr:city": "HYANNIS", "addr:country": "US", "addr:postcode": "02601", "addr:state": "MA", "addr:street_address": "625 W MAIN ST", "amenity": "post_box", "collection_times": "Mo-Sa 12:00", "nsi_id": "unitedstatespostalservice-a77078", "operator": "United States Postal Service", "operator:short": "USPS", "operator:type": "public", "operator:wikidata": "Q668687", "ref": "0260100055"}, "type": "Feature"}
{"geometry": {"coordinates": [-70.2869452, 41.652956], "type": "Point"}, "id": "KfKEi7nfYOWo7K5tCL_9liL1xPE=", "properties": {"@source_uri": "https://tools.usps.com/UspsToolsRestServices/rest/POLocator/findLocations", "@spider": "usps_collection_boxes", "addr:city": "HYANNIS", "addr:country": "US", "addr:postcode": "02601", "addr:state": "MA", "addr:street_address": "130 NORTH ST", "amenity": "post_box", "collection_times": "Mo-Sa 10:00", "nsi_id": "unitedstatespostalservice-a77078", "operator": "United States Postal Service", "operator:short": "USPS", "operator:type": "public", "operator:wikidata": "Q668687", "ref": "0260100058"}, "type": "Feature"}
{"geometry": {"coordinates": [-70.3178116, 41.677768], "type": "Point"}, "id": "bq0z9GXpMs1Vh2BXDogWWH6fhdM=", "properties": {"@source_uri": "https://tools.usps.com/UspsToolsRestServices/rest/POLocator/findLocations", "@spider": "usps_collection_boxes", "addr:city": "HYANNIS", "addr:country": "US", "addr:postcode": "02601", "addr:state": "MA", "addr:street_address": "1471 IYANNOUGH RD", "amenity": "post_box", "collection_times": "Mo-Sa 12:00", "nsi_id": "unitedstatespostalservice-a77078", "operator": "United States Postal Service", "operator:short": "USPS", "operator:type": "public", "operator:wikidata": "Q668687", "ref": "0260100063"}, "type": "Feature"}
{"geometry": {"coordinates": [-70.302987, 41.701372], "type": "Point"}, "id": "JM07sYWboC_MDguKhNaC2F7Rpmo=", "properties": {"@source_uri": "https://tools.usps.com/UspsToolsRestServices/rest/POLocator/findLocations", "@spider": "usps_collection_boxes", "addr:city": "BARNSTABLE", "addr:country": "US", "addr:postcode": "02630", "addr:state": "MA", "addr:street_address": "3230 MAIN ST", "amenity": "post_box", "collection_times": "Mo-Fr 17:00; Sa 13:00", "note": "ON 12/24 AND 12/31, THIS BOX MAY BE COLLECTED AS EARLY AS 12 NOON.", "nsi_id": "unitedstatespostalservice-a77078", "operator": "United States Postal Service", "operator:short": "USPS", "operator:type": "public", "operator:wikidata": "Q668687", "ref": "0263000002"}, "type": "Feature"}
{"geometry": {"coordinates": [-70.302987, 41.701372], "type": "Point"}, "id": "I-4_eWQEPILs5Xyf7ai46YRUkY8=", "properties": {"@source_uri": "https://tools.usps.com/UspsToolsRestServices/rest/POLocator/findLocations", "@spider": "usps_collection_boxes", "addr:city": "BARNSTABLE", "addr:country": "US", "addr:postcode": "02630", "addr:state": "MA", "addr:street_address": "3230 MAIN ST", "amenity": "post_box", "collection_times": "Mo-Fr 17:00; Sa 13:00", "indoor": "yes", "note": "ON 12/24 AND 12/31, THIS BOX MAY BE COLLECTED AS EARLY AS 12 NOON.", "nsi_id": "unitedstatespostalservice-a77078", "operator": "United States Postal Service", "operator:short": "USPS", "operator:type": "public", "operator:wikidata": "Q668687", "ref": "0263000004"}, "type": "Feature"}
{"geometry": {"coordinates": [-70.302987, 41.701372], "type": "Point"}, "id": "yu2EQLvpZYjqZP4_7cAms6EDtLI=", "properties": {"@source_uri": "https://tools.usps.com/UspsToolsRestServices/rest/POLocator/findLocations", "@spider": "usps_collection_boxes", "addr:city": "BARNSTABLE", "addr:country": "US", "addr:postcode": "02630", "addr:state": "MA", "addr:street_address": "3230 MAIN ST", "amenity": "post_box", "collection_times": "Mo-Fr 17:00; Sa 13:00", "indoor": "yes", "note": "ON 12/24 AND 12/31, THIS BOX MAY BE COLLECTED AS EARLY AS 12 NOON.", "nsi_id": "unitedstatespostalservice-a77078", "operator": "United States Postal Service", "operator:short": "USPS", "operator:type": "public", "operator:wikidata": "Q668687", "ref": "0263000005"}, "type": "Feature"}
{"geometry": {"coordinates": [-70.302987, 41.701372], "type": "Point"}, "id": "24OwDGL8DhQngHQLeqp3QQ9bSHQ=", "properties": {"@source_uri": "https://tools.usps.com/UspsToolsRestServices/rest/POLocator/findLocations", "@spider": "usps_collection_boxes", "addr:city": "BARNSTABLE", "addr:country": "US", "addr:postcode": "02630", "addr:state": "MA", "addr:street_address": "3230 MAIN ST", "amenity": "post_box", "collection_times": "Mo-Fr 17:00; Sa 13:00", "indoor": "yes", "note": "ON 12/24 AND 12/31, THIS BOX MAY BE COLLECTED AS EARLY AS 12 NOON.", "nsi_id": "unitedstatespostalservice-a77078", "operator": "United States Postal Service", "operator:short": "USPS", "operator:type": "public", "operator:wikidata": "Q668687", "ref": "0263000006"}, "type": "Feature"}
{"geometry": {"coordinates": [-70.1122499, 41.754923], "type": "Point"}, "id": "HLeJ1zXbW1Y0dwSRvVO92i_05Yk=", "properties": {"@source_uri": "https://tools.usps.com/UspsToolsRestServices/rest/POLocator/findLocations", "@spider": "usps_collection_boxes", "addr:city": "BREWSTER", "addr:country": "US", "addr:postcode": "02631", "addr:state": "MA", "addr:street_address": "15 LOWER RD", "amenity": "post_box", "collection_times": "Mo-Sa 11:00", "nsi_id": "unitedstatespostalservice-a77078", "operator": "United States Postal Service", "operator:short": "USPS", "operator:type": "public", "operator:wikidata": "Q668687", "ref": "0263100001"}, "type": "Feature"}
{"geometry": {"coordinates": [-70.0872575073, 41.7575734722], "type": "Point"}, "id": "RniK6egJrQif06Roh8O3-lGuqlY=", "properties": {"@source_uri": "https://tools.usps.com/UspsToolsRestServices/rest/POLocator/findLocations", "@spider": "usps_collection_boxes", "addr:city": "BREWSTER", "addr:country": "US", "addr:postcode": "02631", "addr:state": "MA", "addr:street_address": "1760 MAIN ST", "amenity": "post_box", "collection_times": "Mo-Sa 09:30", "nsi_id": "unitedstatespostalservice-a77078", "operator": "United States Postal Service", "operator:short": "USPS", "operator:type": "public", "operator:wikidata": "Q668687", "ref": "0263100003"}, "type": "Feature"}
{"geometry": {"coordinates": [-70.06007, 41.77043], "type": "Point"}, "id": "l-_RWODA2PaeBK_W88otq0Wk4gg=", "properties": {"@source_uri": "https://tools.usps.com/UspsToolsRestServices/rest/POLocator/findLocations", "@spider": "usps_collection_boxes", "addr:city": "BREWSTER", "addr:country": "US", "addr:postcode": "02631", "addr:state": "MA", "addr:street_address": "260 UNDERPASS RD", "amenity": "post_box", "collection_times": "Mo-Fr 17:00; Sa 12:00", "note": "ON 12/24 AND 12/31, THIS BOX MAY BE COLLECTED AS EARLY AS 12 NOON.", "nsi_id": "unitedstatespostalservice-a77078", "operator": "United States Postal Service", "operator:short": "USPS", "operator:type": "public", "operator:wikidata": "Q668687", "ref": "0263100005"}, "type": "Feature"}
{"geometry": {"coordinates": [-70.066221, 41.758007], "type": "Point"}, "id": "UNWMxWHG24otyjE3vM0fsNXTsUk=", "properties": {"@source_uri": "https://tools.usps.com/UspsToolsRestServices/rest/POLocator/findLocations", "@spider": "usps_collection_boxes", "addr:city": "BREWSTER", "addr:country": "US", "addr:postcode": "02631", "addr:state": "MA", "addr:street_address": "260 UNDERPASS RD", "amenity": "post_box", "collection_times": "Mo-Fr 17:00; Sa 12:00", "indoor": "yes", "note": "ON 12/24 AND 12/31, THIS BOX MAY BE COLLECTED AS EARLY AS 12 NOON.", "nsi_id": "unitedstatespostalservice-a77078", "operator": "United States Postal Service", "operator:short": "USPS", "operator:type": "public", "operator:wikidata": "Q668687", "ref": "0263100011"}, "type": "Feature"}
{"geometry": {"coordinates": [-70.0552749, 41.769481], "type": "Point"}, "id": "AqKLdtvrkgyMfDrZcRwDs9epDAw=", "properties": {"@source_uri": "https://tools.usps.com/UspsToolsRestServices/rest/POLocator/findLocations", "@spider": "usps_collection_boxes", "addr:city": "BREWSTER", "addr:country": "US", "addr:postcode": "02631", "addr:state": "MA", "addr:street_address": "2771 MAIN ST", "amenity": "post_box", "collection_times": "Mo-Sa 10:30", "nsi_id": "unitedstatespostalservice-a77078", "operator": "United States Postal Service", "operator:short": "USPS", "operator:type": "public", "operator:wikidata": "Q668687", "ref": "0263100012"}, "type": "Feature"}
{"geometry": {"coordinates": [-70.0672333, 41.757665], "type": "Point"}, "id": "xLxObNeSmWeVR0yAT9-9sVMaF34=", "properties": {"@source_uri": "https://tools.usps.com/UspsToolsRestServices/rest/POLocator/findLocations", "@spider": "usps_collection_boxes", "addr:city": "BREWSTER", "addr:country": "US", "addr:postcode": "02631", "addr:state": "MA", "addr:street_address": "260 UNDERPASS RD", "amenity": "post_box", "collection_times": "Mo-Fr 17:00; Sa 12:00", "indoor": "yes", "note": "ON 12/24 AND 12/31, THIS BOX MAY BE COLLECTED AS EARLY AS 12 NOON.", "nsi_id": "unitedstatespostalservice-a77078", "operator": "United States Postal Service", "operator:short": "USPS", "operator:type": "public", "operator:wikidata": "Q668687", "ref": "0263100013"}, "type": "Feature"}
{"geometry": {"coordinates": [-70.0829007, 41.761112], "type": "Point"}, "id": "BHxpHPf7a6m-VyBVa8WUqdFdxv8=", "properties": {"@source_uri": "https://tools.usps.com/UspsToolsRestServices/rest/POLocator/findLocations", "@spider": "usps_collection_boxes", "addr:city": "BREWSTER", "addr:country": "US", "addr:postcode": "02631", "addr:state": "MA", "addr:street_address": "1935 MAIN ST", "amenity": "post_box", "collection_times": "Mo-Sa 10:30", "nsi_id": "unitedstatespostalservice-a77078", "operator": "United States Postal Service", "operator:short": "USPS", "operator:type": "public", "operator:wikidata": "Q668687", "ref": "0263100015"}, "type": "Feature"}
{"geometry": {"coordinates": [-70.3432141, 41.657607], "type": "Point"}, "id": "GbVlAcK1n3hZFuqQqwlQ_gzY1Lk=", "properties": {"@source_uri": "https://tools.usps.com/UspsToolsRestServices/rest/POLocator/findLocations", "@spider": "usps_collection_boxes", "addr:city": "CENTERVILLE", "addr:country": "US", "addr:postcode": "02632", "addr:state": "MA", "addr:street_address": "1550 FALMOUTH RD", "amenity": "post_box", "collection_times": "Mo-Sa 10:00", "nsi_id": "unitedstatespostalservice-a77078", "operator": "United States Postal Service", "operator:short": "USPS", "operator:type": "public", "operator:wikidata": "Q668687", "ref": "0263200004"}, "type": "Feature"}
{"geometry": {"coordinates": [-70.3457467, 41.657722], "type": "Point"}, "id": "Pvr6pq9uLhyfadKw1Ziy8Tm5630=", "properties": {"@source_uri": "https://tools.usps.com/UspsToolsRestServices/rest/POLocator/findLocations", "@spider": "usps_collection_boxes", "addr:city": "CENTERVILLE", "addr:country": "US", "addr:postcode": "02632", "addr:state": "MA", "addr:street_address": "1600 FALMOUTH RD", "amenity": "post_box", "collection_times": "Mo-Sa 10:00", "nsi_id": "unitedstatespostalservice-a77078", "operator": "United States Postal Service", "operator:short": "USPS", "operator:type": "public", "operator:wikidata": "Q668687", "ref": "0263200005"}, "type": "Feature"}
{"geometry": {"coordinates": [-70.3468267, 41.656835], "type": "Point"}, "id": "wN9cvc9P8yi3JIXrxMmihxqCx9s=", "properties": {"@source_uri": "https://tools.usps.com/UspsToolsRestServices/rest/POLocator/findLocations", "@spider": "usps_collection_boxes", "addr:city": "CENTERVILLE", "addr:country": "US", "addr:postcode": "02632", "addr:state": "MA", "addr:street_address": "1645 FALMOUTH RD", "amenity": "post_box", "collection_times": "Mo-Sa 10:00", "nsi_id": "unitedstatespostalservice-a77078", "operator": "United States Postal Service", "operator:short": "USPS", "operator:type": "public", "operator:wikidata": "Q668687", "ref": "0263200007"}, "type": "Feature"}
{"geometry": {"coordinates": [-70.348232, 41.657732], "type": "Point"}, "id": "XAj2DfGctqvjTnroY1r4Vhab3fA=", "properties": {"@source_uri": "https://tools.usps.com/UspsToolsRestServices/rest/POLocator/findLocations", "@spider": "usps_collection_boxes", "addr:city": "CENTERVILLE", "addr:country": "US", "addr:postcode": "02632", "addr:state": "MA", "addr:street_address": "1672 FALMOUTH RD", "amenity": "post_box", "collection_times": "Mo-Fr 17:00; Sa 14:30", "note": "ON 12/24 AND 12/31, THIS BOX MAY BE COLLECTED AS EARLY AS 12 NOON.", "nsi_id": "unitedstatespostalservice-a77078", "operator": "United States Postal Service", "operator:short": "USPS", "operator:type": "public", "operator:wikidata": "Q668687", "ref": "0263200009"}, "type": "Feature"}
{"geometry": {"coordinates": [-70.348459, 41.656991], "type": "Point"}, "id": "xy7erqsgBI28SVXpOMs2QqbE3ZE=", "properties": {"@source_uri": "https://tools.usps.com/UspsToolsRestServices/rest/POLocator/findLocations", "@spider": "usps_collection_boxes", "addr:city": "CENTERVILLE", "addr:country": "US", "addr:postcode": "02632", "addr:state": "MA", "addr:street_address": "1672 FALMOUTH RD", "amenity": "post_box", "collection_times": "Mo-Fr 17:00; Sa 14:30", "indoor": "yes", "note": "ON 12/24 AND 12/31, THIS BOX MAY BE COLLECTED AS EARLY AS 12 NOON.", "nsi_id": "unitedstatespostalservice-a77078", "operator": "United States Postal Service", "operator:short": "USPS", "operator:type": "public", "operator:wikidata": "Q668687", "ref": "0263200012"}, "type": "Feature"}
{"geometry": {"coordinates": [-70.3303187, 41.657935], "type": "Point"}, "id": "LJCHZV6XBiSjMj5QH_IIx3I7sUQ=", "properties": {"@source_uri": "https://tools.usps.com/UspsToolsRestServices/rest/POLocator/findLocations", "@spider": "usps_collection_boxes", "addr:city": "CENTERVILLE", "addr:country": "US", "addr:postcode": "02632", "addr:state": "MA", "addr:street_address": "1185 FALMOUTH RD", "amenity": "post_box", "collection_times": "Mo-Sa 10:00", "nsi_id": "unitedstatespostalservice-a77078", "operator": "United States Postal Service", "operator:short": "USPS", "operator:type": "public", "operator:wikidata": "Q668687", "ref": "0263200018"}, "type": "Feature"}
{"geometry": {"coordinates": [-70.348459, 41.656991], "type": "Point"}, "id": "BwAtE2Sd6kH9G-Nj96wBvPVWoDw=", "properties": {"@source_uri": "https://tools.usps.com/UspsToolsRestServices/rest/POLocator/findLocations", "@spider": "usps_collection_boxes", "addr:city": "CENTERVILLE", "addr:country": "US", "addr:postcode": "02632", "addr:state": "MA", "addr:street_address": "1672 FALMOUTH RD", "amenity": "post_box", "collection_times": "Mo-Fr 17:00; Sa 14:30", "indoor": "yes", "note": "ON 12/24 AND 12/31, THIS BOX MAY BE COLLECTED AS EARLY AS 12 NOON.", "nsi_id": "unitedstatespostalservice-a77078", "operator": "United States Postal Service", "operator:short": "USPS", "operator:type": "public", "operator:wikidata": "Q668687", "ref": "0263200020"}, "type": "Feature"}
{"geometry": {"coordinates": [-69.9566591, 41.679597], "type": "Point"}, "id": "g5gE_lNVPFkGew-AoUMTjJXNmCY=", "properties": {"@source_uri": "https://tools.usps.com/UspsToolsRestServices/rest/POLocator/findLocations", "@spider": "usps_collection_boxes", "addr:city": "CHATHAM", "addr:country": "US", "addr:postcode": "02633", "addr:state": "MA", "addr:street_address": "475 MAIN ST", "amenity": "post_box", "collection_times": "Mo-Sa 12:00", "nsi_id": "unitedstatespostalservice-a77078", "operator": "United States Postal Service", "operator:short": "USPS", "operator:type": "public", "operator:wikidata": "Q668687", "ref": "0263300002"}, "type": "Feature"}
{"geometry": {"coordinates": [-69.9584749, 41.680759], "type": "Point"}, "id": "0Bz-PkJAeWpWkOk-EKvgWhsYaLo=", "properties": {"@source_uri": "https://tools.usps.com/UspsToolsRestServices/rest/POLocator/findLocations", "@spider": "usps_collection_boxes", "addr:city": "CHATHAM", "addr:country": "US", "addr:postcode": "02633", "addr:state": "MA", "addr:street_address": "549 MAIN ST", "amenity": "post_box", "collection_times": "Mo-Sa 12:00", "nsi_id": "unitedstatespostalservice-a77078", "operator": "United States Postal Service", "operator:short": "USPS", "operator:type": "public", "operator:wikidata": "Q668687", "ref": "0263300003"}, "type": "Feature"}
{"geometry": {"coordinates": [-69.960117, 41.6877924], "type": "Point"}, "id": "lxwYKYb2c2ag1ae82lfEsEseRrA=", "properties": {"@source_uri": "https://tools.usps.com/UspsToolsRestServices/rest/POLocator/findLocations", "@spider": "usps_collection_boxes", "addr:city": "CHATHAM", "addr:country": "US", "addr:postcode": "02633", "addr:state": "MA", "addr:street_address": "655 MAIN ST", "amenity": "post_box", "collection_times": "Mo-Fr 12:00; Sa 11:45", "nsi_id": "unitedstatespostalservice-a77078", "operator": "United States Postal Service", "operator:short": "USPS", "operator:type": "public", "operator:wikidata": "Q668687", "ref": "0263300004"}, "type": "Feature"}
{"geometry": {"coordinates": [-69.96586517, 41.684820522], "type": "Point"}, "id": "qm0Z8YlAR1MoxRcRVsm9Rzk5Q5M=", "properties": {"@source_uri": "https://tools.usps.com/UspsToolsRestServices/rest/POLocator/findLocations", "@spider": "usps_collection_boxes", "addr:city": "CHATHAM", "addr:country": "US", "addr:postcode": "02633", "addr:state": "MA", "addr:street_address": "802 MAIN ST", "amenity": "post_box", "collection_times": "Mo-Fr 16:30; Sa 14:00", "indoor": "yes", "note": "ON 12/24 AND 12/31, THIS BOX MAY BE COLLECTED AS EARLY AS 12 NOON.", "nsi_id": "unitedstatespostalservice-a77078", "operator": "United States Postal Service", "operator:short": "USPS", "operator:type": "public", "operator:wikidata": "Q668687", "ref": "0263300010"}, "type": "Feature"}
{"geometry": {"coordinates": [-69.967243, 41.68485], "type": "Point"}, "id": "5RnDDOgARbODB41McqL9g0rmivo=", "properties": {"@source_uri": "https://tools.usps.com/UspsToolsRestServices/rest/POLocator/findLocations", "@spider": "usps_collection_boxes", "addr:city": "CHATHAM", "addr:country": "US", "addr:postcode": "02633", "addr:state": "MA", "addr:street_address": "12 QUEEN ANNE RD", "amenity": "post_box", "collection_times": "Mo-Fr 12:00; Sa 11:45", "nsi_id": "unitedstatespostalservice-a77078", "operator": "United States Postal Service", "operator:short": "USPS", "operator:type": "public", "operator:wikidata": "Q668687", "ref": "0263300013"}, "type": "Feature"}
{"geometry": {"coordinates": [-69.96586517, 41.684820522], "type": "Point"}, "id": "XGfReJYNU_OQitmiU8YwhOvxmYc=", "properties": {"@source_uri": "https://tools.usps.com/UspsToolsRestServices/rest/POLocator/findLocations", "@spider": "usps_collection_boxes", "addr:city": "CHATHAM", "addr:country": "US", "addr:postcode": "02633", "addr:state": "MA", "addr:street_address": "802 MAIN ST", "amenity": "post_box", "collection_times": "Mo-Fr 16:30; Sa 14:00", "indoor": "yes", "note": "ON 12/24 AND 12/31, THIS BOX MAY BE COLLECTED AS EARLY AS 12 NOON.", "nsi_id": "unitedstatespostalservice-a77078", "operator": "United States Postal Service", "operator:short": "USPS", "operator:type": "public", "operator:wikidata": "Q668687", "ref": "0263300015"}, "type": "Feature"}
{"geometry": {"coordinates": [-69.96586517, 41.684820522], "type": "Point"}, "id": "BSuPZvmDpcTTCQ8JPOhYuIOtCJE=", "properties": {"@source_uri": "https://tools.usps.com/UspsToolsRestServices/rest/POLocator/findLocations", "@spider": "usps_collection_boxes", "addr:city": "CHATHAM", "addr:country": "US", "addr:postcode": "02633", "addr:state": "MA", "addr:street_address": "802 MAIN ST", "amenity": "post_box", "collection_times": "Mo-Fr 16:30; Sa 14:00", "note": "ON 12/24 AND 12/31, THIS BOX MAY BE COLLECTED AS EARLY AS 12 NOON.", "nsi_id": "unitedstatespostalservice-a77078", "operator": "United States Postal Service", "operator:short": "USPS", "operator:type": "public", "operator:wikidata": "Q668687", "ref": "0263300020"}, "type": "Feature"}
{"geometry": {"coordinates": [-70.436834, 41.617548], "type": "Point"}, "id": "Z_m_p-i4xsxT6jRkLEh5K3C4V-c=", "properties": {"@source_uri": "https://tools.usps.com/UspsToolsRestServices/rest/POLocator/findLocations", "@spider": "usps_collection_boxes", "addr:city": "COTUIT", "addr:country": "US", "addr:postcode": "02635", "addr:state": "MA", "addr:street_address": "45 SCHOOL ST", "amenity": "post_box", "collection_times": "Mo-Fr 16:00; Sa 12:00", "note": "ON 12/24 AND 12/31, THIS BOX MAY BE COLLECTED AS EARLY AS 12 NOON.", "nsi_id": "unitedstatespostalservice-a77078", "operator": "United States Postal Service", "operator:short": "USPS", "operator:type": "public", "operator:wikidata": "Q668687", "ref": "0263500001"}, "type": "Feature"}
{"geometry": {"coordinates": [-70.436834, 41.617548], "type": "Point"}, "id": "3pRqvEEJR5SZDYi1FzCEYudILyw=", "properties": {"@source_uri": "https://tools.usps.com/UspsToolsRestServices/rest/POLocator/findLocations", "@spider": "usps_collection_boxes", "addr:city": "COTUIT", "addr:country": "US", "addr:postcode": "02635", "addr:state": "MA", "addr:street_address": "45 SCHOOL ST", "amenity": "post_box", "collection_times": "Mo-Fr 16:00; Sa 12:00", "indoor": "yes", "note": "ON 12/24 AND 12/31, THIS BOX MAY BE COLLECTED AS EARLY AS 12 NOON.", "nsi_id": "unitedstatespostalservice-a77078", "operator": "United States Postal Service", "operator:short": "USPS", "operator:type": "public", "operator:wikidata": "Q668687", "ref": "0263500004"}, "type": "Feature"}
{"geometry": {"coordinates": [-70.436717, 41.617583], "type": "Point"}, "id": "gmHjdmWbC2WPHhSrLHDcOfAuIQo=", "properties": {"@source_uri": "https://tools.usps.com/UspsToolsRestServices/rest/POLocator/findLocations", "@spider": "usps_collection_boxes", "addr:city": "COTUIT", "addr:country": "US", "addr:postcode": "02635", "addr:state": "MA", "addr:street_address": "45 SCHOOL ST", "amenity": "post_box", "collection_times": "Mo-Fr 16:00; Sa 12:00", "indoor": "yes", "note": "ON 12/24 AND 12/31, THIS BOX MAY BE COLLECTED AS EARLY AS 12 NOON.", "nsi_id": "unitedstatespostalservice-a77078", "operator": "United States Postal Service", "operator:short": "USPS", "operator:type": "public", "operator:wikidata": "Q668687", "ref": "0263500005"}, "type": "Feature"}
{"geometry": {"coordinates": [-70.267809, 41.702112], "type": "Point"}, "id": "646vn5zFCsBu07p-F-3LHI9CUIE=", "properties": {"@source_uri": "https://tools.usps.com/UspsToolsRestServices/rest/POLocator/findLocations", "@spider": "usps_collection_boxes", "addr:city": "CUMMAQUID", "addr:country": "US", "addr:postcode": "02637", "addr:state": "MA", "addr:street_address": "4029 MAIN ST", "amenity": "post_box", "collection_times": "Mo-Fr 16:00; Sa 12:00", "note": "ON 12/24 AND 12/31, THIS BOX MAY BE COLLECTED AS EARLY AS 12 NOON.", "nsi_id": "unitedstatespostalservice-a77078", "operator": "United States Postal Service", "operator:short": "USPS", "operator:type": "public", "operator:wikidata": "Q668687", "ref": "0263700001"}, "type": "Feature"}
{"geometry": {"coordinates": [-70.267809, 41.702112], "type": "Point"}, "id": "qsuJ_9C3NK9k8pdbcplCPmo7hME=", "properties": {"@source_uri": "https://tools.usps.com/UspsToolsRestServices/rest/POLocator/findLocations", "@spider": "usps_collection_boxes", "addr:city": "CUMMAQUID", "addr:country": "US", "addr:postcode": "02637", "addr:state": "MA", "addr:street_address": "4029 MAIN ST", "amenity": "post_box", "collection_times": "Mo-Fr 16:00; Sa 12:00", "indoor": "yes", "note": "ON 12/24 AND 12/31, THIS BOX MAY BE COLLECTED AS EARLY AS 12 NOON.", "nsi_id": "unitedstatespostalservice-a77078", "operator": "United States Postal Service", "operator:short": "USPS", "operator:type": "public", "operator:wikidata": "Q668687", "ref": "0263700004"}, "type": "Feature"}
{"geometry": {"coordinates": [-70.191566, 41.73875], "type": "Point"}, "id": "wuk8Dk_sPPqLCjIvUbOPeRMY3rs=", "properties": {"@source_uri": "https://tools.usps.com/UspsToolsRestServices/rest/POLocator/findLocations", "@spider": "usps_collection_boxes", "addr:city": "DENNIS", "addr:country": "US", "addr:postcode": "02638", "addr:state": "MA", "addr:street_address": "788 MAIN ST", "amenity": "post_box", "collection_times": "Mo-Fr 16:15; Sa 12:00", "note": "ON 12/24 AND 12/31, THIS BOX MAY BE COLLECTED AS EARLY AS 12 NOON.", "nsi_id": "unitedstatespostalservice-a77078", "operator": "United States Postal Service", "operator:short": "USPS", "operator:type": "public", "operator:wikidata": "Q668687", "ref": "0263800001"}, "type": "Feature"}
{"geometry": {"coordinates": [-70.191618, 41.738664], "type": "Point"}, "id": "jy9BQrrOFmiOnkogsaRYfcN-4Ww=", "properties": {"@source_uri": "https://tools.usps.com/UspsToolsRestServices/rest/POLocator/findLocations", "@spider": "usps_collection_boxes", "addr:city": "DENNIS", "addr:country": "US", "addr:postcode": "02638", "addr:state": "MA", "addr:street_address": "788 MAIN ST", "amenity": "post_box", "collection_times": "Mo-Fr 16:15; Sa 12:00", "indoor": "yes", "note": "ON 12/24 AND 12/31, THIS BOX MAY BE COLLECTED AS EARLY AS 12 NOON.", "nsi_id": "unitedstatespostalservice-a77078", "operator": "United States Postal Service", "operator:short": "USPS", "operator:type": "public", "operator:wikidata": "Q668687", "ref": "0263800004"}, "type": "Feature"}
{"geometry": {"coordinates": [-70.129616, 41.665766], "type": "Point"}, "id": "6F_mYft3aNvigPrWSRv-N9IUlh0=", "properties": {"@source_uri": "https://tools.usps.com/UspsToolsRestServices/rest/POLocator/findLocations", "@spider": "usps_collection_boxes", "addr:city": "DENNISPORT", "addr:country": "US", "addr:postcode": "02639", "addr:state": "MA", "addr:street_address": "3 MILL ST", "amenity": "post_box", "collection_times": "Mo-Fr 16:00; Sa 13:30", "indoor": "yes", "note": "ON 12/24 AND 12/31, THIS BOX MAY BE COLLECTED AS EARLY AS 12 NOON.", "nsi_id": "unitedstatespostalservice-a77078", "operator": "United States Postal Service", "operator:short": "USPS", "operator:type": "public", "operator:wikidata": "Q668687", "ref": "0263900005"}, "type": "Feature"}
{"geometry": {"coordinates": [-70.129693, 41.66582], "type": "Point"}, "id": "XekiocO_9NJmjS7M2ivwlfxHpgg=", "properties": {"@source_uri": "https://tools.usps.com/UspsToolsRestServices/rest/POLocator/findLocations", "@spider": "usps_collection_boxes", "addr:city": "DENNISPORT", "addr:country": "US", "addr:postcode": "02639", "addr:state": "MA", "addr:street_address": "3 MILL ST", "amenity": "post_box", "collection_times": "Mo-Fr 16:00; Sa 13:30", "indoor": "yes", "note": "ON 12/24 AND 12/31, THIS BOX MAY BE COLLECTED AS EARLY AS 12 NOON.", "nsi_id": "unitedstatespostalservice-a77078", "operator": "United States Postal Service", "operator:short": "USPS", "operator:type": "public", "operator:wikidata": "Q668687", "ref": "0263900006"}, "type": "Feature"}
{"geometry": {"coordinates": [-70.129693, 41.66582], "type": "Point"}, "id": "zIE-b_BtMd5zH1h_b6xQS8cvnsc=", "properties": {"@source_uri": "https://tools.usps.com/UspsToolsRestServices/rest/POLocator/findLocations", "@spider": "usps_collection_boxes", "addr:city": "DENNISPORT", "addr:country": "US", "addr:postcode": "02639", "addr:state": "MA", "addr:street_address": "3 MILL ST", "amenity": "post_box", "collection_times": "Mo-Fr 16:00; Sa 13:30", "note": "ON 12/24 AND 12/31, THIS BOX MAY BE COLLECTED AS EARLY AS 12 NOON.", "nsi_id": "unitedstatespostalservice-a77078", "operator": "United States Postal Service", "operator:short": "USPS", "operator:type": "public", "operator:wikidata": "Q668687", "ref": "0263900010"}, "type": "Feature"}
{"geometry": {"coordinates": [-70.160423, 41.742853], "type": "Point"}, "id": "mjIxzwnlggzy8-pOSIwXwX2UifE=", "properties": {"@source_uri": "https://tools.usps.com/UspsToolsRestServices/rest/POLocator/findLocations", "@spider": "usps_collection_boxes", "addr:city": "EAST DENNIS", "addr:country": "US", "addr:postcode": "02641", "addr:state": "MA", "addr:street_address": "1600 MAIN ST", "amenity": "post_box", "collection_times": "Mo-Fr 16:15; Sa 11:45", "note": "ON 12/24 AND 12/31, THIS BOX MAY BE COLLECTED AS EARLY AS 12 NOON.", "nsi_id": "unitedstatespostalservice-a77078", "operator": "United States Postal Service", "operator:short": "USPS", "operator:type": "public", "operator:wikidata": "Q668687", "ref": "0264100001"}, "type": "Feature"}
{"geometry": {"coordinates": [-70.160423, 41.742853], "type": "Point"}, "id": "RQZtc6yUUOkAeulb4Nx5cExcl8Q=", "properties": {"@source_uri": "https://tools.usps.com/UspsToolsRestServices/rest/POLocator/findLocations", "@spider": "usps_collection_boxes", "addr:city": "EAST DENNIS", "addr:country": "US", "addr:postcode": "02641", "addr:state": "MA", "addr:street_address": "1600 MAIN ST", "amenity": "post_box", "collection_times": "Mo-Fr 16:15; Sa 11:45", "indoor": "yes", "note": "ON 12/24 AND 12/31, THIS BOX MAY BE COLLECTED AS EARLY AS 12 NOON.", "nsi_id": "unitedstatespostalservice-a77078", "operator": "United States Postal Service", "operator:short": "USPS", "operator:type": "public", "operator:wikidata": "Q668687", "ref": "0264100006"}, "type": "Feature"}
{"geometry": {"coordinates": [-69.973144, 41.828053], "type": "Point"}, "id": "gs-l7eSI5sPSwWDM_OTrQHVnGQM=", "properties": {"@source_uri": "https://tools.usps.com/UspsToolsRestServices/rest/POLocator/findLocations", "@spider": "usps_collection_boxes", "addr:city": "EASTHAM", "addr:country": "US", "addr:postcode": "02642", "addr:state": "MA", "addr:street_address": "2365 STATE HWY", "amenity": "post_box", "collection_times": "Mo-Fr 17:00; Sa 12:00", "note": "ON 12/24 AND 12/31, THIS BOX MAY BE COLLECTED AS EARLY AS 12 NOON.", "nsi_id": "unitedstatespostalservice-a77078", "operator": "United States Postal Service", "operator:short": "USPS", "operator:type": "public", "operator:wikidata": "Q668687", "ref": "0264200001"}, "type": "Feature"}
{"geometry": {"coordinates": [-69.97307, 41.827989], "type": "Point"}, "id": "C-ziSVdppz6gD-3JQIoi0Rslf3E=", "properties": {"@source_uri": "https://tools.usps.com/UspsToolsRestServices/rest/POLocator/findLocations", "@spider": "usps_collection_boxes", "addr:city": "EASTHAM", "addr:country": "US", "addr:postcode": "02642", "addr:state": "MA", "addr:street_address": "2365 STATE HWY", "amenity": "post_box", "collection_times": "Mo-Fr 17:00; Sa 12:00", "indoor": "yes", "note": "ON 12/24 AND 12/31, THIS BOX MAY BE COLLECTED AS EARLY AS 12 NOON.", "nsi_id": "unitedstatespostalservice-a77078", "operator": "United States Postal Service", "operator:short": "USPS", "operator:type": "public", "operator:wikidata": "Q668687", "ref": "0264200004"}, "type": "Feature"}
{"geometry": {"coordinates": [-69.967592, 41.784802], "type": "Point"}, "id": "ijv6xcNwAbUIxVrxL0f08zbVHXQ=", "properties": {"@source_uri": "https://tools.usps.com/UspsToolsRestServices/rest/POLocator/findLocations", "@spider": "usps_collection_boxes", "addr:city": "EAST ORLEANS", "addr:country": "US", "addr:postcode": "02643", "addr:state": "MA", "addr:street_address": "210 MAIN ST", "amenity": "post_box", "collection_times": "Mo-Fr 16:45; Sa 11:45", "note": "ON 12/24 AND 12/31, THIS BOX MAY BE COLLECTED AS EARLY AS 12 NOON.", "nsi_id": "unitedstatespostalservice-a77078", "operator": "United States Postal Service", "operator:short": "USPS", "operator:type": "public", "operator:wikidata": "Q668687", "ref": "0264300002"}, "type": "Feature"}
{"geometry": {"coordinates": [-69.967592, 41.784802], "type": "Point"}, "id": "KmdH38Dqc5QDRbi4j0bIUhqR8lk=", "properties": {"@source_uri": "https://tools.usps.com/UspsToolsRestServices/rest/POLocator/findLocations", "@spider": "usps_collection_boxes", "addr:city": "EAST ORLEANS", "addr:country": "US", "addr:postcode": "02643", "addr:state": "MA", "addr:street_address": "210 MAIN ST", "amenity": "post_box", "collection_times": "Mo-Fr 16:45; Sa 11:45", "indoor": "yes", "note": "ON 12/24 AND 12/31, THIS BOX MAY BE COLLECTED AS EARLY AS 12 NOON.", "nsi_id": "unitedstatespostalservice-a77078", "operator": "United States Postal Service", "operator:short": "USPS", "operator:type": "public", "operator:wikidata": "Q668687", "ref": "0264300003"}, "type": "Feature"}
{"geometry": {"coordinates": [-69.967592, 41.784802], "type": "Point"}, "id": "4Ems20XRe-vksdH7QQurRjnrRQU=", "properties": {"@source_uri": "https://tools.usps.com/UspsToolsRestServices/rest/POLocator/findLocations", "@spider": "usps_collection_boxes", "addr:city": "EAST ORLEANS", "addr:country": "US", "addr:postcode": "02643", "addr:state": "MA", "addr:street_address": "210 MAIN ST", "amenity": "post_box", "collection_times": "Mo-Fr 16:45; Sa 11:45", "indoor": "yes", "note": "ON 12/24 AND 12/31, THIS BOX MAY BE COLLECTED AS EARLY AS 12 NOON.", "nsi_id": "unitedstatespostalservice-a77078", "operator": "United States Postal Service", "operator:short": "USPS", "operator:type": "public", "operator:wikidata": "Q668687", "ref": "0264300004"}, "type": "Feature"}
{"geometry": {"coordinates": [-70.5021371, 41.690036], "type": "Point"}, "id": "P8DtDFTu6Gl_5xw8Juhnw35JInE=", "properties": {"@source_uri": "https://tools.usps.com/UspsToolsRestServices/rest/POLocator/findLocations", "@spider": "usps_collection_boxes", "addr:city": "FORESTDALE", "addr:country": "US", "addr:postcode": "02644", "addr:state": "MA", "addr:street_address": "110 ROUTE 130", "amenity": "post_box", "collection_times": "Mo-Fr 12:00", "nsi_id": "unitedstatespostalservice-a77078", "operator": "United States Postal Service", "operator:short": "USPS", "operator:type": "public", "operator:wikidata": "Q668687", "ref": "0264400001"}, "type": "Feature"}
{"geometry": {"coordinates": [-70.48979, 41.714485], "type": "Point"}, "id": "H_uhtrzwYH14H1CcnmoVXKX6dWU=", "properties": {"@source_uri": "https://tools.usps.com/UspsToolsRestServices/rest/POLocator/findLocations", "@spider": "usps_collection_boxes", "addr:city": "FORESTDALE", "addr:country": "US", "addr:postcode": "02644", "addr:state": "MA", "addr:street_address": "290 ROUTE 130", "amenity": "post_box", "collection_times": "Mo-Fr 17:00; Sa 12:00", "indoor": "yes", "note": "ON 12/24 AND 12/31, THIS BOX MAY BE COLLECTED AS EARLY AS 12 NOON.", "nsi_id": "unitedstatespostalservice-a77078", "operator": "United States Postal Service", "operator:short": "USPS", "operator:type": "public", "operator:wikidata": "Q668687", "ref": "0264400004"}, "type": "Feature"}
{"geometry": {"coordinates": [-70.489786, 41.714568], "type": "Point"}, "id": "CX2hvCUZeeNln5fwSSSAHq7moMA=", "properties": {"@source_uri": "https://tools.usps.com/UspsToolsRestServices/rest/POLocator/findLocations", "@spider": "usps_collection_boxes", "addr:city": "FORESTDALE", "addr:country": "US", "addr:postcode": "02644", "addr:state": "MA", "addr:street_address": "290 ROUTE 130", "amenity": "post_box", "collection_times": "Mo-Fr 17:00; Sa 12:00", "indoor": "yes", "note": "ON 12/24 AND 12/31, THIS BOX MAY BE COLLECTED AS EARLY AS 12 NOON.", "nsi_id": "unitedstatespostalservice-a77078", "operator": "United States Postal Service", "operator:short": "USPS", "operator:type": "public", "operator:wikidata": "Q668687", "ref": "0264400005"}, "type": "Feature"}
{"geometry": {"coordinates": [-70.489786, 41.714568], "type": "Point"}, "id": "d4YGylE8HXejbz6T4HpUwEYdDyo=", "properties": {"@source_uri": "https://tools.usps.com/UspsToolsRestServices/rest/POLocator/findLocations", "@spider": "usps_collection_boxes", "addr:city": "FORESTDALE", "addr:country": "US", "addr:postcode": "02644", "addr:state": "MA", "addr:street_address": "290 ROUTE 130", "amenity": "post_box", "collection_times": "Mo-Fr 17:00; Sa 12:00", "indoor": "yes", "note": "ON 12/24 AND 12/31, THIS BOX MAY BE COLLECTED AS EARLY AS 12 NOON.", "nsi_id": "unitedstatespostalservice-a77078", "operator": "United States Postal Service", "operator:short": "USPS", "operator:type": "public", "operator:wikidata": "Q668687", "ref": "0264400006"}, "type": "Feature"}
{"geometry": {"coordinates": [-70.489786, 41.714568], "type": "Point"}, "id": "lM1Pxu_fOeayNtre40b6WP7W0Ls=", "properties": {"@source_uri": "https://tools.usps.com/UspsToolsRestServices/rest/POLocator/findLocations", "@spider": "usps_collection_boxes", "addr:city": "FORESTDALE", "addr:country": "US", "addr:postcode": "02644", "addr:state": "MA", "addr:street_address": "290 ROUTE 130", "amenity": "post_box", "collection_times": "Mo-Fr 17:00; Sa 12:00", "note": "ON 12/24 AND 12/31, THIS BOX MAY BE COLLECTED AS EARLY AS 12 NOON.", "nsi_id": "unitedstatespostalservice-a77078", "operator": "United States Postal Service", "operator:short": "USPS", "operator:type": "public", "operator:wikidata": "Q668687", "ref": "0264400007"}, "type": "Feature"}
{"geometry": {"coordinates": [-70.489786, 41.714568], "type": "Point"}, "id": "ik3NJ9KmmXbfYE6Aeij_Ziq74_o=", "properties": {"@source_uri": "https://tools.usps.com/UspsToolsRestServices/rest/POLocator/findLocations", "@spider": "usps_collection_boxes", "addr:city": "FORESTDALE", "addr:country": "US", "addr:postcode": "02644", "addr:state": "MA", "addr:street_address": "290 ROUTE 130", "amenity": "post_box", "collection_times": "Mo-Fr 17:00; Sa 12:00", "note": "ON 12/24 AND 12/31, THIS BOX MAY BE COLLECTED AS EARLY AS 12 NOON.", "nsi_id": "unitedstatespostalservice-a77078", "operator": "United States Postal Service", "operator:short": "USPS", "operator:type": "public", "operator:wikidata": "Q668687", "ref": "0264400010"}, "type": "Feature"}
{"geometry": {"coordinates": [-70.0756035, 41.68632], "type": "Point"}, "id": "HYyRxaYc9jGbPaD4dQ33za7_5Fc=", "properties": {"@source_uri": "https://tools.usps.com/UspsToolsRestServices/rest/POLocator/findLocations", "@spider": "usps_collection_boxes", "addr:city": "HARWICH", "addr:country": "US", "addr:postcode": "02645", "addr:state": "MA", "addr:street_address": "706 MAIN ST", "amenity": "post_box", "collection_times": "Mo-Sa 11:00", "nsi_id": "unitedstatespostalservice-a77078", "operator": "United States Postal Service", "operator:short": "USPS", "operator:type": "public", "operator:wikidata": "Q668687", "ref": "0264500001"}, "type": "Feature"}
{"geometry": {"coordinates": [-70.020641, 41.709251], "type": "Point"}, "id": "1zVtpLk_Jn7KkX56y9N7IUjoQxI=", "properties": {"@source_uri": "https://tools.usps.com/UspsToolsRestServices/rest/POLocator/findLocations", "@spider": "usps_collection_boxes", "addr:city": "HARWICH", "addr:country": "US", "addr:postcode": "02645", "addr:state": "MA", "addr:street_address": "1484 ORLEANS RD", "amenity": "post_box", "collection_times": "Mo-Fr 16:00; Sa 12:00", "name": "USPS COLLECTION BOX - EXPRESS", "note": "ON 12/24 AND 12/31, THIS BOX MAY BE COLLECTED AS EARLY AS 12 NOON.", "nsi_id": "unitedstatespostalservice-a77078", "operator": "United States Postal Service", "operator:short": "USPS", "operator:type": "public", "operator:wikidata": "Q668687", "ref": "0264500002"}, "type": "Feature"}
{"geometry": {"coordinates": [-70.084857, 41.679381], "type": "Point"}, "id": "7kQ219DV7Fqxf9QSlCWhgENrqIM=", "properties": {"@source_uri": "https://tools.usps.com/UspsToolsRestServices/rest/POLocator/findLocations", "@spider": "usps_collection_boxes", "addr:city": "HARWICH", "addr:country": "US", "addr:postcode": "02645", "addr:state": "MA", "addr:street_address": "1484 ROUTE 39", "amenity": "post_box", "collection_times": "Mo-Fr 17:00; Sa 12:00", "indoor": "yes", "note": "ON 12/24 AND 12/31, THIS BOX MAY BE COLLECTED AS EARLY AS 12 NOON.", "nsi_id": "unitedstatespostalservice-a77078", "operator": "United States Postal Service", "operator:short": "USPS", "operator:type": "public", "operator:wikidata": "Q668687", "ref": "0264500003"}, "type": "Feature"}
{"geometry": {"coordinates": [-70.020111, 41.709694], "type": "Point"}, "id": "-UB0VVXViPS11i2YNDrGFVKnk4s=", "properties": {"@source_uri": "https://tools.usps.com/UspsToolsRestServices/rest/POLocator/findLocations", "@spider": "usps_collection_boxes", "addr:city": "HARWICH", "addr:country": "US", "addr:postcode": "02645", "addr:state": "MA", "addr:street_address": "1484 ROUTE 39", "amenity": "post_box", "collection_times": "Mo-Fr 17:00; Sa 12:00", "indoor": "yes", "note": "ON 12/24 AND 12/31, THIS BOX MAY BE COLLECTED AS EARLY AS 12 NOON.", "nsi_id": "unitedstatespostalservice-a77078", "operator": "United States Postal Service", "operator:short": "USPS", "operator:type": "public", "operator:wikidata": "Q668687", "ref": "0264500004"}, "type": "Feature"}
{"geometry": {"coordinates": [-70.0821054, 41.712836], "type": "Point"}, "id": "s_eomtoCkxGyWs911HWqfn16xhw=", "properties": {"@source_uri": "https://tools.usps.com/UspsToolsRestServices/rest/POLocator/findLocations", "@spider": "usps_collection_boxes", "addr:city": "HARWICH", "addr:country": "US", "addr:postcode": "02645", "addr:state": "MA", "addr:street_address": "402 PLEASANT LAKE AVE", "amenity": "post_box", "collection_times": "Mo-Sa 09:00", "nsi_id": "unitedstatespostalservice-a77078", "operator": "United States Postal Service", "operator:short": "USPS", "operator:type": "public", "operator:wikidata": "Q668687", "ref": "0264500005"}, "type": "Feature"}
{"geometry": {"coordinates": [-70.0226388, 41.706775], "type": "Point"}, "id": "cNJ08lklbzgtwjeWpe4fb2z0dM8=", "properties": {"@source_uri": "https://tools.usps.com/UspsToolsRestServices/rest/POLocator/findLocations", "@spider": "usps_collection_boxes", "addr:city": "HARWICH", "addr:country": "US", "addr:postcode": "02645", "addr:state": "MA", "addr:street_address": "1421 ROUTE 39", "amenity": "post_box", "collection_times": "Mo-Sa 10:00", "nsi_id": "unitedstatespostalservice-a77078", "operator": "United States Postal Service", "operator:short": "USPS", "operator:type": "public", "operator:wikidata": "Q668687", "ref": "0264500009"}, "type": "Feature"}
{"geometry": {"coordinates": [-70.020111, 41.709694], "type": "Point"}, "id": "5fz6DGW5PxFzwjQCfiYVXUu89sk=", "properties": {"@source_uri": "https://tools.usps.com/UspsToolsRestServices/rest/POLocator/findLocations", "@spider": "usps_collection_boxes", "addr:city": "HARWICH", "addr:country": "US", "addr:postcode": "02645", "addr:state": "MA", "addr:street_address": "1484 ROUTE 39", "amenity": "post_box", "collection_times": "Mo-Fr 17:00; Sa 12:00", "note": "ON 12/24 AND 12/31, THIS BOX MAY BE COLLECTED AS EARLY AS 12 NOON.", "nsi_id": "unitedstatespostalservice-a77078", "operator": "United States Postal Service", "operator:short": "USPS", "operator:type": "public", "operator:wikidata": "Q668687", "ref": "0264500011"}, "type": "Feature"}
{"geometry": {"coordinates": [-70.080484, 41.668078], "type": "Point"}, "id": "LOD74JBjntrw9CMplSq8kQHjim0=", "properties": {"@source_uri": "https://tools.usps.com/UspsToolsRestServices/rest/POLocator/findLocations", "@spider": "usps_collection_boxes", "addr:city": "HARWICHPORT", "addr:country": "US", "addr:postcode": "02646", "addr:state": "MA", "addr:street_address": "10 POST OFFICE SQ", "amenity": "post_box", "collection_times": "Mo-Fr 16:00; Sa 14:00", "note": "ON 12/24 AND 12/31, THIS BOX MAY BE COLLECTED AS EARLY AS 12 NOON.", "nsi_id": "unitedstatespostalservice-a77078", "operator": "United States Postal Service", "operator:short": "USPS", "operator:type": "public", "operator:wikidata": "Q668687", "ref": "0264600011"}, "type": "Feature"}
{"geometry": {"coordinates": [-70.0804677424, 41.6681045722], "type": "Point"}, "id": "msCkIc-Wk91oHEnrFmMFq3Tmdv8=", "properties": {"@source_uri": "https://tools.usps.com/UspsToolsRestServices/rest/POLocator/findLocations", "@spider": "usps_collection_boxes", "addr:city": "HARWICHPORT", "addr:country": "US", "addr:postcode": "02646", "addr:state": "MA", "addr:street_address": "6 POST OFFICE SQ", "amenity": "post_box", "collection_times": "Mo-Sa 09:00", "nsi_id": "unitedstatespostalservice-a77078", "operator": "United States Postal Service", "operator:short": "USPS", "operator:type": "public", "operator:wikidata": "Q668687", "ref": "0264600013"}, "type": "Feature"}
{"geometry": {"coordinates": [-70.0918158448, 41.6723088565], "type": "Point"}, "id": "2bBDUL3ZyIBkrbEjuAvlqhhNdT0=", "properties": {"@source_uri": "https://tools.usps.com/UspsToolsRestServices/rest/POLocator/findLocations", "@spider": "usps_collection_boxes", "addr:city": "HARWICHPORT", "addr:country": "US", "addr:postcode": "02646", "addr:state": "MA", "addr:street_address": "8 SISSON RD", "amenity": "post_box", "collection_times": "Mo-Sa 10:30", "nsi_id": "unitedstatespostalservice-a77078", "operator": "United States Postal Service", "operator:short": "USPS", "operator:type": "public", "operator:wikidata": "Q668687", "ref": "0264600015"}, "type": "Feature"}
{"geometry": {"coordinates": [-70.080405, 41.668107], "type": "Point"}, "id": "AvPzLMs6z3jB50IR4TfH8CfeExY=", "properties": {"@source_uri": "https://tools.usps.com/UspsToolsRestServices/rest/POLocator/findLocations", "@spider": "usps_collection_boxes", "addr:city": "HARWICHPORT", "addr:country": "US", "addr:postcode": "02646", "addr:state": "MA", "addr:street_address": "10 POST OFFICE SQ", "amenity": "post_box", "collection_times": "Mo-Sa 14:00", "indoor": "yes", "note": "ON 12/24 AND 12/31, THIS BOX MAY BE COLLECTED AS EARLY AS 12 NOON.", "nsi_id": "unitedstatespostalservice-a77078", "operator": "United States Postal Service", "operator:short": "USPS", "operator:type": "public", "operator:wikidata": "Q668687", "ref": "0264600016"}, "type": "Feature"}
{"geometry": {"coordinates": [-70.080405, 41.668107], "type": "Point"}, "id": "CLwdF6Lg0wnMjo9FWeM4z8d6Qkg=", "properties": {"@source_uri": "https://tools.usps.com/UspsToolsRestServices/rest/POLocator/findLocations", "@spider": "usps_collection_boxes", "addr:city": "HARWICHPORT", "addr:country": "US", "addr:postcode": "02646", "addr:state": "MA", "addr:street_address": "10 POST OFFICE SQ", "amenity": "post_box", "collection_times": "Mo-Sa 14:00", "indoor": "yes", "note": "ON 12/24 AND 12/31, THIS BOX MAY BE COLLECTED AS EARLY AS 12 NOON.", "nsi_id": "unitedstatespostalservice-a77078", "operator": "United States Postal Service", "operator:short": "USPS", "operator:type": "public", "operator:wikidata": "Q668687", "ref": "0264600017"}, "type": "Feature"}
{"geometry": {"coordinates": [-70.080405, 41.668107], "type": "Point"}, "id": "rypJwi-KzD8OOckK_Y_czEqE2M4=", "properties": {"@source_uri": "https://tools.usps.com/UspsToolsRestServices/rest/POLocator/findLocations", "@spider": "usps_collection_boxes", "addr:city": "HARWICHPORT", "addr:country": "US", "addr:postcode": "02646", "addr:state": "MA", "addr:street_address": "10 POST OFFICE SQ", "amenity": "post_box", "collection_times": "Mo-Sa 14:00", "indoor": "yes", "note": "ON 12/24 AND 12/31, THIS BOX MAY BE COLLECTED AS EARLY AS 12 NOON.", "nsi_id": "unitedstatespostalservice-a77078", "operator": "United States Postal Service", "operator:short": "USPS", "operator:type": "public", "operator:wikidata": "Q668687", "ref": "0264600018"}, "type": "Feature"}
{"geometry": {"coordinates": [-70.302948, 41.632152], "type": "Point"}, "id": "wRK92HFlecynkSp9QX7OcZh_iUw=", "properties": {"@source_uri": "https://tools.usps.com/UspsToolsRestServices/rest/POLocator/findLocations", "@spider": "usps_collection_boxes", "addr:city": "HYANNISPORT", "addr:country": "US", "addr:postcode": "02647", "addr:state": "MA", "addr:street_address": "44 LONGWOOD AVE", "amenity": "post_box", "collection_times": "Mo-Fr 16:30; Sa 12:00", "note": "ON 12/24 AND 12/31, THIS BOX MAY BE COLLECTED AS EARLY AS 12 NOON.", "nsi_id": "unitedstatespostalservice-a77078", "operator": "United States Postal Service", "operator:short": "USPS", "operator:type": "public", "operator:wikidata": "Q668687", "ref": "0264700003"}, "type": "Feature"}
{"geometry": {"coordinates": [-70.302948, 41.632152], "type": "Point"}, "id": "bugHidvuYIfShw3Yjv6-391O4oI=", "properties": {"@source_uri": "https://tools.usps.com/UspsToolsRestServices/rest/POLocator/findLocations", "@spider": "usps_collection_boxes", "addr:city": "HYANNISPORT", "addr:country": "US", "addr:postcode": "02647", "addr:state": "MA", "addr:street_address": "44 LONGWOOD AVE", "amenity": "post_box", "collection_times": "Mo-Fr 16:45; Sa 12:00", "indoor": "yes", "note": "ON 12/24 AND 12/31, THIS BOX MAY BE COLLECTED AS EARLY AS 12 NOON.", "nsi_id": "unitedstatespostalservice-a77078", "operator": "United States Postal Service", "operator:short": "USPS", "operator:type": "public", "operator:wikidata": "Q668687", "ref": "0264700004"}, "type": "Feature"}
{"geometry": {"coordinates": [-70.4228061, 41.647545], "type": "Point"}, "id": "bBCJnGgYCv0EsOSg3czMmzDfli8=", "properties": {"@source_uri": "https://tools.usps.com/UspsToolsRestServices/rest/POLocator/findLocations", "@spider": "usps_collection_boxes", "addr:city": "MARSTONS MILLS", "addr:country": "US", "addr:postcode": "02648", "addr:state": "MA", "addr:street_address": "3821 FALMOUTH RD", "amenity": "post_box", "collection_times": "Mo-Sa 10:00", "nsi_id": "unitedstatespostalservice-a77078", "operator": "United States Postal Service", "operator:short": "USPS", "operator:type": "public", "operator:wikidata": "Q668687", "ref": "0264800002"}, "type": "Feature"}
{"geometry": {"coordinates": [-70.4252922, 41.649071], "type": "Point"}, "id": "fcbF32vQmBxAkJvJ3oKOxuYQO-Y=", "properties": {"@source_uri": "https://tools.usps.com/UspsToolsRestServices/rest/POLocator/findLocations", "@spider": "usps_collection_boxes", "addr:city": "MARSTONS MILLS", "addr:country": "US", "addr:postcode": "02648", "addr:state": "MA", "addr:street_address": "3858 FALMOUTH RD", "amenity": "post_box", "collection_times": "Mo-Sa 10:00", "nsi_id": "unitedstatespostalservice-a77078", "operator": "United States Postal Service", "operator:short": "USPS", "operator:type": "public", "operator:wikidata": "Q668687", "ref": "0264800003"}, "type": "Feature"}
{"geometry": {"coordinates": [-70.4131838, 41.655701], "type": "Point"}, "id": "hyAOYBHc1_6JrMdsbSMICj3pyEs=", "properties": {"@source_uri": "https://tools.usps.com/UspsToolsRestServices/rest/POLocator/findLocations", "@spider": "usps_collection_boxes", "addr:city": "MARSTONS MILLS", "addr:country": "US", "addr:postcode": "02648", "addr:state": "MA", "addr:street_address": "40 RIVER RD", "amenity": "post_box", "collection_times": "Mo-Fr 16:45; Sa 13:00", "note": "ON 12/24 AND 12/31, THIS BOX MAY BE COLLECTED AS EARLY AS 12 NOON.", "nsi_id": "unitedstatespostalservice-a77078", "operator": "United States Postal Service", "operator:short": "USPS", "operator:type": "public", "operator:wikidata": "Q668687", "ref": "0264800005"}, "type": "Feature"}
{"geometry": {"coordinates": [-70.4128633, 41.655747], "type": "Point"}, "id": "NQ2xaorKVLkUZTpYHlG9eXxbju4=", "properties": {"@source_uri": "https://tools.usps.com/UspsToolsRestServices/rest/POLocator/findLocations", "@spider": "usps_collection_boxes", "addr:city": "MARSTONS MILLS", "addr:country": "US", "addr:postcode": "02648", "addr:state": "MA", "addr:street_address": "40 RIVER RD", "amenity": "post_box", "collection_times": "Mo-Fr 16:45; Sa 13:00", "indoor": "yes", "note": "ON 12/24 AND 12/31, THIS BOX MAY BE COLLECTED AS EARLY AS 12 NOON.", "nsi_id": "unitedstatespostalservice-a77078", "operator": "United States Postal Service", "operator:short": "USPS", "operator:type": "public", "operator:wikidata": "Q668687", "ref": "0264800007"}, "type": "Feature"}
{"geometry": {"coordinates": [-70.4129016, 41.655746], "type": "Point"}, "id": "tDek-UDZj-ZSiy10GZRoSD5LoN4=", "properties": {"@source_uri": "https://tools.usps.com/UspsToolsRestServices/rest/POLocator/findLocations", "@spider": "usps_collection_boxes", "addr:city": "MARSTONS MILLS", "addr:country": "US", "addr:postcode": "02648", "addr:state": "MA", "addr:street_address": "40 RIVER RD", "amenity": "post_box", "collection_times": "Mo-Fr 16:45; Sa 13:00", "indoor": "yes", "note": "ON 12/24 AND 12/31, THIS BOX MAY BE COLLECTED AS EARLY AS 12 NOON.", "nsi_id": "unitedstatespostalservice-a77078", "operator": "United States Postal Service", "operator:short": "USPS", "operator:type": "public", "operator:wikidata": "Q668687", "ref": "0264800008"}, "type": "Feature"}
{"geometry": {"coordinates": [-70.4920323, 41.610284], "type": "Point"}, "id": "HM-6xAjQMdg-LUZvRk4qWyZlsfc=", "properties": {"@source_uri": "https://tools.usps.com/UspsToolsRestServices/rest/POLocator/findLocations", "@spider": "usps_collection_boxes", "addr:city": "MASHPEE", "addr:country": "US", "addr:postcode": "02649", "addr:state": "MA", "addr:street_address": "681 FALMOUTH RD", "amenity": "post_box", "collection_times": "Mo-Sa 09:30", "nsi_id": "unitedstatespostalservice-a77078", "operator": "United States Postal Service", "operator:short": "USPS", "operator:type": "public", "operator:wikidata": "Q668687", "ref": "0264900001"}, "type": "Feature"}
{"geometry": {"coordinates": [-70.49078994, 41.617197765], "type": "Point"}, "id": "Xypk6eOJP646MzR_u3BBu_wGj4M=", "properties": {"@source_uri": "https://tools.usps.com/UspsToolsRestServices/rest/POLocator/findLocations", "@spider": "usps_collection_boxes", "addr:city": "MASHPEE", "addr:country": "US", "addr:postcode": "02649", "addr:state": "MA", "addr:street_address": "11 MARKET ST", "amenity": "post_box", "collection_times": "Mo-Fr 17:00; Sa 13:30", "note": "ON 12/24 AND 12/31, THIS BOX MAY BE COLLECTED AS EARLY AS 12 NOON.", "nsi_id": "unitedstatespostalservice-a77078", "operator": "United States Postal Service", "operator:short": "USPS", "operator:type": "public", "operator:wikidata": "Q668687", "ref": "0264900006"}, "type": "Feature"}
{"geometry": {"coordinates": [-70.4907, 41.617224], "type": "Point"}, "id": "7p-p6rNfOgGZ5kHfsd1vcVE9H_o=", "properties": {"@source_uri": "https://tools.usps.com/UspsToolsRestServices/rest/POLocator/findLocations", "@spider": "usps_collection_boxes", "addr:city": "MASHPEE", "addr:country": "US", "addr:postcode": "02649", "addr:state": "MA", "addr:street_address": "11 MARKET ST", "amenity": "post_box", "collection_times": "Mo-Fr 17:00; Sa 13:30", "indoor": "yes", "note": "ON 12/24 AND 12/31, THIS BOX MAY BE COLLECTED AS EARLY AS 12 NOON.", "nsi_id": "unitedstatespostalservice-a77078", "operator": "United States Postal Service", "operator:short": "USPS", "operator:type": "public", "operator:wikidata": "Q668687", "ref": "0264900009"}, "type": "Feature"}
{"geometry": {"coordinates": [-70.5034461, 41.620983], "type": "Point"}, "id": "HrFvMZfh6WvogKXfvsTqJq7yfic=", "properties": {"@source_uri": "https://tools.usps.com/UspsToolsRestServices/rest/POLocator/findLocations", "@spider": "usps_collection_boxes", "addr:city": "MASHPEE", "addr:country": "US", "addr:postcode": "02649", "addr:state": "MA", "addr:street_address": "12 WAMPANOAG DR", "amenity": "post_box", "collection_times": "Mo-Sa 10:00", "nsi_id": "unitedstatespostalservice-a77078", "operator": "United States Postal Service", "operator:short": "USPS", "operator:type": "public", "operator:wikidata": "Q668687", "ref": "0264900013"}, "type": "Feature"}
{"geometry": {"coordinates": [-70.4895031, 41.619244], "type": "Point"}, "id": "kei5FBrtsjR0iku7M0tiDSITw1c=", "properties": {"@source_uri": "https://tools.usps.com/UspsToolsRestServices/rest/POLocator/findLocations", "@spider": "usps_collection_boxes", "addr:city": "MASHPEE", "addr:country": "US", "addr:postcode": "02649", "addr:state": "MA", "addr:street_address": "39 NATHAN ELLIS HWY", "amenity": "post_box", "collection_times": "Mo-Sa 09:30", "nsi_id": "unitedstatespostalservice-a77078", "operator": "United States Postal Service", "operator:short": "USPS", "operator:type": "public", "operator:wikidata": "Q668687", "ref": "0264900015"}, "type": "Feature"}
{"geometry": {"coordinates": [-70.4811344, 41.648332], "type": "Point"}, "id": "IC4WLlS7IRdqxVnmxjgEEe_kQZE=", "properties": {"@source_uri": "https://tools.usps.com/UspsToolsRestServices/rest/POLocator/findLocations", "@spider": "usps_collection_boxes", "addr:city": "MASHPEE", "addr:country": "US", "addr:postcode": "02649", "addr:state": "MA", "addr:street_address": "16 GREAT NECK RD N", "amenity": "post_box", "collection_times": "Mo-Sa 10:00", "nsi_id": "unitedstatespostalservice-a77078", "operator": "United States Postal Service", "operator:short": "USPS", "operator:type": "public", "operator:wikidata": "Q668687", "ref": "0264900018"}, "type": "Feature"}
{"geometry": {"coordinates": [-70.4934926, 41.617119], "type": "Point"}, "id": "_rCo6iq8uMiXGU--5RdbED59Clk=", "properties": {"@source_uri": "https://tools.usps.com/UspsToolsRestServices/rest/POLocator/findLocations", "@spider": "usps_collection_boxes", "addr:city": "MASHPEE", "addr:country": "US", "addr:postcode": "02649", "addr:state": "MA", "addr:street_address": "25 STEEPLE ST", "amenity": "post_box", "collection_times": "Mo-Sa 09:30", "nsi_id": "unitedstatespostalservice-a77078", "operator": "United States Postal Service", "operator:short": "USPS", "operator:type": "public", "operator:wikidata": "Q668687", "ref": "0264900020"}, "type": "Feature"}
{"geometry": {"coordinates": [-70.5093821, 41.620033], "type": "Point"}, "id": "ljkvNVyVgDi1YMy7wQECiWiJ3SA=", "properties": {"@source_uri": "https://tools.usps.com/UspsToolsRestServices/rest/POLocator/findLocations", "@spider": "usps_collection_boxes", "addr:city": "MASHPEE", "addr:country": "US", "addr:postcode": "02649", "addr:state": "MA", "addr:street_address": "23 SOUTHPORT DR", "amenity": "post_box", "collection_times": "Mo-Sa 13:00", "note": "ON 12/24 AND 12/31, THIS BOX MAY BE COLLECTED AS EARLY AS 12 NOON.", "nsi_id": "unitedstatespostalservice-a77078", "operator": "United States Postal Service", "operator:short": "USPS", "operator:type": "public", "operator:wikidata": "Q668687", "ref": "0264900024"}, "type": "Feature"}
{"geometry": {"coordinates": [-69.962708, 41.698494], "type": "Point"}, "id": "nfaXUgiR1NUBCP7r6Q2nGutSv_8=", "properties": {"@source_uri": "https://tools.usps.com/UspsToolsRestServices/rest/POLocator/findLocations", "@spider": "usps_collection_boxes", "addr:city": "NORTH CHATHAM", "addr:country": "US", "addr:postcode": "02650", "addr:state": "MA", "addr:street_address": "200 ORLEANS RD", "amenity": "post_box", "collection_times": "Mo-Fr 16:15; Sa 11:45", "note": "ON 12/24 AND 12/31, THIS BOX MAY BE COLLECTED AS EARLY AS 12 NOON.", "nsi_id": "unitedstatespostalservice-a77078", "operator": "United States Postal Service", "operator:short": "USPS", "operator:type": "public", "operator:wikidata": "Q668687", "ref": "0265000001"}, "type": "Feature"}
{"geometry": {"coordinates": [-69.962708, 41.698494], "type": "Point"}, "id": "c9OWwWritWle5YgLv7Tc8ygvYjI=", "properties": {"@source_uri": "https://tools.usps.com/UspsToolsRestServices/rest/POLocator/findLocations", "@spider": "usps_collection_boxes", "addr:city": "NORTH CHATHAM", "addr:country": "US", "addr:postcode": "02650", "addr:state": "MA", "addr:street_address": "200 ORLEANS RD", "amenity": "post_box", "collection_times": "Mo-Fr 16:30; Sa 12:00", "indoor": "yes", "note": "ON 12/24 AND 12/31, THIS BOX MAY BE COLLECTED AS EARLY AS 12 NOON.", "nsi_id": "unitedstatespostalservice-a77078", "operator": "United States Postal Service", "operator:short": "USPS", "operator:type": "public", "operator:wikidata": "Q668687", "ref": "0265000006"}, "type": "Feature"}
{"geometry": {"coordinates": [-69.986345, 41.855378], "type": "Point"}, "id": "QErYE-3y8Nd1BR72zMtkhFGzGM0=", "properties": {"@source_uri": "https://tools.usps.com/UspsToolsRestServices/rest/POLocator/findLocations", "@spider": "usps_collection_boxes", "addr:city": "NORTH EASTHAM", "addr:country": "US", "addr:postcode": "02651", "addr:state": "MA", "addr:street_address": "50 BRACKETT RD", "amenity": "post_box", "collection_times": "Mo-Fr 17:00; Sa 12:00", "note": "ON 12/24 AND 12/31, THIS BOX MAY BE COLLECTED AS EARLY AS 12 NOON.", "nsi_id": "unitedstatespostalservice-a77078", "operator": "United States Postal Service", "operator:short": "USPS", "operator:type": "public", "operator:wikidata": "Q668687", "ref": "0265100001"}, "type": "Feature"}
{"geometry": {"coordinates": [-69.986345, 41.855378], "type": "Point"}, "id": "lV4M5bVS5k9RM9-CL8w-dEAn4kU=", "properties": {"@source_uri": "https://tools.usps.com/UspsToolsRestServices/rest/POLocator/findLocations", "@spider": "usps_collection_boxes", "addr:city": "NORTH EASTHAM", "addr:country": "US", "addr:postcode": "02651", "addr:state": "MA", "addr:street_address": "50 BRACKETT RD", "amenity": "post_box", "collection_times": "Mo-Fr 17:00; Sa 12:00", "indoor": "yes", "note": "ON 12/24 AND 12/31, THIS BOX MAY BE COLLECTED AS EARLY AS 12 NOON.", "nsi_id": "unitedstatespostalservice-a77078", "operator": "United States Postal Service", "operator:short": "USPS", "operator:type": "public", "operator:wikidata": "Q668687", "ref": "0265100004"}, "type": "Feature"}
{"geometry": {"coordinates": [-69.986345, 41.855378], "type": "Point"}, "id": "aUN70D6eJ3nrfUn16i6GDIjSoqs=", "properties": {"@source_uri": "https://tools.usps.com/UspsToolsRestServices/rest/POLocator/findLocations", "@spider": "usps_collection_boxes", "addr:city": "NORTH EASTHAM", "addr:country": "US", "addr:postcode": "02651", "addr:state": "MA", "addr:street_address": "50 BRACKETT RD", "amenity": "post_box", "collection_times": "Mo-Fr 17:00; Sa 12:00", "indoor": "yes", "note": "ON 12/24 AND 12/31, THIS BOX MAY BE COLLECTED AS EARLY AS 12 NOON.", "nsi_id": "unitedstatespostalservice-a77078", "operator": "United States Postal Service", "operator:short": "USPS", "operator:type": "public", "operator:wikidata": "Q668687", "ref": "0265100005"}, "type": "Feature"}
{"geometry": {"coordinates": [-69.986345, 41.855378], "type": "Point"}, "id": "1hSWVNn0aN0mdgMJHNOa8nwSLog=", "properties": {"@source_uri": "https://tools.usps.com/UspsToolsRestServices/rest/POLocator/findLocations", "@spider": "usps_collection_boxes", "addr:city": "NORTH EASTHAM", "addr:country": "US", "addr:postcode": "02651", "addr:state": "MA", "addr:street_address": "50 BRACKETT RD", "amenity": "post_box", "collection_times": "Mo-Fr 17:00; Sa 12:00", "indoor": "yes", "note": "ON 12/24 AND 12/31, THIS BOX MAY BE COLLECTED AS EARLY AS 12 NOON.", "nsi_id": "unitedstatespostalservice-a77078", "operator": "United States Postal Service", "operator:short": "USPS", "operator:type": "public", "operator:wikidata": "Q668687", "ref": "0265100006"}, "type": "Feature"}
{"geometry": {"coordinates": [-70.08491, 42.033893], "type": "Point"}, "id": "gSWK46fWUUCb69IpTTY8sJSsYXI=", "properties": {"@source_uri": "https://tools.usps.com/UspsToolsRestServices/rest/POLocator/findLocations", "@spider": "usps_collection_boxes", "addr:city": "NORTH TRURO", "addr:country": "US", "addr:postcode": "02652", "addr:state": "MA", "addr:street_address": "1 HIGHLAND RD UNIT 0", "amenity": "post_box", "collection_times": "Mo-Fr 16:45; Sa 11:30", "note": "ON 12/24 AND 12/31, THIS BOX MAY BE COLLECTED AS EARLY AS 12 NOON.", "nsi_id": "unitedstatespostalservice-a77078", "operator": "United States Postal Service", "operator:short": "USPS", "operator:type": "public", "operator:wikidata": "Q668687", "ref": "0265200001"}, "type": "Feature"}
{"geometry": {"coordinates": [-70.084327, 42.034205], "type": "Point"}, "id": "ML8Rc4FUEeg7NJdO9QBYEIEdAb0=", "properties": {"@source_uri": "https://tools.usps.com/UspsToolsRestServices/rest/POLocator/findLocations", "@spider": "usps_collection_boxes", "addr:city": "NORTH TRURO", "addr:country": "US", "addr:postcode": "02652", "addr:state": "MA", "addr:street_address": "1 HIGHLAND RD UNIT 0", "amenity": "post_box", "collection_times": "Mo-Fr 16:45; Sa 11:30", "indoor": "yes", "note": "ON 12/24 AND 12/31, THIS BOX MAY BE COLLECTED AS EARLY AS 12 NOON.", "nsi_id": "unitedstatespostalservice-a77078", "operator": "United States Postal Service", "operator:short": "USPS", "operator:type": "public", "operator:wikidata": "Q668687", "ref": "0265200004"}, "type": "Feature"}
{"geometry": {"coordinates": [-70.084327, 42.034205], "type": "Point"}, "id": "avlNqyu41fGSPDnkDjrE2gI_4tY=", "properties": {"@source_uri": "https://tools.usps.com/UspsToolsRestServices/rest/POLocator/findLocations", "@spider": "usps_collection_boxes", "addr:city": "NORTH TRURO", "addr:country": "US", "addr:postcode": "02652", "addr:state": "MA", "addr:street_address": "1 HIGHLAND RD UNIT 0", "amenity": "post_box", "collection_times": "Mo-Fr 16:45; Sa 11:30", "indoor": "yes", "note": "ON 12/24 AND 12/31, THIS BOX MAY BE COLLECTED AS EARLY AS 12 NOON.", "nsi_id": "unitedstatespostalservice-a77078", "operator": "United States Postal Service", "operator:short": "USPS", "operator:type": "public", "operator:wikidata": "Q668687", "ref": "0265200005"}, "type": "Feature"}
{"geometry": {"coordinates": [-69.989598, 41.786274], "type": "Point"}, "id": "0Ai556LVSrzUrfcZxWSPJbXQHuY=", "properties": {"@source_uri": "https://tools.usps.com/UspsToolsRestServices/rest/POLocator/findLocations", "@spider": "usps_collection_boxes", "addr:city": "ORLEANS", "addr:country": "US", "addr:postcode": "02653", "addr:state": "MA", "addr:street_address": "56 MAIN ST", "amenity": "post_box", "collection_times": "Mo-Fr 16:30; Sa 12:00", "note": "ON 12/24 AND 12/31, THIS BOX MAY BE COLLECTED AS EARLY AS 12 NOON.", "nsi_id": "unitedstatespostalservice-a77078", "operator": "United States Postal Service", "operator:short": "USPS", "operator:type": "public", "operator:wikidata": "Q668687", "ref": "0265300001"}, "type": "Feature"}
{"geometry": {"coordinates": [-69.989598, 41.786274], "type": "Point"}, "id": "YecZleeSWShLAdLeD7aW8-NVisM=", "properties": {"@source_uri": "https://tools.usps.com/UspsToolsRestServices/rest/POLocator/findLocations", "@spider": "usps_collection_boxes", "addr:city": "ORLEANS", "addr:country": "US", "addr:postcode": "02653", "addr:state": "MA", "addr:street_address": "56 MAIN ST", "amenity": "post_box", "collection_times": "Mo-Fr 17:00; Sa 13:30", "indoor": "yes", "note": "ON 12/24 AND 12/31, THIS BOX MAY BE COLLECTED AS EARLY AS 12 NOON.", "nsi_id": "unitedstatespostalservice-a77078", "operator": "United States Postal Service", "operator:short": "USPS", "operator:type": "public", "operator:wikidata": "Q668687", "ref": "0265300008"}, "type": "Feature"}
{"geometry": {"coordinates": [-69.995718, 41.790169], "type": "Point"}, "id": "p9_t3ONwcLc-icT0icarTuuZtmI=", "properties": {"@source_uri": "https://tools.usps.com/UspsToolsRestServices/rest/POLocator/findLocations", "@spider": "usps_collection_boxes", "addr:city": "ORLEANS", "addr:country": "US", "addr:postcode": "02653", "addr:state": "MA", "addr:street_address": "9 MAIN ST", "amenity": "post_box", "collection_times": "Mo-Sa 09:00", "nsi_id": "unitedstatespostalservice-a77078", "operator": "United States Postal Service", "operator:short": "USPS", "operator:type": "public", "operator:wikidata": "Q668687", "ref": "0265300009"}, "type": "Feature"}
{"geometry": {"coordinates": [-69.9853595, 41.79601], "type": "Point"}, "id": "fTT2-vC1G4YbztDhvCx4jEy6duI=", "properties": {"@source_uri": "https://tools.usps.com/UspsToolsRestServices/rest/POLocator/findLocations", "@spider": "usps_collection_boxes", "addr:city": "ORLEANS", "addr:country": "US", "addr:postcode": "02653", "addr:state": "MA", "addr:street_address": "2110 ROUTE 6A", "amenity": "post_box", "collection_times": "Mo-Sa 09:30", "nsi_id": "unitedstatespostalservice-a77078", "operator": "United States Postal Service", "operator:short": "USPS", "operator:type": "public", "operator:wikidata": "Q668687", "ref": "0265300010"}, "type": "Feature"}
{"geometry": {"coordinates": [-69.9946419, 41.786097], "type": "Point"}, "id": "vbsdCuDVw-VJgd-v2YNezW1W3AU=", "properties": {"@source_uri": "https://tools.usps.com/UspsToolsRestServices/rest/POLocator/findLocations", "@spider": "usps_collection_boxes", "addr:city": "ORLEANS", "addr:country": "US", "addr:postcode": "02653", "addr:state": "MA", "addr:street_address": "136 RT 6A", "amenity": "post_box", "collection_times": "Mo-Sa 09:30", "nsi_id": "unitedstatespostalservice-a77078", "operator": "United States Postal Service", "operator:short": "USPS", "operator:type": "public", "operator:wikidata": "Q668687", "ref": "0265300011"}, "type": "Feature"}
{"geometry": {"coordinates": [-70.0026038, 41.780438], "type": "Point"}, "id": "Ep1HE80XGcafTwxhAp6XrmwjIRI=", "properties": {"@source_uri": "https://tools.usps.com/UspsToolsRestServices/rest/POLocator/findLocations", "@spider": "usps_collection_boxes", "addr:city": "ORLEANS", "addr:country": "US", "addr:postcode": "02653", "addr:state": "MA", "addr:street_address": "9 WEST RD", "amenity": "post_box", "collection_times": "Mo-Sa 09:30", "nsi_id": "unitedstatespostalservice-a77078", "operator": "United States Postal Service", "operator:short": "USPS", "operator:type": "public", "operator:wikidata": "Q668687", "ref": "0265300012"}, "type": "Feature"}
{"geometry": {"coordinates": [-69.9978447, 41.782191], "type": "Point"}, "id": "EMlvTMwygpwM0ls9BPHtgSlUj_c=", "properties": {"@source_uri": "https://tools.usps.com/UspsToolsRestServices/rest/POLocator/findLocations", "@spider": "usps_collection_boxes", "addr:city": "ORLEANS", "addr:country": "US", "addr:postcode": "02653", "addr:state": "MA", "addr:street_address": "178 RT 6A", "amenity": "post_box", "collection_times": "Mo-Sa 10:00", "nsi_id": "unitedstatespostalservice-a77078", "operator": "United States Postal Service", "operator:short": "USPS", "operator:type": "public", "operator:wikidata": "Q668687", "ref": "0265300013"}, "type": "Feature"}
{"geometry": {"coordinates": [-69.989598, 41.786274], "type": "Point"}, "id": "k_vCcyC1YXv_vjJW9Dl25vzDEXc=", "properties": {"@source_uri": "https://tools.usps.com/UspsToolsRestServices/rest/POLocator/findLocations", "@spider": "usps_collection_boxes", "addr:city": "ORLEANS", "addr:country": "US", "addr:postcode": "02653", "addr:state": "MA", "addr:street_address": "56 MAIN ST", "amenity": "post_box", "collection_times": "Mo-Fr 17:00; Sa 13:30", "indoor": "yes", "note": "ON 12/24 AND 12/31, THIS BOX MAY BE COLLECTED AS EARLY AS 12 NOON.", "nsi_id": "unitedstatespostalservice-a77078", "operator": "United States Postal Service", "operator:short": "USPS", "operator:type": "public", "operator:wikidata": "Q668687", "ref": "0265300016"}, "type": "Feature"}
{"geometry": {"coordinates": [-69.989598, 41.786274], "type": "Point"}, "id": "dBXDOo2nP0Lhdv8Ztnt601nF-BU=", "properties": {"@source_uri": "https://tools.usps.com/UspsToolsRestServices/rest/POLocator/findLocations", "@spider": "usps_collection_boxes", "addr:city": "ORLEANS", "addr:country": "US", "addr:postcode": "02653", "addr:state": "MA", "addr:street_address": "56 MAIN ST", "amenity": "post_box", "collection_times": "Mo-Fr 17:00; Sa 13:30", "indoor": "yes", "note": "ON 12/24 AND 12/31, THIS BOX MAY BE COLLECTED AS EARLY AS 12 NOON.", "nsi_id": "unitedstatespostalservice-a77078", "operator": "United States Postal Service", "operator:short": "USPS", "operator:type": "public", "operator:wikidata": "Q668687", "ref": "0265300017"}, "type": "Feature"}
{"geometry": {"coordinates": [-69.989598, 41.786274], "type": "Point"}, "id": "G69CB5OzRRupNvIlC3fGpVGMDt8=", "properties": {"@source_uri": "https://tools.usps.com/UspsToolsRestServices/rest/POLocator/findLocations", "@spider": "usps_collection_boxes", "addr:city": "ORLEANS", "addr:country": "US", "addr:postcode": "02653", "addr:state": "MA", "addr:street_address": "56 MAIN ST", "amenity": "post_box", "collection_times": "Mo-Fr 17:00; Sa 13:30", "indoor": "yes", "note": "ON 12/24 AND 12/31, THIS BOX MAY BE COLLECTED AS EARLY AS 12 NOON.", "nsi_id": "unitedstatespostalservice-a77078", "operator": "United States Postal Service", "operator:short": "USPS", "operator:type": "public", "operator:wikidata": "Q668687", "ref": "0265300018"}, "type": "Feature"}
{"geometry": {"coordinates": [-70.3830622, 41.628976], "type": "Point"}, "id": "BuO3OJHdQYH5v0fST_fMbLEU48I=", "properties": {"@source_uri": "https://tools.usps.com/UspsToolsRestServices/rest/POLocator/findLocations", "@spider": "usps_collection_boxes", "addr:city": "OSTERVILLE", "addr:country": "US", "addr:postcode": "02655", "addr:state": "MA", "addr:street_address": "770 MAIN ST", "amenity": "post_box", "collection_times": "Mo-Sa 10:00", "nsi_id": "unitedstatespostalservice-a77078", "operator": "United States Postal Service", "operator:short": "USPS", "operator:type": "public", "operator:wikidata": "Q668687", "ref": "0265500002"}, "type": "Feature"}
{"geometry": {"coordinates": [-70.38612206, 41.628635745], "type": "Point"}, "id": "MvZDGs4gYvCHFMZCJOM7iFdrGCg=", "properties": {"@source_uri": "https://tools.usps.com/UspsToolsRestServices/rest/POLocator/findLocations", "@spider": "usps_collection_boxes", "addr:city": "OSTERVILLE", "addr:country": "US", "addr:postcode": "02655", "addr:state": "MA", "addr:street_address": "846 MAIN ST", "amenity": "post_box", "collection_times": "Mo-Sa 10:00", "nsi_id": "unitedstatespostalservice-a77078", "operator": "United States Postal Service", "operator:short": "USPS", "operator:type": "public", "operator:wikidata": "Q668687", "ref": "0265500003"}, "type": "Feature"}
{"geometry": {"coordinates": [-70.3869936, 41.628623], "type": "Point"}, "id": "ukPKuTLFEj03C_Kdrrs2aXUdTzU=", "properties": {"@source_uri": "https://tools.usps.com/UspsToolsRestServices/rest/POLocator/findLocations", "@spider": "usps_collection_boxes", "addr:city": "OSTERVILLE", "addr:country": "US", "addr:postcode": "02655", "addr:state": "MA", "addr:street_address": "867 MAIN ST", "amenity": "post_box", "collection_times": "Mo-Sa 10:00", "nsi_id": "unitedstatespostalservice-a77078", "operator": "United States Postal Service", "operator:short": "USPS", "operator:type": "public", "operator:wikidata": "Q668687", "ref": "0265500004"}, "type": "Feature"}
{"geometry": {"coordinates": [-70.3854393, 41.627985], "type": "Point"}, "id": "6ixU5M_G6v7tWIc81TJcrr15GUE=", "properties": {"@source_uri": "https://tools.usps.com/UspsToolsRestServices/rest/POLocator/findLocations", "@spider": "usps_collection_boxes", "addr:city": "OSTERVILLE", "addr:country": "US", "addr:postcode": "02655", "addr:state": "MA", "addr:street_address": "1 WIANNO AVE", "amenity": "post_box", "collection_times": "Mo-Sa 10:00", "nsi_id": "unitedstatespostalservice-a77078", "operator": "United States Postal Service", "operator:short": "USPS", "operator:type": "public", "operator:wikidata": "Q668687", "ref": "0265500008"}, "type": "Feature"}
{"geometry": {"coordinates": [-70.384218, 41.627163], "type": "Point"}, "id": "xN7w1j198djTXuF4ZDaEaQdYS10=", "properties": {"@source_uri": "https://tools.usps.com/UspsToolsRestServices/rest/POLocator/findLocations", "@spider": "usps_collection_boxes", "addr:city": "OSTERVILLE", "addr:country": "US", "addr:postcode": "02655", "addr:state": "MA", "addr:street_address": "42 WIANNO AVE", "amenity": "post_box", "collection_times": "Mo-Fr 17:00; Sa 15:30", "note": "ON 12/24 AND 12/31, THIS BOX MAY BE COLLECTED AS EARLY AS 12 NOON.", "nsi_id": "unitedstatespostalservice-a77078", "operator": "United States Postal Service", "operator:short": "USPS", "operator:type": "public", "operator:wikidata": "Q668687", "ref": "0265500009"}, "type": "Feature"}
{"geometry": {"coordinates": [-70.384192, 41.627094], "type": "Point"}, "id": "iKLfvMvFDw9WCH-IUthTSJMq1VQ=", "properties": {"@source_uri": "https://tools.usps.com/UspsToolsRestServices/rest/POLocator/findLocations", "@spider": "usps_collection_boxes", "addr:city": "OSTERVILLE", "addr:country": "US", "addr:postcode": "02655", "addr:state": "MA", "addr:street_address": "42 WIANNO AVE", "amenity": "post_box", "collection_times": "Mo-Fr 17:00; Sa 15:30", "indoor": "yes", "note": "ON 12/24 AND 12/31, THIS BOX MAY BE COLLECTED AS EARLY AS 12 NOON.", "nsi_id": "unitedstatespostalservice-a77078", "operator": "United States Postal Service", "operator:short": "USPS", "operator:type": "public", "operator:wikidata": "Q668687", "ref": "0265500012"}, "type": "Feature"}
{"geometry": {"coordinates": [-70.384192, 41.627094], "type": "Point"}, "id": "I0Ud_pgatpQXQETxkE2HQLDhTmE=", "properties": {"@source_uri": "https://tools.usps.com/UspsToolsRestServices/rest/POLocator/findLocations", "@spider": "usps_collection_boxes", "addr:city": "OSTERVILLE", "addr:country": "US", "addr:postcode": "02655", "addr:state": "MA", "addr:street_address": "42 WIANNO AVE", "amenity": "post_box", "collection_times": "Mo-Fr 17:00; Sa 15:30", "indoor": "yes", "note": "ON 12/24 AND 12/31, THIS BOX MAY BE COLLECTED AS EARLY AS 12 NOON.", "nsi_id": "unitedstatespostalservice-a77078", "operator": "United States Postal Service", "operator:short": "USPS", "operator:type": "public", "operator:wikidata": "Q668687", "ref": "0265500013"}, "type": "Feature"}
{"geometry": {"coordinates": [-70.3888327, 41.633727], "type": "Point"}, "id": "MwZRkeLoIkxr1_qLTAknHf3gSlA=", "properties": {"@source_uri": "https://tools.usps.com/UspsToolsRestServices/rest/POLocator/findLocations", "@spider": "usps_collection_boxes", "addr:city": "OSTERVILLE", "addr:country": "US", "addr:postcode": "02655", "addr:state": "MA", "addr:street_address": "1046 MAIN ST", "amenity": "post_box", "collection_times": "Mo-Sa 10:00", "nsi_id": "unitedstatespostalservice-a77078", "operator": "United States Postal Service", "operator:short": "USPS", "operator:type": "public", "operator:wikidata": "Q668687", "ref": "0265500014"}, "type": "Feature"}
{"geometry": {"coordinates": [-70.1867729, 42.052729], "type": "Point"}, "id": "z5OhKIXsFGGFiJupu5h6yO8D7ro=", "properties": {"@source_uri": "https://tools.usps.com/UspsToolsRestServices/rest/POLocator/findLocations", "@spider": "usps_collection_boxes", "addr:city": "PROVINCETOWN", "addr:country": "US", "addr:postcode": "02657", "addr:state": "MA", "addr:street_address": "130 BRADFORD ST", "amenity": "post_box", "collection_times": "Mo-Sa 10:00", "nsi_id": "unitedstatespostalservice-a77078", "operator": "United States Postal Service", "operator:short": "USPS", "operator:type": "public", "operator:wikidata": "Q668687", "ref": "0265700001"}, "type": "Feature"}
{"geometry": {"coordinates": [-70.1773139, 42.058303], "type": "Point"}, "id": "LPr6NMOEodznfVitxVtiNudacqI=", "properties": {"@source_uri": "https://tools.usps.com/UspsToolsRestServices/rest/POLocator/findLocations", "@spider": "usps_collection_boxes", "addr:city": "PROVINCETOWN", "addr:country": "US", "addr:postcode": "02657", "addr:state": "MA", "addr:street_address": "212 BRADFORD ST", "amenity": "post_box", "collection_times": "Mo-Fr 15:00; Sa 10:00", "note": "ON 12/24 AND 12/31, THIS BOX MAY BE COLLECTED AS EARLY AS 12 NOON.", "nsi_id": "unitedstatespostalservice-a77078", "operator": "United States Postal Service", "operator:short": "USPS", "operator:type": "public", "operator:wikidata": "Q668687", "ref": "0265700003"}, "type": "Feature"}
{"geometry": {"coordinates": [-70.1920130244, 42.0445902888], "type": "Point"}, "id": "DmNJ9XVOXraZeDnXAUaRCwqtEIQ=", "properties": {"@source_uri": "https://tools.usps.com/UspsToolsRestServices/rest/POLocator/findLocations", "@spider": "usps_collection_boxes", "addr:city": "PROVINCETOWN", "addr:country": "US", "addr:postcode": "02657", "addr:state": "MA", "addr:street_address": "100 COMMERCIAL ST", "amenity": "post_box", "collection_times": "Mo-Sa 10:00", "nsi_id": "unitedstatespostalservice-a77078", "operator": "United States Postal Service", "operator:short": "USPS", "operator:type": "public", "operator:wikidata": "Q668687", "ref": "0265700005"}, "type": "Feature"}
{"geometry": {"coordinates": [-70.1906244, 42.046917], "type": "Point"}, "id": "ehJDJzydZcO0ZMFRhRPyQoXXKAc=", "properties": {"@source_uri": "https://tools.usps.com/UspsToolsRestServices/rest/POLocator/findLocations", "@spider": "usps_collection_boxes", "addr:city": "PROVINCETOWN", "addr:country": "US", "addr:postcode": "02657", "addr:state": "MA", "addr:street_address": "161 COMMERCIAL ST", "amenity": "post_box", "collection_times": "Mo-Sa 10:00", "nsi_id": "unitedstatespostalservice-a77078", "operator": "United States Postal Service", "operator:short": "USPS", "operator:type": "public", "operator:wikidata": "Q668687", "ref": "0265700006"}, "type": "Feature"}
{"geometry": {"coordinates": [-70.1870826, 42.051241], "type": "Point"}, "id": "u4qKmooa6UZtM4zyga-e7N8Fs3M=", "properties": {"@source_uri": "https://tools.usps.com/UspsToolsRestServices/rest/POLocator/findLocations", "@spider": "usps_collection_boxes", "addr:city": "PROVINCETOWN", "addr:country": "US", "addr:postcode": "02657", "addr:state": "MA", "addr:street_address": "260 COMMERCIAL ST", "amenity": "post_box", "collection_times": "Mo-Fr 15:00; Sa 10:00", "note": "ON 12/24 AND 12/31, THIS BOX MAY BE COLLECTED AS EARLY AS 12 NOON.", "nsi_id": "unitedstatespostalservice-a77078", "operator": "United States Postal Service", "operator:short": "USPS", "operator:type": "public", "operator:wikidata": "Q668687", "ref": "0265700010"}, "type": "Feature"}
{"geometry": {"coordinates": [-70.1858142, 42.051837], "type": "Point"}, "id": "YjwHC7-22LotkbbSgJWq9XYLLRM=", "properties": {"@source_uri": "https://tools.usps.com/UspsToolsRestServices/rest/POLocator/findLocations", "@spider": "usps_collection_boxes", "addr:city": "PROVINCETOWN", "addr:country": "US", "addr:postcode": "02657", "addr:state": "MA", "addr:street_address": "310 COMMERCIAL ST", "amenity": "post_box", "collection_times": "Mo-Fr 15:00; Sa 10:00", "note": "ON 12/24 AND 12/31, THIS BOX MAY BE COLLECTED AS EARLY AS 12 NOON.", "nsi_id": "unitedstatespostalservice-a77078", "operator": "United States Postal Service", "operator:short": "USPS", "operator:type": "public", "operator:wikidata": "Q668687", "ref": "0265700011"}, "type": "Feature"}
{"geometry": {"coordinates": [-70.1958144, 42.053468], "type": "Point"}, "id": "WCyYtrLHQ261po1E615a9G6K0z4=", "properties": {"@source_uri": "https://tools.usps.com/UspsToolsRestServices/rest/POLocator/findLocations", "@spider": "usps_collection_boxes", "addr:city": "PROVINCETOWN", "addr:country": "US", "addr:postcode": "02657", "addr:state": "MA", "addr:street_address": "100 SHANKPAINTER RD", "amenity": "post_box", "collection_times": "Mo-Sa 10:00", "nsi_id": "unitedstatespostalservice-a77078", "operator": "United States Postal Service", "operator:short": "USPS", "operator:type": "public", "operator:wikidata": "Q668687", "ref": "0265700017"}, "type": "Feature"}
{"geometry": {"coordinates": [-70.1948856, 42.044219], "type": "Point"}, "id": "21jpHC65LoCY_pbxjdjnvJk5kI8=", "properties": {"@source_uri": "https://tools.usps.com/UspsToolsRestServices/rest/POLocator/findLocations", "@spider": "usps_collection_boxes", "addr:city": "PROVINCETOWN", "addr:country": "US", "addr:postcode": "02657", "addr:state": "MA", "addr:street_address": "175 BRADFORD STREET EXT", "amenity": "post_box", "collection_times": "Mo-Sa 10:00", "nsi_id": "unitedstatespostalservice-a77078", "operator": "United States Postal Service", "operator:short": "USPS", "operator:type": "public", "operator:wikidata": "Q668687", "ref": "0265700018"}, "type": "Feature"}
{"geometry": {"coordinates": [-70.188477, 42.049648], "type": "Point"}, "id": "zCwsyrgHst_tVtdzEczPhpHxrOA=", "properties": {"@source_uri": "https://tools.usps.com/UspsToolsRestServices/rest/POLocator/findLocations", "@spider": "usps_collection_boxes", "addr:city": "PROVINCETOWN", "addr:country": "US", "addr:postcode": "02657", "addr:state": "MA", "addr:street_address": "219 COMMERCIAL ST", "amenity": "post_box", "collection_times": "Mo-Fr 16:45; Sa 15:45", "indoor": "yes", "note": "ON 12/24 AND 12/31, THIS BOX MAY BE COLLECTED AS EARLY AS 12 NOON.", "nsi_id": "unitedstatespostalservice-a77078", "operator": "United States Postal Service", "operator:short": "USPS", "operator:type": "public", "operator:wikidata": "Q668687", "ref": "0265700019"}, "type": "Feature"}
{"geometry": {"coordinates": [-70.188477, 42.049648], "type": "Point"}, "id": "JCjvPypkp43tLkWhe--HAwjwqHg=", "properties": {"@source_uri": "https://tools.usps.com/UspsToolsRestServices/rest/POLocator/findLocations", "@spider": "usps_collection_boxes", "addr:city": "PROVINCETOWN", "addr:country": "US", "addr:postcode": "02657", "addr:state": "MA", "addr:street_address": "219 COMMERCIAL ST", "amenity": "post_box", "collection_times": "Mo-Fr 16:45; Sa 15:45", "indoor": "yes", "note": "ON 12/24 AND 12/31, THIS BOX MAY BE COLLECTED AS EARLY AS 12 NOON.", "nsi_id": "unitedstatespostalservice-a77078", "operator": "United States Postal Service", "operator:short": "USPS", "operator:type": "public", "operator:wikidata": "Q668687", "ref": "0265700020"}, "type": "Feature"}
{"geometry": {"coordinates": [-70.188477, 42.049648], "type": "Point"}, "id": "WIUvhbSFoaopCF7Xon_EAwkbyUc=", "properties": {"@source_uri": "https://tools.usps.com/UspsToolsRestServices/rest/POLocator/findLocations", "@spider": "usps_collection_boxes", "addr:city": "PROVINCETOWN", "addr:country": "US", "addr:postcode": "02657", "addr:state": "MA", "addr:street_address": "219 COMMERCIAL ST", "amenity": "post_box", "collection_times": "Mo-Fr 16:45; Sa 15:45", "indoor": "yes", "note": "ON 12/24 AND 12/31, THIS BOX MAY BE COLLECTED AS EARLY AS 12 NOON.", "nsi_id": "unitedstatespostalservice-a77078", "operator": "United States Postal Service", "operator:short": "USPS", "operator:type": "public", "operator:wikidata": "Q668687", "ref": "0265700021"}, "type": "Feature"}
{"geometry": {"coordinates": [-70.188477, 42.049648], "type": "Point"}, "id": "DSGYHFYHYRPbuvuFDDBcTCG_i7w=", "properties": {"@source_uri": "https://tools.usps.com/UspsToolsRestServices/rest/POLocator/findLocations", "@spider": "usps_collection_boxes", "addr:city": "PROVINCETOWN", "addr:country": "US", "addr:postcode": "02657", "addr:state": "MA", "addr:street_address": "219 COMMERCIAL ST", "amenity": "post_box", "collection_times": "Mo-Fr 17:00; Sa 15:45", "note": "ON 12/24 AND 12/31, THIS BOX MAY BE COLLECTED AS EARLY AS 12 NOON.", "nsi_id": "unitedstatespostalservice-a77078", "operator": "United States Postal Service", "operator:short": "USPS", "operator:type": "public", "operator:wikidata": "Q668687", "ref": "0265700025"}, "type": "Feature"}
{"geometry": {"coordinates": [-70.021595, 41.681339], "type": "Point"}, "id": "mkj_pVfMsMAft0M6E4gAFWO2P08=", "properties": {"@source_uri": "https://tools.usps.com/UspsToolsRestServices/rest/POLocator/findLocations", "@spider": "usps_collection_boxes", "addr:city": "SOUTH CHATHAM", "addr:country": "US", "addr:postcode": "02659", "addr:state": "MA", "addr:street_address": "2455 MAIN ST", "amenity": "post_box", "collection_times": "Mo-Fr 16:15; Sa 11:30", "note": "ON 12/24 AND 12/31, THIS BOX MAY BE COLLECTED AS EARLY AS 12 NOON.", "nsi_id": "unitedstatespostalservice-a77078", "operator": "United States Postal Service", "operator:short": "USPS", "operator:type": "public", "operator:wikidata": "Q668687", "ref": "0265900001"}, "type": "Feature"}
{"geometry": {"coordinates": [-70.02158, 41.681386], "type": "Point"}, "id": "H2DNornLUEPTt5_AVL_ztjLwsYo=", "properties": {"@source_uri": "https://tools.usps.com/UspsToolsRestServices/rest/POLocator/findLocations", "@spider": "usps_collection_boxes", "addr:city": "SOUTH CHATHAM", "addr:country": "US", "addr:postcode": "02659", "addr:state": "MA", "addr:street_address": "2455 MAIN ST", "amenity": "post_box", "collection_times": "Mo-Fr 16:15; Sa 11:30", "indoor": "yes", "note": "ON 12/24 AND 12/31, THIS BOX MAY BE COLLECTED AS EARLY AS 12 NOON.", "nsi_id": "unitedstatespostalservice-a77078", "operator": "United States Postal Service", "operator:short": "USPS", "operator:type": "public", "operator:wikidata": "Q668687", "ref": "0265900002"}, "type": "Feature"}
{"geometry": {"coordinates": [-70.02158, 41.681386], "type": "Point"}, "id": "Pp3av7a_7QhvRZ7JtgIHNT1aNd0=", "properties": {"@source_uri": "https://tools.usps.com/UspsToolsRestServices/rest/POLocator/findLocations", "@spider": "usps_collection_boxes", "addr:city": "SOUTH CHATHAM", "addr:country": "US", "addr:postcode": "02659", "addr:state": "MA", "addr:street_address": "2455 MAIN ST", "amenity": "post_box", "collection_times": "Mo-Fr 16:15; Sa 11:30", "indoor": "yes", "note": "ON 12/24 AND 12/31, THIS BOX MAY BE COLLECTED AS EARLY AS 12 NOON.", "nsi_id": "unitedstatespostalservice-a77078", "operator": "United States Postal Service", "operator:short": "USPS", "operator:type": "public", "operator:wikidata": "Q668687", "ref": "0265900003"}, "type": "Feature"}
{"geometry": {"coordinates": [-70.153358, 41.693555], "type": "Point"}, "id": "wDn0tFpjPMeC5MhRuINFKZBA9lY=", "properties": {"@source_uri": "https://tools.usps.com/UspsToolsRestServices/rest/POLocator/findLocations", "@spider": "usps_collection_boxes", "addr:city": "SOUTH DENNIS", "addr:country": "US", "addr:postcode": "02660", "addr:state": "MA", "addr:street_address": "9 MARKET PL", "amenity": "post_box", "collection_times": "Mo-Fr 16:30; Sa 12:00", "indoor": "yes", "note": "ON 12/24 AND 12/31, THIS BOX MAY BE COLLECTED AS EARLY AS 12 NOON.", "nsi_id": "unitedstatespostalservice-a77078", "operator": "United States Postal Service", "operator:short": "USPS", "operator:type": "public", "operator:wikidata": "Q668687", "ref": "0266000001"}, "type": "Feature"}
{"geometry": {"coordinates": [-70.1710586, 41.707679], "type": "Point"}, "id": "v46q2QIoSxYIfbQB4U-B8KuA4P4=", "properties": {"@source_uri": "https://tools.usps.com/UspsToolsRestServices/rest/POLocator/findLocations", "@spider": "usps_collection_boxes", "addr:city": "SOUTH DENNIS", "addr:country": "US", "addr:postcode": "02660", "addr:state": "MA", "addr:street_address": "9 MARKET PL", "amenity": "post_box", "collection_times": "Mo-Fr 16:30; Sa 12:00", "note": "ON 12/24 AND 12/31, THIS BOX MAY BE COLLECTED AS EARLY AS 12 NOON.", "nsi_id": "unitedstatespostalservice-a77078", "operator": "United States Postal Service", "operator:short": "USPS", "operator:type": "public", "operator:wikidata": "Q668687", "ref": "0266000003"}, "type": "Feature"}
{"geometry": {"coordinates": [-70.153262, 41.69359], "type": "Point"}, "id": "d6JM05CfgGiYQAILj2FrsErXTSQ=", "properties": {"@source_uri": "https://tools.usps.com/UspsToolsRestServices/rest/POLocator/findLocations", "@spider": "usps_collection_boxes", "addr:city": "SOUTH DENNIS", "addr:country": "US", "addr:postcode": "02660", "addr:state": "MA", "addr:street_address": "9 MARKET PL", "amenity": "post_box", "collection_times": "Mo-Fr 16:30; Sa 12:00", "indoor": "yes", "note": "ON 12/24 AND 12/31, THIS BOX MAY BE COLLECTED AS EARLY AS 12 NOON.", "nsi_id": "unitedstatespostalservice-a77078", "operator": "United States Postal Service", "operator:short": "USPS", "operator:type": "public", "operator:wikidata": "Q668687", "ref": "0266000005"}, "type": "Feature"}
{"geometry": {"coordinates": [-70.1504533, 41.694432], "type": "Point"}, "id": "ph2Ag6xdloZVfSxF5g1chMgSnco=", "properties": {"@source_uri": "https://tools.usps.com/UspsToolsRestServices/rest/POLocator/findLocations", "@spider": "usps_collection_boxes", "addr:city": "SOUTH DENNIS", "addr:country": "US", "addr:postcode": "02660", "addr:state": "MA", "addr:street_address": "516 ROUTE 134", "amenity": "post_box", "collection_times": "Mo-Sa 09:30", "nsi_id": "unitedstatespostalservice-a77078", "operator": "United States Postal Service", "operator:short": "USPS", "operator:type": "public", "operator:wikidata": "Q668687", "ref": "0266000006"}, "type": "Feature"}
{"geometry": {"coordinates": [-70.1545780112, 41.6937124768], "type": "Point"}, "id": "6nYl1k-0HIHI0Cq7-YStvMjvrco=", "properties": {"@source_uri": "https://tools.usps.com/UspsToolsRestServices/rest/POLocator/findLocations", "@spider": "usps_collection_boxes", "addr:city": "SOUTH DENNIS", "addr:country": "US", "addr:postcode": "02660", "addr:state": "MA", "addr:street_address": "9 MARKET PL", "amenity": "post_box", "collection_times": "Mo-Fr 16:30; Sa 12:00", "note": "ON 12/24 AND 12/31, THIS BOX MAY BE COLLECTED AS EARLY AS 12 NOON.", "nsi_id": "unitedstatespostalservice-a77078", "operator": "United States Postal Service", "operator:short": "USPS", "operator:type": "public", "operator:wikidata": "Q668687", "ref": "0266000007"}, "type": "Feature"}
{"geometry": {"coordinates": [-70.040837, 41.678154], "type": "Point"}, "id": "ChR2EOkfeHiI1BSE2L7UJ2kaHOg=", "properties": {"@source_uri": "https://tools.usps.com/UspsToolsRestServices/rest/POLocator/findLocations", "@spider": "usps_collection_boxes", "addr:city": "SOUTH HARWICH", "addr:country": "US", "addr:postcode": "02661", "addr:state": "MA", "addr:street_address": "944 MAIN ST", "amenity": "post_box", "collection_times": "Mo-Fr 16:45; Sa 11:45", "note": "ON 12/24 AND 12/31, THIS BOX MAY BE COLLECTED AS EARLY AS 12 NOON.", "nsi_id": "unitedstatespostalservice-a77078", "operator": "United States Postal Service", "operator:short": "USPS", "operator:type": "public", "operator:wikidata": "Q668687", "ref": "0266100001"}, "type": "Feature"}
{"geometry": {"coordinates": [-70.041399, 41.677908], "type": "Point"}, "id": "6ihTGGykInb-I5DTNp-s4jEbhvY=", "properties": {"@source_uri": "https://tools.usps.com/UspsToolsRestServices/rest/POLocator/findLocations", "@spider": "usps_collection_boxes", "addr:city": "SOUTH HARWICH", "addr:country": "US", "addr:postcode": "02661", "addr:state": "MA", "addr:street_address": "944 ROUTE 28", "amenity": "post_box", "collection_times": "Mo-Fr 16:45; Sa 11:45", "indoor": "yes", "note": "ON 12/24 AND 12/31, THIS BOX MAY BE COLLECTED AS EARLY AS 12 NOON.", "nsi_id": "unitedstatespostalservice-a77078", "operator": "United States Postal Service", "operator:short": "USPS", "operator:type": "public", "operator:wikidata": "Q668687", "ref": "0266100002"}, "type": "Feature"}
{"geometry": {"coordinates": [-70.041399, 41.677908], "type": "Point"}, "id": "xr5wYJzDEZkzZnJaXBSfVryjoOM=", "properties": {"@source_uri": "https://tools.usps.com/UspsToolsRestServices/rest/POLocator/findLocations", "@spider": "usps_collection_boxes", "addr:city": "SOUTH HARWICH", "addr:country": "US", "addr:postcode": "02661", "addr:state": "MA", "addr:street_address": "944 ROUTE 28", "amenity": "post_box", "collection_times": "Mo-Fr 16:45; Sa 11:45", "indoor": "yes", "note": "ON 12/24 AND 12/31, THIS BOX MAY BE COLLECTED AS EARLY AS 12 NOON.", "nsi_id": "unitedstatespostalservice-a77078", "operator": "United States Postal Service", "operator:short": "USPS", "operator:type": "public", "operator:wikidata": "Q668687", "ref": "0266100003"}, "type": "Feature"}
{"geometry": {"coordinates": [-69.991009, 41.752767], "type": "Point"}, "id": "Bhkk4_FeKy7z89aBfqTxKkgJXqo=", "properties": {"@source_uri": "https://tools.usps.com/UspsToolsRestServices/rest/POLocator/findLocations", "@spider": "usps_collection_boxes", "addr:city": "SOUTH ORLEANS", "addr:country": "US", "addr:postcode": "02662", "addr:state": "MA", "addr:street_address": "403 S ORLEANS ROAD ROUTE 28", "amenity": "post_box", "collection_times": "Mo-Fr 16:30; Sa 11:45", "note": "ON 12/24 AND 12/31, THIS BOX MAY BE COLLECTED AS EARLY AS 12 NOON.", "nsi_id": "unitedstatespostalservice-a77078", "operator": "United States Postal Service", "operator:short": "USPS", "operator:type": "public", "operator:wikidata": "Q668687", "ref": "0266200002"}, "type": "Feature"}
{"geometry": {"coordinates": [-69.991009, 41.752767], "type": "Point"}, "id": "QKxI0lUeL1P7IITitVuwrivuY9c=", "properties": {"@source_uri": "https://tools.usps.com/UspsToolsRestServices/rest/POLocator/findLocations", "@spider": "usps_collection_boxes", "addr:city": "SOUTH ORLEANS", "addr:country": "US", "addr:postcode": "02662", "addr:state": "MA", "addr:street_address": "403 S ORLEANS RD", "amenity": "post_box", "collection_times": "Mo-Fr 16:30; Sa 11:45", "indoor": "yes", "note": "ON 12/24 AND 12/31, THIS BOX MAY BE COLLECTED AS EARLY AS 12 NOON.", "nsi_id": "unitedstatespostalservice-a77078", "operator": "United States Postal Service", "operator:short": "USPS", "operator:type": "public", "operator:wikidata": "Q668687", "ref": "0266200004"}, "type": "Feature"}
{"geometry": {"coordinates": [-69.991009, 41.752767], "type": "Point"}, "id": "qWBS0r9EdIM3SnTGyt1EKbYb8RQ=", "properties": {"@source_uri": "https://tools.usps.com/UspsToolsRestServices/rest/POLocator/findLocations", "@spider": "usps_collection_boxes", "addr:city": "SOUTH ORLEANS", "addr:country": "US", "addr:postcode": "02662", "addr:state": "MA", "addr:street_address": "403 S ORLEANS RD", "amenity": "post_box", "collection_times": "Mo-Fr 16:30; Sa 11:45", "indoor": "yes", "note": "ON 12/24 AND 12/31, THIS BOX MAY BE COLLECTED AS EARLY AS 12 NOON.", "nsi_id": "unitedstatespostalservice-a77078", "operator": "United States Postal Service", "operator:short": "USPS", "operator:type": "public", "operator:wikidata": "Q668687", "ref": "0266200005"}, "type": "Feature"}
{"geometry": {"coordinates": [-69.989925, 41.916395], "type": "Point"}, "id": "TtVsh3XbhB1FeWf0u9tdRzapTVs=", "properties": {"@source_uri": "https://tools.usps.com/UspsToolsRestServices/rest/POLocator/findLocations", "@spider": "usps_collection_boxes", "addr:city": "SOUTH WELLFLEET", "addr:country": "US", "addr:postcode": "02663", "addr:state": "MA", "addr:street_address": "1426 ROUTE 6", "amenity": "post_box", "collection_times": "Mo-Fr 16:30; Sa 11:30", "note": "ON 12/24 AND 12/31, THIS BOX MAY BE COLLECTED AS EARLY AS 12 NOON.", "nsi_id": "unitedstatespostalservice-a77078", "operator": "United States Postal Service", "operator:short": "USPS", "operator:type": "public", "operator:wikidata": "Q668687", "ref": "0266300002"}, "type": "Feature"}
{"geometry": {"coordinates": [-69.989925, 41.916395], "type": "Point"}, "id": "8HDM5_szpgXKs7WY8qNxFqkm5n8=", "properties": {"@source_uri": "https://tools.usps.com/UspsToolsRestServices/rest/POLocator/findLocations", "@spider": "usps_collection_boxes", "addr:city": "SOUTH WELLFLEET", "addr:country": "US", "addr:postcode": "02663", "addr:state": "MA", "addr:street_address": "1426 ROUTE 6", "amenity": "post_box", "collection_times": "Mo-Fr 16:30; Sa 11:30", "indoor": "yes", "note": "ON 12/24 AND 12/31, THIS BOX MAY BE COLLECTED AS EARLY AS 12 NOON.", "nsi_id": "unitedstatespostalservice-a77078", "operator": "United States Postal Service", "operator:short": "USPS", "operator:type": "public", "operator:wikidata": "Q668687", "ref": "0266300004"}, "type": "Feature"}
{"geometry": {"coordinates": [-69.989925, 41.916395], "type": "Point"}, "id": "fjwKHXPkf8d1kt0s6qJlpzCAxlA=", "properties": {"@source_uri": "https://tools.usps.com/UspsToolsRestServices/rest/POLocator/findLocations", "@spider": "usps_collection_boxes", "addr:city": "SOUTH WELLFLEET", "addr:country": "US", "addr:postcode": "02663", "addr:state": "MA", "addr:street_address": "1426 ROUTE 6", "amenity": "post_box", "collection_times": "Mo-Fr 16:30; Sa 11:30", "indoor": "yes", "note": "ON 12/24 AND 12/31, THIS BOX MAY BE COLLECTED AS EARLY AS 12 NOON.", "nsi_id": "unitedstatespostalservice-a77078", "operator": "United States Postal Service", "operator:short": "USPS", "operator:type": "public", "operator:wikidata": "Q668687", "ref": "0266300005"}, "type": "Feature"}
{"geometry": {"coordinates": [-70.2084123, 41.659051], "type": "Point"}, "id": "9kk_3QVCB0IoX2OKr3R5jurp1Vc=", "properties": {"@source_uri": "https://tools.usps.com/UspsToolsRestServices/rest/POLocator/findLocations", "@spider": "usps_collection_boxes", "addr:city": "WEST YARMOUTH", "addr:country": "US", "addr:postcode": "02664", "addr:state": "MA", "addr:street_address": "1100 ALEWIFE CIR", "amenity": "post_box", "collection_times": "Mo-Sa 09:00", "nsi_id": "unitedstatespostalservice-a77078", "operator": "United States Postal Service", "operator:short": "USPS", "operator:type": "public", "operator:wikidata": "Q668687", "ref": "0266400001"}, "type": "Feature"}
{"geometry": {"coordinates": [-70.2071338, 41.658247], "type": "Point"}, "id": "37RkYvAmBvfIKuRfhaODU5tsZlw=", "properties": {"@source_uri": "https://tools.usps.com/UspsToolsRestServices/rest/POLocator/findLocations", "@spider": "usps_collection_boxes", "addr:city": "WEST YARMOUTH", "addr:country": "US", "addr:postcode": "02664", "addr:state": "MA", "addr:street_address": "59 LONG POND DR", "amenity": "post_box", "collection_times": "Mo-Sa 09:00", "nsi_id": "unitedstatespostalservice-a77078", "operator": "United States Postal Service", "operator:short": "USPS", "operator:type": "public", "operator:wikidata": "Q668687", "ref": "0266400003"}, "type": "Feature"}
{"geometry": {"coordinates": [-70.2064085, 41.665496], "type": "Point"}, "id": "aG9EA5e1wjMwFbNmXUXQOpRuRJc=", "properties": {"@source_uri": "https://tools.usps.com/UspsToolsRestServices/rest/POLocator/findLocations", "@spider": "usps_collection_boxes", "addr:city": "WEST YARMOUTH", "addr:country": "US", "addr:postcode": "02664", "addr:state": "MA", "addr:street_address": "21 LONG POND PLZ", "amenity": "post_box", "collection_times": "Mo-Sa 09:00", "nsi_id": "unitedstatespostalservice-a77078", "operator": "United States Postal Service", "operator:short": "USPS", "operator:type": "public", "operator:wikidata": "Q668687", "ref": "0266400005"}, "type": "Feature"}
{"geometry": {"coordinates": [-70.1989788, 41.663779], "type": "Point"}, "id": "NuHd9lFU2D6aFoeRYyaTWRKueH8=", "properties": {"@source_uri": "https://tools.usps.com/UspsToolsRestServices/rest/POLocator/findLocations", "@spider": "usps_collection_boxes", "addr:city": "WEST YARMOUTH", "addr:country": "US", "addr:postcode": "02664", "addr:state": "MA", "addr:street_address": "1146 ROUTE 28", "amenity": "post_box", "collection_times": "Mo-Sa 09:00", "nsi_id": "unitedstatespostalservice-a77078", "operator": "United States Postal Service", "operator:short": "USPS", "operator:type": "public", "operator:wikidata": "Q668687", "ref": "0266400008"}, "type": "Feature"}
{"geometry": {"coordinates": [-70.1864294, 41.667145], "type": "Point"}, "id": "f8zl-eBt2NGRnvPWQkwtr4dW5EQ=", "properties": {"@source_uri": "https://tools.usps.com/UspsToolsRestServices/rest/POLocator/findLocations", "@spider": "usps_collection_boxes", "addr:city": "WEST YARMOUTH", "addr:country": "US", "addr:postcode": "02664", "addr:state": "MA", "addr:street_address": "1326 ROUTE 28", "amenity": "post_box", "collection_times": "Mo-Sa 09:00", "nsi_id": "unitedstatespostalservice-a77078", "operator": "United States Postal Service", "operator:short": "USPS", "operator:type": "public", "operator:wikidata": "Q668687", "ref": "0266400011"}, "type": "Feature"}
{"geometry": {"coordinates": [-70.2030287, 41.65979], "type": "Point"}, "id": "de8Yo6hNpQIzN01YlaiUi1X5_bg=", "properties": {"@source_uri": "https://tools.usps.com/UspsToolsRestServices/rest/POLocator/findLocations", "@spider": "usps_collection_boxes", "addr:city": "WEST YARMOUTH", "addr:country": "US", "addr:postcode": "02664", "addr:state": "MA", "addr:street_address": "1057 ROUTE 28", "amenity": "post_box", "collection_times": "Mo-Fr 17:00; Sa 15:00", "note": "ON 12/24 AND 12/31, THIS BOX MAY BE COLLECTED AS EARLY AS 12 NOON.", "nsi_id": "unitedstatespostalservice-a77078", "operator": "United States Postal Service", "operator:short": "USPS", "operator:type": "public", "operator:wikidata": "Q668687", "ref": "0266400013"}, "type": "Feature"}
{"geometry": {"coordinates": [-70.203084, 41.659974], "type": "Point"}, "id": "LPacWgKnWLEf0eeQnd-DKpfrZhQ=", "properties": {"@source_uri": "https://tools.usps.com/UspsToolsRestServices/rest/POLocator/findLocations", "@spider": "usps_collection_boxes", "addr:city": "WEST YARMOUTH", "addr:country": "US", "addr:postcode": "02664", "addr:state": "MA", "addr:street_address": "1057 ROUTE 28", "amenity": "post_box", "collection_times": "Mo-Fr 17:00; Sa 16:00", "indoor": "yes", "note": "ON 12/24 AND 12/31, THIS BOX MAY BE COLLECTED AS EARLY AS 12 NOON.", "nsi_id": "unitedstatespostalservice-a77078", "operator": "United States Postal Service", "operator:short": "USPS", "operator:type": "public", "operator:wikidata": "Q668687", "ref": "0266400017"}, "type": "Feature"}
{"geometry": {"coordinates": [-70.2089631, 41.686891], "type": "Point"}, "id": "nglciULMYCeWwy8ohJtqIULASbE=", "properties": {"@source_uri": "https://tools.usps.com/UspsToolsRestServices/rest/POLocator/findLocations", "@spider": "usps_collection_boxes", "addr:city": "WEST YARMOUTH", "addr:country": "US", "addr:postcode": "02664", "addr:state": "MA", "addr:street_address": "484 STATION AVE", "amenity": "post_box", "collection_times": "Mo-Sa 09:00", "nsi_id": "unitedstatespostalservice-a77078", "operator": "United States Postal Service", "operator:short": "USPS", "operator:type": "public", "operator:wikidata": "Q668687", "ref": "0266400020"}, "type": "Feature"}
{"geometry": {"coordinates": [-70.2494206, 41.678168], "type": "Point"}, "id": "RZRKXblReUz-v9g8aqJgz_NBytg=", "properties": {"@source_uri": "https://tools.usps.com/UspsToolsRestServices/rest/POLocator/findLocations", "@spider": "usps_collection_boxes", "addr:city": "WEST YARMOUTH", "addr:country": "US", "addr:postcode": "02664", "addr:state": "MA", "addr:street_address": "25 MID TECH DR", "amenity": "post_box", "collection_times": "Mo-Sa 09:00", "nsi_id": "unitedstatespostalservice-a77078", "operator": "United States Postal Service", "operator:short": "USPS", "operator:type": "public", "operator:wikidata": "Q668687", "ref": "0266400022"}, "type": "Feature"}
{"geometry": {"coordinates": [-70.251867692, 41.659717561], "type": "Point"}, "id": "vARyTMi6ol7KijDAD5LdKvmbvD4=", "properties": {"@source_uri": "https://tools.usps.com/UspsToolsRestServices/rest/POLocator/findLocations", "@spider": "usps_collection_boxes", "addr:city": "WEST YARMOUTH", "addr:country": "US", "addr:postcode": "02664", "addr:state": "MA", "addr:street_address": "481 BUCK ISLAND RD", "amenity": "post_box", "collection_times": "Mo-Sa 09:00", "nsi_id": "unitedstatespostalservice-a77078", "operator": "United States Postal Service", "operator:short": "USPS", "operator:type": "public", "operator:wikidata": "Q668687", "ref": "0266400024"}, "type": "Feature"}
{"geometry": {"coordinates": [-70.210072, 41.687661], "type": "Point"}, "id": "OZMjdoCI5qos-ka6CQeFN3eVN3A=", "properties": {"@source_uri": "https://tools.usps.com/UspsToolsRestServices/rest/POLocator/findLocations", "@spider": "usps_collection_boxes", "addr:city": "WEST YARMOUTH", "addr:country": "US", "addr:postcode": "02664", "addr:state": "MA", "addr:street_address": "23 WHITES PATH", "amenity": "post_box", "collection_times": "Mo-Sa 09:00", "nsi_id": "unitedstatespostalservice-a77078", "operator": "United States Postal Service", "operator:short": "USPS", "operator:type": "public", "operator:wikidata": "Q668687", "ref": "0266400025"}, "type": "Feature"}
{"geometry": {"coordinates": [-70.2198528, 41.684262], "type": "Point"}, "id": "B-ub5u0E5vbQzA96xZOuYlVQ4kQ=", "properties": {"@source_uri": "https://tools.usps.com/UspsToolsRestServices/rest/POLocator/findLocations", "@spider": "usps_collection_boxes", "addr:city": "WEST YARMOUTH", "addr:country": "US", "addr:postcode": "02664", "addr:state": "MA", "addr:street_address": "182 OLD TOWN HOUSE RD", "amenity": "post_box", "collection_times": "Mo-Sa 09:00", "nsi_id": "unitedstatespostalservice-a77078", "operator": "United States Postal Service", "operator:short": "USPS", "operator:type": "public", "operator:wikidata": "Q668687", "ref": "0266400027"}, "type": "Feature"}
{"geometry": {"coordinates": [-70.050009, 41.993476], "type": "Point"}, "id": "dlv1c3wrhFpcjeIiNJd2YdwesA0=", "properties": {"@source_uri": "https://tools.usps.com/UspsToolsRestServices/rest/POLocator/findLocations", "@spider": "usps_collection_boxes", "addr:city": "TRURO", "addr:country": "US", "addr:postcode": "02666", "addr:state": "MA", "addr:street_address": "16 TRURO CENTER RD", "amenity": "post_box", "collection_times": "Mo-Fr 16:45; Sa 11:30", "note": "ON 12/24 AND 12/31, THIS BOX MAY BE COLLECTED AS EARLY AS 12 NOON.", "nsi_id": "unitedstatespostalservice-a77078", "operator": "United States Postal Service", "operator:short": "USPS", "operator:type": "public", "operator:wikidata": "Q668687", "ref": "0266600001"}, "type": "Feature"}
{"geometry": {"coordinates": [-70.049998, 41.993515], "type": "Point"}, "id": "wcxzXY3TqeajWZ-Q9F1GJ6q8QSM=", "properties": {"@source_uri": "https://tools.usps.com/UspsToolsRestServices/rest/POLocator/findLocations", "@spider": "usps_collection_boxes", "addr:city": "TRURO", "addr:country": "US", "addr:postcode": "02666", "addr:state": "MA", "addr:street_address": "16 TRURO CENTER RD", "amenity": "post_box", "collection_times": "Mo-Fr 16:45; Sa 11:30", "indoor": "yes", "note": "ON 12/24 AND 12/31, THIS BOX MAY BE COLLECTED AS EARLY AS 12 NOON.", "nsi_id": "unitedstatespostalservice-a77078", "operator": "United States Postal Service", "operator:short": "USPS", "operator:type": "public", "operator:wikidata": "Q668687", "ref": "0266600005"}, "type": "Feature"}
{"geometry": {"coordinates": [-70.015958, 41.928945], "type": "Point"}, "id": "OdAhtUNjhJZzcIbSk_6n16yiKXA=", "properties": {"@source_uri": "https://tools.usps.com/UspsToolsRestServices/rest/POLocator/findLocations", "@spider": "usps_collection_boxes", "addr:city": "WELLFLEET", "addr:country": "US", "addr:postcode": "02667", "addr:state": "MA", "addr:street_address": "2357 STATE HWY RTE 6", "amenity": "post_box", "collection_times": "Mo-Fr 16:30; Sa 12:00", "indoor": "yes", "note": "ON 12/24 AND 12/31, THIS BOX MAY BE COLLECTED AS EARLY AS 12 NOON.", "nsi_id": "unitedstatespostalservice-a77078", "operator": "United States Postal Service", "operator:short": "USPS", "operator:type": "public", "operator:wikidata": "Q668687", "ref": "0266700003"}, "type": "Feature"}
{"geometry": {"coordinates": [-70.0311771, 41.938037], "type": "Point"}, "id": "p5xkrML_McdnVfEFnM20qxSIxgE=", "properties": {"@source_uri": "https://tools.usps.com/UspsToolsRestServices/rest/POLocator/findLocations", "@spider": "usps_collection_boxes", "addr:city": "WELLFLEET", "addr:country": "US", "addr:postcode": "02667", "addr:state": "MA", "addr:street_address": "295 MAIN ST", "amenity": "post_box", "collection_times": "Mo-Sa 09:30", "nsi_id": "unitedstatespostalservice-a77078", "operator": "United States Postal Service", "operator:short": "USPS", "operator:type": "public", "operator:wikidata": "Q668687", "ref": "0266700005"}, "type": "Feature"}
{"geometry": {"coordinates": [-70.015962, 41.928993], "type": "Point"}, "id": "aCllNMGUnsJ2Fy3RkfhTQ-cb4Lw=", "properties": {"@source_uri": "https://tools.usps.com/UspsToolsRestServices/rest/POLocator/findLocations", "@spider": "usps_collection_boxes", "addr:city": "WELLFLEET", "addr:country": "US", "addr:postcode": "02667", "addr:state": "MA", "addr:street_address": "2357 STATE HWY RTE 6", "amenity": "post_box", "collection_times": "Mo-Fr 16:30; Sa 12:00", "note": "ON 12/24 AND 12/31, THIS BOX MAY BE COLLECTED AS EARLY AS 12 NOON.", "nsi_id": "unitedstatespostalservice-a77078", "operator": "United States Postal Service", "operator:short": "USPS", "operator:type": "public", "operator:wikidata": "Q668687", "ref": "0266700011"}, "type": "Feature"}
{"geometry": {"coordinates": [-70.015962, 41.928993], "type": "Point"}, "id": "us6HiOeUD6MwjNTOQoGfRjwrtE4=", "properties": {"@source_uri": "https://tools.usps.com/UspsToolsRestServices/rest/POLocator/findLocations", "@spider": "usps_collection_boxes", "addr:city": "WELLFLEET", "addr:country": "US", "addr:postcode": "02667", "addr:state": "MA", "addr:street_address": "2357 STATE HWY RTE 6", "amenity": "post_box", "collection_times": "Mo-Fr 16:30; Sa 12:00", "indoor": "yes", "note": "ON 12/24 AND 12/31, THIS BOX MAY BE COLLECTED AS EARLY AS 12 NOON.", "nsi_id": "unitedstatespostalservice-a77078", "operator": "United States Postal Service", "operator:short": "USPS", "operator:type": "public", "operator:wikidata": "Q668687", "ref": "0266700013"}, "type": "Feature"}
{"geometry": {"coordinates": [-70.3380814, 41.68797], "type": "Point"}, "id": "JyPkosz6qhxTP5aY3puZplGv0D8=", "properties": {"@source_uri": "https://tools.usps.com/UspsToolsRestServices/rest/POLocator/findLocations", "@spider": "usps_collection_boxes", "addr:city": "WEST BARNSTABLE", "addr:country": "US", "addr:postcode": "02668", "addr:state": "MA", "addr:street_address": "2125 IYANNOUGH RD", "amenity": "post_box", "collection_times": "Mo-Fr 10:00", "nsi_id": "unitedstatespostalservice-a77078", "operator": "United States Postal Service", "operator:short": "USPS", "operator:type": "public", "operator:wikidata": "Q668687", "ref": "0266800001"}, "type": "Feature"}
{"geometry": {"coordinates": [-70.3675592, 41.705832], "type": "Point"}, "id": "iA8o8yiuT9--P1VAisZraMv5Tek=", "properties": {"@source_uri": "https://tools.usps.com/UspsToolsRestServices/rest/POLocator/findLocations", "@spider": "usps_collection_boxes", "addr:city": "WEST BARNSTABLE", "addr:country": "US", "addr:postcode": "02668", "addr:state": "MA", "addr:street_address": "1165 MAIN ST", "amenity": "post_box", "collection_times": "Mo-Fr 16:45; Sa 12:00", "note": "ON 12/24 AND 12/31, THIS BOX MAY BE COLLECTED AS EARLY AS 12 NOON.", "nsi_id": "unitedstatespostalservice-a77078", "operator": "United States Postal Service", "operator:short": "USPS", "operator:type": "public", "operator:wikidata": "Q668687", "ref": "0266800004"}, "type": "Feature"}
{"geometry": {"coordinates": [-70.3674577, 41.705566], "type": "Point"}, "id": "x-HLPqr-SN6rtNyQPUjinehaFxg=", "properties": {"@source_uri": "https://tools.usps.com/UspsToolsRestServices/rest/POLocator/findLocations", "@spider": "usps_collection_boxes", "addr:city": "WEST BARNSTABLE", "addr:country": "US", "addr:postcode": "02668", "addr:state": "MA", "addr:street_address": "1165 MAIN ST", "amenity": "post_box", "collection_times": "Mo-Fr 17:00; Sa 12:00", "indoor": "yes", "note": "ON 12/24 AND 12/31, THIS BOX MAY BE COLLECTED AS EARLY AS 12 NOON.", "nsi_id": "unitedstatespostalservice-a77078", "operator": "United States Postal Service", "operator:short": "USPS", "operator:type": "public", "operator:wikidata": "Q668687", "ref": "0266800007"}, "type": "Feature"}
{"geometry": {"coordinates": [-70.3674469, 41.705564], "type": "Point"}, "id": "tNL3387T0kvZpjBxRylrzZtR9kc=", "properties": {"@source_uri": "https://tools.usps.com/UspsToolsRestServices/rest/POLocator/findLocations", "@spider": "usps_collection_boxes", "addr:city": "WEST BARNSTABLE", "addr:country": "US", "addr:postcode": "02668", "addr:state": "MA", "addr:street_address": "1165 MAIN ST", "amenity": "post_box", "collection_times": "Mo-Fr 17:00; Sa 12:00", "indoor": "yes", "note": "ON 12/24 AND 12/31, THIS BOX MAY BE COLLECTED AS EARLY AS 12 NOON.", "nsi_id": "unitedstatespostalservice-a77078", "operator": "United States Postal Service", "operator:short": "USPS", "operator:type": "public", "operator:wikidata": "Q668687", "ref": "0266800008"}, "type": "Feature"}
{"geometry": {"coordinates": [-70.3674527, 41.705551], "type": "Point"}, "id": "bT7d1ZGLPwfjAKtkFTN4npH3vCo=", "properties": {"@source_uri": "https://tools.usps.com/UspsToolsRestServices/rest/POLocator/findLocations", "@spider": "usps_collection_boxes", "addr:city": "WEST BARNSTABLE", "addr:country": "US", "addr:postcode": "02668", "addr:state": "MA", "addr:street_address": "1165 MAIN ST", "amenity": "post_box", "collection_times": "Mo-Fr 17:00; Sa 12:00", "indoor": "yes", "note": "ON 12/24 AND 12/31, THIS BOX MAY BE COLLECTED AS EARLY AS 12 NOON.", "nsi_id": "unitedstatespostalservice-a77078", "operator": "United States Postal Service", "operator:short": "USPS", "operator:type": "public", "operator:wikidata": "Q668687", "ref": "0266800009"}, "type": "Feature"}
{"geometry": {"coordinates": [-69.99536, 41.682872], "type": "Point"}, "id": "5FgD7Lw-MUrLOcUun_ijYeQdZrE=", "properties": {"@source_uri": "https://tools.usps.com/UspsToolsRestServices/rest/POLocator/findLocations", "@spider": "usps_collection_boxes", "addr:city": "WEST CHATHAM", "addr:country": "US", "addr:postcode": "02669", "addr:state": "MA", "addr:street_address": "1671 MAIN ST UNIT 0", "amenity": "post_box", "collection_times": "Mo-Fr 16:15; Sa 12:00", "note": "ON 12/24 AND 12/31, THIS BOX MAY BE COLLECTED AS EARLY AS 12 NOON.", "nsi_id": "unitedstatespostalservice-a77078", "operator": "United States Postal Service", "operator:short": "USPS", "operator:type": "public", "operator:wikidata": "Q668687", "ref": "0266900003"}, "type": "Feature"}
{"geometry": {"coordinates": [-69.99536, 41.682872], "type": "Point"}, "id": "pcgyrsMcoXUI4OkG0FzIry6y4bM=", "properties": {"@source_uri": "https://tools.usps.com/UspsToolsRestServices/rest/POLocator/findLocations", "@spider": "usps_collection_boxes", "addr:city": "WEST CHATHAM", "addr:country": "US", "addr:postcode": "02669", "addr:state": "MA", "addr:street_address": "1671 MAIN ST UNIT 0", "amenity": "post_box", "collection_times": "Mo-Fr 16:30; Sa 12:00", "indoor": "yes", "note": "ON 12/24 AND 12/31, THIS BOX MAY BE COLLECTED AS EARLY AS 12 NOON.", "nsi_id": "unitedstatespostalservice-a77078", "operator": "United States Postal Service", "operator:short": "USPS", "operator:type": "public", "operator:wikidata": "Q668687", "ref": "0266900004"}, "type": "Feature"}
{"geometry": {"coordinates": [-70.169356, 41.661265], "type": "Point"}, "id": "bXKKKXofkzvHUKUI80UG_ctVpVE=", "properties": {"@source_uri": "https://tools.usps.com/UspsToolsRestServices/rest/POLocator/findLocations", "@spider": "usps_collection_boxes", "addr:city": "WEST DENNIS", "addr:country": "US", "addr:postcode": "02670", "addr:state": "MA", "addr:street_address": "97 SCHOOL ST", "amenity": "post_box", "collection_times": "Mo-Fr 16:30; Sa 12:00", "note": "ON 12/24 AND 12/31, THIS BOX MAY BE COLLECTED AS EARLY AS 12 NOON.", "nsi_id": "unitedstatespostalservice-a77078", "operator": "United States Postal Service", "operator:short": "USPS", "operator:type": "public", "operator:wikidata": "Q668687", "ref": "0267000002"}, "type": "Feature"}
{"geometry": {"coordinates": [-70.16932, 41.661266], "type": "Point"}, "id": "rf-1NlxAhrOJjcLb9Ohqh2zuhgc=", "properties": {"@source_uri": "https://tools.usps.com/UspsToolsRestServices/rest/POLocator/findLocations", "@spider": "usps_collection_boxes", "addr:city": "WEST DENNIS", "addr:country": "US", "addr:postcode": "02670", "addr:state": "MA", "addr:street_address": "97 SCHOOL ST", "amenity": "post_box", "collection_times": "Mo-Fr 16:30; Sa 12:00", "indoor": "yes", "note": "ON 12/24 AND 12/31, THIS BOX MAY BE COLLECTED AS EARLY AS 12 NOON.", "nsi_id": "unitedstatespostalservice-a77078", "operator": "United States Postal Service", "operator:short": "USPS", "operator:type": "public", "operator:wikidata": "Q668687", "ref": "0267000004"}, "type": "Feature"}
{"geometry": {"coordinates": [-70.101848, 41.669133], "type": "Point"}, "id": "5_VRU4ER3i52iZZqGemtqu2JHi4=", "properties": {"@source_uri": "https://tools.usps.com/UspsToolsRestServices/rest/POLocator/findLocations", "@spider": "usps_collection_boxes", "addr:city": "WEST HARWICH", "addr:country": "US", "addr:postcode": "02671", "addr:state": "MA", "addr:street_address": "216 MAIN STREET (RT 28)", "amenity": "post_box", "collection_times": "Mo-Fr 16:30; Sa 12:00", "note": "ON 12/24 AND 12/31, THIS BOX MAY BE COLLECTED AS EARLY AS 12 NOON.", "nsi_id": "unitedstatespostalservice-a77078", "operator": "United States Postal Service", "operator:short": "USPS", "operator:type": "public", "operator:wikidata": "Q668687", "ref": "0267100002"}, "type": "Feature"}
{"geometry": {"coordinates": [-70.115014, 41.695183], "type": "Point"}, "id": "ahtokhaGEL6iMKGjpbJa6NX5SQw=", "properties": {"@source_uri": "https://tools.usps.com/UspsToolsRestServices/rest/POLocator/findLocations", "@spider": "usps_collection_boxes", "addr:city": "WEST HARWICH", "addr:country": "US", "addr:postcode": "02671", "addr:state": "MA", "addr:street_address": "216 MAIN ST", "amenity": "post_box", "collection_times": "Mo-Fr 16:30; Sa 12:00", "indoor": "yes", "note": "ON 12/24 AND 12/31, THIS BOX MAY BE COLLECTED AS EARLY AS 12 NOON.", "nsi_id": "unitedstatespostalservice-a77078", "operator": "United States Postal Service", "operator:short": "USPS", "operator:type": "public", "operator:wikidata": "Q668687", "ref": "0267100003"}, "type": "Feature"}
{"geometry": {"coordinates": [-70.318732, 41.639067], "type": "Point"}, "id": "bQu3VPOyRwCsyGwJffONLSS-Lg8=", "properties": {"@source_uri": "https://tools.usps.com/UspsToolsRestServices/rest/POLocator/findLocations", "@spider": "usps_collection_boxes", "addr:city": "W HYANNISPRT", "addr:country": "US", "addr:postcode": "02672", "addr:state": "MA", "addr:street_address": "401 CRAIGVILLE BEACH RD", "amenity": "post_box", "collection_times": "Mo-Fr 16:30; Sa 11:30", "note": "ON 12/24 AND 12/31, THIS BOX MAY BE COLLECTED AS EARLY AS 12 NOON.", "nsi_id": "unitedstatespostalservice-a77078", "operator": "United States Postal Service", "operator:short": "USPS", "operator:type": "public", "operator:wikidata": "Q668687", "ref": "0267200002"}, "type": "Feature"}
{"geometry": {"coordinates": [-70.318732, 41.639067], "type": "Point"}, "id": "5p305W1Rctu8KHdIIWeX4I2tf8I=", "properties": {"@source_uri": "https://tools.usps.com/UspsToolsRestServices/rest/POLocator/findLocations", "@spider": "usps_collection_boxes", "addr:city": "W HYANNISPRT", "addr:country": "US", "addr:postcode": "02672", "addr:state": "MA", "addr:street_address": "401 CRAIGVILLE BEACH RD", "amenity": "post_box", "collection_times": "Mo-Fr 16:30; Sa 11:30", "indoor": "yes", "note": "ON 12/24 AND 12/31, THIS BOX MAY BE COLLECTED AS EARLY AS 12 NOON.", "nsi_id": "unitedstatespostalservice-a77078", "operator": "United States Postal Service", "operator:short": "USPS", "operator:type": "public", "operator:wikidata": "Q668687", "ref": "0267200004"}, "type": "Feature"}
{"geometry": {"coordinates": [-70.2294347, 41.649872], "type": "Point"}, "id": "WUIfCdnbvnNdJRTzXlCab1kWOzc=", "properties": {"@source_uri": "https://tools.usps.com/UspsToolsRestServices/rest/POLocator/findLocations", "@spider": "usps_collection_boxes", "addr:city": "WEST YARMOUTH", "addr:country": "US", "addr:postcode": "02673", "addr:state": "MA", "addr:street_address": "602 ROUTE 28", "amenity": "post_box", "collection_times": "Mo-Fr 14:00; Sa 12:00", "note": "ON 12/24 AND 12/31, THIS BOX MAY BE COLLECTED AS EARLY AS 12 NOON.", "nsi_id": "unitedstatespostalservice-a77078", "operator": "United States Postal Service", "operator:short": "USPS", "operator:type": "public", "operator:wikidata": "Q668687", "ref": "0267300001"}, "type": "Feature"}
{"geometry": {"coordinates": [-70.2293349, 41.64982], "type": "Point"}, "id": "PgKXltQUGwXQEeJYw7N3yu3MGIQ=", "properties": {"@source_uri": "https://tools.usps.com/UspsToolsRestServices/rest/POLocator/findLocations", "@spider": "usps_collection_boxes", "addr:city": "WEST YARMOUTH", "addr:country": "US", "addr:postcode": "02673", "addr:state": "MA", "addr:street_address": "602 ROUTE 28", "amenity": "post_box", "collection_times": "Mo-Fr 16:00; Sa 12:00", "indoor": "yes", "note": "ON 12/24 AND 12/31, THIS BOX MAY BE COLLECTED AS EARLY AS 12 NOON.", "nsi_id": "unitedstatespostalservice-a77078", "operator": "United States Postal Service", "operator:short": "USPS", "operator:type": "public", "operator:wikidata": "Q668687", "ref": "0267300004"}, "type": "Feature"}
{"geometry": {"coordinates": [-70.2293266, 41.649806], "type": "Point"}, "id": "K7DdiJs3HyNqoS4d9EWS3BB9kK4=", "properties": {"@source_uri": "https://tools.usps.com/UspsToolsRestServices/rest/POLocator/findLocations", "@spider": "usps_collection_boxes", "addr:city": "WEST YARMOUTH", "addr:country": "US", "addr:postcode": "02673", "addr:state": "MA", "addr:street_address": "602 ROUTE 28", "amenity": "post_box", "collection_times": "Mo-Fr 16:00; Sa 12:00", "indoor": "yes", "note": "ON 12/24 AND 12/31, THIS BOX MAY BE COLLECTED AS EARLY AS 12 NOON.", "nsi_id": "unitedstatespostalservice-a77078", "operator": "United States Postal Service", "operator:short": "USPS", "operator:type": "public", "operator:wikidata": "Q668687", "ref": "0267300005"}, "type": "Feature"}
{"geometry": {"coordinates": [-70.244727, 41.704596], "type": "Point"}, "id": "G2LK1s_g_pO32rNlOfOzGWkOWiY=", "properties": {"@source_uri": "https://tools.usps.com/UspsToolsRestServices/rest/POLocator/findLocations", "@spider": "usps_collection_boxes", "addr:city": "YARMOUTH PORT", "addr:country": "US", "addr:postcode": "02675", "addr:state": "MA", "addr:street_address": "231 MAIN ST", "amenity": "post_box", "collection_times": "Mo-Fr 17:00; Sa 12:00", "note": "ON 12/24 AND 12/31, THIS BOX MAY BE COLLECTED AS EARLY AS 12 NOON.", "nsi_id": "unitedstatespostalservice-a77078", "operator": "United States Postal Service", "operator:short": "USPS", "operator:type": "public", "operator:wikidata": "Q668687", "ref": "0267500001"}, "type": "Feature"}
{"geometry": {"coordinates": [-70.2106829, 41.714068], "type": "Point"}, "id": "uIWX472YDKQft2SfWgYpPua85kM=", "properties": {"@source_uri": "https://tools.usps.com/UspsToolsRestServices/rest/POLocator/findLocations", "@spider": "usps_collection_boxes", "addr:city": "YARMOUTH PORT", "addr:country": "US", "addr:postcode": "02675", "addr:state": "MA", "addr:street_address": "64 KINGS CIRCUIT", "amenity": "post_box", "collection_times": "Mo-Sa 10:00", "nsi_id": "unitedstatespostalservice-a77078", "operator": "United States Postal Service", "operator:short": "USPS", "operator:type": "public", "operator:wikidata": "Q668687", "ref": "0267500003"}, "type": "Feature"}
{"geometry": {"coordinates": [-70.244645, 41.704656], "type": "Point"}, "id": "uL8SgLFxbQU5bjGXPMi5INts-BU=", "properties": {"@source_uri": "https://tools.usps.com/UspsToolsRestServices/rest/POLocator/findLocations", "@spider": "usps_collection_boxes", "addr:city": "YARMOUTH PORT", "addr:country": "US", "addr:postcode": "02675", "addr:state": "MA", "addr:street_address": "231 MAIN ST", "amenity": "post_box", "collection_times": "Mo-Fr 17:00; Sa 12:00", "indoor": "yes", "note": "ON 12/24 AND 12/31, THIS BOX MAY BE COLLECTED AS EARLY AS 12 NOON.", "nsi_id": "unitedstatespostalservice-a77078", "operator": "United States Postal Service", "operator:short": "USPS", "operator:type": "public", "operator:wikidata": "Q668687", "ref": "0267500005"}, "type": "Feature"}
{"geometry": {"coordinates": [-70.244645, 41.704656], "type": "Point"}, "id": "G1y2cyJW735ysMHcfjHqegptzh0=", "properties": {"@source_uri": "https://tools.usps.com/UspsToolsRestServices/rest/POLocator/findLocations", "@spider": "usps_collection_boxes", "addr:city": "YARMOUTH PORT", "addr:country": "US", "addr:postcode": "02675", "addr:state": "MA", "addr:street_address": "231 MAIN ST", "amenity": "post_box", "collection_times": "Mo-Fr 17:00; Sa 12:00", "indoor": "yes", "note": "ON 12/24 AND 12/31, THIS BOX MAY BE COLLECTED AS EARLY AS 12 NOON.", "nsi_id": "unitedstatespostalservice-a77078", "operator": "United States Postal Service", "operator:short": "USPS", "operator:type": "public", "operator:wikidata": "Q668687", "ref": "0267500006"}, "type": "Feature"}
{"geometry": {"coordinates": [-70.201189, 41.71575], "type": "Point"}, "id": "6fPvrgZ_k4MyUXWjuVWsuPRiWIA=", "properties": {"@source_uri": "https://tools.usps.com/UspsToolsRestServices/rest/POLocator/findLocations", "@spider": "usps_collection_boxes", "addr:city": "YARMOUTH PORT", "addr:country": "US", "addr:postcode": "02675", "addr:state": "MA", "addr:street_address": "918 MAIN ST", "amenity": "post_box", "collection_times": "Mo-Sa 09:30", "nsi_id": "unitedstatespostalservice-a77078", "operator": "United States Postal Service", "operator:short": "USPS", "operator:type": "public", "operator:wikidata": "Q668687", "ref": "0267500007"}, "type": "Feature"}
