{"geometry": {"coordinates": [-71.0745379, 41.787863], "type": "Point"}, "id": "2IFJOWOpzF_eUfVEG41lAipRa8k=", "properties": {"@spider": "usps_collection_boxes", "addr:city": "ASSONET", "addr:country": "US", "addr:full": "57 S MAIN ST", "addr:postcode": "02702", "addr:state": "MA", "brand": "USPS", "brand:wikidata": "Q668687", "collection_times": "Mo-Fr 16:30; Sa 12:00", "name": "USPS COLLECTION BOX - BLUE BOX", "note": "ON 12/24 AND 12/31, THIS BOX MAY BE COLLECTED AS EARLY AS 12 NOON.", "ref": "0270200004"}, "type": "Feature"}
{"geometry": {"coordinates": [-71.074633979, 41.787955196], "type": "Point"}, "id": "fcTLdssapwVIDXOFe8z17WpkIng=", "properties": {"@spider": "usps_collection_boxes", "addr:city": "ASSONET", "addr:country": "US", "addr:full": "57 S MAIN ST", "addr:postcode": "02702", "addr:state": "MA", "brand": "USPS", "brand:wikidata": "Q668687", "collection_times": "Mo-Fr 17:00; Sa 14:30", "name": "USPS COLLECTION BOX - PO LOBBY", "note": "ON 12/24 AND 12/31, THIS BOX MAY BE COLLECTED AS EARLY AS 12 NOON.", "ref": "0270200007"}, "type": "Feature"}
{"geometry": {"coordinates": [-71.2756947, 41.942038], "type": "Point"}, "id": "BbMC5dpsU6s5UgbbsE51gPgtEXA=", "properties": {"@spider": "usps_collection_boxes", "addr:city": "ATTLEBORO", "addr:country": "US", "addr:full": "211 PARK ST", "addr:postcode": "02703", "addr:state": "MA", "brand": "USPS", "brand:wikidata": "Q668687", "collection_times": "Mo-Fr 13:00; Sa 09:00", "name": "USPS COLLECTION BOX - BLUE BOX", "note": "ON 12/24 AND 12/31, THIS BOX MAY BE COLLECTED AS EARLY AS 12 NOON.", "ref": "0270300001"}, "type": "Feature"}
{"geometry": {"coordinates": [-71.2841858, 41.94972], "type": "Point"}, "id": "saju0adjBcU8CT2QaFJ-gPhqTK8=", "properties": {"@spider": "usps_collection_boxes", "addr:city": "ATTLEBORO", "addr:country": "US", "addr:full": "129 BANK ST", "addr:postcode": "02703", "addr:state": "MA", "brand": "USPS", "brand:wikidata": "Q668687", "collection_times": "Mo-Fr 15:30; Sa 09:00", "name": "USPS COLLECTION BOX - BLUE BOX", "note": "ON 12/24 AND 12/31, THIS BOX MAY BE COLLECTED AS EARLY AS 12 NOON.", "ref": "0270300009"}, "type": "Feature"}
{"geometry": {"coordinates": [-71.2953137, 41.936532], "type": "Point"}, "id": "BqwVHVlP_D14mhkcci9QIZRpamo=", "properties": {"@spider": "usps_collection_boxes", "addr:city": "ATTLEBORO", "addr:country": "US", "addr:full": "16 12TH ST", "addr:postcode": "02703", "addr:state": "MA", "brand": "USPS", "brand:wikidata": "Q668687", "collection_times": "Mo-Sa 09:00", "name": "USPS COLLECTION BOX - BLUE BOX", "ref": "0270300010"}, "type": "Feature"}
{"geometry": {"coordinates": [-71.2829629, 41.941601], "type": "Point"}, "id": "DgnK_9PM6Idiw2KOvfaqtureUUI=", "properties": {"@spider": "usps_collection_boxes", "addr:city": "ATTLEBORO", "addr:country": "US", "addr:full": "87 UNION ST", "addr:postcode": "02703", "addr:state": "MA", "brand": "USPS", "brand:wikidata": "Q668687", "collection_times": "Mo-Sa 09:00", "name": "USPS COLLECTION BOX - BLUE BOX", "ref": "0270300011"}, "type": "Feature"}
{"geometry": {"coordinates": [-71.2824854, 41.944719], "type": "Point"}, "id": "RfU57tsoszFw1bpqjHU_Dmyc7_8=", "properties": {"@spider": "usps_collection_boxes", "addr:city": "ATTLEBORO", "addr:country": "US", "addr:full": "47 PARK ST", "addr:postcode": "02703", "addr:state": "MA", "brand": "USPS", "brand:wikidata": "Q668687", "collection_times": "Mo-Sa 09:00", "name": "USPS COLLECTION BOX - BLUE BOX", "ref": "0270300016"}, "type": "Feature"}
{"geometry": {"coordinates": [-71.2699445, 41.942279], "type": "Point"}, "id": "0AYRE1MNmmtBEvGbJeTLkr60aWM=", "properties": {"@spider": "usps_collection_boxes", "addr:city": "ATTLEBORO", "addr:country": "US", "addr:full": "152 EMORY ST", "addr:postcode": "02703", "addr:state": "MA", "brand": "USPS", "brand:wikidata": "Q668687", "collection_times": "Mo-Fr 13:00; Sa 09:00", "name": "USPS COLLECTION BOX - BLUE BOX", "note": "ON 12/24 AND 12/31, THIS BOX MAY BE COLLECTED AS EARLY AS 12 NOON.", "ref": "0270300018"}, "type": "Feature"}
{"geometry": {"coordinates": [-71.2918934, 41.94413], "type": "Point"}, "id": "Yt7xyBSv2mHmPBfmFpGZCNh45uY=", "properties": {"@spider": "usps_collection_boxes", "addr:city": "ATTLEBORO", "addr:country": "US", "addr:full": "67 MECHANIC ST", "addr:postcode": "02703", "addr:state": "MA", "brand": "USPS", "brand:wikidata": "Q668687", "collection_times": "Mo-Fr 12:00; Sa 09:00", "name": "USPS COLLECTION BOX - BLUE BOX", "ref": "0270300024"}, "type": "Feature"}
{"geometry": {"coordinates": [-71.2930705, 41.922232], "type": "Point"}, "id": "MyrvqlWBJ2lGOlWhoG9_Y1tUavo=", "properties": {"@spider": "usps_collection_boxes", "addr:city": "ATTLEBORO", "addr:country": "US", "addr:full": "408 S MAIN ST", "addr:postcode": "02703", "addr:state": "MA", "brand": "USPS", "brand:wikidata": "Q668687", "collection_times": "Mo-Sa 09:00", "name": "USPS COLLECTION BOX - BLUE BOX", "ref": "0270300030"}, "type": "Feature"}
{"geometry": {"coordinates": [-71.2897238, 41.952572], "type": "Point"}, "id": "qw7fl_a2GuXI2g5mi2CXhcO7PJ8=", "properties": {"@spider": "usps_collection_boxes", "addr:city": "ATTLEBORO", "addr:country": "US", "addr:full": "392 N MAIN ST", "addr:postcode": "02703", "addr:state": "MA", "brand": "USPS", "brand:wikidata": "Q668687", "collection_times": "Mo-Sa 09:00", "name": "USPS COLLECTION BOX - BLUE BOX", "ref": "0270300039"}, "type": "Feature"}
{"geometry": {"coordinates": [-71.2842872, 41.943222], "type": "Point"}, "id": "nbn91pima9x0-Sh8dUtdRkU1wNs=", "properties": {"@spider": "usps_collection_boxes", "addr:city": "ATTLEBORO", "addr:country": "US", "addr:full": "38 S MAIN ST", "addr:postcode": "02703", "addr:state": "MA", "brand": "USPS", "brand:wikidata": "Q668687", "collection_times": "Mo-Fr 13:00; Sa 09:00", "name": "USPS COLLECTION BOX - BLUE BOX", "note": "ON 12/24 AND 12/31, THIS BOX MAY BE COLLECTED AS EARLY AS 12 NOON.", "ref": "0270300041"}, "type": "Feature"}
{"geometry": {"coordinates": [-71.2972799, 41.930137], "type": "Point"}, "id": "hmWLNbsRZZ1FlevJRyvJdN6bDgI=", "properties": {"@spider": "usps_collection_boxes", "addr:city": "ATTLEBORO", "addr:country": "US", "addr:full": "75 LINDEN ST", "addr:postcode": "02703", "addr:state": "MA", "brand": "USPS", "brand:wikidata": "Q668687", "collection_times": "Mo-Sa 09:00", "name": "USPS COLLECTION BOX - BLUE BOX", "ref": "0270300053"}, "type": "Feature"}
{"geometry": {"coordinates": [-71.3205595, 41.917974], "type": "Point"}, "id": "mNF3vL7ODNy7x_hcLwBDLqagFg4=", "properties": {"@spider": "usps_collection_boxes", "addr:city": "ATTLEBORO", "addr:country": "US", "addr:full": "16 FRANK MOSSBERG DR", "addr:postcode": "02703", "addr:state": "MA", "brand": "USPS", "brand:wikidata": "Q668687", "collection_times": "Mo-Fr 09:00", "name": "USPS COLLECTION BOX - BLUE BOX", "ref": "0270300055"}, "type": "Feature"}
{"geometry": {"coordinates": [-71.2678747512, 41.953187958], "type": "Point"}, "id": "IkbLpxQmrqBOpiTHMBCNUo_EYTg=", "properties": {"@spider": "usps_collection_boxes", "addr:city": "ATTLEBORO", "addr:country": "US", "addr:full": "555 PLEASANT ST", "addr:postcode": "02703", "addr:state": "MA", "brand": "USPS", "brand:wikidata": "Q668687", "collection_times": "Mo-Fr 13:00; Sa 08:30", "name": "USPS COLLECTION BOX - BLUE BOX", "note": "ON 12/24 AND 12/31, THIS BOX MAY BE COLLECTED AS EARLY AS 12 NOON.", "ref": "0270300057"}, "type": "Feature"}
{"geometry": {"coordinates": [-71.2826492, 41.93641], "type": "Point"}, "id": "GXt7DYIQtSAyF8ryfDKco9Gnd0c=", "properties": {"@spider": "usps_collection_boxes", "addr:city": "ATTLEBORO", "addr:country": "US", "addr:full": "193 PINE ST", "addr:postcode": "02703", "addr:state": "MA", "brand": "USPS", "brand:wikidata": "Q668687", "collection_times": "Mo-Sa 09:00", "name": "USPS COLLECTION BOX - BLUE BOX", "ref": "0270300058"}, "type": "Feature"}
{"geometry": {"coordinates": [-71.2590916, 41.912267], "type": "Point"}, "id": "gacXDZ2veGUbyiVfAA44y59xoTQ=", "properties": {"@spider": "usps_collection_boxes", "addr:city": "ATTLEBORO", "addr:country": "US", "addr:full": "1503 PARK ST", "addr:postcode": "02703", "addr:state": "MA", "brand": "USPS", "brand:wikidata": "Q668687", "collection_times": "Mo-Sa 09:00", "name": "USPS COLLECTION BOX - BLUE BOX", "ref": "0270300059"}, "type": "Feature"}
{"geometry": {"coordinates": [-71.3511803, 41.900715], "type": "Point"}, "id": "oxQAVf1LQK_QxxOQOQIS60woWJU=", "properties": {"@spider": "usps_collection_boxes", "addr:city": "ATTLEBORO", "addr:country": "US", "addr:full": "1120 NEWPORT AVE", "addr:postcode": "02703", "addr:state": "MA", "brand": "USPS", "brand:wikidata": "Q668687", "collection_times": "Mo-Sa 09:00", "name": "USPS COLLECTION BOX - BLUE BOX", "ref": "0270300065"}, "type": "Feature"}
{"geometry": {"coordinates": [-71.3091787, 41.934047], "type": "Point"}, "id": "TzYP4ghcW75AK1yrMzBqRdx-B_s=", "properties": {"@spider": "usps_collection_boxes", "addr:city": "ATTLEBORO", "addr:country": "US", "addr:full": "49 SOUTH AVE", "addr:postcode": "02703", "addr:state": "MA", "brand": "USPS", "brand:wikidata": "Q668687", "collection_times": "Mo-Sa 09:00", "name": "USPS COLLECTION BOX - BLUE BOX", "ref": "0270300066"}, "type": "Feature"}
{"geometry": {"coordinates": [-71.359479116, 41.9157031467], "type": "Point"}, "id": "1FehhgZY38376X0cnqOzsJue7Kc=", "properties": {"@spider": "usps_collection_boxes", "addr:city": "ATTLEBORO", "addr:country": "US", "addr:full": "775 NEWPORT AVE", "addr:postcode": "02703", "addr:state": "MA", "brand": "USPS", "brand:wikidata": "Q668687", "collection_times": "Mo-Fr 17:00; Sa 12:00", "name": "USPS COLLECTION BOX - BLUE BOX", "note": "ON 12/24 AND 12/31, THIS BOX MAY BE COLLECTED AS EARLY AS 12 NOON.", "ref": "0270300069"}, "type": "Feature"}
{"geometry": {"coordinates": [-71.253905, 41.954137], "type": "Point"}, "id": "0SFZ4jCKjYT88rCKNrbJpHP2yqU=", "properties": {"@spider": "usps_collection_boxes", "addr:city": "ATTLEBORO", "addr:country": "US", "addr:full": "901 PLEASANT ST", "addr:postcode": "02703", "addr:state": "MA", "brand": "USPS", "brand:wikidata": "Q668687", "collection_times": "Mo-Fr 17:00; Sa 15:00", "name": "USPS COLLECTION BOX - BLUE BOX", "note": "ON 12/24 AND 12/31, THIS BOX MAY BE COLLECTED AS EARLY AS 12 NOON.", "ref": "0270300071"}, "type": "Feature"}
{"geometry": {"coordinates": [-71.2855572, 41.935225], "type": "Point"}, "id": "GUxlErEyUaSRw1zU-dTgDCznR1Q=", "properties": {"@spider": "usps_collection_boxes", "addr:city": "ATTLEBORO", "addr:country": "US", "addr:full": "217 S MAIN ST", "addr:postcode": "02703", "addr:state": "MA", "brand": "USPS", "brand:wikidata": "Q668687", "collection_times": "Mo-Sa 09:00", "name": "USPS COLLECTION BOX - BLUE BOX", "ref": "0270300072"}, "type": "Feature"}
{"geometry": {"coordinates": [-71.35902942, 41.915494857], "type": "Point"}, "id": "pZhV5M-geWghogekGeQ42baweh8=", "properties": {"@spider": "usps_collection_boxes", "addr:city": "ATTLEBORO", "addr:country": "US", "addr:full": "775 NEWPORT AVE", "addr:postcode": "02703", "addr:state": "MA", "brand": "USPS", "brand:wikidata": "Q668687", "collection_times": "Mo-Fr 17:00; Sa 12:30", "name": "USPS COLLECTION BOX - PO LOBBY", "note": "ON 12/24 AND 12/31, THIS BOX MAY BE COLLECTED AS EARLY AS 12 NOON.", "ref": "0270300080"}, "type": "Feature"}
{"geometry": {"coordinates": [-71.253748411, 41.95447959], "type": "Point"}, "id": "lLxFgZDo7nYLnmP4vRIK0FwW2h8=", "properties": {"@spider": "usps_collection_boxes", "addr:city": "ATTLEBORO", "addr:country": "US", "addr:full": "901 PLEASANT ST", "addr:postcode": "02703", "addr:state": "MA", "brand": "USPS", "brand:wikidata": "Q668687", "collection_times": "Mo-Fr 18:00; Sa 17:00", "name": "USPS COLLECTION BOX - PO LOBBY", "note": "ON 12/24 AND 12/31, THIS BOX MAY BE COLLECTED AS EARLY AS 12 NOON.", "ref": "0270300081"}, "type": "Feature"}
{"geometry": {"coordinates": [-71.238997, 41.952771], "type": "Point"}, "id": "eCmlqN-cCOC6ME4RnMneNoOcGr0=", "properties": {"@spider": "usps_collection_boxes", "addr:city": "CHARTLEY", "addr:country": "US", "addr:full": "391 OLD COLONY RD", "addr:postcode": "02712", "addr:state": "MA", "brand": "USPS", "brand:wikidata": "Q668687", "collection_times": "Mo-Fr 16:00; Sa 11:00", "name": "USPS COLLECTION BOX - BLUE BOX", "note": "ON 12/24 AND 12/31, THIS BOX MAY BE COLLECTED AS EARLY AS 12 NOON.", "ref": "0271200002"}, "type": "Feature"}
{"geometry": {"coordinates": [-71.239194599, 41.952604816], "type": "Point"}, "id": "X066WhfTTz1um8dZn0Um80n-RJY=", "properties": {"@spider": "usps_collection_boxes", "addr:city": "CHARTLEY", "addr:country": "US", "addr:full": "391 OLD COLONY RD", "addr:postcode": "02712", "addr:state": "MA", "brand": "USPS", "brand:wikidata": "Q668687", "collection_times": "Mo-Fr 16:00; Sa 11:00", "name": "USPS COLLECTION BOX - PO LOBBY", "note": "ON 12/24 AND 12/31, THIS BOX MAY BE COLLECTED AS EARLY AS 12 NOON.", "ref": "0271200005"}, "type": "Feature"}
{"geometry": {"coordinates": [-71.121047, 41.814753], "type": "Point"}, "id": "YKtjoz9c9eXMnKcAIzXN47p4IzU=", "properties": {"@spider": "usps_collection_boxes", "addr:city": "DIGHTON", "addr:country": "US", "addr:full": "232 MAIN ST", "addr:postcode": "02715", "addr:state": "MA", "brand": "USPS", "brand:wikidata": "Q668687", "collection_times": "Mo-Fr 16:30; Sa 11:30", "name": "USPS COLLECTION BOX - BLUE BOX", "note": "ON 12/24 AND 12/31, THIS BOX MAY BE COLLECTED AS EARLY AS 12 NOON.", "ref": "0271500001"}, "type": "Feature"}
{"geometry": {"coordinates": [-71.1211264, 41.814780296], "type": "Point"}, "id": "03jTQNAa-6oFd4KiaHv-2VMQ7jE=", "properties": {"@spider": "usps_collection_boxes", "addr:city": "DIGHTON", "addr:country": "US", "addr:full": "232 MAIN ST", "addr:postcode": "02715", "addr:state": "MA", "brand": "USPS", "brand:wikidata": "Q668687", "collection_times": "Mo-Fr 16:30; Sa 12:30", "name": "USPS COLLECTION BOX - PO LOBBY", "note": "ON 12/24 AND 12/31, THIS BOX MAY BE COLLECTED AS EARLY AS 12 NOON.", "ref": "0271500005"}, "type": "Feature"}
{"geometry": {"coordinates": [-70.957209, 41.770024], "type": "Point"}, "id": "YMUOX4Xcqcuxb92jnyui0awjtLw=", "properties": {"@spider": "usps_collection_boxes", "addr:city": "EAST FREETOWN", "addr:country": "US", "addr:full": "10 CROSSROADS DR", "addr:postcode": "02717", "addr:state": "MA", "brand": "USPS", "brand:wikidata": "Q668687", "collection_times": "Mo-Fr 16:00; Sa 15:30", "name": "USPS COLLECTION BOX - BLUE BOX", "note": "ON 12/24 AND 12/31, THIS BOX MAY BE COLLECTED AS EARLY AS 12 NOON.", "ref": "0271700004"}, "type": "Feature"}
{"geometry": {"coordinates": [-70.957244074, 41.77003154], "type": "Point"}, "id": "cQD-Q3FMRoNSK_r6mNC75REkvFY=", "properties": {"@spider": "usps_collection_boxes", "addr:city": "EAST FREETOWN", "addr:country": "US", "addr:full": "10 CROSSROAD DR", "addr:postcode": "02717", "addr:state": "MA", "brand": "USPS", "brand:wikidata": "Q668687", "collection_times": "Mo-Fr 17:00; Sa 13:00", "name": "USPS COLLECTION BOX - PO LOBBY", "note": "ON 12/24 AND 12/31, THIS BOX MAY BE COLLECTED AS EARLY AS 12 NOON.", "ref": "0271700006"}, "type": "Feature"}
{"geometry": {"coordinates": [-71.02817, 41.882597], "type": "Point"}, "id": "fAC3GzHgxLdK5tepZleLIR11hOw=", "properties": {"@spider": "usps_collection_boxes", "addr:city": "EAST TAUNTON", "addr:country": "US", "addr:full": "493 MIDDLEBORO AVE", "addr:postcode": "02718", "addr:state": "MA", "brand": "USPS", "brand:wikidata": "Q668687", "collection_times": "Mo-Fr 16:00; Sa 11:30", "name": "USPS COLLECTION BOX - BLUE BOX", "note": "ON 12/24 AND 12/31, THIS BOX MAY BE COLLECTED AS EARLY AS 12 NOON.", "ref": "0271800001"}, "type": "Feature"}
{"geometry": {"coordinates": [-71.02820739, 41.882550833], "type": "Point"}, "id": "zdRw65L5U1-MBiV696PZeOBKiI0=", "properties": {"@spider": "usps_collection_boxes", "addr:city": "EAST TAUNTON", "addr:country": "US", "addr:full": "493 MIDDLEBORO AVE", "addr:postcode": "02718", "addr:state": "MA", "brand": "USPS", "brand:wikidata": "Q668687", "collection_times": "Mo-Fr 16:30; Sa 12:00", "name": "USPS COLLECTION BOX - PO LOBBY", "note": "ON 12/24 AND 12/31, THIS BOX MAY BE COLLECTED AS EARLY AS 12 NOON.", "ref": "0271800002"}, "type": "Feature"}
{"geometry": {"coordinates": [-70.9037143, 41.635379], "type": "Point"}, "id": "qFs_EBZyDRXK71N756M5Dt-HZDI=", "properties": {"@spider": "usps_collection_boxes", "addr:city": "FAIRHAVEN", "addr:country": "US", "addr:full": "13 WILLIAM ST", "addr:postcode": "02719", "addr:state": "MA", "brand": "USPS", "brand:wikidata": "Q668687", "collection_times": "Mo-Fr 17:00; Sa 13:45", "name": "USPS COLLECTION BOX - BLUE BOX", "note": "ON 12/24 AND 12/31, THIS BOX MAY BE COLLECTED AS EARLY AS 12 NOON.", "ref": "0271900002"}, "type": "Feature"}
{"geometry": {"coordinates": [-70.9037256, 41.635362], "type": "Point"}, "id": "WEb1bljqu3fFVcB9DMWOUcCF5G8=", "properties": {"@spider": "usps_collection_boxes", "addr:city": "FAIRHAVEN", "addr:country": "US", "addr:full": "13 WILLIAM ST", "addr:postcode": "02719", "addr:state": "MA", "brand": "USPS", "brand:wikidata": "Q668687", "collection_times": "Mo-Fr 17:00; Sa 13:45", "name": "USPS COLLECTION BOX - EXPRESS", "note": "ON 12/24 AND 12/31, THIS BOX MAY BE COLLECTED AS EARLY AS 12 NOON.", "ref": "0271900003"}, "type": "Feature"}
{"geometry": {"coordinates": [-70.8873984, 41.644644], "type": "Point"}, "id": "biQWi1hLrUgSO5uHLeh8c-OZqLg=", "properties": {"@spider": "usps_collection_boxes", "addr:city": "FAIRHAVEN", "addr:country": "US", "addr:full": "32 FAIRHAVEN COMMONS WAY", "addr:postcode": "02719", "addr:state": "MA", "brand": "USPS", "brand:wikidata": "Q668687", "collection_times": "Mo-Sa 11:00", "name": "USPS COLLECTION BOX - BLUE BOX", "ref": "0271900007"}, "type": "Feature"}
{"geometry": {"coordinates": [-70.8990074, 41.644213], "type": "Point"}, "id": "jQMlWh6AYaKPWuZ5P91J08cPPAs=", "properties": {"@spider": "usps_collection_boxes", "addr:city": "FAIRHAVEN", "addr:country": "US", "addr:full": "75 HUTTLESTON AVE", "addr:postcode": "02719", "addr:state": "MA", "brand": "USPS", "brand:wikidata": "Q668687", "collection_times": "Mo-Sa 14:45", "name": "USPS COLLECTION BOX - BLUE BOX", "note": "ON 12/24 AND 12/31, THIS BOX MAY BE COLLECTED AS EARLY AS 12 NOON.", "ref": "0271900009"}, "type": "Feature"}
{"geometry": {"coordinates": [-70.8969157, 41.645575], "type": "Point"}, "id": "qoYvJ0DMIVFZjvPdCPvUH_5pWHg=", "properties": {"@spider": "usps_collection_boxes", "addr:city": "FAIRHAVEN", "addr:country": "US", "addr:full": "10 SARAHS WAY", "addr:postcode": "02719", "addr:state": "MA", "brand": "USPS", "brand:wikidata": "Q668687", "collection_times": "Mo-Sa 09:00", "name": "USPS COLLECTION BOX - BLUE BOX", "ref": "0271900010"}, "type": "Feature"}
{"geometry": {"coordinates": [-70.895678, 41.639665], "type": "Point"}, "id": "IUPv3zh-4eR757ugtzB-Edvo9LQ=", "properties": {"@spider": "usps_collection_boxes", "addr:city": "FAIRHAVEN", "addr:country": "US", "addr:full": "9 MCGANN TER", "addr:postcode": "02719", "addr:state": "MA", "brand": "USPS", "brand:wikidata": "Q668687", "collection_times": "Mo-Sa 11:00", "name": "USPS COLLECTION BOX - BLUE BOX", "ref": "0271900013"}, "type": "Feature"}
{"geometry": {"coordinates": [-70.9090359, 41.647639], "type": "Point"}, "id": "DudJpyVVyzgkapsiddyezWZjwvQ=", "properties": {"@spider": "usps_collection_boxes", "addr:city": "FAIRHAVEN", "addr:country": "US", "addr:full": "45 OXFORD ST", "addr:postcode": "02719", "addr:state": "MA", "brand": "USPS", "brand:wikidata": "Q668687", "collection_times": "Mo-Sa 09:00", "name": "USPS COLLECTION BOX - BLUE BOX", "ref": "0271900014"}, "type": "Feature"}
{"geometry": {"coordinates": [-70.898224602, 41.641076955], "type": "Point"}, "id": "n8FWW77E_PC4HS-Hd8PoTXKKYLI=", "properties": {"@spider": "usps_collection_boxes", "addr:city": "FAIRHAVEN", "addr:country": "US", "addr:full": "69 ADAMS ST", "addr:postcode": "02719", "addr:state": "MA", "brand": "USPS", "brand:wikidata": "Q668687", "collection_times": "Mo-Sa 09:00", "name": "USPS COLLECTION BOX - BLUE BOX", "ref": "0271900015"}, "type": "Feature"}
{"geometry": {"coordinates": [-70.8821099, 41.63969], "type": "Point"}, "id": "ClUL593IpsYapxD1GHEjEhigQmo=", "properties": {"@spider": "usps_collection_boxes", "addr:city": "FAIRHAVEN", "addr:country": "US", "addr:full": "16 SCONTICUT NECK RD", "addr:postcode": "02719", "addr:state": "MA", "brand": "USPS", "brand:wikidata": "Q668687", "collection_times": "Mo-Fr 15:00; Sa 14:45", "name": "USPS COLLECTION BOX - BLUE BOX", "note": "ON 12/24 AND 12/31, THIS BOX MAY BE COLLECTED AS EARLY AS 12 NOON.", "ref": "0271900016"}, "type": "Feature"}
{"geometry": {"coordinates": [-70.8984793, 41.657455], "type": "Point"}, "id": "L5L29eCaU79Ul_uGmgE2eqiuk7Y=", "properties": {"@spider": "usps_collection_boxes", "addr:city": "FAIRHAVEN", "addr:country": "US", "addr:full": "276 ALDEN RD", "addr:postcode": "02719", "addr:state": "MA", "brand": "USPS", "brand:wikidata": "Q668687", "collection_times": "Mo-Sa 14:00", "name": "USPS COLLECTION BOX - BLUE BOX", "note": "ON 12/24 AND 12/31, THIS BOX MAY BE COLLECTED AS EARLY AS 12 NOON.", "ref": "0271900018"}, "type": "Feature"}
{"geometry": {"coordinates": [-70.888594041, 41.6408203491], "type": "Point"}, "id": "wJ_iJE5XRkWfBe7elJhKBvrC9Jk=", "properties": {"@spider": "usps_collection_boxes", "addr:city": "FAIRHAVEN", "addr:country": "US", "addr:full": "17 PLAZA WAY", "addr:postcode": "02719", "addr:state": "MA", "brand": "USPS", "brand:wikidata": "Q668687", "collection_times": "Mo-Sa 11:00", "name": "USPS COLLECTION BOX - BLUE BOX", "ref": "0271900020"}, "type": "Feature"}
{"geometry": {"coordinates": [-70.8596156689, 41.6489006083], "type": "Point"}, "id": "efFB5gkRzdyapJEquKB8YHEsQxI=", "properties": {"@spider": "usps_collection_boxes", "addr:city": "FAIRHAVEN", "addr:country": "US", "addr:full": "355 HUTTLESTON AVE", "addr:postcode": "02719", "addr:state": "MA", "brand": "USPS", "brand:wikidata": "Q668687", "collection_times": "Mo-Sa 11:00", "name": "USPS COLLECTION BOX - BLUE BOX", "ref": "0271900023"}, "type": "Feature"}
{"geometry": {"coordinates": [-70.9062518, 41.652181], "type": "Point"}, "id": "NvO_uOuPzTVOeCR_FNk4r-uIL5s=", "properties": {"@spider": "usps_collection_boxes", "addr:city": "FAIRHAVEN", "addr:country": "US", "addr:full": "180 ADAMS ST", "addr:postcode": "02719", "addr:state": "MA", "brand": "USPS", "brand:wikidata": "Q668687", "collection_times": "Mo-Sa 09:00", "name": "USPS COLLECTION BOX - BLUE BOX", "ref": "0271900025"}, "type": "Feature"}
{"geometry": {"coordinates": [-70.9085953904, 41.6569840408], "type": "Point"}, "id": "vtTXIEkPooXAbWQJOIfEm0h0-pA=", "properties": {"@spider": "usps_collection_boxes", "addr:city": "FAIRHAVEN", "addr:country": "US", "addr:full": "348 MAIN ST", "addr:postcode": "02719", "addr:state": "MA", "brand": "USPS", "brand:wikidata": "Q668687", "collection_times": "Mo-Sa 12:00", "name": "USPS COLLECTION BOX - BLUE BOX", "ref": "0271900030"}, "type": "Feature"}
{"geometry": {"coordinates": [-70.8848777, 41.644211], "type": "Point"}, "id": "g11pFGjxt4a8K75dYbuLHnvcGPQ=", "properties": {"@spider": "usps_collection_boxes", "addr:city": "FAIRHAVEN", "addr:country": "US", "addr:full": "75 ALDEN RD", "addr:postcode": "02719", "addr:state": "MA", "brand": "USPS", "brand:wikidata": "Q668687", "collection_times": "Mo-Sa 14:45", "name": "USPS COLLECTION BOX - BLUE BOX", "note": "ON 12/24 AND 12/31, THIS BOX MAY BE COLLECTED AS EARLY AS 12 NOON.", "ref": "0271900032"}, "type": "Feature"}
{"geometry": {"coordinates": [-70.8800429, 41.640106], "type": "Point"}, "id": "8jL-QjLm1mlnlhm23hiQAUXMNeI=", "properties": {"@spider": "usps_collection_boxes", "addr:city": "FAIRHAVEN", "addr:country": "US", "addr:full": "221 HUTTLESTON AVE", "addr:postcode": "02719", "addr:state": "MA", "brand": "USPS", "brand:wikidata": "Q668687", "collection_times": "Mo-Sa 14:45", "name": "USPS COLLECTION BOX - BLUE BOX", "note": "ON 12/24 AND 12/31, THIS BOX MAY BE COLLECTED AS EARLY AS 12 NOON.", "ref": "0271900035"}, "type": "Feature"}
{"geometry": {"coordinates": [-70.888085161, 41.64945525], "type": "Point"}, "id": "7NGGw3yUl1hXmhGZEcIf4Qt6GZw=", "properties": {"@spider": "usps_collection_boxes", "addr:city": "FAIRHAVEN", "addr:country": "US", "addr:full": "4 PEQUOD RD", "addr:postcode": "02719", "addr:state": "MA", "brand": "USPS", "brand:wikidata": "Q668687", "collection_times": "Mo-Sa 16:30", "name": "USPS COLLECTION BOX - PO LOBBY", "note": "ON 12/24 AND 12/31, THIS BOX MAY BE COLLECTED AS EARLY AS 12 NOON.", "ref": "0271900040"}, "type": "Feature"}
{"geometry": {"coordinates": [-70.903784307, 41.635272782], "type": "Point"}, "id": "I69irjafQTTGSsI04xuzwnrXGmc=", "properties": {"@spider": "usps_collection_boxes", "addr:city": "FAIRHAVEN", "addr:country": "US", "addr:full": "13 WILLIAM ST", "addr:postcode": "02719", "addr:state": "MA", "brand": "USPS", "brand:wikidata": "Q668687", "collection_times": "Mo-Fr 17:00; Sa 13:00", "name": "USPS COLLECTION BOX - PO LOBBY", "note": "ON 12/24 AND 12/31, THIS BOX MAY BE COLLECTED AS EARLY AS 12 NOON.", "ref": "0271900041"}, "type": "Feature"}
{"geometry": {"coordinates": [-71.1406553, 41.715074], "type": "Point"}, "id": "kthIvpFcuVu-V1-tgI0xShtqKLI=", "properties": {"@spider": "usps_collection_boxes", "addr:city": "FALL RIVER", "addr:country": "US", "addr:full": "1110 ROBESON ST", "addr:postcode": "02720", "addr:state": "MA", "brand": "USPS", "brand:wikidata": "Q668687", "collection_times": "Mo-Sa 09:00", "name": "USPS COLLECTION BOX - BLUE BOX", "ref": "0272000001"}, "type": "Feature"}
{"geometry": {"coordinates": [-71.1198399, 41.758604], "type": "Point"}, "id": "sxJhSdXH_Q5_U_piIlZDiIFXdx8=", "properties": {"@spider": "usps_collection_boxes", "addr:city": "FALL RIVER", "addr:country": "US", "addr:full": "24 ROLLING GREEN DR", "addr:postcode": "02720", "addr:state": "MA", "brand": "USPS", "brand:wikidata": "Q668687", "collection_times": "Mo-Sa 09:00", "name": "USPS COLLECTION BOX - BLUE BOX", "ref": "0272000002"}, "type": "Feature"}
{"geometry": {"coordinates": [-71.1517162, 41.70715], "type": "Point"}, "id": "d_rzxWuDJ49xe2nBcnfR50lULf8=", "properties": {"@spider": "usps_collection_boxes", "addr:city": "FALL RIVER", "addr:country": "US", "addr:full": "417 ROCK ST", "addr:postcode": "02720", "addr:state": "MA", "brand": "USPS", "brand:wikidata": "Q668687", "collection_times": "Mo-Fr 10:00; Sa 09:00", "name": "USPS COLLECTION BOX - BLUE BOX", "ref": "0272000005"}, "type": "Feature"}
{"geometry": {"coordinates": [-71.1387979, 41.715703], "type": "Point"}, "id": "tfcbGzVxkCh4NzoHITHIIblW79Y=", "properties": {"@spider": "usps_collection_boxes", "addr:city": "FALL RIVER", "addr:country": "US", "addr:full": "1197 ROBESON ST", "addr:postcode": "02720", "addr:state": "MA", "brand": "USPS", "brand:wikidata": "Q668687", "collection_times": "Mo-Sa 09:00", "name": "USPS COLLECTION BOX - BLUE BOX", "ref": "0272000008"}, "type": "Feature"}
{"geometry": {"coordinates": [-71.1420061, 41.710817], "type": "Point"}, "id": "_alXmQ_X3WHQKOfhV8n65VDDxdk=", "properties": {"@spider": "usps_collection_boxes", "addr:city": "FALL RIVER", "addr:country": "US", "addr:full": "818 ROBESON ST", "addr:postcode": "02720", "addr:state": "MA", "brand": "USPS", "brand:wikidata": "Q668687", "collection_times": "Mo-Fr 12:00; Sa 09:00", "name": "USPS COLLECTION BOX - BLUE BOX", "ref": "0272000013"}, "type": "Feature"}
{"geometry": {"coordinates": [-71.127313306, 41.712903335], "type": "Point"}, "id": "Q8k9ft3VuIwuV4BwzssFrjfNbG8=", "properties": {"@spider": "usps_collection_boxes", "addr:city": "FALL RIVER", "addr:country": "US", "addr:full": "1620 PRESIDENT AVE", "addr:postcode": "02720", "addr:state": "MA", "brand": "USPS", "brand:wikidata": "Q668687", "collection_times": "Mo-Sa 09:00", "name": "USPS COLLECTION BOX - BLUE BOX", "ref": "0272000019"}, "type": "Feature"}
{"geometry": {"coordinates": [-71.1480344, 41.71879], "type": "Point"}, "id": "MdA29CKIPpQ2K6MOlvCm7e-rZD4=", "properties": {"@spider": "usps_collection_boxes", "addr:city": "FALL RIVER", "addr:country": "US", "addr:full": "1335 N MAIN ST", "addr:postcode": "02720", "addr:state": "MA", "brand": "USPS", "brand:wikidata": "Q668687", "collection_times": "Mo-Fr 14:00; Sa 09:00", "name": "USPS COLLECTION BOX - BLUE BOX", "note": "ON 12/24 AND 12/31, THIS BOX MAY BE COLLECTED AS EARLY AS 12 NOON.", "ref": "0272000022"}, "type": "Feature"}
{"geometry": {"coordinates": [-71.1546949, 41.707726], "type": "Point"}, "id": "t_H6QntunoHj97S9jIcBRA6VF9c=", "properties": {"@spider": "usps_collection_boxes", "addr:city": "FALL RIVER", "addr:country": "US", "addr:full": "441 N MAIN ST", "addr:postcode": "02720", "addr:state": "MA", "brand": "USPS", "brand:wikidata": "Q668687", "collection_times": "Mo-Fr 11:00; Sa 09:00", "name": "USPS COLLECTION BOX - BLUE BOX", "ref": "0272000025"}, "type": "Feature"}
{"geometry": {"coordinates": [-71.1553354138, 41.7023081976], "type": "Point"}, "id": "q6KeZiQ4ZxMZ_HLQqfKuEBzy2Dc=", "properties": {"@spider": "usps_collection_boxes", "addr:city": "FALL RIVER", "addr:country": "US", "addr:full": "10 N MAIN ST", "addr:postcode": "02720", "addr:state": "MA", "brand": "USPS", "brand:wikidata": "Q668687", "collection_times": "Mo-Sa 11:00", "name": "USPS COLLECTION BOX - BLUE BOX", "ref": "0272000031"}, "type": "Feature"}
{"geometry": {"coordinates": [-71.1474637, 41.705171], "type": "Point"}, "id": "jXE2VyNvojuwuSACu8vAJi2R6cU=", "properties": {"@spider": "usps_collection_boxes", "addr:city": "FALL RIVER", "addr:country": "US", "addr:full": "613 LOCUST ST", "addr:postcode": "02720", "addr:state": "MA", "brand": "USPS", "brand:wikidata": "Q668687", "collection_times": "Mo-Sa 09:00", "name": "USPS COLLECTION BOX - BLUE BOX", "ref": "0272000039"}, "type": "Feature"}
{"geometry": {"coordinates": [-71.1401222, 41.720669], "type": "Point"}, "id": "zjXdRtb9QdO-1MIPJ5X9AUEB0u0=", "properties": {"@spider": "usps_collection_boxes", "addr:city": "FALL RIVER", "addr:country": "US", "addr:full": "1168 HIGHLAND AVE", "addr:postcode": "02720", "addr:state": "MA", "brand": "USPS", "brand:wikidata": "Q668687", "collection_times": "Mo-Sa 09:00", "name": "USPS COLLECTION BOX - BLUE BOX", "ref": "0272000044"}, "type": "Feature"}
{"geometry": {"coordinates": [-71.1092773, 41.762557], "type": "Point"}, "id": "6hHmdo7XepTpRdVNRjmsinTbYPI=", "properties": {"@spider": "usps_collection_boxes", "addr:city": "FALL RIVER", "addr:country": "US", "addr:full": "5500 N MAIN ST", "addr:postcode": "02720", "addr:state": "MA", "brand": "USPS", "brand:wikidata": "Q668687", "collection_times": "Mo-Sa 09:00", "name": "USPS COLLECTION BOX - BLUE BOX", "ref": "0272000047"}, "type": "Feature"}
{"geometry": {"coordinates": [-71.1152144, 41.760086], "type": "Point"}, "id": "q1lOzMCVgZmWnJGnsubWRtIL4Qw=", "properties": {"@spider": "usps_collection_boxes", "addr:city": "FALL RIVER", "addr:country": "US", "addr:full": "4980 N MAIN ST", "addr:postcode": "02720", "addr:state": "MA", "brand": "USPS", "brand:wikidata": "Q668687", "collection_times": "Mo-Sa 09:00", "name": "USPS COLLECTION BOX - BLUE BOX", "ref": "0272000048"}, "type": "Feature"}
{"geometry": {"coordinates": [-71.1204882, 41.75274], "type": "Point"}, "id": "oXd5Ef4ShqV8-0VbpJLWDmvcmVU=", "properties": {"@spider": "usps_collection_boxes", "addr:city": "FALL RIVER", "addr:country": "US", "addr:full": "4263 N MAIN ST", "addr:postcode": "02720", "addr:state": "MA", "brand": "USPS", "brand:wikidata": "Q668687", "collection_times": "Mo-Sa 14:00", "name": "USPS COLLECTION BOX - BLUE BOX", "note": "ON 12/24 AND 12/31, THIS BOX MAY BE COLLECTED AS EARLY AS 12 NOON.", "ref": "0272000049"}, "type": "Feature"}
{"geometry": {"coordinates": [-71.1213147, 41.751059], "type": "Point"}, "id": "uFTopfpFq1XkLMnCxO_6Q6Dsc4M=", "properties": {"@spider": "usps_collection_boxes", "addr:city": "FALL RIVER", "addr:country": "US", "addr:full": "4171 N MAIN ST", "addr:postcode": "02720", "addr:state": "MA", "brand": "USPS", "brand:wikidata": "Q668687", "collection_times": "Mo-Fr 11:00; Sa 09:00", "name": "USPS COLLECTION BOX - BLUE BOX", "ref": "0272000050"}, "type": "Feature"}
{"geometry": {"coordinates": [-71.1216347, 41.721073], "type": "Point"}, "id": "KJfxPZHAZJ22gU5qL13J_aWtV2w=", "properties": {"@spider": "usps_collection_boxes", "addr:city": "FALL RIVER", "addr:country": "US", "addr:full": "777 ELSBREE ST", "addr:postcode": "02720", "addr:state": "MA", "brand": "USPS", "brand:wikidata": "Q668687", "collection_times": "Mo-Sa 09:00", "name": "USPS COLLECTION BOX - BLUE BOX", "ref": "0272000061"}, "type": "Feature"}
{"geometry": {"coordinates": [-71.1150162, 41.753425], "type": "Point"}, "id": "6T1Ag19a5MggpiCKo7kbnm0IMfY=", "properties": {"@spider": "usps_collection_boxes", "addr:city": "FALL RIVER", "addr:country": "US", "addr:full": "322 AIRPORT RD", "addr:postcode": "02720", "addr:state": "MA", "brand": "USPS", "brand:wikidata": "Q668687", "collection_times": "Mo-Fr 12:00; Sa 09:00", "name": "USPS COLLECTION BOX - BLUE BOX", "ref": "0272000066"}, "type": "Feature"}
{"geometry": {"coordinates": [-71.127603, 41.711995], "type": "Point"}, "id": "a_779gZpIlmxIglrFsljzvdmXNY=", "properties": {"@spider": "usps_collection_boxes", "addr:city": "FALL RIVER", "addr:country": "US", "addr:full": "1701 PRESIDENT AVE", "addr:postcode": "02720", "addr:state": "MA", "brand": "USPS", "brand:wikidata": "Q668687", "collection_times": "Mo-Fr 17:00; Sa 12:00", "name": "USPS COLLECTION BOX - BLUE BOX", "note": "ON 12/24 AND 12/31, THIS BOX MAY BE COLLECTED AS EARLY AS 12 NOON.", "ref": "0272000078"}, "type": "Feature"}
{"geometry": {"coordinates": [-71.1446572, 41.708285], "type": "Point"}, "id": "XPyZAqNyyMva6I1a5K5nS_wrDOE=", "properties": {"@spider": "usps_collection_boxes", "addr:city": "FALL RIVER", "addr:country": "US", "addr:full": "235 HANOVER ST", "addr:postcode": "02720", "addr:state": "MA", "brand": "USPS", "brand:wikidata": "Q668687", "collection_times": "Mo-Fr 10:00; Sa 09:00", "name": "USPS COLLECTION BOX - BLUE BOX", "ref": "0272000080"}, "type": "Feature"}
{"geometry": {"coordinates": [-71.1385663, 41.713928], "type": "Point"}, "id": "931br_rUjC_WdOUWx_eOaORCnQs=", "properties": {"@spider": "usps_collection_boxes", "addr:city": "FALL RIVER", "addr:country": "US", "addr:full": "1030 PRESIDENT AVE", "addr:postcode": "02720", "addr:state": "MA", "brand": "USPS", "brand:wikidata": "Q668687", "collection_times": "Mo-Fr 10:00; Sa 09:00", "name": "USPS COLLECTION BOX - BLUE BOX", "ref": "0272000083"}, "type": "Feature"}
{"geometry": {"coordinates": [-71.1453363, 41.709942], "type": "Point"}, "id": "9ZXq-_0PvwlBIlwh5jW6Q5y0vYs=", "properties": {"@spider": "usps_collection_boxes", "addr:city": "FALL RIVER", "addr:country": "US", "addr:full": "363 HIGHLAND AVE", "addr:postcode": "02720", "addr:state": "MA", "brand": "USPS", "brand:wikidata": "Q668687", "collection_times": "Mo-Fr 10:00; Sa 09:00", "name": "USPS COLLECTION BOX - BLUE BOX", "ref": "0272000085"}, "type": "Feature"}
{"geometry": {"coordinates": [-71.1518696, 41.705876], "type": "Point"}, "id": "udZODy5YYyzPupks4aAkvoZm-2E=", "properties": {"@spider": "usps_collection_boxes", "addr:city": "FALL RIVER", "addr:country": "US", "addr:full": "289 ROCK ST", "addr:postcode": "02720", "addr:state": "MA", "brand": "USPS", "brand:wikidata": "Q668687", "collection_times": "Mo-Fr 10:00; Sa 09:00", "name": "USPS COLLECTION BOX - BLUE BOX", "ref": "0272000087"}, "type": "Feature"}
{"geometry": {"coordinates": [-71.1266808188, 41.7118280097], "type": "Point"}, "id": "Zg6wL7S8MVVpUXZQmQTuZBH-Rec=", "properties": {"@spider": "usps_collection_boxes", "addr:city": "FALL RIVER", "addr:country": "US", "addr:full": "1701 PRESIDENT AVE", "addr:postcode": "02720", "addr:state": "MA", "brand": "USPS", "brand:wikidata": "Q668687", "collection_times": "Mo-Fr 17:00; Sa 12:00", "name": "USPS COLLECTION BOX - BLUE BOX", "note": "ON 12/24 AND 12/31, THIS BOX MAY BE COLLECTED AS EARLY AS 12 NOON.", "ref": "0272000090"}, "type": "Feature"}
{"geometry": {"coordinates": [-71.127787398, 41.712007634], "type": "Point"}, "id": "lQHD8vQ5sf2-7pQkBc-FxxB7kpo=", "properties": {"@spider": "usps_collection_boxes", "addr:city": "FALL RIVER", "addr:country": "US", "addr:full": "1701 PRESIDENT AVE", "addr:postcode": "02720", "addr:state": "MA", "brand": "USPS", "brand:wikidata": "Q668687", "collection_times": "Mo-Fr 18:00; Sa 17:15", "name": "USPS COLLECTION BOX - PO LOBBY", "note": "ON 12/24 AND 12/31, THIS BOX MAY BE COLLECTED AS EARLY AS 12 NOON.", "ref": "0272000095"}, "type": "Feature"}
{"geometry": {"coordinates": [-71.1598545, 41.671485], "type": "Point"}, "id": "nzXIhTPIWh3XWIFlErV7oi3Hh30=", "properties": {"@spider": "usps_collection_boxes", "addr:city": "FALL RIVER", "addr:country": "US", "addr:full": "816 WILLIAM S CANNING BLVD", "addr:postcode": "02721", "addr:state": "MA", "brand": "USPS", "brand:wikidata": "Q668687", "collection_times": "Mo-Sa 09:00", "name": "USPS COLLECTION BOX - BLUE BOX", "ref": "0272100001"}, "type": "Feature"}
{"geometry": {"coordinates": [-71.1627073, 41.671608], "type": "Point"}, "id": "VcVD6Rn1TlfNe1Vwf3Wcq3og6vU=", "properties": {"@spider": "usps_collection_boxes", "addr:city": "FALL RIVER", "addr:country": "US", "addr:full": "465 WILLIAM CANNING BLVD", "addr:postcode": "02721", "addr:state": "MA", "brand": "USPS", "brand:wikidata": "Q668687", "collection_times": "Mo-Fr 14:00; Sa 09:00", "name": "USPS COLLECTION BOX - BLUE BOX", "note": "ON 12/24 AND 12/31, THIS BOX MAY BE COLLECTED AS EARLY AS 12 NOON.", "ref": "0272100002"}, "type": "Feature"}
{"geometry": {"coordinates": [-71.1624596, 41.704575], "type": "Point"}, "id": "vtPmIOlmiqQ7D0fIkNQPJHZV5es=", "properties": {"@spider": "usps_collection_boxes", "addr:city": "FALL RIVER", "addr:country": "US", "addr:full": "5 WATER ST", "addr:postcode": "02721", "addr:state": "MA", "brand": "USPS", "brand:wikidata": "Q668687", "collection_times": "Mo-Sa 09:00", "name": "USPS COLLECTION BOX - BLUE BOX", "ref": "0272100005"}, "type": "Feature"}
{"geometry": {"coordinates": [-71.1587528, 41.677017], "type": "Point"}, "id": "NOaWRzwHiLU7Auiw1WYLNMUA9BM=", "properties": {"@spider": "usps_collection_boxes", "addr:city": "FALL RIVER", "addr:country": "US", "addr:full": "515 TUCKER ST", "addr:postcode": "02721", "addr:state": "MA", "brand": "USPS", "brand:wikidata": "Q668687", "collection_times": "Mo-Sa 10:00", "name": "USPS COLLECTION BOX - BLUE BOX", "ref": "0272100006"}, "type": "Feature"}
{"geometry": {"coordinates": [-71.1540228, 41.674394], "type": "Point"}, "id": "0UarHRQQLI-4MUrinx6Kq4pR398=", "properties": {"@spider": "usps_collection_boxes", "addr:city": "FALL RIVER", "addr:country": "US", "addr:full": "1101 STAFFORD RD", "addr:postcode": "02721", "addr:state": "MA", "brand": "USPS", "brand:wikidata": "Q668687", "collection_times": "Mo-Sa 09:00", "name": "USPS COLLECTION BOX - BLUE BOX", "ref": "0272100007"}, "type": "Feature"}
{"geometry": {"coordinates": [-71.159391, 41.688225], "type": "Point"}, "id": "TmmkoIYHES2PGcNn0mEaMgyPStk=", "properties": {"@spider": "usps_collection_boxes", "addr:city": "FALL RIVER", "addr:country": "US", "addr:full": "10 STAFFORD RD", "addr:postcode": "02721", "addr:state": "MA", "brand": "USPS", "brand:wikidata": "Q668687", "collection_times": "Mo-Sa 09:00", "name": "USPS COLLECTION BOX - BLUE BOX", "ref": "0272100008"}, "type": "Feature"}
{"geometry": {"coordinates": [-71.1565764, 41.699865], "type": "Point"}, "id": "kZgBF2QTSkFN69QzPcHCmb5_DGw=", "properties": {"@spider": "usps_collection_boxes", "addr:city": "FALL RIVER", "addr:country": "US", "addr:full": "186 S MAIN ST", "addr:postcode": "02721", "addr:state": "MA", "brand": "USPS", "brand:wikidata": "Q668687", "collection_times": "Sa 09:00", "name": "USPS COLLECTION BOX - BLUE BOX", "ref": "0272100009"}, "type": "Feature"}
{"geometry": {"coordinates": [-71.1575079, 41.697809], "type": "Point"}, "id": "-J2ly_jGvTricOM5g8hW3riTJX4=", "properties": {"@spider": "usps_collection_boxes", "addr:city": "FALL RIVER", "addr:country": "US", "addr:full": "97 SECOND & RODMAN", "addr:postcode": "02721", "addr:state": "MA", "brand": "USPS", "brand:wikidata": "Q668687", "collection_times": "Sa 09:00", "name": "USPS COLLECTION BOX - BLUE BOX", "ref": "0272100010"}, "type": "Feature"}
{"geometry": {"coordinates": [-71.1584804, 41.696582], "type": "Point"}, "id": "YFAXj8o4B2q47Mf-oY7EhMvufUw=", "properties": {"@spider": "usps_collection_boxes", "addr:city": "FALL RIVER", "addr:country": "US", "addr:full": "95 MORGAN ST", "addr:postcode": "02721", "addr:state": "MA", "brand": "USPS", "brand:wikidata": "Q668687", "collection_times": "Sa 09:00", "name": "USPS COLLECTION BOX - BLUE BOX", "ref": "0272100011"}, "type": "Feature"}
{"geometry": {"coordinates": [-71.1593504, 41.692488], "type": "Point"}, "id": "ZyQdZ4mMMlFzKceJZDJtPrTqF1Q=", "properties": {"@spider": "usps_collection_boxes", "addr:city": "FALL RIVER", "addr:country": "US", "addr:full": "1017 MIDDLE ST", "addr:postcode": "02721", "addr:state": "MA", "brand": "USPS", "brand:wikidata": "Q668687", "collection_times": "Sa 09:00", "name": "USPS COLLECTION BOX - BLUE BOX", "ref": "0272100012"}, "type": "Feature"}
{"geometry": {"coordinates": [-71.1574989, 41.698983], "type": "Point"}, "id": "XOkDslISkdo8itNslL-hHQ5Muo4=", "properties": {"@spider": "usps_collection_boxes", "addr:city": "FALL RIVER", "addr:country": "US", "addr:full": "248 S MAIN ST", "addr:postcode": "02721", "addr:state": "MA", "brand": "USPS", "brand:wikidata": "Q668687", "collection_times": "Mo-Sa 09:00", "name": "USPS COLLECTION BOX - BLUE BOX", "ref": "0272100013"}, "type": "Feature"}
{"geometry": {"coordinates": [-71.159764337, 41.6975274003], "type": "Point"}, "id": "vTaE8TIPD6izM-UAjZ-XpATap2A=", "properties": {"@spider": "usps_collection_boxes", "addr:city": "FALL RIVER", "addr:country": "US", "addr:full": "408 S MAIN ST", "addr:postcode": "02721", "addr:state": "MA", "brand": "USPS", "brand:wikidata": "Q668687", "collection_times": "Mo-Sa 09:00", "name": "USPS COLLECTION BOX - BLUE BOX", "ref": "0272100016"}, "type": "Feature"}
{"geometry": {"coordinates": [-71.1626771, 41.69592], "type": "Point"}, "id": "OY3TMiz-d8zNBusQ6LZUkTRCg-g=", "properties": {"@spider": "usps_collection_boxes", "addr:city": "FALL RIVER", "addr:country": "US", "addr:full": "594 S MAIN ST", "addr:postcode": "02721", "addr:state": "MA", "brand": "USPS", "brand:wikidata": "Q668687", "collection_times": "Mo-Sa 09:00", "name": "USPS COLLECTION BOX - BLUE BOX", "ref": "0272100017"}, "type": "Feature"}
{"geometry": {"coordinates": [-71.1475339, 41.690526], "type": "Point"}, "id": "iQvYfRgWTmY23lEomtJClmHjFGs=", "properties": {"@spider": "usps_collection_boxes", "addr:city": "FALL RIVER", "addr:country": "US", "addr:full": "834 RODMAN ST", "addr:postcode": "02721", "addr:state": "MA", "brand": "USPS", "brand:wikidata": "Q668687", "collection_times": "Mo-Sa 09:00", "name": "USPS COLLECTION BOX - BLUE BOX", "ref": "0272100019"}, "type": "Feature"}
{"geometry": {"coordinates": [-71.1529193, 41.697358], "type": "Point"}, "id": "P0jnZopbHSK6X6NJciSEYn5q6dY=", "properties": {"@spider": "usps_collection_boxes", "addr:city": "FALL RIVER", "addr:country": "US", "addr:full": "164 HARTWELL ST", "addr:postcode": "02721", "addr:state": "MA", "brand": "USPS", "brand:wikidata": "Q668687", "collection_times": "Mo-Sa 09:00", "name": "USPS COLLECTION BOX - BLUE BOX", "ref": "0272100020"}, "type": "Feature"}
{"geometry": {"coordinates": [-71.1497468, 41.683592], "type": "Point"}, "id": "JiUSkNmpg6uAnKywTQZyUBbkbkg=", "properties": {"@spider": "usps_collection_boxes", "addr:city": "FALL RIVER", "addr:country": "US", "addr:full": "1392 RODMAN ST", "addr:postcode": "02721", "addr:state": "MA", "brand": "USPS", "brand:wikidata": "Q668687", "collection_times": "Mo-Sa 09:00", "name": "USPS COLLECTION BOX - BLUE BOX", "ref": "0272100021"}, "type": "Feature"}
{"geometry": {"coordinates": [-71.160778, 41.677789], "type": "Point"}, "id": "E0Z7eF_G2VTg-9LsBT6uiJU3ArI=", "properties": {"@spider": "usps_collection_boxes", "addr:city": "FALL RIVER", "addr:country": "US", "addr:full": "390 RHODE ISLAND AVE", "addr:postcode": "02721", "addr:state": "MA", "brand": "USPS", "brand:wikidata": "Q668687", "collection_times": "Mo-Fr 12:00; Sa 09:00", "name": "USPS COLLECTION BOX - BLUE BOX", "ref": "0272100022"}, "type": "Feature"}
{"geometry": {"coordinates": [-71.1589844, 41.69041], "type": "Point"}, "id": "pUlUEFNl-e-7TM55DF2NH7UmeiE=", "properties": {"@spider": "usps_collection_boxes", "addr:city": "FALL RIVER", "addr:country": "US", "addr:full": "917 PLYMOUTH AVE", "addr:postcode": "02721", "addr:state": "MA", "brand": "USPS", "brand:wikidata": "Q668687", "collection_times": "Mo-Sa 09:00", "name": "USPS COLLECTION BOX - BLUE BOX", "ref": "0272100024"}, "type": "Feature"}
{"geometry": {"coordinates": [-71.1617279, 41.686284], "type": "Point"}, "id": "x442Jz8HrvcmxkgkQd_I3knh_mg=", "properties": {"@spider": "usps_collection_boxes", "addr:city": "FALL RIVER", "addr:country": "US", "addr:full": "1254 PLYMOUTH AVE", "addr:postcode": "02721", "addr:state": "MA", "brand": "USPS", "brand:wikidata": "Q668687", "collection_times": "Mo-Sa 09:00", "name": "USPS COLLECTION BOX - BLUE BOX", "ref": "0272100025"}, "type": "Feature"}
{"geometry": {"coordinates": [-71.1626473028, 41.6848683412], "type": "Point"}, "id": "v7td7xuUv5JVHWvaF48buDYwVnM=", "properties": {"@spider": "usps_collection_boxes", "addr:city": "FALL RIVER", "addr:country": "US", "addr:full": "1368 PLYMOUTH AVE", "addr:postcode": "02721", "addr:state": "MA", "brand": "USPS", "brand:wikidata": "Q668687", "collection_times": "Sa 09:00", "name": "USPS COLLECTION BOX - BLUE BOX", "ref": "0272100026"}, "type": "Feature"}
{"geometry": {"coordinates": [-71.1478464, 41.698958], "type": "Point"}, "id": "RkxcZZHTWu4Eab10Eh2-NvnX8Oo=", "properties": {"@spider": "usps_collection_boxes", "addr:city": "FALL RIVER", "addr:country": "US", "addr:full": "435 PLEASANT ST", "addr:postcode": "02721", "addr:state": "MA", "brand": "USPS", "brand:wikidata": "Q668687", "collection_times": "Sa 09:00", "name": "USPS COLLECTION BOX - BLUE BOX", "ref": "0272100027"}, "type": "Feature"}
{"geometry": {"coordinates": [-71.1596415, 41.69892], "type": "Point"}, "id": "KClRmzA_MG_QnJ29JGfNQDo1qN4=", "properties": {"@spider": "usps_collection_boxes", "addr:city": "FALL RIVER", "addr:country": "US", "addr:full": "400 COLUMBIA ST", "addr:postcode": "02721", "addr:state": "MA", "brand": "USPS", "brand:wikidata": "Q668687", "collection_times": "Sa 09:00", "name": "USPS COLLECTION BOX - BLUE BOX", "ref": "0272100030"}, "type": "Feature"}
{"geometry": {"coordinates": [-71.1614921, 41.699754], "type": "Point"}, "id": "FirPaL0w_Gk9HPs9q5c796Dj3IA=", "properties": {"@spider": "usps_collection_boxes", "addr:city": "FALL RIVER", "addr:country": "US", "addr:full": "301 MILLIKEN BLVD", "addr:postcode": "02721", "addr:state": "MA", "brand": "USPS", "brand:wikidata": "Q668687", "collection_times": "Sa 09:00", "name": "USPS COLLECTION BOX - BLUE BOX", "ref": "0272100031"}, "type": "Feature"}
{"geometry": {"coordinates": [-71.1592111, 41.700261], "type": "Point"}, "id": "JrvNr-eiWLbB65RPL_n2DehInbI=", "properties": {"@spider": "usps_collection_boxes", "addr:city": "FALL RIVER", "addr:country": "US", "addr:full": "222 MILLIKEN BLVD", "addr:postcode": "02721", "addr:state": "MA", "brand": "USPS", "brand:wikidata": "Q668687", "collection_times": "Mo-Sa 09:00", "name": "USPS COLLECTION BOX - BLUE BOX", "ref": "0272100033"}, "type": "Feature"}
{"geometry": {"coordinates": [-71.1641264, 41.693206], "type": "Point"}, "id": "lYH7G3gp06xTKfIJ2HuueOHG9lU=", "properties": {"@spider": "usps_collection_boxes", "addr:city": "FALL RIVER", "addr:country": "US", "addr:full": "795 MIDDLE ST", "addr:postcode": "02721", "addr:state": "MA", "brand": "USPS", "brand:wikidata": "Q668687", "collection_times": "Sa 09:00", "name": "USPS COLLECTION BOX - BLUE BOX", "ref": "0272100035"}, "type": "Feature"}
{"geometry": {"coordinates": [-71.1543646414, 41.6677643134], "type": "Point"}, "id": "V5JxcKLxAgOrL92MDci2y7zOnG8=", "properties": {"@spider": "usps_collection_boxes", "addr:city": "FALL RIVER", "addr:country": "US", "addr:full": "1575 STAFFORD RD", "addr:postcode": "02721", "addr:state": "MA", "brand": "USPS", "brand:wikidata": "Q668687", "collection_times": "Mo-Sa 09:00", "name": "USPS COLLECTION BOX - BLUE BOX", "ref": "0272100037"}, "type": "Feature"}
{"geometry": {"coordinates": [-71.160198407, 41.684269326], "type": "Point"}, "id": "974KMnwUVKn4ztnhI2O77qxQIFI=", "properties": {"@spider": "usps_collection_boxes", "addr:city": "FALL RIVER", "addr:country": "US", "addr:full": "1210 GLOBE ST", "addr:postcode": "02721", "addr:state": "MA", "brand": "USPS", "brand:wikidata": "Q668687", "collection_times": "Mo-Sa 11:30", "name": "USPS COLLECTION BOX - BLUE BOX", "ref": "0272100039"}, "type": "Feature"}
{"geometry": {"coordinates": [-71.16538215, 41.698477409], "type": "Point"}, "id": "KV90B94P2xvHMvSiX5W61vTEt-Y=", "properties": {"@spider": "usps_collection_boxes", "addr:city": "FALL RIVER", "addr:country": "US", "addr:full": "183 FOUNTAIN ST", "addr:postcode": "02721", "addr:state": "MA", "brand": "USPS", "brand:wikidata": "Q668687", "collection_times": "Mo-Sa 09:00", "name": "USPS COLLECTION BOX - BLUE BOX", "ref": "0272100040"}, "type": "Feature"}
{"geometry": {"coordinates": [-71.1459027, 41.678517], "type": "Point"}, "id": "4HookjBFTC7XOIx1XHYeIr8XXJ4=", "properties": {"@spider": "usps_collection_boxes", "addr:city": "FALL RIVER", "addr:country": "US", "addr:full": "560 JEFFERSON ST", "addr:postcode": "02721", "addr:state": "MA", "brand": "USPS", "brand:wikidata": "Q668687", "collection_times": "Mo-Sa 09:00", "name": "USPS COLLECTION BOX - BLUE BOX", "ref": "0272100042"}, "type": "Feature"}
{"geometry": {"coordinates": [-71.1598755, 41.695098], "type": "Point"}, "id": "JKXqC9ojCuS7mkgX7LGYbsGz_sI=", "properties": {"@spider": "usps_collection_boxes", "addr:city": "FALL RIVER", "addr:country": "US", "addr:full": "179 COTTAGE ST", "addr:postcode": "02721", "addr:state": "MA", "brand": "USPS", "brand:wikidata": "Q668687", "collection_times": "Mo-Sa 09:00", "name": "USPS COLLECTION BOX - BLUE BOX", "ref": "0272100044"}, "type": "Feature"}
{"geometry": {"coordinates": [-71.1640315, 41.699123], "type": "Point"}, "id": "tw527xzu_huRdydl4kRohn8Xg0M=", "properties": {"@spider": "usps_collection_boxes", "addr:city": "FALL RIVER", "addr:country": "US", "addr:full": "145 COLUMBIA ST", "addr:postcode": "02721", "addr:state": "MA", "brand": "USPS", "brand:wikidata": "Q668687", "collection_times": "Sa 09:00", "name": "USPS COLLECTION BOX - BLUE BOX", "ref": "0272100045"}, "type": "Feature"}
{"geometry": {"coordinates": [-71.1628579, 41.699051], "type": "Point"}, "id": "frUKn-RAE1yraLqoQTvWsn6xXPM=", "properties": {"@spider": "usps_collection_boxes", "addr:city": "FALL RIVER", "addr:country": "US", "addr:full": "235 COLUMBIA ST", "addr:postcode": "02721", "addr:state": "MA", "brand": "USPS", "brand:wikidata": "Q668687", "collection_times": "Mo-Sa 09:00", "name": "USPS COLLECTION BOX - BLUE BOX", "ref": "0272100046"}, "type": "Feature"}
{"geometry": {"coordinates": [-71.1555777, 41.679272], "type": "Point"}, "id": "zN7XPnM-fKC1g0b9Ns5s9Xyc39c=", "properties": {"@spider": "usps_collection_boxes", "addr:city": "FALL RIVER", "addr:country": "US", "addr:full": "720 STAFFORD RD", "addr:postcode": "02721", "addr:state": "MA", "brand": "USPS", "brand:wikidata": "Q668687", "collection_times": "Mo-Sa 09:00", "name": "USPS COLLECTION BOX - BLUE BOX", "ref": "0272100047"}, "type": "Feature"}
{"geometry": {"coordinates": [-71.1672887817, 41.6972777488], "type": "Point"}, "id": "f01PLaoIQIBE0QwNKEyf9DdETVs=", "properties": {"@spider": "usps_collection_boxes", "addr:city": "FALL RIVER", "addr:country": "US", "addr:full": "260 BROADWAY", "addr:postcode": "02721", "addr:state": "MA", "brand": "USPS", "brand:wikidata": "Q668687", "collection_times": "Mo-Sa 09:00", "name": "USPS COLLECTION BOX - BLUE BOX", "ref": "0272100049"}, "type": "Feature"}
{"geometry": {"coordinates": [-71.158221956, 41.68516282], "type": "Point"}, "id": "k45KpTJQFEl-lLSJbWtav3nWwsY=", "properties": {"@spider": "usps_collection_boxes", "addr:city": "FALL RIVER", "addr:country": "US", "addr:full": "260 STAFFORD RD", "addr:postcode": "02721", "addr:state": "MA", "brand": "USPS", "brand:wikidata": "Q668687", "collection_times": "Mo-Sa 10:30", "name": "USPS COLLECTION BOX - BLUE BOX", "ref": "0272100050"}, "type": "Feature"}
{"geometry": {"coordinates": [-71.1418339, 41.685924], "type": "Point"}, "id": "h47QiU_gt0dk9h8UvmU5wvoqDzI=", "properties": {"@spider": "usps_collection_boxes", "addr:city": "FALL RIVER", "addr:country": "US", "addr:full": "638 QUEQUECHAN ST", "addr:postcode": "02721", "addr:state": "MA", "brand": "USPS", "brand:wikidata": "Q668687", "collection_times": "Mo-Sa 09:00", "name": "USPS COLLECTION BOX - BLUE BOX", "ref": "0272100055"}, "type": "Feature"}
{"geometry": {"coordinates": [-71.1504388, 41.6984], "type": "Point"}, "id": "icxGrXcsZzqtarZO7Icl4XpHNsk=", "properties": {"@spider": "usps_collection_boxes", "addr:city": "FALL RIVER", "addr:country": "US", "addr:full": "315 PLEASANT ST", "addr:postcode": "02721", "addr:state": "MA", "brand": "USPS", "brand:wikidata": "Q668687", "collection_times": "Sa 09:00", "name": "USPS COLLECTION BOX - BLUE BOX", "ref": "0272100057"}, "type": "Feature"}
{"geometry": {"coordinates": [-71.1644429, 41.676195], "type": "Point"}, "id": "_0nlY7ITLuQ7I7XQs5E8t6VSb4k=", "properties": {"@spider": "usps_collection_boxes", "addr:city": "FALL RIVER", "addr:country": "US", "addr:full": "153M BISHOP ST", "addr:postcode": "02721", "addr:state": "MA", "brand": "USPS", "brand:wikidata": "Q668687", "collection_times": "Mo-Fr 12:00; Sa 09:00", "name": "USPS COLLECTION BOX - BLUE BOX", "ref": "0272100060"}, "type": "Feature"}
{"geometry": {"coordinates": [-71.1540664132, 41.7014087698], "type": "Point"}, "id": "sjhRSth6HL8Z9fVTS9CO5jQ6mTE=", "properties": {"@spider": "usps_collection_boxes", "addr:city": "FALL RIVER", "addr:country": "US", "addr:full": "2 GOVERNMENT CTR", "addr:postcode": "02722", "addr:state": "MA", "brand": "USPS", "brand:wikidata": "Q668687", "collection_times": "Sa 09:00", "name": "USPS COLLECTION BOX - PO LOBBY", "ref": "0272200003"}, "type": "Feature"}
{"geometry": {"coordinates": [-71.154063, 41.701401], "type": "Point"}, "id": "rv0tEHp7Hiz1hOYN20KonMaoxMc=", "properties": {"@spider": "usps_collection_boxes", "addr:city": "FALL RIVER", "addr:country": "US", "addr:full": "2 GOVERNMENT CTR", "addr:postcode": "02722", "addr:state": "MA", "brand": "USPS", "brand:wikidata": "Q668687", "collection_times": "Mo-Fr 16:30; Sa 09:00", "name": "USPS COLLECTION BOX - BLUE BOX", "note": "ON 12/24 AND 12/31, THIS BOX MAY BE COLLECTED AS EARLY AS 12 NOON.", "ref": "0272200008"}, "type": "Feature"}
{"geometry": {"coordinates": [-71.1540561, 41.70011], "type": "Point"}, "id": "BqNyMn8wLHDoJUnVClYIAUEwP8I=", "properties": {"@spider": "usps_collection_boxes", "addr:city": "FALL RIVER", "addr:country": "US", "addr:full": "1 SULLIVAN DR", "addr:postcode": "02722", "addr:state": "MA", "brand": "USPS", "brand:wikidata": "Q668687", "collection_times": "Sa 09:00", "name": "USPS COLLECTION BOX - BLUE BOX", "ref": "0272200010"}, "type": "Feature"}
{"geometry": {"coordinates": [-71.155303252, 41.701051703], "type": "Point"}, "id": "HDs-H8z7gm-QpD7462hoGxP7oT8=", "properties": {"@spider": "usps_collection_boxes", "addr:city": "FALL RIVER", "addr:country": "US", "addr:full": "2 GOVERNMENT CTR", "addr:postcode": "02722", "addr:state": "MA", "brand": "USPS", "brand:wikidata": "Q668687", "collection_times": "Mo-Fr 18:15; Sa 17:45", "name": "USPS COLLECTION BOX - PO LOBBY", "note": "ON 12/24 AND 12/31, THIS BOX MAY BE COLLECTED AS EARLY AS 12 NOON.", "ref": "0272200012"}, "type": "Feature"}
{"geometry": {"coordinates": [-71.1311824, 41.688143], "type": "Point"}, "id": "Pb5B9DvP-VLaFe7FByqFRLIDtS0=", "properties": {"@spider": "usps_collection_boxes", "addr:city": "FALL RIVER", "addr:country": "US", "addr:full": "1662 PLEASANT ST", "addr:postcode": "02723", "addr:state": "MA", "brand": "USPS", "brand:wikidata": "Q668687", "collection_times": "Mo-Fr 17:00; Sa 12:00", "name": "USPS COLLECTION BOX - BLUE BOX", "note": "ON 12/24 AND 12/31, THIS BOX MAY BE COLLECTED AS EARLY AS 12 NOON.", "ref": "0272300006"}, "type": "Feature"}
{"geometry": {"coordinates": [-71.1246259, 41.682835], "type": "Point"}, "id": "9lwZpC9R2YGekJcAR3kw_g4lAbg=", "properties": {"@spider": "usps_collection_boxes", "addr:city": "FALL RIVER", "addr:country": "US", "addr:full": "2187 PLEASANT ST", "addr:postcode": "02723", "addr:state": "MA", "brand": "USPS", "brand:wikidata": "Q668687", "collection_times": "Mo-Sa 09:00", "name": "USPS COLLECTION BOX - BLUE BOX", "ref": "0272300012"}, "type": "Feature"}
{"geometry": {"coordinates": [-71.133592, 41.689991], "type": "Point"}, "id": "szZ2XwreDIkq0K4J-rwbhnHqZOE=", "properties": {"@spider": "usps_collection_boxes", "addr:city": "FALL RIVER", "addr:country": "US", "addr:full": "1465 PLEASANT ST", "addr:postcode": "02723", "addr:state": "MA", "brand": "USPS", "brand:wikidata": "Q668687", "collection_times": "Mo-Sa 09:00", "name": "USPS COLLECTION BOX - BLUE BOX", "ref": "0272300016"}, "type": "Feature"}
{"geometry": {"coordinates": [-71.134102, 41.698071], "type": "Point"}, "id": "vN-Jk_Ds8TNNYAQe3L5cNDUHHEU=", "properties": {"@spider": "usps_collection_boxes", "addr:city": "FALL RIVER", "addr:country": "US", "addr:full": "1174 BEDFORD ST", "addr:postcode": "02723", "addr:state": "MA", "brand": "USPS", "brand:wikidata": "Q668687", "collection_times": "Mo-Sa 09:00", "name": "USPS COLLECTION BOX - BLUE BOX", "ref": "0272300017"}, "type": "Feature"}
{"geometry": {"coordinates": [-71.136794328, 41.684079541], "type": "Point"}, "id": "L5B3X47s26egddhIBcRS8FVor3s=", "properties": {"@spider": "usps_collection_boxes", "addr:city": "FALL RIVER", "addr:country": "US", "addr:full": "1 FATHER DEVALLES BLVD", "addr:postcode": "02723", "addr:state": "MA", "brand": "USPS", "brand:wikidata": "Q668687", "collection_times": "Mo-Sa 09:00", "name": "USPS COLLECTION BOX - BLUE BOX", "ref": "0272300019"}, "type": "Feature"}
{"geometry": {"coordinates": [-71.1283523, 41.702418], "type": "Point"}, "id": "EJ5tpeoFq4iv_2I9seVdUeqn9dk=", "properties": {"@spider": "usps_collection_boxes", "addr:city": "FALL RIVER", "addr:country": "US", "addr:full": "375 N EASTERN AVE", "addr:postcode": "02723", "addr:state": "MA", "brand": "USPS", "brand:wikidata": "Q668687", "collection_times": "Mo-Sa 09:00", "name": "USPS COLLECTION BOX - BLUE BOX", "ref": "0272300022"}, "type": "Feature"}
{"geometry": {"coordinates": [-71.1305984, 41.690027], "type": "Point"}, "id": "l6RX4ZAaEH-EPE02hSkJLcyNPrw=", "properties": {"@spider": "usps_collection_boxes", "addr:city": "FALL RIVER", "addr:country": "US", "addr:full": "529 EASTERN AVE", "addr:postcode": "02723", "addr:state": "MA", "brand": "USPS", "brand:wikidata": "Q668687", "collection_times": "Mo-Sa 09:00", "name": "USPS COLLECTION BOX - BLUE BOX", "ref": "0272300025"}, "type": "Feature"}
{"geometry": {"coordinates": [-71.1262717, 41.689077], "type": "Point"}, "id": "4kbyk_OJOOiN-erYu3sILopB5Bg=", "properties": {"@spider": "usps_collection_boxes", "addr:city": "FALL RIVER", "addr:country": "US", "addr:full": "964 COUNTY ST", "addr:postcode": "02723", "addr:state": "MA", "brand": "USPS", "brand:wikidata": "Q668687", "collection_times": "Mo-Sa 09:00", "name": "USPS COLLECTION BOX - BLUE BOX", "ref": "0272300027"}, "type": "Feature"}
{"geometry": {"coordinates": [-71.171832, 41.686962], "type": "Point"}, "id": "dpUkDYwM2pSUzjfmKVn-NjW3NFg=", "properties": {"@spider": "usps_collection_boxes", "addr:city": "FALL RIVER", "addr:country": "US", "addr:full": "1460 S MAIN ST", "addr:postcode": "02724", "addr:state": "MA", "brand": "USPS", "brand:wikidata": "Q668687", "collection_times": "Mo-Fr 17:00; Sa 09:00", "name": "USPS COLLECTION BOX - BLUE BOX", "note": "ON 12/24 AND 12/31, THIS BOX MAY BE COLLECTED AS EARLY AS 12 NOON.", "ref": "0272400008"}, "type": "Feature"}
{"geometry": {"coordinates": [-71.1695937, 41.688113], "type": "Point"}, "id": "WYvCZyNvR_L5gqNXe8Or_y9oLY8=", "properties": {"@spider": "usps_collection_boxes", "addr:city": "FALL RIVER", "addr:country": "US", "addr:full": "1313 S MAIN ST", "addr:postcode": "02724", "addr:state": "MA", "brand": "USPS", "brand:wikidata": "Q668687", "collection_times": "Mo-Sa 09:00", "name": "USPS COLLECTION BOX - BLUE BOX", "ref": "0272400010"}, "type": "Feature"}
{"geometry": {"coordinates": [-71.1646313, 41.693356], "type": "Point"}, "id": "WoDfzxKZp8bu7qCF-FW1v-hj_P4=", "properties": {"@spider": "usps_collection_boxes", "addr:city": "FALL RIVER", "addr:country": "US", "addr:full": "829 S MAIN ST", "addr:postcode": "02724", "addr:state": "MA", "brand": "USPS", "brand:wikidata": "Q668687", "collection_times": "Mo-Sa 09:00", "name": "USPS COLLECTION BOX - BLUE BOX", "ref": "0272400015"}, "type": "Feature"}
{"geometry": {"coordinates": [-71.166135865, 41.692962722], "type": "Point"}, "id": "1iA9AYyFkU3Mh8ElbT4p5O-d4ls=", "properties": {"@spider": "usps_collection_boxes", "addr:city": "FALL RIVER", "addr:country": "US", "addr:full": "261 OLIVER ST", "addr:postcode": "02724", "addr:state": "MA", "brand": "USPS", "brand:wikidata": "Q668687", "collection_times": "Mo-Sa 09:00", "name": "USPS COLLECTION BOX - BLUE BOX", "ref": "0272400021"}, "type": "Feature"}
{"geometry": {"coordinates": [-71.1667413, 41.676056], "type": "Point"}, "id": "FBj8_MXJxBAIn_6h0_tTo0jlYys=", "properties": {"@spider": "usps_collection_boxes", "addr:city": "FALL RIVER", "addr:country": "US", "addr:full": "65 MITCHELL DR", "addr:postcode": "02724", "addr:state": "MA", "brand": "USPS", "brand:wikidata": "Q668687", "collection_times": "Mo-Sa 09:00", "name": "USPS COLLECTION BOX - BLUE BOX", "ref": "0272400022"}, "type": "Feature"}
{"geometry": {"coordinates": [-71.1652421, 41.685004], "type": "Point"}, "id": "7IfUBELVlDngnoiQb7uVEiCKG48=", "properties": {"@spider": "usps_collection_boxes", "addr:city": "FALL RIVER", "addr:country": "US", "addr:full": "937 GLOBE ST", "addr:postcode": "02724", "addr:state": "MA", "brand": "USPS", "brand:wikidata": "Q668687", "collection_times": "Mo-Sa 09:00", "name": "USPS COLLECTION BOX - BLUE BOX", "ref": "0272400025"}, "type": "Feature"}
{"geometry": {"coordinates": [-71.1689349, 41.694212], "type": "Point"}, "id": "NDUcnPbCX3KdZOw50BUgDN6M0CI=", "properties": {"@spider": "usps_collection_boxes", "addr:city": "FALL RIVER", "addr:country": "US", "addr:full": "515 BROADWAY", "addr:postcode": "02724", "addr:state": "MA", "brand": "USPS", "brand:wikidata": "Q668687", "collection_times": "Mo-Sa 09:00", "name": "USPS COLLECTION BOX - BLUE BOX", "ref": "0272400030"}, "type": "Feature"}
{"geometry": {"coordinates": [-71.1790378, 41.679088], "type": "Point"}, "id": "qvdKEsvuNQAwbMS6zjubfzUrn_g=", "properties": {"@spider": "usps_collection_boxes", "addr:city": "FALL RIVER", "addr:country": "US", "addr:full": "2137 S MAIN ST", "addr:postcode": "02724", "addr:state": "MA", "brand": "USPS", "brand:wikidata": "Q668687", "collection_times": "Mo-Sa 09:00", "name": "USPS COLLECTION BOX - BLUE BOX", "ref": "0272400036"}, "type": "Feature"}
{"geometry": {"coordinates": [-71.172003464, 41.686801031], "type": "Point"}, "id": "Crp6aMLeouK2QeeYXxY7IoOIKbM=", "properties": {"@spider": "usps_collection_boxes", "addr:city": "FALL RIVER", "addr:country": "US", "addr:full": "1460 S MAIN ST", "addr:postcode": "02724", "addr:state": "MA", "brand": "USPS", "brand:wikidata": "Q668687", "collection_times": "Mo-Fr 17:15; Sa 13:00", "name": "USPS COLLECTION BOX - PO LOBBY", "note": "ON 12/24 AND 12/31, THIS BOX MAY BE COLLECTED AS EARLY AS 12 NOON.", "ref": "0272400039"}, "type": "Feature"}
{"geometry": {"coordinates": [-71.1679508, 41.721059], "type": "Point"}, "id": "fXiqBXHolsb6azpojzi9cDQIYIk=", "properties": {"@spider": "usps_collection_boxes", "addr:city": "SOMERSET", "addr:country": "US", "addr:full": "500 WILBUR AVE", "addr:postcode": "02725", "addr:state": "MA", "brand": "USPS", "brand:wikidata": "Q668687", "collection_times": "Mo-Sa 09:00", "name": "USPS COLLECTION BOX - BLUE BOX", "ref": "0272500001"}, "type": "Feature"}
{"geometry": {"coordinates": [-71.1708876, 41.72989], "type": "Point"}, "id": "D-G68oHznL4o7qU77RhD85-roDs=", "properties": {"@spider": "usps_collection_boxes", "addr:city": "SOMERSET", "addr:country": "US", "addr:full": "887 GRAND ARMY HWY", "addr:postcode": "02725", "addr:state": "MA", "brand": "USPS", "brand:wikidata": "Q668687", "collection_times": "Mo-Sa 09:00", "name": "USPS COLLECTION BOX - BLUE BOX", "ref": "0272500003"}, "type": "Feature"}
{"geometry": {"coordinates": [-71.1792923, 41.723312], "type": "Point"}, "id": "DrH9lyDeGdSI0GrrwzUYxLtoXUA=", "properties": {"@spider": "usps_collection_boxes", "addr:city": "SOMERSET", "addr:country": "US", "addr:full": "1229 WILBUR AVE", "addr:postcode": "02725", "addr:state": "MA", "brand": "USPS", "brand:wikidata": "Q668687", "collection_times": "Mo-Sa 09:00", "name": "USPS COLLECTION BOX - BLUE BOX", "ref": "0272500004"}, "type": "Feature"}
{"geometry": {"coordinates": [-71.1607253, 41.725793], "type": "Point"}, "id": "Gvlr6h3PhseDqlwJMHwJEJjuZ3M=", "properties": {"@spider": "usps_collection_boxes", "addr:city": "SOMERSET", "addr:country": "US", "addr:full": "207 BRAYTON AVE", "addr:postcode": "02725", "addr:state": "MA", "brand": "USPS", "brand:wikidata": "Q668687", "collection_times": "Mo-Sa 09:00", "name": "USPS COLLECTION BOX - BLUE BOX", "ref": "0272500005"}, "type": "Feature"}
{"geometry": {"coordinates": [-71.1386319, 41.772887], "type": "Point"}, "id": "kUkOzlujvlPFmTUecBKuYqMbhe8=", "properties": {"@spider": "usps_collection_boxes", "addr:city": "SOMERSET", "addr:country": "US", "addr:full": "3045 COUNTY ST", "addr:postcode": "02726", "addr:state": "MA", "brand": "USPS", "brand:wikidata": "Q668687", "collection_times": "Mo-Sa 09:00", "name": "USPS COLLECTION BOX - BLUE BOX", "ref": "0272600001"}, "type": "Feature"}
{"geometry": {"coordinates": [-71.1402028, 41.7457], "type": "Point"}, "id": "Wf2j9F_tfm15d3Wskwhoo4Pvp-U=", "properties": {"@spider": "usps_collection_boxes", "addr:city": "SOMERSET", "addr:country": "US", "addr:full": "2541 RIVERSIDE AVE", "addr:postcode": "02726", "addr:state": "MA", "brand": "USPS", "brand:wikidata": "Q668687", "collection_times": "Mo-Sa 09:00", "name": "USPS COLLECTION BOX - BLUE BOX", "ref": "0272600008"}, "type": "Feature"}
{"geometry": {"coordinates": [-71.1607809, 41.731254], "type": "Point"}, "id": "A7_UTBQaUel_q9pW5KxLseJnHyc=", "properties": {"@spider": "usps_collection_boxes", "addr:city": "SOMERSET", "addr:country": "US", "addr:full": "636 BRAYTON AVE", "addr:postcode": "02726", "addr:state": "MA", "brand": "USPS", "brand:wikidata": "Q668687", "collection_times": "Mo-Sa 09:00", "name": "USPS COLLECTION BOX - BLUE BOX", "ref": "0272600009"}, "type": "Feature"}
{"geometry": {"coordinates": [-71.1468321, 41.742766], "type": "Point"}, "id": "uvOvjP9ysj6oAA3lINnyFagVNU0=", "properties": {"@spider": "usps_collection_boxes", "addr:city": "SOMERSET", "addr:country": "US", "addr:full": "740 COUNTY ST", "addr:postcode": "02726", "addr:state": "MA", "brand": "USPS", "brand:wikidata": "Q668687", "collection_times": "Mo-Sa 09:00", "name": "USPS COLLECTION BOX - BLUE BOX", "ref": "0272600011"}, "type": "Feature"}
{"geometry": {"coordinates": [-71.141424492, 41.751707439], "type": "Point"}, "id": "rI6iI1d7h5Z2Bgx1W9GrB0SaD1Q=", "properties": {"@spider": "usps_collection_boxes", "addr:city": "SOMERSET", "addr:country": "US", "addr:full": "140 WOOD ST", "addr:postcode": "02726", "addr:state": "MA", "brand": "USPS", "brand:wikidata": "Q668687", "collection_times": "Mo-Sa 09:00", "name": "USPS COLLECTION BOX - BLUE BOX", "ref": "0272600012"}, "type": "Feature"}
{"geometry": {"coordinates": [-71.1700208, 41.737099], "type": "Point"}, "id": "RC7PTapjjk5b8Rv8fiGNcv-oBSY=", "properties": {"@spider": "usps_collection_boxes", "addr:city": "SOMERSET", "addr:country": "US", "addr:full": "905 READ ST", "addr:postcode": "02726", "addr:state": "MA", "brand": "USPS", "brand:wikidata": "Q668687", "collection_times": "Mo-Sa 09:00", "name": "USPS COLLECTION BOX - BLUE BOX", "ref": "0272600019"}, "type": "Feature"}
{"geometry": {"coordinates": [-71.1448144, 41.74836], "type": "Point"}, "id": "yNb66sUk54DxCwr0ezV1pmvPKas=", "properties": {"@spider": "usps_collection_boxes", "addr:city": "SOMERSET", "addr:country": "US", "addr:full": "1089 COUNTY ST", "addr:postcode": "02726", "addr:state": "MA", "brand": "USPS", "brand:wikidata": "Q668687", "collection_times": "Mo-Fr 17:00; Sa 15:00", "name": "USPS COLLECTION BOX - BLUE BOX", "note": "ON 12/24 AND 12/31, THIS BOX MAY BE COLLECTED AS EARLY AS 12 NOON.", "ref": "0272600020"}, "type": "Feature"}
{"geometry": {"coordinates": [-71.144296879, 41.748201531], "type": "Point"}, "id": "DCAcmz25U1s4mY1Qr1H4AI3RTqU=", "properties": {"@spider": "usps_collection_boxes", "addr:city": "SOMERSET", "addr:country": "US", "addr:full": "1089 COUNTY ST", "addr:postcode": "02726", "addr:state": "MA", "brand": "USPS", "brand:wikidata": "Q668687", "collection_times": "Mo-Fr 18:00; Sa 17:00", "name": "USPS COLLECTION BOX - PO LOBBY", "note": "ON 12/24 AND 12/31, THIS BOX MAY BE COLLECTED AS EARLY AS 12 NOON.", "ref": "0272600023"}, "type": "Feature"}
{"geometry": {"coordinates": [-70.762579, 41.703032], "type": "Point"}, "id": "M0tnXX7Bi_7Qe0i1V7I32HTZ75A=", "properties": {"@spider": "usps_collection_boxes", "addr:city": "MARION", "addr:country": "US", "addr:full": "143 FRONT ST", "addr:postcode": "02738", "addr:state": "MA", "brand": "USPS", "brand:wikidata": "Q668687", "collection_times": "Mo-Fr 17:00; Sa 12:00", "name": "USPS COLLECTION BOX - BLUE BOX", "note": "ON 12/24 AND 12/31, THIS BOX MAY BE COLLECTED AS EARLY AS 12 NOON.", "ref": "0273800002"}, "type": "Feature"}
{"geometry": {"coordinates": [-70.7708831, 41.715124], "type": "Point"}, "id": "L5jmFr0inYLIyjTfaN3h1Yyzb_c=", "properties": {"@spider": "usps_collection_boxes", "addr:city": "MARION", "addr:country": "US", "addr:full": "413 WAREHAM RD", "addr:postcode": "02738", "addr:state": "MA", "brand": "USPS", "brand:wikidata": "Q668687", "collection_times": "Mo-Sa 11:00", "name": "USPS COLLECTION BOX - BLUE BOX", "ref": "0273800006"}, "type": "Feature"}
{"geometry": {"coordinates": [-70.762576716, 41.703028753], "type": "Point"}, "id": "v3DrAa0EHjQeA-KXrLsOdCNPz_8=", "properties": {"@spider": "usps_collection_boxes", "addr:city": "MARION", "addr:country": "US", "addr:full": "143 FRONT ST", "addr:postcode": "02738", "addr:state": "MA", "brand": "USPS", "brand:wikidata": "Q668687", "collection_times": "Mo-Fr 17:15; Sa 12:30", "name": "USPS COLLECTION BOX - PO LOBBY", "note": "ON 12/24 AND 12/31, THIS BOX MAY BE COLLECTED AS EARLY AS 12 NOON.", "ref": "0273800008"}, "type": "Feature"}
{"geometry": {"coordinates": [-70.8131252093, 41.663410208], "type": "Point"}, "id": "pJI-BWy4BKqSPIgMcFAeVwED1eM=", "properties": {"@spider": "usps_collection_boxes", "addr:city": "MATTAPOISETT", "addr:country": "US", "addr:full": "30 COUNTY RD", "addr:postcode": "02739", "addr:state": "MA", "brand": "USPS", "brand:wikidata": "Q668687", "collection_times": "Mo-Fr 17:00; Sa 13:00", "name": "USPS COLLECTION BOX - BLUE BOX", "note": "ON 12/24 AND 12/31, THIS BOX MAY BE COLLECTED AS EARLY AS 12 NOON.", "ref": "0273900001"}, "type": "Feature"}
{"geometry": {"coordinates": [-70.8406708, 41.656308], "type": "Point"}, "id": "TNDH2CGZ9d2dKJnFrudekMRrpQE=", "properties": {"@spider": "usps_collection_boxes", "addr:city": "MATTAPOISETT", "addr:country": "US", "addr:full": "109 FAIRHAVEN RD", "addr:postcode": "02739", "addr:state": "MA", "brand": "USPS", "brand:wikidata": "Q668687", "collection_times": "Mo-Sa 10:00", "name": "USPS COLLECTION BOX - BLUE BOX", "ref": "0273900006"}, "type": "Feature"}
{"geometry": {"coordinates": [-70.813294225, 41.66359502], "type": "Point"}, "id": "DwN3zioSAK9N_ktiX77ksxNkGa0=", "properties": {"@spider": "usps_collection_boxes", "addr:city": "MATTAPOISETT", "addr:country": "US", "addr:full": "30 COUNTY RD", "addr:postcode": "02739", "addr:state": "MA", "brand": "USPS", "brand:wikidata": "Q668687", "collection_times": "Mo-Fr 17:15; Sa 13:15", "name": "USPS COLLECTION BOX - PO LOBBY", "note": "ON 12/24 AND 12/31, THIS BOX MAY BE COLLECTED AS EARLY AS 12 NOON.", "ref": "0273900009"}, "type": "Feature"}
{"geometry": {"coordinates": [-70.9278747, 41.636199], "type": "Point"}, "id": "4E_OJx5yC9hOsuyyZWThpPRohsY=", "properties": {"@spider": "usps_collection_boxes", "addr:city": "NEW BEDFORD", "addr:country": "US", "addr:full": "40 N 6TH ST", "addr:postcode": "02740", "addr:state": "MA", "brand": "USPS", "brand:wikidata": "Q668687", "collection_times": "Mo-Fr 17:45; Sa 17:00", "name": "USPS COLLECTION BOX - BLUE BOX", "note": "ON 12/24 AND 12/31, THIS BOX MAY BE COLLECTED AS EARLY AS 12 NOON.", "ref": "0274000001"}, "type": "Feature"}
{"geometry": {"coordinates": [-70.9279445906, 41.635765926], "type": "Point"}, "id": "eE3XMK35aRGbFy7xDkO6n2dBK94=", "properties": {"@spider": "usps_collection_boxes", "addr:city": "NEW BEDFORD", "addr:country": "US", "addr:full": "40 N 6TH ST", "addr:postcode": "02740", "addr:state": "MA", "brand": "USPS", "brand:wikidata": "Q668687", "collection_times": "Mo-Fr 17:45; Sa 17:00", "name": "USPS COLLECTION BOX - BLUE BOX", "note": "ON 12/24 AND 12/31, THIS BOX MAY BE COLLECTED AS EARLY AS 12 NOON.", "ref": "0274000002"}, "type": "Feature"}
{"geometry": {"coordinates": [-70.9364599, 41.638857], "type": "Point"}, "id": "_sUnSFqNp5KFNyeBAhkCU1xeN_M=", "properties": {"@spider": "usps_collection_boxes", "addr:city": "NEW BEDFORD", "addr:country": "US", "addr:full": "181 HILLMAN ST", "addr:postcode": "02740", "addr:state": "MA", "brand": "USPS", "brand:wikidata": "Q668687", "collection_times": "Mo-Sa 09:30", "name": "USPS COLLECTION BOX - BLUE BOX", "ref": "0274000006"}, "type": "Feature"}
{"geometry": {"coordinates": [-70.9352893, 41.633383], "type": "Point"}, "id": "5k5XoNTjmDHrs-bD1d4aRHzkF70=", "properties": {"@spider": "usps_collection_boxes", "addr:city": "NEW BEDFORD", "addr:country": "US", "addr:full": "219 ASH ST", "addr:postcode": "02740", "addr:state": "MA", "brand": "USPS", "brand:wikidata": "Q668687", "collection_times": "Mo-Sa 09:30", "name": "USPS COLLECTION BOX - BLUE BOX", "ref": "0274000007"}, "type": "Feature"}
{"geometry": {"coordinates": [-70.9301317, 41.621046], "type": "Point"}, "id": "RHaerq06XDGuv6QIgQTPoo40XSg=", "properties": {"@spider": "usps_collection_boxes", "addr:city": "NEW BEDFORD", "addr:country": "US", "addr:full": "136 THOMPSON ST", "addr:postcode": "02740", "addr:state": "MA", "brand": "USPS", "brand:wikidata": "Q668687", "collection_times": "Mo-Sa 09:30", "name": "USPS COLLECTION BOX - BLUE BOX", "ref": "0274000009"}, "type": "Feature"}
{"geometry": {"coordinates": [-70.9411748, 41.627205], "type": "Point"}, "id": "Hi8WKlmipPfsjUeBv2BfBXJ92w8=", "properties": {"@spider": "usps_collection_boxes", "addr:city": "NEW BEDFORD", "addr:country": "US", "addr:full": "52 BRIGHAM ST", "addr:postcode": "02740", "addr:state": "MA", "brand": "USPS", "brand:wikidata": "Q668687", "collection_times": "Mo-Sa 09:00", "name": "USPS COLLECTION BOX - BLUE BOX", "ref": "0274000010"}, "type": "Feature"}
{"geometry": {"coordinates": [-70.9445247, 41.632273], "type": "Point"}, "id": "poJE2F3ZycsZ32KjRkQRerzYoHQ=", "properties": {"@spider": "usps_collection_boxes", "addr:city": "NEW BEDFORD", "addr:country": "US", "addr:full": "610 UNION ST", "addr:postcode": "02740", "addr:state": "MA", "brand": "USPS", "brand:wikidata": "Q668687", "collection_times": "Mo-Sa 09:30", "name": "USPS COLLECTION BOX - BLUE BOX", "ref": "0274000011"}, "type": "Feature"}
{"geometry": {"coordinates": [-70.9362019, 41.643677], "type": "Point"}, "id": "gb8VlmXITzNoN23ZFtJ8aF90W1k=", "properties": {"@spider": "usps_collection_boxes", "addr:city": "NEW BEDFORD", "addr:country": "US", "addr:full": "274 CEDAR ST", "addr:postcode": "02740", "addr:state": "MA", "brand": "USPS", "brand:wikidata": "Q668687", "collection_times": "Mo-Sa 09:30", "name": "USPS COLLECTION BOX - BLUE BOX", "ref": "0274000012"}, "type": "Feature"}
{"geometry": {"coordinates": [-70.933838, 41.642201], "type": "Point"}, "id": "vcvsqLYTaFYTpDgfrdH5PL6UB74=", "properties": {"@spider": "usps_collection_boxes", "addr:city": "NEW BEDFORD", "addr:country": "US", "addr:full": "127 CHESTNUT ST", "addr:postcode": "02740", "addr:state": "MA", "brand": "USPS", "brand:wikidata": "Q668687", "collection_times": "Mo-Sa 09:30", "name": "USPS COLLECTION BOX - BLUE BOX", "ref": "0274000013"}, "type": "Feature"}
{"geometry": {"coordinates": [-70.9543215, 41.636398], "type": "Point"}, "id": "7hOj_zohj8-bkivo5rumfjDcKOk=", "properties": {"@spider": "usps_collection_boxes", "addr:city": "NEW BEDFORD", "addr:country": "US", "addr:full": "1069 KEMPTON ST", "addr:postcode": "02740", "addr:state": "MA", "brand": "USPS", "brand:wikidata": "Q668687", "collection_times": "Mo-Sa 09:30", "name": "USPS COLLECTION BOX - BLUE BOX", "ref": "0274000014"}, "type": "Feature"}
{"geometry": {"coordinates": [-70.9355083, 41.649798], "type": "Point"}, "id": "S6ushqHJKSnAzaMDpnftch_XLH4=", "properties": {"@spider": "usps_collection_boxes", "addr:city": "NEW BEDFORD", "addr:country": "US", "addr:full": "8 DURFEE ST", "addr:postcode": "02740", "addr:state": "MA", "brand": "USPS", "brand:wikidata": "Q668687", "collection_times": "Mo-Sa 09:30", "name": "USPS COLLECTION BOX - BLUE BOX", "ref": "0274000015"}, "type": "Feature"}
{"geometry": {"coordinates": [-70.9354755, 41.64704], "type": "Point"}, "id": "4X2iAvZYCL4tSgIj7FWXCrhzO4w=", "properties": {"@spider": "usps_collection_boxes", "addr:city": "NEW BEDFORD", "addr:country": "US", "addr:full": "602 COTTAGE ST", "addr:postcode": "02740", "addr:state": "MA", "brand": "USPS", "brand:wikidata": "Q668687", "collection_times": "Mo-Sa 09:30", "name": "USPS COLLECTION BOX - BLUE BOX", "ref": "0274000016"}, "type": "Feature"}
{"geometry": {"coordinates": [-70.9327507, 41.63359], "type": "Point"}, "id": "FR6Ist_dEwk1MnPWVcgbiY9cgxU=", "properties": {"@spider": "usps_collection_boxes", "addr:city": "NEW BEDFORD", "addr:country": "US", "addr:full": "345 UNION ST", "addr:postcode": "02740", "addr:state": "MA", "brand": "USPS", "brand:wikidata": "Q668687", "collection_times": "Mo-Fr 17:00; Sa 15:30", "name": "USPS COLLECTION BOX - BLUE BOX", "note": "ON 12/24 AND 12/31, THIS BOX MAY BE COLLECTED AS EARLY AS 12 NOON.", "ref": "0274000017"}, "type": "Feature"}
{"geometry": {"coordinates": [-70.928777717, 41.630285986], "type": "Point"}, "id": "qF9bdTeqW8fYrosAvcK7qJXkkGo=", "properties": {"@spider": "usps_collection_boxes", "addr:city": "NEW BEDFORD", "addr:country": "US", "addr:full": "396 COUNTY ST", "addr:postcode": "02740", "addr:state": "MA", "brand": "USPS", "brand:wikidata": "Q668687", "collection_times": "Mo-Fr 17:00; Sa 15:30", "name": "USPS COLLECTION BOX - BLUE BOX", "note": "ON 12/24 AND 12/31, THIS BOX MAY BE COLLECTED AS EARLY AS 12 NOON.", "ref": "0274000019"}, "type": "Feature"}
{"geometry": {"coordinates": [-70.9247395, 41.621803], "type": "Point"}, "id": "wKg6u9n59KOfrts3q39mIiuMcFQ=", "properties": {"@spider": "usps_collection_boxes", "addr:city": "NEW BEDFORD", "addr:country": "US", "addr:full": "191 COUNTY ST", "addr:postcode": "02740", "addr:state": "MA", "brand": "USPS", "brand:wikidata": "Q668687", "collection_times": "Mo-Sa 09:30", "name": "USPS COLLECTION BOX - BLUE BOX", "ref": "0274000021"}, "type": "Feature"}
{"geometry": {"coordinates": [-70.9299242, 41.635032], "type": "Point"}, "id": "MiGBhSF9pftFC4mEaWp7Ha9yb7g=", "properties": {"@spider": "usps_collection_boxes", "addr:city": "NEW BEDFORD", "addr:country": "US", "addr:full": "190 WILLIAM ST", "addr:postcode": "02740", "addr:state": "MA", "brand": "USPS", "brand:wikidata": "Q668687", "collection_times": "Mo-Fr 17:00; Sa 09:30", "name": "USPS COLLECTION BOX - BLUE BOX", "note": "ON 12/24 AND 12/31, THIS BOX MAY BE COLLECTED AS EARLY AS 12 NOON.", "ref": "0274000023"}, "type": "Feature"}
{"geometry": {"coordinates": [-70.9299044, 41.635029], "type": "Point"}, "id": "fCEcoMd5dJss2udK8h0ZCghhJ70=", "properties": {"@spider": "usps_collection_boxes", "addr:city": "NEW BEDFORD", "addr:country": "US", "addr:full": "190 WILLIAM ST", "addr:postcode": "02740", "addr:state": "MA", "brand": "USPS", "brand:wikidata": "Q668687", "collection_times": "Mo-Fr 17:00; Sa 09:30", "name": "USPS COLLECTION BOX - BLUE BOX", "note": "ON 12/24 AND 12/31, THIS BOX MAY BE COLLECTED AS EARLY AS 12 NOON.", "ref": "0274000024"}, "type": "Feature"}
{"geometry": {"coordinates": [-70.9351539, 41.620361], "type": "Point"}, "id": "S8uQPg4dneY5W2g386o6kuLXmf0=", "properties": {"@spider": "usps_collection_boxes", "addr:city": "NEW BEDFORD", "addr:country": "US", "addr:full": "274 DARTMOUTH ST", "addr:postcode": "02740", "addr:state": "MA", "brand": "USPS", "brand:wikidata": "Q668687", "collection_times": "Mo-Sa 09:30", "name": "USPS COLLECTION BOX - BLUE BOX", "ref": "0274000025"}, "type": "Feature"}
{"geometry": {"coordinates": [-70.9372474, 41.615546], "type": "Point"}, "id": "z5FETLhaJyqmy-0troYKJzQa0WY=", "properties": {"@spider": "usps_collection_boxes", "addr:city": "NEW BEDFORD", "addr:country": "US", "addr:full": "438 DARTMOUTH ST", "addr:postcode": "02740", "addr:state": "MA", "brand": "USPS", "brand:wikidata": "Q668687", "collection_times": "Mo-Fr 16:30; Sa 09:30", "name": "USPS COLLECTION BOX - BLUE BOX", "note": "ON 12/24 AND 12/31, THIS BOX MAY BE COLLECTED AS EARLY AS 12 NOON.", "ref": "0274000026"}, "type": "Feature"}
{"geometry": {"coordinates": [-70.9380949, 41.62434], "type": "Point"}, "id": "vQjcP8kSn8nzVu_5qIdiLX_Td-o=", "properties": {"@spider": "usps_collection_boxes", "addr:city": "NEW BEDFORD", "addr:country": "US", "addr:full": "84 GRAPE ST", "addr:postcode": "02740", "addr:state": "MA", "brand": "USPS", "brand:wikidata": "Q668687", "collection_times": "Mo-Sa 09:30", "name": "USPS COLLECTION BOX - BLUE BOX", "ref": "0274000027"}, "type": "Feature"}
{"geometry": {"coordinates": [-70.9524899, 41.639369], "type": "Point"}, "id": "K9UmY40lAOZ8ZF2rlcDXlnJJzB0=", "properties": {"@spider": "usps_collection_boxes", "addr:city": "NEW BEDFORD", "addr:country": "US", "addr:full": "143 JENNY LIND ST", "addr:postcode": "02740", "addr:state": "MA", "brand": "USPS", "brand:wikidata": "Q668687", "collection_times": "Mo-Sa 09:30", "name": "USPS COLLECTION BOX - BLUE BOX", "ref": "0274000029"}, "type": "Feature"}
{"geometry": {"coordinates": [-70.951336, 41.63564], "type": "Point"}, "id": "5QuLce0QqPYGc3w3XyX9QxlGBY8=", "properties": {"@spider": "usps_collection_boxes", "addr:city": "NEW BEDFORD", "addr:country": "US", "addr:full": "966 KEMPTON ST", "addr:postcode": "02740", "addr:state": "MA", "brand": "USPS", "brand:wikidata": "Q668687", "collection_times": "Mo-Fr 16:30; Sa 09:00", "name": "USPS COLLECTION BOX - BLUE BOX", "note": "ON 12/24 AND 12/31, THIS BOX MAY BE COLLECTED AS EARLY AS 12 NOON.", "ref": "0274000030"}, "type": "Feature"}
{"geometry": {"coordinates": [-70.9201999, 41.626471], "type": "Point"}, "id": "5hgoNkw7_DFLNuY4iU0DoQ7nvPo=", "properties": {"@spider": "usps_collection_boxes", "addr:city": "NEW BEDFORD", "addr:country": "US", "addr:full": "87 CONWAY ST", "addr:postcode": "02740", "addr:state": "MA", "brand": "USPS", "brand:wikidata": "Q668687", "collection_times": "Mo-Sa 09:30", "name": "USPS COLLECTION BOX - BLUE BOX", "ref": "0274000033"}, "type": "Feature"}
{"geometry": {"coordinates": [-70.9278036, 41.634477], "type": "Point"}, "id": "zNhbCstQxX1PEM5wNS92nJBb8SQ=", "properties": {"@spider": "usps_collection_boxes", "addr:city": "NEW BEDFORD", "addr:country": "US", "addr:full": "13 N 6TH ST", "addr:postcode": "02740", "addr:state": "MA", "brand": "USPS", "brand:wikidata": "Q668687", "collection_times": "Mo-Fr 17:00; Sa 09:30", "name": "USPS COLLECTION BOX - BLUE BOX", "note": "ON 12/24 AND 12/31, THIS BOX MAY BE COLLECTED AS EARLY AS 12 NOON.", "ref": "0274000035"}, "type": "Feature"}
{"geometry": {"coordinates": [-70.9628434, 41.646766], "type": "Point"}, "id": "YZxxapSEzt0tuSet5_IJH2lRGyA=", "properties": {"@spider": "usps_collection_boxes", "addr:city": "NEW BEDFORD", "addr:country": "US", "addr:full": "169 OAKDALE ST", "addr:postcode": "02740", "addr:state": "MA", "brand": "USPS", "brand:wikidata": "Q668687", "collection_times": "Mo-Sa 09:30", "name": "USPS COLLECTION BOX - BLUE BOX", "ref": "0274000037"}, "type": "Feature"}
{"geometry": {"coordinates": [-70.9373007, 41.626811], "type": "Point"}, "id": "Y2AbAeSeLEKfqd4YGa7qhzyGqKo=", "properties": {"@spider": "usps_collection_boxes", "addr:city": "NEW BEDFORD", "addr:country": "US", "addr:full": "101 PAGE ST", "addr:postcode": "02740", "addr:state": "MA", "brand": "USPS", "brand:wikidata": "Q668687", "collection_times": "Mo-Fr 17:00; Sa 09:30", "name": "USPS COLLECTION BOX - BLUE BOX", "note": "ON 12/24 AND 12/31, THIS BOX MAY BE COLLECTED AS EARLY AS 12 NOON.", "ref": "0274000038"}, "type": "Feature"}
{"geometry": {"coordinates": [-70.9257755, 41.633502], "type": "Point"}, "id": "coBJgsrZA46NcmmAmAxbpegzIRU=", "properties": {"@spider": "usps_collection_boxes", "addr:city": "NEW BEDFORD", "addr:country": "US", "addr:full": "680 PURCHASE ST", "addr:postcode": "02740", "addr:state": "MA", "brand": "USPS", "brand:wikidata": "Q668687", "collection_times": "Mo-Fr 17:00; Sa 09:15", "name": "USPS COLLECTION BOX - BLUE BOX", "note": "ON 12/24 AND 12/31, THIS BOX MAY BE COLLECTED AS EARLY AS 12 NOON.", "ref": "0274000050"}, "type": "Feature"}
{"geometry": {"coordinates": [-70.9260269009, 41.6355061743], "type": "Point"}, "id": "OFGHsIs1-vkMLVvskEObRqHd3_Y=", "properties": {"@spider": "usps_collection_boxes", "addr:city": "NEW BEDFORD", "addr:country": "US", "addr:full": "824 PURCHASE ST", "addr:postcode": "02740", "addr:state": "MA", "brand": "USPS", "brand:wikidata": "Q668687", "collection_times": "Mo-Fr 17:00; Sa 09:30", "name": "USPS COLLECTION BOX - BLUE BOX", "note": "ON 12/24 AND 12/31, THIS BOX MAY BE COLLECTED AS EARLY AS 12 NOON.", "ref": "0274000051"}, "type": "Feature"}
{"geometry": {"coordinates": [-70.9264409, 41.636403], "type": "Point"}, "id": "NurwNdjTqTrWPUhGHKWebwu9PP4=", "properties": {"@spider": "usps_collection_boxes", "addr:city": "NEW BEDFORD", "addr:country": "US", "addr:full": "888 PURCHASE ST", "addr:postcode": "02740", "addr:state": "MA", "brand": "USPS", "brand:wikidata": "Q668687", "collection_times": "Mo-Fr 17:00; Sa 09:30", "name": "USPS COLLECTION BOX - BLUE BOX", "note": "ON 12/24 AND 12/31, THIS BOX MAY BE COLLECTED AS EARLY AS 12 NOON.", "ref": "0274000052"}, "type": "Feature"}
{"geometry": {"coordinates": [-70.9469833, 41.632087], "type": "Point"}, "id": "XGwFlhzz92maQEH2Jt36HTtc6Ck=", "properties": {"@spider": "usps_collection_boxes", "addr:city": "NEW BEDFORD", "addr:country": "US", "addr:full": "285 REED ST", "addr:postcode": "02740", "addr:state": "MA", "brand": "USPS", "brand:wikidata": "Q668687", "collection_times": "Mo-Sa 09:30", "name": "USPS COLLECTION BOX - BLUE BOX", "ref": "0274000055"}, "type": "Feature"}
{"geometry": {"coordinates": [-70.9490178, 41.64863], "type": "Point"}, "id": "ZnXROkGFf9S-byeC9hMd2LNj1dQ=", "properties": {"@spider": "usps_collection_boxes", "addr:city": "NEW BEDFORD", "addr:country": "US", "addr:full": "330D HATHAWAY BLVD", "addr:postcode": "02740", "addr:state": "MA", "brand": "USPS", "brand:wikidata": "Q668687", "collection_times": "Mo-Sa 09:30", "name": "USPS COLLECTION BOX - BLUE BOX", "ref": "0274000057"}, "type": "Feature"}
{"geometry": {"coordinates": [-70.9360452, 41.614754], "type": "Point"}, "id": "-luZflY77JD9AMz747hBMbC2f_w=", "properties": {"@spider": "usps_collection_boxes", "addr:city": "NEW BEDFORD", "addr:country": "US", "addr:full": "117 ROCKDALE AVE", "addr:postcode": "02740", "addr:state": "MA", "brand": "USPS", "brand:wikidata": "Q668687", "collection_times": "Mo-Sa 09:30", "name": "USPS COLLECTION BOX - BLUE BOX", "ref": "0274000059"}, "type": "Feature"}
{"geometry": {"coordinates": [-70.9234771, 41.630582], "type": "Point"}, "id": "eVZKJez1KCaz7koYiZ6L_ThjvzY=", "properties": {"@spider": "usps_collection_boxes", "addr:city": "NEW BEDFORD", "addr:country": "US", "addr:full": "134 S 2ND ST", "addr:postcode": "02740", "addr:state": "MA", "brand": "USPS", "brand:wikidata": "Q668687", "collection_times": "Mo-Fr 17:00; Sa 09:30", "name": "USPS COLLECTION BOX - BLUE BOX", "note": "ON 12/24 AND 12/31, THIS BOX MAY BE COLLECTED AS EARLY AS 12 NOON.", "ref": "0274000060"}, "type": "Feature"}
{"geometry": {"coordinates": [-70.9274212, 41.63366], "type": "Point"}, "id": "A1Fu2IMZVjhScyLYef6oKfB9A1c=", "properties": {"@spider": "usps_collection_boxes", "addr:city": "NEW BEDFORD", "addr:country": "US", "addr:full": "9 S 6TH ST", "addr:postcode": "02740", "addr:state": "MA", "brand": "USPS", "brand:wikidata": "Q668687", "collection_times": "Mo-Fr 17:00; Sa 09:30", "name": "USPS COLLECTION BOX - BLUE BOX", "note": "ON 12/24 AND 12/31, THIS BOX MAY BE COLLECTED AS EARLY AS 12 NOON.", "ref": "0274000062"}, "type": "Feature"}
{"geometry": {"coordinates": [-70.9414219, 41.649221], "type": "Point"}, "id": "hx-vuwa1woJd5v40IXcGRmbd1lw=", "properties": {"@spider": "usps_collection_boxes", "addr:city": "NEW BEDFORD", "addr:country": "US", "addr:full": "109 DURFEE ST", "addr:postcode": "02740", "addr:state": "MA", "brand": "USPS", "brand:wikidata": "Q668687", "collection_times": "Mo-Sa 09:30", "name": "USPS COLLECTION BOX - BLUE BOX", "ref": "0274000063"}, "type": "Feature"}
{"geometry": {"coordinates": [-70.9321828, 41.638512], "type": "Point"}, "id": "X7Eg2bM6XW6X5W4Qv4ekdzlUYw0=", "properties": {"@spider": "usps_collection_boxes", "addr:city": "NEW BEDFORD", "addr:country": "US", "addr:full": "110 SUMMER ST", "addr:postcode": "02740", "addr:state": "MA", "brand": "USPS", "brand:wikidata": "Q668687", "collection_times": "Mo-Sa 09:30", "name": "USPS COLLECTION BOX - BLUE BOX", "ref": "0274000065"}, "type": "Feature"}
{"geometry": {"coordinates": [-70.9407596, 41.632627], "type": "Point"}, "id": "6T71Hy2j2M_6QEjA_T119gE0wcc=", "properties": {"@spider": "usps_collection_boxes", "addr:city": "NEW BEDFORD", "addr:country": "US", "addr:full": "518 UNION ST", "addr:postcode": "02740", "addr:state": "MA", "brand": "USPS", "brand:wikidata": "Q668687", "collection_times": "Mo-Sa 09:30", "name": "USPS COLLECTION BOX - BLUE BOX", "ref": "0274000068"}, "type": "Feature"}
{"geometry": {"coordinates": [-70.9285642, 41.633971], "type": "Point"}, "id": "oCj9f-ZwX83S4GAozyYnr01Bfrg=", "properties": {"@spider": "usps_collection_boxes", "addr:city": "NEW BEDFORD", "addr:country": "US", "addr:full": "261 UNION ST", "addr:postcode": "02740", "addr:state": "MA", "brand": "USPS", "brand:wikidata": "Q668687", "collection_times": "Mo-Fr 17:00; Sa 09:30", "name": "USPS COLLECTION BOX - BLUE BOX", "note": "ON 12/24 AND 12/31, THIS BOX MAY BE COLLECTED AS EARLY AS 12 NOON.", "ref": "0274000069"}, "type": "Feature"}
{"geometry": {"coordinates": [-70.9273924, 41.634103], "type": "Point"}, "id": "52DAnvIgmi0k7sHWhMBzA3qOck4=", "properties": {"@spider": "usps_collection_boxes", "addr:city": "NEW BEDFORD", "addr:country": "US", "addr:full": "227 UNION ST", "addr:postcode": "02740", "addr:state": "MA", "brand": "USPS", "brand:wikidata": "Q668687", "collection_times": "Mo-Fr 17:00; Sa 09:30", "name": "USPS COLLECTION BOX - BLUE BOX", "note": "ON 12/24 AND 12/31, THIS BOX MAY BE COLLECTED AS EARLY AS 12 NOON.", "ref": "0274000071"}, "type": "Feature"}
{"geometry": {"coordinates": [-70.9623474, 41.645174], "type": "Point"}, "id": "z_rLzeQHAGyTDUJIpotIjQUGigE=", "properties": {"@spider": "usps_collection_boxes", "addr:city": "NEW BEDFORD", "addr:country": "US", "addr:full": "42 W HILL RD", "addr:postcode": "02740", "addr:state": "MA", "brand": "USPS", "brand:wikidata": "Q668687", "collection_times": "Mo-Sa 09:30", "name": "USPS COLLECTION BOX - BLUE BOX", "ref": "0274000072"}, "type": "Feature"}
{"geometry": {"coordinates": [-70.9489172, 41.626278], "type": "Point"}, "id": "3qtkq5ZiBrRgTdTIMvm0cO5ZH_k=", "properties": {"@spider": "usps_collection_boxes", "addr:city": "NEW BEDFORD", "addr:country": "US", "addr:full": "187 RYAN ST", "addr:postcode": "02740", "addr:state": "MA", "brand": "USPS", "brand:wikidata": "Q668687", "collection_times": "Mo-Sa 09:30", "name": "USPS COLLECTION BOX - BLUE BOX", "ref": "0274000073"}, "type": "Feature"}
{"geometry": {"coordinates": [-70.9273412, 41.635288], "type": "Point"}, "id": "-oiWal5TIhQJZ-8fGR775JfdvG4=", "properties": {"@spider": "usps_collection_boxes", "addr:city": "NEW BEDFORD", "addr:country": "US", "addr:full": "133 WILLIAM ST", "addr:postcode": "02740", "addr:state": "MA", "brand": "USPS", "brand:wikidata": "Q668687", "collection_times": "Mo-Fr 17:00; Sa 09:30", "name": "USPS COLLECTION BOX - BLUE BOX", "note": "ON 12/24 AND 12/31, THIS BOX MAY BE COLLECTED AS EARLY AS 12 NOON.", "ref": "0274000076"}, "type": "Feature"}
{"geometry": {"coordinates": [-70.9302217, 41.633794], "type": "Point"}, "id": "Y_YWy64VSRLLcfxgqlooZ0d67Lg=", "properties": {"@spider": "usps_collection_boxes", "addr:city": "NEW BEDFORD", "addr:country": "US", "addr:full": "300 UNION ST", "addr:postcode": "02740", "addr:state": "MA", "brand": "USPS", "brand:wikidata": "Q668687", "collection_times": "Mo-Fr 17:00; Sa 09:30", "name": "USPS COLLECTION BOX - BLUE BOX", "note": "ON 12/24 AND 12/31, THIS BOX MAY BE COLLECTED AS EARLY AS 12 NOON.", "ref": "0274000077"}, "type": "Feature"}
{"geometry": {"coordinates": [-70.9273149, 41.636644], "type": "Point"}, "id": "JC-trz23viRMoQgP26uz2FhtNsI=", "properties": {"@spider": "usps_collection_boxes", "addr:city": "NEW BEDFORD", "addr:country": "US", "addr:full": "695 PLEASANT ST", "addr:postcode": "02740", "addr:state": "MA", "brand": "USPS", "brand:wikidata": "Q668687", "collection_times": "Mo-Fr 17:45; Sa 16:30", "name": "USPS COLLECTION BOX - BLUE BOX", "note": "ON 12/24 AND 12/31, THIS BOX MAY BE COLLECTED AS EARLY AS 12 NOON.", "ref": "0274000079"}, "type": "Feature"}
{"geometry": {"coordinates": [-70.9272206, 41.636662], "type": "Point"}, "id": "ddpD6fbttacsKH3KIoPI3fDACGE=", "properties": {"@spider": "usps_collection_boxes", "addr:city": "NEW BEDFORD", "addr:country": "US", "addr:full": "695 PLEASANT ST", "addr:postcode": "02740", "addr:state": "MA", "brand": "USPS", "brand:wikidata": "Q668687", "collection_times": "Mo-Fr 17:45; Sa 16:30", "name": "USPS COLLECTION BOX - BLUE BOX", "note": "ON 12/24 AND 12/31, THIS BOX MAY BE COLLECTED AS EARLY AS 12 NOON.", "ref": "0274000080"}, "type": "Feature"}
{"geometry": {"coordinates": [-70.9271987, 41.636668], "type": "Point"}, "id": "m7F6HYhCfNmrFoklJGEU13IwA5o=", "properties": {"@spider": "usps_collection_boxes", "addr:city": "NEW BEDFORD", "addr:country": "US", "addr:full": "695 PLEASANT ST", "addr:postcode": "02740", "addr:state": "MA", "brand": "USPS", "brand:wikidata": "Q668687", "collection_times": "Mo-Fr 17:45; Sa 16:30", "name": "USPS COLLECTION BOX - BLUE BOX", "note": "ON 12/24 AND 12/31, THIS BOX MAY BE COLLECTED AS EARLY AS 12 NOON.", "ref": "0274000081"}, "type": "Feature"}
{"geometry": {"coordinates": [-70.9395088027, 41.6402611098], "type": "Point"}, "id": "0AIPF8EDi40cVRr8xz6VqeuRDAk=", "properties": {"@spider": "usps_collection_boxes", "addr:city": "NEW BEDFORD", "addr:country": "US", "addr:full": "381 PARK ST", "addr:postcode": "02740", "addr:state": "MA", "brand": "USPS", "brand:wikidata": "Q668687", "collection_times": "Mo-Sa 09:30", "name": "USPS COLLECTION BOX - BLUE BOX", "ref": "0274000082"}, "type": "Feature"}
{"geometry": {"coordinates": [-70.927218788, 41.636494321], "type": "Point"}, "id": "JdugJ1s7QkR0JeC3L2chX-l6_X8=", "properties": {"@spider": "usps_collection_boxes", "addr:city": "NEW BEDFORD", "addr:country": "US", "addr:full": "695 PLEASANT ST", "addr:postcode": "02740", "addr:state": "MA", "brand": "USPS", "brand:wikidata": "Q668687", "collection_times": "Mo-Fr 18:00; Sa 17:45", "name": "USPS COLLECTION BOX - PO LOBBY", "note": "ON 12/24 AND 12/31, THIS BOX MAY BE COLLECTED AS EARLY AS 12 NOON.", "ref": "0274000085"}, "type": "Feature"}
{"geometry": {"coordinates": [-70.9091623, 41.680974], "type": "Point"}, "id": "n5CAfgoa_VDW0YGJ61qZzxrAeXA=", "properties": {"@spider": "usps_collection_boxes", "addr:city": "NEW BEDFORD", "addr:country": "US", "addr:full": "178 S MAIN ST", "addr:postcode": "02743", "addr:state": "MA", "brand": "USPS", "brand:wikidata": "Q668687", "collection_times": "Mo-Fr 16:30; Sa 16:00", "name": "USPS COLLECTION BOX - BLUE BOX", "note": "ON 12/24 AND 12/31, THIS BOX MAY BE COLLECTED AS EARLY AS 12 NOON.", "ref": "0274300001"}, "type": "Feature"}
{"geometry": {"coordinates": [-70.90938, 41.680783], "type": "Point"}, "id": "al4o6jRrzRYTIWV9HK0qisV1fMY=", "properties": {"@spider": "usps_collection_boxes", "addr:city": "NEW BEDFORD", "addr:country": "US", "addr:full": "178 S MAIN ST", "addr:postcode": "02743", "addr:state": "MA", "brand": "USPS", "brand:wikidata": "Q668687", "collection_times": "Mo-Fr 16:30; Sa 11:30", "name": "USPS COLLECTION BOX - PO LOBBY", "note": "ON 12/24 AND 12/31, THIS BOX MAY BE COLLECTED AS EARLY AS 12 NOON.", "ref": "0274300003"}, "type": "Feature"}
{"geometry": {"coordinates": [-70.909377382, 41.680904322], "type": "Point"}, "id": "JyE7dlnSUCo3hjZgEIk84r5A0fw=", "properties": {"@spider": "usps_collection_boxes", "addr:city": "NEW BEDFORD", "addr:country": "US", "addr:full": "178 S MAIN ST", "addr:postcode": "02743", "addr:state": "MA", "brand": "USPS", "brand:wikidata": "Q668687", "collection_times": "Mo-Fr 17:00; Sa 12:00", "name": "USPS COLLECTION BOX - PO LOBBY", "note": "ON 12/24 AND 12/31, THIS BOX MAY BE COLLECTED AS EARLY AS 12 NOON.", "ref": "0274300005"}, "type": "Feature"}
{"geometry": {"coordinates": [-70.9296531, 41.616362], "type": "Point"}, "id": "eNFxvJ1bo6gFa_QLtQe1uq9KUW0=", "properties": {"@spider": "usps_collection_boxes", "addr:city": "NEW BEDFORD", "addr:country": "US", "addr:full": "584 ORCHARD ST", "addr:postcode": "02744", "addr:state": "MA", "brand": "USPS", "brand:wikidata": "Q668687", "collection_times": "Mo-Fr 17:00; Sa 12:00", "name": "USPS COLLECTION BOX - BLUE BOX", "note": "ON 12/24 AND 12/31, THIS BOX MAY BE COLLECTED AS EARLY AS 12 NOON.", "ref": "0274400001"}, "type": "Feature"}
{"geometry": {"coordinates": [-70.9095847, 41.603232], "type": "Point"}, "id": "ccm7lxMXJY3FFHUsP20Zsm11Bb8=", "properties": {"@spider": "usps_collection_boxes", "addr:city": "NEW BEDFORD", "addr:country": "US", "addr:full": "332 BROCK AVE", "addr:postcode": "02744", "addr:state": "MA", "brand": "USPS", "brand:wikidata": "Q668687", "collection_times": "Mo-Sa 09:30", "name": "USPS COLLECTION BOX - BLUE BOX", "ref": "0274400004"}, "type": "Feature"}
{"geometry": {"coordinates": [-70.9124515, 41.608754], "type": "Point"}, "id": "FAYnyGoDEmBTdhKhvkiX1mojcB4=", "properties": {"@spider": "usps_collection_boxes", "addr:city": "NEW BEDFORD", "addr:country": "US", "addr:full": "623 BROCK AVE", "addr:postcode": "02744", "addr:state": "MA", "brand": "USPS", "brand:wikidata": "Q668687", "collection_times": "Mo-Sa 09:30", "name": "USPS COLLECTION BOX - BLUE BOX", "ref": "0274400006"}, "type": "Feature"}
{"geometry": {"coordinates": [-70.9238055, 41.619791], "type": "Point"}, "id": "-UOV4sbLoo1BcKqPgm-fUNatVwI=", "properties": {"@spider": "usps_collection_boxes", "addr:city": "NEW BEDFORD", "addr:country": "US", "addr:full": "133 COUNTY ST", "addr:postcode": "02744", "addr:state": "MA", "brand": "USPS", "brand:wikidata": "Q668687", "collection_times": "Mo-Sa 09:30", "name": "USPS COLLECTION BOX - BLUE BOX", "ref": "0274400008"}, "type": "Feature"}
{"geometry": {"coordinates": [-70.919251237, 41.614413406], "type": "Point"}, "id": "FMHkxFBuDrnlCSoNLHi7NCh_qOo=", "properties": {"@spider": "usps_collection_boxes", "addr:city": "NEW BEDFORD", "addr:country": "US", "addr:full": "120 COVE RD", "addr:postcode": "02744", "addr:state": "MA", "brand": "USPS", "brand:wikidata": "Q668687", "collection_times": "Mo-Sa 09:30", "name": "USPS COLLECTION BOX - BLUE BOX", "ref": "0274400009"}, "type": "Feature"}
{"geometry": {"coordinates": [-70.9173478, 41.610986], "type": "Point"}, "id": "ulz9KMgH7opuUIIJwUI6R37loAg=", "properties": {"@spider": "usps_collection_boxes", "addr:city": "NEW BEDFORD", "addr:country": "US", "addr:full": "160 RODNEY FRENCH BLVD", "addr:postcode": "02744", "addr:state": "MA", "brand": "USPS", "brand:wikidata": "Q668687", "collection_times": "Mo-Sa 09:30", "name": "USPS COLLECTION BOX - BLUE BOX", "ref": "0274400011"}, "type": "Feature"}
{"geometry": {"coordinates": [-70.9112056302, 41.6150611693], "type": "Point"}, "id": "OqyNuvDMOxrN5pQN3aK5c5Lztng=", "properties": {"@spider": "usps_collection_boxes", "addr:city": "NEW BEDFORD", "addr:country": "US", "addr:full": "12 RUTH ST", "addr:postcode": "02744", "addr:state": "MA", "brand": "USPS", "brand:wikidata": "Q668687", "collection_times": "Mo-Sa 09:30", "name": "USPS COLLECTION BOX - BLUE BOX", "ref": "0274400012"}, "type": "Feature"}
{"geometry": {"coordinates": [-70.929667758, 41.616438046], "type": "Point"}, "id": "gHjL4l2T3-OQ96vhkty2Z0e_Hl4=", "properties": {"@spider": "usps_collection_boxes", "addr:city": "NEW BEDFORD", "addr:country": "US", "addr:full": "584 ORCHARD ST", "addr:postcode": "02744", "addr:state": "MA", "brand": "USPS", "brand:wikidata": "Q668687", "collection_times": "Mo-Fr 17:00; Sa 12:00", "name": "USPS COLLECTION BOX - PO LOBBY", "note": "ON 12/24 AND 12/31, THIS BOX MAY BE COLLECTED AS EARLY AS 12 NOON.", "ref": "0274400014"}, "type": "Feature"}
{"geometry": {"coordinates": [-70.9440531, 41.670827], "type": "Point"}, "id": "JoFXpwgKgvNNcLJBYTw0X5wB020=", "properties": {"@spider": "usps_collection_boxes", "addr:city": "NEW BEDFORD", "addr:country": "US", "addr:full": "748 MOUNT PLEASANT ST", "addr:postcode": "02745", "addr:state": "MA", "brand": "USPS", "brand:wikidata": "Q668687", "collection_times": "Mo-Fr 17:00; Sa 13:00", "name": "USPS COLLECTION BOX - BLUE BOX", "note": "ON 12/24 AND 12/31, THIS BOX MAY BE COLLECTED AS EARLY AS 12 NOON.", "ref": "0274500001"}, "type": "Feature"}
{"geometry": {"coordinates": [-70.9440409, 41.670811], "type": "Point"}, "id": "jpM06S6fRYLALJVNhenlp-vAF3I=", "properties": {"@spider": "usps_collection_boxes", "addr:city": "NEW BEDFORD", "addr:country": "US", "addr:full": "748 MOUNT PLEASANT ST", "addr:postcode": "02745", "addr:state": "MA", "brand": "USPS", "brand:wikidata": "Q668687", "collection_times": "Mo-Fr 17:00; Sa 13:00", "name": "USPS COLLECTION BOX - BLUE BOX", "note": "ON 12/24 AND 12/31, THIS BOX MAY BE COLLECTED AS EARLY AS 12 NOON.", "ref": "0274500002"}, "type": "Feature"}
{"geometry": {"coordinates": [-70.9264588, 41.670848], "type": "Point"}, "id": "25q0kvPp6LpvCv36khcjNzqDfqU=", "properties": {"@spider": "usps_collection_boxes", "addr:city": "NEW BEDFORD", "addr:country": "US", "addr:full": "1833 ACUSHNET AVE", "addr:postcode": "02745", "addr:state": "MA", "brand": "USPS", "brand:wikidata": "Q668687", "collection_times": "Mo-Sa 09:00", "name": "USPS COLLECTION BOX - BLUE BOX", "ref": "0274500006"}, "type": "Feature"}
{"geometry": {"coordinates": [-70.9239638, 41.673367], "type": "Point"}, "id": "R3uSjpjKPZg7exMlMZAOQ6Fxs08=", "properties": {"@spider": "usps_collection_boxes", "addr:city": "NEW BEDFORD", "addr:country": "US", "addr:full": "1918 ACUSHNET AVE", "addr:postcode": "02745", "addr:state": "MA", "brand": "USPS", "brand:wikidata": "Q668687", "collection_times": "Mo-Sa 09:00", "name": "USPS COLLECTION BOX - BLUE BOX", "ref": "0274500007"}, "type": "Feature"}
{"geometry": {"coordinates": [-70.9438294, 41.733268], "type": "Point"}, "id": "vdkiRpeSxSieP3HTBMsC6Eknhes=", "properties": {"@spider": "usps_collection_boxes", "addr:city": "NEW BEDFORD", "addr:country": "US", "addr:full": "4241 ACUSHNET AVE", "addr:postcode": "02745", "addr:state": "MA", "brand": "USPS", "brand:wikidata": "Q668687", "collection_times": "Mo-Fr 16:30; Sa 13:00", "name": "USPS COLLECTION BOX - BLUE BOX", "note": "ON 12/24 AND 12/31, THIS BOX MAY BE COLLECTED AS EARLY AS 12 NOON.", "ref": "0274500008"}, "type": "Feature"}
{"geometry": {"coordinates": [-70.9336959, 41.696102], "type": "Point"}, "id": "ONZKQ1uViNK_hX95LaYqARtgjzU=", "properties": {"@spider": "usps_collection_boxes", "addr:city": "NEW BEDFORD", "addr:country": "US", "addr:full": "2803 ACUSHNET AVE", "addr:postcode": "02745", "addr:state": "MA", "brand": "USPS", "brand:wikidata": "Q668687", "collection_times": "Mo-Sa 09:00", "name": "USPS COLLECTION BOX - BLUE BOX", "ref": "0274500009"}, "type": "Feature"}
{"geometry": {"coordinates": [-70.9226711, 41.680148], "type": "Point"}, "id": "cqkPyakjA088sVv0sxK4zUmfOxc=", "properties": {"@spider": "usps_collection_boxes", "addr:city": "NEW BEDFORD", "addr:country": "US", "addr:full": "2125 ACUSHNET AVE", "addr:postcode": "02745", "addr:state": "MA", "brand": "USPS", "brand:wikidata": "Q668687", "collection_times": "Mo-Sa 09:00", "name": "USPS COLLECTION BOX - BLUE BOX", "ref": "0274500012"}, "type": "Feature"}
{"geometry": {"coordinates": [-70.9358956, 41.699618], "type": "Point"}, "id": "eQeLY3JzMiYgKBB3P7ir_xiE0Vk=", "properties": {"@spider": "usps_collection_boxes", "addr:city": "NEW BEDFORD", "addr:country": "US", "addr:full": "2941 ACUSHNET AVE", "addr:postcode": "02745", "addr:state": "MA", "brand": "USPS", "brand:wikidata": "Q668687", "collection_times": "Mo-Sa 09:00", "name": "USPS COLLECTION BOX - BLUE BOX", "ref": "0274500013"}, "type": "Feature"}
{"geometry": {"coordinates": [-70.9452609, 41.740699], "type": "Point"}, "id": "E4Il3RgGAFhXzSjtrVJAleGiUvs=", "properties": {"@spider": "usps_collection_boxes", "addr:city": "NEW BEDFORD", "addr:country": "US", "addr:full": "4499 ACUSHNET AVE", "addr:postcode": "02745", "addr:state": "MA", "brand": "USPS", "brand:wikidata": "Q668687", "collection_times": "Mo-Fr 16:30; Sa 13:00", "name": "USPS COLLECTION BOX - BLUE BOX", "note": "ON 12/24 AND 12/31, THIS BOX MAY BE COLLECTED AS EARLY AS 12 NOON.", "ref": "0274500014"}, "type": "Feature"}
{"geometry": {"coordinates": [-70.9332299, 41.677364], "type": "Point"}, "id": "gg37vGHRfhJvgoGOdfhnH8vsQdg=", "properties": {"@spider": "usps_collection_boxes", "addr:city": "NEW BEDFORD", "addr:country": "US", "addr:full": "669 ASHLEY BLVD", "addr:postcode": "02745", "addr:state": "MA", "brand": "USPS", "brand:wikidata": "Q668687", "collection_times": "Mo-Sa 09:00", "name": "USPS COLLECTION BOX - BLUE BOX", "ref": "0274500015"}, "type": "Feature"}
{"geometry": {"coordinates": [-70.9206354, 41.669229], "type": "Point"}, "id": "2YoKCYVHZf_IbmjwVFUqQAoZ-tQ=", "properties": {"@spider": "usps_collection_boxes", "addr:city": "NEW BEDFORD", "addr:country": "US", "addr:full": "615 BELLEVILLE AVE", "addr:postcode": "02745", "addr:state": "MA", "brand": "USPS", "brand:wikidata": "Q668687", "collection_times": "Mo-Sa 09:00", "name": "USPS COLLECTION BOX - BLUE BOX", "ref": "0274500018"}, "type": "Feature"}
{"geometry": {"coordinates": [-70.9264884, 41.684488], "type": "Point"}, "id": "g2EFQHnAOVoQL2-rxsJ6JpNqH00=", "properties": {"@spider": "usps_collection_boxes", "addr:city": "NEW BEDFORD", "addr:country": "US", "addr:full": "63 CASWELL ST", "addr:postcode": "02745", "addr:state": "MA", "brand": "USPS", "brand:wikidata": "Q668687", "collection_times": "Mo-Sa 09:00", "name": "USPS COLLECTION BOX - BLUE BOX", "ref": "0274500019"}, "type": "Feature"}
{"geometry": {"coordinates": [-70.9378686, 41.680851], "type": "Point"}, "id": "HqhX2WV8Dhoo9_tHG8BEAJ78kHM=", "properties": {"@spider": "usps_collection_boxes", "addr:city": "NEW BEDFORD", "addr:country": "US", "addr:full": "540 TARKILN HILL RD", "addr:postcode": "02745", "addr:state": "MA", "brand": "USPS", "brand:wikidata": "Q668687", "collection_times": "Mo-Sa 09:00", "name": "USPS COLLECTION BOX - BLUE BOX", "ref": "0274500022"}, "type": "Feature"}
{"geometry": {"coordinates": [-70.9458199, 41.705333], "type": "Point"}, "id": "RHKZBEPbzniOkkosAk3QF3UexTE=", "properties": {"@spider": "usps_collection_boxes", "addr:city": "NEW BEDFORD", "addr:country": "US", "addr:full": "4 WELBY RD", "addr:postcode": "02745", "addr:state": "MA", "brand": "USPS", "brand:wikidata": "Q668687", "collection_times": "Mo-Fr 16:15", "name": "USPS COLLECTION BOX - BLUE BOX", "note": "ON 12/24 AND 12/31, THIS BOX MAY BE COLLECTED AS EARLY AS 12 NOON.", "ref": "0274500026"}, "type": "Feature"}
{"geometry": {"coordinates": [-70.9304064, 41.68228], "type": "Point"}, "id": "LBR2QBdSb2FSFaWdb04Ibu65Ts4=", "properties": {"@spider": "usps_collection_boxes", "addr:city": "NEW BEDFORD", "addr:country": "US", "addr:full": "313 TARKILN HILL RD", "addr:postcode": "02745", "addr:state": "MA", "brand": "USPS", "brand:wikidata": "Q668687", "collection_times": "Mo-Sa 09:00", "name": "USPS COLLECTION BOX - BLUE BOX", "ref": "0274500028"}, "type": "Feature"}
{"geometry": {"coordinates": [-70.9533115, 41.726284], "type": "Point"}, "id": "yWOy9wfZbQlbCocOVCM9Jj6ZdZ8=", "properties": {"@spider": "usps_collection_boxes", "addr:city": "NEW BEDFORD", "addr:country": "US", "addr:full": "200 THEODORE RICE BLVD", "addr:postcode": "02745", "addr:state": "MA", "brand": "USPS", "brand:wikidata": "Q668687", "collection_times": "Mo-Fr 17:00; Sa 13:00", "name": "USPS COLLECTION BOX - BLUE BOX", "note": "ON 12/24 AND 12/31, THIS BOX MAY BE COLLECTED AS EARLY AS 12 NOON.", "ref": "0274500030"}, "type": "Feature"}
{"geometry": {"coordinates": [-70.9533249, 41.726285], "type": "Point"}, "id": "KPqE3tQ5d7o4UZd90k3aEFMcvcU=", "properties": {"@spider": "usps_collection_boxes", "addr:city": "NEW BEDFORD", "addr:country": "US", "addr:full": "200 THEODORE RICE BLVD", "addr:postcode": "02745", "addr:state": "MA", "brand": "USPS", "brand:wikidata": "Q668687", "collection_times": "Mo-Fr 17:00; Sa 13:00", "name": "USPS COLLECTION BOX - BLUE BOX", "note": "ON 12/24 AND 12/31, THIS BOX MAY BE COLLECTED AS EARLY AS 12 NOON.", "ref": "0274500031"}, "type": "Feature"}
{"geometry": {"coordinates": [-70.9284083, 41.678546], "type": "Point"}, "id": "UDF2nSHMMMZhONDOZeHWM-puJ78=", "properties": {"@spider": "usps_collection_boxes", "addr:city": "NEW BEDFORD", "addr:country": "US", "addr:full": "335 WOOD ST", "addr:postcode": "02745", "addr:state": "MA", "brand": "USPS", "brand:wikidata": "Q668687", "collection_times": "Mo-Sa 09:00", "name": "USPS COLLECTION BOX - BLUE BOX", "ref": "0274500033"}, "type": "Feature"}
{"geometry": {"coordinates": [-70.943251825, 41.670691567], "type": "Point"}, "id": "1JYlAGdA3OVbgGV7J1VNteRltQE=", "properties": {"@spider": "usps_collection_boxes", "addr:city": "NEW BEDFORD", "addr:country": "US", "addr:full": "748 MOUNT PLEASANT ST", "addr:postcode": "02745", "addr:state": "MA", "brand": "USPS", "brand:wikidata": "Q668687", "collection_times": "Mo-Fr 17:00; Sa 13:00", "name": "USPS COLLECTION BOX - BLUE BOX", "note": "ON 12/24 AND 12/31, THIS BOX MAY BE COLLECTED AS EARLY AS 12 NOON.", "ref": "0274500035"}, "type": "Feature"}
{"geometry": {"coordinates": [-70.944126937, 41.670610103], "type": "Point"}, "id": "prGNdL5QPXbW343niAUpiRrqWiM=", "properties": {"@spider": "usps_collection_boxes", "addr:city": "NEW BEDFORD", "addr:country": "US", "addr:full": "748 MOUNT PLEASANT ST", "addr:postcode": "02745", "addr:state": "MA", "brand": "USPS", "brand:wikidata": "Q668687", "collection_times": "Mo-Fr 17:00; Sa 12:30", "name": "USPS COLLECTION BOX - PO LOBBY", "note": "ON 12/24 AND 12/31, THIS BOX MAY BE COLLECTED AS EARLY AS 12 NOON.", "ref": "0274500040"}, "type": "Feature"}
{"geometry": {"coordinates": [-70.9288279, 41.661898], "type": "Point"}, "id": "dsW4GK8yrqEKcHz_auHW6bFpNBA=", "properties": {"@spider": "usps_collection_boxes", "addr:city": "NEW BEDFORD", "addr:country": "US", "addr:full": "282 COFFIN AVE", "addr:postcode": "02746", "addr:state": "MA", "brand": "USPS", "brand:wikidata": "Q668687", "collection_times": "Mo-Fr 17:00; Sa 12:15", "name": "USPS COLLECTION BOX - BLUE BOX", "note": "ON 12/24 AND 12/31, THIS BOX MAY BE COLLECTED AS EARLY AS 12 NOON.", "ref": "0274600002"}, "type": "Feature"}
{"geometry": {"coordinates": [-70.9289015, 41.665212], "type": "Point"}, "id": "bz9cr1C-W4WTS5JwhS3wX2nnOxY=", "properties": {"@spider": "usps_collection_boxes", "addr:city": "NEW BEDFORD", "addr:country": "US", "addr:full": "1645 ACUSHNET AVE", "addr:postcode": "02746", "addr:state": "MA", "brand": "USPS", "brand:wikidata": "Q668687", "collection_times": "Mo-Sa 09:00", "name": "USPS COLLECTION BOX - BLUE BOX", "ref": "0274600006"}, "type": "Feature"}
{"geometry": {"coordinates": [-70.9231333, 41.664437], "type": "Point"}, "id": "8ZJBw6HuqcK90ZZ8nD7uufpYoFQ=", "properties": {"@spider": "usps_collection_boxes", "addr:city": "NEW BEDFORD", "addr:country": "US", "addr:full": "483 BELLEVILLE AVE", "addr:postcode": "02746", "addr:state": "MA", "brand": "USPS", "brand:wikidata": "Q668687", "collection_times": "Mo-Sa 09:00", "name": "USPS COLLECTION BOX - BLUE BOX", "ref": "0274600009"}, "type": "Feature"}
{"geometry": {"coordinates": [-70.9423621781, 41.6621248997], "type": "Point"}, "id": "wgjxfAvQwMebKexVrI6EQhMe8eg=", "properties": {"@spider": "usps_collection_boxes", "addr:city": "NEW BEDFORD", "addr:country": "US", "addr:full": "446 MOUNT PLEASANT ST", "addr:postcode": "02746", "addr:state": "MA", "brand": "USPS", "brand:wikidata": "Q668687", "collection_times": "Mo-Sa 09:00", "name": "USPS COLLECTION BOX - BLUE BOX", "ref": "0274600014"}, "type": "Feature"}
{"geometry": {"coordinates": [-70.9393373, 41.656174], "type": "Point"}, "id": "AIAcm7txGI14s1lPFDPVi_HuDag=", "properties": {"@spider": "usps_collection_boxes", "addr:city": "NEW BEDFORD", "addr:country": "US", "addr:full": "255 MOUNT PLEASANT ST", "addr:postcode": "02746", "addr:state": "MA", "brand": "USPS", "brand:wikidata": "Q668687", "collection_times": "Mo-Sa 09:00", "name": "USPS COLLECTION BOX - BLUE BOX", "ref": "0274600015"}, "type": "Feature"}
{"geometry": {"coordinates": [-70.9217357, 41.657839], "type": "Point"}, "id": "FQXxSs8RJx4icDFecZyHaLhKpVw=", "properties": {"@spider": "usps_collection_boxes", "addr:city": "NEW BEDFORD", "addr:country": "US", "addr:full": "124 SAWYER ST", "addr:postcode": "02746", "addr:state": "MA", "brand": "USPS", "brand:wikidata": "Q668687", "collection_times": "Mo-Sa 09:00", "name": "USPS COLLECTION BOX - BLUE BOX", "ref": "0274600021"}, "type": "Feature"}
{"geometry": {"coordinates": [-70.928808439, 41.661944572], "type": "Point"}, "id": "06uaUdHlj90EkzrwAnWf4bImSUg=", "properties": {"@spider": "usps_collection_boxes", "addr:city": "NEW BEDFORD", "addr:country": "US", "addr:full": "282 COFFIN AVE", "addr:postcode": "02746", "addr:state": "MA", "brand": "USPS", "brand:wikidata": "Q668687", "collection_times": "Mo-Fr 17:00; Sa 12:30", "name": "USPS COLLECTION BOX - PO LOBBY", "note": "ON 12/24 AND 12/31, THIS BOX MAY BE COLLECTED AS EARLY AS 12 NOON.", "ref": "0274600026"}, "type": "Feature"}
{"geometry": {"coordinates": [-70.988535, 41.648061], "type": "Point"}, "id": "d8AIn0bFnEgbSrUw8kmAt29ZgQM=", "properties": {"@spider": "usps_collection_boxes", "addr:city": "NORTH DARTMOUTH", "addr:country": "US", "addr:full": "77 FAUNCE CORNER MALL RD", "addr:postcode": "02747", "addr:state": "MA", "brand": "USPS", "brand:wikidata": "Q668687", "collection_times": "Mo-Fr 17:00; Sa 16:00", "name": "USPS COLLECTION BOX - BLUE BOX", "note": "ON 12/24 AND 12/31, THIS BOX MAY BE COLLECTED AS EARLY AS 12 NOON.", "ref": "0274700002"}, "type": "Feature"}
{"geometry": {"coordinates": [-70.9893214, 41.647935], "type": "Point"}, "id": "jcKUH0dWCtmzxXRoJX54gM8oT3g=", "properties": {"@spider": "usps_collection_boxes", "addr:city": "NORTH DARTMOUTH", "addr:country": "US", "addr:full": "76 FAUNCE CORNER RD", "addr:postcode": "02747", "addr:state": "MA", "brand": "USPS", "brand:wikidata": "Q668687", "collection_times": "Mo-Fr 16:30", "name": "USPS COLLECTION BOX - BLUE BOX", "note": "ON 12/24 AND 12/31, THIS BOX MAY BE COLLECTED AS EARLY AS 12 NOON.", "ref": "0274700005"}, "type": "Feature"}
{"geometry": {"coordinates": [-70.9865827, 41.64267], "type": "Point"}, "id": "Zpl0F4EoNb6Ib6v4JPYRB1wcSZM=", "properties": {"@spider": "usps_collection_boxes", "addr:city": "NORTH DARTMOUTH", "addr:country": "US", "addr:full": "25 FAUNCE CORNER MALL RD", "addr:postcode": "02747", "addr:state": "MA", "brand": "USPS", "brand:wikidata": "Q668687", "collection_times": "Mo-Fr 16:30", "name": "USPS COLLECTION BOX - BLUE BOX", "note": "ON 12/24 AND 12/31, THIS BOX MAY BE COLLECTED AS EARLY AS 12 NOON.", "ref": "0274700007"}, "type": "Feature"}
{"geometry": {"coordinates": [-70.9659769, 41.628856], "type": "Point"}, "id": "zb5Z15MKpiR_Vc7sKZom_8tDodg=", "properties": {"@spider": "usps_collection_boxes", "addr:city": "NORTH DARTMOUTH", "addr:country": "US", "addr:full": "400 SLOCUM RD", "addr:postcode": "02747", "addr:state": "MA", "brand": "USPS", "brand:wikidata": "Q668687", "collection_times": "Mo-Fr 16:30; Sa 08:30", "name": "USPS COLLECTION BOX - BLUE BOX", "note": "ON 12/24 AND 12/31, THIS BOX MAY BE COLLECTED AS EARLY AS 12 NOON.", "ref": "0274700012"}, "type": "Feature"}
{"geometry": {"coordinates": [-70.9901437, 41.640907], "type": "Point"}, "id": "9oQl608J3QaGFVNyRfVbmy2g2JM=", "properties": {"@spider": "usps_collection_boxes", "addr:city": "NORTH DARTMOUTH", "addr:country": "US", "addr:full": "200 N DARTMOUTH MALL", "addr:postcode": "02747", "addr:state": "MA", "brand": "USPS", "brand:wikidata": "Q668687", "collection_times": "Mo-Fr 16:30; Sa 08:30", "name": "USPS COLLECTION BOX - BLUE BOX", "note": "ON 12/24 AND 12/31, THIS BOX MAY BE COLLECTED AS EARLY AS 12 NOON.", "ref": "0274700013"}, "type": "Feature"}
{"geometry": {"coordinates": [-70.960906, 41.636398], "type": "Point"}, "id": "mM1S6e88pnTrllt4YefHlOiSArU=", "properties": {"@spider": "usps_collection_boxes", "addr:city": "NORTH DARTMOUTH", "addr:country": "US", "addr:full": "5 STATE RD", "addr:postcode": "02747", "addr:state": "MA", "brand": "USPS", "brand:wikidata": "Q668687", "collection_times": "Mo-Fr 16:30; Sa 08:30", "name": "USPS COLLECTION BOX - BLUE BOX", "note": "ON 12/24 AND 12/31, THIS BOX MAY BE COLLECTED AS EARLY AS 12 NOON.", "ref": "0274700015"}, "type": "Feature"}
{"geometry": {"coordinates": [-70.9690043, 41.638152], "type": "Point"}, "id": "xedRefT9AxVb8EzUU7nGh5FnKcI=", "properties": {"@spider": "usps_collection_boxes", "addr:city": "NORTH DARTMOUTH", "addr:country": "US", "addr:full": "102 STATE RD", "addr:postcode": "02747", "addr:state": "MA", "brand": "USPS", "brand:wikidata": "Q668687", "collection_times": "Mo-Fr 16:30; Sa 08:30", "name": "USPS COLLECTION BOX - BLUE BOX", "note": "ON 12/24 AND 12/31, THIS BOX MAY BE COLLECTED AS EARLY AS 12 NOON.", "ref": "0274700017"}, "type": "Feature"}
{"geometry": {"coordinates": [-70.9971792, 41.641977], "type": "Point"}, "id": "AxWW3Sw3y06HIZ12BYFQfaGPsq8=", "properties": {"@spider": "usps_collection_boxes", "addr:city": "NORTH DARTMOUTH", "addr:country": "US", "addr:full": "400 STATE RD", "addr:postcode": "02747", "addr:state": "MA", "brand": "USPS", "brand:wikidata": "Q668687", "collection_times": "Mo-Sa 08:30", "name": "USPS COLLECTION BOX - BLUE BOX", "ref": "0274700018"}, "type": "Feature"}
{"geometry": {"coordinates": [-71.0186959, 41.640155], "type": "Point"}, "id": "6K1CysQAf074sqFki8EdCsRRpKI=", "properties": {"@spider": "usps_collection_boxes", "addr:city": "NORTH DARTMOUTH", "addr:country": "US", "addr:full": "634 STATE RD", "addr:postcode": "02747", "addr:state": "MA", "brand": "USPS", "brand:wikidata": "Q668687", "collection_times": "Mo-Sa 09:00", "name": "USPS COLLECTION BOX - BLUE BOX", "ref": "0274700019"}, "type": "Feature"}
{"geometry": {"coordinates": [-70.988571, 41.648062], "type": "Point"}, "id": "41IBOlFBxJnJ-1Q4QnjHnpHbcOg=", "properties": {"@spider": "usps_collection_boxes", "addr:city": "NORTH DARTMOUTH", "addr:country": "US", "addr:full": "77 FAUNCE CORNER MALL RD", "addr:postcode": "02747", "addr:state": "MA", "brand": "USPS", "brand:wikidata": "Q668687", "collection_times": "Mo-Fr 17:00; Sa 16:00", "name": "USPS COLLECTION BOX - PO LOBBY", "note": "ON 12/24 AND 12/31, THIS BOX MAY BE COLLECTED AS EARLY AS 12 NOON.", "ref": "0274700022"}, "type": "Feature"}
{"geometry": {"coordinates": [-70.988571, 41.648062], "type": "Point"}, "id": "Y2bi5GgiCOBSyM_JVT4Xfg6teuU=", "properties": {"@spider": "usps_collection_boxes", "addr:city": "NORTH DARTMOUTH", "addr:country": "US", "addr:full": "77 FAUNCE CORNER MALL RD", "addr:postcode": "02747", "addr:state": "MA", "brand": "USPS", "brand:wikidata": "Q668687", "collection_times": "Mo-Fr 17:00; Sa 16:00", "name": "USPS COLLECTION BOX - PO LOBBY", "note": "ON 12/24 AND 12/31, THIS BOX MAY BE COLLECTED AS EARLY AS 12 NOON.", "ref": "0274700023"}, "type": "Feature"}
{"geometry": {"coordinates": [-70.988452225, 41.648013904], "type": "Point"}, "id": "in81TxuCyQKqZl63H6iXx1n78Jw=", "properties": {"@spider": "usps_collection_boxes", "addr:city": "NORTH DARTMOUTH", "addr:country": "US", "addr:full": "77 FAUNCE CORNER MALL RD", "addr:postcode": "02747", "addr:state": "MA", "brand": "USPS", "brand:wikidata": "Q668687", "collection_times": "Mo-Fr 18:00; Sa 17:00", "name": "USPS COLLECTION BOX - PO LOBBY", "note": "ON 12/24 AND 12/31, THIS BOX MAY BE COLLECTED AS EARLY AS 12 NOON.", "ref": "0274700030"}, "type": "Feature"}
{"geometry": {"coordinates": [-70.940784, 41.604007], "type": "Point"}, "id": "1aygqVuama4AIx6YXLRh8juORJ0=", "properties": {"@spider": "usps_collection_boxes", "addr:city": "SOUTH DARTMOUTH", "addr:country": "US", "addr:full": "668 DARTMOUTH ST", "addr:postcode": "02748", "addr:state": "MA", "brand": "USPS", "brand:wikidata": "Q668687", "collection_times": "Mo-Fr 17:00; Sa 16:15", "name": "USPS COLLECTION BOX - BLUE BOX", "note": "ON 12/24 AND 12/31, THIS BOX MAY BE COLLECTED AS EARLY AS 12 NOON.", "ref": "0274800002"}, "type": "Feature"}
{"geometry": {"coordinates": [-70.9479164, 41.592364], "type": "Point"}, "id": "W3diJC1azgklzid00cvXcN4KRFw=", "properties": {"@spider": "usps_collection_boxes", "addr:city": "SOUTH DARTMOUTH", "addr:country": "US", "addr:full": "8 BUSH ST", "addr:postcode": "02748", "addr:state": "MA", "brand": "USPS", "brand:wikidata": "Q668687", "collection_times": "Mo-Sa 14:45", "name": "USPS COLLECTION BOX - BLUE BOX", "note": "ON 12/24 AND 12/31, THIS BOX MAY BE COLLECTED AS EARLY AS 12 NOON.", "ref": "0274800006"}, "type": "Feature"}
{"geometry": {"coordinates": [-70.9452221, 41.588056], "type": "Point"}, "id": "C-GBqHcwl-Xvj7fu3sdsmpEl1pA=", "properties": {"@spider": "usps_collection_boxes", "addr:city": "SOUTH DARTMOUTH", "addr:country": "US", "addr:full": "354 ELM ST", "addr:postcode": "02748", "addr:state": "MA", "brand": "USPS", "brand:wikidata": "Q668687", "collection_times": "Mo-Fr 14:45; Sa 15:45", "name": "USPS COLLECTION BOX - BLUE BOX", "note": "ON 12/24 AND 12/31, THIS BOX MAY BE COLLECTED AS EARLY AS 12 NOON.", "ref": "0274800007"}, "type": "Feature"}
{"geometry": {"coordinates": [-70.9596414, 41.602846], "type": "Point"}, "id": "hu6rjWO2ctoi34FW9OpWx3SZOKk=", "properties": {"@spider": "usps_collection_boxes", "addr:city": "SOUTH DARTMOUTH", "addr:country": "US", "addr:full": "247 RUSSELLS MILLS RD", "addr:postcode": "02748", "addr:state": "MA", "brand": "USPS", "brand:wikidata": "Q668687", "collection_times": "Mo-Sa 11:00", "name": "USPS COLLECTION BOX - BLUE BOX", "ref": "0274800008"}, "type": "Feature"}
{"geometry": {"coordinates": [-71.0055329, 41.571895], "type": "Point"}, "id": "8ry-iSe7T9X1hvO2PEiyaVhTqNk=", "properties": {"@spider": "usps_collection_boxes", "addr:city": "SOUTH DARTMOUTH", "addr:country": "US", "addr:full": "1228 RUSSELLS MILLS RD", "addr:postcode": "02748", "addr:state": "MA", "brand": "USPS", "brand:wikidata": "Q668687", "collection_times": "Mo-Sa 11:00", "name": "USPS COLLECTION BOX - BLUE BOX", "ref": "0274800010"}, "type": "Feature"}
{"geometry": {"coordinates": [-70.935404, 41.599565], "type": "Point"}, "id": "v52C0Mi58KzPuhl0FuQG3nv22RA=", "properties": {"@spider": "usps_collection_boxes", "addr:city": "SOUTH DARTMOUTH", "addr:country": "US", "addr:full": "25 SEA BREEZE DR", "addr:postcode": "02748", "addr:state": "MA", "brand": "USPS", "brand:wikidata": "Q668687", "collection_times": "Mo-Sa 10:30", "name": "USPS COLLECTION BOX - BLUE BOX", "ref": "0274800011"}, "type": "Feature"}
{"geometry": {"coordinates": [-70.941005073, 41.604030315], "type": "Point"}, "id": "ZiPRaAwSb0ZxFu4V87MZ00ZQj_U=", "properties": {"@spider": "usps_collection_boxes", "addr:city": "SOUTH DARTMOUTH", "addr:country": "US", "addr:full": "668 DARTMOUTH ST", "addr:postcode": "02748", "addr:state": "MA", "brand": "USPS", "brand:wikidata": "Q668687", "collection_times": "Mo-Fr 17:30; Sa 16:45", "name": "USPS COLLECTION BOX - PO LOBBY", "note": "ON 12/24 AND 12/31, THIS BOX MAY BE COLLECTED AS EARLY AS 12 NOON.", "ref": "0274800014"}, "type": "Feature"}
{"geometry": {"coordinates": [-71.3327598046, 41.9811794532], "type": "Point"}, "id": "-OgF3yPsfxb5ws6tnjgSAJdH1OQ=", "properties": {"@spider": "usps_collection_boxes", "addr:city": "NORTH ATTLEBORO", "addr:country": "US", "addr:full": "30 S WASHINGTON ST", "addr:postcode": "02760", "addr:state": "MA", "brand": "USPS", "brand:wikidata": "Q668687", "collection_times": "Mo-Fr 17:00; Sa 14:00", "name": "USPS COLLECTION BOX - BLUE BOX", "note": "ON 12/24 AND 12/31, THIS BOX MAY BE COLLECTED AS EARLY AS 12 NOON.", "ref": "0276000002"}, "type": "Feature"}
{"geometry": {"coordinates": [-71.344215, 41.977513], "type": "Point"}, "id": "U4iIHL9J0KerFyqL6XBwstJIJhA=", "properties": {"@spider": "usps_collection_boxes", "addr:city": "NORTH ATTLEBORO", "addr:country": "US", "addr:full": "116 CRESCENT AVE", "addr:postcode": "02760", "addr:state": "MA", "brand": "USPS", "brand:wikidata": "Q668687", "collection_times": "Mo-Sa 10:00", "name": "USPS COLLECTION BOX - BLUE BOX", "ref": "0276000006"}, "type": "Feature"}
{"geometry": {"coordinates": [-71.3057526254, 42.0090775481], "type": "Point"}, "id": "NNiprAoadRY9V2KGhERGqIlzi0k=", "properties": {"@spider": "usps_collection_boxes", "addr:city": "NORTH ATTLEBORO", "addr:country": "US", "addr:full": "2 MAN MAR DR", "addr:postcode": "02760", "addr:state": "MA", "brand": "USPS", "brand:wikidata": "Q668687", "collection_times": "Mo-Sa 10:00", "name": "USPS COLLECTION BOX - BLUE BOX", "ref": "0276000007"}, "type": "Feature"}
{"geometry": {"coordinates": [-71.3328347, 41.988896], "type": "Point"}, "id": "14D1pMXdYJLuPxpPg74Z8L8lSVs=", "properties": {"@spider": "usps_collection_boxes", "addr:city": "NORTH ATTLEBORO", "addr:country": "US", "addr:full": "125 BROAD ST", "addr:postcode": "02760", "addr:state": "MA", "brand": "USPS", "brand:wikidata": "Q668687", "collection_times": "Mo-Sa 10:00", "name": "USPS COLLECTION BOX - BLUE BOX", "ref": "0276000009"}, "type": "Feature"}
{"geometry": {"coordinates": [-71.3385945, 41.978475], "type": "Point"}, "id": "DQ_gILF_kFFQ3vCpfe9yBIWwseA=", "properties": {"@spider": "usps_collection_boxes", "addr:city": "NORTH ATTLEBORO", "addr:country": "US", "addr:full": "174 BROADWAY", "addr:postcode": "02760", "addr:state": "MA", "brand": "USPS", "brand:wikidata": "Q668687", "collection_times": "Mo-Sa 10:00", "name": "USPS COLLECTION BOX - BLUE BOX", "ref": "0276000011"}, "type": "Feature"}
{"geometry": {"coordinates": [-71.3298803, 41.982012], "type": "Point"}, "id": "ZdT6yC7MJCk4OoPg6Yus96pLQYE=", "properties": {"@spider": "usps_collection_boxes", "addr:city": "NORTH ATTLEBORO", "addr:country": "US", "addr:full": "500 E WASHINGTON ST", "addr:postcode": "02760", "addr:state": "MA", "brand": "USPS", "brand:wikidata": "Q668687", "collection_times": "Mo-Sa 10:00", "name": "USPS COLLECTION BOX - BLUE BOX", "ref": "0276000013"}, "type": "Feature"}
{"geometry": {"coordinates": [-71.3310123, 41.983052], "type": "Point"}, "id": "GR2aW4riUK3K2QLzTtUndK2-lQM=", "properties": {"@spider": "usps_collection_boxes", "addr:city": "NORTH ATTLEBORO", "addr:country": "US", "addr:full": "25 ORNE ST", "addr:postcode": "02760", "addr:state": "MA", "brand": "USPS", "brand:wikidata": "Q668687", "collection_times": "Mo-Sa 09:30", "name": "USPS COLLECTION BOX - BLUE BOX", "ref": "0276000015"}, "type": "Feature"}
{"geometry": {"coordinates": [-71.326678, 41.97908], "type": "Point"}, "id": "ERl5WumLybX20hk7y6kbVwwUcvo=", "properties": {"@spider": "usps_collection_boxes", "addr:city": "NORTH ATTLEBORO", "addr:country": "US", "addr:full": "164 ELM ST", "addr:postcode": "02760", "addr:state": "MA", "brand": "USPS", "brand:wikidata": "Q668687", "collection_times": "Mo-Sa 10:00", "name": "USPS COLLECTION BOX - BLUE BOX", "ref": "0276000017"}, "type": "Feature"}
{"geometry": {"coordinates": [-71.3324142, 41.983635], "type": "Point"}, "id": "F4Wlgp9JDA_yfjJ0XhcVDwCVrFE=", "properties": {"@spider": "usps_collection_boxes", "addr:city": "NORTH ATTLEBORO", "addr:country": "US", "addr:full": "61 N WASHINGTON ST", "addr:postcode": "02760", "addr:state": "MA", "brand": "USPS", "brand:wikidata": "Q668687", "collection_times": "Mo-Sa 10:00", "name": "USPS COLLECTION BOX - BLUE BOX", "ref": "0276000024"}, "type": "Feature"}
{"geometry": {"coordinates": [-71.3317261316, 41.9857883463], "type": "Point"}, "id": "uHOsGBllLaVYknMYwFJ5qIXUDUw=", "properties": {"@spider": "usps_collection_boxes", "addr:city": "NORTH ATTLEBORO", "addr:country": "US", "addr:full": "135 N WASHINGTON ST", "addr:postcode": "02760", "addr:state": "MA", "brand": "USPS", "brand:wikidata": "Q668687", "collection_times": "Mo-Sa 09:00", "name": "USPS COLLECTION BOX - BLUE BOX", "ref": "0276000025"}, "type": "Feature"}
{"geometry": {"coordinates": [-71.347133, 41.946004], "type": "Point"}, "id": "dDYMFVmkmEoK5TdxqqsmepQZTak=", "properties": {"@spider": "usps_collection_boxes", "addr:city": "NORTH ATTLEBORO", "addr:country": "US", "addr:full": "999 S WASHINGTON ST", "addr:postcode": "02760", "addr:state": "MA", "brand": "USPS", "brand:wikidata": "Q668687", "collection_times": "Mo-Sa 12:00", "name": "USPS COLLECTION BOX - BLUE BOX", "ref": "0276000029"}, "type": "Feature"}
{"geometry": {"coordinates": [-71.3229824, 41.97839], "type": "Point"}, "id": "ky6ArikC97tq8e95Oi5oonnYjWk=", "properties": {"@spider": "usps_collection_boxes", "addr:city": "NORTH ATTLEBORO", "addr:country": "US", "addr:full": "99 HOPE ST", "addr:postcode": "02760", "addr:state": "MA", "brand": "USPS", "brand:wikidata": "Q668687", "collection_times": "Mo-Sa 10:00", "name": "USPS COLLECTION BOX - BLUE BOX", "ref": "0276000031"}, "type": "Feature"}
{"geometry": {"coordinates": [-71.332382, 41.972162], "type": "Point"}, "id": "fwKb1rAFLjwNDcZfo4kKhpKyDaY=", "properties": {"@spider": "usps_collection_boxes", "addr:city": "NORTH ATTLEBORO", "addr:country": "US", "addr:full": "206 E WASHINGTON ST", "addr:postcode": "02760", "addr:state": "MA", "brand": "USPS", "brand:wikidata": "Q668687", "collection_times": "Mo-Sa 09:30", "name": "USPS COLLECTION BOX - BLUE BOX", "ref": "0276000033"}, "type": "Feature"}
{"geometry": {"coordinates": [-71.3325603, 41.982766], "type": "Point"}, "id": "evmzDGz9Qn9dhV-RE8PratBlHjQ=", "properties": {"@spider": "usps_collection_boxes", "addr:city": "NORTH ATTLEBORO", "addr:country": "US", "addr:full": "31 N WASHINGTON ST", "addr:postcode": "02760", "addr:state": "MA", "brand": "USPS", "brand:wikidata": "Q668687", "collection_times": "Mo-Sa 10:00", "name": "USPS COLLECTION BOX - BLUE BOX", "ref": "0276000034"}, "type": "Feature"}
{"geometry": {"coordinates": [-71.3342695, 41.98088], "type": "Point"}, "id": "xCNm7NzTqA5zfK_RDUMNUSgaWH4=", "properties": {"@spider": "usps_collection_boxes", "addr:city": "NORTH ATTLEBORO", "addr:country": "US", "addr:full": "43 S WASHINGTON ST", "addr:postcode": "02760", "addr:state": "MA", "brand": "USPS", "brand:wikidata": "Q668687", "collection_times": "Mo-Fr 16:00", "name": "USPS COLLECTION BOX - BLUE BOX", "note": "ON 12/24 AND 12/31, THIS BOX MAY BE COLLECTED AS EARLY AS 12 NOON.", "ref": "0276000037"}, "type": "Feature"}
{"geometry": {"coordinates": [-71.3383364, 41.967167], "type": "Point"}, "id": "iaZko-Er0PLHCUIFERxo4D5fcws=", "properties": {"@spider": "usps_collection_boxes", "addr:city": "NORTH ATTLEBORO", "addr:country": "US", "addr:full": "8 E WASHINGTON ST", "addr:postcode": "02760", "addr:state": "MA", "brand": "USPS", "brand:wikidata": "Q668687", "collection_times": "Mo-Sa 09:00", "name": "USPS COLLECTION BOX - BLUE BOX", "ref": "0276000038"}, "type": "Feature"}
{"geometry": {"coordinates": [-71.3431684, 41.961381], "type": "Point"}, "id": "UiipGCAfTOip4dxTVRmIqYB5_Ig=", "properties": {"@spider": "usps_collection_boxes", "addr:city": "NORTH ATTLEBORO", "addr:country": "US", "addr:full": "637 S WASHINGTON ST", "addr:postcode": "02760", "addr:state": "MA", "brand": "USPS", "brand:wikidata": "Q668687", "collection_times": "Mo-Sa 09:00", "name": "USPS COLLECTION BOX - BLUE BOX", "ref": "0276000039"}, "type": "Feature"}
{"geometry": {"coordinates": [-71.332759805, 41.981179453], "type": "Point"}, "id": "u2ypXegFz18DfoGGF0zzm9MECQ0=", "properties": {"@spider": "usps_collection_boxes", "addr:city": "NORTH ATTLEBORO", "addr:country": "US", "addr:full": "30 S WASHINGTON ST", "addr:postcode": "02760", "addr:state": "MA", "brand": "USPS", "brand:wikidata": "Q668687", "collection_times": "Mo-Sa 18:00", "name": "USPS COLLECTION BOX - PO LOBBY", "note": "ON 12/24 AND 12/31, THIS BOX MAY BE COLLECTED AS EARLY AS 12 NOON.", "ref": "0276000049"}, "type": "Feature"}
{"geometry": {"coordinates": [-71.336186, 42.005108], "type": "Point"}, "id": "3bs6uWQ8Dco0RzalmL0ZZqy46tM=", "properties": {"@spider": "usps_collection_boxes", "addr:city": "PLAINVILLE", "addr:country": "US", "addr:full": "127 SOUTH ST", "addr:postcode": "02762", "addr:state": "MA", "brand": "USPS", "brand:wikidata": "Q668687", "collection_times": "Mo-Fr 16:30; Sa 12:00", "name": "USPS COLLECTION BOX - BLUE BOX", "note": "ON 12/24 AND 12/31, THIS BOX MAY BE COLLECTED AS EARLY AS 12 NOON.", "ref": "0276200003"}, "type": "Feature"}
{"geometry": {"coordinates": [-71.3052918, 42.01154], "type": "Point"}, "id": "ruEedZzgVK-00z0aLNK10CRxJkU=", "properties": {"@spider": "usps_collection_boxes", "addr:city": "PLAINVILLE", "addr:country": "US", "addr:full": "13 TAUNTON ST", "addr:postcode": "02762", "addr:state": "MA", "brand": "USPS", "brand:wikidata": "Q668687", "collection_times": "Mo-Sa 12:00", "name": "USPS COLLECTION BOX - BLUE BOX", "ref": "0276200006"}, "type": "Feature"}
{"geometry": {"coordinates": [-71.336521713, 42.005689661], "type": "Point"}, "id": "r7Xe4Vxq3xuK1vhehIxXTcHbNA0=", "properties": {"@spider": "usps_collection_boxes", "addr:city": "PLAINVILLE", "addr:country": "US", "addr:full": "127 SOUTH ST", "addr:postcode": "02762", "addr:state": "MA", "brand": "USPS", "brand:wikidata": "Q668687", "collection_times": "Mo-Fr 17:30; Sa 13:30", "name": "USPS COLLECTION BOX - PO LOBBY", "note": "ON 12/24 AND 12/31, THIS BOX MAY BE COLLECTED AS EARLY AS 12 NOON.", "ref": "0276200016"}, "type": "Feature"}
{"geometry": {"coordinates": [-71.3082, 41.969381], "type": "Point"}, "id": "jCCHJhWRWakpQf1Ujt3cYg6ZYiI=", "properties": {"@spider": "usps_collection_boxes", "addr:city": "NORTH ATTLEBORO", "addr:country": "US", "addr:full": "215 COMMONWEALTH AVE", "addr:postcode": "02763", "addr:state": "MA", "brand": "USPS", "brand:wikidata": "Q668687", "collection_times": "Mo-Fr 17:00; Sa 14:00", "name": "USPS COLLECTION BOX - BLUE BOX", "note": "ON 12/24 AND 12/31, THIS BOX MAY BE COLLECTED AS EARLY AS 12 NOON.", "ref": "0276300003"}, "type": "Feature"}
{"geometry": {"coordinates": [-71.3147274, 41.971688], "type": "Point"}, "id": "3i7cpeDJ72AUrS2jcycLVzscb3M=", "properties": {"@spider": "usps_collection_boxes", "addr:city": "NORTH ATTLEBORO", "addr:country": "US", "addr:full": "96 COMMONWEALTH AVE", "addr:postcode": "02763", "addr:state": "MA", "brand": "USPS", "brand:wikidata": "Q668687", "collection_times": "Mo-Sa 10:00", "name": "USPS COLLECTION BOX - BLUE BOX", "ref": "0276300005"}, "type": "Feature"}
{"geometry": {"coordinates": [-71.2986386, 41.988006], "type": "Point"}, "id": "hSAV2bjMnGH-a5h0z_GCrXQNOLI=", "properties": {"@spider": "usps_collection_boxes", "addr:city": "NORTH ATTLEBORO", "addr:country": "US", "addr:full": "530 JOHN DIETSCH BLVD", "addr:postcode": "02763", "addr:state": "MA", "brand": "USPS", "brand:wikidata": "Q668687", "collection_times": "Mo-Sa 09:30", "name": "USPS COLLECTION BOX - BLUE BOX", "ref": "0276300009"}, "type": "Feature"}
{"geometry": {"coordinates": [-71.3011861, 41.970313], "type": "Point"}, "id": "w8z1VtZBgUXPKbnhelmpJ12o-ko=", "properties": {"@spider": "usps_collection_boxes", "addr:city": "NORTH ATTLEBORO", "addr:country": "US", "addr:full": "11 TONER BLVD", "addr:postcode": "02763", "addr:state": "MA", "brand": "USPS", "brand:wikidata": "Q668687", "collection_times": "Mo-Sa 09:30", "name": "USPS COLLECTION BOX - BLUE BOX", "ref": "0276300010"}, "type": "Feature"}
{"geometry": {"coordinates": [-71.308094752, 41.969367568], "type": "Point"}, "id": "xokM8p9C2QPhmTvKZgJO-B9gwNU=", "properties": {"@spider": "usps_collection_boxes", "addr:city": "NORTH ATTLEBORO", "addr:country": "US", "addr:full": "215 COMMONWEALTH AVE", "addr:postcode": "02763", "addr:state": "MA", "brand": "USPS", "brand:wikidata": "Q668687", "collection_times": "Mo-Fr 18:00; Sa 17:30", "name": "USPS COLLECTION BOX - PO LOBBY", "note": "ON 12/24 AND 12/31, THIS BOX MAY BE COLLECTED AS EARLY AS 12 NOON.", "ref": "0276300015"}, "type": "Feature"}
{"geometry": {"coordinates": [-71.118113, 41.838328], "type": "Point"}, "id": "E39U4QG8eEbQ7W3ZUB5c5ArCLaQ=", "properties": {"@spider": "usps_collection_boxes", "addr:city": "NORTH DIGHTON", "addr:country": "US", "addr:full": "1120 SOMERSET AVE", "addr:postcode": "02764", "addr:state": "MA", "brand": "USPS", "brand:wikidata": "Q668687", "collection_times": "Mo-Fr 16:30; Sa 12:15", "name": "USPS COLLECTION BOX - BLUE BOX", "note": "ON 12/24 AND 12/31, THIS BOX MAY BE COLLECTED AS EARLY AS 12 NOON.", "ref": "0276400001"}, "type": "Feature"}
{"geometry": {"coordinates": [-71.118060312, 41.837235905], "type": "Point"}, "id": "azh9WjjTK3xbSHGUR2YI8olUQdM=", "properties": {"@spider": "usps_collection_boxes", "addr:city": "NORTH DIGHTON", "addr:country": "US", "addr:full": "1120 SOMERSET AVE", "addr:postcode": "02764", "addr:state": "MA", "brand": "USPS", "brand:wikidata": "Q668687", "collection_times": "Mo-Fr 16:30; Sa 12:00", "name": "USPS COLLECTION BOX - PO LOBBY", "note": "ON 12/24 AND 12/31, THIS BOX MAY BE COLLECTED AS EARLY AS 12 NOON.", "ref": "0276400010"}, "type": "Feature"}
{"geometry": {"coordinates": [-71.187449, 41.966772], "type": "Point"}, "id": "yxIYRvznNFVGTNVEpKgNsQpf6MU=", "properties": {"@spider": "usps_collection_boxes", "addr:city": "NORTON", "addr:country": "US", "addr:full": "6 TAUNTON AVE", "addr:postcode": "02766", "addr:state": "MA", "brand": "USPS", "brand:wikidata": "Q668687", "collection_times": "Mo-Fr 17:00; Sa 13:00", "name": "USPS COLLECTION BOX - BLUE BOX", "note": "ON 12/24 AND 12/31, THIS BOX MAY BE COLLECTED AS EARLY AS 12 NOON.", "ref": "0276600002"}, "type": "Feature"}
{"geometry": {"coordinates": [-71.2100588, 41.982362], "type": "Point"}, "id": "VfVevSA5f5UJMpXOwOJjl-WS74I=", "properties": {"@spider": "usps_collection_boxes", "addr:city": "NORTON", "addr:country": "US", "addr:full": "175 MANSFIELD AVE", "addr:postcode": "02766", "addr:state": "MA", "brand": "USPS", "brand:wikidata": "Q668687", "collection_times": "Mo-Sa 09:30", "name": "USPS COLLECTION BOX - BLUE BOX", "ref": "0276600007"}, "type": "Feature"}
{"geometry": {"coordinates": [-71.2251649, 41.948669], "type": "Point"}, "id": "nKjJHft019e2FfSqEcVz6mvGWOQ=", "properties": {"@spider": "usps_collection_boxes", "addr:city": "NORTON", "addr:country": "US", "addr:full": "36 S WORCESTER ST", "addr:postcode": "02766", "addr:state": "MA", "brand": "USPS", "brand:wikidata": "Q668687", "collection_times": "Mo-Sa 10:00", "name": "USPS COLLECTION BOX - BLUE BOX", "ref": "0276600008"}, "type": "Feature"}
{"geometry": {"coordinates": [-71.1567766, 41.986247], "type": "Point"}, "id": "twEM1sewkWYOcLglPjVYFnh6ATI=", "properties": {"@spider": "usps_collection_boxes", "addr:city": "NORTON", "addr:country": "US", "addr:full": "250 E MAIN ST", "addr:postcode": "02766", "addr:state": "MA", "brand": "USPS", "brand:wikidata": "Q668687", "collection_times": "Mo-Sa 10:00", "name": "USPS COLLECTION BOX - BLUE BOX", "ref": "0276600010"}, "type": "Feature"}
{"geometry": {"coordinates": [-71.073943, 41.947214], "type": "Point"}, "id": "Yf-QfYT7MQ67BAyFcVORuwVSc1M=", "properties": {"@spider": "usps_collection_boxes", "addr:city": "RAYNHAM", "addr:country": "US", "addr:full": "681 BROADWAY", "addr:postcode": "02767", "addr:state": "MA", "brand": "USPS", "brand:wikidata": "Q668687", "collection_times": "Mo-Fr 16:15; Sa 12:15", "name": "USPS COLLECTION BOX - BLUE BOX", "note": "ON 12/24 AND 12/31, THIS BOX MAY BE COLLECTED AS EARLY AS 12 NOON.", "ref": "0276700002"}, "type": "Feature"}
{"geometry": {"coordinates": [-71.073943, 41.947214], "type": "Point"}, "id": "GQi5S2PAkgqUsMtSJdhqKuL49kc=", "properties": {"@spider": "usps_collection_boxes", "addr:city": "RAYNHAM", "addr:country": "US", "addr:full": "681 BROADWAY", "addr:postcode": "02767", "addr:state": "MA", "brand": "USPS", "brand:wikidata": "Q668687", "collection_times": "Mo-Fr 16:15; Sa 12:00", "name": "USPS COLLECTION BOX - PO LOBBY", "note": "ON 12/24 AND 12/31, THIS BOX MAY BE COLLECTED AS EARLY AS 12 NOON.", "ref": "0276700004"}, "type": "Feature"}
{"geometry": {"coordinates": [-71.073943, 41.947214], "type": "Point"}, "id": "aw0sGzJMZczKGATSLfpseD2ge9U=", "properties": {"@spider": "usps_collection_boxes", "addr:city": "RAYNHAM", "addr:country": "US", "addr:full": "681 BROADWAY", "addr:postcode": "02767", "addr:state": "MA", "brand": "USPS", "brand:wikidata": "Q668687", "collection_times": "Mo-Fr 16:15; Sa 11:45", "name": "USPS COLLECTION BOX - PO LOBBY", "note": "ON 12/24 AND 12/31, THIS BOX MAY BE COLLECTED AS EARLY AS 12 NOON.", "ref": "0276700005"}, "type": "Feature"}
{"geometry": {"coordinates": [-71.0710494, 41.951145], "type": "Point"}, "id": "yq1bJOLFkSxW5_PsZ4hg2J8V8AQ=", "properties": {"@spider": "usps_collection_boxes", "addr:city": "RAYNHAM", "addr:country": "US", "addr:full": "855 BROADWAY", "addr:postcode": "02767", "addr:state": "MA", "brand": "USPS", "brand:wikidata": "Q668687", "collection_times": "Mo-Sa 09:00", "name": "USPS COLLECTION BOX - BLUE BOX", "ref": "0276700011"}, "type": "Feature"}
{"geometry": {"coordinates": [-71.0834369, 41.936925], "type": "Point"}, "id": "DZwoHCZtzQtX8T0pIq-XbLFwGiY=", "properties": {"@spider": "usps_collection_boxes", "addr:city": "RAYNHAM", "addr:country": "US", "addr:full": "242 BROADWAY", "addr:postcode": "02767", "addr:state": "MA", "brand": "USPS", "brand:wikidata": "Q668687", "collection_times": "Mo-Sa 09:00", "name": "USPS COLLECTION BOX - BLUE BOX", "ref": "0276700012"}, "type": "Feature"}
{"geometry": {"coordinates": [-71.0108047, 41.904859], "type": "Point"}, "id": "DyYniG_fbv2xv923toWAwZBFjVk=", "properties": {"@spider": "usps_collection_boxes", "addr:city": "RAYNHAM", "addr:country": "US", "addr:full": "1470 NEW STATE HWY", "addr:postcode": "02767", "addr:state": "MA", "brand": "USPS", "brand:wikidata": "Q668687", "collection_times": "Mo-Sa 09:00", "name": "USPS COLLECTION BOX - BLUE BOX", "ref": "0276700013"}, "type": "Feature"}
{"geometry": {"coordinates": [-71.0531382, 41.906475], "type": "Point"}, "id": "TLmlWDpE9dm55tSogHDuHJur8eU=", "properties": {"@spider": "usps_collection_boxes", "addr:city": "RAYNHAM", "addr:country": "US", "addr:full": "350 NEW STATE HWY", "addr:postcode": "02767", "addr:state": "MA", "brand": "USPS", "brand:wikidata": "Q668687", "collection_times": "Mo-Sa 09:00", "name": "USPS COLLECTION BOX - BLUE BOX", "ref": "0276700014"}, "type": "Feature"}
{"geometry": {"coordinates": [-71.0638685, 41.90601], "type": "Point"}, "id": "jBJDBdNSghcqp2Qvfns-AbBBHMQ=", "properties": {"@spider": "usps_collection_boxes", "addr:city": "RAYNHAM", "addr:country": "US", "addr:full": "36 NEW STATE HWY", "addr:postcode": "02767", "addr:state": "MA", "brand": "USPS", "brand:wikidata": "Q668687", "collection_times": "Mo-Sa 09:00", "name": "USPS COLLECTION BOX - BLUE BOX", "ref": "0276700018"}, "type": "Feature"}
{"geometry": {"coordinates": [-71.0331178, 41.904373], "type": "Point"}, "id": "ehEEyatg2F99bvDPxSHFApQ50Lw=", "properties": {"@spider": "usps_collection_boxes", "addr:city": "RAYNHAM", "addr:country": "US", "addr:full": "40 ASHLEY WAY", "addr:postcode": "02767", "addr:state": "MA", "brand": "USPS", "brand:wikidata": "Q668687", "collection_times": "Mo-Sa 09:00", "name": "USPS COLLECTION BOX - BLUE BOX", "ref": "0276700019"}, "type": "Feature"}
{"geometry": {"coordinates": [-71.07401353, 41.947089937], "type": "Point"}, "id": "KABTnlDQGmiClyuHZPqw2Jtk3Ss=", "properties": {"@spider": "usps_collection_boxes", "addr:city": "RAYNHAM", "addr:country": "US", "addr:full": "681 BROADWAY", "addr:postcode": "02767", "addr:state": "MA", "brand": "USPS", "brand:wikidata": "Q668687", "collection_times": "Mo-Fr 16:30; Sa 12:00", "name": "USPS COLLECTION BOX - PO LOBBY", "note": "ON 12/24 AND 12/31, THIS BOX MAY BE COLLECTED AS EARLY AS 12 NOON.", "ref": "0276700026"}, "type": "Feature"}
{"geometry": {"coordinates": [-71.053741, 41.9387], "type": "Point"}, "id": "0oNPz5rVcMvbMCx7O8Kr1tEopqo=", "properties": {"@spider": "usps_collection_boxes", "addr:city": "RAYNHAM CENTER", "addr:country": "US", "addr:full": "622 N MAIN ST", "addr:postcode": "02768", "addr:state": "MA", "brand": "USPS", "brand:wikidata": "Q668687", "collection_times": "Mo-Fr 16:15; Sa 11:30", "name": "USPS COLLECTION BOX - BLUE BOX", "note": "ON 12/24 AND 12/31, THIS BOX MAY BE COLLECTED AS EARLY AS 12 NOON.", "ref": "0276800001"}, "type": "Feature"}
{"geometry": {"coordinates": [-71.2445, 41.851445], "type": "Point"}, "id": "ANmqeDTMI9Xf6eBxMaqLLZ987xs=", "properties": {"@spider": "usps_collection_boxes", "addr:city": "REHOBOTH", "addr:country": "US", "addr:full": "275 WINTHROP ST", "addr:postcode": "02769", "addr:state": "MA", "brand": "USPS", "brand:wikidata": "Q668687", "collection_times": "Mo-Fr 16:30; Sa 15:00", "name": "USPS COLLECTION BOX - BLUE BOX", "note": "ON 12/24 AND 12/31, THIS BOX MAY BE COLLECTED AS EARLY AS 12 NOON.", "ref": "0276900002"}, "type": "Feature"}
{"geometry": {"coordinates": [-71.244065801, 41.851682594], "type": "Point"}, "id": "g6sXFM06Vts53lroqKni7OIx9U8=", "properties": {"@spider": "usps_collection_boxes", "addr:city": "REHOBOTH", "addr:country": "US", "addr:full": "275 WINTHROP ST", "addr:postcode": "02769", "addr:state": "MA", "brand": "USPS", "brand:wikidata": "Q668687", "collection_times": "Mo-Fr 16:30; Sa 12:00", "name": "USPS COLLECTION BOX - PO LOBBY", "note": "ON 12/24 AND 12/31, THIS BOX MAY BE COLLECTED AS EARLY AS 12 NOON.", "ref": "0276900008"}, "type": "Feature"}
{"geometry": {"coordinates": [-70.823395, 41.728177], "type": "Point"}, "id": "rapOuaOIkL64ORT1qlDmg4JKxGk=", "properties": {"@spider": "usps_collection_boxes", "addr:city": "ROCHESTER", "addr:country": "US", "addr:full": "603 NEW BEDFORD RD", "addr:postcode": "02770", "addr:state": "MA", "brand": "USPS", "brand:wikidata": "Q668687", "collection_times": "Mo-Fr 16:15; Sa 13:00", "name": "USPS COLLECTION BOX - BLUE BOX", "note": "ON 12/24 AND 12/31, THIS BOX MAY BE COLLECTED AS EARLY AS 12 NOON.", "ref": "0277000003"}, "type": "Feature"}
{"geometry": {"coordinates": [-70.8212523, 41.73267], "type": "Point"}, "id": "eTcak-s3FLwvfbyA54wpsnWhSys=", "properties": {"@spider": "usps_collection_boxes", "addr:city": "ROCHESTER", "addr:country": "US", "addr:full": "565 ROUNSEVILLE RD", "addr:postcode": "02770", "addr:state": "MA", "brand": "USPS", "brand:wikidata": "Q668687", "collection_times": "Mo-Sa 09:30", "name": "USPS COLLECTION BOX - BLUE BOX", "ref": "0277000004"}, "type": "Feature"}
{"geometry": {"coordinates": [-70.8684159, 41.742444], "type": "Point"}, "id": "BnayzFqa9c6OJY6KUaQaWLYplYI=", "properties": {"@spider": "usps_collection_boxes", "addr:city": "ROCHESTER", "addr:country": "US", "addr:full": "4 HARTLEY RD", "addr:postcode": "02770", "addr:state": "MA", "brand": "USPS", "brand:wikidata": "Q668687", "collection_times": "Mo-Sa 09:00", "name": "USPS COLLECTION BOX - BLUE BOX", "ref": "0277000005"}, "type": "Feature"}
{"geometry": {"coordinates": [-70.821745547, 41.730047504], "type": "Point"}, "id": "UY0X-cnjKjcpzY4UWbkQXMCse5M=", "properties": {"@spider": "usps_collection_boxes", "addr:city": "ROCHESTER", "addr:country": "US", "addr:full": "603 NEW BEDFORD RD", "addr:postcode": "02770", "addr:state": "MA", "brand": "USPS", "brand:wikidata": "Q668687", "collection_times": "Mo-Fr 17:00; Sa 16:00", "name": "USPS COLLECTION BOX - PO LOBBY", "note": "ON 12/24 AND 12/31, THIS BOX MAY BE COLLECTED AS EARLY AS 12 NOON.", "ref": "0277000007"}, "type": "Feature"}
{"geometry": {"coordinates": [-71.340696, 41.824334], "type": "Point"}, "id": "7ohdzXt_TZ8cepxPALq5VJNcej8=", "properties": {"@spider": "usps_collection_boxes", "addr:city": "SEEKONK", "addr:country": "US", "addr:full": "156 TAUNTON AVE", "addr:postcode": "02771", "addr:state": "MA", "brand": "USPS", "brand:wikidata": "Q668687", "collection_times": "Mo-Fr 17:00; Sa 15:00", "name": "USPS COLLECTION BOX - BLUE BOX", "note": "ON 12/24 AND 12/31, THIS BOX MAY BE COLLECTED AS EARLY AS 12 NOON.", "ref": "0277100002"}, "type": "Feature"}
{"geometry": {"coordinates": [-71.3292903, 41.852907], "type": "Point"}, "id": "c_mdDccZYVoEP0fG9Tnm0rJJ6og=", "properties": {"@spider": "usps_collection_boxes", "addr:city": "SEEKONK", "addr:country": "US", "addr:full": "410 NEWMAN AVE", "addr:postcode": "02771", "addr:state": "MA", "brand": "USPS", "brand:wikidata": "Q668687", "collection_times": "Mo-Sa 09:00", "name": "USPS COLLECTION BOX - BLUE BOX", "ref": "0277100004"}, "type": "Feature"}
{"geometry": {"coordinates": [-71.3337927, 41.889238], "type": "Point"}, "id": "64E_LN4vFNHRNe7rre8Q2vDwb5E=", "properties": {"@spider": "usps_collection_boxes", "addr:city": "SEEKONK", "addr:country": "US", "addr:full": "134 CENTRAL AVE", "addr:postcode": "02771", "addr:state": "MA", "brand": "USPS", "brand:wikidata": "Q668687", "collection_times": "Mo-Sa 09:00", "name": "USPS COLLECTION BOX - BLUE BOX", "ref": "0277100007"}, "type": "Feature"}
{"geometry": {"coordinates": [-71.3345223, 41.80907], "type": "Point"}, "id": "KbmGwnGJ6A0MWHS4CpKQ1wzy8mA=", "properties": {"@spider": "usps_collection_boxes", "addr:city": "SEEKONK", "addr:country": "US", "addr:full": "25 CHAPPELL ST", "addr:postcode": "02771", "addr:state": "MA", "brand": "USPS", "brand:wikidata": "Q668687", "collection_times": "Mo-Sa 09:00", "name": "USPS COLLECTION BOX - BLUE BOX", "ref": "0277100008"}, "type": "Feature"}
{"geometry": {"coordinates": [-71.3192031, 41.78835], "type": "Point"}, "id": "ww-SZ28nKeR7t_0agu3jHZ8Ei6U=", "properties": {"@spider": "usps_collection_boxes", "addr:city": "SEEKONK", "addr:country": "US", "addr:full": "1400 FALL RIVER AVE", "addr:postcode": "02771", "addr:state": "MA", "brand": "USPS", "brand:wikidata": "Q668687", "collection_times": "Mo-Fr 14:00; Sa 13:00", "name": "USPS COLLECTION BOX - BLUE BOX", "note": "ON 12/24 AND 12/31, THIS BOX MAY BE COLLECTED AS EARLY AS 12 NOON.", "ref": "0277100015"}, "type": "Feature"}
{"geometry": {"coordinates": [-71.3375945, 41.80071], "type": "Point"}, "id": "IdLutw-91X3dbIvbG2nXhEhZHCE=", "properties": {"@spider": "usps_collection_boxes", "addr:city": "SEEKONK", "addr:country": "US", "addr:full": "125 HIGHLAND AVE", "addr:postcode": "02771", "addr:state": "MA", "brand": "USPS", "brand:wikidata": "Q668687", "collection_times": "Mo-Sa 09:00", "name": "USPS COLLECTION BOX - BLUE BOX", "ref": "0277100019"}, "type": "Feature"}
{"geometry": {"coordinates": [-71.3177455, 41.814034], "type": "Point"}, "id": "NTBPiZ6O61NutBPPCs4uG_XQwTw=", "properties": {"@spider": "usps_collection_boxes", "addr:city": "SEEKONK", "addr:country": "US", "addr:full": "10 OLNEY ST", "addr:postcode": "02771", "addr:state": "MA", "brand": "USPS", "brand:wikidata": "Q668687", "collection_times": "Mo-Sa 12:00", "name": "USPS COLLECTION BOX - BLUE BOX", "ref": "0277100022"}, "type": "Feature"}
{"geometry": {"coordinates": [-71.3244727, 41.827708], "type": "Point"}, "id": "UZ9aspAlqDIq7sNdR1XLmxhY2Zg=", "properties": {"@spider": "usps_collection_boxes", "addr:city": "SEEKONK", "addr:country": "US", "addr:full": "520 TAUNTON AVE", "addr:postcode": "02771", "addr:state": "MA", "brand": "USPS", "brand:wikidata": "Q668687", "collection_times": "Mo-Sa 10:00", "name": "USPS COLLECTION BOX - BLUE BOX", "ref": "0277100025"}, "type": "Feature"}
{"geometry": {"coordinates": [-71.3219992, 41.900058], "type": "Point"}, "id": "Q2tPc83yfbM_7aoQ7Oc2z_gCqb0=", "properties": {"@spider": "usps_collection_boxes", "addr:city": "SEEKONK", "addr:country": "US", "addr:full": "545 CENTRAL AVE", "addr:postcode": "02771", "addr:state": "MA", "brand": "USPS", "brand:wikidata": "Q668687", "collection_times": "Mo-Sa 11:00", "name": "USPS COLLECTION BOX - BLUE BOX", "ref": "0277100026"}, "type": "Feature"}
{"geometry": {"coordinates": [-71.340633231, 41.824397156], "type": "Point"}, "id": "YvlOpnLDn88gU_iaoCTnMHq_n18=", "properties": {"@spider": "usps_collection_boxes", "addr:city": "SEEKONK", "addr:country": "US", "addr:full": "156 TAUNTON AVE", "addr:postcode": "02771", "addr:state": "MA", "brand": "USPS", "brand:wikidata": "Q668687", "collection_times": "Mo-Fr 18:15; Sa 17:45", "name": "USPS COLLECTION BOX - PO LOBBY", "note": "ON 12/24 AND 12/31, THIS BOX MAY BE COLLECTED AS EARLY AS 12 NOON.", "ref": "0277100035"}, "type": "Feature"}
{"geometry": {"coordinates": [-71.2657461, 41.768933], "type": "Point"}, "id": "_H_LRSfu3VoSoBDQYzXMmF0t4Z4=", "properties": {"@spider": "usps_collection_boxes", "addr:city": "SWANSEA", "addr:country": "US", "addr:full": "25 MARKET ST", "addr:postcode": "02777", "addr:state": "MA", "brand": "USPS", "brand:wikidata": "Q668687", "collection_times": "Mo-Fr 10:00; Sa 11:00", "name": "USPS COLLECTION BOX - BLUE BOX", "ref": "0277700001"}, "type": "Feature"}
{"geometry": {"coordinates": [-71.2317, 41.752315], "type": "Point"}, "id": "tQtUGTieeATANGtxt9u7BOEV4eI=", "properties": {"@spider": "usps_collection_boxes", "addr:city": "SWANSEA", "addr:country": "US", "addr:full": "1278 GRAND ARMY HWY", "addr:postcode": "02777", "addr:state": "MA", "brand": "USPS", "brand:wikidata": "Q668687", "collection_times": "Mo-Fr 17:00; Sa 15:00", "name": "USPS COLLECTION BOX - BLUE BOX", "note": "ON 12/24 AND 12/31, THIS BOX MAY BE COLLECTED AS EARLY AS 12 NOON.", "ref": "0277700004"}, "type": "Feature"}
{"geometry": {"coordinates": [-71.1587142, 41.75073], "type": "Point"}, "id": "SX0x7nufxxZF0tTyba4dPiC_EUc=", "properties": {"@spider": "usps_collection_boxes", "addr:city": "SWANSEA", "addr:country": "US", "addr:full": "75 BUFFINGTON ST", "addr:postcode": "02777", "addr:state": "MA", "brand": "USPS", "brand:wikidata": "Q668687", "collection_times": "Mo-Sa 10:00", "name": "USPS COLLECTION BOX - BLUE BOX", "ref": "0277700008"}, "type": "Feature"}
{"geometry": {"coordinates": [-71.2001999, 41.727704], "type": "Point"}, "id": "Z5n-Xvlf_bItmD0p_fg2rvvKILo=", "properties": {"@spider": "usps_collection_boxes", "addr:city": "SWANSEA", "addr:country": "US", "addr:full": "856 GARDNERS NECK RD", "addr:postcode": "02777", "addr:state": "MA", "brand": "USPS", "brand:wikidata": "Q668687", "collection_times": "Mo-Sa 12:00", "name": "USPS COLLECTION BOX - BLUE BOX", "ref": "0277700010"}, "type": "Feature"}
{"geometry": {"coordinates": [-71.1901015, 41.748825], "type": "Point"}, "id": "_wxzFyVNwB9hpd499yjE8odda0I=", "properties": {"@spider": "usps_collection_boxes", "addr:city": "SWANSEA", "addr:country": "US", "addr:full": "69 MAIN ST", "addr:postcode": "02777", "addr:state": "MA", "brand": "USPS", "brand:wikidata": "Q668687", "collection_times": "Mo-Sa 11:00", "name": "USPS COLLECTION BOX - BLUE BOX", "ref": "0277700015"}, "type": "Feature"}
{"geometry": {"coordinates": [-71.2233408, 41.745149], "type": "Point"}, "id": "NxZGmPKaYyB51YS-cz2WfLTi4-w=", "properties": {"@spider": "usps_collection_boxes", "addr:city": "SWANSEA", "addr:country": "US", "addr:full": "159 OLD WARREN RD", "addr:postcode": "02777", "addr:state": "MA", "brand": "USPS", "brand:wikidata": "Q668687", "collection_times": "Mo-Sa 12:00", "name": "USPS COLLECTION BOX - BLUE BOX", "ref": "0277700018"}, "type": "Feature"}
{"geometry": {"coordinates": [-71.2132329, 41.755259], "type": "Point"}, "id": "KCGIzOc2m6zmYCDxb1ZIUR1YN54=", "properties": {"@spider": "usps_collection_boxes", "addr:city": "SWANSEA", "addr:country": "US", "addr:full": "207 SWANSEA MALL DR", "addr:postcode": "02777", "addr:state": "MA", "brand": "USPS", "brand:wikidata": "Q668687", "collection_times": "Mo-Sa 09:30", "name": "USPS COLLECTION BOX - BLUE BOX", "ref": "0277700019"}, "type": "Feature"}
{"geometry": {"coordinates": [-71.222914561, 41.7574857359], "type": "Point"}, "id": "kd0YhS9Ymd3yk3HwLghAa9OMGmo=", "properties": {"@spider": "usps_collection_boxes", "addr:city": "SWANSEA", "addr:country": "US", "addr:full": "54 COSINEAU ST", "addr:postcode": "02777", "addr:state": "MA", "brand": "USPS", "brand:wikidata": "Q668687", "collection_times": "Mo-Sa 12:00", "name": "USPS COLLECTION BOX - BLUE BOX", "ref": "0277700024"}, "type": "Feature"}
{"geometry": {"coordinates": [-71.2114905, 41.732448], "type": "Point"}, "id": "-Lu738o4EaaT0fD6Q4-OQprUhjs=", "properties": {"@spider": "usps_collection_boxes", "addr:city": "SWANSEA", "addr:country": "US", "addr:full": "510 WILBUR AVE", "addr:postcode": "02777", "addr:state": "MA", "brand": "USPS", "brand:wikidata": "Q668687", "collection_times": "Mo-Sa 12:00", "name": "USPS COLLECTION BOX - BLUE BOX", "ref": "0277700025"}, "type": "Feature"}
{"geometry": {"coordinates": [-71.2068869, 41.732034], "type": "Point"}, "id": "EdQ3zAH6RSMpJqMCtUEqUsmXzps=", "properties": {"@spider": "usps_collection_boxes", "addr:city": "SWANSEA", "addr:country": "US", "addr:full": "377 WILBUR AVE", "addr:postcode": "02777", "addr:state": "MA", "brand": "USPS", "brand:wikidata": "Q668687", "collection_times": "Mo-Sa 12:00", "name": "USPS COLLECTION BOX - BLUE BOX", "ref": "0277700027"}, "type": "Feature"}
{"geometry": {"coordinates": [-71.2218363635, 41.7336052944], "type": "Point"}, "id": "63IqorIp8xyLsz-TLCX6sF1Kzuc=", "properties": {"@spider": "usps_collection_boxes", "addr:city": "SWANSEA", "addr:country": "US", "addr:full": "810 WILBUR AVE", "addr:postcode": "02777", "addr:state": "MA", "brand": "USPS", "brand:wikidata": "Q668687", "collection_times": "Mo-Sa 08:30", "name": "USPS COLLECTION BOX - BLUE BOX", "ref": "0277700028"}, "type": "Feature"}
{"geometry": {"coordinates": [-71.2058449, 41.748731], "type": "Point"}, "id": "oXVRSLtnjHq3ecckk8DbCR4axSM=", "properties": {"@spider": "usps_collection_boxes", "addr:city": "SWANSEA", "addr:country": "US", "addr:full": "579 GAR HWY", "addr:postcode": "02777", "addr:state": "MA", "brand": "USPS", "brand:wikidata": "Q668687", "collection_times": "Mo-Sa 09:00", "name": "USPS COLLECTION BOX - BLUE BOX", "ref": "0277700032"}, "type": "Feature"}
{"geometry": {"coordinates": [-71.2317, 41.752315], "type": "Point"}, "id": "I6ya-i5hkm2CYPPvei1lDC0LEMM=", "properties": {"@spider": "usps_collection_boxes", "addr:city": "SWANSEA", "addr:country": "US", "addr:full": "1278 GRAND ARMY HWY", "addr:postcode": "02777", "addr:state": "MA", "brand": "USPS", "brand:wikidata": "Q668687", "collection_times": "Mo-Fr 17:00; Sa 15:00", "name": "USPS COLLECTION BOX - EXPRESS", "note": "ON 12/24 AND 12/31, THIS BOX MAY BE COLLECTED AS EARLY AS 12 NOON.", "ref": "0277700033"}, "type": "Feature"}
{"geometry": {"coordinates": [-71.230859829, 41.752067161], "type": "Point"}, "id": "261ghOri1lHECsGIvSBmxaglFN8=", "properties": {"@spider": "usps_collection_boxes", "addr:city": "SWANSEA", "addr:country": "US", "addr:full": "1278 GAR HWY", "addr:postcode": "02777", "addr:state": "MA", "brand": "USPS", "brand:wikidata": "Q668687", "collection_times": "Mo-Fr 17:00; Sa 12:30", "name": "USPS COLLECTION BOX - PO LOBBY", "note": "ON 12/24 AND 12/31, THIS BOX MAY BE COLLECTED AS EARLY AS 12 NOON.", "ref": "0277700037"}, "type": "Feature"}
{"geometry": {"coordinates": [-71.082852758, 41.84538954], "type": "Point"}, "id": "jcGpsyw5V4P9zq6NDCZkiw7uRgI=", "properties": {"@spider": "usps_collection_boxes", "addr:city": "BERKLEY", "addr:country": "US", "addr:full": "1 N MAIN ST", "addr:postcode": "02779", "addr:state": "MA", "brand": "USPS", "brand:wikidata": "Q668687", "collection_times": "Mo-Sa 09:00", "name": "USPS COLLECTION BOX - BLUE BOX", "ref": "0277900000"}, "type": "Feature"}
{"geometry": {"coordinates": [-71.122968, 41.888364], "type": "Point"}, "id": "VVn2uwb5HqroDJDTYIy9Ey0iUQc=", "properties": {"@spider": "usps_collection_boxes", "addr:city": "TAUNTON", "addr:country": "US", "addr:full": "306 WINTHROP ST", "addr:postcode": "02780", "addr:state": "MA", "brand": "USPS", "brand:wikidata": "Q668687", "collection_times": "Mo-Fr 12:00; Sa 09:00", "name": "USPS COLLECTION BOX - BLUE BOX", "ref": "0278000002"}, "type": "Feature"}
{"geometry": {"coordinates": [-71.1211007, 41.886142], "type": "Point"}, "id": "XgnDRUY6x-oqXqm2DNdxeU5PAbQ=", "properties": {"@spider": "usps_collection_boxes", "addr:city": "TAUNTON", "addr:country": "US", "addr:full": "255 WARNER BLVD", "addr:postcode": "02780", "addr:state": "MA", "brand": "USPS", "brand:wikidata": "Q668687", "collection_times": "Mo-Fr 12:00; Sa 09:00", "name": "USPS COLLECTION BOX - BLUE BOX", "ref": "0278000003"}, "type": "Feature"}
{"geometry": {"coordinates": [-71.1136674, 41.929324], "type": "Point"}, "id": "YI8ST7ZtCQRZTgHMid8RrqOYK-k=", "properties": {"@spider": "usps_collection_boxes", "addr:city": "TAUNTON", "addr:country": "US", "addr:full": "750 WHITTENTON ST", "addr:postcode": "02780", "addr:state": "MA", "brand": "USPS", "brand:wikidata": "Q668687", "collection_times": "Mo-Sa 09:00", "name": "USPS COLLECTION BOX - BLUE BOX", "ref": "0278000008"}, "type": "Feature"}
{"geometry": {"coordinates": [-71.1012099, 41.923456], "type": "Point"}, "id": "wifXKJO7BlYy_T2B7Ee-dzOk5lE=", "properties": {"@spider": "usps_collection_boxes", "addr:city": "TAUNTON", "addr:country": "US", "addr:full": "309 WHITTENTON ST", "addr:postcode": "02780", "addr:state": "MA", "brand": "USPS", "brand:wikidata": "Q668687", "collection_times": "Mo-Sa 09:00", "name": "USPS COLLECTION BOX - BLUE BOX", "ref": "0278000009"}, "type": "Feature"}
{"geometry": {"coordinates": [-71.0956279, 41.905859], "type": "Point"}, "id": "pTmL_8EB2fYayI4VNINHJD0Qvjw=", "properties": {"@spider": "usps_collection_boxes", "addr:city": "TAUNTON", "addr:country": "US", "addr:full": "88 WASHINGTON ST", "addr:postcode": "02780", "addr:state": "MA", "brand": "USPS", "brand:wikidata": "Q668687", "collection_times": "Mo-Fr 12:00; Sa 09:00", "name": "USPS COLLECTION BOX - BLUE BOX", "ref": "0278000012"}, "type": "Feature"}
{"geometry": {"coordinates": [-71.0959577, 41.905505], "type": "Point"}, "id": "9EzwlNivxIwdmOikkSyodBNlNXQ=", "properties": {"@spider": "usps_collection_boxes", "addr:city": "TAUNTON", "addr:country": "US", "addr:full": "72 WASHINGTON ST", "addr:postcode": "02780", "addr:state": "MA", "brand": "USPS", "brand:wikidata": "Q668687", "collection_times": "Mo-Fr 10:45; Sa 09:00", "name": "USPS COLLECTION BOX - BLUE BOX", "ref": "0278000013"}, "type": "Feature"}
{"geometry": {"coordinates": [-71.0982786, 41.901515], "type": "Point"}, "id": "5pkac-Rx0LAOTk6vFVUOZ665Jbw=", "properties": {"@spider": "usps_collection_boxes", "addr:city": "TAUNTON", "addr:country": "US", "addr:full": "1 WASHINGTON ST", "addr:postcode": "02780", "addr:state": "MA", "brand": "USPS", "brand:wikidata": "Q668687", "collection_times": "Mo-Fr 12:00; Sa 09:00", "name": "USPS COLLECTION BOX - BLUE BOX", "ref": "0278000014"}, "type": "Feature"}
{"geometry": {"coordinates": [-71.0891795, 41.887164], "type": "Point"}, "id": "kZd_DMwVZ1b60dzBv_jzv_0O0KE=", "properties": {"@spider": "usps_collection_boxes", "addr:city": "TAUNTON", "addr:country": "US", "addr:full": "3 W WATER ST", "addr:postcode": "02780", "addr:state": "MA", "brand": "USPS", "brand:wikidata": "Q668687", "collection_times": "Mo-Sa 09:00", "name": "USPS COLLECTION BOX - BLUE BOX", "ref": "0278000015"}, "type": "Feature"}
{"geometry": {"coordinates": [-71.1206095, 41.909415], "type": "Point"}, "id": "BT5wKYyzxv4FDrxu_FpqsopoyGo=", "properties": {"@spider": "usps_collection_boxes", "addr:city": "TAUNTON", "addr:country": "US", "addr:full": "193 TREMONT ST", "addr:postcode": "02780", "addr:state": "MA", "brand": "USPS", "brand:wikidata": "Q668687", "collection_times": "Mo-Sa 09:00", "name": "USPS COLLECTION BOX - BLUE BOX", "ref": "0278000017"}, "type": "Feature"}
{"geometry": {"coordinates": [-71.1051499, 41.905562], "type": "Point"}, "id": "d0VeI2HwayH3K2WU_379ntjgNHI=", "properties": {"@spider": "usps_collection_boxes", "addr:city": "TAUNTON", "addr:country": "US", "addr:full": "53 TREMONT ST", "addr:postcode": "02780", "addr:state": "MA", "brand": "USPS", "brand:wikidata": "Q668687", "collection_times": "Mo-Fr 12:00; Sa 09:00", "name": "USPS COLLECTION BOX - BLUE BOX", "ref": "0278000018"}, "type": "Feature"}
{"geometry": {"coordinates": [-71.092197, 41.902209], "type": "Point"}, "id": "3J5jlNLLLSp4hxiRy0Z9wE5-bOE=", "properties": {"@spider": "usps_collection_boxes", "addr:city": "TAUNTON", "addr:country": "US", "addr:full": "1 TAUNTON GRN", "addr:postcode": "02780", "addr:state": "MA", "brand": "USPS", "brand:wikidata": "Q668687", "collection_times": "Mo-Fr 12:00; Sa 09:00", "name": "USPS COLLECTION BOX - BLUE BOX", "ref": "0278000020"}, "type": "Feature"}
{"geometry": {"coordinates": [-71.088894, 41.899563], "type": "Point"}, "id": "YsjvhXzJzh6XV31Be9lQ_1fpdxE=", "properties": {"@spider": "usps_collection_boxes", "addr:city": "TAUNTON", "addr:country": "US", "addr:full": "21 SPRING ST", "addr:postcode": "02780", "addr:state": "MA", "brand": "USPS", "brand:wikidata": "Q668687", "collection_times": "Mo-Fr 12:00; Sa 09:00", "name": "USPS COLLECTION BOX - BLUE BOX", "ref": "0278000023"}, "type": "Feature"}
{"geometry": {"coordinates": [-71.0888303, 41.908941], "type": "Point"}, "id": "yQvRQkvmSTB5x7w1Q1T7w9gcLjI=", "properties": {"@spider": "usps_collection_boxes", "addr:city": "TAUNTON", "addr:country": "US", "addr:full": "143 SCHOOL ST", "addr:postcode": "02780", "addr:state": "MA", "brand": "USPS", "brand:wikidata": "Q668687", "collection_times": "Mo-Sa 09:00", "name": "USPS COLLECTION BOX - BLUE BOX", "ref": "0278000026"}, "type": "Feature"}
{"geometry": {"coordinates": [-71.0899304, 41.908191], "type": "Point"}, "id": "xVzurZLm67EoiMv_7aBSGeqUS58=", "properties": {"@spider": "usps_collection_boxes", "addr:city": "TAUNTON", "addr:country": "US", "addr:full": "120 SCHOOL ST", "addr:postcode": "02780", "addr:state": "MA", "brand": "USPS", "brand:wikidata": "Q668687", "collection_times": "Mo-Sa 09:00", "name": "USPS COLLECTION BOX - BLUE BOX", "ref": "0278000027"}, "type": "Feature"}
{"geometry": {"coordinates": [-71.0819813, 41.881913], "type": "Point"}, "id": "GNPAfpIrObA0LQWAlxVf0UGGFYw=", "properties": {"@spider": "usps_collection_boxes", "addr:city": "TAUNTON", "addr:country": "US", "addr:full": "91 PLAIN ST", "addr:postcode": "02780", "addr:state": "MA", "brand": "USPS", "brand:wikidata": "Q668687", "collection_times": "Mo-Sa 09:00", "name": "USPS COLLECTION BOX - BLUE BOX", "ref": "0278000030"}, "type": "Feature"}
{"geometry": {"coordinates": [-71.1275134, 41.915628], "type": "Point"}, "id": "OdSk-lnM-YoU5CvZafqkThhQAbQ=", "properties": {"@spider": "usps_collection_boxes", "addr:city": "TAUNTON", "addr:country": "US", "addr:full": "200 NORTON AVE", "addr:postcode": "02780", "addr:state": "MA", "brand": "USPS", "brand:wikidata": "Q668687", "collection_times": "Mo-Sa 09:00", "name": "USPS COLLECTION BOX - BLUE BOX", "ref": "0278000033"}, "type": "Feature"}
{"geometry": {"coordinates": [-71.0899155, 41.901921], "type": "Point"}, "id": "_UQ_xqBoB1nYaVLyis3tOmxan0U=", "properties": {"@spider": "usps_collection_boxes", "addr:city": "TAUNTON", "addr:country": "US", "addr:full": "66 MAIN ST", "addr:postcode": "02780", "addr:state": "MA", "brand": "USPS", "brand:wikidata": "Q668687", "collection_times": "Mo-Fr 12:00; Sa 09:00", "name": "USPS COLLECTION BOX - BLUE BOX", "ref": "0278000035"}, "type": "Feature"}
{"geometry": {"coordinates": [-71.091135, 41.901363], "type": "Point"}, "id": "6iPR5NNORiyxpMDWmiNRJiqVYW0=", "properties": {"@spider": "usps_collection_boxes", "addr:city": "TAUNTON", "addr:country": "US", "addr:full": "49 MAIN ST", "addr:postcode": "02780", "addr:state": "MA", "brand": "USPS", "brand:wikidata": "Q668687", "collection_times": "Mo-Fr 12:00; Sa 09:00", "name": "USPS COLLECTION BOX - BLUE BOX", "ref": "0278000036"}, "type": "Feature"}
{"geometry": {"coordinates": [-71.0934345, 41.902803], "type": "Point"}, "id": "YhVUI_i4_ZquTV_Hxk0zKuaGIXk=", "properties": {"@spider": "usps_collection_boxes", "addr:city": "TAUNTON", "addr:country": "US", "addr:full": "30 TAUNTON GRN", "addr:postcode": "02780", "addr:state": "MA", "brand": "USPS", "brand:wikidata": "Q668687", "collection_times": "Mo-Fr 11:15; Sa 09:00", "name": "USPS COLLECTION BOX - BLUE BOX", "ref": "0278000039"}, "type": "Feature"}
{"geometry": {"coordinates": [-71.1398394, 41.947348], "type": "Point"}, "id": "rCiKsXMZJlZSFYmS7kIMwQhoKMk=", "properties": {"@spider": "usps_collection_boxes", "addr:city": "TAUNTON", "addr:country": "US", "addr:full": "25 JOHN HANCOCK RD", "addr:postcode": "02780", "addr:state": "MA", "brand": "USPS", "brand:wikidata": "Q668687", "collection_times": "Mo-Fr 12:00; Sa 09:00", "name": "USPS COLLECTION BOX - BLUE BOX", "ref": "0278000044"}, "type": "Feature"}
{"geometry": {"coordinates": [-71.0612969, 41.877387], "type": "Point"}, "id": "whBr3SnmvCNAe2RlHmE7Bvw9ucM=", "properties": {"@spider": "usps_collection_boxes", "addr:city": "TAUNTON", "addr:country": "US", "addr:full": "1000 COUNTY ST", "addr:postcode": "02780", "addr:state": "MA", "brand": "USPS", "brand:wikidata": "Q668687", "collection_times": "Mo-Sa 09:00", "name": "USPS COLLECTION BOX - BLUE BOX", "ref": "0278000052"}, "type": "Feature"}
{"geometry": {"coordinates": [-71.0678703, 41.887691], "type": "Point"}, "id": "xrAJnLzGB_EzbuTH1IlCi2yKuL4=", "properties": {"@spider": "usps_collection_boxes", "addr:city": "TAUNTON", "addr:country": "US", "addr:full": "534 COUNTY ST", "addr:postcode": "02780", "addr:state": "MA", "brand": "USPS", "brand:wikidata": "Q668687", "collection_times": "Mo-Sa 09:00", "name": "USPS COLLECTION BOX - BLUE BOX", "ref": "0278000054"}, "type": "Feature"}
{"geometry": {"coordinates": [-71.0861265, 41.900634], "type": "Point"}, "id": "kcGn-9xlfFj9Bf26YIh2H8QTNkM=", "properties": {"@spider": "usps_collection_boxes", "addr:city": "TAUNTON", "addr:country": "US", "addr:full": "68 CHURCH GRN", "addr:postcode": "02780", "addr:state": "MA", "brand": "USPS", "brand:wikidata": "Q668687", "collection_times": "Mo-Fr 12:00; Sa 09:00", "name": "USPS COLLECTION BOX - BLUE BOX", "ref": "0278000055"}, "type": "Feature"}
{"geometry": {"coordinates": [-71.0912379, 41.917688], "type": "Point"}, "id": "V1w9xZ7XifNP5MI4ANN48F4JNeg=", "properties": {"@spider": "usps_collection_boxes", "addr:city": "TAUNTON", "addr:country": "US", "addr:full": "188 BROADWAY", "addr:postcode": "02780", "addr:state": "MA", "brand": "USPS", "brand:wikidata": "Q668687", "collection_times": "Mo-Sa 09:00", "name": "USPS COLLECTION BOX - BLUE BOX", "ref": "0278000059"}, "type": "Feature"}
{"geometry": {"coordinates": [-71.0927199, 41.908601], "type": "Point"}, "id": "2KoJWiQ7lieFjdueLvbLYIrIbyM=", "properties": {"@spider": "usps_collection_boxes", "addr:city": "TAUNTON", "addr:country": "US", "addr:full": "96 BROADWAY", "addr:postcode": "02780", "addr:state": "MA", "brand": "USPS", "brand:wikidata": "Q668687", "collection_times": "Mo-Sa 09:00", "name": "USPS COLLECTION BOX - BLUE BOX", "ref": "0278000060"}, "type": "Feature"}
{"geometry": {"coordinates": [-71.0935024136, 41.9034895481], "type": "Point"}, "id": "xe0TAJ3hfIx8TLA42OUZKNeHX4U=", "properties": {"@spider": "usps_collection_boxes", "addr:city": "TAUNTON", "addr:country": "US", "addr:full": "40 BROADWAY", "addr:postcode": "02780", "addr:state": "MA", "brand": "USPS", "brand:wikidata": "Q668687", "collection_times": "Mo-Fr 16:00; Sa 09:00", "name": "USPS COLLECTION BOX - BLUE BOX", "note": "ON 12/24 AND 12/31, THIS BOX MAY BE COLLECTED AS EARLY AS 12 NOON.", "ref": "0278000062"}, "type": "Feature"}
{"geometry": {"coordinates": [-71.1177804, 41.958446], "type": "Point"}, "id": "Ty6AT1-_ikh5Qe1QHd2d8-AVEks=", "properties": {"@spider": "usps_collection_boxes", "addr:city": "TAUNTON", "addr:country": "US", "addr:full": "2005 BAY ST", "addr:postcode": "02780", "addr:state": "MA", "brand": "USPS", "brand:wikidata": "Q668687", "collection_times": "Mo-Fr 12:00; Sa 09:00", "name": "USPS COLLECTION BOX - BLUE BOX", "ref": "0278000065"}, "type": "Feature"}
{"geometry": {"coordinates": [-71.0958383, 41.920114], "type": "Point"}, "id": "gFCVs7_3kvPAZG-B7kDtTxViPz0=", "properties": {"@spider": "usps_collection_boxes", "addr:city": "TAUNTON", "addr:country": "US", "addr:full": "308 BAY ST", "addr:postcode": "02780", "addr:state": "MA", "brand": "USPS", "brand:wikidata": "Q668687", "collection_times": "Mo-Sa 09:00", "name": "USPS COLLECTION BOX - BLUE BOX", "ref": "0278000067"}, "type": "Feature"}
{"geometry": {"coordinates": [-71.0979696, 41.922703], "type": "Point"}, "id": "yfFxkSLeb2Lz0O_Nap7R3NUjMpI=", "properties": {"@spider": "usps_collection_boxes", "addr:city": "TAUNTON", "addr:country": "US", "addr:full": "430 BAY ST", "addr:postcode": "02780", "addr:state": "MA", "brand": "USPS", "brand:wikidata": "Q668687", "collection_times": "Mo-Sa 09:00", "name": "USPS COLLECTION BOX - BLUE BOX", "ref": "0278000069"}, "type": "Feature"}
{"geometry": {"coordinates": [-71.09415, 41.901741], "type": "Point"}, "id": "GRCzlQmBWvUlbzetGu7zAsDNAy4=", "properties": {"@spider": "usps_collection_boxes", "addr:city": "TAUNTON", "addr:country": "US", "addr:full": "37 TAUNTON GRN", "addr:postcode": "02780", "addr:state": "MA", "brand": "USPS", "brand:wikidata": "Q668687", "collection_times": "Mo-Fr 17:00; Sa 14:00", "name": "USPS COLLECTION BOX - BLUE BOX", "note": "ON 12/24 AND 12/31, THIS BOX MAY BE COLLECTED AS EARLY AS 12 NOON.", "ref": "0278000076"}, "type": "Feature"}
{"geometry": {"coordinates": [-71.134543951, 41.947041062], "type": "Point"}, "id": "R1hLsNPYuFJV_2apqYZO5uzIVmo=", "properties": {"@spider": "usps_collection_boxes", "addr:city": "TAUNTON", "addr:country": "US", "addr:full": "100 JOHN QUINCY ADAMS RD", "addr:postcode": "02780", "addr:state": "MA", "brand": "USPS", "brand:wikidata": "Q668687", "collection_times": "Mo-Fr 12:00; Sa 09:00", "name": "USPS COLLECTION BOX - BLUE BOX", "ref": "0278000080"}, "type": "Feature"}
{"geometry": {"coordinates": [-71.1199345, 41.958869], "type": "Point"}, "id": "jy7u4Wzl-kSE9-Y5ivsVKWNhyFs=", "properties": {"@spider": "usps_collection_boxes", "addr:city": "TAUNTON", "addr:country": "US", "addr:full": "2074 BAY ST", "addr:postcode": "02780", "addr:state": "MA", "brand": "USPS", "brand:wikidata": "Q668687", "collection_times": "Mo-Fr 12:00; Sa 09:00", "name": "USPS COLLECTION BOX - BLUE BOX", "ref": "0278000082"}, "type": "Feature"}
{"geometry": {"coordinates": [-71.1125804, 41.893195], "type": "Point"}, "id": "ZQAW3-nkCvWjJBjk6D7iGiSKqcQ=", "properties": {"@spider": "usps_collection_boxes", "addr:city": "TAUNTON", "addr:country": "US", "addr:full": "160 OAK ST", "addr:postcode": "02780", "addr:state": "MA", "brand": "USPS", "brand:wikidata": "Q668687", "collection_times": "Mo-Sa 09:00", "name": "USPS COLLECTION BOX - BLUE BOX", "ref": "0278000083"}, "type": "Feature"}
{"geometry": {"coordinates": [-71.1013566, 41.901297], "type": "Point"}, "id": "XoTM7-BOUV7KtQKZUtycfCWmIDo=", "properties": {"@spider": "usps_collection_boxes", "addr:city": "TAUNTON", "addr:country": "US", "addr:full": "10 OAK ST", "addr:postcode": "02780", "addr:state": "MA", "brand": "USPS", "brand:wikidata": "Q668687", "collection_times": "Mo-Sa 09:00", "name": "USPS COLLECTION BOX - BLUE BOX", "ref": "0278000085"}, "type": "Feature"}
{"geometry": {"coordinates": [-71.1372633, 41.954531], "type": "Point"}, "id": "CnE8bH-MiAcPm1_ARQboe8gyz2c=", "properties": {"@spider": "usps_collection_boxes", "addr:city": "TAUNTON", "addr:country": "US", "addr:full": "350 MYLES STANDISH BLVD", "addr:postcode": "02780", "addr:state": "MA", "brand": "USPS", "brand:wikidata": "Q668687", "collection_times": "Mo-Fr 12:00; Sa 09:00", "name": "USPS COLLECTION BOX - BLUE BOX", "ref": "0278000087"}, "type": "Feature"}
{"geometry": {"coordinates": [-71.089179269, 41.901199504], "type": "Point"}, "id": "ZeWZX3nD9h_DyJ8rUiNRxDVh1AA=", "properties": {"@spider": "usps_collection_boxes", "addr:city": "TAUNTON", "addr:country": "US", "addr:full": "23 SUMMER ST", "addr:postcode": "02780", "addr:state": "MA", "brand": "USPS", "brand:wikidata": "Q668687", "collection_times": "Mo-Fr 09:45; Sa 09:00", "name": "USPS COLLECTION BOX - BLUE BOX", "ref": "0278000091"}, "type": "Feature"}
{"geometry": {"coordinates": [-71.09415, 41.901741], "type": "Point"}, "id": "ifDfg2ALR5JLZoRUH9mQLBPFaWs=", "properties": {"@spider": "usps_collection_boxes", "addr:city": "TAUNTON", "addr:country": "US", "addr:full": "37 TAUNTON GRN", "addr:postcode": "02780", "addr:state": "MA", "brand": "USPS", "brand:wikidata": "Q668687", "collection_times": "Mo-Fr 17:30; Sa 13:30", "name": "USPS COLLECTION BOX - PO LOBBY", "note": "ON 12/24 AND 12/31, THIS BOX MAY BE COLLECTED AS EARLY AS 12 NOON.", "ref": "0278000100"}, "type": "Feature"}
{"geometry": {"coordinates": [-71.094149971, 41.9017455177], "type": "Point"}, "id": "FKsnlUWnZN_6ZFT0yVXVbN900Mo=", "properties": {"@spider": "usps_collection_boxes", "addr:city": "TAUNTON", "addr:country": "US", "addr:full": "37 TAUNTON GRN", "addr:postcode": "02780", "addr:state": "MA", "brand": "USPS", "brand:wikidata": "Q668687", "collection_times": "Mo-Fr 17:00; Sa 14:00", "name": "USPS COLLECTION BOX - BLUE BOX", "note": "ON 12/24 AND 12/31, THIS BOX MAY BE COLLECTED AS EARLY AS 12 NOON.", "ref": "0278000104"}, "type": "Feature"}
{"geometry": {"coordinates": [-71.091778, 41.573756], "type": "Point"}, "id": "DF0WVFg5dcs4J0dNbYDCm19Ok58=", "properties": {"@spider": "usps_collection_boxes", "addr:city": "WESTPORT", "addr:country": "US", "addr:full": "10 ADAMSVILLE RD", "addr:postcode": "02790", "addr:state": "MA", "brand": "USPS", "brand:wikidata": "Q668687", "collection_times": "Mo-Fr 17:00; Sa 12:15", "name": "USPS COLLECTION BOX - BLUE BOX", "note": "ON 12/24 AND 12/31, THIS BOX MAY BE COLLECTED AS EARLY AS 12 NOON.", "ref": "0279000006"}, "type": "Feature"}
{"geometry": {"coordinates": [-71.056307, 41.620632], "type": "Point"}, "id": "u1T0H2eVQi4M8yzS9IC1Och4SkQ=", "properties": {"@spider": "usps_collection_boxes", "addr:city": "WESTPORT", "addr:country": "US", "addr:full": "529 OLD COUNTY RD", "addr:postcode": "02790", "addr:state": "MA", "brand": "USPS", "brand:wikidata": "Q668687", "collection_times": "Mo-Fr 17:00; Sa 12:00", "name": "USPS COLLECTION BOX - BLUE BOX", "note": "ON 12/24 AND 12/31, THIS BOX MAY BE COLLECTED AS EARLY AS 12 NOON.", "ref": "0279000009"}, "type": "Feature"}
{"geometry": {"coordinates": [-71.0892154, 41.580916], "type": "Point"}, "id": "W9rIIUWLM_TAJpWRxmo9IKStKgc=", "properties": {"@spider": "usps_collection_boxes", "addr:city": "WESTPORT", "addr:country": "US", "addr:full": "796 MAIN RD", "addr:postcode": "02790", "addr:state": "MA", "brand": "USPS", "brand:wikidata": "Q668687", "collection_times": "Mo-Sa 11:00", "name": "USPS COLLECTION BOX - BLUE BOX", "ref": "0279000012"}, "type": "Feature"}
{"geometry": {"coordinates": [-71.080481, 41.658652], "type": "Point"}, "id": "iVP4pW7rJ-jbaemeFaPUKyWJ2F0=", "properties": {"@spider": "usps_collection_boxes", "addr:city": "WESTPORT", "addr:country": "US", "addr:full": "649 STATE RD", "addr:postcode": "02790", "addr:state": "MA", "brand": "USPS", "brand:wikidata": "Q668687", "collection_times": "Mo-Fr 17:00; Sa 13:45", "name": "USPS COLLECTION BOX - BLUE BOX", "note": "ON 12/24 AND 12/31, THIS BOX MAY BE COLLECTED AS EARLY AS 12 NOON.", "ref": "0279000013"}, "type": "Feature"}
{"geometry": {"coordinates": [-71.0782569, 41.658397], "type": "Point"}, "id": "nOXrKonV8LzlfVWWOfdRK9ROzPY=", "properties": {"@spider": "usps_collection_boxes", "addr:city": "WESTPORT", "addr:country": "US", "addr:full": "666 STATE RD", "addr:postcode": "02790", "addr:state": "MA", "brand": "USPS", "brand:wikidata": "Q668687", "collection_times": "Mo-Sa 09:30", "name": "USPS COLLECTION BOX - BLUE BOX", "ref": "0279000014"}, "type": "Feature"}
{"geometry": {"coordinates": [-71.056402632, 41.620658596], "type": "Point"}, "id": "UGE3gNqI7NM0xRbjVZFrons3RZU=", "properties": {"@spider": "usps_collection_boxes", "addr:city": "WESTPORT", "addr:country": "US", "addr:full": "529 OLD COUNTY RD", "addr:postcode": "02790", "addr:state": "MA", "brand": "USPS", "brand:wikidata": "Q668687", "collection_times": "Mo-Fr 17:00", "name": "USPS COLLECTION BOX - PO LOBBY", "note": "ON 12/24 AND 12/31, THIS BOX MAY BE COLLECTED AS EARLY AS 12 NOON.", "ref": "0279000019"}, "type": "Feature"}
{"geometry": {"coordinates": [-71.092159141, 41.573727506], "type": "Point"}, "id": "JpGiBZ9EiikGX1gzSnDuxV0wMIo=", "properties": {"@spider": "usps_collection_boxes", "addr:city": "WESTPORT", "addr:country": "US", "addr:full": "10 ADAMSVILLE RD", "addr:postcode": "02790", "addr:state": "MA", "brand": "USPS", "brand:wikidata": "Q668687", "collection_times": "Mo-Fr 17:15; Sa 12:00", "name": "USPS COLLECTION BOX - PO LOBBY", "note": "ON 12/24 AND 12/31, THIS BOX MAY BE COLLECTED AS EARLY AS 12 NOON.", "ref": "0279000020"}, "type": "Feature"}
{"geometry": {"coordinates": [-71.080388077, 41.65855989], "type": "Point"}, "id": "I3dbSoVilx3YV2LO8wkqtkbXS5E=", "properties": {"@spider": "usps_collection_boxes", "addr:city": "WESTPORT", "addr:country": "US", "addr:full": "649 STATE RD", "addr:postcode": "02790", "addr:state": "MA", "brand": "USPS", "brand:wikidata": "Q668687", "collection_times": "Mo-Fr 17:45; Sa 16:00", "name": "USPS COLLECTION BOX - PO LOBBY", "note": "ON 12/24 AND 12/31, THIS BOX MAY BE COLLECTED AS EARLY AS 12 NOON.", "ref": "0279000021"}, "type": "Feature"}
{"geometry": {"coordinates": [-71.07299, 41.520935], "type": "Point"}, "id": "i5uJg3xzpxpdIgm2j3XYrsbTS7U=", "properties": {"@spider": "usps_collection_boxes", "addr:city": "WESTPORT POINT", "addr:country": "US", "addr:full": "1974 MAIN RD", "addr:postcode": "02791", "addr:state": "MA", "brand": "USPS", "brand:wikidata": "Q668687", "collection_times": "Mo-Fr 16:30; Sa 12:15", "name": "USPS COLLECTION BOX - BLUE BOX", "note": "ON 12/24 AND 12/31, THIS BOX MAY BE COLLECTED AS EARLY AS 12 NOON.", "ref": "0279100001"}, "type": "Feature"}
{"geometry": {"coordinates": [-71.072927017, 41.520824612], "type": "Point"}, "id": "iZcQQj7ZcLWaYcuJfRwP1lC1AGk=", "properties": {"@spider": "usps_collection_boxes", "addr:city": "WESTPORT POINT", "addr:country": "US", "addr:full": "1974 MAIN RD", "addr:postcode": "02791", "addr:state": "MA", "brand": "USPS", "brand:wikidata": "Q668687", "collection_times": "Mo-Fr 16:00; Sa 12:00", "name": "USPS COLLECTION BOX - PO LOBBY", "note": "ON 12/24 AND 12/31, THIS BOX MAY BE COLLECTED AS EARLY AS 12 NOON.", "ref": "0279100003"}, "type": "Feature"}
