{"geometry": {"coordinates": [-71.4032479894, 41.8219230193], "type": "Point"}, "id": "2ZNDKfdeOFC9Mdv-nZNumLWWfaI=", "properties": {"@spider": "usps_collection_boxes", "addr:city": "PROVIDENCE", "addr:country": "US", "addr:full": "364 BENEFIT ST", "addr:postcode": "02903", "addr:state": "RI", "brand": "USPS", "brand:wikidata": "Q668687", "collection_times": "Mo-Sa 12:00", "name": "USPS COLLECTION BOX - BLUE BOX", "ref": "0290300021"}, "type": "Feature"}
{"geometry": {"coordinates": [-71.4270009619, 41.8201649989], "type": "Point"}, "id": "siBtQ1evQEPsao0cOt_FS831MlI=", "properties": {"@spider": "usps_collection_boxes", "addr:city": "PROVIDENCE", "addr:country": "US", "addr:full": "280 BROADWAY", "addr:postcode": "02903", "addr:state": "RI", "brand": "USPS", "brand:wikidata": "Q668687", "collection_times": "Mo-Sa 12:00", "name": "USPS COLLECTION BOX - BLUE BOX", "ref": "0290300030"}, "type": "Feature"}
{"geometry": {"coordinates": [-71.4152870008, 41.8192999865], "type": "Point"}, "id": "nPcWmDgoVSUGQafICw2PCCNAnEI=", "properties": {"@spider": "usps_collection_boxes", "addr:city": "PROVIDENCE", "addr:country": "US", "addr:full": "53 BROAD ST", "addr:postcode": "02903", "addr:state": "RI", "brand": "USPS", "brand:wikidata": "Q668687", "collection_times": "Mo-Fr 17:00; Sa 14:00", "name": "USPS COLLECTION BOX - EXPRESS", "note": "ON 12/24 AND 12/31, THIS BOX MAY BE COLLECTED AS EARLY AS 12 NOON.", "ref": "0290300033"}, "type": "Feature"}
{"geometry": {"coordinates": [-71.4228520037, 41.8250369801], "type": "Point"}, "id": "Q3WyoXqace3bcesRUIaYZ3weViM=", "properties": {"@spider": "usps_collection_boxes", "addr:city": "PROVIDENCE", "addr:country": "US", "addr:full": "55 CEDAR ST", "addr:postcode": "02903", "addr:state": "RI", "brand": "USPS", "brand:wikidata": "Q668687", "collection_times": "Mo-Fr 17:00; Sa 11:00", "name": "USPS COLLECTION BOX - BLUE BOX", "note": "ON 12/24 AND 12/31, THIS BOX MAY BE COLLECTED AS EARLY AS 12 NOON.", "ref": "0290300041"}, "type": "Feature"}
{"geometry": {"coordinates": [-71.4094550402, 41.8205990139], "type": "Point"}, "id": "Gc8bw_cqzkIt-8a58b8vZUO3F-I=", "properties": {"@spider": "usps_collection_boxes", "addr:city": "PROVIDENCE", "addr:country": "US", "addr:full": "50 CLIFFORD ST", "addr:postcode": "02903", "addr:state": "RI", "brand": "USPS", "brand:wikidata": "Q668687", "collection_times": "Mo-Fr 16:30; Sa 10:00", "name": "USPS COLLECTION BOX - BLUE BOX", "note": "ON 12/24 AND 12/31, THIS BOX MAY BE COLLECTED AS EARLY AS 12 NOON.", "ref": "0290300055"}, "type": "Feature"}
{"geometry": {"coordinates": [-71.3984269702, 41.8196270065], "type": "Point"}, "id": "_YP-41GbsywG6vJ3H0KghVxnaYo=", "properties": {"@spider": "usps_collection_boxes", "addr:city": "PROVIDENCE", "addr:country": "US", "addr:full": "244 WICKENDEN ST", "addr:postcode": "02903", "addr:state": "RI", "brand": "USPS", "brand:wikidata": "Q668687", "collection_times": "Mo-Fr 12:00; Sa 10:00", "name": "USPS COLLECTION BOX - BLUE BOX", "ref": "0290300075"}, "type": "Feature"}
{"geometry": {"coordinates": [-71.406979026, 41.8239529905], "type": "Point"}, "id": "NiQwZC6KFtyf_2dRE9ZlkFDtcTQ=", "properties": {"@spider": "usps_collection_boxes", "addr:city": "PROVIDENCE", "addr:country": "US", "addr:full": "1 PROVIDENCE WASHINGTON PLZ", "addr:postcode": "02903", "addr:state": "RI", "brand": "USPS", "brand:wikidata": "Q668687", "collection_times": "Mo-Fr 17:00; Sa 10:00", "name": "USPS COLLECTION BOX - BLUE BOX", "note": "ON 12/24 AND 12/31, THIS BOX MAY BE COLLECTED AS EARLY AS 12 NOON.", "ref": "0290300131"}, "type": "Feature"}
{"geometry": {"coordinates": [-71.406979026, 41.8239529905], "type": "Point"}, "id": "bIY5rowZMjj48Muw-OZ-ipZ1gF4=", "properties": {"@spider": "usps_collection_boxes", "addr:city": "PROVIDENCE", "addr:country": "US", "addr:full": "1 PROVIDENCE WASHINGTON PLZ", "addr:postcode": "02903", "addr:state": "RI", "brand": "USPS", "brand:wikidata": "Q668687", "collection_times": "Mo-Fr 17:00; Sa 10:00", "name": "USPS COLLECTION BOX - BLUE BOX", "note": "ON 12/24 AND 12/31, THIS BOX MAY BE COLLECTED AS EARLY AS 12 NOON.", "ref": "0290300132"}, "type": "Feature"}
{"geometry": {"coordinates": [-71.4095970733, 41.8230515518], "type": "Point"}, "id": "63L6XllZUuicmgNjYbweQn3bDBk=", "properties": {"@spider": "usps_collection_boxes", "addr:city": "PROVIDENCE", "addr:country": "US", "addr:full": "53 PINE ST", "addr:postcode": "02903", "addr:state": "RI", "brand": "USPS", "brand:wikidata": "Q668687", "collection_times": "Mo-Fr 16:15; Sa 10:00", "name": "USPS COLLECTION BOX - BLUE BOX", "note": "ON 12/24 AND 12/31, THIS BOX MAY BE COLLECTED AS EARLY AS 12 NOON.", "ref": "0290300135"}, "type": "Feature"}
{"geometry": {"coordinates": [-71.4092689619, 41.8185490099], "type": "Point"}, "id": "QUTG_gTALApesxzZnwtv7bmuXkI=", "properties": {"@spider": "usps_collection_boxes", "addr:city": "PROVIDENCE", "addr:country": "US", "addr:full": "233 RICHMOND ST", "addr:postcode": "02903", "addr:state": "RI", "brand": "USPS", "brand:wikidata": "Q668687", "collection_times": "Mo-Fr 12:00; Sa 10:00", "name": "USPS COLLECTION BOX - BLUE BOX", "ref": "0290300147"}, "type": "Feature"}
{"geometry": {"coordinates": [-71.4085849986, 41.8233150019], "type": "Point"}, "id": "hfmM98N3fYhqKrkPEVLPv0-2s94=", "properties": {"@spider": "usps_collection_boxes", "addr:city": "PROVIDENCE", "addr:country": "US", "addr:full": "123 DYER ST", "addr:postcode": "02903", "addr:state": "RI", "brand": "USPS", "brand:wikidata": "Q668687", "collection_times": "Mo-Sa 10:30", "name": "USPS COLLECTION BOX - BLUE BOX", "ref": "0290300149"}, "type": "Feature"}
{"geometry": {"coordinates": [-71.4044549835, 41.8213110146], "type": "Point"}, "id": "2VubCx3FLMGurGHQ6xRlMOJU_Hg=", "properties": {"@spider": "usps_collection_boxes", "addr:city": "PROVIDENCE", "addr:country": "US", "addr:full": "341 S MAIN ST", "addr:postcode": "02903", "addr:state": "RI", "brand": "USPS", "brand:wikidata": "Q668687", "collection_times": "Mo-Fr 17:00; Sa 10:00", "name": "USPS COLLECTION BOX - BLUE BOX", "note": "ON 12/24 AND 12/31, THIS BOX MAY BE COLLECTED AS EARLY AS 12 NOON.", "ref": "0290300160"}, "type": "Feature"}
{"geometry": {"coordinates": [-71.4151419939, 41.8213849849], "type": "Point"}, "id": "Dcjri0pT5BFDQp5cVsU_j3DAsio=", "properties": {"@spider": "usps_collection_boxes", "addr:city": "PROVIDENCE", "addr:country": "US", "addr:full": "385 WESTMINSTER ST", "addr:postcode": "02903", "addr:state": "RI", "brand": "USPS", "brand:wikidata": "Q668687", "collection_times": "Mo-Fr 12:00; Sa 10:00", "name": "USPS COLLECTION BOX - BLUE BOX", "ref": "0290300181"}, "type": "Feature"}
{"geometry": {"coordinates": [-71.4092407779, 41.8218137391], "type": "Point"}, "id": "DCOTNG6TtCEFWZ4VJscjj6Od7oY=", "properties": {"@spider": "usps_collection_boxes", "addr:city": "PROVIDENCE", "addr:country": "US", "addr:full": "63 DORRANCE ST", "addr:postcode": "02903", "addr:state": "RI", "brand": "USPS", "brand:wikidata": "Q668687", "collection_times": "Mo-Fr 17:00; Sa 10:00", "name": "USPS COLLECTION BOX - BLUE BOX", "note": "ON 12/24 AND 12/31, THIS BOX MAY BE COLLECTED AS EARLY AS 12 NOON.", "ref": "0290300192"}, "type": "Feature"}
{"geometry": {"coordinates": [-71.4092407779, 41.8218137391], "type": "Point"}, "id": "r1DxkxEe97_0ji6XP5Dwhzsl-qc=", "properties": {"@spider": "usps_collection_boxes", "addr:city": "PROVIDENCE", "addr:country": "US", "addr:full": "63 DORRANCE ST", "addr:postcode": "02903", "addr:state": "RI", "brand": "USPS", "brand:wikidata": "Q668687", "collection_times": "Mo-Fr 17:00; Sa 10:00", "name": "USPS COLLECTION BOX - EXPRESS", "note": "ON 12/24 AND 12/31, THIS BOX MAY BE COLLECTED AS EARLY AS 12 NOON.", "ref": "0290300194"}, "type": "Feature"}
{"geometry": {"coordinates": [-71.4137360134, 41.8282739873], "type": "Point"}, "id": "4ftzwDAT1iHwLjHYIKiBKD5Kc-M=", "properties": {"@spider": "usps_collection_boxes", "addr:city": "PROVIDENCE", "addr:country": "US", "addr:full": "15 PARK ROW W", "addr:postcode": "02903", "addr:state": "RI", "brand": "USPS", "brand:wikidata": "Q668687", "collection_times": "Mo-Fr 11:00; Sa 10:00", "name": "USPS COLLECTION BOX - BLUE BOX", "ref": "0290300195"}, "type": "Feature"}
{"geometry": {"coordinates": [-71.4151419939, 41.8213849849], "type": "Point"}, "id": "IJkTbvZ3kxAlrn-IuvcxTTXl4rc=", "properties": {"@spider": "usps_collection_boxes", "addr:city": "PROVIDENCE", "addr:country": "US", "addr:full": "385 WESTMINSTER ST", "addr:postcode": "02903", "addr:state": "RI", "brand": "USPS", "brand:wikidata": "Q668687", "collection_times": "Mo-Fr 12:00; Sa 10:00", "name": "USPS COLLECTION BOX - BLUE BOX", "ref": "0290300203"}, "type": "Feature"}
{"geometry": {"coordinates": [-71.4091389586, 41.8246069885], "type": "Point"}, "id": "mIqHsnnciQs3ajkNNUoJdjsYXhY=", "properties": {"@spider": "usps_collection_boxes", "addr:city": "PROVIDENCE", "addr:country": "US", "addr:full": "10 WEYBOSSET ST", "addr:postcode": "02903", "addr:state": "RI", "brand": "USPS", "brand:wikidata": "Q668687", "collection_times": "Mo-Fr 17:00; Sa 10:00", "name": "USPS COLLECTION BOX - BLUE BOX", "note": "ON 12/24 AND 12/31, THIS BOX MAY BE COLLECTED AS EARLY AS 12 NOON.", "ref": "0290300205"}, "type": "Feature"}
{"geometry": {"coordinates": [-71.4122339764, 41.8214380005], "type": "Point"}, "id": "neOEz_xh7bwTKD25uEmsReaNZSQ=", "properties": {"@spider": "usps_collection_boxes", "addr:city": "PROVIDENCE", "addr:country": "US", "addr:full": "212 WEYBOSSET ST", "addr:postcode": "02903", "addr:state": "RI", "brand": "USPS", "brand:wikidata": "Q668687", "collection_times": "Mo-Fr 12:00; Sa 10:00", "name": "USPS COLLECTION BOX - BLUE BOX", "ref": "0290300214"}, "type": "Feature"}
{"geometry": {"coordinates": [-71.4074500051, 41.8178049903], "type": "Point"}, "id": "9N7PZPRK6jgHudlFXS49osi6Igs=", "properties": {"@spider": "usps_collection_boxes", "addr:city": "PROVIDENCE", "addr:country": "US", "addr:full": "365 EDDY ST", "addr:postcode": "02903", "addr:state": "RI", "brand": "USPS", "brand:wikidata": "Q668687", "collection_times": "Mo-Fr 12:00; Sa 10:00", "name": "USPS COLLECTION BOX - BLUE BOX", "ref": "0290300230"}, "type": "Feature"}
{"geometry": {"coordinates": [-71.4117159748, 41.8240640088], "type": "Point"}, "id": "SX7cB6JgunVWGrenouXpJ9UI62U=", "properties": {"@spider": "usps_collection_boxes", "addr:city": "PROVIDENCE", "addr:country": "US", "addr:full": "10 DORRANCE ST", "addr:postcode": "02903", "addr:state": "RI", "brand": "USPS", "brand:wikidata": "Q668687", "collection_times": "Mo-Fr 17:00; Sa 10:00", "name": "USPS COLLECTION BOX - EXPRESS", "note": "ON 12/24 AND 12/31, THIS BOX MAY BE COLLECTED AS EARLY AS 12 NOON.", "ref": "0290300234"}, "type": "Feature"}
{"geometry": {"coordinates": [-71.4016860218, 41.8196270065], "type": "Point"}, "id": "pj3w5Isww0EHBzawucxEU3FnTzE=", "properties": {"@spider": "usps_collection_boxes", "addr:city": "PROVIDENCE", "addr:country": "US", "addr:full": "410 S MAIN ST", "addr:postcode": "02903", "addr:state": "RI", "brand": "USPS", "brand:wikidata": "Q668687", "collection_times": "Mo-Fr 17:00; Sa 10:00", "name": "USPS COLLECTION BOX - BLUE BOX", "note": "ON 12/24 AND 12/31, THIS BOX MAY BE COLLECTED AS EARLY AS 12 NOON.", "ref": "0290300236"}, "type": "Feature"}
{"geometry": {"coordinates": [-71.4085849986, 41.8233150019], "type": "Point"}, "id": "RXRduQBPGcroEFVqC-utREIc8VE=", "properties": {"@spider": "usps_collection_boxes", "addr:city": "PROVIDENCE", "addr:country": "US", "addr:full": "123 DYER ST", "addr:postcode": "02903", "addr:state": "RI", "brand": "USPS", "brand:wikidata": "Q668687", "collection_times": "Mo-Fr 16:30; Sa 10:00", "name": "USPS COLLECTION BOX - BLUE BOX", "note": "ON 12/24 AND 12/31, THIS BOX MAY BE COLLECTED AS EARLY AS 12 NOON.", "ref": "0290300242"}, "type": "Feature"}
{"geometry": {"coordinates": [-71.4106689912, 41.8248130157], "type": "Point"}, "id": "S68PJF0eqenlYTMnNH9ZdG8O_oU=", "properties": {"@spider": "usps_collection_boxes", "addr:city": "PROVIDENCE", "addr:country": "US", "addr:full": "50 KENNEDY PLZ", "addr:postcode": "02903", "addr:state": "RI", "brand": "USPS", "brand:wikidata": "Q668687", "collection_times": "Mo-Fr 17:00", "name": "USPS COLLECTION BOX - EXPRESS", "note": "ON 12/24 AND 12/31, THIS BOX MAY BE COLLECTED AS EARLY AS 12 NOON.", "ref": "0290300255"}, "type": "Feature"}
{"geometry": {"coordinates": [-71.4205619839, 41.819900005], "type": "Point"}, "id": "BYxin0dq7Yc52Z53slZP695vU-k=", "properties": {"@spider": "usps_collection_boxes", "addr:city": "PROVIDENCE", "addr:country": "US", "addr:full": "325 WASHINGTON ST", "addr:postcode": "02903", "addr:state": "RI", "brand": "USPS", "brand:wikidata": "Q668687", "collection_times": "Mo-Fr 12:00; Sa 10:00", "name": "USPS COLLECTION BOX - BLUE BOX", "ref": "0290300258"}, "type": "Feature"}
{"geometry": {"coordinates": [-71.4096711124, 41.8285541721], "type": "Point"}, "id": "Yt15pubri3DY5P6gyjYCSnJQpbc=", "properties": {"@spider": "usps_collection_boxes", "addr:city": "PROVIDENCE", "addr:country": "US", "addr:full": "130 N MAIN ST", "addr:postcode": "02903", "addr:state": "RI", "brand": "USPS", "brand:wikidata": "Q668687", "collection_times": "Mo-Fr 17:00; Sa 10:00", "name": "USPS COLLECTION BOX - BLUE BOX", "note": "ON 12/24 AND 12/31, THIS BOX MAY BE COLLECTED AS EARLY AS 12 NOON.", "ref": "0290300265"}, "type": "Feature"}
{"geometry": {"coordinates": [-71.4131330193, 41.82048502], "type": "Point"}, "id": "7FrP7xkUkKkHuTmNtMrPpBBZzu8=", "properties": {"@spider": "usps_collection_boxes", "addr:city": "PROVIDENCE", "addr:country": "US", "addr:full": "274 WEYBOSSET ST", "addr:postcode": "02903", "addr:state": "RI", "brand": "USPS", "brand:wikidata": "Q668687", "collection_times": "Mo-Fr 16:15; Sa 10:00", "name": "USPS COLLECTION BOX - BLUE BOX", "note": "ON 12/24 AND 12/31, THIS BOX MAY BE COLLECTED AS EARLY AS 12 NOON.", "ref": "0290300268"}, "type": "Feature"}
{"geometry": {"coordinates": [-71.4044549835, 41.8213110146], "type": "Point"}, "id": "-D6ECo8aRB0C-9QEVArHSzXsAKQ=", "properties": {"@spider": "usps_collection_boxes", "addr:city": "PROVIDENCE", "addr:country": "US", "addr:full": "341 S MAIN ST", "addr:postcode": "02903", "addr:state": "RI", "brand": "USPS", "brand:wikidata": "Q668687", "collection_times": "Mo-Fr 17:00; Sa 10:00", "name": "USPS COLLECTION BOX - BLUE BOX", "note": "ON 12/24 AND 12/31, THIS BOX MAY BE COLLECTED AS EARLY AS 12 NOON.", "ref": "0290300274"}, "type": "Feature"}
{"geometry": {"coordinates": [-71.4137360134, 41.8282739873], "type": "Point"}, "id": "O7HF4PPh7ijtBH9jEJKQt6hAV0k=", "properties": {"@spider": "usps_collection_boxes", "addr:city": "PROVIDENCE", "addr:country": "US", "addr:full": "15 PARK ROW W", "addr:postcode": "02903", "addr:state": "RI", "brand": "USPS", "brand:wikidata": "Q668687", "collection_times": "Mo-Fr 16:00; Sa 10:00", "name": "USPS COLLECTION BOX - BLUE BOX", "note": "ON 12/24 AND 12/31, THIS BOX MAY BE COLLECTED AS EARLY AS 12 NOON.", "ref": "0290300275"}, "type": "Feature"}
{"geometry": {"coordinates": [-71.409582172, 41.82306319], "type": "Point"}, "id": "anBKYit1MKyQZ03pw2L31Tt5Yeo=", "properties": {"@spider": "usps_collection_boxes", "addr:city": "PROVIDENCE", "addr:country": "US", "addr:full": "53 PINE ST", "addr:postcode": "02903", "addr:state": "RI", "brand": "USPS", "brand:wikidata": "Q668687", "collection_times": "Mo-Fr 16:15; Sa 10:00", "name": "USPS COLLECTION BOX - BLUE BOX", "note": "ON 12/24 AND 12/31, THIS BOX MAY BE COLLECTED AS EARLY AS 12 NOON.", "ref": "0290300276"}, "type": "Feature"}
{"geometry": {"coordinates": [-71.410821961, 41.8239280124], "type": "Point"}, "id": "B9WI58ENWvR_aZOJV__AdXv1XEk=", "properties": {"@spider": "usps_collection_boxes", "addr:city": "PROVIDENCE", "addr:country": "US", "addr:full": "144 WESTMINSTER ST", "addr:postcode": "02903", "addr:state": "RI", "brand": "USPS", "brand:wikidata": "Q668687", "collection_times": "Mo-Fr 17:00; Sa 10:00", "name": "USPS COLLECTION BOX - BLUE BOX", "note": "ON 12/24 AND 12/31, THIS BOX MAY BE COLLECTED AS EARLY AS 12 NOON.", "ref": "0290300277"}, "type": "Feature"}
{"geometry": {"coordinates": [-71.4068630205, 41.8165500098], "type": "Point"}, "id": "yrVARMiNEKw8gxKSpS7k7qKa-sc=", "properties": {"@spider": "usps_collection_boxes", "addr:city": "PROVIDENCE", "addr:country": "US", "addr:full": "10 DAVOL SQ", "addr:postcode": "02903", "addr:state": "RI", "brand": "USPS", "brand:wikidata": "Q668687", "collection_times": "Mo-Fr 12:00; Sa 10:00", "name": "USPS COLLECTION BOX - BLUE BOX", "ref": "0290300278"}, "type": "Feature"}
{"geometry": {"coordinates": [-71.4109249746, 41.8262220136], "type": "Point"}, "id": "9LUgXcvMDxP6rr0MUrzMfItzJT8=", "properties": {"@spider": "usps_collection_boxes", "addr:city": "PROVIDENCE", "addr:country": "US", "addr:full": "2 EXCHANGE TER", "addr:postcode": "02903", "addr:state": "RI", "brand": "USPS", "brand:wikidata": "Q668687", "collection_times": "Mo-Fr 12:00; Sa 09:45", "name": "USPS COLLECTION BOX - PO LOBBY", "ref": "0290300283"}, "type": "Feature"}
{"geometry": {"coordinates": [-71.4152870008, 41.8192999865], "type": "Point"}, "id": "bPik1KFRfxuFx1tPlXJngRsY4y4=", "properties": {"@spider": "usps_collection_boxes", "addr:city": "PROVIDENCE", "addr:country": "US", "addr:full": "53 BROAD ST", "addr:postcode": "02903", "addr:state": "RI", "brand": "USPS", "brand:wikidata": "Q668687", "collection_times": "Mo-Fr 17:00; Sa 14:15", "name": "USPS COLLECTION BOX - PO LOBBY", "note": "ON 12/24 AND 12/31, THIS BOX MAY BE COLLECTED AS EARLY AS 12 NOON.", "ref": "0290300284"}, "type": "Feature"}
{"geometry": {"coordinates": [-71.4198811, 41.850015], "type": "Point"}, "id": "Hi32IPPUk_fSNVo2HWiqnCSE2rA=", "properties": {"@spider": "usps_collection_boxes", "addr:city": "N PROVIDENCE", "addr:country": "US", "addr:full": "549 CHARLES ST", "addr:postcode": "02904", "addr:state": "RI", "brand": "USPS", "brand:wikidata": "Q668687", "collection_times": "Mo-Sa 12:00", "name": "USPS COLLECTION BOX - BLUE BOX", "ref": "0290400006"}, "type": "Feature"}
{"geometry": {"coordinates": [-71.4304339, 41.854054], "type": "Point"}, "id": "_MslOGU6B8UG0G16xsMEkg816YA=", "properties": {"@spider": "usps_collection_boxes", "addr:city": "N PROVIDENCE", "addr:country": "US", "addr:full": "754 BRANCH AVE", "addr:postcode": "02904", "addr:state": "RI", "brand": "USPS", "brand:wikidata": "Q668687", "collection_times": "Mo-Sa 12:00", "name": "USPS COLLECTION BOX - BLUE BOX", "ref": "0290400008"}, "type": "Feature"}
{"geometry": {"coordinates": [-71.4571639949, 41.8679299866], "type": "Point"}, "id": "3Z_ZSrKkd9vFqTjrH7LHnDBZtig=", "properties": {"@spider": "usps_collection_boxes", "addr:city": "N PROVIDENCE", "addr:country": "US", "addr:full": "6 BROOKFARM RD", "addr:postcode": "02904", "addr:state": "RI", "brand": "USPS", "brand:wikidata": "Q668687", "collection_times": "Mo-Sa 12:00", "name": "USPS COLLECTION BOX - BLUE BOX", "ref": "0290400009"}, "type": "Feature"}
{"geometry": {"coordinates": [-71.4232527, 41.863401], "type": "Point"}, "id": "NAehRJPvpXq0LilpYeaI5o6cz1M=", "properties": {"@spider": "usps_collection_boxes", "addr:city": "N PROVIDENCE", "addr:country": "US", "addr:full": "945 CHARLES ST", "addr:postcode": "02904", "addr:state": "RI", "brand": "USPS", "brand:wikidata": "Q668687", "collection_times": "Mo-Sa 12:00", "name": "USPS COLLECTION BOX - BLUE BOX", "ref": "0290400018"}, "type": "Feature"}
{"geometry": {"coordinates": [-71.4256556, 41.869491266], "type": "Point"}, "id": "ZZ89OAZI8vKxWPvXgnm8g8xartc=", "properties": {"@spider": "usps_collection_boxes", "addr:city": "N PROVIDENCE", "addr:country": "US", "addr:full": "1090 CHARLES ST", "addr:postcode": "02904", "addr:state": "RI", "brand": "USPS", "brand:wikidata": "Q668687", "collection_times": "Mo-Fr 15:00; Sa 12:00", "name": "USPS COLLECTION BOX - BLUE BOX", "note": "ON 12/24 AND 12/31, THIS BOX MAY BE COLLECTED AS EARLY AS 12 NOON.", "ref": "0290400020"}, "type": "Feature"}
{"geometry": {"coordinates": [-71.4274704, 41.871394], "type": "Point"}, "id": "y8-pSIhknMThcYhvovpa8AKtWf0=", "properties": {"@spider": "usps_collection_boxes", "addr:city": "N PROVIDENCE", "addr:country": "US", "addr:full": "1179 CHARLES ST", "addr:postcode": "02904", "addr:state": "RI", "brand": "USPS", "brand:wikidata": "Q668687", "collection_times": "Mo-Sa 12:00", "name": "USPS COLLECTION BOX - BLUE BOX", "ref": "0290400022"}, "type": "Feature"}
{"geometry": {"coordinates": [-71.4603047, 41.869262], "type": "Point"}, "id": "lkxutQKyYCRBBHRluJE47zsO96M=", "properties": {"@spider": "usps_collection_boxes", "addr:city": "N PROVIDENCE", "addr:country": "US", "addr:full": "12 DOUGLAS TER", "addr:postcode": "02904", "addr:state": "RI", "brand": "USPS", "brand:wikidata": "Q668687", "collection_times": "Mo-Sa 12:00", "name": "USPS COLLECTION BOX - BLUE BOX", "ref": "0290400028"}, "type": "Feature"}
{"geometry": {"coordinates": [-71.460499581, 41.856596922], "type": "Point"}, "id": "eGi7soPtGGFedTOcmpvjjkfFDlE=", "properties": {"@spider": "usps_collection_boxes", "addr:city": "N PROVIDENCE", "addr:country": "US", "addr:full": "200 HIGH SERVICE AVE", "addr:postcode": "02904", "addr:state": "RI", "brand": "USPS", "brand:wikidata": "Q668687", "collection_times": "Mo-Fr 17:00; Sa 12:00", "name": "USPS COLLECTION BOX - BLUE BOX", "note": "ON 12/24 AND 12/31, THIS BOX MAY BE COLLECTED AS EARLY AS 12 NOON.", "ref": "0290400029"}, "type": "Feature"}
{"geometry": {"coordinates": [-71.4282631, 41.867516], "type": "Point"}, "id": "QThT28ArAo7RTMZ706XdpKoPmeI=", "properties": {"@spider": "usps_collection_boxes", "addr:city": "N PROVIDENCE", "addr:country": "US", "addr:full": "1128 MINERAL SPRING AVE", "addr:postcode": "02904", "addr:state": "RI", "brand": "USPS", "brand:wikidata": "Q668687", "collection_times": "Mo-Sa 12:00", "name": "USPS COLLECTION BOX - BLUE BOX", "ref": "0290400035"}, "type": "Feature"}
{"geometry": {"coordinates": [-71.434862, 41.868113], "type": "Point"}, "id": "V98D3NGiL8f7ubIOqnZZ1UIqoxo=", "properties": {"@spider": "usps_collection_boxes", "addr:city": "N PROVIDENCE", "addr:country": "US", "addr:full": "1270 MINERAL SPRING AVE", "addr:postcode": "02904", "addr:state": "RI", "brand": "USPS", "brand:wikidata": "Q668687", "collection_times": "Mo-Sa 12:00", "name": "USPS COLLECTION BOX - BLUE BOX", "ref": "0290400036"}, "type": "Feature"}
{"geometry": {"coordinates": [-71.4399071, 41.866873], "type": "Point"}, "id": "2azuqCDX85lOkG_nUTDRk7N1UeY=", "properties": {"@spider": "usps_collection_boxes", "addr:city": "N PROVIDENCE", "addr:country": "US", "addr:full": "1388 MINERAL SPRING AVE", "addr:postcode": "02904", "addr:state": "RI", "brand": "USPS", "brand:wikidata": "Q668687", "collection_times": "Mo-Sa 12:00", "name": "USPS COLLECTION BOX - BLUE BOX", "ref": "0290400037"}, "type": "Feature"}
{"geometry": {"coordinates": [-71.4482431, 41.864508], "type": "Point"}, "id": "ohkeg2nJv7NNXwbpV73nwqhYypw=", "properties": {"@spider": "usps_collection_boxes", "addr:city": "N PROVIDENCE", "addr:country": "US", "addr:full": "1565 MINERAL SPRING AVE", "addr:postcode": "02904", "addr:state": "RI", "brand": "USPS", "brand:wikidata": "Q668687", "collection_times": "Mo-Sa 12:00", "name": "USPS COLLECTION BOX - BLUE BOX", "ref": "0290400038"}, "type": "Feature"}
{"geometry": {"coordinates": [-71.4681225, 41.861142], "type": "Point"}, "id": "t4Q9p-jPpWAHI08J3cFdbX2QGHQ=", "properties": {"@spider": "usps_collection_boxes", "addr:city": "N PROVIDENCE", "addr:country": "US", "addr:full": "1919 MINERAL SPRING AVE", "addr:postcode": "02904", "addr:state": "RI", "brand": "USPS", "brand:wikidata": "Q668687", "collection_times": "Mo-Sa 09:00", "name": "USPS COLLECTION BOX - BLUE BOX", "ref": "0290400045"}, "type": "Feature"}
{"geometry": {"coordinates": [-71.4097560343, 41.8388009872], "type": "Point"}, "id": "FZj0z9a_UgINR_zA7D1GmwAnYDY=", "properties": {"@spider": "usps_collection_boxes", "addr:city": "N PROVIDENCE", "addr:country": "US", "addr:full": "670 N MAIN ST", "addr:postcode": "02904", "addr:state": "RI", "brand": "USPS", "brand:wikidata": "Q668687", "collection_times": "Mo-Sa 12:00", "name": "USPS COLLECTION BOX - BLUE BOX", "ref": "0290400051"}, "type": "Feature"}
{"geometry": {"coordinates": [-71.404758, 41.846499], "type": "Point"}, "id": "uurKw_DdZ2b0v6lO-CypZPpHj1A=", "properties": {"@spider": "usps_collection_boxes", "addr:city": "N PROVIDENCE", "addr:country": "US", "addr:full": "951 N MAIN ST", "addr:postcode": "02904", "addr:state": "RI", "brand": "USPS", "brand:wikidata": "Q668687", "collection_times": "Mo-Fr 17:00; Sa 12:00", "name": "USPS COLLECTION BOX - BLUE BOX", "note": "ON 12/24 AND 12/31, THIS BOX MAY BE COLLECTED AS EARLY AS 12 NOON.", "ref": "0290400054"}, "type": "Feature"}
{"geometry": {"coordinates": [-71.4014746, 41.853008], "type": "Point"}, "id": "oysBSF-ypa2bNLyhlKVCZwou_AU=", "properties": {"@spider": "usps_collection_boxes", "addr:city": "N PROVIDENCE", "addr:country": "US", "addr:full": "1200 N MAIN ST", "addr:postcode": "02904", "addr:state": "RI", "brand": "USPS", "brand:wikidata": "Q668687", "collection_times": "Mo-Sa 12:00", "name": "USPS COLLECTION BOX - BLUE BOX", "ref": "0290400056"}, "type": "Feature"}
{"geometry": {"coordinates": [-71.4126252, 41.834757], "type": "Point"}, "id": "i7pZxjmcE64m3LfEiYt78espIqQ=", "properties": {"@spider": "usps_collection_boxes", "addr:city": "N PROVIDENCE", "addr:country": "US", "addr:full": "50 ORMS ST", "addr:postcode": "02904", "addr:state": "RI", "brand": "USPS", "brand:wikidata": "Q668687", "collection_times": "Mo-Sa 09:30", "name": "USPS COLLECTION BOX - BLUE BOX", "ref": "0290400059"}, "type": "Feature"}
{"geometry": {"coordinates": [-71.4343149, 41.856119], "type": "Point"}, "id": "97XWoSnAK1UAnQ2QyeKb2J9HBdI=", "properties": {"@spider": "usps_collection_boxes", "addr:city": "N PROVIDENCE", "addr:country": "US", "addr:full": "400 VEAZIE ST", "addr:postcode": "02904", "addr:state": "RI", "brand": "USPS", "brand:wikidata": "Q668687", "collection_times": "Mo-Sa 12:00", "name": "USPS COLLECTION BOX - BLUE BOX", "ref": "0290400065"}, "type": "Feature"}
{"geometry": {"coordinates": [-71.4510352, 41.865108], "type": "Point"}, "id": "4tJvNqMMHnxnNe_ExsHnclV4fAQ=", "properties": {"@spider": "usps_collection_boxes", "addr:city": "N PROVIDENCE", "addr:country": "US", "addr:full": "1637 MINERAL SPRING AVE", "addr:postcode": "02904", "addr:state": "RI", "brand": "USPS", "brand:wikidata": "Q668687", "collection_times": "Mo-Sa 12:00", "name": "USPS COLLECTION BOX - BLUE BOX", "ref": "0290400067"}, "type": "Feature"}
{"geometry": {"coordinates": [-71.4464331, 41.854344], "type": "Point"}, "id": "1umVWsChRaq46qwmU8NBAC1MuyM=", "properties": {"@spider": "usps_collection_boxes", "addr:city": "N PROVIDENCE", "addr:country": "US", "addr:full": "141 LUBEC ST", "addr:postcode": "02904", "addr:state": "RI", "brand": "USPS", "brand:wikidata": "Q668687", "collection_times": "Mo-Sa 12:00", "name": "USPS COLLECTION BOX - BLUE BOX", "ref": "0290400069"}, "type": "Feature"}
{"geometry": {"coordinates": [-71.4119265, 41.834457], "type": "Point"}, "id": "_cn3szXimlLLiS36aJFsPi5Rggo=", "properties": {"@spider": "usps_collection_boxes", "addr:city": "N PROVIDENCE", "addr:country": "US", "addr:full": "10 ORMS ST", "addr:postcode": "02904", "addr:state": "RI", "brand": "USPS", "brand:wikidata": "Q668687", "collection_times": "Mo-Fr 17:00; Sa 12:00", "name": "USPS COLLECTION BOX - BLUE BOX", "note": "ON 12/24 AND 12/31, THIS BOX MAY BE COLLECTED AS EARLY AS 12 NOON.", "ref": "0290400073"}, "type": "Feature"}
{"geometry": {"coordinates": [-71.452737272, 41.863417165], "type": "Point"}, "id": "5UKPCIcNs7ZGDCZtuKNGJSN7nqU=", "properties": {"@spider": "usps_collection_boxes", "addr:city": "N PROVIDENCE", "addr:country": "US", "addr:full": "1669 MINERAL SPRING AVE", "addr:postcode": "02904", "addr:state": "RI", "brand": "USPS", "brand:wikidata": "Q668687", "collection_times": "Mo-Fr 17:00; Sa 12:00", "name": "USPS COLLECTION BOX - BLUE BOX", "note": "ON 12/24 AND 12/31, THIS BOX MAY BE COLLECTED AS EARLY AS 12 NOON.", "ref": "0290400075"}, "type": "Feature"}
{"geometry": {"coordinates": [-71.413270139, 41.839848337], "type": "Point"}, "id": "ioa9EgfEP1NmVfvfMouhHP73nDQ=", "properties": {"@spider": "usps_collection_boxes", "addr:city": "N PROVIDENCE", "addr:country": "US", "addr:full": "55 CORLISS ST RM 100", "addr:postcode": "02904", "addr:state": "RI", "brand": "USPS", "brand:wikidata": "Q668687", "collection_times": "Mo-Sa 19:00", "name": "USPS COLLECTION BOX - PO LOBBY", "note": "ON 12/24 AND 12/31, THIS BOX MAY BE COLLECTED AS EARLY AS 12 NOON.", "ref": "0290400080"}, "type": "Feature"}
{"geometry": {"coordinates": [-71.405739, 41.791608], "type": "Point"}, "id": "3hOWQFYS64pHu5cRDqyz11Bwusc=", "properties": {"@spider": "usps_collection_boxes", "addr:city": "CRANSTON", "addr:country": "US", "addr:full": "1284 BROAD ST", "addr:postcode": "02905", "addr:state": "RI", "brand": "USPS", "brand:wikidata": "Q668687", "collection_times": "Mo-Fr 17:00; Sa 14:00", "name": "USPS COLLECTION BOX - BLUE BOX", "note": "ON 12/24 AND 12/31, THIS BOX MAY BE COLLECTED AS EARLY AS 12 NOON.", "ref": "0290500001"}, "type": "Feature"}
{"geometry": {"coordinates": [-71.3981363, 41.794804], "type": "Point"}, "id": "OI2aWIEwvduSROTRGVhDXStlJBg=", "properties": {"@spider": "usps_collection_boxes", "addr:city": "CRANSTON", "addr:country": "US", "addr:full": "695 ALLENS AVE", "addr:postcode": "02905", "addr:state": "RI", "brand": "USPS", "brand:wikidata": "Q668687", "collection_times": "Mo-Sa 12:00", "name": "USPS COLLECTION BOX - BLUE BOX", "ref": "0290500004"}, "type": "Feature"}
{"geometry": {"coordinates": [-71.4008172, 41.793746], "type": "Point"}, "id": "NjUn-ABMB7d0adfqDtWW3LK1ulw=", "properties": {"@spider": "usps_collection_boxes", "addr:city": "CRANSTON", "addr:country": "US", "addr:full": "76 BAKER ST", "addr:postcode": "02905", "addr:state": "RI", "brand": "USPS", "brand:wikidata": "Q668687", "collection_times": "Mo-Fr 12:00; Sa 11:00", "name": "USPS COLLECTION BOX - BLUE BOX", "ref": "0290500009"}, "type": "Feature"}
{"geometry": {"coordinates": [-71.4025827, 41.787049], "type": "Point"}, "id": "58plgkj0ZKd4IjwcMKopa7dibzE=", "properties": {"@spider": "usps_collection_boxes", "addr:city": "CRANSTON", "addr:country": "US", "addr:full": "1469 BROAD ST", "addr:postcode": "02905", "addr:state": "RI", "brand": "USPS", "brand:wikidata": "Q668687", "collection_times": "Mo-Sa 12:00", "name": "USPS COLLECTION BOX - BLUE BOX", "ref": "0290500020"}, "type": "Feature"}
{"geometry": {"coordinates": [-71.400186, 41.778315], "type": "Point"}, "id": "8dfP3Tfq1mwlquU-0OINUqGMsD8=", "properties": {"@spider": "usps_collection_boxes", "addr:city": "CRANSTON", "addr:country": "US", "addr:full": "1750 BROAD ST", "addr:postcode": "02905", "addr:state": "RI", "brand": "USPS", "brand:wikidata": "Q668687", "collection_times": "Mo-Sa 12:00", "name": "USPS COLLECTION BOX - BLUE BOX", "ref": "0290500021"}, "type": "Feature"}
{"geometry": {"coordinates": [-71.3906104, 41.765184], "type": "Point"}, "id": "kSctwm9wJZInMCDkYhiBRS8xM4o=", "properties": {"@spider": "usps_collection_boxes", "addr:city": "CRANSTON", "addr:country": "US", "addr:full": "2206 BROAD ST", "addr:postcode": "02905", "addr:state": "RI", "brand": "USPS", "brand:wikidata": "Q668687", "collection_times": "Mo-Fr 15:00; Sa 16:00", "name": "USPS COLLECTION BOX - BLUE BOX", "note": "ON 12/24 AND 12/31, THIS BOX MAY BE COLLECTED AS EARLY AS 12 NOON.", "ref": "0290500025"}, "type": "Feature"}
{"geometry": {"coordinates": [-71.410923299, 41.81024236], "type": "Point"}, "id": "bY4Ie8_m5qxYV8-RIRABR6S-O8c=", "properties": {"@spider": "usps_collection_boxes", "addr:city": "CRANSTON", "addr:country": "US", "addr:full": "100 DUDLEY ST", "addr:postcode": "02905", "addr:state": "RI", "brand": "USPS", "brand:wikidata": "Q668687", "collection_times": "Mo-Fr 16:30; Sa 12:00", "name": "USPS COLLECTION BOX - BLUE BOX", "note": "ON 12/24 AND 12/31, THIS BOX MAY BE COLLECTED AS EARLY AS 12 NOON.", "ref": "0290500029"}, "type": "Feature"}
{"geometry": {"coordinates": [-71.4067999, 41.803883], "type": "Point"}, "id": "o1sguWMYspyUPJvO26bfPXXl7Wg=", "properties": {"@spider": "usps_collection_boxes", "addr:city": "CRANSTON", "addr:country": "US", "addr:full": "880 EDDY ST", "addr:postcode": "02905", "addr:state": "RI", "brand": "USPS", "brand:wikidata": "Q668687", "collection_times": "Mo-Sa 11:00", "name": "USPS COLLECTION BOX - BLUE BOX", "ref": "0290500033"}, "type": "Feature"}
{"geometry": {"coordinates": [-71.4039299, 41.785987], "type": "Point"}, "id": "tcSYag8_Asp7EauS3R6vYOHgIUk=", "properties": {"@spider": "usps_collection_boxes", "addr:city": "CRANSTON", "addr:country": "US", "addr:full": "369 MONTGOMERY AVE", "addr:postcode": "02905", "addr:state": "RI", "brand": "USPS", "brand:wikidata": "Q668687", "collection_times": "Mo-Sa 12:00", "name": "USPS COLLECTION BOX - BLUE BOX", "ref": "0290500037"}, "type": "Feature"}
{"geometry": {"coordinates": [-71.3956677, 41.787616], "type": "Point"}, "id": "1OHdSABj1Qgagtmgg4HTy9Gxyg0=", "properties": {"@spider": "usps_collection_boxes", "addr:city": "CRANSTON", "addr:country": "US", "addr:full": "981 NARRAGANSETT BLVD", "addr:postcode": "02905", "addr:state": "RI", "brand": "USPS", "brand:wikidata": "Q668687", "collection_times": "Mo-Sa 12:00", "name": "USPS COLLECTION BOX - BLUE BOX", "ref": "0290500038"}, "type": "Feature"}
{"geometry": {"coordinates": [-71.3946611, 41.785148], "type": "Point"}, "id": "3aF2F_jhourB8nAdn2D8kK_8QYI=", "properties": {"@spider": "usps_collection_boxes", "addr:city": "CRANSTON", "addr:country": "US", "addr:full": "1040 NARRAGANSETT BLVD", "addr:postcode": "02905", "addr:state": "RI", "brand": "USPS", "brand:wikidata": "Q668687", "collection_times": "Mo-Sa 12:00", "name": "USPS COLLECTION BOX - BLUE BOX", "ref": "0290500039"}, "type": "Feature"}
{"geometry": {"coordinates": [-71.3932716, 41.780407], "type": "Point"}, "id": "c15GmaKAAKAe0R7nX-0J9HZUTTs=", "properties": {"@spider": "usps_collection_boxes", "addr:city": "CRANSTON", "addr:country": "US", "addr:full": "1185 NARRAGANSETT BLVD", "addr:postcode": "02905", "addr:state": "RI", "brand": "USPS", "brand:wikidata": "Q668687", "collection_times": "Mo-Sa 12:00", "name": "USPS COLLECTION BOX - BLUE BOX", "ref": "0290500040"}, "type": "Feature"}
{"geometry": {"coordinates": [-71.4045454, 41.773232], "type": "Point"}, "id": "AKuLUS55ZyiwHHPmPtboRo0ER_w=", "properties": {"@spider": "usps_collection_boxes", "addr:city": "CRANSTON", "addr:country": "US", "addr:full": "155 PARK AVE", "addr:postcode": "02905", "addr:state": "RI", "brand": "USPS", "brand:wikidata": "Q668687", "collection_times": "Mo-Sa 12:00", "name": "USPS COLLECTION BOX - BLUE BOX", "ref": "0290500047"}, "type": "Feature"}
{"geometry": {"coordinates": [-71.4150942, 41.81289], "type": "Point"}, "id": "h2lLIb4ifWLFiYYIIzcK2aPOHg0=", "properties": {"@spider": "usps_collection_boxes", "addr:city": "CRANSTON", "addr:country": "US", "addr:full": "50 PRAIRIE AVE", "addr:postcode": "02905", "addr:state": "RI", "brand": "USPS", "brand:wikidata": "Q668687", "collection_times": "Mo-Sa 11:00", "name": "USPS COLLECTION BOX - BLUE BOX", "ref": "0290500052"}, "type": "Feature"}
{"geometry": {"coordinates": [-71.4156183, 41.810605], "type": "Point"}, "id": "8cfA2saxciwyL5bfCz9BpIwnoeU=", "properties": {"@spider": "usps_collection_boxes", "addr:city": "CRANSTON", "addr:country": "US", "addr:full": "143 PRAIRIE AVE", "addr:postcode": "02905", "addr:state": "RI", "brand": "USPS", "brand:wikidata": "Q668687", "collection_times": "Mo-Sa 11:00", "name": "USPS COLLECTION BOX - BLUE BOX", "ref": "0290500053"}, "type": "Feature"}
{"geometry": {"coordinates": [-71.4014904, 41.776591], "type": "Point"}, "id": "DTk4RUXsUecS6iX8ehXpybwIhMA=", "properties": {"@spider": "usps_collection_boxes", "addr:city": "CRANSTON", "addr:country": "US", "addr:full": "39 WARWICK AVE", "addr:postcode": "02905", "addr:state": "RI", "brand": "USPS", "brand:wikidata": "Q668687", "collection_times": "Mo-Sa 12:00", "name": "USPS COLLECTION BOX - BLUE BOX", "ref": "0290500057"}, "type": "Feature"}
{"geometry": {"coordinates": [-71.4116324, 41.808707], "type": "Point"}, "id": "fyyVOaZ-bEQn1Qfq-bdNqn6YkxI=", "properties": {"@spider": "usps_collection_boxes", "addr:city": "CRANSTON", "addr:country": "US", "addr:full": "30 STANIFORD ST", "addr:postcode": "02905", "addr:state": "RI", "brand": "USPS", "brand:wikidata": "Q668687", "collection_times": "Mo-Fr 16:30; Sa 12:00", "name": "USPS COLLECTION BOX - BLUE BOX", "note": "ON 12/24 AND 12/31, THIS BOX MAY BE COLLECTED AS EARLY AS 12 NOON.", "ref": "0290500062"}, "type": "Feature"}
{"geometry": {"coordinates": [-71.4121065, 41.811012], "type": "Point"}, "id": "Wp2ELEW_67_GbLg1qe_Zlluz4AU=", "properties": {"@spider": "usps_collection_boxes", "addr:city": "CRANSTON", "addr:country": "US", "addr:full": "101 DUDLEY ST", "addr:postcode": "02905", "addr:state": "RI", "brand": "USPS", "brand:wikidata": "Q668687", "collection_times": "Mo-Fr 17:00; Sa 12:00", "name": "USPS COLLECTION BOX - BLUE BOX", "note": "ON 12/24 AND 12/31, THIS BOX MAY BE COLLECTED AS EARLY AS 12 NOON.", "ref": "0290500064"}, "type": "Feature"}
{"geometry": {"coordinates": [-71.4123045, 41.809797], "type": "Point"}, "id": "lLzTxWseN6pX6YUI8_gQsdou5i4=", "properties": {"@spider": "usps_collection_boxes", "addr:city": "CRANSTON", "addr:country": "US", "addr:full": "120 DUDLEY ST", "addr:postcode": "02905", "addr:state": "RI", "brand": "USPS", "brand:wikidata": "Q668687", "collection_times": "Mo-Fr 17:00; Sa 12:00", "name": "USPS COLLECTION BOX - BLUE BOX", "note": "ON 12/24 AND 12/31, THIS BOX MAY BE COLLECTED AS EARLY AS 12 NOON.", "ref": "0290500066"}, "type": "Feature"}
{"geometry": {"coordinates": [-71.4048037, 41.799359], "type": "Point"}, "id": "LB8tjicRHUZjBKKyASTYgdV59YM=", "properties": {"@spider": "usps_collection_boxes", "addr:city": "CRANSTON", "addr:country": "US", "addr:full": "21 BLUNDELL ST", "addr:postcode": "02905", "addr:state": "RI", "brand": "USPS", "brand:wikidata": "Q668687", "collection_times": "Mo-Fr 16:30; Sa 12:00", "name": "USPS COLLECTION BOX - BLUE BOX", "note": "ON 12/24 AND 12/31, THIS BOX MAY BE COLLECTED AS EARLY AS 12 NOON.", "ref": "0290500067"}, "type": "Feature"}
{"geometry": {"coordinates": [-71.4110942, 41.772167], "type": "Point"}, "id": "brOqvm0Kyh_aketptqwY3JiHbJs=", "properties": {"@spider": "usps_collection_boxes", "addr:city": "CRANSTON", "addr:country": "US", "addr:full": "285 PARK AVE", "addr:postcode": "02905", "addr:state": "RI", "brand": "USPS", "brand:wikidata": "Q668687", "collection_times": "Mo-Sa 12:00", "name": "USPS COLLECTION BOX - BLUE BOX", "ref": "0290500069"}, "type": "Feature"}
{"geometry": {"coordinates": [-71.405739, 41.791608], "type": "Point"}, "id": "MaLWaPg-Arn_bj8XX-uwe__y_z8=", "properties": {"@spider": "usps_collection_boxes", "addr:city": "CRANSTON", "addr:country": "US", "addr:full": "1284 BROAD ST", "addr:postcode": "02905", "addr:state": "RI", "brand": "USPS", "brand:wikidata": "Q668687", "collection_times": "Mo-Fr 17:30; Sa 14:15", "name": "USPS COLLECTION BOX - PO LOBBY", "note": "ON 12/24 AND 12/31, THIS BOX MAY BE COLLECTED AS EARLY AS 12 NOON.", "ref": "0290500073"}, "type": "Feature"}
{"geometry": {"coordinates": [-71.388198, 41.829948], "type": "Point"}, "id": "iioo2GGsPm9ZTDPGNUulUzt-9fQ=", "properties": {"@spider": "usps_collection_boxes", "addr:city": "PROVIDENCE", "addr:country": "US", "addr:full": "210 WAYLAND AVE", "addr:postcode": "02906", "addr:state": "RI", "brand": "USPS", "brand:wikidata": "Q668687", "collection_times": "Mo-Fr 15:30; Sa 12:00", "name": "USPS COLLECTION BOX - BLUE BOX", "note": "ON 12/24 AND 12/31, THIS BOX MAY BE COLLECTED AS EARLY AS 12 NOON.", "ref": "0290600008"}, "type": "Feature"}
{"geometry": {"coordinates": [-71.3855378, 41.838296], "type": "Point"}, "id": "IVjAdUZXhOTKfRQtaBmV1yIFI5o=", "properties": {"@spider": "usps_collection_boxes", "addr:city": "PROVIDENCE", "addr:country": "US", "addr:full": "170 BLACKSTONE BLVD", "addr:postcode": "02906", "addr:state": "RI", "brand": "USPS", "brand:wikidata": "Q668687", "collection_times": "Mo-Sa 12:00", "name": "USPS COLLECTION BOX - BLUE BOX", "ref": "0290600012"}, "type": "Feature"}
{"geometry": {"coordinates": [-71.3836324, 41.834307], "type": "Point"}, "id": "FoaICgeu7JuVUdyT9mWkv3BRVe4=", "properties": {"@spider": "usps_collection_boxes", "addr:city": "PROVIDENCE", "addr:country": "US", "addr:full": "41 BLACKSTONE BLVD", "addr:postcode": "02906", "addr:state": "RI", "brand": "USPS", "brand:wikidata": "Q668687", "collection_times": "Mo-Sa 12:00", "name": "USPS COLLECTION BOX - BLUE BOX", "ref": "0290600016"}, "type": "Feature"}
{"geometry": {"coordinates": [-71.3860474, 41.843019], "type": "Point"}, "id": "klptjDUuE7_w8wrrjmX4rJ0da6o=", "properties": {"@spider": "usps_collection_boxes", "addr:city": "PROVIDENCE", "addr:country": "US", "addr:full": "265 BLACKSTONE BLVD", "addr:postcode": "02906", "addr:state": "RI", "brand": "USPS", "brand:wikidata": "Q668687", "collection_times": "Mo-Sa 12:00", "name": "USPS COLLECTION BOX - BLUE BOX", "ref": "0290600019"}, "type": "Feature"}
{"geometry": {"coordinates": [-71.380251, 41.842386], "type": "Point"}, "id": "NCJ_-ytCJml3IGJfUoyssfqlRbk=", "properties": {"@spider": "usps_collection_boxes", "addr:city": "PROVIDENCE", "addr:country": "US", "addr:full": "345 BLACKSTONE BLVD", "addr:postcode": "02906", "addr:state": "RI", "brand": "USPS", "brand:wikidata": "Q668687", "collection_times": "Mo-Fr 16:00; Sa 12:00", "name": "USPS COLLECTION BOX - BLUE BOX", "note": "ON 12/24 AND 12/31, THIS BOX MAY BE COLLECTED AS EARLY AS 12 NOON.", "ref": "0290600022"}, "type": "Feature"}
{"geometry": {"coordinates": [-71.3924144, 41.843582], "type": "Point"}, "id": "-5rsdkbyfIQ7Ht-XObqRqQ0t8k0=", "properties": {"@spider": "usps_collection_boxes", "addr:city": "PROVIDENCE", "addr:country": "US", "addr:full": "451 ELMGROVE AVE", "addr:postcode": "02906", "addr:state": "RI", "brand": "USPS", "brand:wikidata": "Q668687", "collection_times": "Mo-Sa 12:00", "name": "USPS COLLECTION BOX - BLUE BOX", "ref": "0290600053"}, "type": "Feature"}
{"geometry": {"coordinates": [-71.3978927, 41.851234], "type": "Point"}, "id": "fCHpBqJPH_qSgXXzbpFm9M3az64=", "properties": {"@spider": "usps_collection_boxes", "addr:city": "PROVIDENCE", "addr:country": "US", "addr:full": "160 SUMMIT AVE", "addr:postcode": "02906", "addr:state": "RI", "brand": "USPS", "brand:wikidata": "Q668687", "collection_times": "Mo-Sa 12:00", "name": "USPS COLLECTION BOX - BLUE BOX", "ref": "0290600055"}, "type": "Feature"}
{"geometry": {"coordinates": [-71.3900699613, 41.8226320026], "type": "Point"}, "id": "FbMt57wV2VnPiU2bC-KdXCC9QLM=", "properties": {"@spider": "usps_collection_boxes", "addr:city": "PROVIDENCE", "addr:country": "US", "addr:full": "118 GANO ST", "addr:postcode": "02906", "addr:state": "RI", "brand": "USPS", "brand:wikidata": "Q668687", "collection_times": "Mo-Sa 12:00", "name": "USPS COLLECTION BOX - BLUE BOX", "ref": "0290600056"}, "type": "Feature"}
{"geometry": {"coordinates": [-71.3936157, 41.82033], "type": "Point"}, "id": "yc-_70djMte76BQcseFbBHckp0k=", "properties": {"@spider": "usps_collection_boxes", "addr:city": "PROVIDENCE", "addr:country": "US", "addr:full": "3 GOVERNOR ST", "addr:postcode": "02906", "addr:state": "RI", "brand": "USPS", "brand:wikidata": "Q668687", "collection_times": "Mo-Sa 12:00", "name": "USPS COLLECTION BOX - BLUE BOX", "ref": "0290600057"}, "type": "Feature"}
{"geometry": {"coordinates": [-71.4008731, 41.84971], "type": "Point"}, "id": "ikUSeG8m-URqJ-aK-gbnShuP4pM=", "properties": {"@spider": "usps_collection_boxes", "addr:city": "PROVIDENCE", "addr:country": "US", "addr:full": "100 HIGHLAND AVE", "addr:postcode": "02906", "addr:state": "RI", "brand": "USPS", "brand:wikidata": "Q668687", "collection_times": "Mo-Sa 12:00", "name": "USPS COLLECTION BOX - BLUE BOX", "ref": "0290600060"}, "type": "Feature"}
{"geometry": {"coordinates": [-71.3966611, 41.821936], "type": "Point"}, "id": "3dux9prpmunkHBvSE2QcN8QkzlE=", "properties": {"@spider": "usps_collection_boxes", "addr:city": "PROVIDENCE", "addr:country": "US", "addr:full": "98 HOPE ST", "addr:postcode": "02906", "addr:state": "RI", "brand": "USPS", "brand:wikidata": "Q668687", "collection_times": "Mo-Sa 12:00", "name": "USPS COLLECTION BOX - BLUE BOX", "ref": "0290600071"}, "type": "Feature"}
{"geometry": {"coordinates": [-71.401474, 41.835785], "type": "Point"}, "id": "1rbdXJcbV51HMzaG2oZlKVBColQ=", "properties": {"@spider": "usps_collection_boxes", "addr:city": "PROVIDENCE", "addr:country": "US", "addr:full": "355 HOPE ST", "addr:postcode": "02906", "addr:state": "RI", "brand": "USPS", "brand:wikidata": "Q668687", "collection_times": "Mo-Sa 12:00", "name": "USPS COLLECTION BOX - BLUE BOX", "ref": "0290600077"}, "type": "Feature"}
{"geometry": {"coordinates": [-71.3961044, 41.847017], "type": "Point"}, "id": "CphruLVUCPaVNf0t2-kMc0avJzI=", "properties": {"@spider": "usps_collection_boxes", "addr:city": "PROVIDENCE", "addr:country": "US", "addr:full": "736 HOPE ST", "addr:postcode": "02906", "addr:state": "RI", "brand": "USPS", "brand:wikidata": "Q668687", "collection_times": "Mo-Sa 12:00", "name": "USPS COLLECTION BOX - BLUE BOX", "ref": "0290600079"}, "type": "Feature"}
{"geometry": {"coordinates": [-71.3905856, 41.852145], "type": "Point"}, "id": "DyU35Th_IpzTXcnurT2Y-OcHEQs=", "properties": {"@spider": "usps_collection_boxes", "addr:city": "PROVIDENCE", "addr:country": "US", "addr:full": "247 8TH ST", "addr:postcode": "02906", "addr:state": "RI", "brand": "USPS", "brand:wikidata": "Q668687", "collection_times": "Mo-Sa 12:00", "name": "USPS COLLECTION BOX - BLUE BOX", "ref": "0290600092"}, "type": "Feature"}
{"geometry": {"coordinates": [-71.3942237, 41.823214], "type": "Point"}, "id": "joGaywGEdjOIDh_D9zFwybhgcZk=", "properties": {"@spider": "usps_collection_boxes", "addr:city": "PROVIDENCE", "addr:country": "US", "addr:full": "100 GOVERNOR ST", "addr:postcode": "02906", "addr:state": "RI", "brand": "USPS", "brand:wikidata": "Q668687", "collection_times": "Mo-Sa 12:00", "name": "USPS COLLECTION BOX - BLUE BOX", "ref": "0290600103"}, "type": "Feature"}
{"geometry": {"coordinates": [-71.382572266, 41.827515152], "type": "Point"}, "id": "hp-vD_MXDmMmhiCK615g1fvqsaw=", "properties": {"@spider": "usps_collection_boxes", "addr:city": "PROVIDENCE", "addr:country": "US", "addr:full": "1 RICHMOND SQ", "addr:postcode": "02906", "addr:state": "RI", "brand": "USPS", "brand:wikidata": "Q668687", "collection_times": "Mo-Fr 15:00; Sa 12:00", "name": "USPS COLLECTION BOX - BLUE BOX", "note": "ON 12/24 AND 12/31, THIS BOX MAY BE COLLECTED AS EARLY AS 12 NOON.", "ref": "0290600110"}, "type": "Feature"}
{"geometry": {"coordinates": [-71.382572266, 41.827515152], "type": "Point"}, "id": "JEq32hh4KuY0iRk8UUYoJwbeJOY=", "properties": {"@spider": "usps_collection_boxes", "addr:city": "PROVIDENCE", "addr:country": "US", "addr:full": "1 RICHMOND SQ", "addr:postcode": "02906", "addr:state": "RI", "brand": "USPS", "brand:wikidata": "Q668687", "collection_times": "Mo-Fr 15:00; Sa 12:00", "name": "USPS COLLECTION BOX - BLUE BOX", "note": "ON 12/24 AND 12/31, THIS BOX MAY BE COLLECTED AS EARLY AS 12 NOON.", "ref": "0290600111"}, "type": "Feature"}
{"geometry": {"coordinates": [-71.3960591, 41.841126], "type": "Point"}, "id": "ke-GmkjY5TmAbpnLFszSuWDui50=", "properties": {"@spider": "usps_collection_boxes", "addr:city": "PROVIDENCE", "addr:country": "US", "addr:full": "30 SESSIONS ST", "addr:postcode": "02906", "addr:state": "RI", "brand": "USPS", "brand:wikidata": "Q668687", "collection_times": "Mo-Sa 12:00", "name": "USPS COLLECTION BOX - BLUE BOX", "ref": "0290600113"}, "type": "Feature"}
{"geometry": {"coordinates": [-71.398656, 41.852106], "type": "Point"}, "id": "5OdL5yLevFyA84nb1b0oPjUsIV4=", "properties": {"@spider": "usps_collection_boxes", "addr:city": "PROVIDENCE", "addr:country": "US", "addr:full": "164 SUMMIT AVE", "addr:postcode": "02906", "addr:state": "RI", "brand": "USPS", "brand:wikidata": "Q668687", "collection_times": "Mo-Fr 16:00; Sa 12:00", "name": "USPS COLLECTION BOX - BLUE BOX", "note": "ON 12/24 AND 12/31, THIS BOX MAY BE COLLECTED AS EARLY AS 12 NOON.", "ref": "0290600119"}, "type": "Feature"}
{"geometry": {"coordinates": [-71.3954073, 41.827785], "type": "Point"}, "id": "UAm1LBAnoUTrOgc9jcTImwOTtZ8=", "properties": {"@spider": "usps_collection_boxes", "addr:city": "PROVIDENCE", "addr:country": "US", "addr:full": "154 WATERMAN ST", "addr:postcode": "02906", "addr:state": "RI", "brand": "USPS", "brand:wikidata": "Q668687", "collection_times": "Mo-Sa 12:00", "name": "USPS COLLECTION BOX - BLUE BOX", "ref": "0290600128"}, "type": "Feature"}
{"geometry": {"coordinates": [-71.3909311, 41.828122], "type": "Point"}, "id": "akDzAL_9SdXIN24583FPjPWM5TU=", "properties": {"@spider": "usps_collection_boxes", "addr:city": "PROVIDENCE", "addr:country": "US", "addr:full": "201 WATERMAN ST", "addr:postcode": "02906", "addr:state": "RI", "brand": "USPS", "brand:wikidata": "Q668687", "collection_times": "Mo-Sa 12:00", "name": "USPS COLLECTION BOX - BLUE BOX", "ref": "0290600129"}, "type": "Feature"}
{"geometry": {"coordinates": [-71.3937939, 41.827602], "type": "Point"}, "id": "huVPeLGyhIctnIHE8DXE7nDsCmo=", "properties": {"@spider": "usps_collection_boxes", "addr:city": "PROVIDENCE", "addr:country": "US", "addr:full": "165 WATERMAN ST", "addr:postcode": "02906", "addr:state": "RI", "brand": "USPS", "brand:wikidata": "Q668687", "collection_times": "Mo-Sa 12:00", "name": "USPS COLLECTION BOX - BLUE BOX", "ref": "0290600133"}, "type": "Feature"}
{"geometry": {"coordinates": [-71.3872305, 41.827896], "type": "Point"}, "id": "uBSNTwnJEsFR7WoFr-ZaVkkdSH0=", "properties": {"@spider": "usps_collection_boxes", "addr:city": "PROVIDENCE", "addr:country": "US", "addr:full": "245 WATERMAN ST", "addr:postcode": "02906", "addr:state": "RI", "brand": "USPS", "brand:wikidata": "Q668687", "collection_times": "Mo-Fr 15:00; Sa 12:00", "name": "USPS COLLECTION BOX - BLUE BOX", "note": "ON 12/24 AND 12/31, THIS BOX MAY BE COLLECTED AS EARLY AS 12 NOON.", "ref": "0290600140"}, "type": "Feature"}
{"geometry": {"coordinates": [-71.388377119, 41.828753724], "type": "Point"}, "id": "te_ZK9p8fFmJZBH0nM-Efkp7SDs=", "properties": {"@spider": "usps_collection_boxes", "addr:city": "PROVIDENCE", "addr:country": "US", "addr:full": "172 WAYLAND AVE", "addr:postcode": "02906", "addr:state": "RI", "brand": "USPS", "brand:wikidata": "Q668687", "collection_times": "Mo-Fr 15:30; Sa 12:00", "name": "USPS COLLECTION BOX - BLUE BOX", "note": "ON 12/24 AND 12/31, THIS BOX MAY BE COLLECTED AS EARLY AS 12 NOON.", "ref": "0290600149"}, "type": "Feature"}
{"geometry": {"coordinates": [-71.388284625, 41.831524216], "type": "Point"}, "id": "pWCMWmSqU_ZgVTYxGVARwTSbIhg=", "properties": {"@spider": "usps_collection_boxes", "addr:city": "PROVIDENCE", "addr:country": "US", "addr:full": "266 WAYLAND AVE", "addr:postcode": "02906", "addr:state": "RI", "brand": "USPS", "brand:wikidata": "Q668687", "collection_times": "Mo-Sa 12:00", "name": "USPS COLLECTION BOX - BLUE BOX", "ref": "0290600151"}, "type": "Feature"}
{"geometry": {"coordinates": [-71.386452, 41.825466], "type": "Point"}, "id": "eEGu3CWiwH3gTXM5gb9BB9rHOa4=", "properties": {"@spider": "usps_collection_boxes", "addr:city": "PROVIDENCE", "addr:country": "US", "addr:full": "165 PITMAN ST", "addr:postcode": "02906", "addr:state": "RI", "brand": "USPS", "brand:wikidata": "Q668687", "collection_times": "Mo-Fr 17:00; Sa 16:00", "name": "USPS COLLECTION BOX - BLUE BOX", "note": "ON 12/24 AND 12/31, THIS BOX MAY BE COLLECTED AS EARLY AS 12 NOON.", "ref": "0290600152"}, "type": "Feature"}
{"geometry": {"coordinates": [-71.3950321, 41.849221], "type": "Point"}, "id": "jR3Epd5jsQXMc-qMd5K-aAF3_NA=", "properties": {"@spider": "usps_collection_boxes", "addr:city": "PROVIDENCE", "addr:country": "US", "addr:full": "814 HOPE ST", "addr:postcode": "02906", "addr:state": "RI", "brand": "USPS", "brand:wikidata": "Q668687", "collection_times": "Mo-Sa 12:00", "name": "USPS COLLECTION BOX - BLUE BOX", "ref": "0290600163"}, "type": "Feature"}
{"geometry": {"coordinates": [-71.4014955, 41.830452], "type": "Point"}, "id": "9fbKH8pcx2RUNZIAc4742MmCcDs=", "properties": {"@spider": "usps_collection_boxes", "addr:city": "PROVIDENCE", "addr:country": "US", "addr:full": "306 THAYER ST", "addr:postcode": "02906", "addr:state": "RI", "brand": "USPS", "brand:wikidata": "Q668687", "collection_times": "Mo-Fr 17:00; Sa 14:00", "name": "USPS COLLECTION BOX - PO LOBBY", "note": "ON 12/24 AND 12/31, THIS BOX MAY BE COLLECTED AS EARLY AS 12 NOON.", "ref": "0290600164"}, "type": "Feature"}
{"geometry": {"coordinates": [-71.4014955, 41.830452], "type": "Point"}, "id": "E41XcfyDoCdyw2XzRS2UMNEddJU=", "properties": {"@spider": "usps_collection_boxes", "addr:city": "PROVIDENCE", "addr:country": "US", "addr:full": "306 THAYER ST", "addr:postcode": "02906", "addr:state": "RI", "brand": "USPS", "brand:wikidata": "Q668687", "collection_times": "Mo-Fr 17:00; Sa 14:00", "name": "USPS COLLECTION BOX - EXPRESS", "note": "ON 12/24 AND 12/31, THIS BOX MAY BE COLLECTED AS EARLY AS 12 NOON.", "ref": "0290600166"}, "type": "Feature"}
{"geometry": {"coordinates": [-71.4014955, 41.830452], "type": "Point"}, "id": "FYq7hOozuGXjFVY0b1zPw2Rboww=", "properties": {"@spider": "usps_collection_boxes", "addr:city": "PROVIDENCE", "addr:country": "US", "addr:full": "306 THAYER ST", "addr:postcode": "02906", "addr:state": "RI", "brand": "USPS", "brand:wikidata": "Q668687", "collection_times": "Mo-Fr 17:00; Sa 14:00", "name": "USPS COLLECTION BOX - BLUE BOX", "note": "ON 12/24 AND 12/31, THIS BOX MAY BE COLLECTED AS EARLY AS 12 NOON.", "ref": "0290600167"}, "type": "Feature"}
{"geometry": {"coordinates": [-71.4004983, 41.827394], "type": "Point"}, "id": "ln8pujiYwywnUa1BE2lqnjp2J4w=", "properties": {"@spider": "usps_collection_boxes", "addr:city": "PROVIDENCE", "addr:country": "US", "addr:full": "215 THAYER ST", "addr:postcode": "02906", "addr:state": "RI", "brand": "USPS", "brand:wikidata": "Q668687", "collection_times": "Mo-Sa 12:00", "name": "USPS COLLECTION BOX - BLUE BOX", "ref": "0290600169"}, "type": "Feature"}
{"geometry": {"coordinates": [-71.3907779, 41.834354], "type": "Point"}, "id": "yIGNhRDnvwdBY7c92dkVwpuoZHs=", "properties": {"@spider": "usps_collection_boxes", "addr:city": "PROVIDENCE", "addr:country": "US", "addr:full": "131 ELMGROVE AVE", "addr:postcode": "02906", "addr:state": "RI", "brand": "USPS", "brand:wikidata": "Q668687", "collection_times": "Mo-Sa 12:00", "name": "USPS COLLECTION BOX - BLUE BOX", "ref": "0290600170"}, "type": "Feature"}
{"geometry": {"coordinates": [-71.4014955, 41.830452], "type": "Point"}, "id": "e3dmifK5w7qJ5bTSSnHA6bE8hSQ=", "properties": {"@spider": "usps_collection_boxes", "addr:city": "PROVIDENCE", "addr:country": "US", "addr:full": "306 THAYER ST", "addr:postcode": "02906", "addr:state": "RI", "brand": "USPS", "brand:wikidata": "Q668687", "collection_times": "Mo-Fr 17:00; Sa 12:00", "name": "USPS COLLECTION BOX - PO LOBBY", "note": "ON 12/24 AND 12/31, THIS BOX MAY BE COLLECTED AS EARLY AS 12 NOON.", "ref": "0290600176"}, "type": "Feature"}
{"geometry": {"coordinates": [-71.4255716, 41.796582], "type": "Point"}, "id": "feBJwETKJ0Pl6_zrkUE_oDtIK3g=", "properties": {"@spider": "usps_collection_boxes", "addr:city": "CRANSTON", "addr:country": "US", "addr:full": "569 ELMWOOD AVE", "addr:postcode": "02907", "addr:state": "RI", "brand": "USPS", "brand:wikidata": "Q668687", "collection_times": "Mo-Sa 11:00", "name": "USPS COLLECTION BOX - BLUE BOX", "ref": "0290700002"}, "type": "Feature"}
{"geometry": {"coordinates": [-71.4220433, 41.813187], "type": "Point"}, "id": "pXfo4eWymVQSA4MQ4ku8pgxOMB4=", "properties": {"@spider": "usps_collection_boxes", "addr:city": "CRANSTON", "addr:country": "US", "addr:full": "369 BROAD ST", "addr:postcode": "02907", "addr:state": "RI", "brand": "USPS", "brand:wikidata": "Q668687", "collection_times": "Mo-Sa 12:00", "name": "USPS COLLECTION BOX - BLUE BOX", "ref": "0290700005"}, "type": "Feature"}
{"geometry": {"coordinates": [-71.4209343, 41.809889], "type": "Point"}, "id": "_wSV6Du1DIKw3-CN7l0p6Gfq6H0=", "properties": {"@spider": "usps_collection_boxes", "addr:city": "CRANSTON", "addr:country": "US", "addr:full": "522 BROAD ST", "addr:postcode": "02907", "addr:state": "RI", "brand": "USPS", "brand:wikidata": "Q668687", "collection_times": "Mo-Sa 11:00", "name": "USPS COLLECTION BOX - BLUE BOX", "ref": "0290700006"}, "type": "Feature"}
{"geometry": {"coordinates": [-71.4184757, 41.801835], "type": "Point"}, "id": "NLq9_eZQefzDxc5aagm2QBlxbeM=", "properties": {"@spider": "usps_collection_boxes", "addr:city": "CRANSTON", "addr:country": "US", "addr:full": "808 BROAD ST", "addr:postcode": "02907", "addr:state": "RI", "brand": "USPS", "brand:wikidata": "Q668687", "collection_times": "Mo-Sa 11:00", "name": "USPS COLLECTION BOX - BLUE BOX", "ref": "0290700007"}, "type": "Feature"}
{"geometry": {"coordinates": [-71.4176930261, 41.8002169914], "type": "Point"}, "id": "zs88yqVvn_y0R7Qmtev0Ubcu4ag=", "properties": {"@spider": "usps_collection_boxes", "addr:city": "CRANSTON", "addr:country": "US", "addr:full": "863 BROAD ST", "addr:postcode": "02907", "addr:state": "RI", "brand": "USPS", "brand:wikidata": "Q668687", "collection_times": "Mo-Sa 11:00", "name": "USPS COLLECTION BOX - BLUE BOX", "ref": "0290700008"}, "type": "Feature"}
{"geometry": {"coordinates": [-71.4255404, 41.814728], "type": "Point"}, "id": "zEVRbOgkoZH9N-pPFCp4aQrffR8=", "properties": {"@spider": "usps_collection_boxes", "addr:city": "CRANSTON", "addr:country": "US", "addr:full": "160 CRANSTON ST", "addr:postcode": "02907", "addr:state": "RI", "brand": "USPS", "brand:wikidata": "Q668687", "collection_times": "Mo-Sa 12:00", "name": "USPS COLLECTION BOX - BLUE BOX", "ref": "0290700011"}, "type": "Feature"}
{"geometry": {"coordinates": [-71.425245037, 41.8137409826], "type": "Point"}, "id": "b5D1WxDhGgokooJZ5NDKVjkaki8=", "properties": {"@spider": "usps_collection_boxes", "addr:city": "CRANSTON", "addr:country": "US", "addr:full": "135 DODGE ST", "addr:postcode": "02907", "addr:state": "RI", "brand": "USPS", "brand:wikidata": "Q668687", "collection_times": "Mo-Sa 12:00", "name": "USPS COLLECTION BOX - BLUE BOX", "ref": "0290700016"}, "type": "Feature"}
{"geometry": {"coordinates": [-71.4375438, 41.80077], "type": "Point"}, "id": "_u5brvmv3LAlM0O_pBn97xg5jrk=", "properties": {"@spider": "usps_collection_boxes", "addr:city": "CRANSTON", "addr:country": "US", "addr:full": "1 DUPONT DR", "addr:postcode": "02907", "addr:state": "RI", "brand": "USPS", "brand:wikidata": "Q668687", "collection_times": "Mo-Fr 17:00; Sa 11:00", "name": "USPS COLLECTION BOX - BLUE BOX", "note": "ON 12/24 AND 12/31, THIS BOX MAY BE COLLECTED AS EARLY AS 12 NOON.", "ref": "0290700018"}, "type": "Feature"}
{"geometry": {"coordinates": [-71.4345009, 41.799384], "type": "Point"}, "id": "3sdBa8KD2nr_2t2rCQ-BOOyM6aE=", "properties": {"@spider": "usps_collection_boxes", "addr:city": "CRANSTON", "addr:country": "US", "addr:full": "125 DUPONT DR", "addr:postcode": "02907", "addr:state": "RI", "brand": "USPS", "brand:wikidata": "Q668687", "collection_times": "Mo-Sa 11:00", "name": "USPS COLLECTION BOX - BLUE BOX", "ref": "0290700020"}, "type": "Feature"}
{"geometry": {"coordinates": [-71.421841787, 41.790232759], "type": "Point"}, "id": "yep5mlgFm5pWQXmmx-rvl3419Ys=", "properties": {"@spider": "usps_collection_boxes", "addr:city": "CRANSTON", "addr:country": "US", "addr:full": "820 ELMWOOD AVE", "addr:postcode": "02907", "addr:state": "RI", "brand": "USPS", "brand:wikidata": "Q668687", "collection_times": "Mo-Sa 17:00", "name": "USPS COLLECTION BOX - EXPRESS", "note": "ON 12/24 AND 12/31, THIS BOX MAY BE COLLECTED AS EARLY AS 12 NOON.", "ref": "0290700027"}, "type": "Feature"}
{"geometry": {"coordinates": [-71.4207413, 41.778968], "type": "Point"}, "id": "WlDfCPXYgPUc6XUT9ibHefD9GmA=", "properties": {"@spider": "usps_collection_boxes", "addr:city": "CRANSTON", "addr:country": "US", "addr:full": "1201 ELMWOOD AVE", "addr:postcode": "02907", "addr:state": "RI", "brand": "USPS", "brand:wikidata": "Q668687", "collection_times": "Mo-Sa 11:00", "name": "USPS COLLECTION BOX - BLUE BOX", "ref": "0290700028"}, "type": "Feature"}
{"geometry": {"coordinates": [-71.440216038, 41.798051988], "type": "Point"}, "id": "A_6CqfcqObRz9OCIMUcU1C70ZGg=", "properties": {"@spider": "usps_collection_boxes", "addr:city": "CRANSTON", "addr:country": "US", "addr:full": "1 HARRY ST", "addr:postcode": "02907", "addr:state": "RI", "brand": "USPS", "brand:wikidata": "Q668687", "collection_times": "Mo-Fr 17:00; Sa 11:00", "name": "USPS COLLECTION BOX - BLUE BOX", "note": "ON 12/24 AND 12/31, THIS BOX MAY BE COLLECTED AS EARLY AS 12 NOON.", "ref": "0290700030"}, "type": "Feature"}
{"geometry": {"coordinates": [-71.4216404, 41.809389], "type": "Point"}, "id": "0ExInjcUncXe6HxmZCKgnbLLcrQ=", "properties": {"@spider": "usps_collection_boxes", "addr:city": "CRANSTON", "addr:country": "US", "addr:full": "9 PARKIS AVE", "addr:postcode": "02907", "addr:state": "RI", "brand": "USPS", "brand:wikidata": "Q668687", "collection_times": "Mo-Sa 11:00", "name": "USPS COLLECTION BOX - BLUE BOX", "ref": "0290700032"}, "type": "Feature"}
{"geometry": {"coordinates": [-71.4221786, 41.806653], "type": "Point"}, "id": "pIW_-iHM5CxRi5zg2rOIFh9b2kA=", "properties": {"@spider": "usps_collection_boxes", "addr:city": "CRANSTON", "addr:country": "US", "addr:full": "21 PEACE ST", "addr:postcode": "02907", "addr:state": "RI", "brand": "USPS", "brand:wikidata": "Q668687", "collection_times": "Mo-Sa 11:00", "name": "USPS COLLECTION BOX - BLUE BOX", "ref": "0290700033"}, "type": "Feature"}
{"geometry": {"coordinates": [-71.4356565, 41.804296], "type": "Point"}, "id": "wuE5BdY0E_kX2f8N61A2_CjAa9U=", "properties": {"@spider": "usps_collection_boxes", "addr:city": "CRANSTON", "addr:country": "US", "addr:full": "791 POTTERS AVE", "addr:postcode": "02907", "addr:state": "RI", "brand": "USPS", "brand:wikidata": "Q668687", "collection_times": "Mo-Sa 11:00", "name": "USPS COLLECTION BOX - BLUE BOX", "ref": "0290700037"}, "type": "Feature"}
{"geometry": {"coordinates": [-71.4281749, 41.791429], "type": "Point"}, "id": "p57aIHXuhmwktY3wnejK0LhjV_A=", "properties": {"@spider": "usps_collection_boxes", "addr:city": "CRANSTON", "addr:country": "US", "addr:full": "170 RESERVOIR AVE", "addr:postcode": "02907", "addr:state": "RI", "brand": "USPS", "brand:wikidata": "Q668687", "collection_times": "Mo-Sa 11:00", "name": "USPS COLLECTION BOX - BLUE BOX", "ref": "0290700038"}, "type": "Feature"}
{"geometry": {"coordinates": [-71.4270423, 41.793846], "type": "Point"}, "id": "rLUGBdOn6f9TbK9W-wpbHylo6aY=", "properties": {"@spider": "usps_collection_boxes", "addr:city": "CRANSTON", "addr:country": "US", "addr:full": "95 RESERVOIR AVE", "addr:postcode": "02907", "addr:state": "RI", "brand": "USPS", "brand:wikidata": "Q668687", "collection_times": "Mo-Sa 11:00", "name": "USPS COLLECTION BOX - BLUE BOX", "ref": "0290700039"}, "type": "Feature"}
{"geometry": {"coordinates": [-71.4306218, 41.788736], "type": "Point"}, "id": "GpRVymZu2gAMSmjA4OoTndMpATY=", "properties": {"@spider": "usps_collection_boxes", "addr:city": "CRANSTON", "addr:country": "US", "addr:full": "298 RESERVOIR AVE", "addr:postcode": "02907", "addr:state": "RI", "brand": "USPS", "brand:wikidata": "Q668687", "collection_times": "Mo-Sa 11:00", "name": "USPS COLLECTION BOX - BLUE BOX", "ref": "0290700040"}, "type": "Feature"}
{"geometry": {"coordinates": [-71.421891, 41.790326], "type": "Point"}, "id": "UWKneWlZHV_ijGBo5bD850SREl0=", "properties": {"@spider": "usps_collection_boxes", "addr:city": "CRANSTON", "addr:country": "US", "addr:full": "820 ELMWOOD AVE", "addr:postcode": "02907", "addr:state": "RI", "brand": "USPS", "brand:wikidata": "Q668687", "collection_times": "Mo-Fr 17:00; Sa 11:00", "name": "USPS COLLECTION BOX - EXPRESS", "note": "ON 12/24 AND 12/31, THIS BOX MAY BE COLLECTED AS EARLY AS 12 NOON.", "ref": "0290700042"}, "type": "Feature"}
{"geometry": {"coordinates": [-71.421891, 41.790326], "type": "Point"}, "id": "r91_sU_2TkdNFJbS0s_9T60MVO0=", "properties": {"@spider": "usps_collection_boxes", "addr:city": "CRANSTON", "addr:country": "US", "addr:full": "820 ELMWOOD AVE", "addr:postcode": "02907", "addr:state": "RI", "brand": "USPS", "brand:wikidata": "Q668687", "collection_times": "Mo-Fr 17:00; Sa 11:00", "name": "USPS COLLECTION BOX - BLUE BOX", "note": "ON 12/24 AND 12/31, THIS BOX MAY BE COLLECTED AS EARLY AS 12 NOON.", "ref": "0290700043"}, "type": "Feature"}
{"geometry": {"coordinates": [-71.4318390516, 41.7878883557], "type": "Point"}, "id": "ts67vbXT4kGU-EWzSv8UGiGV1_g=", "properties": {"@spider": "usps_collection_boxes", "addr:city": "CRANSTON", "addr:country": "US", "addr:full": "400 RESERVOIR AVE", "addr:postcode": "02907", "addr:state": "RI", "brand": "USPS", "brand:wikidata": "Q668687", "collection_times": "Mo-Fr 15:00; Sa 12:00", "name": "USPS COLLECTION BOX - BLUE BOX", "note": "ON 12/24 AND 12/31, THIS BOX MAY BE COLLECTED AS EARLY AS 12 NOON.", "ref": "0290700045"}, "type": "Feature"}
{"geometry": {"coordinates": [-71.421841787, 41.790232759], "type": "Point"}, "id": "dSOUyPsc-eJAmP9oZdKHITA442c=", "properties": {"@spider": "usps_collection_boxes", "addr:city": "CRANSTON", "addr:country": "US", "addr:full": "820 ELMWOOD AVE", "addr:postcode": "02907", "addr:state": "RI", "brand": "USPS", "brand:wikidata": "Q668687", "collection_times": "Mo-Fr 18:00; Sa 17:15", "name": "USPS COLLECTION BOX - PO LOBBY", "note": "ON 12/24 AND 12/31, THIS BOX MAY BE COLLECTED AS EARLY AS 12 NOON.", "ref": "0290700054"}, "type": "Feature"}
{"geometry": {"coordinates": [-71.4448095, 41.837491], "type": "Point"}, "id": "eXX2xTZilBzEICrNJ3U0fAE4d9w=", "properties": {"@spider": "usps_collection_boxes", "addr:city": "PROVIDENCE", "addr:country": "US", "addr:full": "460 ACADEMY AVE", "addr:postcode": "02908", "addr:state": "RI", "brand": "USPS", "brand:wikidata": "Q668687", "collection_times": "Mo-Sa 11:00", "name": "USPS COLLECTION BOX - BLUE BOX", "ref": "0290800001"}, "type": "Feature"}
{"geometry": {"coordinates": [-71.4439838, 41.829335], "type": "Point"}, "id": "wtNlM-hrQHWO7dVMVQZczCOmcfI=", "properties": {"@spider": "usps_collection_boxes", "addr:city": "PROVIDENCE", "addr:country": "US", "addr:full": "165 ACADEMY AVE", "addr:postcode": "02908", "addr:state": "RI", "brand": "USPS", "brand:wikidata": "Q668687", "collection_times": "Mo-Sa 11:00", "name": "USPS COLLECTION BOX - BLUE BOX", "ref": "0290800002"}, "type": "Feature"}
{"geometry": {"coordinates": [-71.4450166, 41.84021], "type": "Point"}, "id": "onvc69XJrzNtANUigFwfMSKipvE=", "properties": {"@spider": "usps_collection_boxes", "addr:city": "PROVIDENCE", "addr:country": "US", "addr:full": "552 ACADEMY AVE", "addr:postcode": "02908", "addr:state": "RI", "brand": "USPS", "brand:wikidata": "Q668687", "collection_times": "Mo-Sa 11:00", "name": "USPS COLLECTION BOX - BLUE BOX", "ref": "0290800004"}, "type": "Feature"}
{"geometry": {"coordinates": [-71.4393238, 41.849327], "type": "Point"}, "id": "PjeuNJqaiw9Oxz4AMwsdfvmOpqs=", "properties": {"@spider": "usps_collection_boxes", "addr:city": "PROVIDENCE", "addr:country": "US", "addr:full": "680 ADMIRAL ST", "addr:postcode": "02908", "addr:state": "RI", "brand": "USPS", "brand:wikidata": "Q668687", "collection_times": "Mo-Sa 11:00", "name": "USPS COLLECTION BOX - BLUE BOX", "ref": "0290800005"}, "type": "Feature"}
{"geometry": {"coordinates": [-71.4145905, 41.833449], "type": "Point"}, "id": "hLJGh7LCe_S7kktVmo2SBR9BJ78=", "properties": {"@spider": "usps_collection_boxes", "addr:city": "PROVIDENCE", "addr:country": "US", "addr:full": "3 CAPITOL HL", "addr:postcode": "02908", "addr:state": "RI", "brand": "USPS", "brand:wikidata": "Q668687", "collection_times": "Mo-Fr 17:00; Sa 12:00", "name": "USPS COLLECTION BOX - BLUE BOX", "note": "ON 12/24 AND 12/31, THIS BOX MAY BE COLLECTED AS EARLY AS 12 NOON.", "ref": "0290800010"}, "type": "Feature"}
{"geometry": {"coordinates": [-71.4163234, 41.832495], "type": "Point"}, "id": "H_qRyCCdV3QL_x_S23qnu8VIGxY=", "properties": {"@spider": "usps_collection_boxes", "addr:city": "PROVIDENCE", "addr:country": "US", "addr:full": "1 CAPITOL HL", "addr:postcode": "02908", "addr:state": "RI", "brand": "USPS", "brand:wikidata": "Q668687", "collection_times": "Mo-Sa 12:00", "name": "USPS COLLECTION BOX - BLUE BOX", "ref": "0290800011"}, "type": "Feature"}
{"geometry": {"coordinates": [-71.4421995, 41.832256], "type": "Point"}, "id": "VuYORZRntdi1FOQP2L_3g1mFiqY=", "properties": {"@spider": "usps_collection_boxes", "addr:city": "PROVIDENCE", "addr:country": "US", "addr:full": "1038 CHALKSTONE AVE", "addr:postcode": "02908", "addr:state": "RI", "brand": "USPS", "brand:wikidata": "Q668687", "collection_times": "Mo-Sa 11:00", "name": "USPS COLLECTION BOX - BLUE BOX", "ref": "0290800013"}, "type": "Feature"}
{"geometry": {"coordinates": [-71.4291509, 41.834392], "type": "Point"}, "id": "8Ip5CbRBJCm3z11_gNBApfHBUi4=", "properties": {"@spider": "usps_collection_boxes", "addr:city": "PROVIDENCE", "addr:country": "US", "addr:full": "672 CHALKSTONE AVE", "addr:postcode": "02908", "addr:state": "RI", "brand": "USPS", "brand:wikidata": "Q668687", "collection_times": "Mo-Sa 12:00", "name": "USPS COLLECTION BOX - BLUE BOX", "ref": "0290800014"}, "type": "Feature"}
{"geometry": {"coordinates": [-71.438427005, 41.832773016], "type": "Point"}, "id": "rjnVIkcUIw8lXKAcBU7Yg978s-U=", "properties": {"@spider": "usps_collection_boxes", "addr:city": "PROVIDENCE", "addr:country": "US", "addr:full": "941 CHALKSTONE AVE", "addr:postcode": "02908", "addr:state": "RI", "brand": "USPS", "brand:wikidata": "Q668687", "collection_times": "Mo-Sa 11:00", "name": "USPS COLLECTION BOX - BLUE BOX", "ref": "0290800015"}, "type": "Feature"}
{"geometry": {"coordinates": [-71.436511, 41.834645], "type": "Point"}, "id": "BnXxD8-1x_7yeFBFn0HQ3shN1VU=", "properties": {"@spider": "usps_collection_boxes", "addr:city": "PROVIDENCE", "addr:country": "US", "addr:full": "825 CHALKSTONE AVE", "addr:postcode": "02908", "addr:state": "RI", "brand": "USPS", "brand:wikidata": "Q668687", "collection_times": "Mo-Sa 12:00", "name": "USPS COLLECTION BOX - BLUE BOX", "ref": "0290800016"}, "type": "Feature"}
{"geometry": {"coordinates": [-71.4323357, 41.849022], "type": "Point"}, "id": "BMidLn7wxsyhG9est0k0ueWSkGg=", "properties": {"@spider": "usps_collection_boxes", "addr:city": "PROVIDENCE", "addr:country": "US", "addr:full": "715 DOUGLAS AVE", "addr:postcode": "02908", "addr:state": "RI", "brand": "USPS", "brand:wikidata": "Q668687", "collection_times": "Mo-Sa 11:00", "name": "USPS COLLECTION BOX - BLUE BOX", "ref": "0290800020"}, "type": "Feature"}
{"geometry": {"coordinates": [-71.4368437, 41.852621], "type": "Point"}, "id": "ULbtCYRTwXOrxxNdsjgSSjkQMzw=", "properties": {"@spider": "usps_collection_boxes", "addr:city": "PROVIDENCE", "addr:country": "US", "addr:full": "901 DOUGLAS AVE", "addr:postcode": "02908", "addr:state": "RI", "brand": "USPS", "brand:wikidata": "Q668687", "collection_times": "Mo-Sa 11:00", "name": "USPS COLLECTION BOX - BLUE BOX", "ref": "0290800023"}, "type": "Feature"}
{"geometry": {"coordinates": [-71.4349589, 41.841578], "type": "Point"}, "id": "S8hO2OhVcb9obQyLQ42e9gfS_5Y=", "properties": {"@spider": "usps_collection_boxes", "addr:city": "PROVIDENCE", "addr:country": "US", "addr:full": "192 EATON ST", "addr:postcode": "02908", "addr:state": "RI", "brand": "USPS", "brand:wikidata": "Q668687", "collection_times": "Mo-Sa 11:00", "name": "USPS COLLECTION BOX - BLUE BOX", "ref": "0290800024"}, "type": "Feature"}
{"geometry": {"coordinates": [-71.421066, 41.829093], "type": "Point"}, "id": "RVkxX-7VlFJ9MME7FcUcj8qqPM8=", "properties": {"@spider": "usps_collection_boxes", "addr:city": "PROVIDENCE", "addr:country": "US", "addr:full": "275 PROMENADE ST", "addr:postcode": "02908", "addr:state": "RI", "brand": "USPS", "brand:wikidata": "Q668687", "collection_times": "Mo-Fr 16:00; Sa 12:00", "name": "USPS COLLECTION BOX - BLUE BOX", "note": "ON 12/24 AND 12/31, THIS BOX MAY BE COLLECTED AS EARLY AS 12 NOON.", "ref": "0290800028"}, "type": "Feature"}
{"geometry": {"coordinates": [-71.4423042, 41.837093], "type": "Point"}, "id": "BHTADGCxIRCTdttyLb11YzgfyRo=", "properties": {"@spider": "usps_collection_boxes", "addr:city": "PROVIDENCE", "addr:country": "US", "addr:full": "67 JASTRAM ST", "addr:postcode": "02908", "addr:state": "RI", "brand": "USPS", "brand:wikidata": "Q668687", "collection_times": "Mo-Sa 12:00", "name": "USPS COLLECTION BOX - BLUE BOX", "ref": "0290800030"}, "type": "Feature"}
{"geometry": {"coordinates": [-71.4493933, 41.829697], "type": "Point"}, "id": "HAr828i_bI7MYwFhnJollTRWHY4=", "properties": {"@spider": "usps_collection_boxes", "addr:city": "PROVIDENCE", "addr:country": "US", "addr:full": "136 MOUNT PLEASANT AVE", "addr:postcode": "02908", "addr:state": "RI", "brand": "USPS", "brand:wikidata": "Q668687", "collection_times": "Mo-Sa 11:00", "name": "USPS COLLECTION BOX - BLUE BOX", "ref": "0290800032"}, "type": "Feature"}
{"geometry": {"coordinates": [-71.4515947, 41.838881], "type": "Point"}, "id": "aR8_g-J6RL6T6CodDnNmQyNx-C8=", "properties": {"@spider": "usps_collection_boxes", "addr:city": "PROVIDENCE", "addr:country": "US", "addr:full": "449 MOUNT PLEASANT AVE", "addr:postcode": "02908", "addr:state": "RI", "brand": "USPS", "brand:wikidata": "Q668687", "collection_times": "Mo-Sa 11:00", "name": "USPS COLLECTION BOX - BLUE BOX", "ref": "0290800033"}, "type": "Feature"}
{"geometry": {"coordinates": [-71.421066, 41.829093], "type": "Point"}, "id": "kHssPtduNWdLS2za0w176mWiWRw=", "properties": {"@spider": "usps_collection_boxes", "addr:city": "PROVIDENCE", "addr:country": "US", "addr:full": "275 PROMENADE ST", "addr:postcode": "02908", "addr:state": "RI", "brand": "USPS", "brand:wikidata": "Q668687", "collection_times": "Mo-Fr 16:00; Sa 12:00", "name": "USPS COLLECTION BOX - BLUE BOX", "note": "ON 12/24 AND 12/31, THIS BOX MAY BE COLLECTED AS EARLY AS 12 NOON.", "ref": "0290800034"}, "type": "Feature"}
{"geometry": {"coordinates": [-71.440390212, 41.843395718], "type": "Point"}, "id": "kb0Prkl2sYAy7-PM4Jfy51n6JGY=", "properties": {"@spider": "usps_collection_boxes", "addr:city": "PROVIDENCE", "addr:country": "US", "addr:full": "561 RIVER AVE", "addr:postcode": "02908", "addr:state": "RI", "brand": "USPS", "brand:wikidata": "Q668687", "collection_times": "Mo-Fr 16:00", "name": "USPS COLLECTION BOX - BLUE BOX", "note": "ON 12/24 AND 12/31, THIS BOX MAY BE COLLECTED AS EARLY AS 12 NOON.", "ref": "0290800038"}, "type": "Feature"}
{"geometry": {"coordinates": [-71.4624075, 41.843025], "type": "Point"}, "id": "EqrFYxiK036ASPKFPgc3-qIcwv0=", "properties": {"@spider": "usps_collection_boxes", "addr:city": "PROVIDENCE", "addr:country": "US", "addr:full": "600 MOUNT PLEASANT AVE", "addr:postcode": "02908", "addr:state": "RI", "brand": "USPS", "brand:wikidata": "Q668687", "collection_times": "Mo-Fr 16:00", "name": "USPS COLLECTION BOX - BLUE BOX", "note": "ON 12/24 AND 12/31, THIS BOX MAY BE COLLECTED AS EARLY AS 12 NOON.", "ref": "0290800041"}, "type": "Feature"}
{"geometry": {"coordinates": [-71.4430685, 41.847561], "type": "Point"}, "id": "SsyvZ3JXTakzvqA4dPnZhLuEANU=", "properties": {"@spider": "usps_collection_boxes", "addr:city": "PROVIDENCE", "addr:country": "US", "addr:full": "426 SHARON ST", "addr:postcode": "02908", "addr:state": "RI", "brand": "USPS", "brand:wikidata": "Q668687", "collection_times": "Mo-Sa 11:00", "name": "USPS COLLECTION BOX - BLUE BOX", "ref": "0290800044"}, "type": "Feature"}
{"geometry": {"coordinates": [-71.4408247, 41.840834], "type": "Point"}, "id": "N5E3lAgs6ou7W4ekCFcKrclvsW8=", "properties": {"@spider": "usps_collection_boxes", "addr:city": "PROVIDENCE", "addr:country": "US", "addr:full": "903 SMITH ST", "addr:postcode": "02908", "addr:state": "RI", "brand": "USPS", "brand:wikidata": "Q668687", "collection_times": "Mo-Sa 12:00", "name": "USPS COLLECTION BOX - BLUE BOX", "ref": "0290800046"}, "type": "Feature"}
{"geometry": {"coordinates": [-71.423325, 41.834547], "type": "Point"}, "id": "oa8y3aG7lK-F-1_NdNz3X3mk3XI=", "properties": {"@spider": "usps_collection_boxes", "addr:city": "PROVIDENCE", "addr:country": "US", "addr:full": "351 SMITH ST", "addr:postcode": "02908", "addr:state": "RI", "brand": "USPS", "brand:wikidata": "Q668687", "collection_times": "Mo-Fr 17:00; Sa 14:00", "name": "USPS COLLECTION BOX - EXPRESS", "note": "ON 12/24 AND 12/31, THIS BOX MAY BE COLLECTED AS EARLY AS 12 NOON.", "ref": "0290800048"}, "type": "Feature"}
{"geometry": {"coordinates": [-71.423325, 41.834547], "type": "Point"}, "id": "P5LbI30Wo03k8j2_bVH7s-4HjLI=", "properties": {"@spider": "usps_collection_boxes", "addr:city": "PROVIDENCE", "addr:country": "US", "addr:full": "351 SMITH ST", "addr:postcode": "02908", "addr:state": "RI", "brand": "USPS", "brand:wikidata": "Q668687", "collection_times": "Mo-Fr 17:00; Sa 14:00", "name": "USPS COLLECTION BOX - BLUE BOX", "note": "ON 12/24 AND 12/31, THIS BOX MAY BE COLLECTED AS EARLY AS 12 NOON.", "ref": "0290800049"}, "type": "Feature"}
{"geometry": {"coordinates": [-71.4479761, 41.843911], "type": "Point"}, "id": "g1DoINpVBwR1SXDiP1Eu9TkuCrA=", "properties": {"@spider": "usps_collection_boxes", "addr:city": "PROVIDENCE", "addr:country": "US", "addr:full": "1089 SMITH ST", "addr:postcode": "02908", "addr:state": "RI", "brand": "USPS", "brand:wikidata": "Q668687", "collection_times": "Mo-Sa 11:00", "name": "USPS COLLECTION BOX - BLUE BOX", "ref": "0290800055"}, "type": "Feature"}
{"geometry": {"coordinates": [-71.423325, 41.834547], "type": "Point"}, "id": "yszccCCoieJ_8nb3DgpxYSZRY4o=", "properties": {"@spider": "usps_collection_boxes", "addr:city": "PROVIDENCE", "addr:country": "US", "addr:full": "351 SMITH ST", "addr:postcode": "02908", "addr:state": "RI", "brand": "USPS", "brand:wikidata": "Q668687", "collection_times": "Mo-Fr 17:00; Sa 12:00", "name": "USPS COLLECTION BOX - PO LOBBY", "note": "ON 12/24 AND 12/31, THIS BOX MAY BE COLLECTED AS EARLY AS 12 NOON.", "ref": "0290800065"}, "type": "Feature"}
{"geometry": {"coordinates": [-71.4536165, 41.825263], "type": "Point"}, "id": "1qzb_qma9CTCkUfDarsLYq1YJR4=", "properties": {"@spider": "usps_collection_boxes", "addr:city": "PROVIDENCE", "addr:country": "US", "addr:full": "1080 ATWELLS AVE", "addr:postcode": "02909", "addr:state": "RI", "brand": "USPS", "brand:wikidata": "Q668687", "collection_times": "Mo-Sa 12:00", "name": "USPS COLLECTION BOX - BLUE BOX", "ref": "0290900002"}, "type": "Feature"}
{"geometry": {"coordinates": [-71.4303943, 41.823922], "type": "Point"}, "id": "Vuhf30ccSwRXgyDm_xC9rSJUVyg=", "properties": {"@spider": "usps_collection_boxes", "addr:city": "PROVIDENCE", "addr:country": "US", "addr:full": "387 ATWELLS AVE", "addr:postcode": "02909", "addr:state": "RI", "brand": "USPS", "brand:wikidata": "Q668687", "collection_times": "Mo-Fr 12:00; Sa 11:00", "name": "USPS COLLECTION BOX - BLUE BOX", "ref": "0290900004"}, "type": "Feature"}
{"geometry": {"coordinates": [-71.4548129, 41.832185], "type": "Point"}, "id": "x2pteZWc-HOPbdQ9ex0uuu5vinQ=", "properties": {"@spider": "usps_collection_boxes", "addr:city": "PROVIDENCE", "addr:country": "US", "addr:full": "1382 CHALKSTONE AVE", "addr:postcode": "02909", "addr:state": "RI", "brand": "USPS", "brand:wikidata": "Q668687", "collection_times": "Mo-Sa 11:00", "name": "USPS COLLECTION BOX - BLUE BOX", "ref": "0290900014"}, "type": "Feature"}
{"geometry": {"coordinates": [-71.445841, 41.816882], "type": "Point"}, "id": "b5Yvq9ciWu2WB6hI7Gkt6TR39GM=", "properties": {"@spider": "usps_collection_boxes", "addr:city": "PROVIDENCE", "addr:country": "US", "addr:full": "100 HARTFORD AVE", "addr:postcode": "02909", "addr:state": "RI", "brand": "USPS", "brand:wikidata": "Q668687", "collection_times": "Mo-Fr 17:00; Sa 14:00", "name": "USPS COLLECTION BOX - BLUE BOX", "note": "ON 12/24 AND 12/31, THIS BOX MAY BE COLLECTED AS EARLY AS 12 NOON.", "ref": "0290900021"}, "type": "Feature"}
{"geometry": {"coordinates": [-71.4589615, 41.81865], "type": "Point"}, "id": "DnxVcFHT_4vzIYK4o_TKqgNehzk=", "properties": {"@spider": "usps_collection_boxes", "addr:city": "PROVIDENCE", "addr:country": "US", "addr:full": "451 HARTFORD AVE", "addr:postcode": "02909", "addr:state": "RI", "brand": "USPS", "brand:wikidata": "Q668687", "collection_times": "Mo-Sa 12:00", "name": "USPS COLLECTION BOX - BLUE BOX", "ref": "0290900023"}, "type": "Feature"}
{"geometry": {"coordinates": [-71.4680578, 41.81853], "type": "Point"}, "id": "2QbvRajXLuR7vuSuJxeMOKqfAvo=", "properties": {"@spider": "usps_collection_boxes", "addr:city": "PROVIDENCE", "addr:country": "US", "addr:full": "323 KILLINGLY ST", "addr:postcode": "02909", "addr:state": "RI", "brand": "USPS", "brand:wikidata": "Q668687", "collection_times": "Mo-Sa 12:00", "name": "USPS COLLECTION BOX - BLUE BOX", "ref": "0290900029"}, "type": "Feature"}
{"geometry": {"coordinates": [-71.4478922, 41.821038], "type": "Point"}, "id": "lD0KZXxY7pHVvKeq7Oi7_mN3Wyg=", "properties": {"@spider": "usps_collection_boxes", "addr:city": "PROVIDENCE", "addr:country": "US", "addr:full": "219 MANTON AVE", "addr:postcode": "02909", "addr:state": "RI", "brand": "USPS", "brand:wikidata": "Q668687", "collection_times": "Mo-Sa 12:00", "name": "USPS COLLECTION BOX - BLUE BOX", "ref": "0290900032"}, "type": "Feature"}
{"geometry": {"coordinates": [-71.4671587, 41.83282], "type": "Point"}, "id": "Kt_T4t2RUngnm3DNG2-whB1RQYw=", "properties": {"@spider": "usps_collection_boxes", "addr:city": "PROVIDENCE", "addr:country": "US", "addr:full": "850 MANTON AVE", "addr:postcode": "02909", "addr:state": "RI", "brand": "USPS", "brand:wikidata": "Q668687", "collection_times": "Mo-Sa 12:00", "name": "USPS COLLECTION BOX - BLUE BOX", "ref": "0290900034"}, "type": "Feature"}
{"geometry": {"coordinates": [-71.437920999, 41.814100443], "type": "Point"}, "id": "ZDDUhkkVy356kR-5KNyxMjnDLvU=", "properties": {"@spider": "usps_collection_boxes", "addr:city": "PROVIDENCE", "addr:country": "US", "addr:full": "21 MARVIN ST", "addr:postcode": "02909", "addr:state": "RI", "brand": "USPS", "brand:wikidata": "Q668687", "collection_times": "Mo-Sa 12:00", "name": "USPS COLLECTION BOX - BLUE BOX", "ref": "0290900035"}, "type": "Feature"}
{"geometry": {"coordinates": [-71.4501816, 41.812338], "type": "Point"}, "id": "OSwT_gnH01fkr_K9tbXxK_Xr-3s=", "properties": {"@spider": "usps_collection_boxes", "addr:city": "PROVIDENCE", "addr:country": "US", "addr:full": "131 WEBSTER AVE", "addr:postcode": "02909", "addr:state": "RI", "brand": "USPS", "brand:wikidata": "Q668687", "collection_times": "Mo-Sa 09:00", "name": "USPS COLLECTION BOX - BLUE BOX", "ref": "0290900043"}, "type": "Feature"}
{"geometry": {"coordinates": [-71.4544599, 41.810308], "type": "Point"}, "id": "34rXgkBciUEnoGHNEpiAAcvSEoA=", "properties": {"@spider": "usps_collection_boxes", "addr:city": "PROVIDENCE", "addr:country": "US", "addr:full": "179 POCASSET AVE", "addr:postcode": "02909", "addr:state": "RI", "brand": "USPS", "brand:wikidata": "Q668687", "collection_times": "Mo-Sa 12:00", "name": "USPS COLLECTION BOX - BLUE BOX", "ref": "0290900045"}, "type": "Feature"}
{"geometry": {"coordinates": [-71.4553831, 41.808782], "type": "Point"}, "id": "zZwjVq_pWhoAISprwguzEZmzHvY=", "properties": {"@spider": "usps_collection_boxes", "addr:city": "PROVIDENCE", "addr:country": "US", "addr:full": "232 POCASSET AVE", "addr:postcode": "02909", "addr:state": "RI", "brand": "USPS", "brand:wikidata": "Q668687", "collection_times": "Mo-Sa 12:00", "name": "USPS COLLECTION BOX - BLUE BOX", "ref": "0290900047"}, "type": "Feature"}
{"geometry": {"coordinates": [-71.4593847, 41.807362], "type": "Point"}, "id": "n8JEIH-_vwutOdpWenYa7xhHIUo=", "properties": {"@spider": "usps_collection_boxes", "addr:city": "PROVIDENCE", "addr:country": "US", "addr:full": "627 UNION AVE", "addr:postcode": "02909", "addr:state": "RI", "brand": "USPS", "brand:wikidata": "Q668687", "collection_times": "Mo-Sa 12:00", "name": "USPS COLLECTION BOX - BLUE BOX", "ref": "0290900050"}, "type": "Feature"}
{"geometry": {"coordinates": [-71.4525143, 41.806339], "type": "Point"}, "id": "4OpvGe3eOUEj0PfRWFC66XrdpAc=", "properties": {"@spider": "usps_collection_boxes", "addr:city": "PROVIDENCE", "addr:country": "US", "addr:full": "445 UNION AVE", "addr:postcode": "02909", "addr:state": "RI", "brand": "USPS", "brand:wikidata": "Q668687", "collection_times": "Mo-Sa 12:00", "name": "USPS COLLECTION BOX - BLUE BOX", "ref": "0290900052"}, "type": "Feature"}
{"geometry": {"coordinates": [-71.4362833, 41.813211], "type": "Point"}, "id": "MMWTqNaae7PmkRHwn2V4Guf3PvE=", "properties": {"@spider": "usps_collection_boxes", "addr:city": "PROVIDENCE", "addr:country": "US", "addr:full": "95 MESSER ST", "addr:postcode": "02909", "addr:state": "RI", "brand": "USPS", "brand:wikidata": "Q668687", "collection_times": "Mo-Sa 12:00", "name": "USPS COLLECTION BOX - BLUE BOX", "ref": "0290900053"}, "type": "Feature"}
{"geometry": {"coordinates": [-71.4456404, 41.807376], "type": "Point"}, "id": "xQMx9Sr9AAaC5TzTe1xwWefpxK8=", "properties": {"@spider": "usps_collection_boxes", "addr:city": "PROVIDENCE", "addr:country": "US", "addr:full": "261 UNION AVE", "addr:postcode": "02909", "addr:state": "RI", "brand": "USPS", "brand:wikidata": "Q668687", "collection_times": "Mo-Sa 12:00", "name": "USPS COLLECTION BOX - BLUE BOX", "ref": "0290900054"}, "type": "Feature"}
{"geometry": {"coordinates": [-71.442401033, 41.808809993], "type": "Point"}, "id": "1FldCKGkuBKupQ_DV72vS1b2pAE=", "properties": {"@spider": "usps_collection_boxes", "addr:city": "PROVIDENCE", "addr:country": "US", "addr:full": "185 UNION AVE", "addr:postcode": "02909", "addr:state": "RI", "brand": "USPS", "brand:wikidata": "Q668687", "collection_times": "Mo-Sa 12:00", "name": "USPS COLLECTION BOX - BLUE BOX", "ref": "0290900056"}, "type": "Feature"}
{"geometry": {"coordinates": [-71.435073842, 41.816219755], "type": "Point"}, "id": "czb8AziMjICJDGWmb1zDteH57KA=", "properties": {"@spider": "usps_collection_boxes", "addr:city": "PROVIDENCE", "addr:country": "US", "addr:full": "1543 WESTMINSTER ST", "addr:postcode": "02909", "addr:state": "RI", "brand": "USPS", "brand:wikidata": "Q668687", "collection_times": "Mo-Sa 12:00", "name": "USPS COLLECTION BOX - BLUE BOX", "ref": "0290900067"}, "type": "Feature"}
{"geometry": {"coordinates": [-71.4347069, 41.818648], "type": "Point"}, "id": "uzRypJsCQ9h6AqTsywt3-OICuM4=", "properties": {"@spider": "usps_collection_boxes", "addr:city": "PROVIDENCE", "addr:country": "US", "addr:full": "497 BROADWAY", "addr:postcode": "02909", "addr:state": "RI", "brand": "USPS", "brand:wikidata": "Q668687", "collection_times": "Mo-Fr 12:00; Sa 11:00", "name": "USPS COLLECTION BOX - BLUE BOX", "ref": "0290900068"}, "type": "Feature"}
{"geometry": {"coordinates": [-71.445841, 41.816882], "type": "Point"}, "id": "zvDuH5ipKnQaHzrM81aQ9_FVShE=", "properties": {"@spider": "usps_collection_boxes", "addr:city": "PROVIDENCE", "addr:country": "US", "addr:full": "100 HARTFORD AVE", "addr:postcode": "02909", "addr:state": "RI", "brand": "USPS", "brand:wikidata": "Q668687", "collection_times": "Mo-Fr 17:00; Sa 14:00", "name": "USPS COLLECTION BOX - PO LOBBY", "note": "ON 12/24 AND 12/31, THIS BOX MAY BE COLLECTED AS EARLY AS 12 NOON.", "ref": "0290900070"}, "type": "Feature"}
{"geometry": {"coordinates": [-71.445822507, 41.816824955], "type": "Point"}, "id": "iGAHoNo5fRD8W7fq996HQAYpP1Y=", "properties": {"@spider": "usps_collection_boxes", "addr:city": "PROVIDENCE", "addr:country": "US", "addr:full": "100 HARTFORD AVE", "addr:postcode": "02909", "addr:state": "RI", "brand": "USPS", "brand:wikidata": "Q668687", "collection_times": "Mo-Fr 17:30; Sa 17:00", "name": "USPS COLLECTION BOX - PO LOBBY", "note": "ON 12/24 AND 12/31, THIS BOX MAY BE COLLECTED AS EARLY AS 12 NOON.", "ref": "0290900075"}, "type": "Feature"}
{"geometry": {"coordinates": [-71.4493678, 41.775134], "type": "Point"}, "id": "ulFjO7uPK1ne3W07oAoWHSMsqmg=", "properties": {"@spider": "usps_collection_boxes", "addr:city": "CRANSTON", "addr:country": "US", "addr:full": "950 RESERVOIR AVE", "addr:postcode": "02910", "addr:state": "RI", "brand": "USPS", "brand:wikidata": "Q668687", "collection_times": "Mo-Sa 12:00", "name": "USPS COLLECTION BOX - BLUE BOX", "ref": "0291000002"}, "type": "Feature"}
{"geometry": {"coordinates": [-71.4455384, 41.778224], "type": "Point"}, "id": "JRhwTp1sg4Dhc19QLTXMf9yGOgQ=", "properties": {"@spider": "usps_collection_boxes", "addr:city": "CRANSTON", "addr:country": "US", "addr:full": "815 RESERVOIR AVE", "addr:postcode": "02910", "addr:state": "RI", "brand": "USPS", "brand:wikidata": "Q668687", "collection_times": "Mo-Sa 11:00", "name": "USPS COLLECTION BOX - BLUE BOX", "ref": "0291000004"}, "type": "Feature"}
{"geometry": {"coordinates": [-71.444589, 41.77863], "type": "Point"}, "id": "gp6GJEedEKkxxLOgP4cG1jLIZf8=", "properties": {"@spider": "usps_collection_boxes", "addr:city": "CRANSTON", "addr:country": "US", "addr:full": "790 RESERVOIR AVE", "addr:postcode": "02910", "addr:state": "RI", "brand": "USPS", "brand:wikidata": "Q668687", "collection_times": "Mo-Sa 12:00", "name": "USPS COLLECTION BOX - BLUE BOX", "ref": "0291000005"}, "type": "Feature"}
{"geometry": {"coordinates": [-71.4427378, 41.78083], "type": "Point"}, "id": "BXpmEzfV30a7AXQJU2tA_U0FA_Q=", "properties": {"@spider": "usps_collection_boxes", "addr:city": "CRANSTON", "addr:country": "US", "addr:full": "681 RESERVOIR AVE", "addr:postcode": "02910", "addr:state": "RI", "brand": "USPS", "brand:wikidata": "Q668687", "collection_times": "Mo-Sa 09:00", "name": "USPS COLLECTION BOX - BLUE BOX", "ref": "0291000008"}, "type": "Feature"}
{"geometry": {"coordinates": [-71.4378781, 41.783729], "type": "Point"}, "id": "gGvJvlznoPo1k2zBvIL3RmrWZds=", "properties": {"@spider": "usps_collection_boxes", "addr:city": "CRANSTON", "addr:country": "US", "addr:full": "555 RESERVOIR AVE", "addr:postcode": "02910", "addr:state": "RI", "brand": "USPS", "brand:wikidata": "Q668687", "collection_times": "Mo-Sa 12:00", "name": "USPS COLLECTION BOX - BLUE BOX", "ref": "0291000010"}, "type": "Feature"}
{"geometry": {"coordinates": [-71.4428467, 41.763423], "type": "Point"}, "id": "81WH7vVcTasMlNolmVkBK3GDCJE=", "properties": {"@spider": "usps_collection_boxes", "addr:city": "CRANSTON", "addr:country": "US", "addr:full": "825 PONTIAC AVE", "addr:postcode": "02910", "addr:state": "RI", "brand": "USPS", "brand:wikidata": "Q668687", "collection_times": "Mo-Sa 11:00", "name": "USPS COLLECTION BOX - BLUE BOX", "ref": "0291000012"}, "type": "Feature"}
{"geometry": {"coordinates": [-71.4368999, 41.771265], "type": "Point"}, "id": "nTM-2HvL6zLRkvxDi1PoN7nDges=", "properties": {"@spider": "usps_collection_boxes", "addr:city": "CRANSTON", "addr:country": "US", "addr:full": "570 PONTIAC AVE", "addr:postcode": "02910", "addr:state": "RI", "brand": "USPS", "brand:wikidata": "Q668687", "collection_times": "Mo-Sa 11:00", "name": "USPS COLLECTION BOX - BLUE BOX", "ref": "0291000014"}, "type": "Feature"}
{"geometry": {"coordinates": [-71.4386327, 41.769387], "type": "Point"}, "id": "xHPvXw-lFpSo5XKfv7so9DN4VjI=", "properties": {"@spider": "usps_collection_boxes", "addr:city": "CRANSTON", "addr:country": "US", "addr:full": "631 PONTIAC AVE", "addr:postcode": "02910", "addr:state": "RI", "brand": "USPS", "brand:wikidata": "Q668687", "collection_times": "Mo-Sa 11:00", "name": "USPS COLLECTION BOX - BLUE BOX", "ref": "0291000015"}, "type": "Feature"}
{"geometry": {"coordinates": [-71.4369162972, 41.7757089761], "type": "Point"}, "id": "5iJSNA0QfIJlhmFjqoBL1qQ8FGs=", "properties": {"@spider": "usps_collection_boxes", "addr:city": "CRANSTON", "addr:country": "US", "addr:full": "105 ROLFE SQ", "addr:postcode": "02910", "addr:state": "RI", "brand": "USPS", "brand:wikidata": "Q668687", "collection_times": "Mo-Sa 11:00", "name": "USPS COLLECTION BOX - BLUE BOX", "ref": "0291000016"}, "type": "Feature"}
{"geometry": {"coordinates": [-71.4421642, 41.762472], "type": "Point"}, "id": "ClI4yza1AmSqXX1jt0Fd0PLIRc4=", "properties": {"@spider": "usps_collection_boxes", "addr:city": "CRANSTON", "addr:country": "US", "addr:full": "7 HERSEY RD", "addr:postcode": "02910", "addr:state": "RI", "brand": "USPS", "brand:wikidata": "Q668687", "collection_times": "Mo-Sa 11:00", "name": "USPS COLLECTION BOX - BLUE BOX", "ref": "0291000017"}, "type": "Feature"}
{"geometry": {"coordinates": [-71.4268152, 41.773917], "type": "Point"}, "id": "qXhg5QgWwYIG2bvu1HRksHAzlfI=", "properties": {"@spider": "usps_collection_boxes", "addr:city": "CRANSTON", "addr:country": "US", "addr:full": "530 WELLINGTON AVE", "addr:postcode": "02910", "addr:state": "RI", "brand": "USPS", "brand:wikidata": "Q668687", "collection_times": "Mo-Sa 11:00", "name": "USPS COLLECTION BOX - BLUE BOX", "ref": "0291000018"}, "type": "Feature"}
{"geometry": {"coordinates": [-71.436480065, 41.776864072], "type": "Point"}, "id": "Nv5X9F5u0kNH3x0M8RQrk6_ZMY0=", "properties": {"@spider": "usps_collection_boxes", "addr:city": "CRANSTON", "addr:country": "US", "addr:full": "57 ROLFE SQ", "addr:postcode": "02910", "addr:state": "RI", "brand": "USPS", "brand:wikidata": "Q668687", "collection_times": "Mo-Fr 17:00; Sa 14:00", "name": "USPS COLLECTION BOX - BLUE BOX", "note": "ON 12/24 AND 12/31, THIS BOX MAY BE COLLECTED AS EARLY AS 12 NOON.", "ref": "0291000020"}, "type": "Feature"}
{"geometry": {"coordinates": [-71.4517499, 41.772666], "type": "Point"}, "id": "0lo_TW_dDzz6pacadwc4M-cGCQ0=", "properties": {"@spider": "usps_collection_boxes", "addr:city": "CRANSTON", "addr:country": "US", "addr:full": "1062 RESERVOIR AVE", "addr:postcode": "02910", "addr:state": "RI", "brand": "USPS", "brand:wikidata": "Q668687", "collection_times": "Mo-Sa 12:00", "name": "USPS COLLECTION BOX - BLUE BOX", "ref": "0291000021"}, "type": "Feature"}
{"geometry": {"coordinates": [-71.4310162, 41.784362], "type": "Point"}, "id": "b_GfQ3OPpfv3rRMog-og17681ZA=", "properties": {"@spider": "usps_collection_boxes", "addr:city": "CRANSTON", "addr:country": "US", "addr:full": "134 PONTIAC AVE", "addr:postcode": "02910", "addr:state": "RI", "brand": "USPS", "brand:wikidata": "Q668687", "collection_times": "Mo-Sa 11:00", "name": "USPS COLLECTION BOX - BLUE BOX", "ref": "0291000022"}, "type": "Feature"}
{"geometry": {"coordinates": [-71.4529704, 41.784304], "type": "Point"}, "id": "rIpdyhiNdw1xxhVscti6IcJfRac=", "properties": {"@spider": "usps_collection_boxes", "addr:city": "CRANSTON", "addr:country": "US", "addr:full": "1240 PARK AVE", "addr:postcode": "02910", "addr:state": "RI", "brand": "USPS", "brand:wikidata": "Q668687", "collection_times": "Mo-Sa 12:00", "name": "USPS COLLECTION BOX - BLUE BOX", "ref": "0291000023"}, "type": "Feature"}
{"geometry": {"coordinates": [-71.4495524, 41.783591], "type": "Point"}, "id": "_6kWBl3h-_tk0P9mOxfC85PPM-o=", "properties": {"@spider": "usps_collection_boxes", "addr:city": "CRANSTON", "addr:country": "US", "addr:full": "1169 PARK AVE", "addr:postcode": "02910", "addr:state": "RI", "brand": "USPS", "brand:wikidata": "Q668687", "collection_times": "Mo-Sa 12:00", "name": "USPS COLLECTION BOX - BLUE BOX", "ref": "0291000024"}, "type": "Feature"}
{"geometry": {"coordinates": [-71.4439118, 41.782108], "type": "Point"}, "id": "t7yDy6SITBZuQe_QuYEAgJFhv0c=", "properties": {"@spider": "usps_collection_boxes", "addr:city": "CRANSTON", "addr:country": "US", "addr:full": "1030 PARK AVE", "addr:postcode": "02910", "addr:state": "RI", "brand": "USPS", "brand:wikidata": "Q668687", "collection_times": "Mo-Sa 12:00", "name": "USPS COLLECTION BOX - BLUE BOX", "ref": "0291000025"}, "type": "Feature"}
{"geometry": {"coordinates": [-71.4279739, 41.777489], "type": "Point"}, "id": "oAG6M-vCpoXSjZKY5Oocx3-HGrU=", "properties": {"@spider": "usps_collection_boxes", "addr:city": "CRANSTON", "addr:country": "US", "addr:full": "681 PARK AVE", "addr:postcode": "02910", "addr:state": "RI", "brand": "USPS", "brand:wikidata": "Q668687", "collection_times": "Mo-Sa 09:00", "name": "USPS COLLECTION BOX - BLUE BOX", "ref": "0291000032"}, "type": "Feature"}
{"geometry": {"coordinates": [-71.4150022, 41.773026], "type": "Point"}, "id": "ac1m5mX7nyrxcu7VDU3oOAc_PpY=", "properties": {"@spider": "usps_collection_boxes", "addr:city": "CRANSTON", "addr:country": "US", "addr:full": "1 PARK VIEW BLVD", "addr:postcode": "02910", "addr:state": "RI", "brand": "USPS", "brand:wikidata": "Q668687", "collection_times": "Mo-Sa 12:00", "name": "USPS COLLECTION BOX - BLUE BOX", "ref": "0291000034"}, "type": "Feature"}
{"geometry": {"coordinates": [-71.4344451, 41.763865], "type": "Point"}, "id": "oqZwKY74ISuIYTnIC079EQoftk4=", "properties": {"@spider": "usps_collection_boxes", "addr:city": "CRANSTON", "addr:country": "US", "addr:full": "110 HARPER AVE", "addr:postcode": "02910", "addr:state": "RI", "brand": "USPS", "brand:wikidata": "Q668687", "collection_times": "Mo-Sa 11:00", "name": "USPS COLLECTION BOX - BLUE BOX", "ref": "0291000040"}, "type": "Feature"}
{"geometry": {"coordinates": [-71.4252213, 41.76257], "type": "Point"}, "id": "r-uJjmBYWoLS4XeTrTMeNd50z5M=", "properties": {"@spider": "usps_collection_boxes", "addr:city": "CRANSTON", "addr:country": "US", "addr:full": "1655 ELMWOOD AVE", "addr:postcode": "02910", "addr:state": "RI", "brand": "USPS", "brand:wikidata": "Q668687", "collection_times": "Mo-Sa 12:00", "name": "USPS COLLECTION BOX - BLUE BOX", "ref": "0291000041"}, "type": "Feature"}
{"geometry": {"coordinates": [-71.4236547, 41.770922], "type": "Point"}, "id": "JNCWaHvUiUHiO3gEqCLmX7PdXkI=", "properties": {"@spider": "usps_collection_boxes", "addr:city": "CRANSTON", "addr:country": "US", "addr:full": "1441 ELMWOOD AVE", "addr:postcode": "02910", "addr:state": "RI", "brand": "USPS", "brand:wikidata": "Q668687", "collection_times": "Mo-Sa 12:00", "name": "USPS COLLECTION BOX - BLUE BOX", "ref": "0291000043"}, "type": "Feature"}
{"geometry": {"coordinates": [-71.4349014, 41.775615], "type": "Point"}, "id": "lmbzhdPoYp2A2PnutYNxkcQvEsg=", "properties": {"@spider": "usps_collection_boxes", "addr:city": "CRANSTON", "addr:country": "US", "addr:full": "196 CLARENCE ST", "addr:postcode": "02910", "addr:state": "RI", "brand": "USPS", "brand:wikidata": "Q668687", "collection_times": "Mo-Sa 11:00", "name": "USPS COLLECTION BOX - BLUE BOX", "ref": "0291000044"}, "type": "Feature"}
{"geometry": {"coordinates": [-71.4366326, 41.779217], "type": "Point"}, "id": "niU0tVm1fi_FSuy-skQ4dEbTllQ=", "properties": {"@spider": "usps_collection_boxes", "addr:city": "CRANSTON", "addr:country": "US", "addr:full": "869 PARK AVE", "addr:postcode": "02910", "addr:state": "RI", "brand": "USPS", "brand:wikidata": "Q668687", "collection_times": "Mo-Fr 15:00; Sa 12:00", "name": "USPS COLLECTION BOX - BLUE BOX", "note": "ON 12/24 AND 12/31, THIS BOX MAY BE COLLECTED AS EARLY AS 12 NOON.", "ref": "0291000049"}, "type": "Feature"}
{"geometry": {"coordinates": [-71.4432171, 41.779874], "type": "Point"}, "id": "FP1htRd6HINj_eFWgI58P4Q8wK8=", "properties": {"@spider": "usps_collection_boxes", "addr:city": "CRANSTON", "addr:country": "US", "addr:full": "725 RESERVOIR AVE", "addr:postcode": "02910", "addr:state": "RI", "brand": "USPS", "brand:wikidata": "Q668687", "collection_times": "Mo-Fr 15:00; Sa 12:00", "name": "USPS COLLECTION BOX - BLUE BOX", "note": "ON 12/24 AND 12/31, THIS BOX MAY BE COLLECTED AS EARLY AS 12 NOON.", "ref": "0291000051"}, "type": "Feature"}
{"geometry": {"coordinates": [-71.436480065, 41.776864072], "type": "Point"}, "id": "yO2f7QT2fEerLV4lowfvEZBiv-w=", "properties": {"@spider": "usps_collection_boxes", "addr:city": "CRANSTON", "addr:country": "US", "addr:full": "57 ROLFE SQ", "addr:postcode": "02910", "addr:state": "RI", "brand": "USPS", "brand:wikidata": "Q668687", "collection_times": "Mo-Fr 17:00; Sa 14:00", "name": "USPS COLLECTION BOX - PO LOBBY", "note": "ON 12/24 AND 12/31, THIS BOX MAY BE COLLECTED AS EARLY AS 12 NOON.", "ref": "0291000052"}, "type": "Feature"}
{"geometry": {"coordinates": [-71.436480065, 41.776864072], "type": "Point"}, "id": "kr0GEEtmQ7S58PPW3X9dbr0BeXQ=", "properties": {"@spider": "usps_collection_boxes", "addr:city": "CRANSTON", "addr:country": "US", "addr:full": "57 ROLFE SQ", "addr:postcode": "02910", "addr:state": "RI", "brand": "USPS", "brand:wikidata": "Q668687", "collection_times": "Mo-Fr 17:00; Sa 14:00", "name": "USPS COLLECTION BOX - PO LOBBY", "note": "ON 12/24 AND 12/31, THIS BOX MAY BE COLLECTED AS EARLY AS 12 NOON.", "ref": "0291000053"}, "type": "Feature"}
{"geometry": {"coordinates": [-71.436480065, 41.776864072], "type": "Point"}, "id": "PDDLNvxoh4_foMWz_pz-rLdzC2I=", "properties": {"@spider": "usps_collection_boxes", "addr:city": "CRANSTON", "addr:country": "US", "addr:full": "57 ROLFE SQ", "addr:postcode": "02910", "addr:state": "RI", "brand": "USPS", "brand:wikidata": "Q668687", "collection_times": "Mo-Fr 17:00; Sa 14:00", "name": "USPS COLLECTION BOX - APC", "note": "ON 12/24 AND 12/31, THIS BOX MAY BE COLLECTED AS EARLY AS 12 NOON.", "ref": "0291000055"}, "type": "Feature"}
{"geometry": {"coordinates": [-71.436480065, 41.776864072], "type": "Point"}, "id": "bj6CdgYNchjQWixK4FFQET33MP4=", "properties": {"@spider": "usps_collection_boxes", "addr:city": "CRANSTON", "addr:country": "US", "addr:full": "57 ROLFE SQ", "addr:postcode": "02910", "addr:state": "RI", "brand": "USPS", "brand:wikidata": "Q668687", "collection_times": "Mo-Fr 17:00; Sa 14:00", "name": "USPS COLLECTION BOX - PO LOBBY", "note": "ON 12/24 AND 12/31, THIS BOX MAY BE COLLECTED AS EARLY AS 12 NOON.", "ref": "0291000059"}, "type": "Feature"}
{"geometry": {"coordinates": [-71.4654370171, 41.8481460129], "type": "Point"}, "id": "efd8gyIa1lAW0be48WingB92GRk=", "properties": {"@spider": "usps_collection_boxes", "addr:city": "N PROVIDENCE", "addr:country": "US", "addr:full": "399 FRUIT HILL AVE", "addr:postcode": "02911", "addr:state": "RI", "brand": "USPS", "brand:wikidata": "Q668687", "collection_times": "Mo-Sa 12:00", "name": "USPS COLLECTION BOX - BLUE BOX", "ref": "0291100001"}, "type": "Feature"}
{"geometry": {"coordinates": [-71.4576766, 41.854311], "type": "Point"}, "id": "tw3cN6aUdBBPeAB6O2_EXa9-LGg=", "properties": {"@spider": "usps_collection_boxes", "addr:city": "N PROVIDENCE", "addr:country": "US", "addr:full": "135 HIGH SERVICE AVE", "addr:postcode": "02911", "addr:state": "RI", "brand": "USPS", "brand:wikidata": "Q668687", "collection_times": "Mo-Sa 12:00", "name": "USPS COLLECTION BOX - BLUE BOX", "ref": "0291100002"}, "type": "Feature"}
{"geometry": {"coordinates": [-71.4776848, 41.86296], "type": "Point"}, "id": "Rz-csnqxoktz5aKI1xUX_IwmJNU=", "properties": {"@spider": "usps_collection_boxes", "addr:city": "N PROVIDENCE", "addr:country": "US", "addr:full": "19 JACKSONIA DR", "addr:postcode": "02911", "addr:state": "RI", "brand": "USPS", "brand:wikidata": "Q668687", "collection_times": "Mo-Sa 12:00", "name": "USPS COLLECTION BOX - BLUE BOX", "ref": "0291100003"}, "type": "Feature"}
{"geometry": {"coordinates": [-71.4613317703, 41.8499778209], "type": "Point"}, "id": "Wqx-Pe3nTab7jFA34lG5cKBay-s=", "properties": {"@spider": "usps_collection_boxes", "addr:city": "N PROVIDENCE", "addr:country": "US", "addr:full": "1510 SMITH ST", "addr:postcode": "02911", "addr:state": "RI", "brand": "USPS", "brand:wikidata": "Q668687", "collection_times": "Mo-Sa 12:00", "name": "USPS COLLECTION BOX - BLUE BOX", "ref": "0291100005"}, "type": "Feature"}
{"geometry": {"coordinates": [-71.4838229101, 41.8573084375], "type": "Point"}, "id": "Rm8Igti8Mt7DJN0P0FVwQUTgfDw=", "properties": {"@spider": "usps_collection_boxes", "addr:city": "N PROVIDENCE", "addr:country": "US", "addr:full": "2008 SMITH ST", "addr:postcode": "02911", "addr:state": "RI", "brand": "USPS", "brand:wikidata": "Q668687", "collection_times": "Mo-Sa 12:00", "name": "USPS COLLECTION BOX - BLUE BOX", "ref": "0291100014"}, "type": "Feature"}
{"geometry": {"coordinates": [-71.4903058, 41.866144], "type": "Point"}, "id": "TFQmrdptsl-RCvcXJmRD04LHnZg=", "properties": {"@spider": "usps_collection_boxes", "addr:city": "N PROVIDENCE", "addr:country": "US", "addr:full": "2 OAKLEIGH AVE", "addr:postcode": "02911", "addr:state": "RI", "brand": "USPS", "brand:wikidata": "Q668687", "collection_times": "Mo-Sa 12:00", "name": "USPS COLLECTION BOX - BLUE BOX", "ref": "0291100016"}, "type": "Feature"}
{"geometry": {"coordinates": [-71.485949, 41.857367], "type": "Point"}, "id": "KlJLtJU-uUsgjmK5KNfHEtjUBa4=", "properties": {"@spider": "usps_collection_boxes", "addr:city": "N PROVIDENCE", "addr:country": "US", "addr:full": "2050 SMITH ST", "addr:postcode": "02911", "addr:state": "RI", "brand": "USPS", "brand:wikidata": "Q668687", "collection_times": "Mo-Fr 17:00; Sa 12:00", "name": "USPS COLLECTION BOX - EXPRESS", "note": "ON 12/24 AND 12/31, THIS BOX MAY BE COLLECTED AS EARLY AS 12 NOON.", "ref": "0291100017"}, "type": "Feature"}
{"geometry": {"coordinates": [-71.4859615, 41.857348], "type": "Point"}, "id": "vYuhJU6BEWoqCgR4lRa7KlOAyb4=", "properties": {"@spider": "usps_collection_boxes", "addr:city": "N PROVIDENCE", "addr:country": "US", "addr:full": "2050 SMITH ST", "addr:postcode": "02911", "addr:state": "RI", "brand": "USPS", "brand:wikidata": "Q668687", "collection_times": "Mo-Fr 17:00; Sa 12:00", "name": "USPS COLLECTION BOX - BLUE BOX", "note": "ON 12/24 AND 12/31, THIS BOX MAY BE COLLECTED AS EARLY AS 12 NOON.", "ref": "0291100018"}, "type": "Feature"}
{"geometry": {"coordinates": [-71.4769309, 41.844547], "type": "Point"}, "id": "R5UIMtDCtttyeskDy9dZK0FP3i8=", "properties": {"@spider": "usps_collection_boxes", "addr:city": "N PROVIDENCE", "addr:country": "US", "addr:full": "1 HUMBERT ST", "addr:postcode": "02911", "addr:state": "RI", "brand": "USPS", "brand:wikidata": "Q668687", "collection_times": "Mo-Sa 12:00", "name": "USPS COLLECTION BOX - BLUE BOX", "ref": "0291100020"}, "type": "Feature"}
{"geometry": {"coordinates": [-71.4750208, 41.839655], "type": "Point"}, "id": "_mzh-k5pv-PGT1XnNmAZfjV0wnY=", "properties": {"@spider": "usps_collection_boxes", "addr:city": "N PROVIDENCE", "addr:country": "US", "addr:full": "184 WOONASQUATUCKET AVE", "addr:postcode": "02911", "addr:state": "RI", "brand": "USPS", "brand:wikidata": "Q668687", "collection_times": "Mo-Sa 12:00", "name": "USPS COLLECTION BOX - BLUE BOX", "ref": "0291100021"}, "type": "Feature"}
{"geometry": {"coordinates": [-71.4746784, 41.854691], "type": "Point"}, "id": "Qd7B7yeXU1_X8H-uFRqZe-QmhgM=", "properties": {"@spider": "usps_collection_boxes", "addr:city": "N PROVIDENCE", "addr:country": "US", "addr:full": "1848 SMITH ST", "addr:postcode": "02911", "addr:state": "RI", "brand": "USPS", "brand:wikidata": "Q668687", "collection_times": "Mo-Sa 12:00", "name": "USPS COLLECTION BOX - BLUE BOX", "ref": "0291100026"}, "type": "Feature"}
{"geometry": {"coordinates": [-71.485475128, 41.858151162], "type": "Point"}, "id": "eXthBJIn3x_FGwwh4z3t_bXphpw=", "properties": {"@spider": "usps_collection_boxes", "addr:city": "N PROVIDENCE", "addr:country": "US", "addr:full": "2050 SMITH ST", "addr:postcode": "02911", "addr:state": "RI", "brand": "USPS", "brand:wikidata": "Q668687", "collection_times": "Mo-Fr 17:00; Sa 12:00", "name": "USPS COLLECTION BOX - PO LOBBY", "note": "ON 12/24 AND 12/31, THIS BOX MAY BE COLLECTED AS EARLY AS 12 NOON.", "ref": "0291100028"}, "type": "Feature"}
{"geometry": {"coordinates": [-71.3705854, 41.807635], "type": "Point"}, "id": "dNwvhovxbzF_OMo9gycSCRIYRU4=", "properties": {"@spider": "usps_collection_boxes", "addr:city": "EAST PROVIDENCE", "addr:country": "US", "addr:full": "26 ARTHUR AVE", "addr:postcode": "02914", "addr:state": "RI", "brand": "USPS", "brand:wikidata": "Q668687", "collection_times": "Mo-Sa 12:00", "name": "USPS COLLECTION BOX - BLUE BOX", "ref": "0291400002"}, "type": "Feature"}
{"geometry": {"coordinates": [-71.369645013, 41.815754886], "type": "Point"}, "id": "t1Stcytb7q4HkJK08WmDo7fXETY=", "properties": {"@spider": "usps_collection_boxes", "addr:city": "EAST PROVIDENCE", "addr:country": "US", "addr:full": "920 BROADWAY", "addr:postcode": "02914", "addr:state": "RI", "brand": "USPS", "brand:wikidata": "Q668687", "collection_times": "Mo-Sa 12:00", "name": "USPS COLLECTION BOX - BLUE BOX", "ref": "0291400003"}, "type": "Feature"}
{"geometry": {"coordinates": [-71.3429699, 41.803464], "type": "Point"}, "id": "ScRYKjgTWCGKCOnrrywV0VN8stI=", "properties": {"@spider": "usps_collection_boxes", "addr:city": "EAST PROVIDENCE", "addr:country": "US", "addr:full": "50 CATAMORE BLVD", "addr:postcode": "02914", "addr:state": "RI", "brand": "USPS", "brand:wikidata": "Q668687", "collection_times": "Mo-Fr 17:00; Sa 12:00", "name": "USPS COLLECTION BOX - BLUE BOX", "note": "ON 12/24 AND 12/31, THIS BOX MAY BE COLLECTED AS EARLY AS 12 NOON.", "ref": "0291400005"}, "type": "Feature"}
{"geometry": {"coordinates": [-71.3429852, 41.803462], "type": "Point"}, "id": "dsDoil5gIIAq7co2nSH22fz4eoE=", "properties": {"@spider": "usps_collection_boxes", "addr:city": "EAST PROVIDENCE", "addr:country": "US", "addr:full": "50 CATAMORE BLVD", "addr:postcode": "02914", "addr:state": "RI", "brand": "USPS", "brand:wikidata": "Q668687", "collection_times": "Mo-Fr 17:00; Sa 12:00", "name": "USPS COLLECTION BOX - BLUE BOX", "note": "ON 12/24 AND 12/31, THIS BOX MAY BE COLLECTED AS EARLY AS 12 NOON.", "ref": "0291400009"}, "type": "Feature"}
{"geometry": {"coordinates": [-71.37666, 41.819159], "type": "Point"}, "id": "83ZVdmDL0_gvIm-1KaZ1s4Fh8rE=", "properties": {"@spider": "usps_collection_boxes", "addr:city": "EAST PROVIDENCE", "addr:country": "US", "addr:full": "17 GROVE AVE", "addr:postcode": "02914", "addr:state": "RI", "brand": "USPS", "brand:wikidata": "Q668687", "collection_times": "Mo-Fr 17:00; Sa 12:00", "name": "USPS COLLECTION BOX - BLUE BOX", "note": "ON 12/24 AND 12/31, THIS BOX MAY BE COLLECTED AS EARLY AS 12 NOON.", "ref": "0291400011"}, "type": "Feature"}
{"geometry": {"coordinates": [-71.3764259831, 41.8190349926], "type": "Point"}, "id": "30Q2L2KbWoN1IGEpL_ZBrVlFTDo=", "properties": {"@spider": "usps_collection_boxes", "addr:city": "EAST PROVIDENCE", "addr:country": "US", "addr:full": "17 GROVE AVE", "addr:postcode": "02914", "addr:state": "RI", "brand": "USPS", "brand:wikidata": "Q668687", "collection_times": "Mo-Fr 17:00; Sa 12:00", "name": "USPS COLLECTION BOX - BLUE BOX", "note": "ON 12/24 AND 12/31, THIS BOX MAY BE COLLECTED AS EARLY AS 12 NOON.", "ref": "0291400012"}, "type": "Feature"}
{"geometry": {"coordinates": [-71.3652863, 41.830864], "type": "Point"}, "id": "6or4nPdq8RZO1Q-_fu4tsjjmVdM=", "properties": {"@spider": "usps_collection_boxes", "addr:city": "EAST PROVIDENCE", "addr:country": "US", "addr:full": "400 MASSASOIT AVE", "addr:postcode": "02914", "addr:state": "RI", "brand": "USPS", "brand:wikidata": "Q668687", "collection_times": "Mo-Sa 12:00", "name": "USPS COLLECTION BOX - BLUE BOX", "ref": "0291400015"}, "type": "Feature"}
{"geometry": {"coordinates": [-71.3635565, 41.827423], "type": "Point"}, "id": "1zYt68EazC_1_Y7AQg-Kol-tfQw=", "properties": {"@spider": "usps_collection_boxes", "addr:city": "EAST PROVIDENCE", "addr:country": "US", "addr:full": "558 N BROADWAY", "addr:postcode": "02914", "addr:state": "RI", "brand": "USPS", "brand:wikidata": "Q668687", "collection_times": "Mo-Sa 12:00", "name": "USPS COLLECTION BOX - BLUE BOX", "ref": "0291400017"}, "type": "Feature"}
{"geometry": {"coordinates": [-71.3661377, 41.823901], "type": "Point"}, "id": "5vxHC3yIIkF88nPPzqIc8PL711Y=", "properties": {"@spider": "usps_collection_boxes", "addr:city": "EAST PROVIDENCE", "addr:country": "US", "addr:full": "668 N BROADWAY", "addr:postcode": "02914", "addr:state": "RI", "brand": "USPS", "brand:wikidata": "Q668687", "collection_times": "Mo-Sa 12:00", "name": "USPS COLLECTION BOX - BLUE BOX", "ref": "0291400018"}, "type": "Feature"}
{"geometry": {"coordinates": [-71.3609776, 41.805309], "type": "Point"}, "id": "996mymAL8jx5Q3jieRv0A5k2Hkc=", "properties": {"@spider": "usps_collection_boxes", "addr:city": "EAST PROVIDENCE", "addr:country": "US", "addr:full": "2571 PAWTUCKET AVE", "addr:postcode": "02914", "addr:state": "RI", "brand": "USPS", "brand:wikidata": "Q668687", "collection_times": "Mo-Sa 11:00", "name": "USPS COLLECTION BOX - BLUE BOX", "ref": "0291400020"}, "type": "Feature"}
{"geometry": {"coordinates": [-71.3734216, 41.819706], "type": "Point"}, "id": "tftxtN6G-Tcz86b9khuhHHXoSmI=", "properties": {"@spider": "usps_collection_boxes", "addr:city": "EAST PROVIDENCE", "addr:country": "US", "addr:full": "218 TAUNTON AVE", "addr:postcode": "02914", "addr:state": "RI", "brand": "USPS", "brand:wikidata": "Q668687", "collection_times": "Mo-Sa 10:00", "name": "USPS COLLECTION BOX - BLUE BOX", "ref": "0291400028"}, "type": "Feature"}
{"geometry": {"coordinates": [-71.3704204, 41.819665], "type": "Point"}, "id": "JFm1sqGWQPUTQST9oFB1j8OQy_o=", "properties": {"@spider": "usps_collection_boxes", "addr:city": "EAST PROVIDENCE", "addr:country": "US", "addr:full": "225 TAUNTON AVE", "addr:postcode": "02914", "addr:state": "RI", "brand": "USPS", "brand:wikidata": "Q668687", "collection_times": "Mo-Sa 12:00", "name": "USPS COLLECTION BOX - BLUE BOX", "ref": "0291400031"}, "type": "Feature"}
{"geometry": {"coordinates": [-71.365895791, 41.82046066], "type": "Point"}, "id": "xIxMdN6SpZ-xmULiMQA4U04bpgc=", "properties": {"@spider": "usps_collection_boxes", "addr:city": "EAST PROVIDENCE", "addr:country": "US", "addr:full": "345 TAUNTON AVE", "addr:postcode": "02914", "addr:state": "RI", "brand": "USPS", "brand:wikidata": "Q668687", "collection_times": "Mo-Sa 12:00", "name": "USPS COLLECTION BOX - BLUE BOX", "ref": "0291400032"}, "type": "Feature"}
{"geometry": {"coordinates": [-71.3581412, 41.820677], "type": "Point"}, "id": "Ij0CV_Z4J0-fBOYpvOeCK5QYP9U=", "properties": {"@spider": "usps_collection_boxes", "addr:city": "EAST PROVIDENCE", "addr:country": "US", "addr:full": "575 TAUNTON AVE", "addr:postcode": "02914", "addr:state": "RI", "brand": "USPS", "brand:wikidata": "Q668687", "collection_times": "Mo-Sa 09:00", "name": "USPS COLLECTION BOX - BLUE BOX", "ref": "0291400035"}, "type": "Feature"}
{"geometry": {"coordinates": [-71.3840909, 41.806565], "type": "Point"}, "id": "g5WcKnyREE9fDaAxwiJK8Lkmsao=", "properties": {"@spider": "usps_collection_boxes", "addr:city": "EAST PROVIDENCE", "addr:country": "US", "addr:full": "450 VETERANS MEMORIAL PKWY", "addr:postcode": "02914", "addr:state": "RI", "brand": "USPS", "brand:wikidata": "Q668687", "collection_times": "Mo-Fr 16:30; Sa 12:00", "name": "USPS COLLECTION BOX - BLUE BOX", "note": "ON 12/24 AND 12/31, THIS BOX MAY BE COLLECTED AS EARLY AS 12 NOON.", "ref": "0291400038"}, "type": "Feature"}
{"geometry": {"coordinates": [-71.3840938, 41.806572], "type": "Point"}, "id": "wDElg109EGcXShCNkXRqhrXxpdQ=", "properties": {"@spider": "usps_collection_boxes", "addr:city": "EAST PROVIDENCE", "addr:country": "US", "addr:full": "450 VETERANS MEMORIAL PKWY", "addr:postcode": "02914", "addr:state": "RI", "brand": "USPS", "brand:wikidata": "Q668687", "collection_times": "Mo-Fr 16:30; Sa 12:00", "name": "USPS COLLECTION BOX - BLUE BOX", "note": "ON 12/24 AND 12/31, THIS BOX MAY BE COLLECTED AS EARLY AS 12 NOON.", "ref": "0291400039"}, "type": "Feature"}
{"geometry": {"coordinates": [-71.3601287, 41.822981], "type": "Point"}, "id": "ILzzH3QOQ3rTJ9GT989nUZ7NXOo=", "properties": {"@spider": "usps_collection_boxes", "addr:city": "EAST PROVIDENCE", "addr:country": "US", "addr:full": "99 GOLDSMITH AVE", "addr:postcode": "02914", "addr:state": "RI", "brand": "USPS", "brand:wikidata": "Q668687", "collection_times": "Mo-Sa 12:00", "name": "USPS COLLECTION BOX - BLUE BOX", "ref": "0291400043"}, "type": "Feature"}
{"geometry": {"coordinates": [-71.3780594, 41.816208], "type": "Point"}, "id": "ZyePHCLTD-cklOyJh4N-cDdycLQ=", "properties": {"@spider": "usps_collection_boxes", "addr:city": "EAST PROVIDENCE", "addr:country": "US", "addr:full": "150 WARREN AVE", "addr:postcode": "02914", "addr:state": "RI", "brand": "USPS", "brand:wikidata": "Q668687", "collection_times": "Mo-Sa 12:00", "name": "USPS COLLECTION BOX - BLUE BOX", "ref": "0291400044"}, "type": "Feature"}
{"geometry": {"coordinates": [-71.3756243, 41.815446], "type": "Point"}, "id": "uukTzsb30V7_LXg_MIfwP4uY2GY=", "properties": {"@spider": "usps_collection_boxes", "addr:city": "EAST PROVIDENCE", "addr:country": "US", "addr:full": "208 WARREN AVE", "addr:postcode": "02914", "addr:state": "RI", "brand": "USPS", "brand:wikidata": "Q668687", "collection_times": "Mo-Sa 12:00", "name": "USPS COLLECTION BOX - BLUE BOX", "ref": "0291400045"}, "type": "Feature"}
{"geometry": {"coordinates": [-71.3603721, 41.811404], "type": "Point"}, "id": "3U5E8F1HIi2fsIS5xtR1EQ96Oeo=", "properties": {"@spider": "usps_collection_boxes", "addr:city": "EAST PROVIDENCE", "addr:country": "US", "addr:full": "629 WARREN AVE", "addr:postcode": "02914", "addr:state": "RI", "brand": "USPS", "brand:wikidata": "Q668687", "collection_times": "Mo-Sa 11:00", "name": "USPS COLLECTION BOX - BLUE BOX", "ref": "0291400046"}, "type": "Feature"}
{"geometry": {"coordinates": [-71.3574342, 41.811017], "type": "Point"}, "id": "4pit9l8Sd1ZKRZu3QTPwU_3vSeM=", "properties": {"@spider": "usps_collection_boxes", "addr:city": "EAST PROVIDENCE", "addr:country": "US", "addr:full": "640 WARREN AVE", "addr:postcode": "02914", "addr:state": "RI", "brand": "USPS", "brand:wikidata": "Q668687", "collection_times": "Mo-Sa 09:00", "name": "USPS COLLECTION BOX - BLUE BOX", "ref": "0291400047"}, "type": "Feature"}
{"geometry": {"coordinates": [-71.349595981, 41.812381546], "type": "Point"}, "id": "W0_R34lc1VFfY8eqXr_g3LaMRiU=", "properties": {"@spider": "usps_collection_boxes", "addr:city": "EAST PROVIDENCE", "addr:country": "US", "addr:full": "865 WATERMAN AVE", "addr:postcode": "02914", "addr:state": "RI", "brand": "USPS", "brand:wikidata": "Q668687", "collection_times": "Mo-Sa 12:00", "name": "USPS COLLECTION BOX - BLUE BOX", "ref": "0291400058"}, "type": "Feature"}
{"geometry": {"coordinates": [-71.3474081, 41.811118], "type": "Point"}, "id": "oCBrnzE_h2Q4ib7iZlsVfqpoEUo=", "properties": {"@spider": "usps_collection_boxes", "addr:city": "EAST PROVIDENCE", "addr:country": "US", "addr:full": "977 WATERMAN AVE", "addr:postcode": "02914", "addr:state": "RI", "brand": "USPS", "brand:wikidata": "Q668687", "collection_times": "Mo-Sa 12:00", "name": "USPS COLLECTION BOX - BLUE BOX", "ref": "0291400060"}, "type": "Feature"}
{"geometry": {"coordinates": [-71.3571204, 41.823393], "type": "Point"}, "id": "fxTnLH36XP9HWruoxX2-CmNTM6I=", "properties": {"@spider": "usps_collection_boxes", "addr:city": "EAST PROVIDENCE", "addr:country": "US", "addr:full": "1925 PAWTUCKET AVE", "addr:postcode": "02914", "addr:state": "RI", "brand": "USPS", "brand:wikidata": "Q668687", "collection_times": "Mo-Fr 17:00; Sa 12:00", "name": "USPS COLLECTION BOX - BLUE BOX", "note": "ON 12/24 AND 12/31, THIS BOX MAY BE COLLECTED AS EARLY AS 12 NOON.", "ref": "0291400069"}, "type": "Feature"}
{"geometry": {"coordinates": [-71.3429695, 41.803465], "type": "Point"}, "id": "iIAt7lpRHHgY2LGhXf-CAPaWuCQ=", "properties": {"@spider": "usps_collection_boxes", "addr:city": "EAST PROVIDENCE", "addr:country": "US", "addr:full": "50 CATAMORE BLVD", "addr:postcode": "02914", "addr:state": "RI", "brand": "USPS", "brand:wikidata": "Q668687", "collection_times": "Mo-Fr 17:00; Sa 12:00", "name": "USPS COLLECTION BOX - BLUE BOX", "note": "ON 12/24 AND 12/31, THIS BOX MAY BE COLLECTED AS EARLY AS 12 NOON.", "ref": "0291400071"}, "type": "Feature"}
{"geometry": {"coordinates": [-71.3708228, 41.813057], "type": "Point"}, "id": "JTrWlNBFu2bqpBZWEVh8-x_OxvY=", "properties": {"@spider": "usps_collection_boxes", "addr:city": "EAST PROVIDENCE", "addr:country": "US", "addr:full": "999 S BROADWAY", "addr:postcode": "02914", "addr:state": "RI", "brand": "USPS", "brand:wikidata": "Q668687", "collection_times": "Mo-Sa 12:00", "name": "USPS COLLECTION BOX - BLUE BOX", "ref": "0291400072"}, "type": "Feature"}
{"geometry": {"coordinates": [-71.37666, 41.819159], "type": "Point"}, "id": "SXvATLYIu9VbkYWIqG44A4q3gQ8=", "properties": {"@spider": "usps_collection_boxes", "addr:city": "EAST PROVIDENCE", "addr:country": "US", "addr:full": "17 GROVE AVE", "addr:postcode": "02914", "addr:state": "RI", "brand": "USPS", "brand:wikidata": "Q668687", "collection_times": "Mo-Fr 17:00; Sa 12:00", "name": "USPS COLLECTION BOX - BLUE BOX", "note": "ON 12/24 AND 12/31, THIS BOX MAY BE COLLECTED AS EARLY AS 12 NOON.", "ref": "0291400075"}, "type": "Feature"}
{"geometry": {"coordinates": [-71.376373235, 41.819206392], "type": "Point"}, "id": "uieXYOTz9AKQSVzlpmCOZxFtspw=", "properties": {"@spider": "usps_collection_boxes", "addr:city": "EAST PROVIDENCE", "addr:country": "US", "addr:full": "17 GROVE AVE", "addr:postcode": "02914", "addr:state": "RI", "brand": "USPS", "brand:wikidata": "Q668687", "collection_times": "Mo-Fr 17:00; Sa 12:00", "name": "USPS COLLECTION BOX - PO LOBBY", "note": "ON 12/24 AND 12/31, THIS BOX MAY BE COLLECTED AS EARLY AS 12 NOON.", "ref": "0291400085"}, "type": "Feature"}
{"geometry": {"coordinates": [-71.3607144, 41.753636], "type": "Point"}, "id": "XweKuhggXB2BrXOEnmA3ONH98bo=", "properties": {"@spider": "usps_collection_boxes", "addr:city": "RIVERSIDE", "addr:country": "US", "addr:full": "50 TERRACE AVE", "addr:postcode": "02915", "addr:state": "RI", "brand": "USPS", "brand:wikidata": "Q668687", "collection_times": "Mo-Sa 11:00", "name": "USPS COLLECTION BOX - BLUE BOX", "ref": "0291500003"}, "type": "Feature"}
{"geometry": {"coordinates": [-71.362424, 41.771611], "type": "Point"}, "id": "qOIIUDqDAP_hYveYZi7MN-1ajcg=", "properties": {"@spider": "usps_collection_boxes", "addr:city": "RIVERSIDE", "addr:country": "US", "addr:full": "241 BULLOCKS POINT AVE", "addr:postcode": "02915", "addr:state": "RI", "brand": "USPS", "brand:wikidata": "Q668687", "collection_times": "Mo-Sa 11:00", "name": "USPS COLLECTION BOX - BLUE BOX", "ref": "0291500006"}, "type": "Feature"}
{"geometry": {"coordinates": [-71.343769284, 41.7592853608], "type": "Point"}, "id": "GBkPy_fkniBLayjpcHHx4TuZhW4=", "properties": {"@spider": "usps_collection_boxes", "addr:city": "RIVERSIDE", "addr:country": "US", "addr:full": "1050 WILLETT AVE", "addr:postcode": "02915", "addr:state": "RI", "brand": "USPS", "brand:wikidata": "Q668687", "collection_times": "Mo-Sa 11:00", "name": "USPS COLLECTION BOX - BLUE BOX", "ref": "0291500011"}, "type": "Feature"}
{"geometry": {"coordinates": [-71.3638642, 41.797983], "type": "Point"}, "id": "PP1Y1BLqgXoMQ-MrrwnFotyo2j8=", "properties": {"@spider": "usps_collection_boxes", "addr:city": "RIVERSIDE", "addr:country": "US", "addr:full": "2831 PAWTUCKET AVE", "addr:postcode": "02915", "addr:state": "RI", "brand": "USPS", "brand:wikidata": "Q668687", "collection_times": "Mo-Sa 11:00", "name": "USPS COLLECTION BOX - BLUE BOX", "ref": "0291500012"}, "type": "Feature"}
{"geometry": {"coordinates": [-71.3642574, 41.78863], "type": "Point"}, "id": "LQN7rNJvNc7Md2d3cr30bGMqxtI=", "properties": {"@spider": "usps_collection_boxes", "addr:city": "RIVERSIDE", "addr:country": "US", "addr:full": "3 VILLAGE GRN N", "addr:postcode": "02915", "addr:state": "RI", "brand": "USPS", "brand:wikidata": "Q668687", "collection_times": "Mo-Sa 11:00", "name": "USPS COLLECTION BOX - BLUE BOX", "ref": "0291500019"}, "type": "Feature"}
{"geometry": {"coordinates": [-71.3487304, 41.794463], "type": "Point"}, "id": "FB50GSf4fCa8_nx10gyhYy_bzXs=", "properties": {"@spider": "usps_collection_boxes", "addr:city": "RIVERSIDE", "addr:country": "US", "addr:full": "38 AMARAL ST", "addr:postcode": "02915", "addr:state": "RI", "brand": "USPS", "brand:wikidata": "Q668687", "collection_times": "Mo-Fr 15:00; Sa 11:00", "name": "USPS COLLECTION BOX - BLUE BOX", "note": "ON 12/24 AND 12/31, THIS BOX MAY BE COLLECTED AS EARLY AS 12 NOON.", "ref": "0291500023"}, "type": "Feature"}
{"geometry": {"coordinates": [-71.3487228, 41.794466], "type": "Point"}, "id": "gdt19XbW_01CcE1ScRS2f9HEHhU=", "properties": {"@spider": "usps_collection_boxes", "addr:city": "RIVERSIDE", "addr:country": "US", "addr:full": "38 AMARAL ST", "addr:postcode": "02915", "addr:state": "RI", "brand": "USPS", "brand:wikidata": "Q668687", "collection_times": "Mo-Fr 15:00; Sa 11:00", "name": "USPS COLLECTION BOX - BLUE BOX", "note": "ON 12/24 AND 12/31, THIS BOX MAY BE COLLECTED AS EARLY AS 12 NOON.", "ref": "0291500024"}, "type": "Feature"}
{"geometry": {"coordinates": [-71.3527729, 41.795857], "type": "Point"}, "id": "G_o04ZqcKBQvxxL32FZN3Zvz9Hw=", "properties": {"@spider": "usps_collection_boxes", "addr:city": "RIVERSIDE", "addr:country": "US", "addr:full": "250 WAMPANOAG TRL", "addr:postcode": "02915", "addr:state": "RI", "brand": "USPS", "brand:wikidata": "Q668687", "collection_times": "Mo-Sa 11:00", "name": "USPS COLLECTION BOX - BLUE BOX", "ref": "0291500027"}, "type": "Feature"}
{"geometry": {"coordinates": [-71.3270309, 41.77364], "type": "Point"}, "id": "tI0vDkQWP7WAu-mNFXFR0dZdmJo=", "properties": {"@spider": "usps_collection_boxes", "addr:city": "RIVERSIDE", "addr:country": "US", "addr:full": "1525 WAMPANOAG TRL", "addr:postcode": "02915", "addr:state": "RI", "brand": "USPS", "brand:wikidata": "Q668687", "collection_times": "Mo-Sa 11:00", "name": "USPS COLLECTION BOX - BLUE BOX", "ref": "0291500030"}, "type": "Feature"}
{"geometry": {"coordinates": [-71.3277505, 41.775044], "type": "Point"}, "id": "YmSUkWT8fympm9fENal3-AcZxnE=", "properties": {"@spider": "usps_collection_boxes", "addr:city": "RIVERSIDE", "addr:country": "US", "addr:full": "1445 WAMPANOAG TRL", "addr:postcode": "02915", "addr:state": "RI", "brand": "USPS", "brand:wikidata": "Q668687", "collection_times": "Mo-Sa 11:00", "name": "USPS COLLECTION BOX - BLUE BOX", "ref": "0291500031"}, "type": "Feature"}
{"geometry": {"coordinates": [-71.3535284, 41.773053], "type": "Point"}, "id": "5qa-CN-Q-4yl8XWusiv5vvo9hG0=", "properties": {"@spider": "usps_collection_boxes", "addr:city": "RIVERSIDE", "addr:country": "US", "addr:full": "378 WILLETT AVE", "addr:postcode": "02915", "addr:state": "RI", "brand": "USPS", "brand:wikidata": "Q668687", "collection_times": "Mo-Fr 17:00; Sa 14:30", "name": "USPS COLLECTION BOX - BLUE BOX", "note": "ON 12/24 AND 12/31, THIS BOX MAY BE COLLECTED AS EARLY AS 12 NOON.", "ref": "0291500033"}, "type": "Feature"}
{"geometry": {"coordinates": [-71.3535068, 41.773069], "type": "Point"}, "id": "A7Ejrqn0etsma4rC5eDAl5wH1cQ=", "properties": {"@spider": "usps_collection_boxes", "addr:city": "RIVERSIDE", "addr:country": "US", "addr:full": "378 WILLETT AVE", "addr:postcode": "02915", "addr:state": "RI", "brand": "USPS", "brand:wikidata": "Q668687", "collection_times": "Mo-Fr 17:00; Sa 14:30", "name": "USPS COLLECTION BOX - EXPRESS", "note": "ON 12/24 AND 12/31, THIS BOX MAY BE COLLECTED AS EARLY AS 12 NOON.", "ref": "0291500035"}, "type": "Feature"}
{"geometry": {"coordinates": [-71.3471252, 41.760171], "type": "Point"}, "id": "A1KVcmBP8YWiDT3aOXSEztiAgZI=", "properties": {"@spider": "usps_collection_boxes", "addr:city": "RIVERSIDE", "addr:country": "US", "addr:full": "960 WILLETT AVE", "addr:postcode": "02915", "addr:state": "RI", "brand": "USPS", "brand:wikidata": "Q668687", "collection_times": "Mo-Sa 11:00", "name": "USPS COLLECTION BOX - BLUE BOX", "ref": "0291500038"}, "type": "Feature"}
{"geometry": {"coordinates": [-71.3562586, 41.771772], "type": "Point"}, "id": "9UvEyfVfYRqz3QD9LUkXJNrgdVM=", "properties": {"@spider": "usps_collection_boxes", "addr:city": "RIVERSIDE", "addr:country": "US", "addr:full": "105 BURNSIDE AVE", "addr:postcode": "02915", "addr:state": "RI", "brand": "USPS", "brand:wikidata": "Q668687", "collection_times": "Mo-Sa 11:00", "name": "USPS COLLECTION BOX - BLUE BOX", "ref": "0291500045"}, "type": "Feature"}
{"geometry": {"coordinates": [-71.348961001, 41.794735017], "type": "Point"}, "id": "GAwXu4vfKWVJP0NJvWIXZN1Lt2Y=", "properties": {"@spider": "usps_collection_boxes", "addr:city": "RIVERSIDE", "addr:country": "US", "addr:full": "38 AMARAL ST", "addr:postcode": "02915", "addr:state": "RI", "brand": "USPS", "brand:wikidata": "Q668687", "collection_times": "Mo-Fr 15:00; Sa 11:00", "name": "USPS COLLECTION BOX - BLUE BOX", "note": "ON 12/24 AND 12/31, THIS BOX MAY BE COLLECTED AS EARLY AS 12 NOON.", "ref": "0291500047"}, "type": "Feature"}
{"geometry": {"coordinates": [-71.353868591, 41.773017237], "type": "Point"}, "id": "2Eue3duA2_SqMjrZGf6DQIG_q-8=", "properties": {"@spider": "usps_collection_boxes", "addr:city": "RIVERSIDE", "addr:country": "US", "addr:full": "378 WILLETT AVE", "addr:postcode": "02915", "addr:state": "RI", "brand": "USPS", "brand:wikidata": "Q668687", "collection_times": "Mo-Fr 17:00; Sa 16:00", "name": "USPS COLLECTION BOX - PO LOBBY", "note": "ON 12/24 AND 12/31, THIS BOX MAY BE COLLECTED AS EARLY AS 12 NOON.", "ref": "0291500049"}, "type": "Feature"}
{"geometry": {"coordinates": [-71.3603296, 41.832448], "type": "Point"}, "id": "h1ulNxLsv6VGqPRhh518WzDR8pw=", "properties": {"@spider": "usps_collection_boxes", "addr:city": "RUMFORD", "addr:country": "US", "addr:full": "9 CENTRE ST", "addr:postcode": "02916", "addr:state": "RI", "brand": "USPS", "brand:wikidata": "Q668687", "collection_times": "Mo-Sa 12:00", "name": "USPS COLLECTION BOX - BLUE BOX", "ref": "0291600003"}, "type": "Feature"}
{"geometry": {"coordinates": [-71.354347, 41.840986], "type": "Point"}, "id": "Ue40793yx3-xkZz4kxu8-NZ5d4U=", "properties": {"@spider": "usps_collection_boxes", "addr:city": "RUMFORD", "addr:country": "US", "addr:full": "10 NEWMAN AVE", "addr:postcode": "02916", "addr:state": "RI", "brand": "USPS", "brand:wikidata": "Q668687", "collection_times": "Mo-Fr 17:00; Sa 12:00", "name": "USPS COLLECTION BOX - BLUE BOX", "note": "ON 12/24 AND 12/31, THIS BOX MAY BE COLLECTED AS EARLY AS 12 NOON.", "ref": "0291600006"}, "type": "Feature"}
{"geometry": {"coordinates": [-71.3546740223, 41.8410790208], "type": "Point"}, "id": "uN_KVYuCxBRAk8NKl4FQBKXqXQM=", "properties": {"@spider": "usps_collection_boxes", "addr:city": "RUMFORD", "addr:country": "US", "addr:full": "10 NEWMAN AVE", "addr:postcode": "02916", "addr:state": "RI", "brand": "USPS", "brand:wikidata": "Q668687", "collection_times": "Mo-Fr 17:00; Sa 12:00", "name": "USPS COLLECTION BOX - BLUE BOX", "note": "ON 12/24 AND 12/31, THIS BOX MAY BE COLLECTED AS EARLY AS 12 NOON.", "ref": "0291600008"}, "type": "Feature"}
{"geometry": {"coordinates": [-71.3545768, 41.852192], "type": "Point"}, "id": "mXOI8zmy34VMztt2Qg9NUkGhw2I=", "properties": {"@spider": "usps_collection_boxes", "addr:city": "RUMFORD", "addr:country": "US", "addr:full": "275 NEWPORT AVE", "addr:postcode": "02916", "addr:state": "RI", "brand": "USPS", "brand:wikidata": "Q668687", "collection_times": "Mo-Sa 10:30", "name": "USPS COLLECTION BOX - BLUE BOX", "ref": "0291600009"}, "type": "Feature"}
{"geometry": {"coordinates": [-71.3526959, 41.856478], "type": "Point"}, "id": "jeo7AwDBM9VGP10vXsl44c9KGCc=", "properties": {"@spider": "usps_collection_boxes", "addr:city": "RUMFORD", "addr:country": "US", "addr:full": "68 NEWPORT AVE", "addr:postcode": "02916", "addr:state": "RI", "brand": "USPS", "brand:wikidata": "Q668687", "collection_times": "Mo-Sa 10:00", "name": "USPS COLLECTION BOX - BLUE BOX", "ref": "0291600010"}, "type": "Feature"}
{"geometry": {"coordinates": [-71.3539941, 41.853965], "type": "Point"}, "id": "rBf7caJT3gvauAXzKipO1hfTNVs=", "properties": {"@spider": "usps_collection_boxes", "addr:city": "RUMFORD", "addr:country": "US", "addr:full": "220 NEWPORT AVE", "addr:postcode": "02916", "addr:state": "RI", "brand": "USPS", "brand:wikidata": "Q668687", "collection_times": "Mo-Sa 10:30", "name": "USPS COLLECTION BOX - BLUE BOX", "ref": "0291600011"}, "type": "Feature"}
{"geometry": {"coordinates": [-71.3495417, 41.840994], "type": "Point"}, "id": "CtWaspMjs0BnWU83-y-K8rR76OU=", "properties": {"@spider": "usps_collection_boxes", "addr:city": "RUMFORD", "addr:country": "US", "addr:full": "1240 PAWTUCKET AVE", "addr:postcode": "02916", "addr:state": "RI", "brand": "USPS", "brand:wikidata": "Q668687", "collection_times": "Mo-Sa 10:00", "name": "USPS COLLECTION BOX - BLUE BOX", "ref": "0291600013"}, "type": "Feature"}
{"geometry": {"coordinates": [-71.3645678, 41.848088], "type": "Point"}, "id": "xTE325j58dZotpPPbOnmZZSZptg=", "properties": {"@spider": "usps_collection_boxes", "addr:city": "RUMFORD", "addr:country": "US", "addr:full": "302 ROGER WILLIAMS AVE", "addr:postcode": "02916", "addr:state": "RI", "brand": "USPS", "brand:wikidata": "Q668687", "collection_times": "Mo-Sa 10:00", "name": "USPS COLLECTION BOX - BLUE BOX", "ref": "0291600015"}, "type": "Feature"}
{"geometry": {"coordinates": [-71.3559249, 41.844708], "type": "Point"}, "id": "lG1AMYRlGq0ImCJC94kUdasauow=", "properties": {"@spider": "usps_collection_boxes", "addr:city": "RUMFORD", "addr:country": "US", "addr:full": "261 WILSON AVE", "addr:postcode": "02916", "addr:state": "RI", "brand": "USPS", "brand:wikidata": "Q668687", "collection_times": "Mo-Sa 12:00", "name": "USPS COLLECTION BOX - BLUE BOX", "ref": "0291600016"}, "type": "Feature"}
{"geometry": {"coordinates": [-71.3605431, 41.838502], "type": "Point"}, "id": "eIm-ThgsZGYUNNMhu4g6ROQKo-s=", "properties": {"@spider": "usps_collection_boxes", "addr:city": "RUMFORD", "addr:country": "US", "addr:full": "52 WILSON AVE", "addr:postcode": "02916", "addr:state": "RI", "brand": "USPS", "brand:wikidata": "Q668687", "collection_times": "Mo-Sa 12:00", "name": "USPS COLLECTION BOX - BLUE BOX", "ref": "0291600017"}, "type": "Feature"}
{"geometry": {"coordinates": [-71.3496052, 41.842143], "type": "Point"}, "id": "KQqUX5WC1-No-VP07Rqd_5laHr4=", "properties": {"@spider": "usps_collection_boxes", "addr:city": "RUMFORD", "addr:country": "US", "addr:full": "27 FERRIS AVE", "addr:postcode": "02916", "addr:state": "RI", "brand": "USPS", "brand:wikidata": "Q668687", "collection_times": "Mo-Sa 10:15", "name": "USPS COLLECTION BOX - BLUE BOX", "ref": "0291600019"}, "type": "Feature"}
{"geometry": {"coordinates": [-71.354828891, 41.840546354], "type": "Point"}, "id": "TtuAiM0izSg4-mxHwVTTKkoVdcg=", "properties": {"@spider": "usps_collection_boxes", "addr:city": "RUMFORD", "addr:country": "US", "addr:full": "10 NEWMAN AVE", "addr:postcode": "02916", "addr:state": "RI", "brand": "USPS", "brand:wikidata": "Q668687", "collection_times": "Mo-Fr 17:00; Sa 12:00", "name": "USPS COLLECTION BOX - PO LOBBY", "note": "ON 12/24 AND 12/31, THIS BOX MAY BE COLLECTED AS EARLY AS 12 NOON.", "ref": "0291600022"}, "type": "Feature"}
{"geometry": {"coordinates": [-71.505859511, 41.875758247], "type": "Point"}, "id": "qeZwnQ3beCHVVO3-jEWxZIcZO2I=", "properties": {"@spider": "usps_collection_boxes", "addr:city": "SMITHFIELD", "addr:country": "US", "addr:full": "129 OLD COUNTY RD", "addr:postcode": "02917", "addr:state": "RI", "brand": "USPS", "brand:wikidata": "Q668687", "collection_times": "Mo-Sa 11:00", "name": "USPS COLLECTION BOX - BLUE BOX", "ref": "0291700002"}, "type": "Feature"}
{"geometry": {"coordinates": [-71.516558, 41.912328], "type": "Point"}, "id": "FkTtincmoGoczuIj-ugfYH_IitE=", "properties": {"@spider": "usps_collection_boxes", "addr:city": "SMITHFIELD", "addr:country": "US", "addr:full": "2 THURBER BLVD", "addr:postcode": "02917", "addr:state": "RI", "brand": "USPS", "brand:wikidata": "Q668687", "collection_times": "Mo-Fr 16:30; Sa 09:00", "name": "USPS COLLECTION BOX - BLUE BOX", "note": "ON 12/24 AND 12/31, THIS BOX MAY BE COLLECTED AS EARLY AS 12 NOON.", "ref": "0291700003"}, "type": "Feature"}
{"geometry": {"coordinates": [-71.5165496, 41.912325], "type": "Point"}, "id": "DFECG5FhecQ7WoyJmMOK5riZVoQ=", "properties": {"@spider": "usps_collection_boxes", "addr:city": "SMITHFIELD", "addr:country": "US", "addr:full": "2 THURBER BLVD", "addr:postcode": "02917", "addr:state": "RI", "brand": "USPS", "brand:wikidata": "Q668687", "collection_times": "Mo-Fr 16:30; Sa 09:00", "name": "USPS COLLECTION BOX - BLUE BOX", "note": "ON 12/24 AND 12/31, THIS BOX MAY BE COLLECTED AS EARLY AS 12 NOON.", "ref": "0291700004"}, "type": "Feature"}
{"geometry": {"coordinates": [-71.5165647, 41.912323], "type": "Point"}, "id": "-4Q0VRq8ycWWrpWClZnGtTq2TUg=", "properties": {"@spider": "usps_collection_boxes", "addr:city": "SMITHFIELD", "addr:country": "US", "addr:full": "2 THURBER BLVD", "addr:postcode": "02917", "addr:state": "RI", "brand": "USPS", "brand:wikidata": "Q668687", "collection_times": "Mo-Fr 16:30; Sa 09:00", "name": "USPS COLLECTION BOX - BLUE BOX", "note": "ON 12/24 AND 12/31, THIS BOX MAY BE COLLECTED AS EARLY AS 12 NOON.", "ref": "0291700005"}, "type": "Feature"}
{"geometry": {"coordinates": [-71.4758127, 41.880589], "type": "Point"}, "id": "71-v50_7WqkaBnHhjeZVxfyk96w=", "properties": {"@spider": "usps_collection_boxes", "addr:city": "SMITHFIELD", "addr:country": "US", "addr:full": "125 DOUGLAS PIKE", "addr:postcode": "02917", "addr:state": "RI", "brand": "USPS", "brand:wikidata": "Q668687", "collection_times": "Mo-Sa 11:00", "name": "USPS COLLECTION BOX - BLUE BOX", "ref": "0291700008"}, "type": "Feature"}
{"geometry": {"coordinates": [-71.5091504, 41.88558], "type": "Point"}, "id": "xpIobPtZGUOPe-ftlspjYXGSYHY=", "properties": {"@spider": "usps_collection_boxes", "addr:city": "SMITHFIELD", "addr:country": "US", "addr:full": "64 FARNUM PIKE", "addr:postcode": "02917", "addr:state": "RI", "brand": "USPS", "brand:wikidata": "Q668687", "collection_times": "Mo-Sa 11:00", "name": "USPS COLLECTION BOX - BLUE BOX", "ref": "0291700012"}, "type": "Feature"}
{"geometry": {"coordinates": [-71.517718536, 41.892662862], "type": "Point"}, "id": "_7usw2iuAL4Gl4OSJ6eM6V8xCVk=", "properties": {"@spider": "usps_collection_boxes", "addr:city": "SMITHFIELD", "addr:country": "US", "addr:full": "290 OLD COUNTY RD", "addr:postcode": "02917", "addr:state": "RI", "brand": "USPS", "brand:wikidata": "Q668687", "collection_times": "Mo-Fr 17:00; Sa 14:00", "name": "USPS COLLECTION BOX - BLUE BOX", "note": "ON 12/24 AND 12/31, THIS BOX MAY BE COLLECTED AS EARLY AS 12 NOON.", "ref": "0291700013"}, "type": "Feature"}
{"geometry": {"coordinates": [-71.5406706, 41.883118], "type": "Point"}, "id": "jocXg2e35at67QY15oecHF95Ono=", "properties": {"@spider": "usps_collection_boxes", "addr:city": "SMITHFIELD", "addr:country": "US", "addr:full": "109 PLEASANT VIEW AVE", "addr:postcode": "02917", "addr:state": "RI", "brand": "USPS", "brand:wikidata": "Q668687", "collection_times": "Mo-Sa 11:00", "name": "USPS COLLECTION BOX - BLUE BOX", "ref": "0291700015"}, "type": "Feature"}
{"geometry": {"coordinates": [-71.5302927, 41.869561], "type": "Point"}, "id": "eW9Cp-_xZdiBiTQAHutJHVNDSj8=", "properties": {"@spider": "usps_collection_boxes", "addr:city": "SMITHFIELD", "addr:country": "US", "addr:full": "400 PUTNAM PIKE", "addr:postcode": "02917", "addr:state": "RI", "brand": "USPS", "brand:wikidata": "Q668687", "collection_times": "Mo-Sa 11:00", "name": "USPS COLLECTION BOX - BLUE BOX", "ref": "0291700016"}, "type": "Feature"}
{"geometry": {"coordinates": [-71.500289403, 41.87774657], "type": "Point"}, "id": "zmSsdZGnnnerdCRLn91Zidr12BU=", "properties": {"@spider": "usps_collection_boxes", "addr:city": "SMITHFIELD", "addr:country": "US", "addr:full": "345 WATERMAN AVE", "addr:postcode": "02917", "addr:state": "RI", "brand": "USPS", "brand:wikidata": "Q668687", "collection_times": "Mo-Sa 11:00", "name": "USPS COLLECTION BOX - BLUE BOX", "ref": "0291700017"}, "type": "Feature"}
{"geometry": {"coordinates": [-71.5315484, 41.872645], "type": "Point"}, "id": "bL-JL60pc7Km5SPHh25bFDMFKrA=", "properties": {"@spider": "usps_collection_boxes", "addr:city": "SMITHFIELD", "addr:country": "US", "addr:full": "14 CEDAR SWAMP RD", "addr:postcode": "02917", "addr:state": "RI", "brand": "USPS", "brand:wikidata": "Q668687", "collection_times": "Mo-Sa 10:00", "name": "USPS COLLECTION BOX - BLUE BOX", "ref": "0291700018"}, "type": "Feature"}
{"geometry": {"coordinates": [-71.5478651, 41.916622], "type": "Point"}, "id": "2zTw0942FEwLI5QOQNzLo40o_do=", "properties": {"@spider": "usps_collection_boxes", "addr:city": "SMITHFIELD", "addr:country": "US", "addr:full": "1 INDUSTRIAL DR S", "addr:postcode": "02917", "addr:state": "RI", "brand": "USPS", "brand:wikidata": "Q668687", "collection_times": "Mo-Fr 16:15", "name": "USPS COLLECTION BOX - BLUE BOX", "note": "ON 12/24 AND 12/31, THIS BOX MAY BE COLLECTED AS EARLY AS 12 NOON.", "ref": "0291700021"}, "type": "Feature"}
{"geometry": {"coordinates": [-71.517718536, 41.892662862], "type": "Point"}, "id": "7iY4UFHiHWTeO1SQaWyclWSD3_I=", "properties": {"@spider": "usps_collection_boxes", "addr:city": "SMITHFIELD", "addr:country": "US", "addr:full": "290 OLD COUNTY RD", "addr:postcode": "02917", "addr:state": "RI", "brand": "USPS", "brand:wikidata": "Q668687", "collection_times": "Mo-Fr 17:00; Sa 16:45", "name": "USPS COLLECTION BOX - PO LOBBY", "note": "ON 12/24 AND 12/31, THIS BOX MAY BE COLLECTED AS EARLY AS 12 NOON.", "ref": "0291700027"}, "type": "Feature"}
{"geometry": {"coordinates": [-71.4698795, 41.814844], "type": "Point"}, "id": "v2hYlOFhxGExv2dDP43rdcREt5E=", "properties": {"@spider": "usps_collection_boxes", "addr:city": "JOHNSTON", "addr:country": "US", "addr:full": "134 CENTRAL AVE", "addr:postcode": "02919", "addr:state": "RI", "brand": "USPS", "brand:wikidata": "Q668687", "collection_times": "Mo-Sa 12:00", "name": "USPS COLLECTION BOX - BLUE BOX", "ref": "0291900002"}, "type": "Feature"}
{"geometry": {"coordinates": [-71.4912178, 41.805912], "type": "Point"}, "id": "VXwhu-cs6OITp1sPcnVylXUACfQ=", "properties": {"@spider": "usps_collection_boxes", "addr:city": "JOHNSTON", "addr:country": "US", "addr:full": "1184 ATWOOD AVE", "addr:postcode": "02919", "addr:state": "RI", "brand": "USPS", "brand:wikidata": "Q668687", "collection_times": "Mo-Fr 11:00; Sa 12:00", "name": "USPS COLLECTION BOX - BLUE BOX", "ref": "0291900003"}, "type": "Feature"}
{"geometry": {"coordinates": [-71.4980456018, 41.8212164452], "type": "Point"}, "id": "oKTyjguu4v7FxEkOoamdCYoHrXA=", "properties": {"@spider": "usps_collection_boxes", "addr:city": "JOHNSTON", "addr:country": "US", "addr:full": "1459 ATWOOD AVE", "addr:postcode": "02919", "addr:state": "RI", "brand": "USPS", "brand:wikidata": "Q668687", "collection_times": "Mo-Sa 12:00", "name": "USPS COLLECTION BOX - BLUE BOX", "ref": "0291900006"}, "type": "Feature"}
{"geometry": {"coordinates": [-71.4987519, 41.822764], "type": "Point"}, "id": "ybtw49qDyUgxSZ_EkQiRxNl0k4w=", "properties": {"@spider": "usps_collection_boxes", "addr:city": "JOHNSTON", "addr:country": "US", "addr:full": "1478 ATWOOD AVE", "addr:postcode": "02919", "addr:state": "RI", "brand": "USPS", "brand:wikidata": "Q668687", "collection_times": "Mo-Fr 11:00; Sa 12:00", "name": "USPS COLLECTION BOX - BLUE BOX", "ref": "0291900007"}, "type": "Feature"}
{"geometry": {"coordinates": [-71.5007806, 41.82774], "type": "Point"}, "id": "ZLZlnfi4IXpheCnJrl-nNamL1Ss=", "properties": {"@spider": "usps_collection_boxes", "addr:city": "JOHNSTON", "addr:country": "US", "addr:full": "1524 ATWOOD AVE", "addr:postcode": "02919", "addr:state": "RI", "brand": "USPS", "brand:wikidata": "Q668687", "collection_times": "Mo-Fr 17:00; Sa 12:00", "name": "USPS COLLECTION BOX - BLUE BOX", "note": "ON 12/24 AND 12/31, THIS BOX MAY BE COLLECTED AS EARLY AS 12 NOON.", "ref": "0291900008"}, "type": "Feature"}
{"geometry": {"coordinates": [-71.4840614167, 41.8365431884], "type": "Point"}, "id": "oF_Has-fZdlax4b2yeOTOFIFvsI=", "properties": {"@spider": "usps_collection_boxes", "addr:city": "JOHNSTON", "addr:country": "US", "addr:full": "2 CHERRY HILL RD", "addr:postcode": "02919", "addr:state": "RI", "brand": "USPS", "brand:wikidata": "Q668687", "collection_times": "Mo-Sa 11:00", "name": "USPS COLLECTION BOX - BLUE BOX", "ref": "0291900013"}, "type": "Feature"}
{"geometry": {"coordinates": [-71.4998674, 41.820502], "type": "Point"}, "id": "AqTcsfw46nbV9f_9RQ3R2cz9toc=", "properties": {"@spider": "usps_collection_boxes", "addr:city": "JOHNSTON", "addr:country": "US", "addr:full": "11 COMMERCE WAY", "addr:postcode": "02919", "addr:state": "RI", "brand": "USPS", "brand:wikidata": "Q668687", "collection_times": "Mo-Fr 11:00; Sa 12:00", "name": "USPS COLLECTION BOX - BLUE BOX", "ref": "0291900014"}, "type": "Feature"}
{"geometry": {"coordinates": [-71.4796671, 41.835363], "type": "Point"}, "id": "g_Yxd8P4UHA0NqmqOiA6bWvdwAQ=", "properties": {"@spider": "usps_collection_boxes", "addr:city": "JOHNSTON", "addr:country": "US", "addr:full": "8 FORAND CIR", "addr:postcode": "02919", "addr:state": "RI", "brand": "USPS", "brand:wikidata": "Q668687", "collection_times": "Mo-Sa 11:00", "name": "USPS COLLECTION BOX - BLUE BOX", "ref": "0291900015"}, "type": "Feature"}
{"geometry": {"coordinates": [-71.4754979, 41.833695], "type": "Point"}, "id": "asC6C5-u3hJE0YEuQkUxYkZZY0I=", "properties": {"@spider": "usps_collection_boxes", "addr:city": "JOHNSTON", "addr:country": "US", "addr:full": "80 GREENVILLE AVE", "addr:postcode": "02919", "addr:state": "RI", "brand": "USPS", "brand:wikidata": "Q668687", "collection_times": "Mo-Sa 11:00", "name": "USPS COLLECTION BOX - BLUE BOX", "ref": "0291900017"}, "type": "Feature"}
{"geometry": {"coordinates": [-71.4840119, 41.839445], "type": "Point"}, "id": "gp9q0p49Lz8CErUeeCrdzXU8W6E=", "properties": {"@spider": "usps_collection_boxes", "addr:city": "JOHNSTON", "addr:country": "US", "addr:full": "269 GREENVILLE AVE", "addr:postcode": "02919", "addr:state": "RI", "brand": "USPS", "brand:wikidata": "Q668687", "collection_times": "Mo-Sa 11:00", "name": "USPS COLLECTION BOX - BLUE BOX", "ref": "0291900018"}, "type": "Feature"}
{"geometry": {"coordinates": [-71.4718871, 41.819661], "type": "Point"}, "id": "UPbICUv2WhrI7JLKfYm1xlDgWK4=", "properties": {"@spider": "usps_collection_boxes", "addr:city": "JOHNSTON", "addr:country": "US", "addr:full": "807 HARTFORD AVE", "addr:postcode": "02919", "addr:state": "RI", "brand": "USPS", "brand:wikidata": "Q668687", "collection_times": "Mo-Sa 12:00", "name": "USPS COLLECTION BOX - BLUE BOX", "ref": "0291900019"}, "type": "Feature"}
{"geometry": {"coordinates": [-71.4730104, 41.829612], "type": "Point"}, "id": "aN95ubU6G9dnfeZubEA1WLj9IDI=", "properties": {"@spider": "usps_collection_boxes", "addr:city": "JOHNSTON", "addr:country": "US", "addr:full": "636 KILLINGLY ST", "addr:postcode": "02919", "addr:state": "RI", "brand": "USPS", "brand:wikidata": "Q668687", "collection_times": "Mo-Sa 11:00", "name": "USPS COLLECTION BOX - BLUE BOX", "ref": "0291900024"}, "type": "Feature"}
{"geometry": {"coordinates": [-71.473423965, 41.798470999], "type": "Point"}, "id": "7OorqOkkX7mdJ6CdtItOEHekzfk=", "properties": {"@spider": "usps_collection_boxes", "addr:city": "JOHNSTON", "addr:country": "US", "addr:full": "1192 PLAINFIELD ST", "addr:postcode": "02919", "addr:state": "RI", "brand": "USPS", "brand:wikidata": "Q668687", "collection_times": "Mo-Sa 12:00", "name": "USPS COLLECTION BOX - BLUE BOX", "ref": "0291900026"}, "type": "Feature"}
{"geometry": {"coordinates": [-71.4798422, 41.796744], "type": "Point"}, "id": "jbCXSXebXbrhX-I7GDQ2nLbX0GE=", "properties": {"@spider": "usps_collection_boxes", "addr:city": "JOHNSTON", "addr:country": "US", "addr:full": "1306 PLAINFIELD ST", "addr:postcode": "02919", "addr:state": "RI", "brand": "USPS", "brand:wikidata": "Q668687", "collection_times": "Mo-Sa 12:00", "name": "USPS COLLECTION BOX - BLUE BOX", "ref": "0291900028"}, "type": "Feature"}
{"geometry": {"coordinates": [-71.5008057, 41.829039], "type": "Point"}, "id": "QeWa1Zd7nn9vtzPL8FFl6GesX08=", "properties": {"@spider": "usps_collection_boxes", "addr:city": "JOHNSTON", "addr:country": "US", "addr:full": "1530 ATWOOD AVE", "addr:postcode": "02919", "addr:state": "RI", "brand": "USPS", "brand:wikidata": "Q668687", "collection_times": "Mo-Fr 17:00; Sa 16:30", "name": "USPS COLLECTION BOX - BLUE BOX", "note": "ON 12/24 AND 12/31, THIS BOX MAY BE COLLECTED AS EARLY AS 12 NOON.", "ref": "0291900034"}, "type": "Feature"}
{"geometry": {"coordinates": [-71.5008074, 41.829053], "type": "Point"}, "id": "GRvTftloR_T9niaJTwWF989J7bo=", "properties": {"@spider": "usps_collection_boxes", "addr:city": "JOHNSTON", "addr:country": "US", "addr:full": "1530 ATWOOD AVE", "addr:postcode": "02919", "addr:state": "RI", "brand": "USPS", "brand:wikidata": "Q668687", "collection_times": "Mo-Fr 17:00; Sa 16:30", "name": "USPS COLLECTION BOX - BLUE BOX", "note": "ON 12/24 AND 12/31, THIS BOX MAY BE COLLECTED AS EARLY AS 12 NOON.", "ref": "0291900038"}, "type": "Feature"}
{"geometry": {"coordinates": [-71.499578, 41.825794], "type": "Point"}, "id": "ZSghaolnvzIP-w02JczHpyLbykw=", "properties": {"@spider": "usps_collection_boxes", "addr:city": "JOHNSTON", "addr:country": "US", "addr:full": "1530 ATWOOD AVE", "addr:postcode": "02919", "addr:state": "RI", "brand": "USPS", "brand:wikidata": "Q668687", "collection_times": "Mo-Fr 17:00; Sa 14:00", "name": "USPS COLLECTION BOX - APC", "note": "ON 12/24 AND 12/31, THIS BOX MAY BE COLLECTED AS EARLY AS 12 NOON.", "ref": "0291900040"}, "type": "Feature"}
{"geometry": {"coordinates": [-71.5008053, 41.829044], "type": "Point"}, "id": "KBZaPUre3shAnu1DU3Il9YjUdug=", "properties": {"@spider": "usps_collection_boxes", "addr:city": "JOHNSTON", "addr:country": "US", "addr:full": "1530 ATWOOD AVE", "addr:postcode": "02919", "addr:state": "RI", "brand": "USPS", "brand:wikidata": "Q668687", "collection_times": "Mo-Fr 17:00; Sa 16:30", "name": "USPS COLLECTION BOX - BLUE BOX", "note": "ON 12/24 AND 12/31, THIS BOX MAY BE COLLECTED AS EARLY AS 12 NOON.", "ref": "0291900043"}, "type": "Feature"}
{"geometry": {"coordinates": [-71.5093925, 41.787794], "type": "Point"}, "id": "GBbe2O4OwAgpfru7ej5zX0iRs-Q=", "properties": {"@spider": "usps_collection_boxes", "addr:city": "JOHNSTON", "addr:country": "US", "addr:full": "2001 PLAINFIELD PIKE", "addr:postcode": "02919", "addr:state": "RI", "brand": "USPS", "brand:wikidata": "Q668687", "collection_times": "Mo-Fr 17:00; Sa 09:00", "name": "USPS COLLECTION BOX - BLUE BOX", "note": "ON 12/24 AND 12/31, THIS BOX MAY BE COLLECTED AS EARLY AS 12 NOON.", "ref": "0291900045"}, "type": "Feature"}
{"geometry": {"coordinates": [-71.499558577, 41.825487541], "type": "Point"}, "id": "oKyzPqcfpCQt4QhyUXLQB175NL4=", "properties": {"@spider": "usps_collection_boxes", "addr:city": "JOHNSTON", "addr:country": "US", "addr:full": "1530 ATWOOD AVE", "addr:postcode": "02919", "addr:state": "RI", "brand": "USPS", "brand:wikidata": "Q668687", "collection_times": "Mo-Fr 18:00; Sa 17:15", "name": "USPS COLLECTION BOX - PO LOBBY", "note": "ON 12/24 AND 12/31, THIS BOX MAY BE COLLECTED AS EARLY AS 12 NOON.", "ref": "0291900049"}, "type": "Feature"}
{"geometry": {"coordinates": [-71.449797, 41.751013], "type": "Point"}, "id": "l3drR4jsyTluKEqjjrmh9C4Ea3U=", "properties": {"@spider": "usps_collection_boxes", "addr:city": "CRANSTON", "addr:country": "US", "addr:full": "70 FREEWAY DR", "addr:postcode": "02920", "addr:state": "RI", "brand": "USPS", "brand:wikidata": "Q668687", "collection_times": "Mo-Sa 12:00", "name": "USPS COLLECTION BOX - BLUE BOX", "ref": "0292000003"}, "type": "Feature"}
{"geometry": {"coordinates": [-71.4711549, 41.779607], "type": "Point"}, "id": "qdyplz6yxHfyPV9K_euz2mR_3Ug=", "properties": {"@spider": "usps_collection_boxes", "addr:city": "CRANSTON", "addr:country": "US", "addr:full": "120 ATWOOD AVE", "addr:postcode": "02920", "addr:state": "RI", "brand": "USPS", "brand:wikidata": "Q668687", "collection_times": "Mo-Sa 12:00", "name": "USPS COLLECTION BOX - BLUE BOX", "ref": "0292000004"}, "type": "Feature"}
{"geometry": {"coordinates": [-71.4732538, 41.782535], "type": "Point"}, "id": "w45d_gJeDlIMHhZOFLYScM5iv3w=", "properties": {"@spider": "usps_collection_boxes", "addr:city": "CRANSTON", "addr:country": "US", "addr:full": "250 ATWOOD AVE", "addr:postcode": "02920", "addr:state": "RI", "brand": "USPS", "brand:wikidata": "Q668687", "collection_times": "Mo-Sa 12:00", "name": "USPS COLLECTION BOX - BLUE BOX", "ref": "0292000007"}, "type": "Feature"}
{"geometry": {"coordinates": [-71.4724957, 41.786347], "type": "Point"}, "id": "J1-BpdwgmpAgDCjwAest5D5AOQg=", "properties": {"@spider": "usps_collection_boxes", "addr:city": "CRANSTON", "addr:country": "US", "addr:full": "383 ATWOOD AVE", "addr:postcode": "02920", "addr:state": "RI", "brand": "USPS", "brand:wikidata": "Q668687", "collection_times": "Mo-Sa 12:00", "name": "USPS COLLECTION BOX - BLUE BOX", "ref": "0292000010"}, "type": "Feature"}
{"geometry": {"coordinates": [-71.4718070121, 41.7890310063], "type": "Point"}, "id": "fWuWgq9AOFcPPPm0Vs6zAxs8_nw=", "properties": {"@spider": "usps_collection_boxes", "addr:city": "CRANSTON", "addr:country": "US", "addr:full": "481 ATWOOD AVE", "addr:postcode": "02920", "addr:state": "RI", "brand": "USPS", "brand:wikidata": "Q668687", "collection_times": "Mo-Sa 12:00", "name": "USPS COLLECTION BOX - BLUE BOX", "ref": "0292000012"}, "type": "Feature"}
{"geometry": {"coordinates": [-71.4914576, 41.791275], "type": "Point"}, "id": "YDeWwbgbbRrQX71e36sGF5p9zA4=", "properties": {"@spider": "usps_collection_boxes", "addr:city": "CRANSTON", "addr:country": "US", "addr:full": "12 BLUE JAY DR", "addr:postcode": "02920", "addr:state": "RI", "brand": "USPS", "brand:wikidata": "Q668687", "collection_times": "Mo-Sa 12:00", "name": "USPS COLLECTION BOX - BLUE BOX", "ref": "0292000014"}, "type": "Feature"}
{"geometry": {"coordinates": [-71.4570202482, 41.7811549536], "type": "Point"}, "id": "lPV54g2Iaz-PyPQCJaz0lySBHvo=", "properties": {"@spider": "usps_collection_boxes", "addr:city": "CRANSTON", "addr:country": "US", "addr:full": "98 BUDLONG RD", "addr:postcode": "02920", "addr:state": "RI", "brand": "USPS", "brand:wikidata": "Q668687", "collection_times": "Mo-Sa 12:00", "name": "USPS COLLECTION BOX - BLUE BOX", "ref": "0292000016"}, "type": "Feature"}
{"geometry": {"coordinates": [-71.4580937, 41.770113], "type": "Point"}, "id": "OT0tnMiFVvW3cktqlDeSRGEu6Bc=", "properties": {"@spider": "usps_collection_boxes", "addr:city": "CRANSTON", "addr:country": "US", "addr:full": "476 BUDLONG RD", "addr:postcode": "02920", "addr:state": "RI", "brand": "USPS", "brand:wikidata": "Q668687", "collection_times": "Mo-Sa 12:00", "name": "USPS COLLECTION BOX - BLUE BOX", "ref": "0292000018"}, "type": "Feature"}
{"geometry": {"coordinates": [-71.4445473, 41.802273], "type": "Point"}, "id": "6xMS7rwHGk0_F1kpHDd-C7Fbo5s=", "properties": {"@spider": "usps_collection_boxes", "addr:city": "CRANSTON", "addr:country": "US", "addr:full": "899 CRANSTON ST", "addr:postcode": "02920", "addr:state": "RI", "brand": "USPS", "brand:wikidata": "Q668687", "collection_times": "Mo-Sa 12:00", "name": "USPS COLLECTION BOX - BLUE BOX", "ref": "0292000023"}, "type": "Feature"}
{"geometry": {"coordinates": [-71.4484613, 41.797319], "type": "Point"}, "id": "MW2oaZpE41c48qcBWOHIBjHlnJg=", "properties": {"@spider": "usps_collection_boxes", "addr:city": "CRANSTON", "addr:country": "US", "addr:full": "1070 CRANSTON ST", "addr:postcode": "02920", "addr:state": "RI", "brand": "USPS", "brand:wikidata": "Q668687", "collection_times": "Mo-Sa 12:00", "name": "USPS COLLECTION BOX - BLUE BOX", "ref": "0292000025"}, "type": "Feature"}
{"geometry": {"coordinates": [-71.4502066, 41.794171], "type": "Point"}, "id": "p2DUar-g0us8xsDT9JCFtRTf-d4=", "properties": {"@spider": "usps_collection_boxes", "addr:city": "CRANSTON", "addr:country": "US", "addr:full": "1160 CRANSTON ST", "addr:postcode": "02920", "addr:state": "RI", "brand": "USPS", "brand:wikidata": "Q668687", "collection_times": "Mo-Sa 12:00", "name": "USPS COLLECTION BOX - BLUE BOX", "ref": "0292000027"}, "type": "Feature"}
{"geometry": {"coordinates": [-71.4565603293, 41.7904425906], "type": "Point"}, "id": "zSVO2cv8Bg5g0Vrw11r2W09o1j0=", "properties": {"@spider": "usps_collection_boxes", "addr:city": "CRANSTON", "addr:country": "US", "addr:full": "1356 CRANSTON ST", "addr:postcode": "02920", "addr:state": "RI", "brand": "USPS", "brand:wikidata": "Q668687", "collection_times": "Mo-Sa 12:00", "name": "USPS COLLECTION BOX - BLUE BOX", "ref": "0292000034"}, "type": "Feature"}
{"geometry": {"coordinates": [-71.4628474, 41.789391], "type": "Point"}, "id": "NTQGbod4Wb-fl_Ug6Xy1Br9z97k=", "properties": {"@spider": "usps_collection_boxes", "addr:city": "CRANSTON", "addr:country": "US", "addr:full": "1525 CRANSTON ST", "addr:postcode": "02920", "addr:state": "RI", "brand": "USPS", "brand:wikidata": "Q668687", "collection_times": "Mo-Sa 12:00", "name": "USPS COLLECTION BOX - BLUE BOX", "ref": "0292000036"}, "type": "Feature"}
{"geometry": {"coordinates": [-71.4740879, 41.766934], "type": "Point"}, "id": "cfLbgwkCu-CbB8g2ufqoz4XfDXE=", "properties": {"@spider": "usps_collection_boxes", "addr:city": "CRANSTON", "addr:country": "US", "addr:full": "2209 CRANSTON ST", "addr:postcode": "02920", "addr:state": "RI", "brand": "USPS", "brand:wikidata": "Q668687", "collection_times": "Mo-Sa 12:00", "name": "USPS COLLECTION BOX - BLUE BOX", "ref": "0292000038"}, "type": "Feature"}
{"geometry": {"coordinates": [-71.4796871, 41.746863], "type": "Point"}, "id": "gxB9myQEMJhHq77QTWDihAASJtI=", "properties": {"@spider": "usps_collection_boxes", "addr:city": "CRANSTON", "addr:country": "US", "addr:full": "5 EXCHANGE ST", "addr:postcode": "02920", "addr:state": "RI", "brand": "USPS", "brand:wikidata": "Q668687", "collection_times": "Mo-Sa 12:00", "name": "USPS COLLECTION BOX - BLUE BOX", "ref": "0292000041"}, "type": "Feature"}
{"geometry": {"coordinates": [-71.4683880338, 41.7492760167], "type": "Point"}, "id": "QoNKRmpgKdNv665zib-J2JMW02U=", "properties": {"@spider": "usps_collection_boxes", "addr:city": "CRANSTON", "addr:country": "US", "addr:full": "645 NEW LONDON AVE", "addr:postcode": "02920", "addr:state": "RI", "brand": "USPS", "brand:wikidata": "Q668687", "collection_times": "Mo-Sa 12:00", "name": "USPS COLLECTION BOX - BLUE BOX", "ref": "0292000042"}, "type": "Feature"}
{"geometry": {"coordinates": [-71.4629864, 41.76263], "type": "Point"}, "id": "GnnD4wBUCKHfQp8qwm9TZeOlIdg=", "properties": {"@spider": "usps_collection_boxes", "addr:city": "CRANSTON", "addr:country": "US", "addr:full": "5 GLENVIEW DR", "addr:postcode": "02920", "addr:state": "RI", "brand": "USPS", "brand:wikidata": "Q668687", "collection_times": "Mo-Sa 12:00", "name": "USPS COLLECTION BOX - BLUE BOX", "ref": "0292000043"}, "type": "Feature"}
{"geometry": {"coordinates": [-71.4586219, 41.764042], "type": "Point"}, "id": "bFjZRX3GnM2brWRtG6IJDgUrdbE=", "properties": {"@spider": "usps_collection_boxes", "addr:city": "CRANSTON", "addr:country": "US", "addr:full": "31 HILLSIDE RD", "addr:postcode": "02920", "addr:state": "RI", "brand": "USPS", "brand:wikidata": "Q668687", "collection_times": "Mo-Sa 12:00", "name": "USPS COLLECTION BOX - BLUE BOX", "ref": "0292000044"}, "type": "Feature"}
{"geometry": {"coordinates": [-71.4588195, 41.759102], "type": "Point"}, "id": "16tDGDkTmeegysTuAqhgn5lrM_M=", "properties": {"@spider": "usps_collection_boxes", "addr:city": "CRANSTON", "addr:country": "US", "addr:full": "175 HILLSIDE RD", "addr:postcode": "02920", "addr:state": "RI", "brand": "USPS", "brand:wikidata": "Q668687", "collection_times": "Mo-Sa 12:00", "name": "USPS COLLECTION BOX - BLUE BOX", "ref": "0292000045"}, "type": "Feature"}
{"geometry": {"coordinates": [-71.4675070119, 41.7478199963], "type": "Point"}, "id": "MnZhRwrA8Gvm2SzdnOjBBiaFd5s=", "properties": {"@spider": "usps_collection_boxes", "addr:city": "CRANSTON", "addr:country": "US", "addr:full": "670 NEW LONDON AVE", "addr:postcode": "02920", "addr:state": "RI", "brand": "USPS", "brand:wikidata": "Q668687", "collection_times": "Mo-Sa 12:00", "name": "USPS COLLECTION BOX - BLUE BOX", "ref": "0292000046"}, "type": "Feature"}
{"geometry": {"coordinates": [-71.453849, 41.742874], "type": "Point"}, "id": "iu2hGwRVQ0Xg4_ObuH0_x-QaAvY=", "properties": {"@spider": "usps_collection_boxes", "addr:city": "CRANSTON", "addr:country": "US", "addr:full": "24 KENNEY DR", "addr:postcode": "02920", "addr:state": "RI", "brand": "USPS", "brand:wikidata": "Q668687", "collection_times": "Mo-Sa 12:00", "name": "USPS COLLECTION BOX - BLUE BOX", "ref": "0292000047"}, "type": "Feature"}
{"geometry": {"coordinates": [-71.4897694, 41.785862], "type": "Point"}, "id": "iWkdHMclhiGWo0XuVqcmrCzOoDI=", "properties": {"@spider": "usps_collection_boxes", "addr:city": "CRANSTON", "addr:country": "US", "addr:full": "161 LAKE GARDEN DR", "addr:postcode": "02920", "addr:state": "RI", "brand": "USPS", "brand:wikidata": "Q668687", "collection_times": "Mo-Sa 12:00", "name": "USPS COLLECTION BOX - BLUE BOX", "ref": "0292000048"}, "type": "Feature"}
{"geometry": {"coordinates": [-71.452192003, 41.799402639], "type": "Point"}, "id": "KLkJsxg9ReGeY_YHOUHZ6GH9FBk=", "properties": {"@spider": "usps_collection_boxes", "addr:city": "CRANSTON", "addr:country": "US", "addr:full": "538 LAUREL HILL AVE", "addr:postcode": "02920", "addr:state": "RI", "brand": "USPS", "brand:wikidata": "Q668687", "collection_times": "Mo-Sa 12:00", "name": "USPS COLLECTION BOX - BLUE BOX", "ref": "0292000049"}, "type": "Feature"}
{"geometry": {"coordinates": [-71.4666338, 41.786733], "type": "Point"}, "id": "VW1W4lx6VISlpAaCK5-5WutdeZ4=", "properties": {"@spider": "usps_collection_boxes", "addr:city": "CRANSTON", "addr:country": "US", "addr:full": "75 MATHEWSON ST", "addr:postcode": "02920", "addr:state": "RI", "brand": "USPS", "brand:wikidata": "Q668687", "collection_times": "Mo-Sa 12:00", "name": "USPS COLLECTION BOX - BLUE BOX", "ref": "0292000050"}, "type": "Feature"}
{"geometry": {"coordinates": [-71.457048, 41.758776], "type": "Point"}, "id": "ZJP3LP0O6KNAxj0GpKZngVBx9Tg=", "properties": {"@spider": "usps_collection_boxes", "addr:city": "CRANSTON", "addr:country": "US", "addr:full": "200 MIDWAY RD", "addr:postcode": "02920", "addr:state": "RI", "brand": "USPS", "brand:wikidata": "Q668687", "collection_times": "Mo-Sa 17:00", "name": "USPS COLLECTION BOX - EXPRESS", "note": "ON 12/24 AND 12/31, THIS BOX MAY BE COLLECTED AS EARLY AS 12 NOON.", "ref": "0292000054"}, "type": "Feature"}
{"geometry": {"coordinates": [-71.477268534, 41.73839711], "type": "Point"}, "id": "gHbF5nm9q-Wwq0vRBIrny6OQ3uU=", "properties": {"@spider": "usps_collection_boxes", "addr:city": "CRANSTON", "addr:country": "US", "addr:full": "1150 NEW LONDON AVE", "addr:postcode": "02920", "addr:state": "RI", "brand": "USPS", "brand:wikidata": "Q668687", "collection_times": "Mo-Sa 12:00", "name": "USPS COLLECTION BOX - BLUE BOX", "ref": "0292000055"}, "type": "Feature"}
{"geometry": {"coordinates": [-71.4759839659, 41.7549130142], "type": "Point"}, "id": "M6AcsN1cS7QcptgMC_09O-UibC4=", "properties": {"@spider": "usps_collection_boxes", "addr:city": "CRANSTON", "addr:country": "US", "addr:full": "650 OAKLAWN AVE", "addr:postcode": "02920", "addr:state": "RI", "brand": "USPS", "brand:wikidata": "Q668687", "collection_times": "Mo-Sa 12:00", "name": "USPS COLLECTION BOX - BLUE BOX", "ref": "0292000059"}, "type": "Feature"}
{"geometry": {"coordinates": [-71.4785552, 41.748177], "type": "Point"}, "id": "BhscTEo7bvZKqZPQB8R5pYRZVdY=", "properties": {"@spider": "usps_collection_boxes", "addr:city": "CRANSTON", "addr:country": "US", "addr:full": "880 OAKLAWN AVE", "addr:postcode": "02920", "addr:state": "RI", "brand": "USPS", "brand:wikidata": "Q668687", "collection_times": "Mo-Sa 12:00", "name": "USPS COLLECTION BOX - BLUE BOX", "ref": "0292000061"}, "type": "Feature"}
{"geometry": {"coordinates": [-71.4796399, 41.744274], "type": "Point"}, "id": "x0FZ3xGHoouDIc9xCdVk3r1RexM=", "properties": {"@spider": "usps_collection_boxes", "addr:city": "CRANSTON", "addr:country": "US", "addr:full": "975 OAKLAWN AVE", "addr:postcode": "02920", "addr:state": "RI", "brand": "USPS", "brand:wikidata": "Q668687", "collection_times": "Mo-Sa 12:00", "name": "USPS COLLECTION BOX - BLUE BOX", "ref": "0292000064"}, "type": "Feature"}
{"geometry": {"coordinates": [-71.4477288, 41.75267], "type": "Point"}, "id": "EWso5jpTcZThqUTPQf4OczdfPJ0=", "properties": {"@spider": "usps_collection_boxes", "addr:city": "CRANSTON", "addr:country": "US", "addr:full": "47 PETTACONSETT AVE", "addr:postcode": "02920", "addr:state": "RI", "brand": "USPS", "brand:wikidata": "Q668687", "collection_times": "Mo-Sa 12:00", "name": "USPS COLLECTION BOX - BLUE BOX", "ref": "0292000066"}, "type": "Feature"}
{"geometry": {"coordinates": [-71.4548411, 41.770443], "type": "Point"}, "id": "477teVfUHY68oPxqgZ_kV4j3bVQ=", "properties": {"@spider": "usps_collection_boxes", "addr:city": "CRANSTON", "addr:country": "US", "addr:full": "1145 RESERVOIR AVE", "addr:postcode": "02920", "addr:state": "RI", "brand": "USPS", "brand:wikidata": "Q668687", "collection_times": "Mo-Sa 12:00", "name": "USPS COLLECTION BOX - BLUE BOX", "ref": "0292000072"}, "type": "Feature"}
{"geometry": {"coordinates": [-71.4595146, 41.75719], "type": "Point"}, "id": "qSSGGS4KURzRHcbHckkRosLT4ZY=", "properties": {"@spider": "usps_collection_boxes", "addr:city": "CRANSTON", "addr:country": "US", "addr:full": "2000 CHAPEL VIEW BLVD", "addr:postcode": "02920", "addr:state": "RI", "brand": "USPS", "brand:wikidata": "Q668687", "collection_times": "Mo-Sa 12:00", "name": "USPS COLLECTION BOX - BLUE BOX", "ref": "0292000073"}, "type": "Feature"}
{"geometry": {"coordinates": [-71.4546933, 41.754959], "type": "Point"}, "id": "DLq2hhhcCL1WADFiBXSYjbMZ_L8=", "properties": {"@spider": "usps_collection_boxes", "addr:city": "CRANSTON", "addr:country": "US", "addr:full": "95 SOCKANOSSET CROSS RD", "addr:postcode": "02920", "addr:state": "RI", "brand": "USPS", "brand:wikidata": "Q668687", "collection_times": "Mo-Sa 12:00", "name": "USPS COLLECTION BOX - BLUE BOX", "ref": "0292000078"}, "type": "Feature"}
{"geometry": {"coordinates": [-71.4577274, 41.798401], "type": "Point"}, "id": "PcuoAfNIcX5baFYpIkFCK6uW_Ck=", "properties": {"@spider": "usps_collection_boxes", "addr:city": "CRANSTON", "addr:country": "US", "addr:full": "548 DYER AVE", "addr:postcode": "02920", "addr:state": "RI", "brand": "USPS", "brand:wikidata": "Q668687", "collection_times": "Mo-Sa 12:00", "name": "USPS COLLECTION BOX - BLUE BOX", "ref": "0292000081"}, "type": "Feature"}
{"geometry": {"coordinates": [-71.4771263, 41.732995], "type": "Point"}, "id": "0aDVZ4ZgGgPez60hA8jHWl_puDs=", "properties": {"@spider": "usps_collection_boxes", "addr:city": "CRANSTON", "addr:country": "US", "addr:full": "1312 OAKLAWN AVE", "addr:postcode": "02920", "addr:state": "RI", "brand": "USPS", "brand:wikidata": "Q668687", "collection_times": "Mo-Sa 12:00", "name": "USPS COLLECTION BOX - BLUE BOX", "ref": "0292000084"}, "type": "Feature"}
{"geometry": {"coordinates": [-71.454151036, 41.754180017], "type": "Point"}, "id": "fOKh-PRb3tfOzdrkpD5dKPrmJ4I=", "properties": {"@spider": "usps_collection_boxes", "addr:city": "CRANSTON", "addr:country": "US", "addr:full": "75 SOCKANOSSET CROSS RD", "addr:postcode": "02920", "addr:state": "RI", "brand": "USPS", "brand:wikidata": "Q668687", "collection_times": "Mo-Sa 12:00", "name": "USPS COLLECTION BOX - BLUE BOX", "ref": "0292000085"}, "type": "Feature"}
{"geometry": {"coordinates": [-71.457048, 41.758776], "type": "Point"}, "id": "EH8A9DgaZfxsBn6dVfvwp7PxdIc=", "properties": {"@spider": "usps_collection_boxes", "addr:city": "CRANSTON", "addr:country": "US", "addr:full": "200 MIDWAY RD", "addr:postcode": "02920", "addr:state": "RI", "brand": "USPS", "brand:wikidata": "Q668687", "collection_times": "Mo-Sa 17:00", "name": "USPS COLLECTION BOX - BLUE BOX", "note": "ON 12/24 AND 12/31, THIS BOX MAY BE COLLECTED AS EARLY AS 12 NOON.", "ref": "0292000086"}, "type": "Feature"}
{"geometry": {"coordinates": [-71.457048, 41.758776], "type": "Point"}, "id": "BiANz5ZyhdllesjbcUc3H4kC5QQ=", "properties": {"@spider": "usps_collection_boxes", "addr:city": "CRANSTON", "addr:country": "US", "addr:full": "200 MIDWAY RD", "addr:postcode": "02920", "addr:state": "RI", "brand": "USPS", "brand:wikidata": "Q668687", "collection_times": "Mo-Sa 17:00", "name": "USPS COLLECTION BOX - BLUE BOX", "note": "ON 12/24 AND 12/31, THIS BOX MAY BE COLLECTED AS EARLY AS 12 NOON.", "ref": "0292000087"}, "type": "Feature"}
{"geometry": {"coordinates": [-71.457048, 41.758776], "type": "Point"}, "id": "yNMkVLh8YkzmyC4D20UmFr6ww50=", "properties": {"@spider": "usps_collection_boxes", "addr:city": "CRANSTON", "addr:country": "US", "addr:full": "200 MIDWAY RD", "addr:postcode": "02920", "addr:state": "RI", "brand": "USPS", "brand:wikidata": "Q668687", "collection_times": "Mo-Fr 18:00; Sa 17:30", "name": "USPS COLLECTION BOX - APC", "note": "ON 12/24 AND 12/31, THIS BOX MAY BE COLLECTED AS EARLY AS 12 NOON.", "ref": "0292000088"}, "type": "Feature"}
{"geometry": {"coordinates": [-71.4418711, 41.802055], "type": "Point"}, "id": "lM2AVYdIO3i7moGJ9NN2sjVTU0A=", "properties": {"@spider": "usps_collection_boxes", "addr:city": "CRANSTON", "addr:country": "US", "addr:full": "5 GARFIELD AVE", "addr:postcode": "02920", "addr:state": "RI", "brand": "USPS", "brand:wikidata": "Q668687", "collection_times": "Mo-Fr 12:00", "name": "USPS COLLECTION BOX - BLUE BOX", "ref": "0292000089"}, "type": "Feature"}
{"geometry": {"coordinates": [-71.456717502, 41.758776], "type": "Point"}, "id": "Um0mYebRkf80c8DGxJ8ZKlJzoCg=", "properties": {"@spider": "usps_collection_boxes", "addr:city": "CRANSTON", "addr:country": "US", "addr:full": "200 MIDWAY RD STE 200", "addr:postcode": "02920", "addr:state": "RI", "brand": "USPS", "brand:wikidata": "Q668687", "collection_times": "Mo-Fr 18:30; Sa 17:30", "name": "USPS COLLECTION BOX - PO LOBBY", "note": "ON 12/24 AND 12/31, THIS BOX MAY BE COLLECTED AS EARLY AS 12 NOON.", "ref": "0292000099"}, "type": "Feature"}
{"geometry": {"coordinates": [-71.5170569678, 41.7851299847], "type": "Point"}, "id": "FDBfU373xyq8NTf_c2YqEc720Fg=", "properties": {"@spider": "usps_collection_boxes", "addr:city": "PROVIDENCE", "addr:country": "US", "addr:full": "111 COMSTOCK PKWY", "addr:postcode": "02921", "addr:state": "RI", "brand": "USPS", "brand:wikidata": "Q668687", "collection_times": "Mo-Fr 17:00; Sa 12:00", "name": "USPS COLLECTION BOX - BLUE BOX", "note": "ON 12/24 AND 12/31, THIS BOX MAY BE COLLECTED AS EARLY AS 12 NOON.", "ref": "0292100002"}, "type": "Feature"}
{"geometry": {"coordinates": [-71.5162779, 41.787039], "type": "Point"}, "id": "gwXqEqMva9UlGek52ghVrRHDjhw=", "properties": {"@spider": "usps_collection_boxes", "addr:city": "PROVIDENCE", "addr:country": "US", "addr:full": "111 COMSTOCK PKWY", "addr:postcode": "02921", "addr:state": "RI", "brand": "USPS", "brand:wikidata": "Q668687", "collection_times": "Mo-Fr 17:00; Sa 12:00", "name": "USPS COLLECTION BOX - BLUE BOX", "note": "ON 12/24 AND 12/31, THIS BOX MAY BE COLLECTED AS EARLY AS 12 NOON.", "ref": "0292100003"}, "type": "Feature"}
{"geometry": {"coordinates": [-71.5162915, 41.787017], "type": "Point"}, "id": "aaV0vlfOwSVikdYfLJvvUrnFlrw=", "properties": {"@spider": "usps_collection_boxes", "addr:city": "PROVIDENCE", "addr:country": "US", "addr:full": "111 COMSTOCK PKWY", "addr:postcode": "02921", "addr:state": "RI", "brand": "USPS", "brand:wikidata": "Q668687", "collection_times": "Mo-Fr 17:00; Sa 12:00", "name": "USPS COLLECTION BOX - BLUE BOX", "note": "ON 12/24 AND 12/31, THIS BOX MAY BE COLLECTED AS EARLY AS 12 NOON.", "ref": "0292100004"}, "type": "Feature"}
{"geometry": {"coordinates": [-71.5162971, 41.787033], "type": "Point"}, "id": "l9YpYSIvBDIIwSdh7Mg4n7TUqGY=", "properties": {"@spider": "usps_collection_boxes", "addr:city": "PROVIDENCE", "addr:country": "US", "addr:full": "111 COMSTOCK PKWY", "addr:postcode": "02921", "addr:state": "RI", "brand": "USPS", "brand:wikidata": "Q668687", "collection_times": "Mo-Fr 17:00; Sa 12:00", "name": "USPS COLLECTION BOX - BLUE BOX", "note": "ON 12/24 AND 12/31, THIS BOX MAY BE COLLECTED AS EARLY AS 12 NOON.", "ref": "0292100005"}, "type": "Feature"}
{"geometry": {"coordinates": [-71.4990863, 41.788546], "type": "Point"}, "id": "nQh-ncOZO8EBGi5jn62V5NduJoA=", "properties": {"@spider": "usps_collection_boxes", "addr:city": "PROVIDENCE", "addr:country": "US", "addr:full": "1776 PLAINFIELD PIKE", "addr:postcode": "02921", "addr:state": "RI", "brand": "USPS", "brand:wikidata": "Q668687", "collection_times": "Mo-Sa 11:00", "name": "USPS COLLECTION BOX - BLUE BOX", "ref": "0292100006"}, "type": "Feature"}
{"geometry": {"coordinates": [-71.413970036, 41.840330014], "type": "Point"}, "id": "OSqlakJmpcfQNy4zDRF-bMWO4SA=", "properties": {"@spider": "usps_collection_boxes", "addr:city": "PROVIDENCE", "addr:country": "US", "addr:full": "24 CORLISS ST", "addr:postcode": "02940", "addr:state": "RI", "brand": "USPS", "brand:wikidata": "Q668687", "collection_times": "Mo-Sa 19:00", "name": "USPS COLLECTION BOX - PO LOBBY", "note": "ON 12/24 AND 12/31, THIS BOX MAY BE COLLECTED AS EARLY AS 12 NOON.", "ref": "0294000001"}, "type": "Feature"}
{"geometry": {"coordinates": [-71.413970036, 41.840330014], "type": "Point"}, "id": "g0t1whIJZftpnJOYOSOZbwEfQ1A=", "properties": {"@spider": "usps_collection_boxes", "addr:city": "PROVIDENCE", "addr:country": "US", "addr:full": "24 CORLISS ST", "addr:postcode": "02940", "addr:state": "RI", "brand": "USPS", "brand:wikidata": "Q668687", "collection_times": "Mo-Sa 19:00", "name": "USPS COLLECTION BOX - BLUE BOX", "note": "ON 12/24 AND 12/31, THIS BOX MAY BE COLLECTED AS EARLY AS 12 NOON.", "ref": "0294000004"}, "type": "Feature"}
{"geometry": {"coordinates": [-71.413970036, 41.840330014], "type": "Point"}, "id": "r16XWKMRPF6PFcwLw-rXjhA79f4=", "properties": {"@spider": "usps_collection_boxes", "addr:city": "PROVIDENCE", "addr:country": "US", "addr:full": "24 CORLISS ST", "addr:postcode": "02940", "addr:state": "RI", "brand": "USPS", "brand:wikidata": "Q668687", "collection_times": "Mo-Sa 19:00", "name": "USPS COLLECTION BOX - EXPRESS", "note": "ON 12/24 AND 12/31, THIS BOX MAY BE COLLECTED AS EARLY AS 12 NOON.", "ref": "0294000005"}, "type": "Feature"}
{"geometry": {"coordinates": [-71.413970036, 41.840330014], "type": "Point"}, "id": "qwgtc3q_5-hP2ZHHba4AlV0nrB4=", "properties": {"@spider": "usps_collection_boxes", "addr:city": "PROVIDENCE", "addr:country": "US", "addr:full": "24 CORLISS ST", "addr:postcode": "02940", "addr:state": "RI", "brand": "USPS", "brand:wikidata": "Q668687", "collection_times": "Mo-Sa 19:00", "name": "USPS COLLECTION BOX - APC", "note": "ON 12/24 AND 12/31, THIS BOX MAY BE COLLECTED AS EARLY AS 12 NOON.", "ref": "0294000010"}, "type": "Feature"}
{"geometry": {"coordinates": [-71.413970036, 41.840330014], "type": "Point"}, "id": "Wc44xbX4TJm2PwCvGrcshCtnriM=", "properties": {"@spider": "usps_collection_boxes", "addr:city": "PROVIDENCE", "addr:country": "US", "addr:full": "24 CORLISS ST", "addr:postcode": "02940", "addr:state": "RI", "brand": "USPS", "brand:wikidata": "Q668687", "collection_times": "Mo-Sa 19:00", "name": "USPS COLLECTION BOX - APC", "note": "ON 12/24 AND 12/31, THIS BOX MAY BE COLLECTED AS EARLY AS 12 NOON.", "ref": "0294000012"}, "type": "Feature"}
