{"geometry": {"coordinates": [-71.612918, 42.874387], "type": "Point"}, "id": "918Kuhcqlm6C3xpmthZg9uSTx04=", "properties": {"@source_uri": "https://tools.usps.com/UspsToolsRestServices/rest/POLocator/findLocations", "@spider": "usps_collection_boxes", "addr:city": "AMHERST", "addr:country": "US", "addr:postcode": "03031", "addr:state": "NH", "addr:street_address": "199 STATE ROUTE 101", "amenity": "post_box", "collection_times": "Mo-Fr 17:00; Sa 14:00", "note": "ON 12/24 AND 12/31, THIS BOX MAY BE COLLECTED AS EARLY AS 12 NOON.", "nsi_id": "unitedstatespostalservice-a77078", "operator": "United States Postal Service", "operator:short": "USPS", "operator:type": "public", "operator:wikidata": "Q668687", "ref": "0303100004"}, "type": "Feature"}
{"geometry": {"coordinates": [-71.5735029, 42.808662], "type": "Point"}, "id": "i3-fRz4GHxJAbjlABUoGPnerQq8=", "properties": {"@source_uri": "https://tools.usps.com/UspsToolsRestServices/rest/POLocator/findLocations", "@spider": "usps_collection_boxes", "addr:city": "AMHERST", "addr:country": "US", "addr:postcode": "03031", "addr:state": "NH", "addr:street_address": "109 STATE ROUTE 101A", "amenity": "post_box", "collection_times": "Mo-Fr 10:00; Sa 09:30", "nsi_id": "unitedstatespostalservice-a77078", "operator": "United States Postal Service", "operator:short": "USPS", "operator:type": "public", "operator:wikidata": "Q668687", "ref": "0303100005"}, "type": "Feature"}
{"geometry": {"coordinates": [-71.6062183, 42.821027], "type": "Point"}, "id": "n38wJSw-6rHJnA2f2Sfao14yz6I=", "properties": {"@source_uri": "https://tools.usps.com/UspsToolsRestServices/rest/POLocator/findLocations", "@spider": "usps_collection_boxes", "addr:city": "AMHERST", "addr:country": "US", "addr:postcode": "03031", "addr:state": "NH", "addr:street_address": "103 PONEMAH RD", "amenity": "post_box", "collection_times": "Mo-Sa 09:30", "nsi_id": "unitedstatespostalservice-a77078", "operator": "United States Postal Service", "operator:short": "USPS", "operator:type": "public", "operator:wikidata": "Q668687", "ref": "0303100006"}, "type": "Feature"}
{"geometry": {"coordinates": [-71.612918, 42.874387], "type": "Point"}, "id": "nIxTL8x17kKaj3WAZRcLhOLpROg=", "properties": {"@source_uri": "https://tools.usps.com/UspsToolsRestServices/rest/POLocator/findLocations", "@spider": "usps_collection_boxes", "addr:city": "AMHERST", "addr:country": "US", "addr:postcode": "03031", "addr:state": "NH", "addr:street_address": "199 STATE ROUTE 101", "amenity": "post_box", "collection_times": "Mo-Fr 17:00; Sa 14:00", "indoor": "yes", "note": "ON 12/24 AND 12/31, THIS BOX MAY BE COLLECTED AS EARLY AS 12 NOON.", "nsi_id": "unitedstatespostalservice-a77078", "operator": "United States Postal Service", "operator:short": "USPS", "operator:type": "public", "operator:wikidata": "Q668687", "ref": "0303100008"}, "type": "Feature"}
{"geometry": {"coordinates": [-71.5783222, 42.806155], "type": "Point"}, "id": "K_Mn_gSVJCJWY5qmi84sQGQmG5c=", "properties": {"@source_uri": "https://tools.usps.com/UspsToolsRestServices/rest/POLocator/findLocations", "@spider": "usps_collection_boxes", "addr:city": "AMHERST", "addr:country": "US", "addr:postcode": "03031", "addr:state": "NH", "addr:street_address": "11 COLUMBIA DR", "amenity": "post_box", "collection_times": "Mo-Fr 10:00; Sa 09:30", "nsi_id": "unitedstatespostalservice-a77078", "operator": "United States Postal Service", "operator:short": "USPS", "operator:type": "public", "operator:wikidata": "Q668687", "ref": "0303100010"}, "type": "Feature"}
{"geometry": {"coordinates": [-71.6252628, 42.863232], "type": "Point"}, "id": "eyDe08LvUfByrYM1pJzbdNlhUGM=", "properties": {"@source_uri": "https://tools.usps.com/UspsToolsRestServices/rest/POLocator/findLocations", "@spider": "usps_collection_boxes", "addr:city": "AMHERST", "addr:country": "US", "addr:postcode": "03031", "addr:state": "NH", "addr:street_address": "12 MIDDLE ST", "amenity": "post_box", "collection_times": "Mo-Sa 09:30", "nsi_id": "unitedstatespostalservice-a77078", "operator": "United States Postal Service", "operator:short": "USPS", "operator:type": "public", "operator:wikidata": "Q668687", "ref": "0303100011"}, "type": "Feature"}
{"geometry": {"coordinates": [-71.5830707, 42.808761], "type": "Point"}, "id": "zugn1kPfdnb3A2o7CFY7e62sAu0=", "properties": {"@source_uri": "https://tools.usps.com/UspsToolsRestServices/rest/POLocator/findLocations", "@spider": "usps_collection_boxes", "addr:city": "AMHERST", "addr:country": "US", "addr:postcode": "03031", "addr:state": "NH", "addr:street_address": "5 NORTHERN BLVD", "amenity": "post_box", "collection_times": "Mo-Fr 10:00; Sa 09:30", "nsi_id": "unitedstatespostalservice-a77078", "operator": "United States Postal Service", "operator:short": "USPS", "operator:type": "public", "operator:wikidata": "Q668687", "ref": "0303100012"}, "type": "Feature"}
{"geometry": {"coordinates": [-71.5796559, 42.810492], "type": "Point"}, "id": "iHIMdrrfqjet0lncdx_fJ9Fk100=", "properties": {"@source_uri": "https://tools.usps.com/UspsToolsRestServices/rest/POLocator/findLocations", "@spider": "usps_collection_boxes", "addr:city": "AMHERST", "addr:country": "US", "addr:postcode": "03031", "addr:state": "NH", "addr:street_address": "85 ROUTE 101A", "amenity": "post_box", "collection_times": "Mo-Sa 09:30", "nsi_id": "unitedstatespostalservice-a77078", "operator": "United States Postal Service", "operator:short": "USPS", "operator:type": "public", "operator:wikidata": "Q668687", "ref": "0303100013"}, "type": "Feature"}
{"geometry": {"coordinates": [-71.613338664, 42.873214393], "type": "Point"}, "id": "ThbhYDDZpW3F2rL-hgChUGj5NCg=", "properties": {"@source_uri": "https://tools.usps.com/UspsToolsRestServices/rest/POLocator/findLocations", "@spider": "usps_collection_boxes", "addr:city": "AMHERST", "addr:country": "US", "addr:postcode": "03031", "addr:state": "NH", "addr:street_address": "199 STATE ROUTE 101 UNIT 4D", "amenity": "post_box", "collection_times": "Mo-Fr 17:00; Sa 12:00", "indoor": "yes", "note": "ON 12/24 AND 12/31, THIS BOX MAY BE COLLECTED AS EARLY AS 12 NOON.", "nsi_id": "unitedstatespostalservice-a77078", "operator": "United States Postal Service", "operator:short": "USPS", "operator:type": "public", "operator:wikidata": "Q668687", "ref": "0303100018"}, "type": "Feature"}
{"geometry": {"coordinates": [-71.344527, 43.005453], "type": "Point"}, "id": "oQEmBtCeUj5jn6XTN206sOtYQzw=", "properties": {"@source_uri": "https://tools.usps.com/UspsToolsRestServices/rest/POLocator/findLocations", "@spider": "usps_collection_boxes", "addr:city": "AUBURN", "addr:country": "US", "addr:postcode": "03032", "addr:state": "NH", "addr:street_address": "61 RAYMOND RD", "amenity": "post_box", "collection_times": "Mo-Fr 16:30; Sa 11:30", "note": "ON 12/24 AND 12/31, THIS BOX MAY BE COLLECTED AS EARLY AS 12 NOON.", "nsi_id": "unitedstatespostalservice-a77078", "operator": "United States Postal Service", "operator:short": "USPS", "operator:type": "public", "operator:wikidata": "Q668687", "ref": "0303200002"}, "type": "Feature"}
{"geometry": {"coordinates": [-71.344483, 43.005435], "type": "Point"}, "id": "P1jQm4fad2zLDJa2JsTaHW0kbqk=", "properties": {"@source_uri": "https://tools.usps.com/UspsToolsRestServices/rest/POLocator/findLocations", "@spider": "usps_collection_boxes", "addr:city": "AUBURN", "addr:country": "US", "addr:postcode": "03032", "addr:state": "NH", "addr:street_address": "61 RAYMOND RD", "amenity": "post_box", "collection_times": "Mo-Fr 17:00; Sa 12:00", "indoor": "yes", "note": "ON 12/24 AND 12/31, THIS BOX MAY BE COLLECTED AS EARLY AS 12 NOON.", "nsi_id": "unitedstatespostalservice-a77078", "operator": "United States Postal Service", "operator:short": "USPS", "operator:type": "public", "operator:wikidata": "Q668687", "ref": "0303200003"}, "type": "Feature"}
{"geometry": {"coordinates": [-71.3881319281, 43.0106919489], "type": "Point"}, "id": "at0D1ADeVxkQfuZnMsaf22a97Ns=", "properties": {"@source_uri": "https://tools.usps.com/UspsToolsRestServices/rest/POLocator/findLocations", "@spider": "usps_collection_boxes", "addr:city": "AUBURN", "addr:country": "US", "addr:postcode": "03032", "addr:state": "NH", "addr:street_address": "5 DARTMOUTH DRIVE", "amenity": "post_box", "collection_times": "Mo-Sa 08:30", "nsi_id": "unitedstatespostalservice-a77078", "operator": "United States Postal Service", "operator:short": "USPS", "operator:type": "public", "operator:wikidata": "Q668687", "ref": "0303200004"}, "type": "Feature"}
{"geometry": {"coordinates": [-71.3507622, 42.948467], "type": "Point"}, "id": "4maJkrU1-wxt17goc0Sb9gdM3Vk=", "properties": {"@source_uri": "https://tools.usps.com/UspsToolsRestServices/rest/POLocator/findLocations", "@spider": "usps_collection_boxes", "addr:city": "AUBURN", "addr:country": "US", "addr:postcode": "03032", "addr:state": "NH", "addr:street_address": "903 LONDONDERRY TPKE", "amenity": "post_box", "collection_times": "Mo-Sa 09:30", "nsi_id": "unitedstatespostalservice-a77078", "operator": "United States Postal Service", "operator:short": "USPS", "operator:type": "public", "operator:wikidata": "Q668687", "ref": "0303200005"}, "type": "Feature"}
{"geometry": {"coordinates": [-71.345579272, 43.005187083], "type": "Point"}, "id": "WpmQV3_t8_S9lBoHt2a6zhVTNwo=", "properties": {"@source_uri": "https://tools.usps.com/UspsToolsRestServices/rest/POLocator/findLocations", "@spider": "usps_collection_boxes", "addr:city": "AUBURN", "addr:country": "US", "addr:postcode": "03032", "addr:state": "NH", "addr:street_address": "61 RAYMOND RD", "amenity": "post_box", "collection_times": "Mo-Fr 17:00; Sa 12:00", "indoor": "yes", "note": "ON 12/24 AND 12/31, THIS BOX MAY BE COLLECTED AS EARLY AS 12 NOON.", "nsi_id": "unitedstatespostalservice-a77078", "operator": "United States Postal Service", "operator:short": "USPS", "operator:type": "public", "operator:wikidata": "Q668687", "ref": "0303200006"}, "type": "Feature"}
{"geometry": {"coordinates": [-71.669704, 42.750013], "type": "Point"}, "id": "2T1GLQRQSxak2aV6IV0xWQ-pMeg=", "properties": {"@source_uri": "https://tools.usps.com/UspsToolsRestServices/rest/POLocator/findLocations", "@spider": "usps_collection_boxes", "addr:city": "BROOKLINE", "addr:country": "US", "addr:postcode": "03033", "addr:state": "NH", "addr:street_address": "2 POST OFFICE DR", "amenity": "post_box", "collection_times": "Mo-Fr 17:00; Sa 12:00", "note": "ON 12/24 AND 12/31, THIS BOX MAY BE COLLECTED AS EARLY AS 12 NOON.", "nsi_id": "unitedstatespostalservice-a77078", "operator": "United States Postal Service", "operator:short": "USPS", "operator:type": "public", "operator:wikidata": "Q668687", "ref": "0303300001"}, "type": "Feature"}
{"geometry": {"coordinates": [-71.669788, 42.749942], "type": "Point"}, "id": "hxcXVkBCVa5pNM-ECanA9bLLCvA=", "properties": {"@source_uri": "https://tools.usps.com/UspsToolsRestServices/rest/POLocator/findLocations", "@spider": "usps_collection_boxes", "addr:city": "BROOKLINE", "addr:country": "US", "addr:postcode": "03033", "addr:state": "NH", "addr:street_address": "2 POST OFFICE DR", "amenity": "post_box", "collection_times": "Mo-Fr 17:00; Sa 12:00", "indoor": "yes", "note": "ON 12/24 AND 12/31, THIS BOX MAY BE COLLECTED AS EARLY AS 12 NOON.", "nsi_id": "unitedstatespostalservice-a77078", "operator": "United States Postal Service", "operator:short": "USPS", "operator:type": "public", "operator:wikidata": "Q668687", "ref": "0303300002"}, "type": "Feature"}
{"geometry": {"coordinates": [-71.669352461, 42.750171061], "type": "Point"}, "id": "WUP0y7PDp06JkjpkCvGZFuDk4F4=", "properties": {"@source_uri": "https://tools.usps.com/UspsToolsRestServices/rest/POLocator/findLocations", "@spider": "usps_collection_boxes", "addr:city": "BROOKLINE", "addr:country": "US", "addr:postcode": "03033", "addr:state": "NH", "addr:street_address": "2 POST OFFICE DR", "amenity": "post_box", "collection_times": "Mo-Fr 17:00; Sa 12:00", "indoor": "yes", "note": "ON 12/24 AND 12/31, THIS BOX MAY BE COLLECTED AS EARLY AS 12 NOON.", "nsi_id": "unitedstatespostalservice-a77078", "operator": "United States Postal Service", "operator:short": "USPS", "operator:type": "public", "operator:wikidata": "Q668687", "ref": "0303300003"}, "type": "Feature"}
{"geometry": {"coordinates": [-71.280113, 43.060279], "type": "Point"}, "id": "l_zQkwXAexgFNT4io_DmBzMZOKM=", "properties": {"@source_uri": "https://tools.usps.com/UspsToolsRestServices/rest/POLocator/findLocations", "@spider": "usps_collection_boxes", "addr:city": "CANDIA", "addr:country": "US", "addr:postcode": "03034", "addr:state": "NH", "addr:street_address": "115 RAYMOND RD", "amenity": "post_box", "collection_times": "Mo-Fr 17:00; Sa 12:00", "note": "ON 12/24 AND 12/31, THIS BOX MAY BE COLLECTED AS EARLY AS 12 NOON.", "nsi_id": "unitedstatespostalservice-a77078", "operator": "United States Postal Service", "operator:short": "USPS", "operator:type": "public", "operator:wikidata": "Q668687", "ref": "0303400001"}, "type": "Feature"}
{"geometry": {"coordinates": [-71.280078, 43.060302], "type": "Point"}, "id": "Pu8S1PxM865psNvmgwbUqbBf7Qw=", "properties": {"@source_uri": "https://tools.usps.com/UspsToolsRestServices/rest/POLocator/findLocations", "@spider": "usps_collection_boxes", "addr:city": "CANDIA", "addr:country": "US", "addr:postcode": "03034", "addr:state": "NH", "addr:street_address": "115 RAYMOND RD", "amenity": "post_box", "collection_times": "Mo-Fr 17:00; Sa 12:00", "indoor": "yes", "note": "ON 12/24 AND 12/31, THIS BOX MAY BE COLLECTED AS EARLY AS 12 NOON.", "nsi_id": "unitedstatespostalservice-a77078", "operator": "United States Postal Service", "operator:short": "USPS", "operator:type": "public", "operator:wikidata": "Q668687", "ref": "0303400002"}, "type": "Feature"}
{"geometry": {"coordinates": [-71.280825788, 43.060355597], "type": "Point"}, "id": "HiWupJz1AhZ_x16LmrFdAEg5nJw=", "properties": {"@source_uri": "https://tools.usps.com/UspsToolsRestServices/rest/POLocator/findLocations", "@spider": "usps_collection_boxes", "addr:city": "CANDIA", "addr:country": "US", "addr:postcode": "03034", "addr:state": "NH", "addr:street_address": "115 RAYMOND RD", "amenity": "post_box", "collection_times": "Mo-Fr 17:00; Sa 12:00", "indoor": "yes", "note": "ON 12/24 AND 12/31, THIS BOX MAY BE COLLECTED AS EARLY AS 12 NOON.", "nsi_id": "unitedstatespostalservice-a77078", "operator": "United States Postal Service", "operator:short": "USPS", "operator:type": "public", "operator:wikidata": "Q668687", "ref": "0303400003"}, "type": "Feature"}
{"geometry": {"coordinates": [-71.257178, 42.957484], "type": "Point"}, "id": "hBeHtwZkbdEh-nCxsfZS06y0-iA=", "properties": {"@source_uri": "https://tools.usps.com/UspsToolsRestServices/rest/POLocator/findLocations", "@spider": "usps_collection_boxes", "addr:city": "CHESTER", "addr:country": "US", "addr:postcode": "03036", "addr:state": "NH", "addr:street_address": "5 CHESTER ST", "amenity": "post_box", "collection_times": "Mo-Fr 17:00; Sa 11:30", "note": "ON 12/24 AND 12/31, THIS BOX MAY BE COLLECTED AS EARLY AS 12 NOON.", "nsi_id": "unitedstatespostalservice-a77078", "operator": "United States Postal Service", "operator:short": "USPS", "operator:type": "public", "operator:wikidata": "Q668687", "ref": "0303600001"}, "type": "Feature"}
{"geometry": {"coordinates": [-71.257068, 42.957443], "type": "Point"}, "id": "l5WDXjdXhW2Svg39sEuLFn77d0w=", "properties": {"@source_uri": "https://tools.usps.com/UspsToolsRestServices/rest/POLocator/findLocations", "@spider": "usps_collection_boxes", "addr:city": "CHESTER", "addr:country": "US", "addr:postcode": "03036", "addr:state": "NH", "addr:street_address": "5 CHESTER ST", "amenity": "post_box", "collection_times": "Mo-Fr 17:00; Sa 11:30", "indoor": "yes", "note": "ON 12/24 AND 12/31, THIS BOX MAY BE COLLECTED AS EARLY AS 12 NOON.", "nsi_id": "unitedstatespostalservice-a77078", "operator": "United States Postal Service", "operator:short": "USPS", "operator:type": "public", "operator:wikidata": "Q668687", "ref": "0303600002"}, "type": "Feature"}
{"geometry": {"coordinates": [-71.25717291, 42.957421441], "type": "Point"}, "id": "B5pG9hsFFsOFHDwxHh4G36QM7So=", "properties": {"@source_uri": "https://tools.usps.com/UspsToolsRestServices/rest/POLocator/findLocations", "@spider": "usps_collection_boxes", "addr:city": "CHESTER", "addr:country": "US", "addr:postcode": "03036", "addr:state": "NH", "addr:street_address": "5 CHESTER ST", "amenity": "post_box", "collection_times": "Mo-Fr 17:00; Sa 11:30", "indoor": "yes", "note": "ON 12/24 AND 12/31, THIS BOX MAY BE COLLECTED AS EARLY AS 12 NOON.", "nsi_id": "unitedstatespostalservice-a77078", "operator": "United States Postal Service", "operator:short": "USPS", "operator:type": "public", "operator:wikidata": "Q668687", "ref": "0303600003"}, "type": "Feature"}
{"geometry": {"coordinates": [-71.236949, 43.128306], "type": "Point"}, "id": "nNXJR4RTCiAqVLRvBC2dGgEHFd0=", "properties": {"@source_uri": "https://tools.usps.com/UspsToolsRestServices/rest/POLocator/findLocations", "@spider": "usps_collection_boxes", "addr:city": "DEERFIELD", "addr:country": "US", "addr:postcode": "03037", "addr:state": "NH", "addr:street_address": "17A RAYMOND RD", "amenity": "post_box", "collection_times": "Mo-Fr 17:00; Sa 11:30", "note": "ON 12/24 AND 12/31, THIS BOX MAY BE COLLECTED AS EARLY AS 12 NOON.", "nsi_id": "unitedstatespostalservice-a77078", "operator": "United States Postal Service", "operator:short": "USPS", "operator:type": "public", "operator:wikidata": "Q668687", "ref": "0303700001"}, "type": "Feature"}
{"geometry": {"coordinates": [-71.236956, 43.128367], "type": "Point"}, "id": "eFODheVoxh8cNJq4cfussnwvSHA=", "properties": {"@source_uri": "https://tools.usps.com/UspsToolsRestServices/rest/POLocator/findLocations", "@spider": "usps_collection_boxes", "addr:city": "DEERFIELD", "addr:country": "US", "addr:postcode": "03037", "addr:state": "NH", "addr:street_address": "17A RAYMOND RD", "amenity": "post_box", "collection_times": "Mo-Fr 17:00; Sa 11:30", "indoor": "yes", "note": "ON 12/24 AND 12/31, THIS BOX MAY BE COLLECTED AS EARLY AS 12 NOON.", "nsi_id": "unitedstatespostalservice-a77078", "operator": "United States Postal Service", "operator:short": "USPS", "operator:type": "public", "operator:wikidata": "Q668687", "ref": "0303700002"}, "type": "Feature"}
{"geometry": {"coordinates": [-71.236952741, 43.128251158], "type": "Point"}, "id": "Fw0A0PCLuEzyP2hL6eMixm6A4T8=", "properties": {"@source_uri": "https://tools.usps.com/UspsToolsRestServices/rest/POLocator/findLocations", "@spider": "usps_collection_boxes", "addr:city": "DEERFIELD", "addr:country": "US", "addr:postcode": "03037", "addr:state": "NH", "addr:street_address": "17A RAYMOND RD", "amenity": "post_box", "collection_times": "Mo-Fr 17:00; Sa 12:00", "indoor": "yes", "note": "ON 12/24 AND 12/31, THIS BOX MAY BE COLLECTED AS EARLY AS 12 NOON.", "nsi_id": "unitedstatespostalservice-a77078", "operator": "United States Postal Service", "operator:short": "USPS", "operator:type": "public", "operator:wikidata": "Q668687", "ref": "0303700003"}, "type": "Feature"}
{"geometry": {"coordinates": [-71.3240488, 42.893236], "type": "Point"}, "id": "2hP0PKDJwmcOjQRxLuChUxa9twU=", "properties": {"@source_uri": "https://tools.usps.com/UspsToolsRestServices/rest/POLocator/findLocations", "@spider": "usps_collection_boxes", "addr:city": "DERRY", "addr:country": "US", "addr:postcode": "03038", "addr:state": "NH", "addr:street_address": "55 CRYSTAL AVE", "amenity": "post_box", "collection_times": "Mo-Sa 10:00", "nsi_id": "unitedstatespostalservice-a77078", "operator": "United States Postal Service", "operator:short": "USPS", "operator:type": "public", "operator:wikidata": "Q668687", "ref": "0303800006"}, "type": "Feature"}
{"geometry": {"coordinates": [-71.31954, 42.901314], "type": "Point"}, "id": "NNxb97fkA-FU-y7NK6SHBGjMJAk=", "properties": {"@source_uri": "https://tools.usps.com/UspsToolsRestServices/rest/POLocator/findLocations", "@spider": "usps_collection_boxes", "addr:city": "DERRY", "addr:country": "US", "addr:postcode": "03038", "addr:state": "NH", "addr:street_address": "24 TSIENNETO RD", "amenity": "post_box", "collection_times": "Mo-Fr 17:00; Sa 16:00", "indoor": "yes", "note": "ON 12/24 AND 12/31, THIS BOX MAY BE COLLECTED AS EARLY AS 12 NOON.", "nsi_id": "unitedstatespostalservice-a77078", "operator": "United States Postal Service", "operator:short": "USPS", "operator:type": "public", "operator:wikidata": "Q668687", "ref": "0303800022"}, "type": "Feature"}
{"geometry": {"coordinates": [-71.3203383, 42.901188], "type": "Point"}, "id": "YkzmLxI-BTESwvM98FI8jcf9SZA=", "properties": {"@source_uri": "https://tools.usps.com/UspsToolsRestServices/rest/POLocator/findLocations", "@spider": "usps_collection_boxes", "addr:city": "DERRY", "addr:country": "US", "addr:postcode": "03038", "addr:state": "NH", "addr:street_address": "24 TSIENNETO RD", "amenity": "post_box", "collection_times": "Mo-Fr 17:00; Sa 16:00", "note": "ON 12/24 AND 12/31, THIS BOX MAY BE COLLECTED AS EARLY AS 12 NOON.", "nsi_id": "unitedstatespostalservice-a77078", "operator": "United States Postal Service", "operator:short": "USPS", "operator:type": "public", "operator:wikidata": "Q668687", "ref": "0303800023"}, "type": "Feature"}
{"geometry": {"coordinates": [-71.3187999, 42.876683], "type": "Point"}, "id": "W1nD0ldhDlvUWLQArCHSqDw7Xeo=", "properties": {"@source_uri": "https://tools.usps.com/UspsToolsRestServices/rest/POLocator/findLocations", "@spider": "usps_collection_boxes", "addr:city": "DERRY", "addr:country": "US", "addr:postcode": "03038", "addr:state": "NH", "addr:street_address": "44 BIRCH ST", "amenity": "post_box", "collection_times": "Mo-Sa 10:30", "nsi_id": "unitedstatespostalservice-a77078", "operator": "United States Postal Service", "operator:short": "USPS", "operator:type": "public", "operator:wikidata": "Q668687", "ref": "0303800026"}, "type": "Feature"}
{"geometry": {"coordinates": [-71.31954, 42.901314], "type": "Point"}, "id": "oNN_B_nDgsYOychFvYi4sAnwzvo=", "properties": {"@source_uri": "https://tools.usps.com/UspsToolsRestServices/rest/POLocator/findLocations", "@spider": "usps_collection_boxes", "addr:city": "DERRY", "addr:country": "US", "addr:postcode": "03038", "addr:state": "NH", "addr:street_address": "24 TSIENNETO RD", "amenity": "post_box", "collection_times": "Mo-Fr 17:00; Sa 16:00", "name": "USPS COLLECTION BOX - APC", "note": "ON 12/24 AND 12/31, THIS BOX MAY BE COLLECTED AS EARLY AS 12 NOON.", "nsi_id": "unitedstatespostalservice-a77078", "operator": "United States Postal Service", "operator:short": "USPS", "operator:type": "public", "operator:wikidata": "Q668687", "ref": "0303800027"}, "type": "Feature"}
{"geometry": {"coordinates": [-71.319695808, 42.901211878], "type": "Point"}, "id": "7YSyPaIfLeU18jt1hQbBb4j01Wc=", "properties": {"@source_uri": "https://tools.usps.com/UspsToolsRestServices/rest/POLocator/findLocations", "@spider": "usps_collection_boxes", "addr:city": "DERRY", "addr:country": "US", "addr:postcode": "03038", "addr:state": "NH", "addr:street_address": "24 TSIENNETO RD", "amenity": "post_box", "collection_times": "Mo-Fr 17:00; Sa 12:00", "indoor": "yes", "note": "ON 12/24 AND 12/31, THIS BOX MAY BE COLLECTED AS EARLY AS 12 NOON.", "nsi_id": "unitedstatespostalservice-a77078", "operator": "United States Postal Service", "operator:short": "USPS", "operator:type": "public", "operator:wikidata": "Q668687", "ref": "0303800032"}, "type": "Feature"}
{"geometry": {"coordinates": [-71.294542, 42.894293], "type": "Point"}, "id": "05Ka-xlv-GjXRylM7VxuvtylSoU=", "properties": {"@source_uri": "https://tools.usps.com/UspsToolsRestServices/rest/POLocator/findLocations", "@spider": "usps_collection_boxes", "addr:city": "EAST DERRY", "addr:country": "US", "addr:postcode": "03041", "addr:state": "NH", "addr:street_address": "50 E DERRY RD", "amenity": "post_box", "collection_times": "Mo-Fr 16:30; Sa 11:45", "indoor": "yes", "note": "ON 12/24 AND 12/31, THIS BOX MAY BE COLLECTED AS EARLY AS 12 NOON.", "nsi_id": "unitedstatespostalservice-a77078", "operator": "United States Postal Service", "operator:short": "USPS", "operator:type": "public", "operator:wikidata": "Q668687", "ref": "0304100001"}, "type": "Feature"}
{"geometry": {"coordinates": [-71.294542, 42.894293], "type": "Point"}, "id": "ZLrjdfepDc3LGEAwtNfNXtWW3bM=", "properties": {"@source_uri": "https://tools.usps.com/UspsToolsRestServices/rest/POLocator/findLocations", "@spider": "usps_collection_boxes", "addr:city": "EAST DERRY", "addr:country": "US", "addr:postcode": "03041", "addr:state": "NH", "addr:street_address": "50 E DERRY RD", "amenity": "post_box", "collection_times": "Mo-Fr 16:30; Sa 11:45", "note": "ON 12/24 AND 12/31, THIS BOX MAY BE COLLECTED AS EARLY AS 12 NOON.", "nsi_id": "unitedstatespostalservice-a77078", "operator": "United States Postal Service", "operator:short": "USPS", "operator:type": "public", "operator:wikidata": "Q668687", "ref": "0304100002"}, "type": "Feature"}
{"geometry": {"coordinates": [-71.294497397, 42.894294358], "type": "Point"}, "id": "0Uu1372tbbjs3JWMUDMV2x6ZgCo=", "properties": {"@source_uri": "https://tools.usps.com/UspsToolsRestServices/rest/POLocator/findLocations", "@spider": "usps_collection_boxes", "addr:city": "EAST DERRY", "addr:country": "US", "addr:postcode": "03041", "addr:state": "NH", "addr:street_address": "50 E DERRY RD", "amenity": "post_box", "collection_times": "Mo-Fr 16:30; Sa 11:45", "indoor": "yes", "note": "ON 12/24 AND 12/31, THIS BOX MAY BE COLLECTED AS EARLY AS 12 NOON.", "nsi_id": "unitedstatespostalservice-a77078", "operator": "United States Postal Service", "operator:short": "USPS", "operator:type": "public", "operator:wikidata": "Q668687", "ref": "0304100003"}, "type": "Feature"}
{"geometry": {"coordinates": [-71.0732088, 43.034512], "type": "Point"}, "id": "tqdvq6fPwyDQRNeV1BPupZONqGk=", "properties": {"@source_uri": "https://tools.usps.com/UspsToolsRestServices/rest/POLocator/findLocations", "@spider": "usps_collection_boxes", "addr:city": "EPPING", "addr:country": "US", "addr:postcode": "03042", "addr:state": "NH", "addr:street_address": "71 MAIN ST", "amenity": "post_box", "collection_times": "Mo-Fr 16:30; Sa 14:00", "note": "ON 12/24 AND 12/31, THIS BOX MAY BE COLLECTED AS EARLY AS 12 NOON.", "nsi_id": "unitedstatespostalservice-a77078", "operator": "United States Postal Service", "operator:short": "USPS", "operator:type": "public", "operator:wikidata": "Q668687", "ref": "0304200001"}, "type": "Feature"}
{"geometry": {"coordinates": [-71.1224042, 43.037165], "type": "Point"}, "id": "qdDuE5AP7wjgraKUbPgeQ97Z3aw=", "properties": {"@source_uri": "https://tools.usps.com/UspsToolsRestServices/rest/POLocator/findLocations", "@spider": "usps_collection_boxes", "addr:city": "EPPING", "addr:country": "US", "addr:postcode": "03042", "addr:state": "NH", "addr:street_address": "302 PLEASANT ST", "amenity": "post_box", "collection_times": "Mo-Sa 11:00", "nsi_id": "unitedstatespostalservice-a77078", "operator": "United States Postal Service", "operator:short": "USPS", "operator:type": "public", "operator:wikidata": "Q668687", "ref": "0304200003"}, "type": "Feature"}
{"geometry": {"coordinates": [-71.0731066, 43.03449], "type": "Point"}, "id": "TlV2xmG1r_w8Ist4x04x3Ox2Pxo=", "properties": {"@source_uri": "https://tools.usps.com/UspsToolsRestServices/rest/POLocator/findLocations", "@spider": "usps_collection_boxes", "addr:city": "EPPING", "addr:country": "US", "addr:postcode": "03042", "addr:state": "NH", "addr:street_address": "71 MAIN ST", "amenity": "post_box", "collection_times": "Mo-Fr 17:00; Sa 14:00", "indoor": "yes", "note": "ON 12/24 AND 12/31, THIS BOX MAY BE COLLECTED AS EARLY AS 12 NOON.", "nsi_id": "unitedstatespostalservice-a77078", "operator": "United States Postal Service", "operator:short": "USPS", "operator:type": "public", "operator:wikidata": "Q668687", "ref": "0304200005"}, "type": "Feature"}
{"geometry": {"coordinates": [-71.073324919, 43.034454], "type": "Point"}, "id": "wz9oyp27nd8BO4qVXBy-pSy3T14=", "properties": {"@source_uri": "https://tools.usps.com/UspsToolsRestServices/rest/POLocator/findLocations", "@spider": "usps_collection_boxes", "addr:city": "EPPING", "addr:country": "US", "addr:postcode": "03042", "addr:state": "NH", "addr:street_address": "71 MAIN ST", "amenity": "post_box", "collection_times": "Mo-Fr 17:00; Sa 12:00", "indoor": "yes", "note": "ON 12/24 AND 12/31, THIS BOX MAY BE COLLECTED AS EARLY AS 12 NOON.", "nsi_id": "unitedstatespostalservice-a77078", "operator": "United States Postal Service", "operator:short": "USPS", "operator:type": "public", "operator:wikidata": "Q668687", "ref": "0304200008"}, "type": "Feature"}
{"geometry": {"coordinates": [-71.807778, 42.984148], "type": "Point"}, "id": "nr9TamT3tlPeaOsdi_mtLjYUbQs=", "properties": {"@source_uri": "https://tools.usps.com/UspsToolsRestServices/rest/POLocator/findLocations", "@spider": "usps_collection_boxes", "addr:city": "FRANCESTOWN", "addr:country": "US", "addr:postcode": "03043", "addr:state": "NH", "addr:street_address": "158 SECOND NEW HAMPSHIRE TPKE S", "amenity": "post_box", "collection_times": "Mo-Fr 16:45; Sa 11:45", "note": "ON 12/24 AND 12/31, THIS BOX MAY BE COLLECTED AS EARLY AS 12 NOON.", "nsi_id": "unitedstatespostalservice-a77078", "operator": "United States Postal Service", "operator:short": "USPS", "operator:type": "public", "operator:wikidata": "Q668687", "ref": "0304300001"}, "type": "Feature"}
{"geometry": {"coordinates": [-71.8085795195, 42.9846698657], "type": "Point"}, "id": "KZyQcUVfk-QZTbBhj566AGAlP6Q=", "properties": {"@source_uri": "https://tools.usps.com/UspsToolsRestServices/rest/POLocator/findLocations", "@spider": "usps_collection_boxes", "addr:city": "FRANCESTOWN", "addr:country": "US", "addr:postcode": "03043", "addr:state": "NH", "addr:street_address": "158 SECOND NEW HAMPSHIRE TPKE S", "amenity": "post_box", "collection_times": "Mo-Fr 16:45; Sa 11:45", "indoor": "yes", "note": "ON 12/24 AND 12/31, THIS BOX MAY BE COLLECTED AS EARLY AS 12 NOON.", "nsi_id": "unitedstatespostalservice-a77078", "operator": "United States Postal Service", "operator:short": "USPS", "operator:type": "public", "operator:wikidata": "Q668687", "ref": "0304300002"}, "type": "Feature"}
{"geometry": {"coordinates": [-71.808310306, 42.984484232], "type": "Point"}, "id": "PCtaATDRa8rk8_Qf64szkuHsy5s=", "properties": {"@source_uri": "https://tools.usps.com/UspsToolsRestServices/rest/POLocator/findLocations", "@spider": "usps_collection_boxes", "addr:city": "FRANCESTOWN", "addr:country": "US", "addr:postcode": "03043", "addr:state": "NH", "addr:street_address": "158 2ND NH TPKE S", "amenity": "post_box", "collection_times": "Mo-Fr 17:00; Sa 12:00", "indoor": "yes", "note": "ON 12/24 AND 12/31, THIS BOX MAY BE COLLECTED AS EARLY AS 12 NOON.", "nsi_id": "unitedstatespostalservice-a77078", "operator": "United States Postal Service", "operator:short": "USPS", "operator:type": "public", "operator:wikidata": "Q668687", "ref": "0304300003"}, "type": "Feature"}
{"geometry": {"coordinates": [-71.129804, 42.988167], "type": "Point"}, "id": "cv90JbMazWNknqxQep6uG5asBFw=", "properties": {"@source_uri": "https://tools.usps.com/UspsToolsRestServices/rest/POLocator/findLocations", "@spider": "usps_collection_boxes", "addr:city": "FREMONT", "addr:country": "US", "addr:postcode": "03044", "addr:state": "NH", "addr:street_address": "51 BEEDE HILL RD", "amenity": "post_box", "collection_times": "Mo-Fr 16:15; Sa 10:45", "note": "ON 12/24 AND 12/31, THIS BOX MAY BE COLLECTED AS EARLY AS 12 NOON.", "nsi_id": "unitedstatespostalservice-a77078", "operator": "United States Postal Service", "operator:short": "USPS", "operator:type": "public", "operator:wikidata": "Q668687", "ref": "0304400001"}, "type": "Feature"}
{"geometry": {"coordinates": [-71.129832, 42.988192], "type": "Point"}, "id": "UKjfhe7URmJJDj_kMjeOFbIm8jk=", "properties": {"@source_uri": "https://tools.usps.com/UspsToolsRestServices/rest/POLocator/findLocations", "@spider": "usps_collection_boxes", "addr:city": "FREMONT", "addr:country": "US", "addr:postcode": "03044", "addr:state": "NH", "addr:street_address": "51 BEEDE HILL RD", "amenity": "post_box", "collection_times": "Mo-Fr 16:15; Sa 11:00", "indoor": "yes", "note": "ON 12/24 AND 12/31, THIS BOX MAY BE COLLECTED AS EARLY AS 12 NOON.", "nsi_id": "unitedstatespostalservice-a77078", "operator": "United States Postal Service", "operator:short": "USPS", "operator:type": "public", "operator:wikidata": "Q668687", "ref": "0304400002"}, "type": "Feature"}
{"geometry": {"coordinates": [-71.129649773, 42.9884989], "type": "Point"}, "id": "asmgJv9ScHQjB5ClBzq8VlOt1Tk=", "properties": {"@source_uri": "https://tools.usps.com/UspsToolsRestServices/rest/POLocator/findLocations", "@spider": "usps_collection_boxes", "addr:city": "FREMONT", "addr:country": "US", "addr:postcode": "03044", "addr:state": "NH", "addr:street_address": "51 BEEDE HILL RD", "amenity": "post_box", "collection_times": "Mo-Fr 16:15; Sa 11:00", "indoor": "yes", "note": "ON 12/24 AND 12/31, THIS BOX MAY BE COLLECTED AS EARLY AS 12 NOON.", "nsi_id": "unitedstatespostalservice-a77078", "operator": "United States Postal Service", "operator:short": "USPS", "operator:type": "public", "operator:wikidata": "Q668687", "ref": "0304400003"}, "type": "Feature"}
{"geometry": {"coordinates": [-71.6003350316, 43.0198789961], "type": "Point"}, "id": "FGfUxZoLYLneZMN7TI6xMOH-YTo=", "properties": {"@source_uri": "https://tools.usps.com/UspsToolsRestServices/rest/POLocator/findLocations", "@spider": "usps_collection_boxes", "addr:city": "DUNBARTON", "addr:country": "US", "addr:postcode": "03045", "addr:state": "NH", "addr:street_address": "8 MAIN ST", "amenity": "post_box", "collection_times": "Mo-Sa 14:00", "note": "ON 12/24 AND 12/31, THIS BOX MAY BE COLLECTED AS EARLY AS 12 NOON.", "nsi_id": "unitedstatespostalservice-a77078", "operator": "United States Postal Service", "operator:short": "USPS", "operator:type": "public", "operator:wikidata": "Q668687", "ref": "0304500001"}, "type": "Feature"}
{"geometry": {"coordinates": [-71.6165627, 43.103379], "type": "Point"}, "id": "F_87nhBQUBohoxhQVuL5wTjh05U=", "properties": {"@source_uri": "https://tools.usps.com/UspsToolsRestServices/rest/POLocator/findLocations", "@spider": "usps_collection_boxes", "addr:city": "DUNBARTON", "addr:country": "US", "addr:postcode": "03045", "addr:state": "NH", "addr:street_address": "1011 SCHOOL ST", "amenity": "post_box", "collection_times": "Mo-Sa 09:00", "nsi_id": "unitedstatespostalservice-a77078", "operator": "United States Postal Service", "operator:short": "USPS", "operator:type": "public", "operator:wikidata": "Q668687", "ref": "0304500004"}, "type": "Feature"}
{"geometry": {"coordinates": [-71.522265017, 43.005169898], "type": "Point"}, "id": "YjPW-n14p9mfhcQDPaCMaVI83Wk=", "properties": {"@source_uri": "https://tools.usps.com/UspsToolsRestServices/rest/POLocator/findLocations", "@spider": "usps_collection_boxes", "addr:city": "DUNBARTON", "addr:country": "US", "addr:postcode": "03045", "addr:state": "NH", "addr:street_address": "2 TIMBERWOOD DR", "amenity": "post_box", "collection_times": "Mo-Sa 09:00", "nsi_id": "unitedstatespostalservice-a77078", "operator": "United States Postal Service", "operator:short": "USPS", "operator:type": "public", "operator:wikidata": "Q668687", "ref": "0304500005"}, "type": "Feature"}
{"geometry": {"coordinates": [-71.601844, 43.019306], "type": "Point"}, "id": "R3ErQSi1IPkGv-RAwn5_zdnGNMg=", "properties": {"@source_uri": "https://tools.usps.com/UspsToolsRestServices/rest/POLocator/findLocations", "@spider": "usps_collection_boxes", "addr:city": "DUNBARTON", "addr:country": "US", "addr:postcode": "03045", "addr:state": "NH", "addr:street_address": "11 CHURCH ST", "amenity": "post_box", "collection_times": "Mo-Fr 17:15; Sa 15:15", "indoor": "yes", "note": "ON 12/24 AND 12/31, THIS BOX MAY BE COLLECTED AS EARLY AS 12 NOON.", "nsi_id": "unitedstatespostalservice-a77078", "operator": "United States Postal Service", "operator:short": "USPS", "operator:type": "public", "operator:wikidata": "Q668687", "ref": "0304500007"}, "type": "Feature"}
{"geometry": {"coordinates": [-71.6017999, 43.019372], "type": "Point"}, "id": "0Eldaz9Wb_iCE9q0SlYHfau039Q=", "properties": {"@source_uri": "https://tools.usps.com/UspsToolsRestServices/rest/POLocator/findLocations", "@spider": "usps_collection_boxes", "addr:city": "DUNBARTON", "addr:country": "US", "addr:postcode": "03045", "addr:state": "NH", "addr:street_address": "11 CHURCH ST", "amenity": "post_box", "collection_times": "Mo-Fr 17:15; Sa 15:00", "note": "ON 12/24 AND 12/31, THIS BOX MAY BE COLLECTED AS EARLY AS 12 NOON.", "nsi_id": "unitedstatespostalservice-a77078", "operator": "United States Postal Service", "operator:short": "USPS", "operator:type": "public", "operator:wikidata": "Q668687", "ref": "0304500008"}, "type": "Feature"}
{"geometry": {"coordinates": [-71.601638002, 43.019656955], "type": "Point"}, "id": "erfOVOor62mCCQgL3-hxwsGY5AA=", "properties": {"@source_uri": "https://tools.usps.com/UspsToolsRestServices/rest/POLocator/findLocations", "@spider": "usps_collection_boxes", "addr:city": "DUNBARTON", "addr:country": "US", "addr:postcode": "03045", "addr:state": "NH", "addr:street_address": "11 CHURCH ST STE 1", "amenity": "post_box", "collection_times": "Mo-Fr 17:00; Sa 12:00", "indoor": "yes", "note": "ON 12/24 AND 12/31, THIS BOX MAY BE COLLECTED AS EARLY AS 12 NOON.", "nsi_id": "unitedstatespostalservice-a77078", "operator": "United States Postal Service", "operator:short": "USPS", "operator:type": "public", "operator:wikidata": "Q668687", "ref": "0304500011"}, "type": "Feature"}
{"geometry": {"coordinates": [-71.870687, 42.945769], "type": "Point"}, "id": "kwct5UAOTGqNz_Ec0mKXL8DOjYI=", "properties": {"@source_uri": "https://tools.usps.com/UspsToolsRestServices/rest/POLocator/findLocations", "@spider": "usps_collection_boxes", "addr:city": "GREENFIELD", "addr:country": "US", "addr:postcode": "03047", "addr:state": "NH", "addr:street_address": "75 SLIP RD", "amenity": "post_box", "collection_times": "Mo-Fr 16:45; Sa 13:00", "note": "ON 12/24 AND 12/31, THIS BOX MAY BE COLLECTED AS EARLY AS 12 NOON.", "nsi_id": "unitedstatespostalservice-a77078", "operator": "United States Postal Service", "operator:short": "USPS", "operator:type": "public", "operator:wikidata": "Q668687", "ref": "0304700001"}, "type": "Feature"}
{"geometry": {"coordinates": [-71.870768, 42.945842], "type": "Point"}, "id": "GyfzTAJBNqpGDNRfnJBwogGj6is=", "properties": {"@source_uri": "https://tools.usps.com/UspsToolsRestServices/rest/POLocator/findLocations", "@spider": "usps_collection_boxes", "addr:city": "GREENFIELD", "addr:country": "US", "addr:postcode": "03047", "addr:state": "NH", "addr:street_address": "75 SLIP RD", "amenity": "post_box", "collection_times": "Mo-Fr 16:45; Sa 13:00", "indoor": "yes", "note": "ON 12/24 AND 12/31, THIS BOX MAY BE COLLECTED AS EARLY AS 12 NOON.", "nsi_id": "unitedstatespostalservice-a77078", "operator": "United States Postal Service", "operator:short": "USPS", "operator:type": "public", "operator:wikidata": "Q668687", "ref": "0304700002"}, "type": "Feature"}
{"geometry": {"coordinates": [-71.8730073, 42.950246], "type": "Point"}, "id": "bk_YnEZLv9_nqETajrwqhJomypA=", "properties": {"@source_uri": "https://tools.usps.com/UspsToolsRestServices/rest/POLocator/findLocations", "@spider": "usps_collection_boxes", "addr:city": "GREENFIELD", "addr:country": "US", "addr:postcode": "03047", "addr:state": "NH", "addr:street_address": "783 FOREST RD", "amenity": "post_box", "collection_times": "Mo-Sa 12:00", "nsi_id": "unitedstatespostalservice-a77078", "operator": "United States Postal Service", "operator:short": "USPS", "operator:type": "public", "operator:wikidata": "Q668687", "ref": "0304700003"}, "type": "Feature"}
{"geometry": {"coordinates": [-71.870523228, 42.94546883], "type": "Point"}, "id": "IPwYDytPqviNHnoVG4V00aySbFI=", "properties": {"@source_uri": "https://tools.usps.com/UspsToolsRestServices/rest/POLocator/findLocations", "@spider": "usps_collection_boxes", "addr:city": "GREENFIELD", "addr:country": "US", "addr:postcode": "03047", "addr:state": "NH", "addr:street_address": "75 SLIP RD", "amenity": "post_box", "collection_times": "Mo-Fr 16:45; Sa 12:00", "indoor": "yes", "note": "ON 12/24 AND 12/31, THIS BOX MAY BE COLLECTED AS EARLY AS 12 NOON.", "nsi_id": "unitedstatespostalservice-a77078", "operator": "United States Postal Service", "operator:short": "USPS", "operator:type": "public", "operator:wikidata": "Q668687", "ref": "0304700004"}, "type": "Feature"}
{"geometry": {"coordinates": [-71.812763, 42.769674], "type": "Point"}, "id": "OkhgKrcVEWa_UDktugMjmbZL78s=", "properties": {"@source_uri": "https://tools.usps.com/UspsToolsRestServices/rest/POLocator/findLocations", "@spider": "usps_collection_boxes", "addr:city": "GREENVILLE", "addr:country": "US", "addr:postcode": "03048", "addr:state": "NH", "addr:street_address": "15 MAIN ST", "amenity": "post_box", "collection_times": "Mo-Fr 16:45; Sa 11:45", "note": "ON 12/24 AND 12/31, THIS BOX MAY BE COLLECTED AS EARLY AS 12 NOON.", "nsi_id": "unitedstatespostalservice-a77078", "operator": "United States Postal Service", "operator:short": "USPS", "operator:type": "public", "operator:wikidata": "Q668687", "ref": "0304800001"}, "type": "Feature"}
{"geometry": {"coordinates": [-71.812763, 42.769674], "type": "Point"}, "id": "y6_02LyGo4FoW8fRJY4TlgSj_Ww=", "properties": {"@source_uri": "https://tools.usps.com/UspsToolsRestServices/rest/POLocator/findLocations", "@spider": "usps_collection_boxes", "addr:city": "GREENVILLE", "addr:country": "US", "addr:postcode": "03048", "addr:state": "NH", "addr:street_address": "15 MAIN ST", "amenity": "post_box", "collection_times": "Mo-Fr 17:00; Sa 12:00", "indoor": "yes", "note": "ON 12/24 AND 12/31, THIS BOX MAY BE COLLECTED AS EARLY AS 12 NOON.", "nsi_id": "unitedstatespostalservice-a77078", "operator": "United States Postal Service", "operator:short": "USPS", "operator:type": "public", "operator:wikidata": "Q668687", "ref": "0304800003"}, "type": "Feature"}
{"geometry": {"coordinates": [-71.8128071, 42.769712243], "type": "Point"}, "id": "s0JUzZQNQ05QzL8nyaJC7wjGneY=", "properties": {"@source_uri": "https://tools.usps.com/UspsToolsRestServices/rest/POLocator/findLocations", "@spider": "usps_collection_boxes", "addr:city": "GREENVILLE", "addr:country": "US", "addr:postcode": "03048", "addr:state": "NH", "addr:street_address": "15 MAIN ST", "amenity": "post_box", "collection_times": "Mo-Fr 17:00; Sa 12:00", "indoor": "yes", "note": "ON 12/24 AND 12/31, THIS BOX MAY BE COLLECTED AS EARLY AS 12 NOON.", "nsi_id": "unitedstatespostalservice-a77078", "operator": "United States Postal Service", "operator:short": "USPS", "operator:type": "public", "operator:wikidata": "Q668687", "ref": "0304800004"}, "type": "Feature"}
{"geometry": {"coordinates": [-71.584644, 42.742669], "type": "Point"}, "id": "Fma46d09VrOUbQlKtaORpQ5C1oE=", "properties": {"@source_uri": "https://tools.usps.com/UspsToolsRestServices/rest/POLocator/findLocations", "@spider": "usps_collection_boxes", "addr:city": "HOLLIS", "addr:country": "US", "addr:postcode": "03049", "addr:state": "NH", "addr:street_address": "5 HUTCHINGS DR STE 100 STE 100", "amenity": "post_box", "collection_times": "Mo-Fr 16:30; Sa 12:00", "note": "ON 12/24 AND 12/31, THIS BOX MAY BE COLLECTED AS EARLY AS 12 NOON.", "nsi_id": "unitedstatespostalservice-a77078", "operator": "United States Postal Service", "operator:short": "USPS", "operator:type": "public", "operator:wikidata": "Q668687", "ref": "0304900004"}, "type": "Feature"}
{"geometry": {"coordinates": [-71.58467, 42.742784], "type": "Point"}, "id": "F6ZM75Xw4igVtrYGuUCDHvf2hEM=", "properties": {"@source_uri": "https://tools.usps.com/UspsToolsRestServices/rest/POLocator/findLocations", "@spider": "usps_collection_boxes", "addr:city": "HOLLIS", "addr:country": "US", "addr:postcode": "03049", "addr:state": "NH", "addr:street_address": "5 HUTCHINGS DR STE 100STE", "amenity": "post_box", "collection_times": "Mo-Fr 17:00; Sa 12:30", "indoor": "yes", "note": "ON 12/24 AND 12/31, THIS BOX MAY BE COLLECTED AS EARLY AS 12 NOON.", "nsi_id": "unitedstatespostalservice-a77078", "operator": "United States Postal Service", "operator:short": "USPS", "operator:type": "public", "operator:wikidata": "Q668687", "ref": "0304900006"}, "type": "Feature"}
{"geometry": {"coordinates": [-71.584901892, 42.743327632], "type": "Point"}, "id": "rfjU-CMtgxkKLkgMRtMib4_-KPs=", "properties": {"@source_uri": "https://tools.usps.com/UspsToolsRestServices/rest/POLocator/findLocations", "@spider": "usps_collection_boxes", "addr:city": "HOLLIS", "addr:country": "US", "addr:postcode": "03049", "addr:state": "NH", "addr:street_address": "5 HUTCHINGS DR STE 100", "amenity": "post_box", "collection_times": "Mo-Fr 17:00", "indoor": "yes", "note": "ON 12/24 AND 12/31, THIS BOX MAY BE COLLECTED AS EARLY AS 12 NOON.", "nsi_id": "unitedstatespostalservice-a77078", "operator": "United States Postal Service", "operator:short": "USPS", "operator:type": "public", "operator:wikidata": "Q668687", "ref": "0304900007"}, "type": "Feature"}
{"geometry": {"coordinates": [-71.4146272, 42.767428], "type": "Point"}, "id": "0S8PV7Sdux5OrFhAn7H3O0cguPs=", "properties": {"@source_uri": "https://tools.usps.com/UspsToolsRestServices/rest/POLocator/findLocations", "@spider": "usps_collection_boxes", "addr:city": "HUDSON", "addr:country": "US", "addr:postcode": "03051", "addr:state": "NH", "addr:street_address": "191 CENTRAL ST", "amenity": "post_box", "collection_times": "Mo-Sa 13:00", "note": "ON 12/24 AND 12/31, THIS BOX MAY BE COLLECTED AS EARLY AS 12 NOON.", "nsi_id": "unitedstatespostalservice-a77078", "operator": "United States Postal Service", "operator:short": "USPS", "operator:type": "public", "operator:wikidata": "Q668687", "ref": "0305100001"}, "type": "Feature"}
{"geometry": {"coordinates": [-71.443471, 42.775109], "type": "Point"}, "id": "RlXa0HreSvLL29PqL_HwiIsJNfc=", "properties": {"@source_uri": "https://tools.usps.com/UspsToolsRestServices/rest/POLocator/findLocations", "@spider": "usps_collection_boxes", "addr:city": "HUDSON", "addr:country": "US", "addr:postcode": "03051", "addr:state": "NH", "addr:street_address": "77 DERRY ST", "amenity": "post_box", "collection_times": "Mo-Sa 10:00", "nsi_id": "unitedstatespostalservice-a77078", "operator": "United States Postal Service", "operator:short": "USPS", "operator:type": "public", "operator:wikidata": "Q668687", "ref": "0305100004"}, "type": "Feature"}
{"geometry": {"coordinates": [-71.4339661, 42.737816], "type": "Point"}, "id": "4hPhignX_4fpSQGrxfjnnfLb7EY=", "properties": {"@source_uri": "https://tools.usps.com/UspsToolsRestServices/rest/POLocator/findLocations", "@spider": "usps_collection_boxes", "addr:city": "HUDSON", "addr:country": "US", "addr:postcode": "03051", "addr:state": "NH", "addr:street_address": "35 EXECUTIVE DR", "amenity": "post_box", "collection_times": "Mo-Fr 17:00; Sa 15:15", "name": "USPS COLLECTION BOX - EXPRESS", "note": "ON 12/24 AND 12/31, THIS BOX MAY BE COLLECTED AS EARLY AS 12 NOON.", "nsi_id": "unitedstatespostalservice-a77078", "operator": "United States Postal Service", "operator:short": "USPS", "operator:type": "public", "operator:wikidata": "Q668687", "ref": "0305100009"}, "type": "Feature"}
{"geometry": {"coordinates": [-71.4290315, 42.731342], "type": "Point"}, "id": "Ne_6oa1YNFNo18kxdMzWpJ9AB6w=", "properties": {"@source_uri": "https://tools.usps.com/UspsToolsRestServices/rest/POLocator/findLocations", "@spider": "usps_collection_boxes", "addr:city": "HUDSON", "addr:country": "US", "addr:postcode": "03051", "addr:state": "NH", "addr:street_address": "12 FLAGSTONE DR", "amenity": "post_box", "collection_times": "Mo-Fr 17:00; Sa 14:45", "note": "ON 12/24 AND 12/31, THIS BOX MAY BE COLLECTED AS EARLY AS 12 NOON.", "nsi_id": "unitedstatespostalservice-a77078", "operator": "United States Postal Service", "operator:short": "USPS", "operator:type": "public", "operator:wikidata": "Q668687", "ref": "0305100010"}, "type": "Feature"}
{"geometry": {"coordinates": [-71.4272763, 42.7475], "type": "Point"}, "id": "uD4H8crt4NAXDglNi74NlWbMYDY=", "properties": {"@source_uri": "https://tools.usps.com/UspsToolsRestServices/rest/POLocator/findLocations", "@spider": "usps_collection_boxes", "addr:city": "HUDSON", "addr:country": "US", "addr:postcode": "03051", "addr:state": "NH", "addr:street_address": "836 FOX HOLLOW DR", "amenity": "post_box", "collection_times": "Mo-Sa 14:00", "note": "ON 12/24 AND 12/31, THIS BOX MAY BE COLLECTED AS EARLY AS 12 NOON.", "nsi_id": "unitedstatespostalservice-a77078", "operator": "United States Postal Service", "operator:short": "USPS", "operator:type": "public", "operator:wikidata": "Q668687", "ref": "0305100012"}, "type": "Feature"}
{"geometry": {"coordinates": [-71.4300752, 42.754461], "type": "Point"}, "id": "vKo0ODACnhMU34xLSLTm0H3RJOE=", "properties": {"@source_uri": "https://tools.usps.com/UspsToolsRestServices/rest/POLocator/findLocations", "@spider": "usps_collection_boxes", "addr:city": "HUDSON", "addr:country": "US", "addr:postcode": "03051", "addr:state": "NH", "addr:street_address": "71 LOWELL RD", "amenity": "post_box", "collection_times": "Mo-Fr 16:00; Sa 14:00", "note": "ON 12/24 AND 12/31, THIS BOX MAY BE COLLECTED AS EARLY AS 12 NOON.", "nsi_id": "unitedstatespostalservice-a77078", "operator": "United States Postal Service", "operator:short": "USPS", "operator:type": "public", "operator:wikidata": "Q668687", "ref": "0305100013"}, "type": "Feature"}
{"geometry": {"coordinates": [-71.4239809, 42.732593], "type": "Point"}, "id": "TFis7HUlP5gotwFC206QZkKalY4=", "properties": {"@source_uri": "https://tools.usps.com/UspsToolsRestServices/rest/POLocator/findLocations", "@spider": "usps_collection_boxes", "addr:city": "HUDSON", "addr:country": "US", "addr:postcode": "03051", "addr:state": "NH", "addr:street_address": "212 LOWELL RD", "amenity": "post_box", "collection_times": "Mo-Fr 17:00; Sa 14:45", "note": "ON 12/24 AND 12/31, THIS BOX MAY BE COLLECTED AS EARLY AS 12 NOON.", "nsi_id": "unitedstatespostalservice-a77078", "operator": "United States Postal Service", "operator:short": "USPS", "operator:type": "public", "operator:wikidata": "Q668687", "ref": "0305100014"}, "type": "Feature"}
{"geometry": {"coordinates": [-71.381719, 42.781274], "type": "Point"}, "id": "-LmLqCo-DGVoAAox5AeqVrtoE_g=", "properties": {"@source_uri": "https://tools.usps.com/UspsToolsRestServices/rest/POLocator/findLocations", "@spider": "usps_collection_boxes", "addr:city": "HUDSON", "addr:country": "US", "addr:postcode": "03051", "addr:state": "NH", "addr:street_address": "18 INDUSTRIAL DR", "amenity": "post_box", "collection_times": "Mo-Sa 10:00", "nsi_id": "unitedstatespostalservice-a77078", "operator": "United States Postal Service", "operator:short": "USPS", "operator:type": "public", "operator:wikidata": "Q668687", "ref": "0305100017"}, "type": "Feature"}
{"geometry": {"coordinates": [-71.4200939, 42.699722], "type": "Point"}, "id": "Ig1dfFibX6yHhUWnBAn8aojLK4Q=", "properties": {"@source_uri": "https://tools.usps.com/UspsToolsRestServices/rest/POLocator/findLocations", "@spider": "usps_collection_boxes", "addr:city": "HUDSON", "addr:country": "US", "addr:postcode": "03051", "addr:state": "NH", "addr:street_address": "100 RIVER RD", "amenity": "post_box", "collection_times": "Mo-Sa 10:00", "nsi_id": "unitedstatespostalservice-a77078", "operator": "United States Postal Service", "operator:short": "USPS", "operator:type": "public", "operator:wikidata": "Q668687", "ref": "0305100018"}, "type": "Feature"}
{"geometry": {"coordinates": [-71.438974385, 42.764402398], "type": "Point"}, "id": "jYL4QHEzwqBy6gzGnNpYpH-gdVg=", "properties": {"@source_uri": "https://tools.usps.com/UspsToolsRestServices/rest/POLocator/findLocations", "@spider": "usps_collection_boxes", "addr:city": "HUDSON", "addr:country": "US", "addr:postcode": "03051", "addr:state": "NH", "addr:street_address": "12 SCHOOL ST", "amenity": "post_box", "collection_times": "Mo-Sa 09:00", "nsi_id": "unitedstatespostalservice-a77078", "operator": "United States Postal Service", "operator:short": "USPS", "operator:type": "public", "operator:wikidata": "Q668687", "ref": "0305100023"}, "type": "Feature"}
{"geometry": {"coordinates": [-71.4310999, 42.759526], "type": "Point"}, "id": "9JoaBikKfkX9ROwK5V1mYmBhKuE=", "properties": {"@source_uri": "https://tools.usps.com/UspsToolsRestServices/rest/POLocator/findLocations", "@spider": "usps_collection_boxes", "addr:city": "HUDSON", "addr:country": "US", "addr:postcode": "03051", "addr:state": "NH", "addr:street_address": "28 LOWELL RD", "amenity": "post_box", "collection_times": "Mo-Sa 10:00", "nsi_id": "unitedstatespostalservice-a77078", "operator": "United States Postal Service", "operator:short": "USPS", "operator:type": "public", "operator:wikidata": "Q668687", "ref": "0305100025"}, "type": "Feature"}
{"geometry": {"coordinates": [-71.443471, 42.775109], "type": "Point"}, "id": "X9M1hkEJFx5sP29oaKUkUFCDkBo=", "properties": {"@source_uri": "https://tools.usps.com/UspsToolsRestServices/rest/POLocator/findLocations", "@spider": "usps_collection_boxes", "addr:city": "HUDSON", "addr:country": "US", "addr:postcode": "03051", "addr:state": "NH", "addr:street_address": "77 DERRY ST", "amenity": "post_box", "collection_times": "Mo-Fr 17:00; Sa 12:00", "indoor": "yes", "note": "ON 12/24 AND 12/31, THIS BOX MAY BE COLLECTED AS EARLY AS 12 NOON.", "nsi_id": "unitedstatespostalservice-a77078", "operator": "United States Postal Service", "operator:short": "USPS", "operator:type": "public", "operator:wikidata": "Q668687", "ref": "0305100026"}, "type": "Feature"}
{"geometry": {"coordinates": [-71.4101147, 42.77143], "type": "Point"}, "id": "NfKaNOexCvcKpwL6HvseGazH2ec=", "properties": {"@source_uri": "https://tools.usps.com/UspsToolsRestServices/rest/POLocator/findLocations", "@spider": "usps_collection_boxes", "addr:city": "HUDSON", "addr:country": "US", "addr:postcode": "03051", "addr:state": "NH", "addr:street_address": "230 CENTRAL ST", "amenity": "post_box", "collection_times": "Mo-Sa 09:00", "nsi_id": "unitedstatespostalservice-a77078", "operator": "United States Postal Service", "operator:short": "USPS", "operator:type": "public", "operator:wikidata": "Q668687", "ref": "0305100029"}, "type": "Feature"}
{"geometry": {"coordinates": [-71.444090839, 42.773665798], "type": "Point"}, "id": "Pei06Jr7CtbnakpTAWfQBW50cP0=", "properties": {"@source_uri": "https://tools.usps.com/UspsToolsRestServices/rest/POLocator/findLocations", "@spider": "usps_collection_boxes", "addr:city": "HUDSON", "addr:country": "US", "addr:postcode": "03051", "addr:state": "NH", "addr:street_address": "77 DERRY ST STE 13", "amenity": "post_box", "collection_times": "Mo-Fr 16:45; Sa 12:00", "indoor": "yes", "note": "ON 12/24 AND 12/31, THIS BOX MAY BE COLLECTED AS EARLY AS 12 NOON.", "nsi_id": "unitedstatespostalservice-a77078", "operator": "United States Postal Service", "operator:short": "USPS", "operator:type": "public", "operator:wikidata": "Q668687", "ref": "0305100032"}, "type": "Feature"}
{"geometry": {"coordinates": [-71.4604578, 42.856721], "type": "Point"}, "id": "EJVBmTOunYa5MsmXkni-UI0vVjg=", "properties": {"@source_uri": "https://tools.usps.com/UspsToolsRestServices/rest/POLocator/findLocations", "@spider": "usps_collection_boxes", "addr:city": "LITCHFIELD", "addr:country": "US", "addr:postcode": "03052", "addr:state": "NH", "addr:street_address": "2 LIBERTY WAY", "amenity": "post_box", "collection_times": "Mo-Sa 10:00", "nsi_id": "unitedstatespostalservice-a77078", "operator": "United States Postal Service", "operator:short": "USPS", "operator:type": "public", "operator:wikidata": "Q668687", "ref": "0305200001"}, "type": "Feature"}
{"geometry": {"coordinates": [-71.4271776, 42.810749], "type": "Point"}, "id": "jj71c7kU1FY2frjA1yxIuQ1gv6I=", "properties": {"@source_uri": "https://tools.usps.com/UspsToolsRestServices/rest/POLocator/findLocations", "@spider": "usps_collection_boxes", "addr:city": "LITCHFIELD", "addr:country": "US", "addr:postcode": "03052", "addr:state": "NH", "addr:street_address": "274 DERRY RD", "amenity": "post_box", "collection_times": "Mo-Sa 10:00", "nsi_id": "unitedstatespostalservice-a77078", "operator": "United States Postal Service", "operator:short": "USPS", "operator:type": "public", "operator:wikidata": "Q668687", "ref": "0305200002"}, "type": "Feature"}
{"geometry": {"coordinates": [-71.3499636, 42.865492], "type": "Point"}, "id": "GQ6rXtLXsXjmObXLQWDiDJNMmNA=", "properties": {"@source_uri": "https://tools.usps.com/UspsToolsRestServices/rest/POLocator/findLocations", "@spider": "usps_collection_boxes", "addr:city": "LONDONDERRY", "addr:country": "US", "addr:postcode": "03053", "addr:state": "NH", "addr:street_address": "50 NASHUA RD", "amenity": "post_box", "collection_times": "Mo-Sa 09:00", "nsi_id": "unitedstatespostalservice-a77078", "operator": "United States Postal Service", "operator:short": "USPS", "operator:type": "public", "operator:wikidata": "Q668687", "ref": "0305300002"}, "type": "Feature"}
{"geometry": {"coordinates": [-71.3471633, 42.87012], "type": "Point"}, "id": "NbY3mE-AiIe-Xyn1KbGuAbckaDI=", "properties": {"@source_uri": "https://tools.usps.com/UspsToolsRestServices/rest/POLocator/findLocations", "@spider": "usps_collection_boxes", "addr:city": "LONDONDERRY", "addr:country": "US", "addr:postcode": "03053", "addr:state": "NH", "addr:street_address": "10 MICHELS WAY", "amenity": "post_box", "collection_times": "Mo-Sa 09:00", "nsi_id": "unitedstatespostalservice-a77078", "operator": "United States Postal Service", "operator:short": "USPS", "operator:type": "public", "operator:wikidata": "Q668687", "ref": "0305300007"}, "type": "Feature"}
{"geometry": {"coordinates": [-71.375285004, 42.8674940391], "type": "Point"}, "id": "TbDTBfo6fLXGvLMsoSzyPY-xq0E=", "properties": {"@source_uri": "https://tools.usps.com/UspsToolsRestServices/rest/POLocator/findLocations", "@spider": "usps_collection_boxes", "addr:city": "LONDONDERRY", "addr:country": "US", "addr:postcode": "03053", "addr:state": "NH", "addr:street_address": "268A MAMMOTH RD", "amenity": "post_box", "collection_times": "Mo-Sa 09:00", "nsi_id": "unitedstatespostalservice-a77078", "operator": "United States Postal Service", "operator:short": "USPS", "operator:type": "public", "operator:wikidata": "Q668687", "ref": "0305300008"}, "type": "Feature"}
{"geometry": {"coordinates": [-71.4215061, 42.913488], "type": "Point"}, "id": "fGAFtzCSfSIf0qoMhMZB-vaE2-A=", "properties": {"@source_uri": "https://tools.usps.com/UspsToolsRestServices/rest/POLocator/findLocations", "@spider": "usps_collection_boxes", "addr:city": "LONDONDERRY", "addr:country": "US", "addr:postcode": "03053", "addr:state": "NH", "addr:street_address": "8 DELTA DR", "amenity": "post_box", "collection_times": "Mo-Sa 09:00", "nsi_id": "unitedstatespostalservice-a77078", "operator": "United States Postal Service", "operator:short": "USPS", "operator:type": "public", "operator:wikidata": "Q668687", "ref": "0305300011"}, "type": "Feature"}
{"geometry": {"coordinates": [-71.3545239, 42.859428], "type": "Point"}, "id": "frG7epp5BaWYxs0DjgDiqAHisPg=", "properties": {"@source_uri": "https://tools.usps.com/UspsToolsRestServices/rest/POLocator/findLocations", "@spider": "usps_collection_boxes", "addr:city": "LONDONDERRY", "addr:country": "US", "addr:postcode": "03053", "addr:state": "NH", "addr:street_address": "86 NASHUA RD", "amenity": "post_box", "collection_times": "Mo-Fr 17:15; Sa 15:45", "indoor": "yes", "note": "ON 12/24 AND 12/31, THIS BOX MAY BE COLLECTED AS EARLY AS 12 NOON.", "nsi_id": "unitedstatespostalservice-a77078", "operator": "United States Postal Service", "operator:short": "USPS", "operator:type": "public", "operator:wikidata": "Q668687", "ref": "0305300017"}, "type": "Feature"}
{"geometry": {"coordinates": [-71.3913064, 42.836022], "type": "Point"}, "id": "CcXZNdFoyUmyHJo8h9NHihugGcQ=", "properties": {"@source_uri": "https://tools.usps.com/UspsToolsRestServices/rest/POLocator/findLocations", "@spider": "usps_collection_boxes", "addr:city": "LONDONDERRY", "addr:country": "US", "addr:postcode": "03053", "addr:state": "NH", "addr:street_address": "12 PARMENTER RD", "amenity": "post_box", "collection_times": "Mo-Sa 09:00", "nsi_id": "unitedstatespostalservice-a77078", "operator": "United States Postal Service", "operator:short": "USPS", "operator:type": "public", "operator:wikidata": "Q668687", "ref": "0305300019"}, "type": "Feature"}
{"geometry": {"coordinates": [-71.3510986, 42.865705], "type": "Point"}, "id": "qa7nEQFN71iN8AEgoeWTlTdAw18=", "properties": {"@source_uri": "https://tools.usps.com/UspsToolsRestServices/rest/POLocator/findLocations", "@spider": "usps_collection_boxes", "addr:city": "LONDONDERRY", "addr:country": "US", "addr:postcode": "03053", "addr:state": "NH", "addr:street_address": "75 GILCREAST RD", "amenity": "post_box", "collection_times": "Mo-Sa 09:00", "nsi_id": "unitedstatespostalservice-a77078", "operator": "United States Postal Service", "operator:short": "USPS", "operator:type": "public", "operator:wikidata": "Q668687", "ref": "0305300020"}, "type": "Feature"}
{"geometry": {"coordinates": [-71.3544795, 42.859454], "type": "Point"}, "id": "x9oqw65LUgelSNnDIDzKdfj_nvU=", "properties": {"@source_uri": "https://tools.usps.com/UspsToolsRestServices/rest/POLocator/findLocations", "@spider": "usps_collection_boxes", "addr:city": "LONDONDERRY", "addr:country": "US", "addr:postcode": "03053", "addr:state": "NH", "addr:street_address": "86 NASHUA RD", "amenity": "post_box", "collection_times": "Mo-Fr 17:15; Sa 15:45", "name": "USPS COLLECTION BOX - APC", "note": "ON 12/24 AND 12/31, THIS BOX MAY BE COLLECTED AS EARLY AS 12 NOON.", "nsi_id": "unitedstatespostalservice-a77078", "operator": "United States Postal Service", "operator:short": "USPS", "operator:type": "public", "operator:wikidata": "Q668687", "ref": "0305300021"}, "type": "Feature"}
{"geometry": {"coordinates": [-71.354808876, 42.858226897], "type": "Point"}, "id": "ZH5Bnr7XKyZVtdxASOBx_s5_PQ4=", "properties": {"@source_uri": "https://tools.usps.com/UspsToolsRestServices/rest/POLocator/findLocations", "@spider": "usps_collection_boxes", "addr:city": "LONDONDERRY", "addr:country": "US", "addr:postcode": "03053", "addr:state": "NH", "addr:street_address": "86 NASHUA RD", "amenity": "post_box", "collection_times": "Mo-Fr 17:00; Sa 12:00", "indoor": "yes", "note": "ON 12/24 AND 12/31, THIS BOX MAY BE COLLECTED AS EARLY AS 12 NOON.", "nsi_id": "unitedstatespostalservice-a77078", "operator": "United States Postal Service", "operator:short": "USPS", "operator:type": "public", "operator:wikidata": "Q668687", "ref": "0305300024"}, "type": "Feature"}
{"geometry": {"coordinates": [-71.4948811, 42.866422], "type": "Point"}, "id": "a07tJOajHT5kEvPQ_J-CvraPLMs=", "properties": {"@source_uri": "https://tools.usps.com/UspsToolsRestServices/rest/POLocator/findLocations", "@spider": "usps_collection_boxes", "addr:city": "MERRIMACK", "addr:country": "US", "addr:postcode": "03054", "addr:state": "NH", "addr:street_address": "10 BABOOSIC LAKE RD", "amenity": "post_box", "collection_times": "Mo-Fr 13:00", "note": "ON 12/24 AND 12/31, THIS BOX MAY BE COLLECTED AS EARLY AS 12 NOON.", "nsi_id": "unitedstatespostalservice-a77078", "operator": "United States Postal Service", "operator:short": "USPS", "operator:type": "public", "operator:wikidata": "Q668687", "ref": "0305400001"}, "type": "Feature"}
{"geometry": {"coordinates": [-71.4906857, 42.87272], "type": "Point"}, "id": "JpBdqBjO4jv6rMD_ihbLFXRmPgA=", "properties": {"@source_uri": "https://tools.usps.com/UspsToolsRestServices/rest/POLocator/findLocations", "@spider": "usps_collection_boxes", "addr:city": "MERRIMACK", "addr:country": "US", "addr:postcode": "03054", "addr:state": "NH", "addr:street_address": "510 DANIEL WEBSTER HWY", "amenity": "post_box", "collection_times": "Mo-Fr 17:30; Sa 15:00", "note": "ON 12/24 AND 12/31, THIS BOX MAY BE COLLECTED AS EARLY AS 12 NOON.", "nsi_id": "unitedstatespostalservice-a77078", "operator": "United States Postal Service", "operator:short": "USPS", "operator:type": "public", "operator:wikidata": "Q668687", "ref": "0305400002"}, "type": "Feature"}
{"geometry": {"coordinates": [-71.4741015, 42.797751], "type": "Point"}, "id": "Axb_A8GBBsa27aTVmaMNjcK8YLA=", "properties": {"@source_uri": "https://tools.usps.com/UspsToolsRestServices/rest/POLocator/findLocations", "@spider": "usps_collection_boxes", "addr:city": "MERRIMACK", "addr:country": "US", "addr:postcode": "03054", "addr:state": "NH", "addr:street_address": "30 DANIEL WEBSTER HWY", "amenity": "post_box", "collection_times": "Mo-Fr 10:30; Sa 09:00", "nsi_id": "unitedstatespostalservice-a77078", "operator": "United States Postal Service", "operator:short": "USPS", "operator:type": "public", "operator:wikidata": "Q668687", "ref": "0305400008"}, "type": "Feature"}
{"geometry": {"coordinates": [-71.491769, 42.852724], "type": "Point"}, "id": "FHA_8GvexUuGgTN8HPdukFppOMs=", "properties": {"@source_uri": "https://tools.usps.com/UspsToolsRestServices/rest/POLocator/findLocations", "@spider": "usps_collection_boxes", "addr:city": "MERRIMACK", "addr:country": "US", "addr:postcode": "03054", "addr:state": "NH", "addr:street_address": "380 DANIEL WEBSTER HWY", "amenity": "post_box", "collection_times": "Mo-Sa 13:00", "note": "ON 12/24 AND 12/31, THIS BOX MAY BE COLLECTED AS EARLY AS 12 NOON.", "nsi_id": "unitedstatespostalservice-a77078", "operator": "United States Postal Service", "operator:short": "USPS", "operator:type": "public", "operator:wikidata": "Q668687", "ref": "0305400009"}, "type": "Feature"}
{"geometry": {"coordinates": [-71.5454195, 42.80555], "type": "Point"}, "id": "1kt7m7iTfOsxiIh7RQ3bZwla-3M=", "properties": {"@source_uri": "https://tools.usps.com/UspsToolsRestServices/rest/POLocator/findLocations", "@spider": "usps_collection_boxes", "addr:city": "MERRIMACK", "addr:country": "US", "addr:postcode": "03054", "addr:state": "NH", "addr:street_address": "707 MILFORD RD", "amenity": "post_box", "collection_times": "Mo-Fr 11:00; Sa 10:30", "nsi_id": "unitedstatespostalservice-a77078", "operator": "United States Postal Service", "operator:short": "USPS", "operator:type": "public", "operator:wikidata": "Q668687", "ref": "0305400011"}, "type": "Feature"}
{"geometry": {"coordinates": [-71.4862413, 42.873903], "type": "Point"}, "id": "YMKOMgj6TQdXblpeTT4s4ya0Q9o=", "properties": {"@source_uri": "https://tools.usps.com/UspsToolsRestServices/rest/POLocator/findLocations", "@spider": "usps_collection_boxes", "addr:city": "MERRIMACK", "addr:country": "US", "addr:postcode": "03054", "addr:state": "NH", "addr:street_address": "70 COVENTRY CT", "amenity": "post_box", "collection_times": "Mo-Sa 08:30", "nsi_id": "unitedstatespostalservice-a77078", "operator": "United States Postal Service", "operator:short": "USPS", "operator:type": "public", "operator:wikidata": "Q668687", "ref": "0305400013"}, "type": "Feature"}
{"geometry": {"coordinates": [-71.4915394, 42.858529], "type": "Point"}, "id": "_e-KC6Xu60Qo4R2djdIIwfT491Y=", "properties": {"@source_uri": "https://tools.usps.com/UspsToolsRestServices/rest/POLocator/findLocations", "@spider": "usps_collection_boxes", "addr:city": "MERRIMACK", "addr:country": "US", "addr:postcode": "03054", "addr:state": "NH", "addr:street_address": "416 DANIEL WEBSTER HWY", "amenity": "post_box", "collection_times": "Mo-Fr 10:00; Sa 09:30", "nsi_id": "unitedstatespostalservice-a77078", "operator": "United States Postal Service", "operator:short": "USPS", "operator:type": "public", "operator:wikidata": "Q668687", "ref": "0305400014"}, "type": "Feature"}
{"geometry": {"coordinates": [-71.4907449, 42.872995], "type": "Point"}, "id": "3pB8yuVZzfv-BunyuG5ZblqYn4A=", "properties": {"@source_uri": "https://tools.usps.com/UspsToolsRestServices/rest/POLocator/findLocations", "@spider": "usps_collection_boxes", "addr:city": "MERRIMACK", "addr:country": "US", "addr:postcode": "03054", "addr:state": "NH", "addr:street_address": "510 DANIEL WEBSTER HWY", "amenity": "post_box", "collection_times": "Mo-Fr 17:30; Sa 15:30", "indoor": "yes", "note": "ON 12/24 AND 12/31, THIS BOX MAY BE COLLECTED AS EARLY AS 12 NOON.", "nsi_id": "unitedstatespostalservice-a77078", "operator": "United States Postal Service", "operator:short": "USPS", "operator:type": "public", "operator:wikidata": "Q668687", "ref": "0305400017"}, "type": "Feature"}
{"geometry": {"coordinates": [-71.4965306, 42.840081], "type": "Point"}, "id": "SzH3YoTui0ziWC5kLhb4ivxcT34=", "properties": {"@source_uri": "https://tools.usps.com/UspsToolsRestServices/rest/POLocator/findLocations", "@spider": "usps_collection_boxes", "addr:city": "MERRIMACK", "addr:country": "US", "addr:postcode": "03054", "addr:state": "NH", "addr:street_address": "3 AMHERST RD", "amenity": "post_box", "collection_times": "Mo-Sa 13:00", "note": "ON 12/24 AND 12/31, THIS BOX MAY BE COLLECTED AS EARLY AS 12 NOON.", "nsi_id": "unitedstatespostalservice-a77078", "operator": "United States Postal Service", "operator:short": "USPS", "operator:type": "public", "operator:wikidata": "Q668687", "ref": "0305400018"}, "type": "Feature"}
{"geometry": {"coordinates": [-71.4862495, 42.81395], "type": "Point"}, "id": "bhnhR14zd2eOnC6nRWpIlJhV97A=", "properties": {"@source_uri": "https://tools.usps.com/UspsToolsRestServices/rest/POLocator/findLocations", "@spider": "usps_collection_boxes", "addr:city": "MERRIMACK", "addr:country": "US", "addr:postcode": "03054", "addr:state": "NH", "addr:street_address": "140 DANIEL WEBSTER HWY", "amenity": "post_box", "collection_times": "Mo-Fr 10:00; Sa 09:00", "nsi_id": "unitedstatespostalservice-a77078", "operator": "United States Postal Service", "operator:short": "USPS", "operator:type": "public", "operator:wikidata": "Q668687", "ref": "0305400019"}, "type": "Feature"}
{"geometry": {"coordinates": [-71.4763309, 42.882995], "type": "Point"}, "id": "x4VRngEBObIV3xAG3Je7zIKmsPE=", "properties": {"@source_uri": "https://tools.usps.com/UspsToolsRestServices/rest/POLocator/findLocations", "@spider": "usps_collection_boxes", "addr:city": "MERRIMACK", "addr:country": "US", "addr:postcode": "03054", "addr:state": "NH", "addr:street_address": "601 DANIEL WEBSTER HWY", "amenity": "post_box", "collection_times": "Mo-Fr 09:30; Sa 08:30", "nsi_id": "unitedstatespostalservice-a77078", "operator": "United States Postal Service", "operator:short": "USPS", "operator:type": "public", "operator:wikidata": "Q668687", "ref": "0305400020"}, "type": "Feature"}
{"geometry": {"coordinates": [-71.4907199, 42.872975], "type": "Point"}, "id": "6-WY93c9bqtVQxCUMu8tk0oOq0g=", "properties": {"@source_uri": "https://tools.usps.com/UspsToolsRestServices/rest/POLocator/findLocations", "@spider": "usps_collection_boxes", "addr:city": "MERRIMACK", "addr:country": "US", "addr:postcode": "03054", "addr:state": "NH", "addr:street_address": "510 DANIEL WEBSTER HWY", "amenity": "post_box", "collection_times": "Mo-Fr 17:00; Sa 15:00", "name": "USPS COLLECTION BOX - APC", "note": "ON 12/24 AND 12/31, THIS BOX MAY BE COLLECTED AS EARLY AS 12 NOON.", "nsi_id": "unitedstatespostalservice-a77078", "operator": "United States Postal Service", "operator:short": "USPS", "operator:type": "public", "operator:wikidata": "Q668687", "ref": "0305400021"}, "type": "Feature"}
{"geometry": {"coordinates": [-71.489688312, 42.873177614], "type": "Point"}, "id": "pyAwKM1C9iNY5svfe25E1-F52RY=", "properties": {"@source_uri": "https://tools.usps.com/UspsToolsRestServices/rest/POLocator/findLocations", "@spider": "usps_collection_boxes", "addr:city": "MERRIMACK", "addr:country": "US", "addr:postcode": "03054", "addr:state": "NH", "addr:street_address": "510 DANIEL WEBSTER HWY", "amenity": "post_box", "collection_times": "Mo-Fr 17:00; Sa 12:00", "indoor": "yes", "note": "ON 12/24 AND 12/31, THIS BOX MAY BE COLLECTED AS EARLY AS 12 NOON.", "nsi_id": "unitedstatespostalservice-a77078", "operator": "United States Postal Service", "operator:short": "USPS", "operator:type": "public", "operator:wikidata": "Q668687", "ref": "0305400024"}, "type": "Feature"}
{"geometry": {"coordinates": [-71.6656077, 42.838717], "type": "Point"}, "id": "qSySNhNecMrIQ0peLOKLKppZFR0=", "properties": {"@source_uri": "https://tools.usps.com/UspsToolsRestServices/rest/POLocator/findLocations", "@spider": "usps_collection_boxes", "addr:city": "MILFORD", "addr:country": "US", "addr:postcode": "03055", "addr:state": "NH", "addr:street_address": "183 ELM ST", "amenity": "post_box", "collection_times": "Mo-Fr 15:00; Sa 14:30", "note": "ON 12/24 AND 12/31, THIS BOX MAY BE COLLECTED AS EARLY AS 12 NOON.", "nsi_id": "unitedstatespostalservice-a77078", "operator": "United States Postal Service", "operator:short": "USPS", "operator:type": "public", "operator:wikidata": "Q668687", "ref": "0305500005"}, "type": "Feature"}
{"geometry": {"coordinates": [-71.6235204, 42.824826], "type": "Point"}, "id": "nJQHPfA42xZcAZ30Nek0gw9mnVI=", "properties": {"@source_uri": "https://tools.usps.com/UspsToolsRestServices/rest/POLocator/findLocations", "@spider": "usps_collection_boxes", "addr:city": "MILFORD", "addr:country": "US", "addr:postcode": "03055", "addr:state": "NH", "addr:street_address": "586 NASHUA ST", "amenity": "post_box", "collection_times": "Mo-Fr 17:00; Sa 14:30", "note": "ON 12/24 AND 12/31, THIS BOX MAY BE COLLECTED AS EARLY AS 12 NOON.", "nsi_id": "unitedstatespostalservice-a77078", "operator": "United States Postal Service", "operator:short": "USPS", "operator:type": "public", "operator:wikidata": "Q668687", "ref": "0305500006"}, "type": "Feature"}
{"geometry": {"coordinates": [-71.6498195, 42.837083], "type": "Point"}, "id": "wlNRIqDczNQItwueR4ytVmyLFAM=", "properties": {"@source_uri": "https://tools.usps.com/UspsToolsRestServices/rest/POLocator/findLocations", "@spider": "usps_collection_boxes", "addr:city": "MILFORD", "addr:country": "US", "addr:postcode": "03055", "addr:state": "NH", "addr:street_address": "12 MONT VERNON ST", "amenity": "post_box", "collection_times": "Mo-Fr 17:15; Sa 14:30", "note": "ON 12/24 AND 12/31, THIS BOX MAY BE COLLECTED AS EARLY AS 12 NOON.", "nsi_id": "unitedstatespostalservice-a77078", "operator": "United States Postal Service", "operator:short": "USPS", "operator:type": "public", "operator:wikidata": "Q668687", "ref": "0305500007"}, "type": "Feature"}
{"geometry": {"coordinates": [-71.649718, 42.837089], "type": "Point"}, "id": "f0kABgSD2sU5Q57gJcOKCNnbz-c=", "properties": {"@source_uri": "https://tools.usps.com/UspsToolsRestServices/rest/POLocator/findLocations", "@spider": "usps_collection_boxes", "addr:city": "MILFORD", "addr:country": "US", "addr:postcode": "03055", "addr:state": "NH", "addr:street_address": "12 MONT VERNON ST", "amenity": "post_box", "collection_times": "Mo-Fr 17:30; Sa 14:30", "indoor": "yes", "note": "ON 12/24 AND 12/31, THIS BOX MAY BE COLLECTED AS EARLY AS 12 NOON.", "nsi_id": "unitedstatespostalservice-a77078", "operator": "United States Postal Service", "operator:short": "USPS", "operator:type": "public", "operator:wikidata": "Q668687", "ref": "0305500009"}, "type": "Feature"}
{"geometry": {"coordinates": [-71.6296108, 42.825926], "type": "Point"}, "id": "XggyblzoAgWncNMWjRz3S25-QpI=", "properties": {"@source_uri": "https://tools.usps.com/UspsToolsRestServices/rest/POLocator/findLocations", "@spider": "usps_collection_boxes", "addr:city": "MILFORD", "addr:country": "US", "addr:postcode": "03055", "addr:state": "NH", "addr:street_address": "504 NASHUA ST", "amenity": "post_box", "collection_times": "Mo-Sa 09:00", "nsi_id": "unitedstatespostalservice-a77078", "operator": "United States Postal Service", "operator:short": "USPS", "operator:type": "public", "operator:wikidata": "Q668687", "ref": "0305500011"}, "type": "Feature"}
{"geometry": {"coordinates": [-71.6490369, 42.835844], "type": "Point"}, "id": "e_gXp4dwhW5vTwaEcK2vOTddkAM=", "properties": {"@source_uri": "https://tools.usps.com/UspsToolsRestServices/rest/POLocator/findLocations", "@spider": "usps_collection_boxes", "addr:city": "MILFORD", "addr:country": "US", "addr:postcode": "03055", "addr:state": "NH", "addr:street_address": "1 UNION SQ", "amenity": "post_box", "collection_times": "Mo-Fr 17:00; Sa 14:30", "note": "ON 12/24 AND 12/31, THIS BOX MAY BE COLLECTED AS EARLY AS 12 NOON.", "nsi_id": "unitedstatespostalservice-a77078", "operator": "United States Postal Service", "operator:short": "USPS", "operator:type": "public", "operator:wikidata": "Q668687", "ref": "0305500013"}, "type": "Feature"}
{"geometry": {"coordinates": [-71.6532147, 42.829402], "type": "Point"}, "id": "JCdOB3aj0ooCTHMaAN7ONvWUjek=", "properties": {"@source_uri": "https://tools.usps.com/UspsToolsRestServices/rest/POLocator/findLocations", "@spider": "usps_collection_boxes", "addr:city": "MILFORD", "addr:country": "US", "addr:postcode": "03055", "addr:state": "NH", "addr:street_address": "83 UNION ST", "amenity": "post_box", "collection_times": "Mo-Sa 11:00", "nsi_id": "unitedstatespostalservice-a77078", "operator": "United States Postal Service", "operator:short": "USPS", "operator:type": "public", "operator:wikidata": "Q668687", "ref": "0305500016"}, "type": "Feature"}
{"geometry": {"coordinates": [-71.6612947, 42.829536], "type": "Point"}, "id": "pNaxtEbGn1kQaXS1WCh2V94bftQ=", "properties": {"@source_uri": "https://tools.usps.com/UspsToolsRestServices/rest/POLocator/findLocations", "@spider": "usps_collection_boxes", "addr:city": "MILFORD", "addr:country": "US", "addr:postcode": "03055", "addr:state": "NH", "addr:street_address": "93 WEST ST", "amenity": "post_box", "collection_times": "Mo-Sa 11:00", "nsi_id": "unitedstatespostalservice-a77078", "operator": "United States Postal Service", "operator:short": "USPS", "operator:type": "public", "operator:wikidata": "Q668687", "ref": "0305500017"}, "type": "Feature"}
{"geometry": {"coordinates": [-71.7042999, 42.841467], "type": "Point"}, "id": "2cFMzIYqwyShEXrdAqokUNF_wKg=", "properties": {"@source_uri": "https://tools.usps.com/UspsToolsRestServices/rest/POLocator/findLocations", "@spider": "usps_collection_boxes", "addr:city": "MILFORD", "addr:country": "US", "addr:postcode": "03055", "addr:state": "NH", "addr:street_address": "28 JONES RD", "amenity": "post_box", "collection_times": "Mo-Fr 15:00; Sa 14:30", "note": "ON 12/24 AND 12/31, THIS BOX MAY BE COLLECTED AS EARLY AS 12 NOON.", "nsi_id": "unitedstatespostalservice-a77078", "operator": "United States Postal Service", "operator:short": "USPS", "operator:type": "public", "operator:wikidata": "Q668687", "ref": "0305500018"}, "type": "Feature"}
{"geometry": {"coordinates": [-71.6393427, 42.838932], "type": "Point"}, "id": "KYfDza7CzZpEboNb-DSZ2501DEI=", "properties": {"@source_uri": "https://tools.usps.com/UspsToolsRestServices/rest/POLocator/findLocations", "@spider": "usps_collection_boxes", "addr:city": "MILFORD", "addr:country": "US", "addr:postcode": "03055", "addr:state": "NH", "addr:street_address": "14 MERRIMACK ST", "amenity": "post_box", "collection_times": "Mo-Sa 09:00", "nsi_id": "unitedstatespostalservice-a77078", "operator": "United States Postal Service", "operator:short": "USPS", "operator:type": "public", "operator:wikidata": "Q668687", "ref": "0305500019"}, "type": "Feature"}
{"geometry": {"coordinates": [-71.6436304, 42.832864], "type": "Point"}, "id": "yIn66OLzSJb-kfWRRqsW5BC6a7o=", "properties": {"@source_uri": "https://tools.usps.com/UspsToolsRestServices/rest/POLocator/findLocations", "@spider": "usps_collection_boxes", "addr:city": "MILFORD", "addr:country": "US", "addr:postcode": "03055", "addr:state": "NH", "addr:street_address": "321 NASHUA ST", "amenity": "post_box", "collection_times": "Mo-Fr 16:45; Sa 14:30", "note": "ON 12/24 AND 12/31, THIS BOX MAY BE COLLECTED AS EARLY AS 12 NOON.", "nsi_id": "unitedstatespostalservice-a77078", "operator": "United States Postal Service", "operator:short": "USPS", "operator:type": "public", "operator:wikidata": "Q668687", "ref": "0305500020"}, "type": "Feature"}
{"geometry": {"coordinates": [-71.6657043, 42.817112], "type": "Point"}, "id": "2r2qH5VlhIDT8BJ7OGj8eB13h2g=", "properties": {"@source_uri": "https://tools.usps.com/UspsToolsRestServices/rest/POLocator/findLocations", "@spider": "usps_collection_boxes", "addr:city": "MILFORD", "addr:country": "US", "addr:postcode": "03055", "addr:state": "NH", "addr:street_address": "26 MELENDY RD", "amenity": "post_box", "collection_times": "Mo-Sa 10:00", "nsi_id": "unitedstatespostalservice-a77078", "operator": "United States Postal Service", "operator:short": "USPS", "operator:type": "public", "operator:wikidata": "Q668687", "ref": "0305500022"}, "type": "Feature"}
{"geometry": {"coordinates": [-71.6263023, 42.822418], "type": "Point"}, "id": "bU2W0a5fqGV8wITLpEy1kAa9kFQ=", "properties": {"@source_uri": "https://tools.usps.com/UspsToolsRestServices/rest/POLocator/findLocations", "@spider": "usps_collection_boxes", "addr:city": "MILFORD", "addr:country": "US", "addr:postcode": "03055", "addr:state": "NH", "addr:street_address": "14 CAPRON RD", "amenity": "post_box", "collection_times": "Mo-Fr 17:00; Sa 14:30", "note": "ON 12/24 AND 12/31, THIS BOX MAY BE COLLECTED AS EARLY AS 12 NOON.", "nsi_id": "unitedstatespostalservice-a77078", "operator": "United States Postal Service", "operator:short": "USPS", "operator:type": "public", "operator:wikidata": "Q668687", "ref": "0305500024"}, "type": "Feature"}
{"geometry": {"coordinates": [-71.6385019, 42.829501], "type": "Point"}, "id": "5Qz_2LQ39X3i-V6znQIraO0dN4o=", "properties": {"@source_uri": "https://tools.usps.com/UspsToolsRestServices/rest/POLocator/findLocations", "@spider": "usps_collection_boxes", "addr:city": "MILFORD", "addr:country": "US", "addr:postcode": "03055", "addr:state": "NH", "addr:street_address": "24 POWERS ST", "amenity": "post_box", "collection_times": "Mo-Sa 11:00", "nsi_id": "unitedstatespostalservice-a77078", "operator": "United States Postal Service", "operator:short": "USPS", "operator:type": "public", "operator:wikidata": "Q668687", "ref": "0305500025"}, "type": "Feature"}
{"geometry": {"coordinates": [-71.649802003, 42.83716849], "type": "Point"}, "id": "KJYnHTFag3H7U1F07fYhJ7iZFvc=", "properties": {"@source_uri": "https://tools.usps.com/UspsToolsRestServices/rest/POLocator/findLocations", "@spider": "usps_collection_boxes", "addr:city": "MILFORD", "addr:country": "US", "addr:postcode": "03055", "addr:state": "NH", "addr:street_address": "12 MONT VERNON ST", "amenity": "post_box", "collection_times": "Mo-Fr 17:15; Sa 13:00", "indoor": "yes", "note": "ON 12/24 AND 12/31, THIS BOX MAY BE COLLECTED AS EARLY AS 12 NOON.", "nsi_id": "unitedstatespostalservice-a77078", "operator": "United States Postal Service", "operator:short": "USPS", "operator:type": "public", "operator:wikidata": "Q668687", "ref": "0305500028"}, "type": "Feature"}
{"geometry": {"coordinates": [-71.673256, 42.895764], "type": "Point"}, "id": "UhXXnUypSSXIU4gNri1QjUfTsmM=", "properties": {"@source_uri": "https://tools.usps.com/UspsToolsRestServices/rest/POLocator/findLocations", "@spider": "usps_collection_boxes", "addr:city": "MONT VERNON", "addr:country": "US", "addr:postcode": "03057", "addr:state": "NH", "addr:street_address": "4 GRAND HILL RD", "amenity": "post_box", "collection_times": "Mo-Fr 16:45; Sa 11:45", "note": "ON 12/24 AND 12/31, THIS BOX MAY BE COLLECTED AS EARLY AS 12 NOON.", "nsi_id": "unitedstatespostalservice-a77078", "operator": "United States Postal Service", "operator:short": "USPS", "operator:type": "public", "operator:wikidata": "Q668687", "ref": "0305700001"}, "type": "Feature"}
{"geometry": {"coordinates": [-71.673283, 42.895729], "type": "Point"}, "id": "AzKMB7KBDbcbH0bVTGwR2D84I0k=", "properties": {"@source_uri": "https://tools.usps.com/UspsToolsRestServices/rest/POLocator/findLocations", "@spider": "usps_collection_boxes", "addr:city": "MONT VERNON", "addr:country": "US", "addr:postcode": "03057", "addr:state": "NH", "addr:street_address": "4 GRAND HILL RD", "amenity": "post_box", "collection_times": "Mo-Fr 17:00; Sa 12:00", "indoor": "yes", "note": "ON 12/24 AND 12/31, THIS BOX MAY BE COLLECTED AS EARLY AS 12 NOON.", "nsi_id": "unitedstatespostalservice-a77078", "operator": "United States Postal Service", "operator:short": "USPS", "operator:type": "public", "operator:wikidata": "Q668687", "ref": "0305700002"}, "type": "Feature"}
{"geometry": {"coordinates": [-71.673240633, 42.895761082], "type": "Point"}, "id": "AQUlRw3qdXSolCw2CzYyQjtwPfE=", "properties": {"@source_uri": "https://tools.usps.com/UspsToolsRestServices/rest/POLocator/findLocations", "@spider": "usps_collection_boxes", "addr:city": "MONT VERNON", "addr:country": "US", "addr:postcode": "03057", "addr:state": "NH", "addr:street_address": "4 GRAND HILL RD", "amenity": "post_box", "collection_times": "Mo-Fr 17:00; Sa 12:00", "indoor": "yes", "note": "ON 12/24 AND 12/31, THIS BOX MAY BE COLLECTED AS EARLY AS 12 NOON.", "nsi_id": "unitedstatespostalservice-a77078", "operator": "United States Postal Service", "operator:short": "USPS", "operator:type": "public", "operator:wikidata": "Q668687", "ref": "0305700003"}, "type": "Feature"}
{"geometry": {"coordinates": [-71.4534338, 42.756455], "type": "Point"}, "id": "rsqW839lJL5KVOCRehkc9dFj7vM=", "properties": {"@source_uri": "https://tools.usps.com/UspsToolsRestServices/rest/POLocator/findLocations", "@spider": "usps_collection_boxes", "addr:city": "NASHUA", "addr:country": "US", "addr:postcode": "03060", "addr:state": "NH", "addr:street_address": "89 ALLDS ST", "amenity": "post_box", "collection_times": "Mo-Sa 11:00", "nsi_id": "unitedstatespostalservice-a77078", "operator": "United States Postal Service", "operator:short": "USPS", "operator:type": "public", "operator:wikidata": "Q668687", "ref": "0306000001"}, "type": "Feature"}
{"geometry": {"coordinates": [-71.464624791, 42.759148209], "type": "Point"}, "id": "2JWZnMN-vKYmMVPJocW_Z1xA908=", "properties": {"@source_uri": "https://tools.usps.com/UspsToolsRestServices/rest/POLocator/findLocations", "@spider": "usps_collection_boxes", "addr:city": "NASHUA", "addr:country": "US", "addr:postcode": "03060", "addr:state": "NH", "addr:street_address": "219 MAIN ST", "amenity": "post_box", "collection_times": "Mo-Fr 17:00; Sa 16:00", "note": "ON 12/24 AND 12/31, THIS BOX MAY BE COLLECTED AS EARLY AS 12 NOON.", "nsi_id": "unitedstatespostalservice-a77078", "operator": "United States Postal Service", "operator:short": "USPS", "operator:type": "public", "operator:wikidata": "Q668687", "ref": "0306000004"}, "type": "Feature"}
{"geometry": {"coordinates": [-71.4518575, 42.751521], "type": "Point"}, "id": "MCNCmHU9PzIdO3IQG6amr7jSq8s=", "properties": {"@source_uri": "https://tools.usps.com/UspsToolsRestServices/rest/POLocator/findLocations", "@spider": "usps_collection_boxes", "addr:city": "NASHUA", "addr:country": "US", "addr:postcode": "03060", "addr:state": "NH", "addr:street_address": "48 BURKE ST", "amenity": "post_box", "collection_times": "Mo-Sa 13:30", "note": "ON 12/24 AND 12/31, THIS BOX MAY BE COLLECTED AS EARLY AS 12 NOON.", "nsi_id": "unitedstatespostalservice-a77078", "operator": "United States Postal Service", "operator:short": "USPS", "operator:type": "public", "operator:wikidata": "Q668687", "ref": "0306000006"}, "type": "Feature"}
{"geometry": {"coordinates": [-71.466710936, 42.761345017], "type": "Point"}, "id": "sJq2ueh1hXti09IGsIswvZsP3XY=", "properties": {"@source_uri": "https://tools.usps.com/UspsToolsRestServices/rest/POLocator/findLocations", "@spider": "usps_collection_boxes", "addr:city": "NASHUA", "addr:country": "US", "addr:postcode": "03060", "addr:state": "NH", "addr:street_address": "23 FACTORY ST", "amenity": "post_box", "collection_times": "Mo-Fr 17:00; Sa 16:00", "note": "ON 12/24 AND 12/31, THIS BOX MAY BE COLLECTED AS EARLY AS 12 NOON.", "nsi_id": "unitedstatespostalservice-a77078", "operator": "United States Postal Service", "operator:short": "USPS", "operator:type": "public", "operator:wikidata": "Q668687", "ref": "0306000008"}, "type": "Feature"}
{"geometry": {"coordinates": [-71.442611, 42.713844], "type": "Point"}, "id": "k-5X6rRPtV3zvVGFQV7ZrHFPeZM=", "properties": {"@source_uri": "https://tools.usps.com/UspsToolsRestServices/rest/POLocator/findLocations", "@spider": "usps_collection_boxes", "addr:city": "NASHUA", "addr:country": "US", "addr:postcode": "03060", "addr:state": "NH", "addr:street_address": "213 DANIEL WEBSTER HWY", "amenity": "post_box", "collection_times": "Mo-Fr 17:00; Sa 16:00", "note": "ON 12/24 AND 12/31, THIS BOX MAY BE COLLECTED AS EARLY AS 12 NOON.", "nsi_id": "unitedstatespostalservice-a77078", "operator": "United States Postal Service", "operator:short": "USPS", "operator:type": "public", "operator:wikidata": "Q668687", "ref": "0306000012"}, "type": "Feature"}
{"geometry": {"coordinates": [-71.441299, 42.706228], "type": "Point"}, "id": "C5iJUt6x8VFNvNII-Fr7fsHQNzY=", "properties": {"@source_uri": "https://tools.usps.com/UspsToolsRestServices/rest/POLocator/findLocations", "@spider": "usps_collection_boxes", "addr:city": "NASHUA", "addr:country": "US", "addr:postcode": "03060", "addr:state": "NH", "addr:street_address": "275 DANIEL WEBSTER HWY", "amenity": "post_box", "collection_times": "Mo-Fr 17:00; Sa 16:00", "note": "ON 12/24 AND 12/31, THIS BOX MAY BE COLLECTED AS EARLY AS 12 NOON.", "nsi_id": "unitedstatespostalservice-a77078", "operator": "United States Postal Service", "operator:short": "USPS", "operator:type": "public", "operator:wikidata": "Q668687", "ref": "0306000013"}, "type": "Feature"}
{"geometry": {"coordinates": [-71.463853715, 42.761781061], "type": "Point"}, "id": "DnbxPw5ov-icOCgxcBq3MiniU08=", "properties": {"@source_uri": "https://tools.usps.com/UspsToolsRestServices/rest/POLocator/findLocations", "@spider": "usps_collection_boxes", "addr:city": "NASHUA", "addr:country": "US", "addr:postcode": "03060", "addr:state": "NH", "addr:street_address": "1 INDIAN HEAD PLZ", "amenity": "post_box", "collection_times": "Mo-Fr 17:00; Sa 16:00", "note": "ON 12/24 AND 12/31, THIS BOX MAY BE COLLECTED AS EARLY AS 12 NOON.", "nsi_id": "unitedstatespostalservice-a77078", "operator": "United States Postal Service", "operator:short": "USPS", "operator:type": "public", "operator:wikidata": "Q668687", "ref": "0306000015"}, "type": "Feature"}
{"geometry": {"coordinates": [-71.481382, 42.749878], "type": "Point"}, "id": "3krOXflcHXKJvFAjy2z2r6x6XF0=", "properties": {"@source_uri": "https://tools.usps.com/UspsToolsRestServices/rest/POLocator/findLocations", "@spider": "usps_collection_boxes", "addr:city": "NASHUA", "addr:country": "US", "addr:postcode": "03060", "addr:state": "NH", "addr:street_address": "172 KINSLEY ST", "amenity": "post_box", "collection_times": "Mo-Fr 17:00; Sa 16:00", "note": "ON 12/24 AND 12/31, THIS BOX MAY BE COLLECTED AS EARLY AS 12 NOON.", "nsi_id": "unitedstatespostalservice-a77078", "operator": "United States Postal Service", "operator:short": "USPS", "operator:type": "public", "operator:wikidata": "Q668687", "ref": "0306000019"}, "type": "Feature"}
{"geometry": {"coordinates": [-71.4831287, 42.747138], "type": "Point"}, "id": "3f5subsWmX63ZzesY4dG1i1ILLU=", "properties": {"@source_uri": "https://tools.usps.com/UspsToolsRestServices/rest/POLocator/findLocations", "@spider": "usps_collection_boxes", "addr:city": "NASHUA", "addr:country": "US", "addr:postcode": "03060", "addr:state": "NH", "addr:street_address": "295 LAKE ST", "amenity": "post_box", "collection_times": "Mo-Sa 14:00", "note": "ON 12/24 AND 12/31, THIS BOX MAY BE COLLECTED AS EARLY AS 12 NOON.", "nsi_id": "unitedstatespostalservice-a77078", "operator": "United States Postal Service", "operator:short": "USPS", "operator:type": "public", "operator:wikidata": "Q668687", "ref": "0306000021"}, "type": "Feature"}
{"geometry": {"coordinates": [-71.4645675, 42.76008], "type": "Point"}, "id": "wvoSRP8lt-1cfGVySgtmGPQWP6Q=", "properties": {"@source_uri": "https://tools.usps.com/UspsToolsRestServices/rest/POLocator/findLocations", "@spider": "usps_collection_boxes", "addr:city": "NASHUA", "addr:country": "US", "addr:postcode": "03060", "addr:state": "NH", "addr:street_address": "194 MAIN ST", "amenity": "post_box", "collection_times": "Mo-Fr 17:00; Sa 16:00", "note": "ON 12/24 AND 12/31, THIS BOX MAY BE COLLECTED AS EARLY AS 12 NOON.", "nsi_id": "unitedstatespostalservice-a77078", "operator": "United States Postal Service", "operator:short": "USPS", "operator:type": "public", "operator:wikidata": "Q668687", "ref": "0306000022"}, "type": "Feature"}
{"geometry": {"coordinates": [-71.4654, 42.760251], "type": "Point"}, "id": "elT3djAUKMfy6sMZNUNW6iJq30s=", "properties": {"@source_uri": "https://tools.usps.com/UspsToolsRestServices/rest/POLocator/findLocations", "@spider": "usps_collection_boxes", "addr:city": "NASHUA", "addr:country": "US", "addr:postcode": "03060", "addr:state": "NH", "addr:street_address": "191 MAIN ST", "amenity": "post_box", "collection_times": "Mo-Fr 17:00; Sa 16:00", "note": "ON 12/24 AND 12/31, THIS BOX MAY BE COLLECTED AS EARLY AS 12 NOON.", "nsi_id": "unitedstatespostalservice-a77078", "operator": "United States Postal Service", "operator:short": "USPS", "operator:type": "public", "operator:wikidata": "Q668687", "ref": "0306000026"}, "type": "Feature"}
{"geometry": {"coordinates": [-71.489534, 42.746361], "type": "Point"}, "id": "Ee59pgCaoA5RO6tTX-rE9aFwbK4=", "properties": {"@source_uri": "https://tools.usps.com/UspsToolsRestServices/rest/POLocator/findLocations", "@spider": "usps_collection_boxes", "addr:city": "NASHUA", "addr:country": "US", "addr:postcode": "03060", "addr:state": "NH", "addr:street_address": "157 MAIN DUNSTABLE RD", "amenity": "post_box", "collection_times": "Mo-Fr 17:00; Sa 16:00", "note": "ON 12/24 AND 12/31, THIS BOX MAY BE COLLECTED AS EARLY AS 12 NOON.", "nsi_id": "unitedstatespostalservice-a77078", "operator": "United States Postal Service", "operator:short": "USPS", "operator:type": "public", "operator:wikidata": "Q668687", "ref": "0306000028"}, "type": "Feature"}
{"geometry": {"coordinates": [-71.465882242, 42.761993249], "type": "Point"}, "id": "SvNDtwdUXDUg8u2VZoLr2MaXpqo=", "properties": {"@source_uri": "https://tools.usps.com/UspsToolsRestServices/rest/POLocator/findLocations", "@spider": "usps_collection_boxes", "addr:city": "NASHUA", "addr:country": "US", "addr:postcode": "03060", "addr:state": "NH", "addr:street_address": "115 MAIN ST", "amenity": "post_box", "collection_times": "Mo-Fr 17:00; Sa 16:00", "note": "ON 12/24 AND 12/31, THIS BOX MAY BE COLLECTED AS EARLY AS 12 NOON.", "nsi_id": "unitedstatespostalservice-a77078", "operator": "United States Postal Service", "operator:short": "USPS", "operator:type": "public", "operator:wikidata": "Q668687", "ref": "0306000030"}, "type": "Feature"}
{"geometry": {"coordinates": [-71.4649185, 42.758199], "type": "Point"}, "id": "0yVfW47ybtnWoB1TH2N1CpvkCcQ=", "properties": {"@source_uri": "https://tools.usps.com/UspsToolsRestServices/rest/POLocator/findLocations", "@spider": "usps_collection_boxes", "addr:city": "NASHUA", "addr:country": "US", "addr:postcode": "03060", "addr:state": "NH", "addr:street_address": "229 MAIN ST", "amenity": "post_box", "collection_times": "Mo-Fr 17:00; Sa 16:00", "note": "ON 12/24 AND 12/31, THIS BOX MAY BE COLLECTED AS EARLY AS 12 NOON.", "nsi_id": "unitedstatespostalservice-a77078", "operator": "United States Postal Service", "operator:short": "USPS", "operator:type": "public", "operator:wikidata": "Q668687", "ref": "0306000031"}, "type": "Feature"}
{"geometry": {"coordinates": [-71.461966515, 42.755931049], "type": "Point"}, "id": "K7h6EHO7LjdHgcdCQIjEBJgjdvQ=", "properties": {"@source_uri": "https://tools.usps.com/UspsToolsRestServices/rest/POLocator/findLocations", "@spider": "usps_collection_boxes", "addr:city": "NASHUA", "addr:country": "US", "addr:postcode": "03060", "addr:state": "NH", "addr:street_address": "8 PROSPECT ST", "amenity": "post_box", "collection_times": "Mo-Fr 17:00; Sa 16:00", "note": "ON 12/24 AND 12/31, THIS BOX MAY BE COLLECTED AS EARLY AS 12 NOON.", "nsi_id": "unitedstatespostalservice-a77078", "operator": "United States Postal Service", "operator:short": "USPS", "operator:type": "public", "operator:wikidata": "Q668687", "ref": "0306000042"}, "type": "Feature"}
{"geometry": {"coordinates": [-71.4902526, 42.752925], "type": "Point"}, "id": "QeV6VZnnnDm8OX36f2RXldi-5t8=", "properties": {"@source_uri": "https://tools.usps.com/UspsToolsRestServices/rest/POLocator/findLocations", "@spider": "usps_collection_boxes", "addr:city": "NASHUA", "addr:country": "US", "addr:postcode": "03060", "addr:state": "NH", "addr:street_address": "18 SIMON ST", "amenity": "post_box", "collection_times": "Mo-Sa 13:30", "note": "ON 12/24 AND 12/31, THIS BOX MAY BE COLLECTED AS EARLY AS 12 NOON.", "nsi_id": "unitedstatespostalservice-a77078", "operator": "United States Postal Service", "operator:short": "USPS", "operator:type": "public", "operator:wikidata": "Q668687", "ref": "0306000044"}, "type": "Feature"}
{"geometry": {"coordinates": [-71.45431, 42.738393], "type": "Point"}, "id": "5wL7zB9nHleyXAgfPCntnH0fZ4I=", "properties": {"@source_uri": "https://tools.usps.com/UspsToolsRestServices/rest/POLocator/findLocations", "@spider": "usps_collection_boxes", "addr:city": "NASHUA", "addr:country": "US", "addr:postcode": "03060", "addr:state": "NH", "addr:street_address": "436 S MAIN ST", "amenity": "post_box", "collection_times": "Mo-Sa 15:00", "note": "ON 12/24 AND 12/31, THIS BOX MAY BE COLLECTED AS EARLY AS 12 NOON.", "nsi_id": "unitedstatespostalservice-a77078", "operator": "United States Postal Service", "operator:short": "USPS", "operator:type": "public", "operator:wikidata": "Q668687", "ref": "0306000045"}, "type": "Feature"}
{"geometry": {"coordinates": [-71.4580305, 42.759767], "type": "Point"}, "id": "2IXOPahfiO92qQZGYzuI8iNE1O8=", "properties": {"@source_uri": "https://tools.usps.com/UspsToolsRestServices/rest/POLocator/findLocations", "@spider": "usps_collection_boxes", "addr:city": "NASHUA", "addr:country": "US", "addr:postcode": "03060", "addr:state": "NH", "addr:street_address": "14 SPRUCE ST", "amenity": "post_box", "collection_times": "Mo-Sa 15:00", "note": "ON 12/24 AND 12/31, THIS BOX MAY BE COLLECTED AS EARLY AS 12 NOON.", "nsi_id": "unitedstatespostalservice-a77078", "operator": "United States Postal Service", "operator:short": "USPS", "operator:type": "public", "operator:wikidata": "Q668687", "ref": "0306000051"}, "type": "Feature"}
{"geometry": {"coordinates": [-71.4593968, 42.761874], "type": "Point"}, "id": "xcvjfMr83CWBgPRV123LBk0_FWw=", "properties": {"@source_uri": "https://tools.usps.com/UspsToolsRestServices/rest/POLocator/findLocations", "@spider": "usps_collection_boxes", "addr:city": "NASHUA", "addr:country": "US", "addr:postcode": "03060", "addr:state": "NH", "addr:street_address": "9 E PEARL ST", "amenity": "post_box", "collection_times": "Mo-Sa 15:00", "note": "ON 12/24 AND 12/31, THIS BOX MAY BE COLLECTED AS EARLY AS 12 NOON.", "nsi_id": "unitedstatespostalservice-a77078", "operator": "United States Postal Service", "operator:short": "USPS", "operator:type": "public", "operator:wikidata": "Q668687", "ref": "0306000052"}, "type": "Feature"}
{"geometry": {"coordinates": [-71.4625785, 42.761783], "type": "Point"}, "id": "Rrmd0yiNxFDkd75n-f-mL9ADnaY=", "properties": {"@source_uri": "https://tools.usps.com/UspsToolsRestServices/rest/POLocator/findLocations", "@spider": "usps_collection_boxes", "addr:city": "NASHUA", "addr:country": "US", "addr:postcode": "03060", "addr:state": "NH", "addr:street_address": "40 TEMPLE ST", "amenity": "post_box", "collection_times": "Mo-Sa 15:00", "note": "ON 12/24 AND 12/31, THIS BOX MAY BE COLLECTED AS EARLY AS 12 NOON.", "nsi_id": "unitedstatespostalservice-a77078", "operator": "United States Postal Service", "operator:short": "USPS", "operator:type": "public", "operator:wikidata": "Q668687", "ref": "0306000053"}, "type": "Feature"}
{"geometry": {"coordinates": [-71.4687952, 42.756568], "type": "Point"}, "id": "XokkhilhYMYP307Dmrsg8_3WiJg=", "properties": {"@source_uri": "https://tools.usps.com/UspsToolsRestServices/rest/POLocator/findLocations", "@spider": "usps_collection_boxes", "addr:city": "NASHUA", "addr:country": "US", "addr:postcode": "03060", "addr:state": "NH", "addr:street_address": "56 W HOLLIS ST", "amenity": "post_box", "collection_times": "Mo-Sa 14:00", "note": "ON 12/24 AND 12/31, THIS BOX MAY BE COLLECTED AS EARLY AS 12 NOON.", "nsi_id": "unitedstatespostalservice-a77078", "operator": "United States Postal Service", "operator:short": "USPS", "operator:type": "public", "operator:wikidata": "Q668687", "ref": "0306000054"}, "type": "Feature"}
{"geometry": {"coordinates": [-71.4830693, 42.752018], "type": "Point"}, "id": "AFSt1fGEUdHbz7jjdyVSabj25QU=", "properties": {"@source_uri": "https://tools.usps.com/UspsToolsRestServices/rest/POLocator/findLocations", "@spider": "usps_collection_boxes", "addr:city": "NASHUA", "addr:country": "US", "addr:postcode": "03060", "addr:state": "NH", "addr:street_address": "217 W HOLLIS ST", "amenity": "post_box", "collection_times": "Mo-Sa 15:00", "note": "ON 12/24 AND 12/31, THIS BOX MAY BE COLLECTED AS EARLY AS 12 NOON.", "nsi_id": "unitedstatespostalservice-a77078", "operator": "United States Postal Service", "operator:short": "USPS", "operator:type": "public", "operator:wikidata": "Q668687", "ref": "0306000055"}, "type": "Feature"}
{"geometry": {"coordinates": [-71.4665721, 42.759788], "type": "Point"}, "id": "DsV0rYgfspSjNJeg6iL1frQUyKA=", "properties": {"@source_uri": "https://tools.usps.com/UspsToolsRestServices/rest/POLocator/findLocations", "@spider": "usps_collection_boxes", "addr:city": "NASHUA", "addr:country": "US", "addr:postcode": "03060", "addr:state": "NH", "addr:street_address": "109 W PEARL ST", "amenity": "post_box", "collection_times": "Mo-Sa 14:00", "note": "ON 12/24 AND 12/31, THIS BOX MAY BE COLLECTED AS EARLY AS 12 NOON.", "nsi_id": "unitedstatespostalservice-a77078", "operator": "United States Postal Service", "operator:short": "USPS", "operator:type": "public", "operator:wikidata": "Q668687", "ref": "0306000056"}, "type": "Feature"}
{"geometry": {"coordinates": [-71.4405427, 42.708422], "type": "Point"}, "id": "fBO3zh0VMN9Y8P4UrVkErdcFUYQ=", "properties": {"@source_uri": "https://tools.usps.com/UspsToolsRestServices/rest/POLocator/findLocations", "@spider": "usps_collection_boxes", "addr:city": "NASHUA", "addr:country": "US", "addr:postcode": "03060", "addr:state": "NH", "addr:street_address": "254 DANIEL WEBSTER HWY", "amenity": "post_box", "collection_times": "Mo-Fr 17:00; Sa 16:00", "note": "ON 12/24 AND 12/31, THIS BOX MAY BE COLLECTED AS EARLY AS 12 NOON.", "nsi_id": "unitedstatespostalservice-a77078", "operator": "United States Postal Service", "operator:short": "USPS", "operator:type": "public", "operator:wikidata": "Q668687", "ref": "0306000058"}, "type": "Feature"}
{"geometry": {"coordinates": [-71.4586815, 42.757706], "type": "Point"}, "id": "--ycrBElMZoIJ4UQyoYMjBsXVGE=", "properties": {"@source_uri": "https://tools.usps.com/UspsToolsRestServices/rest/POLocator/findLocations", "@spider": "usps_collection_boxes", "addr:city": "NASHUA", "addr:country": "US", "addr:postcode": "03060", "addr:state": "NH", "addr:street_address": "56 TYLER ST", "amenity": "post_box", "collection_times": "Mo-Sa 15:00", "note": "ON 12/24 AND 12/31, THIS BOX MAY BE COLLECTED AS EARLY AS 12 NOON.", "nsi_id": "unitedstatespostalservice-a77078", "operator": "United States Postal Service", "operator:short": "USPS", "operator:type": "public", "operator:wikidata": "Q668687", "ref": "0306000059"}, "type": "Feature"}
{"geometry": {"coordinates": [-71.4668236, 42.736325], "type": "Point"}, "id": "gihViBs6mcSOwSxUhR3DF2CXxR8=", "properties": {"@source_uri": "https://tools.usps.com/UspsToolsRestServices/rest/POLocator/findLocations", "@spider": "usps_collection_boxes", "addr:city": "NASHUA", "addr:country": "US", "addr:postcode": "03060", "addr:state": "NH", "addr:street_address": "43 E DUNSTABLE RD", "amenity": "post_box", "collection_times": "Mo-Sa 14:00", "note": "ON 12/24 AND 12/31, THIS BOX MAY BE COLLECTED AS EARLY AS 12 NOON.", "nsi_id": "unitedstatespostalservice-a77078", "operator": "United States Postal Service", "operator:short": "USPS", "operator:type": "public", "operator:wikidata": "Q668687", "ref": "0306000062"}, "type": "Feature"}
{"geometry": {"coordinates": [-71.462499778, 42.754841192], "type": "Point"}, "id": "nNOmWm1Onwp3hhn8U7_MMh7rUTM=", "properties": {"@source_uri": "https://tools.usps.com/UspsToolsRestServices/rest/POLocator/findLocations", "@spider": "usps_collection_boxes", "addr:city": "NASHUA", "addr:country": "US", "addr:postcode": "03060", "addr:state": "NH", "addr:street_address": "280 MAIN ST", "amenity": "post_box", "collection_times": "Mo-Fr 17:00; Sa 16:00", "note": "ON 12/24 AND 12/31, THIS BOX MAY BE COLLECTED AS EARLY AS 12 NOON.", "nsi_id": "unitedstatespostalservice-a77078", "operator": "United States Postal Service", "operator:short": "USPS", "operator:type": "public", "operator:wikidata": "Q668687", "ref": "0306000064"}, "type": "Feature"}
{"geometry": {"coordinates": [-71.4699279, 42.759473], "type": "Point"}, "id": "Csb9F7ef8PfE0MNbM77iyEPg5gs=", "properties": {"@source_uri": "https://tools.usps.com/UspsToolsRestServices/rest/POLocator/findLocations", "@spider": "usps_collection_boxes", "addr:city": "NASHUA", "addr:country": "US", "addr:postcode": "03060", "addr:state": "NH", "addr:street_address": "1 CHESTNUT ST", "amenity": "post_box", "collection_times": "Mo-Fr 17:00", "note": "ON 12/24 AND 12/31, THIS BOX MAY BE COLLECTED AS EARLY AS 12 NOON.", "nsi_id": "unitedstatespostalservice-a77078", "operator": "United States Postal Service", "operator:short": "USPS", "operator:type": "public", "operator:wikidata": "Q668687", "ref": "0306000065"}, "type": "Feature"}
{"geometry": {"coordinates": [-71.4622576, 42.759118], "type": "Point"}, "id": "GojQ5o5qgJ134FHc8MZY5ECFhSo=", "properties": {"@source_uri": "https://tools.usps.com/UspsToolsRestServices/rest/POLocator/findLocations", "@spider": "usps_collection_boxes", "addr:city": "NASHUA", "addr:country": "US", "addr:postcode": "03060", "addr:state": "NH", "addr:street_address": "38 SPRING ST", "amenity": "post_box", "collection_times": "Mo-Fr 17:00; Sa 15:45", "indoor": "yes", "note": "ON 12/24 AND 12/31, THIS BOX MAY BE COLLECTED AS EARLY AS 12 NOON.", "nsi_id": "unitedstatespostalservice-a77078", "operator": "United States Postal Service", "operator:short": "USPS", "operator:type": "public", "operator:wikidata": "Q668687", "ref": "0306000070"}, "type": "Feature"}
{"geometry": {"coordinates": [-71.465085, 42.761457], "type": "Point"}, "id": "KvwRcSBE6DDbZ45RXzD2RAhH_Ns=", "properties": {"@source_uri": "https://tools.usps.com/UspsToolsRestServices/rest/POLocator/findLocations", "@spider": "usps_collection_boxes", "addr:city": "NASHUA", "addr:country": "US", "addr:postcode": "03060", "addr:state": "NH", "addr:street_address": "146 MAIN ST", "amenity": "post_box", "collection_times": "Mo-Fr 17:00; Sa 16:00", "note": "ON 12/24 AND 12/31, THIS BOX MAY BE COLLECTED AS EARLY AS 12 NOON.", "nsi_id": "unitedstatespostalservice-a77078", "operator": "United States Postal Service", "operator:short": "USPS", "operator:type": "public", "operator:wikidata": "Q668687", "ref": "0306000074"}, "type": "Feature"}
{"geometry": {"coordinates": [-71.4404772, 42.708497], "type": "Point"}, "id": "qXU5DEnvjvPyTLneVdMrjBMeMlI=", "properties": {"@source_uri": "https://tools.usps.com/UspsToolsRestServices/rest/POLocator/findLocations", "@spider": "usps_collection_boxes", "addr:city": "NASHUA", "addr:country": "US", "addr:postcode": "03060", "addr:state": "NH", "addr:street_address": "254 DANIEL WEBSTER HWY", "amenity": "post_box", "collection_times": "Mo-Fr 17:00; Sa 12:30", "indoor": "yes", "note": "ON 12/24 AND 12/31, THIS BOX MAY BE COLLECTED AS EARLY AS 12 NOON.", "nsi_id": "unitedstatespostalservice-a77078", "operator": "United States Postal Service", "operator:short": "USPS", "operator:type": "public", "operator:wikidata": "Q668687", "ref": "0306000075"}, "type": "Feature"}
{"geometry": {"coordinates": [-71.462750993, 42.759030979], "type": "Point"}, "id": "Tqix50BDBGmL-AyjCNvDKR-l1Po=", "properties": {"@source_uri": "https://tools.usps.com/UspsToolsRestServices/rest/POLocator/findLocations", "@spider": "usps_collection_boxes", "addr:city": "NASHUA", "addr:country": "US", "addr:postcode": "03060", "addr:state": "NH", "addr:street_address": "38 SPRING ST", "amenity": "post_box", "collection_times": "Mo-Fr 17:00; Sa 16:00", "note": "ON 12/24 AND 12/31, THIS BOX MAY BE COLLECTED AS EARLY AS 12 NOON.", "nsi_id": "unitedstatespostalservice-a77078", "operator": "United States Postal Service", "operator:short": "USPS", "operator:type": "public", "operator:wikidata": "Q668687", "ref": "0306000076"}, "type": "Feature"}
{"geometry": {"coordinates": [-71.462303, 42.759143], "type": "Point"}, "id": "fY6z2wz0TT9oOZ4Wcng4GEE2c88=", "properties": {"@source_uri": "https://tools.usps.com/UspsToolsRestServices/rest/POLocator/findLocations", "@spider": "usps_collection_boxes", "addr:city": "NASHUA", "addr:country": "US", "addr:postcode": "03060", "addr:state": "NH", "addr:street_address": "38 SPRING ST", "amenity": "post_box", "collection_times": "Mo-Fr 17:00; Sa 15:45", "name": "USPS COLLECTION BOX - APC", "note": "ON 12/24 AND 12/31, THIS BOX MAY BE COLLECTED AS EARLY AS 12 NOON.", "nsi_id": "unitedstatespostalservice-a77078", "operator": "United States Postal Service", "operator:short": "USPS", "operator:type": "public", "operator:wikidata": "Q668687", "ref": "0306000079"}, "type": "Feature"}
{"geometry": {"coordinates": [-71.4359878, 42.700952], "type": "Point"}, "id": "xWTYrKGYPvSfvP0auHTgVkRKXYQ=", "properties": {"@source_uri": "https://tools.usps.com/UspsToolsRestServices/rest/POLocator/findLocations", "@spider": "usps_collection_boxes", "addr:city": "NASHUA", "addr:country": "US", "addr:postcode": "03060", "addr:state": "NH", "addr:street_address": "310 DANIEL WEBSTER HWY", "amenity": "post_box", "collection_times": "Mo-Fr 17:00; Sa 16:00", "note": "ON 12/24 AND 12/31, THIS BOX MAY BE COLLECTED AS EARLY AS 12 NOON.", "nsi_id": "unitedstatespostalservice-a77078", "operator": "United States Postal Service", "operator:short": "USPS", "operator:type": "public", "operator:wikidata": "Q668687", "ref": "0306000080"}, "type": "Feature"}
{"geometry": {"coordinates": [-71.462760466, 42.759065974], "type": "Point"}, "id": "sdxAwToJmxJNyW6zj10nRDXx4H0=", "properties": {"@source_uri": "https://tools.usps.com/UspsToolsRestServices/rest/POLocator/findLocations", "@spider": "usps_collection_boxes", "addr:city": "NASHUA", "addr:country": "US", "addr:postcode": "03060", "addr:state": "NH", "addr:street_address": "38 SPRING ST", "amenity": "post_box", "collection_times": "Mo-Fr 17:00; Sa 12:30", "indoor": "yes", "note": "ON 12/24 AND 12/31, THIS BOX MAY BE COLLECTED AS EARLY AS 12 NOON.", "nsi_id": "unitedstatespostalservice-a77078", "operator": "United States Postal Service", "operator:short": "USPS", "operator:type": "public", "operator:wikidata": "Q668687", "ref": "0306000090"}, "type": "Feature"}
{"geometry": {"coordinates": [-71.44146789, 42.708382302], "type": "Point"}, "id": "KT6aQ0VP6jp-jqLuLXY6iPO9jng=", "properties": {"@source_uri": "https://tools.usps.com/UspsToolsRestServices/rest/POLocator/findLocations", "@spider": "usps_collection_boxes", "addr:city": "NASHUA", "addr:country": "US", "addr:postcode": "03060", "addr:state": "NH", "addr:street_address": "254 DANIEL WEBSTER HWY UNIT 4", "amenity": "post_box", "collection_times": "Mo-Fr 17:30; Sa 12:30", "indoor": "yes", "note": "ON 12/24 AND 12/31, THIS BOX MAY BE COLLECTED AS EARLY AS 12 NOON.", "nsi_id": "unitedstatespostalservice-a77078", "operator": "United States Postal Service", "operator:short": "USPS", "operator:type": "public", "operator:wikidata": "Q668687", "ref": "0306000091"}, "type": "Feature"}
{"geometry": {"coordinates": [-71.5067419, 42.740511], "type": "Point"}, "id": "KM8-OOlIYgANa0PTLI3twVIYPlA=", "properties": {"@source_uri": "https://tools.usps.com/UspsToolsRestServices/rest/POLocator/findLocations", "@spider": "usps_collection_boxes", "addr:city": "NASHUA", "addr:country": "US", "addr:postcode": "03062", "addr:state": "NH", "addr:street_address": "3 DOGWOOD DR", "amenity": "post_box", "collection_times": "Mo-Sa 14:00", "note": "ON 12/24 AND 12/31, THIS BOX MAY BE COLLECTED AS EARLY AS 12 NOON.", "nsi_id": "unitedstatespostalservice-a77078", "operator": "United States Postal Service", "operator:short": "USPS", "operator:type": "public", "operator:wikidata": "Q668687", "ref": "0306200001"}, "type": "Feature"}
{"geometry": {"coordinates": [-71.4952869, 42.741262], "type": "Point"}, "id": "yasjvjx5xct0FMgu0E3hW_x5ZIY=", "properties": {"@source_uri": "https://tools.usps.com/UspsToolsRestServices/rest/POLocator/findLocations", "@spider": "usps_collection_boxes", "addr:city": "NASHUA", "addr:country": "US", "addr:postcode": "03062", "addr:state": "NH", "addr:street_address": "264 MAIN DUNSTABLE RD", "amenity": "post_box", "collection_times": "Mo-Fr 17:00; Sa 16:00", "note": "ON 12/24 AND 12/31, THIS BOX MAY BE COLLECTED AS EARLY AS 12 NOON.", "nsi_id": "unitedstatespostalservice-a77078", "operator": "United States Postal Service", "operator:short": "USPS", "operator:type": "public", "operator:wikidata": "Q668687", "ref": "0306200002"}, "type": "Feature"}
{"geometry": {"coordinates": [-71.4714679, 42.732156], "type": "Point"}, "id": "SAdkf56at0o72CzXXK-s7UxkvSQ=", "properties": {"@source_uri": "https://tools.usps.com/UspsToolsRestServices/rest/POLocator/findLocations", "@spider": "usps_collection_boxes", "addr:city": "NASHUA", "addr:country": "US", "addr:postcode": "03062", "addr:state": "NH", "addr:street_address": "7 HARRIS RD", "amenity": "post_box", "collection_times": "Mo-Fr 17:00; Sa 16:00", "note": "ON 12/24 AND 12/31, THIS BOX MAY BE COLLECTED AS EARLY AS 12 NOON.", "nsi_id": "unitedstatespostalservice-a77078", "operator": "United States Postal Service", "operator:short": "USPS", "operator:type": "public", "operator:wikidata": "Q668687", "ref": "0306200004"}, "type": "Feature"}
{"geometry": {"coordinates": [-71.4549427, 42.710128], "type": "Point"}, "id": "6azbwpC2eKlMKodBboalGRwyepM=", "properties": {"@source_uri": "https://tools.usps.com/UspsToolsRestServices/rest/POLocator/findLocations", "@spider": "usps_collection_boxes", "addr:city": "NASHUA", "addr:country": "US", "addr:postcode": "03062", "addr:state": "NH", "addr:street_address": "10 TARA BLVD", "amenity": "post_box", "collection_times": "Mo-Fr 17:00; Sa 16:00", "note": "ON 12/24 AND 12/31, THIS BOX MAY BE COLLECTED AS EARLY AS 12 NOON.", "nsi_id": "unitedstatespostalservice-a77078", "operator": "United States Postal Service", "operator:short": "USPS", "operator:type": "public", "operator:wikidata": "Q668687", "ref": "0306200006"}, "type": "Feature"}
{"geometry": {"coordinates": [-71.5007165, 42.746849], "type": "Point"}, "id": "VPGrKTFVW68vnjesMv130o5-5FM=", "properties": {"@source_uri": "https://tools.usps.com/UspsToolsRestServices/rest/POLocator/findLocations", "@spider": "usps_collection_boxes", "addr:city": "NASHUA", "addr:country": "US", "addr:postcode": "03062", "addr:state": "NH", "addr:street_address": "505 W HOLLIS ST", "amenity": "post_box", "collection_times": "Mo-Fr 17:00; Sa 16:00", "note": "ON 12/24 AND 12/31, THIS BOX MAY BE COLLECTED AS EARLY AS 12 NOON.", "nsi_id": "unitedstatespostalservice-a77078", "operator": "United States Postal Service", "operator:short": "USPS", "operator:type": "public", "operator:wikidata": "Q668687", "ref": "0306200008"}, "type": "Feature"}
{"geometry": {"coordinates": [-71.4682219883, 42.7064529819], "type": "Point"}, "id": "aK71l6q4Dhi5VPArJ68vP2n1fa4=", "properties": {"@source_uri": "https://tools.usps.com/UspsToolsRestServices/rest/POLocator/findLocations", "@spider": "usps_collection_boxes", "addr:city": "NASHUA", "addr:country": "US", "addr:postcode": "03062", "addr:state": "NH", "addr:street_address": "2 SKY MEADOW DR", "amenity": "post_box", "collection_times": "Mo-Sa 10:30", "nsi_id": "unitedstatespostalservice-a77078", "operator": "United States Postal Service", "operator:short": "USPS", "operator:type": "public", "operator:wikidata": "Q668687", "ref": "0306200010"}, "type": "Feature"}
{"geometry": {"coordinates": [-71.5070515, 42.71511], "type": "Point"}, "id": "JwBz48zazqUiaungFlsmMqcaFEY=", "properties": {"@source_uri": "https://tools.usps.com/UspsToolsRestServices/rest/POLocator/findLocations", "@spider": "usps_collection_boxes", "addr:city": "NASHUA", "addr:country": "US", "addr:postcode": "03062", "addr:state": "NH", "addr:street_address": "727 MANHATTAN AVE", "amenity": "post_box", "collection_times": "Mo-Sa 09:00", "nsi_id": "unitedstatespostalservice-a77078", "operator": "United States Postal Service", "operator:short": "USPS", "operator:type": "public", "operator:wikidata": "Q668687", "ref": "0306200011"}, "type": "Feature"}
{"geometry": {"coordinates": [-71.4959358, 42.779635], "type": "Point"}, "id": "kG1s6mbRmKTyxkkhmSBF4fbLT5U=", "properties": {"@source_uri": "https://tools.usps.com/UspsToolsRestServices/rest/POLocator/findLocations", "@spider": "usps_collection_boxes", "addr:city": "NASHUA", "addr:country": "US", "addr:postcode": "03063", "addr:state": "NH", "addr:street_address": "255 AMHERST ST", "amenity": "post_box", "collection_times": "Mo-Fr 17:00; Sa 16:00", "note": "ON 12/24 AND 12/31, THIS BOX MAY BE COLLECTED AS EARLY AS 12 NOON.", "nsi_id": "unitedstatespostalservice-a77078", "operator": "United States Postal Service", "operator:short": "USPS", "operator:type": "public", "operator:wikidata": "Q668687", "ref": "0306300004"}, "type": "Feature"}
{"geometry": {"coordinates": [-71.5061135, 42.785031], "type": "Point"}, "id": "vTyjKf21tgKPw_vqnu648wIA65Y=", "properties": {"@source_uri": "https://tools.usps.com/UspsToolsRestServices/rest/POLocator/findLocations", "@spider": "usps_collection_boxes", "addr:city": "NASHUA", "addr:country": "US", "addr:postcode": "03063", "addr:state": "NH", "addr:street_address": "379 AMHERST ST", "amenity": "post_box", "collection_times": "Mo-Fr 17:00; Sa 16:00", "note": "ON 12/24 AND 12/31, THIS BOX MAY BE COLLECTED AS EARLY AS 12 NOON.", "nsi_id": "unitedstatespostalservice-a77078", "operator": "United States Postal Service", "operator:short": "USPS", "operator:type": "public", "operator:wikidata": "Q668687", "ref": "0306300006"}, "type": "Feature"}
{"geometry": {"coordinates": [-71.5020658, 42.776647], "type": "Point"}, "id": "_w5R2zLmaAtheDG3j4GSv9VzXyk=", "properties": {"@source_uri": "https://tools.usps.com/UspsToolsRestServices/rest/POLocator/findLocations", "@spider": "usps_collection_boxes", "addr:city": "NASHUA", "addr:country": "US", "addr:postcode": "03063", "addr:state": "NH", "addr:street_address": "1 BUD WAY", "amenity": "post_box", "collection_times": "Mo-Fr 17:00; Sa 16:00", "note": "ON 12/24 AND 12/31, THIS BOX MAY BE COLLECTED AS EARLY AS 12 NOON.", "nsi_id": "unitedstatespostalservice-a77078", "operator": "United States Postal Service", "operator:short": "USPS", "operator:type": "public", "operator:wikidata": "Q668687", "ref": "0306300009"}, "type": "Feature"}
{"geometry": {"coordinates": [-71.5420449, 42.800553], "type": "Point"}, "id": "YgF6xxwYwji4EVTNZHJipNZr0JU=", "properties": {"@source_uri": "https://tools.usps.com/UspsToolsRestServices/rest/POLocator/findLocations", "@spider": "usps_collection_boxes", "addr:city": "NASHUA", "addr:country": "US", "addr:postcode": "03063", "addr:state": "NH", "addr:street_address": "32 NORTHWEST BLVD", "amenity": "post_box", "collection_times": "Mo-Sa 14:00", "note": "ON 12/24 AND 12/31, THIS BOX MAY BE COLLECTED AS EARLY AS 12 NOON.", "nsi_id": "unitedstatespostalservice-a77078", "operator": "United States Postal Service", "operator:short": "USPS", "operator:type": "public", "operator:wikidata": "Q668687", "ref": "0306300015"}, "type": "Feature"}
{"geometry": {"coordinates": [-71.5056361, 42.786628], "type": "Point"}, "id": "_qG5az_NP5I9OVaPJ43XnrwFz1o=", "properties": {"@source_uri": "https://tools.usps.com/UspsToolsRestServices/rest/POLocator/findLocations", "@spider": "usps_collection_boxes", "addr:city": "NASHUA", "addr:country": "US", "addr:postcode": "03063", "addr:state": "NH", "addr:street_address": "9 TRAFALGAR SQ", "amenity": "post_box", "collection_times": "Mo-Fr 17:00; Sa 16:00", "note": "ON 12/24 AND 12/31, THIS BOX MAY BE COLLECTED AS EARLY AS 12 NOON.", "nsi_id": "unitedstatespostalservice-a77078", "operator": "United States Postal Service", "operator:short": "USPS", "operator:type": "public", "operator:wikidata": "Q668687", "ref": "0306300018"}, "type": "Feature"}
{"geometry": {"coordinates": [-71.5097811, 42.784421], "type": "Point"}, "id": "UxiKdQzJAUH6iCwvkJEDFUSOsVs=", "properties": {"@source_uri": "https://tools.usps.com/UspsToolsRestServices/rest/POLocator/findLocations", "@spider": "usps_collection_boxes", "addr:city": "NASHUA", "addr:country": "US", "addr:postcode": "03063", "addr:state": "NH", "addr:street_address": "402 AMHERST ST", "amenity": "post_box", "collection_times": "Mo-Fr 17:00; Sa 16:00", "note": "ON 12/24 AND 12/31, THIS BOX MAY BE COLLECTED AS EARLY AS 12 NOON.", "nsi_id": "unitedstatespostalservice-a77078", "operator": "United States Postal Service", "operator:short": "USPS", "operator:type": "public", "operator:wikidata": "Q668687", "ref": "0306300021"}, "type": "Feature"}
{"geometry": {"coordinates": [-71.5025703, 42.785989], "type": "Point"}, "id": "ZQ4HAGeL5o8fn57XyonKNQNdFOQ=", "properties": {"@source_uri": "https://tools.usps.com/UspsToolsRestServices/rest/POLocator/findLocations", "@spider": "usps_collection_boxes", "addr:city": "NASHUA", "addr:country": "US", "addr:postcode": "03063", "addr:state": "NH", "addr:street_address": "20 TRAFALGAR SQ", "amenity": "post_box", "collection_times": "Mo-Fr 17:00; Sa 16:00", "note": "ON 12/24 AND 12/31, THIS BOX MAY BE COLLECTED AS EARLY AS 12 NOON.", "nsi_id": "unitedstatespostalservice-a77078", "operator": "United States Postal Service", "operator:short": "USPS", "operator:type": "public", "operator:wikidata": "Q668687", "ref": "0306300023"}, "type": "Feature"}
{"geometry": {"coordinates": [-71.4991786, 42.760869], "type": "Point"}, "id": "rn3qQCGAlOKo6gk1NynOKggnR7k=", "properties": {"@source_uri": "https://tools.usps.com/UspsToolsRestServices/rest/POLocator/findLocations", "@spider": "usps_collection_boxes", "addr:city": "NASHUA", "addr:country": "US", "addr:postcode": "03063", "addr:state": "NH", "addr:street_address": "55 COLISEUM AVE", "amenity": "post_box", "collection_times": "Mo-Fr 17:00; Sa 16:00", "note": "ON 12/24 AND 12/31, THIS BOX MAY BE COLLECTED AS EARLY AS 12 NOON.", "nsi_id": "unitedstatespostalservice-a77078", "operator": "United States Postal Service", "operator:short": "USPS", "operator:type": "public", "operator:wikidata": "Q668687", "ref": "0306300027"}, "type": "Feature"}
{"geometry": {"coordinates": [-71.5145319, 42.778617], "type": "Point"}, "id": "tvv6URbHASScSdGEVu8zNyDJ3EM=", "properties": {"@source_uri": "https://tools.usps.com/UspsToolsRestServices/rest/POLocator/findLocations", "@spider": "usps_collection_boxes", "addr:city": "NASHUA", "addr:country": "US", "addr:postcode": "03063", "addr:state": "NH", "addr:street_address": "100 PERIMETER RD", "amenity": "post_box", "collection_times": "Mo-Fr 17:00; Sa 16:00", "note": "ON 12/24 AND 12/31, THIS BOX MAY BE COLLECTED AS EARLY AS 12 NOON.", "nsi_id": "unitedstatespostalservice-a77078", "operator": "United States Postal Service", "operator:short": "USPS", "operator:type": "public", "operator:wikidata": "Q668687", "ref": "0306300028"}, "type": "Feature"}
{"geometry": {"coordinates": [-71.539998, 42.79805], "type": "Point"}, "id": "6F5STaN3EJfDCVinY28Mo-qUCVs=", "properties": {"@source_uri": "https://tools.usps.com/UspsToolsRestServices/rest/POLocator/findLocations", "@spider": "usps_collection_boxes", "addr:city": "NASHUA", "addr:country": "US", "addr:postcode": "03063", "addr:state": "NH", "addr:street_address": "10 CELINA AVE", "amenity": "post_box", "collection_times": "Mo-Sa 14:00", "note": "ON 12/24 AND 12/31, THIS BOX MAY BE COLLECTED AS EARLY AS 12 NOON.", "nsi_id": "unitedstatespostalservice-a77078", "operator": "United States Postal Service", "operator:short": "USPS", "operator:type": "public", "operator:wikidata": "Q668687", "ref": "0306300029"}, "type": "Feature"}
{"geometry": {"coordinates": [-71.5224073, 42.792994], "type": "Point"}, "id": "O6CZrcpAmqBOyDxDOKBmNuUfyuw=", "properties": {"@source_uri": "https://tools.usps.com/UspsToolsRestServices/rest/POLocator/findLocations", "@spider": "usps_collection_boxes", "addr:city": "NASHUA", "addr:country": "US", "addr:postcode": "03063", "addr:state": "NH", "addr:street_address": "495 AMHERST ST", "amenity": "post_box", "collection_times": "Mo-Fr 17:00; Sa 16:00", "note": "ON 12/24 AND 12/31, THIS BOX MAY BE COLLECTED AS EARLY AS 12 NOON.", "nsi_id": "unitedstatespostalservice-a77078", "operator": "United States Postal Service", "operator:short": "USPS", "operator:type": "public", "operator:wikidata": "Q668687", "ref": "0306300031"}, "type": "Feature"}
{"geometry": {"coordinates": [-71.4668776, 42.78363], "type": "Point"}, "id": "UMZy_Kn-8TqhPhL8zmz-6ZLgNss=", "properties": {"@source_uri": "https://tools.usps.com/UspsToolsRestServices/rest/POLocator/findLocations", "@spider": "usps_collection_boxes", "addr:city": "NASHUA", "addr:country": "US", "addr:postcode": "03064", "addr:state": "NH", "addr:street_address": "125 CONCORD ST", "amenity": "post_box", "collection_times": "Mo-Sa 13:00", "note": "ON 12/24 AND 12/31, THIS BOX MAY BE COLLECTED AS EARLY AS 12 NOON.", "nsi_id": "unitedstatespostalservice-a77078", "operator": "United States Postal Service", "operator:short": "USPS", "operator:type": "public", "operator:wikidata": "Q668687", "ref": "0306400000"}, "type": "Feature"}
{"geometry": {"coordinates": [-71.4675296, 42.765067], "type": "Point"}, "id": "LkVSZuWksaVAhoPxgGnOz8ZrYnc=", "properties": {"@source_uri": "https://tools.usps.com/UspsToolsRestServices/rest/POLocator/findLocations", "@spider": "usps_collection_boxes", "addr:city": "NASHUA", "addr:country": "US", "addr:postcode": "03064", "addr:state": "NH", "addr:street_address": "9 MAIN ST", "amenity": "post_box", "collection_times": "Mo-Sa 11:00", "nsi_id": "unitedstatespostalservice-a77078", "operator": "United States Postal Service", "operator:short": "USPS", "operator:type": "public", "operator:wikidata": "Q668687", "ref": "0306400001"}, "type": "Feature"}
{"geometry": {"coordinates": [-71.4705955, 42.771839], "type": "Point"}, "id": "UaPoZNrJpvSguFsu49t9-a_pRw0=", "properties": {"@source_uri": "https://tools.usps.com/UspsToolsRestServices/rest/POLocator/findLocations", "@spider": "usps_collection_boxes", "addr:city": "NASHUA", "addr:country": "US", "addr:postcode": "03064", "addr:state": "NH", "addr:street_address": "54 MANCHESTER ST", "amenity": "post_box", "collection_times": "Mo-Sa 10:00", "nsi_id": "unitedstatespostalservice-a77078", "operator": "United States Postal Service", "operator:short": "USPS", "operator:type": "public", "operator:wikidata": "Q668687", "ref": "0306400003"}, "type": "Feature"}
{"geometry": {"coordinates": [-71.4669479, 42.767384], "type": "Point"}, "id": "urknSZX6KqnjCFVRmMno2E4NmII=", "properties": {"@source_uri": "https://tools.usps.com/UspsToolsRestServices/rest/POLocator/findLocations", "@spider": "usps_collection_boxes", "addr:city": "NASHUA", "addr:country": "US", "addr:postcode": "03064", "addr:state": "NH", "addr:street_address": "45 ORANGE ST", "amenity": "post_box", "collection_times": "Mo-Sa 10:00", "nsi_id": "unitedstatespostalservice-a77078", "operator": "United States Postal Service", "operator:short": "USPS", "operator:type": "public", "operator:wikidata": "Q668687", "ref": "0306400004"}, "type": "Feature"}
{"geometry": {"coordinates": [-71.4831766, 42.769786], "type": "Point"}, "id": "TrqJPrv149YaYi1WgBlPSSzqo3I=", "properties": {"@source_uri": "https://tools.usps.com/UspsToolsRestServices/rest/POLocator/findLocations", "@spider": "usps_collection_boxes", "addr:city": "NASHUA", "addr:country": "US", "addr:postcode": "03064", "addr:state": "NH", "addr:street_address": "20 BROAD ST", "amenity": "post_box", "collection_times": "Mo-Fr 15:00; Sa 14:00", "note": "ON 12/24 AND 12/31, THIS BOX MAY BE COLLECTED AS EARLY AS 12 NOON.", "nsi_id": "unitedstatespostalservice-a77078", "operator": "United States Postal Service", "operator:short": "USPS", "operator:type": "public", "operator:wikidata": "Q668687", "ref": "0306400005"}, "type": "Feature"}
{"geometry": {"coordinates": [-71.697245, 42.970189], "type": "Point"}, "id": "k-1nUuzqlRXRAVjdL0YnTBCYZcg=", "properties": {"@source_uri": "https://tools.usps.com/UspsToolsRestServices/rest/POLocator/findLocations", "@spider": "usps_collection_boxes", "addr:city": "NEW BOSTON", "addr:country": "US", "addr:postcode": "03070", "addr:state": "NH", "addr:street_address": "71 MONT VERNON RD", "amenity": "post_box", "collection_times": "Mo-Fr 17:00; Sa 11:30", "note": "ON 12/24 AND 12/31, THIS BOX MAY BE COLLECTED AS EARLY AS 12 NOON.", "nsi_id": "unitedstatespostalservice-a77078", "operator": "United States Postal Service", "operator:short": "USPS", "operator:type": "public", "operator:wikidata": "Q668687", "ref": "0307000001"}, "type": "Feature"}
{"geometry": {"coordinates": [-71.697317, 42.970135], "type": "Point"}, "id": "bt1CYRzryNsX7D-jS_ROZuuVAGY=", "properties": {"@source_uri": "https://tools.usps.com/UspsToolsRestServices/rest/POLocator/findLocations", "@spider": "usps_collection_boxes", "addr:city": "NEW BOSTON", "addr:country": "US", "addr:postcode": "03070", "addr:state": "NH", "addr:street_address": "71 MONT VERNON RD", "amenity": "post_box", "collection_times": "Mo-Fr 17:00; Sa 11:30", "indoor": "yes", "note": "ON 12/24 AND 12/31, THIS BOX MAY BE COLLECTED AS EARLY AS 12 NOON.", "nsi_id": "unitedstatespostalservice-a77078", "operator": "United States Postal Service", "operator:short": "USPS", "operator:type": "public", "operator:wikidata": "Q668687", "ref": "0307000002"}, "type": "Feature"}
{"geometry": {"coordinates": [-71.6916617, 42.976327], "type": "Point"}, "id": "iWEQhaz83Xo2IpnWtLSsLf2Asqs=", "properties": {"@source_uri": "https://tools.usps.com/UspsToolsRestServices/rest/POLocator/findLocations", "@spider": "usps_collection_boxes", "addr:city": "NEW BOSTON", "addr:country": "US", "addr:postcode": "03070", "addr:state": "NH", "addr:street_address": "7 CENTRAL SQ", "amenity": "post_box", "collection_times": "Mo-Sa 12:30", "note": "ON 12/24 AND 12/31, THIS BOX MAY BE COLLECTED AS EARLY AS 12 NOON.", "nsi_id": "unitedstatespostalservice-a77078", "operator": "United States Postal Service", "operator:short": "USPS", "operator:type": "public", "operator:wikidata": "Q668687", "ref": "0307000004"}, "type": "Feature"}
{"geometry": {"coordinates": [-71.696685253, 42.97102767], "type": "Point"}, "id": "-vn5H5JALf2Fjph6t51ogukyIeo=", "properties": {"@source_uri": "https://tools.usps.com/UspsToolsRestServices/rest/POLocator/findLocations", "@spider": "usps_collection_boxes", "addr:city": "NEW BOSTON", "addr:country": "US", "addr:postcode": "03070", "addr:state": "NH", "addr:street_address": "71 MONT VERNON RD", "amenity": "post_box", "collection_times": "Mo-Fr 17:00; Sa 11:30", "indoor": "yes", "note": "ON 12/24 AND 12/31, THIS BOX MAY BE COLLECTED AS EARLY AS 12 NOON.", "nsi_id": "unitedstatespostalservice-a77078", "operator": "United States Postal Service", "operator:short": "USPS", "operator:type": "public", "operator:wikidata": "Q668687", "ref": "0307000005"}, "type": "Feature"}
{"geometry": {"coordinates": [-71.872533, 42.760506], "type": "Point"}, "id": "5uOSfJU98OkR_dK3KBJpe0PjUoo=", "properties": {"@source_uri": "https://tools.usps.com/UspsToolsRestServices/rest/POLocator/findLocations", "@spider": "usps_collection_boxes", "addr:city": "NEW IPSWICH", "addr:country": "US", "addr:postcode": "03071", "addr:state": "NH", "addr:street_address": "802 TURNPIKE RD", "amenity": "post_box", "collection_times": "Mo-Fr 16:30; Sa 11:30", "note": "ON 12/24 AND 12/31, THIS BOX MAY BE COLLECTED AS EARLY AS 12 NOON.", "nsi_id": "unitedstatespostalservice-a77078", "operator": "United States Postal Service", "operator:short": "USPS", "operator:type": "public", "operator:wikidata": "Q668687", "ref": "0307100001"}, "type": "Feature"}
{"geometry": {"coordinates": [-71.87265, 42.760544], "type": "Point"}, "id": "xbg-f9mAjzlES2uJzo-mQ8zWUGQ=", "properties": {"@source_uri": "https://tools.usps.com/UspsToolsRestServices/rest/POLocator/findLocations", "@spider": "usps_collection_boxes", "addr:city": "NEW IPSWICH", "addr:country": "US", "addr:postcode": "03071", "addr:state": "NH", "addr:street_address": "802 TURNPIKE RD", "amenity": "post_box", "collection_times": "Mo-Fr 16:30; Sa 11:30", "indoor": "yes", "note": "ON 12/24 AND 12/31, THIS BOX MAY BE COLLECTED AS EARLY AS 12 NOON.", "nsi_id": "unitedstatespostalservice-a77078", "operator": "United States Postal Service", "operator:short": "USPS", "operator:type": "public", "operator:wikidata": "Q668687", "ref": "0307100003"}, "type": "Feature"}
{"geometry": {"coordinates": [-71.872580462, 42.760445251], "type": "Point"}, "id": "uDNQdTvnnbKQsxSSbwyr6qnEGrw=", "properties": {"@source_uri": "https://tools.usps.com/UspsToolsRestServices/rest/POLocator/findLocations", "@spider": "usps_collection_boxes", "addr:city": "NEW IPSWICH", "addr:country": "US", "addr:postcode": "03071", "addr:state": "NH", "addr:street_address": "802 TURNPIKE RD", "amenity": "post_box", "collection_times": "Mo-Fr 16:30; Sa 11:30", "indoor": "yes", "note": "ON 12/24 AND 12/31, THIS BOX MAY BE COLLECTED AS EARLY AS 12 NOON.", "nsi_id": "unitedstatespostalservice-a77078", "operator": "United States Postal Service", "operator:short": "USPS", "operator:type": "public", "operator:wikidata": "Q668687", "ref": "0307100005"}, "type": "Feature"}
{"geometry": {"coordinates": [-71.22298, 42.836641], "type": "Point"}, "id": "wDZ4PURG19y5rJvE8ZlTXNNly-I=", "properties": {"@source_uri": "https://tools.usps.com/UspsToolsRestServices/rest/POLocator/findLocations", "@spider": "usps_collection_boxes", "addr:city": "NORTH SALEM", "addr:country": "US", "addr:postcode": "03073", "addr:state": "NH", "addr:street_address": "112 E BROADWAY", "amenity": "post_box", "collection_times": "Mo-Fr 16:30; Sa 12:00", "note": "ON 12/24 AND 12/31, THIS BOX MAY BE COLLECTED AS EARLY AS 12 NOON.", "nsi_id": "unitedstatespostalservice-a77078", "operator": "United States Postal Service", "operator:short": "USPS", "operator:type": "public", "operator:wikidata": "Q668687", "ref": "0307300001"}, "type": "Feature"}
{"geometry": {"coordinates": [-71.22298, 42.836641], "type": "Point"}, "id": "BvOa_fLTjO4bT1cjt5-j1eOvtu8=", "properties": {"@source_uri": "https://tools.usps.com/UspsToolsRestServices/rest/POLocator/findLocations", "@spider": "usps_collection_boxes", "addr:city": "NORTH SALEM", "addr:country": "US", "addr:postcode": "03073", "addr:state": "NH", "addr:street_address": "112 E BROADWAY", "amenity": "post_box", "collection_times": "Mo-Fr 16:30; Sa 12:00", "indoor": "yes", "note": "ON 12/24 AND 12/31, THIS BOX MAY BE COLLECTED AS EARLY AS 12 NOON.", "nsi_id": "unitedstatespostalservice-a77078", "operator": "United States Postal Service", "operator:short": "USPS", "operator:type": "public", "operator:wikidata": "Q668687", "ref": "0307300003"}, "type": "Feature"}
{"geometry": {"coordinates": [-71.222396286, 42.836722911], "type": "Point"}, "id": "8AM_LuvRapsw6wK_3g6pqzaQk3I=", "properties": {"@source_uri": "https://tools.usps.com/UspsToolsRestServices/rest/POLocator/findLocations", "@spider": "usps_collection_boxes", "addr:city": "NORTH SALEM", "addr:country": "US", "addr:postcode": "03073", "addr:state": "NH", "addr:street_address": "112 E BROADWAY", "amenity": "post_box", "collection_times": "Mo-Fr 16:30; Sa 12:00", "indoor": "yes", "note": "ON 12/24 AND 12/31, THIS BOX MAY BE COLLECTED AS EARLY AS 12 NOON.", "nsi_id": "unitedstatespostalservice-a77078", "operator": "United States Postal Service", "operator:short": "USPS", "operator:type": "public", "operator:wikidata": "Q668687", "ref": "0307300004"}, "type": "Feature"}
{"geometry": {"coordinates": [-71.318557, 42.726472], "type": "Point"}, "id": "LywMixPaRyfPzljkW1hKOG5Dy1k=", "properties": {"@source_uri": "https://tools.usps.com/UspsToolsRestServices/rest/POLocator/findLocations", "@spider": "usps_collection_boxes", "addr:city": "PELHAM", "addr:country": "US", "addr:postcode": "03076", "addr:state": "NH", "addr:street_address": "150 BRIDGE ST", "amenity": "post_box", "collection_times": "Mo-Fr 16:45; Sa 13:45", "note": "ON 12/24 AND 12/31, THIS BOX MAY BE COLLECTED AS EARLY AS 12 NOON.", "nsi_id": "unitedstatespostalservice-a77078", "operator": "United States Postal Service", "operator:short": "USPS", "operator:type": "public", "operator:wikidata": "Q668687", "ref": "0307600002"}, "type": "Feature"}
{"geometry": {"coordinates": [-71.318557, 42.726472], "type": "Point"}, "id": "4sAHIuXqIoqOP4--ySCTW7aFay4=", "properties": {"@source_uri": "https://tools.usps.com/UspsToolsRestServices/rest/POLocator/findLocations", "@spider": "usps_collection_boxes", "addr:city": "PELHAM", "addr:country": "US", "addr:postcode": "03076", "addr:state": "NH", "addr:street_address": "150 BRIDGE ST", "amenity": "post_box", "collection_times": "Mo-Fr 17:00; Sa 14:00", "indoor": "yes", "note": "ON 12/24 AND 12/31, THIS BOX MAY BE COLLECTED AS EARLY AS 12 NOON.", "nsi_id": "unitedstatespostalservice-a77078", "operator": "United States Postal Service", "operator:short": "USPS", "operator:type": "public", "operator:wikidata": "Q668687", "ref": "0307600003"}, "type": "Feature"}
{"geometry": {"coordinates": [-71.318580969, 42.726334755], "type": "Point"}, "id": "b3fmIG_VoiCwrcM0Ry_Ut69E2-Q=", "properties": {"@source_uri": "https://tools.usps.com/UspsToolsRestServices/rest/POLocator/findLocations", "@spider": "usps_collection_boxes", "addr:city": "PELHAM", "addr:country": "US", "addr:postcode": "03076", "addr:state": "NH", "addr:street_address": "150 BRIDGE ST", "amenity": "post_box", "collection_times": "Mo-Fr 17:00; Sa 12:00", "indoor": "yes", "note": "ON 12/24 AND 12/31, THIS BOX MAY BE COLLECTED AS EARLY AS 12 NOON.", "nsi_id": "unitedstatespostalservice-a77078", "operator": "United States Postal Service", "operator:short": "USPS", "operator:type": "public", "operator:wikidata": "Q668687", "ref": "0307600004"}, "type": "Feature"}
{"geometry": {"coordinates": [-71.1659153, 43.035336], "type": "Point"}, "id": "t_8SS1Mgji4nRU6GitIlHhfm6tY=", "properties": {"@source_uri": "https://tools.usps.com/UspsToolsRestServices/rest/POLocator/findLocations", "@spider": "usps_collection_boxes", "addr:city": "RAYMOND", "addr:country": "US", "addr:postcode": "03077", "addr:state": "NH", "addr:street_address": "15 FREETOWN RD", "amenity": "post_box", "collection_times": "Mo-Fr 17:00; Sa 16:00", "note": "ON 12/24 AND 12/31, THIS BOX MAY BE COLLECTED AS EARLY AS 12 NOON.", "nsi_id": "unitedstatespostalservice-a77078", "operator": "United States Postal Service", "operator:short": "USPS", "operator:type": "public", "operator:wikidata": "Q668687", "ref": "0307700001"}, "type": "Feature"}
{"geometry": {"coordinates": [-71.1823216, 43.036623], "type": "Point"}, "id": "ACbMd-nGcdEfHojQGlB0MEVFF9Y=", "properties": {"@source_uri": "https://tools.usps.com/UspsToolsRestServices/rest/POLocator/findLocations", "@spider": "usps_collection_boxes", "addr:city": "RAYMOND", "addr:country": "US", "addr:postcode": "03077", "addr:state": "NH", "addr:street_address": "4 EPPING ST", "amenity": "post_box", "collection_times": "Mo-Sa 12:00", "nsi_id": "unitedstatespostalservice-a77078", "operator": "United States Postal Service", "operator:short": "USPS", "operator:type": "public", "operator:wikidata": "Q668687", "ref": "0307700002"}, "type": "Feature"}
{"geometry": {"coordinates": [-71.163782, 43.035578], "type": "Point"}, "id": "_M-r9yUOazoy6CwOpW-PICRAqoc=", "properties": {"@source_uri": "https://tools.usps.com/UspsToolsRestServices/rest/POLocator/findLocations", "@spider": "usps_collection_boxes", "addr:city": "RAYMOND", "addr:country": "US", "addr:postcode": "03077", "addr:state": "NH", "addr:street_address": "15 FREETOWN RD", "amenity": "post_box", "collection_times": "Mo-Fr 17:00; Sa 16:00", "indoor": "yes", "note": "ON 12/24 AND 12/31, THIS BOX MAY BE COLLECTED AS EARLY AS 12 NOON.", "nsi_id": "unitedstatespostalservice-a77078", "operator": "United States Postal Service", "operator:short": "USPS", "operator:type": "public", "operator:wikidata": "Q668687", "ref": "0307700003"}, "type": "Feature"}
{"geometry": {"coordinates": [-71.163838962, 43.035505413], "type": "Point"}, "id": "BODkWFkTsNhBDAdnqCmhAe_ZGsk=", "properties": {"@source_uri": "https://tools.usps.com/UspsToolsRestServices/rest/POLocator/findLocations", "@spider": "usps_collection_boxes", "addr:city": "RAYMOND", "addr:country": "US", "addr:postcode": "03077", "addr:state": "NH", "addr:street_address": "15 FREETOWN RD STE 1", "amenity": "post_box", "collection_times": "Mo-Fr 17:00; Sa 12:00", "indoor": "yes", "note": "ON 12/24 AND 12/31, THIS BOX MAY BE COLLECTED AS EARLY AS 12 NOON.", "nsi_id": "unitedstatespostalservice-a77078", "operator": "United States Postal Service", "operator:short": "USPS", "operator:type": "public", "operator:wikidata": "Q668687", "ref": "0307700005"}, "type": "Feature"}
{"geometry": {"coordinates": [-71.241494022, 42.764703018], "type": "Point"}, "id": "TICFOJ27ExVt5JRbVWZlLQNjORc=", "properties": {"@source_uri": "https://tools.usps.com/UspsToolsRestServices/rest/POLocator/findLocations", "@spider": "usps_collection_boxes", "addr:city": "SALEM", "addr:country": "US", "addr:postcode": "03079", "addr:state": "NH", "addr:street_address": "1 DELAWARE DR", "amenity": "post_box", "collection_times": "Mo-Sa 09:30", "nsi_id": "unitedstatespostalservice-a77078", "operator": "United States Postal Service", "operator:short": "USPS", "operator:type": "public", "operator:wikidata": "Q668687", "ref": "0307900004"}, "type": "Feature"}
{"geometry": {"coordinates": [-71.2095406, 42.780554], "type": "Point"}, "id": "l6uiJVuiU_JeT24jcZQTF3jb2nk=", "properties": {"@source_uri": "https://tools.usps.com/UspsToolsRestServices/rest/POLocator/findLocations", "@spider": "usps_collection_boxes", "addr:city": "SALEM", "addr:country": "US", "addr:postcode": "03079", "addr:state": "NH", "addr:street_address": "33 GEREMONTY DR", "amenity": "post_box", "collection_times": "Mo-Fr 15:15; Sa 09:00", "note": "ON 12/24 AND 12/31, THIS BOX MAY BE COLLECTED AS EARLY AS 12 NOON.", "nsi_id": "unitedstatespostalservice-a77078", "operator": "United States Postal Service", "operator:short": "USPS", "operator:type": "public", "operator:wikidata": "Q668687", "ref": "0307900005"}, "type": "Feature"}
{"geometry": {"coordinates": [-71.2559855, 42.779557], "type": "Point"}, "id": "c5bEa-MOEijxVQUN_bAQIzwK87E=", "properties": {"@source_uri": "https://tools.usps.com/UspsToolsRestServices/rest/POLocator/findLocations", "@spider": "usps_collection_boxes", "addr:city": "SALEM", "addr:country": "US", "addr:postcode": "03079", "addr:state": "NH", "addr:street_address": "8 INDUSTRIAL WAY", "amenity": "post_box", "collection_times": "Mo-Fr 15:15; Sa 10:00", "note": "ON 12/24 AND 12/31, THIS BOX MAY BE COLLECTED AS EARLY AS 12 NOON.", "nsi_id": "unitedstatespostalservice-a77078", "operator": "United States Postal Service", "operator:short": "USPS", "operator:type": "public", "operator:wikidata": "Q668687", "ref": "0307900007"}, "type": "Feature"}
{"geometry": {"coordinates": [-71.2217271, 42.76306], "type": "Point"}, "id": "9zPdiVjWAO4tpMF4QDQSkl_Eq84=", "properties": {"@source_uri": "https://tools.usps.com/UspsToolsRestServices/rest/POLocator/findLocations", "@spider": "usps_collection_boxes", "addr:city": "SALEM", "addr:country": "US", "addr:postcode": "03079", "addr:state": "NH", "addr:street_address": "2 LANCELOT CT", "amenity": "post_box", "collection_times": "Mo-Sa 10:00", "nsi_id": "unitedstatespostalservice-a77078", "operator": "United States Postal Service", "operator:short": "USPS", "operator:type": "public", "operator:wikidata": "Q668687", "ref": "0307900010"}, "type": "Feature"}
{"geometry": {"coordinates": [-71.2013919797, 42.7886209883], "type": "Point"}, "id": "_vvoCn6MIdvOD2YozSzTF5CPkns=", "properties": {"@source_uri": "https://tools.usps.com/UspsToolsRestServices/rest/POLocator/findLocations", "@spider": "usps_collection_boxes", "addr:city": "SALEM", "addr:country": "US", "addr:postcode": "03079", "addr:state": "NH", "addr:street_address": "301 MAIN ST", "amenity": "post_box", "collection_times": "Mo-Sa 11:00", "nsi_id": "unitedstatespostalservice-a77078", "operator": "United States Postal Service", "operator:short": "USPS", "operator:type": "public", "operator:wikidata": "Q668687", "ref": "0307900012"}, "type": "Feature"}
{"geometry": {"coordinates": [-71.2318890315, 42.7863559885], "type": "Point"}, "id": "lUbcIzr8WNW7MdanXJd3uvrjLAo=", "properties": {"@source_uri": "https://tools.usps.com/UspsToolsRestServices/rest/POLocator/findLocations", "@spider": "usps_collection_boxes", "addr:city": "SALEM", "addr:country": "US", "addr:postcode": "03079", "addr:state": "NH", "addr:street_address": "134 N BROADWAY", "amenity": "post_box", "collection_times": "Mo-Fr 11:00; Sa 09:30", "nsi_id": "unitedstatespostalservice-a77078", "operator": "United States Postal Service", "operator:short": "USPS", "operator:type": "public", "operator:wikidata": "Q668687", "ref": "0307900017"}, "type": "Feature"}
{"geometry": {"coordinates": [-71.2355879653, 42.7945940163], "type": "Point"}, "id": "NIDr7vv1TIsAQF1WOeFOGrt2lTM=", "properties": {"@source_uri": "https://tools.usps.com/UspsToolsRestServices/rest/POLocator/findLocations", "@spider": "usps_collection_boxes", "addr:city": "SALEM", "addr:country": "US", "addr:postcode": "03079", "addr:state": "NH", "addr:street_address": "264 N BROADWAY", "amenity": "post_box", "collection_times": "Mo-Fr 14:00; Sa 09:30", "note": "ON 12/24 AND 12/31, THIS BOX MAY BE COLLECTED AS EARLY AS 12 NOON.", "nsi_id": "unitedstatespostalservice-a77078", "operator": "United States Postal Service", "operator:short": "USPS", "operator:type": "public", "operator:wikidata": "Q668687", "ref": "0307900018"}, "type": "Feature"}
{"geometry": {"coordinates": [-71.2407636, 42.775168], "type": "Point"}, "id": "Xy5Q9ff7J3dC2CvvA6zkktsbif0=", "properties": {"@source_uri": "https://tools.usps.com/UspsToolsRestServices/rest/POLocator/findLocations", "@spider": "usps_collection_boxes", "addr:city": "SALEM", "addr:country": "US", "addr:postcode": "03079", "addr:state": "NH", "addr:street_address": "6 RAYMOND AVE", "amenity": "post_box", "collection_times": "Mo-Fr 11:00; Sa 10:00", "nsi_id": "unitedstatespostalservice-a77078", "operator": "United States Postal Service", "operator:short": "USPS", "operator:type": "public", "operator:wikidata": "Q668687", "ref": "0307900022"}, "type": "Feature"}
{"geometry": {"coordinates": [-71.240015589, 42.780414049], "type": "Point"}, "id": "c-h5D6iSXktECsb8nU3kovoYwkI=", "properties": {"@source_uri": "https://tools.usps.com/UspsToolsRestServices/rest/POLocator/findLocations", "@spider": "usps_collection_boxes", "addr:city": "SALEM", "addr:country": "US", "addr:postcode": "03079", "addr:state": "NH", "addr:street_address": "9 RED ROOF LN", "amenity": "post_box", "collection_times": "Mo-Fr 11:00; Sa 09:30", "nsi_id": "unitedstatespostalservice-a77078", "operator": "United States Postal Service", "operator:short": "USPS", "operator:type": "public", "operator:wikidata": "Q668687", "ref": "0307900023"}, "type": "Feature"}
{"geometry": {"coordinates": [-71.221833, 42.781801], "type": "Point"}, "id": "j9_EJomCeItiKCzPh06IiYToc7A=", "properties": {"@source_uri": "https://tools.usps.com/UspsToolsRestServices/rest/POLocator/findLocations", "@spider": "usps_collection_boxes", "addr:city": "SALEM", "addr:country": "US", "addr:postcode": "03079", "addr:state": "NH", "addr:street_address": "99 ROCKINGHAM PARK BVD", "amenity": "post_box", "collection_times": "Mo-Sa 11:00", "name": "USPS COLLECTION BOX - EXPRESS", "nsi_id": "unitedstatespostalservice-a77078", "operator": "United States Postal Service", "operator:short": "USPS", "operator:type": "public", "operator:wikidata": "Q668687", "ref": "0307900026"}, "type": "Feature"}
{"geometry": {"coordinates": [-71.2178747, 42.768088], "type": "Point"}, "id": "cTzRV4xsNWE8PVJtbTmQTwQrxvI=", "properties": {"@source_uri": "https://tools.usps.com/UspsToolsRestServices/rest/POLocator/findLocations", "@spider": "usps_collection_boxes", "addr:city": "SALEM", "addr:country": "US", "addr:postcode": "03079", "addr:state": "NH", "addr:street_address": "161 S BROADWAY", "amenity": "post_box", "collection_times": "Mo-Fr 14:00; Sa 10:00", "note": "ON 12/24 AND 12/31, THIS BOX MAY BE COLLECTED AS EARLY AS 12 NOON.", "nsi_id": "unitedstatespostalservice-a77078", "operator": "United States Postal Service", "operator:short": "USPS", "operator:type": "public", "operator:wikidata": "Q668687", "ref": "0307900028"}, "type": "Feature"}
{"geometry": {"coordinates": [-71.2129931, 42.76167], "type": "Point"}, "id": "KJy3ZpVRsyidASHi2g62lFhWd0E=", "properties": {"@source_uri": "https://tools.usps.com/UspsToolsRestServices/rest/POLocator/findLocations", "@spider": "usps_collection_boxes", "addr:city": "SALEM", "addr:country": "US", "addr:postcode": "03079", "addr:state": "NH", "addr:street_address": "265 S BROADWAY", "amenity": "post_box", "collection_times": "Mo-Fr 14:00; Sa 09:30", "note": "ON 12/24 AND 12/31, THIS BOX MAY BE COLLECTED AS EARLY AS 12 NOON.", "nsi_id": "unitedstatespostalservice-a77078", "operator": "United States Postal Service", "operator:short": "USPS", "operator:type": "public", "operator:wikidata": "Q668687", "ref": "0307900029"}, "type": "Feature"}
{"geometry": {"coordinates": [-71.1976152, 42.741799], "type": "Point"}, "id": "90wLh2XTqcxhsa3AV1FdWGvSbjo=", "properties": {"@source_uri": "https://tools.usps.com/UspsToolsRestServices/rest/POLocator/findLocations", "@spider": "usps_collection_boxes", "addr:city": "SALEM", "addr:country": "US", "addr:postcode": "03079", "addr:state": "NH", "addr:street_address": "541 S BROADWAY", "amenity": "post_box", "collection_times": "Mo-Sa 09:30", "nsi_id": "unitedstatespostalservice-a77078", "operator": "United States Postal Service", "operator:short": "USPS", "operator:type": "public", "operator:wikidata": "Q668687", "ref": "0307900035"}, "type": "Feature"}
{"geometry": {"coordinates": [-71.2491679896, 42.771167016], "type": "Point"}, "id": "4MdI5UOfzG3YxQ7qDgxUGHd3s9k=", "properties": {"@source_uri": "https://tools.usps.com/UspsToolsRestServices/rest/POLocator/findLocations", "@spider": "usps_collection_boxes", "addr:city": "SALEM", "addr:country": "US", "addr:postcode": "03079", "addr:state": "NH", "addr:street_address": "59 STILES RD", "amenity": "post_box", "collection_times": "Mo-Fr 16:45; Sa 10:00", "note": "ON 12/24 AND 12/31, THIS BOX MAY BE COLLECTED AS EARLY AS 12 NOON.", "nsi_id": "unitedstatespostalservice-a77078", "operator": "United States Postal Service", "operator:short": "USPS", "operator:type": "public", "operator:wikidata": "Q668687", "ref": "0307900039"}, "type": "Feature"}
{"geometry": {"coordinates": [-71.2149663, 42.774953], "type": "Point"}, "id": "HRsNBU72pW_qmLQotPI-qHoWuhw=", "properties": {"@source_uri": "https://tools.usps.com/UspsToolsRestServices/rest/POLocator/findLocations", "@spider": "usps_collection_boxes", "addr:city": "SALEM", "addr:country": "US", "addr:postcode": "03079", "addr:state": "NH", "addr:street_address": "70 TELFER CIR", "amenity": "post_box", "collection_times": "Mo-Sa 10:00", "nsi_id": "unitedstatespostalservice-a77078", "operator": "United States Postal Service", "operator:short": "USPS", "operator:type": "public", "operator:wikidata": "Q668687", "ref": "0307900041"}, "type": "Feature"}
{"geometry": {"coordinates": [-71.2271664, 42.781711], "type": "Point"}, "id": "BZ5NMh9QBIZh4a3VLYdcvGfzHpk=", "properties": {"@source_uri": "https://tools.usps.com/UspsToolsRestServices/rest/POLocator/findLocations", "@spider": "usps_collection_boxes", "addr:city": "SALEM", "addr:country": "US", "addr:postcode": "03079", "addr:state": "NH", "addr:street_address": "130 MAIN ST", "amenity": "post_box", "collection_times": "Mo-Sa 10:00", "nsi_id": "unitedstatespostalservice-a77078", "operator": "United States Postal Service", "operator:short": "USPS", "operator:type": "public", "operator:wikidata": "Q668687", "ref": "0307900044"}, "type": "Feature"}
{"geometry": {"coordinates": [-71.219907, 42.770244], "type": "Point"}, "id": "Gwo-7zw20B9zIIjTbTTNwZLtO78=", "properties": {"@source_uri": "https://tools.usps.com/UspsToolsRestServices/rest/POLocator/findLocations", "@spider": "usps_collection_boxes", "addr:city": "SALEM", "addr:country": "US", "addr:postcode": "03079", "addr:state": "NH", "addr:street_address": "125 S BROADWAY", "amenity": "post_box", "collection_times": "Mo-Sa 10:00", "nsi_id": "unitedstatespostalservice-a77078", "operator": "United States Postal Service", "operator:short": "USPS", "operator:type": "public", "operator:wikidata": "Q668687", "ref": "0307900047"}, "type": "Feature"}
{"geometry": {"coordinates": [-71.2229103, 42.845322], "type": "Point"}, "id": "Hz3BNk2kDH-KhzEs7FOnNGyR8OE=", "properties": {"@source_uri": "https://tools.usps.com/UspsToolsRestServices/rest/POLocator/findLocations", "@spider": "usps_collection_boxes", "addr:city": "SALEM", "addr:country": "US", "addr:postcode": "03079", "addr:state": "NH", "addr:street_address": "15 ERMER RD", "amenity": "post_box", "collection_times": "Mo-Sa 09:00", "nsi_id": "unitedstatespostalservice-a77078", "operator": "United States Postal Service", "operator:short": "USPS", "operator:type": "public", "operator:wikidata": "Q668687", "ref": "0307900048"}, "type": "Feature"}
{"geometry": {"coordinates": [-71.22531631, 42.776125948], "type": "Point"}, "id": "40RtDR1y9husA_KpooD2Twrj9T0=", "properties": {"@source_uri": "https://tools.usps.com/UspsToolsRestServices/rest/POLocator/findLocations", "@spider": "usps_collection_boxes", "addr:city": "SALEM", "addr:country": "US", "addr:postcode": "03079", "addr:state": "NH", "addr:street_address": "51 S BROADWAY", "amenity": "post_box", "collection_times": "Mo-Fr 17:00; Sa 16:00", "note": "ON 12/24 AND 12/31, THIS BOX MAY BE COLLECTED AS EARLY AS 12 NOON.", "nsi_id": "unitedstatespostalservice-a77078", "operator": "United States Postal Service", "operator:short": "USPS", "operator:type": "public", "operator:wikidata": "Q668687", "ref": "0307900049"}, "type": "Feature"}
{"geometry": {"coordinates": [-71.2449823701, 42.8056437996], "type": "Point"}, "id": "ug9B1PhExeigbeNcvfudf6zfJd0=", "properties": {"@source_uri": "https://tools.usps.com/UspsToolsRestServices/rest/POLocator/findLocations", "@spider": "usps_collection_boxes", "addr:city": "SALEM", "addr:country": "US", "addr:postcode": "03079", "addr:state": "NH", "addr:street_address": "364 N BROADWAY", "amenity": "post_box", "collection_times": "Mo-Sa 12:15", "note": "ON 12/24 AND 12/31, THIS BOX MAY BE COLLECTED AS EARLY AS 12 NOON.", "nsi_id": "unitedstatespostalservice-a77078", "operator": "United States Postal Service", "operator:short": "USPS", "operator:type": "public", "operator:wikidata": "Q668687", "ref": "0307900051"}, "type": "Feature"}
{"geometry": {"coordinates": [-71.239261, 42.801844], "type": "Point"}, "id": "3-nnaS32du9k5kpfZY3voqt8uNY=", "properties": {"@source_uri": "https://tools.usps.com/UspsToolsRestServices/rest/POLocator/findLocations", "@spider": "usps_collection_boxes", "addr:city": "SALEM", "addr:country": "US", "addr:postcode": "03079", "addr:state": "NH", "addr:street_address": "300 N BROADWAY", "amenity": "post_box", "collection_times": "Mo-Sa 12:00", "nsi_id": "unitedstatespostalservice-a77078", "operator": "United States Postal Service", "operator:short": "USPS", "operator:type": "public", "operator:wikidata": "Q668687", "ref": "0307900052"}, "type": "Feature"}
{"geometry": {"coordinates": [-71.215313, 42.830362], "type": "Point"}, "id": "bi7sKhPN1pfPZL3z1AXjM4WeZQc=", "properties": {"@source_uri": "https://tools.usps.com/UspsToolsRestServices/rest/POLocator/findLocations", "@spider": "usps_collection_boxes", "addr:city": "SALEM", "addr:country": "US", "addr:postcode": "03079", "addr:state": "NH", "addr:street_address": "321 N MAIN ST", "amenity": "post_box", "collection_times": "Mo-Sa 09:00", "nsi_id": "unitedstatespostalservice-a77078", "operator": "United States Postal Service", "operator:short": "USPS", "operator:type": "public", "operator:wikidata": "Q668687", "ref": "0307900053"}, "type": "Feature"}
{"geometry": {"coordinates": [-71.225506, 42.776346], "type": "Point"}, "id": "39dPHiSOETl48A84_qtzsQJLMSg=", "properties": {"@source_uri": "https://tools.usps.com/UspsToolsRestServices/rest/POLocator/findLocations", "@spider": "usps_collection_boxes", "addr:city": "SALEM", "addr:country": "US", "addr:postcode": "03079", "addr:state": "NH", "addr:street_address": "51 S BROADWAY", "amenity": "post_box", "collection_times": "Mo-Fr 17:00; Sa 16:00", "note": "ON 12/24 AND 12/31, THIS BOX MAY BE COLLECTED AS EARLY AS 12 NOON.", "nsi_id": "unitedstatespostalservice-a77078", "operator": "United States Postal Service", "operator:short": "USPS", "operator:type": "public", "operator:wikidata": "Q668687", "ref": "0307900054"}, "type": "Feature"}
{"geometry": {"coordinates": [-71.2414846, 42.781217], "type": "Point"}, "id": "BaO_nSzm1fV_tM3Ao0qH6omRF8o=", "properties": {"@source_uri": "https://tools.usps.com/UspsToolsRestServices/rest/POLocator/findLocations", "@spider": "usps_collection_boxes", "addr:city": "SALEM", "addr:country": "US", "addr:postcode": "03079", "addr:state": "NH", "addr:street_address": "4 NORTHEASTERN BLVD", "amenity": "post_box", "collection_times": "Mo-Fr 15:15", "note": "ON 12/24 AND 12/31, THIS BOX MAY BE COLLECTED AS EARLY AS 12 NOON.", "nsi_id": "unitedstatespostalservice-a77078", "operator": "United States Postal Service", "operator:short": "USPS", "operator:type": "public", "operator:wikidata": "Q668687", "ref": "0307900055"}, "type": "Feature"}
{"geometry": {"coordinates": [-71.225506, 42.776346], "type": "Point"}, "id": "ZfCXS3h_EO7QR9YKXCsn9a3Og8A=", "properties": {"@source_uri": "https://tools.usps.com/UspsToolsRestServices/rest/POLocator/findLocations", "@spider": "usps_collection_boxes", "addr:city": "SALEM", "addr:country": "US", "addr:postcode": "03079", "addr:state": "NH", "addr:street_address": "51 S BROADWAY", "amenity": "post_box", "collection_times": "Mo-Fr 17:00; Sa 16:00", "indoor": "yes", "note": "ON 12/24 AND 12/31, THIS BOX MAY BE COLLECTED AS EARLY AS 12 NOON.", "nsi_id": "unitedstatespostalservice-a77078", "operator": "United States Postal Service", "operator:short": "USPS", "operator:type": "public", "operator:wikidata": "Q668687", "ref": "0307900057"}, "type": "Feature"}
{"geometry": {"coordinates": [-71.249033963, 42.7792970011], "type": "Point"}, "id": "vof4FM4E6-q6xe_pctMzIV32dQU=", "properties": {"@source_uri": "https://tools.usps.com/UspsToolsRestServices/rest/POLocator/findLocations", "@spider": "usps_collection_boxes", "addr:city": "SALEM", "addr:country": "US", "addr:postcode": "03079", "addr:state": "NH", "addr:street_address": "10 MANOR PKWY", "amenity": "post_box", "collection_times": "Mo-Fr 17:00; Sa 10:00", "note": "ON 12/24 AND 12/31, THIS BOX MAY BE COLLECTED AS EARLY AS 12 NOON.", "nsi_id": "unitedstatespostalservice-a77078", "operator": "United States Postal Service", "operator:short": "USPS", "operator:type": "public", "operator:wikidata": "Q668687", "ref": "0307900059"}, "type": "Feature"}
{"geometry": {"coordinates": [-71.2108843, 42.784437], "type": "Point"}, "id": "g-rZr5ZSp23rbjsVoMy0BuVbX3E=", "properties": {"@source_uri": "https://tools.usps.com/UspsToolsRestServices/rest/POLocator/findLocations", "@spider": "usps_collection_boxes", "addr:city": "SALEM", "addr:country": "US", "addr:postcode": "03079", "addr:state": "NH", "addr:street_address": "234 MAIN ST", "amenity": "post_box", "collection_times": "Mo-Fr 15:15; Sa 10:00", "note": "ON 12/24 AND 12/31, THIS BOX MAY BE COLLECTED AS EARLY AS 12 NOON.", "nsi_id": "unitedstatespostalservice-a77078", "operator": "United States Postal Service", "operator:short": "USPS", "operator:type": "public", "operator:wikidata": "Q668687", "ref": "0307900060"}, "type": "Feature"}
{"geometry": {"coordinates": [-71.225506, 42.776346], "type": "Point"}, "id": "pVni-4NQ2t6RTktGn8B79B_u7ok=", "properties": {"@source_uri": "https://tools.usps.com/UspsToolsRestServices/rest/POLocator/findLocations", "@spider": "usps_collection_boxes", "addr:city": "SALEM", "addr:country": "US", "addr:postcode": "03079", "addr:state": "NH", "addr:street_address": "51 S BROADWAY", "amenity": "post_box", "collection_times": "Mo-Fr 17:00; Sa 16:00", "name": "USPS COLLECTION BOX - APC", "note": "ON 12/24 AND 12/31, THIS BOX MAY BE COLLECTED AS EARLY AS 12 NOON.", "nsi_id": "unitedstatespostalservice-a77078", "operator": "United States Postal Service", "operator:short": "USPS", "operator:type": "public", "operator:wikidata": "Q668687", "ref": "0307900061"}, "type": "Feature"}
{"geometry": {"coordinates": [-71.22531631, 42.776125948], "type": "Point"}, "id": "J3_PvnsjDOvcNIDwB-1GLLrT8dk=", "properties": {"@source_uri": "https://tools.usps.com/UspsToolsRestServices/rest/POLocator/findLocations", "@spider": "usps_collection_boxes", "addr:city": "SALEM", "addr:country": "US", "addr:postcode": "03079", "addr:state": "NH", "addr:street_address": "51 S BROADWAY", "amenity": "post_box", "collection_times": "Mo-Fr 17:00; Sa 12:00", "indoor": "yes", "note": "ON 12/24 AND 12/31, THIS BOX MAY BE COLLECTED AS EARLY AS 12 NOON.", "nsi_id": "unitedstatespostalservice-a77078", "operator": "United States Postal Service", "operator:short": "USPS", "operator:type": "public", "operator:wikidata": "Q668687", "ref": "0307900072"}, "type": "Feature"}
{"geometry": {"coordinates": [-71.778085, 42.873227], "type": "Point"}, "id": "5IjrICFhtpJBTIsAh3Cfg5pfCWo=", "properties": {"@source_uri": "https://tools.usps.com/UspsToolsRestServices/rest/POLocator/findLocations", "@spider": "usps_collection_boxes", "addr:city": "LYNDEBOROUGH", "addr:country": "US", "addr:postcode": "03082", "addr:state": "NH", "addr:street_address": "36 FOREST RD", "amenity": "post_box", "collection_times": "Mo-Fr 16:15; Sa 11:00", "note": "ON 12/24 AND 12/31, THIS BOX MAY BE COLLECTED AS EARLY AS 12 NOON.", "nsi_id": "unitedstatespostalservice-a77078", "operator": "United States Postal Service", "operator:short": "USPS", "operator:type": "public", "operator:wikidata": "Q668687", "ref": "0308200001"}, "type": "Feature"}
{"geometry": {"coordinates": [-71.778178, 42.873292], "type": "Point"}, "id": "uN1SgQdsncr3_aquZd-SRT_A--A=", "properties": {"@source_uri": "https://tools.usps.com/UspsToolsRestServices/rest/POLocator/findLocations", "@spider": "usps_collection_boxes", "addr:city": "LYNDEBOROUGH", "addr:country": "US", "addr:postcode": "03082", "addr:state": "NH", "addr:street_address": "36 FOREST RD", "amenity": "post_box", "collection_times": "Mo-Fr 16:15; Sa 11:00", "indoor": "yes", "note": "ON 12/24 AND 12/31, THIS BOX MAY BE COLLECTED AS EARLY AS 12 NOON.", "nsi_id": "unitedstatespostalservice-a77078", "operator": "United States Postal Service", "operator:short": "USPS", "operator:type": "public", "operator:wikidata": "Q668687", "ref": "0308200002"}, "type": "Feature"}
{"geometry": {"coordinates": [-71.777806995, 42.872870114], "type": "Point"}, "id": "srOpUPNRPh-P2AKPKzkrsaIp6CE=", "properties": {"@source_uri": "https://tools.usps.com/UspsToolsRestServices/rest/POLocator/findLocations", "@spider": "usps_collection_boxes", "addr:city": "LYNDEBOROUGH", "addr:country": "US", "addr:postcode": "03082", "addr:state": "NH", "addr:street_address": "36 FOREST RD", "amenity": "post_box", "collection_times": "Mo-Fr 16:30; Sa 11:00", "indoor": "yes", "note": "ON 12/24 AND 12/31, THIS BOX MAY BE COLLECTED AS EARLY AS 12 NOON.", "nsi_id": "unitedstatespostalservice-a77078", "operator": "United States Postal Service", "operator:short": "USPS", "operator:type": "public", "operator:wikidata": "Q668687", "ref": "0308200004"}, "type": "Feature"}
{"geometry": {"coordinates": [-71.851254, 42.819706], "type": "Point"}, "id": "Lz7x_AtYagstR_BfsyryiokhBPg=", "properties": {"@source_uri": "https://tools.usps.com/UspsToolsRestServices/rest/POLocator/findLocations", "@spider": "usps_collection_boxes", "addr:city": "TEMPLE", "addr:country": "US", "addr:postcode": "03084", "addr:state": "NH", "addr:street_address": "19 MAIN ST UNIT 3", "amenity": "post_box", "collection_times": "Mo-Fr 16:15; Sa 11:15", "note": "ON 12/24 AND 12/31, THIS BOX MAY BE COLLECTED AS EARLY AS 12 NOON.", "nsi_id": "unitedstatespostalservice-a77078", "operator": "United States Postal Service", "operator:short": "USPS", "operator:type": "public", "operator:wikidata": "Q668687", "ref": "0308400001"}, "type": "Feature"}
{"geometry": {"coordinates": [-71.851203, 42.819757], "type": "Point"}, "id": "2aS3RlACh28A4IJ8IOOM71zBkPY=", "properties": {"@source_uri": "https://tools.usps.com/UspsToolsRestServices/rest/POLocator/findLocations", "@spider": "usps_collection_boxes", "addr:city": "TEMPLE", "addr:country": "US", "addr:postcode": "03084", "addr:state": "NH", "addr:street_address": "19 MAIN ST UNIT 3", "amenity": "post_box", "collection_times": "Mo-Fr 16:30; Sa 11:30", "indoor": "yes", "note": "ON 12/24 AND 12/31, THIS BOX MAY BE COLLECTED AS EARLY AS 12 NOON.", "nsi_id": "unitedstatespostalservice-a77078", "operator": "United States Postal Service", "operator:short": "USPS", "operator:type": "public", "operator:wikidata": "Q668687", "ref": "0308400002"}, "type": "Feature"}
{"geometry": {"coordinates": [-71.851277407, 42.819724646], "type": "Point"}, "id": "wBKgsVmHmVLmnxFhT1R3x2w95ew=", "properties": {"@source_uri": "https://tools.usps.com/UspsToolsRestServices/rest/POLocator/findLocations", "@spider": "usps_collection_boxes", "addr:city": "TEMPLE", "addr:country": "US", "addr:postcode": "03084", "addr:state": "NH", "addr:street_address": "19 MAIN ST UNIT 3", "amenity": "post_box", "collection_times": "Mo-Fr 16:30; Sa 11:30", "indoor": "yes", "note": "ON 12/24 AND 12/31, THIS BOX MAY BE COLLECTED AS EARLY AS 12 NOON.", "nsi_id": "unitedstatespostalservice-a77078", "operator": "United States Postal Service", "operator:short": "USPS", "operator:type": "public", "operator:wikidata": "Q668687", "ref": "0308400003"}, "type": "Feature"}
{"geometry": {"coordinates": [-71.737045, 42.842818], "type": "Point"}, "id": "ZT9XIiiwUemt-yqrjeccxq_MVq8=", "properties": {"@source_uri": "https://tools.usps.com/UspsToolsRestServices/rest/POLocator/findLocations", "@spider": "usps_collection_boxes", "addr:city": "WILTON", "addr:country": "US", "addr:postcode": "03086", "addr:state": "NH", "addr:street_address": "79 MAIN ST", "amenity": "post_box", "collection_times": "Mo-Fr 17:00; Sa 12:45", "note": "ON 12/24 AND 12/31, THIS BOX MAY BE COLLECTED AS EARLY AS 12 NOON.", "nsi_id": "unitedstatespostalservice-a77078", "operator": "United States Postal Service", "operator:short": "USPS", "operator:type": "public", "operator:wikidata": "Q668687", "ref": "0308600002"}, "type": "Feature"}
{"geometry": {"coordinates": [-71.736967, 42.842775], "type": "Point"}, "id": "3p2a5QSs6PZ_Wz9ILldsg1c5A_Q=", "properties": {"@source_uri": "https://tools.usps.com/UspsToolsRestServices/rest/POLocator/findLocations", "@spider": "usps_collection_boxes", "addr:city": "WILTON", "addr:country": "US", "addr:postcode": "03086", "addr:state": "NH", "addr:street_address": "79 MAIN ST", "amenity": "post_box", "collection_times": "Mo-Fr 17:15; Sa 12:45", "indoor": "yes", "note": "ON 12/24 AND 12/31, THIS BOX MAY BE COLLECTED AS EARLY AS 12 NOON.", "nsi_id": "unitedstatespostalservice-a77078", "operator": "United States Postal Service", "operator:short": "USPS", "operator:type": "public", "operator:wikidata": "Q668687", "ref": "0308600003"}, "type": "Feature"}
{"geometry": {"coordinates": [-71.771117, 42.825754], "type": "Point"}, "id": "674LYB0cA7B5BmZ2SBUwmKbpVL4=", "properties": {"@source_uri": "https://tools.usps.com/UspsToolsRestServices/rest/POLocator/findLocations", "@spider": "usps_collection_boxes", "addr:city": "WILTON", "addr:country": "US", "addr:postcode": "03086", "addr:state": "NH", "addr:street_address": "626 GIBBONS HWY", "amenity": "post_box", "collection_times": "Mo-Fr 11:00", "nsi_id": "unitedstatespostalservice-a77078", "operator": "United States Postal Service", "operator:short": "USPS", "operator:type": "public", "operator:wikidata": "Q668687", "ref": "0308600004"}, "type": "Feature"}
{"geometry": {"coordinates": [-71.737052328, 42.842765384], "type": "Point"}, "id": "AT37EvQhPfC_sHQ643bqx4WjiWQ=", "properties": {"@source_uri": "https://tools.usps.com/UspsToolsRestServices/rest/POLocator/findLocations", "@spider": "usps_collection_boxes", "addr:city": "WILTON", "addr:country": "US", "addr:postcode": "03086", "addr:state": "NH", "addr:street_address": "79 MAIN ST", "amenity": "post_box", "collection_times": "Mo-Fr 17:00; Sa 12:00", "indoor": "yes", "note": "ON 12/24 AND 12/31, THIS BOX MAY BE COLLECTED AS EARLY AS 12 NOON.", "nsi_id": "unitedstatespostalservice-a77078", "operator": "United States Postal Service", "operator:short": "USPS", "operator:type": "public", "operator:wikidata": "Q668687", "ref": "0308600005"}, "type": "Feature"}
{"geometry": {"coordinates": [-71.3047599, 42.792531], "type": "Point"}, "id": "PgQAbVQU5aSdMLDhl7zzzGHdVQU=", "properties": {"@source_uri": "https://tools.usps.com/UspsToolsRestServices/rest/POLocator/findLocations", "@spider": "usps_collection_boxes", "addr:city": "WINDHAM", "addr:country": "US", "addr:postcode": "03087", "addr:state": "NH", "addr:street_address": "4 COBBETTS POND RD", "amenity": "post_box", "collection_times": "Mo-Sa 10:00", "nsi_id": "unitedstatespostalservice-a77078", "operator": "United States Postal Service", "operator:short": "USPS", "operator:type": "public", "operator:wikidata": "Q668687", "ref": "0308700001"}, "type": "Feature"}
{"geometry": {"coordinates": [-71.292515, 42.805922], "type": "Point"}, "id": "4LpOyjvjvdrQx34aRI6GE_EglD8=", "properties": {"@source_uri": "https://tools.usps.com/UspsToolsRestServices/rest/POLocator/findLocations", "@spider": "usps_collection_boxes", "addr:city": "WINDHAM", "addr:country": "US", "addr:postcode": "03087", "addr:state": "NH", "addr:street_address": "44 INDIAN ROCK RD", "amenity": "post_box", "collection_times": "Mo-Fr 17:00; Sa 12:00", "indoor": "yes", "note": "ON 12/24 AND 12/31, THIS BOX MAY BE COLLECTED AS EARLY AS 12 NOON.", "nsi_id": "unitedstatespostalservice-a77078", "operator": "United States Postal Service", "operator:short": "USPS", "operator:type": "public", "operator:wikidata": "Q668687", "ref": "0308700002"}, "type": "Feature"}
{"geometry": {"coordinates": [-71.2930396178, 42.8058496555], "type": "Point"}, "id": "yl45kUIqiOCjTJ4xemP4bFElEKQ=", "properties": {"@source_uri": "https://tools.usps.com/UspsToolsRestServices/rest/POLocator/findLocations", "@spider": "usps_collection_boxes", "addr:city": "WINDHAM", "addr:country": "US", "addr:postcode": "03087", "addr:state": "NH", "addr:street_address": "44 INDIAN ROCK RD", "amenity": "post_box", "collection_times": "Mo-Fr 17:00; Sa 12:00", "note": "ON 12/24 AND 12/31, THIS BOX MAY BE COLLECTED AS EARLY AS 12 NOON.", "nsi_id": "unitedstatespostalservice-a77078", "operator": "United States Postal Service", "operator:short": "USPS", "operator:type": "public", "operator:wikidata": "Q668687", "ref": "0308700003"}, "type": "Feature"}
{"geometry": {"coordinates": [-71.293039618, 42.805849656], "type": "Point"}, "id": "JU_kqCLfmW1Fo1nVV8j94_qKuvY=", "properties": {"@source_uri": "https://tools.usps.com/UspsToolsRestServices/rest/POLocator/findLocations", "@spider": "usps_collection_boxes", "addr:city": "WINDHAM", "addr:country": "US", "addr:postcode": "03087", "addr:state": "NH", "addr:street_address": "44 INDIAN ROCK RD", "amenity": "post_box", "collection_times": "Mo-Fr 17:00; Sa 12:00", "indoor": "yes", "note": "ON 12/24 AND 12/31, THIS BOX MAY BE COLLECTED AS EARLY AS 12 NOON.", "nsi_id": "unitedstatespostalservice-a77078", "operator": "United States Postal Service", "operator:short": "USPS", "operator:type": "public", "operator:wikidata": "Q668687", "ref": "0308700006"}, "type": "Feature"}
