{"geometry": {"coordinates": [-71.4616211, 42.991824], "type": "Point"}, "id": "Z0YyvOMPfLwxIua4_4Lxa1qQ0G4=", "properties": {"@source_uri": "https://tools.usps.com/UspsToolsRestServices/rest/POLocator/findLocations", "@spider": "usps_collection_boxes", "addr:city": "MANCHESTER", "addr:country": "US", "addr:postcode": "03101", "addr:state": "NH", "addr:street_address": "35 AMHERST ST", "amenity": "post_box", "collection_times": "Mo-Fr 17:30; Sa 13:00", "note": "ON 12/24 AND 12/31, THIS BOX MAY BE COLLECTED AS EARLY AS 12 NOON.", "nsi_id": "unitedstatespostalservice-a77078", "operator": "United States Postal Service", "operator:short": "USPS", "operator:type": "public", "operator:wikidata": "Q668687", "ref": "0310100007"}, "type": "Feature"}
{"geometry": {"coordinates": [-71.4624088, 42.994838], "type": "Point"}, "id": "_5Tl8ViOnoCYu89UpvJQhR1SOaw=", "properties": {"@source_uri": "https://tools.usps.com/UspsToolsRestServices/rest/POLocator/findLocations", "@spider": "usps_collection_boxes", "addr:city": "MANCHESTER", "addr:country": "US", "addr:postcode": "03101", "addr:state": "NH", "addr:street_address": "22 BRIDGE ST", "amenity": "post_box", "collection_times": "Mo-Fr 16:45; Sa 13:00", "note": "ON 12/24 AND 12/31, THIS BOX MAY BE COLLECTED AS EARLY AS 12 NOON.", "nsi_id": "unitedstatespostalservice-a77078", "operator": "United States Postal Service", "operator:short": "USPS", "operator:type": "public", "operator:wikidata": "Q668687", "ref": "0310100009"}, "type": "Feature"}
{"geometry": {"coordinates": [-71.4662206, 42.987628], "type": "Point"}, "id": "6ZKS_g0DpWRX3XUFkrHMxOfR1_c=", "properties": {"@source_uri": "https://tools.usps.com/UspsToolsRestServices/rest/POLocator/findLocations", "@spider": "usps_collection_boxes", "addr:city": "MANCHESTER", "addr:country": "US", "addr:postcode": "03101", "addr:state": "NH", "addr:street_address": "175 CANAL ST", "amenity": "post_box", "collection_times": "Mo-Fr 17:00; Sa 13:00", "note": "ON 12/24 AND 12/31, THIS BOX MAY BE COLLECTED AS EARLY AS 12 NOON.", "nsi_id": "unitedstatespostalservice-a77078", "operator": "United States Postal Service", "operator:short": "USPS", "operator:type": "public", "operator:wikidata": "Q668687", "ref": "0310100012"}, "type": "Feature"}
{"geometry": {"coordinates": [-71.4606581, 42.993477], "type": "Point"}, "id": "9Ov71PqvQNAeO6lcso0E4X3OCcM=", "properties": {"@source_uri": "https://tools.usps.com/UspsToolsRestServices/rest/POLocator/findLocations", "@spider": "usps_collection_boxes", "addr:city": "MANCHESTER", "addr:country": "US", "addr:postcode": "03101", "addr:state": "NH", "addr:street_address": "464 CHESTNUT ST", "amenity": "post_box", "collection_times": "Mo-Fr 16:00; Sa 13:00", "note": "ON 12/24 AND 12/31, THIS BOX MAY BE COLLECTED AS EARLY AS 12 NOON.", "nsi_id": "unitedstatespostalservice-a77078", "operator": "United States Postal Service", "operator:short": "USPS", "operator:type": "public", "operator:wikidata": "Q668687", "ref": "0310100014"}, "type": "Feature"}
{"geometry": {"coordinates": [-71.4607574, 42.988462], "type": "Point"}, "id": "6m3bhQt_fr4p_5n7S5vl9EC0KTo=", "properties": {"@source_uri": "https://tools.usps.com/UspsToolsRestServices/rest/POLocator/findLocations", "@spider": "usps_collection_boxes", "addr:city": "MANCHESTER", "addr:country": "US", "addr:postcode": "03101", "addr:state": "NH", "addr:street_address": "300 CHESTNUT ST", "amenity": "post_box", "collection_times": "Mo-Fr 17:15; Sa 13:00", "note": "ON 12/24 AND 12/31, THIS BOX MAY BE COLLECTED AS EARLY AS 12 NOON.", "nsi_id": "unitedstatespostalservice-a77078", "operator": "United States Postal Service", "operator:short": "USPS", "operator:type": "public", "operator:wikidata": "Q668687", "ref": "0310100017"}, "type": "Feature"}
{"geometry": {"coordinates": [-71.4677963, 42.991546], "type": "Point"}, "id": "MJX6ySvVQqJ0Phh4Ln0Z8lgmVko=", "properties": {"@source_uri": "https://tools.usps.com/UspsToolsRestServices/rest/POLocator/findLocations", "@spider": "usps_collection_boxes", "addr:city": "MANCHESTER", "addr:country": "US", "addr:postcode": "03101", "addr:state": "NH", "addr:street_address": "340 COMMERCIAL ST", "amenity": "post_box", "collection_times": "Mo-Fr 16:30; Sa 13:00", "note": "ON 12/24 AND 12/31, THIS BOX MAY BE COLLECTED AS EARLY AS 12 NOON.", "nsi_id": "unitedstatespostalservice-a77078", "operator": "United States Postal Service", "operator:short": "USPS", "operator:type": "public", "operator:wikidata": "Q668687", "ref": "0310100023"}, "type": "Feature"}
{"geometry": {"coordinates": [-71.4631824, 42.992493], "type": "Point"}, "id": "FzozIY_sBtyG7_ikJSrC15eCijQ=", "properties": {"@source_uri": "https://tools.usps.com/UspsToolsRestServices/rest/POLocator/findLocations", "@spider": "usps_collection_boxes", "addr:city": "MANCHESTER", "addr:country": "US", "addr:postcode": "03101", "addr:state": "NH", "addr:street_address": "1001 ELM ST", "amenity": "post_box", "collection_times": "Mo-Fr 16:45; Sa 13:00", "note": "ON 12/24 AND 12/31, THIS BOX MAY BE COLLECTED AS EARLY AS 12 NOON.", "nsi_id": "unitedstatespostalservice-a77078", "operator": "United States Postal Service", "operator:short": "USPS", "operator:type": "public", "operator:wikidata": "Q668687", "ref": "0310100025"}, "type": "Feature"}
{"geometry": {"coordinates": [-71.4612554, 42.992746], "type": "Point"}, "id": "nHfnC6-EGNbjuutyt23oIx9GDmc=", "properties": {"@source_uri": "https://tools.usps.com/UspsToolsRestServices/rest/POLocator/findLocations", "@spider": "usps_collection_boxes", "addr:city": "MANCHESTER", "addr:country": "US", "addr:postcode": "03101", "addr:state": "NH", "addr:street_address": "72 CONCORD ST", "amenity": "post_box", "collection_times": "Mo-Fr 17:00; Sa 13:00", "note": "ON 12/24 AND 12/31, THIS BOX MAY BE COLLECTED AS EARLY AS 12 NOON.", "nsi_id": "unitedstatespostalservice-a77078", "operator": "United States Postal Service", "operator:short": "USPS", "operator:type": "public", "operator:wikidata": "Q668687", "ref": "0310100026"}, "type": "Feature"}
{"geometry": {"coordinates": [-71.4633999, 42.995488], "type": "Point"}, "id": "TWwgvL37KoHcVNxTrkwvQR3QaG4=", "properties": {"@source_uri": "https://tools.usps.com/UspsToolsRestServices/rest/POLocator/findLocations", "@spider": "usps_collection_boxes", "addr:city": "MANCHESTER", "addr:country": "US", "addr:postcode": "03101", "addr:state": "NH", "addr:street_address": "1225 ELM ST", "amenity": "post_box", "collection_times": "Mo-Fr 16:00; Sa 13:00", "note": "ON 12/24 AND 12/31, THIS BOX MAY BE COLLECTED AS EARLY AS 12 NOON.", "nsi_id": "unitedstatespostalservice-a77078", "operator": "United States Postal Service", "operator:short": "USPS", "operator:type": "public", "operator:wikidata": "Q668687", "ref": "0310100027"}, "type": "Feature"}
{"geometry": {"coordinates": [-71.4636489, 42.996308], "type": "Point"}, "id": "P6Vgnck4G8KZGjeuMl4e1hfpFUs=", "properties": {"@source_uri": "https://tools.usps.com/UspsToolsRestServices/rest/POLocator/findLocations", "@spider": "usps_collection_boxes", "addr:city": "MANCHESTER", "addr:country": "US", "addr:postcode": "03101", "addr:state": "NH", "addr:street_address": "1260 ELM ST", "amenity": "post_box", "collection_times": "Mo-Fr 17:00; Sa 13:00", "note": "ON 12/24 AND 12/31, THIS BOX MAY BE COLLECTED AS EARLY AS 12 NOON.", "nsi_id": "unitedstatespostalservice-a77078", "operator": "United States Postal Service", "operator:short": "USPS", "operator:type": "public", "operator:wikidata": "Q668687", "ref": "0310100031"}, "type": "Feature"}
{"geometry": {"coordinates": [-71.4638052, 42.997478], "type": "Point"}, "id": "kwAJlkjnn1Wqkt6-eBByUapd2-4=", "properties": {"@source_uri": "https://tools.usps.com/UspsToolsRestServices/rest/POLocator/findLocations", "@spider": "usps_collection_boxes", "addr:city": "MANCHESTER", "addr:country": "US", "addr:postcode": "03101", "addr:state": "NH", "addr:street_address": "1361 ELM ST", "amenity": "post_box", "collection_times": "Mo-Fr 17:00; Sa 13:00", "note": "ON 12/24 AND 12/31, THIS BOX MAY BE COLLECTED AS EARLY AS 12 NOON.", "nsi_id": "unitedstatespostalservice-a77078", "operator": "United States Postal Service", "operator:short": "USPS", "operator:type": "public", "operator:wikidata": "Q668687", "ref": "0310100035"}, "type": "Feature"}
{"geometry": {"coordinates": [-71.4644366, 43.001674], "type": "Point"}, "id": "NhFeE2eMyB3Jnv3-MpjZGD50Hzg=", "properties": {"@source_uri": "https://tools.usps.com/UspsToolsRestServices/rest/POLocator/findLocations", "@spider": "usps_collection_boxes", "addr:city": "MANCHESTER", "addr:country": "US", "addr:postcode": "03101", "addr:state": "NH", "addr:street_address": "1631 ELM ST", "amenity": "post_box", "collection_times": "Mo-Fr 17:00; Sa 13:00", "note": "ON 12/24 AND 12/31, THIS BOX MAY BE COLLECTED AS EARLY AS 12 NOON.", "nsi_id": "unitedstatespostalservice-a77078", "operator": "United States Postal Service", "operator:short": "USPS", "operator:type": "public", "operator:wikidata": "Q668687", "ref": "0310100037"}, "type": "Feature"}
{"geometry": {"coordinates": [-71.4629124, 42.977335], "type": "Point"}, "id": "z2nlGoYnOfuIX6Wil4u1HwWPAcU=", "properties": {"@source_uri": "https://tools.usps.com/UspsToolsRestServices/rest/POLocator/findLocations", "@spider": "usps_collection_boxes", "addr:city": "MANCHESTER", "addr:country": "US", "addr:postcode": "03101", "addr:state": "NH", "addr:street_address": "87 ELM ST", "amenity": "post_box", "collection_times": "Mo-Sa 10:00", "nsi_id": "unitedstatespostalservice-a77078", "operator": "United States Postal Service", "operator:short": "USPS", "operator:type": "public", "operator:wikidata": "Q668687", "ref": "0310100038"}, "type": "Feature"}
{"geometry": {"coordinates": [-71.4660569, 42.991593], "type": "Point"}, "id": "6XVo_xz55Q87AbKZ__wzDJNt9Jg=", "properties": {"@source_uri": "https://tools.usps.com/UspsToolsRestServices/rest/POLocator/findLocations", "@spider": "usps_collection_boxes", "addr:city": "MANCHESTER", "addr:country": "US", "addr:postcode": "03101", "addr:state": "NH", "addr:street_address": "419 CANAL ST", "amenity": "post_box", "collection_times": "Mo-Fr 16:30; Sa 13:00", "note": "ON 12/24 AND 12/31, THIS BOX MAY BE COLLECTED AS EARLY AS 12 NOON.", "nsi_id": "unitedstatespostalservice-a77078", "operator": "United States Postal Service", "operator:short": "USPS", "operator:type": "public", "operator:wikidata": "Q668687", "ref": "0310100039"}, "type": "Feature"}
{"geometry": {"coordinates": [-71.4643229, 42.99959], "type": "Point"}, "id": "cVP-kzj32tB5_5mnBk4OYX53Cw0=", "properties": {"@source_uri": "https://tools.usps.com/UspsToolsRestServices/rest/POLocator/findLocations", "@spider": "usps_collection_boxes", "addr:city": "MANCHESTER", "addr:country": "US", "addr:postcode": "03101", "addr:state": "NH", "addr:street_address": "1528 ELM ST", "amenity": "post_box", "collection_times": "Mo-Fr 16:45; Sa 13:00", "note": "ON 12/24 AND 12/31, THIS BOX MAY BE COLLECTED AS EARLY AS 12 NOON.", "nsi_id": "unitedstatespostalservice-a77078", "operator": "United States Postal Service", "operator:short": "USPS", "operator:type": "public", "operator:wikidata": "Q668687", "ref": "0310100045"}, "type": "Feature"}
{"geometry": {"coordinates": [-71.4631306, 42.990274], "type": "Point"}, "id": "1fBn7rHwF63Mv-SMKmuQDZ-U4Tg=", "properties": {"@source_uri": "https://tools.usps.com/UspsToolsRestServices/rest/POLocator/findLocations", "@spider": "usps_collection_boxes", "addr:city": "MANCHESTER", "addr:country": "US", "addr:postcode": "03101", "addr:state": "NH", "addr:street_address": "875 ELM ST", "amenity": "post_box", "collection_times": "Mo-Sa 13:00", "note": "ON 12/24 AND 12/31, THIS BOX MAY BE COLLECTED AS EARLY AS 12 NOON.", "nsi_id": "unitedstatespostalservice-a77078", "operator": "United States Postal Service", "operator:short": "USPS", "operator:type": "public", "operator:wikidata": "Q668687", "ref": "0310100046"}, "type": "Feature"}
{"geometry": {"coordinates": [-71.4629389, 42.990083], "type": "Point"}, "id": "iruo-uNZs8WdyimN6uAgviNd36E=", "properties": {"@source_uri": "https://tools.usps.com/UspsToolsRestServices/rest/POLocator/findLocations", "@spider": "usps_collection_boxes", "addr:city": "MANCHESTER", "addr:country": "US", "addr:postcode": "03101", "addr:state": "NH", "addr:street_address": "844 ELM ST", "amenity": "post_box", "collection_times": "Mo-Fr 17:00; Sa 13:00", "note": "ON 12/24 AND 12/31, THIS BOX MAY BE COLLECTED AS EARLY AS 12 NOON.", "nsi_id": "unitedstatespostalservice-a77078", "operator": "United States Postal Service", "operator:short": "USPS", "operator:type": "public", "operator:wikidata": "Q668687", "ref": "0310100048"}, "type": "Feature"}
{"geometry": {"coordinates": [-71.4629535, 42.991119], "type": "Point"}, "id": "tYSoSwRssGAeovz9UCh2NK00cuw=", "properties": {"@source_uri": "https://tools.usps.com/UspsToolsRestServices/rest/POLocator/findLocations", "@spider": "usps_collection_boxes", "addr:city": "MANCHESTER", "addr:country": "US", "addr:postcode": "03101", "addr:state": "NH", "addr:street_address": "934 ELM ST", "amenity": "post_box", "collection_times": "Mo-Fr 17:00; Sa 13:00", "note": "ON 12/24 AND 12/31, THIS BOX MAY BE COLLECTED AS EARLY AS 12 NOON.", "nsi_id": "unitedstatespostalservice-a77078", "operator": "United States Postal Service", "operator:short": "USPS", "operator:type": "public", "operator:wikidata": "Q668687", "ref": "0310100052"}, "type": "Feature"}
{"geometry": {"coordinates": [-71.4616795, 42.990922], "type": "Point"}, "id": "luw1H1Yv6cYvqRzcAaoTpZZ6fKQ=", "properties": {"@source_uri": "https://tools.usps.com/UspsToolsRestServices/rest/POLocator/findLocations", "@spider": "usps_collection_boxes", "addr:city": "MANCHESTER", "addr:country": "US", "addr:postcode": "03101", "addr:state": "NH", "addr:street_address": "66 HANOVER ST", "amenity": "post_box", "collection_times": "Mo-Fr 17:15; Sa 13:00", "note": "ON 12/24 AND 12/31, THIS BOX MAY BE COLLECTED AS EARLY AS 12 NOON.", "nsi_id": "unitedstatespostalservice-a77078", "operator": "United States Postal Service", "operator:short": "USPS", "operator:type": "public", "operator:wikidata": "Q668687", "ref": "0310100054"}, "type": "Feature"}
{"geometry": {"coordinates": [-71.4641143, 42.990841], "type": "Point"}, "id": "38aPLxvvKFOZwZRNk-9VdmwZCRo=", "properties": {"@source_uri": "https://tools.usps.com/UspsToolsRestServices/rest/POLocator/findLocations", "@spider": "usps_collection_boxes", "addr:city": "MANCHESTER", "addr:country": "US", "addr:postcode": "03101", "addr:state": "NH", "addr:street_address": "45 MARKET ST", "amenity": "post_box", "collection_times": "Mo-Fr 17:00; Sa 13:00", "note": "ON 12/24 AND 12/31, THIS BOX MAY BE COLLECTED AS EARLY AS 12 NOON.", "nsi_id": "unitedstatespostalservice-a77078", "operator": "United States Postal Service", "operator:short": "USPS", "operator:type": "public", "operator:wikidata": "Q668687", "ref": "0310100059"}, "type": "Feature"}
{"geometry": {"coordinates": [-71.4651399, 42.990157], "type": "Point"}, "id": "J-9ovUhTNFMBQURJMUl7-W__5tc=", "properties": {"@source_uri": "https://tools.usps.com/UspsToolsRestServices/rest/POLocator/findLocations", "@spider": "usps_collection_boxes", "addr:city": "MANCHESTER", "addr:country": "US", "addr:postcode": "03101", "addr:state": "NH", "addr:street_address": "65 MIDDLE ST", "amenity": "post_box", "collection_times": "Mo-Fr 17:00; Sa 13:00", "note": "ON 12/24 AND 12/31, THIS BOX MAY BE COLLECTED AS EARLY AS 12 NOON.", "nsi_id": "unitedstatespostalservice-a77078", "operator": "United States Postal Service", "operator:short": "USPS", "operator:type": "public", "operator:wikidata": "Q668687", "ref": "0310100062"}, "type": "Feature"}
{"geometry": {"coordinates": [-71.4676091, 42.985649], "type": "Point"}, "id": "e2sB2cUyE6N4lCgfzZjh-Z0fWEk=", "properties": {"@source_uri": "https://tools.usps.com/UspsToolsRestServices/rest/POLocator/findLocations", "@spider": "usps_collection_boxes", "addr:city": "MANCHESTER", "addr:country": "US", "addr:postcode": "03101", "addr:state": "NH", "addr:street_address": "186 GRANITE ST", "amenity": "post_box", "collection_times": "Mo-Fr 16:30; Sa 13:00", "note": "ON 12/24 AND 12/31, THIS BOX MAY BE COLLECTED AS EARLY AS 12 NOON.", "nsi_id": "unitedstatespostalservice-a77078", "operator": "United States Postal Service", "operator:short": "USPS", "operator:type": "public", "operator:wikidata": "Q668687", "ref": "0310100064"}, "type": "Feature"}
{"geometry": {"coordinates": [-71.4676511, 42.995584], "type": "Point"}, "id": "rcSYi0_lZJGKcjbEfroUr4Fp6kw=", "properties": {"@source_uri": "https://tools.usps.com/UspsToolsRestServices/rest/POLocator/findLocations", "@spider": "usps_collection_boxes", "addr:city": "MANCHESTER", "addr:country": "US", "addr:postcode": "03101", "addr:state": "NH", "addr:street_address": "540 NORTH COMMERCIAL ST", "amenity": "post_box", "collection_times": "Mo-Fr 16:30; Sa 13:00", "note": "ON 12/24 AND 12/31, THIS BOX MAY BE COLLECTED AS EARLY AS 12 NOON.", "nsi_id": "unitedstatespostalservice-a77078", "operator": "United States Postal Service", "operator:short": "USPS", "operator:type": "public", "operator:wikidata": "Q668687", "ref": "0310100070"}, "type": "Feature"}
{"geometry": {"coordinates": [-71.4611749, 42.995775], "type": "Point"}, "id": "pCiRfSlMBIGBRCzyfm4hZ7f2UGE=", "properties": {"@source_uri": "https://tools.usps.com/UspsToolsRestServices/rest/POLocator/findLocations", "@spider": "usps_collection_boxes", "addr:city": "MANCHESTER", "addr:country": "US", "addr:postcode": "03101", "addr:state": "NH", "addr:street_address": "77 PEARL ST", "amenity": "post_box", "collection_times": "Mo-Fr 16:00; Sa 13:00", "note": "ON 12/24 AND 12/31, THIS BOX MAY BE COLLECTED AS EARLY AS 12 NOON.", "nsi_id": "unitedstatespostalservice-a77078", "operator": "United States Postal Service", "operator:short": "USPS", "operator:type": "public", "operator:wikidata": "Q668687", "ref": "0310100071"}, "type": "Feature"}
{"geometry": {"coordinates": [-71.463272, 42.987757], "type": "Point"}, "id": "NTLjAepzwCNTpiaSx6YXkUr7ZqM=", "properties": {"@source_uri": "https://tools.usps.com/UspsToolsRestServices/rest/POLocator/findLocations", "@spider": "usps_collection_boxes", "addr:city": "MANCHESTER", "addr:country": "US", "addr:postcode": "03101", "addr:state": "NH", "addr:street_address": "650 ELM ST", "amenity": "post_box", "collection_times": "Mo-Fr 17:30; Sa 13:00", "note": "ON 12/24 AND 12/31, THIS BOX MAY BE COLLECTED AS EARLY AS 12 NOON.", "nsi_id": "unitedstatespostalservice-a77078", "operator": "United States Postal Service", "operator:short": "USPS", "operator:type": "public", "operator:wikidata": "Q668687", "ref": "0310100072"}, "type": "Feature"}
{"geometry": {"coordinates": [-71.4635912, 42.993807], "type": "Point"}, "id": "4fhYDwKzjYQoJIJB_6B6jpHOlvM=", "properties": {"@source_uri": "https://tools.usps.com/UspsToolsRestServices/rest/POLocator/findLocations", "@spider": "usps_collection_boxes", "addr:city": "MANCHESTER", "addr:country": "US", "addr:postcode": "03101", "addr:state": "NH", "addr:street_address": "2 WALL ST", "amenity": "post_box", "collection_times": "Mo-Fr 17:00; Sa 13:00", "note": "ON 12/24 AND 12/31, THIS BOX MAY BE COLLECTED AS EARLY AS 12 NOON.", "nsi_id": "unitedstatespostalservice-a77078", "operator": "United States Postal Service", "operator:short": "USPS", "operator:type": "public", "operator:wikidata": "Q668687", "ref": "0310100075"}, "type": "Feature"}
{"geometry": {"coordinates": [-71.4596417, 42.991849], "type": "Point"}, "id": "jxH_5t3TwBTqHoum6JmqmdARdwk=", "properties": {"@source_uri": "https://tools.usps.com/UspsToolsRestServices/rest/POLocator/findLocations", "@spider": "usps_collection_boxes", "addr:city": "MANCHESTER", "addr:country": "US", "addr:postcode": "03101", "addr:state": "NH", "addr:street_address": "129 AMHERST ST", "amenity": "post_box", "collection_times": "Mo-Fr 17:30; Sa 13:00", "note": "ON 12/24 AND 12/31, THIS BOX MAY BE COLLECTED AS EARLY AS 12 NOON.", "nsi_id": "unitedstatespostalservice-a77078", "operator": "United States Postal Service", "operator:short": "USPS", "operator:type": "public", "operator:wikidata": "Q668687", "ref": "0310100082"}, "type": "Feature"}
{"geometry": {"coordinates": [-71.464121, 42.99273], "type": "Point"}, "id": "uqvXY2myMzGUjqTPLxs9CInOvpo=", "properties": {"@source_uri": "https://tools.usps.com/UspsToolsRestServices/rest/POLocator/findLocations", "@spider": "usps_collection_boxes", "addr:city": "MANCHESTER", "addr:country": "US", "addr:postcode": "03101", "addr:state": "NH", "addr:street_address": "1000 ELM ST", "amenity": "post_box", "collection_times": "Mo-Fr 17:00; Sa 12:00", "indoor": "yes", "note": "ON 12/24 AND 12/31, THIS BOX MAY BE COLLECTED AS EARLY AS 12 NOON.", "nsi_id": "unitedstatespostalservice-a77078", "operator": "United States Postal Service", "operator:short": "USPS", "operator:type": "public", "operator:wikidata": "Q668687", "ref": "0310100084"}, "type": "Feature"}
{"geometry": {"coordinates": [-71.463149532, 42.992749949], "type": "Point"}, "id": "GTZKBQt08CYbTYyO7S0hPdYuh9g=", "properties": {"@source_uri": "https://tools.usps.com/UspsToolsRestServices/rest/POLocator/findLocations", "@spider": "usps_collection_boxes", "addr:city": "MANCHESTER", "addr:country": "US", "addr:postcode": "03101", "addr:state": "NH", "addr:street_address": "1000 ELM ST STE 15104", "amenity": "post_box", "collection_times": "Mo-Fr 17:00; Sa 12:00", "indoor": "yes", "note": "ON 12/24 AND 12/31, THIS BOX MAY BE COLLECTED AS EARLY AS 12 NOON.", "nsi_id": "unitedstatespostalservice-a77078", "operator": "United States Postal Service", "operator:short": "USPS", "operator:type": "public", "operator:wikidata": "Q668687", "ref": "0310100085"}, "type": "Feature"}
{"geometry": {"coordinates": [-71.4808319, 42.993049], "type": "Point"}, "id": "oT_gOaay-_E-w5_D_uBDPnnW4KI=", "properties": {"@source_uri": "https://tools.usps.com/UspsToolsRestServices/rest/POLocator/findLocations", "@spider": "usps_collection_boxes", "addr:city": "MANCHESTER", "addr:country": "US", "addr:postcode": "03102", "addr:state": "NH", "addr:street_address": "270 AMORY ST", "amenity": "post_box", "collection_times": "Mo-Sa 13:00", "note": "ON 12/24 AND 12/31, THIS BOX MAY BE COLLECTED AS EARLY AS 12 NOON.", "nsi_id": "unitedstatespostalservice-a77078", "operator": "United States Postal Service", "operator:short": "USPS", "operator:type": "public", "operator:wikidata": "Q668687", "ref": "0310200002"}, "type": "Feature"}
{"geometry": {"coordinates": [-71.4950311, 42.987], "type": "Point"}, "id": "nrci2B4Rd9lx0UfUpXv-y-JsdN8=", "properties": {"@source_uri": "https://tools.usps.com/UspsToolsRestServices/rest/POLocator/findLocations", "@spider": "usps_collection_boxes", "addr:city": "MANCHESTER", "addr:country": "US", "addr:postcode": "03102", "addr:state": "NH", "addr:street_address": "435 MAST RD", "amenity": "post_box", "collection_times": "Mo-Sa 13:00", "note": "ON 12/24 AND 12/31, THIS BOX MAY BE COLLECTED AS EARLY AS 12 NOON.", "nsi_id": "unitedstatespostalservice-a77078", "operator": "United States Postal Service", "operator:short": "USPS", "operator:type": "public", "operator:wikidata": "Q668687", "ref": "0310200004"}, "type": "Feature"}
{"geometry": {"coordinates": [-71.4796159, 42.996944], "type": "Point"}, "id": "HC_6xcBa65VfbM7TDe_DCHF8nOs=", "properties": {"@source_uri": "https://tools.usps.com/UspsToolsRestServices/rest/POLocator/findLocations", "@spider": "usps_collection_boxes", "addr:city": "MANCHESTER", "addr:country": "US", "addr:postcode": "03102", "addr:state": "NH", "addr:street_address": "90 BREMER ST", "amenity": "post_box", "collection_times": "Mo-Fr 11:00; Sa 12:00", "nsi_id": "unitedstatespostalservice-a77078", "operator": "United States Postal Service", "operator:short": "USPS", "operator:type": "public", "operator:wikidata": "Q668687", "ref": "0310200006"}, "type": "Feature"}
{"geometry": {"coordinates": [-71.5223447, 42.995991], "type": "Point"}, "id": "H2Vkz4yt0i59yDbtxOyqafYx_Us=", "properties": {"@source_uri": "https://tools.usps.com/UspsToolsRestServices/rest/POLocator/findLocations", "@spider": "usps_collection_boxes", "addr:city": "MANCHESTER", "addr:country": "US", "addr:postcode": "03102", "addr:state": "NH", "addr:street_address": "10 LANCE LN", "amenity": "post_box", "collection_times": "Mo-Fr 17:30; Sa 13:00", "note": "ON 12/24 AND 12/31, THIS BOX MAY BE COLLECTED AS EARLY AS 12 NOON.", "nsi_id": "unitedstatespostalservice-a77078", "operator": "United States Postal Service", "operator:short": "USPS", "operator:type": "public", "operator:wikidata": "Q668687", "ref": "0310200021"}, "type": "Feature"}
{"geometry": {"coordinates": [-71.5159911, 43.001461], "type": "Point"}, "id": "2_HShVw37BLyXQYuIQO45poAtvk=", "properties": {"@source_uri": "https://tools.usps.com/UspsToolsRestServices/rest/POLocator/findLocations", "@spider": "usps_collection_boxes", "addr:city": "MANCHESTER", "addr:country": "US", "addr:postcode": "03102", "addr:state": "NH", "addr:street_address": "443 MAST RD", "amenity": "post_box", "collection_times": "Mo-Sa 13:00", "note": "ON 12/24 AND 12/31, THIS BOX MAY BE COLLECTED AS EARLY AS 12 NOON.", "nsi_id": "unitedstatespostalservice-a77078", "operator": "United States Postal Service", "operator:short": "USPS", "operator:type": "public", "operator:wikidata": "Q668687", "ref": "0310200023"}, "type": "Feature"}
{"geometry": {"coordinates": [-71.5118914, 42.9984], "type": "Point"}, "id": "18vG10yN7LJ53aHQPpKHXnoJShY=", "properties": {"@source_uri": "https://tools.usps.com/UspsToolsRestServices/rest/POLocator/findLocations", "@spider": "usps_collection_boxes", "addr:city": "MANCHESTER", "addr:country": "US", "addr:postcode": "03102", "addr:state": "NH", "addr:street_address": "605 MAST RD", "amenity": "post_box", "collection_times": "Mo-Sa 13:00", "note": "ON 12/24 AND 12/31, THIS BOX MAY BE COLLECTED AS EARLY AS 12 NOON.", "nsi_id": "unitedstatespostalservice-a77078", "operator": "United States Postal Service", "operator:short": "USPS", "operator:type": "public", "operator:wikidata": "Q668687", "ref": "0310200024"}, "type": "Feature"}
{"geometry": {"coordinates": [-71.4741655, 42.991181], "type": "Point"}, "id": "TkVRmutwGwnFftXFD3HXvWgkn8w=", "properties": {"@source_uri": "https://tools.usps.com/UspsToolsRestServices/rest/POLocator/findLocations", "@spider": "usps_collection_boxes", "addr:city": "MANCHESTER", "addr:country": "US", "addr:postcode": "03102", "addr:state": "NH", "addr:street_address": "100 MCGREGOR ST", "amenity": "post_box", "collection_times": "Mo-Fr 15:00; Sa 13:00", "note": "ON 12/24 AND 12/31, THIS BOX MAY BE COLLECTED AS EARLY AS 12 NOON.", "nsi_id": "unitedstatespostalservice-a77078", "operator": "United States Postal Service", "operator:short": "USPS", "operator:type": "public", "operator:wikidata": "Q668687", "ref": "0310200025"}, "type": "Feature"}
{"geometry": {"coordinates": [-71.4744520055, 42.9925510162], "type": "Point"}, "id": "r8w_Vjc0CUK4WQ1DVpuBI8rZs24=", "properties": {"@source_uri": "https://tools.usps.com/UspsToolsRestServices/rest/POLocator/findLocations", "@spider": "usps_collection_boxes", "addr:city": "MANCHESTER", "addr:country": "US", "addr:postcode": "03102", "addr:state": "NH", "addr:street_address": "122 MCGREGOR ST", "amenity": "post_box", "collection_times": "Mo-Fr 15:00; Sa 13:00", "note": "ON 12/24 AND 12/31, THIS BOX MAY BE COLLECTED AS EARLY AS 12 NOON.", "nsi_id": "unitedstatespostalservice-a77078", "operator": "United States Postal Service", "operator:short": "USPS", "operator:type": "public", "operator:wikidata": "Q668687", "ref": "0310200026"}, "type": "Feature"}
{"geometry": {"coordinates": [-71.4748404, 42.982789], "type": "Point"}, "id": "vz5dUWgpF3A_dzbKsMkXu4HmsB8=", "properties": {"@source_uri": "https://tools.usps.com/UspsToolsRestServices/rest/POLocator/findLocations", "@spider": "usps_collection_boxes", "addr:city": "MANCHESTER", "addr:country": "US", "addr:postcode": "03102", "addr:state": "NH", "addr:street_address": "85 S MAIN ST", "amenity": "post_box", "collection_times": "Mo-Sa 13:00", "note": "ON 12/24 AND 12/31, THIS BOX MAY BE COLLECTED AS EARLY AS 12 NOON.", "nsi_id": "unitedstatespostalservice-a77078", "operator": "United States Postal Service", "operator:short": "USPS", "operator:type": "public", "operator:wikidata": "Q668687", "ref": "0310200029"}, "type": "Feature"}
{"geometry": {"coordinates": [-71.4918009, 42.980083], "type": "Point"}, "id": "FQsQsrUGYKuaBOca6nWzonE5a60=", "properties": {"@source_uri": "https://tools.usps.com/UspsToolsRestServices/rest/POLocator/findLocations", "@spider": "usps_collection_boxes", "addr:city": "MANCHESTER", "addr:country": "US", "addr:postcode": "03102", "addr:state": "NH", "addr:street_address": "18 ROCKLAND AVE", "amenity": "post_box", "collection_times": "Mo-Sa 13:00", "note": "ON 12/24 AND 12/31, THIS BOX MAY BE COLLECTED AS EARLY AS 12 NOON.", "nsi_id": "unitedstatespostalservice-a77078", "operator": "United States Postal Service", "operator:short": "USPS", "operator:type": "public", "operator:wikidata": "Q668687", "ref": "0310200031"}, "type": "Feature"}
{"geometry": {"coordinates": [-71.4877591, 42.993091], "type": "Point"}, "id": "84PfyFzrLJBr2A8CZPwbkN6Qgl4=", "properties": {"@source_uri": "https://tools.usps.com/UspsToolsRestServices/rest/POLocator/findLocations", "@spider": "usps_collection_boxes", "addr:city": "MANCHESTER", "addr:country": "US", "addr:postcode": "03102", "addr:state": "NH", "addr:street_address": "5 KEARSARGE ST", "amenity": "post_box", "collection_times": "Mo-Sa 13:00", "note": "ON 12/24 AND 12/31, THIS BOX MAY BE COLLECTED AS EARLY AS 12 NOON.", "nsi_id": "unitedstatespostalservice-a77078", "operator": "United States Postal Service", "operator:short": "USPS", "operator:type": "public", "operator:wikidata": "Q668687", "ref": "0310200042"}, "type": "Feature"}
{"geometry": {"coordinates": [-71.4449511, 42.976572], "type": "Point"}, "id": "F6a1jJ6sDXDric-OU8l6A2VGkEY=", "properties": {"@source_uri": "https://tools.usps.com/UspsToolsRestServices/rest/POLocator/findLocations", "@spider": "usps_collection_boxes", "addr:city": "MANCHESTER", "addr:country": "US", "addr:postcode": "03103", "addr:state": "NH", "addr:street_address": "706 SOMERVILLE ST", "amenity": "post_box", "collection_times": "Mo-Fr 13:30; Sa 13:00", "note": "ON 12/24 AND 12/31, THIS BOX MAY BE COLLECTED AS EARLY AS 12 NOON.", "nsi_id": "unitedstatespostalservice-a77078", "operator": "United States Postal Service", "operator:short": "USPS", "operator:type": "public", "operator:wikidata": "Q668687", "ref": "0310300007"}, "type": "Feature"}
{"geometry": {"coordinates": [-71.4535298162, 42.9378211563], "type": "Point"}, "id": "YLuWzaibzQ9QazVzRBo6xtRfoP8=", "properties": {"@source_uri": "https://tools.usps.com/UspsToolsRestServices/rest/POLocator/findLocations", "@spider": "usps_collection_boxes", "addr:city": "MANCHESTER", "addr:country": "US", "addr:postcode": "03103", "addr:state": "NH", "addr:street_address": "2626 BROWN AVE", "amenity": "post_box", "collection_times": "Mo-Sa 13:00", "note": "ON 12/24 AND 12/31, THIS BOX MAY BE COLLECTED AS EARLY AS 12 NOON.", "nsi_id": "unitedstatespostalservice-a77078", "operator": "United States Postal Service", "operator:short": "USPS", "operator:type": "public", "operator:wikidata": "Q668687", "ref": "0310300010"}, "type": "Feature"}
{"geometry": {"coordinates": [-71.4384993, 42.983759], "type": "Point"}, "id": "JzFgiH0ycJeteaRtaze8aH5DqyI=", "properties": {"@source_uri": "https://tools.usps.com/UspsToolsRestServices/rest/POLocator/findLocations", "@spider": "usps_collection_boxes", "addr:city": "MANCHESTER", "addr:country": "US", "addr:postcode": "03103", "addr:state": "NH", "addr:street_address": "1 ELLIOT WAY", "amenity": "post_box", "collection_times": "Mo-Fr 15:30; Sa 13:00", "note": "ON 12/24 AND 12/31, THIS BOX MAY BE COLLECTED AS EARLY AS 12 NOON.", "nsi_id": "unitedstatespostalservice-a77078", "operator": "United States Postal Service", "operator:short": "USPS", "operator:type": "public", "operator:wikidata": "Q668687", "ref": "0310300018"}, "type": "Feature"}
{"geometry": {"coordinates": [-71.4575058, 42.980104], "type": "Point"}, "id": "1IyUgFuZtswD7Wy7Jwx0w2gGj6A=", "properties": {"@source_uri": "https://tools.usps.com/UspsToolsRestServices/rest/POLocator/findLocations", "@spider": "usps_collection_boxes", "addr:city": "MANCHESTER", "addr:country": "US", "addr:postcode": "03103", "addr:state": "NH", "addr:street_address": "200 UNION ST", "amenity": "post_box", "collection_times": "Mo-Fr 13:30; Sa 13:00", "note": "ON 12/24 AND 12/31, THIS BOX MAY BE COLLECTED AS EARLY AS 12 NOON.", "nsi_id": "unitedstatespostalservice-a77078", "operator": "United States Postal Service", "operator:short": "USPS", "operator:type": "public", "operator:wikidata": "Q668687", "ref": "0310300026"}, "type": "Feature"}
{"geometry": {"coordinates": [-71.4422334, 42.957972], "type": "Point"}, "id": "RbWK4MTHLwA5BKwKwH1VSDbDD08=", "properties": {"@source_uri": "https://tools.usps.com/UspsToolsRestServices/rest/POLocator/findLocations", "@spider": "usps_collection_boxes", "addr:city": "MANCHESTER", "addr:country": "US", "addr:postcode": "03103", "addr:state": "NH", "addr:street_address": "201 JOHN E DEVINE DR", "amenity": "post_box", "collection_times": "Mo-Fr 16:00; Sa 13:00", "note": "ON 12/24 AND 12/31, THIS BOX MAY BE COLLECTED AS EARLY AS 12 NOON.", "nsi_id": "unitedstatespostalservice-a77078", "operator": "United States Postal Service", "operator:short": "USPS", "operator:type": "public", "operator:wikidata": "Q668687", "ref": "0310300028"}, "type": "Feature"}
{"geometry": {"coordinates": [-71.4326177, 42.964631], "type": "Point"}, "id": "hP8IC8cAryDpWjc5CJ0GKODStIg=", "properties": {"@source_uri": "https://tools.usps.com/UspsToolsRestServices/rest/POLocator/findLocations", "@spider": "usps_collection_boxes", "addr:city": "MANCHESTER", "addr:country": "US", "addr:postcode": "03103", "addr:state": "NH", "addr:street_address": "173 LOIS ST", "amenity": "post_box", "collection_times": "Mo-Sa 10:00", "nsi_id": "unitedstatespostalservice-a77078", "operator": "United States Postal Service", "operator:short": "USPS", "operator:type": "public", "operator:wikidata": "Q668687", "ref": "0310300029"}, "type": "Feature"}
{"geometry": {"coordinates": [-71.4529171, 42.977246], "type": "Point"}, "id": "LW7RkpdlQOexNGxMcJaHFEunxBA=", "properties": {"@source_uri": "https://tools.usps.com/UspsToolsRestServices/rest/POLocator/findLocations", "@spider": "usps_collection_boxes", "addr:city": "MANCHESTER", "addr:country": "US", "addr:postcode": "03103", "addr:state": "NH", "addr:street_address": "399 SILVER ST", "amenity": "post_box", "collection_times": "Mo-Fr 13:30; Sa 13:00", "note": "ON 12/24 AND 12/31, THIS BOX MAY BE COLLECTED AS EARLY AS 12 NOON.", "nsi_id": "unitedstatespostalservice-a77078", "operator": "United States Postal Service", "operator:short": "USPS", "operator:type": "public", "operator:wikidata": "Q668687", "ref": "0310300031"}, "type": "Feature"}
{"geometry": {"coordinates": [-71.4401763, 42.982882], "type": "Point"}, "id": "E_5oQCmjpDJkGIFUuBa9NWAko9k=", "properties": {"@source_uri": "https://tools.usps.com/UspsToolsRestServices/rest/POLocator/findLocations", "@spider": "usps_collection_boxes", "addr:city": "MANCHESTER", "addr:country": "US", "addr:postcode": "03103", "addr:state": "NH", "addr:street_address": "375 MASSABESIC ST", "amenity": "post_box", "collection_times": "Mo-Fr 13:30; Sa 13:00", "note": "ON 12/24 AND 12/31, THIS BOX MAY BE COLLECTED AS EARLY AS 12 NOON.", "nsi_id": "unitedstatespostalservice-a77078", "operator": "United States Postal Service", "operator:short": "USPS", "operator:type": "public", "operator:wikidata": "Q668687", "ref": "0310300032"}, "type": "Feature"}
{"geometry": {"coordinates": [-71.4556244, 42.962266], "type": "Point"}, "id": "GsvwN7ouWWEw_VGuHI9q8FAhy9Y=", "properties": {"@source_uri": "https://tools.usps.com/UspsToolsRestServices/rest/POLocator/findLocations", "@spider": "usps_collection_boxes", "addr:city": "MANCHESTER", "addr:country": "US", "addr:postcode": "03103", "addr:state": "NH", "addr:street_address": "609 S BEECH ST", "amenity": "post_box", "collection_times": "Mo-Fr 13:30; Sa 13:00", "note": "ON 12/24 AND 12/31, THIS BOX MAY BE COLLECTED AS EARLY AS 12 NOON.", "nsi_id": "unitedstatespostalservice-a77078", "operator": "United States Postal Service", "operator:short": "USPS", "operator:type": "public", "operator:wikidata": "Q668687", "ref": "0310300033"}, "type": "Feature"}
{"geometry": {"coordinates": [-71.4358289, 42.946194], "type": "Point"}, "id": "bZuTeVokDQ1DEKrT1XtdUmVhizQ=", "properties": {"@source_uri": "https://tools.usps.com/UspsToolsRestServices/rest/POLocator/findLocations", "@spider": "usps_collection_boxes", "addr:city": "MANCHESTER", "addr:country": "US", "addr:postcode": "03103", "addr:state": "NH", "addr:street_address": "7 PERIMETER RD", "amenity": "post_box", "collection_times": "Mo-Fr 17:00; Sa 13:00", "note": "ON 12/24 AND 12/31, THIS BOX MAY BE COLLECTED AS EARLY AS 12 NOON.", "nsi_id": "unitedstatespostalservice-a77078", "operator": "United States Postal Service", "operator:short": "USPS", "operator:type": "public", "operator:wikidata": "Q668687", "ref": "0310300034"}, "type": "Feature"}
{"geometry": {"coordinates": [-71.4450395, 42.963241], "type": "Point"}, "id": "vO3qBzuzWjVDCkdv1_p6sefsR20=", "properties": {"@source_uri": "https://tools.usps.com/UspsToolsRestServices/rest/POLocator/findLocations", "@spider": "usps_collection_boxes", "addr:city": "MANCHESTER", "addr:country": "US", "addr:postcode": "03103", "addr:state": "NH", "addr:street_address": "777 S WILLOW ST", "amenity": "post_box", "collection_times": "Mo-Fr 15:30; Sa 13:00", "note": "ON 12/24 AND 12/31, THIS BOX MAY BE COLLECTED AS EARLY AS 12 NOON.", "nsi_id": "unitedstatespostalservice-a77078", "operator": "United States Postal Service", "operator:short": "USPS", "operator:type": "public", "operator:wikidata": "Q668687", "ref": "0310300038"}, "type": "Feature"}
{"geometry": {"coordinates": [-71.4611739, 42.995785], "type": "Point"}, "id": "pqaz99vfYbBCVf8v7oLSpvnD10k=", "properties": {"@source_uri": "https://tools.usps.com/UspsToolsRestServices/rest/POLocator/findLocations", "@spider": "usps_collection_boxes", "addr:city": "MANCHESTER", "addr:country": "US", "addr:postcode": "03103", "addr:state": "NH", "addr:street_address": "77 PEARL ST", "amenity": "post_box", "collection_times": "Mo-Fr 16:00; Sa 13:00", "note": "ON 12/24 AND 12/31, THIS BOX MAY BE COLLECTED AS EARLY AS 12 NOON.", "nsi_id": "unitedstatespostalservice-a77078", "operator": "United States Postal Service", "operator:short": "USPS", "operator:type": "public", "operator:wikidata": "Q668687", "ref": "0310300047"}, "type": "Feature"}
{"geometry": {"coordinates": [-71.4358525, 42.984387], "type": "Point"}, "id": "HEh_SeljyAXLLVSyYuoRT0JhfsE=", "properties": {"@source_uri": "https://tools.usps.com/UspsToolsRestServices/rest/POLocator/findLocations", "@spider": "usps_collection_boxes", "addr:city": "MANCHESTER", "addr:country": "US", "addr:postcode": "03103", "addr:state": "NH", "addr:street_address": "130 TARRYTOWN RD", "amenity": "post_box", "collection_times": "Mo-Sa 13:00", "note": "ON 12/24 AND 12/31, THIS BOX MAY BE COLLECTED AS EARLY AS 12 NOON.", "nsi_id": "unitedstatespostalservice-a77078", "operator": "United States Postal Service", "operator:short": "USPS", "operator:type": "public", "operator:wikidata": "Q668687", "ref": "0310300048"}, "type": "Feature"}
{"geometry": {"coordinates": [-71.4366724, 42.982856], "type": "Point"}, "id": "NrebECFj5nOJRAF1th3NiknSANk=", "properties": {"@source_uri": "https://tools.usps.com/UspsToolsRestServices/rest/POLocator/findLocations", "@spider": "usps_collection_boxes", "addr:city": "MANCHESTER", "addr:country": "US", "addr:postcode": "03103", "addr:state": "NH", "addr:street_address": "4 ELLIOT WAY", "amenity": "post_box", "collection_times": "Mo-Fr 15:30; Sa 13:00", "note": "ON 12/24 AND 12/31, THIS BOX MAY BE COLLECTED AS EARLY AS 12 NOON.", "nsi_id": "unitedstatespostalservice-a77078", "operator": "United States Postal Service", "operator:short": "USPS", "operator:type": "public", "operator:wikidata": "Q668687", "ref": "0310300050"}, "type": "Feature"}
{"geometry": {"coordinates": [-71.4396159777, 42.9601469976], "type": "Point"}, "id": "r9V9HrFrEf4m-2nN4A9yVd1VcfM=", "properties": {"@source_uri": "https://tools.usps.com/UspsToolsRestServices/rest/POLocator/findLocations", "@spider": "usps_collection_boxes", "addr:city": "MANCHESTER", "addr:country": "US", "addr:postcode": "03103", "addr:state": "NH", "addr:street_address": "1111 S WILLOW ST", "amenity": "post_box", "collection_times": "Mo-Sa 13:00", "note": "ON 12/24 AND 12/31, THIS BOX MAY BE COLLECTED AS EARLY AS 12 NOON.", "nsi_id": "unitedstatespostalservice-a77078", "operator": "United States Postal Service", "operator:short": "USPS", "operator:type": "public", "operator:wikidata": "Q668687", "ref": "0310300062"}, "type": "Feature"}
{"geometry": {"coordinates": [-71.440441, 42.949219], "type": "Point"}, "id": "KDoDQWKxBb1Vh0qb3fE1eQaIqjc=", "properties": {"@source_uri": "https://tools.usps.com/UspsToolsRestServices/rest/POLocator/findLocations", "@spider": "usps_collection_boxes", "addr:city": "MANCHESTER", "addr:country": "US", "addr:postcode": "03103", "addr:state": "NH", "addr:street_address": "955 GOFFS FALLS RD", "amenity": "post_box", "collection_times": "Mo-Sa 18:00", "indoor": "yes", "note": "ON 12/24 AND 12/31, THIS BOX MAY BE COLLECTED AS EARLY AS 12 NOON.", "nsi_id": "unitedstatespostalservice-a77078", "operator": "United States Postal Service", "operator:short": "USPS", "operator:type": "public", "operator:wikidata": "Q668687", "ref": "0310300063"}, "type": "Feature"}
{"geometry": {"coordinates": [-71.4703723, 42.971649], "type": "Point"}, "id": "EdH7cj2mtTXVACU4Ek0alzNf8mE=", "properties": {"@source_uri": "https://tools.usps.com/UspsToolsRestServices/rest/POLocator/findLocations", "@spider": "usps_collection_boxes", "addr:city": "MANCHESTER", "addr:country": "US", "addr:postcode": "03103", "addr:state": "NH", "addr:street_address": "77 SUNDIAL AVE", "amenity": "post_box", "collection_times": "Mo-Fr 16:00; Sa 13:00", "note": "ON 12/24 AND 12/31, THIS BOX MAY BE COLLECTED AS EARLY AS 12 NOON.", "nsi_id": "unitedstatespostalservice-a77078", "operator": "United States Postal Service", "operator:short": "USPS", "operator:type": "public", "operator:wikidata": "Q668687", "ref": "0310300064"}, "type": "Feature"}
{"geometry": {"coordinates": [-71.4694515, 42.972504], "type": "Point"}, "id": "nGmHSsyEGKHv-S7aNXX0HYjISOc=", "properties": {"@source_uri": "https://tools.usps.com/UspsToolsRestServices/rest/POLocator/findLocations", "@spider": "usps_collection_boxes", "addr:city": "MANCHESTER", "addr:country": "US", "addr:postcode": "03103", "addr:state": "NH", "addr:street_address": "1 SUNDIAL AVE", "amenity": "post_box", "collection_times": "Mo-Fr 16:00; Sa 13:00", "note": "ON 12/24 AND 12/31, THIS BOX MAY BE COLLECTED AS EARLY AS 12 NOON.", "nsi_id": "unitedstatespostalservice-a77078", "operator": "United States Postal Service", "operator:short": "USPS", "operator:type": "public", "operator:wikidata": "Q668687", "ref": "0310300068"}, "type": "Feature"}
{"geometry": {"coordinates": [-71.4385341, 42.929298], "type": "Point"}, "id": "weenRZMRSIx13YGWJsSexoTUQME=", "properties": {"@source_uri": "https://tools.usps.com/UspsToolsRestServices/rest/POLocator/findLocations", "@spider": "usps_collection_boxes", "addr:city": "MANCHESTER", "addr:country": "US", "addr:postcode": "03103", "addr:state": "NH", "addr:street_address": "1 AIRPORT RD", "amenity": "post_box", "collection_times": "Mo-Sa 12:00", "nsi_id": "unitedstatespostalservice-a77078", "operator": "United States Postal Service", "operator:short": "USPS", "operator:type": "public", "operator:wikidata": "Q668687", "ref": "0310300070"}, "type": "Feature"}
{"geometry": {"coordinates": [-71.440441, 42.949219], "type": "Point"}, "id": "qcgTWMJueB_FA8ZKXwgCRGlk-Cc=", "properties": {"@source_uri": "https://tools.usps.com/UspsToolsRestServices/rest/POLocator/findLocations", "@spider": "usps_collection_boxes", "addr:city": "MANCHESTER", "addr:country": "US", "addr:postcode": "03103", "addr:state": "NH", "addr:street_address": "955 GOFFS FALLS RD", "amenity": "post_box", "collection_times": "Mo-Sa 18:00", "note": "ON 12/24 AND 12/31, THIS BOX MAY BE COLLECTED AS EARLY AS 12 NOON.", "nsi_id": "unitedstatespostalservice-a77078", "operator": "United States Postal Service", "operator:short": "USPS", "operator:type": "public", "operator:wikidata": "Q668687", "ref": "0310300071"}, "type": "Feature"}
{"geometry": {"coordinates": [-71.440441, 42.949219], "type": "Point"}, "id": "_MdDZVq_Sdpxdib9xfUG8wcFOxs=", "properties": {"@source_uri": "https://tools.usps.com/UspsToolsRestServices/rest/POLocator/findLocations", "@spider": "usps_collection_boxes", "addr:city": "MANCHESTER", "addr:country": "US", "addr:postcode": "03103", "addr:state": "NH", "addr:street_address": "955 GOFFS FALLS RD", "amenity": "post_box", "collection_times": "Mo-Sa 18:00", "name": "USPS COLLECTION BOX - APC", "note": "ON 12/24 AND 12/31, THIS BOX MAY BE COLLECTED AS EARLY AS 12 NOON.", "nsi_id": "unitedstatespostalservice-a77078", "operator": "United States Postal Service", "operator:short": "USPS", "operator:type": "public", "operator:wikidata": "Q668687", "ref": "0310300075"}, "type": "Feature"}
{"geometry": {"coordinates": [-71.4494833, 42.983164], "type": "Point"}, "id": "CRfReg1jp34V3vimlEn-jikEHC0=", "properties": {"@source_uri": "https://tools.usps.com/UspsToolsRestServices/rest/POLocator/findLocations", "@spider": "usps_collection_boxes", "addr:city": "MANCHESTER", "addr:country": "US", "addr:postcode": "03103", "addr:state": "NH", "addr:street_address": "340 WILSON ST", "amenity": "post_box", "collection_times": "Mo-Fr 15:00; Sa 12:00", "note": "ON 12/24 AND 12/31, THIS BOX MAY BE COLLECTED AS EARLY AS 12 NOON.", "nsi_id": "unitedstatespostalservice-a77078", "operator": "United States Postal Service", "operator:short": "USPS", "operator:type": "public", "operator:wikidata": "Q668687", "ref": "0310300076"}, "type": "Feature"}
{"geometry": {"coordinates": [-71.4433559, 42.984975], "type": "Point"}, "id": "XX7NmCuW7-PAwsiAvV_ku_zatxQ=", "properties": {"@source_uri": "https://tools.usps.com/UspsToolsRestServices/rest/POLocator/findLocations", "@spider": "usps_collection_boxes", "addr:city": "MANCHESTER", "addr:country": "US", "addr:postcode": "03103", "addr:state": "NH", "addr:street_address": "171 MASSABESIC ST", "amenity": "post_box", "collection_times": "Mo-Fr 13:30; Sa 13:00", "note": "ON 12/24 AND 12/31, THIS BOX MAY BE COLLECTED AS EARLY AS 12 NOON.", "nsi_id": "unitedstatespostalservice-a77078", "operator": "United States Postal Service", "operator:short": "USPS", "operator:type": "public", "operator:wikidata": "Q668687", "ref": "0310300077"}, "type": "Feature"}
{"geometry": {"coordinates": [-71.4462478, 42.97304], "type": "Point"}, "id": "ZhPMY-qB2Pkenja8MDhBuSf6qKg=", "properties": {"@source_uri": "https://tools.usps.com/UspsToolsRestServices/rest/POLocator/findLocations", "@spider": "usps_collection_boxes", "addr:city": "MANCHESTER", "addr:country": "US", "addr:postcode": "03103", "addr:state": "NH", "addr:street_address": "415 CILLEY RD", "amenity": "post_box", "collection_times": "Mo-Fr 13:30; Sa 13:00", "note": "ON 12/24 AND 12/31, THIS BOX MAY BE COLLECTED AS EARLY AS 12 NOON.", "nsi_id": "unitedstatespostalservice-a77078", "operator": "United States Postal Service", "operator:short": "USPS", "operator:type": "public", "operator:wikidata": "Q668687", "ref": "0310300080"}, "type": "Feature"}
{"geometry": {"coordinates": [-71.4607379, 42.988451], "type": "Point"}, "id": "Pljk5Gp6pzJiGL2PydFdKmkmMrE=", "properties": {"@source_uri": "https://tools.usps.com/UspsToolsRestServices/rest/POLocator/findLocations", "@spider": "usps_collection_boxes", "addr:city": "MANCHESTER", "addr:country": "US", "addr:postcode": "03103", "addr:state": "NH", "addr:street_address": "300 CHESTNUT ST", "amenity": "post_box", "collection_times": "Mo-Fr 17:15; Sa 13:00", "note": "ON 12/24 AND 12/31, THIS BOX MAY BE COLLECTED AS EARLY AS 12 NOON.", "nsi_id": "unitedstatespostalservice-a77078", "operator": "United States Postal Service", "operator:short": "USPS", "operator:type": "public", "operator:wikidata": "Q668687", "ref": "0310300082"}, "type": "Feature"}
{"geometry": {"coordinates": [-71.440384159, 42.949161272], "type": "Point"}, "id": "I6MNX5MOtYVOlZ9Vd9pIywB6Wm4=", "properties": {"@source_uri": "https://tools.usps.com/UspsToolsRestServices/rest/POLocator/findLocations", "@spider": "usps_collection_boxes", "addr:city": "MANCHESTER", "addr:country": "US", "addr:postcode": "03103", "addr:state": "NH", "addr:street_address": "955 GOFFS FALLS RD UNIT 9998", "amenity": "post_box", "collection_times": "Mo-Sa 18:00", "indoor": "yes", "note": "ON 12/24 AND 12/31, THIS BOX MAY BE COLLECTED AS EARLY AS 12 NOON.", "nsi_id": "unitedstatespostalservice-a77078", "operator": "United States Postal Service", "operator:short": "USPS", "operator:type": "public", "operator:wikidata": "Q668687", "ref": "0310300086"}, "type": "Feature"}
{"geometry": {"coordinates": [-71.4483110287, 42.9911320019], "type": "Point"}, "id": "aDKsWHs9ZWWDnmCv58I8-WEwPh8=", "properties": {"@source_uri": "https://tools.usps.com/UspsToolsRestServices/rest/POLocator/findLocations", "@spider": "usps_collection_boxes", "addr:city": "MANCHESTER", "addr:country": "US", "addr:postcode": "03104", "addr:state": "NH", "addr:street_address": "424 HANOVER ST", "amenity": "post_box", "collection_times": "Mo-Fr 13:30; Sa 13:00", "note": "ON 12/24 AND 12/31, THIS BOX MAY BE COLLECTED AS EARLY AS 12 NOON.", "nsi_id": "unitedstatespostalservice-a77078", "operator": "United States Postal Service", "operator:short": "USPS", "operator:type": "public", "operator:wikidata": "Q668687", "ref": "0310400004"}, "type": "Feature"}
{"geometry": {"coordinates": [-71.4638276, 43.004007], "type": "Point"}, "id": "3j9fCawjxU1czCERzY6YF9YQ6Eo=", "properties": {"@source_uri": "https://tools.usps.com/UspsToolsRestServices/rest/POLocator/findLocations", "@spider": "usps_collection_boxes", "addr:city": "MANCHESTER", "addr:country": "US", "addr:postcode": "03104", "addr:state": "NH", "addr:street_address": "70 BAY ST", "amenity": "post_box", "collection_times": "Mo-Fr 17:15; Sa 13:00", "note": "ON 12/24 AND 12/31, THIS BOX MAY BE COLLECTED AS EARLY AS 12 NOON.", "nsi_id": "unitedstatespostalservice-a77078", "operator": "United States Postal Service", "operator:short": "USPS", "operator:type": "public", "operator:wikidata": "Q668687", "ref": "0310400005"}, "type": "Feature"}
{"geometry": {"coordinates": [-71.455819363, 43.033351691], "type": "Point"}, "id": "O_wIjJHDL-3qDO-cmNc8us9C1I4=", "properties": {"@source_uri": "https://tools.usps.com/UspsToolsRestServices/rest/POLocator/findLocations", "@spider": "usps_collection_boxes", "addr:city": "MANCHESTER", "addr:country": "US", "addr:postcode": "03104", "addr:state": "NH", "addr:street_address": "79 BICENTENNIAL DR", "amenity": "post_box", "collection_times": "Mo-Sa 13:00", "note": "ON 12/24 AND 12/31, THIS BOX MAY BE COLLECTED AS EARLY AS 12 NOON.", "nsi_id": "unitedstatespostalservice-a77078", "operator": "United States Postal Service", "operator:short": "USPS", "operator:type": "public", "operator:wikidata": "Q668687", "ref": "0310400011"}, "type": "Feature"}
{"geometry": {"coordinates": [-71.4545971, 43.000863], "type": "Point"}, "id": "DVMf-uXdC5y1pIsL9ZerCamQZko=", "properties": {"@source_uri": "https://tools.usps.com/UspsToolsRestServices/rest/POLocator/findLocations", "@spider": "usps_collection_boxes", "addr:city": "MANCHESTER", "addr:country": "US", "addr:postcode": "03104", "addr:state": "NH", "addr:street_address": "182 BROOK ST", "amenity": "post_box", "collection_times": "Mo-Sa 12:00", "nsi_id": "unitedstatespostalservice-a77078", "operator": "United States Postal Service", "operator:short": "USPS", "operator:type": "public", "operator:wikidata": "Q668687", "ref": "0310400014"}, "type": "Feature"}
{"geometry": {"coordinates": [-71.4668392, 43.013094], "type": "Point"}, "id": "h7DEzzYNGIqTz6PPxOpJxIjkZr0=", "properties": {"@source_uri": "https://tools.usps.com/UspsToolsRestServices/rest/POLocator/findLocations", "@spider": "usps_collection_boxes", "addr:city": "MANCHESTER", "addr:country": "US", "addr:postcode": "03104", "addr:state": "NH", "addr:street_address": "2264 ELM ST", "amenity": "post_box", "collection_times": "Mo-Fr 14:00; Sa 13:00", "note": "ON 12/24 AND 12/31, THIS BOX MAY BE COLLECTED AS EARLY AS 12 NOON.", "nsi_id": "unitedstatespostalservice-a77078", "operator": "United States Postal Service", "operator:short": "USPS", "operator:type": "public", "operator:wikidata": "Q668687", "ref": "0310400016"}, "type": "Feature"}
{"geometry": {"coordinates": [-71.455940134, 43.008981662], "type": "Point"}, "id": "sBvha8fzPbSWyUpXTUnD7hlrBoM=", "properties": {"@source_uri": "https://tools.usps.com/UspsToolsRestServices/rest/POLocator/findLocations", "@spider": "usps_collection_boxes", "addr:city": "MANCHESTER", "addr:country": "US", "addr:postcode": "03104", "addr:state": "NH", "addr:street_address": "135 HOOKSET RD", "amenity": "post_box", "collection_times": "Mo-Fr 15:00; Sa 13:00", "note": "ON 12/24 AND 12/31, THIS BOX MAY BE COLLECTED AS EARLY AS 12 NOON.", "nsi_id": "unitedstatespostalservice-a77078", "operator": "United States Postal Service", "operator:short": "USPS", "operator:type": "public", "operator:wikidata": "Q668687", "ref": "0310400019"}, "type": "Feature"}
{"geometry": {"coordinates": [-71.4654409, 43.005645], "type": "Point"}, "id": "5xOcrCjpJ_oRVcEaDvaHwegBz5I=", "properties": {"@source_uri": "https://tools.usps.com/UspsToolsRestServices/rest/POLocator/findLocations", "@spider": "usps_collection_boxes", "addr:city": "MANCHESTER", "addr:country": "US", "addr:postcode": "03104", "addr:state": "NH", "addr:street_address": "1850 ELM ST", "amenity": "post_box", "collection_times": "Mo-Fr 16:45; Sa 13:00", "note": "ON 12/24 AND 12/31, THIS BOX MAY BE COLLECTED AS EARLY AS 12 NOON.", "nsi_id": "unitedstatespostalservice-a77078", "operator": "United States Postal Service", "operator:short": "USPS", "operator:type": "public", "operator:wikidata": "Q668687", "ref": "0310400023"}, "type": "Feature"}
{"geometry": {"coordinates": [-71.4279504, 42.98546], "type": "Point"}, "id": "q_DuLKIHiKoJstFFpEQZ3Qqg5nA=", "properties": {"@source_uri": "https://tools.usps.com/UspsToolsRestServices/rest/POLocator/findLocations", "@spider": "usps_collection_boxes", "addr:city": "MANCHESTER", "addr:country": "US", "addr:postcode": "03104", "addr:state": "NH", "addr:street_address": "861 HANOVER ST", "amenity": "post_box", "collection_times": "Mo-Fr 15:30; Sa 13:00", "note": "ON 12/24 AND 12/31, THIS BOX MAY BE COLLECTED AS EARLY AS 12 NOON.", "nsi_id": "unitedstatespostalservice-a77078", "operator": "United States Postal Service", "operator:short": "USPS", "operator:type": "public", "operator:wikidata": "Q668687", "ref": "0310400028"}, "type": "Feature"}
{"geometry": {"coordinates": [-71.4291274, 42.987176], "type": "Point"}, "id": "iJZ77CPtWVR0pGoIRhhXEqwZaBo=", "properties": {"@source_uri": "https://tools.usps.com/UspsToolsRestServices/rest/POLocator/findLocations", "@spider": "usps_collection_boxes", "addr:city": "MANCHESTER", "addr:country": "US", "addr:postcode": "03104", "addr:state": "NH", "addr:street_address": "835 HANOVER ST", "amenity": "post_box", "collection_times": "Mo-Fr 15:30; Sa 13:00", "note": "ON 12/24 AND 12/31, THIS BOX MAY BE COLLECTED AS EARLY AS 12 NOON.", "nsi_id": "unitedstatespostalservice-a77078", "operator": "United States Postal Service", "operator:short": "USPS", "operator:type": "public", "operator:wikidata": "Q668687", "ref": "0310400030"}, "type": "Feature"}
{"geometry": {"coordinates": [-71.4406299, 43.012154], "type": "Point"}, "id": "AuIpDioIrTItJs3u6b_ah4De0Wc=", "properties": {"@source_uri": "https://tools.usps.com/UspsToolsRestServices/rest/POLocator/findLocations", "@spider": "usps_collection_boxes", "addr:city": "MANCHESTER", "addr:country": "US", "addr:postcode": "03104", "addr:state": "NH", "addr:street_address": "718 SMYTH RD", "amenity": "post_box", "collection_times": "Mo-Fr 14:30", "note": "ON 12/24 AND 12/31, THIS BOX MAY BE COLLECTED AS EARLY AS 12 NOON.", "nsi_id": "unitedstatespostalservice-a77078", "operator": "United States Postal Service", "operator:short": "USPS", "operator:type": "public", "operator:wikidata": "Q668687", "ref": "0310400039"}, "type": "Feature"}
{"geometry": {"coordinates": [-71.4632247, 43.007384], "type": "Point"}, "id": "ZmNx3JuxSGwX65HWW5UH6dLOxjw=", "properties": {"@source_uri": "https://tools.usps.com/UspsToolsRestServices/rest/POLocator/findLocations", "@spider": "usps_collection_boxes", "addr:city": "MANCHESTER", "addr:country": "US", "addr:postcode": "03104", "addr:state": "NH", "addr:street_address": "815 CHESTNUT ST", "amenity": "post_box", "collection_times": "Mo-Fr 14:00; Sa 13:00", "note": "ON 12/24 AND 12/31, THIS BOX MAY BE COLLECTED AS EARLY AS 12 NOON.", "nsi_id": "unitedstatespostalservice-a77078", "operator": "United States Postal Service", "operator:short": "USPS", "operator:type": "public", "operator:wikidata": "Q668687", "ref": "0310400043"}, "type": "Feature"}
{"geometry": {"coordinates": [-71.4665383, 43.003727], "type": "Point"}, "id": "m0sVIvYJFkzt2T5VP4PjMA1l7hk=", "properties": {"@source_uri": "https://tools.usps.com/UspsToolsRestServices/rest/POLocator/findLocations", "@spider": "usps_collection_boxes", "addr:city": "MANCHESTER", "addr:country": "US", "addr:postcode": "03104", "addr:state": "NH", "addr:street_address": "100 NORTH ST", "amenity": "post_box", "collection_times": "Mo-Fr 16:45; Sa 13:00", "note": "ON 12/24 AND 12/31, THIS BOX MAY BE COLLECTED AS EARLY AS 12 NOON.", "nsi_id": "unitedstatespostalservice-a77078", "operator": "United States Postal Service", "operator:short": "USPS", "operator:type": "public", "operator:wikidata": "Q668687", "ref": "0310400045"}, "type": "Feature"}
{"geometry": {"coordinates": [-71.4232761, 43.003398], "type": "Point"}, "id": "AgmaJgtoe4T2fD0E11ftTUGqJuA=", "properties": {"@source_uri": "https://tools.usps.com/UspsToolsRestServices/rest/POLocator/findLocations", "@spider": "usps_collection_boxes", "addr:city": "MANCHESTER", "addr:country": "US", "addr:postcode": "03104", "addr:state": "NH", "addr:street_address": "50 EDWARD J ROY DR", "amenity": "post_box", "collection_times": "Mo-Sa 13:00", "note": "ON 12/24 AND 12/31, THIS BOX MAY BE COLLECTED AS EARLY AS 12 NOON.", "nsi_id": "unitedstatespostalservice-a77078", "operator": "United States Postal Service", "operator:short": "USPS", "operator:type": "public", "operator:wikidata": "Q668687", "ref": "0310400048"}, "type": "Feature"}
{"geometry": {"coordinates": [-71.4616774, 42.990934], "type": "Point"}, "id": "Jxac2VGZb2RLWiKitDVuBkNbstQ=", "properties": {"@source_uri": "https://tools.usps.com/UspsToolsRestServices/rest/POLocator/findLocations", "@spider": "usps_collection_boxes", "addr:city": "MANCHESTER", "addr:country": "US", "addr:postcode": "03104", "addr:state": "NH", "addr:street_address": "66 HANOVER ST", "amenity": "post_box", "collection_times": "Mo-Fr 17:15; Sa 13:00", "note": "ON 12/24 AND 12/31, THIS BOX MAY BE COLLECTED AS EARLY AS 12 NOON.", "nsi_id": "unitedstatespostalservice-a77078", "operator": "United States Postal Service", "operator:short": "USPS", "operator:type": "public", "operator:wikidata": "Q668687", "ref": "0310400051"}, "type": "Feature"}
{"geometry": {"coordinates": [-71.438019641, 43.029104897], "type": "Point"}, "id": "oacYH1zV5wtvSaEKe7EJrkX3G9Q=", "properties": {"@source_uri": "https://tools.usps.com/UspsToolsRestServices/rest/POLocator/findLocations", "@spider": "usps_collection_boxes", "addr:city": "HOOKSETT", "addr:country": "US", "addr:postcode": "03106", "addr:state": "NH", "addr:street_address": "1106 HOOKSETT RD", "amenity": "post_box", "collection_times": "Mo-Sa 11:00", "nsi_id": "unitedstatespostalservice-a77078", "operator": "United States Postal Service", "operator:short": "USPS", "operator:type": "public", "operator:wikidata": "Q668687", "ref": "0310600016"}, "type": "Feature"}
{"geometry": {"coordinates": [-71.4427199, 43.053328], "type": "Point"}, "id": "0vg49W5LvxcgIt3zpv8rqcU6INo=", "properties": {"@source_uri": "https://tools.usps.com/UspsToolsRestServices/rest/POLocator/findLocations", "@spider": "usps_collection_boxes", "addr:city": "HOOKSETT", "addr:country": "US", "addr:postcode": "03106", "addr:state": "NH", "addr:street_address": "1328 HOOKSETT RD", "amenity": "post_box", "collection_times": "Mo-Fr 17:00; Sa 15:00", "note": "ON 12/24 AND 12/31, THIS BOX MAY BE COLLECTED AS EARLY AS 12 NOON.", "nsi_id": "unitedstatespostalservice-a77078", "operator": "United States Postal Service", "operator:short": "USPS", "operator:type": "public", "operator:wikidata": "Q668687", "ref": "0310600018"}, "type": "Feature"}
{"geometry": {"coordinates": [-71.440911, 43.05619], "type": "Point"}, "id": "lJ_wDTMhHULf8YiR7PsKnxEvJzs=", "properties": {"@source_uri": "https://tools.usps.com/UspsToolsRestServices/rest/POLocator/findLocations", "@spider": "usps_collection_boxes", "addr:city": "HOOKSETT", "addr:country": "US", "addr:postcode": "03106", "addr:state": "NH", "addr:street_address": "1328 HOOKSETT RD", "amenity": "post_box", "collection_times": "Mo-Fr 17:00; Sa 15:00", "indoor": "yes", "note": "ON 12/24 AND 12/31, THIS BOX MAY BE COLLECTED AS EARLY AS 12 NOON.", "nsi_id": "unitedstatespostalservice-a77078", "operator": "United States Postal Service", "operator:short": "USPS", "operator:type": "public", "operator:wikidata": "Q668687", "ref": "0310600019"}, "type": "Feature"}
{"geometry": {"coordinates": [-71.458060073, 43.077287171], "type": "Point"}, "id": "wgraQEzseo4Yxn7pzYmJEjDMkf4=", "properties": {"@source_uri": "https://tools.usps.com/UspsToolsRestServices/rest/POLocator/findLocations", "@spider": "usps_collection_boxes", "addr:city": "HOOKSETT", "addr:country": "US", "addr:postcode": "03106", "addr:state": "NH", "addr:street_address": "1558 HOOKSETT RD", "amenity": "post_box", "collection_times": "Mo-Sa 10:00", "nsi_id": "unitedstatespostalservice-a77078", "operator": "United States Postal Service", "operator:short": "USPS", "operator:type": "public", "operator:wikidata": "Q668687", "ref": "0310600021"}, "type": "Feature"}
{"geometry": {"coordinates": [-71.4643067628, 43.0965494327], "type": "Point"}, "id": "2yiUh2qJ5uiPuV0_Z0dSQPAJzFo=", "properties": {"@source_uri": "https://tools.usps.com/UspsToolsRestServices/rest/POLocator/findLocations", "@spider": "usps_collection_boxes", "addr:city": "HOOKSETT", "addr:country": "US", "addr:postcode": "03106", "addr:state": "NH", "addr:street_address": "9 RIVERSIDE ST", "amenity": "post_box", "collection_times": "Mo-Sa 10:00", "nsi_id": "unitedstatespostalservice-a77078", "operator": "United States Postal Service", "operator:short": "USPS", "operator:type": "public", "operator:wikidata": "Q668687", "ref": "0310600023"}, "type": "Feature"}
{"geometry": {"coordinates": [-71.440800359, 43.056211799], "type": "Point"}, "id": "FqxJ9Vncvcop0eufr03YG65Mnbg=", "properties": {"@source_uri": "https://tools.usps.com/UspsToolsRestServices/rest/POLocator/findLocations", "@spider": "usps_collection_boxes", "addr:city": "HOOKSETT", "addr:country": "US", "addr:postcode": "03106", "addr:state": "NH", "addr:street_address": "1328 HOOKSETT RD STE 45", "amenity": "post_box", "collection_times": "Mo-Fr 17:00; Sa 13:00", "indoor": "yes", "note": "ON 12/24 AND 12/31, THIS BOX MAY BE COLLECTED AS EARLY AS 12 NOON.", "nsi_id": "unitedstatespostalservice-a77078", "operator": "United States Postal Service", "operator:short": "USPS", "operator:type": "public", "operator:wikidata": "Q668687", "ref": "0310600026"}, "type": "Feature"}
{"geometry": {"coordinates": [-71.4260049, 42.980861], "type": "Point"}, "id": "hJBrZVzMRLe4OYSH8hZ7jv_r9tU=", "properties": {"@source_uri": "https://tools.usps.com/UspsToolsRestServices/rest/POLocator/findLocations", "@spider": "usps_collection_boxes", "addr:city": "MANCHESTER", "addr:country": "US", "addr:postcode": "03109", "addr:state": "NH", "addr:street_address": "241 CANDIA RD", "amenity": "post_box", "collection_times": "Mo-Fr 15:00; Sa 13:00", "note": "ON 12/24 AND 12/31, THIS BOX MAY BE COLLECTED AS EARLY AS 12 NOON.", "nsi_id": "unitedstatespostalservice-a77078", "operator": "United States Postal Service", "operator:short": "USPS", "operator:type": "public", "operator:wikidata": "Q668687", "ref": "0310900001"}, "type": "Feature"}
{"geometry": {"coordinates": [-71.4082394, 42.98131], "type": "Point"}, "id": "hAncJf9DQ2OZ2dDOYy0NYyNMshw=", "properties": {"@source_uri": "https://tools.usps.com/UspsToolsRestServices/rest/POLocator/findLocations", "@spider": "usps_collection_boxes", "addr:city": "MANCHESTER", "addr:country": "US", "addr:postcode": "03109", "addr:state": "NH", "addr:street_address": "735 EAST INDUSTRIAL PARK DR", "amenity": "post_box", "collection_times": "Mo-Fr 16:30; Sa 13:00", "note": "ON 12/24 AND 12/31, THIS BOX MAY BE COLLECTED AS EARLY AS 12 NOON.", "nsi_id": "unitedstatespostalservice-a77078", "operator": "United States Postal Service", "operator:short": "USPS", "operator:type": "public", "operator:wikidata": "Q668687", "ref": "0310900004"}, "type": "Feature"}
{"geometry": {"coordinates": [-71.4108855, 42.97098], "type": "Point"}, "id": "4e8WaVAXaM94g7AFReQJDMh4zAY=", "properties": {"@source_uri": "https://tools.usps.com/UspsToolsRestServices/rest/POLocator/findLocations", "@spider": "usps_collection_boxes", "addr:city": "MANCHESTER", "addr:country": "US", "addr:postcode": "03109", "addr:state": "NH", "addr:street_address": "676 ISLAND POND RD", "amenity": "post_box", "collection_times": "Mo-Fr 16:30; Sa 13:00", "note": "ON 12/24 AND 12/31, THIS BOX MAY BE COLLECTED AS EARLY AS 12 NOON.", "nsi_id": "unitedstatespostalservice-a77078", "operator": "United States Postal Service", "operator:short": "USPS", "operator:type": "public", "operator:wikidata": "Q668687", "ref": "0310900008"}, "type": "Feature"}
{"geometry": {"coordinates": [-71.4742077, 42.947425], "type": "Point"}, "id": "vgbT7soshqzr056zacMx4mk1EIY=", "properties": {"@source_uri": "https://tools.usps.com/UspsToolsRestServices/rest/POLocator/findLocations", "@spider": "usps_collection_boxes", "addr:city": "BEDFORD", "addr:country": "US", "addr:postcode": "03110", "addr:state": "NH", "addr:street_address": "2 EXECUTIVE PARK DR", "amenity": "post_box", "collection_times": "Mo-Fr 17:15; Sa 13:00", "note": "ON 12/24 AND 12/31, THIS BOX MAY BE COLLECTED AS EARLY AS 12 NOON.", "nsi_id": "unitedstatespostalservice-a77078", "operator": "United States Postal Service", "operator:short": "USPS", "operator:type": "public", "operator:wikidata": "Q668687", "ref": "0311000006"}, "type": "Feature"}
{"geometry": {"coordinates": [-71.4805094, 42.95568], "type": "Point"}, "id": "qdzhYLvucqcwyosaDh-xTGSwFc4=", "properties": {"@source_uri": "https://tools.usps.com/UspsToolsRestServices/rest/POLocator/findLocations", "@spider": "usps_collection_boxes", "addr:city": "BEDFORD", "addr:country": "US", "addr:postcode": "03110", "addr:state": "NH", "addr:street_address": "1 BEDFORD FARMS DR", "amenity": "post_box", "collection_times": "Mo-Fr 17:00; Sa 13:00", "note": "ON 12/24 AND 12/31, THIS BOX MAY BE COLLECTED AS EARLY AS 12 NOON.", "nsi_id": "unitedstatespostalservice-a77078", "operator": "United States Postal Service", "operator:short": "USPS", "operator:type": "public", "operator:wikidata": "Q668687", "ref": "0311000011"}, "type": "Feature"}
{"geometry": {"coordinates": [-71.525474997, 42.939554003], "type": "Point"}, "id": "lVlZHPel96GZ5VL0CiFbTAe0sbs=", "properties": {"@source_uri": "https://tools.usps.com/UspsToolsRestServices/rest/POLocator/findLocations", "@spider": "usps_collection_boxes", "addr:city": "BEDFORD", "addr:country": "US", "addr:postcode": "03110", "addr:state": "NH", "addr:street_address": "209 STATE ROUTE 101", "amenity": "post_box", "collection_times": "Mo-Fr 17:00; Sa 13:00", "note": "ON 12/24 AND 12/31, THIS BOX MAY BE COLLECTED AS EARLY AS 12 NOON.", "nsi_id": "unitedstatespostalservice-a77078", "operator": "United States Postal Service", "operator:short": "USPS", "operator:type": "public", "operator:wikidata": "Q668687", "ref": "0311000018"}, "type": "Feature"}
{"geometry": {"coordinates": [-71.4764563, 42.947854], "type": "Point"}, "id": "nxM_GZqA3rdyxPJOVTwO9xuNFq0=", "properties": {"@source_uri": "https://tools.usps.com/UspsToolsRestServices/rest/POLocator/findLocations", "@spider": "usps_collection_boxes", "addr:city": "BEDFORD", "addr:country": "US", "addr:postcode": "03110", "addr:state": "NH", "addr:street_address": "169 S RIVER RD", "amenity": "post_box", "collection_times": "Mo-Fr 17:15; Sa 13:00", "note": "ON 12/24 AND 12/31, THIS BOX MAY BE COLLECTED AS EARLY AS 12 NOON.", "nsi_id": "unitedstatespostalservice-a77078", "operator": "United States Postal Service", "operator:short": "USPS", "operator:type": "public", "operator:wikidata": "Q668687", "ref": "0311000025"}, "type": "Feature"}
{"geometry": {"coordinates": [-71.4791747, 42.964161], "type": "Point"}, "id": "W68Ch_HUJjwwwN38DNJpXrHJXak=", "properties": {"@source_uri": "https://tools.usps.com/UspsToolsRestServices/rest/POLocator/findLocations", "@spider": "usps_collection_boxes", "addr:city": "BEDFORD", "addr:country": "US", "addr:postcode": "03110", "addr:state": "NH", "addr:street_address": "25 S RIVER RD", "amenity": "post_box", "collection_times": "Mo-Fr 17:30; Sa 13:00", "note": "ON 12/24 AND 12/31, THIS BOX MAY BE COLLECTED AS EARLY AS 12 NOON.", "nsi_id": "unitedstatespostalservice-a77078", "operator": "United States Postal Service", "operator:short": "USPS", "operator:type": "public", "operator:wikidata": "Q668687", "ref": "0311000029"}, "type": "Feature"}
{"geometry": {"coordinates": [-71.4815929, 42.961775], "type": "Point"}, "id": "mK0Y4jsuLMQXUZlObwL0mtJwEs8=", "properties": {"@source_uri": "https://tools.usps.com/UspsToolsRestServices/rest/POLocator/findLocations", "@spider": "usps_collection_boxes", "addr:city": "BEDFORD", "addr:country": "US", "addr:postcode": "03110", "addr:state": "NH", "addr:street_address": "40 S RIVER RD", "amenity": "post_box", "collection_times": "Mo-Fr 16:30; Sa 13:00", "note": "ON 12/24 AND 12/31, THIS BOX MAY BE COLLECTED AS EARLY AS 12 NOON.", "nsi_id": "unitedstatespostalservice-a77078", "operator": "United States Postal Service", "operator:short": "USPS", "operator:type": "public", "operator:wikidata": "Q668687", "ref": "0311000030"}, "type": "Feature"}
{"geometry": {"coordinates": [-71.4936761, 42.964948], "type": "Point"}, "id": "NZjXD9Jip2z9FaubZ0TP5VmoM-U=", "properties": {"@source_uri": "https://tools.usps.com/UspsToolsRestServices/rest/POLocator/findLocations", "@spider": "usps_collection_boxes", "addr:city": "BEDFORD", "addr:country": "US", "addr:postcode": "03110", "addr:state": "NH", "addr:street_address": "399 BOYNTON ST", "amenity": "post_box", "collection_times": "Mo-Sa 13:00", "note": "ON 12/24 AND 12/31, THIS BOX MAY BE COLLECTED AS EARLY AS 12 NOON.", "nsi_id": "unitedstatespostalservice-a77078", "operator": "United States Postal Service", "operator:short": "USPS", "operator:type": "public", "operator:wikidata": "Q668687", "ref": "0311000036"}, "type": "Feature"}
{"geometry": {"coordinates": [-71.4620294, 42.928856], "type": "Point"}, "id": "johiGg0BfQy0bUpw_bSPmQBpkzM=", "properties": {"@source_uri": "https://tools.usps.com/UspsToolsRestServices/rest/POLocator/findLocations", "@spider": "usps_collection_boxes", "addr:city": "BEDFORD", "addr:country": "US", "addr:postcode": "03110", "addr:state": "NH", "addr:street_address": "2 COMMERCE DR", "amenity": "post_box", "collection_times": "Mo-Sa 09:00", "nsi_id": "unitedstatespostalservice-a77078", "operator": "United States Postal Service", "operator:short": "USPS", "operator:type": "public", "operator:wikidata": "Q668687", "ref": "0311000037"}, "type": "Feature"}
{"geometry": {"coordinates": [-71.5052704, 42.956814], "type": "Point"}, "id": "Q-E7F2zcZNYe9dyiODZyXzPBNwE=", "properties": {"@source_uri": "https://tools.usps.com/UspsToolsRestServices/rest/POLocator/findLocations", "@spider": "usps_collection_boxes", "addr:city": "BEDFORD", "addr:country": "US", "addr:postcode": "03110", "addr:state": "NH", "addr:street_address": "48 CONSTITUTION DR", "amenity": "post_box", "collection_times": "Mo-Fr 16:30; Sa 13:00", "note": "ON 12/24 AND 12/31, THIS BOX MAY BE COLLECTED AS EARLY AS 12 NOON.", "nsi_id": "unitedstatespostalservice-a77078", "operator": "United States Postal Service", "operator:short": "USPS", "operator:type": "public", "operator:wikidata": "Q668687", "ref": "0311000039"}, "type": "Feature"}
{"geometry": {"coordinates": [-71.478117, 42.965962], "type": "Point"}, "id": "HkWOJR9TiBgkKNNlmEyUW93i9V8=", "properties": {"@source_uri": "https://tools.usps.com/UspsToolsRestServices/rest/POLocator/findLocations", "@spider": "usps_collection_boxes", "addr:city": "BEDFORD", "addr:country": "US", "addr:postcode": "03110", "addr:state": "NH", "addr:street_address": "22 EASTMAN AVE", "amenity": "post_box", "collection_times": "Mo-Sa 13:00", "note": "ON 12/24 AND 12/31, THIS BOX MAY BE COLLECTED AS EARLY AS 12 NOON.", "nsi_id": "unitedstatespostalservice-a77078", "operator": "United States Postal Service", "operator:short": "USPS", "operator:type": "public", "operator:wikidata": "Q668687", "ref": "0311000042"}, "type": "Feature"}
{"geometry": {"coordinates": [-71.4831781, 42.961996], "type": "Point"}, "id": "6We8xRdbLwz1BuN1aJRXROZWl18=", "properties": {"@source_uri": "https://tools.usps.com/UspsToolsRestServices/rest/POLocator/findLocations", "@spider": "usps_collection_boxes", "addr:city": "BEDFORD", "addr:country": "US", "addr:postcode": "03110", "addr:state": "NH", "addr:street_address": "80 PALOMINO LN", "amenity": "post_box", "collection_times": "Mo-Fr 16:30; Sa 13:00", "note": "ON 12/24 AND 12/31, THIS BOX MAY BE COLLECTED AS EARLY AS 12 NOON.", "nsi_id": "unitedstatespostalservice-a77078", "operator": "United States Postal Service", "operator:short": "USPS", "operator:type": "public", "operator:wikidata": "Q668687", "ref": "0311000045"}, "type": "Feature"}
{"geometry": {"coordinates": [-71.4618194, 42.932157], "type": "Point"}, "id": "8aHAp2rNO2AfD9ZWBknTVhuckNs=", "properties": {"@source_uri": "https://tools.usps.com/UspsToolsRestServices/rest/POLocator/findLocations", "@spider": "usps_collection_boxes", "addr:city": "BEDFORD", "addr:country": "US", "addr:postcode": "03110", "addr:state": "NH", "addr:street_address": "10 COMMERCE PARK NORTH", "amenity": "post_box", "collection_times": "Mo-Sa 09:00", "nsi_id": "unitedstatespostalservice-a77078", "operator": "United States Postal Service", "operator:short": "USPS", "operator:type": "public", "operator:wikidata": "Q668687", "ref": "0311000047"}, "type": "Feature"}
{"geometry": {"coordinates": [-71.5200362, 42.94076], "type": "Point"}, "id": "5S6b32c7EpXVqX-7qgFBIXtedVI=", "properties": {"@source_uri": "https://tools.usps.com/UspsToolsRestServices/rest/POLocator/findLocations", "@spider": "usps_collection_boxes", "addr:city": "BEDFORD", "addr:country": "US", "addr:postcode": "03110", "addr:state": "NH", "addr:street_address": "172 STATE ROUTE 101", "amenity": "post_box", "collection_times": "Mo-Fr 16:30; Sa 13:00", "note": "ON 12/24 AND 12/31, THIS BOX MAY BE COLLECTED AS EARLY AS 12 NOON.", "nsi_id": "unitedstatespostalservice-a77078", "operator": "United States Postal Service", "operator:short": "USPS", "operator:type": "public", "operator:wikidata": "Q668687", "ref": "0311000049"}, "type": "Feature"}
{"geometry": {"coordinates": [-71.5386468, 42.920944], "type": "Point"}, "id": "Fzd6DJJge2YFFv5tpB_zuVO8cDE=", "properties": {"@source_uri": "https://tools.usps.com/UspsToolsRestServices/rest/POLocator/findLocations", "@spider": "usps_collection_boxes", "addr:city": "BEDFORD", "addr:country": "US", "addr:postcode": "03110", "addr:state": "NH", "addr:street_address": "360 STATE ROUTE 101", "amenity": "post_box", "collection_times": "Mo-Fr 16:00; Sa 13:00", "note": "ON 12/24 AND 12/31, THIS BOX MAY BE COLLECTED AS EARLY AS 12 NOON.", "nsi_id": "unitedstatespostalservice-a77078", "operator": "United States Postal Service", "operator:short": "USPS", "operator:type": "public", "operator:wikidata": "Q668687", "ref": "0311000050"}, "type": "Feature"}
{"geometry": {"coordinates": [-71.4788876, 42.963449], "type": "Point"}, "id": "EwE4v9RsNJNA7hdHjHHcqRDTKes=", "properties": {"@source_uri": "https://tools.usps.com/UspsToolsRestServices/rest/POLocator/findLocations", "@spider": "usps_collection_boxes", "addr:city": "BEDFORD", "addr:country": "US", "addr:postcode": "03110", "addr:state": "NH", "addr:street_address": "25 S RIVER RD", "amenity": "post_box", "collection_times": "Mo-Fr 17:00; Sa 14:00", "indoor": "yes", "note": "ON 12/24 AND 12/31, THIS BOX MAY BE COLLECTED AS EARLY AS 12 NOON.", "nsi_id": "unitedstatespostalservice-a77078", "operator": "United States Postal Service", "operator:short": "USPS", "operator:type": "public", "operator:wikidata": "Q668687", "ref": "0311000052"}, "type": "Feature"}
{"geometry": {"coordinates": [-71.4791593, 42.954823], "type": "Point"}, "id": "6GlSjT3CtTThkNDce1YLS42pxgs=", "properties": {"@source_uri": "https://tools.usps.com/UspsToolsRestServices/rest/POLocator/findLocations", "@spider": "usps_collection_boxes", "addr:city": "BEDFORD", "addr:country": "US", "addr:postcode": "03110", "addr:state": "NH", "addr:street_address": "116 S RIVER RD", "amenity": "post_box", "collection_times": "Mo-Fr 17:00; Sa 13:00", "note": "ON 12/24 AND 12/31, THIS BOX MAY BE COLLECTED AS EARLY AS 12 NOON.", "nsi_id": "unitedstatespostalservice-a77078", "operator": "United States Postal Service", "operator:short": "USPS", "operator:type": "public", "operator:wikidata": "Q668687", "ref": "0311000059"}, "type": "Feature"}
{"geometry": {"coordinates": [-71.4652169, 42.928767], "type": "Point"}, "id": "0yZaNFCtArgX6lEnmRSxfjqMFEQ=", "properties": {"@source_uri": "https://tools.usps.com/UspsToolsRestServices/rest/POLocator/findLocations", "@spider": "usps_collection_boxes", "addr:city": "BEDFORD", "addr:country": "US", "addr:postcode": "03110", "addr:state": "NH", "addr:street_address": "17 COMMERCE DR", "amenity": "post_box", "collection_times": "Mo-Sa 09:00", "nsi_id": "unitedstatespostalservice-a77078", "operator": "United States Postal Service", "operator:short": "USPS", "operator:type": "public", "operator:wikidata": "Q668687", "ref": "0311000062"}, "type": "Feature"}
{"geometry": {"coordinates": [-71.480166943, 42.963052353], "type": "Point"}, "id": "EZMiaj7AsXMxjuiLnieGLamalgw=", "properties": {"@source_uri": "https://tools.usps.com/UspsToolsRestServices/rest/POLocator/findLocations", "@spider": "usps_collection_boxes", "addr:city": "BEDFORD", "addr:country": "US", "addr:postcode": "03110", "addr:state": "NH", "addr:street_address": "25 S RIVER RD STE 110", "amenity": "post_box", "collection_times": "Mo-Fr 17:00", "indoor": "yes", "note": "ON 12/24 AND 12/31, THIS BOX MAY BE COLLECTED AS EARLY AS 12 NOON.", "nsi_id": "unitedstatespostalservice-a77078", "operator": "United States Postal Service", "operator:short": "USPS", "operator:type": "public", "operator:wikidata": "Q668687", "ref": "0311000067"}, "type": "Feature"}
{"geometry": {"coordinates": [-71.520128, 42.941331], "type": "Point"}, "id": "euuuj_ObF4BdY3tOjLHQxbxOl-A=", "properties": {"@source_uri": "https://tools.usps.com/UspsToolsRestServices/rest/POLocator/findLocations", "@spider": "usps_collection_boxes", "addr:city": "BEDFORD", "addr:country": "US", "addr:postcode": "03110", "addr:state": "NH", "addr:street_address": "7 KILTON RD", "amenity": "post_box", "collection_times": "Mo-Sa 13:00", "note": "ON 12/24 AND 12/31, THIS BOX MAY BE COLLECTED AS EARLY AS 12 NOON.", "nsi_id": "unitedstatespostalservice-a77078", "operator": "United States Postal Service", "operator:short": "USPS", "operator:type": "public", "operator:wikidata": "Q668687", "ref": "0311000070"}, "type": "Feature"}
