{"geometry": {"coordinates": [-71.280518, 43.33861], "type": "Point"}, "id": "cgX5BhULj5mG1Wzddt4m4-7r0_k=", "properties": {"@spider": "usps_collection_boxes", "addr:city": "BARNSTEAD", "addr:country": "US", "addr:full": "335 PARADE RD", "addr:postcode": "03218", "addr:state": "NH", "brand": "USPS", "collection_times": "Mo-Fr 12:45; Sa 12:15", "name": "USPS COLLECTION BOX - BLUE BOX", "note": "ON 12/24 AND 12/31, THIS BOX MAY BE COLLECTED AS EARLY AS 12 NOON.", "ref": "0321800001"}, "type": "Feature"}
{"geometry": {"coordinates": [-71.280511, 43.33865], "type": "Point"}, "id": "a5xGADTf2aW1xzRIrsOMNonCUfU=", "properties": {"@spider": "usps_collection_boxes", "addr:city": "BARNSTEAD", "addr:country": "US", "addr:full": "335 PARADE RD", "addr:postcode": "03218", "addr:state": "NH", "brand": "USPS", "collection_times": "Mo-Fr 12:45; Sa 12:15", "name": "USPS COLLECTION BOX - PO LOBBY", "note": "ON 12/24 AND 12/31, THIS BOX MAY BE COLLECTED AS EARLY AS 12 NOON.", "ref": "0321800002"}, "type": "Feature"}
{"geometry": {"coordinates": [-71.293161529, 43.333811098], "type": "Point"}, "id": "_LKMyALv46lBq7ALJiLAcrDioFE=", "properties": {"@spider": "usps_collection_boxes", "addr:city": "BARNSTEAD", "addr:country": "US", "addr:full": "335 PARADE RD", "addr:postcode": "03218", "addr:state": "NH", "brand": "USPS", "collection_times": "Mo-Fr 13:00; Sa 12:30", "name": "USPS COLLECTION BOX - PO LOBBY", "note": "ON 12/24 AND 12/31, THIS BOX MAY BE COLLECTED AS EARLY AS 12 NOON.", "ref": "0321800003"}, "type": "Feature"}
{"geometry": {"coordinates": [-71.471586, 43.432913], "type": "Point"}, "id": "TqMuydXzNHzvk7hyIFPEnLcTygc=", "properties": {"@spider": "usps_collection_boxes", "addr:city": "BELMONT", "addr:country": "US", "addr:full": "24 POST OFFICE RD", "addr:postcode": "03220", "addr:state": "NH", "brand": "USPS", "collection_times": "Mo-Fr 16:45; Sa 12:00", "name": "USPS COLLECTION BOX - BLUE BOX", "note": "ON 12/24 AND 12/31, THIS BOX MAY BE COLLECTED AS EARLY AS 12 NOON.", "ref": "0322000002"}, "type": "Feature"}
{"geometry": {"coordinates": [-71.4828741, 43.443152], "type": "Point"}, "id": "hhqG2gtATUkNXmtBpSr1FUNugW8=", "properties": {"@spider": "usps_collection_boxes", "addr:city": "BELMONT", "addr:country": "US", "addr:full": "10 MILL ST", "addr:postcode": "03220", "addr:state": "NH", "brand": "USPS", "collection_times": "Mo-Sa 10:00", "name": "USPS COLLECTION BOX - BLUE BOX", "ref": "0322000003"}, "type": "Feature"}
{"geometry": {"coordinates": [-71.471574, 43.432938], "type": "Point"}, "id": "cCxDLyVN8fGeay_9Zwg0HNnIwY4=", "properties": {"@spider": "usps_collection_boxes", "addr:city": "BELMONT", "addr:country": "US", "addr:full": "24 POST OFFICE RD", "addr:postcode": "03220", "addr:state": "NH", "brand": "USPS", "collection_times": "Mo-Fr 16:45; Sa 12:00", "name": "USPS COLLECTION BOX - PO LOBBY", "note": "ON 12/24 AND 12/31, THIS BOX MAY BE COLLECTED AS EARLY AS 12 NOON.", "ref": "0322000005"}, "type": "Feature"}
{"geometry": {"coordinates": [-71.471016669, 43.432772922], "type": "Point"}, "id": "5xqG8F8uGp3GLjKR7lkkxP9Leeg=", "properties": {"@spider": "usps_collection_boxes", "addr:city": "BELMONT", "addr:country": "US", "addr:full": "24 POST OFFICE RD", "addr:postcode": "03220", "addr:state": "NH", "brand": "USPS", "collection_times": "Mo-Fr 17:00; Sa 12:00", "name": "USPS COLLECTION BOX - PO LOBBY", "note": "ON 12/24 AND 12/31, THIS BOX MAY BE COLLECTED AS EARLY AS 12 NOON.", "ref": "0322000007"}, "type": "Feature"}
{"geometry": {"coordinates": [-71.574055, 43.338341], "type": "Point"}, "id": "CCYFYndy2-S15n2W8hjatpkt_6I=", "properties": {"@spider": "usps_collection_boxes", "addr:city": "CANTERBURY", "addr:country": "US", "addr:full": "1 CENTER RD", "addr:postcode": "03224", "addr:state": "NH", "brand": "USPS", "collection_times": "Mo-Fr 16:45; Sa 12:15", "name": "USPS COLLECTION BOX - BLUE BOX", "note": "ON 12/24 AND 12/31, THIS BOX MAY BE COLLECTED AS EARLY AS 12 NOON.", "ref": "0322400001"}, "type": "Feature"}
{"geometry": {"coordinates": [-71.564557533, 43.337037872], "type": "Point"}, "id": "4-SMZDQ-BfxjjBTJU_nr0WIg4SA=", "properties": {"@spider": "usps_collection_boxes", "addr:city": "CANTERBURY", "addr:country": "US", "addr:full": "3 CENTER RD", "addr:postcode": "03224", "addr:state": "NH", "brand": "USPS", "collection_times": "Mo-Fr 17:00; Sa 12:00", "name": "USPS COLLECTION BOX - PO LOBBY", "note": "ON 12/24 AND 12/31, THIS BOX MAY BE COLLECTED AS EARLY AS 12 NOON.", "ref": "0322400002"}, "type": "Feature"}
{"geometry": {"coordinates": [-71.263873, 43.342492], "type": "Point"}, "id": "SSm_gQMF2V3-PlHEtU8qpnfqGR0=", "properties": {"@spider": "usps_collection_boxes", "addr:city": "CTR BARNSTEAD", "addr:country": "US", "addr:full": "55 S BARNSTEAD RD", "addr:postcode": "03225", "addr:state": "NH", "brand": "USPS", "collection_times": "Mo-Fr 16:00; Sa 10:45", "name": "USPS COLLECTION BOX - BLUE BOX", "note": "ON 12/24 AND 12/31, THIS BOX MAY BE COLLECTED AS EARLY AS 12 NOON.", "ref": "0322500001"}, "type": "Feature"}
{"geometry": {"coordinates": [-71.263747, 43.342474], "type": "Point"}, "id": "W3h7uYoeoRJF71nMSk1x92K2hdQ=", "properties": {"@spider": "usps_collection_boxes", "addr:city": "CTR BARNSTEAD", "addr:country": "US", "addr:full": "55 S BARNSTEAD RD", "addr:postcode": "03225", "addr:state": "NH", "brand": "USPS", "collection_times": "Mo-Fr 16:15; Sa 11:00", "name": "USPS COLLECTION BOX - PO LOBBY", "note": "ON 12/24 AND 12/31, THIS BOX MAY BE COLLECTED AS EARLY AS 12 NOON.", "ref": "0322500002"}, "type": "Feature"}
{"geometry": {"coordinates": [-71.263846962, 43.342428659], "type": "Point"}, "id": "df5NP9fkCa3W7XUhvNz-HeHRAKI=", "properties": {"@spider": "usps_collection_boxes", "addr:city": "CTR BARNSTEAD", "addr:country": "US", "addr:full": "55 S BARNSTEAD RD", "addr:postcode": "03225", "addr:state": "NH", "brand": "USPS", "collection_times": "Mo-Fr 16:30; Sa 11:00", "name": "USPS COLLECTION BOX - PO LOBBY", "note": "ON 12/24 AND 12/31, THIS BOX MAY BE COLLECTED AS EARLY AS 12 NOON.", "ref": "0322500003"}, "type": "Feature"}
{"geometry": {"coordinates": [-71.7157074, 43.226403], "type": "Point"}, "id": "PiSOXIPifACztg9et_iuoSt8mCE=", "properties": {"@spider": "usps_collection_boxes", "addr:city": "CONTOOCOOK", "addr:country": "US", "addr:full": "129 PARK AVE", "addr:postcode": "03229", "addr:state": "NH", "brand": "USPS", "collection_times": "Mo-Fr 17:15; Sa 12:00", "name": "USPS COLLECTION BOX - BLUE BOX", "note": "ON 12/24 AND 12/31, THIS BOX MAY BE COLLECTED AS EARLY AS 12 NOON.", "ref": "0322900001"}, "type": "Feature"}
{"geometry": {"coordinates": [-71.6744647, 43.191253], "type": "Point"}, "id": "-bd7vgyqZD8CTOtO2MwquTpUKDQ=", "properties": {"@spider": "usps_collection_boxes", "addr:city": "CONTOOCOOK", "addr:country": "US", "addr:full": "377 MAIN ST", "addr:postcode": "03229", "addr:state": "NH", "brand": "USPS", "collection_times": "Mo-Sa 11:00", "name": "USPS COLLECTION BOX - BLUE BOX", "ref": "0322900003"}, "type": "Feature"}
{"geometry": {"coordinates": [-71.7159633, 43.226385], "type": "Point"}, "id": "iZ7n7BAFLhZ_aZV6A-e3EIIP9D4=", "properties": {"@spider": "usps_collection_boxes", "addr:city": "CONTOOCOOK", "addr:country": "US", "addr:full": "129 PARK AVE", "addr:postcode": "03229", "addr:state": "NH", "brand": "USPS", "collection_times": "Mo-Fr 17:30; Sa 12:00", "name": "USPS COLLECTION BOX - PO LOBBY", "note": "ON 12/24 AND 12/31, THIS BOX MAY BE COLLECTED AS EARLY AS 12 NOON.", "ref": "0322900004"}, "type": "Feature"}
{"geometry": {"coordinates": [-71.715490927, 43.226166365], "type": "Point"}, "id": "-Pgcf43wLe-Nn5FqwD5f_q6Itws=", "properties": {"@spider": "usps_collection_boxes", "addr:city": "CONTOOCOOK", "addr:country": "US", "addr:full": "129 PARK AVE", "addr:postcode": "03229", "addr:state": "NH", "brand": "USPS", "collection_times": "Mo-Fr 17:00; Sa 11:30", "name": "USPS COLLECTION BOX - PO LOBBY", "note": "ON 12/24 AND 12/31, THIS BOX MAY BE COLLECTED AS EARLY AS 12 NOON.", "ref": "0322900005"}, "type": "Feature"}
{"geometry": {"coordinates": [-71.360998, 43.230837], "type": "Point"}, "id": "lWbuxtXvfjy9EvJhzbSNP7_4WDk=", "properties": {"@spider": "usps_collection_boxes", "addr:city": "EPSOM", "addr:country": "US", "addr:full": "948 SUNCOOK VALLEY HWY", "addr:postcode": "03234", "addr:state": "NH", "brand": "USPS", "collection_times": "Mo-Fr 16:45; Sa 12:00", "name": "USPS COLLECTION BOX - BLUE BOX", "note": "ON 12/24 AND 12/31, THIS BOX MAY BE COLLECTED AS EARLY AS 12 NOON.", "ref": "0323400001"}, "type": "Feature"}
{"geometry": {"coordinates": [-71.361039, 43.230852], "type": "Point"}, "id": "nuu90lZZTwjnf6lMKezUo_6Gt1g=", "properties": {"@spider": "usps_collection_boxes", "addr:city": "EPSOM", "addr:country": "US", "addr:full": "948 SUNCOOK VALLEY HWY", "addr:postcode": "03234", "addr:state": "NH", "brand": "USPS", "collection_times": "Mo-Fr 17:00; Sa 12:00", "name": "USPS COLLECTION BOX - PO LOBBY", "note": "ON 12/24 AND 12/31, THIS BOX MAY BE COLLECTED AS EARLY AS 12 NOON.", "ref": "0323400003"}, "type": "Feature"}
{"geometry": {"coordinates": [-71.360805085, 43.230095454], "type": "Point"}, "id": "kv0fI_TDUiqJqyodWmZU2ZrlEMY=", "properties": {"@spider": "usps_collection_boxes", "addr:city": "EPSOM", "addr:country": "US", "addr:full": "948 SUNCOOK VALLEY HWY", "addr:postcode": "03234", "addr:state": "NH", "brand": "USPS", "collection_times": "Mo-Fr 17:00; Sa 12:00", "name": "USPS COLLECTION BOX - PO LOBBY", "note": "ON 12/24 AND 12/31, THIS BOX MAY BE COLLECTED AS EARLY AS 12 NOON.", "ref": "0323400004"}, "type": "Feature"}
{"geometry": {"coordinates": [-71.417032, 43.422012], "type": "Point"}, "id": "WFugnxB43wHuutXoWLGpKIlFUUc=", "properties": {"@spider": "usps_collection_boxes", "addr:city": "GILMANTON", "addr:country": "US", "addr:full": "365 NH ROUTE 140", "addr:postcode": "03237", "addr:state": "NH", "brand": "USPS", "collection_times": "Mo-Fr 16:45; Sa 12:00", "name": "USPS COLLECTION BOX - BLUE BOX", "note": "ON 12/24 AND 12/31, THIS BOX MAY BE COLLECTED AS EARLY AS 12 NOON.", "ref": "0323700001"}, "type": "Feature"}
{"geometry": {"coordinates": [-71.416946, 43.421982], "type": "Point"}, "id": "dKl_7F5eBpYHWN871wi5pjW9GdU=", "properties": {"@spider": "usps_collection_boxes", "addr:city": "GILMANTON", "addr:country": "US", "addr:full": "365 NH ROUTE 140", "addr:postcode": "03237", "addr:state": "NH", "brand": "USPS", "collection_times": "Mo-Fr 16:45; Sa 12:00", "name": "USPS COLLECTION BOX - PO LOBBY", "note": "ON 12/24 AND 12/31, THIS BOX MAY BE COLLECTED AS EARLY AS 12 NOON.", "ref": "0323700002"}, "type": "Feature"}
{"geometry": {"coordinates": [-71.417218605, 43.422016428], "type": "Point"}, "id": "yOZoFO-mvu-C510IK8Cwk2TDkxw=", "properties": {"@spider": "usps_collection_boxes", "addr:city": "GILMANTON", "addr:country": "US", "addr:full": "365 NH ROUTE 140", "addr:postcode": "03237", "addr:state": "NH", "brand": "USPS", "collection_times": "Mo-Fr 16:45; Sa 12:00", "name": "USPS COLLECTION BOX - PO LOBBY", "note": "ON 12/24 AND 12/31, THIS BOX MAY BE COLLECTED AS EARLY AS 12 NOON.", "ref": "0323700003"}, "type": "Feature"}
{"geometry": {"coordinates": [-71.826453, 43.186165], "type": "Point"}, "id": "Q03DuoYyOFgivwc1kIt94Adc6kc=", "properties": {"@spider": "usps_collection_boxes", "addr:city": "HENNIKER", "addr:country": "US", "addr:full": "1 POST OFFICE PL", "addr:postcode": "03242", "addr:state": "NH", "brand": "USPS", "collection_times": "Mo-Fr 17:00; Sa 11:45", "name": "USPS COLLECTION BOX - BLUE BOX", "note": "ON 12/24 AND 12/31, THIS BOX MAY BE COLLECTED AS EARLY AS 12 NOON.", "ref": "0324200001"}, "type": "Feature"}
{"geometry": {"coordinates": [-71.826453, 43.186165], "type": "Point"}, "id": "MG5CSVxMRCc3b6YiN-oBiYqxheM=", "properties": {"@spider": "usps_collection_boxes", "addr:city": "HENNIKER", "addr:country": "US", "addr:full": "1 POST OFFICE PL", "addr:postcode": "03242", "addr:state": "NH", "brand": "USPS", "collection_times": "Mo-Fr 17:00; Sa 11:45", "name": "USPS COLLECTION BOX - PO LOBBY", "note": "ON 12/24 AND 12/31, THIS BOX MAY BE COLLECTED AS EARLY AS 12 NOON.", "ref": "0324200004"}, "type": "Feature"}
{"geometry": {"coordinates": [-71.826878833, 43.186103987], "type": "Point"}, "id": "S05Vo9iMB1o3c2tJ9zsiU5g2Vm8=", "properties": {"@spider": "usps_collection_boxes", "addr:city": "HENNIKER", "addr:country": "US", "addr:full": "10 POST OFFICE PL", "addr:postcode": "03242", "addr:state": "NH", "brand": "USPS", "collection_times": "Mo-Fr 17:00; Sa 12:00", "name": "USPS COLLECTION BOX - PO LOBBY", "note": "ON 12/24 AND 12/31, THIS BOX MAY BE COLLECTED AS EARLY AS 12 NOON.", "ref": "0324200005"}, "type": "Feature"}
{"geometry": {"coordinates": [-71.896508, 43.11451], "type": "Point"}, "id": "ytEYCjG3CSkMZNIWJx1jw7Yhpq8=", "properties": {"@spider": "usps_collection_boxes", "addr:city": "HILLSBORO", "addr:country": "US", "addr:full": "11 CENTRAL ST", "addr:postcode": "03244", "addr:state": "NH", "brand": "USPS", "collection_times": "Mo-Fr 16:30; Sa 12:00", "name": "USPS COLLECTION BOX - BLUE BOX", "note": "ON 12/24 AND 12/31, THIS BOX MAY BE COLLECTED AS EARLY AS 12 NOON.", "ref": "0324400002"}, "type": "Feature"}
{"geometry": {"coordinates": [-71.896516, 43.114477], "type": "Point"}, "id": "vPZ1A7GYmHEq5gWFDmzOweZxIpI=", "properties": {"@spider": "usps_collection_boxes", "addr:city": "HILLSBORO", "addr:country": "US", "addr:full": "11 CENTRAL ST", "addr:postcode": "03244", "addr:state": "NH", "brand": "USPS", "collection_times": "Mo-Fr 16:30; Sa 12:00", "name": "USPS COLLECTION BOX - PO LOBBY", "note": "ON 12/24 AND 12/31, THIS BOX MAY BE COLLECTED AS EARLY AS 12 NOON.", "ref": "0324400005"}, "type": "Feature"}
{"geometry": {"coordinates": [-71.896516, 43.114477], "type": "Point"}, "id": "gXFkrKwwQEOMqYz84bgeQp8Yd7A=", "properties": {"@spider": "usps_collection_boxes", "addr:city": "HILLSBORO", "addr:country": "US", "addr:full": "11 CENTRAL ST", "addr:postcode": "03244", "addr:state": "NH", "brand": "USPS", "collection_times": "Mo-Fr 16:30; Sa 12:00", "name": "USPS COLLECTION BOX - BLUE BOX", "note": "ON 12/24 AND 12/31, THIS BOX MAY BE COLLECTED AS EARLY AS 12 NOON.", "ref": "0324400007"}, "type": "Feature"}
{"geometry": {"coordinates": [-71.896621596, 43.114585787], "type": "Point"}, "id": "OOG6xBaEQPwspcYefGo_g-ZvCUQ=", "properties": {"@spider": "usps_collection_boxes", "addr:city": "HILLSBORO", "addr:country": "US", "addr:full": "11 CENTRAL ST", "addr:postcode": "03244", "addr:state": "NH", "brand": "USPS", "collection_times": "Mo-Fr 17:00; Sa 12:00", "name": "USPS COLLECTION BOX - PO LOBBY", "note": "ON 12/24 AND 12/31, THIS BOX MAY BE COLLECTED AS EARLY AS 12 NOON.", "ref": "0324400010"}, "type": "Feature"}
{"geometry": {"coordinates": [-71.2478882, 43.22196], "type": "Point"}, "id": "xuCKV8ahSOwxRcXQI62YJKXZT0E=", "properties": {"@spider": "usps_collection_boxes", "addr:city": "NORTHWOOD", "addr:country": "US", "addr:full": "6 TASKER SHORE DR", "addr:postcode": "03261", "addr:state": "NH", "brand": "USPS", "collection_times": "Mo-Fr 16:45; Sa 12:00", "name": "USPS COLLECTION BOX - BLUE BOX", "note": "ON 12/24 AND 12/31, THIS BOX MAY BE COLLECTED AS EARLY AS 12 NOON.", "ref": "0326100001"}, "type": "Feature"}
{"geometry": {"coordinates": [-71.2481329, 43.222073], "type": "Point"}, "id": "DadVZpnZwN1EMXNKWlgi9dnaUZk=", "properties": {"@spider": "usps_collection_boxes", "addr:city": "NORTHWOOD", "addr:country": "US", "addr:full": "6 TASKER SHORE DR", "addr:postcode": "03261", "addr:state": "NH", "brand": "USPS", "collection_times": "Mo-Fr 16:45; Sa 12:00", "name": "USPS COLLECTION BOX - PO LOBBY", "note": "ON 12/24 AND 12/31, THIS BOX MAY BE COLLECTED AS EARLY AS 12 NOON.", "ref": "0326100002"}, "type": "Feature"}
{"geometry": {"coordinates": [-71.1512599, 43.195777], "type": "Point"}, "id": "Ke_Lus2pTSCZjpzDUAvDuzurSmE=", "properties": {"@spider": "usps_collection_boxes", "addr:city": "NORTHWOOD", "addr:country": "US", "addr:full": "174 1ST NH TPKE", "addr:postcode": "03261", "addr:state": "NH", "brand": "USPS", "collection_times": "Mo-Sa 11:00", "name": "USPS COLLECTION BOX - BLUE BOX", "ref": "0326100004"}, "type": "Feature"}
{"geometry": {"coordinates": [-71.247794069, 43.221795547], "type": "Point"}, "id": "paiNZwf-8lEnax2xXnj8_QUGGAg=", "properties": {"@spider": "usps_collection_boxes", "addr:city": "NORTHWOOD", "addr:country": "US", "addr:full": "6 TASKER SHORE DR", "addr:postcode": "03261", "addr:state": "NH", "brand": "USPS", "collection_times": "Mo-Fr 16:30; Sa 12:00", "name": "USPS COLLECTION BOX - PO LOBBY", "note": "ON 12/24 AND 12/31, THIS BOX MAY BE COLLECTED AS EARLY AS 12 NOON.", "ref": "0326100005"}, "type": "Feature"}
{"geometry": {"coordinates": [-71.3246148, 43.305747], "type": "Point"}, "id": "Y7anMDAnYOiLzJ6PYoP2IoJnhX0=", "properties": {"@spider": "usps_collection_boxes", "addr:city": "PITTSFIELD", "addr:country": "US", "addr:full": "2 DEPOT ST", "addr:postcode": "03263", "addr:state": "NH", "brand": "USPS", "collection_times": "Mo-Sa 09:00", "name": "USPS COLLECTION BOX - BLUE BOX", "ref": "0326300001"}, "type": "Feature"}
{"geometry": {"coordinates": [-71.3234065, 43.305951], "type": "Point"}, "id": "Tex6dt-7b2M7DcBsBGMAFGsPiQQ=", "properties": {"@spider": "usps_collection_boxes", "addr:city": "PITTSFIELD", "addr:country": "US", "addr:full": "12 CATAMOUNT RD", "addr:postcode": "03263", "addr:state": "NH", "brand": "USPS", "collection_times": "Mo-Sa 09:00", "name": "USPS COLLECTION BOX - BLUE BOX", "ref": "0326300002"}, "type": "Feature"}
{"geometry": {"coordinates": [-71.3268638, 43.305975], "type": "Point"}, "id": "t3jF9BRg98B4wymcWzC4kJaIM6o=", "properties": {"@spider": "usps_collection_boxes", "addr:city": "PITTSFIELD", "addr:country": "US", "addr:full": "2 ELM ST", "addr:postcode": "03263", "addr:state": "NH", "brand": "USPS", "collection_times": "Mo-Fr 16:45; Sa 15:45", "name": "USPS COLLECTION BOX - BLUE BOX", "note": "ON 12/24 AND 12/31, THIS BOX MAY BE COLLECTED AS EARLY AS 12 NOON.", "ref": "0326300003"}, "type": "Feature"}
{"geometry": {"coordinates": [-71.3278318, 43.305053], "type": "Point"}, "id": "8640zsupOrmSZMV0auxK_B2f8IE=", "properties": {"@spider": "usps_collection_boxes", "addr:city": "PITTSFIELD", "addr:country": "US", "addr:full": "34 MAIN ST", "addr:postcode": "03263", "addr:state": "NH", "brand": "USPS", "collection_times": "Mo-Sa 09:00", "name": "USPS COLLECTION BOX - BLUE BOX", "ref": "0326300004"}, "type": "Feature"}
{"geometry": {"coordinates": [-71.326776, 43.304484], "type": "Point"}, "id": "orAoH8-MU2kaWvB_FAQH1y-Xx2k=", "properties": {"@spider": "usps_collection_boxes", "addr:city": "PITTSFIELD", "addr:country": "US", "addr:full": "46 MAIN ST", "addr:postcode": "03263", "addr:state": "NH", "brand": "USPS", "collection_times": "Mo-Sa 09:00", "name": "USPS COLLECTION BOX - BLUE BOX", "ref": "0326300005"}, "type": "Feature"}
{"geometry": {"coordinates": [-71.3258817, 43.302861], "type": "Point"}, "id": "lhYS90gkGV-CPyZEk-pwbz8UmKY=", "properties": {"@spider": "usps_collection_boxes", "addr:city": "PITTSFIELD", "addr:country": "US", "addr:full": "67 MAIN ST", "addr:postcode": "03263", "addr:state": "NH", "brand": "USPS", "collection_times": "Mo-Sa 09:00", "name": "USPS COLLECTION BOX - BLUE BOX", "ref": "0326300006"}, "type": "Feature"}
{"geometry": {"coordinates": [-71.3316914, 43.305671], "type": "Point"}, "id": "1cJRdKL45W2ijtRn1hEsn1gqZqw=", "properties": {"@spider": "usps_collection_boxes", "addr:city": "PITTSFIELD", "addr:country": "US", "addr:full": "4 WATER ST", "addr:postcode": "03263", "addr:state": "NH", "brand": "USPS", "collection_times": "Mo-Sa 09:00", "name": "USPS COLLECTION BOX - BLUE BOX", "ref": "0326300007"}, "type": "Feature"}
{"geometry": {"coordinates": [-71.3267449, 43.306002], "type": "Point"}, "id": "1n24MR2HM3_o5W11UA_CuiRh6H8=", "properties": {"@spider": "usps_collection_boxes", "addr:city": "PITTSFIELD", "addr:country": "US", "addr:full": "2 ELM ST", "addr:postcode": "03263", "addr:state": "NH", "brand": "USPS", "collection_times": "Mo-Fr 17:00; Sa 12:00", "name": "USPS COLLECTION BOX - PO LOBBY", "note": "ON 12/24 AND 12/31, THIS BOX MAY BE COLLECTED AS EARLY AS 12 NOON.", "ref": "0326300008"}, "type": "Feature"}
{"geometry": {"coordinates": [-71.327051232, 43.305970747], "type": "Point"}, "id": "RU6Df4YsXfWg_35p0cYFE1PWnGI=", "properties": {"@spider": "usps_collection_boxes", "addr:city": "PITTSFIELD", "addr:country": "US", "addr:full": "2 ELM ST", "addr:postcode": "03263", "addr:state": "NH", "brand": "USPS", "collection_times": "Mo-Fr 17:00; Sa 12:00", "name": "USPS COLLECTION BOX - PO LOBBY", "note": "ON 12/24 AND 12/31, THIS BOX MAY BE COLLECTED AS EARLY AS 12 NOON.", "ref": "0326300009"}, "type": "Feature"}
{"geometry": {"coordinates": [-71.4416635, 43.122878], "type": "Point"}, "id": "i3sAhUvqzBm4m-CIWWFz71CpBek=", "properties": {"@spider": "usps_collection_boxes", "addr:city": "PEMBROKE", "addr:country": "US", "addr:full": "39 ALLENSTOWN RD", "addr:postcode": "03275", "addr:state": "NH", "brand": "USPS", "collection_times": "Mo-Sa 10:00", "name": "USPS COLLECTION BOX - BLUE BOX", "ref": "0327500001"}, "type": "Feature"}
{"geometry": {"coordinates": [-71.4434388, 43.123573], "type": "Point"}, "id": "tZNoLqokuj5KKbSsCXd4ZA0EzAU=", "properties": {"@spider": "usps_collection_boxes", "addr:city": "PEMBROKE", "addr:country": "US", "addr:full": "48 ALLENSTOWN RD", "addr:postcode": "03275", "addr:state": "NH", "brand": "USPS", "collection_times": "Mo-Sa 10:00", "name": "USPS COLLECTION BOX - BLUE BOX", "ref": "0327500002"}, "type": "Feature"}
{"geometry": {"coordinates": [-71.4509728, 43.130514], "type": "Point"}, "id": "MBXoHbGVCvjetldMaMsfzxlp7IY=", "properties": {"@spider": "usps_collection_boxes", "addr:city": "PEMBROKE", "addr:country": "US", "addr:full": "55 GLASS ST", "addr:postcode": "03275", "addr:state": "NH", "brand": "USPS", "collection_times": "Mo-Fr 17:00; Sa 15:30", "name": "USPS COLLECTION BOX - BLUE BOX", "note": "ON 12/24 AND 12/31, THIS BOX MAY BE COLLECTED AS EARLY AS 12 NOON.", "ref": "0327500004"}, "type": "Feature"}
{"geometry": {"coordinates": [-71.4525229, 43.131635], "type": "Point"}, "id": "SCFv9oFzmq7iM34bsGn-kPjwO7U=", "properties": {"@spider": "usps_collection_boxes", "addr:city": "PEMBROKE", "addr:country": "US", "addr:full": "157 MAIN ST", "addr:postcode": "03275", "addr:state": "NH", "brand": "USPS", "collection_times": "Mo-Sa 10:00", "name": "USPS COLLECTION BOX - BLUE BOX", "ref": "0327500005"}, "type": "Feature"}
{"geometry": {"coordinates": [-71.4525394, 43.134247], "type": "Point"}, "id": "aB7mDtvY9rzKOpMWXKKl7Cj0bXM=", "properties": {"@spider": "usps_collection_boxes", "addr:city": "PEMBROKE", "addr:country": "US", "addr:full": "34 BROADWAY", "addr:postcode": "03275", "addr:state": "NH", "brand": "USPS", "collection_times": "Mo-Sa 10:00", "name": "USPS COLLECTION BOX - BLUE BOX", "ref": "0327500006"}, "type": "Feature"}
{"geometry": {"coordinates": [-71.4510858, 43.126952], "type": "Point"}, "id": "cFoZNv84IMje7D8aCXpdPuo3DDk=", "properties": {"@spider": "usps_collection_boxes", "addr:city": "PEMBROKE", "addr:country": "US", "addr:full": "18 SCHOOL ST", "addr:postcode": "03275", "addr:state": "NH", "brand": "USPS", "collection_times": "Mo-Sa 10:00", "name": "USPS COLLECTION BOX - BLUE BOX", "ref": "0327500007"}, "type": "Feature"}
{"geometry": {"coordinates": [-71.4603018, 43.15009], "type": "Point"}, "id": "kfNnyUAB2Qhyw5lN3WNxTPenxXM=", "properties": {"@spider": "usps_collection_boxes", "addr:city": "PEMBROKE", "addr:country": "US", "addr:full": "311 PEMBROKE ST", "addr:postcode": "03275", "addr:state": "NH", "brand": "USPS", "collection_times": "Mo-Sa 10:00", "name": "USPS COLLECTION BOX - BLUE BOX", "ref": "0327500008"}, "type": "Feature"}
{"geometry": {"coordinates": [-71.4509246, 43.130453], "type": "Point"}, "id": "PYYRXfyfxoIvpF_e17PFsiaY9qE=", "properties": {"@spider": "usps_collection_boxes", "addr:city": "PEMBROKE", "addr:country": "US", "addr:full": "55 GLASS ST", "addr:postcode": "03275", "addr:state": "NH", "brand": "USPS", "collection_times": "Mo-Fr 17:00; Sa 15:30", "name": "USPS COLLECTION BOX - PO LOBBY", "note": "ON 12/24 AND 12/31, THIS BOX MAY BE COLLECTED AS EARLY AS 12 NOON.", "ref": "0327500009"}, "type": "Feature"}
{"geometry": {"coordinates": [-71.450774612, 43.130531496], "type": "Point"}, "id": "I1imxgY0YGx5Ah_9y8j23ODa3Is=", "properties": {"@spider": "usps_collection_boxes", "addr:city": "PEMBROKE", "addr:country": "US", "addr:full": "55 GLASS ST", "addr:postcode": "03275", "addr:state": "NH", "brand": "USPS", "collection_times": "Mo-Fr 17:00; Sa 12:00", "name": "USPS COLLECTION BOX - PO LOBBY", "note": "ON 12/24 AND 12/31, THIS BOX MAY BE COLLECTED AS EARLY AS 12 NOON.", "ref": "0327500010"}, "type": "Feature"}
{"geometry": {"coordinates": [-71.5888503, 43.445307], "type": "Point"}, "id": "GHu84ycSwUoWaMFg5bZhDOzCFIY=", "properties": {"@spider": "usps_collection_boxes", "addr:city": "NORTHFIELD", "addr:country": "US", "addr:full": "36 SCHOOL ST", "addr:postcode": "03276", "addr:state": "NH", "brand": "USPS", "collection_times": "Mo-Fr 10:00; Sa 09:00", "name": "USPS COLLECTION BOX - BLUE BOX", "ref": "0327600002"}, "type": "Feature"}
{"geometry": {"coordinates": [-71.5898083, 43.442428], "type": "Point"}, "id": "Y8WSwp5-iL75Y7mTWuL1Rtg6DAE=", "properties": {"@spider": "usps_collection_boxes", "addr:city": "NORTHFIELD", "addr:country": "US", "addr:full": "274 MAIN ST", "addr:postcode": "03276", "addr:state": "NH", "brand": "USPS", "collection_times": "Mo-Fr 16:00; Sa 09:00", "name": "USPS COLLECTION BOX - BLUE BOX", "note": "ON 12/24 AND 12/31, THIS BOX MAY BE COLLECTED AS EARLY AS 12 NOON.", "ref": "0327600003"}, "type": "Feature"}
{"geometry": {"coordinates": [-71.5917281692, 43.4335171462], "type": "Point"}, "id": "k4jcSyZnadBOxWp6aQmUykD39Yk=", "properties": {"@spider": "usps_collection_boxes", "addr:city": "NORTHFIELD", "addr:country": "US", "addr:full": "137 PARK ST", "addr:postcode": "03276", "addr:state": "NH", "brand": "USPS", "collection_times": "Mo-Fr 12:00; Sa 09:00", "name": "USPS COLLECTION BOX - BLUE BOX", "ref": "0327600005"}, "type": "Feature"}
{"geometry": {"coordinates": [-71.5753911, 43.449577], "type": "Point"}, "id": "USEaBoCnndj7k1FZRb68CpZGzSQ=", "properties": {"@spider": "usps_collection_boxes", "addr:city": "NORTHFIELD", "addr:country": "US", "addr:full": "66 E MAIN ST", "addr:postcode": "03276", "addr:state": "NH", "brand": "USPS", "collection_times": "Mo-Fr 17:00; Sa 15:00", "name": "USPS COLLECTION BOX - BLUE BOX", "note": "ON 12/24 AND 12/31, THIS BOX MAY BE COLLECTED AS EARLY AS 12 NOON.", "ref": "0327600006"}, "type": "Feature"}
{"geometry": {"coordinates": [-71.5887321, 43.442332], "type": "Point"}, "id": "SM6DC2aZZyVL8_RcgBSxDLfc1LE=", "properties": {"@spider": "usps_collection_boxes", "addr:city": "NORTHFIELD", "addr:country": "US", "addr:full": "257 MAIN ST", "addr:postcode": "03276", "addr:state": "NH", "brand": "USPS", "collection_times": "Mo-Fr 16:00; Sa 09:00", "name": "USPS COLLECTION BOX - BLUE BOX", "note": "ON 12/24 AND 12/31, THIS BOX MAY BE COLLECTED AS EARLY AS 12 NOON.", "ref": "0327600007"}, "type": "Feature"}
{"geometry": {"coordinates": [-71.5977688, 43.440881], "type": "Point"}, "id": "OQw7tg54NY0TxYZxSaVBdQ_vJ2A=", "properties": {"@spider": "usps_collection_boxes", "addr:city": "NORTHFIELD", "addr:country": "US", "addr:full": "380 W MAIN ST", "addr:postcode": "03276", "addr:state": "NH", "brand": "USPS", "collection_times": "Mo-Sa 09:00", "name": "USPS COLLECTION BOX - BLUE BOX", "ref": "0327600009"}, "type": "Feature"}
{"geometry": {"coordinates": [-71.574355, 43.451047], "type": "Point"}, "id": "Cy4odMVq7Twss0Tm0x6jCXZb188=", "properties": {"@spider": "usps_collection_boxes", "addr:city": "NORTHFIELD", "addr:country": "US", "addr:full": "66 E MAIN ST", "addr:postcode": "03276", "addr:state": "NH", "brand": "USPS", "collection_times": "Mo-Fr 17:00; Sa 15:00", "name": "USPS COLLECTION BOX - BLUE BOX", "note": "ON 12/24 AND 12/31, THIS BOX MAY BE COLLECTED AS EARLY AS 12 NOON.", "ref": "0327600016"}, "type": "Feature"}
{"geometry": {"coordinates": [-71.5862599, 43.438899], "type": "Point"}, "id": "i6ebBZTS2NiB55ExALNBZcbOl34=", "properties": {"@spider": "usps_collection_boxes", "addr:city": "NORTHFIELD", "addr:country": "US", "addr:full": "21 SUMMER ST", "addr:postcode": "03276", "addr:state": "NH", "brand": "USPS", "collection_times": "Mo-Sa 09:30", "name": "USPS COLLECTION BOX - BLUE BOX", "ref": "0327600018"}, "type": "Feature"}
{"geometry": {"coordinates": [-71.5753285, 43.449458], "type": "Point"}, "id": "IgacbcMPCVMmH1Cl6XLbdKCfuAw=", "properties": {"@spider": "usps_collection_boxes", "addr:city": "NORTHFIELD", "addr:country": "US", "addr:full": "66 E MAIN ST", "addr:postcode": "03276", "addr:state": "NH", "brand": "USPS", "collection_times": "Mo-Fr 17:00; Sa 15:00", "name": "USPS COLLECTION BOX - PO LOBBY", "note": "ON 12/24 AND 12/31, THIS BOX MAY BE COLLECTED AS EARLY AS 12 NOON.", "ref": "0327600019"}, "type": "Feature"}
{"geometry": {"coordinates": [-71.574326011, 43.451030546], "type": "Point"}, "id": "tHhfAsTxilvInPMtT-9k8CO5QWs=", "properties": {"@spider": "usps_collection_boxes", "addr:city": "NORTHFIELD", "addr:country": "US", "addr:full": "66 E MAIN ST", "addr:postcode": "03276", "addr:state": "NH", "brand": "USPS", "collection_times": "Mo-Fr 17:00; Sa 12:00", "name": "USPS COLLECTION BOX - PO LOBBY", "note": "ON 12/24 AND 12/31, THIS BOX MAY BE COLLECTED AS EARLY AS 12 NOON.", "ref": "0327600022"}, "type": "Feature"}
{"geometry": {"coordinates": [-71.813815, 43.279598], "type": "Point"}, "id": "vQB59UCYNkKzsI55hFZmC7Q4QUc=", "properties": {"@spider": "usps_collection_boxes", "addr:city": "WARNER", "addr:country": "US", "addr:full": "36 E MAIN ST", "addr:postcode": "03278", "addr:state": "NH", "brand": "USPS", "collection_times": "Mo-Fr 16:30; Sa 12:00", "name": "USPS COLLECTION BOX - BLUE BOX", "note": "ON 12/24 AND 12/31, THIS BOX MAY BE COLLECTED AS EARLY AS 12 NOON.", "ref": "0327800001"}, "type": "Feature"}
{"geometry": {"coordinates": [-71.8337954, 43.290762], "type": "Point"}, "id": "f6cmyYG-w6zsMMcg5tlKIvBfqWI=", "properties": {"@spider": "usps_collection_boxes", "addr:city": "WARNER", "addr:country": "US", "addr:full": "30 ROUTE 103 W", "addr:postcode": "03278", "addr:state": "NH", "brand": "USPS", "collection_times": "Mo-Sa 11:00", "name": "USPS COLLECTION BOX - BLUE BOX", "ref": "0327800002"}, "type": "Feature"}
{"geometry": {"coordinates": [-71.813815, 43.279598], "type": "Point"}, "id": "YO75rqH3nVG8jsFZiMJpSxyXhtc=", "properties": {"@spider": "usps_collection_boxes", "addr:city": "WARNER", "addr:country": "US", "addr:full": "36 E MAIN ST", "addr:postcode": "03278", "addr:state": "NH", "brand": "USPS", "collection_times": "Mo-Fr 17:00; Sa 12:00", "name": "USPS COLLECTION BOX - PO LOBBY", "note": "ON 12/24 AND 12/31, THIS BOX MAY BE COLLECTED AS EARLY AS 12 NOON.", "ref": "0327800003"}, "type": "Feature"}
{"geometry": {"coordinates": [-71.813576912, 43.279437154], "type": "Point"}, "id": "m4gFisqbrRr-1iqvA97oRMIZHGQ=", "properties": {"@spider": "usps_collection_boxes", "addr:city": "WARNER", "addr:country": "US", "addr:full": "36 E MAIN ST", "addr:postcode": "03278", "addr:state": "NH", "brand": "USPS", "collection_times": "Mo-Fr 17:00; Sa 12:00", "name": "USPS COLLECTION BOX - PO LOBBY", "note": "ON 12/24 AND 12/31, THIS BOX MAY BE COLLECTED AS EARLY AS 12 NOON.", "ref": "0327800004"}, "type": "Feature"}
{"geometry": {"coordinates": [-71.729301, 43.089157], "type": "Point"}, "id": "kZwmmdizhPziPRVp2qc-ose_lRk=", "properties": {"@spider": "usps_collection_boxes", "addr:city": "WEARE", "addr:country": "US", "addr:full": "8 DUCK POND RD", "addr:postcode": "03281", "addr:state": "NH", "brand": "USPS", "collection_times": "Mo-Fr 17:00; Sa 12:00", "name": "USPS COLLECTION BOX - BLUE BOX", "note": "ON 12/24 AND 12/31, THIS BOX MAY BE COLLECTED AS EARLY AS 12 NOON.", "ref": "0328100004"}, "type": "Feature"}
{"geometry": {"coordinates": [-71.681247, 43.043414], "type": "Point"}, "id": "DWJ86M1ivF4DDs3jYX5VPQqVAfA=", "properties": {"@spider": "usps_collection_boxes", "addr:city": "WEARE", "addr:country": "US", "addr:full": "425 S STARK HWY", "addr:postcode": "03281", "addr:state": "NH", "brand": "USPS", "collection_times": "Mo-Sa 09:30", "name": "USPS COLLECTION BOX - BLUE BOX", "ref": "0328100005"}, "type": "Feature"}
{"geometry": {"coordinates": [-71.729184, 43.089179], "type": "Point"}, "id": "4L1HdxrWx_SN2Cxfpg1f2Ouf3z8=", "properties": {"@spider": "usps_collection_boxes", "addr:city": "WEARE", "addr:country": "US", "addr:full": "8 DUCK POND RD", "addr:postcode": "03281", "addr:state": "NH", "brand": "USPS", "collection_times": "Mo-Fr 17:00; Sa 12:00", "name": "USPS COLLECTION BOX - PO LOBBY", "note": "ON 12/24 AND 12/31, THIS BOX MAY BE COLLECTED AS EARLY AS 12 NOON.", "ref": "0328100006"}, "type": "Feature"}
{"geometry": {"coordinates": [-71.72965428, 43.088896727], "type": "Point"}, "id": "g7VX-9kjY0kzdHZeB88KJ3Nq6LM=", "properties": {"@spider": "usps_collection_boxes", "addr:city": "WEARE", "addr:country": "US", "addr:full": "8 DUCK POND RD", "addr:postcode": "03281", "addr:state": "NH", "brand": "USPS", "collection_times": "Mo-Fr 17:00; Sa 12:00", "name": "USPS COLLECTION BOX - PO LOBBY", "note": "ON 12/24 AND 12/31, THIS BOX MAY BE COLLECTED AS EARLY AS 12 NOON.", "ref": "0328100007"}, "type": "Feature"}
{"geometry": {"coordinates": [-71.0947773481, 43.112078721], "type": "Point"}, "id": "Alr1CCZZeOrDG9-Qs20HabFBpEI=", "properties": {"@spider": "usps_collection_boxes", "addr:city": "NOTTINGHAM", "addr:country": "US", "addr:full": "106 STAGE RD", "addr:postcode": "03290", "addr:state": "NH", "brand": "USPS", "collection_times": "Mo-Fr 17:00; Sa 11:00", "name": "USPS COLLECTION BOX - BLUE BOX", "note": "ON 12/24 AND 12/31, THIS BOX MAY BE COLLECTED AS EARLY AS 12 NOON.", "ref": "0329000001"}, "type": "Feature"}
{"geometry": {"coordinates": [-71.094289, 43.112041], "type": "Point"}, "id": "Q6-P2m5lhz8bRmjvexcDzFCI2hc=", "properties": {"@spider": "usps_collection_boxes", "addr:city": "NOTTINGHAM", "addr:country": "US", "addr:full": "106 STAGE RD", "addr:postcode": "03290", "addr:state": "NH", "brand": "USPS", "collection_times": "Mo-Fr 17:00; Sa 11:00", "name": "USPS COLLECTION BOX - PO LOBBY", "note": "ON 12/24 AND 12/31, THIS BOX MAY BE COLLECTED AS EARLY AS 12 NOON.", "ref": "0329000002"}, "type": "Feature"}
{"geometry": {"coordinates": [-71.094777348, 43.112078721], "type": "Point"}, "id": "Lww6URhLh2PL7lSE_lIaHgn1vNw=", "properties": {"@spider": "usps_collection_boxes", "addr:city": "NOTTINGHAM", "addr:country": "US", "addr:full": "106 STAGE RD", "addr:postcode": "03290", "addr:state": "NH", "brand": "USPS", "collection_times": "Mo-Fr 17:00; Sa 11:00", "name": "USPS COLLECTION BOX - PO LOBBY", "note": "ON 12/24 AND 12/31, THIS BOX MAY BE COLLECTED AS EARLY AS 12 NOON.", "ref": "0329000003"}, "type": "Feature"}
{"geometry": {"coordinates": [-71.140127, 43.173472], "type": "Point"}, "id": "YTK4_Y3bga4Yv5YocFkVRMq9AYg=", "properties": {"@spider": "usps_collection_boxes", "addr:city": "WEST NOTTINGHAM", "addr:country": "US", "addr:full": "368 STAGE RD UNIT 2", "addr:postcode": "03291", "addr:state": "NH", "brand": "USPS", "collection_times": "Mo-Fr 16:30; Sa 10:30", "name": "USPS COLLECTION BOX - BLUE BOX", "note": "ON 12/24 AND 12/31, THIS BOX MAY BE COLLECTED AS EARLY AS 12 NOON.", "ref": "0329100001"}, "type": "Feature"}
{"geometry": {"coordinates": [-71.140231029, 43.174981119], "type": "Point"}, "id": "F8WOtUmqp60vWEegky9DS95oU2M=", "properties": {"@spider": "usps_collection_boxes", "addr:city": "WEST NOTTINGHAM", "addr:country": "US", "addr:full": "368 STAGE RD UNIT 2", "addr:postcode": "03291", "addr:state": "NH", "brand": "USPS", "collection_times": "Mo-Fr 16:30; Sa 11:30", "name": "USPS COLLECTION BOX - PO LOBBY", "note": "ON 12/24 AND 12/31, THIS BOX MAY BE COLLECTED AS EARLY AS 12 NOON.", "ref": "0329100002"}, "type": "Feature"}
