{"dataset_attributes": {"@spider": "usps_collection_boxes", "spider:collection_time": "2023-09-07T08:24:46.282741"}, "geometry": {"coordinates": [-71.5096874, 43.205432], "type": "Point"}, "id": "tBlAMIugSnn-vvjqaf-H3BOl5Dk=", "properties": {"@spider": "usps_collection_boxes", "addr:city": "CONCORD", "addr:country": "US", "addr:full": "65 AIRPORT RD", "addr:postcode": "03301", "addr:state": "NH", "amenity": "post_box", "brand": "United States Postal Service", "brand:wikidata": "Q668687", "collection_times": "Mo-Fr 15:00; Sa 14:00", "name": "USPS COLLECTION BOX - BLUE BOX", "note": "ON 12/24 AND 12/31, THIS BOX MAY BE COLLECTED AS EARLY AS 12 NOON.", "nsi_id": "unitedstatespostalservice-a77078", "operator": "United States Postal Service", "operator:short": "USPS", "operator:type": "public", "operator:wikidata": "Q668687", "ref": "0330100001"}, "type": "Feature"}
{"dataset_attributes": {"@spider": "usps_collection_boxes", "spider:collection_time": "2023-09-07T08:24:46.282741"}, "geometry": {"coordinates": [-71.5326451, 43.192298], "type": "Point"}, "id": "8Zv5EXnmA35_vptFW8Wxc0Lff5k=", "properties": {"@spider": "usps_collection_boxes", "addr:city": "CONCORD", "addr:country": "US", "addr:full": "2 PILLSBURY ST", "addr:postcode": "03301", "addr:state": "NH", "amenity": "post_box", "brand": "United States Postal Service", "brand:wikidata": "Q668687", "collection_times": "Mo-Fr 15:00; Sa 11:00", "name": "USPS COLLECTION BOX - BLUE BOX", "note": "ON 12/24 AND 12/31, THIS BOX MAY BE COLLECTED AS EARLY AS 12 NOON.", "nsi_id": "unitedstatespostalservice-a77078", "operator": "United States Postal Service", "operator:short": "USPS", "operator:type": "public", "operator:wikidata": "Q668687", "ref": "0330100003"}, "type": "Feature"}
{"dataset_attributes": {"@spider": "usps_collection_boxes", "spider:collection_time": "2023-09-07T08:24:46.282741"}, "geometry": {"coordinates": [-71.4935133, 43.225363], "type": "Point"}, "id": "2NjSUuSplRusnvYMd-tcin-5eBI=", "properties": {"@spider": "usps_collection_boxes", "addr:city": "CONCORD", "addr:country": "US", "addr:full": "241 LOUDON RD", "addr:postcode": "03301", "addr:state": "NH", "amenity": "post_box", "brand": "United States Postal Service", "brand:wikidata": "Q668687", "collection_times": "Mo-Sa 10:00", "name": "USPS COLLECTION BOX - BLUE BOX", "nsi_id": "unitedstatespostalservice-a77078", "operator": "United States Postal Service", "operator:short": "USPS", "operator:type": "public", "operator:wikidata": "Q668687", "ref": "0330100004"}, "type": "Feature"}
{"dataset_attributes": {"@spider": "usps_collection_boxes", "spider:collection_time": "2023-09-07T08:24:46.282741"}, "geometry": {"coordinates": [-71.4965611, 43.218313], "type": "Point"}, "id": "eeC-SltUfqL9eiwmWqy5s9Pn2LQ=", "properties": {"@spider": "usps_collection_boxes", "addr:city": "CONCORD", "addr:country": "US", "addr:full": "58 BRANCH TPKE", "addr:postcode": "03301", "addr:state": "NH", "amenity": "post_box", "brand": "United States Postal Service", "brand:wikidata": "Q668687", "collection_times": "Mo-Sa 10:00", "name": "USPS COLLECTION BOX - BLUE BOX", "nsi_id": "unitedstatespostalservice-a77078", "operator": "United States Postal Service", "operator:short": "USPS", "operator:type": "public", "operator:wikidata": "Q668687", "ref": "0330100006"}, "type": "Feature"}
{"dataset_attributes": {"@spider": "usps_collection_boxes", "spider:collection_time": "2023-09-07T08:24:46.282741"}, "geometry": {"coordinates": [-71.5341114, 43.208235], "type": "Point"}, "id": "1uqHCp8uK9QAf3adO9ndTIb809E=", "properties": {"@spider": "usps_collection_boxes", "addr:city": "CONCORD", "addr:country": "US", "addr:full": "22 BRIDGE ST", "addr:postcode": "03301", "addr:state": "NH", "amenity": "post_box", "brand": "United States Postal Service", "brand:wikidata": "Q668687", "collection_times": "Mo-Fr 17:00; Sa 09:30", "name": "USPS COLLECTION BOX - BLUE BOX", "note": "ON 12/24 AND 12/31, THIS BOX MAY BE COLLECTED AS EARLY AS 12 NOON.", "nsi_id": "unitedstatespostalservice-a77078", "operator": "United States Postal Service", "operator:short": "USPS", "operator:type": "public", "operator:wikidata": "Q668687", "ref": "0330100007"}, "type": "Feature"}
{"dataset_attributes": {"@spider": "usps_collection_boxes", "spider:collection_time": "2023-09-07T08:24:46.282741"}, "geometry": {"coordinates": [-71.5342854, 43.1849], "type": "Point"}, "id": "FROOOutNvxfDH5jrATkfwHUxl5k=", "properties": {"@spider": "usps_collection_boxes", "addr:city": "CONCORD", "addr:country": "US", "addr:full": "130 BROADWAY", "addr:postcode": "03301", "addr:state": "NH", "amenity": "post_box", "brand": "United States Postal Service", "brand:wikidata": "Q668687", "collection_times": "Mo-Sa 10:00", "name": "USPS COLLECTION BOX - BLUE BOX", "nsi_id": "unitedstatespostalservice-a77078", "operator": "United States Postal Service", "operator:short": "USPS", "operator:type": "public", "operator:wikidata": "Q668687", "ref": "0330100009"}, "type": "Feature"}
{"dataset_attributes": {"@spider": "usps_collection_boxes", "spider:collection_time": "2023-09-07T08:24:46.282741"}, "geometry": {"coordinates": [-71.4963218, 43.223808], "type": "Point"}, "id": "khWvEp-MooAqYOHNpgQfseDT7KQ=", "properties": {"@spider": "usps_collection_boxes", "addr:city": "CONCORD", "addr:country": "US", "addr:full": "227 LOUDON RD", "addr:postcode": "03301", "addr:state": "NH", "amenity": "post_box", "brand": "United States Postal Service", "brand:wikidata": "Q668687", "collection_times": "Mo-Sa 10:00", "name": "USPS COLLECTION BOX - BLUE BOX", "nsi_id": "unitedstatespostalservice-a77078", "operator": "United States Postal Service", "operator:short": "USPS", "operator:type": "public", "operator:wikidata": "Q668687", "ref": "0330100011"}, "type": "Feature"}
{"dataset_attributes": {"@spider": "usps_collection_boxes", "spider:collection_time": "2023-09-07T08:24:46.282741"}, "geometry": {"coordinates": [-71.5389909, 43.206387], "type": "Point"}, "id": "nDPK8gAoX3QaFnngfzabF63y994=", "properties": {"@spider": "usps_collection_boxes", "addr:city": "CONCORD", "addr:country": "US", "addr:full": "30 CAPITOL ST", "addr:postcode": "03301", "addr:state": "NH", "amenity": "post_box", "brand": "United States Postal Service", "brand:wikidata": "Q668687", "collection_times": "Mo-Fr 17:00; Sa 10:00", "name": "USPS COLLECTION BOX - BLUE BOX", "note": "ON 12/24 AND 12/31, THIS BOX MAY BE COLLECTED AS EARLY AS 12 NOON.", "nsi_id": "unitedstatespostalservice-a77078", "operator": "United States Postal Service", "operator:short": "USPS", "operator:type": "public", "operator:wikidata": "Q668687", "ref": "0330100012"}, "type": "Feature"}
{"dataset_attributes": {"@spider": "usps_collection_boxes", "spider:collection_time": "2023-09-07T08:24:46.282741"}, "geometry": {"coordinates": [-71.5465056, 43.204792], "type": "Point"}, "id": "vHb1og940fsRYIe1fH9Twz6U0Fw=", "properties": {"@spider": "usps_collection_boxes", "addr:city": "CONCORD", "addr:country": "US", "addr:full": "36 PINE ST", "addr:postcode": "03301", "addr:state": "NH", "amenity": "post_box", "brand": "United States Postal Service", "brand:wikidata": "Q668687", "collection_times": "Mo-Sa 11:00", "name": "USPS COLLECTION BOX - BLUE BOX", "nsi_id": "unitedstatespostalservice-a77078", "operator": "United States Postal Service", "operator:short": "USPS", "operator:type": "public", "operator:wikidata": "Q668687", "ref": "0330100015"}, "type": "Feature"}
{"dataset_attributes": {"@spider": "usps_collection_boxes", "spider:collection_time": "2023-09-07T08:24:46.282741"}, "geometry": {"coordinates": [-71.5385253, 43.208285], "type": "Point"}, "id": "6udkILqoPN5i3424HiVkraOczD8=", "properties": {"@spider": "usps_collection_boxes", "addr:city": "CONCORD", "addr:country": "US", "addr:full": "14 CENTRE ST", "addr:postcode": "03301", "addr:state": "NH", "amenity": "post_box", "brand": "United States Postal Service", "brand:wikidata": "Q668687", "collection_times": "Mo-Fr 17:00; Sa 10:00", "name": "USPS COLLECTION BOX - BLUE BOX", "note": "ON 12/24 AND 12/31, THIS BOX MAY BE COLLECTED AS EARLY AS 12 NOON.", "nsi_id": "unitedstatespostalservice-a77078", "operator": "United States Postal Service", "operator:short": "USPS", "operator:type": "public", "operator:wikidata": "Q668687", "ref": "0330100016"}, "type": "Feature"}
{"dataset_attributes": {"@spider": "usps_collection_boxes", "spider:collection_time": "2023-09-07T08:24:46.282741"}, "geometry": {"coordinates": [-71.5089494, 43.219081], "type": "Point"}, "id": "OF-a1rtkbumGnv64q_7AHerBM6U=", "properties": {"@spider": "usps_collection_boxes", "addr:city": "CONCORD", "addr:country": "US", "addr:full": "33 CHRISTIAN AVE", "addr:postcode": "03301", "addr:state": "NH", "amenity": "post_box", "brand": "United States Postal Service", "brand:wikidata": "Q668687", "collection_times": "Mo-Sa 10:00", "name": "USPS COLLECTION BOX - BLUE BOX", "nsi_id": "unitedstatespostalservice-a77078", "operator": "United States Postal Service", "operator:short": "USPS", "operator:type": "public", "operator:wikidata": "Q668687", "ref": "0330100017"}, "type": "Feature"}
{"dataset_attributes": {"@spider": "usps_collection_boxes", "spider:collection_time": "2023-09-07T08:24:46.282741"}, "geometry": {"coordinates": [-71.5519119, 43.187243], "type": "Point"}, "id": "n7Yp1gTok9llS6KWKid-c-Da0xc=", "properties": {"@spider": "usps_collection_boxes", "addr:city": "CONCORD", "addr:country": "US", "addr:full": "99 CLINTON ST", "addr:postcode": "03301", "addr:state": "NH", "amenity": "post_box", "brand": "United States Postal Service", "brand:wikidata": "Q668687", "collection_times": "Mo-Sa 11:00", "name": "USPS COLLECTION BOX - BLUE BOX", "nsi_id": "unitedstatespostalservice-a77078", "operator": "United States Postal Service", "operator:short": "USPS", "operator:type": "public", "operator:wikidata": "Q668687", "ref": "0330100018"}, "type": "Feature"}
{"dataset_attributes": {"@spider": "usps_collection_boxes", "spider:collection_time": "2023-09-07T08:24:46.282741"}, "geometry": {"coordinates": [-71.536511, 43.206993], "type": "Point"}, "id": "s7L4bQQ2naAFkP_hNbU5kZAGqrE=", "properties": {"@spider": "usps_collection_boxes", "addr:city": "CONCORD", "addr:country": "US", "addr:full": "110 N MAIN ST", "addr:postcode": "03301", "addr:state": "NH", "amenity": "post_box", "brand": "United States Postal Service", "brand:wikidata": "Q668687", "collection_times": "Mo-Fr 17:00; Sa 10:00", "name": "USPS COLLECTION BOX - BLUE BOX", "note": "ON 12/24 AND 12/31, THIS BOX MAY BE COLLECTED AS EARLY AS 12 NOON.", "nsi_id": "unitedstatespostalservice-a77078", "operator": "United States Postal Service", "operator:short": "USPS", "operator:type": "public", "operator:wikidata": "Q668687", "ref": "0330100021"}, "type": "Feature"}
{"dataset_attributes": {"@spider": "usps_collection_boxes", "spider:collection_time": "2023-09-07T08:24:46.282741"}, "geometry": {"coordinates": [-71.5143822, 43.229022], "type": "Point"}, "id": "x8iPQ62LttGHgrMkXQ4jOwZE62M=", "properties": {"@spider": "usps_collection_boxes", "addr:city": "CONCORD", "addr:country": "US", "addr:full": "149 E SIDE DR", "addr:postcode": "03301", "addr:state": "NH", "amenity": "post_box", "brand": "United States Postal Service", "brand:wikidata": "Q668687", "collection_times": "Mo-Sa 12:00", "name": "USPS COLLECTION BOX - BLUE BOX", "nsi_id": "unitedstatespostalservice-a77078", "operator": "United States Postal Service", "operator:short": "USPS", "operator:type": "public", "operator:wikidata": "Q668687", "ref": "0330100024"}, "type": "Feature"}
{"dataset_attributes": {"@spider": "usps_collection_boxes", "spider:collection_time": "2023-09-07T08:24:46.282741"}, "geometry": {"coordinates": [-71.5384411, 43.212389], "type": "Point"}, "id": "Kfkzu0U5kVRpfOmddXHS1dHVIsw=", "properties": {"@spider": "usps_collection_boxes", "addr:city": "CONCORD", "addr:country": "US", "addr:full": "10 FERRY ST", "addr:postcode": "03301", "addr:state": "NH", "amenity": "post_box", "brand": "United States Postal Service", "brand:wikidata": "Q668687", "collection_times": "Mo-Fr 16:45; Sa 10:00", "name": "USPS COLLECTION BOX - BLUE BOX", "note": "ON 12/24 AND 12/31, THIS BOX MAY BE COLLECTED AS EARLY AS 12 NOON.", "nsi_id": "unitedstatespostalservice-a77078", "operator": "United States Postal Service", "operator:short": "USPS", "operator:type": "public", "operator:wikidata": "Q668687", "ref": "0330100025"}, "type": "Feature"}
{"dataset_attributes": {"@spider": "usps_collection_boxes", "spider:collection_time": "2023-09-07T08:24:46.282741"}, "geometry": {"coordinates": [-71.5306594, 43.212508], "type": "Point"}, "id": "H-UuUec0VRlN5mwmTBnYla1JDlo=", "properties": {"@spider": "usps_collection_boxes", "addr:city": "CONCORD", "addr:country": "US", "addr:full": "68 FORT EDDY RD", "addr:postcode": "03301", "addr:state": "NH", "amenity": "post_box", "brand": "United States Postal Service", "brand:wikidata": "Q668687", "collection_times": "Mo-Sa 10:00", "name": "USPS COLLECTION BOX - BLUE BOX", "nsi_id": "unitedstatespostalservice-a77078", "operator": "United States Postal Service", "operator:short": "USPS", "operator:type": "public", "operator:wikidata": "Q668687", "ref": "0330100031"}, "type": "Feature"}
{"dataset_attributes": {"@spider": "usps_collection_boxes", "spider:collection_time": "2023-09-07T08:24:46.282741"}, "geometry": {"coordinates": [-71.5328514, 43.212534], "type": "Point"}, "id": "vBZC3AOffMhckD_eEHTAsZ3ZTI4=", "properties": {"@spider": "usps_collection_boxes", "addr:city": "CONCORD", "addr:country": "US", "addr:full": "73 FORT EDDY RD", "addr:postcode": "03301", "addr:state": "NH", "amenity": "post_box", "brand": "United States Postal Service", "brand:wikidata": "Q668687", "collection_times": "Mo-Sa 10:00", "name": "USPS COLLECTION BOX - BLUE BOX", "nsi_id": "unitedstatespostalservice-a77078", "operator": "United States Postal Service", "operator:short": "USPS", "operator:type": "public", "operator:wikidata": "Q668687", "ref": "0330100032"}, "type": "Feature"}
{"dataset_attributes": {"@spider": "usps_collection_boxes", "spider:collection_time": "2023-09-07T08:24:46.282741"}, "geometry": {"coordinates": [-71.5298109, 43.214557], "type": "Point"}, "id": "6f5OcLj5CpYlVQ3oVq_d06KZia0=", "properties": {"@spider": "usps_collection_boxes", "addr:city": "CONCORD", "addr:country": "US", "addr:full": "104 FORT EDDY RD", "addr:postcode": "03301", "addr:state": "NH", "amenity": "post_box", "brand": "United States Postal Service", "brand:wikidata": "Q668687", "collection_times": "Mo-Sa 10:00", "name": "USPS COLLECTION BOX - BLUE BOX", "nsi_id": "unitedstatespostalservice-a77078", "operator": "United States Postal Service", "operator:short": "USPS", "operator:type": "public", "operator:wikidata": "Q668687", "ref": "0330100033"}, "type": "Feature"}
{"dataset_attributes": {"@spider": "usps_collection_boxes", "spider:collection_time": "2023-09-07T08:24:46.282741"}, "geometry": {"coordinates": [-71.5391971, 43.204316], "type": "Point"}, "id": "6x05PVzZFsL6R5LgPumYxcJKKMw=", "properties": {"@spider": "usps_collection_boxes", "addr:city": "CONCORD", "addr:country": "US", "addr:full": "16 GREEN ST", "addr:postcode": "03301", "addr:state": "NH", "amenity": "post_box", "brand": "United States Postal Service", "brand:wikidata": "Q668687", "collection_times": "Mo-Sa 10:00", "name": "USPS COLLECTION BOX - BLUE BOX", "nsi_id": "unitedstatespostalservice-a77078", "operator": "United States Postal Service", "operator:short": "USPS", "operator:type": "public", "operator:wikidata": "Q668687", "ref": "0330100034"}, "type": "Feature"}
{"dataset_attributes": {"@spider": "usps_collection_boxes", "spider:collection_time": "2023-09-07T08:24:46.282741"}, "geometry": {"coordinates": [-71.5149128, 43.219379], "type": "Point"}, "id": "qUnEV8X-MF6owQsbPdCsdw8WOWA=", "properties": {"@spider": "usps_collection_boxes", "addr:city": "CONCORD", "addr:country": "US", "addr:full": "6 HAZEN DR", "addr:postcode": "03301", "addr:state": "NH", "amenity": "post_box", "brand": "United States Postal Service", "brand:wikidata": "Q668687", "collection_times": "Mo-Fr 09:00", "name": "USPS COLLECTION BOX - BLUE BOX", "nsi_id": "unitedstatespostalservice-a77078", "operator": "United States Postal Service", "operator:short": "USPS", "operator:type": "public", "operator:wikidata": "Q668687", "ref": "0330100035"}, "type": "Feature"}
{"dataset_attributes": {"@spider": "usps_collection_boxes", "spider:collection_time": "2023-09-07T08:24:46.282741"}, "geometry": {"coordinates": [-71.5200252, 43.213318], "type": "Point"}, "id": "4ozJAUH2sll1yc8Ab_Wd3G2iRf8=", "properties": {"@spider": "usps_collection_boxes", "addr:city": "CONCORD", "addr:country": "US", "addr:full": "1 HAZEN DR", "addr:postcode": "03301", "addr:state": "NH", "amenity": "post_box", "brand": "United States Postal Service", "brand:wikidata": "Q668687", "collection_times": "Mo-Fr 09:00", "name": "USPS COLLECTION BOX - BLUE BOX", "nsi_id": "unitedstatespostalservice-a77078", "operator": "United States Postal Service", "operator:short": "USPS", "operator:type": "public", "operator:wikidata": "Q668687", "ref": "0330100036"}, "type": "Feature"}
{"dataset_attributes": {"@spider": "usps_collection_boxes", "spider:collection_time": "2023-09-07T08:24:46.282741"}, "geometry": {"coordinates": [-71.533413042, 43.224421806], "type": "Point"}, "id": "uEsedISOvdecfYtNCe_yphudKAs=", "properties": {"@spider": "usps_collection_boxes", "addr:city": "CONCORD", "addr:country": "US", "addr:full": "3 INSTITUTE DR", "addr:postcode": "03301", "addr:state": "NH", "amenity": "post_box", "brand": "United States Postal Service", "brand:wikidata": "Q668687", "collection_times": "Mo-Fr 11:00; Sa 09:30", "name": "USPS COLLECTION BOX - BLUE BOX", "nsi_id": "unitedstatespostalservice-a77078", "operator": "United States Postal Service", "operator:short": "USPS", "operator:type": "public", "operator:wikidata": "Q668687", "ref": "0330100037"}, "type": "Feature"}
{"dataset_attributes": {"@spider": "usps_collection_boxes", "spider:collection_time": "2023-09-07T08:24:46.282741"}, "geometry": {"coordinates": [-71.5271339, 43.208519], "type": "Point"}, "id": "rk7CCT3104H5VNZ6aH8t1crL7QA=", "properties": {"@spider": "usps_collection_boxes", "addr:city": "CONCORD", "addr:country": "US", "addr:full": "18 LOUDON RD", "addr:postcode": "03301", "addr:state": "NH", "amenity": "post_box", "brand": "United States Postal Service", "brand:wikidata": "Q668687", "collection_times": "Mo-Fr 17:30; Sa 13:30", "name": "USPS COLLECTION BOX - BLUE BOX", "note": "ON 12/24 AND 12/31, THIS BOX MAY BE COLLECTED AS EARLY AS 12 NOON.", "nsi_id": "unitedstatespostalservice-a77078", "operator": "United States Postal Service", "operator:short": "USPS", "operator:type": "public", "operator:wikidata": "Q668687", "ref": "0330100039"}, "type": "Feature"}
{"dataset_attributes": {"@spider": "usps_collection_boxes", "spider:collection_time": "2023-09-07T08:24:46.282741"}, "geometry": {"coordinates": [-71.5271704, 43.208507], "type": "Point"}, "id": "stD-fBJvfkbWOBd3CttaAWXWd34=", "properties": {"@spider": "usps_collection_boxes", "addr:city": "CONCORD", "addr:country": "US", "addr:full": "18 LOUDON RD", "addr:postcode": "03301", "addr:state": "NH", "amenity": "post_box", "brand": "United States Postal Service", "brand:wikidata": "Q668687", "collection_times": "Mo-Fr 17:30; Sa 13:30", "name": "USPS COLLECTION BOX - BLUE BOX", "note": "ON 12/24 AND 12/31, THIS BOX MAY BE COLLECTED AS EARLY AS 12 NOON.", "nsi_id": "unitedstatespostalservice-a77078", "operator": "United States Postal Service", "operator:short": "USPS", "operator:type": "public", "operator:wikidata": "Q668687", "ref": "0330100044"}, "type": "Feature"}
{"dataset_attributes": {"@spider": "usps_collection_boxes", "spider:collection_time": "2023-09-07T08:24:46.282741"}, "geometry": {"coordinates": [-71.5011123, 43.218699], "type": "Point"}, "id": "PKvVN5B19LcfApSkjOkwGc5fTgU=", "properties": {"@spider": "usps_collection_boxes", "addr:city": "CONCORD", "addr:country": "US", "addr:full": "176 LOUDON RD", "addr:postcode": "03301", "addr:state": "NH", "amenity": "post_box", "brand": "United States Postal Service", "brand:wikidata": "Q668687", "collection_times": "Mo-Sa 09:00", "name": "USPS COLLECTION BOX - BLUE BOX", "nsi_id": "unitedstatespostalservice-a77078", "operator": "United States Postal Service", "operator:short": "USPS", "operator:type": "public", "operator:wikidata": "Q668687", "ref": "0330100046"}, "type": "Feature"}
{"dataset_attributes": {"@spider": "usps_collection_boxes", "spider:collection_time": "2023-09-07T08:24:46.282741"}, "geometry": {"coordinates": [-71.5011076, 43.218696], "type": "Point"}, "id": "BH-J7_VRZcIdMezoeryLYQVP3Zw=", "properties": {"@spider": "usps_collection_boxes", "addr:city": "CONCORD", "addr:country": "US", "addr:full": "176 LOUDON RD", "addr:postcode": "03301", "addr:state": "NH", "amenity": "post_box", "brand": "United States Postal Service", "brand:wikidata": "Q668687", "collection_times": "Mo-Sa 09:00", "name": "USPS COLLECTION BOX - BLUE BOX", "nsi_id": "unitedstatespostalservice-a77078", "operator": "United States Postal Service", "operator:short": "USPS", "operator:type": "public", "operator:wikidata": "Q668687", "ref": "0330100047"}, "type": "Feature"}
{"dataset_attributes": {"@spider": "usps_collection_boxes", "spider:collection_time": "2023-09-07T08:24:46.282741"}, "geometry": {"coordinates": [-71.4853949, 43.221839], "type": "Point"}, "id": "5HLLT9ffQklA6CVDb4upoAD56Do=", "properties": {"@spider": "usps_collection_boxes", "addr:city": "CONCORD", "addr:country": "US", "addr:full": "270 LOUDON RD", "addr:postcode": "03301", "addr:state": "NH", "amenity": "post_box", "brand": "United States Postal Service", "brand:wikidata": "Q668687", "collection_times": "Mo-Fr 11:00; Sa 11:30", "name": "USPS COLLECTION BOX - BLUE BOX", "nsi_id": "unitedstatespostalservice-a77078", "operator": "United States Postal Service", "operator:short": "USPS", "operator:type": "public", "operator:wikidata": "Q668687", "ref": "0330100050"}, "type": "Feature"}
{"dataset_attributes": {"@spider": "usps_collection_boxes", "spider:collection_time": "2023-09-07T08:24:46.282741"}, "geometry": {"coordinates": [-71.5000494, 43.188219], "type": "Point"}, "id": "P6Ysxj9pyS-BmsdGU0RlPjM4j7M=", "properties": {"@spider": "usps_collection_boxes", "addr:city": "CONCORD", "addr:country": "US", "addr:full": "153 MANCHESTER ST", "addr:postcode": "03301", "addr:state": "NH", "amenity": "post_box", "brand": "United States Postal Service", "brand:wikidata": "Q668687", "collection_times": "Mo-Sa 10:00", "name": "USPS COLLECTION BOX - BLUE BOX", "nsi_id": "unitedstatespostalservice-a77078", "operator": "United States Postal Service", "operator:short": "USPS", "operator:type": "public", "operator:wikidata": "Q668687", "ref": "0330100056"}, "type": "Feature"}
{"dataset_attributes": {"@spider": "usps_collection_boxes", "spider:collection_time": "2023-09-07T08:24:46.282741"}, "geometry": {"coordinates": [-71.5420509649, 43.2114569904], "type": "Point"}, "id": "JvJpC0Y-1AvWOL4X7JdwtmAL230=", "properties": {"@spider": "usps_collection_boxes", "addr:city": "CONCORD", "addr:country": "US", "addr:full": "2-1/2 BEACON ST", "addr:postcode": "03301", "addr:state": "NH", "amenity": "post_box", "brand": "United States Postal Service", "brand:wikidata": "Q668687", "collection_times": "Mo-Sa 10:00", "name": "USPS COLLECTION BOX - BLUE BOX", "nsi_id": "unitedstatespostalservice-a77078", "operator": "United States Postal Service", "operator:short": "USPS", "operator:type": "public", "operator:wikidata": "Q668687", "ref": "0330100058"}, "type": "Feature"}
{"dataset_attributes": {"@spider": "usps_collection_boxes", "spider:collection_time": "2023-09-07T08:24:46.282741"}, "geometry": {"coordinates": [-71.5349147, 43.236018], "type": "Point"}, "id": "zeqwohg8efR92IlWf49tBfrOGFI=", "properties": {"@spider": "usps_collection_boxes", "addr:city": "CONCORD", "addr:country": "US", "addr:full": "11 EASTMAN ST", "addr:postcode": "03301", "addr:state": "NH", "amenity": "post_box", "brand": "United States Postal Service", "brand:wikidata": "Q668687", "collection_times": "Mo-Sa 10:00", "name": "USPS COLLECTION BOX - BLUE BOX", "nsi_id": "unitedstatespostalservice-a77078", "operator": "United States Postal Service", "operator:short": "USPS", "operator:type": "public", "operator:wikidata": "Q668687", "ref": "0330100059"}, "type": "Feature"}
{"dataset_attributes": {"@spider": "usps_collection_boxes", "spider:collection_time": "2023-09-07T08:24:46.282741"}, "geometry": {"coordinates": [-71.5377064, 43.20992], "type": "Point"}, "id": "5Lf6wHLGxoF1ZeuPhTe2CFzr73o=", "properties": {"@spider": "usps_collection_boxes", "addr:city": "CONCORD", "addr:country": "US", "addr:full": "163 N MAIN ST", "addr:postcode": "03301", "addr:state": "NH", "amenity": "post_box", "brand": "United States Postal Service", "brand:wikidata": "Q668687", "collection_times": "Mo-Fr 17:00; Sa 10:00", "name": "USPS COLLECTION BOX - BLUE BOX", "note": "ON 12/24 AND 12/31, THIS BOX MAY BE COLLECTED AS EARLY AS 12 NOON.", "nsi_id": "unitedstatespostalservice-a77078", "operator": "United States Postal Service", "operator:short": "USPS", "operator:type": "public", "operator:wikidata": "Q668687", "ref": "0330100060"}, "type": "Feature"}
{"dataset_attributes": {"@spider": "usps_collection_boxes", "spider:collection_time": "2023-09-07T08:24:46.282741"}, "geometry": {"coordinates": [-71.5362733894, 43.2058194142], "type": "Point"}, "id": "bXRPB5oylDY4TMEa2YvU0jpspN0=", "properties": {"@spider": "usps_collection_boxes", "addr:city": "CONCORD", "addr:country": "US", "addr:full": "43 N MAIN ST", "addr:postcode": "03301", "addr:state": "NH", "amenity": "post_box", "brand": "United States Postal Service", "brand:wikidata": "Q668687", "collection_times": "Mo-Fr 17:00; Sa 10:00", "name": "USPS COLLECTION BOX - BLUE BOX", "note": "ON 12/24 AND 12/31, THIS BOX MAY BE COLLECTED AS EARLY AS 12 NOON.", "nsi_id": "unitedstatespostalservice-a77078", "operator": "United States Postal Service", "operator:short": "USPS", "operator:type": "public", "operator:wikidata": "Q668687", "ref": "0330100063"}, "type": "Feature"}
{"dataset_attributes": {"@spider": "usps_collection_boxes", "spider:collection_time": "2023-09-07T08:24:46.282741"}, "geometry": {"coordinates": [-71.5368707, 43.207985], "type": "Point"}, "id": "UT5tpHCUbecFn7Q-7bySMZ6melE=", "properties": {"@spider": "usps_collection_boxes", "addr:city": "CONCORD", "addr:country": "US", "addr:full": "125 N MAIN ST", "addr:postcode": "03301", "addr:state": "NH", "amenity": "post_box", "brand": "United States Postal Service", "brand:wikidata": "Q668687", "collection_times": "Mo-Fr 17:00; Sa 10:00", "name": "USPS COLLECTION BOX - BLUE BOX", "note": "ON 12/24 AND 12/31, THIS BOX MAY BE COLLECTED AS EARLY AS 12 NOON.", "nsi_id": "unitedstatespostalservice-a77078", "operator": "United States Postal Service", "operator:short": "USPS", "operator:type": "public", "operator:wikidata": "Q668687", "ref": "0330100064"}, "type": "Feature"}
{"dataset_attributes": {"@spider": "usps_collection_boxes", "spider:collection_time": "2023-09-07T08:24:46.282741"}, "geometry": {"coordinates": [-71.5356785, 43.204346], "type": "Point"}, "id": "87GRN5SHcbIETPyfPNLGLfTHwNg=", "properties": {"@spider": "usps_collection_boxes", "addr:city": "CONCORD", "addr:country": "US", "addr:full": "2 N MAIN ST", "addr:postcode": "03301", "addr:state": "NH", "amenity": "post_box", "brand": "United States Postal Service", "brand:wikidata": "Q668687", "collection_times": "Mo-Fr 17:00; Sa 12:00", "name": "USPS COLLECTION BOX - BLUE BOX", "note": "ON 12/24 AND 12/31, THIS BOX MAY BE COLLECTED AS EARLY AS 12 NOON.", "nsi_id": "unitedstatespostalservice-a77078", "operator": "United States Postal Service", "operator:short": "USPS", "operator:type": "public", "operator:wikidata": "Q668687", "ref": "0330100065"}, "type": "Feature"}
{"dataset_attributes": {"@spider": "usps_collection_boxes", "spider:collection_time": "2023-09-07T08:24:46.282741"}, "geometry": {"coordinates": [-71.5362515, 43.205767], "type": "Point"}, "id": "GaMQTnQ2Yf1RjoSyq1hjJ4O3mhw=", "properties": {"@spider": "usps_collection_boxes", "addr:city": "CONCORD", "addr:country": "US", "addr:full": "54 N MAIN ST", "addr:postcode": "03301", "addr:state": "NH", "amenity": "post_box", "brand": "United States Postal Service", "brand:wikidata": "Q668687", "collection_times": "Mo-Fr 17:00; Sa 10:00", "name": "USPS COLLECTION BOX - BLUE BOX", "note": "ON 12/24 AND 12/31, THIS BOX MAY BE COLLECTED AS EARLY AS 12 NOON.", "nsi_id": "unitedstatespostalservice-a77078", "operator": "United States Postal Service", "operator:short": "USPS", "operator:type": "public", "operator:wikidata": "Q668687", "ref": "0330100067"}, "type": "Feature"}
{"dataset_attributes": {"@spider": "usps_collection_boxes", "spider:collection_time": "2023-09-07T08:24:46.282741"}, "geometry": {"coordinates": [-71.5403875, 43.209683], "type": "Point"}, "id": "FY_e5Cpuy__ekUxZkkhr8H9ueb0=", "properties": {"@spider": "usps_collection_boxes", "addr:city": "CONCORD", "addr:country": "US", "addr:full": "95 N STATE ST", "addr:postcode": "03301", "addr:state": "NH", "amenity": "post_box", "brand": "United States Postal Service", "brand:wikidata": "Q668687", "collection_times": "Mo-Sa 10:00", "name": "USPS COLLECTION BOX - BLUE BOX", "nsi_id": "unitedstatespostalservice-a77078", "operator": "United States Postal Service", "operator:short": "USPS", "operator:type": "public", "operator:wikidata": "Q668687", "ref": "0330100068"}, "type": "Feature"}
{"dataset_attributes": {"@spider": "usps_collection_boxes", "spider:collection_time": "2023-09-07T08:24:46.282741"}, "geometry": {"coordinates": [-71.5715524, 43.24705], "type": "Point"}, "id": "jp9cNTYkWxg60StZC-owAGqLlbw=", "properties": {"@spider": "usps_collection_boxes", "addr:city": "CONCORD", "addr:country": "US", "addr:full": "538 N STATE ST", "addr:postcode": "03301", "addr:state": "NH", "amenity": "post_box", "brand": "United States Postal Service", "brand:wikidata": "Q668687", "collection_times": "Mo-Sa 11:00", "name": "USPS COLLECTION BOX - BLUE BOX", "nsi_id": "unitedstatespostalservice-a77078", "operator": "United States Postal Service", "operator:short": "USPS", "operator:type": "public", "operator:wikidata": "Q668687", "ref": "0330100069"}, "type": "Feature"}
{"dataset_attributes": {"@spider": "usps_collection_boxes", "spider:collection_time": "2023-09-07T08:24:46.282741"}, "geometry": {"coordinates": [-71.5475240124, 43.2173550004], "type": "Point"}, "id": "YlEboBwGgz3na5xfL_HAEp9g28A=", "properties": {"@spider": "usps_collection_boxes", "addr:city": "CONCORD", "addr:country": "US", "addr:full": "165 N STATE ST", "addr:postcode": "03301", "addr:state": "NH", "amenity": "post_box", "brand": "United States Postal Service", "brand:wikidata": "Q668687", "collection_times": "Mo-Sa 10:00", "name": "USPS COLLECTION BOX - BLUE BOX", "nsi_id": "unitedstatespostalservice-a77078", "operator": "United States Postal Service", "operator:short": "USPS", "operator:type": "public", "operator:wikidata": "Q668687", "ref": "0330100071"}, "type": "Feature"}
{"dataset_attributes": {"@spider": "usps_collection_boxes", "spider:collection_time": "2023-09-07T08:24:46.282741"}, "geometry": {"coordinates": [-71.5615171, 43.2332], "type": "Point"}, "id": "FYLAZKzW0pLUYS3oUYltL3P9vH8=", "properties": {"@spider": "usps_collection_boxes", "addr:city": "CONCORD", "addr:country": "US", "addr:full": "330 N STATE ST", "addr:postcode": "03301", "addr:state": "NH", "amenity": "post_box", "brand": "United States Postal Service", "brand:wikidata": "Q668687", "collection_times": "Mo-Sa 10:00", "name": "USPS COLLECTION BOX - BLUE BOX", "nsi_id": "unitedstatespostalservice-a77078", "operator": "United States Postal Service", "operator:short": "USPS", "operator:type": "public", "operator:wikidata": "Q668687", "ref": "0330100072"}, "type": "Feature"}
{"dataset_attributes": {"@spider": "usps_collection_boxes", "spider:collection_time": "2023-09-07T08:24:46.282741"}, "geometry": {"coordinates": [-71.5652659, 43.238915], "type": "Point"}, "id": "qixFlSINV67dt5OHUFgRaO4JEbg=", "properties": {"@spider": "usps_collection_boxes", "addr:city": "CONCORD", "addr:country": "US", "addr:full": "394 N STATE ST", "addr:postcode": "03301", "addr:state": "NH", "amenity": "post_box", "brand": "United States Postal Service", "brand:wikidata": "Q668687", "collection_times": "Mo-Sa 09:00", "name": "USPS COLLECTION BOX - BLUE BOX", "nsi_id": "unitedstatespostalservice-a77078", "operator": "United States Postal Service", "operator:short": "USPS", "operator:type": "public", "operator:wikidata": "Q668687", "ref": "0330100073"}, "type": "Feature"}
{"dataset_attributes": {"@spider": "usps_collection_boxes", "spider:collection_time": "2023-09-07T08:24:46.282741"}, "geometry": {"coordinates": [-71.5374178, 43.204227], "type": "Point"}, "id": "7hIqDL8xBuuR8b3V-HVhBzM1UNc=", "properties": {"@spider": "usps_collection_boxes", "addr:city": "CONCORD", "addr:country": "US", "addr:full": "7 N STATE ST", "addr:postcode": "03301", "addr:state": "NH", "amenity": "post_box", "brand": "United States Postal Service", "brand:wikidata": "Q668687", "collection_times": "Mo-Sa 10:00", "name": "USPS COLLECTION BOX - BLUE BOX", "nsi_id": "unitedstatespostalservice-a77078", "operator": "United States Postal Service", "operator:short": "USPS", "operator:type": "public", "operator:wikidata": "Q668687", "ref": "0330100074"}, "type": "Feature"}
{"dataset_attributes": {"@spider": "usps_collection_boxes", "spider:collection_time": "2023-09-07T08:24:46.282741"}, "geometry": {"coordinates": [-71.5521852, 43.198792], "type": "Point"}, "id": "CPn-OqiDe869-2As1PPoFY5N28U=", "properties": {"@spider": "usps_collection_boxes", "addr:city": "CONCORD", "addr:country": "US", "addr:full": "194 PLEASANT ST", "addr:postcode": "03301", "addr:state": "NH", "amenity": "post_box", "brand": "United States Postal Service", "brand:wikidata": "Q668687", "collection_times": "Mo-Sa 10:00", "name": "USPS COLLECTION BOX - BLUE BOX", "nsi_id": "unitedstatespostalservice-a77078", "operator": "United States Postal Service", "operator:short": "USPS", "operator:type": "public", "operator:wikidata": "Q668687", "ref": "0330100079"}, "type": "Feature"}
{"dataset_attributes": {"@spider": "usps_collection_boxes", "spider:collection_time": "2023-09-07T08:24:46.282741"}, "geometry": {"coordinates": [-71.5627379, 43.197716], "type": "Point"}, "id": "aT7ga2hbWbjZr3siJnOtNNZzL0o=", "properties": {"@spider": "usps_collection_boxes", "addr:city": "CONCORD", "addr:country": "US", "addr:full": "250 PLEASANT ST", "addr:postcode": "03301", "addr:state": "NH", "amenity": "post_box", "brand": "United States Postal Service", "brand:wikidata": "Q668687", "collection_times": "Mo-Fr 16:00; Sa 10:00", "name": "USPS COLLECTION BOX - BLUE BOX", "note": "ON 12/24 AND 12/31, THIS BOX MAY BE COLLECTED AS EARLY AS 12 NOON.", "nsi_id": "unitedstatespostalservice-a77078", "operator": "United States Postal Service", "operator:short": "USPS", "operator:type": "public", "operator:wikidata": "Q668687", "ref": "0330100081"}, "type": "Feature"}
{"dataset_attributes": {"@spider": "usps_collection_boxes", "spider:collection_time": "2023-09-07T08:24:46.282741"}, "geometry": {"coordinates": [-71.573925956, 43.192526065], "type": "Point"}, "id": "dNPNkcLhP6NKjyGUETde8iLkQjc=", "properties": {"@spider": "usps_collection_boxes", "addr:city": "CONCORD", "addr:country": "US", "addr:full": "54 DUNBARTON RD", "addr:postcode": "03301", "addr:state": "NH", "amenity": "post_box", "brand": "United States Postal Service", "brand:wikidata": "Q668687", "collection_times": "Mo-Fr 11:00; Sa 09:00", "name": "USPS COLLECTION BOX - BLUE BOX", "nsi_id": "unitedstatespostalservice-a77078", "operator": "United States Postal Service", "operator:short": "USPS", "operator:type": "public", "operator:wikidata": "Q668687", "ref": "0330100083"}, "type": "Feature"}
{"dataset_attributes": {"@spider": "usps_collection_boxes", "spider:collection_time": "2023-09-07T08:24:46.282741"}, "geometry": {"coordinates": [-71.5383233, 43.203095], "type": "Point"}, "id": "e_oQ_OjBkIKG7xERVMBFLDepR9w=", "properties": {"@spider": "usps_collection_boxes", "addr:city": "CONCORD", "addr:country": "US", "addr:full": "35 PLEASANT ST", "addr:postcode": "03301", "addr:state": "NH", "amenity": "post_box", "brand": "United States Postal Service", "brand:wikidata": "Q668687", "collection_times": "Mo-Sa 10:00", "name": "USPS COLLECTION BOX - BLUE BOX", "nsi_id": "unitedstatespostalservice-a77078", "operator": "United States Postal Service", "operator:short": "USPS", "operator:type": "public", "operator:wikidata": "Q668687", "ref": "0330100084"}, "type": "Feature"}
{"dataset_attributes": {"@spider": "usps_collection_boxes", "spider:collection_time": "2023-09-07T08:24:46.282741"}, "geometry": {"coordinates": [-71.4837857, 43.206136], "type": "Point"}, "id": "bsCW4D4WNwQN_8_AcxOHDpplH3g=", "properties": {"@spider": "usps_collection_boxes", "addr:city": "CONCORD", "addr:country": "US", "addr:full": "59 CHENELL DR", "addr:postcode": "03301", "addr:state": "NH", "amenity": "post_box", "brand": "United States Postal Service", "brand:wikidata": "Q668687", "collection_times": "Mo-Sa 10:00", "name": "USPS COLLECTION BOX - BLUE BOX", "nsi_id": "unitedstatespostalservice-a77078", "operator": "United States Postal Service", "operator:short": "USPS", "operator:type": "public", "operator:wikidata": "Q668687", "ref": "0330100088"}, "type": "Feature"}
{"dataset_attributes": {"@spider": "usps_collection_boxes", "spider:collection_time": "2023-09-07T08:24:46.282741"}, "geometry": {"coordinates": [-71.5365122, 43.206288], "type": "Point"}, "id": "OhcSWoS91uhZTq0jv_cPnr1zjo0=", "properties": {"@spider": "usps_collection_boxes", "addr:city": "CONCORD", "addr:country": "US", "addr:full": "89 N MAIN ST", "addr:postcode": "03301", "addr:state": "NH", "amenity": "post_box", "brand": "United States Postal Service", "brand:wikidata": "Q668687", "collection_times": "Mo-Fr 17:00; Sa 10:00", "name": "USPS COLLECTION BOX - BLUE BOX", "note": "ON 12/24 AND 12/31, THIS BOX MAY BE COLLECTED AS EARLY AS 12 NOON.", "nsi_id": "unitedstatespostalservice-a77078", "operator": "United States Postal Service", "operator:short": "USPS", "operator:type": "public", "operator:wikidata": "Q668687", "ref": "0330100093"}, "type": "Feature"}
{"dataset_attributes": {"@spider": "usps_collection_boxes", "spider:collection_time": "2023-09-07T08:24:46.282741"}, "geometry": {"coordinates": [-71.5346503, 43.20181], "type": "Point"}, "id": "Olx6m8zYhsYwUFSRLtu9zwN1ltM=", "properties": {"@spider": "usps_collection_boxes", "addr:city": "CONCORD", "addr:country": "US", "addr:full": "40 S MAIN ST", "addr:postcode": "03301", "addr:state": "NH", "amenity": "post_box", "brand": "United States Postal Service", "brand:wikidata": "Q668687", "collection_times": "Mo-Fr 16:00; Sa 10:00", "name": "USPS COLLECTION BOX - BLUE BOX", "note": "ON 12/24 AND 12/31, THIS BOX MAY BE COLLECTED AS EARLY AS 12 NOON.", "nsi_id": "unitedstatespostalservice-a77078", "operator": "United States Postal Service", "operator:short": "USPS", "operator:type": "public", "operator:wikidata": "Q668687", "ref": "0330100095"}, "type": "Feature"}
{"dataset_attributes": {"@spider": "usps_collection_boxes", "spider:collection_time": "2023-09-07T08:24:46.282741"}, "geometry": {"coordinates": [-71.5422394, 43.180792], "type": "Point"}, "id": "Wr0dL4ZEH4BSoVatcgWZdaR6eDs=", "properties": {"@spider": "usps_collection_boxes", "addr:city": "CONCORD", "addr:country": "US", "addr:full": "250 SOUTH ST", "addr:postcode": "03301", "addr:state": "NH", "amenity": "post_box", "brand": "United States Postal Service", "brand:wikidata": "Q668687", "collection_times": "Mo-Sa 10:00", "name": "USPS COLLECTION BOX - BLUE BOX", "nsi_id": "unitedstatespostalservice-a77078", "operator": "United States Postal Service", "operator:short": "USPS", "operator:type": "public", "operator:wikidata": "Q668687", "ref": "0330100097"}, "type": "Feature"}
{"dataset_attributes": {"@spider": "usps_collection_boxes", "spider:collection_time": "2023-09-07T08:24:46.282741"}, "geometry": {"coordinates": [-71.5355917, 43.194832], "type": "Point"}, "id": "Up1lqCmeSJm4hNUtiPbax5mLQWY=", "properties": {"@spider": "usps_collection_boxes", "addr:city": "CONCORD", "addr:country": "US", "addr:full": "49 WEST ST", "addr:postcode": "03301", "addr:state": "NH", "amenity": "post_box", "brand": "United States Postal Service", "brand:wikidata": "Q668687", "collection_times": "Mo-Sa 10:00", "name": "USPS COLLECTION BOX - BLUE BOX", "nsi_id": "unitedstatespostalservice-a77078", "operator": "United States Postal Service", "operator:short": "USPS", "operator:type": "public", "operator:wikidata": "Q668687", "ref": "0330100099"}, "type": "Feature"}
{"dataset_attributes": {"@spider": "usps_collection_boxes", "spider:collection_time": "2023-09-07T08:24:46.282741"}, "geometry": {"coordinates": [-71.5332146, 43.204697], "type": "Point"}, "id": "oFvThoNbiLivDFfzAa_9drTb1TE=", "properties": {"@spider": "usps_collection_boxes", "addr:city": "CONCORD", "addr:country": "US", "addr:full": "80 STORRS ST", "addr:postcode": "03301", "addr:state": "NH", "amenity": "post_box", "brand": "United States Postal Service", "brand:wikidata": "Q668687", "collection_times": "Mo-Sa 10:00", "name": "USPS COLLECTION BOX - BLUE BOX", "nsi_id": "unitedstatespostalservice-a77078", "operator": "United States Postal Service", "operator:short": "USPS", "operator:type": "public", "operator:wikidata": "Q668687", "ref": "0330100100"}, "type": "Feature"}
{"dataset_attributes": {"@spider": "usps_collection_boxes", "spider:collection_time": "2023-09-07T08:24:46.282741"}, "geometry": {"coordinates": [-71.5391595, 43.197538], "type": "Point"}, "id": "x1_4ERnfU7xZqoSrD_jGzdith0Y=", "properties": {"@spider": "usps_collection_boxes", "addr:city": "CONCORD", "addr:country": "US", "addr:full": "47 SOUTH ST", "addr:postcode": "03301", "addr:state": "NH", "amenity": "post_box", "brand": "United States Postal Service", "brand:wikidata": "Q668687", "collection_times": "Mo-Sa 10:00", "name": "USPS COLLECTION BOX - BLUE BOX", "nsi_id": "unitedstatespostalservice-a77078", "operator": "United States Postal Service", "operator:short": "USPS", "operator:type": "public", "operator:wikidata": "Q668687", "ref": "0330100101"}, "type": "Feature"}
{"dataset_attributes": {"@spider": "usps_collection_boxes", "spider:collection_time": "2023-09-07T08:24:46.282741"}, "geometry": {"coordinates": [-71.5385178, 43.208285], "type": "Point"}, "id": "HBxMNdUiFuCTE3Nj2SnpOFBM4as=", "properties": {"@spider": "usps_collection_boxes", "addr:city": "CONCORD", "addr:country": "US", "addr:full": "14 CENTRE ST", "addr:postcode": "03301", "addr:state": "NH", "amenity": "post_box", "brand": "United States Postal Service", "brand:wikidata": "Q668687", "collection_times": "Mo-Fr 17:00; Sa 10:00", "name": "USPS COLLECTION BOX - BLUE BOX", "note": "ON 12/24 AND 12/31, THIS BOX MAY BE COLLECTED AS EARLY AS 12 NOON.", "nsi_id": "unitedstatespostalservice-a77078", "operator": "United States Postal Service", "operator:short": "USPS", "operator:type": "public", "operator:wikidata": "Q668687", "ref": "0330100103"}, "type": "Feature"}
{"dataset_attributes": {"@spider": "usps_collection_boxes", "spider:collection_time": "2023-09-07T08:24:46.282741"}, "geometry": {"coordinates": [-71.4950532, 43.211903], "type": "Point"}, "id": "K7ZQlOKEFHU2w4RNJE0QXYC_Guc=", "properties": {"@spider": "usps_collection_boxes", "addr:city": "CONCORD", "addr:country": "US", "addr:full": "53 REGIONAL DR", "addr:postcode": "03301", "addr:state": "NH", "amenity": "post_box", "brand": "United States Postal Service", "brand:wikidata": "Q668687", "collection_times": "Mo-Fr 17:00; Sa 09:00", "name": "USPS COLLECTION BOX - BLUE BOX", "note": "ON 12/24 AND 12/31, THIS BOX MAY BE COLLECTED AS EARLY AS 12 NOON.", "nsi_id": "unitedstatespostalservice-a77078", "operator": "United States Postal Service", "operator:short": "USPS", "operator:type": "public", "operator:wikidata": "Q668687", "ref": "0330100107"}, "type": "Feature"}
{"dataset_attributes": {"@spider": "usps_collection_boxes", "spider:collection_time": "2023-09-07T08:24:46.282741"}, "geometry": {"coordinates": [-71.542377, 43.203149], "type": "Point"}, "id": "Q1rLubFdXRLH2D9RT87ynwcCDuE=", "properties": {"@spider": "usps_collection_boxes", "addr:city": "CONCORD", "addr:country": "US", "addr:full": "17 RUMFORD ST", "addr:postcode": "03301", "addr:state": "NH", "amenity": "post_box", "brand": "United States Postal Service", "brand:wikidata": "Q668687", "collection_times": "Mo-Sa 10:00", "name": "USPS COLLECTION BOX - BLUE BOX", "nsi_id": "unitedstatespostalservice-a77078", "operator": "United States Postal Service", "operator:short": "USPS", "operator:type": "public", "operator:wikidata": "Q668687", "ref": "0330100109"}, "type": "Feature"}
{"dataset_attributes": {"@spider": "usps_collection_boxes", "spider:collection_time": "2023-09-07T08:24:46.282741"}, "geometry": {"coordinates": [-71.5362377, 43.205163], "type": "Point"}, "id": "2F_Yb5TXZ0cj8h5sRDvsMoJlbpY=", "properties": {"@spider": "usps_collection_boxes", "addr:city": "CONCORD", "addr:country": "US", "addr:full": "43 N MAIN ST", "addr:postcode": "03301", "addr:state": "NH", "amenity": "post_box", "brand": "United States Postal Service", "brand:wikidata": "Q668687", "collection_times": "Mo-Fr 17:00; Sa 10:00", "name": "USPS COLLECTION BOX - BLUE BOX", "note": "ON 12/24 AND 12/31, THIS BOX MAY BE COLLECTED AS EARLY AS 12 NOON.", "nsi_id": "unitedstatespostalservice-a77078", "operator": "United States Postal Service", "operator:short": "USPS", "operator:type": "public", "operator:wikidata": "Q668687", "ref": "0330100110"}, "type": "Feature"}
{"dataset_attributes": {"@spider": "usps_collection_boxes", "spider:collection_time": "2023-09-07T08:24:46.282741"}, "geometry": {"coordinates": [-71.4835604, 43.217374], "type": "Point"}, "id": "QzgyiG0lAkioURTSSI24HVQsIhg=", "properties": {"@spider": "usps_collection_boxes", "addr:city": "CONCORD", "addr:country": "US", "addr:full": "261 SHEEP DAVIS RD", "addr:postcode": "03301", "addr:state": "NH", "amenity": "post_box", "brand": "United States Postal Service", "brand:wikidata": "Q668687", "collection_times": "Mo-Fr 17:00; Sa 09:00", "name": "USPS COLLECTION BOX - BLUE BOX", "note": "ON 12/24 AND 12/31, THIS BOX MAY BE COLLECTED AS EARLY AS 12 NOON.", "nsi_id": "unitedstatespostalservice-a77078", "operator": "United States Postal Service", "operator:short": "USPS", "operator:type": "public", "operator:wikidata": "Q668687", "ref": "0330100111"}, "type": "Feature"}
{"dataset_attributes": {"@spider": "usps_collection_boxes", "spider:collection_time": "2023-09-07T08:24:46.282741"}, "geometry": {"coordinates": [-71.5030814, 43.218942], "type": "Point"}, "id": "TOeSwqyyC_ZHeUSSdtXJZH0lDdE=", "properties": {"@spider": "usps_collection_boxes", "addr:city": "CONCORD", "addr:country": "US", "addr:full": "181 LOUDON RD", "addr:postcode": "03301", "addr:state": "NH", "amenity": "post_box", "brand": "United States Postal Service", "brand:wikidata": "Q668687", "collection_times": "Mo-Sa 10:00", "name": "USPS COLLECTION BOX - BLUE BOX", "nsi_id": "unitedstatespostalservice-a77078", "operator": "United States Postal Service", "operator:short": "USPS", "operator:type": "public", "operator:wikidata": "Q668687", "ref": "0330100112"}, "type": "Feature"}
{"dataset_attributes": {"@spider": "usps_collection_boxes", "spider:collection_time": "2023-09-07T08:24:46.282741"}, "geometry": {"coordinates": [-71.5624714, 43.199364], "type": "Point"}, "id": "sOxY3HHPhmhNG5vXl8Nin-WWYzw=", "properties": {"@spider": "usps_collection_boxes", "addr:city": "CONCORD", "addr:country": "US", "addr:full": "248 PLEASANT ST", "addr:postcode": "03301", "addr:state": "NH", "amenity": "post_box", "brand": "United States Postal Service", "brand:wikidata": "Q668687", "collection_times": "Mo-Fr 16:00; Sa 10:00", "name": "USPS COLLECTION BOX - BLUE BOX", "note": "ON 12/24 AND 12/31, THIS BOX MAY BE COLLECTED AS EARLY AS 12 NOON.", "nsi_id": "unitedstatespostalservice-a77078", "operator": "United States Postal Service", "operator:short": "USPS", "operator:type": "public", "operator:wikidata": "Q668687", "ref": "0330100113"}, "type": "Feature"}
{"dataset_attributes": {"@spider": "usps_collection_boxes", "spider:collection_time": "2023-09-07T08:24:46.282741"}, "geometry": {"coordinates": [-71.526688, 43.208903], "type": "Point"}, "id": "7MHoYOwc926PmsVK4X7mUxjqdiQ=", "properties": {"@spider": "usps_collection_boxes", "addr:city": "CONCORD", "addr:country": "US", "addr:full": "18 LOUDON RD", "addr:postcode": "03301", "addr:state": "NH", "amenity": "post_box", "brand": "United States Postal Service", "brand:wikidata": "Q668687", "collection_times": "Mo-Fr 18:00; Sa 13:30", "name": "USPS COLLECTION BOX - PO LOBBY", "note": "ON 12/24 AND 12/31, THIS BOX MAY BE COLLECTED AS EARLY AS 12 NOON.", "nsi_id": "unitedstatespostalservice-a77078", "operator": "United States Postal Service", "operator:short": "USPS", "operator:type": "public", "operator:wikidata": "Q668687", "ref": "0330100114"}, "type": "Feature"}
{"dataset_attributes": {"@spider": "usps_collection_boxes", "spider:collection_time": "2023-09-07T08:24:46.282741"}, "geometry": {"coordinates": [-71.546943, 43.197574], "type": "Point"}, "id": "Xf8K-3CP0VeNLHzobC-70pAnUtg=", "properties": {"@spider": "usps_collection_boxes", "addr:city": "CONCORD", "addr:country": "US", "addr:full": "129 PLEASANT ST", "addr:postcode": "03301", "addr:state": "NH", "amenity": "post_box", "brand": "United States Postal Service", "brand:wikidata": "Q668687", "collection_times": "Mo-Fr 13:00", "name": "USPS COLLECTION BOX - BLUE BOX", "note": "ON 12/24 AND 12/31, THIS BOX MAY BE COLLECTED AS EARLY AS 12 NOON.", "nsi_id": "unitedstatespostalservice-a77078", "operator": "United States Postal Service", "operator:short": "USPS", "operator:type": "public", "operator:wikidata": "Q668687", "ref": "0330100121"}, "type": "Feature"}
{"dataset_attributes": {"@spider": "usps_collection_boxes", "spider:collection_time": "2023-09-07T08:24:46.282741"}, "geometry": {"coordinates": [-71.5353119, 43.219753], "type": "Point"}, "id": "myheKXG4vXHF7I6kgbyR55QVWYs=", "properties": {"@spider": "usps_collection_boxes", "addr:city": "CONCORD", "addr:country": "US", "addr:full": "70 COMMERCIAL ST", "addr:postcode": "03301", "addr:state": "NH", "amenity": "post_box", "brand": "United States Postal Service", "brand:wikidata": "Q668687", "collection_times": "Mo-Fr 15:45; Sa 09:30", "name": "USPS COLLECTION BOX - BLUE BOX", "note": "ON 12/24 AND 12/31, THIS BOX MAY BE COLLECTED AS EARLY AS 12 NOON.", "nsi_id": "unitedstatespostalservice-a77078", "operator": "United States Postal Service", "operator:short": "USPS", "operator:type": "public", "operator:wikidata": "Q668687", "ref": "0330100123"}, "type": "Feature"}
{"dataset_attributes": {"@spider": "usps_collection_boxes", "spider:collection_time": "2023-09-07T08:24:46.282741"}, "geometry": {"coordinates": [-71.526688, 43.208903], "type": "Point"}, "id": "7eBVffZNRoOWNvEW3L8zBRrPHac=", "properties": {"@spider": "usps_collection_boxes", "addr:city": "CONCORD", "addr:country": "US", "addr:full": "18 LOUDON RD", "addr:postcode": "03301", "addr:state": "NH", "amenity": "post_box", "brand": "United States Postal Service", "brand:wikidata": "Q668687", "collection_times": "Mo-Fr 18:00; Sa 13:30", "name": "USPS COLLECTION BOX - APC", "note": "ON 12/24 AND 12/31, THIS BOX MAY BE COLLECTED AS EARLY AS 12 NOON.", "nsi_id": "unitedstatespostalservice-a77078", "operator": "United States Postal Service", "operator:short": "USPS", "operator:type": "public", "operator:wikidata": "Q668687", "ref": "0330100125"}, "type": "Feature"}
{"dataset_attributes": {"@spider": "usps_collection_boxes", "spider:collection_time": "2023-09-07T08:24:46.282741"}, "geometry": {"coordinates": [-71.5328203, 43.192128], "type": "Point"}, "id": "jKOJGvj7hCL-2tZIcNnRNdTD2ms=", "properties": {"@spider": "usps_collection_boxes", "addr:city": "CONCORD", "addr:country": "US", "addr:full": "1 PILLSBURY ST", "addr:postcode": "03301", "addr:state": "NH", "amenity": "post_box", "brand": "United States Postal Service", "brand:wikidata": "Q668687", "collection_times": "Mo-Fr 15:00; Sa 11:00", "name": "USPS COLLECTION BOX - BLUE BOX", "note": "ON 12/24 AND 12/31, THIS BOX MAY BE COLLECTED AS EARLY AS 12 NOON.", "nsi_id": "unitedstatespostalservice-a77078", "operator": "United States Postal Service", "operator:short": "USPS", "operator:type": "public", "operator:wikidata": "Q668687", "ref": "0330100126"}, "type": "Feature"}
{"dataset_attributes": {"@spider": "usps_collection_boxes", "spider:collection_time": "2023-09-07T08:24:46.282741"}, "geometry": {"coordinates": [-71.5328108, 43.192104], "type": "Point"}, "id": "WZ7lVhrfDGpkfrZJ4JxCA5YTA3M=", "properties": {"@spider": "usps_collection_boxes", "addr:city": "CONCORD", "addr:country": "US", "addr:full": "1 PILLSBURY ST", "addr:postcode": "03301", "addr:state": "NH", "amenity": "post_box", "brand": "United States Postal Service", "brand:wikidata": "Q668687", "collection_times": "Mo-Fr 15:00; Sa 11:00", "name": "USPS COLLECTION BOX - BLUE BOX", "note": "ON 12/24 AND 12/31, THIS BOX MAY BE COLLECTED AS EARLY AS 12 NOON.", "nsi_id": "unitedstatespostalservice-a77078", "operator": "United States Postal Service", "operator:short": "USPS", "operator:type": "public", "operator:wikidata": "Q668687", "ref": "0330100127"}, "type": "Feature"}
{"dataset_attributes": {"@spider": "usps_collection_boxes", "spider:collection_time": "2023-09-07T08:24:46.282741"}, "geometry": {"coordinates": [-71.536508, 43.206269], "type": "Point"}, "id": "mdq_2CaEPrXL02mOEKc9Hs2RABU=", "properties": {"@spider": "usps_collection_boxes", "addr:city": "CONCORD", "addr:country": "US", "addr:full": "89 N MAIN ST", "addr:postcode": "03301", "addr:state": "NH", "amenity": "post_box", "brand": "United States Postal Service", "brand:wikidata": "Q668687", "collection_times": "Mo-Fr 17:00; Sa 10:00", "name": "USPS COLLECTION BOX - BLUE BOX", "note": "ON 12/24 AND 12/31, THIS BOX MAY BE COLLECTED AS EARLY AS 12 NOON.", "nsi_id": "unitedstatespostalservice-a77078", "operator": "United States Postal Service", "operator:short": "USPS", "operator:type": "public", "operator:wikidata": "Q668687", "ref": "0330100128"}, "type": "Feature"}
{"dataset_attributes": {"@spider": "usps_collection_boxes", "spider:collection_time": "2023-09-07T08:24:46.282741"}, "geometry": {"coordinates": [-71.4835547, 43.21739], "type": "Point"}, "id": "FHuYqJOJklL7lhNOpS2HLZpeyVM=", "properties": {"@spider": "usps_collection_boxes", "addr:city": "CONCORD", "addr:country": "US", "addr:full": "261 SHEEP DAVIS RD", "addr:postcode": "03301", "addr:state": "NH", "amenity": "post_box", "brand": "United States Postal Service", "brand:wikidata": "Q668687", "collection_times": "Mo-Fr 17:00; Sa 09:00", "name": "USPS COLLECTION BOX - BLUE BOX", "note": "ON 12/24 AND 12/31, THIS BOX MAY BE COLLECTED AS EARLY AS 12 NOON.", "nsi_id": "unitedstatespostalservice-a77078", "operator": "United States Postal Service", "operator:short": "USPS", "operator:type": "public", "operator:wikidata": "Q668687", "ref": "0330100129"}, "type": "Feature"}
{"dataset_attributes": {"@spider": "usps_collection_boxes", "spider:collection_time": "2023-09-07T08:24:46.282741"}, "geometry": {"coordinates": [-71.4950589, 43.211922], "type": "Point"}, "id": "FUY8S5iyWx48jF_UAjELLB4ULjs=", "properties": {"@spider": "usps_collection_boxes", "addr:city": "CONCORD", "addr:country": "US", "addr:full": "53 REGIONAL DR", "addr:postcode": "03301", "addr:state": "NH", "amenity": "post_box", "brand": "United States Postal Service", "brand:wikidata": "Q668687", "collection_times": "Mo-Fr 17:00; Sa 09:00", "name": "USPS COLLECTION BOX - BLUE BOX", "note": "ON 12/24 AND 12/31, THIS BOX MAY BE COLLECTED AS EARLY AS 12 NOON.", "nsi_id": "unitedstatespostalservice-a77078", "operator": "United States Postal Service", "operator:short": "USPS", "operator:type": "public", "operator:wikidata": "Q668687", "ref": "0330100130"}, "type": "Feature"}
{"dataset_attributes": {"@spider": "usps_collection_boxes", "spider:collection_time": "2023-09-07T08:24:46.282741"}, "geometry": {"coordinates": [-71.5365271, 43.206938], "type": "Point"}, "id": "t9yGTBSu-sdAsKUVVCw2_1CDO7I=", "properties": {"@spider": "usps_collection_boxes", "addr:city": "CONCORD", "addr:country": "US", "addr:full": "110 N MAIN ST", "addr:postcode": "03301", "addr:state": "NH", "amenity": "post_box", "brand": "United States Postal Service", "brand:wikidata": "Q668687", "collection_times": "Mo-Fr 17:00; Sa 12:00", "name": "USPS COLLECTION BOX - BLUE BOX", "note": "ON 12/24 AND 12/31, THIS BOX MAY BE COLLECTED AS EARLY AS 12 NOON.", "nsi_id": "unitedstatespostalservice-a77078", "operator": "United States Postal Service", "operator:short": "USPS", "operator:type": "public", "operator:wikidata": "Q668687", "ref": "0330100131"}, "type": "Feature"}
{"dataset_attributes": {"@spider": "usps_collection_boxes", "spider:collection_time": "2023-09-07T08:24:46.282741"}, "geometry": {"coordinates": [-71.5403768, 43.194306], "type": "Point"}, "id": "TiVtLuS4MKkppGmL-RZ36oe1HQc=", "properties": {"@spider": "usps_collection_boxes", "addr:city": "CONCORD", "addr:country": "US", "addr:full": "5 CLINTON ST", "addr:postcode": "03301", "addr:state": "NH", "amenity": "post_box", "brand": "United States Postal Service", "brand:wikidata": "Q668687", "collection_times": "Mo-Fr 10:00; Sa 09:00", "name": "USPS COLLECTION BOX - BLUE BOX", "nsi_id": "unitedstatespostalservice-a77078", "operator": "United States Postal Service", "operator:short": "USPS", "operator:type": "public", "operator:wikidata": "Q668687", "ref": "0330100132"}, "type": "Feature"}
{"dataset_attributes": {"@spider": "usps_collection_boxes", "spider:collection_time": "2023-09-07T08:24:46.282741"}, "geometry": {"coordinates": [-71.526383386, 43.208854095], "type": "Point"}, "id": "75Ul6zPCNe9vc8QAI-aXyphFhfQ=", "properties": {"@spider": "usps_collection_boxes", "addr:city": "CONCORD", "addr:country": "US", "addr:full": "18 LOUDON RD", "addr:postcode": "03301", "addr:state": "NH", "amenity": "post_box", "brand": "United States Postal Service", "brand:wikidata": "Q668687", "collection_times": "Mo-Fr 18:00; Sa 13:00", "name": "USPS COLLECTION BOX - PO LOBBY", "note": "ON 12/24 AND 12/31, THIS BOX MAY BE COLLECTED AS EARLY AS 12 NOON.", "nsi_id": "unitedstatespostalservice-a77078", "operator": "United States Postal Service", "operator:short": "USPS", "operator:type": "public", "operator:wikidata": "Q668687", "ref": "0330100139"}, "type": "Feature"}
{"dataset_attributes": {"@spider": "usps_collection_boxes", "spider:collection_time": "2023-09-07T08:24:46.282741"}, "geometry": {"coordinates": [-71.5878428, 43.26702], "type": "Point"}, "id": "WzZdskKTH5D_YatdWphjfyMr0PY=", "properties": {"@spider": "usps_collection_boxes", "addr:city": "PENACOOK", "addr:country": "US", "addr:full": "15 VILLAGE ST", "addr:postcode": "03303", "addr:state": "NH", "amenity": "post_box", "brand": "United States Postal Service", "brand:wikidata": "Q668687", "collection_times": "Mo-Fr 16:45; Sa 13:00", "name": "USPS COLLECTION BOX - BLUE BOX", "note": "ON 12/24 AND 12/31, THIS BOX MAY BE COLLECTED AS EARLY AS 12 NOON.", "nsi_id": "unitedstatespostalservice-a77078", "operator": "United States Postal Service", "operator:short": "USPS", "operator:type": "public", "operator:wikidata": "Q668687", "ref": "0330300004"}, "type": "Feature"}
{"dataset_attributes": {"@spider": "usps_collection_boxes", "spider:collection_time": "2023-09-07T08:24:46.282741"}, "geometry": {"coordinates": [-71.5996379, 43.280228], "type": "Point"}, "id": "nXH7Eu8n_eOLb82J0iX2CwnrxyM=", "properties": {"@spider": "usps_collection_boxes", "addr:city": "PENACOOK", "addr:country": "US", "addr:full": "308 VILLAGE ST", "addr:postcode": "03303", "addr:state": "NH", "amenity": "post_box", "brand": "United States Postal Service", "brand:wikidata": "Q668687", "collection_times": "Mo-Fr 10:00; Sa 09:00", "name": "USPS COLLECTION BOX - BLUE BOX", "nsi_id": "unitedstatespostalservice-a77078", "operator": "United States Postal Service", "operator:short": "USPS", "operator:type": "public", "operator:wikidata": "Q668687", "ref": "0330300005"}, "type": "Feature"}
{"dataset_attributes": {"@spider": "usps_collection_boxes", "spider:collection_time": "2023-09-07T08:24:46.282741"}, "geometry": {"coordinates": [-71.6058253, 43.274839], "type": "Point"}, "id": "GcW2nBRvUpdif6MM4cZM1uBMrCo=", "properties": {"@spider": "usps_collection_boxes", "addr:city": "PENACOOK", "addr:country": "US", "addr:full": "FRANCONIA RD", "addr:postcode": "03303", "addr:state": "NH", "amenity": "post_box", "brand": "United States Postal Service", "brand:wikidata": "Q668687", "collection_times": "Mo-Sa 13:00", "name": "USPS COLLECTION BOX - BLUE BOX", "note": "ON 12/24 AND 12/31, THIS BOX MAY BE COLLECTED AS EARLY AS 12 NOON.", "nsi_id": "unitedstatespostalservice-a77078", "operator": "United States Postal Service", "operator:short": "USPS", "operator:type": "public", "operator:wikidata": "Q668687", "ref": "0330300007"}, "type": "Feature"}
{"dataset_attributes": {"@spider": "usps_collection_boxes", "spider:collection_time": "2023-09-07T08:24:46.282741"}, "geometry": {"coordinates": [-71.6164430378, 43.3112590123], "type": "Point"}, "id": "p47Kz4OY_5YXC5xCLfVNT2qVplw=", "properties": {"@spider": "usps_collection_boxes", "addr:city": "PENACOOK", "addr:country": "US", "addr:full": "157 KING ST", "addr:postcode": "03303", "addr:state": "NH", "amenity": "post_box", "brand": "United States Postal Service", "brand:wikidata": "Q668687", "collection_times": "Mo-Sa 13:00", "name": "USPS COLLECTION BOX - BLUE BOX", "note": "ON 12/24 AND 12/31, THIS BOX MAY BE COLLECTED AS EARLY AS 12 NOON.", "nsi_id": "unitedstatespostalservice-a77078", "operator": "United States Postal Service", "operator:short": "USPS", "operator:type": "public", "operator:wikidata": "Q668687", "ref": "0330300008"}, "type": "Feature"}
{"dataset_attributes": {"@spider": "usps_collection_boxes", "spider:collection_time": "2023-09-07T08:24:46.282741"}, "geometry": {"coordinates": [-71.6004907, 43.280261], "type": "Point"}, "id": "Z2jer11b_SAko7PBNDTLwMk3pso=", "properties": {"@spider": "usps_collection_boxes", "addr:city": "PENACOOK", "addr:country": "US", "addr:full": "3 CHARLES ST", "addr:postcode": "03303", "addr:state": "NH", "amenity": "post_box", "brand": "United States Postal Service", "brand:wikidata": "Q668687", "collection_times": "Mo-Fr 10:00; Sa 09:00", "name": "USPS COLLECTION BOX - BLUE BOX", "nsi_id": "unitedstatespostalservice-a77078", "operator": "United States Postal Service", "operator:short": "USPS", "operator:type": "public", "operator:wikidata": "Q668687", "ref": "0330300009"}, "type": "Feature"}
{"dataset_attributes": {"@spider": "usps_collection_boxes", "spider:collection_time": "2023-09-07T08:24:46.282741"}, "geometry": {"coordinates": [-71.5756737, 43.253196], "type": "Point"}, "id": "CC9MuEKGa5JncWfh31DtRFuUWtE=", "properties": {"@spider": "usps_collection_boxes", "addr:city": "PENACOOK", "addr:country": "US", "addr:full": "47 FISHERVILLE RD", "addr:postcode": "03303", "addr:state": "NH", "amenity": "post_box", "brand": "United States Postal Service", "brand:wikidata": "Q668687", "collection_times": "Mo-Sa 13:30", "name": "USPS COLLECTION BOX - BLUE BOX", "note": "ON 12/24 AND 12/31, THIS BOX MAY BE COLLECTED AS EARLY AS 12 NOON.", "nsi_id": "unitedstatespostalservice-a77078", "operator": "United States Postal Service", "operator:short": "USPS", "operator:type": "public", "operator:wikidata": "Q668687", "ref": "0330300010"}, "type": "Feature"}
{"dataset_attributes": {"@spider": "usps_collection_boxes", "spider:collection_time": "2023-09-07T08:24:46.282741"}, "geometry": {"coordinates": [-71.580473, 43.26092], "type": "Point"}, "id": "qH-K-yAPKvPZcCZltbar-Ib_248=", "properties": {"@spider": "usps_collection_boxes", "addr:city": "PENACOOK", "addr:country": "US", "addr:full": "120 FISHERVILLE RD", "addr:postcode": "03303", "addr:state": "NH", "amenity": "post_box", "brand": "United States Postal Service", "brand:wikidata": "Q668687", "collection_times": "Mo-Sa 10:00", "name": "USPS COLLECTION BOX - BLUE BOX", "nsi_id": "unitedstatespostalservice-a77078", "operator": "United States Postal Service", "operator:short": "USPS", "operator:type": "public", "operator:wikidata": "Q668687", "ref": "0330300011"}, "type": "Feature"}
{"dataset_attributes": {"@spider": "usps_collection_boxes", "spider:collection_time": "2023-09-07T08:24:46.282741"}, "geometry": {"coordinates": [-71.586918418, 43.266801457], "type": "Point"}, "id": "AwfWcJH80BpZcrS65prooaCHzCo=", "properties": {"@spider": "usps_collection_boxes", "addr:city": "PENACOOK", "addr:country": "US", "addr:full": "15 VILLAGE ST STE 4", "addr:postcode": "03303", "addr:state": "NH", "amenity": "post_box", "brand": "United States Postal Service", "brand:wikidata": "Q668687", "collection_times": "Mo-Fr 16:45; Sa 13:00", "name": "USPS COLLECTION BOX - PO LOBBY", "note": "ON 12/24 AND 12/31, THIS BOX MAY BE COLLECTED AS EARLY AS 12 NOON.", "nsi_id": "unitedstatespostalservice-a77078", "operator": "United States Postal Service", "operator:short": "USPS", "operator:type": "public", "operator:wikidata": "Q668687", "ref": "0330300013"}, "type": "Feature"}
{"dataset_attributes": {"@spider": "usps_collection_boxes", "spider:collection_time": "2023-09-07T08:24:46.282741"}, "geometry": {"coordinates": [-71.6033879722, 43.2893579795], "type": "Point"}, "id": "T-qx4-a7F_-59Zy3F4EXMjFh73A=", "properties": {"@spider": "usps_collection_boxes", "addr:city": "PENACOOK", "addr:country": "US", "addr:full": "116 N MAIN ST", "addr:postcode": "03303", "addr:state": "NH", "amenity": "post_box", "brand": "United States Postal Service", "brand:wikidata": "Q668687", "collection_times": "Mo-Sa 10:00", "name": "USPS COLLECTION BOX - BLUE BOX", "nsi_id": "unitedstatespostalservice-a77078", "operator": "United States Postal Service", "operator:short": "USPS", "operator:type": "public", "operator:wikidata": "Q668687", "ref": "0330300014"}, "type": "Feature"}
{"dataset_attributes": {"@spider": "usps_collection_boxes", "spider:collection_time": "2023-09-07T08:24:46.282741"}, "geometry": {"coordinates": [-71.5361959, 43.154956], "type": "Point"}, "id": "d7ylXnhvm_bX7qSVo3TYP7djrHw=", "properties": {"@spider": "usps_collection_boxes", "addr:city": "BOW", "addr:country": "US", "addr:full": "2 KNOX RD", "addr:postcode": "03304", "addr:state": "NH", "amenity": "post_box", "brand": "United States Postal Service", "brand:wikidata": "Q668687", "collection_times": "Mo-Sa 13:00", "name": "USPS COLLECTION BOX - BLUE BOX", "note": "ON 12/24 AND 12/31, THIS BOX MAY BE COLLECTED AS EARLY AS 12 NOON.", "nsi_id": "unitedstatespostalservice-a77078", "operator": "United States Postal Service", "operator:short": "USPS", "operator:type": "public", "operator:wikidata": "Q668687", "ref": "0330400001"}, "type": "Feature"}
{"dataset_attributes": {"@spider": "usps_collection_boxes", "spider:collection_time": "2023-09-07T08:24:46.282741"}, "geometry": {"coordinates": [-71.5305715, 43.166268], "type": "Point"}, "id": "zo6msJ9V2WrKL4NILti7QA6qhYo=", "properties": {"@spider": "usps_collection_boxes", "addr:city": "BOW", "addr:country": "US", "addr:full": "10 GRANDVIEW RD", "addr:postcode": "03304", "addr:state": "NH", "amenity": "post_box", "brand": "United States Postal Service", "brand:wikidata": "Q668687", "collection_times": "Mo-Sa 12:00", "name": "USPS COLLECTION BOX - BLUE BOX", "nsi_id": "unitedstatespostalservice-a77078", "operator": "United States Postal Service", "operator:short": "USPS", "operator:type": "public", "operator:wikidata": "Q668687", "ref": "0330400002"}, "type": "Feature"}
{"dataset_attributes": {"@spider": "usps_collection_boxes", "spider:collection_time": "2023-09-07T08:24:46.282741"}, "geometry": {"coordinates": [-71.5359742, 43.173598], "type": "Point"}, "id": "Mpv3OdlHVFZk9_Oi2bSNp2LLCdA=", "properties": {"@spider": "usps_collection_boxes", "addr:city": "BOW", "addr:country": "US", "addr:full": "501 SOUTH ST", "addr:postcode": "03304", "addr:state": "NH", "amenity": "post_box", "brand": "United States Postal Service", "brand:wikidata": "Q668687", "collection_times": "Mo-Fr 15:00; Sa 10:00", "name": "USPS COLLECTION BOX - BLUE BOX", "note": "ON 12/24 AND 12/31, THIS BOX MAY BE COLLECTED AS EARLY AS 12 NOON.", "nsi_id": "unitedstatespostalservice-a77078", "operator": "United States Postal Service", "operator:short": "USPS", "operator:type": "public", "operator:wikidata": "Q668687", "ref": "0330400003"}, "type": "Feature"}
{"dataset_attributes": {"@spider": "usps_collection_boxes", "spider:collection_time": "2023-09-07T08:24:46.282741"}, "geometry": {"coordinates": [-71.4811867, 43.123047], "type": "Point"}, "id": "mneYzJYzGE7IGGvaWfdv27lv_aQ=", "properties": {"@spider": "usps_collection_boxes", "addr:city": "BOW", "addr:country": "US", "addr:full": "722 ROUTE 3A", "addr:postcode": "03304", "addr:state": "NH", "amenity": "post_box", "brand": "United States Postal Service", "brand:wikidata": "Q668687", "collection_times": "Mo-Sa 10:00", "name": "USPS COLLECTION BOX - BLUE BOX", "nsi_id": "unitedstatespostalservice-a77078", "operator": "United States Postal Service", "operator:short": "USPS", "operator:type": "public", "operator:wikidata": "Q668687", "ref": "0330400005"}, "type": "Feature"}
{"dataset_attributes": {"@spider": "usps_collection_boxes", "spider:collection_time": "2023-09-07T08:24:46.282741"}, "geometry": {"coordinates": [-71.4804734, 43.141817], "type": "Point"}, "id": "BsqN5dmx7F8GV_DREM5y-c0b78Q=", "properties": {"@spider": "usps_collection_boxes", "addr:city": "BOW", "addr:country": "US", "addr:full": "10 DUNKLEE RD", "addr:postcode": "03304", "addr:state": "NH", "amenity": "post_box", "brand": "United States Postal Service", "brand:wikidata": "Q668687", "collection_times": "Mo-Sa 10:00", "name": "USPS COLLECTION BOX - BLUE BOX", "nsi_id": "unitedstatespostalservice-a77078", "operator": "United States Postal Service", "operator:short": "USPS", "operator:type": "public", "operator:wikidata": "Q668687", "ref": "0330400006"}, "type": "Feature"}
{"dataset_attributes": {"@spider": "usps_collection_boxes", "spider:collection_time": "2023-09-07T08:24:46.282741"}, "geometry": {"coordinates": [-71.487851986, 43.149336988], "type": "Point"}, "id": "1nnaS5F_dPG4nSOU4aWt2MojYYY=", "properties": {"@spider": "usps_collection_boxes", "addr:city": "BOW", "addr:country": "US", "addr:full": "155 RIVER RD", "addr:postcode": "03304", "addr:state": "NH", "amenity": "post_box", "brand": "United States Postal Service", "brand:wikidata": "Q668687", "collection_times": "Mo-Sa 09:00", "name": "USPS COLLECTION BOX - BLUE BOX", "nsi_id": "unitedstatespostalservice-a77078", "operator": "United States Postal Service", "operator:short": "USPS", "operator:type": "public", "operator:wikidata": "Q668687", "ref": "0330400007"}, "type": "Feature"}
{"dataset_attributes": {"@spider": "usps_collection_boxes", "spider:collection_time": "2023-09-07T08:24:46.282741"}, "geometry": {"coordinates": [-71.4629988, 43.287795], "type": "Point"}, "id": "vA5oCq0ihJZghhhqpX2DfRzY-kU=", "properties": {"@spider": "usps_collection_boxes", "addr:city": "CONCORD", "addr:country": "US", "addr:full": "58 ROUTE 129 STE 201", "addr:postcode": "03307", "addr:state": "NH", "amenity": "post_box", "brand": "United States Postal Service", "brand:wikidata": "Q668687", "collection_times": "Mo-Sa 10:00", "name": "USPS COLLECTION BOX - BLUE BOX", "nsi_id": "unitedstatespostalservice-a77078", "operator": "United States Postal Service", "operator:short": "USPS", "operator:type": "public", "operator:wikidata": "Q668687", "ref": "0330700000"}, "type": "Feature"}
{"dataset_attributes": {"@spider": "usps_collection_boxes", "spider:collection_time": "2023-09-07T08:24:46.282741"}, "geometry": {"coordinates": [-71.4785174, 43.325237], "type": "Point"}, "id": "MTGHJDDi1b-UCS8uBJBom1gy-0E=", "properties": {"@spider": "usps_collection_boxes", "addr:city": "CONCORD", "addr:country": "US", "addr:full": "563 ROUTE 106 N UNIT 3", "addr:postcode": "03307", "addr:state": "NH", "amenity": "post_box", "brand": "United States Postal Service", "brand:wikidata": "Q668687", "collection_times": "Mo-Fr 15:45; Sa 10:00", "name": "USPS COLLECTION BOX - BLUE BOX", "note": "ON 12/24 AND 12/31, THIS BOX MAY BE COLLECTED AS EARLY AS 12 NOON.", "nsi_id": "unitedstatespostalservice-a77078", "operator": "United States Postal Service", "operator:short": "USPS", "operator:type": "public", "operator:wikidata": "Q668687", "ref": "0330700001"}, "type": "Feature"}
