{"geometry": {"coordinates": [-71.4964708, 44.894114], "type": "Point"}, "id": "daFXAPP_hV6KniRsR9ZDXkaGyLM=", "properties": {"@spider": "usps_collection_boxes", "addr:city": "COLEBROOK", "addr:country": "US", "addr:full": "120 MAIN ST", "addr:postcode": "03576", "addr:state": "NH", "brand": "USPS", "collection_times": "Mo-Fr 14:00; Sa 13:30", "name": "USPS COLLECTION BOX - BLUE BOX", "note": "ON 12/24 AND 12/31, THIS BOX MAY BE COLLECTED AS EARLY AS 12 NOON.", "ref": "0357600001"}, "type": "Feature"}
{"geometry": {"coordinates": [-71.4860372, 44.898414], "type": "Point"}, "id": "XLGrig_eHGKYrLEe5eJzdFIjA40=", "properties": {"@spider": "usps_collection_boxes", "addr:city": "COLEBROOK", "addr:country": "US", "addr:full": "21 VILLAGE WAY", "addr:postcode": "03576", "addr:state": "NH", "brand": "USPS", "collection_times": "Mo-Sa 09:00", "name": "USPS COLLECTION BOX - BLUE BOX", "ref": "0357600003"}, "type": "Feature"}
{"geometry": {"coordinates": [-71.494323, 44.892619], "type": "Point"}, "id": "wOxDTEHxy8JrbOXSBqFse0sxahY=", "properties": {"@spider": "usps_collection_boxes", "addr:city": "COLEBROOK", "addr:country": "US", "addr:full": "21 PARSONS ST", "addr:postcode": "03576", "addr:state": "NH", "brand": "USPS", "collection_times": "Mo-Fr 16:45; Sa 15:45", "name": "USPS COLLECTION BOX - BLUE BOX", "note": "ON 12/24 AND 12/31, THIS BOX MAY BE COLLECTED AS EARLY AS 12 NOON.", "ref": "0357600005"}, "type": "Feature"}
{"geometry": {"coordinates": [-71.494449, 44.892646], "type": "Point"}, "id": "uuoMcstgg_mplRBGA2BZJIo_LhY=", "properties": {"@spider": "usps_collection_boxes", "addr:city": "COLEBROOK", "addr:country": "US", "addr:full": "21 PARSONS ST", "addr:postcode": "03576", "addr:state": "NH", "brand": "USPS", "collection_times": "Mo-Fr 16:45; Sa 15:45", "name": "USPS COLLECTION BOX - PO LOBBY", "note": "ON 12/24 AND 12/31, THIS BOX MAY BE COLLECTED AS EARLY AS 12 NOON.", "ref": "0357600006"}, "type": "Feature"}
{"geometry": {"coordinates": [-71.4902661, 44.909342], "type": "Point"}, "id": "2yMgsVEWC3GA0MSBG4bd5H2ETbE=", "properties": {"@spider": "usps_collection_boxes", "addr:city": "COLEBROOK", "addr:country": "US", "addr:full": "64 TROOPER LESLIE G LORD MEM HWY", "addr:postcode": "03576", "addr:state": "NH", "brand": "USPS", "collection_times": "Mo-Sa 10:15", "name": "USPS COLLECTION BOX - BLUE BOX", "ref": "0357600007"}, "type": "Feature"}
{"geometry": {"coordinates": [-71.494371348, 44.892567348], "type": "Point"}, "id": "qT22pXLheR-rg0z0rIGWa5H1cco=", "properties": {"@spider": "usps_collection_boxes", "addr:city": "COLEBROOK", "addr:country": "US", "addr:full": "21 PARSONS ST", "addr:postcode": "03576", "addr:state": "NH", "brand": "USPS", "collection_times": "Mo-Fr 16:45; Sa 12:00", "name": "USPS COLLECTION BOX - PO LOBBY", "note": "ON 12/24 AND 12/31, THIS BOX MAY BE COLLECTED AS EARLY AS 12 NOON.", "ref": "0357600008"}, "type": "Feature"}
{"geometry": {"coordinates": [-71.1374459, 44.781046], "type": "Point"}, "id": "EABMEJCKo92wpKy-JZuHfXRMKag=", "properties": {"@spider": "usps_collection_boxes", "addr:city": "ERROL", "addr:country": "US", "addr:full": "25 MAIN ST UNIT 1", "addr:postcode": "03579", "addr:state": "NH", "brand": "USPS", "collection_times": "Mo-Fr 15:30; Sa 12:30", "name": "USPS COLLECTION BOX - BLUE BOX", "note": "ON 12/24 AND 12/31, THIS BOX MAY BE COLLECTED AS EARLY AS 12 NOON.", "ref": "0357900001"}, "type": "Feature"}
{"geometry": {"coordinates": [-71.1373957, 44.781015], "type": "Point"}, "id": "mUJ_pTk6kfQAS1NYPElA3tZdyAk=", "properties": {"@spider": "usps_collection_boxes", "addr:city": "ERROL", "addr:country": "US", "addr:full": "25 MAIN ST UNIT 1", "addr:postcode": "03579", "addr:state": "NH", "brand": "USPS", "collection_times": "Mo-Fr 15:30; Sa 12:30", "name": "USPS COLLECTION BOX - PO LOBBY", "note": "ON 12/24 AND 12/31, THIS BOX MAY BE COLLECTED AS EARLY AS 12 NOON.", "ref": "0357900002"}, "type": "Feature"}
{"geometry": {"coordinates": [-71.133817058, 44.77984772], "type": "Point"}, "id": "gprILM0wZA98XLB71U7-yLsAT8c=", "properties": {"@spider": "usps_collection_boxes", "addr:city": "ERROL", "addr:country": "US", "addr:full": "25 MAIN ST UNIT 1", "addr:postcode": "03579", "addr:state": "NH", "brand": "USPS", "collection_times": "Mo-Fr 13:00; Sa 12:30", "name": "USPS COLLECTION BOX - PO LOBBY", "note": "ON 12/24 AND 12/31, THIS BOX MAY BE COLLECTED AS EARLY AS 12 NOON.", "ref": "0357900003"}, "type": "Feature"}
{"geometry": {"coordinates": [-71.6294868, 44.751857], "type": "Point"}, "id": "FHD83NiBUYG4mxonLcGfE03T5r4=", "properties": {"@spider": "usps_collection_boxes", "addr:city": "NORTH STRATFORD", "addr:country": "US", "addr:full": "79 MAIN ST UNIT 1", "addr:postcode": "03590", "addr:state": "NH", "brand": "USPS", "collection_times": "Mo-Fr 15:00; Sa 14:30", "name": "USPS COLLECTION BOX - BLUE BOX", "note": "ON 12/24 AND 12/31, THIS BOX MAY BE COLLECTED AS EARLY AS 12 NOON.", "ref": "0359000001"}, "type": "Feature"}
{"geometry": {"coordinates": [-71.6299399974, 44.7520999959], "type": "Point"}, "id": "vSgup_W640jF1Dqm7EnlxqLjSys=", "properties": {"@spider": "usps_collection_boxes", "addr:city": "NORTH STRATFORD", "addr:country": "US", "addr:full": "79 MAIN ST UNIT 1", "addr:postcode": "03590", "addr:state": "NH", "brand": "USPS", "collection_times": "Mo-Fr 15:00; Sa 11:00", "name": "USPS COLLECTION BOX - PO LOBBY", "note": "ON 12/24 AND 12/31, THIS BOX MAY BE COLLECTED AS EARLY AS 12 NOON.", "ref": "0359000002"}, "type": "Feature"}
{"geometry": {"coordinates": [-71.6299399974, 44.7520999959], "type": "Point"}, "id": "Y5EwC36ddstaqIr-VNUhoP5Xx3s=", "properties": {"@spider": "usps_collection_boxes", "addr:city": "NORTH STRATFORD", "addr:country": "US", "addr:full": "79 MAIN ST UNIT 1", "addr:postcode": "03590", "addr:state": "NH", "brand": "USPS", "collection_times": "Mo-Fr 15:00; Sa 11:00", "name": "USPS COLLECTION BOX - PO LOBBY", "note": "ON 12/24 AND 12/31, THIS BOX MAY BE COLLECTED AS EARLY AS 12 NOON.", "ref": "0359000003"}, "type": "Feature"}
{"geometry": {"coordinates": [-71.412789, 45.056194], "type": "Point"}, "id": "1wfxb1uoQBDoEmFi-hDKqFLGBE8=", "properties": {"@spider": "usps_collection_boxes", "addr:city": "PITTSBURG", "addr:country": "US", "addr:full": "1551 MAIN ST", "addr:postcode": "03592", "addr:state": "NH", "brand": "USPS", "collection_times": "Mo-Fr 16:15; Sa 11:45", "name": "USPS COLLECTION BOX - BLUE BOX", "note": "ON 12/24 AND 12/31, THIS BOX MAY BE COLLECTED AS EARLY AS 12 NOON.", "ref": "0359200001"}, "type": "Feature"}
{"geometry": {"coordinates": [-71.412831, 45.056175], "type": "Point"}, "id": "cyhJwjFeJlz0RdH11E4do9i_3tg=", "properties": {"@spider": "usps_collection_boxes", "addr:city": "PITTSBURG", "addr:country": "US", "addr:full": "1551 MAIN ST", "addr:postcode": "03592", "addr:state": "NH", "brand": "USPS", "collection_times": "Mo-Fr 16:15; Sa 11:45", "name": "USPS COLLECTION BOX - PO LOBBY", "note": "ON 12/24 AND 12/31, THIS BOX MAY BE COLLECTED AS EARLY AS 12 NOON.", "ref": "0359200002"}, "type": "Feature"}
{"geometry": {"coordinates": [-71.394010854, 45.052173307], "type": "Point"}, "id": "f4qdwpYrHZBPGTAqT-RqJeYIcH8=", "properties": {"@spider": "usps_collection_boxes", "addr:city": "PITTSBURG", "addr:country": "US", "addr:full": "1551 MAIN ST", "addr:postcode": "03592", "addr:state": "NH", "brand": "USPS", "collection_times": "Mo-Fr 16:15", "name": "USPS COLLECTION BOX - PO LOBBY", "note": "ON 12/24 AND 12/31, THIS BOX MAY BE COLLECTED AS EARLY AS 12 NOON.", "ref": "0359200003"}, "type": "Feature"}
{"geometry": {"coordinates": [-71.532873, 44.995069], "type": "Point"}, "id": "SJ_cPuhy678zW4El8iiLctsa3oA=", "properties": {"@spider": "usps_collection_boxes", "addr:city": "W STEWARTSTWN", "addr:country": "US", "addr:full": "20 MAIN ST", "addr:postcode": "03597", "addr:state": "NH", "brand": "USPS", "collection_times": "Mo-Fr 15:45; Sa 12:00", "name": "USPS COLLECTION BOX - BLUE BOX", "note": "ON 12/24 AND 12/31, THIS BOX MAY BE COLLECTED AS EARLY AS 12 NOON.", "ref": "0359700001"}, "type": "Feature"}
{"geometry": {"coordinates": [-71.532873, 44.995069], "type": "Point"}, "id": "w22wkCDEhVph_q77JeIzonaYH84=", "properties": {"@spider": "usps_collection_boxes", "addr:city": "W STEWARTSTWN", "addr:country": "US", "addr:full": "20 MAIN ST", "addr:postcode": "03597", "addr:state": "NH", "brand": "USPS", "collection_times": "Mo-Fr 15:45; Sa 12:00", "name": "USPS COLLECTION BOX - PO LOBBY", "note": "ON 12/24 AND 12/31, THIS BOX MAY BE COLLECTED AS EARLY AS 12 NOON.", "ref": "0359700002"}, "type": "Feature"}
{"geometry": {"coordinates": [-71.533130555, 44.995179466], "type": "Point"}, "id": "_c9EQrkbtuZlL7wZPtgu3hu5e2Y=", "properties": {"@spider": "usps_collection_boxes", "addr:city": "W STEWARTSTWN", "addr:country": "US", "addr:full": "20 MAIN ST", "addr:postcode": "03597", "addr:state": "NH", "brand": "USPS", "collection_times": "Mo-Fr 15:45; Sa 11:30", "name": "USPS COLLECTION BOX - PO LOBBY", "note": "ON 12/24 AND 12/31, THIS BOX MAY BE COLLECTED AS EARLY AS 12 NOON.", "ref": "0359700003"}, "type": "Feature"}
