{"geometry": {"coordinates": [-72.2963399921, 43.2264856718], "type": "Point"}, "id": "32BjhWfe9lNYSJqHk9YY-FuuEgg=", "properties": {"@source_uri": "https://tools.usps.com/UspsToolsRestServices/rest/POLocator/findLocations", "@spider": "usps_collection_boxes", "addr:city": "ACWORTH", "addr:country": "US", "addr:postcode": "03601", "addr:state": "NH", "addr:street_address": "123 HILL RD", "amenity": "post_box", "brand": "United States Postal Service", "brand:wikidata": "Q668687", "collection_times": "Mo-Fr 16:45; Sa 11:45", "note": "ON 12/24 AND 12/31, THIS BOX MAY BE COLLECTED AS EARLY AS 12 NOON.", "nsi_id": "unitedstatespostalservice-a77078", "operator": "United States Postal Service", "operator:short": "USPS", "operator:type": "public", "operator:wikidata": "Q668687", "ref": "0360100000"}, "type": "Feature"}
{"geometry": {"coordinates": [-72.2963399921, 43.2264856718], "type": "Point"}, "id": "sLhGBb7Gvnmw1-goa0ZFl1jZMu0=", "properties": {"@source_uri": "https://tools.usps.com/UspsToolsRestServices/rest/POLocator/findLocations", "@spider": "usps_collection_boxes", "addr:city": "ACWORTH", "addr:country": "US", "addr:postcode": "03601", "addr:state": "NH", "addr:street_address": "123 HILL RD", "amenity": "post_box", "brand": "United States Postal Service", "brand:wikidata": "Q668687", "collection_times": "Mo-Fr 16:45; Sa 11:45", "indoor": "yes", "note": "ON 12/24 AND 12/31, THIS BOX MAY BE COLLECTED AS EARLY AS 12 NOON.", "nsi_id": "unitedstatespostalservice-a77078", "operator": "United States Postal Service", "operator:short": "USPS", "operator:type": "public", "operator:wikidata": "Q668687", "ref": "0360100001"}, "type": "Feature"}
{"geometry": {"coordinates": [-72.2963399921, 43.2264856718], "type": "Point"}, "id": "3vj5If3KXo-kfyf2QgLvu00d4x8=", "properties": {"@source_uri": "https://tools.usps.com/UspsToolsRestServices/rest/POLocator/findLocations", "@spider": "usps_collection_boxes", "addr:city": "ACWORTH", "addr:country": "US", "addr:postcode": "03601", "addr:state": "NH", "addr:street_address": "123 HILL RD", "amenity": "post_box", "brand": "United States Postal Service", "brand:wikidata": "Q668687", "collection_times": "Mo-Fr 17:00; Sa 11:45", "indoor": "yes", "note": "ON 12/24 AND 12/31, THIS BOX MAY BE COLLECTED AS EARLY AS 12 NOON.", "nsi_id": "unitedstatespostalservice-a77078", "operator": "United States Postal Service", "operator:short": "USPS", "operator:type": "public", "operator:wikidata": "Q668687", "ref": "0360100002"}, "type": "Feature"}
{"geometry": {"coordinates": [-72.363788, 43.150594], "type": "Point"}, "id": "jtcvcB9wC69RwG2Iod32BR09RWk=", "properties": {"@source_uri": "https://tools.usps.com/UspsToolsRestServices/rest/POLocator/findLocations", "@spider": "usps_collection_boxes", "addr:city": "ALSTEAD", "addr:country": "US", "addr:postcode": "03602", "addr:state": "NH", "addr:street_address": "42 HIGH ST", "amenity": "post_box", "brand": "United States Postal Service", "brand:wikidata": "Q668687", "collection_times": "Mo-Fr 16:30; Sa 11:45", "note": "ON 12/24 AND 12/31, THIS BOX MAY BE COLLECTED AS EARLY AS 12 NOON.", "nsi_id": "unitedstatespostalservice-a77078", "operator": "United States Postal Service", "operator:short": "USPS", "operator:type": "public", "operator:wikidata": "Q668687", "ref": "0360200001"}, "type": "Feature"}
{"geometry": {"coordinates": [-72.363728, 43.15055], "type": "Point"}, "id": "KOMh9hXyU9_SjDSYBa9XTpCxuUM=", "properties": {"@source_uri": "https://tools.usps.com/UspsToolsRestServices/rest/POLocator/findLocations", "@spider": "usps_collection_boxes", "addr:city": "ALSTEAD", "addr:country": "US", "addr:postcode": "03602", "addr:state": "NH", "addr:street_address": "42 HIGH ST", "amenity": "post_box", "brand": "United States Postal Service", "brand:wikidata": "Q668687", "collection_times": "Mo-Fr 16:45; Sa 11:45", "indoor": "yes", "note": "ON 12/24 AND 12/31, THIS BOX MAY BE COLLECTED AS EARLY AS 12 NOON.", "nsi_id": "unitedstatespostalservice-a77078", "operator": "United States Postal Service", "operator:short": "USPS", "operator:type": "public", "operator:wikidata": "Q668687", "ref": "0360200002"}, "type": "Feature"}
{"geometry": {"coordinates": [-72.363926735, 43.150622132], "type": "Point"}, "id": "7NrkLNcIyCdj0FXObWl6kPMI0tE=", "properties": {"@source_uri": "https://tools.usps.com/UspsToolsRestServices/rest/POLocator/findLocations", "@spider": "usps_collection_boxes", "addr:city": "ALSTEAD", "addr:country": "US", "addr:postcode": "03602", "addr:state": "NH", "addr:street_address": "42 HIGH ST", "amenity": "post_box", "brand": "United States Postal Service", "brand:wikidata": "Q668687", "collection_times": "Mo-Fr 16:30; Sa 11:30", "indoor": "yes", "note": "ON 12/24 AND 12/31, THIS BOX MAY BE COLLECTED AS EARLY AS 12 NOON.", "nsi_id": "unitedstatespostalservice-a77078", "operator": "United States Postal Service", "operator:short": "USPS", "operator:type": "public", "operator:wikidata": "Q668687", "ref": "0360200003"}, "type": "Feature"}
{"geometry": {"coordinates": [-72.425563, 43.236068], "type": "Point"}, "id": "WRXJCKEDOuSn2YOY0SSKOtDz2oQ=", "properties": {"@source_uri": "https://tools.usps.com/UspsToolsRestServices/rest/POLocator/findLocations", "@spider": "usps_collection_boxes", "addr:city": "CHARLESTOWN", "addr:country": "US", "addr:postcode": "03603", "addr:state": "NH", "addr:street_address": "26 CHURCH ST", "amenity": "post_box", "brand": "United States Postal Service", "brand:wikidata": "Q668687", "collection_times": "Mo-Fr 17:00; Sa 11:45", "note": "ON 12/24 AND 12/31, THIS BOX MAY BE COLLECTED AS EARLY AS 12 NOON.", "nsi_id": "unitedstatespostalservice-a77078", "operator": "United States Postal Service", "operator:short": "USPS", "operator:type": "public", "operator:wikidata": "Q668687", "ref": "0360300002"}, "type": "Feature"}
{"geometry": {"coordinates": [-72.425497, 43.236046], "type": "Point"}, "id": "YKT_0vfbztbmdhuY0ntjBrsCUFw=", "properties": {"@source_uri": "https://tools.usps.com/UspsToolsRestServices/rest/POLocator/findLocations", "@spider": "usps_collection_boxes", "addr:city": "CHARLESTOWN", "addr:country": "US", "addr:postcode": "03603", "addr:state": "NH", "addr:street_address": "26 CHURCH ST", "amenity": "post_box", "brand": "United States Postal Service", "brand:wikidata": "Q668687", "collection_times": "Mo-Fr 17:00; Sa 11:45", "indoor": "yes", "note": "ON 12/24 AND 12/31, THIS BOX MAY BE COLLECTED AS EARLY AS 12 NOON.", "nsi_id": "unitedstatespostalservice-a77078", "operator": "United States Postal Service", "operator:short": "USPS", "operator:type": "public", "operator:wikidata": "Q668687", "ref": "0360300003"}, "type": "Feature"}
{"geometry": {"coordinates": [-72.425925314, 43.236033483], "type": "Point"}, "id": "CAIS49WJDaxKmUl2IT8tCOu_2t0=", "properties": {"@source_uri": "https://tools.usps.com/UspsToolsRestServices/rest/POLocator/findLocations", "@spider": "usps_collection_boxes", "addr:city": "CHARLESTOWN", "addr:country": "US", "addr:postcode": "03603", "addr:state": "NH", "addr:street_address": "26 CHURCH ST", "amenity": "post_box", "brand": "United States Postal Service", "brand:wikidata": "Q668687", "collection_times": "Mo-Fr 17:00; Sa 12:00", "indoor": "yes", "note": "ON 12/24 AND 12/31, THIS BOX MAY BE COLLECTED AS EARLY AS 12 NOON.", "nsi_id": "unitedstatespostalservice-a77078", "operator": "United States Postal Service", "operator:short": "USPS", "operator:type": "public", "operator:wikidata": "Q668687", "ref": "0360300004"}, "type": "Feature"}
{"geometry": {"coordinates": [-72.1769448, 43.2281991], "type": "Point"}, "id": "2S4qfv3DyoZtRIVf3nzfoG0hdPI=", "properties": {"@source_uri": "https://tools.usps.com/UspsToolsRestServices/rest/POLocator/findLocations", "@spider": "usps_collection_boxes", "addr:city": "LEMPSTER", "addr:country": "US", "addr:postcode": "03605", "addr:state": "NH", "addr:street_address": "902 US ROUTE 10", "amenity": "post_box", "brand": "United States Postal Service", "brand:wikidata": "Q668687", "collection_times": "Mo-Fr 16:00; Sa 11:45", "note": "ON 12/24 AND 12/31, THIS BOX MAY BE COLLECTED AS EARLY AS 12 NOON.", "nsi_id": "unitedstatespostalservice-a77078", "operator": "United States Postal Service", "operator:short": "USPS", "operator:type": "public", "operator:wikidata": "Q668687", "ref": "0360500003"}, "type": "Feature"}
{"geometry": {"coordinates": [-72.1769448, 43.2281991], "type": "Point"}, "id": "IdRhMKUgeOqsty5-38smoBx6-RY=", "properties": {"@source_uri": "https://tools.usps.com/UspsToolsRestServices/rest/POLocator/findLocations", "@spider": "usps_collection_boxes", "addr:city": "LEMPSTER", "addr:country": "US", "addr:postcode": "03605", "addr:state": "NH", "addr:street_address": "902 US ROUTE 10", "amenity": "post_box", "brand": "United States Postal Service", "brand:wikidata": "Q668687", "collection_times": "Mo-Fr 16:00; Sa 11:45", "indoor": "yes", "note": "ON 12/24 AND 12/31, THIS BOX MAY BE COLLECTED AS EARLY AS 12 NOON.", "nsi_id": "unitedstatespostalservice-a77078", "operator": "United States Postal Service", "operator:short": "USPS", "operator:type": "public", "operator:wikidata": "Q668687", "ref": "0360500004"}, "type": "Feature"}
{"geometry": {"coordinates": [-72.1769448, 43.2281991], "type": "Point"}, "id": "WE9XQuPR9ZtSXUIWAG3k08Faji0=", "properties": {"@source_uri": "https://tools.usps.com/UspsToolsRestServices/rest/POLocator/findLocations", "@spider": "usps_collection_boxes", "addr:city": "LEMPSTER", "addr:country": "US", "addr:postcode": "03605", "addr:state": "NH", "addr:street_address": "902 US ROUTE 10", "amenity": "post_box", "brand": "United States Postal Service", "brand:wikidata": "Q668687", "collection_times": "Mo-Fr 16:00; Sa 11:45", "indoor": "yes", "note": "ON 12/24 AND 12/31, THIS BOX MAY BE COLLECTED AS EARLY AS 12 NOON.", "nsi_id": "unitedstatespostalservice-a77078", "operator": "United States Postal Service", "operator:short": "USPS", "operator:type": "public", "operator:wikidata": "Q668687", "ref": "0360500005"}, "type": "Feature"}
{"geometry": {"coordinates": [-72.4265709, 43.105858], "type": "Point"}, "id": "O32QF960aWydZGB69vDllFtgs-o=", "properties": {"@source_uri": "https://tools.usps.com/UspsToolsRestServices/rest/POLocator/findLocations", "@spider": "usps_collection_boxes", "addr:city": "WALPOLE", "addr:country": "US", "addr:postcode": "03608", "addr:state": "NH", "addr:street_address": "32 AMES PLAZA LN", "amenity": "post_box", "brand": "United States Postal Service", "brand:wikidata": "Q668687", "collection_times": "Mo-Sa 11:00", "nsi_id": "unitedstatespostalservice-a77078", "operator": "United States Postal Service", "operator:short": "USPS", "operator:type": "public", "operator:wikidata": "Q668687", "ref": "0360800001"}, "type": "Feature"}
{"geometry": {"coordinates": [-72.425966, 43.078876], "type": "Point"}, "id": "hCgekTCtpjF3_uvGrXW6JB3zLnw=", "properties": {"@source_uri": "https://tools.usps.com/UspsToolsRestServices/rest/POLocator/findLocations", "@spider": "usps_collection_boxes", "addr:city": "WALPOLE", "addr:country": "US", "addr:postcode": "03608", "addr:state": "NH", "addr:street_address": "47 MAIN ST UNIT 1", "amenity": "post_box", "brand": "United States Postal Service", "brand:wikidata": "Q668687", "collection_times": "Mo-Fr 16:15; Sa 11:30", "note": "ON 12/24 AND 12/31, THIS BOX MAY BE COLLECTED AS EARLY AS 12 NOON.", "nsi_id": "unitedstatespostalservice-a77078", "operator": "United States Postal Service", "operator:short": "USPS", "operator:type": "public", "operator:wikidata": "Q668687", "ref": "0360800003"}, "type": "Feature"}
{"geometry": {"coordinates": [-72.42593, 43.078872], "type": "Point"}, "id": "53VsYcBa2Kd87ZztfEjm1c-j0dY=", "properties": {"@source_uri": "https://tools.usps.com/UspsToolsRestServices/rest/POLocator/findLocations", "@spider": "usps_collection_boxes", "addr:city": "WALPOLE", "addr:country": "US", "addr:postcode": "03608", "addr:state": "NH", "addr:street_address": "47 MAIN ST UNIT 1", "amenity": "post_box", "brand": "United States Postal Service", "brand:wikidata": "Q668687", "collection_times": "Mo-Fr 16:30; Sa 11:30", "indoor": "yes", "note": "ON 12/24 AND 12/31, THIS BOX MAY BE COLLECTED AS EARLY AS 12 NOON.", "nsi_id": "unitedstatespostalservice-a77078", "operator": "United States Postal Service", "operator:short": "USPS", "operator:type": "public", "operator:wikidata": "Q668687", "ref": "0360800005"}, "type": "Feature"}
{"geometry": {"coordinates": [-72.4259582, 43.07891642], "type": "Point"}, "id": "0hPkn6yPkoyt2K4-TxbdWOE10_w=", "properties": {"@source_uri": "https://tools.usps.com/UspsToolsRestServices/rest/POLocator/findLocations", "@spider": "usps_collection_boxes", "addr:city": "WALPOLE", "addr:country": "US", "addr:postcode": "03608", "addr:state": "NH", "addr:street_address": "47 MAIN ST UNIT 1", "amenity": "post_box", "brand": "United States Postal Service", "brand:wikidata": "Q668687", "collection_times": "Mo-Fr 16:30; Sa 11:30", "indoor": "yes", "note": "ON 12/24 AND 12/31, THIS BOX MAY BE COLLECTED AS EARLY AS 12 NOON.", "nsi_id": "unitedstatespostalservice-a77078", "operator": "United States Postal Service", "operator:short": "USPS", "operator:type": "public", "operator:wikidata": "Q668687", "ref": "0360800006"}, "type": "Feature"}
