{"geometry": {"coordinates": [-72.006501, 44.20641], "type": "Point"}, "id": "qlXLqiqkYoqS_l0rdFxMvtJTQg8=", "properties": {"@source_uri": "https://tools.usps.com/UspsToolsRestServices/rest/POLocator/findLocations", "@spider": "usps_collection_boxes", "addr:city": "BATH", "addr:country": "US", "addr:postcode": "03740", "addr:state": "NH", "addr:street_address": "4 W BATH RD UNIT 2", "amenity": "post_box", "collection_times": "Mo-Fr 16:45; Sa 11:45", "note": "ON 12/24 AND 12/31, THIS BOX MAY BE COLLECTED AS EARLY AS 12 NOON.", "nsi_id": "unitedstatespostalservice-a77078", "operator": "United States Postal Service", "operator:short": "USPS", "operator:type": "public", "operator:wikidata": "Q668687", "ref": "0374000001"}, "type": "Feature"}
{"geometry": {"coordinates": [-72.006501, 44.206409], "type": "Point"}, "id": "7fqu-_uXFqv0hGpLKvtExexBg8g=", "properties": {"@source_uri": "https://tools.usps.com/UspsToolsRestServices/rest/POLocator/findLocations", "@spider": "usps_collection_boxes", "addr:city": "BATH", "addr:country": "US", "addr:postcode": "03740", "addr:state": "NH", "addr:street_address": "4 W BATH RD UNIT 2", "amenity": "post_box", "collection_times": "Mo-Fr 16:45; Sa 11:45", "indoor": "yes", "note": "ON 12/24 AND 12/31, THIS BOX MAY BE COLLECTED AS EARLY AS 12 NOON.", "nsi_id": "unitedstatespostalservice-a77078", "operator": "United States Postal Service", "operator:short": "USPS", "operator:type": "public", "operator:wikidata": "Q668687", "ref": "0374000002"}, "type": "Feature"}
{"geometry": {"coordinates": [-71.965950904, 44.167202963], "type": "Point"}, "id": "rm2cosJL4bm2fPUXp5ZD1Gx6blI=", "properties": {"@source_uri": "https://tools.usps.com/UspsToolsRestServices/rest/POLocator/findLocations", "@spider": "usps_collection_boxes", "addr:city": "BATH", "addr:country": "US", "addr:postcode": "03740", "addr:state": "NH", "addr:street_address": "4 W BATH RD", "amenity": "post_box", "collection_times": "Mo-Fr 17:00; Sa 11:45", "indoor": "yes", "note": "ON 12/24 AND 12/31, THIS BOX MAY BE COLLECTED AS EARLY AS 12 NOON.", "nsi_id": "unitedstatespostalservice-a77078", "operator": "United States Postal Service", "operator:short": "USPS", "operator:type": "public", "operator:wikidata": "Q668687", "ref": "0374000003"}, "type": "Feature"}
{"geometry": {"coordinates": [-72.0087794, 43.646353], "type": "Point"}, "id": "8sJkBdR14AfdjnNcBAtAXWihJ0A=", "properties": {"@source_uri": "https://tools.usps.com/UspsToolsRestServices/rest/POLocator/findLocations", "@spider": "usps_collection_boxes", "addr:city": "CANAAN", "addr:country": "US", "addr:postcode": "03741", "addr:state": "NH", "addr:street_address": "1205 US ROUTE 4", "amenity": "post_box", "collection_times": "Mo-Fr 16:45; Sa 11:30", "note": "ON 12/24 AND 12/31, THIS BOX MAY BE COLLECTED AS EARLY AS 12 NOON.", "nsi_id": "unitedstatespostalservice-a77078", "operator": "United States Postal Service", "operator:short": "USPS", "operator:type": "public", "operator:wikidata": "Q668687", "ref": "0374100001"}, "type": "Feature"}
{"geometry": {"coordinates": [-72.0087347, 43.64643], "type": "Point"}, "id": "BorT_jHtI6dWw_y4qIsyvpLNNLI=", "properties": {"@source_uri": "https://tools.usps.com/UspsToolsRestServices/rest/POLocator/findLocations", "@spider": "usps_collection_boxes", "addr:city": "CANAAN", "addr:country": "US", "addr:postcode": "03741", "addr:state": "NH", "addr:street_address": "1205 US ROUTE 4", "amenity": "post_box", "collection_times": "Mo-Fr 17:00; Sa 11:30", "indoor": "yes", "note": "ON 12/24 AND 12/31, THIS BOX MAY BE COLLECTED AS EARLY AS 12 NOON.", "nsi_id": "unitedstatespostalservice-a77078", "operator": "United States Postal Service", "operator:short": "USPS", "operator:type": "public", "operator:wikidata": "Q668687", "ref": "0374100002"}, "type": "Feature"}
{"geometry": {"coordinates": [-72.009112404, 43.646198572], "type": "Point"}, "id": "R_conSKi3nmUKmheqrVurrfVcQI=", "properties": {"@source_uri": "https://tools.usps.com/UspsToolsRestServices/rest/POLocator/findLocations", "@spider": "usps_collection_boxes", "addr:city": "CANAAN", "addr:country": "US", "addr:postcode": "03741", "addr:state": "NH", "addr:street_address": "1205 US ROUTE 4", "amenity": "post_box", "collection_times": "Mo-Fr 17:00; Sa 11:00", "indoor": "yes", "note": "ON 12/24 AND 12/31, THIS BOX MAY BE COLLECTED AS EARLY AS 12 NOON.", "nsi_id": "unitedstatespostalservice-a77078", "operator": "United States Postal Service", "operator:short": "USPS", "operator:type": "public", "operator:wikidata": "Q668687", "ref": "0374100003"}, "type": "Feature"}
{"geometry": {"coordinates": [-72.34146, 43.37268], "type": "Point"}, "id": "LH2n6mRwGwXXkLO7KvLk2-jfeO0=", "properties": {"@source_uri": "https://tools.usps.com/UspsToolsRestServices/rest/POLocator/findLocations", "@spider": "usps_collection_boxes", "addr:city": "CLAREMONT", "addr:country": "US", "addr:postcode": "03743", "addr:state": "NH", "addr:street_address": "14 NORTH STREET", "amenity": "post_box", "collection_times": "Mo-Sa 09:00", "nsi_id": "unitedstatespostalservice-a77078", "operator": "United States Postal Service", "operator:short": "USPS", "operator:type": "public", "operator:wikidata": "Q668687", "ref": "0374300003"}, "type": "Feature"}
{"geometry": {"coordinates": [-72.336727854, 43.370890743], "type": "Point"}, "id": "gAd3ev4UPnd5KXjzHzvElN-KagQ=", "properties": {"@source_uri": "https://tools.usps.com/UspsToolsRestServices/rest/POLocator/findLocations", "@spider": "usps_collection_boxes", "addr:city": "CLAREMONT", "addr:country": "US", "addr:postcode": "03743", "addr:state": "NH", "addr:street_address": "140 BROAD ST", "amenity": "post_box", "collection_times": "Mo-Fr 17:15; Sa 15:30", "note": "ON 12/24 AND 12/31, THIS BOX MAY BE COLLECTED AS EARLY AS 12 NOON.", "nsi_id": "unitedstatespostalservice-a77078", "operator": "United States Postal Service", "operator:short": "USPS", "operator:type": "public", "operator:wikidata": "Q668687", "ref": "0374300006"}, "type": "Feature"}
{"geometry": {"coordinates": [-72.3373933, 43.372406], "type": "Point"}, "id": "OQKlLfPNauVrVAuxMgNrBh418kc=", "properties": {"@source_uri": "https://tools.usps.com/UspsToolsRestServices/rest/POLocator/findLocations", "@spider": "usps_collection_boxes", "addr:city": "CLAREMONT", "addr:country": "US", "addr:postcode": "03743", "addr:state": "NH", "addr:street_address": "1 POLICE CT", "amenity": "post_box", "collection_times": "Mo-Sa 09:00", "nsi_id": "unitedstatespostalservice-a77078", "operator": "United States Postal Service", "operator:short": "USPS", "operator:type": "public", "operator:wikidata": "Q668687", "ref": "0374300009"}, "type": "Feature"}
{"geometry": {"coordinates": [-72.3290199751, 43.3778899877], "type": "Point"}, "id": "Vts6A1hZ5-gS6Mb0qIWXSoKhudM=", "properties": {"@source_uri": "https://tools.usps.com/UspsToolsRestServices/rest/POLocator/findLocations", "@spider": "usps_collection_boxes", "addr:city": "CLAREMONT", "addr:country": "US", "addr:postcode": "03743", "addr:state": "NH", "addr:street_address": "14 BOWEN ST.", "amenity": "post_box", "collection_times": "Mo-Sa 09:00", "nsi_id": "unitedstatespostalservice-a77078", "operator": "United States Postal Service", "operator:short": "USPS", "operator:type": "public", "operator:wikidata": "Q668687", "ref": "0374300016"}, "type": "Feature"}
{"geometry": {"coordinates": [-72.350639729, 43.377356241], "type": "Point"}, "id": "4WasRdWFjgArG9aWUG1L-RLt1KE=", "properties": {"@source_uri": "https://tools.usps.com/UspsToolsRestServices/rest/POLocator/findLocations", "@spider": "usps_collection_boxes", "addr:city": "CLAREMONT", "addr:country": "US", "addr:postcode": "03743", "addr:state": "NH", "addr:street_address": "247 MAIN ST", "amenity": "post_box", "collection_times": "Mo-Sa 09:00", "nsi_id": "unitedstatespostalservice-a77078", "operator": "United States Postal Service", "operator:short": "USPS", "operator:type": "public", "operator:wikidata": "Q668687", "ref": "0374300018"}, "type": "Feature"}
{"geometry": {"coordinates": [-72.323831, 43.370439], "type": "Point"}, "id": "JLmSKcQHYKR4PPTOxd1hVit384k=", "properties": {"@source_uri": "https://tools.usps.com/UspsToolsRestServices/rest/POLocator/findLocations", "@spider": "usps_collection_boxes", "addr:city": "CLAREMONT", "addr:country": "US", "addr:postcode": "03743", "addr:state": "NH", "addr:street_address": "220 WASHINGTON ST", "amenity": "post_box", "collection_times": "Mo-Sa 09:00", "nsi_id": "unitedstatespostalservice-a77078", "operator": "United States Postal Service", "operator:short": "USPS", "operator:type": "public", "operator:wikidata": "Q668687", "ref": "0374300023"}, "type": "Feature"}
{"geometry": {"coordinates": [-72.3412567, 43.384533], "type": "Point"}, "id": "aPwhmzpA6Lytbq64jLWdqAB6sUM=", "properties": {"@source_uri": "https://tools.usps.com/UspsToolsRestServices/rest/POLocator/findLocations", "@spider": "usps_collection_boxes", "addr:city": "CLAREMONT", "addr:country": "US", "addr:postcode": "03743", "addr:state": "NH", "addr:street_address": "243 ELM ST", "amenity": "post_box", "collection_times": "Mo-Sa 09:00", "nsi_id": "unitedstatespostalservice-a77078", "operator": "United States Postal Service", "operator:short": "USPS", "operator:type": "public", "operator:wikidata": "Q668687", "ref": "0374300025"}, "type": "Feature"}
{"geometry": {"coordinates": [-72.3381391, 43.373731], "type": "Point"}, "id": "g1fZX_tWQizhQ9XqehiaEJp_MbE=", "properties": {"@source_uri": "https://tools.usps.com/UspsToolsRestServices/rest/POLocator/findLocations", "@spider": "usps_collection_boxes", "addr:city": "CLAREMONT", "addr:country": "US", "addr:postcode": "03743", "addr:state": "NH", "addr:street_address": "17 WATER ST", "amenity": "post_box", "collection_times": "Mo-Fr 09:00", "nsi_id": "unitedstatespostalservice-a77078", "operator": "United States Postal Service", "operator:short": "USPS", "operator:type": "public", "operator:wikidata": "Q668687", "ref": "0374300027"}, "type": "Feature"}
{"geometry": {"coordinates": [-72.3591329681, 43.3649570045], "type": "Point"}, "id": "2uEDwBaFoSZGtxV-BWrTXA25TRk=", "properties": {"@source_uri": "https://tools.usps.com/UspsToolsRestServices/rest/POLocator/findLocations", "@spider": "usps_collection_boxes", "addr:city": "CLAREMONT", "addr:country": "US", "addr:postcode": "03743", "addr:state": "NH", "addr:street_address": "121 MAPLE", "amenity": "post_box", "collection_times": "Mo-Sa 09:00", "nsi_id": "unitedstatespostalservice-a77078", "operator": "United States Postal Service", "operator:short": "USPS", "operator:type": "public", "operator:wikidata": "Q668687", "ref": "0374300028"}, "type": "Feature"}
{"geometry": {"coordinates": [-72.3192679, 43.364053], "type": "Point"}, "id": "JLSENiZBWZIHaBEjkOtuDQKkn9o=", "properties": {"@source_uri": "https://tools.usps.com/UspsToolsRestServices/rest/POLocator/findLocations", "@spider": "usps_collection_boxes", "addr:city": "CLAREMONT", "addr:country": "US", "addr:postcode": "03743", "addr:state": "NH", "addr:street_address": "345 WASHINGTON ST STE 8", "amenity": "post_box", "collection_times": "Mo-Sa 09:00", "nsi_id": "unitedstatespostalservice-a77078", "operator": "United States Postal Service", "operator:short": "USPS", "operator:type": "public", "operator:wikidata": "Q668687", "ref": "0374300029"}, "type": "Feature"}
{"geometry": {"coordinates": [-72.336727854, 43.370890743], "type": "Point"}, "id": "M7m3LEhKETWP-7DU_cIx8NdAsmI=", "properties": {"@source_uri": "https://tools.usps.com/UspsToolsRestServices/rest/POLocator/findLocations", "@spider": "usps_collection_boxes", "addr:city": "CLAREMONT", "addr:country": "US", "addr:postcode": "03743", "addr:state": "NH", "addr:street_address": "140 BROAD ST", "amenity": "post_box", "collection_times": "Mo-Fr 17:15; Sa 15:30", "indoor": "yes", "note": "ON 12/24 AND 12/31, THIS BOX MAY BE COLLECTED AS EARLY AS 12 NOON.", "nsi_id": "unitedstatespostalservice-a77078", "operator": "United States Postal Service", "operator:short": "USPS", "operator:type": "public", "operator:wikidata": "Q668687", "ref": "0374300031"}, "type": "Feature"}
{"geometry": {"coordinates": [-72.3442004, 43.379857], "type": "Point"}, "id": "KlUjCj5xeXyz9KA1VS-3m5tknUk=", "properties": {"@source_uri": "https://tools.usps.com/UspsToolsRestServices/rest/POLocator/findLocations", "@spider": "usps_collection_boxes", "addr:city": "CLAREMONT", "addr:country": "US", "addr:postcode": "03743", "addr:state": "NH", "addr:street_address": "102 ELM ST", "amenity": "post_box", "collection_times": "Mo-Sa 09:00", "nsi_id": "unitedstatespostalservice-a77078", "operator": "United States Postal Service", "operator:short": "USPS", "operator:type": "public", "operator:wikidata": "Q668687", "ref": "0374300032"}, "type": "Feature"}
{"geometry": {"coordinates": [-72.3575726, 43.355856], "type": "Point"}, "id": "sSbyHM2Pnsz5cV91xLgmnLZx2wo=", "properties": {"@source_uri": "https://tools.usps.com/UspsToolsRestServices/rest/POLocator/findLocations", "@spider": "usps_collection_boxes", "addr:city": "CLAREMONT", "addr:country": "US", "addr:postcode": "03743", "addr:state": "NH", "addr:street_address": "98 CHARLESTOWN RD", "amenity": "post_box", "collection_times": "Mo-Sa 09:00", "nsi_id": "unitedstatespostalservice-a77078", "operator": "United States Postal Service", "operator:short": "USPS", "operator:type": "public", "operator:wikidata": "Q668687", "ref": "0374300033"}, "type": "Feature"}
{"geometry": {"coordinates": [-72.3402876942, 43.3688339753], "type": "Point"}, "id": "sPNH0_alitZ62rwnU1IC15cyjMk=", "properties": {"@source_uri": "https://tools.usps.com/UspsToolsRestServices/rest/POLocator/findLocations", "@spider": "usps_collection_boxes", "addr:city": "CLAREMONT", "addr:country": "US", "addr:postcode": "03743", "addr:state": "NH", "addr:street_address": "121 PLEASANT ST", "amenity": "post_box", "collection_times": "Mo-Sa 09:00", "nsi_id": "unitedstatespostalservice-a77078", "operator": "United States Postal Service", "operator:short": "USPS", "operator:type": "public", "operator:wikidata": "Q668687", "ref": "0374300035"}, "type": "Feature"}
{"geometry": {"coordinates": [-72.3362040205, 43.3707989815], "type": "Point"}, "id": "PjxKG1OwdtH5WyEcyAh2ieAgG1I=", "properties": {"@source_uri": "https://tools.usps.com/UspsToolsRestServices/rest/POLocator/findLocations", "@spider": "usps_collection_boxes", "addr:city": "CLAREMONT", "addr:country": "US", "addr:postcode": "03743", "addr:state": "NH", "addr:street_address": "140 BROAD ST", "amenity": "post_box", "collection_times": "Mo-Fr 17:00; Sa 12:00", "indoor": "yes", "note": "ON 12/24 AND 12/31, THIS BOX MAY BE COLLECTED AS EARLY AS 12 NOON.", "nsi_id": "unitedstatespostalservice-a77078", "operator": "United States Postal Service", "operator:short": "USPS", "operator:type": "public", "operator:wikidata": "Q668687", "ref": "0374300038"}, "type": "Feature"}
{"geometry": {"coordinates": [-72.2805357584, 43.4968024524], "type": "Point"}, "id": "cNd3j0LYaXWcgR4wtnsbCct1Efo=", "properties": {"@source_uri": "https://tools.usps.com/UspsToolsRestServices/rest/POLocator/findLocations", "@spider": "usps_collection_boxes", "addr:city": "CORNISH FLAT", "addr:country": "US", "addr:postcode": "03746", "addr:state": "NH", "addr:street_address": "241 NH ROUTE 120", "amenity": "post_box", "collection_times": "Mo-Fr 16:45; Sa 12:00", "note": "ON 12/24 AND 12/31, THIS BOX MAY BE COLLECTED AS EARLY AS 12 NOON.", "nsi_id": "unitedstatespostalservice-a77078", "operator": "United States Postal Service", "operator:short": "USPS", "operator:type": "public", "operator:wikidata": "Q668687", "ref": "0374600001"}, "type": "Feature"}
{"geometry": {"coordinates": [-72.2805357584, 43.4968024524], "type": "Point"}, "id": "pGKit5IjY-aGaNMjRkgUMXoBmyI=", "properties": {"@source_uri": "https://tools.usps.com/UspsToolsRestServices/rest/POLocator/findLocations", "@spider": "usps_collection_boxes", "addr:city": "CORNISH FLAT", "addr:country": "US", "addr:postcode": "03746", "addr:state": "NH", "addr:street_address": "241 NH ROUTE 120", "amenity": "post_box", "collection_times": "Mo-Fr 16:45; Sa 12:00", "indoor": "yes", "note": "ON 12/24 AND 12/31, THIS BOX MAY BE COLLECTED AS EARLY AS 12 NOON.", "nsi_id": "unitedstatespostalservice-a77078", "operator": "United States Postal Service", "operator:short": "USPS", "operator:type": "public", "operator:wikidata": "Q668687", "ref": "0374600002"}, "type": "Feature"}
{"geometry": {"coordinates": [-72.280332956, 43.496935164], "type": "Point"}, "id": "oMcnNprx8i1wYYNmTGx9WgdOkh8=", "properties": {"@source_uri": "https://tools.usps.com/UspsToolsRestServices/rest/POLocator/findLocations", "@spider": "usps_collection_boxes", "addr:city": "CORNISH FLAT", "addr:country": "US", "addr:postcode": "03746", "addr:state": "NH", "addr:street_address": "241 NH ROUTE 120", "amenity": "post_box", "collection_times": "Mo-Fr 16:30; Sa 12:00", "indoor": "yes", "note": "ON 12/24 AND 12/31, THIS BOX MAY BE COLLECTED AS EARLY AS 12 NOON.", "nsi_id": "unitedstatespostalservice-a77078", "operator": "United States Postal Service", "operator:short": "USPS", "operator:type": "public", "operator:wikidata": "Q668687", "ref": "0374600003"}, "type": "Feature"}
{"geometry": {"coordinates": [-72.1439903, 43.645536], "type": "Point"}, "id": "VQN1BvKOpSFIwrXYXRGPskpLF_4=", "properties": {"@source_uri": "https://tools.usps.com/UspsToolsRestServices/rest/POLocator/findLocations", "@spider": "usps_collection_boxes", "addr:city": "ENFIELD", "addr:country": "US", "addr:postcode": "03748", "addr:state": "NH", "addr:street_address": "17 MAPLE ST", "amenity": "post_box", "collection_times": "Mo-Fr 17:00; Sa 12:00", "note": "ON 12/24 AND 12/31, THIS BOX MAY BE COLLECTED AS EARLY AS 12 NOON.", "nsi_id": "unitedstatespostalservice-a77078", "operator": "United States Postal Service", "operator:short": "USPS", "operator:type": "public", "operator:wikidata": "Q668687", "ref": "0374800002"}, "type": "Feature"}
{"geometry": {"coordinates": [-72.150474, 43.654604], "type": "Point"}, "id": "UTUKDVJOzfkKVqzCpoiAqQHYgdA=", "properties": {"@source_uri": "https://tools.usps.com/UspsToolsRestServices/rest/POLocator/findLocations", "@spider": "usps_collection_boxes", "addr:city": "ENFIELD", "addr:country": "US", "addr:postcode": "03748", "addr:state": "NH", "addr:street_address": "17 MAPLE ST", "amenity": "post_box", "collection_times": "Mo-Fr 17:00; Sa 12:00", "indoor": "yes", "note": "ON 12/24 AND 12/31, THIS BOX MAY BE COLLECTED AS EARLY AS 12 NOON.", "nsi_id": "unitedstatespostalservice-a77078", "operator": "United States Postal Service", "operator:short": "USPS", "operator:type": "public", "operator:wikidata": "Q668687", "ref": "0374800003"}, "type": "Feature"}
{"geometry": {"coordinates": [-72.150503089, 43.654516738], "type": "Point"}, "id": "eAHDV4-qxwfWM7mVSZaQdBjqInY=", "properties": {"@source_uri": "https://tools.usps.com/UspsToolsRestServices/rest/POLocator/findLocations", "@spider": "usps_collection_boxes", "addr:city": "ENFIELD", "addr:country": "US", "addr:postcode": "03748", "addr:state": "NH", "addr:street_address": "17 MAPLE ST", "amenity": "post_box", "collection_times": "Mo-Fr 17:00; Sa 12:00", "indoor": "yes", "note": "ON 12/24 AND 12/31, THIS BOX MAY BE COLLECTED AS EARLY AS 12 NOON.", "nsi_id": "unitedstatespostalservice-a77078", "operator": "United States Postal Service", "operator:short": "USPS", "operator:type": "public", "operator:wikidata": "Q668687", "ref": "0374800004"}, "type": "Feature"}
{"geometry": {"coordinates": [-71.5775936257, 43.6855232857], "type": "Point"}, "id": "3v6tfiSAi8glKK7O2GaZ_5vSfno=", "properties": {"@source_uri": "https://tools.usps.com/UspsToolsRestServices/rest/POLocator/findLocations", "@spider": "usps_collection_boxes", "addr:city": "ENFIELD CENTER", "addr:country": "US", "addr:postcode": "03749", "addr:state": "NH", "addr:street_address": "1089 NH ROUTE 4A", "amenity": "post_box", "collection_times": "Mo-Fr 16:00; Sa 11:30", "note": "ON 12/24 AND 12/31, THIS BOX MAY BE COLLECTED AS EARLY AS 12 NOON.", "nsi_id": "unitedstatespostalservice-a77078", "operator": "United States Postal Service", "operator:short": "USPS", "operator:type": "public", "operator:wikidata": "Q668687", "ref": "0374900001"}, "type": "Feature"}
{"geometry": {"coordinates": [-71.5775936257, 43.6855232857], "type": "Point"}, "id": "qChIJ1uU0Bx_upXR8-_fYR6Bj4M=", "properties": {"@source_uri": "https://tools.usps.com/UspsToolsRestServices/rest/POLocator/findLocations", "@spider": "usps_collection_boxes", "addr:city": "ENFIELD CENTER", "addr:country": "US", "addr:postcode": "03749", "addr:state": "NH", "addr:street_address": "1089 NH ROUTE 4A", "amenity": "post_box", "collection_times": "Mo-Fr 16:00; Sa 11:30", "indoor": "yes", "note": "ON 12/24 AND 12/31, THIS BOX MAY BE COLLECTED AS EARLY AS 12 NOON.", "nsi_id": "unitedstatespostalservice-a77078", "operator": "United States Postal Service", "operator:short": "USPS", "operator:type": "public", "operator:wikidata": "Q668687", "ref": "0374900002"}, "type": "Feature"}
{"geometry": {"coordinates": [-72.109455113, 43.588102588], "type": "Point"}, "id": "qrPNu4kxab8W7_cBTOabFOYnyQA=", "properties": {"@source_uri": "https://tools.usps.com/UspsToolsRestServices/rest/POLocator/findLocations", "@spider": "usps_collection_boxes", "addr:city": "ENFIELD CENTER", "addr:country": "US", "addr:postcode": "03749", "addr:state": "NH", "addr:street_address": "1089 NH ROUTE 4A", "amenity": "post_box", "collection_times": "Mo-Fr 16:15; Sa 11:30", "indoor": "yes", "note": "ON 12/24 AND 12/31, THIS BOX MAY BE COLLECTED AS EARLY AS 12 NOON.", "nsi_id": "unitedstatespostalservice-a77078", "operator": "United States Postal Service", "operator:short": "USPS", "operator:type": "public", "operator:wikidata": "Q668687", "ref": "0374900003"}, "type": "Feature"}
{"geometry": {"coordinates": [-72.21997, 43.693498], "type": "Point"}, "id": "V8y3U9wwkMcbi6GYgbNc64Iwv0Y=", "properties": {"@source_uri": "https://tools.usps.com/UspsToolsRestServices/rest/POLocator/findLocations", "@spider": "usps_collection_boxes", "addr:city": "ETNA", "addr:country": "US", "addr:postcode": "03750", "addr:state": "NH", "addr:street_address": "3 SCHOOL HOUSE LN", "amenity": "post_box", "collection_times": "Mo-Fr 16:15; Sa 11:30", "note": "ON 12/24 AND 12/31, THIS BOX MAY BE COLLECTED AS EARLY AS 12 NOON.", "nsi_id": "unitedstatespostalservice-a77078", "operator": "United States Postal Service", "operator:short": "USPS", "operator:type": "public", "operator:wikidata": "Q668687", "ref": "0375000001"}, "type": "Feature"}
{"geometry": {"coordinates": [-72.219976, 43.693588], "type": "Point"}, "id": "7QSEFYicqY764kH_sIF2w3L91VM=", "properties": {"@source_uri": "https://tools.usps.com/UspsToolsRestServices/rest/POLocator/findLocations", "@spider": "usps_collection_boxes", "addr:city": "ETNA", "addr:country": "US", "addr:postcode": "03750", "addr:state": "NH", "addr:street_address": "3 SCHOOL HOUSE LN", "amenity": "post_box", "collection_times": "Mo-Fr 16:15; Sa 11:30", "indoor": "yes", "note": "ON 12/24 AND 12/31, THIS BOX MAY BE COLLECTED AS EARLY AS 12 NOON.", "nsi_id": "unitedstatespostalservice-a77078", "operator": "United States Postal Service", "operator:short": "USPS", "operator:type": "public", "operator:wikidata": "Q668687", "ref": "0375000002"}, "type": "Feature"}
{"geometry": {"coordinates": [-72.219860945, 43.693276982], "type": "Point"}, "id": "yOkkZtUXShFSQQb5JfTbqx3BidU=", "properties": {"@source_uri": "https://tools.usps.com/UspsToolsRestServices/rest/POLocator/findLocations", "@spider": "usps_collection_boxes", "addr:city": "ETNA", "addr:country": "US", "addr:postcode": "03750", "addr:state": "NH", "addr:street_address": "3 SCHOOL HOUSE LN", "amenity": "post_box", "collection_times": "Mo-Fr 16:00; Sa 11:30", "indoor": "yes", "note": "ON 12/24 AND 12/31, THIS BOX MAY BE COLLECTED AS EARLY AS 12 NOON.", "nsi_id": "unitedstatespostalservice-a77078", "operator": "United States Postal Service", "operator:short": "USPS", "operator:type": "public", "operator:wikidata": "Q668687", "ref": "0375000003"}, "type": "Feature"}
{"geometry": {"coordinates": [-72.064584047, 43.431744616], "type": "Point"}, "id": "MZAiDCKXKAvcRPCcvUtQPkJYFNg=", "properties": {"@source_uri": "https://tools.usps.com/UspsToolsRestServices/rest/POLocator/findLocations", "@spider": "usps_collection_boxes", "addr:city": "GEORGES MILLS", "addr:country": "US", "addr:postcode": "03751", "addr:state": "NH", "addr:street_address": "1294 ROUTE 11", "amenity": "post_box", "collection_times": "Mo-Fr 16:30; Sa 11:45", "note": "ON 12/24 AND 12/31, THIS BOX MAY BE COLLECTED AS EARLY AS 12 NOON.", "nsi_id": "unitedstatespostalservice-a77078", "operator": "United States Postal Service", "operator:short": "USPS", "operator:type": "public", "operator:wikidata": "Q668687", "ref": "0375100001"}, "type": "Feature"}
{"geometry": {"coordinates": [-72.064584047, 43.431744616], "type": "Point"}, "id": "GgFVqHNMpc6YMdtialmLIYcDsRk=", "properties": {"@source_uri": "https://tools.usps.com/UspsToolsRestServices/rest/POLocator/findLocations", "@spider": "usps_collection_boxes", "addr:city": "GEORGES MILLS", "addr:country": "US", "addr:postcode": "03751", "addr:state": "NH", "addr:street_address": "1294 ROUTE 11", "amenity": "post_box", "collection_times": "Mo-Fr 16:30; Sa 11:45", "indoor": "yes", "note": "ON 12/24 AND 12/31, THIS BOX MAY BE COLLECTED AS EARLY AS 12 NOON.", "nsi_id": "unitedstatespostalservice-a77078", "operator": "United States Postal Service", "operator:short": "USPS", "operator:type": "public", "operator:wikidata": "Q668687", "ref": "0375100002"}, "type": "Feature"}
{"geometry": {"coordinates": [-72.064584047, 43.431744616], "type": "Point"}, "id": "sf1dKRzZSkq6TSCRKzNw9srUxio=", "properties": {"@source_uri": "https://tools.usps.com/UspsToolsRestServices/rest/POLocator/findLocations", "@spider": "usps_collection_boxes", "addr:city": "GEORGES MILLS", "addr:country": "US", "addr:postcode": "03751", "addr:state": "NH", "addr:street_address": "1294 ROUTE 11", "amenity": "post_box", "collection_times": "Mo-Fr 16:30; Sa 11:30", "indoor": "yes", "note": "ON 12/24 AND 12/31, THIS BOX MAY BE COLLECTED AS EARLY AS 12 NOON.", "nsi_id": "unitedstatespostalservice-a77078", "operator": "United States Postal Service", "operator:short": "USPS", "operator:type": "public", "operator:wikidata": "Q668687", "ref": "0375100003"}, "type": "Feature"}
{"geometry": {"coordinates": [-72.148896, 43.301508], "type": "Point"}, "id": "-mvq6GYY4g5fbjGR-LtCqJj8n1U=", "properties": {"@source_uri": "https://tools.usps.com/UspsToolsRestServices/rest/POLocator/findLocations", "@spider": "usps_collection_boxes", "addr:city": "GOSHEN", "addr:country": "US", "addr:postcode": "03752", "addr:state": "NH", "addr:street_address": "25 MILL VILLAGE RD N", "amenity": "post_box", "collection_times": "Mo-Fr 16:15; Sa 11:30", "note": "ON 12/24 AND 12/31, THIS BOX MAY BE COLLECTED AS EARLY AS 12 NOON.", "nsi_id": "unitedstatespostalservice-a77078", "operator": "United States Postal Service", "operator:short": "USPS", "operator:type": "public", "operator:wikidata": "Q668687", "ref": "0375200001"}, "type": "Feature"}
{"geometry": {"coordinates": [-72.14859771, 43.30116459], "type": "Point"}, "id": "MymKJOdTCi8zrp2gxDBTH5q56kQ=", "properties": {"@source_uri": "https://tools.usps.com/UspsToolsRestServices/rest/POLocator/findLocations", "@spider": "usps_collection_boxes", "addr:city": "GOSHEN", "addr:country": "US", "addr:postcode": "03752", "addr:state": "NH", "addr:street_address": "25 MILL VILLAGE RD N", "amenity": "post_box", "collection_times": "Mo-Fr 16:30; Sa 11:45", "indoor": "yes", "note": "ON 12/24 AND 12/31, THIS BOX MAY BE COLLECTED AS EARLY AS 12 NOON.", "nsi_id": "unitedstatespostalservice-a77078", "operator": "United States Postal Service", "operator:short": "USPS", "operator:type": "public", "operator:wikidata": "Q668687", "ref": "0375200002"}, "type": "Feature"}
{"geometry": {"coordinates": [-72.14859771, 43.30116459], "type": "Point"}, "id": "vAPAimqt0YCfHNE3oBTKvOfjtHA=", "properties": {"@source_uri": "https://tools.usps.com/UspsToolsRestServices/rest/POLocator/findLocations", "@spider": "usps_collection_boxes", "addr:city": "GOSHEN", "addr:country": "US", "addr:postcode": "03752", "addr:state": "NH", "addr:street_address": "25 MILL VILLAGE RD N", "amenity": "post_box", "collection_times": "Mo-Fr 16:30; Sa 11:30", "indoor": "yes", "note": "ON 12/24 AND 12/31, THIS BOX MAY BE COLLECTED AS EARLY AS 12 NOON.", "nsi_id": "unitedstatespostalservice-a77078", "operator": "United States Postal Service", "operator:short": "USPS", "operator:type": "public", "operator:wikidata": "Q668687", "ref": "0375200003"}, "type": "Feature"}
{"geometry": {"coordinates": [-72.136466, 43.49201], "type": "Point"}, "id": "8nm4WTXrjgDLWsfH8XvVSyfCH0o=", "properties": {"@source_uri": "https://tools.usps.com/UspsToolsRestServices/rest/POLocator/findLocations", "@spider": "usps_collection_boxes", "addr:city": "GRANTHAM", "addr:country": "US", "addr:postcode": "03753", "addr:state": "NH", "addr:street_address": "10 WILLIS AVE", "amenity": "post_box", "collection_times": "Mo-Fr 16:30; Sa 12:00", "note": "ON 12/24 AND 12/31, THIS BOX MAY BE COLLECTED AS EARLY AS 12 NOON.", "nsi_id": "unitedstatespostalservice-a77078", "operator": "United States Postal Service", "operator:short": "USPS", "operator:type": "public", "operator:wikidata": "Q668687", "ref": "0375300001"}, "type": "Feature"}
{"geometry": {"coordinates": [-72.136384, 43.491956], "type": "Point"}, "id": "L1DHwaCf8LxmdW-eWZbdjuZ8mXs=", "properties": {"@source_uri": "https://tools.usps.com/UspsToolsRestServices/rest/POLocator/findLocations", "@spider": "usps_collection_boxes", "addr:city": "GRANTHAM", "addr:country": "US", "addr:postcode": "03753", "addr:state": "NH", "addr:street_address": "10 WILLIS AVE", "amenity": "post_box", "collection_times": "Mo-Fr 16:30; Sa 12:00", "indoor": "yes", "note": "ON 12/24 AND 12/31, THIS BOX MAY BE COLLECTED AS EARLY AS 12 NOON.", "nsi_id": "unitedstatespostalservice-a77078", "operator": "United States Postal Service", "operator:short": "USPS", "operator:type": "public", "operator:wikidata": "Q668687", "ref": "0375300002"}, "type": "Feature"}
{"geometry": {"coordinates": [-72.136893157, 43.492353055], "type": "Point"}, "id": "vG6jnXN0UyhZiakqj90-0113fzY=", "properties": {"@source_uri": "https://tools.usps.com/UspsToolsRestServices/rest/POLocator/findLocations", "@spider": "usps_collection_boxes", "addr:city": "GRANTHAM", "addr:country": "US", "addr:postcode": "03753", "addr:state": "NH", "addr:street_address": "10 WILLIS AVE", "amenity": "post_box", "collection_times": "Mo-Fr 17:00; Sa 12:00", "indoor": "yes", "note": "ON 12/24 AND 12/31, THIS BOX MAY BE COLLECTED AS EARLY AS 12 NOON.", "nsi_id": "unitedstatespostalservice-a77078", "operator": "United States Postal Service", "operator:short": "USPS", "operator:type": "public", "operator:wikidata": "Q668687", "ref": "0375300004"}, "type": "Feature"}
{"geometry": {"coordinates": [-72.139532, 43.377529], "type": "Point"}, "id": "4KH5SjMi9YN124wkoGd2TynXhnc=", "properties": {"@source_uri": "https://tools.usps.com/UspsToolsRestServices/rest/POLocator/findLocations", "@spider": "usps_collection_boxes", "addr:city": "GUILD", "addr:country": "US", "addr:postcode": "03754", "addr:state": "NH", "addr:street_address": "16 HALE ST", "amenity": "post_box", "collection_times": "Mo-Fr 16:30; Sa 11:45", "note": "ON 12/24 AND 12/31, THIS BOX MAY BE COLLECTED AS EARLY AS 12 NOON.", "nsi_id": "unitedstatespostalservice-a77078", "operator": "United States Postal Service", "operator:short": "USPS", "operator:type": "public", "operator:wikidata": "Q668687", "ref": "0375400001"}, "type": "Feature"}
{"geometry": {"coordinates": [-72.139643, 43.377577], "type": "Point"}, "id": "TuupVtJqR3FabtOVVstlC39NSIc=", "properties": {"@source_uri": "https://tools.usps.com/UspsToolsRestServices/rest/POLocator/findLocations", "@spider": "usps_collection_boxes", "addr:city": "GUILD", "addr:country": "US", "addr:postcode": "03754", "addr:state": "NH", "addr:street_address": "16 HALE ST", "amenity": "post_box", "collection_times": "Mo-Fr 16:30; Sa 11:45", "indoor": "yes", "note": "ON 12/24 AND 12/31, THIS BOX MAY BE COLLECTED AS EARLY AS 12 NOON.", "nsi_id": "unitedstatespostalservice-a77078", "operator": "United States Postal Service", "operator:short": "USPS", "operator:type": "public", "operator:wikidata": "Q668687", "ref": "0375400003"}, "type": "Feature"}
{"geometry": {"coordinates": [-72.139612795, 43.377598466], "type": "Point"}, "id": "k4OBoSZhk5RG4bNBO2OspuEl_xU=", "properties": {"@source_uri": "https://tools.usps.com/UspsToolsRestServices/rest/POLocator/findLocations", "@spider": "usps_collection_boxes", "addr:city": "GUILD", "addr:country": "US", "addr:postcode": "03754", "addr:state": "NH", "addr:street_address": "16 HALE ST", "amenity": "post_box", "collection_times": "Mo-Fr 16:30; Sa 11:45", "indoor": "yes", "note": "ON 12/24 AND 12/31, THIS BOX MAY BE COLLECTED AS EARLY AS 12 NOON.", "nsi_id": "unitedstatespostalservice-a77078", "operator": "United States Postal Service", "operator:short": "USPS", "operator:type": "public", "operator:wikidata": "Q668687", "ref": "0375400004"}, "type": "Feature"}
{"geometry": {"coordinates": [-72.289321, 43.700812], "type": "Point"}, "id": "kTVHE-6jpKX6kaBKp1KqY5tLZEs=", "properties": {"@source_uri": "https://tools.usps.com/UspsToolsRestServices/rest/POLocator/findLocations", "@spider": "usps_collection_boxes", "addr:city": "HANOVER", "addr:country": "US", "addr:postcode": "03755", "addr:state": "NH", "addr:street_address": "1 LEBANON ST", "amenity": "post_box", "collection_times": "Mo-Fr 15:00; Sa 12:00", "note": "ON 12/24 AND 12/31, THIS BOX MAY BE COLLECTED AS EARLY AS 12 NOON.", "nsi_id": "unitedstatespostalservice-a77078", "operator": "United States Postal Service", "operator:short": "USPS", "operator:type": "public", "operator:wikidata": "Q668687", "ref": "0375500009"}, "type": "Feature"}
{"geometry": {"coordinates": [-72.289468, 43.700685], "type": "Point"}, "id": "glE09tz-y4WZiB_a6Tgr7oOq90A=", "properties": {"@source_uri": "https://tools.usps.com/UspsToolsRestServices/rest/POLocator/findLocations", "@spider": "usps_collection_boxes", "addr:city": "HANOVER", "addr:country": "US", "addr:postcode": "03755", "addr:state": "NH", "addr:street_address": "50 S MAIN ST", "amenity": "post_box", "collection_times": "Mo-Fr 15:00; Sa 12:00", "indoor": "yes", "note": "ON 12/24 AND 12/31, THIS BOX MAY BE COLLECTED AS EARLY AS 12 NOON.", "nsi_id": "unitedstatespostalservice-a77078", "operator": "United States Postal Service", "operator:short": "USPS", "operator:type": "public", "operator:wikidata": "Q668687", "ref": "0375500012"}, "type": "Feature"}
{"geometry": {"coordinates": [-72.289468, 43.700685], "type": "Point"}, "id": "J__7E3g6gF08_2rO6rzt4zA3BAo=", "properties": {"@source_uri": "https://tools.usps.com/UspsToolsRestServices/rest/POLocator/findLocations", "@spider": "usps_collection_boxes", "addr:city": "HANOVER", "addr:country": "US", "addr:postcode": "03755", "addr:state": "NH", "addr:street_address": "50 S MAIN ST", "amenity": "post_box", "collection_times": "Mo-Fr 15:00; Sa 12:00", "note": "ON 12/24 AND 12/31, THIS BOX MAY BE COLLECTED AS EARLY AS 12 NOON.", "nsi_id": "unitedstatespostalservice-a77078", "operator": "United States Postal Service", "operator:short": "USPS", "operator:type": "public", "operator:wikidata": "Q668687", "ref": "0375500014"}, "type": "Feature"}
{"geometry": {"coordinates": [-72.2729279, 43.718927], "type": "Point"}, "id": "ap6gpD6h-H6fjrMaS4W1gQvBggM=", "properties": {"@source_uri": "https://tools.usps.com/UspsToolsRestServices/rest/POLocator/findLocations", "@spider": "usps_collection_boxes", "addr:city": "HANOVER", "addr:country": "US", "addr:postcode": "03755", "addr:state": "NH", "addr:street_address": "45 LYME RD", "amenity": "post_box", "collection_times": "Mo-Sa 09:00", "nsi_id": "unitedstatespostalservice-a77078", "operator": "United States Postal Service", "operator:short": "USPS", "operator:type": "public", "operator:wikidata": "Q668687", "ref": "0375500020"}, "type": "Feature"}
{"geometry": {"coordinates": [-72.2883086, 43.707921], "type": "Point"}, "id": "bcoTxhXJltSZPRgot2hbsBSkBVw=", "properties": {"@source_uri": "https://tools.usps.com/UspsToolsRestServices/rest/POLocator/findLocations", "@spider": "usps_collection_boxes", "addr:city": "HANOVER", "addr:country": "US", "addr:postcode": "03755", "addr:state": "NH", "addr:street_address": "1 ROPE FERRY RD", "amenity": "post_box", "collection_times": "Mo-Sa 09:00", "nsi_id": "unitedstatespostalservice-a77078", "operator": "United States Postal Service", "operator:short": "USPS", "operator:type": "public", "operator:wikidata": "Q668687", "ref": "0375500024"}, "type": "Feature"}
{"geometry": {"coordinates": [-72.2805564, 43.69794], "type": "Point"}, "id": "lnSXfPl_yS_kKnl9zp3-x39v7fM=", "properties": {"@source_uri": "https://tools.usps.com/UspsToolsRestServices/rest/POLocator/findLocations", "@spider": "usps_collection_boxes", "addr:city": "HANOVER", "addr:country": "US", "addr:postcode": "03755", "addr:state": "NH", "addr:street_address": "45 S PARK ST", "amenity": "post_box", "collection_times": "Mo-Sa 09:00", "nsi_id": "unitedstatespostalservice-a77078", "operator": "United States Postal Service", "operator:short": "USPS", "operator:type": "public", "operator:wikidata": "Q668687", "ref": "0375500028"}, "type": "Feature"}
{"geometry": {"coordinates": [-72.289395, 43.703155], "type": "Point"}, "id": "Xry0khCFGe1p8kY8wmh76TWGAXM=", "properties": {"@source_uri": "https://tools.usps.com/UspsToolsRestServices/rest/POLocator/findLocations", "@spider": "usps_collection_boxes", "addr:city": "HANOVER", "addr:country": "US", "addr:postcode": "03755", "addr:state": "NH", "addr:street_address": "50 S MAIN ST", "amenity": "post_box", "collection_times": "Mo-Fr 15:00; Sa 12:00", "indoor": "yes", "note": "ON 12/24 AND 12/31, THIS BOX MAY BE COLLECTED AS EARLY AS 12 NOON.", "nsi_id": "unitedstatespostalservice-a77078", "operator": "United States Postal Service", "operator:short": "USPS", "operator:type": "public", "operator:wikidata": "Q668687", "ref": "0375500031"}, "type": "Feature"}
{"geometry": {"coordinates": [-72.0589, 44.041556], "type": "Point"}, "id": "WBWAJGvvhNXhXEYIl01BGxMsyvE=", "properties": {"@source_uri": "https://tools.usps.com/UspsToolsRestServices/rest/POLocator/findLocations", "@spider": "usps_collection_boxes", "addr:city": "HAVERHILL", "addr:country": "US", "addr:postcode": "03765", "addr:state": "NH", "addr:street_address": "630 DARTMOUTH COLLEGE HWY", "amenity": "post_box", "collection_times": "Mo-Fr 16:45; Sa 11:45", "note": "ON 12/24 AND 12/31, THIS BOX MAY BE COLLECTED AS EARLY AS 12 NOON.", "nsi_id": "unitedstatespostalservice-a77078", "operator": "United States Postal Service", "operator:short": "USPS", "operator:type": "public", "operator:wikidata": "Q668687", "ref": "0376500001"}, "type": "Feature"}
{"geometry": {"coordinates": [-72.058943, 44.041543], "type": "Point"}, "id": "RUwYDr2rzBbqZ6L2RCFrgbTkzvo=", "properties": {"@source_uri": "https://tools.usps.com/UspsToolsRestServices/rest/POLocator/findLocations", "@spider": "usps_collection_boxes", "addr:city": "HAVERHILL", "addr:country": "US", "addr:postcode": "03765", "addr:state": "NH", "addr:street_address": "630 DARTMOUTH COLLEGE HWY", "amenity": "post_box", "collection_times": "Mo-Fr 16:45; Sa 11:45", "indoor": "yes", "note": "ON 12/24 AND 12/31, THIS BOX MAY BE COLLECTED AS EARLY AS 12 NOON.", "nsi_id": "unitedstatespostalservice-a77078", "operator": "United States Postal Service", "operator:short": "USPS", "operator:type": "public", "operator:wikidata": "Q668687", "ref": "0376500002"}, "type": "Feature"}
{"geometry": {"coordinates": [-72.058976331, 44.041343396], "type": "Point"}, "id": "H344FmdOYppHjXabhhaxIDZcSok=", "properties": {"@source_uri": "https://tools.usps.com/UspsToolsRestServices/rest/POLocator/findLocations", "@spider": "usps_collection_boxes", "addr:city": "HAVERHILL", "addr:country": "US", "addr:postcode": "03765", "addr:state": "NH", "addr:street_address": "630 DARTMOUTH COLLEGE HWY", "amenity": "post_box", "collection_times": "Mo-Fr 16:45; Sa 11:45", "indoor": "yes", "note": "ON 12/24 AND 12/31, THIS BOX MAY BE COLLECTED AS EARLY AS 12 NOON.", "nsi_id": "unitedstatespostalservice-a77078", "operator": "United States Postal Service", "operator:short": "USPS", "operator:type": "public", "operator:wikidata": "Q668687", "ref": "0376500004"}, "type": "Feature"}
{"geometry": {"coordinates": [-72.2481673, 43.638708], "type": "Point"}, "id": "89J_fl1rFIS138brIvFzrtlgbcg=", "properties": {"@source_uri": "https://tools.usps.com/UspsToolsRestServices/rest/POLocator/findLocations", "@spider": "usps_collection_boxes", "addr:city": "LEBANON", "addr:country": "US", "addr:postcode": "03766", "addr:state": "NH", "addr:street_address": "52 SCHOOL ST", "amenity": "post_box", "collection_times": "Mo-Sa 11:00", "nsi_id": "unitedstatespostalservice-a77078", "operator": "United States Postal Service", "operator:short": "USPS", "operator:type": "public", "operator:wikidata": "Q668687", "ref": "0376600001"}, "type": "Feature"}
{"geometry": {"coordinates": [-72.3087035, 43.625055], "type": "Point"}, "id": "j_AHN6UeF6nNiwhbI-0b4GK_kOk=", "properties": {"@source_uri": "https://tools.usps.com/UspsToolsRestServices/rest/POLocator/findLocations", "@spider": "usps_collection_boxes", "addr:city": "LEBANON", "addr:country": "US", "addr:postcode": "03766", "addr:state": "NH", "addr:street_address": "5 AIRPARK RD", "amenity": "post_box", "collection_times": "Mo-Fr 10:00", "nsi_id": "unitedstatespostalservice-a77078", "operator": "United States Postal Service", "operator:short": "USPS", "operator:type": "public", "operator:wikidata": "Q668687", "ref": "0376600003"}, "type": "Feature"}
{"geometry": {"coordinates": [-72.2482811, 43.642927], "type": "Point"}, "id": "PGY0d4fDZh_irllODQGqgK_0f5A=", "properties": {"@source_uri": "https://tools.usps.com/UspsToolsRestServices/rest/POLocator/findLocations", "@spider": "usps_collection_boxes", "addr:city": "LEBANON", "addr:country": "US", "addr:postcode": "03766", "addr:state": "NH", "addr:street_address": "20 BANK ST", "amenity": "post_box", "collection_times": "Mo-Fr 17:00; Sa 09:00", "note": "ON 12/24 AND 12/31, THIS BOX MAY BE COLLECTED AS EARLY AS 12 NOON.", "nsi_id": "unitedstatespostalservice-a77078", "operator": "United States Postal Service", "operator:short": "USPS", "operator:type": "public", "operator:wikidata": "Q668687", "ref": "0376600005"}, "type": "Feature"}
{"geometry": {"coordinates": [-72.2515963, 43.642953], "type": "Point"}, "id": "N6YAZ7xXcETYqjLiZwraTP8V4Ps=", "properties": {"@source_uri": "https://tools.usps.com/UspsToolsRestServices/rest/POLocator/findLocations", "@spider": "usps_collection_boxes", "addr:city": "LEBANON", "addr:country": "US", "addr:postcode": "03766", "addr:state": "NH", "addr:street_address": "51 N PARK ST", "amenity": "post_box", "collection_times": "Mo-Fr 17:00; Sa 15:00", "note": "ON 12/24 AND 12/31, THIS BOX MAY BE COLLECTED AS EARLY AS 12 NOON.", "nsi_id": "unitedstatespostalservice-a77078", "operator": "United States Postal Service", "operator:short": "USPS", "operator:type": "public", "operator:wikidata": "Q668687", "ref": "0376600008"}, "type": "Feature"}
{"geometry": {"coordinates": [-72.3160224, 43.63495], "type": "Point"}, "id": "QwYMGzdeaFoavas_RZ227hCXXLk=", "properties": {"@source_uri": "https://tools.usps.com/UspsToolsRestServices/rest/POLocator/findLocations", "@spider": "usps_collection_boxes", "addr:city": "LEBANON", "addr:country": "US", "addr:postcode": "03766", "addr:state": "NH", "addr:street_address": "1 GLEN RD", "amenity": "post_box", "collection_times": "Mo-Fr 16:45; Sa 09:00", "note": "ON 12/24 AND 12/31, THIS BOX MAY BE COLLECTED AS EARLY AS 12 NOON.", "nsi_id": "unitedstatespostalservice-a77078", "operator": "United States Postal Service", "operator:short": "USPS", "operator:type": "public", "operator:wikidata": "Q668687", "ref": "0376600016"}, "type": "Feature"}
{"geometry": {"coordinates": [-72.2543352, 43.643858], "type": "Point"}, "id": "HSjqh5gsj1s40Eh_vnJgiwKWoT8=", "properties": {"@source_uri": "https://tools.usps.com/UspsToolsRestServices/rest/POLocator/findLocations", "@spider": "usps_collection_boxes", "addr:city": "LEBANON", "addr:country": "US", "addr:postcode": "03766", "addr:state": "NH", "addr:street_address": "59 HANOVER ST", "amenity": "post_box", "collection_times": "Mo-Fr 17:00; Sa 09:00", "note": "ON 12/24 AND 12/31, THIS BOX MAY BE COLLECTED AS EARLY AS 12 NOON.", "nsi_id": "unitedstatespostalservice-a77078", "operator": "United States Postal Service", "operator:short": "USPS", "operator:type": "public", "operator:wikidata": "Q668687", "ref": "0376600017"}, "type": "Feature"}
{"geometry": {"coordinates": [-72.3211473, 43.63378], "type": "Point"}, "id": "V_Os1wCdZGVORKyhF6x4FaqxOTw=", "properties": {"@source_uri": "https://tools.usps.com/UspsToolsRestServices/rest/POLocator/findLocations", "@spider": "usps_collection_boxes", "addr:city": "LEBANON", "addr:country": "US", "addr:postcode": "03766", "addr:state": "NH", "addr:street_address": "200 S MAIN ST", "amenity": "post_box", "collection_times": "Mo-Sa 09:00", "nsi_id": "unitedstatespostalservice-a77078", "operator": "United States Postal Service", "operator:short": "USPS", "operator:type": "public", "operator:wikidata": "Q668687", "ref": "0376600020"}, "type": "Feature"}
{"geometry": {"coordinates": [-72.2609352, 43.676388], "type": "Point"}, "id": "vMTiKGOMw1VPAX8JS9KaOW71LbM=", "properties": {"@source_uri": "https://tools.usps.com/UspsToolsRestServices/rest/POLocator/findLocations", "@spider": "usps_collection_boxes", "addr:city": "LEBANON", "addr:country": "US", "addr:postcode": "03766", "addr:state": "NH", "addr:street_address": "12 CENTERRA PKWY", "amenity": "post_box", "collection_times": "Mo-Fr 16:00", "note": "ON 12/24 AND 12/31, THIS BOX MAY BE COLLECTED AS EARLY AS 12 NOON.", "nsi_id": "unitedstatespostalservice-a77078", "operator": "United States Postal Service", "operator:short": "USPS", "operator:type": "public", "operator:wikidata": "Q668687", "ref": "0376600021"}, "type": "Feature"}
{"geometry": {"coordinates": [-72.3146935, 43.632513], "type": "Point"}, "id": "HMvPU6c9AqluCodcOB3WxQ-TB0Q=", "properties": {"@source_uri": "https://tools.usps.com/UspsToolsRestServices/rest/POLocator/findLocations", "@spider": "usps_collection_boxes", "addr:city": "LEBANON", "addr:country": "US", "addr:postcode": "03766", "addr:state": "NH", "addr:street_address": "66 BENNING ST", "amenity": "post_box", "collection_times": "Mo-Fr 16:45; Sa 12:00", "note": "ON 12/24 AND 12/31, THIS BOX MAY BE COLLECTED AS EARLY AS 12 NOON.", "nsi_id": "unitedstatespostalservice-a77078", "operator": "United States Postal Service", "operator:short": "USPS", "operator:type": "public", "operator:wikidata": "Q668687", "ref": "0376600026"}, "type": "Feature"}
{"geometry": {"coordinates": [-72.3076029, 43.65084], "type": "Point"}, "id": "yQ02CYsqWfZi1_OKriHsJ4Qzj6I=", "properties": {"@source_uri": "https://tools.usps.com/UspsToolsRestServices/rest/POLocator/findLocations", "@spider": "usps_collection_boxes", "addr:city": "LEBANON", "addr:country": "US", "addr:postcode": "03766", "addr:state": "NH", "addr:street_address": "82 MAPLE ST", "amenity": "post_box", "collection_times": "Mo-Sa 12:00", "nsi_id": "unitedstatespostalservice-a77078", "operator": "United States Postal Service", "operator:short": "USPS", "operator:type": "public", "operator:wikidata": "Q668687", "ref": "0376600028"}, "type": "Feature"}
{"geometry": {"coordinates": [-72.3155407, 43.63357], "type": "Point"}, "id": "uuWtUY5CaOpuTPAgRSIDdB29Na8=", "properties": {"@source_uri": "https://tools.usps.com/UspsToolsRestServices/rest/POLocator/findLocations", "@spider": "usps_collection_boxes", "addr:city": "LEBANON", "addr:country": "US", "addr:postcode": "03766", "addr:state": "NH", "addr:street_address": "8 GLEN RD", "amenity": "post_box", "collection_times": "Mo-Sa 09:00", "nsi_id": "unitedstatespostalservice-a77078", "operator": "United States Postal Service", "operator:short": "USPS", "operator:type": "public", "operator:wikidata": "Q668687", "ref": "0376600042"}, "type": "Feature"}
{"geometry": {"coordinates": [-72.3233421, 43.629282], "type": "Point"}, "id": "XU6Q3AEe0S1Pw2a1Oc15vDxpV9s=", "properties": {"@source_uri": "https://tools.usps.com/UspsToolsRestServices/rest/POLocator/findLocations", "@spider": "usps_collection_boxes", "addr:city": "LEBANON", "addr:country": "US", "addr:postcode": "03766", "addr:state": "NH", "addr:street_address": "250 PLAINFIELD RD", "amenity": "post_box", "collection_times": "Mo-Sa 11:00", "nsi_id": "unitedstatespostalservice-a77078", "operator": "United States Postal Service", "operator:short": "USPS", "operator:type": "public", "operator:wikidata": "Q668687", "ref": "0376600044"}, "type": "Feature"}
{"geometry": {"coordinates": [-72.2500999981, 43.6421099974], "type": "Point"}, "id": "5wZUsIJeh2gs1cHo-ynie1tJtuc=", "properties": {"@source_uri": "https://tools.usps.com/UspsToolsRestServices/rest/POLocator/findLocations", "@spider": "usps_collection_boxes", "addr:city": "LEBANON", "addr:country": "US", "addr:postcode": "03766", "addr:state": "NH", "addr:street_address": "11 E PARK ST", "amenity": "post_box", "collection_times": "Mo-Fr 17:15; Sa 14:00", "note": "ON 12/24 AND 12/31, THIS BOX MAY BE COLLECTED AS EARLY AS 12 NOON.", "nsi_id": "unitedstatespostalservice-a77078", "operator": "United States Postal Service", "operator:short": "USPS", "operator:type": "public", "operator:wikidata": "Q668687", "ref": "0376600045"}, "type": "Feature"}
{"geometry": {"coordinates": [-72.3163345, 43.631985], "type": "Point"}, "id": "aWCoTt2SzPi92i-59G9lBwv5GSE=", "properties": {"@source_uri": "https://tools.usps.com/UspsToolsRestServices/rest/POLocator/findLocations", "@spider": "usps_collection_boxes", "addr:city": "LEBANON", "addr:country": "US", "addr:postcode": "03766", "addr:state": "NH", "addr:street_address": "10 BENNING ST", "amenity": "post_box", "collection_times": "Mo-Fr 13:00; Sa 09:00", "note": "ON 12/24 AND 12/31, THIS BOX MAY BE COLLECTED AS EARLY AS 12 NOON.", "nsi_id": "unitedstatespostalservice-a77078", "operator": "United States Postal Service", "operator:short": "USPS", "operator:type": "public", "operator:wikidata": "Q668687", "ref": "0376600048"}, "type": "Feature"}
{"geometry": {"coordinates": [-72.2528705, 43.646382], "type": "Point"}, "id": "T0_OWt22VBBF91nSnwYnCyhGe9k=", "properties": {"@source_uri": "https://tools.usps.com/UspsToolsRestServices/rest/POLocator/findLocations", "@spider": "usps_collection_boxes", "addr:city": "LEBANON", "addr:country": "US", "addr:postcode": "03766", "addr:state": "NH", "addr:street_address": "103 HANOVER ST", "amenity": "post_box", "collection_times": "Mo-Fr 17:00; Sa 09:00", "note": "ON 12/24 AND 12/31, THIS BOX MAY BE COLLECTED AS EARLY AS 12 NOON.", "nsi_id": "unitedstatespostalservice-a77078", "operator": "United States Postal Service", "operator:short": "USPS", "operator:type": "public", "operator:wikidata": "Q668687", "ref": "0376600059"}, "type": "Feature"}
{"geometry": {"coordinates": [-72.2586872, 43.638338], "type": "Point"}, "id": "1jNyBl0MkSYYLM7H_aqjlbHoXBw=", "properties": {"@source_uri": "https://tools.usps.com/UspsToolsRestServices/rest/POLocator/findLocations", "@spider": "usps_collection_boxes", "addr:city": "LEBANON", "addr:country": "US", "addr:postcode": "03766", "addr:state": "NH", "addr:street_address": "85 MECHANIC ST", "amenity": "post_box", "collection_times": "Mo-Sa 10:00", "nsi_id": "unitedstatespostalservice-a77078", "operator": "United States Postal Service", "operator:short": "USPS", "operator:type": "public", "operator:wikidata": "Q668687", "ref": "0376600060"}, "type": "Feature"}
{"geometry": {"coordinates": [-72.250597, 43.64241], "type": "Point"}, "id": "KElNwU8OhWBN_Tc1s7wSKb-6rlk=", "properties": {"@source_uri": "https://tools.usps.com/UspsToolsRestServices/rest/POLocator/findLocations", "@spider": "usps_collection_boxes", "addr:city": "LEBANON", "addr:country": "US", "addr:postcode": "03766", "addr:state": "NH", "addr:street_address": "11 E PARK ST", "amenity": "post_box", "collection_times": "Mo-Fr 17:15; Sa 14:00", "indoor": "yes", "note": "ON 12/24 AND 12/31, THIS BOX MAY BE COLLECTED AS EARLY AS 12 NOON.", "nsi_id": "unitedstatespostalservice-a77078", "operator": "United States Postal Service", "operator:short": "USPS", "operator:type": "public", "operator:wikidata": "Q668687", "ref": "0376600062"}, "type": "Feature"}
{"geometry": {"coordinates": [-72.314097, 43.632792], "type": "Point"}, "id": "guPp0TLP6gJRo_MC6SZGPCGb1Zw=", "properties": {"@source_uri": "https://tools.usps.com/UspsToolsRestServices/rest/POLocator/findLocations", "@spider": "usps_collection_boxes", "addr:city": "LEBANON", "addr:country": "US", "addr:postcode": "03766", "addr:state": "NH", "addr:street_address": "66 BENNING ST", "amenity": "post_box", "collection_times": "Mo-Fr 16:45; Sa 12:00", "indoor": "yes", "note": "ON 12/24 AND 12/31, THIS BOX MAY BE COLLECTED AS EARLY AS 12 NOON.", "nsi_id": "unitedstatespostalservice-a77078", "operator": "United States Postal Service", "operator:short": "USPS", "operator:type": "public", "operator:wikidata": "Q668687", "ref": "0376600063"}, "type": "Feature"}
{"geometry": {"coordinates": [-72.2524799, 43.642632], "type": "Point"}, "id": "oN17dwkVlopzQJLhm3LeQYlv41o=", "properties": {"@source_uri": "https://tools.usps.com/UspsToolsRestServices/rest/POLocator/findLocations", "@spider": "usps_collection_boxes", "addr:city": "LEBANON", "addr:country": "US", "addr:postcode": "03766", "addr:state": "NH", "addr:street_address": "10 W PARK ST", "amenity": "post_box", "collection_times": "Mo-Fr 17:00; Sa 15:00", "note": "ON 12/24 AND 12/31, THIS BOX MAY BE COLLECTED AS EARLY AS 12 NOON.", "nsi_id": "unitedstatespostalservice-a77078", "operator": "United States Postal Service", "operator:short": "USPS", "operator:type": "public", "operator:wikidata": "Q668687", "ref": "0376600064"}, "type": "Feature"}
{"geometry": {"coordinates": [-72.2476568, 43.659321], "type": "Point"}, "id": "d1JboBXHW4LRoLRyS0PyJi789t8=", "properties": {"@source_uri": "https://tools.usps.com/UspsToolsRestServices/rest/POLocator/findLocations", "@spider": "usps_collection_boxes", "addr:city": "LEBANON", "addr:country": "US", "addr:postcode": "03766", "addr:state": "NH", "addr:street_address": "31 OLD ETNA RD", "amenity": "post_box", "collection_times": "Mo-Sa 09:00", "nsi_id": "unitedstatespostalservice-a77078", "operator": "United States Postal Service", "operator:short": "USPS", "operator:type": "public", "operator:wikidata": "Q668687", "ref": "0376600065"}, "type": "Feature"}
{"geometry": {"coordinates": [-72.2739416, 43.675335], "type": "Point"}, "id": "0aKTmGW34yAthtXw4frIbkXJk3c=", "properties": {"@source_uri": "https://tools.usps.com/UspsToolsRestServices/rest/POLocator/findLocations", "@spider": "usps_collection_boxes", "addr:city": "LEBANON", "addr:country": "US", "addr:postcode": "03766", "addr:state": "NH", "addr:street_address": "1 MEDICAL CENTER DR", "amenity": "post_box", "collection_times": "Mo-Fr 16:00", "note": "ON 12/24 AND 12/31, THIS BOX MAY BE COLLECTED AS EARLY AS 12 NOON.", "nsi_id": "unitedstatespostalservice-a77078", "operator": "United States Postal Service", "operator:short": "USPS", "operator:type": "public", "operator:wikidata": "Q668687", "ref": "0376600067"}, "type": "Feature"}
{"geometry": {"coordinates": [-72.3090312, 43.62125], "type": "Point"}, "id": "gAFEEi8H9hIwLBIFXUoso5jCSWM=", "properties": {"@source_uri": "https://tools.usps.com/UspsToolsRestServices/rest/POLocator/findLocations", "@spider": "usps_collection_boxes", "addr:city": "LEBANON", "addr:country": "US", "addr:postcode": "03766", "addr:state": "NH", "addr:street_address": "21 AIRPARK RD", "amenity": "post_box", "collection_times": "Mo-Fr 16:45", "note": "ON 12/24 AND 12/31, THIS BOX MAY BE COLLECTED AS EARLY AS 12 NOON.", "nsi_id": "unitedstatespostalservice-a77078", "operator": "United States Postal Service", "operator:short": "USPS", "operator:type": "public", "operator:wikidata": "Q668687", "ref": "0376600068"}, "type": "Feature"}
{"geometry": {"coordinates": [-72.3100845, 43.647587], "type": "Point"}, "id": "_suNx8296bx8KTu_nPWvdetx3Xw=", "properties": {"@source_uri": "https://tools.usps.com/UspsToolsRestServices/rest/POLocator/findLocations", "@spider": "usps_collection_boxes", "addr:city": "LEBANON", "addr:country": "US", "addr:postcode": "03766", "addr:state": "NH", "addr:street_address": "46 CENTERRA PKWY", "amenity": "post_box", "collection_times": "Mo-Fr 16:00", "note": "ON 12/24 AND 12/31, THIS BOX MAY BE COLLECTED AS EARLY AS 12 NOON.", "nsi_id": "unitedstatespostalservice-a77078", "operator": "United States Postal Service", "operator:short": "USPS", "operator:type": "public", "operator:wikidata": "Q668687", "ref": "0376600069"}, "type": "Feature"}
{"geometry": {"coordinates": [-72.2913812, 43.636378], "type": "Point"}, "id": "nZbu-rme8twhEfyk-boSyKnTdgI=", "properties": {"@source_uri": "https://tools.usps.com/UspsToolsRestServices/rest/POLocator/findLocations", "@spider": "usps_collection_boxes", "addr:city": "LEBANON", "addr:country": "US", "addr:postcode": "03766", "addr:state": "NH", "addr:street_address": "410 MIRACLE MILE", "amenity": "post_box", "collection_times": "Mo-Fr 16:30", "note": "ON 12/24 AND 12/31, THIS BOX MAY BE COLLECTED AS EARLY AS 12 NOON.", "nsi_id": "unitedstatespostalservice-a77078", "operator": "United States Postal Service", "operator:short": "USPS", "operator:type": "public", "operator:wikidata": "Q668687", "ref": "0376600070"}, "type": "Feature"}
{"geometry": {"coordinates": [-72.3243923, 43.623762], "type": "Point"}, "id": "UsMAo3nJ2Gu4npIOePXD6JxNu28=", "properties": {"@source_uri": "https://tools.usps.com/UspsToolsRestServices/rest/POLocator/findLocations", "@spider": "usps_collection_boxes", "addr:city": "LEBANON", "addr:country": "US", "addr:postcode": "03766", "addr:state": "NH", "addr:street_address": "285 PLAINFIELD RD", "amenity": "post_box", "collection_times": "Mo-Sa 12:00", "nsi_id": "unitedstatespostalservice-a77078", "operator": "United States Postal Service", "operator:short": "USPS", "operator:type": "public", "operator:wikidata": "Q668687", "ref": "0376600071"}, "type": "Feature"}
{"geometry": {"coordinates": [-72.2465926, 43.654679], "type": "Point"}, "id": "JvHzJiCyz_fBj7LKdYvWyCQcSmc=", "properties": {"@source_uri": "https://tools.usps.com/UspsToolsRestServices/rest/POLocator/findLocations", "@spider": "usps_collection_boxes", "addr:city": "LEBANON", "addr:country": "US", "addr:postcode": "03766", "addr:state": "NH", "addr:street_address": "18 OLD ETNA RD", "amenity": "post_box", "collection_times": "Mo-Fr 16:00; Sa 14:00", "note": "ON 12/24 AND 12/31, THIS BOX MAY BE COLLECTED AS EARLY AS 12 NOON.", "nsi_id": "unitedstatespostalservice-a77078", "operator": "United States Postal Service", "operator:short": "USPS", "operator:type": "public", "operator:wikidata": "Q668687", "ref": "0376600072"}, "type": "Feature"}
{"geometry": {"coordinates": [-72.3209236, 43.629826], "type": "Point"}, "id": "OfJj7b4jlwYU76XPbN85Co4GieY=", "properties": {"@source_uri": "https://tools.usps.com/UspsToolsRestServices/rest/POLocator/findLocations", "@spider": "usps_collection_boxes", "addr:city": "LEBANON", "addr:country": "US", "addr:postcode": "03766", "addr:state": "NH", "addr:street_address": "3 AIRPORT RD", "amenity": "post_box", "collection_times": "Mo-Fr 16:45; Sa 12:00", "note": "ON 12/24 AND 12/31, THIS BOX MAY BE COLLECTED AS EARLY AS 12 NOON.", "nsi_id": "unitedstatespostalservice-a77078", "operator": "United States Postal Service", "operator:short": "USPS", "operator:type": "public", "operator:wikidata": "Q668687", "ref": "0376600077"}, "type": "Feature"}
{"geometry": {"coordinates": [-72.250565944, 43.642196435], "type": "Point"}, "id": "PJPAyy0NMTQ39QbIFLk6qJzDgRo=", "properties": {"@source_uri": "https://tools.usps.com/UspsToolsRestServices/rest/POLocator/findLocations", "@spider": "usps_collection_boxes", "addr:city": "LEBANON", "addr:country": "US", "addr:postcode": "03766", "addr:state": "NH", "addr:street_address": "11 E PARK ST", "amenity": "post_box", "collection_times": "Mo-Fr 17:00; Sa 12:00", "indoor": "yes", "note": "ON 12/24 AND 12/31, THIS BOX MAY BE COLLECTED AS EARLY AS 12 NOON.", "nsi_id": "unitedstatespostalservice-a77078", "operator": "United States Postal Service", "operator:short": "USPS", "operator:type": "public", "operator:wikidata": "Q668687", "ref": "0376600081"}, "type": "Feature"}
{"geometry": {"coordinates": [-72.158049, 43.810856], "type": "Point"}, "id": "vXC1beZ9eZcWClQqarX4PmL2of4=", "properties": {"@source_uri": "https://tools.usps.com/UspsToolsRestServices/rest/POLocator/findLocations", "@spider": "usps_collection_boxes", "addr:city": "LYME", "addr:country": "US", "addr:postcode": "03768", "addr:state": "NH", "addr:street_address": "5 MAIN ST", "amenity": "post_box", "collection_times": "Mo-Fr 16:45; Sa 12:00", "indoor": "yes", "note": "ON 12/24 AND 12/31, THIS BOX MAY BE COLLECTED AS EARLY AS 12 NOON.", "nsi_id": "unitedstatespostalservice-a77078", "operator": "United States Postal Service", "operator:short": "USPS", "operator:type": "public", "operator:wikidata": "Q668687", "ref": "0376800002"}, "type": "Feature"}
{"geometry": {"coordinates": [-72.158048974, 43.810849421], "type": "Point"}, "id": "r3sGAI2zVj-MKH4ONhN9KR_tpEQ=", "properties": {"@source_uri": "https://tools.usps.com/UspsToolsRestServices/rest/POLocator/findLocations", "@spider": "usps_collection_boxes", "addr:city": "LYME", "addr:country": "US", "addr:postcode": "03768", "addr:state": "NH", "addr:street_address": "5 MAIN ST UNIT 5", "amenity": "post_box", "collection_times": "Mo-Fr 17:15; Sa 12:00", "indoor": "yes", "note": "ON 12/24 AND 12/31, THIS BOX MAY BE COLLECTED AS EARLY AS 12 NOON.", "nsi_id": "unitedstatespostalservice-a77078", "operator": "United States Postal Service", "operator:short": "USPS", "operator:type": "public", "operator:wikidata": "Q668687", "ref": "0376800003"}, "type": "Feature"}
{"geometry": {"coordinates": [-72.0637893216, 43.7939042272], "type": "Point"}, "id": "WuJTY4nT1ZX5eTbxxHGtwo0Spwg=", "properties": {"@source_uri": "https://tools.usps.com/UspsToolsRestServices/rest/POLocator/findLocations", "@spider": "usps_collection_boxes", "addr:city": "LYME CENTER", "addr:country": "US", "addr:postcode": "03769", "addr:state": "NH", "addr:street_address": "181 DORCHESTER RD", "amenity": "post_box", "collection_times": "Mo-Fr 16:45; Sa 11:15", "indoor": "yes", "note": "ON 12/24 AND 12/31, THIS BOX MAY BE COLLECTED AS EARLY AS 12 NOON.", "nsi_id": "unitedstatespostalservice-a77078", "operator": "United States Postal Service", "operator:short": "USPS", "operator:type": "public", "operator:wikidata": "Q668687", "ref": "0376900002"}, "type": "Feature"}
{"geometry": {"coordinates": [-72.125382616, 43.79941498], "type": "Point"}, "id": "qyKA1FyfMwpd8Y36Zhjbz4jRkdY=", "properties": {"@source_uri": "https://tools.usps.com/UspsToolsRestServices/rest/POLocator/findLocations", "@spider": "usps_collection_boxes", "addr:city": "LYME CENTER", "addr:country": "US", "addr:postcode": "03769", "addr:state": "NH", "addr:street_address": "181 DORCHESTER RD UNIT 3", "amenity": "post_box", "collection_times": "Mo-Fr 10:00; Sa 11:30", "indoor": "yes", "nsi_id": "unitedstatespostalservice-a77078", "operator": "United States Postal Service", "operator:short": "USPS", "operator:type": "public", "operator:wikidata": "Q668687", "ref": "0376900003"}, "type": "Feature"}
{"geometry": {"coordinates": [-72.2616048, 43.5451107], "type": "Point"}, "id": "y4GIDXGKreHz-cf7Me0qMRlv-3c=", "properties": {"@source_uri": "https://tools.usps.com/UspsToolsRestServices/rest/POLocator/findLocations", "@spider": "usps_collection_boxes", "addr:city": "MERIDEN", "addr:country": "US", "addr:postcode": "03770", "addr:state": "NH", "addr:street_address": "54 MAIN ST UNIT 1", "amenity": "post_box", "collection_times": "Mo-Fr 16:30; Sa 11:15", "note": "ON 12/24 AND 12/31, THIS BOX MAY BE COLLECTED AS EARLY AS 12 NOON.", "nsi_id": "unitedstatespostalservice-a77078", "operator": "United States Postal Service", "operator:short": "USPS", "operator:type": "public", "operator:wikidata": "Q668687", "ref": "0377000001"}, "type": "Feature"}
{"geometry": {"coordinates": [-72.2568358, 43.541019], "type": "Point"}, "id": "YTp5iaiLVGzfCRScY6rUrUyNGPA=", "properties": {"@source_uri": "https://tools.usps.com/UspsToolsRestServices/rest/POLocator/findLocations", "@spider": "usps_collection_boxes", "addr:city": "MERIDEN", "addr:country": "US", "addr:postcode": "03770", "addr:state": "NH", "addr:street_address": "809 ROUTE 120", "amenity": "post_box", "collection_times": "Mo-Fr 11:00", "nsi_id": "unitedstatespostalservice-a77078", "operator": "United States Postal Service", "operator:short": "USPS", "operator:type": "public", "operator:wikidata": "Q668687", "ref": "0377000002"}, "type": "Feature"}
{"geometry": {"coordinates": [-72.256787, 43.545777], "type": "Point"}, "id": "-se5VQUFhYesoItS_TUUFLmkOWI=", "properties": {"@source_uri": "https://tools.usps.com/UspsToolsRestServices/rest/POLocator/findLocations", "@spider": "usps_collection_boxes", "addr:city": "MERIDEN", "addr:country": "US", "addr:postcode": "03770", "addr:state": "NH", "addr:street_address": "54 MAIN ST UNIT 1", "amenity": "post_box", "collection_times": "Mo-Fr 16:45; Sa 11:15", "indoor": "yes", "note": "ON 12/24 AND 12/31, THIS BOX MAY BE COLLECTED AS EARLY AS 12 NOON.", "nsi_id": "unitedstatespostalservice-a77078", "operator": "United States Postal Service", "operator:short": "USPS", "operator:type": "public", "operator:wikidata": "Q668687", "ref": "0377000003"}, "type": "Feature"}
{"geometry": {"coordinates": [-72.256989385, 43.545895134], "type": "Point"}, "id": "sBkb4-aEZC8Nd_-YLygN-DarABk=", "properties": {"@source_uri": "https://tools.usps.com/UspsToolsRestServices/rest/POLocator/findLocations", "@spider": "usps_collection_boxes", "addr:city": "MERIDEN", "addr:country": "US", "addr:postcode": "03770", "addr:state": "NH", "addr:street_address": "54 MAIN ST UNIT 1", "amenity": "post_box", "collection_times": "Mo-Fr 16:45; Sa 11:15", "indoor": "yes", "note": "ON 12/24 AND 12/31, THIS BOX MAY BE COLLECTED AS EARLY AS 12 NOON.", "nsi_id": "unitedstatespostalservice-a77078", "operator": "United States Postal Service", "operator:short": "USPS", "operator:type": "public", "operator:wikidata": "Q668687", "ref": "0377000004"}, "type": "Feature"}
{"geometry": {"coordinates": [-72.055498, 44.263825], "type": "Point"}, "id": "9kuHc42qr98Bm4nXwrpFK6ITrHg=", "properties": {"@source_uri": "https://tools.usps.com/UspsToolsRestServices/rest/POLocator/findLocations", "@spider": "usps_collection_boxes", "addr:city": "MONROE", "addr:country": "US", "addr:postcode": "03771", "addr:state": "NH", "addr:street_address": "89 MAIN ST", "amenity": "post_box", "collection_times": "Mo-Sa 11:45", "nsi_id": "unitedstatespostalservice-a77078", "operator": "United States Postal Service", "operator:short": "USPS", "operator:type": "public", "operator:wikidata": "Q668687", "ref": "0377100000"}, "type": "Feature"}
{"geometry": {"coordinates": [-72.03106, 44.2934521], "type": "Point"}, "id": "UCsgToGXOErs81NmKdUcGRuDLCI=", "properties": {"@source_uri": "https://tools.usps.com/UspsToolsRestServices/rest/POLocator/findLocations", "@spider": "usps_collection_boxes", "addr:city": "MONROE", "addr:country": "US", "addr:postcode": "03771", "addr:state": "NH", "addr:street_address": "89 MAIN ST", "amenity": "post_box", "collection_times": "Mo-Sa 11:45", "indoor": "yes", "nsi_id": "unitedstatespostalservice-a77078", "operator": "United States Postal Service", "operator:short": "USPS", "operator:type": "public", "operator:wikidata": "Q668687", "ref": "0377100001"}, "type": "Feature"}
{"geometry": {"coordinates": [-72.05549379, 44.261942585], "type": "Point"}, "id": "gYS6edoSfF7TPYhFD76O3nWcxR0=", "properties": {"@source_uri": "https://tools.usps.com/UspsToolsRestServices/rest/POLocator/findLocations", "@spider": "usps_collection_boxes", "addr:city": "MONROE", "addr:country": "US", "addr:postcode": "03771", "addr:state": "NH", "addr:street_address": "89 MAIN ST", "amenity": "post_box", "collection_times": "Mo-Sa 11:45", "indoor": "yes", "nsi_id": "unitedstatespostalservice-a77078", "operator": "United States Postal Service", "operator:short": "USPS", "operator:type": "public", "operator:wikidata": "Q668687", "ref": "0377100002"}, "type": "Feature"}
{"geometry": {"coordinates": [-72.172547, 43.36348], "type": "Point"}, "id": "fOp8GxO0GjuBt6NQjxbwTRxkEb0=", "properties": {"@source_uri": "https://tools.usps.com/UspsToolsRestServices/rest/POLocator/findLocations", "@spider": "usps_collection_boxes", "addr:city": "CROYDON", "addr:country": "US", "addr:postcode": "03773", "addr:state": "NH", "addr:street_address": "57 MAIN ST", "amenity": "post_box", "collection_times": "Mo-Sa 09:00", "nsi_id": "unitedstatespostalservice-a77078", "operator": "United States Postal Service", "operator:short": "USPS", "operator:type": "public", "operator:wikidata": "Q668687", "ref": "0377300003"}, "type": "Feature"}
{"geometry": {"coordinates": [-72.1781563, 43.371645], "type": "Point"}, "id": "j9yy2D7doiM7ctlxvonS44HUNq0=", "properties": {"@source_uri": "https://tools.usps.com/UspsToolsRestServices/rest/POLocator/findLocations", "@spider": "usps_collection_boxes", "addr:city": "CROYDON", "addr:country": "US", "addr:postcode": "03773", "addr:state": "NH", "addr:street_address": "190 N MAIN ST", "amenity": "post_box", "collection_times": "Mo-Sa 12:00", "nsi_id": "unitedstatespostalservice-a77078", "operator": "United States Postal Service", "operator:short": "USPS", "operator:type": "public", "operator:wikidata": "Q668687", "ref": "0377300006"}, "type": "Feature"}
{"geometry": {"coordinates": [-72.1738612, 43.365044], "type": "Point"}, "id": "OF2kCB4vwqmiWZfhkGdTzT37Jzk=", "properties": {"@source_uri": "https://tools.usps.com/UspsToolsRestServices/rest/POLocator/findLocations", "@spider": "usps_collection_boxes", "addr:city": "CROYDON", "addr:country": "US", "addr:postcode": "03773", "addr:state": "NH", "addr:street_address": "4 N MAIN ST", "amenity": "post_box", "collection_times": "Mo-Fr 13:00; Sa 09:00", "note": "ON 12/24 AND 12/31, THIS BOX MAY BE COLLECTED AS EARLY AS 12 NOON.", "nsi_id": "unitedstatespostalservice-a77078", "operator": "United States Postal Service", "operator:short": "USPS", "operator:type": "public", "operator:wikidata": "Q668687", "ref": "0377300007"}, "type": "Feature"}
{"geometry": {"coordinates": [-72.173320005, 43.36534999], "type": "Point"}, "id": "SYRb3-nnENrpPIrTCBL_ysxGvtU=", "properties": {"@source_uri": "https://tools.usps.com/UspsToolsRestServices/rest/POLocator/findLocations", "@spider": "usps_collection_boxes", "addr:city": "CROYDON", "addr:country": "US", "addr:postcode": "03773", "addr:state": "NH", "addr:street_address": "15 PARK ST", "amenity": "post_box", "collection_times": "Mo-Fr 17:00; Sa 15:45", "note": "ON 12/24 AND 12/31, THIS BOX MAY BE COLLECTED AS EARLY AS 12 NOON.", "nsi_id": "unitedstatespostalservice-a77078", "operator": "United States Postal Service", "operator:short": "USPS", "operator:type": "public", "operator:wikidata": "Q668687", "ref": "0377300011"}, "type": "Feature"}
{"geometry": {"coordinates": [-72.1704487, 43.360548], "type": "Point"}, "id": "deZpf8t5ui4awvDxhzMc2SSINgE=", "properties": {"@source_uri": "https://tools.usps.com/UspsToolsRestServices/rest/POLocator/findLocations", "@spider": "usps_collection_boxes", "addr:city": "CROYDON", "addr:country": "US", "addr:postcode": "03773", "addr:state": "NH", "addr:street_address": "76 S MAIN ST", "amenity": "post_box", "collection_times": "Mo-Sa 12:00", "nsi_id": "unitedstatespostalservice-a77078", "operator": "United States Postal Service", "operator:short": "USPS", "operator:type": "public", "operator:wikidata": "Q668687", "ref": "0377300013"}, "type": "Feature"}
{"geometry": {"coordinates": [-72.1721439, 43.365148], "type": "Point"}, "id": "CZGaMfXYcXJSMiT-GmUm52EAMpM=", "properties": {"@source_uri": "https://tools.usps.com/UspsToolsRestServices/rest/POLocator/findLocations", "@spider": "usps_collection_boxes", "addr:city": "CROYDON", "addr:country": "US", "addr:postcode": "03773", "addr:state": "NH", "addr:street_address": "15 SUNAPEE ST", "amenity": "post_box", "collection_times": "Mo-Fr 13:00; Sa 09:00", "note": "ON 12/24 AND 12/31, THIS BOX MAY BE COLLECTED AS EARLY AS 12 NOON.", "nsi_id": "unitedstatespostalservice-a77078", "operator": "United States Postal Service", "operator:short": "USPS", "operator:type": "public", "operator:wikidata": "Q668687", "ref": "0377300015"}, "type": "Feature"}
{"geometry": {"coordinates": [-72.1743763, 43.365834], "type": "Point"}, "id": "BWa0Y0wVP8n37EnjBl7ozw_iapM=", "properties": {"@source_uri": "https://tools.usps.com/UspsToolsRestServices/rest/POLocator/findLocations", "@spider": "usps_collection_boxes", "addr:city": "CROYDON", "addr:country": "US", "addr:postcode": "03773", "addr:state": "NH", "addr:street_address": "81 SUNAPEE ST", "amenity": "post_box", "collection_times": "Mo-Fr 12:00; Sa 11:30", "nsi_id": "unitedstatespostalservice-a77078", "operator": "United States Postal Service", "operator:short": "USPS", "operator:type": "public", "operator:wikidata": "Q668687", "ref": "0377300016"}, "type": "Feature"}
{"geometry": {"coordinates": [-72.1598119, 43.45311], "type": "Point"}, "id": "vyzlBRrHAhjrKDiV6yCsibhbAqs=", "properties": {"@source_uri": "https://tools.usps.com/UspsToolsRestServices/rest/POLocator/findLocations", "@spider": "usps_collection_boxes", "addr:city": "CROYDON", "addr:country": "US", "addr:postcode": "03773", "addr:state": "NH", "addr:street_address": "870 NH ROUTE 10", "amenity": "post_box", "collection_times": "Mo-Sa 11:30", "nsi_id": "unitedstatespostalservice-a77078", "operator": "United States Postal Service", "operator:short": "USPS", "operator:type": "public", "operator:wikidata": "Q668687", "ref": "0377300018"}, "type": "Feature"}
{"geometry": {"coordinates": [-72.17374, 43.365711], "type": "Point"}, "id": "EHqL2TUFev2nSoqZoP2WM6h9d4s=", "properties": {"@source_uri": "https://tools.usps.com/UspsToolsRestServices/rest/POLocator/findLocations", "@spider": "usps_collection_boxes", "addr:city": "CROYDON", "addr:country": "US", "addr:postcode": "03773", "addr:state": "NH", "addr:street_address": "15 PARK ST", "amenity": "post_box", "collection_times": "Mo-Fr 17:00; Sa 16:00", "indoor": "yes", "note": "ON 12/24 AND 12/31, THIS BOX MAY BE COLLECTED AS EARLY AS 12 NOON.", "nsi_id": "unitedstatespostalservice-a77078", "operator": "United States Postal Service", "operator:short": "USPS", "operator:type": "public", "operator:wikidata": "Q668687", "ref": "0377300020"}, "type": "Feature"}
{"geometry": {"coordinates": [-72.1729591, 43.364513], "type": "Point"}, "id": "q2JZwtMBogKPTUheWd9o7HywL6g=", "properties": {"@source_uri": "https://tools.usps.com/UspsToolsRestServices/rest/POLocator/findLocations", "@spider": "usps_collection_boxes", "addr:city": "CROYDON", "addr:country": "US", "addr:postcode": "03773", "addr:state": "NH", "addr:street_address": "14 MAIN ST", "amenity": "post_box", "collection_times": "Mo-Fr 13:00; Sa 12:00", "note": "ON 12/24 AND 12/31, THIS BOX MAY BE COLLECTED AS EARLY AS 12 NOON.", "nsi_id": "unitedstatespostalservice-a77078", "operator": "United States Postal Service", "operator:short": "USPS", "operator:type": "public", "operator:wikidata": "Q668687", "ref": "0377300021"}, "type": "Feature"}
{"geometry": {"coordinates": [-72.176451069, 43.360953778], "type": "Point"}, "id": "PchY20__DvOUpCnEk8V7V_G0z3c=", "properties": {"@source_uri": "https://tools.usps.com/UspsToolsRestServices/rest/POLocator/findLocations", "@spider": "usps_collection_boxes", "addr:city": "CROYDON", "addr:country": "US", "addr:postcode": "03773", "addr:state": "NH", "addr:street_address": "34 ELM ST", "amenity": "post_box", "collection_times": "Mo-Sa 10:30", "nsi_id": "unitedstatespostalservice-a77078", "operator": "United States Postal Service", "operator:short": "USPS", "operator:type": "public", "operator:wikidata": "Q668687", "ref": "0377300022"}, "type": "Feature"}
{"geometry": {"coordinates": [-72.173464492, 43.36531464], "type": "Point"}, "id": "qexZmgyBiekppcsJjKEvaGX406M=", "properties": {"@source_uri": "https://tools.usps.com/UspsToolsRestServices/rest/POLocator/findLocations", "@spider": "usps_collection_boxes", "addr:city": "CROYDON", "addr:country": "US", "addr:postcode": "03773", "addr:state": "NH", "addr:street_address": "15 PARK ST", "amenity": "post_box", "collection_times": "Mo-Fr 17:00; Sa 12:00", "indoor": "yes", "note": "ON 12/24 AND 12/31, THIS BOX MAY BE COLLECTED AS EARLY AS 12 NOON.", "nsi_id": "unitedstatespostalservice-a77078", "operator": "United States Postal Service", "operator:short": "USPS", "operator:type": "public", "operator:wikidata": "Q668687", "ref": "0377300024"}, "type": "Feature"}
{"geometry": {"coordinates": [-72.02611, 44.088964], "type": "Point"}, "id": "hN6-PAD1CvQdDsz5Fm-ARZMdTFo=", "properties": {"@source_uri": "https://tools.usps.com/UspsToolsRestServices/rest/POLocator/findLocations", "@spider": "usps_collection_boxes", "addr:city": "NORTH HAVERHILL", "addr:country": "US", "addr:postcode": "03774", "addr:state": "NH", "addr:street_address": "2730 DARTMOUTH COLLEGE HWY", "amenity": "post_box", "collection_times": "Mo-Fr 17:00; Sa 11:30", "note": "ON 12/24 AND 12/31, THIS BOX MAY BE COLLECTED AS EARLY AS 12 NOON.", "nsi_id": "unitedstatespostalservice-a77078", "operator": "United States Postal Service", "operator:short": "USPS", "operator:type": "public", "operator:wikidata": "Q668687", "ref": "0377400001"}, "type": "Feature"}
{"geometry": {"coordinates": [-72.0253033, 44.09746], "type": "Point"}, "id": "RuAnVl8dlnFm5m5nCLChuV4spYM=", "properties": {"@source_uri": "https://tools.usps.com/UspsToolsRestServices/rest/POLocator/findLocations", "@spider": "usps_collection_boxes", "addr:city": "NORTH HAVERHILL", "addr:country": "US", "addr:postcode": "03774", "addr:state": "NH", "addr:street_address": "3039 DARTMOUTH COLLEGE HWY", "amenity": "post_box", "collection_times": "Mo-Sa 08:00", "nsi_id": "unitedstatespostalservice-a77078", "operator": "United States Postal Service", "operator:short": "USPS", "operator:type": "public", "operator:wikidata": "Q668687", "ref": "0377400003"}, "type": "Feature"}
{"geometry": {"coordinates": [-72.026148, 44.088981], "type": "Point"}, "id": "KZi3u8DYJ5XXESzxOpepzWhWN_4=", "properties": {"@source_uri": "https://tools.usps.com/UspsToolsRestServices/rest/POLocator/findLocations", "@spider": "usps_collection_boxes", "addr:city": "NORTH HAVERHILL", "addr:country": "US", "addr:postcode": "03774", "addr:state": "NH", "addr:street_address": "2730 DARTMOUTH COLLEGE HWY", "amenity": "post_box", "collection_times": "Mo-Fr 17:00; Sa 11:30", "indoor": "yes", "note": "ON 12/24 AND 12/31, THIS BOX MAY BE COLLECTED AS EARLY AS 12 NOON.", "nsi_id": "unitedstatespostalservice-a77078", "operator": "United States Postal Service", "operator:short": "USPS", "operator:type": "public", "operator:wikidata": "Q668687", "ref": "0377400004"}, "type": "Feature"}
{"geometry": {"coordinates": [-72.0403278, 44.116094], "type": "Point"}, "id": "XVxIF1jNWMslL3ySElEjbEsukak=", "properties": {"@source_uri": "https://tools.usps.com/UspsToolsRestServices/rest/POLocator/findLocations", "@spider": "usps_collection_boxes", "addr:city": "NORTH HAVERHILL", "addr:country": "US", "addr:postcode": "03774", "addr:state": "NH", "addr:street_address": "3855 DARTMOUTH COLLEGE HWY", "amenity": "post_box", "collection_times": "Mo-Fr 08:15", "nsi_id": "unitedstatespostalservice-a77078", "operator": "United States Postal Service", "operator:short": "USPS", "operator:type": "public", "operator:wikidata": "Q668687", "ref": "0377400005"}, "type": "Feature"}
{"geometry": {"coordinates": [-72.0421045, 44.113011], "type": "Point"}, "id": "g7tcTk7RLCQCxL6TF5YLfr0znXo=", "properties": {"@source_uri": "https://tools.usps.com/UspsToolsRestServices/rest/POLocator/findLocations", "@spider": "usps_collection_boxes", "addr:city": "NORTH HAVERHILL", "addr:country": "US", "addr:postcode": "03774", "addr:state": "NH", "addr:street_address": "3785 DARTMOUTH COLLEGE HWY", "amenity": "post_box", "collection_times": "Mo-Fr 08:15", "nsi_id": "unitedstatespostalservice-a77078", "operator": "United States Postal Service", "operator:short": "USPS", "operator:type": "public", "operator:wikidata": "Q668687", "ref": "0377400006"}, "type": "Feature"}
{"geometry": {"coordinates": [-72.026115241, 44.089119], "type": "Point"}, "id": "ZkXwjeUHA39AZrSxd01ul6d7jhI=", "properties": {"@source_uri": "https://tools.usps.com/UspsToolsRestServices/rest/POLocator/findLocations", "@spider": "usps_collection_boxes", "addr:city": "NORTH HAVERHILL", "addr:country": "US", "addr:postcode": "03774", "addr:state": "NH", "addr:street_address": "2730 DARTMOUTH COLLEGE HWY", "amenity": "post_box", "collection_times": "Mo-Fr 17:00; Sa 12:00", "indoor": "yes", "note": "ON 12/24 AND 12/31, THIS BOX MAY BE COLLECTED AS EARLY AS 12 NOON.", "nsi_id": "unitedstatespostalservice-a77078", "operator": "United States Postal Service", "operator:short": "USPS", "operator:type": "public", "operator:wikidata": "Q668687", "ref": "0377400007"}, "type": "Feature"}
{"geometry": {"coordinates": [-72.135661, 43.906487], "type": "Point"}, "id": "_5JGcv1rrgs6MJBt_cgm54AxIsk=", "properties": {"@source_uri": "https://tools.usps.com/UspsToolsRestServices/rest/POLocator/findLocations", "@spider": "usps_collection_boxes", "addr:city": "ORFORD", "addr:country": "US", "addr:postcode": "03777", "addr:state": "NH", "addr:street_address": "621 NH ROUTE 10", "amenity": "post_box", "collection_times": "Mo-Fr 16:30; Sa 11:30", "note": "ON 12/24 AND 12/31, THIS BOX MAY BE COLLECTED AS EARLY AS 12 NOON.", "nsi_id": "unitedstatespostalservice-a77078", "operator": "United States Postal Service", "operator:short": "USPS", "operator:type": "public", "operator:wikidata": "Q668687", "ref": "0377700001"}, "type": "Feature"}
{"geometry": {"coordinates": [-72.13567, 43.906439], "type": "Point"}, "id": "njkBNRvoLuVybqC_fDMjnXGOWxs=", "properties": {"@source_uri": "https://tools.usps.com/UspsToolsRestServices/rest/POLocator/findLocations", "@spider": "usps_collection_boxes", "addr:city": "ORFORD", "addr:country": "US", "addr:postcode": "03777", "addr:state": "NH", "addr:street_address": "621 NH ROUTE 10", "amenity": "post_box", "collection_times": "Mo-Fr 16:30; Sa 11:45", "indoor": "yes", "note": "ON 12/24 AND 12/31, THIS BOX MAY BE COLLECTED AS EARLY AS 12 NOON.", "nsi_id": "unitedstatespostalservice-a77078", "operator": "United States Postal Service", "operator:short": "USPS", "operator:type": "public", "operator:wikidata": "Q668687", "ref": "0377700002"}, "type": "Feature"}
{"geometry": {"coordinates": [-72.13567, 43.906439], "type": "Point"}, "id": "yhfv7_4sFUTB01wPTNZ4ad4us9Y=", "properties": {"@source_uri": "https://tools.usps.com/UspsToolsRestServices/rest/POLocator/findLocations", "@spider": "usps_collection_boxes", "addr:city": "ORFORD", "addr:country": "US", "addr:postcode": "03777", "addr:state": "NH", "addr:street_address": "621 NH ROUTE 10", "amenity": "post_box", "collection_times": "Mo-Fr 16:30; Sa 11:45", "indoor": "yes", "note": "ON 12/24 AND 12/31, THIS BOX MAY BE COLLECTED AS EARLY AS 12 NOON.", "nsi_id": "unitedstatespostalservice-a77078", "operator": "United States Postal Service", "operator:short": "USPS", "operator:type": "public", "operator:wikidata": "Q668687", "ref": "0377700003"}, "type": "Feature"}
{"geometry": {"coordinates": [-72.135689595, 43.906503066], "type": "Point"}, "id": "S4MPejEcUAkVES3xBY8E7x70ZBo=", "properties": {"@source_uri": "https://tools.usps.com/UspsToolsRestServices/rest/POLocator/findLocations", "@spider": "usps_collection_boxes", "addr:city": "ORFORD", "addr:country": "US", "addr:postcode": "03777", "addr:state": "NH", "addr:street_address": "621 NH ROUTE 10", "amenity": "post_box", "collection_times": "Mo-Fr 16:30; Sa 11:45", "indoor": "yes", "note": "ON 12/24 AND 12/31, THIS BOX MAY BE COLLECTED AS EARLY AS 12 NOON.", "nsi_id": "unitedstatespostalservice-a77078", "operator": "United States Postal Service", "operator:short": "USPS", "operator:type": "public", "operator:wikidata": "Q668687", "ref": "0377700004"}, "type": "Feature"}
{"geometry": {"coordinates": [-72.081483, 43.97138], "type": "Point"}, "id": "VTAiDvKUBYGcNc6HCHlHSm_5f9g=", "properties": {"@source_uri": "https://tools.usps.com/UspsToolsRestServices/rest/POLocator/findLocations", "@spider": "usps_collection_boxes", "addr:city": "PIERMONT", "addr:country": "US", "addr:postcode": "03779", "addr:state": "NH", "addr:street_address": "15 CHURCH ST UNIT 2", "amenity": "post_box", "collection_times": "Mo-Fr 16:00; Sa 11:30", "note": "ON 12/24 AND 12/31, THIS BOX MAY BE COLLECTED AS EARLY AS 12 NOON.", "nsi_id": "unitedstatespostalservice-a77078", "operator": "United States Postal Service", "operator:short": "USPS", "operator:type": "public", "operator:wikidata": "Q668687", "ref": "0377900001"}, "type": "Feature"}
{"geometry": {"coordinates": [-72.081467, 43.971473], "type": "Point"}, "id": "2mBTJBPUuKjDiK4fS-XE2X4MuYM=", "properties": {"@source_uri": "https://tools.usps.com/UspsToolsRestServices/rest/POLocator/findLocations", "@spider": "usps_collection_boxes", "addr:city": "PIERMONT", "addr:country": "US", "addr:postcode": "03779", "addr:state": "NH", "addr:street_address": "15 CHURCH ST UNIT 2", "amenity": "post_box", "collection_times": "Mo-Fr 16:45; Sa 11:45", "indoor": "yes", "note": "ON 12/24 AND 12/31, THIS BOX MAY BE COLLECTED AS EARLY AS 12 NOON.", "nsi_id": "unitedstatespostalservice-a77078", "operator": "United States Postal Service", "operator:short": "USPS", "operator:type": "public", "operator:wikidata": "Q668687", "ref": "0377900002"}, "type": "Feature"}
{"geometry": {"coordinates": [-72.081317246, 43.970990375], "type": "Point"}, "id": "ZG67PEUwPUV_KMVY7-CzY9ydSJE=", "properties": {"@source_uri": "https://tools.usps.com/UspsToolsRestServices/rest/POLocator/findLocations", "@spider": "usps_collection_boxes", "addr:city": "PIERMONT", "addr:country": "US", "addr:postcode": "03779", "addr:state": "NH", "addr:street_address": "15 CHURCH ST UNIT 2", "amenity": "post_box", "collection_times": "Mo-Fr 17:00; Sa 12:00", "indoor": "yes", "note": "ON 12/24 AND 12/31, THIS BOX MAY BE COLLECTED AS EARLY AS 12 NOON.", "nsi_id": "unitedstatespostalservice-a77078", "operator": "United States Postal Service", "operator:short": "USPS", "operator:type": "public", "operator:wikidata": "Q668687", "ref": "0377900003"}, "type": "Feature"}
{"geometry": {"coordinates": [-72.007017, 44.031303], "type": "Point"}, "id": "Yve4333QY2E6w0ZC1odK-CVfJd0=", "properties": {"@source_uri": "https://tools.usps.com/UspsToolsRestServices/rest/POLocator/findLocations", "@spider": "usps_collection_boxes", "addr:city": "PIKE", "addr:country": "US", "addr:postcode": "03780", "addr:state": "NH", "addr:street_address": "1572 MOUNT MOOSILAUKE HWY", "amenity": "post_box", "collection_times": "Mo-Sa 11:30", "nsi_id": "unitedstatespostalservice-a77078", "operator": "United States Postal Service", "operator:short": "USPS", "operator:type": "public", "operator:wikidata": "Q668687", "ref": "0378000001"}, "type": "Feature"}
{"geometry": {"coordinates": [-72.006955, 44.031338], "type": "Point"}, "id": "wZXcADdf8m3WbTTu_38zbq6xjwA=", "properties": {"@source_uri": "https://tools.usps.com/UspsToolsRestServices/rest/POLocator/findLocations", "@spider": "usps_collection_boxes", "addr:city": "PIKE", "addr:country": "US", "addr:postcode": "03780", "addr:state": "NH", "addr:street_address": "1572 MOUNT MOOSILAUKE HWY", "amenity": "post_box", "collection_times": "Mo-Sa 11:30", "indoor": "yes", "nsi_id": "unitedstatespostalservice-a77078", "operator": "United States Postal Service", "operator:short": "USPS", "operator:type": "public", "operator:wikidata": "Q668687", "ref": "0378000002"}, "type": "Feature"}
{"geometry": {"coordinates": [-72.00800163, 44.031026359], "type": "Point"}, "id": "PEGmESibs6FqIFt1lEsosF-9Ox4=", "properties": {"@source_uri": "https://tools.usps.com/UspsToolsRestServices/rest/POLocator/findLocations", "@spider": "usps_collection_boxes", "addr:city": "PIKE", "addr:country": "US", "addr:postcode": "03780", "addr:state": "NH", "addr:street_address": "1572 MOUNT MOOSILAUKE HWY", "amenity": "post_box", "collection_times": "Mo-Sa 11:30", "indoor": "yes", "nsi_id": "unitedstatespostalservice-a77078", "operator": "United States Postal Service", "operator:short": "USPS", "operator:type": "public", "operator:wikidata": "Q668687", "ref": "0378000003"}, "type": "Feature"}
{"geometry": {"coordinates": [-72.357619, 43.532317], "type": "Point"}, "id": "5L4Jf7cQClTCIkMBzQj6wCuXJyo=", "properties": {"@source_uri": "https://tools.usps.com/UspsToolsRestServices/rest/POLocator/findLocations", "@spider": "usps_collection_boxes", "addr:city": "PLAINFIELD", "addr:country": "US", "addr:postcode": "03781", "addr:state": "NH", "addr:street_address": "1132 ROUTE 12A", "amenity": "post_box", "collection_times": "Mo-Fr 16:45; Sa 11:15", "note": "ON 12/24 AND 12/31, THIS BOX MAY BE COLLECTED AS EARLY AS 12 NOON.", "nsi_id": "unitedstatespostalservice-a77078", "operator": "United States Postal Service", "operator:short": "USPS", "operator:type": "public", "operator:wikidata": "Q668687", "ref": "0378100001"}, "type": "Feature"}
{"geometry": {"coordinates": [-72.357622, 43.532249], "type": "Point"}, "id": "J83ImSOhW4GBAu43BNMHgNu-xeA=", "properties": {"@source_uri": "https://tools.usps.com/UspsToolsRestServices/rest/POLocator/findLocations", "@spider": "usps_collection_boxes", "addr:city": "PLAINFIELD", "addr:country": "US", "addr:postcode": "03781", "addr:state": "NH", "addr:street_address": "1132 ROUTE 12A", "amenity": "post_box", "collection_times": "Mo-Fr 17:00; Sa 11:15", "indoor": "yes", "note": "ON 12/24 AND 12/31, THIS BOX MAY BE COLLECTED AS EARLY AS 12 NOON.", "nsi_id": "unitedstatespostalservice-a77078", "operator": "United States Postal Service", "operator:short": "USPS", "operator:type": "public", "operator:wikidata": "Q668687", "ref": "0378100002"}, "type": "Feature"}
{"geometry": {"coordinates": [-72.357655091, 43.532313651], "type": "Point"}, "id": "LZVY2tyYvZPNwkxNHd5-w7cNSHk=", "properties": {"@source_uri": "https://tools.usps.com/UspsToolsRestServices/rest/POLocator/findLocations", "@spider": "usps_collection_boxes", "addr:city": "PLAINFIELD", "addr:country": "US", "addr:postcode": "03781", "addr:state": "NH", "addr:street_address": "1132 ROUTE 12A", "amenity": "post_box", "collection_times": "Mo-Fr 17:00", "indoor": "yes", "note": "ON 12/24 AND 12/31, THIS BOX MAY BE COLLECTED AS EARLY AS 12 NOON.", "nsi_id": "unitedstatespostalservice-a77078", "operator": "United States Postal Service", "operator:short": "USPS", "operator:type": "public", "operator:wikidata": "Q668687", "ref": "0378100003"}, "type": "Feature"}
{"geometry": {"coordinates": [-72.083687, 43.383594], "type": "Point"}, "id": "8xFBg0tpMI9ycthcCiGAsBfuD3E=", "properties": {"@source_uri": "https://tools.usps.com/UspsToolsRestServices/rest/POLocator/findLocations", "@spider": "usps_collection_boxes", "addr:city": "SUNAPEE", "addr:country": "US", "addr:postcode": "03782", "addr:state": "NH", "addr:street_address": "5 ELM ST", "amenity": "post_box", "collection_times": "Mo-Fr 16:30; Sa 12:00", "note": "ON 12/24 AND 12/31, THIS BOX MAY BE COLLECTED AS EARLY AS 12 NOON.", "nsi_id": "unitedstatespostalservice-a77078", "operator": "United States Postal Service", "operator:short": "USPS", "operator:type": "public", "operator:wikidata": "Q668687", "ref": "0378200001"}, "type": "Feature"}
{"geometry": {"coordinates": [-72.083806, 43.383599], "type": "Point"}, "id": "DCNGJf1i1u-8xkdirglmoR1s-S0=", "properties": {"@source_uri": "https://tools.usps.com/UspsToolsRestServices/rest/POLocator/findLocations", "@spider": "usps_collection_boxes", "addr:city": "SUNAPEE", "addr:country": "US", "addr:postcode": "03782", "addr:state": "NH", "addr:street_address": "5 ELM ST", "amenity": "post_box", "collection_times": "Mo-Fr 16:30; Sa 12:00", "indoor": "yes", "note": "ON 12/24 AND 12/31, THIS BOX MAY BE COLLECTED AS EARLY AS 12 NOON.", "nsi_id": "unitedstatespostalservice-a77078", "operator": "United States Postal Service", "operator:short": "USPS", "operator:type": "public", "operator:wikidata": "Q668687", "ref": "0378200003"}, "type": "Feature"}
{"geometry": {"coordinates": [-72.083494934, 43.383534976], "type": "Point"}, "id": "d9VsaprA68IHwi1Rf9xla40jwB4=", "properties": {"@source_uri": "https://tools.usps.com/UspsToolsRestServices/rest/POLocator/findLocations", "@spider": "usps_collection_boxes", "addr:city": "SUNAPEE", "addr:country": "US", "addr:postcode": "03782", "addr:state": "NH", "addr:street_address": "5 ELM ST", "amenity": "post_box", "collection_times": "Mo-Fr 16:30; Sa 12:00", "indoor": "yes", "note": "ON 12/24 AND 12/31, THIS BOX MAY BE COLLECTED AS EARLY AS 12 NOON.", "nsi_id": "unitedstatespostalservice-a77078", "operator": "United States Postal Service", "operator:short": "USPS", "operator:type": "public", "operator:wikidata": "Q668687", "ref": "0378200004"}, "type": "Feature"}
{"geometry": {"coordinates": [-72.314097984, 43.632792739], "type": "Point"}, "id": "CcVgkxwHvQYDCZSVNywSIAvXhns=", "properties": {"@source_uri": "https://tools.usps.com/UspsToolsRestServices/rest/POLocator/findLocations", "@spider": "usps_collection_boxes", "addr:city": "WEST LEBANON", "addr:country": "US", "addr:postcode": "03784", "addr:state": "NH", "addr:street_address": "66 BENNING ST STE 10", "amenity": "post_box", "collection_times": "Mo-Fr 16:30; Sa 12:00", "indoor": "yes", "note": "ON 12/24 AND 12/31, THIS BOX MAY BE COLLECTED AS EARLY AS 12 NOON.", "nsi_id": "unitedstatespostalservice-a77078", "operator": "United States Postal Service", "operator:short": "USPS", "operator:type": "public", "operator:wikidata": "Q668687", "ref": "0378400019"}, "type": "Feature"}
{"geometry": {"coordinates": [-72.029629, 44.144322], "type": "Point"}, "id": "tpcE_oM7YqdX6p-fNzFOdXKLNJM=", "properties": {"@source_uri": "https://tools.usps.com/UspsToolsRestServices/rest/POLocator/findLocations", "@spider": "usps_collection_boxes", "addr:city": "WOODSVILLE", "addr:country": "US", "addr:postcode": "03785", "addr:state": "NH", "addr:street_address": "15 FOREST ST", "amenity": "post_box", "collection_times": "Mo-Sa 10:30", "nsi_id": "unitedstatespostalservice-a77078", "operator": "United States Postal Service", "operator:short": "USPS", "operator:type": "public", "operator:wikidata": "Q668687", "ref": "0378500003"}, "type": "Feature"}
{"geometry": {"coordinates": [-72.037347, 44.151887], "type": "Point"}, "id": "WeP4fmXnJCgYiw2rendCa61yprM=", "properties": {"@source_uri": "https://tools.usps.com/UspsToolsRestServices/rest/POLocator/findLocations", "@spider": "usps_collection_boxes", "addr:city": "WOODSVILLE", "addr:country": "US", "addr:postcode": "03785", "addr:state": "NH", "addr:street_address": "31 S COURT ST", "amenity": "post_box", "collection_times": "Mo-Fr 16:30; Sa 12:00", "note": "ON 12/24 AND 12/31, THIS BOX MAY BE COLLECTED AS EARLY AS 12 NOON.", "nsi_id": "unitedstatespostalservice-a77078", "operator": "United States Postal Service", "operator:short": "USPS", "operator:type": "public", "operator:wikidata": "Q668687", "ref": "0378500004"}, "type": "Feature"}
{"geometry": {"coordinates": [-72.037347, 44.151887], "type": "Point"}, "id": "KfAYR6G2PpInFQVboZTVGsc6_O8=", "properties": {"@source_uri": "https://tools.usps.com/UspsToolsRestServices/rest/POLocator/findLocations", "@spider": "usps_collection_boxes", "addr:city": "WOODSVILLE", "addr:country": "US", "addr:postcode": "03785", "addr:state": "NH", "addr:street_address": "31 S COURT ST", "amenity": "post_box", "collection_times": "Mo-Fr 17:00; Sa 12:00", "indoor": "yes", "note": "ON 12/24 AND 12/31, THIS BOX MAY BE COLLECTED AS EARLY AS 12 NOON.", "nsi_id": "unitedstatespostalservice-a77078", "operator": "United States Postal Service", "operator:short": "USPS", "operator:type": "public", "operator:wikidata": "Q668687", "ref": "0378500005"}, "type": "Feature"}
{"geometry": {"coordinates": [-72.0266361, 44.141158], "type": "Point"}, "id": "uecDKf4CR2FEqgz02qjIzcxOn1s=", "properties": {"@source_uri": "https://tools.usps.com/UspsToolsRestServices/rest/POLocator/findLocations", "@spider": "usps_collection_boxes", "addr:city": "WOODSVILLE", "addr:country": "US", "addr:postcode": "03785", "addr:state": "NH", "addr:street_address": "4901 DARTMOUTH COLLEGE HWY", "amenity": "post_box", "collection_times": "Mo-Sa 09:00", "nsi_id": "unitedstatespostalservice-a77078", "operator": "United States Postal Service", "operator:short": "USPS", "operator:type": "public", "operator:wikidata": "Q668687", "ref": "0378500006"}, "type": "Feature"}
{"geometry": {"coordinates": [-72.037348761, 44.151887755], "type": "Point"}, "id": "tjfYCdVml339Ubq8St70xrFkocw=", "properties": {"@source_uri": "https://tools.usps.com/UspsToolsRestServices/rest/POLocator/findLocations", "@spider": "usps_collection_boxes", "addr:city": "WOODSVILLE", "addr:country": "US", "addr:postcode": "03785", "addr:state": "NH", "addr:street_address": "31 S COURT ST STE 5", "amenity": "post_box", "collection_times": "Mo-Fr 17:00; Sa 12:00", "indoor": "yes", "note": "ON 12/24 AND 12/31, THIS BOX MAY BE COLLECTED AS EARLY AS 12 NOON.", "nsi_id": "unitedstatespostalservice-a77078", "operator": "United States Postal Service", "operator:short": "USPS", "operator:type": "public", "operator:wikidata": "Q668687", "ref": "0378500007"}, "type": "Feature"}
