{"geometry": {"coordinates": [-70.8648311, 43.266917], "type": "Point"}, "id": "ypTEpyuqSfISqeyyHQ8mT-mosuk=", "properties": {"@source_uri": "https://tools.usps.com/UspsToolsRestServices/rest/POLocator/findLocations", "@spider": "usps_collection_boxes", "addr:city": "BERWICK", "addr:country": "US", "addr:full": "1 SULLIVAN ST", "addr:postcode": "03901", "addr:state": "ME", "amenity": "post_box", "brand": "United States Postal Service", "brand:wikidata": "Q668687", "collection_times": "Mo-Fr 10:00", "nsi_id": "unitedstatespostalservice-a77078", "operator": "United States Postal Service", "operator:short": "USPS", "operator:type": "public", "operator:wikidata": "Q668687", "ref": "0390100001"}, "type": "Feature"}
{"geometry": {"coordinates": [-70.850258, 43.263636], "type": "Point"}, "id": "s8ChZGnkwd-ueLo4AjhpxkcgHdU=", "properties": {"@source_uri": "https://tools.usps.com/UspsToolsRestServices/rest/POLocator/findLocations", "@spider": "usps_collection_boxes", "addr:city": "BERWICK", "addr:country": "US", "addr:full": "43 ROUTE 236", "addr:postcode": "03901", "addr:state": "ME", "amenity": "post_box", "brand": "United States Postal Service", "brand:wikidata": "Q668687", "collection_times": "Mo-Fr 16:15; Sa 13:00", "note": "ON 12/24 AND 12/31, THIS BOX MAY BE COLLECTED AS EARLY AS 12 NOON.", "nsi_id": "unitedstatespostalservice-a77078", "operator": "United States Postal Service", "operator:short": "USPS", "operator:type": "public", "operator:wikidata": "Q668687", "ref": "0390100002"}, "type": "Feature"}
{"geometry": {"coordinates": [-70.850254, 43.263604], "type": "Point"}, "id": "0gSoqDA7wZJAsjNUL7dTjg6JdzQ=", "properties": {"@source_uri": "https://tools.usps.com/UspsToolsRestServices/rest/POLocator/findLocations", "@spider": "usps_collection_boxes", "addr:city": "BERWICK", "addr:country": "US", "addr:full": "43 ROUTE 236", "addr:postcode": "03901", "addr:state": "ME", "amenity": "post_box", "brand": "United States Postal Service", "brand:wikidata": "Q668687", "collection_times": "Mo-Fr 16:30; Sa 13:00", "indoor": "yes", "note": "ON 12/24 AND 12/31, THIS BOX MAY BE COLLECTED AS EARLY AS 12 NOON.", "nsi_id": "unitedstatespostalservice-a77078", "operator": "United States Postal Service", "operator:short": "USPS", "operator:type": "public", "operator:wikidata": "Q668687", "ref": "0390100004"}, "type": "Feature"}
{"geometry": {"coordinates": [-70.850254, 43.263604], "type": "Point"}, "id": "fa02OkFVEkg_9VzBod1qtmvr5k8=", "properties": {"@source_uri": "https://tools.usps.com/UspsToolsRestServices/rest/POLocator/findLocations", "@spider": "usps_collection_boxes", "addr:city": "BERWICK", "addr:country": "US", "addr:full": "43 ROUTE 236", "addr:postcode": "03901", "addr:state": "ME", "amenity": "post_box", "brand": "United States Postal Service", "brand:wikidata": "Q668687", "collection_times": "Mo-Fr 16:30; Sa 13:00", "indoor": "yes", "note": "ON 12/24 AND 12/31, THIS BOX MAY BE COLLECTED AS EARLY AS 12 NOON.", "nsi_id": "unitedstatespostalservice-a77078", "operator": "United States Postal Service", "operator:short": "USPS", "operator:type": "public", "operator:wikidata": "Q668687", "ref": "0390100005"}, "type": "Feature"}
{"geometry": {"coordinates": [-70.848451211, 43.262989658], "type": "Point"}, "id": "wCGsRiT0-RNxrK0c5ZXbPngC8WM=", "properties": {"@source_uri": "https://tools.usps.com/UspsToolsRestServices/rest/POLocator/findLocations", "@spider": "usps_collection_boxes", "addr:city": "BERWICK", "addr:country": "US", "addr:full": "43 ROUTE 236", "addr:postcode": "03901", "addr:state": "ME", "amenity": "post_box", "brand": "United States Postal Service", "brand:wikidata": "Q668687", "collection_times": "Mo-Fr 16:30; Sa 12:00", "indoor": "yes", "note": "ON 12/24 AND 12/31, THIS BOX MAY BE COLLECTED AS EARLY AS 12 NOON.", "nsi_id": "unitedstatespostalservice-a77078", "operator": "United States Postal Service", "operator:short": "USPS", "operator:type": "public", "operator:wikidata": "Q668687", "ref": "0390100006"}, "type": "Feature"}
{"geometry": {"coordinates": [-70.6199187104, 43.1908836807], "type": "Point"}, "id": "spfayz2X6biPs_skQES-dBFkWE4=", "properties": {"@source_uri": "https://tools.usps.com/UspsToolsRestServices/rest/POLocator/findLocations", "@spider": "usps_collection_boxes", "addr:city": "CAPE NEDDICK", "addr:country": "US", "addr:full": "1268 US ROUTE 1", "addr:postcode": "03902", "addr:state": "ME", "amenity": "post_box", "brand": "United States Postal Service", "brand:wikidata": "Q668687", "collection_times": "Mo-Fr 16:30; Sa 11:30", "note": "ON 12/24 AND 12/31, THIS BOX MAY BE COLLECTED AS EARLY AS 12 NOON.", "nsi_id": "unitedstatespostalservice-a77078", "operator": "United States Postal Service", "operator:short": "USPS", "operator:type": "public", "operator:wikidata": "Q668687", "ref": "0390200001"}, "type": "Feature"}
{"geometry": {"coordinates": [-70.61985, 43.190822], "type": "Point"}, "id": "4I0qY8X6Qzsadshxv6gEV0cX2jg=", "properties": {"@source_uri": "https://tools.usps.com/UspsToolsRestServices/rest/POLocator/findLocations", "@spider": "usps_collection_boxes", "addr:city": "CAPE NEDDICK", "addr:country": "US", "addr:full": "1268 US ROUTE 1", "addr:postcode": "03902", "addr:state": "ME", "amenity": "post_box", "brand": "United States Postal Service", "brand:wikidata": "Q668687", "collection_times": "Mo-Fr 16:30; Sa 11:30", "indoor": "yes", "note": "ON 12/24 AND 12/31, THIS BOX MAY BE COLLECTED AS EARLY AS 12 NOON.", "nsi_id": "unitedstatespostalservice-a77078", "operator": "United States Postal Service", "operator:short": "USPS", "operator:type": "public", "operator:wikidata": "Q668687", "ref": "0390200003"}, "type": "Feature"}
{"geometry": {"coordinates": [-70.619898115, 43.190885842], "type": "Point"}, "id": "_KX7IX7HnQvwC6C4eliQKU24Syk=", "properties": {"@source_uri": "https://tools.usps.com/UspsToolsRestServices/rest/POLocator/findLocations", "@spider": "usps_collection_boxes", "addr:city": "CAPE NEDDICK", "addr:country": "US", "addr:full": "1268 US ROUTE 1", "addr:postcode": "03902", "addr:state": "ME", "amenity": "post_box", "brand": "United States Postal Service", "brand:wikidata": "Q668687", "collection_times": "Mo-Fr 16:30; Sa 11:30", "indoor": "yes", "note": "ON 12/24 AND 12/31, THIS BOX MAY BE COLLECTED AS EARLY AS 12 NOON.", "nsi_id": "unitedstatespostalservice-a77078", "operator": "United States Postal Service", "operator:short": "USPS", "operator:type": "public", "operator:wikidata": "Q668687", "ref": "0390200004"}, "type": "Feature"}
{"geometry": {"coordinates": [-70.7885894, 43.123126], "type": "Point"}, "id": "f_Lz4rj9xiEfRg__JEw8joRh7mM=", "properties": {"@source_uri": "https://tools.usps.com/UspsToolsRestServices/rest/POLocator/findLocations", "@spider": "usps_collection_boxes", "addr:city": "ELIOT", "addr:country": "US", "addr:full": "1293 STATE RD", "addr:postcode": "03903", "addr:state": "ME", "amenity": "post_box", "brand": "United States Postal Service", "brand:wikidata": "Q668687", "collection_times": "Mo-Sa 11:30", "nsi_id": "unitedstatespostalservice-a77078", "operator": "United States Postal Service", "operator:short": "USPS", "operator:type": "public", "operator:wikidata": "Q668687", "ref": "0390300002"}, "type": "Feature"}
{"geometry": {"coordinates": [-70.77364, 43.098497], "type": "Point"}, "id": "oYbANBh62KMxM3qnIwb_DV5K91M=", "properties": {"@source_uri": "https://tools.usps.com/UspsToolsRestServices/rest/POLocator/findLocations", "@spider": "usps_collection_boxes", "addr:city": "ELIOT", "addr:country": "US", "addr:full": "138 PLEASANT ST", "addr:postcode": "03903", "addr:state": "ME", "amenity": "post_box", "brand": "United States Postal Service", "brand:wikidata": "Q668687", "collection_times": "Mo-Sa 11:30", "nsi_id": "unitedstatespostalservice-a77078", "operator": "United States Postal Service", "operator:short": "USPS", "operator:type": "public", "operator:wikidata": "Q668687", "ref": "0390300004"}, "type": "Feature"}
{"geometry": {"coordinates": [-70.773043, 43.128236], "type": "Point"}, "id": "wktyR0d9Bk87fomfsFEf6are6Xk=", "properties": {"@source_uri": "https://tools.usps.com/UspsToolsRestServices/rest/POLocator/findLocations", "@spider": "usps_collection_boxes", "addr:city": "ELIOT", "addr:country": "US", "addr:full": "33 LEVESQUE DR", "addr:postcode": "03903", "addr:state": "ME", "amenity": "post_box", "brand": "United States Postal Service", "brand:wikidata": "Q668687", "collection_times": "Mo-Fr 17:00; Sa 15:00", "note": "ON 12/24 AND 12/31, THIS BOX MAY BE COLLECTED AS EARLY AS 12 NOON.", "nsi_id": "unitedstatespostalservice-a77078", "operator": "United States Postal Service", "operator:short": "USPS", "operator:type": "public", "operator:wikidata": "Q668687", "ref": "0390300008"}, "type": "Feature"}
{"geometry": {"coordinates": [-70.773043, 43.128236], "type": "Point"}, "id": "fIDxzPACtMDzULxEO_PsXhhZYYs=", "properties": {"@source_uri": "https://tools.usps.com/UspsToolsRestServices/rest/POLocator/findLocations", "@spider": "usps_collection_boxes", "addr:city": "ELIOT", "addr:country": "US", "addr:full": "33 LEVESQUE DR", "addr:postcode": "03903", "addr:state": "ME", "amenity": "post_box", "brand": "United States Postal Service", "brand:wikidata": "Q668687", "collection_times": "Mo-Fr 17:00; Sa 15:00", "indoor": "yes", "note": "ON 12/24 AND 12/31, THIS BOX MAY BE COLLECTED AS EARLY AS 12 NOON.", "nsi_id": "unitedstatespostalservice-a77078", "operator": "United States Postal Service", "operator:short": "USPS", "operator:type": "public", "operator:wikidata": "Q668687", "ref": "0390300013"}, "type": "Feature"}
{"geometry": {"coordinates": [-70.773042491, 43.128231497], "type": "Point"}, "id": "pAZ2Dz6ZmiA2Jp1L9mE1cSwVlzs=", "properties": {"@source_uri": "https://tools.usps.com/UspsToolsRestServices/rest/POLocator/findLocations", "@spider": "usps_collection_boxes", "addr:city": "ELIOT", "addr:country": "US", "addr:full": "33 LEVESQUE DR STE C", "addr:postcode": "03903", "addr:state": "ME", "amenity": "post_box", "brand": "United States Postal Service", "brand:wikidata": "Q668687", "collection_times": "Mo-Fr 16:30; Sa 12:00", "indoor": "yes", "note": "ON 12/24 AND 12/31, THIS BOX MAY BE COLLECTED AS EARLY AS 12 NOON.", "nsi_id": "unitedstatespostalservice-a77078", "operator": "United States Postal Service", "operator:short": "USPS", "operator:type": "public", "operator:wikidata": "Q668687", "ref": "0390300014"}, "type": "Feature"}
{"geometry": {"coordinates": [-70.7433112, 43.085826], "type": "Point"}, "id": "ikxrgoHcfB5NGUmSuoB3qNEM3Tc=", "properties": {"@source_uri": "https://tools.usps.com/UspsToolsRestServices/rest/POLocator/findLocations", "@spider": "usps_collection_boxes", "addr:city": "KITTERY", "addr:country": "US", "addr:full": "68 WALLINGFORD SQ", "addr:postcode": "03904", "addr:state": "ME", "amenity": "post_box", "brand": "United States Postal Service", "brand:wikidata": "Q668687", "collection_times": "Mo-Sa 13:30", "note": "ON 12/24 AND 12/31, THIS BOX MAY BE COLLECTED AS EARLY AS 12 NOON.", "nsi_id": "unitedstatespostalservice-a77078", "operator": "United States Postal Service", "operator:short": "USPS", "operator:type": "public", "operator:wikidata": "Q668687", "ref": "0390400002"}, "type": "Feature"}
{"geometry": {"coordinates": [-70.735821, 43.09024], "type": "Point"}, "id": "ZapzZuvizgZlzuK6LPes47naMpE=", "properties": {"@source_uri": "https://tools.usps.com/UspsToolsRestServices/rest/POLocator/findLocations", "@spider": "usps_collection_boxes", "addr:city": "KITTERY", "addr:country": "US", "addr:full": "10 SHAPLEIGH RD", "addr:postcode": "03904", "addr:state": "ME", "amenity": "post_box", "brand": "United States Postal Service", "brand:wikidata": "Q668687", "collection_times": "Mo-Sa 15:30", "note": "ON 12/24 AND 12/31, THIS BOX MAY BE COLLECTED AS EARLY AS 12 NOON.", "nsi_id": "unitedstatespostalservice-a77078", "operator": "United States Postal Service", "operator:short": "USPS", "operator:type": "public", "operator:wikidata": "Q668687", "ref": "0390400004"}, "type": "Feature"}
{"geometry": {"coordinates": [-70.735821, 43.09024], "type": "Point"}, "id": "I3o9afnwbZUyowKkYPrXhMuwG9I=", "properties": {"@source_uri": "https://tools.usps.com/UspsToolsRestServices/rest/POLocator/findLocations", "@spider": "usps_collection_boxes", "addr:city": "KITTERY", "addr:country": "US", "addr:full": "10 SHAPLEIGH RD", "addr:postcode": "03904", "addr:state": "ME", "amenity": "post_box", "brand": "United States Postal Service", "brand:wikidata": "Q668687", "collection_times": "Mo-Fr 17:15; Sa 15:30", "note": "ON 12/24 AND 12/31, THIS BOX MAY BE COLLECTED AS EARLY AS 12 NOON.", "nsi_id": "unitedstatespostalservice-a77078", "operator": "United States Postal Service", "operator:short": "USPS", "operator:type": "public", "operator:wikidata": "Q668687", "ref": "0390400006"}, "type": "Feature"}
{"geometry": {"coordinates": [-70.7305046, 43.116304], "type": "Point"}, "id": "danm4EOUb5QWU6tmWXmSEbV6USM=", "properties": {"@source_uri": "https://tools.usps.com/UspsToolsRestServices/rest/POLocator/findLocations", "@spider": "usps_collection_boxes", "addr:city": "KITTERY", "addr:country": "US", "addr:full": "345 US ROUTE 1", "addr:postcode": "03904", "addr:state": "ME", "amenity": "post_box", "brand": "United States Postal Service", "brand:wikidata": "Q668687", "collection_times": "Mo-Sa 10:00", "nsi_id": "unitedstatespostalservice-a77078", "operator": "United States Postal Service", "operator:short": "USPS", "operator:type": "public", "operator:wikidata": "Q668687", "ref": "0390400017"}, "type": "Feature"}
{"geometry": {"coordinates": [-70.7359885, 43.110826], "type": "Point"}, "id": "2wwampg-w2kk3p3FJ2DGoZ61bkg=", "properties": {"@source_uri": "https://tools.usps.com/UspsToolsRestServices/rest/POLocator/findLocations", "@spider": "usps_collection_boxes", "addr:city": "KITTERY", "addr:country": "US", "addr:full": "283 US ROUTE 1", "addr:postcode": "03904", "addr:state": "ME", "amenity": "post_box", "brand": "United States Postal Service", "brand:wikidata": "Q668687", "collection_times": "Mo-Sa 10:00", "nsi_id": "unitedstatespostalservice-a77078", "operator": "United States Postal Service", "operator:short": "USPS", "operator:type": "public", "operator:wikidata": "Q668687", "ref": "0390400018"}, "type": "Feature"}
{"geometry": {"coordinates": [-70.735821, 43.09024], "type": "Point"}, "id": "BG0tn5KHY3Wibmm3C0gqdlaKNqQ=", "properties": {"@source_uri": "https://tools.usps.com/UspsToolsRestServices/rest/POLocator/findLocations", "@spider": "usps_collection_boxes", "addr:city": "KITTERY", "addr:country": "US", "addr:full": "10 SHAPLEIGH RD", "addr:postcode": "03904", "addr:state": "ME", "amenity": "post_box", "brand": "United States Postal Service", "brand:wikidata": "Q668687", "collection_times": "Mo-Fr 17:00; Sa 15:30", "indoor": "yes", "note": "ON 12/24 AND 12/31, THIS BOX MAY BE COLLECTED AS EARLY AS 12 NOON.", "nsi_id": "unitedstatespostalservice-a77078", "operator": "United States Postal Service", "operator:short": "USPS", "operator:type": "public", "operator:wikidata": "Q668687", "ref": "0390400020"}, "type": "Feature"}
{"geometry": {"coordinates": [-70.73686696, 43.090720809], "type": "Point"}, "id": "TC6BnXutzoAlFLXCMwrOpe2BUEw=", "properties": {"@source_uri": "https://tools.usps.com/UspsToolsRestServices/rest/POLocator/findLocations", "@spider": "usps_collection_boxes", "addr:city": "KITTERY", "addr:country": "US", "addr:full": "10 SHAPLEIGH RD STE 9998", "addr:postcode": "03904", "addr:state": "ME", "amenity": "post_box", "brand": "United States Postal Service", "brand:wikidata": "Q668687", "collection_times": "Mo-Fr 17:00; Sa 12:00", "indoor": "yes", "note": "ON 12/24 AND 12/31, THIS BOX MAY BE COLLECTED AS EARLY AS 12 NOON.", "nsi_id": "unitedstatespostalservice-a77078", "operator": "United States Postal Service", "operator:short": "USPS", "operator:type": "public", "operator:wikidata": "Q668687", "ref": "0390400021"}, "type": "Feature"}
{"geometry": {"coordinates": [-70.703108, 43.083134], "type": "Point"}, "id": "gsHh_YCm9HoO5R9JmgWwQhwwS64=", "properties": {"@source_uri": "https://tools.usps.com/UspsToolsRestServices/rest/POLocator/findLocations", "@spider": "usps_collection_boxes", "addr:city": "KITTERY POINT", "addr:country": "US", "addr:full": "91 PEPPERRELL RD", "addr:postcode": "03905", "addr:state": "ME", "amenity": "post_box", "brand": "United States Postal Service", "brand:wikidata": "Q668687", "collection_times": "Mo-Fr 16:00; Sa 11:00", "indoor": "yes", "note": "ON 12/24 AND 12/31, THIS BOX MAY BE COLLECTED AS EARLY AS 12 NOON.", "nsi_id": "unitedstatespostalservice-a77078", "operator": "United States Postal Service", "operator:short": "USPS", "operator:type": "public", "operator:wikidata": "Q668687", "ref": "0390500003"}, "type": "Feature"}
{"geometry": {"coordinates": [-70.703228, 43.083101], "type": "Point"}, "id": "IKV4iWKcwdsc3Fba4R8yPA-M8r0=", "properties": {"@source_uri": "https://tools.usps.com/UspsToolsRestServices/rest/POLocator/findLocations", "@spider": "usps_collection_boxes", "addr:city": "KITTERY POINT", "addr:country": "US", "addr:full": "91 PEPPERRELL RD", "addr:postcode": "03905", "addr:state": "ME", "amenity": "post_box", "brand": "United States Postal Service", "brand:wikidata": "Q668687", "collection_times": "Mo-Fr 16:00; Sa 11:00", "note": "ON 12/24 AND 12/31, THIS BOX MAY BE COLLECTED AS EARLY AS 12 NOON.", "nsi_id": "unitedstatespostalservice-a77078", "operator": "United States Postal Service", "operator:short": "USPS", "operator:type": "public", "operator:wikidata": "Q668687", "ref": "0390500004"}, "type": "Feature"}
{"geometry": {"coordinates": [-70.703234225, 43.083114442], "type": "Point"}, "id": "jU5RE3YTgxOE6op3TY23NB_Jx2s=", "properties": {"@source_uri": "https://tools.usps.com/UspsToolsRestServices/rest/POLocator/findLocations", "@spider": "usps_collection_boxes", "addr:city": "KITTERY POINT", "addr:country": "US", "addr:full": "91 PEPPERRELL RD", "addr:postcode": "03905", "addr:state": "ME", "amenity": "post_box", "brand": "United States Postal Service", "brand:wikidata": "Q668687", "collection_times": "Mo-Fr 16:00; Sa 11:00", "indoor": "yes", "note": "ON 12/24 AND 12/31, THIS BOX MAY BE COLLECTED AS EARLY AS 12 NOON.", "nsi_id": "unitedstatespostalservice-a77078", "operator": "United States Postal Service", "operator:short": "USPS", "operator:type": "public", "operator:wikidata": "Q668687", "ref": "0390500005"}, "type": "Feature"}
{"geometry": {"coordinates": [-70.735599, 43.30663], "type": "Point"}, "id": "cjgsCUS9QPVsqHyMRliijXVXqr0=", "properties": {"@source_uri": "https://tools.usps.com/UspsToolsRestServices/rest/POLocator/findLocations", "@spider": "usps_collection_boxes", "addr:city": "NORTH BERWICK", "addr:country": "US", "addr:full": "36 WELLS ST", "addr:postcode": "03906", "addr:state": "ME", "amenity": "post_box", "brand": "United States Postal Service", "brand:wikidata": "Q668687", "collection_times": "Mo-Fr 16:30; Sa 12:00", "note": "ON 12/24 AND 12/31, THIS BOX MAY BE COLLECTED AS EARLY AS 12 NOON.", "nsi_id": "unitedstatespostalservice-a77078", "operator": "United States Postal Service", "operator:short": "USPS", "operator:type": "public", "operator:wikidata": "Q668687", "ref": "0390600001"}, "type": "Feature"}
{"geometry": {"coordinates": [-70.735681, 43.306627], "type": "Point"}, "id": "W44H3NheAROZb2DPKlfbptsBWJs=", "properties": {"@source_uri": "https://tools.usps.com/UspsToolsRestServices/rest/POLocator/findLocations", "@spider": "usps_collection_boxes", "addr:city": "NORTH BERWICK", "addr:country": "US", "addr:full": "36 WELLS ST", "addr:postcode": "03906", "addr:state": "ME", "amenity": "post_box", "brand": "United States Postal Service", "brand:wikidata": "Q668687", "collection_times": "Mo-Fr 16:30; Sa 12:00", "indoor": "yes", "note": "ON 12/24 AND 12/31, THIS BOX MAY BE COLLECTED AS EARLY AS 12 NOON.", "nsi_id": "unitedstatespostalservice-a77078", "operator": "United States Postal Service", "operator:short": "USPS", "operator:type": "public", "operator:wikidata": "Q668687", "ref": "0390600004"}, "type": "Feature"}
{"geometry": {"coordinates": [-70.735411567, 43.306696677], "type": "Point"}, "id": "5zYN9I1G7OUcsjusMBBLVWEHjww=", "properties": {"@source_uri": "https://tools.usps.com/UspsToolsRestServices/rest/POLocator/findLocations", "@spider": "usps_collection_boxes", "addr:city": "NORTH BERWICK", "addr:country": "US", "addr:full": "36 WELLS ST", "addr:postcode": "03906", "addr:state": "ME", "amenity": "post_box", "brand": "United States Postal Service", "brand:wikidata": "Q668687", "collection_times": "Mo-Fr 16:30; Sa 12:00", "indoor": "yes", "note": "ON 12/24 AND 12/31, THIS BOX MAY BE COLLECTED AS EARLY AS 12 NOON.", "nsi_id": "unitedstatespostalservice-a77078", "operator": "United States Postal Service", "operator:short": "USPS", "operator:type": "public", "operator:wikidata": "Q668687", "ref": "0390600005"}, "type": "Feature"}
{"geometry": {"coordinates": [-70.600382, 43.247576], "type": "Point"}, "id": "ZbHOb4-ABYmZzSmnhYLIOTPnjv0=", "properties": {"@source_uri": "https://tools.usps.com/UspsToolsRestServices/rest/POLocator/findLocations", "@spider": "usps_collection_boxes", "addr:city": "OGUNQUIT", "addr:country": "US", "addr:full": "172 MAIN ST", "addr:postcode": "03907", "addr:state": "ME", "amenity": "post_box", "brand": "United States Postal Service", "brand:wikidata": "Q668687", "collection_times": "Mo-Fr 16:30; Sa 12:30", "note": "ON 12/24 AND 12/31, THIS BOX MAY BE COLLECTED AS EARLY AS 12 NOON.", "nsi_id": "unitedstatespostalservice-a77078", "operator": "United States Postal Service", "operator:short": "USPS", "operator:type": "public", "operator:wikidata": "Q668687", "ref": "0390700003"}, "type": "Feature"}
{"geometry": {"coordinates": [-70.600378, 43.24767], "type": "Point"}, "id": "HtbeRNif3XN8x2GBn5rV5G7_00U=", "properties": {"@source_uri": "https://tools.usps.com/UspsToolsRestServices/rest/POLocator/findLocations", "@spider": "usps_collection_boxes", "addr:city": "OGUNQUIT", "addr:country": "US", "addr:full": "172 MAIN ST", "addr:postcode": "03907", "addr:state": "ME", "amenity": "post_box", "brand": "United States Postal Service", "brand:wikidata": "Q668687", "collection_times": "Mo-Fr 16:55; Sa 13:00", "indoor": "yes", "note": "ON 12/24 AND 12/31, THIS BOX MAY BE COLLECTED AS EARLY AS 12 NOON.", "nsi_id": "unitedstatespostalservice-a77078", "operator": "United States Postal Service", "operator:short": "USPS", "operator:type": "public", "operator:wikidata": "Q668687", "ref": "0390700005"}, "type": "Feature"}
{"geometry": {"coordinates": [-70.600459524, 43.247398412], "type": "Point"}, "id": "bKc4fhGDPdftA867jZ9hWFpk-Q8=", "properties": {"@source_uri": "https://tools.usps.com/UspsToolsRestServices/rest/POLocator/findLocations", "@spider": "usps_collection_boxes", "addr:city": "OGUNQUIT", "addr:country": "US", "addr:full": "172 MAIN ST", "addr:postcode": "03907", "addr:state": "ME", "amenity": "post_box", "brand": "United States Postal Service", "brand:wikidata": "Q668687", "collection_times": "Mo-Fr 16:45; Sa 12:00", "indoor": "yes", "note": "ON 12/24 AND 12/31, THIS BOX MAY BE COLLECTED AS EARLY AS 12 NOON.", "nsi_id": "unitedstatespostalservice-a77078", "operator": "United States Postal Service", "operator:short": "USPS", "operator:type": "public", "operator:wikidata": "Q668687", "ref": "0390700006"}, "type": "Feature"}
{"geometry": {"coordinates": [-70.809789, 43.235461], "type": "Point"}, "id": "uDlrsBNWFP9H0epjai2CF2ttUcI=", "properties": {"@source_uri": "https://tools.usps.com/UspsToolsRestServices/rest/POLocator/findLocations", "@spider": "usps_collection_boxes", "addr:city": "SOUTH BERWICK", "addr:country": "US", "addr:full": "300 MAIN ST", "addr:postcode": "03908", "addr:state": "ME", "amenity": "post_box", "brand": "United States Postal Service", "brand:wikidata": "Q668687", "collection_times": "Mo-Fr 17:00; Sa 15:00", "note": "ON 12/24 AND 12/31, THIS BOX MAY BE COLLECTED AS EARLY AS 12 NOON.", "nsi_id": "unitedstatespostalservice-a77078", "operator": "United States Postal Service", "operator:short": "USPS", "operator:type": "public", "operator:wikidata": "Q668687", "ref": "0390800002"}, "type": "Feature"}
{"geometry": {"coordinates": [-70.809789, 43.235461], "type": "Point"}, "id": "XoupYzGObZFoRdpxkrloBJPxDWM=", "properties": {"@source_uri": "https://tools.usps.com/UspsToolsRestServices/rest/POLocator/findLocations", "@spider": "usps_collection_boxes", "addr:city": "SOUTH BERWICK", "addr:country": "US", "addr:full": "300 MAIN ST", "addr:postcode": "03908", "addr:state": "ME", "amenity": "post_box", "brand": "United States Postal Service", "brand:wikidata": "Q668687", "collection_times": "Mo-Fr 17:00; Sa 15:00", "indoor": "yes", "note": "ON 12/24 AND 12/31, THIS BOX MAY BE COLLECTED AS EARLY AS 12 NOON.", "nsi_id": "unitedstatespostalservice-a77078", "operator": "United States Postal Service", "operator:short": "USPS", "operator:type": "public", "operator:wikidata": "Q668687", "ref": "0390800003"}, "type": "Feature"}
{"geometry": {"coordinates": [-70.809789, 43.235461], "type": "Point"}, "id": "SVYwVZ68e6-yCssrQ-3srchGSp8=", "properties": {"@source_uri": "https://tools.usps.com/UspsToolsRestServices/rest/POLocator/findLocations", "@spider": "usps_collection_boxes", "addr:city": "SOUTH BERWICK", "addr:country": "US", "addr:full": "300 MAIN ST", "addr:postcode": "03908", "addr:state": "ME", "amenity": "post_box", "brand": "United States Postal Service", "brand:wikidata": "Q668687", "collection_times": "Mo-Fr 17:00; Sa 15:00", "indoor": "yes", "note": "ON 12/24 AND 12/31, THIS BOX MAY BE COLLECTED AS EARLY AS 12 NOON.", "nsi_id": "unitedstatespostalservice-a77078", "operator": "United States Postal Service", "operator:short": "USPS", "operator:type": "public", "operator:wikidata": "Q668687", "ref": "0390800004"}, "type": "Feature"}
{"geometry": {"coordinates": [-70.809705283, 43.235395439], "type": "Point"}, "id": "ZabV7zgPNcJPEHLodHqDnl0TNaw=", "properties": {"@source_uri": "https://tools.usps.com/UspsToolsRestServices/rest/POLocator/findLocations", "@spider": "usps_collection_boxes", "addr:city": "SOUTH BERWICK", "addr:country": "US", "addr:full": "300 MAIN ST", "addr:postcode": "03908", "addr:state": "ME", "amenity": "post_box", "brand": "United States Postal Service", "brand:wikidata": "Q668687", "collection_times": "Mo-Fr 16:30; Sa 12:00", "indoor": "yes", "note": "ON 12/24 AND 12/31, THIS BOX MAY BE COLLECTED AS EARLY AS 12 NOON.", "nsi_id": "unitedstatespostalservice-a77078", "operator": "United States Postal Service", "operator:short": "USPS", "operator:type": "public", "operator:wikidata": "Q668687", "ref": "0390800005"}, "type": "Feature"}
{"geometry": {"coordinates": [-70.647414, 43.144555], "type": "Point"}, "id": "EIQn_Jeprw3VPbtl_NxeZd5NwDA=", "properties": {"@source_uri": "https://tools.usps.com/UspsToolsRestServices/rest/POLocator/findLocations", "@spider": "usps_collection_boxes", "addr:city": "YORK", "addr:country": "US", "addr:full": "10 WOODBRIDGE RD", "addr:postcode": "03909", "addr:state": "ME", "amenity": "post_box", "brand": "United States Postal Service", "brand:wikidata": "Q668687", "collection_times": "Mo-Fr 17:00; Sa 15:45", "note": "ON 12/24 AND 12/31, THIS BOX MAY BE COLLECTED AS EARLY AS 12 NOON.", "nsi_id": "unitedstatespostalservice-a77078", "operator": "United States Postal Service", "operator:short": "USPS", "operator:type": "public", "operator:wikidata": "Q668687", "ref": "0390900001"}, "type": "Feature"}
{"geometry": {"coordinates": [-70.652862, 43.157642], "type": "Point"}, "id": "izLdpWUzavMwhU8B-VvnHld_foA=", "properties": {"@source_uri": "https://tools.usps.com/UspsToolsRestServices/rest/POLocator/findLocations", "@spider": "usps_collection_boxes", "addr:city": "YORK", "addr:country": "US", "addr:full": "647 US ROUTE 1", "addr:postcode": "03909", "addr:state": "ME", "amenity": "post_box", "brand": "United States Postal Service", "brand:wikidata": "Q668687", "collection_times": "Mo-Sa 09:30", "nsi_id": "unitedstatespostalservice-a77078", "operator": "United States Postal Service", "operator:short": "USPS", "operator:type": "public", "operator:wikidata": "Q668687", "ref": "0390900004"}, "type": "Feature"}
{"geometry": {"coordinates": [-70.6625095, 43.151979], "type": "Point"}, "id": "bxijH2y1STf0RQyAXbpYV-2oOY8=", "properties": {"@source_uri": "https://tools.usps.com/UspsToolsRestServices/rest/POLocator/findLocations", "@spider": "usps_collection_boxes", "addr:city": "YORK", "addr:country": "US", "addr:full": "519 US ROUTE 1", "addr:postcode": "03909", "addr:state": "ME", "amenity": "post_box", "brand": "United States Postal Service", "brand:wikidata": "Q668687", "collection_times": "Mo-Sa 09:00", "nsi_id": "unitedstatespostalservice-a77078", "operator": "United States Postal Service", "operator:short": "USPS", "operator:type": "public", "operator:wikidata": "Q668687", "ref": "0390900005"}, "type": "Feature"}
{"geometry": {"coordinates": [-70.669292, 43.152034], "type": "Point"}, "id": "s2N6mG3ktHYDMUoqEahvNQKhBqE=", "properties": {"@source_uri": "https://tools.usps.com/UspsToolsRestServices/rest/POLocator/findLocations", "@spider": "usps_collection_boxes", "addr:city": "YORK", "addr:country": "US", "addr:full": "5 HANNAFORD DR", "addr:postcode": "03909", "addr:state": "ME", "amenity": "post_box", "brand": "United States Postal Service", "brand:wikidata": "Q668687", "collection_times": "Mo-Fr 11:00; Sa 10:30", "nsi_id": "unitedstatespostalservice-a77078", "operator": "United States Postal Service", "operator:short": "USPS", "operator:type": "public", "operator:wikidata": "Q668687", "ref": "0390900009"}, "type": "Feature"}
{"geometry": {"coordinates": [-70.6475, 43.144574], "type": "Point"}, "id": "UejVThR-vzVSHZM41eb0hbGZebk=", "properties": {"@source_uri": "https://tools.usps.com/UspsToolsRestServices/rest/POLocator/findLocations", "@spider": "usps_collection_boxes", "addr:city": "YORK", "addr:country": "US", "addr:full": "10 WOODBRIDGE RD", "addr:postcode": "03909", "addr:state": "ME", "amenity": "post_box", "brand": "United States Postal Service", "brand:wikidata": "Q668687", "collection_times": "Mo-Fr 17:00; Sa 12:00", "indoor": "yes", "note": "ON 12/24 AND 12/31, THIS BOX MAY BE COLLECTED AS EARLY AS 12 NOON.", "nsi_id": "unitedstatespostalservice-a77078", "operator": "United States Postal Service", "operator:short": "USPS", "operator:type": "public", "operator:wikidata": "Q668687", "ref": "0390900014"}, "type": "Feature"}
{"geometry": {"coordinates": [-70.6419468, 43.14793], "type": "Point"}, "id": "k8_0PJqCvzKrYot_xib5D660Ev4=", "properties": {"@source_uri": "https://tools.usps.com/UspsToolsRestServices/rest/POLocator/findLocations", "@spider": "usps_collection_boxes", "addr:city": "YORK", "addr:country": "US", "addr:full": "127 LONG SANDS RD", "addr:postcode": "03909", "addr:state": "ME", "amenity": "post_box", "brand": "United States Postal Service", "brand:wikidata": "Q668687", "collection_times": "Mo-Sa 09:30", "nsi_id": "unitedstatespostalservice-a77078", "operator": "United States Postal Service", "operator:short": "USPS", "operator:type": "public", "operator:wikidata": "Q668687", "ref": "0390900015"}, "type": "Feature"}
{"geometry": {"coordinates": [-70.647934936, 43.144880898], "type": "Point"}, "id": "qnjxKUFnHGUtgC-gNptit5CrjTY=", "properties": {"@source_uri": "https://tools.usps.com/UspsToolsRestServices/rest/POLocator/findLocations", "@spider": "usps_collection_boxes", "addr:city": "YORK", "addr:country": "US", "addr:full": "10 WOODBRIDGE RD", "addr:postcode": "03909", "addr:state": "ME", "amenity": "post_box", "brand": "United States Postal Service", "brand:wikidata": "Q668687", "collection_times": "Mo-Fr 17:00; Sa 12:00", "indoor": "yes", "note": "ON 12/24 AND 12/31, THIS BOX MAY BE COLLECTED AS EARLY AS 12 NOON.", "nsi_id": "unitedstatespostalservice-a77078", "operator": "United States Postal Service", "operator:short": "USPS", "operator:type": "public", "operator:wikidata": "Q668687", "ref": "0390900017"}, "type": "Feature"}
{"geometry": {"coordinates": [-70.615324, 43.173264], "type": "Point"}, "id": "o8FbYXM-CSoA9BjVh7qBvf_BbSU=", "properties": {"@source_uri": "https://tools.usps.com/UspsToolsRestServices/rest/POLocator/findLocations", "@spider": "usps_collection_boxes", "addr:city": "YORK BEACH", "addr:country": "US", "addr:full": "420 RIDGE RD", "addr:postcode": "03910", "addr:state": "ME", "amenity": "post_box", "brand": "United States Postal Service", "brand:wikidata": "Q668687", "collection_times": "Mo-Fr 16:30; Sa 12:00", "note": "ON 12/24 AND 12/31, THIS BOX MAY BE COLLECTED AS EARLY AS 12 NOON.", "nsi_id": "unitedstatespostalservice-a77078", "operator": "United States Postal Service", "operator:short": "USPS", "operator:type": "public", "operator:wikidata": "Q668687", "ref": "0391000001"}, "type": "Feature"}
{"geometry": {"coordinates": [-70.615324, 43.173264], "type": "Point"}, "id": "r-TJK_myKi8fj-l3o36JSql9Emo=", "properties": {"@source_uri": "https://tools.usps.com/UspsToolsRestServices/rest/POLocator/findLocations", "@spider": "usps_collection_boxes", "addr:city": "YORK BEACH", "addr:country": "US", "addr:full": "420 RIDGE RD", "addr:postcode": "03910", "addr:state": "ME", "amenity": "post_box", "brand": "United States Postal Service", "brand:wikidata": "Q668687", "collection_times": "Mo-Fr 16:30; Sa 12:00", "indoor": "yes", "note": "ON 12/24 AND 12/31, THIS BOX MAY BE COLLECTED AS EARLY AS 12 NOON.", "nsi_id": "unitedstatespostalservice-a77078", "operator": "United States Postal Service", "operator:short": "USPS", "operator:type": "public", "operator:wikidata": "Q668687", "ref": "0391000002"}, "type": "Feature"}
{"geometry": {"coordinates": [-70.615324, 43.173264], "type": "Point"}, "id": "i8tw-jEK597z_lr7Ag_6J6Cbk1A=", "properties": {"@source_uri": "https://tools.usps.com/UspsToolsRestServices/rest/POLocator/findLocations", "@spider": "usps_collection_boxes", "addr:city": "YORK BEACH", "addr:country": "US", "addr:full": "420 RIDGE RD", "addr:postcode": "03910", "addr:state": "ME", "amenity": "post_box", "brand": "United States Postal Service", "brand:wikidata": "Q668687", "collection_times": "Mo-Fr 16:30; Sa 12:00", "note": "ON 12/24 AND 12/31, THIS BOX MAY BE COLLECTED AS EARLY AS 12 NOON.", "nsi_id": "unitedstatespostalservice-a77078", "operator": "United States Postal Service", "operator:short": "USPS", "operator:type": "public", "operator:wikidata": "Q668687", "ref": "0391000003"}, "type": "Feature"}
{"geometry": {"coordinates": [-70.615314519, 43.173144039], "type": "Point"}, "id": "5XNdHQM_wiDJ2YUhslMn2gwsI3I=", "properties": {"@source_uri": "https://tools.usps.com/UspsToolsRestServices/rest/POLocator/findLocations", "@spider": "usps_collection_boxes", "addr:city": "YORK BEACH", "addr:country": "US", "addr:full": "420 RIDGE RD", "addr:postcode": "03910", "addr:state": "ME", "amenity": "post_box", "brand": "United States Postal Service", "brand:wikidata": "Q668687", "collection_times": "Mo-Fr 16:30; Sa 12:00", "indoor": "yes", "note": "ON 12/24 AND 12/31, THIS BOX MAY BE COLLECTED AS EARLY AS 12 NOON.", "nsi_id": "unitedstatespostalservice-a77078", "operator": "United States Postal Service", "operator:short": "USPS", "operator:type": "public", "operator:wikidata": "Q668687", "ref": "0391000004"}, "type": "Feature"}
{"geometry": {"coordinates": [-70.641186, 43.134401], "type": "Point"}, "id": "F5elFly07C3uX0Z5BsJgWLaqD7A=", "properties": {"@source_uri": "https://tools.usps.com/UspsToolsRestServices/rest/POLocator/findLocations", "@spider": "usps_collection_boxes", "addr:city": "YORK HARBOR", "addr:country": "US", "addr:full": "445 YORK ST", "addr:postcode": "03911", "addr:state": "ME", "amenity": "post_box", "brand": "United States Postal Service", "brand:wikidata": "Q668687", "collection_times": "Mo-Fr 16:30; Sa 11:30", "note": "ON 12/24 AND 12/31, THIS BOX MAY BE COLLECTED AS EARLY AS 12 NOON.", "nsi_id": "unitedstatespostalservice-a77078", "operator": "United States Postal Service", "operator:short": "USPS", "operator:type": "public", "operator:wikidata": "Q668687", "ref": "0391100001"}, "type": "Feature"}
{"geometry": {"coordinates": [-70.641067, 43.134364], "type": "Point"}, "id": "7DGW_wJ22N8zL6v6ekpCSfs4_PQ=", "properties": {"@source_uri": "https://tools.usps.com/UspsToolsRestServices/rest/POLocator/findLocations", "@spider": "usps_collection_boxes", "addr:city": "YORK HARBOR", "addr:country": "US", "addr:full": "445 YORK ST", "addr:postcode": "03911", "addr:state": "ME", "amenity": "post_box", "brand": "United States Postal Service", "brand:wikidata": "Q668687", "collection_times": "Mo-Fr 16:30; Sa 11:30", "indoor": "yes", "note": "ON 12/24 AND 12/31, THIS BOX MAY BE COLLECTED AS EARLY AS 12 NOON.", "nsi_id": "unitedstatespostalservice-a77078", "operator": "United States Postal Service", "operator:short": "USPS", "operator:type": "public", "operator:wikidata": "Q668687", "ref": "0391100002"}, "type": "Feature"}
{"geometry": {"coordinates": [-70.640827218, 43.134164142], "type": "Point"}, "id": "VjoAPNkVwVt-Sp7r_lKBkgNShvg=", "properties": {"@source_uri": "https://tools.usps.com/UspsToolsRestServices/rest/POLocator/findLocations", "@spider": "usps_collection_boxes", "addr:city": "YORK HARBOR", "addr:country": "US", "addr:full": "445 YORK ST", "addr:postcode": "03911", "addr:state": "ME", "amenity": "post_box", "brand": "United States Postal Service", "brand:wikidata": "Q668687", "collection_times": "Mo-Fr 16:30; Sa 12:00", "indoor": "yes", "note": "ON 12/24 AND 12/31, THIS BOX MAY BE COLLECTED AS EARLY AS 12 NOON.", "nsi_id": "unitedstatespostalservice-a77078", "operator": "United States Postal Service", "operator:short": "USPS", "operator:type": "public", "operator:wikidata": "Q668687", "ref": "0391100003"}, "type": "Feature"}
