{"geometry": {"coordinates": [-70.257816999, 43.658702981], "type": "Point"}, "id": "JK4UgM-SGdnQVsmATe6LOMkUQKE=", "properties": {"@source_uri": "https://tools.usps.com/UspsToolsRestServices/rest/POLocator/findLocations", "@spider": "usps_collection_boxes", "addr:city": "PORTLAND", "addr:country": "US", "addr:postcode": "04101", "addr:state": "ME", "addr:street_address": "415 CONGRESS ST", "amenity": "post_box", "collection_times": "Mo-Fr 10:30; Sa 08:30", "nsi_id": "unitedstatespostalservice-a77078", "operator": "United States Postal Service", "operator:short": "USPS", "operator:type": "public", "operator:wikidata": "Q668687", "ref": "0410100002"}, "type": "Feature"}
{"geometry": {"coordinates": [-70.2520444, 43.657431], "type": "Point"}, "id": "6MuBtlHqIDvvOfZtlxq8oulkdCE=", "properties": {"@source_uri": "https://tools.usps.com/UspsToolsRestServices/rest/POLocator/findLocations", "@spider": "usps_collection_boxes", "addr:city": "PORTLAND", "addr:country": "US", "addr:postcode": "04101", "addr:state": "ME", "addr:street_address": "27 PEARL ST", "amenity": "post_box", "collection_times": "Mo-Fr 08:30", "nsi_id": "unitedstatespostalservice-a77078", "operator": "United States Postal Service", "operator:short": "USPS", "operator:type": "public", "operator:wikidata": "Q668687", "ref": "0410100003"}, "type": "Feature"}
{"geometry": {"coordinates": [-70.2521749, 43.658956], "type": "Point"}, "id": "ciB-Y-ToHI2Q3wECHt6lRbG2IVs=", "properties": {"@source_uri": "https://tools.usps.com/UspsToolsRestServices/rest/POLocator/findLocations", "@spider": "usps_collection_boxes", "addr:city": "PORTLAND", "addr:country": "US", "addr:postcode": "04101", "addr:state": "ME", "addr:street_address": "100 MIDDLE ST", "amenity": "post_box", "collection_times": "Mo-Fr 09:30", "nsi_id": "unitedstatespostalservice-a77078", "operator": "United States Postal Service", "operator:short": "USPS", "operator:type": "public", "operator:wikidata": "Q668687", "ref": "0410100010"}, "type": "Feature"}
{"geometry": {"coordinates": [-70.2594040289, 43.6574969923], "type": "Point"}, "id": "0By5thJ_vc6M5WLLwWbDwa1R_Js=", "properties": {"@source_uri": "https://tools.usps.com/UspsToolsRestServices/rest/POLocator/findLocations", "@spider": "usps_collection_boxes", "addr:city": "PORTLAND", "addr:country": "US", "addr:postcode": "04101", "addr:state": "ME", "addr:street_address": "465 CONGRESS ST", "amenity": "post_box", "collection_times": "Mo-Fr 08:30; Sa 09:00", "nsi_id": "unitedstatespostalservice-a77078", "operator": "United States Postal Service", "operator:short": "USPS", "operator:type": "public", "operator:wikidata": "Q668687", "ref": "0410100011"}, "type": "Feature"}
{"geometry": {"coordinates": [-70.2595247, 43.657077], "type": "Point"}, "id": "NC3s08PEreT70snFHf34lS7ZyfU=", "properties": {"@source_uri": "https://tools.usps.com/UspsToolsRestServices/rest/POLocator/findLocations", "@spider": "usps_collection_boxes", "addr:city": "PORTLAND", "addr:country": "US", "addr:postcode": "04101", "addr:state": "ME", "addr:street_address": "477 CONGRESS ST", "amenity": "post_box", "collection_times": "Mo-Fr 10:30", "nsi_id": "unitedstatespostalservice-a77078", "operator": "United States Postal Service", "operator:short": "USPS", "operator:type": "public", "operator:wikidata": "Q668687", "ref": "0410100012"}, "type": "Feature"}
{"geometry": {"coordinates": [-70.2597493, 43.656934], "type": "Point"}, "id": "uMyWx7IplW-a8tP3KfwBW-n-JSU=", "properties": {"@source_uri": "https://tools.usps.com/UspsToolsRestServices/rest/POLocator/findLocations", "@spider": "usps_collection_boxes", "addr:city": "PORTLAND", "addr:country": "US", "addr:postcode": "04101", "addr:state": "ME", "addr:street_address": "480 CONGRESS ST", "amenity": "post_box", "collection_times": "Mo-Sa 09:00", "nsi_id": "unitedstatespostalservice-a77078", "operator": "United States Postal Service", "operator:short": "USPS", "operator:type": "public", "operator:wikidata": "Q668687", "ref": "0410100016"}, "type": "Feature"}
{"geometry": {"coordinates": [-70.2614742, 43.655722], "type": "Point"}, "id": "cuQGBa20j533keNRcZVZSdgHdTY=", "properties": {"@source_uri": "https://tools.usps.com/UspsToolsRestServices/rest/POLocator/findLocations", "@spider": "usps_collection_boxes", "addr:city": "PORTLAND", "addr:country": "US", "addr:postcode": "04101", "addr:state": "ME", "addr:street_address": "534 CONGRESS ST", "amenity": "post_box", "collection_times": "Mo-Sa 10:00", "nsi_id": "unitedstatespostalservice-a77078", "operator": "United States Postal Service", "operator:short": "USPS", "operator:type": "public", "operator:wikidata": "Q668687", "ref": "0410100017"}, "type": "Feature"}
{"geometry": {"coordinates": [-70.2620433, 43.655145], "type": "Point"}, "id": "MiLxcj9i1UxbWSVhISWuofy9qUE=", "properties": {"@source_uri": "https://tools.usps.com/UspsToolsRestServices/rest/POLocator/findLocations", "@spider": "usps_collection_boxes", "addr:city": "PORTLAND", "addr:country": "US", "addr:postcode": "04101", "addr:state": "ME", "addr:street_address": "562 CONGRESS ST", "amenity": "post_box", "collection_times": "Mo-Fr 12:00; Sa 09:00", "nsi_id": "unitedstatespostalservice-a77078", "operator": "United States Postal Service", "operator:short": "USPS", "operator:type": "public", "operator:wikidata": "Q668687", "ref": "0410100018"}, "type": "Feature"}
{"geometry": {"coordinates": [-70.2578745, 43.655379], "type": "Point"}, "id": "Cae0iJ-5XsV7tbpjCaEv0PziPx4=", "properties": {"@source_uri": "https://tools.usps.com/UspsToolsRestServices/rest/POLocator/findLocations", "@spider": "usps_collection_boxes", "addr:city": "PORTLAND", "addr:country": "US", "addr:postcode": "04101", "addr:state": "ME", "addr:street_address": "70 CENTER ST", "amenity": "post_box", "collection_times": "Mo-Fr 14:00; Sa 09:00", "note": "ON 12/24 AND 12/31, THIS BOX MAY BE COLLECTED AS EARLY AS 12 NOON.", "nsi_id": "unitedstatespostalservice-a77078", "operator": "United States Postal Service", "operator:short": "USPS", "operator:type": "public", "operator:wikidata": "Q668687", "ref": "0410100022"}, "type": "Feature"}
{"geometry": {"coordinates": [-70.2641656, 43.654653], "type": "Point"}, "id": "pohELsZiCGCFUaeWg12xyLjkERM=", "properties": {"@source_uri": "https://tools.usps.com/UspsToolsRestServices/rest/POLocator/findLocations", "@spider": "usps_collection_boxes", "addr:city": "PORTLAND", "addr:country": "US", "addr:postcode": "04101", "addr:state": "ME", "addr:street_address": "156 HIGH ST", "amenity": "post_box", "collection_times": "Mo-Fr 09:30; Sa 10:00", "nsi_id": "unitedstatespostalservice-a77078", "operator": "United States Postal Service", "operator:short": "USPS", "operator:type": "public", "operator:wikidata": "Q668687", "ref": "0410100023"}, "type": "Feature"}
{"geometry": {"coordinates": [-70.2508123, 43.660871], "type": "Point"}, "id": "Ia4F_lUSsXKxowN1BrobxJ2fhG8=", "properties": {"@source_uri": "https://tools.usps.com/UspsToolsRestServices/rest/POLocator/findLocations", "@spider": "usps_collection_boxes", "addr:city": "PORTLAND", "addr:country": "US", "addr:postcode": "04101", "addr:state": "ME", "addr:street_address": "70 INDIA ST", "amenity": "post_box", "collection_times": "Mo-Fr 10:30; Sa 10:00", "nsi_id": "unitedstatespostalservice-a77078", "operator": "United States Postal Service", "operator:short": "USPS", "operator:type": "public", "operator:wikidata": "Q668687", "ref": "0410100036"}, "type": "Feature"}
{"geometry": {"coordinates": [-70.2514952, 43.657288], "type": "Point"}, "id": "SWdn8iAKqE_BlmC1yEM9tIxyAWg=", "properties": {"@source_uri": "https://tools.usps.com/UspsToolsRestServices/rest/POLocator/findLocations", "@spider": "usps_collection_boxes", "addr:city": "PORTLAND", "addr:country": "US", "addr:postcode": "04101", "addr:state": "ME", "addr:street_address": "312 FORE ST", "amenity": "post_box", "collection_times": "Mo-Fr 12:30", "note": "ON 12/24 AND 12/31, THIS BOX MAY BE COLLECTED AS EARLY AS 12 NOON.", "nsi_id": "unitedstatespostalservice-a77078", "operator": "United States Postal Service", "operator:short": "USPS", "operator:type": "public", "operator:wikidata": "Q668687", "ref": "0410100039"}, "type": "Feature"}
{"geometry": {"coordinates": [-70.2764914, 43.666546], "type": "Point"}, "id": "xWrSa7shlyUi820ig1OgZ5Py6_Y=", "properties": {"@source_uri": "https://tools.usps.com/UspsToolsRestServices/rest/POLocator/findLocations", "@spider": "usps_collection_boxes", "addr:city": "PORTLAND", "addr:country": "US", "addr:postcode": "04101", "addr:state": "ME", "addr:street_address": "449 FOREST AVE", "amenity": "post_box", "collection_times": "Mo-Fr 11:00; Sa 09:00", "nsi_id": "unitedstatespostalservice-a77078", "operator": "United States Postal Service", "operator:short": "USPS", "operator:type": "public", "operator:wikidata": "Q668687", "ref": "0410100041"}, "type": "Feature"}
{"geometry": {"coordinates": [-70.2642276, 43.64544], "type": "Point"}, "id": "Bv1lOiXGBJMf3qbhj80HFhdNSQw=", "properties": {"@source_uri": "https://tools.usps.com/UspsToolsRestServices/rest/POLocator/findLocations", "@spider": "usps_collection_boxes", "addr:city": "PORTLAND", "addr:country": "US", "addr:postcode": "04101", "addr:state": "ME", "addr:street_address": "75 W COMMERCIAL ST", "amenity": "post_box", "collection_times": "Mo-Fr 08:30", "nsi_id": "unitedstatespostalservice-a77078", "operator": "United States Postal Service", "operator:short": "USPS", "operator:type": "public", "operator:wikidata": "Q668687", "ref": "0410100042"}, "type": "Feature"}
{"geometry": {"coordinates": [-70.2789434, 43.667548], "type": "Point"}, "id": "lkNrE14vqpk_7dhExdoOLtd0HEw=", "properties": {"@source_uri": "https://tools.usps.com/UspsToolsRestServices/rest/POLocator/findLocations", "@spider": "usps_collection_boxes", "addr:city": "PORTLAND", "addr:country": "US", "addr:postcode": "04101", "addr:state": "ME", "addr:street_address": "509 FOREST AVE", "amenity": "post_box", "collection_times": "Mo-Fr 08:30", "nsi_id": "unitedstatespostalservice-a77078", "operator": "United States Postal Service", "operator:short": "USPS", "operator:type": "public", "operator:wikidata": "Q668687", "ref": "0410100044"}, "type": "Feature"}
{"geometry": {"coordinates": [-70.2806558, 43.668381], "type": "Point"}, "id": "CPidziYwZGhGLavwn-eBd2OGPhY=", "properties": {"@source_uri": "https://tools.usps.com/UspsToolsRestServices/rest/POLocator/findLocations", "@spider": "usps_collection_boxes", "addr:city": "PORTLAND", "addr:country": "US", "addr:postcode": "04101", "addr:state": "ME", "addr:street_address": "550 FOREST AVE", "amenity": "post_box", "collection_times": "Mo-Fr 10:30", "nsi_id": "unitedstatespostalservice-a77078", "operator": "United States Postal Service", "operator:short": "USPS", "operator:type": "public", "operator:wikidata": "Q668687", "ref": "0410100048"}, "type": "Feature"}
{"geometry": {"coordinates": [-70.264209, 43.653649], "type": "Point"}, "id": "nBW5cGH40lqiKwzY4V7j27iAo7o=", "properties": {"@source_uri": "https://tools.usps.com/UspsToolsRestServices/rest/POLocator/findLocations", "@spider": "usps_collection_boxes", "addr:city": "PORTLAND", "addr:country": "US", "addr:postcode": "04101", "addr:state": "ME", "addr:street_address": "622 CONGRESS ST", "amenity": "post_box", "collection_times": "Mo-Fr 12:05; Sa 11:45", "note": "ON 12/24 AND 12/31, THIS BOX MAY BE COLLECTED AS EARLY AS 12 NOON.", "nsi_id": "unitedstatespostalservice-a77078", "operator": "United States Postal Service", "operator:short": "USPS", "operator:type": "public", "operator:wikidata": "Q668687", "ref": "0410100051"}, "type": "Feature"}
{"geometry": {"coordinates": [-70.2603614, 43.65546], "type": "Point"}, "id": "f6JeQloBaT2t6XMMgE4QX70WMEs=", "properties": {"@source_uri": "https://tools.usps.com/UspsToolsRestServices/rest/POLocator/findLocations", "@spider": "usps_collection_boxes", "addr:city": "PORTLAND", "addr:country": "US", "addr:postcode": "04101", "addr:state": "ME", "addr:street_address": "94 FREE ST", "amenity": "post_box", "collection_times": "Mo-Fr 11:45; Sa 09:00", "nsi_id": "unitedstatespostalservice-a77078", "operator": "United States Postal Service", "operator:short": "USPS", "operator:type": "public", "operator:wikidata": "Q668687", "ref": "0410100054"}, "type": "Feature"}
{"geometry": {"coordinates": [-70.2509733, 43.656955], "type": "Point"}, "id": "bcZH8SLwPKiNYHpifcJt9Amh7c8=", "properties": {"@source_uri": "https://tools.usps.com/UspsToolsRestServices/rest/POLocator/findLocations", "@spider": "usps_collection_boxes", "addr:city": "PORTLAND", "addr:country": "US", "addr:postcode": "04101", "addr:state": "ME", "addr:street_address": "95 COMMERCIAL ST", "amenity": "post_box", "collection_times": "Mo-Fr 09:30", "nsi_id": "unitedstatespostalservice-a77078", "operator": "United States Postal Service", "operator:short": "USPS", "operator:type": "public", "operator:wikidata": "Q668687", "ref": "0410100056"}, "type": "Feature"}
{"geometry": {"coordinates": [-70.2549483, 43.65464], "type": "Point"}, "id": "_HtO_KhC5vteBH-J2rzK35EvNpw=", "properties": {"@source_uri": "https://tools.usps.com/UspsToolsRestServices/rest/POLocator/findLocations", "@spider": "usps_collection_boxes", "addr:city": "PORTLAND", "addr:country": "US", "addr:postcode": "04101", "addr:state": "ME", "addr:street_address": "245 COMMERCIAL ST", "amenity": "post_box", "collection_times": "Mo-Fr 08:30", "nsi_id": "unitedstatespostalservice-a77078", "operator": "United States Postal Service", "operator:short": "USPS", "operator:type": "public", "operator:wikidata": "Q668687", "ref": "0410100059"}, "type": "Feature"}
{"geometry": {"coordinates": [-70.2483014, 43.665621], "type": "Point"}, "id": "ceuXW_gYjLgNP9vxgfICEVW0DS4=", "properties": {"@source_uri": "https://tools.usps.com/UspsToolsRestServices/rest/POLocator/findLocations", "@spider": "usps_collection_boxes", "addr:city": "PORTLAND", "addr:country": "US", "addr:postcode": "04101", "addr:state": "ME", "addr:street_address": "131 CONGRESS ST", "amenity": "post_box", "collection_times": "Mo-Sa 10:00", "nsi_id": "unitedstatespostalservice-a77078", "operator": "United States Postal Service", "operator:short": "USPS", "operator:type": "public", "operator:wikidata": "Q668687", "ref": "0410100060"}, "type": "Feature"}
{"geometry": {"coordinates": [-70.2545499, 43.656907], "type": "Point"}, "id": "b5UUqZLkb0wAEuXiPeNxUj0TtSE=", "properties": {"@source_uri": "https://tools.usps.com/UspsToolsRestServices/rest/POLocator/findLocations", "@spider": "usps_collection_boxes", "addr:city": "PORTLAND", "addr:country": "US", "addr:postcode": "04101", "addr:state": "ME", "addr:street_address": "1 CANAL PLZ", "amenity": "post_box", "collection_times": "Mo-Fr 10:30", "nsi_id": "unitedstatespostalservice-a77078", "operator": "United States Postal Service", "operator:short": "USPS", "operator:type": "public", "operator:wikidata": "Q668687", "ref": "0410100066"}, "type": "Feature"}
{"geometry": {"coordinates": [-70.253124871, 43.659645551], "type": "Point"}, "id": "fYyV0ujYS3Gy5yh5tDYXWekZiT8=", "properties": {"@source_uri": "https://tools.usps.com/UspsToolsRestServices/rest/POLocator/findLocations", "@spider": "usps_collection_boxes", "addr:city": "PORTLAND", "addr:country": "US", "addr:postcode": "04101", "addr:state": "ME", "addr:street_address": "205 NEWBURY ST", "amenity": "post_box", "collection_times": "Mo-Fr 09:30", "nsi_id": "unitedstatespostalservice-a77078", "operator": "United States Postal Service", "operator:short": "USPS", "operator:type": "public", "operator:wikidata": "Q668687", "ref": "0410100073"}, "type": "Feature"}
{"geometry": {"coordinates": [-70.2533724, 43.656505], "type": "Point"}, "id": "bujLmiAicYefZS-xE1SpOGtN_Lo=", "properties": {"@source_uri": "https://tools.usps.com/UspsToolsRestServices/rest/POLocator/findLocations", "@spider": "usps_collection_boxes", "addr:city": "PORTLAND", "addr:country": "US", "addr:postcode": "04101", "addr:state": "ME", "addr:street_address": "2 EXCHANGE ST", "amenity": "post_box", "collection_times": "Mo-Fr 09:30; Sa 10:00", "nsi_id": "unitedstatespostalservice-a77078", "operator": "United States Postal Service", "operator:short": "USPS", "operator:type": "public", "operator:wikidata": "Q668687", "ref": "0410100076"}, "type": "Feature"}
{"geometry": {"coordinates": [-70.2620526, 43.660332], "type": "Point"}, "id": "c7J8w7R2CJWzVq2u1Yc84peiNS0=", "properties": {"@source_uri": "https://tools.usps.com/UspsToolsRestServices/rest/POLocator/findLocations", "@spider": "usps_collection_boxes", "addr:city": "PORTLAND", "addr:country": "US", "addr:postcode": "04101", "addr:state": "ME", "addr:street_address": "185 LANCASTER ST", "amenity": "post_box", "collection_times": "Mo-Fr 10:30", "nsi_id": "unitedstatespostalservice-a77078", "operator": "United States Postal Service", "operator:short": "USPS", "operator:type": "public", "operator:wikidata": "Q668687", "ref": "0410100087"}, "type": "Feature"}
{"geometry": {"coordinates": [-70.2545386, 43.657734], "type": "Point"}, "id": "85rqxCWRZEM2Mjhi9JRW6qwl5I0=", "properties": {"@source_uri": "https://tools.usps.com/UspsToolsRestServices/rest/POLocator/findLocations", "@spider": "usps_collection_boxes", "addr:city": "PORTLAND", "addr:country": "US", "addr:postcode": "04101", "addr:state": "ME", "addr:street_address": "170 MIDDLE ST", "amenity": "post_box", "collection_times": "Mo-Fr 09:30; Sa 10:00", "nsi_id": "unitedstatespostalservice-a77078", "operator": "United States Postal Service", "operator:short": "USPS", "operator:type": "public", "operator:wikidata": "Q668687", "ref": "0410100092"}, "type": "Feature"}
{"geometry": {"coordinates": [-70.2522744, 43.665813], "type": "Point"}, "id": "8CAdC8vdaE4UlzKkfvhpD_y5hPo=", "properties": {"@source_uri": "https://tools.usps.com/UspsToolsRestServices/rest/POLocator/findLocations", "@spider": "usps_collection_boxes", "addr:city": "PORTLAND", "addr:country": "US", "addr:postcode": "04101", "addr:state": "ME", "addr:street_address": "75 WASHINGTON AVE", "amenity": "post_box", "collection_times": "Mo-Fr 12:45", "note": "ON 12/24 AND 12/31, THIS BOX MAY BE COLLECTED AS EARLY AS 12 NOON.", "nsi_id": "unitedstatespostalservice-a77078", "operator": "United States Postal Service", "operator:short": "USPS", "operator:type": "public", "operator:wikidata": "Q668687", "ref": "0410100097"}, "type": "Feature"}
{"geometry": {"coordinates": [-70.2586081825, 43.6578813697], "type": "Point"}, "id": "NzgwkbENtOQVWvQTwlWKFEk6LcA=", "properties": {"@source_uri": "https://tools.usps.com/UspsToolsRestServices/rest/POLocator/findLocations", "@spider": "usps_collection_boxes", "addr:city": "PORTLAND", "addr:country": "US", "addr:postcode": "04101", "addr:state": "ME", "addr:street_address": "443 CONGRESS ST", "amenity": "post_box", "collection_times": "Mo-Fr 10:30", "name": "USPS COLLECTION BOX - EXPRESS", "nsi_id": "unitedstatespostalservice-a77078", "operator": "United States Postal Service", "operator:short": "USPS", "operator:type": "public", "operator:wikidata": "Q668687", "ref": "0410100105"}, "type": "Feature"}
{"geometry": {"coordinates": [-70.2490104, 43.656989], "type": "Point"}, "id": "c1I3t98lIwqp7rQyYo0uL74zrbc=", "properties": {"@source_uri": "https://tools.usps.com/UspsToolsRestServices/rest/POLocator/findLocations", "@spider": "usps_collection_boxes", "addr:city": "PORTLAND", "addr:country": "US", "addr:postcode": "04101", "addr:state": "ME", "addr:street_address": "56 COMMERCIAL ST", "amenity": "post_box", "collection_times": "Mo-Fr 13:30; Sa 14:00", "note": "ON 12/24 AND 12/31, THIS BOX MAY BE COLLECTED AS EARLY AS 12 NOON.", "nsi_id": "unitedstatespostalservice-a77078", "operator": "United States Postal Service", "operator:short": "USPS", "operator:type": "public", "operator:wikidata": "Q668687", "ref": "0410100107"}, "type": "Feature"}
{"geometry": {"coordinates": [-70.26633, 43.657984], "type": "Point"}, "id": "A2i3l3mKHhQfjOdtgdLicGbgz1A=", "properties": {"@source_uri": "https://tools.usps.com/UspsToolsRestServices/rest/POLocator/findLocations", "@spider": "usps_collection_boxes", "addr:city": "PORTLAND", "addr:country": "US", "addr:postcode": "04101", "addr:state": "ME", "addr:street_address": "125 FOREST AVE", "amenity": "post_box", "collection_times": "Mo-Fr 17:00; Sa 14:25", "note": "ON 12/24 AND 12/31, THIS BOX MAY BE COLLECTED AS EARLY AS 12 NOON.", "nsi_id": "unitedstatespostalservice-a77078", "operator": "United States Postal Service", "operator:short": "USPS", "operator:type": "public", "operator:wikidata": "Q668687", "ref": "0410100116"}, "type": "Feature"}
{"geometry": {"coordinates": [-70.2559993, 43.65855], "type": "Point"}, "id": "3Hg-7IfbIpPnHTDIzNeKrIzHDDY=", "properties": {"@source_uri": "https://tools.usps.com/UspsToolsRestServices/rest/POLocator/findLocations", "@spider": "usps_collection_boxes", "addr:city": "PORTLAND", "addr:country": "US", "addr:postcode": "04101", "addr:state": "ME", "addr:street_address": "110 EXCHANGE ST", "amenity": "post_box", "collection_times": "Mo-Fr 08:30", "nsi_id": "unitedstatespostalservice-a77078", "operator": "United States Postal Service", "operator:short": "USPS", "operator:type": "public", "operator:wikidata": "Q668687", "ref": "0410100118"}, "type": "Feature"}
{"geometry": {"coordinates": [-70.2510516, 43.656788], "type": "Point"}, "id": "PJs6N_LWFvjrT7RxBqPrMp9yZQ8=", "properties": {"@source_uri": "https://tools.usps.com/UspsToolsRestServices/rest/POLocator/findLocations", "@spider": "usps_collection_boxes", "addr:city": "PORTLAND", "addr:country": "US", "addr:postcode": "04101", "addr:state": "ME", "addr:street_address": "100 COMMERCIAL ST", "amenity": "post_box", "collection_times": "Mo-Fr 10:30", "nsi_id": "unitedstatespostalservice-a77078", "operator": "United States Postal Service", "operator:short": "USPS", "operator:type": "public", "operator:wikidata": "Q668687", "ref": "0410100119"}, "type": "Feature"}
{"geometry": {"coordinates": [-70.2532458, 43.658368], "type": "Point"}, "id": "rnHuq7t98JyX0UeACmduZieEsnM=", "properties": {"@source_uri": "https://tools.usps.com/UspsToolsRestServices/rest/POLocator/findLocations", "@spider": "usps_collection_boxes", "addr:city": "PORTLAND", "addr:country": "US", "addr:postcode": "04101", "addr:state": "ME", "addr:street_address": "130 MIDDLE ST", "amenity": "post_box", "collection_times": "Mo-Fr 10:30", "nsi_id": "unitedstatespostalservice-a77078", "operator": "United States Postal Service", "operator:short": "USPS", "operator:type": "public", "operator:wikidata": "Q668687", "ref": "0410100120"}, "type": "Feature"}
{"geometry": {"coordinates": [-70.257263961, 43.659244996], "type": "Point"}, "id": "gY0X_3KlC9BcmaqIcKDZv5ttcAE=", "properties": {"@source_uri": "https://tools.usps.com/UspsToolsRestServices/rest/POLocator/findLocations", "@spider": "usps_collection_boxes", "addr:city": "PORTLAND", "addr:country": "US", "addr:postcode": "04101", "addr:state": "ME", "addr:street_address": "389 CONGRESS ST", "amenity": "post_box", "collection_times": "Mo-Fr 10:30; Sa 11:00", "nsi_id": "unitedstatespostalservice-a77078", "operator": "United States Postal Service", "operator:short": "USPS", "operator:type": "public", "operator:wikidata": "Q668687", "ref": "0410100122"}, "type": "Feature"}
{"geometry": {"coordinates": [-70.26633, 43.657984], "type": "Point"}, "id": "Dm6ZdoZ1tIuGYyk9HVAOgvexDVU=", "properties": {"@source_uri": "https://tools.usps.com/UspsToolsRestServices/rest/POLocator/findLocations", "@spider": "usps_collection_boxes", "addr:city": "PORTLAND", "addr:country": "US", "addr:postcode": "04101", "addr:state": "ME", "addr:street_address": "125 FOREST AVE", "amenity": "post_box", "collection_times": "Mo-Fr 17:00; Sa 14:25", "note": "ON 12/24 AND 12/31, THIS BOX MAY BE COLLECTED AS EARLY AS 12 NOON.", "nsi_id": "unitedstatespostalservice-a77078", "operator": "United States Postal Service", "operator:short": "USPS", "operator:type": "public", "operator:wikidata": "Q668687", "ref": "0410100126"}, "type": "Feature"}
{"geometry": {"coordinates": [-70.262964284, 43.654077199], "type": "Point"}, "id": "yQgzqGmbJ63m6ORU_rSTNxuOxHQ=", "properties": {"@source_uri": "https://tools.usps.com/UspsToolsRestServices/rest/POLocator/findLocations", "@spider": "usps_collection_boxes", "addr:city": "PORTLAND", "addr:country": "US", "addr:postcode": "04101", "addr:state": "ME", "addr:street_address": "1 FREE ST", "amenity": "post_box", "collection_times": "Mo-Fr 08:00", "nsi_id": "unitedstatespostalservice-a77078", "operator": "United States Postal Service", "operator:short": "USPS", "operator:type": "public", "operator:wikidata": "Q668687", "ref": "0410100127"}, "type": "Feature"}
{"geometry": {"coordinates": [-70.2600592, 43.658879], "type": "Point"}, "id": "fBAAv-SnU4ChtPTS9ZXPoqnvzhA=", "properties": {"@source_uri": "https://tools.usps.com/UspsToolsRestServices/rest/POLocator/findLocations", "@spider": "usps_collection_boxes", "addr:city": "PORTLAND", "addr:country": "US", "addr:postcode": "04101", "addr:state": "ME", "addr:street_address": "307 CUMBERLAND AVE", "amenity": "post_box", "collection_times": "Mo-Fr 07:30", "nsi_id": "unitedstatespostalservice-a77078", "operator": "United States Postal Service", "operator:short": "USPS", "operator:type": "public", "operator:wikidata": "Q668687", "ref": "0410100130"}, "type": "Feature"}
{"geometry": {"coordinates": [-70.2701339, 43.664325], "type": "Point"}, "id": "7MgErRMYlblwCo4FZm3A_kWpHp8=", "properties": {"@source_uri": "https://tools.usps.com/UspsToolsRestServices/rest/POLocator/findLocations", "@spider": "usps_collection_boxes", "addr:city": "PORTLAND", "addr:country": "US", "addr:postcode": "04101", "addr:state": "ME", "addr:street_address": "51 BAXTER BLVD", "amenity": "post_box", "collection_times": "Mo-Fr 09:30", "nsi_id": "unitedstatespostalservice-a77078", "operator": "United States Postal Service", "operator:short": "USPS", "operator:type": "public", "operator:wikidata": "Q668687", "ref": "0410100131"}, "type": "Feature"}
{"geometry": {"coordinates": [-70.2561633, 43.653246], "type": "Point"}, "id": "-ITNVbuk_Y19uyTNA6DTfyczX-g=", "properties": {"@source_uri": "https://tools.usps.com/UspsToolsRestServices/rest/POLocator/findLocations", "@spider": "usps_collection_boxes", "addr:city": "PORTLAND", "addr:country": "US", "addr:postcode": "04101", "addr:state": "ME", "addr:street_address": "315 COMMERCIAL ST", "amenity": "post_box", "collection_times": "Mo-Sa 10:00", "nsi_id": "unitedstatespostalservice-a77078", "operator": "United States Postal Service", "operator:short": "USPS", "operator:type": "public", "operator:wikidata": "Q668687", "ref": "0410100135"}, "type": "Feature"}
{"geometry": {"coordinates": [-70.2556835, 43.658909], "type": "Point"}, "id": "mMVRR8WSsRdXGyakJI_xKyV5Oug=", "properties": {"@source_uri": "https://tools.usps.com/UspsToolsRestServices/rest/POLocator/findLocations", "@spider": "usps_collection_boxes", "addr:city": "PORTLAND", "addr:country": "US", "addr:postcode": "04101", "addr:state": "ME", "addr:street_address": "113 MARKET ST", "amenity": "post_box", "collection_times": "Mo-Sa 11:00", "nsi_id": "unitedstatespostalservice-a77078", "operator": "United States Postal Service", "operator:short": "USPS", "operator:type": "public", "operator:wikidata": "Q668687", "ref": "0410100136"}, "type": "Feature"}
{"geometry": {"coordinates": [-70.2537066, 43.655468], "type": "Point"}, "id": "Ve6HbVE13ThG09w83t7pl9UmE9Y=", "properties": {"@source_uri": "https://tools.usps.com/UspsToolsRestServices/rest/POLocator/findLocations", "@spider": "usps_collection_boxes", "addr:city": "PORTLAND", "addr:country": "US", "addr:postcode": "04101", "addr:state": "ME", "addr:street_address": "215 COMMERCIAL ST", "amenity": "post_box", "collection_times": "Mo-Fr 09:30", "nsi_id": "unitedstatespostalservice-a77078", "operator": "United States Postal Service", "operator:short": "USPS", "operator:type": "public", "operator:wikidata": "Q668687", "ref": "0410100139"}, "type": "Feature"}
{"geometry": {"coordinates": [-70.2582395, 43.653314], "type": "Point"}, "id": "sy09F4i4GwKiYFSFmdHO9WqfHLQ=", "properties": {"@source_uri": "https://tools.usps.com/UspsToolsRestServices/rest/POLocator/findLocations", "@spider": "usps_collection_boxes", "addr:city": "PORTLAND", "addr:country": "US", "addr:postcode": "04101", "addr:state": "ME", "addr:street_address": "36 DANFORTH ST", "amenity": "post_box", "collection_times": "Mo-Fr 11:00", "nsi_id": "unitedstatespostalservice-a77078", "operator": "United States Postal Service", "operator:short": "USPS", "operator:type": "public", "operator:wikidata": "Q668687", "ref": "0410100143"}, "type": "Feature"}
{"geometry": {"coordinates": [-70.2584422, 43.667403], "type": "Point"}, "id": "fZbayVqaLrSGo4iGRxcMwDlASFw=", "properties": {"@source_uri": "https://tools.usps.com/UspsToolsRestServices/rest/POLocator/findLocations", "@spider": "usps_collection_boxes", "addr:city": "PORTLAND", "addr:country": "US", "addr:postcode": "04101", "addr:state": "ME", "addr:street_address": "315 MARGINAL WAY", "amenity": "post_box", "collection_times": "Mo-Fr 10:00", "nsi_id": "unitedstatespostalservice-a77078", "operator": "United States Postal Service", "operator:short": "USPS", "operator:type": "public", "operator:wikidata": "Q668687", "ref": "0410100144"}, "type": "Feature"}
{"geometry": {"coordinates": [-70.25899, 43.65787], "type": "Point"}, "id": "vRwrWnpAFQry49iPSdogMlFm7Jk=", "properties": {"@source_uri": "https://tools.usps.com/UspsToolsRestServices/rest/POLocator/findLocations", "@spider": "usps_collection_boxes", "addr:city": "PORTLAND", "addr:country": "US", "addr:postcode": "04101", "addr:state": "ME", "addr:street_address": "400 CONGRESS ST", "amenity": "post_box", "collection_times": "Mo-Fr 17:15; Sa 13:00", "note": "ON 12/24 AND 12/31, THIS BOX MAY BE COLLECTED AS EARLY AS 12 NOON.", "nsi_id": "unitedstatespostalservice-a77078", "operator": "United States Postal Service", "operator:short": "USPS", "operator:type": "public", "operator:wikidata": "Q668687", "ref": "0410100145"}, "type": "Feature"}
{"geometry": {"coordinates": [-70.2578287, 43.6584296], "type": "Point"}, "id": "pNpcoEZmvX4zN_I3vQSYodwbRAk=", "properties": {"@source_uri": "https://tools.usps.com/UspsToolsRestServices/rest/POLocator/findLocations", "@spider": "usps_collection_boxes", "addr:city": "PORTLAND", "addr:country": "US", "addr:postcode": "04101", "addr:state": "ME", "addr:street_address": "161 MARGINAL WAY", "amenity": "post_box", "collection_times": "Mo-Fr 09:00", "nsi_id": "unitedstatespostalservice-a77078", "operator": "United States Postal Service", "operator:short": "USPS", "operator:type": "public", "operator:wikidata": "Q668687", "ref": "0410100147"}, "type": "Feature"}
{"geometry": {"coordinates": [-70.2528991, 43.661621], "type": "Point"}, "id": "VY9MoywGmoOh_K59FGvArQnV9TA=", "properties": {"@source_uri": "https://tools.usps.com/UspsToolsRestServices/rest/POLocator/findLocations", "@spider": "usps_collection_boxes", "addr:city": "PORTLAND", "addr:country": "US", "addr:postcode": "04101", "addr:state": "ME", "addr:street_address": "290 CONGRESS ST", "amenity": "post_box", "collection_times": "Mo-Fr 10:00; Sa 10:30", "nsi_id": "unitedstatespostalservice-a77078", "operator": "United States Postal Service", "operator:short": "USPS", "operator:type": "public", "operator:wikidata": "Q668687", "ref": "0410100149"}, "type": "Feature"}
{"geometry": {"coordinates": [-70.2733849596, 43.662428988], "type": "Point"}, "id": "7g2YPf_puvgPqKfNG5IzSww1thg=", "properties": {"@source_uri": "https://tools.usps.com/UspsToolsRestServices/rest/POLocator/findLocations", "@spider": "usps_collection_boxes", "addr:city": "PORTLAND", "addr:country": "US", "addr:postcode": "04101", "addr:state": "ME", "addr:street_address": "34 BEDFORD ST", "amenity": "post_box", "collection_times": "Mo-Fr 09:00; Sa 09:30", "nsi_id": "unitedstatespostalservice-a77078", "operator": "United States Postal Service", "operator:short": "USPS", "operator:type": "public", "operator:wikidata": "Q668687", "ref": "0410100152"}, "type": "Feature"}
{"geometry": {"coordinates": [-70.2683248, 43.663999], "type": "Point"}, "id": "lFQzUrnBEnwoLYEOkvQM9KKz0_0=", "properties": {"@source_uri": "https://tools.usps.com/UspsToolsRestServices/rest/POLocator/findLocations", "@spider": "usps_collection_boxes", "addr:city": "PORTLAND", "addr:country": "US", "addr:postcode": "04101", "addr:state": "ME", "addr:street_address": "295 FOREST AVE", "amenity": "post_box", "collection_times": "Mo-Fr 12:15; Sa 11:00", "note": "ON 12/24 AND 12/31, THIS BOX MAY BE COLLECTED AS EARLY AS 12 NOON.", "nsi_id": "unitedstatespostalservice-a77078", "operator": "United States Postal Service", "operator:short": "USPS", "operator:type": "public", "operator:wikidata": "Q668687", "ref": "0410100153"}, "type": "Feature"}
{"geometry": {"coordinates": [-70.2491546, 43.658055], "type": "Point"}, "id": "yDoxIvdpJpLuXEXhaff8wSjlxqY=", "properties": {"@source_uri": "https://tools.usps.com/UspsToolsRestServices/rest/POLocator/findLocations", "@spider": "usps_collection_boxes", "addr:city": "PORTLAND", "addr:country": "US", "addr:postcode": "04101", "addr:state": "ME", "addr:street_address": "40 COMMERCIAL ST", "amenity": "post_box", "collection_times": "Mo-Fr 13:00", "note": "ON 12/24 AND 12/31, THIS BOX MAY BE COLLECTED AS EARLY AS 12 NOON.", "nsi_id": "unitedstatespostalservice-a77078", "operator": "United States Postal Service", "operator:short": "USPS", "operator:type": "public", "operator:wikidata": "Q668687", "ref": "0410100154"}, "type": "Feature"}
{"geometry": {"coordinates": [-70.26633, 43.657984], "type": "Point"}, "id": "Xkr9qX6l60Ul5ozq-usnuv4TnvU=", "properties": {"@source_uri": "https://tools.usps.com/UspsToolsRestServices/rest/POLocator/findLocations", "@spider": "usps_collection_boxes", "addr:city": "PORTLAND", "addr:country": "US", "addr:postcode": "04101", "addr:state": "ME", "addr:street_address": "125 FOREST AVE", "amenity": "post_box", "collection_times": "Mo-Fr 17:00; Sa 14:25", "name": "USPS COLLECTION BOX - APC", "note": "ON 12/24 AND 12/31, THIS BOX MAY BE COLLECTED AS EARLY AS 12 NOON.", "nsi_id": "unitedstatespostalservice-a77078", "operator": "United States Postal Service", "operator:short": "USPS", "operator:type": "public", "operator:wikidata": "Q668687", "ref": "0410100157"}, "type": "Feature"}
{"geometry": {"coordinates": [-70.188057, 43.670367], "type": "Point"}, "id": "8W2qr1A4iLtJugvQTO5Zom9stzs=", "properties": {"@source_uri": "https://tools.usps.com/UspsToolsRestServices/rest/POLocator/findLocations", "@spider": "usps_collection_boxes", "addr:city": "PORTLAND", "addr:country": "US", "addr:postcode": "04101", "addr:state": "ME", "addr:street_address": "15 COTTAGE RD", "amenity": "post_box", "collection_times": "Mo-Fr 17:00; Sa 12:00", "name": "USPS COLLECTION BOX - APC", "note": "ON 12/24 AND 12/31, THIS BOX MAY BE COLLECTED AS EARLY AS 12 NOON.", "nsi_id": "unitedstatespostalservice-a77078", "operator": "United States Postal Service", "operator:short": "USPS", "operator:type": "public", "operator:wikidata": "Q668687", "ref": "0410100158"}, "type": "Feature"}
{"geometry": {"coordinates": [-70.26633, 43.657984], "type": "Point"}, "id": "mxJcJ9a1x8Nt38_LPBxLNWmB-2w=", "properties": {"@source_uri": "https://tools.usps.com/UspsToolsRestServices/rest/POLocator/findLocations", "@spider": "usps_collection_boxes", "addr:city": "PORTLAND", "addr:country": "US", "addr:postcode": "04101", "addr:state": "ME", "addr:street_address": "125 FOREST AVE", "amenity": "post_box", "collection_times": "Mo-Fr 17:00; Sa 14:25", "indoor": "yes", "note": "ON 12/24 AND 12/31, THIS BOX MAY BE COLLECTED AS EARLY AS 12 NOON.", "nsi_id": "unitedstatespostalservice-a77078", "operator": "United States Postal Service", "operator:short": "USPS", "operator:type": "public", "operator:wikidata": "Q668687", "ref": "0410100159"}, "type": "Feature"}
{"geometry": {"coordinates": [-70.264364, 43.653551], "type": "Point"}, "id": "LexC1QVsid3GHswsF3xLHCuVLkM=", "properties": {"@source_uri": "https://tools.usps.com/UspsToolsRestServices/rest/POLocator/findLocations", "@spider": "usps_collection_boxes", "addr:city": "PORTLAND", "addr:country": "US", "addr:postcode": "04101", "addr:state": "ME", "addr:street_address": "622 CONGRESS ST", "amenity": "post_box", "collection_times": "Mo-Fr 17:00; Sa 12:00", "indoor": "yes", "note": "ON 12/24 AND 12/31, THIS BOX MAY BE COLLECTED AS EARLY AS 12 NOON.", "nsi_id": "unitedstatespostalservice-a77078", "operator": "United States Postal Service", "operator:short": "USPS", "operator:type": "public", "operator:wikidata": "Q668687", "ref": "0410100160"}, "type": "Feature"}
{"geometry": {"coordinates": [-70.257337, 43.658499], "type": "Point"}, "id": "FJ4ZoE9Jx4mxfr3BT_SsHqjStdc=", "properties": {"@source_uri": "https://tools.usps.com/UspsToolsRestServices/rest/POLocator/findLocations", "@spider": "usps_collection_boxes", "addr:city": "PORTLAND", "addr:country": "US", "addr:postcode": "04101", "addr:state": "ME", "addr:street_address": "400 CONGRESS ST", "amenity": "post_box", "collection_times": "Mo-Fr 17:30; Sa 13:00", "indoor": "yes", "note": "ON 12/24 AND 12/31, THIS BOX MAY BE COLLECTED AS EARLY AS 12 NOON.", "nsi_id": "unitedstatespostalservice-a77078", "operator": "United States Postal Service", "operator:short": "USPS", "operator:type": "public", "operator:wikidata": "Q668687", "ref": "0410100161"}, "type": "Feature"}
{"geometry": {"coordinates": [-70.257337, 43.658499], "type": "Point"}, "id": "rCx16sf9YGuZkYMszKdLfnyZrTM=", "properties": {"@source_uri": "https://tools.usps.com/UspsToolsRestServices/rest/POLocator/findLocations", "@spider": "usps_collection_boxes", "addr:city": "PORTLAND", "addr:country": "US", "addr:postcode": "04101", "addr:state": "ME", "addr:street_address": "400 CONGRESS ST", "amenity": "post_box", "collection_times": "Mo-Fr 17:30; Sa 13:00", "indoor": "yes", "note": "ON 12/24 AND 12/31, THIS BOX MAY BE COLLECTED AS EARLY AS 12 NOON.", "nsi_id": "unitedstatespostalservice-a77078", "operator": "United States Postal Service", "operator:short": "USPS", "operator:type": "public", "operator:wikidata": "Q668687", "ref": "0410100162"}, "type": "Feature"}
{"geometry": {"coordinates": [-70.257337, 43.658499], "type": "Point"}, "id": "nTMZ51qTX5G8nFWnenJmDfyCJ7Q=", "properties": {"@source_uri": "https://tools.usps.com/UspsToolsRestServices/rest/POLocator/findLocations", "@spider": "usps_collection_boxes", "addr:city": "PORTLAND", "addr:country": "US", "addr:postcode": "04101", "addr:state": "ME", "addr:street_address": "400 CONGRESS ST", "amenity": "post_box", "collection_times": "Mo-Fr 17:30; Sa 13:00", "indoor": "yes", "note": "ON 12/24 AND 12/31, THIS BOX MAY BE COLLECTED AS EARLY AS 12 NOON.", "nsi_id": "unitedstatespostalservice-a77078", "operator": "United States Postal Service", "operator:short": "USPS", "operator:type": "public", "operator:wikidata": "Q668687", "ref": "0410100163"}, "type": "Feature"}
{"geometry": {"coordinates": [-70.257337, 43.658499], "type": "Point"}, "id": "9yVY1YD9ZV0QNO_Gh5nSAk9DNMI=", "properties": {"@source_uri": "https://tools.usps.com/UspsToolsRestServices/rest/POLocator/findLocations", "@spider": "usps_collection_boxes", "addr:city": "PORTLAND", "addr:country": "US", "addr:postcode": "04101", "addr:state": "ME", "addr:street_address": "400 CONGRESS ST", "amenity": "post_box", "collection_times": "Mo-Fr 17:30; Sa 13:00", "indoor": "yes", "note": "ON 12/24 AND 12/31, THIS BOX MAY BE COLLECTED AS EARLY AS 12 NOON.", "nsi_id": "unitedstatespostalservice-a77078", "operator": "United States Postal Service", "operator:short": "USPS", "operator:type": "public", "operator:wikidata": "Q668687", "ref": "0410100164"}, "type": "Feature"}
{"geometry": {"coordinates": [-70.26671922, 43.658438093], "type": "Point"}, "id": "KZPb1otdmtTxIVKIux6pHwdW8mc=", "properties": {"@source_uri": "https://tools.usps.com/UspsToolsRestServices/rest/POLocator/findLocations", "@spider": "usps_collection_boxes", "addr:city": "PORTLAND", "addr:country": "US", "addr:postcode": "04101", "addr:state": "ME", "addr:street_address": "125 FOREST AVE", "amenity": "post_box", "collection_times": "Mo-Fr 18:00", "indoor": "yes", "note": "ON 12/24 AND 12/31, THIS BOX MAY BE COLLECTED AS EARLY AS 12 NOON.", "nsi_id": "unitedstatespostalservice-a77078", "operator": "United States Postal Service", "operator:short": "USPS", "operator:type": "public", "operator:wikidata": "Q668687", "ref": "0410100168"}, "type": "Feature"}
{"geometry": {"coordinates": [-70.257165661, 43.658822044], "type": "Point"}, "id": "SJsQvN7khpiyoc6x7bP4h4-jMd8=", "properties": {"@source_uri": "https://tools.usps.com/UspsToolsRestServices/rest/POLocator/findLocations", "@spider": "usps_collection_boxes", "addr:city": "PORTLAND", "addr:country": "US", "addr:postcode": "04101", "addr:state": "ME", "addr:street_address": "400 CONGRESS ST STE 9998", "amenity": "post_box", "collection_times": "Mo-Fr 17:30; Sa 13:00", "indoor": "yes", "note": "ON 12/24 AND 12/31, THIS BOX MAY BE COLLECTED AS EARLY AS 12 NOON.", "nsi_id": "unitedstatespostalservice-a77078", "operator": "United States Postal Service", "operator:short": "USPS", "operator:type": "public", "operator:wikidata": "Q668687", "ref": "0410100169"}, "type": "Feature"}
{"geometry": {"coordinates": [-70.264035503, 43.653652021], "type": "Point"}, "id": "Pi0Ha282aCLded2QraCD0JgNyTE=", "properties": {"@source_uri": "https://tools.usps.com/UspsToolsRestServices/rest/POLocator/findLocations", "@spider": "usps_collection_boxes", "addr:city": "PORTLAND", "addr:country": "US", "addr:postcode": "04101", "addr:state": "ME", "addr:street_address": "622 CONGRESS ST STE 9998", "amenity": "post_box", "collection_times": "Mo-Fr 17:00; Sa 12:00", "indoor": "yes", "note": "ON 12/24 AND 12/31, THIS BOX MAY BE COLLECTED AS EARLY AS 12 NOON.", "nsi_id": "unitedstatespostalservice-a77078", "operator": "United States Postal Service", "operator:short": "USPS", "operator:type": "public", "operator:wikidata": "Q668687", "ref": "0410100170"}, "type": "Feature"}
{"geometry": {"coordinates": [-70.2745384, 43.651322], "type": "Point"}, "id": "f4oZ7_pdZUX-pW3kLoyLsfkR8jE=", "properties": {"@source_uri": "https://tools.usps.com/UspsToolsRestServices/rest/POLocator/findLocations", "@spider": "usps_collection_boxes", "addr:city": "PORTLAND", "addr:country": "US", "addr:postcode": "04102", "addr:state": "ME", "addr:street_address": "131 CHADWICK ST", "amenity": "post_box", "collection_times": "Mo-Fr 10:30; Sa 11:00", "nsi_id": "unitedstatespostalservice-a77078", "operator": "United States Postal Service", "operator:short": "USPS", "operator:type": "public", "operator:wikidata": "Q668687", "ref": "0410200002"}, "type": "Feature"}
{"geometry": {"coordinates": [-70.2838894, 43.654763], "type": "Point"}, "id": "boM01tI1wPREdcSqU7agoI0z0KI=", "properties": {"@source_uri": "https://tools.usps.com/UspsToolsRestServices/rest/POLocator/findLocations", "@spider": "usps_collection_boxes", "addr:city": "PORTLAND", "addr:country": "US", "addr:postcode": "04102", "addr:state": "ME", "addr:street_address": "15 LOWELL ST", "amenity": "post_box", "collection_times": "Mo-Fr 09:00", "nsi_id": "unitedstatespostalservice-a77078", "operator": "United States Postal Service", "operator:short": "USPS", "operator:type": "public", "operator:wikidata": "Q668687", "ref": "0410200003"}, "type": "Feature"}
{"geometry": {"coordinates": [-70.2731049, 43.651983], "type": "Point"}, "id": "nkysUvu5qnT7BX9mWrnZJlRPWo4=", "properties": {"@source_uri": "https://tools.usps.com/UspsToolsRestServices/rest/POLocator/findLocations", "@spider": "usps_collection_boxes", "addr:city": "PORTLAND", "addr:country": "US", "addr:postcode": "04102", "addr:state": "ME", "addr:street_address": "229 VAUGHAN ST", "amenity": "post_box", "collection_times": "Mo-Fr 12:30", "note": "ON 12/24 AND 12/31, THIS BOX MAY BE COLLECTED AS EARLY AS 12 NOON.", "nsi_id": "unitedstatespostalservice-a77078", "operator": "United States Postal Service", "operator:short": "USPS", "operator:type": "public", "operator:wikidata": "Q668687", "ref": "0410200006"}, "type": "Feature"}
{"geometry": {"coordinates": [-70.2782937, 43.655745], "type": "Point"}, "id": "D-8F6slvMlnVZJ4fzhc2jpKjNNM=", "properties": {"@source_uri": "https://tools.usps.com/UspsToolsRestServices/rest/POLocator/findLocations", "@spider": "usps_collection_boxes", "addr:city": "PORTLAND", "addr:country": "US", "addr:postcode": "04102", "addr:state": "ME", "addr:street_address": "272 PARK AVE", "amenity": "post_box", "collection_times": "Mo-Fr 08:00; Sa 08:30", "nsi_id": "unitedstatespostalservice-a77078", "operator": "United States Postal Service", "operator:short": "USPS", "operator:type": "public", "operator:wikidata": "Q668687", "ref": "0410200011"}, "type": "Feature"}
{"geometry": {"coordinates": [-70.2917219, 43.665845], "type": "Point"}, "id": "00KcMcUKtfSAwLZVtelAI9-ev6U=", "properties": {"@source_uri": "https://tools.usps.com/UspsToolsRestServices/rest/POLocator/findLocations", "@spider": "usps_collection_boxes", "addr:city": "PORTLAND", "addr:country": "US", "addr:postcode": "04102", "addr:state": "ME", "addr:street_address": "335 BRIGHTON AVE", "amenity": "post_box", "collection_times": "Mo-Fr 09:30; Sa 10:00", "nsi_id": "unitedstatespostalservice-a77078", "operator": "United States Postal Service", "operator:short": "USPS", "operator:type": "public", "operator:wikidata": "Q668687", "ref": "0410200013"}, "type": "Feature"}
{"geometry": {"coordinates": [-70.267993, 43.652987], "type": "Point"}, "id": "rdEWB7NgvF8HLxh11LVm1JgrMV4=", "properties": {"@source_uri": "https://tools.usps.com/UspsToolsRestServices/rest/POLocator/findLocations", "@spider": "usps_collection_boxes", "addr:city": "PORTLAND", "addr:country": "US", "addr:postcode": "04102", "addr:state": "ME", "addr:street_address": "696 CONGRESS ST", "amenity": "post_box", "collection_times": "Mo-Fr 12:30", "note": "ON 12/24 AND 12/31, THIS BOX MAY BE COLLECTED AS EARLY AS 12 NOON.", "nsi_id": "unitedstatespostalservice-a77078", "operator": "United States Postal Service", "operator:short": "USPS", "operator:type": "public", "operator:wikidata": "Q668687", "ref": "0410200014"}, "type": "Feature"}
{"geometry": {"coordinates": [-70.287736239, 43.6642656357], "type": "Point"}, "id": "kUCggVju8z5uhw-Q8dC3fiCGDQY=", "properties": {"@source_uri": "https://tools.usps.com/UspsToolsRestServices/rest/POLocator/findLocations", "@spider": "usps_collection_boxes", "addr:city": "PORTLAND", "addr:country": "US", "addr:postcode": "04102", "addr:state": "ME", "addr:street_address": "242 BRIGHTON AVE", "amenity": "post_box", "collection_times": "Mo-Fr 10:00; Sa 10:30", "nsi_id": "unitedstatespostalservice-a77078", "operator": "United States Postal Service", "operator:short": "USPS", "operator:type": "public", "operator:wikidata": "Q668687", "ref": "0410200020"}, "type": "Feature"}
{"geometry": {"coordinates": [-70.3022392, 43.668834], "type": "Point"}, "id": "9oN75cWN1m8PE3Q6W0EeJwQr6rE=", "properties": {"@source_uri": "https://tools.usps.com/UspsToolsRestServices/rest/POLocator/findLocations", "@spider": "usps_collection_boxes", "addr:city": "PORTLAND", "addr:country": "US", "addr:postcode": "04102", "addr:state": "ME", "addr:street_address": "580 BRIGHTON AVE", "amenity": "post_box", "collection_times": "Mo-Fr 08:00; Sa 08:30", "nsi_id": "unitedstatespostalservice-a77078", "operator": "United States Postal Service", "operator:short": "USPS", "operator:type": "public", "operator:wikidata": "Q668687", "ref": "0410200021"}, "type": "Feature"}
{"geometry": {"coordinates": [-70.2682952, 43.651396], "type": "Point"}, "id": "XBaqL23eRfroi1hx2GMFhh4O8KE=", "properties": {"@source_uri": "https://tools.usps.com/UspsToolsRestServices/rest/POLocator/findLocations", "@spider": "usps_collection_boxes", "addr:city": "PORTLAND", "addr:country": "US", "addr:postcode": "04102", "addr:state": "ME", "addr:street_address": "46 PINE ST", "amenity": "post_box", "collection_times": "Mo-Fr 09:30; Sa 10:00", "nsi_id": "unitedstatespostalservice-a77078", "operator": "United States Postal Service", "operator:short": "USPS", "operator:type": "public", "operator:wikidata": "Q668687", "ref": "0410200026"}, "type": "Feature"}
{"geometry": {"coordinates": [-70.2731337, 43.649643], "type": "Point"}, "id": "LX2v_b2nv7F5wPXbEvbzp0f6v-k=", "properties": {"@source_uri": "https://tools.usps.com/UspsToolsRestServices/rest/POLocator/findLocations", "@spider": "usps_collection_boxes", "addr:city": "PORTLAND", "addr:country": "US", "addr:postcode": "04102", "addr:state": "ME", "addr:street_address": "161 PINE ST", "amenity": "post_box", "collection_times": "Mo-Fr 08:30", "nsi_id": "unitedstatespostalservice-a77078", "operator": "United States Postal Service", "operator:short": "USPS", "operator:type": "public", "operator:wikidata": "Q668687", "ref": "0410200028"}, "type": "Feature"}
{"geometry": {"coordinates": [-70.2662195, 43.649141], "type": "Point"}, "id": "nTXnVKfb1JTtr3Gacm-YcBVlvGc=", "properties": {"@source_uri": "https://tools.usps.com/UspsToolsRestServices/rest/POLocator/findLocations", "@spider": "usps_collection_boxes", "addr:city": "PORTLAND", "addr:country": "US", "addr:postcode": "04102", "addr:state": "ME", "addr:street_address": "236 SPRING ST", "amenity": "post_box", "collection_times": "Mo-Fr 10:45; Sa 10:30", "nsi_id": "unitedstatespostalservice-a77078", "operator": "United States Postal Service", "operator:short": "USPS", "operator:type": "public", "operator:wikidata": "Q668687", "ref": "0410200029"}, "type": "Feature"}
{"geometry": {"coordinates": [-70.2648499, 43.650828], "type": "Point"}, "id": "vx6-E3YTqahlSKlnfrgfIUASyd8=", "properties": {"@source_uri": "https://tools.usps.com/UspsToolsRestServices/rest/POLocator/findLocations", "@spider": "usps_collection_boxes", "addr:city": "PORTLAND", "addr:country": "US", "addr:postcode": "04102", "addr:state": "ME", "addr:street_address": "187 SPRING ST", "amenity": "post_box", "collection_times": "Mo-Fr 09:00; Sa 10:00", "nsi_id": "unitedstatespostalservice-a77078", "operator": "United States Postal Service", "operator:short": "USPS", "operator:type": "public", "operator:wikidata": "Q668687", "ref": "0410200031"}, "type": "Feature"}
{"geometry": {"coordinates": [-70.2718379, 43.650863], "type": "Point"}, "id": "ECRELJsYly6NFPVIwnDHJgIPnm4=", "properties": {"@source_uri": "https://tools.usps.com/UspsToolsRestServices/rest/POLocator/findLocations", "@spider": "usps_collection_boxes", "addr:city": "PORTLAND", "addr:country": "US", "addr:postcode": "04102", "addr:state": "ME", "addr:street_address": "53 WEST ST", "amenity": "post_box", "collection_times": "Mo-Fr 10:30; Sa 11:15", "nsi_id": "unitedstatespostalservice-a77078", "operator": "United States Postal Service", "operator:short": "USPS", "operator:type": "public", "operator:wikidata": "Q668687", "ref": "0410200033"}, "type": "Feature"}
{"geometry": {"coordinates": [-70.2975305, 43.657984], "type": "Point"}, "id": "bk-puFjhpZwlp7dh7Hjoxih6Sdg=", "properties": {"@source_uri": "https://tools.usps.com/UspsToolsRestServices/rest/POLocator/findLocations", "@spider": "usps_collection_boxes", "addr:city": "PORTLAND", "addr:country": "US", "addr:postcode": "04102", "addr:state": "ME", "addr:street_address": "1400 CONGRESS ST", "amenity": "post_box", "collection_times": "Mo-Sa 13:00", "note": "ON 12/24 AND 12/31, THIS BOX MAY BE COLLECTED AS EARLY AS 12 NOON.", "nsi_id": "unitedstatespostalservice-a77078", "operator": "United States Postal Service", "operator:short": "USPS", "operator:type": "public", "operator:wikidata": "Q668687", "ref": "0410200034"}, "type": "Feature"}
{"geometry": {"coordinates": [-70.3101994, 43.659431], "type": "Point"}, "id": "8ePoSdwmndBz9Ijj1o7iW1-UBU4=", "properties": {"@source_uri": "https://tools.usps.com/UspsToolsRestServices/rest/POLocator/findLocations", "@spider": "usps_collection_boxes", "addr:city": "PORTLAND", "addr:country": "US", "addr:postcode": "04102", "addr:state": "ME", "addr:street_address": "1685 CONGRESS ST", "amenity": "post_box", "collection_times": "Mo-Fr 09:00", "nsi_id": "unitedstatespostalservice-a77078", "operator": "United States Postal Service", "operator:short": "USPS", "operator:type": "public", "operator:wikidata": "Q668687", "ref": "0410200042"}, "type": "Feature"}
{"geometry": {"coordinates": [-70.2739024, 43.656186], "type": "Point"}, "id": "7Fs7q2I9MupYwFkpBKZbgIT44-A=", "properties": {"@source_uri": "https://tools.usps.com/UspsToolsRestServices/rest/POLocator/findLocations", "@spider": "usps_collection_boxes", "addr:city": "PORTLAND", "addr:country": "US", "addr:postcode": "04102", "addr:state": "ME", "addr:street_address": "180 PARK AVE", "amenity": "post_box", "collection_times": "Mo-Fr 08:30", "nsi_id": "unitedstatespostalservice-a77078", "operator": "United States Postal Service", "operator:short": "USPS", "operator:type": "public", "operator:wikidata": "Q668687", "ref": "0410200043"}, "type": "Feature"}
{"geometry": {"coordinates": [-70.3372505, 43.651403], "type": "Point"}, "id": "VVkijCUiGMk-tWn5UOjIRzlOaMY=", "properties": {"@source_uri": "https://tools.usps.com/UspsToolsRestServices/rest/POLocator/findLocations", "@spider": "usps_collection_boxes", "addr:city": "PORTLAND", "addr:country": "US", "addr:postcode": "04102", "addr:state": "ME", "addr:street_address": "16 HUTCHINS DR", "amenity": "post_box", "collection_times": "Mo-Fr 11:00", "nsi_id": "unitedstatespostalservice-a77078", "operator": "United States Postal Service", "operator:short": "USPS", "operator:type": "public", "operator:wikidata": "Q668687", "ref": "0410200044"}, "type": "Feature"}
{"geometry": {"coordinates": [-70.2917819, 43.655694], "type": "Point"}, "id": "wb7U1y2e5Df2WtEpgDTe9AyZyG4=", "properties": {"@source_uri": "https://tools.usps.com/UspsToolsRestServices/rest/POLocator/findLocations", "@spider": "usps_collection_boxes", "addr:city": "PORTLAND", "addr:country": "US", "addr:postcode": "04102", "addr:state": "ME", "addr:street_address": "51 SEWALL ST", "amenity": "post_box", "collection_times": "Mo-Fr 10:00", "nsi_id": "unitedstatespostalservice-a77078", "operator": "United States Postal Service", "operator:short": "USPS", "operator:type": "public", "operator:wikidata": "Q668687", "ref": "0410200046"}, "type": "Feature"}
{"geometry": {"coordinates": [-70.2891317, 43.656221], "type": "Point"}, "id": "3Fzyq9JwKHPqRPcYh89ULED3W7c=", "properties": {"@source_uri": "https://tools.usps.com/UspsToolsRestServices/rest/POLocator/findLocations", "@spider": "usps_collection_boxes", "addr:city": "PORTLAND", "addr:country": "US", "addr:postcode": "04102", "addr:state": "ME", "addr:street_address": "1200 CONGRESS ST", "amenity": "post_box", "collection_times": "Mo-Fr 10:30; Sa 08:30", "nsi_id": "unitedstatespostalservice-a77078", "operator": "United States Postal Service", "operator:short": "USPS", "operator:type": "public", "operator:wikidata": "Q668687", "ref": "0410200047"}, "type": "Feature"}
{"geometry": {"coordinates": [-70.2913752, 43.654221], "type": "Point"}, "id": "pACmlGAwLtRSmDwNWYq2q6xOwxg=", "properties": {"@source_uri": "https://tools.usps.com/UspsToolsRestServices/rest/POLocator/findLocations", "@spider": "usps_collection_boxes", "addr:city": "PORTLAND", "addr:country": "US", "addr:postcode": "04102", "addr:state": "ME", "addr:street_address": "100 SEWALL ST", "amenity": "post_box", "collection_times": "Mo-Fr 10:30; Sa 11:00", "nsi_id": "unitedstatespostalservice-a77078", "operator": "United States Postal Service", "operator:short": "USPS", "operator:type": "public", "operator:wikidata": "Q668687", "ref": "0410200050"}, "type": "Feature"}
{"geometry": {"coordinates": [-70.2825416, 43.649267], "type": "Point"}, "id": "OjM9CzQhUPPGofQ9-JnOoUa-Uoc=", "properties": {"@source_uri": "https://tools.usps.com/UspsToolsRestServices/rest/POLocator/findLocations", "@spider": "usps_collection_boxes", "addr:city": "PORTLAND", "addr:country": "US", "addr:postcode": "04102", "addr:state": "ME", "addr:street_address": "195 FORE RIVER PKWY", "amenity": "post_box", "collection_times": "Mo-Fr 10:00", "nsi_id": "unitedstatespostalservice-a77078", "operator": "United States Postal Service", "operator:short": "USPS", "operator:type": "public", "operator:wikidata": "Q668687", "ref": "0410200051"}, "type": "Feature"}
{"geometry": {"coordinates": [-70.2791207, 43.65136], "type": "Point"}, "id": "WEEyH3r5oNHiX8l4C-CThbsDU70=", "properties": {"@source_uri": "https://tools.usps.com/UspsToolsRestServices/rest/POLocator/findLocations", "@spider": "usps_collection_boxes", "addr:city": "PORTLAND", "addr:country": "US", "addr:postcode": "04102", "addr:state": "ME", "addr:street_address": "242 SAINT JOHN ST", "amenity": "post_box", "collection_times": "Mo-Fr 11:30; Sa 12:00", "nsi_id": "unitedstatespostalservice-a77078", "operator": "United States Postal Service", "operator:short": "USPS", "operator:type": "public", "operator:wikidata": "Q668687", "ref": "0410200052"}, "type": "Feature"}
{"geometry": {"coordinates": [-70.3106752, 43.647679], "type": "Point"}, "id": "9VA9cOAc0jEW5A2EVPiVVz6pPJg=", "properties": {"@source_uri": "https://tools.usps.com/UspsToolsRestServices/rest/POLocator/findLocations", "@spider": "usps_collection_boxes", "addr:city": "PORTLAND", "addr:country": "US", "addr:postcode": "04102", "addr:state": "ME", "addr:street_address": "1001 WESTBROOK ST", "amenity": "post_box", "collection_times": "Mo-Fr 12:00; Sa 08:30", "nsi_id": "unitedstatespostalservice-a77078", "operator": "United States Postal Service", "operator:short": "USPS", "operator:type": "public", "operator:wikidata": "Q668687", "ref": "0410200053"}, "type": "Feature"}
{"geometry": {"coordinates": [-70.334554999, 43.651534987], "type": "Point"}, "id": "yhKMFyJBRxkGnY2lOBuP7mmGMr8=", "properties": {"@source_uri": "https://tools.usps.com/UspsToolsRestServices/rest/POLocator/findLocations", "@spider": "usps_collection_boxes", "addr:city": "PORTLAND", "addr:country": "US", "addr:postcode": "04102", "addr:state": "ME", "addr:street_address": "2301 CONGRESS ST", "amenity": "post_box", "collection_times": "Mo-Fr 09:30", "nsi_id": "unitedstatespostalservice-a77078", "operator": "United States Postal Service", "operator:short": "USPS", "operator:type": "public", "operator:wikidata": "Q668687", "ref": "0410200056"}, "type": "Feature"}
{"geometry": {"coordinates": [-70.3280699, 43.68304], "type": "Point"}, "id": "muKeydhRqH_5l4gvxF0Y3prWgC0=", "properties": {"@source_uri": "https://tools.usps.com/UspsToolsRestServices/rest/POLocator/findLocations", "@spider": "usps_collection_boxes", "addr:city": "PORTLAND", "addr:country": "US", "addr:postcode": "04103", "addr:state": "ME", "addr:street_address": "190 RIVERSIDE ST", "amenity": "post_box", "collection_times": "Mo-Fr 10:30; Sa 10:00", "nsi_id": "unitedstatespostalservice-a77078", "operator": "United States Postal Service", "operator:short": "USPS", "operator:type": "public", "operator:wikidata": "Q668687", "ref": "0410300004"}, "type": "Feature"}
{"geometry": {"coordinates": [-70.2952118, 43.674148], "type": "Point"}, "id": "Nmu4It8LeTr-OEtIjeBLcWhLBlU=", "properties": {"@source_uri": "https://tools.usps.com/UspsToolsRestServices/rest/POLocator/findLocations", "@spider": "usps_collection_boxes", "addr:city": "PORTLAND", "addr:country": "US", "addr:postcode": "04103", "addr:state": "ME", "addr:street_address": "459 STEVENS AVE", "amenity": "post_box", "collection_times": "Mo-Fr 09:30; Sa 10:00", "nsi_id": "unitedstatespostalservice-a77078", "operator": "United States Postal Service", "operator:short": "USPS", "operator:type": "public", "operator:wikidata": "Q668687", "ref": "0410300009"}, "type": "Feature"}
{"geometry": {"coordinates": [-70.2937424, 43.684943], "type": "Point"}, "id": "DvYwDaTYbCUVaSN_foqy7D41Qjg=", "properties": {"@source_uri": "https://tools.usps.com/UspsToolsRestServices/rest/POLocator/findLocations", "@spider": "usps_collection_boxes", "addr:city": "PORTLAND", "addr:country": "US", "addr:postcode": "04103", "addr:state": "ME", "addr:street_address": "772 STEVENS AVE", "amenity": "post_box", "collection_times": "Mo-Fr 13:30", "note": "ON 12/24 AND 12/31, THIS BOX MAY BE COLLECTED AS EARLY AS 12 NOON.", "nsi_id": "unitedstatespostalservice-a77078", "operator": "United States Postal Service", "operator:short": "USPS", "operator:type": "public", "operator:wikidata": "Q668687", "ref": "0410300012"}, "type": "Feature"}
{"geometry": {"coordinates": [-70.3063061919, 43.6965403325], "type": "Point"}, "id": "c5UiLWq0f4UtVNbwT5nB2zmAkj0=", "properties": {"@source_uri": "https://tools.usps.com/UspsToolsRestServices/rest/POLocator/findLocations", "@spider": "usps_collection_boxes", "addr:city": "PORTLAND", "addr:country": "US", "addr:postcode": "04103", "addr:state": "ME", "addr:street_address": "1566 FOREST AVE", "amenity": "post_box", "collection_times": "Mo-Sa 09:00", "nsi_id": "unitedstatespostalservice-a77078", "operator": "United States Postal Service", "operator:short": "USPS", "operator:type": "public", "operator:wikidata": "Q668687", "ref": "0410300028"}, "type": "Feature"}
{"geometry": {"coordinates": [-70.2884969, 43.70245], "type": "Point"}, "id": "aAlmUVksozCFihT8F9eIGPsNkB8=", "properties": {"@source_uri": "https://tools.usps.com/UspsToolsRestServices/rest/POLocator/findLocations", "@spider": "usps_collection_boxes", "addr:city": "PORTLAND", "addr:country": "US", "addr:postcode": "04103", "addr:state": "ME", "addr:street_address": "79 AUBURN ST", "amenity": "post_box", "collection_times": "Mo-Fr 10:30; Sa 11:00", "nsi_id": "unitedstatespostalservice-a77078", "operator": "United States Postal Service", "operator:short": "USPS", "operator:type": "public", "operator:wikidata": "Q668687", "ref": "0410300030"}, "type": "Feature"}
{"geometry": {"coordinates": [-70.2887766, 43.704578], "type": "Point"}, "id": "HfdE_ukKqQZtExL7Qfqspmwh6Bo=", "properties": {"@source_uri": "https://tools.usps.com/UspsToolsRestServices/rest/POLocator/findLocations", "@spider": "usps_collection_boxes", "addr:city": "PORTLAND", "addr:country": "US", "addr:postcode": "04103", "addr:state": "ME", "addr:street_address": "89 AUBURN ST", "amenity": "post_box", "collection_times": "Mo-Sa 09:30", "nsi_id": "unitedstatespostalservice-a77078", "operator": "United States Postal Service", "operator:short": "USPS", "operator:type": "public", "operator:wikidata": "Q668687", "ref": "0410300033"}, "type": "Feature"}
{"geometry": {"coordinates": [-70.2599966, 43.685511], "type": "Point"}, "id": "yRdzqrM_AAGQmgD2GXpS6_SjLEo=", "properties": {"@source_uri": "https://tools.usps.com/UspsToolsRestServices/rest/POLocator/findLocations", "@spider": "usps_collection_boxes", "addr:city": "PORTLAND", "addr:country": "US", "addr:postcode": "04103", "addr:state": "ME", "addr:street_address": "125 PRESUMPSCOT ST", "amenity": "post_box", "collection_times": "Mo-Fr 09:00", "nsi_id": "unitedstatespostalservice-a77078", "operator": "United States Postal Service", "operator:short": "USPS", "operator:type": "public", "operator:wikidata": "Q668687", "ref": "0410300037"}, "type": "Feature"}
{"geometry": {"coordinates": [-70.2689442, 43.686311], "type": "Point"}, "id": "kQW17BBAVzMAEzV1XUOjJlqaAhg=", "properties": {"@source_uri": "https://tools.usps.com/UspsToolsRestServices/rest/POLocator/findLocations", "@spider": "usps_collection_boxes", "addr:city": "PORTLAND", "addr:country": "US", "addr:postcode": "04103", "addr:state": "ME", "addr:street_address": "811 WASHINGTON AVE", "amenity": "post_box", "collection_times": "Mo-Fr 10:30; Sa 11:00", "nsi_id": "unitedstatespostalservice-a77078", "operator": "United States Postal Service", "operator:short": "USPS", "operator:type": "public", "operator:wikidata": "Q668687", "ref": "0410300044"}, "type": "Feature"}
{"geometry": {"coordinates": [-70.2865444, 43.698142], "type": "Point"}, "id": "oL3H7UZ_wfMhhDyabUX8pKC3UmE=", "properties": {"@source_uri": "https://tools.usps.com/UspsToolsRestServices/rest/POLocator/findLocations", "@spider": "usps_collection_boxes", "addr:city": "PORTLAND", "addr:country": "US", "addr:postcode": "04103", "addr:state": "ME", "addr:street_address": "1321 WASHINGTON AVE", "amenity": "post_box", "collection_times": "Mo-Fr 09:00; Sa 09:30", "nsi_id": "unitedstatespostalservice-a77078", "operator": "United States Postal Service", "operator:short": "USPS", "operator:type": "public", "operator:wikidata": "Q668687", "ref": "0410300052"}, "type": "Feature"}
{"geometry": {"coordinates": [-70.3143444, 43.70014], "type": "Point"}, "id": "fD2RaH2UNEjB7UHDPm3Dx2_TtTY=", "properties": {"@source_uri": "https://tools.usps.com/UspsToolsRestServices/rest/POLocator/findLocations", "@spider": "usps_collection_boxes", "addr:city": "PORTLAND", "addr:country": "US", "addr:postcode": "04103", "addr:state": "ME", "addr:street_address": "10 RIVERSIDE INDUSTRIAL PKWY", "amenity": "post_box", "collection_times": "Mo-Fr 09:30; Sa 10:00", "nsi_id": "unitedstatespostalservice-a77078", "operator": "United States Postal Service", "operator:short": "USPS", "operator:type": "public", "operator:wikidata": "Q668687", "ref": "0410300054"}, "type": "Feature"}
{"geometry": {"coordinates": [-70.3160643, 43.707945], "type": "Point"}, "id": "hO0U_YSTuuZOo94oFX3-CByvJLI=", "properties": {"@source_uri": "https://tools.usps.com/UspsToolsRestServices/rest/POLocator/findLocations", "@spider": "usps_collection_boxes", "addr:city": "PORTLAND", "addr:country": "US", "addr:postcode": "04103", "addr:state": "ME", "addr:street_address": "2 EVERGREEN DR", "amenity": "post_box", "collection_times": "Mo-Fr 09:30; Sa 08:30", "nsi_id": "unitedstatespostalservice-a77078", "operator": "United States Postal Service", "operator:short": "USPS", "operator:type": "public", "operator:wikidata": "Q668687", "ref": "0410300059"}, "type": "Feature"}
{"geometry": {"coordinates": [-70.3120729, 43.687556], "type": "Point"}, "id": "Ycnf3RoSEhWpKEId9asgzQDRxyE=", "properties": {"@source_uri": "https://tools.usps.com/UspsToolsRestServices/rest/POLocator/findLocations", "@spider": "usps_collection_boxes", "addr:city": "PORTLAND", "addr:country": "US", "addr:postcode": "04103", "addr:state": "ME", "addr:street_address": "343 WARREN AVE", "amenity": "post_box", "collection_times": "Mo-Fr 09:00; Sa 09:30", "nsi_id": "unitedstatespostalservice-a77078", "operator": "United States Postal Service", "operator:short": "USPS", "operator:type": "public", "operator:wikidata": "Q668687", "ref": "0410300060"}, "type": "Feature"}
{"geometry": {"coordinates": [-70.2896506, 43.68129], "type": "Point"}, "id": "WiCsvmWQETK20WyoWSdXZEHqnxs=", "properties": {"@source_uri": "https://tools.usps.com/UspsToolsRestServices/rest/POLocator/findLocations", "@spider": "usps_collection_boxes", "addr:city": "PORTLAND", "addr:country": "US", "addr:postcode": "04103", "addr:state": "ME", "addr:street_address": "985 FOREST AVE", "amenity": "post_box", "collection_times": "Mo-Fr 14:30; Sa 14:00", "note": "ON 12/24 AND 12/31, THIS BOX MAY BE COLLECTED AS EARLY AS 12 NOON.", "nsi_id": "unitedstatespostalservice-a77078", "operator": "United States Postal Service", "operator:short": "USPS", "operator:type": "public", "operator:wikidata": "Q668687", "ref": "0410300063"}, "type": "Feature"}
{"geometry": {"coordinates": [-70.2965499, 43.731257], "type": "Point"}, "id": "jnScJeE86C9389HzweKkrGwVC44=", "properties": {"@source_uri": "https://tools.usps.com/UspsToolsRestServices/rest/POLocator/findLocations", "@spider": "usps_collection_boxes", "addr:city": "PORTLAND", "addr:country": "US", "addr:postcode": "04105", "addr:state": "ME", "addr:street_address": "50 GRAY RD", "amenity": "post_box", "collection_times": "Mo-Sa 08:30", "nsi_id": "unitedstatespostalservice-a77078", "operator": "United States Postal Service", "operator:short": "USPS", "operator:type": "public", "operator:wikidata": "Q668687", "ref": "0410500001"}, "type": "Feature"}
{"geometry": {"coordinates": [-70.2229176, 43.738407], "type": "Point"}, "id": "nicycvpQJiR237vlrLzo8PwI1KM=", "properties": {"@source_uri": "https://tools.usps.com/UspsToolsRestServices/rest/POLocator/findLocations", "@spider": "usps_collection_boxes", "addr:city": "PORTLAND", "addr:country": "US", "addr:postcode": "04105", "addr:state": "ME", "addr:street_address": "366 US ROUTE 1", "amenity": "post_box", "collection_times": "Mo-Fr 09:00", "nsi_id": "unitedstatespostalservice-a77078", "operator": "United States Postal Service", "operator:short": "USPS", "operator:type": "public", "operator:wikidata": "Q668687", "ref": "0410500002"}, "type": "Feature"}
{"geometry": {"coordinates": [-70.2302679, 43.724032], "type": "Point"}, "id": "-5DQYy9dE0OocC1eHoCWMIYwN7c=", "properties": {"@source_uri": "https://tools.usps.com/UspsToolsRestServices/rest/POLocator/findLocations", "@spider": "usps_collection_boxes", "addr:city": "PORTLAND", "addr:country": "US", "addr:postcode": "04105", "addr:state": "ME", "addr:street_address": "251 US ROUTE 1", "amenity": "post_box", "collection_times": "Mo-Fr 08:30; Sa 09:00", "nsi_id": "unitedstatespostalservice-a77078", "operator": "United States Postal Service", "operator:short": "USPS", "operator:type": "public", "operator:wikidata": "Q668687", "ref": "0410500004"}, "type": "Feature"}
{"geometry": {"coordinates": [-70.2345643, 43.71949], "type": "Point"}, "id": "Ea5rsAEoYbJG-eIEDd56sbA1uUo=", "properties": {"@source_uri": "https://tools.usps.com/UspsToolsRestServices/rest/POLocator/findLocations", "@spider": "usps_collection_boxes", "addr:city": "PORTLAND", "addr:country": "US", "addr:postcode": "04105", "addr:state": "ME", "addr:street_address": "206 US ROUTE 1", "amenity": "post_box", "collection_times": "Mo-Fr 10:00; Sa 10:30", "nsi_id": "unitedstatespostalservice-a77078", "operator": "United States Postal Service", "operator:short": "USPS", "operator:type": "public", "operator:wikidata": "Q668687", "ref": "0410500011"}, "type": "Feature"}
{"geometry": {"coordinates": [-70.2080129, 43.734643], "type": "Point"}, "id": "6W0PstlmaFJklbYs0cDOXbg0Mxg=", "properties": {"@source_uri": "https://tools.usps.com/UspsToolsRestServices/rest/POLocator/findLocations", "@spider": "usps_collection_boxes", "addr:city": "PORTLAND", "addr:country": "US", "addr:postcode": "04105", "addr:state": "ME", "addr:street_address": "269 FORESIDE RD", "amenity": "post_box", "collection_times": "Mo-Sa 13:00", "note": "ON 12/24 AND 12/31, THIS BOX MAY BE COLLECTED AS EARLY AS 12 NOON.", "nsi_id": "unitedstatespostalservice-a77078", "operator": "United States Postal Service", "operator:short": "USPS", "operator:type": "public", "operator:wikidata": "Q668687", "ref": "0410500012"}, "type": "Feature"}
{"geometry": {"coordinates": [-70.2343864, 43.713025], "type": "Point"}, "id": "e_xFtjcILgkUfDopl-CEMaJ4v44=", "properties": {"@source_uri": "https://tools.usps.com/UspsToolsRestServices/rest/POLocator/findLocations", "@spider": "usps_collection_boxes", "addr:city": "PORTLAND", "addr:country": "US", "addr:postcode": "04105", "addr:state": "ME", "addr:street_address": "170 US ROUTE 1", "amenity": "post_box", "collection_times": "Mo-Fr 11:30", "nsi_id": "unitedstatespostalservice-a77078", "operator": "United States Postal Service", "operator:short": "USPS", "operator:type": "public", "operator:wikidata": "Q668687", "ref": "0410500016"}, "type": "Feature"}
{"geometry": {"coordinates": [-70.2941327, 43.733941], "type": "Point"}, "id": "DmlkZs676iC1sv87lOfoi4KvkkE=", "properties": {"@source_uri": "https://tools.usps.com/UspsToolsRestServices/rest/POLocator/findLocations", "@spider": "usps_collection_boxes", "addr:city": "PORTLAND", "addr:country": "US", "addr:postcode": "04105", "addr:state": "ME", "addr:street_address": "65 GRAY RD", "amenity": "post_box", "collection_times": "Mo-Sa 09:00", "nsi_id": "unitedstatespostalservice-a77078", "operator": "United States Postal Service", "operator:short": "USPS", "operator:type": "public", "operator:wikidata": "Q668687", "ref": "0410500017"}, "type": "Feature"}
{"geometry": {"coordinates": [-70.2560292, 43.635236], "type": "Point"}, "id": "UlOuPxWFrlvRPWw4gZpGd7pltO0=", "properties": {"@source_uri": "https://tools.usps.com/UspsToolsRestServices/rest/POLocator/findLocations", "@spider": "usps_collection_boxes", "addr:city": "PORTLAND", "addr:country": "US", "addr:postcode": "04106", "addr:state": "ME", "addr:street_address": "220 WATERMAN DR", "amenity": "post_box", "collection_times": "Mo-Fr 14:45; Sa 13:00", "note": "ON 12/24 AND 12/31, THIS BOX MAY BE COLLECTED AS EARLY AS 12 NOON.", "nsi_id": "unitedstatespostalservice-a77078", "operator": "United States Postal Service", "operator:short": "USPS", "operator:type": "public", "operator:wikidata": "Q668687", "ref": "0410600004"}, "type": "Feature"}
{"geometry": {"coordinates": [-70.2522019624, 43.6376685107], "type": "Point"}, "id": "CErtJVICzvXKYaUAPPRfMtPwGL8=", "properties": {"@source_uri": "https://tools.usps.com/UspsToolsRestServices/rest/POLocator/findLocations", "@spider": "usps_collection_boxes", "addr:city": "PORTLAND", "addr:country": "US", "addr:postcode": "04106", "addr:state": "ME", "addr:street_address": "15 COTTAGE RD", "amenity": "post_box", "collection_times": "Mo-Fr 16:45; Sa 13:00", "note": "ON 12/24 AND 12/31, THIS BOX MAY BE COLLECTED AS EARLY AS 12 NOON.", "nsi_id": "unitedstatespostalservice-a77078", "operator": "United States Postal Service", "operator:short": "USPS", "operator:type": "public", "operator:wikidata": "Q668687", "ref": "0410600006"}, "type": "Feature"}
{"geometry": {"coordinates": [-70.2505739, 43.637612], "type": "Point"}, "id": "raYp5TeRQH6RayMGb9MxU0VnqiI=", "properties": {"@source_uri": "https://tools.usps.com/UspsToolsRestServices/rest/POLocator/findLocations", "@spider": "usps_collection_boxes", "addr:city": "PORTLAND", "addr:country": "US", "addr:postcode": "04106", "addr:state": "ME", "addr:street_address": "50 COTTAGE RD", "amenity": "post_box", "collection_times": "Mo-Fr 08:45; Sa 09:15", "nsi_id": "unitedstatespostalservice-a77078", "operator": "United States Postal Service", "operator:short": "USPS", "operator:type": "public", "operator:wikidata": "Q668687", "ref": "0410600010"}, "type": "Feature"}
{"geometry": {"coordinates": [-70.3157711, 43.634521], "type": "Point"}, "id": "NFoPcfPDvZhooqvPRnZA3AwyYuk=", "properties": {"@source_uri": "https://tools.usps.com/UspsToolsRestServices/rest/POLocator/findLocations", "@spider": "usps_collection_boxes", "addr:city": "PORTLAND", "addr:country": "US", "addr:postcode": "04106", "addr:state": "ME", "addr:street_address": "29 WESTERN AVE", "amenity": "post_box", "collection_times": "Mo-Sa 08:30", "nsi_id": "unitedstatespostalservice-a77078", "operator": "United States Postal Service", "operator:short": "USPS", "operator:type": "public", "operator:wikidata": "Q668687", "ref": "0410600016"}, "type": "Feature"}
{"geometry": {"coordinates": [-70.2476625, 43.6346128], "type": "Point"}, "id": "DAN8uxQlAz7rzrTbhyG-SO8p_ns=", "properties": {"@source_uri": "https://tools.usps.com/UspsToolsRestServices/rest/POLocator/findLocations", "@spider": "usps_collection_boxes", "addr:city": "PORTLAND", "addr:country": "US", "addr:postcode": "04106", "addr:state": "ME", "addr:street_address": "367 COTTAGE RD", "amenity": "post_box", "collection_times": "Mo-Fr 08:30; Sa 09:00", "nsi_id": "unitedstatespostalservice-a77078", "operator": "United States Postal Service", "operator:short": "USPS", "operator:type": "public", "operator:wikidata": "Q668687", "ref": "0410600018"}, "type": "Feature"}
{"geometry": {"coordinates": [-70.3282027, 43.64235], "type": "Point"}, "id": "_qisfh0aAkX2YxalVNS1xLzmESI=", "properties": {"@source_uri": "https://tools.usps.com/UspsToolsRestServices/rest/POLocator/findLocations", "@spider": "usps_collection_boxes", "addr:city": "PORTLAND", "addr:country": "US", "addr:postcode": "04106", "addr:state": "ME", "addr:street_address": "405 WESTERN AVE", "amenity": "post_box", "collection_times": "Mo-Fr 08:30", "nsi_id": "unitedstatespostalservice-a77078", "operator": "United States Postal Service", "operator:short": "USPS", "operator:type": "public", "operator:wikidata": "Q668687", "ref": "0410600021"}, "type": "Feature"}
{"geometry": {"coordinates": [-70.3090808, 43.616636], "type": "Point"}, "id": "v16S1I74xeAwhirlPpJKkWZ2wmw=", "properties": {"@source_uri": "https://tools.usps.com/UspsToolsRestServices/rest/POLocator/findLocations", "@spider": "usps_collection_boxes", "addr:city": "PORTLAND", "addr:country": "US", "addr:postcode": "04106", "addr:state": "ME", "addr:street_address": "778 MAIN ST", "amenity": "post_box", "collection_times": "Mo-Fr 10:00; Sa 10:30", "nsi_id": "unitedstatespostalservice-a77078", "operator": "United States Postal Service", "operator:short": "USPS", "operator:type": "public", "operator:wikidata": "Q668687", "ref": "0410600033"}, "type": "Feature"}
{"geometry": {"coordinates": [-70.3121018, 43.614513], "type": "Point"}, "id": "d2OnC0gN361Je4hJ8b4F8y8x5XA=", "properties": {"@source_uri": "https://tools.usps.com/UspsToolsRestServices/rest/POLocator/findLocations", "@spider": "usps_collection_boxes", "addr:city": "PORTLAND", "addr:country": "US", "addr:postcode": "04106", "addr:state": "ME", "addr:street_address": "853 MAIN ST", "amenity": "post_box", "collection_times": "Mo-Sa 08:15", "nsi_id": "unitedstatespostalservice-a77078", "operator": "United States Postal Service", "operator:short": "USPS", "operator:type": "public", "operator:wikidata": "Q668687", "ref": "0410600035"}, "type": "Feature"}
{"geometry": {"coordinates": [-70.277311, 43.627982], "type": "Point"}, "id": "GsEl1jcj7p4HLjj8OIxorelRKK4=", "properties": {"@source_uri": "https://tools.usps.com/UspsToolsRestServices/rest/POLocator/findLocations", "@spider": "usps_collection_boxes", "addr:city": "PORTLAND", "addr:country": "US", "addr:postcode": "04106", "addr:state": "ME", "addr:street_address": "1108 BROADWAY", "amenity": "post_box", "collection_times": "Mo-Fr 10:00; Sa 10:30", "nsi_id": "unitedstatespostalservice-a77078", "operator": "United States Postal Service", "operator:short": "USPS", "operator:type": "public", "operator:wikidata": "Q668687", "ref": "0410600036"}, "type": "Feature"}
{"geometry": {"coordinates": [-70.3283939, 43.638246], "type": "Point"}, "id": "wYQAG1rCzpRlwccvI4oDQPXPtL4=", "properties": {"@source_uri": "https://tools.usps.com/UspsToolsRestServices/rest/POLocator/findLocations", "@spider": "usps_collection_boxes", "addr:city": "PORTLAND", "addr:country": "US", "addr:postcode": "04106", "addr:state": "ME", "addr:street_address": "35 ATLANTIC PL", "amenity": "post_box", "collection_times": "Mo-Fr 09:30; Sa 10:00", "nsi_id": "unitedstatespostalservice-a77078", "operator": "United States Postal Service", "operator:short": "USPS", "operator:type": "public", "operator:wikidata": "Q668687", "ref": "0410600041"}, "type": "Feature"}
{"geometry": {"coordinates": [-70.3284205, 43.629841], "type": "Point"}, "id": "sfGnhUyUihz7scCEMAJ_b_0UkZc=", "properties": {"@source_uri": "https://tools.usps.com/UspsToolsRestServices/rest/POLocator/findLocations", "@spider": "usps_collection_boxes", "addr:city": "PORTLAND", "addr:country": "US", "addr:postcode": "04106", "addr:state": "ME", "addr:street_address": "9 DONALD B DEAN DR", "amenity": "post_box", "collection_times": "Mo-Fr 10:30", "nsi_id": "unitedstatespostalservice-a77078", "operator": "United States Postal Service", "operator:short": "USPS", "operator:type": "public", "operator:wikidata": "Q668687", "ref": "0410600048"}, "type": "Feature"}
{"geometry": {"coordinates": [-70.3349685, 43.633512], "type": "Point"}, "id": "JI00wPSeasb0PEpgeWorF0_AA50=", "properties": {"@source_uri": "https://tools.usps.com/UspsToolsRestServices/rest/POLocator/findLocations", "@spider": "usps_collection_boxes", "addr:city": "PORTLAND", "addr:country": "US", "addr:postcode": "04106", "addr:state": "ME", "addr:street_address": "364 MAINE MALL RD", "amenity": "post_box", "collection_times": "Mo-Fr 10:00; Sa 10:30", "nsi_id": "unitedstatespostalservice-a77078", "operator": "United States Postal Service", "operator:short": "USPS", "operator:type": "public", "operator:wikidata": "Q668687", "ref": "0410600057"}, "type": "Feature"}
{"geometry": {"coordinates": [-70.2525564427, 43.637983551], "type": "Point"}, "id": "Tb_h0CrCQoxRGT5YGRumm_lV9Tc=", "properties": {"@source_uri": "https://tools.usps.com/UspsToolsRestServices/rest/POLocator/findLocations", "@spider": "usps_collection_boxes", "addr:city": "PORTLAND", "addr:country": "US", "addr:postcode": "04106", "addr:state": "ME", "addr:street_address": "5 COTTAGE RD", "amenity": "post_box", "collection_times": "Mo-Sa 13:00", "note": "ON 12/24 AND 12/31, THIS BOX MAY BE COLLECTED AS EARLY AS 12 NOON.", "nsi_id": "unitedstatespostalservice-a77078", "operator": "United States Postal Service", "operator:short": "USPS", "operator:type": "public", "operator:wikidata": "Q668687", "ref": "0410600063"}, "type": "Feature"}
{"geometry": {"coordinates": [-70.3106335, 43.629204], "type": "Point"}, "id": "s4os84DUnZv7ZpQ_ISAVGvXwZpw=", "properties": {"@source_uri": "https://tools.usps.com/UspsToolsRestServices/rest/POLocator/findLocations", "@spider": "usps_collection_boxes", "addr:city": "PORTLAND", "addr:country": "US", "addr:postcode": "04106", "addr:state": "ME", "addr:street_address": "314 WESTBROOK ST", "amenity": "post_box", "collection_times": "Mo-Fr 08:15", "nsi_id": "unitedstatespostalservice-a77078", "operator": "United States Postal Service", "operator:short": "USPS", "operator:type": "public", "operator:wikidata": "Q668687", "ref": "0410600068"}, "type": "Feature"}
{"geometry": {"coordinates": [-70.3289929, 43.634392], "type": "Point"}, "id": "CgMOrEUa62ID75lQKmAuGlqk-aw=", "properties": {"@source_uri": "https://tools.usps.com/UspsToolsRestServices/rest/POLocator/findLocations", "@spider": "usps_collection_boxes", "addr:city": "PORTLAND", "addr:country": "US", "addr:postcode": "04106", "addr:state": "ME", "addr:street_address": "415 PHILBROOK AVE", "amenity": "post_box", "collection_times": "Mo-Fr 10:30; Sa 11:00", "nsi_id": "unitedstatespostalservice-a77078", "operator": "United States Postal Service", "operator:short": "USPS", "operator:type": "public", "operator:wikidata": "Q668687", "ref": "0410600070"}, "type": "Feature"}
{"geometry": {"coordinates": [-70.3007423, 43.623652], "type": "Point"}, "id": "caBgX9GYMfuotRk_rU4FZh7SBCc=", "properties": {"@source_uri": "https://tools.usps.com/UspsToolsRestServices/rest/POLocator/findLocations", "@spider": "usps_collection_boxes", "addr:city": "PORTLAND", "addr:country": "US", "addr:postcode": "04106", "addr:state": "ME", "addr:street_address": "557 MAIN ST", "amenity": "post_box", "collection_times": "Mo-Fr 07:30; Sa 08:00", "nsi_id": "unitedstatespostalservice-a77078", "operator": "United States Postal Service", "operator:short": "USPS", "operator:type": "public", "operator:wikidata": "Q668687", "ref": "0410600072"}, "type": "Feature"}
{"geometry": {"coordinates": [-70.3214566, 43.635794], "type": "Point"}, "id": "WZBR8Eq3e7bV4xRrQqnbrWh9_8M=", "properties": {"@source_uri": "https://tools.usps.com/UspsToolsRestServices/rest/POLocator/findLocations", "@spider": "usps_collection_boxes", "addr:city": "PORTLAND", "addr:country": "US", "addr:postcode": "04106", "addr:state": "ME", "addr:street_address": "192 WESTERN AVE", "amenity": "post_box", "collection_times": "Mo-Fr 10:00", "nsi_id": "unitedstatespostalservice-a77078", "operator": "United States Postal Service", "operator:short": "USPS", "operator:type": "public", "operator:wikidata": "Q668687", "ref": "0410600073"}, "type": "Feature"}
{"geometry": {"coordinates": [-70.2860492, 43.63683], "type": "Point"}, "id": "4eQlzRPWz1jsoXCIO8VCoWgTe5M=", "properties": {"@source_uri": "https://tools.usps.com/UspsToolsRestServices/rest/POLocator/findLocations", "@spider": "usps_collection_boxes", "addr:city": "PORTLAND", "addr:country": "US", "addr:postcode": "04106", "addr:state": "ME", "addr:street_address": "59 MAIN ST", "amenity": "post_box", "collection_times": "Mo-Fr 12:00; Sa 12:30", "note": "ON 12/24 AND 12/31, THIS BOX MAY BE COLLECTED AS EARLY AS 12 NOON.", "nsi_id": "unitedstatespostalservice-a77078", "operator": "United States Postal Service", "operator:short": "USPS", "operator:type": "public", "operator:wikidata": "Q668687", "ref": "0410600074"}, "type": "Feature"}
{"geometry": {"coordinates": [-70.3349761, 43.627356], "type": "Point"}, "id": "hkec6HLvv-0LRbjeObLBHuOdxis=", "properties": {"@source_uri": "https://tools.usps.com/UspsToolsRestServices/rest/POLocator/findLocations", "@spider": "usps_collection_boxes", "addr:city": "PORTLAND", "addr:country": "US", "addr:postcode": "04106", "addr:state": "ME", "addr:street_address": "600 SOUTHBOROUGH DR", "amenity": "post_box", "collection_times": "Mo-Fr 09:30; Sa 10:00", "nsi_id": "unitedstatespostalservice-a77078", "operator": "United States Postal Service", "operator:short": "USPS", "operator:type": "public", "operator:wikidata": "Q668687", "ref": "0410600077"}, "type": "Feature"}
{"geometry": {"coordinates": [-70.3273183, 43.62932], "type": "Point"}, "id": "WJeEhby0ycUTYDxtCAruXOS0AmY=", "properties": {"@source_uri": "https://tools.usps.com/UspsToolsRestServices/rest/POLocator/findLocations", "@spider": "usps_collection_boxes", "addr:city": "PORTLAND", "addr:country": "US", "addr:postcode": "04106", "addr:state": "ME", "addr:street_address": "170 JOHN ROBERTS RD", "amenity": "post_box", "collection_times": "Mo-Fr 10:30", "nsi_id": "unitedstatespostalservice-a77078", "operator": "United States Postal Service", "operator:short": "USPS", "operator:type": "public", "operator:wikidata": "Q668687", "ref": "0410600083"}, "type": "Feature"}
{"geometry": {"coordinates": [-70.3405581, 43.642345], "type": "Point"}, "id": "0l-iwEtlKB4Ip8HhseV15YmRGZ0=", "properties": {"@source_uri": "https://tools.usps.com/UspsToolsRestServices/rest/POLocator/findLocations", "@spider": "usps_collection_boxes", "addr:city": "PORTLAND", "addr:country": "US", "addr:postcode": "04106", "addr:state": "ME", "addr:street_address": "707 SABLE OAKS DR", "amenity": "post_box", "collection_times": "Mo-Fr 08:30", "nsi_id": "unitedstatespostalservice-a77078", "operator": "United States Postal Service", "operator:short": "USPS", "operator:type": "public", "operator:wikidata": "Q668687", "ref": "0410600084"}, "type": "Feature"}
{"geometry": {"coordinates": [-70.3425139, 43.636002], "type": "Point"}, "id": "PKA1xl_d9Pm_zzdmWPfe7_iMKNE=", "properties": {"@source_uri": "https://tools.usps.com/UspsToolsRestServices/rest/POLocator/findLocations", "@spider": "usps_collection_boxes", "addr:city": "PORTLAND", "addr:country": "US", "addr:postcode": "04106", "addr:state": "ME", "addr:street_address": "82 RUNNING HILL RD", "amenity": "post_box", "collection_times": "Mo-Fr 08:00", "nsi_id": "unitedstatespostalservice-a77078", "operator": "United States Postal Service", "operator:short": "USPS", "operator:type": "public", "operator:wikidata": "Q668687", "ref": "0410600085"}, "type": "Feature"}
{"geometry": {"coordinates": [-70.3543452, 43.641752], "type": "Point"}, "id": "Gu1WKvZ155kgfdPyWZs0F3sk7OU=", "properties": {"@source_uri": "https://tools.usps.com/UspsToolsRestServices/rest/POLocator/findLocations", "@spider": "usps_collection_boxes", "addr:city": "PORTLAND", "addr:country": "US", "addr:postcode": "04106", "addr:state": "ME", "addr:street_address": "324 GANNETT DR STE 200", "amenity": "post_box", "collection_times": "Mo-Fr 10:00; Sa 10:30", "nsi_id": "unitedstatespostalservice-a77078", "operator": "United States Postal Service", "operator:short": "USPS", "operator:type": "public", "operator:wikidata": "Q668687", "ref": "0410600086"}, "type": "Feature"}
{"geometry": {"coordinates": [-70.2531147, 43.635676], "type": "Point"}, "id": "McWA3yr3Ro4JR9jd6eUNx1OT2II=", "properties": {"@source_uri": "https://tools.usps.com/UspsToolsRestServices/rest/POLocator/findLocations", "@spider": "usps_collection_boxes", "addr:city": "PORTLAND", "addr:country": "US", "addr:postcode": "04106", "addr:state": "ME", "addr:street_address": "50 MARKET ST", "amenity": "post_box", "collection_times": "Mo-Fr 14:45; Sa 13:00", "note": "ON 12/24 AND 12/31, THIS BOX MAY BE COLLECTED AS EARLY AS 12 NOON.", "nsi_id": "unitedstatespostalservice-a77078", "operator": "United States Postal Service", "operator:short": "USPS", "operator:type": "public", "operator:wikidata": "Q668687", "ref": "0410600088"}, "type": "Feature"}
{"geometry": {"coordinates": [-70.25215, 43.637814], "type": "Point"}, "id": "7EQ5oDeB8_Z83_LAgLfSnziYObI=", "properties": {"@source_uri": "https://tools.usps.com/UspsToolsRestServices/rest/POLocator/findLocations", "@spider": "usps_collection_boxes", "addr:city": "PORTLAND", "addr:country": "US", "addr:postcode": "04106", "addr:state": "ME", "addr:street_address": "15 COTTAGE RD", "amenity": "post_box", "collection_times": "Mo-Fr 17:00; Sa 12:00", "indoor": "yes", "note": "ON 12/24 AND 12/31, THIS BOX MAY BE COLLECTED AS EARLY AS 12 NOON.", "nsi_id": "unitedstatespostalservice-a77078", "operator": "United States Postal Service", "operator:short": "USPS", "operator:type": "public", "operator:wikidata": "Q668687", "ref": "0410600089"}, "type": "Feature"}
{"geometry": {"coordinates": [-70.327342958, 43.636270996], "type": "Point"}, "id": "SPy2Ac4NwLY-8nH9C5L7sQesV5M=", "properties": {"@source_uri": "https://tools.usps.com/UspsToolsRestServices/rest/POLocator/findLocations", "@spider": "usps_collection_boxes", "addr:city": "PORTLAND", "addr:country": "US", "addr:postcode": "04106", "addr:state": "ME", "addr:street_address": "100 FODEN RD", "amenity": "post_box", "collection_times": "Mo-Fr 09:30", "nsi_id": "unitedstatespostalservice-a77078", "operator": "United States Postal Service", "operator:short": "USPS", "operator:type": "public", "operator:wikidata": "Q668687", "ref": "0410600090"}, "type": "Feature"}
{"geometry": {"coordinates": [-70.252142621, 43.637780924], "type": "Point"}, "id": "Ir7ODsp4k1A5KAF0bIEgN9GOgtQ=", "properties": {"@source_uri": "https://tools.usps.com/UspsToolsRestServices/rest/POLocator/findLocations", "@spider": "usps_collection_boxes", "addr:city": "PORTLAND", "addr:country": "US", "addr:postcode": "04106", "addr:state": "ME", "addr:street_address": "15 COTTAGE RD", "amenity": "post_box", "collection_times": "Mo-Fr 17:00; Sa 12:00", "indoor": "yes", "note": "ON 12/24 AND 12/31, THIS BOX MAY BE COLLECTED AS EARLY AS 12 NOON.", "nsi_id": "unitedstatespostalservice-a77078", "operator": "United States Postal Service", "operator:short": "USPS", "operator:type": "public", "operator:wikidata": "Q668687", "ref": "0410600097"}, "type": "Feature"}
{"geometry": {"coordinates": [-70.226955, 43.593233], "type": "Point"}, "id": "ogimm13v-d5lBnlKodxl92In9fY=", "properties": {"@source_uri": "https://tools.usps.com/UspsToolsRestServices/rest/POLocator/findLocations", "@spider": "usps_collection_boxes", "addr:city": "PORTLAND", "addr:country": "US", "addr:postcode": "04107", "addr:state": "ME", "addr:street_address": "333 OCEAN HOUSE RD", "amenity": "post_box", "collection_times": "Mo-Fr 09:45", "nsi_id": "unitedstatespostalservice-a77078", "operator": "United States Postal Service", "operator:short": "USPS", "operator:type": "public", "operator:wikidata": "Q668687", "ref": "0410700003"}, "type": "Feature"}
{"geometry": {"coordinates": [-70.2273478, 43.59528], "type": "Point"}, "id": "x_KoR_dUifjLHndNefONueboDqI=", "properties": {"@source_uri": "https://tools.usps.com/UspsToolsRestServices/rest/POLocator/findLocations", "@spider": "usps_collection_boxes", "addr:city": "PORTLAND", "addr:country": "US", "addr:postcode": "04107", "addr:state": "ME", "addr:street_address": "320 OCEAN HOUSE RD", "amenity": "post_box", "collection_times": "Mo-Fr 09:45; Sa 13:00", "note": "ON 12/24 AND 12/31, THIS BOX MAY BE COLLECTED AS EARLY AS 12 NOON.", "nsi_id": "unitedstatespostalservice-a77078", "operator": "United States Postal Service", "operator:short": "USPS", "operator:type": "public", "operator:wikidata": "Q668687", "ref": "0410700006"}, "type": "Feature"}
{"geometry": {"coordinates": [-70.1981827, 43.656128], "type": "Point"}, "id": "1a446nwcrj5eqdhO5mc3W9X8Rx4=", "properties": {"@source_uri": "https://tools.usps.com/UspsToolsRestServices/rest/POLocator/findLocations", "@spider": "usps_collection_boxes", "addr:city": "PEAKS ISLAND", "addr:country": "US", "addr:postcode": "04108", "addr:state": "ME", "addr:street_address": "70 ISLAND AVE", "amenity": "post_box", "collection_times": "Mo-Fr 14:15; Sa 12:00", "note": "ON 12/24 AND 12/31, THIS BOX MAY BE COLLECTED AS EARLY AS 12 NOON.", "nsi_id": "unitedstatespostalservice-a77078", "operator": "United States Postal Service", "operator:short": "USPS", "operator:type": "public", "operator:wikidata": "Q668687", "ref": "0410800000"}, "type": "Feature"}
{"geometry": {"coordinates": [-70.1981319814, 43.65617898], "type": "Point"}, "id": "TmPzPXNkPz7DC6jfiZclQ1o7e3k=", "properties": {"@source_uri": "https://tools.usps.com/UspsToolsRestServices/rest/POLocator/findLocations", "@spider": "usps_collection_boxes", "addr:city": "PEAKS ISLAND", "addr:country": "US", "addr:postcode": "04108", "addr:state": "ME", "addr:street_address": "70 ISLAND AVE", "amenity": "post_box", "collection_times": "Mo-Fr 14:15; Sa 12:00", "indoor": "yes", "note": "ON 12/24 AND 12/31, THIS BOX MAY BE COLLECTED AS EARLY AS 12 NOON.", "nsi_id": "unitedstatespostalservice-a77078", "operator": "United States Postal Service", "operator:short": "USPS", "operator:type": "public", "operator:wikidata": "Q668687", "ref": "0410800001"}, "type": "Feature"}
{"geometry": {"coordinates": [-70.192395, 43.658657], "type": "Point"}, "id": "tl-FaiDZTrpjM5zDyYE4W3fFGkQ=", "properties": {"@source_uri": "https://tools.usps.com/UspsToolsRestServices/rest/POLocator/findLocations", "@spider": "usps_collection_boxes", "addr:city": "PEAKS ISLAND", "addr:country": "US", "addr:postcode": "04108", "addr:state": "ME", "addr:street_address": "70 ISLAND AVE", "amenity": "post_box", "collection_times": "Mo-Fr 14:15; Sa 12:00", "indoor": "yes", "note": "ON 12/24 AND 12/31, THIS BOX MAY BE COLLECTED AS EARLY AS 12 NOON.", "nsi_id": "unitedstatespostalservice-a77078", "operator": "United States Postal Service", "operator:short": "USPS", "operator:type": "public", "operator:wikidata": "Q668687", "ref": "0410800002"}, "type": "Feature"}
