{"geometry": {"coordinates": [-70.231415, 44.099565], "type": "Point"}, "id": "WX-fZvmBw6_sUJFwVloGg7Mf6Zs=", "properties": {"@source_uri": "https://tools.usps.com/UspsToolsRestServices/rest/POLocator/findLocations", "@spider": "usps_collection_boxes", "addr:city": "AUBURN", "addr:country": "US", "addr:postcode": "04210", "addr:state": "ME", "addr:street_address": "9 N RIVER RD", "amenity": "post_box", "collection_times": "Mo-Sa 09:00", "nsi_id": "unitedstatespostalservice-a77078", "operator": "United States Postal Service", "operator:short": "USPS", "operator:type": "public", "operator:wikidata": "Q668687", "ref": "0421000025"}, "type": "Feature"}
{"geometry": {"coordinates": [-70.2294435, 44.096241], "type": "Point"}, "id": "czIs3SvA3vZdNo-xx1BfA7Mg2Xk=", "properties": {"@source_uri": "https://tools.usps.com/UspsToolsRestServices/rest/POLocator/findLocations", "@spider": "usps_collection_boxes", "addr:city": "AUBURN", "addr:country": "US", "addr:postcode": "04210", "addr:state": "ME", "addr:street_address": "95 SPRING ST", "amenity": "post_box", "collection_times": "Mo-Sa 09:00", "nsi_id": "unitedstatespostalservice-a77078", "operator": "United States Postal Service", "operator:short": "USPS", "operator:type": "public", "operator:wikidata": "Q668687", "ref": "0421000031"}, "type": "Feature"}
{"geometry": {"coordinates": [-70.2270507, 44.09758], "type": "Point"}, "id": "EEouhXUUw2KPgQwx0cSpgoqK53U=", "properties": {"@source_uri": "https://tools.usps.com/UspsToolsRestServices/rest/POLocator/findLocations", "@spider": "usps_collection_boxes", "addr:city": "AUBURN", "addr:country": "US", "addr:postcode": "04210", "addr:state": "ME", "addr:street_address": "2 TURNER ST", "amenity": "post_box", "collection_times": "Mo-Fr 10:00", "nsi_id": "unitedstatespostalservice-a77078", "operator": "United States Postal Service", "operator:short": "USPS", "operator:type": "public", "operator:wikidata": "Q668687", "ref": "0421000034"}, "type": "Feature"}
{"geometry": {"coordinates": [-70.2256439, 44.098944], "type": "Point"}, "id": "RAAWZQCHlAfjuQ9yOVed7i-wgDo=", "properties": {"@source_uri": "https://tools.usps.com/UspsToolsRestServices/rest/POLocator/findLocations", "@spider": "usps_collection_boxes", "addr:city": "AUBURN", "addr:country": "US", "addr:postcode": "04210", "addr:state": "ME", "addr:street_address": "2 GREAT FALLS PLZ", "amenity": "post_box", "collection_times": "Mo-Sa 09:45", "nsi_id": "unitedstatespostalservice-a77078", "operator": "United States Postal Service", "operator:short": "USPS", "operator:type": "public", "operator:wikidata": "Q668687", "ref": "0421000039"}, "type": "Feature"}
{"geometry": {"coordinates": [-70.2248422, 44.098045], "type": "Point"}, "id": "fvjMeGAcGh2sP_X2c0nnL3KBq_Q=", "properties": {"@source_uri": "https://tools.usps.com/UspsToolsRestServices/rest/POLocator/findLocations", "@spider": "usps_collection_boxes", "addr:city": "AUBURN", "addr:country": "US", "addr:postcode": "04210", "addr:state": "ME", "addr:street_address": "1 GREAT FALLS PLZ", "amenity": "post_box", "collection_times": "Mo-Sa 09:45", "nsi_id": "unitedstatespostalservice-a77078", "operator": "United States Postal Service", "operator:short": "USPS", "operator:type": "public", "operator:wikidata": "Q668687", "ref": "0421000040"}, "type": "Feature"}
{"geometry": {"coordinates": [-70.231415, 44.099565], "type": "Point"}, "id": "bDcrig4tHyiy793U4KFRg7IM1j4=", "properties": {"@source_uri": "https://tools.usps.com/UspsToolsRestServices/rest/POLocator/findLocations", "@spider": "usps_collection_boxes", "addr:city": "AUBURN", "addr:country": "US", "addr:postcode": "04210", "addr:state": "ME", "addr:street_address": "95 MAIN ST", "amenity": "post_box", "collection_times": "Mo-Sa 09:00", "nsi_id": "unitedstatespostalservice-a77078", "operator": "United States Postal Service", "operator:short": "USPS", "operator:type": "public", "operator:wikidata": "Q668687", "ref": "0421000044"}, "type": "Feature"}
{"geometry": {"coordinates": [-70.231415, 44.099565], "type": "Point"}, "id": "RTqg-Ya6_Z7YDEoiiFwyPwhH9nA=", "properties": {"@source_uri": "https://tools.usps.com/UspsToolsRestServices/rest/POLocator/findLocations", "@spider": "usps_collection_boxes", "addr:city": "AUBURN", "addr:country": "US", "addr:postcode": "04210", "addr:state": "ME", "addr:street_address": "258 RODMAN RD", "amenity": "post_box", "collection_times": "Mo-Sa 17:30", "note": "ON 12/24 AND 12/31, THIS BOX MAY BE COLLECTED AS EARLY AS 12 NOON.", "nsi_id": "unitedstatespostalservice-a77078", "operator": "United States Postal Service", "operator:short": "USPS", "operator:type": "public", "operator:wikidata": "Q668687", "ref": "0421000059"}, "type": "Feature"}
{"geometry": {"coordinates": [-70.2926429, 44.048905], "type": "Point"}, "id": "_xanL-Tg5lXEAzs8UIhtddHrE9A=", "properties": {"@source_uri": "https://tools.usps.com/UspsToolsRestServices/rest/POLocator/findLocations", "@spider": "usps_collection_boxes", "addr:city": "AUBURN", "addr:country": "US", "addr:postcode": "04210", "addr:state": "ME", "addr:street_address": "42 AVIATION AVE", "amenity": "post_box", "collection_times": "Mo-Fr 09:30; Sa 09:00", "nsi_id": "unitedstatespostalservice-a77078", "operator": "United States Postal Service", "operator:short": "USPS", "operator:type": "public", "operator:wikidata": "Q668687", "ref": "0421000064"}, "type": "Feature"}
{"geometry": {"coordinates": [-70.2261085, 44.124076], "type": "Point"}, "id": "kgYuO0LfS8uzaI3OTmw-ZlrVAaw=", "properties": {"@source_uri": "https://tools.usps.com/UspsToolsRestServices/rest/POLocator/findLocations", "@spider": "usps_collection_boxes", "addr:city": "AUBURN", "addr:country": "US", "addr:postcode": "04210", "addr:state": "ME", "addr:street_address": "600 CENTER ST", "amenity": "post_box", "collection_times": "Mo-Sa 09:00", "nsi_id": "unitedstatespostalservice-a77078", "operator": "United States Postal Service", "operator:short": "USPS", "operator:type": "public", "operator:wikidata": "Q668687", "ref": "0421000065"}, "type": "Feature"}
{"geometry": {"coordinates": [-70.2250729, 44.108048], "type": "Point"}, "id": "4yLLUzMLvppw0epaHITJpqMWwmA=", "properties": {"@source_uri": "https://tools.usps.com/UspsToolsRestServices/rest/POLocator/findLocations", "@spider": "usps_collection_boxes", "addr:city": "AUBURN", "addr:country": "US", "addr:postcode": "04210", "addr:state": "ME", "addr:street_address": "155 CENTER ST", "amenity": "post_box", "collection_times": "Mo-Fr 11:30; Sa 09:00", "nsi_id": "unitedstatespostalservice-a77078", "operator": "United States Postal Service", "operator:short": "USPS", "operator:type": "public", "operator:wikidata": "Q668687", "ref": "0421000071"}, "type": "Feature"}
{"geometry": {"coordinates": [-70.231415, 44.099565], "type": "Point"}, "id": "K4nhm74xG0YPBhBAgvuQmDcrqEA=", "properties": {"@source_uri": "https://tools.usps.com/UspsToolsRestServices/rest/POLocator/findLocations", "@spider": "usps_collection_boxes", "addr:city": "AUBURN", "addr:country": "US", "addr:postcode": "04210", "addr:state": "ME", "addr:street_address": "393 CENTER ST", "amenity": "post_box", "collection_times": "Mo-Sa 11:30", "nsi_id": "unitedstatespostalservice-a77078", "operator": "United States Postal Service", "operator:short": "USPS", "operator:type": "public", "operator:wikidata": "Q668687", "ref": "0421000072"}, "type": "Feature"}
{"geometry": {"coordinates": [-70.2381147492, 44.1178636365], "type": "Point"}, "id": "fuIiv-GA0wMuzxsPit1x4O5N3DU=", "properties": {"@source_uri": "https://tools.usps.com/UspsToolsRestServices/rest/POLocator/findLocations", "@spider": "usps_collection_boxes", "addr:city": "AUBURN", "addr:country": "US", "addr:postcode": "04210", "addr:state": "ME", "addr:street_address": "100 MOUNT AUBURN AVE", "amenity": "post_box", "collection_times": "Mo-Sa 09:30", "nsi_id": "unitedstatespostalservice-a77078", "operator": "United States Postal Service", "operator:short": "USPS", "operator:type": "public", "operator:wikidata": "Q668687", "ref": "0421000076"}, "type": "Feature"}
{"geometry": {"coordinates": [-70.2257195, 44.098901], "type": "Point"}, "id": "laYwRmYtHFqcK_LOYHN4h4xmnPA=", "properties": {"@source_uri": "https://tools.usps.com/UspsToolsRestServices/rest/POLocator/findLocations", "@spider": "usps_collection_boxes", "addr:city": "AUBURN", "addr:country": "US", "addr:postcode": "04210", "addr:state": "ME", "addr:street_address": "2 GREAT FALLS PLZ", "amenity": "post_box", "collection_times": "Mo-Fr 17:00; Sa 12:00", "indoor": "yes", "note": "ON 12/24 AND 12/31, THIS BOX MAY BE COLLECTED AS EARLY AS 12 NOON.", "nsi_id": "unitedstatespostalservice-a77078", "operator": "United States Postal Service", "operator:short": "USPS", "operator:type": "public", "operator:wikidata": "Q668687", "ref": "0421000080"}, "type": "Feature"}
{"geometry": {"coordinates": [-70.2571838, 44.075472], "type": "Point"}, "id": "ZilpLpPVVCiQu8WrdGGcCPaw-VY=", "properties": {"@source_uri": "https://tools.usps.com/UspsToolsRestServices/rest/POLocator/findLocations", "@spider": "usps_collection_boxes", "addr:city": "AUBURN", "addr:country": "US", "addr:postcode": "04210", "addr:state": "ME", "addr:street_address": "258 RODMAN RD", "amenity": "post_box", "collection_times": "Mo-Fr 17:15; Sa 17:30", "indoor": "yes", "note": "ON 12/24 AND 12/31, THIS BOX MAY BE COLLECTED AS EARLY AS 12 NOON.", "nsi_id": "unitedstatespostalservice-a77078", "operator": "United States Postal Service", "operator:short": "USPS", "operator:type": "public", "operator:wikidata": "Q668687", "ref": "0421000081"}, "type": "Feature"}
{"geometry": {"coordinates": [-70.256456952, 44.075570313], "type": "Point"}, "id": "5VDiTnxrEvzTzWtM75WjAblWnO8=", "properties": {"@source_uri": "https://tools.usps.com/UspsToolsRestServices/rest/POLocator/findLocations", "@spider": "usps_collection_boxes", "addr:city": "AUBURN", "addr:country": "US", "addr:postcode": "04210", "addr:state": "ME", "addr:street_address": "258 RODMAN RD", "amenity": "post_box", "collection_times": "Mo-Fr 17:00; Sa 12:00", "indoor": "yes", "note": "ON 12/24 AND 12/31, THIS BOX MAY BE COLLECTED AS EARLY AS 12 NOON.", "nsi_id": "unitedstatespostalservice-a77078", "operator": "United States Postal Service", "operator:short": "USPS", "operator:type": "public", "operator:wikidata": "Q668687", "ref": "0421000085"}, "type": "Feature"}
{"geometry": {"coordinates": [-70.226086495, 44.098975689], "type": "Point"}, "id": "Qo5HW2OLe-CgbrtLsOzCaSnctqM=", "properties": {"@source_uri": "https://tools.usps.com/UspsToolsRestServices/rest/POLocator/findLocations", "@spider": "usps_collection_boxes", "addr:city": "AUBURN", "addr:country": "US", "addr:postcode": "04210", "addr:state": "ME", "addr:street_address": "2 GREAT FALLS PLZ UNIT 9998", "amenity": "post_box", "collection_times": "Mo-Fr 17:00; Sa 12:00", "indoor": "yes", "note": "ON 12/24 AND 12/31, THIS BOX MAY BE COLLECTED AS EARLY AS 12 NOON.", "nsi_id": "unitedstatespostalservice-a77078", "operator": "United States Postal Service", "operator:short": "USPS", "operator:type": "public", "operator:wikidata": "Q668687", "ref": "0421000086"}, "type": "Feature"}
{"geometry": {"coordinates": [-70.74936, 44.632235], "type": "Point"}, "id": "-aYVcB1DHPttKxsDVnceykABNqg=", "properties": {"@source_uri": "https://tools.usps.com/UspsToolsRestServices/rest/POLocator/findLocations", "@spider": "usps_collection_boxes", "addr:city": "ANDOVER", "addr:country": "US", "addr:postcode": "04216", "addr:state": "ME", "addr:street_address": "6 CHURCH ST", "amenity": "post_box", "collection_times": "Mo-Fr 15:15; Sa 12:00", "indoor": "yes", "note": "ON 12/24 AND 12/31, THIS BOX MAY BE COLLECTED AS EARLY AS 12 NOON.", "nsi_id": "unitedstatespostalservice-a77078", "operator": "United States Postal Service", "operator:short": "USPS", "operator:type": "public", "operator:wikidata": "Q668687", "ref": "0421600002"}, "type": "Feature"}
{"geometry": {"coordinates": [-70.750753752, 44.631776618], "type": "Point"}, "id": "gUCy14N6Mc60M5TKQbjPyfJO4zA=", "properties": {"@source_uri": "https://tools.usps.com/UspsToolsRestServices/rest/POLocator/findLocations", "@spider": "usps_collection_boxes", "addr:city": "ANDOVER", "addr:country": "US", "addr:postcode": "04216", "addr:state": "ME", "addr:street_address": "6 CHURCH ST", "amenity": "post_box", "collection_times": "Mo-Fr 15:30; Sa 12:00", "indoor": "yes", "note": "ON 12/24 AND 12/31, THIS BOX MAY BE COLLECTED AS EARLY AS 12 NOON.", "nsi_id": "unitedstatespostalservice-a77078", "operator": "United States Postal Service", "operator:short": "USPS", "operator:type": "public", "operator:wikidata": "Q668687", "ref": "0421600003"}, "type": "Feature"}
{"geometry": {"coordinates": [-70.789304, 44.407177], "type": "Point"}, "id": "bPngAnyb65MbKTaqCDA1uFo8vGk=", "properties": {"@source_uri": "https://tools.usps.com/UspsToolsRestServices/rest/POLocator/findLocations", "@spider": "usps_collection_boxes", "addr:city": "BETHEL", "addr:country": "US", "addr:postcode": "04217", "addr:state": "ME", "addr:street_address": "82 MAIN ST", "amenity": "post_box", "collection_times": "Mo-Fr 15:15; Sa 12:15", "note": "ON 12/24 AND 12/31, THIS BOX MAY BE COLLECTED AS EARLY AS 12 NOON.", "nsi_id": "unitedstatespostalservice-a77078", "operator": "United States Postal Service", "operator:short": "USPS", "operator:type": "public", "operator:wikidata": "Q668687", "ref": "0421700003"}, "type": "Feature"}
{"geometry": {"coordinates": [-70.789253, 44.407195], "type": "Point"}, "id": "ESxk9GoqjCWNLgJPZykw0gGmg1k=", "properties": {"@source_uri": "https://tools.usps.com/UspsToolsRestServices/rest/POLocator/findLocations", "@spider": "usps_collection_boxes", "addr:city": "BETHEL", "addr:country": "US", "addr:postcode": "04217", "addr:state": "ME", "addr:street_address": "82 MAIN ST", "amenity": "post_box", "collection_times": "Mo-Fr 15:15; Sa 12:30", "indoor": "yes", "note": "ON 12/24 AND 12/31, THIS BOX MAY BE COLLECTED AS EARLY AS 12 NOON.", "nsi_id": "unitedstatespostalservice-a77078", "operator": "United States Postal Service", "operator:short": "USPS", "operator:type": "public", "operator:wikidata": "Q668687", "ref": "0421700004"}, "type": "Feature"}
{"geometry": {"coordinates": [-70.789253, 44.407195], "type": "Point"}, "id": "iTy9sgtGXo59mfGr9r4VD1-BLoE=", "properties": {"@source_uri": "https://tools.usps.com/UspsToolsRestServices/rest/POLocator/findLocations", "@spider": "usps_collection_boxes", "addr:city": "BETHEL", "addr:country": "US", "addr:postcode": "04217", "addr:state": "ME", "addr:street_address": "82 MAIN ST", "amenity": "post_box", "collection_times": "Mo-Fr 15:15; Sa 12:30", "indoor": "yes", "note": "ON 12/24 AND 12/31, THIS BOX MAY BE COLLECTED AS EARLY AS 12 NOON.", "nsi_id": "unitedstatespostalservice-a77078", "operator": "United States Postal Service", "operator:short": "USPS", "operator:type": "public", "operator:wikidata": "Q668687", "ref": "0421700005"}, "type": "Feature"}
{"geometry": {"coordinates": [-70.789284817, 44.407201505], "type": "Point"}, "id": "VTvOJ_CjO2VpfLWpVJmcA8I4GeQ=", "properties": {"@source_uri": "https://tools.usps.com/UspsToolsRestServices/rest/POLocator/findLocations", "@spider": "usps_collection_boxes", "addr:city": "BETHEL", "addr:country": "US", "addr:postcode": "04217", "addr:state": "ME", "addr:street_address": "82 MAIN ST", "amenity": "post_box", "collection_times": "Mo-Fr 15:30; Sa 12:30", "indoor": "yes", "note": "ON 12/24 AND 12/31, THIS BOX MAY BE COLLECTED AS EARLY AS 12 NOON.", "nsi_id": "unitedstatespostalservice-a77078", "operator": "United States Postal Service", "operator:short": "USPS", "operator:type": "public", "operator:wikidata": "Q668687", "ref": "0421700007"}, "type": "Feature"}
{"geometry": {"coordinates": [-70.64612, 44.37844], "type": "Point"}, "id": "rNsNj-xcVfj_PpKSWzPJjFGP0Oc=", "properties": {"@source_uri": "https://tools.usps.com/UspsToolsRestServices/rest/POLocator/findLocations", "@spider": "usps_collection_boxes", "addr:city": "BRYANT POND", "addr:country": "US", "addr:postcode": "04219", "addr:state": "ME", "addr:street_address": "1 N MAIN ST", "amenity": "post_box", "collection_times": "Mo-Fr 14:00; Sa 10:45", "note": "ON 12/24 AND 12/31, THIS BOX MAY BE COLLECTED AS EARLY AS 12 NOON.", "nsi_id": "unitedstatespostalservice-a77078", "operator": "United States Postal Service", "operator:short": "USPS", "operator:type": "public", "operator:wikidata": "Q668687", "ref": "0421900001"}, "type": "Feature"}
{"geometry": {"coordinates": [-70.64612, 44.37844], "type": "Point"}, "id": "3_abAjIjnMiZZpQ2xHnBDbetqSk=", "properties": {"@source_uri": "https://tools.usps.com/UspsToolsRestServices/rest/POLocator/findLocations", "@spider": "usps_collection_boxes", "addr:city": "BRYANT POND", "addr:country": "US", "addr:postcode": "04219", "addr:state": "ME", "addr:street_address": "1 N MAIN ST", "amenity": "post_box", "collection_times": "Mo-Fr 14:00; Sa 10:45", "indoor": "yes", "note": "ON 12/24 AND 12/31, THIS BOX MAY BE COLLECTED AS EARLY AS 12 NOON.", "nsi_id": "unitedstatespostalservice-a77078", "operator": "United States Postal Service", "operator:short": "USPS", "operator:type": "public", "operator:wikidata": "Q668687", "ref": "0421900003"}, "type": "Feature"}
{"geometry": {"coordinates": [-70.646469961, 44.37868125], "type": "Point"}, "id": "ffAvldNMgNasX7eN2Vkao109NVU=", "properties": {"@source_uri": "https://tools.usps.com/UspsToolsRestServices/rest/POLocator/findLocations", "@spider": "usps_collection_boxes", "addr:city": "BRYANT POND", "addr:country": "US", "addr:postcode": "04219", "addr:state": "ME", "addr:street_address": "1 N MAIN ST", "amenity": "post_box", "collection_times": "Mo-Fr 14:00; Sa 10:30", "indoor": "yes", "note": "ON 12/24 AND 12/31, THIS BOX MAY BE COLLECTED AS EARLY AS 12 NOON.", "nsi_id": "unitedstatespostalservice-a77078", "operator": "United States Postal Service", "operator:short": "USPS", "operator:type": "public", "operator:wikidata": "Q668687", "ref": "0421900004"}, "type": "Feature"}
{"geometry": {"coordinates": [-70.364892, 44.289574], "type": "Point"}, "id": "VcTBX_0isYqsK59wV2VT76PFTfQ=", "properties": {"@source_uri": "https://tools.usps.com/UspsToolsRestServices/rest/POLocator/findLocations", "@spider": "usps_collection_boxes", "addr:city": "BUCKFIELD", "addr:country": "US", "addr:postcode": "04220", "addr:state": "ME", "addr:street_address": "8 TURNER ST", "amenity": "post_box", "collection_times": "Mo-Fr 16:30; Sa 11:30", "note": "ON 12/24 AND 12/31, THIS BOX MAY BE COLLECTED AS EARLY AS 12 NOON.", "nsi_id": "unitedstatespostalservice-a77078", "operator": "United States Postal Service", "operator:short": "USPS", "operator:type": "public", "operator:wikidata": "Q668687", "ref": "0422000002"}, "type": "Feature"}
{"geometry": {"coordinates": [-70.365013, 44.289591], "type": "Point"}, "id": "OH3lQnRMNTVEPmzzySz1-VltFZc=", "properties": {"@source_uri": "https://tools.usps.com/UspsToolsRestServices/rest/POLocator/findLocations", "@spider": "usps_collection_boxes", "addr:city": "BUCKFIELD", "addr:country": "US", "addr:postcode": "04220", "addr:state": "ME", "addr:street_address": "8 TURNER ST", "amenity": "post_box", "collection_times": "Mo-Fr 16:30; Sa 11:45", "indoor": "yes", "note": "ON 12/24 AND 12/31, THIS BOX MAY BE COLLECTED AS EARLY AS 12 NOON.", "nsi_id": "unitedstatespostalservice-a77078", "operator": "United States Postal Service", "operator:short": "USPS", "operator:type": "public", "operator:wikidata": "Q668687", "ref": "0422000003"}, "type": "Feature"}
{"geometry": {"coordinates": [-70.364802274, 44.289529429], "type": "Point"}, "id": "IwFvOX8YvA8QCP5BFgX8rbZEo6M=", "properties": {"@source_uri": "https://tools.usps.com/UspsToolsRestServices/rest/POLocator/findLocations", "@spider": "usps_collection_boxes", "addr:city": "BUCKFIELD", "addr:country": "US", "addr:postcode": "04220", "addr:state": "ME", "addr:street_address": "8 TURNER ST", "amenity": "post_box", "collection_times": "Mo-Fr 16:15; Sa 11:45", "indoor": "yes", "note": "ON 12/24 AND 12/31, THIS BOX MAY BE COLLECTED AS EARLY AS 12 NOON.", "nsi_id": "unitedstatespostalservice-a77078", "operator": "United States Postal Service", "operator:short": "USPS", "operator:type": "public", "operator:wikidata": "Q668687", "ref": "0422000005"}, "type": "Feature"}
{"geometry": {"coordinates": [-70.315671, 44.440372], "type": "Point"}, "id": "TdNFLi_PlGRdYzlZ8sNjui-EcBs=", "properties": {"@source_uri": "https://tools.usps.com/UspsToolsRestServices/rest/POLocator/findLocations", "@spider": "usps_collection_boxes", "addr:city": "CANTON", "addr:country": "US", "addr:postcode": "04221", "addr:state": "ME", "addr:street_address": "13 MAIN ST", "amenity": "post_box", "collection_times": "Mo-Fr 15:30; Sa 10:30", "note": "ON 12/24 AND 12/31, THIS BOX MAY BE COLLECTED AS EARLY AS 12 NOON.", "nsi_id": "unitedstatespostalservice-a77078", "operator": "United States Postal Service", "operator:short": "USPS", "operator:type": "public", "operator:wikidata": "Q668687", "ref": "0422100001"}, "type": "Feature"}
{"geometry": {"coordinates": [-70.315671, 44.440372], "type": "Point"}, "id": "vwYX_c_vX2yvd6-tlYWxgqnF8Zg=", "properties": {"@source_uri": "https://tools.usps.com/UspsToolsRestServices/rest/POLocator/findLocations", "@spider": "usps_collection_boxes", "addr:city": "CANTON", "addr:country": "US", "addr:postcode": "04221", "addr:state": "ME", "addr:street_address": "13 MAIN ST", "amenity": "post_box", "collection_times": "Mo-Fr 15:30; Sa 11:00", "indoor": "yes", "note": "ON 12/24 AND 12/31, THIS BOX MAY BE COLLECTED AS EARLY AS 12 NOON.", "nsi_id": "unitedstatespostalservice-a77078", "operator": "United States Postal Service", "operator:short": "USPS", "operator:type": "public", "operator:wikidata": "Q668687", "ref": "0422100003"}, "type": "Feature"}
{"geometry": {"coordinates": [-70.315874926, 44.440302918], "type": "Point"}, "id": "4aMUsVqM27tMRq4HewHd4jL9Wg8=", "properties": {"@source_uri": "https://tools.usps.com/UspsToolsRestServices/rest/POLocator/findLocations", "@spider": "usps_collection_boxes", "addr:city": "CANTON", "addr:country": "US", "addr:postcode": "04221", "addr:state": "ME", "addr:street_address": "13 MAIN ST", "amenity": "post_box", "collection_times": "Mo-Fr 15:30; Sa 10:45", "indoor": "yes", "note": "ON 12/24 AND 12/31, THIS BOX MAY BE COLLECTED AS EARLY AS 12 NOON.", "nsi_id": "unitedstatespostalservice-a77078", "operator": "United States Postal Service", "operator:short": "USPS", "operator:type": "public", "operator:wikidata": "Q668687", "ref": "0422100004"}, "type": "Feature"}
{"geometry": {"coordinates": [-70.1325444, 43.983235], "type": "Point"}, "id": "30Tome1lIJE_1stXgTN9sJvBonY=", "properties": {"@source_uri": "https://tools.usps.com/UspsToolsRestServices/rest/POLocator/findLocations", "@spider": "usps_collection_boxes", "addr:city": "DURHAM", "addr:country": "US", "addr:postcode": "04222", "addr:state": "ME", "addr:street_address": "697 ROYALSBOROUGH RD", "amenity": "post_box", "collection_times": "Mo-Sa 10:30", "nsi_id": "unitedstatespostalservice-a77078", "operator": "United States Postal Service", "operator:short": "USPS", "operator:type": "public", "operator:wikidata": "Q668687", "ref": "0422200000"}, "type": "Feature"}
{"geometry": {"coordinates": [-70.264738591, 44.021623579], "type": "Point"}, "id": "w9eR1JOZFL58fg-KDRH60otUNXc=", "properties": {"@source_uri": "https://tools.usps.com/UspsToolsRestServices/rest/POLocator/findLocations", "@spider": "usps_collection_boxes", "addr:city": "DANVILLE", "addr:country": "US", "addr:postcode": "04223", "addr:state": "ME", "addr:street_address": "25 DUNLAP ST", "amenity": "post_box", "collection_times": "Mo-Fr 10:30; Sa 11:30", "nsi_id": "unitedstatespostalservice-a77078", "operator": "United States Postal Service", "operator:short": "USPS", "operator:type": "public", "operator:wikidata": "Q668687", "ref": "0422300001"}, "type": "Feature"}
{"geometry": {"coordinates": [-70.264738591, 44.021623579], "type": "Point"}, "id": "FdEd8yZy6npEtBTtc7GCzJ0P1hY=", "properties": {"@source_uri": "https://tools.usps.com/UspsToolsRestServices/rest/POLocator/findLocations", "@spider": "usps_collection_boxes", "addr:city": "DANVILLE", "addr:country": "US", "addr:postcode": "04223", "addr:state": "ME", "addr:street_address": "25 DUNLAP ST", "amenity": "post_box", "collection_times": "Mo-Fr 10:30; Sa 12:00", "indoor": "yes", "nsi_id": "unitedstatespostalservice-a77078", "operator": "United States Postal Service", "operator:short": "USPS", "operator:type": "public", "operator:wikidata": "Q668687", "ref": "0422300004"}, "type": "Feature"}
{"geometry": {"coordinates": [-70.455019, 44.530848], "type": "Point"}, "id": "FuyQL5jp5y9H3ipIO1za5ELrN6Q=", "properties": {"@source_uri": "https://tools.usps.com/UspsToolsRestServices/rest/POLocator/findLocations", "@spider": "usps_collection_boxes", "addr:city": "DIXFIELD", "addr:country": "US", "addr:postcode": "04224", "addr:state": "ME", "addr:street_address": "50 MAIN ST", "amenity": "post_box", "collection_times": "Mo-Fr 16:00; Sa 12:30", "note": "ON 12/24 AND 12/31, THIS BOX MAY BE COLLECTED AS EARLY AS 12 NOON.", "nsi_id": "unitedstatespostalservice-a77078", "operator": "United States Postal Service", "operator:short": "USPS", "operator:type": "public", "operator:wikidata": "Q668687", "ref": "0422400001"}, "type": "Feature"}
{"geometry": {"coordinates": [-70.455019, 44.530848], "type": "Point"}, "id": "FH85mMO2UZXzUQGkJ_qrp33C-aM=", "properties": {"@source_uri": "https://tools.usps.com/UspsToolsRestServices/rest/POLocator/findLocations", "@spider": "usps_collection_boxes", "addr:city": "DIXFIELD", "addr:country": "US", "addr:postcode": "04224", "addr:state": "ME", "addr:street_address": "50 MAIN ST", "amenity": "post_box", "collection_times": "Mo-Fr 16:00; Sa 12:15", "indoor": "yes", "note": "ON 12/24 AND 12/31, THIS BOX MAY BE COLLECTED AS EARLY AS 12 NOON.", "nsi_id": "unitedstatespostalservice-a77078", "operator": "United States Postal Service", "operator:short": "USPS", "operator:type": "public", "operator:wikidata": "Q668687", "ref": "0422400002"}, "type": "Feature"}
{"geometry": {"coordinates": [-70.455019, 44.530848], "type": "Point"}, "id": "LInoP-SWeLOAsvkURjpnzeRLGXY=", "properties": {"@source_uri": "https://tools.usps.com/UspsToolsRestServices/rest/POLocator/findLocations", "@spider": "usps_collection_boxes", "addr:city": "DIXFIELD", "addr:country": "US", "addr:postcode": "04224", "addr:state": "ME", "addr:street_address": "50 MAIN ST", "amenity": "post_box", "collection_times": "Mo-Fr 16:00; Sa 12:15", "indoor": "yes", "note": "ON 12/24 AND 12/31, THIS BOX MAY BE COLLECTED AS EARLY AS 12 NOON.", "nsi_id": "unitedstatespostalservice-a77078", "operator": "United States Postal Service", "operator:short": "USPS", "operator:type": "public", "operator:wikidata": "Q668687", "ref": "0422400003"}, "type": "Feature"}
{"geometry": {"coordinates": [-70.454925781, 44.530856183], "type": "Point"}, "id": "_6VoKcNR2_K1Gl_mG2uDxJw3-E8=", "properties": {"@source_uri": "https://tools.usps.com/UspsToolsRestServices/rest/POLocator/findLocations", "@spider": "usps_collection_boxes", "addr:city": "DIXFIELD", "addr:country": "US", "addr:postcode": "04224", "addr:state": "ME", "addr:street_address": "50 MAIN ST", "amenity": "post_box", "collection_times": "Mo-Fr 16:00; Sa 12:30", "indoor": "yes", "note": "ON 12/24 AND 12/31, THIS BOX MAY BE COLLECTED AS EARLY AS 12 NOON.", "nsi_id": "unitedstatespostalservice-a77078", "operator": "United States Postal Service", "operator:short": "USPS", "operator:type": "public", "operator:wikidata": "Q668687", "ref": "0422400004"}, "type": "Feature"}
{"geometry": {"coordinates": [-70.21278, 44.589295], "type": "Point"}, "id": "nO3vugIJTxe6Y89qGa3SVq_j-b8=", "properties": {"@source_uri": "https://tools.usps.com/UspsToolsRestServices/rest/POLocator/findLocations", "@spider": "usps_collection_boxes", "addr:city": "DRYDEN", "addr:country": "US", "addr:postcode": "04225", "addr:state": "ME", "addr:street_address": "6 MUNSON RD", "amenity": "post_box", "collection_times": "Mo-Fr 16:00; Sa 11:00", "note": "ON 12/24 AND 12/31, THIS BOX MAY BE COLLECTED AS EARLY AS 12 NOON.", "nsi_id": "unitedstatespostalservice-a77078", "operator": "United States Postal Service", "operator:short": "USPS", "operator:type": "public", "operator:wikidata": "Q668687", "ref": "0422500001"}, "type": "Feature"}
{"geometry": {"coordinates": [-70.212759, 44.589273], "type": "Point"}, "id": "lYM8jHH5vgwUGijykEbBdmjSSPA=", "properties": {"@source_uri": "https://tools.usps.com/UspsToolsRestServices/rest/POLocator/findLocations", "@spider": "usps_collection_boxes", "addr:city": "DRYDEN", "addr:country": "US", "addr:postcode": "04225", "addr:state": "ME", "addr:street_address": "6 MUNSON RD", "amenity": "post_box", "collection_times": "Mo-Fr 16:00; Sa 11:00", "indoor": "yes", "note": "ON 12/24 AND 12/31, THIS BOX MAY BE COLLECTED AS EARLY AS 12 NOON.", "nsi_id": "unitedstatespostalservice-a77078", "operator": "United States Postal Service", "operator:short": "USPS", "operator:type": "public", "operator:wikidata": "Q668687", "ref": "0422500002"}, "type": "Feature"}
{"geometry": {"coordinates": [-70.212763534, 44.589304141], "type": "Point"}, "id": "a3T0hspPcUYnSKlHeR4eiI-BuBQ=", "properties": {"@source_uri": "https://tools.usps.com/UspsToolsRestServices/rest/POLocator/findLocations", "@spider": "usps_collection_boxes", "addr:city": "DRYDEN", "addr:country": "US", "addr:postcode": "04225", "addr:state": "ME", "addr:street_address": "6 MUNSON RD", "amenity": "post_box", "collection_times": "Mo-Fr 16:00; Sa 11:00", "indoor": "yes", "note": "ON 12/24 AND 12/31, THIS BOX MAY BE COLLECTED AS EARLY AS 12 NOON.", "nsi_id": "unitedstatespostalservice-a77078", "operator": "United States Postal Service", "operator:short": "USPS", "operator:type": "public", "operator:wikidata": "Q668687", "ref": "0422500003"}, "type": "Feature"}
{"geometry": {"coordinates": [-70.404875, 44.541833], "type": "Point"}, "id": "xz4Lzcx0trrEn8ss9SvARhvFveM=", "properties": {"@source_uri": "https://tools.usps.com/UspsToolsRestServices/rest/POLocator/findLocations", "@spider": "usps_collection_boxes", "addr:city": "EAST DIXFIELD", "addr:country": "US", "addr:postcode": "04227", "addr:state": "ME", "addr:street_address": "963 US ROUTE 2 W", "amenity": "post_box", "collection_times": "Mo-Fr 16:00; Sa 11:00", "note": "ON 12/24 AND 12/31, THIS BOX MAY BE COLLECTED AS EARLY AS 12 NOON.", "nsi_id": "unitedstatespostalservice-a77078", "operator": "United States Postal Service", "operator:short": "USPS", "operator:type": "public", "operator:wikidata": "Q668687", "ref": "0422700001"}, "type": "Feature"}
{"geometry": {"coordinates": [-70.404875, 44.541833], "type": "Point"}, "id": "WEKfWManS9VE2ttVm5D23KbzTTk=", "properties": {"@source_uri": "https://tools.usps.com/UspsToolsRestServices/rest/POLocator/findLocations", "@spider": "usps_collection_boxes", "addr:city": "EAST DIXFIELD", "addr:country": "US", "addr:postcode": "04227", "addr:state": "ME", "addr:street_address": "963 US ROUTE 2 W", "amenity": "post_box", "collection_times": "Mo-Fr 16:00; Sa 11:00", "indoor": "yes", "note": "ON 12/24 AND 12/31, THIS BOX MAY BE COLLECTED AS EARLY AS 12 NOON.", "nsi_id": "unitedstatespostalservice-a77078", "operator": "United States Postal Service", "operator:short": "USPS", "operator:type": "public", "operator:wikidata": "Q668687", "ref": "0422700002"}, "type": "Feature"}
{"geometry": {"coordinates": [-70.404852353, 44.541799633], "type": "Point"}, "id": "mETeDoa65OK9MVg16iQTWwwtYzY=", "properties": {"@source_uri": "https://tools.usps.com/UspsToolsRestServices/rest/POLocator/findLocations", "@spider": "usps_collection_boxes", "addr:city": "EAST DIXFIELD", "addr:country": "US", "addr:postcode": "04227", "addr:state": "ME", "addr:street_address": "963 US ROUTE 2 W", "amenity": "post_box", "collection_times": "Mo-Fr 16:00; Sa 11:15", "indoor": "yes", "note": "ON 12/24 AND 12/31, THIS BOX MAY BE COLLECTED AS EARLY AS 12 NOON.", "nsi_id": "unitedstatespostalservice-a77078", "operator": "United States Postal Service", "operator:short": "USPS", "operator:type": "public", "operator:wikidata": "Q668687", "ref": "0422700003"}, "type": "Feature"}
{"geometry": {"coordinates": [-70.143946, 44.413507], "type": "Point"}, "id": "bsSHZoivARwFaZCXjQP0SqS2mqM=", "properties": {"@source_uri": "https://tools.usps.com/UspsToolsRestServices/rest/POLocator/findLocations", "@spider": "usps_collection_boxes", "addr:city": "EAST LIVERMORE", "addr:country": "US", "addr:postcode": "04228", "addr:state": "ME", "addr:street_address": "1047 PARK ST", "amenity": "post_box", "collection_times": "Mo-Fr 10:30; Sa 11:45", "nsi_id": "unitedstatespostalservice-a77078", "operator": "United States Postal Service", "operator:short": "USPS", "operator:type": "public", "operator:wikidata": "Q668687", "ref": "0422800001"}, "type": "Feature"}
{"geometry": {"coordinates": [-70.143915, 44.413522], "type": "Point"}, "id": "AqzqAZAAwvFPM_U58UHGOybbhNM=", "properties": {"@source_uri": "https://tools.usps.com/UspsToolsRestServices/rest/POLocator/findLocations", "@spider": "usps_collection_boxes", "addr:city": "EAST LIVERMORE", "addr:country": "US", "addr:postcode": "04228", "addr:state": "ME", "addr:street_address": "1047 PARK ST", "amenity": "post_box", "collection_times": "Mo-Fr 10:30; Sa 11:45", "indoor": "yes", "nsi_id": "unitedstatespostalservice-a77078", "operator": "United States Postal Service", "operator:short": "USPS", "operator:type": "public", "operator:wikidata": "Q668687", "ref": "0422800002"}, "type": "Feature"}
{"geometry": {"coordinates": [-70.142940847, 44.412476417], "type": "Point"}, "id": "HiEtKxgbUOO4Mx4eIuzR7IPRNmE=", "properties": {"@source_uri": "https://tools.usps.com/UspsToolsRestServices/rest/POLocator/findLocations", "@spider": "usps_collection_boxes", "addr:city": "EAST LIVERMORE", "addr:country": "US", "addr:postcode": "04228", "addr:state": "ME", "addr:street_address": "1047 PARK ST", "amenity": "post_box", "collection_times": "Mo-Fr 10:30; Sa 11:45", "indoor": "yes", "nsi_id": "unitedstatespostalservice-a77078", "operator": "United States Postal Service", "operator:short": "USPS", "operator:type": "public", "operator:wikidata": "Q668687", "ref": "0422800003"}, "type": "Feature"}
{"geometry": {"coordinates": [-70.804978, 44.248684], "type": "Point"}, "id": "Dmw0_EQshea5q0XoqtP_2ilMxZ8=", "properties": {"@source_uri": "https://tools.usps.com/UspsToolsRestServices/rest/POLocator/findLocations", "@spider": "usps_collection_boxes", "addr:city": "STONEHAM", "addr:country": "US", "addr:postcode": "04231", "addr:state": "ME", "addr:street_address": "341 MAINE ST", "amenity": "post_box", "collection_times": "Mo-Fr 16:00; Sa 11:15", "note": "ON 12/24 AND 12/31, THIS BOX MAY BE COLLECTED AS EARLY AS 12 NOON.", "nsi_id": "unitedstatespostalservice-a77078", "operator": "United States Postal Service", "operator:short": "USPS", "operator:type": "public", "operator:wikidata": "Q668687", "ref": "0423100001"}, "type": "Feature"}
{"geometry": {"coordinates": [-70.804875, 44.248637], "type": "Point"}, "id": "dmsH3izHnjcHP4fnsC6vnfhfOdI=", "properties": {"@source_uri": "https://tools.usps.com/UspsToolsRestServices/rest/POLocator/findLocations", "@spider": "usps_collection_boxes", "addr:city": "STONEHAM", "addr:country": "US", "addr:postcode": "04231", "addr:state": "ME", "addr:street_address": "341 MAINE ST", "amenity": "post_box", "collection_times": "Mo-Fr 16:15; Sa 11:15", "indoor": "yes", "note": "ON 12/24 AND 12/31, THIS BOX MAY BE COLLECTED AS EARLY AS 12 NOON.", "nsi_id": "unitedstatespostalservice-a77078", "operator": "United States Postal Service", "operator:short": "USPS", "operator:type": "public", "operator:wikidata": "Q668687", "ref": "0423100002"}, "type": "Feature"}
{"geometry": {"coordinates": [-70.80493696, 44.248670223], "type": "Point"}, "id": "djT3d3-i-P2Y6cskv_XWcVqNMZI=", "properties": {"@source_uri": "https://tools.usps.com/UspsToolsRestServices/rest/POLocator/findLocations", "@spider": "usps_collection_boxes", "addr:city": "STONEHAM", "addr:country": "US", "addr:postcode": "04231", "addr:state": "ME", "addr:street_address": "341 MAINE ST", "amenity": "post_box", "collection_times": "Mo-Fr 16:00; Sa 11:15", "indoor": "yes", "note": "ON 12/24 AND 12/31, THIS BOX MAY BE COLLECTED AS EARLY AS 12 NOON.", "nsi_id": "unitedstatespostalservice-a77078", "operator": "United States Postal Service", "operator:short": "USPS", "operator:type": "public", "operator:wikidata": "Q668687", "ref": "0423100003"}, "type": "Feature"}
{"geometry": {"coordinates": [-70.193426, 44.61594], "type": "Point"}, "id": "KnlvYGA9Q3880mZVFWjtl1r8ZRc=", "properties": {"@source_uri": "https://tools.usps.com/UspsToolsRestServices/rest/POLocator/findLocations", "@spider": "usps_collection_boxes", "addr:city": "EAST WILTON", "addr:country": "US", "addr:postcode": "04234", "addr:state": "ME", "addr:street_address": "1328 MAIN ST", "amenity": "post_box", "collection_times": "Mo-Fr 16:00; Sa 11:15", "note": "ON 12/24 AND 12/31, THIS BOX MAY BE COLLECTED AS EARLY AS 12 NOON.", "nsi_id": "unitedstatespostalservice-a77078", "operator": "United States Postal Service", "operator:short": "USPS", "operator:type": "public", "operator:wikidata": "Q668687", "ref": "0423400001"}, "type": "Feature"}
{"geometry": {"coordinates": [-70.193556, 44.615923], "type": "Point"}, "id": "3NTq72CC03duovJieKmdSZj9VAw=", "properties": {"@source_uri": "https://tools.usps.com/UspsToolsRestServices/rest/POLocator/findLocations", "@spider": "usps_collection_boxes", "addr:city": "EAST WILTON", "addr:country": "US", "addr:postcode": "04234", "addr:state": "ME", "addr:street_address": "1328 MAIN ST", "amenity": "post_box", "collection_times": "Mo-Fr 16:00; Sa 11:15", "indoor": "yes", "note": "ON 12/24 AND 12/31, THIS BOX MAY BE COLLECTED AS EARLY AS 12 NOON.", "nsi_id": "unitedstatespostalservice-a77078", "operator": "United States Postal Service", "operator:short": "USPS", "operator:type": "public", "operator:wikidata": "Q668687", "ref": "0423400003"}, "type": "Feature"}
{"geometry": {"coordinates": [-70.193476071, 44.616000634], "type": "Point"}, "id": "mshkNf6rdsuWco6YqgakXfbVfl4=", "properties": {"@source_uri": "https://tools.usps.com/UspsToolsRestServices/rest/POLocator/findLocations", "@spider": "usps_collection_boxes", "addr:city": "EAST WILTON", "addr:country": "US", "addr:postcode": "04234", "addr:state": "ME", "addr:street_address": "1328 MAIN ST", "amenity": "post_box", "collection_times": "Mo-Fr 16:00; Sa 11:00", "indoor": "yes", "note": "ON 12/24 AND 12/31, THIS BOX MAY BE COLLECTED AS EARLY AS 12 NOON.", "nsi_id": "unitedstatespostalservice-a77078", "operator": "United States Postal Service", "operator:short": "USPS", "operator:type": "public", "operator:wikidata": "Q668687", "ref": "0423400004"}, "type": "Feature"}
{"geometry": {"coordinates": [-70.14264, 44.191492], "type": "Point"}, "id": "QsRrum7danPmrQT929qakZbVWJU=", "properties": {"@source_uri": "https://tools.usps.com/UspsToolsRestServices/rest/POLocator/findLocations", "@spider": "usps_collection_boxes", "addr:city": "GREENE", "addr:country": "US", "addr:postcode": "04236", "addr:state": "ME", "addr:street_address": "677 ROUTE 202", "amenity": "post_box", "collection_times": "Mo-Fr 16:30; Sa 12:00", "note": "ON 12/24 AND 12/31, THIS BOX MAY BE COLLECTED AS EARLY AS 12 NOON.", "nsi_id": "unitedstatespostalservice-a77078", "operator": "United States Postal Service", "operator:short": "USPS", "operator:type": "public", "operator:wikidata": "Q668687", "ref": "0423600001"}, "type": "Feature"}
{"geometry": {"coordinates": [-70.142768, 44.191472], "type": "Point"}, "id": "xMoNLZpkkRBcfIQVqdme0dKkgzY=", "properties": {"@source_uri": "https://tools.usps.com/UspsToolsRestServices/rest/POLocator/findLocations", "@spider": "usps_collection_boxes", "addr:city": "GREENE", "addr:country": "US", "addr:postcode": "04236", "addr:state": "ME", "addr:street_address": "677 ROUTE 202", "amenity": "post_box", "collection_times": "Mo-Fr 16:45; Sa 12:00", "indoor": "yes", "note": "ON 12/24 AND 12/31, THIS BOX MAY BE COLLECTED AS EARLY AS 12 NOON.", "nsi_id": "unitedstatespostalservice-a77078", "operator": "United States Postal Service", "operator:short": "USPS", "operator:type": "public", "operator:wikidata": "Q668687", "ref": "0423600002"}, "type": "Feature"}
{"geometry": {"coordinates": [-70.142768, 44.191472], "type": "Point"}, "id": "q69-cf-qAlXlGJqNQt4uiOQxZd0=", "properties": {"@source_uri": "https://tools.usps.com/UspsToolsRestServices/rest/POLocator/findLocations", "@spider": "usps_collection_boxes", "addr:city": "GREENE", "addr:country": "US", "addr:postcode": "04236", "addr:state": "ME", "addr:street_address": "677 ROUTE 202", "amenity": "post_box", "collection_times": "Mo-Fr 16:45; Sa 12:00", "indoor": "yes", "note": "ON 12/24 AND 12/31, THIS BOX MAY BE COLLECTED AS EARLY AS 12 NOON.", "nsi_id": "unitedstatespostalservice-a77078", "operator": "United States Postal Service", "operator:short": "USPS", "operator:type": "public", "operator:wikidata": "Q668687", "ref": "0423600003"}, "type": "Feature"}
{"geometry": {"coordinates": [-70.142080019, 44.191696517], "type": "Point"}, "id": "uKeeLUGfvnnsWzZXTolT_-YQCOk=", "properties": {"@source_uri": "https://tools.usps.com/UspsToolsRestServices/rest/POLocator/findLocations", "@spider": "usps_collection_boxes", "addr:city": "GREENE", "addr:country": "US", "addr:postcode": "04236", "addr:state": "ME", "addr:street_address": "677 ROUTE 202", "amenity": "post_box", "collection_times": "Mo-Fr 16:30; Sa 12:00", "indoor": "yes", "note": "ON 12/24 AND 12/31, THIS BOX MAY BE COLLECTED AS EARLY AS 12 NOON.", "nsi_id": "unitedstatespostalservice-a77078", "operator": "United States Postal Service", "operator:short": "USPS", "operator:type": "public", "operator:wikidata": "Q668687", "ref": "0423600004"}, "type": "Feature"}
{"geometry": {"coordinates": [-70.690951, 44.499344], "type": "Point"}, "id": "Auwh5oZ4yOB4__fSjM0FtXyMMTE=", "properties": {"@source_uri": "https://tools.usps.com/UspsToolsRestServices/rest/POLocator/findLocations", "@spider": "usps_collection_boxes", "addr:city": "HANOVER", "addr:country": "US", "addr:postcode": "04237", "addr:state": "ME", "addr:street_address": "2046 MAIN ST", "amenity": "post_box", "collection_times": "Mo-Fr 16:00; Sa 12:00", "indoor": "yes", "note": "ON 12/24 AND 12/31, THIS BOX MAY BE COLLECTED AS EARLY AS 12 NOON.", "nsi_id": "unitedstatespostalservice-a77078", "operator": "United States Postal Service", "operator:short": "USPS", "operator:type": "public", "operator:wikidata": "Q668687", "ref": "0423700000"}, "type": "Feature"}
{"geometry": {"coordinates": [-70.690875, 44.499349], "type": "Point"}, "id": "RPMTTY_n1WqpWp1F86C-9Ol-Qgw=", "properties": {"@source_uri": "https://tools.usps.com/UspsToolsRestServices/rest/POLocator/findLocations", "@spider": "usps_collection_boxes", "addr:city": "HANOVER", "addr:country": "US", "addr:postcode": "04237", "addr:state": "ME", "addr:street_address": "2046 MAIN ST", "amenity": "post_box", "collection_times": "Mo-Fr 16:00; Sa 12:00", "note": "ON 12/24 AND 12/31, THIS BOX MAY BE COLLECTED AS EARLY AS 12 NOON.", "nsi_id": "unitedstatespostalservice-a77078", "operator": "United States Postal Service", "operator:short": "USPS", "operator:type": "public", "operator:wikidata": "Q668687", "ref": "0423700001"}, "type": "Feature"}
{"geometry": {"coordinates": [-70.691794695, 44.498894594], "type": "Point"}, "id": "RvzK45sO8-W2qi_NFBSsvd6DM8Y=", "properties": {"@source_uri": "https://tools.usps.com/UspsToolsRestServices/rest/POLocator/findLocations", "@spider": "usps_collection_boxes", "addr:city": "HANOVER", "addr:country": "US", "addr:postcode": "04237", "addr:state": "ME", "addr:street_address": "2046 MAIN ST", "amenity": "post_box", "collection_times": "Mo-Fr 16:00; Sa 12:00", "indoor": "yes", "note": "ON 12/24 AND 12/31, THIS BOX MAY BE COLLECTED AS EARLY AS 12 NOON.", "nsi_id": "unitedstatespostalservice-a77078", "operator": "United States Postal Service", "operator:short": "USPS", "operator:type": "public", "operator:wikidata": "Q668687", "ref": "0423700002"}, "type": "Feature"}
{"geometry": {"coordinates": [-70.406701, 44.197876], "type": "Point"}, "id": "mvP1002ZxiFm26xJrq2c9vAa1Po=", "properties": {"@source_uri": "https://tools.usps.com/UspsToolsRestServices/rest/POLocator/findLocations", "@spider": "usps_collection_boxes", "addr:city": "HEBRON", "addr:country": "US", "addr:postcode": "04238", "addr:state": "ME", "addr:street_address": "339 PARIS RD", "amenity": "post_box", "collection_times": "Mo-Fr 14:30; Sa 11:00", "note": "ON 12/24 AND 12/31, THIS BOX MAY BE COLLECTED AS EARLY AS 12 NOON.", "nsi_id": "unitedstatespostalservice-a77078", "operator": "United States Postal Service", "operator:short": "USPS", "operator:type": "public", "operator:wikidata": "Q668687", "ref": "0423800001"}, "type": "Feature"}
{"geometry": {"coordinates": [-70.406701, 44.197876], "type": "Point"}, "id": "mnm5N9DTcNv0YfKB9xOoZTELocs=", "properties": {"@source_uri": "https://tools.usps.com/UspsToolsRestServices/rest/POLocator/findLocations", "@spider": "usps_collection_boxes", "addr:city": "HEBRON", "addr:country": "US", "addr:postcode": "04238", "addr:state": "ME", "addr:street_address": "339 PARIS RD", "amenity": "post_box", "collection_times": "Mo-Fr 14:30; Sa 11:00", "indoor": "yes", "note": "ON 12/24 AND 12/31, THIS BOX MAY BE COLLECTED AS EARLY AS 12 NOON.", "nsi_id": "unitedstatespostalservice-a77078", "operator": "United States Postal Service", "operator:short": "USPS", "operator:type": "public", "operator:wikidata": "Q668687", "ref": "0423800002"}, "type": "Feature"}
{"geometry": {"coordinates": [-70.407025429, 44.198008329], "type": "Point"}, "id": "KdTAaZsoFrEfRFz_9saiBAWxJjo=", "properties": {"@source_uri": "https://tools.usps.com/UspsToolsRestServices/rest/POLocator/findLocations", "@spider": "usps_collection_boxes", "addr:city": "HEBRON", "addr:country": "US", "addr:postcode": "04238", "addr:state": "ME", "addr:street_address": "337 PARIS RD", "amenity": "post_box", "collection_times": "Mo-Fr 14:30; Sa 11:00", "indoor": "yes", "note": "ON 12/24 AND 12/31, THIS BOX MAY BE COLLECTED AS EARLY AS 12 NOON.", "nsi_id": "unitedstatespostalservice-a77078", "operator": "United States Postal Service", "operator:short": "USPS", "operator:type": "public", "operator:wikidata": "Q668687", "ref": "0423800003"}, "type": "Feature"}
{"geometry": {"coordinates": [-70.204318, 44.49566], "type": "Point"}, "id": "o09VV_lPZZvOtpWDhGNtBdqGosw=", "properties": {"@source_uri": "https://tools.usps.com/UspsToolsRestServices/rest/POLocator/findLocations", "@spider": "usps_collection_boxes", "addr:city": "JAY", "addr:country": "US", "addr:postcode": "04239", "addr:state": "ME", "addr:street_address": "158 MAIN ST", "amenity": "post_box", "collection_times": "Mo-Fr 16:00; Sa 11:00", "note": "ON 12/24 AND 12/31, THIS BOX MAY BE COLLECTED AS EARLY AS 12 NOON.", "nsi_id": "unitedstatespostalservice-a77078", "operator": "United States Postal Service", "operator:short": "USPS", "operator:type": "public", "operator:wikidata": "Q668687", "ref": "0423900007"}, "type": "Feature"}
{"geometry": {"coordinates": [-70.2149491, 44.505853], "type": "Point"}, "id": "eOVUmh5-1n-4g2rEQiLQ6BXNVwM=", "properties": {"@source_uri": "https://tools.usps.com/UspsToolsRestServices/rest/POLocator/findLocations", "@spider": "usps_collection_boxes", "addr:city": "JAY", "addr:country": "US", "addr:postcode": "04239", "addr:state": "ME", "addr:street_address": "25 JAY PLAZA LN", "amenity": "post_box", "collection_times": "Mo-Sa 10:00", "nsi_id": "unitedstatespostalservice-a77078", "operator": "United States Postal Service", "operator:short": "USPS", "operator:type": "public", "operator:wikidata": "Q668687", "ref": "0423900009"}, "type": "Feature"}
{"geometry": {"coordinates": [-70.204318, 44.49566], "type": "Point"}, "id": "p03ZqOy-33Fq9eZI11JuhD-c-og=", "properties": {"@source_uri": "https://tools.usps.com/UspsToolsRestServices/rest/POLocator/findLocations", "@spider": "usps_collection_boxes", "addr:city": "JAY", "addr:country": "US", "addr:postcode": "04239", "addr:state": "ME", "addr:street_address": "158 MAIN ST", "amenity": "post_box", "collection_times": "Mo-Fr 16:00; Sa 11:00", "indoor": "yes", "note": "ON 12/24 AND 12/31, THIS BOX MAY BE COLLECTED AS EARLY AS 12 NOON.", "nsi_id": "unitedstatespostalservice-a77078", "operator": "United States Postal Service", "operator:short": "USPS", "operator:type": "public", "operator:wikidata": "Q668687", "ref": "0423900010"}, "type": "Feature"}
{"geometry": {"coordinates": [-70.2381399, 44.547016], "type": "Point"}, "id": "2ZfSZgGSHvqvyvdARqsTsDbb-rk=", "properties": {"@source_uri": "https://tools.usps.com/UspsToolsRestServices/rest/POLocator/findLocations", "@spider": "usps_collection_boxes", "addr:city": "JAY", "addr:country": "US", "addr:postcode": "04239", "addr:state": "ME", "addr:street_address": "962 MAIN ST", "amenity": "post_box", "collection_times": "Mo-Sa 11:30", "nsi_id": "unitedstatespostalservice-a77078", "operator": "United States Postal Service", "operator:short": "USPS", "operator:type": "public", "operator:wikidata": "Q668687", "ref": "0423900012"}, "type": "Feature"}
{"geometry": {"coordinates": [-70.204358041, 44.495656408], "type": "Point"}, "id": "LJuQtcObiBFQy789ZersiUlHmzs=", "properties": {"@source_uri": "https://tools.usps.com/UspsToolsRestServices/rest/POLocator/findLocations", "@spider": "usps_collection_boxes", "addr:city": "JAY", "addr:country": "US", "addr:postcode": "04239", "addr:state": "ME", "addr:street_address": "158 MAIN ST", "amenity": "post_box", "collection_times": "Mo-Fr 16:00; Sa 11:00", "indoor": "yes", "note": "ON 12/24 AND 12/31, THIS BOX MAY BE COLLECTED AS EARLY AS 12 NOON.", "nsi_id": "unitedstatespostalservice-a77078", "operator": "United States Postal Service", "operator:short": "USPS", "operator:type": "public", "operator:wikidata": "Q668687", "ref": "0423900013"}, "type": "Feature"}
{"geometry": {"coordinates": [-70.216878633, 44.099320463], "type": "Point"}, "id": "Xi14QNzo0rDOcaCcEM04OZHNbRM=", "properties": {"@source_uri": "https://tools.usps.com/UspsToolsRestServices/rest/POLocator/findLocations", "@spider": "usps_collection_boxes", "addr:city": "LEWISTON", "addr:country": "US", "addr:postcode": "04240", "addr:state": "ME", "addr:street_address": "125 MIDDLE ST", "amenity": "post_box", "collection_times": "Mo-Sa 09:30", "nsi_id": "unitedstatespostalservice-a77078", "operator": "United States Postal Service", "operator:short": "USPS", "operator:type": "public", "operator:wikidata": "Q668687", "ref": "0424000002"}, "type": "Feature"}
{"geometry": {"coordinates": [-70.2174551, 44.097372], "type": "Point"}, "id": "dff2XLs0uHnapjGs4bt_gSPHx-U=", "properties": {"@source_uri": "https://tools.usps.com/UspsToolsRestServices/rest/POLocator/findLocations", "@spider": "usps_collection_boxes", "addr:city": "LEWISTON", "addr:country": "US", "addr:postcode": "04240", "addr:state": "ME", "addr:street_address": "84 LISBON ST", "amenity": "post_box", "collection_times": "Mo-Sa 09:15", "nsi_id": "unitedstatespostalservice-a77078", "operator": "United States Postal Service", "operator:short": "USPS", "operator:type": "public", "operator:wikidata": "Q668687", "ref": "0424000011"}, "type": "Feature"}
{"geometry": {"coordinates": [-70.1985088, 44.096489], "type": "Point"}, "id": "bkCv4fyMuie5l4G7sdLr4GJx5rU=", "properties": {"@source_uri": "https://tools.usps.com/UspsToolsRestServices/rest/POLocator/findLocations", "@spider": "usps_collection_boxes", "addr:city": "LEWISTON", "addr:country": "US", "addr:postcode": "04240", "addr:state": "ME", "addr:street_address": "184 WEBSTER ST", "amenity": "post_box", "collection_times": "Mo-Sa 11:00", "nsi_id": "unitedstatespostalservice-a77078", "operator": "United States Postal Service", "operator:short": "USPS", "operator:type": "public", "operator:wikidata": "Q668687", "ref": "0424000017"}, "type": "Feature"}
{"geometry": {"coordinates": [-70.2005958, 44.085958], "type": "Point"}, "id": "LtZN3P3ZDuzI-3UuxxY4a2rPaB0=", "properties": {"@source_uri": "https://tools.usps.com/UspsToolsRestServices/rest/POLocator/findLocations", "@spider": "usps_collection_boxes", "addr:city": "LEWISTON", "addr:country": "US", "addr:postcode": "04240", "addr:state": "ME", "addr:street_address": "27 EAST AVE", "amenity": "post_box", "collection_times": "Mo-Sa 09:15", "nsi_id": "unitedstatespostalservice-a77078", "operator": "United States Postal Service", "operator:short": "USPS", "operator:type": "public", "operator:wikidata": "Q668687", "ref": "0424000018"}, "type": "Feature"}
{"geometry": {"coordinates": [-70.2152073, 44.102526], "type": "Point"}, "id": "6AtEv9go-OChT0qcH8hQkQEorBY=", "properties": {"@source_uri": "https://tools.usps.com/UspsToolsRestServices/rest/POLocator/findLocations", "@spider": "usps_collection_boxes", "addr:city": "LEWISTON", "addr:country": "US", "addr:postcode": "04240", "addr:state": "ME", "addr:street_address": "60 HIGH ST", "amenity": "post_box", "collection_times": "Mo-Sa 09:00", "nsi_id": "unitedstatespostalservice-a77078", "operator": "United States Postal Service", "operator:short": "USPS", "operator:type": "public", "operator:wikidata": "Q668687", "ref": "0424000027"}, "type": "Feature"}
{"geometry": {"coordinates": [-70.2005414, 44.126907], "type": "Point"}, "id": "-XeLUdirVj_g3fbUya-uwMT15dg=", "properties": {"@source_uri": "https://tools.usps.com/UspsToolsRestServices/rest/POLocator/findLocations", "@spider": "usps_collection_boxes", "addr:city": "LEWISTON", "addr:country": "US", "addr:postcode": "04240", "addr:state": "ME", "addr:street_address": "770 MAIN ST", "amenity": "post_box", "collection_times": "Mo-Sa 10:00", "nsi_id": "unitedstatespostalservice-a77078", "operator": "United States Postal Service", "operator:short": "USPS", "operator:type": "public", "operator:wikidata": "Q668687", "ref": "0424000046"}, "type": "Feature"}
{"geometry": {"coordinates": [-70.2011829, 44.083646], "type": "Point"}, "id": "o0K5l4JFmkVJt1mfnmnlMnfvjL0=", "properties": {"@source_uri": "https://tools.usps.com/UspsToolsRestServices/rest/POLocator/findLocations", "@spider": "usps_collection_boxes", "addr:city": "LEWISTON", "addr:country": "US", "addr:postcode": "04240", "addr:state": "ME", "addr:street_address": "890 LISBON ST", "amenity": "post_box", "collection_times": "Mo-Sa 08:30", "nsi_id": "unitedstatespostalservice-a77078", "operator": "United States Postal Service", "operator:short": "USPS", "operator:type": "public", "operator:wikidata": "Q668687", "ref": "0424000050"}, "type": "Feature"}
{"geometry": {"coordinates": [-70.191915, 44.096177], "type": "Point"}, "id": "ySokV7wTrCQuJKdv7Z_Fn2JqCqw=", "properties": {"@source_uri": "https://tools.usps.com/UspsToolsRestServices/rest/POLocator/findLocations", "@spider": "usps_collection_boxes", "addr:city": "LEWISTON", "addr:country": "US", "addr:postcode": "04240", "addr:state": "ME", "addr:street_address": "999 LISBON ST", "amenity": "post_box", "collection_times": "Mo-Fr 17:00; Sa 11:45", "note": "ON 12/24 AND 12/31, THIS BOX MAY BE COLLECTED AS EARLY AS 12 NOON.", "nsi_id": "unitedstatespostalservice-a77078", "operator": "United States Postal Service", "operator:short": "USPS", "operator:type": "public", "operator:wikidata": "Q668687", "ref": "0424000054"}, "type": "Feature"}
{"geometry": {"coordinates": [-70.2151016, 44.096862], "type": "Point"}, "id": "07sVJCaO9hko0StzCI9PmsJ_H7o=", "properties": {"@source_uri": "https://tools.usps.com/UspsToolsRestServices/rest/POLocator/findLocations", "@spider": "usps_collection_boxes", "addr:city": "LEWISTON", "addr:country": "US", "addr:postcode": "04240", "addr:state": "ME", "addr:street_address": "49 ASH ST", "amenity": "post_box", "collection_times": "Mo-Fr 17:00; Sa 12:00", "note": "ON 12/24 AND 12/31, THIS BOX MAY BE COLLECTED AS EARLY AS 12 NOON.", "nsi_id": "unitedstatespostalservice-a77078", "operator": "United States Postal Service", "operator:short": "USPS", "operator:type": "public", "operator:wikidata": "Q668687", "ref": "0424000058"}, "type": "Feature"}
{"geometry": {"coordinates": [-70.2032785, 44.103169], "type": "Point"}, "id": "HFHIili7M6r82MbQDYTHZysvDeQ=", "properties": {"@source_uri": "https://tools.usps.com/UspsToolsRestServices/rest/POLocator/findLocations", "@spider": "usps_collection_boxes", "addr:city": "LEWISTON", "addr:country": "US", "addr:postcode": "04240", "addr:state": "ME", "addr:street_address": "65 CAMPUS AVE", "amenity": "post_box", "collection_times": "Mo-Sa 09:30", "nsi_id": "unitedstatespostalservice-a77078", "operator": "United States Postal Service", "operator:short": "USPS", "operator:type": "public", "operator:wikidata": "Q668687", "ref": "0424000063"}, "type": "Feature"}
{"geometry": {"coordinates": [-70.21154, 44.09917], "type": "Point"}, "id": "t2A37yWSNL-CZEDaKqSqqAbzvjk=", "properties": {"@source_uri": "https://tools.usps.com/UspsToolsRestServices/rest/POLocator/findLocations", "@spider": "usps_collection_boxes", "addr:city": "LEWISTON", "addr:country": "US", "addr:postcode": "04240", "addr:state": "ME", "addr:street_address": "66 WESTMINSTER ST", "amenity": "post_box", "collection_times": "Mo-Sa 10:00", "nsi_id": "unitedstatespostalservice-a77078", "operator": "United States Postal Service", "operator:short": "USPS", "operator:type": "public", "operator:wikidata": "Q668687", "ref": "0424000066"}, "type": "Feature"}
{"geometry": {"coordinates": [-70.215792, 44.095422], "type": "Point"}, "id": "pI7qeRZvEO32kJKiWjK2-CWW5SU=", "properties": {"@source_uri": "https://tools.usps.com/UspsToolsRestServices/rest/POLocator/findLocations", "@spider": "usps_collection_boxes", "addr:city": "LEWISTON", "addr:country": "US", "addr:postcode": "04240", "addr:state": "ME", "addr:street_address": "27 PINE ST", "amenity": "post_box", "collection_times": "Mo-Sa 09:30", "nsi_id": "unitedstatespostalservice-a77078", "operator": "United States Postal Service", "operator:short": "USPS", "operator:type": "public", "operator:wikidata": "Q668687", "ref": "0424000070"}, "type": "Feature"}
{"geometry": {"coordinates": [-70.1995333, 44.102217], "type": "Point"}, "id": "XHY4sQLrkoUC-1p-t1PdFXH_om0=", "properties": {"@source_uri": "https://tools.usps.com/UspsToolsRestServices/rest/POLocator/findLocations", "@spider": "usps_collection_boxes", "addr:city": "LEWISTON", "addr:country": "US", "addr:postcode": "04240", "addr:state": "ME", "addr:street_address": "100 CAMPUS AVE", "amenity": "post_box", "collection_times": "Mo-Sa 09:00", "nsi_id": "unitedstatespostalservice-a77078", "operator": "United States Postal Service", "operator:short": "USPS", "operator:type": "public", "operator:wikidata": "Q668687", "ref": "0424000077"}, "type": "Feature"}
{"geometry": {"coordinates": [-70.1797847319, 44.1026893328], "type": "Point"}, "id": "OC7RM9AS4_PnmS-roCVICyRaj0E=", "properties": {"@source_uri": "https://tools.usps.com/UspsToolsRestServices/rest/POLocator/findLocations", "@spider": "usps_collection_boxes", "addr:city": "LEWISTON", "addr:country": "US", "addr:postcode": "04240", "addr:state": "ME", "addr:street_address": "692 SABATTUS ST", "amenity": "post_box", "collection_times": "Mo-Sa 09:00", "nsi_id": "unitedstatespostalservice-a77078", "operator": "United States Postal Service", "operator:short": "USPS", "operator:type": "public", "operator:wikidata": "Q668687", "ref": "0424000078"}, "type": "Feature"}
{"geometry": {"coordinates": [-70.1996916, 44.124487], "type": "Point"}, "id": "hea3LF3FHDxQ8nN66osTP1cwgb8=", "properties": {"@source_uri": "https://tools.usps.com/UspsToolsRestServices/rest/POLocator/findLocations", "@spider": "usps_collection_boxes", "addr:city": "LEWISTON", "addr:country": "US", "addr:postcode": "04240", "addr:state": "ME", "addr:street_address": "10 MOLLISON WAY", "amenity": "post_box", "collection_times": "Mo-Sa 10:00", "nsi_id": "unitedstatespostalservice-a77078", "operator": "United States Postal Service", "operator:short": "USPS", "operator:type": "public", "operator:wikidata": "Q668687", "ref": "0424000083"}, "type": "Feature"}
{"geometry": {"coordinates": [-70.216129, 44.096562], "type": "Point"}, "id": "zLfqHO_kSpvyP5biahALbsyt0eY=", "properties": {"@source_uri": "https://tools.usps.com/UspsToolsRestServices/rest/POLocator/findLocations", "@spider": "usps_collection_boxes", "addr:city": "LEWISTON", "addr:country": "US", "addr:postcode": "04240", "addr:state": "ME", "addr:street_address": "49 ASH ST", "amenity": "post_box", "collection_times": "Mo-Fr 17:45; Sa 17:00", "indoor": "yes", "note": "ON 12/24 AND 12/31, THIS BOX MAY BE COLLECTED AS EARLY AS 12 NOON.", "nsi_id": "unitedstatespostalservice-a77078", "operator": "United States Postal Service", "operator:short": "USPS", "operator:type": "public", "operator:wikidata": "Q668687", "ref": "0424000088"}, "type": "Feature"}
{"geometry": {"coordinates": [-70.1985349, 44.10237], "type": "Point"}, "id": "8HayKnI2TgwloNot8ntWrcm4lmE=", "properties": {"@source_uri": "https://tools.usps.com/UspsToolsRestServices/rest/POLocator/findLocations", "@spider": "usps_collection_boxes", "addr:city": "LEWISTON", "addr:country": "US", "addr:postcode": "04240", "addr:state": "ME", "addr:street_address": "102 CAMPUS AVE", "amenity": "post_box", "collection_times": "Mo-Sa 09:00", "nsi_id": "unitedstatespostalservice-a77078", "operator": "United States Postal Service", "operator:short": "USPS", "operator:type": "public", "operator:wikidata": "Q668687", "ref": "0424000090"}, "type": "Feature"}
{"geometry": {"coordinates": [-70.197066, 44.08136], "type": "Point"}, "id": "Te8U1x0eX18uw0gxfUhHdQqrtAU=", "properties": {"@source_uri": "https://tools.usps.com/UspsToolsRestServices/rest/POLocator/findLocations", "@spider": "usps_collection_boxes", "addr:city": "LEWISTON", "addr:country": "US", "addr:postcode": "04240", "addr:state": "ME", "addr:street_address": "999 LISBON ST", "amenity": "post_box", "collection_times": "Mo-Fr 16:15; Sa 11:45", "indoor": "yes", "note": "ON 12/24 AND 12/31, THIS BOX MAY BE COLLECTED AS EARLY AS 12 NOON.", "nsi_id": "unitedstatespostalservice-a77078", "operator": "United States Postal Service", "operator:short": "USPS", "operator:type": "public", "operator:wikidata": "Q668687", "ref": "0424000093"}, "type": "Feature"}
{"geometry": {"coordinates": [-70.215665093, 44.096683287], "type": "Point"}, "id": "JGF5Ww44A-uFpSMdbnUuWjRc7pQ=", "properties": {"@source_uri": "https://tools.usps.com/UspsToolsRestServices/rest/POLocator/findLocations", "@spider": "usps_collection_boxes", "addr:city": "LEWISTON", "addr:country": "US", "addr:postcode": "04240", "addr:state": "ME", "addr:street_address": "49 ASH ST", "amenity": "post_box", "collection_times": "Mo-Fr 17:00; Sa 12:00", "indoor": "yes", "note": "ON 12/24 AND 12/31, THIS BOX MAY BE COLLECTED AS EARLY AS 12 NOON.", "nsi_id": "unitedstatespostalservice-a77078", "operator": "United States Postal Service", "operator:short": "USPS", "operator:type": "public", "operator:wikidata": "Q668687", "ref": "0424000097"}, "type": "Feature"}
{"geometry": {"coordinates": [-70.195854011, 44.080737968], "type": "Point"}, "id": "V6F31dd0dtEfGfhcB9CaVHY1hvE=", "properties": {"@source_uri": "https://tools.usps.com/UspsToolsRestServices/rest/POLocator/findLocations", "@spider": "usps_collection_boxes", "addr:city": "LEWISTON", "addr:country": "US", "addr:postcode": "04240", "addr:state": "ME", "addr:street_address": "999 LISBON ST", "amenity": "post_box", "collection_times": "Mo-Fr 17:00; Sa 12:00", "indoor": "yes", "note": "ON 12/24 AND 12/31, THIS BOX MAY BE COLLECTED AS EARLY AS 12 NOON.", "nsi_id": "unitedstatespostalservice-a77078", "operator": "United States Postal Service", "operator:short": "USPS", "operator:type": "public", "operator:wikidata": "Q668687", "ref": "0424000098"}, "type": "Feature"}
{"geometry": {"coordinates": [-70.0983568, 44.022933], "type": "Point"}, "id": "foao-0JsT4G5L6Zc1Zf3OOXY-dk=", "properties": {"@source_uri": "https://tools.usps.com/UspsToolsRestServices/rest/POLocator/findLocations", "@spider": "usps_collection_boxes", "addr:city": "LISBON", "addr:country": "US", "addr:postcode": "04250", "addr:state": "ME", "addr:street_address": "331 LISBON ST", "amenity": "post_box", "collection_times": "Mo-Fr 16:45; Sa 15:15", "note": "ON 12/24 AND 12/31, THIS BOX MAY BE COLLECTED AS EARLY AS 12 NOON.", "nsi_id": "unitedstatespostalservice-a77078", "operator": "United States Postal Service", "operator:short": "USPS", "operator:type": "public", "operator:wikidata": "Q668687", "ref": "0425000004"}, "type": "Feature"}
{"geometry": {"coordinates": [-70.0987209, 44.022879], "type": "Point"}, "id": "w4APeL8cAswUak9q2L8gy_U5BcE=", "properties": {"@source_uri": "https://tools.usps.com/UspsToolsRestServices/rest/POLocator/findLocations", "@spider": "usps_collection_boxes", "addr:city": "LISBON", "addr:country": "US", "addr:postcode": "04250", "addr:state": "ME", "addr:street_address": "331 LISBON ST", "amenity": "post_box", "collection_times": "Mo-Fr 16:45; Sa 15:00", "indoor": "yes", "note": "ON 12/24 AND 12/31, THIS BOX MAY BE COLLECTED AS EARLY AS 12 NOON.", "nsi_id": "unitedstatespostalservice-a77078", "operator": "United States Postal Service", "operator:short": "USPS", "operator:type": "public", "operator:wikidata": "Q668687", "ref": "0425000006"}, "type": "Feature"}
{"geometry": {"coordinates": [-70.097729658, 44.022723454], "type": "Point"}, "id": "rM56dSC9argJNSUel6lcRf3oCaM=", "properties": {"@source_uri": "https://tools.usps.com/UspsToolsRestServices/rest/POLocator/findLocations", "@spider": "usps_collection_boxes", "addr:city": "LISBON", "addr:country": "US", "addr:postcode": "04250", "addr:state": "ME", "addr:street_address": "331 LISBON ST", "amenity": "post_box", "collection_times": "Mo-Fr 17:00; Sa 12:00", "indoor": "yes", "note": "ON 12/24 AND 12/31, THIS BOX MAY BE COLLECTED AS EARLY AS 12 NOON.", "nsi_id": "unitedstatespostalservice-a77078", "operator": "United States Postal Service", "operator:short": "USPS", "operator:type": "public", "operator:wikidata": "Q668687", "ref": "0425000007"}, "type": "Feature"}
{"geometry": {"coordinates": [-70.06049, 43.99649], "type": "Point"}, "id": "Ngx9lskwC8BDD7ExZH-PqWrE-_k=", "properties": {"@source_uri": "https://tools.usps.com/UspsToolsRestServices/rest/POLocator/findLocations", "@spider": "usps_collection_boxes", "addr:city": "LISBON", "addr:country": "US", "addr:postcode": "04252", "addr:state": "ME", "addr:street_address": "13 MAIN ST", "amenity": "post_box", "collection_times": "Mo-Fr 15:45; Sa 12:00", "note": "ON 12/24 AND 12/31, THIS BOX MAY BE COLLECTED AS EARLY AS 12 NOON.", "nsi_id": "unitedstatespostalservice-a77078", "operator": "United States Postal Service", "operator:short": "USPS", "operator:type": "public", "operator:wikidata": "Q668687", "ref": "0425200002"}, "type": "Feature"}
{"geometry": {"coordinates": [-70.0734104, 44.00509], "type": "Point"}, "id": "PjrLh6tF9FLkw_VR5OMp12ef17Q=", "properties": {"@source_uri": "https://tools.usps.com/UspsToolsRestServices/rest/POLocator/findLocations", "@spider": "usps_collection_boxes", "addr:city": "LISBON", "addr:country": "US", "addr:postcode": "04252", "addr:state": "ME", "addr:street_address": "580 LISBON ST", "amenity": "post_box", "collection_times": "Mo-Sa 12:00", "nsi_id": "unitedstatespostalservice-a77078", "operator": "United States Postal Service", "operator:short": "USPS", "operator:type": "public", "operator:wikidata": "Q668687", "ref": "0425200007"}, "type": "Feature"}
{"geometry": {"coordinates": [-70.06049, 43.99649], "type": "Point"}, "id": "xriWrvtdPU0SHMa8lkADJcEGEEI=", "properties": {"@source_uri": "https://tools.usps.com/UspsToolsRestServices/rest/POLocator/findLocations", "@spider": "usps_collection_boxes", "addr:city": "LISBON", "addr:country": "US", "addr:postcode": "04252", "addr:state": "ME", "addr:street_address": "13 MAIN ST", "amenity": "post_box", "collection_times": "Mo-Fr 16:00; Sa 12:00", "indoor": "yes", "note": "ON 12/24 AND 12/31, THIS BOX MAY BE COLLECTED AS EARLY AS 12 NOON.", "nsi_id": "unitedstatespostalservice-a77078", "operator": "United States Postal Service", "operator:short": "USPS", "operator:type": "public", "operator:wikidata": "Q668687", "ref": "0425200008"}, "type": "Feature"}
{"geometry": {"coordinates": [-70.060641958, 43.996524077], "type": "Point"}, "id": "-j4G2lMrj06dGBql9QiPLjG37zs=", "properties": {"@source_uri": "https://tools.usps.com/UspsToolsRestServices/rest/POLocator/findLocations", "@spider": "usps_collection_boxes", "addr:city": "LISBON", "addr:country": "US", "addr:postcode": "04252", "addr:state": "ME", "addr:street_address": "13 MAIN ST STE 9998", "amenity": "post_box", "collection_times": "Mo-Fr 16:00; Sa 12:00", "indoor": "yes", "note": "ON 12/24 AND 12/31, THIS BOX MAY BE COLLECTED AS EARLY AS 12 NOON.", "nsi_id": "unitedstatespostalservice-a77078", "operator": "United States Postal Service", "operator:short": "USPS", "operator:type": "public", "operator:wikidata": "Q668687", "ref": "0425200010"}, "type": "Feature"}
{"geometry": {"coordinates": [-70.249498, 44.383325], "type": "Point"}, "id": "nuGNkJetHgwri5E_96bIE_Cm3Hw=", "properties": {"@source_uri": "https://tools.usps.com/UspsToolsRestServices/rest/POLocator/findLocations", "@spider": "usps_collection_boxes", "addr:city": "LIVERMORE", "addr:country": "US", "addr:postcode": "04253", "addr:state": "ME", "addr:street_address": "5 BEAR MOUNTAIN RD", "amenity": "post_box", "collection_times": "Mo-Fr 15:30; Sa 11:00", "note": "ON 12/24 AND 12/31, THIS BOX MAY BE COLLECTED AS EARLY AS 12 NOON.", "nsi_id": "unitedstatespostalservice-a77078", "operator": "United States Postal Service", "operator:short": "USPS", "operator:type": "public", "operator:wikidata": "Q668687", "ref": "0425300001"}, "type": "Feature"}
{"geometry": {"coordinates": [-70.249383, 44.383326], "type": "Point"}, "id": "gxhTXSSGz13BbcCMb7M_bVVGXAQ=", "properties": {"@source_uri": "https://tools.usps.com/UspsToolsRestServices/rest/POLocator/findLocations", "@spider": "usps_collection_boxes", "addr:city": "LIVERMORE", "addr:country": "US", "addr:postcode": "04253", "addr:state": "ME", "addr:street_address": "5 BEAR MOUNTAIN RD", "amenity": "post_box", "collection_times": "Mo-Fr 16:00; Sa 10:45", "indoor": "yes", "note": "ON 12/24 AND 12/31, THIS BOX MAY BE COLLECTED AS EARLY AS 12 NOON.", "nsi_id": "unitedstatespostalservice-a77078", "operator": "United States Postal Service", "operator:short": "USPS", "operator:type": "public", "operator:wikidata": "Q668687", "ref": "0425300002"}, "type": "Feature"}
{"geometry": {"coordinates": [-70.249681639, 44.383264553], "type": "Point"}, "id": "XOXtSai_bf8cg1oNVWf2lM75jeU=", "properties": {"@source_uri": "https://tools.usps.com/UspsToolsRestServices/rest/POLocator/findLocations", "@spider": "usps_collection_boxes", "addr:city": "LIVERMORE", "addr:country": "US", "addr:postcode": "04253", "addr:state": "ME", "addr:street_address": "5 BEAR MOUNTAIN RD", "amenity": "post_box", "collection_times": "Mo-Fr 16:00; Sa 11:00", "indoor": "yes", "note": "ON 12/24 AND 12/31, THIS BOX MAY BE COLLECTED AS EARLY AS 12 NOON.", "nsi_id": "unitedstatespostalservice-a77078", "operator": "United States Postal Service", "operator:short": "USPS", "operator:type": "public", "operator:wikidata": "Q668687", "ref": "0425300003"}, "type": "Feature"}
{"geometry": {"coordinates": [-70.190391, 44.474385], "type": "Point"}, "id": "RuB15db78MNNKs9oC-afzMoJA2c=", "properties": {"@source_uri": "https://tools.usps.com/UspsToolsRestServices/rest/POLocator/findLocations", "@spider": "usps_collection_boxes", "addr:city": "LIVERMORE FALLS", "addr:country": "US", "addr:postcode": "04254", "addr:state": "ME", "addr:street_address": "60 MAIN ST", "amenity": "post_box", "collection_times": "Mo-Fr 17:00; Sa 14:45", "note": "ON 12/24 AND 12/31, THIS BOX MAY BE COLLECTED AS EARLY AS 12 NOON.", "nsi_id": "unitedstatespostalservice-a77078", "operator": "United States Postal Service", "operator:short": "USPS", "operator:type": "public", "operator:wikidata": "Q668687", "ref": "0425400003"}, "type": "Feature"}
{"geometry": {"coordinates": [-70.190391, 44.474385], "type": "Point"}, "id": "YdrOkgZRfcaqZ9ONwUnBfiTrguU=", "properties": {"@source_uri": "https://tools.usps.com/UspsToolsRestServices/rest/POLocator/findLocations", "@spider": "usps_collection_boxes", "addr:city": "LIVERMORE FALLS", "addr:country": "US", "addr:postcode": "04254", "addr:state": "ME", "addr:street_address": "60 MAIN ST", "amenity": "post_box", "collection_times": "Mo-Fr 17:00; Sa 14:45", "indoor": "yes", "note": "ON 12/24 AND 12/31, THIS BOX MAY BE COLLECTED AS EARLY AS 12 NOON.", "nsi_id": "unitedstatespostalservice-a77078", "operator": "United States Postal Service", "operator:short": "USPS", "operator:type": "public", "operator:wikidata": "Q668687", "ref": "0425400012"}, "type": "Feature"}
{"geometry": {"coordinates": [-70.190631937, 44.474591882], "type": "Point"}, "id": "-zWp6vRgsdI9brumwaGweTzcnlo=", "properties": {"@source_uri": "https://tools.usps.com/UspsToolsRestServices/rest/POLocator/findLocations", "@spider": "usps_collection_boxes", "addr:city": "LIVERMORE FALLS", "addr:country": "US", "addr:postcode": "04254", "addr:state": "ME", "addr:street_address": "60 MAIN ST", "amenity": "post_box", "collection_times": "Mo-Fr 17:00; Sa 12:00", "indoor": "yes", "note": "ON 12/24 AND 12/31, THIS BOX MAY BE COLLECTED AS EARLY AS 12 NOON.", "nsi_id": "unitedstatespostalservice-a77078", "operator": "United States Postal Service", "operator:short": "USPS", "operator:type": "public", "operator:wikidata": "Q668687", "ref": "0425400015"}, "type": "Feature"}
{"geometry": {"coordinates": [-70.705366, 44.401488], "type": "Point"}, "id": "xioENLt64H-aTfZlcLRo31Rrzsk=", "properties": {"@source_uri": "https://tools.usps.com/UspsToolsRestServices/rest/POLocator/findLocations", "@spider": "usps_collection_boxes", "addr:city": "GREENWOOD", "addr:country": "US", "addr:postcode": "04255", "addr:state": "ME", "addr:street_address": "268 MAIN ST", "amenity": "post_box", "collection_times": "Mo-Fr 15:30; Sa 11:30", "note": "ON 12/24 AND 12/31, THIS BOX MAY BE COLLECTED AS EARLY AS 12 NOON.", "nsi_id": "unitedstatespostalservice-a77078", "operator": "United States Postal Service", "operator:short": "USPS", "operator:type": "public", "operator:wikidata": "Q668687", "ref": "0425500001"}, "type": "Feature"}
{"geometry": {"coordinates": [-70.705377, 44.401527], "type": "Point"}, "id": "Lan70nC-5stiVdDgrVapxICA-BQ=", "properties": {"@source_uri": "https://tools.usps.com/UspsToolsRestServices/rest/POLocator/findLocations", "@spider": "usps_collection_boxes", "addr:city": "GREENWOOD", "addr:country": "US", "addr:postcode": "04255", "addr:state": "ME", "addr:street_address": "268 MAIN ST", "amenity": "post_box", "collection_times": "Mo-Fr 15:45; Sa 11:30", "indoor": "yes", "note": "ON 12/24 AND 12/31, THIS BOX MAY BE COLLECTED AS EARLY AS 12 NOON.", "nsi_id": "unitedstatespostalservice-a77078", "operator": "United States Postal Service", "operator:short": "USPS", "operator:type": "public", "operator:wikidata": "Q668687", "ref": "0425500004"}, "type": "Feature"}
{"geometry": {"coordinates": [-70.705183222, 44.401393205], "type": "Point"}, "id": "JjGQ0uITbZzzOyHYAd8wekxbzME=", "properties": {"@source_uri": "https://tools.usps.com/UspsToolsRestServices/rest/POLocator/findLocations", "@spider": "usps_collection_boxes", "addr:city": "GREENWOOD", "addr:country": "US", "addr:postcode": "04255", "addr:state": "ME", "addr:street_address": "268 MAIN ST", "amenity": "post_box", "collection_times": "Mo-Fr 15:30; Sa 11:30", "indoor": "yes", "note": "ON 12/24 AND 12/31, THIS BOX MAY BE COLLECTED AS EARLY AS 12 NOON.", "nsi_id": "unitedstatespostalservice-a77078", "operator": "United States Postal Service", "operator:short": "USPS", "operator:type": "public", "operator:wikidata": "Q668687", "ref": "0425500007"}, "type": "Feature"}
{"geometry": {"coordinates": [-70.3803746, 44.109288], "type": "Point"}, "id": "Ssjfsbom76aveLcBWb7ZwmSvtqA=", "properties": {"@source_uri": "https://tools.usps.com/UspsToolsRestServices/rest/POLocator/findLocations", "@spider": "usps_collection_boxes", "addr:city": "MECHANIC FALLS", "addr:country": "US", "addr:postcode": "04256", "addr:state": "ME", "addr:street_address": "108 LEWISTON ST", "amenity": "post_box", "collection_times": "Mo-Sa 13:30", "note": "ON 12/24 AND 12/31, THIS BOX MAY BE COLLECTED AS EARLY AS 12 NOON.", "nsi_id": "unitedstatespostalservice-a77078", "operator": "United States Postal Service", "operator:short": "USPS", "operator:type": "public", "operator:wikidata": "Q668687", "ref": "0425600001"}, "type": "Feature"}
{"geometry": {"coordinates": [-70.3964066, 44.110317], "type": "Point"}, "id": "x5IMCCHHnt0THep4CV7k4YhMk1I=", "properties": {"@source_uri": "https://tools.usps.com/UspsToolsRestServices/rest/POLocator/findLocations", "@spider": "usps_collection_boxes", "addr:city": "MECHANIC FALLS", "addr:country": "US", "addr:postcode": "04256", "addr:state": "ME", "addr:street_address": "51 MITCHELL ST", "amenity": "post_box", "collection_times": "Mo-Sa 08:00", "nsi_id": "unitedstatespostalservice-a77078", "operator": "United States Postal Service", "operator:short": "USPS", "operator:type": "public", "operator:wikidata": "Q668687", "ref": "0425600002"}, "type": "Feature"}
{"geometry": {"coordinates": [-70.393845, 44.111706], "type": "Point"}, "id": "YL3JKaxuXTyVzLQ2m5nT1KHOs-4=", "properties": {"@source_uri": "https://tools.usps.com/UspsToolsRestServices/rest/POLocator/findLocations", "@spider": "usps_collection_boxes", "addr:city": "MECHANIC FALLS", "addr:country": "US", "addr:postcode": "04256", "addr:state": "ME", "addr:street_address": "33 DEPOT SQ", "amenity": "post_box", "collection_times": "Mo-Fr 16:30; Sa 12:00", "note": "ON 12/24 AND 12/31, THIS BOX MAY BE COLLECTED AS EARLY AS 12 NOON.", "nsi_id": "unitedstatespostalservice-a77078", "operator": "United States Postal Service", "operator:short": "USPS", "operator:type": "public", "operator:wikidata": "Q668687", "ref": "0425600004"}, "type": "Feature"}
{"geometry": {"coordinates": [-70.3864070204, 44.1075518068], "type": "Point"}, "id": "zSO3az7u1rMhqbqva5BZwwbebSI=", "properties": {"@source_uri": "https://tools.usps.com/UspsToolsRestServices/rest/POLocator/findLocations", "@spider": "usps_collection_boxes", "addr:city": "MECHANIC FALLS", "addr:country": "US", "addr:postcode": "04256", "addr:state": "ME", "addr:street_address": "102 ELM ST", "amenity": "post_box", "collection_times": "Mo-Sa 13:00", "note": "ON 12/24 AND 12/31, THIS BOX MAY BE COLLECTED AS EARLY AS 12 NOON.", "nsi_id": "unitedstatespostalservice-a77078", "operator": "United States Postal Service", "operator:short": "USPS", "operator:type": "public", "operator:wikidata": "Q668687", "ref": "0425600006"}, "type": "Feature"}
{"geometry": {"coordinates": [-70.3919918, 44.111], "type": "Point"}, "id": "54ixtUJ5gUsp-usqnUUuP1d4O5I=", "properties": {"@source_uri": "https://tools.usps.com/UspsToolsRestServices/rest/POLocator/findLocations", "@spider": "usps_collection_boxes", "addr:city": "MECHANIC FALLS", "addr:country": "US", "addr:postcode": "04256", "addr:state": "ME", "addr:street_address": "7 S MAIN ST", "amenity": "post_box", "collection_times": "Mo-Sa 14:00", "note": "ON 12/24 AND 12/31, THIS BOX MAY BE COLLECTED AS EARLY AS 12 NOON.", "nsi_id": "unitedstatespostalservice-a77078", "operator": "United States Postal Service", "operator:short": "USPS", "operator:type": "public", "operator:wikidata": "Q668687", "ref": "0425600007"}, "type": "Feature"}
{"geometry": {"coordinates": [-70.3897395, 44.110141], "type": "Point"}, "id": "RsDkg8MHLmHbQyprozoW7BizCKs=", "properties": {"@source_uri": "https://tools.usps.com/UspsToolsRestServices/rest/POLocator/findLocations", "@spider": "usps_collection_boxes", "addr:city": "MECHANIC FALLS", "addr:country": "US", "addr:postcode": "04256", "addr:state": "ME", "addr:street_address": "41 ELM ST", "amenity": "post_box", "collection_times": "Mo-Sa 13:45", "note": "ON 12/24 AND 12/31, THIS BOX MAY BE COLLECTED AS EARLY AS 12 NOON.", "nsi_id": "unitedstatespostalservice-a77078", "operator": "United States Postal Service", "operator:short": "USPS", "operator:type": "public", "operator:wikidata": "Q668687", "ref": "0425600008"}, "type": "Feature"}
{"geometry": {"coordinates": [-70.393804, 44.111735], "type": "Point"}, "id": "SkmRTnXuFEgeBwtiCTqn8F8zK0A=", "properties": {"@source_uri": "https://tools.usps.com/UspsToolsRestServices/rest/POLocator/findLocations", "@spider": "usps_collection_boxes", "addr:city": "MECHANIC FALLS", "addr:country": "US", "addr:postcode": "04256", "addr:state": "ME", "addr:street_address": "33 DEPOT SQ", "amenity": "post_box", "collection_times": "Mo-Fr 16:30; Sa 12:00", "indoor": "yes", "note": "ON 12/24 AND 12/31, THIS BOX MAY BE COLLECTED AS EARLY AS 12 NOON.", "nsi_id": "unitedstatespostalservice-a77078", "operator": "United States Postal Service", "operator:short": "USPS", "operator:type": "public", "operator:wikidata": "Q668687", "ref": "0425600011"}, "type": "Feature"}
{"geometry": {"coordinates": [-70.3941849, 44.110929195], "type": "Point"}, "id": "QeufPbqkTIeVqAwV1SRvBVTXRIs=", "properties": {"@source_uri": "https://tools.usps.com/UspsToolsRestServices/rest/POLocator/findLocations", "@spider": "usps_collection_boxes", "addr:city": "MECHANIC FALLS", "addr:country": "US", "addr:postcode": "04256", "addr:state": "ME", "addr:street_address": "33 DEPOT SQ", "amenity": "post_box", "collection_times": "Mo-Fr 16:30; Sa 12:00", "indoor": "yes", "note": "ON 12/24 AND 12/31, THIS BOX MAY BE COLLECTED AS EARLY AS 12 NOON.", "nsi_id": "unitedstatespostalservice-a77078", "operator": "United States Postal Service", "operator:short": "USPS", "operator:type": "public", "operator:wikidata": "Q668687", "ref": "0425600012"}, "type": "Feature"}
{"geometry": {"coordinates": [-70.5193742, 44.541707], "type": "Point"}, "id": "WAC1EdKYjzpGnnZzZ8wbVxWTSHA=", "properties": {"@source_uri": "https://tools.usps.com/UspsToolsRestServices/rest/POLocator/findLocations", "@spider": "usps_collection_boxes", "addr:city": "MEXICO", "addr:country": "US", "addr:postcode": "04257", "addr:state": "ME", "addr:street_address": "225 RIVER RD", "amenity": "post_box", "collection_times": "Mo-Sa 10:00", "nsi_id": "unitedstatespostalservice-a77078", "operator": "United States Postal Service", "operator:short": "USPS", "operator:type": "public", "operator:wikidata": "Q668687", "ref": "0425700002"}, "type": "Feature"}
{"geometry": {"coordinates": [-70.5289549, 44.563177], "type": "Point"}, "id": "Rk9htzc-DaTbKkiPbOW6tkp_iRQ=", "properties": {"@source_uri": "https://tools.usps.com/UspsToolsRestServices/rest/POLocator/findLocations", "@spider": "usps_collection_boxes", "addr:city": "MEXICO", "addr:country": "US", "addr:postcode": "04257", "addr:state": "ME", "addr:street_address": "13 GRANDVIEW CIR", "amenity": "post_box", "collection_times": "Mo-Sa 13:00", "note": "ON 12/24 AND 12/31, THIS BOX MAY BE COLLECTED AS EARLY AS 12 NOON.", "nsi_id": "unitedstatespostalservice-a77078", "operator": "United States Postal Service", "operator:short": "USPS", "operator:type": "public", "operator:wikidata": "Q668687", "ref": "0425700005"}, "type": "Feature"}
{"geometry": {"coordinates": [-70.543558, 44.556883], "type": "Point"}, "id": "rm8ieRtwlRDAXD2wErpoIvfxXU4=", "properties": {"@source_uri": "https://tools.usps.com/UspsToolsRestServices/rest/POLocator/findLocations", "@spider": "usps_collection_boxes", "addr:city": "MEXICO", "addr:country": "US", "addr:postcode": "04257", "addr:state": "ME", "addr:street_address": "7 RIVERSIDE AVE", "amenity": "post_box", "collection_times": "Mo-Sa 13:00", "note": "ON 12/24 AND 12/31, THIS BOX MAY BE COLLECTED AS EARLY AS 12 NOON.", "nsi_id": "unitedstatespostalservice-a77078", "operator": "United States Postal Service", "operator:short": "USPS", "operator:type": "public", "operator:wikidata": "Q668687", "ref": "0425700012"}, "type": "Feature"}
{"geometry": {"coordinates": [-70.5439657, 44.559269], "type": "Point"}, "id": "2QldaNzpzpHZxPEVVQSqSE74sPo=", "properties": {"@source_uri": "https://tools.usps.com/UspsToolsRestServices/rest/POLocator/findLocations", "@spider": "usps_collection_boxes", "addr:city": "MEXICO", "addr:country": "US", "addr:postcode": "04257", "addr:state": "ME", "addr:street_address": "1 HARLOW HILL RD", "amenity": "post_box", "collection_times": "Mo-Sa 13:00", "note": "ON 12/24 AND 12/31, THIS BOX MAY BE COLLECTED AS EARLY AS 12 NOON.", "nsi_id": "unitedstatespostalservice-a77078", "operator": "United States Postal Service", "operator:short": "USPS", "operator:type": "public", "operator:wikidata": "Q668687", "ref": "0425700013"}, "type": "Feature"}
{"geometry": {"coordinates": [-70.5175388, 44.538653], "type": "Point"}, "id": "gmjJBz4nj5VQMOjCdjkrfpXTwKo=", "properties": {"@source_uri": "https://tools.usps.com/UspsToolsRestServices/rest/POLocator/findLocations", "@spider": "usps_collection_boxes", "addr:city": "MEXICO", "addr:country": "US", "addr:postcode": "04257", "addr:state": "ME", "addr:street_address": "258 RIVER RD", "amenity": "post_box", "collection_times": "Mo-Sa 10:00", "nsi_id": "unitedstatespostalservice-a77078", "operator": "United States Postal Service", "operator:short": "USPS", "operator:type": "public", "operator:wikidata": "Q668687", "ref": "0425700015"}, "type": "Feature"}
{"geometry": {"coordinates": [-70.5410705, 44.5582349], "type": "Point"}, "id": "68fw0t28_7IHXpuxLPDcEdRwRyE=", "properties": {"@source_uri": "https://tools.usps.com/UspsToolsRestServices/rest/POLocator/findLocations", "@spider": "usps_collection_boxes", "addr:city": "MEXICO", "addr:country": "US", "addr:postcode": "04257", "addr:state": "ME", "addr:street_address": "7 RIVERSIDE AVE", "amenity": "post_box", "collection_times": "Mo-Fr 16:45; Sa 16:00", "indoor": "yes", "note": "ON 12/24 AND 12/31, THIS BOX MAY BE COLLECTED AS EARLY AS 12 NOON.", "nsi_id": "unitedstatespostalservice-a77078", "operator": "United States Postal Service", "operator:short": "USPS", "operator:type": "public", "operator:wikidata": "Q668687", "ref": "0425700017"}, "type": "Feature"}
{"geometry": {"coordinates": [-70.5410705, 44.5582349], "type": "Point"}, "id": "z6B0QbyHcdAAK1XgoL3-U7tkdK0=", "properties": {"@source_uri": "https://tools.usps.com/UspsToolsRestServices/rest/POLocator/findLocations", "@spider": "usps_collection_boxes", "addr:city": "MEXICO", "addr:country": "US", "addr:postcode": "04257", "addr:state": "ME", "addr:street_address": "7 RIVERSIDE AVE", "amenity": "post_box", "collection_times": "Mo-Fr 16:45; Sa 12:00", "indoor": "yes", "note": "ON 12/24 AND 12/31, THIS BOX MAY BE COLLECTED AS EARLY AS 12 NOON.", "nsi_id": "unitedstatespostalservice-a77078", "operator": "United States Postal Service", "operator:short": "USPS", "operator:type": "public", "operator:wikidata": "Q668687", "ref": "0425700018"}, "type": "Feature"}
{"geometry": {"coordinates": [-70.327835, 44.088131], "type": "Point"}, "id": "r2y-PRUucMfS6XJg_IL-YcRuLAk=", "properties": {"@source_uri": "https://tools.usps.com/UspsToolsRestServices/rest/POLocator/findLocations", "@spider": "usps_collection_boxes", "addr:city": "MINOT", "addr:country": "US", "addr:postcode": "04258", "addr:state": "ME", "addr:street_address": "348 MINOT AVE", "amenity": "post_box", "collection_times": "Mo-Fr 16:00; Sa 11:30", "note": "ON 12/24 AND 12/31, THIS BOX MAY BE COLLECTED AS EARLY AS 12 NOON.", "nsi_id": "unitedstatespostalservice-a77078", "operator": "United States Postal Service", "operator:short": "USPS", "operator:type": "public", "operator:wikidata": "Q668687", "ref": "0425800001"}, "type": "Feature"}
{"geometry": {"coordinates": [-70.327761, 44.088152], "type": "Point"}, "id": "pL56caTScD2rSuXHc38MJJz8EHw=", "properties": {"@source_uri": "https://tools.usps.com/UspsToolsRestServices/rest/POLocator/findLocations", "@spider": "usps_collection_boxes", "addr:city": "MINOT", "addr:country": "US", "addr:postcode": "04258", "addr:state": "ME", "addr:street_address": "348 MINOT AVE", "amenity": "post_box", "collection_times": "Mo-Fr 16:00; Sa 11:30", "indoor": "yes", "note": "ON 12/24 AND 12/31, THIS BOX MAY BE COLLECTED AS EARLY AS 12 NOON.", "nsi_id": "unitedstatespostalservice-a77078", "operator": "United States Postal Service", "operator:short": "USPS", "operator:type": "public", "operator:wikidata": "Q668687", "ref": "0425800002"}, "type": "Feature"}
{"geometry": {"coordinates": [-70.327761, 44.088152], "type": "Point"}, "id": "ayfK5W8x4GUXEmcmWmC1_GCjXoQ=", "properties": {"@source_uri": "https://tools.usps.com/UspsToolsRestServices/rest/POLocator/findLocations", "@spider": "usps_collection_boxes", "addr:city": "MINOT", "addr:country": "US", "addr:postcode": "04258", "addr:state": "ME", "addr:street_address": "348 MINOT AVE", "amenity": "post_box", "collection_times": "Mo-Fr 16:00; Sa 11:30", "indoor": "yes", "note": "ON 12/24 AND 12/31, THIS BOX MAY BE COLLECTED AS EARLY AS 12 NOON.", "nsi_id": "unitedstatespostalservice-a77078", "operator": "United States Postal Service", "operator:short": "USPS", "operator:type": "public", "operator:wikidata": "Q668687", "ref": "0425800003"}, "type": "Feature"}
{"geometry": {"coordinates": [-70.332337016, 44.088870678], "type": "Point"}, "id": "iIiEkztGi__x1FUeSUN9w5x8vN4=", "properties": {"@source_uri": "https://tools.usps.com/UspsToolsRestServices/rest/POLocator/findLocations", "@spider": "usps_collection_boxes", "addr:city": "MINOT", "addr:country": "US", "addr:postcode": "04258", "addr:state": "ME", "addr:street_address": "348 MINOT AVE", "amenity": "post_box", "collection_times": "Mo-Fr 16:00; Sa 11:30", "indoor": "yes", "note": "ON 12/24 AND 12/31, THIS BOX MAY BE COLLECTED AS EARLY AS 12 NOON.", "nsi_id": "unitedstatespostalservice-a77078", "operator": "United States Postal Service", "operator:short": "USPS", "operator:type": "public", "operator:wikidata": "Q668687", "ref": "0425800004"}, "type": "Feature"}
{"geometry": {"coordinates": [-70.0357374, 44.237782], "type": "Point"}, "id": "0afd2mhplBZeCfrX0yNKX9CCwUU=", "properties": {"@source_uri": "https://tools.usps.com/UspsToolsRestServices/rest/POLocator/findLocations", "@spider": "usps_collection_boxes", "addr:city": "MONMOUTH", "addr:country": "US", "addr:postcode": "04259", "addr:state": "ME", "addr:street_address": "744 MAIN ST", "amenity": "post_box", "collection_times": "Mo-Fr 16:15; Sa 11:45", "note": "ON 12/24 AND 12/31, THIS BOX MAY BE COLLECTED AS EARLY AS 12 NOON.", "nsi_id": "unitedstatespostalservice-a77078", "operator": "United States Postal Service", "operator:short": "USPS", "operator:type": "public", "operator:wikidata": "Q668687", "ref": "0425900001"}, "type": "Feature"}
{"geometry": {"coordinates": [-70.0356718, 44.237818], "type": "Point"}, "id": "3oKQ5kmaBCyYZgx2lMQHbPE9UbY=", "properties": {"@source_uri": "https://tools.usps.com/UspsToolsRestServices/rest/POLocator/findLocations", "@spider": "usps_collection_boxes", "addr:city": "MONMOUTH", "addr:country": "US", "addr:postcode": "04259", "addr:state": "ME", "addr:street_address": "744 MAIN ST", "amenity": "post_box", "collection_times": "Mo-Fr 16:30; Sa 12:00", "indoor": "yes", "note": "ON 12/24 AND 12/31, THIS BOX MAY BE COLLECTED AS EARLY AS 12 NOON.", "nsi_id": "unitedstatespostalservice-a77078", "operator": "United States Postal Service", "operator:short": "USPS", "operator:type": "public", "operator:wikidata": "Q668687", "ref": "0425900003"}, "type": "Feature"}
{"geometry": {"coordinates": [-70.035831891, 44.237652789], "type": "Point"}, "id": "aNOuXXukwIztFPjxDDw_7Opdwd8=", "properties": {"@source_uri": "https://tools.usps.com/UspsToolsRestServices/rest/POLocator/findLocations", "@spider": "usps_collection_boxes", "addr:city": "MONMOUTH", "addr:country": "US", "addr:postcode": "04259", "addr:state": "ME", "addr:street_address": "744 MAIN ST", "amenity": "post_box", "collection_times": "Mo-Fr 16:30; Sa 12:00", "indoor": "yes", "note": "ON 12/24 AND 12/31, THIS BOX MAY BE COLLECTED AS EARLY AS 12 NOON.", "nsi_id": "unitedstatespostalservice-a77078", "operator": "United States Postal Service", "operator:short": "USPS", "operator:type": "public", "operator:wikidata": "Q668687", "ref": "0425900004"}, "type": "Feature"}
{"geometry": {"coordinates": [-70.290435, 43.997125], "type": "Point"}, "id": "38gjoXvJM2dSkqSzoQlKSUVtc7g=", "properties": {"@source_uri": "https://tools.usps.com/UspsToolsRestServices/rest/POLocator/findLocations", "@spider": "usps_collection_boxes", "addr:city": "NEW GLOUCESTER", "addr:country": "US", "addr:postcode": "04260", "addr:state": "ME", "addr:street_address": "9 GILMORE RD", "amenity": "post_box", "collection_times": "Mo-Fr 16:30; Sa 12:00", "note": "ON 12/24 AND 12/31, THIS BOX MAY BE COLLECTED AS EARLY AS 12 NOON.", "nsi_id": "unitedstatespostalservice-a77078", "operator": "United States Postal Service", "operator:short": "USPS", "operator:type": "public", "operator:wikidata": "Q668687", "ref": "0426000002"}, "type": "Feature"}
{"geometry": {"coordinates": [-70.290503, 43.997189], "type": "Point"}, "id": "VFortuW8gB0FJe5zV1P7enJHA7c=", "properties": {"@source_uri": "https://tools.usps.com/UspsToolsRestServices/rest/POLocator/findLocations", "@spider": "usps_collection_boxes", "addr:city": "NEW GLOUCESTER", "addr:country": "US", "addr:postcode": "04260", "addr:state": "ME", "addr:street_address": "9 GILMORE RD", "amenity": "post_box", "collection_times": "Mo-Fr 16:30; Sa 12:00", "indoor": "yes", "note": "ON 12/24 AND 12/31, THIS BOX MAY BE COLLECTED AS EARLY AS 12 NOON.", "nsi_id": "unitedstatespostalservice-a77078", "operator": "United States Postal Service", "operator:short": "USPS", "operator:type": "public", "operator:wikidata": "Q668687", "ref": "0426000004"}, "type": "Feature"}
{"geometry": {"coordinates": [-70.290503, 43.997189], "type": "Point"}, "id": "5hN1X7TpR68fcZ9ofX6qlFwk9s8=", "properties": {"@source_uri": "https://tools.usps.com/UspsToolsRestServices/rest/POLocator/findLocations", "@spider": "usps_collection_boxes", "addr:city": "NEW GLOUCESTER", "addr:country": "US", "addr:postcode": "04260", "addr:state": "ME", "addr:street_address": "9 GILMORE RD", "amenity": "post_box", "collection_times": "Mo-Fr 16:30; Sa 12:00", "indoor": "yes", "note": "ON 12/24 AND 12/31, THIS BOX MAY BE COLLECTED AS EARLY AS 12 NOON.", "nsi_id": "unitedstatespostalservice-a77078", "operator": "United States Postal Service", "operator:short": "USPS", "operator:type": "public", "operator:wikidata": "Q668687", "ref": "0426000005"}, "type": "Feature"}
{"geometry": {"coordinates": [-70.289665117, 43.996759033], "type": "Point"}, "id": "2SHPTV1qGZTSFKOFxazuVmAcUR4=", "properties": {"@source_uri": "https://tools.usps.com/UspsToolsRestServices/rest/POLocator/findLocations", "@spider": "usps_collection_boxes", "addr:city": "NEW GLOUCESTER", "addr:country": "US", "addr:postcode": "04260", "addr:state": "ME", "addr:street_address": "9 GILMORE RD", "amenity": "post_box", "collection_times": "Mo-Fr 16:45; Sa 12:00", "indoor": "yes", "note": "ON 12/24 AND 12/31, THIS BOX MAY BE COLLECTED AS EARLY AS 12 NOON.", "nsi_id": "unitedstatespostalservice-a77078", "operator": "United States Postal Service", "operator:short": "USPS", "operator:type": "public", "operator:wikidata": "Q668687", "ref": "0426000006"}, "type": "Feature"}
{"geometry": {"coordinates": [-70.831633, 44.470005], "type": "Point"}, "id": "q01TyEu-2IMpESYofCA50qMFrkg=", "properties": {"@source_uri": "https://tools.usps.com/UspsToolsRestServices/rest/POLocator/findLocations", "@spider": "usps_collection_boxes", "addr:city": "NEWRY", "addr:country": "US", "addr:postcode": "04261", "addr:state": "ME", "addr:street_address": "8 POST OFFICE DR", "amenity": "post_box", "collection_times": "Mo-Fr 13:45; Sa 11:45", "note": "ON 12/24 AND 12/31, THIS BOX MAY BE COLLECTED AS EARLY AS 12 NOON.", "nsi_id": "unitedstatespostalservice-a77078", "operator": "United States Postal Service", "operator:short": "USPS", "operator:type": "public", "operator:wikidata": "Q668687", "ref": "0426100000"}, "type": "Feature"}
{"geometry": {"coordinates": [-70.831521, 44.470027], "type": "Point"}, "id": "CABHM4xXDCJ0v5b62OfZNI2U1sw=", "properties": {"@source_uri": "https://tools.usps.com/UspsToolsRestServices/rest/POLocator/findLocations", "@spider": "usps_collection_boxes", "addr:city": "NEWRY", "addr:country": "US", "addr:postcode": "04261", "addr:state": "ME", "addr:street_address": "8 POST OFFICE DR", "amenity": "post_box", "collection_times": "Mo-Fr 13:45; Sa 11:45", "indoor": "yes", "note": "ON 12/24 AND 12/31, THIS BOX MAY BE COLLECTED AS EARLY AS 12 NOON.", "nsi_id": "unitedstatespostalservice-a77078", "operator": "United States Postal Service", "operator:short": "USPS", "operator:type": "public", "operator:wikidata": "Q668687", "ref": "0426100001"}, "type": "Feature"}
{"geometry": {"coordinates": [-70.831521, 44.470027], "type": "Point"}, "id": "CroDdoqbpd-grfJzEnc_h0m-BB8=", "properties": {"@source_uri": "https://tools.usps.com/UspsToolsRestServices/rest/POLocator/findLocations", "@spider": "usps_collection_boxes", "addr:city": "NEWRY", "addr:country": "US", "addr:postcode": "04261", "addr:state": "ME", "addr:street_address": "8 POST OFFICE DR", "amenity": "post_box", "collection_times": "Mo-Fr 13:45; Sa 11:45", "indoor": "yes", "note": "ON 12/24 AND 12/31, THIS BOX MAY BE COLLECTED AS EARLY AS 12 NOON.", "nsi_id": "unitedstatespostalservice-a77078", "operator": "United States Postal Service", "operator:short": "USPS", "operator:type": "public", "operator:wikidata": "Q668687", "ref": "0426100002"}, "type": "Feature"}
{"geometry": {"coordinates": [-70.832005375, 44.470321345], "type": "Point"}, "id": "zlzpJo3b2Iykpenu0P3zbhMUPxg=", "properties": {"@source_uri": "https://tools.usps.com/UspsToolsRestServices/rest/POLocator/findLocations", "@spider": "usps_collection_boxes", "addr:city": "NEWRY", "addr:country": "US", "addr:postcode": "04261", "addr:state": "ME", "addr:street_address": "8 POST OFFICE DR", "amenity": "post_box", "collection_times": "Mo-Fr 14:00; Sa 12:00", "indoor": "yes", "note": "ON 12/24 AND 12/31, THIS BOX MAY BE COLLECTED AS EARLY AS 12 NOON.", "nsi_id": "unitedstatespostalservice-a77078", "operator": "United States Postal Service", "operator:short": "USPS", "operator:type": "public", "operator:wikidata": "Q668687", "ref": "0426100003"}, "type": "Feature"}
{"geometry": {"coordinates": [-70.11825, 44.301829], "type": "Point"}, "id": "Wsrg2Bgsy_Yf0yqahF6lkU0JUqc=", "properties": {"@source_uri": "https://tools.usps.com/UspsToolsRestServices/rest/POLocator/findLocations", "@spider": "usps_collection_boxes", "addr:city": "LEEDS", "addr:country": "US", "addr:postcode": "04263", "addr:state": "ME", "addr:street_address": "1279 ROUTE 106", "amenity": "post_box", "collection_times": "Mo-Fr 14:00; Sa 11:00", "note": "ON 12/24 AND 12/31, THIS BOX MAY BE COLLECTED AS EARLY AS 12 NOON.", "nsi_id": "unitedstatespostalservice-a77078", "operator": "United States Postal Service", "operator:short": "USPS", "operator:type": "public", "operator:wikidata": "Q668687", "ref": "0426300001"}, "type": "Feature"}
{"geometry": {"coordinates": [-70.118277, 44.301806], "type": "Point"}, "id": "95u_C4TogR25-iyYCfHJEQja3NA=", "properties": {"@source_uri": "https://tools.usps.com/UspsToolsRestServices/rest/POLocator/findLocations", "@spider": "usps_collection_boxes", "addr:city": "LEEDS", "addr:country": "US", "addr:postcode": "04263", "addr:state": "ME", "addr:street_address": "1279 ROUTE 106", "amenity": "post_box", "collection_times": "Mo-Fr 14:00; Sa 11:00", "indoor": "yes", "note": "ON 12/24 AND 12/31, THIS BOX MAY BE COLLECTED AS EARLY AS 12 NOON.", "nsi_id": "unitedstatespostalservice-a77078", "operator": "United States Postal Service", "operator:short": "USPS", "operator:type": "public", "operator:wikidata": "Q668687", "ref": "0426300003"}, "type": "Feature"}
{"geometry": {"coordinates": [-70.11843437, 44.302172714], "type": "Point"}, "id": "r026PI5a6Dw0IdIOVqyHfkyQA0g=", "properties": {"@source_uri": "https://tools.usps.com/UspsToolsRestServices/rest/POLocator/findLocations", "@spider": "usps_collection_boxes", "addr:city": "LEEDS", "addr:country": "US", "addr:postcode": "04263", "addr:state": "ME", "addr:street_address": "1279 ROUTE 106", "amenity": "post_box", "collection_times": "Mo-Fr 14:00; Sa 11:00", "indoor": "yes", "note": "ON 12/24 AND 12/31, THIS BOX MAY BE COLLECTED AS EARLY AS 12 NOON.", "nsi_id": "unitedstatespostalservice-a77078", "operator": "United States Postal Service", "operator:short": "USPS", "operator:type": "public", "operator:wikidata": "Q668687", "ref": "0426300004"}, "type": "Feature"}
{"geometry": {"coordinates": [-70.028123, 44.275767], "type": "Point"}, "id": "ns906Eu9xD4MfIFiYJTFCSVuCjQ=", "properties": {"@source_uri": "https://tools.usps.com/UspsToolsRestServices/rest/POLocator/findLocations", "@spider": "usps_collection_boxes", "addr:city": "NORTH MONMOUTH", "addr:country": "US", "addr:postcode": "04265", "addr:state": "ME", "addr:street_address": "140 N MAIN ST", "amenity": "post_box", "collection_times": "Mo-Fr 16:00; Sa 11:15", "note": "ON 12/24 AND 12/31, THIS BOX MAY BE COLLECTED AS EARLY AS 12 NOON.", "nsi_id": "unitedstatespostalservice-a77078", "operator": "United States Postal Service", "operator:short": "USPS", "operator:type": "public", "operator:wikidata": "Q668687", "ref": "0426500001"}, "type": "Feature"}
{"geometry": {"coordinates": [-70.028123, 44.275767], "type": "Point"}, "id": "5PTY4h__P1bBQ5ibTqkiX1twyNA=", "properties": {"@source_uri": "https://tools.usps.com/UspsToolsRestServices/rest/POLocator/findLocations", "@spider": "usps_collection_boxes", "addr:city": "NORTH MONMOUTH", "addr:country": "US", "addr:postcode": "04265", "addr:state": "ME", "addr:street_address": "140 N MAIN ST", "amenity": "post_box", "collection_times": "Mo-Fr 16:10; Sa 11:15", "indoor": "yes", "note": "ON 12/24 AND 12/31, THIS BOX MAY BE COLLECTED AS EARLY AS 12 NOON.", "nsi_id": "unitedstatespostalservice-a77078", "operator": "United States Postal Service", "operator:short": "USPS", "operator:type": "public", "operator:wikidata": "Q668687", "ref": "0426500002"}, "type": "Feature"}
{"geometry": {"coordinates": [-70.02834572, 44.275928091], "type": "Point"}, "id": "X0ooutuP945uOtV5n90qHdnK_y0=", "properties": {"@source_uri": "https://tools.usps.com/UspsToolsRestServices/rest/POLocator/findLocations", "@spider": "usps_collection_boxes", "addr:city": "NORTH MONMOUTH", "addr:country": "US", "addr:postcode": "04265", "addr:state": "ME", "addr:street_address": "140 N MAIN ST", "amenity": "post_box", "collection_times": "Mo-Fr 16:00; Sa 11:15", "indoor": "yes", "note": "ON 12/24 AND 12/31, THIS BOX MAY BE COLLECTED AS EARLY AS 12 NOON.", "nsi_id": "unitedstatespostalservice-a77078", "operator": "United States Postal Service", "operator:short": "USPS", "operator:type": "public", "operator:wikidata": "Q668687", "ref": "0426500004"}, "type": "Feature"}
{"geometry": {"coordinates": [-70.254022, 44.3412438], "type": "Point"}, "id": "pz-fWcGbwJO9t1X7RiyKn_UflR0=", "properties": {"@source_uri": "https://tools.usps.com/UspsToolsRestServices/rest/POLocator/findLocations", "@spider": "usps_collection_boxes", "addr:city": "NORTH TURNER", "addr:country": "US", "addr:postcode": "04266", "addr:state": "ME", "addr:street_address": "36 HOWES CORNER RD", "amenity": "post_box", "collection_times": "Mo-Sa 11:00", "nsi_id": "unitedstatespostalservice-a77078", "operator": "United States Postal Service", "operator:short": "USPS", "operator:type": "public", "operator:wikidata": "Q668687", "ref": "0426600001"}, "type": "Feature"}
{"geometry": {"coordinates": [-70.254022, 44.3412438], "type": "Point"}, "id": "VKXkrSq4AQH9Q9KEqqqEpKQf4Pg=", "properties": {"@source_uri": "https://tools.usps.com/UspsToolsRestServices/rest/POLocator/findLocations", "@spider": "usps_collection_boxes", "addr:city": "NORTH TURNER", "addr:country": "US", "addr:postcode": "04266", "addr:state": "ME", "addr:street_address": "36 HOWES CORNER RD", "amenity": "post_box", "collection_times": "Mo-Sa 11:00", "indoor": "yes", "nsi_id": "unitedstatespostalservice-a77078", "operator": "United States Postal Service", "operator:short": "USPS", "operator:type": "public", "operator:wikidata": "Q668687", "ref": "0426600002"}, "type": "Feature"}
{"geometry": {"coordinates": [-70.254022, 44.3412438], "type": "Point"}, "id": "TWqFMqa4UE9OMy6S9n_VMIeROQ0=", "properties": {"@source_uri": "https://tools.usps.com/UspsToolsRestServices/rest/POLocator/findLocations", "@spider": "usps_collection_boxes", "addr:city": "NORTH TURNER", "addr:country": "US", "addr:postcode": "04266", "addr:state": "ME", "addr:street_address": "36 HOWES CORNER RD", "amenity": "post_box", "collection_times": "Mo-Sa 11:00", "indoor": "yes", "nsi_id": "unitedstatespostalservice-a77078", "operator": "United States Postal Service", "operator:short": "USPS", "operator:type": "public", "operator:wikidata": "Q668687", "ref": "0426600003"}, "type": "Feature"}
{"geometry": {"coordinates": [-70.767642, 44.230535], "type": "Point"}, "id": "flVAat8uwiGHeAwLfUo_U6ncY-s=", "properties": {"@source_uri": "https://tools.usps.com/UspsToolsRestServices/rest/POLocator/findLocations", "@spider": "usps_collection_boxes", "addr:city": "NORTH WATERFORD", "addr:country": "US", "addr:postcode": "04267", "addr:state": "ME", "addr:street_address": "905 VALLEY RD", "amenity": "post_box", "collection_times": "Mo-Fr 16:00; Sa 11:30", "note": "ON 12/24 AND 12/31, THIS BOX MAY BE COLLECTED AS EARLY AS 12 NOON.", "nsi_id": "unitedstatespostalservice-a77078", "operator": "United States Postal Service", "operator:short": "USPS", "operator:type": "public", "operator:wikidata": "Q668687", "ref": "0426700000"}, "type": "Feature"}
{"geometry": {"coordinates": [-70.767642, 44.230535], "type": "Point"}, "id": "FG_lIG6LPZVBQ4lGmcW23nUe02o=", "properties": {"@source_uri": "https://tools.usps.com/UspsToolsRestServices/rest/POLocator/findLocations", "@spider": "usps_collection_boxes", "addr:city": "NORTH WATERFORD", "addr:country": "US", "addr:postcode": "04267", "addr:state": "ME", "addr:street_address": "905 VALLEY RD", "amenity": "post_box", "collection_times": "Mo-Fr 16:00; Sa 11:35", "indoor": "yes", "note": "ON 12/24 AND 12/31, THIS BOX MAY BE COLLECTED AS EARLY AS 12 NOON.", "nsi_id": "unitedstatespostalservice-a77078", "operator": "United States Postal Service", "operator:short": "USPS", "operator:type": "public", "operator:wikidata": "Q668687", "ref": "0426700001"}, "type": "Feature"}
{"geometry": {"coordinates": [-70.767587767, 44.230468913], "type": "Point"}, "id": "vGH2VN20C40YXEn8Bdv91XCGImo=", "properties": {"@source_uri": "https://tools.usps.com/UspsToolsRestServices/rest/POLocator/findLocations", "@spider": "usps_collection_boxes", "addr:city": "NORTH WATERFORD", "addr:country": "US", "addr:postcode": "04267", "addr:state": "ME", "addr:street_address": "905 VALLEY RD", "amenity": "post_box", "collection_times": "Mo-Fr 16:00; Sa 11:30", "indoor": "yes", "note": "ON 12/24 AND 12/31, THIS BOX MAY BE COLLECTED AS EARLY AS 12 NOON.", "nsi_id": "unitedstatespostalservice-a77078", "operator": "United States Postal Service", "operator:short": "USPS", "operator:type": "public", "operator:wikidata": "Q668687", "ref": "0426700002"}, "type": "Feature"}
{"geometry": {"coordinates": [-70.539947, 44.213642], "type": "Point"}, "id": "TgZjr7Mlq4QEewjkG3BlYMbkAl8=", "properties": {"@source_uri": "https://tools.usps.com/UspsToolsRestServices/rest/POLocator/findLocations", "@spider": "usps_collection_boxes", "addr:city": "NORWAY", "addr:country": "US", "addr:postcode": "04268", "addr:state": "ME", "addr:street_address": "10 TEMPLE ST", "amenity": "post_box", "collection_times": "Mo-Fr 16:45; Sa 15:00", "note": "ON 12/24 AND 12/31, THIS BOX MAY BE COLLECTED AS EARLY AS 12 NOON.", "nsi_id": "unitedstatespostalservice-a77078", "operator": "United States Postal Service", "operator:short": "USPS", "operator:type": "public", "operator:wikidata": "Q668687", "ref": "0426800008"}, "type": "Feature"}
{"geometry": {"coordinates": [-70.540424, 44.213309], "type": "Point"}, "id": "zmw-lAeIlzUmbgdkTSJLS0rExdE=", "properties": {"@source_uri": "https://tools.usps.com/UspsToolsRestServices/rest/POLocator/findLocations", "@spider": "usps_collection_boxes", "addr:city": "NORWAY", "addr:country": "US", "addr:postcode": "04268", "addr:state": "ME", "addr:street_address": "299 MAIN ST", "amenity": "post_box", "collection_times": "Mo-Fr 16:45; Sa 15:00", "indoor": "yes", "note": "ON 12/24 AND 12/31, THIS BOX MAY BE COLLECTED AS EARLY AS 12 NOON.", "nsi_id": "unitedstatespostalservice-a77078", "operator": "United States Postal Service", "operator:short": "USPS", "operator:type": "public", "operator:wikidata": "Q668687", "ref": "0426800015"}, "type": "Feature"}
{"geometry": {"coordinates": [-70.540443336, 44.213114954], "type": "Point"}, "id": "CfyQDtkl4U6Ci2wwt0G5UXxttxU=", "properties": {"@source_uri": "https://tools.usps.com/UspsToolsRestServices/rest/POLocator/findLocations", "@spider": "usps_collection_boxes", "addr:city": "NORWAY", "addr:country": "US", "addr:postcode": "04268", "addr:state": "ME", "addr:street_address": "299 MAIN ST", "amenity": "post_box", "collection_times": "Mo-Fr 16:45; Sa 12:00", "indoor": "yes", "note": "ON 12/24 AND 12/31, THIS BOX MAY BE COLLECTED AS EARLY AS 12 NOON.", "nsi_id": "unitedstatespostalservice-a77078", "operator": "United States Postal Service", "operator:short": "USPS", "operator:type": "public", "operator:wikidata": "Q668687", "ref": "0426800018"}, "type": "Feature"}
{"geometry": {"coordinates": [-70.495215, 44.132116], "type": "Point"}, "id": "07gv0i5OhDXR4_CZT542O7sPIhA=", "properties": {"@source_uri": "https://tools.usps.com/UspsToolsRestServices/rest/POLocator/findLocations", "@spider": "usps_collection_boxes", "addr:city": "OXFORD", "addr:country": "US", "addr:postcode": "04270", "addr:state": "ME", "addr:street_address": "98 PLEASANT ST", "amenity": "post_box", "collection_times": "Mo-Fr 16:00; Sa 12:00", "note": "ON 12/24 AND 12/31, THIS BOX MAY BE COLLECTED AS EARLY AS 12 NOON.", "nsi_id": "unitedstatespostalservice-a77078", "operator": "United States Postal Service", "operator:short": "USPS", "operator:type": "public", "operator:wikidata": "Q668687", "ref": "0427000001"}, "type": "Feature"}
{"geometry": {"coordinates": [-70.5264018, 44.193565], "type": "Point"}, "id": "SN4UhqGDVij492AAZ7PnHoiurAQ=", "properties": {"@source_uri": "https://tools.usps.com/UspsToolsRestServices/rest/POLocator/findLocations", "@spider": "usps_collection_boxes", "addr:city": "OXFORD", "addr:country": "US", "addr:postcode": "04270", "addr:state": "ME", "addr:street_address": "1570 MAIN ST", "amenity": "post_box", "collection_times": "Mo-Fr 10:00", "nsi_id": "unitedstatespostalservice-a77078", "operator": "United States Postal Service", "operator:short": "USPS", "operator:type": "public", "operator:wikidata": "Q668687", "ref": "0427000003"}, "type": "Feature"}
{"geometry": {"coordinates": [-70.5253429, 44.196195], "type": "Point"}, "id": "rTLBN-Y8xXLZI_O4ilw3gP9iix8=", "properties": {"@source_uri": "https://tools.usps.com/UspsToolsRestServices/rest/POLocator/findLocations", "@spider": "usps_collection_boxes", "addr:city": "OXFORD", "addr:country": "US", "addr:postcode": "04270", "addr:state": "ME", "addr:street_address": "1603 MAIN ST", "amenity": "post_box", "collection_times": "Mo-Fr 09:45", "nsi_id": "unitedstatespostalservice-a77078", "operator": "United States Postal Service", "operator:short": "USPS", "operator:type": "public", "operator:wikidata": "Q668687", "ref": "0427000004"}, "type": "Feature"}
{"geometry": {"coordinates": [-70.5129284, 44.173316], "type": "Point"}, "id": "El8tNgGw_uLX_WVXRTZCa4OOGzI=", "properties": {"@source_uri": "https://tools.usps.com/UspsToolsRestServices/rest/POLocator/findLocations", "@spider": "usps_collection_boxes", "addr:city": "OXFORD", "addr:country": "US", "addr:postcode": "04270", "addr:state": "ME", "addr:street_address": "1240 MAIN ST", "amenity": "post_box", "collection_times": "Mo-Fr 10:15", "nsi_id": "unitedstatespostalservice-a77078", "operator": "United States Postal Service", "operator:short": "USPS", "operator:type": "public", "operator:wikidata": "Q668687", "ref": "0427000005"}, "type": "Feature"}
{"geometry": {"coordinates": [-70.5326999, 44.092015], "type": "Point"}, "id": "Xq52VXGpK9hyvptDQt2PAfIY0nk=", "properties": {"@source_uri": "https://tools.usps.com/UspsToolsRestServices/rest/POLocator/findLocations", "@spider": "usps_collection_boxes", "addr:city": "OXFORD", "addr:country": "US", "addr:postcode": "04270", "addr:state": "ME", "addr:street_address": "403 STATE ROUTE 121", "amenity": "post_box", "collection_times": "Mo-Fr 09:00", "nsi_id": "unitedstatespostalservice-a77078", "operator": "United States Postal Service", "operator:short": "USPS", "operator:type": "public", "operator:wikidata": "Q668687", "ref": "0427000006"}, "type": "Feature"}
{"geometry": {"coordinates": [-70.495279, 44.132034], "type": "Point"}, "id": "Ey9y1-jqCWLxupvP3gu-wX62aE8=", "properties": {"@source_uri": "https://tools.usps.com/UspsToolsRestServices/rest/POLocator/findLocations", "@spider": "usps_collection_boxes", "addr:city": "OXFORD", "addr:country": "US", "addr:postcode": "04270", "addr:state": "ME", "addr:street_address": "98 PLEASANT ST", "amenity": "post_box", "collection_times": "Mo-Fr 16:00; Sa 12:00", "indoor": "yes", "note": "ON 12/24 AND 12/31, THIS BOX MAY BE COLLECTED AS EARLY AS 12 NOON.", "nsi_id": "unitedstatespostalservice-a77078", "operator": "United States Postal Service", "operator:short": "USPS", "operator:type": "public", "operator:wikidata": "Q668687", "ref": "0427000008"}, "type": "Feature"}
{"geometry": {"coordinates": [-70.495126031, 44.132417612], "type": "Point"}, "id": "mGQvalBt3qcjav9rjeeo0LBPkXU=", "properties": {"@source_uri": "https://tools.usps.com/UspsToolsRestServices/rest/POLocator/findLocations", "@spider": "usps_collection_boxes", "addr:city": "OXFORD", "addr:country": "US", "addr:postcode": "04270", "addr:state": "ME", "addr:street_address": "98 PLEASANT ST", "amenity": "post_box", "collection_times": "Mo-Fr 16:00; Sa 12:00", "indoor": "yes", "note": "ON 12/24 AND 12/31, THIS BOX MAY BE COLLECTED AS EARLY AS 12 NOON.", "nsi_id": "unitedstatespostalservice-a77078", "operator": "United States Postal Service", "operator:short": "USPS", "operator:type": "public", "operator:wikidata": "Q668687", "ref": "0427000010"}, "type": "Feature"}
{"geometry": {"coordinates": [-70.46057, 44.26994], "type": "Point"}, "id": "I4F2zrbaEDNyvqCYn5ec_AIIGMo=", "properties": {"@source_uri": "https://tools.usps.com/UspsToolsRestServices/rest/POLocator/findLocations", "@spider": "usps_collection_boxes", "addr:city": "PARIS", "addr:country": "US", "addr:postcode": "04271", "addr:state": "ME", "addr:street_address": "39 TREMONT ST", "amenity": "post_box", "collection_times": "Mo-Fr 16:00; Sa 11:30", "note": "ON 12/24 AND 12/31, THIS BOX MAY BE COLLECTED AS EARLY AS 12 NOON.", "nsi_id": "unitedstatespostalservice-a77078", "operator": "United States Postal Service", "operator:short": "USPS", "operator:type": "public", "operator:wikidata": "Q668687", "ref": "0427100001"}, "type": "Feature"}
{"geometry": {"coordinates": [-70.498301, 44.261958], "type": "Point"}, "id": "chrXPgm25aE-5jIFjUorUxNfop8=", "properties": {"@source_uri": "https://tools.usps.com/UspsToolsRestServices/rest/POLocator/findLocations", "@spider": "usps_collection_boxes", "addr:city": "PARIS", "addr:country": "US", "addr:postcode": "04271", "addr:state": "ME", "addr:street_address": "39 TREMONT", "amenity": "post_box", "collection_times": "Mo-Fr 16:00; Sa 11:30", "indoor": "yes", "note": "ON 12/24 AND 12/31, THIS BOX MAY BE COLLECTED AS EARLY AS 12 NOON.", "nsi_id": "unitedstatespostalservice-a77078", "operator": "United States Postal Service", "operator:short": "USPS", "operator:type": "public", "operator:wikidata": "Q668687", "ref": "0427100002"}, "type": "Feature"}
{"geometry": {"coordinates": [-70.46057, 44.26994], "type": "Point"}, "id": "nnidN9zlXszKTCE2Bd18VGD2YNA=", "properties": {"@source_uri": "https://tools.usps.com/UspsToolsRestServices/rest/POLocator/findLocations", "@spider": "usps_collection_boxes", "addr:city": "PARIS", "addr:country": "US", "addr:postcode": "04271", "addr:state": "ME", "addr:street_address": "39 TREMONT", "amenity": "post_box", "collection_times": "Mo-Fr 16:30; Sa 11:45", "indoor": "yes", "note": "ON 12/24 AND 12/31, THIS BOX MAY BE COLLECTED AS EARLY AS 12 NOON.", "nsi_id": "unitedstatespostalservice-a77078", "operator": "United States Postal Service", "operator:short": "USPS", "operator:type": "public", "operator:wikidata": "Q668687", "ref": "0427100003"}, "type": "Feature"}
{"geometry": {"coordinates": [-70.380199, 44.05038], "type": "Point"}, "id": "gG85FXv7IbU5ILjbGKN1vV75mNM=", "properties": {"@source_uri": "https://tools.usps.com/UspsToolsRestServices/rest/POLocator/findLocations", "@spider": "usps_collection_boxes", "addr:city": "POLAND", "addr:country": "US", "addr:postcode": "04274", "addr:state": "ME", "addr:street_address": "965 MAINE ST", "amenity": "post_box", "collection_times": "Mo-Fr 16:15; Sa 11:15", "note": "ON 12/24 AND 12/31, THIS BOX MAY BE COLLECTED AS EARLY AS 12 NOON.", "nsi_id": "unitedstatespostalservice-a77078", "operator": "United States Postal Service", "operator:short": "USPS", "operator:type": "public", "operator:wikidata": "Q668687", "ref": "0427400001"}, "type": "Feature"}
{"geometry": {"coordinates": [-70.3625669844, 44.0141550191], "type": "Point"}, "id": "M_55bcL8-VDYGUjT1DHxqr59R0g=", "properties": {"@source_uri": "https://tools.usps.com/UspsToolsRestServices/rest/POLocator/findLocations", "@spider": "usps_collection_boxes", "addr:city": "POLAND", "addr:country": "US", "addr:postcode": "04274", "addr:state": "ME", "addr:street_address": "386 MAINE ST", "amenity": "post_box", "collection_times": "Mo-Sa 09:00", "nsi_id": "unitedstatespostalservice-a77078", "operator": "United States Postal Service", "operator:short": "USPS", "operator:type": "public", "operator:wikidata": "Q668687", "ref": "0427400002"}, "type": "Feature"}
{"geometry": {"coordinates": [-70.396169, 44.062845], "type": "Point"}, "id": "MYHwEnAaZHpl2zcEjLCqJM6fRh8=", "properties": {"@source_uri": "https://tools.usps.com/UspsToolsRestServices/rest/POLocator/findLocations", "@spider": "usps_collection_boxes", "addr:city": "POLAND", "addr:country": "US", "addr:postcode": "04274", "addr:state": "ME", "addr:street_address": "1231 MAINE ST", "amenity": "post_box", "collection_times": "Mo-Sa 09:00", "nsi_id": "unitedstatespostalservice-a77078", "operator": "United States Postal Service", "operator:short": "USPS", "operator:type": "public", "operator:wikidata": "Q668687", "ref": "0427400003"}, "type": "Feature"}
{"geometry": {"coordinates": [-70.380162, 44.050359], "type": "Point"}, "id": "b3gwOKZEQuNw4uyMcTwIPtY29ws=", "properties": {"@source_uri": "https://tools.usps.com/UspsToolsRestServices/rest/POLocator/findLocations", "@spider": "usps_collection_boxes", "addr:city": "POLAND", "addr:country": "US", "addr:postcode": "04274", "addr:state": "ME", "addr:street_address": "965 MAINE ST", "amenity": "post_box", "collection_times": "Mo-Fr 16:15; Sa 11:15", "indoor": "yes", "note": "ON 12/24 AND 12/31, THIS BOX MAY BE COLLECTED AS EARLY AS 12 NOON.", "nsi_id": "unitedstatespostalservice-a77078", "operator": "United States Postal Service", "operator:short": "USPS", "operator:type": "public", "operator:wikidata": "Q668687", "ref": "0427400005"}, "type": "Feature"}
{"geometry": {"coordinates": [-70.380208204, 44.050032838], "type": "Point"}, "id": "R6368DRyJZwvUVdi-ABtnv42K_k=", "properties": {"@source_uri": "https://tools.usps.com/UspsToolsRestServices/rest/POLocator/findLocations", "@spider": "usps_collection_boxes", "addr:city": "POLAND", "addr:country": "US", "addr:postcode": "04274", "addr:state": "ME", "addr:street_address": "965 MAINE ST", "amenity": "post_box", "collection_times": "Mo-Fr 16:00; Sa 11:15", "indoor": "yes", "note": "ON 12/24 AND 12/31, THIS BOX MAY BE COLLECTED AS EARLY AS 12 NOON.", "nsi_id": "unitedstatespostalservice-a77078", "operator": "United States Postal Service", "operator:short": "USPS", "operator:type": "public", "operator:wikidata": "Q668687", "ref": "0427400006"}, "type": "Feature"}
{"geometry": {"coordinates": [-70.580879, 44.621704], "type": "Point"}, "id": "hCGSP_To87YhIzZ7l1N2IU4UUjE=", "properties": {"@source_uri": "https://tools.usps.com/UspsToolsRestServices/rest/POLocator/findLocations", "@spider": "usps_collection_boxes", "addr:city": "ROXBURY", "addr:country": "US", "addr:postcode": "04275", "addr:state": "ME", "addr:street_address": "6 FRYE CROSSOVER RD", "amenity": "post_box", "collection_times": "Mo-Fr 16:00; Sa 11:30", "note": "ON 12/24 AND 12/31, THIS BOX MAY BE COLLECTED AS EARLY AS 12 NOON.", "nsi_id": "unitedstatespostalservice-a77078", "operator": "United States Postal Service", "operator:short": "USPS", "operator:type": "public", "operator:wikidata": "Q668687", "ref": "0427500001"}, "type": "Feature"}
{"geometry": {"coordinates": [-70.580801, 44.621756], "type": "Point"}, "id": "sfOSHy4aazgxGPbnJdCJy_GvDAs=", "properties": {"@source_uri": "https://tools.usps.com/UspsToolsRestServices/rest/POLocator/findLocations", "@spider": "usps_collection_boxes", "addr:city": "ROXBURY", "addr:country": "US", "addr:postcode": "04275", "addr:state": "ME", "addr:street_address": "6 FRYE CROSSOVER RD", "amenity": "post_box", "collection_times": "Mo-Fr 16:00; Sa 11:45", "indoor": "yes", "note": "ON 12/24 AND 12/31, THIS BOX MAY BE COLLECTED AS EARLY AS 12 NOON.", "nsi_id": "unitedstatespostalservice-a77078", "operator": "United States Postal Service", "operator:short": "USPS", "operator:type": "public", "operator:wikidata": "Q668687", "ref": "0427500002"}, "type": "Feature"}
{"geometry": {"coordinates": [-70.580841641, 44.62166179], "type": "Point"}, "id": "RvPrgp99NK90e-4Pcxno6lDPyEw=", "properties": {"@source_uri": "https://tools.usps.com/UspsToolsRestServices/rest/POLocator/findLocations", "@spider": "usps_collection_boxes", "addr:city": "ROXBURY", "addr:country": "US", "addr:postcode": "04275", "addr:state": "ME", "addr:street_address": "6 FRYE CROSSOVER RD", "amenity": "post_box", "collection_times": "Mo-Fr 16:00; Sa 11:45", "indoor": "yes", "note": "ON 12/24 AND 12/31, THIS BOX MAY BE COLLECTED AS EARLY AS 12 NOON.", "nsi_id": "unitedstatespostalservice-a77078", "operator": "United States Postal Service", "operator:short": "USPS", "operator:type": "public", "operator:wikidata": "Q668687", "ref": "0427500004"}, "type": "Feature"}
{"geometry": {"coordinates": [-70.5572434, 44.5519], "type": "Point"}, "id": "rVmNomi0O7Z7Efok0-ajNOkZ-Lc=", "properties": {"@source_uri": "https://tools.usps.com/UspsToolsRestServices/rest/POLocator/findLocations", "@spider": "usps_collection_boxes", "addr:city": "RUMFORD", "addr:country": "US", "addr:postcode": "04276", "addr:state": "ME", "addr:street_address": "430 FRANKLIN ST", "amenity": "post_box", "collection_times": "Mo-Sa 11:30", "nsi_id": "unitedstatespostalservice-a77078", "operator": "United States Postal Service", "operator:short": "USPS", "operator:type": "public", "operator:wikidata": "Q668687", "ref": "0427600001"}, "type": "Feature"}
{"geometry": {"coordinates": [-70.5501989, 44.55492], "type": "Point"}, "id": "fkMdaXo8ykm0_furV324E9IxVBw=", "properties": {"@source_uri": "https://tools.usps.com/UspsToolsRestServices/rest/POLocator/findLocations", "@spider": "usps_collection_boxes", "addr:city": "RUMFORD", "addr:country": "US", "addr:postcode": "04276", "addr:state": "ME", "addr:street_address": "520 WALDO ST", "amenity": "post_box", "collection_times": "Mo-Sa 11:00", "nsi_id": "unitedstatespostalservice-a77078", "operator": "United States Postal Service", "operator:short": "USPS", "operator:type": "public", "operator:wikidata": "Q668687", "ref": "0427600005"}, "type": "Feature"}
{"geometry": {"coordinates": [-70.5458407, 44.544002], "type": "Point"}, "id": "QMVKYPSomTAGuoSWN3tBpN4lQuc=", "properties": {"@source_uri": "https://tools.usps.com/UspsToolsRestServices/rest/POLocator/findLocations", "@spider": "usps_collection_boxes", "addr:city": "RUMFORD", "addr:country": "US", "addr:postcode": "04276", "addr:state": "ME", "addr:street_address": "24 CONGRESS ST", "amenity": "post_box", "collection_times": "Mo-Sa 08:30", "nsi_id": "unitedstatespostalservice-a77078", "operator": "United States Postal Service", "operator:short": "USPS", "operator:type": "public", "operator:wikidata": "Q668687", "ref": "0427600006"}, "type": "Feature"}
{"geometry": {"coordinates": [-70.5449726, 44.533445], "type": "Point"}, "id": "gM7JcQdVKz47rk--az48aFe4vBQ=", "properties": {"@source_uri": "https://tools.usps.com/UspsToolsRestServices/rest/POLocator/findLocations", "@spider": "usps_collection_boxes", "addr:city": "RUMFORD", "addr:country": "US", "addr:postcode": "04276", "addr:state": "ME", "addr:street_address": "580 PROSPECT AVE", "amenity": "post_box", "collection_times": "Mo-Sa 11:30", "nsi_id": "unitedstatespostalservice-a77078", "operator": "United States Postal Service", "operator:short": "USPS", "operator:type": "public", "operator:wikidata": "Q668687", "ref": "0427600010"}, "type": "Feature"}
{"geometry": {"coordinates": [-70.5518887, 44.55554], "type": "Point"}, "id": "70_OfJ-vpP8ri6a-l5nORaMGzzg=", "properties": {"@source_uri": "https://tools.usps.com/UspsToolsRestServices/rest/POLocator/findLocations", "@spider": "usps_collection_boxes", "addr:city": "RUMFORD", "addr:country": "US", "addr:postcode": "04276", "addr:state": "ME", "addr:street_address": "544 HANCOCK ST", "amenity": "post_box", "collection_times": "Mo-Sa 10:15", "nsi_id": "unitedstatespostalservice-a77078", "operator": "United States Postal Service", "operator:short": "USPS", "operator:type": "public", "operator:wikidata": "Q668687", "ref": "0427600013"}, "type": "Feature"}
{"geometry": {"coordinates": [-70.5464725, 44.546383], "type": "Point"}, "id": "i3eW5xWNEjLn9mgxJ0_U1C7-wYI=", "properties": {"@source_uri": "https://tools.usps.com/UspsToolsRestServices/rest/POLocator/findLocations", "@spider": "usps_collection_boxes", "addr:city": "RUMFORD", "addr:country": "US", "addr:postcode": "04276", "addr:state": "ME", "addr:street_address": "137 CONGRESS ST", "amenity": "post_box", "collection_times": "Mo-Fr 16:30; Sa 15:30", "note": "ON 12/24 AND 12/31, THIS BOX MAY BE COLLECTED AS EARLY AS 12 NOON.", "nsi_id": "unitedstatespostalservice-a77078", "operator": "United States Postal Service", "operator:short": "USPS", "operator:type": "public", "operator:wikidata": "Q668687", "ref": "0427600014"}, "type": "Feature"}
{"geometry": {"coordinates": [-70.5460549, 44.546383], "type": "Point"}, "id": "2l6uov5OcffvfZcdVD96bn4uLPA=", "properties": {"@source_uri": "https://tools.usps.com/UspsToolsRestServices/rest/POLocator/findLocations", "@spider": "usps_collection_boxes", "addr:city": "RUMFORD", "addr:country": "US", "addr:postcode": "04276", "addr:state": "ME", "addr:street_address": "137 CONGRESS ST", "amenity": "post_box", "collection_times": "Mo-Fr 16:30; Sa 15:30", "indoor": "yes", "note": "ON 12/24 AND 12/31, THIS BOX MAY BE COLLECTED AS EARLY AS 12 NOON.", "nsi_id": "unitedstatespostalservice-a77078", "operator": "United States Postal Service", "operator:short": "USPS", "operator:type": "public", "operator:wikidata": "Q668687", "ref": "0427600015"}, "type": "Feature"}
{"geometry": {"coordinates": [-70.545789543, 44.546354078], "type": "Point"}, "id": "NVO_oBY6RDrel1ROi8oc-JCexq8=", "properties": {"@source_uri": "https://tools.usps.com/UspsToolsRestServices/rest/POLocator/findLocations", "@spider": "usps_collection_boxes", "addr:city": "RUMFORD", "addr:country": "US", "addr:postcode": "04276", "addr:state": "ME", "addr:street_address": "137 CONGRESS ST", "amenity": "post_box", "collection_times": "Mo-Fr 16:30; Sa 12:00", "indoor": "yes", "note": "ON 12/24 AND 12/31, THIS BOX MAY BE COLLECTED AS EARLY AS 12 NOON.", "nsi_id": "unitedstatespostalservice-a77078", "operator": "United States Postal Service", "operator:short": "USPS", "operator:type": "public", "operator:wikidata": "Q668687", "ref": "0427600016"}, "type": "Feature"}
{"geometry": {"coordinates": [-70.102839, 44.115328], "type": "Point"}, "id": "9FXGup6ykNeU2_4-D2rzls7SLM0=", "properties": {"@source_uri": "https://tools.usps.com/UspsToolsRestServices/rest/POLocator/findLocations", "@spider": "usps_collection_boxes", "addr:city": "SABATTUS", "addr:country": "US", "addr:postcode": "04280", "addr:state": "ME", "addr:street_address": "4 MIDDLE RD", "amenity": "post_box", "collection_times": "Mo-Fr 16:15; Sa 11:45", "note": "ON 12/24 AND 12/31, THIS BOX MAY BE COLLECTED AS EARLY AS 12 NOON.", "nsi_id": "unitedstatespostalservice-a77078", "operator": "United States Postal Service", "operator:short": "USPS", "operator:type": "public", "operator:wikidata": "Q668687", "ref": "0428000002"}, "type": "Feature"}
{"geometry": {"coordinates": [-70.102922, 44.115379], "type": "Point"}, "id": "e77fW7jtor47ZHimsZT_dwJ0daU=", "properties": {"@source_uri": "https://tools.usps.com/UspsToolsRestServices/rest/POLocator/findLocations", "@spider": "usps_collection_boxes", "addr:city": "SABATTUS", "addr:country": "US", "addr:postcode": "04280", "addr:state": "ME", "addr:street_address": "4 MIDDLE RD", "amenity": "post_box", "collection_times": "Mo-Fr 16:15; Sa 11:45", "indoor": "yes", "note": "ON 12/24 AND 12/31, THIS BOX MAY BE COLLECTED AS EARLY AS 12 NOON.", "nsi_id": "unitedstatespostalservice-a77078", "operator": "United States Postal Service", "operator:short": "USPS", "operator:type": "public", "operator:wikidata": "Q668687", "ref": "0428000003"}, "type": "Feature"}
{"geometry": {"coordinates": [-70.102922, 44.115379], "type": "Point"}, "id": "Bo3-SNPxwY27sshy02qYESjP1Lk=", "properties": {"@source_uri": "https://tools.usps.com/UspsToolsRestServices/rest/POLocator/findLocations", "@spider": "usps_collection_boxes", "addr:city": "SABATTUS", "addr:country": "US", "addr:postcode": "04280", "addr:state": "ME", "addr:street_address": "4 MIDDLE RD", "amenity": "post_box", "collection_times": "Mo-Fr 16:15; Sa 11:45", "indoor": "yes", "note": "ON 12/24 AND 12/31, THIS BOX MAY BE COLLECTED AS EARLY AS 12 NOON.", "nsi_id": "unitedstatespostalservice-a77078", "operator": "United States Postal Service", "operator:short": "USPS", "operator:type": "public", "operator:wikidata": "Q668687", "ref": "0428000004"}, "type": "Feature"}
{"geometry": {"coordinates": [-70.102897633, 44.115390168], "type": "Point"}, "id": "1ypsBcH16zBpv279vBAd6JXgcqM=", "properties": {"@source_uri": "https://tools.usps.com/UspsToolsRestServices/rest/POLocator/findLocations", "@spider": "usps_collection_boxes", "addr:city": "SABATTUS", "addr:country": "US", "addr:postcode": "04280", "addr:state": "ME", "addr:street_address": "4 MIDDLE RD", "amenity": "post_box", "collection_times": "Mo-Fr 16:30; Sa 12:00", "indoor": "yes", "note": "ON 12/24 AND 12/31, THIS BOX MAY BE COLLECTED AS EARLY AS 12 NOON.", "nsi_id": "unitedstatespostalservice-a77078", "operator": "United States Postal Service", "operator:short": "USPS", "operator:type": "public", "operator:wikidata": "Q668687", "ref": "0428000005"}, "type": "Feature"}
{"geometry": {"coordinates": [-70.51351, 44.225968], "type": "Point"}, "id": "lLMMSOiFshQPY4Th1oTsoER8wzU=", "properties": {"@source_uri": "https://tools.usps.com/UspsToolsRestServices/rest/POLocator/findLocations", "@spider": "usps_collection_boxes", "addr:city": "SOUTH PARIS", "addr:country": "US", "addr:postcode": "04281", "addr:state": "ME", "addr:street_address": "13 PARK ST", "amenity": "post_box", "collection_times": "Mo-Fr 16:15; Sa 12:00", "note": "ON 12/24 AND 12/31, THIS BOX MAY BE COLLECTED AS EARLY AS 12 NOON.", "nsi_id": "unitedstatespostalservice-a77078", "operator": "United States Postal Service", "operator:short": "USPS", "operator:type": "public", "operator:wikidata": "Q668687", "ref": "0428100001"}, "type": "Feature"}
{"geometry": {"coordinates": [-70.5268385774, 44.2131600375], "type": "Point"}, "id": "-5Ijn3oB7VUMOx5JMdDMHRLREQc=", "properties": {"@source_uri": "https://tools.usps.com/UspsToolsRestServices/rest/POLocator/findLocations", "@spider": "usps_collection_boxes", "addr:city": "SOUTH PARIS", "addr:country": "US", "addr:postcode": "04281", "addr:state": "ME", "addr:street_address": "243 MAIN ST", "amenity": "post_box", "collection_times": "Mo-Sa 13:30", "note": "ON 12/24 AND 12/31, THIS BOX MAY BE COLLECTED AS EARLY AS 12 NOON.", "nsi_id": "unitedstatespostalservice-a77078", "operator": "United States Postal Service", "operator:short": "USPS", "operator:type": "public", "operator:wikidata": "Q668687", "ref": "0428100005"}, "type": "Feature"}
{"geometry": {"coordinates": [-70.514148, 44.225651], "type": "Point"}, "id": "paFk2b2m1he8xWaFmJ19xgVe74c=", "properties": {"@source_uri": "https://tools.usps.com/UspsToolsRestServices/rest/POLocator/findLocations", "@spider": "usps_collection_boxes", "addr:city": "SOUTH PARIS", "addr:country": "US", "addr:postcode": "04281", "addr:state": "ME", "addr:street_address": "13 PARK ST", "amenity": "post_box", "collection_times": "Mo-Fr 16:15; Sa 12:00", "indoor": "yes", "note": "ON 12/24 AND 12/31, THIS BOX MAY BE COLLECTED AS EARLY AS 12 NOON.", "nsi_id": "unitedstatespostalservice-a77078", "operator": "United States Postal Service", "operator:short": "USPS", "operator:type": "public", "operator:wikidata": "Q668687", "ref": "0428100014"}, "type": "Feature"}
{"geometry": {"coordinates": [-70.51411468, 44.225739], "type": "Point"}, "id": "SdfcO7bDywAA4vg9W3FlTiafizs=", "properties": {"@source_uri": "https://tools.usps.com/UspsToolsRestServices/rest/POLocator/findLocations", "@spider": "usps_collection_boxes", "addr:city": "SOUTH PARIS", "addr:country": "US", "addr:postcode": "04281", "addr:state": "ME", "addr:street_address": "13 PARK ST", "amenity": "post_box", "collection_times": "Mo-Fr 16:30; Sa 12:00", "indoor": "yes", "note": "ON 12/24 AND 12/31, THIS BOX MAY BE COLLECTED AS EARLY AS 12 NOON.", "nsi_id": "unitedstatespostalservice-a77078", "operator": "United States Postal Service", "operator:short": "USPS", "operator:type": "public", "operator:wikidata": "Q668687", "ref": "0428100015"}, "type": "Feature"}
{"geometry": {"coordinates": [-70.259934, 44.257334], "type": "Point"}, "id": "cEqAIIKyWLfkHhi-Tc8B1Mnat4g=", "properties": {"@source_uri": "https://tools.usps.com/UspsToolsRestServices/rest/POLocator/findLocations", "@spider": "usps_collection_boxes", "addr:city": "TURNER", "addr:country": "US", "addr:postcode": "04282", "addr:state": "ME", "addr:street_address": "16 BUCKFIELD RD", "amenity": "post_box", "collection_times": "Mo-Fr 16:30; Sa 11:30", "note": "ON 12/24 AND 12/31, THIS BOX MAY BE COLLECTED AS EARLY AS 12 NOON.", "nsi_id": "unitedstatespostalservice-a77078", "operator": "United States Postal Service", "operator:short": "USPS", "operator:type": "public", "operator:wikidata": "Q668687", "ref": "0428200001"}, "type": "Feature"}
{"geometry": {"coordinates": [-70.259844, 44.25734], "type": "Point"}, "id": "OVdG_sgaTmJjSM9uBzWBcTPfbEw=", "properties": {"@source_uri": "https://tools.usps.com/UspsToolsRestServices/rest/POLocator/findLocations", "@spider": "usps_collection_boxes", "addr:city": "TURNER", "addr:country": "US", "addr:postcode": "04282", "addr:state": "ME", "addr:street_address": "16 BUCKFIELD RD", "amenity": "post_box", "collection_times": "Mo-Fr 16:30; Sa 11:30", "indoor": "yes", "note": "ON 12/24 AND 12/31, THIS BOX MAY BE COLLECTED AS EARLY AS 12 NOON.", "nsi_id": "unitedstatespostalservice-a77078", "operator": "United States Postal Service", "operator:short": "USPS", "operator:type": "public", "operator:wikidata": "Q668687", "ref": "0428200003"}, "type": "Feature"}
{"geometry": {"coordinates": [-70.260056527, 44.257355929], "type": "Point"}, "id": "LkBULp6VnYWPHQAFmr5CgVnaLtg=", "properties": {"@source_uri": "https://tools.usps.com/UspsToolsRestServices/rest/POLocator/findLocations", "@spider": "usps_collection_boxes", "addr:city": "TURNER", "addr:country": "US", "addr:postcode": "04282", "addr:state": "ME", "addr:street_address": "16 BUCKFIELD RD", "amenity": "post_box", "collection_times": "Mo-Fr 16:30; Sa 11:30", "indoor": "yes", "note": "ON 12/24 AND 12/31, THIS BOX MAY BE COLLECTED AS EARLY AS 12 NOON.", "nsi_id": "unitedstatespostalservice-a77078", "operator": "United States Postal Service", "operator:short": "USPS", "operator:type": "public", "operator:wikidata": "Q668687", "ref": "0428200004"}, "type": "Feature"}
{"geometry": {"coordinates": [-70.0677505, 44.348972], "type": "Point"}, "id": "5f8A90YxzNO1R16DxnBvsQYqNT8=", "properties": {"@source_uri": "https://tools.usps.com/UspsToolsRestServices/rest/POLocator/findLocations", "@spider": "usps_collection_boxes", "addr:city": "WAYNE", "addr:country": "US", "addr:postcode": "04284", "addr:state": "ME", "addr:street_address": "516 MAIN ST", "amenity": "post_box", "collection_times": "Mo-Fr 16:00; Sa 10:30", "note": "ON 12/24 AND 12/31, THIS BOX MAY BE COLLECTED AS EARLY AS 12 NOON.", "nsi_id": "unitedstatespostalservice-a77078", "operator": "United States Postal Service", "operator:short": "USPS", "operator:type": "public", "operator:wikidata": "Q668687", "ref": "0428400000"}, "type": "Feature"}
{"geometry": {"coordinates": [-70.067591, 44.349071], "type": "Point"}, "id": "gV29MU2KQCzBI2VGsFl1dL-Ze3k=", "properties": {"@source_uri": "https://tools.usps.com/UspsToolsRestServices/rest/POLocator/findLocations", "@spider": "usps_collection_boxes", "addr:city": "WAYNE", "addr:country": "US", "addr:postcode": "04284", "addr:state": "ME", "addr:street_address": "516 MAIN ST", "amenity": "post_box", "collection_times": "Mo-Fr 14:00; Sa 10:30", "indoor": "yes", "note": "ON 12/24 AND 12/31, THIS BOX MAY BE COLLECTED AS EARLY AS 12 NOON.", "nsi_id": "unitedstatespostalservice-a77078", "operator": "United States Postal Service", "operator:short": "USPS", "operator:type": "public", "operator:wikidata": "Q668687", "ref": "0428400001"}, "type": "Feature"}
{"geometry": {"coordinates": [-70.067690336, 44.349033221], "type": "Point"}, "id": "8kL_XDH3sHsPZqz_M6moRLVbo80=", "properties": {"@source_uri": "https://tools.usps.com/UspsToolsRestServices/rest/POLocator/findLocations", "@spider": "usps_collection_boxes", "addr:city": "WAYNE", "addr:country": "US", "addr:postcode": "04284", "addr:state": "ME", "addr:street_address": "516 MAIN ST", "amenity": "post_box", "collection_times": "Mo-Fr 14:00; Sa 10:00", "indoor": "yes", "note": "ON 12/24 AND 12/31, THIS BOX MAY BE COLLECTED AS EARLY AS 12 NOON.", "nsi_id": "unitedstatespostalservice-a77078", "operator": "United States Postal Service", "operator:short": "USPS", "operator:type": "public", "operator:wikidata": "Q668687", "ref": "0428400003"}, "type": "Feature"}
{"geometry": {"coordinates": [-70.4214, 44.698235], "type": "Point"}, "id": "M3IrSAASSTkdgXBcurqx2Y24bQ8=", "properties": {"@source_uri": "https://tools.usps.com/UspsToolsRestServices/rest/POLocator/findLocations", "@spider": "usps_collection_boxes", "addr:city": "WELD", "addr:country": "US", "addr:postcode": "04285", "addr:state": "ME", "addr:street_address": "21 MILL ST", "amenity": "post_box", "collection_times": "Mo-Fr 12:30; Sa 12:15", "note": "ON 12/24 AND 12/31, THIS BOX MAY BE COLLECTED AS EARLY AS 12 NOON.", "nsi_id": "unitedstatespostalservice-a77078", "operator": "United States Postal Service", "operator:short": "USPS", "operator:type": "public", "operator:wikidata": "Q668687", "ref": "0428500001"}, "type": "Feature"}
{"geometry": {"coordinates": [-70.4214, 44.698235], "type": "Point"}, "id": "NELE7pjz37zqql-VXPHQo493IG4=", "properties": {"@source_uri": "https://tools.usps.com/UspsToolsRestServices/rest/POLocator/findLocations", "@spider": "usps_collection_boxes", "addr:city": "WELD", "addr:country": "US", "addr:postcode": "04285", "addr:state": "ME", "addr:street_address": "21 MILL ST", "amenity": "post_box", "collection_times": "Mo-Fr 12:30; Sa 12:15", "indoor": "yes", "note": "ON 12/24 AND 12/31, THIS BOX MAY BE COLLECTED AS EARLY AS 12 NOON.", "nsi_id": "unitedstatespostalservice-a77078", "operator": "United States Postal Service", "operator:short": "USPS", "operator:type": "public", "operator:wikidata": "Q668687", "ref": "0428500002"}, "type": "Feature"}
{"geometry": {"coordinates": [-70.422120381, 44.698021721], "type": "Point"}, "id": "mmes1VjmBkv1fk12d7ICoWyYwEI=", "properties": {"@source_uri": "https://tools.usps.com/UspsToolsRestServices/rest/POLocator/findLocations", "@spider": "usps_collection_boxes", "addr:city": "WELD", "addr:country": "US", "addr:postcode": "04285", "addr:state": "ME", "addr:street_address": "21 MILL ST", "amenity": "post_box", "collection_times": "Mo-Sa 12:30", "indoor": "yes", "note": "ON 12/24 AND 12/31, THIS BOX MAY BE COLLECTED AS EARLY AS 12 NOON.", "nsi_id": "unitedstatespostalservice-a77078", "operator": "United States Postal Service", "operator:short": "USPS", "operator:type": "public", "operator:wikidata": "Q668687", "ref": "0428500003"}, "type": "Feature"}
{"geometry": {"coordinates": [-70.860944, 44.40216], "type": "Point"}, "id": "lEpgIma2ignf0Af3l3DThYaL1vA=", "properties": {"@source_uri": "https://tools.usps.com/UspsToolsRestServices/rest/POLocator/findLocations", "@spider": "usps_collection_boxes", "addr:city": "WEST BETHEL", "addr:country": "US", "addr:postcode": "04286", "addr:state": "ME", "addr:street_address": "737 W BETHEL RD", "amenity": "post_box", "collection_times": "Mo-Fr 15:00; Sa 12:45", "note": "ON 12/24 AND 12/31, THIS BOX MAY BE COLLECTED AS EARLY AS 12 NOON.", "nsi_id": "unitedstatespostalservice-a77078", "operator": "United States Postal Service", "operator:short": "USPS", "operator:type": "public", "operator:wikidata": "Q668687", "ref": "0428600001"}, "type": "Feature"}
{"geometry": {"coordinates": [-70.861002, 44.402098], "type": "Point"}, "id": "-CYiV8jRaQz20XELNO17xlqH4dA=", "properties": {"@source_uri": "https://tools.usps.com/UspsToolsRestServices/rest/POLocator/findLocations", "@spider": "usps_collection_boxes", "addr:city": "WEST BETHEL", "addr:country": "US", "addr:postcode": "04286", "addr:state": "ME", "addr:street_address": "737 W BETHEL RD", "amenity": "post_box", "collection_times": "Mo-Fr 15:00; Sa 12:45", "indoor": "yes", "note": "ON 12/24 AND 12/31, THIS BOX MAY BE COLLECTED AS EARLY AS 12 NOON.", "nsi_id": "unitedstatespostalservice-a77078", "operator": "United States Postal Service", "operator:short": "USPS", "operator:type": "public", "operator:wikidata": "Q668687", "ref": "0428600002"}, "type": "Feature"}
{"geometry": {"coordinates": [-70.861224669, 44.401993112], "type": "Point"}, "id": "YOtzpK-bDbTx3ctmdu7fJ_8Mp3g=", "properties": {"@source_uri": "https://tools.usps.com/UspsToolsRestServices/rest/POLocator/findLocations", "@spider": "usps_collection_boxes", "addr:city": "WEST BETHEL", "addr:country": "US", "addr:postcode": "04286", "addr:state": "ME", "addr:street_address": "737 W BETHEL RD", "amenity": "post_box", "collection_times": "Mo-Fr 15:15; Sa 12:45", "indoor": "yes", "note": "ON 12/24 AND 12/31, THIS BOX MAY BE COLLECTED AS EARLY AS 12 NOON.", "nsi_id": "unitedstatespostalservice-a77078", "operator": "United States Postal Service", "operator:short": "USPS", "operator:type": "public", "operator:wikidata": "Q668687", "ref": "0428600003"}, "type": "Feature"}
{"geometry": {"coordinates": [-70.5733042, 44.3250742], "type": "Point"}, "id": "_N7OaAGtzmbisxLDiMdWNFrwr_Q=", "properties": {"@source_uri": "https://tools.usps.com/UspsToolsRestServices/rest/POLocator/findLocations", "@spider": "usps_collection_boxes", "addr:city": "WEST PARIS", "addr:country": "US", "addr:postcode": "04289", "addr:state": "ME", "addr:street_address": "25 KINGSBURY ST", "amenity": "post_box", "collection_times": "Mo-Sa 09:00", "nsi_id": "unitedstatespostalservice-a77078", "operator": "United States Postal Service", "operator:short": "USPS", "operator:type": "public", "operator:wikidata": "Q668687", "ref": "0428900005"}, "type": "Feature"}
{"geometry": {"coordinates": [-70.467747, 44.521066], "type": "Point"}, "id": "W1CkpSJXMEJZi0bK0OTr__Uxcnc=", "properties": {"@source_uri": "https://tools.usps.com/UspsToolsRestServices/rest/POLocator/findLocations", "@spider": "usps_collection_boxes", "addr:city": "PERU", "addr:country": "US", "addr:postcode": "04290", "addr:state": "ME", "addr:street_address": "93 MAIN ST", "amenity": "post_box", "collection_times": "Mo-Fr 16:00; Sa 11:00", "indoor": "yes", "note": "ON 12/24 AND 12/31, THIS BOX MAY BE COLLECTED AS EARLY AS 12 NOON.", "nsi_id": "unitedstatespostalservice-a77078", "operator": "United States Postal Service", "operator:short": "USPS", "operator:type": "public", "operator:wikidata": "Q668687", "ref": "0429000003"}, "type": "Feature"}
{"geometry": {"coordinates": [-70.467747, 44.521066], "type": "Point"}, "id": "J7qR80Wmd49cZOBt7G4jlyuAN-U=", "properties": {"@source_uri": "https://tools.usps.com/UspsToolsRestServices/rest/POLocator/findLocations", "@spider": "usps_collection_boxes", "addr:city": "PERU", "addr:country": "US", "addr:postcode": "04290", "addr:state": "ME", "addr:street_address": "93 MAIN ST", "amenity": "post_box", "collection_times": "Mo-Fr 16:00; Sa 10:45", "note": "ON 12/24 AND 12/31, THIS BOX MAY BE COLLECTED AS EARLY AS 12 NOON.", "nsi_id": "unitedstatespostalservice-a77078", "operator": "United States Postal Service", "operator:short": "USPS", "operator:type": "public", "operator:wikidata": "Q668687", "ref": "0429000004"}, "type": "Feature"}
{"geometry": {"coordinates": [-70.467843224, 44.521044082], "type": "Point"}, "id": "21ChDZOI0Rdll9DtRHbyaGZvvsU=", "properties": {"@source_uri": "https://tools.usps.com/UspsToolsRestServices/rest/POLocator/findLocations", "@spider": "usps_collection_boxes", "addr:city": "PERU", "addr:country": "US", "addr:postcode": "04290", "addr:state": "ME", "addr:street_address": "93 MAIN ST", "amenity": "post_box", "collection_times": "Mo-Fr 16:15; Sa 13:00", "indoor": "yes", "note": "ON 12/24 AND 12/31, THIS BOX MAY BE COLLECTED AS EARLY AS 12 NOON.", "nsi_id": "unitedstatespostalservice-a77078", "operator": "United States Postal Service", "operator:short": "USPS", "operator:type": "public", "operator:wikidata": "Q668687", "ref": "0429000005"}, "type": "Feature"}
{"geometry": {"coordinates": [-70.4372429578, 44.0355889603], "type": "Point"}, "id": "o2oAuYEDwQrGBrOLPpwVMNSkNOk=", "properties": {"@source_uri": "https://tools.usps.com/UspsToolsRestServices/rest/POLocator/findLocations", "@spider": "usps_collection_boxes", "addr:city": "WEST POLAND", "addr:country": "US", "addr:postcode": "04291", "addr:state": "ME", "addr:street_address": "91 MEGQUIER HILL RD", "amenity": "post_box", "collection_times": "Mo-Fr 16:00; Sa 11:00", "note": "ON 12/24 AND 12/31, THIS BOX MAY BE COLLECTED AS EARLY AS 12 NOON.", "nsi_id": "unitedstatespostalservice-a77078", "operator": "United States Postal Service", "operator:short": "USPS", "operator:type": "public", "operator:wikidata": "Q668687", "ref": "0429100001"}, "type": "Feature"}
{"geometry": {"coordinates": [-70.4372429578, 44.0355889603], "type": "Point"}, "id": "RWuyUTnYA5OxQTRxLCRQhm_kB8s=", "properties": {"@source_uri": "https://tools.usps.com/UspsToolsRestServices/rest/POLocator/findLocations", "@spider": "usps_collection_boxes", "addr:city": "WEST POLAND", "addr:country": "US", "addr:postcode": "04291", "addr:state": "ME", "addr:street_address": "91 MEGQUIER HILL RD", "amenity": "post_box", "collection_times": "Mo-Fr 16:15; Sa 11:00", "indoor": "yes", "note": "ON 12/24 AND 12/31, THIS BOX MAY BE COLLECTED AS EARLY AS 12 NOON.", "nsi_id": "unitedstatespostalservice-a77078", "operator": "United States Postal Service", "operator:short": "USPS", "operator:type": "public", "operator:wikidata": "Q668687", "ref": "0429100002"}, "type": "Feature"}
{"geometry": {"coordinates": [-70.4372429578, 44.0355889603], "type": "Point"}, "id": "98GsNdX6X8XMD1SiZfcfrdvL5R0=", "properties": {"@source_uri": "https://tools.usps.com/UspsToolsRestServices/rest/POLocator/findLocations", "@spider": "usps_collection_boxes", "addr:city": "WEST POLAND", "addr:country": "US", "addr:postcode": "04291", "addr:state": "ME", "addr:street_address": "91 MEGQUIER HILL RD", "amenity": "post_box", "collection_times": "Mo-Fr 16:15; Sa 11:15", "indoor": "yes", "note": "ON 12/24 AND 12/31, THIS BOX MAY BE COLLECTED AS EARLY AS 12 NOON.", "nsi_id": "unitedstatespostalservice-a77078", "operator": "United States Postal Service", "operator:short": "USPS", "operator:type": "public", "operator:wikidata": "Q668687", "ref": "0429100003"}, "type": "Feature"}
{"geometry": {"coordinates": [-70.424249, 44.377934], "type": "Point"}, "id": "xIlUQLgt5BhVUsxvyzd8vIaDGv4=", "properties": {"@source_uri": "https://tools.usps.com/UspsToolsRestServices/rest/POLocator/findLocations", "@spider": "usps_collection_boxes", "addr:city": "SUMNER", "addr:country": "US", "addr:postcode": "04292", "addr:state": "ME", "addr:street_address": "643 MAIN ST", "amenity": "post_box", "collection_times": "Mo-Fr 16:00; Sa 11:00", "note": "ON 12/24 AND 12/31, THIS BOX MAY BE COLLECTED AS EARLY AS 12 NOON.", "nsi_id": "unitedstatespostalservice-a77078", "operator": "United States Postal Service", "operator:short": "USPS", "operator:type": "public", "operator:wikidata": "Q668687", "ref": "0429200001"}, "type": "Feature"}
{"geometry": {"coordinates": [-70.424332, 44.377895], "type": "Point"}, "id": "SxFJGIZsSp1_jH0hVjF16S_Wmh8=", "properties": {"@source_uri": "https://tools.usps.com/UspsToolsRestServices/rest/POLocator/findLocations", "@spider": "usps_collection_boxes", "addr:city": "SUMNER", "addr:country": "US", "addr:postcode": "04292", "addr:state": "ME", "addr:street_address": "643 MAIN ST", "amenity": "post_box", "collection_times": "Mo-Fr 16:15; Sa 11:15", "indoor": "yes", "note": "ON 12/24 AND 12/31, THIS BOX MAY BE COLLECTED AS EARLY AS 12 NOON.", "nsi_id": "unitedstatespostalservice-a77078", "operator": "United States Postal Service", "operator:short": "USPS", "operator:type": "public", "operator:wikidata": "Q668687", "ref": "0429200003"}, "type": "Feature"}
{"geometry": {"coordinates": [-70.424332, 44.377895], "type": "Point"}, "id": "jyDHq46ijvLeBErglj5fSJLCs8A=", "properties": {"@source_uri": "https://tools.usps.com/UspsToolsRestServices/rest/POLocator/findLocations", "@spider": "usps_collection_boxes", "addr:city": "SUMNER", "addr:country": "US", "addr:postcode": "04292", "addr:state": "ME", "addr:street_address": "643 MAIN ST", "amenity": "post_box", "collection_times": "Mo-Fr 16:15; Sa 11:15", "indoor": "yes", "note": "ON 12/24 AND 12/31, THIS BOX MAY BE COLLECTED AS EARLY AS 12 NOON.", "nsi_id": "unitedstatespostalservice-a77078", "operator": "United States Postal Service", "operator:short": "USPS", "operator:type": "public", "operator:wikidata": "Q668687", "ref": "0429200004"}, "type": "Feature"}
{"geometry": {"coordinates": [-70.42513501, 44.377825431], "type": "Point"}, "id": "tG7y-VP5r6lTlS23NwvnSrUI4i8=", "properties": {"@source_uri": "https://tools.usps.com/UspsToolsRestServices/rest/POLocator/findLocations", "@spider": "usps_collection_boxes", "addr:city": "SUMNER", "addr:country": "US", "addr:postcode": "04292", "addr:state": "ME", "addr:street_address": "643 MAIN ST", "amenity": "post_box", "collection_times": "Mo-Fr 16:15; Sa 11:00", "indoor": "yes", "note": "ON 12/24 AND 12/31, THIS BOX MAY BE COLLECTED AS EARLY AS 12 NOON.", "nsi_id": "unitedstatespostalservice-a77078", "operator": "United States Postal Service", "operator:short": "USPS", "operator:type": "public", "operator:wikidata": "Q668687", "ref": "0429200005"}, "type": "Feature"}
{"geometry": {"coordinates": [-70.230271, 44.588932], "type": "Point"}, "id": "TJRc9J3Gbe4TuF8kmHNZAS4G5qk=", "properties": {"@source_uri": "https://tools.usps.com/UspsToolsRestServices/rest/POLocator/findLocations", "@spider": "usps_collection_boxes", "addr:city": "WILTON", "addr:country": "US", "addr:postcode": "04294", "addr:state": "ME", "addr:street_address": "454 MAIN ST", "amenity": "post_box", "collection_times": "Mo-Fr 16:15; Sa 11:45", "note": "ON 12/24 AND 12/31, THIS BOX MAY BE COLLECTED AS EARLY AS 12 NOON.", "nsi_id": "unitedstatespostalservice-a77078", "operator": "United States Postal Service", "operator:short": "USPS", "operator:type": "public", "operator:wikidata": "Q668687", "ref": "0429400001"}, "type": "Feature"}
{"geometry": {"coordinates": [-70.230287, 44.588839], "type": "Point"}, "id": "upGACLl-a4N7wcS0gyHz-feWZEw=", "properties": {"@source_uri": "https://tools.usps.com/UspsToolsRestServices/rest/POLocator/findLocations", "@spider": "usps_collection_boxes", "addr:city": "WILTON", "addr:country": "US", "addr:postcode": "04294", "addr:state": "ME", "addr:street_address": "454 MAIN ST", "amenity": "post_box", "collection_times": "Mo-Fr 16:15; Sa 12:00", "indoor": "yes", "note": "ON 12/24 AND 12/31, THIS BOX MAY BE COLLECTED AS EARLY AS 12 NOON.", "nsi_id": "unitedstatespostalservice-a77078", "operator": "United States Postal Service", "operator:short": "USPS", "operator:type": "public", "operator:wikidata": "Q668687", "ref": "0429400004"}, "type": "Feature"}
{"geometry": {"coordinates": [-70.23034187, 44.588823182], "type": "Point"}, "id": "kCNhZeuCjq2QeC_NfnEztkvJfR0=", "properties": {"@source_uri": "https://tools.usps.com/UspsToolsRestServices/rest/POLocator/findLocations", "@spider": "usps_collection_boxes", "addr:city": "WILTON", "addr:country": "US", "addr:postcode": "04294", "addr:state": "ME", "addr:street_address": "454 MAIN ST", "amenity": "post_box", "collection_times": "Mo-Fr 16:15; Sa 12:00", "indoor": "yes", "note": "ON 12/24 AND 12/31, THIS BOX MAY BE COLLECTED AS EARLY AS 12 NOON.", "nsi_id": "unitedstatespostalservice-a77078", "operator": "United States Postal Service", "operator:short": "USPS", "operator:type": "public", "operator:wikidata": "Q668687", "ref": "0429400005"}, "type": "Feature"}
