{"geometry": {"coordinates": [-69.7801699, 44.315729], "type": "Point"}, "id": "Xzu7e65DnqdgGEyLpp-uU7lPg1E=", "properties": {"@source_uri": "https://tools.usps.com/UspsToolsRestServices/rest/POLocator/findLocations", "@spider": "usps_collection_boxes", "addr:city": "AUGUSTA", "addr:country": "US", "addr:postcode": "04330", "addr:state": "ME", "addr:street_address": "77 WINTHROP ST", "amenity": "post_box", "collection_times": "Mo-Fr 12:00; Sa 08:30", "nsi_id": "unitedstatespostalservice-a77078", "operator": "United States Postal Service", "operator:short": "USPS", "operator:type": "public", "operator:wikidata": "Q668687", "ref": "0433000003"}, "type": "Feature"}
{"geometry": {"coordinates": [-69.7934791, 44.317699], "type": "Point"}, "id": "vbDZPP1mwgyw797FtWNbcQPxhz4=", "properties": {"@source_uri": "https://tools.usps.com/UspsToolsRestServices/rest/POLocator/findLocations", "@spider": "usps_collection_boxes", "addr:city": "AUGUSTA", "addr:country": "US", "addr:postcode": "04330", "addr:state": "ME", "addr:street_address": "75 AIRPORT RD", "amenity": "post_box", "collection_times": "Mo-Sa 08:30", "nsi_id": "unitedstatespostalservice-a77078", "operator": "United States Postal Service", "operator:short": "USPS", "operator:type": "public", "operator:wikidata": "Q668687", "ref": "0433000007"}, "type": "Feature"}
{"geometry": {"coordinates": [-69.7800424, 44.310005], "type": "Point"}, "id": "5drvUy8wp8_-UW_pQRJ4RAvaMCg=", "properties": {"@source_uri": "https://tools.usps.com/UspsToolsRestServices/rest/POLocator/findLocations", "@spider": "usps_collection_boxes", "addr:city": "AUGUSTA", "addr:country": "US", "addr:postcode": "04330", "addr:state": "ME", "addr:street_address": "45 MEMORIAL DR", "amenity": "post_box", "collection_times": "Mo-Fr 15:30; Sa 08:30", "note": "ON 12/24 AND 12/31, THIS BOX MAY BE COLLECTED AS EARLY AS 12 NOON.", "nsi_id": "unitedstatespostalservice-a77078", "operator": "United States Postal Service", "operator:short": "USPS", "operator:type": "public", "operator:wikidata": "Q668687", "ref": "0433000008"}, "type": "Feature"}
{"geometry": {"coordinates": [-69.78079, 44.31311], "type": "Point"}, "id": "5jOfblup79m8mkNw4Pyo8cAJ4Yw=", "properties": {"@source_uri": "https://tools.usps.com/UspsToolsRestServices/rest/POLocator/findLocations", "@spider": "usps_collection_boxes", "addr:city": "AUGUSTA", "addr:country": "US", "addr:postcode": "04330", "addr:state": "ME", "addr:street_address": "23 WESTERN AVE", "amenity": "post_box", "collection_times": "Mo-Sa 08:00", "nsi_id": "unitedstatespostalservice-a77078", "operator": "United States Postal Service", "operator:short": "USPS", "operator:type": "public", "operator:wikidata": "Q668687", "ref": "0433000011"}, "type": "Feature"}
{"geometry": {"coordinates": [-69.7934049, 44.311594], "type": "Point"}, "id": "IYAvXBYC-ijY8b6spNwjqfTPqTw=", "properties": {"@source_uri": "https://tools.usps.com/UspsToolsRestServices/rest/POLocator/findLocations", "@spider": "usps_collection_boxes", "addr:city": "AUGUSTA", "addr:country": "US", "addr:postcode": "04330", "addr:state": "ME", "addr:street_address": "152 WESTERN AVE", "amenity": "post_box", "collection_times": "Mo-Sa 13:00", "note": "ON 12/24 AND 12/31, THIS BOX MAY BE COLLECTED AS EARLY AS 12 NOON.", "nsi_id": "unitedstatespostalservice-a77078", "operator": "United States Postal Service", "operator:short": "USPS", "operator:type": "public", "operator:wikidata": "Q668687", "ref": "0433000016"}, "type": "Feature"}
{"geometry": {"coordinates": [-69.8124285, 44.313781], "type": "Point"}, "id": "nUieIc8uaVmbLTrqynPW63OJbpE=", "properties": {"@source_uri": "https://tools.usps.com/UspsToolsRestServices/rest/POLocator/findLocations", "@spider": "usps_collection_boxes", "addr:city": "AUGUSTA", "addr:country": "US", "addr:postcode": "04330", "addr:state": "ME", "addr:street_address": "29 WHITTEN RD", "amenity": "post_box", "collection_times": "Mo-Sa 09:00", "nsi_id": "unitedstatespostalservice-a77078", "operator": "United States Postal Service", "operator:short": "USPS", "operator:type": "public", "operator:wikidata": "Q668687", "ref": "0433000019"}, "type": "Feature"}
{"geometry": {"coordinates": [-69.7751904, 44.313847], "type": "Point"}, "id": "xMIj95K2w52fKxDgAmFN3SH0pss=", "properties": {"@source_uri": "https://tools.usps.com/UspsToolsRestServices/rest/POLocator/findLocations", "@spider": "usps_collection_boxes", "addr:city": "AUGUSTA", "addr:country": "US", "addr:postcode": "04330", "addr:state": "ME", "addr:street_address": "332 WATER ST", "amenity": "post_box", "collection_times": "Mo-Fr 16:15; Sa 12:00", "note": "ON 12/24 AND 12/31, THIS BOX MAY BE COLLECTED AS EARLY AS 12 NOON.", "nsi_id": "unitedstatespostalservice-a77078", "operator": "United States Postal Service", "operator:short": "USPS", "operator:type": "public", "operator:wikidata": "Q668687", "ref": "0433000020"}, "type": "Feature"}
{"geometry": {"coordinates": [-69.777225, 44.314731], "type": "Point"}, "id": "00sAuGgKdzLu2rXDFdqJ-RUPwHM=", "properties": {"@source_uri": "https://tools.usps.com/UspsToolsRestServices/rest/POLocator/findLocations", "@spider": "usps_collection_boxes", "addr:city": "AUGUSTA", "addr:country": "US", "addr:postcode": "04330", "addr:state": "ME", "addr:street_address": "95 STATE ST", "amenity": "post_box", "collection_times": "Mo-Fr 11:30; Sa 08:30", "nsi_id": "unitedstatespostalservice-a77078", "operator": "United States Postal Service", "operator:short": "USPS", "operator:type": "public", "operator:wikidata": "Q668687", "ref": "0433000027"}, "type": "Feature"}
{"geometry": {"coordinates": [-69.785287, 44.305165], "type": "Point"}, "id": "8Ko0CSjJfbKx5k6NcIlJ9rIxDNA=", "properties": {"@source_uri": "https://tools.usps.com/UspsToolsRestServices/rest/POLocator/findLocations", "@spider": "usps_collection_boxes", "addr:city": "AUGUSTA", "addr:country": "US", "addr:postcode": "04330", "addr:state": "ME", "addr:street_address": "137 SEWALL ST", "amenity": "post_box", "collection_times": "Mo-Sa 08:30", "nsi_id": "unitedstatespostalservice-a77078", "operator": "United States Postal Service", "operator:short": "USPS", "operator:type": "public", "operator:wikidata": "Q668687", "ref": "0433000031"}, "type": "Feature"}
{"geometry": {"coordinates": [-69.7742752311, 44.3145171247], "type": "Point"}, "id": "ptclN18i8Vo7cOjulKNebIgBlb4=", "properties": {"@source_uri": "https://tools.usps.com/UspsToolsRestServices/rest/POLocator/findLocations", "@spider": "usps_collection_boxes", "addr:city": "AUGUSTA", "addr:country": "US", "addr:postcode": "04330", "addr:state": "ME", "addr:street_address": "295 WATER ST", "amenity": "post_box", "collection_times": "Mo-Fr 16:30; Sa 12:00", "note": "ON 12/24 AND 12/31, THIS BOX MAY BE COLLECTED AS EARLY AS 12 NOON.", "nsi_id": "unitedstatespostalservice-a77078", "operator": "United States Postal Service", "operator:short": "USPS", "operator:type": "public", "operator:wikidata": "Q668687", "ref": "0433000034"}, "type": "Feature"}
{"geometry": {"coordinates": [-69.8013042, 44.314679], "type": "Point"}, "id": "6afkRMGtHF9cJ9CBo1ME7Vy327s=", "properties": {"@source_uri": "https://tools.usps.com/UspsToolsRestServices/rest/POLocator/findLocations", "@spider": "usps_collection_boxes", "addr:city": "AUGUSTA", "addr:country": "US", "addr:postcode": "04330", "addr:state": "ME", "addr:street_address": "235 WESTERN AVE", "amenity": "post_box", "collection_times": "Mo-Sa 09:00", "nsi_id": "unitedstatespostalservice-a77078", "operator": "United States Postal Service", "operator:short": "USPS", "operator:type": "public", "operator:wikidata": "Q668687", "ref": "0433000036"}, "type": "Feature"}
{"geometry": {"coordinates": [-69.7919641, 44.309567], "type": "Point"}, "id": "zTFm6wgj--vYFCt4Moch7_ORFvA=", "properties": {"@source_uri": "https://tools.usps.com/UspsToolsRestServices/rest/POLocator/findLocations", "@spider": "usps_collection_boxes", "addr:city": "AUGUSTA", "addr:country": "US", "addr:postcode": "04330", "addr:state": "ME", "addr:street_address": "168 CAPITOL ST", "amenity": "post_box", "collection_times": "Mo-Fr 14:00; Sa 08:30", "note": "ON 12/24 AND 12/31, THIS BOX MAY BE COLLECTED AS EARLY AS 12 NOON.", "nsi_id": "unitedstatespostalservice-a77078", "operator": "United States Postal Service", "operator:short": "USPS", "operator:type": "public", "operator:wikidata": "Q668687", "ref": "0433000037"}, "type": "Feature"}
{"geometry": {"coordinates": [-69.783331, 44.310609], "type": "Point"}, "id": "DiMoarkfODNCtm4ymJh49o_2wuc=", "properties": {"@source_uri": "https://tools.usps.com/UspsToolsRestServices/rest/POLocator/findLocations", "@spider": "usps_collection_boxes", "addr:city": "AUGUSTA", "addr:country": "US", "addr:postcode": "04330", "addr:state": "ME", "addr:street_address": "68 SEWALL ST", "amenity": "post_box", "collection_times": "Mo-Fr 17:30; Sa 17:00", "indoor": "yes", "note": "ON 12/24 AND 12/31, THIS BOX MAY BE COLLECTED AS EARLY AS 12 NOON.", "nsi_id": "unitedstatespostalservice-a77078", "operator": "United States Postal Service", "operator:short": "USPS", "operator:type": "public", "operator:wikidata": "Q668687", "ref": "0433000040"}, "type": "Feature"}
{"geometry": {"coordinates": [-69.783331, 44.310609], "type": "Point"}, "id": "94ohE35nD1lS-5rdKxXOTq3ujss=", "properties": {"@source_uri": "https://tools.usps.com/UspsToolsRestServices/rest/POLocator/findLocations", "@spider": "usps_collection_boxes", "addr:city": "AUGUSTA", "addr:country": "US", "addr:postcode": "04330", "addr:state": "ME", "addr:street_address": "68 SEWALL ST", "amenity": "post_box", "collection_times": "Mo-Fr 17:30; Sa 17:00", "note": "ON 12/24 AND 12/31, THIS BOX MAY BE COLLECTED AS EARLY AS 12 NOON.", "nsi_id": "unitedstatespostalservice-a77078", "operator": "United States Postal Service", "operator:short": "USPS", "operator:type": "public", "operator:wikidata": "Q668687", "ref": "0433000041"}, "type": "Feature"}
{"geometry": {"coordinates": [-69.783331, 44.310609], "type": "Point"}, "id": "E1BghlYgX8Q7BXkcqJf0n_lPPqU=", "properties": {"@source_uri": "https://tools.usps.com/UspsToolsRestServices/rest/POLocator/findLocations", "@spider": "usps_collection_boxes", "addr:city": "AUGUSTA", "addr:country": "US", "addr:postcode": "04330", "addr:state": "ME", "addr:street_address": "68 SEWALL ST", "amenity": "post_box", "collection_times": "Mo-Fr 17:30; Sa 17:00", "note": "ON 12/24 AND 12/31, THIS BOX MAY BE COLLECTED AS EARLY AS 12 NOON.", "nsi_id": "unitedstatespostalservice-a77078", "operator": "United States Postal Service", "operator:short": "USPS", "operator:type": "public", "operator:wikidata": "Q668687", "ref": "0433000042"}, "type": "Feature"}
{"geometry": {"coordinates": [-69.776547, 44.327205], "type": "Point"}, "id": "YBbgbATXQht8ylpB9g8FmomJV7c=", "properties": {"@source_uri": "https://tools.usps.com/UspsToolsRestServices/rest/POLocator/findLocations", "@spider": "usps_collection_boxes", "addr:city": "AUGUSTA", "addr:country": "US", "addr:postcode": "04330", "addr:state": "ME", "addr:street_address": "131 NORTHERN AVE", "amenity": "post_box", "collection_times": "Mo-Sa 08:30", "nsi_id": "unitedstatespostalservice-a77078", "operator": "United States Postal Service", "operator:short": "USPS", "operator:type": "public", "operator:wikidata": "Q668687", "ref": "0433000046"}, "type": "Feature"}
{"geometry": {"coordinates": [-69.769251, 44.312566], "type": "Point"}, "id": "3SyKS_axr1LRtsK1Ybuj-y6yUoM=", "properties": {"@source_uri": "https://tools.usps.com/UspsToolsRestServices/rest/POLocator/findLocations", "@spider": "usps_collection_boxes", "addr:city": "AUGUSTA", "addr:country": "US", "addr:postcode": "04330", "addr:state": "ME", "addr:street_address": "6 E CHESTNUT ST", "amenity": "post_box", "collection_times": "Mo-Fr 12:00; Sa 08:30", "nsi_id": "unitedstatespostalservice-a77078", "operator": "United States Postal Service", "operator:short": "USPS", "operator:type": "public", "operator:wikidata": "Q668687", "ref": "0433000053"}, "type": "Feature"}
{"geometry": {"coordinates": [-69.7547907, 44.308362], "type": "Point"}, "id": "2dHJKhAOQDCXnQCWSN3vy64SOp8=", "properties": {"@source_uri": "https://tools.usps.com/UspsToolsRestServices/rest/POLocator/findLocations", "@spider": "usps_collection_boxes", "addr:city": "AUGUSTA", "addr:country": "US", "addr:postcode": "04330", "addr:state": "ME", "addr:street_address": "10 PENLEY ST", "amenity": "post_box", "collection_times": "Mo-Sa 12:00", "nsi_id": "unitedstatespostalservice-a77078", "operator": "United States Postal Service", "operator:short": "USPS", "operator:type": "public", "operator:wikidata": "Q668687", "ref": "0433000057"}, "type": "Feature"}
{"geometry": {"coordinates": [-69.7575355646, 44.3067382576], "type": "Point"}, "id": "mwAjsb2X3uIKKhCNfd-FFyuRfXs=", "properties": {"@source_uri": "https://tools.usps.com/UspsToolsRestServices/rest/POLocator/findLocations", "@spider": "usps_collection_boxes", "addr:city": "AUGUSTA", "addr:country": "US", "addr:postcode": "04330", "addr:state": "ME", "addr:street_address": "27 MAYFAIR ST", "amenity": "post_box", "collection_times": "Mo-Sa 09:00", "nsi_id": "unitedstatespostalservice-a77078", "operator": "United States Postal Service", "operator:short": "USPS", "operator:type": "public", "operator:wikidata": "Q668687", "ref": "0433000058"}, "type": "Feature"}
{"geometry": {"coordinates": [-69.7631419, 44.324538], "type": "Point"}, "id": "RWbwUlRUZbyZqBnmWbtC7FqZnWE=", "properties": {"@source_uri": "https://tools.usps.com/UspsToolsRestServices/rest/POLocator/findLocations", "@spider": "usps_collection_boxes", "addr:city": "AUGUSTA", "addr:country": "US", "addr:postcode": "04330", "addr:state": "ME", "addr:street_address": "2007 N BELFAST AVE", "amenity": "post_box", "collection_times": "Mo-Sa 12:00", "nsi_id": "unitedstatespostalservice-a77078", "operator": "United States Postal Service", "operator:short": "USPS", "operator:type": "public", "operator:wikidata": "Q668687", "ref": "0433000060"}, "type": "Feature"}
{"geometry": {"coordinates": [-69.7759933, 44.339366], "type": "Point"}, "id": "07V0iY4m1O5nFEUxqoYttuQ9kVU=", "properties": {"@source_uri": "https://tools.usps.com/UspsToolsRestServices/rest/POLocator/findLocations", "@spider": "usps_collection_boxes", "addr:city": "AUGUSTA", "addr:country": "US", "addr:postcode": "04330", "addr:state": "ME", "addr:street_address": "329 W RIVER RD", "amenity": "post_box", "collection_times": "Mo-Sa 09:00", "nsi_id": "unitedstatespostalservice-a77078", "operator": "United States Postal Service", "operator:short": "USPS", "operator:type": "public", "operator:wikidata": "Q668687", "ref": "0433000062"}, "type": "Feature"}
{"geometry": {"coordinates": [-69.7734967, 44.317083], "type": "Point"}, "id": "yjKnefJXASXRHZgdlIMFh0XC5bY=", "properties": {"@source_uri": "https://tools.usps.com/UspsToolsRestServices/rest/POLocator/findLocations", "@spider": "usps_collection_boxes", "addr:city": "AUGUSTA", "addr:country": "US", "addr:postcode": "04330", "addr:state": "ME", "addr:street_address": "173 WATER ST", "amenity": "post_box", "collection_times": "Mo-Sa 08:30", "nsi_id": "unitedstatespostalservice-a77078", "operator": "United States Postal Service", "operator:short": "USPS", "operator:type": "public", "operator:wikidata": "Q668687", "ref": "0433000065"}, "type": "Feature"}
{"geometry": {"coordinates": [-69.7674596, 44.317176], "type": "Point"}, "id": "oi78EYH5t4xUGosvsMa0BFJucic=", "properties": {"@source_uri": "https://tools.usps.com/UspsToolsRestServices/rest/POLocator/findLocations", "@spider": "usps_collection_boxes", "addr:city": "AUGUSTA", "addr:country": "US", "addr:postcode": "04330", "addr:state": "ME", "addr:street_address": "10 BANGOR ST", "amenity": "post_box", "collection_times": "Mo-Fr 16:15; Sa 08:30", "note": "ON 12/24 AND 12/31, THIS BOX MAY BE COLLECTED AS EARLY AS 12 NOON.", "nsi_id": "unitedstatespostalservice-a77078", "operator": "United States Postal Service", "operator:short": "USPS", "operator:type": "public", "operator:wikidata": "Q668687", "ref": "0433000070"}, "type": "Feature"}
{"geometry": {"coordinates": [-69.7787131, 44.312796], "type": "Point"}, "id": "L_UCrWJrrULc4TSjjBQLDZQVFWI=", "properties": {"@source_uri": "https://tools.usps.com/UspsToolsRestServices/rest/POLocator/findLocations", "@spider": "usps_collection_boxes", "addr:city": "AUGUSTA", "addr:country": "US", "addr:postcode": "04330", "addr:state": "ME", "addr:street_address": "132 STATE ST", "amenity": "post_box", "collection_times": "Mo-Fr 11:30; Sa 08:30", "nsi_id": "unitedstatespostalservice-a77078", "operator": "United States Postal Service", "operator:short": "USPS", "operator:type": "public", "operator:wikidata": "Q668687", "ref": "0433000082"}, "type": "Feature"}
{"geometry": {"coordinates": [-69.7781011, 44.307249], "type": "Point"}, "id": "DvcnekRp0E1dhr-QkE1QFJ1KpjU=", "properties": {"@source_uri": "https://tools.usps.com/UspsToolsRestServices/rest/POLocator/findLocations", "@spider": "usps_collection_boxes", "addr:city": "AUGUSTA", "addr:country": "US", "addr:postcode": "04330", "addr:state": "ME", "addr:street_address": "29 CAPITOL ST", "amenity": "post_box", "collection_times": "Mo-Fr 15:00", "note": "ON 12/24 AND 12/31, THIS BOX MAY BE COLLECTED AS EARLY AS 12 NOON.", "nsi_id": "unitedstatespostalservice-a77078", "operator": "United States Postal Service", "operator:short": "USPS", "operator:type": "public", "operator:wikidata": "Q668687", "ref": "0433000083"}, "type": "Feature"}
{"geometry": {"coordinates": [-69.7940908, 44.343008], "type": "Point"}, "id": "c_PPoOS3XniNPp153wwPNCUiESI=", "properties": {"@source_uri": "https://tools.usps.com/UspsToolsRestServices/rest/POLocator/findLocations", "@spider": "usps_collection_boxes", "addr:city": "AUGUSTA", "addr:country": "US", "addr:postcode": "04330", "addr:state": "ME", "addr:street_address": "1 UNIVERSITY DR", "amenity": "post_box", "collection_times": "Mo-Fr 14:45", "note": "ON 12/24 AND 12/31, THIS BOX MAY BE COLLECTED AS EARLY AS 12 NOON.", "nsi_id": "unitedstatespostalservice-a77078", "operator": "United States Postal Service", "operator:short": "USPS", "operator:type": "public", "operator:wikidata": "Q668687", "ref": "0433000084"}, "type": "Feature"}
{"geometry": {"coordinates": [-69.8241243, 44.320622], "type": "Point"}, "id": "-QCmfVrd4ca29yq9y_xBC12Ozks=", "properties": {"@source_uri": "https://tools.usps.com/UspsToolsRestServices/rest/POLocator/findLocations", "@spider": "usps_collection_boxes", "addr:city": "AUGUSTA", "addr:country": "US", "addr:postcode": "04330", "addr:state": "ME", "addr:street_address": "12 SHUMAN AVE", "amenity": "post_box", "collection_times": "Mo-Fr 10:00; Sa 08:30", "nsi_id": "unitedstatespostalservice-a77078", "operator": "United States Postal Service", "operator:short": "USPS", "operator:type": "public", "operator:wikidata": "Q668687", "ref": "0433000086"}, "type": "Feature"}
{"geometry": {"coordinates": [-69.7825711, 44.300254], "type": "Point"}, "id": "H7gs_-j7Di9B4qzs4vmIF1h9N1k=", "properties": {"@source_uri": "https://tools.usps.com/UspsToolsRestServices/rest/POLocator/findLocations", "@spider": "usps_collection_boxes", "addr:city": "AUGUSTA", "addr:country": "US", "addr:postcode": "04330", "addr:state": "ME", "addr:street_address": "291 STATE ST", "amenity": "post_box", "collection_times": "Mo-Sa 08:30", "nsi_id": "unitedstatespostalservice-a77078", "operator": "United States Postal Service", "operator:short": "USPS", "operator:type": "public", "operator:wikidata": "Q668687", "ref": "0433000087"}, "type": "Feature"}
{"geometry": {"coordinates": [-69.783331, 44.310609], "type": "Point"}, "id": "NRqFIv8X1cs46_dv5NRy0Itj6Qk=", "properties": {"@source_uri": "https://tools.usps.com/UspsToolsRestServices/rest/POLocator/findLocations", "@spider": "usps_collection_boxes", "addr:city": "AUGUSTA", "addr:country": "US", "addr:postcode": "04330", "addr:state": "ME", "addr:street_address": "68 SEWALL ST", "amenity": "post_box", "collection_times": "Mo-Fr 17:30; Sa 17:00", "indoor": "yes", "note": "ON 12/24 AND 12/31, THIS BOX MAY BE COLLECTED AS EARLY AS 12 NOON.", "nsi_id": "unitedstatespostalservice-a77078", "operator": "United States Postal Service", "operator:short": "USPS", "operator:type": "public", "operator:wikidata": "Q668687", "ref": "0433000088"}, "type": "Feature"}
{"geometry": {"coordinates": [-69.7648478, 44.31554], "type": "Point"}, "id": "LRRz5HG9ZKaCX2ZfcmlvC9eFFVQ=", "properties": {"@source_uri": "https://tools.usps.com/UspsToolsRestServices/rest/POLocator/findLocations", "@spider": "usps_collection_boxes", "addr:city": "AUGUSTA", "addr:country": "US", "addr:postcode": "04330", "addr:state": "ME", "addr:street_address": "118 CONY ST", "amenity": "post_box", "collection_times": "Mo-Sa 11:00", "nsi_id": "unitedstatespostalservice-a77078", "operator": "United States Postal Service", "operator:short": "USPS", "operator:type": "public", "operator:wikidata": "Q668687", "ref": "0433000089"}, "type": "Feature"}
{"geometry": {"coordinates": [-69.783046161, 44.311109689], "type": "Point"}, "id": "uSGXgNh4Wzx9OyzqQv_0tqEDOiw=", "properties": {"@source_uri": "https://tools.usps.com/UspsToolsRestServices/rest/POLocator/findLocations", "@spider": "usps_collection_boxes", "addr:city": "AUGUSTA", "addr:country": "US", "addr:postcode": "04330", "addr:state": "ME", "addr:street_address": "40 WESTERN AVE", "amenity": "post_box", "collection_times": "Mo-Fr 17:00; Sa 13:00", "indoor": "yes", "note": "ON 12/24 AND 12/31, THIS BOX MAY BE COLLECTED AS EARLY AS 12 NOON.", "nsi_id": "unitedstatespostalservice-a77078", "operator": "United States Postal Service", "operator:short": "USPS", "operator:type": "public", "operator:wikidata": "Q668687", "ref": "0433000095"}, "type": "Feature"}
{"geometry": {"coordinates": [-69.774479117, 44.314455403], "type": "Point"}, "id": "IU4od94zBhk6Y1tM3IGQl71n45s=", "properties": {"@source_uri": "https://tools.usps.com/UspsToolsRestServices/rest/POLocator/findLocations", "@spider": "usps_collection_boxes", "addr:city": "AUGUSTA", "addr:country": "US", "addr:postcode": "04330", "addr:state": "ME", "addr:street_address": "295 WATER ST", "amenity": "post_box", "collection_times": "Mo-Fr 16:15; Sa 11:00", "indoor": "yes", "note": "ON 12/24 AND 12/31, THIS BOX MAY BE COLLECTED AS EARLY AS 12 NOON.", "nsi_id": "unitedstatespostalservice-a77078", "operator": "United States Postal Service", "operator:short": "USPS", "operator:type": "public", "operator:wikidata": "Q668687", "ref": "0433000096"}, "type": "Feature"}
{"geometry": {"coordinates": [-69.553068, 44.259638], "type": "Point"}, "id": "Caf5PGy01EpSr5lwG3EV3ciB05k=", "properties": {"@source_uri": "https://tools.usps.com/UspsToolsRestServices/rest/POLocator/findLocations", "@spider": "usps_collection_boxes", "addr:city": "COOPERS MILLS", "addr:country": "US", "addr:postcode": "04341", "addr:state": "ME", "addr:street_address": "128 MAIN ST", "amenity": "post_box", "collection_times": "Mo-Fr 16:00; Sa 11:00", "note": "ON 12/24 AND 12/31, THIS BOX MAY BE COLLECTED AS EARLY AS 12 NOON.", "nsi_id": "unitedstatespostalservice-a77078", "operator": "United States Postal Service", "operator:short": "USPS", "operator:type": "public", "operator:wikidata": "Q668687", "ref": "0434100001"}, "type": "Feature"}
{"geometry": {"coordinates": [-69.553068, 44.259638], "type": "Point"}, "id": "8ABPMEJcxLpZMoh5s18vftEHvcU=", "properties": {"@source_uri": "https://tools.usps.com/UspsToolsRestServices/rest/POLocator/findLocations", "@spider": "usps_collection_boxes", "addr:city": "COOPERS MILLS", "addr:country": "US", "addr:postcode": "04341", "addr:state": "ME", "addr:street_address": "128 MAIN ST", "amenity": "post_box", "collection_times": "Mo-Fr 16:00; Sa 11:00", "indoor": "yes", "note": "ON 12/24 AND 12/31, THIS BOX MAY BE COLLECTED AS EARLY AS 12 NOON.", "nsi_id": "unitedstatespostalservice-a77078", "operator": "United States Postal Service", "operator:short": "USPS", "operator:type": "public", "operator:wikidata": "Q668687", "ref": "0434100002"}, "type": "Feature"}
{"geometry": {"coordinates": [-69.55279498, 44.259459224], "type": "Point"}, "id": "2lGSa3-a-yivwT8gk6t9bNxFp0k=", "properties": {"@source_uri": "https://tools.usps.com/UspsToolsRestServices/rest/POLocator/findLocations", "@spider": "usps_collection_boxes", "addr:city": "COOPERS MILLS", "addr:country": "US", "addr:postcode": "04341", "addr:state": "ME", "addr:street_address": "128 MAIN ST", "amenity": "post_box", "collection_times": "Mo-Fr 16:30; Sa 11:00", "indoor": "yes", "note": "ON 12/24 AND 12/31, THIS BOX MAY BE COLLECTED AS EARLY AS 12 NOON.", "nsi_id": "unitedstatespostalservice-a77078", "operator": "United States Postal Service", "operator:short": "USPS", "operator:type": "public", "operator:wikidata": "Q668687", "ref": "0434100004"}, "type": "Feature"}
{"geometry": {"coordinates": [-69.724964, 44.106946], "type": "Point"}, "id": "x45W9at4q4_DhW1TjMGhUl1Y9K8=", "properties": {"@source_uri": "https://tools.usps.com/UspsToolsRestServices/rest/POLocator/findLocations", "@spider": "usps_collection_boxes", "addr:city": "DRESDEN", "addr:country": "US", "addr:postcode": "04342", "addr:state": "ME", "addr:street_address": "12 MIDDLE RD", "amenity": "post_box", "collection_times": "Mo-Fr 14:30; Sa 11:30", "note": "ON 12/24 AND 12/31, THIS BOX MAY BE COLLECTED AS EARLY AS 12 NOON.", "nsi_id": "unitedstatespostalservice-a77078", "operator": "United States Postal Service", "operator:short": "USPS", "operator:type": "public", "operator:wikidata": "Q668687", "ref": "0434200001"}, "type": "Feature"}
{"geometry": {"coordinates": [-69.724949, 44.10702], "type": "Point"}, "id": "TBX4LcjgRIDtOx34Rvy6VWcO6gQ=", "properties": {"@source_uri": "https://tools.usps.com/UspsToolsRestServices/rest/POLocator/findLocations", "@spider": "usps_collection_boxes", "addr:city": "DRESDEN", "addr:country": "US", "addr:postcode": "04342", "addr:state": "ME", "addr:street_address": "12 MIDDLE RD", "amenity": "post_box", "collection_times": "Mo-Fr 14:30; Sa 11:30", "indoor": "yes", "note": "ON 12/24 AND 12/31, THIS BOX MAY BE COLLECTED AS EARLY AS 12 NOON.", "nsi_id": "unitedstatespostalservice-a77078", "operator": "United States Postal Service", "operator:short": "USPS", "operator:type": "public", "operator:wikidata": "Q668687", "ref": "0434200003"}, "type": "Feature"}
{"geometry": {"coordinates": [-69.724975563, 44.106912807], "type": "Point"}, "id": "kUUMTKOdGwRCIbCrHKzQmBC0xhU=", "properties": {"@source_uri": "https://tools.usps.com/UspsToolsRestServices/rest/POLocator/findLocations", "@spider": "usps_collection_boxes", "addr:city": "DRESDEN", "addr:country": "US", "addr:postcode": "04342", "addr:state": "ME", "addr:street_address": "12 MIDDLE RD", "amenity": "post_box", "collection_times": "Mo-Fr 14:30; Sa 11:00", "indoor": "yes", "note": "ON 12/24 AND 12/31, THIS BOX MAY BE COLLECTED AS EARLY AS 12 NOON.", "nsi_id": "unitedstatespostalservice-a77078", "operator": "United States Postal Service", "operator:short": "USPS", "operator:type": "public", "operator:wikidata": "Q668687", "ref": "0434200004"}, "type": "Feature"}
{"geometry": {"coordinates": [-69.900858, 44.321525], "type": "Point"}, "id": "akstTRdnbfKV_Vc6VjV0axFePZg=", "properties": {"@source_uri": "https://tools.usps.com/UspsToolsRestServices/rest/POLocator/findLocations", "@spider": "usps_collection_boxes", "addr:city": "EAST WINTHROP", "addr:country": "US", "addr:postcode": "04343", "addr:state": "ME", "addr:street_address": "2402 US ROUTE 202", "amenity": "post_box", "collection_times": "Mo-Fr 16:30; Sa 11:30", "note": "ON 12/24 AND 12/31, THIS BOX MAY BE COLLECTED AS EARLY AS 12 NOON.", "nsi_id": "unitedstatespostalservice-a77078", "operator": "United States Postal Service", "operator:short": "USPS", "operator:type": "public", "operator:wikidata": "Q668687", "ref": "0434300001"}, "type": "Feature"}
{"geometry": {"coordinates": [-69.900858, 44.321525], "type": "Point"}, "id": "25KzrSuFY91WSNQeUjp0qHmNtvY=", "properties": {"@source_uri": "https://tools.usps.com/UspsToolsRestServices/rest/POLocator/findLocations", "@spider": "usps_collection_boxes", "addr:city": "EAST WINTHROP", "addr:country": "US", "addr:postcode": "04343", "addr:state": "ME", "addr:street_address": "2402 US ROUTE 202", "amenity": "post_box", "collection_times": "Mo-Fr 16:30; Sa 11:45", "indoor": "yes", "note": "ON 12/24 AND 12/31, THIS BOX MAY BE COLLECTED AS EARLY AS 12 NOON.", "nsi_id": "unitedstatespostalservice-a77078", "operator": "United States Postal Service", "operator:short": "USPS", "operator:type": "public", "operator:wikidata": "Q668687", "ref": "0434300003"}, "type": "Feature"}
{"geometry": {"coordinates": [-69.900824095, 44.321522427], "type": "Point"}, "id": "c7TMyiB7Cq6EuBspYcLwnNlt9qw=", "properties": {"@source_uri": "https://tools.usps.com/UspsToolsRestServices/rest/POLocator/findLocations", "@spider": "usps_collection_boxes", "addr:city": "EAST WINTHROP", "addr:country": "US", "addr:postcode": "04343", "addr:state": "ME", "addr:street_address": "2402 US ROUTE 202", "amenity": "post_box", "collection_times": "Mo-Fr 16:30; Sa 11:30", "indoor": "yes", "note": "ON 12/24 AND 12/31, THIS BOX MAY BE COLLECTED AS EARLY AS 12 NOON.", "nsi_id": "unitedstatespostalservice-a77078", "operator": "United States Postal Service", "operator:short": "USPS", "operator:type": "public", "operator:wikidata": "Q668687", "ref": "0434300004"}, "type": "Feature"}
{"geometry": {"coordinates": [-69.7776338, 44.223733], "type": "Point"}, "id": "V5H0ql4PYNRUZcBz2fXR53Hz7wg=", "properties": {"@source_uri": "https://tools.usps.com/UspsToolsRestServices/rest/POLocator/findLocations", "@spider": "usps_collection_boxes", "addr:city": "FARMINGDALE", "addr:country": "US", "addr:postcode": "04345", "addr:state": "ME", "addr:street_address": "152 BRUNSWICK AVE", "amenity": "post_box", "collection_times": "Mo-Sa 08:45", "nsi_id": "unitedstatespostalservice-a77078", "operator": "United States Postal Service", "operator:short": "USPS", "operator:type": "public", "operator:wikidata": "Q668687", "ref": "0434500002"}, "type": "Feature"}
{"geometry": {"coordinates": [-69.7860709, 44.220573], "type": "Point"}, "id": "c12YaImHSS2mIcvmGtUg1a3Pv_0=", "properties": {"@source_uri": "https://tools.usps.com/UspsToolsRestServices/rest/POLocator/findLocations", "@spider": "usps_collection_boxes", "addr:city": "FARMINGDALE", "addr:country": "US", "addr:postcode": "04345", "addr:state": "ME", "addr:street_address": "582 WATER ST", "amenity": "post_box", "collection_times": "Mo-Sa 08:45", "nsi_id": "unitedstatespostalservice-a77078", "operator": "United States Postal Service", "operator:short": "USPS", "operator:type": "public", "operator:wikidata": "Q668687", "ref": "0434500003"}, "type": "Feature"}
{"geometry": {"coordinates": [-69.7812411, 44.232945], "type": "Point"}, "id": "UU8WhQHiUg7k2F2rFVOVMYIdF_E=", "properties": {"@source_uri": "https://tools.usps.com/UspsToolsRestServices/rest/POLocator/findLocations", "@spider": "usps_collection_boxes", "addr:city": "FARMINGDALE", "addr:country": "US", "addr:postcode": "04345", "addr:state": "ME", "addr:street_address": "141 HIGHLAND AVE", "amenity": "post_box", "collection_times": "Mo-Sa 09:00", "nsi_id": "unitedstatespostalservice-a77078", "operator": "United States Postal Service", "operator:short": "USPS", "operator:type": "public", "operator:wikidata": "Q668687", "ref": "0434500006"}, "type": "Feature"}
{"geometry": {"coordinates": [-69.7644393, 44.229323], "type": "Point"}, "id": "WUz6XR_ukRyMr39Vyaj-wpAFRTs=", "properties": {"@source_uri": "https://tools.usps.com/UspsToolsRestServices/rest/POLocator/findLocations", "@spider": "usps_collection_boxes", "addr:city": "FARMINGDALE", "addr:country": "US", "addr:postcode": "04345", "addr:state": "ME", "addr:street_address": "268 WATER ST", "amenity": "post_box", "collection_times": "Mo-Sa 09:00", "nsi_id": "unitedstatespostalservice-a77078", "operator": "United States Postal Service", "operator:short": "USPS", "operator:type": "public", "operator:wikidata": "Q668687", "ref": "0434500007"}, "type": "Feature"}
{"geometry": {"coordinates": [-69.78396, 44.232695], "type": "Point"}, "id": "D9X_zL6q2TaPXU1xTWWos3jRVqI=", "properties": {"@source_uri": "https://tools.usps.com/UspsToolsRestServices/rest/POLocator/findLocations", "@spider": "usps_collection_boxes", "addr:city": "FARMINGDALE", "addr:country": "US", "addr:postcode": "04345", "addr:state": "ME", "addr:street_address": "40 MAIN AVE", "amenity": "post_box", "collection_times": "Mo-Sa 08:45", "nsi_id": "unitedstatespostalservice-a77078", "operator": "United States Postal Service", "operator:short": "USPS", "operator:type": "public", "operator:wikidata": "Q668687", "ref": "0434500008"}, "type": "Feature"}
{"geometry": {"coordinates": [-69.7711415, 44.240781], "type": "Point"}, "id": "a8HvLINbGYlkRULJAyrhq3X8kOc=", "properties": {"@source_uri": "https://tools.usps.com/UspsToolsRestServices/rest/POLocator/findLocations", "@spider": "usps_collection_boxes", "addr:city": "FARMINGDALE", "addr:country": "US", "addr:postcode": "04345", "addr:state": "ME", "addr:street_address": "284 MAINE AVE", "amenity": "post_box", "collection_times": "Mo-Sa 13:00", "note": "ON 12/24 AND 12/31, THIS BOX MAY BE COLLECTED AS EARLY AS 12 NOON.", "nsi_id": "unitedstatespostalservice-a77078", "operator": "United States Postal Service", "operator:short": "USPS", "operator:type": "public", "operator:wikidata": "Q668687", "ref": "0434500011"}, "type": "Feature"}
{"geometry": {"coordinates": [-69.775024, 44.229931], "type": "Point"}, "id": "7l0zeO8K6FZyxTdnKVDfYZqS_JI=", "properties": {"@source_uri": "https://tools.usps.com/UspsToolsRestServices/rest/POLocator/findLocations", "@spider": "usps_collection_boxes", "addr:city": "FARMINGDALE", "addr:country": "US", "addr:postcode": "04345", "addr:state": "ME", "addr:street_address": "348 WATER ST", "amenity": "post_box", "collection_times": "Mo-Sa 16:30", "note": "ON 12/24 AND 12/31, THIS BOX MAY BE COLLECTED AS EARLY AS 12 NOON.", "nsi_id": "unitedstatespostalservice-a77078", "operator": "United States Postal Service", "operator:short": "USPS", "operator:type": "public", "operator:wikidata": "Q668687", "ref": "0434500017"}, "type": "Feature"}
{"geometry": {"coordinates": [-69.773942, 44.229446], "type": "Point"}, "id": "GUy4MDPqUwnfOn7h0pX9_ADTwtE=", "properties": {"@source_uri": "https://tools.usps.com/UspsToolsRestServices/rest/POLocator/findLocations", "@spider": "usps_collection_boxes", "addr:city": "FARMINGDALE", "addr:country": "US", "addr:postcode": "04345", "addr:state": "ME", "addr:street_address": "20 MECHANIC ST", "amenity": "post_box", "collection_times": "Mo-Sa 16:30", "note": "ON 12/24 AND 12/31, THIS BOX MAY BE COLLECTED AS EARLY AS 12 NOON.", "nsi_id": "unitedstatespostalservice-a77078", "operator": "United States Postal Service", "operator:short": "USPS", "operator:type": "public", "operator:wikidata": "Q668687", "ref": "0434500018"}, "type": "Feature"}
{"geometry": {"coordinates": [-69.7713786, 44.229223], "type": "Point"}, "id": "gSUEXgHhaILn5WyR7HVRrvNNnmU=", "properties": {"@source_uri": "https://tools.usps.com/UspsToolsRestServices/rest/POLocator/findLocations", "@spider": "usps_collection_boxes", "addr:city": "FARMINGDALE", "addr:country": "US", "addr:postcode": "04345", "addr:state": "ME", "addr:street_address": "190 WATER ST", "amenity": "post_box", "collection_times": "Mo-Sa 09:00", "nsi_id": "unitedstatespostalservice-a77078", "operator": "United States Postal Service", "operator:short": "USPS", "operator:type": "public", "operator:wikidata": "Q668687", "ref": "0434500020"}, "type": "Feature"}
{"geometry": {"coordinates": [-69.774932, 44.229944], "type": "Point"}, "id": "fJbhKlugUCNNOQ76aRZ7ChGf0fA=", "properties": {"@source_uri": "https://tools.usps.com/UspsToolsRestServices/rest/POLocator/findLocations", "@spider": "usps_collection_boxes", "addr:city": "FARMINGDALE", "addr:country": "US", "addr:postcode": "04345", "addr:state": "ME", "addr:street_address": "348 WATER ST", "amenity": "post_box", "collection_times": "Mo-Sa 16:30", "indoor": "yes", "note": "ON 12/24 AND 12/31, THIS BOX MAY BE COLLECTED AS EARLY AS 12 NOON.", "nsi_id": "unitedstatespostalservice-a77078", "operator": "United States Postal Service", "operator:short": "USPS", "operator:type": "public", "operator:wikidata": "Q668687", "ref": "0434500024"}, "type": "Feature"}
{"geometry": {"coordinates": [-69.774373907, 44.229820631], "type": "Point"}, "id": "jtqOkLzsanqzsmzovi1iT75b1po=", "properties": {"@source_uri": "https://tools.usps.com/UspsToolsRestServices/rest/POLocator/findLocations", "@spider": "usps_collection_boxes", "addr:city": "FARMINGDALE", "addr:country": "US", "addr:postcode": "04345", "addr:state": "ME", "addr:street_address": "348 WATER ST", "amenity": "post_box", "collection_times": "Mo-Fr 16:30; Sa 12:30", "indoor": "yes", "note": "ON 12/24 AND 12/31, THIS BOX MAY BE COLLECTED AS EARLY AS 12 NOON.", "nsi_id": "unitedstatespostalservice-a77078", "operator": "United States Postal Service", "operator:short": "USPS", "operator:type": "public", "operator:wikidata": "Q668687", "ref": "0434500025"}, "type": "Feature"}
{"geometry": {"coordinates": [-69.790841, 44.287158], "type": "Point"}, "id": "ATqnHOQnAGYF38zcWiwKTe7uGKQ=", "properties": {"@source_uri": "https://tools.usps.com/UspsToolsRestServices/rest/POLocator/findLocations", "@spider": "usps_collection_boxes", "addr:city": "HALLOWELL", "addr:country": "US", "addr:postcode": "04347", "addr:state": "ME", "addr:street_address": "95 SECOND ST", "amenity": "post_box", "collection_times": "Mo-Fr 16:00; Sa 11:00", "note": "ON 12/24 AND 12/31, THIS BOX MAY BE COLLECTED AS EARLY AS 12 NOON.", "nsi_id": "unitedstatespostalservice-a77078", "operator": "United States Postal Service", "operator:short": "USPS", "operator:type": "public", "operator:wikidata": "Q668687", "ref": "0434700001"}, "type": "Feature"}
{"geometry": {"coordinates": [-69.7900464, 44.28587], "type": "Point"}, "id": "DUM4_BTd3blwYZSXqZ50GhPXAv4=", "properties": {"@source_uri": "https://tools.usps.com/UspsToolsRestServices/rest/POLocator/findLocations", "@spider": "usps_collection_boxes", "addr:city": "HALLOWELL", "addr:country": "US", "addr:postcode": "04347", "addr:state": "ME", "addr:street_address": "138 WATER ST", "amenity": "post_box", "collection_times": "Mo-Fr 13:30; Sa 10:30", "note": "ON 12/24 AND 12/31, THIS BOX MAY BE COLLECTED AS EARLY AS 12 NOON.", "nsi_id": "unitedstatespostalservice-a77078", "operator": "United States Postal Service", "operator:short": "USPS", "operator:type": "public", "operator:wikidata": "Q668687", "ref": "0434700004"}, "type": "Feature"}
{"geometry": {"coordinates": [-69.7908104, 44.284081], "type": "Point"}, "id": "m6UGubuP2kw_BGA-g67RrtPz_FM=", "properties": {"@source_uri": "https://tools.usps.com/UspsToolsRestServices/rest/POLocator/findLocations", "@spider": "usps_collection_boxes", "addr:city": "HALLOWELL", "addr:country": "US", "addr:postcode": "04347", "addr:state": "ME", "addr:street_address": "191 WATER ST", "amenity": "post_box", "collection_times": "Mo-Fr 11:00; Sa 10:00", "nsi_id": "unitedstatespostalservice-a77078", "operator": "United States Postal Service", "operator:short": "USPS", "operator:type": "public", "operator:wikidata": "Q668687", "ref": "0434700005"}, "type": "Feature"}
{"geometry": {"coordinates": [-69.790837, 44.287064], "type": "Point"}, "id": "bGGXg4LbunxW10GyWlQXvMiA9SQ=", "properties": {"@source_uri": "https://tools.usps.com/UspsToolsRestServices/rest/POLocator/findLocations", "@spider": "usps_collection_boxes", "addr:city": "HALLOWELL", "addr:country": "US", "addr:postcode": "04347", "addr:state": "ME", "addr:street_address": "95 SECOND ST", "amenity": "post_box", "collection_times": "Mo-Fr 16:00; Sa 11:00", "indoor": "yes", "note": "ON 12/24 AND 12/31, THIS BOX MAY BE COLLECTED AS EARLY AS 12 NOON.", "nsi_id": "unitedstatespostalservice-a77078", "operator": "United States Postal Service", "operator:short": "USPS", "operator:type": "public", "operator:wikidata": "Q668687", "ref": "0434700014"}, "type": "Feature"}
{"geometry": {"coordinates": [-69.790845133, 44.287139515], "type": "Point"}, "id": "YQlS_8BjaCMFGolwVMQHxMwFbaY=", "properties": {"@source_uri": "https://tools.usps.com/UspsToolsRestServices/rest/POLocator/findLocations", "@spider": "usps_collection_boxes", "addr:city": "HALLOWELL", "addr:country": "US", "addr:postcode": "04347", "addr:state": "ME", "addr:street_address": "95 SECOND ST", "amenity": "post_box", "collection_times": "Mo-Fr 16:00; Sa 11:00", "indoor": "yes", "note": "ON 12/24 AND 12/31, THIS BOX MAY BE COLLECTED AS EARLY AS 12 NOON.", "nsi_id": "unitedstatespostalservice-a77078", "operator": "United States Postal Service", "operator:short": "USPS", "operator:type": "public", "operator:wikidata": "Q668687", "ref": "0434700016"}, "type": "Feature"}
{"geometry": {"coordinates": [-69.4627035, 44.203693], "type": "Point"}, "id": "yAy69n-WJah3OHsGgL0KFTlwt_A=", "properties": {"@source_uri": "https://tools.usps.com/UspsToolsRestServices/rest/POLocator/findLocations", "@spider": "usps_collection_boxes", "addr:city": "JEFFERSON", "addr:country": "US", "addr:postcode": "04348", "addr:state": "ME", "addr:street_address": "133 VILLAGE ST", "amenity": "post_box", "collection_times": "Mo-Fr 16:00; Sa 11:15", "note": "ON 12/24 AND 12/31, THIS BOX MAY BE COLLECTED AS EARLY AS 12 NOON.", "nsi_id": "unitedstatespostalservice-a77078", "operator": "United States Postal Service", "operator:short": "USPS", "operator:type": "public", "operator:wikidata": "Q668687", "ref": "0434800001"}, "type": "Feature"}
{"geometry": {"coordinates": [-69.4630057, 44.203871], "type": "Point"}, "id": "Dg_KJuJkp1JDtwZwdMN-liTdaOA=", "properties": {"@source_uri": "https://tools.usps.com/UspsToolsRestServices/rest/POLocator/findLocations", "@spider": "usps_collection_boxes", "addr:city": "JEFFERSON", "addr:country": "US", "addr:postcode": "04348", "addr:state": "ME", "addr:street_address": "133 VILLAGE ST", "amenity": "post_box", "collection_times": "Mo-Fr 16:15; Sa 11:15", "indoor": "yes", "note": "ON 12/24 AND 12/31, THIS BOX MAY BE COLLECTED AS EARLY AS 12 NOON.", "nsi_id": "unitedstatespostalservice-a77078", "operator": "United States Postal Service", "operator:short": "USPS", "operator:type": "public", "operator:wikidata": "Q668687", "ref": "0434800002"}, "type": "Feature"}
{"geometry": {"coordinates": [-69.46239963, 44.203574147], "type": "Point"}, "id": "eowan1nOL0gc6e9M4CE4TozTbj0=", "properties": {"@source_uri": "https://tools.usps.com/UspsToolsRestServices/rest/POLocator/findLocations", "@spider": "usps_collection_boxes", "addr:city": "JEFFERSON", "addr:country": "US", "addr:postcode": "04348", "addr:state": "ME", "addr:street_address": "133 VILLAGE ST", "amenity": "post_box", "collection_times": "Mo-Fr 16:00; Sa 11:15", "indoor": "yes", "note": "ON 12/24 AND 12/31, THIS BOX MAY BE COLLECTED AS EARLY AS 12 NOON.", "nsi_id": "unitedstatespostalservice-a77078", "operator": "United States Postal Service", "operator:short": "USPS", "operator:type": "public", "operator:wikidata": "Q668687", "ref": "0434800003"}, "type": "Feature"}
{"geometry": {"coordinates": [-70.018781, 44.407712], "type": "Point"}, "id": "rThMnLlERplHYLMC5uq1ZyoMQqQ=", "properties": {"@source_uri": "https://tools.usps.com/UspsToolsRestServices/rest/POLocator/findLocations", "@spider": "usps_collection_boxes", "addr:city": "FAYETTE", "addr:country": "US", "addr:postcode": "04349", "addr:state": "ME", "addr:street_address": "1613 MAIN ST", "amenity": "post_box", "collection_times": "Mo-Fr 14:30; Sa 11:00", "note": "ON 12/24 AND 12/31, THIS BOX MAY BE COLLECTED AS EARLY AS 12 NOON.", "nsi_id": "unitedstatespostalservice-a77078", "operator": "United States Postal Service", "operator:short": "USPS", "operator:type": "public", "operator:wikidata": "Q668687", "ref": "0434900001"}, "type": "Feature"}
{"geometry": {"coordinates": [-70.0294777, 44.409667], "type": "Point"}, "id": "gc0gyFf5ASc-B9kA3vhssGzkn1M=", "properties": {"@source_uri": "https://tools.usps.com/UspsToolsRestServices/rest/POLocator/findLocations", "@spider": "usps_collection_boxes", "addr:city": "FAYETTE", "addr:country": "US", "addr:postcode": "04349", "addr:state": "ME", "addr:street_address": "1916 MAIN ST", "amenity": "post_box", "collection_times": "Mo-Fr 09:30", "nsi_id": "unitedstatespostalservice-a77078", "operator": "United States Postal Service", "operator:short": "USPS", "operator:type": "public", "operator:wikidata": "Q668687", "ref": "0434900002"}, "type": "Feature"}
{"geometry": {"coordinates": [-70.018781, 44.407712], "type": "Point"}, "id": "K9rVA4gsdV9bsuhdbWvrjaX9Cb0=", "properties": {"@source_uri": "https://tools.usps.com/UspsToolsRestServices/rest/POLocator/findLocations", "@spider": "usps_collection_boxes", "addr:city": "FAYETTE", "addr:country": "US", "addr:postcode": "04349", "addr:state": "ME", "addr:street_address": "1613 MAIN ST", "amenity": "post_box", "collection_times": "Mo-Fr 14:30; Sa 11:00", "indoor": "yes", "note": "ON 12/24 AND 12/31, THIS BOX MAY BE COLLECTED AS EARLY AS 12 NOON.", "nsi_id": "unitedstatespostalservice-a77078", "operator": "United States Postal Service", "operator:short": "USPS", "operator:type": "public", "operator:wikidata": "Q668687", "ref": "0434900003"}, "type": "Feature"}
{"geometry": {"coordinates": [-70.018904012, 44.407809327], "type": "Point"}, "id": "4ocFzAVrT8QraNFIU25Z42cNxuM=", "properties": {"@source_uri": "https://tools.usps.com/UspsToolsRestServices/rest/POLocator/findLocations", "@spider": "usps_collection_boxes", "addr:city": "FAYETTE", "addr:country": "US", "addr:postcode": "04349", "addr:state": "ME", "addr:street_address": "1613 MAIN ST", "amenity": "post_box", "collection_times": "Mo-Fr 14:30; Sa 11:00", "indoor": "yes", "note": "ON 12/24 AND 12/31, THIS BOX MAY BE COLLECTED AS EARLY AS 12 NOON.", "nsi_id": "unitedstatespostalservice-a77078", "operator": "United States Postal Service", "operator:short": "USPS", "operator:type": "public", "operator:wikidata": "Q668687", "ref": "0434900005"}, "type": "Feature"}
{"geometry": {"coordinates": [-69.938866, 44.191063], "type": "Point"}, "id": "cOA4D4vbZSgT_zLltiq8hxqucuI=", "properties": {"@source_uri": "https://tools.usps.com/UspsToolsRestServices/rest/POLocator/findLocations", "@spider": "usps_collection_boxes", "addr:city": "LITCHFIELD", "addr:country": "US", "addr:postcode": "04350", "addr:state": "ME", "addr:street_address": "1882 HALLOWELL RD", "amenity": "post_box", "collection_times": "Mo-Fr 15:45; Sa 11:15", "note": "ON 12/24 AND 12/31, THIS BOX MAY BE COLLECTED AS EARLY AS 12 NOON.", "nsi_id": "unitedstatespostalservice-a77078", "operator": "United States Postal Service", "operator:short": "USPS", "operator:type": "public", "operator:wikidata": "Q668687", "ref": "0435000001"}, "type": "Feature"}
{"geometry": {"coordinates": [-69.938912, 44.191022], "type": "Point"}, "id": "4zRN-k6XjL-1sYVhtd3A3jX36DA=", "properties": {"@source_uri": "https://tools.usps.com/UspsToolsRestServices/rest/POLocator/findLocations", "@spider": "usps_collection_boxes", "addr:city": "LITCHFIELD", "addr:country": "US", "addr:postcode": "04350", "addr:state": "ME", "addr:street_address": "1882 HALLOWELL RD", "amenity": "post_box", "collection_times": "Mo-Fr 16:15; Sa 11:45", "indoor": "yes", "note": "ON 12/24 AND 12/31, THIS BOX MAY BE COLLECTED AS EARLY AS 12 NOON.", "nsi_id": "unitedstatespostalservice-a77078", "operator": "United States Postal Service", "operator:short": "USPS", "operator:type": "public", "operator:wikidata": "Q668687", "ref": "0435000002"}, "type": "Feature"}
{"geometry": {"coordinates": [-69.9792536524, 44.1351586311], "type": "Point"}, "id": "UJIfoF33Pa9KCWtZVZY3wnnsPP0=", "properties": {"@source_uri": "https://tools.usps.com/UspsToolsRestServices/rest/POLocator/findLocations", "@spider": "usps_collection_boxes", "addr:city": "LITCHFIELD", "addr:country": "US", "addr:postcode": "04350", "addr:state": "ME", "addr:street_address": "511 RICHMOND RD", "amenity": "post_box", "collection_times": "Mo-Sa 10:00", "nsi_id": "unitedstatespostalservice-a77078", "operator": "United States Postal Service", "operator:short": "USPS", "operator:type": "public", "operator:wikidata": "Q668687", "ref": "0435000004"}, "type": "Feature"}
{"geometry": {"coordinates": [-69.938853528, 44.191107534], "type": "Point"}, "id": "khKW0H3rOHP-VDgUB7LyK5KqA0Q=", "properties": {"@source_uri": "https://tools.usps.com/UspsToolsRestServices/rest/POLocator/findLocations", "@spider": "usps_collection_boxes", "addr:city": "LITCHFIELD", "addr:country": "US", "addr:postcode": "04350", "addr:state": "ME", "addr:street_address": "1882 HALLOWELL RD", "amenity": "post_box", "collection_times": "Mo-Fr 16:15; Sa 11:45", "indoor": "yes", "note": "ON 12/24 AND 12/31, THIS BOX MAY BE COLLECTED AS EARLY AS 12 NOON.", "nsi_id": "unitedstatespostalservice-a77078", "operator": "United States Postal Service", "operator:short": "USPS", "operator:type": "public", "operator:wikidata": "Q668687", "ref": "0435000005"}, "type": "Feature"}
{"geometry": {"coordinates": [-69.862821, 44.326418], "type": "Point"}, "id": "rcsaeyzXguW369A-YOPNvW923yA=", "properties": {"@source_uri": "https://tools.usps.com/UspsToolsRestServices/rest/POLocator/findLocations", "@spider": "usps_collection_boxes", "addr:city": "MANCHESTER", "addr:country": "US", "addr:postcode": "04351", "addr:state": "ME", "addr:street_address": "31 READFIELD RD", "amenity": "post_box", "collection_times": "Mo-Fr 16:30; Sa 11:15", "note": "ON 12/24 AND 12/31, THIS BOX MAY BE COLLECTED AS EARLY AS 12 NOON.", "nsi_id": "unitedstatespostalservice-a77078", "operator": "United States Postal Service", "operator:short": "USPS", "operator:type": "public", "operator:wikidata": "Q668687", "ref": "0435100001"}, "type": "Feature"}
{"geometry": {"coordinates": [-69.862829, 44.326372], "type": "Point"}, "id": "HuHdw4eEm8jyfzhPRSBB8mSM67w=", "properties": {"@source_uri": "https://tools.usps.com/UspsToolsRestServices/rest/POLocator/findLocations", "@spider": "usps_collection_boxes", "addr:city": "MANCHESTER", "addr:country": "US", "addr:postcode": "04351", "addr:state": "ME", "addr:street_address": "31 READFIELD RD", "amenity": "post_box", "collection_times": "Mo-Fr 16:45; Sa 11:15", "indoor": "yes", "note": "ON 12/24 AND 12/31, THIS BOX MAY BE COLLECTED AS EARLY AS 12 NOON.", "nsi_id": "unitedstatespostalservice-a77078", "operator": "United States Postal Service", "operator:short": "USPS", "operator:type": "public", "operator:wikidata": "Q668687", "ref": "0435100002"}, "type": "Feature"}
{"geometry": {"coordinates": [-69.862865941, 44.326465523], "type": "Point"}, "id": "Bq06fxucxPgI520pJfm-2BCVDDI=", "properties": {"@source_uri": "https://tools.usps.com/UspsToolsRestServices/rest/POLocator/findLocations", "@spider": "usps_collection_boxes", "addr:city": "MANCHESTER", "addr:country": "US", "addr:postcode": "04351", "addr:state": "ME", "addr:street_address": "31 READFIELD RD", "amenity": "post_box", "collection_times": "Mo-Fr 16:30; Sa 11:00", "indoor": "yes", "note": "ON 12/24 AND 12/31, THIS BOX MAY BE COLLECTED AS EARLY AS 12 NOON.", "nsi_id": "unitedstatespostalservice-a77078", "operator": "United States Postal Service", "operator:short": "USPS", "operator:type": "public", "operator:wikidata": "Q668687", "ref": "0435100003"}, "type": "Feature"}
{"geometry": {"coordinates": [-69.987469, 44.500801], "type": "Point"}, "id": "rQ1jqIT7f3krpeMij7aGml8j9fA=", "properties": {"@source_uri": "https://tools.usps.com/UspsToolsRestServices/rest/POLocator/findLocations", "@spider": "usps_collection_boxes", "addr:city": "MOUNT VERNON", "addr:country": "US", "addr:postcode": "04352", "addr:state": "ME", "addr:street_address": "9 MAIN ST", "amenity": "post_box", "collection_times": "Mo-Fr 14:00; Sa 11:00", "note": "ON 12/24 AND 12/31, THIS BOX MAY BE COLLECTED AS EARLY AS 12 NOON.", "nsi_id": "unitedstatespostalservice-a77078", "operator": "United States Postal Service", "operator:short": "USPS", "operator:type": "public", "operator:wikidata": "Q668687", "ref": "0435200001"}, "type": "Feature"}
{"geometry": {"coordinates": [-69.987469, 44.500801], "type": "Point"}, "id": "aGNbO1H-kH7qbv5jWAF6JCJ-KxA=", "properties": {"@source_uri": "https://tools.usps.com/UspsToolsRestServices/rest/POLocator/findLocations", "@spider": "usps_collection_boxes", "addr:city": "MOUNT VERNON", "addr:country": "US", "addr:postcode": "04352", "addr:state": "ME", "addr:street_address": "9 MAIN ST", "amenity": "post_box", "collection_times": "Mo-Fr 14:00; Sa 11:00", "indoor": "yes", "note": "ON 12/24 AND 12/31, THIS BOX MAY BE COLLECTED AS EARLY AS 12 NOON.", "nsi_id": "unitedstatespostalservice-a77078", "operator": "United States Postal Service", "operator:short": "USPS", "operator:type": "public", "operator:wikidata": "Q668687", "ref": "0435200002"}, "type": "Feature"}
{"geometry": {"coordinates": [-69.986828493, 44.500917311], "type": "Point"}, "id": "SOo7ko19qDqxJcZFW1aJglkFr28=", "properties": {"@source_uri": "https://tools.usps.com/UspsToolsRestServices/rest/POLocator/findLocations", "@spider": "usps_collection_boxes", "addr:city": "MOUNT VERNON", "addr:country": "US", "addr:postcode": "04352", "addr:state": "ME", "addr:street_address": "9 MAIN ST", "amenity": "post_box", "collection_times": "Mo-Fr 14:00; Sa 11:00", "indoor": "yes", "note": "ON 12/24 AND 12/31, THIS BOX MAY BE COLLECTED AS EARLY AS 12 NOON.", "nsi_id": "unitedstatespostalservice-a77078", "operator": "United States Postal Service", "operator:short": "USPS", "operator:type": "public", "operator:wikidata": "Q668687", "ref": "0435200006"}, "type": "Feature"}
{"geometry": {"coordinates": [-69.585035, 44.220694], "type": "Point"}, "id": "etvJFF9UM3GG-jPEY9bGZxIoHpY=", "properties": {"@source_uri": "https://tools.usps.com/UspsToolsRestServices/rest/POLocator/findLocations", "@spider": "usps_collection_boxes", "addr:city": "WHITEFIELD", "addr:country": "US", "addr:postcode": "04353", "addr:state": "ME", "addr:street_address": "32 JEFFERSON RD", "amenity": "post_box", "collection_times": "Mo-Fr 14:30; Sa 11:00", "note": "ON 12/24 AND 12/31, THIS BOX MAY BE COLLECTED AS EARLY AS 12 NOON.", "nsi_id": "unitedstatespostalservice-a77078", "operator": "United States Postal Service", "operator:short": "USPS", "operator:type": "public", "operator:wikidata": "Q668687", "ref": "0435300001"}, "type": "Feature"}
{"geometry": {"coordinates": [-69.585015, 44.220651], "type": "Point"}, "id": "jE99C5OVfLtha5IaG53SkM5zuf8=", "properties": {"@source_uri": "https://tools.usps.com/UspsToolsRestServices/rest/POLocator/findLocations", "@spider": "usps_collection_boxes", "addr:city": "WHITEFIELD", "addr:country": "US", "addr:postcode": "04353", "addr:state": "ME", "addr:street_address": "32 JEFFERSON RD", "amenity": "post_box", "collection_times": "Mo-Fr 14:30; Sa 11:15", "indoor": "yes", "note": "ON 12/24 AND 12/31, THIS BOX MAY BE COLLECTED AS EARLY AS 12 NOON.", "nsi_id": "unitedstatespostalservice-a77078", "operator": "United States Postal Service", "operator:short": "USPS", "operator:type": "public", "operator:wikidata": "Q668687", "ref": "0435300004"}, "type": "Feature"}
{"geometry": {"coordinates": [-69.584737679, 44.220540897], "type": "Point"}, "id": "MOkpc2IuqoxfxEomQTHBXKMKxKg=", "properties": {"@source_uri": "https://tools.usps.com/UspsToolsRestServices/rest/POLocator/findLocations", "@spider": "usps_collection_boxes", "addr:city": "WHITEFIELD", "addr:country": "US", "addr:postcode": "04353", "addr:state": "ME", "addr:street_address": "32 JEFFERSON RD", "amenity": "post_box", "collection_times": "Mo-Fr 14:30; Sa 11:00", "indoor": "yes", "note": "ON 12/24 AND 12/31, THIS BOX MAY BE COLLECTED AS EARLY AS 12 NOON.", "nsi_id": "unitedstatespostalservice-a77078", "operator": "United States Postal Service", "operator:short": "USPS", "operator:type": "public", "operator:wikidata": "Q668687", "ref": "0435300005"}, "type": "Feature"}
{"geometry": {"coordinates": [-69.472454, 44.40528], "type": "Point"}, "id": "YBYUtDmwbniMMwHyWC7ZD4lk7io=", "properties": {"@source_uri": "https://tools.usps.com/UspsToolsRestServices/rest/POLocator/findLocations", "@spider": "usps_collection_boxes", "addr:city": "PALERMO", "addr:country": "US", "addr:postcode": "04354", "addr:state": "ME", "addr:street_address": "111 BRANCH MILLS RD", "amenity": "post_box", "collection_times": "Mo-Fr 14:00; Sa 10:45", "note": "ON 12/24 AND 12/31, THIS BOX MAY BE COLLECTED AS EARLY AS 12 NOON.", "nsi_id": "unitedstatespostalservice-a77078", "operator": "United States Postal Service", "operator:short": "USPS", "operator:type": "public", "operator:wikidata": "Q668687", "ref": "0435400001"}, "type": "Feature"}
{"geometry": {"coordinates": [-69.472422, 44.40532], "type": "Point"}, "id": "t4g50dBVhoymj5yjwYBjzviOgz0=", "properties": {"@source_uri": "https://tools.usps.com/UspsToolsRestServices/rest/POLocator/findLocations", "@spider": "usps_collection_boxes", "addr:city": "PALERMO", "addr:country": "US", "addr:postcode": "04354", "addr:state": "ME", "addr:street_address": "111 BRANCH MILLS RD", "amenity": "post_box", "collection_times": "Mo-Fr 14:00; Sa 10:45", "indoor": "yes", "note": "ON 12/24 AND 12/31, THIS BOX MAY BE COLLECTED AS EARLY AS 12 NOON.", "nsi_id": "unitedstatespostalservice-a77078", "operator": "United States Postal Service", "operator:short": "USPS", "operator:type": "public", "operator:wikidata": "Q668687", "ref": "0435400002"}, "type": "Feature"}
{"geometry": {"coordinates": [-69.472441219, 44.405132417], "type": "Point"}, "id": "Ct7KFbVmjVwOkYsimCmoE9EN8Pw=", "properties": {"@source_uri": "https://tools.usps.com/UspsToolsRestServices/rest/POLocator/findLocations", "@spider": "usps_collection_boxes", "addr:city": "PALERMO", "addr:country": "US", "addr:postcode": "04354", "addr:state": "ME", "addr:street_address": "111 BRANCH MILLS RD", "amenity": "post_box", "collection_times": "Mo-Fr 14:00; Sa 10:45", "indoor": "yes", "note": "ON 12/24 AND 12/31, THIS BOX MAY BE COLLECTED AS EARLY AS 12 NOON.", "nsi_id": "unitedstatespostalservice-a77078", "operator": "United States Postal Service", "operator:short": "USPS", "operator:type": "public", "operator:wikidata": "Q668687", "ref": "0435400004"}, "type": "Feature"}
{"geometry": {"coordinates": [-69.965486, 44.387855], "type": "Point"}, "id": "1wrb6tcjTNqd6BiNlIQN86uRZIg=", "properties": {"@source_uri": "https://tools.usps.com/UspsToolsRestServices/rest/POLocator/findLocations", "@spider": "usps_collection_boxes", "addr:city": "READFIELD", "addr:country": "US", "addr:postcode": "04355", "addr:state": "ME", "addr:street_address": "1138 MAIN ST", "amenity": "post_box", "collection_times": "Mo-Fr 16:00; Sa 11:00", "note": "ON 12/24 AND 12/31, THIS BOX MAY BE COLLECTED AS EARLY AS 12 NOON.", "nsi_id": "unitedstatespostalservice-a77078", "operator": "United States Postal Service", "operator:short": "USPS", "operator:type": "public", "operator:wikidata": "Q668687", "ref": "0435500001"}, "type": "Feature"}
{"geometry": {"coordinates": [-69.965545, 44.387885], "type": "Point"}, "id": "cQ7iqfiiyij_YmRBoKTJaXVSSJs=", "properties": {"@source_uri": "https://tools.usps.com/UspsToolsRestServices/rest/POLocator/findLocations", "@spider": "usps_collection_boxes", "addr:city": "READFIELD", "addr:country": "US", "addr:postcode": "04355", "addr:state": "ME", "addr:street_address": "1138 MAIN ST", "amenity": "post_box", "collection_times": "Mo-Fr 16:00; Sa 11:00", "indoor": "yes", "note": "ON 12/24 AND 12/31, THIS BOX MAY BE COLLECTED AS EARLY AS 12 NOON.", "nsi_id": "unitedstatespostalservice-a77078", "operator": "United States Postal Service", "operator:short": "USPS", "operator:type": "public", "operator:wikidata": "Q668687", "ref": "0435500002"}, "type": "Feature"}
{"geometry": {"coordinates": [-69.965964618, 44.387880496], "type": "Point"}, "id": "UTRFOR4ZHR0RNgJYEwzOrCrvLVo=", "properties": {"@source_uri": "https://tools.usps.com/UspsToolsRestServices/rest/POLocator/findLocations", "@spider": "usps_collection_boxes", "addr:city": "READFIELD", "addr:country": "US", "addr:postcode": "04355", "addr:state": "ME", "addr:street_address": "1138 MAIN ST", "amenity": "post_box", "collection_times": "Mo-Fr 16:15; Sa 11:00", "indoor": "yes", "note": "ON 12/24 AND 12/31, THIS BOX MAY BE COLLECTED AS EARLY AS 12 NOON.", "nsi_id": "unitedstatespostalservice-a77078", "operator": "United States Postal Service", "operator:short": "USPS", "operator:type": "public", "operator:wikidata": "Q668687", "ref": "0435500003"}, "type": "Feature"}
{"geometry": {"coordinates": [-69.8065926, 44.088571], "type": "Point"}, "id": "gFYqtKsAm1XW2ja5rBvGjf1IwXk=", "properties": {"@source_uri": "https://tools.usps.com/UspsToolsRestServices/rest/POLocator/findLocations", "@spider": "usps_collection_boxes", "addr:city": "RICHMOND", "addr:country": "US", "addr:postcode": "04357", "addr:state": "ME", "addr:street_address": "92 MAIN ST", "amenity": "post_box", "collection_times": "Mo-Fr 16:00; Sa 12:00", "note": "ON 12/24 AND 12/31, THIS BOX MAY BE COLLECTED AS EARLY AS 12 NOON.", "nsi_id": "unitedstatespostalservice-a77078", "operator": "United States Postal Service", "operator:short": "USPS", "operator:type": "public", "operator:wikidata": "Q668687", "ref": "0435700001"}, "type": "Feature"}
{"geometry": {"coordinates": [-69.806516, 44.088742], "type": "Point"}, "id": "ggiuUPOhg577t7PqPZTobXDnWfc=", "properties": {"@source_uri": "https://tools.usps.com/UspsToolsRestServices/rest/POLocator/findLocations", "@spider": "usps_collection_boxes", "addr:city": "RICHMOND", "addr:country": "US", "addr:postcode": "04357", "addr:state": "ME", "addr:street_address": "92 MAIN ST", "amenity": "post_box", "collection_times": "Mo-Fr 16:00; Sa 12:00", "indoor": "yes", "note": "ON 12/24 AND 12/31, THIS BOX MAY BE COLLECTED AS EARLY AS 12 NOON.", "nsi_id": "unitedstatespostalservice-a77078", "operator": "United States Postal Service", "operator:short": "USPS", "operator:type": "public", "operator:wikidata": "Q668687", "ref": "0435700004"}, "type": "Feature"}
{"geometry": {"coordinates": [-69.806375822, 44.088684769], "type": "Point"}, "id": "Ue5E2JkzcRC9xsr-Ts-g1Ts4n2o=", "properties": {"@source_uri": "https://tools.usps.com/UspsToolsRestServices/rest/POLocator/findLocations", "@spider": "usps_collection_boxes", "addr:city": "RICHMOND", "addr:country": "US", "addr:postcode": "04357", "addr:state": "ME", "addr:street_address": "92 MAIN ST", "amenity": "post_box", "collection_times": "Mo-Fr 16:00; Sa 12:00", "indoor": "yes", "note": "ON 12/24 AND 12/31, THIS BOX MAY BE COLLECTED AS EARLY AS 12 NOON.", "nsi_id": "unitedstatespostalservice-a77078", "operator": "United States Postal Service", "operator:short": "USPS", "operator:type": "public", "operator:wikidata": "Q668687", "ref": "0435700005"}, "type": "Feature"}
{"geometry": {"coordinates": [-69.57661, 44.392962], "type": "Point"}, "id": "2qptppwvynzKeK8kgV_Vzq5HJdI=", "properties": {"@source_uri": "https://tools.usps.com/UspsToolsRestServices/rest/POLocator/findLocations", "@spider": "usps_collection_boxes", "addr:city": "SOUTH CHINA", "addr:country": "US", "addr:postcode": "04358", "addr:state": "ME", "addr:street_address": "382 ROUTE 3", "amenity": "post_box", "collection_times": "Mo-Fr 16:30; Sa 11:30", "note": "ON 12/24 AND 12/31, THIS BOX MAY BE COLLECTED AS EARLY AS 12 NOON.", "nsi_id": "unitedstatespostalservice-a77078", "operator": "United States Postal Service", "operator:short": "USPS", "operator:type": "public", "operator:wikidata": "Q668687", "ref": "0435800001"}, "type": "Feature"}
{"geometry": {"coordinates": [-69.576479, 44.392974], "type": "Point"}, "id": "6XBOanCd4W6L9lIJS4F_EYEtVQc=", "properties": {"@source_uri": "https://tools.usps.com/UspsToolsRestServices/rest/POLocator/findLocations", "@spider": "usps_collection_boxes", "addr:city": "SOUTH CHINA", "addr:country": "US", "addr:postcode": "04358", "addr:state": "ME", "addr:street_address": "382 ROUTE 3", "amenity": "post_box", "collection_times": "Mo-Fr 16:45; Sa 11:45", "indoor": "yes", "note": "ON 12/24 AND 12/31, THIS BOX MAY BE COLLECTED AS EARLY AS 12 NOON.", "nsi_id": "unitedstatespostalservice-a77078", "operator": "United States Postal Service", "operator:short": "USPS", "operator:type": "public", "operator:wikidata": "Q668687", "ref": "0435800003"}, "type": "Feature"}
{"geometry": {"coordinates": [-69.576479, 44.392974], "type": "Point"}, "id": "MnPpk2ID_EzQ3PHrcmKiZZK64_4=", "properties": {"@source_uri": "https://tools.usps.com/UspsToolsRestServices/rest/POLocator/findLocations", "@spider": "usps_collection_boxes", "addr:city": "SOUTH CHINA", "addr:country": "US", "addr:postcode": "04358", "addr:state": "ME", "addr:street_address": "382 ROUTE 3", "amenity": "post_box", "collection_times": "Mo-Fr 16:45; Sa 11:45", "indoor": "yes", "note": "ON 12/24 AND 12/31, THIS BOX MAY BE COLLECTED AS EARLY AS 12 NOON.", "nsi_id": "unitedstatespostalservice-a77078", "operator": "United States Postal Service", "operator:short": "USPS", "operator:type": "public", "operator:wikidata": "Q668687", "ref": "0435800004"}, "type": "Feature"}
{"geometry": {"coordinates": [-69.576479, 44.392974], "type": "Point"}, "id": "FYK-r5zxGLWmoEIxuMyk4thTjOY=", "properties": {"@source_uri": "https://tools.usps.com/UspsToolsRestServices/rest/POLocator/findLocations", "@spider": "usps_collection_boxes", "addr:city": "SOUTH CHINA", "addr:country": "US", "addr:postcode": "04358", "addr:state": "ME", "addr:street_address": "382 ROUTE 3", "amenity": "post_box", "collection_times": "Mo-Fr 16:45; Sa 11:45", "indoor": "yes", "note": "ON 12/24 AND 12/31, THIS BOX MAY BE COLLECTED AS EARLY AS 12 NOON.", "nsi_id": "unitedstatespostalservice-a77078", "operator": "United States Postal Service", "operator:short": "USPS", "operator:type": "public", "operator:wikidata": "Q668687", "ref": "0435800005"}, "type": "Feature"}
{"geometry": {"coordinates": [-69.577340583, 44.392718827], "type": "Point"}, "id": "KpCTcsVKXAXA6RmBJldOdgevcQ4=", "properties": {"@source_uri": "https://tools.usps.com/UspsToolsRestServices/rest/POLocator/findLocations", "@spider": "usps_collection_boxes", "addr:city": "SOUTH CHINA", "addr:country": "US", "addr:postcode": "04358", "addr:state": "ME", "addr:street_address": "382 ROUTE 3", "amenity": "post_box", "collection_times": "Mo-Fr 16:30; Sa 12:00", "indoor": "yes", "note": "ON 12/24 AND 12/31, THIS BOX MAY BE COLLECTED AS EARLY AS 12 NOON.", "nsi_id": "unitedstatespostalservice-a77078", "operator": "United States Postal Service", "operator:short": "USPS", "operator:type": "public", "operator:wikidata": "Q668687", "ref": "0435800006"}, "type": "Feature"}
{"geometry": {"coordinates": [-69.756935, 44.184652], "type": "Point"}, "id": "08BSL7P6UMvDWmF00aU3eZ2KVJA=", "properties": {"@source_uri": "https://tools.usps.com/UspsToolsRestServices/rest/POLocator/findLocations", "@spider": "usps_collection_boxes", "addr:city": "SOUTH GARDINER", "addr:country": "US", "addr:postcode": "04359", "addr:state": "ME", "addr:street_address": "681 RIVER RD", "amenity": "post_box", "collection_times": "Mo-Fr 16:00; Sa 11:30", "note": "ON 12/24 AND 12/31, THIS BOX MAY BE COLLECTED AS EARLY AS 12 NOON.", "nsi_id": "unitedstatespostalservice-a77078", "operator": "United States Postal Service", "operator:short": "USPS", "operator:type": "public", "operator:wikidata": "Q668687", "ref": "0435900001"}, "type": "Feature"}
{"geometry": {"coordinates": [-69.756895, 44.184593], "type": "Point"}, "id": "H1yUkfSbFtFlyE2iqLaEP9iPpRw=", "properties": {"@source_uri": "https://tools.usps.com/UspsToolsRestServices/rest/POLocator/findLocations", "@spider": "usps_collection_boxes", "addr:city": "SOUTH GARDINER", "addr:country": "US", "addr:postcode": "04359", "addr:state": "ME", "addr:street_address": "681 RIVER RD", "amenity": "post_box", "collection_times": "Mo-Fr 16:15; Sa 11:30", "indoor": "yes", "note": "ON 12/24 AND 12/31, THIS BOX MAY BE COLLECTED AS EARLY AS 12 NOON.", "nsi_id": "unitedstatespostalservice-a77078", "operator": "United States Postal Service", "operator:short": "USPS", "operator:type": "public", "operator:wikidata": "Q668687", "ref": "0435900002"}, "type": "Feature"}
{"geometry": {"coordinates": [-69.756835935, 44.181461836], "type": "Point"}, "id": "EhNofUyn3ILVZRW9At0shxJyyYI=", "properties": {"@source_uri": "https://tools.usps.com/UspsToolsRestServices/rest/POLocator/findLocations", "@spider": "usps_collection_boxes", "addr:city": "SOUTH GARDINER", "addr:country": "US", "addr:postcode": "04359", "addr:state": "ME", "addr:street_address": "681 RIVER RD", "amenity": "post_box", "collection_times": "Mo-Fr 16:15; Sa 11:30", "indoor": "yes", "note": "ON 12/24 AND 12/31, THIS BOX MAY BE COLLECTED AS EARLY AS 12 NOON.", "nsi_id": "unitedstatespostalservice-a77078", "operator": "United States Postal Service", "operator:short": "USPS", "operator:type": "public", "operator:wikidata": "Q668687", "ref": "0435900003"}, "type": "Feature"}
{"geometry": {"coordinates": [-69.984977, 44.534781], "type": "Point"}, "id": "sHGkBjBeXM125L9lqcPEK7mPT90=", "properties": {"@source_uri": "https://tools.usps.com/UspsToolsRestServices/rest/POLocator/findLocations", "@spider": "usps_collection_boxes", "addr:city": "VIENNA", "addr:country": "US", "addr:postcode": "04360", "addr:state": "ME", "addr:street_address": "8 KIMBALL POND RD", "amenity": "post_box", "collection_times": "Mo-Fr 16:00; Sa 10:45", "note": "ON 12/24 AND 12/31, THIS BOX MAY BE COLLECTED AS EARLY AS 12 NOON.", "nsi_id": "unitedstatespostalservice-a77078", "operator": "United States Postal Service", "operator:short": "USPS", "operator:type": "public", "operator:wikidata": "Q668687", "ref": "0436000001"}, "type": "Feature"}
{"geometry": {"coordinates": [-69.984935, 44.534705], "type": "Point"}, "id": "d1JG8X2eAFZBoFD2E_SV1pmkgA8=", "properties": {"@source_uri": "https://tools.usps.com/UspsToolsRestServices/rest/POLocator/findLocations", "@spider": "usps_collection_boxes", "addr:city": "VIENNA", "addr:country": "US", "addr:postcode": "04360", "addr:state": "ME", "addr:street_address": "8 KIMBALL POND RD", "amenity": "post_box", "collection_times": "Mo-Fr 16:00; Sa 10:45", "indoor": "yes", "note": "ON 12/24 AND 12/31, THIS BOX MAY BE COLLECTED AS EARLY AS 12 NOON.", "nsi_id": "unitedstatespostalservice-a77078", "operator": "United States Postal Service", "operator:short": "USPS", "operator:type": "public", "operator:wikidata": "Q668687", "ref": "0436000002"}, "type": "Feature"}
{"geometry": {"coordinates": [-69.984981565, 44.535086581], "type": "Point"}, "id": "Co91FgFCiWICMrRVwup9hJV_SSA=", "properties": {"@source_uri": "https://tools.usps.com/UspsToolsRestServices/rest/POLocator/findLocations", "@spider": "usps_collection_boxes", "addr:city": "VIENNA", "addr:country": "US", "addr:postcode": "04360", "addr:state": "ME", "addr:street_address": "8 KIMBALL POND RD", "amenity": "post_box", "collection_times": "Mo-Fr 16:00; Sa 10:30", "indoor": "yes", "note": "ON 12/24 AND 12/31, THIS BOX MAY BE COLLECTED AS EARLY AS 12 NOON.", "nsi_id": "unitedstatespostalservice-a77078", "operator": "United States Postal Service", "operator:short": "USPS", "operator:type": "public", "operator:wikidata": "Q668687", "ref": "0436000004"}, "type": "Feature"}
{"geometry": {"coordinates": [-69.581051, 44.310609], "type": "Point"}, "id": "cIriQ0TsICLM_Hiqv8W-Nxu731M=", "properties": {"@source_uri": "https://tools.usps.com/UspsToolsRestServices/rest/POLocator/findLocations", "@spider": "usps_collection_boxes", "addr:city": "WINDSOR", "addr:country": "US", "addr:postcode": "04363", "addr:state": "ME", "addr:street_address": "519 RIDGE RD", "amenity": "post_box", "collection_times": "Mo-Fr 13:30; Sa 10:45", "note": "ON 12/24 AND 12/31, THIS BOX MAY BE COLLECTED AS EARLY AS 12 NOON.", "nsi_id": "unitedstatespostalservice-a77078", "operator": "United States Postal Service", "operator:short": "USPS", "operator:type": "public", "operator:wikidata": "Q668687", "ref": "0436300002"}, "type": "Feature"}
{"geometry": {"coordinates": [-69.581107, 44.310694], "type": "Point"}, "id": "TG6jq898P4Qb9m9m5_dLstkCVlo=", "properties": {"@source_uri": "https://tools.usps.com/UspsToolsRestServices/rest/POLocator/findLocations", "@spider": "usps_collection_boxes", "addr:city": "WINDSOR", "addr:country": "US", "addr:postcode": "04363", "addr:state": "ME", "addr:street_address": "519 RIDGE RD", "amenity": "post_box", "collection_times": "Mo-Fr 13:30; Sa 10:45", "indoor": "yes", "note": "ON 12/24 AND 12/31, THIS BOX MAY BE COLLECTED AS EARLY AS 12 NOON.", "nsi_id": "unitedstatespostalservice-a77078", "operator": "United States Postal Service", "operator:short": "USPS", "operator:type": "public", "operator:wikidata": "Q668687", "ref": "0436300003"}, "type": "Feature"}
{"geometry": {"coordinates": [-69.58120686, 44.31129124], "type": "Point"}, "id": "pbRUhdcvrc4Ip4PUx3XsEAAzQKI=", "properties": {"@source_uri": "https://tools.usps.com/UspsToolsRestServices/rest/POLocator/findLocations", "@spider": "usps_collection_boxes", "addr:city": "WINDSOR", "addr:country": "US", "addr:postcode": "04363", "addr:state": "ME", "addr:street_address": "519 RIDGE RD", "amenity": "post_box", "collection_times": "Mo-Fr 13:30; Sa 11:00", "indoor": "yes", "note": "ON 12/24 AND 12/31, THIS BOX MAY BE COLLECTED AS EARLY AS 12 NOON.", "nsi_id": "unitedstatespostalservice-a77078", "operator": "United States Postal Service", "operator:short": "USPS", "operator:type": "public", "operator:wikidata": "Q668687", "ref": "0436300004"}, "type": "Feature"}
{"geometry": {"coordinates": [-69.972877283, 44.3069641033], "type": "Point"}, "id": "06zGlyXKB66tLaZufhVNNeinqBU=", "properties": {"@source_uri": "https://tools.usps.com/UspsToolsRestServices/rest/POLocator/findLocations", "@spider": "usps_collection_boxes", "addr:city": "WINTHROP", "addr:country": "US", "addr:postcode": "04364", "addr:state": "ME", "addr:street_address": "112 MAIN ST", "amenity": "post_box", "collection_times": "Mo-Fr 16:30; Sa 12:00", "note": "ON 12/24 AND 12/31, THIS BOX MAY BE COLLECTED AS EARLY AS 12 NOON.", "nsi_id": "unitedstatespostalservice-a77078", "operator": "United States Postal Service", "operator:short": "USPS", "operator:type": "public", "operator:wikidata": "Q668687", "ref": "0436400001"}, "type": "Feature"}
{"geometry": {"coordinates": [-69.959214, 44.306262], "type": "Point"}, "id": "ya65XCN5-cjtgVYhxiZjuMoKFSg=", "properties": {"@source_uri": "https://tools.usps.com/UspsToolsRestServices/rest/POLocator/findLocations", "@spider": "usps_collection_boxes", "addr:city": "WINTHROP", "addr:country": "US", "addr:postcode": "04364", "addr:state": "ME", "addr:street_address": "399 MAIN ST", "amenity": "post_box", "collection_times": "Mo-Sa 10:30", "nsi_id": "unitedstatespostalservice-a77078", "operator": "United States Postal Service", "operator:short": "USPS", "operator:type": "public", "operator:wikidata": "Q668687", "ref": "0436400011"}, "type": "Feature"}
{"geometry": {"coordinates": [-69.972877283, 44.3069641033], "type": "Point"}, "id": "RYe9Wj67jj3zHrU1h5-SBOsy-3U=", "properties": {"@source_uri": "https://tools.usps.com/UspsToolsRestServices/rest/POLocator/findLocations", "@spider": "usps_collection_boxes", "addr:city": "WINTHROP", "addr:country": "US", "addr:postcode": "04364", "addr:state": "ME", "addr:street_address": "112 MAIN ST", "amenity": "post_box", "collection_times": "Mo-Fr 16:30; Sa 12:00", "indoor": "yes", "note": "ON 12/24 AND 12/31, THIS BOX MAY BE COLLECTED AS EARLY AS 12 NOON.", "nsi_id": "unitedstatespostalservice-a77078", "operator": "United States Postal Service", "operator:short": "USPS", "operator:type": "public", "operator:wikidata": "Q668687", "ref": "0436400012"}, "type": "Feature"}
{"geometry": {"coordinates": [-69.972877283, 44.3069641033], "type": "Point"}, "id": "Fmqvz58FgLMwSaCxUU95gAY5t1w=", "properties": {"@source_uri": "https://tools.usps.com/UspsToolsRestServices/rest/POLocator/findLocations", "@spider": "usps_collection_boxes", "addr:city": "WINTHROP", "addr:country": "US", "addr:postcode": "04364", "addr:state": "ME", "addr:street_address": "112 MAIN ST", "amenity": "post_box", "collection_times": "Mo-Fr 16:30; Sa 12:00", "indoor": "yes", "note": "ON 12/24 AND 12/31, THIS BOX MAY BE COLLECTED AS EARLY AS 12 NOON.", "nsi_id": "unitedstatespostalservice-a77078", "operator": "United States Postal Service", "operator:short": "USPS", "operator:type": "public", "operator:wikidata": "Q668687", "ref": "0436400013"}, "type": "Feature"}
