{"geometry": {"coordinates": [-68.7874966, 44.822503], "type": "Point"}, "id": "OKNIJXxN4fH3SapGNtrKNNktyt0=", "properties": {"@spider": "usps_collection_boxes", "addr:city": "BANGOR", "addr:country": "US", "addr:full": "201 HUSSON AVE", "addr:postcode": "04401", "addr:state": "ME", "brand": "USPS", "collection_times": "Mo-Sa 10:00", "name": "USPS COLLECTION BOX - BLUE BOX", "ref": "0440100002"}, "type": "Feature"}
{"geometry": {"coordinates": [-68.7688189, 44.813393], "type": "Point"}, "id": "DO9GxdF6yT1Nw23VPKhsOWXmlH8=", "properties": {"@spider": "usps_collection_boxes", "addr:city": "BANGOR", "addr:country": "US", "addr:full": "12 STILLWATER AVE", "addr:postcode": "04401", "addr:state": "ME", "brand": "USPS", "collection_times": "Mo-Fr 16:45", "name": "USPS COLLECTION BOX - BLUE BOX", "note": "ON 12/24 AND 12/31, THIS BOX MAY BE COLLECTED AS EARLY AS 12 NOON.", "ref": "0440100004"}, "type": "Feature"}
{"geometry": {"coordinates": [-68.7730809, 44.813943], "type": "Point"}, "id": "QZH6fH2I8Ftf7SWrRrVIrcB8c_o=", "properties": {"@spider": "usps_collection_boxes", "addr:city": "BANGOR", "addr:country": "US", "addr:full": "297 CENTER ST", "addr:postcode": "04401", "addr:state": "ME", "brand": "USPS", "collection_times": "Mo-Sa 09:00", "name": "USPS COLLECTION BOX - BLUE BOX", "ref": "0440100005"}, "type": "Feature"}
{"geometry": {"coordinates": [-68.7685247, 44.806846], "type": "Point"}, "id": "lTqz3YGD0-97ENe5v9jHSPm7p98=", "properties": {"@spider": "usps_collection_boxes", "addr:city": "BANGOR", "addr:country": "US", "addr:full": "133 BROADWAY", "addr:postcode": "04401", "addr:state": "ME", "brand": "USPS", "collection_times": "Mo-Fr 17:15; Sa 09:30", "name": "USPS COLLECTION BOX - BLUE BOX", "note": "ON 12/24 AND 12/31, THIS BOX MAY BE COLLECTED AS EARLY AS 12 NOON.", "ref": "0440100009"}, "type": "Feature"}
{"geometry": {"coordinates": [-68.7850461, 44.820682], "type": "Point"}, "id": "nV6G4LvseHXBZD213V8D445k-fg=", "properties": {"@spider": "usps_collection_boxes", "addr:city": "BANGOR", "addr:country": "US", "addr:full": "90 SHERMAN AVE", "addr:postcode": "04401", "addr:state": "ME", "brand": "USPS", "collection_times": "Mo-Sa 11:00", "name": "USPS COLLECTION BOX - BLUE BOX", "ref": "0440100012"}, "type": "Feature"}
{"geometry": {"coordinates": [-68.792006033, 44.83527601], "type": "Point"}, "id": "kEMmFi9M1awAN3uHzSgunFVI2JE=", "properties": {"@spider": "usps_collection_boxes", "addr:city": "BANGOR", "addr:country": "US", "addr:full": "1110 BROADWAY", "addr:postcode": "04401", "addr:state": "ME", "brand": "USPS", "collection_times": "Mo-Fr 17:30; Sa 17:00", "name": "USPS COLLECTION BOX - BLUE BOX", "note": "ON 12/24 AND 12/31, THIS BOX MAY BE COLLECTED AS EARLY AS 12 NOON.", "ref": "0440100015"}, "type": "Feature"}
{"geometry": {"coordinates": [-68.7697445, 44.818215], "type": "Point"}, "id": "XDehPhTo2Bn1nr0LfJgL2oEcYsQ=", "properties": {"@spider": "usps_collection_boxes", "addr:city": "BANGOR", "addr:country": "US", "addr:full": "498 ESSEX ST", "addr:postcode": "04401", "addr:state": "ME", "brand": "USPS", "collection_times": "Mo-Fr 17:00", "name": "USPS COLLECTION BOX - BLUE BOX", "note": "ON 12/24 AND 12/31, THIS BOX MAY BE COLLECTED AS EARLY AS 12 NOON.", "ref": "0440100017"}, "type": "Feature"}
{"geometry": {"coordinates": [-68.7520788, 44.807585], "type": "Point"}, "id": "r8hxzO0gxKmjPQrkuSnBXNoyiBs=", "properties": {"@spider": "usps_collection_boxes", "addr:city": "BANGOR", "addr:country": "US", "addr:full": "431 STATE ST", "addr:postcode": "04401", "addr:state": "ME", "brand": "USPS", "collection_times": "Mo-Fr 17:15; Sa 16:30", "name": "USPS COLLECTION BOX - BLUE BOX", "note": "ON 12/24 AND 12/31, THIS BOX MAY BE COLLECTED AS EARLY AS 12 NOON.", "ref": "0440100022"}, "type": "Feature"}
{"geometry": {"coordinates": [-68.7520699, 44.80752], "type": "Point"}, "id": "bdlp83Wzzfure4nfd7YvRrKa83o=", "properties": {"@spider": "usps_collection_boxes", "addr:city": "BANGOR", "addr:country": "US", "addr:full": "417 STATE ST", "addr:postcode": "04401", "addr:state": "ME", "brand": "USPS", "collection_times": "Mo-Fr 17:15; Sa 09:00", "name": "USPS COLLECTION BOX - BLUE BOX", "note": "ON 12/24 AND 12/31, THIS BOX MAY BE COLLECTED AS EARLY AS 12 NOON.", "ref": "0440100023"}, "type": "Feature"}
{"geometry": {"coordinates": [-68.7619942, 44.813236], "type": "Point"}, "id": "U9Ti2qgGyi1pBovCYXF4fIc5mQE=", "properties": {"@spider": "usps_collection_boxes", "addr:city": "BANGOR", "addr:country": "US", "addr:full": "208 MAPLE ST", "addr:postcode": "04401", "addr:state": "ME", "brand": "USPS", "collection_times": "Mo-Fr 09:30; Sa 09:00", "name": "USPS COLLECTION BOX - BLUE BOX", "ref": "0440100024"}, "type": "Feature"}
{"geometry": {"coordinates": [-68.7577873, 44.806852], "type": "Point"}, "id": "qhVjOW7YOjY1DWSTL7usNHnoBr8=", "properties": {"@spider": "usps_collection_boxes", "addr:city": "BANGOR", "addr:country": "US", "addr:full": "300 STATE ST", "addr:postcode": "04401", "addr:state": "ME", "brand": "USPS", "collection_times": "Mo-Fr 12:00; Sa 09:00", "name": "USPS COLLECTION BOX - BLUE BOX", "ref": "0440100026"}, "type": "Feature"}
{"geometry": {"coordinates": [-68.7700803, 44.802064], "type": "Point"}, "id": "tbuIvYXPXlgYSowpqiHEjbdbpKo=", "properties": {"@spider": "usps_collection_boxes", "addr:city": "BANGOR", "addr:country": "US", "addr:full": "6 STATE ST", "addr:postcode": "04401", "addr:state": "ME", "brand": "USPS", "collection_times": "Mo-Fr 17:15; Sa 09:30", "name": "USPS COLLECTION BOX - BLUE BOX", "note": "ON 12/24 AND 12/31, THIS BOX MAY BE COLLECTED AS EARLY AS 12 NOON.", "ref": "0440100027"}, "type": "Feature"}
{"geometry": {"coordinates": [-68.7700359, 44.802058], "type": "Point"}, "id": "KefMz_Qj_2OukW8AMy9PwSRI-P0=", "properties": {"@spider": "usps_collection_boxes", "addr:city": "BANGOR", "addr:country": "US", "addr:full": "6 STATE ST", "addr:postcode": "04401", "addr:state": "ME", "brand": "USPS", "collection_times": "Mo-Fr 17:15; Sa 09:30", "name": "USPS COLLECTION BOX - BLUE BOX", "note": "ON 12/24 AND 12/31, THIS BOX MAY BE COLLECTED AS EARLY AS 12 NOON.", "ref": "0440100028"}, "type": "Feature"}
{"geometry": {"coordinates": [-68.7598119, 44.805954], "type": "Point"}, "id": "QbS2j2CYaLalRBYrLG3P4YTNHi4=", "properties": {"@spider": "usps_collection_boxes", "addr:city": "BANGOR", "addr:country": "US", "addr:full": "263 STATE ST", "addr:postcode": "04401", "addr:state": "ME", "brand": "USPS", "collection_times": "Mo-Fr 17:30; Sa 09:30", "name": "USPS COLLECTION BOX - BLUE BOX", "note": "ON 12/24 AND 12/31, THIS BOX MAY BE COLLECTED AS EARLY AS 12 NOON.", "ref": "0440100030"}, "type": "Feature"}
{"geometry": {"coordinates": [-68.7619442, 44.805318], "type": "Point"}, "id": "JRKnWLt_yK3hpX70Gc1TZwCkmrA=", "properties": {"@spider": "usps_collection_boxes", "addr:city": "BANGOR", "addr:country": "US", "addr:full": "210 STATE ST", "addr:postcode": "04401", "addr:state": "ME", "brand": "USPS", "collection_times": "Mo-Fr 11:00; Sa 10:30", "name": "USPS COLLECTION BOX - BLUE BOX", "ref": "0440100031"}, "type": "Feature"}
{"geometry": {"coordinates": [-68.7681885, 44.800453], "type": "Point"}, "id": "dYg4LPnAc4ZtR-UZFJ2sRthCFyc=", "properties": {"@spider": "usps_collection_boxes", "addr:city": "BANGOR", "addr:country": "US", "addr:full": "77 EXCHANGE ST", "addr:postcode": "04401", "addr:state": "ME", "brand": "USPS", "collection_times": "Mo-Fr 17:15; Sa 09:30", "name": "USPS COLLECTION BOX - BLUE BOX", "note": "ON 12/24 AND 12/31, THIS BOX MAY BE COLLECTED AS EARLY AS 12 NOON.", "ref": "0440100034"}, "type": "Feature"}
{"geometry": {"coordinates": [-68.7656788, 44.808854], "type": "Point"}, "id": "55cX5MWFozQQ_20qfN6lhJ2EXjo=", "properties": {"@spider": "usps_collection_boxes", "addr:city": "BANGOR", "addr:country": "US", "addr:full": "102 GARLAND ST", "addr:postcode": "04401", "addr:state": "ME", "brand": "USPS", "collection_times": "Mo-Sa 09:00", "name": "USPS COLLECTION BOX - BLUE BOX", "ref": "0440100036"}, "type": "Feature"}
{"geometry": {"coordinates": [-68.7716267, 44.800885], "type": "Point"}, "id": "YRqg62dFqZVuOMETc3rwUXnlR-8=", "properties": {"@spider": "usps_collection_boxes", "addr:city": "BANGOR", "addr:country": "US", "addr:full": "32 MAIN ST", "addr:postcode": "04401", "addr:state": "ME", "brand": "USPS", "collection_times": "Mo-Fr 09:00; Sa 09:30", "name": "USPS COLLECTION BOX - BLUE BOX", "ref": "0440100041"}, "type": "Feature"}
{"geometry": {"coordinates": [-68.7766585, 44.791465], "type": "Point"}, "id": "sYWkFsKiMpPvo8JmIOQQuLdbPbQ=", "properties": {"@spider": "usps_collection_boxes", "addr:city": "BANGOR", "addr:country": "US", "addr:full": "427 MAIN ST", "addr:postcode": "04401", "addr:state": "ME", "brand": "USPS", "collection_times": "Mo-Sa 12:00", "name": "USPS COLLECTION BOX - BLUE BOX", "ref": "0440100043"}, "type": "Feature"}
{"geometry": {"coordinates": [-68.7830099877, 44.7933990158], "type": "Point"}, "id": "hRpOH6Kyg1sIXExztv4Z6UIf0Ik=", "properties": {"@spider": "usps_collection_boxes", "addr:city": "BANGOR", "addr:country": "US", "addr:full": "238 3RD ST", "addr:postcode": "04401", "addr:state": "ME", "brand": "USPS", "collection_times": "Mo-Sa 09:00", "name": "USPS COLLECTION BOX - BLUE BOX", "ref": "0440100045"}, "type": "Feature"}
{"geometry": {"coordinates": [-68.7726799, 44.80069], "type": "Point"}, "id": "B3iCwG8VX_m2PawxOwSTvkzei4U=", "properties": {"@spider": "usps_collection_boxes", "addr:city": "BANGOR", "addr:country": "US", "addr:full": "50 COLUMBIA ST", "addr:postcode": "04401", "addr:state": "ME", "brand": "USPS", "collection_times": "Mo-Fr 17:30; Sa 08:30", "name": "USPS COLLECTION BOX - BLUE BOX", "note": "ON 12/24 AND 12/31, THIS BOX MAY BE COLLECTED AS EARLY AS 12 NOON.", "ref": "0440100046"}, "type": "Feature"}
{"geometry": {"coordinates": [-68.7721636, 44.803487], "type": "Point"}, "id": "hrzM_OnHw3JCOKfx9b7fi6fOehk=", "properties": {"@spider": "usps_collection_boxes", "addr:city": "BANGOR", "addr:country": "US", "addr:full": "115 FRANKLIN ST", "addr:postcode": "04401", "addr:state": "ME", "brand": "USPS", "collection_times": "Mo-Fr 17:15; Sa 09:15", "name": "USPS COLLECTION BOX - BLUE BOX", "note": "ON 12/24 AND 12/31, THIS BOX MAY BE COLLECTED AS EARLY AS 12 NOON.", "ref": "0440100047"}, "type": "Feature"}
{"geometry": {"coordinates": [-68.7832427, 44.804039], "type": "Point"}, "id": "TbynopRveVmBbLz-3bfzIuOj4tI=", "properties": {"@spider": "usps_collection_boxes", "addr:city": "BANGOR", "addr:country": "US", "addr:full": "371 UNION ST", "addr:postcode": "04401", "addr:state": "ME", "brand": "USPS", "collection_times": "Mo-Fr 14:00; Sa 09:30", "name": "USPS COLLECTION BOX - BLUE BOX", "note": "ON 12/24 AND 12/31, THIS BOX MAY BE COLLECTED AS EARLY AS 12 NOON.", "ref": "0440100048"}, "type": "Feature"}
{"geometry": {"coordinates": [-68.7765407, 44.80059], "type": "Point"}, "id": "xjrZ8jhPs9-z2qwA96-srySAMiE=", "properties": {"@spider": "usps_collection_boxes", "addr:city": "BANGOR", "addr:country": "US", "addr:full": "220 UNION ST", "addr:postcode": "04401", "addr:state": "ME", "brand": "USPS", "collection_times": "Mo-Sa 09:30", "name": "USPS COLLECTION BOX - BLUE BOX", "ref": "0440100049"}, "type": "Feature"}
{"geometry": {"coordinates": [-68.8110183, 44.819538], "type": "Point"}, "id": "VAzSRUBC8DRaOm8xPcKQL4J7ieQ=", "properties": {"@spider": "usps_collection_boxes", "addr:city": "BANGOR", "addr:country": "US", "addr:full": "1129 UNION ST", "addr:postcode": "04401", "addr:state": "ME", "brand": "USPS", "collection_times": "Mo-Fr 16:30; Sa 16:00", "name": "USPS COLLECTION BOX - BLUE BOX", "note": "ON 12/24 AND 12/31, THIS BOX MAY BE COLLECTED AS EARLY AS 12 NOON.", "ref": "0440100050"}, "type": "Feature"}
{"geometry": {"coordinates": [-68.7971609, 44.799184], "type": "Point"}, "id": "orOxVHGkr2M5Dx-aRl2aZfl588I=", "properties": {"@spider": "usps_collection_boxes", "addr:city": "BANGOR", "addr:country": "US", "addr:full": "691 HAMMOND ST", "addr:postcode": "04401", "addr:state": "ME", "brand": "USPS", "collection_times": "Mo-Sa 14:00", "name": "USPS COLLECTION BOX - BLUE BOX", "note": "ON 12/24 AND 12/31, THIS BOX MAY BE COLLECTED AS EARLY AS 12 NOON.", "ref": "0440100055"}, "type": "Feature"}
{"geometry": {"coordinates": [-68.8060435, 44.798029], "type": "Point"}, "id": "zrLV8HEunMdXSq7JTAb7k6R-4UM=", "properties": {"@spider": "usps_collection_boxes", "addr:city": "BANGOR", "addr:country": "US", "addr:full": "890 HAMMOND ST", "addr:postcode": "04401", "addr:state": "ME", "brand": "USPS", "collection_times": "Mo-Sa 14:00", "name": "USPS COLLECTION BOX - BLUE BOX", "note": "ON 12/24 AND 12/31, THIS BOX MAY BE COLLECTED AS EARLY AS 12 NOON.", "ref": "0440100058"}, "type": "Feature"}
{"geometry": {"coordinates": [-68.7707137, 44.803523], "type": "Point"}, "id": "nDaVbAHTb0oZEmxecyzkCJAj_HU=", "properties": {"@spider": "usps_collection_boxes", "addr:city": "BANGOR", "addr:country": "US", "addr:full": "84 HARLOW ST", "addr:postcode": "04401", "addr:state": "ME", "brand": "USPS", "collection_times": "Mo-Fr 17:00; Sa 09:30", "name": "USPS COLLECTION BOX - BLUE BOX", "note": "ON 12/24 AND 12/31, THIS BOX MAY BE COLLECTED AS EARLY AS 12 NOON.", "ref": "0440100059"}, "type": "Feature"}
{"geometry": {"coordinates": [-68.7755615, 44.806178], "type": "Point"}, "id": "DF4CWhfM_9gFS3C_8BgsWIA2sSU=", "properties": {"@spider": "usps_collection_boxes", "addr:city": "BANGOR", "addr:country": "US", "addr:full": "324 HARLOW ST", "addr:postcode": "04401", "addr:state": "ME", "brand": "USPS", "collection_times": "Mo-Fr 17:00; Sa 09:30", "name": "USPS COLLECTION BOX - BLUE BOX", "note": "ON 12/24 AND 12/31, THIS BOX MAY BE COLLECTED AS EARLY AS 12 NOON.", "ref": "0440100061"}, "type": "Feature"}
{"geometry": {"coordinates": [-68.7708249, 44.800775], "type": "Point"}, "id": "dKADEwPzSwNqhkVK0EiVwzXbdvo=", "properties": {"@spider": "usps_collection_boxes", "addr:city": "BANGOR", "addr:country": "US", "addr:full": "1 MERCHANTS PLZ", "addr:postcode": "04401", "addr:state": "ME", "brand": "USPS", "collection_times": "Mo-Fr 17:15; Sa 09:00", "name": "USPS COLLECTION BOX - BLUE BOX", "note": "ON 12/24 AND 12/31, THIS BOX MAY BE COLLECTED AS EARLY AS 12 NOON.", "ref": "0440100063"}, "type": "Feature"}
{"geometry": {"coordinates": [-68.7918972, 44.811739], "type": "Point"}, "id": "uaYHi81_10LcSC1IMSdGN8c5Pqc=", "properties": {"@spider": "usps_collection_boxes", "addr:city": "BANGOR", "addr:country": "US", "addr:full": "504 OHIO ST", "addr:postcode": "04401", "addr:state": "ME", "brand": "USPS", "collection_times": "Mo-Sa 09:00", "name": "USPS COLLECTION BOX - BLUE BOX", "ref": "0440100066"}, "type": "Feature"}
{"geometry": {"coordinates": [-68.8165299, 44.819319], "type": "Point"}, "id": "z6XoLDegdDbIZz2hkjHOoCnMpco=", "properties": {"@spider": "usps_collection_boxes", "addr:city": "BANGOR", "addr:country": "US", "addr:full": "970 ILLINOIS AVE", "addr:postcode": "04401", "addr:state": "ME", "brand": "USPS", "collection_times": "Mo-Fr 16:30; Sa 09:00", "name": "USPS COLLECTION BOX - BLUE BOX", "note": "ON 12/24 AND 12/31, THIS BOX MAY BE COLLECTED AS EARLY AS 12 NOON.", "ref": "0440100068"}, "type": "Feature"}
{"geometry": {"coordinates": [-68.7523114, 44.817446], "type": "Point"}, "id": "9XrS11768AV1SQf-ftKbLwPbSAQ=", "properties": {"@spider": "usps_collection_boxes", "addr:city": "BANGOR", "addr:country": "US", "addr:full": "336 MOUNT HOPE AVE", "addr:postcode": "04401", "addr:state": "ME", "brand": "USPS", "collection_times": "Mo-Fr 17:00; Sa 09:30", "name": "USPS COLLECTION BOX - BLUE BOX", "note": "ON 12/24 AND 12/31, THIS BOX MAY BE COLLECTED AS EARLY AS 12 NOON.", "ref": "0440100071"}, "type": "Feature"}
{"geometry": {"coordinates": [-68.7352719, 44.82373], "type": "Point"}, "id": "bprBCW8CjzvsU17QYBcJyktZYBA=", "properties": {"@spider": "usps_collection_boxes", "addr:city": "BANGOR", "addr:country": "US", "addr:full": "700 MOUNT HOPE AVE", "addr:postcode": "04401", "addr:state": "ME", "brand": "USPS", "collection_times": "Mo-Fr 17:15; Sa 16:30", "name": "USPS COLLECTION BOX - BLUE BOX", "note": "ON 12/24 AND 12/31, THIS BOX MAY BE COLLECTED AS EARLY AS 12 NOON.", "ref": "0440100072"}, "type": "Feature"}
{"geometry": {"coordinates": [-68.819471, 44.788044], "type": "Point"}, "id": "xpvVBbsXQecJ52yDRauSJNOVRTo=", "properties": {"@spider": "usps_collection_boxes", "addr:city": "BANGOR", "addr:country": "US", "addr:full": "1126 HAMMOND ST", "addr:postcode": "04401", "addr:state": "ME", "brand": "USPS", "collection_times": "Mo-Fr 17:15; Sa 09:00", "name": "USPS COLLECTION BOX - BLUE BOX", "note": "ON 12/24 AND 12/31, THIS BOX MAY BE COLLECTED AS EARLY AS 12 NOON.", "ref": "0440100076"}, "type": "Feature"}
{"geometry": {"coordinates": [-68.8464778, 44.794175], "type": "Point"}, "id": "1iNamNgAQ3oP7sfg_E0IWgeR1rw=", "properties": {"@spider": "usps_collection_boxes", "addr:city": "BANGOR", "addr:country": "US", "addr:full": "1 FREEDOM PKWY", "addr:postcode": "04401", "addr:state": "ME", "brand": "USPS", "collection_times": "Mo-Fr 17:15", "name": "USPS COLLECTION BOX - BLUE BOX", "note": "ON 12/24 AND 12/31, THIS BOX MAY BE COLLECTED AS EARLY AS 12 NOON.", "ref": "0440100080"}, "type": "Feature"}
{"geometry": {"coordinates": [-68.8371391, 44.79335], "type": "Point"}, "id": "7GurGHRwdaDIY6v9XY3psWooroc=", "properties": {"@spider": "usps_collection_boxes", "addr:city": "BANGOR", "addr:country": "US", "addr:full": "35 HILDRETH ST", "addr:postcode": "04401", "addr:state": "ME", "brand": "USPS", "collection_times": "Mo-Fr 17:15; Sa 09:00", "name": "USPS COLLECTION BOX - BLUE BOX", "note": "ON 12/24 AND 12/31, THIS BOX MAY BE COLLECTED AS EARLY AS 12 NOON.", "ref": "0440100082"}, "type": "Feature"}
{"geometry": {"coordinates": [-68.7700028, 44.803107], "type": "Point"}, "id": "yQAPi--SN-XURBRZb_WdcO29Bpc=", "properties": {"@spider": "usps_collection_boxes", "addr:city": "BANGOR", "addr:country": "US", "addr:full": "73 HARLOW ST", "addr:postcode": "04401", "addr:state": "ME", "brand": "USPS", "collection_times": "Mo-Fr 17:30; Sa 09:30", "name": "USPS COLLECTION BOX - BLUE BOX", "note": "ON 12/24 AND 12/31, THIS BOX MAY BE COLLECTED AS EARLY AS 12 NOON.", "ref": "0440100089"}, "type": "Feature"}
{"geometry": {"coordinates": [-68.745436007, 44.839713287], "type": "Point"}, "id": "WB91Tv2m_rdxGi6KdndoI-wB1Mc=", "properties": {"@spider": "usps_collection_boxes", "addr:city": "BANGOR", "addr:country": "US", "addr:full": "930 STILLWATER AVE", "addr:postcode": "04401", "addr:state": "ME", "brand": "USPS", "collection_times": "Mo-Fr 16:30", "name": "USPS COLLECTION BOX - BLUE BOX", "note": "ON 12/24 AND 12/31, THIS BOX MAY BE COLLECTED AS EARLY AS 12 NOON.", "ref": "0440100092"}, "type": "Feature"}
{"geometry": {"coordinates": [-68.7736812, 44.804986], "type": "Point"}, "id": "2tKf7pYv_3zI8BUDEPE2iQhwi4s=", "properties": {"@spider": "usps_collection_boxes", "addr:city": "BANGOR", "addr:country": "US", "addr:full": "202 HARLOW ST", "addr:postcode": "04401", "addr:state": "ME", "brand": "USPS", "collection_times": "Mo-Fr 18:00; Sa 17:00", "name": "USPS COLLECTION BOX - BLUE BOX", "note": "ON 12/24 AND 12/31, THIS BOX MAY BE COLLECTED AS EARLY AS 12 NOON.", "ref": "0440100093"}, "type": "Feature"}
{"geometry": {"coordinates": [-68.7726786, 44.800686], "type": "Point"}, "id": "rypeqsvK0rqarYn1X3vYbw7rw5U=", "properties": {"@spider": "usps_collection_boxes", "addr:city": "BANGOR", "addr:country": "US", "addr:full": "50 COLUMBIA ST", "addr:postcode": "04401", "addr:state": "ME", "brand": "USPS", "collection_times": "Mo-Fr 17:30; Sa 08:30", "name": "USPS COLLECTION BOX - BLUE BOX", "note": "ON 12/24 AND 12/31, THIS BOX MAY BE COLLECTED AS EARLY AS 12 NOON.", "ref": "0440100096"}, "type": "Feature"}
{"geometry": {"coordinates": [-68.7708184, 44.800781], "type": "Point"}, "id": "fQravfMf34_V_vcJLOsjCLWJQkg=", "properties": {"@spider": "usps_collection_boxes", "addr:city": "BANGOR", "addr:country": "US", "addr:full": "1 MERCHANTS PLZ", "addr:postcode": "04401", "addr:state": "ME", "brand": "USPS", "collection_times": "Mo-Fr 17:15; Sa 09:00", "name": "USPS COLLECTION BOX - BLUE BOX", "note": "ON 12/24 AND 12/31, THIS BOX MAY BE COLLECTED AS EARLY AS 12 NOON.", "ref": "0440100097"}, "type": "Feature"}
{"geometry": {"coordinates": [-68.7708699744, 44.7988980053], "type": "Point"}, "id": "KX-nc6K6YKi-qENZy73ER89ry0c=", "properties": {"@spider": "usps_collection_boxes", "addr:city": "BANGOR", "addr:country": "US", "addr:full": "23 WATER ST", "addr:postcode": "04401", "addr:state": "ME", "brand": "USPS", "collection_times": "Mo-Fr 17:30; Sa 09:00", "name": "USPS COLLECTION BOX - BLUE BOX", "note": "ON 12/24 AND 12/31, THIS BOX MAY BE COLLECTED AS EARLY AS 12 NOON.", "ref": "0440100098"}, "type": "Feature"}
{"geometry": {"coordinates": [-68.770869974, 44.798898005], "type": "Point"}, "id": "WTiaEkMJbYw4QrRSJLQGy6wC33o=", "properties": {"@spider": "usps_collection_boxes", "addr:city": "BANGOR", "addr:country": "US", "addr:full": "23 WATER ST", "addr:postcode": "04401", "addr:state": "ME", "brand": "USPS", "collection_times": "Mo-Fr 17:30; Sa 09:00", "name": "USPS COLLECTION BOX - BLUE BOX", "note": "ON 12/24 AND 12/31, THIS BOX MAY BE COLLECTED AS EARLY AS 12 NOON.", "ref": "0440100100"}, "type": "Feature"}
{"geometry": {"coordinates": [-68.7712449, 44.834179], "type": "Point"}, "id": "SLb7y-ByfE1j7wHIvBitMav3SnA=", "properties": {"@spider": "usps_collection_boxes", "addr:city": "BANGOR", "addr:country": "US", "addr:full": "979 ESSEX ST", "addr:postcode": "04401", "addr:state": "ME", "brand": "USPS", "collection_times": "Mo-Fr 09:00", "name": "USPS COLLECTION BOX - BLUE BOX", "ref": "0440100103"}, "type": "Feature"}
{"geometry": {"coordinates": [-68.8245885, 44.913438], "type": "Point"}, "id": "MpcCym_4qLf8IuWImiIvDQB2w3g=", "properties": {"@spider": "usps_collection_boxes", "addr:city": "BANGOR", "addr:country": "US", "addr:full": "144 LAKEVIEW RD.", "addr:postcode": "04401", "addr:state": "ME", "brand": "USPS", "collection_times": "Mo-Fr 10:00", "name": "USPS COLLECTION BOX - BLUE BOX", "ref": "0440100104"}, "type": "Feature"}
{"geometry": {"coordinates": [-68.7474883, 44.830261], "type": "Point"}, "id": "2nUzfrM1g7udbFMc0VjAXyoiNmE=", "properties": {"@spider": "usps_collection_boxes", "addr:city": "BANGOR", "addr:country": "US", "addr:full": "663 STILLWATER AVE", "addr:postcode": "04401", "addr:state": "ME", "brand": "USPS", "collection_times": "Mo-Sa 16:30", "name": "USPS COLLECTION BOX - BLUE BOX", "note": "ON 12/24 AND 12/31, THIS BOX MAY BE COLLECTED AS EARLY AS 12 NOON.", "ref": "0440100105"}, "type": "Feature"}
{"geometry": {"coordinates": [-68.7729415, 44.801576], "type": "Point"}, "id": "WIyegWqSCdRyQEz69-qFjvpOGdQ=", "properties": {"@spider": "usps_collection_boxes", "addr:city": "BANGOR", "addr:country": "US", "addr:full": "97 HAMMOND ST", "addr:postcode": "04401", "addr:state": "ME", "brand": "USPS", "collection_times": "Mo-Fr 17:15; Sa 09:00", "name": "USPS COLLECTION BOX - BLUE BOX", "note": "ON 12/24 AND 12/31, THIS BOX MAY BE COLLECTED AS EARLY AS 12 NOON.", "ref": "0440100110"}, "type": "Feature"}
{"geometry": {"coordinates": [-68.7352899, 44.823732], "type": "Point"}, "id": "S2s9Z0XdvAYPF9H7Vtgt2HhGyTA=", "properties": {"@spider": "usps_collection_boxes", "addr:city": "BANGOR", "addr:country": "US", "addr:full": "700 MOUNT HOPE AVE", "addr:postcode": "04401", "addr:state": "ME", "brand": "USPS", "collection_times": "Mo-Fr 17:15", "name": "USPS COLLECTION BOX - EXPRESS", "note": "ON 12/24 AND 12/31, THIS BOX MAY BE COLLECTED AS EARLY AS 12 NOON.", "ref": "0440100112"}, "type": "Feature"}
{"geometry": {"coordinates": [-68.7474828, 44.830268], "type": "Point"}, "id": "1ndjIH87i1M_5ZT8cXGH-sYE-gA=", "properties": {"@spider": "usps_collection_boxes", "addr:city": "BANGOR", "addr:country": "US", "addr:full": "663 STILLWATER AVE", "addr:postcode": "04401", "addr:state": "ME", "brand": "USPS", "collection_times": "Mo-Sa 16:30", "name": "USPS COLLECTION BOX - EXPRESS", "note": "ON 12/24 AND 12/31, THIS BOX MAY BE COLLECTED AS EARLY AS 12 NOON.", "ref": "0440100116"}, "type": "Feature"}
{"geometry": {"coordinates": [-68.8071622, 44.81488], "type": "Point"}, "id": "j_j0KvYdcdnkSLAhaeT5Uvq1_VU=", "properties": {"@spider": "usps_collection_boxes", "addr:city": "BANGOR", "addr:country": "US", "addr:full": "992 UNION ST", "addr:postcode": "04401", "addr:state": "ME", "brand": "USPS", "collection_times": "Mo-Fr 16:30", "name": "USPS COLLECTION BOX - BLUE BOX", "note": "ON 12/24 AND 12/31, THIS BOX MAY BE COLLECTED AS EARLY AS 12 NOON.", "ref": "0440100126"}, "type": "Feature"}
{"geometry": {"coordinates": [-68.8025519, 44.814579], "type": "Point"}, "id": "CJD1jx71auKtYu-5cmfSIoGwdVw=", "properties": {"@spider": "usps_collection_boxes", "addr:city": "BANGOR", "addr:country": "US", "addr:full": "915 UNION ST", "addr:postcode": "04401", "addr:state": "ME", "brand": "USPS", "collection_times": "Mo-Fr 16:30", "name": "USPS COLLECTION BOX - BLUE BOX", "note": "ON 12/24 AND 12/31, THIS BOX MAY BE COLLECTED AS EARLY AS 12 NOON.", "ref": "0440100127"}, "type": "Feature"}
{"geometry": {"coordinates": [-68.7910839, 44.807499], "type": "Point"}, "id": "qsxikJpeRBxXNUvcyI7XB3COrdI=", "properties": {"@spider": "usps_collection_boxes", "addr:city": "BANGOR", "addr:country": "US", "addr:full": "566 UNION ST", "addr:postcode": "04401", "addr:state": "ME", "brand": "USPS", "collection_times": "Mo-Sa 08:30", "name": "USPS COLLECTION BOX - BLUE BOX", "ref": "0440100131"}, "type": "Feature"}
{"geometry": {"coordinates": [-68.7749866, 44.813154], "type": "Point"}, "id": "9aJca9NIdZPr-ZIWcG25vVjuz3E=", "properties": {"@spider": "usps_collection_boxes", "addr:city": "BANGOR", "addr:country": "US", "addr:full": "92 NORFOLK ST", "addr:postcode": "04401", "addr:state": "ME", "brand": "USPS", "collection_times": "Mo-Sa 10:00", "name": "USPS COLLECTION BOX - BLUE BOX", "ref": "0440100132"}, "type": "Feature"}
{"geometry": {"coordinates": [-68.7404734, 44.818183], "type": "Point"}, "id": "rcHShM6oKqofhoyYFHx-RWLTvv0=", "properties": {"@spider": "usps_collection_boxes", "addr:city": "BANGOR", "addr:country": "US", "addr:full": "106 HOGAN RD", "addr:postcode": "04401", "addr:state": "ME", "brand": "USPS", "collection_times": "Mo-Fr 17:00", "name": "USPS COLLECTION BOX - BLUE BOX", "note": "ON 12/24 AND 12/31, THIS BOX MAY BE COLLECTED AS EARLY AS 12 NOON.", "ref": "0440100136"}, "type": "Feature"}
{"geometry": {"coordinates": [-68.7429347, 44.847944], "type": "Point"}, "id": "tvsIfOJXTYMZYX20GGaBlRwxSKM=", "properties": {"@spider": "usps_collection_boxes", "addr:city": "BANGOR", "addr:country": "US", "addr:full": "100 RIDGEWOOD DR", "addr:postcode": "04401", "addr:state": "ME", "brand": "USPS", "collection_times": "Mo-Fr 16:00", "name": "USPS COLLECTION BOX - BLUE BOX", "note": "ON 12/24 AND 12/31, THIS BOX MAY BE COLLECTED AS EARLY AS 12 NOON.", "ref": "0440100137"}, "type": "Feature"}
{"geometry": {"coordinates": [-68.7497523, 44.809176], "type": "Point"}, "id": "HTxakzwhTtNd3fovMRHz77T0M48=", "properties": {"@spider": "usps_collection_boxes", "addr:city": "BANGOR", "addr:country": "US", "addr:full": "489 STATE ST", "addr:postcode": "04401", "addr:state": "ME", "brand": "USPS", "collection_times": "Mo-Fr 17:15; Sa 09:00", "name": "USPS COLLECTION BOX - BLUE BOX", "note": "ON 12/24 AND 12/31, THIS BOX MAY BE COLLECTED AS EARLY AS 12 NOON.", "ref": "0440100138"}, "type": "Feature"}
{"geometry": {"coordinates": [-68.7681817, 44.800442], "type": "Point"}, "id": "2qUcHGLkXtIGL1FBoVD-XQqEEIM=", "properties": {"@spider": "usps_collection_boxes", "addr:city": "BANGOR", "addr:country": "US", "addr:full": "77 EXCHANGE ST", "addr:postcode": "04401", "addr:state": "ME", "brand": "USPS", "collection_times": "Mo-Fr 17:15; Sa 09:30", "name": "USPS COLLECTION BOX - BLUE BOX", "note": "ON 12/24 AND 12/31, THIS BOX MAY BE COLLECTED AS EARLY AS 12 NOON.", "ref": "0440100140"}, "type": "Feature"}
{"geometry": {"coordinates": [-68.7579861, 44.82532], "type": "Point"}, "id": "qrPvZY8FjigMmsn7-08QygSPMKc=", "properties": {"@spider": "usps_collection_boxes", "addr:city": "BANGOR", "addr:country": "US", "addr:full": "444 STILLWATER AVE", "addr:postcode": "04401", "addr:state": "ME", "brand": "USPS", "collection_times": "Mo-Fr 17:00", "name": "USPS COLLECTION BOX - BLUE BOX", "note": "ON 12/24 AND 12/31, THIS BOX MAY BE COLLECTED AS EARLY AS 12 NOON.", "ref": "0440100141"}, "type": "Feature"}
{"geometry": {"coordinates": [-68.8201706, 44.818203], "type": "Point"}, "id": "iHzjAh-A-OD9M2rOoAi1c_Kq7a0=", "properties": {"@spider": "usps_collection_boxes", "addr:city": "BANGOR", "addr:country": "US", "addr:full": "425 GRIFFIN RD", "addr:postcode": "04401", "addr:state": "ME", "brand": "USPS", "collection_times": "Mo-Fr 09:00", "name": "USPS COLLECTION BOX - BLUE BOX", "ref": "0440100142"}, "type": "Feature"}
{"geometry": {"coordinates": [-68.7497149, 44.836415], "type": "Point"}, "id": "h2ZDIAVJRVH02Jcz4C8S5UMkCiQ=", "properties": {"@spider": "usps_collection_boxes", "addr:city": "BANGOR", "addr:country": "US", "addr:full": "8 PENN PLZ", "addr:postcode": "04401", "addr:state": "ME", "brand": "USPS", "collection_times": "Mo-Fr 16:45", "name": "USPS COLLECTION BOX - BLUE BOX", "note": "ON 12/24 AND 12/31, THIS BOX MAY BE COLLECTED AS EARLY AS 12 NOON.", "ref": "0440100143"}, "type": "Feature"}
{"geometry": {"coordinates": [-68.772124, 44.801586], "type": "Point"}, "id": "JDwBsR9EY_0x8krGeHmkRZiDExI=", "properties": {"@spider": "usps_collection_boxes", "addr:city": "BANGOR", "addr:country": "US", "addr:full": "73 HAMMOND ST", "addr:postcode": "04401", "addr:state": "ME", "brand": "USPS", "collection_times": "Mo-Fr 17:00; Sa 13:00", "name": "USPS COLLECTION BOX - PO LOBBY", "note": "ON 12/24 AND 12/31, THIS BOX MAY BE COLLECTED AS EARLY AS 12 NOON.", "ref": "0440100146"}, "type": "Feature"}
{"geometry": {"coordinates": [-68.911524, 44.810374], "type": "Point"}, "id": "Bel-BwX9582tpJPGGI0dUf90Y4Q=", "properties": {"@spider": "usps_collection_boxes", "addr:city": "BANGOR", "addr:country": "US", "addr:full": "8 BILLINGS RD", "addr:postcode": "04401", "addr:state": "ME", "brand": "USPS", "collection_times": "Mo-Fr 17:00; Sa 15:00", "name": "USPS COLLECTION BOX - BLUE BOX", "note": "ON 12/24 AND 12/31, THIS BOX MAY BE COLLECTED AS EARLY AS 12 NOON.", "ref": "0440100147"}, "type": "Feature"}
{"geometry": {"coordinates": [-68.7776518, 44.824704], "type": "Point"}, "id": "WRikdfnvBSeP4cJN0DySpPmCUA0=", "properties": {"@spider": "usps_collection_boxes", "addr:city": "BANGOR", "addr:country": "US", "addr:full": "647 BROADWAY", "addr:postcode": "04401", "addr:state": "ME", "brand": "USPS", "collection_times": "Mo-Fr 17:30; Sa 17:00", "name": "USPS COLLECTION BOX - BLUE BOX", "note": "ON 12/24 AND 12/31, THIS BOX MAY BE COLLECTED AS EARLY AS 12 NOON.", "ref": "0440100148"}, "type": "Feature"}
{"geometry": {"coordinates": [-68.7725627, 44.802182], "type": "Point"}, "id": "g1y4a3XIiRTpQKkzgly4exz93Bw=", "properties": {"@spider": "usps_collection_boxes", "addr:city": "BANGOR", "addr:country": "US", "addr:full": "73 HAMMOND ST", "addr:postcode": "04401", "addr:state": "ME", "brand": "USPS", "collection_times": "Mo-Fr 18:00; Sa 17:00", "name": "USPS COLLECTION BOX - BLUE BOX", "note": "ON 12/24 AND 12/31, THIS BOX MAY BE COLLECTED AS EARLY AS 12 NOON.", "ref": "0440100149"}, "type": "Feature"}
{"geometry": {"coordinates": [-68.7725722, 44.802155], "type": "Point"}, "id": "F7VOKVUF56Zv4i9qIHdyvRefhJE=", "properties": {"@spider": "usps_collection_boxes", "addr:city": "BANGOR", "addr:country": "US", "addr:full": "73 HAMMOND ST", "addr:postcode": "04401", "addr:state": "ME", "brand": "USPS", "collection_times": "Mo-Fr 18:00; Sa 17:00", "name": "USPS COLLECTION BOX - BLUE BOX", "note": "ON 12/24 AND 12/31, THIS BOX MAY BE COLLECTED AS EARLY AS 12 NOON.", "ref": "0440100150"}, "type": "Feature"}
{"geometry": {"coordinates": [-68.772122727, 44.801584438], "type": "Point"}, "id": "WxLRkHskqz7Z837ihQ9beicyDBs=", "properties": {"@spider": "usps_collection_boxes", "addr:city": "BANGOR", "addr:country": "US", "addr:full": "73 HAMMOND ST STE 9998", "addr:postcode": "04401", "addr:state": "ME", "brand": "USPS", "collection_times": "Mo-Fr 17:00; Sa 13:00", "name": "USPS COLLECTION BOX - PO LOBBY", "note": "ON 12/24 AND 12/31, THIS BOX MAY BE COLLECTED AS EARLY AS 12 NOON.", "ref": "0440100155"}, "type": "Feature"}
{"geometry": {"coordinates": [-69.45368, 45.185949], "type": "Point"}, "id": "GjQcNh54nCr1hAUr1Shfoc0zrag=", "properties": {"@spider": "usps_collection_boxes", "addr:city": "ABBOT", "addr:country": "US", "addr:full": "1 WEST RD", "addr:postcode": "04406", "addr:state": "ME", "brand": "USPS", "collection_times": "Mo-Fr 15:15; Sa 11:30", "name": "USPS COLLECTION BOX - BLUE BOX", "note": "ON 12/24 AND 12/31, THIS BOX MAY BE COLLECTED AS EARLY AS 12 NOON.", "ref": "0440600001"}, "type": "Feature"}
{"geometry": {"coordinates": [-69.453673, 45.185922], "type": "Point"}, "id": "u8oX-3hGN5pb82FFqMBFKPXp_pQ=", "properties": {"@spider": "usps_collection_boxes", "addr:city": "ABBOT", "addr:country": "US", "addr:full": "1 WEST RD", "addr:postcode": "04406", "addr:state": "ME", "brand": "USPS", "collection_times": "Mo-Fr 15:15; Sa 11:30", "name": "USPS COLLECTION BOX - PO LOBBY", "note": "ON 12/24 AND 12/31, THIS BOX MAY BE COLLECTED AS EARLY AS 12 NOON.", "ref": "0440600002"}, "type": "Feature"}
{"geometry": {"coordinates": [-69.453565009, 45.185965333], "type": "Point"}, "id": "ZIy9uZt55vgOfHOK3sOSB2-l6ZQ=", "properties": {"@spider": "usps_collection_boxes", "addr:city": "ABBOT", "addr:country": "US", "addr:full": "1 WEST RD", "addr:postcode": "04406", "addr:state": "ME", "brand": "USPS", "collection_times": "Mo-Fr 15:15; Sa 11:30", "name": "USPS COLLECTION BOX - PO LOBBY", "note": "ON 12/24 AND 12/31, THIS BOX MAY BE COLLECTED AS EARLY AS 12 NOON.", "ref": "0440600003"}, "type": "Feature"}
{"geometry": {"coordinates": [-68.895513, 45.073838], "type": "Point"}, "id": "Y6ZTj21Gl67OgTVYE9M0yvKb9Nk=", "properties": {"@spider": "usps_collection_boxes", "addr:city": "BRADFORD", "addr:country": "US", "addr:full": "11 STORER RD", "addr:postcode": "04410", "addr:state": "ME", "brand": "USPS", "collection_times": "Mo-Fr 11:30; Sa 10:30", "name": "USPS COLLECTION BOX - BLUE BOX", "ref": "0441000001"}, "type": "Feature"}
{"geometry": {"coordinates": [-68.895545, 45.073801], "type": "Point"}, "id": "8k6YAOq9xcl8B1qTFfZPig5P57Q=", "properties": {"@spider": "usps_collection_boxes", "addr:city": "BRADFORD", "addr:country": "US", "addr:full": "11 STORER RD", "addr:postcode": "04410", "addr:state": "ME", "brand": "USPS", "collection_times": "Mo-Fr 11:45; Sa 10:45", "name": "USPS COLLECTION BOX - PO LOBBY", "ref": "0441000002"}, "type": "Feature"}
{"geometry": {"coordinates": [-68.895456518, 45.073536402], "type": "Point"}, "id": "CZ42demwSECWTBlhZvnF89EMt8U=", "properties": {"@spider": "usps_collection_boxes", "addr:city": "BRADFORD", "addr:country": "US", "addr:full": "11 STORER RD", "addr:postcode": "04410", "addr:state": "ME", "brand": "USPS", "collection_times": "Mo-Fr 12:00; Sa 11:00", "name": "USPS COLLECTION BOX - PO LOBBY", "ref": "0441000003"}, "type": "Feature"}
{"geometry": {"coordinates": [-68.630566, 44.913872], "type": "Point"}, "id": "S1IlRDTrPDmDdKdXgUgc-8t-BW0=", "properties": {"@spider": "usps_collection_boxes", "addr:city": "BRADLEY", "addr:country": "US", "addr:full": "165A MAIN ST", "addr:postcode": "04411", "addr:state": "ME", "brand": "USPS", "collection_times": "Mo-Fr 15:45; Sa 11:00", "name": "USPS COLLECTION BOX - BLUE BOX", "note": "ON 12/24 AND 12/31, THIS BOX MAY BE COLLECTED AS EARLY AS 12 NOON.", "ref": "0441100001"}, "type": "Feature"}
{"geometry": {"coordinates": [-68.63048, 44.913902], "type": "Point"}, "id": "KKovFOH8PNajwQ92MEhhZsGcuHs=", "properties": {"@spider": "usps_collection_boxes", "addr:city": "BRADLEY", "addr:country": "US", "addr:full": "165A MAIN ST", "addr:postcode": "04411", "addr:state": "ME", "brand": "USPS", "collection_times": "Mo-Fr 16:15; Sa 11:15", "name": "USPS COLLECTION BOX - PO LOBBY", "note": "ON 12/24 AND 12/31, THIS BOX MAY BE COLLECTED AS EARLY AS 12 NOON.", "ref": "0441100002"}, "type": "Feature"}
{"geometry": {"coordinates": [-68.63048, 44.913902], "type": "Point"}, "id": "iVo5cLmAZJABktKAZHVqz-uEU0E=", "properties": {"@spider": "usps_collection_boxes", "addr:city": "BRADLEY", "addr:country": "US", "addr:full": "165A MAIN ST", "addr:postcode": "04411", "addr:state": "ME", "brand": "USPS", "collection_times": "Mo-Fr 16:15; Sa 11:15", "name": "USPS COLLECTION BOX - PO LOBBY", "note": "ON 12/24 AND 12/31, THIS BOX MAY BE COLLECTED AS EARLY AS 12 NOON.", "ref": "0441100003"}, "type": "Feature"}
{"geometry": {"coordinates": [-68.630449603, 44.914019], "type": "Point"}, "id": "cc14WQVmtJG31ncTORzE_6fjzec=", "properties": {"@spider": "usps_collection_boxes", "addr:city": "BRADLEY", "addr:country": "US", "addr:full": "165A MAIN ST", "addr:postcode": "04411", "addr:state": "ME", "brand": "USPS", "collection_times": "Mo-Fr 16:15; Sa 11:00", "name": "USPS COLLECTION BOX - PO LOBBY", "note": "ON 12/24 AND 12/31, THIS BOX MAY BE COLLECTED AS EARLY AS 12 NOON.", "ref": "0441100004"}, "type": "Feature"}
{"geometry": {"coordinates": [-68.7543842, 44.799853], "type": "Point"}, "id": "3RRrRSovUIPQJrFzEO8snS-0DzU=", "properties": {"@spider": "usps_collection_boxes", "addr:city": "BREWER", "addr:country": "US", "addr:full": "401 N MAIN ST", "addr:postcode": "04412", "addr:state": "ME", "brand": "USPS", "collection_times": "Mo-Fr 17:00; Sa 16:00", "name": "USPS COLLECTION BOX - BLUE BOX", "note": "ON 12/24 AND 12/31, THIS BOX MAY BE COLLECTED AS EARLY AS 12 NOON.", "ref": "0441200006"}, "type": "Feature"}
{"geometry": {"coordinates": [-68.7492156, 44.802245], "type": "Point"}, "id": "97TYk8skRRZEczpPNvFz5wXwKfg=", "properties": {"@spider": "usps_collection_boxes", "addr:city": "BREWER", "addr:country": "US", "addr:full": "4 BROADLAWN DR", "addr:postcode": "04412", "addr:state": "ME", "brand": "USPS", "collection_times": "Mo-Sa 11:00", "name": "USPS COLLECTION BOX - BLUE BOX", "ref": "0441200007"}, "type": "Feature"}
{"geometry": {"coordinates": [-68.7647079, 44.795501], "type": "Point"}, "id": "-rKSwX5rETnk9UgqP6yQa5fwXtU=", "properties": {"@spider": "usps_collection_boxes", "addr:city": "BREWER", "addr:country": "US", "addr:full": "98 N MAIN ST", "addr:postcode": "04412", "addr:state": "ME", "brand": "USPS", "collection_times": "Mo-Fr 17:00; Sa 09:00", "name": "USPS COLLECTION BOX - BLUE BOX", "note": "ON 12/24 AND 12/31, THIS BOX MAY BE COLLECTED AS EARLY AS 12 NOON.", "ref": "0441200010"}, "type": "Feature"}
{"geometry": {"coordinates": [-69.033264, 45.306824], "type": "Point"}, "id": "5688WotuvOLY5NKzZFWwlgM383k=", "properties": {"@spider": "usps_collection_boxes", "addr:city": "BROWNVILLE", "addr:country": "US", "addr:full": "27 CHURCH ST", "addr:postcode": "04414", "addr:state": "ME", "brand": "USPS", "collection_times": "Mo-Sa 11:00", "name": "USPS COLLECTION BOX - BLUE BOX", "ref": "0441400001"}, "type": "Feature"}
{"geometry": {"coordinates": [-69.033264, 45.306824], "type": "Point"}, "id": "XF2WIKX-zmOX69lEO4mtfUL02Ok=", "properties": {"@spider": "usps_collection_boxes", "addr:city": "BROWNVILLE", "addr:country": "US", "addr:full": "27 CHURCH ST", "addr:postcode": "04414", "addr:state": "ME", "brand": "USPS", "collection_times": "Mo-Sa 11:00", "name": "USPS COLLECTION BOX - PO LOBBY", "ref": "0441400002"}, "type": "Feature"}
{"geometry": {"coordinates": [-69.033316275, 45.306835481], "type": "Point"}, "id": "oS9GTfl7I1pkElD2cL4aks7ESrw=", "properties": {"@spider": "usps_collection_boxes", "addr:city": "BROWNVILLE", "addr:country": "US", "addr:full": "27 CHURCH ST", "addr:postcode": "04414", "addr:state": "ME", "brand": "USPS", "collection_times": "Mo-Sa 11:00", "name": "USPS COLLECTION BOX - PO LOBBY", "ref": "0441400003"}, "type": "Feature"}
{"geometry": {"coordinates": [-69.055453, 45.35041], "type": "Point"}, "id": "P5fuLoA9k1rHX_dV4cihhlKDXuQ=", "properties": {"@spider": "usps_collection_boxes", "addr:city": "BROWNVLLE JCT", "addr:country": "US", "addr:full": "77 RAILROAD AVE", "addr:postcode": "04415", "addr:state": "ME", "brand": "USPS", "collection_times": "Mo-Fr 15:30; Sa 11:00", "name": "USPS COLLECTION BOX - BLUE BOX", "note": "ON 12/24 AND 12/31, THIS BOX MAY BE COLLECTED AS EARLY AS 12 NOON.", "ref": "0441500001"}, "type": "Feature"}
{"geometry": {"coordinates": [-69.05549, 45.350378], "type": "Point"}, "id": "XQQmLF-iTH2Gej_TA2AaCSxa8LA=", "properties": {"@spider": "usps_collection_boxes", "addr:city": "BROWNVLLE JCT", "addr:country": "US", "addr:full": "77 RAILROAD AVE", "addr:postcode": "04415", "addr:state": "ME", "brand": "USPS", "collection_times": "Mo-Fr 15:45; Sa 11:00", "name": "USPS COLLECTION BOX - PO LOBBY", "note": "ON 12/24 AND 12/31, THIS BOX MAY BE COLLECTED AS EARLY AS 12 NOON.", "ref": "0441500002"}, "type": "Feature"}
{"geometry": {"coordinates": [-69.057995851, 45.350009329], "type": "Point"}, "id": "o95WlWrbDRb8lpjQnuBYLMPy7jE=", "properties": {"@spider": "usps_collection_boxes", "addr:city": "BROWNVLLE JCT", "addr:country": "US", "addr:full": "77 RAILROAD AVE", "addr:postcode": "04415", "addr:state": "ME", "brand": "USPS", "collection_times": "Mo-Fr 15:45; Sa 11:00", "name": "USPS COLLECTION BOX - PO LOBBY", "note": "ON 12/24 AND 12/31, THIS BOX MAY BE COLLECTED AS EARLY AS 12 NOON.", "ref": "0441500003"}, "type": "Feature"}
{"geometry": {"coordinates": [-68.425135, 45.206873], "type": "Point"}, "id": "LHk9AbmB5YN9HiwJw-GW76BH2MM=", "properties": {"@spider": "usps_collection_boxes", "addr:city": "BURLINGTON", "addr:country": "US", "addr:full": "30 MAIN RD", "addr:postcode": "04417", "addr:state": "ME", "brand": "USPS", "collection_times": "Mo-Fr 13:00; Sa 12:15", "name": "USPS COLLECTION BOX - BLUE BOX", "note": "ON 12/24 AND 12/31, THIS BOX MAY BE COLLECTED AS EARLY AS 12 NOON.", "ref": "0441700001"}, "type": "Feature"}
{"geometry": {"coordinates": [-68.425173, 45.206869], "type": "Point"}, "id": "phIN-UQbqiWyGN2Q7STXM9tT8BI=", "properties": {"@spider": "usps_collection_boxes", "addr:city": "BURLINGTON", "addr:country": "US", "addr:full": "30 MAIN RD", "addr:postcode": "04417", "addr:state": "ME", "brand": "USPS", "collection_times": "Mo-Fr 13:00; Sa 12:15", "name": "USPS COLLECTION BOX - PO LOBBY", "note": "ON 12/24 AND 12/31, THIS BOX MAY BE COLLECTED AS EARLY AS 12 NOON.", "ref": "0441700002"}, "type": "Feature"}
{"geometry": {"coordinates": [-68.425143046, 45.206864581], "type": "Point"}, "id": "Kf02yWEmP5CriLIOVfu_V7M6YG8=", "properties": {"@spider": "usps_collection_boxes", "addr:city": "BURLINGTON", "addr:country": "US", "addr:full": "30 MAIN RD", "addr:postcode": "04417", "addr:state": "ME", "brand": "USPS", "collection_times": "Mo-Fr 13:00; Sa 12:30", "name": "USPS COLLECTION BOX - PO LOBBY", "note": "ON 12/24 AND 12/31, THIS BOX MAY BE COLLECTED AS EARLY AS 12 NOON.", "ref": "0441700003"}, "type": "Feature"}
{"geometry": {"coordinates": [-68.643244, 45.089608], "type": "Point"}, "id": "KXkgqiL6s3cWmt-rNcNRniheqeE=", "properties": {"@spider": "usps_collection_boxes", "addr:city": "GREENBUSH", "addr:country": "US", "addr:full": "1076 MAIN RD", "addr:postcode": "04418", "addr:state": "ME", "brand": "USPS", "collection_times": "Mo-Fr 16:15; Sa 11:15", "name": "USPS COLLECTION BOX - BLUE BOX", "note": "ON 12/24 AND 12/31, THIS BOX MAY BE COLLECTED AS EARLY AS 12 NOON.", "ref": "0441800000"}, "type": "Feature"}
{"geometry": {"coordinates": [-68.643195, 45.089616], "type": "Point"}, "id": "NKuugp14JaGWiE8AiBQvfFPm92o=", "properties": {"@spider": "usps_collection_boxes", "addr:city": "GREENBUSH", "addr:country": "US", "addr:full": "1076 MAIN RD", "addr:postcode": "04418", "addr:state": "ME", "brand": "USPS", "collection_times": "Mo-Fr 16:00; Sa 11:15", "name": "USPS COLLECTION BOX - PO LOBBY", "note": "ON 12/24 AND 12/31, THIS BOX MAY BE COLLECTED AS EARLY AS 12 NOON.", "ref": "0441800001"}, "type": "Feature"}
{"geometry": {"coordinates": [-68.643008968, 45.089925883], "type": "Point"}, "id": "sLO1xPGZFnafmkVIdE2MkENqAmI=", "properties": {"@spider": "usps_collection_boxes", "addr:city": "GREENBUSH", "addr:country": "US", "addr:full": "1076 MAIN RD", "addr:postcode": "04418", "addr:state": "ME", "brand": "USPS", "collection_times": "Mo-Fr 16:15; Sa 11:15", "name": "USPS COLLECTION BOX - PO LOBBY", "note": "ON 12/24 AND 12/31, THIS BOX MAY BE COLLECTED AS EARLY AS 12 NOON.", "ref": "0441800002"}, "type": "Feature"}
{"geometry": {"coordinates": [-69.0592192, 44.799672], "type": "Point"}, "id": "F7-ZLBG1NQS4POPp0F4E22oVjgQ=", "properties": {"@spider": "usps_collection_boxes", "addr:city": "CARMEL", "addr:country": "US", "addr:full": "950 MAIN RD", "addr:postcode": "04419", "addr:state": "ME", "brand": "USPS", "collection_times": "Mo-Fr 16:15; Sa 11:45", "name": "USPS COLLECTION BOX - BLUE BOX", "note": "ON 12/24 AND 12/31, THIS BOX MAY BE COLLECTED AS EARLY AS 12 NOON.", "ref": "0441900001"}, "type": "Feature"}
{"geometry": {"coordinates": [-69.058898, 44.799823], "type": "Point"}, "id": "Wn_OkYpv0KoTxN9FVErpP9eCv4A=", "properties": {"@spider": "usps_collection_boxes", "addr:city": "CARMEL", "addr:country": "US", "addr:full": "950 MAIN RD", "addr:postcode": "04419", "addr:state": "ME", "brand": "USPS", "collection_times": "Mo-Fr 16:15; Sa 12:00", "name": "USPS COLLECTION BOX - PO LOBBY", "note": "ON 12/24 AND 12/31, THIS BOX MAY BE COLLECTED AS EARLY AS 12 NOON.", "ref": "0441900003"}, "type": "Feature"}
{"geometry": {"coordinates": [-69.059491973, 44.799990214], "type": "Point"}, "id": "uonMVbE8BKOV08DrFb2lEO2EIUE=", "properties": {"@spider": "usps_collection_boxes", "addr:city": "CARMEL", "addr:country": "US", "addr:full": "950 MAIN RD", "addr:postcode": "04419", "addr:state": "ME", "brand": "USPS", "collection_times": "Mo-Fr 16:00; Sa 12:00", "name": "USPS COLLECTION BOX - PO LOBBY", "note": "ON 12/24 AND 12/31, THIS BOX MAY BE COLLECTED AS EARLY AS 12 NOON.", "ref": "0441900004"}, "type": "Feature"}
{"geometry": {"coordinates": [-69.036791, 45.085868], "type": "Point"}, "id": "yHUNKAAyH9NpEfn7J6kk-zLePXg=", "properties": {"@spider": "usps_collection_boxes", "addr:city": "CHARLESTON", "addr:country": "US", "addr:full": "33 CHARLESTON RD", "addr:postcode": "04422", "addr:state": "ME", "brand": "USPS", "collection_times": "Mo-Fr 15:45; Sa 11:00", "name": "USPS COLLECTION BOX - BLUE BOX", "note": "ON 12/24 AND 12/31, THIS BOX MAY BE COLLECTED AS EARLY AS 12 NOON.", "ref": "0442200001"}, "type": "Feature"}
{"geometry": {"coordinates": [-69.036902, 45.08588], "type": "Point"}, "id": "1cqR2UlsR17WLAb7KfLAwlZ2A2Y=", "properties": {"@spider": "usps_collection_boxes", "addr:city": "CHARLESTON", "addr:country": "US", "addr:full": "33 CHARLESTON RD", "addr:postcode": "04422", "addr:state": "ME", "brand": "USPS", "collection_times": "Mo-Fr 16:00; Sa 11:15", "name": "USPS COLLECTION BOX - PO LOBBY", "note": "ON 12/24 AND 12/31, THIS BOX MAY BE COLLECTED AS EARLY AS 12 NOON.", "ref": "0442200002"}, "type": "Feature"}
{"geometry": {"coordinates": [-69.037048786, 45.085825708], "type": "Point"}, "id": "EVUb-hDIuFyQsbUyVU_BYPBtfpM=", "properties": {"@spider": "usps_collection_boxes", "addr:city": "CHARLESTON", "addr:country": "US", "addr:full": "33 CHARLESTON RD", "addr:postcode": "04422", "addr:state": "ME", "brand": "USPS", "collection_times": "Mo-Fr 16:00; Sa 11:00", "name": "USPS COLLECTION BOX - PO LOBBY", "note": "ON 12/24 AND 12/31, THIS BOX MAY BE COLLECTED AS EARLY AS 12 NOON.", "ref": "0442200004"}, "type": "Feature"}
{"geometry": {"coordinates": [-69.231235, 45.185836], "type": "Point"}, "id": "yCazbHW5qYF83KAYL2Z-IPfNtFA=", "properties": {"@spider": "usps_collection_boxes", "addr:city": "DOVER FOXCROFT", "addr:country": "US", "addr:full": "41 NORTH ST", "addr:postcode": "04426", "addr:state": "ME", "brand": "USPS", "collection_times": "Mo-Fr 17:00; Sa 12:30", "name": "USPS COLLECTION BOX - BLUE BOX", "note": "ON 12/24 AND 12/31, THIS BOX MAY BE COLLECTED AS EARLY AS 12 NOON.", "ref": "0442600001"}, "type": "Feature"}
{"geometry": {"coordinates": [-69.2240452, 45.183353], "type": "Point"}, "id": "-3SCvqRC9U3AJjbr2BYH2FrMxbc=", "properties": {"@spider": "usps_collection_boxes", "addr:city": "DOVER FOXCROFT", "addr:country": "US", "addr:full": "160 E MAIN ST", "addr:postcode": "04426", "addr:state": "ME", "brand": "USPS", "collection_times": "Mo-Fr 15:00; Sa 14:30", "name": "USPS COLLECTION BOX - BLUE BOX", "note": "ON 12/24 AND 12/31, THIS BOX MAY BE COLLECTED AS EARLY AS 12 NOON.", "ref": "0442600008"}, "type": "Feature"}
{"geometry": {"coordinates": [-69.2572076, 45.182977], "type": "Point"}, "id": "lXb3EtfsbC1gEEaCrp-vaPHfk2I=", "properties": {"@spider": "usps_collection_boxes", "addr:city": "DOVER FOXCROFT", "addr:country": "US", "addr:full": "1073 W MAIN ST", "addr:postcode": "04426", "addr:state": "ME", "brand": "USPS", "collection_times": "Mo-Fr 14:30", "name": "USPS COLLECTION BOX - BLUE BOX", "note": "ON 12/24 AND 12/31, THIS BOX MAY BE COLLECTED AS EARLY AS 12 NOON.", "ref": "0442600012"}, "type": "Feature"}
{"geometry": {"coordinates": [-69.231254, 45.185765], "type": "Point"}, "id": "-p0Zi-uqG3rVru-LacT5tJ9hSuw=", "properties": {"@spider": "usps_collection_boxes", "addr:city": "DOVER FOXCROFT", "addr:country": "US", "addr:full": "41 NORTH ST", "addr:postcode": "04426", "addr:state": "ME", "brand": "USPS", "collection_times": "Mo-Fr 17:15; Sa 12:30", "name": "USPS COLLECTION BOX - PO LOBBY", "note": "ON 12/24 AND 12/31, THIS BOX MAY BE COLLECTED AS EARLY AS 12 NOON.", "ref": "0442600013"}, "type": "Feature"}
{"geometry": {"coordinates": [-69.231254, 45.185765], "type": "Point"}, "id": "HCkqbgLPEzq9Vn-PmPnu2ufllhU=", "properties": {"@spider": "usps_collection_boxes", "addr:city": "DOVER FOXCROFT", "addr:country": "US", "addr:full": "41 NORTH ST", "addr:postcode": "04426", "addr:state": "ME", "brand": "USPS", "collection_times": "Mo-Fr 17:00; Sa 12:30", "name": "USPS COLLECTION BOX - BLUE BOX", "note": "ON 12/24 AND 12/31, THIS BOX MAY BE COLLECTED AS EARLY AS 12 NOON.", "ref": "0442600014"}, "type": "Feature"}
{"geometry": {"coordinates": [-69.231227119, 45.185795916], "type": "Point"}, "id": "kUvGW5-pl7SaATcBrOsTlrtIgg8=", "properties": {"@spider": "usps_collection_boxes", "addr:city": "DOVER FOXCROFT", "addr:country": "US", "addr:full": "41 NORTH ST", "addr:postcode": "04426", "addr:state": "ME", "brand": "USPS", "collection_times": "Mo-Fr 17:00; Sa 12:00", "name": "USPS COLLECTION BOX - PO LOBBY", "note": "ON 12/24 AND 12/31, THIS BOX MAY BE COLLECTED AS EARLY AS 12 NOON.", "ref": "0442600015"}, "type": "Feature"}
{"geometry": {"coordinates": [-69.024468, 45.005889], "type": "Point"}, "id": "Qp5O9Cgx6rioHaYvyR_2Ft1vvJg=", "properties": {"@spider": "usps_collection_boxes", "addr:city": "CORINTH", "addr:country": "US", "addr:full": "274 MAIN ST", "addr:postcode": "04427", "addr:state": "ME", "brand": "USPS", "collection_times": "Mo-Fr 16:30; Sa 11:30", "name": "USPS COLLECTION BOX - BLUE BOX", "note": "ON 12/24 AND 12/31, THIS BOX MAY BE COLLECTED AS EARLY AS 12 NOON.", "ref": "0442700001"}, "type": "Feature"}
{"geometry": {"coordinates": [-69.024468, 45.005889], "type": "Point"}, "id": "OIpUSf00uofNAsvgl2bUMEyAw5I=", "properties": {"@spider": "usps_collection_boxes", "addr:city": "CORINTH", "addr:country": "US", "addr:full": "274 MAIN ST", "addr:postcode": "04427", "addr:state": "ME", "brand": "USPS", "collection_times": "Mo-Fr 17:00; Sa 11:30", "name": "USPS COLLECTION BOX - PO LOBBY", "note": "ON 12/24 AND 12/31, THIS BOX MAY BE COLLECTED AS EARLY AS 12 NOON.", "ref": "0442700003"}, "type": "Feature"}
{"geometry": {"coordinates": [-69.02458077, 45.006202854], "type": "Point"}, "id": "wNbgT5JeQatj5TiZF5S6qfcCx98=", "properties": {"@spider": "usps_collection_boxes", "addr:city": "CORINTH", "addr:country": "US", "addr:full": "274 MAIN ST", "addr:postcode": "04427", "addr:state": "ME", "brand": "USPS", "collection_times": "Mo-Fr 17:00; Sa 11:30", "name": "USPS COLLECTION BOX - PO LOBBY", "note": "ON 12/24 AND 12/31, THIS BOX MAY BE COLLECTED AS EARLY AS 12 NOON.", "ref": "0442700005"}, "type": "Feature"}
{"geometry": {"coordinates": [-68.578012, 45.626223], "type": "Point"}, "id": "7GekqOXfxv6k8x0sTDGFIRplBUQ=", "properties": {"@spider": "usps_collection_boxes", "addr:city": "E MILLINOCKET", "addr:country": "US", "addr:full": "95 MAIN ST", "addr:postcode": "04430", "addr:state": "ME", "brand": "USPS", "collection_times": "Mo-Fr 16:15; Sa 14:30", "name": "USPS COLLECTION BOX - BLUE BOX", "note": "ON 12/24 AND 12/31, THIS BOX MAY BE COLLECTED AS EARLY AS 12 NOON.", "ref": "0443000001"}, "type": "Feature"}
{"geometry": {"coordinates": [-68.578116, 45.626224], "type": "Point"}, "id": "mJzaFexpME1klO01i-rIzxMUajA=", "properties": {"@spider": "usps_collection_boxes", "addr:city": "E MILLINOCKET", "addr:country": "US", "addr:full": "95 MAIN ST", "addr:postcode": "04430", "addr:state": "ME", "brand": "USPS", "collection_times": "Mo-Fr 16:15; Sa 14:30", "name": "USPS COLLECTION BOX - PO LOBBY", "note": "ON 12/24 AND 12/31, THIS BOX MAY BE COLLECTED AS EARLY AS 12 NOON.", "ref": "0443000003"}, "type": "Feature"}
{"geometry": {"coordinates": [-68.578103552, 45.626255968], "type": "Point"}, "id": "K37EHK_-WW8UkHtQaPmdbLs35Gc=", "properties": {"@spider": "usps_collection_boxes", "addr:city": "E MILLINOCKET", "addr:country": "US", "addr:full": "95 MAIN ST", "addr:postcode": "04430", "addr:state": "ME", "brand": "USPS", "collection_times": "Mo-Fr 16:15; Sa 12:00", "name": "USPS COLLECTION BOX - PO LOBBY", "note": "ON 12/24 AND 12/31, THIS BOX MAY BE COLLECTED AS EARLY AS 12 NOON.", "ref": "0443000004"}, "type": "Feature"}
{"geometry": {"coordinates": [-69.1175950268, 44.8154419962], "type": "Point"}, "id": "Qx-TdGhl1wX0KnrDlVL7msoUYIo=", "properties": {"@spider": "usps_collection_boxes", "addr:city": "ETNA", "addr:country": "US", "addr:full": "17 SHADOW LANE", "addr:postcode": "04434", "addr:state": "ME", "brand": "USPS", "collection_times": "Mo-Fr 16:15; Sa 11:00", "name": "USPS COLLECTION BOX - BLUE BOX", "note": "ON 12/24 AND 12/31, THIS BOX MAY BE COLLECTED AS EARLY AS 12 NOON.", "ref": "0443400001"}, "type": "Feature"}
{"geometry": {"coordinates": [-69.140766, 44.96855], "type": "Point"}, "id": "YjXY8uabaaiNduJDHLFQui5LlFo=", "properties": {"@spider": "usps_collection_boxes", "addr:city": "EXETER", "addr:country": "US", "addr:full": "1220 STETSON RD", "addr:postcode": "04435", "addr:state": "ME", "brand": "USPS", "collection_times": "Mo-Fr 15:45; Sa 10:45", "name": "USPS COLLECTION BOX - BLUE BOX", "note": "ON 12/24 AND 12/31, THIS BOX MAY BE COLLECTED AS EARLY AS 12 NOON.", "ref": "0443500001"}, "type": "Feature"}
{"geometry": {"coordinates": [-69.140717, 44.968514], "type": "Point"}, "id": "n1CBgIacXekkGDb3WxJKp122fqI=", "properties": {"@spider": "usps_collection_boxes", "addr:city": "EXETER", "addr:country": "US", "addr:full": "1220 STETSON RD", "addr:postcode": "04435", "addr:state": "ME", "brand": "USPS", "collection_times": "Mo-Fr 16:00; Sa 11:00", "name": "USPS COLLECTION BOX - PO LOBBY", "note": "ON 12/24 AND 12/31, THIS BOX MAY BE COLLECTED AS EARLY AS 12 NOON.", "ref": "0443500002"}, "type": "Feature"}
{"geometry": {"coordinates": [-69.140796327, 44.968664284], "type": "Point"}, "id": "W7GCYk5wcQHfJxO-HrqAE7rHoCw=", "properties": {"@spider": "usps_collection_boxes", "addr:city": "EXETER", "addr:country": "US", "addr:full": "1220 STETSON RD", "addr:postcode": "04435", "addr:state": "ME", "brand": "USPS", "collection_times": "Mo-Fr 16:00; Sa 11:00", "name": "USPS COLLECTION BOX - PO LOBBY", "note": "ON 12/24 AND 12/31, THIS BOX MAY BE COLLECTED AS EARLY AS 12 NOON.", "ref": "0443500003"}, "type": "Feature"}
{"geometry": {"coordinates": [-69.590431, 45.460637], "type": "Point"}, "id": "F5bkOShUJcSn7RGp1U8FG6gpkHA=", "properties": {"@spider": "usps_collection_boxes", "addr:city": "GREENVILLE", "addr:country": "US", "addr:full": "25 LILY BAY RD", "addr:postcode": "04441", "addr:state": "ME", "brand": "USPS", "collection_times": "Mo-Fr 15:45; Sa 11:45", "name": "USPS COLLECTION BOX - BLUE BOX", "note": "ON 12/24 AND 12/31, THIS BOX MAY BE COLLECTED AS EARLY AS 12 NOON.", "ref": "0444100001"}, "type": "Feature"}
{"geometry": {"coordinates": [-69.590481, 45.460617], "type": "Point"}, "id": "2pgOOfNV8S2ZlfjfuAFq8fezd9w=", "properties": {"@spider": "usps_collection_boxes", "addr:city": "GREENVILLE", "addr:country": "US", "addr:full": "25 LILY BAY RD", "addr:postcode": "04441", "addr:state": "ME", "brand": "USPS", "collection_times": "Mo-Fr 15:45; Sa 11:45", "name": "USPS COLLECTION BOX - PO LOBBY", "note": "ON 12/24 AND 12/31, THIS BOX MAY BE COLLECTED AS EARLY AS 12 NOON.", "ref": "0444100003"}, "type": "Feature"}
{"geometry": {"coordinates": [-69.590447828, 45.460600785], "type": "Point"}, "id": "zmmR0hCr_sE0J6JRzNozk0JnoG4=", "properties": {"@spider": "usps_collection_boxes", "addr:city": "GREENVILLE", "addr:country": "US", "addr:full": "25 LILY BAY RD", "addr:postcode": "04441", "addr:state": "ME", "brand": "USPS", "collection_times": "Mo-Fr 15:45; Sa 11:30", "name": "USPS COLLECTION BOX - PO LOBBY", "note": "ON 12/24 AND 12/31, THIS BOX MAY BE COLLECTED AS EARLY AS 12 NOON.", "ref": "0444100004"}, "type": "Feature"}
{"geometry": {"coordinates": [-69.613383, 45.4603], "type": "Point"}, "id": "lB8c3rGA9GsCZ69cSYb8UN-14rk=", "properties": {"@spider": "usps_collection_boxes", "addr:city": "GREENVLLE JCT", "addr:country": "US", "addr:full": "383 PRITHAM AVE", "addr:postcode": "04442", "addr:state": "ME", "brand": "USPS", "collection_times": "Mo-Fr 15:30; Sa 11:45", "name": "USPS COLLECTION BOX - BLUE BOX", "note": "ON 12/24 AND 12/31, THIS BOX MAY BE COLLECTED AS EARLY AS 12 NOON.", "ref": "0444200001"}, "type": "Feature"}
{"geometry": {"coordinates": [-69.613443, 45.46028], "type": "Point"}, "id": "kPo0GN-o6sBaqLjJ1GWyDY59z5g=", "properties": {"@spider": "usps_collection_boxes", "addr:city": "GREENVLLE JCT", "addr:country": "US", "addr:full": "383 PRITHAM AVE", "addr:postcode": "04442", "addr:state": "ME", "brand": "USPS", "collection_times": "Mo-Fr 15:30; Sa 11:45", "name": "USPS COLLECTION BOX - PO LOBBY", "note": "ON 12/24 AND 12/31, THIS BOX MAY BE COLLECTED AS EARLY AS 12 NOON.", "ref": "0444200002"}, "type": "Feature"}
{"geometry": {"coordinates": [-69.613450848, 45.460306362], "type": "Point"}, "id": "4IAG2vps7EGSu2FXJ47z4V0Yk28=", "properties": {"@spider": "usps_collection_boxes", "addr:city": "GREENVLLE JCT", "addr:country": "US", "addr:full": "383 PRITHAM AVE", "addr:postcode": "04442", "addr:state": "ME", "brand": "USPS", "collection_times": "Mo-Fr 15:30; Sa 11:30", "name": "USPS COLLECTION BOX - PO LOBBY", "note": "ON 12/24 AND 12/31, THIS BOX MAY BE COLLECTED AS EARLY AS 12 NOON.", "ref": "0444200003"}, "type": "Feature"}
{"geometry": {"coordinates": [-69.384343768, 45.1665021252], "type": "Point"}, "id": "pWTgb_DpN9GKE7RogWXF6p50ZMo=", "properties": {"@spider": "usps_collection_boxes", "addr:city": "GUILFORD", "addr:country": "US", "addr:full": "10 HUDSON AVE", "addr:postcode": "04443", "addr:state": "ME", "brand": "USPS", "collection_times": "Mo-Fr 16:15; Sa 11:15", "name": "USPS COLLECTION BOX - BLUE BOX", "note": "ON 12/24 AND 12/31, THIS BOX MAY BE COLLECTED AS EARLY AS 12 NOON.", "ref": "0444300001"}, "type": "Feature"}
{"geometry": {"coordinates": [-69.384561, 45.166548], "type": "Point"}, "id": "EhgfD_bmlv3pLmYs2gt8pnpJW0M=", "properties": {"@spider": "usps_collection_boxes", "addr:city": "GUILFORD", "addr:country": "US", "addr:full": "10 HUDSON AVE", "addr:postcode": "04443", "addr:state": "ME", "brand": "USPS", "collection_times": "Mo-Fr 16:15; Sa 11:15", "name": "USPS COLLECTION BOX - PO LOBBY", "note": "ON 12/24 AND 12/31, THIS BOX MAY BE COLLECTED AS EARLY AS 12 NOON.", "ref": "0444300002"}, "type": "Feature"}
{"geometry": {"coordinates": [-69.384561, 45.166548], "type": "Point"}, "id": "_WbrVEpYRfUncTKGXmeur2An0Kg=", "properties": {"@spider": "usps_collection_boxes", "addr:city": "GUILFORD", "addr:country": "US", "addr:full": "10 HUDSON AVE", "addr:postcode": "04443", "addr:state": "ME", "brand": "USPS", "collection_times": "Mo-Fr 16:15; Sa 11:15", "name": "USPS COLLECTION BOX - PO LOBBY", "note": "ON 12/24 AND 12/31, THIS BOX MAY BE COLLECTED AS EARLY AS 12 NOON.", "ref": "0444300003"}, "type": "Feature"}
{"geometry": {"coordinates": [-69.384343768, 45.166502125], "type": "Point"}, "id": "J2Bs13t1VGmhb5SQfoPKY8o1HQY=", "properties": {"@spider": "usps_collection_boxes", "addr:city": "GUILFORD", "addr:country": "US", "addr:full": "10 HUDSON AVE", "addr:postcode": "04443", "addr:state": "ME", "brand": "USPS", "collection_times": "Mo-Fr 16:15; Sa 11:15", "name": "USPS COLLECTION BOX - PO LOBBY", "note": "ON 12/24 AND 12/31, THIS BOX MAY BE COLLECTED AS EARLY AS 12 NOON.", "ref": "0444300004"}, "type": "Feature"}
{"geometry": {"coordinates": [-68.656782, 45.242068], "type": "Point"}, "id": "1-nd7XbR8y-x-33JYOSw6itp3Lw=", "properties": {"@spider": "usps_collection_boxes", "addr:city": "HOWLAND", "addr:country": "US", "addr:full": "18 MAIN ST", "addr:postcode": "04448", "addr:state": "ME", "brand": "USPS", "collection_times": "Mo-Fr 16:00; Sa 11:30", "name": "USPS COLLECTION BOX - BLUE BOX", "note": "ON 12/24 AND 12/31, THIS BOX MAY BE COLLECTED AS EARLY AS 12 NOON.", "ref": "0444800001"}, "type": "Feature"}
{"geometry": {"coordinates": [-68.656782, 45.242068], "type": "Point"}, "id": "xyGCK-AMGRvcJ9OU7zKZvd7KJSg=", "properties": {"@spider": "usps_collection_boxes", "addr:city": "HOWLAND", "addr:country": "US", "addr:full": "18 MAIN ST", "addr:postcode": "04448", "addr:state": "ME", "brand": "USPS", "collection_times": "Mo-Fr 16:15; Sa 11:30", "name": "USPS COLLECTION BOX - PO LOBBY", "note": "ON 12/24 AND 12/31, THIS BOX MAY BE COLLECTED AS EARLY AS 12 NOON.", "ref": "0444800002"}, "type": "Feature"}
{"geometry": {"coordinates": [-68.656838794, 45.242358957], "type": "Point"}, "id": "K5IPKc7ZZntVLDnRk8Z6Lvxoxy4=", "properties": {"@spider": "usps_collection_boxes", "addr:city": "HOWLAND", "addr:country": "US", "addr:full": "18 MAIN ST", "addr:postcode": "04448", "addr:state": "ME", "brand": "USPS", "collection_times": "Mo-Fr 16:15; Sa 11:30", "name": "USPS COLLECTION BOX - PO LOBBY", "note": "ON 12/24 AND 12/31, THIS BOX MAY BE COLLECTED AS EARLY AS 12 NOON.", "ref": "0444800003"}, "type": "Feature"}
{"geometry": {"coordinates": [-68.8834099, 45.000834], "type": "Point"}, "id": "K3urk1W0paMgza8jBjjBTukbAwU=", "properties": {"@spider": "usps_collection_boxes", "addr:city": "HUDSON", "addr:country": "US", "addr:full": "29 OLD TOWN RD", "addr:postcode": "04449", "addr:state": "ME", "brand": "USPS", "collection_times": "Mo-Fr 16:00; Sa 10:30", "name": "USPS COLLECTION BOX - BLUE BOX", "note": "ON 12/24 AND 12/31, THIS BOX MAY BE COLLECTED AS EARLY AS 12 NOON.", "ref": "0444900001"}, "type": "Feature"}
{"geometry": {"coordinates": [-68.883801, 45.000692], "type": "Point"}, "id": "Fe7g89gbnxb04MTI3lW49PNiRns=", "properties": {"@spider": "usps_collection_boxes", "addr:city": "HUDSON", "addr:country": "US", "addr:full": "29 OLD TOWN RD", "addr:postcode": "04449", "addr:state": "ME", "brand": "USPS", "collection_times": "Mo-Fr 16:00; Sa 10:30", "name": "USPS COLLECTION BOX - PO LOBBY", "note": "ON 12/24 AND 12/31, THIS BOX MAY BE COLLECTED AS EARLY AS 12 NOON.", "ref": "0444900002"}, "type": "Feature"}
{"geometry": {"coordinates": [-68.883703089, 45.000730823], "type": "Point"}, "id": "Uyx1xA2nCOsXOuB_3ZMKYrjGALc=", "properties": {"@spider": "usps_collection_boxes", "addr:city": "HUDSON", "addr:country": "US", "addr:full": "29 OLD TOWN RD", "addr:postcode": "04449", "addr:state": "ME", "brand": "USPS", "collection_times": "Mo-Fr 16:00; Sa 10:30", "name": "USPS COLLECTION BOX - PO LOBBY", "note": "ON 12/24 AND 12/31, THIS BOX MAY BE COLLECTED AS EARLY AS 12 NOON.", "ref": "0444900003"}, "type": "Feature"}
{"geometry": {"coordinates": [-68.93223, 44.922342], "type": "Point"}, "id": "xsyumMdtkV13c3AgL9GOOAhORNs=", "properties": {"@spider": "usps_collection_boxes", "addr:city": "KENDUSKEAG", "addr:country": "US", "addr:full": "4008 BROADWAY", "addr:postcode": "04450", "addr:state": "ME", "brand": "USPS", "collection_times": "Mo-Fr 14:45; Sa 10:45", "name": "USPS COLLECTION BOX - BLUE BOX", "note": "ON 12/24 AND 12/31, THIS BOX MAY BE COLLECTED AS EARLY AS 12 NOON.", "ref": "0445000001"}, "type": "Feature"}
{"geometry": {"coordinates": [-68.932175, 44.922306], "type": "Point"}, "id": "haLbG3aZ_1zx0xAbstGx7lzvdjg=", "properties": {"@spider": "usps_collection_boxes", "addr:city": "KENDUSKEAG", "addr:country": "US", "addr:full": "4008 BROADWAY", "addr:postcode": "04450", "addr:state": "ME", "brand": "USPS", "collection_times": "Mo-Fr 14:45; Sa 10:45", "name": "USPS COLLECTION BOX - PO LOBBY", "note": "ON 12/24 AND 12/31, THIS BOX MAY BE COLLECTED AS EARLY AS 12 NOON.", "ref": "0445000002"}, "type": "Feature"}
{"geometry": {"coordinates": [-68.93226308, 44.922408674], "type": "Point"}, "id": "OeapQmvYkvqSOMdKl1ehuE0W2_c=", "properties": {"@spider": "usps_collection_boxes", "addr:city": "KENDUSKEAG", "addr:country": "US", "addr:full": "4008 BROADWAY", "addr:postcode": "04450", "addr:state": "ME", "brand": "USPS", "collection_times": "Mo-Fr 14:45; Sa 11:00", "name": "USPS COLLECTION BOX - PO LOBBY", "note": "ON 12/24 AND 12/31, THIS BOX MAY BE COLLECTED AS EARLY AS 12 NOON.", "ref": "0445000003"}, "type": "Feature"}
{"geometry": {"coordinates": [-68.843654, 45.165443], "type": "Point"}, "id": "CgoyzaekbSDdX9vbQtyJ94Fo0P8=", "properties": {"@spider": "usps_collection_boxes", "addr:city": "LA GRANGE", "addr:country": "US", "addr:full": "5763 BENNOCH RD", "addr:postcode": "04453", "addr:state": "ME", "brand": "USPS", "collection_times": "Mo-Fr 16:00; Sa 11:30", "name": "USPS COLLECTION BOX - BLUE BOX", "note": "ON 12/24 AND 12/31, THIS BOX MAY BE COLLECTED AS EARLY AS 12 NOON.", "ref": "0445300001"}, "type": "Feature"}
{"geometry": {"coordinates": [-68.843689, 45.165431], "type": "Point"}, "id": "TCtWjHuXz4QWYlTuE2BjIrv7fLk=", "properties": {"@spider": "usps_collection_boxes", "addr:city": "LA GRANGE", "addr:country": "US", "addr:full": "5763 BENNOCH RD", "addr:postcode": "04453", "addr:state": "ME", "brand": "USPS", "collection_times": "Mo-Fr 16:15; Sa 11:30", "name": "USPS COLLECTION BOX - PO LOBBY", "note": "ON 12/24 AND 12/31, THIS BOX MAY BE COLLECTED AS EARLY AS 12 NOON.", "ref": "0445300002"}, "type": "Feature"}
{"geometry": {"coordinates": [-68.844309575, 45.166157727], "type": "Point"}, "id": "Danfh710WMvnbypf0ZgDoOGJg34=", "properties": {"@spider": "usps_collection_boxes", "addr:city": "LA GRANGE", "addr:country": "US", "addr:full": "5763 BENNOCH RD", "addr:postcode": "04453", "addr:state": "ME", "brand": "USPS", "collection_times": "Mo-Fr 16:30; Sa 11:30", "name": "USPS COLLECTION BOX - PO LOBBY", "note": "ON 12/24 AND 12/31, THIS BOX MAY BE COLLECTED AS EARLY AS 12 NOON.", "ref": "0445300004"}, "type": "Feature"}
{"geometry": {"coordinates": [-68.929655, 44.866807], "type": "Point"}, "id": "ebY7cNk6MylBkxkMM1Gqh2B6v34=", "properties": {"@spider": "usps_collection_boxes", "addr:city": "LEVANT", "addr:country": "US", "addr:full": "3454 UNION ST", "addr:postcode": "04456", "addr:state": "ME", "brand": "USPS", "collection_times": "Mo-Fr 14:45; Sa 10:30", "name": "USPS COLLECTION BOX - BLUE BOX", "note": "ON 12/24 AND 12/31, THIS BOX MAY BE COLLECTED AS EARLY AS 12 NOON.", "ref": "0445600001"}, "type": "Feature"}
{"geometry": {"coordinates": [-68.92854, 44.86753], "type": "Point"}, "id": "nEgUoVyhXCxWI_1THwcLrQYFT6g=", "properties": {"@spider": "usps_collection_boxes", "addr:city": "LEVANT", "addr:country": "US", "addr:full": "3454 UNION ST", "addr:postcode": "04456", "addr:state": "ME", "brand": "USPS", "collection_times": "Mo-Fr 14:45; Sa 10:30", "name": "USPS COLLECTION BOX - PO LOBBY", "note": "ON 12/24 AND 12/31, THIS BOX MAY BE COLLECTED AS EARLY AS 12 NOON.", "ref": "0445600003"}, "type": "Feature"}
{"geometry": {"coordinates": [-68.928492122, 44.867582309], "type": "Point"}, "id": "p0anE8KEgdQguNeeCS6UH9CkuCo=", "properties": {"@spider": "usps_collection_boxes", "addr:city": "LEVANT", "addr:country": "US", "addr:full": "3454 UNION ST STE 1", "addr:postcode": "04456", "addr:state": "ME", "brand": "USPS", "collection_times": "Mo-Fr 14:45; Sa 10:30", "name": "USPS COLLECTION BOX - PO LOBBY", "note": "ON 12/24 AND 12/31, THIS BOX MAY BE COLLECTED AS EARLY AS 12 NOON.", "ref": "0445600004"}, "type": "Feature"}
{"geometry": {"coordinates": [-68.5046779, 45.366272], "type": "Point"}, "id": "U4uamG6bQ07fwUSPT8m5U5ZlDTg=", "properties": {"@spider": "usps_collection_boxes", "addr:city": "LINCOLN", "addr:country": "US", "addr:full": "50 FLEMING ST", "addr:postcode": "04457", "addr:state": "ME", "brand": "USPS", "collection_times": "Mo-Fr 16:15; Sa 15:30", "name": "USPS COLLECTION BOX - BLUE BOX", "note": "ON 12/24 AND 12/31, THIS BOX MAY BE COLLECTED AS EARLY AS 12 NOON.", "ref": "0445700001"}, "type": "Feature"}
{"geometry": {"coordinates": [-68.504083256, 45.363214939], "type": "Point"}, "id": "-dYIJS1s9hBjt8q4NJNzSeqvcCE=", "properties": {"@spider": "usps_collection_boxes", "addr:city": "LINCOLN", "addr:country": "US", "addr:full": "29 MAIN ST", "addr:postcode": "04457", "addr:state": "ME", "brand": "USPS", "collection_times": "Mo-Sa 08:00", "name": "USPS COLLECTION BOX - BLUE BOX", "ref": "0445700004"}, "type": "Feature"}
{"geometry": {"coordinates": [-68.5167304, 45.361034], "type": "Point"}, "id": "REFUaYvvDWmLnPvwzKsXrW2fLCU=", "properties": {"@spider": "usps_collection_boxes", "addr:city": "LINCOLN", "addr:country": "US", "addr:full": "22 GODING AVE", "addr:postcode": "04457", "addr:state": "ME", "brand": "USPS", "collection_times": "Mo-Sa 08:00", "name": "USPS COLLECTION BOX - BLUE BOX", "ref": "0445700005"}, "type": "Feature"}
{"geometry": {"coordinates": [-68.504567, 45.366473], "type": "Point"}, "id": "sPvMceKhrTVTloj2wV0sg3bNn5U=", "properties": {"@spider": "usps_collection_boxes", "addr:city": "LINCOLN", "addr:country": "US", "addr:full": "50 FLEMING ST", "addr:postcode": "04457", "addr:state": "ME", "brand": "USPS", "collection_times": "Mo-Fr 16:15; Sa 12:00", "name": "USPS COLLECTION BOX - PO LOBBY", "note": "ON 12/24 AND 12/31, THIS BOX MAY BE COLLECTED AS EARLY AS 12 NOON.", "ref": "0445700009"}, "type": "Feature"}
{"geometry": {"coordinates": [-68.504567, 45.366473], "type": "Point"}, "id": "rCM9pzuUQ7GU95SdCDSzoymcCT8=", "properties": {"@spider": "usps_collection_boxes", "addr:city": "LINCOLN", "addr:country": "US", "addr:full": "50 FLEMING ST", "addr:postcode": "04457", "addr:state": "ME", "brand": "USPS", "collection_times": "Mo-Fr 16:15; Sa 12:00", "name": "USPS COLLECTION BOX - PO LOBBY", "note": "ON 12/24 AND 12/31, THIS BOX MAY BE COLLECTED AS EARLY AS 12 NOON.", "ref": "0445700010"}, "type": "Feature"}
{"geometry": {"coordinates": [-68.504730029, 45.365892737], "type": "Point"}, "id": "VxNREkEiyiIngtiQMn1mzMNE4rc=", "properties": {"@spider": "usps_collection_boxes", "addr:city": "LINCOLN", "addr:country": "US", "addr:full": "50 FLEMING ST", "addr:postcode": "04457", "addr:state": "ME", "brand": "USPS", "collection_times": "Mo-Fr 17:00; Sa 12:00", "name": "USPS COLLECTION BOX - PO LOBBY", "note": "ON 12/24 AND 12/31, THIS BOX MAY BE COLLECTED AS EARLY AS 12 NOON.", "ref": "0445700012"}, "type": "Feature"}
{"geometry": {"coordinates": [-68.538816, 45.613239], "type": "Point"}, "id": "z-IMZb_9JIZqt52OizQkzVt5b5s=", "properties": {"@spider": "usps_collection_boxes", "addr:city": "MEDWAY", "addr:country": "US", "addr:full": "2070 MEDWAY RD", "addr:postcode": "04460", "addr:state": "ME", "brand": "USPS", "collection_times": "Mo-Fr 16:30; Sa 11:30", "name": "USPS COLLECTION BOX - BLUE BOX", "note": "ON 12/24 AND 12/31, THIS BOX MAY BE COLLECTED AS EARLY AS 12 NOON.", "ref": "0446000001"}, "type": "Feature"}
{"geometry": {"coordinates": [-68.538688, 45.613269], "type": "Point"}, "id": "oYB7iVuZjyl1ivgje82Nw4hphhE=", "properties": {"@spider": "usps_collection_boxes", "addr:city": "MEDWAY", "addr:country": "US", "addr:full": "2070 MEDWAY RD", "addr:postcode": "04460", "addr:state": "ME", "brand": "USPS", "collection_times": "Mo-Fr 16:30; Sa 11:30", "name": "USPS COLLECTION BOX - PO LOBBY", "note": "ON 12/24 AND 12/31, THIS BOX MAY BE COLLECTED AS EARLY AS 12 NOON.", "ref": "0446000002"}, "type": "Feature"}
{"geometry": {"coordinates": [-68.538688, 45.613269], "type": "Point"}, "id": "BVcaJxXbcZ4D0NL3n6C8c0I_3eA=", "properties": {"@spider": "usps_collection_boxes", "addr:city": "MEDWAY", "addr:country": "US", "addr:full": "2070 MEDWAY RD", "addr:postcode": "04460", "addr:state": "ME", "brand": "USPS", "collection_times": "Mo-Fr 16:30; Sa 11:30", "name": "USPS COLLECTION BOX - PO LOBBY", "note": "ON 12/24 AND 12/31, THIS BOX MAY BE COLLECTED AS EARLY AS 12 NOON.", "ref": "0446000003"}, "type": "Feature"}
{"geometry": {"coordinates": [-68.538774416, 45.613176634], "type": "Point"}, "id": "tq2R1Q_SaPcbk2srsFwYdnWw1ps=", "properties": {"@spider": "usps_collection_boxes", "addr:city": "MEDWAY", "addr:country": "US", "addr:full": "2070 MEDWAY RD", "addr:postcode": "04460", "addr:state": "ME", "brand": "USPS", "collection_times": "Mo-Fr 16:30; Sa 11:30", "name": "USPS COLLECTION BOX - PO LOBBY", "note": "ON 12/24 AND 12/31, THIS BOX MAY BE COLLECTED AS EARLY AS 12 NOON.", "ref": "0446000006"}, "type": "Feature"}
{"geometry": {"coordinates": [-68.643657, 44.944632], "type": "Point"}, "id": "XUOOm5ZS7ClnvnuptfkDuNmmwwk=", "properties": {"@spider": "usps_collection_boxes", "addr:city": "MILFORD", "addr:country": "US", "addr:full": "104 MAIN RD", "addr:postcode": "04461", "addr:state": "ME", "brand": "USPS", "collection_times": "Mo-Fr 16:15; Sa 11:45", "name": "USPS COLLECTION BOX - BLUE BOX", "note": "ON 12/24 AND 12/31, THIS BOX MAY BE COLLECTED AS EARLY AS 12 NOON.", "ref": "0446100002"}, "type": "Feature"}
{"geometry": {"coordinates": [-68.643599, 44.944599], "type": "Point"}, "id": "1NS4iJILHdVOKzEQPYcBU_OF6Ww=", "properties": {"@spider": "usps_collection_boxes", "addr:city": "MILFORD", "addr:country": "US", "addr:full": "104 MAIN RD", "addr:postcode": "04461", "addr:state": "ME", "brand": "USPS", "collection_times": "Mo-Fr 16:15; Sa 11:45", "name": "USPS COLLECTION BOX - PO LOBBY", "note": "ON 12/24 AND 12/31, THIS BOX MAY BE COLLECTED AS EARLY AS 12 NOON.", "ref": "0446100003"}, "type": "Feature"}
{"geometry": {"coordinates": [-68.643599, 44.944599], "type": "Point"}, "id": "BOpFNKHQq-Y2Dejnuzwo2w05luo=", "properties": {"@spider": "usps_collection_boxes", "addr:city": "MILFORD", "addr:country": "US", "addr:full": "104 MAIN RD", "addr:postcode": "04461", "addr:state": "ME", "brand": "USPS", "collection_times": "Mo-Fr 16:15; Sa 11:45", "name": "USPS COLLECTION BOX - PO LOBBY", "note": "ON 12/24 AND 12/31, THIS BOX MAY BE COLLECTED AS EARLY AS 12 NOON.", "ref": "0446100004"}, "type": "Feature"}
{"geometry": {"coordinates": [-68.644051495, 44.945367444], "type": "Point"}, "id": "lNs4nMFmUWaDnjzbQhVcEGk8I6I=", "properties": {"@spider": "usps_collection_boxes", "addr:city": "MILFORD", "addr:country": "US", "addr:full": "104 MAIN RD", "addr:postcode": "04461", "addr:state": "ME", "brand": "USPS", "collection_times": "Mo-Fr 16:00; Sa 11:30", "name": "USPS COLLECTION BOX - PO LOBBY", "note": "ON 12/24 AND 12/31, THIS BOX MAY BE COLLECTED AS EARLY AS 12 NOON.", "ref": "0446100006"}, "type": "Feature"}
{"geometry": {"coordinates": [-68.6797358, 45.656925], "type": "Point"}, "id": "k4T5_4QasYVeF2G0V8eRVx05z6k=", "properties": {"@spider": "usps_collection_boxes", "addr:city": "MILLINOCKET", "addr:country": "US", "addr:full": "1000 CENTRAL ST", "addr:postcode": "04462", "addr:state": "ME", "brand": "USPS", "collection_times": "Mo-Sa 14:00", "name": "USPS COLLECTION BOX - BLUE BOX", "note": "ON 12/24 AND 12/31, THIS BOX MAY BE COLLECTED AS EARLY AS 12 NOON.", "ref": "0446200007"}, "type": "Feature"}
{"geometry": {"coordinates": [-68.6879811009, 45.6573374155], "type": "Point"}, "id": "iKrfXz8tLCSm2tLtJG4KKSnR-zI=", "properties": {"@spider": "usps_collection_boxes", "addr:city": "MILLINOCKET", "addr:country": "US", "addr:full": "841 CENTRAL ST", "addr:postcode": "04462", "addr:state": "ME", "brand": "USPS", "collection_times": "Mo-Sa 14:00", "name": "USPS COLLECTION BOX - BLUE BOX", "note": "ON 12/24 AND 12/31, THIS BOX MAY BE COLLECTED AS EARLY AS 12 NOON.", "ref": "0446200008"}, "type": "Feature"}
{"geometry": {"coordinates": [-68.709013, 45.654878], "type": "Point"}, "id": "okCaDxj6zq855a4YiF967inF8uk=", "properties": {"@spider": "usps_collection_boxes", "addr:city": "MILLINOCKET", "addr:country": "US", "addr:full": "113 PENOBSCOT AVE", "addr:postcode": "04462", "addr:state": "ME", "brand": "USPS", "collection_times": "Mo-Fr 16:30; Sa 15:15", "name": "USPS COLLECTION BOX - BLUE BOX", "note": "ON 12/24 AND 12/31, THIS BOX MAY BE COLLECTED AS EARLY AS 12 NOON.", "ref": "0446200013"}, "type": "Feature"}
{"geometry": {"coordinates": [-68.6892476, 45.656516], "type": "Point"}, "id": "d_0_3GzyrtbF44qkEjYix7vf1pw=", "properties": {"@spider": "usps_collection_boxes", "addr:city": "MILLINOCKET", "addr:country": "US", "addr:full": "820 CENTRAL ST", "addr:postcode": "04462", "addr:state": "ME", "brand": "USPS", "collection_times": "Mo-Sa 14:00", "name": "USPS COLLECTION BOX - BLUE BOX", "note": "ON 12/24 AND 12/31, THIS BOX MAY BE COLLECTED AS EARLY AS 12 NOON.", "ref": "0446200014"}, "type": "Feature"}
{"geometry": {"coordinates": [-68.709051, 45.654859], "type": "Point"}, "id": "L2bPsG60pO9i_r_QPzvJ9hjrMc0=", "properties": {"@spider": "usps_collection_boxes", "addr:city": "MILLINOCKET", "addr:country": "US", "addr:full": "113 PENOBSCOT AVE", "addr:postcode": "04462", "addr:state": "ME", "brand": "USPS", "collection_times": "Mo-Fr 16:30; Sa 15:15", "name": "USPS COLLECTION BOX - PO LOBBY", "note": "ON 12/24 AND 12/31, THIS BOX MAY BE COLLECTED AS EARLY AS 12 NOON.", "ref": "0446200016"}, "type": "Feature"}
{"geometry": {"coordinates": [-68.709033798, 45.655264676], "type": "Point"}, "id": "acnfm5xHpBrZuG1utZZdPl1LTBM=", "properties": {"@spider": "usps_collection_boxes", "addr:city": "MILLINOCKET", "addr:country": "US", "addr:full": "113 PENOBSCOT AVE", "addr:postcode": "04462", "addr:state": "ME", "brand": "USPS", "collection_times": "Mo-Fr 16:00; Sa 11:30", "name": "USPS COLLECTION BOX - PO LOBBY", "note": "ON 12/24 AND 12/31, THIS BOX MAY BE COLLECTED AS EARLY AS 12 NOON.", "ref": "0446200017"}, "type": "Feature"}
{"geometry": {"coordinates": [-68.9868009598, 45.2559700167], "type": "Point"}, "id": "WptbbgL1e2oUaGkvgU4lH_MwUlM=", "properties": {"@spider": "usps_collection_boxes", "addr:city": "MILO", "addr:country": "US", "addr:full": "35 PARK ST", "addr:postcode": "04463", "addr:state": "ME", "brand": "USPS", "collection_times": "Mo-Sa 14:30", "name": "USPS COLLECTION BOX - BLUE BOX", "note": "ON 12/24 AND 12/31, THIS BOX MAY BE COLLECTED AS EARLY AS 12 NOON.", "ref": "0446300001"}, "type": "Feature"}
{"geometry": {"coordinates": [-68.9863559, 45.257967], "type": "Point"}, "id": "qntpXGngjUSb45Je61sSIpe44eo=", "properties": {"@spider": "usps_collection_boxes", "addr:city": "MILO", "addr:country": "US", "addr:full": "57 PARK ST", "addr:postcode": "04463", "addr:state": "ME", "brand": "USPS", "collection_times": "Mo-Sa 14:15", "name": "USPS COLLECTION BOX - BLUE BOX", "note": "ON 12/24 AND 12/31, THIS BOX MAY BE COLLECTED AS EARLY AS 12 NOON.", "ref": "0446300002"}, "type": "Feature"}
{"geometry": {"coordinates": [-68.985196, 45.254129], "type": "Point"}, "id": "cZ1HLCjkcxLgi9mhMlQIMBElCzg=", "properties": {"@spider": "usps_collection_boxes", "addr:city": "MILO", "addr:country": "US", "addr:full": "10 PLEASANT ST", "addr:postcode": "04463", "addr:state": "ME", "brand": "USPS", "collection_times": "Mo-Fr 15:55; Sa 15:00", "name": "USPS COLLECTION BOX - BLUE BOX", "note": "ON 12/24 AND 12/31, THIS BOX MAY BE COLLECTED AS EARLY AS 12 NOON.", "ref": "0446300003"}, "type": "Feature"}
{"geometry": {"coordinates": [-68.985177, 45.254103], "type": "Point"}, "id": "hrEG5VTOYdXyG4BpcvtY9hGbYYM=", "properties": {"@spider": "usps_collection_boxes", "addr:city": "MILO", "addr:country": "US", "addr:full": "10 PLEASANT ST", "addr:postcode": "04463", "addr:state": "ME", "brand": "USPS", "collection_times": "Mo-Fr 15:55; Sa 11:30", "name": "USPS COLLECTION BOX - PO LOBBY", "note": "ON 12/24 AND 12/31, THIS BOX MAY BE COLLECTED AS EARLY AS 12 NOON.", "ref": "0446300005"}, "type": "Feature"}
{"geometry": {"coordinates": [-68.985193793, 45.254166642], "type": "Point"}, "id": "6bGGMvbEPWTw7SrM5LnFswRVFrc=", "properties": {"@spider": "usps_collection_boxes", "addr:city": "MILO", "addr:country": "US", "addr:full": "10 PLEASANT ST", "addr:postcode": "04463", "addr:state": "ME", "brand": "USPS", "collection_times": "Mo-Fr 15:55; Sa 11:30", "name": "USPS COLLECTION BOX - PO LOBBY", "note": "ON 12/24 AND 12/31, THIS BOX MAY BE COLLECTED AS EARLY AS 12 NOON.", "ref": "0446300006"}, "type": "Feature"}
{"geometry": {"coordinates": [-69.500123, 45.286096], "type": "Point"}, "id": "k-N_9CruYhtbrXDLPXZkL56OKRU=", "properties": {"@spider": "usps_collection_boxes", "addr:city": "MONSON", "addr:country": "US", "addr:full": "2 GREENVILLE RD", "addr:postcode": "04464", "addr:state": "ME", "brand": "USPS", "collection_times": "Mo-Fr 16:15; Sa 11:15", "name": "USPS COLLECTION BOX - BLUE BOX", "note": "ON 12/24 AND 12/31, THIS BOX MAY BE COLLECTED AS EARLY AS 12 NOON.", "ref": "0446400001"}, "type": "Feature"}
{"geometry": {"coordinates": [-69.500009, 45.286049], "type": "Point"}, "id": "9eJHFHB0VDusvl0OolG58zelCXk=", "properties": {"@spider": "usps_collection_boxes", "addr:city": "MONSON", "addr:country": "US", "addr:full": "2 GREENVILLE RD", "addr:postcode": "04464", "addr:state": "ME", "brand": "USPS", "collection_times": "Mo-Fr 16:15; Sa 11:15", "name": "USPS COLLECTION BOX - PO LOBBY", "note": "ON 12/24 AND 12/31, THIS BOX MAY BE COLLECTED AS EARLY AS 12 NOON.", "ref": "0446400002"}, "type": "Feature"}
{"geometry": {"coordinates": [-69.500009, 45.286049], "type": "Point"}, "id": "kh6TD1yPSUiEjaHpjaQV5D9rEzU=", "properties": {"@spider": "usps_collection_boxes", "addr:city": "MONSON", "addr:country": "US", "addr:full": "2 GREENVILLE RD", "addr:postcode": "04464", "addr:state": "ME", "brand": "USPS", "collection_times": "Mo-Fr 16:15; Sa 11:15", "name": "USPS COLLECTION BOX - PO LOBBY", "note": "ON 12/24 AND 12/31, THIS BOX MAY BE COLLECTED AS EARLY AS 12 NOON.", "ref": "0446400003"}, "type": "Feature"}
{"geometry": {"coordinates": [-69.500059166, 45.286048017], "type": "Point"}, "id": "gCc14jGCQjsf9hjP6FNLWflHEh4=", "properties": {"@spider": "usps_collection_boxes", "addr:city": "MONSON", "addr:country": "US", "addr:full": "2 GREENVILLE RD", "addr:postcode": "04464", "addr:state": "ME", "brand": "USPS", "collection_times": "Mo-Fr 16:15; Sa 11:00", "name": "USPS COLLECTION BOX - PO LOBBY", "note": "ON 12/24 AND 12/31, THIS BOX MAY BE COLLECTED AS EARLY AS 12 NOON.", "ref": "0446400004"}, "type": "Feature"}
{"geometry": {"coordinates": [-68.647395, 44.934983], "type": "Point"}, "id": "a8EExDcPkTBt4dxqLac5L8z2SMs=", "properties": {"@spider": "usps_collection_boxes", "addr:city": "OLD TOWN", "addr:country": "US", "addr:full": "141 CENTER ST", "addr:postcode": "04468", "addr:state": "ME", "brand": "USPS", "collection_times": "Mo-Fr 17:00; Sa 13:45", "name": "USPS COLLECTION BOX - BLUE BOX", "note": "ON 12/24 AND 12/31, THIS BOX MAY BE COLLECTED AS EARLY AS 12 NOON.", "ref": "0446800001"}, "type": "Feature"}
{"geometry": {"coordinates": [-68.656066, 44.941141], "type": "Point"}, "id": "5G64dghRghiBwpbqBb7M0LIu4cU=", "properties": {"@spider": "usps_collection_boxes", "addr:city": "OLD TOWN", "addr:country": "US", "addr:full": "10 GILMAN FALLS AVE", "addr:postcode": "04468", "addr:state": "ME", "brand": "USPS", "collection_times": "Mo-Sa 12:00", "name": "USPS COLLECTION BOX - BLUE BOX", "ref": "0446800003"}, "type": "Feature"}
{"geometry": {"coordinates": [-68.64725, 44.93504], "type": "Point"}, "id": "hf6DvkPxazUyQcBfE_-kPktmNvQ=", "properties": {"@spider": "usps_collection_boxes", "addr:city": "OLD TOWN", "addr:country": "US", "addr:full": "21 SHIRLEY ST", "addr:postcode": "04468", "addr:state": "ME", "brand": "USPS", "collection_times": "Mo-Fr 17:00; Sa 13:45", "name": "USPS COLLECTION BOX - BLUE BOX", "note": "ON 12/24 AND 12/31, THIS BOX MAY BE COLLECTED AS EARLY AS 12 NOON.", "ref": "0446800006"}, "type": "Feature"}
{"geometry": {"coordinates": [-68.6661073, 44.926446], "type": "Point"}, "id": "oJME67H3wcwXHcyBUObrx9LNsEI=", "properties": {"@spider": "usps_collection_boxes", "addr:city": "OLD TOWN", "addr:country": "US", "addr:full": "500 STILLWATER AVE", "addr:postcode": "04468", "addr:state": "ME", "brand": "USPS", "collection_times": "Mo-Sa 08:00", "name": "USPS COLLECTION BOX - BLUE BOX", "ref": "0446800007"}, "type": "Feature"}
{"geometry": {"coordinates": [-68.6451243, 44.933305], "type": "Point"}, "id": "eQm76T3tl8YDT6ADLtAjw3u511o=", "properties": {"@spider": "usps_collection_boxes", "addr:city": "OLD TOWN", "addr:country": "US", "addr:full": "336 MAIN ST", "addr:postcode": "04468", "addr:state": "ME", "brand": "USPS", "collection_times": "Mo-Sa 10:00", "name": "USPS COLLECTION BOX - BLUE BOX", "ref": "0446800013"}, "type": "Feature"}
{"geometry": {"coordinates": [-68.646207, 44.934634], "type": "Point"}, "id": "npPrc7n9_VDkRgZGo-2gk420bpw=", "properties": {"@spider": "usps_collection_boxes", "addr:city": "OLD TOWN", "addr:country": "US", "addr:full": "141 CENTER ST", "addr:postcode": "04468", "addr:state": "ME", "brand": "USPS", "collection_times": "Mo-Fr 17:00; Sa 12:00", "name": "USPS COLLECTION BOX - PO LOBBY", "note": "ON 12/24 AND 12/31, THIS BOX MAY BE COLLECTED AS EARLY AS 12 NOON.", "ref": "0446800018"}, "type": "Feature"}
{"geometry": {"coordinates": [-68.646207, 44.934634], "type": "Point"}, "id": "-QjZToSFJdA_1ZgX0sd3Taf8sd8=", "properties": {"@spider": "usps_collection_boxes", "addr:city": "OLD TOWN", "addr:country": "US", "addr:full": "141 CENTER ST", "addr:postcode": "04468", "addr:state": "ME", "brand": "USPS", "collection_times": "Mo-Fr 17:00; Sa 12:00", "name": "USPS COLLECTION BOX - PO LOBBY", "note": "ON 12/24 AND 12/31, THIS BOX MAY BE COLLECTED AS EARLY AS 12 NOON.", "ref": "0446800019"}, "type": "Feature"}
{"geometry": {"coordinates": [-68.646691843, 44.934496575], "type": "Point"}, "id": "aFODPws2Mzel_IyIML64Ij_SZDA=", "properties": {"@spider": "usps_collection_boxes", "addr:city": "OLD TOWN", "addr:country": "US", "addr:full": "141 CENTER ST", "addr:postcode": "04468", "addr:state": "ME", "brand": "USPS", "collection_times": "Mo-Fr 16:45; Sa 12:00", "name": "USPS COLLECTION BOX - PO LOBBY", "note": "ON 12/24 AND 12/31, THIS BOX MAY BE COLLECTED AS EARLY AS 12 NOON.", "ref": "0446800020"}, "type": "Feature"}
{"geometry": {"coordinates": [-68.6728399, 44.88391], "type": "Point"}, "id": "9W8NOxsjtikwvFwmuQ1q_do9nDs=", "properties": {"@spider": "usps_collection_boxes", "addr:city": "ORONO", "addr:country": "US", "addr:full": "1 BENNOCH RD", "addr:postcode": "04473", "addr:state": "ME", "brand": "USPS", "collection_times": "Mo-Fr 17:00; Sa 13:00", "name": "USPS COLLECTION BOX - BLUE BOX", "note": "ON 12/24 AND 12/31, THIS BOX MAY BE COLLECTED AS EARLY AS 12 NOON.", "ref": "0447300001"}, "type": "Feature"}
{"geometry": {"coordinates": [-68.6793852, 44.873831], "type": "Point"}, "id": "tkix5yHvv_zpuF8nQoPyxwSk0pY=", "properties": {"@spider": "usps_collection_boxes", "addr:city": "ORONO", "addr:country": "US", "addr:full": "232 MAIN ST", "addr:postcode": "04473", "addr:state": "ME", "brand": "USPS", "collection_times": "Mo-Sa 13:00", "name": "USPS COLLECTION BOX - BLUE BOX", "note": "ON 12/24 AND 12/31, THIS BOX MAY BE COLLECTED AS EARLY AS 12 NOON.", "ref": "0447300003"}, "type": "Feature"}
{"geometry": {"coordinates": [-68.6906051, 44.905635], "type": "Point"}, "id": "NexX4B7PELTciDfZRvpov7huEf0=", "properties": {"@spider": "usps_collection_boxes", "addr:city": "ORONO", "addr:country": "US", "addr:full": "6 STILLWATER AVE", "addr:postcode": "04473", "addr:state": "ME", "brand": "USPS", "collection_times": "Mo-Fr 09:00", "name": "USPS COLLECTION BOX - BLUE BOX", "ref": "0447300008"}, "type": "Feature"}
{"geometry": {"coordinates": [-68.6710587, 44.900439], "type": "Point"}, "id": "xtg3rGKryoPy0jIff8B3Jo9VBt4=", "properties": {"@spider": "usps_collection_boxes", "addr:city": "ORONO", "addr:country": "US", "addr:full": "5728 FERNALD HALL", "addr:postcode": "04473", "addr:state": "ME", "brand": "USPS", "collection_times": "Mo-Fr 13:00", "name": "USPS COLLECTION BOX - BLUE BOX", "note": "ON 12/24 AND 12/31, THIS BOX MAY BE COLLECTED AS EARLY AS 12 NOON.", "ref": "0447300011"}, "type": "Feature"}
{"geometry": {"coordinates": [-68.67244, 44.883577], "type": "Point"}, "id": "pHNpn1wQXRI1jQMBXgR7z1CKA2o=", "properties": {"@spider": "usps_collection_boxes", "addr:city": "ORONO", "addr:country": "US", "addr:full": "1 BENNOCH RD", "addr:postcode": "04473", "addr:state": "ME", "brand": "USPS", "collection_times": "Mo-Fr 17:15; Sa 12:00", "name": "USPS COLLECTION BOX - PO LOBBY", "note": "ON 12/24 AND 12/31, THIS BOX MAY BE COLLECTED AS EARLY AS 12 NOON.", "ref": "0447300015"}, "type": "Feature"}
{"geometry": {"coordinates": [-68.67244, 44.883577], "type": "Point"}, "id": "VjcgQfovmjCVF-EaD-gj_q_XDDI=", "properties": {"@spider": "usps_collection_boxes", "addr:city": "ORONO", "addr:country": "US", "addr:full": "1 BENNOCH RD", "addr:postcode": "04473", "addr:state": "ME", "brand": "USPS", "collection_times": "Mo-Fr 17:15; Sa 12:00", "name": "USPS COLLECTION BOX - PO LOBBY", "note": "ON 12/24 AND 12/31, THIS BOX MAY BE COLLECTED AS EARLY AS 12 NOON.", "ref": "0447300016"}, "type": "Feature"}
{"geometry": {"coordinates": [-68.6676874, 44.902854], "type": "Point"}, "id": "7igeZFWTBEn79Tp58d19uFvqYg0=", "properties": {"@spider": "usps_collection_boxes", "addr:city": "ORONO", "addr:country": "US", "addr:full": "5721 CUTLER HEALTH CTR", "addr:postcode": "04473", "addr:state": "ME", "brand": "USPS", "collection_times": "Mo-Fr 13:00", "name": "USPS COLLECTION BOX - BLUE BOX", "note": "ON 12/24 AND 12/31, THIS BOX MAY BE COLLECTED AS EARLY AS 12 NOON.", "ref": "0447300017"}, "type": "Feature"}
{"geometry": {"coordinates": [-68.672601291, 44.883747137], "type": "Point"}, "id": "SLUiPhMnvdQ5WNQaqk3zp_99bcc=", "properties": {"@spider": "usps_collection_boxes", "addr:city": "ORONO", "addr:country": "US", "addr:full": "1 BENNOCH RD", "addr:postcode": "04473", "addr:state": "ME", "brand": "USPS", "collection_times": "Mo-Fr 17:00; Sa 12:00", "name": "USPS COLLECTION BOX - PO LOBBY", "note": "ON 12/24 AND 12/31, THIS BOX MAY BE COLLECTED AS EARLY AS 12 NOON.", "ref": "0447300018"}, "type": "Feature"}
{"geometry": {"coordinates": [-68.6094300525, 45.184770471], "type": "Point"}, "id": "zp_FTS2acfDVU6ex7ryQxDLTe00=", "properties": {"@spider": "usps_collection_boxes", "addr:city": "PASSADUMKEAG", "addr:country": "US", "addr:full": "70 PLEASANT ST", "addr:postcode": "04475", "addr:state": "ME", "brand": "USPS", "collection_times": "Mo-Fr 12:30; Sa 11:00", "name": "USPS COLLECTION BOX - BLUE BOX", "note": "ON 12/24 AND 12/31, THIS BOX MAY BE COLLECTED AS EARLY AS 12 NOON.", "ref": "0447500001"}, "type": "Feature"}
{"geometry": {"coordinates": [-68.609483, 45.184748], "type": "Point"}, "id": "mql8HoH6nabsuSkBjFtZt_5cK30=", "properties": {"@spider": "usps_collection_boxes", "addr:city": "PASSADUMKEAG", "addr:country": "US", "addr:full": "70 PLEASANT ST", "addr:postcode": "04475", "addr:state": "ME", "brand": "USPS", "collection_times": "Mo-Fr 12:30; Sa 11:00", "name": "USPS COLLECTION BOX - PO LOBBY", "note": "ON 12/24 AND 12/31, THIS BOX MAY BE COLLECTED AS EARLY AS 12 NOON.", "ref": "0447500002"}, "type": "Feature"}
{"geometry": {"coordinates": [-68.609430052, 45.184770471], "type": "Point"}, "id": "fh5iafSDu3lrp28uV5hIq2h03Sg=", "properties": {"@spider": "usps_collection_boxes", "addr:city": "PASSADUMKEAG", "addr:country": "US", "addr:full": "70 PLEASANT ST", "addr:postcode": "04475", "addr:state": "ME", "brand": "USPS", "collection_times": "Mo-Fr 12:30; Sa 11:15", "name": "USPS COLLECTION BOX - PO LOBBY", "note": "ON 12/24 AND 12/31, THIS BOX MAY BE COLLECTED AS EARLY AS 12 NOON.", "ref": "0447500003"}, "type": "Feature"}
{"geometry": {"coordinates": [-69.739347, 45.676036], "type": "Point"}, "id": "TBNV-Om6VV0XFXwVrwcwg9SNhaI=", "properties": {"@spider": "usps_collection_boxes", "addr:city": "ROCKWOOD", "addr:country": "US", "addr:full": "62 VILLAGE RD", "addr:postcode": "04478", "addr:state": "ME", "brand": "USPS", "collection_times": "Mo-Fr 12:00; Sa 11:45", "name": "USPS COLLECTION BOX - BLUE BOX", "ref": "0447800001"}, "type": "Feature"}
{"geometry": {"coordinates": [-69.739305, 45.676072], "type": "Point"}, "id": "48oUoPHuqzM9aD_7e4pKs48V2YQ=", "properties": {"@spider": "usps_collection_boxes", "addr:city": "ROCKWOOD", "addr:country": "US", "addr:full": "62 VILLAGE RD", "addr:postcode": "04478", "addr:state": "ME", "brand": "USPS", "collection_times": "Mo-Fr 12:00; Sa 11:45", "name": "USPS COLLECTION BOX - PO LOBBY", "ref": "0447800003"}, "type": "Feature"}
{"geometry": {"coordinates": [-69.739342973, 45.676181881], "type": "Point"}, "id": "UzwEkCNZV3oE1YYQWI_Zjx8FsX4=", "properties": {"@spider": "usps_collection_boxes", "addr:city": "ROCKWOOD", "addr:country": "US", "addr:full": "62 VILLAGE RD", "addr:postcode": "04478", "addr:state": "ME", "brand": "USPS", "collection_times": "Mo-Fr 12:30; Sa 11:30", "name": "USPS COLLECTION BOX - PO LOBBY", "note": "ON 12/24 AND 12/31, THIS BOX MAY BE COLLECTED AS EARLY AS 12 NOON.", "ref": "0447800004"}, "type": "Feature"}
{"geometry": {"coordinates": [-69.355502, 45.161046], "type": "Point"}, "id": "JoD-KNyIoVp_C2FgCG0L5OhsMZ8=", "properties": {"@spider": "usps_collection_boxes", "addr:city": "SANGERVILLE", "addr:country": "US", "addr:full": "54 MAIN ST", "addr:postcode": "04479", "addr:state": "ME", "brand": "USPS", "collection_times": "Mo-Fr 15:30; Sa 11:15", "name": "USPS COLLECTION BOX - BLUE BOX", "note": "ON 12/24 AND 12/31, THIS BOX MAY BE COLLECTED AS EARLY AS 12 NOON.", "ref": "0447900001"}, "type": "Feature"}
{"geometry": {"coordinates": [-69.355502, 45.161046], "type": "Point"}, "id": "_H_x5xg-U3MKh_2ROQejuflza_0=", "properties": {"@spider": "usps_collection_boxes", "addr:city": "SANGERVILLE", "addr:country": "US", "addr:full": "54 MAIN ST", "addr:postcode": "04479", "addr:state": "ME", "brand": "USPS", "collection_times": "Mo-Fr 15:30; Sa 11:15", "name": "USPS COLLECTION BOX - PO LOBBY", "note": "ON 12/24 AND 12/31, THIS BOX MAY BE COLLECTED AS EARLY AS 12 NOON.", "ref": "0447900003"}, "type": "Feature"}
{"geometry": {"coordinates": [-69.355765509, 45.161471965], "type": "Point"}, "id": "_nVKF3YgCKdGreduBdGbZcD513E=", "properties": {"@spider": "usps_collection_boxes", "addr:city": "SANGERVILLE", "addr:country": "US", "addr:full": "54 MAIN ST", "addr:postcode": "04479", "addr:state": "ME", "brand": "USPS", "collection_times": "Mo-Fr 15:30; Sa 11:00", "name": "USPS COLLECTION BOX - PO LOBBY", "note": "ON 12/24 AND 12/31, THIS BOX MAY BE COLLECTED AS EARLY AS 12 NOON.", "ref": "0447900004"}, "type": "Feature"}
{"geometry": {"coordinates": [-69.1443329, 44.89196], "type": "Point"}, "id": "-CGkHB1anaiHAwAsmUIu9GtRsPQ=", "properties": {"@spider": "usps_collection_boxes", "addr:city": "STETSON", "addr:country": "US", "addr:full": "6 STETSON RD", "addr:postcode": "04488", "addr:state": "ME", "brand": "USPS", "collection_times": "Mo-Fr 12:00; Sa 11:00", "name": "USPS COLLECTION BOX - BLUE BOX", "ref": "0448800001"}, "type": "Feature"}
{"geometry": {"coordinates": [-69.143915, 44.892045], "type": "Point"}, "id": "iM95AzbWbFr9ObBFUKIwkf4op14=", "properties": {"@spider": "usps_collection_boxes", "addr:city": "STETSON", "addr:country": "US", "addr:full": "6 STETSON RD", "addr:postcode": "04488", "addr:state": "ME", "brand": "USPS", "collection_times": "Mo-Fr 12:00; Sa 11:15", "name": "USPS COLLECTION BOX - PO LOBBY", "ref": "0448800002"}, "type": "Feature"}
{"geometry": {"coordinates": [-69.14393648, 44.891990612], "type": "Point"}, "id": "LkUVZItWiEYXwc5g9LO0_9JYBZo=", "properties": {"@spider": "usps_collection_boxes", "addr:city": "STETSON", "addr:country": "US", "addr:full": "6 STETSON RD", "addr:postcode": "04488", "addr:state": "ME", "brand": "USPS", "collection_times": "Mo-Fr 12:00; Sa 11:00", "name": "USPS COLLECTION BOX - PO LOBBY", "ref": "0448800003"}, "type": "Feature"}
{"geometry": {"coordinates": [-68.68891, 44.912775], "type": "Point"}, "id": "sG1iYsRFxk0IjU8eBSpz3cT5fPo=", "properties": {"@spider": "usps_collection_boxes", "addr:city": "STILLWATER", "addr:country": "US", "addr:full": "441 BENNOCH RD", "addr:postcode": "04489", "addr:state": "ME", "brand": "USPS", "collection_times": "Mo-Fr 16:30; Sa 11:30", "name": "USPS COLLECTION BOX - BLUE BOX", "note": "ON 12/24 AND 12/31, THIS BOX MAY BE COLLECTED AS EARLY AS 12 NOON.", "ref": "0448900000"}, "type": "Feature"}
{"geometry": {"coordinates": [-68.68895, 44.912772], "type": "Point"}, "id": "FWhtijByNaJ1jw0sAfNquFMAhFw=", "properties": {"@spider": "usps_collection_boxes", "addr:city": "STILLWATER", "addr:country": "US", "addr:full": "441 BENNOCH RD", "addr:postcode": "04489", "addr:state": "ME", "brand": "USPS", "collection_times": "Mo-Fr 16:30; Sa 11:30", "name": "USPS COLLECTION BOX - PO LOBBY", "note": "ON 12/24 AND 12/31, THIS BOX MAY BE COLLECTED AS EARLY AS 12 NOON.", "ref": "0448900002"}, "type": "Feature"}
{"geometry": {"coordinates": [-68.689362693, 44.91352646], "type": "Point"}, "id": "sr-8m0hK4wSml6BQ6eHj8GX9Tlk=", "properties": {"@spider": "usps_collection_boxes", "addr:city": "STILLWATER", "addr:country": "US", "addr:full": "441 BENNOCH RD", "addr:postcode": "04489", "addr:state": "ME", "brand": "USPS", "collection_times": "Mo-Fr 16:30; Sa 11:30", "name": "USPS COLLECTION BOX - PO LOBBY", "note": "ON 12/24 AND 12/31, THIS BOX MAY BE COLLECTED AS EARLY AS 12 NOON.", "ref": "0448900003"}, "type": "Feature"}
{"geometry": {"coordinates": [-68.646994, 45.237759], "type": "Point"}, "id": "LXY5JNFqdCRTrXHj-5bCSKIH_LY=", "properties": {"@spider": "usps_collection_boxes", "addr:city": "WEST ENFIELD", "addr:country": "US", "addr:full": "41 BRIDGE ST", "addr:postcode": "04493", "addr:state": "ME", "brand": "USPS", "collection_times": "Mo-Fr 16:15; Sa 11:15", "name": "USPS COLLECTION BOX - BLUE BOX", "note": "ON 12/24 AND 12/31, THIS BOX MAY BE COLLECTED AS EARLY AS 12 NOON.", "ref": "0449300001"}, "type": "Feature"}
{"geometry": {"coordinates": [-68.6474712, 45.237238], "type": "Point"}, "id": "PvOiF-30ShO7bK08ng4MAGXnsto=", "properties": {"@spider": "usps_collection_boxes", "addr:city": "WEST ENFIELD", "addr:country": "US", "addr:full": "789 HAMMETT RD", "addr:postcode": "04493", "addr:state": "ME", "brand": "USPS", "collection_times": "Mo-Fr 15:45", "name": "USPS COLLECTION BOX - BLUE BOX", "note": "ON 12/24 AND 12/31, THIS BOX MAY BE COLLECTED AS EARLY AS 12 NOON.", "ref": "0449300002"}, "type": "Feature"}
{"geometry": {"coordinates": [-68.646991, 45.237792], "type": "Point"}, "id": "fQqn1aLwaV0Aq8zZKEDfwRSCtz0=", "properties": {"@spider": "usps_collection_boxes", "addr:city": "WEST ENFIELD", "addr:country": "US", "addr:full": "41 BRIDGE ST", "addr:postcode": "04493", "addr:state": "ME", "brand": "USPS", "collection_times": "Mo-Fr 16:15; Sa 11:20", "name": "USPS COLLECTION BOX - PO LOBBY", "note": "ON 12/24 AND 12/31, THIS BOX MAY BE COLLECTED AS EARLY AS 12 NOON.", "ref": "0449300003"}, "type": "Feature"}
{"geometry": {"coordinates": [-68.647734435, 45.237482057], "type": "Point"}, "id": "3Ix8cuo07TsLO1KDYZEvRL59zs0=", "properties": {"@spider": "usps_collection_boxes", "addr:city": "WEST ENFIELD", "addr:country": "US", "addr:full": "41 BRIDGE ST", "addr:postcode": "04493", "addr:state": "ME", "brand": "USPS", "collection_times": "Mo-Fr 16:15; Sa 11:15", "name": "USPS COLLECTION BOX - PO LOBBY", "note": "ON 12/24 AND 12/31, THIS BOX MAY BE COLLECTED AS EARLY AS 12 NOON.", "ref": "0449300004"}, "type": "Feature"}
