{"geometry": {"coordinates": [-69.8279667, 43.90926], "type": "Point"}, "id": "DIirjJsf0CAfPtfad3GkAsnWLkY=", "properties": {"@spider": "usps_collection_boxes", "addr:city": "BATH", "addr:country": "US", "addr:full": "1 CHANDLER DR", "addr:postcode": "04530", "addr:state": "ME", "brand": "USPS", "collection_times": "Mo-Fr 17:00; Sa 09:00", "name": "USPS COLLECTION BOX - BLUE BOX", "note": "ON 12/24 AND 12/31, THIS BOX MAY BE COLLECTED AS EARLY AS 12 NOON.", "ref": "0453000002"}, "type": "Feature"}
{"geometry": {"coordinates": [-69.8332503, 43.910906], "type": "Point"}, "id": "8Or_1hxqQTgLrVKm6D1Lsykiw4g=", "properties": {"@spider": "usps_collection_boxes", "addr:city": "BATH", "addr:country": "US", "addr:full": "55 CONGRESS AVE", "addr:postcode": "04530", "addr:state": "ME", "brand": "USPS", "collection_times": "Mo-Sa 09:00", "name": "USPS COLLECTION BOX - BLUE BOX", "ref": "0453000003"}, "type": "Feature"}
{"geometry": {"coordinates": [-69.8142173, 43.913742], "type": "Point"}, "id": "6Ju81xVz1u2PbdFrnE6KSV7g6QY=", "properties": {"@spider": "usps_collection_boxes", "addr:city": "BATH", "addr:country": "US", "addr:full": "113 FRONT ST", "addr:postcode": "04530", "addr:state": "ME", "brand": "USPS", "collection_times": "Mo-Fr 17:00; Sa 14:00", "name": "USPS COLLECTION BOX - BLUE BOX", "note": "ON 12/24 AND 12/31, THIS BOX MAY BE COLLECTED AS EARLY AS 12 NOON.", "ref": "0453000006"}, "type": "Feature"}
{"geometry": {"coordinates": [-69.8141071, 43.91283], "type": "Point"}, "id": "qgCnoir5VG0EJPP-1P1tGtDOGj8=", "properties": {"@spider": "usps_collection_boxes", "addr:city": "BATH", "addr:country": "US", "addr:full": "55 FRONT ST", "addr:postcode": "04530", "addr:state": "ME", "brand": "USPS", "collection_times": "Mo-Fr 17:00; Sa 14:00", "name": "USPS COLLECTION BOX - BLUE BOX", "note": "ON 12/24 AND 12/31, THIS BOX MAY BE COLLECTED AS EARLY AS 12 NOON.", "ref": "0453000009"}, "type": "Feature"}
{"geometry": {"coordinates": [-69.8206464, 43.911669], "type": "Point"}, "id": "8046TTZKU2QNz2IwTlKFzA-mHkE=", "properties": {"@spider": "usps_collection_boxes", "addr:city": "BATH", "addr:country": "US", "addr:full": "752 HIGH ST", "addr:postcode": "04530", "addr:state": "ME", "brand": "USPS", "collection_times": "Mo-Fr 17:00; Sa 12:00", "name": "USPS COLLECTION BOX - BLUE BOX", "note": "ON 12/24 AND 12/31, THIS BOX MAY BE COLLECTED AS EARLY AS 12 NOON.", "ref": "0453000016"}, "type": "Feature"}
{"geometry": {"coordinates": [-69.8260973, 43.917976], "type": "Point"}, "id": "6II4CCH8544wKJWWONO-U0sj-Y8=", "properties": {"@spider": "usps_collection_boxes", "addr:city": "BATH", "addr:country": "US", "addr:full": "245 NORTH ST", "addr:postcode": "04530", "addr:state": "ME", "brand": "USPS", "collection_times": "Mo-Sa 09:30", "name": "USPS COLLECTION BOX - BLUE BOX", "ref": "0453000020"}, "type": "Feature"}
{"geometry": {"coordinates": [-69.8158531, 43.903752], "type": "Point"}, "id": "MMawpelB4q0Qkz45L7Tgp9_dZxU=", "properties": {"@spider": "usps_collection_boxes", "addr:city": "BATH", "addr:country": "US", "addr:full": "520 WASHINGTON ST", "addr:postcode": "04530", "addr:state": "ME", "brand": "USPS", "collection_times": "Mo-Sa 09:30", "name": "USPS COLLECTION BOX - BLUE BOX", "ref": "0453000028"}, "type": "Feature"}
{"geometry": {"coordinates": [-69.8142158, 43.913734], "type": "Point"}, "id": "9qQYqOMIACHsIctVnhD5O4hm-YE=", "properties": {"@spider": "usps_collection_boxes", "addr:city": "BATH", "addr:country": "US", "addr:full": "113 FRONT ST", "addr:postcode": "04530", "addr:state": "ME", "brand": "USPS", "collection_times": "Mo-Fr 17:00; Sa 14:00", "name": "USPS COLLECTION BOX - EXPRESS", "note": "ON 12/24 AND 12/31, THIS BOX MAY BE COLLECTED AS EARLY AS 12 NOON.", "ref": "0453000033"}, "type": "Feature"}
{"geometry": {"coordinates": [-69.8142191, 43.914585], "type": "Point"}, "id": "yLYMoFB15R18dh5YXAjRlqM9kYo=", "properties": {"@spider": "usps_collection_boxes", "addr:city": "BATH", "addr:country": "US", "addr:full": "155 FRONT ST", "addr:postcode": "04530", "addr:state": "ME", "brand": "USPS", "collection_times": "Mo-Fr 17:00; Sa 14:00", "name": "USPS COLLECTION BOX - BLUE BOX", "note": "ON 12/24 AND 12/31, THIS BOX MAY BE COLLECTED AS EARLY AS 12 NOON.", "ref": "0453000038"}, "type": "Feature"}
{"geometry": {"coordinates": [-69.816066, 43.911071], "type": "Point"}, "id": "c65X-V6IMxon-FwM6XTo0kNQQ8k=", "properties": {"@spider": "usps_collection_boxes", "addr:city": "BATH", "addr:country": "US", "addr:full": "750 WASHINGTON ST", "addr:postcode": "04530", "addr:state": "ME", "brand": "USPS", "collection_times": "Mo-Sa 17:00", "name": "USPS COLLECTION BOX - BLUE BOX", "note": "ON 12/24 AND 12/31, THIS BOX MAY BE COLLECTED AS EARLY AS 12 NOON.", "ref": "0453000046"}, "type": "Feature"}
{"geometry": {"coordinates": [-69.816066, 43.911071], "type": "Point"}, "id": "bi0PPSBtI7qS8D8A99H8RBVJF6g=", "properties": {"@spider": "usps_collection_boxes", "addr:city": "BATH", "addr:country": "US", "addr:full": "750 WASHINGTON ST", "addr:postcode": "04530", "addr:state": "ME", "brand": "USPS", "collection_times": "Mo-Fr 17:00; Sa 16:00", "name": "USPS COLLECTION BOX - PO LOBBY", "note": "ON 12/24 AND 12/31, THIS BOX MAY BE COLLECTED AS EARLY AS 12 NOON.", "ref": "0453000047"}, "type": "Feature"}
{"geometry": {"coordinates": [-69.816109065, 43.911107466], "type": "Point"}, "id": "SqBxpehWoDGikmu1STTSSwZ0OZE=", "properties": {"@spider": "usps_collection_boxes", "addr:city": "BATH", "addr:country": "US", "addr:full": "750 WASHINGTON ST", "addr:postcode": "04530", "addr:state": "ME", "brand": "USPS", "collection_times": "Mo-Fr 17:00; Sa 12:00", "name": "USPS COLLECTION BOX - PO LOBBY", "note": "ON 12/24 AND 12/31, THIS BOX MAY BE COLLECTED AS EARLY AS 12 NOON.", "ref": "0453000049"}, "type": "Feature"}
{"geometry": {"coordinates": [-69.8728289781, 43.8954940084], "type": "Point"}, "id": "ALBwfFAGxnzw2EszCgf1SAoWEsA=", "properties": {"@spider": "usps_collection_boxes", "addr:city": "BATH", "addr:country": "US", "addr:full": "219 FOSTERS POINT RD", "addr:postcode": "04530", "addr:state": "ME", "brand": "USPS", "collection_times": "Mo-Sa 09:00", "name": "USPS COLLECTION BOX - BLUE BOX", "ref": "0453000050"}, "type": "Feature"}
{"geometry": {"coordinates": [-69.756481, 43.805574], "type": "Point"}, "id": "zY_ZFvRAxhlWBHBSeQuC311KPT0=", "properties": {"@spider": "usps_collection_boxes", "addr:city": "GEORGETOWN", "addr:country": "US", "addr:full": "765 FIVE ISLANDS RD", "addr:postcode": "04548", "addr:state": "ME", "brand": "USPS", "collection_times": "Mo-Fr 16:15; Sa 11:30", "name": "USPS COLLECTION BOX - BLUE BOX", "note": "ON 12/24 AND 12/31, THIS BOX MAY BE COLLECTED AS EARLY AS 12 NOON.", "ref": "0454800001"}, "type": "Feature"}
{"geometry": {"coordinates": [-69.75644, 43.805626], "type": "Point"}, "id": "CpgJLa7EKLb1aPmErJxGEmykmpY=", "properties": {"@spider": "usps_collection_boxes", "addr:city": "GEORGETOWN", "addr:country": "US", "addr:full": "765 FIVE ISLANDS RD", "addr:postcode": "04548", "addr:state": "ME", "brand": "USPS", "collection_times": "Mo-Fr 16:15; Sa 11:30", "name": "USPS COLLECTION BOX - PO LOBBY", "note": "ON 12/24 AND 12/31, THIS BOX MAY BE COLLECTED AS EARLY AS 12 NOON.", "ref": "0454800003"}, "type": "Feature"}
{"geometry": {"coordinates": [-69.756471518, 43.805898618], "type": "Point"}, "id": "zzFH8pZnWcFrmXPqZijtNTnnEJc=", "properties": {"@spider": "usps_collection_boxes", "addr:city": "GEORGETOWN", "addr:country": "US", "addr:full": "765 FIVE ISLANDS RD", "addr:postcode": "04548", "addr:state": "ME", "brand": "USPS", "collection_times": "Mo-Fr 16:15; Sa 11:30", "name": "USPS COLLECTION BOX - PO LOBBY", "note": "ON 12/24 AND 12/31, THIS BOX MAY BE COLLECTED AS EARLY AS 12 NOON.", "ref": "0454800005"}, "type": "Feature"}
{"geometry": {"coordinates": [-69.81188, 43.844409], "type": "Point"}, "id": "F4nql98DXwzZ8QbDD82o5ptLViI=", "properties": {"@spider": "usps_collection_boxes", "addr:city": "PHIPPSBURG", "addr:country": "US", "addr:full": "520 MAIN RD", "addr:postcode": "04562", "addr:state": "ME", "brand": "USPS", "collection_times": "Mo-Fr 16:15; Sa 11:15", "name": "USPS COLLECTION BOX - BLUE BOX", "note": "ON 12/24 AND 12/31, THIS BOX MAY BE COLLECTED AS EARLY AS 12 NOON.", "ref": "0456200005"}, "type": "Feature"}
{"geometry": {"coordinates": [-69.81192, 43.844391], "type": "Point"}, "id": "LRRHBJa-nlnbEMbgYYvpghor55Y=", "properties": {"@spider": "usps_collection_boxes", "addr:city": "PHIPPSBURG", "addr:country": "US", "addr:full": "520 MAIN RD", "addr:postcode": "04562", "addr:state": "ME", "brand": "USPS", "collection_times": "Mo-Fr 16:15; Sa 11:15", "name": "USPS COLLECTION BOX - PO LOBBY", "note": "ON 12/24 AND 12/31, THIS BOX MAY BE COLLECTED AS EARLY AS 12 NOON.", "ref": "0456200009"}, "type": "Feature"}
{"geometry": {"coordinates": [-69.811883361, 43.844360867], "type": "Point"}, "id": "rHVQe93uydAOKROLFRELXaO0ZEQ=", "properties": {"@spider": "usps_collection_boxes", "addr:city": "PHIPPSBURG", "addr:country": "US", "addr:full": "520 MAIN RD", "addr:postcode": "04562", "addr:state": "ME", "brand": "USPS", "collection_times": "Mo-Fr 16:00; Sa 11:00", "name": "USPS COLLECTION BOX - PO LOBBY", "note": "ON 12/24 AND 12/31, THIS BOX MAY BE COLLECTED AS EARLY AS 12 NOON.", "ref": "0456200010"}, "type": "Feature"}
{"geometry": {"coordinates": [-69.8517861851, 43.7636344025], "type": "Point"}, "id": "U5Ywu59HqabdFs9rsXsjfHRkYuU=", "properties": {"@spider": "usps_collection_boxes", "addr:city": "SEBASCO ESTATES", "addr:country": "US", "addr:full": "415 SEBASCO RD", "addr:postcode": "04565", "addr:state": "ME", "brand": "USPS", "collection_times": "Mo-Fr 12:00; Sa 11:45", "name": "USPS COLLECTION BOX - BLUE BOX", "ref": "0456500001"}, "type": "Feature"}
{"geometry": {"coordinates": [-69.8517861851, 43.7636344025], "type": "Point"}, "id": "_TQatSnlTixXI1iAPS2kUCd5aX8=", "properties": {"@spider": "usps_collection_boxes", "addr:city": "SEBASCO ESTATES", "addr:country": "US", "addr:full": "415 SEBASCO RD", "addr:postcode": "04565", "addr:state": "ME", "brand": "USPS", "collection_times": "Mo-Fr 12:00; Sa 11:45", "name": "USPS COLLECTION BOX - PO LOBBY", "ref": "0456500004"}, "type": "Feature"}
{"geometry": {"coordinates": [-69.861680031, 43.775244272], "type": "Point"}, "id": "bDq2GPK3dAjxGTFRRf_gQDcyjbA=", "properties": {"@spider": "usps_collection_boxes", "addr:city": "SEBASCO ESTATES", "addr:country": "US", "addr:full": "415 SEBASCO RD", "addr:postcode": "04565", "addr:state": "ME", "brand": "USPS", "collection_times": "Mo-Fr 16:00; Sa 12:00", "name": "USPS COLLECTION BOX - PO LOBBY", "note": "ON 12/24 AND 12/31, THIS BOX MAY BE COLLECTED AS EARLY AS 12 NOON.", "ref": "0456500005"}, "type": "Feature"}
{"geometry": {"coordinates": [-69.675892, 43.823616], "type": "Point"}, "id": "5EbnVhcrZP8TH333bjQz-NcjHZQ=", "properties": {"@spider": "usps_collection_boxes", "addr:city": "SOUTHPORT", "addr:country": "US", "addr:full": "432 HENDRICKS HILL RD", "addr:postcode": "04576", "addr:state": "ME", "brand": "USPS", "collection_times": "Mo-Fr 15:15; Sa 11:15", "name": "USPS COLLECTION BOX - BLUE BOX", "note": "ON 12/24 AND 12/31, THIS BOX MAY BE COLLECTED AS EARLY AS 12 NOON.", "ref": "0457600001"}, "type": "Feature"}
{"geometry": {"coordinates": [-69.675966, 43.823608], "type": "Point"}, "id": "XAC9DsAynXMxciemPKnRbDadwOI=", "properties": {"@spider": "usps_collection_boxes", "addr:city": "SOUTHPORT", "addr:country": "US", "addr:full": "432 HENDRICKS HILL RD", "addr:postcode": "04576", "addr:state": "ME", "brand": "USPS", "collection_times": "Mo-Fr 15:15; Sa 11:15", "name": "USPS COLLECTION BOX - PO LOBBY", "note": "ON 12/24 AND 12/31, THIS BOX MAY BE COLLECTED AS EARLY AS 12 NOON.", "ref": "0457600003"}, "type": "Feature"}
{"geometry": {"coordinates": [-69.675978893, 43.823560632], "type": "Point"}, "id": "qfg3BGEO6FJRZKJKyYJkOIhJYJ0=", "properties": {"@spider": "usps_collection_boxes", "addr:city": "SOUTHPORT", "addr:country": "US", "addr:full": "432 HENDRICKS HILL RD", "addr:postcode": "04576", "addr:state": "ME", "brand": "USPS", "collection_times": "Mo-Fr 15:15; Sa 11:15", "name": "USPS COLLECTION BOX - PO LOBBY", "note": "ON 12/24 AND 12/31, THIS BOX MAY BE COLLECTED AS EARLY AS 12 NOON.", "ref": "0457600004"}, "type": "Feature"}
{"geometry": {"coordinates": [-69.801503, 43.913237], "type": "Point"}, "id": "yZmYExtQlDYPj8CREwepdYQN720=", "properties": {"@spider": "usps_collection_boxes", "addr:city": "WOOLWICH", "addr:country": "US", "addr:full": "53 MAIN ST", "addr:postcode": "04579", "addr:state": "ME", "brand": "USPS", "collection_times": "Mo-Fr 16:30; Sa 11:30", "name": "USPS COLLECTION BOX - BLUE BOX", "note": "ON 12/24 AND 12/31, THIS BOX MAY BE COLLECTED AS EARLY AS 12 NOON.", "ref": "0457900001"}, "type": "Feature"}
{"geometry": {"coordinates": [-69.801503, 43.913237], "type": "Point"}, "id": "00Wb3oQZ534-g0S84w2-TiwykUo=", "properties": {"@spider": "usps_collection_boxes", "addr:city": "WOOLWICH", "addr:country": "US", "addr:full": "53 MAIN ST", "addr:postcode": "04579", "addr:state": "ME", "brand": "USPS", "collection_times": "Mo-Fr 16:30; Sa 11:30", "name": "USPS COLLECTION BOX - PO LOBBY", "note": "ON 12/24 AND 12/31, THIS BOX MAY BE COLLECTED AS EARLY AS 12 NOON.", "ref": "0457900004"}, "type": "Feature"}
{"geometry": {"coordinates": [-69.801419155, 43.914266571], "type": "Point"}, "id": "KJfqbCx0BoUc-bKJ_JFluX5vAvE=", "properties": {"@spider": "usps_collection_boxes", "addr:city": "WOOLWICH", "addr:country": "US", "addr:full": "53 MAIN ST", "addr:postcode": "04579", "addr:state": "ME", "brand": "USPS", "collection_times": "Mo-Fr 16:30; Sa 11:30", "name": "USPS COLLECTION BOX - PO LOBBY", "note": "ON 12/24 AND 12/31, THIS BOX MAY BE COLLECTED AS EARLY AS 12 NOON.", "ref": "0457900006"}, "type": "Feature"}
