{"dataset_attributes": {"@spider": "usps_collection_boxes", "spider:collection_time": "2023-11-07T08:25:32.615229"}, "geometry": {"coordinates": [-68.4247871, 44.542712], "type": "Point"}, "id": "sqFOyYf_Li4oRyfg0n2vXOoBH20=", "properties": {"@spider": "usps_collection_boxes", "addr:city": "LAMOINE", "addr:country": "US", "addr:full": "7 CHURCH ST", "addr:postcode": "04605", "addr:state": "ME", "amenity": "post_box", "brand": "United States Postal Service", "brand:wikidata": "Q668687", "collection_times": "Mo-Sa 10:00", "name": "USPS COLLECTION BOX - BLUE BOX", "nsi_id": "unitedstatespostalservice-a77078", "operator": "United States Postal Service", "operator:short": "USPS", "operator:type": "public", "operator:wikidata": "Q668687", "ref": "0460500009"}, "type": "Feature"}
{"dataset_attributes": {"@spider": "usps_collection_boxes", "spider:collection_time": "2023-11-07T08:25:32.615229"}, "geometry": {"coordinates": [-68.409582, 44.531766], "type": "Point"}, "id": "a2T6QiuuBGcXyecCjObBk6_rZAk=", "properties": {"@spider": "usps_collection_boxes", "addr:city": "LAMOINE", "addr:country": "US", "addr:full": "225 HIGH ST", "addr:postcode": "04605", "addr:state": "ME", "amenity": "post_box", "brand": "United States Postal Service", "brand:wikidata": "Q668687", "collection_times": "Mo-Sa 10:00", "name": "USPS COLLECTION BOX - BLUE BOX", "nsi_id": "unitedstatespostalservice-a77078", "operator": "United States Postal Service", "operator:short": "USPS", "operator:type": "public", "operator:wikidata": "Q668687", "ref": "0460500011"}, "type": "Feature"}
{"dataset_attributes": {"@spider": "usps_collection_boxes", "spider:collection_time": "2023-11-07T08:25:32.615229"}, "geometry": {"coordinates": [-68.4130999, 44.535276], "type": "Point"}, "id": "DlpZEeEdQyGIN-q9viZ9zi2oaok=", "properties": {"@spider": "usps_collection_boxes", "addr:city": "LAMOINE", "addr:country": "US", "addr:full": "175 HIGH ST", "addr:postcode": "04605", "addr:state": "ME", "amenity": "post_box", "brand": "United States Postal Service", "brand:wikidata": "Q668687", "collection_times": "Mo-Sa 10:00", "name": "USPS COLLECTION BOX - BLUE BOX", "nsi_id": "unitedstatespostalservice-a77078", "operator": "United States Postal Service", "operator:short": "USPS", "operator:type": "public", "operator:wikidata": "Q668687", "ref": "0460500012"}, "type": "Feature"}
{"dataset_attributes": {"@spider": "usps_collection_boxes", "spider:collection_time": "2023-11-07T08:25:32.615229"}, "geometry": {"coordinates": [-68.4247336, 44.541283], "type": "Point"}, "id": "3mbuaKz898m14sfzxseqrAr070k=", "properties": {"@spider": "usps_collection_boxes", "addr:city": "LAMOINE", "addr:country": "US", "addr:full": "66 MAIN ST", "addr:postcode": "04605", "addr:state": "ME", "amenity": "post_box", "brand": "United States Postal Service", "brand:wikidata": "Q668687", "collection_times": "Mo-Sa 10:00", "name": "USPS COLLECTION BOX - BLUE BOX", "nsi_id": "unitedstatespostalservice-a77078", "operator": "United States Postal Service", "operator:short": "USPS", "operator:type": "public", "operator:wikidata": "Q668687", "ref": "0460500015"}, "type": "Feature"}
{"dataset_attributes": {"@spider": "usps_collection_boxes", "spider:collection_time": "2023-11-07T08:25:32.615229"}, "geometry": {"coordinates": [-68.421698, 44.54238], "type": "Point"}, "id": "7H_WNYe4-KxgXTrEpHsk6dNhu2E=", "properties": {"@spider": "usps_collection_boxes", "addr:city": "LAMOINE", "addr:country": "US", "addr:full": "199 MAIN ST", "addr:postcode": "04605", "addr:state": "ME", "amenity": "post_box", "brand": "United States Postal Service", "brand:wikidata": "Q668687", "collection_times": "Mo-Sa 17:15", "name": "USPS COLLECTION BOX - BLUE BOX", "note": "ON 12/24 AND 12/31, THIS BOX MAY BE COLLECTED AS EARLY AS 12 NOON.", "nsi_id": "unitedstatespostalservice-a77078", "operator": "United States Postal Service", "operator:short": "USPS", "operator:type": "public", "operator:wikidata": "Q668687", "ref": "0460500017"}, "type": "Feature"}
{"dataset_attributes": {"@spider": "usps_collection_boxes", "spider:collection_time": "2023-11-07T08:25:32.615229"}, "geometry": {"coordinates": [-68.4217305, 44.542325546], "type": "Point"}, "id": "Xuo86B0NxlKrfJHUPYb6eisZlgU=", "properties": {"@spider": "usps_collection_boxes", "addr:city": "LAMOINE", "addr:country": "US", "addr:full": "199 MAIN ST", "addr:postcode": "04605", "addr:state": "ME", "amenity": "post_box", "brand": "United States Postal Service", "brand:wikidata": "Q668687", "collection_times": "Mo-Sa 17:15", "name": "USPS COLLECTION BOX - BLUE BOX", "note": "ON 12/24 AND 12/31, THIS BOX MAY BE COLLECTED AS EARLY AS 12 NOON.", "nsi_id": "unitedstatespostalservice-a77078", "operator": "United States Postal Service", "operator:short": "USPS", "operator:type": "public", "operator:wikidata": "Q668687", "ref": "0460500018"}, "type": "Feature"}
{"dataset_attributes": {"@spider": "usps_collection_boxes", "spider:collection_time": "2023-11-07T08:25:32.615229"}, "geometry": {"coordinates": [-68.4164453, 44.546451], "type": "Point"}, "id": "3j1lyiI9ZSn7P7ijPK49vw5kKc4=", "properties": {"@spider": "usps_collection_boxes", "addr:city": "LAMOINE", "addr:country": "US", "addr:full": "50 UNION ST", "addr:postcode": "04605", "addr:state": "ME", "amenity": "post_box", "brand": "United States Postal Service", "brand:wikidata": "Q668687", "collection_times": "Mo-Sa 10:00", "name": "USPS COLLECTION BOX - BLUE BOX", "nsi_id": "unitedstatespostalservice-a77078", "operator": "United States Postal Service", "operator:short": "USPS", "operator:type": "public", "operator:wikidata": "Q668687", "ref": "0460500020"}, "type": "Feature"}
{"dataset_attributes": {"@spider": "usps_collection_boxes", "spider:collection_time": "2023-11-07T08:25:32.615229"}, "geometry": {"coordinates": [-68.3747407, 44.437576], "type": "Point"}, "id": "Jcp8I4-GlaLFbbfjzhr5v9zYdO4=", "properties": {"@spider": "usps_collection_boxes", "addr:city": "LAMOINE", "addr:country": "US", "addr:full": "59 OAK POINT RD", "addr:postcode": "04605", "addr:state": "ME", "amenity": "post_box", "brand": "United States Postal Service", "brand:wikidata": "Q668687", "collection_times": "Mo-Sa 09:00", "name": "USPS COLLECTION BOX - BLUE BOX", "nsi_id": "unitedstatespostalservice-a77078", "operator": "United States Postal Service", "operator:short": "USPS", "operator:type": "public", "operator:wikidata": "Q668687", "ref": "0460500023"}, "type": "Feature"}
{"dataset_attributes": {"@spider": "usps_collection_boxes", "spider:collection_time": "2023-11-07T08:25:32.615229"}, "geometry": {"coordinates": [-68.421698, 44.54238], "type": "Point"}, "id": "0IRPsY94Cu9-_hQL84OamOqncVw=", "properties": {"@spider": "usps_collection_boxes", "addr:city": "LAMOINE", "addr:country": "US", "addr:full": "199 MAIN ST", "addr:postcode": "04605", "addr:state": "ME", "amenity": "post_box", "brand": "United States Postal Service", "brand:wikidata": "Q668687", "collection_times": "Mo-Sa 17:15", "name": "USPS COLLECTION BOX - PO LOBBY", "note": "ON 12/24 AND 12/31, THIS BOX MAY BE COLLECTED AS EARLY AS 12 NOON.", "nsi_id": "unitedstatespostalservice-a77078", "operator": "United States Postal Service", "operator:short": "USPS", "operator:type": "public", "operator:wikidata": "Q668687", "ref": "0460500024"}, "type": "Feature"}
{"dataset_attributes": {"@spider": "usps_collection_boxes", "spider:collection_time": "2023-11-07T08:25:32.615229"}, "geometry": {"coordinates": [-68.3474996, 44.502074], "type": "Point"}, "id": "PvWYShg2akrDK8ZBD2aXe4YBUs4=", "properties": {"@spider": "usps_collection_boxes", "addr:city": "LAMOINE", "addr:country": "US", "addr:full": "606 DOUGLAS HWY", "addr:postcode": "04605", "addr:state": "ME", "amenity": "post_box", "brand": "United States Postal Service", "brand:wikidata": "Q668687", "collection_times": "Mo-Sa 09:30", "name": "USPS COLLECTION BOX - BLUE BOX", "nsi_id": "unitedstatespostalservice-a77078", "operator": "United States Postal Service", "operator:short": "USPS", "operator:type": "public", "operator:wikidata": "Q668687", "ref": "0460500026"}, "type": "Feature"}
{"dataset_attributes": {"@spider": "usps_collection_boxes", "spider:collection_time": "2023-11-07T08:25:32.615229"}, "geometry": {"coordinates": [-68.3699239, 44.44838], "type": "Point"}, "id": "QjgcExRnFd9UVDG6nqyyxih_bMY=", "properties": {"@spider": "usps_collection_boxes", "addr:city": "LAMOINE", "addr:country": "US", "addr:full": "1007 BAR HARBOR RD", "addr:postcode": "04605", "addr:state": "ME", "amenity": "post_box", "brand": "United States Postal Service", "brand:wikidata": "Q668687", "collection_times": "Mo-Sa 10:00", "name": "USPS COLLECTION BOX - BLUE BOX", "nsi_id": "unitedstatespostalservice-a77078", "operator": "United States Postal Service", "operator:short": "USPS", "operator:type": "public", "operator:wikidata": "Q668687", "ref": "0460500027"}, "type": "Feature"}
{"dataset_attributes": {"@spider": "usps_collection_boxes", "spider:collection_time": "2023-11-07T08:25:32.615229"}, "geometry": {"coordinates": [-68.421740391, 44.542325546], "type": "Point"}, "id": "yNJ2V--ooeYBFwF1-kpFipcAlIc=", "properties": {"@spider": "usps_collection_boxes", "addr:city": "LAMOINE", "addr:country": "US", "addr:full": "199 MAIN ST", "addr:postcode": "04605", "addr:state": "ME", "amenity": "post_box", "brand": "United States Postal Service", "brand:wikidata": "Q668687", "collection_times": "Mo-Fr 17:00; Sa 12:00", "name": "USPS COLLECTION BOX - PO LOBBY", "note": "ON 12/24 AND 12/31, THIS BOX MAY BE COLLECTED AS EARLY AS 12 NOON.", "nsi_id": "unitedstatespostalservice-a77078", "operator": "United States Postal Service", "operator:short": "USPS", "operator:type": "public", "operator:wikidata": "Q668687", "ref": "0460500029"}, "type": "Feature"}
{"dataset_attributes": {"@spider": "usps_collection_boxes", "spider:collection_time": "2023-11-07T08:25:32.615229"}, "geometry": {"coordinates": [-67.744644, 44.618771], "type": "Point"}, "id": "GBFM204MSGH_nbaonJbIzw-CdJ4=", "properties": {"@spider": "usps_collection_boxes", "addr:city": "ADDISON", "addr:country": "US", "addr:full": "297 WATER ST", "addr:postcode": "04606", "addr:state": "ME", "amenity": "post_box", "brand": "United States Postal Service", "brand:wikidata": "Q668687", "collection_times": "Mo-Fr 15:00; Sa 11:30", "name": "USPS COLLECTION BOX - BLUE BOX", "note": "ON 12/24 AND 12/31, THIS BOX MAY BE COLLECTED AS EARLY AS 12 NOON.", "nsi_id": "unitedstatespostalservice-a77078", "operator": "United States Postal Service", "operator:short": "USPS", "operator:type": "public", "operator:wikidata": "Q668687", "ref": "0460600001"}, "type": "Feature"}
{"dataset_attributes": {"@spider": "usps_collection_boxes", "spider:collection_time": "2023-11-07T08:25:32.615229"}, "geometry": {"coordinates": [-67.744651, 44.618677], "type": "Point"}, "id": "YRw9RoAmoYIkNpopgZUGw_kxtLQ=", "properties": {"@spider": "usps_collection_boxes", "addr:city": "ADDISON", "addr:country": "US", "addr:full": "297 WATER ST", "addr:postcode": "04606", "addr:state": "ME", "amenity": "post_box", "brand": "United States Postal Service", "brand:wikidata": "Q668687", "collection_times": "Mo-Fr 15:00; Sa 11:30", "name": "USPS COLLECTION BOX - PO LOBBY", "note": "ON 12/24 AND 12/31, THIS BOX MAY BE COLLECTED AS EARLY AS 12 NOON.", "nsi_id": "unitedstatespostalservice-a77078", "operator": "United States Postal Service", "operator:short": "USPS", "operator:type": "public", "operator:wikidata": "Q668687", "ref": "0460600002"}, "type": "Feature"}
{"dataset_attributes": {"@spider": "usps_collection_boxes", "spider:collection_time": "2023-11-07T08:25:32.615229"}, "geometry": {"coordinates": [-67.744672669, 44.618702616], "type": "Point"}, "id": "IllItiI__UJi0IasLjBkZ5StRTA=", "properties": {"@spider": "usps_collection_boxes", "addr:city": "ADDISON", "addr:country": "US", "addr:full": "297 WATER ST", "addr:postcode": "04606", "addr:state": "ME", "amenity": "post_box", "brand": "United States Postal Service", "brand:wikidata": "Q668687", "collection_times": "Mo-Fr 15:00; Sa 11:30", "name": "USPS COLLECTION BOX - PO LOBBY", "note": "ON 12/24 AND 12/31, THIS BOX MAY BE COLLECTED AS EARLY AS 12 NOON.", "nsi_id": "unitedstatespostalservice-a77078", "operator": "United States Postal Service", "operator:short": "USPS", "operator:type": "public", "operator:wikidata": "Q668687", "ref": "0460600006"}, "type": "Feature"}
{"dataset_attributes": {"@spider": "usps_collection_boxes", "spider:collection_time": "2023-11-07T08:25:32.615229"}, "geometry": {"coordinates": [-68.0954991, 44.47186], "type": "Point"}, "id": "EuFYi91v4yKQwS3mMur5Fj-JBqo=", "properties": {"@spider": "usps_collection_boxes", "addr:city": "GOULDSBORO", "addr:country": "US", "addr:full": "411 ROUTE 1", "addr:postcode": "04607", "addr:state": "ME", "amenity": "post_box", "brand": "United States Postal Service", "brand:wikidata": "Q668687", "collection_times": "Mo-Fr 15:00; Sa 11:15", "name": "USPS COLLECTION BOX - BLUE BOX", "note": "ON 12/24 AND 12/31, THIS BOX MAY BE COLLECTED AS EARLY AS 12 NOON.", "nsi_id": "unitedstatespostalservice-a77078", "operator": "United States Postal Service", "operator:short": "USPS", "operator:type": "public", "operator:wikidata": "Q668687", "ref": "0460700001"}, "type": "Feature"}
{"dataset_attributes": {"@spider": "usps_collection_boxes", "spider:collection_time": "2023-11-07T08:25:32.615229"}, "geometry": {"coordinates": [-68.0954913, 44.471798], "type": "Point"}, "id": "7V-W7H7YBJKUdA7KpUpSPOGzK0o=", "properties": {"@spider": "usps_collection_boxes", "addr:city": "GOULDSBORO", "addr:country": "US", "addr:full": "411 ROUTE 1", "addr:postcode": "04607", "addr:state": "ME", "amenity": "post_box", "brand": "United States Postal Service", "brand:wikidata": "Q668687", "collection_times": "Mo-Fr 15:00; Sa 11:15", "name": "USPS COLLECTION BOX - PO LOBBY", "note": "ON 12/24 AND 12/31, THIS BOX MAY BE COLLECTED AS EARLY AS 12 NOON.", "nsi_id": "unitedstatespostalservice-a77078", "operator": "United States Postal Service", "operator:short": "USPS", "operator:type": "public", "operator:wikidata": "Q668687", "ref": "0460700003"}, "type": "Feature"}
{"dataset_attributes": {"@spider": "usps_collection_boxes", "spider:collection_time": "2023-11-07T08:25:32.615229"}, "geometry": {"coordinates": [-68.095226088, 44.472019843], "type": "Point"}, "id": "liwwA7xbAiTEtrwbG9xod5L7yac=", "properties": {"@spider": "usps_collection_boxes", "addr:city": "GOULDSBORO", "addr:country": "US", "addr:full": "411 ROUTE 1", "addr:postcode": "04607", "addr:state": "ME", "amenity": "post_box", "brand": "United States Postal Service", "brand:wikidata": "Q668687", "collection_times": "Mo-Fr 15:00; Sa 11:00", "name": "USPS COLLECTION BOX - PO LOBBY", "note": "ON 12/24 AND 12/31, THIS BOX MAY BE COLLECTED AS EARLY AS 12 NOON.", "nsi_id": "unitedstatespostalservice-a77078", "operator": "United States Postal Service", "operator:short": "USPS", "operator:type": "public", "operator:wikidata": "Q668687", "ref": "0460700004"}, "type": "Feature"}
{"dataset_attributes": {"@spider": "usps_collection_boxes", "spider:collection_time": "2023-11-07T08:25:32.615229"}, "geometry": {"coordinates": [-68.2105638, 44.388609], "type": "Point"}, "id": "3NndXWkSA1HCSy1MnDfiD7TEtqc=", "properties": {"@spider": "usps_collection_boxes", "addr:city": "BAR HARBOR", "addr:country": "US", "addr:full": "86 COTTAGE ST", "addr:postcode": "04609", "addr:state": "ME", "amenity": "post_box", "brand": "United States Postal Service", "brand:wikidata": "Q668687", "collection_times": "Mo-Sa 14:15", "name": "USPS COLLECTION BOX - BLUE BOX", "note": "ON 12/24 AND 12/31, THIS BOX MAY BE COLLECTED AS EARLY AS 12 NOON.", "nsi_id": "unitedstatespostalservice-a77078", "operator": "United States Postal Service", "operator:short": "USPS", "operator:type": "public", "operator:wikidata": "Q668687", "ref": "0460900000"}, "type": "Feature"}
{"dataset_attributes": {"@spider": "usps_collection_boxes", "spider:collection_time": "2023-11-07T08:25:32.615229"}, "geometry": {"coordinates": [-68.2045819, 44.388945], "type": "Point"}, "id": "EzDEfocDLloRnz0DColUePGO3XM=", "properties": {"@spider": "usps_collection_boxes", "addr:city": "BAR HARBOR", "addr:country": "US", "addr:full": "103 MAIN ST", "addr:postcode": "04609", "addr:state": "ME", "amenity": "post_box", "brand": "United States Postal Service", "brand:wikidata": "Q668687", "collection_times": "Mo-Sa 15:00", "name": "USPS COLLECTION BOX - BLUE BOX", "note": "ON 12/24 AND 12/31, THIS BOX MAY BE COLLECTED AS EARLY AS 12 NOON.", "nsi_id": "unitedstatespostalservice-a77078", "operator": "United States Postal Service", "operator:short": "USPS", "operator:type": "public", "operator:wikidata": "Q668687", "ref": "0460900004"}, "type": "Feature"}
{"dataset_attributes": {"@spider": "usps_collection_boxes", "spider:collection_time": "2023-11-07T08:25:32.615229"}, "geometry": {"coordinates": [-68.207308, 44.3894], "type": "Point"}, "id": "jja_WuRyUW5sd9xpPl4Xs2mZjeo=", "properties": {"@spider": "usps_collection_boxes", "addr:city": "BAR HARBOR", "addr:country": "US", "addr:full": "55 COTTAGE ST", "addr:postcode": "04609", "addr:state": "ME", "amenity": "post_box", "brand": "United States Postal Service", "brand:wikidata": "Q668687", "collection_times": "Mo-Fr 16:30; Sa 15:45", "name": "USPS COLLECTION BOX - BLUE BOX", "note": "ON 12/24 AND 12/31, THIS BOX MAY BE COLLECTED AS EARLY AS 12 NOON.", "nsi_id": "unitedstatespostalservice-a77078", "operator": "United States Postal Service", "operator:short": "USPS", "operator:type": "public", "operator:wikidata": "Q668687", "ref": "0460900006"}, "type": "Feature"}
{"dataset_attributes": {"@spider": "usps_collection_boxes", "spider:collection_time": "2023-11-07T08:25:32.615229"}, "geometry": {"coordinates": [-68.207177, 44.389392], "type": "Point"}, "id": "K00btn4vBDhDFThRFv88ihOLNdc=", "properties": {"@spider": "usps_collection_boxes", "addr:city": "BAR HARBOR", "addr:country": "US", "addr:full": "55 COTTAGE ST", "addr:postcode": "04609", "addr:state": "ME", "amenity": "post_box", "brand": "United States Postal Service", "brand:wikidata": "Q668687", "collection_times": "Mo-Fr 16:30; Sa 15:45", "name": "USPS COLLECTION BOX - PO LOBBY", "note": "ON 12/24 AND 12/31, THIS BOX MAY BE COLLECTED AS EARLY AS 12 NOON.", "nsi_id": "unitedstatespostalservice-a77078", "operator": "United States Postal Service", "operator:short": "USPS", "operator:type": "public", "operator:wikidata": "Q668687", "ref": "0460900013"}, "type": "Feature"}
{"dataset_attributes": {"@spider": "usps_collection_boxes", "spider:collection_time": "2023-11-07T08:25:32.615229"}, "geometry": {"coordinates": [-68.207214651, 44.389430307], "type": "Point"}, "id": "4VmhbWdEh1ItOFoKbnag1u9daA4=", "properties": {"@spider": "usps_collection_boxes", "addr:city": "BAR HARBOR", "addr:country": "US", "addr:full": "55 COTTAGE ST", "addr:postcode": "04609", "addr:state": "ME", "amenity": "post_box", "brand": "United States Postal Service", "brand:wikidata": "Q668687", "collection_times": "Mo-Fr 16:30; Sa 12:00", "name": "USPS COLLECTION BOX - PO LOBBY", "note": "ON 12/24 AND 12/31, THIS BOX MAY BE COLLECTED AS EARLY AS 12 NOON.", "nsi_id": "unitedstatespostalservice-a77078", "operator": "United States Postal Service", "operator:short": "USPS", "operator:type": "public", "operator:wikidata": "Q668687", "ref": "0460900016"}, "type": "Feature"}
{"dataset_attributes": {"@spider": "usps_collection_boxes", "spider:collection_time": "2023-11-07T08:25:32.615229"}, "geometry": {"coordinates": [-67.611673, 44.519523], "type": "Point"}, "id": "hC0aponBowB5Ab8V5c2zjl3WJcQ=", "properties": {"@spider": "usps_collection_boxes", "addr:city": "BEALS", "addr:country": "US", "addr:full": "43 BAYVIEW DR", "addr:postcode": "04611", "addr:state": "ME", "amenity": "post_box", "brand": "United States Postal Service", "brand:wikidata": "Q668687", "collection_times": "Mo-Fr 16:15; Sa 11:30", "name": "USPS COLLECTION BOX - BLUE BOX", "note": "ON 12/24 AND 12/31, THIS BOX MAY BE COLLECTED AS EARLY AS 12 NOON.", "nsi_id": "unitedstatespostalservice-a77078", "operator": "United States Postal Service", "operator:short": "USPS", "operator:type": "public", "operator:wikidata": "Q668687", "ref": "0461100001"}, "type": "Feature"}
{"dataset_attributes": {"@spider": "usps_collection_boxes", "spider:collection_time": "2023-11-07T08:25:32.615229"}, "geometry": {"coordinates": [-67.611657, 44.519582], "type": "Point"}, "id": "nUil4Q2OPj2AWEQLmHG5ytyr8qw=", "properties": {"@spider": "usps_collection_boxes", "addr:city": "BEALS", "addr:country": "US", "addr:full": "43 BAYVIEW DR", "addr:postcode": "04611", "addr:state": "ME", "amenity": "post_box", "brand": "United States Postal Service", "brand:wikidata": "Q668687", "collection_times": "Mo-Fr 16:00; Sa 11:30", "name": "USPS COLLECTION BOX - PO LOBBY", "note": "ON 12/24 AND 12/31, THIS BOX MAY BE COLLECTED AS EARLY AS 12 NOON.", "nsi_id": "unitedstatespostalservice-a77078", "operator": "United States Postal Service", "operator:short": "USPS", "operator:type": "public", "operator:wikidata": "Q668687", "ref": "0461100002"}, "type": "Feature"}
{"dataset_attributes": {"@spider": "usps_collection_boxes", "spider:collection_time": "2023-11-07T08:25:32.615229"}, "geometry": {"coordinates": [-67.61168529, 44.519531815], "type": "Point"}, "id": "rM-_bWKQtAFOXo02hv9uOP1Sefk=", "properties": {"@spider": "usps_collection_boxes", "addr:city": "BEALS", "addr:country": "US", "addr:full": "43 BAYVIEW DR", "addr:postcode": "04611", "addr:state": "ME", "amenity": "post_box", "brand": "United States Postal Service", "brand:wikidata": "Q668687", "collection_times": "Mo-Fr 16:15; Sa 11:45", "name": "USPS COLLECTION BOX - PO LOBBY", "note": "ON 12/24 AND 12/31, THIS BOX MAY BE COLLECTED AS EARLY AS 12 NOON.", "nsi_id": "unitedstatespostalservice-a77078", "operator": "United States Postal Service", "operator:short": "USPS", "operator:type": "public", "operator:wikidata": "Q668687", "ref": "0461100004"}, "type": "Feature"}
{"dataset_attributes": {"@spider": "usps_collection_boxes", "spider:collection_time": "2023-11-07T08:25:32.615229"}, "geometry": {"coordinates": [-68.356541, 44.242894], "type": "Point"}, "id": "9cI6bcR0oOQ0Ser4fi4111BiDXE=", "properties": {"@spider": "usps_collection_boxes", "addr:city": "BERNARD", "addr:country": "US", "addr:full": "71 BERNARD RD", "addr:postcode": "04612", "addr:state": "ME", "amenity": "post_box", "brand": "United States Postal Service", "brand:wikidata": "Q668687", "collection_times": "Mo-Fr 15:00; Sa 11:45", "name": "USPS COLLECTION BOX - BLUE BOX", "note": "ON 12/24 AND 12/31, THIS BOX MAY BE COLLECTED AS EARLY AS 12 NOON.", "nsi_id": "unitedstatespostalservice-a77078", "operator": "United States Postal Service", "operator:short": "USPS", "operator:type": "public", "operator:wikidata": "Q668687", "ref": "0461200001"}, "type": "Feature"}
{"dataset_attributes": {"@spider": "usps_collection_boxes", "spider:collection_time": "2023-11-07T08:25:32.615229"}, "geometry": {"coordinates": [-68.356579, 44.242984], "type": "Point"}, "id": "LeaJsWpxklSo1naZjyBB_LBmbSY=", "properties": {"@spider": "usps_collection_boxes", "addr:city": "BERNARD", "addr:country": "US", "addr:full": "71 BERNARD RD", "addr:postcode": "04612", "addr:state": "ME", "amenity": "post_box", "brand": "United States Postal Service", "brand:wikidata": "Q668687", "collection_times": "Mo-Fr 15:00; Sa 11:45", "name": "USPS COLLECTION BOX - PO LOBBY", "note": "ON 12/24 AND 12/31, THIS BOX MAY BE COLLECTED AS EARLY AS 12 NOON.", "nsi_id": "unitedstatespostalservice-a77078", "operator": "United States Postal Service", "operator:short": "USPS", "operator:type": "public", "operator:wikidata": "Q668687", "ref": "0461200002"}, "type": "Feature"}
{"dataset_attributes": {"@spider": "usps_collection_boxes", "spider:collection_time": "2023-11-07T08:25:32.615229"}, "geometry": {"coordinates": [-68.356564573, 44.242861171], "type": "Point"}, "id": "ii0jiMjyMFXXxxz9v4ltrpDdPRc=", "properties": {"@spider": "usps_collection_boxes", "addr:city": "BERNARD", "addr:country": "US", "addr:full": "71 BERNARD RD", "addr:postcode": "04612", "addr:state": "ME", "amenity": "post_box", "brand": "United States Postal Service", "brand:wikidata": "Q668687", "collection_times": "Mo-Fr 15:00; Sa 11:30", "name": "USPS COLLECTION BOX - PO LOBBY", "note": "ON 12/24 AND 12/31, THIS BOX MAY BE COLLECTED AS EARLY AS 12 NOON.", "nsi_id": "unitedstatespostalservice-a77078", "operator": "United States Postal Service", "operator:short": "USPS", "operator:type": "public", "operator:wikidata": "Q668687", "ref": "0461200005"}, "type": "Feature"}
{"dataset_attributes": {"@spider": "usps_collection_boxes", "spider:collection_time": "2023-11-07T08:25:32.615229"}, "geometry": {"coordinates": [-68.0404099953, 44.3891239839], "type": "Point"}, "id": "QAXVx-hKwz9aie_ZF2hWMajTxVU=", "properties": {"@spider": "usps_collection_boxes", "addr:city": "BIRCH HARBOR", "addr:country": "US", "addr:full": "3 E SCHOODIC DR", "addr:postcode": "04613", "addr:state": "ME", "amenity": "post_box", "brand": "United States Postal Service", "brand:wikidata": "Q668687", "collection_times": "Mo-Fr 15:45; Sa 11:45", "name": "USPS COLLECTION BOX - BLUE BOX", "note": "ON 12/24 AND 12/31, THIS BOX MAY BE COLLECTED AS EARLY AS 12 NOON.", "nsi_id": "unitedstatespostalservice-a77078", "operator": "United States Postal Service", "operator:short": "USPS", "operator:type": "public", "operator:wikidata": "Q668687", "ref": "0461300001"}, "type": "Feature"}
{"dataset_attributes": {"@spider": "usps_collection_boxes", "spider:collection_time": "2023-11-07T08:25:32.615229"}, "geometry": {"coordinates": [-68.0404099953, 44.3891239839], "type": "Point"}, "id": "BI7w7BAxw3p3cEfVPq5GNUJx-Go=", "properties": {"@spider": "usps_collection_boxes", "addr:city": "BIRCH HARBOR", "addr:country": "US", "addr:full": "3 E SCHOODIC DR", "addr:postcode": "04613", "addr:state": "ME", "amenity": "post_box", "brand": "United States Postal Service", "brand:wikidata": "Q668687", "collection_times": "Mo-Fr 15:45; Sa 11:45", "name": "USPS COLLECTION BOX - PO LOBBY", "note": "ON 12/24 AND 12/31, THIS BOX MAY BE COLLECTED AS EARLY AS 12 NOON.", "nsi_id": "unitedstatespostalservice-a77078", "operator": "United States Postal Service", "operator:short": "USPS", "operator:type": "public", "operator:wikidata": "Q668687", "ref": "0461300003"}, "type": "Feature"}
{"dataset_attributes": {"@spider": "usps_collection_boxes", "spider:collection_time": "2023-11-07T08:25:32.615229"}, "geometry": {"coordinates": [-68.0404099953, 44.3891239839], "type": "Point"}, "id": "JDx0ofMUhXx0hL_E_Lk3VisX4FA=", "properties": {"@spider": "usps_collection_boxes", "addr:city": "BIRCH HARBOR", "addr:country": "US", "addr:full": "3 E SCHOODIC DR", "addr:postcode": "04613", "addr:state": "ME", "amenity": "post_box", "brand": "United States Postal Service", "brand:wikidata": "Q668687", "collection_times": "Mo-Fr 15:45; Sa 11:45", "name": "USPS COLLECTION BOX - PO LOBBY", "note": "ON 12/24 AND 12/31, THIS BOX MAY BE COLLECTED AS EARLY AS 12 NOON.", "nsi_id": "unitedstatespostalservice-a77078", "operator": "United States Postal Service", "operator:short": "USPS", "operator:type": "public", "operator:wikidata": "Q668687", "ref": "0461300007"}, "type": "Feature"}
{"dataset_attributes": {"@spider": "usps_collection_boxes", "spider:collection_time": "2023-11-07T08:25:32.615229"}, "geometry": {"coordinates": [-68.5860883, 44.414758], "type": "Point"}, "id": "g8Tu35ov2cw3TwDBxg8XyQB0eY8=", "properties": {"@spider": "usps_collection_boxes", "addr:city": "BLUE HILL", "addr:country": "US", "addr:full": "104 MAIN ST", "addr:postcode": "04614", "addr:state": "ME", "amenity": "post_box", "brand": "United States Postal Service", "brand:wikidata": "Q668687", "collection_times": "Mo-Fr 16:00; Sa 12:00", "name": "USPS COLLECTION BOX - BLUE BOX", "note": "ON 12/24 AND 12/31, THIS BOX MAY BE COLLECTED AS EARLY AS 12 NOON.", "nsi_id": "unitedstatespostalservice-a77078", "operator": "United States Postal Service", "operator:short": "USPS", "operator:type": "public", "operator:wikidata": "Q668687", "ref": "0461400001"}, "type": "Feature"}
{"dataset_attributes": {"@spider": "usps_collection_boxes", "spider:collection_time": "2023-11-07T08:25:32.615229"}, "geometry": {"coordinates": [-68.5859255, 44.414462], "type": "Point"}, "id": "izm8SEKyYYLm9grODfGjTvcAXLE=", "properties": {"@spider": "usps_collection_boxes", "addr:city": "BLUE HILL", "addr:country": "US", "addr:full": "104 MAIN ST", "addr:postcode": "04614", "addr:state": "ME", "amenity": "post_box", "brand": "United States Postal Service", "brand:wikidata": "Q668687", "collection_times": "Mo-Fr 16:00; Sa 12:00", "name": "USPS COLLECTION BOX - BLUE BOX", "note": "ON 12/24 AND 12/31, THIS BOX MAY BE COLLECTED AS EARLY AS 12 NOON.", "nsi_id": "unitedstatespostalservice-a77078", "operator": "United States Postal Service", "operator:short": "USPS", "operator:type": "public", "operator:wikidata": "Q668687", "ref": "0461400002"}, "type": "Feature"}
{"dataset_attributes": {"@spider": "usps_collection_boxes", "spider:collection_time": "2023-11-07T08:25:32.615229"}, "geometry": {"coordinates": [-68.5861303, 44.414855], "type": "Point"}, "id": "NKKxj9B0Z7Z6s6hJOtt-pMyNYks=", "properties": {"@spider": "usps_collection_boxes", "addr:city": "BLUE HILL", "addr:country": "US", "addr:full": "104 MAIN ST", "addr:postcode": "04614", "addr:state": "ME", "amenity": "post_box", "brand": "United States Postal Service", "brand:wikidata": "Q668687", "collection_times": "Mo-Fr 16:15; Sa 12:00", "name": "USPS COLLECTION BOX - PO LOBBY", "note": "ON 12/24 AND 12/31, THIS BOX MAY BE COLLECTED AS EARLY AS 12 NOON.", "nsi_id": "unitedstatespostalservice-a77078", "operator": "United States Postal Service", "operator:short": "USPS", "operator:type": "public", "operator:wikidata": "Q668687", "ref": "0461400003"}, "type": "Feature"}
{"dataset_attributes": {"@spider": "usps_collection_boxes", "spider:collection_time": "2023-11-07T08:25:32.615229"}, "geometry": {"coordinates": [-68.586113, 44.414857], "type": "Point"}, "id": "CreB0YoVGcx4skyp5sHuY7mcU40=", "properties": {"@spider": "usps_collection_boxes", "addr:city": "BLUE HILL", "addr:country": "US", "addr:full": "104 MAIN ST", "addr:postcode": "04614", "addr:state": "ME", "amenity": "post_box", "brand": "United States Postal Service", "brand:wikidata": "Q668687", "collection_times": "Mo-Fr 16:15; Sa 12:00", "name": "USPS COLLECTION BOX - PO LOBBY", "note": "ON 12/24 AND 12/31, THIS BOX MAY BE COLLECTED AS EARLY AS 12 NOON.", "nsi_id": "unitedstatespostalservice-a77078", "operator": "United States Postal Service", "operator:short": "USPS", "operator:type": "public", "operator:wikidata": "Q668687", "ref": "0461400004"}, "type": "Feature"}
{"dataset_attributes": {"@spider": "usps_collection_boxes", "spider:collection_time": "2023-11-07T08:25:32.615229"}, "geometry": {"coordinates": [-68.585922822, 44.41439964], "type": "Point"}, "id": "vwIr1_vgNrj0hmDzvCkLDseqFXU=", "properties": {"@spider": "usps_collection_boxes", "addr:city": "BLUE HILL", "addr:country": "US", "addr:full": "104 MAIN ST", "addr:postcode": "04614", "addr:state": "ME", "amenity": "post_box", "brand": "United States Postal Service", "brand:wikidata": "Q668687", "collection_times": "Mo-Fr 16:30; Sa 11:30", "name": "USPS COLLECTION BOX - PO LOBBY", "note": "ON 12/24 AND 12/31, THIS BOX MAY BE COLLECTED AS EARLY AS 12 NOON.", "nsi_id": "unitedstatespostalservice-a77078", "operator": "United States Postal Service", "operator:short": "USPS", "operator:type": "public", "operator:wikidata": "Q668687", "ref": "0461400005"}, "type": "Feature"}
{"dataset_attributes": {"@spider": "usps_collection_boxes", "spider:collection_time": "2023-11-07T08:25:32.615229"}, "geometry": {"coordinates": [-68.570621, 44.265846], "type": "Point"}, "id": "qn0JGiBE1mtsCCvgL389zVCfWGM=", "properties": {"@spider": "usps_collection_boxes", "addr:city": "BROOKLIN", "addr:country": "US", "addr:full": "26 REACH RD", "addr:postcode": "04616", "addr:state": "ME", "amenity": "post_box", "brand": "United States Postal Service", "brand:wikidata": "Q668687", "collection_times": "Mo-Fr 15:40; Sa 11:15", "name": "USPS COLLECTION BOX - BLUE BOX", "note": "ON 12/24 AND 12/31, THIS BOX MAY BE COLLECTED AS EARLY AS 12 NOON.", "nsi_id": "unitedstatespostalservice-a77078", "operator": "United States Postal Service", "operator:short": "USPS", "operator:type": "public", "operator:wikidata": "Q668687", "ref": "0461600001"}, "type": "Feature"}
{"dataset_attributes": {"@spider": "usps_collection_boxes", "spider:collection_time": "2023-11-07T08:25:32.615229"}, "geometry": {"coordinates": [-68.57075, 44.265861], "type": "Point"}, "id": "tmuub7uFVcJ1JjJWdjx1O9C6F_I=", "properties": {"@spider": "usps_collection_boxes", "addr:city": "BROOKLIN", "addr:country": "US", "addr:full": "26 REACH RD", "addr:postcode": "04616", "addr:state": "ME", "amenity": "post_box", "brand": "United States Postal Service", "brand:wikidata": "Q668687", "collection_times": "Mo-Fr 15:40; Sa 11:15", "name": "USPS COLLECTION BOX - PO LOBBY", "note": "ON 12/24 AND 12/31, THIS BOX MAY BE COLLECTED AS EARLY AS 12 NOON.", "nsi_id": "unitedstatespostalservice-a77078", "operator": "United States Postal Service", "operator:short": "USPS", "operator:type": "public", "operator:wikidata": "Q668687", "ref": "0461600002"}, "type": "Feature"}
{"dataset_attributes": {"@spider": "usps_collection_boxes", "spider:collection_time": "2023-11-07T08:25:32.615229"}, "geometry": {"coordinates": [-68.57158049, 44.265740627], "type": "Point"}, "id": "S-tRThRXvVzW20Nr73O4O1pd5wo=", "properties": {"@spider": "usps_collection_boxes", "addr:city": "BROOKLIN", "addr:country": "US", "addr:full": "26 REACH RD", "addr:postcode": "04616", "addr:state": "ME", "amenity": "post_box", "brand": "United States Postal Service", "brand:wikidata": "Q668687", "collection_times": "Mo-Fr 16:00; Sa 11:00", "name": "USPS COLLECTION BOX - PO LOBBY", "note": "ON 12/24 AND 12/31, THIS BOX MAY BE COLLECTED AS EARLY AS 12 NOON.", "nsi_id": "unitedstatespostalservice-a77078", "operator": "United States Postal Service", "operator:short": "USPS", "operator:type": "public", "operator:wikidata": "Q668687", "ref": "0461600004"}, "type": "Feature"}
{"dataset_attributes": {"@spider": "usps_collection_boxes", "spider:collection_time": "2023-11-07T08:25:32.615229"}, "geometry": {"coordinates": [-68.751106, 44.353883], "type": "Point"}, "id": "cetmgxdPOGib0m5vprGX_B9ce5Q=", "properties": {"@spider": "usps_collection_boxes", "addr:city": "BROOKSVILLE", "addr:country": "US", "addr:full": "945 COASTAL RD", "addr:postcode": "04617", "addr:state": "ME", "amenity": "post_box", "brand": "United States Postal Service", "brand:wikidata": "Q668687", "collection_times": "Mo-Fr 14:45; Sa 10:30", "name": "USPS COLLECTION BOX - BLUE BOX", "note": "ON 12/24 AND 12/31, THIS BOX MAY BE COLLECTED AS EARLY AS 12 NOON.", "nsi_id": "unitedstatespostalservice-a77078", "operator": "United States Postal Service", "operator:short": "USPS", "operator:type": "public", "operator:wikidata": "Q668687", "ref": "0461700001"}, "type": "Feature"}
{"dataset_attributes": {"@spider": "usps_collection_boxes", "spider:collection_time": "2023-11-07T08:25:32.615229"}, "geometry": {"coordinates": [-68.751146, 44.353874], "type": "Point"}, "id": "bd6dbta85RqjxhOqEV98cqUtpxc=", "properties": {"@spider": "usps_collection_boxes", "addr:city": "BROOKSVILLE", "addr:country": "US", "addr:full": "945 COASTAL RD", "addr:postcode": "04617", "addr:state": "ME", "amenity": "post_box", "brand": "United States Postal Service", "brand:wikidata": "Q668687", "collection_times": "Mo-Fr 14:45; Sa 10:30", "name": "USPS COLLECTION BOX - PO LOBBY", "note": "ON 12/24 AND 12/31, THIS BOX MAY BE COLLECTED AS EARLY AS 12 NOON.", "nsi_id": "unitedstatespostalservice-a77078", "operator": "United States Postal Service", "operator:short": "USPS", "operator:type": "public", "operator:wikidata": "Q668687", "ref": "0461700002"}, "type": "Feature"}
{"dataset_attributes": {"@spider": "usps_collection_boxes", "spider:collection_time": "2023-11-07T08:25:32.615229"}, "geometry": {"coordinates": [-68.751146, 44.353874], "type": "Point"}, "id": "8BzkEfY9hQGBNjmk7VQwsr66fZc=", "properties": {"@spider": "usps_collection_boxes", "addr:city": "BROOKSVILLE", "addr:country": "US", "addr:full": "945 COASTAL RD", "addr:postcode": "04617", "addr:state": "ME", "amenity": "post_box", "brand": "United States Postal Service", "brand:wikidata": "Q668687", "collection_times": "Mo-Fr 14:45; Sa 10:30", "name": "USPS COLLECTION BOX - PO LOBBY", "note": "ON 12/24 AND 12/31, THIS BOX MAY BE COLLECTED AS EARLY AS 12 NOON.", "nsi_id": "unitedstatespostalservice-a77078", "operator": "United States Postal Service", "operator:short": "USPS", "operator:type": "public", "operator:wikidata": "Q668687", "ref": "0461700003"}, "type": "Feature"}
{"dataset_attributes": {"@spider": "usps_collection_boxes", "spider:collection_time": "2023-11-07T08:25:32.615229"}, "geometry": {"coordinates": [-68.751167951, 44.352731682], "type": "Point"}, "id": "1bbi8iMGJVee247_r4f0P9O3FG4=", "properties": {"@spider": "usps_collection_boxes", "addr:city": "BROOKSVILLE", "addr:country": "US", "addr:full": "945 COASTAL RD", "addr:postcode": "04617", "addr:state": "ME", "amenity": "post_box", "brand": "United States Postal Service", "brand:wikidata": "Q668687", "collection_times": "Mo-Fr 14:30; Sa 10:30", "name": "USPS COLLECTION BOX - PO LOBBY", "note": "ON 12/24 AND 12/31, THIS BOX MAY BE COLLECTED AS EARLY AS 12 NOON.", "nsi_id": "unitedstatespostalservice-a77078", "operator": "United States Postal Service", "operator:short": "USPS", "operator:type": "public", "operator:wikidata": "Q668687", "ref": "0461700004"}, "type": "Feature"}
{"dataset_attributes": {"@spider": "usps_collection_boxes", "spider:collection_time": "2023-11-07T08:25:32.615229"}, "geometry": {"coordinates": [-67.278708, 45.186786], "type": "Point"}, "id": "DDmhpQ2tYFPb_WLoadFCii21GjE=", "properties": {"@spider": "usps_collection_boxes", "addr:city": "CALAIS", "addr:country": "US", "addr:full": "14 WASHINGTON ST", "addr:postcode": "04619", "addr:state": "ME", "amenity": "post_box", "brand": "United States Postal Service", "brand:wikidata": "Q668687", "collection_times": "Mo-Fr 16:30; Sa 12:00", "name": "USPS COLLECTION BOX - BLUE BOX", "note": "ON 12/24 AND 12/31, THIS BOX MAY BE COLLECTED AS EARLY AS 12 NOON.", "nsi_id": "unitedstatespostalservice-a77078", "operator": "United States Postal Service", "operator:short": "USPS", "operator:type": "public", "operator:wikidata": "Q668687", "ref": "0461900005"}, "type": "Feature"}
{"dataset_attributes": {"@spider": "usps_collection_boxes", "spider:collection_time": "2023-11-07T08:25:32.615229"}, "geometry": {"coordinates": [-67.2786773671, 45.1868217724], "type": "Point"}, "id": "555Pr_gKYk0D8s6h4VMWJ29qbNw=", "properties": {"@spider": "usps_collection_boxes", "addr:city": "CALAIS", "addr:country": "US", "addr:full": "14 WASHINGTON ST", "addr:postcode": "04619", "addr:state": "ME", "amenity": "post_box", "brand": "United States Postal Service", "brand:wikidata": "Q668687", "collection_times": "Mo-Fr 16:30; Sa 12:00", "name": "USPS COLLECTION BOX - BLUE BOX", "note": "ON 12/24 AND 12/31, THIS BOX MAY BE COLLECTED AS EARLY AS 12 NOON.", "nsi_id": "unitedstatespostalservice-a77078", "operator": "United States Postal Service", "operator:short": "USPS", "operator:type": "public", "operator:wikidata": "Q668687", "ref": "0461900007"}, "type": "Feature"}
{"dataset_attributes": {"@spider": "usps_collection_boxes", "spider:collection_time": "2023-11-07T08:25:32.615229"}, "geometry": {"coordinates": [-67.27972, 45.187247], "type": "Point"}, "id": "TX1t6BwUnB7SyMO_P_v5AkdoikU=", "properties": {"@spider": "usps_collection_boxes", "addr:city": "CALAIS", "addr:country": "US", "addr:full": "76 NORTH ST", "addr:postcode": "04619", "addr:state": "ME", "amenity": "post_box", "brand": "United States Postal Service", "brand:wikidata": "Q668687", "collection_times": "Mo-Fr 16:30; Sa 12:00", "name": "USPS COLLECTION BOX - PO LOBBY", "note": "ON 12/24 AND 12/31, THIS BOX MAY BE COLLECTED AS EARLY AS 12 NOON.", "nsi_id": "unitedstatespostalservice-a77078", "operator": "United States Postal Service", "operator:short": "USPS", "operator:type": "public", "operator:wikidata": "Q668687", "ref": "0461900009"}, "type": "Feature"}
{"dataset_attributes": {"@spider": "usps_collection_boxes", "spider:collection_time": "2023-11-07T08:25:32.615229"}, "geometry": {"coordinates": [-67.279686789, 45.187233988], "type": "Point"}, "id": "zdBjjyLJUbY8DrNkXvwUD5lZpDQ=", "properties": {"@spider": "usps_collection_boxes", "addr:city": "CALAIS", "addr:country": "US", "addr:full": "76 NORTH ST", "addr:postcode": "04619", "addr:state": "ME", "amenity": "post_box", "brand": "United States Postal Service", "brand:wikidata": "Q668687", "collection_times": "Mo-Fr 16:30; Sa 12:00", "name": "USPS COLLECTION BOX - PO LOBBY", "note": "ON 12/24 AND 12/31, THIS BOX MAY BE COLLECTED AS EARLY AS 12 NOON.", "nsi_id": "unitedstatespostalservice-a77078", "operator": "United States Postal Service", "operator:short": "USPS", "operator:type": "public", "operator:wikidata": "Q668687", "ref": "0461900010"}, "type": "Feature"}
{"dataset_attributes": {"@spider": "usps_collection_boxes", "spider:collection_time": "2023-11-07T08:25:32.615229"}, "geometry": {"coordinates": [-67.9188488, 44.597835], "type": "Point"}, "id": "DZXkFk1OD0O0lmP_tnLLOW7yhf4=", "properties": {"@spider": "usps_collection_boxes", "addr:city": "CHERRYFIELD", "addr:country": "US", "addr:full": "14 MUNICIPAL WAY", "addr:postcode": "04622", "addr:state": "ME", "amenity": "post_box", "brand": "United States Postal Service", "brand:wikidata": "Q668687", "collection_times": "Mo-Fr 15:30; Sa 11:15", "name": "USPS COLLECTION BOX - BLUE BOX", "note": "ON 12/24 AND 12/31, THIS BOX MAY BE COLLECTED AS EARLY AS 12 NOON.", "nsi_id": "unitedstatespostalservice-a77078", "operator": "United States Postal Service", "operator:short": "USPS", "operator:type": "public", "operator:wikidata": "Q668687", "ref": "0462200001"}, "type": "Feature"}
{"dataset_attributes": {"@spider": "usps_collection_boxes", "spider:collection_time": "2023-11-07T08:25:32.615229"}, "geometry": {"coordinates": [-67.9187331, 44.597826], "type": "Point"}, "id": "fMEFNyAG9Ssu3JCytk0g5bIQ02U=", "properties": {"@spider": "usps_collection_boxes", "addr:city": "CHERRYFIELD", "addr:country": "US", "addr:full": "14 MUNICIPAL WAY", "addr:postcode": "04622", "addr:state": "ME", "amenity": "post_box", "brand": "United States Postal Service", "brand:wikidata": "Q668687", "collection_times": "Mo-Fr 15:30; Sa 11:15", "name": "USPS COLLECTION BOX - PO LOBBY", "note": "ON 12/24 AND 12/31, THIS BOX MAY BE COLLECTED AS EARLY AS 12 NOON.", "nsi_id": "unitedstatespostalservice-a77078", "operator": "United States Postal Service", "operator:short": "USPS", "operator:type": "public", "operator:wikidata": "Q668687", "ref": "0462200002"}, "type": "Feature"}
{"dataset_attributes": {"@spider": "usps_collection_boxes", "spider:collection_time": "2023-11-07T08:25:32.615229"}, "geometry": {"coordinates": [-67.920089385, 44.597591601], "type": "Point"}, "id": "EyiSpBcffHaJ7SREaoSYc509OxM=", "properties": {"@spider": "usps_collection_boxes", "addr:city": "CHERRYFIELD", "addr:country": "US", "addr:full": "14 MUNICIPAL WAY", "addr:postcode": "04622", "addr:state": "ME", "amenity": "post_box", "brand": "United States Postal Service", "brand:wikidata": "Q668687", "collection_times": "Mo-Fr 15:30; Sa 11:00", "name": "USPS COLLECTION BOX - PO LOBBY", "note": "ON 12/24 AND 12/31, THIS BOX MAY BE COLLECTED AS EARLY AS 12 NOON.", "nsi_id": "unitedstatespostalservice-a77078", "operator": "United States Postal Service", "operator:short": "USPS", "operator:type": "public", "operator:wikidata": "Q668687", "ref": "0462200004"}, "type": "Feature"}
{"dataset_attributes": {"@spider": "usps_collection_boxes", "spider:collection_time": "2023-11-07T08:25:32.615229"}, "geometry": {"coordinates": [-67.728475, 44.653184], "type": "Point"}, "id": "_58abuHJ9HnDUFe3XqGNdYn01qc=", "properties": {"@spider": "usps_collection_boxes", "addr:city": "COLUMBIA FALLS", "addr:country": "US", "addr:full": "169 MAIN ST", "addr:postcode": "04623", "addr:state": "ME", "amenity": "post_box", "brand": "United States Postal Service", "brand:wikidata": "Q668687", "collection_times": "Mo-Fr 14:30; Sa 10:30", "name": "USPS COLLECTION BOX - BLUE BOX", "note": "ON 12/24 AND 12/31, THIS BOX MAY BE COLLECTED AS EARLY AS 12 NOON.", "nsi_id": "unitedstatespostalservice-a77078", "operator": "United States Postal Service", "operator:short": "USPS", "operator:type": "public", "operator:wikidata": "Q668687", "ref": "0462300001"}, "type": "Feature"}
{"dataset_attributes": {"@spider": "usps_collection_boxes", "spider:collection_time": "2023-11-07T08:25:32.615229"}, "geometry": {"coordinates": [-67.728475, 44.653184], "type": "Point"}, "id": "64maFSx7c6N0ZGuC7Hx7r60d5JI=", "properties": {"@spider": "usps_collection_boxes", "addr:city": "COLUMBIA FALLS", "addr:country": "US", "addr:full": "169 MAIN ST", "addr:postcode": "04623", "addr:state": "ME", "amenity": "post_box", "brand": "United States Postal Service", "brand:wikidata": "Q668687", "collection_times": "Mo-Fr 14:30; Sa 10:30", "name": "USPS COLLECTION BOX - PO LOBBY", "note": "ON 12/24 AND 12/31, THIS BOX MAY BE COLLECTED AS EARLY AS 12 NOON.", "nsi_id": "unitedstatespostalservice-a77078", "operator": "United States Postal Service", "operator:short": "USPS", "operator:type": "public", "operator:wikidata": "Q668687", "ref": "0462300002"}, "type": "Feature"}
{"dataset_attributes": {"@spider": "usps_collection_boxes", "spider:collection_time": "2023-11-07T08:25:32.615229"}, "geometry": {"coordinates": [-67.72823199, 44.653335842], "type": "Point"}, "id": "rRZEqDyW5q7v-EF8zr9LkevUTUM=", "properties": {"@spider": "usps_collection_boxes", "addr:city": "COLUMBIA FALLS", "addr:country": "US", "addr:full": "169 MAIN ST", "addr:postcode": "04623", "addr:state": "ME", "amenity": "post_box", "brand": "United States Postal Service", "brand:wikidata": "Q668687", "collection_times": "Mo-Fr 14:30; Sa 10:30", "name": "USPS COLLECTION BOX - PO LOBBY", "note": "ON 12/24 AND 12/31, THIS BOX MAY BE COLLECTED AS EARLY AS 12 NOON.", "nsi_id": "unitedstatespostalservice-a77078", "operator": "United States Postal Service", "operator:short": "USPS", "operator:type": "public", "operator:wikidata": "Q668687", "ref": "0462300004"}, "type": "Feature"}
{"dataset_attributes": {"@spider": "usps_collection_boxes", "spider:collection_time": "2023-11-07T08:25:32.615229"}, "geometry": {"coordinates": [-67.975307, 44.400676], "type": "Point"}, "id": "C6vQnxnYrPrTK92bChqMuq5PH_Q=", "properties": {"@spider": "usps_collection_boxes", "addr:city": "COREA", "addr:country": "US", "addr:full": "646 COREA RD", "addr:postcode": "04624", "addr:state": "ME", "amenity": "post_box", "brand": "United States Postal Service", "brand:wikidata": "Q668687", "collection_times": "Mo-Fr 15:30; Sa 11:30", "name": "USPS COLLECTION BOX - BLUE BOX", "note": "ON 12/24 AND 12/31, THIS BOX MAY BE COLLECTED AS EARLY AS 12 NOON.", "nsi_id": "unitedstatespostalservice-a77078", "operator": "United States Postal Service", "operator:short": "USPS", "operator:type": "public", "operator:wikidata": "Q668687", "ref": "0462400001"}, "type": "Feature"}
{"dataset_attributes": {"@spider": "usps_collection_boxes", "spider:collection_time": "2023-11-07T08:25:32.615229"}, "geometry": {"coordinates": [-67.97542, 44.400724], "type": "Point"}, "id": "PeQEjBOsVcZwsoq3mLpQRZkbqbM=", "properties": {"@spider": "usps_collection_boxes", "addr:city": "COREA", "addr:country": "US", "addr:full": "646 COREA RD", "addr:postcode": "04624", "addr:state": "ME", "amenity": "post_box", "brand": "United States Postal Service", "brand:wikidata": "Q668687", "collection_times": "Mo-Fr 15:30; Sa 11:30", "name": "USPS COLLECTION BOX - PO LOBBY", "note": "ON 12/24 AND 12/31, THIS BOX MAY BE COLLECTED AS EARLY AS 12 NOON.", "nsi_id": "unitedstatespostalservice-a77078", "operator": "United States Postal Service", "operator:short": "USPS", "operator:type": "public", "operator:wikidata": "Q668687", "ref": "0462400002"}, "type": "Feature"}
{"dataset_attributes": {"@spider": "usps_collection_boxes", "spider:collection_time": "2023-11-07T08:25:32.615229"}, "geometry": {"coordinates": [-67.975326055, 44.400712158], "type": "Point"}, "id": "sWXqnKe5PhUf0SuGu_Et6DzAXCA=", "properties": {"@spider": "usps_collection_boxes", "addr:city": "COREA", "addr:country": "US", "addr:full": "646 COREA RD", "addr:postcode": "04624", "addr:state": "ME", "amenity": "post_box", "brand": "United States Postal Service", "brand:wikidata": "Q668687", "collection_times": "Mo-Fr 15:30; Sa 11:30", "name": "USPS COLLECTION BOX - PO LOBBY", "note": "ON 12/24 AND 12/31, THIS BOX MAY BE COLLECTED AS EARLY AS 12 NOON.", "nsi_id": "unitedstatespostalservice-a77078", "operator": "United States Postal Service", "operator:short": "USPS", "operator:type": "public", "operator:wikidata": "Q668687", "ref": "0462400003"}, "type": "Feature"}
{"dataset_attributes": {"@spider": "usps_collection_boxes", "spider:collection_time": "2023-11-07T08:25:32.615229"}, "geometry": {"coordinates": [-68.267849588, 44.2461756163], "type": "Point"}, "id": "wptAhzJ3kx_lenBiv4hAH4KpclM=", "properties": {"@spider": "usps_collection_boxes", "addr:city": "CRANBERRY ISLES", "addr:country": "US", "addr:full": "1 FRENCHMAN BAY", "addr:postcode": "04625", "addr:state": "ME", "amenity": "post_box", "brand": "United States Postal Service", "brand:wikidata": "Q668687", "collection_times": "Mo-Sa 08:00", "name": "USPS COLLECTION BOX - BLUE BOX", "nsi_id": "unitedstatespostalservice-a77078", "operator": "United States Postal Service", "operator:short": "USPS", "operator:type": "public", "operator:wikidata": "Q668687", "ref": "0462500001"}, "type": "Feature"}
{"dataset_attributes": {"@spider": "usps_collection_boxes", "spider:collection_time": "2023-11-07T08:25:32.615229"}, "geometry": {"coordinates": [-68.267849588, 44.2461756163], "type": "Point"}, "id": "EPgo_kE5AZ2-WmHWDGWOOchwAKg=", "properties": {"@spider": "usps_collection_boxes", "addr:city": "CRANBERRY ISLES", "addr:country": "US", "addr:full": "1 FRENCHMAN BAY", "addr:postcode": "04625", "addr:state": "ME", "amenity": "post_box", "brand": "United States Postal Service", "brand:wikidata": "Q668687", "collection_times": "Mo-Sa 08:30", "name": "USPS COLLECTION BOX - PO LOBBY", "nsi_id": "unitedstatespostalservice-a77078", "operator": "United States Postal Service", "operator:short": "USPS", "operator:type": "public", "operator:wikidata": "Q668687", "ref": "0462500002"}, "type": "Feature"}
{"dataset_attributes": {"@spider": "usps_collection_boxes", "spider:collection_time": "2023-11-07T08:25:32.615229"}, "geometry": {"coordinates": [-68.268624038, 44.247055], "type": "Point"}, "id": "_oubXJdBd534qlMvakjVJg6c7J0=", "properties": {"@spider": "usps_collection_boxes", "addr:city": "CRANBERRY ISLES", "addr:country": "US", "addr:full": "1 FRENCHMAN BAY", "addr:postcode": "04625", "addr:state": "ME", "amenity": "post_box", "brand": "United States Postal Service", "brand:wikidata": "Q668687", "collection_times": "Mo-Fr 12:45; Sa 08:00", "name": "USPS COLLECTION BOX - PO LOBBY", "note": "ON 12/24 AND 12/31, THIS BOX MAY BE COLLECTED AS EARLY AS 12 NOON.", "nsi_id": "unitedstatespostalservice-a77078", "operator": "United States Postal Service", "operator:short": "USPS", "operator:type": "public", "operator:wikidata": "Q668687", "ref": "0462500003"}, "type": "Feature"}
{"dataset_attributes": {"@spider": "usps_collection_boxes", "spider:collection_time": "2023-11-07T08:25:32.615229"}, "geometry": {"coordinates": [-67.203492, 44.657669], "type": "Point"}, "id": "yb3h1CsS_BR53DrNh2_FjwZ5JVg=", "properties": {"@spider": "usps_collection_boxes", "addr:city": "CUTLER", "addr:country": "US", "addr:full": "2739 CUTLER RD", "addr:postcode": "04626", "addr:state": "ME", "amenity": "post_box", "brand": "United States Postal Service", "brand:wikidata": "Q668687", "collection_times": "Mo-Fr 13:00; Sa 12:30", "name": "USPS COLLECTION BOX - BLUE BOX", "note": "ON 12/24 AND 12/31, THIS BOX MAY BE COLLECTED AS EARLY AS 12 NOON.", "nsi_id": "unitedstatespostalservice-a77078", "operator": "United States Postal Service", "operator:short": "USPS", "operator:type": "public", "operator:wikidata": "Q668687", "ref": "0462600001"}, "type": "Feature"}
{"dataset_attributes": {"@spider": "usps_collection_boxes", "spider:collection_time": "2023-11-07T08:25:32.615229"}, "geometry": {"coordinates": [-67.203559, 44.657647], "type": "Point"}, "id": "1o05IaEoqnTFHiMa69F3Df960d4=", "properties": {"@spider": "usps_collection_boxes", "addr:city": "CUTLER", "addr:country": "US", "addr:full": "2739 CUTLER RD", "addr:postcode": "04626", "addr:state": "ME", "amenity": "post_box", "brand": "United States Postal Service", "brand:wikidata": "Q668687", "collection_times": "Mo-Fr 13:00; Sa 12:30", "name": "USPS COLLECTION BOX - PO LOBBY", "note": "ON 12/24 AND 12/31, THIS BOX MAY BE COLLECTED AS EARLY AS 12 NOON.", "nsi_id": "unitedstatespostalservice-a77078", "operator": "United States Postal Service", "operator:short": "USPS", "operator:type": "public", "operator:wikidata": "Q668687", "ref": "0462600003"}, "type": "Feature"}
{"dataset_attributes": {"@spider": "usps_collection_boxes", "spider:collection_time": "2023-11-07T08:25:32.615229"}, "geometry": {"coordinates": [-67.20318723, 44.658347448], "type": "Point"}, "id": "CJ4u3BS94U1TZmEXJ3MLuGJqjXM=", "properties": {"@spider": "usps_collection_boxes", "addr:city": "CUTLER", "addr:country": "US", "addr:full": "2739 CUTLER RD", "addr:postcode": "04626", "addr:state": "ME", "amenity": "post_box", "brand": "United States Postal Service", "brand:wikidata": "Q668687", "collection_times": "Mo-Fr 13:00; Sa 12:30", "name": "USPS COLLECTION BOX - PO LOBBY", "note": "ON 12/24 AND 12/31, THIS BOX MAY BE COLLECTED AS EARLY AS 12 NOON.", "nsi_id": "unitedstatespostalservice-a77078", "operator": "United States Postal Service", "operator:short": "USPS", "operator:type": "public", "operator:wikidata": "Q668687", "ref": "0462600004"}, "type": "Feature"}
{"dataset_attributes": {"@spider": "usps_collection_boxes", "spider:collection_time": "2023-11-07T08:25:32.615229"}, "geometry": {"coordinates": [-68.6792773, 44.224005], "type": "Point"}, "id": "240zP-112-nAzp1DhD-76Z7ynGM=", "properties": {"@spider": "usps_collection_boxes", "addr:city": "DEER ISLE", "addr:country": "US", "addr:full": "12 MAIN ST", "addr:postcode": "04627", "addr:state": "ME", "amenity": "post_box", "brand": "United States Postal Service", "brand:wikidata": "Q668687", "collection_times": "Mo-Fr 15:30; Sa 11:00", "name": "USPS COLLECTION BOX - BLUE BOX", "note": "ON 12/24 AND 12/31, THIS BOX MAY BE COLLECTED AS EARLY AS 12 NOON.", "nsi_id": "unitedstatespostalservice-a77078", "operator": "United States Postal Service", "operator:short": "USPS", "operator:type": "public", "operator:wikidata": "Q668687", "ref": "0462700001"}, "type": "Feature"}
{"dataset_attributes": {"@spider": "usps_collection_boxes", "spider:collection_time": "2023-11-07T08:25:32.615229"}, "geometry": {"coordinates": [-68.6793633, 44.223929], "type": "Point"}, "id": "s972lBLaBsSPAvmjUmvEj5AABTQ=", "properties": {"@spider": "usps_collection_boxes", "addr:city": "DEER ISLE", "addr:country": "US", "addr:full": "12 MAIN ST", "addr:postcode": "04627", "addr:state": "ME", "amenity": "post_box", "brand": "United States Postal Service", "brand:wikidata": "Q668687", "collection_times": "Mo-Fr 15:30; Sa 11:00", "name": "USPS COLLECTION BOX - PO LOBBY", "note": "ON 12/24 AND 12/31, THIS BOX MAY BE COLLECTED AS EARLY AS 12 NOON.", "nsi_id": "unitedstatespostalservice-a77078", "operator": "United States Postal Service", "operator:short": "USPS", "operator:type": "public", "operator:wikidata": "Q668687", "ref": "0462700003"}, "type": "Feature"}
{"dataset_attributes": {"@spider": "usps_collection_boxes", "spider:collection_time": "2023-11-07T08:25:32.615229"}, "geometry": {"coordinates": [-68.679324488, 44.224047283], "type": "Point"}, "id": "Yge1G7-fWFXa5Eo3PmQcEPTV3IE=", "properties": {"@spider": "usps_collection_boxes", "addr:city": "DEER ISLE", "addr:country": "US", "addr:full": "12 MAIN ST", "addr:postcode": "04627", "addr:state": "ME", "amenity": "post_box", "brand": "United States Postal Service", "brand:wikidata": "Q668687", "collection_times": "Mo-Fr 15:30; Sa 11:00", "name": "USPS COLLECTION BOX - PO LOBBY", "note": "ON 12/24 AND 12/31, THIS BOX MAY BE COLLECTED AS EARLY AS 12 NOON.", "nsi_id": "unitedstatespostalservice-a77078", "operator": "United States Postal Service", "operator:short": "USPS", "operator:type": "public", "operator:wikidata": "Q668687", "ref": "0462700005"}, "type": "Feature"}
{"dataset_attributes": {"@spider": "usps_collection_boxes", "spider:collection_time": "2023-11-07T08:25:32.615229"}, "geometry": {"coordinates": [-67.227702632, 44.900529792], "type": "Point"}, "id": "2vl2qzv7ooEDrJj3qwbRCX0uiWc=", "properties": {"@spider": "usps_collection_boxes", "addr:city": "DENNYSVILLE", "addr:country": "US", "addr:full": "128 MAIN ST", "addr:postcode": "04628", "addr:state": "ME", "amenity": "post_box", "brand": "United States Postal Service", "brand:wikidata": "Q668687", "collection_times": "Mo-Fr 15:05; Sa 11:00", "name": "USPS COLLECTION BOX - BLUE BOX", "note": "ON 12/24 AND 12/31, THIS BOX MAY BE COLLECTED AS EARLY AS 12 NOON.", "nsi_id": "unitedstatespostalservice-a77078", "operator": "United States Postal Service", "operator:short": "USPS", "operator:type": "public", "operator:wikidata": "Q668687", "ref": "0462800002"}, "type": "Feature"}
{"dataset_attributes": {"@spider": "usps_collection_boxes", "spider:collection_time": "2023-11-07T08:25:32.615229"}, "geometry": {"coordinates": [-67.227753, 44.900483], "type": "Point"}, "id": "PV5CDqJknQCAcdGE6G-GSCUPSdQ=", "properties": {"@spider": "usps_collection_boxes", "addr:city": "DENNYSVILLE", "addr:country": "US", "addr:full": "128 MAIN ST", "addr:postcode": "04628", "addr:state": "ME", "amenity": "post_box", "brand": "United States Postal Service", "brand:wikidata": "Q668687", "collection_times": "Mo-Fr 15:05; Sa 11:30", "name": "USPS COLLECTION BOX - PO LOBBY", "note": "ON 12/24 AND 12/31, THIS BOX MAY BE COLLECTED AS EARLY AS 12 NOON.", "nsi_id": "unitedstatespostalservice-a77078", "operator": "United States Postal Service", "operator:short": "USPS", "operator:type": "public", "operator:wikidata": "Q668687", "ref": "0462800003"}, "type": "Feature"}
{"dataset_attributes": {"@spider": "usps_collection_boxes", "spider:collection_time": "2023-11-07T08:25:32.615229"}, "geometry": {"coordinates": [-67.227702632, 44.900529792], "type": "Point"}, "id": "BM-l1YrhfO_Hl33GHuOKflK_m08=", "properties": {"@spider": "usps_collection_boxes", "addr:city": "DENNYSVILLE", "addr:country": "US", "addr:full": "128 MAIN ST", "addr:postcode": "04628", "addr:state": "ME", "amenity": "post_box", "brand": "United States Postal Service", "brand:wikidata": "Q668687", "collection_times": "Mo-Fr 15:00; Sa 11:30", "name": "USPS COLLECTION BOX - PO LOBBY", "note": "ON 12/24 AND 12/31, THIS BOX MAY BE COLLECTED AS EARLY AS 12 NOON.", "nsi_id": "unitedstatespostalservice-a77078", "operator": "United States Postal Service", "operator:short": "USPS", "operator:type": "public", "operator:wikidata": "Q668687", "ref": "0462800005"}, "type": "Feature"}
{"dataset_attributes": {"@spider": "usps_collection_boxes", "spider:collection_time": "2023-11-07T08:25:32.615229"}, "geometry": {"coordinates": [-67.394131, 44.735072], "type": "Point"}, "id": "TdCrCeHUfyDO5F1setGVPHyXYeE=", "properties": {"@spider": "usps_collection_boxes", "addr:city": "EAST MACHIAS", "addr:country": "US", "addr:full": "580 MAIN ST", "addr:postcode": "04630", "addr:state": "ME", "amenity": "post_box", "brand": "United States Postal Service", "brand:wikidata": "Q668687", "collection_times": "Mo-Fr 16:15; Sa 11:15", "name": "USPS COLLECTION BOX - BLUE BOX", "note": "ON 12/24 AND 12/31, THIS BOX MAY BE COLLECTED AS EARLY AS 12 NOON.", "nsi_id": "unitedstatespostalservice-a77078", "operator": "United States Postal Service", "operator:short": "USPS", "operator:type": "public", "operator:wikidata": "Q668687", "ref": "0463000001"}, "type": "Feature"}
{"dataset_attributes": {"@spider": "usps_collection_boxes", "spider:collection_time": "2023-11-07T08:25:32.615229"}, "geometry": {"coordinates": [-67.394071, 44.735124], "type": "Point"}, "id": "G_ZwI32LaNQDnnEgOevGmylI5bk=", "properties": {"@spider": "usps_collection_boxes", "addr:city": "EAST MACHIAS", "addr:country": "US", "addr:full": "580 MAIN ST", "addr:postcode": "04630", "addr:state": "ME", "amenity": "post_box", "brand": "United States Postal Service", "brand:wikidata": "Q668687", "collection_times": "Mo-Fr 16:15; Sa 11:15", "name": "USPS COLLECTION BOX - PO LOBBY", "note": "ON 12/24 AND 12/31, THIS BOX MAY BE COLLECTED AS EARLY AS 12 NOON.", "nsi_id": "unitedstatespostalservice-a77078", "operator": "United States Postal Service", "operator:short": "USPS", "operator:type": "public", "operator:wikidata": "Q668687", "ref": "0463000002"}, "type": "Feature"}
{"dataset_attributes": {"@spider": "usps_collection_boxes", "spider:collection_time": "2023-11-07T08:25:32.615229"}, "geometry": {"coordinates": [-67.394151289, 44.735057477], "type": "Point"}, "id": "JPkobV5cD-wArmLLMyui4mwmFYg=", "properties": {"@spider": "usps_collection_boxes", "addr:city": "EAST MACHIAS", "addr:country": "US", "addr:full": "580 MAIN ST", "addr:postcode": "04630", "addr:state": "ME", "amenity": "post_box", "brand": "United States Postal Service", "brand:wikidata": "Q668687", "collection_times": "Mo-Fr 16:00; Sa 11:00", "name": "USPS COLLECTION BOX - PO LOBBY", "note": "ON 12/24 AND 12/31, THIS BOX MAY BE COLLECTED AS EARLY AS 12 NOON.", "nsi_id": "unitedstatespostalservice-a77078", "operator": "United States Postal Service", "operator:short": "USPS", "operator:type": "public", "operator:wikidata": "Q668687", "ref": "0463000003"}, "type": "Feature"}
{"dataset_attributes": {"@spider": "usps_collection_boxes", "spider:collection_time": "2023-11-07T08:25:32.615229"}, "geometry": {"coordinates": [-66.985024, 44.905788], "type": "Point"}, "id": "dVObIcgkS9G-JWXGc10Ar7VfgNQ=", "properties": {"@spider": "usps_collection_boxes", "addr:city": "EASTPORT", "addr:country": "US", "addr:full": "1 WASHINGTON ST", "addr:postcode": "04631", "addr:state": "ME", "amenity": "post_box", "brand": "United States Postal Service", "brand:wikidata": "Q668687", "collection_times": "Mo-Fr 15:45; Sa 15:25", "name": "USPS COLLECTION BOX - BLUE BOX", "note": "ON 12/24 AND 12/31, THIS BOX MAY BE COLLECTED AS EARLY AS 12 NOON.", "nsi_id": "unitedstatespostalservice-a77078", "operator": "United States Postal Service", "operator:short": "USPS", "operator:type": "public", "operator:wikidata": "Q668687", "ref": "0463100001"}, "type": "Feature"}
{"dataset_attributes": {"@spider": "usps_collection_boxes", "spider:collection_time": "2023-11-07T08:25:32.615229"}, "geometry": {"coordinates": [-66.9954626, 44.906223], "type": "Point"}, "id": "zAyAmcteu-7JgTJwvrc8FvvdFU0=", "properties": {"@spider": "usps_collection_boxes", "addr:city": "EASTPORT", "addr:country": "US", "addr:full": "88 WASHINGTON ST", "addr:postcode": "04631", "addr:state": "ME", "amenity": "post_box", "brand": "United States Postal Service", "brand:wikidata": "Q668687", "collection_times": "Mo-Sa 11:30", "name": "USPS COLLECTION BOX - BLUE BOX", "nsi_id": "unitedstatespostalservice-a77078", "operator": "United States Postal Service", "operator:short": "USPS", "operator:type": "public", "operator:wikidata": "Q668687", "ref": "0463100007"}, "type": "Feature"}
{"dataset_attributes": {"@spider": "usps_collection_boxes", "spider:collection_time": "2023-11-07T08:25:32.615229"}, "geometry": {"coordinates": [-66.984898, 44.905759], "type": "Point"}, "id": "le7rUz3RH5TajX0cW0ibYKHEf-0=", "properties": {"@spider": "usps_collection_boxes", "addr:city": "EASTPORT", "addr:country": "US", "addr:full": "1 WASHINGTON ST", "addr:postcode": "04631", "addr:state": "ME", "amenity": "post_box", "brand": "United States Postal Service", "brand:wikidata": "Q668687", "collection_times": "Mo-Fr 15:50; Sa 15:30", "name": "USPS COLLECTION BOX - PO LOBBY", "note": "ON 12/24 AND 12/31, THIS BOX MAY BE COLLECTED AS EARLY AS 12 NOON.", "nsi_id": "unitedstatespostalservice-a77078", "operator": "United States Postal Service", "operator:short": "USPS", "operator:type": "public", "operator:wikidata": "Q668687", "ref": "0463100008"}, "type": "Feature"}
{"dataset_attributes": {"@spider": "usps_collection_boxes", "spider:collection_time": "2023-11-07T08:25:32.615229"}, "geometry": {"coordinates": [-66.984898, 44.905759], "type": "Point"}, "id": "9wGJDJPM8s4nmsdGegBttp1wLQ4=", "properties": {"@spider": "usps_collection_boxes", "addr:city": "EASTPORT", "addr:country": "US", "addr:full": "1 WASHINGTON ST", "addr:postcode": "04631", "addr:state": "ME", "amenity": "post_box", "brand": "United States Postal Service", "brand:wikidata": "Q668687", "collection_times": "Mo-Fr 15:50; Sa 15:30", "name": "USPS COLLECTION BOX - PO LOBBY", "note": "ON 12/24 AND 12/31, THIS BOX MAY BE COLLECTED AS EARLY AS 12 NOON.", "nsi_id": "unitedstatespostalservice-a77078", "operator": "United States Postal Service", "operator:short": "USPS", "operator:type": "public", "operator:wikidata": "Q668687", "ref": "0463100009"}, "type": "Feature"}
{"dataset_attributes": {"@spider": "usps_collection_boxes", "spider:collection_time": "2023-11-07T08:25:32.615229"}, "geometry": {"coordinates": [-66.985281744, 44.905750417], "type": "Point"}, "id": "n1IJnQQSwz0Cvf1nA3vimIsd1vY=", "properties": {"@spider": "usps_collection_boxes", "addr:city": "EASTPORT", "addr:country": "US", "addr:full": "1 WASHINGTON ST", "addr:postcode": "04631", "addr:state": "ME", "amenity": "post_box", "brand": "United States Postal Service", "brand:wikidata": "Q668687", "collection_times": "Mo-Fr 16:00; Sa 12:00", "name": "USPS COLLECTION BOX - PO LOBBY", "note": "ON 12/24 AND 12/31, THIS BOX MAY BE COLLECTED AS EARLY AS 12 NOON.", "nsi_id": "unitedstatespostalservice-a77078", "operator": "United States Postal Service", "operator:short": "USPS", "operator:type": "public", "operator:wikidata": "Q668687", "ref": "0463100011"}, "type": "Feature"}
{"dataset_attributes": {"@spider": "usps_collection_boxes", "spider:collection_time": "2023-11-07T08:25:32.615229"}, "geometry": {"coordinates": [-68.2207230051, 44.5904669792], "type": "Point"}, "id": "nqnj62LOAk7V5O4Poi9d-CE1Fxs=", "properties": {"@spider": "usps_collection_boxes", "addr:city": "FRANKLIN", "addr:country": "US", "addr:full": "48 BLACKSWOODS RD", "addr:postcode": "04634", "addr:state": "ME", "amenity": "post_box", "brand": "United States Postal Service", "brand:wikidata": "Q668687", "collection_times": "Mo-Fr 16:00; Sa 11:00", "name": "USPS COLLECTION BOX - BLUE BOX", "note": "ON 12/24 AND 12/31, THIS BOX MAY BE COLLECTED AS EARLY AS 12 NOON.", "nsi_id": "unitedstatespostalservice-a77078", "operator": "United States Postal Service", "operator:short": "USPS", "operator:type": "public", "operator:wikidata": "Q668687", "ref": "0463400001"}, "type": "Feature"}
{"dataset_attributes": {"@spider": "usps_collection_boxes", "spider:collection_time": "2023-11-07T08:25:32.615229"}, "geometry": {"coordinates": [-68.2207349, 44.590427], "type": "Point"}, "id": "7sw5X7tsrP2_S3LX3_Mb6KyWGzA=", "properties": {"@spider": "usps_collection_boxes", "addr:city": "FRANKLIN", "addr:country": "US", "addr:full": "48 BLACKSWOODS RD", "addr:postcode": "04634", "addr:state": "ME", "amenity": "post_box", "brand": "United States Postal Service", "brand:wikidata": "Q668687", "collection_times": "Mo-Fr 16:30; Sa 11:00", "name": "USPS COLLECTION BOX - PO LOBBY", "note": "ON 12/24 AND 12/31, THIS BOX MAY BE COLLECTED AS EARLY AS 12 NOON.", "nsi_id": "unitedstatespostalservice-a77078", "operator": "United States Postal Service", "operator:short": "USPS", "operator:type": "public", "operator:wikidata": "Q668687", "ref": "0463400003"}, "type": "Feature"}
{"dataset_attributes": {"@spider": "usps_collection_boxes", "spider:collection_time": "2023-11-07T08:25:32.615229"}, "geometry": {"coordinates": [-68.220960318, 44.590145983], "type": "Point"}, "id": "kx-Suv8EZwf9RySCyJRJYCY-GQY=", "properties": {"@spider": "usps_collection_boxes", "addr:city": "FRANKLIN", "addr:country": "US", "addr:full": "48 BLACKSWOODS RD", "addr:postcode": "04634", "addr:state": "ME", "amenity": "post_box", "brand": "United States Postal Service", "brand:wikidata": "Q668687", "collection_times": "Mo-Fr 16:30; Sa 11:00", "name": "USPS COLLECTION BOX - PO LOBBY", "note": "ON 12/24 AND 12/31, THIS BOX MAY BE COLLECTED AS EARLY AS 12 NOON.", "nsi_id": "unitedstatespostalservice-a77078", "operator": "United States Postal Service", "operator:short": "USPS", "operator:type": "public", "operator:wikidata": "Q668687", "ref": "0463400004"}, "type": "Feature"}
{"dataset_attributes": {"@spider": "usps_collection_boxes", "spider:collection_time": "2023-11-07T08:25:32.615229"}, "geometry": {"coordinates": [-68.256413, 44.529503], "type": "Point"}, "id": "v2thxlGeuto-J6JVudrBsSlSg-0=", "properties": {"@spider": "usps_collection_boxes", "addr:city": "HANCOCK", "addr:country": "US", "addr:full": "1405 US HWY 1", "addr:postcode": "04640", "addr:state": "ME", "amenity": "post_box", "brand": "United States Postal Service", "brand:wikidata": "Q668687", "collection_times": "Mo-Fr 16:45; Sa 11:45", "name": "USPS COLLECTION BOX - PO LOBBY", "note": "ON 12/24 AND 12/31, THIS BOX MAY BE COLLECTED AS EARLY AS 12 NOON.", "nsi_id": "unitedstatespostalservice-a77078", "operator": "United States Postal Service", "operator:short": "USPS", "operator:type": "public", "operator:wikidata": "Q668687", "ref": "0464000002"}, "type": "Feature"}
{"dataset_attributes": {"@spider": "usps_collection_boxes", "spider:collection_time": "2023-11-07T08:25:32.615229"}, "geometry": {"coordinates": [-68.256301, 44.529497], "type": "Point"}, "id": "AdEUBV1pc12GM3mlWbtDIWURKnA=", "properties": {"@spider": "usps_collection_boxes", "addr:city": "HANCOCK", "addr:country": "US", "addr:full": "1405 US HWY 1", "addr:postcode": "04640", "addr:state": "ME", "amenity": "post_box", "brand": "United States Postal Service", "brand:wikidata": "Q668687", "collection_times": "Mo-Fr 16:45; Sa 11:45", "name": "USPS COLLECTION BOX - PO LOBBY", "note": "ON 12/24 AND 12/31, THIS BOX MAY BE COLLECTED AS EARLY AS 12 NOON.", "nsi_id": "unitedstatespostalservice-a77078", "operator": "United States Postal Service", "operator:short": "USPS", "operator:type": "public", "operator:wikidata": "Q668687", "ref": "0464000003"}, "type": "Feature"}
{"dataset_attributes": {"@spider": "usps_collection_boxes", "spider:collection_time": "2023-11-07T08:25:32.615229"}, "geometry": {"coordinates": [-68.256301, 44.529497], "type": "Point"}, "id": "CgcsweraSDff-yOUmsMacR9KclE=", "properties": {"@spider": "usps_collection_boxes", "addr:city": "HANCOCK", "addr:country": "US", "addr:full": "1405 US HWY 1", "addr:postcode": "04640", "addr:state": "ME", "amenity": "post_box", "brand": "United States Postal Service", "brand:wikidata": "Q668687", "collection_times": "Mo-Fr 16:45; Sa 11:45", "name": "USPS COLLECTION BOX - BLUE BOX", "note": "ON 12/24 AND 12/31, THIS BOX MAY BE COLLECTED AS EARLY AS 12 NOON.", "nsi_id": "unitedstatespostalservice-a77078", "operator": "United States Postal Service", "operator:short": "USPS", "operator:type": "public", "operator:wikidata": "Q668687", "ref": "0464000004"}, "type": "Feature"}
{"dataset_attributes": {"@spider": "usps_collection_boxes", "spider:collection_time": "2023-11-07T08:25:32.615229"}, "geometry": {"coordinates": [-68.256550042, 44.529548218], "type": "Point"}, "id": "GdtVhlsXnCiWOwWX_IMljAiEX6o=", "properties": {"@spider": "usps_collection_boxes", "addr:city": "HANCOCK", "addr:country": "US", "addr:full": "1405 US HWY 1", "addr:postcode": "04640", "addr:state": "ME", "amenity": "post_box", "brand": "United States Postal Service", "brand:wikidata": "Q668687", "collection_times": "Mo-Fr 16:45; Sa 11:45", "name": "USPS COLLECTION BOX - PO LOBBY", "note": "ON 12/24 AND 12/31, THIS BOX MAY BE COLLECTED AS EARLY AS 12 NOON.", "nsi_id": "unitedstatespostalservice-a77078", "operator": "United States Postal Service", "operator:short": "USPS", "operator:type": "public", "operator:wikidata": "Q668687", "ref": "0464000005"}, "type": "Feature"}
{"dataset_attributes": {"@spider": "usps_collection_boxes", "spider:collection_time": "2023-11-07T08:25:32.615229"}, "geometry": {"coordinates": [-67.811662, 44.619132], "type": "Point"}, "id": "Eh3PCwvgNzX4foz46DePB1xeYCE=", "properties": {"@spider": "usps_collection_boxes", "addr:city": "HARRINGTON", "addr:country": "US", "addr:full": "1285 MAIN ST", "addr:postcode": "04643", "addr:state": "ME", "amenity": "post_box", "brand": "United States Postal Service", "brand:wikidata": "Q668687", "collection_times": "Mo-Fr 14:45; Sa 10:30", "name": "USPS COLLECTION BOX - BLUE BOX", "note": "ON 12/24 AND 12/31, THIS BOX MAY BE COLLECTED AS EARLY AS 12 NOON.", "nsi_id": "unitedstatespostalservice-a77078", "operator": "United States Postal Service", "operator:short": "USPS", "operator:type": "public", "operator:wikidata": "Q668687", "ref": "0464300001"}, "type": "Feature"}
{"dataset_attributes": {"@spider": "usps_collection_boxes", "spider:collection_time": "2023-11-07T08:25:32.615229"}, "geometry": {"coordinates": [-67.81166, 44.619105], "type": "Point"}, "id": "eBG6hkkuWwr8NpaF8-o-7FYTQK0=", "properties": {"@spider": "usps_collection_boxes", "addr:city": "HARRINGTON", "addr:country": "US", "addr:full": "1285 MAIN ST", "addr:postcode": "04643", "addr:state": "ME", "amenity": "post_box", "brand": "United States Postal Service", "brand:wikidata": "Q668687", "collection_times": "Mo-Fr 14:45; Sa 10:45", "name": "USPS COLLECTION BOX - PO LOBBY", "note": "ON 12/24 AND 12/31, THIS BOX MAY BE COLLECTED AS EARLY AS 12 NOON.", "nsi_id": "unitedstatespostalservice-a77078", "operator": "United States Postal Service", "operator:short": "USPS", "operator:type": "public", "operator:wikidata": "Q668687", "ref": "0464300003"}, "type": "Feature"}
{"dataset_attributes": {"@spider": "usps_collection_boxes", "spider:collection_time": "2023-11-07T08:25:32.615229"}, "geometry": {"coordinates": [-67.81169295, 44.619130445], "type": "Point"}, "id": "X0OxkiqObrTSY8tVllqWOYR5_bo=", "properties": {"@spider": "usps_collection_boxes", "addr:city": "HARRINGTON", "addr:country": "US", "addr:full": "1285 MAIN ST", "addr:postcode": "04643", "addr:state": "ME", "amenity": "post_box", "brand": "United States Postal Service", "brand:wikidata": "Q668687", "collection_times": "Mo-Fr 14:45; Sa 10:30", "name": "USPS COLLECTION BOX - PO LOBBY", "note": "ON 12/24 AND 12/31, THIS BOX MAY BE COLLECTED AS EARLY AS 12 NOON.", "nsi_id": "unitedstatespostalservice-a77078", "operator": "United States Postal Service", "operator:short": "USPS", "operator:type": "public", "operator:wikidata": "Q668687", "ref": "0464300004"}, "type": "Feature"}
{"dataset_attributes": {"@spider": "usps_collection_boxes", "spider:collection_time": "2023-11-07T08:25:32.615229"}, "geometry": {"coordinates": [-68.2507092376, 44.4128777426], "type": "Point"}, "id": "XFCnFFJWpEkkkYDn1toAuGgSMpw=", "properties": {"@spider": "usps_collection_boxes", "addr:city": "HULLS COVE", "addr:country": "US", "addr:full": "3 BREAK NECK RD", "addr:postcode": "04644", "addr:state": "ME", "amenity": "post_box", "brand": "United States Postal Service", "brand:wikidata": "Q668687", "collection_times": "Mo-Fr 15:30; Sa 11:00", "name": "USPS COLLECTION BOX - BLUE BOX", "note": "ON 12/24 AND 12/31, THIS BOX MAY BE COLLECTED AS EARLY AS 12 NOON.", "nsi_id": "unitedstatespostalservice-a77078", "operator": "United States Postal Service", "operator:short": "USPS", "operator:type": "public", "operator:wikidata": "Q668687", "ref": "0464400001"}, "type": "Feature"}
{"dataset_attributes": {"@spider": "usps_collection_boxes", "spider:collection_time": "2023-11-07T08:25:32.615229"}, "geometry": {"coordinates": [-68.2507092376, 44.4128777426], "type": "Point"}, "id": "8Nehz4jWoFjiFMS2CyXIYylG-m4=", "properties": {"@spider": "usps_collection_boxes", "addr:city": "HULLS COVE", "addr:country": "US", "addr:full": "3 BREAK NECK RD", "addr:postcode": "04644", "addr:state": "ME", "amenity": "post_box", "brand": "United States Postal Service", "brand:wikidata": "Q668687", "collection_times": "Mo-Fr 15:30; Sa 11:30", "name": "USPS COLLECTION BOX - PO LOBBY", "note": "ON 12/24 AND 12/31, THIS BOX MAY BE COLLECTED AS EARLY AS 12 NOON.", "nsi_id": "unitedstatespostalservice-a77078", "operator": "United States Postal Service", "operator:short": "USPS", "operator:type": "public", "operator:wikidata": "Q668687", "ref": "0464400003"}, "type": "Feature"}
{"dataset_attributes": {"@spider": "usps_collection_boxes", "spider:collection_time": "2023-11-07T08:25:32.615229"}, "geometry": {"coordinates": [-68.25109009, 44.412783851], "type": "Point"}, "id": "1zY1-feTsoDoyRVFX6mjnuMzf54=", "properties": {"@spider": "usps_collection_boxes", "addr:city": "HULLS COVE", "addr:country": "US", "addr:full": "3 BREAK NECK RD", "addr:postcode": "04644", "addr:state": "ME", "amenity": "post_box", "brand": "United States Postal Service", "brand:wikidata": "Q668687", "collection_times": "Mo-Fr 15:30; Sa 11:30", "name": "USPS COLLECTION BOX - PO LOBBY", "note": "ON 12/24 AND 12/31, THIS BOX MAY BE COLLECTED AS EARLY AS 12 NOON.", "nsi_id": "unitedstatespostalservice-a77078", "operator": "United States Postal Service", "operator:short": "USPS", "operator:type": "public", "operator:wikidata": "Q668687", "ref": "0464400004"}, "type": "Feature"}
{"dataset_attributes": {"@spider": "usps_collection_boxes", "spider:collection_time": "2023-11-07T08:25:32.615229"}, "geometry": {"coordinates": [-68.233859, 44.261909], "type": "Point"}, "id": "YNPUBqWKozKO2Gezdz0n58JfJDM=", "properties": {"@spider": "usps_collection_boxes", "addr:city": "ISLESFORD", "addr:country": "US", "addr:full": "61 MAIN ST", "addr:postcode": "04646", "addr:state": "ME", "amenity": "post_box", "brand": "United States Postal Service", "brand:wikidata": "Q668687", "collection_times": "Mo-Sa 07:30", "name": "USPS COLLECTION BOX - BLUE BOX", "nsi_id": "unitedstatespostalservice-a77078", "operator": "United States Postal Service", "operator:short": "USPS", "operator:type": "public", "operator:wikidata": "Q668687", "ref": "0464600001"}, "type": "Feature"}
{"dataset_attributes": {"@spider": "usps_collection_boxes", "spider:collection_time": "2023-11-07T08:25:32.615229"}, "geometry": {"coordinates": [-68.233735, 44.261939], "type": "Point"}, "id": "bx738aIkKutAjt-mdOyabTJoxTg=", "properties": {"@spider": "usps_collection_boxes", "addr:city": "ISLESFORD", "addr:country": "US", "addr:full": "61 MAIN ST", "addr:postcode": "04646", "addr:state": "ME", "amenity": "post_box", "brand": "United States Postal Service", "brand:wikidata": "Q668687", "collection_times": "Mo-Sa 07:30", "name": "USPS COLLECTION BOX - PO LOBBY", "nsi_id": "unitedstatespostalservice-a77078", "operator": "United States Postal Service", "operator:short": "USPS", "operator:type": "public", "operator:wikidata": "Q668687", "ref": "0464600002"}, "type": "Feature"}
{"dataset_attributes": {"@spider": "usps_collection_boxes", "spider:collection_time": "2023-11-07T08:25:32.615229"}, "geometry": {"coordinates": [-68.6860473, 44.222250253], "type": "Point"}, "id": "WtVG-Zzo3-U3H7Wir2x1TzFpNBE=", "properties": {"@spider": "usps_collection_boxes", "addr:city": "ISLESFORD", "addr:country": "US", "addr:full": "61 MAIN ST", "addr:postcode": "04646", "addr:state": "ME", "amenity": "post_box", "brand": "United States Postal Service", "brand:wikidata": "Q668687", "collection_times": "Mo-Fr 11:00; Sa 08:00", "name": "USPS COLLECTION BOX - PO LOBBY", "nsi_id": "unitedstatespostalservice-a77078", "operator": "United States Postal Service", "operator:short": "USPS", "operator:type": "public", "operator:wikidata": "Q668687", "ref": "0464600003"}, "type": "Feature"}
{"dataset_attributes": {"@spider": "usps_collection_boxes", "spider:collection_time": "2023-11-07T08:25:32.615229"}, "geometry": {"coordinates": [-67.577695, 44.659172], "type": "Point"}, "id": "-YUTObVaXPPnPX3RReM_jqfwjVY=", "properties": {"@spider": "usps_collection_boxes", "addr:city": "JONESBORO", "addr:country": "US", "addr:full": "810 US RTE 1", "addr:postcode": "04648", "addr:state": "ME", "amenity": "post_box", "brand": "United States Postal Service", "brand:wikidata": "Q668687", "collection_times": "Mo-Fr 16:00; Sa 11:15", "name": "USPS COLLECTION BOX - BLUE BOX", "note": "ON 12/24 AND 12/31, THIS BOX MAY BE COLLECTED AS EARLY AS 12 NOON.", "nsi_id": "unitedstatespostalservice-a77078", "operator": "United States Postal Service", "operator:short": "USPS", "operator:type": "public", "operator:wikidata": "Q668687", "ref": "0464800001"}, "type": "Feature"}
{"dataset_attributes": {"@spider": "usps_collection_boxes", "spider:collection_time": "2023-11-07T08:25:32.615229"}, "geometry": {"coordinates": [-67.577694, 44.659206], "type": "Point"}, "id": "0ExaUHQXfZ1jgeFXCsb-Zut2New=", "properties": {"@spider": "usps_collection_boxes", "addr:city": "JONESBORO", "addr:country": "US", "addr:full": "810 US RTE 1", "addr:postcode": "04648", "addr:state": "ME", "amenity": "post_box", "brand": "United States Postal Service", "brand:wikidata": "Q668687", "collection_times": "Mo-Fr 16:00; Sa 11:15", "name": "USPS COLLECTION BOX - PO LOBBY", "note": "ON 12/24 AND 12/31, THIS BOX MAY BE COLLECTED AS EARLY AS 12 NOON.", "nsi_id": "unitedstatespostalservice-a77078", "operator": "United States Postal Service", "operator:short": "USPS", "operator:type": "public", "operator:wikidata": "Q668687", "ref": "0464800002"}, "type": "Feature"}
{"dataset_attributes": {"@spider": "usps_collection_boxes", "spider:collection_time": "2023-11-07T08:25:32.615229"}, "geometry": {"coordinates": [-67.577360815, 44.659342677], "type": "Point"}, "id": "AwBe1A4guBEEw_CylqA21uZEGFs=", "properties": {"@spider": "usps_collection_boxes", "addr:city": "JONESBORO", "addr:country": "US", "addr:full": "810 US RTE 1", "addr:postcode": "04648", "addr:state": "ME", "amenity": "post_box", "brand": "United States Postal Service", "brand:wikidata": "Q668687", "collection_times": "Mo-Fr 16:00; Sa 11:15", "name": "USPS COLLECTION BOX - PO LOBBY", "note": "ON 12/24 AND 12/31, THIS BOX MAY BE COLLECTED AS EARLY AS 12 NOON.", "nsi_id": "unitedstatespostalservice-a77078", "operator": "United States Postal Service", "operator:short": "USPS", "operator:type": "public", "operator:wikidata": "Q668687", "ref": "0464800003"}, "type": "Feature"}
{"dataset_attributes": {"@spider": "usps_collection_boxes", "spider:collection_time": "2023-11-07T08:25:32.615229"}, "geometry": {"coordinates": [-67.6011007, 44.531256], "type": "Point"}, "id": "pS9AwN95lrzh0uKtyxCGhtCwYnI=", "properties": {"@spider": "usps_collection_boxes", "addr:city": "JONESPORT", "addr:country": "US", "addr:full": "193 MAIN ST", "addr:postcode": "04649", "addr:state": "ME", "amenity": "post_box", "brand": "United States Postal Service", "brand:wikidata": "Q668687", "collection_times": "Mo-Fr 16:00; Sa 11:30", "name": "USPS COLLECTION BOX - BLUE BOX", "note": "ON 12/24 AND 12/31, THIS BOX MAY BE COLLECTED AS EARLY AS 12 NOON.", "nsi_id": "unitedstatespostalservice-a77078", "operator": "United States Postal Service", "operator:short": "USPS", "operator:type": "public", "operator:wikidata": "Q668687", "ref": "0464900001"}, "type": "Feature"}
{"dataset_attributes": {"@spider": "usps_collection_boxes", "spider:collection_time": "2023-11-07T08:25:32.615229"}, "geometry": {"coordinates": [-67.6013526, 44.531419], "type": "Point"}, "id": "AVhpmf4MLDpKIT0zirGhVjFIS30=", "properties": {"@spider": "usps_collection_boxes", "addr:city": "JONESPORT", "addr:country": "US", "addr:full": "193 MAIN ST", "addr:postcode": "04649", "addr:state": "ME", "amenity": "post_box", "brand": "United States Postal Service", "brand:wikidata": "Q668687", "collection_times": "Mo-Fr 16:00; Sa 11:30", "name": "USPS COLLECTION BOX - PO LOBBY", "note": "ON 12/24 AND 12/31, THIS BOX MAY BE COLLECTED AS EARLY AS 12 NOON.", "nsi_id": "unitedstatespostalservice-a77078", "operator": "United States Postal Service", "operator:short": "USPS", "operator:type": "public", "operator:wikidata": "Q668687", "ref": "0464900003"}, "type": "Feature"}
{"dataset_attributes": {"@spider": "usps_collection_boxes", "spider:collection_time": "2023-11-07T08:25:32.615229"}, "geometry": {"coordinates": [-67.601536685, 44.531543043], "type": "Point"}, "id": "UHp_ogh87K1BrJpfxdtuWhf_s-I=", "properties": {"@spider": "usps_collection_boxes", "addr:city": "JONESPORT", "addr:country": "US", "addr:full": "193 MAIN ST", "addr:postcode": "04649", "addr:state": "ME", "amenity": "post_box", "brand": "United States Postal Service", "brand:wikidata": "Q668687", "collection_times": "Mo-Fr 16:00; Sa 11:30", "name": "USPS COLLECTION BOX - PO LOBBY", "note": "ON 12/24 AND 12/31, THIS BOX MAY BE COLLECTED AS EARLY AS 12 NOON.", "nsi_id": "unitedstatespostalservice-a77078", "operator": "United States Postal Service", "operator:short": "USPS", "operator:type": "public", "operator:wikidata": "Q668687", "ref": "0464900004"}, "type": "Feature"}
{"dataset_attributes": {"@spider": "usps_collection_boxes", "spider:collection_time": "2023-11-07T08:25:32.615229"}, "geometry": {"coordinates": [-68.6971556771, 44.2860233361], "type": "Point"}, "id": "8K_wZeW3Uh3OgrvHe8Ru4npiT5A=", "properties": {"@spider": "usps_collection_boxes", "addr:city": "LTL DEER IS", "addr:country": "US", "addr:full": "17 EGGEMOGGIN RD", "addr:postcode": "04650", "addr:state": "ME", "amenity": "post_box", "brand": "United States Postal Service", "brand:wikidata": "Q668687", "collection_times": "Mo-Fr 15:45; Sa 11:10", "name": "USPS COLLECTION BOX - BLUE BOX", "note": "ON 12/24 AND 12/31, THIS BOX MAY BE COLLECTED AS EARLY AS 12 NOON.", "nsi_id": "unitedstatespostalservice-a77078", "operator": "United States Postal Service", "operator:short": "USPS", "operator:type": "public", "operator:wikidata": "Q668687", "ref": "0465000001"}, "type": "Feature"}
{"dataset_attributes": {"@spider": "usps_collection_boxes", "spider:collection_time": "2023-11-07T08:25:32.615229"}, "geometry": {"coordinates": [-68.69763, 44.286063], "type": "Point"}, "id": "3LlNUGt_DaoM-hx8VIUmXEUpq4g=", "properties": {"@spider": "usps_collection_boxes", "addr:city": "LTL DEER IS", "addr:country": "US", "addr:full": "17 EGGEMOGGIN RD", "addr:postcode": "04650", "addr:state": "ME", "amenity": "post_box", "brand": "United States Postal Service", "brand:wikidata": "Q668687", "collection_times": "Mo-Fr 15:45; Sa 11:10", "name": "USPS COLLECTION BOX - PO LOBBY", "note": "ON 12/24 AND 12/31, THIS BOX MAY BE COLLECTED AS EARLY AS 12 NOON.", "nsi_id": "unitedstatespostalservice-a77078", "operator": "United States Postal Service", "operator:short": "USPS", "operator:type": "public", "operator:wikidata": "Q668687", "ref": "0465000002"}, "type": "Feature"}
{"dataset_attributes": {"@spider": "usps_collection_boxes", "spider:collection_time": "2023-11-07T08:25:32.615229"}, "geometry": {"coordinates": [-68.697160177, 44.286023336], "type": "Point"}, "id": "jiEYGj2KBNXaUNElQ9DyphOiP2A=", "properties": {"@spider": "usps_collection_boxes", "addr:city": "LTL DEER IS", "addr:country": "US", "addr:full": "17 EGGEMOGGIN RD", "addr:postcode": "04650", "addr:state": "ME", "amenity": "post_box", "brand": "United States Postal Service", "brand:wikidata": "Q668687", "collection_times": "Mo-Fr 15:45", "name": "USPS COLLECTION BOX - PO LOBBY", "note": "ON 12/24 AND 12/31, THIS BOX MAY BE COLLECTED AS EARLY AS 12 NOON.", "nsi_id": "unitedstatespostalservice-a77078", "operator": "United States Postal Service", "operator:short": "USPS", "operator:type": "public", "operator:wikidata": "Q668687", "ref": "0465000003"}, "type": "Feature"}
{"dataset_attributes": {"@spider": "usps_collection_boxes", "spider:collection_time": "2023-11-07T08:25:32.615229"}, "geometry": {"coordinates": [-68.697160177, 44.286023336], "type": "Point"}, "id": "QWsNVUwUBvpBUO6jqsTL3aI6hAA=", "properties": {"@spider": "usps_collection_boxes", "addr:city": "LTL DEER IS", "addr:country": "US", "addr:full": "17 EGGEMOGGIN RD", "addr:postcode": "04650", "addr:state": "ME", "amenity": "post_box", "brand": "United States Postal Service", "brand:wikidata": "Q668687", "collection_times": "Mo-Fr 15:45; Sa 11:00", "name": "USPS COLLECTION BOX - PO LOBBY", "note": "ON 12/24 AND 12/31, THIS BOX MAY BE COLLECTED AS EARLY AS 12 NOON.", "nsi_id": "unitedstatespostalservice-a77078", "operator": "United States Postal Service", "operator:short": "USPS", "operator:type": "public", "operator:wikidata": "Q668687", "ref": "0465000004"}, "type": "Feature"}
{"dataset_attributes": {"@spider": "usps_collection_boxes", "spider:collection_time": "2023-11-07T08:25:32.615229"}, "geometry": {"coordinates": [-66.9833617, 44.858792], "type": "Point"}, "id": "FNlo2q-VCBA-hCyozeO_6jZ6NDo=", "properties": {"@spider": "usps_collection_boxes", "addr:city": "LUBEC", "addr:country": "US", "addr:full": "9 WASHINGTON ST", "addr:postcode": "04652", "addr:state": "ME", "amenity": "post_box", "brand": "United States Postal Service", "brand:wikidata": "Q668687", "collection_times": "Mo-Fr 15:00; Sa 13:45", "name": "USPS COLLECTION BOX - BLUE BOX", "note": "ON 12/24 AND 12/31, THIS BOX MAY BE COLLECTED AS EARLY AS 12 NOON.", "nsi_id": "unitedstatespostalservice-a77078", "operator": "United States Postal Service", "operator:short": "USPS", "operator:type": "public", "operator:wikidata": "Q668687", "ref": "0465200000"}, "type": "Feature"}
{"dataset_attributes": {"@spider": "usps_collection_boxes", "spider:collection_time": "2023-11-07T08:25:32.615229"}, "geometry": {"coordinates": [-66.9920107, 44.857516], "type": "Point"}, "id": "MPwC1uFLwquOXNJfWlCj84Ch5Us=", "properties": {"@spider": "usps_collection_boxes", "addr:city": "LUBEC", "addr:country": "US", "addr:full": "103 MAIN ST", "addr:postcode": "04652", "addr:state": "ME", "amenity": "post_box", "brand": "United States Postal Service", "brand:wikidata": "Q668687", "collection_times": "Mo-Sa 12:00", "name": "USPS COLLECTION BOX - BLUE BOX", "nsi_id": "unitedstatespostalservice-a77078", "operator": "United States Postal Service", "operator:short": "USPS", "operator:type": "public", "operator:wikidata": "Q668687", "ref": "0465200002"}, "type": "Feature"}
{"dataset_attributes": {"@spider": "usps_collection_boxes", "spider:collection_time": "2023-11-07T08:25:32.615229"}, "geometry": {"coordinates": [-66.9889868, 44.857785], "type": "Point"}, "id": "9OGWUROo61YJYHQDmsdz1vdJZsI=", "properties": {"@spider": "usps_collection_boxes", "addr:city": "LUBEC", "addr:country": "US", "addr:full": "68 WASHINGTON ST", "addr:postcode": "04652", "addr:state": "ME", "amenity": "post_box", "brand": "United States Postal Service", "brand:wikidata": "Q668687", "collection_times": "Mo-Sa 12:05", "name": "USPS COLLECTION BOX - BLUE BOX", "note": "ON 12/24 AND 12/31, THIS BOX MAY BE COLLECTED AS EARLY AS 12 NOON.", "nsi_id": "unitedstatespostalservice-a77078", "operator": "United States Postal Service", "operator:short": "USPS", "operator:type": "public", "operator:wikidata": "Q668687", "ref": "0465200003"}, "type": "Feature"}
{"dataset_attributes": {"@spider": "usps_collection_boxes", "spider:collection_time": "2023-11-07T08:25:32.615229"}, "geometry": {"coordinates": [-66.9831566, 44.858824], "type": "Point"}, "id": "Fi1433mQUPE317TSnDi6OzGs_cE=", "properties": {"@spider": "usps_collection_boxes", "addr:city": "LUBEC", "addr:country": "US", "addr:full": "9 WASHINGTON ST", "addr:postcode": "04652", "addr:state": "ME", "amenity": "post_box", "brand": "United States Postal Service", "brand:wikidata": "Q668687", "collection_times": "Mo-Fr 15:25; Sa 13:45", "name": "USPS COLLECTION BOX - PO LOBBY", "note": "ON 12/24 AND 12/31, THIS BOX MAY BE COLLECTED AS EARLY AS 12 NOON.", "nsi_id": "unitedstatespostalservice-a77078", "operator": "United States Postal Service", "operator:short": "USPS", "operator:type": "public", "operator:wikidata": "Q668687", "ref": "0465200005"}, "type": "Feature"}
{"dataset_attributes": {"@spider": "usps_collection_boxes", "spider:collection_time": "2023-11-07T08:25:32.615229"}, "geometry": {"coordinates": [-66.983754892, 44.8585995], "type": "Point"}, "id": "3KZtfSOh-PRs3xWz2EEucBOCcJs=", "properties": {"@spider": "usps_collection_boxes", "addr:city": "LUBEC", "addr:country": "US", "addr:full": "3 WASHINGTON ST", "addr:postcode": "04652", "addr:state": "ME", "amenity": "post_box", "brand": "United States Postal Service", "brand:wikidata": "Q668687", "collection_times": "Mo-Fr 16:00; Sa 12:00", "name": "USPS COLLECTION BOX - PO LOBBY", "note": "ON 12/24 AND 12/31, THIS BOX MAY BE COLLECTED AS EARLY AS 12 NOON.", "nsi_id": "unitedstatespostalservice-a77078", "operator": "United States Postal Service", "operator:short": "USPS", "operator:type": "public", "operator:wikidata": "Q668687", "ref": "0465200006"}, "type": "Feature"}
{"dataset_attributes": {"@spider": "usps_collection_boxes", "spider:collection_time": "2023-11-07T08:25:32.615229"}, "geometry": {"coordinates": [-68.344329, 44.237619], "type": "Point"}, "id": "EtRuqg3qJXD6Q1I5H26cgqpP4To=", "properties": {"@spider": "usps_collection_boxes", "addr:city": "BASS HARBOR", "addr:country": "US", "addr:full": "209 HARBOR DR", "addr:postcode": "04653", "addr:state": "ME", "amenity": "post_box", "brand": "United States Postal Service", "brand:wikidata": "Q668687", "collection_times": "Mo-Fr 15:00; Sa 11:15", "name": "USPS COLLECTION BOX - BLUE BOX", "note": "ON 12/24 AND 12/31, THIS BOX MAY BE COLLECTED AS EARLY AS 12 NOON.", "nsi_id": "unitedstatespostalservice-a77078", "operator": "United States Postal Service", "operator:short": "USPS", "operator:type": "public", "operator:wikidata": "Q668687", "ref": "0465300001"}, "type": "Feature"}
{"dataset_attributes": {"@spider": "usps_collection_boxes", "spider:collection_time": "2023-11-07T08:25:32.615229"}, "geometry": {"coordinates": [-68.344295, 44.237651], "type": "Point"}, "id": "vEmg6eT0N_QvFag0BKmJS6X1azE=", "properties": {"@spider": "usps_collection_boxes", "addr:city": "BASS HARBOR", "addr:country": "US", "addr:full": "209 HARBOR DR", "addr:postcode": "04653", "addr:state": "ME", "amenity": "post_box", "brand": "United States Postal Service", "brand:wikidata": "Q668687", "collection_times": "Mo-Fr 15:00; Sa 11:15", "name": "USPS COLLECTION BOX - PO LOBBY", "note": "ON 12/24 AND 12/31, THIS BOX MAY BE COLLECTED AS EARLY AS 12 NOON.", "nsi_id": "unitedstatespostalservice-a77078", "operator": "United States Postal Service", "operator:short": "USPS", "operator:type": "public", "operator:wikidata": "Q668687", "ref": "0465300003"}, "type": "Feature"}
{"dataset_attributes": {"@spider": "usps_collection_boxes", "spider:collection_time": "2023-11-07T08:25:32.615229"}, "geometry": {"coordinates": [-68.344341657, 44.23771954], "type": "Point"}, "id": "HuEPv_w3N3AmhAvllzoAj4hYtBY=", "properties": {"@spider": "usps_collection_boxes", "addr:city": "BASS HARBOR", "addr:country": "US", "addr:full": "209 HARBOR DR", "addr:postcode": "04653", "addr:state": "ME", "amenity": "post_box", "brand": "United States Postal Service", "brand:wikidata": "Q668687", "collection_times": "Mo-Fr 16:00; Sa 11:00", "name": "USPS COLLECTION BOX - PO LOBBY", "note": "ON 12/24 AND 12/31, THIS BOX MAY BE COLLECTED AS EARLY AS 12 NOON.", "nsi_id": "unitedstatespostalservice-a77078", "operator": "United States Postal Service", "operator:short": "USPS", "operator:type": "public", "operator:wikidata": "Q668687", "ref": "0465300004"}, "type": "Feature"}
{"dataset_attributes": {"@spider": "usps_collection_boxes", "spider:collection_time": "2023-11-07T08:25:32.615229"}, "geometry": {"coordinates": [-67.4602791, 44.715955], "type": "Point"}, "id": "cOexsd7HgtHgFVoJ0sj8K7onOhI=", "properties": {"@spider": "usps_collection_boxes", "addr:city": "MACHIAS", "addr:country": "US", "addr:full": "89 COURT ST   STE 1", "addr:postcode": "04654", "addr:state": "ME", "amenity": "post_box", "brand": "United States Postal Service", "brand:wikidata": "Q668687", "collection_times": "Mo-Fr 15:45; Sa 12:00", "name": "USPS COLLECTION BOX - BLUE BOX", "note": "ON 12/24 AND 12/31, THIS BOX MAY BE COLLECTED AS EARLY AS 12 NOON.", "nsi_id": "unitedstatespostalservice-a77078", "operator": "United States Postal Service", "operator:short": "USPS", "operator:type": "public", "operator:wikidata": "Q668687", "ref": "0465400001"}, "type": "Feature"}
{"dataset_attributes": {"@spider": "usps_collection_boxes", "spider:collection_time": "2023-11-07T08:25:32.615229"}, "geometry": {"coordinates": [-67.460044, 44.715566], "type": "Point"}, "id": "wnVw-LMn6FiiO89X5FGfC397dqI=", "properties": {"@spider": "usps_collection_boxes", "addr:city": "MACHIAS", "addr:country": "US", "addr:full": "89 COURT ST  STE 1", "addr:postcode": "04654", "addr:state": "ME", "amenity": "post_box", "brand": "United States Postal Service", "brand:wikidata": "Q668687", "collection_times": "Mo-Fr 16:00; Sa 12:00", "name": "USPS COLLECTION BOX - PO LOBBY", "note": "ON 12/24 AND 12/31, THIS BOX MAY BE COLLECTED AS EARLY AS 12 NOON.", "nsi_id": "unitedstatespostalservice-a77078", "operator": "United States Postal Service", "operator:short": "USPS", "operator:type": "public", "operator:wikidata": "Q668687", "ref": "0465400010"}, "type": "Feature"}
{"dataset_attributes": {"@spider": "usps_collection_boxes", "spider:collection_time": "2023-11-07T08:25:32.615229"}, "geometry": {"coordinates": [-67.459983, 44.715847], "type": "Point"}, "id": "_hqRlHobNKhtaD2V1dhr1h0M1H4=", "properties": {"@spider": "usps_collection_boxes", "addr:city": "MACHIAS", "addr:country": "US", "addr:full": "89 COURT ST   STE 1", "addr:postcode": "04654", "addr:state": "ME", "amenity": "post_box", "brand": "United States Postal Service", "brand:wikidata": "Q668687", "collection_times": "Mo-Fr 16:00; Sa 12:00", "name": "USPS COLLECTION BOX - PO LOBBY", "note": "ON 12/24 AND 12/31, THIS BOX MAY BE COLLECTED AS EARLY AS 12 NOON.", "nsi_id": "unitedstatespostalservice-a77078", "operator": "United States Postal Service", "operator:short": "USPS", "operator:type": "public", "operator:wikidata": "Q668687", "ref": "0465400011"}, "type": "Feature"}
{"dataset_attributes": {"@spider": "usps_collection_boxes", "spider:collection_time": "2023-11-07T08:25:32.615229"}, "geometry": {"coordinates": [-67.459831905, 44.715653465], "type": "Point"}, "id": "VFnkBajw4fsV_6i3vQ2_r5mN2wM=", "properties": {"@spider": "usps_collection_boxes", "addr:city": "MACHIAS", "addr:country": "US", "addr:full": "89 COURT ST STE 1", "addr:postcode": "04654", "addr:state": "ME", "amenity": "post_box", "brand": "United States Postal Service", "brand:wikidata": "Q668687", "collection_times": "Mo-Fr 16:30; Sa 12:00", "name": "USPS COLLECTION BOX - PO LOBBY", "note": "ON 12/24 AND 12/31, THIS BOX MAY BE COLLECTED AS EARLY AS 12 NOON.", "nsi_id": "unitedstatespostalservice-a77078", "operator": "United States Postal Service", "operator:short": "USPS", "operator:type": "public", "operator:wikidata": "Q668687", "ref": "0465400012"}, "type": "Feature"}
{"dataset_attributes": {"@spider": "usps_collection_boxes", "spider:collection_time": "2023-11-07T08:25:32.615229"}, "geometry": {"coordinates": [-67.404283, 44.678947], "type": "Point"}, "id": "DjZXsDH9aTUo8i459MMHQr0zeag=", "properties": {"@spider": "usps_collection_boxes", "addr:city": "MACHIASPORT", "addr:country": "US", "addr:full": "2 UNITY SQ", "addr:postcode": "04655", "addr:state": "ME", "amenity": "post_box", "brand": "United States Postal Service", "brand:wikidata": "Q668687", "collection_times": "Mo-Fr 15:00; Sa 11:00", "name": "USPS COLLECTION BOX - BLUE BOX", "note": "ON 12/24 AND 12/31, THIS BOX MAY BE COLLECTED AS EARLY AS 12 NOON.", "nsi_id": "unitedstatespostalservice-a77078", "operator": "United States Postal Service", "operator:short": "USPS", "operator:type": "public", "operator:wikidata": "Q668687", "ref": "0465500001"}, "type": "Feature"}
{"dataset_attributes": {"@spider": "usps_collection_boxes", "spider:collection_time": "2023-11-07T08:25:32.615229"}, "geometry": {"coordinates": [-67.404198, 44.679019], "type": "Point"}, "id": "yhmvGGY8SEVe_L1fq0RoyFs--dA=", "properties": {"@spider": "usps_collection_boxes", "addr:city": "MACHIASPORT", "addr:country": "US", "addr:full": "2 UNITY SQ", "addr:postcode": "04655", "addr:state": "ME", "amenity": "post_box", "brand": "United States Postal Service", "brand:wikidata": "Q668687", "collection_times": "Mo-Fr 15:00; Sa 11:00", "name": "USPS COLLECTION BOX - PO LOBBY", "note": "ON 12/24 AND 12/31, THIS BOX MAY BE COLLECTED AS EARLY AS 12 NOON.", "nsi_id": "unitedstatespostalservice-a77078", "operator": "United States Postal Service", "operator:short": "USPS", "operator:type": "public", "operator:wikidata": "Q668687", "ref": "0465500002"}, "type": "Feature"}
{"dataset_attributes": {"@spider": "usps_collection_boxes", "spider:collection_time": "2023-11-07T08:25:32.615229"}, "geometry": {"coordinates": [-67.404189956, 44.678990987], "type": "Point"}, "id": "bDH8X7eRfd7gz4UG9kJc5G5HRxU=", "properties": {"@spider": "usps_collection_boxes", "addr:city": "MACHIASPORT", "addr:country": "US", "addr:full": "2 UNITY SQ", "addr:postcode": "04655", "addr:state": "ME", "amenity": "post_box", "brand": "United States Postal Service", "brand:wikidata": "Q668687", "collection_times": "Mo-Fr 15:00; Sa 11:00", "name": "USPS COLLECTION BOX - PO LOBBY", "note": "ON 12/24 AND 12/31, THIS BOX MAY BE COLLECTED AS EARLY AS 12 NOON.", "nsi_id": "unitedstatespostalservice-a77078", "operator": "United States Postal Service", "operator:short": "USPS", "operator:type": "public", "operator:wikidata": "Q668687", "ref": "0465500003"}, "type": "Feature"}
{"dataset_attributes": {"@spider": "usps_collection_boxes", "spider:collection_time": "2023-11-07T08:25:32.615229"}, "geometry": {"coordinates": [-67.354543, 45.03741], "type": "Point"}, "id": "mKLxi0dgj0EFVG8L-6vs_3qHR58=", "properties": {"@spider": "usps_collection_boxes", "addr:city": "MEDDYBEMPS", "addr:country": "US", "addr:full": "849 MAIN ST", "addr:postcode": "04657", "addr:state": "ME", "amenity": "post_box", "brand": "United States Postal Service", "brand:wikidata": "Q668687", "collection_times": "Mo-Fr 14:30; Sa 11:45", "name": "USPS COLLECTION BOX - BLUE BOX", "note": "ON 12/24 AND 12/31, THIS BOX MAY BE COLLECTED AS EARLY AS 12 NOON.", "nsi_id": "unitedstatespostalservice-a77078", "operator": "United States Postal Service", "operator:short": "USPS", "operator:type": "public", "operator:wikidata": "Q668687", "ref": "0465700000"}, "type": "Feature"}
{"dataset_attributes": {"@spider": "usps_collection_boxes", "spider:collection_time": "2023-11-07T08:25:32.615229"}, "geometry": {"coordinates": [-67.3546, 45.037404], "type": "Point"}, "id": "RkotYLQpQUmVBnfL9R0nK-E_M8o=", "properties": {"@spider": "usps_collection_boxes", "addr:city": "MEDDYBEMPS", "addr:country": "US", "addr:full": "849 MAIN ST", "addr:postcode": "04657", "addr:state": "ME", "amenity": "post_box", "brand": "United States Postal Service", "brand:wikidata": "Q668687", "collection_times": "Mo-Fr 14:30; Sa 11:45", "name": "USPS COLLECTION BOX - PO LOBBY", "note": "ON 12/24 AND 12/31, THIS BOX MAY BE COLLECTED AS EARLY AS 12 NOON.", "nsi_id": "unitedstatespostalservice-a77078", "operator": "United States Postal Service", "operator:short": "USPS", "operator:type": "public", "operator:wikidata": "Q668687", "ref": "0465700001"}, "type": "Feature"}
{"dataset_attributes": {"@spider": "usps_collection_boxes", "spider:collection_time": "2023-11-07T08:25:32.615229"}, "geometry": {"coordinates": [-67.354568875, 45.037426148], "type": "Point"}, "id": "Ugu4vjRqmva2FmzPmp-kR6hR9VI=", "properties": {"@spider": "usps_collection_boxes", "addr:city": "MEDDYBEMPS", "addr:country": "US", "addr:full": "849 MAIN ST", "addr:postcode": "04657", "addr:state": "ME", "amenity": "post_box", "brand": "United States Postal Service", "brand:wikidata": "Q668687", "collection_times": "Mo-Fr 14:30; Sa 11:45", "name": "USPS COLLECTION BOX - PO LOBBY", "note": "ON 12/24 AND 12/31, THIS BOX MAY BE COLLECTED AS EARLY AS 12 NOON.", "nsi_id": "unitedstatespostalservice-a77078", "operator": "United States Postal Service", "operator:short": "USPS", "operator:type": "public", "operator:wikidata": "Q668687", "ref": "0465700002"}, "type": "Feature"}
{"dataset_attributes": {"@spider": "usps_collection_boxes", "spider:collection_time": "2023-11-07T08:25:32.615229"}, "geometry": {"coordinates": [-67.8809041, 44.53888], "type": "Point"}, "id": "suSb1Hzux1sqP1msY5g47t0KLGs=", "properties": {"@spider": "usps_collection_boxes", "addr:city": "MILBRIDGE", "addr:country": "US", "addr:full": "19 SCHOOL ST", "addr:postcode": "04658", "addr:state": "ME", "amenity": "post_box", "brand": "United States Postal Service", "brand:wikidata": "Q668687", "collection_times": "Mo-Fr 16:30; Sa 11:15", "name": "USPS COLLECTION BOX - BLUE BOX", "note": "ON 12/24 AND 12/31, THIS BOX MAY BE COLLECTED AS EARLY AS 12 NOON.", "nsi_id": "unitedstatespostalservice-a77078", "operator": "United States Postal Service", "operator:short": "USPS", "operator:type": "public", "operator:wikidata": "Q668687", "ref": "0465800001"}, "type": "Feature"}
{"dataset_attributes": {"@spider": "usps_collection_boxes", "spider:collection_time": "2023-11-07T08:25:32.615229"}, "geometry": {"coordinates": [-67.8807705, 44.53886], "type": "Point"}, "id": "gAisltU2jWPOxzATjXNcDhaaJ0U=", "properties": {"@spider": "usps_collection_boxes", "addr:city": "MILBRIDGE", "addr:country": "US", "addr:full": "19 SCHOOL ST", "addr:postcode": "04658", "addr:state": "ME", "amenity": "post_box", "brand": "United States Postal Service", "brand:wikidata": "Q668687", "collection_times": "Mo-Fr 16:45; Sa 11:15", "name": "USPS COLLECTION BOX - PO LOBBY", "note": "ON 12/24 AND 12/31, THIS BOX MAY BE COLLECTED AS EARLY AS 12 NOON.", "nsi_id": "unitedstatespostalservice-a77078", "operator": "United States Postal Service", "operator:short": "USPS", "operator:type": "public", "operator:wikidata": "Q668687", "ref": "0465800003"}, "type": "Feature"}
{"dataset_attributes": {"@spider": "usps_collection_boxes", "spider:collection_time": "2023-11-07T08:25:32.615229"}, "geometry": {"coordinates": [-67.881066727, 44.538945748], "type": "Point"}, "id": "1ti5fk-lEeV2k2z2qe5q9rTSCs4=", "properties": {"@spider": "usps_collection_boxes", "addr:city": "MILBRIDGE", "addr:country": "US", "addr:full": "19 SCHOOL ST", "addr:postcode": "04658", "addr:state": "ME", "amenity": "post_box", "brand": "United States Postal Service", "brand:wikidata": "Q668687", "collection_times": "Mo-Fr 16:45; Sa 11:15", "name": "USPS COLLECTION BOX - PO LOBBY", "note": "ON 12/24 AND 12/31, THIS BOX MAY BE COLLECTED AS EARLY AS 12 NOON.", "nsi_id": "unitedstatespostalservice-a77078", "operator": "United States Postal Service", "operator:short": "USPS", "operator:type": "public", "operator:wikidata": "Q668687", "ref": "0465800004"}, "type": "Feature"}
{"dataset_attributes": {"@spider": "usps_collection_boxes", "spider:collection_time": "2023-11-07T08:25:32.615229"}, "geometry": {"coordinates": [-68.330711, 44.370449], "type": "Point"}, "id": "o4EwnRMhoPIdyKShEU9BMflIGvs=", "properties": {"@spider": "usps_collection_boxes", "addr:city": "MOUNT DESERT", "addr:country": "US", "addr:full": "1057 MAIN ST", "addr:postcode": "04660", "addr:state": "ME", "amenity": "post_box", "brand": "United States Postal Service", "brand:wikidata": "Q668687", "collection_times": "Mo-Fr 16:45; Sa 11:45", "name": "USPS COLLECTION BOX - BLUE BOX", "note": "ON 12/24 AND 12/31, THIS BOX MAY BE COLLECTED AS EARLY AS 12 NOON.", "nsi_id": "unitedstatespostalservice-a77078", "operator": "United States Postal Service", "operator:short": "USPS", "operator:type": "public", "operator:wikidata": "Q668687", "ref": "0466000000"}, "type": "Feature"}
{"dataset_attributes": {"@spider": "usps_collection_boxes", "spider:collection_time": "2023-11-07T08:25:32.615229"}, "geometry": {"coordinates": [-68.330666, 44.370413], "type": "Point"}, "id": "-P_BaRNP_xlj55lPMhhqsHjSeHU=", "properties": {"@spider": "usps_collection_boxes", "addr:city": "MOUNT DESERT", "addr:country": "US", "addr:full": "1057 MAIN ST", "addr:postcode": "04660", "addr:state": "ME", "amenity": "post_box", "brand": "United States Postal Service", "brand:wikidata": "Q668687", "collection_times": "Mo-Fr 16:50; Sa 11:50", "name": "USPS COLLECTION BOX - PO LOBBY", "note": "ON 12/24 AND 12/31, THIS BOX MAY BE COLLECTED AS EARLY AS 12 NOON.", "nsi_id": "unitedstatespostalservice-a77078", "operator": "United States Postal Service", "operator:short": "USPS", "operator:type": "public", "operator:wikidata": "Q668687", "ref": "0466000001"}, "type": "Feature"}
{"dataset_attributes": {"@spider": "usps_collection_boxes", "spider:collection_time": "2023-11-07T08:25:32.615229"}, "geometry": {"coordinates": [-68.330620204, 44.369754789], "type": "Point"}, "id": "TA4TZDfudxcd2lTea5LdMXKlscI=", "properties": {"@spider": "usps_collection_boxes", "addr:city": "MOUNT DESERT", "addr:country": "US", "addr:full": "1057 MAIN ST", "addr:postcode": "04660", "addr:state": "ME", "amenity": "post_box", "brand": "United States Postal Service", "brand:wikidata": "Q668687", "collection_times": "Mo-Fr 16:30; Sa 11:30", "name": "USPS COLLECTION BOX - PO LOBBY", "note": "ON 12/24 AND 12/31, THIS BOX MAY BE COLLECTED AS EARLY AS 12 NOON.", "nsi_id": "unitedstatespostalservice-a77078", "operator": "United States Postal Service", "operator:short": "USPS", "operator:type": "public", "operator:wikidata": "Q668687", "ref": "0466000002"}, "type": "Feature"}
{"dataset_attributes": {"@spider": "usps_collection_boxes", "spider:collection_time": "2023-11-07T08:25:32.615229"}, "geometry": {"coordinates": [-68.289389, 44.294302], "type": "Point"}, "id": "LAlIbPNGnXeBP0tbglA9Z6kBBr4=", "properties": {"@spider": "usps_collection_boxes", "addr:city": "NORTHEAST HBR", "addr:country": "US", "addr:full": "112 MAIN ST", "addr:postcode": "04662", "addr:state": "ME", "amenity": "post_box", "brand": "United States Postal Service", "brand:wikidata": "Q668687", "collection_times": "Mo-Fr 16:00; Sa 11:30", "name": "USPS COLLECTION BOX - BLUE BOX", "note": "ON 12/24 AND 12/31, THIS BOX MAY BE COLLECTED AS EARLY AS 12 NOON.", "nsi_id": "unitedstatespostalservice-a77078", "operator": "United States Postal Service", "operator:short": "USPS", "operator:type": "public", "operator:wikidata": "Q668687", "ref": "0466200001"}, "type": "Feature"}
{"dataset_attributes": {"@spider": "usps_collection_boxes", "spider:collection_time": "2023-11-07T08:25:32.615229"}, "geometry": {"coordinates": [-68.289389, 44.294302], "type": "Point"}, "id": "O-VeYHLSuv9Q4yC6iKrzItNlsrQ=", "properties": {"@spider": "usps_collection_boxes", "addr:city": "NORTHEAST HBR", "addr:country": "US", "addr:full": "112 MAIN ST", "addr:postcode": "04662", "addr:state": "ME", "amenity": "post_box", "brand": "United States Postal Service", "brand:wikidata": "Q668687", "collection_times": "Mo-Fr 16:00; Sa 11:30", "name": "USPS COLLECTION BOX - PO LOBBY", "note": "ON 12/24 AND 12/31, THIS BOX MAY BE COLLECTED AS EARLY AS 12 NOON.", "nsi_id": "unitedstatespostalservice-a77078", "operator": "United States Postal Service", "operator:short": "USPS", "operator:type": "public", "operator:wikidata": "Q668687", "ref": "0466200002"}, "type": "Feature"}
{"dataset_attributes": {"@spider": "usps_collection_boxes", "spider:collection_time": "2023-11-07T08:25:32.615229"}, "geometry": {"coordinates": [-68.289314192, 44.294242788], "type": "Point"}, "id": "nm5wZ0RueBYFBMO7G2X3IzqJA68=", "properties": {"@spider": "usps_collection_boxes", "addr:city": "NORTHEAST HBR", "addr:country": "US", "addr:full": "112 MAIN ST", "addr:postcode": "04662", "addr:state": "ME", "amenity": "post_box", "brand": "United States Postal Service", "brand:wikidata": "Q668687", "collection_times": "Mo-Fr 16:00; Sa 11:30", "name": "USPS COLLECTION BOX - PO LOBBY", "note": "ON 12/24 AND 12/31, THIS BOX MAY BE COLLECTED AS EARLY AS 12 NOON.", "nsi_id": "unitedstatespostalservice-a77078", "operator": "United States Postal Service", "operator:short": "USPS", "operator:type": "public", "operator:wikidata": "Q668687", "ref": "0466200003"}, "type": "Feature"}
{"dataset_attributes": {"@spider": "usps_collection_boxes", "spider:collection_time": "2023-11-07T08:25:32.615229"}, "geometry": {"coordinates": [-68.2369311, 44.532635], "type": "Point"}, "id": "FDv8DXMHpyHD1G_XDqXAyIwiZC0=", "properties": {"@spider": "usps_collection_boxes", "addr:city": "SULLIVAN", "addr:country": "US", "addr:full": "96 TAUNTON DR", "addr:postcode": "04664", "addr:state": "ME", "amenity": "post_box", "brand": "United States Postal Service", "brand:wikidata": "Q668687", "collection_times": "Mo-Fr 14:30; Sa 10:45", "name": "USPS COLLECTION BOX - PO LOBBY", "note": "ON 12/24 AND 12/31, THIS BOX MAY BE COLLECTED AS EARLY AS 12 NOON.", "nsi_id": "unitedstatespostalservice-a77078", "operator": "United States Postal Service", "operator:short": "USPS", "operator:type": "public", "operator:wikidata": "Q668687", "ref": "0466400002"}, "type": "Feature"}
{"dataset_attributes": {"@spider": "usps_collection_boxes", "spider:collection_time": "2023-11-07T08:25:32.615229"}, "geometry": {"coordinates": [-68.2370581, 44.532786], "type": "Point"}, "id": "NcXWCwaq4tka_9uWekIvAa7fCwk=", "properties": {"@spider": "usps_collection_boxes", "addr:city": "SULLIVAN", "addr:country": "US", "addr:full": "96 TAUNTON DR", "addr:postcode": "04664", "addr:state": "ME", "amenity": "post_box", "brand": "United States Postal Service", "brand:wikidata": "Q668687", "collection_times": "Mo-Fr 14:30; Sa 10:45", "name": "USPS COLLECTION BOX - BLUE BOX", "note": "ON 12/24 AND 12/31, THIS BOX MAY BE COLLECTED AS EARLY AS 12 NOON.", "nsi_id": "unitedstatespostalservice-a77078", "operator": "United States Postal Service", "operator:short": "USPS", "operator:type": "public", "operator:wikidata": "Q668687", "ref": "0466400003"}, "type": "Feature"}
{"dataset_attributes": {"@spider": "usps_collection_boxes", "spider:collection_time": "2023-11-07T08:25:32.615229"}, "geometry": {"coordinates": [-68.23665542, 44.532726958], "type": "Point"}, "id": "L9-UduM1-o7yzPqpvCHe-2vx_eU=", "properties": {"@spider": "usps_collection_boxes", "addr:city": "SULLIVAN", "addr:country": "US", "addr:full": "96 TAUNTON DR", "addr:postcode": "04664", "addr:state": "ME", "amenity": "post_box", "brand": "United States Postal Service", "brand:wikidata": "Q668687", "collection_times": "Mo-Fr 14:30; Sa 10:30", "name": "USPS COLLECTION BOX - PO LOBBY", "note": "ON 12/24 AND 12/31, THIS BOX MAY BE COLLECTED AS EARLY AS 12 NOON.", "nsi_id": "unitedstatespostalservice-a77078", "operator": "United States Postal Service", "operator:short": "USPS", "operator:type": "public", "operator:wikidata": "Q668687", "ref": "0466400004"}, "type": "Feature"}
{"dataset_attributes": {"@spider": "usps_collection_boxes", "spider:collection_time": "2023-11-07T08:25:32.615229"}, "geometry": {"coordinates": [-67.180182, 44.948661], "type": "Point"}, "id": "K45W5RJu1sx9oAqjhjvvTuUJsNw=", "properties": {"@spider": "usps_collection_boxes", "addr:city": "PEMBROKE", "addr:country": "US", "addr:full": "475 US ROUTE 1", "addr:postcode": "04666", "addr:state": "ME", "amenity": "post_box", "brand": "United States Postal Service", "brand:wikidata": "Q668687", "collection_times": "Mo-Fr 15:00; Sa 11:45", "name": "USPS COLLECTION BOX - BLUE BOX", "note": "ON 12/24 AND 12/31, THIS BOX MAY BE COLLECTED AS EARLY AS 12 NOON.", "nsi_id": "unitedstatespostalservice-a77078", "operator": "United States Postal Service", "operator:short": "USPS", "operator:type": "public", "operator:wikidata": "Q668687", "ref": "0466600001"}, "type": "Feature"}
{"dataset_attributes": {"@spider": "usps_collection_boxes", "spider:collection_time": "2023-11-07T08:25:32.615229"}, "geometry": {"coordinates": [-67.180206, 44.948682], "type": "Point"}, "id": "cqdAzTQ8_dAZeqg67mdFWPmjfBU=", "properties": {"@spider": "usps_collection_boxes", "addr:city": "PEMBROKE", "addr:country": "US", "addr:full": "475 US ROUTE 1", "addr:postcode": "04666", "addr:state": "ME", "amenity": "post_box", "brand": "United States Postal Service", "brand:wikidata": "Q668687", "collection_times": "Mo-Fr 15:00; Sa 11:45", "name": "USPS COLLECTION BOX - PO LOBBY", "note": "ON 12/24 AND 12/31, THIS BOX MAY BE COLLECTED AS EARLY AS 12 NOON.", "nsi_id": "unitedstatespostalservice-a77078", "operator": "United States Postal Service", "operator:short": "USPS", "operator:type": "public", "operator:wikidata": "Q668687", "ref": "0466600003"}, "type": "Feature"}
{"dataset_attributes": {"@spider": "usps_collection_boxes", "spider:collection_time": "2023-11-07T08:25:32.615229"}, "geometry": {"coordinates": [-67.179096981, 44.949304634], "type": "Point"}, "id": "mAgB1t5p8hNC5HmE81wBmzVNAwE=", "properties": {"@spider": "usps_collection_boxes", "addr:city": "PEMBROKE", "addr:country": "US", "addr:full": "475 US ROUTE 1", "addr:postcode": "04666", "addr:state": "ME", "amenity": "post_box", "brand": "United States Postal Service", "brand:wikidata": "Q668687", "collection_times": "Mo-Fr 15:00; Sa 11:30", "name": "USPS COLLECTION BOX - PO LOBBY", "note": "ON 12/24 AND 12/31, THIS BOX MAY BE COLLECTED AS EARLY AS 12 NOON.", "nsi_id": "unitedstatespostalservice-a77078", "operator": "United States Postal Service", "operator:short": "USPS", "operator:type": "public", "operator:wikidata": "Q668687", "ref": "0466600004"}, "type": "Feature"}
{"dataset_attributes": {"@spider": "usps_collection_boxes", "spider:collection_time": "2023-11-07T08:25:32.615229"}, "geometry": {"coordinates": [-67.111484, 45.034866], "type": "Point"}, "id": "5E06eMsOW3R9ZKeqivV2ULLleK0=", "properties": {"@spider": "usps_collection_boxes", "addr:city": "PERRY", "addr:country": "US", "addr:full": "972 US ROUTE 1", "addr:postcode": "04667", "addr:state": "ME", "amenity": "post_box", "brand": "United States Postal Service", "brand:wikidata": "Q668687", "collection_times": "Mo-Fr 16:00; Sa 11:30", "name": "USPS COLLECTION BOX - BLUE BOX", "note": "ON 12/24 AND 12/31, THIS BOX MAY BE COLLECTED AS EARLY AS 12 NOON.", "nsi_id": "unitedstatespostalservice-a77078", "operator": "United States Postal Service", "operator:short": "USPS", "operator:type": "public", "operator:wikidata": "Q668687", "ref": "0466700001"}, "type": "Feature"}
{"dataset_attributes": {"@spider": "usps_collection_boxes", "spider:collection_time": "2023-11-07T08:25:32.615229"}, "geometry": {"coordinates": [-67.111461, 45.034953], "type": "Point"}, "id": "yd7PQelUG3wWVChVLfq4S3_SWho=", "properties": {"@spider": "usps_collection_boxes", "addr:city": "PERRY", "addr:country": "US", "addr:full": "972 US ROUTE 1", "addr:postcode": "04667", "addr:state": "ME", "amenity": "post_box", "brand": "United States Postal Service", "brand:wikidata": "Q668687", "collection_times": "Mo-Fr 16:00; Sa 11:30", "name": "USPS COLLECTION BOX - PO LOBBY", "note": "ON 12/24 AND 12/31, THIS BOX MAY BE COLLECTED AS EARLY AS 12 NOON.", "nsi_id": "unitedstatespostalservice-a77078", "operator": "United States Postal Service", "operator:short": "USPS", "operator:type": "public", "operator:wikidata": "Q668687", "ref": "0466700002"}, "type": "Feature"}
{"dataset_attributes": {"@spider": "usps_collection_boxes", "spider:collection_time": "2023-11-07T08:25:32.615229"}, "geometry": {"coordinates": [-67.074859284, 44.972172587], "type": "Point"}, "id": "lmWdH16FLHY-6loh5mOLmN3VtX0=", "properties": {"@spider": "usps_collection_boxes", "addr:city": "PERRY", "addr:country": "US", "addr:full": "972 US ROUTE 1", "addr:postcode": "04667", "addr:state": "ME", "amenity": "post_box", "brand": "United States Postal Service", "brand:wikidata": "Q668687", "collection_times": "Mo-Fr 16:15; Sa 11:30", "name": "USPS COLLECTION BOX - PO LOBBY", "note": "ON 12/24 AND 12/31, THIS BOX MAY BE COLLECTED AS EARLY AS 12 NOON.", "nsi_id": "unitedstatespostalservice-a77078", "operator": "United States Postal Service", "operator:short": "USPS", "operator:type": "public", "operator:wikidata": "Q668687", "ref": "0466700003"}, "type": "Feature"}
{"dataset_attributes": {"@spider": "usps_collection_boxes", "spider:collection_time": "2023-11-07T08:25:32.615229"}, "geometry": {"coordinates": [-67.57591, 45.224706], "type": "Point"}, "id": "qwVOpPOGCAozX7EacXjOyzZXYyE=", "properties": {"@spider": "usps_collection_boxes", "addr:city": "PRINCETON", "addr:country": "US", "addr:full": "20 MAIN ST", "addr:postcode": "04668", "addr:state": "ME", "amenity": "post_box", "brand": "United States Postal Service", "brand:wikidata": "Q668687", "collection_times": "Mo-Fr 15:30; Sa 11:30", "name": "USPS COLLECTION BOX - BLUE BOX", "note": "ON 12/24 AND 12/31, THIS BOX MAY BE COLLECTED AS EARLY AS 12 NOON.", "nsi_id": "unitedstatespostalservice-a77078", "operator": "United States Postal Service", "operator:short": "USPS", "operator:type": "public", "operator:wikidata": "Q668687", "ref": "0466800001"}, "type": "Feature"}
{"dataset_attributes": {"@spider": "usps_collection_boxes", "spider:collection_time": "2023-11-07T08:25:32.615229"}, "geometry": {"coordinates": [-67.57591, 45.224706], "type": "Point"}, "id": "WFLSQG4_arzmIp-ZfR4z3ipSesw=", "properties": {"@spider": "usps_collection_boxes", "addr:city": "PRINCETON", "addr:country": "US", "addr:full": "20 MAIN ST", "addr:postcode": "04668", "addr:state": "ME", "amenity": "post_box", "brand": "United States Postal Service", "brand:wikidata": "Q668687", "collection_times": "Mo-Fr 16:00; Sa 11:30", "name": "USPS COLLECTION BOX - PO LOBBY", "note": "ON 12/24 AND 12/31, THIS BOX MAY BE COLLECTED AS EARLY AS 12 NOON.", "nsi_id": "unitedstatespostalservice-a77078", "operator": "United States Postal Service", "operator:short": "USPS", "operator:type": "public", "operator:wikidata": "Q668687", "ref": "0466800002"}, "type": "Feature"}
{"dataset_attributes": {"@spider": "usps_collection_boxes", "spider:collection_time": "2023-11-07T08:25:32.615229"}, "geometry": {"coordinates": [-67.57591, 45.224706], "type": "Point"}, "id": "07xMUuaQr_lC_IWkQXLQahUAA6k=", "properties": {"@spider": "usps_collection_boxes", "addr:city": "PRINCETON", "addr:country": "US", "addr:full": "20 MAIN ST", "addr:postcode": "04668", "addr:state": "ME", "amenity": "post_box", "brand": "United States Postal Service", "brand:wikidata": "Q668687", "collection_times": "Mo-Fr 16:00; Sa 11:30", "name": "USPS COLLECTION BOX - PO LOBBY", "note": "ON 12/24 AND 12/31, THIS BOX MAY BE COLLECTED AS EARLY AS 12 NOON.", "nsi_id": "unitedstatespostalservice-a77078", "operator": "United States Postal Service", "operator:short": "USPS", "operator:type": "public", "operator:wikidata": "Q668687", "ref": "0466800003"}, "type": "Feature"}
{"dataset_attributes": {"@spider": "usps_collection_boxes", "spider:collection_time": "2023-11-07T08:25:32.615229"}, "geometry": {"coordinates": [-67.575837384, 45.224634552], "type": "Point"}, "id": "4SPzVmKvAJ7ffGfd5OpRrncHy0g=", "properties": {"@spider": "usps_collection_boxes", "addr:city": "PRINCETON", "addr:country": "US", "addr:full": "20 MAIN ST", "addr:postcode": "04668", "addr:state": "ME", "amenity": "post_box", "brand": "United States Postal Service", "brand:wikidata": "Q668687", "collection_times": "Mo-Fr 16:00; Sa 11:30", "name": "USPS COLLECTION BOX - PO LOBBY", "note": "ON 12/24 AND 12/31, THIS BOX MAY BE COLLECTED AS EARLY AS 12 NOON.", "nsi_id": "unitedstatespostalservice-a77078", "operator": "United States Postal Service", "operator:short": "USPS", "operator:type": "public", "operator:wikidata": "Q668687", "ref": "0466800006"}, "type": "Feature"}
{"dataset_attributes": {"@spider": "usps_collection_boxes", "spider:collection_time": "2023-11-07T08:25:32.615229"}, "geometry": {"coordinates": [-68.024672, 44.411131], "type": "Point"}, "id": "YyCaiwhXokTlDByrCMcA9J2uP48=", "properties": {"@spider": "usps_collection_boxes", "addr:city": "PROSPECT HARBOR", "addr:country": "US", "addr:full": "11 W BAY RD", "addr:postcode": "04669", "addr:state": "ME", "amenity": "post_box", "brand": "United States Postal Service", "brand:wikidata": "Q668687", "collection_times": "Mo-Fr 15:30; Sa 11:30", "name": "USPS COLLECTION BOX - BLUE BOX", "note": "ON 12/24 AND 12/31, THIS BOX MAY BE COLLECTED AS EARLY AS 12 NOON.", "nsi_id": "unitedstatespostalservice-a77078", "operator": "United States Postal Service", "operator:short": "USPS", "operator:type": "public", "operator:wikidata": "Q668687", "ref": "0466900001"}, "type": "Feature"}
{"dataset_attributes": {"@spider": "usps_collection_boxes", "spider:collection_time": "2023-11-07T08:25:32.615229"}, "geometry": {"coordinates": [-68.024744, 44.411075], "type": "Point"}, "id": "UQToKtOyamM489b0hDRuMN3EWfA=", "properties": {"@spider": "usps_collection_boxes", "addr:city": "PROSPECT HARBOR", "addr:country": "US", "addr:full": "11 W BAY RD", "addr:postcode": "04669", "addr:state": "ME", "amenity": "post_box", "brand": "United States Postal Service", "brand:wikidata": "Q668687", "collection_times": "Mo-Fr 15:30; Sa 11:45", "name": "USPS COLLECTION BOX - PO LOBBY", "note": "ON 12/24 AND 12/31, THIS BOX MAY BE COLLECTED AS EARLY AS 12 NOON.", "nsi_id": "unitedstatespostalservice-a77078", "operator": "United States Postal Service", "operator:short": "USPS", "operator:type": "public", "operator:wikidata": "Q668687", "ref": "0466900003"}, "type": "Feature"}
{"dataset_attributes": {"@spider": "usps_collection_boxes", "spider:collection_time": "2023-11-07T08:25:32.615229"}, "geometry": {"coordinates": [-68.024620719, 44.41122505], "type": "Point"}, "id": "nxsBp7jDfdKPTMa-F8ECLCbKkK4=", "properties": {"@spider": "usps_collection_boxes", "addr:city": "PROSPECT HARBOR", "addr:country": "US", "addr:full": "11 W BAY RD", "addr:postcode": "04669", "addr:state": "ME", "amenity": "post_box", "brand": "United States Postal Service", "brand:wikidata": "Q668687", "collection_times": "Mo-Fr 15:30; Sa 11:30", "name": "USPS COLLECTION BOX - PO LOBBY", "note": "ON 12/24 AND 12/31, THIS BOX MAY BE COLLECTED AS EARLY AS 12 NOON.", "nsi_id": "unitedstatespostalservice-a77078", "operator": "United States Postal Service", "operator:short": "USPS", "operator:type": "public", "operator:wikidata": "Q668687", "ref": "0466900004"}, "type": "Feature"}
{"dataset_attributes": {"@spider": "usps_collection_boxes", "spider:collection_time": "2023-11-07T08:25:32.615229"}, "geometry": {"coordinates": [-67.12057, 45.092032], "type": "Point"}, "id": "yeSNGCgoXvFrB12uD9nNFsHLjiQ=", "properties": {"@spider": "usps_collection_boxes", "addr:city": "ROBBINSTON", "addr:country": "US", "addr:full": "398 US RTE 1", "addr:postcode": "04671", "addr:state": "ME", "amenity": "post_box", "brand": "United States Postal Service", "brand:wikidata": "Q668687", "collection_times": "Mo-Fr 15:30; Sa 11:00", "name": "USPS COLLECTION BOX - BLUE BOX", "note": "ON 12/24 AND 12/31, THIS BOX MAY BE COLLECTED AS EARLY AS 12 NOON.", "nsi_id": "unitedstatespostalservice-a77078", "operator": "United States Postal Service", "operator:short": "USPS", "operator:type": "public", "operator:wikidata": "Q668687", "ref": "0467100001"}, "type": "Feature"}
{"dataset_attributes": {"@spider": "usps_collection_boxes", "spider:collection_time": "2023-11-07T08:25:32.615229"}, "geometry": {"coordinates": [-67.120461, 45.091978], "type": "Point"}, "id": "By-eu5irjuR12CpxOsuAzDxM_TQ=", "properties": {"@spider": "usps_collection_boxes", "addr:city": "ROBBINSTON", "addr:country": "US", "addr:full": "398 US RTE 1", "addr:postcode": "04671", "addr:state": "ME", "amenity": "post_box", "brand": "United States Postal Service", "brand:wikidata": "Q668687", "collection_times": "Mo-Fr 15:30; Sa 11:15", "name": "USPS COLLECTION BOX - PO LOBBY", "note": "ON 12/24 AND 12/31, THIS BOX MAY BE COLLECTED AS EARLY AS 12 NOON.", "nsi_id": "unitedstatespostalservice-a77078", "operator": "United States Postal Service", "operator:short": "USPS", "operator:type": "public", "operator:wikidata": "Q668687", "ref": "0467100002"}, "type": "Feature"}
{"dataset_attributes": {"@spider": "usps_collection_boxes", "spider:collection_time": "2023-11-07T08:25:32.615229"}, "geometry": {"coordinates": [-67.121541838, 45.092902924], "type": "Point"}, "id": "ZCOY51WnJoDnPYaEjtXJom9YXKs=", "properties": {"@spider": "usps_collection_boxes", "addr:city": "ROBBINSTON", "addr:country": "US", "addr:full": "398 US RTE 1", "addr:postcode": "04671", "addr:state": "ME", "amenity": "post_box", "brand": "United States Postal Service", "brand:wikidata": "Q668687", "collection_times": "Mo-Fr 15:30; Sa 11:00", "name": "USPS COLLECTION BOX - PO LOBBY", "note": "ON 12/24 AND 12/31, THIS BOX MAY BE COLLECTED AS EARLY AS 12 NOON.", "nsi_id": "unitedstatespostalservice-a77078", "operator": "United States Postal Service", "operator:short": "USPS", "operator:type": "public", "operator:wikidata": "Q668687", "ref": "0467100003"}, "type": "Feature"}
{"dataset_attributes": {"@spider": "usps_collection_boxes", "spider:collection_time": "2023-11-07T08:25:32.615229"}, "geometry": {"coordinates": [-68.2838248947, 44.4289070391], "type": "Point"}, "id": "QgVA4FC7Y_B9PBvVamRhZNTMbfE=", "properties": {"@spider": "usps_collection_boxes", "addr:city": "SALSBURY COVE", "addr:country": "US", "addr:full": "855 NORWAY DR", "addr:postcode": "04672", "addr:state": "ME", "amenity": "post_box", "brand": "United States Postal Service", "brand:wikidata": "Q668687", "collection_times": "Mo-Fr 16:00; Sa 11:00", "name": "USPS COLLECTION BOX - BLUE BOX", "note": "ON 12/24 AND 12/31, THIS BOX MAY BE COLLECTED AS EARLY AS 12 NOON.", "nsi_id": "unitedstatespostalservice-a77078", "operator": "United States Postal Service", "operator:short": "USPS", "operator:type": "public", "operator:wikidata": "Q668687", "ref": "0467200001"}, "type": "Feature"}
{"dataset_attributes": {"@spider": "usps_collection_boxes", "spider:collection_time": "2023-11-07T08:25:32.615229"}, "geometry": {"coordinates": [-68.2838248947, 44.4289070391], "type": "Point"}, "id": "uwKm_qR0N5NhRFh5D0SxEXWHrOQ=", "properties": {"@spider": "usps_collection_boxes", "addr:city": "SALSBURY COVE", "addr:country": "US", "addr:full": "855 NORWAY DR", "addr:postcode": "04672", "addr:state": "ME", "amenity": "post_box", "brand": "United States Postal Service", "brand:wikidata": "Q668687", "collection_times": "Mo-Fr 16:30; Sa 11:30", "name": "USPS COLLECTION BOX - PO LOBBY", "note": "ON 12/24 AND 12/31, THIS BOX MAY BE COLLECTED AS EARLY AS 12 NOON.", "nsi_id": "unitedstatespostalservice-a77078", "operator": "United States Postal Service", "operator:short": "USPS", "operator:type": "public", "operator:wikidata": "Q668687", "ref": "0467200002"}, "type": "Feature"}
{"dataset_attributes": {"@spider": "usps_collection_boxes", "spider:collection_time": "2023-11-07T08:25:32.615229"}, "geometry": {"coordinates": [-68.284534532, 44.430449679], "type": "Point"}, "id": "Ght-3Kuv0yNIsoZm4ygYJkr_GiM=", "properties": {"@spider": "usps_collection_boxes", "addr:city": "SALSBURY COVE", "addr:country": "US", "addr:full": "855 NORWAY DR", "addr:postcode": "04672", "addr:state": "ME", "amenity": "post_box", "brand": "United States Postal Service", "brand:wikidata": "Q668687", "collection_times": "Mo-Fr 16:30; Sa 12:00", "name": "USPS COLLECTION BOX - PO LOBBY", "note": "ON 12/24 AND 12/31, THIS BOX MAY BE COLLECTED AS EARLY AS 12 NOON.", "nsi_id": "unitedstatespostalservice-a77078", "operator": "United States Postal Service", "operator:short": "USPS", "operator:type": "public", "operator:wikidata": "Q668687", "ref": "0467200003"}, "type": "Feature"}
{"dataset_attributes": {"@spider": "usps_collection_boxes", "spider:collection_time": "2023-11-07T08:25:32.615229"}, "geometry": {"coordinates": [-68.400265, 44.272285], "type": "Point"}, "id": "Ozrfw8q9N61MtTQDEpwVjvdbVRQ=", "properties": {"@spider": "usps_collection_boxes", "addr:city": "SEAL COVE", "addr:country": "US", "addr:full": "896 TREMONT RD", "addr:postcode": "04674", "addr:state": "ME", "amenity": "post_box", "brand": "United States Postal Service", "brand:wikidata": "Q668687", "collection_times": "Mo-Fr 16:00; Sa 11:45", "name": "USPS COLLECTION BOX - BLUE BOX", "note": "ON 12/24 AND 12/31, THIS BOX MAY BE COLLECTED AS EARLY AS 12 NOON.", "nsi_id": "unitedstatespostalservice-a77078", "operator": "United States Postal Service", "operator:short": "USPS", "operator:type": "public", "operator:wikidata": "Q668687", "ref": "0467400001"}, "type": "Feature"}
{"dataset_attributes": {"@spider": "usps_collection_boxes", "spider:collection_time": "2023-11-07T08:25:32.615229"}, "geometry": {"coordinates": [-68.400265, 44.272366], "type": "Point"}, "id": "I_luA9vxi3oK8pIz9RD_p154Sh8=", "properties": {"@spider": "usps_collection_boxes", "addr:city": "SEAL COVE", "addr:country": "US", "addr:full": "896 TREMONT RD", "addr:postcode": "04674", "addr:state": "ME", "amenity": "post_box", "brand": "United States Postal Service", "brand:wikidata": "Q668687", "collection_times": "Mo-Fr 16:10; Sa 11:45", "name": "USPS COLLECTION BOX - PO LOBBY", "note": "ON 12/24 AND 12/31, THIS BOX MAY BE COLLECTED AS EARLY AS 12 NOON.", "nsi_id": "unitedstatespostalservice-a77078", "operator": "United States Postal Service", "operator:short": "USPS", "operator:type": "public", "operator:wikidata": "Q668687", "ref": "0467400002"}, "type": "Feature"}
{"dataset_attributes": {"@spider": "usps_collection_boxes", "spider:collection_time": "2023-11-07T08:25:32.615229"}, "geometry": {"coordinates": [-68.400324513, 44.272391249], "type": "Point"}, "id": "CBBuhGn9FMy32xPBFFryKC10ALA=", "properties": {"@spider": "usps_collection_boxes", "addr:city": "SEAL COVE", "addr:country": "US", "addr:full": "896 TREMONT RD", "addr:postcode": "04674", "addr:state": "ME", "amenity": "post_box", "brand": "United States Postal Service", "brand:wikidata": "Q668687", "collection_times": "Mo-Fr 16:00; Sa 11:30", "name": "USPS COLLECTION BOX - PO LOBBY", "note": "ON 12/24 AND 12/31, THIS BOX MAY BE COLLECTED AS EARLY AS 12 NOON.", "nsi_id": "unitedstatespostalservice-a77078", "operator": "United States Postal Service", "operator:short": "USPS", "operator:type": "public", "operator:wikidata": "Q668687", "ref": "0467400003"}, "type": "Feature"}
{"dataset_attributes": {"@spider": "usps_collection_boxes", "spider:collection_time": "2023-11-07T08:25:32.615229"}, "geometry": {"coordinates": [-68.239568, 44.297196], "type": "Point"}, "id": "fDJCptjNQZBFRBhw5W47oybqEr4=", "properties": {"@spider": "usps_collection_boxes", "addr:city": "SEAL HARBOR", "addr:country": "US", "addr:full": "14 MAIN ST", "addr:postcode": "04675", "addr:state": "ME", "amenity": "post_box", "brand": "United States Postal Service", "brand:wikidata": "Q668687", "collection_times": "Mo-Fr 16:00; Sa 11:30", "name": "USPS COLLECTION BOX - BLUE BOX", "note": "ON 12/24 AND 12/31, THIS BOX MAY BE COLLECTED AS EARLY AS 12 NOON.", "nsi_id": "unitedstatespostalservice-a77078", "operator": "United States Postal Service", "operator:short": "USPS", "operator:type": "public", "operator:wikidata": "Q668687", "ref": "0467500001"}, "type": "Feature"}
{"dataset_attributes": {"@spider": "usps_collection_boxes", "spider:collection_time": "2023-11-07T08:25:32.615229"}, "geometry": {"coordinates": [-68.239568, 44.297196], "type": "Point"}, "id": "25la-LEJdjuUVpOudetnT5C0ox4=", "properties": {"@spider": "usps_collection_boxes", "addr:city": "SEAL HARBOR", "addr:country": "US", "addr:full": "14 MAIN ST", "addr:postcode": "04675", "addr:state": "ME", "amenity": "post_box", "brand": "United States Postal Service", "brand:wikidata": "Q668687", "collection_times": "Mo-Fr 16:00; Sa 11:30", "name": "USPS COLLECTION BOX - PO LOBBY", "note": "ON 12/24 AND 12/31, THIS BOX MAY BE COLLECTED AS EARLY AS 12 NOON.", "nsi_id": "unitedstatespostalservice-a77078", "operator": "United States Postal Service", "operator:short": "USPS", "operator:type": "public", "operator:wikidata": "Q668687", "ref": "0467500002"}, "type": "Feature"}
{"dataset_attributes": {"@spider": "usps_collection_boxes", "spider:collection_time": "2023-11-07T08:25:32.615229"}, "geometry": {"coordinates": [-68.239568, 44.297196], "type": "Point"}, "id": "M4hPLJy63S35zI70mshs0BzzSGg=", "properties": {"@spider": "usps_collection_boxes", "addr:city": "SEAL HARBOR", "addr:country": "US", "addr:full": "14 MAIN ST", "addr:postcode": "04675", "addr:state": "ME", "amenity": "post_box", "brand": "United States Postal Service", "brand:wikidata": "Q668687", "collection_times": "Mo-Fr 16:00; Sa 11:30", "name": "USPS COLLECTION BOX - PO LOBBY", "note": "ON 12/24 AND 12/31, THIS BOX MAY BE COLLECTED AS EARLY AS 12 NOON.", "nsi_id": "unitedstatespostalservice-a77078", "operator": "United States Postal Service", "operator:short": "USPS", "operator:type": "public", "operator:wikidata": "Q668687", "ref": "0467500003"}, "type": "Feature"}
{"dataset_attributes": {"@spider": "usps_collection_boxes", "spider:collection_time": "2023-11-07T08:25:32.615229"}, "geometry": {"coordinates": [-68.239888226, 44.297660019], "type": "Point"}, "id": "HMAwDYNMRaC-zzO8Pg5ez7LSwyk=", "properties": {"@spider": "usps_collection_boxes", "addr:city": "SEAL HARBOR", "addr:country": "US", "addr:full": "14 MAIN ST", "addr:postcode": "04675", "addr:state": "ME", "amenity": "post_box", "brand": "United States Postal Service", "brand:wikidata": "Q668687", "collection_times": "Mo-Fr 16:00; Sa 11:30", "name": "USPS COLLECTION BOX - PO LOBBY", "note": "ON 12/24 AND 12/31, THIS BOX MAY BE COLLECTED AS EARLY AS 12 NOON.", "nsi_id": "unitedstatespostalservice-a77078", "operator": "United States Postal Service", "operator:short": "USPS", "operator:type": "public", "operator:wikidata": "Q668687", "ref": "0467500004"}, "type": "Feature"}
{"dataset_attributes": {"@spider": "usps_collection_boxes", "spider:collection_time": "2023-11-07T08:25:32.615229"}, "geometry": {"coordinates": [-68.620836, 44.303653], "type": "Point"}, "id": "fAPySFjGH1mWfSPqeN2vIvuOl5Q=", "properties": {"@spider": "usps_collection_boxes", "addr:city": "SEDGWICK", "addr:country": "US", "addr:full": "47 REACH RD", "addr:postcode": "04676", "addr:state": "ME", "amenity": "post_box", "brand": "United States Postal Service", "brand:wikidata": "Q668687", "collection_times": "Mo-Fr 14:30; Sa 11:15", "name": "USPS COLLECTION BOX - BLUE BOX", "note": "ON 12/24 AND 12/31, THIS BOX MAY BE COLLECTED AS EARLY AS 12 NOON.", "nsi_id": "unitedstatespostalservice-a77078", "operator": "United States Postal Service", "operator:short": "USPS", "operator:type": "public", "operator:wikidata": "Q668687", "ref": "0467600001"}, "type": "Feature"}
{"dataset_attributes": {"@spider": "usps_collection_boxes", "spider:collection_time": "2023-11-07T08:25:32.615229"}, "geometry": {"coordinates": [-68.620808, 44.303627], "type": "Point"}, "id": "NUa0I1loTpDFqFe6L0NCtduCSDo=", "properties": {"@spider": "usps_collection_boxes", "addr:city": "SEDGWICK", "addr:country": "US", "addr:full": "47 REACH RD", "addr:postcode": "04676", "addr:state": "ME", "amenity": "post_box", "brand": "United States Postal Service", "brand:wikidata": "Q668687", "collection_times": "Mo-Fr 14:30; Sa 11:15", "name": "USPS COLLECTION BOX - PO LOBBY", "note": "ON 12/24 AND 12/31, THIS BOX MAY BE COLLECTED AS EARLY AS 12 NOON.", "nsi_id": "unitedstatespostalservice-a77078", "operator": "United States Postal Service", "operator:short": "USPS", "operator:type": "public", "operator:wikidata": "Q668687", "ref": "0467600002"}, "type": "Feature"}
{"dataset_attributes": {"@spider": "usps_collection_boxes", "spider:collection_time": "2023-11-07T08:25:32.615229"}, "geometry": {"coordinates": [-68.621355786, 44.303611453], "type": "Point"}, "id": "w_OWtgaB3ZqNhde6IQy-N2A4J-0=", "properties": {"@spider": "usps_collection_boxes", "addr:city": "SEDGWICK", "addr:country": "US", "addr:full": "47 REACH RD", "addr:postcode": "04676", "addr:state": "ME", "amenity": "post_box", "brand": "United States Postal Service", "brand:wikidata": "Q668687", "collection_times": "Mo-Fr 14:30; Sa 11:15", "name": "USPS COLLECTION BOX - PO LOBBY", "note": "ON 12/24 AND 12/31, THIS BOX MAY BE COLLECTED AS EARLY AS 12 NOON.", "nsi_id": "unitedstatespostalservice-a77078", "operator": "United States Postal Service", "operator:short": "USPS", "operator:type": "public", "operator:wikidata": "Q668687", "ref": "0467600003"}, "type": "Feature"}
{"dataset_attributes": {"@spider": "usps_collection_boxes", "spider:collection_time": "2023-11-07T08:25:32.615229"}, "geometry": {"coordinates": [-68.18271, 44.473722], "type": "Point"}, "id": "8S0JeAg9sCTOu5Rxe1m0ZDhqX8g=", "properties": {"@spider": "usps_collection_boxes", "addr:city": "SORRENTO", "addr:country": "US", "addr:full": "16 MAIN ST", "addr:postcode": "04677", "addr:state": "ME", "amenity": "post_box", "brand": "United States Postal Service", "brand:wikidata": "Q668687", "collection_times": "Mo-Fr 16:15; Sa 11:45", "name": "USPS COLLECTION BOX - BLUE BOX", "note": "ON 12/24 AND 12/31, THIS BOX MAY BE COLLECTED AS EARLY AS 12 NOON.", "nsi_id": "unitedstatespostalservice-a77078", "operator": "United States Postal Service", "operator:short": "USPS", "operator:type": "public", "operator:wikidata": "Q668687", "ref": "0467700001"}, "type": "Feature"}
{"dataset_attributes": {"@spider": "usps_collection_boxes", "spider:collection_time": "2023-11-07T08:25:32.615229"}, "geometry": {"coordinates": [-68.18271, 44.473722], "type": "Point"}, "id": "czYUmUs8MqYVwFKQCM7fWP6ksOI=", "properties": {"@spider": "usps_collection_boxes", "addr:city": "SORRENTO", "addr:country": "US", "addr:full": "16 MAIN ST", "addr:postcode": "04677", "addr:state": "ME", "amenity": "post_box", "brand": "United States Postal Service", "brand:wikidata": "Q668687", "collection_times": "Mo-Fr 16:15; Sa 11:45", "name": "USPS COLLECTION BOX - PO LOBBY", "note": "ON 12/24 AND 12/31, THIS BOX MAY BE COLLECTED AS EARLY AS 12 NOON.", "nsi_id": "unitedstatespostalservice-a77078", "operator": "United States Postal Service", "operator:short": "USPS", "operator:type": "public", "operator:wikidata": "Q668687", "ref": "0467700002"}, "type": "Feature"}
{"dataset_attributes": {"@spider": "usps_collection_boxes", "spider:collection_time": "2023-11-07T08:25:32.615229"}, "geometry": {"coordinates": [-68.18271, 44.473722], "type": "Point"}, "id": "AxSqxm4SWFEz85mRlTPFdm5HES8=", "properties": {"@spider": "usps_collection_boxes", "addr:city": "SORRENTO", "addr:country": "US", "addr:full": "16 MAIN ST", "addr:postcode": "04677", "addr:state": "ME", "amenity": "post_box", "brand": "United States Postal Service", "brand:wikidata": "Q668687", "collection_times": "Mo-Fr 16:15; Sa 11:45", "name": "USPS COLLECTION BOX - PO LOBBY", "note": "ON 12/24 AND 12/31, THIS BOX MAY BE COLLECTED AS EARLY AS 12 NOON.", "nsi_id": "unitedstatespostalservice-a77078", "operator": "United States Postal Service", "operator:short": "USPS", "operator:type": "public", "operator:wikidata": "Q668687", "ref": "0467700003"}, "type": "Feature"}
{"dataset_attributes": {"@spider": "usps_collection_boxes", "spider:collection_time": "2023-11-07T08:25:32.615229"}, "geometry": {"coordinates": [-68.182688016, 44.473447257], "type": "Point"}, "id": "ETefE-ql9SzAfoOJcshog5xn0Xk=", "properties": {"@spider": "usps_collection_boxes", "addr:city": "SORRENTO", "addr:country": "US", "addr:full": "16 MAIN ST", "addr:postcode": "04677", "addr:state": "ME", "amenity": "post_box", "brand": "United States Postal Service", "brand:wikidata": "Q668687", "collection_times": "Mo-Fr 16:15; Sa 11:30", "name": "USPS COLLECTION BOX - PO LOBBY", "note": "ON 12/24 AND 12/31, THIS BOX MAY BE COLLECTED AS EARLY AS 12 NOON.", "nsi_id": "unitedstatespostalservice-a77078", "operator": "United States Postal Service", "operator:short": "USPS", "operator:type": "public", "operator:wikidata": "Q668687", "ref": "0467700004"}, "type": "Feature"}
{"dataset_attributes": {"@spider": "usps_collection_boxes", "spider:collection_time": "2023-11-07T08:25:32.615229"}, "geometry": {"coordinates": [-68.32495, 44.279874], "type": "Point"}, "id": "GKG3raApJ9aJmAzWdhU9hKwDJ74=", "properties": {"@spider": "usps_collection_boxes", "addr:city": "SOUTHWEST HBR", "addr:country": "US", "addr:full": "21 CLARK POINT RD", "addr:postcode": "04679", "addr:state": "ME", "amenity": "post_box", "brand": "United States Postal Service", "brand:wikidata": "Q668687", "collection_times": "Mo-Fr 16:30; Sa 11:30", "name": "USPS COLLECTION BOX - BLUE BOX", "note": "ON 12/24 AND 12/31, THIS BOX MAY BE COLLECTED AS EARLY AS 12 NOON.", "nsi_id": "unitedstatespostalservice-a77078", "operator": "United States Postal Service", "operator:short": "USPS", "operator:type": "public", "operator:wikidata": "Q668687", "ref": "0467900001"}, "type": "Feature"}
{"dataset_attributes": {"@spider": "usps_collection_boxes", "spider:collection_time": "2023-11-07T08:25:32.615229"}, "geometry": {"coordinates": [-68.324932, 44.279848], "type": "Point"}, "id": "mvH_-annM4cOmvxuv16np0dTQHA=", "properties": {"@spider": "usps_collection_boxes", "addr:city": "SOUTHWEST HBR", "addr:country": "US", "addr:full": "21 CLARK POINT RD", "addr:postcode": "04679", "addr:state": "ME", "amenity": "post_box", "brand": "United States Postal Service", "brand:wikidata": "Q668687", "collection_times": "Mo-Fr 16:45; Sa 12:00", "name": "USPS COLLECTION BOX - PO LOBBY", "note": "ON 12/24 AND 12/31, THIS BOX MAY BE COLLECTED AS EARLY AS 12 NOON.", "nsi_id": "unitedstatespostalservice-a77078", "operator": "United States Postal Service", "operator:short": "USPS", "operator:type": "public", "operator:wikidata": "Q668687", "ref": "0467900003"}, "type": "Feature"}
{"dataset_attributes": {"@spider": "usps_collection_boxes", "spider:collection_time": "2023-11-07T08:25:32.615229"}, "geometry": {"coordinates": [-68.324932, 44.279848], "type": "Point"}, "id": "xgoNQ5dBLdQvptTaY4Y9PKKnp_A=", "properties": {"@spider": "usps_collection_boxes", "addr:city": "SOUTHWEST HBR", "addr:country": "US", "addr:full": "21 CLARK POINT RD", "addr:postcode": "04679", "addr:state": "ME", "amenity": "post_box", "brand": "United States Postal Service", "brand:wikidata": "Q668687", "collection_times": "Mo-Fr 16:45; Sa 12:00", "name": "USPS COLLECTION BOX - PO LOBBY", "note": "ON 12/24 AND 12/31, THIS BOX MAY BE COLLECTED AS EARLY AS 12 NOON.", "nsi_id": "unitedstatespostalservice-a77078", "operator": "United States Postal Service", "operator:short": "USPS", "operator:type": "public", "operator:wikidata": "Q668687", "ref": "0467900004"}, "type": "Feature"}
{"dataset_attributes": {"@spider": "usps_collection_boxes", "spider:collection_time": "2023-11-07T08:25:32.615229"}, "geometry": {"coordinates": [-68.324876591, 44.279879406], "type": "Point"}, "id": "zANl_NSIqz6WcRT7IUfWBHLm-WM=", "properties": {"@spider": "usps_collection_boxes", "addr:city": "SOUTHWEST HBR", "addr:country": "US", "addr:full": "21 CLARK POINT RD", "addr:postcode": "04679", "addr:state": "ME", "amenity": "post_box", "brand": "United States Postal Service", "brand:wikidata": "Q668687", "collection_times": "Mo-Fr 16:30; Sa 11:30", "name": "USPS COLLECTION BOX - PO LOBBY", "note": "ON 12/24 AND 12/31, THIS BOX MAY BE COLLECTED AS EARLY AS 12 NOON.", "nsi_id": "unitedstatespostalservice-a77078", "operator": "United States Postal Service", "operator:short": "USPS", "operator:type": "public", "operator:wikidata": "Q668687", "ref": "0467900005"}, "type": "Feature"}
{"dataset_attributes": {"@spider": "usps_collection_boxes", "spider:collection_time": "2023-11-07T08:25:32.615229"}, "geometry": {"coordinates": [-67.965788, 44.511092], "type": "Point"}, "id": "CtIsB12udSvhovyLHn2CvSw4EMY=", "properties": {"@spider": "usps_collection_boxes", "addr:city": "STEUBEN", "addr:country": "US", "addr:full": "18 MORGAN PARRITT RD", "addr:postcode": "04680", "addr:state": "ME", "amenity": "post_box", "brand": "United States Postal Service", "brand:wikidata": "Q668687", "collection_times": "Mo-Fr 15:15; Sa 10:45", "name": "USPS COLLECTION BOX - BLUE BOX", "note": "ON 12/24 AND 12/31, THIS BOX MAY BE COLLECTED AS EARLY AS 12 NOON.", "nsi_id": "unitedstatespostalservice-a77078", "operator": "United States Postal Service", "operator:short": "USPS", "operator:type": "public", "operator:wikidata": "Q668687", "ref": "0468000001"}, "type": "Feature"}
{"dataset_attributes": {"@spider": "usps_collection_boxes", "spider:collection_time": "2023-11-07T08:25:32.615229"}, "geometry": {"coordinates": [-67.966077, 44.511428], "type": "Point"}, "id": "-VeqUDM3IWgIkmPprWWzsBgMnNw=", "properties": {"@spider": "usps_collection_boxes", "addr:city": "STEUBEN", "addr:country": "US", "addr:full": "18 MORGAN PARRITT RD", "addr:postcode": "04680", "addr:state": "ME", "amenity": "post_box", "brand": "United States Postal Service", "brand:wikidata": "Q668687", "collection_times": "Mo-Fr 15:15; Sa 10:45", "name": "USPS COLLECTION BOX - PO LOBBY", "note": "ON 12/24 AND 12/31, THIS BOX MAY BE COLLECTED AS EARLY AS 12 NOON.", "nsi_id": "unitedstatespostalservice-a77078", "operator": "United States Postal Service", "operator:short": "USPS", "operator:type": "public", "operator:wikidata": "Q668687", "ref": "0468000003"}, "type": "Feature"}
{"dataset_attributes": {"@spider": "usps_collection_boxes", "spider:collection_time": "2023-11-07T08:25:32.615229"}, "geometry": {"coordinates": [-67.966076103, 44.511422114], "type": "Point"}, "id": "O4_NHyP83EN_CyHLVDSeUom3oMM=", "properties": {"@spider": "usps_collection_boxes", "addr:city": "STEUBEN", "addr:country": "US", "addr:full": "18 MORGAN PARRITT RD", "addr:postcode": "04680", "addr:state": "ME", "amenity": "post_box", "brand": "United States Postal Service", "brand:wikidata": "Q668687", "collection_times": "Mo-Fr 15:00; Sa 11:00", "name": "USPS COLLECTION BOX - PO LOBBY", "note": "ON 12/24 AND 12/31, THIS BOX MAY BE COLLECTED AS EARLY AS 12 NOON.", "nsi_id": "unitedstatespostalservice-a77078", "operator": "United States Postal Service", "operator:short": "USPS", "operator:type": "public", "operator:wikidata": "Q668687", "ref": "0468000004"}, "type": "Feature"}
{"dataset_attributes": {"@spider": "usps_collection_boxes", "spider:collection_time": "2023-11-07T08:25:32.615229"}, "geometry": {"coordinates": [-68.673066, 44.154083], "type": "Point"}, "id": "PvBeBz5IM2WXcuSBneme8mhSwhw=", "properties": {"@spider": "usps_collection_boxes", "addr:city": "STONINGTON", "addr:country": "US", "addr:full": "28 W MAIN ST", "addr:postcode": "04681", "addr:state": "ME", "amenity": "post_box", "brand": "United States Postal Service", "brand:wikidata": "Q668687", "collection_times": "Mo-Fr 15:00; Sa 11:00", "name": "USPS COLLECTION BOX - BLUE BOX", "note": "ON 12/24 AND 12/31, THIS BOX MAY BE COLLECTED AS EARLY AS 12 NOON.", "nsi_id": "unitedstatespostalservice-a77078", "operator": "United States Postal Service", "operator:short": "USPS", "operator:type": "public", "operator:wikidata": "Q668687", "ref": "0468100001"}, "type": "Feature"}
{"dataset_attributes": {"@spider": "usps_collection_boxes", "spider:collection_time": "2023-11-07T08:25:32.615229"}, "geometry": {"coordinates": [-68.673197, 44.154083], "type": "Point"}, "id": "1AsjeaEu7y8UF9ZbH7NlTzlMkEc=", "properties": {"@spider": "usps_collection_boxes", "addr:city": "STONINGTON", "addr:country": "US", "addr:full": "28 W MAIN ST", "addr:postcode": "04681", "addr:state": "ME", "amenity": "post_box", "brand": "United States Postal Service", "brand:wikidata": "Q668687", "collection_times": "Mo-Fr 15:00; Sa 11:00", "name": "USPS COLLECTION BOX - PO LOBBY", "note": "ON 12/24 AND 12/31, THIS BOX MAY BE COLLECTED AS EARLY AS 12 NOON.", "nsi_id": "unitedstatespostalservice-a77078", "operator": "United States Postal Service", "operator:short": "USPS", "operator:type": "public", "operator:wikidata": "Q668687", "ref": "0468100002"}, "type": "Feature"}
{"dataset_attributes": {"@spider": "usps_collection_boxes", "spider:collection_time": "2023-11-07T08:25:32.615229"}, "geometry": {"coordinates": [-68.667019711, 44.155038594], "type": "Point"}, "id": "gBALFEL8f6peVc3YItyIbHI_cro=", "properties": {"@spider": "usps_collection_boxes", "addr:city": "STONINGTON", "addr:country": "US", "addr:full": "28 W MAIN ST", "addr:postcode": "04681", "addr:state": "ME", "amenity": "post_box", "brand": "United States Postal Service", "brand:wikidata": "Q668687", "collection_times": "Mo-Fr 15:00; Sa 11:00", "name": "USPS COLLECTION BOX - PO LOBBY", "note": "ON 12/24 AND 12/31, THIS BOX MAY BE COLLECTED AS EARLY AS 12 NOON.", "nsi_id": "unitedstatespostalservice-a77078", "operator": "United States Postal Service", "operator:short": "USPS", "operator:type": "public", "operator:wikidata": "Q668687", "ref": "0468100003"}, "type": "Feature"}
{"dataset_attributes": {"@spider": "usps_collection_boxes", "spider:collection_time": "2023-11-07T08:25:32.615229"}, "geometry": {"coordinates": [-68.704117, 44.206564], "type": "Point"}, "id": "zAdpvpwBoKFz4E8GgTxxTh6T-JM=", "properties": {"@spider": "usps_collection_boxes", "addr:city": "SUNSET", "addr:country": "US", "addr:full": "300 SUNSET RD", "addr:postcode": "04683", "addr:state": "ME", "amenity": "post_box", "brand": "United States Postal Service", "brand:wikidata": "Q668687", "collection_times": "Mo-Fr 15:15; Sa 11:00", "name": "USPS COLLECTION BOX - BLUE BOX", "note": "ON 12/24 AND 12/31, THIS BOX MAY BE COLLECTED AS EARLY AS 12 NOON.", "nsi_id": "unitedstatespostalservice-a77078", "operator": "United States Postal Service", "operator:short": "USPS", "operator:type": "public", "operator:wikidata": "Q668687", "ref": "0468300001"}, "type": "Feature"}
{"dataset_attributes": {"@spider": "usps_collection_boxes", "spider:collection_time": "2023-11-07T08:25:32.615229"}, "geometry": {"coordinates": [-68.70415, 44.206578], "type": "Point"}, "id": "U7xZ1syo3hlrQcYFS3UF3Lzd7nM=", "properties": {"@spider": "usps_collection_boxes", "addr:city": "SUNSET", "addr:country": "US", "addr:full": "300 SUNSET RD", "addr:postcode": "04683", "addr:state": "ME", "amenity": "post_box", "brand": "United States Postal Service", "brand:wikidata": "Q668687", "collection_times": "Mo-Fr 15:15; Sa 11:00", "name": "USPS COLLECTION BOX - PO LOBBY", "note": "ON 12/24 AND 12/31, THIS BOX MAY BE COLLECTED AS EARLY AS 12 NOON.", "nsi_id": "unitedstatespostalservice-a77078", "operator": "United States Postal Service", "operator:short": "USPS", "operator:type": "public", "operator:wikidata": "Q668687", "ref": "0468300003"}, "type": "Feature"}
{"dataset_attributes": {"@spider": "usps_collection_boxes", "spider:collection_time": "2023-11-07T08:25:32.615229"}, "geometry": {"coordinates": [-68.704169469, 44.206579196], "type": "Point"}, "id": "nG5a4-XYGIrjAcgvoXLFlPX3CiQ=", "properties": {"@spider": "usps_collection_boxes", "addr:city": "SUNSET", "addr:country": "US", "addr:full": "300 SUNSET RD", "addr:postcode": "04683", "addr:state": "ME", "amenity": "post_box", "brand": "United States Postal Service", "brand:wikidata": "Q668687", "collection_times": "Mo-Fr 15:15; Sa 11:00", "name": "USPS COLLECTION BOX - PO LOBBY", "note": "ON 12/24 AND 12/31, THIS BOX MAY BE COLLECTED AS EARLY AS 12 NOON.", "nsi_id": "unitedstatespostalservice-a77078", "operator": "United States Postal Service", "operator:short": "USPS", "operator:type": "public", "operator:wikidata": "Q668687", "ref": "0468300004"}, "type": "Feature"}
{"dataset_attributes": {"@spider": "usps_collection_boxes", "spider:collection_time": "2023-11-07T08:25:32.615229"}, "geometry": {"coordinates": [-68.496214, 44.49607], "type": "Point"}, "id": "oZehEVPsBzwB-QqaW5UWww87phg=", "properties": {"@spider": "usps_collection_boxes", "addr:city": "SURRY", "addr:country": "US", "addr:full": "1197 SURRY RD", "addr:postcode": "04684", "addr:state": "ME", "amenity": "post_box", "brand": "United States Postal Service", "brand:wikidata": "Q668687", "collection_times": "Mo-Fr 16:30; Sa 11:00", "name": "USPS COLLECTION BOX - BLUE BOX", "note": "ON 12/24 AND 12/31, THIS BOX MAY BE COLLECTED AS EARLY AS 12 NOON.", "nsi_id": "unitedstatespostalservice-a77078", "operator": "United States Postal Service", "operator:short": "USPS", "operator:type": "public", "operator:wikidata": "Q668687", "ref": "0468400001"}, "type": "Feature"}
{"dataset_attributes": {"@spider": "usps_collection_boxes", "spider:collection_time": "2023-11-07T08:25:32.615229"}, "geometry": {"coordinates": [-68.496299, 44.496022], "type": "Point"}, "id": "SSMF-0Q3z0KbKLUqJfnuy8Lv8jA=", "properties": {"@spider": "usps_collection_boxes", "addr:city": "SURRY", "addr:country": "US", "addr:full": "1197 SURRY RD", "addr:postcode": "04684", "addr:state": "ME", "amenity": "post_box", "brand": "United States Postal Service", "brand:wikidata": "Q668687", "collection_times": "Mo-Fr 16:30; Sa 11:00", "name": "USPS COLLECTION BOX - PO LOBBY", "note": "ON 12/24 AND 12/31, THIS BOX MAY BE COLLECTED AS EARLY AS 12 NOON.", "nsi_id": "unitedstatespostalservice-a77078", "operator": "United States Postal Service", "operator:short": "USPS", "operator:type": "public", "operator:wikidata": "Q668687", "ref": "0468400003"}, "type": "Feature"}
{"dataset_attributes": {"@spider": "usps_collection_boxes", "spider:collection_time": "2023-11-07T08:25:32.615229"}, "geometry": {"coordinates": [-68.494828499, 44.496453928], "type": "Point"}, "id": "ghhcvQvUawGRhrifSmN7hx7DpO4=", "properties": {"@spider": "usps_collection_boxes", "addr:city": "SURRY", "addr:country": "US", "addr:full": "1197 SURRY RD", "addr:postcode": "04684", "addr:state": "ME", "amenity": "post_box", "brand": "United States Postal Service", "brand:wikidata": "Q668687", "collection_times": "Mo-Fr 16:30; Sa 11:00", "name": "USPS COLLECTION BOX - PO LOBBY", "note": "ON 12/24 AND 12/31, THIS BOX MAY BE COLLECTED AS EARLY AS 12 NOON.", "nsi_id": "unitedstatespostalservice-a77078", "operator": "United States Postal Service", "operator:short": "USPS", "operator:type": "public", "operator:wikidata": "Q668687", "ref": "0468400004"}, "type": "Feature"}
{"dataset_attributes": {"@spider": "usps_collection_boxes", "spider:collection_time": "2023-11-07T08:25:32.615229"}, "geometry": {"coordinates": [-68.450946, 44.154425], "type": "Point"}, "id": "2whOXEC5uzb1D9GbjGM4Wmw1RVo=", "properties": {"@spider": "usps_collection_boxes", "addr:city": "SWANS ISLAND", "addr:country": "US", "addr:full": "125 HARBOR RD", "addr:postcode": "04685", "addr:state": "ME", "amenity": "post_box", "brand": "United States Postal Service", "brand:wikidata": "Q668687", "collection_times": "Mo-Fr 12:45; Sa 11:30", "name": "USPS COLLECTION BOX - BLUE BOX", "note": "ON 12/24 AND 12/31, THIS BOX MAY BE COLLECTED AS EARLY AS 12 NOON.", "nsi_id": "unitedstatespostalservice-a77078", "operator": "United States Postal Service", "operator:short": "USPS", "operator:type": "public", "operator:wikidata": "Q668687", "ref": "0468500001"}, "type": "Feature"}
{"dataset_attributes": {"@spider": "usps_collection_boxes", "spider:collection_time": "2023-11-07T08:25:32.615229"}, "geometry": {"coordinates": [-68.421851, 44.181667], "type": "Point"}, "id": "LXroQaeK_Wp2uITSoY6xE4MMP6o=", "properties": {"@spider": "usps_collection_boxes", "addr:city": "SWANS ISLAND", "addr:country": "US", "addr:full": "118 FERRY RD", "addr:postcode": "04685", "addr:state": "ME", "amenity": "post_box", "brand": "United States Postal Service", "brand:wikidata": "Q668687", "collection_times": "Mo-Fr 13:00", "name": "USPS COLLECTION BOX - BLUE BOX", "note": "ON 12/24 AND 12/31, THIS BOX MAY BE COLLECTED AS EARLY AS 12 NOON.", "nsi_id": "unitedstatespostalservice-a77078", "operator": "United States Postal Service", "operator:short": "USPS", "operator:type": "public", "operator:wikidata": "Q668687", "ref": "0468500002"}, "type": "Feature"}
{"dataset_attributes": {"@spider": "usps_collection_boxes", "spider:collection_time": "2023-11-07T08:25:32.615229"}, "geometry": {"coordinates": [-68.450905, 44.15449], "type": "Point"}, "id": "2lFuy_rHoWr0Z_-uFZ7DOpzgaZk=", "properties": {"@spider": "usps_collection_boxes", "addr:city": "SWANS ISLAND", "addr:country": "US", "addr:full": "125 HARBOR RD", "addr:postcode": "04685", "addr:state": "ME", "amenity": "post_box", "brand": "United States Postal Service", "brand:wikidata": "Q668687", "collection_times": "Mo-Fr 12:45; Sa 11:30", "name": "USPS COLLECTION BOX - PO LOBBY", "note": "ON 12/24 AND 12/31, THIS BOX MAY BE COLLECTED AS EARLY AS 12 NOON.", "nsi_id": "unitedstatespostalservice-a77078", "operator": "United States Postal Service", "operator:short": "USPS", "operator:type": "public", "operator:wikidata": "Q668687", "ref": "0468500003"}, "type": "Feature"}
{"dataset_attributes": {"@spider": "usps_collection_boxes", "spider:collection_time": "2023-11-07T08:25:32.615229"}, "geometry": {"coordinates": [-68.450942178, 44.154487121], "type": "Point"}, "id": "4rz57VULVBmXO0o4ZGRF697r25g=", "properties": {"@spider": "usps_collection_boxes", "addr:city": "SWANS ISLAND", "addr:country": "US", "addr:full": "125 HARBOR RD", "addr:postcode": "04685", "addr:state": "ME", "amenity": "post_box", "brand": "United States Postal Service", "brand:wikidata": "Q668687", "collection_times": "Mo-Fr 14:15; Sa 00:00", "name": "USPS COLLECTION BOX - PO LOBBY", "note": "ON 12/24 AND 12/31, THIS BOX MAY BE COLLECTED AS EARLY AS 12 NOON.", "nsi_id": "unitedstatespostalservice-a77078", "operator": "United States Postal Service", "operator:short": "USPS", "operator:type": "public", "operator:wikidata": "Q668687", "ref": "0468500004"}, "type": "Feature"}
{"dataset_attributes": {"@spider": "usps_collection_boxes", "spider:collection_time": "2023-11-07T08:25:32.615229"}, "geometry": {"coordinates": [-67.182868, 44.788251], "type": "Point"}, "id": "VlzldQOU8uN1BAw8VT4YDI8rwKk=", "properties": {"@spider": "usps_collection_boxes", "addr:city": "WHITING", "addr:country": "US", "addr:full": "240 US RTE 1", "addr:postcode": "04691", "addr:state": "ME", "amenity": "post_box", "brand": "United States Postal Service", "brand:wikidata": "Q668687", "collection_times": "Mo-Fr 15:30; Sa 11:00", "name": "USPS COLLECTION BOX - BLUE BOX", "note": "ON 12/24 AND 12/31, THIS BOX MAY BE COLLECTED AS EARLY AS 12 NOON.", "nsi_id": "unitedstatespostalservice-a77078", "operator": "United States Postal Service", "operator:short": "USPS", "operator:type": "public", "operator:wikidata": "Q668687", "ref": "0469100001"}, "type": "Feature"}
{"dataset_attributes": {"@spider": "usps_collection_boxes", "spider:collection_time": "2023-11-07T08:25:32.615229"}, "geometry": {"coordinates": [-67.182862, 44.788286], "type": "Point"}, "id": "NN76qQ8wId653Kelbah5hdd0abU=", "properties": {"@spider": "usps_collection_boxes", "addr:city": "WHITING", "addr:country": "US", "addr:full": "240 US RTE 1", "addr:postcode": "04691", "addr:state": "ME", "amenity": "post_box", "brand": "United States Postal Service", "brand:wikidata": "Q668687", "collection_times": "Mo-Fr 15:30; Sa 11:00", "name": "USPS COLLECTION BOX - PO LOBBY", "note": "ON 12/24 AND 12/31, THIS BOX MAY BE COLLECTED AS EARLY AS 12 NOON.", "nsi_id": "unitedstatespostalservice-a77078", "operator": "United States Postal Service", "operator:short": "USPS", "operator:type": "public", "operator:wikidata": "Q668687", "ref": "0469100002"}, "type": "Feature"}
{"dataset_attributes": {"@spider": "usps_collection_boxes", "spider:collection_time": "2023-11-07T08:25:32.615229"}, "geometry": {"coordinates": [-67.182851054, 44.788255837], "type": "Point"}, "id": "uvm6lsh6L1ogJTRCHpkKXEJx6A8=", "properties": {"@spider": "usps_collection_boxes", "addr:city": "WHITING", "addr:country": "US", "addr:full": "240 US RTE 1", "addr:postcode": "04691", "addr:state": "ME", "amenity": "post_box", "brand": "United States Postal Service", "brand:wikidata": "Q668687", "collection_times": "Mo-Fr 15:30; Sa 11:00", "name": "USPS COLLECTION BOX - PO LOBBY", "note": "ON 12/24 AND 12/31, THIS BOX MAY BE COLLECTED AS EARLY AS 12 NOON.", "nsi_id": "unitedstatespostalservice-a77078", "operator": "United States Postal Service", "operator:short": "USPS", "operator:type": "public", "operator:wikidata": "Q668687", "ref": "0469100003"}, "type": "Feature"}
{"dataset_attributes": {"@spider": "usps_collection_boxes", "spider:collection_time": "2023-11-07T08:25:32.615229"}, "geometry": {"coordinates": [-68.084888, 44.394458], "type": "Point"}, "id": "W8gaIeKAAJNRau4Ov0tVJEM6SpA=", "properties": {"@spider": "usps_collection_boxes", "addr:city": "WINTER HARBOR", "addr:country": "US", "addr:full": "267 MAIN ST", "addr:postcode": "04693", "addr:state": "ME", "amenity": "post_box", "brand": "United States Postal Service", "brand:wikidata": "Q668687", "collection_times": "Mo-Fr 15:45; Sa 10:45", "name": "USPS COLLECTION BOX - BLUE BOX", "note": "ON 12/24 AND 12/31, THIS BOX MAY BE COLLECTED AS EARLY AS 12 NOON.", "nsi_id": "unitedstatespostalservice-a77078", "operator": "United States Postal Service", "operator:short": "USPS", "operator:type": "public", "operator:wikidata": "Q668687", "ref": "0469300001"}, "type": "Feature"}
{"dataset_attributes": {"@spider": "usps_collection_boxes", "spider:collection_time": "2023-11-07T08:25:32.615229"}, "geometry": {"coordinates": [-68.084872, 44.394497], "type": "Point"}, "id": "YFGqQE7gBus8QbfvE816QDLwsq0=", "properties": {"@spider": "usps_collection_boxes", "addr:city": "WINTER HARBOR", "addr:country": "US", "addr:full": "267 MAIN ST", "addr:postcode": "04693", "addr:state": "ME", "amenity": "post_box", "brand": "United States Postal Service", "brand:wikidata": "Q668687", "collection_times": "Mo-Fr 15:30; Sa 10:45", "name": "USPS COLLECTION BOX - PO LOBBY", "note": "ON 12/24 AND 12/31, THIS BOX MAY BE COLLECTED AS EARLY AS 12 NOON.", "nsi_id": "unitedstatespostalservice-a77078", "operator": "United States Postal Service", "operator:short": "USPS", "operator:type": "public", "operator:wikidata": "Q668687", "ref": "0469300002"}, "type": "Feature"}
{"dataset_attributes": {"@spider": "usps_collection_boxes", "spider:collection_time": "2023-11-07T08:25:32.615229"}, "geometry": {"coordinates": [-68.085456559, 44.394134836], "type": "Point"}, "id": "HGAsfhVKpvW3W08KXpdPeCydhx4=", "properties": {"@spider": "usps_collection_boxes", "addr:city": "WINTER HARBOR", "addr:country": "US", "addr:full": "267 MAIN ST", "addr:postcode": "04693", "addr:state": "ME", "amenity": "post_box", "brand": "United States Postal Service", "brand:wikidata": "Q668687", "collection_times": "Mo-Fr 15:30; Sa 11:00", "name": "USPS COLLECTION BOX - PO LOBBY", "note": "ON 12/24 AND 12/31, THIS BOX MAY BE COLLECTED AS EARLY AS 12 NOON.", "nsi_id": "unitedstatespostalservice-a77078", "operator": "United States Postal Service", "operator:short": "USPS", "operator:type": "public", "operator:wikidata": "Q668687", "ref": "0469300004"}, "type": "Feature"}
{"dataset_attributes": {"@spider": "usps_collection_boxes", "spider:collection_time": "2023-11-07T08:25:32.615229"}, "geometry": {"coordinates": [-67.398588, 45.147781], "type": "Point"}, "id": "ekYbWWIzZV0rnfs5AtAAnTc5_iY=", "properties": {"@spider": "usps_collection_boxes", "addr:city": "BAILEYVILLE", "addr:country": "US", "addr:full": "667 HOULTON RD STE 1", "addr:postcode": "04694", "addr:state": "ME", "amenity": "post_box", "brand": "United States Postal Service", "brand:wikidata": "Q668687", "collection_times": "Mo-Fr 16:00; Sa 11:30", "name": "USPS COLLECTION BOX - PO LOBBY", "note": "ON 12/24 AND 12/31, THIS BOX MAY BE COLLECTED AS EARLY AS 12 NOON.", "nsi_id": "unitedstatespostalservice-a77078", "operator": "United States Postal Service", "operator:short": "USPS", "operator:type": "public", "operator:wikidata": "Q668687", "ref": "0469400003"}, "type": "Feature"}
{"dataset_attributes": {"@spider": "usps_collection_boxes", "spider:collection_time": "2023-11-07T08:25:32.615229"}, "geometry": {"coordinates": [-67.398617, 45.147831], "type": "Point"}, "id": "W8DeyaVM-Y50GhHyFofmKARetYQ=", "properties": {"@spider": "usps_collection_boxes", "addr:city": "BAILEYVILLE", "addr:country": "US", "addr:full": "667 HOULTON RD STE 1", "addr:postcode": "04694", "addr:state": "ME", "amenity": "post_box", "brand": "United States Postal Service", "brand:wikidata": "Q668687", "collection_times": "Mo-Fr 16:00; Sa 11:30", "name": "USPS COLLECTION BOX - BLUE BOX", "note": "ON 12/24 AND 12/31, THIS BOX MAY BE COLLECTED AS EARLY AS 12 NOON.", "nsi_id": "unitedstatespostalservice-a77078", "operator": "United States Postal Service", "operator:short": "USPS", "operator:type": "public", "operator:wikidata": "Q668687", "ref": "0469400004"}, "type": "Feature"}
{"dataset_attributes": {"@spider": "usps_collection_boxes", "spider:collection_time": "2023-11-07T08:25:32.615229"}, "geometry": {"coordinates": [-67.398427618, 45.147690399], "type": "Point"}, "id": "W7WjnNO2dTELNFS_v1ioM76hWF0=", "properties": {"@spider": "usps_collection_boxes", "addr:city": "BAILEYVILLE", "addr:country": "US", "addr:full": "667 HOULTON RD STE 1", "addr:postcode": "04694", "addr:state": "ME", "amenity": "post_box", "brand": "United States Postal Service", "brand:wikidata": "Q668687", "collection_times": "Mo-Fr 16:00; Sa 11:30", "name": "USPS COLLECTION BOX - PO LOBBY", "note": "ON 12/24 AND 12/31, THIS BOX MAY BE COLLECTED AS EARLY AS 12 NOON.", "nsi_id": "unitedstatespostalservice-a77078", "operator": "United States Postal Service", "operator:short": "USPS", "operator:type": "public", "operator:wikidata": "Q668687", "ref": "0469400005"}, "type": "Feature"}
