{"geometry": {"coordinates": [-68.44733, 45.996886], "type": "Point"}, "id": "8-hB9LLLcMRkkkW6PNXsztz5tdo=", "properties": {"@spider": "usps_collection_boxes", "addr:city": "PATTEN", "addr:country": "US", "addr:full": "24 MAIN ST", "addr:postcode": "04765", "addr:state": "ME", "brand": "USPS", "collection_times": "Mo-Fr 14:00; Sa 11:00", "name": "USPS COLLECTION BOX - BLUE BOX", "note": "ON 12/24 AND 12/31, THIS BOX MAY BE COLLECTED AS EARLY AS 12 NOON.", "ref": "0476500001"}, "type": "Feature"}
{"geometry": {"coordinates": [-68.447296, 45.996809], "type": "Point"}, "id": "uRQUNwkiiaZHA7Piqkn_wcgv3IM=", "properties": {"@spider": "usps_collection_boxes", "addr:city": "PATTEN", "addr:country": "US", "addr:full": "24 MAIN ST", "addr:postcode": "04765", "addr:state": "ME", "brand": "USPS", "collection_times": "Mo-Fr 15:00; Sa 12:00", "name": "USPS COLLECTION BOX - PO LOBBY", "note": "ON 12/24 AND 12/31, THIS BOX MAY BE COLLECTED AS EARLY AS 12 NOON.", "ref": "0476500003"}, "type": "Feature"}
{"geometry": {"coordinates": [-68.447341881, 45.996779766], "type": "Point"}, "id": "uQPEpBXEGgs2RdCHs6STrhH1XX0=", "properties": {"@spider": "usps_collection_boxes", "addr:city": "PATTEN", "addr:country": "US", "addr:full": "24 MAIN ST", "addr:postcode": "04765", "addr:state": "ME", "brand": "USPS", "collection_times": "Mo-Fr 15:30; Sa 11:30", "name": "USPS COLLECTION BOX - PO LOBBY", "note": "ON 12/24 AND 12/31, THIS BOX MAY BE COLLECTED AS EARLY AS 12 NOON.", "ref": "0476500004"}, "type": "Feature"}
{"geometry": {"coordinates": [-68.431039, 45.900527], "type": "Point"}, "id": "vZ4sY_GG9HCHwWE4P2boSuLfi-o=", "properties": {"@spider": "usps_collection_boxes", "addr:city": "STACYVILLE", "addr:country": "US", "addr:full": "418 STATION RD", "addr:postcode": "04777", "addr:state": "ME", "brand": "USPS", "collection_times": "Mo-Fr 14:45; Sa 11:30", "name": "USPS COLLECTION BOX - BLUE BOX", "note": "ON 12/24 AND 12/31, THIS BOX MAY BE COLLECTED AS EARLY AS 12 NOON.", "ref": "0477700001"}, "type": "Feature"}
{"geometry": {"coordinates": [-68.430934, 45.900493], "type": "Point"}, "id": "LWui9MM0b1RcCnUlabdN-qiRROU=", "properties": {"@spider": "usps_collection_boxes", "addr:city": "STACYVILLE", "addr:country": "US", "addr:full": "418 STATION RD", "addr:postcode": "04777", "addr:state": "ME", "brand": "USPS", "collection_times": "Mo-Fr 14:45; Sa 11:30", "name": "USPS COLLECTION BOX - PO LOBBY", "note": "ON 12/24 AND 12/31, THIS BOX MAY BE COLLECTED AS EARLY AS 12 NOON.", "ref": "0477700003"}, "type": "Feature"}
{"geometry": {"coordinates": [-68.4309508, 45.900457062], "type": "Point"}, "id": "KqjCPscpymHT9fRjtyZBd4Hlmbo=", "properties": {"@spider": "usps_collection_boxes", "addr:city": "STACYVILLE", "addr:country": "US", "addr:full": "418 STATION RD", "addr:postcode": "04777", "addr:state": "ME", "brand": "USPS", "collection_times": "Mo-Fr 14:45", "name": "USPS COLLECTION BOX - PO LOBBY", "note": "ON 12/24 AND 12/31, THIS BOX MAY BE COLLECTED AS EARLY AS 12 NOON.", "ref": "0477700004"}, "type": "Feature"}
