{"geometry": {"coordinates": [-69.629501, 44.556005], "type": "Point"}, "id": "5z5mPbFUB4kcIEBBIqsKzMhafwE=", "properties": {"@spider": "usps_collection_boxes", "addr:city": "WINSLOW", "addr:country": "US", "addr:full": "33 COLLEGE AVE", "addr:postcode": "04901", "addr:state": "ME", "brand": "USPS", "collection_times": "Mo-Sa 17:45", "name": "USPS COLLECTION BOX - EXPRESS", "note": "ON 12/24 AND 12/31, THIS BOX MAY BE COLLECTED AS EARLY AS 12 NOON.", "ref": "0490100001"}, "type": "Feature"}
{"geometry": {"coordinates": [-69.629571, 44.555949], "type": "Point"}, "id": "1lHzfD92DqZzXx4WRuyKQUDNOeY=", "properties": {"@spider": "usps_collection_boxes", "addr:city": "WINSLOW", "addr:country": "US", "addr:full": "33 COLLEGE AVE", "addr:postcode": "04901", "addr:state": "ME", "brand": "USPS", "collection_times": "Mo-Sa 17:45", "name": "USPS COLLECTION BOX - BLUE BOX", "note": "ON 12/24 AND 12/31, THIS BOX MAY BE COLLECTED AS EARLY AS 12 NOON.", "ref": "0490100002"}, "type": "Feature"}
{"geometry": {"coordinates": [-69.629571, 44.555949], "type": "Point"}, "id": "7fLWASmYrPIDhTo9iK3oo530mhM=", "properties": {"@spider": "usps_collection_boxes", "addr:city": "WINSLOW", "addr:country": "US", "addr:full": "33 COLLEGE AVE", "addr:postcode": "04901", "addr:state": "ME", "brand": "USPS", "collection_times": "Mo-Sa 17:45", "name": "USPS COLLECTION BOX - BLUE BOX", "note": "ON 12/24 AND 12/31, THIS BOX MAY BE COLLECTED AS EARLY AS 12 NOON.", "ref": "0490100003"}, "type": "Feature"}
{"geometry": {"coordinates": [-69.640156, 44.567764], "type": "Point"}, "id": "H_ErBu8_fencMwQnoup7AXRurMw=", "properties": {"@spider": "usps_collection_boxes", "addr:city": "WINSLOW", "addr:country": "US", "addr:full": "15 ELM PLZ", "addr:postcode": "04901", "addr:state": "ME", "brand": "USPS", "collection_times": "Mo-Sa 10:00", "name": "USPS COLLECTION BOX - BLUE BOX", "ref": "0490100006"}, "type": "Feature"}
{"geometry": {"coordinates": [-69.6296221, 44.5495], "type": "Point"}, "id": "DnQhoc7i-flmsuAkv7Elwc7F_uA=", "properties": {"@spider": "usps_collection_boxes", "addr:city": "WINSLOW", "addr:country": "US", "addr:full": "28 COMMON ST", "addr:postcode": "04901", "addr:state": "ME", "brand": "USPS", "collection_times": "Mo-Fr 15:00; Sa 14:30", "name": "USPS COLLECTION BOX - BLUE BOX", "note": "ON 12/24 AND 12/31, THIS BOX MAY BE COLLECTED AS EARLY AS 12 NOON.", "ref": "0490100011"}, "type": "Feature"}
{"geometry": {"coordinates": [-69.630351, 44.550438], "type": "Point"}, "id": "WPmBXBf0Ar_rUFmeN_JlPZ7baZw=", "properties": {"@spider": "usps_collection_boxes", "addr:city": "WINSLOW", "addr:country": "US", "addr:full": "110 MAIN ST", "addr:postcode": "04901", "addr:state": "ME", "brand": "USPS", "collection_times": "Mo-Sa 14:30", "name": "USPS COLLECTION BOX - BLUE BOX", "note": "ON 12/24 AND 12/31, THIS BOX MAY BE COLLECTED AS EARLY AS 12 NOON.", "ref": "0490100015"}, "type": "Feature"}
{"geometry": {"coordinates": [-69.6303919, 44.548842], "type": "Point"}, "id": "ziMDWDqSAQd_J67I_YFtYgEfJJM=", "properties": {"@spider": "usps_collection_boxes", "addr:city": "WINSLOW", "addr:country": "US", "addr:full": "5 SILVER ST", "addr:postcode": "04901", "addr:state": "ME", "brand": "USPS", "collection_times": "Mo-Sa 14:30", "name": "USPS COLLECTION BOX - BLUE BOX", "note": "ON 12/24 AND 12/31, THIS BOX MAY BE COLLECTED AS EARLY AS 12 NOON.", "ref": "0490100018"}, "type": "Feature"}
{"geometry": {"coordinates": [-69.6342273, 44.548928], "type": "Point"}, "id": "wcdMn_AD2IFRmQDdSG9inpLfk0g=", "properties": {"@spider": "usps_collection_boxes", "addr:city": "WINSLOW", "addr:country": "US", "addr:full": "2 SCHOOL ST", "addr:postcode": "04901", "addr:state": "ME", "brand": "USPS", "collection_times": "Mo-Sa 08:30", "name": "USPS COLLECTION BOX - BLUE BOX", "ref": "0490100020"}, "type": "Feature"}
{"geometry": {"coordinates": [-69.6629728, 44.542347], "type": "Point"}, "id": "dBs6b6NhCFyPnv6o8ObGmh_CP0c=", "properties": {"@spider": "usps_collection_boxes", "addr:city": "WINSLOW", "addr:country": "US", "addr:full": "222 KENNEDY MEMORIAL DR", "addr:postcode": "04901", "addr:state": "ME", "brand": "USPS", "collection_times": "Mo-Fr 14:30; Sa 14:00", "name": "USPS COLLECTION BOX - BLUE BOX", "note": "ON 12/24 AND 12/31, THIS BOX MAY BE COLLECTED AS EARLY AS 12 NOON.", "ref": "0490100023"}, "type": "Feature"}
{"geometry": {"coordinates": [-69.6618024, 44.563125], "type": "Point"}, "id": "X9dUwNstdy8SPkszXHEX4lU5Gf4=", "properties": {"@spider": "usps_collection_boxes", "addr:city": "WINSLOW", "addr:country": "US", "addr:full": "150 MAYFLOWER HILL DR", "addr:postcode": "04901", "addr:state": "ME", "brand": "USPS", "collection_times": "Mo-Fr 14:00; Sa 07:00", "name": "USPS COLLECTION BOX - BLUE BOX", "note": "ON 12/24 AND 12/31, THIS BOX MAY BE COLLECTED AS EARLY AS 12 NOON.", "ref": "0490100027"}, "type": "Feature"}
{"geometry": {"coordinates": [-69.6231675, 44.545464], "type": "Point"}, "id": "OVdkn0OVMfsSn0qvE1v9_kGorJY=", "properties": {"@spider": "usps_collection_boxes", "addr:city": "WINSLOW", "addr:country": "US", "addr:full": "12 MONUMENT ST", "addr:postcode": "04901", "addr:state": "ME", "brand": "USPS", "collection_times": "Mo-Sa 08:30", "name": "USPS COLLECTION BOX - BLUE BOX", "ref": "0490100030"}, "type": "Feature"}
{"geometry": {"coordinates": [-69.615634, 44.545851], "type": "Point"}, "id": "14LSXaGM-W3gmBmRWrZEhFsQ39c=", "properties": {"@spider": "usps_collection_boxes", "addr:city": "WINSLOW", "addr:country": "US", "addr:full": "107 CLINTON AVE", "addr:postcode": "04901", "addr:state": "ME", "brand": "USPS", "collection_times": "Mo-Sa 14:00", "name": "USPS COLLECTION BOX - BLUE BOX", "note": "ON 12/24 AND 12/31, THIS BOX MAY BE COLLECTED AS EARLY AS 12 NOON.", "ref": "0490100032"}, "type": "Feature"}
{"geometry": {"coordinates": [-69.6277139, 44.537985], "type": "Point"}, "id": "zrE7SX53qLYj2nyAgJFC_UkqYQs=", "properties": {"@spider": "usps_collection_boxes", "addr:city": "WINSLOW", "addr:country": "US", "addr:full": "30 CHINA RD", "addr:postcode": "04901", "addr:state": "ME", "brand": "USPS", "collection_times": "Mo-Sa 11:00", "name": "USPS COLLECTION BOX - BLUE BOX", "ref": "0490100034"}, "type": "Feature"}
{"geometry": {"coordinates": [-69.6524647, 44.540155], "type": "Point"}, "id": "evya60_qEZi3vTG1iAZaGGQ1kPA=", "properties": {"@spider": "usps_collection_boxes", "addr:city": "WINSLOW", "addr:country": "US", "addr:full": "180 JFK PLZ", "addr:postcode": "04901", "addr:state": "ME", "brand": "USPS", "collection_times": "Mo-Fr 14:30; Sa 14:00", "name": "USPS COLLECTION BOX - BLUE BOX", "note": "ON 12/24 AND 12/31, THIS BOX MAY BE COLLECTED AS EARLY AS 12 NOON.", "ref": "0490100039"}, "type": "Feature"}
{"geometry": {"coordinates": [-69.6517581, 44.551806], "type": "Point"}, "id": "2zfLQxhhKA06r2sg0Bbvp_aDDKY=", "properties": {"@spider": "usps_collection_boxes", "addr:city": "WINSLOW", "addr:country": "US", "addr:full": "139 1ST RANGEWAY", "addr:postcode": "04901", "addr:state": "ME", "brand": "USPS", "collection_times": "Mo-Sa 11:00", "name": "USPS COLLECTION BOX - BLUE BOX", "ref": "0490100043"}, "type": "Feature"}
{"geometry": {"coordinates": [-69.6710579, 44.545154], "type": "Point"}, "id": "gOmvImJBI1RSb4UmkBKNpqfDUYw=", "properties": {"@spider": "usps_collection_boxes", "addr:city": "WINSLOW", "addr:country": "US", "addr:full": "325 KENNEDY MEMORIAL DR", "addr:postcode": "04901", "addr:state": "ME", "brand": "USPS", "collection_times": "Mo-Fr 14:30; Sa 14:00", "name": "USPS COLLECTION BOX - BLUE BOX", "note": "ON 12/24 AND 12/31, THIS BOX MAY BE COLLECTED AS EARLY AS 12 NOON.", "ref": "0490100045"}, "type": "Feature"}
{"geometry": {"coordinates": [-69.6661393, 44.544966], "type": "Point"}, "id": "JqANiAec7s7Hea3vlnP7Cuae2qE=", "properties": {"@spider": "usps_collection_boxes", "addr:city": "WINSLOW", "addr:country": "US", "addr:full": "251 KENNEDY MEMORIAL DR", "addr:postcode": "04901", "addr:state": "ME", "brand": "USPS", "collection_times": "Mo-Sa 10:00", "name": "USPS COLLECTION BOX - BLUE BOX", "ref": "0490100047"}, "type": "Feature"}
{"geometry": {"coordinates": [-69.6595404, 44.535962], "type": "Point"}, "id": "_SBJJCElJ-2mdcslzHES-0RgVB8=", "properties": {"@spider": "usps_collection_boxes", "addr:city": "WINSLOW", "addr:country": "US", "addr:full": "1 CARVER ST", "addr:postcode": "04901", "addr:state": "ME", "brand": "USPS", "collection_times": "Mo-Sa 11:00", "name": "USPS COLLECTION BOX - BLUE BOX", "ref": "0490100049"}, "type": "Feature"}
{"geometry": {"coordinates": [-69.6237012, 44.550466], "type": "Point"}, "id": "q2SXuBLaEwEP9kR-S-HfoyNKYuA=", "properties": {"@spider": "usps_collection_boxes", "addr:city": "WINSLOW", "addr:country": "US", "addr:full": "114 BENTON AVE", "addr:postcode": "04901", "addr:state": "ME", "brand": "USPS", "collection_times": "Mo-Fr 14:00; Sa 12:00", "name": "USPS COLLECTION BOX - BLUE BOX", "note": "ON 12/24 AND 12/31, THIS BOX MAY BE COLLECTED AS EARLY AS 12 NOON.", "ref": "0490100052"}, "type": "Feature"}
{"geometry": {"coordinates": [-69.6451209, 44.568711], "type": "Point"}, "id": "svZxt_KkML6eVANNYEkb0Oz8cFs=", "properties": {"@spider": "usps_collection_boxes", "addr:city": "WINSLOW", "addr:country": "US", "addr:full": "80 WATERVILLE COMMONS DR", "addr:postcode": "04901", "addr:state": "ME", "brand": "USPS", "collection_times": "Mo-Sa 10:00", "name": "USPS COLLECTION BOX - BLUE BOX", "ref": "0490100054"}, "type": "Feature"}
{"geometry": {"coordinates": [-69.629571, 44.555949], "type": "Point"}, "id": "XJmrSZmZAROqzHcNXbneKRX20JE=", "properties": {"@spider": "usps_collection_boxes", "addr:city": "WINSLOW", "addr:country": "US", "addr:full": "33 COLLEGE AVE", "addr:postcode": "04901", "addr:state": "ME", "brand": "USPS", "collection_times": "Mo-Sa 17:45", "name": "USPS COLLECTION BOX - PO LOBBY", "note": "ON 12/24 AND 12/31, THIS BOX MAY BE COLLECTED AS EARLY AS 12 NOON.", "ref": "0490100056"}, "type": "Feature"}
{"geometry": {"coordinates": [-69.629571, 44.555949], "type": "Point"}, "id": "mCvreWjjzkDK399ifsgzyiLSHG0=", "properties": {"@spider": "usps_collection_boxes", "addr:city": "WINSLOW", "addr:country": "US", "addr:full": "33 COLLEGE AVE", "addr:postcode": "04901", "addr:state": "ME", "brand": "USPS", "collection_times": "Mo-Sa 17:45", "name": "USPS COLLECTION BOX - PO LOBBY", "note": "ON 12/24 AND 12/31, THIS BOX MAY BE COLLECTED AS EARLY AS 12 NOON.", "ref": "0490100057"}, "type": "Feature"}
{"geometry": {"coordinates": [-69.629571, 44.555949], "type": "Point"}, "id": "QeN1twgRoJDWnc0P5FAVRODFxfc=", "properties": {"@spider": "usps_collection_boxes", "addr:city": "WINSLOW", "addr:country": "US", "addr:full": "33 COLLEGE AVE", "addr:postcode": "04901", "addr:state": "ME", "brand": "USPS", "collection_times": "Mo-Sa 17:45", "name": "USPS COLLECTION BOX - PO LOBBY", "note": "ON 12/24 AND 12/31, THIS BOX MAY BE COLLECTED AS EARLY AS 12 NOON.", "ref": "0490100058"}, "type": "Feature"}
{"geometry": {"coordinates": [-69.629571, 44.555949], "type": "Point"}, "id": "RJbN94rIRQFwcbhhSqNoH8X_I_g=", "properties": {"@spider": "usps_collection_boxes", "addr:city": "WINSLOW", "addr:country": "US", "addr:full": "33 COLLEGE AVE", "addr:postcode": "04901", "addr:state": "ME", "brand": "USPS", "collection_times": "Mo-Sa 17:45", "name": "USPS COLLECTION BOX - PO LOBBY", "note": "ON 12/24 AND 12/31, THIS BOX MAY BE COLLECTED AS EARLY AS 12 NOON.", "ref": "0490100059"}, "type": "Feature"}
{"geometry": {"coordinates": [-69.629571, 44.555949], "type": "Point"}, "id": "7Fs9d5zV__TkPKUAopscGJqaiBA=", "properties": {"@spider": "usps_collection_boxes", "addr:city": "WINSLOW", "addr:country": "US", "addr:full": "33 COLLEGE AVE", "addr:postcode": "04901", "addr:state": "ME", "brand": "USPS", "collection_times": "Mo-Sa 17:45", "name": "USPS COLLECTION BOX - PO LOBBY", "note": "ON 12/24 AND 12/31, THIS BOX MAY BE COLLECTED AS EARLY AS 12 NOON.", "ref": "0490100062"}, "type": "Feature"}
{"geometry": {"coordinates": [-69.62971216, 44.55562497], "type": "Point"}, "id": "ohVi-_G0Gov8JdY0Vl10_OlnKEk=", "properties": {"@spider": "usps_collection_boxes", "addr:city": "WINSLOW", "addr:country": "US", "addr:full": "33 COLLEGE AVE", "addr:postcode": "04901", "addr:state": "ME", "brand": "USPS", "collection_times": "Mo-Fr 17:00; Sa 12:00", "name": "USPS COLLECTION BOX - PO LOBBY", "note": "ON 12/24 AND 12/31, THIS BOX MAY BE COLLECTED AS EARLY AS 12 NOON.", "ref": "0490100069"}, "type": "Feature"}
{"geometry": {"coordinates": [-69.890912, 44.797212], "type": "Point"}, "id": "MxseuqE2TtSOB1qa_6zuYcpoVd8=", "properties": {"@spider": "usps_collection_boxes", "addr:city": "ANSON", "addr:country": "US", "addr:full": "72 MAIN ST", "addr:postcode": "04911", "addr:state": "ME", "brand": "USPS", "collection_times": "Mo-Fr 16:30; Sa 10:30", "name": "USPS COLLECTION BOX - BLUE BOX", "note": "ON 12/24 AND 12/31, THIS BOX MAY BE COLLECTED AS EARLY AS 12 NOON.", "ref": "0491100001"}, "type": "Feature"}
{"geometry": {"coordinates": [-69.890912, 44.797212], "type": "Point"}, "id": "lj4ao4YOvJmZCo-wvRSFMHlhzmE=", "properties": {"@spider": "usps_collection_boxes", "addr:city": "ANSON", "addr:country": "US", "addr:full": "72 MAIN ST", "addr:postcode": "04911", "addr:state": "ME", "brand": "USPS", "collection_times": "Mo-Fr 16:30; Sa 10:30", "name": "USPS COLLECTION BOX - PO LOBBY", "note": "ON 12/24 AND 12/31, THIS BOX MAY BE COLLECTED AS EARLY AS 12 NOON.", "ref": "0491100002"}, "type": "Feature"}
{"geometry": {"coordinates": [-69.890911622, 44.797208218], "type": "Point"}, "id": "_jhH674M5ycJA3KQJV8VIl2ecx8=", "properties": {"@spider": "usps_collection_boxes", "addr:city": "ANSON", "addr:country": "US", "addr:full": "72 MAIN ST", "addr:postcode": "04911", "addr:state": "ME", "brand": "USPS", "collection_times": "Mo-Fr 16:30; Sa 11:00", "name": "USPS COLLECTION BOX - PO LOBBY", "note": "ON 12/24 AND 12/31, THIS BOX MAY BE COLLECTED AS EARLY AS 12 NOON.", "ref": "0491100003"}, "type": "Feature"}
{"geometry": {"coordinates": [-69.674303, 44.92761], "type": "Point"}, "id": "Px4puVApERZ5QyX-6w1EPnZ4d-c=", "properties": {"@spider": "usps_collection_boxes", "addr:city": "ATHENS", "addr:country": "US", "addr:full": "4 BRIGHTON RD", "addr:postcode": "04912", "addr:state": "ME", "brand": "USPS", "collection_times": "Mo-Fr 16:15; Sa 11:30", "name": "USPS COLLECTION BOX - BLUE BOX", "note": "ON 12/24 AND 12/31, THIS BOX MAY BE COLLECTED AS EARLY AS 12 NOON.", "ref": "0491200001"}, "type": "Feature"}
{"geometry": {"coordinates": [-69.674237, 44.927529], "type": "Point"}, "id": "tkQXiEvVl2PPlw0PIOkuOizGDfY=", "properties": {"@spider": "usps_collection_boxes", "addr:city": "ATHENS", "addr:country": "US", "addr:full": "4 BRIGHTON RD", "addr:postcode": "04912", "addr:state": "ME", "brand": "USPS", "collection_times": "Mo-Fr 16:00; Sa 11:30", "name": "USPS COLLECTION BOX - PO LOBBY", "note": "ON 12/24 AND 12/31, THIS BOX MAY BE COLLECTED AS EARLY AS 12 NOON.", "ref": "0491200002"}, "type": "Feature"}
{"geometry": {"coordinates": [-69.674379305, 44.927823259], "type": "Point"}, "id": "aJdtvHXB_YKs7KAcU06bJBhW4MY=", "properties": {"@spider": "usps_collection_boxes", "addr:city": "ATHENS", "addr:country": "US", "addr:full": "4 BRIGHTON RD", "addr:postcode": "04912", "addr:state": "ME", "brand": "USPS", "collection_times": "Mo-Fr 16:00; Sa 11:30", "name": "USPS COLLECTION BOX - PO LOBBY", "note": "ON 12/24 AND 12/31, THIS BOX MAY BE COLLECTED AS EARLY AS 12 NOON.", "ref": "0491200003"}, "type": "Feature"}
{"geometry": {"coordinates": [-69.831463, 44.464118], "type": "Point"}, "id": "jX4Ve_OETOJZKR-64FoXwL5XnSs=", "properties": {"@spider": "usps_collection_boxes", "addr:city": "BELGRADE", "addr:country": "US", "addr:full": "1010 AUGUSTA RD", "addr:postcode": "04917", "addr:state": "ME", "brand": "USPS", "collection_times": "Mo-Fr 16:15; Sa 10:45", "name": "USPS COLLECTION BOX - BLUE BOX", "note": "ON 12/24 AND 12/31, THIS BOX MAY BE COLLECTED AS EARLY AS 12 NOON.", "ref": "0491700001"}, "type": "Feature"}
{"geometry": {"coordinates": [-69.831468, 44.464024], "type": "Point"}, "id": "hX_i0K5-Urfls7IwNskaWKescPE=", "properties": {"@spider": "usps_collection_boxes", "addr:city": "BELGRADE", "addr:country": "US", "addr:full": "1010 AUGUSTA RD", "addr:postcode": "04917", "addr:state": "ME", "brand": "USPS", "collection_times": "Mo-Fr 16:15; Sa 11:00", "name": "USPS COLLECTION BOX - PO LOBBY", "note": "ON 12/24 AND 12/31, THIS BOX MAY BE COLLECTED AS EARLY AS 12 NOON.", "ref": "0491700003"}, "type": "Feature"}
{"geometry": {"coordinates": [-69.831731442, 44.46474761], "type": "Point"}, "id": "SCbite61CHOIw-8dtfv4f_8ms3A=", "properties": {"@spider": "usps_collection_boxes", "addr:city": "BELGRADE", "addr:country": "US", "addr:full": "1010 AUGUSTA RD", "addr:postcode": "04917", "addr:state": "ME", "brand": "USPS", "collection_times": "Mo-Fr 16:00; Sa 11:00", "name": "USPS COLLECTION BOX - PO LOBBY", "note": "ON 12/24 AND 12/31, THIS BOX MAY BE COLLECTED AS EARLY AS 12 NOON.", "ref": "0491700004"}, "type": "Feature"}
{"geometry": {"coordinates": [-69.887456, 44.527575], "type": "Point"}, "id": "aN2RNxpibL882I5ozLorBMhid00=", "properties": {"@spider": "usps_collection_boxes", "addr:city": "BELGRADE LAKES", "addr:country": "US", "addr:full": "171 MAIN ST", "addr:postcode": "04918", "addr:state": "ME", "brand": "USPS", "collection_times": "Mo-Fr 15:00; Sa 10:45", "name": "USPS COLLECTION BOX - BLUE BOX", "note": "ON 12/24 AND 12/31, THIS BOX MAY BE COLLECTED AS EARLY AS 12 NOON.", "ref": "0491800001"}, "type": "Feature"}
{"geometry": {"coordinates": [-69.887467, 44.527515], "type": "Point"}, "id": "eSi4WmoCEBL-2lgcl7rwdboP4Qw=", "properties": {"@spider": "usps_collection_boxes", "addr:city": "BELGRADE LAKES", "addr:country": "US", "addr:full": "171 MAIN ST", "addr:postcode": "04918", "addr:state": "ME", "brand": "USPS", "collection_times": "Mo-Fr 15:00; Sa 10:45", "name": "USPS COLLECTION BOX - PO LOBBY", "note": "ON 12/24 AND 12/31, THIS BOX MAY BE COLLECTED AS EARLY AS 12 NOON.", "ref": "0491800002"}, "type": "Feature"}
{"geometry": {"coordinates": [-69.888150713, 44.528898772], "type": "Point"}, "id": "WxH_RiEE1h9xttVME91NQEAaK3c=", "properties": {"@spider": "usps_collection_boxes", "addr:city": "BELGRADE LAKES", "addr:country": "US", "addr:full": "171 MAIN ST", "addr:postcode": "04918", "addr:state": "ME", "brand": "USPS", "collection_times": "Mo-Fr 15:00; Sa 10:45", "name": "USPS COLLECTION BOX - PO LOBBY", "note": "ON 12/24 AND 12/31, THIS BOX MAY BE COLLECTED AS EARLY AS 12 NOON.", "ref": "0491800004"}, "type": "Feature"}
{"geometry": {"coordinates": [-69.883186, 45.057008], "type": "Point"}, "id": "eBvuxIQGCUhiuBSUvNwPKgR4v8g=", "properties": {"@spider": "usps_collection_boxes", "addr:city": "BINGHAM", "addr:country": "US", "addr:full": "301 MAIN ST", "addr:postcode": "04920", "addr:state": "ME", "brand": "USPS", "collection_times": "Mo-Fr 15:35; Sa 11:25", "name": "USPS COLLECTION BOX - BLUE BOX", "note": "ON 12/24 AND 12/31, THIS BOX MAY BE COLLECTED AS EARLY AS 12 NOON.", "ref": "0492000001"}, "type": "Feature"}
{"geometry": {"coordinates": [-69.883186, 45.057008], "type": "Point"}, "id": "X0eaSZ9ZSMa10Wcg0gctcuNCaMg=", "properties": {"@spider": "usps_collection_boxes", "addr:city": "BINGHAM", "addr:country": "US", "addr:full": "301 MAIN ST", "addr:postcode": "04920", "addr:state": "ME", "brand": "USPS", "collection_times": "Mo-Fr 15:35; Sa 11:25", "name": "USPS COLLECTION BOX - PO LOBBY", "note": "ON 12/24 AND 12/31, THIS BOX MAY BE COLLECTED AS EARLY AS 12 NOON.", "ref": "0492000002"}, "type": "Feature"}
{"geometry": {"coordinates": [-69.883159915, 45.05697745], "type": "Point"}, "id": "m6gm-3EwUAkwDFWDjbrH_Xj6HYw=", "properties": {"@spider": "usps_collection_boxes", "addr:city": "BINGHAM", "addr:country": "US", "addr:full": "301 MAIN ST", "addr:postcode": "04920", "addr:state": "ME", "brand": "USPS", "collection_times": "Mo-Fr 15:30; Sa 11:00", "name": "USPS COLLECTION BOX - PO LOBBY", "note": "ON 12/24 AND 12/31, THIS BOX MAY BE COLLECTED AS EARLY AS 12 NOON.", "ref": "0492000004"}, "type": "Feature"}
{"geometry": {"coordinates": [-69.42515, 44.691446], "type": "Point"}, "id": "jb4N_DJ12G-J9G0_7DtFXXn6Fao=", "properties": {"@spider": "usps_collection_boxes", "addr:city": "BURNHAM", "addr:country": "US", "addr:full": "26 TROY RD", "addr:postcode": "04922", "addr:state": "ME", "brand": "USPS", "collection_times": "Mo-Fr 16:00; Sa 11:00", "name": "USPS COLLECTION BOX - BLUE BOX", "note": "ON 12/24 AND 12/31, THIS BOX MAY BE COLLECTED AS EARLY AS 12 NOON.", "ref": "0492200000"}, "type": "Feature"}
{"geometry": {"coordinates": [-69.424995329, 44.691419714], "type": "Point"}, "id": "sgzbewX6aC3lWcs3CpjDbqAz6RQ=", "properties": {"@spider": "usps_collection_boxes", "addr:city": "BURNHAM", "addr:country": "US", "addr:full": "26 TROY RD", "addr:postcode": "04922", "addr:state": "ME", "brand": "USPS", "collection_times": "Mo-Fr 16:00; Sa 11:00", "name": "USPS COLLECTION BOX - PO LOBBY", "note": "ON 12/24 AND 12/31, THIS BOX MAY BE COLLECTED AS EARLY AS 12 NOON.", "ref": "0492200002"}, "type": "Feature"}
{"geometry": {"coordinates": [-69.424995329, 44.691419714], "type": "Point"}, "id": "foX2jf_pJz6G9AnRmXMGV1mpdwo=", "properties": {"@spider": "usps_collection_boxes", "addr:city": "BURNHAM", "addr:country": "US", "addr:full": "26 TROY RD", "addr:postcode": "04922", "addr:state": "ME", "brand": "USPS", "collection_times": "Mo-Fr 16:00; Sa 11:00", "name": "USPS COLLECTION BOX - PO LOBBY", "note": "ON 12/24 AND 12/31, THIS BOX MAY BE COLLECTED AS EARLY AS 12 NOON.", "ref": "0492200003"}, "type": "Feature"}
{"geometry": {"coordinates": [-69.473209, 45.022972], "type": "Point"}, "id": "KBAk8n4jQnIWIZBIzMPZHtHe4-o=", "properties": {"@spider": "usps_collection_boxes", "addr:city": "CAMBRIDGE", "addr:country": "US", "addr:full": "9 MAIN ST", "addr:postcode": "04923", "addr:state": "ME", "brand": "USPS", "collection_times": "Mo-Fr 15:30; Sa 11:00", "name": "USPS COLLECTION BOX - BLUE BOX", "note": "ON 12/24 AND 12/31, THIS BOX MAY BE COLLECTED AS EARLY AS 12 NOON.", "ref": "0492300001"}, "type": "Feature"}
{"geometry": {"coordinates": [-69.473209, 45.022972], "type": "Point"}, "id": "PQr3bZ98aP7Dop9mKk_HGF9YYuI=", "properties": {"@spider": "usps_collection_boxes", "addr:city": "CAMBRIDGE", "addr:country": "US", "addr:full": "9 MAIN ST", "addr:postcode": "04923", "addr:state": "ME", "brand": "USPS", "collection_times": "Mo-Fr 15:30; Sa 11:00", "name": "USPS COLLECTION BOX - PO LOBBY", "note": "ON 12/24 AND 12/31, THIS BOX MAY BE COLLECTED AS EARLY AS 12 NOON.", "ref": "0492300002"}, "type": "Feature"}
{"geometry": {"coordinates": [-69.47327435, 45.023057706], "type": "Point"}, "id": "Afh0OuS7ChU8SpCOi46mtMLGHkA=", "properties": {"@spider": "usps_collection_boxes", "addr:city": "CAMBRIDGE", "addr:country": "US", "addr:full": "9 MAIN ST", "addr:postcode": "04923", "addr:state": "ME", "brand": "USPS", "collection_times": "Mo-Fr 15:30; Sa 11:15", "name": "USPS COLLECTION BOX - PO LOBBY", "note": "ON 12/24 AND 12/31, THIS BOX MAY BE COLLECTED AS EARLY AS 12 NOON.", "ref": "0492300003"}, "type": "Feature"}
{"geometry": {"coordinates": [-69.561944, 44.76196], "type": "Point"}, "id": "b6XH6eMoi0dEkKucTQmICe4D8lw=", "properties": {"@spider": "usps_collection_boxes", "addr:city": "CANAAN", "addr:country": "US", "addr:full": "273 MAIN ST", "addr:postcode": "04924", "addr:state": "ME", "brand": "USPS", "collection_times": "Mo-Fr 15:30; Sa 10:30", "name": "USPS COLLECTION BOX - BLUE BOX", "note": "ON 12/24 AND 12/31, THIS BOX MAY BE COLLECTED AS EARLY AS 12 NOON.", "ref": "0492400001"}, "type": "Feature"}
{"geometry": {"coordinates": [-69.561944, 44.76196], "type": "Point"}, "id": "EtI4S5Olz11kE0BpGtoVZhRQSKE=", "properties": {"@spider": "usps_collection_boxes", "addr:city": "CANAAN", "addr:country": "US", "addr:full": "273 MAIN ST", "addr:postcode": "04924", "addr:state": "ME", "brand": "USPS", "collection_times": "Mo-Fr 16:00; Sa 11:00", "name": "USPS COLLECTION BOX - PO LOBBY", "note": "ON 12/24 AND 12/31, THIS BOX MAY BE COLLECTED AS EARLY AS 12 NOON.", "ref": "0492400002"}, "type": "Feature"}
{"geometry": {"coordinates": [-69.562003411, 44.761919941], "type": "Point"}, "id": "Qjs9UNh0xIvQMHtTLSnKWjh3ppY=", "properties": {"@spider": "usps_collection_boxes", "addr:city": "CANAAN", "addr:country": "US", "addr:full": "273 MAIN ST", "addr:postcode": "04924", "addr:state": "ME", "brand": "USPS", "collection_times": "Mo-Fr 16:00; Sa 10:45", "name": "USPS COLLECTION BOX - PO LOBBY", "note": "ON 12/24 AND 12/31, THIS BOX MAY BE COLLECTED AS EARLY AS 12 NOON.", "ref": "0492400004"}, "type": "Feature"}
{"geometry": {"coordinates": [-69.991639, 45.233942], "type": "Point"}, "id": "COAnGkNSuLcAS5lzZJoWthhf_IU=", "properties": {"@spider": "usps_collection_boxes", "addr:city": "CARATUNK", "addr:country": "US", "addr:full": "172 MAIN ST", "addr:postcode": "04925", "addr:state": "ME", "brand": "USPS", "collection_times": "Mo-Fr 15:00; Sa 11:15", "name": "USPS COLLECTION BOX - BLUE BOX", "note": "ON 12/24 AND 12/31, THIS BOX MAY BE COLLECTED AS EARLY AS 12 NOON.", "ref": "0492500001"}, "type": "Feature"}
{"geometry": {"coordinates": [-69.991639, 45.233942], "type": "Point"}, "id": "yC6ESZ5wZ9tTYZJjduNgpWgagmc=", "properties": {"@spider": "usps_collection_boxes", "addr:city": "CARATUNK", "addr:country": "US", "addr:full": "172 MAIN ST", "addr:postcode": "04925", "addr:state": "ME", "brand": "USPS", "collection_times": "Mo-Fr 15:00; Sa 11:15", "name": "USPS COLLECTION BOX - PO LOBBY", "note": "ON 12/24 AND 12/31, THIS BOX MAY BE COLLECTED AS EARLY AS 12 NOON.", "ref": "0492500002"}, "type": "Feature"}
{"geometry": {"coordinates": [-69.991689115, 45.233892894], "type": "Point"}, "id": "5vak-fapkNlli1KxoiE5MNXJBn0=", "properties": {"@spider": "usps_collection_boxes", "addr:city": "CARATUNK", "addr:country": "US", "addr:full": "172 MAIN ST", "addr:postcode": "04925", "addr:state": "ME", "brand": "USPS", "collection_times": "Mo-Fr 15:00; Sa 11:15", "name": "USPS COLLECTION BOX - PO LOBBY", "note": "ON 12/24 AND 12/31, THIS BOX MAY BE COLLECTED AS EARLY AS 12 NOON.", "ref": "0492500003"}, "type": "Feature"}
{"geometry": {"coordinates": [-69.502874, 44.637587], "type": "Point"}, "id": "jN_kIX1HDccR97JqcUzwc3_AwV0=", "properties": {"@spider": "usps_collection_boxes", "addr:city": "CLINTON", "addr:country": "US", "addr:full": "15 RAILROAD ST", "addr:postcode": "04927", "addr:state": "ME", "brand": "USPS", "collection_times": "Mo-Fr 16:00; Sa 11:00", "name": "USPS COLLECTION BOX - BLUE BOX", "note": "ON 12/24 AND 12/31, THIS BOX MAY BE COLLECTED AS EARLY AS 12 NOON.", "ref": "0492700001"}, "type": "Feature"}
{"geometry": {"coordinates": [-69.502925, 44.637631], "type": "Point"}, "id": "K5XnoRJ7lTz2Skyp-5NLqsN0wXQ=", "properties": {"@spider": "usps_collection_boxes", "addr:city": "CLINTON", "addr:country": "US", "addr:full": "15 RAILROAD ST", "addr:postcode": "04927", "addr:state": "ME", "brand": "USPS", "collection_times": "Mo-Fr 16:00; Sa 11:00", "name": "USPS COLLECTION BOX - PO LOBBY", "note": "ON 12/24 AND 12/31, THIS BOX MAY BE COLLECTED AS EARLY AS 12 NOON.", "ref": "0492700003"}, "type": "Feature"}
{"geometry": {"coordinates": [-69.502885198, 44.637624251], "type": "Point"}, "id": "bmqC_LhWm8-NBS2C-bfGTwYCWvI=", "properties": {"@spider": "usps_collection_boxes", "addr:city": "CLINTON", "addr:country": "US", "addr:full": "15 RAILROAD ST", "addr:postcode": "04927", "addr:state": "ME", "brand": "USPS", "collection_times": "Mo-Fr 16:15; Sa 11:15", "name": "USPS COLLECTION BOX - PO LOBBY", "note": "ON 12/24 AND 12/31, THIS BOX MAY BE COLLECTED AS EARLY AS 12 NOON.", "ref": "0492700004"}, "type": "Feature"}
{"geometry": {"coordinates": [-69.2583483, 44.921918], "type": "Point"}, "id": "xJGaCurN2MuUxpwxvhMc4b3-R4I=", "properties": {"@spider": "usps_collection_boxes", "addr:city": "CORINNA", "addr:country": "US", "addr:full": "15 EXETER RD", "addr:postcode": "04928", "addr:state": "ME", "brand": "USPS", "collection_times": "Mo-Fr 14:00; Sa 11:30", "name": "USPS COLLECTION BOX - BLUE BOX", "note": "ON 12/24 AND 12/31, THIS BOX MAY BE COLLECTED AS EARLY AS 12 NOON.", "ref": "0492800001"}, "type": "Feature"}
{"geometry": {"coordinates": [-69.2583439, 44.921856], "type": "Point"}, "id": "SqbSuYAuFZt8ds35jSNWkCgorJA=", "properties": {"@spider": "usps_collection_boxes", "addr:city": "CORINNA", "addr:country": "US", "addr:full": "15 EXETER RD", "addr:postcode": "04928", "addr:state": "ME", "brand": "USPS", "collection_times": "Mo-Fr 14:00; Sa 11:30", "name": "USPS COLLECTION BOX - PO LOBBY", "note": "ON 12/24 AND 12/31, THIS BOX MAY BE COLLECTED AS EARLY AS 12 NOON.", "ref": "0492800002"}, "type": "Feature"}
{"geometry": {"coordinates": [-69.258453182, 44.922069367], "type": "Point"}, "id": "yojKfWR47PQWxvGB_W6K3hqAVw0=", "properties": {"@spider": "usps_collection_boxes", "addr:city": "CORINNA", "addr:country": "US", "addr:full": "15 EXETER RD", "addr:postcode": "04928", "addr:state": "ME", "brand": "USPS", "collection_times": "Mo-Fr 14:00; Sa 11:30", "name": "USPS COLLECTION BOX - PO LOBBY", "note": "ON 12/24 AND 12/31, THIS BOX MAY BE COLLECTED AS EARLY AS 12 NOON.", "ref": "0492800004"}, "type": "Feature"}
{"geometry": {"coordinates": [-69.29783, 44.795026], "type": "Point"}, "id": "4fvQwQNszOtOGx2aNes3BNs40nc=", "properties": {"@spider": "usps_collection_boxes", "addr:city": "DETROIT", "addr:country": "US", "addr:full": "21 MAIN ST", "addr:postcode": "04929", "addr:state": "ME", "brand": "USPS", "collection_times": "Mo-Fr 15:45; Sa 10:45", "name": "USPS COLLECTION BOX - BLUE BOX", "note": "ON 12/24 AND 12/31, THIS BOX MAY BE COLLECTED AS EARLY AS 12 NOON.", "ref": "0492900001"}, "type": "Feature"}
{"geometry": {"coordinates": [-69.29783, 44.795026], "type": "Point"}, "id": "3dXE56VFTRWPQ7Enrg6jNAosJ_k=", "properties": {"@spider": "usps_collection_boxes", "addr:city": "DETROIT", "addr:country": "US", "addr:full": "21 MAIN ST", "addr:postcode": "04929", "addr:state": "ME", "brand": "USPS", "collection_times": "Mo-Fr 15:45; Sa 10:45", "name": "USPS COLLECTION BOX - PO LOBBY", "note": "ON 12/24 AND 12/31, THIS BOX MAY BE COLLECTED AS EARLY AS 12 NOON.", "ref": "0492900002"}, "type": "Feature"}
{"geometry": {"coordinates": [-69.29783, 44.795026], "type": "Point"}, "id": "im_M-mxRQyQKgfSUvGwncxgjAEs=", "properties": {"@spider": "usps_collection_boxes", "addr:city": "DETROIT", "addr:country": "US", "addr:full": "21 MAIN ST", "addr:postcode": "04929", "addr:state": "ME", "brand": "USPS", "collection_times": "Mo-Fr 15:45; Sa 10:45", "name": "USPS COLLECTION BOX - PO LOBBY", "note": "ON 12/24 AND 12/31, THIS BOX MAY BE COLLECTED AS EARLY AS 12 NOON.", "ref": "0492900003"}, "type": "Feature"}
{"geometry": {"coordinates": [-69.297806462, 44.795034891], "type": "Point"}, "id": "0HG7BPwKz_lDyh994nGZbpuqbck=", "properties": {"@spider": "usps_collection_boxes", "addr:city": "DETROIT", "addr:country": "US", "addr:full": "21 MAIN ST", "addr:postcode": "04929", "addr:state": "ME", "brand": "USPS", "collection_times": "Mo-Fr 15:45; Sa 10:45", "name": "USPS COLLECTION BOX - PO LOBBY", "note": "ON 12/24 AND 12/31, THIS BOX MAY BE COLLECTED AS EARLY AS 12 NOON.", "ref": "0492900004"}, "type": "Feature"}
{"geometry": {"coordinates": [-69.2886969, 45.025452], "type": "Point"}, "id": "0FKnGbU79ommyZKLmCpWqHaZ-Gw=", "properties": {"@spider": "usps_collection_boxes", "addr:city": "DEXTER", "addr:country": "US", "addr:full": "27 CHURCH ST", "addr:postcode": "04930", "addr:state": "ME", "brand": "USPS", "collection_times": "Mo-Sa 09:00", "name": "USPS COLLECTION BOX - BLUE BOX", "ref": "0493000003"}, "type": "Feature"}
{"geometry": {"coordinates": [-69.2903494952, 45.0190231188], "type": "Point"}, "id": "5VieRlTFevOGJdvjU7V9J2bfUco=", "properties": {"@spider": "usps_collection_boxes", "addr:city": "DEXTER", "addr:country": "US", "addr:full": "91 SPRING ST", "addr:postcode": "04930", "addr:state": "ME", "brand": "USPS", "collection_times": "Mo-Sa 08:15", "name": "USPS COLLECTION BOX - BLUE BOX", "ref": "0493000005"}, "type": "Feature"}
{"geometry": {"coordinates": [-69.2913383, 45.023916], "type": "Point"}, "id": "GyNyDr2_f7D4tyKlLYrX8-i51qE=", "properties": {"@spider": "usps_collection_boxes", "addr:city": "DEXTER", "addr:country": "US", "addr:full": "22 MAIN ST", "addr:postcode": "04930", "addr:state": "ME", "brand": "USPS", "collection_times": "Mo-Sa 14:30", "name": "USPS COLLECTION BOX - BLUE BOX", "note": "ON 12/24 AND 12/31, THIS BOX MAY BE COLLECTED AS EARLY AS 12 NOON.", "ref": "0493000006"}, "type": "Feature"}
{"geometry": {"coordinates": [-69.28964, 45.023797], "type": "Point"}, "id": "Kxhms1MHeoyl85NI0CwdFgka17U=", "properties": {"@spider": "usps_collection_boxes", "addr:city": "DEXTER", "addr:country": "US", "addr:full": "2 POST OFFICE RD", "addr:postcode": "04930", "addr:state": "ME", "brand": "USPS", "collection_times": "Mo-Fr 17:00; Sa 14:45", "name": "USPS COLLECTION BOX - BLUE BOX", "note": "ON 12/24 AND 12/31, THIS BOX MAY BE COLLECTED AS EARLY AS 12 NOON.", "ref": "0493000007"}, "type": "Feature"}
{"geometry": {"coordinates": [-69.28954, 45.024157], "type": "Point"}, "id": "2h4rH4TZF7hlpUEHa6gTkcuLH40=", "properties": {"@spider": "usps_collection_boxes", "addr:city": "DEXTER", "addr:country": "US", "addr:full": "2 POST OFFICE RD", "addr:postcode": "04930", "addr:state": "ME", "brand": "USPS", "collection_times": "Mo-Fr 17:00; Sa 13:00", "name": "USPS COLLECTION BOX - PO LOBBY", "note": "ON 12/24 AND 12/31, THIS BOX MAY BE COLLECTED AS EARLY AS 12 NOON.", "ref": "0493000008"}, "type": "Feature"}
{"geometry": {"coordinates": [-69.28954, 45.024157], "type": "Point"}, "id": "KLjt16Sp9Ti-YXZaPYWW9AkTTSA=", "properties": {"@spider": "usps_collection_boxes", "addr:city": "DEXTER", "addr:country": "US", "addr:full": "2 POST OFFICE RD", "addr:postcode": "04930", "addr:state": "ME", "brand": "USPS", "collection_times": "Mo-Fr 17:00; Sa 13:00", "name": "USPS COLLECTION BOX - PO LOBBY", "note": "ON 12/24 AND 12/31, THIS BOX MAY BE COLLECTED AS EARLY AS 12 NOON.", "ref": "0493000009"}, "type": "Feature"}
{"geometry": {"coordinates": [-69.289503847, 45.024140211], "type": "Point"}, "id": "5Qx_A3ka9Q9g5RiFIBWwGel5lgg=", "properties": {"@spider": "usps_collection_boxes", "addr:city": "DEXTER", "addr:country": "US", "addr:full": "2 POST OFFICE RD", "addr:postcode": "04930", "addr:state": "ME", "brand": "USPS", "collection_times": "Mo-Fr 17:00; Sa 12:00", "name": "USPS COLLECTION BOX - PO LOBBY", "note": "ON 12/24 AND 12/31, THIS BOX MAY BE COLLECTED AS EARLY AS 12 NOON.", "ref": "0493000010"}, "type": "Feature"}
{"geometry": {"coordinates": [-69.159375, 44.681088], "type": "Point"}, "id": "p_jLCtPFVk-jGfC_28eFmV8ZBjk=", "properties": {"@spider": "usps_collection_boxes", "addr:city": "DIXMONT", "addr:country": "US", "addr:full": "975 WESTERN AVE", "addr:postcode": "04932", "addr:state": "ME", "brand": "USPS", "collection_times": "Mo-Fr 15:40; Sa 10:40", "name": "USPS COLLECTION BOX - BLUE BOX", "note": "ON 12/24 AND 12/31, THIS BOX MAY BE COLLECTED AS EARLY AS 12 NOON.", "ref": "0493200001"}, "type": "Feature"}
{"geometry": {"coordinates": [-69.159263, 44.681075], "type": "Point"}, "id": "dvICam0YBeLStgKMHaeWqdMfjvs=", "properties": {"@spider": "usps_collection_boxes", "addr:city": "DIXMONT", "addr:country": "US", "addr:full": "975 WESTERN AVE", "addr:postcode": "04932", "addr:state": "ME", "brand": "USPS", "collection_times": "Mo-Fr 15:45; Sa 10:45", "name": "USPS COLLECTION BOX - PO LOBBY", "note": "ON 12/24 AND 12/31, THIS BOX MAY BE COLLECTED AS EARLY AS 12 NOON.", "ref": "0493200002"}, "type": "Feature"}
{"geometry": {"coordinates": [-69.160107437, 44.680993292], "type": "Point"}, "id": "Ms3IyCfqWS2jlTg1WB0thr4Tq9M=", "properties": {"@spider": "usps_collection_boxes", "addr:city": "DIXMONT", "addr:country": "US", "addr:full": "975 WESTERN AVE", "addr:postcode": "04932", "addr:state": "ME", "brand": "USPS", "collection_times": "Mo-Fr 16:00; Sa 10:45", "name": "USPS COLLECTION BOX - PO LOBBY", "note": "ON 12/24 AND 12/31, THIS BOX MAY BE COLLECTED AS EARLY AS 12 NOON.", "ref": "0493200003"}, "type": "Feature"}
{"geometry": {"coordinates": [-69.216796, 44.81992], "type": "Point"}, "id": "ZoGYGHgyefLlF41P9T7cbPwXX2g=", "properties": {"@spider": "usps_collection_boxes", "addr:city": "EAST NEWPORT", "addr:country": "US", "addr:full": "679 ELM ST", "addr:postcode": "04933", "addr:state": "ME", "brand": "USPS", "collection_times": "Mo-Fr 12:00; Sa 11:45", "name": "USPS COLLECTION BOX - BLUE BOX", "ref": "0493300001"}, "type": "Feature"}
{"geometry": {"coordinates": [-69.216854, 44.81995], "type": "Point"}, "id": "Ed83UdACedT_K-gl9pl84F6oWW8=", "properties": {"@spider": "usps_collection_boxes", "addr:city": "EAST NEWPORT", "addr:country": "US", "addr:full": "679 ELM ST", "addr:postcode": "04933", "addr:state": "ME", "brand": "USPS", "collection_times": "Mo-Fr 12:00; Sa 11:45", "name": "USPS COLLECTION BOX - PO LOBBY", "ref": "0493300002"}, "type": "Feature"}
{"geometry": {"coordinates": [-69.22053495, 44.820042496], "type": "Point"}, "id": "pau8QfeEGdAzZEE72hIJB14vGwM=", "properties": {"@spider": "usps_collection_boxes", "addr:city": "EAST NEWPORT", "addr:country": "US", "addr:full": "679 ELM ST", "addr:postcode": "04933", "addr:state": "ME", "brand": "USPS", "collection_times": "Mo-Fr 12:00; Sa 11:45", "name": "USPS COLLECTION BOX - PO LOBBY", "ref": "0493300003"}, "type": "Feature"}
{"geometry": {"coordinates": [-69.606466, 44.448216], "type": "Point"}, "id": "Pgdd10etD1HQT6ZbRCTVNt1Ha1s=", "properties": {"@spider": "usps_collection_boxes", "addr:city": "EAST VASSALBORO", "addr:country": "US", "addr:full": "351 MAIN ST", "addr:postcode": "04935", "addr:state": "ME", "brand": "USPS", "collection_times": "Mo-Fr 16:30; Sa 11:15", "name": "USPS COLLECTION BOX - BLUE BOX", "note": "ON 12/24 AND 12/31, THIS BOX MAY BE COLLECTED AS EARLY AS 12 NOON.", "ref": "0493500001"}, "type": "Feature"}
{"geometry": {"coordinates": [-69.606466, 44.448216], "type": "Point"}, "id": "VLXG6Sn2RfuzDPLDYYS6G_j5z7g=", "properties": {"@spider": "usps_collection_boxes", "addr:city": "EAST VASSALBORO", "addr:country": "US", "addr:full": "351 MAIN ST", "addr:postcode": "04935", "addr:state": "ME", "brand": "USPS", "collection_times": "Mo-Fr 16:45; Sa 11:15", "name": "USPS COLLECTION BOX - PO LOBBY", "note": "ON 12/24 AND 12/31, THIS BOX MAY BE COLLECTED AS EARLY AS 12 NOON.", "ref": "0493500002"}, "type": "Feature"}
{"geometry": {"coordinates": [-69.606423603, 44.448628306], "type": "Point"}, "id": "UVm5o0ZrbMZruOe_gzmDLJgW5bI=", "properties": {"@spider": "usps_collection_boxes", "addr:city": "EAST VASSALBORO", "addr:country": "US", "addr:full": "351 MAIN ST", "addr:postcode": "04935", "addr:state": "ME", "brand": "USPS", "collection_times": "Mo-Fr 16:45; Sa 11:15", "name": "USPS COLLECTION BOX - PO LOBBY", "note": "ON 12/24 AND 12/31, THIS BOX MAY BE COLLECTED AS EARLY AS 12 NOON.", "ref": "0493500003"}, "type": "Feature"}
{"geometry": {"coordinates": [-70.46251, 45.196857], "type": "Point"}, "id": "bHCrEJJOSH4l2MPBud8L1dnyLms=", "properties": {"@spider": "usps_collection_boxes", "addr:city": "EUSTIS", "addr:country": "US", "addr:full": "1050 THE ARNOLD TRL", "addr:postcode": "04936", "addr:state": "ME", "brand": "USPS", "collection_times": "Mo-Fr 14:40; Sa 11:40", "name": "USPS COLLECTION BOX - BLUE BOX", "note": "ON 12/24 AND 12/31, THIS BOX MAY BE COLLECTED AS EARLY AS 12 NOON.", "ref": "0493600001"}, "type": "Feature"}
{"geometry": {"coordinates": [-70.462476, 45.19682], "type": "Point"}, "id": "cL1x_UwLxu308RLMsOML4whydAk=", "properties": {"@spider": "usps_collection_boxes", "addr:city": "EUSTIS", "addr:country": "US", "addr:full": "1050 THE ARNOLD TRL", "addr:postcode": "04936", "addr:state": "ME", "brand": "USPS", "collection_times": "Mo-Fr 15:00; Sa 11:45", "name": "USPS COLLECTION BOX - PO LOBBY", "note": "ON 12/24 AND 12/31, THIS BOX MAY BE COLLECTED AS EARLY AS 12 NOON.", "ref": "0493600002"}, "type": "Feature"}
{"geometry": {"coordinates": [-70.462502547, 45.196939351], "type": "Point"}, "id": "2K9FxzMvGVTC_YAIXQzvSu6ddyE=", "properties": {"@spider": "usps_collection_boxes", "addr:city": "EUSTIS", "addr:country": "US", "addr:full": "1050 THE ARNOLD TRL", "addr:postcode": "04936", "addr:state": "ME", "brand": "USPS", "collection_times": "Mo-Fr 14:45; Sa 11:45", "name": "USPS COLLECTION BOX - PO LOBBY", "note": "ON 12/24 AND 12/31, THIS BOX MAY BE COLLECTED AS EARLY AS 12 NOON.", "ref": "0493600003"}, "type": "Feature"}
{"geometry": {"coordinates": [-69.595331, 44.586436], "type": "Point"}, "id": "3dEu1T-2SFiOPFy7tTLjgLPNxDQ=", "properties": {"@spider": "usps_collection_boxes", "addr:city": "FAIRFIELD", "addr:country": "US", "addr:full": "130 MAIN ST", "addr:postcode": "04937", "addr:state": "ME", "brand": "USPS", "collection_times": "Mo-Fr 16:00; Sa 13:00", "name": "USPS COLLECTION BOX - BLUE BOX", "note": "ON 12/24 AND 12/31, THIS BOX MAY BE COLLECTED AS EARLY AS 12 NOON.", "ref": "0493700001"}, "type": "Feature"}
{"geometry": {"coordinates": [-69.6011631, 44.591697], "type": "Point"}, "id": "6SUtjaa2RqNjGxBPeRdgJpZaBjE=", "properties": {"@spider": "usps_collection_boxes", "addr:city": "FAIRFIELD", "addr:country": "US", "addr:full": "37 WESTERN AVE", "addr:postcode": "04937", "addr:state": "ME", "brand": "USPS", "collection_times": "Mo-Sa 11:00", "name": "USPS COLLECTION BOX - BLUE BOX", "ref": "0493700007"}, "type": "Feature"}
{"geometry": {"coordinates": [-69.595483, 44.586338], "type": "Point"}, "id": "EolIkZzHVjbkK5y9AH1HSh9rxHY=", "properties": {"@spider": "usps_collection_boxes", "addr:city": "FAIRFIELD", "addr:country": "US", "addr:full": "130 MAIN ST", "addr:postcode": "04937", "addr:state": "ME", "brand": "USPS", "collection_times": "Mo-Fr 16:15; Sa 11:45", "name": "USPS COLLECTION BOX - PO LOBBY", "note": "ON 12/24 AND 12/31, THIS BOX MAY BE COLLECTED AS EARLY AS 12 NOON.", "ref": "0493700009"}, "type": "Feature"}
{"geometry": {"coordinates": [-69.5954234711, 44.5863038406], "type": "Point"}, "id": "eQsdQYx0L4-EO7PZLz820px47k4=", "properties": {"@spider": "usps_collection_boxes", "addr:city": "FAIRFIELD", "addr:country": "US", "addr:full": "130 MAIN ST", "addr:postcode": "04937", "addr:state": "ME", "brand": "USPS", "collection_times": "Mo-Fr 16:00; Sa 13:00", "name": "USPS COLLECTION BOX - BLUE BOX", "note": "ON 12/24 AND 12/31, THIS BOX MAY BE COLLECTED AS EARLY AS 12 NOON.", "ref": "0493700010"}, "type": "Feature"}
{"geometry": {"coordinates": [-69.595425269, 44.58629963], "type": "Point"}, "id": "2eoj8d7heeSkoYoipvUhNKfWOSw=", "properties": {"@spider": "usps_collection_boxes", "addr:city": "FAIRFIELD", "addr:country": "US", "addr:full": "130 MAIN ST", "addr:postcode": "04937", "addr:state": "ME", "brand": "USPS", "collection_times": "Mo-Fr 16:00; Sa 11:30", "name": "USPS COLLECTION BOX - PO LOBBY", "note": "ON 12/24 AND 12/31, THIS BOX MAY BE COLLECTED AS EARLY AS 12 NOON.", "ref": "0493700011"}, "type": "Feature"}
{"geometry": {"coordinates": [-70.15051, 44.66975], "type": "Point"}, "id": "VEj-Le-JBvaY50olOgoV1or1fjU=", "properties": {"@spider": "usps_collection_boxes", "addr:city": "FARMINGTON", "addr:country": "US", "addr:full": "196 MAIN ST", "addr:postcode": "04938", "addr:state": "ME", "brand": "USPS", "collection_times": "Mo-Fr 16:30; Sa 14:45", "name": "USPS COLLECTION BOX - BLUE BOX", "note": "ON 12/24 AND 12/31, THIS BOX MAY BE COLLECTED AS EARLY AS 12 NOON.", "ref": "0493800002"}, "type": "Feature"}
{"geometry": {"coordinates": [-70.15051, 44.66975], "type": "Point"}, "id": "OFrDxEUtNUwuTfgVHDYr45aQIAE=", "properties": {"@spider": "usps_collection_boxes", "addr:city": "FARMINGTON", "addr:country": "US", "addr:full": "196 MAIN ST", "addr:postcode": "04938", "addr:state": "ME", "brand": "USPS", "collection_times": "Mo-Fr 16:30; Sa 14:45", "name": "USPS COLLECTION BOX - BLUE BOX", "note": "ON 12/24 AND 12/31, THIS BOX MAY BE COLLECTED AS EARLY AS 12 NOON.", "ref": "0493800004"}, "type": "Feature"}
{"geometry": {"coordinates": [-70.1519388, 44.671481], "type": "Point"}, "id": "ZU9IsqbkvXw2_kinnoziBV6AGrU=", "properties": {"@spider": "usps_collection_boxes", "addr:city": "FARMINGTON", "addr:country": "US", "addr:full": "140 MAIN ST", "addr:postcode": "04938", "addr:state": "ME", "brand": "USPS", "collection_times": "Mo-Fr 14:30", "name": "USPS COLLECTION BOX - BLUE BOX", "note": "ON 12/24 AND 12/31, THIS BOX MAY BE COLLECTED AS EARLY AS 12 NOON.", "ref": "0493800006"}, "type": "Feature"}
{"geometry": {"coordinates": [-70.1528884, 44.671857], "type": "Point"}, "id": "Qjvl17ydhipW7eW9TQNcYzjYFqQ=", "properties": {"@spider": "usps_collection_boxes", "addr:city": "FARMINGTON", "addr:country": "US", "addr:full": "129 MAIN ST", "addr:postcode": "04938", "addr:state": "ME", "brand": "USPS", "collection_times": "Mo-Fr 14:30", "name": "USPS COLLECTION BOX - BLUE BOX", "note": "ON 12/24 AND 12/31, THIS BOX MAY BE COLLECTED AS EARLY AS 12 NOON.", "ref": "0493800007"}, "type": "Feature"}
{"geometry": {"coordinates": [-70.1581671, 44.630209], "type": "Point"}, "id": "IEGuD50TYcQH1hLo1c_YGjHdAHE=", "properties": {"@spider": "usps_collection_boxes", "addr:city": "FARMINGTON", "addr:country": "US", "addr:full": "615 WILTON RD", "addr:postcode": "04938", "addr:state": "ME", "brand": "USPS", "collection_times": "Mo-Sa 10:15", "name": "USPS COLLECTION BOX - BLUE BOX", "ref": "0493800009"}, "type": "Feature"}
{"geometry": {"coordinates": [-70.1471711, 44.667394], "type": "Point"}, "id": "zGap4sGV54UslaEOb0JgFFErYQc=", "properties": {"@spider": "usps_collection_boxes", "addr:city": "FARMINGTON", "addr:country": "US", "addr:full": "111 SOUTH ST", "addr:postcode": "04938", "addr:state": "ME", "brand": "USPS", "collection_times": "Mo-Sa 10:30", "name": "USPS COLLECTION BOX - BLUE BOX", "ref": "0493800010"}, "type": "Feature"}
{"geometry": {"coordinates": [-70.1401379, 44.661274], "type": "Point"}, "id": "Drtvb6mbd0AZkTQCceM450xvHTs=", "properties": {"@spider": "usps_collection_boxes", "addr:city": "FARMINGTON", "addr:country": "US", "addr:full": "144 FRANKLIN AVE", "addr:postcode": "04938", "addr:state": "ME", "brand": "USPS", "collection_times": "Mo-Fr 11:00; Sa 10:45", "name": "USPS COLLECTION BOX - BLUE BOX", "ref": "0493800011"}, "type": "Feature"}
{"geometry": {"coordinates": [-70.1508126, 44.650658], "type": "Point"}, "id": "IKP0e3iGJLaaAoP2P0cGhsSwpS8=", "properties": {"@spider": "usps_collection_boxes", "addr:city": "FARMINGTON", "addr:country": "US", "addr:full": "131 HANNAFORD DR", "addr:postcode": "04938", "addr:state": "ME", "brand": "USPS", "collection_times": "Mo-Sa 10:00", "name": "USPS COLLECTION BOX - BLUE BOX", "ref": "0493800012"}, "type": "Feature"}
{"geometry": {"coordinates": [-70.1573887, 44.626368], "type": "Point"}, "id": "wb64iCfTFZjLpNCk1xppW8lGGEE=", "properties": {"@spider": "usps_collection_boxes", "addr:city": "FARMINGTON", "addr:country": "US", "addr:full": "650 WILTON RD", "addr:postcode": "04938", "addr:state": "ME", "brand": "USPS", "collection_times": "Mo-Fr 11:15; Sa 11:00", "name": "USPS COLLECTION BOX - BLUE BOX", "ref": "0493800013"}, "type": "Feature"}
{"geometry": {"coordinates": [-70.15051, 44.66975], "type": "Point"}, "id": "6oTCBm0rqP4wJzH3QcqiXCdeY2s=", "properties": {"@spider": "usps_collection_boxes", "addr:city": "FARMINGTON", "addr:country": "US", "addr:full": "196 MAIN ST", "addr:postcode": "04938", "addr:state": "ME", "brand": "USPS", "collection_times": "Mo-Fr 17:00; Sa 14:45", "name": "USPS COLLECTION BOX - PO LOBBY", "note": "ON 12/24 AND 12/31, THIS BOX MAY BE COLLECTED AS EARLY AS 12 NOON.", "ref": "0493800015"}, "type": "Feature"}
{"geometry": {"coordinates": [-70.15051, 44.66975], "type": "Point"}, "id": "VjqJuvYG49G0__f6znNxzZxZTh4=", "properties": {"@spider": "usps_collection_boxes", "addr:city": "FARMINGTON", "addr:country": "US", "addr:full": "196 MAIN ST", "addr:postcode": "04938", "addr:state": "ME", "brand": "USPS", "collection_times": "Mo-Fr 17:00; Sa 14:45", "name": "USPS COLLECTION BOX - PO LOBBY", "note": "ON 12/24 AND 12/31, THIS BOX MAY BE COLLECTED AS EARLY AS 12 NOON.", "ref": "0493800016"}, "type": "Feature"}
{"geometry": {"coordinates": [-70.15051, 44.66975], "type": "Point"}, "id": "H4BeEN9iOmDuFA04_1MUIadQjT0=", "properties": {"@spider": "usps_collection_boxes", "addr:city": "FARMINGTON", "addr:country": "US", "addr:full": "196 MAIN ST", "addr:postcode": "04938", "addr:state": "ME", "brand": "USPS", "collection_times": "Mo-Fr 17:00; Sa 14:45", "name": "USPS COLLECTION BOX - PO LOBBY", "note": "ON 12/24 AND 12/31, THIS BOX MAY BE COLLECTED AS EARLY AS 12 NOON.", "ref": "0493800017"}, "type": "Feature"}
{"geometry": {"coordinates": [-70.150497993, 44.669773561], "type": "Point"}, "id": "6-d2h30hyydTALeSuPG_skksX2k=", "properties": {"@spider": "usps_collection_boxes", "addr:city": "FARMINGTON", "addr:country": "US", "addr:full": "196 MAIN ST", "addr:postcode": "04938", "addr:state": "ME", "brand": "USPS", "collection_times": "Mo-Fr 17:00; Sa 12:00", "name": "USPS COLLECTION BOX - PO LOBBY", "note": "ON 12/24 AND 12/31, THIS BOX MAY BE COLLECTED AS EARLY AS 12 NOON.", "ref": "0493800018"}, "type": "Feature"}
{"geometry": {"coordinates": [-69.15935, 45.039001], "type": "Point"}, "id": "dJCklWVxRRrwpgIbBRlalhWbJgE=", "properties": {"@spider": "usps_collection_boxes", "addr:city": "GARLAND", "addr:country": "US", "addr:full": "1 OLIVER HILL RD", "addr:postcode": "04939", "addr:state": "ME", "brand": "USPS", "collection_times": "Mo-Fr 15:45; Sa 11:45", "name": "USPS COLLECTION BOX - BLUE BOX", "note": "ON 12/24 AND 12/31, THIS BOX MAY BE COLLECTED AS EARLY AS 12 NOON.", "ref": "0493900001"}, "type": "Feature"}
{"geometry": {"coordinates": [-69.159367, 45.038908], "type": "Point"}, "id": "za7w0b1c6LFVyJiZLzE3Hh6buOs=", "properties": {"@spider": "usps_collection_boxes", "addr:city": "GARLAND", "addr:country": "US", "addr:full": "1 OLIVER HILL RD", "addr:postcode": "04939", "addr:state": "ME", "brand": "USPS", "collection_times": "Mo-Fr 15:45; Sa 11:45", "name": "USPS COLLECTION BOX - PO LOBBY", "note": "ON 12/24 AND 12/31, THIS BOX MAY BE COLLECTED AS EARLY AS 12 NOON.", "ref": "0493900002"}, "type": "Feature"}
{"geometry": {"coordinates": [-69.159440053, 45.038950618], "type": "Point"}, "id": "fCH_jYovCmUMAuGQpWFMVwgq9Bk=", "properties": {"@spider": "usps_collection_boxes", "addr:city": "GARLAND", "addr:country": "US", "addr:full": "1 OLIVER HILL RD", "addr:postcode": "04939", "addr:state": "ME", "brand": "USPS", "collection_times": "Mo-Fr 15:45; Sa 11:45", "name": "USPS COLLECTION BOX - PO LOBBY", "note": "ON 12/24 AND 12/31, THIS BOX MAY BE COLLECTED AS EARLY AS 12 NOON.", "ref": "0493900003"}, "type": "Feature"}
{"geometry": {"coordinates": [-70.077853, 44.622852], "type": "Point"}, "id": "Bx0erVqRzFWnOptkGLE_9lTemHQ=", "properties": {"@spider": "usps_collection_boxes", "addr:city": "FARMINGTN FLS", "addr:country": "US", "addr:full": "174 CROSWELL RD", "addr:postcode": "04940", "addr:state": "ME", "brand": "USPS", "collection_times": "Mo-Fr 16:00; Sa 11:30", "name": "USPS COLLECTION BOX - BLUE BOX", "note": "ON 12/24 AND 12/31, THIS BOX MAY BE COLLECTED AS EARLY AS 12 NOON.", "ref": "0494000001"}, "type": "Feature"}
{"geometry": {"coordinates": [-70.077926, 44.622884], "type": "Point"}, "id": "Z5LXyesCqPd4NoZTu1cBifyWfbo=", "properties": {"@spider": "usps_collection_boxes", "addr:city": "FARMINGTN FLS", "addr:country": "US", "addr:full": "174 CROSWELL RD", "addr:postcode": "04940", "addr:state": "ME", "brand": "USPS", "collection_times": "Mo-Fr 16:00; Sa 11:30", "name": "USPS COLLECTION BOX - PO LOBBY", "note": "ON 12/24 AND 12/31, THIS BOX MAY BE COLLECTED AS EARLY AS 12 NOON.", "ref": "0494000002"}, "type": "Feature"}
{"geometry": {"coordinates": [-70.075546137, 44.620835656], "type": "Point"}, "id": "Qas887W5IgV_IBTdd8Su_lPftNs=", "properties": {"@spider": "usps_collection_boxes", "addr:city": "FARMINGTN FLS", "addr:country": "US", "addr:full": "174 CROSWELL RD", "addr:postcode": "04940", "addr:state": "ME", "brand": "USPS", "collection_times": "Mo-Fr 16:00; Sa 11:30", "name": "USPS COLLECTION BOX - PO LOBBY", "note": "ON 12/24 AND 12/31, THIS BOX MAY BE COLLECTED AS EARLY AS 12 NOON.", "ref": "0494000003"}, "type": "Feature"}
{"geometry": {"coordinates": [-69.69509, 45.046213], "type": "Point"}, "id": "yAXYEexV79jl0b-1zREByWxePhk=", "properties": {"@spider": "usps_collection_boxes", "addr:city": "HARMONY", "addr:country": "US", "addr:full": "17 MAIN ST", "addr:postcode": "04942", "addr:state": "ME", "brand": "USPS", "collection_times": "Mo-Fr 14:30; Sa 11:00", "name": "USPS COLLECTION BOX - BLUE BOX", "note": "ON 12/24 AND 12/31, THIS BOX MAY BE COLLECTED AS EARLY AS 12 NOON.", "ref": "0494200001"}, "type": "Feature"}
{"geometry": {"coordinates": [-69.69509, 45.046213], "type": "Point"}, "id": "Gtk46qFqZOqSYItr6hUIfo4SoX4=", "properties": {"@spider": "usps_collection_boxes", "addr:city": "HARMONY", "addr:country": "US", "addr:full": "17 MAIN ST", "addr:postcode": "04942", "addr:state": "ME", "brand": "USPS", "collection_times": "Mo-Fr 14:30; Sa 11:00", "name": "USPS COLLECTION BOX - PO LOBBY", "note": "ON 12/24 AND 12/31, THIS BOX MAY BE COLLECTED AS EARLY AS 12 NOON.", "ref": "0494200002"}, "type": "Feature"}
{"geometry": {"coordinates": [-69.547675417, 44.976918468], "type": "Point"}, "id": "tJYe7DUxWWpW_5KsopalU5I8LdU=", "properties": {"@spider": "usps_collection_boxes", "addr:city": "HARMONY", "addr:country": "US", "addr:full": "17 MAIN ST", "addr:postcode": "04942", "addr:state": "ME", "brand": "USPS", "collection_times": "Mo-Fr 14:30; Sa 11:00", "name": "USPS COLLECTION BOX - PO LOBBY", "note": "ON 12/24 AND 12/31, THIS BOX MAY BE COLLECTED AS EARLY AS 12 NOON.", "ref": "0494200003"}, "type": "Feature"}
{"geometry": {"coordinates": [-69.451995, 44.882572], "type": "Point"}, "id": "-5vQX7RP3LUZ7CSRUg29DKxg2E4=", "properties": {"@spider": "usps_collection_boxes", "addr:city": "HARTLAND", "addr:country": "US", "addr:full": "90 MAIN ST", "addr:postcode": "04943", "addr:state": "ME", "brand": "USPS", "collection_times": "Mo-Fr 14:00; Sa 10:15", "name": "USPS COLLECTION BOX - BLUE BOX", "note": "ON 12/24 AND 12/31, THIS BOX MAY BE COLLECTED AS EARLY AS 12 NOON.", "ref": "0494300001"}, "type": "Feature"}
{"geometry": {"coordinates": [-69.451995, 44.882572], "type": "Point"}, "id": "m-0vlCFqea3DXuLVUJG7f4D0sI8=", "properties": {"@spider": "usps_collection_boxes", "addr:city": "HARTLAND", "addr:country": "US", "addr:full": "90 MAIN ST", "addr:postcode": "04943", "addr:state": "ME", "brand": "USPS", "collection_times": "Mo-Fr 14:00; Sa 10:15", "name": "USPS COLLECTION BOX - PO LOBBY", "note": "ON 12/24 AND 12/31, THIS BOX MAY BE COLLECTED AS EARLY AS 12 NOON.", "ref": "0494300004"}, "type": "Feature"}
{"geometry": {"coordinates": [-69.451967111, 44.88254889], "type": "Point"}, "id": "hC6mEm8H4EyZjsxdCWtoL4fT0lM=", "properties": {"@spider": "usps_collection_boxes", "addr:city": "HARTLAND", "addr:country": "US", "addr:full": "90 MAIN ST", "addr:postcode": "04943", "addr:state": "ME", "brand": "USPS", "collection_times": "Mo-Fr 14:00; Sa 11:00", "name": "USPS COLLECTION BOX - PO LOBBY", "note": "ON 12/24 AND 12/31, THIS BOX MAY BE COLLECTED AS EARLY AS 12 NOON.", "ref": "0494300005"}, "type": "Feature"}
{"geometry": {"coordinates": [-69.6336672699, 44.6854354562], "type": "Point"}, "id": "F58wndME6yYXyRYYqhfhk9UQVZs=", "properties": {"@spider": "usps_collection_boxes", "addr:city": "HINCKLEY", "addr:country": "US", "addr:full": "753 SKOWHEGAN RD", "addr:postcode": "04944", "addr:state": "ME", "brand": "USPS", "collection_times": "Mo-Fr 16:30; Sa 11:30", "name": "USPS COLLECTION BOX - BLUE BOX", "note": "ON 12/24 AND 12/31, THIS BOX MAY BE COLLECTED AS EARLY AS 12 NOON.", "ref": "0494400001"}, "type": "Feature"}
{"geometry": {"coordinates": [-69.6336672699, 44.6854354562], "type": "Point"}, "id": "jWItgaT2SL2PAc52WqhDvBJI1kA=", "properties": {"@spider": "usps_collection_boxes", "addr:city": "HINCKLEY", "addr:country": "US", "addr:full": "753 SKOWHEGAN RD", "addr:postcode": "04944", "addr:state": "ME", "brand": "USPS", "collection_times": "Mo-Fr 16:30; Sa 11:30", "name": "USPS COLLECTION BOX - PO LOBBY", "note": "ON 12/24 AND 12/31, THIS BOX MAY BE COLLECTED AS EARLY AS 12 NOON.", "ref": "0494400002"}, "type": "Feature"}
{"geometry": {"coordinates": [-69.632857781, 44.682268359], "type": "Point"}, "id": "rC2C0QnFxGq9fQ2FXd5rZa1lqNc=", "properties": {"@spider": "usps_collection_boxes", "addr:city": "HINCKLEY", "addr:country": "US", "addr:full": "753 SKOWHEGAN RD", "addr:postcode": "04944", "addr:state": "ME", "brand": "USPS", "collection_times": "Mo-Fr 16:30; Sa 11:30", "name": "USPS COLLECTION BOX - PO LOBBY", "note": "ON 12/24 AND 12/31, THIS BOX MAY BE COLLECTED AS EARLY AS 12 NOON.", "ref": "0494400003"}, "type": "Feature"}
{"geometry": {"coordinates": [-70.261647, 45.631612], "type": "Point"}, "id": "Q0pK07dKjVm4GDT2bmAr1VU30n8=", "properties": {"@spider": "usps_collection_boxes", "addr:city": "JACKMAN", "addr:country": "US", "addr:full": "552 MAIN ST", "addr:postcode": "04945", "addr:state": "ME", "brand": "USPS", "collection_times": "Mo-Fr 14:00; Sa 11:30", "name": "USPS COLLECTION BOX - BLUE BOX", "note": "ON 12/24 AND 12/31, THIS BOX MAY BE COLLECTED AS EARLY AS 12 NOON.", "ref": "0494500001"}, "type": "Feature"}
{"geometry": {"coordinates": [-70.261609, 45.631614], "type": "Point"}, "id": "tArcdUnC476w2Vfr9p9WPSoLkv0=", "properties": {"@spider": "usps_collection_boxes", "addr:city": "JACKMAN", "addr:country": "US", "addr:full": "552 MAIN ST", "addr:postcode": "04945", "addr:state": "ME", "brand": "USPS", "collection_times": "Mo-Fr 14:00; Sa 11:45", "name": "USPS COLLECTION BOX - PO LOBBY", "note": "ON 12/24 AND 12/31, THIS BOX MAY BE COLLECTED AS EARLY AS 12 NOON.", "ref": "0494500002"}, "type": "Feature"}
{"geometry": {"coordinates": [-70.261659611, 45.631789208], "type": "Point"}, "id": "DaVSu_dzkQoQun-HGJHhbBmH1yw=", "properties": {"@spider": "usps_collection_boxes", "addr:city": "JACKMAN", "addr:country": "US", "addr:full": "552 MAIN ST", "addr:postcode": "04945", "addr:state": "ME", "brand": "USPS", "collection_times": "Mo-Fr 14:15; Sa 12:00", "name": "USPS COLLECTION BOX - PO LOBBY", "note": "ON 12/24 AND 12/31, THIS BOX MAY BE COLLECTED AS EARLY AS 12 NOON.", "ref": "0494500004"}, "type": "Feature"}
{"geometry": {"coordinates": [-70.1558999, 44.958367], "type": "Point"}, "id": "m-z-oD-tX9nCfBgc4rbnz47lQLU=", "properties": {"@spider": "usps_collection_boxes", "addr:city": "KINGFIELD", "addr:country": "US", "addr:full": "8 DEPOT ST", "addr:postcode": "04947", "addr:state": "ME", "brand": "USPS", "collection_times": "Mo-Fr 15:00; Sa 11:15", "name": "USPS COLLECTION BOX - BLUE BOX", "note": "ON 12/24 AND 12/31, THIS BOX MAY BE COLLECTED AS EARLY AS 12 NOON.", "ref": "0494700001"}, "type": "Feature"}
{"geometry": {"coordinates": [-70.2177149, 45.084209], "type": "Point"}, "id": "gYsx2KBXaQsOLpqRdonbFUSTxJc=", "properties": {"@spider": "usps_collection_boxes", "addr:city": "KINGFIELD", "addr:country": "US", "addr:full": "1215 CARRABASSETT DR", "addr:postcode": "04947", "addr:state": "ME", "brand": "USPS", "collection_times": "Mo-Fr 12:00", "name": "USPS COLLECTION BOX - BLUE BOX", "ref": "0494700002"}, "type": "Feature"}
{"geometry": {"coordinates": [-70.308739, 45.054021], "type": "Point"}, "id": "sB0s47fNhzr9cJRXmQtE6mHXUPs=", "properties": {"@spider": "usps_collection_boxes", "addr:city": "KINGFIELD", "addr:country": "US", "addr:full": "9000 MAIN ST", "addr:postcode": "04947", "addr:state": "ME", "brand": "USPS", "collection_times": "Mo-Fr 11:00", "name": "USPS COLLECTION BOX - BLUE BOX", "ref": "0494700003"}, "type": "Feature"}
{"geometry": {"coordinates": [-70.155883, 44.958601], "type": "Point"}, "id": "n8TLc1OjiLzUMLUzm-91pKj2zKg=", "properties": {"@spider": "usps_collection_boxes", "addr:city": "KINGFIELD", "addr:country": "US", "addr:full": "8 DEPOT ST", "addr:postcode": "04947", "addr:state": "ME", "brand": "USPS", "collection_times": "Mo-Fr 15:45; Sa 11:45", "name": "USPS COLLECTION BOX - PO LOBBY", "note": "ON 12/24 AND 12/31, THIS BOX MAY BE COLLECTED AS EARLY AS 12 NOON.", "ref": "0494700005"}, "type": "Feature"}
{"geometry": {"coordinates": [-70.155883, 44.958601], "type": "Point"}, "id": "YMnMZuEq8fN73ifW67JcUSHrH7U=", "properties": {"@spider": "usps_collection_boxes", "addr:city": "KINGFIELD", "addr:country": "US", "addr:full": "8 DEPOT ST", "addr:postcode": "04947", "addr:state": "ME", "brand": "USPS", "collection_times": "Mo-Fr 15:45; Sa 11:45", "name": "USPS COLLECTION BOX - PO LOBBY", "note": "ON 12/24 AND 12/31, THIS BOX MAY BE COLLECTED AS EARLY AS 12 NOON.", "ref": "0494700006"}, "type": "Feature"}
{"geometry": {"coordinates": [-70.155899372, 44.958561559], "type": "Point"}, "id": "cfx54kcQJPYyXzTM1MLfEQymHl0=", "properties": {"@spider": "usps_collection_boxes", "addr:city": "KINGFIELD", "addr:country": "US", "addr:full": "8 DEPOT ST", "addr:postcode": "04947", "addr:state": "ME", "brand": "USPS", "collection_times": "Mo-Fr 15:45; Sa 11:45", "name": "USPS COLLECTION BOX - PO LOBBY", "note": "ON 12/24 AND 12/31, THIS BOX MAY BE COLLECTED AS EARLY AS 12 NOON.", "ref": "0494700008"}, "type": "Feature"}
{"geometry": {"coordinates": [-69.879595, 44.798493], "type": "Point"}, "id": "qIlkRAdhpc5J7ELsZz-5q62sC5E=", "properties": {"@spider": "usps_collection_boxes", "addr:city": "MADISON", "addr:country": "US", "addr:full": "24 WESTON AVE", "addr:postcode": "04950", "addr:state": "ME", "brand": "USPS", "collection_times": "Mo-Fr 16:00; Sa 15:00", "name": "USPS COLLECTION BOX - BLUE BOX", "note": "ON 12/24 AND 12/31, THIS BOX MAY BE COLLECTED AS EARLY AS 12 NOON.", "ref": "0495000002"}, "type": "Feature"}
{"geometry": {"coordinates": [-69.8720149, 44.797616], "type": "Point"}, "id": "Je1v8jsYavCqu0GcpMyTnZLHVbk=", "properties": {"@spider": "usps_collection_boxes", "addr:city": "MADISON", "addr:country": "US", "addr:full": "225 MAIN ST", "addr:postcode": "04950", "addr:state": "ME", "brand": "USPS", "collection_times": "Mo-Sa 10:00", "name": "USPS COLLECTION BOX - BLUE BOX", "ref": "0495000009"}, "type": "Feature"}
{"geometry": {"coordinates": [-69.879538, 44.798578], "type": "Point"}, "id": "q2OPEHHQ4_9WBC_j87f2zMX67VE=", "properties": {"@spider": "usps_collection_boxes", "addr:city": "MADISON", "addr:country": "US", "addr:full": "24 WESTON AVE", "addr:postcode": "04950", "addr:state": "ME", "brand": "USPS", "collection_times": "Mo-Fr 16:45; Sa 15:45", "name": "USPS COLLECTION BOX - PO LOBBY", "note": "ON 12/24 AND 12/31, THIS BOX MAY BE COLLECTED AS EARLY AS 12 NOON.", "ref": "0495000011"}, "type": "Feature"}
{"geometry": {"coordinates": [-69.879523624, 44.798946558], "type": "Point"}, "id": "UqxeKhabnwnTj81V-TQdilk9D7Q=", "properties": {"@spider": "usps_collection_boxes", "addr:city": "MADISON", "addr:country": "US", "addr:full": "24 WESTON AVE", "addr:postcode": "04950", "addr:state": "ME", "brand": "USPS", "collection_times": "Mo-Fr 16:30; Sa 12:00", "name": "USPS COLLECTION BOX - PO LOBBY", "note": "ON 12/24 AND 12/31, THIS BOX MAY BE COLLECTED AS EARLY AS 12 NOON.", "ref": "0495000012"}, "type": "Feature"}
{"geometry": {"coordinates": [-69.2860556, 44.838552], "type": "Point"}, "id": "0iVX5iBbwVq82-keN-ApCcSPiZo=", "properties": {"@spider": "usps_collection_boxes", "addr:city": "NEWPORT", "addr:country": "US", "addr:full": "26 MAIN ST", "addr:postcode": "04953", "addr:state": "ME", "brand": "USPS", "collection_times": "Mo-Fr 11:00; Sa 10:30", "name": "USPS COLLECTION BOX - BLUE BOX", "ref": "0495300001"}, "type": "Feature"}
{"geometry": {"coordinates": [-69.281636, 44.836141], "type": "Point"}, "id": "7izJVHnIuAhAceMtvwWY-27MNIw=", "properties": {"@spider": "usps_collection_boxes", "addr:city": "NEWPORT", "addr:country": "US", "addr:full": "85 MAIN ST", "addr:postcode": "04953", "addr:state": "ME", "brand": "USPS", "collection_times": "Mo-Fr 16:30; Sa 12:00", "name": "USPS COLLECTION BOX - BLUE BOX", "note": "ON 12/24 AND 12/31, THIS BOX MAY BE COLLECTED AS EARLY AS 12 NOON.", "ref": "0495300007"}, "type": "Feature"}
{"geometry": {"coordinates": [-69.281713, 44.83619], "type": "Point"}, "id": "3ckx8BWlKuknXNxiCqZvYVnf-5o=", "properties": {"@spider": "usps_collection_boxes", "addr:city": "NEWPORT", "addr:country": "US", "addr:full": "85 MAIN ST", "addr:postcode": "04953", "addr:state": "ME", "brand": "USPS", "collection_times": "Mo-Fr 16:30; Sa 12:00", "name": "USPS COLLECTION BOX - PO LOBBY", "note": "ON 12/24 AND 12/31, THIS BOX MAY BE COLLECTED AS EARLY AS 12 NOON.", "ref": "0495300009"}, "type": "Feature"}
{"geometry": {"coordinates": [-69.280959059, 44.835954999], "type": "Point"}, "id": "G-JUsxknKfCvCXKKoN0jmtEJeBo=", "properties": {"@spider": "usps_collection_boxes", "addr:city": "NEWPORT", "addr:country": "US", "addr:full": "85 MAIN ST", "addr:postcode": "04953", "addr:state": "ME", "brand": "USPS", "collection_times": "Mo-Fr 16:30; Sa 12:00", "name": "USPS COLLECTION BOX - PO LOBBY", "note": "ON 12/24 AND 12/31, THIS BOX MAY BE COLLECTED AS EARLY AS 12 NOON.", "ref": "0495300011"}, "type": "Feature"}
{"geometry": {"coordinates": [-70.011582, 44.635907], "type": "Point"}, "id": "OAb1zDWoDR4kZrynipn9-iGJRDY=", "properties": {"@spider": "usps_collection_boxes", "addr:city": "NEW SHARON", "addr:country": "US", "addr:full": "18 POST OFFICE RD", "addr:postcode": "04955", "addr:state": "ME", "brand": "USPS", "collection_times": "Mo-Fr 14:00; Sa 11:00", "name": "USPS COLLECTION BOX - BLUE BOX", "note": "ON 12/24 AND 12/31, THIS BOX MAY BE COLLECTED AS EARLY AS 12 NOON.", "ref": "0495500001"}, "type": "Feature"}
{"geometry": {"coordinates": [-70.011661, 44.635873], "type": "Point"}, "id": "RYwFFzptKQxhw68kenVAzXt2eSE=", "properties": {"@spider": "usps_collection_boxes", "addr:city": "NEW SHARON", "addr:country": "US", "addr:full": "18 POST OFFICE RD", "addr:postcode": "04955", "addr:state": "ME", "brand": "USPS", "collection_times": "Mo-Fr 14:00; Sa 11:00", "name": "USPS COLLECTION BOX - PO LOBBY", "note": "ON 12/24 AND 12/31, THIS BOX MAY BE COLLECTED AS EARLY AS 12 NOON.", "ref": "0495500002"}, "type": "Feature"}
{"geometry": {"coordinates": [-70.010633949, 44.635993417], "type": "Point"}, "id": "s1FQ-Q7xIY0gZ_iEGvwlAoDdGmg=", "properties": {"@spider": "usps_collection_boxes", "addr:city": "NEW SHARON", "addr:country": "US", "addr:full": "18 POST OFFICE RD", "addr:postcode": "04955", "addr:state": "ME", "brand": "USPS", "collection_times": "Mo-Fr 14:00; Sa 11:00", "name": "USPS COLLECTION BOX - PO LOBBY", "note": "ON 12/24 AND 12/31, THIS BOX MAY BE COLLECTED AS EARLY AS 12 NOON.", "ref": "0495500004"}, "type": "Feature"}
{"geometry": {"coordinates": [-70.1226245, 44.804946], "type": "Point"}, "id": "KETfrGyrqJVyErvCby74pClRgKs=", "properties": {"@spider": "usps_collection_boxes", "addr:city": "NEW VINEYARD", "addr:country": "US", "addr:full": "18 LAKE ST", "addr:postcode": "04956", "addr:state": "ME", "brand": "USPS", "collection_times": "Mo-Fr 16:10; Sa 11:15", "name": "USPS COLLECTION BOX - BLUE BOX", "note": "ON 12/24 AND 12/31, THIS BOX MAY BE COLLECTED AS EARLY AS 12 NOON.", "ref": "0495600001"}, "type": "Feature"}
{"geometry": {"coordinates": [-70.1226341, 44.804896], "type": "Point"}, "id": "wc050uOjUFIOftM7VYM7AtqxhfM=", "properties": {"@spider": "usps_collection_boxes", "addr:city": "NEW VINEYARD", "addr:country": "US", "addr:full": "18 LAKE ST", "addr:postcode": "04956", "addr:state": "ME", "brand": "USPS", "collection_times": "Mo-Fr 16:00; Sa 11:15", "name": "USPS COLLECTION BOX - PO LOBBY", "note": "ON 12/24 AND 12/31, THIS BOX MAY BE COLLECTED AS EARLY AS 12 NOON.", "ref": "0495600003"}, "type": "Feature"}
{"geometry": {"coordinates": [-70.122455154, 44.805061719], "type": "Point"}, "id": "wYltCfihaGuFxkv806G-_KbXcg0=", "properties": {"@spider": "usps_collection_boxes", "addr:city": "NEW VINEYARD", "addr:country": "US", "addr:full": "18 LAKE ST", "addr:postcode": "04956", "addr:state": "ME", "brand": "USPS", "collection_times": "Mo-Fr 16:00; Sa 11:00", "name": "USPS COLLECTION BOX - PO LOBBY", "note": "ON 12/24 AND 12/31, THIS BOX MAY BE COLLECTED AS EARLY AS 12 NOON.", "ref": "0495600004"}, "type": "Feature"}
{"geometry": {"coordinates": [-69.7970005, 44.714166], "type": "Point"}, "id": "6j6dMyCDxjyZJteRhbKokbMJ2GM=", "properties": {"@spider": "usps_collection_boxes", "addr:city": "NORRIDGEWOCK", "addr:country": "US", "addr:full": "2 CLARK ST", "addr:postcode": "04957", "addr:state": "ME", "brand": "USPS", "collection_times": "Mo-Fr 16:30; Sa 11:30", "name": "USPS COLLECTION BOX - BLUE BOX", "note": "ON 12/24 AND 12/31, THIS BOX MAY BE COLLECTED AS EARLY AS 12 NOON.", "ref": "0495700002"}, "type": "Feature"}
{"geometry": {"coordinates": [-69.7969095, 44.71419], "type": "Point"}, "id": "b4ueZyl6StmUO3vtD9eyjZd5ZnI=", "properties": {"@spider": "usps_collection_boxes", "addr:city": "NORRIDGEWOCK", "addr:country": "US", "addr:full": "2 CLARK ST", "addr:postcode": "04957", "addr:state": "ME", "brand": "USPS", "collection_times": "Mo-Fr 16:30; Sa 11:30", "name": "USPS COLLECTION BOX - PO LOBBY", "note": "ON 12/24 AND 12/31, THIS BOX MAY BE COLLECTED AS EARLY AS 12 NOON.", "ref": "0495700004"}, "type": "Feature"}
{"geometry": {"coordinates": [-69.796952503, 44.714004021], "type": "Point"}, "id": "NlMCnVI_A131KS59Iwt9Juvd_E4=", "properties": {"@spider": "usps_collection_boxes", "addr:city": "NORRIDGEWOCK", "addr:country": "US", "addr:full": "2 CLARK ST", "addr:postcode": "04957", "addr:state": "ME", "brand": "USPS", "collection_times": "Mo-Fr 16:30; Sa 11:30", "name": "USPS COLLECTION BOX - PO LOBBY", "note": "ON 12/24 AND 12/31, THIS BOX MAY BE COLLECTED AS EARLY AS 12 NOON.", "ref": "0495700005"}, "type": "Feature"}
{"geometry": {"coordinates": [-69.896261, 44.856118], "type": "Point"}, "id": "aJmwYHwZYWdTSzaSwwGuPrVWN-c=", "properties": {"@spider": "usps_collection_boxes", "addr:city": "NORTH ANSON", "addr:country": "US", "addr:full": "9 MADISON ST", "addr:postcode": "04958", "addr:state": "ME", "brand": "USPS", "collection_times": "Mo-Fr 16:15; Sa 12:00", "name": "USPS COLLECTION BOX - BLUE BOX", "note": "ON 12/24 AND 12/31, THIS BOX MAY BE COLLECTED AS EARLY AS 12 NOON.", "ref": "0495800001"}, "type": "Feature"}
{"geometry": {"coordinates": [-69.896282, 44.856143], "type": "Point"}, "id": "QUQ0IGv7M-khC-IxMRZ_frqFA4E=", "properties": {"@spider": "usps_collection_boxes", "addr:city": "NORTH ANSON", "addr:country": "US", "addr:full": "9 MADISON ST", "addr:postcode": "04958", "addr:state": "ME", "brand": "USPS", "collection_times": "Mo-Fr 16:15; Sa 12:00", "name": "USPS COLLECTION BOX - PO LOBBY", "note": "ON 12/24 AND 12/31, THIS BOX MAY BE COLLECTED AS EARLY AS 12 NOON.", "ref": "0495800002"}, "type": "Feature"}
{"geometry": {"coordinates": [-69.896457849, 44.85608866], "type": "Point"}, "id": "uNd_PAmY6OkT9QhnfR-fHRUwnhs=", "properties": {"@spider": "usps_collection_boxes", "addr:city": "NORTH ANSON", "addr:country": "US", "addr:full": "9 MADISON ST", "addr:postcode": "04958", "addr:state": "ME", "brand": "USPS", "collection_times": "Mo-Fr 16:15; Sa 11:30", "name": "USPS COLLECTION BOX - PO LOBBY", "note": "ON 12/24 AND 12/31, THIS BOX MAY BE COLLECTED AS EARLY AS 12 NOON.", "ref": "0495800003"}, "type": "Feature"}
{"geometry": {"coordinates": [-70.0145699, 44.921407], "type": "Point"}, "id": "48LaO5u9_n6kMQ5fZ02La0eeMJ4=", "properties": {"@spider": "usps_collection_boxes", "addr:city": "NEW PORTLAND", "addr:country": "US", "addr:full": "186 MEADOW BROOK RD", "addr:postcode": "04961", "addr:state": "ME", "brand": "USPS", "collection_times": "Mo-Fr 15:30; Sa 10:30", "name": "USPS COLLECTION BOX - BLUE BOX", "note": "ON 12/24 AND 12/31, THIS BOX MAY BE COLLECTED AS EARLY AS 12 NOON.", "ref": "0496100001"}, "type": "Feature"}
{"geometry": {"coordinates": [-70.014082, 44.921271], "type": "Point"}, "id": "wh0A8yLFzjcW50iFQNwJFUArW2I=", "properties": {"@spider": "usps_collection_boxes", "addr:city": "NEW PORTLAND", "addr:country": "US", "addr:full": "186 MEADOW BROOK RD", "addr:postcode": "04961", "addr:state": "ME", "brand": "USPS", "collection_times": "Mo-Fr 15:30; Sa 10:30", "name": "USPS COLLECTION BOX - PO LOBBY", "note": "ON 12/24 AND 12/31, THIS BOX MAY BE COLLECTED AS EARLY AS 12 NOON.", "ref": "0496100002"}, "type": "Feature"}
{"geometry": {"coordinates": [-70.014209819, 44.921336166], "type": "Point"}, "id": "tfVkC63av9NNGqVVXnNdoAPZuSY=", "properties": {"@spider": "usps_collection_boxes", "addr:city": "NEW PORTLAND", "addr:country": "US", "addr:full": "186 MEADOW BROOK RD", "addr:postcode": "04961", "addr:state": "ME", "brand": "USPS", "collection_times": "Mo-Fr 16:00; Sa 10:30", "name": "USPS COLLECTION BOX - PO LOBBY", "note": "ON 12/24 AND 12/31, THIS BOX MAY BE COLLECTED AS EARLY AS 12 NOON.", "ref": "0496100003"}, "type": "Feature"}
{"geometry": {"coordinates": [-69.62239, 44.485038], "type": "Point"}, "id": "uTWSDo7XwfLl9h_NSTRw7umZ9NQ=", "properties": {"@spider": "usps_collection_boxes", "addr:city": "N VASSALBORO", "addr:country": "US", "addr:full": "847 MAIN ST", "addr:postcode": "04962", "addr:state": "ME", "brand": "USPS", "collection_times": "Mo-Fr 14:30; Sa 11:30", "name": "USPS COLLECTION BOX - BLUE BOX", "note": "ON 12/24 AND 12/31, THIS BOX MAY BE COLLECTED AS EARLY AS 12 NOON.", "ref": "0496200001"}, "type": "Feature"}
{"geometry": {"coordinates": [-69.62239, 44.485038], "type": "Point"}, "id": "ExXEw2UOditCK8M6TlepGoK0pqE=", "properties": {"@spider": "usps_collection_boxes", "addr:city": "N VASSALBORO", "addr:country": "US", "addr:full": "847 MAIN ST", "addr:postcode": "04962", "addr:state": "ME", "brand": "USPS", "collection_times": "Mo-Fr 14:30; Sa 11:30", "name": "USPS COLLECTION BOX - PO LOBBY", "note": "ON 12/24 AND 12/31, THIS BOX MAY BE COLLECTED AS EARLY AS 12 NOON.", "ref": "0496200002"}, "type": "Feature"}
{"geometry": {"coordinates": [-69.620691248, 44.481117468], "type": "Point"}, "id": "fMuYEjBBvWWDUz_F9oGaK-a1Ra8=", "properties": {"@spider": "usps_collection_boxes", "addr:city": "N VASSALBORO", "addr:country": "US", "addr:full": "847 MAIN ST", "addr:postcode": "04962", "addr:state": "ME", "brand": "USPS", "collection_times": "Mo-Fr 14:30; Sa 11:45", "name": "USPS COLLECTION BOX - PO LOBBY", "note": "ON 12/24 AND 12/31, THIS BOX MAY BE COLLECTED AS EARLY AS 12 NOON.", "ref": "0496200006"}, "type": "Feature"}
{"geometry": {"coordinates": [-69.7208932, 44.544825], "type": "Point"}, "id": "4tbqoW4GODOUEa0icDCy9YFihVQ=", "properties": {"@spider": "usps_collection_boxes", "addr:city": "OAKLAND", "addr:country": "US", "addr:full": "45 CHURCH ST", "addr:postcode": "04963", "addr:state": "ME", "brand": "USPS", "collection_times": "Mo-Sa 09:00", "name": "USPS COLLECTION BOX - BLUE BOX", "ref": "0496300001"}, "type": "Feature"}
{"geometry": {"coordinates": [-69.717422, 44.544864], "type": "Point"}, "id": "tC-l0HOYJEacxijhAChbREAP-L8=", "properties": {"@spider": "usps_collection_boxes", "addr:city": "OAKLAND", "addr:country": "US", "addr:full": "62 WATER ST", "addr:postcode": "04963", "addr:state": "ME", "brand": "USPS", "collection_times": "Mo-Fr 17:00; Sa 14:30", "name": "USPS COLLECTION BOX - BLUE BOX", "note": "ON 12/24 AND 12/31, THIS BOX MAY BE COLLECTED AS EARLY AS 12 NOON.", "ref": "0496300004"}, "type": "Feature"}
{"geometry": {"coordinates": [-69.71752, 44.544836], "type": "Point"}, "id": "EzvakAPaG_kTUM-WrUe5tQOEz2Y=", "properties": {"@spider": "usps_collection_boxes", "addr:city": "OAKLAND", "addr:country": "US", "addr:full": "62 WATER ST", "addr:postcode": "04963", "addr:state": "ME", "brand": "USPS", "collection_times": "Mo-Fr 17:00; Sa 14:30", "name": "USPS COLLECTION BOX - BLUE BOX", "note": "ON 12/24 AND 12/31, THIS BOX MAY BE COLLECTED AS EARLY AS 12 NOON.", "ref": "0496300005"}, "type": "Feature"}
{"geometry": {"coordinates": [-69.7182281, 44.547667], "type": "Point"}, "id": "DDRhYqVw0kJ26hjqGHPTeSiq-3w=", "properties": {"@spider": "usps_collection_boxes", "addr:city": "OAKLAND", "addr:country": "US", "addr:full": "51 MAIN ST", "addr:postcode": "04963", "addr:state": "ME", "brand": "USPS", "collection_times": "Mo-Sa 14:00", "name": "USPS COLLECTION BOX - BLUE BOX", "note": "ON 12/24 AND 12/31, THIS BOX MAY BE COLLECTED AS EARLY AS 12 NOON.", "ref": "0496300006"}, "type": "Feature"}
{"geometry": {"coordinates": [-69.7138594, 44.547924], "type": "Point"}, "id": "UdnJkEMV8pQ3W8jgohwDpb_biHs=", "properties": {"@spider": "usps_collection_boxes", "addr:city": "OAKLAND", "addr:country": "US", "addr:full": "7 MAIN ST", "addr:postcode": "04963", "addr:state": "ME", "brand": "USPS", "collection_times": "Mo-Sa 14:00", "name": "USPS COLLECTION BOX - BLUE BOX", "note": "ON 12/24 AND 12/31, THIS BOX MAY BE COLLECTED AS EARLY AS 12 NOON.", "ref": "0496300008"}, "type": "Feature"}
{"geometry": {"coordinates": [-69.71752, 44.544836], "type": "Point"}, "id": "XguxvNDZpwLTN9q1qI5ckoj862U=", "properties": {"@spider": "usps_collection_boxes", "addr:city": "OAKLAND", "addr:country": "US", "addr:full": "62 WATER ST", "addr:postcode": "04963", "addr:state": "ME", "brand": "USPS", "collection_times": "Mo-Fr 17:00; Sa 14:30", "name": "USPS COLLECTION BOX - PO LOBBY", "note": "ON 12/24 AND 12/31, THIS BOX MAY BE COLLECTED AS EARLY AS 12 NOON.", "ref": "0496300010"}, "type": "Feature"}
{"geometry": {"coordinates": [-69.717487287, 44.544824226], "type": "Point"}, "id": "3Tfof8a714yUc6FqsQFpH7IZ5tU=", "properties": {"@spider": "usps_collection_boxes", "addr:city": "OAKLAND", "addr:country": "US", "addr:full": "62 WATER ST", "addr:postcode": "04963", "addr:state": "ME", "brand": "USPS", "collection_times": "Mo-Fr 16:30; Sa 12:00", "name": "USPS COLLECTION BOX - PO LOBBY", "note": "ON 12/24 AND 12/31, THIS BOX MAY BE COLLECTED AS EARLY AS 12 NOON.", "ref": "0496300011"}, "type": "Feature"}
{"geometry": {"coordinates": [-70.776157, 44.965368], "type": "Point"}, "id": "UyF5WNHrrsoM7ZTrMNtZyCow1zg=", "properties": {"@spider": "usps_collection_boxes", "addr:city": "OQUOSSOC", "addr:country": "US", "addr:full": "92 CARRY RD", "addr:postcode": "04964", "addr:state": "ME", "brand": "USPS", "collection_times": "Mo-Fr 14:30; Sa 12:00", "name": "USPS COLLECTION BOX - PO LOBBY", "note": "ON 12/24 AND 12/31, THIS BOX MAY BE COLLECTED AS EARLY AS 12 NOON.", "ref": "0496400002"}, "type": "Feature"}
{"geometry": {"coordinates": [-70.776226, 44.965365], "type": "Point"}, "id": "O7OHLVgNquSuHdgA9nMIovOfjFE=", "properties": {"@spider": "usps_collection_boxes", "addr:city": "OQUOSSOC", "addr:country": "US", "addr:full": "92 CARRY RD", "addr:postcode": "04964", "addr:state": "ME", "brand": "USPS", "collection_times": "Mo-Fr 14:15; Sa 12:00", "name": "USPS COLLECTION BOX - BLUE BOX", "note": "ON 12/24 AND 12/31, THIS BOX MAY BE COLLECTED AS EARLY AS 12 NOON.", "ref": "0496400003"}, "type": "Feature"}
{"geometry": {"coordinates": [-70.775015733, 44.965867628], "type": "Point"}, "id": "N_9vrNbBLu6COXAp6YRpyIPefYo=", "properties": {"@spider": "usps_collection_boxes", "addr:city": "OQUOSSOC", "addr:country": "US", "addr:full": "92 CARRY RD", "addr:postcode": "04964", "addr:state": "ME", "brand": "USPS", "collection_times": "Mo-Fr 14:30; Sa 12:00", "name": "USPS COLLECTION BOX - PO LOBBY", "note": "ON 12/24 AND 12/31, THIS BOX MAY BE COLLECTED AS EARLY AS 12 NOON.", "ref": "0496400004"}, "type": "Feature"}
{"geometry": {"coordinates": [-69.366265, 44.847974], "type": "Point"}, "id": "nAdnX9BNmGRDROLExmYd8j2roHc=", "properties": {"@spider": "usps_collection_boxes", "addr:city": "PALMYRA", "addr:country": "US", "addr:full": "3 WARREN HILL RD", "addr:postcode": "04965", "addr:state": "ME", "brand": "USPS", "collection_times": "Mo-Fr 14:00; Sa 10:30", "name": "USPS COLLECTION BOX - BLUE BOX", "note": "ON 12/24 AND 12/31, THIS BOX MAY BE COLLECTED AS EARLY AS 12 NOON.", "ref": "0496500001"}, "type": "Feature"}
{"geometry": {"coordinates": [-69.366277, 44.847882], "type": "Point"}, "id": "QRdsXiMSjhI7h399pKoGeaQqM1A=", "properties": {"@spider": "usps_collection_boxes", "addr:city": "PALMYRA", "addr:country": "US", "addr:full": "3 WARREN HILL RD", "addr:postcode": "04965", "addr:state": "ME", "brand": "USPS", "collection_times": "Mo-Fr 14:00; Sa 10:30", "name": "USPS COLLECTION BOX - PO LOBBY", "note": "ON 12/24 AND 12/31, THIS BOX MAY BE COLLECTED AS EARLY AS 12 NOON.", "ref": "0496500002"}, "type": "Feature"}
{"geometry": {"coordinates": [-69.36623684, 44.847955085], "type": "Point"}, "id": "Grak2c8DLPT4g4FsS_wLOIdITxM=", "properties": {"@spider": "usps_collection_boxes", "addr:city": "PALMYRA", "addr:country": "US", "addr:full": "3 WARREN HILL RD", "addr:postcode": "04965", "addr:state": "ME", "brand": "USPS", "collection_times": "Mo-Fr 14:00; Sa 10:30", "name": "USPS COLLECTION BOX - PO LOBBY", "note": "ON 12/24 AND 12/31, THIS BOX MAY BE COLLECTED AS EARLY AS 12 NOON.", "ref": "0496500003"}, "type": "Feature"}
{"geometry": {"coordinates": [-70.461954, 44.858656], "type": "Point"}, "id": "5pmmruFa6QkmfUWuXuF3cmoPR9Q=", "properties": {"@spider": "usps_collection_boxes", "addr:city": "PHILLIPS", "addr:country": "US", "addr:full": "91 DODGE RD", "addr:postcode": "04966", "addr:state": "ME", "brand": "USPS", "collection_times": "Mo-Fr 14:30; Sa 11:30", "name": "USPS COLLECTION BOX - BLUE BOX", "note": "ON 12/24 AND 12/31, THIS BOX MAY BE COLLECTED AS EARLY AS 12 NOON.", "ref": "0496600001"}, "type": "Feature"}
{"geometry": {"coordinates": [-70.461838, 44.858629], "type": "Point"}, "id": "DTyloZRyYAnMigniPEmLP28aq2k=", "properties": {"@spider": "usps_collection_boxes", "addr:city": "PHILLIPS", "addr:country": "US", "addr:full": "91 DODGE RD", "addr:postcode": "04966", "addr:state": "ME", "brand": "USPS", "collection_times": "Mo-Fr 14:30; Sa 11:30", "name": "USPS COLLECTION BOX - PO LOBBY", "note": "ON 12/24 AND 12/31, THIS BOX MAY BE COLLECTED AS EARLY AS 12 NOON.", "ref": "0496600003"}, "type": "Feature"}
{"geometry": {"coordinates": [-70.342675002, 44.819172954], "type": "Point"}, "id": "kZ7Y6OhGPh0-nzgmLaYXwzB4hmc=", "properties": {"@spider": "usps_collection_boxes", "addr:city": "PHILLIPS", "addr:country": "US", "addr:full": "91 DODGE RD", "addr:postcode": "04966", "addr:state": "ME", "brand": "USPS", "collection_times": "Mo-Fr 14:30; Sa 11:30", "name": "USPS COLLECTION BOX - PO LOBBY", "note": "ON 12/24 AND 12/31, THIS BOX MAY BE COLLECTED AS EARLY AS 12 NOON.", "ref": "0496600004"}, "type": "Feature"}
{"geometry": {"coordinates": [-69.3839521, 44.78295], "type": "Point"}, "id": "q6WYKbKtkQxUqCAxUTJkdHeXw3s=", "properties": {"@spider": "usps_collection_boxes", "addr:city": "PITTSFIELD", "addr:country": "US", "addr:full": "131 CENTRAL ST", "addr:postcode": "04967", "addr:state": "ME", "brand": "USPS", "collection_times": "Mo-Fr 17:00; Sa 12:00", "name": "USPS COLLECTION BOX - BLUE BOX", "note": "ON 12/24 AND 12/31, THIS BOX MAY BE COLLECTED AS EARLY AS 12 NOON.", "ref": "0496700002"}, "type": "Feature"}
{"geometry": {"coordinates": [-69.3984696, 44.786513], "type": "Point"}, "id": "5qhkOIPTnBjRGDzm9F0u3etU6PM=", "properties": {"@spider": "usps_collection_boxes", "addr:city": "PITTSFIELD", "addr:country": "US", "addr:full": "101 SOMERSET PLZ", "addr:postcode": "04967", "addr:state": "ME", "brand": "USPS", "collection_times": "Mo-Sa 08:30", "name": "USPS COLLECTION BOX - BLUE BOX", "ref": "0496700007"}, "type": "Feature"}
{"geometry": {"coordinates": [-69.383894, 44.782812], "type": "Point"}, "id": "KnvufQDCyfzrT9WnWzWOPKXXIhQ=", "properties": {"@spider": "usps_collection_boxes", "addr:city": "PITTSFIELD", "addr:country": "US", "addr:full": "131 CENTRAL ST", "addr:postcode": "04967", "addr:state": "ME", "brand": "USPS", "collection_times": "Mo-Fr 17:00; Sa 12:00", "name": "USPS COLLECTION BOX - PO LOBBY", "note": "ON 12/24 AND 12/31, THIS BOX MAY BE COLLECTED AS EARLY AS 12 NOON.", "ref": "0496700011"}, "type": "Feature"}
{"geometry": {"coordinates": [-69.383895077, 44.782840917], "type": "Point"}, "id": "g2av0m7NaUnapurH7RjwRFNpCls=", "properties": {"@spider": "usps_collection_boxes", "addr:city": "PITTSFIELD", "addr:country": "US", "addr:full": "131 CENTRAL ST", "addr:postcode": "04967", "addr:state": "ME", "brand": "USPS", "collection_times": "Mo-Fr 16:45; Sa 12:00", "name": "USPS COLLECTION BOX - PO LOBBY", "note": "ON 12/24 AND 12/31, THIS BOX MAY BE COLLECTED AS EARLY AS 12 NOON.", "ref": "0496700013"}, "type": "Feature"}
{"geometry": {"coordinates": [-69.209921, 44.768331], "type": "Point"}, "id": "FI2kdvuE-uMkGA2l6_KaJpjXHxg=", "properties": {"@spider": "usps_collection_boxes", "addr:city": "PLYMOUTH", "addr:country": "US", "addr:full": "1947 MOOSEHEAD TRL", "addr:postcode": "04969", "addr:state": "ME", "brand": "USPS", "collection_times": "Mo-Fr 15:30; Sa 10:30", "name": "USPS COLLECTION BOX - BLUE BOX", "note": "ON 12/24 AND 12/31, THIS BOX MAY BE COLLECTED AS EARLY AS 12 NOON.", "ref": "0496900001"}, "type": "Feature"}
{"geometry": {"coordinates": [-69.209958, 44.768311], "type": "Point"}, "id": "W_-jItyUU0LuFPQb3zkLQH5huGY=", "properties": {"@spider": "usps_collection_boxes", "addr:city": "PLYMOUTH", "addr:country": "US", "addr:full": "1947 MOOSEHEAD TRL", "addr:postcode": "04969", "addr:state": "ME", "brand": "USPS", "collection_times": "Mo-Fr 15:45; Sa 10:45", "name": "USPS COLLECTION BOX - PO LOBBY", "note": "ON 12/24 AND 12/31, THIS BOX MAY BE COLLECTED AS EARLY AS 12 NOON.", "ref": "0496900002"}, "type": "Feature"}
{"geometry": {"coordinates": [-69.209935337, 44.768754115], "type": "Point"}, "id": "JbP3e64M68opq2tCj7rww-2mJlc=", "properties": {"@spider": "usps_collection_boxes", "addr:city": "PLYMOUTH", "addr:country": "US", "addr:full": "1947 MOOSEHEAD TRL", "addr:postcode": "04969", "addr:state": "ME", "brand": "USPS", "collection_times": "Mo-Fr 15:45; Sa 10:30", "name": "USPS COLLECTION BOX - PO LOBBY", "note": "ON 12/24 AND 12/31, THIS BOX MAY BE COLLECTED AS EARLY AS 12 NOON.", "ref": "0496900003"}, "type": "Feature"}
{"geometry": {"coordinates": [-70.643314, 44.965558], "type": "Point"}, "id": "2laLEBJqXNmqddxjsl_sobhfcHg=", "properties": {"@spider": "usps_collection_boxes", "addr:city": "RANGELEY", "addr:country": "US", "addr:full": "2517 MAIN ST", "addr:postcode": "04970", "addr:state": "ME", "brand": "USPS", "collection_times": "Mo-Fr 14:40; Sa 11:45", "name": "USPS COLLECTION BOX - BLUE BOX", "note": "ON 12/24 AND 12/31, THIS BOX MAY BE COLLECTED AS EARLY AS 12 NOON.", "ref": "0497000001"}, "type": "Feature"}
{"geometry": {"coordinates": [-70.643389, 44.965579], "type": "Point"}, "id": "TBKeewW1B18mR822AplcMGcNm9I=", "properties": {"@spider": "usps_collection_boxes", "addr:city": "RANGELEY", "addr:country": "US", "addr:full": "2517 MAIN ST", "addr:postcode": "04970", "addr:state": "ME", "brand": "USPS", "collection_times": "Mo-Fr 14:55; Sa 12:00", "name": "USPS COLLECTION BOX - PO LOBBY", "note": "ON 12/24 AND 12/31, THIS BOX MAY BE COLLECTED AS EARLY AS 12 NOON.", "ref": "0497000002"}, "type": "Feature"}
{"geometry": {"coordinates": [-70.643382995, 44.965611827], "type": "Point"}, "id": "xBarGx79voZnqjxDdcpzGcUKFl8=", "properties": {"@spider": "usps_collection_boxes", "addr:city": "RANGELEY", "addr:country": "US", "addr:full": "2517 MAIN ST", "addr:postcode": "04970", "addr:state": "ME", "brand": "USPS", "collection_times": "Mo-Fr 14:45; Sa 12:00", "name": "USPS COLLECTION BOX - PO LOBBY", "note": "ON 12/24 AND 12/31, THIS BOX MAY BE COLLECTED AS EARLY AS 12 NOON.", "ref": "0497000005"}, "type": "Feature"}
{"geometry": {"coordinates": [-69.411082, 44.911895], "type": "Point"}, "id": "BCScjgmwCNbWodM_SAdA3UCBBVc=", "properties": {"@spider": "usps_collection_boxes", "addr:city": "SAINT ALBANS", "addr:country": "US", "addr:full": "27 MAIN ST", "addr:postcode": "04971", "addr:state": "ME", "brand": "USPS", "collection_times": "Mo-Fr 14:00; Sa 10:15", "name": "USPS COLLECTION BOX - BLUE BOX", "note": "ON 12/24 AND 12/31, THIS BOX MAY BE COLLECTED AS EARLY AS 12 NOON.", "ref": "0497100001"}, "type": "Feature"}
{"geometry": {"coordinates": [-69.411082, 44.911895], "type": "Point"}, "id": "xlyMNv5WuGic3CiIDuUdDXyDMps=", "properties": {"@spider": "usps_collection_boxes", "addr:city": "SAINT ALBANS", "addr:country": "US", "addr:full": "27 MAIN ST", "addr:postcode": "04971", "addr:state": "ME", "brand": "USPS", "collection_times": "Mo-Fr 14:00; Sa 10:15", "name": "USPS COLLECTION BOX - PO LOBBY", "note": "ON 12/24 AND 12/31, THIS BOX MAY BE COLLECTED AS EARLY AS 12 NOON.", "ref": "0497100002"}, "type": "Feature"}
{"geometry": {"coordinates": [-69.41103121, 44.911332], "type": "Point"}, "id": "GdUvNV8iZeoMVwj1-w1H9NAAsVE=", "properties": {"@spider": "usps_collection_boxes", "addr:city": "SAINT ALBANS", "addr:country": "US", "addr:full": "27 MAIN ST", "addr:postcode": "04971", "addr:state": "ME", "brand": "USPS", "collection_times": "Mo-Fr 14:00; Sa 10:30", "name": "USPS COLLECTION BOX - PO LOBBY", "note": "ON 12/24 AND 12/31, THIS BOX MAY BE COLLECTED AS EARLY AS 12 NOON.", "ref": "0497100003"}, "type": "Feature"}
{"geometry": {"coordinates": [-69.589135, 44.621615], "type": "Point"}, "id": "YhpuKdqfBBsrI_ATKIkXS2ffV8w=", "properties": {"@spider": "usps_collection_boxes", "addr:city": "SHAWMUT", "addr:country": "US", "addr:full": "117 BRAY AVE", "addr:postcode": "04975", "addr:state": "ME", "brand": "USPS", "collection_times": "Mo-Fr 15:30; Sa 10:30", "name": "USPS COLLECTION BOX - BLUE BOX", "note": "ON 12/24 AND 12/31, THIS BOX MAY BE COLLECTED AS EARLY AS 12 NOON.", "ref": "0497500001"}, "type": "Feature"}
{"geometry": {"coordinates": [-69.589112, 44.621661], "type": "Point"}, "id": "mjE-hrmdha3QVe5UX3_dGKbwl7M=", "properties": {"@spider": "usps_collection_boxes", "addr:city": "SHAWMUT", "addr:country": "US", "addr:full": "117 BRAY AVE", "addr:postcode": "04975", "addr:state": "ME", "brand": "USPS", "collection_times": "Mo-Fr 15:30; Sa 10:30", "name": "USPS COLLECTION BOX - PO LOBBY", "note": "ON 12/24 AND 12/31, THIS BOX MAY BE COLLECTED AS EARLY AS 12 NOON.", "ref": "0497500002"}, "type": "Feature"}
{"geometry": {"coordinates": [-69.586570871, 44.627430835], "type": "Point"}, "id": "1NcC0WJxzeATwN8rqQGabDLts-g=", "properties": {"@spider": "usps_collection_boxes", "addr:city": "SHAWMUT", "addr:country": "US", "addr:full": "117 BRAY AVE", "addr:postcode": "04975", "addr:state": "ME", "brand": "USPS", "collection_times": "Mo-Fr 15:30; Sa 10:45", "name": "USPS COLLECTION BOX - PO LOBBY", "note": "ON 12/24 AND 12/31, THIS BOX MAY BE COLLECTED AS EARLY AS 12 NOON.", "ref": "0497500003"}, "type": "Feature"}
{"geometry": {"coordinates": [-69.716085, 44.766737], "type": "Point"}, "id": "-iaX_WfGR803iRhqkJkzc1A2fms=", "properties": {"@spider": "usps_collection_boxes", "addr:city": "SKOWHEGAN", "addr:country": "US", "addr:full": "242 WATER ST", "addr:postcode": "04976", "addr:state": "ME", "brand": "USPS", "collection_times": "Mo-Fr 17:00; Sa 15:45", "name": "USPS COLLECTION BOX - BLUE BOX", "note": "ON 12/24 AND 12/31, THIS BOX MAY BE COLLECTED AS EARLY AS 12 NOON.", "ref": "0497600001"}, "type": "Feature"}
{"geometry": {"coordinates": [-69.7240323, 44.776973], "type": "Point"}, "id": "MLb5MFDhtDEYK3iP-HrLrDnDdg0=", "properties": {"@spider": "usps_collection_boxes", "addr:city": "SKOWHEGAN", "addr:country": "US", "addr:full": "225 MADISON AVE", "addr:postcode": "04976", "addr:state": "ME", "brand": "USPS", "collection_times": "Mo-Fr 16:15; Sa 14:00", "name": "USPS COLLECTION BOX - BLUE BOX", "note": "ON 12/24 AND 12/31, THIS BOX MAY BE COLLECTED AS EARLY AS 12 NOON.", "ref": "0497600003"}, "type": "Feature"}
{"geometry": {"coordinates": [-69.7223373, 44.770545], "type": "Point"}, "id": "kG17yVwiq_Kai3dDdzyP73iwkws=", "properties": {"@spider": "usps_collection_boxes", "addr:city": "SKOWHEGAN", "addr:country": "US", "addr:full": "140 MADISON AVE", "addr:postcode": "04976", "addr:state": "ME", "brand": "USPS", "collection_times": "Mo-Fr 11:30; Sa 10:30", "name": "USPS COLLECTION BOX - BLUE BOX", "ref": "0497600006"}, "type": "Feature"}
{"geometry": {"coordinates": [-69.7172014, 44.770621], "type": "Point"}, "id": "HACFUyrLlFgvrNB4odC2vkWBBsc=", "properties": {"@spider": "usps_collection_boxes", "addr:city": "SKOWHEGAN", "addr:country": "US", "addr:full": "55 NORTH AVE", "addr:postcode": "04976", "addr:state": "ME", "brand": "USPS", "collection_times": "Mo-Fr 16:10; Sa 14:00", "name": "USPS COLLECTION BOX - BLUE BOX", "note": "ON 12/24 AND 12/31, THIS BOX MAY BE COLLECTED AS EARLY AS 12 NOON.", "ref": "0497600010"}, "type": "Feature"}
{"geometry": {"coordinates": [-69.7192274, 44.773463], "type": "Point"}, "id": "SXivscHdsYjz05qFTNvQ4a-qRZA=", "properties": {"@spider": "usps_collection_boxes", "addr:city": "SKOWHEGAN", "addr:country": "US", "addr:full": "98 NORTH AVE", "addr:postcode": "04976", "addr:state": "ME", "brand": "USPS", "collection_times": "Mo-Fr 16:10; Sa 14:00", "name": "USPS COLLECTION BOX - BLUE BOX", "note": "ON 12/24 AND 12/31, THIS BOX MAY BE COLLECTED AS EARLY AS 12 NOON.", "ref": "0497600012"}, "type": "Feature"}
{"geometry": {"coordinates": [-69.7238801914, 44.7748001143], "type": "Point"}, "id": "R4FG0trY4x1SSlN0dlV0Cv2VvQQ=", "properties": {"@spider": "usps_collection_boxes", "addr:city": "SKOWHEGAN", "addr:country": "US", "addr:full": "194 MADISON AVE", "addr:postcode": "04976", "addr:state": "ME", "brand": "USPS", "collection_times": "Mo-Fr 16:15; Sa 12:00", "name": "USPS COLLECTION BOX - BLUE BOX", "note": "ON 12/24 AND 12/31, THIS BOX MAY BE COLLECTED AS EARLY AS 12 NOON.", "ref": "0497600015"}, "type": "Feature"}
{"geometry": {"coordinates": [-69.7132626, 44.758641], "type": "Point"}, "id": "sLgjMUp-QGliYiTp7Yl6eLSEqW0=", "properties": {"@spider": "usps_collection_boxes", "addr:city": "SKOWHEGAN", "addr:country": "US", "addr:full": "46 FAIRVIEW AVE", "addr:postcode": "04976", "addr:state": "ME", "brand": "USPS", "collection_times": "Mo-Fr 16:20; Sa 13:00", "name": "USPS COLLECTION BOX - BLUE BOX", "note": "ON 12/24 AND 12/31, THIS BOX MAY BE COLLECTED AS EARLY AS 12 NOON.", "ref": "0497600018"}, "type": "Feature"}
{"geometry": {"coordinates": [-69.7185326, 44.769482], "type": "Point"}, "id": "A3TYbfso56EII83r2qEvZqHtrcY=", "properties": {"@spider": "usps_collection_boxes", "addr:city": "SKOWHEGAN", "addr:country": "US", "addr:full": "30 LEAVITT ST", "addr:postcode": "04976", "addr:state": "ME", "brand": "USPS", "collection_times": "Mo-Fr 16:10; Sa 14:00", "name": "USPS COLLECTION BOX - BLUE BOX", "note": "ON 12/24 AND 12/31, THIS BOX MAY BE COLLECTED AS EARLY AS 12 NOON.", "ref": "0497600019"}, "type": "Feature"}
{"geometry": {"coordinates": [-69.708282344, 44.7627757893], "type": "Point"}, "id": "7ioTEKuCsYPWDgxlKUfvAQWj7yU=", "properties": {"@spider": "usps_collection_boxes", "addr:city": "SKOWHEGAN", "addr:country": "US", "addr:full": "90 WATERVILLE RD", "addr:postcode": "04976", "addr:state": "ME", "brand": "USPS", "collection_times": "Mo-Fr 16:25; Sa 13:00", "name": "USPS COLLECTION BOX - BLUE BOX", "note": "ON 12/24 AND 12/31, THIS BOX MAY BE COLLECTED AS EARLY AS 12 NOON.", "ref": "0497600020"}, "type": "Feature"}
{"geometry": {"coordinates": [-69.7185439, 44.765889], "type": "Point"}, "id": "ZJCKBA13hHl8dQYtIlhjlTJdcD0=", "properties": {"@spider": "usps_collection_boxes", "addr:city": "SKOWHEGAN", "addr:country": "US", "addr:full": "23 COMMERCIAL ST", "addr:postcode": "04976", "addr:state": "ME", "brand": "USPS", "collection_times": "Mo-Fr 16:45; Sa 14:30", "name": "USPS COLLECTION BOX - BLUE BOX", "note": "ON 12/24 AND 12/31, THIS BOX MAY BE COLLECTED AS EARLY AS 12 NOON.", "ref": "0497600021"}, "type": "Feature"}
{"geometry": {"coordinates": [-69.7192277, 44.773456], "type": "Point"}, "id": "NvVspgtsBV1up9rt6eCaEsOyG9Q=", "properties": {"@spider": "usps_collection_boxes", "addr:city": "SKOWHEGAN", "addr:country": "US", "addr:full": "98 NORTH AVE", "addr:postcode": "04976", "addr:state": "ME", "brand": "USPS", "collection_times": "Mo-Fr 16:10; Sa 14:00", "name": "USPS COLLECTION BOX - BLUE BOX", "note": "ON 12/24 AND 12/31, THIS BOX MAY BE COLLECTED AS EARLY AS 12 NOON.", "ref": "0497600024"}, "type": "Feature"}
{"geometry": {"coordinates": [-69.7305706, 44.779936], "type": "Point"}, "id": "ni3z7jM0z_V6h3y7TralOT3Fa6s=", "properties": {"@spider": "usps_collection_boxes", "addr:city": "SKOWHEGAN", "addr:country": "US", "addr:full": "60 FAIRGROUNDS MKT PL", "addr:postcode": "04976", "addr:state": "ME", "brand": "USPS", "collection_times": "Mo-Fr 10:00; Sa 09:00", "name": "USPS COLLECTION BOX - BLUE BOX", "ref": "0497600026"}, "type": "Feature"}
{"geometry": {"coordinates": [-69.727448, 44.780591], "type": "Point"}, "id": "cR7sO34aCmYYyV6IotHECL1Bl44=", "properties": {"@spider": "usps_collection_boxes", "addr:city": "SKOWHEGAN", "addr:country": "US", "addr:full": "100 FAIRGROUNDS MKT PL", "addr:postcode": "04976", "addr:state": "ME", "brand": "USPS", "collection_times": "Mo-Fr 10:00; Sa 09:00", "name": "USPS COLLECTION BOX - BLUE BOX", "ref": "0497600027"}, "type": "Feature"}
{"geometry": {"coordinates": [-69.7191071, 44.775199], "type": "Point"}, "id": "K3yvotA2PSvoXBX_6T95wr_kSYA=", "properties": {"@spider": "usps_collection_boxes", "addr:city": "SKOWHEGAN", "addr:country": "US", "addr:full": "121 NORTH AVE", "addr:postcode": "04976", "addr:state": "ME", "brand": "USPS", "collection_times": "Mo-Fr 16:10; Sa 14:00", "name": "USPS COLLECTION BOX - BLUE BOX", "note": "ON 12/24 AND 12/31, THIS BOX MAY BE COLLECTED AS EARLY AS 12 NOON.", "ref": "0497600028"}, "type": "Feature"}
{"geometry": {"coordinates": [-69.715973, 44.766772], "type": "Point"}, "id": "WePTQ7ItLhyDUCgIoQtYtnEo4-c=", "properties": {"@spider": "usps_collection_boxes", "addr:city": "SKOWHEGAN", "addr:country": "US", "addr:full": "242 WATER ST", "addr:postcode": "04976", "addr:state": "ME", "brand": "USPS", "collection_times": "Mo-Fr 17:00; Sa 15:45", "name": "USPS COLLECTION BOX - PO LOBBY", "note": "ON 12/24 AND 12/31, THIS BOX MAY BE COLLECTED AS EARLY AS 12 NOON.", "ref": "0497600029"}, "type": "Feature"}
{"geometry": {"coordinates": [-69.715973, 44.766772], "type": "Point"}, "id": "nrccM6vn04sEBATbtjlbUOeTDYE=", "properties": {"@spider": "usps_collection_boxes", "addr:city": "SKOWHEGAN", "addr:country": "US", "addr:full": "242 WATER ST", "addr:postcode": "04976", "addr:state": "ME", "brand": "USPS", "collection_times": "Mo-Fr 17:00; Sa 15:45", "name": "USPS COLLECTION BOX - PO LOBBY", "note": "ON 12/24 AND 12/31, THIS BOX MAY BE COLLECTED AS EARLY AS 12 NOON.", "ref": "0497600030"}, "type": "Feature"}
{"geometry": {"coordinates": [-69.715973, 44.766772], "type": "Point"}, "id": "9g1Lz2aNQNqUFlvKAa4vd4o3iyc=", "properties": {"@spider": "usps_collection_boxes", "addr:city": "SKOWHEGAN", "addr:country": "US", "addr:full": "242 WATER ST", "addr:postcode": "04976", "addr:state": "ME", "brand": "USPS", "collection_times": "Mo-Fr 17:00; Sa 15:45", "name": "USPS COLLECTION BOX - PO LOBBY", "note": "ON 12/24 AND 12/31, THIS BOX MAY BE COLLECTED AS EARLY AS 12 NOON.", "ref": "0497600031"}, "type": "Feature"}
{"geometry": {"coordinates": [-69.716016623, 44.766782015], "type": "Point"}, "id": "MjP3mMHSLDNhfN9NrCGBJY_QSVA=", "properties": {"@spider": "usps_collection_boxes", "addr:city": "SKOWHEGAN", "addr:country": "US", "addr:full": "242 WATER ST", "addr:postcode": "04976", "addr:state": "ME", "brand": "USPS", "collection_times": "Mo-Fr 17:00; Sa 12:00", "name": "USPS COLLECTION BOX - PO LOBBY", "note": "ON 12/24 AND 12/31, THIS BOX MAY BE COLLECTED AS EARLY AS 12 NOON.", "ref": "0497600032"}, "type": "Feature"}
{"geometry": {"coordinates": [-69.8271718, 44.632023], "type": "Point"}, "id": "8ZIHVhXEJqfLJRLsNnpTwDK21tg=", "properties": {"@spider": "usps_collection_boxes", "addr:city": "SMITHFIELD", "addr:country": "US", "addr:full": "860 VILLAGE RD", "addr:postcode": "04978", "addr:state": "ME", "brand": "USPS", "collection_times": "Mo-Fr 15:35; Sa 11:45", "name": "USPS COLLECTION BOX - BLUE BOX", "note": "ON 12/24 AND 12/31, THIS BOX MAY BE COLLECTED AS EARLY AS 12 NOON.", "ref": "0497800001"}, "type": "Feature"}
{"geometry": {"coordinates": [-69.8273076, 44.632059], "type": "Point"}, "id": "cO5KPbggV5RlATlPa7j2HSRiTHs=", "properties": {"@spider": "usps_collection_boxes", "addr:city": "SMITHFIELD", "addr:country": "US", "addr:full": "860 VILLAGE RD", "addr:postcode": "04978", "addr:state": "ME", "brand": "USPS", "collection_times": "Mo-Fr 15:35; Sa 11:45", "name": "USPS COLLECTION BOX - PO LOBBY", "note": "ON 12/24 AND 12/31, THIS BOX MAY BE COLLECTED AS EARLY AS 12 NOON.", "ref": "0497800002"}, "type": "Feature"}
{"geometry": {"coordinates": [-69.827040806, 44.632093641], "type": "Point"}, "id": "Wd9AP-T0xhWVkhPO37l4c3ybgM8=", "properties": {"@spider": "usps_collection_boxes", "addr:city": "SMITHFIELD", "addr:country": "US", "addr:full": "860 VILLAGE RD", "addr:postcode": "04978", "addr:state": "ME", "brand": "USPS", "collection_times": "Mo-Fr 15:30; Sa 11:30", "name": "USPS COLLECTION BOX - PO LOBBY", "note": "ON 12/24 AND 12/31, THIS BOX MAY BE COLLECTED AS EARLY AS 12 NOON.", "ref": "0497800003"}, "type": "Feature"}
{"geometry": {"coordinates": [-69.860404, 44.949434], "type": "Point"}, "id": "FowhWWCwf8tmE2d5JLyqol0bKRM=", "properties": {"@spider": "usps_collection_boxes", "addr:city": "SOLON", "addr:country": "US", "addr:full": "8 FERRY ST", "addr:postcode": "04979", "addr:state": "ME", "brand": "USPS", "collection_times": "Mo-Fr 14:00; Sa 10:30", "name": "USPS COLLECTION BOX - BLUE BOX", "note": "ON 12/24 AND 12/31, THIS BOX MAY BE COLLECTED AS EARLY AS 12 NOON.", "ref": "0497900001"}, "type": "Feature"}
{"geometry": {"coordinates": [-69.860348, 44.949494], "type": "Point"}, "id": "qHY5CWnINuf0Lf9JrLoMogMlNZ0=", "properties": {"@spider": "usps_collection_boxes", "addr:city": "SOLON", "addr:country": "US", "addr:full": "8 FERRY ST", "addr:postcode": "04979", "addr:state": "ME", "brand": "USPS", "collection_times": "Mo-Fr 14:00; Sa 10:30", "name": "USPS COLLECTION BOX - PO LOBBY", "note": "ON 12/24 AND 12/31, THIS BOX MAY BE COLLECTED AS EARLY AS 12 NOON.", "ref": "0497900003"}, "type": "Feature"}
{"geometry": {"coordinates": [-69.860350693, 44.949458034], "type": "Point"}, "id": "PXNJopEKg8ap4o3Qt9B0hewSuWA=", "properties": {"@spider": "usps_collection_boxes", "addr:city": "SOLON", "addr:country": "US", "addr:full": "8 FERRY ST", "addr:postcode": "04979", "addr:state": "ME", "brand": "USPS", "collection_times": "Mo-Fr 14:00; Sa 10:45", "name": "USPS COLLECTION BOX - PO LOBBY", "note": "ON 12/24 AND 12/31, THIS BOX MAY BE COLLECTED AS EARLY AS 12 NOON.", "ref": "0497900004"}, "type": "Feature"}
{"geometry": {"coordinates": [-70.437884, 45.140236], "type": "Point"}, "id": "gj3pnvgj1T9BTnVTn2nNje45omQ=", "properties": {"@spider": "usps_collection_boxes", "addr:city": "STRATTON", "addr:country": "US", "addr:full": "95 MAIN ST", "addr:postcode": "04982", "addr:state": "ME", "brand": "USPS", "collection_times": "Mo-Fr 15:00; Sa 11:30", "name": "USPS COLLECTION BOX - BLUE BOX", "note": "ON 12/24 AND 12/31, THIS BOX MAY BE COLLECTED AS EARLY AS 12 NOON.", "ref": "0498200001"}, "type": "Feature"}
{"geometry": {"coordinates": [-70.437884, 45.140236], "type": "Point"}, "id": "F2E1171RmK3aQawUhMX43dKGuRo=", "properties": {"@spider": "usps_collection_boxes", "addr:city": "STRATTON", "addr:country": "US", "addr:full": "95 MAIN ST", "addr:postcode": "04982", "addr:state": "ME", "brand": "USPS", "collection_times": "Mo-Fr 15:15; Sa 11:30", "name": "USPS COLLECTION BOX - PO LOBBY", "note": "ON 12/24 AND 12/31, THIS BOX MAY BE COLLECTED AS EARLY AS 12 NOON.", "ref": "0498200002"}, "type": "Feature"}
{"geometry": {"coordinates": [-70.437939522, 45.140264391], "type": "Point"}, "id": "wZcl9J0v09Kz6uf53-3Mz_jojTs=", "properties": {"@spider": "usps_collection_boxes", "addr:city": "STRATTON", "addr:country": "US", "addr:full": "95 MAIN ST", "addr:postcode": "04982", "addr:state": "ME", "brand": "USPS", "collection_times": "Mo-Fr 15:15; Sa 11:00", "name": "USPS COLLECTION BOX - PO LOBBY", "note": "ON 12/24 AND 12/31, THIS BOX MAY BE COLLECTED AS EARLY AS 12 NOON.", "ref": "0498200003"}, "type": "Feature"}
{"geometry": {"coordinates": [-70.218155, 44.81658], "type": "Point"}, "id": "p2wWBnUBJXFtQqAXk30ukTy496A=", "properties": {"@spider": "usps_collection_boxes", "addr:city": "STRONG", "addr:country": "US", "addr:full": "136 N MAIN ST", "addr:postcode": "04983", "addr:state": "ME", "brand": "USPS", "collection_times": "Mo-Fr 14:30; Sa 11:30", "name": "USPS COLLECTION BOX - BLUE BOX", "note": "ON 12/24 AND 12/31, THIS BOX MAY BE COLLECTED AS EARLY AS 12 NOON.", "ref": "0498300001"}, "type": "Feature"}
{"geometry": {"coordinates": [-70.218108, 44.816668], "type": "Point"}, "id": "0fo3aNkCgv_Oilpd6PCSlsGkLX4=", "properties": {"@spider": "usps_collection_boxes", "addr:city": "STRONG", "addr:country": "US", "addr:full": "136 N MAIN ST", "addr:postcode": "04983", "addr:state": "ME", "brand": "USPS", "collection_times": "Mo-Fr 14:30; Sa 11:30", "name": "USPS COLLECTION BOX - PO LOBBY", "note": "ON 12/24 AND 12/31, THIS BOX MAY BE COLLECTED AS EARLY AS 12 NOON.", "ref": "0498300002"}, "type": "Feature"}
{"geometry": {"coordinates": [-70.218171375, 44.816492797], "type": "Point"}, "id": "GpuY3ygom6ki7TAgbqPTftDh90I=", "properties": {"@spider": "usps_collection_boxes", "addr:city": "STRONG", "addr:country": "US", "addr:full": "136 N MAIN ST", "addr:postcode": "04983", "addr:state": "ME", "brand": "USPS", "collection_times": "Mo-Fr 14:30; Sa 11:30", "name": "USPS COLLECTION BOX - PO LOBBY", "note": "ON 12/24 AND 12/31, THIS BOX MAY BE COLLECTED AS EARLY AS 12 NOON.", "ref": "0498300003"}, "type": "Feature"}
{"geometry": {"coordinates": [-69.270521, 44.661344], "type": "Point"}, "id": "9nJY8Amox7nlPQwTjmoFGl7YXz4=", "properties": {"@spider": "usps_collection_boxes", "addr:city": "TROY", "addr:country": "US", "addr:full": "846 BANGOR RD", "addr:postcode": "04987", "addr:state": "ME", "brand": "USPS", "collection_times": "Mo-Fr 15:30; Sa 11:30", "name": "USPS COLLECTION BOX - BLUE BOX", "note": "ON 12/24 AND 12/31, THIS BOX MAY BE COLLECTED AS EARLY AS 12 NOON.", "ref": "0498700001"}, "type": "Feature"}
{"geometry": {"coordinates": [-69.270499, 44.661374], "type": "Point"}, "id": "DkP1mbXw54BDLWyV6UkQIAzCDWk=", "properties": {"@spider": "usps_collection_boxes", "addr:city": "TROY", "addr:country": "US", "addr:full": "846 BANGOR RD", "addr:postcode": "04987", "addr:state": "ME", "brand": "USPS", "collection_times": "Mo-Fr 15:30; Sa 11:30", "name": "USPS COLLECTION BOX - PO LOBBY", "note": "ON 12/24 AND 12/31, THIS BOX MAY BE COLLECTED AS EARLY AS 12 NOON.", "ref": "0498700002"}, "type": "Feature"}
{"geometry": {"coordinates": [-69.271498855, 44.661225616], "type": "Point"}, "id": "RevUm3ErcMnY38YiOZwjQGWpbL4=", "properties": {"@spider": "usps_collection_boxes", "addr:city": "TROY", "addr:country": "US", "addr:full": "846 BANGOR RD", "addr:postcode": "04987", "addr:state": "ME", "brand": "USPS", "collection_times": "Mo-Fr 15:30; Sa 11:45", "name": "USPS COLLECTION BOX - PO LOBBY", "note": "ON 12/24 AND 12/31, THIS BOX MAY BE COLLECTED AS EARLY AS 12 NOON.", "ref": "0498700003"}, "type": "Feature"}
{"geometry": {"coordinates": [-69.330888, 44.613908], "type": "Point"}, "id": "FtgxYVtEq_0Zr7N1hTAqKYUjHe8=", "properties": {"@spider": "usps_collection_boxes", "addr:city": "UNITY", "addr:country": "US", "addr:full": "4 CLIFFORD COMMONS 1", "addr:postcode": "04988", "addr:state": "ME", "brand": "USPS", "collection_times": "Mo-Fr 15:45; Sa 11:30", "name": "USPS COLLECTION BOX - BLUE BOX", "note": "ON 12/24 AND 12/31, THIS BOX MAY BE COLLECTED AS EARLY AS 12 NOON.", "ref": "0498800002"}, "type": "Feature"}
{"geometry": {"coordinates": [-69.330888, 44.613908], "type": "Point"}, "id": "h1jMX52BKf9bpKslx4yh_kvgM8g=", "properties": {"@spider": "usps_collection_boxes", "addr:city": "UNITY", "addr:country": "US", "addr:full": "4 CLIFFORD COMMONS 1", "addr:postcode": "04988", "addr:state": "ME", "brand": "USPS", "collection_times": "Mo-Fr 15:45; Sa 11:30", "name": "USPS COLLECTION BOX - PO LOBBY", "note": "ON 12/24 AND 12/31, THIS BOX MAY BE COLLECTED AS EARLY AS 12 NOON.", "ref": "0498800003"}, "type": "Feature"}
{"geometry": {"coordinates": [-69.330888, 44.613908], "type": "Point"}, "id": "PFcE3U3DLQVPIHyyYd271ylKV0c=", "properties": {"@spider": "usps_collection_boxes", "addr:city": "UNITY", "addr:country": "US", "addr:full": "4 CLIFFORD COMMONS 1", "addr:postcode": "04988", "addr:state": "ME", "brand": "USPS", "collection_times": "Mo-Fr 15:45; Sa 11:30", "name": "USPS COLLECTION BOX - PO LOBBY", "note": "ON 12/24 AND 12/31, THIS BOX MAY BE COLLECTED AS EARLY AS 12 NOON.", "ref": "0498800004"}, "type": "Feature"}
{"geometry": {"coordinates": [-69.330934683, 44.613971077], "type": "Point"}, "id": "hdb7DzpWqm260LpobVXG1QVL-z8=", "properties": {"@spider": "usps_collection_boxes", "addr:city": "UNITY", "addr:country": "US", "addr:full": "4 CLIFFORD COMMONS 1", "addr:postcode": "04988", "addr:state": "ME", "brand": "USPS", "collection_times": "Mo-Fr 16:00; Sa 11:30", "name": "USPS COLLECTION BOX - PO LOBBY", "note": "ON 12/24 AND 12/31, THIS BOX MAY BE COLLECTED AS EARLY AS 12 NOON.", "ref": "0498800005"}, "type": "Feature"}
{"geometry": {"coordinates": [-69.678621, 44.458965], "type": "Point"}, "id": "MFLxeZ6TAkXc29L6o-8eSj2VqR0=", "properties": {"@spider": "usps_collection_boxes", "addr:city": "VASSALBORO", "addr:country": "US", "addr:full": "25 ALPINE ST", "addr:postcode": "04989", "addr:state": "ME", "brand": "USPS", "collection_times": "Mo-Fr 16:00; Sa 12:00", "name": "USPS COLLECTION BOX - BLUE BOX", "note": "ON 12/24 AND 12/31, THIS BOX MAY BE COLLECTED AS EARLY AS 12 NOON.", "ref": "0498900001"}, "type": "Feature"}
{"geometry": {"coordinates": [-69.678559, 44.458935], "type": "Point"}, "id": "xh4Rks5JXWgABhvtultHqqmWUuA=", "properties": {"@spider": "usps_collection_boxes", "addr:city": "VASSALBORO", "addr:country": "US", "addr:full": "25 ALPINE ST", "addr:postcode": "04989", "addr:state": "ME", "brand": "USPS", "collection_times": "Mo-Fr 16:00; Sa 12:00", "name": "USPS COLLECTION BOX - PO LOBBY", "note": "ON 12/24 AND 12/31, THIS BOX MAY BE COLLECTED AS EARLY AS 12 NOON.", "ref": "0498900003"}, "type": "Feature"}
{"geometry": {"coordinates": [-69.678572673, 44.458894624], "type": "Point"}, "id": "uMstPOttNaY8V6NrytDd3CfUVSc=", "properties": {"@spider": "usps_collection_boxes", "addr:city": "VASSALBORO", "addr:country": "US", "addr:full": "25 ALPINE ST", "addr:postcode": "04989", "addr:state": "ME", "brand": "USPS", "collection_times": "Mo-Fr 16:00; Sa 12:00", "name": "USPS COLLECTION BOX - PO LOBBY", "note": "ON 12/24 AND 12/31, THIS BOX MAY BE COLLECTED AS EARLY AS 12 NOON.", "ref": "0498900004"}, "type": "Feature"}
{"geometry": {"coordinates": [-70.153919, 44.662487], "type": "Point"}, "id": "2JeApEYa44t2XTmic1wd82NI0J0=", "properties": {"@spider": "usps_collection_boxes", "addr:city": "WEST FARMINGTON", "addr:country": "US", "addr:full": "126 BRIDGE ST", "addr:postcode": "04992", "addr:state": "ME", "brand": "USPS", "collection_times": "Mo-Fr 16:00; Sa 11:00", "name": "USPS COLLECTION BOX - BLUE BOX", "note": "ON 12/24 AND 12/31, THIS BOX MAY BE COLLECTED AS EARLY AS 12 NOON.", "ref": "0499200001"}, "type": "Feature"}
{"geometry": {"coordinates": [-70.153809, 44.662507], "type": "Point"}, "id": "HzWVrqAJe7LPAhNWeszVa_0X-Q8=", "properties": {"@spider": "usps_collection_boxes", "addr:city": "WEST FARMINGTON", "addr:country": "US", "addr:full": "126 BRIDGE ST", "addr:postcode": "04992", "addr:state": "ME", "brand": "USPS", "collection_times": "Mo-Fr 16:00; Sa 11:00", "name": "USPS COLLECTION BOX - PO LOBBY", "note": "ON 12/24 AND 12/31, THIS BOX MAY BE COLLECTED AS EARLY AS 12 NOON.", "ref": "0499200002"}, "type": "Feature"}
{"geometry": {"coordinates": [-70.153809, 44.662507], "type": "Point"}, "id": "6b77oCHexfDSypkDlA-XfCzjDz4=", "properties": {"@spider": "usps_collection_boxes", "addr:city": "WEST FARMINGTON", "addr:country": "US", "addr:full": "126 BRIDGE ST", "addr:postcode": "04992", "addr:state": "ME", "brand": "USPS", "collection_times": "Mo-Fr 16:00; Sa 11:00", "name": "USPS COLLECTION BOX - PO LOBBY", "note": "ON 12/24 AND 12/31, THIS BOX MAY BE COLLECTED AS EARLY AS 12 NOON.", "ref": "0499200003"}, "type": "Feature"}
{"geometry": {"coordinates": [-70.15459456, 44.662511558], "type": "Point"}, "id": "Z3SyaHwbdi-OMQcpzudbgn654cg=", "properties": {"@spider": "usps_collection_boxes", "addr:city": "WEST FARMINGTON", "addr:country": "US", "addr:full": "126 BRIDGE ST", "addr:postcode": "04992", "addr:state": "ME", "brand": "USPS", "collection_times": "Mo-Fr 16:00; Sa 11:00", "name": "USPS COLLECTION BOX - PO LOBBY", "note": "ON 12/24 AND 12/31, THIS BOX MAY BE COLLECTED AS EARLY AS 12 NOON.", "ref": "0499200004"}, "type": "Feature"}
