{"dataset_attributes": {"@spider": "usps_collection_boxes", "spider:collection_time": "2023-10-04T08:25:43.293951"}, "geometry": {"coordinates": [-72.3325914, 43.645357], "type": "Point"}, "id": "Sgk61kZKpSZCWjdq-NGtQePqqnc=", "properties": {"@spider": "usps_collection_boxes", "addr:city": "WHITE RIV JCT", "addr:country": "US", "addr:full": "195 SYKES MOUNTAIN AVE", "addr:postcode": "05001", "addr:state": "VT", "amenity": "post_box", "brand": "United States Postal Service", "brand:wikidata": "Q668687", "collection_times": "Mo-Sa 20:00", "name": "USPS COLLECTION BOX - BLUE BOX", "note": "ON 12/24 AND 12/31, THIS BOX MAY BE COLLECTED AS EARLY AS 12 NOON.", "nsi_id": "unitedstatespostalservice-a77078", "operator": "United States Postal Service", "operator:short": "USPS", "operator:type": "public", "operator:wikidata": "Q668687", "ref": "0500100000"}, "type": "Feature"}
{"dataset_attributes": {"@spider": "usps_collection_boxes", "spider:collection_time": "2023-10-04T08:25:43.293951"}, "geometry": {"coordinates": [-72.3149199, 43.652822], "type": "Point"}, "id": "Fro3Ddrws0i8AcaHbuYsLHuRdt8=", "properties": {"@spider": "usps_collection_boxes", "addr:city": "WHITE RIV JCT", "addr:country": "US", "addr:full": "118 PROSPECT ST", "addr:postcode": "05001", "addr:state": "VT", "amenity": "post_box", "brand": "United States Postal Service", "brand:wikidata": "Q668687", "collection_times": "Mo-Fr 16:30", "name": "USPS COLLECTION BOX - BLUE BOX", "note": "ON 12/24 AND 12/31, THIS BOX MAY BE COLLECTED AS EARLY AS 12 NOON.", "nsi_id": "unitedstatespostalservice-a77078", "operator": "United States Postal Service", "operator:short": "USPS", "operator:type": "public", "operator:wikidata": "Q668687", "ref": "0500100001"}, "type": "Feature"}
{"dataset_attributes": {"@spider": "usps_collection_boxes", "spider:collection_time": "2023-10-04T08:25:43.293951"}, "geometry": {"coordinates": [-72.3208963, 43.649421], "type": "Point"}, "id": "bodi_TnZO79WGHZuBB-lRBrOCt4=", "properties": {"@spider": "usps_collection_boxes", "addr:city": "WHITE RIV JCT", "addr:country": "US", "addr:full": "128 N MAIN ST", "addr:postcode": "05001", "addr:state": "VT", "amenity": "post_box", "brand": "United States Postal Service", "brand:wikidata": "Q668687", "collection_times": "Mo-Fr 16:30; Sa 14:00", "name": "USPS COLLECTION BOX - BLUE BOX", "note": "ON 12/24 AND 12/31, THIS BOX MAY BE COLLECTED AS EARLY AS 12 NOON.", "nsi_id": "unitedstatespostalservice-a77078", "operator": "United States Postal Service", "operator:short": "USPS", "operator:type": "public", "operator:wikidata": "Q668687", "ref": "0500100003"}, "type": "Feature"}
{"dataset_attributes": {"@spider": "usps_collection_boxes", "spider:collection_time": "2023-10-04T08:25:43.293951"}, "geometry": {"coordinates": [-72.3178495, 43.651093], "type": "Point"}, "id": "Vl2cch7QcqPe41Ri7y05hD1tu9k=", "properties": {"@spider": "usps_collection_boxes", "addr:city": "WHITE RIV JCT", "addr:country": "US", "addr:full": "171 BRIDGE ST", "addr:postcode": "05001", "addr:state": "VT", "amenity": "post_box", "brand": "United States Postal Service", "brand:wikidata": "Q668687", "collection_times": "Mo-Fr 17:00", "name": "USPS COLLECTION BOX - BLUE BOX", "note": "ON 12/24 AND 12/31, THIS BOX MAY BE COLLECTED AS EARLY AS 12 NOON.", "nsi_id": "unitedstatespostalservice-a77078", "operator": "United States Postal Service", "operator:short": "USPS", "operator:type": "public", "operator:wikidata": "Q668687", "ref": "0500100005"}, "type": "Feature"}
{"dataset_attributes": {"@spider": "usps_collection_boxes", "spider:collection_time": "2023-10-04T08:25:43.293951"}, "geometry": {"coordinates": [-72.3185504, 43.65223], "type": "Point"}, "id": "hV2npE2XXUFejyTR9cpyj-PQtoc=", "properties": {"@spider": "usps_collection_boxes", "addr:city": "WHITE RIV JCT", "addr:country": "US", "addr:full": "209 MAPLE ST", "addr:postcode": "05001", "addr:state": "VT", "amenity": "post_box", "brand": "United States Postal Service", "brand:wikidata": "Q668687", "collection_times": "Mo-Fr 17:00; Sa 14:00", "name": "USPS COLLECTION BOX - BLUE BOX", "note": "ON 12/24 AND 12/31, THIS BOX MAY BE COLLECTED AS EARLY AS 12 NOON.", "nsi_id": "unitedstatespostalservice-a77078", "operator": "United States Postal Service", "operator:short": "USPS", "operator:type": "public", "operator:wikidata": "Q668687", "ref": "0500100006"}, "type": "Feature"}
{"dataset_attributes": {"@spider": "usps_collection_boxes", "spider:collection_time": "2023-10-04T08:25:43.293951"}, "geometry": {"coordinates": [-72.3187307, 43.648179], "type": "Point"}, "id": "vFDiqCCwzlrpXZo0HDzskAoIzFM=", "properties": {"@spider": "usps_collection_boxes", "addr:city": "WHITE RIV JCT", "addr:country": "US", "addr:full": "27 S MAIN ST", "addr:postcode": "05001", "addr:state": "VT", "amenity": "post_box", "brand": "United States Postal Service", "brand:wikidata": "Q668687", "collection_times": "Mo-Fr 17:00; Sa 14:00", "name": "USPS COLLECTION BOX - BLUE BOX", "note": "ON 12/24 AND 12/31, THIS BOX MAY BE COLLECTED AS EARLY AS 12 NOON.", "nsi_id": "unitedstatespostalservice-a77078", "operator": "United States Postal Service", "operator:short": "USPS", "operator:type": "public", "operator:wikidata": "Q668687", "ref": "0500100021"}, "type": "Feature"}
{"dataset_attributes": {"@spider": "usps_collection_boxes", "spider:collection_time": "2023-10-04T08:25:43.293951"}, "geometry": {"coordinates": [-72.3322976, 43.645332], "type": "Point"}, "id": "g4BaFGi9ZHHpiSF3uD-Bn_PDCog=", "properties": {"@spider": "usps_collection_boxes", "addr:city": "WHITE RIV JCT", "addr:country": "US", "addr:full": "195 SYKES MOUNTAIN AVE", "addr:postcode": "05001", "addr:state": "VT", "amenity": "post_box", "brand": "United States Postal Service", "brand:wikidata": "Q668687", "collection_times": "Mo-Sa 20:00", "name": "USPS COLLECTION BOX - BLUE BOX", "note": "ON 12/24 AND 12/31, THIS BOX MAY BE COLLECTED AS EARLY AS 12 NOON.", "nsi_id": "unitedstatespostalservice-a77078", "operator": "United States Postal Service", "operator:short": "USPS", "operator:type": "public", "operator:wikidata": "Q668687", "ref": "0500100023"}, "type": "Feature"}
{"dataset_attributes": {"@spider": "usps_collection_boxes", "spider:collection_time": "2023-10-04T08:25:43.293951"}, "geometry": {"coordinates": [-72.3237219, 43.693896], "type": "Point"}, "id": "5_7ll03oy4sHoxXGEXaKbhVpons=", "properties": {"@spider": "usps_collection_boxes", "addr:city": "WHITE RIV JCT", "addr:country": "US", "addr:full": "16 HEMLOCK RIDGE DR", "addr:postcode": "05001", "addr:state": "VT", "amenity": "post_box", "brand": "United States Postal Service", "brand:wikidata": "Q668687", "collection_times": "Mo-Sa 09:30", "name": "USPS COLLECTION BOX - BLUE BOX", "nsi_id": "unitedstatespostalservice-a77078", "operator": "United States Postal Service", "operator:short": "USPS", "operator:type": "public", "operator:wikidata": "Q668687", "ref": "0500100025"}, "type": "Feature"}
{"dataset_attributes": {"@spider": "usps_collection_boxes", "spider:collection_time": "2023-10-04T08:25:43.293951"}, "geometry": {"coordinates": [-72.332864793, 43.645658001], "type": "Point"}, "id": "GNrm08wxG0uNe-1FeUGcNR8rUcY=", "properties": {"@spider": "usps_collection_boxes", "addr:city": "WHITE RIV JCT", "addr:country": "US", "addr:full": "195 SYKES MOUNTAIN AVE", "addr:postcode": "05001", "addr:state": "VT", "amenity": "post_box", "brand": "United States Postal Service", "brand:wikidata": "Q668687", "collection_times": "Mo-Fr 17:30; Sa 12:00", "name": "USPS COLLECTION BOX - PO LOBBY", "note": "ON 12/24 AND 12/31, THIS BOX MAY BE COLLECTED AS EARLY AS 12 NOON.", "nsi_id": "unitedstatespostalservice-a77078", "operator": "United States Postal Service", "operator:short": "USPS", "operator:type": "public", "operator:wikidata": "Q668687", "ref": "0500100026"}, "type": "Feature"}
{"dataset_attributes": {"@spider": "usps_collection_boxes", "spider:collection_time": "2023-10-04T08:25:43.293951"}, "geometry": {"coordinates": [-72.334160599, 43.642720017], "type": "Point"}, "id": "CB3Fpk3ICwMkaQiqgBTa3qssIas=", "properties": {"@spider": "usps_collection_boxes", "addr:city": "WHITE RIV JCT", "addr:country": "US", "addr:full": "212 HOLIDAY DR", "addr:postcode": "05001", "addr:state": "VT", "amenity": "post_box", "brand": "United States Postal Service", "brand:wikidata": "Q668687", "collection_times": "Mo-Fr 16:30", "name": "USPS COLLECTION BOX - BLUE BOX", "note": "ON 12/24 AND 12/31, THIS BOX MAY BE COLLECTED AS EARLY AS 12 NOON.", "nsi_id": "unitedstatespostalservice-a77078", "operator": "United States Postal Service", "operator:short": "USPS", "operator:type": "public", "operator:wikidata": "Q668687", "ref": "0500100027"}, "type": "Feature"}
{"dataset_attributes": {"@spider": "usps_collection_boxes", "spider:collection_time": "2023-10-04T08:25:43.293951"}, "geometry": {"coordinates": [-72.407497, 43.406842], "type": "Point"}, "id": "U5qdwQFOwyN_SuMdSmtfq5w_96Y=", "properties": {"@spider": "usps_collection_boxes", "addr:city": "ASCUTNEY", "addr:country": "US", "addr:full": "5159 ROUTE 5", "addr:postcode": "05030", "addr:state": "VT", "amenity": "post_box", "brand": "United States Postal Service", "brand:wikidata": "Q668687", "collection_times": "Mo-Fr 16:30; Sa 11:00", "name": "USPS COLLECTION BOX - BLUE BOX", "note": "ON 12/24 AND 12/31, THIS BOX MAY BE COLLECTED AS EARLY AS 12 NOON.", "nsi_id": "unitedstatespostalservice-a77078", "operator": "United States Postal Service", "operator:short": "USPS", "operator:type": "public", "operator:wikidata": "Q668687", "ref": "0503000000"}, "type": "Feature"}
{"dataset_attributes": {"@spider": "usps_collection_boxes", "spider:collection_time": "2023-10-04T08:25:43.293951"}, "geometry": {"coordinates": [-72.407537, 43.406883], "type": "Point"}, "id": "VPW6oXjXNwODO-yAZWCI_DUchok=", "properties": {"@spider": "usps_collection_boxes", "addr:city": "ASCUTNEY", "addr:country": "US", "addr:full": "5159 ROUTE 5", "addr:postcode": "05030", "addr:state": "VT", "amenity": "post_box", "brand": "United States Postal Service", "brand:wikidata": "Q668687", "collection_times": "Mo-Fr 16:30; Sa 11:00", "name": "USPS COLLECTION BOX - PO LOBBY", "note": "ON 12/24 AND 12/31, THIS BOX MAY BE COLLECTED AS EARLY AS 12 NOON.", "nsi_id": "unitedstatespostalservice-a77078", "operator": "United States Postal Service", "operator:short": "USPS", "operator:type": "public", "operator:wikidata": "Q668687", "ref": "0503000001"}, "type": "Feature"}
{"dataset_attributes": {"@spider": "usps_collection_boxes", "spider:collection_time": "2023-10-04T08:25:43.293951"}, "geometry": {"coordinates": [-72.407507348, 43.406805866], "type": "Point"}, "id": "wNnWsBcGvzjOzhMz2FZpQPSBTsM=", "properties": {"@spider": "usps_collection_boxes", "addr:city": "ASCUTNEY", "addr:country": "US", "addr:full": "5159 ROUTE 5", "addr:postcode": "05030", "addr:state": "VT", "amenity": "post_box", "brand": "United States Postal Service", "brand:wikidata": "Q668687", "collection_times": "Mo-Fr 16:45; Sa 11:00", "name": "USPS COLLECTION BOX - PO LOBBY", "note": "ON 12/24 AND 12/31, THIS BOX MAY BE COLLECTED AS EARLY AS 12 NOON.", "nsi_id": "unitedstatespostalservice-a77078", "operator": "United States Postal Service", "operator:short": "USPS", "operator:type": "public", "operator:wikidata": "Q668687", "ref": "0503000004"}, "type": "Feature"}
{"dataset_attributes": {"@spider": "usps_collection_boxes", "spider:collection_time": "2023-10-04T08:25:43.293951"}, "geometry": {"coordinates": [-72.6174804645, 43.7281935166], "type": "Point"}, "id": "6UDWa2KD9yY-7SpW61oVp0EjaKs=", "properties": {"@spider": "usps_collection_boxes", "addr:city": "BARNARD", "addr:country": "US", "addr:full": "6430 STAGE RD UNIT 1", "addr:postcode": "05031", "addr:state": "VT", "amenity": "post_box", "brand": "United States Postal Service", "brand:wikidata": "Q668687", "collection_times": "Mo-Fr 16:45; Sa 11:00", "name": "USPS COLLECTION BOX - BLUE BOX", "note": "ON 12/24 AND 12/31, THIS BOX MAY BE COLLECTED AS EARLY AS 12 NOON.", "nsi_id": "unitedstatespostalservice-a77078", "operator": "United States Postal Service", "operator:short": "USPS", "operator:type": "public", "operator:wikidata": "Q668687", "ref": "0503100000"}, "type": "Feature"}
{"dataset_attributes": {"@spider": "usps_collection_boxes", "spider:collection_time": "2023-10-04T08:25:43.293951"}, "geometry": {"coordinates": [-72.6175379905, 43.7283630081], "type": "Point"}, "id": "iruxBsLNax6jNCazrxWtSwtekM8=", "properties": {"@spider": "usps_collection_boxes", "addr:city": "BARNARD", "addr:country": "US", "addr:full": "6430 STAGE RD UNIT 1", "addr:postcode": "05031", "addr:state": "VT", "amenity": "post_box", "brand": "United States Postal Service", "brand:wikidata": "Q668687", "collection_times": "Mo-Fr 16:30; Sa 11:00", "name": "USPS COLLECTION BOX - PO LOBBY", "note": "ON 12/24 AND 12/31, THIS BOX MAY BE COLLECTED AS EARLY AS 12 NOON.", "nsi_id": "unitedstatespostalservice-a77078", "operator": "United States Postal Service", "operator:short": "USPS", "operator:type": "public", "operator:wikidata": "Q668687", "ref": "0503100001"}, "type": "Feature"}
{"dataset_attributes": {"@spider": "usps_collection_boxes", "spider:collection_time": "2023-10-04T08:25:43.293951"}, "geometry": {"coordinates": [-72.617552209, 43.728160819], "type": "Point"}, "id": "0pCzP73YuFzEVmoKFmxkGeqty_M=", "properties": {"@spider": "usps_collection_boxes", "addr:city": "BARNARD", "addr:country": "US", "addr:full": "6430 STAGE RD UNIT 1", "addr:postcode": "05031", "addr:state": "VT", "amenity": "post_box", "brand": "United States Postal Service", "brand:wikidata": "Q668687", "collection_times": "Mo-Fr 16:30; Sa 11:00", "name": "USPS COLLECTION BOX - PO LOBBY", "note": "ON 12/24 AND 12/31, THIS BOX MAY BE COLLECTED AS EARLY AS 12 NOON.", "nsi_id": "unitedstatespostalservice-a77078", "operator": "United States Postal Service", "operator:short": "USPS", "operator:type": "public", "operator:wikidata": "Q668687", "ref": "0503100002"}, "type": "Feature"}
{"dataset_attributes": {"@spider": "usps_collection_boxes", "spider:collection_time": "2023-10-04T08:25:43.293951"}, "geometry": {"coordinates": [-72.634602, 43.833199], "type": "Point"}, "id": "zZonnwsw0qPwJpM6lj-z7pie1Z4=", "properties": {"@spider": "usps_collection_boxes", "addr:city": "BETHEL", "addr:country": "US", "addr:full": "34 N MAIN ST", "addr:postcode": "05032", "addr:state": "VT", "amenity": "post_box", "brand": "United States Postal Service", "brand:wikidata": "Q668687", "collection_times": "Mo-Fr 16:30; Sa 11:30", "name": "USPS COLLECTION BOX - BLUE BOX", "note": "ON 12/24 AND 12/31, THIS BOX MAY BE COLLECTED AS EARLY AS 12 NOON.", "nsi_id": "unitedstatespostalservice-a77078", "operator": "United States Postal Service", "operator:short": "USPS", "operator:type": "public", "operator:wikidata": "Q668687", "ref": "0503200000"}, "type": "Feature"}
{"dataset_attributes": {"@spider": "usps_collection_boxes", "spider:collection_time": "2023-10-04T08:25:43.293951"}, "geometry": {"coordinates": [-72.634602, 43.833199], "type": "Point"}, "id": "m9RpUlUckmLhmXmjjidzjvVZuBc=", "properties": {"@spider": "usps_collection_boxes", "addr:city": "BETHEL", "addr:country": "US", "addr:full": "34 N MAIN ST", "addr:postcode": "05032", "addr:state": "VT", "amenity": "post_box", "brand": "United States Postal Service", "brand:wikidata": "Q668687", "collection_times": "Mo-Fr 16:30; Sa 11:30", "name": "USPS COLLECTION BOX - PO LOBBY", "note": "ON 12/24 AND 12/31, THIS BOX MAY BE COLLECTED AS EARLY AS 12 NOON.", "nsi_id": "unitedstatespostalservice-a77078", "operator": "United States Postal Service", "operator:short": "USPS", "operator:type": "public", "operator:wikidata": "Q668687", "ref": "0503200002"}, "type": "Feature"}
{"dataset_attributes": {"@spider": "usps_collection_boxes", "spider:collection_time": "2023-10-04T08:25:43.293951"}, "geometry": {"coordinates": [-72.634621186, 43.833238229], "type": "Point"}, "id": "y_DdWBgKkYBBqxPh3KvSrZ8R_5c=", "properties": {"@spider": "usps_collection_boxes", "addr:city": "BETHEL", "addr:country": "US", "addr:full": "34 N MAIN ST", "addr:postcode": "05032", "addr:state": "VT", "amenity": "post_box", "brand": "United States Postal Service", "brand:wikidata": "Q668687", "collection_times": "Mo-Fr 16:30; Sa 11:30", "name": "USPS COLLECTION BOX - PO LOBBY", "note": "ON 12/24 AND 12/31, THIS BOX MAY BE COLLECTED AS EARLY AS 12 NOON.", "nsi_id": "unitedstatespostalservice-a77078", "operator": "United States Postal Service", "operator:short": "USPS", "operator:type": "public", "operator:wikidata": "Q668687", "ref": "0503200004"}, "type": "Feature"}
{"dataset_attributes": {"@spider": "usps_collection_boxes", "spider:collection_time": "2023-10-04T08:25:43.293951"}, "geometry": {"coordinates": [-72.127735, 43.993742], "type": "Point"}, "id": "1W7QsR-shhjzppo6z_astRpbuNQ=", "properties": {"@spider": "usps_collection_boxes", "addr:city": "BRADFORD", "addr:country": "US", "addr:full": "41 BARTON ST", "addr:postcode": "05033", "addr:state": "VT", "amenity": "post_box", "brand": "United States Postal Service", "brand:wikidata": "Q668687", "collection_times": "Mo-Fr 17:00; Sa 12:00", "name": "USPS COLLECTION BOX - BLUE BOX", "note": "ON 12/24 AND 12/31, THIS BOX MAY BE COLLECTED AS EARLY AS 12 NOON.", "nsi_id": "unitedstatespostalservice-a77078", "operator": "United States Postal Service", "operator:short": "USPS", "operator:type": "public", "operator:wikidata": "Q668687", "ref": "0503300001"}, "type": "Feature"}
{"dataset_attributes": {"@spider": "usps_collection_boxes", "spider:collection_time": "2023-10-04T08:25:43.293951"}, "geometry": {"coordinates": [-72.1213107, 43.981778], "type": "Point"}, "id": "rf4qVS3qbCi1A5uq1y0XNZuJ-Ro=", "properties": {"@spider": "usps_collection_boxes", "addr:city": "BRADFORD", "addr:country": "US", "addr:full": "530 WAITS RIVER RD", "addr:postcode": "05033", "addr:state": "VT", "amenity": "post_box", "brand": "United States Postal Service", "brand:wikidata": "Q668687", "collection_times": "Mo-Sa 10:00", "name": "USPS COLLECTION BOX - BLUE BOX", "nsi_id": "unitedstatespostalservice-a77078", "operator": "United States Postal Service", "operator:short": "USPS", "operator:type": "public", "operator:wikidata": "Q668687", "ref": "0503300003"}, "type": "Feature"}
{"dataset_attributes": {"@spider": "usps_collection_boxes", "spider:collection_time": "2023-10-04T08:25:43.293951"}, "geometry": {"coordinates": [-72.127766, 43.993719], "type": "Point"}, "id": "Yt-OeAScBfEG63icpwdaj_f2Mkw=", "properties": {"@spider": "usps_collection_boxes", "addr:city": "BRADFORD", "addr:country": "US", "addr:full": "41 BARTON ST", "addr:postcode": "05033", "addr:state": "VT", "amenity": "post_box", "brand": "United States Postal Service", "brand:wikidata": "Q668687", "collection_times": "Mo-Fr 17:00; Sa 12:00", "name": "USPS COLLECTION BOX - PO LOBBY", "note": "ON 12/24 AND 12/31, THIS BOX MAY BE COLLECTED AS EARLY AS 12 NOON.", "nsi_id": "unitedstatespostalservice-a77078", "operator": "United States Postal Service", "operator:short": "USPS", "operator:type": "public", "operator:wikidata": "Q668687", "ref": "0503300004"}, "type": "Feature"}
{"dataset_attributes": {"@spider": "usps_collection_boxes", "spider:collection_time": "2023-10-04T08:25:43.293951"}, "geometry": {"coordinates": [-72.127192783, 43.993680464], "type": "Point"}, "id": "OOi8dCgubw3srA53s1lcVHe4yn0=", "properties": {"@spider": "usps_collection_boxes", "addr:city": "BRADFORD", "addr:country": "US", "addr:full": "41 BARTON ST", "addr:postcode": "05033", "addr:state": "VT", "amenity": "post_box", "brand": "United States Postal Service", "brand:wikidata": "Q668687", "collection_times": "Mo-Fr 17:00; Sa 13:00", "name": "USPS COLLECTION BOX - PO LOBBY", "note": "ON 12/24 AND 12/31, THIS BOX MAY BE COLLECTED AS EARLY AS 12 NOON.", "nsi_id": "unitedstatespostalservice-a77078", "operator": "United States Postal Service", "operator:short": "USPS", "operator:type": "public", "operator:wikidata": "Q668687", "ref": "0503300006"}, "type": "Feature"}
{"dataset_attributes": {"@spider": "usps_collection_boxes", "spider:collection_time": "2023-10-04T08:25:43.293951"}, "geometry": {"coordinates": [-72.65644, 43.587665], "type": "Point"}, "id": "S3Sb0I4aS7GOB1NI8yPmkaPjjS8=", "properties": {"@spider": "usps_collection_boxes", "addr:city": "BRIDGEWATER COR", "addr:country": "US", "addr:full": "39 VT ROUTE 100A", "addr:postcode": "05035", "addr:state": "VT", "amenity": "post_box", "brand": "United States Postal Service", "brand:wikidata": "Q668687", "collection_times": "Mo-Fr 14:30; Sa 11:15", "name": "USPS COLLECTION BOX - BLUE BOX", "note": "ON 12/24 AND 12/31, THIS BOX MAY BE COLLECTED AS EARLY AS 12 NOON.", "nsi_id": "unitedstatespostalservice-a77078", "operator": "United States Postal Service", "operator:short": "USPS", "operator:type": "public", "operator:wikidata": "Q668687", "ref": "0503500000"}, "type": "Feature"}
{"dataset_attributes": {"@spider": "usps_collection_boxes", "spider:collection_time": "2023-10-04T08:25:43.293951"}, "geometry": {"coordinates": [-72.65644, 43.587665], "type": "Point"}, "id": "Icsum8y9senrVCZGfWEv0mOawqc=", "properties": {"@spider": "usps_collection_boxes", "addr:city": "BRIDGEWATER COR", "addr:country": "US", "addr:full": "39 VT ROUTE 100A", "addr:postcode": "05035", "addr:state": "VT", "amenity": "post_box", "brand": "United States Postal Service", "brand:wikidata": "Q668687", "collection_times": "Mo-Fr 14:30; Sa 11:15", "name": "USPS COLLECTION BOX - PO LOBBY", "note": "ON 12/24 AND 12/31, THIS BOX MAY BE COLLECTED AS EARLY AS 12 NOON.", "nsi_id": "unitedstatespostalservice-a77078", "operator": "United States Postal Service", "operator:short": "USPS", "operator:type": "public", "operator:wikidata": "Q668687", "ref": "0503500001"}, "type": "Feature"}
{"dataset_attributes": {"@spider": "usps_collection_boxes", "spider:collection_time": "2023-10-04T08:25:43.293951"}, "geometry": {"coordinates": [-72.656436596, 43.587672979], "type": "Point"}, "id": "VCb8wStgS84QMw2JKqmkEfGN96M=", "properties": {"@spider": "usps_collection_boxes", "addr:city": "BRIDGEWATER COR", "addr:country": "US", "addr:full": "39 VT ROUTE 100A", "addr:postcode": "05035", "addr:state": "VT", "amenity": "post_box", "brand": "United States Postal Service", "brand:wikidata": "Q668687", "collection_times": "Mo-Fr 14:30; Sa 11:30", "name": "USPS COLLECTION BOX - PO LOBBY", "note": "ON 12/24 AND 12/31, THIS BOX MAY BE COLLECTED AS EARLY AS 12 NOON.", "nsi_id": "unitedstatespostalservice-a77078", "operator": "United States Postal Service", "operator:short": "USPS", "operator:type": "public", "operator:wikidata": "Q668687", "ref": "0503500003"}, "type": "Feature"}
{"dataset_attributes": {"@spider": "usps_collection_boxes", "spider:collection_time": "2023-10-04T08:25:43.293951"}, "geometry": {"coordinates": [-72.599219, 44.039418], "type": "Point"}, "id": "EO3hGPxKHE3gjIVU2jdp700QCXo=", "properties": {"@spider": "usps_collection_boxes", "addr:city": "BROOKFIELD", "addr:country": "US", "addr:full": "1870 VT ROUTE 65", "addr:postcode": "05036", "addr:state": "VT", "amenity": "post_box", "brand": "United States Postal Service", "brand:wikidata": "Q668687", "collection_times": "Mo-Fr 16:00; Sa 10:00", "name": "USPS COLLECTION BOX - BLUE BOX", "note": "ON 12/24 AND 12/31, THIS BOX MAY BE COLLECTED AS EARLY AS 12 NOON.", "nsi_id": "unitedstatespostalservice-a77078", "operator": "United States Postal Service", "operator:short": "USPS", "operator:type": "public", "operator:wikidata": "Q668687", "ref": "0503600000"}, "type": "Feature"}
{"dataset_attributes": {"@spider": "usps_collection_boxes", "spider:collection_time": "2023-10-04T08:25:43.293951"}, "geometry": {"coordinates": [-72.599328, 44.039419], "type": "Point"}, "id": "_ymtsaR8CjTPnrs-YLLUxVu9aRE=", "properties": {"@spider": "usps_collection_boxes", "addr:city": "BROOKFIELD", "addr:country": "US", "addr:full": "1870 VT ROUTE 65", "addr:postcode": "05036", "addr:state": "VT", "amenity": "post_box", "brand": "United States Postal Service", "brand:wikidata": "Q668687", "collection_times": "Mo-Fr 16:00; Sa 10:00", "name": "USPS COLLECTION BOX - PO LOBBY", "note": "ON 12/24 AND 12/31, THIS BOX MAY BE COLLECTED AS EARLY AS 12 NOON.", "nsi_id": "unitedstatespostalservice-a77078", "operator": "United States Postal Service", "operator:short": "USPS", "operator:type": "public", "operator:wikidata": "Q668687", "ref": "0503600001"}, "type": "Feature"}
{"dataset_attributes": {"@spider": "usps_collection_boxes", "spider:collection_time": "2023-10-04T08:25:43.293951"}, "geometry": {"coordinates": [-72.599284829, 44.039428972], "type": "Point"}, "id": "9Nv5KOLKFbCdTi00c_xjfnuuGAk=", "properties": {"@spider": "usps_collection_boxes", "addr:city": "BROOKFIELD", "addr:country": "US", "addr:full": "1870 VT ROUTE 65", "addr:postcode": "05036", "addr:state": "VT", "amenity": "post_box", "brand": "United States Postal Service", "brand:wikidata": "Q668687", "collection_times": "Mo-Fr 16:00; Sa 10:00", "name": "USPS COLLECTION BOX - PO LOBBY", "note": "ON 12/24 AND 12/31, THIS BOX MAY BE COLLECTED AS EARLY AS 12 NOON.", "nsi_id": "unitedstatespostalservice-a77078", "operator": "United States Postal Service", "operator:short": "USPS", "operator:type": "public", "operator:wikidata": "Q668687", "ref": "0503600002"}, "type": "Feature"}
{"dataset_attributes": {"@spider": "usps_collection_boxes", "spider:collection_time": "2023-10-04T08:25:43.293951"}, "geometry": {"coordinates": [-72.474953, 43.46459], "type": "Point"}, "id": "7GhHwuaoE_TFlIsmDXjNns1lunA=", "properties": {"@spider": "usps_collection_boxes", "addr:city": "BROWNSVILLE", "addr:country": "US", "addr:full": "1269 ROUTE 44", "addr:postcode": "05037", "addr:state": "VT", "amenity": "post_box", "brand": "United States Postal Service", "brand:wikidata": "Q668687", "collection_times": "Mo-Fr 16:30; Sa 11:45", "name": "USPS COLLECTION BOX - BLUE BOX", "note": "ON 12/24 AND 12/31, THIS BOX MAY BE COLLECTED AS EARLY AS 12 NOON.", "nsi_id": "unitedstatespostalservice-a77078", "operator": "United States Postal Service", "operator:short": "USPS", "operator:type": "public", "operator:wikidata": "Q668687", "ref": "0503700000"}, "type": "Feature"}
{"dataset_attributes": {"@spider": "usps_collection_boxes", "spider:collection_time": "2023-10-04T08:25:43.293951"}, "geometry": {"coordinates": [-72.475015, 43.464573], "type": "Point"}, "id": "G09ScxI8n11tAVVTPDXF8XMf_Vk=", "properties": {"@spider": "usps_collection_boxes", "addr:city": "BROWNSVILLE", "addr:country": "US", "addr:full": "1269 ROUTE 44", "addr:postcode": "05037", "addr:state": "VT", "amenity": "post_box", "brand": "United States Postal Service", "brand:wikidata": "Q668687", "collection_times": "Mo-Fr 16:30; Sa 11:45", "name": "USPS COLLECTION BOX - PO LOBBY", "note": "ON 12/24 AND 12/31, THIS BOX MAY BE COLLECTED AS EARLY AS 12 NOON.", "nsi_id": "unitedstatespostalservice-a77078", "operator": "United States Postal Service", "operator:short": "USPS", "operator:type": "public", "operator:wikidata": "Q668687", "ref": "0503700001"}, "type": "Feature"}
{"dataset_attributes": {"@spider": "usps_collection_boxes", "spider:collection_time": "2023-10-04T08:25:43.293951"}, "geometry": {"coordinates": [-72.47499911, 43.464543036], "type": "Point"}, "id": "v-x4RtgDtcGSz_uOkwda4MSitks=", "properties": {"@spider": "usps_collection_boxes", "addr:city": "BROWNSVILLE", "addr:country": "US", "addr:full": "1269 ROUTE 44", "addr:postcode": "05037", "addr:state": "VT", "amenity": "post_box", "brand": "United States Postal Service", "brand:wikidata": "Q668687", "collection_times": "Mo-Fr 17:00; Sa 11:30", "name": "USPS COLLECTION BOX - PO LOBBY", "note": "ON 12/24 AND 12/31, THIS BOX MAY BE COLLECTED AS EARLY AS 12 NOON.", "nsi_id": "unitedstatespostalservice-a77078", "operator": "United States Postal Service", "operator:short": "USPS", "operator:type": "public", "operator:wikidata": "Q668687", "ref": "0503700002"}, "type": "Feature"}
{"dataset_attributes": {"@spider": "usps_collection_boxes", "spider:collection_time": "2023-10-04T08:25:43.293951"}, "geometry": {"coordinates": [-72.464514, 43.955112], "type": "Point"}, "id": "sJMXaRokCNfP9t-cnaXcutyHGGU=", "properties": {"@spider": "usps_collection_boxes", "addr:city": "CHELSEA", "addr:country": "US", "addr:full": "298 VT RTE 110", "addr:postcode": "05038", "addr:state": "VT", "amenity": "post_box", "brand": "United States Postal Service", "brand:wikidata": "Q668687", "collection_times": "Mo-Fr 16:30; Sa 12:00", "name": "USPS COLLECTION BOX - BLUE BOX", "note": "ON 12/24 AND 12/31, THIS BOX MAY BE COLLECTED AS EARLY AS 12 NOON.", "nsi_id": "unitedstatespostalservice-a77078", "operator": "United States Postal Service", "operator:short": "USPS", "operator:type": "public", "operator:wikidata": "Q668687", "ref": "0503800000"}, "type": "Feature"}
{"dataset_attributes": {"@spider": "usps_collection_boxes", "spider:collection_time": "2023-10-04T08:25:43.293951"}, "geometry": {"coordinates": [-72.464548, 43.955099], "type": "Point"}, "id": "PsrSdn8u9Z1Pk3c1plmR-l95f54=", "properties": {"@spider": "usps_collection_boxes", "addr:city": "CHELSEA", "addr:country": "US", "addr:full": "298 VT RTE 110", "addr:postcode": "05038", "addr:state": "VT", "amenity": "post_box", "brand": "United States Postal Service", "brand:wikidata": "Q668687", "collection_times": "Mo-Fr 16:30; Sa 12:00", "name": "USPS COLLECTION BOX - PO LOBBY", "note": "ON 12/24 AND 12/31, THIS BOX MAY BE COLLECTED AS EARLY AS 12 NOON.", "nsi_id": "unitedstatespostalservice-a77078", "operator": "United States Postal Service", "operator:short": "USPS", "operator:type": "public", "operator:wikidata": "Q668687", "ref": "0503800002"}, "type": "Feature"}
{"dataset_attributes": {"@spider": "usps_collection_boxes", "spider:collection_time": "2023-10-04T08:25:43.293951"}, "geometry": {"coordinates": [-72.447604849, 43.989547579], "type": "Point"}, "id": "ElBIUhWrUNlPF4pXpNBJci8BP4s=", "properties": {"@spider": "usps_collection_boxes", "addr:city": "CHELSEA", "addr:country": "US", "addr:full": "298 VT RTE 110", "addr:postcode": "05038", "addr:state": "VT", "amenity": "post_box", "brand": "United States Postal Service", "brand:wikidata": "Q668687", "collection_times": "Mo-Fr 16:30; Sa 12:00", "name": "USPS COLLECTION BOX - PO LOBBY", "note": "ON 12/24 AND 12/31, THIS BOX MAY BE COLLECTED AS EARLY AS 12 NOON.", "nsi_id": "unitedstatespostalservice-a77078", "operator": "United States Postal Service", "operator:short": "USPS", "operator:type": "public", "operator:wikidata": "Q668687", "ref": "0503800005"}, "type": "Feature"}
{"dataset_attributes": {"@spider": "usps_collection_boxes", "spider:collection_time": "2023-10-04T08:25:43.293951"}, "geometry": {"coordinates": [-72.288156, 44.024181], "type": "Point"}, "id": "VfybOz5Qr_2Op22-PaMooSaspqw=", "properties": {"@spider": "usps_collection_boxes", "addr:city": "CORINTH", "addr:country": "US", "addr:full": "1776 CENTER RD", "addr:postcode": "05039", "addr:state": "VT", "amenity": "post_box", "brand": "United States Postal Service", "brand:wikidata": "Q668687", "collection_times": "Mo-Fr 14:30; Sa 11:30", "name": "USPS COLLECTION BOX - BLUE BOX", "note": "ON 12/24 AND 12/31, THIS BOX MAY BE COLLECTED AS EARLY AS 12 NOON.", "nsi_id": "unitedstatespostalservice-a77078", "operator": "United States Postal Service", "operator:short": "USPS", "operator:type": "public", "operator:wikidata": "Q668687", "ref": "0503900000"}, "type": "Feature"}
{"dataset_attributes": {"@spider": "usps_collection_boxes", "spider:collection_time": "2023-10-04T08:25:43.293951"}, "geometry": {"coordinates": [-72.288208, 44.024144], "type": "Point"}, "id": "zdBKOPqAuUvqihkymOMn_7UhayQ=", "properties": {"@spider": "usps_collection_boxes", "addr:city": "CORINTH", "addr:country": "US", "addr:full": "1776 CENTER RD", "addr:postcode": "05039", "addr:state": "VT", "amenity": "post_box", "brand": "United States Postal Service", "brand:wikidata": "Q668687", "collection_times": "Mo-Fr 14:30; Sa 11:30", "name": "USPS COLLECTION BOX - PO LOBBY", "note": "ON 12/24 AND 12/31, THIS BOX MAY BE COLLECTED AS EARLY AS 12 NOON.", "nsi_id": "unitedstatespostalservice-a77078", "operator": "United States Postal Service", "operator:short": "USPS", "operator:type": "public", "operator:wikidata": "Q668687", "ref": "0503900001"}, "type": "Feature"}
{"dataset_attributes": {"@spider": "usps_collection_boxes", "spider:collection_time": "2023-10-04T08:25:43.293951"}, "geometry": {"coordinates": [-72.289275794, 44.024013387], "type": "Point"}, "id": "k9DdyyQDJQNfka7C8jCD346MA1E=", "properties": {"@spider": "usps_collection_boxes", "addr:city": "CORINTH", "addr:country": "US", "addr:full": "1776 CENTER RD", "addr:postcode": "05039", "addr:state": "VT", "amenity": "post_box", "brand": "United States Postal Service", "brand:wikidata": "Q668687", "collection_times": "Mo-Fr 14:30; Sa 11:30", "name": "USPS COLLECTION BOX - PO LOBBY", "note": "ON 12/24 AND 12/31, THIS BOX MAY BE COLLECTED AS EARLY AS 12 NOON.", "nsi_id": "unitedstatespostalservice-a77078", "operator": "United States Postal Service", "operator:short": "USPS", "operator:type": "public", "operator:wikidata": "Q668687", "ref": "0503900003"}, "type": "Feature"}
{"dataset_attributes": {"@spider": "usps_collection_boxes", "spider:collection_time": "2023-10-04T08:25:43.293951"}, "geometry": {"coordinates": [-72.222056, 44.06476], "type": "Point"}, "id": "dQFQjGNh7fnrKgHd-OhDIEVOyRI=", "properties": {"@spider": "usps_collection_boxes", "addr:city": "EAST CORINTH", "addr:country": "US", "addr:full": "749 VILLAGE RD", "addr:postcode": "05040", "addr:state": "VT", "amenity": "post_box", "brand": "United States Postal Service", "brand:wikidata": "Q668687", "collection_times": "Mo-Fr 16:45; Sa 11:15", "name": "USPS COLLECTION BOX - BLUE BOX", "note": "ON 12/24 AND 12/31, THIS BOX MAY BE COLLECTED AS EARLY AS 12 NOON.", "nsi_id": "unitedstatespostalservice-a77078", "operator": "United States Postal Service", "operator:short": "USPS", "operator:type": "public", "operator:wikidata": "Q668687", "ref": "0504000000"}, "type": "Feature"}
{"dataset_attributes": {"@spider": "usps_collection_boxes", "spider:collection_time": "2023-10-04T08:25:43.293951"}, "geometry": {"coordinates": [-72.2329647, 44.119628], "type": "Point"}, "id": "ptKXqYw-Fdyt2Bop22s-vLFJl10=", "properties": {"@spider": "usps_collection_boxes", "addr:city": "EAST CORINTH", "addr:country": "US", "addr:full": "365 TOPSHAM CORINTH RD", "addr:postcode": "05040", "addr:state": "VT", "amenity": "post_box", "brand": "United States Postal Service", "brand:wikidata": "Q668687", "collection_times": "Mo-Sa 11:15", "name": "USPS COLLECTION BOX - BLUE BOX", "nsi_id": "unitedstatespostalservice-a77078", "operator": "United States Postal Service", "operator:short": "USPS", "operator:type": "public", "operator:wikidata": "Q668687", "ref": "0504000001"}, "type": "Feature"}
{"dataset_attributes": {"@spider": "usps_collection_boxes", "spider:collection_time": "2023-10-04T08:25:43.293951"}, "geometry": {"coordinates": [-72.222025, 44.064689], "type": "Point"}, "id": "XndR8a698F_r10WZgqvGiFl2SXw=", "properties": {"@spider": "usps_collection_boxes", "addr:city": "EAST CORINTH", "addr:country": "US", "addr:full": "749 VILLAGE RD", "addr:postcode": "05040", "addr:state": "VT", "amenity": "post_box", "brand": "United States Postal Service", "brand:wikidata": "Q668687", "collection_times": "Mo-Fr 16:45; Sa 11:15", "name": "USPS COLLECTION BOX - PO LOBBY", "note": "ON 12/24 AND 12/31, THIS BOX MAY BE COLLECTED AS EARLY AS 12 NOON.", "nsi_id": "unitedstatespostalservice-a77078", "operator": "United States Postal Service", "operator:short": "USPS", "operator:type": "public", "operator:wikidata": "Q668687", "ref": "0504000002"}, "type": "Feature"}
{"dataset_attributes": {"@spider": "usps_collection_boxes", "spider:collection_time": "2023-10-04T08:25:43.293951"}, "geometry": {"coordinates": [-72.222068011, 44.064677043], "type": "Point"}, "id": "k6j8RXAzNCJXxG921lKrBSx65uI=", "properties": {"@spider": "usps_collection_boxes", "addr:city": "EAST CORINTH", "addr:country": "US", "addr:full": "749 VILLAGE RD", "addr:postcode": "05040", "addr:state": "VT", "amenity": "post_box", "brand": "United States Postal Service", "brand:wikidata": "Q668687", "collection_times": "Mo-Fr 16:30; Sa 11:00", "name": "USPS COLLECTION BOX - PO LOBBY", "note": "ON 12/24 AND 12/31, THIS BOX MAY BE COLLECTED AS EARLY AS 12 NOON.", "nsi_id": "unitedstatespostalservice-a77078", "operator": "United States Postal Service", "operator:short": "USPS", "operator:type": "public", "operator:wikidata": "Q668687", "ref": "0504000003"}, "type": "Feature"}
{"dataset_attributes": {"@spider": "usps_collection_boxes", "spider:collection_time": "2023-10-04T08:25:43.293951"}, "geometry": {"coordinates": [-72.554717, 43.941754], "type": "Point"}, "id": "0EtFABNKYPVQQk8s2A6nWY2DjnI=", "properties": {"@spider": "usps_collection_boxes", "addr:city": "EAST RANDOLPH", "addr:country": "US", "addr:full": "100 VT ROUTE 14 S", "addr:postcode": "05041", "addr:state": "VT", "amenity": "post_box", "brand": "United States Postal Service", "brand:wikidata": "Q668687", "collection_times": "Mo-Fr 16:15; Sa 11:45", "name": "USPS COLLECTION BOX - BLUE BOX", "note": "ON 12/24 AND 12/31, THIS BOX MAY BE COLLECTED AS EARLY AS 12 NOON.", "nsi_id": "unitedstatespostalservice-a77078", "operator": "United States Postal Service", "operator:short": "USPS", "operator:type": "public", "operator:wikidata": "Q668687", "ref": "0504100000"}, "type": "Feature"}
{"dataset_attributes": {"@spider": "usps_collection_boxes", "spider:collection_time": "2023-10-04T08:25:43.293951"}, "geometry": {"coordinates": [-72.555118, 43.973501], "type": "Point"}, "id": "fgHXYfEFvhvFoa0K2ixf-ilXqgM=", "properties": {"@spider": "usps_collection_boxes", "addr:city": "EAST RANDOLPH", "addr:country": "US", "addr:full": "100 VT ROUTE 14 S", "addr:postcode": "05041", "addr:state": "VT", "amenity": "post_box", "brand": "United States Postal Service", "brand:wikidata": "Q668687", "collection_times": "Mo-Fr 16:15; Sa 11:45", "name": "USPS COLLECTION BOX - PO LOBBY", "note": "ON 12/24 AND 12/31, THIS BOX MAY BE COLLECTED AS EARLY AS 12 NOON.", "nsi_id": "unitedstatespostalservice-a77078", "operator": "United States Postal Service", "operator:short": "USPS", "operator:type": "public", "operator:wikidata": "Q668687", "ref": "0504100001"}, "type": "Feature"}
{"dataset_attributes": {"@spider": "usps_collection_boxes", "spider:collection_time": "2023-10-04T08:25:43.293951"}, "geometry": {"coordinates": [-72.554696917, 43.941721583], "type": "Point"}, "id": "vCnGnBRPOeDP-SbYX6Bqsk6FkAo=", "properties": {"@spider": "usps_collection_boxes", "addr:city": "EAST RANDOLPH", "addr:country": "US", "addr:full": "100 VT ROUTE 14 S", "addr:postcode": "05041", "addr:state": "VT", "amenity": "post_box", "brand": "United States Postal Service", "brand:wikidata": "Q668687", "collection_times": "Mo-Fr 16:30; Sa 11:30", "name": "USPS COLLECTION BOX - PO LOBBY", "note": "ON 12/24 AND 12/31, THIS BOX MAY BE COLLECTED AS EARLY AS 12 NOON.", "nsi_id": "unitedstatespostalservice-a77078", "operator": "United States Postal Service", "operator:short": "USPS", "operator:type": "public", "operator:wikidata": "Q668687", "ref": "0504100002"}, "type": "Feature"}
{"dataset_attributes": {"@spider": "usps_collection_boxes", "spider:collection_time": "2023-10-04T08:25:43.293951"}, "geometry": {"coordinates": [-72.0626413, 44.204944], "type": "Point"}, "id": "W72J1VI_XjJwaftpdF-c-MbuXRI=", "properties": {"@spider": "usps_collection_boxes", "addr:city": "EAST RYEGATE", "addr:country": "US", "addr:full": "57 PAPERMILL RD", "addr:postcode": "05042", "addr:state": "VT", "amenity": "post_box", "brand": "United States Postal Service", "brand:wikidata": "Q668687", "collection_times": "Mo-Fr 16:45; Sa 09:45", "name": "USPS COLLECTION BOX - BLUE BOX", "note": "ON 12/24 AND 12/31, THIS BOX MAY BE COLLECTED AS EARLY AS 12 NOON.", "nsi_id": "unitedstatespostalservice-a77078", "operator": "United States Postal Service", "operator:short": "USPS", "operator:type": "public", "operator:wikidata": "Q668687", "ref": "0504200000"}, "type": "Feature"}
{"dataset_attributes": {"@spider": "usps_collection_boxes", "spider:collection_time": "2023-10-04T08:25:43.293951"}, "geometry": {"coordinates": [-72.103701, 44.208333], "type": "Point"}, "id": "6RWYi21ouDGTlbGM-u-2VDiBmgo=", "properties": {"@spider": "usps_collection_boxes", "addr:city": "EAST RYEGATE", "addr:country": "US", "addr:full": "18 S BAYLEY-HAZEN RD", "addr:postcode": "05042", "addr:state": "VT", "amenity": "post_box", "brand": "United States Postal Service", "brand:wikidata": "Q668687", "collection_times": "Mo-Fr 16:00; Sa 09:00", "name": "USPS COLLECTION BOX - BLUE BOX", "note": "ON 12/24 AND 12/31, THIS BOX MAY BE COLLECTED AS EARLY AS 12 NOON.", "nsi_id": "unitedstatespostalservice-a77078", "operator": "United States Postal Service", "operator:short": "USPS", "operator:type": "public", "operator:wikidata": "Q668687", "ref": "0504200001"}, "type": "Feature"}
{"dataset_attributes": {"@spider": "usps_collection_boxes", "spider:collection_time": "2023-10-04T08:25:43.293951"}, "geometry": {"coordinates": [-72.062816, 44.204827], "type": "Point"}, "id": "yRZnq50dVGfhq87H7_ztJ5BMtiU=", "properties": {"@spider": "usps_collection_boxes", "addr:city": "EAST RYEGATE", "addr:country": "US", "addr:full": "57 PAPERMILL RD", "addr:postcode": "05042", "addr:state": "VT", "amenity": "post_box", "brand": "United States Postal Service", "brand:wikidata": "Q668687", "collection_times": "Mo-Fr 12:00; Sa 09:45", "name": "USPS COLLECTION BOX - PO LOBBY", "nsi_id": "unitedstatespostalservice-a77078", "operator": "United States Postal Service", "operator:short": "USPS", "operator:type": "public", "operator:wikidata": "Q668687", "ref": "0504200002"}, "type": "Feature"}
{"dataset_attributes": {"@spider": "usps_collection_boxes", "spider:collection_time": "2023-10-04T08:25:43.293951"}, "geometry": {"coordinates": [-72.062789611, 44.204840475], "type": "Point"}, "id": "unsVFVK5ZaYEuDMxIlsuJ23Jh5E=", "properties": {"@spider": "usps_collection_boxes", "addr:city": "EAST RYEGATE", "addr:country": "US", "addr:full": "57 PAPERMILL RD", "addr:postcode": "05042", "addr:state": "VT", "amenity": "post_box", "brand": "United States Postal Service", "brand:wikidata": "Q668687", "collection_times": "Mo-Fr 12:00; Sa 10:00", "name": "USPS COLLECTION BOX - PO LOBBY", "nsi_id": "unitedstatespostalservice-a77078", "operator": "United States Postal Service", "operator:short": "USPS", "operator:type": "public", "operator:wikidata": "Q668687", "ref": "0504200003"}, "type": "Feature"}
{"dataset_attributes": {"@spider": "usps_collection_boxes", "spider:collection_time": "2023-10-04T08:25:43.293951"}, "geometry": {"coordinates": [-72.188947, 43.81127], "type": "Point"}, "id": "Lf9yo4Y2IVlbc07UM_g26Dlj6Pw=", "properties": {"@spider": "usps_collection_boxes", "addr:city": "EAST THETFORD", "addr:country": "US", "addr:full": "2969 ROUTE 5", "addr:postcode": "05043", "addr:state": "VT", "amenity": "post_box", "brand": "United States Postal Service", "brand:wikidata": "Q668687", "collection_times": "Mo-Fr 15:30; Sa 11:00", "name": "USPS COLLECTION BOX - BLUE BOX", "note": "ON 12/24 AND 12/31, THIS BOX MAY BE COLLECTED AS EARLY AS 12 NOON.", "nsi_id": "unitedstatespostalservice-a77078", "operator": "United States Postal Service", "operator:short": "USPS", "operator:type": "public", "operator:wikidata": "Q668687", "ref": "0504300000"}, "type": "Feature"}
{"dataset_attributes": {"@spider": "usps_collection_boxes", "spider:collection_time": "2023-10-04T08:25:43.293951"}, "geometry": {"coordinates": [-72.188918, 43.811339], "type": "Point"}, "id": "egv7p8-wgOfrZrsBzO7h_9A5JiY=", "properties": {"@spider": "usps_collection_boxes", "addr:city": "EAST THETFORD", "addr:country": "US", "addr:full": "2969 ROUTE 5", "addr:postcode": "05043", "addr:state": "VT", "amenity": "post_box", "brand": "United States Postal Service", "brand:wikidata": "Q668687", "collection_times": "Mo-Fr 15:30; Sa 11:00", "name": "USPS COLLECTION BOX - PO LOBBY", "note": "ON 12/24 AND 12/31, THIS BOX MAY BE COLLECTED AS EARLY AS 12 NOON.", "nsi_id": "unitedstatespostalservice-a77078", "operator": "United States Postal Service", "operator:short": "USPS", "operator:type": "public", "operator:wikidata": "Q668687", "ref": "0504300001"}, "type": "Feature"}
{"dataset_attributes": {"@spider": "usps_collection_boxes", "spider:collection_time": "2023-10-04T08:25:43.293951"}, "geometry": {"coordinates": [-72.188958519, 43.811332313], "type": "Point"}, "id": "f2QIj7rg3JfQb2l5kCPNb9CeoJk=", "properties": {"@spider": "usps_collection_boxes", "addr:city": "EAST THETFORD", "addr:country": "US", "addr:full": "2969 ROUTE 5", "addr:postcode": "05043", "addr:state": "VT", "amenity": "post_box", "brand": "United States Postal Service", "brand:wikidata": "Q668687", "collection_times": "Mo-Fr 15:30; Sa 11:00", "name": "USPS COLLECTION BOX - PO LOBBY", "note": "ON 12/24 AND 12/31, THIS BOX MAY BE COLLECTED AS EARLY AS 12 NOON.", "nsi_id": "unitedstatespostalservice-a77078", "operator": "United States Postal Service", "operator:short": "USPS", "operator:type": "public", "operator:wikidata": "Q668687", "ref": "0504300003"}, "type": "Feature"}
{"dataset_attributes": {"@spider": "usps_collection_boxes", "spider:collection_time": "2023-10-04T08:25:43.293951"}, "geometry": {"coordinates": [-72.146844, 43.905891], "type": "Point"}, "id": "09-DCOOBeIQR0zJFG4z41lFMFuY=", "properties": {"@spider": "usps_collection_boxes", "addr:city": "FAIRLEE", "addr:country": "US", "addr:full": "21 SCHOOL ST", "addr:postcode": "05045", "addr:state": "VT", "amenity": "post_box", "brand": "United States Postal Service", "brand:wikidata": "Q668687", "collection_times": "Mo-Fr 16:30; Sa 12:00", "name": "USPS COLLECTION BOX - BLUE BOX", "note": "ON 12/24 AND 12/31, THIS BOX MAY BE COLLECTED AS EARLY AS 12 NOON.", "nsi_id": "unitedstatespostalservice-a77078", "operator": "United States Postal Service", "operator:short": "USPS", "operator:type": "public", "operator:wikidata": "Q668687", "ref": "0504500000"}, "type": "Feature"}
{"dataset_attributes": {"@spider": "usps_collection_boxes", "spider:collection_time": "2023-10-04T08:25:43.293951"}, "geometry": {"coordinates": [-72.146753, 43.905841], "type": "Point"}, "id": "YUec5aRBj_LW-0quB8l8VhLfjXM=", "properties": {"@spider": "usps_collection_boxes", "addr:city": "FAIRLEE", "addr:country": "US", "addr:full": "21 SCHOOL ST", "addr:postcode": "05045", "addr:state": "VT", "amenity": "post_box", "brand": "United States Postal Service", "brand:wikidata": "Q668687", "collection_times": "Mo-Fr 16:30; Sa 12:00", "name": "USPS COLLECTION BOX - PO LOBBY", "note": "ON 12/24 AND 12/31, THIS BOX MAY BE COLLECTED AS EARLY AS 12 NOON.", "nsi_id": "unitedstatespostalservice-a77078", "operator": "United States Postal Service", "operator:short": "USPS", "operator:type": "public", "operator:wikidata": "Q668687", "ref": "0504500003"}, "type": "Feature"}
{"dataset_attributes": {"@spider": "usps_collection_boxes", "spider:collection_time": "2023-10-04T08:25:43.293951"}, "geometry": {"coordinates": [-72.146815108, 43.905850429], "type": "Point"}, "id": "ABK8puUEEjOOQdPJV7rQ8OzJcZk=", "properties": {"@spider": "usps_collection_boxes", "addr:city": "FAIRLEE", "addr:country": "US", "addr:full": "21 SCHOOL ST", "addr:postcode": "05045", "addr:state": "VT", "amenity": "post_box", "brand": "United States Postal Service", "brand:wikidata": "Q668687", "collection_times": "Mo-Fr 16:15; Sa 12:00", "name": "USPS COLLECTION BOX - PO LOBBY", "note": "ON 12/24 AND 12/31, THIS BOX MAY BE COLLECTED AS EARLY AS 12 NOON.", "nsi_id": "unitedstatespostalservice-a77078", "operator": "United States Postal Service", "operator:short": "USPS", "operator:type": "public", "operator:wikidata": "Q668687", "ref": "0504500004"}, "type": "Feature"}
{"dataset_attributes": {"@spider": "usps_collection_boxes", "spider:collection_time": "2023-10-04T08:25:43.293951"}, "geometry": {"coordinates": [-72.192151, 44.20962], "type": "Point"}, "id": "qDS3QLMEiTM6HEjzcAwCtUVVnO8=", "properties": {"@spider": "usps_collection_boxes", "addr:city": "GROTON", "addr:country": "US", "addr:full": "1236 SCOTT HWY", "addr:postcode": "05046", "addr:state": "VT", "amenity": "post_box", "brand": "United States Postal Service", "brand:wikidata": "Q668687", "collection_times": "Mo-Fr 14:30; Sa 11:30", "name": "USPS COLLECTION BOX - BLUE BOX", "note": "ON 12/24 AND 12/31, THIS BOX MAY BE COLLECTED AS EARLY AS 12 NOON.", "nsi_id": "unitedstatespostalservice-a77078", "operator": "United States Postal Service", "operator:short": "USPS", "operator:type": "public", "operator:wikidata": "Q668687", "ref": "0504600000"}, "type": "Feature"}
{"dataset_attributes": {"@spider": "usps_collection_boxes", "spider:collection_time": "2023-10-04T08:25:43.293951"}, "geometry": {"coordinates": [-72.192084, 44.209567], "type": "Point"}, "id": "akAO_Pzv0T2ElU2kqPxDjEsEy0k=", "properties": {"@spider": "usps_collection_boxes", "addr:city": "GROTON", "addr:country": "US", "addr:full": "1236 SCOTT HWY", "addr:postcode": "05046", "addr:state": "VT", "amenity": "post_box", "brand": "United States Postal Service", "brand:wikidata": "Q668687", "collection_times": "Mo-Fr 14:30; Sa 11:45", "name": "USPS COLLECTION BOX - PO LOBBY", "note": "ON 12/24 AND 12/31, THIS BOX MAY BE COLLECTED AS EARLY AS 12 NOON.", "nsi_id": "unitedstatespostalservice-a77078", "operator": "United States Postal Service", "operator:short": "USPS", "operator:type": "public", "operator:wikidata": "Q668687", "ref": "0504600001"}, "type": "Feature"}
{"dataset_attributes": {"@spider": "usps_collection_boxes", "spider:collection_time": "2023-10-04T08:25:43.293951"}, "geometry": {"coordinates": [-72.19305549, 44.209891812], "type": "Point"}, "id": "PKdpq8jUPqZ9Pnjn3OnrrQLbH5w=", "properties": {"@spider": "usps_collection_boxes", "addr:city": "GROTON", "addr:country": "US", "addr:full": "1236 SCOTT HWY", "addr:postcode": "05046", "addr:state": "VT", "amenity": "post_box", "brand": "United States Postal Service", "brand:wikidata": "Q668687", "collection_times": "Mo-Fr 14:30; Sa 11:30", "name": "USPS COLLECTION BOX - PO LOBBY", "note": "ON 12/24 AND 12/31, THIS BOX MAY BE COLLECTED AS EARLY AS 12 NOON.", "nsi_id": "unitedstatespostalservice-a77078", "operator": "United States Postal Service", "operator:short": "USPS", "operator:type": "public", "operator:wikidata": "Q668687", "ref": "0504600003"}, "type": "Feature"}
{"dataset_attributes": {"@spider": "usps_collection_boxes", "spider:collection_time": "2023-10-04T08:25:43.293951"}, "geometry": {"coordinates": [-72.336431, 43.659148], "type": "Point"}, "id": "m9mIOOsMDSwNAuNqUTDZwRqp5a4=", "properties": {"@spider": "usps_collection_boxes", "addr:city": "HARTFORD", "addr:country": "US", "addr:full": "1238 MAPLE ST", "addr:postcode": "05047", "addr:state": "VT", "amenity": "post_box", "brand": "United States Postal Service", "brand:wikidata": "Q668687", "collection_times": "Mo-Fr 17:15; Sa 11:45", "name": "USPS COLLECTION BOX - BLUE BOX", "note": "ON 12/24 AND 12/31, THIS BOX MAY BE COLLECTED AS EARLY AS 12 NOON.", "nsi_id": "unitedstatespostalservice-a77078", "operator": "United States Postal Service", "operator:short": "USPS", "operator:type": "public", "operator:wikidata": "Q668687", "ref": "0504700000"}, "type": "Feature"}
{"dataset_attributes": {"@spider": "usps_collection_boxes", "spider:collection_time": "2023-10-04T08:25:43.293951"}, "geometry": {"coordinates": [-72.336431, 43.659148], "type": "Point"}, "id": "kfFQwduzqPE3PXWM1pwgldmWXZs=", "properties": {"@spider": "usps_collection_boxes", "addr:city": "HARTFORD", "addr:country": "US", "addr:full": "1238 MAPLE ST", "addr:postcode": "05047", "addr:state": "VT", "amenity": "post_box", "brand": "United States Postal Service", "brand:wikidata": "Q668687", "collection_times": "Mo-Fr 17:15; Sa 11:45", "name": "USPS COLLECTION BOX - PO LOBBY", "note": "ON 12/24 AND 12/31, THIS BOX MAY BE COLLECTED AS EARLY AS 12 NOON.", "nsi_id": "unitedstatespostalservice-a77078", "operator": "United States Postal Service", "operator:short": "USPS", "operator:type": "public", "operator:wikidata": "Q668687", "ref": "0504700001"}, "type": "Feature"}
{"dataset_attributes": {"@spider": "usps_collection_boxes", "spider:collection_time": "2023-10-04T08:25:43.293951"}, "geometry": {"coordinates": [-72.336256689, 43.6594133], "type": "Point"}, "id": "Um5J_ls73Nq-yrGccn7nc8_JubU=", "properties": {"@spider": "usps_collection_boxes", "addr:city": "HARTFORD", "addr:country": "US", "addr:full": "1238 MAPLE ST", "addr:postcode": "05047", "addr:state": "VT", "amenity": "post_box", "brand": "United States Postal Service", "brand:wikidata": "Q668687", "collection_times": "Mo-Fr 17:00; Sa 11:30", "name": "USPS COLLECTION BOX - PO LOBBY", "note": "ON 12/24 AND 12/31, THIS BOX MAY BE COLLECTED AS EARLY AS 12 NOON.", "nsi_id": "unitedstatespostalservice-a77078", "operator": "United States Postal Service", "operator:short": "USPS", "operator:type": "public", "operator:wikidata": "Q668687", "ref": "0504700002"}, "type": "Feature"}
{"dataset_attributes": {"@spider": "usps_collection_boxes", "spider:collection_time": "2023-10-04T08:25:43.293951"}, "geometry": {"coordinates": [-72.399419, 43.540231], "type": "Point"}, "id": "REd7FK73L5FCNWFUufTH04IgIcA=", "properties": {"@spider": "usps_collection_boxes", "addr:city": "HARTLAND", "addr:country": "US", "addr:full": "159 US ROUTE 5", "addr:postcode": "05048", "addr:state": "VT", "amenity": "post_box", "brand": "United States Postal Service", "brand:wikidata": "Q668687", "collection_times": "Mo-Fr 16:45; Sa 11:45", "name": "USPS COLLECTION BOX - BLUE BOX", "note": "ON 12/24 AND 12/31, THIS BOX MAY BE COLLECTED AS EARLY AS 12 NOON.", "nsi_id": "unitedstatespostalservice-a77078", "operator": "United States Postal Service", "operator:short": "USPS", "operator:type": "public", "operator:wikidata": "Q668687", "ref": "0504800000"}, "type": "Feature"}
{"dataset_attributes": {"@spider": "usps_collection_boxes", "spider:collection_time": "2023-10-04T08:25:43.293951"}, "geometry": {"coordinates": [-72.399357, 43.540313], "type": "Point"}, "id": "31Fvjwhzi8T2c9OqDlc024wDI1U=", "properties": {"@spider": "usps_collection_boxes", "addr:city": "HARTLAND", "addr:country": "US", "addr:full": "159 US ROUTE 5", "addr:postcode": "05048", "addr:state": "VT", "amenity": "post_box", "brand": "United States Postal Service", "brand:wikidata": "Q668687", "collection_times": "Mo-Fr 16:45; Sa 11:45", "name": "USPS COLLECTION BOX - PO LOBBY", "note": "ON 12/24 AND 12/31, THIS BOX MAY BE COLLECTED AS EARLY AS 12 NOON.", "nsi_id": "unitedstatespostalservice-a77078", "operator": "United States Postal Service", "operator:short": "USPS", "operator:type": "public", "operator:wikidata": "Q668687", "ref": "0504800001"}, "type": "Feature"}
{"dataset_attributes": {"@spider": "usps_collection_boxes", "spider:collection_time": "2023-10-04T08:25:43.293951"}, "geometry": {"coordinates": [-72.399438484, 43.540259306], "type": "Point"}, "id": "4P8hh6aUHHbBXINqNVLWBrf4c9c=", "properties": {"@spider": "usps_collection_boxes", "addr:city": "HARTLAND", "addr:country": "US", "addr:full": "159 US ROUTE 5", "addr:postcode": "05048", "addr:state": "VT", "amenity": "post_box", "brand": "United States Postal Service", "brand:wikidata": "Q668687", "collection_times": "Mo-Fr 16:30; Sa 11:45", "name": "USPS COLLECTION BOX - PO LOBBY", "note": "ON 12/24 AND 12/31, THIS BOX MAY BE COLLECTED AS EARLY AS 12 NOON.", "nsi_id": "unitedstatespostalservice-a77078", "operator": "United States Postal Service", "operator:short": "USPS", "operator:type": "public", "operator:wikidata": "Q668687", "ref": "0504800002"}, "type": "Feature"}
{"dataset_attributes": {"@spider": "usps_collection_boxes", "spider:collection_time": "2023-10-04T08:25:43.293951"}, "geometry": {"coordinates": [-72.06447, 44.264194], "type": "Point"}, "id": "hHvyPdGAifSOCUgr7Bpg0o0zSbw=", "properties": {"@spider": "usps_collection_boxes", "addr:city": "MC INDOE FALLS", "addr:country": "US", "addr:full": "37 ACADEMY LN", "addr:postcode": "05050", "addr:state": "VT", "amenity": "post_box", "brand": "United States Postal Service", "brand:wikidata": "Q668687", "collection_times": "Mo-Fr 16:30; Sa 13:00", "name": "USPS COLLECTION BOX - BLUE BOX", "note": "ON 12/24 AND 12/31, THIS BOX MAY BE COLLECTED AS EARLY AS 12 NOON.", "nsi_id": "unitedstatespostalservice-a77078", "operator": "United States Postal Service", "operator:short": "USPS", "operator:type": "public", "operator:wikidata": "Q668687", "ref": "0505000000"}, "type": "Feature"}
{"dataset_attributes": {"@spider": "usps_collection_boxes", "spider:collection_time": "2023-10-04T08:25:43.293951"}, "geometry": {"coordinates": [-72.064449, 44.264171], "type": "Point"}, "id": "3gI_25atNlc0iTTcLPTP82lo2KI=", "properties": {"@spider": "usps_collection_boxes", "addr:city": "MC INDOE FALLS", "addr:country": "US", "addr:full": "37 ACADEMY LN", "addr:postcode": "05050", "addr:state": "VT", "amenity": "post_box", "brand": "United States Postal Service", "brand:wikidata": "Q668687", "collection_times": "Mo-Fr 16:30; Sa 13:00", "name": "USPS COLLECTION BOX - PO LOBBY", "note": "ON 12/24 AND 12/31, THIS BOX MAY BE COLLECTED AS EARLY AS 12 NOON.", "nsi_id": "unitedstatespostalservice-a77078", "operator": "United States Postal Service", "operator:short": "USPS", "operator:type": "public", "operator:wikidata": "Q668687", "ref": "0505000001"}, "type": "Feature"}
{"dataset_attributes": {"@spider": "usps_collection_boxes", "spider:collection_time": "2023-10-04T08:25:43.293951"}, "geometry": {"coordinates": [-72.064144245, 44.264344043], "type": "Point"}, "id": "y1d7sXiqKhqnUZmIL4QIyujb9Eg=", "properties": {"@spider": "usps_collection_boxes", "addr:city": "MC INDOE FALLS", "addr:country": "US", "addr:full": "37 ACADEMY LN", "addr:postcode": "05050", "addr:state": "VT", "amenity": "post_box", "brand": "United States Postal Service", "brand:wikidata": "Q668687", "collection_times": "Mo-Fr 16:30; Sa 13:00", "name": "USPS COLLECTION BOX - PO LOBBY", "note": "ON 12/24 AND 12/31, THIS BOX MAY BE COLLECTED AS EARLY AS 12 NOON.", "nsi_id": "unitedstatespostalservice-a77078", "operator": "United States Postal Service", "operator:short": "USPS", "operator:type": "public", "operator:wikidata": "Q668687", "ref": "0505000002"}, "type": "Feature"}
{"dataset_attributes": {"@spider": "usps_collection_boxes", "spider:collection_time": "2023-10-04T08:25:43.293951"}, "geometry": {"coordinates": [-72.057577, 44.079383], "type": "Point"}, "id": "27hNzk27_GJkkEYjg_5orU-3BmU=", "properties": {"@spider": "usps_collection_boxes", "addr:city": "NEWBURY", "addr:country": "US", "addr:full": "4982 MAIN ST N", "addr:postcode": "05051", "addr:state": "VT", "amenity": "post_box", "brand": "United States Postal Service", "brand:wikidata": "Q668687", "collection_times": "Mo-Fr 16:45; Sa 11:30", "name": "USPS COLLECTION BOX - BLUE BOX", "note": "ON 12/24 AND 12/31, THIS BOX MAY BE COLLECTED AS EARLY AS 12 NOON.", "nsi_id": "unitedstatespostalservice-a77078", "operator": "United States Postal Service", "operator:short": "USPS", "operator:type": "public", "operator:wikidata": "Q668687", "ref": "0505100000"}, "type": "Feature"}
{"dataset_attributes": {"@spider": "usps_collection_boxes", "spider:collection_time": "2023-10-04T08:25:43.293951"}, "geometry": {"coordinates": [-72.057624, 44.079311], "type": "Point"}, "id": "QG_wpDH9a4PR7PltKHMtRlUynBk=", "properties": {"@spider": "usps_collection_boxes", "addr:city": "NEWBURY", "addr:country": "US", "addr:full": "4982 MAIN ST N", "addr:postcode": "05051", "addr:state": "VT", "amenity": "post_box", "brand": "United States Postal Service", "brand:wikidata": "Q668687", "collection_times": "Mo-Fr 16:30; Sa 11:30", "name": "USPS COLLECTION BOX - PO LOBBY", "note": "ON 12/24 AND 12/31, THIS BOX MAY BE COLLECTED AS EARLY AS 12 NOON.", "nsi_id": "unitedstatespostalservice-a77078", "operator": "United States Postal Service", "operator:short": "USPS", "operator:type": "public", "operator:wikidata": "Q668687", "ref": "0505100001"}, "type": "Feature"}
{"dataset_attributes": {"@spider": "usps_collection_boxes", "spider:collection_time": "2023-10-04T08:25:43.293951"}, "geometry": {"coordinates": [-72.056619233, 44.080081633], "type": "Point"}, "id": "W7aKugTNmCm6pjzu25MMnYGtUIw=", "properties": {"@spider": "usps_collection_boxes", "addr:city": "NEWBURY", "addr:country": "US", "addr:full": "4982 MAIN ST N", "addr:postcode": "05051", "addr:state": "VT", "amenity": "post_box", "brand": "United States Postal Service", "brand:wikidata": "Q668687", "collection_times": "Mo-Fr 16:30; Sa 11:45", "name": "USPS COLLECTION BOX - PO LOBBY", "note": "ON 12/24 AND 12/31, THIS BOX MAY BE COLLECTED AS EARLY AS 12 NOON.", "nsi_id": "unitedstatespostalservice-a77078", "operator": "United States Postal Service", "operator:short": "USPS", "operator:type": "public", "operator:wikidata": "Q668687", "ref": "0505100003"}, "type": "Feature"}
{"dataset_attributes": {"@spider": "usps_collection_boxes", "spider:collection_time": "2023-10-04T08:25:43.293951"}, "geometry": {"coordinates": [-72.356508, 43.590783], "type": "Point"}, "id": "ZDrPOHXQkvgW8Jblf_Cao5VkKRw=", "properties": {"@spider": "usps_collection_boxes", "addr:city": "NORTH HARTLAND", "addr:country": "US", "addr:full": "619 US ROUTE 5", "addr:postcode": "05052", "addr:state": "VT", "amenity": "post_box", "brand": "United States Postal Service", "brand:wikidata": "Q668687", "collection_times": "Mo-Fr 17:00; Sa 11:30", "name": "USPS COLLECTION BOX - PO LOBBY", "note": "ON 12/24 AND 12/31, THIS BOX MAY BE COLLECTED AS EARLY AS 12 NOON.", "nsi_id": "unitedstatespostalservice-a77078", "operator": "United States Postal Service", "operator:short": "USPS", "operator:type": "public", "operator:wikidata": "Q668687", "ref": "0505200000"}, "type": "Feature"}
{"dataset_attributes": {"@spider": "usps_collection_boxes", "spider:collection_time": "2023-10-04T08:25:43.293951"}, "geometry": {"coordinates": [-72.356578, 43.590704], "type": "Point"}, "id": "VEPjSHaxvS2i0UoNhiYHvhk-r44=", "properties": {"@spider": "usps_collection_boxes", "addr:city": "NORTH HARTLAND", "addr:country": "US", "addr:full": "619 US ROUTE 5", "addr:postcode": "05052", "addr:state": "VT", "amenity": "post_box", "brand": "United States Postal Service", "brand:wikidata": "Q668687", "collection_times": "Mo-Fr 17:00; Sa 11:30", "name": "USPS COLLECTION BOX - BLUE BOX", "note": "ON 12/24 AND 12/31, THIS BOX MAY BE COLLECTED AS EARLY AS 12 NOON.", "nsi_id": "unitedstatespostalservice-a77078", "operator": "United States Postal Service", "operator:short": "USPS", "operator:type": "public", "operator:wikidata": "Q668687", "ref": "0505200001"}, "type": "Feature"}
{"dataset_attributes": {"@spider": "usps_collection_boxes", "spider:collection_time": "2023-10-04T08:25:43.293951"}, "geometry": {"coordinates": [-72.356347135, 43.590879051], "type": "Point"}, "id": "pmaq8wHEoYYlyXtn2iTnN_7mlSk=", "properties": {"@spider": "usps_collection_boxes", "addr:city": "NORTH HARTLAND", "addr:country": "US", "addr:full": "619 US ROUTE 5", "addr:postcode": "05052", "addr:state": "VT", "amenity": "post_box", "brand": "United States Postal Service", "brand:wikidata": "Q668687", "collection_times": "Mo-Fr 17:15; Sa 12:00", "name": "USPS COLLECTION BOX - PO LOBBY", "note": "ON 12/24 AND 12/31, THIS BOX MAY BE COLLECTED AS EARLY AS 12 NOON.", "nsi_id": "unitedstatespostalservice-a77078", "operator": "United States Postal Service", "operator:short": "USPS", "operator:type": "public", "operator:wikidata": "Q668687", "ref": "0505200002"}, "type": "Feature"}
{"dataset_attributes": {"@spider": "usps_collection_boxes", "spider:collection_time": "2023-10-04T08:25:43.293951"}, "geometry": {"coordinates": [-72.480021, 43.722026], "type": "Point"}, "id": "svimKBXe4nKYJ7g6CC3iIA3QBaw=", "properties": {"@spider": "usps_collection_boxes", "addr:city": "NORTH POMFRET", "addr:country": "US", "addr:full": "7868 POMFRET RD", "addr:postcode": "05053", "addr:state": "VT", "amenity": "post_box", "brand": "United States Postal Service", "brand:wikidata": "Q668687", "collection_times": "Mo-Fr 11:45; Sa 11:00", "name": "USPS COLLECTION BOX - BLUE BOX", "nsi_id": "unitedstatespostalservice-a77078", "operator": "United States Postal Service", "operator:short": "USPS", "operator:type": "public", "operator:wikidata": "Q668687", "ref": "0505300000"}, "type": "Feature"}
{"dataset_attributes": {"@spider": "usps_collection_boxes", "spider:collection_time": "2023-10-04T08:25:43.293951"}, "geometry": {"coordinates": [-72.480127, 43.721971], "type": "Point"}, "id": "4aqwj64btScrkC8ICNkqm9_yP2I=", "properties": {"@spider": "usps_collection_boxes", "addr:city": "NORTH POMFRET", "addr:country": "US", "addr:full": "7868 POMFRET RD", "addr:postcode": "05053", "addr:state": "VT", "amenity": "post_box", "brand": "United States Postal Service", "brand:wikidata": "Q668687", "collection_times": "Mo-Fr 11:45; Sa 11:00", "name": "USPS COLLECTION BOX - PO LOBBY", "nsi_id": "unitedstatespostalservice-a77078", "operator": "United States Postal Service", "operator:short": "USPS", "operator:type": "public", "operator:wikidata": "Q668687", "ref": "0505300001"}, "type": "Feature"}
{"dataset_attributes": {"@spider": "usps_collection_boxes", "spider:collection_time": "2023-10-04T08:25:43.293951"}, "geometry": {"coordinates": [-72.480091946, 43.721960051], "type": "Point"}, "id": "IvuFyg1p4WKZ0vLx1BYVQEtHT-w=", "properties": {"@spider": "usps_collection_boxes", "addr:city": "NORTH POMFRET", "addr:country": "US", "addr:full": "7868 POMFRET RD", "addr:postcode": "05053", "addr:state": "VT", "amenity": "post_box", "brand": "United States Postal Service", "brand:wikidata": "Q668687", "collection_times": "Mo-Fr 11:45; Sa 10:45", "name": "USPS COLLECTION BOX - PO LOBBY", "nsi_id": "unitedstatespostalservice-a77078", "operator": "United States Postal Service", "operator:short": "USPS", "operator:type": "public", "operator:wikidata": "Q668687", "ref": "0505300002"}, "type": "Feature"}
{"dataset_attributes": {"@spider": "usps_collection_boxes", "spider:collection_time": "2023-10-04T08:25:43.293951"}, "geometry": {"coordinates": [-72.184852, 43.843555], "type": "Point"}, "id": "O355hMJ249cuxMCISL6J56-0uhs=", "properties": {"@spider": "usps_collection_boxes", "addr:city": "NORTH THETFORD", "addr:country": "US", "addr:full": "5378 RTE 5", "addr:postcode": "05054", "addr:state": "VT", "amenity": "post_box", "brand": "United States Postal Service", "brand:wikidata": "Q668687", "collection_times": "Mo-Fr 17:15; Sa 10:45", "name": "USPS COLLECTION BOX - PO LOBBY", "note": "ON 12/24 AND 12/31, THIS BOX MAY BE COLLECTED AS EARLY AS 12 NOON.", "nsi_id": "unitedstatespostalservice-a77078", "operator": "United States Postal Service", "operator:short": "USPS", "operator:type": "public", "operator:wikidata": "Q668687", "ref": "0505400001"}, "type": "Feature"}
{"dataset_attributes": {"@spider": "usps_collection_boxes", "spider:collection_time": "2023-10-04T08:25:43.293951"}, "geometry": {"coordinates": [-72.184772223, 43.842885538], "type": "Point"}, "id": "jto5DzwmRg1mtW0sGNgFGs1BFcs=", "properties": {"@spider": "usps_collection_boxes", "addr:city": "NORTH THETFORD", "addr:country": "US", "addr:full": "5378 RTE 5", "addr:postcode": "05054", "addr:state": "VT", "amenity": "post_box", "brand": "United States Postal Service", "brand:wikidata": "Q668687", "collection_times": "Mo-Fr 17:15; Sa 10:30", "name": "USPS COLLECTION BOX - PO LOBBY", "note": "ON 12/24 AND 12/31, THIS BOX MAY BE COLLECTED AS EARLY AS 12 NOON.", "nsi_id": "unitedstatespostalservice-a77078", "operator": "United States Postal Service", "operator:short": "USPS", "operator:type": "public", "operator:wikidata": "Q668687", "ref": "0505400002"}, "type": "Feature"}
{"dataset_attributes": {"@spider": "usps_collection_boxes", "spider:collection_time": "2023-10-04T08:25:43.293951"}, "geometry": {"coordinates": [-72.308365, 43.713886], "type": "Point"}, "id": "w22x5oIYs5Er1J2I5Vtc5PdtLO8=", "properties": {"@spider": "usps_collection_boxes", "addr:city": "NORWICH", "addr:country": "US", "addr:full": "293 MAIN ST", "addr:postcode": "05055", "addr:state": "VT", "amenity": "post_box", "brand": "United States Postal Service", "brand:wikidata": "Q668687", "collection_times": "Mo-Fr 16:45; Sa 11:00", "name": "USPS COLLECTION BOX - BLUE BOX", "note": "ON 12/24 AND 12/31, THIS BOX MAY BE COLLECTED AS EARLY AS 12 NOON.", "nsi_id": "unitedstatespostalservice-a77078", "operator": "United States Postal Service", "operator:short": "USPS", "operator:type": "public", "operator:wikidata": "Q668687", "ref": "0505500002"}, "type": "Feature"}
{"dataset_attributes": {"@spider": "usps_collection_boxes", "spider:collection_time": "2023-10-04T08:25:43.293951"}, "geometry": {"coordinates": [-72.308309, 43.713801], "type": "Point"}, "id": "o7V7cCCGQ7rfuAJsY7cw9OKqesw=", "properties": {"@spider": "usps_collection_boxes", "addr:city": "NORWICH", "addr:country": "US", "addr:full": "293 MAIN ST", "addr:postcode": "05055", "addr:state": "VT", "amenity": "post_box", "brand": "United States Postal Service", "brand:wikidata": "Q668687", "collection_times": "Mo-Fr 16:45; Sa 11:00", "name": "USPS COLLECTION BOX - BLUE BOX", "note": "ON 12/24 AND 12/31, THIS BOX MAY BE COLLECTED AS EARLY AS 12 NOON.", "nsi_id": "unitedstatespostalservice-a77078", "operator": "United States Postal Service", "operator:short": "USPS", "operator:type": "public", "operator:wikidata": "Q668687", "ref": "0505500004"}, "type": "Feature"}
{"dataset_attributes": {"@spider": "usps_collection_boxes", "spider:collection_time": "2023-10-04T08:25:43.293951"}, "geometry": {"coordinates": [-72.308309, 43.713801], "type": "Point"}, "id": "6t0mKIgSqfwBIus7Ns3b0rOT0K4=", "properties": {"@spider": "usps_collection_boxes", "addr:city": "NORWICH", "addr:country": "US", "addr:full": "293 MAIN ST", "addr:postcode": "05055", "addr:state": "VT", "amenity": "post_box", "brand": "United States Postal Service", "brand:wikidata": "Q668687", "collection_times": "Mo-Fr 17:00; Sa 12:00", "name": "USPS COLLECTION BOX - PO LOBBY", "note": "ON 12/24 AND 12/31, THIS BOX MAY BE COLLECTED AS EARLY AS 12 NOON.", "nsi_id": "unitedstatespostalservice-a77078", "operator": "United States Postal Service", "operator:short": "USPS", "operator:type": "public", "operator:wikidata": "Q668687", "ref": "0505500005"}, "type": "Feature"}
{"dataset_attributes": {"@spider": "usps_collection_boxes", "spider:collection_time": "2023-10-04T08:25:43.293951"}, "geometry": {"coordinates": [-72.308367375, 43.713809917], "type": "Point"}, "id": "5-sOQycNEAfwjc5Zhe42HL0JYnk=", "properties": {"@spider": "usps_collection_boxes", "addr:city": "NORWICH", "addr:country": "US", "addr:full": "293 MAIN ST", "addr:postcode": "05055", "addr:state": "VT", "amenity": "post_box", "brand": "United States Postal Service", "brand:wikidata": "Q668687", "collection_times": "Mo-Fr 17:00; Sa 12:00", "name": "USPS COLLECTION BOX - PO LOBBY", "note": "ON 12/24 AND 12/31, THIS BOX MAY BE COLLECTED AS EARLY AS 12 NOON.", "nsi_id": "unitedstatespostalservice-a77078", "operator": "United States Postal Service", "operator:short": "USPS", "operator:type": "public", "operator:wikidata": "Q668687", "ref": "0505500007"}, "type": "Feature"}
{"dataset_attributes": {"@spider": "usps_collection_boxes", "spider:collection_time": "2023-10-04T08:25:43.293951"}, "geometry": {"coordinates": [-72.72177, 43.535417], "type": "Point"}, "id": "nYmgIFfPr0D39EQDljBi4kim64I=", "properties": {"@spider": "usps_collection_boxes", "addr:city": "PLYMOUTH", "addr:country": "US", "addr:full": "236 COOLIDGE MEMORIAL RD", "addr:postcode": "05056", "addr:state": "VT", "amenity": "post_box", "brand": "United States Postal Service", "brand:wikidata": "Q668687", "collection_times": "Mo-Fr 16:15; Sa 12:15", "name": "USPS COLLECTION BOX - BLUE BOX", "note": "ON 12/24 AND 12/31, THIS BOX MAY BE COLLECTED AS EARLY AS 12 NOON.", "nsi_id": "unitedstatespostalservice-a77078", "operator": "United States Postal Service", "operator:short": "USPS", "operator:type": "public", "operator:wikidata": "Q668687", "ref": "0505600000"}, "type": "Feature"}
{"dataset_attributes": {"@spider": "usps_collection_boxes", "spider:collection_time": "2023-10-04T08:25:43.293951"}, "geometry": {"coordinates": [-72.721693, 43.535474], "type": "Point"}, "id": "tZzzCDXDDf59XCrhLWrJTNC0uF4=", "properties": {"@spider": "usps_collection_boxes", "addr:city": "PLYMOUTH", "addr:country": "US", "addr:full": "236 COOLIDGE MEMORIAL RD", "addr:postcode": "05056", "addr:state": "VT", "amenity": "post_box", "brand": "United States Postal Service", "brand:wikidata": "Q668687", "collection_times": "Mo-Fr 16:15; Sa 12:15", "name": "USPS COLLECTION BOX - PO LOBBY", "note": "ON 12/24 AND 12/31, THIS BOX MAY BE COLLECTED AS EARLY AS 12 NOON.", "nsi_id": "unitedstatespostalservice-a77078", "operator": "United States Postal Service", "operator:short": "USPS", "operator:type": "public", "operator:wikidata": "Q668687", "ref": "0505600001"}, "type": "Feature"}
{"dataset_attributes": {"@spider": "usps_collection_boxes", "spider:collection_time": "2023-10-04T08:25:43.293951"}, "geometry": {"coordinates": [-72.721730868, 43.535486817], "type": "Point"}, "id": "JRiwNzcjv0ZOt23ZVwvTUzWaqrc=", "properties": {"@spider": "usps_collection_boxes", "addr:city": "PLYMOUTH", "addr:country": "US", "addr:full": "236 COOLIDGE MEMORIAL RD", "addr:postcode": "05056", "addr:state": "VT", "amenity": "post_box", "brand": "United States Postal Service", "brand:wikidata": "Q668687", "collection_times": "Mo-Fr 16:30; Sa 12:00", "name": "USPS COLLECTION BOX - PO LOBBY", "note": "ON 12/24 AND 12/31, THIS BOX MAY BE COLLECTED AS EARLY AS 12 NOON.", "nsi_id": "unitedstatespostalservice-a77078", "operator": "United States Postal Service", "operator:short": "USPS", "operator:type": "public", "operator:wikidata": "Q668687", "ref": "0505600002"}, "type": "Feature"}
{"dataset_attributes": {"@spider": "usps_collection_boxes", "spider:collection_time": "2023-10-04T08:25:43.293951"}, "geometry": {"coordinates": [-72.2613009, 43.883484], "type": "Point"}, "id": "iZJlJVV-uWJ7S-tI7kyFkoljsrU=", "properties": {"@spider": "usps_collection_boxes", "addr:city": "POST MILLS", "addr:country": "US", "addr:full": "7788 VT ROUTE 113", "addr:postcode": "05058", "addr:state": "VT", "amenity": "post_box", "brand": "United States Postal Service", "brand:wikidata": "Q668687", "collection_times": "Mo-Fr 16:15; Sa 11:15", "name": "USPS COLLECTION BOX - BLUE BOX", "note": "ON 12/24 AND 12/31, THIS BOX MAY BE COLLECTED AS EARLY AS 12 NOON.", "nsi_id": "unitedstatespostalservice-a77078", "operator": "United States Postal Service", "operator:short": "USPS", "operator:type": "public", "operator:wikidata": "Q668687", "ref": "0505800000"}, "type": "Feature"}
{"dataset_attributes": {"@spider": "usps_collection_boxes", "spider:collection_time": "2023-10-04T08:25:43.293951"}, "geometry": {"coordinates": [-72.261394, 43.88422], "type": "Point"}, "id": "b3LOlsShsnxwPlp3eHq5VwR6Xlk=", "properties": {"@spider": "usps_collection_boxes", "addr:city": "POST MILLS", "addr:country": "US", "addr:full": "7788 VT ROUTE 113", "addr:postcode": "05058", "addr:state": "VT", "amenity": "post_box", "brand": "United States Postal Service", "brand:wikidata": "Q668687", "collection_times": "Mo-Fr 12:45; Sa 11:15", "name": "USPS COLLECTION BOX - PO LOBBY", "note": "ON 12/24 AND 12/31, THIS BOX MAY BE COLLECTED AS EARLY AS 12 NOON.", "nsi_id": "unitedstatespostalservice-a77078", "operator": "United States Postal Service", "operator:short": "USPS", "operator:type": "public", "operator:wikidata": "Q668687", "ref": "0505800001"}, "type": "Feature"}
{"dataset_attributes": {"@spider": "usps_collection_boxes", "spider:collection_time": "2023-10-04T08:25:43.293951"}, "geometry": {"coordinates": [-72.261583609, 43.883697374], "type": "Point"}, "id": "fGzRpHGCwGGRAdLitDUNZW0Yurw=", "properties": {"@spider": "usps_collection_boxes", "addr:city": "POST MILLS", "addr:country": "US", "addr:full": "7788 VT ROUTE 113", "addr:postcode": "05058", "addr:state": "VT", "amenity": "post_box", "brand": "United States Postal Service", "brand:wikidata": "Q668687", "collection_times": "Mo-Fr 13:00; Sa 11:30", "name": "USPS COLLECTION BOX - PO LOBBY", "note": "ON 12/24 AND 12/31, THIS BOX MAY BE COLLECTED AS EARLY AS 12 NOON.", "nsi_id": "unitedstatespostalservice-a77078", "operator": "United States Postal Service", "operator:short": "USPS", "operator:type": "public", "operator:wikidata": "Q668687", "ref": "0505800002"}, "type": "Feature"}
{"dataset_attributes": {"@spider": "usps_collection_boxes", "spider:collection_time": "2023-10-04T08:25:43.293951"}, "geometry": {"coordinates": [-72.420715, 43.647559], "type": "Point"}, "id": "FvfrTdW0837BuCcHWqXeRNUJNv0=", "properties": {"@spider": "usps_collection_boxes", "addr:city": "QUECHEE", "addr:country": "US", "addr:full": "1 VILLAGE GREEN CIR", "addr:postcode": "05059", "addr:state": "VT", "amenity": "post_box", "brand": "United States Postal Service", "brand:wikidata": "Q668687", "collection_times": "Mo-Fr 16:45; Sa 11:00", "name": "USPS COLLECTION BOX - BLUE BOX", "note": "ON 12/24 AND 12/31, THIS BOX MAY BE COLLECTED AS EARLY AS 12 NOON.", "nsi_id": "unitedstatespostalservice-a77078", "operator": "United States Postal Service", "operator:short": "USPS", "operator:type": "public", "operator:wikidata": "Q668687", "ref": "0505900000"}, "type": "Feature"}
{"dataset_attributes": {"@spider": "usps_collection_boxes", "spider:collection_time": "2023-10-04T08:25:43.293951"}, "geometry": {"coordinates": [-72.420706, 43.647556], "type": "Point"}, "id": "p_zvm5uSZ467Z_osbyGjO1_Iz-U=", "properties": {"@spider": "usps_collection_boxes", "addr:city": "QUECHEE", "addr:country": "US", "addr:full": "1 VILLAGE GREEN CIR", "addr:postcode": "05059", "addr:state": "VT", "amenity": "post_box", "brand": "United States Postal Service", "brand:wikidata": "Q668687", "collection_times": "Mo-Fr 16:45; Sa 11:00", "name": "USPS COLLECTION BOX - PO LOBBY", "note": "ON 12/24 AND 12/31, THIS BOX MAY BE COLLECTED AS EARLY AS 12 NOON.", "nsi_id": "unitedstatespostalservice-a77078", "operator": "United States Postal Service", "operator:short": "USPS", "operator:type": "public", "operator:wikidata": "Q668687", "ref": "0505900001"}, "type": "Feature"}
{"dataset_attributes": {"@spider": "usps_collection_boxes", "spider:collection_time": "2023-10-04T08:25:43.293951"}, "geometry": {"coordinates": [-72.422200955, 43.647603181], "type": "Point"}, "id": "qyoaDC0x1mp1jx5twfmopp1BKdA=", "properties": {"@spider": "usps_collection_boxes", "addr:city": "QUECHEE", "addr:country": "US", "addr:full": "91 VILLAGE GREEN CIR", "addr:postcode": "05059", "addr:state": "VT", "amenity": "post_box", "brand": "United States Postal Service", "brand:wikidata": "Q668687", "collection_times": "Mo-Fr 17:00; Sa 11:00", "name": "USPS COLLECTION BOX - PO LOBBY", "note": "ON 12/24 AND 12/31, THIS BOX MAY BE COLLECTED AS EARLY AS 12 NOON.", "nsi_id": "unitedstatespostalservice-a77078", "operator": "United States Postal Service", "operator:short": "USPS", "operator:type": "public", "operator:wikidata": "Q668687", "ref": "0505900002"}, "type": "Feature"}
{"dataset_attributes": {"@spider": "usps_collection_boxes", "spider:collection_time": "2023-10-04T08:25:43.293951"}, "geometry": {"coordinates": [-72.666517, 43.922986], "type": "Point"}, "id": "uj6ccmpTymzEeCWbZMeHeYSr47s=", "properties": {"@spider": "usps_collection_boxes", "addr:city": "RANDOLPH", "addr:country": "US", "addr:full": "9 SALISBURY ST", "addr:postcode": "05060", "addr:state": "VT", "amenity": "post_box", "brand": "United States Postal Service", "brand:wikidata": "Q668687", "collection_times": "Mo-Fr 16:45; Sa 13:30", "name": "USPS COLLECTION BOX - BLUE BOX", "note": "ON 12/24 AND 12/31, THIS BOX MAY BE COLLECTED AS EARLY AS 12 NOON.", "nsi_id": "unitedstatespostalservice-a77078", "operator": "United States Postal Service", "operator:short": "USPS", "operator:type": "public", "operator:wikidata": "Q668687", "ref": "0506000002"}, "type": "Feature"}
{"dataset_attributes": {"@spider": "usps_collection_boxes", "spider:collection_time": "2023-10-04T08:25:43.293951"}, "geometry": {"coordinates": [-72.6653991, 43.924713], "type": "Point"}, "id": "4Ox5Uln2n7ARX1REcgj2ktfnMuk=", "properties": {"@spider": "usps_collection_boxes", "addr:city": "RANDOLPH", "addr:country": "US", "addr:full": "65 N MAIN ST", "addr:postcode": "05060", "addr:state": "VT", "amenity": "post_box", "brand": "United States Postal Service", "brand:wikidata": "Q668687", "collection_times": "Mo-Sa 09:30", "name": "USPS COLLECTION BOX - BLUE BOX", "nsi_id": "unitedstatespostalservice-a77078", "operator": "United States Postal Service", "operator:short": "USPS", "operator:type": "public", "operator:wikidata": "Q668687", "ref": "0506000010"}, "type": "Feature"}
{"dataset_attributes": {"@spider": "usps_collection_boxes", "spider:collection_time": "2023-10-04T08:25:43.293951"}, "geometry": {"coordinates": [-72.666647, 43.922982], "type": "Point"}, "id": "zI-qN4lUGzEDMg3DX34aMiySqa0=", "properties": {"@spider": "usps_collection_boxes", "addr:city": "RANDOLPH", "addr:country": "US", "addr:full": "9 SALISBURY ST", "addr:postcode": "05060", "addr:state": "VT", "amenity": "post_box", "brand": "United States Postal Service", "brand:wikidata": "Q668687", "collection_times": "Mo-Fr 16:45; Sa 14:30", "name": "USPS COLLECTION BOX - PO LOBBY", "note": "ON 12/24 AND 12/31, THIS BOX MAY BE COLLECTED AS EARLY AS 12 NOON.", "nsi_id": "unitedstatespostalservice-a77078", "operator": "United States Postal Service", "operator:short": "USPS", "operator:type": "public", "operator:wikidata": "Q668687", "ref": "0506000014"}, "type": "Feature"}
{"dataset_attributes": {"@spider": "usps_collection_boxes", "spider:collection_time": "2023-10-04T08:25:43.293951"}, "geometry": {"coordinates": [-72.666281, 43.922942], "type": "Point"}, "id": "DX-R7rARhZg_bZe_2fofSCSg1i0=", "properties": {"@spider": "usps_collection_boxes", "addr:city": "RANDOLPH", "addr:country": "US", "addr:full": "7 SALISBURY ST", "addr:postcode": "05060", "addr:state": "VT", "amenity": "post_box", "brand": "United States Postal Service", "brand:wikidata": "Q668687", "collection_times": "Mo-Fr 16:45; Sa 13:30", "name": "USPS COLLECTION BOX - BLUE BOX", "note": "ON 12/24 AND 12/31, THIS BOX MAY BE COLLECTED AS EARLY AS 12 NOON.", "nsi_id": "unitedstatespostalservice-a77078", "operator": "United States Postal Service", "operator:short": "USPS", "operator:type": "public", "operator:wikidata": "Q668687", "ref": "0506000017"}, "type": "Feature"}
{"dataset_attributes": {"@spider": "usps_collection_boxes", "spider:collection_time": "2023-10-04T08:25:43.293951"}, "geometry": {"coordinates": [-72.666507369, 43.922974242], "type": "Point"}, "id": "ydHjEqRbxZ_uHT64llGYGJ3xrjE=", "properties": {"@spider": "usps_collection_boxes", "addr:city": "RANDOLPH", "addr:country": "US", "addr:full": "9 SALISBURY ST", "addr:postcode": "05060", "addr:state": "VT", "amenity": "post_box", "brand": "United States Postal Service", "brand:wikidata": "Q668687", "collection_times": "Mo-Fr 17:00; Sa 12:00", "name": "USPS COLLECTION BOX - PO LOBBY", "note": "ON 12/24 AND 12/31, THIS BOX MAY BE COLLECTED AS EARLY AS 12 NOON.", "nsi_id": "unitedstatespostalservice-a77078", "operator": "United States Postal Service", "operator:short": "USPS", "operator:type": "public", "operator:wikidata": "Q668687", "ref": "0506000018"}, "type": "Feature"}
{"dataset_attributes": {"@spider": "usps_collection_boxes", "spider:collection_time": "2023-10-04T08:25:43.293951"}, "geometry": {"coordinates": [-72.607189, 43.941513], "type": "Point"}, "id": "TFQ52HmXHlaQcetm8CKEdR9JKuo=", "properties": {"@spider": "usps_collection_boxes", "addr:city": "RANDOLPH CENTER", "addr:country": "US", "addr:full": "2952 VT ROUTE 66", "addr:postcode": "05061", "addr:state": "VT", "amenity": "post_box", "brand": "United States Postal Service", "brand:wikidata": "Q668687", "collection_times": "Mo-Fr 16:00; Sa 11:30", "name": "USPS COLLECTION BOX - BLUE BOX", "note": "ON 12/24 AND 12/31, THIS BOX MAY BE COLLECTED AS EARLY AS 12 NOON.", "nsi_id": "unitedstatespostalservice-a77078", "operator": "United States Postal Service", "operator:short": "USPS", "operator:type": "public", "operator:wikidata": "Q668687", "ref": "0506100000"}, "type": "Feature"}
{"dataset_attributes": {"@spider": "usps_collection_boxes", "spider:collection_time": "2023-10-04T08:25:43.293951"}, "geometry": {"coordinates": [-72.607227, 43.941515], "type": "Point"}, "id": "--6ebr-qhT0SF5SyBZ1A4mR-yoU=", "properties": {"@spider": "usps_collection_boxes", "addr:city": "RANDOLPH CENTER", "addr:country": "US", "addr:full": "2952 VT ROUTE 66", "addr:postcode": "05061", "addr:state": "VT", "amenity": "post_box", "brand": "United States Postal Service", "brand:wikidata": "Q668687", "collection_times": "Mo-Fr 16:30; Sa 11:30", "name": "USPS COLLECTION BOX - PO LOBBY", "note": "ON 12/24 AND 12/31, THIS BOX MAY BE COLLECTED AS EARLY AS 12 NOON.", "nsi_id": "unitedstatespostalservice-a77078", "operator": "United States Postal Service", "operator:short": "USPS", "operator:type": "public", "operator:wikidata": "Q668687", "ref": "0506100001"}, "type": "Feature"}
{"dataset_attributes": {"@spider": "usps_collection_boxes", "spider:collection_time": "2023-10-04T08:25:43.293951"}, "geometry": {"coordinates": [-72.60717452, 43.941419884], "type": "Point"}, "id": "6ZLllWwxJqct244hVNesJhn7k6s=", "properties": {"@spider": "usps_collection_boxes", "addr:city": "RANDOLPH CENTER", "addr:country": "US", "addr:full": "2952 VT ROUTE 66", "addr:postcode": "05061", "addr:state": "VT", "amenity": "post_box", "brand": "United States Postal Service", "brand:wikidata": "Q668687", "collection_times": "Mo-Fr 16:30; Sa 11:30", "name": "USPS COLLECTION BOX - PO LOBBY", "note": "ON 12/24 AND 12/31, THIS BOX MAY BE COLLECTED AS EARLY AS 12 NOON.", "nsi_id": "unitedstatespostalservice-a77078", "operator": "United States Postal Service", "operator:short": "USPS", "operator:type": "public", "operator:wikidata": "Q668687", "ref": "0506100003"}, "type": "Feature"}
{"dataset_attributes": {"@spider": "usps_collection_boxes", "spider:collection_time": "2023-10-04T08:25:43.293951"}, "geometry": {"coordinates": [-72.537188, 43.455551], "type": "Point"}, "id": "ll7hYjurCjrlWmiRhRlmG4eehLs=", "properties": {"@spider": "usps_collection_boxes", "addr:city": "READING", "addr:country": "US", "addr:full": "799 ROUTE 106", "addr:postcode": "05062", "addr:state": "VT", "amenity": "post_box", "brand": "United States Postal Service", "brand:wikidata": "Q668687", "collection_times": "Mo-Fr 16:30; Sa 12:00", "name": "USPS COLLECTION BOX - BLUE BOX", "note": "ON 12/24 AND 12/31, THIS BOX MAY BE COLLECTED AS EARLY AS 12 NOON.", "nsi_id": "unitedstatespostalservice-a77078", "operator": "United States Postal Service", "operator:short": "USPS", "operator:type": "public", "operator:wikidata": "Q668687", "ref": "0506200000"}, "type": "Feature"}
{"dataset_attributes": {"@spider": "usps_collection_boxes", "spider:collection_time": "2023-10-04T08:25:43.293951"}, "geometry": {"coordinates": [-72.537188, 43.455551], "type": "Point"}, "id": "mIFRg9OGxK9hKSoQ4u8eHXIzT1g=", "properties": {"@spider": "usps_collection_boxes", "addr:city": "READING", "addr:country": "US", "addr:full": "799 ROUTE 106", "addr:postcode": "05062", "addr:state": "VT", "amenity": "post_box", "brand": "United States Postal Service", "brand:wikidata": "Q668687", "collection_times": "Mo-Fr 16:30; Sa 12:00", "name": "USPS COLLECTION BOX - PO LOBBY", "note": "ON 12/24 AND 12/31, THIS BOX MAY BE COLLECTED AS EARLY AS 12 NOON.", "nsi_id": "unitedstatespostalservice-a77078", "operator": "United States Postal Service", "operator:short": "USPS", "operator:type": "public", "operator:wikidata": "Q668687", "ref": "0506200001"}, "type": "Feature"}
{"dataset_attributes": {"@spider": "usps_collection_boxes", "spider:collection_time": "2023-10-04T08:25:43.293951"}, "geometry": {"coordinates": [-72.537188741, 43.455545172], "type": "Point"}, "id": "nOkv9cd548ToryLhNi4rTVWdtCA=", "properties": {"@spider": "usps_collection_boxes", "addr:city": "READING", "addr:country": "US", "addr:full": "799 ROUTE 106", "addr:postcode": "05062", "addr:state": "VT", "amenity": "post_box", "brand": "United States Postal Service", "brand:wikidata": "Q668687", "collection_times": "Mo-Fr 16:30; Sa 12:00", "name": "USPS COLLECTION BOX - PO LOBBY", "note": "ON 12/24 AND 12/31, THIS BOX MAY BE COLLECTED AS EARLY AS 12 NOON.", "nsi_id": "unitedstatespostalservice-a77078", "operator": "United States Postal Service", "operator:short": "USPS", "operator:type": "public", "operator:wikidata": "Q668687", "ref": "0506200002"}, "type": "Feature"}
{"dataset_attributes": {"@spider": "usps_collection_boxes", "spider:collection_time": "2023-10-04T08:25:43.293951"}, "geometry": {"coordinates": [-72.45564, 43.783871], "type": "Point"}, "id": "Szogk1bJwjKJD0_oab4REV_KjN0=", "properties": {"@spider": "usps_collection_boxes", "addr:city": "SHARON", "addr:country": "US", "addr:full": "5094 ROUTE 14", "addr:postcode": "05065", "addr:state": "VT", "amenity": "post_box", "brand": "United States Postal Service", "brand:wikidata": "Q668687", "collection_times": "Mo-Fr 16:45; Sa 11:00", "name": "USPS COLLECTION BOX - BLUE BOX", "note": "ON 12/24 AND 12/31, THIS BOX MAY BE COLLECTED AS EARLY AS 12 NOON.", "nsi_id": "unitedstatespostalservice-a77078", "operator": "United States Postal Service", "operator:short": "USPS", "operator:type": "public", "operator:wikidata": "Q668687", "ref": "0506500000"}, "type": "Feature"}
{"dataset_attributes": {"@spider": "usps_collection_boxes", "spider:collection_time": "2023-10-04T08:25:43.293951"}, "geometry": {"coordinates": [-72.455584, 43.783851], "type": "Point"}, "id": "n--6OfuHOjNxAWiVZp9uIeNSc1E=", "properties": {"@spider": "usps_collection_boxes", "addr:city": "SHARON", "addr:country": "US", "addr:full": "5094 ROUTE 14", "addr:postcode": "05065", "addr:state": "VT", "amenity": "post_box", "brand": "United States Postal Service", "brand:wikidata": "Q668687", "collection_times": "Mo-Fr 16:45; Sa 11:00", "name": "USPS COLLECTION BOX - PO LOBBY", "note": "ON 12/24 AND 12/31, THIS BOX MAY BE COLLECTED AS EARLY AS 12 NOON.", "nsi_id": "unitedstatespostalservice-a77078", "operator": "United States Postal Service", "operator:short": "USPS", "operator:type": "public", "operator:wikidata": "Q668687", "ref": "0506500001"}, "type": "Feature"}
{"dataset_attributes": {"@spider": "usps_collection_boxes", "spider:collection_time": "2023-10-04T08:25:43.293951"}, "geometry": {"coordinates": [-72.45570448, 43.783854358], "type": "Point"}, "id": "Xg1ZlQb-okm2Cl6shYGQFcceX5Q=", "properties": {"@spider": "usps_collection_boxes", "addr:city": "SHARON", "addr:country": "US", "addr:full": "5094 ROUTE 14", "addr:postcode": "05065", "addr:state": "VT", "amenity": "post_box", "brand": "United States Postal Service", "brand:wikidata": "Q668687", "collection_times": "Mo-Fr 16:30; Sa 11:00", "name": "USPS COLLECTION BOX - PO LOBBY", "note": "ON 12/24 AND 12/31, THIS BOX MAY BE COLLECTED AS EARLY AS 12 NOON.", "nsi_id": "unitedstatespostalservice-a77078", "operator": "United States Postal Service", "operator:short": "USPS", "operator:type": "public", "operator:wikidata": "Q668687", "ref": "0506500002"}, "type": "Feature"}
{"dataset_attributes": {"@spider": "usps_collection_boxes", "spider:collection_time": "2023-10-04T08:25:43.293951"}, "geometry": {"coordinates": [-72.5387920218, 43.6648920102], "type": "Point"}, "id": "Rn6lC1CaZyFVtVfjkFN9-MXUxiU=", "properties": {"@spider": "usps_collection_boxes", "addr:city": "SOUTH POMFRET", "addr:country": "US", "addr:full": "2035 POMFRET RD UNIT B", "addr:postcode": "05067", "addr:state": "VT", "amenity": "post_box", "brand": "United States Postal Service", "brand:wikidata": "Q668687", "collection_times": "Mo-Fr 16:15; Sa 11:45", "name": "USPS COLLECTION BOX - BLUE BOX", "note": "ON 12/24 AND 12/31, THIS BOX MAY BE COLLECTED AS EARLY AS 12 NOON.", "nsi_id": "unitedstatespostalservice-a77078", "operator": "United States Postal Service", "operator:short": "USPS", "operator:type": "public", "operator:wikidata": "Q668687", "ref": "0506700003"}, "type": "Feature"}
{"dataset_attributes": {"@spider": "usps_collection_boxes", "spider:collection_time": "2023-10-04T08:25:43.293951"}, "geometry": {"coordinates": [-72.5387920218, 43.6648920102], "type": "Point"}, "id": "c2GqwdyHzPb6KrV1wtuOOreoHcE=", "properties": {"@spider": "usps_collection_boxes", "addr:city": "SOUTH POMFRET", "addr:country": "US", "addr:full": "2035 POMFRET RD UNIT B", "addr:postcode": "05067", "addr:state": "VT", "amenity": "post_box", "brand": "United States Postal Service", "brand:wikidata": "Q668687", "collection_times": "Mo-Fr 16:30; Sa 11:30", "name": "USPS COLLECTION BOX - PO LOBBY", "note": "ON 12/24 AND 12/31, THIS BOX MAY BE COLLECTED AS EARLY AS 12 NOON.", "nsi_id": "unitedstatespostalservice-a77078", "operator": "United States Postal Service", "operator:short": "USPS", "operator:type": "public", "operator:wikidata": "Q668687", "ref": "0506700004"}, "type": "Feature"}
{"dataset_attributes": {"@spider": "usps_collection_boxes", "spider:collection_time": "2023-10-04T08:25:43.293951"}, "geometry": {"coordinates": [-72.5387920218, 43.6648920102], "type": "Point"}, "id": "I-_6ZOq5x5zyp7yFkJSxCceIwa8=", "properties": {"@spider": "usps_collection_boxes", "addr:city": "SOUTH POMFRET", "addr:country": "US", "addr:full": "2035 POMFRET RD UNIT B", "addr:postcode": "05067", "addr:state": "VT", "amenity": "post_box", "brand": "United States Postal Service", "brand:wikidata": "Q668687", "collection_times": "Mo-Fr 16:15; Sa 11:45", "name": "USPS COLLECTION BOX - PO LOBBY", "note": "ON 12/24 AND 12/31, THIS BOX MAY BE COLLECTED AS EARLY AS 12 NOON.", "nsi_id": "unitedstatespostalservice-a77078", "operator": "United States Postal Service", "operator:short": "USPS", "operator:type": "public", "operator:wikidata": "Q668687", "ref": "0506700005"}, "type": "Feature"}
{"dataset_attributes": {"@spider": "usps_collection_boxes", "spider:collection_time": "2023-10-04T08:25:43.293951"}, "geometry": {"coordinates": [-72.522097, 43.81992], "type": "Point"}, "id": "QXspYSmG2JLlo2AldpRGt_d78yY=", "properties": {"@spider": "usps_collection_boxes", "addr:city": "SOUTH ROYALTON", "addr:country": "US", "addr:full": "239 CHELSEA ST", "addr:postcode": "05068", "addr:state": "VT", "amenity": "post_box", "brand": "United States Postal Service", "brand:wikidata": "Q668687", "collection_times": "Mo-Fr 16:30; Sa 10:30", "name": "USPS COLLECTION BOX - BLUE BOX", "note": "ON 12/24 AND 12/31, THIS BOX MAY BE COLLECTED AS EARLY AS 12 NOON.", "nsi_id": "unitedstatespostalservice-a77078", "operator": "United States Postal Service", "operator:short": "USPS", "operator:type": "public", "operator:wikidata": "Q668687", "ref": "0506800001"}, "type": "Feature"}
{"dataset_attributes": {"@spider": "usps_collection_boxes", "spider:collection_time": "2023-10-04T08:25:43.293951"}, "geometry": {"coordinates": [-72.522037, 43.820003], "type": "Point"}, "id": "ibkSqEdwTcU6bGs902UIp8QSL6E=", "properties": {"@spider": "usps_collection_boxes", "addr:city": "SOUTH ROYALTON", "addr:country": "US", "addr:full": "239 CHELSEA ST", "addr:postcode": "05068", "addr:state": "VT", "amenity": "post_box", "brand": "United States Postal Service", "brand:wikidata": "Q668687", "collection_times": "Mo-Fr 17:00; Sa 11:00", "name": "USPS COLLECTION BOX - PO LOBBY", "note": "ON 12/24 AND 12/31, THIS BOX MAY BE COLLECTED AS EARLY AS 12 NOON.", "nsi_id": "unitedstatespostalservice-a77078", "operator": "United States Postal Service", "operator:short": "USPS", "operator:type": "public", "operator:wikidata": "Q668687", "ref": "0506800002"}, "type": "Feature"}
{"dataset_attributes": {"@spider": "usps_collection_boxes", "spider:collection_time": "2023-10-04T08:25:43.293951"}, "geometry": {"coordinates": [-72.522185602, 43.81985171], "type": "Point"}, "id": "Q5kyrkefhlMwSptRSB0Fufavy3k=", "properties": {"@spider": "usps_collection_boxes", "addr:city": "SOUTH ROYALTON", "addr:country": "US", "addr:full": "239 CHELSEA ST", "addr:postcode": "05068", "addr:state": "VT", "amenity": "post_box", "brand": "United States Postal Service", "brand:wikidata": "Q668687", "collection_times": "Mo-Fr 17:00; Sa 11:00", "name": "USPS COLLECTION BOX - PO LOBBY", "note": "ON 12/24 AND 12/31, THIS BOX MAY BE COLLECTED AS EARLY AS 12 NOON.", "nsi_id": "unitedstatespostalservice-a77078", "operator": "United States Postal Service", "operator:short": "USPS", "operator:type": "public", "operator:wikidata": "Q668687", "ref": "0506800004"}, "type": "Feature"}
{"dataset_attributes": {"@spider": "usps_collection_boxes", "spider:collection_time": "2023-10-04T08:25:43.293951"}, "geometry": {"coordinates": [-72.139707, 44.1868], "type": "Point"}, "id": "CdsuaYNi-HukNIq467_TrD48q4M=", "properties": {"@spider": "usps_collection_boxes", "addr:city": "SOUTH RYEGATE", "addr:country": "US", "addr:full": "2544 SCOTT HWY", "addr:postcode": "05069", "addr:state": "VT", "amenity": "post_box", "brand": "United States Postal Service", "brand:wikidata": "Q668687", "collection_times": "Mo-Fr 16:45; Sa 11:45", "name": "USPS COLLECTION BOX - BLUE BOX", "note": "ON 12/24 AND 12/31, THIS BOX MAY BE COLLECTED AS EARLY AS 12 NOON.", "nsi_id": "unitedstatespostalservice-a77078", "operator": "United States Postal Service", "operator:short": "USPS", "operator:type": "public", "operator:wikidata": "Q668687", "ref": "0506900000"}, "type": "Feature"}
{"dataset_attributes": {"@spider": "usps_collection_boxes", "spider:collection_time": "2023-10-04T08:25:43.293951"}, "geometry": {"coordinates": [-72.139781, 44.186784], "type": "Point"}, "id": "apsNVwK9Qs34Nfh16GHZayQ1rMw=", "properties": {"@spider": "usps_collection_boxes", "addr:city": "SOUTH RYEGATE", "addr:country": "US", "addr:full": "2544 SCOTT HWY", "addr:postcode": "05069", "addr:state": "VT", "amenity": "post_box", "brand": "United States Postal Service", "brand:wikidata": "Q668687", "collection_times": "Mo-Fr 16:30; Sa 11:45", "name": "USPS COLLECTION BOX - PO LOBBY", "note": "ON 12/24 AND 12/31, THIS BOX MAY BE COLLECTED AS EARLY AS 12 NOON.", "nsi_id": "unitedstatespostalservice-a77078", "operator": "United States Postal Service", "operator:short": "USPS", "operator:type": "public", "operator:wikidata": "Q668687", "ref": "0506900001"}, "type": "Feature"}
{"dataset_attributes": {"@spider": "usps_collection_boxes", "spider:collection_time": "2023-10-04T08:25:43.293951"}, "geometry": {"coordinates": [-72.139727236, 44.186795326], "type": "Point"}, "id": "OadxJfF5CMvE_VRcfNtgDkVp7yQ=", "properties": {"@spider": "usps_collection_boxes", "addr:city": "SOUTH RYEGATE", "addr:country": "US", "addr:full": "2544 SCOTT HWY", "addr:postcode": "05069", "addr:state": "VT", "amenity": "post_box", "brand": "United States Postal Service", "brand:wikidata": "Q668687", "collection_times": "Mo-Fr 16:30; Sa 11:30", "name": "USPS COLLECTION BOX - PO LOBBY", "note": "ON 12/24 AND 12/31, THIS BOX MAY BE COLLECTED AS EARLY AS 12 NOON.", "nsi_id": "unitedstatespostalservice-a77078", "operator": "United States Postal Service", "operator:short": "USPS", "operator:type": "public", "operator:wikidata": "Q668687", "ref": "0506900003"}, "type": "Feature"}
{"dataset_attributes": {"@spider": "usps_collection_boxes", "spider:collection_time": "2023-10-04T08:25:43.293951"}, "geometry": {"coordinates": [-72.360665, 43.834072], "type": "Point"}, "id": "AJXeRxRw2zplGQTlcTfOkyeX6Gg=", "properties": {"@spider": "usps_collection_boxes", "addr:city": "SOUTH STRAFFORD", "addr:country": "US", "addr:full": "216 VT RTE 132", "addr:postcode": "05070", "addr:state": "VT", "amenity": "post_box", "brand": "United States Postal Service", "brand:wikidata": "Q668687", "collection_times": "Mo-Fr 17:00; Sa 11:30", "name": "USPS COLLECTION BOX - PO LOBBY", "note": "ON 12/24 AND 12/31, THIS BOX MAY BE COLLECTED AS EARLY AS 12 NOON.", "nsi_id": "unitedstatespostalservice-a77078", "operator": "United States Postal Service", "operator:short": "USPS", "operator:type": "public", "operator:wikidata": "Q668687", "ref": "0507000001"}, "type": "Feature"}
{"dataset_attributes": {"@spider": "usps_collection_boxes", "spider:collection_time": "2023-10-04T08:25:43.293951"}, "geometry": {"coordinates": [-72.360428867, 43.834057354], "type": "Point"}, "id": "ZurU5CUU-jY1iWUas1rIfdAob7c=", "properties": {"@spider": "usps_collection_boxes", "addr:city": "SOUTH STRAFFORD", "addr:country": "US", "addr:full": "216 VT RTE 132", "addr:postcode": "05070", "addr:state": "VT", "amenity": "post_box", "brand": "United States Postal Service", "brand:wikidata": "Q668687", "collection_times": "Mo-Fr 17:00; Sa 11:30", "name": "USPS COLLECTION BOX - PO LOBBY", "note": "ON 12/24 AND 12/31, THIS BOX MAY BE COLLECTED AS EARLY AS 12 NOON.", "nsi_id": "unitedstatespostalservice-a77078", "operator": "United States Postal Service", "operator:short": "USPS", "operator:type": "public", "operator:wikidata": "Q668687", "ref": "0507000002"}, "type": "Feature"}
{"dataset_attributes": {"@spider": "usps_collection_boxes", "spider:collection_time": "2023-10-04T08:25:43.293951"}, "geometry": {"coordinates": [-72.5330190312, 43.5649993689], "type": "Point"}, "id": "pq9KE_pQS__8D01EQ-zXpiD-jBs=", "properties": {"@spider": "usps_collection_boxes", "addr:city": "SOUTH WOODSTOCK", "addr:country": "US", "addr:full": "4800 SOUTH RD", "addr:postcode": "05071", "addr:state": "VT", "amenity": "post_box", "brand": "United States Postal Service", "brand:wikidata": "Q668687", "collection_times": "Mo-Sa 11:45", "name": "USPS COLLECTION BOX - BLUE BOX", "nsi_id": "unitedstatespostalservice-a77078", "operator": "United States Postal Service", "operator:short": "USPS", "operator:type": "public", "operator:wikidata": "Q668687", "ref": "0507100000"}, "type": "Feature"}
{"dataset_attributes": {"@spider": "usps_collection_boxes", "spider:collection_time": "2023-10-04T08:25:43.293951"}, "geometry": {"coordinates": [-72.5330190312, 43.5649993689], "type": "Point"}, "id": "e80CJJ1j1xoBQMdS7Xf-2lXSEnY=", "properties": {"@spider": "usps_collection_boxes", "addr:city": "SOUTH WOODSTOCK", "addr:country": "US", "addr:full": "4800 SOUTH RD", "addr:postcode": "05071", "addr:state": "VT", "amenity": "post_box", "brand": "United States Postal Service", "brand:wikidata": "Q668687", "collection_times": "Mo-Sa 11:45", "name": "USPS COLLECTION BOX - PO LOBBY", "nsi_id": "unitedstatespostalservice-a77078", "operator": "United States Postal Service", "operator:short": "USPS", "operator:type": "public", "operator:wikidata": "Q668687", "ref": "0507100001"}, "type": "Feature"}
{"dataset_attributes": {"@spider": "usps_collection_boxes", "spider:collection_time": "2023-10-04T08:25:43.293951"}, "geometry": {"coordinates": [-72.533019031, 43.564999369], "type": "Point"}, "id": "mimh3ZG9Yjs6A82bbG2otgaH47M=", "properties": {"@spider": "usps_collection_boxes", "addr:city": "SOUTH WOODSTOCK", "addr:country": "US", "addr:full": "4800 SOUTH RD", "addr:postcode": "05071", "addr:state": "VT", "amenity": "post_box", "brand": "United States Postal Service", "brand:wikidata": "Q668687", "collection_times": "Mo-Fr 12:00; Sa 11:30", "name": "USPS COLLECTION BOX - PO LOBBY", "nsi_id": "unitedstatespostalservice-a77078", "operator": "United States Postal Service", "operator:short": "USPS", "operator:type": "public", "operator:wikidata": "Q668687", "ref": "0507100002"}, "type": "Feature"}
{"dataset_attributes": {"@spider": "usps_collection_boxes", "spider:collection_time": "2023-10-04T08:25:43.293951"}, "geometry": {"coordinates": [-72.37715, 43.86502], "type": "Point"}, "id": "5DVghUlVeOgXRWYQBMf2s393Mr0=", "properties": {"@spider": "usps_collection_boxes", "addr:city": "STRAFFORD", "addr:country": "US", "addr:full": "1 BROOK RD", "addr:postcode": "05072", "addr:state": "VT", "amenity": "post_box", "brand": "United States Postal Service", "brand:wikidata": "Q668687", "collection_times": "Mo-Fr 16:30; Sa 11:45", "name": "USPS COLLECTION BOX - BLUE BOX", "note": "ON 12/24 AND 12/31, THIS BOX MAY BE COLLECTED AS EARLY AS 12 NOON.", "nsi_id": "unitedstatespostalservice-a77078", "operator": "United States Postal Service", "operator:short": "USPS", "operator:type": "public", "operator:wikidata": "Q668687", "ref": "0507200000"}, "type": "Feature"}
{"dataset_attributes": {"@spider": "usps_collection_boxes", "spider:collection_time": "2023-10-04T08:25:43.293951"}, "geometry": {"coordinates": [-72.37706, 43.864952], "type": "Point"}, "id": "Pav5JNlPQKxVvk09sfz1rtvGZ0I=", "properties": {"@spider": "usps_collection_boxes", "addr:city": "STRAFFORD", "addr:country": "US", "addr:full": "1 BROOK RD", "addr:postcode": "05072", "addr:state": "VT", "amenity": "post_box", "brand": "United States Postal Service", "brand:wikidata": "Q668687", "collection_times": "Mo-Fr 16:30; Sa 11:45", "name": "USPS COLLECTION BOX - PO LOBBY", "note": "ON 12/24 AND 12/31, THIS BOX MAY BE COLLECTED AS EARLY AS 12 NOON.", "nsi_id": "unitedstatespostalservice-a77078", "operator": "United States Postal Service", "operator:short": "USPS", "operator:type": "public", "operator:wikidata": "Q668687", "ref": "0507200001"}, "type": "Feature"}
{"dataset_attributes": {"@spider": "usps_collection_boxes", "spider:collection_time": "2023-10-04T08:25:43.293951"}, "geometry": {"coordinates": [-72.377121121, 43.864978652], "type": "Point"}, "id": "9ixoi46u17LO91ru5GLHHljF62Y=", "properties": {"@spider": "usps_collection_boxes", "addr:city": "STRAFFORD", "addr:country": "US", "addr:full": "1 BROOK RD", "addr:postcode": "05072", "addr:state": "VT", "amenity": "post_box", "brand": "United States Postal Service", "brand:wikidata": "Q668687", "collection_times": "Mo-Fr 16:30; Sa 11:30", "name": "USPS COLLECTION BOX - PO LOBBY", "note": "ON 12/24 AND 12/31, THIS BOX MAY BE COLLECTED AS EARLY AS 12 NOON.", "nsi_id": "unitedstatespostalservice-a77078", "operator": "United States Postal Service", "operator:short": "USPS", "operator:type": "public", "operator:wikidata": "Q668687", "ref": "0507200003"}, "type": "Feature"}
{"dataset_attributes": {"@spider": "usps_collection_boxes", "spider:collection_time": "2023-10-04T08:25:43.293951"}, "geometry": {"coordinates": [-72.469527, 43.630583], "type": "Point"}, "id": "JxGpup9vcrYsJFuUbdTmdpViwR0=", "properties": {"@spider": "usps_collection_boxes", "addr:city": "TAFTSVILLE", "addr:country": "US", "addr:full": "33 HAPPY VALLEY RD", "addr:postcode": "05073", "addr:state": "VT", "amenity": "post_box", "brand": "United States Postal Service", "brand:wikidata": "Q668687", "collection_times": "Mo-Fr 16:30; Sa 10:45", "name": "USPS COLLECTION BOX - PO LOBBY", "note": "ON 12/24 AND 12/31, THIS BOX MAY BE COLLECTED AS EARLY AS 12 NOON.", "nsi_id": "unitedstatespostalservice-a77078", "operator": "United States Postal Service", "operator:short": "USPS", "operator:type": "public", "operator:wikidata": "Q668687", "ref": "0507300001"}, "type": "Feature"}
{"dataset_attributes": {"@spider": "usps_collection_boxes", "spider:collection_time": "2023-10-04T08:25:43.293951"}, "geometry": {"coordinates": [-72.4691203, 43.630852538], "type": "Point"}, "id": "JW8drUIQAflGsgEp8agv11WAmWU=", "properties": {"@spider": "usps_collection_boxes", "addr:city": "TAFTSVILLE", "addr:country": "US", "addr:full": "33 HAPPY VALLEY RD", "addr:postcode": "05073", "addr:state": "VT", "amenity": "post_box", "brand": "United States Postal Service", "brand:wikidata": "Q668687", "collection_times": "Mo-Fr 16:30; Sa 11:00", "name": "USPS COLLECTION BOX - PO LOBBY", "note": "ON 12/24 AND 12/31, THIS BOX MAY BE COLLECTED AS EARLY AS 12 NOON.", "nsi_id": "unitedstatespostalservice-a77078", "operator": "United States Postal Service", "operator:short": "USPS", "operator:type": "public", "operator:wikidata": "Q668687", "ref": "0507300002"}, "type": "Feature"}
{"dataset_attributes": {"@spider": "usps_collection_boxes", "spider:collection_time": "2023-10-04T08:25:43.293951"}, "geometry": {"coordinates": [-72.231835, 43.820297], "type": "Point"}, "id": "cyy2FOKQ4nSA7csfsBhHDriQyeI=", "properties": {"@spider": "usps_collection_boxes", "addr:city": "THETFORD", "addr:country": "US", "addr:full": "2734 RTE 113", "addr:postcode": "05074", "addr:state": "VT", "amenity": "post_box", "brand": "United States Postal Service", "brand:wikidata": "Q668687", "collection_times": "Mo-Fr 16:30; Sa 11:30", "name": "USPS COLLECTION BOX - BLUE BOX", "note": "ON 12/24 AND 12/31, THIS BOX MAY BE COLLECTED AS EARLY AS 12 NOON.", "nsi_id": "unitedstatespostalservice-a77078", "operator": "United States Postal Service", "operator:short": "USPS", "operator:type": "public", "operator:wikidata": "Q668687", "ref": "0507400000"}, "type": "Feature"}
{"dataset_attributes": {"@spider": "usps_collection_boxes", "spider:collection_time": "2023-10-04T08:25:43.293951"}, "geometry": {"coordinates": [-72.231835, 43.820297], "type": "Point"}, "id": "E676fZsGacSJYstmO-BCRZ8xevs=", "properties": {"@spider": "usps_collection_boxes", "addr:city": "THETFORD", "addr:country": "US", "addr:full": "2734 RTE 113", "addr:postcode": "05074", "addr:state": "VT", "amenity": "post_box", "brand": "United States Postal Service", "brand:wikidata": "Q668687", "collection_times": "Mo-Fr 16:45; Sa 11:30", "name": "USPS COLLECTION BOX - PO LOBBY", "note": "ON 12/24 AND 12/31, THIS BOX MAY BE COLLECTED AS EARLY AS 12 NOON.", "nsi_id": "unitedstatespostalservice-a77078", "operator": "United States Postal Service", "operator:short": "USPS", "operator:type": "public", "operator:wikidata": "Q668687", "ref": "0507400002"}, "type": "Feature"}
{"dataset_attributes": {"@spider": "usps_collection_boxes", "spider:collection_time": "2023-10-04T08:25:43.293951"}, "geometry": {"coordinates": [-72.232108069, 43.820270977], "type": "Point"}, "id": "MCbkUOs2t3FMHLMHrstyrNi42Fk=", "properties": {"@spider": "usps_collection_boxes", "addr:city": "THETFORD", "addr:country": "US", "addr:full": "2734 RTE 113", "addr:postcode": "05074", "addr:state": "VT", "amenity": "post_box", "brand": "United States Postal Service", "brand:wikidata": "Q668687", "collection_times": "Mo-Fr 16:45; Sa 11:30", "name": "USPS COLLECTION BOX - PO LOBBY", "note": "ON 12/24 AND 12/31, THIS BOX MAY BE COLLECTED AS EARLY AS 12 NOON.", "nsi_id": "unitedstatespostalservice-a77078", "operator": "United States Postal Service", "operator:short": "USPS", "operator:type": "public", "operator:wikidata": "Q668687", "ref": "0507400003"}, "type": "Feature"}
{"dataset_attributes": {"@spider": "usps_collection_boxes", "spider:collection_time": "2023-10-04T08:25:43.293951"}, "geometry": {"coordinates": [-72.2472049725, 43.8321479847], "type": "Point"}, "id": "VAMPxqVoeHzEPRRluwRBzxVNles=", "properties": {"@spider": "usps_collection_boxes", "addr:city": "THETFORD CENTER", "addr:country": "US", "addr:full": "3956 ROUTE 113", "addr:postcode": "05075", "addr:state": "VT", "amenity": "post_box", "brand": "United States Postal Service", "brand:wikidata": "Q668687", "collection_times": "Mo-Fr 16:30; Sa 10:30", "name": "USPS COLLECTION BOX - BLUE BOX", "note": "ON 12/24 AND 12/31, THIS BOX MAY BE COLLECTED AS EARLY AS 12 NOON.", "nsi_id": "unitedstatespostalservice-a77078", "operator": "United States Postal Service", "operator:short": "USPS", "operator:type": "public", "operator:wikidata": "Q668687", "ref": "0507500000"}, "type": "Feature"}
{"dataset_attributes": {"@spider": "usps_collection_boxes", "spider:collection_time": "2023-10-04T08:25:43.293951"}, "geometry": {"coordinates": [-72.2472049725, 43.8321479847], "type": "Point"}, "id": "Z4yjHflo0-pMlrcGOzTqarqFcOg=", "properties": {"@spider": "usps_collection_boxes", "addr:city": "THETFORD CENTER", "addr:country": "US", "addr:full": "3956 ROUTE 113", "addr:postcode": "05075", "addr:state": "VT", "amenity": "post_box", "brand": "United States Postal Service", "brand:wikidata": "Q668687", "collection_times": "Mo-Fr 14:00; Sa 10:30", "name": "USPS COLLECTION BOX - PO LOBBY", "note": "ON 12/24 AND 12/31, THIS BOX MAY BE COLLECTED AS EARLY AS 12 NOON.", "nsi_id": "unitedstatespostalservice-a77078", "operator": "United States Postal Service", "operator:short": "USPS", "operator:type": "public", "operator:wikidata": "Q668687", "ref": "0507500001"}, "type": "Feature"}
{"dataset_attributes": {"@spider": "usps_collection_boxes", "spider:collection_time": "2023-10-04T08:25:43.293951"}, "geometry": {"coordinates": [-72.2472049725, 43.8321479847], "type": "Point"}, "id": "blH1qchS1E3lszOQoF0T2aLbNr8=", "properties": {"@spider": "usps_collection_boxes", "addr:city": "THETFORD CENTER", "addr:country": "US", "addr:full": "3956 ROUTE 113", "addr:postcode": "05075", "addr:state": "VT", "amenity": "post_box", "brand": "United States Postal Service", "brand:wikidata": "Q668687", "collection_times": "Mo-Fr 14:00; Sa 10:30", "name": "USPS COLLECTION BOX - PO LOBBY", "note": "ON 12/24 AND 12/31, THIS BOX MAY BE COLLECTED AS EARLY AS 12 NOON.", "nsi_id": "unitedstatespostalservice-a77078", "operator": "United States Postal Service", "operator:short": "USPS", "operator:type": "public", "operator:wikidata": "Q668687", "ref": "0507500002"}, "type": "Feature"}
{"dataset_attributes": {"@spider": "usps_collection_boxes", "spider:collection_time": "2023-10-04T08:25:43.293951"}, "geometry": {"coordinates": [-72.49213, 43.889691], "type": "Point"}, "id": "7ooP1b5_lxXlf1I7gMUwjhFGVYs=", "properties": {"@spider": "usps_collection_boxes", "addr:city": "TUNBRIDGE", "addr:country": "US", "addr:full": "292 VT ROUTE 110", "addr:postcode": "05077", "addr:state": "VT", "amenity": "post_box", "brand": "United States Postal Service", "brand:wikidata": "Q668687", "collection_times": "Mo-Fr 16:45; Sa 11:45", "name": "USPS COLLECTION BOX - BLUE BOX", "note": "ON 12/24 AND 12/31, THIS BOX MAY BE COLLECTED AS EARLY AS 12 NOON.", "nsi_id": "unitedstatespostalservice-a77078", "operator": "United States Postal Service", "operator:short": "USPS", "operator:type": "public", "operator:wikidata": "Q668687", "ref": "0507700000"}, "type": "Feature"}
{"dataset_attributes": {"@spider": "usps_collection_boxes", "spider:collection_time": "2023-10-04T08:25:43.293951"}, "geometry": {"coordinates": [-72.492097, 43.889782], "type": "Point"}, "id": "LODTa_Sx2e4IN26EUjKuyKi3wGI=", "properties": {"@spider": "usps_collection_boxes", "addr:city": "TUNBRIDGE", "addr:country": "US", "addr:full": "292 VT ROUTE 110", "addr:postcode": "05077", "addr:state": "VT", "amenity": "post_box", "brand": "United States Postal Service", "brand:wikidata": "Q668687", "collection_times": "Mo-Fr 16:45; Sa 11:45", "name": "USPS COLLECTION BOX - PO LOBBY", "note": "ON 12/24 AND 12/31, THIS BOX MAY BE COLLECTED AS EARLY AS 12 NOON.", "nsi_id": "unitedstatespostalservice-a77078", "operator": "United States Postal Service", "operator:short": "USPS", "operator:type": "public", "operator:wikidata": "Q668687", "ref": "0507700001"}, "type": "Feature"}
{"dataset_attributes": {"@spider": "usps_collection_boxes", "spider:collection_time": "2023-10-04T08:25:43.293951"}, "geometry": {"coordinates": [-72.492099245, 43.889687604], "type": "Point"}, "id": "OOy6eVInlB6HLVB1Dmg4kw6tqrA=", "properties": {"@spider": "usps_collection_boxes", "addr:city": "TUNBRIDGE", "addr:country": "US", "addr:full": "292 VT ROUTE 110", "addr:postcode": "05077", "addr:state": "VT", "amenity": "post_box", "brand": "United States Postal Service", "brand:wikidata": "Q668687", "collection_times": "Mo-Fr 16:30; Sa 11:30", "name": "USPS COLLECTION BOX - PO LOBBY", "note": "ON 12/24 AND 12/31, THIS BOX MAY BE COLLECTED AS EARLY AS 12 NOON.", "nsi_id": "unitedstatespostalservice-a77078", "operator": "United States Postal Service", "operator:short": "USPS", "operator:type": "public", "operator:wikidata": "Q668687", "ref": "0507700002"}, "type": "Feature"}
{"dataset_attributes": {"@spider": "usps_collection_boxes", "spider:collection_time": "2023-10-04T08:25:43.293951"}, "geometry": {"coordinates": [-72.341272, 43.973584], "type": "Point"}, "id": "Ob6efoOIjMGHzOPLwDGSNZBXLz4=", "properties": {"@spider": "usps_collection_boxes", "addr:city": "VERSHIRE", "addr:country": "US", "addr:full": "6319 VT ROUTE 113", "addr:postcode": "05079", "addr:state": "VT", "amenity": "post_box", "brand": "United States Postal Service", "brand:wikidata": "Q668687", "collection_times": "Mo-Fr 16:00; Sa 11:30", "name": "USPS COLLECTION BOX - BLUE BOX", "note": "ON 12/24 AND 12/31, THIS BOX MAY BE COLLECTED AS EARLY AS 12 NOON.", "nsi_id": "unitedstatespostalservice-a77078", "operator": "United States Postal Service", "operator:short": "USPS", "operator:type": "public", "operator:wikidata": "Q668687", "ref": "0507900000"}, "type": "Feature"}
{"dataset_attributes": {"@spider": "usps_collection_boxes", "spider:collection_time": "2023-10-04T08:25:43.293951"}, "geometry": {"coordinates": [-72.341146, 43.973597], "type": "Point"}, "id": "3y9ngptik5rISU2NoCcV_fKTEMQ=", "properties": {"@spider": "usps_collection_boxes", "addr:city": "VERSHIRE", "addr:country": "US", "addr:full": "6319 VT ROUTE 113", "addr:postcode": "05079", "addr:state": "VT", "amenity": "post_box", "brand": "United States Postal Service", "brand:wikidata": "Q668687", "collection_times": "Mo-Fr 16:00; Sa 11:30", "name": "USPS COLLECTION BOX - PO LOBBY", "note": "ON 12/24 AND 12/31, THIS BOX MAY BE COLLECTED AS EARLY AS 12 NOON.", "nsi_id": "unitedstatespostalservice-a77078", "operator": "United States Postal Service", "operator:short": "USPS", "operator:type": "public", "operator:wikidata": "Q668687", "ref": "0507900001"}, "type": "Feature"}
{"dataset_attributes": {"@spider": "usps_collection_boxes", "spider:collection_time": "2023-10-04T08:25:43.293951"}, "geometry": {"coordinates": [-72.313132264, 43.966472323], "type": "Point"}, "id": "QrNeb6JUyviMMKaw2iWv9wFEVo0=", "properties": {"@spider": "usps_collection_boxes", "addr:city": "VERSHIRE", "addr:country": "US", "addr:full": "6319 VT ROUTE 113", "addr:postcode": "05079", "addr:state": "VT", "amenity": "post_box", "brand": "United States Postal Service", "brand:wikidata": "Q668687", "collection_times": "Mo-Fr 16:30; Sa 12:00", "name": "USPS COLLECTION BOX - PO LOBBY", "note": "ON 12/24 AND 12/31, THIS BOX MAY BE COLLECTED AS EARLY AS 12 NOON.", "nsi_id": "unitedstatespostalservice-a77078", "operator": "United States Postal Service", "operator:short": "USPS", "operator:type": "public", "operator:wikidata": "Q668687", "ref": "0507900002"}, "type": "Feature"}
{"dataset_attributes": {"@spider": "usps_collection_boxes", "spider:collection_time": "2023-10-04T08:25:43.293951"}, "geometry": {"coordinates": [-72.04693, 44.153751], "type": "Point"}, "id": "29943Uyac5PsIw3ek-Hv-ERtnu0=", "properties": {"@spider": "usps_collection_boxes", "addr:city": "WELLS RIVER", "addr:country": "US", "addr:full": "31 MAIN ST", "addr:postcode": "05081", "addr:state": "VT", "amenity": "post_box", "brand": "United States Postal Service", "brand:wikidata": "Q668687", "collection_times": "Mo-Fr 16:15; Sa 11:00", "name": "USPS COLLECTION BOX - BLUE BOX", "note": "ON 12/24 AND 12/31, THIS BOX MAY BE COLLECTED AS EARLY AS 12 NOON.", "nsi_id": "unitedstatespostalservice-a77078", "operator": "United States Postal Service", "operator:short": "USPS", "operator:type": "public", "operator:wikidata": "Q668687", "ref": "0508100000"}, "type": "Feature"}
{"dataset_attributes": {"@spider": "usps_collection_boxes", "spider:collection_time": "2023-10-04T08:25:43.293951"}, "geometry": {"coordinates": [-72.04693, 44.153751], "type": "Point"}, "id": "446Kuh31knWXPxCOl6y_yKZ0v1Q=", "properties": {"@spider": "usps_collection_boxes", "addr:city": "WELLS RIVER", "addr:country": "US", "addr:full": "31 MAIN ST", "addr:postcode": "05081", "addr:state": "VT", "amenity": "post_box", "brand": "United States Postal Service", "brand:wikidata": "Q668687", "collection_times": "Mo-Fr 16:15; Sa 11:00", "name": "USPS COLLECTION BOX - PO LOBBY", "note": "ON 12/24 AND 12/31, THIS BOX MAY BE COLLECTED AS EARLY AS 12 NOON.", "nsi_id": "unitedstatespostalservice-a77078", "operator": "United States Postal Service", "operator:short": "USPS", "operator:type": "public", "operator:wikidata": "Q668687", "ref": "0508100004"}, "type": "Feature"}
{"dataset_attributes": {"@spider": "usps_collection_boxes", "spider:collection_time": "2023-10-04T08:25:43.293951"}, "geometry": {"coordinates": [-72.046934961, 44.153650886], "type": "Point"}, "id": "Oz0xVD1bKoQq1WMV6_r0CI6XRFw=", "properties": {"@spider": "usps_collection_boxes", "addr:city": "WELLS RIVER", "addr:country": "US", "addr:full": "31 MAIN ST", "addr:postcode": "05081", "addr:state": "VT", "amenity": "post_box", "brand": "United States Postal Service", "brand:wikidata": "Q668687", "collection_times": "Mo-Fr 16:00; Sa 11:00", "name": "USPS COLLECTION BOX - PO LOBBY", "note": "ON 12/24 AND 12/31, THIS BOX MAY BE COLLECTED AS EARLY AS 12 NOON.", "nsi_id": "unitedstatespostalservice-a77078", "operator": "United States Postal Service", "operator:short": "USPS", "operator:type": "public", "operator:wikidata": "Q668687", "ref": "0508100005"}, "type": "Feature"}
{"dataset_attributes": {"@spider": "usps_collection_boxes", "spider:collection_time": "2023-10-04T08:25:43.293951"}, "geometry": {"coordinates": [-72.1241842, 44.064307], "type": "Point"}, "id": "Rm9II5-c40tRpWE3G2iqyDJfz-I=", "properties": {"@spider": "usps_collection_boxes", "addr:city": "WEST NEWBURY", "addr:country": "US", "addr:full": "3060 SNAKE RD", "addr:postcode": "05085", "addr:state": "VT", "amenity": "post_box", "brand": "United States Postal Service", "brand:wikidata": "Q668687", "collection_times": "Mo-Sa 11:15", "name": "USPS COLLECTION BOX - BLUE BOX", "nsi_id": "unitedstatespostalservice-a77078", "operator": "United States Postal Service", "operator:short": "USPS", "operator:type": "public", "operator:wikidata": "Q668687", "ref": "0508500000"}, "type": "Feature"}
{"dataset_attributes": {"@spider": "usps_collection_boxes", "spider:collection_time": "2023-10-04T08:25:43.293951"}, "geometry": {"coordinates": [-72.123864, 44.064138], "type": "Point"}, "id": "nuaVPC4clf7a-5CMdsxTmynidcM=", "properties": {"@spider": "usps_collection_boxes", "addr:city": "WEST NEWBURY", "addr:country": "US", "addr:full": "3060 SNAKE RD", "addr:postcode": "05085", "addr:state": "VT", "amenity": "post_box", "brand": "United States Postal Service", "brand:wikidata": "Q668687", "collection_times": "Mo-Fr 11:00; Sa 10:30", "name": "USPS COLLECTION BOX - PO LOBBY", "nsi_id": "unitedstatespostalservice-a77078", "operator": "United States Postal Service", "operator:short": "USPS", "operator:type": "public", "operator:wikidata": "Q668687", "ref": "0508500001"}, "type": "Feature"}
{"dataset_attributes": {"@spider": "usps_collection_boxes", "spider:collection_time": "2023-10-04T08:25:43.293951"}, "geometry": {"coordinates": [-72.124191248, 44.064218491], "type": "Point"}, "id": "2x4vN74VkhBgiuaR-77rqOmccwk=", "properties": {"@spider": "usps_collection_boxes", "addr:city": "WEST NEWBURY", "addr:country": "US", "addr:full": "3060 SNAKE RD", "addr:postcode": "05085", "addr:state": "VT", "amenity": "post_box", "brand": "United States Postal Service", "brand:wikidata": "Q668687", "collection_times": "Mo-Fr 11:00; Sa 10:30", "name": "USPS COLLECTION BOX - PO LOBBY", "nsi_id": "unitedstatespostalservice-a77078", "operator": "United States Postal Service", "operator:short": "USPS", "operator:type": "public", "operator:wikidata": "Q668687", "ref": "0508500002"}, "type": "Feature"}
{"dataset_attributes": {"@spider": "usps_collection_boxes", "spider:collection_time": "2023-10-04T08:25:43.293951"}, "geometry": {"coordinates": [-72.3129671, 44.115707], "type": "Point"}, "id": "XZR1cDriyP4BiO772SSHvIkPouI=", "properties": {"@spider": "usps_collection_boxes", "addr:city": "WEST TOPSHAM", "addr:country": "US", "addr:full": "7 BATTEN RD", "addr:postcode": "05086", "addr:state": "VT", "amenity": "post_box", "brand": "United States Postal Service", "brand:wikidata": "Q668687", "collection_times": "Mo-Fr 12:15; Sa 11:45", "name": "USPS COLLECTION BOX - BLUE BOX", "note": "ON 12/24 AND 12/31, THIS BOX MAY BE COLLECTED AS EARLY AS 12 NOON.", "nsi_id": "unitedstatespostalservice-a77078", "operator": "United States Postal Service", "operator:short": "USPS", "operator:type": "public", "operator:wikidata": "Q668687", "ref": "0508600000"}, "type": "Feature"}
{"dataset_attributes": {"@spider": "usps_collection_boxes", "spider:collection_time": "2023-10-04T08:25:43.293951"}, "geometry": {"coordinates": [-72.313716, 44.115986], "type": "Point"}, "id": "y7UCygM37oxz36sb_r2PBHjRzl4=", "properties": {"@spider": "usps_collection_boxes", "addr:city": "WEST TOPSHAM", "addr:country": "US", "addr:full": "7 BATTEN RD", "addr:postcode": "05086", "addr:state": "VT", "amenity": "post_box", "brand": "United States Postal Service", "brand:wikidata": "Q668687", "collection_times": "Mo-Fr 12:00; Sa 11:45", "name": "USPS COLLECTION BOX - PO LOBBY", "nsi_id": "unitedstatespostalservice-a77078", "operator": "United States Postal Service", "operator:short": "USPS", "operator:type": "public", "operator:wikidata": "Q668687", "ref": "0508600001"}, "type": "Feature"}
{"dataset_attributes": {"@spider": "usps_collection_boxes", "spider:collection_time": "2023-10-04T08:25:43.293951"}, "geometry": {"coordinates": [-72.312876765, 44.115835674], "type": "Point"}, "id": "OSiPM3NNdVI6vOLtkbTa7UPMyxU=", "properties": {"@spider": "usps_collection_boxes", "addr:city": "WEST TOPSHAM", "addr:country": "US", "addr:full": "7 BATTEN RD", "addr:postcode": "05086", "addr:state": "VT", "amenity": "post_box", "brand": "United States Postal Service", "brand:wikidata": "Q668687", "collection_times": "Mo-Fr 12:00; Sa 11:30", "name": "USPS COLLECTION BOX - PO LOBBY", "nsi_id": "unitedstatespostalservice-a77078", "operator": "United States Postal Service", "operator:short": "USPS", "operator:type": "public", "operator:wikidata": "Q668687", "ref": "0508600003"}, "type": "Feature"}
{"dataset_attributes": {"@spider": "usps_collection_boxes", "spider:collection_time": "2023-10-04T08:25:43.293951"}, "geometry": {"coordinates": [-72.308659, 43.672891], "type": "Point"}, "id": "1QuAGwj2qriAdrY4DOlzaZxlbEY=", "properties": {"@spider": "usps_collection_boxes", "addr:city": "WILDER", "addr:country": "US", "addr:full": "80 DEPOT ST", "addr:postcode": "05088", "addr:state": "VT", "amenity": "post_box", "brand": "United States Postal Service", "brand:wikidata": "Q668687", "collection_times": "Mo-Fr 17:00; Sa 11:30", "name": "USPS COLLECTION BOX - BLUE BOX", "note": "ON 12/24 AND 12/31, THIS BOX MAY BE COLLECTED AS EARLY AS 12 NOON.", "nsi_id": "unitedstatespostalservice-a77078", "operator": "United States Postal Service", "operator:short": "USPS", "operator:type": "public", "operator:wikidata": "Q668687", "ref": "0508800000"}, "type": "Feature"}
{"dataset_attributes": {"@spider": "usps_collection_boxes", "spider:collection_time": "2023-10-04T08:25:43.293951"}, "geometry": {"coordinates": [-72.308723, 43.672864], "type": "Point"}, "id": "LV4xxOh3dlY3Tg4fJ4UcTFVfvtI=", "properties": {"@spider": "usps_collection_boxes", "addr:city": "WILDER", "addr:country": "US", "addr:full": "80 DEPOT ST", "addr:postcode": "05088", "addr:state": "VT", "amenity": "post_box", "brand": "United States Postal Service", "brand:wikidata": "Q668687", "collection_times": "Mo-Fr 17:00; Sa 11:30", "name": "USPS COLLECTION BOX - PO LOBBY", "note": "ON 12/24 AND 12/31, THIS BOX MAY BE COLLECTED AS EARLY AS 12 NOON.", "nsi_id": "unitedstatespostalservice-a77078", "operator": "United States Postal Service", "operator:short": "USPS", "operator:type": "public", "operator:wikidata": "Q668687", "ref": "0508800002"}, "type": "Feature"}
{"dataset_attributes": {"@spider": "usps_collection_boxes", "spider:collection_time": "2023-10-04T08:25:43.293951"}, "geometry": {"coordinates": [-72.307701251, 43.672877453], "type": "Point"}, "id": "ud6cXiFA34NrGhWXuTP-lNox6Fs=", "properties": {"@spider": "usps_collection_boxes", "addr:city": "WILDER", "addr:country": "US", "addr:full": "80 DEPOT ST", "addr:postcode": "05088", "addr:state": "VT", "amenity": "post_box", "brand": "United States Postal Service", "brand:wikidata": "Q668687", "collection_times": "Mo-Fr 17:00; Sa 11:30", "name": "USPS COLLECTION BOX - PO LOBBY", "note": "ON 12/24 AND 12/31, THIS BOX MAY BE COLLECTED AS EARLY AS 12 NOON.", "nsi_id": "unitedstatespostalservice-a77078", "operator": "United States Postal Service", "operator:short": "USPS", "operator:type": "public", "operator:wikidata": "Q668687", "ref": "0508800005"}, "type": "Feature"}
{"dataset_attributes": {"@spider": "usps_collection_boxes", "spider:collection_time": "2023-10-04T08:25:43.293951"}, "geometry": {"coordinates": [-72.3937878, 43.477185], "type": "Point"}, "id": "H9wMSAvOvWRaZpjMnJxN-4TvqKE=", "properties": {"@spider": "usps_collection_boxes", "addr:city": "WINDSOR", "addr:country": "US", "addr:full": "4 CLOUGH AVE", "addr:postcode": "05089", "addr:state": "VT", "amenity": "post_box", "brand": "United States Postal Service", "brand:wikidata": "Q668687", "collection_times": "Mo-Sa 12:30", "name": "USPS COLLECTION BOX - BLUE BOX", "note": "ON 12/24 AND 12/31, THIS BOX MAY BE COLLECTED AS EARLY AS 12 NOON.", "nsi_id": "unitedstatespostalservice-a77078", "operator": "United States Postal Service", "operator:short": "USPS", "operator:type": "public", "operator:wikidata": "Q668687", "ref": "0508900006"}, "type": "Feature"}
{"dataset_attributes": {"@spider": "usps_collection_boxes", "spider:collection_time": "2023-10-04T08:25:43.293951"}, "geometry": {"coordinates": [-72.3897779, 43.48066], "type": "Point"}, "id": "amSogq47ghn8OIMPh0D6GocGHlU=", "properties": {"@spider": "usps_collection_boxes", "addr:city": "WINDSOR", "addr:country": "US", "addr:full": "57 STATE ST", "addr:postcode": "05089", "addr:state": "VT", "amenity": "post_box", "brand": "United States Postal Service", "brand:wikidata": "Q668687", "collection_times": "Mo-Sa 13:45", "name": "USPS COLLECTION BOX - BLUE BOX", "note": "ON 12/24 AND 12/31, THIS BOX MAY BE COLLECTED AS EARLY AS 12 NOON.", "nsi_id": "unitedstatespostalservice-a77078", "operator": "United States Postal Service", "operator:short": "USPS", "operator:type": "public", "operator:wikidata": "Q668687", "ref": "0508900009"}, "type": "Feature"}
{"dataset_attributes": {"@spider": "usps_collection_boxes", "spider:collection_time": "2023-10-04T08:25:43.293951"}, "geometry": {"coordinates": [-72.385848, 43.481091], "type": "Point"}, "id": "d46P8R6FTDWAvATDjo6eQUBjx-8=", "properties": {"@spider": "usps_collection_boxes", "addr:city": "WINDSOR", "addr:country": "US", "addr:full": "57 MAIN ST", "addr:postcode": "05089", "addr:state": "VT", "amenity": "post_box", "brand": "United States Postal Service", "brand:wikidata": "Q668687", "collection_times": "Mo-Fr 17:00; Sa 14:15", "name": "USPS COLLECTION BOX - BLUE BOX", "note": "ON 12/24 AND 12/31, THIS BOX MAY BE COLLECTED AS EARLY AS 12 NOON.", "nsi_id": "unitedstatespostalservice-a77078", "operator": "United States Postal Service", "operator:short": "USPS", "operator:type": "public", "operator:wikidata": "Q668687", "ref": "0508900011"}, "type": "Feature"}
{"dataset_attributes": {"@spider": "usps_collection_boxes", "spider:collection_time": "2023-10-04T08:25:43.293951"}, "geometry": {"coordinates": [-72.385848, 43.481091], "type": "Point"}, "id": "tCG9owQoiXv3r4A0aJv8JWVC5fI=", "properties": {"@spider": "usps_collection_boxes", "addr:city": "WINDSOR", "addr:country": "US", "addr:full": "57 MAIN ST", "addr:postcode": "05089", "addr:state": "VT", "amenity": "post_box", "brand": "United States Postal Service", "brand:wikidata": "Q668687", "collection_times": "Mo-Fr 17:00; Sa 14:15", "name": "USPS COLLECTION BOX - BLUE BOX", "note": "ON 12/24 AND 12/31, THIS BOX MAY BE COLLECTED AS EARLY AS 12 NOON.", "nsi_id": "unitedstatespostalservice-a77078", "operator": "United States Postal Service", "operator:short": "USPS", "operator:type": "public", "operator:wikidata": "Q668687", "ref": "0508900012"}, "type": "Feature"}
{"dataset_attributes": {"@spider": "usps_collection_boxes", "spider:collection_time": "2023-10-04T08:25:43.293951"}, "geometry": {"coordinates": [-72.3848404, 43.486309], "type": "Point"}, "id": "dSp39PdYsP5xpRiiS0CGLRUjP3k=", "properties": {"@spider": "usps_collection_boxes", "addr:city": "WINDSOR", "addr:country": "US", "addr:full": "2725 US ROUTE 5 N", "addr:postcode": "05089", "addr:state": "VT", "amenity": "post_box", "brand": "United States Postal Service", "brand:wikidata": "Q668687", "collection_times": "Mo-Sa 08:45", "name": "USPS COLLECTION BOX - BLUE BOX", "nsi_id": "unitedstatespostalservice-a77078", "operator": "United States Postal Service", "operator:short": "USPS", "operator:type": "public", "operator:wikidata": "Q668687", "ref": "0508900014"}, "type": "Feature"}
{"dataset_attributes": {"@spider": "usps_collection_boxes", "spider:collection_time": "2023-10-04T08:25:43.293951"}, "geometry": {"coordinates": [-72.385848, 43.481091], "type": "Point"}, "id": "0UJyQeyYXP7o5yy8YqoXEaDM6kM=", "properties": {"@spider": "usps_collection_boxes", "addr:city": "WINDSOR", "addr:country": "US", "addr:full": "57 MAIN ST", "addr:postcode": "05089", "addr:state": "VT", "amenity": "post_box", "brand": "United States Postal Service", "brand:wikidata": "Q668687", "collection_times": "Mo-Fr 17:15; Sa 14:30", "name": "USPS COLLECTION BOX - PO LOBBY", "note": "ON 12/24 AND 12/31, THIS BOX MAY BE COLLECTED AS EARLY AS 12 NOON.", "nsi_id": "unitedstatespostalservice-a77078", "operator": "United States Postal Service", "operator:short": "USPS", "operator:type": "public", "operator:wikidata": "Q668687", "ref": "0508900015"}, "type": "Feature"}
{"dataset_attributes": {"@spider": "usps_collection_boxes", "spider:collection_time": "2023-10-04T08:25:43.293951"}, "geometry": {"coordinates": [-72.385979974, 43.4807462], "type": "Point"}, "id": "BcWqIxC2y5WmQ69sqFcLceqaNqQ=", "properties": {"@spider": "usps_collection_boxes", "addr:city": "WINDSOR", "addr:country": "US", "addr:full": "57 MAIN ST", "addr:postcode": "05089", "addr:state": "VT", "amenity": "post_box", "brand": "United States Postal Service", "brand:wikidata": "Q668687", "collection_times": "Mo-Fr 17:00; Sa 12:00", "name": "USPS COLLECTION BOX - PO LOBBY", "note": "ON 12/24 AND 12/31, THIS BOX MAY BE COLLECTED AS EARLY AS 12 NOON.", "nsi_id": "unitedstatespostalservice-a77078", "operator": "United States Postal Service", "operator:short": "USPS", "operator:type": "public", "operator:wikidata": "Q668687", "ref": "0508900016"}, "type": "Feature"}
{"dataset_attributes": {"@spider": "usps_collection_boxes", "spider:collection_time": "2023-10-04T08:25:43.293951"}, "geometry": {"coordinates": [-72.5263594, 43.622371], "type": "Point"}, "id": "Sl4zynNa344nDtUxsUsePOdmM_c=", "properties": {"@spider": "usps_collection_boxes", "addr:city": "WOODSTOCK", "addr:country": "US", "addr:full": "45 MOUNTAIN AVE", "addr:postcode": "05091", "addr:state": "VT", "amenity": "post_box", "brand": "United States Postal Service", "brand:wikidata": "Q668687", "collection_times": "Mo-Sa 10:00", "name": "USPS COLLECTION BOX - BLUE BOX", "nsi_id": "unitedstatespostalservice-a77078", "operator": "United States Postal Service", "operator:short": "USPS", "operator:type": "public", "operator:wikidata": "Q668687", "ref": "0509100001"}, "type": "Feature"}
{"dataset_attributes": {"@spider": "usps_collection_boxes", "spider:collection_time": "2023-10-04T08:25:43.293951"}, "geometry": {"coordinates": [-72.5068378, 43.628796], "type": "Point"}, "id": "82VGTeICOo-tfp_p3O4UVZz_P-0=", "properties": {"@spider": "usps_collection_boxes", "addr:city": "WOODSTOCK", "addr:country": "US", "addr:full": "1 SUNSET FARMS", "addr:postcode": "05091", "addr:state": "VT", "amenity": "post_box", "brand": "United States Postal Service", "brand:wikidata": "Q668687", "collection_times": "Mo-Fr 11:00", "name": "USPS COLLECTION BOX - BLUE BOX", "nsi_id": "unitedstatespostalservice-a77078", "operator": "United States Postal Service", "operator:short": "USPS", "operator:type": "public", "operator:wikidata": "Q668687", "ref": "0509100002"}, "type": "Feature"}
{"dataset_attributes": {"@spider": "usps_collection_boxes", "spider:collection_time": "2023-10-04T08:25:43.293951"}, "geometry": {"coordinates": [-72.5116216, 43.626659], "type": "Point"}, "id": "6a_jxoxMDojxLnDKgwsr7nwi-EA=", "properties": {"@spider": "usps_collection_boxes", "addr:city": "WOODSTOCK", "addr:country": "US", "addr:full": "37 PLEASANT ST", "addr:postcode": "05091", "addr:state": "VT", "amenity": "post_box", "brand": "United States Postal Service", "brand:wikidata": "Q668687", "collection_times": "Mo-Sa 10:30", "name": "USPS COLLECTION BOX - BLUE BOX", "nsi_id": "unitedstatespostalservice-a77078", "operator": "United States Postal Service", "operator:short": "USPS", "operator:type": "public", "operator:wikidata": "Q668687", "ref": "0509100017"}, "type": "Feature"}
{"dataset_attributes": {"@spider": "usps_collection_boxes", "spider:collection_time": "2023-10-04T08:25:43.293951"}, "geometry": {"coordinates": [-72.517594, 43.625442], "type": "Point"}, "id": "GrOr5auE7raT9dWbh7QlhWHh61I=", "properties": {"@spider": "usps_collection_boxes", "addr:city": "WOODSTOCK", "addr:country": "US", "addr:full": "22 CENTRAL ST", "addr:postcode": "05091", "addr:state": "VT", "amenity": "post_box", "brand": "United States Postal Service", "brand:wikidata": "Q668687", "collection_times": "Mo-Fr 17:15; Sa 14:45", "name": "USPS COLLECTION BOX - BLUE BOX", "note": "ON 12/24 AND 12/31, THIS BOX MAY BE COLLECTED AS EARLY AS 12 NOON.", "nsi_id": "unitedstatespostalservice-a77078", "operator": "United States Postal Service", "operator:short": "USPS", "operator:type": "public", "operator:wikidata": "Q668687", "ref": "0509100018"}, "type": "Feature"}
{"dataset_attributes": {"@spider": "usps_collection_boxes", "spider:collection_time": "2023-10-04T08:25:43.293951"}, "geometry": {"coordinates": [-72.517716, 43.625765], "type": "Point"}, "id": "dulKHdZ-fYXb4EjhuCiwPH1_QO0=", "properties": {"@spider": "usps_collection_boxes", "addr:city": "WOODSTOCK", "addr:country": "US", "addr:full": "22 CENTRAL ST", "addr:postcode": "05091", "addr:state": "VT", "amenity": "post_box", "brand": "United States Postal Service", "brand:wikidata": "Q668687", "collection_times": "Mo-Fr 17:30; Sa 14:45", "name": "USPS COLLECTION BOX - PO LOBBY", "note": "ON 12/24 AND 12/31, THIS BOX MAY BE COLLECTED AS EARLY AS 12 NOON.", "nsi_id": "unitedstatespostalservice-a77078", "operator": "United States Postal Service", "operator:short": "USPS", "operator:type": "public", "operator:wikidata": "Q668687", "ref": "0509100019"}, "type": "Feature"}
{"dataset_attributes": {"@spider": "usps_collection_boxes", "spider:collection_time": "2023-10-04T08:25:43.293951"}, "geometry": {"coordinates": [-72.517491131, 43.625485392], "type": "Point"}, "id": "hKtD589TmlFwN7vhhGIQh8Hqijo=", "properties": {"@spider": "usps_collection_boxes", "addr:city": "WOODSTOCK", "addr:country": "US", "addr:full": "22 CENTRAL ST", "addr:postcode": "05091", "addr:state": "VT", "amenity": "post_box", "brand": "United States Postal Service", "brand:wikidata": "Q668687", "collection_times": "Mo-Fr 17:00; Sa 12:00", "name": "USPS COLLECTION BOX - PO LOBBY", "note": "ON 12/24 AND 12/31, THIS BOX MAY BE COLLECTED AS EARLY AS 12 NOON.", "nsi_id": "unitedstatespostalservice-a77078", "operator": "United States Postal Service", "operator:short": "USPS", "operator:type": "public", "operator:wikidata": "Q668687", "ref": "0509100021"}, "type": "Feature"}
{"dataset_attributes": {"@spider": "usps_collection_boxes", "spider:collection_time": "2023-10-04T08:25:43.293951"}, "geometry": {"coordinates": [-72.520428026, 43.62321899], "type": "Point"}, "id": "R-U6NDRYv7AfsPifbaSVJFw0X2Q=", "properties": {"@spider": "usps_collection_boxes", "addr:city": "WOODSTOCK", "addr:country": "US", "addr:full": "18 THE GRN", "addr:postcode": "05091", "addr:state": "VT", "amenity": "post_box", "brand": "United States Postal Service", "brand:wikidata": "Q668687", "collection_times": "Mo-Sa 12:00", "name": "USPS COLLECTION BOX - BLUE BOX", "nsi_id": "unitedstatespostalservice-a77078", "operator": "United States Postal Service", "operator:short": "USPS", "operator:type": "public", "operator:wikidata": "Q668687", "ref": "0509100022"}, "type": "Feature"}
