{"geometry": {"coordinates": [-72.443205, 43.133706], "type": "Point"}, "id": "_4RmktqSgpRF8WYvNIl8WR_HArA=", "properties": {"@source_uri": "https://tools.usps.com/UspsToolsRestServices/rest/POLocator/findLocations", "@spider": "usps_collection_boxes", "addr:city": "BELLOWS FALLS", "addr:country": "US", "addr:postcode": "05101", "addr:state": "VT", "addr:street_address": "7 BRIDGE ST", "amenity": "post_box", "collection_times": "Mo-Fr 17:00; Sa 13:30", "note": "ON 12/24 AND 12/31, THIS BOX MAY BE COLLECTED AS EARLY AS 12 NOON.", "nsi_id": "unitedstatespostalservice-a77078", "operator": "United States Postal Service", "operator:short": "USPS", "operator:type": "public", "operator:wikidata": "Q668687", "ref": "0510100002"}, "type": "Feature"}
{"geometry": {"coordinates": [-72.4510076, 43.135076], "type": "Point"}, "id": "amaDDKg8FW5IOHl4pAinv0wTuEc=", "properties": {"@source_uri": "https://tools.usps.com/UspsToolsRestServices/rest/POLocator/findLocations", "@spider": "usps_collection_boxes", "addr:city": "BELLOWS FALLS", "addr:country": "US", "addr:postcode": "05101", "addr:state": "VT", "addr:street_address": "92 ATKINSON ST", "amenity": "post_box", "collection_times": "Mo-Sa 12:00", "nsi_id": "unitedstatespostalservice-a77078", "operator": "United States Postal Service", "operator:short": "USPS", "operator:type": "public", "operator:wikidata": "Q668687", "ref": "0510100026"}, "type": "Feature"}
{"geometry": {"coordinates": [-72.4448393, 43.127128], "type": "Point"}, "id": "hSCvtD2ypKruS4H8CqB-y6rt3aM=", "properties": {"@source_uri": "https://tools.usps.com/UspsToolsRestServices/rest/POLocator/findLocations", "@spider": "usps_collection_boxes", "addr:city": "BELLOWS FALLS", "addr:country": "US", "addr:postcode": "05101", "addr:state": "VT", "addr:street_address": "1 HOSPITAL CT", "amenity": "post_box", "collection_times": "Mo-Sa 12:00", "nsi_id": "unitedstatespostalservice-a77078", "operator": "United States Postal Service", "operator:short": "USPS", "operator:type": "public", "operator:wikidata": "Q668687", "ref": "0510100028"}, "type": "Feature"}
{"geometry": {"coordinates": [-72.443286, 43.133719], "type": "Point"}, "id": "S2H5KUZV-7AZV4RebHQNq4HVflw=", "properties": {"@source_uri": "https://tools.usps.com/UspsToolsRestServices/rest/POLocator/findLocations", "@spider": "usps_collection_boxes", "addr:city": "BELLOWS FALLS", "addr:country": "US", "addr:postcode": "05101", "addr:state": "VT", "addr:street_address": "7 BRIDGE ST", "amenity": "post_box", "collection_times": "Mo-Fr 17:15; Sa 13:00", "indoor": "yes", "note": "ON 12/24 AND 12/31, THIS BOX MAY BE COLLECTED AS EARLY AS 12 NOON.", "nsi_id": "unitedstatespostalservice-a77078", "operator": "United States Postal Service", "operator:short": "USPS", "operator:type": "public", "operator:wikidata": "Q668687", "ref": "0510100031"}, "type": "Feature"}
{"geometry": {"coordinates": [-72.443042466, 43.133739403], "type": "Point"}, "id": "pcszlKIfBCYa8LbZri5C27shbYg=", "properties": {"@source_uri": "https://tools.usps.com/UspsToolsRestServices/rest/POLocator/findLocations", "@spider": "usps_collection_boxes", "addr:city": "BELLOWS FALLS", "addr:country": "US", "addr:postcode": "05101", "addr:state": "VT", "addr:street_address": "7 BRIDGE ST", "amenity": "post_box", "collection_times": "Mo-Fr 17:00; Sa 12:00", "indoor": "yes", "note": "ON 12/24 AND 12/31, THIS BOX MAY BE COLLECTED AS EARLY AS 12 NOON.", "nsi_id": "unitedstatespostalservice-a77078", "operator": "United States Postal Service", "operator:short": "USPS", "operator:type": "public", "operator:wikidata": "Q668687", "ref": "0510100033"}, "type": "Feature"}
{"geometry": {"coordinates": [-72.609600379, 43.3822064238], "type": "Point"}, "id": "9mI5zIGFsFBcJBhTidQQ4jTa0mw=", "properties": {"@source_uri": "https://tools.usps.com/UspsToolsRestServices/rest/POLocator/findLocations", "@spider": "usps_collection_boxes", "addr:city": "CAVENDISH", "addr:country": "US", "addr:postcode": "05142", "addr:state": "VT", "addr:street_address": "2025 MAIN ST", "amenity": "post_box", "collection_times": "Mo-Fr 16:45; Sa 10:15", "note": "ON 12/24 AND 12/31, THIS BOX MAY BE COLLECTED AS EARLY AS 12 NOON.", "nsi_id": "unitedstatespostalservice-a77078", "operator": "United States Postal Service", "operator:short": "USPS", "operator:type": "public", "operator:wikidata": "Q668687", "ref": "0514200000"}, "type": "Feature"}
{"geometry": {"coordinates": [-72.609654, 43.382177], "type": "Point"}, "id": "KJgXJ_v5C0XIqtQQERq8cYbKnlI=", "properties": {"@source_uri": "https://tools.usps.com/UspsToolsRestServices/rest/POLocator/findLocations", "@spider": "usps_collection_boxes", "addr:city": "CAVENDISH", "addr:country": "US", "addr:postcode": "05142", "addr:state": "VT", "addr:street_address": "2025 MAIN ST", "amenity": "post_box", "collection_times": "Mo-Fr 16:45; Sa 10:15", "indoor": "yes", "note": "ON 12/24 AND 12/31, THIS BOX MAY BE COLLECTED AS EARLY AS 12 NOON.", "nsi_id": "unitedstatespostalservice-a77078", "operator": "United States Postal Service", "operator:short": "USPS", "operator:type": "public", "operator:wikidata": "Q668687", "ref": "0514200001"}, "type": "Feature"}
{"geometry": {"coordinates": [-72.609600379, 43.382206424], "type": "Point"}, "id": "rGX0Aw3MeZSuCX5Db7XDOYBEG-0=", "properties": {"@source_uri": "https://tools.usps.com/UspsToolsRestServices/rest/POLocator/findLocations", "@spider": "usps_collection_boxes", "addr:city": "CAVENDISH", "addr:country": "US", "addr:postcode": "05142", "addr:state": "VT", "addr:street_address": "2025 MAIN ST", "amenity": "post_box", "collection_times": "Mo-Fr 17:00; Sa 10:00", "indoor": "yes", "note": "ON 12/24 AND 12/31, THIS BOX MAY BE COLLECTED AS EARLY AS 12 NOON.", "nsi_id": "unitedstatespostalservice-a77078", "operator": "United States Postal Service", "operator:short": "USPS", "operator:type": "public", "operator:wikidata": "Q668687", "ref": "0514200003"}, "type": "Feature"}
{"geometry": {"coordinates": [-72.592296, 43.261106], "type": "Point"}, "id": "ksy-YxpZ8vCE2Sq9qlDDNMrLy4Q=", "properties": {"@source_uri": "https://tools.usps.com/UspsToolsRestServices/rest/POLocator/findLocations", "@spider": "usps_collection_boxes", "addr:city": "CHESTER", "addr:country": "US", "addr:postcode": "05143", "addr:state": "VT", "addr:street_address": "203 S MAIN ST", "amenity": "post_box", "collection_times": "Mo-Fr 17:00; Sa 11:45", "note": "ON 12/24 AND 12/31, THIS BOX MAY BE COLLECTED AS EARLY AS 12 NOON.", "nsi_id": "unitedstatespostalservice-a77078", "operator": "United States Postal Service", "operator:short": "USPS", "operator:type": "public", "operator:wikidata": "Q668687", "ref": "0514300001"}, "type": "Feature"}
{"geometry": {"coordinates": [-72.592353, 43.261113], "type": "Point"}, "id": "BiVVx9Nl_paUy7jfmE4r0zNZ0wM=", "properties": {"@source_uri": "https://tools.usps.com/UspsToolsRestServices/rest/POLocator/findLocations", "@spider": "usps_collection_boxes", "addr:city": "CHESTER", "addr:country": "US", "addr:postcode": "05143", "addr:state": "VT", "addr:street_address": "203 S MAIN ST", "amenity": "post_box", "collection_times": "Mo-Fr 17:00; Sa 11:45", "indoor": "yes", "note": "ON 12/24 AND 12/31, THIS BOX MAY BE COLLECTED AS EARLY AS 12 NOON.", "nsi_id": "unitedstatespostalservice-a77078", "operator": "United States Postal Service", "operator:short": "USPS", "operator:type": "public", "operator:wikidata": "Q668687", "ref": "0514300003"}, "type": "Feature"}
{"geometry": {"coordinates": [-72.589416, 43.268396], "type": "Point"}, "id": "KLm1e5u6ou7E0yOHQoxKVOPBM3s=", "properties": {"@source_uri": "https://tools.usps.com/UspsToolsRestServices/rest/POLocator/findLocations", "@spider": "usps_collection_boxes", "addr:city": "CHESTER", "addr:country": "US", "addr:postcode": "05143", "addr:state": "VT", "addr:street_address": "556 ELM ST", "amenity": "post_box", "collection_times": "Mo-Sa 11:00", "nsi_id": "unitedstatespostalservice-a77078", "operator": "United States Postal Service", "operator:short": "USPS", "operator:type": "public", "operator:wikidata": "Q668687", "ref": "0514300005"}, "type": "Feature"}
{"geometry": {"coordinates": [-72.592171671, 43.260981149], "type": "Point"}, "id": "gwl9gxNui0_9X4T10bwITjSDWag=", "properties": {"@source_uri": "https://tools.usps.com/UspsToolsRestServices/rest/POLocator/findLocations", "@spider": "usps_collection_boxes", "addr:city": "CHESTER", "addr:country": "US", "addr:postcode": "05143", "addr:state": "VT", "addr:street_address": "203 S MAIN ST", "amenity": "post_box", "collection_times": "Mo-Fr 17:00; Sa 11:30", "indoor": "yes", "note": "ON 12/24 AND 12/31, THIS BOX MAY BE COLLECTED AS EARLY AS 12 NOON.", "nsi_id": "unitedstatespostalservice-a77078", "operator": "United States Postal Service", "operator:short": "USPS", "operator:type": "public", "operator:wikidata": "Q668687", "ref": "0514300007"}, "type": "Feature"}
{"geometry": {"coordinates": [-72.6085868, 43.172579], "type": "Point"}, "id": "J9GodxvkfdRx40TAmfBL1E6plFw=", "properties": {"@source_uri": "https://tools.usps.com/UspsToolsRestServices/rest/POLocator/findLocations", "@spider": "usps_collection_boxes", "addr:city": "GRAFTON", "addr:country": "US", "addr:postcode": "05146", "addr:state": "VT", "addr:street_address": "115 MAIN ST", "amenity": "post_box", "collection_times": "Mo-Fr 14:30; Sa 11:30", "note": "ON 12/24 AND 12/31, THIS BOX MAY BE COLLECTED AS EARLY AS 12 NOON.", "nsi_id": "unitedstatespostalservice-a77078", "operator": "United States Postal Service", "operator:short": "USPS", "operator:type": "public", "operator:wikidata": "Q668687", "ref": "0514600000"}, "type": "Feature"}
{"geometry": {"coordinates": [-72.6087031, 43.17274], "type": "Point"}, "id": "HQbO6-k75VfZIjUbo3qH8VfZriU=", "properties": {"@source_uri": "https://tools.usps.com/UspsToolsRestServices/rest/POLocator/findLocations", "@spider": "usps_collection_boxes", "addr:city": "GRAFTON", "addr:country": "US", "addr:postcode": "05146", "addr:state": "VT", "addr:street_address": "115 MAIN ST", "amenity": "post_box", "collection_times": "Mo-Fr 14:30; Sa 11:30", "indoor": "yes", "note": "ON 12/24 AND 12/31, THIS BOX MAY BE COLLECTED AS EARLY AS 12 NOON.", "nsi_id": "unitedstatespostalservice-a77078", "operator": "United States Postal Service", "operator:short": "USPS", "operator:type": "public", "operator:wikidata": "Q668687", "ref": "0514600001"}, "type": "Feature"}
{"geometry": {"coordinates": [-72.608461813, 43.172562691], "type": "Point"}, "id": "zPCh1G6RmiLKu-CeoG1OZxb47-Y=", "properties": {"@source_uri": "https://tools.usps.com/UspsToolsRestServices/rest/POLocator/findLocations", "@spider": "usps_collection_boxes", "addr:city": "GRAFTON", "addr:country": "US", "addr:postcode": "05146", "addr:state": "VT", "addr:street_address": "115 MAIN ST", "amenity": "post_box", "collection_times": "Mo-Fr 14:30; Sa 11:45", "indoor": "yes", "note": "ON 12/24 AND 12/31, THIS BOX MAY BE COLLECTED AS EARLY AS 12 NOON.", "nsi_id": "unitedstatespostalservice-a77078", "operator": "United States Postal Service", "operator:short": "USPS", "operator:type": "public", "operator:wikidata": "Q668687", "ref": "0514600002"}, "type": "Feature"}
{"geometry": {"coordinates": [-72.817434, 43.226126], "type": "Point"}, "id": "n-QPfJprtXJMOYQLbqFcKYrXKj0=", "properties": {"@source_uri": "https://tools.usps.com/UspsToolsRestServices/rest/POLocator/findLocations", "@spider": "usps_collection_boxes", "addr:city": "LONDONDERRY", "addr:country": "US", "addr:postcode": "05148", "addr:state": "VT", "addr:street_address": "5660 VT ROUTE 100", "amenity": "post_box", "collection_times": "Mo-Fr 16:15; Sa 11:45", "note": "ON 12/24 AND 12/31, THIS BOX MAY BE COLLECTED AS EARLY AS 12 NOON.", "nsi_id": "unitedstatespostalservice-a77078", "operator": "United States Postal Service", "operator:short": "USPS", "operator:type": "public", "operator:wikidata": "Q668687", "ref": "0514800001"}, "type": "Feature"}
{"geometry": {"coordinates": [-72.817432, 43.226191], "type": "Point"}, "id": "dha3Gc0NKv1LvsE9qWVSr52JzNM=", "properties": {"@source_uri": "https://tools.usps.com/UspsToolsRestServices/rest/POLocator/findLocations", "@spider": "usps_collection_boxes", "addr:city": "LONDONDERRY", "addr:country": "US", "addr:postcode": "05148", "addr:state": "VT", "addr:street_address": "5660 VT ROUTE 100", "amenity": "post_box", "collection_times": "Mo-Fr 16:30; Sa 12:00", "indoor": "yes", "note": "ON 12/24 AND 12/31, THIS BOX MAY BE COLLECTED AS EARLY AS 12 NOON.", "nsi_id": "unitedstatespostalservice-a77078", "operator": "United States Postal Service", "operator:short": "USPS", "operator:type": "public", "operator:wikidata": "Q668687", "ref": "0514800003"}, "type": "Feature"}
{"geometry": {"coordinates": [-72.817409426, 43.226112926], "type": "Point"}, "id": "7LcCTL2le5UFrbZhA-CBFqRxvC4=", "properties": {"@source_uri": "https://tools.usps.com/UspsToolsRestServices/rest/POLocator/findLocations", "@spider": "usps_collection_boxes", "addr:city": "LONDONDERRY", "addr:country": "US", "addr:postcode": "05148", "addr:state": "VT", "addr:street_address": "5660 VT ROUTE 100", "amenity": "post_box", "collection_times": "Mo-Fr 16:30; Sa 11:30", "indoor": "yes", "note": "ON 12/24 AND 12/31, THIS BOX MAY BE COLLECTED AS EARLY AS 12 NOON.", "nsi_id": "unitedstatespostalservice-a77078", "operator": "United States Postal Service", "operator:short": "USPS", "operator:type": "public", "operator:wikidata": "Q668687", "ref": "0514800006"}, "type": "Feature"}
{"geometry": {"coordinates": [-72.7010159, 43.397784], "type": "Point"}, "id": "fbFVArzZ1JTfx3E83fnDWmMX8DA=", "properties": {"@source_uri": "https://tools.usps.com/UspsToolsRestServices/rest/POLocator/findLocations", "@spider": "usps_collection_boxes", "addr:city": "LUDLOW", "addr:country": "US", "addr:postcode": "05149", "addr:state": "VT", "addr:street_address": "198 MAIN ST", "amenity": "post_box", "collection_times": "Mo-Fr 14:00; Sa 12:00", "note": "ON 12/24 AND 12/31, THIS BOX MAY BE COLLECTED AS EARLY AS 12 NOON.", "nsi_id": "unitedstatespostalservice-a77078", "operator": "United States Postal Service", "operator:short": "USPS", "operator:type": "public", "operator:wikidata": "Q668687", "ref": "0514900002"}, "type": "Feature"}
{"geometry": {"coordinates": [-72.693488, 43.4047139], "type": "Point"}, "id": "Taju2kxh_ezWbKsxOslHoWa4TjI=", "properties": {"@source_uri": "https://tools.usps.com/UspsToolsRestServices/rest/POLocator/findLocations", "@spider": "usps_collection_boxes", "addr:city": "LUDLOW", "addr:country": "US", "addr:postcode": "05149", "addr:state": "VT", "addr:street_address": "213 MAIN ST", "amenity": "post_box", "collection_times": "Mo-Fr 14:00; Sa 12:00", "note": "ON 12/24 AND 12/31, THIS BOX MAY BE COLLECTED AS EARLY AS 12 NOON.", "nsi_id": "unitedstatespostalservice-a77078", "operator": "United States Postal Service", "operator:short": "USPS", "operator:type": "public", "operator:wikidata": "Q668687", "ref": "0514900005"}, "type": "Feature"}
{"geometry": {"coordinates": [-72.7010159, 43.397784], "type": "Point"}, "id": "BA2zI31l5EbNtOFR_bSfd0nRbrE=", "properties": {"@source_uri": "https://tools.usps.com/UspsToolsRestServices/rest/POLocator/findLocations", "@spider": "usps_collection_boxes", "addr:city": "LUDLOW", "addr:country": "US", "addr:postcode": "05149", "addr:state": "VT", "addr:street_address": "57 POND ST", "amenity": "post_box", "collection_times": "Mo-Fr 16:30; Sa 10:00", "note": "ON 12/24 AND 12/31, THIS BOX MAY BE COLLECTED AS EARLY AS 12 NOON.", "nsi_id": "unitedstatespostalservice-a77078", "operator": "United States Postal Service", "operator:short": "USPS", "operator:type": "public", "operator:wikidata": "Q668687", "ref": "0514900006"}, "type": "Feature"}
{"geometry": {"coordinates": [-72.7010159, 43.397784], "type": "Point"}, "id": "Jg5fxU1WXStAQgNLN_tNuGC8eKQ=", "properties": {"@source_uri": "https://tools.usps.com/UspsToolsRestServices/rest/POLocator/findLocations", "@spider": "usps_collection_boxes", "addr:city": "LUDLOW", "addr:country": "US", "addr:postcode": "05149", "addr:state": "VT", "addr:street_address": "57 POND ST", "amenity": "post_box", "collection_times": "Mo-Fr 16:30; Sa 10:30", "indoor": "yes", "note": "ON 12/24 AND 12/31, THIS BOX MAY BE COLLECTED AS EARLY AS 12 NOON.", "nsi_id": "unitedstatespostalservice-a77078", "operator": "United States Postal Service", "operator:short": "USPS", "operator:type": "public", "operator:wikidata": "Q668687", "ref": "0514900007"}, "type": "Feature"}
{"geometry": {"coordinates": [-72.7010159, 43.397784], "type": "Point"}, "id": "AY07NaTi3nvAr0n6L7mOB9Iuy0w=", "properties": {"@source_uri": "https://tools.usps.com/UspsToolsRestServices/rest/POLocator/findLocations", "@spider": "usps_collection_boxes", "addr:city": "LUDLOW", "addr:country": "US", "addr:postcode": "05149", "addr:state": "VT", "addr:street_address": "57 POND ST STE 8", "amenity": "post_box", "collection_times": "Mo-Fr 17:00; Sa 10:30", "indoor": "yes", "note": "ON 12/24 AND 12/31, THIS BOX MAY BE COLLECTED AS EARLY AS 12 NOON.", "nsi_id": "unitedstatespostalservice-a77078", "operator": "United States Postal Service", "operator:short": "USPS", "operator:type": "public", "operator:wikidata": "Q668687", "ref": "0514900009"}, "type": "Feature"}
{"geometry": {"coordinates": [-72.52394, 43.332749], "type": "Point"}, "id": "81o45rc1P2woI9jOpDrshmyhChA=", "properties": {"@source_uri": "https://tools.usps.com/UspsToolsRestServices/rest/POLocator/findLocations", "@spider": "usps_collection_boxes", "addr:city": "N SPRINGFIELD", "addr:country": "US", "addr:postcode": "05150", "addr:state": "VT", "addr:street_address": "39 MAIN ST", "amenity": "post_box", "collection_times": "Mo-Fr 16:00; Sa 11:00", "note": "ON 12/24 AND 12/31, THIS BOX MAY BE COLLECTED AS EARLY AS 12 NOON.", "nsi_id": "unitedstatespostalservice-a77078", "operator": "United States Postal Service", "operator:short": "USPS", "operator:type": "public", "operator:wikidata": "Q668687", "ref": "0515000000"}, "type": "Feature"}
{"geometry": {"coordinates": [-72.52394, 43.332749], "type": "Point"}, "id": "UbaiA-YU9caL7GxsxoU0voyHedI=", "properties": {"@source_uri": "https://tools.usps.com/UspsToolsRestServices/rest/POLocator/findLocations", "@spider": "usps_collection_boxes", "addr:city": "N SPRINGFIELD", "addr:country": "US", "addr:postcode": "05150", "addr:state": "VT", "addr:street_address": "39 MAIN ST", "amenity": "post_box", "collection_times": "Mo-Fr 17:15; Sa 11:00", "indoor": "yes", "note": "ON 12/24 AND 12/31, THIS BOX MAY BE COLLECTED AS EARLY AS 12 NOON.", "nsi_id": "unitedstatespostalservice-a77078", "operator": "United States Postal Service", "operator:short": "USPS", "operator:type": "public", "operator:wikidata": "Q668687", "ref": "0515000001"}, "type": "Feature"}
{"geometry": {"coordinates": [-72.523797622, 43.332723387], "type": "Point"}, "id": "0CxkpywLVMrlvwIDXN5vdI4xd5U=", "properties": {"@source_uri": "https://tools.usps.com/UspsToolsRestServices/rest/POLocator/findLocations", "@spider": "usps_collection_boxes", "addr:city": "N SPRINGFIELD", "addr:country": "US", "addr:postcode": "05150", "addr:state": "VT", "addr:street_address": "39 MAIN ST", "amenity": "post_box", "collection_times": "Mo-Fr 17:00; Sa 11:00", "indoor": "yes", "note": "ON 12/24 AND 12/31, THIS BOX MAY BE COLLECTED AS EARLY AS 12 NOON.", "nsi_id": "unitedstatespostalservice-a77078", "operator": "United States Postal Service", "operator:short": "USPS", "operator:type": "public", "operator:wikidata": "Q668687", "ref": "0515000003"}, "type": "Feature"}
{"geometry": {"coordinates": [-72.513975, 43.400505], "type": "Point"}, "id": "RjKBTWs6GsXcp7kiGP27h3sBY24=", "properties": {"@source_uri": "https://tools.usps.com/UspsToolsRestServices/rest/POLocator/findLocations", "@spider": "usps_collection_boxes", "addr:city": "PERKINSVILLE", "addr:country": "US", "addr:postcode": "05151", "addr:state": "VT", "addr:street_address": "7290 VT ROUTE 131", "amenity": "post_box", "collection_times": "Mo-Fr 16:45; Sa 10:45", "note": "ON 12/24 AND 12/31, THIS BOX MAY BE COLLECTED AS EARLY AS 12 NOON.", "nsi_id": "unitedstatespostalservice-a77078", "operator": "United States Postal Service", "operator:short": "USPS", "operator:type": "public", "operator:wikidata": "Q668687", "ref": "0515100000"}, "type": "Feature"}
{"geometry": {"coordinates": [-72.514098, 43.400504], "type": "Point"}, "id": "ZNbJCA3vATH42_BNV3UbJbpwTlo=", "properties": {"@source_uri": "https://tools.usps.com/UspsToolsRestServices/rest/POLocator/findLocations", "@spider": "usps_collection_boxes", "addr:city": "PERKINSVILLE", "addr:country": "US", "addr:postcode": "05151", "addr:state": "VT", "addr:street_address": "7290 VT ROUTE 131", "amenity": "post_box", "collection_times": "Mo-Fr 16:45; Sa 10:45", "indoor": "yes", "note": "ON 12/24 AND 12/31, THIS BOX MAY BE COLLECTED AS EARLY AS 12 NOON.", "nsi_id": "unitedstatespostalservice-a77078", "operator": "United States Postal Service", "operator:short": "USPS", "operator:type": "public", "operator:wikidata": "Q668687", "ref": "0515100001"}, "type": "Feature"}
{"geometry": {"coordinates": [-72.513984893, 43.400499959], "type": "Point"}, "id": "j0Q8qIlyzM8xq-K3LmYn4osMK24=", "properties": {"@source_uri": "https://tools.usps.com/UspsToolsRestServices/rest/POLocator/findLocations", "@spider": "usps_collection_boxes", "addr:city": "PERKINSVILLE", "addr:country": "US", "addr:postcode": "05151", "addr:state": "VT", "addr:street_address": "7290 VT ROUTE 131", "amenity": "post_box", "collection_times": "Mo-Fr 16:45; Sa 10:45", "indoor": "yes", "note": "ON 12/24 AND 12/31, THIS BOX MAY BE COLLECTED AS EARLY AS 12 NOON.", "nsi_id": "unitedstatespostalservice-a77078", "operator": "United States Postal Service", "operator:short": "USPS", "operator:type": "public", "operator:wikidata": "Q668687", "ref": "0515100003"}, "type": "Feature"}
{"geometry": {"coordinates": [-72.899367, 43.23012], "type": "Point"}, "id": "p2H8j3k4ug_TjFj-KcKIB0bIfyc=", "properties": {"@source_uri": "https://tools.usps.com/UspsToolsRestServices/rest/POLocator/findLocations", "@spider": "usps_collection_boxes", "addr:city": "PERU", "addr:country": "US", "addr:postcode": "05152", "addr:state": "VT", "addr:street_address": "311 MAIN ST", "amenity": "post_box", "collection_times": "Mo-Fr 16:15; Sa 11:30", "note": "ON 12/24 AND 12/31, THIS BOX MAY BE COLLECTED AS EARLY AS 12 NOON.", "nsi_id": "unitedstatespostalservice-a77078", "operator": "United States Postal Service", "operator:short": "USPS", "operator:type": "public", "operator:wikidata": "Q668687", "ref": "0515200000"}, "type": "Feature"}
{"geometry": {"coordinates": [-72.899454, 43.230096], "type": "Point"}, "id": "5mI--LRe9dHTFHENmaTZSb1pzYU=", "properties": {"@source_uri": "https://tools.usps.com/UspsToolsRestServices/rest/POLocator/findLocations", "@spider": "usps_collection_boxes", "addr:city": "PERU", "addr:country": "US", "addr:postcode": "05152", "addr:state": "VT", "addr:street_address": "311 MAIN ST", "amenity": "post_box", "collection_times": "Mo-Fr 16:30; Sa 11:30", "indoor": "yes", "note": "ON 12/24 AND 12/31, THIS BOX MAY BE COLLECTED AS EARLY AS 12 NOON.", "nsi_id": "unitedstatespostalservice-a77078", "operator": "United States Postal Service", "operator:short": "USPS", "operator:type": "public", "operator:wikidata": "Q668687", "ref": "0515200001"}, "type": "Feature"}
{"geometry": {"coordinates": [-72.899423529, 43.230073579], "type": "Point"}, "id": "uXBhF-CPbdCF_zJp-cgHztiUr1c=", "properties": {"@source_uri": "https://tools.usps.com/UspsToolsRestServices/rest/POLocator/findLocations", "@spider": "usps_collection_boxes", "addr:city": "PERU", "addr:country": "US", "addr:postcode": "05152", "addr:state": "VT", "addr:street_address": "311 MAIN ST", "amenity": "post_box", "collection_times": "Mo-Fr 16:30; Sa 11:30", "indoor": "yes", "note": "ON 12/24 AND 12/31, THIS BOX MAY BE COLLECTED AS EARLY AS 12 NOON.", "nsi_id": "unitedstatespostalservice-a77078", "operator": "United States Postal Service", "operator:short": "USPS", "operator:type": "public", "operator:wikidata": "Q668687", "ref": "0515200003"}, "type": "Feature"}
{"geometry": {"coordinates": [-72.638336, 43.382543], "type": "Point"}, "id": "wH3qO7b1eUcKgrPApP4rJ7yJKGs=", "properties": {"@source_uri": "https://tools.usps.com/UspsToolsRestServices/rest/POLocator/findLocations", "@spider": "usps_collection_boxes", "addr:city": "PROCTORSVILLE", "addr:country": "US", "addr:postcode": "05153", "addr:state": "VT", "addr:street_address": "7 DEPOT ST", "amenity": "post_box", "collection_times": "Mo-Fr 14:00; Sa 10:15", "note": "ON 12/24 AND 12/31, THIS BOX MAY BE COLLECTED AS EARLY AS 12 NOON.", "nsi_id": "unitedstatespostalservice-a77078", "operator": "United States Postal Service", "operator:short": "USPS", "operator:type": "public", "operator:wikidata": "Q668687", "ref": "0515300000"}, "type": "Feature"}
{"geometry": {"coordinates": [-72.638426, 43.38256], "type": "Point"}, "id": "bubCKFftoTp85Uv_PKNb30x9ahQ=", "properties": {"@source_uri": "https://tools.usps.com/UspsToolsRestServices/rest/POLocator/findLocations", "@spider": "usps_collection_boxes", "addr:city": "PROCTORSVILLE", "addr:country": "US", "addr:postcode": "05153", "addr:state": "VT", "addr:street_address": "7 DEPOT ST", "amenity": "post_box", "collection_times": "Mo-Fr 14:00; Sa 10:15", "indoor": "yes", "note": "ON 12/24 AND 12/31, THIS BOX MAY BE COLLECTED AS EARLY AS 12 NOON.", "nsi_id": "unitedstatespostalservice-a77078", "operator": "United States Postal Service", "operator:short": "USPS", "operator:type": "public", "operator:wikidata": "Q668687", "ref": "0515300001"}, "type": "Feature"}
{"geometry": {"coordinates": [-72.638335342, 43.382529387], "type": "Point"}, "id": "MI3HQfFSB2xuHnsFO2BsqLNze8U=", "properties": {"@source_uri": "https://tools.usps.com/UspsToolsRestServices/rest/POLocator/findLocations", "@spider": "usps_collection_boxes", "addr:city": "PROCTORSVILLE", "addr:country": "US", "addr:postcode": "05153", "addr:state": "VT", "addr:street_address": "7 DEPOT ST", "amenity": "post_box", "collection_times": "Mo-Fr 14:00; Sa 10:00", "indoor": "yes", "note": "ON 12/24 AND 12/31, THIS BOX MAY BE COLLECTED AS EARLY AS 12 NOON.", "nsi_id": "unitedstatespostalservice-a77078", "operator": "United States Postal Service", "operator:short": "USPS", "operator:type": "public", "operator:wikidata": "Q668687", "ref": "0515300003"}, "type": "Feature"}
{"geometry": {"coordinates": [-72.509089, 43.138332], "type": "Point"}, "id": "TRCQu5sv1jYPA8pfwB1BT94AOEI=", "properties": {"@source_uri": "https://tools.usps.com/UspsToolsRestServices/rest/POLocator/findLocations", "@spider": "usps_collection_boxes", "addr:city": "SAXTONS RIVER", "addr:country": "US", "addr:postcode": "05154", "addr:state": "VT", "addr:street_address": "39 MAIN ST", "amenity": "post_box", "collection_times": "Mo-Fr 16:30; Sa 10:30", "note": "ON 12/24 AND 12/31, THIS BOX MAY BE COLLECTED AS EARLY AS 12 NOON.", "nsi_id": "unitedstatespostalservice-a77078", "operator": "United States Postal Service", "operator:short": "USPS", "operator:type": "public", "operator:wikidata": "Q668687", "ref": "0515400000"}, "type": "Feature"}
{"geometry": {"coordinates": [-72.509089, 43.138332], "type": "Point"}, "id": "bF-fnkhTkgeoS8g2WSygKtqVXXA=", "properties": {"@source_uri": "https://tools.usps.com/UspsToolsRestServices/rest/POLocator/findLocations", "@spider": "usps_collection_boxes", "addr:city": "SAXTONS RIVER", "addr:country": "US", "addr:postcode": "05154", "addr:state": "VT", "addr:street_address": "39 MAIN ST", "amenity": "post_box", "collection_times": "Mo-Fr 16:45; Sa 10:45", "indoor": "yes", "note": "ON 12/24 AND 12/31, THIS BOX MAY BE COLLECTED AS EARLY AS 12 NOON.", "nsi_id": "unitedstatespostalservice-a77078", "operator": "United States Postal Service", "operator:short": "USPS", "operator:type": "public", "operator:wikidata": "Q668687", "ref": "0515400001"}, "type": "Feature"}
{"geometry": {"coordinates": [-72.509024906, 43.138408844], "type": "Point"}, "id": "m3Cdy8i12arZmxRt8cDB2D70LM4=", "properties": {"@source_uri": "https://tools.usps.com/UspsToolsRestServices/rest/POLocator/findLocations", "@spider": "usps_collection_boxes", "addr:city": "SAXTONS RIVER", "addr:country": "US", "addr:postcode": "05154", "addr:state": "VT", "addr:street_address": "39 MAIN ST", "amenity": "post_box", "collection_times": "Mo-Fr 16:30; Sa 10:30", "indoor": "yes", "note": "ON 12/24 AND 12/31, THIS BOX MAY BE COLLECTED AS EARLY AS 12 NOON.", "nsi_id": "unitedstatespostalservice-a77078", "operator": "United States Postal Service", "operator:short": "USPS", "operator:type": "public", "operator:wikidata": "Q668687", "ref": "0515400003"}, "type": "Feature"}
{"geometry": {"coordinates": [-72.8155025, 43.1884101], "type": "Point"}, "id": "k4dweV95HnI2wZVIFsPfDZAt8OI=", "properties": {"@source_uri": "https://tools.usps.com/UspsToolsRestServices/rest/POLocator/findLocations", "@spider": "usps_collection_boxes", "addr:city": "S LONDONDERRY", "addr:country": "US", "addr:postcode": "05155", "addr:state": "VT", "addr:street_address": "67 MAIN ST", "amenity": "post_box", "collection_times": "Mo-Fr 16:00; Sa 11:30", "note": "ON 12/24 AND 12/31, THIS BOX MAY BE COLLECTED AS EARLY AS 12 NOON.", "nsi_id": "unitedstatespostalservice-a77078", "operator": "United States Postal Service", "operator:short": "USPS", "operator:type": "public", "operator:wikidata": "Q668687", "ref": "0515500000"}, "type": "Feature"}
{"geometry": {"coordinates": [-72.8155025, 43.1884101], "type": "Point"}, "id": "B1KrcMtS4mPezYoL3I_ciWRkNVo=", "properties": {"@source_uri": "https://tools.usps.com/UspsToolsRestServices/rest/POLocator/findLocations", "@spider": "usps_collection_boxes", "addr:city": "S LONDONDERRY", "addr:country": "US", "addr:postcode": "05155", "addr:state": "VT", "addr:street_address": "67 MAIN ST", "amenity": "post_box", "collection_times": "Mo-Fr 16:00; Sa 11:30", "indoor": "yes", "note": "ON 12/24 AND 12/31, THIS BOX MAY BE COLLECTED AS EARLY AS 12 NOON.", "nsi_id": "unitedstatespostalservice-a77078", "operator": "United States Postal Service", "operator:short": "USPS", "operator:type": "public", "operator:wikidata": "Q668687", "ref": "0515500001"}, "type": "Feature"}
{"geometry": {"coordinates": [-72.8155025, 43.1884101], "type": "Point"}, "id": "U1Tck5XKm0JkV14ThRQ5N3Z7l7s=", "properties": {"@source_uri": "https://tools.usps.com/UspsToolsRestServices/rest/POLocator/findLocations", "@spider": "usps_collection_boxes", "addr:city": "S LONDONDERRY", "addr:country": "US", "addr:postcode": "05155", "addr:state": "VT", "addr:street_address": "67 MAIN ST", "amenity": "post_box", "collection_times": "Mo-Fr 16:00; Sa 11:00", "indoor": "yes", "note": "ON 12/24 AND 12/31, THIS BOX MAY BE COLLECTED AS EARLY AS 12 NOON.", "nsi_id": "unitedstatespostalservice-a77078", "operator": "United States Postal Service", "operator:short": "USPS", "operator:type": "public", "operator:wikidata": "Q668687", "ref": "0515500004"}, "type": "Feature"}
{"geometry": {"coordinates": [-72.4808257, 43.296046], "type": "Point"}, "id": "RTY2BIjdp4agyBPBaRiYx4ifucA=", "properties": {"@source_uri": "https://tools.usps.com/UspsToolsRestServices/rest/POLocator/findLocations", "@spider": "usps_collection_boxes", "addr:city": "SPRINGFIELD", "addr:country": "US", "addr:postcode": "05156", "addr:state": "VT", "addr:street_address": "132 MAIN ST", "amenity": "post_box", "collection_times": "Mo-Fr 17:15; Sa 14:30", "note": "ON 12/24 AND 12/31, THIS BOX MAY BE COLLECTED AS EARLY AS 12 NOON.", "nsi_id": "unitedstatespostalservice-a77078", "operator": "United States Postal Service", "operator:short": "USPS", "operator:type": "public", "operator:wikidata": "Q668687", "ref": "0515600001"}, "type": "Feature"}
{"geometry": {"coordinates": [-72.4815533, 43.299406], "type": "Point"}, "id": "0cA_Veea8Nsn4hUdEpSG96uuvIM=", "properties": {"@source_uri": "https://tools.usps.com/UspsToolsRestServices/rest/POLocator/findLocations", "@spider": "usps_collection_boxes", "addr:city": "SPRINGFIELD", "addr:country": "US", "addr:postcode": "05156", "addr:state": "VT", "addr:street_address": "6 MAIN ST", "amenity": "post_box", "collection_times": "Mo-Sa 09:00", "nsi_id": "unitedstatespostalservice-a77078", "operator": "United States Postal Service", "operator:short": "USPS", "operator:type": "public", "operator:wikidata": "Q668687", "ref": "0515600004"}, "type": "Feature"}
{"geometry": {"coordinates": [-72.4818108, 43.297675], "type": "Point"}, "id": "Bz8rFQIF2PB4S9V-j47XjRZ-258=", "properties": {"@source_uri": "https://tools.usps.com/UspsToolsRestServices/rest/POLocator/findLocations", "@spider": "usps_collection_boxes", "addr:city": "SPRINGFIELD", "addr:country": "US", "addr:postcode": "05156", "addr:state": "VT", "addr:street_address": "80 MAIN ST", "amenity": "post_box", "collection_times": "Mo-Sa 09:00", "nsi_id": "unitedstatespostalservice-a77078", "operator": "United States Postal Service", "operator:short": "USPS", "operator:type": "public", "operator:wikidata": "Q668687", "ref": "0515600008"}, "type": "Feature"}
{"geometry": {"coordinates": [-72.4829758, 43.302244], "type": "Point"}, "id": "CSzxM42mIX9A8U9ofAQKxAKFFnQ=", "properties": {"@source_uri": "https://tools.usps.com/UspsToolsRestServices/rest/POLocator/findLocations", "@spider": "usps_collection_boxes", "addr:city": "SPRINGFIELD", "addr:country": "US", "addr:postcode": "05156", "addr:state": "VT", "addr:street_address": "56 ELM HILL ST", "amenity": "post_box", "collection_times": "Mo-Sa 09:00", "nsi_id": "unitedstatespostalservice-a77078", "operator": "United States Postal Service", "operator:short": "USPS", "operator:type": "public", "operator:wikidata": "Q668687", "ref": "0515600010"}, "type": "Feature"}
{"geometry": {"coordinates": [-72.4918666, 43.302331], "type": "Point"}, "id": "fUXnTKSRn63X0z4MJ5TP_1Thk-Y=", "properties": {"@source_uri": "https://tools.usps.com/UspsToolsRestServices/rest/POLocator/findLocations", "@spider": "usps_collection_boxes", "addr:city": "SPRINGFIELD", "addr:country": "US", "addr:postcode": "05156", "addr:state": "VT", "addr:street_address": "2 CHESTER RD", "amenity": "post_box", "collection_times": "Mo-Sa 09:00", "nsi_id": "unitedstatespostalservice-a77078", "operator": "United States Postal Service", "operator:short": "USPS", "operator:type": "public", "operator:wikidata": "Q668687", "ref": "0515600011"}, "type": "Feature"}
{"geometry": {"coordinates": [-72.4806952, 43.294245], "type": "Point"}, "id": "rKlWHESgAOkjlGu9a6qurkw0suM=", "properties": {"@source_uri": "https://tools.usps.com/UspsToolsRestServices/rest/POLocator/findLocations", "@spider": "usps_collection_boxes", "addr:city": "SPRINGFIELD", "addr:country": "US", "addr:postcode": "05156", "addr:state": "VT", "addr:street_address": "1 MINERAL ST", "amenity": "post_box", "collection_times": "Mo-Sa 09:00", "nsi_id": "unitedstatespostalservice-a77078", "operator": "United States Postal Service", "operator:short": "USPS", "operator:type": "public", "operator:wikidata": "Q668687", "ref": "0515600018"}, "type": "Feature"}
{"geometry": {"coordinates": [-72.4949588, 43.297774], "type": "Point"}, "id": "8Hn8-JW68NQxUe0IF_f-g_wgJ-0=", "properties": {"@source_uri": "https://tools.usps.com/UspsToolsRestServices/rest/POLocator/findLocations", "@spider": "usps_collection_boxes", "addr:city": "SPRINGFIELD", "addr:country": "US", "addr:postcode": "05156", "addr:state": "VT", "addr:street_address": "25 RIDGEWOOD RD", "amenity": "post_box", "collection_times": "Mo-Sa 09:00", "nsi_id": "unitedstatespostalservice-a77078", "operator": "United States Postal Service", "operator:short": "USPS", "operator:type": "public", "operator:wikidata": "Q668687", "ref": "0515600021"}, "type": "Feature"}
{"geometry": {"coordinates": [-72.4859251, 43.301447], "type": "Point"}, "id": "I_A2ArkjINxtlB1u_1jUtL50Lp4=", "properties": {"@source_uri": "https://tools.usps.com/UspsToolsRestServices/rest/POLocator/findLocations", "@spider": "usps_collection_boxes", "addr:city": "SPRINGFIELD", "addr:country": "US", "addr:postcode": "05156", "addr:state": "VT", "addr:street_address": "100 RIVER ST", "amenity": "post_box", "collection_times": "Mo-Sa 09:00", "nsi_id": "unitedstatespostalservice-a77078", "operator": "United States Postal Service", "operator:short": "USPS", "operator:type": "public", "operator:wikidata": "Q668687", "ref": "0515600023"}, "type": "Feature"}
{"geometry": {"coordinates": [-72.4976587, 43.309084], "type": "Point"}, "id": "BQ81diA2BsqqUB5AoouYeZMu8DE=", "properties": {"@source_uri": "https://tools.usps.com/UspsToolsRestServices/rest/POLocator/findLocations", "@spider": "usps_collection_boxes", "addr:city": "SPRINGFIELD", "addr:country": "US", "addr:postcode": "05156", "addr:state": "VT", "addr:street_address": "258 RIVER ST", "amenity": "post_box", "collection_times": "Mo-Sa 09:00", "nsi_id": "unitedstatespostalservice-a77078", "operator": "United States Postal Service", "operator:short": "USPS", "operator:type": "public", "operator:wikidata": "Q668687", "ref": "0515600025"}, "type": "Feature"}
{"geometry": {"coordinates": [-72.5099174, 43.323832], "type": "Point"}, "id": "jaHZXolf3-a5UKBhNfQDP8Q1B80=", "properties": {"@source_uri": "https://tools.usps.com/UspsToolsRestServices/rest/POLocator/findLocations", "@spider": "usps_collection_boxes", "addr:city": "SPRINGFIELD", "addr:country": "US", "addr:postcode": "05156", "addr:state": "VT", "addr:street_address": "390 RIVER ST", "amenity": "post_box", "collection_times": "Mo-Sa 09:00", "nsi_id": "unitedstatespostalservice-a77078", "operator": "United States Postal Service", "operator:short": "USPS", "operator:type": "public", "operator:wikidata": "Q668687", "ref": "0515600026"}, "type": "Feature"}
{"geometry": {"coordinates": [-72.4769871, 43.285739], "type": "Point"}, "id": "Hbh90fp1mgZsD_rvKuMa_uwpEs0=", "properties": {"@source_uri": "https://tools.usps.com/UspsToolsRestServices/rest/POLocator/findLocations", "@spider": "usps_collection_boxes", "addr:city": "SPRINGFIELD", "addr:country": "US", "addr:postcode": "05156", "addr:state": "VT", "addr:street_address": "181 SOUTH ST", "amenity": "post_box", "collection_times": "Mo-Sa 09:00", "nsi_id": "unitedstatespostalservice-a77078", "operator": "United States Postal Service", "operator:short": "USPS", "operator:type": "public", "operator:wikidata": "Q668687", "ref": "0515600028"}, "type": "Feature"}
{"geometry": {"coordinates": [-72.4844366, 43.297621], "type": "Point"}, "id": "UMR1YFV76mp-JV5XRvhKK4GjfV0=", "properties": {"@source_uri": "https://tools.usps.com/UspsToolsRestServices/rest/POLocator/findLocations", "@spider": "usps_collection_boxes", "addr:city": "SPRINGFIELD", "addr:country": "US", "addr:postcode": "05156", "addr:state": "VT", "addr:street_address": "100 MINERAL ST", "amenity": "post_box", "collection_times": "Mo-Sa 09:00", "nsi_id": "unitedstatespostalservice-a77078", "operator": "United States Postal Service", "operator:short": "USPS", "operator:type": "public", "operator:wikidata": "Q668687", "ref": "0515600031"}, "type": "Feature"}
{"geometry": {"coordinates": [-72.457646, 43.068617], "type": "Point"}, "id": "arm3iYwWUyh3m3nmYFf8aLf2a4w=", "properties": {"@source_uri": "https://tools.usps.com/UspsToolsRestServices/rest/POLocator/findLocations", "@spider": "usps_collection_boxes", "addr:city": "WESTMINSTER", "addr:country": "US", "addr:postcode": "05158", "addr:state": "VT", "addr:street_address": "3658 US RT 5", "amenity": "post_box", "collection_times": "Mo-Fr 16:30; Sa 11:30", "note": "ON 12/24 AND 12/31, THIS BOX MAY BE COLLECTED AS EARLY AS 12 NOON.", "nsi_id": "unitedstatespostalservice-a77078", "operator": "United States Postal Service", "operator:short": "USPS", "operator:type": "public", "operator:wikidata": "Q668687", "ref": "0515800000"}, "type": "Feature"}
{"geometry": {"coordinates": [-72.457648, 43.068615], "type": "Point"}, "id": "PIg-dOcN_fj20cBX2QPde6g3qdo=", "properties": {"@source_uri": "https://tools.usps.com/UspsToolsRestServices/rest/POLocator/findLocations", "@spider": "usps_collection_boxes", "addr:city": "WESTMINSTER", "addr:country": "US", "addr:postcode": "05158", "addr:state": "VT", "addr:street_address": "3658 US RT 5", "amenity": "post_box", "collection_times": "Mo-Fr 16:30; Sa 11:30", "indoor": "yes", "note": "ON 12/24 AND 12/31, THIS BOX MAY BE COLLECTED AS EARLY AS 12 NOON.", "nsi_id": "unitedstatespostalservice-a77078", "operator": "United States Postal Service", "operator:short": "USPS", "operator:type": "public", "operator:wikidata": "Q668687", "ref": "0515800001"}, "type": "Feature"}
{"geometry": {"coordinates": [-72.457241964, 43.068985211], "type": "Point"}, "id": "5NmiewIpJVlQo_AD_s7f6ZE3Qxc=", "properties": {"@source_uri": "https://tools.usps.com/UspsToolsRestServices/rest/POLocator/findLocations", "@spider": "usps_collection_boxes", "addr:city": "WESTMINSTER", "addr:country": "US", "addr:postcode": "05158", "addr:state": "VT", "addr:street_address": "3658 US ROUTE 5", "amenity": "post_box", "collection_times": "Mo-Fr 17:00; Sa 11:30", "indoor": "yes", "note": "ON 12/24 AND 12/31, THIS BOX MAY BE COLLECTED AS EARLY AS 12 NOON.", "nsi_id": "unitedstatespostalservice-a77078", "operator": "United States Postal Service", "operator:short": "USPS", "operator:type": "public", "operator:wikidata": "Q668687", "ref": "0515800002"}, "type": "Feature"}
{"geometry": {"coordinates": [-72.439258, 43.085574], "type": "Point"}, "id": "D4-ouLUnSd7x_6UAQrzr6qXgAmo=", "properties": {"@source_uri": "https://tools.usps.com/UspsToolsRestServices/rest/POLocator/findLocations", "@spider": "usps_collection_boxes", "addr:city": "WESTMNSTR STA", "addr:country": "US", "addr:postcode": "05159", "addr:state": "VT", "addr:street_address": "5187 US ROUTE 5", "amenity": "post_box", "collection_times": "Mo-Fr 16:45; Sa 10:45", "note": "ON 12/24 AND 12/31, THIS BOX MAY BE COLLECTED AS EARLY AS 12 NOON.", "nsi_id": "unitedstatespostalservice-a77078", "operator": "United States Postal Service", "operator:short": "USPS", "operator:type": "public", "operator:wikidata": "Q668687", "ref": "0515900000"}, "type": "Feature"}
{"geometry": {"coordinates": [-72.439201, 43.085642], "type": "Point"}, "id": "Ndr0-8Ao1vYFek-Zja43RNWOu2Q=", "properties": {"@source_uri": "https://tools.usps.com/UspsToolsRestServices/rest/POLocator/findLocations", "@spider": "usps_collection_boxes", "addr:city": "WESTMNSTR STA", "addr:country": "US", "addr:postcode": "05159", "addr:state": "VT", "addr:street_address": "5187 US ROUTE 5", "amenity": "post_box", "collection_times": "Mo-Fr 16:45; Sa 10:45", "indoor": "yes", "note": "ON 12/24 AND 12/31, THIS BOX MAY BE COLLECTED AS EARLY AS 12 NOON.", "nsi_id": "unitedstatespostalservice-a77078", "operator": "United States Postal Service", "operator:short": "USPS", "operator:type": "public", "operator:wikidata": "Q668687", "ref": "0515900001"}, "type": "Feature"}
{"geometry": {"coordinates": [-72.439131084, 43.086258], "type": "Point"}, "id": "xcXC8V8bRyiuc9PUsKha8PhqDMM=", "properties": {"@source_uri": "https://tools.usps.com/UspsToolsRestServices/rest/POLocator/findLocations", "@spider": "usps_collection_boxes", "addr:city": "WESTMNSTR STA", "addr:country": "US", "addr:postcode": "05159", "addr:state": "VT", "addr:street_address": "5187 US ROUTE 5", "amenity": "post_box", "collection_times": "Mo-Fr 17:00; Sa 10:30", "indoor": "yes", "note": "ON 12/24 AND 12/31, THIS BOX MAY BE COLLECTED AS EARLY AS 12 NOON.", "nsi_id": "unitedstatespostalservice-a77078", "operator": "United States Postal Service", "operator:short": "USPS", "operator:type": "public", "operator:wikidata": "Q668687", "ref": "0515900002"}, "type": "Feature"}
{"geometry": {"coordinates": [-72.792871, 43.291224], "type": "Point"}, "id": "hVp_h8ipjo3W0KfdvZYPVl08nHw=", "properties": {"@source_uri": "https://tools.usps.com/UspsToolsRestServices/rest/POLocator/findLocations", "@spider": "usps_collection_boxes", "addr:city": "WESTON", "addr:country": "US", "addr:postcode": "05161", "addr:state": "VT", "addr:street_address": "664 MAIN ST", "amenity": "post_box", "collection_times": "Mo-Fr 14:30; Sa 11:00", "note": "ON 12/24 AND 12/31, THIS BOX MAY BE COLLECTED AS EARLY AS 12 NOON.", "nsi_id": "unitedstatespostalservice-a77078", "operator": "United States Postal Service", "operator:short": "USPS", "operator:type": "public", "operator:wikidata": "Q668687", "ref": "0516100000"}, "type": "Feature"}
{"geometry": {"coordinates": [-72.792871, 43.291224], "type": "Point"}, "id": "QPRME7Q2T-506OVVVFjkzJ5NvFg=", "properties": {"@source_uri": "https://tools.usps.com/UspsToolsRestServices/rest/POLocator/findLocations", "@spider": "usps_collection_boxes", "addr:city": "WESTON", "addr:country": "US", "addr:postcode": "05161", "addr:state": "VT", "addr:street_address": "664 MAIN ST", "amenity": "post_box", "collection_times": "Mo-Fr 14:30; Sa 11:00", "indoor": "yes", "note": "ON 12/24 AND 12/31, THIS BOX MAY BE COLLECTED AS EARLY AS 12 NOON.", "nsi_id": "unitedstatespostalservice-a77078", "operator": "United States Postal Service", "operator:short": "USPS", "operator:type": "public", "operator:wikidata": "Q668687", "ref": "0516100001"}, "type": "Feature"}
{"geometry": {"coordinates": [-72.792929041, 43.291090467], "type": "Point"}, "id": "LhV62LnNnmTAkcRt97aS3HkzSIQ=", "properties": {"@source_uri": "https://tools.usps.com/UspsToolsRestServices/rest/POLocator/findLocations", "@spider": "usps_collection_boxes", "addr:city": "WESTON", "addr:country": "US", "addr:postcode": "05161", "addr:state": "VT", "addr:street_address": "664 MAIN ST", "amenity": "post_box", "collection_times": "Mo-Fr 14:30; Sa 11:00", "indoor": "yes", "note": "ON 12/24 AND 12/31, THIS BOX MAY BE COLLECTED AS EARLY AS 12 NOON.", "nsi_id": "unitedstatespostalservice-a77078", "operator": "United States Postal Service", "operator:short": "USPS", "operator:type": "public", "operator:wikidata": "Q668687", "ref": "0516100003"}, "type": "Feature"}
