{"geometry": {"coordinates": [-73.2079421, 42.873615], "type": "Point"}, "id": "_IFR0Msrl9FbKrTNVRT_W4K-w08=", "properties": {"@source_uri": "https://tools.usps.com/UspsToolsRestServices/rest/POLocator/findLocations", "@spider": "usps_collection_boxes", "addr:city": "BENNINGTON", "addr:country": "US", "addr:postcode": "05201", "addr:state": "MA", "addr:street_address": "100 HOSPITAL DR", "amenity": "post_box", "collection_times": "Mo-Sa 09:00", "nsi_id": "unitedstatespostalservice-a77078", "operator": "United States Postal Service", "operator:short": "USPS", "operator:type": "public", "operator:wikidata": "Q668687", "ref": "0520100000"}, "type": "Feature"}
{"geometry": {"coordinates": [-73.197966, 42.876667], "type": "Point"}, "id": "LUOuWLgSqzVdZTz0NvCPm0TAvXQ=", "properties": {"@source_uri": "https://tools.usps.com/UspsToolsRestServices/rest/POLocator/findLocations", "@spider": "usps_collection_boxes", "addr:city": "BENNINGTON", "addr:country": "US", "addr:postcode": "05201", "addr:state": "MA", "addr:street_address": "108 ELM ST", "amenity": "post_box", "collection_times": "Mo-Fr 17:15; Sa 16:15", "note": "ON 12/24 AND 12/31, THIS BOX MAY BE COLLECTED AS EARLY AS 12 NOON.", "nsi_id": "unitedstatespostalservice-a77078", "operator": "United States Postal Service", "operator:short": "USPS", "operator:type": "public", "operator:wikidata": "Q668687", "ref": "0520100010"}, "type": "Feature"}
{"geometry": {"coordinates": [-73.1958417, 42.871358], "type": "Point"}, "id": "xZ0EJ3mkuMn3QvERuGZo-hze11I=", "properties": {"@source_uri": "https://tools.usps.com/UspsToolsRestServices/rest/POLocator/findLocations", "@spider": "usps_collection_boxes", "addr:city": "BENNINGTON", "addr:country": "US", "addr:postcode": "05201", "addr:state": "MA", "addr:street_address": "510 SOUTH ST", "amenity": "post_box", "collection_times": "Mo-Fr 12:30; Sa 12:00", "note": "ON 12/24 AND 12/31, THIS BOX MAY BE COLLECTED AS EARLY AS 12 NOON.", "nsi_id": "unitedstatespostalservice-a77078", "operator": "United States Postal Service", "operator:short": "USPS", "operator:type": "public", "operator:wikidata": "Q668687", "ref": "0520100011"}, "type": "Feature"}
{"geometry": {"coordinates": [-73.1984409, 42.893141], "type": "Point"}, "id": "bB70n07f92Ko1snS8HDNhWbgNrk=", "properties": {"@source_uri": "https://tools.usps.com/UspsToolsRestServices/rest/POLocator/findLocations", "@spider": "usps_collection_boxes", "addr:city": "BENNINGTON", "addr:country": "US", "addr:postcode": "05201", "addr:state": "MA", "addr:street_address": "3 BENNINGTON SQ", "amenity": "post_box", "collection_times": "Mo-Sa 09:00", "nsi_id": "unitedstatespostalservice-a77078", "operator": "United States Postal Service", "operator:short": "USPS", "operator:type": "public", "operator:wikidata": "Q668687", "ref": "0520100015"}, "type": "Feature"}
{"geometry": {"coordinates": [-73.2225487, 42.907379], "type": "Point"}, "id": "SU-f53dReYYCtDMFAIqoRK4yb0Y=", "properties": {"@source_uri": "https://tools.usps.com/UspsToolsRestServices/rest/POLocator/findLocations", "@spider": "usps_collection_boxes", "addr:city": "BENNINGTON", "addr:country": "US", "addr:postcode": "05201", "addr:state": "MA", "addr:street_address": "350 NORTHSIDE DR", "amenity": "post_box", "collection_times": "Mo-Sa 11:00", "nsi_id": "unitedstatespostalservice-a77078", "operator": "United States Postal Service", "operator:short": "USPS", "operator:type": "public", "operator:wikidata": "Q668687", "ref": "0520100016"}, "type": "Feature"}
{"geometry": {"coordinates": [-73.2119895, 42.898083], "type": "Point"}, "id": "1Vqb61YTbFst1dIkAzNpSBn0yCE=", "properties": {"@source_uri": "https://tools.usps.com/UspsToolsRestServices/rest/POLocator/findLocations", "@spider": "usps_collection_boxes", "addr:city": "BENNINGTON", "addr:country": "US", "addr:postcode": "05201", "addr:state": "MA", "addr:street_address": "212 NORTHSIDE DR", "amenity": "post_box", "collection_times": "Mo-Sa 11:00", "nsi_id": "unitedstatespostalservice-a77078", "operator": "United States Postal Service", "operator:short": "USPS", "operator:type": "public", "operator:wikidata": "Q668687", "ref": "0520100020"}, "type": "Feature"}
{"geometry": {"coordinates": [-73.1949104, 42.87822], "type": "Point"}, "id": "uq4tROYfjdPjEgqepXtDGlaVyq8=", "properties": {"@source_uri": "https://tools.usps.com/UspsToolsRestServices/rest/POLocator/findLocations", "@spider": "usps_collection_boxes", "addr:city": "BENNINGTON", "addr:country": "US", "addr:postcode": "05201", "addr:state": "MA", "addr:street_address": "500 MAIN ST", "amenity": "post_box", "collection_times": "Mo-Fr 16:00; Sa 15:00", "note": "ON 12/24 AND 12/31, THIS BOX MAY BE COLLECTED AS EARLY AS 12 NOON.", "nsi_id": "unitedstatespostalservice-a77078", "operator": "United States Postal Service", "operator:short": "USPS", "operator:type": "public", "operator:wikidata": "Q668687", "ref": "0520100032"}, "type": "Feature"}
{"geometry": {"coordinates": [-73.2021169, 42.884182], "type": "Point"}, "id": "agi6-DgmIJd3iNvwt59_KcDG8xE=", "properties": {"@source_uri": "https://tools.usps.com/UspsToolsRestServices/rest/POLocator/findLocations", "@spider": "usps_collection_boxes", "addr:city": "BENNINGTON", "addr:country": "US", "addr:postcode": "05201", "addr:state": "MA", "addr:street_address": "160 BENMONT AVE", "amenity": "post_box", "collection_times": "Mo-Fr 15:30; Sa 11:00", "note": "ON 12/24 AND 12/31, THIS BOX MAY BE COLLECTED AS EARLY AS 12 NOON.", "nsi_id": "unitedstatespostalservice-a77078", "operator": "United States Postal Service", "operator:short": "USPS", "operator:type": "public", "operator:wikidata": "Q668687", "ref": "0520100047"}, "type": "Feature"}
{"geometry": {"coordinates": [-73.197925, 42.876688], "type": "Point"}, "id": "mXDWrg4wIeM4l3CKJhjOD7plAps=", "properties": {"@source_uri": "https://tools.usps.com/UspsToolsRestServices/rest/POLocator/findLocations", "@spider": "usps_collection_boxes", "addr:city": "BENNINGTON", "addr:country": "US", "addr:postcode": "05201", "addr:state": "MA", "addr:street_address": "108 ELM ST", "amenity": "post_box", "collection_times": "Mo-Fr 17:15; Sa 16:15", "indoor": "yes", "note": "ON 12/24 AND 12/31, THIS BOX MAY BE COLLECTED AS EARLY AS 12 NOON.", "nsi_id": "unitedstatespostalservice-a77078", "operator": "United States Postal Service", "operator:short": "USPS", "operator:type": "public", "operator:wikidata": "Q668687", "ref": "0520100057"}, "type": "Feature"}
{"geometry": {"coordinates": [-73.1969353, 42.881754], "type": "Point"}, "id": "y_y6ASUChkHGqXDDMxIFELzVvH8=", "properties": {"@source_uri": "https://tools.usps.com/UspsToolsRestServices/rest/POLocator/findLocations", "@spider": "usps_collection_boxes", "addr:city": "BENNINGTON", "addr:country": "US", "addr:postcode": "05201", "addr:state": "MA", "addr:street_address": "205 NORTH ST", "amenity": "post_box", "collection_times": "Mo-Sa 11:00", "nsi_id": "unitedstatespostalservice-a77078", "operator": "United States Postal Service", "operator:short": "USPS", "operator:type": "public", "operator:wikidata": "Q668687", "ref": "0520100060"}, "type": "Feature"}
{"geometry": {"coordinates": [-73.1966499673, 42.8801159993], "type": "Point"}, "id": "hDrmvzSPCLxbYh-lgiXWbdwdKQQ=", "properties": {"@source_uri": "https://tools.usps.com/UspsToolsRestServices/rest/POLocator/findLocations", "@spider": "usps_collection_boxes", "addr:city": "BENNINGTON", "addr:country": "US", "addr:postcode": "05201", "addr:state": "MA", "addr:street_address": "155 NORTH ST", "amenity": "post_box", "collection_times": "Mo-Sa 10:00", "nsi_id": "unitedstatespostalservice-a77078", "operator": "United States Postal Service", "operator:short": "USPS", "operator:type": "public", "operator:wikidata": "Q668687", "ref": "0520100061"}, "type": "Feature"}
{"geometry": {"coordinates": [-73.198368, 42.885824], "type": "Point"}, "id": "7SZruGcoQhgFkTc2dT2u5O9w2Zg=", "properties": {"@source_uri": "https://tools.usps.com/UspsToolsRestServices/rest/POLocator/findLocations", "@spider": "usps_collection_boxes", "addr:city": "BENNINGTON", "addr:country": "US", "addr:postcode": "05201", "addr:state": "MA", "addr:street_address": "325 NORTH ST", "amenity": "post_box", "collection_times": "Mo-Sa 09:00", "nsi_id": "unitedstatespostalservice-a77078", "operator": "United States Postal Service", "operator:short": "USPS", "operator:type": "public", "operator:wikidata": "Q668687", "ref": "0520100063"}, "type": "Feature"}
{"geometry": {"coordinates": [-73.197134, 42.878077], "type": "Point"}, "id": "KnInlrQx7ZzaaWJ5TYXkafkNNdg=", "properties": {"@source_uri": "https://tools.usps.com/UspsToolsRestServices/rest/POLocator/findLocations", "@spider": "usps_collection_boxes", "addr:city": "BENNINGTON", "addr:country": "US", "addr:postcode": "05201", "addr:state": "MA", "addr:street_address": "401 MAIN ST", "amenity": "post_box", "collection_times": "Mo-Sa 16:00", "note": "ON 12/24 AND 12/31, THIS BOX MAY BE COLLECTED AS EARLY AS 12 NOON.", "nsi_id": "unitedstatespostalservice-a77078", "operator": "United States Postal Service", "operator:short": "USPS", "operator:type": "public", "operator:wikidata": "Q668687", "ref": "0520100065"}, "type": "Feature"}
{"geometry": {"coordinates": [-73.1990645, 42.888177], "type": "Point"}, "id": "6ZudvFi0uSbatdx7nWnCv65rWiU=", "properties": {"@source_uri": "https://tools.usps.com/UspsToolsRestServices/rest/POLocator/findLocations", "@spider": "usps_collection_boxes", "addr:city": "BENNINGTON", "addr:country": "US", "addr:postcode": "05201", "addr:state": "MA", "addr:street_address": "150 VETERANS MEMORIAL DR", "amenity": "post_box", "collection_times": "Mo-Fr 09:00", "nsi_id": "unitedstatespostalservice-a77078", "operator": "United States Postal Service", "operator:short": "USPS", "operator:type": "public", "operator:wikidata": "Q668687", "ref": "0520100066"}, "type": "Feature"}
{"geometry": {"coordinates": [-73.198377628, 42.876730751], "type": "Point"}, "id": "CHtfhbzR2JHy7nBNtW_NeU35jxo=", "properties": {"@source_uri": "https://tools.usps.com/UspsToolsRestServices/rest/POLocator/findLocations", "@spider": "usps_collection_boxes", "addr:city": "BENNINGTON", "addr:country": "US", "addr:postcode": "05201", "addr:state": "MA", "addr:street_address": "108 ELM ST", "amenity": "post_box", "collection_times": "Mo-Fr 17:00; Sa 14:00", "indoor": "yes", "note": "ON 12/24 AND 12/31, THIS BOX MAY BE COLLECTED AS EARLY AS 12 NOON.", "nsi_id": "unitedstatespostalservice-a77078", "operator": "United States Postal Service", "operator:short": "USPS", "operator:type": "public", "operator:wikidata": "Q668687", "ref": "0520100070"}, "type": "Feature"}
{"geometry": {"coordinates": [-73.1573134, 43.0722412], "type": "Point"}, "id": "vE2FafFqolmyIlj92ufE3kCLjmc=", "properties": {"@source_uri": "https://tools.usps.com/UspsToolsRestServices/rest/POLocator/findLocations", "@spider": "usps_collection_boxes", "addr:city": "ARLINGTON", "addr:country": "US", "addr:postcode": "05250", "addr:state": "VT", "addr:street_address": "3575 VT ROUTE 7A", "amenity": "post_box", "collection_times": "Mo-Fr 17:00; Sa 12:00", "indoor": "yes", "note": "ON 12/24 AND 12/31, THIS BOX MAY BE COLLECTED AS EARLY AS 12 NOON.", "nsi_id": "unitedstatespostalservice-a77078", "operator": "United States Postal Service", "operator:short": "USPS", "operator:type": "public", "operator:wikidata": "Q668687", "ref": "0525000003"}, "type": "Feature"}
{"geometry": {"coordinates": [-73.156155, 43.070277], "type": "Point"}, "id": "Mi--lfy7-sR0N3SswPU4hiEKIVI=", "properties": {"@source_uri": "https://tools.usps.com/UspsToolsRestServices/rest/POLocator/findLocations", "@spider": "usps_collection_boxes", "addr:city": "ARLINGTON", "addr:country": "US", "addr:postcode": "05250", "addr:state": "VT", "addr:street_address": "3575 VT ROUTE 7A", "amenity": "post_box", "collection_times": "Mo-Fr 17:00; Sa 12:00", "note": "ON 12/24 AND 12/31, THIS BOX MAY BE COLLECTED AS EARLY AS 12 NOON.", "nsi_id": "unitedstatespostalservice-a77078", "operator": "United States Postal Service", "operator:short": "USPS", "operator:type": "public", "operator:wikidata": "Q668687", "ref": "0525000006"}, "type": "Feature"}
{"geometry": {"coordinates": [-73.1573134, 43.0722412], "type": "Point"}, "id": "nto_rfLf__np71wArE85-6S885Y=", "properties": {"@source_uri": "https://tools.usps.com/UspsToolsRestServices/rest/POLocator/findLocations", "@spider": "usps_collection_boxes", "addr:city": "ARLINGTON", "addr:country": "US", "addr:postcode": "05250", "addr:state": "VT", "addr:street_address": "3575 VT ROUTE 7A", "amenity": "post_box", "collection_times": "Mo-Fr 16:30; Sa 11:30", "indoor": "yes", "note": "ON 12/24 AND 12/31, THIS BOX MAY BE COLLECTED AS EARLY AS 12 NOON.", "nsi_id": "unitedstatespostalservice-a77078", "operator": "United States Postal Service", "operator:short": "USPS", "operator:type": "public", "operator:wikidata": "Q668687", "ref": "0525000008"}, "type": "Feature"}
{"geometry": {"coordinates": [-73.098153, 43.254146], "type": "Point"}, "id": "FXmEyjVEjPdOXbkYRJYAyhMR5o0=", "properties": {"@source_uri": "https://tools.usps.com/UspsToolsRestServices/rest/POLocator/findLocations", "@spider": "usps_collection_boxes", "addr:city": "DORSET", "addr:country": "US", "addr:postcode": "05251", "addr:state": "VT", "addr:street_address": "3309 ROUTE 30", "amenity": "post_box", "collection_times": "Mo-Fr 16:45; Sa 11:45", "note": "ON 12/24 AND 12/31, THIS BOX MAY BE COLLECTED AS EARLY AS 12 NOON.", "nsi_id": "unitedstatespostalservice-a77078", "operator": "United States Postal Service", "operator:short": "USPS", "operator:type": "public", "operator:wikidata": "Q668687", "ref": "0525100000"}, "type": "Feature"}
{"geometry": {"coordinates": [-73.098159, 43.254195], "type": "Point"}, "id": "OirC3P-uOpMzyTA3Q7Iu1CNnnXc=", "properties": {"@source_uri": "https://tools.usps.com/UspsToolsRestServices/rest/POLocator/findLocations", "@spider": "usps_collection_boxes", "addr:city": "DORSET", "addr:country": "US", "addr:postcode": "05251", "addr:state": "VT", "addr:street_address": "3309 ROUTE 30", "amenity": "post_box", "collection_times": "Mo-Fr 16:45; Sa 12:00", "indoor": "yes", "note": "ON 12/24 AND 12/31, THIS BOX MAY BE COLLECTED AS EARLY AS 12 NOON.", "nsi_id": "unitedstatespostalservice-a77078", "operator": "United States Postal Service", "operator:short": "USPS", "operator:type": "public", "operator:wikidata": "Q668687", "ref": "0525100001"}, "type": "Feature"}
{"geometry": {"coordinates": [-73.098223616, 43.254198986], "type": "Point"}, "id": "SmyzYiGHyqWWOG9wtUB7DBmebfQ=", "properties": {"@source_uri": "https://tools.usps.com/UspsToolsRestServices/rest/POLocator/findLocations", "@spider": "usps_collection_boxes", "addr:city": "DORSET", "addr:country": "US", "addr:postcode": "05251", "addr:state": "VT", "addr:street_address": "3309 ROUTE 30", "amenity": "post_box", "collection_times": "Mo-Fr 16:30; Sa 11:45", "indoor": "yes", "note": "ON 12/24 AND 12/31, THIS BOX MAY BE COLLECTED AS EARLY AS 12 NOON.", "nsi_id": "unitedstatespostalservice-a77078", "operator": "United States Postal Service", "operator:short": "USPS", "operator:type": "public", "operator:wikidata": "Q668687", "ref": "0525100004"}, "type": "Feature"}
{"geometry": {"coordinates": [-73.140705, 43.060237], "type": "Point"}, "id": "ktYhC2GfMF5S6o67zrevE-TFN9Q=", "properties": {"@source_uri": "https://tools.usps.com/UspsToolsRestServices/rest/POLocator/findLocations", "@spider": "usps_collection_boxes", "addr:city": "EAST ARLINGTON", "addr:country": "US", "addr:postcode": "05252", "addr:state": "VT", "addr:street_address": "243 OLD MILL RD", "amenity": "post_box", "collection_times": "Mo-Fr 16:30; Sa 11:30", "indoor": "yes", "note": "ON 12/24 AND 12/31, THIS BOX MAY BE COLLECTED AS EARLY AS 12 NOON.", "nsi_id": "unitedstatespostalservice-a77078", "operator": "United States Postal Service", "operator:short": "USPS", "operator:type": "public", "operator:wikidata": "Q668687", "ref": "0525200001"}, "type": "Feature"}
{"geometry": {"coordinates": [-73.14070773, 43.060234263], "type": "Point"}, "id": "iIBwBl9AKoLlXnuKwXdKIMJcX18=", "properties": {"@source_uri": "https://tools.usps.com/UspsToolsRestServices/rest/POLocator/findLocations", "@spider": "usps_collection_boxes", "addr:city": "EAST ARLINGTON", "addr:country": "US", "addr:postcode": "05252", "addr:state": "VT", "addr:street_address": "243 OLD MILL RD STE 1", "amenity": "post_box", "collection_times": "Mo-Fr 17:00; Sa 11:30", "indoor": "yes", "note": "ON 12/24 AND 12/31, THIS BOX MAY BE COLLECTED AS EARLY AS 12 NOON.", "nsi_id": "unitedstatespostalservice-a77078", "operator": "United States Postal Service", "operator:short": "USPS", "operator:type": "public", "operator:wikidata": "Q668687", "ref": "0525200003"}, "type": "Feature"}
{"geometry": {"coordinates": [-73.00946, 43.2398], "type": "Point"}, "id": "lxAWqaN0gp8akr4sdF6jz6J6ZB4=", "properties": {"@source_uri": "https://tools.usps.com/UspsToolsRestServices/rest/POLocator/findLocations", "@spider": "usps_collection_boxes", "addr:city": "EAST DORSET", "addr:country": "US", "addr:postcode": "05253", "addr:state": "VT", "addr:street_address": "35 MAD TOM RD", "amenity": "post_box", "collection_times": "Mo-Fr 16:30; Sa 11:30", "note": "ON 12/24 AND 12/31, THIS BOX MAY BE COLLECTED AS EARLY AS 12 NOON.", "nsi_id": "unitedstatespostalservice-a77078", "operator": "United States Postal Service", "operator:short": "USPS", "operator:type": "public", "operator:wikidata": "Q668687", "ref": "0525300000"}, "type": "Feature"}
{"geometry": {"coordinates": [-73.009503, 43.239781], "type": "Point"}, "id": "B2S0NfnzRFM3THfU1xjlWQH2xAU=", "properties": {"@source_uri": "https://tools.usps.com/UspsToolsRestServices/rest/POLocator/findLocations", "@spider": "usps_collection_boxes", "addr:city": "EAST DORSET", "addr:country": "US", "addr:postcode": "05253", "addr:state": "VT", "addr:street_address": "35 MAD TOM RD", "amenity": "post_box", "collection_times": "Mo-Fr 16:30; Sa 11:30", "indoor": "yes", "note": "ON 12/24 AND 12/31, THIS BOX MAY BE COLLECTED AS EARLY AS 12 NOON.", "nsi_id": "unitedstatespostalservice-a77078", "operator": "United States Postal Service", "operator:short": "USPS", "operator:type": "public", "operator:wikidata": "Q668687", "ref": "0525300001"}, "type": "Feature"}
{"geometry": {"coordinates": [-73.009448822, 43.239796249], "type": "Point"}, "id": "Ce2YIddzJn1q25jrFrkG-1wzzBE=", "properties": {"@source_uri": "https://tools.usps.com/UspsToolsRestServices/rest/POLocator/findLocations", "@spider": "usps_collection_boxes", "addr:city": "EAST DORSET", "addr:country": "US", "addr:postcode": "05253", "addr:state": "VT", "addr:street_address": "35 MAD TOM RD", "amenity": "post_box", "collection_times": "Mo-Fr 16:30; Sa 11:30", "indoor": "yes", "note": "ON 12/24 AND 12/31, THIS BOX MAY BE COLLECTED AS EARLY AS 12 NOON.", "nsi_id": "unitedstatespostalservice-a77078", "operator": "United States Postal Service", "operator:short": "USPS", "operator:type": "public", "operator:wikidata": "Q668687", "ref": "0525300002"}, "type": "Feature"}
{"geometry": {"coordinates": [-73.073331, 43.163568], "type": "Point"}, "id": "UACwjnNsDAeF6W9sNWJzgfBppz4=", "properties": {"@source_uri": "https://tools.usps.com/UspsToolsRestServices/rest/POLocator/findLocations", "@spider": "usps_collection_boxes", "addr:city": "MANCHESTER", "addr:country": "US", "addr:postcode": "05254", "addr:state": "VT", "addr:street_address": "300 SEMINARY AVE", "amenity": "post_box", "collection_times": "Mo-Fr 16:45; Sa 12:00", "note": "ON 12/24 AND 12/31, THIS BOX MAY BE COLLECTED AS EARLY AS 12 NOON.", "nsi_id": "unitedstatespostalservice-a77078", "operator": "United States Postal Service", "operator:short": "USPS", "operator:type": "public", "operator:wikidata": "Q668687", "ref": "0525400000"}, "type": "Feature"}
{"geometry": {"coordinates": [-73.073368, 43.163598], "type": "Point"}, "id": "rna9ecSRV7kKy0zf8iLEQsPBLqQ=", "properties": {"@source_uri": "https://tools.usps.com/UspsToolsRestServices/rest/POLocator/findLocations", "@spider": "usps_collection_boxes", "addr:city": "MANCHESTER", "addr:country": "US", "addr:postcode": "05254", "addr:state": "VT", "addr:street_address": "300 SEMINARY AVE", "amenity": "post_box", "collection_times": "Mo-Fr 16:45; Sa 12:00", "indoor": "yes", "note": "ON 12/24 AND 12/31, THIS BOX MAY BE COLLECTED AS EARLY AS 12 NOON.", "nsi_id": "unitedstatespostalservice-a77078", "operator": "United States Postal Service", "operator:short": "USPS", "operator:type": "public", "operator:wikidata": "Q668687", "ref": "0525400004"}, "type": "Feature"}
{"geometry": {"coordinates": [-73.073043367, 43.163549551], "type": "Point"}, "id": "CeMiX1_zcW-EaGr5S8eY-_fIHwk=", "properties": {"@source_uri": "https://tools.usps.com/UspsToolsRestServices/rest/POLocator/findLocations", "@spider": "usps_collection_boxes", "addr:city": "MANCHESTER", "addr:country": "US", "addr:postcode": "05254", "addr:state": "VT", "addr:street_address": "300 SEMINARY AVE", "amenity": "post_box", "collection_times": "Mo-Fr 16:30; Sa 12:00", "indoor": "yes", "note": "ON 12/24 AND 12/31, THIS BOX MAY BE COLLECTED AS EARLY AS 12 NOON.", "nsi_id": "unitedstatespostalservice-a77078", "operator": "United States Postal Service", "operator:short": "USPS", "operator:type": "public", "operator:wikidata": "Q668687", "ref": "0525400006"}, "type": "Feature"}
{"geometry": {"coordinates": [-73.048894, 43.168067], "type": "Point"}, "id": "OvRfcwRZRYMI_oN8Jxr_LbcrTjc=", "properties": {"@source_uri": "https://tools.usps.com/UspsToolsRestServices/rest/POLocator/findLocations", "@spider": "usps_collection_boxes", "addr:city": "MANCHESTR CTR", "addr:country": "US", "addr:postcode": "05255", "addr:state": "VT", "addr:street_address": "3452 RICHVILLE RD", "amenity": "post_box", "collection_times": "Mo-Fr 16:45; Sa 13:00", "note": "ON 12/24 AND 12/31, THIS BOX MAY BE COLLECTED AS EARLY AS 12 NOON.", "nsi_id": "unitedstatespostalservice-a77078", "operator": "United States Postal Service", "operator:short": "USPS", "operator:type": "public", "operator:wikidata": "Q668687", "ref": "0525500001"}, "type": "Feature"}
{"geometry": {"coordinates": [-73.048932, 43.168067], "type": "Point"}, "id": "dUX-mo4s3vP9UXBwg66K1erkoII=", "properties": {"@source_uri": "https://tools.usps.com/UspsToolsRestServices/rest/POLocator/findLocations", "@spider": "usps_collection_boxes", "addr:city": "MANCHESTR CTR", "addr:country": "US", "addr:postcode": "05255", "addr:state": "VT", "addr:street_address": "3452 RICHVILLE RD", "amenity": "post_box", "collection_times": "Mo-Fr 16:45; Sa 13:00", "note": "ON 12/24 AND 12/31, THIS BOX MAY BE COLLECTED AS EARLY AS 12 NOON.", "nsi_id": "unitedstatespostalservice-a77078", "operator": "United States Postal Service", "operator:short": "USPS", "operator:type": "public", "operator:wikidata": "Q668687", "ref": "0525500002"}, "type": "Feature"}
{"geometry": {"coordinates": [-73.054834, 43.177515], "type": "Point"}, "id": "0NlXVA_P_vVlmzwLyMa6YBY6tMU=", "properties": {"@source_uri": "https://tools.usps.com/UspsToolsRestServices/rest/POLocator/findLocations", "@spider": "usps_collection_boxes", "addr:city": "MANCHESTR CTR", "addr:country": "US", "addr:postcode": "05255", "addr:state": "VT", "addr:street_address": "4993 MAIN ST", "amenity": "post_box", "collection_times": "Mo-Fr 15:00; Sa 11:30", "note": "ON 12/24 AND 12/31, THIS BOX MAY BE COLLECTED AS EARLY AS 12 NOON.", "nsi_id": "unitedstatespostalservice-a77078", "operator": "United States Postal Service", "operator:short": "USPS", "operator:type": "public", "operator:wikidata": "Q668687", "ref": "0525500003"}, "type": "Feature"}
{"geometry": {"coordinates": [-73.046862, 43.173722], "type": "Point"}, "id": "1BSgGPAiL23vfRNJuLrkMG6h_6A=", "properties": {"@source_uri": "https://tools.usps.com/UspsToolsRestServices/rest/POLocator/findLocations", "@spider": "usps_collection_boxes", "addr:city": "MANCHESTR CTR", "addr:country": "US", "addr:postcode": "05255", "addr:state": "VT", "addr:street_address": "150 ELM ST", "amenity": "post_box", "collection_times": "Mo-Fr 15:00; Sa 11:30", "note": "ON 12/24 AND 12/31, THIS BOX MAY BE COLLECTED AS EARLY AS 12 NOON.", "nsi_id": "unitedstatespostalservice-a77078", "operator": "United States Postal Service", "operator:short": "USPS", "operator:type": "public", "operator:wikidata": "Q668687", "ref": "0525500008"}, "type": "Feature"}
{"geometry": {"coordinates": [-73.050873, 43.174075], "type": "Point"}, "id": "97OEDG6Jy8SoEC6ofHZLXc2lVMY=", "properties": {"@source_uri": "https://tools.usps.com/UspsToolsRestServices/rest/POLocator/findLocations", "@spider": "usps_collection_boxes", "addr:city": "MANCHESTR CTR", "addr:country": "US", "addr:postcode": "05255", "addr:state": "VT", "addr:street_address": "371 DEPOT ST", "amenity": "post_box", "collection_times": "Mo-Fr 15:00; Sa 11:30", "note": "ON 12/24 AND 12/31, THIS BOX MAY BE COLLECTED AS EARLY AS 12 NOON.", "nsi_id": "unitedstatespostalservice-a77078", "operator": "United States Postal Service", "operator:short": "USPS", "operator:type": "public", "operator:wikidata": "Q668687", "ref": "0525500009"}, "type": "Feature"}
{"geometry": {"coordinates": [-73.061089, 43.172474], "type": "Point"}, "id": "ua1nNjv1joWeqfAb_N9GhOQwOUI=", "properties": {"@source_uri": "https://tools.usps.com/UspsToolsRestServices/rest/POLocator/findLocations", "@spider": "usps_collection_boxes", "addr:city": "MANCHESTR CTR", "addr:country": "US", "addr:postcode": "05255", "addr:state": "VT", "addr:street_address": "64 EQUINOX TER", "amenity": "post_box", "collection_times": "Mo-Fr 15:00; Sa 11:30", "note": "ON 12/24 AND 12/31, THIS BOX MAY BE COLLECTED AS EARLY AS 12 NOON.", "nsi_id": "unitedstatespostalservice-a77078", "operator": "United States Postal Service", "operator:short": "USPS", "operator:type": "public", "operator:wikidata": "Q668687", "ref": "0525500011"}, "type": "Feature"}
{"geometry": {"coordinates": [-73.048932, 43.168067], "type": "Point"}, "id": "3XPRK8-qsqbzMI9wdwL21U6Us-Y=", "properties": {"@source_uri": "https://tools.usps.com/UspsToolsRestServices/rest/POLocator/findLocations", "@spider": "usps_collection_boxes", "addr:city": "MANCHESTR CTR", "addr:country": "US", "addr:postcode": "05255", "addr:state": "VT", "addr:street_address": "3452 RICHVILLE RD", "amenity": "post_box", "collection_times": "Mo-Fr 16:45; Sa 13:00", "indoor": "yes", "note": "ON 12/24 AND 12/31, THIS BOX MAY BE COLLECTED AS EARLY AS 12 NOON.", "nsi_id": "unitedstatespostalservice-a77078", "operator": "United States Postal Service", "operator:short": "USPS", "operator:type": "public", "operator:wikidata": "Q668687", "ref": "0525500013"}, "type": "Feature"}
{"geometry": {"coordinates": [-73.048877808, 43.168127043], "type": "Point"}, "id": "zaLlmgmrUObHoVYy5kcUDF9e5dg=", "properties": {"@source_uri": "https://tools.usps.com/UspsToolsRestServices/rest/POLocator/findLocations", "@spider": "usps_collection_boxes", "addr:city": "MANCHESTR CTR", "addr:country": "US", "addr:postcode": "05255", "addr:state": "VT", "addr:street_address": "3452 RICHVILLE RD", "amenity": "post_box", "collection_times": "Mo-Fr 16:30; Sa 12:00", "indoor": "yes", "note": "ON 12/24 AND 12/31, THIS BOX MAY BE COLLECTED AS EARLY AS 12 NOON.", "nsi_id": "unitedstatespostalservice-a77078", "operator": "United States Postal Service", "operator:short": "USPS", "operator:type": "public", "operator:wikidata": "Q668687", "ref": "0525500020"}, "type": "Feature"}
{"geometry": {"coordinates": [-73.242718, 42.932183], "type": "Point"}, "id": "T7Ue94fdo3ZQ2NrG3Z1e8butHLU=", "properties": {"@source_uri": "https://tools.usps.com/UspsToolsRestServices/rest/POLocator/findLocations", "@spider": "usps_collection_boxes", "addr:city": "N BENNINGTON", "addr:country": "US", "addr:postcode": "05257", "addr:state": "VT", "addr:street_address": "52 MAIN ST", "amenity": "post_box", "collection_times": "Mo-Fr 16:15; Sa 11:30", "note": "ON 12/24 AND 12/31, THIS BOX MAY BE COLLECTED AS EARLY AS 12 NOON.", "nsi_id": "unitedstatespostalservice-a77078", "operator": "United States Postal Service", "operator:short": "USPS", "operator:type": "public", "operator:wikidata": "Q668687", "ref": "0525700001"}, "type": "Feature"}
{"geometry": {"coordinates": [-73.242687, 42.932274], "type": "Point"}, "id": "K2xYSnnx_X42h5jZCBeDLRw1w5g=", "properties": {"@source_uri": "https://tools.usps.com/UspsToolsRestServices/rest/POLocator/findLocations", "@spider": "usps_collection_boxes", "addr:city": "N BENNINGTON", "addr:country": "US", "addr:postcode": "05257", "addr:state": "VT", "addr:street_address": "52 MAIN ST", "amenity": "post_box", "collection_times": "Mo-Fr 16:30; Sa 11:30", "indoor": "yes", "note": "ON 12/24 AND 12/31, THIS BOX MAY BE COLLECTED AS EARLY AS 12 NOON.", "nsi_id": "unitedstatespostalservice-a77078", "operator": "United States Postal Service", "operator:short": "USPS", "operator:type": "public", "operator:wikidata": "Q668687", "ref": "0525700002"}, "type": "Feature"}
{"geometry": {"coordinates": [-73.242719286, 42.932139957], "type": "Point"}, "id": "I7l4bG9EWXnMLD2fc-jlnqehhEY=", "properties": {"@source_uri": "https://tools.usps.com/UspsToolsRestServices/rest/POLocator/findLocations", "@spider": "usps_collection_boxes", "addr:city": "N BENNINGTON", "addr:country": "US", "addr:postcode": "05257", "addr:state": "VT", "addr:street_address": "52 MAIN ST", "amenity": "post_box", "collection_times": "Mo-Fr 16:30; Sa 11:30", "indoor": "yes", "note": "ON 12/24 AND 12/31, THIS BOX MAY BE COLLECTED AS EARLY AS 12 NOON.", "nsi_id": "unitedstatespostalservice-a77078", "operator": "United States Postal Service", "operator:short": "USPS", "operator:type": "public", "operator:wikidata": "Q668687", "ref": "0525700005"}, "type": "Feature"}
{"geometry": {"coordinates": [-73.266874, 42.805415], "type": "Point"}, "id": "XBB0XKm-a3-TrpM-7ueQzB9pos0=", "properties": {"@source_uri": "https://tools.usps.com/UspsToolsRestServices/rest/POLocator/findLocations", "@spider": "usps_collection_boxes", "addr:city": "NORTH POWNAL", "addr:country": "US", "addr:postcode": "05260", "addr:state": "VT", "addr:street_address": "3616 ROUTE 346", "amenity": "post_box", "collection_times": "Mo-Fr 16:30; Sa 11:30", "note": "ON 12/24 AND 12/31, THIS BOX MAY BE COLLECTED AS EARLY AS 12 NOON.", "nsi_id": "unitedstatespostalservice-a77078", "operator": "United States Postal Service", "operator:short": "USPS", "operator:type": "public", "operator:wikidata": "Q668687", "ref": "0526000000"}, "type": "Feature"}
{"geometry": {"coordinates": [-73.26688, 42.80538], "type": "Point"}, "id": "FvQhkKQ0Xged3kpcKP5ER9LP330=", "properties": {"@source_uri": "https://tools.usps.com/UspsToolsRestServices/rest/POLocator/findLocations", "@spider": "usps_collection_boxes", "addr:city": "NORTH POWNAL", "addr:country": "US", "addr:postcode": "05260", "addr:state": "VT", "addr:street_address": "3616 ROUTE 346", "amenity": "post_box", "collection_times": "Mo-Fr 16:30; Sa 11:30", "indoor": "yes", "note": "ON 12/24 AND 12/31, THIS BOX MAY BE COLLECTED AS EARLY AS 12 NOON.", "nsi_id": "unitedstatespostalservice-a77078", "operator": "United States Postal Service", "operator:short": "USPS", "operator:type": "public", "operator:wikidata": "Q668687", "ref": "0526000001"}, "type": "Feature"}
{"geometry": {"coordinates": [-73.266895096, 42.805418929], "type": "Point"}, "id": "5u05mdTB3L86-LgpMC36MjWLYhs=", "properties": {"@source_uri": "https://tools.usps.com/UspsToolsRestServices/rest/POLocator/findLocations", "@spider": "usps_collection_boxes", "addr:city": "NORTH POWNAL", "addr:country": "US", "addr:postcode": "05260", "addr:state": "VT", "addr:street_address": "3616 ROUTE 346", "amenity": "post_box", "collection_times": "Mo-Fr 16:30; Sa 11:00", "indoor": "yes", "note": "ON 12/24 AND 12/31, THIS BOX MAY BE COLLECTED AS EARLY AS 12 NOON.", "nsi_id": "unitedstatespostalservice-a77078", "operator": "United States Postal Service", "operator:short": "USPS", "operator:type": "public", "operator:wikidata": "Q668687", "ref": "0526000002"}, "type": "Feature"}
{"geometry": {"coordinates": [-73.235345, 42.765009], "type": "Point"}, "id": "RNkl79Cvuad-I_qqz2U3Rqkj5t0=", "properties": {"@source_uri": "https://tools.usps.com/UspsToolsRestServices/rest/POLocator/findLocations", "@spider": "usps_collection_boxes", "addr:city": "POWNAL", "addr:country": "US", "addr:postcode": "05261", "addr:state": "VT", "addr:street_address": "235 ROUTE 346", "amenity": "post_box", "collection_times": "Mo-Fr 16:30; Sa 11:30", "note": "ON 12/24 AND 12/31, THIS BOX MAY BE COLLECTED AS EARLY AS 12 NOON.", "nsi_id": "unitedstatespostalservice-a77078", "operator": "United States Postal Service", "operator:short": "USPS", "operator:type": "public", "operator:wikidata": "Q668687", "ref": "0526100000"}, "type": "Feature"}
{"geometry": {"coordinates": [-73.235414, 42.765086], "type": "Point"}, "id": "Xy0ieTOR6N6HFQcohLEGavCQSws=", "properties": {"@source_uri": "https://tools.usps.com/UspsToolsRestServices/rest/POLocator/findLocations", "@spider": "usps_collection_boxes", "addr:city": "POWNAL", "addr:country": "US", "addr:postcode": "05261", "addr:state": "VT", "addr:street_address": "235 ROUTE 346", "amenity": "post_box", "collection_times": "Mo-Fr 16:30; Sa 11:30", "indoor": "yes", "note": "ON 12/24 AND 12/31, THIS BOX MAY BE COLLECTED AS EARLY AS 12 NOON.", "nsi_id": "unitedstatespostalservice-a77078", "operator": "United States Postal Service", "operator:short": "USPS", "operator:type": "public", "operator:wikidata": "Q668687", "ref": "0526100001"}, "type": "Feature"}
{"geometry": {"coordinates": [-73.235319274, 42.764983912], "type": "Point"}, "id": "tES47gLUb957TEiKOh1zzyl1sdU=", "properties": {"@source_uri": "https://tools.usps.com/UspsToolsRestServices/rest/POLocator/findLocations", "@spider": "usps_collection_boxes", "addr:city": "POWNAL", "addr:country": "US", "addr:postcode": "05261", "addr:state": "VT", "addr:street_address": "235 ROUTE 346", "amenity": "post_box", "collection_times": "Mo-Fr 16:30; Sa 11:30", "indoor": "yes", "note": "ON 12/24 AND 12/31, THIS BOX MAY BE COLLECTED AS EARLY AS 12 NOON.", "nsi_id": "unitedstatespostalservice-a77078", "operator": "United States Postal Service", "operator:short": "USPS", "operator:type": "public", "operator:wikidata": "Q668687", "ref": "0526100003"}, "type": "Feature"}
{"geometry": {"coordinates": [-73.211972, 42.946352], "type": "Point"}, "id": "iPQvKsFxWccUF6ayvl1PU0lJZDw=", "properties": {"@source_uri": "https://tools.usps.com/UspsToolsRestServices/rest/POLocator/findLocations", "@spider": "usps_collection_boxes", "addr:city": "SHAFTSBURY", "addr:country": "US", "addr:postcode": "05262", "addr:state": "VT", "addr:street_address": "56 CHURCH ST", "amenity": "post_box", "collection_times": "Mo-Fr 16:30; Sa 11:30", "note": "ON 12/24 AND 12/31, THIS BOX MAY BE COLLECTED AS EARLY AS 12 NOON.", "nsi_id": "unitedstatespostalservice-a77078", "operator": "United States Postal Service", "operator:short": "USPS", "operator:type": "public", "operator:wikidata": "Q668687", "ref": "0526200001"}, "type": "Feature"}
{"geometry": {"coordinates": [-73.212022, 42.946328], "type": "Point"}, "id": "QdtqSGqNd6WDI8nkbXfmZVbU8is=", "properties": {"@source_uri": "https://tools.usps.com/UspsToolsRestServices/rest/POLocator/findLocations", "@spider": "usps_collection_boxes", "addr:city": "SHAFTSBURY", "addr:country": "US", "addr:postcode": "05262", "addr:state": "VT", "addr:street_address": "56 CHURCH ST", "amenity": "post_box", "collection_times": "Mo-Fr 16:30; Sa 11:30", "indoor": "yes", "note": "ON 12/24 AND 12/31, THIS BOX MAY BE COLLECTED AS EARLY AS 12 NOON.", "nsi_id": "unitedstatespostalservice-a77078", "operator": "United States Postal Service", "operator:short": "USPS", "operator:type": "public", "operator:wikidata": "Q668687", "ref": "0526200003"}, "type": "Feature"}
{"geometry": {"coordinates": [-73.212138692, 42.946349465], "type": "Point"}, "id": "DR0MrVTWJC670pbkYDNjXFNAYBU=", "properties": {"@source_uri": "https://tools.usps.com/UspsToolsRestServices/rest/POLocator/findLocations", "@spider": "usps_collection_boxes", "addr:city": "SHAFTSBURY", "addr:country": "US", "addr:postcode": "05262", "addr:state": "VT", "addr:street_address": "56 CHURCH ST", "amenity": "post_box", "collection_times": "Mo-Fr 16:30; Sa 11:30", "indoor": "yes", "note": "ON 12/24 AND 12/31, THIS BOX MAY BE COLLECTED AS EARLY AS 12 NOON.", "nsi_id": "unitedstatespostalservice-a77078", "operator": "United States Postal Service", "operator:short": "USPS", "operator:type": "public", "operator:wikidata": "Q668687", "ref": "0526200005"}, "type": "Feature"}
