{"dataset_attributes": {"@spider": "usps_collection_boxes", "spider:collection_time": "2023-12-28T08:25:01.581378"}, "geometry": {"coordinates": [-72.5590364, 42.854515], "type": "Point"}, "id": "btAhdmEBOW2U8Wtyb8ZFZHQJ6fQ=", "properties": {"@spider": "usps_collection_boxes", "addr:city": "GUILFORD", "addr:country": "US", "addr:full": "204 MAIN ST", "addr:postcode": "05301", "addr:state": "VT", "amenity": "post_box", "brand": "United States Postal Service", "brand:wikidata": "Q668687", "collection_times": "Mo-Fr 17:30; Sa 15:00", "name": "USPS COLLECTION BOX - BLUE BOX", "note": "ON 12/24 AND 12/31, THIS BOX MAY BE COLLECTED AS EARLY AS 12 NOON.", "nsi_id": "unitedstatespostalservice-a77078", "operator": "United States Postal Service", "operator:short": "USPS", "operator:type": "public", "operator:wikidata": "Q668687", "ref": "0530100001"}, "type": "Feature"}
{"dataset_attributes": {"@spider": "usps_collection_boxes", "spider:collection_time": "2023-12-28T08:25:01.581378"}, "geometry": {"coordinates": [-72.5590926, 42.854493], "type": "Point"}, "id": "PW7xymeMjYWb7MQz_CR62AW6WmY=", "properties": {"@spider": "usps_collection_boxes", "addr:city": "GUILFORD", "addr:country": "US", "addr:full": "204 MAIN ST", "addr:postcode": "05301", "addr:state": "VT", "amenity": "post_box", "brand": "United States Postal Service", "brand:wikidata": "Q668687", "collection_times": "Mo-Fr 17:30; Sa 15:00", "name": "USPS COLLECTION BOX - BLUE BOX", "note": "ON 12/24 AND 12/31, THIS BOX MAY BE COLLECTED AS EARLY AS 12 NOON.", "nsi_id": "unitedstatespostalservice-a77078", "operator": "United States Postal Service", "operator:short": "USPS", "operator:type": "public", "operator:wikidata": "Q668687", "ref": "0530100003"}, "type": "Feature"}
{"dataset_attributes": {"@spider": "usps_collection_boxes", "spider:collection_time": "2023-12-28T08:25:01.581378"}, "geometry": {"coordinates": [-72.5621067, 42.856972], "type": "Point"}, "id": "YzAn9BNrLpfT2mcipY6JV4fbHHs=", "properties": {"@spider": "usps_collection_boxes", "addr:city": "GUILFORD", "addr:country": "US", "addr:full": "80 LINDEN ST", "addr:postcode": "05301", "addr:state": "VT", "amenity": "post_box", "brand": "United States Postal Service", "brand:wikidata": "Q668687", "collection_times": "Mo-Sa 09:30", "name": "USPS COLLECTION BOX - BLUE BOX", "nsi_id": "unitedstatespostalservice-a77078", "operator": "United States Postal Service", "operator:short": "USPS", "operator:type": "public", "operator:wikidata": "Q668687", "ref": "0530100004"}, "type": "Feature"}
{"dataset_attributes": {"@spider": "usps_collection_boxes", "spider:collection_time": "2023-12-28T08:25:01.581378"}, "geometry": {"coordinates": [-72.5556054, 42.887069], "type": "Point"}, "id": "54k9FGv1mQTWuEKy2kNTlhntL0g=", "properties": {"@spider": "usps_collection_boxes", "addr:city": "GUILFORD", "addr:country": "US", "addr:full": "1222 PUTNEY RD", "addr:postcode": "05301", "addr:state": "VT", "amenity": "post_box", "brand": "United States Postal Service", "brand:wikidata": "Q668687", "collection_times": "Mo-Fr 16:45; Sa 10:00", "name": "USPS COLLECTION BOX - BLUE BOX", "note": "ON 12/24 AND 12/31, THIS BOX MAY BE COLLECTED AS EARLY AS 12 NOON.", "nsi_id": "unitedstatespostalservice-a77078", "operator": "United States Postal Service", "operator:short": "USPS", "operator:type": "public", "operator:wikidata": "Q668687", "ref": "0530100007"}, "type": "Feature"}
{"dataset_attributes": {"@spider": "usps_collection_boxes", "spider:collection_time": "2023-12-28T08:25:01.581378"}, "geometry": {"coordinates": [-72.5633589, 42.8515128], "type": "Point"}, "id": "oNfz2j7Fd_CqU9QuMuq4c9wB5Nk=", "properties": {"@spider": "usps_collection_boxes", "addr:city": "GUILFORD", "addr:country": "US", "addr:full": "1063 WESTERN AVE", "addr:postcode": "05301", "addr:state": "VT", "amenity": "post_box", "brand": "United States Postal Service", "brand:wikidata": "Q668687", "collection_times": "Mo-Fr 16:45; Sa 10:00", "name": "USPS COLLECTION BOX - BLUE BOX", "note": "ON 12/24 AND 12/31, THIS BOX MAY BE COLLECTED AS EARLY AS 12 NOON.", "nsi_id": "unitedstatespostalservice-a77078", "operator": "United States Postal Service", "operator:short": "USPS", "operator:type": "public", "operator:wikidata": "Q668687", "ref": "0530100008"}, "type": "Feature"}
{"dataset_attributes": {"@spider": "usps_collection_boxes", "spider:collection_time": "2023-12-28T08:25:01.581378"}, "geometry": {"coordinates": [-72.5610322, 42.855287], "type": "Point"}, "id": "zrjSmliSLd__jWHO3eBBiuhV5bE=", "properties": {"@spider": "usps_collection_boxes", "addr:city": "GUILFORD", "addr:country": "US", "addr:full": "232 MAIN ST", "addr:postcode": "05301", "addr:state": "VT", "amenity": "post_box", "brand": "United States Postal Service", "brand:wikidata": "Q668687", "collection_times": "Mo-Sa 09:30", "name": "USPS COLLECTION BOX - BLUE BOX", "nsi_id": "unitedstatespostalservice-a77078", "operator": "United States Postal Service", "operator:short": "USPS", "operator:type": "public", "operator:wikidata": "Q668687", "ref": "0530100012"}, "type": "Feature"}
{"dataset_attributes": {"@spider": "usps_collection_boxes", "spider:collection_time": "2023-12-28T08:25:01.581378"}, "geometry": {"coordinates": [-72.5617631, 42.853331], "type": "Point"}, "id": "jV6OfMNaGtQk_0rvjb4YV6T_TWM=", "properties": {"@spider": "usps_collection_boxes", "addr:city": "GUILFORD", "addr:country": "US", "addr:full": "88 HIGH ST", "addr:postcode": "05301", "addr:state": "VT", "amenity": "post_box", "brand": "United States Postal Service", "brand:wikidata": "Q668687", "collection_times": "Mo-Sa 14:00", "name": "USPS COLLECTION BOX - BLUE BOX", "note": "ON 12/24 AND 12/31, THIS BOX MAY BE COLLECTED AS EARLY AS 12 NOON.", "nsi_id": "unitedstatespostalservice-a77078", "operator": "United States Postal Service", "operator:short": "USPS", "operator:type": "public", "operator:wikidata": "Q668687", "ref": "0530100015"}, "type": "Feature"}
{"dataset_attributes": {"@spider": "usps_collection_boxes", "spider:collection_time": "2023-12-28T08:25:01.581378"}, "geometry": {"coordinates": [-72.5594051, 42.855349], "type": "Point"}, "id": "wa0X-NrW2gdfz6mB5ZEweAFc1EM=", "properties": {"@spider": "usps_collection_boxes", "addr:city": "GUILFORD", "addr:country": "US", "addr:full": "221 MAIN ST", "addr:postcode": "05301", "addr:state": "VT", "amenity": "post_box", "brand": "United States Postal Service", "brand:wikidata": "Q668687", "collection_times": "Mo-Sa 09:00", "name": "USPS COLLECTION BOX - BLUE BOX", "nsi_id": "unitedstatespostalservice-a77078", "operator": "United States Postal Service", "operator:short": "USPS", "operator:type": "public", "operator:wikidata": "Q668687", "ref": "0530100028"}, "type": "Feature"}
{"dataset_attributes": {"@spider": "usps_collection_boxes", "spider:collection_time": "2023-12-28T08:25:01.581378"}, "geometry": {"coordinates": [-72.5579537, 42.852221], "type": "Point"}, "id": "yz2EgXHLBnpZMUWAyWVuJIpt5wU=", "properties": {"@spider": "usps_collection_boxes", "addr:city": "GUILFORD", "addr:country": "US", "addr:full": "100 MAIN ST", "addr:postcode": "05301", "addr:state": "VT", "amenity": "post_box", "brand": "United States Postal Service", "brand:wikidata": "Q668687", "collection_times": "Mo-Sa 09:00", "name": "USPS COLLECTION BOX - BLUE BOX", "nsi_id": "unitedstatespostalservice-a77078", "operator": "United States Postal Service", "operator:short": "USPS", "operator:type": "public", "operator:wikidata": "Q668687", "ref": "0530100030"}, "type": "Feature"}
{"dataset_attributes": {"@spider": "usps_collection_boxes", "spider:collection_time": "2023-12-28T08:25:01.581378"}, "geometry": {"coordinates": [-72.5579671, 42.852227], "type": "Point"}, "id": "ulZzXtPVYn7HeVhhFOJYE6GwG0A=", "properties": {"@spider": "usps_collection_boxes", "addr:city": "GUILFORD", "addr:country": "US", "addr:full": "100 MAIN ST", "addr:postcode": "05301", "addr:state": "VT", "amenity": "post_box", "brand": "United States Postal Service", "brand:wikidata": "Q668687", "collection_times": "Mo-Sa 09:00", "name": "USPS COLLECTION BOX - BLUE BOX", "nsi_id": "unitedstatespostalservice-a77078", "operator": "United States Postal Service", "operator:short": "USPS", "operator:type": "public", "operator:wikidata": "Q668687", "ref": "0530100031"}, "type": "Feature"}
{"dataset_attributes": {"@spider": "usps_collection_boxes", "spider:collection_time": "2023-12-28T08:25:01.581378"}, "geometry": {"coordinates": [-72.558502, 42.853246], "type": "Point"}, "id": "y0poahpNY-J_ljwiT51vhTHpSfU=", "properties": {"@spider": "usps_collection_boxes", "addr:city": "GUILFORD", "addr:country": "US", "addr:full": "141 MAIN ST", "addr:postcode": "05301", "addr:state": "VT", "amenity": "post_box", "brand": "United States Postal Service", "brand:wikidata": "Q668687", "collection_times": "Mo-Sa 09:00", "name": "USPS COLLECTION BOX - BLUE BOX", "nsi_id": "unitedstatespostalservice-a77078", "operator": "United States Postal Service", "operator:short": "USPS", "operator:type": "public", "operator:wikidata": "Q668687", "ref": "0530100035"}, "type": "Feature"}
{"dataset_attributes": {"@spider": "usps_collection_boxes", "spider:collection_time": "2023-12-28T08:25:01.581378"}, "geometry": {"coordinates": [-72.5611463, 42.878846], "type": "Point"}, "id": "SqecoJWao9Wb-AGkvp5Xj1tLT_4=", "properties": {"@spider": "usps_collection_boxes", "addr:city": "GUILFORD", "addr:country": "US", "addr:full": "896 PUTNEY RD", "addr:postcode": "05301", "addr:state": "VT", "amenity": "post_box", "brand": "United States Postal Service", "brand:wikidata": "Q668687", "collection_times": "Mo-Sa 13:00", "name": "USPS COLLECTION BOX - BLUE BOX", "note": "ON 12/24 AND 12/31, THIS BOX MAY BE COLLECTED AS EARLY AS 12 NOON.", "nsi_id": "unitedstatespostalservice-a77078", "operator": "United States Postal Service", "operator:short": "USPS", "operator:type": "public", "operator:wikidata": "Q668687", "ref": "0530100043"}, "type": "Feature"}
{"dataset_attributes": {"@spider": "usps_collection_boxes", "spider:collection_time": "2023-12-28T08:25:01.581378"}, "geometry": {"coordinates": [-72.575135032, 42.8179579847], "type": "Point"}, "id": "cBjUZVjg_vSp3sIy01SZ-X25h-c=", "properties": {"@spider": "usps_collection_boxes", "addr:city": "GUILFORD", "addr:country": "US", "addr:full": "475 COOLIDGE HWY", "addr:postcode": "05301", "addr:state": "VT", "amenity": "post_box", "brand": "United States Postal Service", "brand:wikidata": "Q668687", "collection_times": "Mo-Sa 10:00", "name": "USPS COLLECTION BOX - BLUE BOX", "nsi_id": "unitedstatespostalservice-a77078", "operator": "United States Postal Service", "operator:short": "USPS", "operator:type": "public", "operator:wikidata": "Q668687", "ref": "0530100055"}, "type": "Feature"}
{"dataset_attributes": {"@spider": "usps_collection_boxes", "spider:collection_time": "2023-12-28T08:25:01.581378"}, "geometry": {"coordinates": [-72.5658086, 42.843301], "type": "Point"}, "id": "TFb40vVQfbZGsJINAdyBu_zjVOQ=", "properties": {"@spider": "usps_collection_boxes", "addr:city": "GUILFORD", "addr:country": "US", "addr:full": "17 BELMONT AVE", "addr:postcode": "05301", "addr:state": "VT", "amenity": "post_box", "brand": "United States Postal Service", "brand:wikidata": "Q668687", "collection_times": "Mo-Fr 15:00; Sa 10:00", "name": "USPS COLLECTION BOX - BLUE BOX", "note": "ON 12/24 AND 12/31, THIS BOX MAY BE COLLECTED AS EARLY AS 12 NOON.", "nsi_id": "unitedstatespostalservice-a77078", "operator": "United States Postal Service", "operator:short": "USPS", "operator:type": "public", "operator:wikidata": "Q668687", "ref": "0530100057"}, "type": "Feature"}
{"dataset_attributes": {"@spider": "usps_collection_boxes", "spider:collection_time": "2023-12-28T08:25:01.581378"}, "geometry": {"coordinates": [-72.5609916, 42.875465], "type": "Point"}, "id": "xX9w9bbSoEvs5_QtgTFkFx_QIgg=", "properties": {"@spider": "usps_collection_boxes", "addr:city": "GUILFORD", "addr:country": "US", "addr:full": "20 TECHNOLOGY DR", "addr:postcode": "05301", "addr:state": "VT", "amenity": "post_box", "brand": "United States Postal Service", "brand:wikidata": "Q668687", "collection_times": "Mo-Fr 13:00; Sa 10:00", "name": "USPS COLLECTION BOX - BLUE BOX", "note": "ON 12/24 AND 12/31, THIS BOX MAY BE COLLECTED AS EARLY AS 12 NOON.", "nsi_id": "unitedstatespostalservice-a77078", "operator": "United States Postal Service", "operator:short": "USPS", "operator:type": "public", "operator:wikidata": "Q668687", "ref": "0530100058"}, "type": "Feature"}
{"dataset_attributes": {"@spider": "usps_collection_boxes", "spider:collection_time": "2023-12-28T08:25:01.581378"}, "geometry": {"coordinates": [-72.5664695, 42.839284], "type": "Point"}, "id": "14UA2b8ySf3ai4Th_c7kF-hVfgM=", "properties": {"@spider": "usps_collection_boxes", "addr:city": "GUILFORD", "addr:country": "US", "addr:full": "499 CANAL ST", "addr:postcode": "05301", "addr:state": "VT", "amenity": "post_box", "brand": "United States Postal Service", "brand:wikidata": "Q668687", "collection_times": "Mo-Sa 10:00", "name": "USPS COLLECTION BOX - BLUE BOX", "nsi_id": "unitedstatespostalservice-a77078", "operator": "United States Postal Service", "operator:short": "USPS", "operator:type": "public", "operator:wikidata": "Q668687", "ref": "0530100069"}, "type": "Feature"}
{"dataset_attributes": {"@spider": "usps_collection_boxes", "spider:collection_time": "2023-12-28T08:25:01.581378"}, "geometry": {"coordinates": [-72.5609103, 42.856354], "type": "Point"}, "id": "2kaZDbXmqUjSLW_wLTNOkZFfrLo=", "properties": {"@spider": "usps_collection_boxes", "addr:city": "GUILFORD", "addr:country": "US", "addr:full": "45 LINDEN ST", "addr:postcode": "05301", "addr:state": "VT", "amenity": "post_box", "brand": "United States Postal Service", "brand:wikidata": "Q668687", "collection_times": "Mo-Sa 09:30", "name": "USPS COLLECTION BOX - BLUE BOX", "nsi_id": "unitedstatespostalservice-a77078", "operator": "United States Postal Service", "operator:short": "USPS", "operator:type": "public", "operator:wikidata": "Q668687", "ref": "0530100070"}, "type": "Feature"}
{"dataset_attributes": {"@spider": "usps_collection_boxes", "spider:collection_time": "2023-12-28T08:25:01.581378"}, "geometry": {"coordinates": [-72.5595091, 42.85439], "type": "Point"}, "id": "tbJyacYpOGcWNTI1UbCQgrDR-YQ=", "properties": {"@spider": "usps_collection_boxes", "addr:city": "GUILFORD", "addr:country": "US", "addr:full": "204 MAIN ST", "addr:postcode": "05301", "addr:state": "VT", "amenity": "post_box", "brand": "United States Postal Service", "brand:wikidata": "Q668687", "collection_times": "Mo-Fr 17:30; Sa 15:00", "name": "USPS COLLECTION BOX - PO LOBBY", "note": "ON 12/24 AND 12/31, THIS BOX MAY BE COLLECTED AS EARLY AS 12 NOON.", "nsi_id": "unitedstatespostalservice-a77078", "operator": "United States Postal Service", "operator:short": "USPS", "operator:type": "public", "operator:wikidata": "Q668687", "ref": "0530100076"}, "type": "Feature"}
{"dataset_attributes": {"@spider": "usps_collection_boxes", "spider:collection_time": "2023-12-28T08:25:01.581378"}, "geometry": {"coordinates": [-72.5633589, 42.8515128], "type": "Point"}, "id": "LFATcowsQWns1yrBAgAV_5yCauk=", "properties": {"@spider": "usps_collection_boxes", "addr:city": "GUILFORD", "addr:country": "US", "addr:full": "1037 WESTERN AVE", "addr:postcode": "05301", "addr:state": "VT", "amenity": "post_box", "brand": "United States Postal Service", "brand:wikidata": "Q668687", "collection_times": "Mo-Fr 16:45; Sa 12:00", "name": "USPS COLLECTION BOX - PO LOBBY", "note": "ON 12/24 AND 12/31, THIS BOX MAY BE COLLECTED AS EARLY AS 12 NOON.", "nsi_id": "unitedstatespostalservice-a77078", "operator": "United States Postal Service", "operator:short": "USPS", "operator:type": "public", "operator:wikidata": "Q668687", "ref": "0530100082"}, "type": "Feature"}
{"dataset_attributes": {"@spider": "usps_collection_boxes", "spider:collection_time": "2023-12-28T08:25:01.581378"}, "geometry": {"coordinates": [-72.5559543, 42.88751], "type": "Point"}, "id": "rGR6EyiC0-kuJtkxlsgKkAfif0c=", "properties": {"@spider": "usps_collection_boxes", "addr:city": "GUILFORD", "addr:country": "US", "addr:full": "1222 PUTNEY RD", "addr:postcode": "05301", "addr:state": "VT", "amenity": "post_box", "brand": "United States Postal Service", "brand:wikidata": "Q668687", "collection_times": "Mo-Fr 16:45", "name": "USPS COLLECTION BOX - PO LOBBY", "note": "ON 12/24 AND 12/31, THIS BOX MAY BE COLLECTED AS EARLY AS 12 NOON.", "nsi_id": "unitedstatespostalservice-a77078", "operator": "United States Postal Service", "operator:short": "USPS", "operator:type": "public", "operator:wikidata": "Q668687", "ref": "0530100084"}, "type": "Feature"}
{"dataset_attributes": {"@spider": "usps_collection_boxes", "spider:collection_time": "2023-12-28T08:25:01.581378"}, "geometry": {"coordinates": [-72.5603745, 42.850613], "type": "Point"}, "id": "pHoEDZk9ArR5kVBfNIDAmLBaCvY=", "properties": {"@spider": "usps_collection_boxes", "addr:city": "GUILFORD", "addr:country": "US", "addr:full": "80 FLAT ST", "addr:postcode": "05301", "addr:state": "VT", "amenity": "post_box", "brand": "United States Postal Service", "brand:wikidata": "Q668687", "collection_times": "Mo-Sa 09:00", "name": "USPS COLLECTION BOX - BLUE BOX", "nsi_id": "unitedstatespostalservice-a77078", "operator": "United States Postal Service", "operator:short": "USPS", "operator:type": "public", "operator:wikidata": "Q668687", "ref": "0530100085"}, "type": "Feature"}
{"dataset_attributes": {"@spider": "usps_collection_boxes", "spider:collection_time": "2023-12-28T08:25:01.581378"}, "geometry": {"coordinates": [-72.5542899, 42.836409], "type": "Point"}, "id": "7Y9JS2WhkmRfFv5NZ366683WD4I=", "properties": {"@spider": "usps_collection_boxes", "addr:city": "GUILFORD", "addr:country": "US", "addr:full": "74 COTTON MILL HL", "addr:postcode": "05301", "addr:state": "VT", "amenity": "post_box", "brand": "United States Postal Service", "brand:wikidata": "Q668687", "collection_times": "Mo-Sa 09:00", "name": "USPS COLLECTION BOX - BLUE BOX", "nsi_id": "unitedstatespostalservice-a77078", "operator": "United States Postal Service", "operator:short": "USPS", "operator:type": "public", "operator:wikidata": "Q668687", "ref": "0530100086"}, "type": "Feature"}
{"dataset_attributes": {"@spider": "usps_collection_boxes", "spider:collection_time": "2023-12-28T08:25:01.581378"}, "geometry": {"coordinates": [-72.5713059, 42.851864], "type": "Point"}, "id": "gp3R9Y8zBIymvaos0qeaq7FYHPk=", "properties": {"@spider": "usps_collection_boxes", "addr:city": "GUILFORD", "addr:country": "US", "addr:full": "136 WESTERN AVE", "addr:postcode": "05301", "addr:state": "VT", "amenity": "post_box", "brand": "United States Postal Service", "brand:wikidata": "Q668687", "collection_times": "Mo-Sa 10:00", "name": "USPS COLLECTION BOX - BLUE BOX", "nsi_id": "unitedstatespostalservice-a77078", "operator": "United States Postal Service", "operator:short": "USPS", "operator:type": "public", "operator:wikidata": "Q668687", "ref": "0530100088"}, "type": "Feature"}
{"dataset_attributes": {"@spider": "usps_collection_boxes", "spider:collection_time": "2023-12-28T08:25:01.581378"}, "geometry": {"coordinates": [-72.559133992, 42.854593642], "type": "Point"}, "id": "nw0AOdvbHiAagvdHqrSLLMH8NyE=", "properties": {"@spider": "usps_collection_boxes", "addr:city": "GUILFORD", "addr:country": "US", "addr:full": "204 MAIN ST STE JJ", "addr:postcode": "05301", "addr:state": "VT", "amenity": "post_box", "brand": "United States Postal Service", "brand:wikidata": "Q668687", "collection_times": "Mo-Fr 17:00; Sa 12:00", "name": "USPS COLLECTION BOX - PO LOBBY", "note": "ON 12/24 AND 12/31, THIS BOX MAY BE COLLECTED AS EARLY AS 12 NOON.", "nsi_id": "unitedstatespostalservice-a77078", "operator": "United States Postal Service", "operator:short": "USPS", "operator:type": "public", "operator:wikidata": "Q668687", "ref": "0530100089"}, "type": "Feature"}
{"dataset_attributes": {"@spider": "usps_collection_boxes", "spider:collection_time": "2023-12-28T08:25:01.581378"}, "geometry": {"coordinates": [-72.555418747, 42.886929665], "type": "Point"}, "id": "ez1zl8OWXYJwKYVHRFSei6drjyo=", "properties": {"@spider": "usps_collection_boxes", "addr:city": "GUILFORD", "addr:country": "US", "addr:full": "1222 PUTNEY RD", "addr:postcode": "05301", "addr:state": "VT", "amenity": "post_box", "brand": "United States Postal Service", "brand:wikidata": "Q668687", "collection_times": "Mo-Fr 16:45", "name": "USPS COLLECTION BOX - PO LOBBY", "note": "ON 12/24 AND 12/31, THIS BOX MAY BE COLLECTED AS EARLY AS 12 NOON.", "nsi_id": "unitedstatespostalservice-a77078", "operator": "United States Postal Service", "operator:short": "USPS", "operator:type": "public", "operator:wikidata": "Q668687", "ref": "0530100090"}, "type": "Feature"}
{"dataset_attributes": {"@spider": "usps_collection_boxes", "spider:collection_time": "2023-12-28T08:25:01.581378"}, "geometry": {"coordinates": [-72.602442897, 42.856534917], "type": "Point"}, "id": "s6P-A8mggnn7eydbJyDEqSS-SJ0=", "properties": {"@spider": "usps_collection_boxes", "addr:city": "GUILFORD", "addr:country": "US", "addr:full": "1037 WESTERN AVE STE 2", "addr:postcode": "05301", "addr:state": "VT", "amenity": "post_box", "brand": "United States Postal Service", "brand:wikidata": "Q668687", "collection_times": "Mo-Fr 17:00; Sa 12:00", "name": "USPS COLLECTION BOX - PO LOBBY", "note": "ON 12/24 AND 12/31, THIS BOX MAY BE COLLECTED AS EARLY AS 12 NOON.", "nsi_id": "unitedstatespostalservice-a77078", "operator": "United States Postal Service", "operator:short": "USPS", "operator:type": "public", "operator:wikidata": "Q668687", "ref": "0530100091"}, "type": "Feature"}
{"dataset_attributes": {"@spider": "usps_collection_boxes", "spider:collection_time": "2023-12-28T08:25:01.581378"}, "geometry": {"coordinates": [-72.875319, 43.144382], "type": "Point"}, "id": "O91lNFCFbfw7fyck-0Yukue5P-Q=", "properties": {"@spider": "usps_collection_boxes", "addr:city": "BONDVILLE", "addr:country": "US", "addr:full": "43 VT ROUTE 30", "addr:postcode": "05340", "addr:state": "VT", "amenity": "post_box", "brand": "United States Postal Service", "brand:wikidata": "Q668687", "collection_times": "Mo-Fr 16:15; Sa 12:00", "name": "USPS COLLECTION BOX - BLUE BOX", "note": "ON 12/24 AND 12/31, THIS BOX MAY BE COLLECTED AS EARLY AS 12 NOON.", "nsi_id": "unitedstatespostalservice-a77078", "operator": "United States Postal Service", "operator:short": "USPS", "operator:type": "public", "operator:wikidata": "Q668687", "ref": "0534000000"}, "type": "Feature"}
{"dataset_attributes": {"@spider": "usps_collection_boxes", "spider:collection_time": "2023-12-28T08:25:01.581378"}, "geometry": {"coordinates": [-72.875324, 43.144409], "type": "Point"}, "id": "R-78kutpHIFJs-f2dHfnOhu6oYk=", "properties": {"@spider": "usps_collection_boxes", "addr:city": "BONDVILLE", "addr:country": "US", "addr:full": "43 VT ROUTE 30", "addr:postcode": "05340", "addr:state": "VT", "amenity": "post_box", "brand": "United States Postal Service", "brand:wikidata": "Q668687", "collection_times": "Mo-Fr 16:30; Sa 12:00", "name": "USPS COLLECTION BOX - PO LOBBY", "note": "ON 12/24 AND 12/31, THIS BOX MAY BE COLLECTED AS EARLY AS 12 NOON.", "nsi_id": "unitedstatespostalservice-a77078", "operator": "United States Postal Service", "operator:short": "USPS", "operator:type": "public", "operator:wikidata": "Q668687", "ref": "0534000001"}, "type": "Feature"}
{"dataset_attributes": {"@spider": "usps_collection_boxes", "spider:collection_time": "2023-12-28T08:25:01.581378"}, "geometry": {"coordinates": [-72.875008383, 43.144409558], "type": "Point"}, "id": "w3j6bTQcVzs8c37zNqnSu4bfIbY=", "properties": {"@spider": "usps_collection_boxes", "addr:city": "BONDVILLE", "addr:country": "US", "addr:full": "43 VT ROUTE 30", "addr:postcode": "05340", "addr:state": "VT", "amenity": "post_box", "brand": "United States Postal Service", "brand:wikidata": "Q668687", "collection_times": "Mo-Fr 16:30; Sa 12:00", "name": "USPS COLLECTION BOX - PO LOBBY", "note": "ON 12/24 AND 12/31, THIS BOX MAY BE COLLECTED AS EARLY AS 12 NOON.", "nsi_id": "unitedstatespostalservice-a77078", "operator": "United States Postal Service", "operator:short": "USPS", "operator:type": "public", "operator:wikidata": "Q668687", "ref": "0534000003"}, "type": "Feature"}
{"dataset_attributes": {"@spider": "usps_collection_boxes", "spider:collection_time": "2023-12-28T08:25:01.581378"}, "geometry": {"coordinates": [-72.768623, 42.950946], "type": "Point"}, "id": "Abm1cz2fUECPPb3MXDU694Xd70w=", "properties": {"@spider": "usps_collection_boxes", "addr:city": "EAST DOVER", "addr:country": "US", "addr:full": "4 NORTH ST", "addr:postcode": "05341", "addr:state": "VT", "amenity": "post_box", "brand": "United States Postal Service", "brand:wikidata": "Q668687", "collection_times": "Mo-Fr 10:45; Sa 10:30", "name": "USPS COLLECTION BOX - PO LOBBY", "nsi_id": "unitedstatespostalservice-a77078", "operator": "United States Postal Service", "operator:short": "USPS", "operator:type": "public", "operator:wikidata": "Q668687", "ref": "0534100001"}, "type": "Feature"}
{"dataset_attributes": {"@spider": "usps_collection_boxes", "spider:collection_time": "2023-12-28T08:25:01.581378"}, "geometry": {"coordinates": [-72.768623202, 42.950942497], "type": "Point"}, "id": "qD7hbI2t_vlk3jsECOrBdTqog_M=", "properties": {"@spider": "usps_collection_boxes", "addr:city": "EAST DOVER", "addr:country": "US", "addr:full": "4 NORTH ST UNIT A", "addr:postcode": "05341", "addr:state": "VT", "amenity": "post_box", "brand": "United States Postal Service", "brand:wikidata": "Q668687", "collection_times": "Mo-Fr 10:45; Sa 10:30", "name": "USPS COLLECTION BOX - PO LOBBY", "nsi_id": "unitedstatespostalservice-a77078", "operator": "United States Postal Service", "operator:short": "USPS", "operator:type": "public", "operator:wikidata": "Q668687", "ref": "0534100002"}, "type": "Feature"}
{"dataset_attributes": {"@spider": "usps_collection_boxes", "spider:collection_time": "2023-12-28T08:25:01.581378"}, "geometry": {"coordinates": [-72.822501, 42.798497], "type": "Point"}, "id": "4iiIJAXGc153M10Ook7xB2VOyvs=", "properties": {"@spider": "usps_collection_boxes", "addr:city": "JACKSONVILLE", "addr:country": "US", "addr:full": "2939 VT ROUTE 100", "addr:postcode": "05342", "addr:state": "VT", "amenity": "post_box", "brand": "United States Postal Service", "brand:wikidata": "Q668687", "collection_times": "Mo-Fr 16:00; Sa 11:00", "name": "USPS COLLECTION BOX - BLUE BOX", "note": "ON 12/24 AND 12/31, THIS BOX MAY BE COLLECTED AS EARLY AS 12 NOON.", "nsi_id": "unitedstatespostalservice-a77078", "operator": "United States Postal Service", "operator:short": "USPS", "operator:type": "public", "operator:wikidata": "Q668687", "ref": "0534200000"}, "type": "Feature"}
{"dataset_attributes": {"@spider": "usps_collection_boxes", "spider:collection_time": "2023-12-28T08:25:01.581378"}, "geometry": {"coordinates": [-72.822509, 42.798457], "type": "Point"}, "id": "I8WOWcuejjl9KCwP3PpBOsOwXYQ=", "properties": {"@spider": "usps_collection_boxes", "addr:city": "JACKSONVILLE", "addr:country": "US", "addr:full": "2939 VT ROUTE 100", "addr:postcode": "05342", "addr:state": "VT", "amenity": "post_box", "brand": "United States Postal Service", "brand:wikidata": "Q668687", "collection_times": "Mo-Fr 16:45; Sa 11:30", "name": "USPS COLLECTION BOX - PO LOBBY", "note": "ON 12/24 AND 12/31, THIS BOX MAY BE COLLECTED AS EARLY AS 12 NOON.", "nsi_id": "unitedstatespostalservice-a77078", "operator": "United States Postal Service", "operator:short": "USPS", "operator:type": "public", "operator:wikidata": "Q668687", "ref": "0534200002"}, "type": "Feature"}
{"dataset_attributes": {"@spider": "usps_collection_boxes", "spider:collection_time": "2023-12-28T08:25:01.581378"}, "geometry": {"coordinates": [-72.822516466, 42.798510733], "type": "Point"}, "id": "x4QpvWOJjB4TWVeX4BWKP2esPIk=", "properties": {"@spider": "usps_collection_boxes", "addr:city": "JACKSONVILLE", "addr:country": "US", "addr:full": "2939 VT ROUTE 100", "addr:postcode": "05342", "addr:state": "VT", "amenity": "post_box", "brand": "United States Postal Service", "brand:wikidata": "Q668687", "collection_times": "Mo-Fr 16:30; Sa 11:30", "name": "USPS COLLECTION BOX - PO LOBBY", "note": "ON 12/24 AND 12/31, THIS BOX MAY BE COLLECTED AS EARLY AS 12 NOON.", "nsi_id": "unitedstatespostalservice-a77078", "operator": "United States Postal Service", "operator:short": "USPS", "operator:type": "public", "operator:wikidata": "Q668687", "ref": "0534200004"}, "type": "Feature"}
{"dataset_attributes": {"@spider": "usps_collection_boxes", "spider:collection_time": "2023-12-28T08:25:01.581378"}, "geometry": {"coordinates": [-72.781357, 43.099771], "type": "Point"}, "id": "rska-ZOlQaxgBVfSRdNErHxUB0Q=", "properties": {"@spider": "usps_collection_boxes", "addr:city": "JAMAICA", "addr:country": "US", "addr:full": "3912 VT ROUTE 30", "addr:postcode": "05343", "addr:state": "VT", "amenity": "post_box", "brand": "United States Postal Service", "brand:wikidata": "Q668687", "collection_times": "Mo-Fr 14:30; Sa 11:30", "name": "USPS COLLECTION BOX - BLUE BOX", "note": "ON 12/24 AND 12/31, THIS BOX MAY BE COLLECTED AS EARLY AS 12 NOON.", "nsi_id": "unitedstatespostalservice-a77078", "operator": "United States Postal Service", "operator:short": "USPS", "operator:type": "public", "operator:wikidata": "Q668687", "ref": "0534300000"}, "type": "Feature"}
{"dataset_attributes": {"@spider": "usps_collection_boxes", "spider:collection_time": "2023-12-28T08:25:01.581378"}, "geometry": {"coordinates": [-72.78136, 43.099744], "type": "Point"}, "id": "Du5rNd-GAaa_4bfSksrM72Y1ekw=", "properties": {"@spider": "usps_collection_boxes", "addr:city": "JAMAICA", "addr:country": "US", "addr:full": "3912 VT ROUTE 30", "addr:postcode": "05343", "addr:state": "VT", "amenity": "post_box", "brand": "United States Postal Service", "brand:wikidata": "Q668687", "collection_times": "Mo-Fr 14:30; Sa 11:30", "name": "USPS COLLECTION BOX - PO LOBBY", "note": "ON 12/24 AND 12/31, THIS BOX MAY BE COLLECTED AS EARLY AS 12 NOON.", "nsi_id": "unitedstatespostalservice-a77078", "operator": "United States Postal Service", "operator:short": "USPS", "operator:type": "public", "operator:wikidata": "Q668687", "ref": "0534300001"}, "type": "Feature"}
{"dataset_attributes": {"@spider": "usps_collection_boxes", "spider:collection_time": "2023-12-28T08:25:01.581378"}, "geometry": {"coordinates": [-72.781264571, 43.099773358], "type": "Point"}, "id": "UHroKFM7HQa493fxx93CquDwzz0=", "properties": {"@spider": "usps_collection_boxes", "addr:city": "JAMAICA", "addr:country": "US", "addr:full": "3912 VT ROUTE 30", "addr:postcode": "05343", "addr:state": "VT", "amenity": "post_box", "brand": "United States Postal Service", "brand:wikidata": "Q668687", "collection_times": "Mo-Fr 14:30; Sa 11:30", "name": "USPS COLLECTION BOX - PO LOBBY", "note": "ON 12/24 AND 12/31, THIS BOX MAY BE COLLECTED AS EARLY AS 12 NOON.", "nsi_id": "unitedstatespostalservice-a77078", "operator": "United States Postal Service", "operator:short": "USPS", "operator:type": "public", "operator:wikidata": "Q668687", "ref": "0534300003"}, "type": "Feature"}
{"dataset_attributes": {"@spider": "usps_collection_boxes", "spider:collection_time": "2023-12-28T08:25:01.581378"}, "geometry": {"coordinates": [-72.970796, 42.870788], "type": "Point"}, "id": "A21a2GVr-PR1kNKt1dzD7S4VO10=", "properties": {"@spider": "usps_collection_boxes", "addr:city": "MARLBORO", "addr:country": "US", "addr:full": "510 SOUTH RD", "addr:postcode": "05344", "addr:state": "VT", "amenity": "post_box", "brand": "United States Postal Service", "brand:wikidata": "Q668687", "collection_times": "Mo-Fr 16:30; Sa 11:30", "name": "USPS COLLECTION BOX - BLUE BOX", "note": "ON 12/24 AND 12/31, THIS BOX MAY BE COLLECTED AS EARLY AS 12 NOON.", "nsi_id": "unitedstatespostalservice-a77078", "operator": "United States Postal Service", "operator:short": "USPS", "operator:type": "public", "operator:wikidata": "Q668687", "ref": "0534400000"}, "type": "Feature"}
{"dataset_attributes": {"@spider": "usps_collection_boxes", "spider:collection_time": "2023-12-28T08:25:01.581378"}, "geometry": {"coordinates": [-72.970796, 42.870788], "type": "Point"}, "id": "eXeBl5Z7q2LoyHGBYXBS-X0SCbU=", "properties": {"@spider": "usps_collection_boxes", "addr:city": "MARLBORO", "addr:country": "US", "addr:full": "510 SOUTH RD", "addr:postcode": "05344", "addr:state": "VT", "amenity": "post_box", "brand": "United States Postal Service", "brand:wikidata": "Q668687", "collection_times": "Mo-Fr 16:30; Sa 11:30", "name": "USPS COLLECTION BOX - PO LOBBY", "note": "ON 12/24 AND 12/31, THIS BOX MAY BE COLLECTED AS EARLY AS 12 NOON.", "nsi_id": "unitedstatespostalservice-a77078", "operator": "United States Postal Service", "operator:short": "USPS", "operator:type": "public", "operator:wikidata": "Q668687", "ref": "0534400001"}, "type": "Feature"}
{"dataset_attributes": {"@spider": "usps_collection_boxes", "spider:collection_time": "2023-12-28T08:25:01.581378"}, "geometry": {"coordinates": [-72.725786191, 42.859731857], "type": "Point"}, "id": "L0q0KX9wWGS1xgSSQZjAsusSRkI=", "properties": {"@spider": "usps_collection_boxes", "addr:city": "MARLBORO", "addr:country": "US", "addr:full": "510 SOUTH RD", "addr:postcode": "05344", "addr:state": "VT", "amenity": "post_box", "brand": "United States Postal Service", "brand:wikidata": "Q668687", "collection_times": "Mo-Fr 16:30; Sa 11:30", "name": "USPS COLLECTION BOX - PO LOBBY", "note": "ON 12/24 AND 12/31, THIS BOX MAY BE COLLECTED AS EARLY AS 12 NOON.", "nsi_id": "unitedstatespostalservice-a77078", "operator": "United States Postal Service", "operator:short": "USPS", "operator:type": "public", "operator:wikidata": "Q668687", "ref": "0534400003"}, "type": "Feature"}
{"dataset_attributes": {"@spider": "usps_collection_boxes", "spider:collection_time": "2023-12-28T08:25:01.581378"}, "geometry": {"coordinates": [-72.655671, 42.984177], "type": "Point"}, "id": "bkiJCdkhAUxD0816bOODB-e3ZNc=", "properties": {"@spider": "usps_collection_boxes", "addr:city": "NEWFANE", "addr:country": "US", "addr:full": "562 VT ROUTE 30", "addr:postcode": "05345", "addr:state": "VT", "amenity": "post_box", "brand": "United States Postal Service", "brand:wikidata": "Q668687", "collection_times": "Mo-Fr 16:30; Sa 11:45", "name": "USPS COLLECTION BOX - BLUE BOX", "note": "ON 12/24 AND 12/31, THIS BOX MAY BE COLLECTED AS EARLY AS 12 NOON.", "nsi_id": "unitedstatespostalservice-a77078", "operator": "United States Postal Service", "operator:short": "USPS", "operator:type": "public", "operator:wikidata": "Q668687", "ref": "0534500001"}, "type": "Feature"}
{"dataset_attributes": {"@spider": "usps_collection_boxes", "spider:collection_time": "2023-12-28T08:25:01.581378"}, "geometry": {"coordinates": [-72.65571, 42.98417], "type": "Point"}, "id": "XzYHZEuxNLbkEih5_Tv2hxuq-SM=", "properties": {"@spider": "usps_collection_boxes", "addr:city": "NEWFANE", "addr:country": "US", "addr:full": "562 VT ROUTE 30", "addr:postcode": "05345", "addr:state": "VT", "amenity": "post_box", "brand": "United States Postal Service", "brand:wikidata": "Q668687", "collection_times": "Mo-Fr 16:45; Sa 11:45", "name": "USPS COLLECTION BOX - PO LOBBY", "note": "ON 12/24 AND 12/31, THIS BOX MAY BE COLLECTED AS EARLY AS 12 NOON.", "nsi_id": "unitedstatespostalservice-a77078", "operator": "United States Postal Service", "operator:short": "USPS", "operator:type": "public", "operator:wikidata": "Q668687", "ref": "0534500002"}, "type": "Feature"}
{"dataset_attributes": {"@spider": "usps_collection_boxes", "spider:collection_time": "2023-12-28T08:25:01.581378"}, "geometry": {"coordinates": [-72.655658824, 42.984225357], "type": "Point"}, "id": "L31pCzZ1GNFTZpZ0vjsnZTQdG3I=", "properties": {"@spider": "usps_collection_boxes", "addr:city": "NEWFANE", "addr:country": "US", "addr:full": "562 VT ROUTE 30", "addr:postcode": "05345", "addr:state": "VT", "amenity": "post_box", "brand": "United States Postal Service", "brand:wikidata": "Q668687", "collection_times": "Mo-Fr 16:30; Sa 12:00", "name": "USPS COLLECTION BOX - PO LOBBY", "note": "ON 12/24 AND 12/31, THIS BOX MAY BE COLLECTED AS EARLY AS 12 NOON.", "nsi_id": "unitedstatespostalservice-a77078", "operator": "United States Postal Service", "operator:short": "USPS", "operator:type": "public", "operator:wikidata": "Q668687", "ref": "0534500004"}, "type": "Feature"}
{"dataset_attributes": {"@spider": "usps_collection_boxes", "spider:collection_time": "2023-12-28T08:25:01.581378"}, "geometry": {"coordinates": [-72.521838, 42.973423], "type": "Point"}, "id": "Q9NQb65GEkT-Io7PAZ76DA-I9G4=", "properties": {"@spider": "usps_collection_boxes", "addr:city": "PUTNEY", "addr:country": "US", "addr:full": "109 MAIN ST", "addr:postcode": "05346", "addr:state": "VT", "amenity": "post_box", "brand": "United States Postal Service", "brand:wikidata": "Q668687", "collection_times": "Mo-Fr 16:45; Sa 12:00", "name": "USPS COLLECTION BOX - BLUE BOX", "note": "ON 12/24 AND 12/31, THIS BOX MAY BE COLLECTED AS EARLY AS 12 NOON.", "nsi_id": "unitedstatespostalservice-a77078", "operator": "United States Postal Service", "operator:short": "USPS", "operator:type": "public", "operator:wikidata": "Q668687", "ref": "0534600001"}, "type": "Feature"}
{"dataset_attributes": {"@spider": "usps_collection_boxes", "spider:collection_time": "2023-12-28T08:25:01.581378"}, "geometry": {"coordinates": [-72.521838, 42.973423], "type": "Point"}, "id": "Ch48J1nrBgnmfkPpO3q7nzuyB40=", "properties": {"@spider": "usps_collection_boxes", "addr:city": "PUTNEY", "addr:country": "US", "addr:full": "109 MAIN ST", "addr:postcode": "05346", "addr:state": "VT", "amenity": "post_box", "brand": "United States Postal Service", "brand:wikidata": "Q668687", "collection_times": "Mo-Fr 17:00; Sa 12:00", "name": "USPS COLLECTION BOX - PO LOBBY", "note": "ON 12/24 AND 12/31, THIS BOX MAY BE COLLECTED AS EARLY AS 12 NOON.", "nsi_id": "unitedstatespostalservice-a77078", "operator": "United States Postal Service", "operator:short": "USPS", "operator:type": "public", "operator:wikidata": "Q668687", "ref": "0534600003"}, "type": "Feature"}
{"dataset_attributes": {"@spider": "usps_collection_boxes", "spider:collection_time": "2023-12-28T08:25:01.581378"}, "geometry": {"coordinates": [-72.52189963, 42.973303453], "type": "Point"}, "id": "OXDGxU1GBVsiI5slHz_g8iyxR2c=", "properties": {"@spider": "usps_collection_boxes", "addr:city": "PUTNEY", "addr:country": "US", "addr:full": "109 MAIN ST", "addr:postcode": "05346", "addr:state": "VT", "amenity": "post_box", "brand": "United States Postal Service", "brand:wikidata": "Q668687", "collection_times": "Mo-Fr 17:00; Sa 11:30", "name": "USPS COLLECTION BOX - PO LOBBY", "note": "ON 12/24 AND 12/31, THIS BOX MAY BE COLLECTED AS EARLY AS 12 NOON.", "nsi_id": "unitedstatespostalservice-a77078", "operator": "United States Postal Service", "operator:short": "USPS", "operator:type": "public", "operator:wikidata": "Q668687", "ref": "0534600004"}, "type": "Feature"}
{"dataset_attributes": {"@spider": "usps_collection_boxes", "spider:collection_time": "2023-12-28T08:25:01.581378"}, "geometry": {"coordinates": [-72.9518809, 42.774218], "type": "Point"}, "id": "3DOfGRzI7XYgYnKMrlNa8oE1i6s=", "properties": {"@spider": "usps_collection_boxes", "addr:city": "READSBORO", "addr:country": "US", "addr:full": "6802 MAIN ST", "addr:postcode": "05350", "addr:state": "VT", "amenity": "post_box", "brand": "United States Postal Service", "brand:wikidata": "Q668687", "collection_times": "Mo-Fr 14:00; Sa 11:15", "name": "USPS COLLECTION BOX - BLUE BOX", "note": "ON 12/24 AND 12/31, THIS BOX MAY BE COLLECTED AS EARLY AS 12 NOON.", "nsi_id": "unitedstatespostalservice-a77078", "operator": "United States Postal Service", "operator:short": "USPS", "operator:type": "public", "operator:wikidata": "Q668687", "ref": "0535000001"}, "type": "Feature"}
{"dataset_attributes": {"@spider": "usps_collection_boxes", "spider:collection_time": "2023-12-28T08:25:01.581378"}, "geometry": {"coordinates": [-73.0711531, 42.749197], "type": "Point"}, "id": "wbHEjnqRjCD-lOJfteZWtSLjp3I=", "properties": {"@spider": "usps_collection_boxes", "addr:city": "READSBORO", "addr:country": "US", "addr:full": "544 E MAIN ST", "addr:postcode": "05350", "addr:state": "VT", "amenity": "post_box", "brand": "United States Postal Service", "brand:wikidata": "Q668687", "collection_times": "Mo-Sa 10:00", "name": "USPS COLLECTION BOX - BLUE BOX", "nsi_id": "unitedstatespostalservice-a77078", "operator": "United States Postal Service", "operator:short": "USPS", "operator:type": "public", "operator:wikidata": "Q668687", "ref": "0535000002"}, "type": "Feature"}
{"dataset_attributes": {"@spider": "usps_collection_boxes", "spider:collection_time": "2023-12-28T08:25:01.581378"}, "geometry": {"coordinates": [-72.951382, 42.773885], "type": "Point"}, "id": "TLV9tiC-RpDnolNqo9eF37VuT_g=", "properties": {"@spider": "usps_collection_boxes", "addr:city": "READSBORO", "addr:country": "US", "addr:full": "6802 MAIN ST", "addr:postcode": "05350", "addr:state": "VT", "amenity": "post_box", "brand": "United States Postal Service", "brand:wikidata": "Q668687", "collection_times": "Mo-Fr 14:00; Sa 11:15", "name": "USPS COLLECTION BOX - PO LOBBY", "note": "ON 12/24 AND 12/31, THIS BOX MAY BE COLLECTED AS EARLY AS 12 NOON.", "nsi_id": "unitedstatespostalservice-a77078", "operator": "United States Postal Service", "operator:short": "USPS", "operator:type": "public", "operator:wikidata": "Q668687", "ref": "0535000003"}, "type": "Feature"}
{"dataset_attributes": {"@spider": "usps_collection_boxes", "spider:collection_time": "2023-12-28T08:25:01.581378"}, "geometry": {"coordinates": [-72.951924886, 42.774209194], "type": "Point"}, "id": "q5wHkTQ1plMiFpQWoIgdP0zBZBs=", "properties": {"@spider": "usps_collection_boxes", "addr:city": "READSBORO", "addr:country": "US", "addr:full": "6802 MAIN ST", "addr:postcode": "05350", "addr:state": "VT", "amenity": "post_box", "brand": "United States Postal Service", "brand:wikidata": "Q668687", "collection_times": "Mo-Fr 14:00; Sa 11:30", "name": "USPS COLLECTION BOX - PO LOBBY", "note": "ON 12/24 AND 12/31, THIS BOX MAY BE COLLECTED AS EARLY AS 12 NOON.", "nsi_id": "unitedstatespostalservice-a77078", "operator": "United States Postal Service", "operator:short": "USPS", "operator:type": "public", "operator:wikidata": "Q668687", "ref": "0535000005"}, "type": "Feature"}
{"dataset_attributes": {"@spider": "usps_collection_boxes", "spider:collection_time": "2023-12-28T08:25:01.581378"}, "geometry": {"coordinates": [-72.6668, 43.045278], "type": "Point"}, "id": "4JetFg6Qw1al8UZY42685aOZAyw=", "properties": {"@spider": "usps_collection_boxes", "addr:city": "TOWNSHEND", "addr:country": "US", "addr:full": "1955 VT ROUTE 30", "addr:postcode": "05353", "addr:state": "VT", "amenity": "post_box", "brand": "United States Postal Service", "brand:wikidata": "Q668687", "collection_times": "Mo-Fr 16:30; Sa 11:30", "name": "USPS COLLECTION BOX - BLUE BOX", "note": "ON 12/24 AND 12/31, THIS BOX MAY BE COLLECTED AS EARLY AS 12 NOON.", "nsi_id": "unitedstatespostalservice-a77078", "operator": "United States Postal Service", "operator:short": "USPS", "operator:type": "public", "operator:wikidata": "Q668687", "ref": "0535300000"}, "type": "Feature"}
{"dataset_attributes": {"@spider": "usps_collection_boxes", "spider:collection_time": "2023-12-28T08:25:01.581378"}, "geometry": {"coordinates": [-72.666802, 43.045326], "type": "Point"}, "id": "31YGotXDjeQ6ixipZzecuxieRpM=", "properties": {"@spider": "usps_collection_boxes", "addr:city": "TOWNSHEND", "addr:country": "US", "addr:full": "1955 VT ROUTE 30", "addr:postcode": "05353", "addr:state": "VT", "amenity": "post_box", "brand": "United States Postal Service", "brand:wikidata": "Q668687", "collection_times": "Mo-Fr 16:45; Sa 12:00", "name": "USPS COLLECTION BOX - PO LOBBY", "note": "ON 12/24 AND 12/31, THIS BOX MAY BE COLLECTED AS EARLY AS 12 NOON.", "nsi_id": "unitedstatespostalservice-a77078", "operator": "United States Postal Service", "operator:short": "USPS", "operator:type": "public", "operator:wikidata": "Q668687", "ref": "0535300001"}, "type": "Feature"}
{"dataset_attributes": {"@spider": "usps_collection_boxes", "spider:collection_time": "2023-12-28T08:25:01.581378"}, "geometry": {"coordinates": [-72.6564, 43.019204], "type": "Point"}, "id": "XaWHHt-ZF7frrHdFRRfIyFuOJEw=", "properties": {"@spider": "usps_collection_boxes", "addr:city": "TOWNSHEND", "addr:country": "US", "addr:full": "6573 VT ROUTE 30", "addr:postcode": "05353", "addr:state": "VT", "amenity": "post_box", "brand": "United States Postal Service", "brand:wikidata": "Q668687", "collection_times": "Mo-Fr 16:30; Sa 10:45", "name": "USPS COLLECTION BOX - BLUE BOX", "note": "ON 12/24 AND 12/31, THIS BOX MAY BE COLLECTED AS EARLY AS 12 NOON.", "nsi_id": "unitedstatespostalservice-a77078", "operator": "United States Postal Service", "operator:short": "USPS", "operator:type": "public", "operator:wikidata": "Q668687", "ref": "0535300003"}, "type": "Feature"}
{"dataset_attributes": {"@spider": "usps_collection_boxes", "spider:collection_time": "2023-12-28T08:25:01.581378"}, "geometry": {"coordinates": [-72.666613879, 43.045084458], "type": "Point"}, "id": "40lcAuq5Vay2X2F2oMN0DjUJH40=", "properties": {"@spider": "usps_collection_boxes", "addr:city": "TOWNSHEND", "addr:country": "US", "addr:full": "1955 VT ROUTE 30", "addr:postcode": "05353", "addr:state": "VT", "amenity": "post_box", "brand": "United States Postal Service", "brand:wikidata": "Q668687", "collection_times": "Mo-Fr 16:45; Sa 12:00", "name": "USPS COLLECTION BOX - PO LOBBY", "note": "ON 12/24 AND 12/31, THIS BOX MAY BE COLLECTED AS EARLY AS 12 NOON.", "nsi_id": "unitedstatespostalservice-a77078", "operator": "United States Postal Service", "operator:short": "USPS", "operator:type": "public", "operator:wikidata": "Q668687", "ref": "0535300005"}, "type": "Feature"}
{"dataset_attributes": {"@spider": "usps_collection_boxes", "spider:collection_time": "2023-12-28T08:25:01.581378"}, "geometry": {"coordinates": [-72.51388, 42.761982], "type": "Point"}, "id": "n4uGr0ZydGwscWFqe4opD1H-ZDw=", "properties": {"@spider": "usps_collection_boxes", "addr:city": "VERNON", "addr:country": "US", "addr:full": "2531 FORT BRIDGMAN RD", "addr:postcode": "05354", "addr:state": "VT", "amenity": "post_box", "brand": "United States Postal Service", "brand:wikidata": "Q668687", "collection_times": "Mo-Fr 16:30; Sa 11:00", "name": "USPS COLLECTION BOX - BLUE BOX", "note": "ON 12/24 AND 12/31, THIS BOX MAY BE COLLECTED AS EARLY AS 12 NOON.", "nsi_id": "unitedstatespostalservice-a77078", "operator": "United States Postal Service", "operator:short": "USPS", "operator:type": "public", "operator:wikidata": "Q668687", "ref": "0535400001"}, "type": "Feature"}
{"dataset_attributes": {"@spider": "usps_collection_boxes", "spider:collection_time": "2023-12-28T08:25:01.581378"}, "geometry": {"coordinates": [-72.51398, 42.762031], "type": "Point"}, "id": "l8rnzRvFmGNCslxdRWzTMoR2NrM=", "properties": {"@spider": "usps_collection_boxes", "addr:city": "VERNON", "addr:country": "US", "addr:full": "2531 FORT BRIDGMAN RD", "addr:postcode": "05354", "addr:state": "VT", "amenity": "post_box", "brand": "United States Postal Service", "brand:wikidata": "Q668687", "collection_times": "Mo-Fr 16:30; Sa 11:00", "name": "USPS COLLECTION BOX - PO LOBBY", "note": "ON 12/24 AND 12/31, THIS BOX MAY BE COLLECTED AS EARLY AS 12 NOON.", "nsi_id": "unitedstatespostalservice-a77078", "operator": "United States Postal Service", "operator:short": "USPS", "operator:type": "public", "operator:wikidata": "Q668687", "ref": "0535400002"}, "type": "Feature"}
{"dataset_attributes": {"@spider": "usps_collection_boxes", "spider:collection_time": "2023-12-28T08:25:01.581378"}, "geometry": {"coordinates": [-72.513076193, 42.761616911], "type": "Point"}, "id": "elhfUM2x426nj84p6JU9wVl2sVU=", "properties": {"@spider": "usps_collection_boxes", "addr:city": "VERNON", "addr:country": "US", "addr:full": "2531 FORT BRIDGMAN RD", "addr:postcode": "05354", "addr:state": "VT", "amenity": "post_box", "brand": "United States Postal Service", "brand:wikidata": "Q668687", "collection_times": "Mo-Fr 16:30; Sa 11:30", "name": "USPS COLLECTION BOX - PO LOBBY", "note": "ON 12/24 AND 12/31, THIS BOX MAY BE COLLECTED AS EARLY AS 12 NOON.", "nsi_id": "unitedstatespostalservice-a77078", "operator": "United States Postal Service", "operator:short": "USPS", "operator:type": "public", "operator:wikidata": "Q668687", "ref": "0535400003"}, "type": "Feature"}
{"dataset_attributes": {"@spider": "usps_collection_boxes", "spider:collection_time": "2023-12-28T08:25:01.581378"}, "geometry": {"coordinates": [-72.790069, 43.040486], "type": "Point"}, "id": "rc918nysyy39XS0oGxnfM_SW5yI=", "properties": {"@spider": "usps_collection_boxes", "addr:city": "WARDSBORO", "addr:country": "US", "addr:full": "861 ROUTE 100", "addr:postcode": "05355", "addr:state": "VT", "amenity": "post_box", "brand": "United States Postal Service", "brand:wikidata": "Q668687", "collection_times": "Mo-Fr 12:00; Sa 11:00", "name": "USPS COLLECTION BOX - BLUE BOX", "nsi_id": "unitedstatespostalservice-a77078", "operator": "United States Postal Service", "operator:short": "USPS", "operator:type": "public", "operator:wikidata": "Q668687", "ref": "0535500000"}, "type": "Feature"}
{"dataset_attributes": {"@spider": "usps_collection_boxes", "spider:collection_time": "2023-12-28T08:25:01.581378"}, "geometry": {"coordinates": [-72.790067, 43.040523], "type": "Point"}, "id": "LRedfAcyKmagZlLV9U7PLrw-ReU=", "properties": {"@spider": "usps_collection_boxes", "addr:city": "WARDSBORO", "addr:country": "US", "addr:full": "861 ROUTE 100", "addr:postcode": "05355", "addr:state": "VT", "amenity": "post_box", "brand": "United States Postal Service", "brand:wikidata": "Q668687", "collection_times": "Mo-Fr 12:00; Sa 11:00", "name": "USPS COLLECTION BOX - PO LOBBY", "nsi_id": "unitedstatespostalservice-a77078", "operator": "United States Postal Service", "operator:short": "USPS", "operator:type": "public", "operator:wikidata": "Q668687", "ref": "0535500001"}, "type": "Feature"}
{"dataset_attributes": {"@spider": "usps_collection_boxes", "spider:collection_time": "2023-12-28T08:25:01.581378"}, "geometry": {"coordinates": [-72.790014406, 43.040509974], "type": "Point"}, "id": "dor7BprfN5HsStljXgup6TVdEd4=", "properties": {"@spider": "usps_collection_boxes", "addr:city": "WARDSBORO", "addr:country": "US", "addr:full": "861 ROUTE 100", "addr:postcode": "05355", "addr:state": "VT", "amenity": "post_box", "brand": "United States Postal Service", "brand:wikidata": "Q668687", "collection_times": "Mo-Fr 12:00; Sa 11:30", "name": "USPS COLLECTION BOX - PO LOBBY", "nsi_id": "unitedstatespostalservice-a77078", "operator": "United States Postal Service", "operator:short": "USPS", "operator:type": "public", "operator:wikidata": "Q668687", "ref": "0535500002"}, "type": "Feature"}
{"dataset_attributes": {"@spider": "usps_collection_boxes", "spider:collection_time": "2023-12-28T08:25:01.581378"}, "geometry": {"coordinates": [-72.865712, 42.946095], "type": "Point"}, "id": "ASWIAflUatjfzgBDOyj5cYmV5iQ=", "properties": {"@spider": "usps_collection_boxes", "addr:city": "WEST DOVER", "addr:country": "US", "addr:full": "1 MOUNTAIN PARK PLZ UNIT A", "addr:postcode": "05356", "addr:state": "VT", "amenity": "post_box", "brand": "United States Postal Service", "brand:wikidata": "Q668687", "collection_times": "Mo-Fr 16:15; Sa 11:15", "name": "USPS COLLECTION BOX - BLUE BOX", "note": "ON 12/24 AND 12/31, THIS BOX MAY BE COLLECTED AS EARLY AS 12 NOON.", "nsi_id": "unitedstatespostalservice-a77078", "operator": "United States Postal Service", "operator:short": "USPS", "operator:type": "public", "operator:wikidata": "Q668687", "ref": "0535600000"}, "type": "Feature"}
{"dataset_attributes": {"@spider": "usps_collection_boxes", "spider:collection_time": "2023-12-28T08:25:01.581378"}, "geometry": {"coordinates": [-72.865669, 42.946183], "type": "Point"}, "id": "xdtz84TbEHVwr9sgbkqOGwC_6Zw=", "properties": {"@spider": "usps_collection_boxes", "addr:city": "WEST DOVER", "addr:country": "US", "addr:full": "1 MOUNTAIN PARK PLZ UNIT A", "addr:postcode": "05356", "addr:state": "VT", "amenity": "post_box", "brand": "United States Postal Service", "brand:wikidata": "Q668687", "collection_times": "Mo-Fr 16:15; Sa 11:15", "name": "USPS COLLECTION BOX - PO LOBBY", "note": "ON 12/24 AND 12/31, THIS BOX MAY BE COLLECTED AS EARLY AS 12 NOON.", "nsi_id": "unitedstatespostalservice-a77078", "operator": "United States Postal Service", "operator:short": "USPS", "operator:type": "public", "operator:wikidata": "Q668687", "ref": "0535600002"}, "type": "Feature"}
{"dataset_attributes": {"@spider": "usps_collection_boxes", "spider:collection_time": "2023-12-28T08:25:01.581378"}, "geometry": {"coordinates": [-72.865959362, 42.945860044], "type": "Point"}, "id": "lNo-QmdJjDbFIebeWdfoALqqcYE=", "properties": {"@spider": "usps_collection_boxes", "addr:city": "WEST DOVER", "addr:country": "US", "addr:full": "1 MOUNTAIN PARK PLZ UNIT A", "addr:postcode": "05356", "addr:state": "VT", "amenity": "post_box", "brand": "United States Postal Service", "brand:wikidata": "Q668687", "collection_times": "Mo-Fr 16:30; Sa 11:30", "name": "USPS COLLECTION BOX - PO LOBBY", "note": "ON 12/24 AND 12/31, THIS BOX MAY BE COLLECTED AS EARLY AS 12 NOON.", "nsi_id": "unitedstatespostalservice-a77078", "operator": "United States Postal Service", "operator:short": "USPS", "operator:type": "public", "operator:wikidata": "Q668687", "ref": "0535600005"}, "type": "Feature"}
{"dataset_attributes": {"@spider": "usps_collection_boxes", "spider:collection_time": "2023-12-28T08:25:01.581378"}, "geometry": {"coordinates": [-72.612815, 42.92811], "type": "Point"}, "id": "aa5k7wAXdkfYr-oTVo7OFO_yVug=", "properties": {"@spider": "usps_collection_boxes", "addr:city": "WEST DUMMERSTON", "addr:country": "US", "addr:full": "9A LYONS ST", "addr:postcode": "05357", "addr:state": "VT", "amenity": "post_box", "brand": "United States Postal Service", "brand:wikidata": "Q668687", "collection_times": "Mo-Sa 11:30", "name": "USPS COLLECTION BOX - BLUE BOX", "nsi_id": "unitedstatespostalservice-a77078", "operator": "United States Postal Service", "operator:short": "USPS", "operator:type": "public", "operator:wikidata": "Q668687", "ref": "0535700000"}, "type": "Feature"}
{"dataset_attributes": {"@spider": "usps_collection_boxes", "spider:collection_time": "2023-12-28T08:25:01.581378"}, "geometry": {"coordinates": [-72.612747, 42.928534], "type": "Point"}, "id": "jAia8KzraQjs0RpCA2pMgmieL9s=", "properties": {"@spider": "usps_collection_boxes", "addr:city": "WEST DUMMERSTON", "addr:country": "US", "addr:full": "9A LYONS ST", "addr:postcode": "05357", "addr:state": "VT", "amenity": "post_box", "brand": "United States Postal Service", "brand:wikidata": "Q668687", "collection_times": "Mo-Sa 11:30", "name": "USPS COLLECTION BOX - PO LOBBY", "nsi_id": "unitedstatespostalservice-a77078", "operator": "United States Postal Service", "operator:short": "USPS", "operator:type": "public", "operator:wikidata": "Q668687", "ref": "0535700001"}, "type": "Feature"}
{"dataset_attributes": {"@spider": "usps_collection_boxes", "spider:collection_time": "2023-12-28T08:25:01.581378"}, "geometry": {"coordinates": [-72.612652186, 42.928491425], "type": "Point"}, "id": "5R9eXP8JqWUb6_nM_52wMVtbjvs=", "properties": {"@spider": "usps_collection_boxes", "addr:city": "WEST DUMMERSTON", "addr:country": "US", "addr:full": "9 LYONS ST UNIT A", "addr:postcode": "05357", "addr:state": "VT", "amenity": "post_box", "brand": "United States Postal Service", "brand:wikidata": "Q668687", "collection_times": "Mo-Fr 11:30; Sa 11:45", "name": "USPS COLLECTION BOX - PO LOBBY", "nsi_id": "unitedstatespostalservice-a77078", "operator": "United States Postal Service", "operator:short": "USPS", "operator:type": "public", "operator:wikidata": "Q668687", "ref": "0535700002"}, "type": "Feature"}
{"dataset_attributes": {"@spider": "usps_collection_boxes", "spider:collection_time": "2023-12-28T08:25:01.581378"}, "geometry": {"coordinates": [-72.773588, 42.786473], "type": "Point"}, "id": "RGgtC2bsherKmVnvsBkh4hKgIow=", "properties": {"@spider": "usps_collection_boxes", "addr:city": "WEST HALIFAX", "addr:country": "US", "addr:full": "3438 REED HILL RD", "addr:postcode": "05358", "addr:state": "VT", "amenity": "post_box", "brand": "United States Postal Service", "brand:wikidata": "Q668687", "collection_times": "Mo-Fr 12:00; Sa 11:30", "name": "USPS COLLECTION BOX - BLUE BOX", "nsi_id": "unitedstatespostalservice-a77078", "operator": "United States Postal Service", "operator:short": "USPS", "operator:type": "public", "operator:wikidata": "Q668687", "ref": "0535800000"}, "type": "Feature"}
{"dataset_attributes": {"@spider": "usps_collection_boxes", "spider:collection_time": "2023-12-28T08:25:01.581378"}, "geometry": {"coordinates": [-72.773588, 42.786473], "type": "Point"}, "id": "oeL3-m5WmiRsl1_pmCB8cTtoOGs=", "properties": {"@spider": "usps_collection_boxes", "addr:city": "WEST HALIFAX", "addr:country": "US", "addr:full": "3438 REED HILL RD", "addr:postcode": "05358", "addr:state": "VT", "amenity": "post_box", "brand": "United States Postal Service", "brand:wikidata": "Q668687", "collection_times": "Mo-Fr 12:00; Sa 11:30", "name": "USPS COLLECTION BOX - PO LOBBY", "nsi_id": "unitedstatespostalservice-a77078", "operator": "United States Postal Service", "operator:short": "USPS", "operator:type": "public", "operator:wikidata": "Q668687", "ref": "0535800001"}, "type": "Feature"}
{"dataset_attributes": {"@spider": "usps_collection_boxes", "spider:collection_time": "2023-12-28T08:25:01.581378"}, "geometry": {"coordinates": [-72.773587939, 42.786472634], "type": "Point"}, "id": "yxf77kvIxnrWwKa4YBLqb01Oa28=", "properties": {"@spider": "usps_collection_boxes", "addr:city": "WEST HALIFAX", "addr:country": "US", "addr:full": "3438 REED HILL RD", "addr:postcode": "05358", "addr:state": "VT", "amenity": "post_box", "brand": "United States Postal Service", "brand:wikidata": "Q668687", "collection_times": "Mo-Fr 12:00; Sa 11:30", "name": "USPS COLLECTION BOX - PO LOBBY", "nsi_id": "unitedstatespostalservice-a77078", "operator": "United States Postal Service", "operator:short": "USPS", "operator:type": "public", "operator:wikidata": "Q668687", "ref": "0535800002"}, "type": "Feature"}
{"dataset_attributes": {"@spider": "usps_collection_boxes", "spider:collection_time": "2023-12-28T08:25:01.581378"}, "geometry": {"coordinates": [-72.888998, 42.990091], "type": "Point"}, "id": "VNARowludMxkD8YT3SwqExs2ZCI=", "properties": {"@spider": "usps_collection_boxes", "addr:city": "WEST WARDSBORO", "addr:country": "US", "addr:full": "4690 ROUTE 100", "addr:postcode": "05360", "addr:state": "VT", "amenity": "post_box", "brand": "United States Postal Service", "brand:wikidata": "Q668687", "collection_times": "Mo-Fr 16:15; Sa 11:00", "name": "USPS COLLECTION BOX - BLUE BOX", "note": "ON 12/24 AND 12/31, THIS BOX MAY BE COLLECTED AS EARLY AS 12 NOON.", "nsi_id": "unitedstatespostalservice-a77078", "operator": "United States Postal Service", "operator:short": "USPS", "operator:type": "public", "operator:wikidata": "Q668687", "ref": "0536000000"}, "type": "Feature"}
{"dataset_attributes": {"@spider": "usps_collection_boxes", "spider:collection_time": "2023-12-28T08:25:01.581378"}, "geometry": {"coordinates": [-72.888998, 42.990091], "type": "Point"}, "id": "8vwvoln3MbU6S7E4vR8vTsbCUpw=", "properties": {"@spider": "usps_collection_boxes", "addr:city": "WEST WARDSBORO", "addr:country": "US", "addr:full": "4690 ROUTE 100", "addr:postcode": "05360", "addr:state": "VT", "amenity": "post_box", "brand": "United States Postal Service", "brand:wikidata": "Q668687", "collection_times": "Mo-Fr 16:15; Sa 11:00", "name": "USPS COLLECTION BOX - PO LOBBY", "note": "ON 12/24 AND 12/31, THIS BOX MAY BE COLLECTED AS EARLY AS 12 NOON.", "nsi_id": "unitedstatespostalservice-a77078", "operator": "United States Postal Service", "operator:short": "USPS", "operator:type": "public", "operator:wikidata": "Q668687", "ref": "0536000001"}, "type": "Feature"}
{"dataset_attributes": {"@spider": "usps_collection_boxes", "spider:collection_time": "2023-12-28T08:25:01.581378"}, "geometry": {"coordinates": [-72.84665801, 43.033113217], "type": "Point"}, "id": "3C7th_Nu395PVNIKCLp_e-h17j4=", "properties": {"@spider": "usps_collection_boxes", "addr:city": "WEST WARDSBORO", "addr:country": "US", "addr:full": "4690 ROUTE 100", "addr:postcode": "05360", "addr:state": "VT", "amenity": "post_box", "brand": "United States Postal Service", "brand:wikidata": "Q668687", "collection_times": "Mo-Fr 16:15; Sa 11:00", "name": "USPS COLLECTION BOX - PO LOBBY", "note": "ON 12/24 AND 12/31, THIS BOX MAY BE COLLECTED AS EARLY AS 12 NOON.", "nsi_id": "unitedstatespostalservice-a77078", "operator": "United States Postal Service", "operator:short": "USPS", "operator:type": "public", "operator:wikidata": "Q668687", "ref": "0536000002"}, "type": "Feature"}
{"dataset_attributes": {"@spider": "usps_collection_boxes", "spider:collection_time": "2023-12-28T08:25:01.581378"}, "geometry": {"coordinates": [-72.8843439, 42.789106], "type": "Point"}, "id": "V6MoQ2Reey3B2xax8QqyEM11mZc=", "properties": {"@spider": "usps_collection_boxes", "addr:city": "WHITINGHAM", "addr:country": "US", "addr:full": "6677 VT ROUTE 100", "addr:postcode": "05361", "addr:state": "VT", "amenity": "post_box", "brand": "United States Postal Service", "brand:wikidata": "Q668687", "collection_times": "Mo-Fr 12:00; Sa 11:00", "name": "USPS COLLECTION BOX - BLUE BOX", "nsi_id": "unitedstatespostalservice-a77078", "operator": "United States Postal Service", "operator:short": "USPS", "operator:type": "public", "operator:wikidata": "Q668687", "ref": "0536100000"}, "type": "Feature"}
{"dataset_attributes": {"@spider": "usps_collection_boxes", "spider:collection_time": "2023-12-28T08:25:01.581378"}, "geometry": {"coordinates": [-72.8842963, 42.789098], "type": "Point"}, "id": "bbAt_IJF3CFY_4X1YuGy1euRX0c=", "properties": {"@spider": "usps_collection_boxes", "addr:city": "WHITINGHAM", "addr:country": "US", "addr:full": "6677 VT ROUTE 100", "addr:postcode": "05361", "addr:state": "VT", "amenity": "post_box", "brand": "United States Postal Service", "brand:wikidata": "Q668687", "collection_times": "Mo-Fr 12:00; Sa 11:00", "name": "USPS COLLECTION BOX - PO LOBBY", "nsi_id": "unitedstatespostalservice-a77078", "operator": "United States Postal Service", "operator:short": "USPS", "operator:type": "public", "operator:wikidata": "Q668687", "ref": "0536100001"}, "type": "Feature"}
{"dataset_attributes": {"@spider": "usps_collection_boxes", "spider:collection_time": "2023-12-28T08:25:01.581378"}, "geometry": {"coordinates": [-72.884206146, 42.788982134], "type": "Point"}, "id": "-XS85_w_KcnbtBBWqbgU0Bs7Kzs=", "properties": {"@spider": "usps_collection_boxes", "addr:city": "WHITINGHAM", "addr:country": "US", "addr:full": "6677 VT ROUTE 100", "addr:postcode": "05361", "addr:state": "VT", "amenity": "post_box", "brand": "United States Postal Service", "brand:wikidata": "Q668687", "collection_times": "Mo-Fr 12:00; Sa 11:00", "name": "USPS COLLECTION BOX - PO LOBBY", "nsi_id": "unitedstatespostalservice-a77078", "operator": "United States Postal Service", "operator:short": "USPS", "operator:type": "public", "operator:wikidata": "Q668687", "ref": "0536100002"}, "type": "Feature"}
{"dataset_attributes": {"@spider": "usps_collection_boxes", "spider:collection_time": "2023-12-28T08:25:01.581378"}, "geometry": {"coordinates": [-72.681418, 42.945286], "type": "Point"}, "id": "cGEbJMz9X_KsVbg7sdMXdj0LJOg=", "properties": {"@spider": "usps_collection_boxes", "addr:city": "WILLIAMSVILLE", "addr:country": "US", "addr:full": "67 DOVER RD", "addr:postcode": "05362", "addr:state": "VT", "amenity": "post_box", "brand": "United States Postal Service", "brand:wikidata": "Q668687", "collection_times": "Mo-Fr 15:00; Sa 10:00", "name": "USPS COLLECTION BOX - BLUE BOX", "note": "ON 12/24 AND 12/31, THIS BOX MAY BE COLLECTED AS EARLY AS 12 NOON.", "nsi_id": "unitedstatespostalservice-a77078", "operator": "United States Postal Service", "operator:short": "USPS", "operator:type": "public", "operator:wikidata": "Q668687", "ref": "0536200001"}, "type": "Feature"}
{"dataset_attributes": {"@spider": "usps_collection_boxes", "spider:collection_time": "2023-12-28T08:25:01.581378"}, "geometry": {"coordinates": [-72.681546, 42.945285], "type": "Point"}, "id": "sGQp8O4kEsowx8uC-c9nMNmmgMc=", "properties": {"@spider": "usps_collection_boxes", "addr:city": "WILLIAMSVILLE", "addr:country": "US", "addr:full": "67 DOVER RD", "addr:postcode": "05362", "addr:state": "VT", "amenity": "post_box", "brand": "United States Postal Service", "brand:wikidata": "Q668687", "collection_times": "Mo-Fr 15:00; Sa 10:00", "name": "USPS COLLECTION BOX - PO LOBBY", "note": "ON 12/24 AND 12/31, THIS BOX MAY BE COLLECTED AS EARLY AS 12 NOON.", "nsi_id": "unitedstatespostalservice-a77078", "operator": "United States Postal Service", "operator:short": "USPS", "operator:type": "public", "operator:wikidata": "Q668687", "ref": "0536200002"}, "type": "Feature"}
{"dataset_attributes": {"@spider": "usps_collection_boxes", "spider:collection_time": "2023-12-28T08:25:01.581378"}, "geometry": {"coordinates": [-72.681056278, 42.945368094], "type": "Point"}, "id": "kkIN4PaGrcDWTsb4z_vNYiTQEEw=", "properties": {"@spider": "usps_collection_boxes", "addr:city": "WILLIAMSVILLE", "addr:country": "US", "addr:full": "67 DOVER RD", "addr:postcode": "05362", "addr:state": "VT", "amenity": "post_box", "brand": "United States Postal Service", "brand:wikidata": "Q668687", "collection_times": "Mo-Fr 15:00; Sa 11:00", "name": "USPS COLLECTION BOX - PO LOBBY", "note": "ON 12/24 AND 12/31, THIS BOX MAY BE COLLECTED AS EARLY AS 12 NOON.", "nsi_id": "unitedstatespostalservice-a77078", "operator": "United States Postal Service", "operator:short": "USPS", "operator:type": "public", "operator:wikidata": "Q668687", "ref": "0536200003"}, "type": "Feature"}
{"dataset_attributes": {"@spider": "usps_collection_boxes", "spider:collection_time": "2023-12-28T08:25:01.581378"}, "geometry": {"coordinates": [-72.867854, 42.86671], "type": "Point"}, "id": "rxC1nN_rn6N4ZD-ps6m3zZhV-Ns=", "properties": {"@spider": "usps_collection_boxes", "addr:city": "WILMINGTON", "addr:country": "US", "addr:full": "39 E MAIN ST", "addr:postcode": "05363", "addr:state": "VT", "amenity": "post_box", "brand": "United States Postal Service", "brand:wikidata": "Q668687", "collection_times": "Mo-Fr 16:45; Sa 12:15", "name": "USPS COLLECTION BOX - BLUE BOX", "note": "ON 12/24 AND 12/31, THIS BOX MAY BE COLLECTED AS EARLY AS 12 NOON.", "nsi_id": "unitedstatespostalservice-a77078", "operator": "United States Postal Service", "operator:short": "USPS", "operator:type": "public", "operator:wikidata": "Q668687", "ref": "0536300000"}, "type": "Feature"}
{"dataset_attributes": {"@spider": "usps_collection_boxes", "spider:collection_time": "2023-12-28T08:25:01.581378"}, "geometry": {"coordinates": [-72.867854, 42.86671], "type": "Point"}, "id": "iJbomza2n9vTRN1LbZzYQOswIhU=", "properties": {"@spider": "usps_collection_boxes", "addr:city": "WILMINGTON", "addr:country": "US", "addr:full": "39 E MAIN ST", "addr:postcode": "05363", "addr:state": "VT", "amenity": "post_box", "brand": "United States Postal Service", "brand:wikidata": "Q668687", "collection_times": "Mo-Fr 16:45; Sa 12:15", "name": "USPS COLLECTION BOX - PO LOBBY", "note": "ON 12/24 AND 12/31, THIS BOX MAY BE COLLECTED AS EARLY AS 12 NOON.", "nsi_id": "unitedstatespostalservice-a77078", "operator": "United States Postal Service", "operator:short": "USPS", "operator:type": "public", "operator:wikidata": "Q668687", "ref": "0536300003"}, "type": "Feature"}
{"dataset_attributes": {"@spider": "usps_collection_boxes", "spider:collection_time": "2023-12-28T08:25:01.581378"}, "geometry": {"coordinates": [-72.867971163, 42.866713279], "type": "Point"}, "id": "byYnu9wGWXIe5saf15DQfPKKVEw=", "properties": {"@spider": "usps_collection_boxes", "addr:city": "WILMINGTON", "addr:country": "US", "addr:full": "39 E MAIN ST", "addr:postcode": "05363", "addr:state": "VT", "amenity": "post_box", "brand": "United States Postal Service", "brand:wikidata": "Q668687", "collection_times": "Mo-Fr 17:00; Sa 12:00", "name": "USPS COLLECTION BOX - PO LOBBY", "note": "ON 12/24 AND 12/31, THIS BOX MAY BE COLLECTED AS EARLY AS 12 NOON.", "nsi_id": "unitedstatespostalservice-a77078", "operator": "United States Postal Service", "operator:short": "USPS", "operator:type": "public", "operator:wikidata": "Q668687", "ref": "0536300004"}, "type": "Feature"}
