{"geometry": {"coordinates": [-72.57148, 44.25834], "type": "Point"}, "id": "BAH0SAUjcwFhGGerMLzkS_MF6I4=", "properties": {"@source_uri": "https://tools.usps.com/UspsToolsRestServices/rest/POLocator/findLocations", "@spider": "usps_collection_boxes", "addr:city": "MONTPELIER", "addr:country": "US", "addr:postcode": "05602", "addr:state": "VT", "addr:street_address": "1 LANGDON ST", "amenity": "post_box", "collection_times": "Mo-Fr 15:00; Sa 14:00", "note": "ON 12/24 AND 12/31, THIS BOX MAY BE COLLECTED AS EARLY AS 12 NOON.", "nsi_id": "unitedstatespostalservice-a77078", "operator": "United States Postal Service", "operator:short": "USPS", "operator:type": "public", "operator:wikidata": "Q668687", "ref": "0560200005"}, "type": "Feature"}
{"geometry": {"coordinates": [-72.57148, 44.25834], "type": "Point"}, "id": "B2ths_0ac-7tzlRfppoISPylwJg=", "properties": {"@source_uri": "https://tools.usps.com/UspsToolsRestServices/rest/POLocator/findLocations", "@spider": "usps_collection_boxes", "addr:city": "MONTPELIER", "addr:country": "US", "addr:postcode": "05602", "addr:state": "VT", "addr:street_address": "81 RIVER ST", "amenity": "post_box", "collection_times": "Mo-Fr 15:00; Sa 14:00", "note": "ON 12/24 AND 12/31, THIS BOX MAY BE COLLECTED AS EARLY AS 12 NOON.", "nsi_id": "unitedstatespostalservice-a77078", "operator": "United States Postal Service", "operator:short": "USPS", "operator:type": "public", "operator:wikidata": "Q668687", "ref": "0560200008"}, "type": "Feature"}
{"geometry": {"coordinates": [-72.57148, 44.25834], "type": "Point"}, "id": "NcPXAh7vm7T3yN9BFzTzGbEr0kw=", "properties": {"@source_uri": "https://tools.usps.com/UspsToolsRestServices/rest/POLocator/findLocations", "@spider": "usps_collection_boxes", "addr:city": "MONTPELIER", "addr:country": "US", "addr:postcode": "05602", "addr:state": "VT", "addr:street_address": "54 MAIN ST", "amenity": "post_box", "collection_times": "Mo-Fr 15:00; Sa 14:00", "note": "ON 12/24 AND 12/31, THIS BOX MAY BE COLLECTED AS EARLY AS 12 NOON.", "nsi_id": "unitedstatespostalservice-a77078", "operator": "United States Postal Service", "operator:short": "USPS", "operator:type": "public", "operator:wikidata": "Q668687", "ref": "0560200016"}, "type": "Feature"}
{"geometry": {"coordinates": [-72.57148, 44.25834], "type": "Point"}, "id": "V5Vfr6NLSYqRyHItrssK555oszI=", "properties": {"@source_uri": "https://tools.usps.com/UspsToolsRestServices/rest/POLocator/findLocations", "@spider": "usps_collection_boxes", "addr:city": "MONTPELIER", "addr:country": "US", "addr:postcode": "05602", "addr:state": "VT", "addr:street_address": "65 MAIN ST", "amenity": "post_box", "collection_times": "Mo-Fr 15:00; Sa 14:00", "note": "ON 12/24 AND 12/31, THIS BOX MAY BE COLLECTED AS EARLY AS 12 NOON.", "nsi_id": "unitedstatespostalservice-a77078", "operator": "United States Postal Service", "operator:short": "USPS", "operator:type": "public", "operator:wikidata": "Q668687", "ref": "0560200017"}, "type": "Feature"}
{"geometry": {"coordinates": [-72.57148, 44.25834], "type": "Point"}, "id": "7cKD81vFONXI2VAe-OwA4x-IEQU=", "properties": {"@source_uri": "https://tools.usps.com/UspsToolsRestServices/rest/POLocator/findLocations", "@spider": "usps_collection_boxes", "addr:city": "MONTPELIER", "addr:country": "US", "addr:postcode": "05602", "addr:state": "VT", "addr:street_address": "7 MAIN ST", "amenity": "post_box", "collection_times": "Mo-Fr 15:00; Sa 14:00", "note": "ON 12/24 AND 12/31, THIS BOX MAY BE COLLECTED AS EARLY AS 12 NOON.", "nsi_id": "unitedstatespostalservice-a77078", "operator": "United States Postal Service", "operator:short": "USPS", "operator:type": "public", "operator:wikidata": "Q668687", "ref": "0560200018"}, "type": "Feature"}
{"geometry": {"coordinates": [-72.57148, 44.25834], "type": "Point"}, "id": "33k3HI7Er6iyg97FBpENhp3FCX8=", "properties": {"@source_uri": "https://tools.usps.com/UspsToolsRestServices/rest/POLocator/findLocations", "@spider": "usps_collection_boxes", "addr:city": "MONTPELIER", "addr:country": "US", "addr:postcode": "05602", "addr:state": "VT", "addr:street_address": "20 STATE ST", "amenity": "post_box", "collection_times": "Mo-Fr 15:00; Sa 14:00", "note": "ON 12/24 AND 12/31, THIS BOX MAY BE COLLECTED AS EARLY AS 12 NOON.", "nsi_id": "unitedstatespostalservice-a77078", "operator": "United States Postal Service", "operator:short": "USPS", "operator:type": "public", "operator:wikidata": "Q668687", "ref": "0560200019"}, "type": "Feature"}
{"geometry": {"coordinates": [-72.57148, 44.25834], "type": "Point"}, "id": "sVLQH4KCOzlKzGG4C0scbseUzu4=", "properties": {"@source_uri": "https://tools.usps.com/UspsToolsRestServices/rest/POLocator/findLocations", "@spider": "usps_collection_boxes", "addr:city": "MONTPELIER", "addr:country": "US", "addr:postcode": "05602", "addr:state": "VT", "addr:street_address": "162 ELM ST", "amenity": "post_box", "collection_times": "Mo-Sa 12:00", "nsi_id": "unitedstatespostalservice-a77078", "operator": "United States Postal Service", "operator:short": "USPS", "operator:type": "public", "operator:wikidata": "Q668687", "ref": "0560200020"}, "type": "Feature"}
{"geometry": {"coordinates": [-72.57148, 44.25834], "type": "Point"}, "id": "46V_EyHkkTHvD0Rkp8ovqr8iHaM=", "properties": {"@source_uri": "https://tools.usps.com/UspsToolsRestServices/rest/POLocator/findLocations", "@spider": "usps_collection_boxes", "addr:city": "MONTPELIER", "addr:country": "US", "addr:postcode": "05602", "addr:state": "VT", "addr:street_address": "132 MAIN ST", "amenity": "post_box", "collection_times": "Mo-Fr 15:00; Sa 14:00", "note": "ON 12/24 AND 12/31, THIS BOX MAY BE COLLECTED AS EARLY AS 12 NOON.", "nsi_id": "unitedstatespostalservice-a77078", "operator": "United States Postal Service", "operator:short": "USPS", "operator:type": "public", "operator:wikidata": "Q668687", "ref": "0560200022"}, "type": "Feature"}
{"geometry": {"coordinates": [-72.57148, 44.25834], "type": "Point"}, "id": "8n-g7EBXRAibr4BbJCm6k6Tfo_U=", "properties": {"@source_uri": "https://tools.usps.com/UspsToolsRestServices/rest/POLocator/findLocations", "@spider": "usps_collection_boxes", "addr:city": "MONTPELIER", "addr:country": "US", "addr:postcode": "05602", "addr:state": "VT", "addr:street_address": "90 MAIN ST", "amenity": "post_box", "collection_times": "Mo-Fr 15:00; Sa 14:00", "note": "ON 12/24 AND 12/31, THIS BOX MAY BE COLLECTED AS EARLY AS 12 NOON.", "nsi_id": "unitedstatespostalservice-a77078", "operator": "United States Postal Service", "operator:short": "USPS", "operator:type": "public", "operator:wikidata": "Q668687", "ref": "0560200023"}, "type": "Feature"}
{"geometry": {"coordinates": [-72.57148, 44.25834], "type": "Point"}, "id": "s5SUguv2q9JCqysqj4rJqaaGUSs=", "properties": {"@source_uri": "https://tools.usps.com/UspsToolsRestServices/rest/POLocator/findLocations", "@spider": "usps_collection_boxes", "addr:city": "MONTPELIER", "addr:country": "US", "addr:postcode": "05602", "addr:state": "VT", "addr:street_address": "155 MAIN ST", "amenity": "post_box", "collection_times": "Mo-Fr 15:00; Sa 14:00", "note": "ON 12/24 AND 12/31, THIS BOX MAY BE COLLECTED AS EARLY AS 12 NOON.", "nsi_id": "unitedstatespostalservice-a77078", "operator": "United States Postal Service", "operator:short": "USPS", "operator:type": "public", "operator:wikidata": "Q668687", "ref": "0560200024"}, "type": "Feature"}
{"geometry": {"coordinates": [-72.57148, 44.25834], "type": "Point"}, "id": "6k-dEzAML119HSt9uThs773dYe0=", "properties": {"@source_uri": "https://tools.usps.com/UspsToolsRestServices/rest/POLocator/findLocations", "@spider": "usps_collection_boxes", "addr:city": "MONTPELIER", "addr:country": "US", "addr:postcode": "05602", "addr:state": "VT", "addr:street_address": "32 COLLEGE ST", "amenity": "post_box", "collection_times": "Mo-Fr 15:00; Sa 14:00", "note": "ON 12/24 AND 12/31, THIS BOX MAY BE COLLECTED AS EARLY AS 12 NOON.", "nsi_id": "unitedstatespostalservice-a77078", "operator": "United States Postal Service", "operator:short": "USPS", "operator:type": "public", "operator:wikidata": "Q668687", "ref": "0560200025"}, "type": "Feature"}
{"geometry": {"coordinates": [-72.57148, 44.25834], "type": "Point"}, "id": "tSKAbRjwq0NP8DPIEkLmnV-u8gI=", "properties": {"@source_uri": "https://tools.usps.com/UspsToolsRestServices/rest/POLocator/findLocations", "@spider": "usps_collection_boxes", "addr:city": "MONTPELIER", "addr:country": "US", "addr:postcode": "05602", "addr:state": "VT", "addr:street_address": "58 E STATE ST", "amenity": "post_box", "collection_times": "Mo-Fr 15:00; Sa 14:00", "note": "ON 12/24 AND 12/31, THIS BOX MAY BE COLLECTED AS EARLY AS 12 NOON.", "nsi_id": "unitedstatespostalservice-a77078", "operator": "United States Postal Service", "operator:short": "USPS", "operator:type": "public", "operator:wikidata": "Q668687", "ref": "0560200026"}, "type": "Feature"}
{"geometry": {"coordinates": [-72.57148, 44.25834], "type": "Point"}, "id": "mm4e2rX7HmM5dzYiVb1h2ld-670=", "properties": {"@source_uri": "https://tools.usps.com/UspsToolsRestServices/rest/POLocator/findLocations", "@spider": "usps_collection_boxes", "addr:city": "MONTPELIER", "addr:country": "US", "addr:postcode": "05602", "addr:state": "VT", "addr:street_address": "72 BARRE ST", "amenity": "post_box", "collection_times": "Mo-Fr 15:00; Sa 14:00", "note": "ON 12/24 AND 12/31, THIS BOX MAY BE COLLECTED AS EARLY AS 12 NOON.", "nsi_id": "unitedstatespostalservice-a77078", "operator": "United States Postal Service", "operator:short": "USPS", "operator:type": "public", "operator:wikidata": "Q668687", "ref": "0560200027"}, "type": "Feature"}
{"geometry": {"coordinates": [-72.57148, 44.25834], "type": "Point"}, "id": "RXR1i_t_osMvTpZtIVjZpttzh_o=", "properties": {"@source_uri": "https://tools.usps.com/UspsToolsRestServices/rest/POLocator/findLocations", "@spider": "usps_collection_boxes", "addr:city": "MONTPELIER", "addr:country": "US", "addr:postcode": "05602", "addr:state": "VT", "addr:street_address": "18 BAILEY AVE", "amenity": "post_box", "collection_times": "Mo-Sa 12:00", "nsi_id": "unitedstatespostalservice-a77078", "operator": "United States Postal Service", "operator:short": "USPS", "operator:type": "public", "operator:wikidata": "Q668687", "ref": "0560200029"}, "type": "Feature"}
{"geometry": {"coordinates": [-72.57148, 44.25834], "type": "Point"}, "id": "hLTfthRHp8-1HOw3KAA4POZTBZs=", "properties": {"@source_uri": "https://tools.usps.com/UspsToolsRestServices/rest/POLocator/findLocations", "@spider": "usps_collection_boxes", "addr:city": "MONTPELIER", "addr:country": "US", "addr:postcode": "05602", "addr:state": "VT", "addr:street_address": "282 BERLIN MALL RD", "amenity": "post_box", "collection_times": "Mo-Fr 10:00; Sa 09:30", "nsi_id": "unitedstatespostalservice-a77078", "operator": "United States Postal Service", "operator:short": "USPS", "operator:type": "public", "operator:wikidata": "Q668687", "ref": "0560200035"}, "type": "Feature"}
{"geometry": {"coordinates": [-72.57148, 44.25834], "type": "Point"}, "id": "_5m84mUt72bIuP3o9fOVitXOqWQ=", "properties": {"@source_uri": "https://tools.usps.com/UspsToolsRestServices/rest/POLocator/findLocations", "@spider": "usps_collection_boxes", "addr:city": "MONTPELIER", "addr:country": "US", "addr:postcode": "05602", "addr:state": "VT", "addr:street_address": "160 PAINE TPKE N", "amenity": "post_box", "collection_times": "Mo-Sa 10:00", "nsi_id": "unitedstatespostalservice-a77078", "operator": "United States Postal Service", "operator:short": "USPS", "operator:type": "public", "operator:wikidata": "Q668687", "ref": "0560200039"}, "type": "Feature"}
{"geometry": {"coordinates": [-72.57148, 44.25834], "type": "Point"}, "id": "P8-omaT-HoAOvc6gNyCGvrOpoJQ=", "properties": {"@source_uri": "https://tools.usps.com/UspsToolsRestServices/rest/POLocator/findLocations", "@spider": "usps_collection_boxes", "addr:city": "MONTPELIER", "addr:country": "US", "addr:postcode": "05602", "addr:state": "VT", "addr:street_address": "535 STONE CUTTERS WAY", "amenity": "post_box", "collection_times": "Mo-Fr 15:00; Sa 14:00", "note": "ON 12/24 AND 12/31, THIS BOX MAY BE COLLECTED AS EARLY AS 12 NOON.", "nsi_id": "unitedstatespostalservice-a77078", "operator": "United States Postal Service", "operator:short": "USPS", "operator:type": "public", "operator:wikidata": "Q668687", "ref": "0560200044"}, "type": "Feature"}
{"geometry": {"coordinates": [-72.57148, 44.25834], "type": "Point"}, "id": "hccG3f6Zg0dm9mgYi5fCdtPOqjk=", "properties": {"@source_uri": "https://tools.usps.com/UspsToolsRestServices/rest/POLocator/findLocations", "@spider": "usps_collection_boxes", "addr:city": "MONTPELIER", "addr:country": "US", "addr:postcode": "05602", "addr:state": "VT", "addr:street_address": "903 US ROUTE 2", "amenity": "post_box", "collection_times": "Mo-Sa 10:30", "nsi_id": "unitedstatespostalservice-a77078", "operator": "United States Postal Service", "operator:short": "USPS", "operator:type": "public", "operator:wikidata": "Q668687", "ref": "0560200045"}, "type": "Feature"}
{"geometry": {"coordinates": [-72.57148, 44.25834], "type": "Point"}, "id": "gS2YgkRscTHuidpoVnfBJjnyHhE=", "properties": {"@source_uri": "https://tools.usps.com/UspsToolsRestServices/rest/POLocator/findLocations", "@spider": "usps_collection_boxes", "addr:city": "MONTPELIER", "addr:country": "US", "addr:postcode": "05602", "addr:state": "VT", "addr:street_address": "1 BAILEY AVE", "amenity": "post_box", "collection_times": "Mo-Fr 15:00", "note": "ON 12/24 AND 12/31, THIS BOX MAY BE COLLECTED AS EARLY AS 12 NOON.", "nsi_id": "unitedstatespostalservice-a77078", "operator": "United States Postal Service", "operator:short": "USPS", "operator:type": "public", "operator:wikidata": "Q668687", "ref": "0560200046"}, "type": "Feature"}
{"geometry": {"coordinates": [-72.57148, 44.25834], "type": "Point"}, "id": "FUtquD_bCANNFg6OPk43jFpAsXg=", "properties": {"@source_uri": "https://tools.usps.com/UspsToolsRestServices/rest/POLocator/findLocations", "@spider": "usps_collection_boxes", "addr:city": "MONTPELIER", "addr:country": "US", "addr:postcode": "05602", "addr:state": "VT", "addr:street_address": "134 STATE ST", "amenity": "post_box", "collection_times": "Mo-Fr 15:00", "note": "ON 12/24 AND 12/31, THIS BOX MAY BE COLLECTED AS EARLY AS 12 NOON.", "nsi_id": "unitedstatespostalservice-a77078", "operator": "United States Postal Service", "operator:short": "USPS", "operator:type": "public", "operator:wikidata": "Q668687", "ref": "0560200047"}, "type": "Feature"}
{"geometry": {"coordinates": [-72.57148, 44.25834], "type": "Point"}, "id": "QQCu0_R4aOi4qnjSdRyaeJEeWdQ=", "properties": {"@source_uri": "https://tools.usps.com/UspsToolsRestServices/rest/POLocator/findLocations", "@spider": "usps_collection_boxes", "addr:city": "MONTPELIER", "addr:country": "US", "addr:postcode": "05602", "addr:state": "VT", "addr:street_address": "2 INDEPENDENCE GRN", "amenity": "post_box", "collection_times": "Mo-Sa 12:00", "nsi_id": "unitedstatespostalservice-a77078", "operator": "United States Postal Service", "operator:short": "USPS", "operator:type": "public", "operator:wikidata": "Q668687", "ref": "0560200048"}, "type": "Feature"}
{"geometry": {"coordinates": [-72.57148, 44.25834], "type": "Point"}, "id": "uq6D7bnRC30XJ245gUiCdSIZOU0=", "properties": {"@source_uri": "https://tools.usps.com/UspsToolsRestServices/rest/POLocator/findLocations", "@spider": "usps_collection_boxes", "addr:city": "MONTPELIER", "addr:country": "US", "addr:postcode": "05602", "addr:state": "VT", "addr:street_address": "1 FRANKLIN ST", "amenity": "post_box", "collection_times": "Mo-Sa 10:00", "nsi_id": "unitedstatespostalservice-a77078", "operator": "United States Postal Service", "operator:short": "USPS", "operator:type": "public", "operator:wikidata": "Q668687", "ref": "0560200051"}, "type": "Feature"}
{"geometry": {"coordinates": [-72.5014015, 44.196172], "type": "Point"}, "id": "oVP6wXB5BUolT7jLMvjQn5-KbzA=", "properties": {"@source_uri": "https://tools.usps.com/UspsToolsRestServices/rest/POLocator/findLocations", "@spider": "usps_collection_boxes", "addr:city": "BARRE", "addr:country": "US", "addr:postcode": "05641", "addr:state": "VT", "addr:street_address": "3 S MAIN ST", "amenity": "post_box", "collection_times": "Mo-Fr 17:00; Sa 14:30", "note": "ON 12/24 AND 12/31, THIS BOX MAY BE COLLECTED AS EARLY AS 12 NOON.", "nsi_id": "unitedstatespostalservice-a77078", "operator": "United States Postal Service", "operator:short": "USPS", "operator:type": "public", "operator:wikidata": "Q668687", "ref": "0564100002"}, "type": "Feature"}
{"geometry": {"coordinates": [-72.5054379, 44.200583], "type": "Point"}, "id": "HK4cCl_zQHQWFnPZKgavetlTLqs=", "properties": {"@source_uri": "https://tools.usps.com/UspsToolsRestServices/rest/POLocator/findLocations", "@spider": "usps_collection_boxes", "addr:city": "BARRE", "addr:country": "US", "addr:postcode": "05641", "addr:state": "VT", "addr:street_address": "315 N MAIN ST", "amenity": "post_box", "collection_times": "Mo-Sa 10:30", "nsi_id": "unitedstatespostalservice-a77078", "operator": "United States Postal Service", "operator:short": "USPS", "operator:type": "public", "operator:wikidata": "Q668687", "ref": "0564100006"}, "type": "Feature"}
{"geometry": {"coordinates": [-72.5019470195, 44.1982289889], "type": "Point"}, "id": "d_5WLZnl3o3l8vqsChCukwcStFI=", "properties": {"@source_uri": "https://tools.usps.com/UspsToolsRestServices/rest/POLocator/findLocations", "@spider": "usps_collection_boxes", "addr:city": "BARRE", "addr:country": "US", "addr:postcode": "05641", "addr:state": "VT", "addr:street_address": "105 N MAIN ST", "amenity": "post_box", "collection_times": "Mo-Sa 10:30", "nsi_id": "unitedstatespostalservice-a77078", "operator": "United States Postal Service", "operator:short": "USPS", "operator:type": "public", "operator:wikidata": "Q668687", "ref": "0564100009"}, "type": "Feature"}
{"geometry": {"coordinates": [-72.5042677, 44.19965], "type": "Point"}, "id": "uMUclKgKAz5I3Q3yfmLHf4NtwZE=", "properties": {"@source_uri": "https://tools.usps.com/UspsToolsRestServices/rest/POLocator/findLocations", "@spider": "usps_collection_boxes", "addr:city": "BARRE", "addr:country": "US", "addr:postcode": "05641", "addr:state": "VT", "addr:street_address": "255 N MAIN ST", "amenity": "post_box", "collection_times": "Mo-Sa 10:30", "nsi_id": "unitedstatespostalservice-a77078", "operator": "United States Postal Service", "operator:short": "USPS", "operator:type": "public", "operator:wikidata": "Q668687", "ref": "0564100015"}, "type": "Feature"}
{"geometry": {"coordinates": [-72.5017538, 44.202492], "type": "Point"}, "id": "oc1nwPEd__0ulhADlsD7BnShIjs=", "properties": {"@source_uri": "https://tools.usps.com/UspsToolsRestServices/rest/POLocator/findLocations", "@spider": "usps_collection_boxes", "addr:city": "BARRE", "addr:country": "US", "addr:postcode": "05641", "addr:state": "VT", "addr:street_address": "55 MERCHANT ST", "amenity": "post_box", "collection_times": "Mo-Sa 10:30", "nsi_id": "unitedstatespostalservice-a77078", "operator": "United States Postal Service", "operator:short": "USPS", "operator:type": "public", "operator:wikidata": "Q668687", "ref": "0564100021"}, "type": "Feature"}
{"geometry": {"coordinates": [-72.5060429, 44.174369], "type": "Point"}, "id": "htEZkOz-v0mGA3ecaFuyqPleRas=", "properties": {"@source_uri": "https://tools.usps.com/UspsToolsRestServices/rest/POLocator/findLocations", "@spider": "usps_collection_boxes", "addr:city": "BARRE", "addr:country": "US", "addr:postcode": "05641", "addr:state": "VT", "addr:street_address": "456 S BARRE RD", "amenity": "post_box", "collection_times": "Mo-Sa 10:30", "nsi_id": "unitedstatespostalservice-a77078", "operator": "United States Postal Service", "operator:short": "USPS", "operator:type": "public", "operator:wikidata": "Q668687", "ref": "0564100024"}, "type": "Feature"}
{"geometry": {"coordinates": [-72.4986214, 44.189667], "type": "Point"}, "id": "iJvh6bZc3nSlODksYT6MWEBq9Mc=", "properties": {"@source_uri": "https://tools.usps.com/UspsToolsRestServices/rest/POLocator/findLocations", "@spider": "usps_collection_boxes", "addr:city": "BARRE", "addr:country": "US", "addr:postcode": "05641", "addr:state": "VT", "addr:street_address": "131 S MAIN ST", "amenity": "post_box", "collection_times": "Mo-Sa 10:30", "nsi_id": "unitedstatespostalservice-a77078", "operator": "United States Postal Service", "operator:short": "USPS", "operator:type": "public", "operator:wikidata": "Q668687", "ref": "0564100026"}, "type": "Feature"}
{"geometry": {"coordinates": [-72.5005553, 44.197855], "type": "Point"}, "id": "9NYXcgHL0hdW-tUn0WdNsUwf-dE=", "properties": {"@source_uri": "https://tools.usps.com/UspsToolsRestServices/rest/POLocator/findLocations", "@spider": "usps_collection_boxes", "addr:city": "BARRE", "addr:country": "US", "addr:postcode": "05641", "addr:state": "VT", "addr:street_address": "17 JEFFERSON ST", "amenity": "post_box", "collection_times": "Mo-Sa 10:30", "nsi_id": "unitedstatespostalservice-a77078", "operator": "United States Postal Service", "operator:short": "USPS", "operator:type": "public", "operator:wikidata": "Q668687", "ref": "0564100029"}, "type": "Feature"}
{"geometry": {"coordinates": [-72.5117214, 44.206255], "type": "Point"}, "id": "GqrHruMYK3qfHb9anpCkVwR23aw=", "properties": {"@source_uri": "https://tools.usps.com/UspsToolsRestServices/rest/POLocator/findLocations", "@spider": "usps_collection_boxes", "addr:city": "BARRE", "addr:country": "US", "addr:postcode": "05641", "addr:state": "VT", "addr:street_address": "475 N MAIN ST", "amenity": "post_box", "collection_times": "Mo-Sa 09:00", "nsi_id": "unitedstatespostalservice-a77078", "operator": "United States Postal Service", "operator:short": "USPS", "operator:type": "public", "operator:wikidata": "Q668687", "ref": "0564100031"}, "type": "Feature"}
{"geometry": {"coordinates": [-72.5016279, 44.196392], "type": "Point"}, "id": "ATLWxIVyG61-TTYcpSRhzBvNSXw=", "properties": {"@source_uri": "https://tools.usps.com/UspsToolsRestServices/rest/POLocator/findLocations", "@spider": "usps_collection_boxes", "addr:city": "BARRE", "addr:country": "US", "addr:postcode": "05641", "addr:state": "VT", "addr:street_address": "3 S MAIN ST", "amenity": "post_box", "collection_times": "Mo-Fr 17:00; Sa 14:30", "indoor": "yes", "note": "ON 12/24 AND 12/31, THIS BOX MAY BE COLLECTED AS EARLY AS 12 NOON.", "nsi_id": "unitedstatespostalservice-a77078", "operator": "United States Postal Service", "operator:short": "USPS", "operator:type": "public", "operator:wikidata": "Q668687", "ref": "0564100041"}, "type": "Feature"}
{"geometry": {"coordinates": [-72.4980866, 44.19501], "type": "Point"}, "id": "ffvuP0p9oQ6nHAFOOVnjLFk7iyE=", "properties": {"@source_uri": "https://tools.usps.com/UspsToolsRestServices/rest/POLocator/findLocations", "@spider": "usps_collection_boxes", "addr:city": "BARRE", "addr:country": "US", "addr:postcode": "05641", "addr:state": "VT", "addr:street_address": "83 WASHINGTON ST", "amenity": "post_box", "collection_times": "Mo-Sa 10:30", "nsi_id": "unitedstatespostalservice-a77078", "operator": "United States Postal Service", "operator:short": "USPS", "operator:type": "public", "operator:wikidata": "Q668687", "ref": "0564100047"}, "type": "Feature"}
{"geometry": {"coordinates": [-72.501407946, 44.196509598], "type": "Point"}, "id": "1-QnK4JmESvxoou7IMHRUcFAkuI=", "properties": {"@source_uri": "https://tools.usps.com/UspsToolsRestServices/rest/POLocator/findLocations", "@spider": "usps_collection_boxes", "addr:city": "BARRE", "addr:country": "US", "addr:postcode": "05641", "addr:state": "VT", "addr:street_address": "3 S MAIN ST", "amenity": "post_box", "collection_times": "Mo-Fr 17:00; Sa 12:00", "indoor": "yes", "note": "ON 12/24 AND 12/31, THIS BOX MAY BE COLLECTED AS EARLY AS 12 NOON.", "nsi_id": "unitedstatespostalservice-a77078", "operator": "United States Postal Service", "operator:short": "USPS", "operator:type": "public", "operator:wikidata": "Q668687", "ref": "0564100051"}, "type": "Feature"}
{"geometry": {"coordinates": [-72.310525, 44.403106], "type": "Point"}, "id": "85rlJRssGq-SjFRa3lDqM_sDpjM=", "properties": {"@source_uri": "https://tools.usps.com/UspsToolsRestServices/rest/POLocator/findLocations", "@spider": "usps_collection_boxes", "addr:city": "CABOT", "addr:country": "US", "addr:postcode": "05647", "addr:state": "VT", "addr:street_address": "3123 MAIN ST", "amenity": "post_box", "collection_times": "Mo-Fr 13:45; Sa 11:00", "note": "ON 12/24 AND 12/31, THIS BOX MAY BE COLLECTED AS EARLY AS 12 NOON.", "nsi_id": "unitedstatespostalservice-a77078", "operator": "United States Postal Service", "operator:short": "USPS", "operator:type": "public", "operator:wikidata": "Q668687", "ref": "0564700000"}, "type": "Feature"}
{"geometry": {"coordinates": [-72.3096537, 44.4216941], "type": "Point"}, "id": "ZHoW5I1qX34BuDzTRkGI_xcfw7k=", "properties": {"@source_uri": "https://tools.usps.com/UspsToolsRestServices/rest/POLocator/findLocations", "@spider": "usps_collection_boxes", "addr:city": "CABOT", "addr:country": "US", "addr:postcode": "05647", "addr:state": "VT", "addr:street_address": "3123 MAIN ST", "amenity": "post_box", "collection_times": "Mo-Fr 13:45; Sa 11:00", "indoor": "yes", "note": "ON 12/24 AND 12/31, THIS BOX MAY BE COLLECTED AS EARLY AS 12 NOON.", "nsi_id": "unitedstatespostalservice-a77078", "operator": "United States Postal Service", "operator:short": "USPS", "operator:type": "public", "operator:wikidata": "Q668687", "ref": "0564700004"}, "type": "Feature"}
{"geometry": {"coordinates": [-72.3096537, 44.4216941], "type": "Point"}, "id": "OpFW6Xz-eE6I4J-E-ssb_vUwz0A=", "properties": {"@source_uri": "https://tools.usps.com/UspsToolsRestServices/rest/POLocator/findLocations", "@spider": "usps_collection_boxes", "addr:city": "CABOT", "addr:country": "US", "addr:postcode": "05647", "addr:state": "VT", "addr:street_address": "3123 MAIN ST", "amenity": "post_box", "collection_times": "Mo-Fr 13:45; Sa 11:00", "indoor": "yes", "note": "ON 12/24 AND 12/31, THIS BOX MAY BE COLLECTED AS EARLY AS 12 NOON.", "nsi_id": "unitedstatespostalservice-a77078", "operator": "United States Postal Service", "operator:short": "USPS", "operator:type": "public", "operator:wikidata": "Q668687", "ref": "0564700005"}, "type": "Feature"}
{"geometry": {"coordinates": [-72.492327, 44.3788997], "type": "Point"}, "id": "QJaUZYL6Knbk0ofssZkcnpeEgt8=", "properties": {"@source_uri": "https://tools.usps.com/UspsToolsRestServices/rest/POLocator/findLocations", "@spider": "usps_collection_boxes", "addr:city": "CALAIS", "addr:country": "US", "addr:postcode": "05648", "addr:state": "VT", "addr:street_address": "31 W COUNTY RD UNIT 2", "amenity": "post_box", "collection_times": "Mo-Fr 13:00; Sa 10:30", "note": "ON 12/24 AND 12/31, THIS BOX MAY BE COLLECTED AS EARLY AS 12 NOON.", "nsi_id": "unitedstatespostalservice-a77078", "operator": "United States Postal Service", "operator:short": "USPS", "operator:type": "public", "operator:wikidata": "Q668687", "ref": "0564800003"}, "type": "Feature"}
{"geometry": {"coordinates": [-72.492327, 44.3788997], "type": "Point"}, "id": "TKKR1Ubw0z9EOvXYEiqQf-QLLMw=", "properties": {"@source_uri": "https://tools.usps.com/UspsToolsRestServices/rest/POLocator/findLocations", "@spider": "usps_collection_boxes", "addr:city": "CALAIS", "addr:country": "US", "addr:postcode": "05648", "addr:state": "VT", "addr:street_address": "31 W COUNTY RD UNIT 2", "amenity": "post_box", "collection_times": "Mo-Fr 13:00; Sa 10:30", "indoor": "yes", "note": "ON 12/24 AND 12/31, THIS BOX MAY BE COLLECTED AS EARLY AS 12 NOON.", "nsi_id": "unitedstatespostalservice-a77078", "operator": "United States Postal Service", "operator:short": "USPS", "operator:type": "public", "operator:wikidata": "Q668687", "ref": "0564800004"}, "type": "Feature"}
{"geometry": {"coordinates": [-72.492327, 44.3788997], "type": "Point"}, "id": "v61NeyA77g4AJws6ycl3sgVDLjY=", "properties": {"@source_uri": "https://tools.usps.com/UspsToolsRestServices/rest/POLocator/findLocations", "@spider": "usps_collection_boxes", "addr:city": "CALAIS", "addr:country": "US", "addr:postcode": "05648", "addr:state": "VT", "addr:street_address": "31 W COUNTY RD UNIT 2", "amenity": "post_box", "collection_times": "Mo-Fr 13:00; Sa 10:30", "indoor": "yes", "note": "ON 12/24 AND 12/31, THIS BOX MAY BE COLLECTED AS EARLY AS 12 NOON.", "nsi_id": "unitedstatespostalservice-a77078", "operator": "United States Postal Service", "operator:short": "USPS", "operator:type": "public", "operator:wikidata": "Q668687", "ref": "0564800005"}, "type": "Feature"}
{"geometry": {"coordinates": [-72.451624, 44.158904], "type": "Point"}, "id": "kjCPTsY5jQ09HBrPT6a1eLuTptI=", "properties": {"@source_uri": "https://tools.usps.com/UspsToolsRestServices/rest/POLocator/findLocations", "@spider": "usps_collection_boxes", "addr:city": "EAST BARRE", "addr:country": "US", "addr:postcode": "05649", "addr:state": "VT", "addr:street_address": "491 WEBSTERVILLE RD", "amenity": "post_box", "collection_times": "Mo-Fr 16:30; Sa 11:15", "note": "ON 12/24 AND 12/31, THIS BOX MAY BE COLLECTED AS EARLY AS 12 NOON.", "nsi_id": "unitedstatespostalservice-a77078", "operator": "United States Postal Service", "operator:short": "USPS", "operator:type": "public", "operator:wikidata": "Q668687", "ref": "0564900000"}, "type": "Feature"}
{"geometry": {"coordinates": [-72.451726, 44.158938], "type": "Point"}, "id": "mXnJPHuzb5k2leQGhDj33cfX5s4=", "properties": {"@source_uri": "https://tools.usps.com/UspsToolsRestServices/rest/POLocator/findLocations", "@spider": "usps_collection_boxes", "addr:city": "EAST BARRE", "addr:country": "US", "addr:postcode": "05649", "addr:state": "VT", "addr:street_address": "491 WEBSTERVILLE RD", "amenity": "post_box", "collection_times": "Mo-Fr 16:30; Sa 11:15", "indoor": "yes", "note": "ON 12/24 AND 12/31, THIS BOX MAY BE COLLECTED AS EARLY AS 12 NOON.", "nsi_id": "unitedstatespostalservice-a77078", "operator": "United States Postal Service", "operator:short": "USPS", "operator:type": "public", "operator:wikidata": "Q668687", "ref": "0564900001"}, "type": "Feature"}
{"geometry": {"coordinates": [-72.451444826, 44.158746027], "type": "Point"}, "id": "Ji2uylWc4DezQ_yrJay61ik-QXM=", "properties": {"@source_uri": "https://tools.usps.com/UspsToolsRestServices/rest/POLocator/findLocations", "@spider": "usps_collection_boxes", "addr:city": "EAST BARRE", "addr:country": "US", "addr:postcode": "05649", "addr:state": "VT", "addr:street_address": "491 WEBSTERVILLE RD", "amenity": "post_box", "collection_times": "Mo-Fr 16:15; Sa 11:00", "indoor": "yes", "note": "ON 12/24 AND 12/31, THIS BOX MAY BE COLLECTED AS EARLY AS 12 NOON.", "nsi_id": "unitedstatespostalservice-a77078", "operator": "United States Postal Service", "operator:short": "USPS", "operator:type": "public", "operator:wikidata": "Q668687", "ref": "0564900003"}, "type": "Feature"}
{"geometry": {"coordinates": [-72.4299593, 44.367476], "type": "Point"}, "id": "sbQQvhbyY__bzuM84H5mNC5Xb8g=", "properties": {"@source_uri": "https://tools.usps.com/UspsToolsRestServices/rest/POLocator/findLocations", "@spider": "usps_collection_boxes", "addr:city": "EAST CALAIS", "addr:country": "US", "addr:postcode": "05650", "addr:state": "VT", "addr:street_address": "34 BATTEN RD", "amenity": "post_box", "collection_times": "Mo-Fr 14:30; Sa 10:30", "note": "ON 12/24 AND 12/31, THIS BOX MAY BE COLLECTED AS EARLY AS 12 NOON.", "nsi_id": "unitedstatespostalservice-a77078", "operator": "United States Postal Service", "operator:short": "USPS", "operator:type": "public", "operator:wikidata": "Q668687", "ref": "0565000000"}, "type": "Feature"}
{"geometry": {"coordinates": [-72.430021, 44.367771], "type": "Point"}, "id": "XtnyI9smyJLNlOjuhAKY2nnU28k=", "properties": {"@source_uri": "https://tools.usps.com/UspsToolsRestServices/rest/POLocator/findLocations", "@spider": "usps_collection_boxes", "addr:city": "EAST CALAIS", "addr:country": "US", "addr:postcode": "05650", "addr:state": "VT", "addr:street_address": "34 BATTEN RD", "amenity": "post_box", "collection_times": "Mo-Fr 14:30; Sa 10:30", "indoor": "yes", "note": "ON 12/24 AND 12/31, THIS BOX MAY BE COLLECTED AS EARLY AS 12 NOON.", "nsi_id": "unitedstatespostalservice-a77078", "operator": "United States Postal Service", "operator:short": "USPS", "operator:type": "public", "operator:wikidata": "Q668687", "ref": "0565000001"}, "type": "Feature"}
{"geometry": {"coordinates": [-72.503983, 44.330146], "type": "Point"}, "id": "RJnnEWr0MHAXaUWRP5zWU-quYgk=", "properties": {"@source_uri": "https://tools.usps.com/UspsToolsRestServices/rest/POLocator/findLocations", "@spider": "usps_collection_boxes", "addr:city": "EAST CALAIS", "addr:country": "US", "addr:postcode": "05650", "addr:state": "VT", "addr:street_address": "1313 HAGGETT RD", "amenity": "post_box", "collection_times": "Mo-Fr 16:30; Sa 10:30", "indoor": "yes", "note": "ON 12/24 AND 12/31, THIS BOX MAY BE COLLECTED AS EARLY AS 12 NOON.", "nsi_id": "unitedstatespostalservice-a77078", "operator": "United States Postal Service", "operator:short": "USPS", "operator:type": "public", "operator:wikidata": "Q668687", "ref": "0565000002"}, "type": "Feature"}
{"geometry": {"coordinates": [-72.429953603, 44.367755157], "type": "Point"}, "id": "ayPJq_Th4W5f5wIqnmlTTiUrqII=", "properties": {"@source_uri": "https://tools.usps.com/UspsToolsRestServices/rest/POLocator/findLocations", "@spider": "usps_collection_boxes", "addr:city": "EAST CALAIS", "addr:country": "US", "addr:postcode": "05650", "addr:state": "VT", "addr:street_address": "34 BATTEN RD", "amenity": "post_box", "collection_times": "Mo-Fr 14:30; Sa 10:30", "indoor": "yes", "note": "ON 12/24 AND 12/31, THIS BOX MAY BE COLLECTED AS EARLY AS 12 NOON.", "nsi_id": "unitedstatespostalservice-a77078", "operator": "United States Postal Service", "operator:short": "USPS", "operator:type": "public", "operator:wikidata": "Q668687", "ref": "0565000004"}, "type": "Feature"}
{"geometry": {"coordinates": [-72.4874408, 44.270435], "type": "Point"}, "id": "-bKd6nDM_cDUzDRzRc6aYDfzEgw=", "properties": {"@source_uri": "https://tools.usps.com/UspsToolsRestServices/rest/POLocator/findLocations", "@spider": "usps_collection_boxes", "addr:city": "EAST MONTPELIER", "addr:country": "US", "addr:postcode": "05651", "addr:state": "VT", "addr:street_address": "2893 US ROUTE 2", "amenity": "post_box", "collection_times": "Mo-Fr 16:45; Sa 10:30", "note": "ON 12/24 AND 12/31, THIS BOX MAY BE COLLECTED AS EARLY AS 12 NOON.", "nsi_id": "unitedstatespostalservice-a77078", "operator": "United States Postal Service", "operator:short": "USPS", "operator:type": "public", "operator:wikidata": "Q668687", "ref": "0565100000"}, "type": "Feature"}
{"geometry": {"coordinates": [-72.4875271, 44.27042], "type": "Point"}, "id": "Nan-e8v9LqeFc9k4FU4boGOnukM=", "properties": {"@source_uri": "https://tools.usps.com/UspsToolsRestServices/rest/POLocator/findLocations", "@spider": "usps_collection_boxes", "addr:city": "EAST MONTPELIER", "addr:country": "US", "addr:postcode": "05651", "addr:state": "VT", "addr:street_address": "2893 US ROUTE 2", "amenity": "post_box", "collection_times": "Mo-Fr 16:45; Sa 10:30", "indoor": "yes", "note": "ON 12/24 AND 12/31, THIS BOX MAY BE COLLECTED AS EARLY AS 12 NOON.", "nsi_id": "unitedstatespostalservice-a77078", "operator": "United States Postal Service", "operator:short": "USPS", "operator:type": "public", "operator:wikidata": "Q668687", "ref": "0565100001"}, "type": "Feature"}
{"geometry": {"coordinates": [-72.487348758, 44.270348102], "type": "Point"}, "id": "8Lxbt7bF3U3GAAAbYhHKMZgYRiY=", "properties": {"@source_uri": "https://tools.usps.com/UspsToolsRestServices/rest/POLocator/findLocations", "@spider": "usps_collection_boxes", "addr:city": "EAST MONTPELIER", "addr:country": "US", "addr:postcode": "05651", "addr:state": "VT", "addr:street_address": "2893 US ROUTE 2", "amenity": "post_box", "collection_times": "Mo-Fr 16:30; Sa 10:30", "indoor": "yes", "note": "ON 12/24 AND 12/31, THIS BOX MAY BE COLLECTED AS EARLY AS 12 NOON.", "nsi_id": "unitedstatespostalservice-a77078", "operator": "United States Postal Service", "operator:short": "USPS", "operator:type": "public", "operator:wikidata": "Q668687", "ref": "0565100004"}, "type": "Feature"}
{"geometry": {"coordinates": [-72.562752, 44.701931], "type": "Point"}, "id": "yAzbCYCwyHN6W0quVCPpvhgJD7Q=", "properties": {"@source_uri": "https://tools.usps.com/UspsToolsRestServices/rest/POLocator/findLocations", "@spider": "usps_collection_boxes", "addr:city": "EDEN", "addr:country": "US", "addr:postcode": "05652", "addr:state": "VT", "addr:street_address": "29 NANCY LN", "amenity": "post_box", "collection_times": "Mo-Fr 15:00; Sa 11:00", "note": "ON 12/24 AND 12/31, THIS BOX MAY BE COLLECTED AS EARLY AS 12 NOON.", "nsi_id": "unitedstatespostalservice-a77078", "operator": "United States Postal Service", "operator:short": "USPS", "operator:type": "public", "operator:wikidata": "Q668687", "ref": "0565200000"}, "type": "Feature"}
{"geometry": {"coordinates": [-72.562762, 44.702], "type": "Point"}, "id": "Ss_2Qfrxw-TkVZOihzqZJmE9zEM=", "properties": {"@source_uri": "https://tools.usps.com/UspsToolsRestServices/rest/POLocator/findLocations", "@spider": "usps_collection_boxes", "addr:city": "EDEN", "addr:country": "US", "addr:postcode": "05652", "addr:state": "VT", "addr:street_address": "29 NANCY LN", "amenity": "post_box", "collection_times": "Mo-Fr 15:00; Sa 11:00", "indoor": "yes", "note": "ON 12/24 AND 12/31, THIS BOX MAY BE COLLECTED AS EARLY AS 12 NOON.", "nsi_id": "unitedstatespostalservice-a77078", "operator": "United States Postal Service", "operator:short": "USPS", "operator:type": "public", "operator:wikidata": "Q668687", "ref": "0565200001"}, "type": "Feature"}
{"geometry": {"coordinates": [-72.562689238, 44.701992817], "type": "Point"}, "id": "QQuBWat6lwHDOFIx1X8drnhe8jI=", "properties": {"@source_uri": "https://tools.usps.com/UspsToolsRestServices/rest/POLocator/findLocations", "@spider": "usps_collection_boxes", "addr:city": "EDEN", "addr:country": "US", "addr:postcode": "05652", "addr:state": "VT", "addr:street_address": "29 NANCY LN", "amenity": "post_box", "collection_times": "Mo-Fr 15:00; Sa 11:00", "indoor": "yes", "note": "ON 12/24 AND 12/31, THIS BOX MAY BE COLLECTED AS EARLY AS 12 NOON.", "nsi_id": "unitedstatespostalservice-a77078", "operator": "United States Postal Service", "operator:short": "USPS", "operator:type": "public", "operator:wikidata": "Q668687", "ref": "0565200004"}, "type": "Feature"}
{"geometry": {"coordinates": [-72.491309, 44.151195], "type": "Point"}, "id": "_addiYMQbZdS8NjV1uEA2-xqiko=", "properties": {"@source_uri": "https://tools.usps.com/UspsToolsRestServices/rest/POLocator/findLocations", "@spider": "usps_collection_boxes", "addr:city": "GRANITEVILLE", "addr:country": "US", "addr:postcode": "05654", "addr:state": "VT", "addr:street_address": "623 GRANITEVILLE RD", "amenity": "post_box", "collection_times": "Mo-Fr 14:00; Sa 10:00", "note": "ON 12/24 AND 12/31, THIS BOX MAY BE COLLECTED AS EARLY AS 12 NOON.", "nsi_id": "unitedstatespostalservice-a77078", "operator": "United States Postal Service", "operator:short": "USPS", "operator:type": "public", "operator:wikidata": "Q668687", "ref": "0565400000"}, "type": "Feature"}
{"geometry": {"coordinates": [-72.491256, 44.151209], "type": "Point"}, "id": "q1JDU2r2NkxSQva__U9MtL4kaB4=", "properties": {"@source_uri": "https://tools.usps.com/UspsToolsRestServices/rest/POLocator/findLocations", "@spider": "usps_collection_boxes", "addr:city": "GRANITEVILLE", "addr:country": "US", "addr:postcode": "05654", "addr:state": "VT", "addr:street_address": "623 GRANITEVILLE RD", "amenity": "post_box", "collection_times": "Mo-Fr 14:00; Sa 10:00", "indoor": "yes", "note": "ON 12/24 AND 12/31, THIS BOX MAY BE COLLECTED AS EARLY AS 12 NOON.", "nsi_id": "unitedstatespostalservice-a77078", "operator": "United States Postal Service", "operator:short": "USPS", "operator:type": "public", "operator:wikidata": "Q668687", "ref": "0565400001"}, "type": "Feature"}
{"geometry": {"coordinates": [-72.491602233, 44.151277181], "type": "Point"}, "id": "iBXiUkwNI0wYmL0FSTw85VKdFEg=", "properties": {"@source_uri": "https://tools.usps.com/UspsToolsRestServices/rest/POLocator/findLocations", "@spider": "usps_collection_boxes", "addr:city": "GRANITEVILLE", "addr:country": "US", "addr:postcode": "05654", "addr:state": "VT", "addr:street_address": "623 GRANITEVILLE RD", "amenity": "post_box", "collection_times": "Mo-Fr 14:00; Sa 10:00", "indoor": "yes", "note": "ON 12/24 AND 12/31, THIS BOX MAY BE COLLECTED AS EARLY AS 12 NOON.", "nsi_id": "unitedstatespostalservice-a77078", "operator": "United States Postal Service", "operator:short": "USPS", "operator:type": "public", "operator:wikidata": "Q668687", "ref": "0565400003"}, "type": "Feature"}
{"geometry": {"coordinates": [-72.616279, 44.594471], "type": "Point"}, "id": "eShxr9psXBaMd0s7xJvMhWvcj0c=", "properties": {"@source_uri": "https://tools.usps.com/UspsToolsRestServices/rest/POLocator/findLocations", "@spider": "usps_collection_boxes", "addr:city": "HYDE PARK", "addr:country": "US", "addr:postcode": "05655", "addr:state": "VT", "addr:street_address": "214 CHURCH ST", "amenity": "post_box", "collection_times": "Mo-Fr 16:45; Sa 11:00", "note": "ON 12/24 AND 12/31, THIS BOX MAY BE COLLECTED AS EARLY AS 12 NOON.", "nsi_id": "unitedstatespostalservice-a77078", "operator": "United States Postal Service", "operator:short": "USPS", "operator:type": "public", "operator:wikidata": "Q668687", "ref": "0565500001"}, "type": "Feature"}
{"geometry": {"coordinates": [-72.616279, 44.594471], "type": "Point"}, "id": "Su4vQYqvBeMxAkftS2a9uPLtnR4=", "properties": {"@source_uri": "https://tools.usps.com/UspsToolsRestServices/rest/POLocator/findLocations", "@spider": "usps_collection_boxes", "addr:city": "HYDE PARK", "addr:country": "US", "addr:postcode": "05655", "addr:state": "VT", "addr:street_address": "214 CHURCH ST", "amenity": "post_box", "collection_times": "Mo-Fr 16:45; Sa 11:00", "indoor": "yes", "note": "ON 12/24 AND 12/31, THIS BOX MAY BE COLLECTED AS EARLY AS 12 NOON.", "nsi_id": "unitedstatespostalservice-a77078", "operator": "United States Postal Service", "operator:short": "USPS", "operator:type": "public", "operator:wikidata": "Q668687", "ref": "0565500002"}, "type": "Feature"}
{"geometry": {"coordinates": [-72.616540015, 44.594151275], "type": "Point"}, "id": "_sWkvO8GrogEyvjsCNXN3zKYlB0=", "properties": {"@source_uri": "https://tools.usps.com/UspsToolsRestServices/rest/POLocator/findLocations", "@spider": "usps_collection_boxes", "addr:city": "HYDE PARK", "addr:country": "US", "addr:postcode": "05655", "addr:state": "VT", "addr:street_address": "214 CHURCH ST", "amenity": "post_box", "collection_times": "Mo-Fr 17:00; Sa 11:00", "indoor": "yes", "note": "ON 12/24 AND 12/31, THIS BOX MAY BE COLLECTED AS EARLY AS 12 NOON.", "nsi_id": "unitedstatespostalservice-a77078", "operator": "United States Postal Service", "operator:short": "USPS", "operator:type": "public", "operator:wikidata": "Q668687", "ref": "0565500004"}, "type": "Feature"}
{"geometry": {"coordinates": [-72.6767908, 44.6342638], "type": "Point"}, "id": "-OptboRCZ3GEYDYDnlk7K3oiWjc=", "properties": {"@source_uri": "https://tools.usps.com/UspsToolsRestServices/rest/POLocator/findLocations", "@spider": "usps_collection_boxes", "addr:city": "JOHNSON", "addr:country": "US", "addr:postcode": "05656", "addr:state": "VT", "addr:street_address": "115 LOWER MAIN ST W", "amenity": "post_box", "collection_times": "Mo-Fr 16:30; Sa 11:30", "indoor": "yes", "note": "ON 12/24 AND 12/31, THIS BOX MAY BE COLLECTED AS EARLY AS 12 NOON.", "nsi_id": "unitedstatespostalservice-a77078", "operator": "United States Postal Service", "operator:short": "USPS", "operator:type": "public", "operator:wikidata": "Q668687", "ref": "0565600000"}, "type": "Feature"}
{"geometry": {"coordinates": [-72.6767908, 44.6342638], "type": "Point"}, "id": "ZoZpU-c0wscYzF38QI3xzrtoeqg=", "properties": {"@source_uri": "https://tools.usps.com/UspsToolsRestServices/rest/POLocator/findLocations", "@spider": "usps_collection_boxes", "addr:city": "JOHNSON", "addr:country": "US", "addr:postcode": "05656", "addr:state": "VT", "addr:street_address": "115 LOWER MAIN ST W", "amenity": "post_box", "collection_times": "Mo-Fr 16:30; Sa 11:30", "note": "ON 12/24 AND 12/31, THIS BOX MAY BE COLLECTED AS EARLY AS 12 NOON.", "nsi_id": "unitedstatespostalservice-a77078", "operator": "United States Postal Service", "operator:short": "USPS", "operator:type": "public", "operator:wikidata": "Q668687", "ref": "0565600003"}, "type": "Feature"}
{"geometry": {"coordinates": [-72.6767908, 44.6342638], "type": "Point"}, "id": "HxSod7nwqxK_y9kXs_XrOw_rZtw=", "properties": {"@source_uri": "https://tools.usps.com/UspsToolsRestServices/rest/POLocator/findLocations", "@spider": "usps_collection_boxes", "addr:city": "JOHNSON", "addr:country": "US", "addr:postcode": "05656", "addr:state": "VT", "addr:street_address": "115 LOWER MAIN ST W", "amenity": "post_box", "collection_times": "Mo-Fr 16:30; Sa 11:30", "indoor": "yes", "note": "ON 12/24 AND 12/31, THIS BOX MAY BE COLLECTED AS EARLY AS 12 NOON.", "nsi_id": "unitedstatespostalservice-a77078", "operator": "United States Postal Service", "operator:short": "USPS", "operator:type": "public", "operator:wikidata": "Q668687", "ref": "0565600004"}, "type": "Feature"}
{"geometry": {"coordinates": [-72.347776, 44.351773], "type": "Point"}, "id": "XpGY5ClAU_LY1_33Vk0uMdu7ZwA=", "properties": {"@source_uri": "https://tools.usps.com/UspsToolsRestServices/rest/POLocator/findLocations", "@spider": "usps_collection_boxes", "addr:city": "MARSHFIELD", "addr:country": "US", "addr:postcode": "05658", "addr:state": "VT", "addr:street_address": "1401 US ROUTE 2", "amenity": "post_box", "collection_times": "Mo-Fr 14:00; Sa 10:00", "note": "ON 12/24 AND 12/31, THIS BOX MAY BE COLLECTED AS EARLY AS 12 NOON.", "nsi_id": "unitedstatespostalservice-a77078", "operator": "United States Postal Service", "operator:short": "USPS", "operator:type": "public", "operator:wikidata": "Q668687", "ref": "0565800000"}, "type": "Feature"}
{"geometry": {"coordinates": [-72.347792, 44.351799], "type": "Point"}, "id": "_lgh6-93UIzZ0MLVS4K8fl2VZL0=", "properties": {"@source_uri": "https://tools.usps.com/UspsToolsRestServices/rest/POLocator/findLocations", "@spider": "usps_collection_boxes", "addr:city": "MARSHFIELD", "addr:country": "US", "addr:postcode": "05658", "addr:state": "VT", "addr:street_address": "1401 US ROUTE 2", "amenity": "post_box", "collection_times": "Mo-Fr 14:00; Sa 10:00", "indoor": "yes", "note": "ON 12/24 AND 12/31, THIS BOX MAY BE COLLECTED AS EARLY AS 12 NOON.", "nsi_id": "unitedstatespostalservice-a77078", "operator": "United States Postal Service", "operator:short": "USPS", "operator:type": "public", "operator:wikidata": "Q668687", "ref": "0565800001"}, "type": "Feature"}
{"geometry": {"coordinates": [-72.347610463, 44.351778554], "type": "Point"}, "id": "CTPGylGvGFVaGS7opXpwnU-pSDQ=", "properties": {"@source_uri": "https://tools.usps.com/UspsToolsRestServices/rest/POLocator/findLocations", "@spider": "usps_collection_boxes", "addr:city": "MARSHFIELD", "addr:country": "US", "addr:postcode": "05658", "addr:state": "VT", "addr:street_address": "1401 US ROUTE 2", "amenity": "post_box", "collection_times": "Mo-Fr 14:00; Sa 10:00", "indoor": "yes", "note": "ON 12/24 AND 12/31, THIS BOX MAY BE COLLECTED AS EARLY AS 12 NOON.", "nsi_id": "unitedstatespostalservice-a77078", "operator": "United States Postal Service", "operator:short": "USPS", "operator:type": "public", "operator:wikidata": "Q668687", "ref": "0565800002"}, "type": "Feature"}
{"geometry": {"coordinates": [-72.761502, 44.249919], "type": "Point"}, "id": "yY5gToljA6bZ_5U7r5OOrQc8Xy0=", "properties": {"@source_uri": "https://tools.usps.com/UspsToolsRestServices/rest/POLocator/findLocations", "@spider": "usps_collection_boxes", "addr:city": "MORETOWN", "addr:country": "US", "addr:postcode": "05660", "addr:state": "VT", "addr:street_address": "1115 ROUTE 100 B", "amenity": "post_box", "collection_times": "Mo-Fr 16:45; Sa 11:00", "note": "ON 12/24 AND 12/31, THIS BOX MAY BE COLLECTED AS EARLY AS 12 NOON.", "nsi_id": "unitedstatespostalservice-a77078", "operator": "United States Postal Service", "operator:short": "USPS", "operator:type": "public", "operator:wikidata": "Q668687", "ref": "0566000000"}, "type": "Feature"}
{"geometry": {"coordinates": [-72.761467, 44.249875], "type": "Point"}, "id": "-PYPUUcP6zLANM9N-qLl6D2fQBQ=", "properties": {"@source_uri": "https://tools.usps.com/UspsToolsRestServices/rest/POLocator/findLocations", "@spider": "usps_collection_boxes", "addr:city": "MORETOWN", "addr:country": "US", "addr:postcode": "05660", "addr:state": "VT", "addr:street_address": "1115 ROUTE 100 B", "amenity": "post_box", "collection_times": "Mo-Fr 16:45; Sa 11:00", "indoor": "yes", "note": "ON 12/24 AND 12/31, THIS BOX MAY BE COLLECTED AS EARLY AS 12 NOON.", "nsi_id": "unitedstatespostalservice-a77078", "operator": "United States Postal Service", "operator:short": "USPS", "operator:type": "public", "operator:wikidata": "Q668687", "ref": "0566000001"}, "type": "Feature"}
{"geometry": {"coordinates": [-72.761500036, 44.250040488], "type": "Point"}, "id": "55RRoPsncrba6ImN9NB_1pqOHdA=", "properties": {"@source_uri": "https://tools.usps.com/UspsToolsRestServices/rest/POLocator/findLocations", "@spider": "usps_collection_boxes", "addr:city": "MORETOWN", "addr:country": "US", "addr:postcode": "05660", "addr:state": "VT", "addr:street_address": "1115 ROUTE 100 B", "amenity": "post_box", "collection_times": "Mo-Fr 16:30; Sa 11:00", "indoor": "yes", "note": "ON 12/24 AND 12/31, THIS BOX MAY BE COLLECTED AS EARLY AS 12 NOON.", "nsi_id": "unitedstatespostalservice-a77078", "operator": "United States Postal Service", "operator:short": "USPS", "operator:type": "public", "operator:wikidata": "Q668687", "ref": "0566000003"}, "type": "Feature"}
{"geometry": {"coordinates": [-72.598385, 44.561938], "type": "Point"}, "id": "3e2xwtGEvmRB-qvyCQXaA36-240=", "properties": {"@source_uri": "https://tools.usps.com/UspsToolsRestServices/rest/POLocator/findLocations", "@spider": "usps_collection_boxes", "addr:city": "MORRISVILLE", "addr:country": "US", "addr:postcode": "05661", "addr:state": "VT", "addr:street_address": "16 PORTLAND ST", "amenity": "post_box", "collection_times": "Mo-Fr 16:45; Sa 12:30", "note": "ON 12/24 AND 12/31, THIS BOX MAY BE COLLECTED AS EARLY AS 12 NOON.", "nsi_id": "unitedstatespostalservice-a77078", "operator": "United States Postal Service", "operator:short": "USPS", "operator:type": "public", "operator:wikidata": "Q668687", "ref": "0566100001"}, "type": "Feature"}
{"geometry": {"coordinates": [-72.5898042, 44.572699], "type": "Point"}, "id": "359W73VLg_M51z3htkIY_yaFZSk=", "properties": {"@source_uri": "https://tools.usps.com/UspsToolsRestServices/rest/POLocator/findLocations", "@spider": "usps_collection_boxes", "addr:city": "MORRISVILLE", "addr:country": "US", "addr:postcode": "05661", "addr:state": "VT", "addr:street_address": "370 MUNSON AVE", "amenity": "post_box", "collection_times": "Mo-Sa 11:30", "nsi_id": "unitedstatespostalservice-a77078", "operator": "United States Postal Service", "operator:short": "USPS", "operator:type": "public", "operator:wikidata": "Q668687", "ref": "0566100005"}, "type": "Feature"}
{"geometry": {"coordinates": [-72.6011310018, 44.5612700025], "type": "Point"}, "id": "43W9ezKpojnztFc73BmqrdGtylE=", "properties": {"@source_uri": "https://tools.usps.com/UspsToolsRestServices/rest/POLocator/findLocations", "@spider": "usps_collection_boxes", "addr:city": "MORRISVILLE", "addr:country": "US", "addr:postcode": "05661", "addr:state": "VT", "addr:street_address": "122 LOWER MAIN ST", "amenity": "post_box", "collection_times": "Mo-Sa 12:00", "nsi_id": "unitedstatespostalservice-a77078", "operator": "United States Postal Service", "operator:short": "USPS", "operator:type": "public", "operator:wikidata": "Q668687", "ref": "0566100008"}, "type": "Feature"}
{"geometry": {"coordinates": [-72.5946343, 44.571226], "type": "Point"}, "id": "6Bjwy9HCbBPXYT_XRur-b-bRdYY=", "properties": {"@source_uri": "https://tools.usps.com/UspsToolsRestServices/rest/POLocator/findLocations", "@spider": "usps_collection_boxes", "addr:city": "MORRISVILLE", "addr:country": "US", "addr:postcode": "05661", "addr:state": "VT", "addr:street_address": "65 NORTHGATE PLZ", "amenity": "post_box", "collection_times": "Mo-Sa 09:30", "nsi_id": "unitedstatespostalservice-a77078", "operator": "United States Postal Service", "operator:short": "USPS", "operator:type": "public", "operator:wikidata": "Q668687", "ref": "0566100011"}, "type": "Feature"}
{"geometry": {"coordinates": [-72.598414, 44.56189], "type": "Point"}, "id": "KEC6toohPtGh4YNO7sNxDU1O7co=", "properties": {"@source_uri": "https://tools.usps.com/UspsToolsRestServices/rest/POLocator/findLocations", "@spider": "usps_collection_boxes", "addr:city": "MORRISVILLE", "addr:country": "US", "addr:postcode": "05661", "addr:state": "VT", "addr:street_address": "16 PORTLAND ST", "amenity": "post_box", "collection_times": "Mo-Fr 16:45; Sa 12:30", "indoor": "yes", "note": "ON 12/24 AND 12/31, THIS BOX MAY BE COLLECTED AS EARLY AS 12 NOON.", "nsi_id": "unitedstatespostalservice-a77078", "operator": "United States Postal Service", "operator:short": "USPS", "operator:type": "public", "operator:wikidata": "Q668687", "ref": "0566100013"}, "type": "Feature"}
{"geometry": {"coordinates": [-72.598403642, 44.562025917], "type": "Point"}, "id": "i5cJAWphRL7bEKEo8BsT0Guc6sE=", "properties": {"@source_uri": "https://tools.usps.com/UspsToolsRestServices/rest/POLocator/findLocations", "@spider": "usps_collection_boxes", "addr:city": "MORRISVILLE", "addr:country": "US", "addr:postcode": "05661", "addr:state": "VT", "addr:street_address": "16 PORTLAND ST", "amenity": "post_box", "collection_times": "Mo-Fr 16:30; Sa 12:30", "indoor": "yes", "note": "ON 12/24 AND 12/31, THIS BOX MAY BE COLLECTED AS EARLY AS 12 NOON.", "nsi_id": "unitedstatespostalservice-a77078", "operator": "United States Postal Service", "operator:short": "USPS", "operator:type": "public", "operator:wikidata": "Q668687", "ref": "0566100016"}, "type": "Feature"}
{"geometry": {"coordinates": [-72.6621447, 44.147634], "type": "Point"}, "id": "78m6KyEN5h9vnED9ZCsORt3CexI=", "properties": {"@source_uri": "https://tools.usps.com/UspsToolsRestServices/rest/POLocator/findLocations", "@spider": "usps_collection_boxes", "addr:city": "NORTHFIELD", "addr:country": "US", "addr:postcode": "05663", "addr:state": "VT", "addr:street_address": "412 WATER ST", "amenity": "post_box", "collection_times": "Mo-Sa 09:00", "nsi_id": "unitedstatespostalservice-a77078", "operator": "United States Postal Service", "operator:short": "USPS", "operator:type": "public", "operator:wikidata": "Q668687", "ref": "0566300000"}, "type": "Feature"}
{"geometry": {"coordinates": [-72.65624, 44.1471], "type": "Point"}, "id": "kUMtscsEiGYfH8nsbgDqJbhgtxE=", "properties": {"@source_uri": "https://tools.usps.com/UspsToolsRestServices/rest/POLocator/findLocations", "@spider": "usps_collection_boxes", "addr:city": "NORTHFIELD", "addr:country": "US", "addr:postcode": "05663", "addr:state": "VT", "addr:street_address": "119 S MAIN ST", "amenity": "post_box", "collection_times": "Mo-Fr 16:45; Sa 13:30", "note": "ON 12/24 AND 12/31, THIS BOX MAY BE COLLECTED AS EARLY AS 12 NOON.", "nsi_id": "unitedstatespostalservice-a77078", "operator": "United States Postal Service", "operator:short": "USPS", "operator:type": "public", "operator:wikidata": "Q668687", "ref": "0566300001"}, "type": "Feature"}
{"geometry": {"coordinates": [-72.6589287, 44.152328], "type": "Point"}, "id": "mmlXGUIkfyObmiE-ZWDJUS0A8j4=", "properties": {"@source_uri": "https://tools.usps.com/UspsToolsRestServices/rest/POLocator/findLocations", "@spider": "usps_collection_boxes", "addr:city": "NORTHFIELD", "addr:country": "US", "addr:postcode": "05663", "addr:state": "VT", "addr:street_address": "182 VINE ST", "amenity": "post_box", "collection_times": "Mo-Sa 10:45", "nsi_id": "unitedstatespostalservice-a77078", "operator": "United States Postal Service", "operator:short": "USPS", "operator:type": "public", "operator:wikidata": "Q668687", "ref": "0566300006"}, "type": "Feature"}
{"geometry": {"coordinates": [-72.6620311, 44.153006], "type": "Point"}, "id": "UIEJ0UWaJw0nLugEx0EEtEwAS_s=", "properties": {"@source_uri": "https://tools.usps.com/UspsToolsRestServices/rest/POLocator/findLocations", "@spider": "usps_collection_boxes", "addr:city": "NORTHFIELD", "addr:country": "US", "addr:postcode": "05663", "addr:state": "VT", "addr:street_address": "119 CROSS ST", "amenity": "post_box", "collection_times": "Mo-Sa 10:00", "nsi_id": "unitedstatespostalservice-a77078", "operator": "United States Postal Service", "operator:short": "USPS", "operator:type": "public", "operator:wikidata": "Q668687", "ref": "0566300007"}, "type": "Feature"}
{"geometry": {"coordinates": [-72.6576795, 44.14085], "type": "Point"}, "id": "gM0WDqz79-ciV6G988iag_k1ErE=", "properties": {"@source_uri": "https://tools.usps.com/UspsToolsRestServices/rest/POLocator/findLocations", "@spider": "usps_collection_boxes", "addr:city": "NORTHFIELD", "addr:country": "US", "addr:postcode": "05663", "addr:state": "VT", "addr:street_address": "158 HARMON DR", "amenity": "post_box", "collection_times": "Mo-Sa 11:00", "nsi_id": "unitedstatespostalservice-a77078", "operator": "United States Postal Service", "operator:short": "USPS", "operator:type": "public", "operator:wikidata": "Q668687", "ref": "0566300008"}, "type": "Feature"}
{"geometry": {"coordinates": [-72.6553011, 44.158947], "type": "Point"}, "id": "fkik9RTCX0Sw5HBj3HznnTDzvmU=", "properties": {"@source_uri": "https://tools.usps.com/UspsToolsRestServices/rest/POLocator/findLocations", "@spider": "usps_collection_boxes", "addr:city": "NORTHFIELD", "addr:country": "US", "addr:postcode": "05663", "addr:state": "VT", "addr:street_address": "150 DOGWOOD GLEN DR", "amenity": "post_box", "collection_times": "Mo-Sa 11:15", "nsi_id": "unitedstatespostalservice-a77078", "operator": "United States Postal Service", "operator:short": "USPS", "operator:type": "public", "operator:wikidata": "Q668687", "ref": "0566300010"}, "type": "Feature"}
{"geometry": {"coordinates": [-72.6554817, 44.161596], "type": "Point"}, "id": "yiAW06nQL75I6viTfdaMbcGEcFc=", "properties": {"@source_uri": "https://tools.usps.com/UspsToolsRestServices/rest/POLocator/findLocations", "@spider": "usps_collection_boxes", "addr:city": "NORTHFIELD", "addr:country": "US", "addr:postcode": "05663", "addr:state": "VT", "addr:street_address": "63 PLAZA DR", "amenity": "post_box", "collection_times": "Mo-Sa 11:30", "nsi_id": "unitedstatespostalservice-a77078", "operator": "United States Postal Service", "operator:short": "USPS", "operator:type": "public", "operator:wikidata": "Q668687", "ref": "0566300011"}, "type": "Feature"}
{"geometry": {"coordinates": [-72.6568626, 44.14886], "type": "Point"}, "id": "6rCp63Uy-hqyY_fOzjWgCp7SlWI=", "properties": {"@source_uri": "https://tools.usps.com/UspsToolsRestServices/rest/POLocator/findLocations", "@spider": "usps_collection_boxes", "addr:city": "NORTHFIELD", "addr:country": "US", "addr:postcode": "05663", "addr:state": "VT", "addr:street_address": "40 DEPOT SQ", "amenity": "post_box", "collection_times": "Mo-Fr 14:00; Sa 13:00", "note": "ON 12/24 AND 12/31, THIS BOX MAY BE COLLECTED AS EARLY AS 12 NOON.", "nsi_id": "unitedstatespostalservice-a77078", "operator": "United States Postal Service", "operator:short": "USPS", "operator:type": "public", "operator:wikidata": "Q668687", "ref": "0566300012"}, "type": "Feature"}
{"geometry": {"coordinates": [-72.6561116, 44.148423], "type": "Point"}, "id": "xpXSvcriUuPDP9vJeXzgm2izZXg=", "properties": {"@source_uri": "https://tools.usps.com/UspsToolsRestServices/rest/POLocator/findLocations", "@spider": "usps_collection_boxes", "addr:city": "NORTHFIELD", "addr:country": "US", "addr:postcode": "05663", "addr:state": "VT", "addr:street_address": "33 S MAIN ST", "amenity": "post_box", "collection_times": "Mo-Fr 14:00; Sa 13:00", "note": "ON 12/24 AND 12/31, THIS BOX MAY BE COLLECTED AS EARLY AS 12 NOON.", "nsi_id": "unitedstatespostalservice-a77078", "operator": "United States Postal Service", "operator:short": "USPS", "operator:type": "public", "operator:wikidata": "Q668687", "ref": "0566300013"}, "type": "Feature"}
{"geometry": {"coordinates": [-72.65624, 44.1471], "type": "Point"}, "id": "rR106dPIB-ifk52kaO4d42t3Oko=", "properties": {"@source_uri": "https://tools.usps.com/UspsToolsRestServices/rest/POLocator/findLocations", "@spider": "usps_collection_boxes", "addr:city": "NORTHFIELD", "addr:country": "US", "addr:postcode": "05663", "addr:state": "VT", "addr:street_address": "119 S MAIN ST", "amenity": "post_box", "collection_times": "Mo-Fr 16:45; Sa 13:30", "indoor": "yes", "note": "ON 12/24 AND 12/31, THIS BOX MAY BE COLLECTED AS EARLY AS 12 NOON.", "nsi_id": "unitedstatespostalservice-a77078", "operator": "United States Postal Service", "operator:short": "USPS", "operator:type": "public", "operator:wikidata": "Q668687", "ref": "0566300015"}, "type": "Feature"}
{"geometry": {"coordinates": [-72.656325724, 44.147106555], "type": "Point"}, "id": "1EDmqLsV_F6PTpgMouECMsUOHlc=", "properties": {"@source_uri": "https://tools.usps.com/UspsToolsRestServices/rest/POLocator/findLocations", "@spider": "usps_collection_boxes", "addr:city": "NORTHFIELD", "addr:country": "US", "addr:postcode": "05663", "addr:state": "VT", "addr:street_address": "119 S MAIN ST STE 1", "amenity": "post_box", "collection_times": "Mo-Fr 16:30; Sa 12:00", "indoor": "yes", "note": "ON 12/24 AND 12/31, THIS BOX MAY BE COLLECTED AS EARLY AS 12 NOON.", "nsi_id": "unitedstatespostalservice-a77078", "operator": "United States Postal Service", "operator:short": "USPS", "operator:type": "public", "operator:wikidata": "Q668687", "ref": "0566300017"}, "type": "Feature"}
{"geometry": {"coordinates": [-72.649617, 44.171743], "type": "Point"}, "id": "3b-Z30sJqVwa6SwkEeiqjhFe6bM=", "properties": {"@source_uri": "https://tools.usps.com/UspsToolsRestServices/rest/POLocator/findLocations", "@spider": "usps_collection_boxes", "addr:city": "NORTHFIELD FL", "addr:country": "US", "addr:postcode": "05664", "addr:state": "VT", "addr:street_address": "51 GOULD RD", "amenity": "post_box", "collection_times": "Mo-Fr 16:30; Sa 10:45", "note": "ON 12/24 AND 12/31, THIS BOX MAY BE COLLECTED AS EARLY AS 12 NOON.", "nsi_id": "unitedstatespostalservice-a77078", "operator": "United States Postal Service", "operator:short": "USPS", "operator:type": "public", "operator:wikidata": "Q668687", "ref": "0566400000"}, "type": "Feature"}
{"geometry": {"coordinates": [-72.649645, 44.171722], "type": "Point"}, "id": "J4ADj3s2S4jViVtv6pJkH69pzXY=", "properties": {"@source_uri": "https://tools.usps.com/UspsToolsRestServices/rest/POLocator/findLocations", "@spider": "usps_collection_boxes", "addr:city": "NORTHFIELD FL", "addr:country": "US", "addr:postcode": "05664", "addr:state": "VT", "addr:street_address": "51 GOULD RD", "amenity": "post_box", "collection_times": "Mo-Fr 16:30; Sa 11:00", "indoor": "yes", "note": "ON 12/24 AND 12/31, THIS BOX MAY BE COLLECTED AS EARLY AS 12 NOON.", "nsi_id": "unitedstatespostalservice-a77078", "operator": "United States Postal Service", "operator:short": "USPS", "operator:type": "public", "operator:wikidata": "Q668687", "ref": "0566400001"}, "type": "Feature"}
{"geometry": {"coordinates": [-72.649581455, 44.171725629], "type": "Point"}, "id": "nioESD-ILxGbNj09AVRqUHUm5wA=", "properties": {"@source_uri": "https://tools.usps.com/UspsToolsRestServices/rest/POLocator/findLocations", "@spider": "usps_collection_boxes", "addr:city": "NORTHFIELD FL", "addr:country": "US", "addr:postcode": "05664", "addr:state": "VT", "addr:street_address": "51 GOULD RD", "amenity": "post_box", "collection_times": "Mo-Fr 16:30; Sa 11:00", "indoor": "yes", "note": "ON 12/24 AND 12/31, THIS BOX MAY BE COLLECTED AS EARLY AS 12 NOON.", "nsi_id": "unitedstatespostalservice-a77078", "operator": "United States Postal Service", "operator:short": "USPS", "operator:type": "public", "operator:wikidata": "Q668687", "ref": "0566400002"}, "type": "Feature"}
{"geometry": {"coordinates": [-72.598937, 44.671046], "type": "Point"}, "id": "RY460n_9c8kBa3TVA0NkSbi3kAc=", "properties": {"@source_uri": "https://tools.usps.com/UspsToolsRestServices/rest/POLocator/findLocations", "@spider": "usps_collection_boxes", "addr:city": "NORTH HYDE PARK", "addr:country": "US", "addr:postcode": "05665", "addr:state": "VT", "addr:street_address": "5541 VT RTE 100", "amenity": "post_box", "collection_times": "Mo-Fr 12:00; Sa 10:45", "nsi_id": "unitedstatespostalservice-a77078", "operator": "United States Postal Service", "operator:short": "USPS", "operator:type": "public", "operator:wikidata": "Q668687", "ref": "0566500000"}, "type": "Feature"}
{"geometry": {"coordinates": [-72.598937, 44.671046], "type": "Point"}, "id": "KDwNTtKD3YoxNcoF9jD0Tbw1UrA=", "properties": {"@source_uri": "https://tools.usps.com/UspsToolsRestServices/rest/POLocator/findLocations", "@spider": "usps_collection_boxes", "addr:city": "NORTH HYDE PARK", "addr:country": "US", "addr:postcode": "05665", "addr:state": "VT", "addr:street_address": "5541 VT RTE 100", "amenity": "post_box", "collection_times": "Mo-Fr 12:00; Sa 10:45", "indoor": "yes", "nsi_id": "unitedstatespostalservice-a77078", "operator": "United States Postal Service", "operator:short": "USPS", "operator:type": "public", "operator:wikidata": "Q668687", "ref": "0566500001"}, "type": "Feature"}
{"geometry": {"coordinates": [-72.599002045, 44.670971828], "type": "Point"}, "id": "5uDbFz9sV8lQOqoS3rmnAddSqg0=", "properties": {"@source_uri": "https://tools.usps.com/UspsToolsRestServices/rest/POLocator/findLocations", "@spider": "usps_collection_boxes", "addr:city": "NORTH HYDE PARK", "addr:country": "US", "addr:postcode": "05665", "addr:state": "VT", "addr:street_address": "5541 VT RTE 100", "amenity": "post_box", "collection_times": "Mo-Fr 11:45; Sa 11:00", "indoor": "yes", "nsi_id": "unitedstatespostalservice-a77078", "operator": "United States Postal Service", "operator:short": "USPS", "operator:type": "public", "operator:wikidata": "Q668687", "ref": "0566500002"}, "type": "Feature"}
{"geometry": {"coordinates": [-72.431429, 44.277785], "type": "Point"}, "id": "RoKlyEKekhAj2co2e08GTIF91H8=", "properties": {"@source_uri": "https://tools.usps.com/UspsToolsRestServices/rest/POLocator/findLocations", "@spider": "usps_collection_boxes", "addr:city": "PLAINFIELD", "addr:country": "US", "addr:postcode": "05667", "addr:state": "VT", "addr:street_address": "189 TOWNE AVE", "amenity": "post_box", "collection_times": "Mo-Fr 16:30; Sa 11:00", "note": "ON 12/24 AND 12/31, THIS BOX MAY BE COLLECTED AS EARLY AS 12 NOON.", "nsi_id": "unitedstatespostalservice-a77078", "operator": "United States Postal Service", "operator:short": "USPS", "operator:type": "public", "operator:wikidata": "Q668687", "ref": "0566700000"}, "type": "Feature"}
{"geometry": {"coordinates": [-72.431358, 44.277826], "type": "Point"}, "id": "JkpqaUY_GskejJn4K7IlYe_qQ9o=", "properties": {"@source_uri": "https://tools.usps.com/UspsToolsRestServices/rest/POLocator/findLocations", "@spider": "usps_collection_boxes", "addr:city": "PLAINFIELD", "addr:country": "US", "addr:postcode": "05667", "addr:state": "VT", "addr:street_address": "189 TOWNE AVE", "amenity": "post_box", "collection_times": "Mo-Fr 16:30; Sa 11:00", "indoor": "yes", "note": "ON 12/24 AND 12/31, THIS BOX MAY BE COLLECTED AS EARLY AS 12 NOON.", "nsi_id": "unitedstatespostalservice-a77078", "operator": "United States Postal Service", "operator:short": "USPS", "operator:type": "public", "operator:wikidata": "Q668687", "ref": "0566700001"}, "type": "Feature"}
{"geometry": {"coordinates": [-72.431358982, 44.27788918], "type": "Point"}, "id": "t06XqXO2OFy1X998PBsoSNxS1VM=", "properties": {"@source_uri": "https://tools.usps.com/UspsToolsRestServices/rest/POLocator/findLocations", "@spider": "usps_collection_boxes", "addr:city": "PLAINFIELD", "addr:country": "US", "addr:postcode": "05667", "addr:state": "VT", "addr:street_address": "189 TOWNE AVE", "amenity": "post_box", "collection_times": "Mo-Fr 16:45; Sa 11:00", "indoor": "yes", "note": "ON 12/24 AND 12/31, THIS BOX MAY BE COLLECTED AS EARLY AS 12 NOON.", "nsi_id": "unitedstatespostalservice-a77078", "operator": "United States Postal Service", "operator:short": "USPS", "operator:type": "public", "operator:wikidata": "Q668687", "ref": "0566700002"}, "type": "Feature"}
{"geometry": {"coordinates": [-72.733536, 44.091957], "type": "Point"}, "id": "NywyhjFseRHqpKKrPUK_fYB_DhI=", "properties": {"@source_uri": "https://tools.usps.com/UspsToolsRestServices/rest/POLocator/findLocations", "@spider": "usps_collection_boxes", "addr:city": "ROXBURY", "addr:country": "US", "addr:postcode": "05669", "addr:state": "VT", "addr:street_address": "1593 ROXBURY RD", "amenity": "post_box", "collection_times": "Mo-Fr 12:15; Sa 10:45", "note": "ON 12/24 AND 12/31, THIS BOX MAY BE COLLECTED AS EARLY AS 12 NOON.", "nsi_id": "unitedstatespostalservice-a77078", "operator": "United States Postal Service", "operator:short": "USPS", "operator:type": "public", "operator:wikidata": "Q668687", "ref": "0566900000"}, "type": "Feature"}
{"geometry": {"coordinates": [-72.733536, 44.091957], "type": "Point"}, "id": "tjakjR_1ol0rfMQ0q0N_qga4saI=", "properties": {"@source_uri": "https://tools.usps.com/UspsToolsRestServices/rest/POLocator/findLocations", "@spider": "usps_collection_boxes", "addr:city": "ROXBURY", "addr:country": "US", "addr:postcode": "05669", "addr:state": "VT", "addr:street_address": "1593 ROXBURY RD", "amenity": "post_box", "collection_times": "Mo-Fr 12:00; Sa 10:45", "indoor": "yes", "nsi_id": "unitedstatespostalservice-a77078", "operator": "United States Postal Service", "operator:short": "USPS", "operator:type": "public", "operator:wikidata": "Q668687", "ref": "0566900001"}, "type": "Feature"}
{"geometry": {"coordinates": [-72.733538416, 44.09195795], "type": "Point"}, "id": "HpgOYKs7soZx1wvoN95kqhhjJvc=", "properties": {"@source_uri": "https://tools.usps.com/UspsToolsRestServices/rest/POLocator/findLocations", "@spider": "usps_collection_boxes", "addr:city": "ROXBURY", "addr:country": "US", "addr:postcode": "05669", "addr:state": "VT", "addr:street_address": "1593 ROXBURY RD", "amenity": "post_box", "collection_times": "Mo-Fr 12:00; Sa 10:30", "indoor": "yes", "nsi_id": "unitedstatespostalservice-a77078", "operator": "United States Postal Service", "operator:short": "USPS", "operator:type": "public", "operator:wikidata": "Q668687", "ref": "0566900002"}, "type": "Feature"}
{"geometry": {"coordinates": [-72.504967, 44.177072], "type": "Point"}, "id": "vkCUL9s-bmwR2gGva-jOFMHg2e0=", "properties": {"@source_uri": "https://tools.usps.com/UspsToolsRestServices/rest/POLocator/findLocations", "@spider": "usps_collection_boxes", "addr:city": "SOUTH BARRE", "addr:country": "US", "addr:postcode": "05670", "addr:state": "VT", "addr:street_address": "379 S BARRE RD", "amenity": "post_box", "collection_times": "Mo-Fr 16:15; Sa 10:45", "note": "ON 12/24 AND 12/31, THIS BOX MAY BE COLLECTED AS EARLY AS 12 NOON.", "nsi_id": "unitedstatespostalservice-a77078", "operator": "United States Postal Service", "operator:short": "USPS", "operator:type": "public", "operator:wikidata": "Q668687", "ref": "0567000000"}, "type": "Feature"}
{"geometry": {"coordinates": [-72.504967, 44.177072], "type": "Point"}, "id": "0EhlDe56fMBmD6vtazC2MeiF-X4=", "properties": {"@source_uri": "https://tools.usps.com/UspsToolsRestServices/rest/POLocator/findLocations", "@spider": "usps_collection_boxes", "addr:city": "SOUTH BARRE", "addr:country": "US", "addr:postcode": "05670", "addr:state": "VT", "addr:street_address": "379 S BARRE RD", "amenity": "post_box", "collection_times": "Mo-Fr 16:45; Sa 11:15", "indoor": "yes", "note": "ON 12/24 AND 12/31, THIS BOX MAY BE COLLECTED AS EARLY AS 12 NOON.", "nsi_id": "unitedstatespostalservice-a77078", "operator": "United States Postal Service", "operator:short": "USPS", "operator:type": "public", "operator:wikidata": "Q668687", "ref": "0567000001"}, "type": "Feature"}
{"geometry": {"coordinates": [-72.504963972, 44.177114935], "type": "Point"}, "id": "mRUkA2sO_viSgdkkqrcBk7ZEFyw=", "properties": {"@source_uri": "https://tools.usps.com/UspsToolsRestServices/rest/POLocator/findLocations", "@spider": "usps_collection_boxes", "addr:city": "SOUTH BARRE", "addr:country": "US", "addr:postcode": "05670", "addr:state": "VT", "addr:street_address": "379 S BARRE RD", "amenity": "post_box", "collection_times": "Mo-Fr 16:30; Sa 11:00", "indoor": "yes", "note": "ON 12/24 AND 12/31, THIS BOX MAY BE COLLECTED AS EARLY AS 12 NOON.", "nsi_id": "unitedstatespostalservice-a77078", "operator": "United States Postal Service", "operator:short": "USPS", "operator:type": "public", "operator:wikidata": "Q668687", "ref": "0567000002"}, "type": "Feature"}
{"geometry": {"coordinates": [-72.686587, 44.464055], "type": "Point"}, "id": "k69CxNQWjP6Voi4jmMaGQ-kvTFk=", "properties": {"@source_uri": "https://tools.usps.com/UspsToolsRestServices/rest/POLocator/findLocations", "@spider": "usps_collection_boxes", "addr:city": "STOWE", "addr:country": "US", "addr:postcode": "05672", "addr:state": "VT", "addr:street_address": "105 DEPOT ST", "amenity": "post_box", "collection_times": "Mo-Fr 17:00; Sa 12:30", "note": "ON 12/24 AND 12/31, THIS BOX MAY BE COLLECTED AS EARLY AS 12 NOON.", "nsi_id": "unitedstatespostalservice-a77078", "operator": "United States Postal Service", "operator:short": "USPS", "operator:type": "public", "operator:wikidata": "Q668687", "ref": "0567200002"}, "type": "Feature"}
{"geometry": {"coordinates": [-72.6860546, 44.465322], "type": "Point"}, "id": "KG7zRDjpj3gsKMxKPFaVPCS9ALw=", "properties": {"@source_uri": "https://tools.usps.com/UspsToolsRestServices/rest/POLocator/findLocations", "@spider": "usps_collection_boxes", "addr:city": "STOWE", "addr:country": "US", "addr:postcode": "05672", "addr:state": "VT", "addr:street_address": "62 MAIN ST", "amenity": "post_box", "collection_times": "Mo-Sa 11:00", "nsi_id": "unitedstatespostalservice-a77078", "operator": "United States Postal Service", "operator:short": "USPS", "operator:type": "public", "operator:wikidata": "Q668687", "ref": "0567200005"}, "type": "Feature"}
{"geometry": {"coordinates": [-72.7142156, 44.474315], "type": "Point"}, "id": "7BPGWi8_MJ6X0kkJtf2aI3b7igI=", "properties": {"@source_uri": "https://tools.usps.com/UspsToolsRestServices/rest/POLocator/findLocations", "@spider": "usps_collection_boxes", "addr:city": "STOWE", "addr:country": "US", "addr:postcode": "05672", "addr:state": "VT", "addr:street_address": "1880 MOUNTAIN RD", "amenity": "post_box", "collection_times": "Mo-Sa 11:00", "nsi_id": "unitedstatespostalservice-a77078", "operator": "United States Postal Service", "operator:short": "USPS", "operator:type": "public", "operator:wikidata": "Q668687", "ref": "0567200006"}, "type": "Feature"}
{"geometry": {"coordinates": [-72.6739623, 44.47166], "type": "Point"}, "id": "MK2QkkcbwTIKbignSK3NhyfZIhg=", "properties": {"@source_uri": "https://tools.usps.com/UspsToolsRestServices/rest/POLocator/findLocations", "@spider": "usps_collection_boxes", "addr:city": "STOWE", "addr:country": "US", "addr:postcode": "05672", "addr:state": "VT", "addr:street_address": "751 MAPLE ST", "amenity": "post_box", "collection_times": "Mo-Sa 12:30", "note": "ON 12/24 AND 12/31, THIS BOX MAY BE COLLECTED AS EARLY AS 12 NOON.", "nsi_id": "unitedstatespostalservice-a77078", "operator": "United States Postal Service", "operator:short": "USPS", "operator:type": "public", "operator:wikidata": "Q668687", "ref": "0567200007"}, "type": "Feature"}
{"geometry": {"coordinates": [-72.6874358, 44.47068], "type": "Point"}, "id": "3b6StH6pgx7HTMZ6q9Irno_wAXg=", "properties": {"@source_uri": "https://tools.usps.com/UspsToolsRestServices/rest/POLocator/findLocations", "@spider": "usps_collection_boxes", "addr:city": "STOWE", "addr:country": "US", "addr:postcode": "05672", "addr:state": "VT", "addr:street_address": "394 MOUNTAIN RD", "amenity": "post_box", "collection_times": "Mo-Sa 11:00", "nsi_id": "unitedstatespostalservice-a77078", "operator": "United States Postal Service", "operator:short": "USPS", "operator:type": "public", "operator:wikidata": "Q668687", "ref": "0567200008"}, "type": "Feature"}
{"geometry": {"coordinates": [-72.686587, 44.464055], "type": "Point"}, "id": "gm6v9rKNPDfFbQVEFB0BnC8hpuA=", "properties": {"@source_uri": "https://tools.usps.com/UspsToolsRestServices/rest/POLocator/findLocations", "@spider": "usps_collection_boxes", "addr:city": "STOWE", "addr:country": "US", "addr:postcode": "05672", "addr:state": "VT", "addr:street_address": "105 DEPOT ST", "amenity": "post_box", "collection_times": "Mo-Fr 17:00; Sa 12:30", "indoor": "yes", "note": "ON 12/24 AND 12/31, THIS BOX MAY BE COLLECTED AS EARLY AS 12 NOON.", "nsi_id": "unitedstatespostalservice-a77078", "operator": "United States Postal Service", "operator:short": "USPS", "operator:type": "public", "operator:wikidata": "Q668687", "ref": "0567200009"}, "type": "Feature"}
{"geometry": {"coordinates": [-72.686585759, 44.463589596], "type": "Point"}, "id": "lR-w4iE327bfLaIIm2yZer2WjOE=", "properties": {"@source_uri": "https://tools.usps.com/UspsToolsRestServices/rest/POLocator/findLocations", "@spider": "usps_collection_boxes", "addr:city": "STOWE", "addr:country": "US", "addr:postcode": "05672", "addr:state": "VT", "addr:street_address": "105 DEPOT ST", "amenity": "post_box", "collection_times": "Mo-Fr 17:00; Sa 12:00", "indoor": "yes", "note": "ON 12/24 AND 12/31, THIS BOX MAY BE COLLECTED AS EARLY AS 12 NOON.", "nsi_id": "unitedstatespostalservice-a77078", "operator": "United States Postal Service", "operator:short": "USPS", "operator:type": "public", "operator:wikidata": "Q668687", "ref": "0567200012"}, "type": "Feature"}
{"geometry": {"coordinates": [-72.838541, 44.184633], "type": "Point"}, "id": "RbTIqbMPotGgkKdfAG2Q2pCw5uo=", "properties": {"@source_uri": "https://tools.usps.com/UspsToolsRestServices/rest/POLocator/findLocations", "@spider": "usps_collection_boxes", "addr:city": "WAITSFIELD", "addr:country": "US", "addr:postcode": "05673", "addr:state": "VT", "addr:street_address": "100 MAD RIVER GRN", "amenity": "post_box", "collection_times": "Mo-Fr 17:00; Sa 12:00", "note": "ON 12/24 AND 12/31, THIS BOX MAY BE COLLECTED AS EARLY AS 12 NOON.", "nsi_id": "unitedstatespostalservice-a77078", "operator": "United States Postal Service", "operator:short": "USPS", "operator:type": "public", "operator:wikidata": "Q668687", "ref": "0567300001"}, "type": "Feature"}
{"geometry": {"coordinates": [-72.838683428, 44.184511717], "type": "Point"}, "id": "zf6CRLXgs5C3OXm7Z7L_ObN7y8k=", "properties": {"@source_uri": "https://tools.usps.com/UspsToolsRestServices/rest/POLocator/findLocations", "@spider": "usps_collection_boxes", "addr:city": "WAITSFIELD", "addr:country": "US", "addr:postcode": "05673", "addr:state": "VT", "addr:street_address": "100 MAD RIVER GRN", "amenity": "post_box", "collection_times": "Mo-Fr 17:00; Sa 12:00", "indoor": "yes", "note": "ON 12/24 AND 12/31, THIS BOX MAY BE COLLECTED AS EARLY AS 12 NOON.", "nsi_id": "unitedstatespostalservice-a77078", "operator": "United States Postal Service", "operator:short": "USPS", "operator:type": "public", "operator:wikidata": "Q668687", "ref": "0567300002"}, "type": "Feature"}
{"geometry": {"coordinates": [-72.838683428, 44.184511717], "type": "Point"}, "id": "Ep6YEWbJu8-aPADFiRpaKHLcRwU=", "properties": {"@source_uri": "https://tools.usps.com/UspsToolsRestServices/rest/POLocator/findLocations", "@spider": "usps_collection_boxes", "addr:city": "WAITSFIELD", "addr:country": "US", "addr:postcode": "05673", "addr:state": "VT", "addr:street_address": "100 MAD RIVER GRN", "amenity": "post_box", "collection_times": "Mo-Fr 17:00; Sa 12:00", "indoor": "yes", "note": "ON 12/24 AND 12/31, THIS BOX MAY BE COLLECTED AS EARLY AS 12 NOON.", "nsi_id": "unitedstatespostalservice-a77078", "operator": "United States Postal Service", "operator:short": "USPS", "operator:type": "public", "operator:wikidata": "Q668687", "ref": "0567300004"}, "type": "Feature"}
{"geometry": {"coordinates": [-72.8559947, 44.113413], "type": "Point"}, "id": "lqrzxOCraGkeaRnckKhr0-sPZG0=", "properties": {"@source_uri": "https://tools.usps.com/UspsToolsRestServices/rest/POLocator/findLocations", "@spider": "usps_collection_boxes", "addr:city": "WARREN", "addr:country": "US", "addr:postcode": "05674", "addr:state": "VT", "addr:street_address": "354 MAIN ST", "amenity": "post_box", "collection_times": "Mo-Fr 16:30; Sa 10:00", "note": "ON 12/24 AND 12/31, THIS BOX MAY BE COLLECTED AS EARLY AS 12 NOON.", "nsi_id": "unitedstatespostalservice-a77078", "operator": "United States Postal Service", "operator:short": "USPS", "operator:type": "public", "operator:wikidata": "Q668687", "ref": "0567400001"}, "type": "Feature"}
{"geometry": {"coordinates": [-72.8560416, 44.113438], "type": "Point"}, "id": "JulRu8jc7Cc0y9ET0qN7buFQ_aQ=", "properties": {"@source_uri": "https://tools.usps.com/UspsToolsRestServices/rest/POLocator/findLocations", "@spider": "usps_collection_boxes", "addr:city": "WARREN", "addr:country": "US", "addr:postcode": "05674", "addr:state": "VT", "addr:street_address": "354 MAIN ST", "amenity": "post_box", "collection_times": "Mo-Fr 16:30; Sa 10:00", "indoor": "yes", "note": "ON 12/24 AND 12/31, THIS BOX MAY BE COLLECTED AS EARLY AS 12 NOON.", "nsi_id": "unitedstatespostalservice-a77078", "operator": "United States Postal Service", "operator:short": "USPS", "operator:type": "public", "operator:wikidata": "Q668687", "ref": "0567400003"}, "type": "Feature"}
{"geometry": {"coordinates": [-72.855805551, 44.113470024], "type": "Point"}, "id": "twco7V0tYkH8i6yCT4QYimVkSW8=", "properties": {"@source_uri": "https://tools.usps.com/UspsToolsRestServices/rest/POLocator/findLocations", "@spider": "usps_collection_boxes", "addr:city": "WARREN", "addr:country": "US", "addr:postcode": "05674", "addr:state": "VT", "addr:street_address": "354 MAIN ST", "amenity": "post_box", "collection_times": "Mo-Fr 16:30; Sa 10:00", "indoor": "yes", "note": "ON 12/24 AND 12/31, THIS BOX MAY BE COLLECTED AS EARLY AS 12 NOON.", "nsi_id": "unitedstatespostalservice-a77078", "operator": "United States Postal Service", "operator:short": "USPS", "operator:type": "public", "operator:wikidata": "Q668687", "ref": "0567400005"}, "type": "Feature"}
{"geometry": {"coordinates": [-72.43299, 44.106809], "type": "Point"}, "id": "pJM7gWGF5JRV1sWFf17ZrJMvZ9g=", "properties": {"@source_uri": "https://tools.usps.com/UspsToolsRestServices/rest/POLocator/findLocations", "@spider": "usps_collection_boxes", "addr:city": "WASHINGTON", "addr:country": "US", "addr:postcode": "05675", "addr:state": "VT", "addr:street_address": "3029 VT ROUTE 110", "amenity": "post_box", "collection_times": "Mo-Fr 16:15; Sa 11:00", "note": "ON 12/24 AND 12/31, THIS BOX MAY BE COLLECTED AS EARLY AS 12 NOON.", "nsi_id": "unitedstatespostalservice-a77078", "operator": "United States Postal Service", "operator:short": "USPS", "operator:type": "public", "operator:wikidata": "Q668687", "ref": "0567500000"}, "type": "Feature"}
{"geometry": {"coordinates": [-72.433026, 44.1068], "type": "Point"}, "id": "OW9_YyC0DJ37N4O0WD1B3JTCfTU=", "properties": {"@source_uri": "https://tools.usps.com/UspsToolsRestServices/rest/POLocator/findLocations", "@spider": "usps_collection_boxes", "addr:city": "WASHINGTON", "addr:country": "US", "addr:postcode": "05675", "addr:state": "VT", "addr:street_address": "3029 VT ROUTE 110", "amenity": "post_box", "collection_times": "Mo-Fr 16:15; Sa 11:00", "indoor": "yes", "note": "ON 12/24 AND 12/31, THIS BOX MAY BE COLLECTED AS EARLY AS 12 NOON.", "nsi_id": "unitedstatespostalservice-a77078", "operator": "United States Postal Service", "operator:short": "USPS", "operator:type": "public", "operator:wikidata": "Q668687", "ref": "0567500001"}, "type": "Feature"}
{"geometry": {"coordinates": [-72.432967784, 44.106747611], "type": "Point"}, "id": "ZTCpwHHccIXLd7jwtz4bl8Qi-fU=", "properties": {"@source_uri": "https://tools.usps.com/UspsToolsRestServices/rest/POLocator/findLocations", "@spider": "usps_collection_boxes", "addr:city": "WASHINGTON", "addr:country": "US", "addr:postcode": "05675", "addr:state": "VT", "addr:street_address": "3029 VT ROUTE 110", "amenity": "post_box", "collection_times": "Mo-Fr 16:15; Sa 10:30", "indoor": "yes", "note": "ON 12/24 AND 12/31, THIS BOX MAY BE COLLECTED AS EARLY AS 12 NOON.", "nsi_id": "unitedstatespostalservice-a77078", "operator": "United States Postal Service", "operator:short": "USPS", "operator:type": "public", "operator:wikidata": "Q668687", "ref": "0567500003"}, "type": "Feature"}
{"geometry": {"coordinates": [-72.759718, 44.341783], "type": "Point"}, "id": "JKRkrVhh7IFoVTmRv8S1KcuJhnc=", "properties": {"@source_uri": "https://tools.usps.com/UspsToolsRestServices/rest/POLocator/findLocations", "@spider": "usps_collection_boxes", "addr:city": "WATERBURY", "addr:country": "US", "addr:postcode": "05676", "addr:state": "VT", "addr:street_address": "47 1/2 N MAIN ST", "amenity": "post_box", "collection_times": "Mo-Fr 17:15; Sa 14:45", "note": "ON 12/24 AND 12/31, THIS BOX MAY BE COLLECTED AS EARLY AS 12 NOON.", "nsi_id": "unitedstatespostalservice-a77078", "operator": "United States Postal Service", "operator:short": "USPS", "operator:type": "public", "operator:wikidata": "Q668687", "ref": "0567600001"}, "type": "Feature"}
{"geometry": {"coordinates": [-72.7557756, 44.337015], "type": "Point"}, "id": "sRc-xeKjMJMIdnSFE2DbTs1zjok=", "properties": {"@source_uri": "https://tools.usps.com/UspsToolsRestServices/rest/POLocator/findLocations", "@spider": "usps_collection_boxes", "addr:city": "WATERBURY", "addr:country": "US", "addr:postcode": "05676", "addr:state": "VT", "addr:street_address": "29 S MAIN ST", "amenity": "post_box", "collection_times": "Mo-Sa 09:30", "nsi_id": "unitedstatespostalservice-a77078", "operator": "United States Postal Service", "operator:short": "USPS", "operator:type": "public", "operator:wikidata": "Q668687", "ref": "0567600002"}, "type": "Feature"}
{"geometry": {"coordinates": [-72.7530058, 44.334585], "type": "Point"}, "id": "zq32H6tpYYQoLslcbga1MoAIFk8=", "properties": {"@source_uri": "https://tools.usps.com/UspsToolsRestServices/rest/POLocator/findLocations", "@spider": "usps_collection_boxes", "addr:city": "WATERBURY", "addr:country": "US", "addr:postcode": "05676", "addr:state": "VT", "addr:street_address": "1 PARK ROW", "amenity": "post_box", "collection_times": "Mo-Sa 09:30", "nsi_id": "unitedstatespostalservice-a77078", "operator": "United States Postal Service", "operator:short": "USPS", "operator:type": "public", "operator:wikidata": "Q668687", "ref": "0567600003"}, "type": "Feature"}
{"geometry": {"coordinates": [-72.759703, 44.341819], "type": "Point"}, "id": "u4p5aGvGJzyHp1qHNnBp0Wn-Nwc=", "properties": {"@source_uri": "https://tools.usps.com/UspsToolsRestServices/rest/POLocator/findLocations", "@spider": "usps_collection_boxes", "addr:city": "WATERBURY", "addr:country": "US", "addr:postcode": "05676", "addr:state": "VT", "addr:street_address": "47 1/2 N MAIN ST", "amenity": "post_box", "collection_times": "Mo-Fr 17:15; Sa 14:45", "indoor": "yes", "note": "ON 12/24 AND 12/31, THIS BOX MAY BE COLLECTED AS EARLY AS 12 NOON.", "nsi_id": "unitedstatespostalservice-a77078", "operator": "United States Postal Service", "operator:short": "USPS", "operator:type": "public", "operator:wikidata": "Q668687", "ref": "0567600005"}, "type": "Feature"}
{"geometry": {"coordinates": [-72.759713481, 44.341816725], "type": "Point"}, "id": "ukRbmiKHP0mtc_qIsJBxiFsf7TM=", "properties": {"@source_uri": "https://tools.usps.com/UspsToolsRestServices/rest/POLocator/findLocations", "@spider": "usps_collection_boxes", "addr:city": "WATERBURY", "addr:country": "US", "addr:postcode": "05676", "addr:state": "VT", "addr:street_address": "47 N MAIN ST STE 2", "amenity": "post_box", "collection_times": "Mo-Fr 17:00; Sa 12:00", "indoor": "yes", "note": "ON 12/24 AND 12/31, THIS BOX MAY BE COLLECTED AS EARLY AS 12 NOON.", "nsi_id": "unitedstatespostalservice-a77078", "operator": "United States Postal Service", "operator:short": "USPS", "operator:type": "public", "operator:wikidata": "Q668687", "ref": "0567600006"}, "type": "Feature"}
{"geometry": {"coordinates": [-72.735691, 44.355802], "type": "Point"}, "id": "abin4vqMUVCUsyUsH-w5ZI8N6Es=", "properties": {"@source_uri": "https://tools.usps.com/UspsToolsRestServices/rest/POLocator/findLocations", "@spider": "usps_collection_boxes", "addr:city": "WATERBURY CENTER", "addr:country": "US", "addr:postcode": "05677", "addr:state": "VT", "addr:street_address": "1787 GUPTILL RD", "amenity": "post_box", "collection_times": "Mo-Fr 16:45; Sa 10:00", "note": "ON 12/24 AND 12/31, THIS BOX MAY BE COLLECTED AS EARLY AS 12 NOON.", "nsi_id": "unitedstatespostalservice-a77078", "operator": "United States Postal Service", "operator:short": "USPS", "operator:type": "public", "operator:wikidata": "Q668687", "ref": "0567700001"}, "type": "Feature"}
{"geometry": {"coordinates": [-72.718558, 44.373502], "type": "Point"}, "id": "EdIefmjahXq-wNMtRQPhlewvkK8=", "properties": {"@source_uri": "https://tools.usps.com/UspsToolsRestServices/rest/POLocator/findLocations", "@spider": "usps_collection_boxes", "addr:city": "WATERBURY CENTER", "addr:country": "US", "addr:postcode": "05677", "addr:state": "VT", "addr:street_address": "1787 GUPTILL RD", "amenity": "post_box", "collection_times": "Mo-Fr 16:45; Sa 10:00", "indoor": "yes", "note": "ON 12/24 AND 12/31, THIS BOX MAY BE COLLECTED AS EARLY AS 12 NOON.", "nsi_id": "unitedstatespostalservice-a77078", "operator": "United States Postal Service", "operator:short": "USPS", "operator:type": "public", "operator:wikidata": "Q668687", "ref": "0567700002"}, "type": "Feature"}
{"geometry": {"coordinates": [-72.718569537, 44.373467158], "type": "Point"}, "id": "aKg4XDIvxbQJdnUzlFxonvlGuO4=", "properties": {"@source_uri": "https://tools.usps.com/UspsToolsRestServices/rest/POLocator/findLocations", "@spider": "usps_collection_boxes", "addr:city": "WATERBURY CENTER", "addr:country": "US", "addr:postcode": "05677", "addr:state": "VT", "addr:street_address": "1787 GUPTIL RD", "amenity": "post_box", "collection_times": "Mo-Fr 16:30; Sa 10:00", "indoor": "yes", "note": "ON 12/24 AND 12/31, THIS BOX MAY BE COLLECTED AS EARLY AS 12 NOON.", "nsi_id": "unitedstatespostalservice-a77078", "operator": "United States Postal Service", "operator:short": "USPS", "operator:type": "public", "operator:wikidata": "Q668687", "ref": "0567700003"}, "type": "Feature"}
{"geometry": {"coordinates": [-72.470511, 44.1596], "type": "Point"}, "id": "RdlCfP12zJ48yq3OMqJP8zdU81A=", "properties": {"@source_uri": "https://tools.usps.com/UspsToolsRestServices/rest/POLocator/findLocations", "@spider": "usps_collection_boxes", "addr:city": "WEBSTERVILLE", "addr:country": "US", "addr:postcode": "05678", "addr:state": "VT", "addr:street_address": "37 CHURCH HILL RD", "amenity": "post_box", "collection_times": "Mo-Fr 16:45; Sa 10:45", "note": "ON 12/24 AND 12/31, THIS BOX MAY BE COLLECTED AS EARLY AS 12 NOON.", "nsi_id": "unitedstatespostalservice-a77078", "operator": "United States Postal Service", "operator:short": "USPS", "operator:type": "public", "operator:wikidata": "Q668687", "ref": "0567800000"}, "type": "Feature"}
{"geometry": {"coordinates": [-72.470511, 44.1596], "type": "Point"}, "id": "H44MUJg9NGFMG-UIitrsXhDAJQY=", "properties": {"@source_uri": "https://tools.usps.com/UspsToolsRestServices/rest/POLocator/findLocations", "@spider": "usps_collection_boxes", "addr:city": "WEBSTERVILLE", "addr:country": "US", "addr:postcode": "05678", "addr:state": "VT", "addr:street_address": "37 CHURCH HILL RD", "amenity": "post_box", "collection_times": "Mo-Fr 16:45; Sa 10:45", "indoor": "yes", "note": "ON 12/24 AND 12/31, THIS BOX MAY BE COLLECTED AS EARLY AS 12 NOON.", "nsi_id": "unitedstatespostalservice-a77078", "operator": "United States Postal Service", "operator:short": "USPS", "operator:type": "public", "operator:wikidata": "Q668687", "ref": "0567800001"}, "type": "Feature"}
{"geometry": {"coordinates": [-72.470648882, 44.159652985], "type": "Point"}, "id": "bBbRFtY5HiB-oi4RvfKSdijCo4Y=", "properties": {"@source_uri": "https://tools.usps.com/UspsToolsRestServices/rest/POLocator/findLocations", "@spider": "usps_collection_boxes", "addr:city": "WEBSTERVILLE", "addr:country": "US", "addr:postcode": "05678", "addr:state": "VT", "addr:street_address": "37 CHURCH HILL RD", "amenity": "post_box", "collection_times": "Mo-Fr 16:30; Sa 10:30", "indoor": "yes", "note": "ON 12/24 AND 12/31, THIS BOX MAY BE COLLECTED AS EARLY AS 12 NOON.", "nsi_id": "unitedstatespostalservice-a77078", "operator": "United States Postal Service", "operator:short": "USPS", "operator:type": "public", "operator:wikidata": "Q668687", "ref": "0567800002"}, "type": "Feature"}
{"geometry": {"coordinates": [-72.541222, 44.118282], "type": "Point"}, "id": "-UnTvvopUztb9gUsVMrsCcHUQ0E=", "properties": {"@source_uri": "https://tools.usps.com/UspsToolsRestServices/rest/POLocator/findLocations", "@spider": "usps_collection_boxes", "addr:city": "WILLIAMSTOWN", "addr:country": "US", "addr:postcode": "05679", "addr:state": "VT", "addr:street_address": "2632 VT ROUTE 14", "amenity": "post_box", "collection_times": "Mo-Fr 17:00; Sa 11:00", "note": "ON 12/24 AND 12/31, THIS BOX MAY BE COLLECTED AS EARLY AS 12 NOON.", "nsi_id": "unitedstatespostalservice-a77078", "operator": "United States Postal Service", "operator:short": "USPS", "operator:type": "public", "operator:wikidata": "Q668687", "ref": "0567900000"}, "type": "Feature"}
{"geometry": {"coordinates": [-72.541166, 44.118228], "type": "Point"}, "id": "FlGPREK0_PbpABAi8yaz17caJAM=", "properties": {"@source_uri": "https://tools.usps.com/UspsToolsRestServices/rest/POLocator/findLocations", "@spider": "usps_collection_boxes", "addr:city": "WILLIAMSTOWN", "addr:country": "US", "addr:postcode": "05679", "addr:state": "VT", "addr:street_address": "2632 VT ROUTE 14", "amenity": "post_box", "collection_times": "Mo-Fr 17:00; Sa 11:00", "indoor": "yes", "note": "ON 12/24 AND 12/31, THIS BOX MAY BE COLLECTED AS EARLY AS 12 NOON.", "nsi_id": "unitedstatespostalservice-a77078", "operator": "United States Postal Service", "operator:short": "USPS", "operator:type": "public", "operator:wikidata": "Q668687", "ref": "0567900001"}, "type": "Feature"}
{"geometry": {"coordinates": [-72.541214754, 44.118273407], "type": "Point"}, "id": "FETTB7lTyOU4DeJl6XoS1i3b83k=", "properties": {"@source_uri": "https://tools.usps.com/UspsToolsRestServices/rest/POLocator/findLocations", "@spider": "usps_collection_boxes", "addr:city": "WILLIAMSTOWN", "addr:country": "US", "addr:postcode": "05679", "addr:state": "VT", "addr:street_address": "2632 VT ROUTE 14", "amenity": "post_box", "collection_times": "Mo-Fr 16:45; Sa 11:00", "indoor": "yes", "note": "ON 12/24 AND 12/31, THIS BOX MAY BE COLLECTED AS EARLY AS 12 NOON.", "nsi_id": "unitedstatespostalservice-a77078", "operator": "United States Postal Service", "operator:short": "USPS", "operator:type": "public", "operator:wikidata": "Q668687", "ref": "0567900002"}, "type": "Feature"}
{"geometry": {"coordinates": [-72.460185, 44.547306], "type": "Point"}, "id": "sPIdeMFKfQKYFiN7Elef_dBFabc=", "properties": {"@source_uri": "https://tools.usps.com/UspsToolsRestServices/rest/POLocator/findLocations", "@spider": "usps_collection_boxes", "addr:city": "WOLCOTT", "addr:country": "US", "addr:postcode": "05680", "addr:state": "VT", "addr:street_address": "4154 VT RTE 15", "amenity": "post_box", "collection_times": "Mo-Fr 16:15; Sa 11:15", "indoor": "yes", "note": "ON 12/24 AND 12/31, THIS BOX MAY BE COLLECTED AS EARLY AS 12 NOON.", "nsi_id": "unitedstatespostalservice-a77078", "operator": "United States Postal Service", "operator:short": "USPS", "operator:type": "public", "operator:wikidata": "Q668687", "ref": "0568000001"}, "type": "Feature"}
{"geometry": {"coordinates": [-72.460216, 44.547338], "type": "Point"}, "id": "4uhnF5QH_JAozDjUUlT9FP41xeo=", "properties": {"@source_uri": "https://tools.usps.com/UspsToolsRestServices/rest/POLocator/findLocations", "@spider": "usps_collection_boxes", "addr:city": "WOLCOTT", "addr:country": "US", "addr:postcode": "05680", "addr:state": "VT", "addr:street_address": "4154 VT RTE 15", "amenity": "post_box", "collection_times": "Mo-Fr 16:00; Sa 11:15", "note": "ON 12/24 AND 12/31, THIS BOX MAY BE COLLECTED AS EARLY AS 12 NOON.", "nsi_id": "unitedstatespostalservice-a77078", "operator": "United States Postal Service", "operator:short": "USPS", "operator:type": "public", "operator:wikidata": "Q668687", "ref": "0568000002"}, "type": "Feature"}
{"geometry": {"coordinates": [-72.460368125, 44.547332649], "type": "Point"}, "id": "xTjelAREZkKiozWGznmML-refoc=", "properties": {"@source_uri": "https://tools.usps.com/UspsToolsRestServices/rest/POLocator/findLocations", "@spider": "usps_collection_boxes", "addr:city": "WOLCOTT", "addr:country": "US", "addr:postcode": "05680", "addr:state": "VT", "addr:street_address": "4154 VT RTE 15", "amenity": "post_box", "collection_times": "Mo-Fr 16:15; Sa 11:00", "indoor": "yes", "note": "ON 12/24 AND 12/31, THIS BOX MAY BE COLLECTED AS EARLY AS 12 NOON.", "nsi_id": "unitedstatespostalservice-a77078", "operator": "United States Postal Service", "operator:short": "USPS", "operator:type": "public", "operator:wikidata": "Q668687", "ref": "0568000003"}, "type": "Feature"}
{"geometry": {"coordinates": [-72.41673, 44.449005], "type": "Point"}, "id": "R_HcGLQE1tt9RW4oAV8Px5syFzs=", "properties": {"@source_uri": "https://tools.usps.com/UspsToolsRestServices/rest/POLocator/findLocations", "@spider": "usps_collection_boxes", "addr:city": "WOODBURY", "addr:country": "US", "addr:postcode": "05681", "addr:state": "VT", "addr:street_address": "3655 VERMONT ROUTE 14", "amenity": "post_box", "collection_times": "Mo-Fr 16:30; Sa 10:00", "note": "ON 12/24 AND 12/31, THIS BOX MAY BE COLLECTED AS EARLY AS 12 NOON.", "nsi_id": "unitedstatespostalservice-a77078", "operator": "United States Postal Service", "operator:short": "USPS", "operator:type": "public", "operator:wikidata": "Q668687", "ref": "0568100000"}, "type": "Feature"}
{"geometry": {"coordinates": [-72.41673, 44.449005], "type": "Point"}, "id": "eABsasRjk1lPBNQDe85EbcJpcco=", "properties": {"@source_uri": "https://tools.usps.com/UspsToolsRestServices/rest/POLocator/findLocations", "@spider": "usps_collection_boxes", "addr:city": "WOODBURY", "addr:country": "US", "addr:postcode": "05681", "addr:state": "VT", "addr:street_address": "3655 VERMONT ROUTE 14", "amenity": "post_box", "collection_times": "Mo-Fr 16:30; Sa 10:00", "indoor": "yes", "note": "ON 12/24 AND 12/31, THIS BOX MAY BE COLLECTED AS EARLY AS 12 NOON.", "nsi_id": "unitedstatespostalservice-a77078", "operator": "United States Postal Service", "operator:short": "USPS", "operator:type": "public", "operator:wikidata": "Q668687", "ref": "0568100001"}, "type": "Feature"}
{"geometry": {"coordinates": [-72.41673, 44.449005], "type": "Point"}, "id": "Yroz0YeMmrfxw8w6na7lL5VxEHQ=", "properties": {"@source_uri": "https://tools.usps.com/UspsToolsRestServices/rest/POLocator/findLocations", "@spider": "usps_collection_boxes", "addr:city": "WOODBURY", "addr:country": "US", "addr:postcode": "05681", "addr:state": "VT", "addr:street_address": "3655 ROUTE 14", "amenity": "post_box", "collection_times": "Mo-Fr 16:30; Sa 10:00", "indoor": "yes", "note": "ON 12/24 AND 12/31, THIS BOX MAY BE COLLECTED AS EARLY AS 12 NOON.", "nsi_id": "unitedstatespostalservice-a77078", "operator": "United States Postal Service", "operator:short": "USPS", "operator:type": "public", "operator:wikidata": "Q668687", "ref": "0568100003"}, "type": "Feature"}
{"geometry": {"coordinates": [-72.550899, 44.370186], "type": "Point"}, "id": "Bm23ijQoKHNMS0rELymcZFYjPeo=", "properties": {"@source_uri": "https://tools.usps.com/UspsToolsRestServices/rest/POLocator/findLocations", "@spider": "usps_collection_boxes", "addr:city": "WORCESTER", "addr:country": "US", "addr:postcode": "05682", "addr:state": "VT", "addr:street_address": "36 WORCESTER VILLAGE RD", "amenity": "post_box", "collection_times": "Mo-Fr 14:30; Sa 11:00", "note": "ON 12/24 AND 12/31, THIS BOX MAY BE COLLECTED AS EARLY AS 12 NOON.", "nsi_id": "unitedstatespostalservice-a77078", "operator": "United States Postal Service", "operator:short": "USPS", "operator:type": "public", "operator:wikidata": "Q668687", "ref": "0568200000"}, "type": "Feature"}
{"geometry": {"coordinates": [-72.550926, 44.370219], "type": "Point"}, "id": "OZk-18jsSg_undokBhwcsSg4woo=", "properties": {"@source_uri": "https://tools.usps.com/UspsToolsRestServices/rest/POLocator/findLocations", "@spider": "usps_collection_boxes", "addr:city": "WORCESTER", "addr:country": "US", "addr:postcode": "05682", "addr:state": "VT", "addr:street_address": "36 WORCESTER VILLAGE RD", "amenity": "post_box", "collection_times": "Mo-Fr 14:30; Sa 11:00", "indoor": "yes", "note": "ON 12/24 AND 12/31, THIS BOX MAY BE COLLECTED AS EARLY AS 12 NOON.", "nsi_id": "unitedstatespostalservice-a77078", "operator": "United States Postal Service", "operator:short": "USPS", "operator:type": "public", "operator:wikidata": "Q668687", "ref": "0568200001"}, "type": "Feature"}
{"geometry": {"coordinates": [-72.550636225, 44.371309243], "type": "Point"}, "id": "U2o06tRypR9_3Uw879OI9NwcucU=", "properties": {"@source_uri": "https://tools.usps.com/UspsToolsRestServices/rest/POLocator/findLocations", "@spider": "usps_collection_boxes", "addr:city": "WORCESTER", "addr:country": "US", "addr:postcode": "05682", "addr:state": "VT", "addr:street_address": "36 WORCESTER VILLAGE RD", "amenity": "post_box", "collection_times": "Mo-Fr 14:30; Sa 10:30", "indoor": "yes", "note": "ON 12/24 AND 12/31, THIS BOX MAY BE COLLECTED AS EARLY AS 12 NOON.", "nsi_id": "unitedstatespostalservice-a77078", "operator": "United States Postal Service", "operator:short": "USPS", "operator:type": "public", "operator:wikidata": "Q668687", "ref": "0568200002"}, "type": "Feature"}
