{"geometry": {"coordinates": [-72.9650399, 43.613102], "type": "Point"}, "id": "iL9Aa_tX71knkdz5YkN9tlYcJRc=", "properties": {"@source_uri": "https://tools.usps.com/UspsToolsRestServices/rest/POLocator/findLocations", "@spider": "usps_collection_boxes", "addr:city": "RUTLAND", "addr:country": "US", "addr:postcode": "05701", "addr:state": "VT", "addr:street_address": "86 WOODSTOCK AVE", "amenity": "post_box", "collection_times": "Mo-Sa 10:00", "nsi_id": "unitedstatespostalservice-a77078", "operator": "United States Postal Service", "operator:short": "USPS", "operator:type": "public", "operator:wikidata": "Q668687", "ref": "0570100002"}, "type": "Feature"}
{"geometry": {"coordinates": [-72.9718827, 43.608691], "type": "Point"}, "id": "VN_dW_I-C4MFPNv82_SZ89IP1aQ=", "properties": {"@source_uri": "https://tools.usps.com/UspsToolsRestServices/rest/POLocator/findLocations", "@spider": "usps_collection_boxes", "addr:city": "RUTLAND", "addr:country": "US", "addr:postcode": "05701", "addr:state": "VT", "addr:street_address": "2 S MAIN ST", "amenity": "post_box", "collection_times": "Mo-Sa 09:00", "nsi_id": "unitedstatespostalservice-a77078", "operator": "United States Postal Service", "operator:short": "USPS", "operator:type": "public", "operator:wikidata": "Q668687", "ref": "0570100005"}, "type": "Feature"}
{"geometry": {"coordinates": [-72.9727045, 43.611611], "type": "Point"}, "id": "5h-hdIPnn01K88p6439kk1n9VnY=", "properties": {"@source_uri": "https://tools.usps.com/UspsToolsRestServices/rest/POLocator/findLocations", "@spider": "usps_collection_boxes", "addr:city": "RUTLAND", "addr:country": "US", "addr:postcode": "05701", "addr:state": "VT", "addr:street_address": "46 N MAIN ST", "amenity": "post_box", "collection_times": "Mo-Sa 10:00", "nsi_id": "unitedstatespostalservice-a77078", "operator": "United States Postal Service", "operator:short": "USPS", "operator:type": "public", "operator:wikidata": "Q668687", "ref": "0570100007"}, "type": "Feature"}
{"geometry": {"coordinates": [-72.9753809, 43.626248], "type": "Point"}, "id": "kunDalpAe6fCRywjpc1Hlqi_zmo=", "properties": {"@source_uri": "https://tools.usps.com/UspsToolsRestServices/rest/POLocator/findLocations", "@spider": "usps_collection_boxes", "addr:city": "RUTLAND", "addr:country": "US", "addr:postcode": "05701", "addr:state": "VT", "addr:street_address": "256 N MAIN ST", "amenity": "post_box", "collection_times": "Mo-Fr 10:00; Sa 09:00", "nsi_id": "unitedstatespostalservice-a77078", "operator": "United States Postal Service", "operator:short": "USPS", "operator:type": "public", "operator:wikidata": "Q668687", "ref": "0570100011"}, "type": "Feature"}
{"geometry": {"coordinates": [-72.982118, 43.607684], "type": "Point"}, "id": "6qp0LDDkkAXFlhR4nv-n2fA5P3U=", "properties": {"@source_uri": "https://tools.usps.com/UspsToolsRestServices/rest/POLocator/findLocations", "@spider": "usps_collection_boxes", "addr:city": "RUTLAND", "addr:country": "US", "addr:postcode": "05701", "addr:state": "VT", "addr:street_address": "151 WEST ST", "amenity": "post_box", "collection_times": "Mo-Sa 17:30", "note": "ON 12/24 AND 12/31, THIS BOX MAY BE COLLECTED AS EARLY AS 12 NOON.", "nsi_id": "unitedstatespostalservice-a77078", "operator": "United States Postal Service", "operator:short": "USPS", "operator:type": "public", "operator:wikidata": "Q668687", "ref": "0570100022"}, "type": "Feature"}
{"geometry": {"coordinates": [-72.9801275679, 43.6065955034], "type": "Point"}, "id": "Ll0ebSSEJCRgn7EsSXzsj7NMOBA=", "properties": {"@source_uri": "https://tools.usps.com/UspsToolsRestServices/rest/POLocator/findLocations", "@spider": "usps_collection_boxes", "addr:city": "RUTLAND", "addr:country": "US", "addr:postcode": "05701", "addr:state": "VT", "addr:street_address": "94 MERCHANTS ROW", "amenity": "post_box", "collection_times": "Mo-Sa 09:00", "nsi_id": "unitedstatespostalservice-a77078", "operator": "United States Postal Service", "operator:short": "USPS", "operator:type": "public", "operator:wikidata": "Q668687", "ref": "0570100031"}, "type": "Feature"}
{"geometry": {"coordinates": [-72.9781399, 43.605101], "type": "Point"}, "id": "D4tZVgQdk3haeW14sLpyZSX0JDg=", "properties": {"@source_uri": "https://tools.usps.com/UspsToolsRestServices/rest/POLocator/findLocations", "@spider": "usps_collection_boxes", "addr:city": "RUTLAND", "addr:country": "US", "addr:postcode": "05701", "addr:state": "VT", "addr:street_address": "1 STRONGS AVE", "amenity": "post_box", "collection_times": "Mo-Sa 09:00", "nsi_id": "unitedstatespostalservice-a77078", "operator": "United States Postal Service", "operator:short": "USPS", "operator:type": "public", "operator:wikidata": "Q668687", "ref": "0570100037"}, "type": "Feature"}
{"geometry": {"coordinates": [-72.9759609946, 43.6071759852], "type": "Point"}, "id": "d3WFwE9AA7b_z-L6zEfKoLUfRqU=", "properties": {"@source_uri": "https://tools.usps.com/UspsToolsRestServices/rest/POLocator/findLocations", "@spider": "usps_collection_boxes", "addr:city": "RUTLAND", "addr:country": "US", "addr:postcode": "05701", "addr:state": "VT", "addr:street_address": "83 CENTER ST", "amenity": "post_box", "collection_times": "Mo-Sa 10:00", "nsi_id": "unitedstatespostalservice-a77078", "operator": "United States Postal Service", "operator:short": "USPS", "operator:type": "public", "operator:wikidata": "Q668687", "ref": "0570100038"}, "type": "Feature"}
{"geometry": {"coordinates": [-72.9776816, 43.606794], "type": "Point"}, "id": "wpgt-O1w7SOVLHckH4jqMaJ3lSU=", "properties": {"@source_uri": "https://tools.usps.com/UspsToolsRestServices/rest/POLocator/findLocations", "@spider": "usps_collection_boxes", "addr:city": "RUTLAND", "addr:country": "US", "addr:postcode": "05701", "addr:state": "VT", "addr:street_address": "58 CENTER ST", "amenity": "post_box", "collection_times": "Mo-Sa 09:00", "nsi_id": "unitedstatespostalservice-a77078", "operator": "United States Postal Service", "operator:short": "USPS", "operator:type": "public", "operator:wikidata": "Q668687", "ref": "0570100041"}, "type": "Feature"}
{"geometry": {"coordinates": [-72.9807534503, 43.606073385], "type": "Point"}, "id": "l2g6n-BGNduWV-FsmOjJ0-gau3M=", "properties": {"@source_uri": "https://tools.usps.com/UspsToolsRestServices/rest/POLocator/findLocations", "@spider": "usps_collection_boxes", "addr:city": "RUTLAND", "addr:country": "US", "addr:postcode": "05701", "addr:state": "VT", "addr:street_address": "1 RUTLAND SHOPPING PLZ", "amenity": "post_box", "collection_times": "Mo-Sa 09:00", "nsi_id": "unitedstatespostalservice-a77078", "operator": "United States Postal Service", "operator:short": "USPS", "operator:type": "public", "operator:wikidata": "Q668687", "ref": "0570100042"}, "type": "Feature"}
{"geometry": {"coordinates": [-72.968255516, 43.586167326], "type": "Point"}, "id": "71kkVfcj3m2SefeW8b7TJjY3-Yo=", "properties": {"@source_uri": "https://tools.usps.com/UspsToolsRestServices/rest/POLocator/findLocations", "@spider": "usps_collection_boxes", "addr:city": "RUTLAND", "addr:country": "US", "addr:postcode": "05701", "addr:state": "VT", "addr:street_address": "308 US ROUTE 7", "amenity": "post_box", "collection_times": "Mo-Sa 10:00", "nsi_id": "unitedstatespostalservice-a77078", "operator": "United States Postal Service", "operator:short": "USPS", "operator:type": "public", "operator:wikidata": "Q668687", "ref": "0570100052"}, "type": "Feature"}
{"geometry": {"coordinates": [-72.9297837, 43.64522], "type": "Point"}, "id": "rDSfmsorL3PMnrnU-xwUcxhzOQE=", "properties": {"@source_uri": "https://tools.usps.com/UspsToolsRestServices/rest/POLocator/findLocations", "@spider": "usps_collection_boxes", "addr:city": "RUTLAND", "addr:country": "US", "addr:postcode": "05701", "addr:state": "VT", "addr:street_address": "2149 US ROUTE 4", "amenity": "post_box", "collection_times": "Mo-Sa 10:00", "nsi_id": "unitedstatespostalservice-a77078", "operator": "United States Postal Service", "operator:short": "USPS", "operator:type": "public", "operator:wikidata": "Q668687", "ref": "0570100067"}, "type": "Feature"}
{"geometry": {"coordinates": [-72.9921806, 43.607076], "type": "Point"}, "id": "A5XsAuMMy4cHutSRnWt3swUoSlc=", "properties": {"@source_uri": "https://tools.usps.com/UspsToolsRestServices/rest/POLocator/findLocations", "@spider": "usps_collection_boxes", "addr:city": "RUTLAND", "addr:country": "US", "addr:postcode": "05701", "addr:state": "VT", "addr:street_address": "210 COLUMBIAN AVE", "amenity": "post_box", "collection_times": "Mo-Sa 08:45", "nsi_id": "unitedstatespostalservice-a77078", "operator": "United States Postal Service", "operator:short": "USPS", "operator:type": "public", "operator:wikidata": "Q668687", "ref": "0570100068"}, "type": "Feature"}
{"geometry": {"coordinates": [-72.9799016, 43.606922], "type": "Point"}, "id": "LWOp7tGhltF-gRm_1pskGDoRQNc=", "properties": {"@source_uri": "https://tools.usps.com/UspsToolsRestServices/rest/POLocator/findLocations", "@spider": "usps_collection_boxes", "addr:city": "RUTLAND", "addr:country": "US", "addr:postcode": "05701", "addr:state": "VT", "addr:street_address": "88 MERCHANTS ROW", "amenity": "post_box", "collection_times": "Mo-Fr 09:00", "nsi_id": "unitedstatespostalservice-a77078", "operator": "United States Postal Service", "operator:short": "USPS", "operator:type": "public", "operator:wikidata": "Q668687", "ref": "0570100075"}, "type": "Feature"}
{"geometry": {"coordinates": [-72.982652217, 43.60768198], "type": "Point"}, "id": "E_IDeoH4n1QY5s6kmL6cWJeSUE0=", "properties": {"@source_uri": "https://tools.usps.com/UspsToolsRestServices/rest/POLocator/findLocations", "@spider": "usps_collection_boxes", "addr:city": "RUTLAND", "addr:country": "US", "addr:postcode": "05701", "addr:state": "VT", "addr:street_address": "173 WEST ST", "amenity": "post_box", "collection_times": "Mo-Fr 17:00; Sa 12:30", "indoor": "yes", "note": "ON 12/24 AND 12/31, THIS BOX MAY BE COLLECTED AS EARLY AS 12 NOON.", "nsi_id": "unitedstatespostalservice-a77078", "operator": "United States Postal Service", "operator:short": "USPS", "operator:type": "public", "operator:wikidata": "Q668687", "ref": "0570100076"}, "type": "Feature"}
{"geometry": {"coordinates": [-72.982652217, 43.60768198], "type": "Point"}, "id": "aItmH2ucYJJrJoTYtyvDcqpFWgM=", "properties": {"@source_uri": "https://tools.usps.com/UspsToolsRestServices/rest/POLocator/findLocations", "@spider": "usps_collection_boxes", "addr:city": "RUTLAND", "addr:country": "US", "addr:postcode": "05701", "addr:state": "VT", "addr:street_address": "173 WEST ST LBBY STAMPED", "amenity": "post_box", "collection_times": "Mo-Fr 17:00; Sa 12:30", "indoor": "yes", "note": "ON 12/24 AND 12/31, THIS BOX MAY BE COLLECTED AS EARLY AS 12 NOON.", "nsi_id": "unitedstatespostalservice-a77078", "operator": "United States Postal Service", "operator:short": "USPS", "operator:type": "public", "operator:wikidata": "Q668687", "ref": "0570100077"}, "type": "Feature"}
{"geometry": {"coordinates": [-72.9569244, 43.599706], "type": "Point"}, "id": "IFzbov8UW4mJ8DPMhSmxqsbL9AQ=", "properties": {"@source_uri": "https://tools.usps.com/UspsToolsRestServices/rest/POLocator/findLocations", "@spider": "usps_collection_boxes", "addr:city": "RUTLAND", "addr:country": "US", "addr:postcode": "05701", "addr:state": "VT", "addr:street_address": "1 COMMONS ST", "amenity": "post_box", "collection_times": "Mo-Fr 09:30; Sa 09:00", "nsi_id": "unitedstatespostalservice-a77078", "operator": "United States Postal Service", "operator:short": "USPS", "operator:type": "public", "operator:wikidata": "Q668687", "ref": "0570100079"}, "type": "Feature"}
{"geometry": {"coordinates": [-72.9660111, 43.614156], "type": "Point"}, "id": "0GWfzfSrDK5qRBe1yOVHPScu4FQ=", "properties": {"@source_uri": "https://tools.usps.com/UspsToolsRestServices/rest/POLocator/findLocations", "@spider": "usps_collection_boxes", "addr:city": "RUTLAND", "addr:country": "US", "addr:postcode": "05701", "addr:state": "VT", "addr:street_address": "5 TREMONT ST", "amenity": "post_box", "collection_times": "Mo-Sa 10:00", "nsi_id": "unitedstatespostalservice-a77078", "operator": "United States Postal Service", "operator:short": "USPS", "operator:type": "public", "operator:wikidata": "Q668687", "ref": "0570100081"}, "type": "Feature"}
{"geometry": {"coordinates": [-72.9764163, 43.62813], "type": "Point"}, "id": "PFWQOyyrt1767JJSzRBESg5Lx-w=", "properties": {"@source_uri": "https://tools.usps.com/UspsToolsRestServices/rest/POLocator/findLocations", "@spider": "usps_collection_boxes", "addr:city": "RUTLAND", "addr:country": "US", "addr:postcode": "05701", "addr:state": "VT", "addr:street_address": "271 N MAIN ST", "amenity": "post_box", "collection_times": "Mo-Sa 10:00", "nsi_id": "unitedstatespostalservice-a77078", "operator": "United States Postal Service", "operator:short": "USPS", "operator:type": "public", "operator:wikidata": "Q668687", "ref": "0570100082"}, "type": "Feature"}
{"geometry": {"coordinates": [-72.982397961, 43.6081189912], "type": "Point"}, "id": "V0S-uWBp5EBGI2IM4w07PwIkCbE=", "properties": {"@source_uri": "https://tools.usps.com/UspsToolsRestServices/rest/POLocator/findLocations", "@spider": "usps_collection_boxes", "addr:city": "RUTLAND", "addr:country": "US", "addr:postcode": "05701", "addr:state": "VT", "addr:street_address": "173 WEST ST", "amenity": "post_box", "collection_times": "Mo-Fr 17:00; Sa 12:00", "indoor": "yes", "note": "ON 12/24 AND 12/31, THIS BOX MAY BE COLLECTED AS EARLY AS 12 NOON.", "nsi_id": "unitedstatespostalservice-a77078", "operator": "United States Postal Service", "operator:short": "USPS", "operator:type": "public", "operator:wikidata": "Q668687", "ref": "0570100088"}, "type": "Feature"}
{"geometry": {"coordinates": [-72.821202, 43.415359], "type": "Point"}, "id": "Ot3fpBgyVP2xK-qjUxfDfyPj_5s=", "properties": {"@source_uri": "https://tools.usps.com/UspsToolsRestServices/rest/POLocator/findLocations", "@spider": "usps_collection_boxes", "addr:city": "BELMONT", "addr:country": "US", "addr:postcode": "05730", "addr:state": "VT", "addr:street_address": "2400 BELMONT RD", "amenity": "post_box", "collection_times": "Mo-Fr 16:45; Sa 10:45", "note": "ON 12/24 AND 12/31, THIS BOX MAY BE COLLECTED AS EARLY AS 12 NOON.", "nsi_id": "unitedstatespostalservice-a77078", "operator": "United States Postal Service", "operator:short": "USPS", "operator:type": "public", "operator:wikidata": "Q668687", "ref": "0573000000"}, "type": "Feature"}
{"geometry": {"coordinates": [-72.821164, 43.415378], "type": "Point"}, "id": "graAcp8kf0zeaU7ojShUIWTWnLo=", "properties": {"@source_uri": "https://tools.usps.com/UspsToolsRestServices/rest/POLocator/findLocations", "@spider": "usps_collection_boxes", "addr:city": "BELMONT", "addr:country": "US", "addr:postcode": "05730", "addr:state": "VT", "addr:street_address": "2400 BELMONT RD", "amenity": "post_box", "collection_times": "Mo-Fr 16:45; Sa 10:45", "indoor": "yes", "note": "ON 12/24 AND 12/31, THIS BOX MAY BE COLLECTED AS EARLY AS 12 NOON.", "nsi_id": "unitedstatespostalservice-a77078", "operator": "United States Postal Service", "operator:short": "USPS", "operator:type": "public", "operator:wikidata": "Q668687", "ref": "0573000001"}, "type": "Feature"}
{"geometry": {"coordinates": [-72.821211799, 43.414884], "type": "Point"}, "id": "F2Sl3zUDlWiHfd751ZyYn90A5To=", "properties": {"@source_uri": "https://tools.usps.com/UspsToolsRestServices/rest/POLocator/findLocations", "@spider": "usps_collection_boxes", "addr:city": "BELMONT", "addr:country": "US", "addr:postcode": "05730", "addr:state": "VT", "addr:street_address": "2400 BELMONT RD", "amenity": "post_box", "collection_times": "Mo-Fr 16:45; Sa 10:45", "indoor": "yes", "note": "ON 12/24 AND 12/31, THIS BOX MAY BE COLLECTED AS EARLY AS 12 NOON.", "nsi_id": "unitedstatespostalservice-a77078", "operator": "United States Postal Service", "operator:short": "USPS", "operator:type": "public", "operator:wikidata": "Q668687", "ref": "0573000003"}, "type": "Feature"}
{"geometry": {"coordinates": [-73.209713, 43.60862], "type": "Point"}, "id": "G-6qR6b9LwLp29uwWMAx7paoeBA=", "properties": {"@source_uri": "https://tools.usps.com/UspsToolsRestServices/rest/POLocator/findLocations", "@spider": "usps_collection_boxes", "addr:city": "BOMOSEEN", "addr:country": "US", "addr:postcode": "05732", "addr:state": "VT", "addr:street_address": "63 ROUTE 4A W", "amenity": "post_box", "collection_times": "Mo-Fr 16:30; Sa 10:30", "note": "ON 12/24 AND 12/31, THIS BOX MAY BE COLLECTED AS EARLY AS 12 NOON.", "nsi_id": "unitedstatespostalservice-a77078", "operator": "United States Postal Service", "operator:short": "USPS", "operator:type": "public", "operator:wikidata": "Q668687", "ref": "0573200000"}, "type": "Feature"}
{"geometry": {"coordinates": [-73.209664, 43.608642], "type": "Point"}, "id": "qSXz_gS44p4QYbX0AkOlUqlXB9c=", "properties": {"@source_uri": "https://tools.usps.com/UspsToolsRestServices/rest/POLocator/findLocations", "@spider": "usps_collection_boxes", "addr:city": "BOMOSEEN", "addr:country": "US", "addr:postcode": "05732", "addr:state": "VT", "addr:street_address": "63 ROUTE 4A W", "amenity": "post_box", "collection_times": "Mo-Fr 16:45; Sa 11:00", "indoor": "yes", "note": "ON 12/24 AND 12/31, THIS BOX MAY BE COLLECTED AS EARLY AS 12 NOON.", "nsi_id": "unitedstatespostalservice-a77078", "operator": "United States Postal Service", "operator:short": "USPS", "operator:type": "public", "operator:wikidata": "Q668687", "ref": "0573200002"}, "type": "Feature"}
{"geometry": {"coordinates": [-73.209685898, 43.608610605], "type": "Point"}, "id": "EyzraF7mrZVYy6HrWiQ6PNSceoM=", "properties": {"@source_uri": "https://tools.usps.com/UspsToolsRestServices/rest/POLocator/findLocations", "@spider": "usps_collection_boxes", "addr:city": "BOMOSEEN", "addr:country": "US", "addr:postcode": "05732", "addr:state": "VT", "addr:street_address": "63 ROUTE 4A W", "amenity": "post_box", "collection_times": "Mo-Fr 17:00; Sa 11:00", "indoor": "yes", "note": "ON 12/24 AND 12/31, THIS BOX MAY BE COLLECTED AS EARLY AS 12 NOON.", "nsi_id": "unitedstatespostalservice-a77078", "operator": "United States Postal Service", "operator:short": "USPS", "operator:type": "public", "operator:wikidata": "Q668687", "ref": "0573200003"}, "type": "Feature"}
{"geometry": {"coordinates": [-73.0871224988, 43.7975932853], "type": "Point"}, "id": "r9sG6-cvj-P-Bt5QRRHGtuc3voI=", "properties": {"@source_uri": "https://tools.usps.com/UspsToolsRestServices/rest/POLocator/findLocations", "@spider": "usps_collection_boxes", "addr:city": "BRANDON", "addr:country": "US", "addr:postcode": "05733", "addr:state": "VT", "addr:street_address": "5 CARVER ST", "amenity": "post_box", "collection_times": "Mo-Sa 12:00", "nsi_id": "unitedstatespostalservice-a77078", "operator": "United States Postal Service", "operator:short": "USPS", "operator:type": "public", "operator:wikidata": "Q668687", "ref": "0573300002"}, "type": "Feature"}
{"geometry": {"coordinates": [-73.0872721, 43.79837], "type": "Point"}, "id": "YaVY5cDBWXNL7mRcK_4xJ5f9pMc=", "properties": {"@source_uri": "https://tools.usps.com/UspsToolsRestServices/rest/POLocator/findLocations", "@spider": "usps_collection_boxes", "addr:city": "BRANDON", "addr:country": "US", "addr:postcode": "05733", "addr:state": "VT", "addr:street_address": "20 PARK ST", "amenity": "post_box", "collection_times": "Mo-Sa 12:00", "nsi_id": "unitedstatespostalservice-a77078", "operator": "United States Postal Service", "operator:short": "USPS", "operator:type": "public", "operator:wikidata": "Q668687", "ref": "0573300003"}, "type": "Feature"}
{"geometry": {"coordinates": [-73.092574, 43.800013], "type": "Point"}, "id": "O-NJIfBTRVsQ_SEe3yWiT5ZPCg4=", "properties": {"@source_uri": "https://tools.usps.com/UspsToolsRestServices/rest/POLocator/findLocations", "@spider": "usps_collection_boxes", "addr:city": "BRANDON", "addr:country": "US", "addr:postcode": "05733", "addr:state": "VT", "addr:street_address": "32 CONANT SQ", "amenity": "post_box", "collection_times": "Mo-Fr 16:30; Sa 12:00", "note": "ON 12/24 AND 12/31, THIS BOX MAY BE COLLECTED AS EARLY AS 12 NOON.", "nsi_id": "unitedstatespostalservice-a77078", "operator": "United States Postal Service", "operator:short": "USPS", "operator:type": "public", "operator:wikidata": "Q668687", "ref": "0573300005"}, "type": "Feature"}
{"geometry": {"coordinates": [-73.092574, 43.800013], "type": "Point"}, "id": "j47j3CT5b6xI3nQte8bH3Jdy8VI=", "properties": {"@source_uri": "https://tools.usps.com/UspsToolsRestServices/rest/POLocator/findLocations", "@spider": "usps_collection_boxes", "addr:city": "BRANDON", "addr:country": "US", "addr:postcode": "05733", "addr:state": "VT", "addr:street_address": "32 CONANT SQ", "amenity": "post_box", "collection_times": "Mo-Fr 16:30; Sa 12:00", "indoor": "yes", "note": "ON 12/24 AND 12/31, THIS BOX MAY BE COLLECTED AS EARLY AS 12 NOON.", "nsi_id": "unitedstatespostalservice-a77078", "operator": "United States Postal Service", "operator:short": "USPS", "operator:type": "public", "operator:wikidata": "Q668687", "ref": "0573300008"}, "type": "Feature"}
{"geometry": {"coordinates": [-73.092573985, 43.800006594], "type": "Point"}, "id": "LYmeTpghdn50dK9jZXnqbc0Dodo=", "properties": {"@source_uri": "https://tools.usps.com/UspsToolsRestServices/rest/POLocator/findLocations", "@spider": "usps_collection_boxes", "addr:city": "BRANDON", "addr:country": "US", "addr:postcode": "05733", "addr:state": "VT", "addr:street_address": "32 CONANT SQ", "amenity": "post_box", "collection_times": "Mo-Fr 16:30; Sa 12:00", "indoor": "yes", "note": "ON 12/24 AND 12/31, THIS BOX MAY BE COLLECTED AS EARLY AS 12 NOON.", "nsi_id": "unitedstatespostalservice-a77078", "operator": "United States Postal Service", "operator:short": "USPS", "operator:type": "public", "operator:wikidata": "Q668687", "ref": "0573300009"}, "type": "Feature"}
{"geometry": {"coordinates": [-73.312961, 43.987186], "type": "Point"}, "id": "DUaB_Ap9udlaJvtFDJbtHev7R4o=", "properties": {"@source_uri": "https://tools.usps.com/UspsToolsRestServices/rest/POLocator/findLocations", "@spider": "usps_collection_boxes", "addr:city": "BRIDPORT", "addr:country": "US", "addr:postcode": "05734", "addr:state": "VT", "addr:street_address": "3039 VT ROUTE 22A", "amenity": "post_box", "collection_times": "Mo-Fr 15:00; Sa 11:00", "note": "ON 12/24 AND 12/31, THIS BOX MAY BE COLLECTED AS EARLY AS 12 NOON.", "nsi_id": "unitedstatespostalservice-a77078", "operator": "United States Postal Service", "operator:short": "USPS", "operator:type": "public", "operator:wikidata": "Q668687", "ref": "0573400000"}, "type": "Feature"}
{"geometry": {"coordinates": [-73.312991, 43.987225], "type": "Point"}, "id": "4a8s2_wZ5v3AwErJtr88f_eCZj8=", "properties": {"@source_uri": "https://tools.usps.com/UspsToolsRestServices/rest/POLocator/findLocations", "@spider": "usps_collection_boxes", "addr:city": "BRIDPORT", "addr:country": "US", "addr:postcode": "05734", "addr:state": "VT", "addr:street_address": "3039 VT ROUTE 22A", "amenity": "post_box", "collection_times": "Mo-Fr 15:00; Sa 11:00", "indoor": "yes", "note": "ON 12/24 AND 12/31, THIS BOX MAY BE COLLECTED AS EARLY AS 12 NOON.", "nsi_id": "unitedstatespostalservice-a77078", "operator": "United States Postal Service", "operator:short": "USPS", "operator:type": "public", "operator:wikidata": "Q668687", "ref": "0573400001"}, "type": "Feature"}
{"geometry": {"coordinates": [-73.312954834, 43.987207212], "type": "Point"}, "id": "0gx4E62wnPFoWcPdsuvOG9bWgO4=", "properties": {"@source_uri": "https://tools.usps.com/UspsToolsRestServices/rest/POLocator/findLocations", "@spider": "usps_collection_boxes", "addr:city": "BRIDPORT", "addr:country": "US", "addr:postcode": "05734", "addr:state": "VT", "addr:street_address": "3039 VT ROUTE 22A", "amenity": "post_box", "collection_times": "Mo-Fr 15:00; Sa 11:00", "indoor": "yes", "note": "ON 12/24 AND 12/31, THIS BOX MAY BE COLLECTED AS EARLY AS 12 NOON.", "nsi_id": "unitedstatespostalservice-a77078", "operator": "United States Postal Service", "operator:short": "USPS", "operator:type": "public", "operator:wikidata": "Q668687", "ref": "0573400003"}, "type": "Feature"}
{"geometry": {"coordinates": [-73.177114, 43.611942], "type": "Point"}, "id": "ZsJ2hIPusJFWguOz48xrYh4QLsQ=", "properties": {"@source_uri": "https://tools.usps.com/UspsToolsRestServices/rest/POLocator/findLocations", "@spider": "usps_collection_boxes", "addr:city": "CASTLETON", "addr:country": "US", "addr:postcode": "05735", "addr:state": "VT", "addr:street_address": "576 MAIN ST", "amenity": "post_box", "collection_times": "Mo-Fr 17:00; Sa 11:30", "note": "ON 12/24 AND 12/31, THIS BOX MAY BE COLLECTED AS EARLY AS 12 NOON.", "nsi_id": "unitedstatespostalservice-a77078", "operator": "United States Postal Service", "operator:short": "USPS", "operator:type": "public", "operator:wikidata": "Q668687", "ref": "0573500000"}, "type": "Feature"}
{"geometry": {"coordinates": [-73.177195, 43.611893], "type": "Point"}, "id": "e8HanKEDuI6_talcP8NMAAzcgek=", "properties": {"@source_uri": "https://tools.usps.com/UspsToolsRestServices/rest/POLocator/findLocations", "@spider": "usps_collection_boxes", "addr:city": "CASTLETON", "addr:country": "US", "addr:postcode": "05735", "addr:state": "VT", "addr:street_address": "576 MAIN ST", "amenity": "post_box", "collection_times": "Mo-Fr 17:00; Sa 11:30", "indoor": "yes", "note": "ON 12/24 AND 12/31, THIS BOX MAY BE COLLECTED AS EARLY AS 12 NOON.", "nsi_id": "unitedstatespostalservice-a77078", "operator": "United States Postal Service", "operator:short": "USPS", "operator:type": "public", "operator:wikidata": "Q668687", "ref": "0573500002"}, "type": "Feature"}
{"geometry": {"coordinates": [-73.177297826, 43.611895005], "type": "Point"}, "id": "1PyNpllABFq6_XHG3L_SLvgMzEY=", "properties": {"@source_uri": "https://tools.usps.com/UspsToolsRestServices/rest/POLocator/findLocations", "@spider": "usps_collection_boxes", "addr:city": "CASTLETON", "addr:country": "US", "addr:postcode": "05735", "addr:state": "VT", "addr:street_address": "576 MAIN ST", "amenity": "post_box", "collection_times": "Mo-Fr 17:00; Sa 11:30", "indoor": "yes", "note": "ON 12/24 AND 12/31, THIS BOX MAY BE COLLECTED AS EARLY AS 12 NOON.", "nsi_id": "unitedstatespostalservice-a77078", "operator": "United States Postal Service", "operator:short": "USPS", "operator:type": "public", "operator:wikidata": "Q668687", "ref": "0573500005"}, "type": "Feature"}
{"geometry": {"coordinates": [-72.952476, 43.697398], "type": "Point"}, "id": "lWXSZWoFtjZKEgM9YPSqF6cS1U8=", "properties": {"@source_uri": "https://tools.usps.com/UspsToolsRestServices/rest/POLocator/findLocations", "@spider": "usps_collection_boxes", "addr:city": "CHITTENDEN", "addr:country": "US", "addr:postcode": "05737", "addr:state": "VT", "addr:street_address": "198 CHITTENDEN RD", "amenity": "post_box", "collection_times": "Mo-Fr 11:30; Sa 10:00", "nsi_id": "unitedstatespostalservice-a77078", "operator": "United States Postal Service", "operator:short": "USPS", "operator:type": "public", "operator:wikidata": "Q668687", "ref": "0573700000"}, "type": "Feature"}
{"geometry": {"coordinates": [-72.952476, 43.697398], "type": "Point"}, "id": "dXqKHVk5f8PQTLGBrjhSDH3wEFA=", "properties": {"@source_uri": "https://tools.usps.com/UspsToolsRestServices/rest/POLocator/findLocations", "@spider": "usps_collection_boxes", "addr:city": "CHITTENDEN", "addr:country": "US", "addr:postcode": "05737", "addr:state": "VT", "addr:street_address": "198 CHITTENDEN RD", "amenity": "post_box", "collection_times": "Mo-Fr 11:30; Sa 10:00", "indoor": "yes", "nsi_id": "unitedstatespostalservice-a77078", "operator": "United States Postal Service", "operator:short": "USPS", "operator:type": "public", "operator:wikidata": "Q668687", "ref": "0573700001"}, "type": "Feature"}
{"geometry": {"coordinates": [-72.952478117, 43.697391989], "type": "Point"}, "id": "ilEjHCAWbdqONtCv0MnMy_jpbx8=", "properties": {"@source_uri": "https://tools.usps.com/UspsToolsRestServices/rest/POLocator/findLocations", "@spider": "usps_collection_boxes", "addr:city": "CHITTENDEN", "addr:country": "US", "addr:postcode": "05737", "addr:state": "VT", "addr:street_address": "198 CHITTENDEN RD", "amenity": "post_box", "collection_times": "Mo-Fr 11:30; Sa 10:00", "indoor": "yes", "nsi_id": "unitedstatespostalservice-a77078", "operator": "United States Postal Service", "operator:short": "USPS", "operator:type": "public", "operator:wikidata": "Q668687", "ref": "0573700002"}, "type": "Feature"}
{"geometry": {"coordinates": [-72.8804469, 43.485533], "type": "Point"}, "id": "SFQLE9p-KHvSfmfNBOVg7fDHp2A=", "properties": {"@source_uri": "https://tools.usps.com/UspsToolsRestServices/rest/POLocator/findLocations", "@spider": "usps_collection_boxes", "addr:city": "CUTTINGSVILLE", "addr:country": "US", "addr:postcode": "05738", "addr:state": "VT", "addr:street_address": "5446 VT ROUTE 103", "amenity": "post_box", "collection_times": "Mo-Fr 14:30; Sa 10:15", "note": "ON 12/24 AND 12/31, THIS BOX MAY BE COLLECTED AS EARLY AS 12 NOON.", "nsi_id": "unitedstatespostalservice-a77078", "operator": "United States Postal Service", "operator:short": "USPS", "operator:type": "public", "operator:wikidata": "Q668687", "ref": "0573800000"}, "type": "Feature"}
{"geometry": {"coordinates": [-72.8804582, 43.485546], "type": "Point"}, "id": "g2l-_PoJ0mEXXF2welT7k1ZLyQg=", "properties": {"@source_uri": "https://tools.usps.com/UspsToolsRestServices/rest/POLocator/findLocations", "@spider": "usps_collection_boxes", "addr:city": "CUTTINGSVILLE", "addr:country": "US", "addr:postcode": "05738", "addr:state": "VT", "addr:street_address": "5446 VT ROUTE 103", "amenity": "post_box", "collection_times": "Mo-Fr 14:30; Sa 10:15", "indoor": "yes", "note": "ON 12/24 AND 12/31, THIS BOX MAY BE COLLECTED AS EARLY AS 12 NOON.", "nsi_id": "unitedstatespostalservice-a77078", "operator": "United States Postal Service", "operator:short": "USPS", "operator:type": "public", "operator:wikidata": "Q668687", "ref": "0573800001"}, "type": "Feature"}
{"geometry": {"coordinates": [-72.879769372, 43.485766179], "type": "Point"}, "id": "xk6uWT2uplMDKwbgslPBW_7V434=", "properties": {"@source_uri": "https://tools.usps.com/UspsToolsRestServices/rest/POLocator/findLocations", "@spider": "usps_collection_boxes", "addr:city": "CUTTINGSVILLE", "addr:country": "US", "addr:postcode": "05738", "addr:state": "VT", "addr:street_address": "5446 VT ROUTE 103", "amenity": "post_box", "collection_times": "Mo-Fr 14:30; Sa 11:00", "indoor": "yes", "note": "ON 12/24 AND 12/31, THIS BOX MAY BE COLLECTED AS EARLY AS 12 NOON.", "nsi_id": "unitedstatespostalservice-a77078", "operator": "United States Postal Service", "operator:short": "USPS", "operator:type": "public", "operator:wikidata": "Q668687", "ref": "0573800002"}, "type": "Feature"}
{"geometry": {"coordinates": [-72.996941, 43.350879], "type": "Point"}, "id": "PXFZLdufZEKf9qDeOwxYb2eSovg=", "properties": {"@source_uri": "https://tools.usps.com/UspsToolsRestServices/rest/POLocator/findLocations", "@spider": "usps_collection_boxes", "addr:city": "DANBY", "addr:country": "US", "addr:postcode": "05739", "addr:state": "VT", "addr:street_address": "214 N MAIN ST", "amenity": "post_box", "collection_times": "Mo-Fr 14:15; Sa 10:30", "note": "ON 12/24 AND 12/31, THIS BOX MAY BE COLLECTED AS EARLY AS 12 NOON.", "nsi_id": "unitedstatespostalservice-a77078", "operator": "United States Postal Service", "operator:short": "USPS", "operator:type": "public", "operator:wikidata": "Q668687", "ref": "0573900000"}, "type": "Feature"}
{"geometry": {"coordinates": [-72.996941, 43.350879], "type": "Point"}, "id": "20_g-uLaQRWdFVbsk95r1eVEack=", "properties": {"@source_uri": "https://tools.usps.com/UspsToolsRestServices/rest/POLocator/findLocations", "@spider": "usps_collection_boxes", "addr:city": "DANBY", "addr:country": "US", "addr:postcode": "05739", "addr:state": "VT", "addr:street_address": "214 N MAIN ST", "amenity": "post_box", "collection_times": "Mo-Fr 14:15; Sa 10:45", "indoor": "yes", "note": "ON 12/24 AND 12/31, THIS BOX MAY BE COLLECTED AS EARLY AS 12 NOON.", "nsi_id": "unitedstatespostalservice-a77078", "operator": "United States Postal Service", "operator:short": "USPS", "operator:type": "public", "operator:wikidata": "Q668687", "ref": "0573900001"}, "type": "Feature"}
{"geometry": {"coordinates": [-72.996675037, 43.349752477], "type": "Point"}, "id": "WIlZNNI5fbwIRECIzM0pSGhiP0Q=", "properties": {"@source_uri": "https://tools.usps.com/UspsToolsRestServices/rest/POLocator/findLocations", "@spider": "usps_collection_boxes", "addr:city": "DANBY", "addr:country": "US", "addr:postcode": "05739", "addr:state": "VT", "addr:street_address": "214 N MAIN ST", "amenity": "post_box", "collection_times": "Mo-Fr 14:15; Sa 10:30", "indoor": "yes", "note": "ON 12/24 AND 12/31, THIS BOX MAY BE COLLECTED AS EARLY AS 12 NOON.", "nsi_id": "unitedstatespostalservice-a77078", "operator": "United States Postal Service", "operator:short": "USPS", "operator:type": "public", "operator:wikidata": "Q668687", "ref": "0573900003"}, "type": "Feature"}
{"geometry": {"coordinates": [-73.106265, 43.973424], "type": "Point"}, "id": "ivAzNFWWL37nhAewR3JyuOmmZro=", "properties": {"@source_uri": "https://tools.usps.com/UspsToolsRestServices/rest/POLocator/findLocations", "@spider": "usps_collection_boxes", "addr:city": "EAST MIDDLEBURY", "addr:country": "US", "addr:postcode": "05740", "addr:state": "VT", "addr:street_address": "1 CASE ST", "amenity": "post_box", "collection_times": "Mo-Fr 16:30; Sa 11:30", "note": "ON 12/24 AND 12/31, THIS BOX MAY BE COLLECTED AS EARLY AS 12 NOON.", "nsi_id": "unitedstatespostalservice-a77078", "operator": "United States Postal Service", "operator:short": "USPS", "operator:type": "public", "operator:wikidata": "Q668687", "ref": "0574000000"}, "type": "Feature"}
{"geometry": {"coordinates": [-73.106265, 43.973424], "type": "Point"}, "id": "ihDdRtC2ZXYdY7QAHhQpbbQCq8c=", "properties": {"@source_uri": "https://tools.usps.com/UspsToolsRestServices/rest/POLocator/findLocations", "@spider": "usps_collection_boxes", "addr:city": "EAST MIDDLEBURY", "addr:country": "US", "addr:postcode": "05740", "addr:state": "VT", "addr:street_address": "1 CASE ST", "amenity": "post_box", "collection_times": "Mo-Fr 16:30; Sa 11:30", "indoor": "yes", "note": "ON 12/24 AND 12/31, THIS BOX MAY BE COLLECTED AS EARLY AS 12 NOON.", "nsi_id": "unitedstatespostalservice-a77078", "operator": "United States Postal Service", "operator:short": "USPS", "operator:type": "public", "operator:wikidata": "Q668687", "ref": "0574000001"}, "type": "Feature"}
{"geometry": {"coordinates": [-73.106261668, 43.973585948], "type": "Point"}, "id": "LCQuXh19eJWD98-T8pd_7iFjLW4=", "properties": {"@source_uri": "https://tools.usps.com/UspsToolsRestServices/rest/POLocator/findLocations", "@spider": "usps_collection_boxes", "addr:city": "EAST MIDDLEBURY", "addr:country": "US", "addr:postcode": "05740", "addr:state": "VT", "addr:street_address": "1 CASE ST", "amenity": "post_box", "collection_times": "Mo-Fr 16:30; Sa 11:30", "indoor": "yes", "note": "ON 12/24 AND 12/31, THIS BOX MAY BE COLLECTED AS EARLY AS 12 NOON.", "nsi_id": "unitedstatespostalservice-a77078", "operator": "United States Postal Service", "operator:short": "USPS", "operator:type": "public", "operator:wikidata": "Q668687", "ref": "0574000002"}, "type": "Feature"}
{"geometry": {"coordinates": [-72.8753456, 43.45026], "type": "Point"}, "id": "ekDz3iWhB2ayJWOYiHXQZFmi3d0=", "properties": {"@source_uri": "https://tools.usps.com/UspsToolsRestServices/rest/POLocator/findLocations", "@spider": "usps_collection_boxes", "addr:city": "E WALLINGFORD", "addr:country": "US", "addr:postcode": "05742", "addr:state": "VT", "addr:street_address": "16 VILLAGE ST", "amenity": "post_box", "collection_times": "Mo-Fr 10:45; Sa 09:45", "nsi_id": "unitedstatespostalservice-a77078", "operator": "United States Postal Service", "operator:short": "USPS", "operator:type": "public", "operator:wikidata": "Q668687", "ref": "0574200000"}, "type": "Feature"}
{"geometry": {"coordinates": [-72.8752854, 43.450263], "type": "Point"}, "id": "OJ7Nid05tGok2tW5ic9do1wApFY=", "properties": {"@source_uri": "https://tools.usps.com/UspsToolsRestServices/rest/POLocator/findLocations", "@spider": "usps_collection_boxes", "addr:city": "E WALLINGFORD", "addr:country": "US", "addr:postcode": "05742", "addr:state": "VT", "addr:street_address": "16 VILLAGE ST", "amenity": "post_box", "collection_times": "Mo-Fr 10:45; Sa 09:45", "indoor": "yes", "nsi_id": "unitedstatespostalservice-a77078", "operator": "United States Postal Service", "operator:short": "USPS", "operator:type": "public", "operator:wikidata": "Q668687", "ref": "0574200001"}, "type": "Feature"}
{"geometry": {"coordinates": [-72.875516627, 43.449996216], "type": "Point"}, "id": "VJUz_lTg1G5sj7T9nxo-faAiN90=", "properties": {"@source_uri": "https://tools.usps.com/UspsToolsRestServices/rest/POLocator/findLocations", "@spider": "usps_collection_boxes", "addr:city": "E WALLINGFORD", "addr:country": "US", "addr:postcode": "05742", "addr:state": "VT", "addr:street_address": "16 VILLAGE ST", "amenity": "post_box", "collection_times": "Mo-Fr 11:00; Sa 10:00", "indoor": "yes", "nsi_id": "unitedstatespostalservice-a77078", "operator": "United States Postal Service", "operator:short": "USPS", "operator:type": "public", "operator:wikidata": "Q668687", "ref": "0574200002"}, "type": "Feature"}
{"geometry": {"coordinates": [-73.2658427, 43.59134], "type": "Point"}, "id": "-xX9zG6AP0mh51JFqczJjcu0l70=", "properties": {"@source_uri": "https://tools.usps.com/UspsToolsRestServices/rest/POLocator/findLocations", "@spider": "usps_collection_boxes", "addr:city": "FAIR HAVEN", "addr:country": "US", "addr:postcode": "05743", "addr:state": "VT", "addr:street_address": "1 MARBLE ST", "amenity": "post_box", "collection_times": "Mo-Fr 16:30; Sa 15:15", "note": "ON 12/24 AND 12/31, THIS BOX MAY BE COLLECTED AS EARLY AS 12 NOON.", "nsi_id": "unitedstatespostalservice-a77078", "operator": "United States Postal Service", "operator:short": "USPS", "operator:type": "public", "operator:wikidata": "Q668687", "ref": "0574300000"}, "type": "Feature"}
{"geometry": {"coordinates": [-73.2654256, 43.593126], "type": "Point"}, "id": "iTZVonUsv3eP2dXECcrIFaPBQTU=", "properties": {"@source_uri": "https://tools.usps.com/UspsToolsRestServices/rest/POLocator/findLocations", "@spider": "usps_collection_boxes", "addr:city": "FAIR HAVEN", "addr:country": "US", "addr:postcode": "05743", "addr:state": "VT", "addr:street_address": "87 MAIN ST", "amenity": "post_box", "collection_times": "Mo-Sa 14:00", "note": "ON 12/24 AND 12/31, THIS BOX MAY BE COLLECTED AS EARLY AS 12 NOON.", "nsi_id": "unitedstatespostalservice-a77078", "operator": "United States Postal Service", "operator:short": "USPS", "operator:type": "public", "operator:wikidata": "Q668687", "ref": "0574300006"}, "type": "Feature"}
{"geometry": {"coordinates": [-73.2682898, 43.5957498], "type": "Point"}, "id": "zs92ZV5YOyby48uB-qFLrJ66c8M=", "properties": {"@source_uri": "https://tools.usps.com/UspsToolsRestServices/rest/POLocator/findLocations", "@spider": "usps_collection_boxes", "addr:city": "FAIR HAVEN", "addr:country": "US", "addr:postcode": "05743", "addr:state": "VT", "addr:street_address": "60 WASHINGTON ST", "amenity": "post_box", "collection_times": "Mo-Sa 11:30", "nsi_id": "unitedstatespostalservice-a77078", "operator": "United States Postal Service", "operator:short": "USPS", "operator:type": "public", "operator:wikidata": "Q668687", "ref": "0574300010"}, "type": "Feature"}
{"geometry": {"coordinates": [-73.2660393, 43.591201], "type": "Point"}, "id": "a7OpxW9aVeQ1Tz1cEslidofh_F8=", "properties": {"@source_uri": "https://tools.usps.com/UspsToolsRestServices/rest/POLocator/findLocations", "@spider": "usps_collection_boxes", "addr:city": "FAIR HAVEN", "addr:country": "US", "addr:postcode": "05743", "addr:state": "VT", "addr:street_address": "1 MARBLE ST", "amenity": "post_box", "collection_times": "Mo-Fr 16:30; Sa 15:15", "indoor": "yes", "note": "ON 12/24 AND 12/31, THIS BOX MAY BE COLLECTED AS EARLY AS 12 NOON.", "nsi_id": "unitedstatespostalservice-a77078", "operator": "United States Postal Service", "operator:short": "USPS", "operator:type": "public", "operator:wikidata": "Q668687", "ref": "0574300012"}, "type": "Feature"}
{"geometry": {"coordinates": [-73.265593867, 43.591347503], "type": "Point"}, "id": "HNNPxXHlGCzY-J2qXMAT5P_1U34=", "properties": {"@source_uri": "https://tools.usps.com/UspsToolsRestServices/rest/POLocator/findLocations", "@spider": "usps_collection_boxes", "addr:city": "FAIR HAVEN", "addr:country": "US", "addr:postcode": "05743", "addr:state": "VT", "addr:street_address": "1 MARBLE ST", "amenity": "post_box", "collection_times": "Mo-Fr 16:30; Sa 12:00", "indoor": "yes", "note": "ON 12/24 AND 12/31, THIS BOX MAY BE COLLECTED AS EARLY AS 12 NOON.", "nsi_id": "unitedstatespostalservice-a77078", "operator": "United States Postal Service", "operator:short": "USPS", "operator:type": "public", "operator:wikidata": "Q668687", "ref": "0574300014"}, "type": "Feature"}
{"geometry": {"coordinates": [-73.056643, 43.710445], "type": "Point"}, "id": "SKadBwItdoonfYTK3cc75__YcfU=", "properties": {"@source_uri": "https://tools.usps.com/UspsToolsRestServices/rest/POLocator/findLocations", "@spider": "usps_collection_boxes", "addr:city": "FLORENCE", "addr:country": "US", "addr:postcode": "05744", "addr:state": "VT", "addr:street_address": "1543 W CREEK RD", "amenity": "post_box", "collection_times": "Mo-Fr 16:00; Sa 10:00", "note": "ON 12/24 AND 12/31, THIS BOX MAY BE COLLECTED AS EARLY AS 12 NOON.", "nsi_id": "unitedstatespostalservice-a77078", "operator": "United States Postal Service", "operator:short": "USPS", "operator:type": "public", "operator:wikidata": "Q668687", "ref": "0574400000"}, "type": "Feature"}
{"geometry": {"coordinates": [-73.0567206, 43.7105313], "type": "Point"}, "id": "zR6fAF-w7Lz8c_RPyy_fk4Q7Pe4=", "properties": {"@source_uri": "https://tools.usps.com/UspsToolsRestServices/rest/POLocator/findLocations", "@spider": "usps_collection_boxes", "addr:city": "FLORENCE", "addr:country": "US", "addr:postcode": "05744", "addr:state": "VT", "addr:street_address": "1543 W CREEK RD", "amenity": "post_box", "collection_times": "Mo-Fr 16:00; Sa 10:00", "indoor": "yes", "note": "ON 12/24 AND 12/31, THIS BOX MAY BE COLLECTED AS EARLY AS 12 NOON.", "nsi_id": "unitedstatespostalservice-a77078", "operator": "United States Postal Service", "operator:short": "USPS", "operator:type": "public", "operator:wikidata": "Q668687", "ref": "0574400001"}, "type": "Feature"}
{"geometry": {"coordinates": [-73.0567206, 43.7105313], "type": "Point"}, "id": "H80wNMHNEOEQ41iL119UL2DYIyQ=", "properties": {"@source_uri": "https://tools.usps.com/UspsToolsRestServices/rest/POLocator/findLocations", "@spider": "usps_collection_boxes", "addr:city": "FLORENCE", "addr:country": "US", "addr:postcode": "05744", "addr:state": "VT", "addr:street_address": "1543 W CREEK RD", "amenity": "post_box", "collection_times": "Mo-Fr 16:00; Sa 10:30", "indoor": "yes", "note": "ON 12/24 AND 12/31, THIS BOX MAY BE COLLECTED AS EARLY AS 12 NOON.", "nsi_id": "unitedstatespostalservice-a77078", "operator": "United States Postal Service", "operator:short": "USPS", "operator:type": "public", "operator:wikidata": "Q668687", "ref": "0574400002"}, "type": "Feature"}
{"geometry": {"coordinates": [-73.049728, 43.83049], "type": "Point"}, "id": "1D9iiZyBL8dAhWo9p9iTdZIBnkA=", "properties": {"@source_uri": "https://tools.usps.com/UspsToolsRestServices/rest/POLocator/findLocations", "@spider": "usps_collection_boxes", "addr:city": "FOREST DALE", "addr:country": "US", "addr:postcode": "05745", "addr:state": "VT", "addr:street_address": "233 NORTH ST", "amenity": "post_box", "collection_times": "Mo-Fr 16:30; Sa 10:30", "note": "ON 12/24 AND 12/31, THIS BOX MAY BE COLLECTED AS EARLY AS 12 NOON.", "nsi_id": "unitedstatespostalservice-a77078", "operator": "United States Postal Service", "operator:short": "USPS", "operator:type": "public", "operator:wikidata": "Q668687", "ref": "0574500000"}, "type": "Feature"}
{"geometry": {"coordinates": [-73.049728, 43.83049], "type": "Point"}, "id": "BlRvHMY5REvgyuBPyrMOH6R86fo=", "properties": {"@source_uri": "https://tools.usps.com/UspsToolsRestServices/rest/POLocator/findLocations", "@spider": "usps_collection_boxes", "addr:city": "FOREST DALE", "addr:country": "US", "addr:postcode": "05745", "addr:state": "VT", "addr:street_address": "233 NORTH ST", "amenity": "post_box", "collection_times": "Mo-Fr 16:30; Sa 10:30", "indoor": "yes", "note": "ON 12/24 AND 12/31, THIS BOX MAY BE COLLECTED AS EARLY AS 12 NOON.", "nsi_id": "unitedstatespostalservice-a77078", "operator": "United States Postal Service", "operator:short": "USPS", "operator:type": "public", "operator:wikidata": "Q668687", "ref": "0574500001"}, "type": "Feature"}
{"geometry": {"coordinates": [-73.055034624, 43.830123789], "type": "Point"}, "id": "QcOlQNfDNSia3RAha6ogylasqy4=", "properties": {"@source_uri": "https://tools.usps.com/UspsToolsRestServices/rest/POLocator/findLocations", "@spider": "usps_collection_boxes", "addr:city": "FOREST DALE", "addr:country": "US", "addr:postcode": "05745", "addr:state": "VT", "addr:street_address": "233 NORTH ST", "amenity": "post_box", "collection_times": "Mo-Fr 16:30; Sa 10:30", "indoor": "yes", "note": "ON 12/24 AND 12/31, THIS BOX MAY BE COLLECTED AS EARLY AS 12 NOON.", "nsi_id": "unitedstatespostalservice-a77078", "operator": "United States Postal Service", "operator:short": "USPS", "operator:type": "public", "operator:wikidata": "Q668687", "ref": "0574500003"}, "type": "Feature"}
{"geometry": {"coordinates": [-72.699771, 43.778165], "type": "Point"}, "id": "5lR1wzLDu77cAMt8PBnlDKMABNg=", "properties": {"@source_uri": "https://tools.usps.com/UspsToolsRestServices/rest/POLocator/findLocations", "@spider": "usps_collection_boxes", "addr:city": "GAYSVILLE", "addr:country": "US", "addr:postcode": "05746", "addr:state": "VT", "addr:street_address": "35 BRIDGE ST", "amenity": "post_box", "collection_times": "Mo-Fr 16:30; Sa 11:30", "note": "ON 12/24 AND 12/31, THIS BOX MAY BE COLLECTED AS EARLY AS 12 NOON.", "nsi_id": "unitedstatespostalservice-a77078", "operator": "United States Postal Service", "operator:short": "USPS", "operator:type": "public", "operator:wikidata": "Q668687", "ref": "0574600000"}, "type": "Feature"}
{"geometry": {"coordinates": [-72.699771, 43.778165], "type": "Point"}, "id": "ryimp5qiyFS1QgzS65s3GDrUfoo=", "properties": {"@source_uri": "https://tools.usps.com/UspsToolsRestServices/rest/POLocator/findLocations", "@spider": "usps_collection_boxes", "addr:city": "GAYSVILLE", "addr:country": "US", "addr:postcode": "05746", "addr:state": "VT", "addr:street_address": "35 BRIDGE ST", "amenity": "post_box", "collection_times": "Mo-Fr 16:30; Sa 11:30", "indoor": "yes", "note": "ON 12/24 AND 12/31, THIS BOX MAY BE COLLECTED AS EARLY AS 12 NOON.", "nsi_id": "unitedstatespostalservice-a77078", "operator": "United States Postal Service", "operator:short": "USPS", "operator:type": "public", "operator:wikidata": "Q668687", "ref": "0574600001"}, "type": "Feature"}
{"geometry": {"coordinates": [-72.795073117, 43.73426], "type": "Point"}, "id": "liZK-CdLzHixiYf8D4ssCTbgyuk=", "properties": {"@source_uri": "https://tools.usps.com/UspsToolsRestServices/rest/POLocator/findLocations", "@spider": "usps_collection_boxes", "addr:city": "GAYSVILLE", "addr:country": "US", "addr:postcode": "05746", "addr:state": "VT", "addr:street_address": "35 BRIDGE ST", "amenity": "post_box", "collection_times": "Mo-Fr 16:30; Sa 11:30", "indoor": "yes", "note": "ON 12/24 AND 12/31, THIS BOX MAY BE COLLECTED AS EARLY AS 12 NOON.", "nsi_id": "unitedstatespostalservice-a77078", "operator": "United States Postal Service", "operator:short": "USPS", "operator:type": "public", "operator:wikidata": "Q668687", "ref": "0574600003"}, "type": "Feature"}
{"geometry": {"coordinates": [-72.8420105106, 43.9773094016], "type": "Point"}, "id": "I1ii6VBJ6U62cSXLP35z_6z0TvI=", "properties": {"@source_uri": "https://tools.usps.com/UspsToolsRestServices/rest/POLocator/findLocations", "@spider": "usps_collection_boxes", "addr:city": "GRANVILLE", "addr:country": "US", "addr:postcode": "05747", "addr:state": "VT", "addr:street_address": "4801 VT ROUTE 100", "amenity": "post_box", "collection_times": "Mo-Fr 16:00; Sa 10:15", "indoor": "yes", "note": "ON 12/24 AND 12/31, THIS BOX MAY BE COLLECTED AS EARLY AS 12 NOON.", "nsi_id": "unitedstatespostalservice-a77078", "operator": "United States Postal Service", "operator:short": "USPS", "operator:type": "public", "operator:wikidata": "Q668687", "ref": "0574700002"}, "type": "Feature"}
{"geometry": {"coordinates": [-72.8420105106, 43.9773094016], "type": "Point"}, "id": "k331ot5iZq40ZMuNnkZcB3skWYY=", "properties": {"@source_uri": "https://tools.usps.com/UspsToolsRestServices/rest/POLocator/findLocations", "@spider": "usps_collection_boxes", "addr:city": "GRANVILLE", "addr:country": "US", "addr:postcode": "05747", "addr:state": "VT", "addr:street_address": "4801 VT ROUTE 100", "amenity": "post_box", "collection_times": "Mo-Fr 16:00; Sa 10:15", "indoor": "yes", "note": "ON 12/24 AND 12/31, THIS BOX MAY BE COLLECTED AS EARLY AS 12 NOON.", "nsi_id": "unitedstatespostalservice-a77078", "operator": "United States Postal Service", "operator:short": "USPS", "operator:type": "public", "operator:wikidata": "Q668687", "ref": "0574700003"}, "type": "Feature"}
{"geometry": {"coordinates": [-72.840256, 43.921496], "type": "Point"}, "id": "nZY9w7ekCdlxvwFz47IzSgkrdK8=", "properties": {"@source_uri": "https://tools.usps.com/UspsToolsRestServices/rest/POLocator/findLocations", "@spider": "usps_collection_boxes", "addr:city": "HANCOCK", "addr:country": "US", "addr:postcode": "05748", "addr:state": "VT", "addr:street_address": "882 VT ROUTE 100", "amenity": "post_box", "collection_times": "Mo-Fr 11:30; Sa 10:00", "nsi_id": "unitedstatespostalservice-a77078", "operator": "United States Postal Service", "operator:short": "USPS", "operator:type": "public", "operator:wikidata": "Q668687", "ref": "0574800001"}, "type": "Feature"}
{"geometry": {"coordinates": [-72.840219, 43.9215], "type": "Point"}, "id": "iJ6t-eA64aYObD4o0OSnPGnLKlI=", "properties": {"@source_uri": "https://tools.usps.com/UspsToolsRestServices/rest/POLocator/findLocations", "@spider": "usps_collection_boxes", "addr:city": "HANCOCK", "addr:country": "US", "addr:postcode": "05748", "addr:state": "VT", "addr:street_address": "882 VT ROUTE 100", "amenity": "post_box", "collection_times": "Mo-Fr 11:30; Sa 10:00", "indoor": "yes", "nsi_id": "unitedstatespostalservice-a77078", "operator": "United States Postal Service", "operator:short": "USPS", "operator:type": "public", "operator:wikidata": "Q668687", "ref": "0574800002"}, "type": "Feature"}
{"geometry": {"coordinates": [-72.840290002, 43.921616103], "type": "Point"}, "id": "4lLm-hSaRavO7GhezZJfohfFvpQ=", "properties": {"@source_uri": "https://tools.usps.com/UspsToolsRestServices/rest/POLocator/findLocations", "@spider": "usps_collection_boxes", "addr:city": "HANCOCK", "addr:country": "US", "addr:postcode": "05748", "addr:state": "VT", "addr:street_address": "882 VT ROUTE 100", "amenity": "post_box", "collection_times": "Mo-Fr 11:30; Sa 10:15", "indoor": "yes", "nsi_id": "unitedstatespostalservice-a77078", "operator": "United States Postal Service", "operator:short": "USPS", "operator:type": "public", "operator:wikidata": "Q668687", "ref": "0574800003"}, "type": "Feature"}
{"geometry": {"coordinates": [-73.226458, 43.607122], "type": "Point"}, "id": "A7MNdODN__qnUq329IDMspfUE4M=", "properties": {"@source_uri": "https://tools.usps.com/UspsToolsRestServices/rest/POLocator/findLocations", "@spider": "usps_collection_boxes", "addr:city": "HYDEVILLE", "addr:country": "US", "addr:postcode": "05750", "addr:state": "VT", "addr:street_address": "912 ROUTE 4A W", "amenity": "post_box", "collection_times": "Mo-Fr 16:30; Sa 11:30", "note": "ON 12/24 AND 12/31, THIS BOX MAY BE COLLECTED AS EARLY AS 12 NOON.", "nsi_id": "unitedstatespostalservice-a77078", "operator": "United States Postal Service", "operator:short": "USPS", "operator:type": "public", "operator:wikidata": "Q668687", "ref": "0575000000"}, "type": "Feature"}
{"geometry": {"coordinates": [-73.226458, 43.607122], "type": "Point"}, "id": "9vylcjvOiDd4Or375f0dceJp4eo=", "properties": {"@source_uri": "https://tools.usps.com/UspsToolsRestServices/rest/POLocator/findLocations", "@spider": "usps_collection_boxes", "addr:city": "HYDEVILLE", "addr:country": "US", "addr:postcode": "05750", "addr:state": "VT", "addr:street_address": "912 ROUTE 4A W", "amenity": "post_box", "collection_times": "Mo-Fr 16:30; Sa 11:30", "indoor": "yes", "note": "ON 12/24 AND 12/31, THIS BOX MAY BE COLLECTED AS EARLY AS 12 NOON.", "nsi_id": "unitedstatespostalservice-a77078", "operator": "United States Postal Service", "operator:short": "USPS", "operator:type": "public", "operator:wikidata": "Q668687", "ref": "0575000001"}, "type": "Feature"}
{"geometry": {"coordinates": [-73.226411171, 43.607146859], "type": "Point"}, "id": "xXnkHzmJmrdY7b4HJ9PnABVNZf8=", "properties": {"@source_uri": "https://tools.usps.com/UspsToolsRestServices/rest/POLocator/findLocations", "@spider": "usps_collection_boxes", "addr:city": "HYDEVILLE", "addr:country": "US", "addr:postcode": "05750", "addr:state": "VT", "addr:street_address": "912 ROUTE 4A W", "amenity": "post_box", "collection_times": "Mo-Fr 16:30; Sa 11:30", "indoor": "yes", "note": "ON 12/24 AND 12/31, THIS BOX MAY BE COLLECTED AS EARLY AS 12 NOON.", "nsi_id": "unitedstatespostalservice-a77078", "operator": "United States Postal Service", "operator:short": "USPS", "operator:type": "public", "operator:wikidata": "Q668687", "ref": "0575000003"}, "type": "Feature"}
{"geometry": {"coordinates": [-72.7880319, 43.644174], "type": "Point"}, "id": "3pPM3872Aqoj2sxQNxUV-5d5aPI=", "properties": {"@source_uri": "https://tools.usps.com/UspsToolsRestServices/rest/POLocator/findLocations", "@spider": "usps_collection_boxes", "addr:city": "KILLINGTON", "addr:country": "US", "addr:postcode": "05751", "addr:state": "VT", "addr:street_address": "2023 KILLINGTON RD", "amenity": "post_box", "collection_times": "Mo-Sa 10:00", "nsi_id": "unitedstatespostalservice-a77078", "operator": "United States Postal Service", "operator:short": "USPS", "operator:type": "public", "operator:wikidata": "Q668687", "ref": "0575100001"}, "type": "Feature"}
{"geometry": {"coordinates": [-72.808488, 43.667184], "type": "Point"}, "id": "sfMRLh-BkZ_hWGiGLRxAD909gsU=", "properties": {"@source_uri": "https://tools.usps.com/UspsToolsRestServices/rest/POLocator/findLocations", "@spider": "usps_collection_boxes", "addr:city": "KILLINGTON", "addr:country": "US", "addr:postcode": "05751", "addr:state": "VT", "addr:street_address": "2046 ROUTE 4", "amenity": "post_box", "collection_times": "Mo-Fr 16:30; Sa 12:00", "note": "ON 12/24 AND 12/31, THIS BOX MAY BE COLLECTED AS EARLY AS 12 NOON.", "nsi_id": "unitedstatespostalservice-a77078", "operator": "United States Postal Service", "operator:short": "USPS", "operator:type": "public", "operator:wikidata": "Q668687", "ref": "0575100003"}, "type": "Feature"}
{"geometry": {"coordinates": [-72.808469, 43.66723], "type": "Point"}, "id": "FbXFvmsVGz2MObfWtyaNiNXd7-4=", "properties": {"@source_uri": "https://tools.usps.com/UspsToolsRestServices/rest/POLocator/findLocations", "@spider": "usps_collection_boxes", "addr:city": "KILLINGTON", "addr:country": "US", "addr:postcode": "05751", "addr:state": "VT", "addr:street_address": "2046 ROUTE 4", "amenity": "post_box", "collection_times": "Mo-Fr 16:30; Sa 12:00", "indoor": "yes", "note": "ON 12/24 AND 12/31, THIS BOX MAY BE COLLECTED AS EARLY AS 12 NOON.", "nsi_id": "unitedstatespostalservice-a77078", "operator": "United States Postal Service", "operator:short": "USPS", "operator:type": "public", "operator:wikidata": "Q668687", "ref": "0575100005"}, "type": "Feature"}
{"geometry": {"coordinates": [-72.809617858, 43.666483905], "type": "Point"}, "id": "RrmBkeVefuWgP-5kJ0HaMWn4oFQ=", "properties": {"@source_uri": "https://tools.usps.com/UspsToolsRestServices/rest/POLocator/findLocations", "@spider": "usps_collection_boxes", "addr:city": "KILLINGTON", "addr:country": "US", "addr:postcode": "05751", "addr:state": "VT", "addr:street_address": "2046 ROUTE 4", "amenity": "post_box", "collection_times": "Mo-Fr 16:30; Sa 12:00", "indoor": "yes", "note": "ON 12/24 AND 12/31, THIS BOX MAY BE COLLECTED AS EARLY AS 12 NOON.", "nsi_id": "unitedstatespostalservice-a77078", "operator": "United States Postal Service", "operator:short": "USPS", "operator:type": "public", "operator:wikidata": "Q668687", "ref": "0575100006"}, "type": "Feature"}
{"geometry": {"coordinates": [-73.1701123, 44.014944], "type": "Point"}, "id": "KdBc5lZOtD7pYyD2s8oux_6g6IU=", "properties": {"@source_uri": "https://tools.usps.com/UspsToolsRestServices/rest/POLocator/findLocations", "@spider": "usps_collection_boxes", "addr:city": "MIDDLEBURY", "addr:country": "US", "addr:postcode": "05753", "addr:state": "VT", "addr:street_address": "137 MAPLE ST", "amenity": "post_box", "collection_times": "Mo-Fr 11:00; Sa 10:00", "nsi_id": "unitedstatespostalservice-a77078", "operator": "United States Postal Service", "operator:short": "USPS", "operator:type": "public", "operator:wikidata": "Q668687", "ref": "0575300006"}, "type": "Feature"}
{"geometry": {"coordinates": [-73.1695257, 43.998957], "type": "Point"}, "id": "RFgpJMiZDtGwza5kuD6aiqQ7cUE=", "properties": {"@source_uri": "https://tools.usps.com/UspsToolsRestServices/rest/POLocator/findLocations", "@spider": "usps_collection_boxes", "addr:city": "MIDDLEBURY", "addr:country": "US", "addr:postcode": "05753", "addr:state": "VT", "addr:street_address": "30 PORTER DR", "amenity": "post_box", "collection_times": "Mo-Fr 09:45", "nsi_id": "unitedstatespostalservice-a77078", "operator": "United States Postal Service", "operator:short": "USPS", "operator:type": "public", "operator:wikidata": "Q668687", "ref": "0575300007"}, "type": "Feature"}
{"geometry": {"coordinates": [-73.1768152, 44.008067], "type": "Point"}, "id": "WxSCFJT314rN0uWHx57lxVssOt4=", "properties": {"@source_uri": "https://tools.usps.com/UspsToolsRestServices/rest/POLocator/findLocations", "@spider": "usps_collection_boxes", "addr:city": "MIDDLEBURY", "addr:country": "US", "addr:postcode": "05753", "addr:state": "VT", "addr:street_address": "14 OLD CHAPEL RD", "amenity": "post_box", "collection_times": "Mo-Fr 11:00; Sa 10:00", "nsi_id": "unitedstatespostalservice-a77078", "operator": "United States Postal Service", "operator:short": "USPS", "operator:type": "public", "operator:wikidata": "Q668687", "ref": "0575300008"}, "type": "Feature"}
{"geometry": {"coordinates": [-73.1769988, 44.010507], "type": "Point"}, "id": "UPySVj6tIzZXzeLRTni7D5Oqg4M=", "properties": {"@source_uri": "https://tools.usps.com/UspsToolsRestServices/rest/POLocator/findLocations", "@spider": "usps_collection_boxes", "addr:city": "MIDDLEBURY", "addr:country": "US", "addr:postcode": "05753", "addr:state": "VT", "addr:street_address": "356 COLLEGE ST", "amenity": "post_box", "collection_times": "Mo-Sa 11:00", "nsi_id": "unitedstatespostalservice-a77078", "operator": "United States Postal Service", "operator:short": "USPS", "operator:type": "public", "operator:wikidata": "Q668687", "ref": "0575300011"}, "type": "Feature"}
{"geometry": {"coordinates": [-73.1688513, 44.01229], "type": "Point"}, "id": "mioIV8K_feGIGCSX0r5YkxY8eGk=", "properties": {"@source_uri": "https://tools.usps.com/UspsToolsRestServices/rest/POLocator/findLocations", "@spider": "usps_collection_boxes", "addr:city": "MIDDLEBURY", "addr:country": "US", "addr:postcode": "05753", "addr:state": "VT", "addr:street_address": "77 MAIN ST", "amenity": "post_box", "collection_times": "Mo-Sa 10:00", "nsi_id": "unitedstatespostalservice-a77078", "operator": "United States Postal Service", "operator:short": "USPS", "operator:type": "public", "operator:wikidata": "Q668687", "ref": "0575300012"}, "type": "Feature"}
{"geometry": {"coordinates": [-73.1639749, 44.011152], "type": "Point"}, "id": "_lmrdvQKn4BrX343MQrQldzIDZg=", "properties": {"@source_uri": "https://tools.usps.com/UspsToolsRestServices/rest/POLocator/findLocations", "@spider": "usps_collection_boxes", "addr:city": "MIDDLEBURY", "addr:country": "US", "addr:postcode": "05753", "addr:state": "VT", "addr:street_address": "36 COURT ST PLZ", "amenity": "post_box", "collection_times": "Mo-Sa 12:00", "nsi_id": "unitedstatespostalservice-a77078", "operator": "United States Postal Service", "operator:short": "USPS", "operator:type": "public", "operator:wikidata": "Q668687", "ref": "0575300013"}, "type": "Feature"}
{"geometry": {"coordinates": [-73.1558199162, 44.0033300818], "type": "Point"}, "id": "HHk1B5mvBCjqHQZk4U27Jg3IcYg=", "properties": {"@source_uri": "https://tools.usps.com/UspsToolsRestServices/rest/POLocator/findLocations", "@spider": "usps_collection_boxes", "addr:city": "MIDDLEBURY", "addr:country": "US", "addr:postcode": "05753", "addr:state": "VT", "addr:street_address": "198 COURT ST", "amenity": "post_box", "collection_times": "Mo-Sa 11:30", "nsi_id": "unitedstatespostalservice-a77078", "operator": "United States Postal Service", "operator:short": "USPS", "operator:type": "public", "operator:wikidata": "Q668687", "ref": "0575300014"}, "type": "Feature"}
{"geometry": {"coordinates": [-73.164109, 44.014358], "type": "Point"}, "id": "gbEMhJ23ItS0QcNmcwZqQcPEx_Y=", "properties": {"@source_uri": "https://tools.usps.com/UspsToolsRestServices/rest/POLocator/findLocations", "@spider": "usps_collection_boxes", "addr:city": "MIDDLEBURY", "addr:country": "US", "addr:postcode": "05753", "addr:state": "VT", "addr:street_address": "8 WASHINGTON ST", "amenity": "post_box", "collection_times": "Mo-Sa 12:00", "nsi_id": "unitedstatespostalservice-a77078", "operator": "United States Postal Service", "operator:short": "USPS", "operator:type": "public", "operator:wikidata": "Q668687", "ref": "0575300015"}, "type": "Feature"}
{"geometry": {"coordinates": [-73.167437, 44.014787], "type": "Point"}, "id": "wH4wxpRYo6rP7PHVH7wfz1U5mzs=", "properties": {"@source_uri": "https://tools.usps.com/UspsToolsRestServices/rest/POLocator/findLocations", "@spider": "usps_collection_boxes", "addr:city": "MIDDLEBURY", "addr:country": "US", "addr:postcode": "05753", "addr:state": "VT", "addr:street_address": "10 MAIN ST", "amenity": "post_box", "collection_times": "Mo-Fr 16:45; Sa 15:00", "note": "ON 12/24 AND 12/31, THIS BOX MAY BE COLLECTED AS EARLY AS 12 NOON.", "nsi_id": "unitedstatespostalservice-a77078", "operator": "United States Postal Service", "operator:short": "USPS", "operator:type": "public", "operator:wikidata": "Q668687", "ref": "0575300024"}, "type": "Feature"}
{"geometry": {"coordinates": [-73.1587976, 44.003896], "type": "Point"}, "id": "sviuJZacGrYo5ywCp-bDEIjU_9U=", "properties": {"@source_uri": "https://tools.usps.com/UspsToolsRestServices/rest/POLocator/findLocations", "@spider": "usps_collection_boxes", "addr:city": "MIDDLEBURY", "addr:country": "US", "addr:postcode": "05753", "addr:state": "VT", "addr:street_address": "156 S VILLAGE GRN", "amenity": "post_box", "collection_times": "Mo-Fr 10:00", "nsi_id": "unitedstatespostalservice-a77078", "operator": "United States Postal Service", "operator:short": "USPS", "operator:type": "public", "operator:wikidata": "Q668687", "ref": "0575300025"}, "type": "Feature"}
{"geometry": {"coordinates": [-73.167437, 44.014787], "type": "Point"}, "id": "AG9LAbsEU6_2WQF3XehY0crqaeY=", "properties": {"@source_uri": "https://tools.usps.com/UspsToolsRestServices/rest/POLocator/findLocations", "@spider": "usps_collection_boxes", "addr:city": "MIDDLEBURY", "addr:country": "US", "addr:postcode": "05753", "addr:state": "VT", "addr:street_address": "10 MAIN ST", "amenity": "post_box", "collection_times": "Mo-Fr 17:00; Sa 15:00", "indoor": "yes", "note": "ON 12/24 AND 12/31, THIS BOX MAY BE COLLECTED AS EARLY AS 12 NOON.", "nsi_id": "unitedstatespostalservice-a77078", "operator": "United States Postal Service", "operator:short": "USPS", "operator:type": "public", "operator:wikidata": "Q668687", "ref": "0575300026"}, "type": "Feature"}
{"geometry": {"coordinates": [-73.170877, 44.028246], "type": "Point"}, "id": "R_dUv5l8fa-moYwvecvX_inXb9o=", "properties": {"@source_uri": "https://tools.usps.com/UspsToolsRestServices/rest/POLocator/findLocations", "@spider": "usps_collection_boxes", "addr:city": "MIDDLEBURY", "addr:country": "US", "addr:postcode": "05753", "addr:state": "VT", "addr:street_address": "658 EXCHANGE ST", "amenity": "post_box", "collection_times": "Mo-Fr 16:45; Sa 15:00", "note": "ON 12/24 AND 12/31, THIS BOX MAY BE COLLECTED AS EARLY AS 12 NOON.", "nsi_id": "unitedstatespostalservice-a77078", "operator": "United States Postal Service", "operator:short": "USPS", "operator:type": "public", "operator:wikidata": "Q668687", "ref": "0575300029"}, "type": "Feature"}
{"geometry": {"coordinates": [-73.167722631, 44.0146122], "type": "Point"}, "id": "fmhJbM9oa8HF5bKvEMcRUHS2ArU=", "properties": {"@source_uri": "https://tools.usps.com/UspsToolsRestServices/rest/POLocator/findLocations", "@spider": "usps_collection_boxes", "addr:city": "MIDDLEBURY", "addr:country": "US", "addr:postcode": "05753", "addr:state": "VT", "addr:street_address": "10 MAIN ST", "amenity": "post_box", "collection_times": "Mo-Fr 17:00; Sa 12:00", "indoor": "yes", "note": "ON 12/24 AND 12/31, THIS BOX MAY BE COLLECTED AS EARLY AS 12 NOON.", "nsi_id": "unitedstatespostalservice-a77078", "operator": "United States Postal Service", "operator:short": "USPS", "operator:type": "public", "operator:wikidata": "Q668687", "ref": "0575300031"}, "type": "Feature"}
{"geometry": {"coordinates": [-73.118388, 43.484068], "type": "Point"}, "id": "xSOAiTujfzsLAIGc2WPePYUK-vo=", "properties": {"@source_uri": "https://tools.usps.com/UspsToolsRestServices/rest/POLocator/findLocations", "@spider": "usps_collection_boxes", "addr:city": "MIDDLETWN SPG", "addr:country": "US", "addr:postcode": "05757", "addr:state": "VT", "addr:street_address": "17 SOUTH ST", "amenity": "post_box", "collection_times": "Mo-Fr 14:30; Sa 11:00", "note": "ON 12/24 AND 12/31, THIS BOX MAY BE COLLECTED AS EARLY AS 12 NOON.", "nsi_id": "unitedstatespostalservice-a77078", "operator": "United States Postal Service", "operator:short": "USPS", "operator:type": "public", "operator:wikidata": "Q668687", "ref": "0575700000"}, "type": "Feature"}
{"geometry": {"coordinates": [-73.118417, 43.484161], "type": "Point"}, "id": "qoKopQMsDARBv28U9e16tfzawNs=", "properties": {"@source_uri": "https://tools.usps.com/UspsToolsRestServices/rest/POLocator/findLocations", "@spider": "usps_collection_boxes", "addr:city": "MIDDLETWN SPG", "addr:country": "US", "addr:postcode": "05757", "addr:state": "VT", "addr:street_address": "17 SOUTH ST", "amenity": "post_box", "collection_times": "Mo-Fr 14:30; Sa 11:00", "indoor": "yes", "note": "ON 12/24 AND 12/31, THIS BOX MAY BE COLLECTED AS EARLY AS 12 NOON.", "nsi_id": "unitedstatespostalservice-a77078", "operator": "United States Postal Service", "operator:short": "USPS", "operator:type": "public", "operator:wikidata": "Q668687", "ref": "0575700001"}, "type": "Feature"}
{"geometry": {"coordinates": [-73.118426444, 43.483821308], "type": "Point"}, "id": "h-QpNM8CDTVMHvBwrQ3Va1DTseo=", "properties": {"@source_uri": "https://tools.usps.com/UspsToolsRestServices/rest/POLocator/findLocations", "@spider": "usps_collection_boxes", "addr:city": "MIDDLETWN SPG", "addr:country": "US", "addr:postcode": "05757", "addr:state": "VT", "addr:street_address": "17 SOUTH ST", "amenity": "post_box", "collection_times": "Mo-Fr 14:30; Sa 11:00", "indoor": "yes", "note": "ON 12/24 AND 12/31, THIS BOX MAY BE COLLECTED AS EARLY AS 12 NOON.", "nsi_id": "unitedstatespostalservice-a77078", "operator": "United States Postal Service", "operator:short": "USPS", "operator:type": "public", "operator:wikidata": "Q668687", "ref": "0575700003"}, "type": "Feature"}
{"geometry": {"coordinates": [-72.966995, 43.564843], "type": "Point"}, "id": "Zm0xVCTzQeoGLHNVH3SgwXE2sYE=", "properties": {"@source_uri": "https://tools.usps.com/UspsToolsRestServices/rest/POLocator/findLocations", "@spider": "usps_collection_boxes", "addr:city": "NORTH CLARENDON", "addr:country": "US", "addr:postcode": "05759", "addr:state": "VT", "addr:street_address": "47 MOULTON AVE", "amenity": "post_box", "collection_times": "Mo-Fr 16:30; Sa 10:00", "note": "ON 12/24 AND 12/31, THIS BOX MAY BE COLLECTED AS EARLY AS 12 NOON.", "nsi_id": "unitedstatespostalservice-a77078", "operator": "United States Postal Service", "operator:short": "USPS", "operator:type": "public", "operator:wikidata": "Q668687", "ref": "0575900000"}, "type": "Feature"}
{"geometry": {"coordinates": [-72.966976, 43.564872], "type": "Point"}, "id": "bkbk9aPeLREN8JSXLyTCqOtwFXU=", "properties": {"@source_uri": "https://tools.usps.com/UspsToolsRestServices/rest/POLocator/findLocations", "@spider": "usps_collection_boxes", "addr:city": "NORTH CLARENDON", "addr:country": "US", "addr:postcode": "05759", "addr:state": "VT", "addr:street_address": "47 MOULTON AVE", "amenity": "post_box", "collection_times": "Mo-Fr 16:30; Sa 10:00", "indoor": "yes", "note": "ON 12/24 AND 12/31, THIS BOX MAY BE COLLECTED AS EARLY AS 12 NOON.", "nsi_id": "unitedstatespostalservice-a77078", "operator": "United States Postal Service", "operator:short": "USPS", "operator:type": "public", "operator:wikidata": "Q668687", "ref": "0575900001"}, "type": "Feature"}
{"geometry": {"coordinates": [-72.966850376, 43.564851609], "type": "Point"}, "id": "CX0XP8hnsed-DxU_-xhzZ5FpmrU=", "properties": {"@source_uri": "https://tools.usps.com/UspsToolsRestServices/rest/POLocator/findLocations", "@spider": "usps_collection_boxes", "addr:city": "NORTH CLARENDON", "addr:country": "US", "addr:postcode": "05759", "addr:state": "VT", "addr:street_address": "47 MOULTON AVE", "amenity": "post_box", "collection_times": "Mo-Fr 16:30; Sa 10:00", "indoor": "yes", "note": "ON 12/24 AND 12/31, THIS BOX MAY BE COLLECTED AS EARLY AS 12 NOON.", "nsi_id": "unitedstatespostalservice-a77078", "operator": "United States Postal Service", "operator:short": "USPS", "operator:type": "public", "operator:wikidata": "Q668687", "ref": "0575900002"}, "type": "Feature"}
{"geometry": {"coordinates": [-73.297065, 43.80385], "type": "Point"}, "id": "lRJDSvRO0OMq6OagvJnKfpUh88E=", "properties": {"@source_uri": "https://tools.usps.com/UspsToolsRestServices/rest/POLocator/findLocations", "@spider": "usps_collection_boxes", "addr:city": "ORWELL", "addr:country": "US", "addr:postcode": "05760", "addr:state": "VT", "addr:street_address": "538 MAIN ST", "amenity": "post_box", "collection_times": "Mo-Fr 14:15; Sa 11:00", "note": "ON 12/24 AND 12/31, THIS BOX MAY BE COLLECTED AS EARLY AS 12 NOON.", "nsi_id": "unitedstatespostalservice-a77078", "operator": "United States Postal Service", "operator:short": "USPS", "operator:type": "public", "operator:wikidata": "Q668687", "ref": "0576000000"}, "type": "Feature"}
{"geometry": {"coordinates": [-73.29699, 43.803828], "type": "Point"}, "id": "ve-Qi6QpgTxEPBR4dSsNrXlBNmk=", "properties": {"@source_uri": "https://tools.usps.com/UspsToolsRestServices/rest/POLocator/findLocations", "@spider": "usps_collection_boxes", "addr:city": "ORWELL", "addr:country": "US", "addr:postcode": "05760", "addr:state": "VT", "addr:street_address": "538 MAIN ST", "amenity": "post_box", "collection_times": "Mo-Fr 14:15; Sa 11:00", "indoor": "yes", "note": "ON 12/24 AND 12/31, THIS BOX MAY BE COLLECTED AS EARLY AS 12 NOON.", "nsi_id": "unitedstatespostalservice-a77078", "operator": "United States Postal Service", "operator:short": "USPS", "operator:type": "public", "operator:wikidata": "Q668687", "ref": "0576000001"}, "type": "Feature"}
{"geometry": {"coordinates": [-73.296914537, 43.803851468], "type": "Point"}, "id": "SN2CU_Q4FtLJLXnFmpEqmC4Bg7s=", "properties": {"@source_uri": "https://tools.usps.com/UspsToolsRestServices/rest/POLocator/findLocations", "@spider": "usps_collection_boxes", "addr:city": "ORWELL", "addr:country": "US", "addr:postcode": "05760", "addr:state": "VT", "addr:street_address": "538 MAIN ST", "amenity": "post_box", "collection_times": "Mo-Fr 14:15; Sa 11:00", "indoor": "yes", "note": "ON 12/24 AND 12/31, THIS BOX MAY BE COLLECTED AS EARLY AS 12 NOON.", "nsi_id": "unitedstatespostalservice-a77078", "operator": "United States Postal Service", "operator:short": "USPS", "operator:type": "public", "operator:wikidata": "Q668687", "ref": "0576000002"}, "type": "Feature"}
{"geometry": {"coordinates": [-73.178155, 43.346937], "type": "Point"}, "id": "PbNJR3uLfD4CEnKwCGvXstAuSLU=", "properties": {"@source_uri": "https://tools.usps.com/UspsToolsRestServices/rest/POLocator/findLocations", "@spider": "usps_collection_boxes", "addr:city": "PAWLET", "addr:country": "US", "addr:postcode": "05761", "addr:state": "VT", "addr:street_address": "5707 VT ROUTE 30", "amenity": "post_box", "collection_times": "Mo-Fr 14:00; Sa 10:45", "note": "ON 12/24 AND 12/31, THIS BOX MAY BE COLLECTED AS EARLY AS 12 NOON.", "nsi_id": "unitedstatespostalservice-a77078", "operator": "United States Postal Service", "operator:short": "USPS", "operator:type": "public", "operator:wikidata": "Q668687", "ref": "0576100000"}, "type": "Feature"}
{"geometry": {"coordinates": [-73.178155, 43.346937], "type": "Point"}, "id": "jDbRzCuh113LM-R8TuuDVlbe3vg=", "properties": {"@source_uri": "https://tools.usps.com/UspsToolsRestServices/rest/POLocator/findLocations", "@spider": "usps_collection_boxes", "addr:city": "PAWLET", "addr:country": "US", "addr:postcode": "05761", "addr:state": "VT", "addr:street_address": "5707 VT ROUTE 30 LBBY MIXED", "amenity": "post_box", "collection_times": "Mo-Fr 14:00; Sa 10:45", "indoor": "yes", "note": "ON 12/24 AND 12/31, THIS BOX MAY BE COLLECTED AS EARLY AS 12 NOON.", "nsi_id": "unitedstatespostalservice-a77078", "operator": "United States Postal Service", "operator:short": "USPS", "operator:type": "public", "operator:wikidata": "Q668687", "ref": "0576100002"}, "type": "Feature"}
{"geometry": {"coordinates": [-73.177691323, 43.34678476], "type": "Point"}, "id": "W5I41mCttljI_WdMZMxp5P6-iGQ=", "properties": {"@source_uri": "https://tools.usps.com/UspsToolsRestServices/rest/POLocator/findLocations", "@spider": "usps_collection_boxes", "addr:city": "PAWLET", "addr:country": "US", "addr:postcode": "05761", "addr:state": "VT", "addr:street_address": "5707 VT ROUTE 30", "amenity": "post_box", "collection_times": "Mo-Fr 14:00; Sa 10:45", "indoor": "yes", "note": "ON 12/24 AND 12/31, THIS BOX MAY BE COLLECTED AS EARLY AS 12 NOON.", "nsi_id": "unitedstatespostalservice-a77078", "operator": "United States Postal Service", "operator:short": "USPS", "operator:type": "public", "operator:wikidata": "Q668687", "ref": "0576100003"}, "type": "Feature"}
{"geometry": {"coordinates": [-72.813051, 43.772539], "type": "Point"}, "id": "vwV8bBlRXEmcqh57O7Fnf0WfO1A=", "properties": {"@source_uri": "https://tools.usps.com/UspsToolsRestServices/rest/POLocator/findLocations", "@spider": "usps_collection_boxes", "addr:city": "PITTSFIELD", "addr:country": "US", "addr:postcode": "05762", "addr:state": "VT", "addr:street_address": "3934 ROUTE 100", "amenity": "post_box", "collection_times": "Mo-Fr 16:30; Sa 11:30", "note": "ON 12/24 AND 12/31, THIS BOX MAY BE COLLECTED AS EARLY AS 12 NOON.", "nsi_id": "unitedstatespostalservice-a77078", "operator": "United States Postal Service", "operator:short": "USPS", "operator:type": "public", "operator:wikidata": "Q668687", "ref": "0576200000"}, "type": "Feature"}
{"geometry": {"coordinates": [-72.813088, 43.772519], "type": "Point"}, "id": "DQSH3ijnaH3m8ReaJ4ZlsZrRHDY=", "properties": {"@source_uri": "https://tools.usps.com/UspsToolsRestServices/rest/POLocator/findLocations", "@spider": "usps_collection_boxes", "addr:city": "PITTSFIELD", "addr:country": "US", "addr:postcode": "05762", "addr:state": "VT", "addr:street_address": "3934 ROUTE 100", "amenity": "post_box", "collection_times": "Mo-Fr 16:30; Sa 11:30", "indoor": "yes", "note": "ON 12/24 AND 12/31, THIS BOX MAY BE COLLECTED AS EARLY AS 12 NOON.", "nsi_id": "unitedstatespostalservice-a77078", "operator": "United States Postal Service", "operator:short": "USPS", "operator:type": "public", "operator:wikidata": "Q668687", "ref": "0576200001"}, "type": "Feature"}
{"geometry": {"coordinates": [-72.813040511, 43.772373063], "type": "Point"}, "id": "9SLviTFYdmrdzcvDjNuiBnkSdUo=", "properties": {"@source_uri": "https://tools.usps.com/UspsToolsRestServices/rest/POLocator/findLocations", "@spider": "usps_collection_boxes", "addr:city": "PITTSFIELD", "addr:country": "US", "addr:postcode": "05762", "addr:state": "VT", "addr:street_address": "3934 ROUTE 100", "amenity": "post_box", "collection_times": "Mo-Fr 16:30; Sa 11:30", "indoor": "yes", "note": "ON 12/24 AND 12/31, THIS BOX MAY BE COLLECTED AS EARLY AS 12 NOON.", "nsi_id": "unitedstatespostalservice-a77078", "operator": "United States Postal Service", "operator:short": "USPS", "operator:type": "public", "operator:wikidata": "Q668687", "ref": "0576200003"}, "type": "Feature"}
{"geometry": {"coordinates": [-73.026956, 43.706017], "type": "Point"}, "id": "efYHVnzomvkPu824nOahiERU4c0=", "properties": {"@source_uri": "https://tools.usps.com/UspsToolsRestServices/rest/POLocator/findLocations", "@spider": "usps_collection_boxes", "addr:city": "PITTSFORD", "addr:country": "US", "addr:postcode": "05763", "addr:state": "VT", "addr:street_address": "853 ARCH ST", "amenity": "post_box", "collection_times": "Mo-Fr 16:30; Sa 11:00", "note": "ON 12/24 AND 12/31, THIS BOX MAY BE COLLECTED AS EARLY AS 12 NOON.", "nsi_id": "unitedstatespostalservice-a77078", "operator": "United States Postal Service", "operator:short": "USPS", "operator:type": "public", "operator:wikidata": "Q668687", "ref": "0576300001"}, "type": "Feature"}
{"geometry": {"coordinates": [-73.026982, 43.706053], "type": "Point"}, "id": "QoK863cBxU-CpAs98-j9G0Pov0s=", "properties": {"@source_uri": "https://tools.usps.com/UspsToolsRestServices/rest/POLocator/findLocations", "@spider": "usps_collection_boxes", "addr:city": "PITTSFORD", "addr:country": "US", "addr:postcode": "05763", "addr:state": "VT", "addr:street_address": "853 ARCH ST", "amenity": "post_box", "collection_times": "Mo-Fr 16:30; Sa 11:00", "indoor": "yes", "note": "ON 12/24 AND 12/31, THIS BOX MAY BE COLLECTED AS EARLY AS 12 NOON.", "nsi_id": "unitedstatespostalservice-a77078", "operator": "United States Postal Service", "operator:short": "USPS", "operator:type": "public", "operator:wikidata": "Q668687", "ref": "0576300003"}, "type": "Feature"}
{"geometry": {"coordinates": [-73.02725046, 43.706116509], "type": "Point"}, "id": "7nGrOX0mmtyRY0_xopnFlgytwbA=", "properties": {"@source_uri": "https://tools.usps.com/UspsToolsRestServices/rest/POLocator/findLocations", "@spider": "usps_collection_boxes", "addr:city": "PITTSFORD", "addr:country": "US", "addr:postcode": "05763", "addr:state": "VT", "addr:street_address": "853 ARCH ST", "amenity": "post_box", "collection_times": "Mo-Fr 16:30; Sa 11:00", "indoor": "yes", "note": "ON 12/24 AND 12/31, THIS BOX MAY BE COLLECTED AS EARLY AS 12 NOON.", "nsi_id": "unitedstatespostalservice-a77078", "operator": "United States Postal Service", "operator:short": "USPS", "operator:type": "public", "operator:wikidata": "Q668687", "ref": "0576300004"}, "type": "Feature"}
{"geometry": {"coordinates": [-73.2353211, 43.516938], "type": "Point"}, "id": "-E8k6I6F8Hg-0AsdfFeEG9E58pk=", "properties": {"@source_uri": "https://tools.usps.com/UspsToolsRestServices/rest/POLocator/findLocations", "@spider": "usps_collection_boxes", "addr:city": "POULTNEY", "addr:country": "US", "addr:postcode": "05764", "addr:state": "VT", "addr:street_address": "123 MAIN ST", "amenity": "post_box", "collection_times": "Mo-Fr 16:45; Sa 12:00", "note": "ON 12/24 AND 12/31, THIS BOX MAY BE COLLECTED AS EARLY AS 12 NOON.", "nsi_id": "unitedstatespostalservice-a77078", "operator": "United States Postal Service", "operator:short": "USPS", "operator:type": "public", "operator:wikidata": "Q668687", "ref": "0576400001"}, "type": "Feature"}
{"geometry": {"coordinates": [-73.2269999, 43.517942], "type": "Point"}, "id": "mC9HQLgN1Vs5FwEoVESCDk1stfM=", "properties": {"@source_uri": "https://tools.usps.com/UspsToolsRestServices/rest/POLocator/findLocations", "@spider": "usps_collection_boxes", "addr:city": "POULTNEY", "addr:country": "US", "addr:postcode": "05764", "addr:state": "VT", "addr:street_address": "298 E MAIN ST", "amenity": "post_box", "collection_times": "Mo-Sa 09:00", "nsi_id": "unitedstatespostalservice-a77078", "operator": "United States Postal Service", "operator:short": "USPS", "operator:type": "public", "operator:wikidata": "Q668687", "ref": "0576400003"}, "type": "Feature"}
{"geometry": {"coordinates": [-73.2296244, 43.515666], "type": "Point"}, "id": "qIwXq1Kw-Zm7lfVaJAYOYLC43gI=", "properties": {"@source_uri": "https://tools.usps.com/UspsToolsRestServices/rest/POLocator/findLocations", "@spider": "usps_collection_boxes", "addr:city": "POULTNEY", "addr:country": "US", "addr:postcode": "05764", "addr:state": "VT", "addr:street_address": "1 AUTUMN WAY", "amenity": "post_box", "collection_times": "Mo-Sa 08:30", "nsi_id": "unitedstatespostalservice-a77078", "operator": "United States Postal Service", "operator:short": "USPS", "operator:type": "public", "operator:wikidata": "Q668687", "ref": "0576400004"}, "type": "Feature"}
{"geometry": {"coordinates": [-73.2049274, 43.526261], "type": "Point"}, "id": "Sil9fATBdGg-DkKBNO4QPAKRFKQ=", "properties": {"@source_uri": "https://tools.usps.com/UspsToolsRestServices/rest/POLocator/findLocations", "@spider": "usps_collection_boxes", "addr:city": "POULTNEY", "addr:country": "US", "addr:postcode": "05764", "addr:state": "VT", "addr:street_address": "11 ON THE GRN", "amenity": "post_box", "collection_times": "Mo-Sa 10:30", "nsi_id": "unitedstatespostalservice-a77078", "operator": "United States Postal Service", "operator:short": "USPS", "operator:type": "public", "operator:wikidata": "Q668687", "ref": "0576400007"}, "type": "Feature"}
{"geometry": {"coordinates": [-73.2353326, 43.516795], "type": "Point"}, "id": "AGRrZ_nZCxL8LHhKEr6OuEWy2IE=", "properties": {"@source_uri": "https://tools.usps.com/UspsToolsRestServices/rest/POLocator/findLocations", "@spider": "usps_collection_boxes", "addr:city": "POULTNEY", "addr:country": "US", "addr:postcode": "05764", "addr:state": "VT", "addr:street_address": "123 MAIN ST LBBY MIXED", "amenity": "post_box", "collection_times": "Mo-Fr 16:45; Sa 12:00", "indoor": "yes", "note": "ON 12/24 AND 12/31, THIS BOX MAY BE COLLECTED AS EARLY AS 12 NOON.", "nsi_id": "unitedstatespostalservice-a77078", "operator": "United States Postal Service", "operator:short": "USPS", "operator:type": "public", "operator:wikidata": "Q668687", "ref": "0576400008"}, "type": "Feature"}
{"geometry": {"coordinates": [-73.23541178, 43.5170175], "type": "Point"}, "id": "XjJp24--5b3R2FpRSta7j3Wd35M=", "properties": {"@source_uri": "https://tools.usps.com/UspsToolsRestServices/rest/POLocator/findLocations", "@spider": "usps_collection_boxes", "addr:city": "POULTNEY", "addr:country": "US", "addr:postcode": "05764", "addr:state": "VT", "addr:street_address": "123 MAIN ST", "amenity": "post_box", "collection_times": "Mo-Fr 16:30; Sa 12:00", "indoor": "yes", "note": "ON 12/24 AND 12/31, THIS BOX MAY BE COLLECTED AS EARLY AS 12 NOON.", "nsi_id": "unitedstatespostalservice-a77078", "operator": "United States Postal Service", "operator:short": "USPS", "operator:type": "public", "operator:wikidata": "Q668687", "ref": "0576400012"}, "type": "Feature"}
{"geometry": {"coordinates": [-73.03565, 43.661433], "type": "Point"}, "id": "iAPb5fx5oKEPa8jelQM-ZrFT9YY=", "properties": {"@source_uri": "https://tools.usps.com/UspsToolsRestServices/rest/POLocator/findLocations", "@spider": "usps_collection_boxes", "addr:city": "PROCTOR", "addr:country": "US", "addr:postcode": "05765", "addr:state": "VT", "addr:street_address": "29 MAIN ST", "amenity": "post_box", "collection_times": "Mo-Fr 16:30; Sa 11:00", "note": "ON 12/24 AND 12/31, THIS BOX MAY BE COLLECTED AS EARLY AS 12 NOON.", "nsi_id": "unitedstatespostalservice-a77078", "operator": "United States Postal Service", "operator:short": "USPS", "operator:type": "public", "operator:wikidata": "Q668687", "ref": "0576500002"}, "type": "Feature"}
{"geometry": {"coordinates": [-73.0356895, 43.661275], "type": "Point"}, "id": "po_UmDwdFT4szs84IbPN-JEc4O8=", "properties": {"@source_uri": "https://tools.usps.com/UspsToolsRestServices/rest/POLocator/findLocations", "@spider": "usps_collection_boxes", "addr:city": "PROCTOR", "addr:country": "US", "addr:postcode": "05765", "addr:state": "VT", "addr:street_address": "33 MAIN ST", "amenity": "post_box", "collection_times": "Mo-Sa 09:00", "nsi_id": "unitedstatespostalservice-a77078", "operator": "United States Postal Service", "operator:short": "USPS", "operator:type": "public", "operator:wikidata": "Q668687", "ref": "0576500010"}, "type": "Feature"}
{"geometry": {"coordinates": [-73.03565, 43.661433], "type": "Point"}, "id": "QHOLpswCiS8gePvGA-T2kvCtVG0=", "properties": {"@source_uri": "https://tools.usps.com/UspsToolsRestServices/rest/POLocator/findLocations", "@spider": "usps_collection_boxes", "addr:city": "PROCTOR", "addr:country": "US", "addr:postcode": "05765", "addr:state": "VT", "addr:street_address": "29 MAIN ST", "amenity": "post_box", "collection_times": "Mo-Fr 16:30; Sa 11:00", "indoor": "yes", "note": "ON 12/24 AND 12/31, THIS BOX MAY BE COLLECTED AS EARLY AS 12 NOON.", "nsi_id": "unitedstatespostalservice-a77078", "operator": "United States Postal Service", "operator:short": "USPS", "operator:type": "public", "operator:wikidata": "Q668687", "ref": "0576500011"}, "type": "Feature"}
{"geometry": {"coordinates": [-73.035560345, 43.661068178], "type": "Point"}, "id": "HbgOghAPircHkateR4Ig6M8vrws=", "properties": {"@source_uri": "https://tools.usps.com/UspsToolsRestServices/rest/POLocator/findLocations", "@spider": "usps_collection_boxes", "addr:city": "PROCTOR", "addr:country": "US", "addr:postcode": "05765", "addr:state": "VT", "addr:street_address": "29 MAIN ST STE 2", "amenity": "post_box", "collection_times": "Mo-Fr 16:30; Sa 11:00", "indoor": "yes", "note": "ON 12/24 AND 12/31, THIS BOX MAY BE COLLECTED AS EARLY AS 12 NOON.", "nsi_id": "unitedstatespostalservice-a77078", "operator": "United States Postal Service", "operator:short": "USPS", "operator:type": "public", "operator:wikidata": "Q668687", "ref": "0576500012"}, "type": "Feature"}
{"geometry": {"coordinates": [-72.807451, 43.874627], "type": "Point"}, "id": "LrB39UiXilqzMeLTgqbZv1OARyE=", "properties": {"@source_uri": "https://tools.usps.com/UspsToolsRestServices/rest/POLocator/findLocations", "@spider": "usps_collection_boxes", "addr:city": "ROCHESTER", "addr:country": "US", "addr:postcode": "05767", "addr:state": "VT", "addr:street_address": "46 PARK ST", "amenity": "post_box", "collection_times": "Mo-Fr 16:30; Sa 11:00", "note": "ON 12/24 AND 12/31, THIS BOX MAY BE COLLECTED AS EARLY AS 12 NOON.", "nsi_id": "unitedstatespostalservice-a77078", "operator": "United States Postal Service", "operator:short": "USPS", "operator:type": "public", "operator:wikidata": "Q668687", "ref": "0576700001"}, "type": "Feature"}
{"geometry": {"coordinates": [-72.807437, 43.8746], "type": "Point"}, "id": "3OYZgiOmoDYdgXm0saw-GDt3_Ws=", "properties": {"@source_uri": "https://tools.usps.com/UspsToolsRestServices/rest/POLocator/findLocations", "@spider": "usps_collection_boxes", "addr:city": "ROCHESTER", "addr:country": "US", "addr:postcode": "05767", "addr:state": "VT", "addr:street_address": "46 PARK ST", "amenity": "post_box", "collection_times": "Mo-Fr 16:45; Sa 11:00", "indoor": "yes", "note": "ON 12/24 AND 12/31, THIS BOX MAY BE COLLECTED AS EARLY AS 12 NOON.", "nsi_id": "unitedstatespostalservice-a77078", "operator": "United States Postal Service", "operator:short": "USPS", "operator:type": "public", "operator:wikidata": "Q668687", "ref": "0576700002"}, "type": "Feature"}
{"geometry": {"coordinates": [-72.807643928, 43.874601464], "type": "Point"}, "id": "EotDd9uHWX-HnKCPJi0uy0XjzRo=", "properties": {"@source_uri": "https://tools.usps.com/UspsToolsRestServices/rest/POLocator/findLocations", "@spider": "usps_collection_boxes", "addr:city": "ROCHESTER", "addr:country": "US", "addr:postcode": "05767", "addr:state": "VT", "addr:street_address": "46 PARK ST", "amenity": "post_box", "collection_times": "Mo-Fr 16:30; Sa 11:00", "indoor": "yes", "note": "ON 12/24 AND 12/31, THIS BOX MAY BE COLLECTED AS EARLY AS 12 NOON.", "nsi_id": "unitedstatespostalservice-a77078", "operator": "United States Postal Service", "operator:short": "USPS", "operator:type": "public", "operator:wikidata": "Q668687", "ref": "0576700003"}, "type": "Feature"}
{"geometry": {"coordinates": [-73.2239540561, 43.2606736665], "type": "Point"}, "id": "kxiIaeiITZvnwaoP847MzYXQmkY=", "properties": {"@source_uri": "https://tools.usps.com/UspsToolsRestServices/rest/POLocator/findLocations", "@spider": "usps_collection_boxes", "addr:city": "RUPERT", "addr:country": "US", "addr:postcode": "05768", "addr:state": "VT", "addr:street_address": "84 MAIN ST", "amenity": "post_box", "collection_times": "Mo-Fr 16:30; Sa 11:00", "note": "ON 12/24 AND 12/31, THIS BOX MAY BE COLLECTED AS EARLY AS 12 NOON.", "nsi_id": "unitedstatespostalservice-a77078", "operator": "United States Postal Service", "operator:short": "USPS", "operator:type": "public", "operator:wikidata": "Q668687", "ref": "0576800000"}, "type": "Feature"}
{"geometry": {"coordinates": [-73.1875699, 43.27215], "type": "Point"}, "id": "nfomei2QwF3AAIeO05-DLpCIEkw=", "properties": {"@source_uri": "https://tools.usps.com/UspsToolsRestServices/rest/POLocator/findLocations", "@spider": "usps_collection_boxes", "addr:city": "RUPERT", "addr:country": "US", "addr:postcode": "05768", "addr:state": "VT", "addr:street_address": "84 MAIN ST", "amenity": "post_box", "collection_times": "Mo-Fr 16:30; Sa 11:00", "indoor": "yes", "note": "ON 12/24 AND 12/31, THIS BOX MAY BE COLLECTED AS EARLY AS 12 NOON.", "nsi_id": "unitedstatespostalservice-a77078", "operator": "United States Postal Service", "operator:short": "USPS", "operator:type": "public", "operator:wikidata": "Q668687", "ref": "0576800002"}, "type": "Feature"}
{"geometry": {"coordinates": [-73.101179, 43.896353], "type": "Point"}, "id": "9keb3ynDcHcomYQ8Ec1izlMuRJ8=", "properties": {"@source_uri": "https://tools.usps.com/UspsToolsRestServices/rest/POLocator/findLocations", "@spider": "usps_collection_boxes", "addr:city": "SALISBURY", "addr:country": "US", "addr:postcode": "05769", "addr:state": "VT", "addr:street_address": "935 MAPLE ST", "amenity": "post_box", "collection_times": "Mo-Fr 14:30; Sa 10:30", "note": "ON 12/24 AND 12/31, THIS BOX MAY BE COLLECTED AS EARLY AS 12 NOON.", "nsi_id": "unitedstatespostalservice-a77078", "operator": "United States Postal Service", "operator:short": "USPS", "operator:type": "public", "operator:wikidata": "Q668687", "ref": "0576900000"}, "type": "Feature"}
{"geometry": {"coordinates": [-73.101283, 43.896352], "type": "Point"}, "id": "DUxt1-9AdCLn8UbFNHHPoS9Za2I=", "properties": {"@source_uri": "https://tools.usps.com/UspsToolsRestServices/rest/POLocator/findLocations", "@spider": "usps_collection_boxes", "addr:city": "SALISBURY", "addr:country": "US", "addr:postcode": "05769", "addr:state": "VT", "addr:street_address": "935 MAPLE ST", "amenity": "post_box", "collection_times": "Mo-Fr 14:30; Sa 10:15", "indoor": "yes", "note": "ON 12/24 AND 12/31, THIS BOX MAY BE COLLECTED AS EARLY AS 12 NOON.", "nsi_id": "unitedstatespostalservice-a77078", "operator": "United States Postal Service", "operator:short": "USPS", "operator:type": "public", "operator:wikidata": "Q668687", "ref": "0576900002"}, "type": "Feature"}
{"geometry": {"coordinates": [-73.101020129, 43.89631334], "type": "Point"}, "id": "ChoGt27Le1BWAh__JP257i_FS3w=", "properties": {"@source_uri": "https://tools.usps.com/UspsToolsRestServices/rest/POLocator/findLocations", "@spider": "usps_collection_boxes", "addr:city": "SALISBURY", "addr:country": "US", "addr:postcode": "05769", "addr:state": "VT", "addr:street_address": "935 MAPLE ST", "amenity": "post_box", "collection_times": "Mo-Fr 14:30; Sa 10:30", "indoor": "yes", "note": "ON 12/24 AND 12/31, THIS BOX MAY BE COLLECTED AS EARLY AS 12 NOON.", "nsi_id": "unitedstatespostalservice-a77078", "operator": "United States Postal Service", "operator:short": "USPS", "operator:type": "public", "operator:wikidata": "Q668687", "ref": "0576900004"}, "type": "Feature"}
{"geometry": {"coordinates": [-73.310576, 43.894146], "type": "Point"}, "id": "hqIFZDTYC9haelAGn0Wlho6DICg=", "properties": {"@source_uri": "https://tools.usps.com/UspsToolsRestServices/rest/POLocator/findLocations", "@spider": "usps_collection_boxes", "addr:city": "SHOREHAM", "addr:country": "US", "addr:postcode": "05770", "addr:state": "VT", "addr:street_address": "75 MAIN ST", "amenity": "post_box", "collection_times": "Mo-Fr 14:30; Sa 11:00", "note": "ON 12/24 AND 12/31, THIS BOX MAY BE COLLECTED AS EARLY AS 12 NOON.", "nsi_id": "unitedstatespostalservice-a77078", "operator": "United States Postal Service", "operator:short": "USPS", "operator:type": "public", "operator:wikidata": "Q668687", "ref": "0577000000"}, "type": "Feature"}
{"geometry": {"coordinates": [-73.310585, 43.894172], "type": "Point"}, "id": "1dvZNRi-Aj7Bx_rU-snvXki6TuI=", "properties": {"@source_uri": "https://tools.usps.com/UspsToolsRestServices/rest/POLocator/findLocations", "@spider": "usps_collection_boxes", "addr:city": "SHOREHAM", "addr:country": "US", "addr:postcode": "05770", "addr:state": "VT", "addr:street_address": "75 MAIN ST", "amenity": "post_box", "collection_times": "Mo-Fr 14:30; Sa 11:00", "indoor": "yes", "note": "ON 12/24 AND 12/31, THIS BOX MAY BE COLLECTED AS EARLY AS 12 NOON.", "nsi_id": "unitedstatespostalservice-a77078", "operator": "United States Postal Service", "operator:short": "USPS", "operator:type": "public", "operator:wikidata": "Q668687", "ref": "0577000001"}, "type": "Feature"}
{"geometry": {"coordinates": [-73.310538295, 43.894144583], "type": "Point"}, "id": "Jg8IV6E2aw6yUpQRti57hLZa6Lo=", "properties": {"@source_uri": "https://tools.usps.com/UspsToolsRestServices/rest/POLocator/findLocations", "@spider": "usps_collection_boxes", "addr:city": "SHOREHAM", "addr:country": "US", "addr:postcode": "05770", "addr:state": "VT", "addr:street_address": "75 MAIN ST", "amenity": "post_box", "collection_times": "Mo-Fr 14:30; Sa 11:00", "indoor": "yes", "note": "ON 12/24 AND 12/31, THIS BOX MAY BE COLLECTED AS EARLY AS 12 NOON.", "nsi_id": "unitedstatespostalservice-a77078", "operator": "United States Postal Service", "operator:short": "USPS", "operator:type": "public", "operator:wikidata": "Q668687", "ref": "0577000003"}, "type": "Feature"}
{"geometry": {"coordinates": [-72.767156, 43.776302], "type": "Point"}, "id": "dv5jYc98XwBnitJdHaZn80x5xHg=", "properties": {"@source_uri": "https://tools.usps.com/UspsToolsRestServices/rest/POLocator/findLocations", "@spider": "usps_collection_boxes", "addr:city": "STOCKBRIDGE", "addr:country": "US", "addr:postcode": "05772", "addr:state": "VT", "addr:street_address": "1720 VT ROUTE 100", "amenity": "post_box", "collection_times": "Mo-Sa 11:00", "nsi_id": "unitedstatespostalservice-a77078", "operator": "United States Postal Service", "operator:short": "USPS", "operator:type": "public", "operator:wikidata": "Q668687", "ref": "0577200000"}, "type": "Feature"}
{"geometry": {"coordinates": [-72.767217, 43.776343], "type": "Point"}, "id": "pyS_vIqyCAj3GA9g7Zg4C-givdM=", "properties": {"@source_uri": "https://tools.usps.com/UspsToolsRestServices/rest/POLocator/findLocations", "@spider": "usps_collection_boxes", "addr:city": "STOCKBRIDGE", "addr:country": "US", "addr:postcode": "05772", "addr:state": "VT", "addr:street_address": "1720 VT ROUTE 100", "amenity": "post_box", "collection_times": "Mo-Sa 11:00", "indoor": "yes", "nsi_id": "unitedstatespostalservice-a77078", "operator": "United States Postal Service", "operator:short": "USPS", "operator:type": "public", "operator:wikidata": "Q668687", "ref": "0577200001"}, "type": "Feature"}
{"geometry": {"coordinates": [-72.765584228, 43.775772825], "type": "Point"}, "id": "xIzPofGkfxfq1EXIn9-G7qZcCU0=", "properties": {"@source_uri": "https://tools.usps.com/UspsToolsRestServices/rest/POLocator/findLocations", "@spider": "usps_collection_boxes", "addr:city": "STOCKBRIDGE", "addr:country": "US", "addr:postcode": "05772", "addr:state": "VT", "addr:street_address": "1720 VT ROUTE 100", "amenity": "post_box", "collection_times": "Mo-Sa 11:00", "indoor": "yes", "nsi_id": "unitedstatespostalservice-a77078", "operator": "United States Postal Service", "operator:short": "USPS", "operator:type": "public", "operator:wikidata": "Q668687", "ref": "0577200003"}, "type": "Feature"}
{"geometry": {"coordinates": [-72.9771919, 43.473616], "type": "Point"}, "id": "Tekus8UUNve-Y009eUn8izgBqQM=", "properties": {"@source_uri": "https://tools.usps.com/UspsToolsRestServices/rest/POLocator/findLocations", "@spider": "usps_collection_boxes", "addr:city": "WALLINGFORD", "addr:country": "US", "addr:postcode": "05773", "addr:state": "VT", "addr:street_address": "137 N MAIN ST UNIT A", "amenity": "post_box", "collection_times": "Mo-Fr 16:45; Sa 12:00", "note": "ON 12/24 AND 12/31, THIS BOX MAY BE COLLECTED AS EARLY AS 12 NOON.", "nsi_id": "unitedstatespostalservice-a77078", "operator": "United States Postal Service", "operator:short": "USPS", "operator:type": "public", "operator:wikidata": "Q668687", "ref": "0577300000"}, "type": "Feature"}
{"geometry": {"coordinates": [-72.9772976, 43.473574], "type": "Point"}, "id": "mSBL3BcY4X8gVbJCY3Lt99Y1lDU=", "properties": {"@source_uri": "https://tools.usps.com/UspsToolsRestServices/rest/POLocator/findLocations", "@spider": "usps_collection_boxes", "addr:city": "WALLINGFORD", "addr:country": "US", "addr:postcode": "05773", "addr:state": "VT", "addr:street_address": "137 N MAIN ST UNIT A", "amenity": "post_box", "collection_times": "Mo-Fr 16:45; Sa 12:00", "indoor": "yes", "note": "ON 12/24 AND 12/31, THIS BOX MAY BE COLLECTED AS EARLY AS 12 NOON.", "nsi_id": "unitedstatespostalservice-a77078", "operator": "United States Postal Service", "operator:short": "USPS", "operator:type": "public", "operator:wikidata": "Q668687", "ref": "0577300002"}, "type": "Feature"}
{"geometry": {"coordinates": [-72.976986418, 43.473650511], "type": "Point"}, "id": "2cDGObjMEKuWgSou_jVuIdCuGYE=", "properties": {"@source_uri": "https://tools.usps.com/UspsToolsRestServices/rest/POLocator/findLocations", "@spider": "usps_collection_boxes", "addr:city": "WALLINGFORD", "addr:country": "US", "addr:postcode": "05773", "addr:state": "VT", "addr:street_address": "137 N MAIN ST UNIT A", "amenity": "post_box", "collection_times": "Mo-Fr 16:30; Sa 12:00", "indoor": "yes", "note": "ON 12/24 AND 12/31, THIS BOX MAY BE COLLECTED AS EARLY AS 12 NOON.", "nsi_id": "unitedstatespostalservice-a77078", "operator": "United States Postal Service", "operator:short": "USPS", "operator:type": "public", "operator:wikidata": "Q668687", "ref": "0577300004"}, "type": "Feature"}
{"geometry": {"coordinates": [-73.204767, 43.417479], "type": "Point"}, "id": "KT8d8Utclv2xD8LUadfjIXMSFa8=", "properties": {"@source_uri": "https://tools.usps.com/UspsToolsRestServices/rest/POLocator/findLocations", "@spider": "usps_collection_boxes", "addr:city": "WELLS", "addr:country": "US", "addr:postcode": "05774", "addr:state": "VT", "addr:street_address": "10 NORTH ST UNIT 2", "amenity": "post_box", "collection_times": "Mo-Fr 16:15; Sa 10:00", "note": "ON 12/24 AND 12/31, THIS BOX MAY BE COLLECTED AS EARLY AS 12 NOON.", "nsi_id": "unitedstatespostalservice-a77078", "operator": "United States Postal Service", "operator:short": "USPS", "operator:type": "public", "operator:wikidata": "Q668687", "ref": "0577400002"}, "type": "Feature"}
{"geometry": {"coordinates": [-73.204767, 43.417479], "type": "Point"}, "id": "rEQ-XBR6TU5T3eBHMAUm1kllY9E=", "properties": {"@source_uri": "https://tools.usps.com/UspsToolsRestServices/rest/POLocator/findLocations", "@spider": "usps_collection_boxes", "addr:city": "WELLS", "addr:country": "US", "addr:postcode": "05774", "addr:state": "VT", "addr:street_address": "10 NORTH ST UNIT 2", "amenity": "post_box", "collection_times": "Mo-Fr 16:15; Sa 10:00", "indoor": "yes", "note": "ON 12/24 AND 12/31, THIS BOX MAY BE COLLECTED AS EARLY AS 12 NOON.", "nsi_id": "unitedstatespostalservice-a77078", "operator": "United States Postal Service", "operator:short": "USPS", "operator:type": "public", "operator:wikidata": "Q668687", "ref": "0577400003"}, "type": "Feature"}
{"geometry": {"coordinates": [-73.20478605, 43.417534547], "type": "Point"}, "id": "8aypB7uv-1ebXt-T5RMFeuIZIVM=", "properties": {"@source_uri": "https://tools.usps.com/UspsToolsRestServices/rest/POLocator/findLocations", "@spider": "usps_collection_boxes", "addr:city": "WELLS", "addr:country": "US", "addr:postcode": "05774", "addr:state": "VT", "addr:street_address": "10 NORTH ST UNIT B", "amenity": "post_box", "collection_times": "Mo-Fr 16:30; Sa 10:00", "indoor": "yes", "note": "ON 12/24 AND 12/31, THIS BOX MAY BE COLLECTED AS EARLY AS 12 NOON.", "nsi_id": "unitedstatespostalservice-a77078", "operator": "United States Postal Service", "operator:short": "USPS", "operator:type": "public", "operator:wikidata": "Q668687", "ref": "0577400005"}, "type": "Feature"}
{"geometry": {"coordinates": [-73.251757, 43.353261], "type": "Point"}, "id": "YgCCDAOSbcDsZuA-AepDm6Hmj-4=", "properties": {"@source_uri": "https://tools.usps.com/UspsToolsRestServices/rest/POLocator/findLocations", "@spider": "usps_collection_boxes", "addr:city": "WEST PAWLET", "addr:country": "US", "addr:postcode": "05775", "addr:state": "VT", "addr:street_address": "2841 VT ROUTE 153", "amenity": "post_box", "collection_times": "Mo-Fr 16:30; Sa 10:15", "note": "ON 12/24 AND 12/31, THIS BOX MAY BE COLLECTED AS EARLY AS 12 NOON.", "nsi_id": "unitedstatespostalservice-a77078", "operator": "United States Postal Service", "operator:short": "USPS", "operator:type": "public", "operator:wikidata": "Q668687", "ref": "0577500000"}, "type": "Feature"}
{"geometry": {"coordinates": [-73.251841, 43.353332], "type": "Point"}, "id": "J1dB9woDMk9ifEI2no485AFljKc=", "properties": {"@source_uri": "https://tools.usps.com/UspsToolsRestServices/rest/POLocator/findLocations", "@spider": "usps_collection_boxes", "addr:city": "WEST PAWLET", "addr:country": "US", "addr:postcode": "05775", "addr:state": "VT", "addr:street_address": "2841 VT ROUTE 153", "amenity": "post_box", "collection_times": "Mo-Fr 16:45; Sa 10:15", "indoor": "yes", "note": "ON 12/24 AND 12/31, THIS BOX MAY BE COLLECTED AS EARLY AS 12 NOON.", "nsi_id": "unitedstatespostalservice-a77078", "operator": "United States Postal Service", "operator:short": "USPS", "operator:type": "public", "operator:wikidata": "Q668687", "ref": "0577500001"}, "type": "Feature"}
{"geometry": {"coordinates": [-73.25174273, 43.353251005], "type": "Point"}, "id": "SJzJMoCiGdulHQI2yfEtWvKpFqg=", "properties": {"@source_uri": "https://tools.usps.com/UspsToolsRestServices/rest/POLocator/findLocations", "@spider": "usps_collection_boxes", "addr:city": "WEST PAWLET", "addr:country": "US", "addr:postcode": "05775", "addr:state": "VT", "addr:street_address": "2841 VT ROUTE 153", "amenity": "post_box", "collection_times": "Mo-Fr 16:45; Sa 10:30", "indoor": "yes", "note": "ON 12/24 AND 12/31, THIS BOX MAY BE COLLECTED AS EARLY AS 12 NOON.", "nsi_id": "unitedstatespostalservice-a77078", "operator": "United States Postal Service", "operator:short": "USPS", "operator:type": "public", "operator:wikidata": "Q668687", "ref": "0577500002"}, "type": "Feature"}
{"geometry": {"coordinates": [-73.242854, 43.239208], "type": "Point"}, "id": "2Uh-qfuaPmI0bkz8dse4KlBQIVA=", "properties": {"@source_uri": "https://tools.usps.com/UspsToolsRestServices/rest/POLocator/findLocations", "@spider": "usps_collection_boxes", "addr:city": "WEST RUPERT", "addr:country": "US", "addr:postcode": "05776", "addr:state": "VT", "addr:street_address": "1151 STATE HWY 153", "amenity": "post_box", "collection_times": "Mo-Fr 16:15; Sa 11:30", "note": "ON 12/24 AND 12/31, THIS BOX MAY BE COLLECTED AS EARLY AS 12 NOON.", "nsi_id": "unitedstatespostalservice-a77078", "operator": "United States Postal Service", "operator:short": "USPS", "operator:type": "public", "operator:wikidata": "Q668687", "ref": "0577600000"}, "type": "Feature"}
{"geometry": {"coordinates": [-73.242821, 43.239191], "type": "Point"}, "id": "JYUDyNRGOZnkKArxo04UreN4ksI=", "properties": {"@source_uri": "https://tools.usps.com/UspsToolsRestServices/rest/POLocator/findLocations", "@spider": "usps_collection_boxes", "addr:city": "WEST RUPERT", "addr:country": "US", "addr:postcode": "05776", "addr:state": "VT", "addr:street_address": "1151 STATE HWY 153", "amenity": "post_box", "collection_times": "Mo-Fr 16:15; Sa 11:30", "indoor": "yes", "note": "ON 12/24 AND 12/31, THIS BOX MAY BE COLLECTED AS EARLY AS 12 NOON.", "nsi_id": "unitedstatespostalservice-a77078", "operator": "United States Postal Service", "operator:short": "USPS", "operator:type": "public", "operator:wikidata": "Q668687", "ref": "0577600001"}, "type": "Feature"}
{"geometry": {"coordinates": [-73.242855988, 43.239219726], "type": "Point"}, "id": "7S4q7__D3dwhBhhzAoEPKS372WA=", "properties": {"@source_uri": "https://tools.usps.com/UspsToolsRestServices/rest/POLocator/findLocations", "@spider": "usps_collection_boxes", "addr:city": "WEST RUPERT", "addr:country": "US", "addr:postcode": "05776", "addr:state": "VT", "addr:street_address": "1151 STATE HWY 153", "amenity": "post_box", "collection_times": "Mo-Fr 16:30; Sa 11:00", "indoor": "yes", "note": "ON 12/24 AND 12/31, THIS BOX MAY BE COLLECTED AS EARLY AS 12 NOON.", "nsi_id": "unitedstatespostalservice-a77078", "operator": "United States Postal Service", "operator:short": "USPS", "operator:type": "public", "operator:wikidata": "Q668687", "ref": "0577600002"}, "type": "Feature"}
{"geometry": {"coordinates": [-73.043377, 43.592836], "type": "Point"}, "id": "DV2U9FNDNUfbsFtsi05Zb-RfnPM=", "properties": {"@source_uri": "https://tools.usps.com/UspsToolsRestServices/rest/POLocator/findLocations", "@spider": "usps_collection_boxes", "addr:city": "WEST RUTLAND", "addr:country": "US", "addr:postcode": "05777", "addr:state": "VT", "addr:street_address": "66 WESTWAY MALL DR", "amenity": "post_box", "collection_times": "Mo-Fr 16:45; Sa 11:15", "note": "ON 12/24 AND 12/31, THIS BOX MAY BE COLLECTED AS EARLY AS 12 NOON.", "nsi_id": "unitedstatespostalservice-a77078", "operator": "United States Postal Service", "operator:short": "USPS", "operator:type": "public", "operator:wikidata": "Q668687", "ref": "0577700001"}, "type": "Feature"}
{"geometry": {"coordinates": [-73.043345, 43.59287], "type": "Point"}, "id": "u9rIjgoPlhsRIO9WJkK81KYhTtI=", "properties": {"@source_uri": "https://tools.usps.com/UspsToolsRestServices/rest/POLocator/findLocations", "@spider": "usps_collection_boxes", "addr:city": "WEST RUTLAND", "addr:country": "US", "addr:postcode": "05777", "addr:state": "VT", "addr:street_address": "66 WESTWAY MALL DR", "amenity": "post_box", "collection_times": "Mo-Fr 17:00; Sa 11:30", "indoor": "yes", "note": "ON 12/24 AND 12/31, THIS BOX MAY BE COLLECTED AS EARLY AS 12 NOON.", "nsi_id": "unitedstatespostalservice-a77078", "operator": "United States Postal Service", "operator:short": "USPS", "operator:type": "public", "operator:wikidata": "Q668687", "ref": "0577700004"}, "type": "Feature"}
{"geometry": {"coordinates": [-73.043790037, 43.592526011], "type": "Point"}, "id": "2AjhQOyEC7TS0eu8aj411PZxrw4=", "properties": {"@source_uri": "https://tools.usps.com/UspsToolsRestServices/rest/POLocator/findLocations", "@spider": "usps_collection_boxes", "addr:city": "WEST RUTLAND", "addr:country": "US", "addr:postcode": "05777", "addr:state": "VT", "addr:street_address": "66 WESTWAY MALL DR", "amenity": "post_box", "collection_times": "Mo-Fr 17:00; Sa 11:30", "indoor": "yes", "note": "ON 12/24 AND 12/31, THIS BOX MAY BE COLLECTED AS EARLY AS 12 NOON.", "nsi_id": "unitedstatespostalservice-a77078", "operator": "United States Postal Service", "operator:short": "USPS", "operator:type": "public", "operator:wikidata": "Q668687", "ref": "0577700005"}, "type": "Feature"}
{"geometry": {"coordinates": [-73.200565, 43.863819], "type": "Point"}, "id": "SLpFkiT-J2HEYILSIYXV-n6JbNQ=", "properties": {"@source_uri": "https://tools.usps.com/UspsToolsRestServices/rest/POLocator/findLocations", "@spider": "usps_collection_boxes", "addr:city": "WHITING", "addr:country": "US", "addr:postcode": "05778", "addr:state": "VT", "addr:street_address": "3 S MAIN ST", "amenity": "post_box", "collection_times": "Mo-Fr 11:30; Sa 11:00", "nsi_id": "unitedstatespostalservice-a77078", "operator": "United States Postal Service", "operator:short": "USPS", "operator:type": "public", "operator:wikidata": "Q668687", "ref": "0577800000"}, "type": "Feature"}
{"geometry": {"coordinates": [-73.200565, 43.863819], "type": "Point"}, "id": "dOrFY35pa9vSyDRAGvq31xQbmKc=", "properties": {"@source_uri": "https://tools.usps.com/UspsToolsRestServices/rest/POLocator/findLocations", "@spider": "usps_collection_boxes", "addr:city": "WHITING", "addr:country": "US", "addr:postcode": "05778", "addr:state": "VT", "addr:street_address": "3 S MAIN ST", "amenity": "post_box", "collection_times": "Mo-Fr 11:30; Sa 11:00", "indoor": "yes", "nsi_id": "unitedstatespostalservice-a77078", "operator": "United States Postal Service", "operator:short": "USPS", "operator:type": "public", "operator:wikidata": "Q668687", "ref": "0577800001"}, "type": "Feature"}
{"geometry": {"coordinates": [-73.200574851, 43.8637882], "type": "Point"}, "id": "bOCBXRN_vdxefIPc1knYsVJMIGs=", "properties": {"@source_uri": "https://tools.usps.com/UspsToolsRestServices/rest/POLocator/findLocations", "@spider": "usps_collection_boxes", "addr:city": "WHITING", "addr:country": "US", "addr:postcode": "05778", "addr:state": "VT", "addr:street_address": "3 S MAIN ST", "amenity": "post_box", "collection_times": "Mo-Fr 11:30; Sa 11:00", "indoor": "yes", "nsi_id": "unitedstatespostalservice-a77078", "operator": "United States Postal Service", "operator:short": "USPS", "operator:type": "public", "operator:wikidata": "Q668687", "ref": "0577800002"}, "type": "Feature"}
