{"dataset_attributes": {"@spider": "usps_collection_boxes", "spider:collection_time": "2023-12-25T08:25:18.404837"}, "geometry": {"coordinates": [-72.020921, 44.418106], "type": "Point"}, "id": "RqNkSrrctKl_6P132UHPrps-4i4=", "properties": {"@spider": "usps_collection_boxes", "addr:city": "ST JOHNSBURY", "addr:country": "US", "addr:full": "1153 MAIN ST", "addr:postcode": "05819", "addr:state": "VT", "amenity": "post_box", "brand": "United States Postal Service", "brand:wikidata": "Q668687", "collection_times": "Mo-Sa 17:00", "name": "USPS COLLECTION BOX - BLUE BOX", "note": "ON 12/24 AND 12/31, THIS BOX MAY BE COLLECTED AS EARLY AS 12 NOON.", "nsi_id": "unitedstatespostalservice-a77078", "operator": "United States Postal Service", "operator:short": "USPS", "operator:type": "public", "operator:wikidata": "Q668687", "ref": "0581900000"}, "type": "Feature"}
{"dataset_attributes": {"@spider": "usps_collection_boxes", "spider:collection_time": "2023-12-25T08:25:18.404837"}, "geometry": {"coordinates": [-72.020921, 44.418106], "type": "Point"}, "id": "gZw-1b2CpIN1xDCsAp6VnFrWTkk=", "properties": {"@spider": "usps_collection_boxes", "addr:city": "ST JOHNSBURY", "addr:country": "US", "addr:full": "1153 MAIN ST", "addr:postcode": "05819", "addr:state": "VT", "amenity": "post_box", "brand": "United States Postal Service", "brand:wikidata": "Q668687", "collection_times": "Mo-Sa 17:00", "name": "USPS COLLECTION BOX - BLUE BOX", "note": "ON 12/24 AND 12/31, THIS BOX MAY BE COLLECTED AS EARLY AS 12 NOON.", "nsi_id": "unitedstatespostalservice-a77078", "operator": "United States Postal Service", "operator:short": "USPS", "operator:type": "public", "operator:wikidata": "Q668687", "ref": "0581900001"}, "type": "Feature"}
{"dataset_attributes": {"@spider": "usps_collection_boxes", "spider:collection_time": "2023-12-25T08:25:18.404837"}, "geometry": {"coordinates": [-72.0094542, 44.445481], "type": "Point"}, "id": "sPIbvQKsJGnkGURS1-dMkvF0Oi8=", "properties": {"@spider": "usps_collection_boxes", "addr:city": "ST JOHNSBURY", "addr:country": "US", "addr:full": "1315 HOSPITAL DR", "addr:postcode": "05819", "addr:state": "VT", "amenity": "post_box", "brand": "United States Postal Service", "brand:wikidata": "Q668687", "collection_times": "Mo-Sa 09:00", "name": "USPS COLLECTION BOX - BLUE BOX", "nsi_id": "unitedstatespostalservice-a77078", "operator": "United States Postal Service", "operator:short": "USPS", "operator:type": "public", "operator:wikidata": "Q668687", "ref": "0581900005"}, "type": "Feature"}
{"dataset_attributes": {"@spider": "usps_collection_boxes", "spider:collection_time": "2023-12-25T08:25:18.404837"}, "geometry": {"coordinates": [-72.0377127, 44.433215], "type": "Point"}, "id": "odMovv4HdVBBjvwr89iMDlximEE=", "properties": {"@spider": "usps_collection_boxes", "addr:city": "ST JOHNSBURY", "addr:country": "US", "addr:full": "347 EMERSON FALLS RD", "addr:postcode": "05819", "addr:state": "VT", "amenity": "post_box", "brand": "United States Postal Service", "brand:wikidata": "Q668687", "collection_times": "Mo-Sa 09:00", "name": "USPS COLLECTION BOX - BLUE BOX", "nsi_id": "unitedstatespostalservice-a77078", "operator": "United States Postal Service", "operator:short": "USPS", "operator:type": "public", "operator:wikidata": "Q668687", "ref": "0581900008"}, "type": "Feature"}
{"dataset_attributes": {"@spider": "usps_collection_boxes", "spider:collection_time": "2023-12-25T08:25:18.404837"}, "geometry": {"coordinates": [-72.0193114, 44.421509], "type": "Point"}, "id": "cQALecXgHDuibyibqtgmApPKQm8=", "properties": {"@spider": "usps_collection_boxes", "addr:city": "ST JOHNSBURY", "addr:country": "US", "addr:full": "1394 MAIN ST", "addr:postcode": "05819", "addr:state": "VT", "amenity": "post_box", "brand": "United States Postal Service", "brand:wikidata": "Q668687", "collection_times": "Mo-Sa 09:00", "name": "USPS COLLECTION BOX - BLUE BOX", "nsi_id": "unitedstatespostalservice-a77078", "operator": "United States Postal Service", "operator:short": "USPS", "operator:type": "public", "operator:wikidata": "Q668687", "ref": "0581900011"}, "type": "Feature"}
{"dataset_attributes": {"@spider": "usps_collection_boxes", "spider:collection_time": "2023-12-25T08:25:18.404837"}, "geometry": {"coordinates": [-72.0158664, 44.417729], "type": "Point"}, "id": "_l2bxwhluJ4muWPSm5J3UMM69tY=", "properties": {"@spider": "usps_collection_boxes", "addr:city": "ST JOHNSBURY", "addr:country": "US", "addr:full": "364 RAILROAD ST", "addr:postcode": "05819", "addr:state": "VT", "amenity": "post_box", "brand": "United States Postal Service", "brand:wikidata": "Q668687", "collection_times": "Mo-Sa 09:00", "name": "USPS COLLECTION BOX - BLUE BOX", "nsi_id": "unitedstatespostalservice-a77078", "operator": "United States Postal Service", "operator:short": "USPS", "operator:type": "public", "operator:wikidata": "Q668687", "ref": "0581900014"}, "type": "Feature"}
{"dataset_attributes": {"@spider": "usps_collection_boxes", "spider:collection_time": "2023-12-25T08:25:18.404837"}, "geometry": {"coordinates": [-72.0185599811, 44.4191700054], "type": "Point"}, "id": "jE0g1o_izbaF4eywjpr3te7NRss=", "properties": {"@spider": "usps_collection_boxes", "addr:city": "ST JOHNSBURY", "addr:country": "US", "addr:full": "90 PROSPECT ST", "addr:postcode": "05819", "addr:state": "VT", "amenity": "post_box", "brand": "United States Postal Service", "brand:wikidata": "Q668687", "collection_times": "Mo-Fr 09:00", "name": "USPS COLLECTION BOX - BLUE BOX", "nsi_id": "unitedstatespostalservice-a77078", "operator": "United States Postal Service", "operator:short": "USPS", "operator:type": "public", "operator:wikidata": "Q668687", "ref": "0581900018"}, "type": "Feature"}
{"dataset_attributes": {"@spider": "usps_collection_boxes", "spider:collection_time": "2023-12-25T08:25:18.404837"}, "geometry": {"coordinates": [-72.0197666, 44.418917], "type": "Point"}, "id": "XFQiOiZTuP47389G-F8hzVaJghw=", "properties": {"@spider": "usps_collection_boxes", "addr:city": "ST JOHNSBURY", "addr:country": "US", "addr:full": "204 EASTERN AVE", "addr:postcode": "05819", "addr:state": "VT", "amenity": "post_box", "brand": "United States Postal Service", "brand:wikidata": "Q668687", "collection_times": "Mo-Sa 09:00", "name": "USPS COLLECTION BOX - BLUE BOX", "nsi_id": "unitedstatespostalservice-a77078", "operator": "United States Postal Service", "operator:short": "USPS", "operator:type": "public", "operator:wikidata": "Q668687", "ref": "0581900019"}, "type": "Feature"}
{"dataset_attributes": {"@spider": "usps_collection_boxes", "spider:collection_time": "2023-12-25T08:25:18.404837"}, "geometry": {"coordinates": [-72.0171024, 44.41799], "type": "Point"}, "id": "FTX4l0OKzTgt06Kb-B_n734EjbE=", "properties": {"@spider": "usps_collection_boxes", "addr:city": "ST JOHNSBURY", "addr:country": "US", "addr:full": "67 EASTERN AVE", "addr:postcode": "05819", "addr:state": "VT", "amenity": "post_box", "brand": "United States Postal Service", "brand:wikidata": "Q668687", "collection_times": "Mo-Sa 09:00", "name": "USPS COLLECTION BOX - BLUE BOX", "nsi_id": "unitedstatespostalservice-a77078", "operator": "United States Postal Service", "operator:short": "USPS", "operator:type": "public", "operator:wikidata": "Q668687", "ref": "0581900020"}, "type": "Feature"}
{"dataset_attributes": {"@spider": "usps_collection_boxes", "spider:collection_time": "2023-12-25T08:25:18.404837"}, "geometry": {"coordinates": [-72.0152978, 44.419963], "type": "Point"}, "id": "afe_owR12miMPgszAnxookBo-ys=", "properties": {"@spider": "usps_collection_boxes", "addr:city": "ST JOHNSBURY", "addr:country": "US", "addr:full": "502 RAILROAD ST", "addr:postcode": "05819", "addr:state": "VT", "amenity": "post_box", "brand": "United States Postal Service", "brand:wikidata": "Q668687", "collection_times": "Mo-Sa 09:00", "name": "USPS COLLECTION BOX - BLUE BOX", "nsi_id": "unitedstatespostalservice-a77078", "operator": "United States Postal Service", "operator:short": "USPS", "operator:type": "public", "operator:wikidata": "Q668687", "ref": "0581900024"}, "type": "Feature"}
{"dataset_attributes": {"@spider": "usps_collection_boxes", "spider:collection_time": "2023-12-25T08:25:18.404837"}, "geometry": {"coordinates": [-72.0080937, 44.420819], "type": "Point"}, "id": "Si0B3KEMkRONoVYLJcfBN2izWYc=", "properties": {"@spider": "usps_collection_boxes", "addr:city": "ST JOHNSBURY", "addr:country": "US", "addr:full": "385 PORTLAND ST", "addr:postcode": "05819", "addr:state": "VT", "amenity": "post_box", "brand": "United States Postal Service", "brand:wikidata": "Q668687", "collection_times": "Mo-Sa 09:00", "name": "USPS COLLECTION BOX - BLUE BOX", "nsi_id": "unitedstatespostalservice-a77078", "operator": "United States Postal Service", "operator:short": "USPS", "operator:type": "public", "operator:wikidata": "Q668687", "ref": "0581900026"}, "type": "Feature"}
{"dataset_attributes": {"@spider": "usps_collection_boxes", "spider:collection_time": "2023-12-25T08:25:18.404837"}, "geometry": {"coordinates": [-72.0009832, 44.421482], "type": "Point"}, "id": "7lEoinF1yG447qTs9AY2E_43iQc=", "properties": {"@spider": "usps_collection_boxes", "addr:city": "ST JOHNSBURY", "addr:country": "US", "addr:full": "702 PORTLAND ST", "addr:postcode": "05819", "addr:state": "VT", "amenity": "post_box", "brand": "United States Postal Service", "brand:wikidata": "Q668687", "collection_times": "Mo-Sa 09:00", "name": "USPS COLLECTION BOX - BLUE BOX", "nsi_id": "unitedstatespostalservice-a77078", "operator": "United States Postal Service", "operator:short": "USPS", "operator:type": "public", "operator:wikidata": "Q668687", "ref": "0581900027"}, "type": "Feature"}
{"dataset_attributes": {"@spider": "usps_collection_boxes", "spider:collection_time": "2023-12-25T08:25:18.404837"}, "geometry": {"coordinates": [-72.0134159, 44.425667], "type": "Point"}, "id": "ydemwAzlQeRVsHnzLj52nxrzPSE=", "properties": {"@spider": "usps_collection_boxes", "addr:city": "ST JOHNSBURY", "addr:country": "US", "addr:full": "77 CONCORD AVE", "addr:postcode": "05819", "addr:state": "VT", "amenity": "post_box", "brand": "United States Postal Service", "brand:wikidata": "Q668687", "collection_times": "Mo-Sa 09:00", "name": "USPS COLLECTION BOX - BLUE BOX", "nsi_id": "unitedstatespostalservice-a77078", "operator": "United States Postal Service", "operator:short": "USPS", "operator:type": "public", "operator:wikidata": "Q668687", "ref": "0581900028"}, "type": "Feature"}
{"dataset_attributes": {"@spider": "usps_collection_boxes", "spider:collection_time": "2023-12-25T08:25:18.404837"}, "geometry": {"coordinates": [-72.0191799905, 44.4162199946], "type": "Point"}, "id": "1RtbNDJaa7l27Q1w2TnPc2UlpNQ=", "properties": {"@spider": "usps_collection_boxes", "addr:city": "ST JOHNSBURY", "addr:country": "US", "addr:full": "1000 MAIN ST", "addr:postcode": "05819", "addr:state": "VT", "amenity": "post_box", "brand": "United States Postal Service", "brand:wikidata": "Q668687", "collection_times": "Mo-Fr 09:00", "name": "USPS COLLECTION BOX - BLUE BOX", "nsi_id": "unitedstatespostalservice-a77078", "operator": "United States Postal Service", "operator:short": "USPS", "operator:type": "public", "operator:wikidata": "Q668687", "ref": "0581900029"}, "type": "Feature"}
{"dataset_attributes": {"@spider": "usps_collection_boxes", "spider:collection_time": "2023-12-25T08:25:18.404837"}, "geometry": {"coordinates": [-72.0142229, 44.460182], "type": "Point"}, "id": "oBtKfPECG9lAsJghJLjXlrdD2-M=", "properties": {"@spider": "usps_collection_boxes", "addr:city": "ST JOHNSBURY", "addr:country": "US", "addr:full": "1998 MEMORIAL DR", "addr:postcode": "05819", "addr:state": "VT", "amenity": "post_box", "brand": "United States Postal Service", "brand:wikidata": "Q668687", "collection_times": "Mo-Sa 09:00", "name": "USPS COLLECTION BOX - BLUE BOX", "nsi_id": "unitedstatespostalservice-a77078", "operator": "United States Postal Service", "operator:short": "USPS", "operator:type": "public", "operator:wikidata": "Q668687", "ref": "0581900031"}, "type": "Feature"}
{"dataset_attributes": {"@spider": "usps_collection_boxes", "spider:collection_time": "2023-12-25T08:25:18.404837"}, "geometry": {"coordinates": [-72.0164315, 44.444603], "type": "Point"}, "id": "S5C7X4dSty3lc5z99P9ARp2FP84=", "properties": {"@spider": "usps_collection_boxes", "addr:city": "ST JOHNSBURY", "addr:country": "US", "addr:full": "857 MEMORIAL DR", "addr:postcode": "05819", "addr:state": "VT", "amenity": "post_box", "brand": "United States Postal Service", "brand:wikidata": "Q668687", "collection_times": "Mo-Sa 09:00", "name": "USPS COLLECTION BOX - BLUE BOX", "nsi_id": "unitedstatespostalservice-a77078", "operator": "United States Postal Service", "operator:short": "USPS", "operator:type": "public", "operator:wikidata": "Q668687", "ref": "0581900035"}, "type": "Feature"}
{"dataset_attributes": {"@spider": "usps_collection_boxes", "spider:collection_time": "2023-12-25T08:25:18.404837"}, "geometry": {"coordinates": [-71.9782897013, 44.4277144806], "type": "Point"}, "id": "VVWIaurFMiCprOl5K1QsqLoqtt4=", "properties": {"@spider": "usps_collection_boxes", "addr:city": "ST JOHNSBURY", "addr:country": "US", "addr:full": "2176 PORTLAND ST", "addr:postcode": "05819", "addr:state": "VT", "amenity": "post_box", "brand": "United States Postal Service", "brand:wikidata": "Q668687", "collection_times": "Mo-Fr 09:00", "name": "USPS COLLECTION BOX - BLUE BOX", "nsi_id": "unitedstatespostalservice-a77078", "operator": "United States Postal Service", "operator:short": "USPS", "operator:type": "public", "operator:wikidata": "Q668687", "ref": "0581900040"}, "type": "Feature"}
{"dataset_attributes": {"@spider": "usps_collection_boxes", "spider:collection_time": "2023-12-25T08:25:18.404837"}, "geometry": {"coordinates": [-72.020921, 44.418106], "type": "Point"}, "id": "8j_6M59vRUKGSepz5fQmWK-c8hQ=", "properties": {"@spider": "usps_collection_boxes", "addr:city": "ST JOHNSBURY", "addr:country": "US", "addr:full": "1153 MAIN ST LBBY MIXED", "addr:postcode": "05819", "addr:state": "VT", "amenity": "post_box", "brand": "United States Postal Service", "brand:wikidata": "Q668687", "collection_times": "Mo-Sa 17:00", "name": "USPS COLLECTION BOX - PO LOBBY", "note": "ON 12/24 AND 12/31, THIS BOX MAY BE COLLECTED AS EARLY AS 12 NOON.", "nsi_id": "unitedstatespostalservice-a77078", "operator": "United States Postal Service", "operator:short": "USPS", "operator:type": "public", "operator:wikidata": "Q668687", "ref": "0581900042"}, "type": "Feature"}
{"dataset_attributes": {"@spider": "usps_collection_boxes", "spider:collection_time": "2023-12-25T08:25:18.404837"}, "geometry": {"coordinates": [-72.020861538, 44.418279427], "type": "Point"}, "id": "cXEcb7IyA9kKK1ft2oTifU-izEQ=", "properties": {"@spider": "usps_collection_boxes", "addr:city": "ST JOHNSBURY", "addr:country": "US", "addr:full": "1153 MAIN ST RM 100", "addr:postcode": "05819", "addr:state": "VT", "amenity": "post_box", "brand": "United States Postal Service", "brand:wikidata": "Q668687", "collection_times": "Mo-Fr 17:00; Sa 12:00", "name": "USPS COLLECTION BOX - PO LOBBY", "note": "ON 12/24 AND 12/31, THIS BOX MAY BE COLLECTED AS EARLY AS 12 NOON.", "nsi_id": "unitedstatespostalservice-a77078", "operator": "United States Postal Service", "operator:short": "USPS", "operator:type": "public", "operator:wikidata": "Q668687", "ref": "0581900043"}, "type": "Feature"}
{"dataset_attributes": {"@spider": "usps_collection_boxes", "spider:collection_time": "2023-12-25T08:25:18.404837"}, "geometry": {"coordinates": [-72.3794159, 44.731355], "type": "Point"}, "id": "FyYf4L4V-pMgJ1uItRHmEDRCmYQ=", "properties": {"@spider": "usps_collection_boxes", "addr:city": "ALBANY", "addr:country": "US", "addr:full": "803 MAIN ST", "addr:postcode": "05820", "addr:state": "VT", "amenity": "post_box", "brand": "United States Postal Service", "brand:wikidata": "Q668687", "collection_times": "Mo-Fr 16:30; Sa 10:30", "name": "USPS COLLECTION BOX - BLUE BOX", "note": "ON 12/24 AND 12/31, THIS BOX MAY BE COLLECTED AS EARLY AS 12 NOON.", "nsi_id": "unitedstatespostalservice-a77078", "operator": "United States Postal Service", "operator:short": "USPS", "operator:type": "public", "operator:wikidata": "Q668687", "ref": "0582000000"}, "type": "Feature"}
{"dataset_attributes": {"@spider": "usps_collection_boxes", "spider:collection_time": "2023-12-25T08:25:18.404837"}, "geometry": {"coordinates": [-72.3793966, 44.731346], "type": "Point"}, "id": "zqA5dY-4viPWwnYLJQBchv-WaR0=", "properties": {"@spider": "usps_collection_boxes", "addr:city": "ALBANY", "addr:country": "US", "addr:full": "803 MAIN ST", "addr:postcode": "05820", "addr:state": "VT", "amenity": "post_box", "brand": "United States Postal Service", "brand:wikidata": "Q668687", "collection_times": "Mo-Fr 16:30; Sa 10:30", "name": "USPS COLLECTION BOX - PO LOBBY", "note": "ON 12/24 AND 12/31, THIS BOX MAY BE COLLECTED AS EARLY AS 12 NOON.", "nsi_id": "unitedstatespostalservice-a77078", "operator": "United States Postal Service", "operator:short": "USPS", "operator:type": "public", "operator:wikidata": "Q668687", "ref": "0582000001"}, "type": "Feature"}
{"dataset_attributes": {"@spider": "usps_collection_boxes", "spider:collection_time": "2023-12-25T08:25:18.404837"}, "geometry": {"coordinates": [-72.379480061, 44.731472051], "type": "Point"}, "id": "2FsOE_BvjSQNK3g_LODLQoNHFhQ=", "properties": {"@spider": "usps_collection_boxes", "addr:city": "ALBANY", "addr:country": "US", "addr:full": "803 MAIN ST", "addr:postcode": "05820", "addr:state": "VT", "amenity": "post_box", "brand": "United States Postal Service", "brand:wikidata": "Q668687", "collection_times": "Mo-Fr 11:30; Sa 10:30", "name": "USPS COLLECTION BOX - PO LOBBY", "nsi_id": "unitedstatespostalservice-a77078", "operator": "United States Postal Service", "operator:short": "USPS", "operator:type": "public", "operator:wikidata": "Q668687", "ref": "0582000002"}, "type": "Feature"}
{"dataset_attributes": {"@spider": "usps_collection_boxes", "spider:collection_time": "2023-12-25T08:25:18.404837"}, "geometry": {"coordinates": [-72.049392, 44.296773], "type": "Point"}, "id": "7q1abM_8i3V9eYUCHfYvxWo9Dqk=", "properties": {"@spider": "usps_collection_boxes", "addr:city": "BARNET", "addr:country": "US", "addr:full": "30 MONUMENT CIR", "addr:postcode": "05821", "addr:state": "VT", "amenity": "post_box", "brand": "United States Postal Service", "brand:wikidata": "Q668687", "collection_times": "Mo-Fr 14:30; Sa 11:00", "name": "USPS COLLECTION BOX - BLUE BOX", "note": "ON 12/24 AND 12/31, THIS BOX MAY BE COLLECTED AS EARLY AS 12 NOON.", "nsi_id": "unitedstatespostalservice-a77078", "operator": "United States Postal Service", "operator:short": "USPS", "operator:type": "public", "operator:wikidata": "Q668687", "ref": "0582100000"}, "type": "Feature"}
{"dataset_attributes": {"@spider": "usps_collection_boxes", "spider:collection_time": "2023-12-25T08:25:18.404837"}, "geometry": {"coordinates": [-72.049416, 44.296727], "type": "Point"}, "id": "3V6bxE00Gq5YBn38gYL6a_zSW2E=", "properties": {"@spider": "usps_collection_boxes", "addr:city": "BARNET", "addr:country": "US", "addr:full": "30 MONUMENT CIR", "addr:postcode": "05821", "addr:state": "VT", "amenity": "post_box", "brand": "United States Postal Service", "brand:wikidata": "Q668687", "collection_times": "Mo-Fr 14:30; Sa 11:00", "name": "USPS COLLECTION BOX - PO LOBBY", "note": "ON 12/24 AND 12/31, THIS BOX MAY BE COLLECTED AS EARLY AS 12 NOON.", "nsi_id": "unitedstatespostalservice-a77078", "operator": "United States Postal Service", "operator:short": "USPS", "operator:type": "public", "operator:wikidata": "Q668687", "ref": "0582100002"}, "type": "Feature"}
{"dataset_attributes": {"@spider": "usps_collection_boxes", "spider:collection_time": "2023-12-25T08:25:18.404837"}, "geometry": {"coordinates": [-72.049385478, 44.296731283], "type": "Point"}, "id": "0n4blRfAiwIIBRf1LmX1fPd_qXY=", "properties": {"@spider": "usps_collection_boxes", "addr:city": "BARNET", "addr:country": "US", "addr:full": "30 MONUMENT CIR", "addr:postcode": "05821", "addr:state": "VT", "amenity": "post_box", "brand": "United States Postal Service", "brand:wikidata": "Q668687", "collection_times": "Mo-Fr 14:30; Sa 10:45", "name": "USPS COLLECTION BOX - PO LOBBY", "note": "ON 12/24 AND 12/31, THIS BOX MAY BE COLLECTED AS EARLY AS 12 NOON.", "nsi_id": "unitedstatespostalservice-a77078", "operator": "United States Postal Service", "operator:short": "USPS", "operator:type": "public", "operator:wikidata": "Q668687", "ref": "0582100004"}, "type": "Feature"}
{"dataset_attributes": {"@spider": "usps_collection_boxes", "spider:collection_time": "2023-12-25T08:25:18.404837"}, "geometry": {"coordinates": [-72.179085, 44.750332], "type": "Point"}, "id": "ViYZmy6tlJ3rjznHwodS9vDDidg=", "properties": {"@spider": "usps_collection_boxes", "addr:city": "BARTON", "addr:country": "US", "addr:full": "405 MAIN ST", "addr:postcode": "05822", "addr:state": "VT", "amenity": "post_box", "brand": "United States Postal Service", "brand:wikidata": "Q668687", "collection_times": "Mo-Fr 17:00; Sa 11:00", "name": "USPS COLLECTION BOX - BLUE BOX", "note": "ON 12/24 AND 12/31, THIS BOX MAY BE COLLECTED AS EARLY AS 12 NOON.", "nsi_id": "unitedstatespostalservice-a77078", "operator": "United States Postal Service", "operator:short": "USPS", "operator:type": "public", "operator:wikidata": "Q668687", "ref": "0582200001"}, "type": "Feature"}
{"dataset_attributes": {"@spider": "usps_collection_boxes", "spider:collection_time": "2023-12-25T08:25:18.404837"}, "geometry": {"coordinates": [-72.1875972, 44.706078], "type": "Point"}, "id": "SgMKHRtaO12IqJS-OaHQmwTIhYY=", "properties": {"@spider": "usps_collection_boxes", "addr:city": "BARTON", "addr:country": "US", "addr:full": "2984 GLOVER ST", "addr:postcode": "05822", "addr:state": "VT", "amenity": "post_box", "brand": "United States Postal Service", "brand:wikidata": "Q668687", "collection_times": "Mo-Fr 13:00; Sa 11:30", "name": "USPS COLLECTION BOX - BLUE BOX", "note": "ON 12/24 AND 12/31, THIS BOX MAY BE COLLECTED AS EARLY AS 12 NOON.", "nsi_id": "unitedstatespostalservice-a77078", "operator": "United States Postal Service", "operator:short": "USPS", "operator:type": "public", "operator:wikidata": "Q668687", "ref": "0582200003"}, "type": "Feature"}
{"dataset_attributes": {"@spider": "usps_collection_boxes", "spider:collection_time": "2023-12-25T08:25:18.404837"}, "geometry": {"coordinates": [-72.179085, 44.750332], "type": "Point"}, "id": "7JEa487bunIqaOcujl3CxMRqaM0=", "properties": {"@spider": "usps_collection_boxes", "addr:city": "BARTON", "addr:country": "US", "addr:full": "405 MAIN ST", "addr:postcode": "05822", "addr:state": "VT", "amenity": "post_box", "brand": "United States Postal Service", "brand:wikidata": "Q668687", "collection_times": "Mo-Fr 16:45; Sa 11:00", "name": "USPS COLLECTION BOX - PO LOBBY", "note": "ON 12/24 AND 12/31, THIS BOX MAY BE COLLECTED AS EARLY AS 12 NOON.", "nsi_id": "unitedstatespostalservice-a77078", "operator": "United States Postal Service", "operator:short": "USPS", "operator:type": "public", "operator:wikidata": "Q668687", "ref": "0582200004"}, "type": "Feature"}
{"dataset_attributes": {"@spider": "usps_collection_boxes", "spider:collection_time": "2023-12-25T08:25:18.404837"}, "geometry": {"coordinates": [-72.179126853, 44.750324934], "type": "Point"}, "id": "Z4BHUNKRGwxXrM4tVnWIupeD4wI=", "properties": {"@spider": "usps_collection_boxes", "addr:city": "BARTON", "addr:country": "US", "addr:full": "405 MAIN ST", "addr:postcode": "05822", "addr:state": "VT", "amenity": "post_box", "brand": "United States Postal Service", "brand:wikidata": "Q668687", "collection_times": "Mo-Fr 16:30; Sa 11:30", "name": "USPS COLLECTION BOX - PO LOBBY", "note": "ON 12/24 AND 12/31, THIS BOX MAY BE COLLECTED AS EARLY AS 12 NOON.", "nsi_id": "unitedstatespostalservice-a77078", "operator": "United States Postal Service", "operator:short": "USPS", "operator:type": "public", "operator:wikidata": "Q668687", "ref": "0582200005"}, "type": "Feature"}
{"dataset_attributes": {"@spider": "usps_collection_boxes", "spider:collection_time": "2023-12-25T08:25:18.404837"}, "geometry": {"coordinates": [-72.141872, 45.005499], "type": "Point"}, "id": "5TF9VrV7QynKbFHi8GyvNlRvQXg=", "properties": {"@spider": "usps_collection_boxes", "addr:city": "BEEBE PLAIN", "addr:country": "US", "addr:full": "3141 BEEBE RD", "addr:postcode": "05823", "addr:state": "VT", "amenity": "post_box", "brand": "United States Postal Service", "brand:wikidata": "Q668687", "collection_times": "Mo-Fr 12:00; Sa 11:45", "name": "USPS COLLECTION BOX - BLUE BOX", "nsi_id": "unitedstatespostalservice-a77078", "operator": "United States Postal Service", "operator:short": "USPS", "operator:type": "public", "operator:wikidata": "Q668687", "ref": "0582300000"}, "type": "Feature"}
{"dataset_attributes": {"@spider": "usps_collection_boxes", "spider:collection_time": "2023-12-25T08:25:18.404837"}, "geometry": {"coordinates": [-72.141872, 45.005499], "type": "Point"}, "id": "Gu5mQDVoiuak6sSFfcjL6DvtMqg=", "properties": {"@spider": "usps_collection_boxes", "addr:city": "BEEBE PLAIN", "addr:country": "US", "addr:full": "3141 BEEBE RD", "addr:postcode": "05823", "addr:state": "VT", "amenity": "post_box", "brand": "United States Postal Service", "brand:wikidata": "Q668687", "collection_times": "Mo-Fr 12:00; Sa 11:45", "name": "USPS COLLECTION BOX - PO LOBBY", "nsi_id": "unitedstatespostalservice-a77078", "operator": "United States Postal Service", "operator:short": "USPS", "operator:type": "public", "operator:wikidata": "Q668687", "ref": "0582300001"}, "type": "Feature"}
{"dataset_attributes": {"@spider": "usps_collection_boxes", "spider:collection_time": "2023-12-25T08:25:18.404837"}, "geometry": {"coordinates": [-72.141767911, 45.005338174], "type": "Point"}, "id": "nMXVgBZ1UTmDr9_yJUvwB_a4jag=", "properties": {"@spider": "usps_collection_boxes", "addr:city": "BEEBE PLAIN", "addr:country": "US", "addr:full": "3141 BEEBE RD", "addr:postcode": "05823", "addr:state": "VT", "amenity": "post_box", "brand": "United States Postal Service", "brand:wikidata": "Q668687", "collection_times": "Mo-Fr 12:00; Sa 11:30", "name": "USPS COLLECTION BOX - PO LOBBY", "nsi_id": "unitedstatespostalservice-a77078", "operator": "United States Postal Service", "operator:short": "USPS", "operator:type": "public", "operator:wikidata": "Q668687", "ref": "0582300002"}, "type": "Feature"}
{"dataset_attributes": {"@spider": "usps_collection_boxes", "spider:collection_time": "2023-12-25T08:25:18.404837"}, "geometry": {"coordinates": [-71.888797, 44.428793], "type": "Point"}, "id": "hbnz1e0G00M4ymzldZ-jAndY1R8=", "properties": {"@spider": "usps_collection_boxes", "addr:city": "CONCORD", "addr:country": "US", "addr:full": "343 MAIN ST", "addr:postcode": "05824", "addr:state": "VT", "amenity": "post_box", "brand": "United States Postal Service", "brand:wikidata": "Q668687", "collection_times": "Mo-Fr 14:30; Sa 11:15", "name": "USPS COLLECTION BOX - BLUE BOX", "note": "ON 12/24 AND 12/31, THIS BOX MAY BE COLLECTED AS EARLY AS 12 NOON.", "nsi_id": "unitedstatespostalservice-a77078", "operator": "United States Postal Service", "operator:short": "USPS", "operator:type": "public", "operator:wikidata": "Q668687", "ref": "0582400000"}, "type": "Feature"}
{"dataset_attributes": {"@spider": "usps_collection_boxes", "spider:collection_time": "2023-12-25T08:25:18.404837"}, "geometry": {"coordinates": [-71.888797, 44.428793], "type": "Point"}, "id": "cA_mcnc6jYj12ulxNNHpZYUHtL8=", "properties": {"@spider": "usps_collection_boxes", "addr:city": "CONCORD", "addr:country": "US", "addr:full": "343 MAIN ST", "addr:postcode": "05824", "addr:state": "VT", "amenity": "post_box", "brand": "United States Postal Service", "brand:wikidata": "Q668687", "collection_times": "Mo-Fr 14:30; Sa 11:15", "name": "USPS COLLECTION BOX - PO LOBBY", "note": "ON 12/24 AND 12/31, THIS BOX MAY BE COLLECTED AS EARLY AS 12 NOON.", "nsi_id": "unitedstatespostalservice-a77078", "operator": "United States Postal Service", "operator:short": "USPS", "operator:type": "public", "operator:wikidata": "Q668687", "ref": "0582400001"}, "type": "Feature"}
{"dataset_attributes": {"@spider": "usps_collection_boxes", "spider:collection_time": "2023-12-25T08:25:18.404837"}, "geometry": {"coordinates": [-71.888809552, 44.428815449], "type": "Point"}, "id": "5VxmfOpyDo38HPsnO9hho4EON8M=", "properties": {"@spider": "usps_collection_boxes", "addr:city": "CONCORD", "addr:country": "US", "addr:full": "343 MAIN ST", "addr:postcode": "05824", "addr:state": "VT", "amenity": "post_box", "brand": "United States Postal Service", "brand:wikidata": "Q668687", "collection_times": "Mo-Fr 14:30; Sa 11:00", "name": "USPS COLLECTION BOX - PO LOBBY", "note": "ON 12/24 AND 12/31, THIS BOX MAY BE COLLECTED AS EARLY AS 12 NOON.", "nsi_id": "unitedstatespostalservice-a77078", "operator": "United States Postal Service", "operator:short": "USPS", "operator:type": "public", "operator:wikidata": "Q668687", "ref": "0582400002"}, "type": "Feature"}
{"dataset_attributes": {"@spider": "usps_collection_boxes", "spider:collection_time": "2023-12-25T08:25:18.404837"}, "geometry": {"coordinates": [-72.264206, 44.866341], "type": "Point"}, "id": "JM2HydiuUvjk_T61_GoTb6sk4lA=", "properties": {"@spider": "usps_collection_boxes", "addr:city": "COVENTRY", "addr:country": "US", "addr:full": "177 MAIN ST", "addr:postcode": "05825", "addr:state": "VT", "amenity": "post_box", "brand": "United States Postal Service", "brand:wikidata": "Q668687", "collection_times": "Mo-Fr 16:45; Sa 11:00", "name": "USPS COLLECTION BOX - BLUE BOX", "note": "ON 12/24 AND 12/31, THIS BOX MAY BE COLLECTED AS EARLY AS 12 NOON.", "nsi_id": "unitedstatespostalservice-a77078", "operator": "United States Postal Service", "operator:short": "USPS", "operator:type": "public", "operator:wikidata": "Q668687", "ref": "0582500000"}, "type": "Feature"}
{"dataset_attributes": {"@spider": "usps_collection_boxes", "spider:collection_time": "2023-12-25T08:25:18.404837"}, "geometry": {"coordinates": [-72.264206, 44.866341], "type": "Point"}, "id": "widzoyOF5W6aobC5PtDgxyEp-FY=", "properties": {"@spider": "usps_collection_boxes", "addr:city": "COVENTRY", "addr:country": "US", "addr:full": "177 MAIN ST", "addr:postcode": "05825", "addr:state": "VT", "amenity": "post_box", "brand": "United States Postal Service", "brand:wikidata": "Q668687", "collection_times": "Mo-Fr 16:50; Sa 11:00", "name": "USPS COLLECTION BOX - PO LOBBY", "note": "ON 12/24 AND 12/31, THIS BOX MAY BE COLLECTED AS EARLY AS 12 NOON.", "nsi_id": "unitedstatespostalservice-a77078", "operator": "United States Postal Service", "operator:short": "USPS", "operator:type": "public", "operator:wikidata": "Q668687", "ref": "0582500001"}, "type": "Feature"}
{"dataset_attributes": {"@spider": "usps_collection_boxes", "spider:collection_time": "2023-12-25T08:25:18.404837"}, "geometry": {"coordinates": [-72.264091286, 44.866453516], "type": "Point"}, "id": "VsNlPU6vILcyCzEZpaPsbc58Msw=", "properties": {"@spider": "usps_collection_boxes", "addr:city": "COVENTRY", "addr:country": "US", "addr:full": "177 MAIN ST", "addr:postcode": "05825", "addr:state": "VT", "amenity": "post_box", "brand": "United States Postal Service", "brand:wikidata": "Q668687", "collection_times": "Mo-Fr 16:45; Sa 11:00", "name": "USPS COLLECTION BOX - PO LOBBY", "note": "ON 12/24 AND 12/31, THIS BOX MAY BE COLLECTED AS EARLY AS 12 NOON.", "nsi_id": "unitedstatespostalservice-a77078", "operator": "United States Postal Service", "operator:short": "USPS", "operator:type": "public", "operator:wikidata": "Q668687", "ref": "0582500002"}, "type": "Feature"}
{"dataset_attributes": {"@spider": "usps_collection_boxes", "spider:collection_time": "2023-12-25T08:25:18.404837"}, "geometry": {"coordinates": [-72.371821, 44.634686], "type": "Point"}, "id": "6ISfQ2R58qnNKjTXlW19ASv2k80=", "properties": {"@spider": "usps_collection_boxes", "addr:city": "CRAFTSBURY", "addr:country": "US", "addr:full": "118 S CRAFTSBURY RD", "addr:postcode": "05826", "addr:state": "VT", "amenity": "post_box", "brand": "United States Postal Service", "brand:wikidata": "Q668687", "collection_times": "Mo-Fr 14:30; Sa 10:45", "name": "USPS COLLECTION BOX - PO LOBBY", "note": "ON 12/24 AND 12/31, THIS BOX MAY BE COLLECTED AS EARLY AS 12 NOON.", "nsi_id": "unitedstatespostalservice-a77078", "operator": "United States Postal Service", "operator:short": "USPS", "operator:type": "public", "operator:wikidata": "Q668687", "ref": "0582600000"}, "type": "Feature"}
{"dataset_attributes": {"@spider": "usps_collection_boxes", "spider:collection_time": "2023-12-25T08:25:18.404837"}, "geometry": {"coordinates": [-72.371821, 44.634686], "type": "Point"}, "id": "BnnvTQC-JSCKdg41zg_VqH8NzHA=", "properties": {"@spider": "usps_collection_boxes", "addr:city": "CRAFTSBURY", "addr:country": "US", "addr:full": "118 S CRAFTSBURY RD", "addr:postcode": "05826", "addr:state": "VT", "amenity": "post_box", "brand": "United States Postal Service", "brand:wikidata": "Q668687", "collection_times": "Mo-Fr 14:30; Sa 10:45", "name": "USPS COLLECTION BOX - BLUE BOX", "note": "ON 12/24 AND 12/31, THIS BOX MAY BE COLLECTED AS EARLY AS 12 NOON.", "nsi_id": "unitedstatespostalservice-a77078", "operator": "United States Postal Service", "operator:short": "USPS", "operator:type": "public", "operator:wikidata": "Q668687", "ref": "0582600001"}, "type": "Feature"}
{"dataset_attributes": {"@spider": "usps_collection_boxes", "spider:collection_time": "2023-12-25T08:25:18.404837"}, "geometry": {"coordinates": [-72.371782015, 44.634642476], "type": "Point"}, "id": "IwocTa879MNDEZtGfNhfepwBykk=", "properties": {"@spider": "usps_collection_boxes", "addr:city": "CRAFTSBURY", "addr:country": "US", "addr:full": "118 S CRAFTSBURY RD STE 1", "addr:postcode": "05826", "addr:state": "VT", "amenity": "post_box", "brand": "United States Postal Service", "brand:wikidata": "Q668687", "collection_times": "Mo-Fr 14:30; Sa 10:30", "name": "USPS COLLECTION BOX - PO LOBBY", "note": "ON 12/24 AND 12/31, THIS BOX MAY BE COLLECTED AS EARLY AS 12 NOON.", "nsi_id": "unitedstatespostalservice-a77078", "operator": "United States Postal Service", "operator:short": "USPS", "operator:type": "public", "operator:wikidata": "Q668687", "ref": "0582600002"}, "type": "Feature"}
{"dataset_attributes": {"@spider": "usps_collection_boxes", "spider:collection_time": "2023-12-25T08:25:18.404837"}, "geometry": {"coordinates": [-72.13958, 44.410558], "type": "Point"}, "id": "G2gnhQPEWvCGVcfeULQ8xW5_0Io=", "properties": {"@spider": "usps_collection_boxes", "addr:city": "DANVILLE", "addr:country": "US", "addr:full": "35 PARK ST", "addr:postcode": "05828", "addr:state": "VT", "amenity": "post_box", "brand": "United States Postal Service", "brand:wikidata": "Q668687", "collection_times": "Mo-Fr 16:30; Sa 10:45", "name": "USPS COLLECTION BOX - BLUE BOX", "note": "ON 12/24 AND 12/31, THIS BOX MAY BE COLLECTED AS EARLY AS 12 NOON.", "nsi_id": "unitedstatespostalservice-a77078", "operator": "United States Postal Service", "operator:short": "USPS", "operator:type": "public", "operator:wikidata": "Q668687", "ref": "0582800000"}, "type": "Feature"}
{"dataset_attributes": {"@spider": "usps_collection_boxes", "spider:collection_time": "2023-12-25T08:25:18.404837"}, "geometry": {"coordinates": [-72.13958, 44.410558], "type": "Point"}, "id": "0Gxgn7k0Uved0uxIpeHEm0o5DCc=", "properties": {"@spider": "usps_collection_boxes", "addr:city": "DANVILLE", "addr:country": "US", "addr:full": "35 PARK ST LBBY", "addr:postcode": "05828", "addr:state": "VT", "amenity": "post_box", "brand": "United States Postal Service", "brand:wikidata": "Q668687", "collection_times": "Mo-Fr 16:45; Sa 10:45", "name": "USPS COLLECTION BOX - PO LOBBY", "note": "ON 12/24 AND 12/31, THIS BOX MAY BE COLLECTED AS EARLY AS 12 NOON.", "nsi_id": "unitedstatespostalservice-a77078", "operator": "United States Postal Service", "operator:short": "USPS", "operator:type": "public", "operator:wikidata": "Q668687", "ref": "0582800001"}, "type": "Feature"}
{"dataset_attributes": {"@spider": "usps_collection_boxes", "spider:collection_time": "2023-12-25T08:25:18.404837"}, "geometry": {"coordinates": [-72.139617797, 44.410552598], "type": "Point"}, "id": "9lHgVMXwfy__v6mFsA6trYhbrjg=", "properties": {"@spider": "usps_collection_boxes", "addr:city": "DANVILLE", "addr:country": "US", "addr:full": "35 PARK ST", "addr:postcode": "05828", "addr:state": "VT", "amenity": "post_box", "brand": "United States Postal Service", "brand:wikidata": "Q668687", "collection_times": "Mo-Fr 16:45; Sa 11:00", "name": "USPS COLLECTION BOX - PO LOBBY", "note": "ON 12/24 AND 12/31, THIS BOX MAY BE COLLECTED AS EARLY AS 12 NOON.", "nsi_id": "unitedstatespostalservice-a77078", "operator": "United States Postal Service", "operator:short": "USPS", "operator:type": "public", "operator:wikidata": "Q668687", "ref": "0582800002"}, "type": "Feature"}
{"dataset_attributes": {"@spider": "usps_collection_boxes", "spider:collection_time": "2023-12-25T08:25:18.404837"}, "geometry": {"coordinates": [-72.133257, 44.954006], "type": "Point"}, "id": "WATeOUVZTso0jJ1KkBtlb73u8GE=", "properties": {"@spider": "usps_collection_boxes", "addr:city": "DERBY", "addr:country": "US", "addr:full": "3275 US ROUTE 5", "addr:postcode": "05829", "addr:state": "VT", "amenity": "post_box", "brand": "United States Postal Service", "brand:wikidata": "Q668687", "collection_times": "Mo-Fr 16:45; Sa 11:15", "name": "USPS COLLECTION BOX - BLUE BOX", "note": "ON 12/24 AND 12/31, THIS BOX MAY BE COLLECTED AS EARLY AS 12 NOON.", "nsi_id": "unitedstatespostalservice-a77078", "operator": "United States Postal Service", "operator:short": "USPS", "operator:type": "public", "operator:wikidata": "Q668687", "ref": "0582900000"}, "type": "Feature"}
{"dataset_attributes": {"@spider": "usps_collection_boxes", "spider:collection_time": "2023-12-25T08:25:18.404837"}, "geometry": {"coordinates": [-72.133282, 44.954029], "type": "Point"}, "id": "UNDfbisQeQ2JFWeSnoQ9KxC4J4Q=", "properties": {"@spider": "usps_collection_boxes", "addr:city": "DERBY", "addr:country": "US", "addr:full": "3275 US ROUTE 5", "addr:postcode": "05829", "addr:state": "VT", "amenity": "post_box", "brand": "United States Postal Service", "brand:wikidata": "Q668687", "collection_times": "Mo-Fr 16:45; Sa 11:15", "name": "USPS COLLECTION BOX - PO LOBBY", "note": "ON 12/24 AND 12/31, THIS BOX MAY BE COLLECTED AS EARLY AS 12 NOON.", "nsi_id": "unitedstatespostalservice-a77078", "operator": "United States Postal Service", "operator:short": "USPS", "operator:type": "public", "operator:wikidata": "Q668687", "ref": "0582900001"}, "type": "Feature"}
{"dataset_attributes": {"@spider": "usps_collection_boxes", "spider:collection_time": "2023-12-25T08:25:18.404837"}, "geometry": {"coordinates": [-72.133377156, 44.953992652], "type": "Point"}, "id": "nc-GPUOREEWv3oRwsXxEuqj3fxI=", "properties": {"@spider": "usps_collection_boxes", "addr:city": "DERBY", "addr:country": "US", "addr:full": "3275 US ROUTE 5", "addr:postcode": "05829", "addr:state": "VT", "amenity": "post_box", "brand": "United States Postal Service", "brand:wikidata": "Q668687", "collection_times": "Mo-Fr 16:30; Sa 11:15", "name": "USPS COLLECTION BOX - PO LOBBY", "note": "ON 12/24 AND 12/31, THIS BOX MAY BE COLLECTED AS EARLY AS 12 NOON.", "nsi_id": "unitedstatespostalservice-a77078", "operator": "United States Postal Service", "operator:short": "USPS", "operator:type": "public", "operator:wikidata": "Q668687", "ref": "0582900003"}, "type": "Feature"}
{"dataset_attributes": {"@spider": "usps_collection_boxes", "spider:collection_time": "2023-12-25T08:25:18.404837"}, "geometry": {"coordinates": [-72.100361, 45.004374], "type": "Point"}, "id": "k9ab3OJlw4rmfS8aECXQ_YhxK_M=", "properties": {"@spider": "usps_collection_boxes", "addr:city": "DERBY LINE", "addr:country": "US", "addr:full": "84 MAIN ST", "addr:postcode": "05830", "addr:state": "VT", "amenity": "post_box", "brand": "United States Postal Service", "brand:wikidata": "Q668687", "collection_times": "Mo-Fr 16:45; Sa 12:00", "name": "USPS COLLECTION BOX - BLUE BOX", "note": "ON 12/24 AND 12/31, THIS BOX MAY BE COLLECTED AS EARLY AS 12 NOON.", "nsi_id": "unitedstatespostalservice-a77078", "operator": "United States Postal Service", "operator:short": "USPS", "operator:type": "public", "operator:wikidata": "Q668687", "ref": "0583000000"}, "type": "Feature"}
{"dataset_attributes": {"@spider": "usps_collection_boxes", "spider:collection_time": "2023-12-25T08:25:18.404837"}, "geometry": {"coordinates": [-72.100361, 45.004374], "type": "Point"}, "id": "AhUkbzFz7QjQPAVVRwcZ5RVgfbg=", "properties": {"@spider": "usps_collection_boxes", "addr:city": "DERBY LINE", "addr:country": "US", "addr:full": "84 MAIN ST", "addr:postcode": "05830", "addr:state": "VT", "amenity": "post_box", "brand": "United States Postal Service", "brand:wikidata": "Q668687", "collection_times": "Mo-Fr 16:45; Sa 12:00", "name": "USPS COLLECTION BOX - PO LOBBY", "note": "ON 12/24 AND 12/31, THIS BOX MAY BE COLLECTED AS EARLY AS 12 NOON.", "nsi_id": "unitedstatespostalservice-a77078", "operator": "United States Postal Service", "operator:short": "USPS", "operator:type": "public", "operator:wikidata": "Q668687", "ref": "0583000001"}, "type": "Feature"}
{"dataset_attributes": {"@spider": "usps_collection_boxes", "spider:collection_time": "2023-12-25T08:25:18.404837"}, "geometry": {"coordinates": [-72.10020014, 45.004665687], "type": "Point"}, "id": "K0KuSEQADHaZ9-W0dcrKD_Bqnew=", "properties": {"@spider": "usps_collection_boxes", "addr:city": "DERBY LINE", "addr:country": "US", "addr:full": "84 MAIN ST", "addr:postcode": "05830", "addr:state": "VT", "amenity": "post_box", "brand": "United States Postal Service", "brand:wikidata": "Q668687", "collection_times": "Mo-Fr 16:45; Sa 11:45", "name": "USPS COLLECTION BOX - PO LOBBY", "note": "ON 12/24 AND 12/31, THIS BOX MAY BE COLLECTED AS EARLY AS 12 NOON.", "nsi_id": "unitedstatespostalservice-a77078", "operator": "United States Postal Service", "operator:short": "USPS", "operator:type": "public", "operator:wikidata": "Q668687", "ref": "0583000002"}, "type": "Feature"}
{"dataset_attributes": {"@spider": "usps_collection_boxes", "spider:collection_time": "2023-12-25T08:25:18.404837"}, "geometry": {"coordinates": [-71.942982, 44.588376], "type": "Point"}, "id": "9SNWPgt940SejhKu-Q5ut8y_kZc=", "properties": {"@spider": "usps_collection_boxes", "addr:city": "EAST BURKE", "addr:country": "US", "addr:full": "552 VT ROUTE 114", "addr:postcode": "05832", "addr:state": "VT", "amenity": "post_box", "brand": "United States Postal Service", "brand:wikidata": "Q668687", "collection_times": "Mo-Fr 16:45; Sa 11:30", "name": "USPS COLLECTION BOX - BLUE BOX", "note": "ON 12/24 AND 12/31, THIS BOX MAY BE COLLECTED AS EARLY AS 12 NOON.", "nsi_id": "unitedstatespostalservice-a77078", "operator": "United States Postal Service", "operator:short": "USPS", "operator:type": "public", "operator:wikidata": "Q668687", "ref": "0583200000"}, "type": "Feature"}
{"dataset_attributes": {"@spider": "usps_collection_boxes", "spider:collection_time": "2023-12-25T08:25:18.404837"}, "geometry": {"coordinates": [-71.942982, 44.588376], "type": "Point"}, "id": "r-9-XazcMz_1RmkRrxqpGTgUbbs=", "properties": {"@spider": "usps_collection_boxes", "addr:city": "EAST BURKE", "addr:country": "US", "addr:full": "552 VT ROUTE 114 LBBY", "addr:postcode": "05832", "addr:state": "VT", "amenity": "post_box", "brand": "United States Postal Service", "brand:wikidata": "Q668687", "collection_times": "Mo-Fr 16:45; Sa 11:30", "name": "USPS COLLECTION BOX - PO LOBBY", "note": "ON 12/24 AND 12/31, THIS BOX MAY BE COLLECTED AS EARLY AS 12 NOON.", "nsi_id": "unitedstatespostalservice-a77078", "operator": "United States Postal Service", "operator:short": "USPS", "operator:type": "public", "operator:wikidata": "Q668687", "ref": "0583200001"}, "type": "Feature"}
{"dataset_attributes": {"@spider": "usps_collection_boxes", "spider:collection_time": "2023-12-25T08:25:18.404837"}, "geometry": {"coordinates": [-71.94316686, 44.588329911], "type": "Point"}, "id": "ASN0Ufd0cp55FcBi0J1G4aCTNY4=", "properties": {"@spider": "usps_collection_boxes", "addr:city": "EAST BURKE", "addr:country": "US", "addr:full": "552 VT ROUTE 114", "addr:postcode": "05832", "addr:state": "VT", "amenity": "post_box", "brand": "United States Postal Service", "brand:wikidata": "Q668687", "collection_times": "Mo-Fr 17:00; Sa 11:30", "name": "USPS COLLECTION BOX - PO LOBBY", "note": "ON 12/24 AND 12/31, THIS BOX MAY BE COLLECTED AS EARLY AS 12 NOON.", "nsi_id": "unitedstatespostalservice-a77078", "operator": "United States Postal Service", "operator:short": "USPS", "operator:type": "public", "operator:wikidata": "Q668687", "ref": "0583200002"}, "type": "Feature"}
{"dataset_attributes": {"@spider": "usps_collection_boxes", "spider:collection_time": "2023-12-25T08:25:18.404837"}, "geometry": {"coordinates": [-71.989363, 44.838042], "type": "Point"}, "id": "4sI7yXKiD3fg62lDMLsOPpQzGIY=", "properties": {"@spider": "usps_collection_boxes", "addr:city": "EAST CHARLESTON", "addr:country": "US", "addr:full": "5 MILL ST", "addr:postcode": "05833", "addr:state": "VT", "amenity": "post_box", "brand": "United States Postal Service", "brand:wikidata": "Q668687", "collection_times": "Mo-Fr 16:15; Sa 10:45", "name": "USPS COLLECTION BOX - BLUE BOX", "note": "ON 12/24 AND 12/31, THIS BOX MAY BE COLLECTED AS EARLY AS 12 NOON.", "nsi_id": "unitedstatespostalservice-a77078", "operator": "United States Postal Service", "operator:short": "USPS", "operator:type": "public", "operator:wikidata": "Q668687", "ref": "0583300000"}, "type": "Feature"}
{"dataset_attributes": {"@spider": "usps_collection_boxes", "spider:collection_time": "2023-12-25T08:25:18.404837"}, "geometry": {"coordinates": [-71.989363, 44.838042], "type": "Point"}, "id": "N6y7AEI06PiSijORuo-to9qGlSE=", "properties": {"@spider": "usps_collection_boxes", "addr:city": "EAST CHARLESTON", "addr:country": "US", "addr:full": "5 MILL ST", "addr:postcode": "05833", "addr:state": "VT", "amenity": "post_box", "brand": "United States Postal Service", "brand:wikidata": "Q668687", "collection_times": "Mo-Fr 16:30; Sa 10:45", "name": "USPS COLLECTION BOX - PO LOBBY", "note": "ON 12/24 AND 12/31, THIS BOX MAY BE COLLECTED AS EARLY AS 12 NOON.", "nsi_id": "unitedstatespostalservice-a77078", "operator": "United States Postal Service", "operator:short": "USPS", "operator:type": "public", "operator:wikidata": "Q668687", "ref": "0583300001"}, "type": "Feature"}
{"dataset_attributes": {"@spider": "usps_collection_boxes", "spider:collection_time": "2023-12-25T08:25:18.404837"}, "geometry": {"coordinates": [-71.989497659, 44.838250345], "type": "Point"}, "id": "OeUXR6b7PVUAwbnUXuBjaYl1-K0=", "properties": {"@spider": "usps_collection_boxes", "addr:city": "EAST CHARLESTON", "addr:country": "US", "addr:full": "5 MILL ST", "addr:postcode": "05833", "addr:state": "VT", "amenity": "post_box", "brand": "United States Postal Service", "brand:wikidata": "Q668687", "collection_times": "Mo-Fr 16:30; Sa 11:00", "name": "USPS COLLECTION BOX - PO LOBBY", "note": "ON 12/24 AND 12/31, THIS BOX MAY BE COLLECTED AS EARLY AS 12 NOON.", "nsi_id": "unitedstatespostalservice-a77078", "operator": "United States Postal Service", "operator:short": "USPS", "operator:type": "public", "operator:wikidata": "Q668687", "ref": "0583300002"}, "type": "Feature"}
{"dataset_attributes": {"@spider": "usps_collection_boxes", "spider:collection_time": "2023-12-25T08:25:18.404837"}, "geometry": {"coordinates": [-72.30749, 44.520761], "type": "Point"}, "id": "usNsEVK35dwCJaZ9KpulJW84tHY=", "properties": {"@spider": "usps_collection_boxes", "addr:city": "EAST HARDWICK", "addr:country": "US", "addr:full": "45 MAIN ST", "addr:postcode": "05836", "addr:state": "VT", "amenity": "post_box", "brand": "United States Postal Service", "brand:wikidata": "Q668687", "collection_times": "Mo-Fr 11:45; Sa 10:45", "name": "USPS COLLECTION BOX - BLUE BOX", "nsi_id": "unitedstatespostalservice-a77078", "operator": "United States Postal Service", "operator:short": "USPS", "operator:type": "public", "operator:wikidata": "Q668687", "ref": "0583600000"}, "type": "Feature"}
{"dataset_attributes": {"@spider": "usps_collection_boxes", "spider:collection_time": "2023-12-25T08:25:18.404837"}, "geometry": {"coordinates": [-72.307565, 44.520781], "type": "Point"}, "id": "Wojq--zZzfvGYwaHe6jAYYt0zWA=", "properties": {"@spider": "usps_collection_boxes", "addr:city": "EAST HARDWICK", "addr:country": "US", "addr:full": "45 MAIN ST", "addr:postcode": "05836", "addr:state": "VT", "amenity": "post_box", "brand": "United States Postal Service", "brand:wikidata": "Q668687", "collection_times": "Mo-Fr 11:45; Sa 10:45", "name": "USPS COLLECTION BOX - PO LOBBY", "nsi_id": "unitedstatespostalservice-a77078", "operator": "United States Postal Service", "operator:short": "USPS", "operator:type": "public", "operator:wikidata": "Q668687", "ref": "0583600001"}, "type": "Feature"}
{"dataset_attributes": {"@spider": "usps_collection_boxes", "spider:collection_time": "2023-12-25T08:25:18.404837"}, "geometry": {"coordinates": [-72.307554539, 44.52079875], "type": "Point"}, "id": "SGXfyfFteLAwb2pcJSyJ1LE3B7I=", "properties": {"@spider": "usps_collection_boxes", "addr:city": "EAST HARDWICK", "addr:country": "US", "addr:full": "45 MAIN ST", "addr:postcode": "05836", "addr:state": "VT", "amenity": "post_box", "brand": "United States Postal Service", "brand:wikidata": "Q668687", "collection_times": "Mo-Fr 11:45; Sa 10:30", "name": "USPS COLLECTION BOX - PO LOBBY", "nsi_id": "unitedstatespostalservice-a77078", "operator": "United States Postal Service", "operator:short": "USPS", "operator:type": "public", "operator:wikidata": "Q668687", "ref": "0583600003"}, "type": "Feature"}
{"dataset_attributes": {"@spider": "usps_collection_boxes", "spider:collection_time": "2023-12-25T08:25:18.404837"}, "geometry": {"coordinates": [-71.8908538849, 44.6448159528], "type": "Point"}, "id": "Fl37h2XxX6y5RoiOpSE4cL206mE=", "properties": {"@spider": "usps_collection_boxes", "addr:city": "EAST HAVEN", "addr:country": "US", "addr:full": "472 SCHOOL ST", "addr:postcode": "05837", "addr:state": "VT", "amenity": "post_box", "brand": "United States Postal Service", "brand:wikidata": "Q668687", "collection_times": "Mo-Fr 16:30; Sa 11:00", "name": "USPS COLLECTION BOX - BLUE BOX", "note": "ON 12/24 AND 12/31, THIS BOX MAY BE COLLECTED AS EARLY AS 12 NOON.", "nsi_id": "unitedstatespostalservice-a77078", "operator": "United States Postal Service", "operator:short": "USPS", "operator:type": "public", "operator:wikidata": "Q668687", "ref": "0583700000"}, "type": "Feature"}
{"dataset_attributes": {"@spider": "usps_collection_boxes", "spider:collection_time": "2023-12-25T08:25:18.404837"}, "geometry": {"coordinates": [-71.89092, 44.644913], "type": "Point"}, "id": "NfbW2cQCqDK_9JfVjfJl0i4U9p8=", "properties": {"@spider": "usps_collection_boxes", "addr:city": "EAST HAVEN", "addr:country": "US", "addr:full": "472 SCHOOL ST LBBY", "addr:postcode": "05837", "addr:state": "VT", "amenity": "post_box", "brand": "United States Postal Service", "brand:wikidata": "Q668687", "collection_times": "Mo-Fr 16:45; Sa 11:00", "name": "USPS COLLECTION BOX - PO LOBBY", "note": "ON 12/24 AND 12/31, THIS BOX MAY BE COLLECTED AS EARLY AS 12 NOON.", "nsi_id": "unitedstatespostalservice-a77078", "operator": "United States Postal Service", "operator:short": "USPS", "operator:type": "public", "operator:wikidata": "Q668687", "ref": "0583700001"}, "type": "Feature"}
{"dataset_attributes": {"@spider": "usps_collection_boxes", "spider:collection_time": "2023-12-25T08:25:18.404837"}, "geometry": {"coordinates": [-71.890853885, 44.644815953], "type": "Point"}, "id": "DuhfjdnFWCBzXeneStycaQcJnN4=", "properties": {"@spider": "usps_collection_boxes", "addr:city": "EAST HAVEN", "addr:country": "US", "addr:full": "472 SCHOOL ST", "addr:postcode": "05837", "addr:state": "VT", "amenity": "post_box", "brand": "United States Postal Service", "brand:wikidata": "Q668687", "collection_times": "Mo-Fr 16:45; Sa 11:00", "name": "USPS COLLECTION BOX - PO LOBBY", "note": "ON 12/24 AND 12/31, THIS BOX MAY BE COLLECTED AS EARLY AS 12 NOON.", "nsi_id": "unitedstatespostalservice-a77078", "operator": "United States Postal Service", "operator:short": "USPS", "operator:type": "public", "operator:wikidata": "Q668687", "ref": "0583700002"}, "type": "Feature"}
{"dataset_attributes": {"@spider": "usps_collection_boxes", "spider:collection_time": "2023-12-25T08:25:18.404837"}, "geometry": {"coordinates": [-72.6626876286, 44.0752034871], "type": "Point"}, "id": "kl24r6CSwqgGwxHau3V0S9j8Pdw=", "properties": {"@spider": "usps_collection_boxes", "addr:city": "EAST JOHNSBURY", "addr:country": "US", "addr:full": "1064 US RT 2 EAST", "addr:postcode": "05838", "addr:state": "VT", "amenity": "post_box", "brand": "United States Postal Service", "brand:wikidata": "Q668687", "collection_times": "Mo-Fr 16:30; Sa 11:15", "name": "USPS COLLECTION BOX - BLUE BOX", "note": "ON 12/24 AND 12/31, THIS BOX MAY BE COLLECTED AS EARLY AS 12 NOON.", "nsi_id": "unitedstatespostalservice-a77078", "operator": "United States Postal Service", "operator:short": "USPS", "operator:type": "public", "operator:wikidata": "Q668687", "ref": "0583800000"}, "type": "Feature"}
{"dataset_attributes": {"@spider": "usps_collection_boxes", "spider:collection_time": "2023-12-25T08:25:18.404837"}, "geometry": {"coordinates": [-72.6626876286, 44.0752034871], "type": "Point"}, "id": "p-B9OSIjwrG5k9bH2tVxjQG07Oc=", "properties": {"@spider": "usps_collection_boxes", "addr:city": "EAST JOHNSBURY", "addr:country": "US", "addr:full": "1064 US RT 2 EAST", "addr:postcode": "05838", "addr:state": "VT", "amenity": "post_box", "brand": "United States Postal Service", "brand:wikidata": "Q668687", "collection_times": "Mo-Fr 16:45; Sa 11:00", "name": "USPS COLLECTION BOX - PO LOBBY", "note": "ON 12/24 AND 12/31, THIS BOX MAY BE COLLECTED AS EARLY AS 12 NOON.", "nsi_id": "unitedstatespostalservice-a77078", "operator": "United States Postal Service", "operator:short": "USPS", "operator:type": "public", "operator:wikidata": "Q668687", "ref": "0583800001"}, "type": "Feature"}
{"dataset_attributes": {"@spider": "usps_collection_boxes", "spider:collection_time": "2023-12-25T08:25:18.404837"}, "geometry": {"coordinates": [-71.947048595, 44.437794674], "type": "Point"}, "id": "kwj9i6MBmq-k20fClI0o_Ibp6jE=", "properties": {"@spider": "usps_collection_boxes", "addr:city": "EAST JOHNSBURY", "addr:country": "US", "addr:full": "1064 US ROUTE 2 E", "addr:postcode": "05838", "addr:state": "VT", "amenity": "post_box", "brand": "United States Postal Service", "brand:wikidata": "Q668687", "collection_times": "Mo-Fr 16:45; Sa 11:00", "name": "USPS COLLECTION BOX - PO LOBBY", "note": "ON 12/24 AND 12/31, THIS BOX MAY BE COLLECTED AS EARLY AS 12 NOON.", "nsi_id": "unitedstatespostalservice-a77078", "operator": "United States Postal Service", "operator:short": "USPS", "operator:type": "public", "operator:wikidata": "Q668687", "ref": "0583800002"}, "type": "Feature"}
{"dataset_attributes": {"@spider": "usps_collection_boxes", "spider:collection_time": "2023-12-25T08:25:18.404837"}, "geometry": {"coordinates": [-72.294086, 44.576005], "type": "Point"}, "id": "lU4sNDZmpKOt5Lax6NMjnGjeVz0=", "properties": {"@spider": "usps_collection_boxes", "addr:city": "GREENSBORO", "addr:country": "US", "addr:full": "12 CEMETERY RDG", "addr:postcode": "05841", "addr:state": "VT", "amenity": "post_box", "brand": "United States Postal Service", "brand:wikidata": "Q668687", "collection_times": "Mo-Fr 16:00; Sa 11:45", "name": "USPS COLLECTION BOX - BLUE BOX", "note": "ON 12/24 AND 12/31, THIS BOX MAY BE COLLECTED AS EARLY AS 12 NOON.", "nsi_id": "unitedstatespostalservice-a77078", "operator": "United States Postal Service", "operator:short": "USPS", "operator:type": "public", "operator:wikidata": "Q668687", "ref": "0584100000"}, "type": "Feature"}
{"dataset_attributes": {"@spider": "usps_collection_boxes", "spider:collection_time": "2023-12-25T08:25:18.404837"}, "geometry": {"coordinates": [-72.294145, 44.576017], "type": "Point"}, "id": "vXjuKInqLVtHM-hU8ATYfcr5D4g=", "properties": {"@spider": "usps_collection_boxes", "addr:city": "GREENSBORO", "addr:country": "US", "addr:full": "12 CEMETERY RDG", "addr:postcode": "05841", "addr:state": "VT", "amenity": "post_box", "brand": "United States Postal Service", "brand:wikidata": "Q668687", "collection_times": "Mo-Fr 16:00; Sa 11:45", "name": "USPS COLLECTION BOX - PO LOBBY", "note": "ON 12/24 AND 12/31, THIS BOX MAY BE COLLECTED AS EARLY AS 12 NOON.", "nsi_id": "unitedstatespostalservice-a77078", "operator": "United States Postal Service", "operator:short": "USPS", "operator:type": "public", "operator:wikidata": "Q668687", "ref": "0584100001"}, "type": "Feature"}
{"dataset_attributes": {"@spider": "usps_collection_boxes", "spider:collection_time": "2023-12-25T08:25:18.404837"}, "geometry": {"coordinates": [-72.294093907, 44.57599724], "type": "Point"}, "id": "DUhEHuFi7d2HddscVPPwdnBLbh8=", "properties": {"@spider": "usps_collection_boxes", "addr:city": "GREENSBORO", "addr:country": "US", "addr:full": "12 CEMETERY RDG", "addr:postcode": "05841", "addr:state": "VT", "amenity": "post_box", "brand": "United States Postal Service", "brand:wikidata": "Q668687", "collection_times": "Mo-Fr 16:00; Sa 11:45", "name": "USPS COLLECTION BOX - PO LOBBY", "note": "ON 12/24 AND 12/31, THIS BOX MAY BE COLLECTED AS EARLY AS 12 NOON.", "nsi_id": "unitedstatespostalservice-a77078", "operator": "United States Postal Service", "operator:short": "USPS", "operator:type": "public", "operator:wikidata": "Q668687", "ref": "0584100003"}, "type": "Feature"}
{"dataset_attributes": {"@spider": "usps_collection_boxes", "spider:collection_time": "2023-12-25T08:25:18.404837"}, "geometry": {"coordinates": [-72.263427, 44.547699], "type": "Point"}, "id": "UAKl1jpD44icg-jVH5xLIDFhxSM=", "properties": {"@spider": "usps_collection_boxes", "addr:city": "GREENSBORO BEND", "addr:country": "US", "addr:full": "975 MAIN ST", "addr:postcode": "05842", "addr:state": "VT", "amenity": "post_box", "brand": "United States Postal Service", "brand:wikidata": "Q668687", "collection_times": "Mo-Fr 11:45; Sa 11:00", "name": "USPS COLLECTION BOX - BLUE BOX", "nsi_id": "unitedstatespostalservice-a77078", "operator": "United States Postal Service", "operator:short": "USPS", "operator:type": "public", "operator:wikidata": "Q668687", "ref": "0584200000"}, "type": "Feature"}
{"dataset_attributes": {"@spider": "usps_collection_boxes", "spider:collection_time": "2023-12-25T08:25:18.404837"}, "geometry": {"coordinates": [-72.263427, 44.547699], "type": "Point"}, "id": "vgtkB0AU0kF7OMeoBlA3DeTGeLE=", "properties": {"@spider": "usps_collection_boxes", "addr:city": "GREENSBORO BEND", "addr:country": "US", "addr:full": "975 MAIN ST", "addr:postcode": "05842", "addr:state": "VT", "amenity": "post_box", "brand": "United States Postal Service", "brand:wikidata": "Q668687", "collection_times": "Mo-Fr 11:45; Sa 11:00", "name": "USPS COLLECTION BOX - PO LOBBY", "nsi_id": "unitedstatespostalservice-a77078", "operator": "United States Postal Service", "operator:short": "USPS", "operator:type": "public", "operator:wikidata": "Q668687", "ref": "0584200001"}, "type": "Feature"}
{"dataset_attributes": {"@spider": "usps_collection_boxes", "spider:collection_time": "2023-12-25T08:25:18.404837"}, "geometry": {"coordinates": [-72.2656001, 44.5494002], "type": "Point"}, "id": "yKpD3NAg0We80fduzlLvMuKB--E=", "properties": {"@spider": "usps_collection_boxes", "addr:city": "GREENSBORO BEND", "addr:country": "US", "addr:full": "975 MAIN ST", "addr:postcode": "05842", "addr:state": "VT", "amenity": "post_box", "brand": "United States Postal Service", "brand:wikidata": "Q668687", "collection_times": "Mo-Fr 11:45; Sa 11:00", "name": "USPS COLLECTION BOX - PO LOBBY", "nsi_id": "unitedstatespostalservice-a77078", "operator": "United States Postal Service", "operator:short": "USPS", "operator:type": "public", "operator:wikidata": "Q668687", "ref": "0584200002"}, "type": "Feature"}
{"dataset_attributes": {"@spider": "usps_collection_boxes", "spider:collection_time": "2023-12-25T08:25:18.404837"}, "geometry": {"coordinates": [-72.365326, 44.504191], "type": "Point"}, "id": "UbTzARL3Fln9P2aFWDfkViFat0w=", "properties": {"@spider": "usps_collection_boxes", "addr:city": "HARDWICK", "addr:country": "US", "addr:full": "52 MILL ST", "addr:postcode": "05843", "addr:state": "VT", "amenity": "post_box", "brand": "United States Postal Service", "brand:wikidata": "Q668687", "collection_times": "Mo-Fr 17:00; Sa 12:00", "name": "USPS COLLECTION BOX - BLUE BOX", "note": "ON 12/24 AND 12/31, THIS BOX MAY BE COLLECTED AS EARLY AS 12 NOON.", "nsi_id": "unitedstatespostalservice-a77078", "operator": "United States Postal Service", "operator:short": "USPS", "operator:type": "public", "operator:wikidata": "Q668687", "ref": "0584300000"}, "type": "Feature"}
{"dataset_attributes": {"@spider": "usps_collection_boxes", "spider:collection_time": "2023-12-25T08:25:18.404837"}, "geometry": {"coordinates": [-72.365266, 44.504194], "type": "Point"}, "id": "7HCyuZuu1tkftc_aOB1EK4v3v2o=", "properties": {"@spider": "usps_collection_boxes", "addr:city": "HARDWICK", "addr:country": "US", "addr:full": "52 MILL ST", "addr:postcode": "05843", "addr:state": "VT", "amenity": "post_box", "brand": "United States Postal Service", "brand:wikidata": "Q668687", "collection_times": "Mo-Fr 17:00; Sa 12:00", "name": "USPS COLLECTION BOX - PO LOBBY", "note": "ON 12/24 AND 12/31, THIS BOX MAY BE COLLECTED AS EARLY AS 12 NOON.", "nsi_id": "unitedstatespostalservice-a77078", "operator": "United States Postal Service", "operator:short": "USPS", "operator:type": "public", "operator:wikidata": "Q668687", "ref": "0584300003"}, "type": "Feature"}
{"dataset_attributes": {"@spider": "usps_collection_boxes", "spider:collection_time": "2023-12-25T08:25:18.404837"}, "geometry": {"coordinates": [-72.36531451, 44.504182122], "type": "Point"}, "id": "hDU87qIPnvFym41zj86owO06LeI=", "properties": {"@spider": "usps_collection_boxes", "addr:city": "HARDWICK", "addr:country": "US", "addr:full": "52 MILL ST", "addr:postcode": "05843", "addr:state": "VT", "amenity": "post_box", "brand": "United States Postal Service", "brand:wikidata": "Q668687", "collection_times": "Mo-Fr 17:00; Sa 12:00", "name": "USPS COLLECTION BOX - PO LOBBY", "note": "ON 12/24 AND 12/31, THIS BOX MAY BE COLLECTED AS EARLY AS 12 NOON.", "nsi_id": "unitedstatespostalservice-a77078", "operator": "United States Postal Service", "operator:short": "USPS", "operator:type": "public", "operator:wikidata": "Q668687", "ref": "0584300005"}, "type": "Feature"}
{"dataset_attributes": {"@spider": "usps_collection_boxes", "spider:collection_time": "2023-12-25T08:25:18.404837"}, "geometry": {"coordinates": [-72.2787528, 44.802255], "type": "Point"}, "id": "nwVFeHRqYgFx9q2GYNhDbHx_BB8=", "properties": {"@spider": "usps_collection_boxes", "addr:city": "IRASBURG", "addr:country": "US", "addr:full": "94 PARK AVE", "addr:postcode": "05845", "addr:state": "VT", "amenity": "post_box", "brand": "United States Postal Service", "brand:wikidata": "Q668687", "collection_times": "Mo-Fr 15:00; Sa 11:15", "name": "USPS COLLECTION BOX - BLUE BOX", "note": "ON 12/24 AND 12/31, THIS BOX MAY BE COLLECTED AS EARLY AS 12 NOON.", "nsi_id": "unitedstatespostalservice-a77078", "operator": "United States Postal Service", "operator:short": "USPS", "operator:type": "public", "operator:wikidata": "Q668687", "ref": "0584500000"}, "type": "Feature"}
{"dataset_attributes": {"@spider": "usps_collection_boxes", "spider:collection_time": "2023-12-25T08:25:18.404837"}, "geometry": {"coordinates": [-72.2785744, 44.802206], "type": "Point"}, "id": "G6wLtrr3I6sBRltfLzgjHf3nlkk=", "properties": {"@spider": "usps_collection_boxes", "addr:city": "IRASBURG", "addr:country": "US", "addr:full": "94 PARK AVE", "addr:postcode": "05845", "addr:state": "VT", "amenity": "post_box", "brand": "United States Postal Service", "brand:wikidata": "Q668687", "collection_times": "Mo-Fr 15:00; Sa 11:15", "name": "USPS COLLECTION BOX - PO LOBBY", "note": "ON 12/24 AND 12/31, THIS BOX MAY BE COLLECTED AS EARLY AS 12 NOON.", "nsi_id": "unitedstatespostalservice-a77078", "operator": "United States Postal Service", "operator:short": "USPS", "operator:type": "public", "operator:wikidata": "Q668687", "ref": "0584500001"}, "type": "Feature"}
{"dataset_attributes": {"@spider": "usps_collection_boxes", "spider:collection_time": "2023-12-25T08:25:18.404837"}, "geometry": {"coordinates": [-72.278747049, 44.802218411], "type": "Point"}, "id": "_YFuTONQz4C41gKXAPv3PsVuUUw=", "properties": {"@spider": "usps_collection_boxes", "addr:city": "IRASBURG", "addr:country": "US", "addr:full": "94 PARK AVE", "addr:postcode": "05845", "addr:state": "VT", "amenity": "post_box", "brand": "United States Postal Service", "brand:wikidata": "Q668687", "collection_times": "Mo-Fr 15:00; Sa 11:15", "name": "USPS COLLECTION BOX - PO LOBBY", "note": "ON 12/24 AND 12/31, THIS BOX MAY BE COLLECTED AS EARLY AS 12 NOON.", "nsi_id": "unitedstatespostalservice-a77078", "operator": "United States Postal Service", "operator:short": "USPS", "operator:type": "public", "operator:wikidata": "Q668687", "ref": "0584500003"}, "type": "Feature"}
{"dataset_attributes": {"@spider": "usps_collection_boxes", "spider:collection_time": "2023-12-25T08:25:18.404837"}, "geometry": {"coordinates": [-71.880415, 44.81512], "type": "Point"}, "id": "16_MqHClvZfPxvzvc3OTEinVBvM=", "properties": {"@spider": "usps_collection_boxes", "addr:city": "ISLAND POND", "addr:country": "US", "addr:full": "32 MAIN ST", "addr:postcode": "05846", "addr:state": "VT", "amenity": "post_box", "brand": "United States Postal Service", "brand:wikidata": "Q668687", "collection_times": "Mo-Fr 16:45; Sa 11:45", "name": "USPS COLLECTION BOX - BLUE BOX", "note": "ON 12/24 AND 12/31, THIS BOX MAY BE COLLECTED AS EARLY AS 12 NOON.", "nsi_id": "unitedstatespostalservice-a77078", "operator": "United States Postal Service", "operator:short": "USPS", "operator:type": "public", "operator:wikidata": "Q668687", "ref": "0584600001"}, "type": "Feature"}
{"dataset_attributes": {"@spider": "usps_collection_boxes", "spider:collection_time": "2023-12-25T08:25:18.404837"}, "geometry": {"coordinates": [-71.880415, 44.81512], "type": "Point"}, "id": "MX_xB1cizuH0UWQPIr93W7vFtSA=", "properties": {"@spider": "usps_collection_boxes", "addr:city": "ISLAND POND", "addr:country": "US", "addr:full": "32 MAIN ST", "addr:postcode": "05846", "addr:state": "VT", "amenity": "post_box", "brand": "United States Postal Service", "brand:wikidata": "Q668687", "collection_times": "Mo-Fr 16:45; Sa 11:45", "name": "USPS COLLECTION BOX - PO LOBBY", "note": "ON 12/24 AND 12/31, THIS BOX MAY BE COLLECTED AS EARLY AS 12 NOON.", "nsi_id": "unitedstatespostalservice-a77078", "operator": "United States Postal Service", "operator:short": "USPS", "operator:type": "public", "operator:wikidata": "Q668687", "ref": "0584600002"}, "type": "Feature"}
{"dataset_attributes": {"@spider": "usps_collection_boxes", "spider:collection_time": "2023-12-25T08:25:18.404837"}, "geometry": {"coordinates": [-71.880372251, 44.815090547], "type": "Point"}, "id": "seg61hj7GC0TAisz2ZRXgVj3VOo=", "properties": {"@spider": "usps_collection_boxes", "addr:city": "ISLAND POND", "addr:country": "US", "addr:full": "32 MAIN ST", "addr:postcode": "05846", "addr:state": "VT", "amenity": "post_box", "brand": "United States Postal Service", "brand:wikidata": "Q668687", "collection_times": "Mo-Fr 16:45; Sa 11:30", "name": "USPS COLLECTION BOX - PO LOBBY", "note": "ON 12/24 AND 12/31, THIS BOX MAY BE COLLECTED AS EARLY AS 12 NOON.", "nsi_id": "unitedstatespostalservice-a77078", "operator": "United States Postal Service", "operator:short": "USPS", "operator:type": "public", "operator:wikidata": "Q668687", "ref": "0584600004"}, "type": "Feature"}
{"dataset_attributes": {"@spider": "usps_collection_boxes", "spider:collection_time": "2023-12-25T08:25:18.404837"}, "geometry": {"coordinates": [-72.452982, 44.801015], "type": "Point"}, "id": "TmwyPxl702od1fGr7eOUgCe4etU=", "properties": {"@spider": "usps_collection_boxes", "addr:city": "LOWELL", "addr:country": "US", "addr:full": "296 HAZEN NOTCH RD", "addr:postcode": "05847", "addr:state": "VT", "amenity": "post_box", "brand": "United States Postal Service", "brand:wikidata": "Q668687", "collection_times": "Mo-Fr 12:00; Sa 11:00", "name": "USPS COLLECTION BOX - BLUE BOX", "nsi_id": "unitedstatespostalservice-a77078", "operator": "United States Postal Service", "operator:short": "USPS", "operator:type": "public", "operator:wikidata": "Q668687", "ref": "0584700000"}, "type": "Feature"}
{"dataset_attributes": {"@spider": "usps_collection_boxes", "spider:collection_time": "2023-12-25T08:25:18.404837"}, "geometry": {"coordinates": [-72.452982, 44.801015], "type": "Point"}, "id": "hdJt-3_WzxqulLRrxYmiM4FE0x4=", "properties": {"@spider": "usps_collection_boxes", "addr:city": "LOWELL", "addr:country": "US", "addr:full": "296 HAZEN NOTCH RD", "addr:postcode": "05847", "addr:state": "VT", "amenity": "post_box", "brand": "United States Postal Service", "brand:wikidata": "Q668687", "collection_times": "Mo-Fr 12:00; Sa 11:00", "name": "USPS COLLECTION BOX - PO LOBBY", "nsi_id": "unitedstatespostalservice-a77078", "operator": "United States Postal Service", "operator:short": "USPS", "operator:type": "public", "operator:wikidata": "Q668687", "ref": "0584700001"}, "type": "Feature"}
{"dataset_attributes": {"@spider": "usps_collection_boxes", "spider:collection_time": "2023-12-25T08:25:18.404837"}, "geometry": {"coordinates": [-72.452982594, 44.801015709], "type": "Point"}, "id": "oH6MDT8QbmYdNHZHGlxsoHOYaDw=", "properties": {"@spider": "usps_collection_boxes", "addr:city": "LOWELL", "addr:country": "US", "addr:full": "296 HAZEN NOTCH RD", "addr:postcode": "05847", "addr:state": "VT", "amenity": "post_box", "brand": "United States Postal Service", "brand:wikidata": "Q668687", "collection_times": "Mo-Fr 12:00; Sa 11:00", "name": "USPS COLLECTION BOX - PO LOBBY", "nsi_id": "unitedstatespostalservice-a77078", "operator": "United States Postal Service", "operator:short": "USPS", "operator:type": "public", "operator:wikidata": "Q668687", "ref": "0584700002"}, "type": "Feature"}
{"dataset_attributes": {"@spider": "usps_collection_boxes", "spider:collection_time": "2023-12-25T08:25:18.404837"}, "geometry": {"coordinates": [-71.90757, 44.354403], "type": "Point"}, "id": "vd29sSCiwEbURVrvL3ml04f8LgQ=", "properties": {"@spider": "usps_collection_boxes", "addr:city": "LOWER WATERFORD", "addr:country": "US", "addr:full": "532 MAPLE ST", "addr:postcode": "05848", "addr:state": "VT", "amenity": "post_box", "brand": "United States Postal Service", "brand:wikidata": "Q668687", "collection_times": "Mo-Fr 16:30; Sa 11:30", "name": "USPS COLLECTION BOX - BLUE BOX", "note": "ON 12/24 AND 12/31, THIS BOX MAY BE COLLECTED AS EARLY AS 12 NOON.", "nsi_id": "unitedstatespostalservice-a77078", "operator": "United States Postal Service", "operator:short": "USPS", "operator:type": "public", "operator:wikidata": "Q668687", "ref": "0584800000"}, "type": "Feature"}
{"dataset_attributes": {"@spider": "usps_collection_boxes", "spider:collection_time": "2023-12-25T08:25:18.404837"}, "geometry": {"coordinates": [-71.907566, 44.354479], "type": "Point"}, "id": "hkZCaPlKZtyDEBWahVDYsmf1DA0=", "properties": {"@spider": "usps_collection_boxes", "addr:city": "LOWER WATERFORD", "addr:country": "US", "addr:full": "532 MAPLE ST", "addr:postcode": "05848", "addr:state": "VT", "amenity": "post_box", "brand": "United States Postal Service", "brand:wikidata": "Q668687", "collection_times": "Mo-Fr 17:00; Sa 11:30", "name": "USPS COLLECTION BOX - PO LOBBY", "note": "ON 12/24 AND 12/31, THIS BOX MAY BE COLLECTED AS EARLY AS 12 NOON.", "nsi_id": "unitedstatespostalservice-a77078", "operator": "United States Postal Service", "operator:short": "USPS", "operator:type": "public", "operator:wikidata": "Q668687", "ref": "0584800001"}, "type": "Feature"}
{"dataset_attributes": {"@spider": "usps_collection_boxes", "spider:collection_time": "2023-12-25T08:25:18.404837"}, "geometry": {"coordinates": [-71.907601242, 44.354430168], "type": "Point"}, "id": "XDYbSNzQmk2uNm9BAA2RNLCtvEY=", "properties": {"@spider": "usps_collection_boxes", "addr:city": "LOWER WATERFORD", "addr:country": "US", "addr:full": "532 MAPLE ST", "addr:postcode": "05848", "addr:state": "VT", "amenity": "post_box", "brand": "United States Postal Service", "brand:wikidata": "Q668687", "collection_times": "Mo-Fr 17:00; Sa 11:30", "name": "USPS COLLECTION BOX - PO LOBBY", "note": "ON 12/24 AND 12/31, THIS BOX MAY BE COLLECTED AS EARLY AS 12 NOON.", "nsi_id": "unitedstatespostalservice-a77078", "operator": "United States Postal Service", "operator:short": "USPS", "operator:type": "public", "operator:wikidata": "Q668687", "ref": "0584800002"}, "type": "Feature"}
{"dataset_attributes": {"@spider": "usps_collection_boxes", "spider:collection_time": "2023-12-25T08:25:18.404837"}, "geometry": {"coordinates": [-72.005339, 44.515956], "type": "Point"}, "id": "dC3CGU2_5Vg5Y0WigrRN_ACNoKo=", "properties": {"@spider": "usps_collection_boxes", "addr:city": "LYNDON", "addr:country": "US", "addr:full": "5992 MEMORIAL DR", "addr:postcode": "05849", "addr:state": "VT", "amenity": "post_box", "brand": "United States Postal Service", "brand:wikidata": "Q668687", "collection_times": "Mo-Fr 16:30; Sa 11:30", "name": "USPS COLLECTION BOX - BLUE BOX", "note": "ON 12/24 AND 12/31, THIS BOX MAY BE COLLECTED AS EARLY AS 12 NOON.", "nsi_id": "unitedstatespostalservice-a77078", "operator": "United States Postal Service", "operator:short": "USPS", "operator:type": "public", "operator:wikidata": "Q668687", "ref": "0584900000"}, "type": "Feature"}
{"dataset_attributes": {"@spider": "usps_collection_boxes", "spider:collection_time": "2023-12-25T08:25:18.404837"}, "geometry": {"coordinates": [-72.005339, 44.515956], "type": "Point"}, "id": "Gbo7jm1bHPJ4Z41BTMhStNOGezM=", "properties": {"@spider": "usps_collection_boxes", "addr:city": "LYNDON", "addr:country": "US", "addr:full": "5992 MEMORIAL DR", "addr:postcode": "05849", "addr:state": "VT", "amenity": "post_box", "brand": "United States Postal Service", "brand:wikidata": "Q668687", "collection_times": "Mo-Fr 16:30; Sa 11:30", "name": "USPS COLLECTION BOX - PO LOBBY", "note": "ON 12/24 AND 12/31, THIS BOX MAY BE COLLECTED AS EARLY AS 12 NOON.", "nsi_id": "unitedstatespostalservice-a77078", "operator": "United States Postal Service", "operator:short": "USPS", "operator:type": "public", "operator:wikidata": "Q668687", "ref": "0584900001"}, "type": "Feature"}
{"dataset_attributes": {"@spider": "usps_collection_boxes", "spider:collection_time": "2023-12-25T08:25:18.404837"}, "geometry": {"coordinates": [-72.010924194, 44.513511957], "type": "Point"}, "id": "CMgFqjNzxEJ3BT0scqpBxdPiF2E=", "properties": {"@spider": "usps_collection_boxes", "addr:city": "LYNDON", "addr:country": "US", "addr:full": "5992 MEMORIAL DR", "addr:postcode": "05849", "addr:state": "VT", "amenity": "post_box", "brand": "United States Postal Service", "brand:wikidata": "Q668687", "collection_times": "Mo-Fr 16:45", "name": "USPS COLLECTION BOX - PO LOBBY", "note": "ON 12/24 AND 12/31, THIS BOX MAY BE COLLECTED AS EARLY AS 12 NOON.", "nsi_id": "unitedstatespostalservice-a77078", "operator": "United States Postal Service", "operator:short": "USPS", "operator:type": "public", "operator:wikidata": "Q668687", "ref": "0584900002"}, "type": "Feature"}
{"dataset_attributes": {"@spider": "usps_collection_boxes", "spider:collection_time": "2023-12-25T08:25:18.404837"}, "geometry": {"coordinates": [-72.01231, 44.537964], "type": "Point"}, "id": "ZEPoNo5gvCtxBNxexCxaNplHb3o=", "properties": {"@spider": "usps_collection_boxes", "addr:city": "LYNDON CENTER", "addr:country": "US", "addr:full": "325 CENTER ST", "addr:postcode": "05850", "addr:state": "VT", "amenity": "post_box", "brand": "United States Postal Service", "brand:wikidata": "Q668687", "collection_times": "Mo-Fr 16:30; Sa 10:45", "name": "USPS COLLECTION BOX - BLUE BOX", "note": "ON 12/24 AND 12/31, THIS BOX MAY BE COLLECTED AS EARLY AS 12 NOON.", "nsi_id": "unitedstatespostalservice-a77078", "operator": "United States Postal Service", "operator:short": "USPS", "operator:type": "public", "operator:wikidata": "Q668687", "ref": "0585000000"}, "type": "Feature"}
{"dataset_attributes": {"@spider": "usps_collection_boxes", "spider:collection_time": "2023-12-25T08:25:18.404837"}, "geometry": {"coordinates": [-72.012309, 44.538058], "type": "Point"}, "id": "hEGIxRZndWDneHb2Ave8TZ9wvJ8=", "properties": {"@spider": "usps_collection_boxes", "addr:city": "LYNDON CENTER", "addr:country": "US", "addr:full": "325 CENTER ST", "addr:postcode": "05850", "addr:state": "VT", "amenity": "post_box", "brand": "United States Postal Service", "brand:wikidata": "Q668687", "collection_times": "Mo-Fr 16:30; Sa 10:45", "name": "USPS COLLECTION BOX - PO LOBBY", "note": "ON 12/24 AND 12/31, THIS BOX MAY BE COLLECTED AS EARLY AS 12 NOON.", "nsi_id": "unitedstatespostalservice-a77078", "operator": "United States Postal Service", "operator:short": "USPS", "operator:type": "public", "operator:wikidata": "Q668687", "ref": "0585000001"}, "type": "Feature"}
{"dataset_attributes": {"@spider": "usps_collection_boxes", "spider:collection_time": "2023-12-25T08:25:18.404837"}, "geometry": {"coordinates": [-72.012348651, 44.537894152], "type": "Point"}, "id": "hTb_NSGHCK-twmV02IreqdfD8ZE=", "properties": {"@spider": "usps_collection_boxes", "addr:city": "LYNDON CENTER", "addr:country": "US", "addr:full": "325 CENTER ST", "addr:postcode": "05850", "addr:state": "VT", "amenity": "post_box", "brand": "United States Postal Service", "brand:wikidata": "Q668687", "collection_times": "Mo-Fr 16:30; Sa 10:30", "name": "USPS COLLECTION BOX - PO LOBBY", "note": "ON 12/24 AND 12/31, THIS BOX MAY BE COLLECTED AS EARLY AS 12 NOON.", "nsi_id": "unitedstatespostalservice-a77078", "operator": "United States Postal Service", "operator:short": "USPS", "operator:type": "public", "operator:wikidata": "Q668687", "ref": "0585000002"}, "type": "Feature"}
{"dataset_attributes": {"@spider": "usps_collection_boxes", "spider:collection_time": "2023-12-25T08:25:18.404837"}, "geometry": {"coordinates": [-72.002896, 44.533729], "type": "Point"}, "id": "M4qU2jQz_ZraTuHZ5DiTvK6wV8Q=", "properties": {"@spider": "usps_collection_boxes", "addr:city": "LYNDONVILLE", "addr:country": "US", "addr:full": "1025 BROAD ST", "addr:postcode": "05851", "addr:state": "VT", "amenity": "post_box", "brand": "United States Postal Service", "brand:wikidata": "Q668687", "collection_times": "Mo-Fr 17:00; Sa 12:30", "name": "USPS COLLECTION BOX - BLUE BOX", "note": "ON 12/24 AND 12/31, THIS BOX MAY BE COLLECTED AS EARLY AS 12 NOON.", "nsi_id": "unitedstatespostalservice-a77078", "operator": "United States Postal Service", "operator:short": "USPS", "operator:type": "public", "operator:wikidata": "Q668687", "ref": "0585100000"}, "type": "Feature"}
{"dataset_attributes": {"@spider": "usps_collection_boxes", "spider:collection_time": "2023-12-25T08:25:18.404837"}, "geometry": {"coordinates": [-72.002858, 44.53365], "type": "Point"}, "id": "fwwH10AF9WLaKi6g0a2K3aDiYeI=", "properties": {"@spider": "usps_collection_boxes", "addr:city": "LYNDONVILLE", "addr:country": "US", "addr:full": "1025 BROAD ST", "addr:postcode": "05851", "addr:state": "VT", "amenity": "post_box", "brand": "United States Postal Service", "brand:wikidata": "Q668687", "collection_times": "Mo-Fr 17:00; Sa 12:30", "name": "USPS COLLECTION BOX - PO LOBBY", "note": "ON 12/24 AND 12/31, THIS BOX MAY BE COLLECTED AS EARLY AS 12 NOON.", "nsi_id": "unitedstatespostalservice-a77078", "operator": "United States Postal Service", "operator:short": "USPS", "operator:type": "public", "operator:wikidata": "Q668687", "ref": "0585100005"}, "type": "Feature"}
{"dataset_attributes": {"@spider": "usps_collection_boxes", "spider:collection_time": "2023-12-25T08:25:18.404837"}, "geometry": {"coordinates": [-72.002901528, 44.533953], "type": "Point"}, "id": "PwmLCAiMXRWgl9bi-Ihhw4zKPUI=", "properties": {"@spider": "usps_collection_boxes", "addr:city": "LYNDONVILLE", "addr:country": "US", "addr:full": "1025 BROAD ST", "addr:postcode": "05851", "addr:state": "VT", "amenity": "post_box", "brand": "United States Postal Service", "brand:wikidata": "Q668687", "collection_times": "Mo-Fr 17:00; Sa 12:00", "name": "USPS COLLECTION BOX - PO LOBBY", "note": "ON 12/24 AND 12/31, THIS BOX MAY BE COLLECTED AS EARLY AS 12 NOON.", "nsi_id": "unitedstatespostalservice-a77078", "operator": "United States Postal Service", "operator:short": "USPS", "operator:type": "public", "operator:wikidata": "Q668687", "ref": "0585100007"}, "type": "Feature"}
{"dataset_attributes": {"@spider": "usps_collection_boxes", "spider:collection_time": "2023-12-25T08:25:18.404837"}, "geometry": {"coordinates": [-72.014504, 44.913207], "type": "Point"}, "id": "k0UXyF_7g7HY9yrVCp-yThqQLTU=", "properties": {"@spider": "usps_collection_boxes", "addr:city": "MORGAN", "addr:country": "US", "addr:full": "8411 VT RTE 111", "addr:postcode": "05853", "addr:state": "VT", "amenity": "post_box", "brand": "United States Postal Service", "brand:wikidata": "Q668687", "collection_times": "Mo-Fr 16:15; Sa 11:00", "name": "USPS COLLECTION BOX - BLUE BOX", "note": "ON 12/24 AND 12/31, THIS BOX MAY BE COLLECTED AS EARLY AS 12 NOON.", "nsi_id": "unitedstatespostalservice-a77078", "operator": "United States Postal Service", "operator:short": "USPS", "operator:type": "public", "operator:wikidata": "Q668687", "ref": "0585300000"}, "type": "Feature"}
{"dataset_attributes": {"@spider": "usps_collection_boxes", "spider:collection_time": "2023-12-25T08:25:18.404837"}, "geometry": {"coordinates": [-72.014572, 44.913276], "type": "Point"}, "id": "wW66oDMpb-tiGuxR3qvmPHMqh_M=", "properties": {"@spider": "usps_collection_boxes", "addr:city": "MORGAN", "addr:country": "US", "addr:full": "8411 VT RTE 111", "addr:postcode": "05853", "addr:state": "VT", "amenity": "post_box", "brand": "United States Postal Service", "brand:wikidata": "Q668687", "collection_times": "Mo-Fr 16:15; Sa 11:00", "name": "USPS COLLECTION BOX - PO LOBBY", "note": "ON 12/24 AND 12/31, THIS BOX MAY BE COLLECTED AS EARLY AS 12 NOON.", "nsi_id": "unitedstatespostalservice-a77078", "operator": "United States Postal Service", "operator:short": "USPS", "operator:type": "public", "operator:wikidata": "Q668687", "ref": "0585300001"}, "type": "Feature"}
{"dataset_attributes": {"@spider": "usps_collection_boxes", "spider:collection_time": "2023-12-25T08:25:18.404837"}, "geometry": {"coordinates": [-72.014616429, 44.913257173], "type": "Point"}, "id": "mW9thEMwxaNasdkQqy-1O-aVfr4=", "properties": {"@spider": "usps_collection_boxes", "addr:city": "MORGAN", "addr:country": "US", "addr:full": "8411 VT RTE 111", "addr:postcode": "05853", "addr:state": "VT", "amenity": "post_box", "brand": "United States Postal Service", "brand:wikidata": "Q668687", "collection_times": "Mo-Fr 16:15; Sa 11:00", "name": "USPS COLLECTION BOX - PO LOBBY", "note": "ON 12/24 AND 12/31, THIS BOX MAY BE COLLECTED AS EARLY AS 12 NOON.", "nsi_id": "unitedstatespostalservice-a77078", "operator": "United States Postal Service", "operator:short": "USPS", "operator:type": "public", "operator:wikidata": "Q668687", "ref": "0585300002"}, "type": "Feature"}
{"dataset_attributes": {"@spider": "usps_collection_boxes", "spider:collection_time": "2023-12-25T08:25:18.404837"}, "geometry": {"coordinates": [-72.207538, 44.935418], "type": "Point"}, "id": "DxRXLXVegMq48em-BNsA_pIsAAQ=", "properties": {"@spider": "usps_collection_boxes", "addr:city": "NEWPORT", "addr:country": "US", "addr:full": "59 COVENTRY ST", "addr:postcode": "05855", "addr:state": "VT", "amenity": "post_box", "brand": "United States Postal Service", "brand:wikidata": "Q668687", "collection_times": "Mo-Fr 17:30; Sa 17:00", "name": "USPS COLLECTION BOX - BLUE BOX", "note": "ON 12/24 AND 12/31, THIS BOX MAY BE COLLECTED AS EARLY AS 12 NOON.", "nsi_id": "unitedstatespostalservice-a77078", "operator": "United States Postal Service", "operator:short": "USPS", "operator:type": "public", "operator:wikidata": "Q668687", "ref": "0585500000"}, "type": "Feature"}
{"dataset_attributes": {"@spider": "usps_collection_boxes", "spider:collection_time": "2023-12-25T08:25:18.404837"}, "geometry": {"coordinates": [-72.2053404, 44.939907], "type": "Point"}, "id": "4xGHiXpnSWhVsKEUUa6ehwAo4DQ=", "properties": {"@spider": "usps_collection_boxes", "addr:city": "NEWPORT", "addr:country": "US", "addr:full": "59 WATER FRONT PLZ", "addr:postcode": "05855", "addr:state": "VT", "amenity": "post_box", "brand": "United States Postal Service", "brand:wikidata": "Q668687", "collection_times": "Mo-Fr 15:00; Sa 12:00", "name": "USPS COLLECTION BOX - BLUE BOX", "note": "ON 12/24 AND 12/31, THIS BOX MAY BE COLLECTED AS EARLY AS 12 NOON.", "nsi_id": "unitedstatespostalservice-a77078", "operator": "United States Postal Service", "operator:short": "USPS", "operator:type": "public", "operator:wikidata": "Q668687", "ref": "0585500002"}, "type": "Feature"}
{"dataset_attributes": {"@spider": "usps_collection_boxes", "spider:collection_time": "2023-12-25T08:25:18.404837"}, "geometry": {"coordinates": [-72.2010673, 44.95556], "type": "Point"}, "id": "1BC_x1r7jlFBpBzDc3EF3ehyf9o=", "properties": {"@spider": "usps_collection_boxes", "addr:city": "NEWPORT", "addr:country": "US", "addr:full": "189 PROUTY DR", "addr:postcode": "05855", "addr:state": "VT", "amenity": "post_box", "brand": "United States Postal Service", "brand:wikidata": "Q668687", "collection_times": "Mo-Fr 15:00; Sa 12:00", "name": "USPS COLLECTION BOX - BLUE BOX", "note": "ON 12/24 AND 12/31, THIS BOX MAY BE COLLECTED AS EARLY AS 12 NOON.", "nsi_id": "unitedstatespostalservice-a77078", "operator": "United States Postal Service", "operator:short": "USPS", "operator:type": "public", "operator:wikidata": "Q668687", "ref": "0585500003"}, "type": "Feature"}
{"dataset_attributes": {"@spider": "usps_collection_boxes", "spider:collection_time": "2023-12-25T08:25:18.404837"}, "geometry": {"coordinates": [-72.2101262, 44.935188], "type": "Point"}, "id": "ag0X7QXkeS2t5zjSMZvkNKXtJB4=", "properties": {"@spider": "usps_collection_boxes", "addr:city": "NEWPORT", "addr:country": "US", "addr:full": "32 2ND ST", "addr:postcode": "05855", "addr:state": "VT", "amenity": "post_box", "brand": "United States Postal Service", "brand:wikidata": "Q668687", "collection_times": "Mo-Fr 15:30; Sa 12:00", "name": "USPS COLLECTION BOX - BLUE BOX", "note": "ON 12/24 AND 12/31, THIS BOX MAY BE COLLECTED AS EARLY AS 12 NOON.", "nsi_id": "unitedstatespostalservice-a77078", "operator": "United States Postal Service", "operator:short": "USPS", "operator:type": "public", "operator:wikidata": "Q668687", "ref": "0585500006"}, "type": "Feature"}
{"dataset_attributes": {"@spider": "usps_collection_boxes", "spider:collection_time": "2023-12-25T08:25:18.404837"}, "geometry": {"coordinates": [-72.195118988, 44.9426569906], "type": "Point"}, "id": "dLm2d--ccOwXSTm3cwnKb-_IYNc=", "properties": {"@spider": "usps_collection_boxes", "addr:city": "NEWPORT", "addr:country": "US", "addr:full": "444 E MAIN ST", "addr:postcode": "05855", "addr:state": "VT", "amenity": "post_box", "brand": "United States Postal Service", "brand:wikidata": "Q668687", "collection_times": "Mo-Fr 15:00; Sa 12:00", "name": "USPS COLLECTION BOX - BLUE BOX", "note": "ON 12/24 AND 12/31, THIS BOX MAY BE COLLECTED AS EARLY AS 12 NOON.", "nsi_id": "unitedstatespostalservice-a77078", "operator": "United States Postal Service", "operator:short": "USPS", "operator:type": "public", "operator:wikidata": "Q668687", "ref": "0585500007"}, "type": "Feature"}
{"dataset_attributes": {"@spider": "usps_collection_boxes", "spider:collection_time": "2023-12-25T08:25:18.404837"}, "geometry": {"coordinates": [-72.2106076, 44.935453], "type": "Point"}, "id": "Gs7hJw189Zwoi7WzKrJY52QL2FI=", "properties": {"@spider": "usps_collection_boxes", "addr:city": "NEWPORT", "addr:country": "US", "addr:full": "222 MAIN ST", "addr:postcode": "05855", "addr:state": "VT", "amenity": "post_box", "brand": "United States Postal Service", "brand:wikidata": "Q668687", "collection_times": "Mo-Fr 15:30; Sa 12:00", "name": "USPS COLLECTION BOX - BLUE BOX", "note": "ON 12/24 AND 12/31, THIS BOX MAY BE COLLECTED AS EARLY AS 12 NOON.", "nsi_id": "unitedstatespostalservice-a77078", "operator": "United States Postal Service", "operator:short": "USPS", "operator:type": "public", "operator:wikidata": "Q668687", "ref": "0585500009"}, "type": "Feature"}
{"dataset_attributes": {"@spider": "usps_collection_boxes", "spider:collection_time": "2023-12-25T08:25:18.404837"}, "geometry": {"coordinates": [-72.1763127, 44.946911], "type": "Point"}, "id": "D2QilkFhpUC83DxamfhLcL7xH6Q=", "properties": {"@spider": "usps_collection_boxes", "addr:city": "NEWPORT", "addr:country": "US", "addr:full": "5452 US ROUTE 5", "addr:postcode": "05855", "addr:state": "VT", "amenity": "post_box", "brand": "United States Postal Service", "brand:wikidata": "Q668687", "collection_times": "Mo-Fr 15:00; Sa 12:00", "name": "USPS COLLECTION BOX - BLUE BOX", "note": "ON 12/24 AND 12/31, THIS BOX MAY BE COLLECTED AS EARLY AS 12 NOON.", "nsi_id": "unitedstatespostalservice-a77078", "operator": "United States Postal Service", "operator:short": "USPS", "operator:type": "public", "operator:wikidata": "Q668687", "ref": "0585500014"}, "type": "Feature"}
{"dataset_attributes": {"@spider": "usps_collection_boxes", "spider:collection_time": "2023-12-25T08:25:18.404837"}, "geometry": {"coordinates": [-72.208147, 44.936218], "type": "Point"}, "id": "Oei3oiB4UJ4giQIawMsH4wlDIG8=", "properties": {"@spider": "usps_collection_boxes", "addr:city": "NEWPORT", "addr:country": "US", "addr:full": "100 MAIN ST", "addr:postcode": "05855", "addr:state": "VT", "amenity": "post_box", "brand": "United States Postal Service", "brand:wikidata": "Q668687", "collection_times": "Mo-Fr 15:00; Sa 12:00", "name": "USPS COLLECTION BOX - BLUE BOX", "note": "ON 12/24 AND 12/31, THIS BOX MAY BE COLLECTED AS EARLY AS 12 NOON.", "nsi_id": "unitedstatespostalservice-a77078", "operator": "United States Postal Service", "operator:short": "USPS", "operator:type": "public", "operator:wikidata": "Q668687", "ref": "0585500016"}, "type": "Feature"}
{"dataset_attributes": {"@spider": "usps_collection_boxes", "spider:collection_time": "2023-12-25T08:25:18.404837"}, "geometry": {"coordinates": [-72.2082019, 44.93623], "type": "Point"}, "id": "xUJJpUUwYM9ByM-12Hd2YvFuTu8=", "properties": {"@spider": "usps_collection_boxes", "addr:city": "NEWPORT", "addr:country": "US", "addr:full": "100 MAIN ST", "addr:postcode": "05855", "addr:state": "VT", "amenity": "post_box", "brand": "United States Postal Service", "brand:wikidata": "Q668687", "collection_times": "Mo-Fr 15:00; Sa 12:00", "name": "USPS COLLECTION BOX - BLUE BOX", "note": "ON 12/24 AND 12/31, THIS BOX MAY BE COLLECTED AS EARLY AS 12 NOON.", "nsi_id": "unitedstatespostalservice-a77078", "operator": "United States Postal Service", "operator:short": "USPS", "operator:type": "public", "operator:wikidata": "Q668687", "ref": "0585500017"}, "type": "Feature"}
{"dataset_attributes": {"@spider": "usps_collection_boxes", "spider:collection_time": "2023-12-25T08:25:18.404837"}, "geometry": {"coordinates": [-72.207589, 44.935433], "type": "Point"}, "id": "bwThYJVntaq35f8WN2w-_sDVQZM=", "properties": {"@spider": "usps_collection_boxes", "addr:city": "NEWPORT", "addr:country": "US", "addr:full": "59 COVENTRY ST", "addr:postcode": "05855", "addr:state": "VT", "amenity": "post_box", "brand": "United States Postal Service", "brand:wikidata": "Q668687", "collection_times": "Mo-Fr 17:30; Sa 17:00", "name": "USPS COLLECTION BOX - PO LOBBY", "note": "ON 12/24 AND 12/31, THIS BOX MAY BE COLLECTED AS EARLY AS 12 NOON.", "nsi_id": "unitedstatespostalservice-a77078", "operator": "United States Postal Service", "operator:short": "USPS", "operator:type": "public", "operator:wikidata": "Q668687", "ref": "0585500018"}, "type": "Feature"}
{"dataset_attributes": {"@spider": "usps_collection_boxes", "spider:collection_time": "2023-12-25T08:25:18.404837"}, "geometry": {"coordinates": [-72.207554335, 44.935425722], "type": "Point"}, "id": "5rkuw_Qi-_D9zRYUgv8Jgj9SWiU=", "properties": {"@spider": "usps_collection_boxes", "addr:city": "NEWPORT", "addr:country": "US", "addr:full": "59 COVENTRY ST", "addr:postcode": "05855", "addr:state": "VT", "amenity": "post_box", "brand": "United States Postal Service", "brand:wikidata": "Q668687", "collection_times": "Mo-Fr 17:00; Sa 12:00", "name": "USPS COLLECTION BOX - PO LOBBY", "note": "ON 12/24 AND 12/31, THIS BOX MAY BE COLLECTED AS EARLY AS 12 NOON.", "nsi_id": "unitedstatespostalservice-a77078", "operator": "United States Postal Service", "operator:short": "USPS", "operator:type": "public", "operator:wikidata": "Q668687", "ref": "0585500022"}, "type": "Feature"}
{"dataset_attributes": {"@spider": "usps_collection_boxes", "spider:collection_time": "2023-12-25T08:25:18.404837"}, "geometry": {"coordinates": [-72.306908, 44.95114], "type": "Point"}, "id": "ja86Iyx7N_Fey3R8DM6I59LaksI=", "properties": {"@spider": "usps_collection_boxes", "addr:city": "NEWPORT CENTER", "addr:country": "US", "addr:full": "4168 VT ROUTE 105", "addr:postcode": "05857", "addr:state": "VT", "amenity": "post_box", "brand": "United States Postal Service", "brand:wikidata": "Q668687", "collection_times": "Mo-Fr 14:45; Sa 11:00", "name": "USPS COLLECTION BOX - BLUE BOX", "note": "ON 12/24 AND 12/31, THIS BOX MAY BE COLLECTED AS EARLY AS 12 NOON.", "nsi_id": "unitedstatespostalservice-a77078", "operator": "United States Postal Service", "operator:short": "USPS", "operator:type": "public", "operator:wikidata": "Q668687", "ref": "0585700000"}, "type": "Feature"}
{"dataset_attributes": {"@spider": "usps_collection_boxes", "spider:collection_time": "2023-12-25T08:25:18.404837"}, "geometry": {"coordinates": [-72.306944, 44.951131], "type": "Point"}, "id": "SSdpczL4tQDy_EE_Tl_Ji4O0p-8=", "properties": {"@spider": "usps_collection_boxes", "addr:city": "NEWPORT CENTER", "addr:country": "US", "addr:full": "4168 VT ROUTE 105", "addr:postcode": "05857", "addr:state": "VT", "amenity": "post_box", "brand": "United States Postal Service", "brand:wikidata": "Q668687", "collection_times": "Mo-Fr 14:45; Sa 11:00", "name": "USPS COLLECTION BOX - PO LOBBY", "note": "ON 12/24 AND 12/31, THIS BOX MAY BE COLLECTED AS EARLY AS 12 NOON.", "nsi_id": "unitedstatespostalservice-a77078", "operator": "United States Postal Service", "operator:short": "USPS", "operator:type": "public", "operator:wikidata": "Q668687", "ref": "0585700001"}, "type": "Feature"}
{"dataset_attributes": {"@spider": "usps_collection_boxes", "spider:collection_time": "2023-12-25T08:25:18.404837"}, "geometry": {"coordinates": [-72.306834943, 44.95101763], "type": "Point"}, "id": "7pVY-PRZ42CwBl1gaJO6fdXpLKU=", "properties": {"@spider": "usps_collection_boxes", "addr:city": "NEWPORT CENTER", "addr:country": "US", "addr:full": "4168 VT ROUTE 105", "addr:postcode": "05857", "addr:state": "VT", "amenity": "post_box", "brand": "United States Postal Service", "brand:wikidata": "Q668687", "collection_times": "Mo-Fr 14:45; Sa 11:00", "name": "USPS COLLECTION BOX - PO LOBBY", "note": "ON 12/24 AND 12/31, THIS BOX MAY BE COLLECTED AS EARLY AS 12 NOON.", "nsi_id": "unitedstatespostalservice-a77078", "operator": "United States Postal Service", "operator:short": "USPS", "operator:type": "public", "operator:wikidata": "Q668687", "ref": "0585700003"}, "type": "Feature"}
{"dataset_attributes": {"@spider": "usps_collection_boxes", "spider:collection_time": "2023-12-25T08:25:18.404837"}, "geometry": {"coordinates": [-71.8587249, 44.469375], "type": "Point"}, "id": "VP0rYTKwEr4rzxW6g2hhJ5J3rBk=", "properties": {"@spider": "usps_collection_boxes", "addr:city": "GRANBY", "addr:country": "US", "addr:full": "131 VICTORY RD", "addr:postcode": "05858", "addr:state": "VT", "amenity": "post_box", "brand": "United States Postal Service", "brand:wikidata": "Q668687", "collection_times": "Mo-Fr 16:15; Sa 10:15", "name": "USPS COLLECTION BOX - BLUE BOX", "note": "ON 12/24 AND 12/31, THIS BOX MAY BE COLLECTED AS EARLY AS 12 NOON.", "nsi_id": "unitedstatespostalservice-a77078", "operator": "United States Postal Service", "operator:short": "USPS", "operator:type": "public", "operator:wikidata": "Q668687", "ref": "0585800000"}, "type": "Feature"}
{"dataset_attributes": {"@spider": "usps_collection_boxes", "spider:collection_time": "2023-12-25T08:25:18.404837"}, "geometry": {"coordinates": [-71.85391, 44.597093], "type": "Point"}, "id": "G2EL5prpciV5WsXYADOuco7u-hE=", "properties": {"@spider": "usps_collection_boxes", "addr:city": "GRANBY", "addr:country": "US", "addr:full": "131 VICTORY RD", "addr:postcode": "05858", "addr:state": "VT", "amenity": "post_box", "brand": "United States Postal Service", "brand:wikidata": "Q668687", "collection_times": "Mo-Fr 11:45; Sa 10:15", "name": "USPS COLLECTION BOX - PO LOBBY", "nsi_id": "unitedstatespostalservice-a77078", "operator": "United States Postal Service", "operator:short": "USPS", "operator:type": "public", "operator:wikidata": "Q668687", "ref": "0585800002"}, "type": "Feature"}
{"dataset_attributes": {"@spider": "usps_collection_boxes", "spider:collection_time": "2023-12-25T08:25:18.404837"}, "geometry": {"coordinates": [-71.853824811, 44.597147162], "type": "Point"}, "id": "QWfbR3RVO6SAfsgklRpXUF8u1Vs=", "properties": {"@spider": "usps_collection_boxes", "addr:city": "GRANBY", "addr:country": "US", "addr:full": "131 VICTORY RD", "addr:postcode": "05858", "addr:state": "VT", "amenity": "post_box", "brand": "United States Postal Service", "brand:wikidata": "Q668687", "collection_times": "Mo-Fr 12:00; Sa 10:00", "name": "USPS COLLECTION BOX - PO LOBBY", "nsi_id": "unitedstatespostalservice-a77078", "operator": "United States Postal Service", "operator:short": "USPS", "operator:type": "public", "operator:wikidata": "Q668687", "ref": "0585800003"}, "type": "Feature"}
{"dataset_attributes": {"@spider": "usps_collection_boxes", "spider:collection_time": "2023-12-25T08:25:18.404837"}, "geometry": {"coordinates": [-72.402243, 44.995908], "type": "Point"}, "id": "W2HbefT_1ppkDWgQI8qnAqCEiJk=", "properties": {"@spider": "usps_collection_boxes", "addr:city": "NORTH TROY", "addr:country": "US", "addr:full": "66 SOUTH ST", "addr:postcode": "05859", "addr:state": "VT", "amenity": "post_box", "brand": "United States Postal Service", "brand:wikidata": "Q668687", "collection_times": "Mo-Fr 16:30; Sa 11:30", "name": "USPS COLLECTION BOX - BLUE BOX", "note": "ON 12/24 AND 12/31, THIS BOX MAY BE COLLECTED AS EARLY AS 12 NOON.", "nsi_id": "unitedstatespostalservice-a77078", "operator": "United States Postal Service", "operator:short": "USPS", "operator:type": "public", "operator:wikidata": "Q668687", "ref": "0585900002"}, "type": "Feature"}
{"dataset_attributes": {"@spider": "usps_collection_boxes", "spider:collection_time": "2023-12-25T08:25:18.404837"}, "geometry": {"coordinates": [-72.402305, 44.995965], "type": "Point"}, "id": "viz5WbU9Eb3h2SnJkRWFu7sc0Tc=", "properties": {"@spider": "usps_collection_boxes", "addr:city": "NORTH TROY", "addr:country": "US", "addr:full": "66 SOUTH ST", "addr:postcode": "05859", "addr:state": "VT", "amenity": "post_box", "brand": "United States Postal Service", "brand:wikidata": "Q668687", "collection_times": "Mo-Fr 16:30; Sa 11:45", "name": "USPS COLLECTION BOX - PO LOBBY", "note": "ON 12/24 AND 12/31, THIS BOX MAY BE COLLECTED AS EARLY AS 12 NOON.", "nsi_id": "unitedstatespostalservice-a77078", "operator": "United States Postal Service", "operator:short": "USPS", "operator:type": "public", "operator:wikidata": "Q668687", "ref": "0585900003"}, "type": "Feature"}
{"dataset_attributes": {"@spider": "usps_collection_boxes", "spider:collection_time": "2023-12-25T08:25:18.404837"}, "geometry": {"coordinates": [-72.402258276, 44.99594101], "type": "Point"}, "id": "YIQyCtXYLap3LTL1DSTBcAyYagE=", "properties": {"@spider": "usps_collection_boxes", "addr:city": "NORTH TROY", "addr:country": "US", "addr:full": "66 SOUTH ST", "addr:postcode": "05859", "addr:state": "VT", "amenity": "post_box", "brand": "United States Postal Service", "brand:wikidata": "Q668687", "collection_times": "Mo-Fr 16:30; Sa 11:30", "name": "USPS COLLECTION BOX - PO LOBBY", "note": "ON 12/24 AND 12/31, THIS BOX MAY BE COLLECTED AS EARLY AS 12 NOON.", "nsi_id": "unitedstatespostalservice-a77078", "operator": "United States Postal Service", "operator:short": "USPS", "operator:type": "public", "operator:wikidata": "Q668687", "ref": "0585900005"}, "type": "Feature"}
{"dataset_attributes": {"@spider": "usps_collection_boxes", "spider:collection_time": "2023-12-25T08:25:18.404837"}, "geometry": {"coordinates": [-72.202304, 44.811176], "type": "Point"}, "id": "UieSfIfKEmt1D4Q9gWJ-bt2IYNs=", "properties": {"@spider": "usps_collection_boxes", "addr:city": "ORLEANS", "addr:country": "US", "addr:full": "2 WATER ST", "addr:postcode": "05860", "addr:state": "VT", "amenity": "post_box", "brand": "United States Postal Service", "brand:wikidata": "Q668687", "collection_times": "Mo-Fr 16:45; Sa 11:30", "name": "USPS COLLECTION BOX - BLUE BOX", "note": "ON 12/24 AND 12/31, THIS BOX MAY BE COLLECTED AS EARLY AS 12 NOON.", "nsi_id": "unitedstatespostalservice-a77078", "operator": "United States Postal Service", "operator:short": "USPS", "operator:type": "public", "operator:wikidata": "Q668687", "ref": "0586000001"}, "type": "Feature"}
{"dataset_attributes": {"@spider": "usps_collection_boxes", "spider:collection_time": "2023-12-25T08:25:18.404837"}, "geometry": {"coordinates": [-72.2040438, 44.810522], "type": "Point"}, "id": "nODbRByVLkBbf_B3G9ywWVmJeF4=", "properties": {"@spider": "usps_collection_boxes", "addr:city": "ORLEANS", "addr:country": "US", "addr:full": "52 MAIN ST", "addr:postcode": "05860", "addr:state": "VT", "amenity": "post_box", "brand": "United States Postal Service", "brand:wikidata": "Q668687", "collection_times": "Mo-Sa 09:00", "name": "USPS COLLECTION BOX - BLUE BOX", "nsi_id": "unitedstatespostalservice-a77078", "operator": "United States Postal Service", "operator:short": "USPS", "operator:type": "public", "operator:wikidata": "Q668687", "ref": "0586000005"}, "type": "Feature"}
{"dataset_attributes": {"@spider": "usps_collection_boxes", "spider:collection_time": "2023-12-25T08:25:18.404837"}, "geometry": {"coordinates": [-72.202297, 44.811269], "type": "Point"}, "id": "V0l_o79Sx2-2M46v3wIz1VTvQQo=", "properties": {"@spider": "usps_collection_boxes", "addr:city": "ORLEANS", "addr:country": "US", "addr:full": "2 WATER ST", "addr:postcode": "05860", "addr:state": "VT", "amenity": "post_box", "brand": "United States Postal Service", "brand:wikidata": "Q668687", "collection_times": "Mo-Fr 16:45; Sa 11:30", "name": "USPS COLLECTION BOX - PO LOBBY", "note": "ON 12/24 AND 12/31, THIS BOX MAY BE COLLECTED AS EARLY AS 12 NOON.", "nsi_id": "unitedstatespostalservice-a77078", "operator": "United States Postal Service", "operator:short": "USPS", "operator:type": "public", "operator:wikidata": "Q668687", "ref": "0586000007"}, "type": "Feature"}
{"dataset_attributes": {"@spider": "usps_collection_boxes", "spider:collection_time": "2023-12-25T08:25:18.404837"}, "geometry": {"coordinates": [-72.0543642, 44.771424], "type": "Point"}, "id": "WUwPMRmgFUz6n63KlCK4-xDIJr0=", "properties": {"@spider": "usps_collection_boxes", "addr:city": "ORLEANS", "addr:country": "US", "addr:full": "54 HINTON HILL RD", "addr:postcode": "05860", "addr:state": "VT", "amenity": "post_box", "brand": "United States Postal Service", "brand:wikidata": "Q668687", "collection_times": "Mo-Sa 10:15", "name": "USPS COLLECTION BOX - BLUE BOX", "nsi_id": "unitedstatespostalservice-a77078", "operator": "United States Postal Service", "operator:short": "USPS", "operator:type": "public", "operator:wikidata": "Q668687", "ref": "0586000008"}, "type": "Feature"}
{"dataset_attributes": {"@spider": "usps_collection_boxes", "spider:collection_time": "2023-12-25T08:25:18.404837"}, "geometry": {"coordinates": [-72.02735, 44.375937], "type": "Point"}, "id": "IE8qGBiU4vFFAc8-z0lHniQPaog=", "properties": {"@spider": "usps_collection_boxes", "addr:city": "PASSUMPSIC", "addr:country": "US", "addr:full": "32 BRIDGE ST", "addr:postcode": "05861", "addr:state": "VT", "amenity": "post_box", "brand": "United States Postal Service", "brand:wikidata": "Q668687", "collection_times": "Mo-Fr 16:45; Sa 11:45", "name": "USPS COLLECTION BOX - BLUE BOX", "note": "ON 12/24 AND 12/31, THIS BOX MAY BE COLLECTED AS EARLY AS 12 NOON.", "nsi_id": "unitedstatespostalservice-a77078", "operator": "United States Postal Service", "operator:short": "USPS", "operator:type": "public", "operator:wikidata": "Q668687", "ref": "0586100000"}, "type": "Feature"}
{"dataset_attributes": {"@spider": "usps_collection_boxes", "spider:collection_time": "2023-12-25T08:25:18.404837"}, "geometry": {"coordinates": [-72.027302, 44.375949], "type": "Point"}, "id": "kp4I1V8zutATQJewG3tTSGFtfJw=", "properties": {"@spider": "usps_collection_boxes", "addr:city": "PASSUMPSIC", "addr:country": "US", "addr:full": "32 BRIDGE ST", "addr:postcode": "05861", "addr:state": "VT", "amenity": "post_box", "brand": "United States Postal Service", "brand:wikidata": "Q668687", "collection_times": "Mo-Fr 16:45; Sa 11:45", "name": "USPS COLLECTION BOX - PO LOBBY", "note": "ON 12/24 AND 12/31, THIS BOX MAY BE COLLECTED AS EARLY AS 12 NOON.", "nsi_id": "unitedstatespostalservice-a77078", "operator": "United States Postal Service", "operator:short": "USPS", "operator:type": "public", "operator:wikidata": "Q668687", "ref": "0586100001"}, "type": "Feature"}
{"dataset_attributes": {"@spider": "usps_collection_boxes", "spider:collection_time": "2023-12-25T08:25:18.404837"}, "geometry": {"coordinates": [-71.980521209, 44.644338385], "type": "Point"}, "id": "ezSs3Rlss8qICXwF0dspAYAZKT0=", "properties": {"@spider": "usps_collection_boxes", "addr:city": "PASSUMPSIC", "addr:country": "US", "addr:full": "32 BRIDGE ST", "addr:postcode": "05861", "addr:state": "VT", "amenity": "post_box", "brand": "United States Postal Service", "brand:wikidata": "Q668687", "collection_times": "Mo-Fr 16:45; Sa 11:30", "name": "USPS COLLECTION BOX - PO LOBBY", "note": "ON 12/24 AND 12/31, THIS BOX MAY BE COLLECTED AS EARLY AS 12 NOON.", "nsi_id": "unitedstatespostalservice-a77078", "operator": "United States Postal Service", "operator:short": "USPS", "operator:type": "public", "operator:wikidata": "Q668687", "ref": "0586100003"}, "type": "Feature"}
{"dataset_attributes": {"@spider": "usps_collection_boxes", "spider:collection_time": "2023-12-25T08:25:18.404837"}, "geometry": {"coordinates": [-72.171306, 44.327783], "type": "Point"}, "id": "ivpEcSB1BWayn6I85z5o4ISVAIU=", "properties": {"@spider": "usps_collection_boxes", "addr:city": "PEACHAM", "addr:country": "US", "addr:full": "79 CHURCH ST", "addr:postcode": "05862", "addr:state": "VT", "amenity": "post_box", "brand": "United States Postal Service", "brand:wikidata": "Q668687", "collection_times": "Mo-Sa 11:15", "name": "USPS COLLECTION BOX - BLUE BOX", "nsi_id": "unitedstatespostalservice-a77078", "operator": "United States Postal Service", "operator:short": "USPS", "operator:type": "public", "operator:wikidata": "Q668687", "ref": "0586200000"}, "type": "Feature"}
{"dataset_attributes": {"@spider": "usps_collection_boxes", "spider:collection_time": "2023-12-25T08:25:18.404837"}, "geometry": {"coordinates": [-72.171306, 44.327783], "type": "Point"}, "id": "BCNgjqXQHLd1iT1yHY3lNMnHtLw=", "properties": {"@spider": "usps_collection_boxes", "addr:city": "PEACHAM", "addr:country": "US", "addr:full": "79 CHURCH ST", "addr:postcode": "05862", "addr:state": "VT", "amenity": "post_box", "brand": "United States Postal Service", "brand:wikidata": "Q668687", "collection_times": "Mo-Sa 11:15", "name": "USPS COLLECTION BOX - PO LOBBY", "nsi_id": "unitedstatespostalservice-a77078", "operator": "United States Postal Service", "operator:short": "USPS", "operator:type": "public", "operator:wikidata": "Q668687", "ref": "0586200001"}, "type": "Feature"}
{"dataset_attributes": {"@spider": "usps_collection_boxes", "spider:collection_time": "2023-12-25T08:25:18.404837"}, "geometry": {"coordinates": [-72.171242447, 44.327789279], "type": "Point"}, "id": "t7Fqz1lY94cRk7YzxNkaIeYaaOw=", "properties": {"@spider": "usps_collection_boxes", "addr:city": "PEACHAM", "addr:country": "US", "addr:full": "79 CHURCH ST", "addr:postcode": "05862", "addr:state": "VT", "amenity": "post_box", "brand": "United States Postal Service", "brand:wikidata": "Q668687", "collection_times": "Mo-Sa 11:15", "name": "USPS COLLECTION BOX - PO LOBBY", "nsi_id": "unitedstatespostalservice-a77078", "operator": "United States Postal Service", "operator:short": "USPS", "operator:type": "public", "operator:wikidata": "Q668687", "ref": "0586200002"}, "type": "Feature"}
{"dataset_attributes": {"@spider": "usps_collection_boxes", "spider:collection_time": "2023-12-25T08:25:18.404837"}, "geometry": {"coordinates": [-72.0161674, 44.455606], "type": "Point"}, "id": "TRGTCoUaCcj7IJp-sJvd2etzm9U=", "properties": {"@spider": "usps_collection_boxes", "addr:city": "ST JHNSBRY CT", "addr:country": "US", "addr:full": "1616 MEMORIAL DR", "addr:postcode": "05863", "addr:state": "VT", "amenity": "post_box", "brand": "United States Postal Service", "brand:wikidata": "Q668687", "collection_times": "Mo-Sa 09:00", "name": "USPS COLLECTION BOX - BLUE BOX", "nsi_id": "unitedstatespostalservice-a77078", "operator": "United States Postal Service", "operator:short": "USPS", "operator:type": "public", "operator:wikidata": "Q668687", "ref": "0586300000"}, "type": "Feature"}
{"dataset_attributes": {"@spider": "usps_collection_boxes", "spider:collection_time": "2023-12-25T08:25:18.404837"}, "geometry": {"coordinates": [-72.0161927, 44.455618], "type": "Point"}, "id": "GNmVMy4NChLEyEBou37z-5i5hrw=", "properties": {"@spider": "usps_collection_boxes", "addr:city": "ST JHNSBRY CT", "addr:country": "US", "addr:full": "1616 MEMORIAL DR", "addr:postcode": "05863", "addr:state": "VT", "amenity": "post_box", "brand": "United States Postal Service", "brand:wikidata": "Q668687", "collection_times": "Mo-Fr 11:45; Sa 11:00", "name": "USPS COLLECTION BOX - PO LOBBY", "nsi_id": "unitedstatespostalservice-a77078", "operator": "United States Postal Service", "operator:short": "USPS", "operator:type": "public", "operator:wikidata": "Q668687", "ref": "0586300001"}, "type": "Feature"}
{"dataset_attributes": {"@spider": "usps_collection_boxes", "spider:collection_time": "2023-12-25T08:25:18.404837"}, "geometry": {"coordinates": [-72.016237761, 44.455609645], "type": "Point"}, "id": "atIT0zXUud21rYtDwtsYZduIjmc=", "properties": {"@spider": "usps_collection_boxes", "addr:city": "ST JHNSBRY CT", "addr:country": "US", "addr:full": "1616 MEMORIAL DR", "addr:postcode": "05863", "addr:state": "VT", "amenity": "post_box", "brand": "United States Postal Service", "brand:wikidata": "Q668687", "collection_times": "Mo-Fr 11:45; Sa 11:00", "name": "USPS COLLECTION BOX - PO LOBBY", "nsi_id": "unitedstatespostalservice-a77078", "operator": "United States Postal Service", "operator:short": "USPS", "operator:type": "public", "operator:wikidata": "Q668687", "ref": "0586300002"}, "type": "Feature"}
{"dataset_attributes": {"@spider": "usps_collection_boxes", "spider:collection_time": "2023-12-25T08:25:18.404837"}, "geometry": {"coordinates": [-72.114155, 44.601837], "type": "Point"}, "id": "9hAGKDEsh1wjUV1-YXFMWIPebm4=", "properties": {"@spider": "usps_collection_boxes", "addr:city": "SHEFFIELD", "addr:country": "US", "addr:full": "3037 MAIN ST", "addr:postcode": "05866", "addr:state": "VT", "amenity": "post_box", "brand": "United States Postal Service", "brand:wikidata": "Q668687", "collection_times": "Mo-Sa 11:30", "name": "USPS COLLECTION BOX - BLUE BOX", "nsi_id": "unitedstatespostalservice-a77078", "operator": "United States Postal Service", "operator:short": "USPS", "operator:type": "public", "operator:wikidata": "Q668687", "ref": "0586600000"}, "type": "Feature"}
{"dataset_attributes": {"@spider": "usps_collection_boxes", "spider:collection_time": "2023-12-25T08:25:18.404837"}, "geometry": {"coordinates": [-72.114195, 44.601893], "type": "Point"}, "id": "utnNq0hs3Kp9pPMRtcQ8OCJ2ZRk=", "properties": {"@spider": "usps_collection_boxes", "addr:city": "SHEFFIELD", "addr:country": "US", "addr:full": "3037 MAIN ST", "addr:postcode": "05866", "addr:state": "VT", "amenity": "post_box", "brand": "United States Postal Service", "brand:wikidata": "Q668687", "collection_times": "Mo-Sa 11:30", "name": "USPS COLLECTION BOX - PO LOBBY", "nsi_id": "unitedstatespostalservice-a77078", "operator": "United States Postal Service", "operator:short": "USPS", "operator:type": "public", "operator:wikidata": "Q668687", "ref": "0586600001"}, "type": "Feature"}
{"dataset_attributes": {"@spider": "usps_collection_boxes", "spider:collection_time": "2023-12-25T08:25:18.404837"}, "geometry": {"coordinates": [-72.114147895, 44.601829471], "type": "Point"}, "id": "AXIf3PIwiP2POxzPoLEwaDB1LXs=", "properties": {"@spider": "usps_collection_boxes", "addr:city": "SHEFFIELD", "addr:country": "US", "addr:full": "3037 MAIN ST", "addr:postcode": "05866", "addr:state": "VT", "amenity": "post_box", "brand": "United States Postal Service", "brand:wikidata": "Q668687", "collection_times": "Mo-Sa 11:30", "name": "USPS COLLECTION BOX - PO LOBBY", "nsi_id": "unitedstatespostalservice-a77078", "operator": "United States Postal Service", "operator:short": "USPS", "operator:type": "public", "operator:wikidata": "Q668687", "ref": "0586600002"}, "type": "Feature"}
{"dataset_attributes": {"@spider": "usps_collection_boxes", "spider:collection_time": "2023-12-25T08:25:18.404837"}, "geometry": {"coordinates": [-72.404798, 44.904035], "type": "Point"}, "id": "PQGINRsJZIVYfsT4ftFCJ7wEvKQ=", "properties": {"@spider": "usps_collection_boxes", "addr:city": "WESTFIELD", "addr:country": "US", "addr:full": "6694 VT ROUTE 100", "addr:postcode": "05868", "addr:state": "VT", "amenity": "post_box", "brand": "United States Postal Service", "brand:wikidata": "Q668687", "collection_times": "Mo-Fr 16:00; Sa 11:30", "name": "USPS COLLECTION BOX - BLUE BOX", "note": "ON 12/24 AND 12/31, THIS BOX MAY BE COLLECTED AS EARLY AS 12 NOON.", "nsi_id": "unitedstatespostalservice-a77078", "operator": "United States Postal Service", "operator:short": "USPS", "operator:type": "public", "operator:wikidata": "Q668687", "ref": "0586800000"}, "type": "Feature"}
{"dataset_attributes": {"@spider": "usps_collection_boxes", "spider:collection_time": "2023-12-25T08:25:18.404837"}, "geometry": {"coordinates": [-72.404905, 44.903986], "type": "Point"}, "id": "fbW3CWyAFfsMoxwi_LhuUQCN7zY=", "properties": {"@spider": "usps_collection_boxes", "addr:city": "WESTFIELD", "addr:country": "US", "addr:full": "6694 VT ROUTE 100", "addr:postcode": "05868", "addr:state": "VT", "amenity": "post_box", "brand": "United States Postal Service", "brand:wikidata": "Q668687", "collection_times": "Mo-Fr 16:00; Sa 11:30", "name": "USPS COLLECTION BOX - PO LOBBY", "note": "ON 12/24 AND 12/31, THIS BOX MAY BE COLLECTED AS EARLY AS 12 NOON.", "nsi_id": "unitedstatespostalservice-a77078", "operator": "United States Postal Service", "operator:short": "USPS", "operator:type": "public", "operator:wikidata": "Q668687", "ref": "0586800002"}, "type": "Feature"}
{"dataset_attributes": {"@spider": "usps_collection_boxes", "spider:collection_time": "2023-12-25T08:25:18.404837"}, "geometry": {"coordinates": [-72.404205401, 44.904139249], "type": "Point"}, "id": "cynwHn8cPL45cx4dj2dWn_gIAsM=", "properties": {"@spider": "usps_collection_boxes", "addr:city": "WESTFIELD", "addr:country": "US", "addr:full": "6694 VT ROUTE 100", "addr:postcode": "05868", "addr:state": "VT", "amenity": "post_box", "brand": "United States Postal Service", "brand:wikidata": "Q668687", "collection_times": "Mo-Fr 16:30; Sa 11:45", "name": "USPS COLLECTION BOX - PO LOBBY", "note": "ON 12/24 AND 12/31, THIS BOX MAY BE COLLECTED AS EARLY AS 12 NOON.", "nsi_id": "unitedstatespostalservice-a77078", "operator": "United States Postal Service", "operator:short": "USPS", "operator:type": "public", "operator:wikidata": "Q668687", "ref": "0586800003"}, "type": "Feature"}
{"dataset_attributes": {"@spider": "usps_collection_boxes", "spider:collection_time": "2023-12-25T08:25:18.404837"}, "geometry": {"coordinates": [-71.980348, 44.643015], "type": "Point"}, "id": "tT6cckLcePFlu6FeXxZ2L1C1su0=", "properties": {"@spider": "usps_collection_boxes", "addr:city": "WEST BURKE", "addr:country": "US", "addr:full": "30 POST OFFICE RD", "addr:postcode": "05871", "addr:state": "VT", "amenity": "post_box", "brand": "United States Postal Service", "brand:wikidata": "Q668687", "collection_times": "Mo-Fr 16:30; Sa 11:30", "name": "USPS COLLECTION BOX - BLUE BOX", "note": "ON 12/24 AND 12/31, THIS BOX MAY BE COLLECTED AS EARLY AS 12 NOON.", "nsi_id": "unitedstatespostalservice-a77078", "operator": "United States Postal Service", "operator:short": "USPS", "operator:type": "public", "operator:wikidata": "Q668687", "ref": "0587100000"}, "type": "Feature"}
{"dataset_attributes": {"@spider": "usps_collection_boxes", "spider:collection_time": "2023-12-25T08:25:18.404837"}, "geometry": {"coordinates": [-71.980284, 44.643005], "type": "Point"}, "id": "g1az3Ztin3RolRJM46B6McF_7hE=", "properties": {"@spider": "usps_collection_boxes", "addr:city": "WEST BURKE", "addr:country": "US", "addr:full": "30 POST OFFICE RD", "addr:postcode": "05871", "addr:state": "VT", "amenity": "post_box", "brand": "United States Postal Service", "brand:wikidata": "Q668687", "collection_times": "Mo-Fr 16:30; Sa 11:30", "name": "USPS COLLECTION BOX - PO LOBBY", "note": "ON 12/24 AND 12/31, THIS BOX MAY BE COLLECTED AS EARLY AS 12 NOON.", "nsi_id": "unitedstatespostalservice-a77078", "operator": "United States Postal Service", "operator:short": "USPS", "operator:type": "public", "operator:wikidata": "Q668687", "ref": "0587100001"}, "type": "Feature"}
{"dataset_attributes": {"@spider": "usps_collection_boxes", "spider:collection_time": "2023-12-25T08:25:18.404837"}, "geometry": {"coordinates": [-71.980688168, 44.642915056], "type": "Point"}, "id": "7AeBn3XlVJqs5-rDaynDsH59UL0=", "properties": {"@spider": "usps_collection_boxes", "addr:city": "WEST BURKE", "addr:country": "US", "addr:full": "30 POST OFFICE RD", "addr:postcode": "05871", "addr:state": "VT", "amenity": "post_box", "brand": "United States Postal Service", "brand:wikidata": "Q668687", "collection_times": "Mo-Fr 16:30; Sa 11:30", "name": "USPS COLLECTION BOX - PO LOBBY", "note": "ON 12/24 AND 12/31, THIS BOX MAY BE COLLECTED AS EARLY AS 12 NOON.", "nsi_id": "unitedstatespostalservice-a77078", "operator": "United States Postal Service", "operator:short": "USPS", "operator:type": "public", "operator:wikidata": "Q668687", "ref": "0587100002"}, "type": "Feature"}
{"dataset_attributes": {"@spider": "usps_collection_boxes", "spider:collection_time": "2023-12-25T08:25:18.404837"}, "geometry": {"coordinates": [-72.058028, 44.897892], "type": "Point"}, "id": "0r8z0Nclpilr0mAyVzNCojdjlv4=", "properties": {"@spider": "usps_collection_boxes", "addr:city": "WEST CHARLESTON", "addr:country": "US", "addr:full": "1165 VT ROUTE 105", "addr:postcode": "05872", "addr:state": "VT", "amenity": "post_box", "brand": "United States Postal Service", "brand:wikidata": "Q668687", "collection_times": "Mo-Fr 12:00; Sa 11:30", "name": "USPS COLLECTION BOX - BLUE BOX", "nsi_id": "unitedstatespostalservice-a77078", "operator": "United States Postal Service", "operator:short": "USPS", "operator:type": "public", "operator:wikidata": "Q668687", "ref": "0587200000"}, "type": "Feature"}
{"dataset_attributes": {"@spider": "usps_collection_boxes", "spider:collection_time": "2023-12-25T08:25:18.404837"}, "geometry": {"coordinates": [-72.058012, 44.897844], "type": "Point"}, "id": "krpkk9s42e6SMIPfbSX5zbY6Svg=", "properties": {"@spider": "usps_collection_boxes", "addr:city": "WEST CHARLESTON", "addr:country": "US", "addr:full": "1165 VT ROUTE 105", "addr:postcode": "05872", "addr:state": "VT", "amenity": "post_box", "brand": "United States Postal Service", "brand:wikidata": "Q668687", "collection_times": "Mo-Fr 12:00; Sa 11:45", "name": "USPS COLLECTION BOX - PO LOBBY", "nsi_id": "unitedstatespostalservice-a77078", "operator": "United States Postal Service", "operator:short": "USPS", "operator:type": "public", "operator:wikidata": "Q668687", "ref": "0587200001"}, "type": "Feature"}
{"dataset_attributes": {"@spider": "usps_collection_boxes", "spider:collection_time": "2023-12-25T08:25:18.404837"}, "geometry": {"coordinates": [-72.057957192, 44.897831822], "type": "Point"}, "id": "m3VWIkFNmPdmsRrsN0bXBLXVzZE=", "properties": {"@spider": "usps_collection_boxes", "addr:city": "WEST CHARLESTON", "addr:country": "US", "addr:full": "1165 VT ROUTE 105", "addr:postcode": "05872", "addr:state": "VT", "amenity": "post_box", "brand": "United States Postal Service", "brand:wikidata": "Q668687", "collection_times": "Mo-Fr 12:00; Sa 11:30", "name": "USPS COLLECTION BOX - PO LOBBY", "nsi_id": "unitedstatespostalservice-a77078", "operator": "United States Postal Service", "operator:short": "USPS", "operator:type": "public", "operator:wikidata": "Q668687", "ref": "0587200002"}, "type": "Feature"}
{"dataset_attributes": {"@spider": "usps_collection_boxes", "spider:collection_time": "2023-12-25T08:25:18.404837"}, "geometry": {"coordinates": [-72.195152, 44.408868], "type": "Point"}, "id": "29vuiiFOJGCmoGy8IqODPDaH5c8=", "properties": {"@spider": "usps_collection_boxes", "addr:city": "WEST DANVILLE", "addr:country": "US", "addr:full": "2748 US ROUTE 2 W", "addr:postcode": "05873", "addr:state": "VT", "amenity": "post_box", "brand": "United States Postal Service", "brand:wikidata": "Q668687", "collection_times": "Mo-Fr 16:45; Sa 11:00", "name": "USPS COLLECTION BOX - BLUE BOX", "note": "ON 12/24 AND 12/31, THIS BOX MAY BE COLLECTED AS EARLY AS 12 NOON.", "nsi_id": "unitedstatespostalservice-a77078", "operator": "United States Postal Service", "operator:short": "USPS", "operator:type": "public", "operator:wikidata": "Q668687", "ref": "0587300000"}, "type": "Feature"}
{"dataset_attributes": {"@spider": "usps_collection_boxes", "spider:collection_time": "2023-12-25T08:25:18.404837"}, "geometry": {"coordinates": [-72.195278, 44.408841], "type": "Point"}, "id": "CqDa0Ph0mlzLdCWedYj948shqBU=", "properties": {"@spider": "usps_collection_boxes", "addr:city": "WEST DANVILLE", "addr:country": "US", "addr:full": "2748 US ROUTE 2 W", "addr:postcode": "05873", "addr:state": "VT", "amenity": "post_box", "brand": "United States Postal Service", "brand:wikidata": "Q668687", "collection_times": "Mo-Fr 16:45; Sa 11:00", "name": "USPS COLLECTION BOX - PO LOBBY", "note": "ON 12/24 AND 12/31, THIS BOX MAY BE COLLECTED AS EARLY AS 12 NOON.", "nsi_id": "unitedstatespostalservice-a77078", "operator": "United States Postal Service", "operator:short": "USPS", "operator:type": "public", "operator:wikidata": "Q668687", "ref": "0587300001"}, "type": "Feature"}
{"dataset_attributes": {"@spider": "usps_collection_boxes", "spider:collection_time": "2023-12-25T08:25:18.404837"}, "geometry": {"coordinates": [-72.194526147, 44.408774147], "type": "Point"}, "id": "_BmompLN5P0Vv3HqpfFUt5WQAHI=", "properties": {"@spider": "usps_collection_boxes", "addr:city": "WEST DANVILLE", "addr:country": "US", "addr:full": "2748 US ROUTE 2 W", "addr:postcode": "05873", "addr:state": "VT", "amenity": "post_box", "brand": "United States Postal Service", "brand:wikidata": "Q668687", "collection_times": "Mo-Fr 16:45; Sa 11:30", "name": "USPS COLLECTION BOX - PO LOBBY", "note": "ON 12/24 AND 12/31, THIS BOX MAY BE COLLECTED AS EARLY AS 12 NOON.", "nsi_id": "unitedstatespostalservice-a77078", "operator": "United States Postal Service", "operator:short": "USPS", "operator:type": "public", "operator:wikidata": "Q668687", "ref": "0587300002"}, "type": "Feature"}
