{"geometry": {"coordinates": [-71.507925, 45.008386], "type": "Point"}, "id": "2S0LGf1-1cvwetO8cQkLo1xbClw=", "properties": {"@spider": "usps_collection_boxes", "addr:city": "BEECHER FALLS", "addr:country": "US", "addr:full": "1110 VT ROUTE 253", "addr:postcode": "05902", "addr:state": "VT", "brand": "USPS", "collection_times": "Mo-Fr 16:00; Sa 11:30", "name": "USPS COLLECTION BOX - BLUE BOX", "note": "ON 12/24 AND 12/31, THIS BOX MAY BE COLLECTED AS EARLY AS 12 NOON.", "ref": "0590200000"}, "type": "Feature"}
{"geometry": {"coordinates": [-71.507667, 45.008309], "type": "Point"}, "id": "HZvgwCkV8QgRmcofXl_YXZcq908=", "properties": {"@spider": "usps_collection_boxes", "addr:city": "BEECHER FALLS", "addr:country": "US", "addr:full": "1110 VT ROUTE 253", "addr:postcode": "05902", "addr:state": "VT", "brand": "USPS", "collection_times": "Mo-Fr 16:00; Sa 11:30", "name": "USPS COLLECTION BOX - PO LOBBY", "note": "ON 12/24 AND 12/31, THIS BOX MAY BE COLLECTED AS EARLY AS 12 NOON.", "ref": "0590200001"}, "type": "Feature"}
{"geometry": {"coordinates": [-71.507640211, 45.008408536], "type": "Point"}, "id": "bmOqwaFBd2JxqStClfnby-lRI-M=", "properties": {"@spider": "usps_collection_boxes", "addr:city": "BEECHER FALLS", "addr:country": "US", "addr:full": "1110 VERMONT ROUTE 253", "addr:postcode": "05902", "addr:state": "VT", "brand": "USPS", "collection_times": "Mo-Fr 16:00; Sa 12:00", "name": "USPS COLLECTION BOX - PO LOBBY", "note": "ON 12/24 AND 12/31, THIS BOX MAY BE COLLECTED AS EARLY AS 12 NOON.", "ref": "0590200002"}, "type": "Feature"}
{"geometry": {"coordinates": [-71.533094, 44.999469], "type": "Point"}, "id": "Yue5--Zmax1QekfKkKd91FMrADA=", "properties": {"@spider": "usps_collection_boxes", "addr:city": "CANAAN", "addr:country": "US", "addr:full": "350 CHRISTIAN HL", "addr:postcode": "05903", "addr:state": "VT", "brand": "USPS", "collection_times": "Mo-Fr 15:00; Sa 11:45", "name": "USPS COLLECTION BOX - BLUE BOX", "note": "ON 12/24 AND 12/31, THIS BOX MAY BE COLLECTED AS EARLY AS 12 NOON.", "ref": "0590300000"}, "type": "Feature"}
{"geometry": {"coordinates": [-71.533108, 44.999495], "type": "Point"}, "id": "bcuwm_yZDTZyMK8R4xRIDUI84ns=", "properties": {"@spider": "usps_collection_boxes", "addr:city": "CANAAN", "addr:country": "US", "addr:full": "350 CHRISTIAN HL", "addr:postcode": "05903", "addr:state": "VT", "brand": "USPS", "collection_times": "Mo-Fr 15:00; Sa 11:45", "name": "USPS COLLECTION BOX - PO LOBBY", "note": "ON 12/24 AND 12/31, THIS BOX MAY BE COLLECTED AS EARLY AS 12 NOON.", "ref": "0590300002"}, "type": "Feature"}
{"geometry": {"coordinates": [-71.533209516, 44.999418626], "type": "Point"}, "id": "NEpY40AWi8mu8gFIO93U-teAtvM=", "properties": {"@spider": "usps_collection_boxes", "addr:city": "CANAAN", "addr:country": "US", "addr:full": "350 CHRISTIAN HL", "addr:postcode": "05903", "addr:state": "VT", "brand": "USPS", "collection_times": "Mo-Fr 15:00; Sa 11:30", "name": "USPS COLLECTION BOX - PO LOBBY", "note": "ON 12/24 AND 12/31, THIS BOX MAY BE COLLECTED AS EARLY AS 12 NOON.", "ref": "0590300003"}, "type": "Feature"}
{"geometry": {"coordinates": [-71.7992552, 45.003173], "type": "Point"}, "id": "YMe5RDm5nlS9XkzC_lhRqxJKS00=", "properties": {"@spider": "usps_collection_boxes", "addr:city": "NORTON", "addr:country": "US", "addr:full": "445 VT ROUTE 114 S", "addr:postcode": "05907", "addr:state": "VT", "brand": "USPS", "collection_times": "Mo-Fr 12:00; Sa 11:30", "name": "USPS COLLECTION BOX - BLUE BOX", "ref": "0590700000"}, "type": "Feature"}
{"geometry": {"coordinates": [-71.7991951, 45.003173], "type": "Point"}, "id": "KUS2GFN5rEkVBFhX1PwXh1ZBE8I=", "properties": {"@spider": "usps_collection_boxes", "addr:city": "NORTON", "addr:country": "US", "addr:full": "445 VT ROUTE 114 S", "addr:postcode": "05907", "addr:state": "VT", "brand": "USPS", "collection_times": "Mo-Fr 12:00; Sa 11:30", "name": "USPS COLLECTION BOX - PO LOBBY", "ref": "0590700001"}, "type": "Feature"}
{"geometry": {"coordinates": [-71.799478357, 45.003237507], "type": "Point"}, "id": "uyKT8iyZ2wRlpMtncOfBnqOXhBM=", "properties": {"@spider": "usps_collection_boxes", "addr:city": "NORTON", "addr:country": "US", "addr:full": "445 VT ROUTE 114 S", "addr:postcode": "05907", "addr:state": "VT", "brand": "USPS", "collection_times": "Mo-Fr 12:00; Sa 11:30", "name": "USPS COLLECTION BOX - PO LOBBY", "ref": "0590700002"}, "type": "Feature"}
