{"geometry": {"coordinates": [-71.8627113019, 41.8729588459], "type": "Point"}, "id": "4fdFB1phqTzkKiPSmUANfovbg88=", "properties": {"@spider": "usps_collection_boxes", "addr:city": "BALLOUVILLE", "addr:country": "US", "addr:full": "252 BALLOUVILLE RD", "addr:postcode": "06233", "addr:state": "CT", "brand": "USPS", "collection_times": "Mo-Fr 14:00; Sa 11:45", "name": "USPS COLLECTION BOX - BLUE BOX", "note": "ON 12/24 AND 12/31, THIS BOX MAY BE COLLECTED AS EARLY AS 12 NOON.", "ref": "0623300001"}, "type": "Feature"}
{"geometry": {"coordinates": [-71.861769828, 41.872960424], "type": "Point"}, "id": "Pws4vn6tmnqc9fiW0jjKZCFTHZY=", "properties": {"@spider": "usps_collection_boxes", "addr:city": "BALLOUVILLE", "addr:country": "US", "addr:full": "252 BALLOUVILLE RD", "addr:postcode": "06233", "addr:state": "CT", "brand": "USPS", "collection_times": "Mo-Fr 14:00; Sa 11:45", "name": "USPS COLLECTION BOX - PO LOBBY", "note": "ON 12/24 AND 12/31, THIS BOX MAY BE COLLECTED AS EARLY AS 12 NOON.", "ref": "0623300003"}, "type": "Feature"}
{"geometry": {"coordinates": [-71.861769828, 41.872960424], "type": "Point"}, "id": "CUx_wkMIUYSybkxCfO_JEILMqJI=", "properties": {"@spider": "usps_collection_boxes", "addr:city": "BALLOUVILLE", "addr:country": "US", "addr:full": "252 BALLOUVILLE RD", "addr:postcode": "06233", "addr:state": "CT", "brand": "USPS", "collection_times": "Mo-Fr 14:00; Sa 12:00", "name": "USPS COLLECTION BOX - PO LOBBY", "note": "ON 12/24 AND 12/31, THIS BOX MAY BE COLLECTED AS EARLY AS 12 NOON.", "ref": "0623300004"}, "type": "Feature"}
{"geometry": {"coordinates": [-71.825575255, 41.846792137], "type": "Point"}, "id": "0aYv_kHPvxgy0HJqdT5bFKJSMi4=", "properties": {"@spider": "usps_collection_boxes", "addr:city": "EAST KILLINGLY", "addr:country": "US", "addr:full": "1289 HARTFORD PIKE", "addr:postcode": "06243", "addr:state": "CT", "brand": "USPS", "collection_times": "Mo-Fr 16:30; Sa 11:30", "name": "USPS COLLECTION BOX - BLUE BOX", "note": "ON 12/24 AND 12/31, THIS BOX MAY BE COLLECTED AS EARLY AS 12 NOON.", "ref": "0624300001"}, "type": "Feature"}
{"geometry": {"coordinates": [-71.825575255, 41.846792137], "type": "Point"}, "id": "QfX18WYzf_H_gvQ4b6vt2ynEUfc=", "properties": {"@spider": "usps_collection_boxes", "addr:city": "EAST KILLINGLY", "addr:country": "US", "addr:full": "1289 HARTFORD PIKE", "addr:postcode": "06243", "addr:state": "CT", "brand": "USPS", "collection_times": "Mo-Fr 16:30; Sa 11:30", "name": "USPS COLLECTION BOX - PO LOBBY", "note": "ON 12/24 AND 12/31, THIS BOX MAY BE COLLECTED AS EARLY AS 12 NOON.", "ref": "0624300003"}, "type": "Feature"}
{"geometry": {"coordinates": [-71.825575255, 41.846792137], "type": "Point"}, "id": "mkd4upzuU7BA3wnhv06F1fWJhcQ=", "properties": {"@spider": "usps_collection_boxes", "addr:city": "EAST KILLINGLY", "addr:country": "US", "addr:full": "1289 HARTFORD PIKE", "addr:postcode": "06243", "addr:state": "CT", "brand": "USPS", "collection_times": "Mo-Fr 16:30; Sa 11:30", "name": "USPS COLLECTION BOX - PO LOBBY", "note": "ON 12/24 AND 12/31, THIS BOX MAY BE COLLECTED AS EARLY AS 12 NOON.", "ref": "0624300004"}, "type": "Feature"}
{"geometry": {"coordinates": [-71.89436, 41.970276], "type": "Point"}, "id": "g3c3Ob30hWyqfEbgbSqTX7LsveU=", "properties": {"@spider": "usps_collection_boxes", "addr:city": "GROSVENORDALE", "addr:country": "US", "addr:full": "655 RIVERSIDE DR", "addr:postcode": "06246", "addr:state": "CT", "brand": "USPS", "collection_times": "Mo-Fr 12:00; Sa 11:15", "name": "USPS COLLECTION BOX - BLUE BOX", "ref": "0624600001"}, "type": "Feature"}
{"geometry": {"coordinates": [-71.899441, 41.979224], "type": "Point"}, "id": "S4_MLd6xBoxxWM1iDH5aeBz0C8c=", "properties": {"@spider": "usps_collection_boxes", "addr:city": "N GROSVENORDL", "addr:country": "US", "addr:full": "831 RIVERSIDE DR", "addr:postcode": "06255", "addr:state": "CT", "brand": "USPS", "collection_times": "Mo-Fr 16:30; Sa 12:00", "name": "USPS COLLECTION BOX - BLUE BOX", "note": "ON 12/24 AND 12/31, THIS BOX MAY BE COLLECTED AS EARLY AS 12 NOON.", "ref": "0625500001"}, "type": "Feature"}
{"geometry": {"coordinates": [-71.899441, 41.979224], "type": "Point"}, "id": "F-XwdUyHpmIM1pvCeLcp-VObkqg=", "properties": {"@spider": "usps_collection_boxes", "addr:city": "N GROSVENORDL", "addr:country": "US", "addr:full": "831 RIVERSIDE DR", "addr:postcode": "06255", "addr:state": "CT", "brand": "USPS", "collection_times": "Mo-Fr 17:00; Sa 12:00", "name": "USPS COLLECTION BOX - PO LOBBY", "note": "ON 12/24 AND 12/31, THIS BOX MAY BE COLLECTED AS EARLY AS 12 NOON.", "ref": "0625500003"}, "type": "Feature"}
{"geometry": {"coordinates": [-71.900448, 41.977376], "type": "Point"}, "id": "BlTBdjUsSyWdHRiU5iqoLx5DV7c=", "properties": {"@spider": "usps_collection_boxes", "addr:city": "N GROSVENORDL", "addr:country": "US", "addr:full": "815 RIVERSIDE DR", "addr:postcode": "06255", "addr:state": "CT", "brand": "USPS", "collection_times": "Mo-Fr 16:30; Sa 12:00", "name": "USPS COLLECTION BOX - BLUE BOX", "note": "ON 12/24 AND 12/31, THIS BOX MAY BE COLLECTED AS EARLY AS 12 NOON.", "ref": "0625500004"}, "type": "Feature"}
{"geometry": {"coordinates": [-71.898993406, 41.979966046], "type": "Point"}, "id": "uCq9cxr6bhw-EnalNwZ0HXV7rGM=", "properties": {"@spider": "usps_collection_boxes", "addr:city": "N GROSVENORDL", "addr:country": "US", "addr:full": "831 RIVERSIDE DR", "addr:postcode": "06255", "addr:state": "CT", "brand": "USPS", "collection_times": "Mo-Fr 16:30; Sa 12:00", "name": "USPS COLLECTION BOX - PO LOBBY", "note": "ON 12/24 AND 12/31, THIS BOX MAY BE COLLECTED AS EARLY AS 12 NOON.", "ref": "0625500006"}, "type": "Feature"}
{"geometry": {"coordinates": [-71.9050717, 41.91236], "type": "Point"}, "id": "LfRz1DUlZ9DPVHHaP2M55KpkiCA=", "properties": {"@spider": "usps_collection_boxes", "addr:city": "PUTNAM", "addr:country": "US", "addr:full": "46 GROVE ST", "addr:postcode": "06260", "addr:state": "CT", "brand": "USPS", "collection_times": "Mo-Sa 09:00", "name": "USPS COLLECTION BOX - BLUE BOX", "ref": "0626000002"}, "type": "Feature"}
{"geometry": {"coordinates": [-71.9001326, 41.910509], "type": "Point"}, "id": "gCn9OdSRP421zYg1lkGRXtf41SM=", "properties": {"@spider": "usps_collection_boxes", "addr:city": "PUTNAM", "addr:country": "US", "addr:full": "175 GROVE ST", "addr:postcode": "06260", "addr:state": "CT", "brand": "USPS", "collection_times": "Mo-Sa 09:00", "name": "USPS COLLECTION BOX - BLUE BOX", "ref": "0626000003"}, "type": "Feature"}
{"geometry": {"coordinates": [-71.9059879, 41.925068], "type": "Point"}, "id": "2reC51Z1IzGyv7sFzSeeopULtUI=", "properties": {"@spider": "usps_collection_boxes", "addr:city": "PUTNAM", "addr:country": "US", "addr:full": "65 BALLOU ST", "addr:postcode": "06260", "addr:state": "CT", "brand": "USPS", "collection_times": "Mo-Sa 10:00", "name": "USPS COLLECTION BOX - BLUE BOX", "ref": "0626000007"}, "type": "Feature"}
{"geometry": {"coordinates": [-71.909302016, 41.916650963], "type": "Point"}, "id": "b8w8crrHloMVlfc0sQJn2R8FLz0=", "properties": {"@spider": "usps_collection_boxes", "addr:city": "PUTNAM", "addr:country": "US", "addr:full": "189 MAIN ST", "addr:postcode": "06260", "addr:state": "CT", "brand": "USPS", "collection_times": "Mo-Fr 17:00; Sa 15:30", "name": "USPS COLLECTION BOX - BLUE BOX", "note": "ON 12/24 AND 12/31, THIS BOX MAY BE COLLECTED AS EARLY AS 12 NOON.", "ref": "0626000008"}, "type": "Feature"}
{"geometry": {"coordinates": [-71.9122887, 41.924133], "type": "Point"}, "id": "n0shRDSVrpQjOVsJiNV3ajsYU1Y=", "properties": {"@spider": "usps_collection_boxes", "addr:city": "PUTNAM", "addr:country": "US", "addr:full": "243 PROVIDENCE", "addr:postcode": "06260", "addr:state": "CT", "brand": "USPS", "collection_times": "Mo-Fr 14:00; Sa 13:00", "name": "USPS COLLECTION BOX - BLUE BOX", "note": "ON 12/24 AND 12/31, THIS BOX MAY BE COLLECTED AS EARLY AS 12 NOON.", "ref": "0626000010"}, "type": "Feature"}
{"geometry": {"coordinates": [-71.909302016, 41.916650963], "type": "Point"}, "id": "sWu2d2TzrNjZCtKiTbeQG2gDcNk=", "properties": {"@spider": "usps_collection_boxes", "addr:city": "PUTNAM", "addr:country": "US", "addr:full": "189 MAIN ST", "addr:postcode": "06260", "addr:state": "CT", "brand": "USPS", "collection_times": "Mo-Fr 17:00; Sa 15:30", "name": "USPS COLLECTION BOX - EXPRESS", "note": "ON 12/24 AND 12/31, THIS BOX MAY BE COLLECTED AS EARLY AS 12 NOON.", "ref": "0626000023"}, "type": "Feature"}
{"geometry": {"coordinates": [-71.909302016, 41.916650963], "type": "Point"}, "id": "AFj-elWZ9c41cGt_iuZUe8Jcu3U=", "properties": {"@spider": "usps_collection_boxes", "addr:city": "PUTNAM", "addr:country": "US", "addr:full": "189 MAIN ST", "addr:postcode": "06260", "addr:state": "CT", "brand": "USPS", "collection_times": "Mo-Fr 17:00; Sa 15:00", "name": "USPS COLLECTION BOX - PO LOBBY", "note": "ON 12/24 AND 12/31, THIS BOX MAY BE COLLECTED AS EARLY AS 12 NOON.", "ref": "0626000027"}, "type": "Feature"}
{"geometry": {"coordinates": [-71.8781549, 41.927662], "type": "Point"}, "id": "jKzSPZPsUDEO8DI1TmfuYjH1MP0=", "properties": {"@spider": "usps_collection_boxes", "addr:city": "PUTNAM", "addr:country": "US", "addr:full": "60 PROVIDENCE PIKE", "addr:postcode": "06260", "addr:state": "CT", "brand": "USPS", "collection_times": "Mo-Fr 13:00; Sa 12:00", "name": "USPS COLLECTION BOX - BLUE BOX", "note": "ON 12/24 AND 12/31, THIS BOX MAY BE COLLECTED AS EARLY AS 12 NOON.", "ref": "0626000028"}, "type": "Feature"}
{"geometry": {"coordinates": [-71.909302016, 41.916650963], "type": "Point"}, "id": "0vF8J8uGwZPrpfXDOpMICkn7p0U=", "properties": {"@spider": "usps_collection_boxes", "addr:city": "PUTNAM", "addr:country": "US", "addr:full": "189 MAIN ST", "addr:postcode": "06260", "addr:state": "CT", "brand": "USPS", "collection_times": "Mo-Fr 17:00; Sa 16:30", "name": "USPS COLLECTION BOX - PO LOBBY", "note": "ON 12/24 AND 12/31, THIS BOX MAY BE COLLECTED AS EARLY AS 12 NOON.", "ref": "0626000031"}, "type": "Feature"}
{"geometry": {"coordinates": [-71.8638350992, 41.9594428379], "type": "Point"}, "id": "EpZjmRRoDukeBkq5Ne-FOUZtiZI=", "properties": {"@spider": "usps_collection_boxes", "addr:city": "THOMPSON", "addr:country": "US", "addr:full": "366 THOMPSON HILL RD", "addr:postcode": "06277", "addr:state": "CT", "brand": "USPS", "collection_times": "Mo-Fr 16:15; Sa 11:15", "name": "USPS COLLECTION BOX - BLUE BOX", "note": "ON 12/24 AND 12/31, THIS BOX MAY BE COLLECTED AS EARLY AS 12 NOON.", "ref": "0627700001"}, "type": "Feature"}
{"geometry": {"coordinates": [-71.863185, 41.958916], "type": "Point"}, "id": "CZ21V2X_2gMBEmCCGtZ7MBkhttY=", "properties": {"@spider": "usps_collection_boxes", "addr:city": "THOMPSON", "addr:country": "US", "addr:full": "366 THOMPSON HILL RD", "addr:postcode": "06277", "addr:state": "CT", "brand": "USPS", "collection_times": "Mo-Fr 16:45; Sa 12:00", "name": "USPS COLLECTION BOX - PO LOBBY", "note": "ON 12/24 AND 12/31, THIS BOX MAY BE COLLECTED AS EARLY AS 12 NOON.", "ref": "0627700003"}, "type": "Feature"}
{"geometry": {"coordinates": [-71.863835099, 41.959442838], "type": "Point"}, "id": "lqlm1WymxDkcQIUwMN1HBVhpOPU=", "properties": {"@spider": "usps_collection_boxes", "addr:city": "THOMPSON", "addr:country": "US", "addr:full": "366 THOMPSON HILL RD", "addr:postcode": "06277", "addr:state": "CT", "brand": "USPS", "collection_times": "Mo-Fr 16:00; Sa 11:30", "name": "USPS COLLECTION BOX - PO LOBBY", "note": "ON 12/24 AND 12/31, THIS BOX MAY BE COLLECTED AS EARLY AS 12 NOON.", "ref": "0627700005"}, "type": "Feature"}
