{"geometry": {"coordinates": [-72.0962945569, 41.3551887474], "type": "Point"}, "id": "orX2zFCgkelbmem-8yztsonclVY=", "properties": {"@spider": "usps_collection_boxes", "addr:city": "NEW LONDON", "addr:country": "US", "addr:full": "27 MASONIC ST", "addr:postcode": "06320", "addr:state": "CT", "brand": "USPS", "brand:wikidata": "Q668687", "collection_times": "Mo-Fr 17:00; Sa 12:00", "name": "USPS COLLECTION BOX - BLUE BOX", "note": "ON 12/24 AND 12/31, THIS BOX MAY BE COLLECTED AS EARLY AS 12 NOON.", "ref": "0632000001"}, "type": "Feature"}
{"geometry": {"coordinates": [-72.096373, 41.355552], "type": "Point"}, "id": "rBJD_eTpILtfz9RkMUGla5gZddA=", "properties": {"@spider": "usps_collection_boxes", "addr:city": "NEW LONDON", "addr:country": "US", "addr:full": "27 MASONIC ST", "addr:postcode": "06320", "addr:state": "CT", "brand": "USPS", "brand:wikidata": "Q668687", "collection_times": "Mo-Fr 17:00; Sa 12:00", "name": "USPS COLLECTION BOX - EXPRESS", "note": "ON 12/24 AND 12/31, THIS BOX MAY BE COLLECTED AS EARLY AS 12 NOON.", "ref": "0632000003"}, "type": "Feature"}
{"geometry": {"coordinates": [-72.1051024, 41.378711], "type": "Point"}, "id": "tf84-cncHafcCkIsC7XNcsEPiW0=", "properties": {"@spider": "usps_collection_boxes", "addr:city": "NEW LONDON", "addr:country": "US", "addr:full": "270 MOHEGAN AVE", "addr:postcode": "06320", "addr:state": "CT", "brand": "USPS", "brand:wikidata": "Q668687", "collection_times": "Mo-Fr 12:00; Sa 08:15", "name": "USPS COLLECTION BOX - BLUE BOX", "ref": "0632000008"}, "type": "Feature"}
{"geometry": {"coordinates": [-72.1033171858, 41.3709008328], "type": "Point"}, "id": "pepaoAsi4fXZcSFIINXcv13pfbk=", "properties": {"@spider": "usps_collection_boxes", "addr:city": "NEW LONDON", "addr:country": "US", "addr:full": "58 MOHEGAN AVE", "addr:postcode": "06320", "addr:state": "CT", "brand": "USPS", "brand:wikidata": "Q668687", "collection_times": "Mo-Fr 13:45; Sa 08:15", "name": "USPS COLLECTION BOX - BLUE BOX", "note": "ON 12/24 AND 12/31, THIS BOX MAY BE COLLECTED AS EARLY AS 12 NOON.", "ref": "0632000010"}, "type": "Feature"}
{"geometry": {"coordinates": [-72.1028290102, 41.3711970357], "type": "Point"}, "id": "jK2TJS--0jTTlZ9yqBGU6jyXzQs=", "properties": {"@spider": "usps_collection_boxes", "addr:city": "NEW LONDON", "addr:country": "US", "addr:full": "81 MOHEGAN AVE PKWY", "addr:postcode": "06320", "addr:state": "CT", "brand": "USPS", "brand:wikidata": "Q668687", "collection_times": "Mo-Fr 12:00; Sa 08:15", "name": "USPS COLLECTION BOX - BLUE BOX", "ref": "0632000011"}, "type": "Feature"}
{"geometry": {"coordinates": [-72.0971007, 41.35708], "type": "Point"}, "id": "9yGebhnpFUYOw0040NsgDsvPbhY=", "properties": {"@spider": "usps_collection_boxes", "addr:city": "NEW LONDON", "addr:country": "US", "addr:full": "111 UNION UN", "addr:postcode": "06320", "addr:state": "CT", "brand": "USPS", "brand:wikidata": "Q668687", "collection_times": "Mo-Sa 09:00", "name": "USPS COLLECTION BOX - BLUE BOX", "ref": "0632000012"}, "type": "Feature"}
{"geometry": {"coordinates": [-72.1161533, 41.371788], "type": "Point"}, "id": "aqs7NBxbLE70Pymj2OXjwNLLHC4=", "properties": {"@spider": "usps_collection_boxes", "addr:city": "NEW LONDON", "addr:country": "US", "addr:full": "400 BAYONET ST", "addr:postcode": "06320", "addr:state": "CT", "brand": "USPS", "brand:wikidata": "Q668687", "collection_times": "Mo-Fr 10:15; Sa 08:45", "name": "USPS COLLECTION BOX - BLUE BOX", "ref": "0632000018"}, "type": "Feature"}
{"geometry": {"coordinates": [-72.1223071, 41.366313], "type": "Point"}, "id": "kJhFMiqtckMUKmnGwQsARWticwQ=", "properties": {"@spider": "usps_collection_boxes", "addr:city": "NEW LONDON", "addr:country": "US", "addr:full": "597 BROAD ST", "addr:postcode": "06320", "addr:state": "CT", "brand": "USPS", "brand:wikidata": "Q668687", "collection_times": "Mo-Sa 10:00", "name": "USPS COLLECTION BOX - BLUE BOX", "ref": "0632000022"}, "type": "Feature"}
{"geometry": {"coordinates": [-72.1187591, 41.368478], "type": "Point"}, "id": "JTzzP_w5jRCHqmv7Auxre9BhuYA=", "properties": {"@spider": "usps_collection_boxes", "addr:city": "NEW LONDON", "addr:country": "US", "addr:full": "292 S FRONTAGE RD", "addr:postcode": "06320", "addr:state": "CT", "brand": "USPS", "brand:wikidata": "Q668687", "collection_times": "Mo-Fr 11:15; Sa 10:30", "name": "USPS COLLECTION BOX - BLUE BOX", "ref": "0632000024"}, "type": "Feature"}
{"geometry": {"coordinates": [-72.1151788, 41.363306], "type": "Point"}, "id": "PeIb8ypbIFfx2MZJ_6PZUxZ-hqA=", "properties": {"@spider": "usps_collection_boxes", "addr:city": "NEW LONDON", "addr:country": "US", "addr:full": "430 BROAD ST", "addr:postcode": "06320", "addr:state": "CT", "brand": "USPS", "brand:wikidata": "Q668687", "collection_times": "Mo-Sa 10:00", "name": "USPS COLLECTION BOX - BLUE BOX", "ref": "0632000025"}, "type": "Feature"}
{"geometry": {"coordinates": [-72.1081372, 41.360183], "type": "Point"}, "id": "an5CETWdQ598fmKyKjDclsqdRe8=", "properties": {"@spider": "usps_collection_boxes", "addr:city": "NEW LONDON", "addr:country": "US", "addr:full": "240 BROAD ST", "addr:postcode": "06320", "addr:state": "CT", "brand": "USPS", "brand:wikidata": "Q668687", "collection_times": "Mo-Sa 10:00", "name": "USPS COLLECTION BOX - BLUE BOX", "ref": "0632000026"}, "type": "Feature"}
{"geometry": {"coordinates": [-72.1038334, 41.357794], "type": "Point"}, "id": "GJHmlfaWaw7PKx8PfPObqBf9MKU=", "properties": {"@spider": "usps_collection_boxes", "addr:city": "NEW LONDON", "addr:country": "US", "addr:full": "120 BROAD ST", "addr:postcode": "06320", "addr:state": "CT", "brand": "USPS", "brand:wikidata": "Q668687", "collection_times": "Mo-Fr 15:00; Sa 10:30", "name": "USPS COLLECTION BOX - BLUE BOX", "note": "ON 12/24 AND 12/31, THIS BOX MAY BE COLLECTED AS EARLY AS 12 NOON.", "ref": "0632000027"}, "type": "Feature"}
{"geometry": {"coordinates": [-72.1115913, 41.345579], "type": "Point"}, "id": "NNoFZTkG2jpoHWAUMLPUn2vfvr0=", "properties": {"@spider": "usps_collection_boxes", "addr:city": "NEW LONDON", "addr:country": "US", "addr:full": "951 BANK ST", "addr:postcode": "06320", "addr:state": "CT", "brand": "USPS", "brand:wikidata": "Q668687", "collection_times": "Mo-Sa 09:00", "name": "USPS COLLECTION BOX - BLUE BOX", "ref": "0632000033"}, "type": "Feature"}
{"geometry": {"coordinates": [-72.0909076, 41.326046], "type": "Point"}, "id": "uYqtoqurvu984MNkyQPSjZ4QUjc=", "properties": {"@spider": "usps_collection_boxes", "addr:city": "NEW LONDON", "addr:country": "US", "addr:full": "527 PEQUOT AVE", "addr:postcode": "06320", "addr:state": "CT", "brand": "USPS", "brand:wikidata": "Q668687", "collection_times": "Mo-Sa 11:00", "name": "USPS COLLECTION BOX - BLUE BOX", "ref": "0632000036"}, "type": "Feature"}
{"geometry": {"coordinates": [-72.0955052, 41.32761], "type": "Point"}, "id": "Vh_ZovAVKIb2edG1BL1TD40hLuc=", "properties": {"@spider": "usps_collection_boxes", "addr:city": "NEW LONDON", "addr:country": "US", "addr:full": "701 MONTAUK AVE", "addr:postcode": "06320", "addr:state": "CT", "brand": "USPS", "brand:wikidata": "Q668687", "collection_times": "Mo-Fr 12:30; Sa 11:00", "name": "USPS COLLECTION BOX - BLUE BOX", "note": "ON 12/24 AND 12/31, THIS BOX MAY BE COLLECTED AS EARLY AS 12 NOON.", "ref": "0632000041"}, "type": "Feature"}
{"geometry": {"coordinates": [-72.1016594, 41.334992], "type": "Point"}, "id": "_rS8zBf7DaOgVuJDfcAx28QZpYk=", "properties": {"@spider": "usps_collection_boxes", "addr:city": "NEW LONDON", "addr:country": "US", "addr:full": "432 MONTAUK AVE", "addr:postcode": "06320", "addr:state": "CT", "brand": "USPS", "brand:wikidata": "Q668687", "collection_times": "Mo-Sa 11:00", "name": "USPS COLLECTION BOX - BLUE BOX", "ref": "0632000043"}, "type": "Feature"}
{"geometry": {"coordinates": [-72.1039219, 41.337727], "type": "Point"}, "id": "wCQZX7f-gkFJDeF87OEmP9C6Hxw=", "properties": {"@spider": "usps_collection_boxes", "addr:city": "NEW LONDON", "addr:country": "US", "addr:full": "342 MONTAUK AVE", "addr:postcode": "06320", "addr:state": "CT", "brand": "USPS", "brand:wikidata": "Q668687", "collection_times": "Mo-Fr 15:00; Sa 11:00", "name": "USPS COLLECTION BOX - BLUE BOX", "note": "ON 12/24 AND 12/31, THIS BOX MAY BE COLLECTED AS EARLY AS 12 NOON.", "ref": "0632000044"}, "type": "Feature"}
{"geometry": {"coordinates": [-72.1050365, 41.346057], "type": "Point"}, "id": "2ozwtno24r02bNB0IGElQd7lhsQ=", "properties": {"@spider": "usps_collection_boxes", "addr:city": "NEW LONDON", "addr:country": "US", "addr:full": "94 MONTAUK AVE", "addr:postcode": "06320", "addr:state": "CT", "brand": "USPS", "brand:wikidata": "Q668687", "collection_times": "Mo-Sa 09:30", "name": "USPS COLLECTION BOX - BLUE BOX", "ref": "0632000046"}, "type": "Feature"}
{"geometry": {"coordinates": [-72.095245007, 41.356212996], "type": "Point"}, "id": "tiLbX-UyVWQH4b799sa5qZVn7eE=", "properties": {"@spider": "usps_collection_boxes", "addr:city": "NEW LONDON", "addr:country": "US", "addr:full": "125 EUGENE ONEILL DR", "addr:postcode": "06320", "addr:state": "CT", "brand": "USPS", "brand:wikidata": "Q668687", "collection_times": "Mo-Fr 16:00; Sa 12:00", "name": "USPS COLLECTION BOX - BLUE BOX", "note": "ON 12/24 AND 12/31, THIS BOX MAY BE COLLECTED AS EARLY AS 12 NOON.", "ref": "0632000047"}, "type": "Feature"}
{"geometry": {"coordinates": [-72.1016386, 41.357115], "type": "Point"}, "id": "LQKsftkRP8mQEn914MzXGLqw_tQ=", "properties": {"@spider": "usps_collection_boxes", "addr:city": "NEW LONDON", "addr:country": "US", "addr:full": "145 HEMPSTEAD ST", "addr:postcode": "06320", "addr:state": "CT", "brand": "USPS", "brand:wikidata": "Q668687", "collection_times": "Mo-Sa 10:00", "name": "USPS COLLECTION BOX - BLUE BOX", "ref": "0632000048"}, "type": "Feature"}
{"geometry": {"coordinates": [-72.1086849701, 41.3409979974], "type": "Point"}, "id": "U2Pz8ZPO1QL1H4oKZfqK64l9x3c=", "properties": {"@spider": "usps_collection_boxes", "addr:city": "NEW LONDON", "addr:country": "US", "addr:full": "225 OCEAN AVE", "addr:postcode": "06320", "addr:state": "CT", "brand": "USPS", "brand:wikidata": "Q668687", "collection_times": "Mo-Sa 09:00", "name": "USPS COLLECTION BOX - BLUE BOX", "ref": "0632000050"}, "type": "Feature"}
{"geometry": {"coordinates": [-72.104234, 41.332494], "type": "Point"}, "id": "-3BbPkv7YCnOfb4a4zD9K4EmzmY=", "properties": {"@spider": "usps_collection_boxes", "addr:city": "NEW LONDON", "addr:country": "US", "addr:full": "501 OCEAN AVE", "addr:postcode": "06320", "addr:state": "CT", "brand": "USPS", "brand:wikidata": "Q668687", "collection_times": "Mo-Sa 10:00", "name": "USPS COLLECTION BOX - BLUE BOX", "ref": "0632000054"}, "type": "Feature"}
{"geometry": {"coordinates": [-72.1045047, 41.33639], "type": "Point"}, "id": "9U85U9I-O074JfL2krH94gye9wg=", "properties": {"@spider": "usps_collection_boxes", "addr:city": "NEW LONDON", "addr:country": "US", "addr:full": "365 MONTAUK AVE", "addr:postcode": "06320", "addr:state": "CT", "brand": "USPS", "brand:wikidata": "Q668687", "collection_times": "Mo-Sa 11:00", "name": "USPS COLLECTION BOX - BLUE BOX", "ref": "0632000055"}, "type": "Feature"}
{"geometry": {"coordinates": [-72.1012981, 41.346416], "type": "Point"}, "id": "cCL2IkNTJjxdfRSKjutYT13vDes=", "properties": {"@spider": "usps_collection_boxes", "addr:city": "NEW LONDON", "addr:country": "US", "addr:full": "3 SHAWS CV", "addr:postcode": "06320", "addr:state": "CT", "brand": "USPS", "brand:wikidata": "Q668687", "collection_times": "Mo-Fr 15:00; Sa 11:15", "name": "USPS COLLECTION BOX - BLUE BOX", "note": "ON 12/24 AND 12/31, THIS BOX MAY BE COLLECTED AS EARLY AS 12 NOON.", "ref": "0632000056"}, "type": "Feature"}
{"geometry": {"coordinates": [-72.0990747562, 41.3507861776], "type": "Point"}, "id": "UAbUDn6OKa58sl1aK5uJAGgbhwA=", "properties": {"@spider": "usps_collection_boxes", "addr:city": "NEW LONDON", "addr:country": "US", "addr:full": "385 BANK ST", "addr:postcode": "06320", "addr:state": "CT", "brand": "USPS", "brand:wikidata": "Q668687", "collection_times": "Mo-Sa 09:00", "name": "USPS COLLECTION BOX - BLUE BOX", "ref": "0632000058"}, "type": "Feature"}
{"geometry": {"coordinates": [-72.0958362, 41.352302], "type": "Point"}, "id": "Wx6eTFltYn4St3Jccj6D__iA0DE=", "properties": {"@spider": "usps_collection_boxes", "addr:city": "NEW LONDON", "addr:country": "US", "addr:full": "169 BANK ST", "addr:postcode": "06320", "addr:state": "CT", "brand": "USPS", "brand:wikidata": "Q668687", "collection_times": "Mo-Sa 09:15", "name": "USPS COLLECTION BOX - BLUE BOX", "ref": "0632000059"}, "type": "Feature"}
{"geometry": {"coordinates": [-72.094570013, 41.353299991], "type": "Point"}, "id": "bbHk6kj37RXxQTR6R6NzN3Wqs5A=", "properties": {"@spider": "usps_collection_boxes", "addr:city": "NEW LONDON", "addr:country": "US", "addr:full": "61 BANK ST", "addr:postcode": "06320", "addr:state": "CT", "brand": "USPS", "brand:wikidata": "Q668687", "collection_times": "Mo-Fr 13:00; Sa 10:00", "name": "USPS COLLECTION BOX - BLUE BOX", "note": "ON 12/24 AND 12/31, THIS BOX MAY BE COLLECTED AS EARLY AS 12 NOON.", "ref": "0632000060"}, "type": "Feature"}
{"geometry": {"coordinates": [-72.0932752, 41.354244], "type": "Point"}, "id": "8brHjPdDGE3HVmIySGWAbLmVNtQ=", "properties": {"@spider": "usps_collection_boxes", "addr:city": "NEW LONDON", "addr:country": "US", "addr:full": "27 WATER ST", "addr:postcode": "06320", "addr:state": "CT", "brand": "USPS", "brand:wikidata": "Q668687", "collection_times": "Mo-Fr 13:00; Sa 10:00", "name": "USPS COLLECTION BOX - BLUE BOX", "note": "ON 12/24 AND 12/31, THIS BOX MAY BE COLLECTED AS EARLY AS 12 NOON.", "ref": "0632000061"}, "type": "Feature"}
{"geometry": {"coordinates": [-72.0952547, 41.354314], "type": "Point"}, "id": "vyzzXMccCLio9mGC8diCzMYDpmg=", "properties": {"@spider": "usps_collection_boxes", "addr:city": "NEW LONDON", "addr:country": "US", "addr:full": "94 STATE ST", "addr:postcode": "06320", "addr:state": "CT", "brand": "USPS", "brand:wikidata": "Q668687", "collection_times": "Mo-Fr 10:45; Sa 10:00", "name": "USPS COLLECTION BOX - BLUE BOX", "ref": "0632000062"}, "type": "Feature"}
{"geometry": {"coordinates": [-72.0983305, 41.354981], "type": "Point"}, "id": "MFDrtZZJV8CLTfaJ2A2g2OsKKTk=", "properties": {"@spider": "usps_collection_boxes", "addr:city": "NEW LONDON", "addr:country": "US", "addr:full": "281 STATE ST", "addr:postcode": "06320", "addr:state": "CT", "brand": "USPS", "brand:wikidata": "Q668687", "collection_times": "Mo-Fr 10:45; Sa 10:00", "name": "USPS COLLECTION BOX - BLUE BOX", "ref": "0632000068"}, "type": "Feature"}
{"geometry": {"coordinates": [-72.1005599, 41.347827], "type": "Point"}, "id": "h5J09i16RG9bSdYevL94TwjeFuE=", "properties": {"@spider": "usps_collection_boxes", "addr:city": "NEW LONDON", "addr:country": "US", "addr:full": "70 HOWARD ST", "addr:postcode": "06320", "addr:state": "CT", "brand": "USPS", "brand:wikidata": "Q668687", "collection_times": "Mo-Fr 12:00; Sa 11:15", "name": "USPS COLLECTION BOX - BLUE BOX", "ref": "0632000076"}, "type": "Feature"}
{"geometry": {"coordinates": [-72.1034735436, 41.3705763518], "type": "Point"}, "id": "n03zuD5Owpa3G5ZKLwfyvTbyh_Y=", "properties": {"@spider": "usps_collection_boxes", "addr:city": "NEW LONDON", "addr:country": "US", "addr:full": "15 MOHEGAN AVE", "addr:postcode": "06320", "addr:state": "CT", "brand": "USPS", "brand:wikidata": "Q668687", "collection_times": "Mo-Fr 12:00; Sa 08:15", "name": "USPS COLLECTION BOX - BLUE BOX", "ref": "0632000077"}, "type": "Feature"}
{"geometry": {"coordinates": [-72.1036326, 41.359377], "type": "Point"}, "id": "M0Pz4DqZVVFTxhrgKlJy7oKVb6s=", "properties": {"@spider": "usps_collection_boxes", "addr:city": "NEW LONDON", "addr:country": "US", "addr:full": "64 GRANITE ST", "addr:postcode": "06320", "addr:state": "CT", "brand": "USPS", "brand:wikidata": "Q668687", "collection_times": "Mo-Fr 11:30; Sa 10:30", "name": "USPS COLLECTION BOX - BLUE BOX", "ref": "0632000078"}, "type": "Feature"}
{"geometry": {"coordinates": [-72.1013081, 41.346424], "type": "Point"}, "id": "7DtiaZNnO6lMOAQ5ViFHzVxkMUg=", "properties": {"@spider": "usps_collection_boxes", "addr:city": "NEW LONDON", "addr:country": "US", "addr:full": "3 SHAWS CV", "addr:postcode": "06320", "addr:state": "CT", "brand": "USPS", "brand:wikidata": "Q668687", "collection_times": "Mo-Fr 15:00; Sa 11:15", "name": "USPS COLLECTION BOX - BLUE BOX", "note": "ON 12/24 AND 12/31, THIS BOX MAY BE COLLECTED AS EARLY AS 12 NOON.", "ref": "0632000081"}, "type": "Feature"}
{"geometry": {"coordinates": [-72.096373, 41.355552], "type": "Point"}, "id": "1zhBRqvZ-zXt1h7xetbaa3LYw1s=", "properties": {"@spider": "usps_collection_boxes", "addr:city": "NEW LONDON", "addr:country": "US", "addr:full": "27 MASONIC ST", "addr:postcode": "06320", "addr:state": "CT", "brand": "USPS", "brand:wikidata": "Q668687", "collection_times": "Mo-Fr 17:00; Sa 14:30", "name": "USPS COLLECTION BOX - PO LOBBY", "note": "ON 12/24 AND 12/31, THIS BOX MAY BE COLLECTED AS EARLY AS 12 NOON.", "ref": "0632000083"}, "type": "Feature"}
{"geometry": {"coordinates": [-72.1194508, 41.37105], "type": "Point"}, "id": "bSIP1pv1-Pw-JglSCCqLQLWhEcs=", "properties": {"@spider": "usps_collection_boxes", "addr:city": "NEW LONDON", "addr:country": "US", "addr:full": "351 N FRONTAGE RD", "addr:postcode": "06320", "addr:state": "CT", "brand": "USPS", "brand:wikidata": "Q668687", "collection_times": "Mo-Sa 10:00", "name": "USPS COLLECTION BOX - BLUE BOX", "ref": "0632000084"}, "type": "Feature"}
{"geometry": {"coordinates": [-72.1029649, 41.328878], "type": "Point"}, "id": "Rf-tRNyyCKseHVDm9mHwLBP1TgQ=", "properties": {"@spider": "usps_collection_boxes", "addr:city": "NEW LONDON", "addr:country": "US", "addr:full": "612 OCEAN AVE", "addr:postcode": "06320", "addr:state": "CT", "brand": "USPS", "brand:wikidata": "Q668687", "collection_times": "Mo-Sa 10:30", "name": "USPS COLLECTION BOX - BLUE BOX", "ref": "0632000085"}, "type": "Feature"}
{"geometry": {"coordinates": [-72.095534871, 41.355330526], "type": "Point"}, "id": "2kE3mapIRyjE0a68zYiNN3NljMY=", "properties": {"@spider": "usps_collection_boxes", "addr:city": "NEW LONDON", "addr:country": "US", "addr:full": "27 MASONIC ST STE 1", "addr:postcode": "06320", "addr:state": "CT", "brand": "USPS", "brand:wikidata": "Q668687", "collection_times": "Mo-Fr 16:45; Sa 16:15", "name": "USPS COLLECTION BOX - PO LOBBY", "note": "ON 12/24 AND 12/31, THIS BOX MAY BE COLLECTED AS EARLY AS 12 NOON.", "ref": "0632000090"}, "type": "Feature"}
{"geometry": {"coordinates": [-72.085028, 41.617273], "type": "Point"}, "id": "6DgiwxBojgeskIJ6FRaqC4L2r2k=", "properties": {"@spider": "usps_collection_boxes", "addr:city": "BALTIC", "addr:country": "US", "addr:full": "2 MAIN ST", "addr:postcode": "06330", "addr:state": "CT", "brand": "USPS", "brand:wikidata": "Q668687", "collection_times": "Mo-Fr 16:45; Sa 11:45", "name": "USPS COLLECTION BOX - BLUE BOX", "note": "ON 12/24 AND 12/31, THIS BOX MAY BE COLLECTED AS EARLY AS 12 NOON.", "ref": "0633000001"}, "type": "Feature"}
{"geometry": {"coordinates": [-72.085028, 41.617273], "type": "Point"}, "id": "1ihoSHkHJOd5TNKjLu5h_eJicEw=", "properties": {"@spider": "usps_collection_boxes", "addr:city": "BALTIC", "addr:country": "US", "addr:full": "2 MAIN ST", "addr:postcode": "06330", "addr:state": "CT", "brand": "USPS", "brand:wikidata": "Q668687", "collection_times": "Mo-Fr 16:45; Sa 11:45", "name": "USPS COLLECTION BOX - PO LOBBY", "note": "ON 12/24 AND 12/31, THIS BOX MAY BE COLLECTED AS EARLY AS 12 NOON.", "ref": "0633000002"}, "type": "Feature"}
{"geometry": {"coordinates": [-72.084534074, 41.616776956], "type": "Point"}, "id": "alWc9CjgsHGm55WA8pLojuJ1nQI=", "properties": {"@spider": "usps_collection_boxes", "addr:city": "BALTIC", "addr:country": "US", "addr:full": "2 MAIN ST", "addr:postcode": "06330", "addr:state": "CT", "brand": "USPS", "brand:wikidata": "Q668687", "collection_times": "Mo-Fr 16:45; Sa 12:00", "name": "USPS COLLECTION BOX - PO LOBBY", "note": "ON 12/24 AND 12/31, THIS BOX MAY BE COLLECTED AS EARLY AS 12 NOON.", "ref": "0633000005"}, "type": "Feature"}
{"geometry": {"coordinates": [-71.9935049, 41.697302], "type": "Point"}, "id": "17Gn2EL1Q4TRJYfnQSA9ttxjL6A=", "properties": {"@spider": "usps_collection_boxes", "addr:city": "CANTERBURY", "addr:country": "US", "addr:full": "168 WESTMINSTER RD", "addr:postcode": "06331", "addr:state": "CT", "brand": "USPS", "brand:wikidata": "Q668687", "collection_times": "Mo-Fr 17:00; Sa 12:00", "name": "USPS COLLECTION BOX - BLUE BOX", "note": "ON 12/24 AND 12/31, THIS BOX MAY BE COLLECTED AS EARLY AS 12 NOON.", "ref": "0633100002"}, "type": "Feature"}
{"geometry": {"coordinates": [-71.9934092, 41.69749], "type": "Point"}, "id": "XSvHdHBSomrgbUu-X-o7YNZgiEA=", "properties": {"@spider": "usps_collection_boxes", "addr:city": "CANTERBURY", "addr:country": "US", "addr:full": "168 WESTMINSTER RD", "addr:postcode": "06331", "addr:state": "CT", "brand": "USPS", "brand:wikidata": "Q668687", "collection_times": "Mo-Fr 17:00; Sa 12:00", "name": "USPS COLLECTION BOX - PO LOBBY", "note": "ON 12/24 AND 12/31, THIS BOX MAY BE COLLECTED AS EARLY AS 12 NOON.", "ref": "0633100004"}, "type": "Feature"}
{"geometry": {"coordinates": [-71.99341078, 41.697939513], "type": "Point"}, "id": "-GXp0wignmTzwWS2odGB8oPsd_k=", "properties": {"@spider": "usps_collection_boxes", "addr:city": "CANTERBURY", "addr:country": "US", "addr:full": "168 WESTMINSTER RD", "addr:postcode": "06331", "addr:state": "CT", "brand": "USPS", "brand:wikidata": "Q668687", "collection_times": "Mo-Fr 17:00; Sa 12:00", "name": "USPS COLLECTION BOX - PO LOBBY", "note": "ON 12/24 AND 12/31, THIS BOX MAY BE COLLECTED AS EARLY AS 12 NOON.", "ref": "0633100007"}, "type": "Feature"}
{"geometry": {"coordinates": [-71.909179, 41.722399], "type": "Point"}, "id": "l6WJOKSu-0JgXCNLfZIIcrAckSw=", "properties": {"@spider": "usps_collection_boxes", "addr:city": "CENTRAL VILLAGE", "addr:country": "US", "addr:full": "29 SCHOOL ST", "addr:postcode": "06332", "addr:state": "CT", "brand": "USPS", "brand:wikidata": "Q668687", "collection_times": "Mo-Fr 16:30; Sa 11:30", "name": "USPS COLLECTION BOX - BLUE BOX", "note": "ON 12/24 AND 12/31, THIS BOX MAY BE COLLECTED AS EARLY AS 12 NOON.", "ref": "0633200001"}, "type": "Feature"}
{"geometry": {"coordinates": [-71.909235, 41.72242], "type": "Point"}, "id": "ELydxN5Rpmz08ry7ymOamRUK4c8=", "properties": {"@spider": "usps_collection_boxes", "addr:city": "CENTRAL VILLAGE", "addr:country": "US", "addr:full": "29 SCHOOL ST", "addr:postcode": "06332", "addr:state": "CT", "brand": "USPS", "brand:wikidata": "Q668687", "collection_times": "Mo-Fr 16:45; Sa 11:45", "name": "USPS COLLECTION BOX - PO LOBBY", "note": "ON 12/24 AND 12/31, THIS BOX MAY BE COLLECTED AS EARLY AS 12 NOON.", "ref": "0633200002"}, "type": "Feature"}
{"geometry": {"coordinates": [-71.908939523, 41.722407568], "type": "Point"}, "id": "IUG0iMLOY7QTHQ6vT9RbDcugG_I=", "properties": {"@spider": "usps_collection_boxes", "addr:city": "CENTRAL VILLAGE", "addr:country": "US", "addr:full": "29 SCHOOL ST", "addr:postcode": "06332", "addr:state": "CT", "brand": "USPS", "brand:wikidata": "Q668687", "collection_times": "Mo-Fr 16:30; Sa 11:30", "name": "USPS COLLECTION BOX - PO LOBBY", "note": "ON 12/24 AND 12/31, THIS BOX MAY BE COLLECTED AS EARLY AS 12 NOON.", "ref": "0633200005"}, "type": "Feature"}
{"geometry": {"coordinates": [-72.222297, 41.368471], "type": "Point"}, "id": "teXTS8E9rRaTgpP2MqNtzOGeYN0=", "properties": {"@spider": "usps_collection_boxes", "addr:city": "EAST LYME", "addr:country": "US", "addr:full": "225 BOSTON POST RD", "addr:postcode": "06333", "addr:state": "CT", "brand": "USPS", "brand:wikidata": "Q668687", "collection_times": "Mo-Fr 17:00; Sa 12:00", "name": "USPS COLLECTION BOX - BLUE BOX", "note": "ON 12/24 AND 12/31, THIS BOX MAY BE COLLECTED AS EARLY AS 12 NOON.", "ref": "0633300004"}, "type": "Feature"}
{"geometry": {"coordinates": [-72.2084859, 41.365568], "type": "Point"}, "id": "2i1IY_vRWUrehEd1pmJiMmz4G24=", "properties": {"@spider": "usps_collection_boxes", "addr:city": "EAST LYME", "addr:country": "US", "addr:full": "339 FLANDERS RD", "addr:postcode": "06333", "addr:state": "CT", "brand": "USPS", "brand:wikidata": "Q668687", "collection_times": "Mo-Sa 10:00", "name": "USPS COLLECTION BOX - BLUE BOX", "ref": "0633300006"}, "type": "Feature"}
{"geometry": {"coordinates": [-72.222321, 41.368446], "type": "Point"}, "id": "IppDOSXZE8fPJvDH2wBNSlKedfw=", "properties": {"@spider": "usps_collection_boxes", "addr:city": "EAST LYME", "addr:country": "US", "addr:full": "225 BOSTON POST RD", "addr:postcode": "06333", "addr:state": "CT", "brand": "USPS", "brand:wikidata": "Q668687", "collection_times": "Mo-Fr 17:00; Sa 12:00", "name": "USPS COLLECTION BOX - PO LOBBY", "note": "ON 12/24 AND 12/31, THIS BOX MAY BE COLLECTED AS EARLY AS 12 NOON.", "ref": "0633300007"}, "type": "Feature"}
{"geometry": {"coordinates": [-72.1521379, 41.566414], "type": "Point"}, "id": "HhFar-x81NkaorhYtyR12Fix7hw=", "properties": {"@spider": "usps_collection_boxes", "addr:city": "BOZRAH", "addr:country": "US", "addr:full": "181 FITCHVILLE RD", "addr:postcode": "06334", "addr:state": "CT", "brand": "USPS", "brand:wikidata": "Q668687", "collection_times": "Mo-Fr 16:15; Sa 11:30", "name": "USPS COLLECTION BOX - BLUE BOX", "note": "ON 12/24 AND 12/31, THIS BOX MAY BE COLLECTED AS EARLY AS 12 NOON.", "ref": "0633400001"}, "type": "Feature"}
{"geometry": {"coordinates": [-72.151919, 41.566381], "type": "Point"}, "id": "KLTyKgAfs82pkGOcb2Ntrp0nz4s=", "properties": {"@spider": "usps_collection_boxes", "addr:city": "BOZRAH", "addr:country": "US", "addr:full": "181 FITCHVILLE RD", "addr:postcode": "06334", "addr:state": "CT", "brand": "USPS", "brand:wikidata": "Q668687", "collection_times": "Mo-Fr 16:15; Sa 11:30", "name": "USPS COLLECTION BOX - PO LOBBY", "note": "ON 12/24 AND 12/31, THIS BOX MAY BE COLLECTED AS EARLY AS 12 NOON.", "ref": "0633400002"}, "type": "Feature"}
{"geometry": {"coordinates": [-72.152039942, 41.566310024], "type": "Point"}, "id": "7NHIfI3QLDj3qqd7IOvynavOqvI=", "properties": {"@spider": "usps_collection_boxes", "addr:city": "BOZRAH", "addr:country": "US", "addr:full": "181 FITCHVILLE RD", "addr:postcode": "06334", "addr:state": "CT", "brand": "USPS", "brand:wikidata": "Q668687", "collection_times": "Mo-Fr 16:30; Sa 12:00", "name": "USPS COLLECTION BOX - PO LOBBY", "note": "ON 12/24 AND 12/31, THIS BOX MAY BE COLLECTED AS EARLY AS 12 NOON.", "ref": "0633400004"}, "type": "Feature"}
{"geometry": {"coordinates": [-72.084069, 41.428595], "type": "Point"}, "id": "FSdhHgFiS2zW4YN2lmnJYon-XUY=", "properties": {"@spider": "usps_collection_boxes", "addr:city": "GALES FERRY", "addr:country": "US", "addr:full": "12 MILITARY HWY", "addr:postcode": "06335", "addr:state": "CT", "brand": "USPS", "brand:wikidata": "Q668687", "collection_times": "Mo-Fr 16:30; Sa 12:00", "name": "USPS COLLECTION BOX - BLUE BOX", "note": "ON 12/24 AND 12/31, THIS BOX MAY BE COLLECTED AS EARLY AS 12 NOON.", "ref": "0633500001"}, "type": "Feature"}
{"geometry": {"coordinates": [-72.084069, 41.428595], "type": "Point"}, "id": "iOQBN5QF6_3aPpbPoxt36cNfYM0=", "properties": {"@spider": "usps_collection_boxes", "addr:city": "GALES FERRY", "addr:country": "US", "addr:full": "12 MILITARY HWY", "addr:postcode": "06335", "addr:state": "CT", "brand": "USPS", "brand:wikidata": "Q668687", "collection_times": "Mo-Fr 16:45; Sa 12:00", "name": "USPS COLLECTION BOX - PO LOBBY", "note": "ON 12/24 AND 12/31, THIS BOX MAY BE COLLECTED AS EARLY AS 12 NOON.", "ref": "0633500006"}, "type": "Feature"}
{"geometry": {"coordinates": [-72.083912226, 41.428710889], "type": "Point"}, "id": "H66lua-2T_-aQPSkGIn0sPu-p8g=", "properties": {"@spider": "usps_collection_boxes", "addr:city": "GALES FERRY", "addr:country": "US", "addr:full": "12 MILITARY HWY", "addr:postcode": "06335", "addr:state": "CT", "brand": "USPS", "brand:wikidata": "Q668687", "collection_times": "Mo-Fr 16:45; Sa 12:00", "name": "USPS COLLECTION BOX - PO LOBBY", "note": "ON 12/24 AND 12/31, THIS BOX MAY BE COLLECTED AS EARLY AS 12 NOON.", "ref": "0633500010"}, "type": "Feature"}
{"geometry": {"coordinates": [-72.1979089883, 41.5789310176], "type": "Point"}, "id": "ND1Z8C9msTNpXXGF2RFt2aeU6dE=", "properties": {"@spider": "usps_collection_boxes", "addr:city": "GILMAN", "addr:country": "US", "addr:full": "26 GILMAN RD", "addr:postcode": "06336", "addr:state": "CT", "brand": "USPS", "brand:wikidata": "Q668687", "collection_times": "Mo-Fr 16:45; Sa 10:45", "name": "USPS COLLECTION BOX - BLUE BOX", "note": "ON 12/24 AND 12/31, THIS BOX MAY BE COLLECTED AS EARLY AS 12 NOON.", "ref": "0633600001"}, "type": "Feature"}
{"geometry": {"coordinates": [-72.197456, 41.578958], "type": "Point"}, "id": "xQtj4H4F6E5vrTrBT0GzFVrOKU8=", "properties": {"@spider": "usps_collection_boxes", "addr:city": "GILMAN", "addr:country": "US", "addr:full": "26 GILMAN RD", "addr:postcode": "06336", "addr:state": "CT", "brand": "USPS", "brand:wikidata": "Q668687", "collection_times": "Mo-Fr 13:00; Sa 11:00", "name": "USPS COLLECTION BOX - PO LOBBY", "note": "ON 12/24 AND 12/31, THIS BOX MAY BE COLLECTED AS EARLY AS 12 NOON.", "ref": "0633600002"}, "type": "Feature"}
{"geometry": {"coordinates": [-72.197376338, 41.579171656], "type": "Point"}, "id": "JPd0c1PgxSPmRXavF2pVVJxHZRs=", "properties": {"@spider": "usps_collection_boxes", "addr:city": "GILMAN", "addr:country": "US", "addr:full": "26 GILMAN RD", "addr:postcode": "06336", "addr:state": "CT", "brand": "USPS", "brand:wikidata": "Q668687", "collection_times": "Mo-Fr 13:00; Sa 11:00", "name": "USPS COLLECTION BOX - PO LOBBY", "note": "ON 12/24 AND 12/31, THIS BOX MAY BE COLLECTED AS EARLY AS 12 NOON.", "ref": "0633600004"}, "type": "Feature"}
{"geometry": {"coordinates": [-72.018062, 41.445021], "type": "Point"}, "id": "yCIo4O_gUPJ6Z-dN4Ux99pXN_cw=", "properties": {"@spider": "usps_collection_boxes", "addr:city": "LEDYARD", "addr:country": "US", "addr:full": "764 COLONEL LEDYARD HWY", "addr:postcode": "06339", "addr:state": "CT", "brand": "USPS", "brand:wikidata": "Q668687", "collection_times": "Mo-Fr 17:00; Sa 12:00", "name": "USPS COLLECTION BOX - BLUE BOX", "note": "ON 12/24 AND 12/31, THIS BOX MAY BE COLLECTED AS EARLY AS 12 NOON.", "ref": "0633900002"}, "type": "Feature"}
{"geometry": {"coordinates": [-72.018121, 41.445086], "type": "Point"}, "id": "x8Lx9bn6t2ogcsUCMIu4Z91CG_Q=", "properties": {"@spider": "usps_collection_boxes", "addr:city": "LEDYARD", "addr:country": "US", "addr:full": "764 COLONEL LEDYARD HWY", "addr:postcode": "06339", "addr:state": "CT", "brand": "USPS", "brand:wikidata": "Q668687", "collection_times": "Mo-Fr 16:30; Sa 12:00", "name": "USPS COLLECTION BOX - PO LOBBY", "note": "ON 12/24 AND 12/31, THIS BOX MAY BE COLLECTED AS EARLY AS 12 NOON.", "ref": "0633900004"}, "type": "Feature"}
{"geometry": {"coordinates": [-72.018157656, 41.44539622], "type": "Point"}, "id": "3Of1IHD2o1gRmJLdGV655LwHLM4=", "properties": {"@spider": "usps_collection_boxes", "addr:city": "LEDYARD", "addr:country": "US", "addr:full": "764 COLONEL LEDYARD HWY", "addr:postcode": "06339", "addr:state": "CT", "brand": "USPS", "brand:wikidata": "Q668687", "collection_times": "Mo-Fr 16:30; Sa 12:00", "name": "USPS COLLECTION BOX - PO LOBBY", "note": "ON 12/24 AND 12/31, THIS BOX MAY BE COLLECTED AS EARLY AS 12 NOON.", "ref": "0633900008"}, "type": "Feature"}
{"geometry": {"coordinates": [-72.0512449, 41.349581], "type": "Point"}, "id": "Qa7wDBSjbC2O8hy2U5A634fLKJ8=", "properties": {"@spider": "usps_collection_boxes", "addr:city": "GROTON", "addr:country": "US", "addr:full": "100 PLAZA CT", "addr:postcode": "06340", "addr:state": "CT", "brand": "USPS", "brand:wikidata": "Q668687", "collection_times": "Mo-Fr 17:15; Sa 14:00", "name": "USPS COLLECTION BOX - EXPRESS", "note": "ON 12/24 AND 12/31, THIS BOX MAY BE COLLECTED AS EARLY AS 12 NOON.", "ref": "0634000002"}, "type": "Feature"}
{"geometry": {"coordinates": [-72.0513373, 41.34954], "type": "Point"}, "id": "UXzd15uHLiXq59tjppeVcTiLlbM=", "properties": {"@spider": "usps_collection_boxes", "addr:city": "GROTON", "addr:country": "US", "addr:full": "100 PLAZA CT", "addr:postcode": "06340", "addr:state": "CT", "brand": "USPS", "brand:wikidata": "Q668687", "collection_times": "Mo-Fr 17:15; Sa 14:00", "name": "USPS COLLECTION BOX - BLUE BOX", "note": "ON 12/24 AND 12/31, THIS BOX MAY BE COLLECTED AS EARLY AS 12 NOON.", "ref": "0634000006"}, "type": "Feature"}
{"geometry": {"coordinates": [-72.0512883, 41.349503], "type": "Point"}, "id": "bFbTH5mU7DbQhMny6hQiXhM0aAs=", "properties": {"@spider": "usps_collection_boxes", "addr:city": "GROTON", "addr:country": "US", "addr:full": "100 PLAZA CT", "addr:postcode": "06340", "addr:state": "CT", "brand": "USPS", "brand:wikidata": "Q668687", "collection_times": "Mo-Fr 17:15; Sa 14:00", "name": "USPS COLLECTION BOX - BLUE BOX", "note": "ON 12/24 AND 12/31, THIS BOX MAY BE COLLECTED AS EARLY AS 12 NOON.", "ref": "0634000008"}, "type": "Feature"}
{"geometry": {"coordinates": [-72.0099229, 41.311929], "type": "Point"}, "id": "xviuXukXvW5DLPZGnC8kD3Oyfls=", "properties": {"@spider": "usps_collection_boxes", "addr:city": "GROTON", "addr:country": "US", "addr:full": "46 BEACH ST", "addr:postcode": "06340", "addr:state": "CT", "brand": "USPS", "brand:wikidata": "Q668687", "collection_times": "Mo-Fr 14:30; Sa 12:00", "name": "USPS COLLECTION BOX - BLUE BOX", "note": "ON 12/24 AND 12/31, THIS BOX MAY BE COLLECTED AS EARLY AS 12 NOON.", "ref": "0634000011"}, "type": "Feature"}
{"geometry": {"coordinates": [-71.9877066, 41.324831], "type": "Point"}, "id": "i9K3MhbMGSdloeFwSF47z9-qlCk=", "properties": {"@spider": "usps_collection_boxes", "addr:city": "GROTON", "addr:country": "US", "addr:full": "19 PEARL ST", "addr:postcode": "06340", "addr:state": "CT", "brand": "USPS", "brand:wikidata": "Q668687", "collection_times": "Mo-Fr 14:00; Sa 12:00", "name": "USPS COLLECTION BOX - BLUE BOX", "note": "ON 12/24 AND 12/31, THIS BOX MAY BE COLLECTED AS EARLY AS 12 NOON.", "ref": "0634000012"}, "type": "Feature"}
{"geometry": {"coordinates": [-72.0276427, 41.346495], "type": "Point"}, "id": "uKiLq_uAmtXl-2ma5JWD21AlfH8=", "properties": {"@spider": "usps_collection_boxes", "addr:city": "GROTON", "addr:country": "US", "addr:full": "116 FORT HILL RD", "addr:postcode": "06340", "addr:state": "CT", "brand": "USPS", "brand:wikidata": "Q668687", "collection_times": "Mo-Sa 12:00", "name": "USPS COLLECTION BOX - BLUE BOX", "ref": "0634000013"}, "type": "Feature"}
{"geometry": {"coordinates": [-72.0301038, 41.349155], "type": "Point"}, "id": "SKW9wfbI85DjV5rIMIXGycaoCSY=", "properties": {"@spider": "usps_collection_boxes", "addr:city": "GROTON", "addr:country": "US", "addr:full": "102 NEWTOWN RD", "addr:postcode": "06340", "addr:state": "CT", "brand": "USPS", "brand:wikidata": "Q668687", "collection_times": "Mo-Sa 12:00", "name": "USPS COLLECTION BOX - BLUE BOX", "ref": "0634000014"}, "type": "Feature"}
{"geometry": {"coordinates": [-72.0728964, 41.359946], "type": "Point"}, "id": "sp9wPWIzA_xZXSmwVIblcAjIZHc=", "properties": {"@spider": "usps_collection_boxes", "addr:city": "GROTON", "addr:country": "US", "addr:full": "39 BROAD STREET EXT", "addr:postcode": "06340", "addr:state": "CT", "brand": "USPS", "brand:wikidata": "Q668687", "collection_times": "Mo-Sa 12:30", "name": "USPS COLLECTION BOX - BLUE BOX", "note": "ON 12/24 AND 12/31, THIS BOX MAY BE COLLECTED AS EARLY AS 12 NOON.", "ref": "0634000018"}, "type": "Feature"}
{"geometry": {"coordinates": [-72.0787805, 41.361975], "type": "Point"}, "id": "t4HSuOVmxFfbIQIbcEYNtplzTO8=", "properties": {"@spider": "usps_collection_boxes", "addr:city": "GROTON", "addr:country": "US", "addr:full": "174 BRIDGE ST", "addr:postcode": "06340", "addr:state": "CT", "brand": "USPS", "brand:wikidata": "Q668687", "collection_times": "Mo-Fr 10:00", "name": "USPS COLLECTION BOX - BLUE BOX", "ref": "0634000019"}, "type": "Feature"}
{"geometry": {"coordinates": [-72.083763, 41.357151], "type": "Point"}, "id": "gFjTq2EiOn5URoFXyKVby6mhHsg=", "properties": {"@spider": "usps_collection_boxes", "addr:city": "GROTON", "addr:country": "US", "addr:full": "202 THAMES ST", "addr:postcode": "06340", "addr:state": "CT", "brand": "USPS", "brand:wikidata": "Q668687", "collection_times": "Mo-Fr 15:00; Sa 12:30", "name": "USPS COLLECTION BOX - BLUE BOX", "note": "ON 12/24 AND 12/31, THIS BOX MAY BE COLLECTED AS EARLY AS 12 NOON.", "ref": "0634000024"}, "type": "Feature"}
{"geometry": {"coordinates": [-72.0787379, 41.345658], "type": "Point"}, "id": "A8kXsrKZrrU6ii8XOiRLAhqo0wU=", "properties": {"@spider": "usps_collection_boxes", "addr:city": "GROTON", "addr:country": "US", "addr:full": "66 EASTERN POINT RD", "addr:postcode": "06340", "addr:state": "CT", "brand": "USPS", "brand:wikidata": "Q668687", "collection_times": "Mo-Fr 12:15; Sa 12:30", "name": "USPS COLLECTION BOX - BLUE BOX", "note": "ON 12/24 AND 12/31, THIS BOX MAY BE COLLECTED AS EARLY AS 12 NOON.", "ref": "0634000026"}, "type": "Feature"}
{"geometry": {"coordinates": [-72.067085618, 41.3200426052], "type": "Point"}, "id": "clUUWekWOax95KNK0OXsCUbKGcE=", "properties": {"@spider": "usps_collection_boxes", "addr:city": "GROTON", "addr:country": "US", "addr:full": "1084 SHENNECOSSETT", "addr:postcode": "06340", "addr:state": "CT", "brand": "USPS", "brand:wikidata": "Q668687", "collection_times": "Mo-Fr 10:00", "name": "USPS COLLECTION BOX - BLUE BOX", "ref": "0634000033"}, "type": "Feature"}
{"geometry": {"coordinates": [-72.0670013, 41.368587], "type": "Point"}, "id": "E8wggrnaRNHEBN492xx86hmVJS4=", "properties": {"@spider": "usps_collection_boxes", "addr:city": "GROTON", "addr:country": "US", "addr:full": "220 ROUTE 12", "addr:postcode": "06340", "addr:state": "CT", "brand": "USPS", "brand:wikidata": "Q668687", "collection_times": "Mo-Sa 12:00", "name": "USPS COLLECTION BOX - BLUE BOX", "ref": "0634000039"}, "type": "Feature"}
{"geometry": {"coordinates": [-72.0707682, 41.353217], "type": "Point"}, "id": "uRB5hQHDAB0MLimh94xF27dnss8=", "properties": {"@spider": "usps_collection_boxes", "addr:city": "GROTON", "addr:country": "US", "addr:full": "295 MERIDIAN ST", "addr:postcode": "06340", "addr:state": "CT", "brand": "USPS", "brand:wikidata": "Q668687", "collection_times": "Mo-Fr 15:00", "name": "USPS COLLECTION BOX - BLUE BOX", "note": "ON 12/24 AND 12/31, THIS BOX MAY BE COLLECTED AS EARLY AS 12 NOON.", "ref": "0634000042"}, "type": "Feature"}
{"geometry": {"coordinates": [-72.0754399, 41.346525], "type": "Point"}, "id": "cVUzOe3vSuymTcAUKWfEWP2VVNo=", "properties": {"@spider": "usps_collection_boxes", "addr:city": "GROTON", "addr:country": "US", "addr:full": "32 CHICAGO AVE", "addr:postcode": "06340", "addr:state": "CT", "brand": "USPS", "brand:wikidata": "Q668687", "collection_times": "Mo-Sa 12:00", "name": "USPS COLLECTION BOX - BLUE BOX", "ref": "0634000044"}, "type": "Feature"}
{"geometry": {"coordinates": [-72.0625574544, 41.3519758337], "type": "Point"}, "id": "BMD8gdhXsxu6E34CApGsr6dBP8Q=", "properties": {"@spider": "usps_collection_boxes", "addr:city": "GROTON", "addr:country": "US", "addr:full": "600 MERIDIAN ST", "addr:postcode": "06340", "addr:state": "CT", "brand": "USPS", "brand:wikidata": "Q668687", "collection_times": "Mo-Sa 11:00", "name": "USPS COLLECTION BOX - BLUE BOX", "ref": "0634000054"}, "type": "Feature"}
{"geometry": {"coordinates": [-72.0700104, 41.381363], "type": "Point"}, "id": "6mqiUxZAhnbQdl2snnODdBbchNg=", "properties": {"@spider": "usps_collection_boxes", "addr:city": "GROTON", "addr:country": "US", "addr:full": "24 SAILFISH DR", "addr:postcode": "06340", "addr:state": "CT", "brand": "USPS", "brand:wikidata": "Q668687", "collection_times": "Mo-Fr 12:00", "name": "USPS COLLECTION BOX - BLUE BOX", "ref": "0634000063"}, "type": "Feature"}
{"geometry": {"coordinates": [-72.0258462, 41.382556], "type": "Point"}, "id": "yTLCWGl_q1sUYRnDdoB2UL6Hyig=", "properties": {"@spider": "usps_collection_boxes", "addr:city": "GROTON", "addr:country": "US", "addr:full": "1311 ROUTE 184", "addr:postcode": "06340", "addr:state": "CT", "brand": "USPS", "brand:wikidata": "Q668687", "collection_times": "Mo-Fr 11:00", "name": "USPS COLLECTION BOX - BLUE BOX", "ref": "0634000066"}, "type": "Feature"}
{"geometry": {"coordinates": [-72.0571682, 41.350741], "type": "Point"}, "id": "T6R8rUXGDzjbvj4oSRqz9EQ888A=", "properties": {"@spider": "usps_collection_boxes", "addr:city": "GROTON", "addr:country": "US", "addr:full": "625 LONG HILL RD", "addr:postcode": "06340", "addr:state": "CT", "brand": "USPS", "brand:wikidata": "Q668687", "collection_times": "Mo-Fr 13:45", "name": "USPS COLLECTION BOX - BLUE BOX", "note": "ON 12/24 AND 12/31, THIS BOX MAY BE COLLECTED AS EARLY AS 12 NOON.", "ref": "0634000069"}, "type": "Feature"}
{"geometry": {"coordinates": [-72.0641726, 41.369604], "type": "Point"}, "id": "gQh6zeK4GfxpVCuBuoE0X_Ul7iU=", "properties": {"@spider": "usps_collection_boxes", "addr:city": "GROTON", "addr:country": "US", "addr:full": "150 ROUTE 184", "addr:postcode": "06340", "addr:state": "CT", "brand": "USPS", "brand:wikidata": "Q668687", "collection_times": "Mo-Sa 10:30", "name": "USPS COLLECTION BOX - BLUE BOX", "ref": "0634000084"}, "type": "Feature"}
{"geometry": {"coordinates": [-72.0520949, 41.371639], "type": "Point"}, "id": "G6KBN6GteGe1kx-Hvfz_Q22MfN8=", "properties": {"@spider": "usps_collection_boxes", "addr:city": "GROTON", "addr:country": "US", "addr:full": "481 ROUTE 184", "addr:postcode": "06340", "addr:state": "CT", "brand": "USPS", "brand:wikidata": "Q668687", "collection_times": "Mo-Sa 12:00", "name": "USPS COLLECTION BOX - BLUE BOX", "ref": "0634000085"}, "type": "Feature"}
{"geometry": {"coordinates": [-72.0788827, 41.344713], "type": "Point"}, "id": "U2DloQylTmCb5maZ7saLbyXklCk=", "properties": {"@spider": "usps_collection_boxes", "addr:city": "GROTON", "addr:country": "US", "addr:full": "75 EASTERN POINT RD", "addr:postcode": "06340", "addr:state": "CT", "brand": "USPS", "brand:wikidata": "Q668687", "collection_times": "Mo-Sa 12:15", "name": "USPS COLLECTION BOX - BLUE BOX", "note": "ON 12/24 AND 12/31, THIS BOX MAY BE COLLECTED AS EARLY AS 12 NOON.", "ref": "0634000096"}, "type": "Feature"}
{"geometry": {"coordinates": [-72.0332649, 41.345523], "type": "Point"}, "id": "KBKR3XGEX7Qh9XyGhShfpb6tUlw=", "properties": {"@spider": "usps_collection_boxes", "addr:city": "GROTON", "addr:country": "US", "addr:full": "45 FORT HILL RD", "addr:postcode": "06340", "addr:state": "CT", "brand": "USPS", "brand:wikidata": "Q668687", "collection_times": "Mo-Fr 15:30", "name": "USPS COLLECTION BOX - BLUE BOX", "note": "ON 12/24 AND 12/31, THIS BOX MAY BE COLLECTED AS EARLY AS 12 NOON.", "ref": "0634000099"}, "type": "Feature"}
{"geometry": {"coordinates": [-72.0516206, 41.349126], "type": "Point"}, "id": "-KPr40ebv5cYCHm7ajS5OkdHHxk=", "properties": {"@spider": "usps_collection_boxes", "addr:city": "GROTON", "addr:country": "US", "addr:full": "90 PLAZA CT", "addr:postcode": "06340", "addr:state": "CT", "brand": "USPS", "brand:wikidata": "Q668687", "collection_times": "Mo-Fr 17:00; Sa 15:00", "name": "USPS COLLECTION BOX - BLUE BOX", "note": "ON 12/24 AND 12/31, THIS BOX MAY BE COLLECTED AS EARLY AS 12 NOON.", "ref": "0634000100"}, "type": "Feature"}
{"geometry": {"coordinates": [-72.083763, 41.357151], "type": "Point"}, "id": "H4M4k1N93lrouRrzVRsr6EEJzjU=", "properties": {"@spider": "usps_collection_boxes", "addr:city": "GROTON", "addr:country": "US", "addr:full": "202 THAMES ST", "addr:postcode": "06340", "addr:state": "CT", "brand": "USPS", "brand:wikidata": "Q668687", "collection_times": "Mo-Fr 15:00", "name": "USPS COLLECTION BOX - PO LOBBY", "note": "ON 12/24 AND 12/31, THIS BOX MAY BE COLLECTED AS EARLY AS 12 NOON.", "ref": "0634000104"}, "type": "Feature"}
{"geometry": {"coordinates": [-72.05194584, 41.349274467], "type": "Point"}, "id": "92XdJMRIYQ0p02LiNQccz3_7hLg=", "properties": {"@spider": "usps_collection_boxes", "addr:city": "GROTON", "addr:country": "US", "addr:full": "100 PLAZA CT", "addr:postcode": "06340", "addr:state": "CT", "brand": "USPS", "brand:wikidata": "Q668687", "collection_times": "Mo-Fr 17:15; Sa 17:00", "name": "USPS COLLECTION BOX - PO LOBBY", "note": "ON 12/24 AND 12/31, THIS BOX MAY BE COLLECTED AS EARLY AS 12 NOON.", "ref": "0634000105"}, "type": "Feature"}
{"geometry": {"coordinates": [-72.009567324, 41.312214485], "type": "Point"}, "id": "jCg5HbEfxZj4Z2PQU-zphTW1E6M=", "properties": {"@spider": "usps_collection_boxes", "addr:city": "GROTON", "addr:country": "US", "addr:full": "44 BEACH RD", "addr:postcode": "06340", "addr:state": "CT", "brand": "USPS", "brand:wikidata": "Q668687", "collection_times": "Mo-Fr 12:30", "name": "USPS COLLECTION BOX - PO LOBBY", "note": "ON 12/24 AND 12/31, THIS BOX MAY BE COLLECTED AS EARLY AS 12 NOON.", "ref": "0634000106"}, "type": "Feature"}
{"geometry": {"coordinates": [-71.988070206, 41.324968463], "type": "Point"}, "id": "iHh0AFU77ZOFvX_U1wjYSJlcsNk=", "properties": {"@spider": "usps_collection_boxes", "addr:city": "GROTON", "addr:country": "US", "addr:full": "19 1/2 PEARL ST", "addr:postcode": "06340", "addr:state": "CT", "brand": "USPS", "brand:wikidata": "Q668687", "collection_times": "Mo-Fr 10:15", "name": "USPS COLLECTION BOX - PO LOBBY", "ref": "0634000107"}, "type": "Feature"}
{"geometry": {"coordinates": [-72.066031, 41.641573], "type": "Point"}, "id": "511EWHSJCvtb_aozAs8EcHbRl7g=", "properties": {"@spider": "usps_collection_boxes", "addr:city": "HANOVER", "addr:country": "US", "addr:full": "290 MAIN ST", "addr:postcode": "06350", "addr:state": "CT", "brand": "USPS", "brand:wikidata": "Q668687", "collection_times": "Mo-Fr 16:45; Sa 11:45", "name": "USPS COLLECTION BOX - BLUE BOX", "note": "ON 12/24 AND 12/31, THIS BOX MAY BE COLLECTED AS EARLY AS 12 NOON.", "ref": "0635000001"}, "type": "Feature"}
{"geometry": {"coordinates": [-72.065965, 41.641654], "type": "Point"}, "id": "NMZ59fyN03gLqaCVX7vitCYzW48=", "properties": {"@spider": "usps_collection_boxes", "addr:city": "HANOVER", "addr:country": "US", "addr:full": "290 MAIN ST", "addr:postcode": "06350", "addr:state": "CT", "brand": "USPS", "brand:wikidata": "Q668687", "collection_times": "Mo-Fr 16:45; Sa 11:45", "name": "USPS COLLECTION BOX - PO LOBBY", "note": "ON 12/24 AND 12/31, THIS BOX MAY BE COLLECTED AS EARLY AS 12 NOON.", "ref": "0635000002"}, "type": "Feature"}
{"geometry": {"coordinates": [-72.065974973, 41.641706598], "type": "Point"}, "id": "vZ2NSXmStLjXNMEUPDPKZsOi_Gg=", "properties": {"@spider": "usps_collection_boxes", "addr:city": "HANOVER", "addr:country": "US", "addr:full": "290 MAIN ST", "addr:postcode": "06350", "addr:state": "CT", "brand": "USPS", "brand:wikidata": "Q668687", "collection_times": "Mo-Fr 16:15; Sa 11:30", "name": "USPS COLLECTION BOX - PO LOBBY", "note": "ON 12/24 AND 12/31, THIS BOX MAY BE COLLECTED AS EARLY AS 12 NOON.", "ref": "0635000005"}, "type": "Feature"}
{"geometry": {"coordinates": [-71.9819442, 41.601658], "type": "Point"}, "id": "Pya9_eWt8Z_fbdpT5p5FZf2vhp4=", "properties": {"@spider": "usps_collection_boxes", "addr:city": "JEWETT CITY", "addr:country": "US", "addr:full": "91 SLATER AVE", "addr:postcode": "06351", "addr:state": "CT", "brand": "USPS", "brand:wikidata": "Q668687", "collection_times": "Mo-Sa 10:00", "name": "USPS COLLECTION BOX - BLUE BOX", "ref": "0635100003"}, "type": "Feature"}
{"geometry": {"coordinates": [-71.990899, 41.585553], "type": "Point"}, "id": "oCn9x2t83A5Ido4qXYdDR09Uspw=", "properties": {"@spider": "usps_collection_boxes", "addr:city": "JEWETT CITY", "addr:country": "US", "addr:full": "142 RIVER RD", "addr:postcode": "06351", "addr:state": "CT", "brand": "USPS", "brand:wikidata": "Q668687", "collection_times": "Mo-Sa 09:00", "name": "USPS COLLECTION BOX - BLUE BOX", "ref": "0635100006"}, "type": "Feature"}
{"geometry": {"coordinates": [-71.9719981, 41.591532], "type": "Point"}, "id": "DZLPGDAZViIN6dednjwPFgWKTAY=", "properties": {"@spider": "usps_collection_boxes", "addr:city": "JEWETT CITY", "addr:country": "US", "addr:full": "461 VOLUNTOWN RD", "addr:postcode": "06351", "addr:state": "CT", "brand": "USPS", "brand:wikidata": "Q668687", "collection_times": "Mo-Sa 09:00", "name": "USPS COLLECTION BOX - BLUE BOX", "ref": "0635100007"}, "type": "Feature"}
{"geometry": {"coordinates": [-71.9542113, 41.58904], "type": "Point"}, "id": "51fFjY2JdfP7o8BoZIV7NexcmV8=", "properties": {"@spider": "usps_collection_boxes", "addr:city": "JEWETT CITY", "addr:country": "US", "addr:full": "659 VOLUNTOWN RD", "addr:postcode": "06351", "addr:state": "CT", "brand": "USPS", "brand:wikidata": "Q668687", "collection_times": "Mo-Sa 10:00", "name": "USPS COLLECTION BOX - BLUE BOX", "ref": "0635100008"}, "type": "Feature"}
{"geometry": {"coordinates": [-72.0361844, 41.563251], "type": "Point"}, "id": "ytNGpY6t6mog5CUtKXZrUGo-zzU=", "properties": {"@spider": "usps_collection_boxes", "addr:city": "JEWETT CITY", "addr:country": "US", "addr:full": "210 BUNDY HILL RD", "addr:postcode": "06351", "addr:state": "CT", "brand": "USPS", "brand:wikidata": "Q668687", "collection_times": "Mo-Sa 09:00", "name": "USPS COLLECTION BOX - BLUE BOX", "ref": "0635100009"}, "type": "Feature"}
{"geometry": {"coordinates": [-71.9838626, 41.604872], "type": "Point"}, "id": "myL9zFexQp4ZxvkpalzgSGuxyEI=", "properties": {"@spider": "usps_collection_boxes", "addr:city": "JEWETT CITY", "addr:country": "US", "addr:full": "28 MAIN ST", "addr:postcode": "06351", "addr:state": "CT", "brand": "USPS", "brand:wikidata": "Q668687", "collection_times": "Mo-Sa 09:00", "name": "USPS COLLECTION BOX - BLUE BOX", "ref": "0635100010"}, "type": "Feature"}
{"geometry": {"coordinates": [-71.982451, 41.605856], "type": "Point"}, "id": "XRo0LWToMdGfIzM-SDDd3v5_mYE=", "properties": {"@spider": "usps_collection_boxes", "addr:city": "JEWETT CITY", "addr:country": "US", "addr:full": "54 MAIN ST", "addr:postcode": "06351", "addr:state": "CT", "brand": "USPS", "brand:wikidata": "Q668687", "collection_times": "Mo-Fr 17:00; Sa 15:30", "name": "USPS COLLECTION BOX - PO LOBBY", "note": "ON 12/24 AND 12/31, THIS BOX MAY BE COLLECTED AS EARLY AS 12 NOON.", "ref": "0635100011"}, "type": "Feature"}
{"geometry": {"coordinates": [-71.9756894, 41.610435], "type": "Point"}, "id": "AolAF7_uj0GV1IjbFN6xLyw0QtU=", "properties": {"@spider": "usps_collection_boxes", "addr:city": "JEWETT CITY", "addr:country": "US", "addr:full": "141 BROWN AVE", "addr:postcode": "06351", "addr:state": "CT", "brand": "USPS", "brand:wikidata": "Q668687", "collection_times": "Mo-Sa 13:00", "name": "USPS COLLECTION BOX - BLUE BOX", "note": "ON 12/24 AND 12/31, THIS BOX MAY BE COLLECTED AS EARLY AS 12 NOON.", "ref": "0635100012"}, "type": "Feature"}
{"geometry": {"coordinates": [-71.9778708, 41.604639], "type": "Point"}, "id": "hef7SggDwprB4rTMa2eiFI82R-Q=", "properties": {"@spider": "usps_collection_boxes", "addr:city": "JEWETT CITY", "addr:country": "US", "addr:full": "91 ASHLAND ST", "addr:postcode": "06351", "addr:state": "CT", "brand": "USPS", "brand:wikidata": "Q668687", "collection_times": "Mo-Sa 10:00", "name": "USPS COLLECTION BOX - BLUE BOX", "ref": "0635100013"}, "type": "Feature"}
{"geometry": {"coordinates": [-71.982521306, 41.60588325], "type": "Point"}, "id": "2Fel8ACuhXSSreZbNIN2OJbPiZ0=", "properties": {"@spider": "usps_collection_boxes", "addr:city": "JEWETT CITY", "addr:country": "US", "addr:full": "54 MAIN ST", "addr:postcode": "06351", "addr:state": "CT", "brand": "USPS", "brand:wikidata": "Q668687", "collection_times": "Mo-Fr 17:00; Sa 15:30", "name": "USPS COLLECTION BOX - BLUE BOX", "note": "ON 12/24 AND 12/31, THIS BOX MAY BE COLLECTED AS EARLY AS 12 NOON.", "ref": "0635100014"}, "type": "Feature"}
{"geometry": {"coordinates": [-71.982521306, 41.60588325], "type": "Point"}, "id": "dgfyWClt1qjE-qOAy54NndpoLB0=", "properties": {"@spider": "usps_collection_boxes", "addr:city": "JEWETT CITY", "addr:country": "US", "addr:full": "54 MAIN ST", "addr:postcode": "06351", "addr:state": "CT", "brand": "USPS", "brand:wikidata": "Q668687", "collection_times": "Mo-Fr 17:00; Sa 15:30", "name": "USPS COLLECTION BOX - PO LOBBY", "note": "ON 12/24 AND 12/31, THIS BOX MAY BE COLLECTED AS EARLY AS 12 NOON.", "ref": "0635100017"}, "type": "Feature"}
{"geometry": {"coordinates": [-72.12992, 41.44933], "type": "Point"}, "id": "JHT_v2TahweAPUKRVb68TFMyVxk=", "properties": {"@spider": "usps_collection_boxes", "addr:city": "MONTVILLE", "addr:country": "US", "addr:full": "293 ROUTE 163", "addr:postcode": "06353", "addr:state": "CT", "brand": "USPS", "brand:wikidata": "Q668687", "collection_times": "Mo-Fr 16:45; Sa 12:00", "name": "USPS COLLECTION BOX - BLUE BOX", "note": "ON 12/24 AND 12/31, THIS BOX MAY BE COLLECTED AS EARLY AS 12 NOON.", "ref": "0635300001"}, "type": "Feature"}
{"geometry": {"coordinates": [-72.12992, 41.44933], "type": "Point"}, "id": "YOLGULnUljZCT_X9ANfzXv4JFXc=", "properties": {"@spider": "usps_collection_boxes", "addr:city": "MONTVILLE", "addr:country": "US", "addr:full": "293 ROUTE 163", "addr:postcode": "06353", "addr:state": "CT", "brand": "USPS", "brand:wikidata": "Q668687", "collection_times": "Mo-Fr 16:45; Sa 12:00", "name": "USPS COLLECTION BOX - PO LOBBY", "note": "ON 12/24 AND 12/31, THIS BOX MAY BE COLLECTED AS EARLY AS 12 NOON.", "ref": "0635300002"}, "type": "Feature"}
{"geometry": {"coordinates": [-72.130120807, 41.449230345], "type": "Point"}, "id": "xVcZuLQMqpLYcylgHwsP4ZShfk8=", "properties": {"@spider": "usps_collection_boxes", "addr:city": "MONTVILLE", "addr:country": "US", "addr:full": "293 ROUTE 163", "addr:postcode": "06353", "addr:state": "CT", "brand": "USPS", "brand:wikidata": "Q668687", "collection_times": "Mo-Fr 16:15; Sa 11:30", "name": "USPS COLLECTION BOX - PO LOBBY", "note": "ON 12/24 AND 12/31, THIS BOX MAY BE COLLECTED AS EARLY AS 12 NOON.", "ref": "0635300005"}, "type": "Feature"}
{"geometry": {"coordinates": [-71.881325, 41.712225], "type": "Point"}, "id": "fz8aWQ9JJCg6v1UfoecJXPDlWYY=", "properties": {"@spider": "usps_collection_boxes", "addr:city": "MOOSUP", "addr:country": "US", "addr:full": "21 S MAIN ST", "addr:postcode": "06354", "addr:state": "CT", "brand": "USPS", "brand:wikidata": "Q668687", "collection_times": "Mo-Fr 17:00; Sa 12:45", "name": "USPS COLLECTION BOX - BLUE BOX", "note": "ON 12/24 AND 12/31, THIS BOX MAY BE COLLECTED AS EARLY AS 12 NOON.", "ref": "0635400005"}, "type": "Feature"}
{"geometry": {"coordinates": [-71.881325, 41.712225], "type": "Point"}, "id": "-TiP0syHMrxcilR5DUtGIKBK2v0=", "properties": {"@spider": "usps_collection_boxes", "addr:city": "MOOSUP", "addr:country": "US", "addr:full": "21 S MAIN ST", "addr:postcode": "06354", "addr:state": "CT", "brand": "USPS", "brand:wikidata": "Q668687", "collection_times": "Mo-Fr 17:00; Sa 13:00", "name": "USPS COLLECTION BOX - PO LOBBY", "note": "ON 12/24 AND 12/31, THIS BOX MAY BE COLLECTED AS EARLY AS 12 NOON.", "ref": "0635400006"}, "type": "Feature"}
{"geometry": {"coordinates": [-71.88129519, 41.712190586], "type": "Point"}, "id": "tcyyZzateFs-mfml_llMcHPLHIw=", "properties": {"@spider": "usps_collection_boxes", "addr:city": "MOOSUP", "addr:country": "US", "addr:full": "21 S MAIN ST", "addr:postcode": "06354", "addr:state": "CT", "brand": "USPS", "brand:wikidata": "Q668687", "collection_times": "Mo-Fr 16:30; Sa 12:00", "name": "USPS COLLECTION BOX - PO LOBBY", "note": "ON 12/24 AND 12/31, THIS BOX MAY BE COLLECTED AS EARLY AS 12 NOON.", "ref": "0635400009"}, "type": "Feature"}
{"geometry": {"coordinates": [-71.9665082, 41.354282], "type": "Point"}, "id": "OP1QTHVkOb79oUcOyFL3PUHmX4Q=", "properties": {"@spider": "usps_collection_boxes", "addr:city": "MYSTIC", "addr:country": "US", "addr:full": "23 E MAIN ST", "addr:postcode": "06355", "addr:state": "CT", "brand": "USPS", "brand:wikidata": "Q668687", "collection_times": "Mo-Fr 17:00; Sa 14:15", "name": "USPS COLLECTION BOX - BLUE BOX", "note": "ON 12/24 AND 12/31, THIS BOX MAY BE COLLECTED AS EARLY AS 12 NOON.", "ref": "0635500001"}, "type": "Feature"}
{"geometry": {"coordinates": [-71.9664943, 41.354275], "type": "Point"}, "id": "AgxG23_KDl7o9K-nw1JiyZVWQYo=", "properties": {"@spider": "usps_collection_boxes", "addr:city": "MYSTIC", "addr:country": "US", "addr:full": "23 E MAIN ST", "addr:postcode": "06355", "addr:state": "CT", "brand": "USPS", "brand:wikidata": "Q668687", "collection_times": "Mo-Fr 14:00; Sa 14:15", "name": "USPS COLLECTION BOX - EXPRESS", "note": "ON 12/24 AND 12/31, THIS BOX MAY BE COLLECTED AS EARLY AS 12 NOON.", "ref": "0635500003"}, "type": "Feature"}
{"geometry": {"coordinates": [-71.9748343, 41.354202], "type": "Point"}, "id": "Ei71dK-9nv4XvmcHG6lRFNmSaXg=", "properties": {"@spider": "usps_collection_boxes", "addr:city": "MYSTIC", "addr:country": "US", "addr:full": "40 LIBRARY ST", "addr:postcode": "06355", "addr:state": "CT", "brand": "USPS", "brand:wikidata": "Q668687", "collection_times": "Mo-Fr 10:30", "name": "USPS COLLECTION BOX - BLUE BOX", "ref": "0635500006"}, "type": "Feature"}
{"geometry": {"coordinates": [-71.9825173, 41.352616], "type": "Point"}, "id": "CVXzehx6ymhinpu199fmuk6dEw4=", "properties": {"@spider": "usps_collection_boxes", "addr:city": "MYSTIC", "addr:country": "US", "addr:full": "18 OCEAN VIEW AVE", "addr:postcode": "06355", "addr:state": "CT", "brand": "USPS", "brand:wikidata": "Q668687", "collection_times": "Mo-Fr 13:00; Sa 13:30", "name": "USPS COLLECTION BOX - BLUE BOX", "note": "ON 12/24 AND 12/31, THIS BOX MAY BE COLLECTED AS EARLY AS 12 NOON.", "ref": "0635500007"}, "type": "Feature"}
{"geometry": {"coordinates": [-71.9784854, 41.379827], "type": "Point"}, "id": "OHTAoNudJ79BYIlCMJii43-xW3s=", "properties": {"@spider": "usps_collection_boxes", "addr:city": "MYSTIC", "addr:country": "US", "addr:full": "18 LAMPHERE RD", "addr:postcode": "06355", "addr:state": "CT", "brand": "USPS", "brand:wikidata": "Q668687", "collection_times": "Mo-Fr 13:00; Sa 13:30", "name": "USPS COLLECTION BOX - BLUE BOX", "note": "ON 12/24 AND 12/31, THIS BOX MAY BE COLLECTED AS EARLY AS 12 NOON.", "ref": "0635500009"}, "type": "Feature"}
{"geometry": {"coordinates": [-71.9573899, 41.37806], "type": "Point"}, "id": "cX_h8qe1mn_zsbuB9IbWT8CGiIQ=", "properties": {"@spider": "usps_collection_boxes", "addr:city": "MYSTIC", "addr:country": "US", "addr:full": "39 WHITEHALL AVE", "addr:postcode": "06355", "addr:state": "CT", "brand": "USPS", "brand:wikidata": "Q668687", "collection_times": "Mo-Fr 13:00", "name": "USPS COLLECTION BOX - BLUE BOX", "note": "ON 12/24 AND 12/31, THIS BOX MAY BE COLLECTED AS EARLY AS 12 NOON.", "ref": "0635500010"}, "type": "Feature"}
{"geometry": {"coordinates": [-71.958919, 41.373791], "type": "Point"}, "id": "ydLiEThxTZdE7lvxh_SbeWIgfpo=", "properties": {"@spider": "usps_collection_boxes", "addr:city": "MYSTIC", "addr:country": "US", "addr:full": "27 COOGAN BLVD", "addr:postcode": "06355", "addr:state": "CT", "brand": "USPS", "brand:wikidata": "Q668687", "collection_times": "Mo-Sa 11:00", "name": "USPS COLLECTION BOX - BLUE BOX", "ref": "0635500011"}, "type": "Feature"}
{"geometry": {"coordinates": [-71.957157, 41.373044], "type": "Point"}, "id": "3-OjREKVqh84hnoPSywSJsulW-g=", "properties": {"@spider": "usps_collection_boxes", "addr:city": "MYSTIC", "addr:country": "US", "addr:full": "27 COOGAN BLVD", "addr:postcode": "06355", "addr:state": "CT", "brand": "USPS", "brand:wikidata": "Q668687", "collection_times": "Mo-Sa 11:00", "name": "USPS COLLECTION BOX - BLUE BOX", "ref": "0635500013"}, "type": "Feature"}
{"geometry": {"coordinates": [-71.9639431, 41.359578], "type": "Point"}, "id": "BkvJ1IfhA0-QPMOUOOF6D9hH2Gw=", "properties": {"@spider": "usps_collection_boxes", "addr:city": "MYSTIC", "addr:country": "US", "addr:full": "35 GREENMANVILLE AVE", "addr:postcode": "06355", "addr:state": "CT", "brand": "USPS", "brand:wikidata": "Q668687", "collection_times": "Mo-Fr 11:00; Sa 13:00", "name": "USPS COLLECTION BOX - BLUE BOX", "note": "ON 12/24 AND 12/31, THIS BOX MAY BE COLLECTED AS EARLY AS 12 NOON.", "ref": "0635500016"}, "type": "Feature"}
{"geometry": {"coordinates": [-71.9624126, 41.351014], "type": "Point"}, "id": "YGXd7rmmIdEu1IcQQeRsscOp3ww=", "properties": {"@spider": "usps_collection_boxes", "addr:city": "MYSTIC", "addr:country": "US", "addr:full": "12 ROOSEVELT AVE", "addr:postcode": "06355", "addr:state": "CT", "brand": "USPS", "brand:wikidata": "Q668687", "collection_times": "Mo-Fr 11:00", "name": "USPS COLLECTION BOX - BLUE BOX", "ref": "0635500017"}, "type": "Feature"}
{"geometry": {"coordinates": [-71.9706759, 41.354731], "type": "Point"}, "id": "5SZikBoWRQ8FU94Pb7tyCoci394=", "properties": {"@spider": "usps_collection_boxes", "addr:city": "MYSTIC", "addr:country": "US", "addr:full": "46 W MAIN ST", "addr:postcode": "06355", "addr:state": "CT", "brand": "USPS", "brand:wikidata": "Q668687", "collection_times": "Mo-Sa 10:00", "name": "USPS COLLECTION BOX - BLUE BOX", "ref": "0635500019"}, "type": "Feature"}
{"geometry": {"coordinates": [-71.9730149, 41.351387], "type": "Point"}, "id": "hcB9ak7_cTiFklyTBzGvlP5f9Dk=", "properties": {"@spider": "usps_collection_boxes", "addr:city": "MYSTIC", "addr:country": "US", "addr:full": "2 HIGH", "addr:postcode": "06355", "addr:state": "CT", "brand": "USPS", "brand:wikidata": "Q668687", "collection_times": "Mo-Fr 10:00", "name": "USPS COLLECTION BOX - BLUE BOX", "ref": "0635500020"}, "type": "Feature"}
{"geometry": {"coordinates": [-71.9695961, 41.354771], "type": "Point"}, "id": "WajUnJa1QvzunXz_WjngaeAgQQg=", "properties": {"@spider": "usps_collection_boxes", "addr:city": "MYSTIC", "addr:country": "US", "addr:full": "15 W MAIN ST", "addr:postcode": "06355", "addr:state": "CT", "brand": "USPS", "brand:wikidata": "Q668687", "collection_times": "Mo-Sa 10:00", "name": "USPS COLLECTION BOX - BLUE BOX", "ref": "0635500022"}, "type": "Feature"}
{"geometry": {"coordinates": [-71.9632189, 41.356442], "type": "Point"}, "id": "J_LryLgNbh5rxuqEukCV6X0eLhA=", "properties": {"@spider": "usps_collection_boxes", "addr:city": "MYSTIC", "addr:country": "US", "addr:full": "86 DENISON AVE", "addr:postcode": "06355", "addr:state": "CT", "brand": "USPS", "brand:wikidata": "Q668687", "collection_times": "Mo-Fr 12:45", "name": "USPS COLLECTION BOX - BLUE BOX", "note": "ON 12/24 AND 12/31, THIS BOX MAY BE COLLECTED AS EARLY AS 12 NOON.", "ref": "0635500024"}, "type": "Feature"}
{"geometry": {"coordinates": [-71.9983152, 41.352864], "type": "Point"}, "id": "hcVwDmaI_1Vt7HIENlE8wsXT1wk=", "properties": {"@spider": "usps_collection_boxes", "addr:city": "MYSTIC", "addr:country": "US", "addr:full": "11 DANIEL BROWN DR", "addr:postcode": "06355", "addr:state": "CT", "brand": "USPS", "brand:wikidata": "Q668687", "collection_times": "Mo-Fr 10:30", "name": "USPS COLLECTION BOX - BLUE BOX", "ref": "0635500025"}, "type": "Feature"}
{"geometry": {"coordinates": [-71.9572024, 41.370639], "type": "Point"}, "id": "g4DkV5u4CTRq8nDWAWI3lTrw5Sg=", "properties": {"@spider": "usps_collection_boxes", "addr:city": "MYSTIC", "addr:country": "US", "addr:full": "14 CLARA DR", "addr:postcode": "06355", "addr:state": "CT", "brand": "USPS", "brand:wikidata": "Q668687", "collection_times": "Mo-Fr 10:00", "name": "USPS COLLECTION BOX - BLUE BOX", "ref": "0635500027"}, "type": "Feature"}
{"geometry": {"coordinates": [-71.9502154, 41.345395], "type": "Point"}, "id": "0Fbj4sfjwBeulpMpShTbBSWEMis=", "properties": {"@spider": "usps_collection_boxes", "addr:city": "MYSTIC", "addr:country": "US", "addr:full": "79 STONINGTON RD", "addr:postcode": "06355", "addr:state": "CT", "brand": "USPS", "brand:wikidata": "Q668687", "collection_times": "Mo-Sa 11:00", "name": "USPS COLLECTION BOX - BLUE BOX", "ref": "0635500028"}, "type": "Feature"}
{"geometry": {"coordinates": [-71.9540381, 41.373229], "type": "Point"}, "id": "szTf_7TehyUv84J4X1XoUfboKw4=", "properties": {"@spider": "usps_collection_boxes", "addr:city": "MYSTIC", "addr:country": "US", "addr:full": "55 COOGAN BLVD", "addr:postcode": "06355", "addr:state": "CT", "brand": "USPS", "brand:wikidata": "Q668687", "collection_times": "Mo-Sa 11:00", "name": "USPS COLLECTION BOX - BLUE BOX", "ref": "0635500031"}, "type": "Feature"}
{"geometry": {"coordinates": [-71.966537, 41.35418], "type": "Point"}, "id": "H0cCQTc9TBxmksBu38CAwueM9N4=", "properties": {"@spider": "usps_collection_boxes", "addr:city": "MYSTIC", "addr:country": "US", "addr:full": "23 E MAIN ST", "addr:postcode": "06355", "addr:state": "CT", "brand": "USPS", "brand:wikidata": "Q668687", "collection_times": "Mo-Fr 17:00; Sa 14:00", "name": "USPS COLLECTION BOX - PO LOBBY", "note": "ON 12/24 AND 12/31, THIS BOX MAY BE COLLECTED AS EARLY AS 12 NOON.", "ref": "0635500032"}, "type": "Feature"}
{"geometry": {"coordinates": [-71.9637008, 41.352868], "type": "Point"}, "id": "2I32ZPhF0jMxAzLw4Y1jAZ_r5qI=", "properties": {"@spider": "usps_collection_boxes", "addr:city": "MYSTIC", "addr:country": "US", "addr:full": "25 BROADWAY AVE", "addr:postcode": "06355", "addr:state": "CT", "brand": "USPS", "brand:wikidata": "Q668687", "collection_times": "Mo-Fr 14:00; Sa 12:30", "name": "USPS COLLECTION BOX - BLUE BOX", "note": "ON 12/24 AND 12/31, THIS BOX MAY BE COLLECTED AS EARLY AS 12 NOON.", "ref": "0635500034"}, "type": "Feature"}
{"geometry": {"coordinates": [-71.957263, 41.348983], "type": "Point"}, "id": "CdvoLX0VzjAZxg3EiNTbH2rrlKg=", "properties": {"@spider": "usps_collection_boxes", "addr:city": "MYSTIC", "addr:country": "US", "addr:full": "45 WILLIAMS ST", "addr:postcode": "06355", "addr:state": "CT", "brand": "USPS", "brand:wikidata": "Q668687", "collection_times": "Mo-Fr 11:00; Sa 12:00", "name": "USPS COLLECTION BOX - BLUE BOX", "ref": "0635500035"}, "type": "Feature"}
{"geometry": {"coordinates": [-71.966156888, 41.3545410426], "type": "Point"}, "id": "KTajdTAWivWRhfDS6jbs1vk307c=", "properties": {"@spider": "usps_collection_boxes", "addr:city": "MYSTIC", "addr:country": "US", "addr:full": "26 WILLOW ST", "addr:postcode": "06355", "addr:state": "CT", "brand": "USPS", "brand:wikidata": "Q668687", "collection_times": "Mo-Fr 17:00; Sa 14:15", "name": "USPS COLLECTION BOX - BLUE BOX", "note": "ON 12/24 AND 12/31, THIS BOX MAY BE COLLECTED AS EARLY AS 12 NOON.", "ref": "0635500037"}, "type": "Feature"}
{"geometry": {"coordinates": [-71.96658911, 41.354229707], "type": "Point"}, "id": "Yf9DsyvKoutmBwF3fbRvYWrqKa8=", "properties": {"@spider": "usps_collection_boxes", "addr:city": "MYSTIC", "addr:country": "US", "addr:full": "23 E MAIN ST", "addr:postcode": "06355", "addr:state": "CT", "brand": "USPS", "brand:wikidata": "Q668687", "collection_times": "Mo-Sa 17:15", "name": "USPS COLLECTION BOX - PO LOBBY", "note": "ON 12/24 AND 12/31, THIS BOX MAY BE COLLECTED AS EARLY AS 12 NOON.", "ref": "0635500039"}, "type": "Feature"}
{"geometry": {"coordinates": [-72.193921, 41.32592], "type": "Point"}, "id": "MD0__J9VODc5xb2rbYjXHIMkfS0=", "properties": {"@spider": "usps_collection_boxes", "addr:city": "NIANTIC", "addr:country": "US", "addr:full": "58 PENNSYLVANIA AVE", "addr:postcode": "06357", "addr:state": "CT", "brand": "USPS", "brand:wikidata": "Q668687", "collection_times": "Mo-Fr 17:00; Sa 11:00", "name": "USPS COLLECTION BOX - BLUE BOX", "note": "ON 12/24 AND 12/31, THIS BOX MAY BE COLLECTED AS EARLY AS 12 NOON.", "ref": "0635700001"}, "type": "Feature"}
{"geometry": {"coordinates": [-72.2106395, 41.349648], "type": "Point"}, "id": "xYHY6ANmePch3vnPw5puzbxzqVg=", "properties": {"@spider": "usps_collection_boxes", "addr:city": "NIANTIC", "addr:country": "US", "addr:full": "170 FLANDERS RD", "addr:postcode": "06357", "addr:state": "CT", "brand": "USPS", "brand:wikidata": "Q668687", "collection_times": "Mo-Fr 10:15; Sa 10:45", "name": "USPS COLLECTION BOX - BLUE BOX", "ref": "0635700004"}, "type": "Feature"}
{"geometry": {"coordinates": [-72.216219, 41.348754], "type": "Point"}, "id": "qLrwx60YUgENGjrJyHJC8bSBFXo=", "properties": {"@spider": "usps_collection_boxes", "addr:city": "NIANTIC", "addr:country": "US", "addr:full": "39 SOCIETY RD", "addr:postcode": "06357", "addr:state": "CT", "brand": "USPS", "brand:wikidata": "Q668687", "collection_times": "Mo-Fr 10:30; Sa 10:45", "name": "USPS COLLECTION BOX - BLUE BOX", "ref": "0635700005"}, "type": "Feature"}
{"geometry": {"coordinates": [-72.1920983, 41.324637], "type": "Point"}, "id": "XaXVLKafVCrUDROw2t4ylfpUIrU=", "properties": {"@spider": "usps_collection_boxes", "addr:city": "NIANTIC", "addr:country": "US", "addr:full": "2 GRAND ST", "addr:postcode": "06357", "addr:state": "CT", "brand": "USPS", "brand:wikidata": "Q668687", "collection_times": "Mo-Fr 11:00; Sa 11:15", "name": "USPS COLLECTION BOX - BLUE BOX", "ref": "0635700008"}, "type": "Feature"}
{"geometry": {"coordinates": [-72.1927427, 41.323507], "type": "Point"}, "id": "3pR4MDsTlyae9LC94-Au41JviwI=", "properties": {"@spider": "usps_collection_boxes", "addr:city": "NIANTIC", "addr:country": "US", "addr:full": "243 MAIN ST", "addr:postcode": "06357", "addr:state": "CT", "brand": "USPS", "brand:wikidata": "Q668687", "collection_times": "Mo-Fr 11:00; Sa 11:15", "name": "USPS COLLECTION BOX - BLUE BOX", "ref": "0635700009"}, "type": "Feature"}
{"geometry": {"coordinates": [-72.2029515, 41.36036], "type": "Point"}, "id": "obkYOiXfZ54GfTCWpQYUp_fTfxc=", "properties": {"@spider": "usps_collection_boxes", "addr:city": "NIANTIC", "addr:country": "US", "addr:full": "10 KING ARTHUR DR", "addr:postcode": "06357", "addr:state": "CT", "brand": "USPS", "brand:wikidata": "Q668687", "collection_times": "Mo-Fr 10:00; Sa 11:15", "name": "USPS COLLECTION BOX - BLUE BOX", "ref": "0635700012"}, "type": "Feature"}
{"geometry": {"coordinates": [-72.2387499, 41.318111], "type": "Point"}, "id": "qs7jmCRAVUSDlER9wsjOSTkuT4Q=", "properties": {"@spider": "usps_collection_boxes", "addr:city": "NIANTIC", "addr:country": "US", "addr:full": "229 W MAIN ST", "addr:postcode": "06357", "addr:state": "CT", "brand": "USPS", "brand:wikidata": "Q668687", "collection_times": "Mo-Fr 10:30; Sa 11:15", "name": "USPS COLLECTION BOX - BLUE BOX", "ref": "0635700015"}, "type": "Feature"}
{"geometry": {"coordinates": [-72.193921, 41.32592], "type": "Point"}, "id": "pVXyU8jgo2NI7L7DlbugDDUDFJQ=", "properties": {"@spider": "usps_collection_boxes", "addr:city": "NIANTIC", "addr:country": "US", "addr:full": "58 PENNSYLVANIA AVE", "addr:postcode": "06357", "addr:state": "CT", "brand": "USPS", "brand:wikidata": "Q668687", "collection_times": "Mo-Fr 17:00; Sa 11:00", "name": "USPS COLLECTION BOX - BLUE BOX", "note": "ON 12/24 AND 12/31, THIS BOX MAY BE COLLECTED AS EARLY AS 12 NOON.", "ref": "0635700016"}, "type": "Feature"}
{"geometry": {"coordinates": [-72.193921, 41.32592], "type": "Point"}, "id": "ZdHuc-ve7vhZMnZWqpBEgTWPnig=", "properties": {"@spider": "usps_collection_boxes", "addr:city": "NIANTIC", "addr:country": "US", "addr:full": "58 PENNSYLVANIA AVE", "addr:postcode": "06357", "addr:state": "CT", "brand": "USPS", "brand:wikidata": "Q668687", "collection_times": "Mo-Fr 17:00; Sa 12:30", "name": "USPS COLLECTION BOX - PO LOBBY", "note": "ON 12/24 AND 12/31, THIS BOX MAY BE COLLECTED AS EARLY AS 12 NOON.", "ref": "0635700017"}, "type": "Feature"}
{"geometry": {"coordinates": [-72.193243144, 41.326096402], "type": "Point"}, "id": "rHt1wSEbpv33nAW-fdoS1r9BcdY=", "properties": {"@spider": "usps_collection_boxes", "addr:city": "NIANTIC", "addr:country": "US", "addr:full": "58 PENNSYLVANIA AVE STE 2", "addr:postcode": "06357", "addr:state": "CT", "brand": "USPS", "brand:wikidata": "Q668687", "collection_times": "Mo-Fr 16:30; Sa 12:00", "name": "USPS COLLECTION BOX - PO LOBBY", "note": "ON 12/24 AND 12/31, THIS BOX MAY BE COLLECTED AS EARLY AS 12 NOON.", "ref": "0635700021"}, "type": "Feature"}
{"geometry": {"coordinates": [-71.896805, 41.448251], "type": "Point"}, "id": "wAFZQiDu4Uq1LYlpNOE0oyhp0nQ=", "properties": {"@spider": "usps_collection_boxes", "addr:city": "NO STONINGTON", "addr:country": "US", "addr:full": "391 NORWICH-WESTERLY", "addr:postcode": "06359", "addr:state": "CT", "brand": "USPS", "brand:wikidata": "Q668687", "collection_times": "Mo-Fr 16:00; Sa 12:00", "name": "USPS COLLECTION BOX - BLUE BOX", "note": "ON 12/24 AND 12/31, THIS BOX MAY BE COLLECTED AS EARLY AS 12 NOON.", "ref": "0635900001"}, "type": "Feature"}
{"geometry": {"coordinates": [-71.8812019, 41.440864], "type": "Point"}, "id": "VYLO3zVm2PBLdR0MqfXS7JIpr-o=", "properties": {"@spider": "usps_collection_boxes", "addr:city": "NO STONINGTON", "addr:country": "US", "addr:full": "40 MAIN ST", "addr:postcode": "06359", "addr:state": "CT", "brand": "USPS", "brand:wikidata": "Q668687", "collection_times": "Mo-Sa 10:00", "name": "USPS COLLECTION BOX - BLUE BOX", "ref": "0635900003"}, "type": "Feature"}
{"geometry": {"coordinates": [-71.896805, 41.448251], "type": "Point"}, "id": "Bt5o-0xt3C2BzEe0UF7txvzP0Bc=", "properties": {"@spider": "usps_collection_boxes", "addr:city": "NO STONINGTON", "addr:country": "US", "addr:full": "391 NORWICH-WESTERLY RD", "addr:postcode": "06359", "addr:state": "CT", "brand": "USPS", "brand:wikidata": "Q668687", "collection_times": "Mo-Fr 16:00; Sa 12:00", "name": "USPS COLLECTION BOX - PO LOBBY", "note": "ON 12/24 AND 12/31, THIS BOX MAY BE COLLECTED AS EARLY AS 12 NOON.", "ref": "0635900004"}, "type": "Feature"}
{"geometry": {"coordinates": [-71.904869543, 41.453248108], "type": "Point"}, "id": "Xbik0t1y9HO8gzmXW5LK6jtxL-E=", "properties": {"@spider": "usps_collection_boxes", "addr:city": "NO STONINGTON", "addr:country": "US", "addr:full": "391 NORWICH WESTERLY RD", "addr:postcode": "06359", "addr:state": "CT", "brand": "USPS", "brand:wikidata": "Q668687", "collection_times": "Mo-Fr 16:00; Sa 11:30", "name": "USPS COLLECTION BOX - PO LOBBY", "note": "ON 12/24 AND 12/31, THIS BOX MAY BE COLLECTED AS EARLY AS 12 NOON.", "ref": "0635900007"}, "type": "Feature"}
{"geometry": {"coordinates": [-72.0711771, 41.52425], "type": "Point"}, "id": "SeOb_c3Srp7Zs7eQ1QeTP4NbyAc=", "properties": {"@spider": "usps_collection_boxes", "addr:city": "NORWICH", "addr:country": "US", "addr:full": "340 MAIN ST", "addr:postcode": "06360", "addr:state": "CT", "brand": "USPS", "brand:wikidata": "Q668687", "collection_times": "Mo-Fr 17:00; Sa 13:00", "name": "USPS COLLECTION BOX - BLUE BOX", "note": "ON 12/24 AND 12/31, THIS BOX MAY BE COLLECTED AS EARLY AS 12 NOON.", "ref": "0636000002"}, "type": "Feature"}
{"geometry": {"coordinates": [-72.0711899, 41.524228], "type": "Point"}, "id": "iPJKRNtfU7l8towEoy0z5imPPwU=", "properties": {"@spider": "usps_collection_boxes", "addr:city": "NORWICH", "addr:country": "US", "addr:full": "340 MAIN ST", "addr:postcode": "06360", "addr:state": "CT", "brand": "USPS", "brand:wikidata": "Q668687", "collection_times": "Mo-Fr 17:00; Sa 13:00", "name": "USPS COLLECTION BOX - EXPRESS", "note": "ON 12/24 AND 12/31, THIS BOX MAY BE COLLECTED AS EARLY AS 12 NOON.", "ref": "0636000003"}, "type": "Feature"}
{"geometry": {"coordinates": [-72.0732528, 41.524505], "type": "Point"}, "id": "v8TtBPWBGJGoSNgg9XD3aT6Fpp8=", "properties": {"@spider": "usps_collection_boxes", "addr:city": "NORWICH", "addr:country": "US", "addr:full": "300 MAIN ST", "addr:postcode": "06360", "addr:state": "CT", "brand": "USPS", "brand:wikidata": "Q668687", "collection_times": "Mo-Fr 10:30", "name": "USPS COLLECTION BOX - BLUE BOX", "ref": "0636000008"}, "type": "Feature"}
{"geometry": {"coordinates": [-72.0741421, 41.525887], "type": "Point"}, "id": "mtXdGFodZA4tGiV_AuxXnRThTGQ=", "properties": {"@spider": "usps_collection_boxes", "addr:city": "NORWICH", "addr:country": "US", "addr:full": "66 FRANKLIN ST", "addr:postcode": "06360", "addr:state": "CT", "brand": "USPS", "brand:wikidata": "Q668687", "collection_times": "Mo-Fr 09:30", "name": "USPS COLLECTION BOX - BLUE BOX", "ref": "0636000009"}, "type": "Feature"}
{"geometry": {"coordinates": [-72.0781054, 41.52342], "type": "Point"}, "id": "9wMGAchVwjncHe2IJDhw94mxzoY=", "properties": {"@spider": "usps_collection_boxes", "addr:city": "NORWICH", "addr:country": "US", "addr:full": "1 THAMES PLZ", "addr:postcode": "06360", "addr:state": "CT", "brand": "USPS", "brand:wikidata": "Q668687", "collection_times": "Mo-Sa 09:30", "name": "USPS COLLECTION BOX - BLUE BOX", "ref": "0636000012"}, "type": "Feature"}
{"geometry": {"coordinates": [-72.0807699, 41.521005], "type": "Point"}, "id": "egfP3BdsfyAQKMFblk0GOwq1da4=", "properties": {"@spider": "usps_collection_boxes", "addr:city": "NORWICH", "addr:country": "US", "addr:full": "70 THAMES ST", "addr:postcode": "06360", "addr:state": "CT", "brand": "USPS", "brand:wikidata": "Q668687", "collection_times": "Mo-Sa 09:30", "name": "USPS COLLECTION BOX - BLUE BOX", "ref": "0636000017"}, "type": "Feature"}
{"geometry": {"coordinates": [-72.0787072, 41.524405], "type": "Point"}, "id": "INmZJGUOcZc58dPXUcfF-07RbrA=", "properties": {"@spider": "usps_collection_boxes", "addr:city": "NORWICH", "addr:country": "US", "addr:full": "40 MAIN ST", "addr:postcode": "06360", "addr:state": "CT", "brand": "USPS", "brand:wikidata": "Q668687", "collection_times": "Mo-Fr 13:00", "name": "USPS COLLECTION BOX - BLUE BOX", "note": "ON 12/24 AND 12/31, THIS BOX MAY BE COLLECTED AS EARLY AS 12 NOON.", "ref": "0636000019"}, "type": "Feature"}
{"geometry": {"coordinates": [-72.0940283, 41.520551], "type": "Point"}, "id": "JW7mtYeds-BcqN9GBsBlNVaZRs8=", "properties": {"@spider": "usps_collection_boxes", "addr:city": "NORWICH", "addr:country": "US", "addr:full": "425 W MAIN ST", "addr:postcode": "06360", "addr:state": "CT", "brand": "USPS", "brand:wikidata": "Q668687", "collection_times": "Mo-Sa 10:30", "name": "USPS COLLECTION BOX - BLUE BOX", "ref": "0636000021"}, "type": "Feature"}
{"geometry": {"coordinates": [-72.103574, 41.514828], "type": "Point"}, "id": "ZQzI_aT-SwAhF56vblNemNf3dxg=", "properties": {"@spider": "usps_collection_boxes", "addr:city": "NORWICH", "addr:country": "US", "addr:full": "680 W MAIN ST", "addr:postcode": "06360", "addr:state": "CT", "brand": "USPS", "brand:wikidata": "Q668687", "collection_times": "Mo-Sa 09:15", "name": "USPS COLLECTION BOX - BLUE BOX", "ref": "0636000022"}, "type": "Feature"}
{"geometry": {"coordinates": [-72.1013682, 41.515005], "type": "Point"}, "id": "wAyDCgl0pS9kce9w3lj8XYFhKxU=", "properties": {"@spider": "usps_collection_boxes", "addr:city": "NORWICH", "addr:country": "US", "addr:full": "624 W MAIN ST", "addr:postcode": "06360", "addr:state": "CT", "brand": "USPS", "brand:wikidata": "Q668687", "collection_times": "Mo-Sa 10:15", "name": "USPS COLLECTION BOX - BLUE BOX", "ref": "0636000023"}, "type": "Feature"}
{"geometry": {"coordinates": [-72.0997427, 41.516177], "type": "Point"}, "id": "EbtGZEDMXrseXt-yuAGhmn3KE8M=", "properties": {"@spider": "usps_collection_boxes", "addr:city": "NORWICH", "addr:country": "US", "addr:full": "590 W MAIN ST", "addr:postcode": "06360", "addr:state": "CT", "brand": "USPS", "brand:wikidata": "Q668687", "collection_times": "Mo-Sa 09:15", "name": "USPS COLLECTION BOX - BLUE BOX", "ref": "0636000024"}, "type": "Feature"}
{"geometry": {"coordinates": [-72.074044, 41.524543], "type": "Point"}, "id": "JZMpRwkyd_GpKYPFevBTiwM59es=", "properties": {"@spider": "usps_collection_boxes", "addr:city": "NORWICH", "addr:country": "US", "addr:full": "257 MAIN ST", "addr:postcode": "06360", "addr:state": "CT", "brand": "USPS", "brand:wikidata": "Q668687", "collection_times": "Mo-Sa 10:30", "name": "USPS COLLECTION BOX - BLUE BOX", "ref": "0636000026"}, "type": "Feature"}
{"geometry": {"coordinates": [-72.090151, 41.505038], "type": "Point"}, "id": "vQoKomq_85RbtcoFaJCUzG_U2Bg=", "properties": {"@spider": "usps_collection_boxes", "addr:city": "NORWICH", "addr:country": "US", "addr:full": "401 W THAMES ST", "addr:postcode": "06360", "addr:state": "CT", "brand": "USPS", "brand:wikidata": "Q668687", "collection_times": "Mo-Fr 10:00", "name": "USPS COLLECTION BOX - BLUE BOX", "ref": "0636000028"}, "type": "Feature"}
{"geometry": {"coordinates": [-72.0517600291, 41.5524929862], "type": "Point"}, "id": "kmCirnCMf9tkGoRjxccASOvHtyQ=", "properties": {"@spider": "usps_collection_boxes", "addr:city": "NORWICH", "addr:country": "US", "addr:full": "51 NORWICH AVE", "addr:postcode": "06360", "addr:state": "CT", "brand": "USPS", "brand:wikidata": "Q668687", "collection_times": "Mo-Sa 11:00", "name": "USPS COLLECTION BOX - BLUE BOX", "ref": "0636000029"}, "type": "Feature"}
{"geometry": {"coordinates": [-72.0465191, 41.531532], "type": "Point"}, "id": "7IBb06g4XtDwXgjvEOn-9YKDM0Y=", "properties": {"@spider": "usps_collection_boxes", "addr:city": "NORWICH", "addr:country": "US", "addr:full": "469 HAMILTON AVE", "addr:postcode": "06360", "addr:state": "CT", "brand": "USPS", "brand:wikidata": "Q668687", "collection_times": "Mo-Sa 10:15", "name": "USPS COLLECTION BOX - BLUE BOX", "ref": "0636000030"}, "type": "Feature"}
{"geometry": {"coordinates": [-72.0680384, 41.523609], "type": "Point"}, "id": "4hx1AMlzCPgDoKzstyJ7TrONJ_Q=", "properties": {"@spider": "usps_collection_boxes", "addr:city": "NORWICH", "addr:country": "US", "addr:full": "410 E MAIN ST", "addr:postcode": "06360", "addr:state": "CT", "brand": "USPS", "brand:wikidata": "Q668687", "collection_times": "Mo-Fr 14:30", "name": "USPS COLLECTION BOX - BLUE BOX", "note": "ON 12/24 AND 12/31, THIS BOX MAY BE COLLECTED AS EARLY AS 12 NOON.", "ref": "0636000031"}, "type": "Feature"}
{"geometry": {"coordinates": [-72.0962899, 41.541206], "type": "Point"}, "id": "9WK7OnCeX4HK5GJUsigPOwbFOEw=", "properties": {"@spider": "usps_collection_boxes", "addr:city": "NORWICH", "addr:country": "US", "addr:full": "108 NEW LONDON TPKE", "addr:postcode": "06360", "addr:state": "CT", "brand": "USPS", "brand:wikidata": "Q668687", "collection_times": "Mo-Fr 10:15", "name": "USPS COLLECTION BOX - BLUE BOX", "ref": "0636000032"}, "type": "Feature"}
{"geometry": {"coordinates": [-72.1112338, 41.512401], "type": "Point"}, "id": "yRYbU87i3NYuLrRKch3ttQfeq74=", "properties": {"@spider": "usps_collection_boxes", "addr:city": "NORWICH", "addr:country": "US", "addr:full": "77 SALEM TPKE", "addr:postcode": "06360", "addr:state": "CT", "brand": "USPS", "brand:wikidata": "Q668687", "collection_times": "Mo-Fr 14:30; Sa 13:15", "name": "USPS COLLECTION BOX - BLUE BOX", "note": "ON 12/24 AND 12/31, THIS BOX MAY BE COLLECTED AS EARLY AS 12 NOON.", "ref": "0636000035"}, "type": "Feature"}
{"geometry": {"coordinates": [-72.1099188, 41.556925], "type": "Point"}, "id": "eaEP8UV5T5ayr8mJ10TTp2q6pHc=", "properties": {"@spider": "usps_collection_boxes", "addr:city": "NORWICH", "addr:country": "US", "addr:full": "220 W TOWN ST", "addr:postcode": "06360", "addr:state": "CT", "brand": "USPS", "brand:wikidata": "Q668687", "collection_times": "Mo-Fr 13:30; Sa 12:30", "name": "USPS COLLECTION BOX - BLUE BOX", "note": "ON 12/24 AND 12/31, THIS BOX MAY BE COLLECTED AS EARLY AS 12 NOON.", "ref": "0636000037"}, "type": "Feature"}
{"geometry": {"coordinates": [-72.1033738, 41.553626], "type": "Point"}, "id": "Jrj1DUF6ysrj54HwrMEzO28p8Kc=", "properties": {"@spider": "usps_collection_boxes", "addr:city": "NORWICH", "addr:country": "US", "addr:full": "12 CASE ST", "addr:postcode": "06360", "addr:state": "CT", "brand": "USPS", "brand:wikidata": "Q668687", "collection_times": "Mo-Sa 11:45", "name": "USPS COLLECTION BOX - BLUE BOX", "ref": "0636000038"}, "type": "Feature"}
{"geometry": {"coordinates": [-72.1033395, 41.551874], "type": "Point"}, "id": "8hUiv1VD6q8Fvp2CtAHXzIYt3Js=", "properties": {"@spider": "usps_collection_boxes", "addr:city": "NORWICH", "addr:country": "US", "addr:full": "106 W TOWN ST", "addr:postcode": "06360", "addr:state": "CT", "brand": "USPS", "brand:wikidata": "Q668687", "collection_times": "Mo-Fr 14:30; Sa 12:30", "name": "USPS COLLECTION BOX - BLUE BOX", "note": "ON 12/24 AND 12/31, THIS BOX MAY BE COLLECTED AS EARLY AS 12 NOON.", "ref": "0636000040"}, "type": "Feature"}
{"geometry": {"coordinates": [-72.0913849, 41.54744], "type": "Point"}, "id": "fFEsTaFIwk_Zzp2mmxzd38qLJc4=", "properties": {"@spider": "usps_collection_boxes", "addr:city": "NORWICH", "addr:country": "US", "addr:full": "47 TOWN ST", "addr:postcode": "06360", "addr:state": "CT", "brand": "USPS", "brand:wikidata": "Q668687", "collection_times": "Mo-Sa 10:00", "name": "USPS COLLECTION BOX - BLUE BOX", "ref": "0636000041"}, "type": "Feature"}
{"geometry": {"coordinates": [-72.0921372, 41.545493], "type": "Point"}, "id": "P7QbpX2d-ShvJtb6Cbz8xUo9ARY=", "properties": {"@spider": "usps_collection_boxes", "addr:city": "NORWICH", "addr:country": "US", "addr:full": "42 TOWN ST", "addr:postcode": "06360", "addr:state": "CT", "brand": "USPS", "brand:wikidata": "Q668687", "collection_times": "Mo-Sa 10:00", "name": "USPS COLLECTION BOX - BLUE BOX", "ref": "0636000042"}, "type": "Feature"}
{"geometry": {"coordinates": [-72.0875803, 41.542527], "type": "Point"}, "id": "TMVSUDTi4DeUoa0o0TQ-8QOOIic=", "properties": {"@spider": "usps_collection_boxes", "addr:city": "NORWICH", "addr:country": "US", "addr:full": "326 WASHINGTON ST", "addr:postcode": "06360", "addr:state": "CT", "brand": "USPS", "brand:wikidata": "Q668687", "collection_times": "Mo-Sa 10:30", "name": "USPS COLLECTION BOX - BLUE BOX", "ref": "0636000044"}, "type": "Feature"}
{"geometry": {"coordinates": [-72.0902331, 41.535922], "type": "Point"}, "id": "xYe80ibdVyP0UXpS5L37TVmKzpo=", "properties": {"@spider": "usps_collection_boxes", "addr:city": "NORWICH", "addr:country": "US", "addr:full": "151 SACHEM ST", "addr:postcode": "06360", "addr:state": "CT", "brand": "USPS", "brand:wikidata": "Q668687", "collection_times": "Mo-Sa 11:00", "name": "USPS COLLECTION BOX - BLUE BOX", "ref": "0636000047"}, "type": "Feature"}
{"geometry": {"coordinates": [-72.0780717, 41.535061], "type": "Point"}, "id": "AorcQ09AtkwYfNXbH21V6y3nV80=", "properties": {"@spider": "usps_collection_boxes", "addr:city": "NORWICH", "addr:country": "US", "addr:full": "165 MCKINLEY AVE", "addr:postcode": "06360", "addr:state": "CT", "brand": "USPS", "brand:wikidata": "Q668687", "collection_times": "Mo-Fr 11:00", "name": "USPS COLLECTION BOX - BLUE BOX", "ref": "0636000049"}, "type": "Feature"}
{"geometry": {"coordinates": [-72.0765594, 41.529641], "type": "Point"}, "id": "WTlpdCyLEtq2CfOVY2ijUq9LVOs=", "properties": {"@spider": "usps_collection_boxes", "addr:city": "NORWICH", "addr:country": "US", "addr:full": "182 BROADWAY", "addr:postcode": "06360", "addr:state": "CT", "brand": "USPS", "brand:wikidata": "Q668687", "collection_times": "Mo-Sa 11:15", "name": "USPS COLLECTION BOX - BLUE BOX", "ref": "0636000051"}, "type": "Feature"}
{"geometry": {"coordinates": [-72.0662919, 41.532719], "type": "Point"}, "id": "yA_XHQlk31_1KCUL1EkXaGoUZ7k=", "properties": {"@spider": "usps_collection_boxes", "addr:city": "NORWICH", "addr:country": "US", "addr:full": "204 BOSWELL AVE", "addr:postcode": "06360", "addr:state": "CT", "brand": "USPS", "brand:wikidata": "Q668687", "collection_times": "Mo-Sa 11:00", "name": "USPS COLLECTION BOX - BLUE BOX", "ref": "0636000053"}, "type": "Feature"}
{"geometry": {"coordinates": [-72.0757458, 41.526387], "type": "Point"}, "id": "rQiEErOVPCEia2m4-whZ5rZYdr0=", "properties": {"@spider": "usps_collection_boxes", "addr:city": "NORWICH", "addr:country": "US", "addr:full": "100 BROADWAY", "addr:postcode": "06360", "addr:state": "CT", "brand": "USPS", "brand:wikidata": "Q668687", "collection_times": "Mo-Fr 15:00", "name": "USPS COLLECTION BOX - BLUE BOX", "note": "ON 12/24 AND 12/31, THIS BOX MAY BE COLLECTED AS EARLY AS 12 NOON.", "ref": "0636000055"}, "type": "Feature"}
{"geometry": {"coordinates": [-72.0908906, 41.550624], "type": "Point"}, "id": "Cvb-YT-IgP99vR6rNTYzG4KHF_k=", "properties": {"@spider": "usps_collection_boxes", "addr:city": "NORWICH", "addr:country": "US", "addr:full": "23 E TOWN ST", "addr:postcode": "06360", "addr:state": "CT", "brand": "USPS", "brand:wikidata": "Q668687", "collection_times": "Mo-Sa 12:00", "name": "USPS COLLECTION BOX - BLUE BOX", "ref": "0636000057"}, "type": "Feature"}
{"geometry": {"coordinates": [-72.0934184, 41.514759], "type": "Point"}, "id": "b-9vMVhbKlqkfQONrr3xTGLoCR8=", "properties": {"@spider": "usps_collection_boxes", "addr:city": "NORWICH", "addr:country": "US", "addr:full": "195 DUNHAM ST", "addr:postcode": "06360", "addr:state": "CT", "brand": "USPS", "brand:wikidata": "Q668687", "collection_times": "Mo-Fr 09:30", "name": "USPS COLLECTION BOX - BLUE BOX", "ref": "0636000058"}, "type": "Feature"}
{"geometry": {"coordinates": [-72.0753428, 41.509253], "type": "Point"}, "id": "5_K5w-w5gskmYY-9iP7BmBUn2wc=", "properties": {"@spider": "usps_collection_boxes", "addr:city": "NORWICH", "addr:country": "US", "addr:full": "412 LAUREL HILL AVE", "addr:postcode": "06360", "addr:state": "CT", "brand": "USPS", "brand:wikidata": "Q668687", "collection_times": "Mo-Sa 10:00", "name": "USPS COLLECTION BOX - BLUE BOX", "ref": "0636000065"}, "type": "Feature"}
{"geometry": {"coordinates": [-72.0631754, 41.528074], "type": "Point"}, "id": "kGew_zX5Cqq2DkdWHBXnbQkfsR8=", "properties": {"@spider": "usps_collection_boxes", "addr:city": "NORWICH", "addr:country": "US", "addr:full": "192 N MAIN ST", "addr:postcode": "06360", "addr:state": "CT", "brand": "USPS", "brand:wikidata": "Q668687", "collection_times": "Mo-Fr 10:30", "name": "USPS COLLECTION BOX - BLUE BOX", "ref": "0636000067"}, "type": "Feature"}
{"geometry": {"coordinates": [-72.1049992, 41.510757], "type": "Point"}, "id": "kmg-8nKKW6pvlOXt3nGP1aVjENM=", "properties": {"@spider": "usps_collection_boxes", "addr:city": "NORWICH", "addr:country": "US", "addr:full": "3 SYCAMORE RD", "addr:postcode": "06360", "addr:state": "CT", "brand": "USPS", "brand:wikidata": "Q668687", "collection_times": "Mo-Fr 09:15", "name": "USPS COLLECTION BOX - BLUE BOX", "ref": "0636000071"}, "type": "Feature"}
{"geometry": {"coordinates": [-72.0968199671, 41.5011840041], "type": "Point"}, "id": "4WV2RM7PKD1KdcvDRnNMQdGzAFk=", "properties": {"@spider": "usps_collection_boxes", "addr:city": "NORWICH", "addr:country": "US", "addr:full": "607 W THAMES ST", "addr:postcode": "06360", "addr:state": "CT", "brand": "USPS", "brand:wikidata": "Q668687", "collection_times": "Mo-Fr 13:00; Sa 10:15", "name": "USPS COLLECTION BOX - BLUE BOX", "note": "ON 12/24 AND 12/31, THIS BOX MAY BE COLLECTED AS EARLY AS 12 NOON.", "ref": "0636000074"}, "type": "Feature"}
{"geometry": {"coordinates": [-72.0823342, 41.531457], "type": "Point"}, "id": "EcgjFwiUs0PlD5to7s40ork2rkc=", "properties": {"@spider": "usps_collection_boxes", "addr:city": "NORWICH", "addr:country": "US", "addr:full": "151 WASHINGTON ST", "addr:postcode": "06360", "addr:state": "CT", "brand": "USPS", "brand:wikidata": "Q668687", "collection_times": "Mo-Fr 10:30", "name": "USPS COLLECTION BOX - BLUE BOX", "ref": "0636000076"}, "type": "Feature"}
{"geometry": {"coordinates": [-72.0880394, 41.522806], "type": "Point"}, "id": "-ADgrADrut7Liqz4c0-gC8lQiWY=", "properties": {"@spider": "usps_collection_boxes", "addr:city": "NORWICH", "addr:country": "US", "addr:full": "276 W MAIN ST", "addr:postcode": "06360", "addr:state": "CT", "brand": "USPS", "brand:wikidata": "Q668687", "collection_times": "Mo-Sa 09:45", "name": "USPS COLLECTION BOX - BLUE BOX", "ref": "0636000078"}, "type": "Feature"}
{"geometry": {"coordinates": [-72.088519, 41.537935], "type": "Point"}, "id": "mTVtTcOFw-UC6rTJN5FbDcOpQbg=", "properties": {"@spider": "usps_collection_boxes", "addr:city": "NORWICH", "addr:country": "US", "addr:full": "106 WILLIAMS ST", "addr:postcode": "06360", "addr:state": "CT", "brand": "USPS", "brand:wikidata": "Q668687", "collection_times": "Mo-Fr 10:00", "name": "USPS COLLECTION BOX - BLUE BOX", "ref": "0636000081"}, "type": "Feature"}
{"geometry": {"coordinates": [-72.075645017, 41.524139019], "type": "Point"}, "id": "3yjsdoXNAL9Qy2DY2SfuROTLaXc=", "properties": {"@spider": "usps_collection_boxes", "addr:city": "NORWICH", "addr:country": "US", "addr:full": "2 COURTHOUSE SQ", "addr:postcode": "06360", "addr:state": "CT", "brand": "USPS", "brand:wikidata": "Q668687", "collection_times": "Mo-Fr 15:00", "name": "USPS COLLECTION BOX - BLUE BOX", "note": "ON 12/24 AND 12/31, THIS BOX MAY BE COLLECTED AS EARLY AS 12 NOON.", "ref": "0636000088"}, "type": "Feature"}
{"geometry": {"coordinates": [-72.1229895, 41.505416], "type": "Point"}, "id": "LM6DU57pxwBvMW6EgROmiZZPuNI=", "properties": {"@spider": "usps_collection_boxes", "addr:city": "NORWICH", "addr:country": "US", "addr:full": "220B SALEM TPKE", "addr:postcode": "06360", "addr:state": "CT", "brand": "USPS", "brand:wikidata": "Q668687", "collection_times": "Mo-Fr 14:30; Sa 10:00", "name": "USPS COLLECTION BOX - BLUE BOX", "note": "ON 12/24 AND 12/31, THIS BOX MAY BE COLLECTED AS EARLY AS 12 NOON.", "ref": "0636000089"}, "type": "Feature"}
{"geometry": {"coordinates": [-72.0712818, 41.524474], "type": "Point"}, "id": "C7mmI8Xm-dtWz3TqSLuDEwXQcP0=", "properties": {"@spider": "usps_collection_boxes", "addr:city": "NORWICH", "addr:country": "US", "addr:full": "340 MAIN ST", "addr:postcode": "06360", "addr:state": "CT", "brand": "USPS", "brand:wikidata": "Q668687", "collection_times": "Mo-Fr 17:00; Sa 12:30", "name": "USPS COLLECTION BOX - PO LOBBY", "note": "ON 12/24 AND 12/31, THIS BOX MAY BE COLLECTED AS EARLY AS 12 NOON.", "ref": "0636000095"}, "type": "Feature"}
{"geometry": {"coordinates": [-72.1170766, 41.568389], "type": "Point"}, "id": "cu7994nSGv5GmxY_seDd0wUNlf4=", "properties": {"@spider": "usps_collection_boxes", "addr:city": "NORWICH", "addr:country": "US", "addr:full": "8 OXFORD DR", "addr:postcode": "06360", "addr:state": "CT", "brand": "USPS", "brand:wikidata": "Q668687", "collection_times": "Mo-Fr 12:30; Sa 12:00", "name": "USPS COLLECTION BOX - BLUE BOX", "note": "ON 12/24 AND 12/31, THIS BOX MAY BE COLLECTED AS EARLY AS 12 NOON.", "ref": "0636000097"}, "type": "Feature"}
{"geometry": {"coordinates": [-72.1156189, 41.512341], "type": "Point"}, "id": "x68I7RB9p2vSW63dKbh9N6twv9E=", "properties": {"@spider": "usps_collection_boxes", "addr:city": "NORWICH", "addr:country": "US", "addr:full": "117 SALEM TPKE", "addr:postcode": "06360", "addr:state": "CT", "brand": "USPS", "brand:wikidata": "Q668687", "collection_times": "Mo-Fr 14:30; Sa 13:15", "name": "USPS COLLECTION BOX - BLUE BOX", "note": "ON 12/24 AND 12/31, THIS BOX MAY BE COLLECTED AS EARLY AS 12 NOON.", "ref": "0636000101"}, "type": "Feature"}
{"geometry": {"coordinates": [-72.0543461, 41.545381], "type": "Point"}, "id": "CDH72YZ2a0WpFBoCQGLQP7RzqcU=", "properties": {"@spider": "usps_collection_boxes", "addr:city": "NORWICH", "addr:country": "US", "addr:full": "725 BOSWELL AVE", "addr:postcode": "06360", "addr:state": "CT", "brand": "USPS", "brand:wikidata": "Q668687", "collection_times": "Mo-Fr 11:30", "name": "USPS COLLECTION BOX - BLUE BOX", "ref": "0636000105"}, "type": "Feature"}
{"geometry": {"coordinates": [-72.12937001, 41.506143061], "type": "Point"}, "id": "NeFSBF6ghrnHlA9vkFD0fN2-hV0=", "properties": {"@spider": "usps_collection_boxes", "addr:city": "NORWICH", "addr:country": "US", "addr:full": "292 SALEM TPKE", "addr:postcode": "06360", "addr:state": "CT", "brand": "USPS", "brand:wikidata": "Q668687", "collection_times": "Mo-Sa 17:00", "name": "USPS COLLECTION BOX - PO LOBBY", "note": "ON 12/24 AND 12/31, THIS BOX MAY BE COLLECTED AS EARLY AS 12 NOON.", "ref": "0636000108"}, "type": "Feature"}
{"geometry": {"coordinates": [-72.071339611, 41.524219464], "type": "Point"}, "id": "Vi41kGsCMZ2xnqqwRpVd3Tnd3C8=", "properties": {"@spider": "usps_collection_boxes", "addr:city": "NORWICH", "addr:country": "US", "addr:full": "340 MAIN ST", "addr:postcode": "06360", "addr:state": "CT", "brand": "USPS", "brand:wikidata": "Q668687", "collection_times": "Mo-Fr 17:00; Sa 12:30", "name": "USPS COLLECTION BOX - PO LOBBY", "note": "ON 12/24 AND 12/31, THIS BOX MAY BE COLLECTED AS EARLY AS 12 NOON.", "ref": "0636000109"}, "type": "Feature"}
{"geometry": {"coordinates": [-72.158468, 41.465922], "type": "Point"}, "id": "XM8yUFx5o8DS4aBgo1Bxnrm-gFw=", "properties": {"@spider": "usps_collection_boxes", "addr:city": "OAKDALE", "addr:country": "US", "addr:full": "711 OAKDALE RD", "addr:postcode": "06370", "addr:state": "CT", "brand": "USPS", "brand:wikidata": "Q668687", "collection_times": "Mo-Fr 16:30; Sa 12:00", "name": "USPS COLLECTION BOX - BLUE BOX", "note": "ON 12/24 AND 12/31, THIS BOX MAY BE COLLECTED AS EARLY AS 12 NOON.", "ref": "0637000001"}, "type": "Feature"}
{"geometry": {"coordinates": [-72.1906326, 41.475512], "type": "Point"}, "id": "30YFHnpuU9kBjv-BnkBsgAoKdJM=", "properties": {"@spider": "usps_collection_boxes", "addr:city": "OAKDALE", "addr:country": "US", "addr:full": "1226 OLD COLCHESTER RD", "addr:postcode": "06370", "addr:state": "CT", "brand": "USPS", "brand:wikidata": "Q668687", "collection_times": "Mo-Sa 09:30", "name": "USPS COLLECTION BOX - BLUE BOX", "ref": "0637000003"}, "type": "Feature"}
{"geometry": {"coordinates": [-72.158167, 41.466126], "type": "Point"}, "id": "68wCQjBIyDPPeRyRcObC9E578dM=", "properties": {"@spider": "usps_collection_boxes", "addr:city": "OAKDALE", "addr:country": "US", "addr:full": "711 OAKDALE RD", "addr:postcode": "06370", "addr:state": "CT", "brand": "USPS", "brand:wikidata": "Q668687", "collection_times": "Mo-Fr 16:45; Sa 12:00", "name": "USPS COLLECTION BOX - PO LOBBY", "note": "ON 12/24 AND 12/31, THIS BOX MAY BE COLLECTED AS EARLY AS 12 NOON.", "ref": "0637000006"}, "type": "Feature"}
{"geometry": {"coordinates": [-72.1524645224, 41.4794706863], "type": "Point"}, "id": "6X89sXPblIDjXlXsCXgwGLLLg78=", "properties": {"@spider": "usps_collection_boxes", "addr:city": "OAKDALE", "addr:country": "US", "addr:full": "832 RAYMOND HILL RD", "addr:postcode": "06370", "addr:state": "CT", "brand": "USPS", "brand:wikidata": "Q668687", "collection_times": "Mo-Sa 11:00", "name": "USPS COLLECTION BOX - BLUE BOX", "ref": "0637000009"}, "type": "Feature"}
{"geometry": {"coordinates": [-72.158167593, 41.46611789], "type": "Point"}, "id": "IvGBGrWyiYsIx7ZUmjSQymqvHeY=", "properties": {"@spider": "usps_collection_boxes", "addr:city": "OAKDALE", "addr:country": "US", "addr:full": "711 ROUTE 163", "addr:postcode": "06370", "addr:state": "CT", "brand": "USPS", "brand:wikidata": "Q668687", "collection_times": "Mo-Fr 16:30; Sa 11:30", "name": "USPS COLLECTION BOX - PO LOBBY", "note": "ON 12/24 AND 12/31, THIS BOX MAY BE COLLECTED AS EARLY AS 12 NOON.", "ref": "0637000010"}, "type": "Feature"}
{"geometry": {"coordinates": [-72.32858, 41.32391], "type": "Point"}, "id": "4AGPq0lAQ9M57TNiWyND1M0LL4k=", "properties": {"@spider": "usps_collection_boxes", "addr:city": "OLD LYME", "addr:country": "US", "addr:full": "12 HALLS RD", "addr:postcode": "06371", "addr:state": "CT", "brand": "USPS", "brand:wikidata": "Q668687", "collection_times": "Mo-Fr 16:30; Sa 12:30", "name": "USPS COLLECTION BOX - EXPRESS", "note": "ON 12/24 AND 12/31, THIS BOX MAY BE COLLECTED AS EARLY AS 12 NOON.", "ref": "0637100001"}, "type": "Feature"}
{"geometry": {"coordinates": [-72.328504, 41.323943], "type": "Point"}, "id": "zsXv0xYwlGYayhL3EkSqqlmLWI4=", "properties": {"@spider": "usps_collection_boxes", "addr:city": "OLD LYME", "addr:country": "US", "addr:full": "12 HALLS RD", "addr:postcode": "06371", "addr:state": "CT", "brand": "USPS", "brand:wikidata": "Q668687", "collection_times": "Mo-Fr 17:00; Sa 14:30", "name": "USPS COLLECTION BOX - BLUE BOX", "note": "ON 12/24 AND 12/31, THIS BOX MAY BE COLLECTED AS EARLY AS 12 NOON.", "ref": "0637100003"}, "type": "Feature"}
{"geometry": {"coordinates": [-72.328504, 41.323943], "type": "Point"}, "id": "-osPNAqCCFX6DxhPsU3XqiRrAIw=", "properties": {"@spider": "usps_collection_boxes", "addr:city": "OLD LYME", "addr:country": "US", "addr:full": "12 HALLS RD", "addr:postcode": "06371", "addr:state": "CT", "brand": "USPS", "brand:wikidata": "Q668687", "collection_times": "Mo-Fr 17:00; Sa 14:30", "name": "USPS COLLECTION BOX - BLUE BOX", "note": "ON 12/24 AND 12/31, THIS BOX MAY BE COLLECTED AS EARLY AS 12 NOON.", "ref": "0637100005"}, "type": "Feature"}
{"geometry": {"coordinates": [-72.3504157, 41.386022], "type": "Point"}, "id": "T3cObqzkAYJU82qTm04SXGQi8p4=", "properties": {"@spider": "usps_collection_boxes", "addr:city": "OLD LYME", "addr:country": "US", "addr:full": "254 HAMBURG RD", "addr:postcode": "06371", "addr:state": "CT", "brand": "USPS", "brand:wikidata": "Q668687", "collection_times": "Mo-Sa 12:00", "name": "USPS COLLECTION BOX - BLUE BOX", "ref": "0637100007"}, "type": "Feature"}
{"geometry": {"coordinates": [-72.300289, 41.347868], "type": "Point"}, "id": "TAZ5SNfkzTJC2b32WnZZ6LKrzaM=", "properties": {"@spider": "usps_collection_boxes", "addr:city": "OLD LYME", "addr:country": "US", "addr:full": "171 BOSTON POST RD", "addr:postcode": "06371", "addr:state": "CT", "brand": "USPS", "brand:wikidata": "Q668687", "collection_times": "Mo-Sa 12:00", "name": "USPS COLLECTION BOX - BLUE BOX", "ref": "0637100010"}, "type": "Feature"}
{"geometry": {"coordinates": [-72.2867293, 41.289495], "type": "Point"}, "id": "photoU09z-ddrkAuEUyTv9wWf1k=", "properties": {"@spider": "usps_collection_boxes", "addr:city": "OLD LYME", "addr:country": "US", "addr:full": "230 SHORE RD", "addr:postcode": "06371", "addr:state": "CT", "brand": "USPS", "brand:wikidata": "Q668687", "collection_times": "Mo-Sa 11:30", "name": "USPS COLLECTION BOX - BLUE BOX", "ref": "0637100011"}, "type": "Feature"}
{"geometry": {"coordinates": [-72.2781029, 41.346918], "type": "Point"}, "id": "ep-dE4fXDcD5SWd5vUyIX6rAWbM=", "properties": {"@spider": "usps_collection_boxes", "addr:city": "OLD LYME", "addr:country": "US", "addr:full": "1 RYEFIELD RD", "addr:postcode": "06371", "addr:state": "CT", "brand": "USPS", "brand:wikidata": "Q668687", "collection_times": "Mo-Sa 10:00", "name": "USPS COLLECTION BOX - BLUE BOX", "ref": "0637100012"}, "type": "Feature"}
{"geometry": {"coordinates": [-72.328504, 41.323943], "type": "Point"}, "id": "F2xJ1rAsWlRYCizKh2K4yggyDo0=", "properties": {"@spider": "usps_collection_boxes", "addr:city": "OLD LYME", "addr:country": "US", "addr:full": "12 HALLS RD", "addr:postcode": "06371", "addr:state": "CT", "brand": "USPS", "brand:wikidata": "Q668687", "collection_times": "Mo-Fr 17:00; Sa 15:45", "name": "USPS COLLECTION BOX - PO LOBBY", "note": "ON 12/24 AND 12/31, THIS BOX MAY BE COLLECTED AS EARLY AS 12 NOON.", "ref": "0637100013"}, "type": "Feature"}
{"geometry": {"coordinates": [-72.328550954, 41.323852801], "type": "Point"}, "id": "NLz5oMGaQyfRsn-utoQFm2SkHpk=", "properties": {"@spider": "usps_collection_boxes", "addr:city": "OLD LYME", "addr:country": "US", "addr:full": "12 HALLS RD", "addr:postcode": "06371", "addr:state": "CT", "brand": "USPS", "brand:wikidata": "Q668687", "collection_times": "Mo-Fr 17:00; Sa 12:00", "name": "USPS COLLECTION BOX - PO LOBBY", "note": "ON 12/24 AND 12/31, THIS BOX MAY BE COLLECTED AS EARLY AS 12 NOON.", "ref": "0637100016"}, "type": "Feature"}
{"geometry": {"coordinates": [-71.960061907, 41.390311038], "type": "Point"}, "id": "SG1eaosKZEsNruO73PY2KBVpN3k=", "properties": {"@spider": "usps_collection_boxes", "addr:city": "OLD MYSTIC", "addr:country": "US", "addr:full": "47 MAIN ST", "addr:postcode": "06372", "addr:state": "CT", "brand": "USPS", "brand:wikidata": "Q668687", "collection_times": "Mo-Fr 13:15; Sa 12:15", "name": "USPS COLLECTION BOX - BLUE BOX", "note": "ON 12/24 AND 12/31, THIS BOX MAY BE COLLECTED AS EARLY AS 12 NOON.", "ref": "0637200001"}, "type": "Feature"}
{"geometry": {"coordinates": [-71.960061907, 41.390311038], "type": "Point"}, "id": "T8-DuJcjA4_UlXcoHMnZ0Jpxj1c=", "properties": {"@spider": "usps_collection_boxes", "addr:city": "OLD MYSTIC", "addr:country": "US", "addr:full": "47 MAIN ST", "addr:postcode": "06372", "addr:state": "CT", "brand": "USPS", "brand:wikidata": "Q668687", "collection_times": "Mo-Fr 16:30; Sa 12:15", "name": "USPS COLLECTION BOX - PO LOBBY", "note": "ON 12/24 AND 12/31, THIS BOX MAY BE COLLECTED AS EARLY AS 12 NOON.", "ref": "0637200002"}, "type": "Feature"}
{"geometry": {"coordinates": [-71.960061907, 41.390311038], "type": "Point"}, "id": "p85kepPnjmlPz5s45kkXMh9QTDk=", "properties": {"@spider": "usps_collection_boxes", "addr:city": "OLD MYSTIC", "addr:country": "US", "addr:full": "47 MAIN ST", "addr:postcode": "06372", "addr:state": "CT", "brand": "USPS", "brand:wikidata": "Q668687", "collection_times": "Mo-Fr 16:00; Sa 11:30", "name": "USPS COLLECTION BOX - PO LOBBY", "note": "ON 12/24 AND 12/31, THIS BOX MAY BE COLLECTED AS EARLY AS 12 NOON.", "ref": "0637200003"}, "type": "Feature"}
{"geometry": {"coordinates": [-71.813834, 41.692457], "type": "Point"}, "id": "gG9xYAYKSoOj0P3GW8vrcb2gSOs=", "properties": {"@spider": "usps_collection_boxes", "addr:city": "ONECO", "addr:country": "US", "addr:full": "1104 PLAINFIELD PIKE", "addr:postcode": "06373", "addr:state": "CT", "brand": "USPS", "brand:wikidata": "Q668687", "collection_times": "Mo-Fr 16:30; Sa 12:30", "name": "USPS COLLECTION BOX - BLUE BOX", "note": "ON 12/24 AND 12/31, THIS BOX MAY BE COLLECTED AS EARLY AS 12 NOON.", "ref": "0637300001"}, "type": "Feature"}
{"geometry": {"coordinates": [-71.813823, 41.692432], "type": "Point"}, "id": "0LrFmMZ0fQ35H8Q2iImY45ZIWvw=", "properties": {"@spider": "usps_collection_boxes", "addr:city": "ONECO", "addr:country": "US", "addr:full": "1104 PLAINFIELD PIKE", "addr:postcode": "06373", "addr:state": "CT", "brand": "USPS", "brand:wikidata": "Q668687", "collection_times": "Mo-Fr 16:30; Sa 12:30", "name": "USPS COLLECTION BOX - PO LOBBY", "note": "ON 12/24 AND 12/31, THIS BOX MAY BE COLLECTED AS EARLY AS 12 NOON.", "ref": "0637300002"}, "type": "Feature"}
{"geometry": {"coordinates": [-71.813867741, 41.692438874], "type": "Point"}, "id": "mIoeQHGai3Hps3kAcLStB1iqtK4=", "properties": {"@spider": "usps_collection_boxes", "addr:city": "ONECO", "addr:country": "US", "addr:full": "1104 PLAINFIELD PIKE", "addr:postcode": "06373", "addr:state": "CT", "brand": "USPS", "brand:wikidata": "Q668687", "collection_times": "Mo-Fr 17:00; Sa 12:00", "name": "USPS COLLECTION BOX - PO LOBBY", "note": "ON 12/24 AND 12/31, THIS BOX MAY BE COLLECTED AS EARLY AS 12 NOON.", "ref": "0637300006"}, "type": "Feature"}
{"geometry": {"coordinates": [-71.919748, 41.67998], "type": "Point"}, "id": "b6dvHblJD1_jTu-RIGwgnOvCIs0=", "properties": {"@spider": "usps_collection_boxes", "addr:city": "PLAINFIELD", "addr:country": "US", "addr:full": "42 RAILROAD AVE", "addr:postcode": "06374", "addr:state": "CT", "brand": "USPS", "brand:wikidata": "Q668687", "collection_times": "Mo-Fr 17:15; Sa 14:00", "name": "USPS COLLECTION BOX - BLUE BOX", "note": "ON 12/24 AND 12/31, THIS BOX MAY BE COLLECTED AS EARLY AS 12 NOON.", "ref": "0637400001"}, "type": "Feature"}
{"geometry": {"coordinates": [-71.9178547, 41.677781], "type": "Point"}, "id": "9WPdVQ5nvijkvm_zxGrNSNR4TJs=", "properties": {"@spider": "usps_collection_boxes", "addr:city": "PLAINFIELD", "addr:country": "US", "addr:full": "8 COMMUNITY AVE", "addr:postcode": "06374", "addr:state": "CT", "brand": "USPS", "brand:wikidata": "Q668687", "collection_times": "Mo-Fr 15:00; Sa 14:00", "name": "USPS COLLECTION BOX - BLUE BOX", "note": "ON 12/24 AND 12/31, THIS BOX MAY BE COLLECTED AS EARLY AS 12 NOON.", "ref": "0637400002"}, "type": "Feature"}
{"geometry": {"coordinates": [-71.9241299, 41.681571], "type": "Point"}, "id": "CJGJWr0M0vcLtzwTnQ1x8cNIiWc=", "properties": {"@spider": "usps_collection_boxes", "addr:city": "PLAINFIELD", "addr:country": "US", "addr:full": "10 PLEASANT ST", "addr:postcode": "06374", "addr:state": "CT", "brand": "USPS", "brand:wikidata": "Q668687", "collection_times": "Mo-Fr 14:45; Sa 14:00", "name": "USPS COLLECTION BOX - BLUE BOX", "note": "ON 12/24 AND 12/31, THIS BOX MAY BE COLLECTED AS EARLY AS 12 NOON.", "ref": "0637400003"}, "type": "Feature"}
{"geometry": {"coordinates": [-71.9051339, 41.710038], "type": "Point"}, "id": "S4ieVR0ydhvBHj1QsMqm5koaQNI=", "properties": {"@spider": "usps_collection_boxes", "addr:city": "PLAINFIELD", "addr:country": "US", "addr:full": "137 NORWICH RD", "addr:postcode": "06374", "addr:state": "CT", "brand": "USPS", "brand:wikidata": "Q668687", "collection_times": "Mo-Fr 15:00; Sa 14:00", "name": "USPS COLLECTION BOX - BLUE BOX", "note": "ON 12/24 AND 12/31, THIS BOX MAY BE COLLECTED AS EARLY AS 12 NOON.", "ref": "0637400004"}, "type": "Feature"}
{"geometry": {"coordinates": [-71.9220031, 41.678031], "type": "Point"}, "id": "6vZjVjqWhrvmLs0uNGKcST4g4K4=", "properties": {"@spider": "usps_collection_boxes", "addr:city": "PLAINFIELD", "addr:country": "US", "addr:full": "29 2ND ST", "addr:postcode": "06374", "addr:state": "CT", "brand": "USPS", "brand:wikidata": "Q668687", "collection_times": "Mo-Sa 14:00", "name": "USPS COLLECTION BOX - BLUE BOX", "note": "ON 12/24 AND 12/31, THIS BOX MAY BE COLLECTED AS EARLY AS 12 NOON.", "ref": "0637400005"}, "type": "Feature"}
{"geometry": {"coordinates": [-71.9179252, 41.673853], "type": "Point"}, "id": "IhHK8xZh4x-IJ98GQ5ILYiIxgt0=", "properties": {"@spider": "usps_collection_boxes", "addr:city": "PLAINFIELD", "addr:country": "US", "addr:full": "1 5TH ST", "addr:postcode": "06374", "addr:state": "CT", "brand": "USPS", "brand:wikidata": "Q668687", "collection_times": "Mo-Fr 15:00; Sa 14:00", "name": "USPS COLLECTION BOX - BLUE BOX", "note": "ON 12/24 AND 12/31, THIS BOX MAY BE COLLECTED AS EARLY AS 12 NOON.", "ref": "0637400006"}, "type": "Feature"}
{"geometry": {"coordinates": [-71.9119092235, 41.6621318151], "type": "Point"}, "id": "iRTw4QLrJHSr2wcNYu4bh4vxW1Q=", "properties": {"@spider": "usps_collection_boxes", "addr:city": "PLAINFIELD", "addr:country": "US", "addr:full": "83 LATHROP RD", "addr:postcode": "06374", "addr:state": "CT", "brand": "USPS", "brand:wikidata": "Q668687", "collection_times": "Mo-Fr 15:00; Sa 14:00", "name": "USPS COLLECTION BOX - BLUE BOX", "note": "ON 12/24 AND 12/31, THIS BOX MAY BE COLLECTED AS EARLY AS 12 NOON.", "ref": "0637400007"}, "type": "Feature"}
{"geometry": {"coordinates": [-71.9198226, 41.68], "type": "Point"}, "id": "XfisofpGi0Vcez157ogX76p0FYc=", "properties": {"@spider": "usps_collection_boxes", "addr:city": "PLAINFIELD", "addr:country": "US", "addr:full": "42 RAILROAD AVE", "addr:postcode": "06374", "addr:state": "CT", "brand": "USPS", "brand:wikidata": "Q668687", "collection_times": "Mo-Fr 17:15; Sa 15:00", "name": "USPS COLLECTION BOX - PO LOBBY", "note": "ON 12/24 AND 12/31, THIS BOX MAY BE COLLECTED AS EARLY AS 12 NOON.", "ref": "0637400008"}, "type": "Feature"}
{"geometry": {"coordinates": [-71.919691334, 41.679974439], "type": "Point"}, "id": "1csSKzcsP6yNtMObmdi2mEkeiWE=", "properties": {"@spider": "usps_collection_boxes", "addr:city": "PLAINFIELD", "addr:country": "US", "addr:full": "42 RAILROAD AVE", "addr:postcode": "06374", "addr:state": "CT", "brand": "USPS", "brand:wikidata": "Q668687", "collection_times": "Mo-Fr 17:00; Sa 15:00", "name": "USPS COLLECTION BOX - PO LOBBY", "note": "ON 12/24 AND 12/31, THIS BOX MAY BE COLLECTED AS EARLY AS 12 NOON.", "ref": "0637400012"}, "type": "Feature"}
{"geometry": {"coordinates": [-72.112051, 41.403942], "type": "Point"}, "id": "_ToLWWMpG6FZVojkrprlXIlkG1A=", "properties": {"@spider": "usps_collection_boxes", "addr:city": "QUAKER HILL", "addr:country": "US", "addr:full": "132 OLD NORWICH RD", "addr:postcode": "06375", "addr:state": "CT", "brand": "USPS", "brand:wikidata": "Q668687", "collection_times": "Mo-Fr 17:00; Sa 12:00", "name": "USPS COLLECTION BOX - BLUE BOX", "note": "ON 12/24 AND 12/31, THIS BOX MAY BE COLLECTED AS EARLY AS 12 NOON.", "ref": "0637500001"}, "type": "Feature"}
{"geometry": {"coordinates": [-72.111957, 41.404004], "type": "Point"}, "id": "qdJF0QugJvjKWUvs5VHc8petfok=", "properties": {"@spider": "usps_collection_boxes", "addr:city": "QUAKER HILL", "addr:country": "US", "addr:full": "132 OLD NORWICH RD", "addr:postcode": "06375", "addr:state": "CT", "brand": "USPS", "brand:wikidata": "Q668687", "collection_times": "Mo-Fr 17:00; Sa 12:00", "name": "USPS COLLECTION BOX - PO LOBBY", "note": "ON 12/24 AND 12/31, THIS BOX MAY BE COLLECTED AS EARLY AS 12 NOON.", "ref": "0637500005"}, "type": "Feature"}
{"geometry": {"coordinates": [-72.112144586, 41.40382942], "type": "Point"}, "id": "LrxtNexYd5XlTf8P1feMrlFcmlM=", "properties": {"@spider": "usps_collection_boxes", "addr:city": "QUAKER HILL", "addr:country": "US", "addr:full": "132 OLD NORWICH RD", "addr:postcode": "06375", "addr:state": "CT", "brand": "USPS", "brand:wikidata": "Q668687", "collection_times": "Mo-Fr 17:15; Sa 12:15", "name": "USPS COLLECTION BOX - PO LOBBY", "note": "ON 12/24 AND 12/31, THIS BOX MAY BE COLLECTED AS EARLY AS 12 NOON.", "ref": "0637500008"}, "type": "Feature"}
{"geometry": {"coordinates": [-72.258838, 41.297101], "type": "Point"}, "id": "xKFjP67MMAp2gCx0hudP-ASlZ1w=", "properties": {"@spider": "usps_collection_boxes", "addr:city": "SOUTH LYME", "addr:country": "US", "addr:full": "389 SHORE RD", "addr:postcode": "06376", "addr:state": "CT", "brand": "USPS", "brand:wikidata": "Q668687", "collection_times": "Mo-Fr 16:45; Sa 11:45", "name": "USPS COLLECTION BOX - BLUE BOX", "note": "ON 12/24 AND 12/31, THIS BOX MAY BE COLLECTED AS EARLY AS 12 NOON.", "ref": "0637600001"}, "type": "Feature"}
{"geometry": {"coordinates": [-72.258838, 41.297101], "type": "Point"}, "id": "DVcQhthkkVvS4J_84XjFtuSsBF4=", "properties": {"@spider": "usps_collection_boxes", "addr:city": "SOUTH LYME", "addr:country": "US", "addr:full": "389 SHORE RD", "addr:postcode": "06376", "addr:state": "CT", "brand": "USPS", "brand:wikidata": "Q668687", "collection_times": "Mo-Fr 17:00; Sa 11:45", "name": "USPS COLLECTION BOX - PO LOBBY", "note": "ON 12/24 AND 12/31, THIS BOX MAY BE COLLECTED AS EARLY AS 12 NOON.", "ref": "0637600002"}, "type": "Feature"}
{"geometry": {"coordinates": [-72.25814368, 41.29744258], "type": "Point"}, "id": "rFa6Cc7ocFRqY3rfwfTFP2frgyk=", "properties": {"@spider": "usps_collection_boxes", "addr:city": "SOUTH LYME", "addr:country": "US", "addr:full": "389 SHORE RD", "addr:postcode": "06376", "addr:state": "CT", "brand": "USPS", "brand:wikidata": "Q668687", "collection_times": "Mo-Fr 16:30; Sa 12:00", "name": "USPS COLLECTION BOX - PO LOBBY", "note": "ON 12/24 AND 12/31, THIS BOX MAY BE COLLECTED AS EARLY AS 12 NOON.", "ref": "0637600005"}, "type": "Feature"}
{"geometry": {"coordinates": [-71.829973776, 41.707348514], "type": "Point"}, "id": "B90cSCW9KeMURC_paR-MulD569Y=", "properties": {"@spider": "usps_collection_boxes", "addr:city": "STERLING", "addr:country": "US", "addr:full": "347 STERLING RD", "addr:postcode": "06377", "addr:state": "CT", "brand": "USPS", "brand:wikidata": "Q668687", "collection_times": "Mo-Fr 16:30; Sa 11:30", "name": "USPS COLLECTION BOX - BLUE BOX", "note": "ON 12/24 AND 12/31, THIS BOX MAY BE COLLECTED AS EARLY AS 12 NOON.", "ref": "0637700001"}, "type": "Feature"}
{"geometry": {"coordinates": [-71.829468, 41.707351], "type": "Point"}, "id": "ttD48A_DyUsxzQxNziR7MN-iCaY=", "properties": {"@spider": "usps_collection_boxes", "addr:city": "STERLING", "addr:country": "US", "addr:full": "347 STERLING RD", "addr:postcode": "06377", "addr:state": "CT", "brand": "USPS", "brand:wikidata": "Q668687", "collection_times": "Mo-Fr 16:50; Sa 12:00", "name": "USPS COLLECTION BOX - PO LOBBY", "note": "ON 12/24 AND 12/31, THIS BOX MAY BE COLLECTED AS EARLY AS 12 NOON.", "ref": "0637700002"}, "type": "Feature"}
{"geometry": {"coordinates": [-71.829973776, 41.707348514], "type": "Point"}, "id": "Xq1bgj4q7X-06t0YsC-gqgsYdyQ=", "properties": {"@spider": "usps_collection_boxes", "addr:city": "STERLING", "addr:country": "US", "addr:full": "347 STERLING RD", "addr:postcode": "06377", "addr:state": "CT", "brand": "USPS", "brand:wikidata": "Q668687", "collection_times": "Mo-Fr 16:30; Sa 12:00", "name": "USPS COLLECTION BOX - PO LOBBY", "note": "ON 12/24 AND 12/31, THIS BOX MAY BE COLLECTED AS EARLY AS 12 NOON.", "ref": "0637700005"}, "type": "Feature"}
{"geometry": {"coordinates": [-71.907107, 41.336821], "type": "Point"}, "id": "9RdAnPNr4V5zIGypsh7sAfJrzKo=", "properties": {"@spider": "usps_collection_boxes", "addr:city": "STONINGTON", "addr:country": "US", "addr:full": "20 BROAD ST", "addr:postcode": "06378", "addr:state": "CT", "brand": "USPS", "brand:wikidata": "Q668687", "collection_times": "Mo-Fr 17:00; Sa 13:30", "name": "USPS COLLECTION BOX - BLUE BOX", "note": "ON 12/24 AND 12/31, THIS BOX MAY BE COLLECTED AS EARLY AS 12 NOON.", "ref": "0637800001"}, "type": "Feature"}
{"geometry": {"coordinates": [-71.9004476, 41.339734], "type": "Point"}, "id": "V1EjBHLKQaGDbU7cZmrNrVaxwVU=", "properties": {"@spider": "usps_collection_boxes", "addr:city": "STONINGTON", "addr:country": "US", "addr:full": "152 ELM ST", "addr:postcode": "06378", "addr:state": "CT", "brand": "USPS", "brand:wikidata": "Q668687", "collection_times": "Mo-Fr 12:00; Sa 11:30", "name": "USPS COLLECTION BOX - BLUE BOX", "ref": "0637800003"}, "type": "Feature"}
{"geometry": {"coordinates": [-71.9114232, 41.348923], "type": "Point"}, "id": "CxvekYkHSJRInQU0kKTisD2xVF8=", "properties": {"@spider": "usps_collection_boxes", "addr:city": "STONINGTON", "addr:country": "US", "addr:full": "530 STONINGTON RD", "addr:postcode": "06378", "addr:state": "CT", "brand": "USPS", "brand:wikidata": "Q668687", "collection_times": "Mo-Sa 10:00", "name": "USPS COLLECTION BOX - BLUE BOX", "ref": "0637800005"}, "type": "Feature"}
{"geometry": {"coordinates": [-71.9068164, 41.334215], "type": "Point"}, "id": "oLbu7MT8kJgOYUfeOhr0KsWo-ig=", "properties": {"@spider": "usps_collection_boxes", "addr:city": "STONINGTON", "addr:country": "US", "addr:full": "119 WATER ST", "addr:postcode": "06378", "addr:state": "CT", "brand": "USPS", "brand:wikidata": "Q668687", "collection_times": "Mo-Fr 11:00", "name": "USPS COLLECTION BOX - BLUE BOX", "ref": "0637800008"}, "type": "Feature"}
{"geometry": {"coordinates": [-71.907107, 41.336821], "type": "Point"}, "id": "7k_v_hDOs33vd0Bulwcl86UNHzw=", "properties": {"@spider": "usps_collection_boxes", "addr:city": "STONINGTON", "addr:country": "US", "addr:full": "20 BROAD ST", "addr:postcode": "06378", "addr:state": "CT", "brand": "USPS", "brand:wikidata": "Q668687", "collection_times": "Mo-Fr 17:00; Sa 13:30", "name": "USPS COLLECTION BOX - EXPRESS", "note": "ON 12/24 AND 12/31, THIS BOX MAY BE COLLECTED AS EARLY AS 12 NOON.", "ref": "0637800010"}, "type": "Feature"}
{"geometry": {"coordinates": [-71.907107, 41.336821], "type": "Point"}, "id": "1p9wkb7vxQobp8VEiIsWCsTaCa4=", "properties": {"@spider": "usps_collection_boxes", "addr:city": "STONINGTON", "addr:country": "US", "addr:full": "20 BROAD ST", "addr:postcode": "06378", "addr:state": "CT", "brand": "USPS", "brand:wikidata": "Q668687", "collection_times": "Mo-Fr 17:00; Sa 13:30", "name": "USPS COLLECTION BOX - PO LOBBY", "note": "ON 12/24 AND 12/31, THIS BOX MAY BE COLLECTED AS EARLY AS 12 NOON.", "ref": "0637800012"}, "type": "Feature"}
{"geometry": {"coordinates": [-71.907195078, 41.336883343], "type": "Point"}, "id": "ZXBuCV3muaZXkpBFZiIPUb6Td3E=", "properties": {"@spider": "usps_collection_boxes", "addr:city": "STONINGTON", "addr:country": "US", "addr:full": "20 BROAD ST", "addr:postcode": "06378", "addr:state": "CT", "brand": "USPS", "brand:wikidata": "Q668687", "collection_times": "Mo-Fr 16:30; Sa 13:30", "name": "USPS COLLECTION BOX - PO LOBBY", "note": "ON 12/24 AND 12/31, THIS BOX MAY BE COLLECTED AS EARLY AS 12 NOON.", "ref": "0637800016"}, "type": "Feature"}
{"geometry": {"coordinates": [-71.8726111, 41.363701], "type": "Point"}, "id": "2DvOhIF_lw5_zdT1cPyVZBbKjdU=", "properties": {"@spider": "usps_collection_boxes", "addr:city": "PAWCATUCK", "addr:country": "US", "addr:full": "20 S ANGUILLA RD", "addr:postcode": "06379", "addr:state": "CT", "brand": "USPS", "brand:wikidata": "Q668687", "collection_times": "Mo-Fr 12:30", "name": "USPS COLLECTION BOX - BLUE BOX", "note": "ON 12/24 AND 12/31, THIS BOX MAY BE COLLECTED AS EARLY AS 12 NOON.", "ref": "0637900009"}, "type": "Feature"}
{"geometry": {"coordinates": [-71.8326818, 41.377649], "type": "Point"}, "id": "Rmp93HtD50Kmbs91rmL1Fo99-qE=", "properties": {"@spider": "usps_collection_boxes", "addr:city": "PAWCATUCK", "addr:country": "US", "addr:full": "43 W BROAD ST", "addr:postcode": "06379", "addr:state": "CT", "brand": "USPS", "brand:wikidata": "Q668687", "collection_times": "Mo-Sa 09:00", "name": "USPS COLLECTION BOX - BLUE BOX", "ref": "0637900010"}, "type": "Feature"}
{"geometry": {"coordinates": [-71.8400673, 41.372814], "type": "Point"}, "id": "eMFW9c3zsGaFaMNy740j__C4J-s=", "properties": {"@spider": "usps_collection_boxes", "addr:city": "PAWCATUCK", "addr:country": "US", "addr:full": "32 COURTLAND ST", "addr:postcode": "06379", "addr:state": "CT", "brand": "USPS", "brand:wikidata": "Q668687", "collection_times": "Mo-Fr 09:00", "name": "USPS COLLECTION BOX - BLUE BOX", "ref": "0637900011"}, "type": "Feature"}
{"geometry": {"coordinates": [-71.8473338, 41.37536], "type": "Point"}, "id": "plX0ADytzvsDTySzO1OihRKd4mg=", "properties": {"@spider": "usps_collection_boxes", "addr:city": "PAWCATUCK", "addr:country": "US", "addr:full": "37 S BROAD ST", "addr:postcode": "06379", "addr:state": "CT", "brand": "USPS", "brand:wikidata": "Q668687", "collection_times": "Mo-Sa 10:00", "name": "USPS COLLECTION BOX - BLUE BOX", "ref": "0637900014"}, "type": "Feature"}
{"geometry": {"coordinates": [-71.8361289, 41.376289], "type": "Point"}, "id": "60md7Ij2rFO0maawzW8tq3yXZpQ=", "properties": {"@spider": "usps_collection_boxes", "addr:city": "PAWCATUCK", "addr:country": "US", "addr:full": "116 W BROAD ST", "addr:postcode": "06379", "addr:state": "CT", "brand": "USPS", "brand:wikidata": "Q668687", "collection_times": "Mo-Fr 10:00", "name": "USPS COLLECTION BOX - BLUE BOX", "ref": "0637900016"}, "type": "Feature"}
{"geometry": {"coordinates": [-71.849777, 41.373834], "type": "Point"}, "id": "mLF_CeJ2G64aSZwKfOqn2Pbk4RA=", "properties": {"@spider": "usps_collection_boxes", "addr:city": "PAWCATUCK", "addr:country": "US", "addr:full": "66 S BROAD ST", "addr:postcode": "06379", "addr:state": "CT", "brand": "USPS", "brand:wikidata": "Q668687", "collection_times": "Mo-Fr 17:00; Sa 12:00", "name": "USPS COLLECTION BOX - BLUE BOX", "note": "ON 12/24 AND 12/31, THIS BOX MAY BE COLLECTED AS EARLY AS 12 NOON.", "ref": "0637900019"}, "type": "Feature"}
{"geometry": {"coordinates": [-71.849825, 41.373847], "type": "Point"}, "id": "11no1523MY_rowvXYu3FQtMKYag=", "properties": {"@spider": "usps_collection_boxes", "addr:city": "PAWCATUCK", "addr:country": "US", "addr:full": "66 S BROAD ST", "addr:postcode": "06379", "addr:state": "CT", "brand": "USPS", "brand:wikidata": "Q668687", "collection_times": "Mo-Fr 17:00; Sa 12:00", "name": "USPS COLLECTION BOX - EXPRESS", "note": "ON 12/24 AND 12/31, THIS BOX MAY BE COLLECTED AS EARLY AS 12 NOON.", "ref": "0637900020"}, "type": "Feature"}
{"geometry": {"coordinates": [-71.838899, 41.381146], "type": "Point"}, "id": "7KMzlYVA5YRy9_6GHCZUYu2aREo=", "properties": {"@spider": "usps_collection_boxes", "addr:city": "PAWCATUCK", "addr:country": "US", "addr:full": "77 LIBERTY ST", "addr:postcode": "06379", "addr:state": "CT", "brand": "USPS", "brand:wikidata": "Q668687", "collection_times": "Mo-Fr 10:00", "name": "USPS COLLECTION BOX - BLUE BOX", "ref": "0637900021"}, "type": "Feature"}
{"geometry": {"coordinates": [-71.849825, 41.373847], "type": "Point"}, "id": "y-vUbjKluvp_D9Ju-ke-141Nr9Y=", "properties": {"@spider": "usps_collection_boxes", "addr:city": "PAWCATUCK", "addr:country": "US", "addr:full": "66 S BROAD ST", "addr:postcode": "06379", "addr:state": "CT", "brand": "USPS", "brand:wikidata": "Q668687", "collection_times": "Mo-Fr 17:00; Sa 15:15", "name": "USPS COLLECTION BOX - PO LOBBY", "note": "ON 12/24 AND 12/31, THIS BOX MAY BE COLLECTED AS EARLY AS 12 NOON.", "ref": "0637900023"}, "type": "Feature"}
{"geometry": {"coordinates": [-71.850502856, 41.373583399], "type": "Point"}, "id": "eBRIwRHUuiCpdFJMvHL4HccAx8s=", "properties": {"@spider": "usps_collection_boxes", "addr:city": "PAWCATUCK", "addr:country": "US", "addr:full": "66 S BROAD ST", "addr:postcode": "06379", "addr:state": "CT", "brand": "USPS", "brand:wikidata": "Q668687", "collection_times": "Mo-Fr 17:00; Sa 15:00", "name": "USPS COLLECTION BOX - PO LOBBY", "note": "ON 12/24 AND 12/31, THIS BOX MAY BE COLLECTED AS EARLY AS 12 NOON.", "ref": "0637900025"}, "type": "Feature"}
{"geometry": {"coordinates": [-72.05348, 41.567478], "type": "Point"}, "id": "v9tymssoYHuUPx-xjon6lRcSWVQ=", "properties": {"@spider": "usps_collection_boxes", "addr:city": "TAFTVILLE", "addr:country": "US", "addr:full": "72 S B ST", "addr:postcode": "06380", "addr:state": "CT", "brand": "USPS", "brand:wikidata": "Q668687", "collection_times": "Mo-Fr 17:00; Sa 14:00", "name": "USPS COLLECTION BOX - BLUE BOX", "note": "ON 12/24 AND 12/31, THIS BOX MAY BE COLLECTED AS EARLY AS 12 NOON.", "ref": "0638000001"}, "type": "Feature"}
{"geometry": {"coordinates": [-72.0488607, 41.569916], "type": "Point"}, "id": "bk_2LjwFMIEqMmeBcWyDIIXCKY8=", "properties": {"@spider": "usps_collection_boxes", "addr:city": "TAFTVILLE", "addr:country": "US", "addr:full": "1 N 2ND AVE", "addr:postcode": "06380", "addr:state": "CT", "brand": "USPS", "brand:wikidata": "Q668687", "collection_times": "Mo-Sa 13:30", "name": "USPS COLLECTION BOX - BLUE BOX", "note": "ON 12/24 AND 12/31, THIS BOX MAY BE COLLECTED AS EARLY AS 12 NOON.", "ref": "0638000003"}, "type": "Feature"}
{"geometry": {"coordinates": [-72.053444, 41.567456], "type": "Point"}, "id": "aWQE4hBPYOIORW4VPfAwUaT1eBQ=", "properties": {"@spider": "usps_collection_boxes", "addr:city": "TAFTVILLE", "addr:country": "US", "addr:full": "72 S B ST", "addr:postcode": "06380", "addr:state": "CT", "brand": "USPS", "brand:wikidata": "Q668687", "collection_times": "Mo-Fr 17:00; Sa 14:00", "name": "USPS COLLECTION BOX - PO LOBBY", "note": "ON 12/24 AND 12/31, THIS BOX MAY BE COLLECTED AS EARLY AS 12 NOON.", "ref": "0638000004"}, "type": "Feature"}
{"geometry": {"coordinates": [-72.053547621, 41.567464318], "type": "Point"}, "id": "-GwIVYRKjeUUMLkBkgLkxQEP-W0=", "properties": {"@spider": "usps_collection_boxes", "addr:city": "TAFTVILLE", "addr:country": "US", "addr:full": "72 S B ST", "addr:postcode": "06380", "addr:state": "CT", "brand": "USPS", "brand:wikidata": "Q668687", "collection_times": "Mo-Fr 17:00; Sa 12:00", "name": "USPS COLLECTION BOX - PO LOBBY", "note": "ON 12/24 AND 12/31, THIS BOX MAY BE COLLECTED AS EARLY AS 12 NOON.", "ref": "0638000008"}, "type": "Feature"}
{"geometry": {"coordinates": [-72.102965, 41.468383], "type": "Point"}, "id": "MsLQE7dwio9C3m3Aa-t_7H6lEYA=", "properties": {"@spider": "usps_collection_boxes", "addr:city": "UNCASVILLE", "addr:country": "US", "addr:full": "1587 NORWICH NEW LONDON TPKE", "addr:postcode": "06382", "addr:state": "CT", "brand": "USPS", "brand:wikidata": "Q668687", "collection_times": "Mo-Fr 16:45; Sa 15:00", "name": "USPS COLLECTION BOX - BLUE BOX", "note": "ON 12/24 AND 12/31, THIS BOX MAY BE COLLECTED AS EARLY AS 12 NOON.", "ref": "0638200001"}, "type": "Feature"}
{"geometry": {"coordinates": [-72.1255538, 41.440246], "type": "Point"}, "id": "GrSyYFvaT6eSFfI0nCVcJ7BSCHQ=", "properties": {"@spider": "usps_collection_boxes", "addr:city": "UNCASVILLE", "addr:country": "US", "addr:full": "40 MILEFSKI DR", "addr:postcode": "06382", "addr:state": "CT", "brand": "USPS", "brand:wikidata": "Q668687", "collection_times": "Mo-Sa 09:30", "name": "USPS COLLECTION BOX - BLUE BOX", "ref": "0638200003"}, "type": "Feature"}
{"geometry": {"coordinates": [-72.107016, 41.45084], "type": "Point"}, "id": "LBmRcEFlKeorJgj7dJ9qlSFb8CE=", "properties": {"@spider": "usps_collection_boxes", "addr:city": "UNCASVILLE", "addr:country": "US", "addr:full": "907 NORWICH NEW LONDON TPKE", "addr:postcode": "06382", "addr:state": "CT", "brand": "USPS", "brand:wikidata": "Q668687", "collection_times": "Mo-Fr 13:30; Sa 13:00", "name": "USPS COLLECTION BOX - BLUE BOX", "note": "ON 12/24 AND 12/31, THIS BOX MAY BE COLLECTED AS EARLY AS 12 NOON.", "ref": "0638200004"}, "type": "Feature"}
{"geometry": {"coordinates": [-72.1096309, 41.435403], "type": "Point"}, "id": "1kIt6TGja1nHEGbpgXZEYtIFUZA=", "properties": {"@spider": "usps_collection_boxes", "addr:city": "UNCASVILLE", "addr:country": "US", "addr:full": "311 NORWICH NEW LONDON TPKE", "addr:postcode": "06382", "addr:state": "CT", "brand": "USPS", "brand:wikidata": "Q668687", "collection_times": "Mo-Sa 11:00", "name": "USPS COLLECTION BOX - BLUE BOX", "ref": "0638200006"}, "type": "Feature"}
{"geometry": {"coordinates": [-72.1044182, 41.442136], "type": "Point"}, "id": "6Qz8-Z-UhQdOgFxQ7xXyuH9LZD4=", "properties": {"@spider": "usps_collection_boxes", "addr:city": "UNCASVILLE", "addr:country": "US", "addr:full": "601 NORWICH NEW LONDON TPKE", "addr:postcode": "06382", "addr:state": "CT", "brand": "USPS", "brand:wikidata": "Q668687", "collection_times": "Mo-Fr 12:00; Sa 11:00", "name": "USPS COLLECTION BOX - BLUE BOX", "ref": "0638200007"}, "type": "Feature"}
{"geometry": {"coordinates": [-72.1113315, 41.468327], "type": "Point"}, "id": "5V_JrmSYE4J28OWA4D4EWHtRTQs=", "properties": {"@spider": "usps_collection_boxes", "addr:city": "UNCASVILLE", "addr:country": "US", "addr:full": "24 ALLEN DR", "addr:postcode": "06382", "addr:state": "CT", "brand": "USPS", "brand:wikidata": "Q668687", "collection_times": "Mo-Sa 10:00", "name": "USPS COLLECTION BOX - BLUE BOX", "ref": "0638200009"}, "type": "Feature"}
{"geometry": {"coordinates": [-72.117282, 41.499329], "type": "Point"}, "id": "FZ19uh4vVwEABQosECNZIuhaAuw=", "properties": {"@spider": "usps_collection_boxes", "addr:city": "UNCASVILLE", "addr:country": "US", "addr:full": "91 LEFFINGWELL RD", "addr:postcode": "06382", "addr:state": "CT", "brand": "USPS", "brand:wikidata": "Q668687", "collection_times": "Mo-Sa 10:30", "name": "USPS COLLECTION BOX - BLUE BOX", "ref": "0638200011"}, "type": "Feature"}
{"geometry": {"coordinates": [-72.0883656, 41.475923], "type": "Point"}, "id": "q-QvhIpX41nNUlUO9HF_p86oRnY=", "properties": {"@spider": "usps_collection_boxes", "addr:city": "UNCASVILLE", "addr:country": "US", "addr:full": "3 PARK AVENUE EXT", "addr:postcode": "06382", "addr:state": "CT", "brand": "USPS", "brand:wikidata": "Q668687", "collection_times": "Mo-Fr 14:00; Sa 13:30", "name": "USPS COLLECTION BOX - BLUE BOX", "note": "ON 12/24 AND 12/31, THIS BOX MAY BE COLLECTED AS EARLY AS 12 NOON.", "ref": "0638200012"}, "type": "Feature"}
{"geometry": {"coordinates": [-72.102977, 41.468453], "type": "Point"}, "id": "j-nd0_GBZ03p73sFSGixCxf-i0I=", "properties": {"@spider": "usps_collection_boxes", "addr:city": "UNCASVILLE", "addr:country": "US", "addr:full": "1587 NORWICH NEW LONDON TPKE", "addr:postcode": "06382", "addr:state": "CT", "brand": "USPS", "brand:wikidata": "Q668687", "collection_times": "Mo-Fr 16:45; Sa 15:00", "name": "USPS COLLECTION BOX - PO LOBBY", "note": "ON 12/24 AND 12/31, THIS BOX MAY BE COLLECTED AS EARLY AS 12 NOON.", "ref": "0638200013"}, "type": "Feature"}
{"geometry": {"coordinates": [-72.103051094, 41.468156875], "type": "Point"}, "id": "lLJuOd46Re81zRJ3Qm1H34DUdIk=", "properties": {"@spider": "usps_collection_boxes", "addr:city": "UNCASVILLE", "addr:country": "US", "addr:full": "1587 NORWICH NEW LONDON TPKE", "addr:postcode": "06382", "addr:state": "CT", "brand": "USPS", "brand:wikidata": "Q668687", "collection_times": "Mo-Fr 16:30; Sa 12:00", "name": "USPS COLLECTION BOX - PO LOBBY", "note": "ON 12/24 AND 12/31, THIS BOX MAY BE COLLECTED AS EARLY AS 12 NOON.", "ref": "0638200018"}, "type": "Feature"}
{"geometry": {"coordinates": [-72.0462416, 41.598955], "type": "Point"}, "id": "W_z7zKj6RqMHYkH_xiqVohfNC4s=", "properties": {"@spider": "usps_collection_boxes", "addr:city": "VERSAILLES", "addr:country": "US", "addr:full": "35 MAIN ST", "addr:postcode": "06383", "addr:state": "CT", "brand": "USPS", "brand:wikidata": "Q668687", "collection_times": "Mo-Fr 16:30; Sa 11:30", "name": "USPS COLLECTION BOX - BLUE BOX", "note": "ON 12/24 AND 12/31, THIS BOX MAY BE COLLECTED AS EARLY AS 12 NOON.", "ref": "0638300001"}, "type": "Feature"}
{"geometry": {"coordinates": [-72.0443316709, 41.5992872368], "type": "Point"}, "id": "WM5aIxZCUdLVx6QI6v2w7XC3kXs=", "properties": {"@spider": "usps_collection_boxes", "addr:city": "VERSAILLES", "addr:country": "US", "addr:full": "35 MAIN ST", "addr:postcode": "06383", "addr:state": "CT", "brand": "USPS", "brand:wikidata": "Q668687", "collection_times": "Mo-Fr 12:00; Sa 11:30", "name": "USPS COLLECTION BOX - PO LOBBY", "ref": "0638300002"}, "type": "Feature"}
{"geometry": {"coordinates": [-72.046363544, 41.598802143], "type": "Point"}, "id": "_PlKqmmnNn29Q8M-1hZKGk86vTA=", "properties": {"@spider": "usps_collection_boxes", "addr:city": "VERSAILLES", "addr:country": "US", "addr:full": "35 MAIN ST STE 2", "addr:postcode": "06383", "addr:state": "CT", "brand": "USPS", "brand:wikidata": "Q668687", "collection_times": "Mo-Sa 12:00", "name": "USPS COLLECTION BOX - PO LOBBY", "ref": "0638300005"}, "type": "Feature"}
{"geometry": {"coordinates": [-71.866379, 41.572742], "type": "Point"}, "id": "9qOVv60BchHOeKgvFNEK8DMbHEM=", "properties": {"@spider": "usps_collection_boxes", "addr:city": "VOLUNTOWN", "addr:country": "US", "addr:full": "42 CHURCH ST", "addr:postcode": "06384", "addr:state": "CT", "brand": "USPS", "brand:wikidata": "Q668687", "collection_times": "Mo-Fr 17:00; Sa 12:00", "name": "USPS COLLECTION BOX - PO LOBBY", "note": "ON 12/24 AND 12/31, THIS BOX MAY BE COLLECTED AS EARLY AS 12 NOON.", "ref": "0638400002"}, "type": "Feature"}
{"geometry": {"coordinates": [-71.86635, 41.57277], "type": "Point"}, "id": "Zd7YxN3LS-o3zJiJPuOl43clDxo=", "properties": {"@spider": "usps_collection_boxes", "addr:city": "VOLUNTOWN", "addr:country": "US", "addr:full": "42 CHURCH ST", "addr:postcode": "06384", "addr:state": "CT", "brand": "USPS", "brand:wikidata": "Q668687", "collection_times": "Mo-Fr 16:45; Sa 11:45", "name": "USPS COLLECTION BOX - BLUE BOX", "note": "ON 12/24 AND 12/31, THIS BOX MAY BE COLLECTED AS EARLY AS 12 NOON.", "ref": "0638400004"}, "type": "Feature"}
{"geometry": {"coordinates": [-71.865940301, 41.5727475], "type": "Point"}, "id": "bUBbdY7zrP4TuE-HLNd90wroWgM=", "properties": {"@spider": "usps_collection_boxes", "addr:city": "VOLUNTOWN", "addr:country": "US", "addr:full": "42 CHURCH ST", "addr:postcode": "06384", "addr:state": "CT", "brand": "USPS", "brand:wikidata": "Q668687", "collection_times": "Mo-Fr 16:30; Sa 12:00", "name": "USPS COLLECTION BOX - PO LOBBY", "note": "ON 12/24 AND 12/31, THIS BOX MAY BE COLLECTED AS EARLY AS 12 NOON.", "ref": "0638400006"}, "type": "Feature"}
{"geometry": {"coordinates": [-72.1381655, 41.345549], "type": "Point"}, "id": "GclHiOqX2o02GTKzJYAY5E_thyU=", "properties": {"@spider": "usps_collection_boxes", "addr:city": "WATERFORD", "addr:country": "US", "addr:full": "222 BOSTON POST RD", "addr:postcode": "06385", "addr:state": "CT", "brand": "USPS", "brand:wikidata": "Q668687", "collection_times": "Mo-Fr 17:00; Sa 15:00", "name": "USPS COLLECTION BOX - BLUE BOX", "note": "ON 12/24 AND 12/31, THIS BOX MAY BE COLLECTED AS EARLY AS 12 NOON.", "ref": "0638500002"}, "type": "Feature"}
{"geometry": {"coordinates": [-72.1381771, 41.345537], "type": "Point"}, "id": "xmhRhuaLga2gpmV1wbomsCgS1mk=", "properties": {"@spider": "usps_collection_boxes", "addr:city": "WATERFORD", "addr:country": "US", "addr:full": "222 BOSTON POST RD", "addr:postcode": "06385", "addr:state": "CT", "brand": "USPS", "brand:wikidata": "Q668687", "collection_times": "Mo-Fr 17:00; Sa 15:00", "name": "USPS COLLECTION BOX - BLUE BOX", "note": "ON 12/24 AND 12/31, THIS BOX MAY BE COLLECTED AS EARLY AS 12 NOON.", "ref": "0638500003"}, "type": "Feature"}
{"geometry": {"coordinates": [-72.1381885, 41.345546], "type": "Point"}, "id": "8uB4es4-sFzq-kbYR-itms5G3Wg=", "properties": {"@spider": "usps_collection_boxes", "addr:city": "WATERFORD", "addr:country": "US", "addr:full": "222 BOSTON POST RD", "addr:postcode": "06385", "addr:state": "CT", "brand": "USPS", "brand:wikidata": "Q668687", "collection_times": "Mo-Fr 17:00; Sa 15:00", "name": "USPS COLLECTION BOX - EXPRESS", "note": "ON 12/24 AND 12/31, THIS BOX MAY BE COLLECTED AS EARLY AS 12 NOON.", "ref": "0638500004"}, "type": "Feature"}
{"geometry": {"coordinates": [-72.1171368, 41.341368], "type": "Point"}, "id": "XjumVUO1OJ62VRQGCse96llO1n8=", "properties": {"@spider": "usps_collection_boxes", "addr:city": "WATERFORD", "addr:country": "US", "addr:full": "46 BOSTON POST RD", "addr:postcode": "06385", "addr:state": "CT", "brand": "USPS", "brand:wikidata": "Q668687", "collection_times": "Mo-Sa 09:30", "name": "USPS COLLECTION BOX - BLUE BOX", "ref": "0638500008"}, "type": "Feature"}
{"geometry": {"coordinates": [-72.1245113, 41.34457], "type": "Point"}, "id": "kZ3zUvULHvRfYGGa_rqu1zZcf4A=", "properties": {"@spider": "usps_collection_boxes", "addr:city": "WATERFORD", "addr:country": "US", "addr:full": "117 BOSTON POST RD", "addr:postcode": "06385", "addr:state": "CT", "brand": "USPS", "brand:wikidata": "Q668687", "collection_times": "Mo-Fr 13:30; Sa 09:30", "name": "USPS COLLECTION BOX - BLUE BOX", "note": "ON 12/24 AND 12/31, THIS BOX MAY BE COLLECTED AS EARLY AS 12 NOON.", "ref": "0638500009"}, "type": "Feature"}
{"geometry": {"coordinates": [-72.1277845, 41.345793], "type": "Point"}, "id": "LgNOYOcx7LCMuKdqn3J2uLFvc1k=", "properties": {"@spider": "usps_collection_boxes", "addr:city": "WATERFORD", "addr:country": "US", "addr:full": "7 MONROE ST", "addr:postcode": "06385", "addr:state": "CT", "brand": "USPS", "brand:wikidata": "Q668687", "collection_times": "Mo-Fr 09:45; Sa 09:30", "name": "USPS COLLECTION BOX - BLUE BOX", "ref": "0638500010"}, "type": "Feature"}
{"geometry": {"coordinates": [-72.1364299, 41.340719], "type": "Point"}, "id": "ryYc2QAcSTFLySAOdl0-MlE4s6s=", "properties": {"@spider": "usps_collection_boxes", "addr:city": "WATERFORD", "addr:country": "US", "addr:full": "54 ROPE FERRY RD", "addr:postcode": "06385", "addr:state": "CT", "brand": "USPS", "brand:wikidata": "Q668687", "collection_times": "Mo-Sa 09:30", "name": "USPS COLLECTION BOX - BLUE BOX", "ref": "0638500012"}, "type": "Feature"}
{"geometry": {"coordinates": [-72.1706923, 41.356928], "type": "Point"}, "id": "leUp408p0Y5HQu5nuOGSZodadYw=", "properties": {"@spider": "usps_collection_boxes", "addr:city": "WATERFORD", "addr:country": "US", "addr:full": "428 BOSTON POST RD", "addr:postcode": "06385", "addr:state": "CT", "brand": "USPS", "brand:wikidata": "Q668687", "collection_times": "Mo-Sa 09:45", "name": "USPS COLLECTION BOX - BLUE BOX", "ref": "0638500017"}, "type": "Feature"}
{"geometry": {"coordinates": [-72.1457095, 41.373984], "type": "Point"}, "id": "SVhZo4MkQ6nVlUTBJNBlSNw3qJI=", "properties": {"@spider": "usps_collection_boxes", "addr:city": "WATERFORD", "addr:country": "US", "addr:full": "850 HARTFORD TPKE", "addr:postcode": "06385", "addr:state": "CT", "brand": "USPS", "brand:wikidata": "Q668687", "collection_times": "Mo-Fr 13:15; Sa 10:15", "name": "USPS COLLECTION BOX - BLUE BOX", "note": "ON 12/24 AND 12/31, THIS BOX MAY BE COLLECTED AS EARLY AS 12 NOON.", "ref": "0638500018"}, "type": "Feature"}
{"geometry": {"coordinates": [-72.125223771, 41.371946554], "type": "Point"}, "id": "S_CC139oqtBNBrrbfz63fgM5H24=", "properties": {"@spider": "usps_collection_boxes", "addr:city": "WATERFORD", "addr:country": "US", "addr:full": "567 VAUXHALL ST EXT", "addr:postcode": "06385", "addr:state": "CT", "brand": "USPS", "brand:wikidata": "Q668687", "collection_times": "Mo-Fr 13:15; Sa 10:15", "name": "USPS COLLECTION BOX - BLUE BOX", "note": "ON 12/24 AND 12/31, THIS BOX MAY BE COLLECTED AS EARLY AS 12 NOON.", "ref": "0638500021"}, "type": "Feature"}
{"geometry": {"coordinates": [-72.1335966, 41.344249], "type": "Point"}, "id": "aKIDVBLAsbberZCSwUcdx8sPHF0=", "properties": {"@spider": "usps_collection_boxes", "addr:city": "WATERFORD", "addr:country": "US", "addr:full": "180 BOSTON POST RD", "addr:postcode": "06385", "addr:state": "CT", "brand": "USPS", "brand:wikidata": "Q668687", "collection_times": "Mo-Fr 13:30; Sa 09:30", "name": "USPS COLLECTION BOX - BLUE BOX", "note": "ON 12/24 AND 12/31, THIS BOX MAY BE COLLECTED AS EARLY AS 12 NOON.", "ref": "0638500025"}, "type": "Feature"}
{"geometry": {"coordinates": [-72.1604329, 41.3518], "type": "Point"}, "id": "gbkQ-p7_gCdUk2OJnA9WVeBbPmA=", "properties": {"@spider": "usps_collection_boxes", "addr:city": "WATERFORD", "addr:country": "US", "addr:full": "1 STONEHEIGHTS DR", "addr:postcode": "06385", "addr:state": "CT", "brand": "USPS", "brand:wikidata": "Q668687", "collection_times": "Mo-Sa 09:45", "name": "USPS COLLECTION BOX - BLUE BOX", "ref": "0638500027"}, "type": "Feature"}
{"geometry": {"coordinates": [-72.1376555, 41.345488], "type": "Point"}, "id": "DlR8lX06ZQiNInAstpMFZp5q_2g=", "properties": {"@spider": "usps_collection_boxes", "addr:city": "WATERFORD", "addr:country": "US", "addr:full": "222 BOSTON POST RD", "addr:postcode": "06385", "addr:state": "CT", "brand": "USPS", "brand:wikidata": "Q668687", "collection_times": "Mo-Fr 17:00; Sa 15:00", "name": "USPS COLLECTION BOX - BLUE BOX", "note": "ON 12/24 AND 12/31, THIS BOX MAY BE COLLECTED AS EARLY AS 12 NOON.", "ref": "0638500032"}, "type": "Feature"}
{"geometry": {"coordinates": [-72.1383409, 41.345361], "type": "Point"}, "id": "635yC4oZG-kPZByPRvbeCgnYjXc=", "properties": {"@spider": "usps_collection_boxes", "addr:city": "WATERFORD", "addr:country": "US", "addr:full": "222 BOSTON POST RD", "addr:postcode": "06385", "addr:state": "CT", "brand": "USPS", "brand:wikidata": "Q668687", "collection_times": "Mo-Fr 17:30; Sa 15:00", "name": "USPS COLLECTION BOX - PO LOBBY", "note": "ON 12/24 AND 12/31, THIS BOX MAY BE COLLECTED AS EARLY AS 12 NOON.", "ref": "0638500033"}, "type": "Feature"}
{"geometry": {"coordinates": [-72.1243639, 41.372081], "type": "Point"}, "id": "M-PhNjVQHnyc0LSLVtL8-uARD0k=", "properties": {"@spider": "usps_collection_boxes", "addr:city": "WATERFORD", "addr:country": "US", "addr:full": "567 VAUXHALL", "addr:postcode": "06385", "addr:state": "CT", "brand": "USPS", "brand:wikidata": "Q668687", "collection_times": "Mo-Fr 13:15; Sa 10:15", "name": "USPS COLLECTION BOX - BLUE BOX", "note": "ON 12/24 AND 12/31, THIS BOX MAY BE COLLECTED AS EARLY AS 12 NOON.", "ref": "0638500036"}, "type": "Feature"}
{"geometry": {"coordinates": [-72.137980229, 41.345721308], "type": "Point"}, "id": "sdpUkrCN8rwKeT_Ip-U1R17bY0M=", "properties": {"@spider": "usps_collection_boxes", "addr:city": "WATERFORD", "addr:country": "US", "addr:full": "222 BOSTON POST RD", "addr:postcode": "06385", "addr:state": "CT", "brand": "USPS", "brand:wikidata": "Q668687", "collection_times": "Mo-Fr 17:30; Sa 16:30", "name": "USPS COLLECTION BOX - PO LOBBY", "note": "ON 12/24 AND 12/31, THIS BOX MAY BE COLLECTED AS EARLY AS 12 NOON.", "ref": "0638500043"}, "type": "Feature"}
{"geometry": {"coordinates": [-71.9114438, 41.745535], "type": "Point"}, "id": "08vG9mI45LlTdH4EPfM6eA7dF7U=", "properties": {"@spider": "usps_collection_boxes", "addr:city": "WAUREGAN", "addr:country": "US", "addr:full": "60 WAUREGAN RD", "addr:postcode": "06387", "addr:state": "CT", "brand": "USPS", "brand:wikidata": "Q668687", "collection_times": "Mo-Fr 16:30; Sa 11:30", "name": "USPS COLLECTION BOX - BLUE BOX", "note": "ON 12/24 AND 12/31, THIS BOX MAY BE COLLECTED AS EARLY AS 12 NOON.", "ref": "0638700000"}, "type": "Feature"}
{"geometry": {"coordinates": [-71.911456, 41.745403], "type": "Point"}, "id": "6I1M8qlKQ_ZEIB8Np2KHqBefvIY=", "properties": {"@spider": "usps_collection_boxes", "addr:city": "WAUREGAN", "addr:country": "US", "addr:full": "60 WAUREGAN RD", "addr:postcode": "06387", "addr:state": "CT", "brand": "USPS", "brand:wikidata": "Q668687", "collection_times": "Mo-Sa 12:00", "name": "USPS COLLECTION BOX - PO LOBBY", "ref": "0638700001"}, "type": "Feature"}
{"geometry": {"coordinates": [-71.911516014, 41.745469421], "type": "Point"}, "id": "TnIbKmnAnjFsPWwJfCJh0w9ajGQ=", "properties": {"@spider": "usps_collection_boxes", "addr:city": "WAUREGAN", "addr:country": "US", "addr:full": "60 WAUREGAN RD", "addr:postcode": "06387", "addr:state": "CT", "brand": "USPS", "brand:wikidata": "Q668687", "collection_times": "Mo-Sa 12:00", "name": "USPS COLLECTION BOX - PO LOBBY", "ref": "0638700004"}, "type": "Feature"}
{"geometry": {"coordinates": [-71.9767779, 41.345968], "type": "Point"}, "id": "hfOat25S2leYuRTstJAeFkj4_bI=", "properties": {"@spider": "usps_collection_boxes", "addr:city": "MYSTIC", "addr:country": "US", "addr:full": "49 W MYSTIC AVE", "addr:postcode": "06388", "addr:state": "CT", "brand": "USPS", "brand:wikidata": "Q668687", "collection_times": "Mo-Fr 15:15; Sa 13:30", "name": "USPS COLLECTION BOX - BLUE BOX", "note": "ON 12/24 AND 12/31, THIS BOX MAY BE COLLECTED AS EARLY AS 12 NOON.", "ref": "0638800000"}, "type": "Feature"}
{"geometry": {"coordinates": [-71.976965308, 41.3462373], "type": "Point"}, "id": "NS20vxgqsTQVgtr1SkC-fa4riPY=", "properties": {"@spider": "usps_collection_boxes", "addr:city": "MYSTIC", "addr:country": "US", "addr:full": "55 W MYSTIC AVE", "addr:postcode": "06388", "addr:state": "CT", "brand": "USPS", "brand:wikidata": "Q668687", "collection_times": "Mo-Fr 16:00", "name": "USPS COLLECTION BOX - PO LOBBY", "note": "ON 12/24 AND 12/31, THIS BOX MAY BE COLLECTED AS EARLY AS 12 NOON.", "ref": "0638800003"}, "type": "Feature"}
{"geometry": {"coordinates": [-72.016866967, 41.263256934], "type": "Point"}, "id": "4wLy_FVrpO1SgsIRNB4aXLgMG80=", "properties": {"@spider": "usps_collection_boxes", "addr:city": "FISHERS ISLAND", "addr:country": "US", "addr:full": "1 ORIENTAL AVE", "addr:postcode": "06390", "addr:state": "NY", "brand": "USPS", "brand:wikidata": "Q668687", "collection_times": "Mo-Fr 16:00; Sa 11:30", "name": "USPS COLLECTION BOX - BLUE BOX", "note": "ON 12/24 AND 12/31, THIS BOX MAY BE COLLECTED AS EARLY AS 12 NOON.", "ref": "0639000001"}, "type": "Feature"}
{"geometry": {"coordinates": [-72.016866967, 41.263256934], "type": "Point"}, "id": "sOU57lqu3r8qkwgoTonywL1pvYk=", "properties": {"@spider": "usps_collection_boxes", "addr:city": "FISHERS ISLAND", "addr:country": "US", "addr:full": "1 ORIENTAL AVE", "addr:postcode": "06390", "addr:state": "NY", "brand": "USPS", "brand:wikidata": "Q668687", "collection_times": "Mo-Fr 15:30; Sa 11:30", "name": "USPS COLLECTION BOX - PO LOBBY", "note": "ON 12/24 AND 12/31, THIS BOX MAY BE COLLECTED AS EARLY AS 12 NOON.", "ref": "0639000005"}, "type": "Feature"}
{"geometry": {"coordinates": [-72.016866284, 41.263265813], "type": "Point"}, "id": "4tRsgCzRIhbnVoSzVW6hfx1UIU8=", "properties": {"@spider": "usps_collection_boxes", "addr:city": "FISHERS ISLAND", "addr:country": "US", "addr:full": "1 ORIENTAL AVE # 9", "addr:postcode": "06390", "addr:state": "NY", "brand": "USPS", "brand:wikidata": "Q668687", "collection_times": "Mo-Fr 16:00", "name": "USPS COLLECTION BOX - BLUE BOX", "note": "ON 12/24 AND 12/31, THIS BOX MAY BE COLLECTED AS EARLY AS 12 NOON.", "ref": "0639000006"}, "type": "Feature"}
