{"geometry": {"coordinates": [-72.923233525, 41.304961699], "type": "Point"}, "id": "2H9G5TPaLPh_OItSImZ_llGfzuw=", "properties": {"@spider": "usps_collection_boxes", "addr:city": "NEW HAVEN", "addr:country": "US", "addr:full": "754 CHAPEL ST", "addr:postcode": "06510", "addr:state": "CT", "brand": "USPS", "collection_times": "Mo-Fr 16:30; Sa 12:00", "name": "USPS COLLECTION BOX - PO LOBBY", "note": "ON 12/24 AND 12/31, THIS BOX MAY BE COLLECTED AS EARLY AS 12 NOON.", "ref": "0651000002"}, "type": "Feature"}
{"geometry": {"coordinates": [-72.923233525, 41.304961699], "type": "Point"}, "id": "m1du8y683VzeBumDBX-H8faIiQo=", "properties": {"@spider": "usps_collection_boxes", "addr:city": "NEW HAVEN", "addr:country": "US", "addr:full": "754 CHAPEL ST", "addr:postcode": "06510", "addr:state": "CT", "brand": "USPS", "collection_times": "Mo-Fr 16:30; Sa 12:00", "name": "USPS COLLECTION BOX - PO LOBBY", "note": "ON 12/24 AND 12/31, THIS BOX MAY BE COLLECTED AS EARLY AS 12 NOON.", "ref": "0651000004"}, "type": "Feature"}
{"geometry": {"coordinates": [-72.9202893, 41.298068], "type": "Point"}, "id": "jDeR5unHtdACpGfdT29lYVszK5M=", "properties": {"@spider": "usps_collection_boxes", "addr:city": "NEW HAVEN", "addr:country": "US", "addr:full": "50 BREWERY ST", "addr:postcode": "06511", "addr:state": "CT", "brand": "USPS", "collection_times": "Mo-Fr 17:00; Sa 14:30", "name": "USPS COLLECTION BOX - BLUE BOX", "note": "ON 12/24 AND 12/31, THIS BOX MAY BE COLLECTED AS EARLY AS 12 NOON.", "ref": "0651100001"}, "type": "Feature"}
{"geometry": {"coordinates": [-72.9185494, 41.305727], "type": "Point"}, "id": "S6Wz6WuNSb7VJGPuUhtSKdXy_W8=", "properties": {"@spider": "usps_collection_boxes", "addr:city": "NEW HAVEN", "addr:country": "US", "addr:full": "42 ACADEMY ST", "addr:postcode": "06511", "addr:state": "CT", "brand": "USPS", "collection_times": "Mo-Fr 12:00", "name": "USPS COLLECTION BOX - BLUE BOX", "ref": "0651100013"}, "type": "Feature"}
{"geometry": {"coordinates": [-72.92719224, 41.304118026], "type": "Point"}, "id": "5L5Eh0m9ybUcXYa0PV7VNrh6M4E=", "properties": {"@spider": "usps_collection_boxes", "addr:city": "NEW HAVEN", "addr:country": "US", "addr:full": "1 CHURCH ST", "addr:postcode": "06511", "addr:state": "CT", "brand": "USPS", "collection_times": "Mo-Fr 11:00", "name": "USPS COLLECTION BOX - BLUE BOX", "ref": "0651100015"}, "type": "Feature"}
{"geometry": {"coordinates": [-72.9266044, 41.304936], "type": "Point"}, "id": "9Bl7B67S2mLQv9TvdULUiTmeuUU=", "properties": {"@spider": "usps_collection_boxes", "addr:city": "NEW HAVEN", "addr:country": "US", "addr:full": "55 CHURCH ST", "addr:postcode": "06511", "addr:state": "CT", "brand": "USPS", "collection_times": "Mo-Sa 11:00", "name": "USPS COLLECTION BOX - BLUE BOX", "ref": "0651100016"}, "type": "Feature"}
{"geometry": {"coordinates": [-72.9203555, 41.310888], "type": "Point"}, "id": "NqymB9BqMVXk4mmuFhgF14_baG4=", "properties": {"@spider": "usps_collection_boxes", "addr:city": "NEW HAVEN", "addr:country": "US", "addr:full": "358 ORANGE ST", "addr:postcode": "06511", "addr:state": "CT", "brand": "USPS", "collection_times": "Mo-Fr 12:00", "name": "USPS COLLECTION BOX - BLUE BOX", "ref": "0651100017"}, "type": "Feature"}
{"geometry": {"coordinates": [-72.9237426523, 41.3111716872], "type": "Point"}, "id": "ctHaifIOm6Im9TH4U2Bb_6hN9ls=", "properties": {"@spider": "usps_collection_boxes", "addr:city": "NEW HAVEN", "addr:country": "US", "addr:full": "370 TEMPLE ST", "addr:postcode": "06511", "addr:state": "CT", "brand": "USPS", "collection_times": "Mo-Fr 13:00; Sa 12:00", "name": "USPS COLLECTION BOX - BLUE BOX", "note": "ON 12/24 AND 12/31, THIS BOX MAY BE COLLECTED AS EARLY AS 12 NOON.", "ref": "0651100019"}, "type": "Feature"}
{"geometry": {"coordinates": [-72.9246266, 41.309995], "type": "Point"}, "id": "Yoc9EpwBm3OomdbWI46H3qnj4gU=", "properties": {"@spider": "usps_collection_boxes", "addr:city": "NEW HAVEN", "addr:country": "US", "addr:full": "68 WALL WALL", "addr:postcode": "06511", "addr:state": "CT", "brand": "USPS", "collection_times": "Mo-Fr 12:30", "name": "USPS COLLECTION BOX - BLUE BOX", "note": "ON 12/24 AND 12/31, THIS BOX MAY BE COLLECTED AS EARLY AS 12 NOON.", "ref": "0651100020"}, "type": "Feature"}
{"geometry": {"coordinates": [-72.9254003, 41.308924], "type": "Point"}, "id": "euWRcuWdRqI5SFKZmaNODH7eYRg=", "properties": {"@spider": "usps_collection_boxes", "addr:city": "NEW HAVEN", "addr:country": "US", "addr:full": "143 ELM ST", "addr:postcode": "06511", "addr:state": "CT", "brand": "USPS", "collection_times": "Mo-Fr 12:30; Sa 12:00", "name": "USPS COLLECTION BOX - BLUE BOX", "note": "ON 12/24 AND 12/31, THIS BOX MAY BE COLLECTED AS EARLY AS 12 NOON.", "ref": "0651100021"}, "type": "Feature"}
{"geometry": {"coordinates": [-72.9108212, 41.323073], "type": "Point"}, "id": "HgKNYGL_WVd9id9fu71Zuaq8548=", "properties": {"@spider": "usps_collection_boxes", "addr:city": "NEW HAVEN", "addr:country": "US", "addr:full": "831 ORANGE ST", "addr:postcode": "06511", "addr:state": "CT", "brand": "USPS", "collection_times": "Mo-Sa 11:00", "name": "USPS COLLECTION BOX - BLUE BOX", "ref": "0651100025"}, "type": "Feature"}
{"geometry": {"coordinates": [-72.9225499, 41.307543], "type": "Point"}, "id": "nCmcOq6WuWcP535S--5RQR8_XIo=", "properties": {"@spider": "usps_collection_boxes", "addr:city": "NEW HAVEN", "addr:country": "US", "addr:full": "50 ELM ST", "addr:postcode": "06511", "addr:state": "CT", "brand": "USPS", "collection_times": "Mo-Fr 12:30", "name": "USPS COLLECTION BOX - BLUE BOX", "note": "ON 12/24 AND 12/31, THIS BOX MAY BE COLLECTED AS EARLY AS 12 NOON.", "ref": "0651100026"}, "type": "Feature"}
{"geometry": {"coordinates": [-72.9229506, 41.3049], "type": "Point"}, "id": "dF3G4jXogzJOVUzcpKmLiNZfT8M=", "properties": {"@spider": "usps_collection_boxes", "addr:city": "NEW HAVEN", "addr:country": "US", "addr:full": "744 CHAPEL ST", "addr:postcode": "06511", "addr:state": "CT", "brand": "USPS", "collection_times": "Mo-Sa 12:00", "name": "USPS COLLECTION BOX - BLUE BOX", "ref": "0651100036"}, "type": "Feature"}
{"geometry": {"coordinates": [-72.9315235, 41.308442], "type": "Point"}, "id": "jm8j09g8gCemg3kAXxuYyDOOgnM=", "properties": {"@spider": "usps_collection_boxes", "addr:city": "NEW HAVEN", "addr:country": "US", "addr:full": "1100 CHAPEL", "addr:postcode": "06511", "addr:state": "CT", "brand": "USPS", "collection_times": "Mo-Fr 14:15; Sa 12:30", "name": "USPS COLLECTION BOX - BLUE BOX", "note": "ON 12/24 AND 12/31, THIS BOX MAY BE COLLECTED AS EARLY AS 12 NOON.", "ref": "0651100038"}, "type": "Feature"}
{"geometry": {"coordinates": [-72.9287344, 41.307176], "type": "Point"}, "id": "jmBSUkuHdTLMXY8wUrOs_ydw6sI=", "properties": {"@spider": "usps_collection_boxes", "addr:city": "NEW HAVEN", "addr:country": "US", "addr:full": "280 COLLEGE ST", "addr:postcode": "06511", "addr:state": "CT", "brand": "USPS", "collection_times": "Mo-Sa 11:30", "name": "USPS COLLECTION BOX - BLUE BOX", "ref": "0651100040"}, "type": "Feature"}
{"geometry": {"coordinates": [-72.9340405531, 41.302995274], "type": "Point"}, "id": "MMoVbFch6jmrMwuACLVvY4ZUeGg=", "properties": {"@spider": "usps_collection_boxes", "addr:city": "NEW HAVEN", "addr:country": "US", "addr:full": "333 CEDAR ST", "addr:postcode": "06511", "addr:state": "CT", "brand": "USPS", "collection_times": "Mo-Fr 15:00; Sa 11:30", "name": "USPS COLLECTION BOX - BLUE BOX", "note": "ON 12/24 AND 12/31, THIS BOX MAY BE COLLECTED AS EARLY AS 12 NOON.", "ref": "0651100041"}, "type": "Feature"}
{"geometry": {"coordinates": [-72.9230147, 41.314852], "type": "Point"}, "id": "JrIUF7ZZ8sdTfs5hofwbixxqyJ0=", "properties": {"@spider": "usps_collection_boxes", "addr:city": "NEW HAVEN", "addr:country": "US", "addr:full": "43 HILLHOUSE AVE", "addr:postcode": "06511", "addr:state": "CT", "brand": "USPS", "collection_times": "Mo-Fr 13:00", "name": "USPS COLLECTION BOX - BLUE BOX", "note": "ON 12/24 AND 12/31, THIS BOX MAY BE COLLECTED AS EARLY AS 12 NOON.", "ref": "0651100052"}, "type": "Feature"}
{"geometry": {"coordinates": [-72.9427609, 41.316678], "type": "Point"}, "id": "WXMTTMBy31p8_aTTJdtB0ymfHYw=", "properties": {"@spider": "usps_collection_boxes", "addr:city": "NEW HAVEN", "addr:country": "US", "addr:full": "296 WHALLEY AVE", "addr:postcode": "06511", "addr:state": "CT", "brand": "USPS", "collection_times": "Mo-Sa 11:00", "name": "USPS COLLECTION BOX - BLUE BOX", "ref": "0651100054"}, "type": "Feature"}
{"geometry": {"coordinates": [-72.930435543, 41.304856659], "type": "Point"}, "id": "4ngEA4L8VjU4kmIbTzyO4DV8RYA=", "properties": {"@spider": "usps_collection_boxes", "addr:city": "NEW HAVEN", "addr:country": "US", "addr:full": "135 COLLEGE ST", "addr:postcode": "06511", "addr:state": "CT", "brand": "USPS", "collection_times": "Mo-Fr 14:00", "name": "USPS COLLECTION BOX - BLUE BOX", "note": "ON 12/24 AND 12/31, THIS BOX MAY BE COLLECTED AS EARLY AS 12 NOON.", "ref": "0651100057"}, "type": "Feature"}
{"geometry": {"coordinates": [-72.9334277, 41.306286], "type": "Point"}, "id": "bxisqR6jqec4WSwk2a7X-ufG89A=", "properties": {"@spider": "usps_collection_boxes", "addr:city": "NEW HAVEN", "addr:country": "US", "addr:full": "370 GEORGE ST", "addr:postcode": "06511", "addr:state": "CT", "brand": "USPS", "collection_times": "Mo-Fr 14:00", "name": "USPS COLLECTION BOX - BLUE BOX", "note": "ON 12/24 AND 12/31, THIS BOX MAY BE COLLECTED AS EARLY AS 12 NOON.", "ref": "0651100061"}, "type": "Feature"}
{"geometry": {"coordinates": [-72.9353142, 41.332632], "type": "Point"}, "id": "dLnJ-A-dGq-3nsWvTBm-FtGpsZc=", "properties": {"@spider": "usps_collection_boxes", "addr:city": "NEW HAVEN", "addr:country": "US", "addr:full": "714 DIXWELL AVE", "addr:postcode": "06511", "addr:state": "CT", "brand": "USPS", "collection_times": "Mo-Fr 14:00; Sa 12:00", "name": "USPS COLLECTION BOX - BLUE BOX", "note": "ON 12/24 AND 12/31, THIS BOX MAY BE COLLECTED AS EARLY AS 12 NOON.", "ref": "0651100067"}, "type": "Feature"}
{"geometry": {"coordinates": [-72.9183888, 41.32091], "type": "Point"}, "id": "RSZlYebrj0Kdv_L7z-c6TF9aY38=", "properties": {"@spider": "usps_collection_boxes", "addr:city": "NEW HAVEN", "addr:country": "US", "addr:full": "374 WHITNEY AVE", "addr:postcode": "06511", "addr:state": "CT", "brand": "USPS", "collection_times": "Mo-Fr 12:45; Sa 11:45", "name": "USPS COLLECTION BOX - BLUE BOX", "note": "ON 12/24 AND 12/31, THIS BOX MAY BE COLLECTED AS EARLY AS 12 NOON.", "ref": "0651100070"}, "type": "Feature"}
{"geometry": {"coordinates": [-72.9178715, 41.321518], "type": "Point"}, "id": "bLCXGOOk0GPML6lcjMgL7zfnBOo=", "properties": {"@spider": "usps_collection_boxes", "addr:city": "NEW HAVEN", "addr:country": "US", "addr:full": "401 WHITNEY AVE", "addr:postcode": "06511", "addr:state": "CT", "brand": "USPS", "collection_times": "Mo-Fr 10:00", "name": "USPS COLLECTION BOX - BLUE BOX", "ref": "0651100071"}, "type": "Feature"}
{"geometry": {"coordinates": [-72.9171199, 41.323085], "type": "Point"}, "id": "QKEWntrhtiRJeRq2KJi_CvF8kjg=", "properties": {"@spider": "usps_collection_boxes", "addr:city": "NEW HAVEN", "addr:country": "US", "addr:full": "463 WHITNEY AVE", "addr:postcode": "06511", "addr:state": "CT", "brand": "USPS", "collection_times": "Mo-Fr 12:00", "name": "USPS COLLECTION BOX - BLUE BOX", "ref": "0651100072"}, "type": "Feature"}
{"geometry": {"coordinates": [-72.9261066, 41.306347], "type": "Point"}, "id": "FODJsc5zjJwwkXJORZlMpMD48OA=", "properties": {"@spider": "usps_collection_boxes", "addr:city": "NEW HAVEN", "addr:country": "US", "addr:full": "900 CHAPEL ST", "addr:postcode": "06511", "addr:state": "CT", "brand": "USPS", "collection_times": "Mo-Sa 13:00", "name": "USPS COLLECTION BOX - BLUE BOX", "note": "ON 12/24 AND 12/31, THIS BOX MAY BE COLLECTED AS EARLY AS 12 NOON.", "ref": "0651100076"}, "type": "Feature"}
{"geometry": {"coordinates": [-72.9068959, 41.320219], "type": "Point"}, "id": "cB7bxiTjltdz4G5FzURqkX3S7TY=", "properties": {"@spider": "usps_collection_boxes", "addr:city": "NEW HAVEN", "addr:country": "US", "addr:full": "85 WILLOW ST", "addr:postcode": "06511", "addr:state": "CT", "brand": "USPS", "collection_times": "Mo-Fr 11:00", "name": "USPS COLLECTION BOX - BLUE BOX", "ref": "0651100078"}, "type": "Feature"}
{"geometry": {"coordinates": [-72.9116823, 41.31811], "type": "Point"}, "id": "aMtyojAigUiLTsthuyBDuKTUEdw=", "properties": {"@spider": "usps_collection_boxes", "addr:city": "NEW HAVEN", "addr:country": "US", "addr:full": "40 FOSTER ST", "addr:postcode": "06511", "addr:state": "CT", "brand": "USPS", "collection_times": "Mo-Fr 12:15; Sa 14:00", "name": "USPS COLLECTION BOX - BLUE BOX", "note": "ON 12/24 AND 12/31, THIS BOX MAY BE COLLECTED AS EARLY AS 12 NOON.", "ref": "0651100079"}, "type": "Feature"}
{"geometry": {"coordinates": [-72.9240133, 41.317216], "type": "Point"}, "id": "ZVj_BAo6pM4dWCP98T08NNQYXIs=", "properties": {"@spider": "usps_collection_boxes", "addr:city": "NEW HAVEN", "addr:country": "US", "addr:full": "205 PROSPECT ST", "addr:postcode": "06511", "addr:state": "CT", "brand": "USPS", "collection_times": "Mo-Fr 13:00", "name": "USPS COLLECTION BOX - BLUE BOX", "note": "ON 12/24 AND 12/31, THIS BOX MAY BE COLLECTED AS EARLY AS 12 NOON.", "ref": "0651100087"}, "type": "Feature"}
{"geometry": {"coordinates": [-72.928783329, 41.304250079], "type": "Point"}, "id": "JQoOiSwmFlUx6MGwYkhjdYnlPUo=", "properties": {"@spider": "usps_collection_boxes", "addr:city": "NEW HAVEN", "addr:country": "US", "addr:full": "60 TEMPLE ST", "addr:postcode": "06511", "addr:state": "CT", "brand": "USPS", "collection_times": "Mo-Fr 13:00; Sa 12:00", "name": "USPS COLLECTION BOX - BLUE BOX", "note": "ON 12/24 AND 12/31, THIS BOX MAY BE COLLECTED AS EARLY AS 12 NOON.", "ref": "0651100088"}, "type": "Feature"}
{"geometry": {"coordinates": [-72.9520557, 41.318414], "type": "Point"}, "id": "YiqOZa2vjqy7PPr0NSZGPYhjkOM=", "properties": {"@spider": "usps_collection_boxes", "addr:city": "NEW HAVEN", "addr:country": "US", "addr:full": "923 ELM ST", "addr:postcode": "06511", "addr:state": "CT", "brand": "USPS", "collection_times": "Mo-Fr 12:30; Sa 12:00", "name": "USPS COLLECTION BOX - BLUE BOX", "note": "ON 12/24 AND 12/31, THIS BOX MAY BE COLLECTED AS EARLY AS 12 NOON.", "ref": "0651100091"}, "type": "Feature"}
{"geometry": {"coordinates": [-72.9216246, 41.313452], "type": "Point"}, "id": "axRLTg9t1oNASWkSQmHom-eDq6Y=", "properties": {"@spider": "usps_collection_boxes", "addr:city": "NEW HAVEN", "addr:country": "US", "addr:full": "101 WHITNEY AVE", "addr:postcode": "06511", "addr:state": "CT", "brand": "USPS", "collection_times": "Mo-Sa 11:00", "name": "USPS COLLECTION BOX - BLUE BOX", "ref": "0651100098"}, "type": "Feature"}
{"geometry": {"coordinates": [-72.9223894, 41.313215], "type": "Point"}, "id": "2MQJczdDDr8JTwFF3Fr_drs7LuM=", "properties": {"@spider": "usps_collection_boxes", "addr:city": "NEW HAVEN", "addr:country": "US", "addr:full": "80 TRUMBULL ST", "addr:postcode": "06511", "addr:state": "CT", "brand": "USPS", "collection_times": "Mo-Sa 12:00", "name": "USPS COLLECTION BOX - BLUE BOX", "ref": "0651100101"}, "type": "Feature"}
{"geometry": {"coordinates": [-72.9302854, 41.310885], "type": "Point"}, "id": "4RNZU_fPGZs_0xWkyvHFR5Je9E4=", "properties": {"@spider": "usps_collection_boxes", "addr:city": "NEW HAVEN", "addr:country": "US", "addr:full": "270 ELM ST", "addr:postcode": "06511", "addr:state": "CT", "brand": "USPS", "collection_times": "Mo-Fr 12:30", "name": "USPS COLLECTION BOX - BLUE BOX", "note": "ON 12/24 AND 12/31, THIS BOX MAY BE COLLECTED AS EARLY AS 12 NOON.", "ref": "0651100107"}, "type": "Feature"}
{"geometry": {"coordinates": [-72.910732018, 41.30839998], "type": "Point"}, "id": "2PHqeV4w6lCp1ruBwpgT96kXFfs=", "properties": {"@spider": "usps_collection_boxes", "addr:city": "NEW HAVEN", "addr:country": "US", "addr:full": "580 GRAND AVE", "addr:postcode": "06511", "addr:state": "CT", "brand": "USPS", "collection_times": "Mo-Fr 11:00", "name": "USPS COLLECTION BOX - BLUE BOX", "ref": "0651100109"}, "type": "Feature"}
{"geometry": {"coordinates": [-72.922027035, 41.328272711], "type": "Point"}, "id": "hhBf1c3YPB1p8sEQRu_TI_1IuhQ=", "properties": {"@spider": "usps_collection_boxes", "addr:city": "NEW HAVEN", "addr:country": "US", "addr:full": "600 PROSPECT ST", "addr:postcode": "06511", "addr:state": "CT", "brand": "USPS", "collection_times": "Mo-Fr 13:15; Sa 11:45", "name": "USPS COLLECTION BOX - BLUE BOX", "note": "ON 12/24 AND 12/31, THIS BOX MAY BE COLLECTED AS EARLY AS 12 NOON.", "ref": "0651100119"}, "type": "Feature"}
{"geometry": {"coordinates": [-72.9353474, 41.309301], "type": "Point"}, "id": "Os21U66Y2J-c-iGdl9kdwgk0uzo=", "properties": {"@spider": "usps_collection_boxes", "addr:city": "NEW HAVEN", "addr:country": "US", "addr:full": "1227 CHAPEL ST", "addr:postcode": "06511", "addr:state": "CT", "brand": "USPS", "collection_times": "Mo-Fr 11:00; Sa 12:00", "name": "USPS COLLECTION BOX - BLUE BOX", "ref": "0651100123"}, "type": "Feature"}
{"geometry": {"coordinates": [-72.9345963, 41.310522], "type": "Point"}, "id": "zr5lOEMebk2J0pyV3_vbWBZ45ME=", "properties": {"@spider": "usps_collection_boxes", "addr:city": "NEW HAVEN", "addr:country": "US", "addr:full": "89 HOWE ST", "addr:postcode": "06511", "addr:state": "CT", "brand": "USPS", "collection_times": "Mo-Fr 11:00; Sa 12:30", "name": "USPS COLLECTION BOX - BLUE BOX", "note": "ON 12/24 AND 12/31, THIS BOX MAY BE COLLECTED AS EARLY AS 12 NOON.", "ref": "0651100124"}, "type": "Feature"}
{"geometry": {"coordinates": [-72.950556587, 41.310613151], "type": "Point"}, "id": "HuvKxLt1j3mpTrM1z5UaN3RWgCo=", "properties": {"@spider": "usps_collection_boxes", "addr:city": "NEW HAVEN", "addr:country": "US", "addr:full": "135 DERBY AVE", "addr:postcode": "06511", "addr:state": "CT", "brand": "USPS", "collection_times": "Mo-Fr 12:15; Sa 13:00", "name": "USPS COLLECTION BOX - BLUE BOX", "note": "ON 12/24 AND 12/31, THIS BOX MAY BE COLLECTED AS EARLY AS 12 NOON.", "ref": "0651100125"}, "type": "Feature"}
{"geometry": {"coordinates": [-72.9184699, 41.313272], "type": "Point"}, "id": "UIsdJMmwYtmpxX1BGJsUiTgI45A=", "properties": {"@spider": "usps_collection_boxes", "addr:city": "NEW HAVEN", "addr:country": "US", "addr:full": "450 ORANGE ST", "addr:postcode": "06511", "addr:state": "CT", "brand": "USPS", "collection_times": "Mo-Fr 12:30; Sa 13:00", "name": "USPS COLLECTION BOX - BLUE BOX", "note": "ON 12/24 AND 12/31, THIS BOX MAY BE COLLECTED AS EARLY AS 12 NOON.", "ref": "0651100129"}, "type": "Feature"}
{"geometry": {"coordinates": [-72.919533, 41.311765], "type": "Point"}, "id": "yk7fW7cDKAhbvyKpRb1tczl2OCg=", "properties": {"@spider": "usps_collection_boxes", "addr:city": "NEW HAVEN", "addr:country": "US", "addr:full": "418 ORANGE ST", "addr:postcode": "06511", "addr:state": "CT", "brand": "USPS", "collection_times": "Mo-Fr 10:00", "name": "USPS COLLECTION BOX - BLUE BOX", "ref": "0651100130"}, "type": "Feature"}
{"geometry": {"coordinates": [-72.9253438, 41.304166], "type": "Point"}, "id": "KKwwmcIEbTENJJQjvLAB6t0oeL0=", "properties": {"@spider": "usps_collection_boxes", "addr:city": "NEW HAVEN", "addr:country": "US", "addr:full": "75 CROWN", "addr:postcode": "06511", "addr:state": "CT", "brand": "USPS", "collection_times": "Mo-Sa 11:00", "name": "USPS COLLECTION BOX - BLUE BOX", "ref": "0651100134"}, "type": "Feature"}
{"geometry": {"coordinates": [-72.9340662, 41.319271], "type": "Point"}, "id": "OnthucQORIoEL0DWHgFbT9gfcXM=", "properties": {"@spider": "usps_collection_boxes", "addr:city": "NEW HAVEN", "addr:country": "US", "addr:full": "226 DIXWELL AVE", "addr:postcode": "06511", "addr:state": "CT", "brand": "USPS", "collection_times": "Mo-Fr 14:00; Sa 12:00", "name": "USPS COLLECTION BOX - BLUE BOX", "note": "ON 12/24 AND 12/31, THIS BOX MAY BE COLLECTED AS EARLY AS 12 NOON.", "ref": "0651100138"}, "type": "Feature"}
{"geometry": {"coordinates": [-72.9261168, 41.310834], "type": "Point"}, "id": "94X6uz1EyEL7oOBTDhmFl0QEX5o=", "properties": {"@spider": "usps_collection_boxes", "addr:city": "NEW HAVEN", "addr:country": "US", "addr:full": "480 COLLEGE ST", "addr:postcode": "06511", "addr:state": "CT", "brand": "USPS", "collection_times": "Mo-Fr 14:00", "name": "USPS COLLECTION BOX - BLUE BOX", "note": "ON 12/24 AND 12/31, THIS BOX MAY BE COLLECTED AS EARLY AS 12 NOON.", "ref": "0651100142"}, "type": "Feature"}
{"geometry": {"coordinates": [-72.929042137, 41.312128735], "type": "Point"}, "id": "lL4Slb0110tjx5tlTWDMD4MTn5s=", "properties": {"@spider": "usps_collection_boxes", "addr:city": "NEW HAVEN", "addr:country": "US", "addr:full": "320 YORK ST", "addr:postcode": "06511", "addr:state": "CT", "brand": "USPS", "collection_times": "Mo-Fr 11:00", "name": "USPS COLLECTION BOX - BLUE BOX", "ref": "0651100144"}, "type": "Feature"}
{"geometry": {"coordinates": [-72.933868, 41.31203], "type": "Point"}, "id": "fHgyy-PLZByHpLg0Bz60rmTQs9o=", "properties": {"@spider": "usps_collection_boxes", "addr:city": "NEW HAVEN", "addr:country": "US", "addr:full": "400 ELM ST", "addr:postcode": "06511", "addr:state": "CT", "brand": "USPS", "collection_times": "Mo-Fr 11:00", "name": "USPS COLLECTION BOX - BLUE BOX", "ref": "0651100146"}, "type": "Feature"}
{"geometry": {"coordinates": [-72.921158, 41.294132], "type": "Point"}, "id": "c20Mf-7P96Ea5yDCEnLJNgmcFxE=", "properties": {"@spider": "usps_collection_boxes", "addr:city": "NEW HAVEN", "addr:country": "US", "addr:full": "250 SARGENT DR", "addr:postcode": "06511", "addr:state": "CT", "brand": "USPS", "collection_times": "Mo-Sa 11:00", "name": "USPS COLLECTION BOX - BLUE BOX", "ref": "0651100147"}, "type": "Feature"}
{"geometry": {"coordinates": [-72.9309263, 41.311611], "type": "Point"}, "id": "5_pMvRbKcHZseSpsFHxlBPS_V2A=", "properties": {"@spider": "usps_collection_boxes", "addr:city": "NEW HAVEN", "addr:country": "US", "addr:full": "59 BROADWAY", "addr:postcode": "06511", "addr:state": "CT", "brand": "USPS", "collection_times": "Mo-Sa 12:15", "name": "USPS COLLECTION BOX - BLUE BOX", "note": "ON 12/24 AND 12/31, THIS BOX MAY BE COLLECTED AS EARLY AS 12 NOON.", "ref": "0651100148"}, "type": "Feature"}
{"geometry": {"coordinates": [-72.933610004, 41.324830019], "type": "Point"}, "id": "OtUF8F4THcmfh56Ai_OOBCXg4bw=", "properties": {"@spider": "usps_collection_boxes", "addr:city": "NEW HAVEN", "addr:country": "US", "addr:full": "91 SHELTON AVE", "addr:postcode": "06511", "addr:state": "CT", "brand": "USPS", "collection_times": "Mo-Fr 09:30", "name": "USPS COLLECTION BOX - BLUE BOX", "ref": "0651100149"}, "type": "Feature"}
{"geometry": {"coordinates": [-72.9458904, 41.317823], "type": "Point"}, "id": "Xrfise__qPQaK2idWKGViYggEIA=", "properties": {"@spider": "usps_collection_boxes", "addr:city": "NEW HAVEN", "addr:country": "US", "addr:full": "386 WHALLEY AVE", "addr:postcode": "06511", "addr:state": "CT", "brand": "USPS", "collection_times": "Mo-Fr 11:00", "name": "USPS COLLECTION BOX - BLUE BOX", "ref": "0651100155"}, "type": "Feature"}
{"geometry": {"coordinates": [-72.9232737, 41.323592], "type": "Point"}, "id": "BfwmuNyeOtNSKJkg1xBSNm2KpEg=", "properties": {"@spider": "usps_collection_boxes", "addr:city": "NEW HAVEN", "addr:country": "US", "addr:full": "409 PROSPECT ST", "addr:postcode": "06511", "addr:state": "CT", "brand": "USPS", "collection_times": "Mo-Fr 13:00; Sa 11:45", "name": "USPS COLLECTION BOX - BLUE BOX", "note": "ON 12/24 AND 12/31, THIS BOX MAY BE COLLECTED AS EARLY AS 12 NOON.", "ref": "0651100156"}, "type": "Feature"}
{"geometry": {"coordinates": [-72.9179033, 41.326992], "type": "Point"}, "id": "C5wrai0AzPkl_-JNFQ26VZXhkHQ=", "properties": {"@spider": "usps_collection_boxes", "addr:city": "NEW HAVEN", "addr:country": "US", "addr:full": "403 SAINT RONAN ST", "addr:postcode": "06511", "addr:state": "CT", "brand": "USPS", "collection_times": "Mo-Sa 09:30", "name": "USPS COLLECTION BOX - BLUE BOX", "ref": "0651100164"}, "type": "Feature"}
{"geometry": {"coordinates": [-72.9209036, 41.315081], "type": "Point"}, "id": "cBEueVJvGPHe5PrQLWCQnejA3-0=", "properties": {"@spider": "usps_collection_boxes", "addr:city": "NEW HAVEN", "addr:country": "US", "addr:full": "155 WHITNEY AVE", "addr:postcode": "06511", "addr:state": "CT", "brand": "USPS", "collection_times": "Mo-Fr 10:00", "name": "USPS COLLECTION BOX - BLUE BOX", "ref": "0651100167"}, "type": "Feature"}
{"geometry": {"coordinates": [-72.9203383, 41.316258], "type": "Point"}, "id": "9-95_3Chacu5HwFzJFOB666eA_s=", "properties": {"@spider": "usps_collection_boxes", "addr:city": "NEW HAVEN", "addr:country": "US", "addr:full": "205 WHITNEY AVE", "addr:postcode": "06511", "addr:state": "CT", "brand": "USPS", "collection_times": "Mo-Fr 10:00", "name": "USPS COLLECTION BOX - BLUE BOX", "ref": "0651100169"}, "type": "Feature"}
{"geometry": {"coordinates": [-72.9116344, 41.303551], "type": "Point"}, "id": "80WFHFcKZlig6vdieU3q9GSCTYk=", "properties": {"@spider": "usps_collection_boxes", "addr:city": "NEW HAVEN", "addr:country": "US", "addr:full": "414 CHAPEL ST", "addr:postcode": "06511", "addr:state": "CT", "brand": "USPS", "collection_times": "Mo-Fr 13:00; Sa 11:00", "name": "USPS COLLECTION BOX - BLUE BOX", "note": "ON 12/24 AND 12/31, THIS BOX MAY BE COLLECTED AS EARLY AS 12 NOON.", "ref": "0651100175"}, "type": "Feature"}
{"geometry": {"coordinates": [-72.919042, 41.318338], "type": "Point"}, "id": "QfxHR2AC7zw0y0NLJASOIxWrX5M=", "properties": {"@spider": "usps_collection_boxes", "addr:city": "NEW HAVEN", "addr:country": "US", "addr:full": "291 WHITNEY AVE", "addr:postcode": "06511", "addr:state": "CT", "brand": "USPS", "collection_times": "Mo-Fr 10:30; Sa 11:30", "name": "USPS COLLECTION BOX - BLUE BOX", "ref": "0651100180"}, "type": "Feature"}
{"geometry": {"coordinates": [-72.9160658, 41.316102], "type": "Point"}, "id": "gwsdXC3fHpmUFq9C6ppEC9nq1BQ=", "properties": {"@spider": "usps_collection_boxes", "addr:city": "NEW HAVEN", "addr:country": "US", "addr:full": "583 ORANGE ST", "addr:postcode": "06511", "addr:state": "CT", "brand": "USPS", "collection_times": "Mo-Fr 12:15; Sa 13:00", "name": "USPS COLLECTION BOX - BLUE BOX", "note": "ON 12/24 AND 12/31, THIS BOX MAY BE COLLECTED AS EARLY AS 12 NOON.", "ref": "0651100184"}, "type": "Feature"}
{"geometry": {"coordinates": [-72.9132551, 41.319943], "type": "Point"}, "id": "JbhctVLN8fBUl45_RyygIUn7mno=", "properties": {"@spider": "usps_collection_boxes", "addr:city": "NEW HAVEN", "addr:country": "US", "addr:full": "721 ORANGE ST", "addr:postcode": "06511", "addr:state": "CT", "brand": "USPS", "collection_times": "Mo-Fr 12:15", "name": "USPS COLLECTION BOX - BLUE BOX", "note": "ON 12/24 AND 12/31, THIS BOX MAY BE COLLECTED AS EARLY AS 12 NOON.", "ref": "0651100187"}, "type": "Feature"}
{"geometry": {"coordinates": [-72.9122008, 41.321254], "type": "Point"}, "id": "jir5lyO802Gc57JEKwZKBl23YW4=", "properties": {"@spider": "usps_collection_boxes", "addr:city": "NEW HAVEN", "addr:country": "US", "addr:full": "765 ORANGE ST", "addr:postcode": "06511", "addr:state": "CT", "brand": "USPS", "collection_times": "Mo-Sa 10:30", "name": "USPS COLLECTION BOX - BLUE BOX", "ref": "0651100188"}, "type": "Feature"}
{"geometry": {"coordinates": [-72.9167849, 41.319023], "type": "Point"}, "id": "dErMJ4PMdl5Qccl7wHeuI7F15XY=", "properties": {"@spider": "usps_collection_boxes", "addr:city": "NEW HAVEN", "addr:country": "US", "addr:full": "2 LIVINGSTON ST", "addr:postcode": "06511", "addr:state": "CT", "brand": "USPS", "collection_times": "Mo-Fr 12:30", "name": "USPS COLLECTION BOX - BLUE BOX", "note": "ON 12/24 AND 12/31, THIS BOX MAY BE COLLECTED AS EARLY AS 12 NOON.", "ref": "0651100191"}, "type": "Feature"}
{"geometry": {"coordinates": [-72.9234064, 41.306436], "type": "Point"}, "id": "FSbwIf1ym_abLRmVPJFhYUrxzDg=", "properties": {"@spider": "usps_collection_boxes", "addr:city": "NEW HAVEN", "addr:country": "US", "addr:full": "180 ORANGE ST", "addr:postcode": "06511", "addr:state": "CT", "brand": "USPS", "collection_times": "Mo-Sa 12:30", "name": "USPS COLLECTION BOX - BLUE BOX", "note": "ON 12/24 AND 12/31, THIS BOX MAY BE COLLECTED AS EARLY AS 12 NOON.", "ref": "0651100193"}, "type": "Feature"}
{"geometry": {"coordinates": [-72.9173379, 41.314571], "type": "Point"}, "id": "1PYj06amiQNF-JhW8Q75iHV5_UA=", "properties": {"@spider": "usps_collection_boxes", "addr:city": "NEW HAVEN", "addr:country": "US", "addr:full": "519 ORANGE ST", "addr:postcode": "06511", "addr:state": "CT", "brand": "USPS", "collection_times": "Mo-Fr 12:15", "name": "USPS COLLECTION BOX - BLUE BOX", "note": "ON 12/24 AND 12/31, THIS BOX MAY BE COLLECTED AS EARLY AS 12 NOON.", "ref": "0651100196"}, "type": "Feature"}
{"geometry": {"coordinates": [-72.931374, 41.315605], "type": "Point"}, "id": "4q0GEcbxd-c0vyPdz7p-D8-JF-k=", "properties": {"@spider": "usps_collection_boxes", "addr:city": "NEW HAVEN", "addr:country": "US", "addr:full": "114 BRISTOL ST", "addr:postcode": "06511", "addr:state": "CT", "brand": "USPS", "collection_times": "Mo-Sa 10:00", "name": "USPS COLLECTION BOX - BLUE BOX", "ref": "0651100213"}, "type": "Feature"}
{"geometry": {"coordinates": [-72.92017, 41.310861], "type": "Point"}, "id": "j8JcOt6QcdwNJRd2DP05uaeDQcU=", "properties": {"@spider": "usps_collection_boxes", "addr:city": "NEW HAVEN", "addr:country": "US", "addr:full": "180 ORANGE", "addr:postcode": "06511", "addr:state": "CT", "brand": "USPS", "collection_times": "Mo-Fr 17:00; Sa 14:00", "name": "USPS COLLECTION BOX - EXPRESS", "note": "ON 12/24 AND 12/31, THIS BOX MAY BE COLLECTED AS EARLY AS 12 NOON.", "ref": "0651100233"}, "type": "Feature"}
{"geometry": {"coordinates": [-72.928708, 41.310184], "type": "Point"}, "id": "w2qfmRkO7VM93OmIrOgQyCc-c88=", "properties": {"@spider": "usps_collection_boxes", "addr:city": "NEW HAVEN", "addr:country": "US", "addr:full": "206 ELM ST", "addr:postcode": "06511", "addr:state": "CT", "brand": "USPS", "collection_times": "Mo-Fr 17:00; Sa 13:15", "name": "USPS COLLECTION BOX - EXPRESS", "note": "ON 12/24 AND 12/31, THIS BOX MAY BE COLLECTED AS EARLY AS 12 NOON.", "ref": "0651100234"}, "type": "Feature"}
{"geometry": {"coordinates": [-72.9239495, 41.308556], "type": "Point"}, "id": "tiRckecs5Tmv-isLRja6-kkLqcE=", "properties": {"@spider": "usps_collection_boxes", "addr:city": "NEW HAVEN", "addr:country": "US", "addr:full": "205 CHURCH ST", "addr:postcode": "06511", "addr:state": "CT", "brand": "USPS", "collection_times": "Mo-Fr 14:00", "name": "USPS COLLECTION BOX - BLUE BOX", "note": "ON 12/24 AND 12/31, THIS BOX MAY BE COLLECTED AS EARLY AS 12 NOON.", "ref": "0651100237"}, "type": "Feature"}
{"geometry": {"coordinates": [-72.9232875, 41.309513], "type": "Point"}, "id": "azWdR0Hq1DxfonjYQxX6CvDCQtA=", "properties": {"@spider": "usps_collection_boxes", "addr:city": "NEW HAVEN", "addr:country": "US", "addr:full": "235 CHURCH ST", "addr:postcode": "06511", "addr:state": "CT", "brand": "USPS", "collection_times": "Mo-Fr 15:30", "name": "USPS COLLECTION BOX - BLUE BOX", "note": "ON 12/24 AND 12/31, THIS BOX MAY BE COLLECTED AS EARLY AS 12 NOON.", "ref": "0651100241"}, "type": "Feature"}
{"geometry": {"coordinates": [-72.922033, 41.312379], "type": "Point"}, "id": "adQK5dPkf87vR37-sEcm5hKuyWY=", "properties": {"@spider": "usps_collection_boxes", "addr:city": "NEW HAVEN", "addr:country": "US", "addr:full": "67 WHITNEY", "addr:postcode": "06511", "addr:state": "CT", "brand": "USPS", "collection_times": "Mo-Fr 12:15; Sa 11:15", "name": "USPS COLLECTION BOX - BLUE BOX", "note": "ON 12/24 AND 12/31, THIS BOX MAY BE COLLECTED AS EARLY AS 12 NOON.", "ref": "0651100246"}, "type": "Feature"}
{"geometry": {"coordinates": [-72.928708, 41.310184], "type": "Point"}, "id": "53ebBAg18E_jr5AXAi15-v4FnjA=", "properties": {"@spider": "usps_collection_boxes", "addr:city": "NEW HAVEN", "addr:country": "US", "addr:full": "206 ELM ST", "addr:postcode": "06511", "addr:state": "CT", "brand": "USPS", "collection_times": "Mo-Fr 15:00; Sa 12:00", "name": "USPS COLLECTION BOX - PO LOBBY", "note": "ON 12/24 AND 12/31, THIS BOX MAY BE COLLECTED AS EARLY AS 12 NOON.", "ref": "0651100253"}, "type": "Feature"}
{"geometry": {"coordinates": [-72.922466271, 41.310839252], "type": "Point"}, "id": "DORD0qJy_VNsnTkSfbZV16Ux7pM=", "properties": {"@spider": "usps_collection_boxes", "addr:city": "NEW HAVEN", "addr:country": "US", "addr:full": "2 WHITNEY AVE", "addr:postcode": "06511", "addr:state": "CT", "brand": "USPS", "collection_times": "Mo-Fr 12:15; Sa 11:15", "name": "USPS COLLECTION BOX - BLUE BOX", "note": "ON 12/24 AND 12/31, THIS BOX MAY BE COLLECTED AS EARLY AS 12 NOON.", "ref": "0651100262"}, "type": "Feature"}
{"geometry": {"coordinates": [-72.9232607, 41.309534], "type": "Point"}, "id": "Lb-Ec5hqlA3KnRCE3JbO2WQFV0s=", "properties": {"@spider": "usps_collection_boxes", "addr:city": "NEW HAVEN", "addr:country": "US", "addr:full": "234 CHURCH ST", "addr:postcode": "06511", "addr:state": "CT", "brand": "USPS", "collection_times": "Mo-Fr 16:00", "name": "USPS COLLECTION BOX - BLUE BOX", "note": "ON 12/24 AND 12/31, THIS BOX MAY BE COLLECTED AS EARLY AS 12 NOON.", "ref": "0651100263"}, "type": "Feature"}
{"geometry": {"coordinates": [-72.9222868, 41.308258], "type": "Point"}, "id": "tr5RyWICLX9e-mierLTDhOgNITQ=", "properties": {"@spider": "usps_collection_boxes", "addr:city": "NEW HAVEN", "addr:country": "US", "addr:full": "270 ORANGE ST", "addr:postcode": "06511", "addr:state": "CT", "brand": "USPS", "collection_times": "Mo-Fr 12:30", "name": "USPS COLLECTION BOX - BLUE BOX", "note": "ON 12/24 AND 12/31, THIS BOX MAY BE COLLECTED AS EARLY AS 12 NOON.", "ref": "0651100264"}, "type": "Feature"}
{"geometry": {"coordinates": [-72.9177915, 41.310493], "type": "Point"}, "id": "io8XsJR1I_YqEU-15I56NiAgsiQ=", "properties": {"@spider": "usps_collection_boxes", "addr:city": "NEW HAVEN", "addr:country": "US", "addr:full": "700 STATE ST", "addr:postcode": "06511", "addr:state": "CT", "brand": "USPS", "collection_times": "Mo-Fr 15:30", "name": "USPS COLLECTION BOX - BLUE BOX", "note": "ON 12/24 AND 12/31, THIS BOX MAY BE COLLECTED AS EARLY AS 12 NOON.", "ref": "0651100273"}, "type": "Feature"}
{"geometry": {"coordinates": [-72.9254705, 41.311598], "type": "Point"}, "id": "T3U0kr_pLVtX2073OyOm0HWVXO0=", "properties": {"@spider": "usps_collection_boxes", "addr:city": "NEW HAVEN", "addr:country": "US", "addr:full": "509 COLLEGE ST", "addr:postcode": "06511", "addr:state": "CT", "brand": "USPS", "collection_times": "Mo-Fr 16:30", "name": "USPS COLLECTION BOX - BLUE BOX", "note": "ON 12/24 AND 12/31, THIS BOX MAY BE COLLECTED AS EARLY AS 12 NOON.", "ref": "0651100277"}, "type": "Feature"}
{"geometry": {"coordinates": [-72.9416099, 41.310698], "type": "Point"}, "id": "1E7Gvz3fXoq2fTJpDTMOKIV16GQ=", "properties": {"@spider": "usps_collection_boxes", "addr:city": "NEW HAVEN", "addr:country": "US", "addr:full": "1395 CHAPEL ST", "addr:postcode": "06511", "addr:state": "CT", "brand": "USPS", "collection_times": "Mo-Fr 11:45", "name": "USPS COLLECTION BOX - BLUE BOX", "ref": "0651100279"}, "type": "Feature"}
{"geometry": {"coordinates": [-72.9358578, 41.314428], "type": "Point"}, "id": "80kntGeaQyzgaSlnpwYGXMbJdMM=", "properties": {"@spider": "usps_collection_boxes", "addr:city": "NEW HAVEN", "addr:country": "US", "addr:full": "101 WHALLEY AVE", "addr:postcode": "06511", "addr:state": "CT", "brand": "USPS", "collection_times": "Mo-Fr 11:15", "name": "USPS COLLECTION BOX - BLUE BOX", "ref": "0651100280"}, "type": "Feature"}
{"geometry": {"coordinates": [-72.914338, 41.323084], "type": "Point"}, "id": "ErGGU7ZU3cvBPkF2Utylou39kiw=", "properties": {"@spider": "usps_collection_boxes", "addr:city": "NEW HAVEN", "addr:country": "US", "addr:full": "310 WILLOW ST", "addr:postcode": "06511", "addr:state": "CT", "brand": "USPS", "collection_times": "Mo-Fr 10:30", "name": "USPS COLLECTION BOX - BLUE BOX", "ref": "0651100281"}, "type": "Feature"}
{"geometry": {"coordinates": [-72.9274874, 41.324329], "type": "Point"}, "id": "NUwOUBdBW3OXyb4gRdFOxiBdhlE=", "properties": {"@spider": "usps_collection_boxes", "addr:city": "NEW HAVEN", "addr:country": "US", "addr:full": "5 SCIENCE PARK", "addr:postcode": "06511", "addr:state": "CT", "brand": "USPS", "collection_times": "Mo-Fr 10:30", "name": "USPS COLLECTION BOX - BLUE BOX", "ref": "0651100282"}, "type": "Feature"}
{"geometry": {"coordinates": [-72.9514013612, 41.3206460055], "type": "Point"}, "id": "qo62AYD_UmC2zUs8P2BxpIonhWI=", "properties": {"@spider": "usps_collection_boxes", "addr:city": "NEW HAVEN", "addr:country": "US", "addr:full": "560 WHALLEY AVE", "addr:postcode": "06511", "addr:state": "CT", "brand": "USPS", "collection_times": "Mo-Fr 11:30; Sa 13:00", "name": "USPS COLLECTION BOX - BLUE BOX", "note": "ON 12/24 AND 12/31, THIS BOX MAY BE COLLECTED AS EARLY AS 12 NOON.", "ref": "0651100285"}, "type": "Feature"}
{"geometry": {"coordinates": [-72.9222671, 41.308263], "type": "Point"}, "id": "AgHHFQI5b6-cYXzM8AOeRTN5Yq4=", "properties": {"@spider": "usps_collection_boxes", "addr:city": "NEW HAVEN", "addr:country": "US", "addr:full": "270 ORANGE ST", "addr:postcode": "06511", "addr:state": "CT", "brand": "USPS", "collection_times": "Mo-Fr 12:30", "name": "USPS COLLECTION BOX - BLUE BOX", "note": "ON 12/24 AND 12/31, THIS BOX MAY BE COLLECTED AS EARLY AS 12 NOON.", "ref": "0651100286"}, "type": "Feature"}
{"geometry": {"coordinates": [-72.9205640259, 41.2975954928], "type": "Point"}, "id": "oDGJvmtbo49dNFIuRq1etfgtZ3Y=", "properties": {"@spider": "usps_collection_boxes", "addr:city": "NEW HAVEN", "addr:country": "US", "addr:full": "50 BREWERY ST", "addr:postcode": "06511", "addr:state": "CT", "brand": "USPS", "collection_times": "Mo-Fr 17:00; Sa 13:00", "name": "USPS COLLECTION BOX - PO LOBBY", "note": "ON 12/24 AND 12/31, THIS BOX MAY BE COLLECTED AS EARLY AS 12 NOON.", "ref": "0651100287"}, "type": "Feature"}
{"geometry": {"coordinates": [-72.9280686, 41.30539], "type": "Point"}, "id": "DfqQmbDFaK2MdZXvmeE9QGeZ4QQ=", "properties": {"@spider": "usps_collection_boxes", "addr:city": "NEW HAVEN", "addr:country": "US", "addr:full": "124 TEMPLE ST", "addr:postcode": "06511", "addr:state": "CT", "brand": "USPS", "collection_times": "Mo-Fr 11:00", "name": "USPS COLLECTION BOX - BLUE BOX", "ref": "0651100288"}, "type": "Feature"}
{"geometry": {"coordinates": [-72.9204566, 41.319961], "type": "Point"}, "id": "FoKjNCU0G0wk0_jicZXOXfztlzQ=", "properties": {"@spider": "usps_collection_boxes", "addr:city": "NEW HAVEN", "addr:country": "US", "addr:full": "60 SAINT RONAN TER", "addr:postcode": "06511", "addr:state": "CT", "brand": "USPS", "collection_times": "Mo-Fr 09:30", "name": "USPS COLLECTION BOX - BLUE BOX", "ref": "0651100291"}, "type": "Feature"}
{"geometry": {"coordinates": [-72.8980671, 41.320087], "type": "Point"}, "id": "2WorsN5MqPhlJRDjrZgfIxkW8vo=", "properties": {"@spider": "usps_collection_boxes", "addr:city": "NEW HAVEN", "addr:country": "US", "addr:full": "1362 STATE ST", "addr:postcode": "06511", "addr:state": "CT", "brand": "USPS", "collection_times": "Mo-Sa 11:00", "name": "USPS COLLECTION BOX - BLUE BOX", "ref": "0651100293"}, "type": "Feature"}
{"geometry": {"coordinates": [-72.9119165, 41.3143], "type": "Point"}, "id": "-ZzA9gVDXEXG1Aw57OrB8NU0Cck=", "properties": {"@spider": "usps_collection_boxes", "addr:city": "NEW HAVEN", "addr:country": "US", "addr:full": "896 STATE ST", "addr:postcode": "06511", "addr:state": "CT", "brand": "USPS", "collection_times": "Mo-Fr 11:00", "name": "USPS COLLECTION BOX - BLUE BOX", "ref": "0651100294"}, "type": "Feature"}
{"geometry": {"coordinates": [-72.920564026, 41.297595493], "type": "Point"}, "id": "rpaxHGnxJ4LuCISEvJjSfXURhFw=", "properties": {"@spider": "usps_collection_boxes", "addr:city": "NEW HAVEN", "addr:country": "US", "addr:full": "50 BREWERY ST", "addr:postcode": "06511", "addr:state": "CT", "brand": "USPS", "collection_times": "Mo-Fr 17:30; Sa 13:00", "name": "USPS COLLECTION BOX - PO LOBBY", "note": "ON 12/24 AND 12/31, THIS BOX MAY BE COLLECTED AS EARLY AS 12 NOON.", "ref": "0651100298"}, "type": "Feature"}
{"geometry": {"coordinates": [-72.868375973, 41.276479942], "type": "Point"}, "id": "ZjXFxI4TD_KQiHscncT_fxCu2js=", "properties": {"@spider": "usps_collection_boxes", "addr:city": "NEW HAVEN", "addr:country": "US", "addr:full": "175 MAIN ST", "addr:postcode": "06512", "addr:state": "CT", "brand": "USPS", "collection_times": "Mo-Fr 15:00; Sa 12:00", "name": "USPS COLLECTION BOX - BLUE BOX", "note": "ON 12/24 AND 12/31, THIS BOX MAY BE COLLECTED AS EARLY AS 12 NOON.", "ref": "0651200005"}, "type": "Feature"}
{"geometry": {"coordinates": [-72.86842, 41.276462], "type": "Point"}, "id": "KznGEpIKUXB-zrvl0x-0msxqnbM=", "properties": {"@spider": "usps_collection_boxes", "addr:city": "NEW HAVEN", "addr:country": "US", "addr:full": "175 MAIN ST", "addr:postcode": "06512", "addr:state": "CT", "brand": "USPS", "collection_times": "Mo-Fr 15:00; Sa 12:00", "name": "USPS COLLECTION BOX - EXPRESS", "note": "ON 12/24 AND 12/31, THIS BOX MAY BE COLLECTED AS EARLY AS 12 NOON.", "ref": "0651200006"}, "type": "Feature"}
{"geometry": {"coordinates": [-72.894591, 41.280246], "type": "Point"}, "id": "iGARJKurw-_0HWfbdO--OcrcweI=", "properties": {"@spider": "usps_collection_boxes", "addr:city": "NEW HAVEN", "addr:country": "US", "addr:full": "873 TOWNSEND AVE", "addr:postcode": "06512", "addr:state": "CT", "brand": "USPS", "collection_times": "Mo-Fr 12:15", "name": "USPS COLLECTION BOX - BLUE BOX", "note": "ON 12/24 AND 12/31, THIS BOX MAY BE COLLECTED AS EARLY AS 12 NOON.", "ref": "0651200008"}, "type": "Feature"}
{"geometry": {"coordinates": [-72.896420002, 41.27264299], "type": "Point"}, "id": "RMvkHp_FLZgGiKFJ3zqa6_Sw_qQ=", "properties": {"@spider": "usps_collection_boxes", "addr:city": "NEW HAVEN", "addr:country": "US", "addr:full": "581 TOWNSEND AVE", "addr:postcode": "06512", "addr:state": "CT", "brand": "USPS", "collection_times": "Mo-Fr 12:15; Sa 12:00", "name": "USPS COLLECTION BOX - BLUE BOX", "note": "ON 12/24 AND 12/31, THIS BOX MAY BE COLLECTED AS EARLY AS 12 NOON.", "ref": "0651200015"}, "type": "Feature"}
{"geometry": {"coordinates": [-72.8743674, 41.278965], "type": "Point"}, "id": "zPKzYskG147buPlFe6lqVdLVUfw=", "properties": {"@spider": "usps_collection_boxes", "addr:city": "NEW HAVEN", "addr:country": "US", "addr:full": "320 MAIN ST", "addr:postcode": "06512", "addr:state": "CT", "brand": "USPS", "collection_times": "Mo-Fr 12:30; Sa 12:00", "name": "USPS COLLECTION BOX - BLUE BOX", "note": "ON 12/24 AND 12/31, THIS BOX MAY BE COLLECTED AS EARLY AS 12 NOON.", "ref": "0651200019"}, "type": "Feature"}
{"geometry": {"coordinates": [-72.871854991, 41.277528005], "type": "Point"}, "id": "ix7q6r9IuBjbB1QuloutTuTRosQ=", "properties": {"@spider": "usps_collection_boxes", "addr:city": "NEW HAVEN", "addr:country": "US", "addr:full": "250 MAIN ST", "addr:postcode": "06512", "addr:state": "CT", "brand": "USPS", "collection_times": "Mo-Fr 15:45; Sa 12:00", "name": "USPS COLLECTION BOX - BLUE BOX", "note": "ON 12/24 AND 12/31, THIS BOX MAY BE COLLECTED AS EARLY AS 12 NOON.", "ref": "0651200021"}, "type": "Feature"}
{"geometry": {"coordinates": [-72.8764994, 41.271809], "type": "Point"}, "id": "E7yOfryCoirqo7hOSD1XtbEW7iU=", "properties": {"@spider": "usps_collection_boxes", "addr:city": "NEW HAVEN", "addr:country": "US", "addr:full": "405 THOMPSON AVE", "addr:postcode": "06512", "addr:state": "CT", "brand": "USPS", "collection_times": "Mo-Fr 12:30", "name": "USPS COLLECTION BOX - BLUE BOX", "note": "ON 12/24 AND 12/31, THIS BOX MAY BE COLLECTED AS EARLY AS 12 NOON.", "ref": "0651200023"}, "type": "Feature"}
{"geometry": {"coordinates": [-72.8782784, 41.254387], "type": "Point"}, "id": "4oSwQmZSt0QJWnS7lN1TEOnvoiQ=", "properties": {"@spider": "usps_collection_boxes", "addr:city": "NEW HAVEN", "addr:country": "US", "addr:full": "192 COMMERCE ST", "addr:postcode": "06512", "addr:state": "CT", "brand": "USPS", "collection_times": "Mo-Fr 12:45", "name": "USPS COLLECTION BOX - BLUE BOX", "note": "ON 12/24 AND 12/31, THIS BOX MAY BE COLLECTED AS EARLY AS 12 NOON.", "ref": "0651200025"}, "type": "Feature"}
{"geometry": {"coordinates": [-72.8775396556, 41.247263502], "type": "Point"}, "id": "_mbUaGXU_mYDpelsEwaN1kx8okQ=", "properties": {"@spider": "usps_collection_boxes", "addr:city": "NEW HAVEN", "addr:country": "US", "addr:full": "100 S SHORE DR", "addr:postcode": "06512", "addr:state": "CT", "brand": "USPS", "collection_times": "Mo-Fr 12:45", "name": "USPS COLLECTION BOX - BLUE BOX", "note": "ON 12/24 AND 12/31, THIS BOX MAY BE COLLECTED AS EARLY AS 12 NOON.", "ref": "0651200027"}, "type": "Feature"}
{"geometry": {"coordinates": [-72.8731833, 41.281554], "type": "Point"}, "id": "1FQEEcD0RjNt5DefJsZgVvAuvbI=", "properties": {"@spider": "usps_collection_boxes", "addr:city": "NEW HAVEN", "addr:country": "US", "addr:full": "73 ELM ST", "addr:postcode": "06512", "addr:state": "CT", "brand": "USPS", "collection_times": "Mo-Fr 15:30", "name": "USPS COLLECTION BOX - BLUE BOX", "note": "ON 12/24 AND 12/31, THIS BOX MAY BE COLLECTED AS EARLY AS 12 NOON.", "ref": "0651200030"}, "type": "Feature"}
{"geometry": {"coordinates": [-72.873999433, 41.283718322], "type": "Point"}, "id": "ITL9yKyW45UP8U_cPUqwp7aZ6wg=", "properties": {"@spider": "usps_collection_boxes", "addr:city": "NEW HAVEN", "addr:country": "US", "addr:full": "176 FORBES PL", "addr:postcode": "06512", "addr:state": "CT", "brand": "USPS", "collection_times": "Mo-Fr 15:00", "name": "USPS COLLECTION BOX - BLUE BOX", "note": "ON 12/24 AND 12/31, THIS BOX MAY BE COLLECTED AS EARLY AS 12 NOON.", "ref": "0651200032"}, "type": "Feature"}
{"geometry": {"coordinates": [-72.8711834, 41.277578], "type": "Point"}, "id": "pSb0VB3CTWgxZLQpJRYCE9Fi68Q=", "properties": {"@spider": "usps_collection_boxes", "addr:city": "NEW HAVEN", "addr:country": "US", "addr:full": "250 MAIN ST", "addr:postcode": "06512", "addr:state": "CT", "brand": "USPS", "collection_times": "Mo-Fr 15:45; Sa 12:00", "name": "USPS COLLECTION BOX - EXPRESS", "note": "ON 12/24 AND 12/31, THIS BOX MAY BE COLLECTED AS EARLY AS 12 NOON.", "ref": "0651200043"}, "type": "Feature"}
{"geometry": {"coordinates": [-72.8912347674, 41.2576181657], "type": "Point"}, "id": "JBj4mnCgJvuKh7RVeeqyoWq4Qkg=", "properties": {"@spider": "usps_collection_boxes", "addr:city": "NEW HAVEN", "addr:country": "US", "addr:full": "25 TOWNSEND", "addr:postcode": "06512", "addr:state": "CT", "brand": "USPS", "collection_times": "Mo-Fr 12:00; Sa 11:45", "name": "USPS COLLECTION BOX - BLUE BOX", "ref": "0651200044"}, "type": "Feature"}
{"geometry": {"coordinates": [-72.868375973, 41.276479942], "type": "Point"}, "id": "Pg4GTq4nObsGk1VC87LyFezLZt8=", "properties": {"@spider": "usps_collection_boxes", "addr:city": "NEW HAVEN", "addr:country": "US", "addr:full": "175 MAIN ST STE 2", "addr:postcode": "06512", "addr:state": "CT", "brand": "USPS", "collection_times": "Mo-Fr 15:00; Sa 12:00", "name": "USPS COLLECTION BOX - PO LOBBY", "note": "ON 12/24 AND 12/31, THIS BOX MAY BE COLLECTED AS EARLY AS 12 NOON.", "ref": "0651200047"}, "type": "Feature"}
{"geometry": {"coordinates": [-72.899970338, 41.31579367], "type": "Point"}, "id": "icpJuvVvYNdgjrVGJ2lJvGibrsw=", "properties": {"@spider": "usps_collection_boxes", "addr:city": "NEW HAVEN", "addr:country": "US", "addr:full": "315 PECK ST", "addr:postcode": "06513", "addr:state": "CT", "brand": "USPS", "collection_times": "Mo-Fr 15:00", "name": "USPS COLLECTION BOX - BLUE BOX", "note": "ON 12/24 AND 12/31, THIS BOX MAY BE COLLECTED AS EARLY AS 12 NOON.", "ref": "0651300009"}, "type": "Feature"}
{"geometry": {"coordinates": [-72.8898957, 41.309321], "type": "Point"}, "id": "D-6RW0r4yCvONGSKrMXltlH599M=", "properties": {"@spider": "usps_collection_boxes", "addr:city": "NEW HAVEN", "addr:country": "US", "addr:full": "50 GRAND AVE", "addr:postcode": "06513", "addr:state": "CT", "brand": "USPS", "collection_times": "Mo-Fr 12:00; Sa 11:30", "name": "USPS COLLECTION BOX - BLUE BOX", "ref": "0651300011"}, "type": "Feature"}
{"geometry": {"coordinates": [-72.8677337, 41.331369], "type": "Point"}, "id": "PI3ILQpGmKGrqJrPS0sr3vWA63M=", "properties": {"@spider": "usps_collection_boxes", "addr:city": "NEW HAVEN", "addr:country": "US", "addr:full": "1670 QUINNIPIAC AVE", "addr:postcode": "06513", "addr:state": "CT", "brand": "USPS", "collection_times": "Mo-Fr 14:00; Sa 12:45", "name": "USPS COLLECTION BOX - BLUE BOX", "note": "ON 12/24 AND 12/31, THIS BOX MAY BE COLLECTED AS EARLY AS 12 NOON.", "ref": "0651300023"}, "type": "Feature"}
{"geometry": {"coordinates": [-72.8711444, 41.314552], "type": "Point"}, "id": "yum_ZFiwsdprUDVNe6SDrJSo8l8=", "properties": {"@spider": "usps_collection_boxes", "addr:city": "NEW HAVEN", "addr:country": "US", "addr:full": "311 EASTERN ST", "addr:postcode": "06513", "addr:state": "CT", "brand": "USPS", "collection_times": "Mo-Fr 14:00; Sa 12:30", "name": "USPS COLLECTION BOX - BLUE BOX", "note": "ON 12/24 AND 12/31, THIS BOX MAY BE COLLECTED AS EARLY AS 12 NOON.", "ref": "0651300027"}, "type": "Feature"}
{"geometry": {"coordinates": [-72.8713729, 41.315335], "type": "Point"}, "id": "GHFG26mSDE-qYBDl_ASCN9mx59A=", "properties": {"@spider": "usps_collection_boxes", "addr:city": "NEW HAVEN", "addr:country": "US", "addr:full": "315 EASTERN ST", "addr:postcode": "06513", "addr:state": "CT", "brand": "USPS", "collection_times": "Mo-Fr 14:00; Sa 12:30", "name": "USPS COLLECTION BOX - BLUE BOX", "note": "ON 12/24 AND 12/31, THIS BOX MAY BE COLLECTED AS EARLY AS 12 NOON.", "ref": "0651300028"}, "type": "Feature"}
{"geometry": {"coordinates": [-72.8714395, 41.315875], "type": "Point"}, "id": "eL3mHxmRGC19XqK6ep3N7Rn6YV4=", "properties": {"@spider": "usps_collection_boxes", "addr:city": "NEW HAVEN", "addr:country": "US", "addr:full": "339 EASTERN ST", "addr:postcode": "06513", "addr:state": "CT", "brand": "USPS", "collection_times": "Mo-Sa 10:00", "name": "USPS COLLECTION BOX - BLUE BOX", "ref": "0651300029"}, "type": "Feature"}
{"geometry": {"coordinates": [-72.8606388, 41.321717], "type": "Point"}, "id": "NYI1d1OkiIQ-JOAkkxrFDU7BsSM=", "properties": {"@spider": "usps_collection_boxes", "addr:city": "NEW HAVEN", "addr:country": "US", "addr:full": "851 FOXON", "addr:postcode": "06513", "addr:state": "CT", "brand": "USPS", "collection_times": "Mo-Fr 13:30", "name": "USPS COLLECTION BOX - BLUE BOX", "note": "ON 12/24 AND 12/31, THIS BOX MAY BE COLLECTED AS EARLY AS 12 NOON.", "ref": "0651300031"}, "type": "Feature"}
{"geometry": {"coordinates": [-72.8718449, 41.315298], "type": "Point"}, "id": "eeZSSaBEblljIFy8FS6xtym25Vk=", "properties": {"@spider": "usps_collection_boxes", "addr:city": "NEW HAVEN", "addr:country": "US", "addr:full": "321 EASTERN ST", "addr:postcode": "06513", "addr:state": "CT", "brand": "USPS", "collection_times": "Mo-Sa 10:00", "name": "USPS COLLECTION BOX - BLUE BOX", "ref": "0651300033"}, "type": "Feature"}
{"geometry": {"coordinates": [-72.8715664, 41.314554], "type": "Point"}, "id": "LAQDp-VXoNyTqQ16NAZ5fO8gJ50=", "properties": {"@spider": "usps_collection_boxes", "addr:city": "NEW HAVEN", "addr:country": "US", "addr:full": "343 EASTERN ST", "addr:postcode": "06513", "addr:state": "CT", "brand": "USPS", "collection_times": "Mo-Fr 14:00; Sa 12:30", "name": "USPS COLLECTION BOX - BLUE BOX", "note": "ON 12/24 AND 12/31, THIS BOX MAY BE COLLECTED AS EARLY AS 12 NOON.", "ref": "0651300034"}, "type": "Feature"}
{"geometry": {"coordinates": [-72.896171412, 41.308916565], "type": "Point"}, "id": "DcBLsXRgSyxcL8TuSb5wFC4_dSg=", "properties": {"@spider": "usps_collection_boxes", "addr:city": "NEW HAVEN", "addr:country": "US", "addr:full": "230 GRAND AVE", "addr:postcode": "06513", "addr:state": "CT", "brand": "USPS", "collection_times": "Mo-Fr 17:00; Sa 12:00", "name": "USPS COLLECTION BOX - BLUE BOX", "note": "ON 12/24 AND 12/31, THIS BOX MAY BE COLLECTED AS EARLY AS 12 NOON.", "ref": "0651300041"}, "type": "Feature"}
{"geometry": {"coordinates": [-72.896171412, 41.308916565], "type": "Point"}, "id": "H2j0I7w9AlJnPm4ECvCKSgnDxyM=", "properties": {"@spider": "usps_collection_boxes", "addr:city": "NEW HAVEN", "addr:country": "US", "addr:full": "230 GRAND AVE", "addr:postcode": "06513", "addr:state": "CT", "brand": "USPS", "collection_times": "Mo-Fr 17:00; Sa 13:00", "name": "USPS COLLECTION BOX - PO LOBBY", "note": "ON 12/24 AND 12/31, THIS BOX MAY BE COLLECTED AS EARLY AS 12 NOON.", "ref": "0651300045"}, "type": "Feature"}
{"geometry": {"coordinates": [-72.9257, 41.359413], "type": "Point"}, "id": "tRo8WmuobkpdC6_NPY9F35BpJRs=", "properties": {"@spider": "usps_collection_boxes", "addr:city": "NEW HAVEN", "addr:country": "US", "addr:full": "1744 DIXWELL AVE", "addr:postcode": "06514", "addr:state": "CT", "brand": "USPS", "collection_times": "Mo-Fr 17:00; Sa 16:00", "name": "USPS COLLECTION BOX - BLUE BOX", "note": "ON 12/24 AND 12/31, THIS BOX MAY BE COLLECTED AS EARLY AS 12 NOON.", "ref": "0651400001"}, "type": "Feature"}
{"geometry": {"coordinates": [-72.933400296, 41.347146409], "type": "Point"}, "id": "_bpsrmFhZugjnviwvtuCgvT92Vs=", "properties": {"@spider": "usps_collection_boxes", "addr:city": "NEW HAVEN", "addr:country": "US", "addr:full": "1245 DIXWELL AVE", "addr:postcode": "06514", "addr:state": "CT", "brand": "USPS", "collection_times": "Mo-Fr 12:00; Sa 12:45", "name": "USPS COLLECTION BOX - BLUE BOX", "note": "ON 12/24 AND 12/31, THIS BOX MAY BE COLLECTED AS EARLY AS 12 NOON.", "ref": "0651400004"}, "type": "Feature"}
{"geometry": {"coordinates": [-72.920041, 41.376623], "type": "Point"}, "id": "4JDMoTadl8IG84IKfnTIsKGYbzY=", "properties": {"@spider": "usps_collection_boxes", "addr:city": "NEW HAVEN", "addr:country": "US", "addr:full": "865 MIX AVE", "addr:postcode": "06514", "addr:state": "CT", "brand": "USPS", "collection_times": "Mo-Fr 12:30; Sa 12:15", "name": "USPS COLLECTION BOX - BLUE BOX", "note": "ON 12/24 AND 12/31, THIS BOX MAY BE COLLECTED AS EARLY AS 12 NOON.", "ref": "0651400013"}, "type": "Feature"}
{"geometry": {"coordinates": [-72.9195756, 41.398655], "type": "Point"}, "id": "3ojfbIk04aNjdufAmekAuGB-nfY=", "properties": {"@spider": "usps_collection_boxes", "addr:city": "NEW HAVEN", "addr:country": "US", "addr:full": "1020 SHERMAN AVE", "addr:postcode": "06514", "addr:state": "CT", "brand": "USPS", "collection_times": "Mo-Fr 12:30", "name": "USPS COLLECTION BOX - BLUE BOX", "note": "ON 12/24 AND 12/31, THIS BOX MAY BE COLLECTED AS EARLY AS 12 NOON.", "ref": "0651400014"}, "type": "Feature"}
{"geometry": {"coordinates": [-72.9185713, 41.381137], "type": "Point"}, "id": "yoTXnyU0vfGN2Ju3lr5Cb-NBgMs=", "properties": {"@spider": "usps_collection_boxes", "addr:city": "NEW HAVEN", "addr:country": "US", "addr:full": "200 SHEPARD AVE", "addr:postcode": "06514", "addr:state": "CT", "brand": "USPS", "collection_times": "Mo-Fr 12:30", "name": "USPS COLLECTION BOX - BLUE BOX", "note": "ON 12/24 AND 12/31, THIS BOX MAY BE COLLECTED AS EARLY AS 12 NOON.", "ref": "0651400015"}, "type": "Feature"}
{"geometry": {"coordinates": [-72.9309696, 41.352168], "type": "Point"}, "id": "5Beza1ZCUICwsWY_FcyBaMlqR0k=", "properties": {"@spider": "usps_collection_boxes", "addr:city": "NEW HAVEN", "addr:country": "US", "addr:full": "1440 DIXWELL AVE", "addr:postcode": "06514", "addr:state": "CT", "brand": "USPS", "collection_times": "Mo-Sa 12:00", "name": "USPS COLLECTION BOX - BLUE BOX", "ref": "0651400020"}, "type": "Feature"}
{"geometry": {"coordinates": [-72.9366307, 41.355609], "type": "Point"}, "id": "FCqVMvNs07507o80QEPS0Of8NwM=", "properties": {"@spider": "usps_collection_boxes", "addr:city": "NEW HAVEN", "addr:country": "US", "addr:full": "347 CIRCULAR AVE", "addr:postcode": "06514", "addr:state": "CT", "brand": "USPS", "collection_times": "Mo-Fr 12:00", "name": "USPS COLLECTION BOX - BLUE BOX", "ref": "0651400021"}, "type": "Feature"}
{"geometry": {"coordinates": [-72.9341287, 41.346322], "type": "Point"}, "id": "9otClVXOidQvGLok_g9womapewE=", "properties": {"@spider": "usps_collection_boxes", "addr:city": "NEW HAVEN", "addr:country": "US", "addr:full": "1212 DIXWELL AVE", "addr:postcode": "06514", "addr:state": "CT", "brand": "USPS", "collection_times": "Mo-Fr 14:00; Sa 13:00", "name": "USPS COLLECTION BOX - BLUE BOX", "note": "ON 12/24 AND 12/31, THIS BOX MAY BE COLLECTED AS EARLY AS 12 NOON.", "ref": "0651400023"}, "type": "Feature"}
{"geometry": {"coordinates": [-72.9147338, 41.372072], "type": "Point"}, "id": "y1zxkSyblPAGyT9F6mwyodxKA0I=", "properties": {"@spider": "usps_collection_boxes", "addr:city": "NEW HAVEN", "addr:country": "US", "addr:full": "2301 DIXWELL AVE", "addr:postcode": "06514", "addr:state": "CT", "brand": "USPS", "collection_times": "Mo-Sa 11:30", "name": "USPS COLLECTION BOX - BLUE BOX", "ref": "0651400035"}, "type": "Feature"}
{"geometry": {"coordinates": [-72.922812936, 41.357826145], "type": "Point"}, "id": "iagDSabfNNCM-w1lBuKNnVtl5OA=", "properties": {"@spider": "usps_collection_boxes", "addr:city": "NEW HAVEN", "addr:country": "US", "addr:full": "365 MATHER ST", "addr:postcode": "06514", "addr:state": "CT", "brand": "USPS", "collection_times": "Mo-Fr 11:30", "name": "USPS COLLECTION BOX - BLUE BOX", "ref": "0651400038"}, "type": "Feature"}
{"geometry": {"coordinates": [-72.9155879, 41.382558], "type": "Point"}, "id": "D9nCwzxqmlRAQrcBQq4GKcX87DI=", "properties": {"@spider": "usps_collection_boxes", "addr:city": "NEW HAVEN", "addr:country": "US", "addr:full": "109 SANFORD ST", "addr:postcode": "06514", "addr:state": "CT", "brand": "USPS", "collection_times": "Mo-Fr 12:30", "name": "USPS COLLECTION BOX - BLUE BOX", "note": "ON 12/24 AND 12/31, THIS BOX MAY BE COLLECTED AS EARLY AS 12 NOON.", "ref": "0651400041"}, "type": "Feature"}
{"geometry": {"coordinates": [-72.9258385, 41.359569], "type": "Point"}, "id": "FnkPe3cOVkY7d6b6--Un3TqLv_w=", "properties": {"@spider": "usps_collection_boxes", "addr:city": "NEW HAVEN", "addr:country": "US", "addr:full": "1744 DIXWELL AVE", "addr:postcode": "06514", "addr:state": "CT", "brand": "USPS", "collection_times": "Mo-Fr 17:00; Sa 16:00", "name": "USPS COLLECTION BOX - PO LOBBY", "note": "ON 12/24 AND 12/31, THIS BOX MAY BE COLLECTED AS EARLY AS 12 NOON.", "ref": "0651400044"}, "type": "Feature"}
{"geometry": {"coordinates": [-72.925653727, 41.359501057], "type": "Point"}, "id": "B3KucPbmJu7VWsPXPeAVS_fYPp8=", "properties": {"@spider": "usps_collection_boxes", "addr:city": "NEW HAVEN", "addr:country": "US", "addr:full": "1744 DIXWELL AVE", "addr:postcode": "06514", "addr:state": "CT", "brand": "USPS", "collection_times": "Mo-Fr 18:00; Sa 12:00", "name": "USPS COLLECTION BOX - PO LOBBY", "note": "ON 12/24 AND 12/31, THIS BOX MAY BE COLLECTED AS EARLY AS 12 NOON.", "ref": "0651400048"}, "type": "Feature"}
{"geometry": {"coordinates": [-72.962376035, 41.326575358], "type": "Point"}, "id": "LUHyOo_VmUAOynthLUlVrTrtPjs=", "properties": {"@spider": "usps_collection_boxes", "addr:city": "WOODBRIDGE", "addr:country": "US", "addr:full": "95 FOUNTAIN", "addr:postcode": "06515", "addr:state": "CT", "brand": "USPS", "collection_times": "Mo-Fr 17:00; Sa 13:00", "name": "USPS COLLECTION BOX - BLUE BOX", "note": "ON 12/24 AND 12/31, THIS BOX MAY BE COLLECTED AS EARLY AS 12 NOON.", "ref": "0651500001"}, "type": "Feature"}
{"geometry": {"coordinates": [-72.9670544, 41.316448], "type": "Point"}, "id": "Zzn8mCVC-DGnorsNn0TuyUbj8J8=", "properties": {"@spider": "usps_collection_boxes", "addr:city": "WOODBRIDGE", "addr:country": "US", "addr:full": "2055 CHAPEL ST", "addr:postcode": "06515", "addr:state": "CT", "brand": "USPS", "collection_times": "Mo-Fr 12:45; Sa 14:15", "name": "USPS COLLECTION BOX - BLUE BOX", "note": "ON 12/24 AND 12/31, THIS BOX MAY BE COLLECTED AS EARLY AS 12 NOON.", "ref": "0651500004"}, "type": "Feature"}
{"geometry": {"coordinates": [-72.9784519, 41.328595], "type": "Point"}, "id": "1nyaYhAYwSNiKS3yssUUfqJRXow=", "properties": {"@spider": "usps_collection_boxes", "addr:city": "WOODBRIDGE", "addr:country": "US", "addr:full": "155 LOWIN AVE", "addr:postcode": "06515", "addr:state": "CT", "brand": "USPS", "collection_times": "Mo-Fr 13:00; Sa 14:00", "name": "USPS COLLECTION BOX - BLUE BOX", "note": "ON 12/24 AND 12/31, THIS BOX MAY BE COLLECTED AS EARLY AS 12 NOON.", "ref": "0651500008"}, "type": "Feature"}
{"geometry": {"coordinates": [-72.9634924, 41.324513], "type": "Point"}, "id": "Cr0fU3Drc86u2LZVBBtLYhiJLl8=", "properties": {"@spider": "usps_collection_boxes", "addr:city": "WOODBRIDGE", "addr:country": "US", "addr:full": "310 ALDEN AVE", "addr:postcode": "06515", "addr:state": "CT", "brand": "USPS", "collection_times": "Mo-Fr 12:45", "name": "USPS COLLECTION BOX - BLUE BOX", "note": "ON 12/24 AND 12/31, THIS BOX MAY BE COLLECTED AS EARLY AS 12 NOON.", "ref": "0651500010"}, "type": "Feature"}
{"geometry": {"coordinates": [-72.9824615, 41.337343], "type": "Point"}, "id": "u8qJMqTU8EKc2xN-CsXiz-dZJMQ=", "properties": {"@spider": "usps_collection_boxes", "addr:city": "WOODBRIDGE", "addr:country": "US", "addr:full": "130 AMITY RD", "addr:postcode": "06515", "addr:state": "CT", "brand": "USPS", "collection_times": "Mo-Fr 14:00; Sa 13:45", "name": "USPS COLLECTION BOX - BLUE BOX", "note": "ON 12/24 AND 12/31, THIS BOX MAY BE COLLECTED AS EARLY AS 12 NOON.", "ref": "0651500014"}, "type": "Feature"}
{"geometry": {"coordinates": [-72.9630118, 41.31849], "type": "Point"}, "id": "PnFVXukJqjzYpSaW2EMVKMnfFSY=", "properties": {"@spider": "usps_collection_boxes", "addr:city": "WOODBRIDGE", "addr:country": "US", "addr:full": "801 EDGEWOOD AVE", "addr:postcode": "06515", "addr:state": "CT", "brand": "USPS", "collection_times": "Mo-Fr 12:45; Sa 14:15", "name": "USPS COLLECTION BOX - BLUE BOX", "note": "ON 12/24 AND 12/31, THIS BOX MAY BE COLLECTED AS EARLY AS 12 NOON.", "ref": "0651500020"}, "type": "Feature"}
{"geometry": {"coordinates": [-72.9756408, 41.335032], "type": "Point"}, "id": "HRIm5RgBXAyTi1bCXNMMr_F4O3U=", "properties": {"@spider": "usps_collection_boxes", "addr:city": "WOODBRIDGE", "addr:country": "US", "addr:full": "1471 WHALLEY AVE", "addr:postcode": "06515", "addr:state": "CT", "brand": "USPS", "collection_times": "Mo-Sa 12:15", "name": "USPS COLLECTION BOX - BLUE BOX", "note": "ON 12/24 AND 12/31, THIS BOX MAY BE COLLECTED AS EARLY AS 12 NOON.", "ref": "0651500028"}, "type": "Feature"}
{"geometry": {"coordinates": [-72.9624136, 41.326563], "type": "Point"}, "id": "rDXrRHtbW7WEakyYbVrNZVZzcQw=", "properties": {"@spider": "usps_collection_boxes", "addr:city": "WOODBRIDGE", "addr:country": "US", "addr:full": "95 FOUNTAIN", "addr:postcode": "06515", "addr:state": "CT", "brand": "USPS", "collection_times": "Mo-Fr 17:00; Sa 15:00", "name": "USPS COLLECTION BOX - EXPRESS", "note": "ON 12/24 AND 12/31, THIS BOX MAY BE COLLECTED AS EARLY AS 12 NOON.", "ref": "0651500032"}, "type": "Feature"}
{"geometry": {"coordinates": [-72.9747153, 41.32421], "type": "Point"}, "id": "TJUVp-aO218n5EHEvYePdtMybi8=", "properties": {"@spider": "usps_collection_boxes", "addr:city": "WOODBRIDGE", "addr:country": "US", "addr:full": "55 RAY RD", "addr:postcode": "06515", "addr:state": "CT", "brand": "USPS", "collection_times": "Mo-Fr 13:00", "name": "USPS COLLECTION BOX - BLUE BOX", "note": "ON 12/24 AND 12/31, THIS BOX MAY BE COLLECTED AS EARLY AS 12 NOON.", "ref": "0651500036"}, "type": "Feature"}
{"geometry": {"coordinates": [-72.9624157, 41.326666], "type": "Point"}, "id": "w_ql7H1kE-8XaWUQJTC6rOzuXJU=", "properties": {"@spider": "usps_collection_boxes", "addr:city": "WOODBRIDGE", "addr:country": "US", "addr:full": "95 FOUNTAIN ST", "addr:postcode": "06515", "addr:state": "CT", "brand": "USPS", "collection_times": "Mo-Fr 17:00; Sa 15:00", "name": "USPS COLLECTION BOX - PO LOBBY", "note": "ON 12/24 AND 12/31, THIS BOX MAY BE COLLECTED AS EARLY AS 12 NOON.", "ref": "0651500039"}, "type": "Feature"}
{"geometry": {"coordinates": [-72.976383998, 41.334286155], "type": "Point"}, "id": "oN-Z9WucCneXPCiyULkOd-W2qqE=", "properties": {"@spider": "usps_collection_boxes", "addr:city": "WOODBRIDGE", "addr:country": "US", "addr:full": "1449 WHALLEY AVE", "addr:postcode": "06515", "addr:state": "CT", "brand": "USPS", "collection_times": "Mo-Fr 14:00; Sa 12:00", "name": "USPS COLLECTION BOX - PO LOBBY", "note": "ON 12/24 AND 12/31, THIS BOX MAY BE COLLECTED AS EARLY AS 12 NOON.", "ref": "0651500045"}, "type": "Feature"}
{"geometry": {"coordinates": [-72.962376035, 41.326575358], "type": "Point"}, "id": "jDB5LiYXubOGNJGzUqpePfzyxIA=", "properties": {"@spider": "usps_collection_boxes", "addr:city": "WOODBRIDGE", "addr:country": "US", "addr:full": "95 FOUNTAIN ST", "addr:postcode": "06515", "addr:state": "CT", "brand": "USPS", "collection_times": "Mo-Fr 17:00; Sa 12:00", "name": "USPS COLLECTION BOX - PO LOBBY", "note": "ON 12/24 AND 12/31, THIS BOX MAY BE COLLECTED AS EARLY AS 12 NOON.", "ref": "0651500046"}, "type": "Feature"}
{"geometry": {"coordinates": [-72.9790915, 41.287664], "type": "Point"}, "id": "vv5Tyz21qMYSNakaCjzpJk1BcO8=", "properties": {"@spider": "usps_collection_boxes", "addr:city": "WEST HAVEN", "addr:country": "US", "addr:full": "75 FARWELL ST", "addr:postcode": "06516", "addr:state": "CT", "brand": "USPS", "collection_times": "Mo-Fr 17:00; Sa 15:00", "name": "USPS COLLECTION BOX - BLUE BOX", "note": "ON 12/24 AND 12/31, THIS BOX MAY BE COLLECTED AS EARLY AS 12 NOON.", "ref": "0651600001"}, "type": "Feature"}
{"geometry": {"coordinates": [-72.951063943, 41.273891925], "type": "Point"}, "id": "MMi76tMPCppKBe48srg0dLofYaM=", "properties": {"@spider": "usps_collection_boxes", "addr:city": "WEST HAVEN", "addr:country": "US", "addr:full": "589 CAMPBELL AVE", "addr:postcode": "06516", "addr:state": "CT", "brand": "USPS", "collection_times": "Mo-Fr 14:00; Sa 12:00", "name": "USPS COLLECTION BOX - BLUE BOX", "note": "ON 12/24 AND 12/31, THIS BOX MAY BE COLLECTED AS EARLY AS 12 NOON.", "ref": "0651600004"}, "type": "Feature"}
{"geometry": {"coordinates": [-72.9561761, 41.255526], "type": "Point"}, "id": "kPjWFRbU4NFfrMnVlhslfbzPJtE=", "properties": {"@spider": "usps_collection_boxes", "addr:city": "WEST HAVEN", "addr:country": "US", "addr:full": "435 CAPTAIN THOMAS BLVD", "addr:postcode": "06516", "addr:state": "CT", "brand": "USPS", "collection_times": "Mo-Fr 15:00", "name": "USPS COLLECTION BOX - BLUE BOX", "note": "ON 12/24 AND 12/31, THIS BOX MAY BE COLLECTED AS EARLY AS 12 NOON.", "ref": "0651600019"}, "type": "Feature"}
{"geometry": {"coordinates": [-72.9449529, 41.273995], "type": "Point"}, "id": "T3SVzkHX8KuwfLT4ekhavrvkS3w=", "properties": {"@spider": "usps_collection_boxes", "addr:city": "WEST HAVEN", "addr:country": "US", "addr:full": "214 MAIN ST", "addr:postcode": "06516", "addr:state": "CT", "brand": "USPS", "collection_times": "Mo-Sa 11:00", "name": "USPS COLLECTION BOX - BLUE BOX", "ref": "0651600020"}, "type": "Feature"}
{"geometry": {"coordinates": [-72.951018, 41.273842], "type": "Point"}, "id": "GMKDDkr3fL1X3PcROfMQxEU55is=", "properties": {"@spider": "usps_collection_boxes", "addr:city": "WEST HAVEN", "addr:country": "US", "addr:full": "589 CAMPBELL AVE", "addr:postcode": "06516", "addr:state": "CT", "brand": "USPS", "collection_times": "Mo-Fr 14:00; Sa 12:00", "name": "USPS COLLECTION BOX - EXPRESS", "note": "ON 12/24 AND 12/31, THIS BOX MAY BE COLLECTED AS EARLY AS 12 NOON.", "ref": "0651600026"}, "type": "Feature"}
{"geometry": {"coordinates": [-72.9597608, 41.292025], "type": "Point"}, "id": "92rs8aNsxcYN861_RZCFzuuHDHY=", "properties": {"@spider": "usps_collection_boxes", "addr:city": "WEST HAVEN", "addr:country": "US", "addr:full": "300 BOSTON POST RD", "addr:postcode": "06516", "addr:state": "CT", "brand": "USPS", "collection_times": "Mo-Sa 11:00", "name": "USPS COLLECTION BOX - BLUE BOX", "ref": "0651600027"}, "type": "Feature"}
{"geometry": {"coordinates": [-72.958913555, 41.289871023], "type": "Point"}, "id": "Mg93zYmp1K1YY3YCnDSAgteqcDk=", "properties": {"@spider": "usps_collection_boxes", "addr:city": "WEST HAVEN", "addr:country": "US", "addr:full": "1131 CAMPBELL AVE", "addr:postcode": "06516", "addr:state": "CT", "brand": "USPS", "collection_times": "Mo-Fr 13:30", "name": "USPS COLLECTION BOX - BLUE BOX", "note": "ON 12/24 AND 12/31, THIS BOX MAY BE COLLECTED AS EARLY AS 12 NOON.", "ref": "0651600030"}, "type": "Feature"}
{"geometry": {"coordinates": [-72.9875423, 41.236882], "type": "Point"}, "id": "pesRTSAQBmDIii5wxlAOe5ejph0=", "properties": {"@spider": "usps_collection_boxes", "addr:city": "WEST HAVEN", "addr:country": "US", "addr:full": "13 BAYSHORE DR", "addr:postcode": "06516", "addr:state": "CT", "brand": "USPS", "collection_times": "Mo-Sa 12:00", "name": "USPS COLLECTION BOX - BLUE BOX", "ref": "0651600032"}, "type": "Feature"}
{"geometry": {"coordinates": [-72.968441683, 41.24499193], "type": "Point"}, "id": "FTXIw6thSF8l6r2tKPySAj6INN8=", "properties": {"@spider": "usps_collection_boxes", "addr:city": "WEST HAVEN", "addr:country": "US", "addr:full": "742 OCEAN AVE", "addr:postcode": "06516", "addr:state": "CT", "brand": "USPS", "collection_times": "Mo-Fr 09:00", "name": "USPS COLLECTION BOX - BLUE BOX", "ref": "0651600033"}, "type": "Feature"}
{"geometry": {"coordinates": [-72.9545577, 41.286176], "type": "Point"}, "id": "HYL7G8sUIxZXy7k2hr7rLSK2NPo=", "properties": {"@spider": "usps_collection_boxes", "addr:city": "WEST HAVEN", "addr:country": "US", "addr:full": "840 1ST AVE", "addr:postcode": "06516", "addr:state": "CT", "brand": "USPS", "collection_times": "Mo-Fr 12:45", "name": "USPS COLLECTION BOX - BLUE BOX", "note": "ON 12/24 AND 12/31, THIS BOX MAY BE COLLECTED AS EARLY AS 12 NOON.", "ref": "0651600034"}, "type": "Feature"}
{"geometry": {"coordinates": [-72.9581682, 41.286513], "type": "Point"}, "id": "3V1B_e_u4PYudfSG36FSJ37k3bA=", "properties": {"@spider": "usps_collection_boxes", "addr:city": "WEST HAVEN", "addr:country": "US", "addr:full": "1014 CAMPBELL AVE", "addr:postcode": "06516", "addr:state": "CT", "brand": "USPS", "collection_times": "Mo-Sa 12:00", "name": "USPS COLLECTION BOX - BLUE BOX", "ref": "0651600035"}, "type": "Feature"}
{"geometry": {"coordinates": [-72.9741673, 41.304317], "type": "Point"}, "id": "V7hC-jkYJnaRWKFgT4X6Pm_OeAY=", "properties": {"@spider": "usps_collection_boxes", "addr:city": "WEST HAVEN", "addr:country": "US", "addr:full": "2 ELIZABETH ST", "addr:postcode": "06516", "addr:state": "CT", "brand": "USPS", "collection_times": "Mo-Fr 13:00", "name": "USPS COLLECTION BOX - BLUE BOX", "note": "ON 12/24 AND 12/31, THIS BOX MAY BE COLLECTED AS EARLY AS 12 NOON.", "ref": "0651600036"}, "type": "Feature"}
{"geometry": {"coordinates": [-72.9852047, 41.261244], "type": "Point"}, "id": "d-sPB0lYrnF-3bCUIHJLPiDWUSI=", "properties": {"@spider": "usps_collection_boxes", "addr:city": "WEST HAVEN", "addr:country": "US", "addr:full": "375 MORGAN LN", "addr:postcode": "06516", "addr:state": "CT", "brand": "USPS", "collection_times": "Mo-Fr 15:00", "name": "USPS COLLECTION BOX - BLUE BOX", "note": "ON 12/24 AND 12/31, THIS BOX MAY BE COLLECTED AS EARLY AS 12 NOON.", "ref": "0651600037"}, "type": "Feature"}
{"geometry": {"coordinates": [-72.9650714, 41.259888], "type": "Point"}, "id": "_Hl_HVsr4-eFAZWLe5uwF-0BR3w=", "properties": {"@spider": "usps_collection_boxes", "addr:city": "WEST HAVEN", "addr:country": "US", "addr:full": "845 JONES HILL RD", "addr:postcode": "06516", "addr:state": "CT", "brand": "USPS", "collection_times": "Mo-Fr 13:00; Sa 12:00", "name": "USPS COLLECTION BOX - BLUE BOX", "note": "ON 12/24 AND 12/31, THIS BOX MAY BE COLLECTED AS EARLY AS 12 NOON.", "ref": "0651600042"}, "type": "Feature"}
{"geometry": {"coordinates": [-72.9754727585, 41.2356538585], "type": "Point"}, "id": "hnX5OdYY0U23zfKjhlM2FNiCSYU=", "properties": {"@spider": "usps_collection_boxes", "addr:city": "WEST HAVEN", "addr:country": "US", "addr:full": "65 MORRIS ST", "addr:postcode": "06516", "addr:state": "CT", "brand": "USPS", "collection_times": "Mo-Sa 09:30", "name": "USPS COLLECTION BOX - BLUE BOX", "ref": "0651600045"}, "type": "Feature"}
{"geometry": {"coordinates": [-72.9760678, 41.250182], "type": "Point"}, "id": "Rfeme8N6cQ1k_ymCHmrxP3ezT6w=", "properties": {"@spider": "usps_collection_boxes", "addr:city": "WEST HAVEN", "addr:country": "US", "addr:full": "475 JONES HILL RD", "addr:postcode": "06516", "addr:state": "CT", "brand": "USPS", "collection_times": "Mo-Fr 12:00", "name": "USPS COLLECTION BOX - BLUE BOX", "ref": "0651600046"}, "type": "Feature"}
{"geometry": {"coordinates": [-72.9788168, 41.287565], "type": "Point"}, "id": "h-YW19SWXM4LG4xiYjRP_o-b5Do=", "properties": {"@spider": "usps_collection_boxes", "addr:city": "WEST HAVEN", "addr:country": "US", "addr:full": "75 FARWELL ST", "addr:postcode": "06516", "addr:state": "CT", "brand": "USPS", "collection_times": "Mo-Fr 17:00; Sa 15:00", "name": "USPS COLLECTION BOX - PO LOBBY", "note": "ON 12/24 AND 12/31, THIS BOX MAY BE COLLECTED AS EARLY AS 12 NOON.", "ref": "0651600050"}, "type": "Feature"}
{"geometry": {"coordinates": [-72.951018, 41.273842], "type": "Point"}, "id": "HP8o0GrsOxC-vvMtQju--0Jz8Sg=", "properties": {"@spider": "usps_collection_boxes", "addr:city": "WEST HAVEN", "addr:country": "US", "addr:full": "589 CAMPBELL AVE", "addr:postcode": "06516", "addr:state": "CT", "brand": "USPS", "collection_times": "Mo-Fr 14:00; Sa 12:00", "name": "USPS COLLECTION BOX - PO LOBBY", "note": "ON 12/24 AND 12/31, THIS BOX MAY BE COLLECTED AS EARLY AS 12 NOON.", "ref": "0651600051"}, "type": "Feature"}
{"geometry": {"coordinates": [-72.9869177, 41.236201], "type": "Point"}, "id": "pVrz7NcFbEBRIIrtSE1xKIdbEB4=", "properties": {"@spider": "usps_collection_boxes", "addr:city": "WEST HAVEN", "addr:country": "US", "addr:full": "14 OCEAN AVE", "addr:postcode": "06516", "addr:state": "CT", "brand": "USPS", "collection_times": "Mo-Sa 12:00", "name": "USPS COLLECTION BOX - PO LOBBY", "ref": "0651600053"}, "type": "Feature"}
{"geometry": {"coordinates": [-72.9471686, 41.259165], "type": "Point"}, "id": "ZagAV21AJqoTAm8OOUtNp9hzl7U=", "properties": {"@spider": "usps_collection_boxes", "addr:city": "WEST HAVEN", "addr:country": "US", "addr:full": "232 CAPT THOMAS BLVD", "addr:postcode": "06516", "addr:state": "CT", "brand": "USPS", "collection_times": "Mo-Sa 10:30", "name": "USPS COLLECTION BOX - BLUE BOX", "ref": "0651600057"}, "type": "Feature"}
{"geometry": {"coordinates": [-72.98682143, 41.235711151], "type": "Point"}, "id": "YpHDsG7ln613--2m6FpW48irbzA=", "properties": {"@spider": "usps_collection_boxes", "addr:city": "WEST HAVEN", "addr:country": "US", "addr:full": "14 OCEAN AVE", "addr:postcode": "06516", "addr:state": "CT", "brand": "USPS", "collection_times": "Mo-Sa 12:00", "name": "USPS COLLECTION BOX - PO LOBBY", "ref": "0651600062"}, "type": "Feature"}
{"geometry": {"coordinates": [-72.951109431, 41.273938046], "type": "Point"}, "id": "xLMlecllaRNCuRmuQOMTPALKNpU=", "properties": {"@spider": "usps_collection_boxes", "addr:city": "WEST HAVEN", "addr:country": "US", "addr:full": "589 CAMPBELL AVE", "addr:postcode": "06516", "addr:state": "CT", "brand": "USPS", "collection_times": "Mo-Fr 14:00; Sa 12:00", "name": "USPS COLLECTION BOX - PO LOBBY", "note": "ON 12/24 AND 12/31, THIS BOX MAY BE COLLECTED AS EARLY AS 12 NOON.", "ref": "0651600063"}, "type": "Feature"}
{"geometry": {"coordinates": [-72.979001471, 41.28721598], "type": "Point"}, "id": "HyhPndQqfvQlbuVUzglY58wiXuA=", "properties": {"@spider": "usps_collection_boxes", "addr:city": "WEST HAVEN", "addr:country": "US", "addr:full": "75 FARWELL ST", "addr:postcode": "06516", "addr:state": "CT", "brand": "USPS", "collection_times": "Mo-Sa 18:15", "name": "USPS COLLECTION BOX - PO LOBBY", "note": "ON 12/24 AND 12/31, THIS BOX MAY BE COLLECTED AS EARLY AS 12 NOON.", "ref": "0651600064"}, "type": "Feature"}
{"geometry": {"coordinates": [-72.913969321, 41.345776751], "type": "Point"}, "id": "sPfxM7KmSpqStfIYvorZS8wambI=", "properties": {"@spider": "usps_collection_boxes", "addr:city": "NEW HAVEN", "addr:country": "US", "addr:full": "40 PUTNAM AVE", "addr:postcode": "06517", "addr:state": "CT", "brand": "USPS", "collection_times": "Mo-Fr 15:00; Sa 12:00", "name": "USPS COLLECTION BOX - BLUE BOX", "note": "ON 12/24 AND 12/31, THIS BOX MAY BE COLLECTED AS EARLY AS 12 NOON.", "ref": "0651700002"}, "type": "Feature"}
{"geometry": {"coordinates": [-72.901798, 41.348358], "type": "Point"}, "id": "ZBUqsl7utkrhSVdOrw-KkK4dcBo=", "properties": {"@spider": "usps_collection_boxes", "addr:city": "NEW HAVEN", "addr:country": "US", "addr:full": "491 RIDGE RD", "addr:postcode": "06517", "addr:state": "CT", "brand": "USPS", "collection_times": "Mo-Sa 11:00", "name": "USPS COLLECTION BOX - BLUE BOX", "ref": "0651700008"}, "type": "Feature"}
{"geometry": {"coordinates": [-72.8985113, 41.354277], "type": "Point"}, "id": "19kIHqtS9BPLYAvzNGV0DkB_-ws=", "properties": {"@spider": "usps_collection_boxes", "addr:city": "NEW HAVEN", "addr:country": "US", "addr:full": "42 HESSE RD", "addr:postcode": "06517", "addr:state": "CT", "brand": "USPS", "collection_times": "Mo-Sa 11:00", "name": "USPS COLLECTION BOX - BLUE BOX", "ref": "0651700009"}, "type": "Feature"}
{"geometry": {"coordinates": [-72.9083208, 41.365884], "type": "Point"}, "id": "dF-CbxMXZsHb7Z2ql1D9y0sKkjA=", "properties": {"@spider": "usps_collection_boxes", "addr:city": "NEW HAVEN", "addr:country": "US", "addr:full": "1836 WHITNEY AVE", "addr:postcode": "06517", "addr:state": "CT", "brand": "USPS", "collection_times": "Mo-Sa 11:30", "name": "USPS COLLECTION BOX - BLUE BOX", "ref": "0651700012"}, "type": "Feature"}
{"geometry": {"coordinates": [-72.913969321, 41.345776751], "type": "Point"}, "id": "MCctJ0vIsmNAyrYwxoBOKjgRbPg=", "properties": {"@spider": "usps_collection_boxes", "addr:city": "NEW HAVEN", "addr:country": "US", "addr:full": "40 PUTNAM AVE", "addr:postcode": "06517", "addr:state": "CT", "brand": "USPS", "collection_times": "Mo-Fr 15:00; Sa 12:00", "name": "USPS COLLECTION BOX - PO LOBBY", "note": "ON 12/24 AND 12/31, THIS BOX MAY BE COLLECTED AS EARLY AS 12 NOON.", "ref": "0651700025"}, "type": "Feature"}
{"geometry": {"coordinates": [-72.906433782, 41.3708253], "type": "Point"}, "id": "vAH3bNH6bxBllwfLvL3ir3kPOZg=", "properties": {"@spider": "usps_collection_boxes", "addr:city": "NEW HAVEN", "addr:country": "US", "addr:full": "1994 WHITNEY AVE", "addr:postcode": "06517", "addr:state": "CT", "brand": "USPS", "collection_times": "Mo-Fr 11:30", "name": "USPS COLLECTION BOX - BLUE BOX", "ref": "0651700027"}, "type": "Feature"}
{"geometry": {"coordinates": [-72.9097104, 41.36009], "type": "Point"}, "id": "Po_FXZsHn7uyM2qyqKz98bcScQY=", "properties": {"@spider": "usps_collection_boxes", "addr:city": "NEW HAVEN", "addr:country": "US", "addr:full": "1670 WHITNEY AVE", "addr:postcode": "06517", "addr:state": "CT", "brand": "USPS", "collection_times": "Mo-Sa 11:30", "name": "USPS COLLECTION BOX - BLUE BOX", "ref": "0651700028"}, "type": "Feature"}
{"geometry": {"coordinates": [-72.913969321, 41.345776751], "type": "Point"}, "id": "NiVas9aGuXYCMy7BDP-AE8p1lIM=", "properties": {"@spider": "usps_collection_boxes", "addr:city": "NEW HAVEN", "addr:country": "US", "addr:full": "40 PUTNAM AVE", "addr:postcode": "06517", "addr:state": "CT", "brand": "USPS", "collection_times": "Mo-Fr 15:00; Sa 12:00", "name": "USPS COLLECTION BOX - PO LOBBY", "note": "ON 12/24 AND 12/31, THIS BOX MAY BE COLLECTED AS EARLY AS 12 NOON.", "ref": "0651700031"}, "type": "Feature"}
{"geometry": {"coordinates": [-72.9015695, 41.410977], "type": "Point"}, "id": "AHc-_E1jQZ_d2WIuHrZwgvwPpMg=", "properties": {"@spider": "usps_collection_boxes", "addr:city": "HAMDEN", "addr:country": "US", "addr:full": "3190 WHITNEY AVE", "addr:postcode": "06518", "addr:state": "CT", "brand": "USPS", "collection_times": "Mo-Fr 13:30", "name": "USPS COLLECTION BOX - BLUE BOX", "note": "ON 12/24 AND 12/31, THIS BOX MAY BE COLLECTED AS EARLY AS 12 NOON.", "ref": "0651800004"}, "type": "Feature"}
{"geometry": {"coordinates": [-72.9055574, 41.421426], "type": "Point"}, "id": "OzIKZKYJ-FHgdmG4RhsPSRNCI_U=", "properties": {"@spider": "usps_collection_boxes", "addr:city": "HAMDEN", "addr:country": "US", "addr:full": "3490 WHITNEY AVE", "addr:postcode": "06518", "addr:state": "CT", "brand": "USPS", "collection_times": "Mo-Fr 13:30; Sa 11:45", "name": "USPS COLLECTION BOX - BLUE BOX", "note": "ON 12/24 AND 12/31, THIS BOX MAY BE COLLECTED AS EARLY AS 12 NOON.", "ref": "0651800005"}, "type": "Feature"}
{"geometry": {"coordinates": [-72.9009449, 41.381844], "type": "Point"}, "id": "2UqrqxckNOx8aZ6KPeTBemoqzl0=", "properties": {"@spider": "usps_collection_boxes", "addr:city": "HAMDEN", "addr:country": "US", "addr:full": "2319 WHITNEY AVE", "addr:postcode": "06518", "addr:state": "CT", "brand": "USPS", "collection_times": "Mo-Fr 12:30; Sa 11:30", "name": "USPS COLLECTION BOX - BLUE BOX", "note": "ON 12/24 AND 12/31, THIS BOX MAY BE COLLECTED AS EARLY AS 12 NOON.", "ref": "0651800008"}, "type": "Feature"}
{"geometry": {"coordinates": [-72.907272, 41.383895], "type": "Point"}, "id": "9vckTy41ByEyCp7LZlyd6JE5F88=", "properties": {"@spider": "usps_collection_boxes", "addr:city": "HAMDEN", "addr:country": "US", "addr:full": "1 EVERGREEN AVE", "addr:postcode": "06518", "addr:state": "CT", "brand": "USPS", "collection_times": "Mo-Fr 13:00; Sa 12:00", "name": "USPS COLLECTION BOX - BLUE BOX", "note": "ON 12/24 AND 12/31, THIS BOX MAY BE COLLECTED AS EARLY AS 12 NOON.", "ref": "0651800025"}, "type": "Feature"}
{"geometry": {"coordinates": [-72.9009785, 41.381854], "type": "Point"}, "id": "b71_JRseh5QoF-JWDxKkA0KH_b8=", "properties": {"@spider": "usps_collection_boxes", "addr:city": "HAMDEN", "addr:country": "US", "addr:full": "2319 WHITNEY AVE", "addr:postcode": "06518", "addr:state": "CT", "brand": "USPS", "collection_times": "Mo-Sa 11:00", "name": "USPS COLLECTION BOX - BLUE BOX", "ref": "0651800027"}, "type": "Feature"}
{"geometry": {"coordinates": [-72.900109, 41.388308], "type": "Point"}, "id": "Xp3tbL5vxzd3tXHHLlNR6L0D8cY=", "properties": {"@spider": "usps_collection_boxes", "addr:city": "HAMDEN", "addr:country": "US", "addr:full": "2514 WHITNEY AVE", "addr:postcode": "06518", "addr:state": "CT", "brand": "USPS", "collection_times": "Mo-Fr 14:00; Sa 12:00", "name": "USPS COLLECTION BOX - PO LOBBY", "note": "ON 12/24 AND 12/31, THIS BOX MAY BE COLLECTED AS EARLY AS 12 NOON.", "ref": "0651800030"}, "type": "Feature"}
{"geometry": {"coordinates": [-72.9049599, 41.383204], "type": "Point"}, "id": "RQG42N4dTPn7XAFzQENyUSymZ6g=", "properties": {"@spider": "usps_collection_boxes", "addr:city": "HAMDEN", "addr:country": "US", "addr:full": "2901 DIXWELL AVE", "addr:postcode": "06518", "addr:state": "CT", "brand": "USPS", "collection_times": "Mo-Fr 12:30; Sa 11:30", "name": "USPS COLLECTION BOX - BLUE BOX", "note": "ON 12/24 AND 12/31, THIS BOX MAY BE COLLECTED AS EARLY AS 12 NOON.", "ref": "0651800034"}, "type": "Feature"}
{"geometry": {"coordinates": [-72.902578555, 41.381372054], "type": "Point"}, "id": "DGjffrQt1S8a39-BP8ipkATiwbg=", "properties": {"@spider": "usps_collection_boxes", "addr:city": "HAMDEN", "addr:country": "US", "addr:full": "2305 WHITNEY AVE", "addr:postcode": "06518", "addr:state": "CT", "brand": "USPS", "collection_times": "Mo-Fr 16:30", "name": "USPS COLLECTION BOX - PO LOBBY", "note": "ON 12/24 AND 12/31, THIS BOX MAY BE COLLECTED AS EARLY AS 12 NOON.", "ref": "0651800038"}, "type": "Feature"}
{"geometry": {"coordinates": [-72.900109511, 41.38830269], "type": "Point"}, "id": "mLNyOi94IwfXUCCuAv_dsMmd8OI=", "properties": {"@spider": "usps_collection_boxes", "addr:city": "HAMDEN", "addr:country": "US", "addr:full": "2514 WHITNEY AVE", "addr:postcode": "06518", "addr:state": "CT", "brand": "USPS", "collection_times": "Mo-Fr 14:00; Sa 12:45", "name": "USPS COLLECTION BOX - PO LOBBY", "note": "ON 12/24 AND 12/31, THIS BOX MAY BE COLLECTED AS EARLY AS 12 NOON.", "ref": "0651800039"}, "type": "Feature"}
{"geometry": {"coordinates": [-72.9342619, 41.297732], "type": "Point"}, "id": "_hr1Td2L7i1ICJJnI_QIeoAPOd4=", "properties": {"@spider": "usps_collection_boxes", "addr:city": "NEW HAVEN", "addr:country": "US", "addr:full": "615 HOWARD AVE", "addr:postcode": "06519", "addr:state": "CT", "brand": "USPS", "collection_times": "Mo-Fr 12:00", "name": "USPS COLLECTION BOX - BLUE BOX", "ref": "0651900002"}, "type": "Feature"}
{"geometry": {"coordinates": [-72.9260592069, 41.298642882], "type": "Point"}, "id": "zi7fCqyAwp4OiWqukSy4JC1RCKI=", "properties": {"@spider": "usps_collection_boxes", "addr:city": "NEW HAVEN", "addr:country": "US", "addr:full": "50 UNION UN", "addr:postcode": "06519", "addr:state": "CT", "brand": "USPS", "collection_times": "Mo-Fr 12:00; Sa 11:00", "name": "USPS COLLECTION BOX - BLUE BOX", "ref": "0651900003"}, "type": "Feature"}
{"geometry": {"coordinates": [-72.9253784, 41.299656], "type": "Point"}, "id": "_0jdma2yLXj5f5U972gdf9zN0fE=", "properties": {"@spider": "usps_collection_boxes", "addr:city": "NEW HAVEN", "addr:country": "US", "addr:full": "1 UNION UN", "addr:postcode": "06519", "addr:state": "CT", "brand": "USPS", "collection_times": "Mo-Fr 12:00; Sa 11:00", "name": "USPS COLLECTION BOX - BLUE BOX", "ref": "0651900004"}, "type": "Feature"}
{"geometry": {"coordinates": [-72.929077, 41.301729], "type": "Point"}, "id": "Dh6DmHSg-RrJ9UJ8SLc4AICLe4w=", "properties": {"@spider": "usps_collection_boxes", "addr:city": "NEW HAVEN", "addr:country": "US", "addr:full": "2 CHURCH ST S", "addr:postcode": "06519", "addr:state": "CT", "brand": "USPS", "collection_times": "Mo-Fr 12:00; Sa 11:00", "name": "USPS COLLECTION BOX - BLUE BOX", "ref": "0651900006"}, "type": "Feature"}
{"geometry": {"coordinates": [-72.9356219, 41.302084], "type": "Point"}, "id": "RMKJgUIDPIQrHudv9fZZ_Z3m4TI=", "properties": {"@spider": "usps_collection_boxes", "addr:city": "NEW HAVEN", "addr:country": "US", "addr:full": "789 HOWARD AVE", "addr:postcode": "06519", "addr:state": "CT", "brand": "USPS", "collection_times": "Mo-Fr 13:00; Sa 11:30", "name": "USPS COLLECTION BOX - BLUE BOX", "note": "ON 12/24 AND 12/31, THIS BOX MAY BE COLLECTED AS EARLY AS 12 NOON.", "ref": "0651900013"}, "type": "Feature"}
{"geometry": {"coordinates": [-72.9353541, 41.301207], "type": "Point"}, "id": "t7Fd2hp9QT8QK4jKgu-fbNlFZx8=", "properties": {"@spider": "usps_collection_boxes", "addr:city": "NEW HAVEN", "addr:country": "US", "addr:full": "420 CONGRESS AVE", "addr:postcode": "06519", "addr:state": "CT", "brand": "USPS", "collection_times": "Mo-Fr 13:15", "name": "USPS COLLECTION BOX - BLUE BOX", "note": "ON 12/24 AND 12/31, THIS BOX MAY BE COLLECTED AS EARLY AS 12 NOON.", "ref": "0651900016"}, "type": "Feature"}
{"geometry": {"coordinates": [-72.9339367987, 41.3016486216], "type": "Point"}, "id": "PAydiWcrIjN0lqxIdQhUUbqjyg4=", "properties": {"@spider": "usps_collection_boxes", "addr:city": "NEW HAVEN", "addr:country": "US", "addr:full": "350 CONGRESS AVE", "addr:postcode": "06519", "addr:state": "CT", "brand": "USPS", "collection_times": "Mo-Fr 15:00; Sa 11:30", "name": "USPS COLLECTION BOX - BLUE BOX", "note": "ON 12/24 AND 12/31, THIS BOX MAY BE COLLECTED AS EARLY AS 12 NOON.", "ref": "0651900017"}, "type": "Feature"}
{"geometry": {"coordinates": [-72.9392424, 41.302311], "type": "Point"}, "id": "qL25qqU5q4x_HhzkeP8zQ8N-Ek4=", "properties": {"@spider": "usps_collection_boxes", "addr:city": "NEW HAVEN", "addr:country": "US", "addr:full": "169 DAVENPORT AVE", "addr:postcode": "06519", "addr:state": "CT", "brand": "USPS", "collection_times": "Mo-Sa 11:30", "name": "USPS COLLECTION BOX - BLUE BOX", "ref": "0651900018"}, "type": "Feature"}
{"geometry": {"coordinates": [-72.929283168, 41.299686105], "type": "Point"}, "id": "EDnfNgfKi9JQ3Udjqen24bNu8tg=", "properties": {"@spider": "usps_collection_boxes", "addr:city": "NEW HAVEN", "addr:country": "US", "addr:full": "100 CHURCH ST S", "addr:postcode": "06519", "addr:state": "CT", "brand": "USPS", "collection_times": "Mo-Sa 11:00", "name": "USPS COLLECTION BOX - BLUE BOX", "ref": "0651900019"}, "type": "Feature"}
{"geometry": {"coordinates": [-72.9359145, 41.298183], "type": "Point"}, "id": "oX0GshOKofXm-c14XVkoXHxA2L4=", "properties": {"@spider": "usps_collection_boxes", "addr:city": "NEW HAVEN", "addr:country": "US", "addr:full": "369 WASHINGTON AVE", "addr:postcode": "06519", "addr:state": "CT", "brand": "USPS", "collection_times": "Mo-Sa 12:00", "name": "USPS COLLECTION BOX - BLUE BOX", "ref": "0651900020"}, "type": "Feature"}
{"geometry": {"coordinates": [-72.9299795, 41.300808], "type": "Point"}, "id": "gCcz4YxnuZ4KZdRw5xGyLHa8haU=", "properties": {"@spider": "usps_collection_boxes", "addr:city": "NEW HAVEN", "addr:country": "US", "addr:full": "46 PRINCE ST", "addr:postcode": "06519", "addr:state": "CT", "brand": "USPS", "collection_times": "Mo-Fr 12:00; Sa 11:00", "name": "USPS COLLECTION BOX - BLUE BOX", "ref": "0651900022"}, "type": "Feature"}
{"geometry": {"coordinates": [-72.935588711, 41.298192555], "type": "Point"}, "id": "EZME1f1f7lXe6ZlCv2LTO7JEdAI=", "properties": {"@spider": "usps_collection_boxes", "addr:city": "NEW HAVEN", "addr:country": "US", "addr:full": "369 WASHINGTON AVE", "addr:postcode": "06519", "addr:state": "CT", "brand": "USPS", "collection_times": "Mo-Sa 12:00", "name": "USPS COLLECTION BOX - PO LOBBY", "ref": "0651900023"}, "type": "Feature"}
{"geometry": {"coordinates": [-72.9280243, 41.30078], "type": "Point"}, "id": "o3GJZW5MWK1jPwgxW2qUbqkffgc=", "properties": {"@spider": "usps_collection_boxes", "addr:city": "NEW HAVEN", "addr:country": "US", "addr:full": "18 TOWER LANE TOWER 1", "addr:postcode": "06519", "addr:state": "CT", "brand": "USPS", "collection_times": "Mo-Fr 12:00; Sa 11:00", "name": "USPS COLLECTION BOX - BLUE BOX", "ref": "0651900024"}, "type": "Feature"}
{"geometry": {"coordinates": [-72.9281077, 41.301755], "type": "Point"}, "id": "ZgbS9Oy3Da0iDhXogzsYtba0sbc=", "properties": {"@spider": "usps_collection_boxes", "addr:city": "NEW HAVEN", "addr:country": "US", "addr:full": "18 TOWER LANE TOWER EAST", "addr:postcode": "06519", "addr:state": "CT", "brand": "USPS", "collection_times": "Mo-Fr 12:00; Sa 11:00", "name": "USPS COLLECTION BOX - BLUE BOX", "ref": "0651900025"}, "type": "Feature"}
{"geometry": {"coordinates": [-72.935588711, 41.298192555], "type": "Point"}, "id": "Ovwpz2LW8siKWhCYRi6XkFHaV4M=", "properties": {"@spider": "usps_collection_boxes", "addr:city": "NEW HAVEN", "addr:country": "US", "addr:full": "369 WASHINGTON AVE", "addr:postcode": "06519", "addr:state": "CT", "brand": "USPS", "collection_times": "Mo-Sa 12:00", "name": "USPS COLLECTION BOX - PO LOBBY", "ref": "0651900029"}, "type": "Feature"}
{"geometry": {"coordinates": [-73.0135092, 41.354588], "type": "Point"}, "id": "kXUJu36uwUcnlayqNRxG2jXEMbM=", "properties": {"@spider": "usps_collection_boxes", "addr:city": "BETHANY", "addr:country": "US", "addr:full": "11 MEETINGHOUSE LN", "addr:postcode": "06525", "addr:state": "CT", "brand": "USPS", "collection_times": "Mo-Fr 13:15", "name": "USPS COLLECTION BOX - BLUE BOX", "note": "ON 12/24 AND 12/31, THIS BOX MAY BE COLLECTED AS EARLY AS 12 NOON.", "ref": "0652500004"}, "type": "Feature"}
{"geometry": {"coordinates": [-73.0012089, 41.4229], "type": "Point"}, "id": "eFKYHTRYnGHnm2dlvzCiQFRzPx8=", "properties": {"@spider": "usps_collection_boxes", "addr:city": "BETHANY", "addr:country": "US", "addr:full": "40 PECK", "addr:postcode": "06525", "addr:state": "CT", "brand": "USPS", "collection_times": "Mo-Fr 13:30", "name": "USPS COLLECTION BOX - BLUE BOX", "note": "ON 12/24 AND 12/31, THIS BOX MAY BE COLLECTED AS EARLY AS 12 NOON.", "ref": "0652500005"}, "type": "Feature"}
{"geometry": {"coordinates": [-72.976383998, 41.334286155], "type": "Point"}, "id": "7AUyqq6KIQBS3s7dN1ncLYM7r1U=", "properties": {"@spider": "usps_collection_boxes", "addr:city": "BETHANY", "addr:country": "US", "addr:full": "1449 WHALLEY AVE", "addr:postcode": "06525", "addr:state": "CT", "brand": "USPS", "collection_times": "Mo-Fr 17:00; Sa 12:00", "name": "USPS COLLECTION BOX - BLUE BOX", "note": "ON 12/24 AND 12/31, THIS BOX MAY BE COLLECTED AS EARLY AS 12 NOON.", "ref": "0652500009"}, "type": "Feature"}
{"geometry": {"coordinates": [-72.976581, 41.336485], "type": "Point"}, "id": "9QfeM3lovjU5mbEZPksW_c-5fG8=", "properties": {"@spider": "usps_collection_boxes", "addr:city": "BETHANY", "addr:country": "US", "addr:full": "1449 WHALLEY", "addr:postcode": "06525", "addr:state": "CT", "brand": "USPS", "collection_times": "Mo-Fr 17:00; Sa 12:00", "name": "USPS COLLECTION BOX - PO LOBBY", "note": "ON 12/24 AND 12/31, THIS BOX MAY BE COLLECTED AS EARLY AS 12 NOON.", "ref": "0652500011"}, "type": "Feature"}
{"geometry": {"coordinates": [-72.9904319, 41.44076], "type": "Point"}, "id": "M91jjGDlSFQ9tHgfMY_X5975aOQ=", "properties": {"@spider": "usps_collection_boxes", "addr:city": "BETHANY", "addr:country": "US", "addr:full": "742 AMITY RD", "addr:postcode": "06525", "addr:state": "CT", "brand": "USPS", "collection_times": "Mo-Fr 13:30", "name": "USPS COLLECTION BOX - BLUE BOX", "note": "ON 12/24 AND 12/31, THIS BOX MAY BE COLLECTED AS EARLY AS 12 NOON.", "ref": "0652500014"}, "type": "Feature"}
{"geometry": {"coordinates": [-72.9771999, 41.346106], "type": "Point"}, "id": "C7IPLGXZ4LSztQCMUdJ68MFbqe8=", "properties": {"@spider": "usps_collection_boxes", "addr:city": "BETHANY", "addr:country": "US", "addr:full": "6 LUNAR DR", "addr:postcode": "06525", "addr:state": "CT", "brand": "USPS", "collection_times": "Mo-Fr 14:00; Sa 13:45", "name": "USPS COLLECTION BOX - BLUE BOX", "note": "ON 12/24 AND 12/31, THIS BOX MAY BE COLLECTED AS EARLY AS 12 NOON.", "ref": "0652500015"}, "type": "Feature"}
{"geometry": {"coordinates": [-72.9854413, 41.344025], "type": "Point"}, "id": "0XuovRH8d50PKVN6jwngSD8KS2o=", "properties": {"@spider": "usps_collection_boxes", "addr:city": "BETHANY", "addr:country": "US", "addr:full": "270 AMITY RD", "addr:postcode": "06525", "addr:state": "CT", "brand": "USPS", "collection_times": "Mo-Fr 14:00", "name": "USPS COLLECTION BOX - BLUE BOX", "note": "ON 12/24 AND 12/31, THIS BOX MAY BE COLLECTED AS EARLY AS 12 NOON.", "ref": "0652500016"}, "type": "Feature"}
