{"geometry": {"coordinates": [-73.130787, 41.202837], "type": "Point"}, "id": "KitcQZfC2Ybvr3mc-juSES5HeuE=", "properties": {"@spider": "usps_collection_boxes", "addr:city": "STRATFORD", "addr:country": "US", "addr:full": "3100 MAIN ST", "addr:postcode": "06614", "addr:state": "CT", "brand": "USPS", "collection_times": "Mo-Fr 17:00; Sa 15:00", "name": "USPS COLLECTION BOX - BLUE BOX", "note": "ON 12/24 AND 12/31, THIS BOX MAY BE COLLECTED AS EARLY AS 12 NOON.", "ref": "0661400001"}, "type": "Feature"}
{"geometry": {"coordinates": [-73.1094379, 41.249961], "type": "Point"}, "id": "ABXn8z-nVW4Ak-VpBf6NRTXRPR0=", "properties": {"@spider": "usps_collection_boxes", "addr:city": "STRATFORD", "addr:country": "US", "addr:full": "925 ORONOQUE LN", "addr:postcode": "06614", "addr:state": "CT", "brand": "USPS", "collection_times": "Mo-Fr 15:15; Sa 10:30", "name": "USPS COLLECTION BOX - BLUE BOX", "note": "ON 12/24 AND 12/31, THIS BOX MAY BE COLLECTED AS EARLY AS 12 NOON.", "ref": "0661400005"}, "type": "Feature"}
{"geometry": {"coordinates": [-73.1323914, 41.199065], "type": "Point"}, "id": "0IuVcl1plGVEVORc5qVW0ghEGAQ=", "properties": {"@spider": "usps_collection_boxes", "addr:city": "STRATFORD", "addr:country": "US", "addr:full": "1030 BARNUM AVE", "addr:postcode": "06614", "addr:state": "CT", "brand": "USPS", "collection_times": "Mo-Sa 10:00", "name": "USPS COLLECTION BOX - BLUE BOX", "ref": "0661400006"}, "type": "Feature"}
{"geometry": {"coordinates": [-73.1016246, 41.249645], "type": "Point"}, "id": "uaTAagwztCE2r5fdDMjfuhF40q4=", "properties": {"@spider": "usps_collection_boxes", "addr:city": "STRATFORD", "addr:country": "US", "addr:full": "7003 MAIN ST", "addr:postcode": "06614", "addr:state": "CT", "brand": "USPS", "collection_times": "Mo-Sa 10:00", "name": "USPS COLLECTION BOX - BLUE BOX", "ref": "0661400023"}, "type": "Feature"}
{"geometry": {"coordinates": [-73.1193915, 41.213524], "type": "Point"}, "id": "6nqCTLbltgvnglb9G4vJGwDTyQ0=", "properties": {"@spider": "usps_collection_boxes", "addr:city": "STRATFORD", "addr:country": "US", "addr:full": "966 E MAIN ST", "addr:postcode": "06614", "addr:state": "CT", "brand": "USPS", "collection_times": "Mo-Sa 11:00", "name": "USPS COLLECTION BOX - BLUE BOX", "ref": "0661400030"}, "type": "Feature"}
{"geometry": {"coordinates": [-73.104341424, 41.242270016], "type": "Point"}, "id": "9hISZA6Vp0YNGRnzUue1hxL3CkM=", "properties": {"@spider": "usps_collection_boxes", "addr:city": "STRATFORD", "addr:country": "US", "addr:full": "3355 MAIN ST", "addr:postcode": "06614", "addr:state": "CT", "brand": "USPS", "collection_times": "Mo-Fr 09:00; Sa 09:45", "name": "USPS COLLECTION BOX - BLUE BOX", "ref": "0661400034"}, "type": "Feature"}
{"geometry": {"coordinates": [-73.124325, 41.197239], "type": "Point"}, "id": "TIf9Qw9ZMmb16VEL82lmDgOrjWw=", "properties": {"@spider": "usps_collection_boxes", "addr:city": "STRATFORD", "addr:country": "US", "addr:full": "411 BARNUM AVENUE CUTOFF", "addr:postcode": "06614", "addr:state": "CT", "brand": "USPS", "collection_times": "Mo-Fr 17:00; Sa 15:00", "name": "USPS COLLECTION BOX - BLUE BOX", "note": "ON 12/24 AND 12/31, THIS BOX MAY BE COLLECTED AS EARLY AS 12 NOON.", "ref": "0661400037"}, "type": "Feature"}
{"geometry": {"coordinates": [-73.1312586, 41.200576], "type": "Point"}, "id": "NAUF6BoOx4s9XR7ZA-XkWSAvO_Q=", "properties": {"@spider": "usps_collection_boxes", "addr:city": "STRATFORD", "addr:country": "US", "addr:full": "2940 MAIN ST", "addr:postcode": "06614", "addr:state": "CT", "brand": "USPS", "collection_times": "Mo-Sa 10:00", "name": "USPS COLLECTION BOX - BLUE BOX", "ref": "0661400038"}, "type": "Feature"}
{"geometry": {"coordinates": [-73.0986533, 41.251413], "type": "Point"}, "id": "R3Vi3ruMUA2dTKDRf0D7R8LN_lk=", "properties": {"@spider": "usps_collection_boxes", "addr:city": "STRATFORD", "addr:country": "US", "addr:full": "6900 MAIN ST", "addr:postcode": "06614", "addr:state": "CT", "brand": "USPS", "collection_times": "Mo-Fr 14:45; Sa 10:30", "name": "USPS COLLECTION BOX - BLUE BOX", "note": "ON 12/24 AND 12/31, THIS BOX MAY BE COLLECTED AS EARLY AS 12 NOON.", "ref": "0661400050"}, "type": "Feature"}
{"geometry": {"coordinates": [-73.0978199, 41.253512], "type": "Point"}, "id": "pys3j89CqBt44S73sMZu1A5av40=", "properties": {"@spider": "usps_collection_boxes", "addr:city": "STRATFORD", "addr:country": "US", "addr:full": "6900 MAIN ST", "addr:postcode": "06614", "addr:state": "CT", "brand": "USPS", "collection_times": "Mo-Fr 14:45; Sa 10:30", "name": "USPS COLLECTION BOX - BLUE BOX", "note": "ON 12/24 AND 12/31, THIS BOX MAY BE COLLECTED AS EARLY AS 12 NOON.", "ref": "0661400051"}, "type": "Feature"}
{"geometry": {"coordinates": [-73.1310995, 41.202731], "type": "Point"}, "id": "vjW2gMeQYs4_NxlzuG7cksqzxBw=", "properties": {"@spider": "usps_collection_boxes", "addr:city": "STRATFORD", "addr:country": "US", "addr:full": "3100 MAIN ST", "addr:postcode": "06614", "addr:state": "CT", "brand": "USPS", "collection_times": "Mo-Sa 17:00", "name": "USPS COLLECTION BOX - PO LOBBY", "note": "ON 12/24 AND 12/31, THIS BOX MAY BE COLLECTED AS EARLY AS 12 NOON.", "ref": "0661400054"}, "type": "Feature"}
{"geometry": {"coordinates": [-73.124325, 41.197239], "type": "Point"}, "id": "C0o6do5NNEce8YYZ8w5UTtnNADQ=", "properties": {"@spider": "usps_collection_boxes", "addr:city": "STRATFORD", "addr:country": "US", "addr:full": "411 BARNUM AVENUE CUTOFF", "addr:postcode": "06614", "addr:state": "CT", "brand": "USPS", "collection_times": "Mo-Fr 17:00; Sa 14:00", "name": "USPS COLLECTION BOX - BLUE BOX", "note": "ON 12/24 AND 12/31, THIS BOX MAY BE COLLECTED AS EARLY AS 12 NOON.", "ref": "0661400059"}, "type": "Feature"}
{"geometry": {"coordinates": [-73.1319783, 41.197818], "type": "Point"}, "id": "C3hGD7ALPBVCOMSKJdUe3Z_nMfk=", "properties": {"@spider": "usps_collection_boxes", "addr:city": "STRATFORD", "addr:country": "US", "addr:full": "2725 MAIN ST", "addr:postcode": "06615", "addr:state": "CT", "brand": "USPS", "collection_times": "Mo-Fr 15:30; Sa 10:30", "name": "USPS COLLECTION BOX - BLUE BOX", "note": "ON 12/24 AND 12/31, THIS BOX MAY BE COLLECTED AS EARLY AS 12 NOON.", "ref": "0661500002"}, "type": "Feature"}
{"geometry": {"coordinates": [-73.1321119, 41.194652], "type": "Point"}, "id": "wGKJhzl-7NpoBlSKUqwm46gyKa8=", "properties": {"@spider": "usps_collection_boxes", "addr:city": "STRATFORD", "addr:country": "US", "addr:full": "2505 MAIN ST", "addr:postcode": "06615", "addr:state": "CT", "brand": "USPS", "collection_times": "Mo-Fr 15:30; Sa 10:30", "name": "USPS COLLECTION BOX - BLUE BOX", "note": "ON 12/24 AND 12/31, THIS BOX MAY BE COLLECTED AS EARLY AS 12 NOON.", "ref": "0661500004"}, "type": "Feature"}
{"geometry": {"coordinates": [-73.126017, 41.152073], "type": "Point"}, "id": "xqnki1Vu2eked5TLmc8OI34nppc=", "properties": {"@spider": "usps_collection_boxes", "addr:city": "STRATFORD", "addr:country": "US", "addr:full": "241 JEFFERSON ST", "addr:postcode": "06615", "addr:state": "CT", "brand": "USPS", "collection_times": "Mo-Sa 10:00", "name": "USPS COLLECTION BOX - BLUE BOX", "ref": "0661500009"}, "type": "Feature"}
{"geometry": {"coordinates": [-73.1193795, 41.154721], "type": "Point"}, "id": "2HtJ82VXJSF4jmRKTfPRyleiEx8=", "properties": {"@spider": "usps_collection_boxes", "addr:city": "STRATFORD", "addr:country": "US", "addr:full": "631 STRATFORD RD", "addr:postcode": "06615", "addr:state": "CT", "brand": "USPS", "collection_times": "Mo-Sa 10:00", "name": "USPS COLLECTION BOX - BLUE BOX", "ref": "0661500012"}, "type": "Feature"}
{"geometry": {"coordinates": [-73.1305131, 41.186778], "type": "Point"}, "id": "HNUiUhDI91R631dNV2SbzJWOXNY=", "properties": {"@spider": "usps_collection_boxes", "addr:city": "STRATFORD", "addr:country": "US", "addr:full": "1889 MAIN ST", "addr:postcode": "06615", "addr:state": "CT", "brand": "USPS", "collection_times": "Mo-Sa 10:00", "name": "USPS COLLECTION BOX - BLUE BOX", "ref": "0661500023"}, "type": "Feature"}
{"geometry": {"coordinates": [-73.1302884, 41.191276], "type": "Point"}, "id": "gHSRpeP0VWMGhxRN6BB7ZlxRvj0=", "properties": {"@spider": "usps_collection_boxes", "addr:city": "STRATFORD", "addr:country": "US", "addr:full": "2220 MAIN ST", "addr:postcode": "06615", "addr:state": "CT", "brand": "USPS", "collection_times": "Mo-Sa 10:00", "name": "USPS COLLECTION BOX - BLUE BOX", "ref": "0661500025"}, "type": "Feature"}
{"geometry": {"coordinates": [-73.123248, 41.193525], "type": "Point"}, "id": "YYuscihlCOVBKa1_zoh4e1AU8Hk=", "properties": {"@spider": "usps_collection_boxes", "addr:city": "STRATFORD", "addr:country": "US", "addr:full": "281 FERRY BLVD", "addr:postcode": "06615", "addr:state": "CT", "brand": "USPS", "collection_times": "Mo-Sa 10:00", "name": "USPS COLLECTION BOX - BLUE BOX", "ref": "0661500030"}, "type": "Feature"}
{"geometry": {"coordinates": [-73.1194981, 41.194259], "type": "Point"}, "id": "0-xmWjw9O60U63oicGUpdwAzVj0=", "properties": {"@spider": "usps_collection_boxes", "addr:city": "STRATFORD", "addr:country": "US", "addr:full": "355 HOUSATONIC AVE", "addr:postcode": "06615", "addr:state": "CT", "brand": "USPS", "collection_times": "Mo-Sa 10:00", "name": "USPS COLLECTION BOX - BLUE BOX", "ref": "0661500034"}, "type": "Feature"}
{"geometry": {"coordinates": [-73.132142, 41.195049], "type": "Point"}, "id": "no4T7z8ZyR9NEO6ZqgSgom1XWpQ=", "properties": {"@spider": "usps_collection_boxes", "addr:city": "STRATFORD", "addr:country": "US", "addr:full": "2505 MAIN ST", "addr:postcode": "06615", "addr:state": "CT", "brand": "USPS", "collection_times": "Mo-Fr 15:30; Sa 10:30", "name": "USPS COLLECTION BOX - BLUE BOX", "note": "ON 12/24 AND 12/31, THIS BOX MAY BE COLLECTED AS EARLY AS 12 NOON.", "ref": "0661500038"}, "type": "Feature"}
