{"geometry": {"coordinates": [-73.0418433806, 41.5537157534], "type": "Point"}, "id": "7J6B4Id33PJCeILiR-WbPIOvH2Y=", "properties": {"@source_uri": "https://tools.usps.com/UspsToolsRestServices/rest/POLocator/findLocations", "@spider": "usps_collection_boxes", "addr:city": "WATERBURY", "addr:country": "US", "addr:postcode": "06701", "addr:state": "CT", "addr:street_address": "135 GRAND ST", "amenity": "post_box", "collection_times": "Mo-Sa 18:00", "note": "ON 12/24 AND 12/31, THIS BOX MAY BE COLLECTED AS EARLY AS 12 NOON.", "nsi_id": "unitedstatespostalservice-a77078", "operator": "United States Postal Service", "operator:short": "USPS", "operator:type": "public", "operator:wikidata": "Q668687", "ref": "0670100001"}, "type": "Feature"}
{"geometry": {"coordinates": [-73.0414575, 41.557833], "type": "Point"}, "id": "lwNj1utfpRp0bpBcfFRN7WqTwZk=", "properties": {"@source_uri": "https://tools.usps.com/UspsToolsRestServices/rest/POLocator/findLocations", "@spider": "usps_collection_boxes", "addr:city": "WATERBURY", "addr:country": "US", "addr:postcode": "06702", "addr:state": "CT", "addr:street_address": "41 PROSPECT ST", "amenity": "post_box", "collection_times": "Mo-Sa 10:00", "nsi_id": "unitedstatespostalservice-a77078", "operator": "United States Postal Service", "operator:short": "USPS", "operator:type": "public", "operator:wikidata": "Q668687", "ref": "0670200003"}, "type": "Feature"}
{"geometry": {"coordinates": [-73.0388565, 41.557437], "type": "Point"}, "id": "6QM2WmX8m7B7K5egneBxyEHSVS8=", "properties": {"@source_uri": "https://tools.usps.com/UspsToolsRestServices/rest/POLocator/findLocations", "@spider": "usps_collection_boxes", "addr:city": "WATERBURY", "addr:country": "US", "addr:postcode": "06702", "addr:state": "CT", "addr:street_address": "80 PHOENIX AVE", "amenity": "post_box", "collection_times": "Mo-Sa 10:00", "nsi_id": "unitedstatespostalservice-a77078", "operator": "United States Postal Service", "operator:short": "USPS", "operator:type": "public", "operator:wikidata": "Q668687", "ref": "0670200004"}, "type": "Feature"}
{"geometry": {"coordinates": [-73.036233, 41.554962], "type": "Point"}, "id": "pY3mowkjXGd5NOTkCGkZBBG98NY=", "properties": {"@source_uri": "https://tools.usps.com/UspsToolsRestServices/rest/POLocator/findLocations", "@spider": "usps_collection_boxes", "addr:city": "WATERBURY", "addr:country": "US", "addr:postcode": "06702", "addr:state": "CT", "addr:street_address": "255 E MAIN ST", "amenity": "post_box", "collection_times": "Mo-Sa 13:00", "note": "ON 12/24 AND 12/31, THIS BOX MAY BE COLLECTED AS EARLY AS 12 NOON.", "nsi_id": "unitedstatespostalservice-a77078", "operator": "United States Postal Service", "operator:short": "USPS", "operator:type": "public", "operator:wikidata": "Q668687", "ref": "0670200008"}, "type": "Feature"}
{"geometry": {"coordinates": [-73.0422216209, 41.5550145428], "type": "Point"}, "id": "3FDm1rjLh_tbLQXxBmfAsJQW0Cw=", "properties": {"@source_uri": "https://tools.usps.com/UspsToolsRestServices/rest/POLocator/findLocations", "@spider": "usps_collection_boxes", "addr:city": "WATERBURY", "addr:country": "US", "addr:postcode": "06702", "addr:state": "CT", "addr:street_address": "76 CENTER ST", "amenity": "post_box", "collection_times": "Mo-Sa 10:00", "nsi_id": "unitedstatespostalservice-a77078", "operator": "United States Postal Service", "operator:short": "USPS", "operator:type": "public", "operator:wikidata": "Q668687", "ref": "0670200017"}, "type": "Feature"}
{"geometry": {"coordinates": [-73.04135, 41.558085], "type": "Point"}, "id": "goQQOeXk_zh7Tku2cAdUWD1X-p4=", "properties": {"@source_uri": "https://tools.usps.com/UspsToolsRestServices/rest/POLocator/findLocations", "@spider": "usps_collection_boxes", "addr:city": "WATERBURY", "addr:country": "US", "addr:postcode": "06702", "addr:state": "CT", "addr:street_address": "232 N ELM ST", "amenity": "post_box", "collection_times": "Mo-Sa 12:30", "note": "ON 12/24 AND 12/31, THIS BOX MAY BE COLLECTED AS EARLY AS 12 NOON.", "nsi_id": "unitedstatespostalservice-a77078", "operator": "United States Postal Service", "operator:short": "USPS", "operator:type": "public", "operator:wikidata": "Q668687", "ref": "0670200019"}, "type": "Feature"}
{"geometry": {"coordinates": [-73.038816557, 41.556663839], "type": "Point"}, "id": "0jKBf2f7sNDZW3-ohb_PHiViH50=", "properties": {"@source_uri": "https://tools.usps.com/UspsToolsRestServices/rest/POLocator/findLocations", "@spider": "usps_collection_boxes", "addr:city": "WATERBURY", "addr:country": "US", "addr:postcode": "06702", "addr:state": "CT", "addr:street_address": "45 SAVINGS ST", "amenity": "post_box", "collection_times": "Mo-Sa 10:30", "nsi_id": "unitedstatespostalservice-a77078", "operator": "United States Postal Service", "operator:short": "USPS", "operator:type": "public", "operator:wikidata": "Q668687", "ref": "0670200021"}, "type": "Feature"}
{"geometry": {"coordinates": [-73.0444545, 41.555061], "type": "Point"}, "id": "BGDnJ1x_5VnBBVMOai8B2lAV0pc=", "properties": {"@source_uri": "https://tools.usps.com/UspsToolsRestServices/rest/POLocator/findLocations", "@spider": "usps_collection_boxes", "addr:city": "WATERBURY", "addr:country": "US", "addr:postcode": "06702", "addr:state": "CT", "addr:street_address": "300 GRAND ST", "amenity": "post_box", "collection_times": "Mo-Sa 15:00", "note": "ON 12/24 AND 12/31, THIS BOX MAY BE COLLECTED AS EARLY AS 12 NOON.", "nsi_id": "unitedstatespostalservice-a77078", "operator": "United States Postal Service", "operator:short": "USPS", "operator:type": "public", "operator:wikidata": "Q668687", "ref": "0670200022"}, "type": "Feature"}
{"geometry": {"coordinates": [-73.0476553879, 41.5579680552], "type": "Point"}, "id": "5OUyeFMVJWjjO14n_NQd7ngo6dY=", "properties": {"@source_uri": "https://tools.usps.com/UspsToolsRestServices/rest/POLocator/findLocations", "@spider": "usps_collection_boxes", "addr:city": "WATERBURY", "addr:country": "US", "addr:postcode": "06702", "addr:state": "CT", "addr:street_address": "395 W MAIN ST", "amenity": "post_box", "collection_times": "Mo-Sa 11:00", "nsi_id": "unitedstatespostalservice-a77078", "operator": "United States Postal Service", "operator:short": "USPS", "operator:type": "public", "operator:wikidata": "Q668687", "ref": "0670200026"}, "type": "Feature"}
{"geometry": {"coordinates": [-73.0428275121, 41.5570467154], "type": "Point"}, "id": "Z-_uxPdKgxF8SIhqziYc-6SUBGQ=", "properties": {"@source_uri": "https://tools.usps.com/UspsToolsRestServices/rest/POLocator/findLocations", "@spider": "usps_collection_boxes", "addr:city": "WATERBURY", "addr:country": "US", "addr:postcode": "06702", "addr:state": "CT", "addr:street_address": "136 W MAIN ST", "amenity": "post_box", "collection_times": "Mo-Sa 15:00", "note": "ON 12/24 AND 12/31, THIS BOX MAY BE COLLECTED AS EARLY AS 12 NOON.", "nsi_id": "unitedstatespostalservice-a77078", "operator": "United States Postal Service", "operator:short": "USPS", "operator:type": "public", "operator:wikidata": "Q668687", "ref": "0670200032"}, "type": "Feature"}
{"geometry": {"coordinates": [-73.0413945, 41.552406], "type": "Point"}, "id": "7ECWwJR4H0EloAvi2WlVWDi3Ji4=", "properties": {"@source_uri": "https://tools.usps.com/UspsToolsRestServices/rest/POLocator/findLocations", "@spider": "usps_collection_boxes", "addr:city": "WATERBURY", "addr:country": "US", "addr:postcode": "06702", "addr:state": "CT", "addr:street_address": "255 BANK ST", "amenity": "post_box", "collection_times": "Mo-Sa 10:00", "nsi_id": "unitedstatespostalservice-a77078", "operator": "United States Postal Service", "operator:short": "USPS", "operator:type": "public", "operator:wikidata": "Q668687", "ref": "0670200035"}, "type": "Feature"}
{"geometry": {"coordinates": [-73.04135, 41.558085], "type": "Point"}, "id": "WhH-iDiyc3m1OO6Gv0CTpjEzW3Y=", "properties": {"@source_uri": "https://tools.usps.com/UspsToolsRestServices/rest/POLocator/findLocations", "@spider": "usps_collection_boxes", "addr:city": "WATERBURY", "addr:country": "US", "addr:postcode": "06702", "addr:state": "CT", "addr:street_address": "30 W MAIN ST", "amenity": "post_box", "collection_times": "Mo-Sa 15:00", "note": "ON 12/24 AND 12/31, THIS BOX MAY BE COLLECTED AS EARLY AS 12 NOON.", "nsi_id": "unitedstatespostalservice-a77078", "operator": "United States Postal Service", "operator:short": "USPS", "operator:type": "public", "operator:wikidata": "Q668687", "ref": "0670200036"}, "type": "Feature"}
{"geometry": {"coordinates": [-73.0407195, 41.553783], "type": "Point"}, "id": "Rbdv3XX7XtPE_xzxCbi477qwv08=", "properties": {"@source_uri": "https://tools.usps.com/UspsToolsRestServices/rest/POLocator/findLocations", "@spider": "usps_collection_boxes", "addr:city": "WATERBURY", "addr:country": "US", "addr:postcode": "06702", "addr:state": "CT", "addr:street_address": "145 BANK ST", "amenity": "post_box", "collection_times": "Mo-Sa 11:00", "nsi_id": "unitedstatespostalservice-a77078", "operator": "United States Postal Service", "operator:short": "USPS", "operator:type": "public", "operator:wikidata": "Q668687", "ref": "0670200045"}, "type": "Feature"}
{"geometry": {"coordinates": [-73.0410301764, 41.5544575813], "type": "Point"}, "id": "vigPdHins63_09gYj2IY-74ga0Q=", "properties": {"@source_uri": "https://tools.usps.com/UspsToolsRestServices/rest/POLocator/findLocations", "@spider": "usps_collection_boxes", "addr:city": "WATERBURY", "addr:country": "US", "addr:postcode": "06702", "addr:state": "CT", "addr:street_address": "108 BANK ST", "amenity": "post_box", "collection_times": "Mo-Sa 12:00", "nsi_id": "unitedstatespostalservice-a77078", "operator": "United States Postal Service", "operator:short": "USPS", "operator:type": "public", "operator:wikidata": "Q668687", "ref": "0670200046"}, "type": "Feature"}
{"geometry": {"coordinates": [-73.05498, 41.562468], "type": "Point"}, "id": "0ocV94HQCUKyWEz1JPiSvRvnK7M=", "properties": {"@source_uri": "https://tools.usps.com/UspsToolsRestServices/rest/POLocator/findLocations", "@spider": "usps_collection_boxes", "addr:city": "WATERBURY", "addr:country": "US", "addr:postcode": "06702", "addr:state": "CT", "addr:street_address": "249 THOMASTON AVE", "amenity": "post_box", "collection_times": "Mo-Sa 15:00", "note": "ON 12/24 AND 12/31, THIS BOX MAY BE COLLECTED AS EARLY AS 12 NOON.", "nsi_id": "unitedstatespostalservice-a77078", "operator": "United States Postal Service", "operator:short": "USPS", "operator:type": "public", "operator:wikidata": "Q668687", "ref": "0670200051"}, "type": "Feature"}
{"geometry": {"coordinates": [-73.0082551662, 41.5709244358], "type": "Point"}, "id": "E-3hbh-HG1buOhYBfboSwRuIz84=", "properties": {"@source_uri": "https://tools.usps.com/UspsToolsRestServices/rest/POLocator/findLocations", "@spider": "usps_collection_boxes", "addr:city": "WATERBURY", "addr:country": "US", "addr:postcode": "06704", "addr:state": "CT", "addr:street_address": "797 LAKEWOOD RD", "amenity": "post_box", "collection_times": "Mo-Sa 17:00", "note": "ON 12/24 AND 12/31, THIS BOX MAY BE COLLECTED AS EARLY AS 12 NOON.", "nsi_id": "unitedstatespostalservice-a77078", "operator": "United States Postal Service", "operator:short": "USPS", "operator:type": "public", "operator:wikidata": "Q668687", "ref": "0670400007"}, "type": "Feature"}
{"geometry": {"coordinates": [-73.0335795656, 41.5696233914], "type": "Point"}, "id": "PJlLUzorH__bkOZhmzqxvUtZVN8=", "properties": {"@source_uri": "https://tools.usps.com/UspsToolsRestServices/rest/POLocator/findLocations", "@spider": "usps_collection_boxes", "addr:city": "WATERBURY", "addr:country": "US", "addr:postcode": "06704", "addr:state": "CT", "addr:street_address": "262 HILL ST", "amenity": "post_box", "collection_times": "Mo-Sa 10:00", "nsi_id": "unitedstatespostalservice-a77078", "operator": "United States Postal Service", "operator:short": "USPS", "operator:type": "public", "operator:wikidata": "Q668687", "ref": "0670400016"}, "type": "Feature"}
{"geometry": {"coordinates": [-73.0302922, 41.5636057], "type": "Point"}, "id": "iu-mjXwmPZ5WH7rwcp-oQDgkrxI=", "properties": {"@source_uri": "https://tools.usps.com/UspsToolsRestServices/rest/POLocator/findLocations", "@spider": "usps_collection_boxes", "addr:city": "WATERBURY", "addr:country": "US", "addr:postcode": "06704", "addr:state": "CT", "addr:street_address": "41 WIGWAM AVE", "amenity": "post_box", "collection_times": "Mo-Sa 17:00", "note": "ON 12/24 AND 12/31, THIS BOX MAY BE COLLECTED AS EARLY AS 12 NOON.", "nsi_id": "unitedstatespostalservice-a77078", "operator": "United States Postal Service", "operator:short": "USPS", "operator:type": "public", "operator:wikidata": "Q668687", "ref": "0670400021"}, "type": "Feature"}
{"geometry": {"coordinates": [-73.0619095484, 41.5873760313], "type": "Point"}, "id": "Icu8aZHr_5UUZwfICo4mzMttz3s=", "properties": {"@source_uri": "https://tools.usps.com/UspsToolsRestServices/rest/POLocator/findLocations", "@spider": "usps_collection_boxes", "addr:city": "WATERBURY", "addr:country": "US", "addr:postcode": "06704", "addr:state": "CT", "addr:street_address": "283 COLONIAL AVE", "amenity": "post_box", "collection_times": "Mo-Sa 10:00", "nsi_id": "unitedstatespostalservice-a77078", "operator": "United States Postal Service", "operator:short": "USPS", "operator:type": "public", "operator:wikidata": "Q668687", "ref": "0670400024"}, "type": "Feature"}
{"geometry": {"coordinates": [-73.034936906, 41.582515151], "type": "Point"}, "id": "mwnxqFH4d-NOYcF8OkwAkoB26ZU=", "properties": {"@source_uri": "https://tools.usps.com/UspsToolsRestServices/rest/POLocator/findLocations", "@spider": "usps_collection_boxes", "addr:city": "WATERBURY", "addr:country": "US", "addr:postcode": "06704", "addr:state": "CT", "addr:street_address": "41 WIGWAM AVE", "amenity": "post_box", "collection_times": "Mo-Sa 17:15", "indoor": "yes", "note": "ON 12/24 AND 12/31, THIS BOX MAY BE COLLECTED AS EARLY AS 12 NOON.", "nsi_id": "unitedstatespostalservice-a77078", "operator": "United States Postal Service", "operator:short": "USPS", "operator:type": "public", "operator:wikidata": "Q668687", "ref": "0670400032"}, "type": "Feature"}
{"geometry": {"coordinates": [-73.0104349312, 41.5527350086], "type": "Point"}, "id": "INj-Iqy85cCs8KPs7VI9jQ5CCdA=", "properties": {"@source_uri": "https://tools.usps.com/UspsToolsRestServices/rest/POLocator/findLocations", "@spider": "usps_collection_boxes", "addr:city": "WATERBURY", "addr:country": "US", "addr:postcode": "06705", "addr:state": "CT", "addr:street_address": "119 STORE AVE", "amenity": "post_box", "collection_times": "Mo-Sa 10:30", "nsi_id": "unitedstatespostalservice-a77078", "operator": "United States Postal Service", "operator:short": "USPS", "operator:type": "public", "operator:wikidata": "Q668687", "ref": "0670500003"}, "type": "Feature"}
{"geometry": {"coordinates": [-73.0029005816, 41.552493393], "type": "Point"}, "id": "jYVIm0Rbv5ZMygMrlRdXKNsFsUU=", "properties": {"@source_uri": "https://tools.usps.com/UspsToolsRestServices/rest/POLocator/findLocations", "@spider": "usps_collection_boxes", "addr:city": "WATERBURY", "addr:country": "US", "addr:postcode": "06705", "addr:state": "CT", "addr:street_address": "489 MERIDEN RD", "amenity": "post_box", "collection_times": "Mo-Sa 10:00", "nsi_id": "unitedstatespostalservice-a77078", "operator": "United States Postal Service", "operator:short": "USPS", "operator:type": "public", "operator:wikidata": "Q668687", "ref": "0670500010"}, "type": "Feature"}
{"geometry": {"coordinates": [-72.9693236315, 41.5530843983], "type": "Point"}, "id": "38bKtOwD3bw_BglhBa1Tal8IaEs=", "properties": {"@source_uri": "https://tools.usps.com/UspsToolsRestServices/rest/POLocator/findLocations", "@spider": "usps_collection_boxes", "addr:city": "WATERBURY", "addr:country": "US", "addr:postcode": "06705", "addr:state": "CT", "addr:street_address": "560 PIERPONT RD", "amenity": "post_box", "collection_times": "Mo-Sa 12:00", "nsi_id": "unitedstatespostalservice-a77078", "operator": "United States Postal Service", "operator:short": "USPS", "operator:type": "public", "operator:wikidata": "Q668687", "ref": "0670500012"}, "type": "Feature"}
{"geometry": {"coordinates": [-72.9968770684, 41.5395715172], "type": "Point"}, "id": "znwV35rsQcznh4duChrvAPnurZc=", "properties": {"@source_uri": "https://tools.usps.com/UspsToolsRestServices/rest/POLocator/findLocations", "@spider": "usps_collection_boxes", "addr:city": "WATERBURY", "addr:country": "US", "addr:postcode": "06705", "addr:state": "CT", "addr:street_address": "464 REIDVILLE DR", "amenity": "post_box", "collection_times": "Mo-Sa 14:00", "note": "ON 12/24 AND 12/31, THIS BOX MAY BE COLLECTED AS EARLY AS 12 NOON.", "nsi_id": "unitedstatespostalservice-a77078", "operator": "United States Postal Service", "operator:short": "USPS", "operator:type": "public", "operator:wikidata": "Q668687", "ref": "0670500013"}, "type": "Feature"}
{"geometry": {"coordinates": [-73.0107, 41.558076], "type": "Point"}, "id": "a5F5tSfsSDpka_EAIo2JcMtdNJE=", "properties": {"@source_uri": "https://tools.usps.com/UspsToolsRestServices/rest/POLocator/findLocations", "@spider": "usps_collection_boxes", "addr:city": "WATERBURY", "addr:country": "US", "addr:postcode": "06705", "addr:state": "CT", "addr:street_address": "650 WOLCOTT ST", "amenity": "post_box", "collection_times": "Mo-Sa 15:00", "note": "ON 12/24 AND 12/31, THIS BOX MAY BE COLLECTED AS EARLY AS 12 NOON.", "nsi_id": "unitedstatespostalservice-a77078", "operator": "United States Postal Service", "operator:short": "USPS", "operator:type": "public", "operator:wikidata": "Q668687", "ref": "0670500015"}, "type": "Feature"}
{"geometry": {"coordinates": [-73.0105640055, 41.56546], "type": "Point"}, "id": "kIbOPwMiCo7ZdAtMUIsUs6Ps92k=", "properties": {"@source_uri": "https://tools.usps.com/UspsToolsRestServices/rest/POLocator/findLocations", "@spider": "usps_collection_boxes", "addr:city": "WATERBURY", "addr:country": "US", "addr:postcode": "06705", "addr:state": "CT", "addr:street_address": "835 WOLCOTT ST", "amenity": "post_box", "collection_times": "Mo-Sa 15:00", "note": "ON 12/24 AND 12/31, THIS BOX MAY BE COLLECTED AS EARLY AS 12 NOON.", "nsi_id": "unitedstatespostalservice-a77078", "operator": "United States Postal Service", "operator:short": "USPS", "operator:type": "public", "operator:wikidata": "Q668687", "ref": "0670500016"}, "type": "Feature"}
{"geometry": {"coordinates": [-72.986562, 41.55309], "type": "Point"}, "id": "VvR_CBgJ5RQ2V4s-VWtLUdG1xKA=", "properties": {"@source_uri": "https://tools.usps.com/UspsToolsRestServices/rest/POLocator/findLocations", "@spider": "usps_collection_boxes", "addr:city": "WATERBURY", "addr:country": "US", "addr:postcode": "06705", "addr:state": "CT", "addr:street_address": "975 MERIDEN RD", "amenity": "post_box", "collection_times": "Mo-Sa 12:30", "note": "ON 12/24 AND 12/31, THIS BOX MAY BE COLLECTED AS EARLY AS 12 NOON.", "nsi_id": "unitedstatespostalservice-a77078", "operator": "United States Postal Service", "operator:short": "USPS", "operator:type": "public", "operator:wikidata": "Q668687", "ref": "0670500018"}, "type": "Feature"}
{"geometry": {"coordinates": [-73.0006690011, 41.5622250045], "type": "Point"}, "id": "bQ00hMMU9A7M05J4nS4-wzrYkxQ=", "properties": {"@source_uri": "https://tools.usps.com/UspsToolsRestServices/rest/POLocator/findLocations", "@spider": "usps_collection_boxes", "addr:city": "WATERBURY", "addr:country": "US", "addr:postcode": "06705", "addr:state": "CT", "addr:street_address": "596 WOODTICK RD", "amenity": "post_box", "collection_times": "Mo-Sa 10:00", "nsi_id": "unitedstatespostalservice-a77078", "operator": "United States Postal Service", "operator:short": "USPS", "operator:type": "public", "operator:wikidata": "Q668687", "ref": "0670500023"}, "type": "Feature"}
{"geometry": {"coordinates": [-72.9988844333, 41.538839981], "type": "Point"}, "id": "kwNVAUUL322GgRtkyPhV9-oQEVA=", "properties": {"@source_uri": "https://tools.usps.com/UspsToolsRestServices/rest/POLocator/findLocations", "@spider": "usps_collection_boxes", "addr:city": "WATERBURY", "addr:country": "US", "addr:postcode": "06705", "addr:state": "CT", "addr:street_address": "410 REIDVILLE DR", "amenity": "post_box", "collection_times": "Mo-Sa 14:00", "note": "ON 12/24 AND 12/31, THIS BOX MAY BE COLLECTED AS EARLY AS 12 NOON.", "nsi_id": "unitedstatespostalservice-a77078", "operator": "United States Postal Service", "operator:short": "USPS", "operator:type": "public", "operator:wikidata": "Q668687", "ref": "0670500024"}, "type": "Feature"}
{"geometry": {"coordinates": [-72.9608504706, 41.5497242736], "type": "Point"}, "id": "2JFPj-VKhNbmh-YweN6XSBhSiYI=", "properties": {"@source_uri": "https://tools.usps.com/UspsToolsRestServices/rest/POLocator/findLocations", "@spider": "usps_collection_boxes", "addr:city": "WATERBURY", "addr:country": "US", "addr:postcode": "06705", "addr:state": "CT", "addr:street_address": "380 HITCHCOCK RD", "amenity": "post_box", "collection_times": "Mo-Sa 14:00", "note": "ON 12/24 AND 12/31, THIS BOX MAY BE COLLECTED AS EARLY AS 12 NOON.", "nsi_id": "unitedstatespostalservice-a77078", "operator": "United States Postal Service", "operator:short": "USPS", "operator:type": "public", "operator:wikidata": "Q668687", "ref": "0670500034"}, "type": "Feature"}
{"geometry": {"coordinates": [-73.0141605, 41.550435], "type": "Point"}, "id": "R1pnzqejV50ZCG_Y1M6yd6Pe3iE=", "properties": {"@source_uri": "https://tools.usps.com/UspsToolsRestServices/rest/POLocator/findLocations", "@spider": "usps_collection_boxes", "addr:city": "WATERBURY", "addr:country": "US", "addr:postcode": "06705", "addr:state": "CT", "addr:street_address": "159 MANOR AVE", "amenity": "post_box", "collection_times": "Mo-Sa 17:00", "note": "ON 12/24 AND 12/31, THIS BOX MAY BE COLLECTED AS EARLY AS 12 NOON.", "nsi_id": "unitedstatespostalservice-a77078", "operator": "United States Postal Service", "operator:short": "USPS", "operator:type": "public", "operator:wikidata": "Q668687", "ref": "0670500036"}, "type": "Feature"}
{"geometry": {"coordinates": [-73.0081666164, 41.565994307], "type": "Point"}, "id": "5MokVg_HrJLiMUV0ECJQlQ-Rm7c=", "properties": {"@source_uri": "https://tools.usps.com/UspsToolsRestServices/rest/POLocator/findLocations", "@spider": "usps_collection_boxes", "addr:city": "WATERBURY", "addr:country": "US", "addr:postcode": "06705", "addr:state": "CT", "addr:street_address": "920 WOLCOTT ST", "amenity": "post_box", "collection_times": "Mo-Sa 15:00", "note": "ON 12/24 AND 12/31, THIS BOX MAY BE COLLECTED AS EARLY AS 12 NOON.", "nsi_id": "unitedstatespostalservice-a77078", "operator": "United States Postal Service", "operator:short": "USPS", "operator:type": "public", "operator:wikidata": "Q668687", "ref": "0670500040"}, "type": "Feature"}
{"geometry": {"coordinates": [-73.014614902, 41.54988188], "type": "Point"}, "id": "w_yPZiBUSzhsott2G0VEIoePEnE=", "properties": {"@source_uri": "https://tools.usps.com/UspsToolsRestServices/rest/POLocator/findLocations", "@spider": "usps_collection_boxes", "addr:city": "WATERBURY", "addr:country": "US", "addr:postcode": "06705", "addr:state": "CT", "addr:street_address": "159 MANOR AVE STE 6", "amenity": "post_box", "collection_times": "Mo-Fr 17:30; Sa 12:30", "indoor": "yes", "note": "ON 12/24 AND 12/31, THIS BOX MAY BE COLLECTED AS EARLY AS 12 NOON.", "nsi_id": "unitedstatespostalservice-a77078", "operator": "United States Postal Service", "operator:short": "USPS", "operator:type": "public", "operator:wikidata": "Q668687", "ref": "0670500044"}, "type": "Feature"}
{"geometry": {"coordinates": [-73.00818107, 41.57084948], "type": "Point"}, "id": "lA_pf1RJTDl9MXIdUTnSVahD_8g=", "properties": {"@source_uri": "https://tools.usps.com/UspsToolsRestServices/rest/POLocator/findLocations", "@spider": "usps_collection_boxes", "addr:city": "WATERBURY", "addr:country": "US", "addr:postcode": "06705", "addr:state": "CT", "addr:street_address": "797 LAKEWOOD AVE", "amenity": "post_box", "collection_times": "Mo-Fr 17:15; Sa 16:45", "indoor": "yes", "note": "ON 12/24 AND 12/31, THIS BOX MAY BE COLLECTED AS EARLY AS 12 NOON.", "nsi_id": "unitedstatespostalservice-a77078", "operator": "United States Postal Service", "operator:short": "USPS", "operator:type": "public", "operator:wikidata": "Q668687", "ref": "0670500045"}, "type": "Feature"}
{"geometry": {"coordinates": [-73.0373527776, 41.5536181887], "type": "Point"}, "id": "ZsD_gZgwDrAqr7sXYNLfKix04js=", "properties": {"@source_uri": "https://tools.usps.com/UspsToolsRestServices/rest/POLocator/findLocations", "@spider": "usps_collection_boxes", "addr:city": "WATERBURY", "addr:country": "US", "addr:postcode": "06706", "addr:state": "CT", "addr:street_address": "95 SCOVILL ST", "amenity": "post_box", "collection_times": "Mo-Sa 10:30", "nsi_id": "unitedstatespostalservice-a77078", "operator": "United States Postal Service", "operator:short": "USPS", "operator:type": "public", "operator:wikidata": "Q668687", "ref": "0670600002"}, "type": "Feature"}
{"geometry": {"coordinates": [-73.0359188015, 41.5314431507], "type": "Point"}, "id": "KpERGeVSDSKyF9Gyshp2lsmjLmo=", "properties": {"@source_uri": "https://tools.usps.com/UspsToolsRestServices/rest/POLocator/findLocations", "@spider": "usps_collection_boxes", "addr:city": "WATERBURY", "addr:country": "US", "addr:postcode": "06706", "addr:state": "CT", "addr:street_address": "1585 BALDWIN ST", "amenity": "post_box", "collection_times": "Mo-Sa 10:00", "nsi_id": "unitedstatespostalservice-a77078", "operator": "United States Postal Service", "operator:short": "USPS", "operator:type": "public", "operator:wikidata": "Q668687", "ref": "0670600003"}, "type": "Feature"}
{"geometry": {"coordinates": [-73.0339978051, 41.5350988013], "type": "Point"}, "id": "ADxdlqIB37zIJfIvIyqxgh5baWY=", "properties": {"@source_uri": "https://tools.usps.com/UspsToolsRestServices/rest/POLocator/findLocations", "@spider": "usps_collection_boxes", "addr:city": "WATERBURY", "addr:country": "US", "addr:postcode": "06706", "addr:state": "CT", "addr:street_address": "1291 BALDWIN ST", "amenity": "post_box", "collection_times": "Mo-Sa 10:00", "nsi_id": "unitedstatespostalservice-a77078", "operator": "United States Postal Service", "operator:short": "USPS", "operator:type": "public", "operator:wikidata": "Q668687", "ref": "0670600010"}, "type": "Feature"}
{"geometry": {"coordinates": [-73.0407088003, 41.5555553307], "type": "Point"}, "id": "gbCnp6n2ql04QARNHoO-qQ6FugA=", "properties": {"@source_uri": "https://tools.usps.com/UspsToolsRestServices/rest/POLocator/findLocations", "@spider": "usps_collection_boxes", "addr:city": "WATERBURY", "addr:country": "US", "addr:postcode": "06706", "addr:state": "CT", "addr:street_address": "11 S MAIN ST", "amenity": "post_box", "collection_times": "Mo-Sa 13:00", "note": "ON 12/24 AND 12/31, THIS BOX MAY BE COLLECTED AS EARLY AS 12 NOON.", "nsi_id": "unitedstatespostalservice-a77078", "operator": "United States Postal Service", "operator:short": "USPS", "operator:type": "public", "operator:wikidata": "Q668687", "ref": "0670600012"}, "type": "Feature"}
{"geometry": {"coordinates": [-73.029927, 41.537954], "type": "Point"}, "id": "oPCV9cyqtk0vrd-JtFFjc4DzbOE=", "properties": {"@source_uri": "https://tools.usps.com/UspsToolsRestServices/rest/POLocator/findLocations", "@spider": "usps_collection_boxes", "addr:city": "WATERBURY", "addr:country": "US", "addr:postcode": "06706", "addr:state": "CT", "addr:street_address": "820 HAMILTON AVE", "amenity": "post_box", "collection_times": "Mo-Sa 10:00", "nsi_id": "unitedstatespostalservice-a77078", "operator": "United States Postal Service", "operator:short": "USPS", "operator:type": "public", "operator:wikidata": "Q668687", "ref": "0670600017"}, "type": "Feature"}
{"geometry": {"coordinates": [-73.0401532163, 41.554077101], "type": "Point"}, "id": "naP_vOIkoMKsfLR7_FPLrO88NyQ=", "properties": {"@source_uri": "https://tools.usps.com/UspsToolsRestServices/rest/POLocator/findLocations", "@spider": "usps_collection_boxes", "addr:city": "WATERBURY", "addr:country": "US", "addr:postcode": "06706", "addr:state": "CT", "addr:street_address": "125 S MAIN ST", "amenity": "post_box", "collection_times": "Mo-Sa 13:00", "note": "ON 12/24 AND 12/31, THIS BOX MAY BE COLLECTED AS EARLY AS 12 NOON.", "nsi_id": "unitedstatespostalservice-a77078", "operator": "United States Postal Service", "operator:short": "USPS", "operator:type": "public", "operator:wikidata": "Q668687", "ref": "0670600018"}, "type": "Feature"}
{"geometry": {"coordinates": [-73.0389140615, 41.5525228237], "type": "Point"}, "id": "YCJ5Itin0bE4ja1BT6erbpBSB8U=", "properties": {"@source_uri": "https://tools.usps.com/UspsToolsRestServices/rest/POLocator/findLocations", "@spider": "usps_collection_boxes", "addr:city": "WATERBURY", "addr:country": "US", "addr:postcode": "06706", "addr:state": "CT", "addr:street_address": "24 UNION ST", "amenity": "post_box", "collection_times": "Mo-Sa 10:00", "nsi_id": "unitedstatespostalservice-a77078", "operator": "United States Postal Service", "operator:short": "USPS", "operator:type": "public", "operator:wikidata": "Q668687", "ref": "0670600020"}, "type": "Feature"}
{"geometry": {"coordinates": [-73.0606262918, 41.5679531046], "type": "Point"}, "id": "CPvph5ya5-NqwGnuAneRwp7yivw=", "properties": {"@source_uri": "https://tools.usps.com/UspsToolsRestServices/rest/POLocator/findLocations", "@spider": "usps_collection_boxes", "addr:city": "WATERBURY", "addr:country": "US", "addr:postcode": "06708", "addr:state": "CT", "addr:street_address": "585 WATERTOWN AVE", "amenity": "post_box", "collection_times": "Mo-Sa 10:00", "nsi_id": "unitedstatespostalservice-a77078", "operator": "United States Postal Service", "operator:short": "USPS", "operator:type": "public", "operator:wikidata": "Q668687", "ref": "0670800002"}, "type": "Feature"}
{"geometry": {"coordinates": [-73.0761473223, 41.5850126997], "type": "Point"}, "id": "cZzo98fHgpBHvovQ4hxQis-jeeI=", "properties": {"@source_uri": "https://tools.usps.com/UspsToolsRestServices/rest/POLocator/findLocations", "@spider": "usps_collection_boxes", "addr:city": "WATERBURY", "addr:country": "US", "addr:postcode": "06708", "addr:state": "CT", "addr:street_address": "1650 WATERTOWN AVE", "amenity": "post_box", "collection_times": "Mo-Sa 10:00", "nsi_id": "unitedstatespostalservice-a77078", "operator": "United States Postal Service", "operator:short": "USPS", "operator:type": "public", "operator:wikidata": "Q668687", "ref": "0670800004"}, "type": "Feature"}
{"geometry": {"coordinates": [-73.062781909, 41.5532513509], "type": "Point"}, "id": "dikt5qRj2TuaEnUVRhQ8lzRbbzg=", "properties": {"@source_uri": "https://tools.usps.com/UspsToolsRestServices/rest/POLocator/findLocations", "@spider": "usps_collection_boxes", "addr:city": "WATERBURY", "addr:country": "US", "addr:postcode": "06708", "addr:state": "CT", "addr:street_address": "1211 W MAIN ST", "amenity": "post_box", "collection_times": "Mo-Sa 14:00", "note": "ON 12/24 AND 12/31, THIS BOX MAY BE COLLECTED AS EARLY AS 12 NOON.", "nsi_id": "unitedstatespostalservice-a77078", "operator": "United States Postal Service", "operator:short": "USPS", "operator:type": "public", "operator:wikidata": "Q668687", "ref": "0670800006"}, "type": "Feature"}
{"geometry": {"coordinates": [-73.05907952, 41.533003717], "type": "Point"}, "id": "C7teck5Jbji_fLwaqZwpoMIWcZA=", "properties": {"@source_uri": "https://tools.usps.com/UspsToolsRestServices/rest/POLocator/findLocations", "@spider": "usps_collection_boxes", "addr:city": "WATERBURY", "addr:country": "US", "addr:postcode": "06708", "addr:state": "CT", "addr:street_address": "232 BRADLEY AVE", "amenity": "post_box", "collection_times": "Mo-Fr 14:30; Sa 16:00", "note": "ON 12/24 AND 12/31, THIS BOX MAY BE COLLECTED AS EARLY AS 12 NOON.", "nsi_id": "unitedstatespostalservice-a77078", "operator": "United States Postal Service", "operator:short": "USPS", "operator:type": "public", "operator:wikidata": "Q668687", "ref": "0670800007"}, "type": "Feature"}
{"geometry": {"coordinates": [-73.0634052543, 41.5682617401], "type": "Point"}, "id": "MtSJ5dJGQ6pSIKalY4WOA3mRt0Y=", "properties": {"@source_uri": "https://tools.usps.com/UspsToolsRestServices/rest/POLocator/findLocations", "@spider": "usps_collection_boxes", "addr:city": "WATERBURY", "addr:country": "US", "addr:postcode": "06708", "addr:state": "CT", "addr:street_address": "203 BUNKER HILL AVE", "amenity": "post_box", "collection_times": "Mo-Sa 10:00", "nsi_id": "unitedstatespostalservice-a77078", "operator": "United States Postal Service", "operator:short": "USPS", "operator:type": "public", "operator:wikidata": "Q668687", "ref": "0670800009"}, "type": "Feature"}
{"geometry": {"coordinates": [-73.0637783, 41.561186], "type": "Point"}, "id": "hwkWbuZBg2F2m5cj6DktfxhILOw=", "properties": {"@source_uri": "https://tools.usps.com/UspsToolsRestServices/rest/POLocator/findLocations", "@spider": "usps_collection_boxes", "addr:city": "WATERBURY", "addr:country": "US", "addr:postcode": "06708", "addr:state": "CT", "addr:street_address": "60 WESTWOOD AVE", "amenity": "post_box", "collection_times": "Mo-Fr 15:00; Sa 15:30", "note": "ON 12/24 AND 12/31, THIS BOX MAY BE COLLECTED AS EARLY AS 12 NOON.", "nsi_id": "unitedstatespostalservice-a77078", "operator": "United States Postal Service", "operator:short": "USPS", "operator:type": "public", "operator:wikidata": "Q668687", "ref": "0670800011"}, "type": "Feature"}
{"geometry": {"coordinates": [-73.065573, 41.549166], "type": "Point"}, "id": "CzmCaWlzmTKU-r9PEe8bqV4T3Uw=", "properties": {"@source_uri": "https://tools.usps.com/UspsToolsRestServices/rest/POLocator/findLocations", "@spider": "usps_collection_boxes", "addr:city": "WATERBURY", "addr:country": "US", "addr:postcode": "06708", "addr:state": "CT", "addr:street_address": "1389 W MAIN ST", "amenity": "post_box", "collection_times": "Mo-Fr 14:30; Sa 15:00", "note": "ON 12/24 AND 12/31, THIS BOX MAY BE COLLECTED AS EARLY AS 12 NOON.", "nsi_id": "unitedstatespostalservice-a77078", "operator": "United States Postal Service", "operator:short": "USPS", "operator:type": "public", "operator:wikidata": "Q668687", "ref": "0670800013"}, "type": "Feature"}
{"geometry": {"coordinates": [-73.077777, 41.572476], "type": "Point"}, "id": "82cZ3qUpV4BQO3_CT30ve8NOUWY=", "properties": {"@source_uri": "https://tools.usps.com/UspsToolsRestServices/rest/POLocator/findLocations", "@spider": "usps_collection_boxes", "addr:city": "WATERBURY", "addr:country": "US", "addr:postcode": "06708", "addr:state": "CT", "addr:street_address": "672 BUNKER HILL AVE", "amenity": "post_box", "collection_times": "Mo-Sa 13:00", "note": "ON 12/24 AND 12/31, THIS BOX MAY BE COLLECTED AS EARLY AS 12 NOON.", "nsi_id": "unitedstatespostalservice-a77078", "operator": "United States Postal Service", "operator:short": "USPS", "operator:type": "public", "operator:wikidata": "Q668687", "ref": "0670800017"}, "type": "Feature"}
{"geometry": {"coordinates": [-73.0806615, 41.551479], "type": "Point"}, "id": "UJZj6e7AuAdwYUAOfP1vQuzih8I=", "properties": {"@source_uri": "https://tools.usps.com/UspsToolsRestServices/rest/POLocator/findLocations", "@spider": "usps_collection_boxes", "addr:city": "WATERBURY", "addr:country": "US", "addr:postcode": "06708", "addr:state": "CT", "addr:street_address": "750 CHASE PKWY", "amenity": "post_box", "collection_times": "Mo-Sa 10:00", "nsi_id": "unitedstatespostalservice-a77078", "operator": "United States Postal Service", "operator:short": "USPS", "operator:type": "public", "operator:wikidata": "Q668687", "ref": "0670800019"}, "type": "Feature"}
{"geometry": {"coordinates": [-73.0784146759, 41.5431089811], "type": "Point"}, "id": "xSKMjJjHgpjsxYtwYlixqQdbTFo=", "properties": {"@source_uri": "https://tools.usps.com/UspsToolsRestServices/rest/POLocator/findLocations", "@spider": "usps_collection_boxes", "addr:city": "WATERBURY", "addr:country": "US", "addr:postcode": "06708", "addr:state": "CT", "addr:street_address": "963 CHASE PKWY", "amenity": "post_box", "collection_times": "Mo-Sa 10:30", "nsi_id": "unitedstatespostalservice-a77078", "operator": "United States Postal Service", "operator:short": "USPS", "operator:type": "public", "operator:wikidata": "Q668687", "ref": "0670800021"}, "type": "Feature"}
{"geometry": {"coordinates": [-73.0682638, 41.546852], "type": "Point"}, "id": "9vuIc4BNX_xe4fwHDOGQJut01Ig=", "properties": {"@source_uri": "https://tools.usps.com/UspsToolsRestServices/rest/POLocator/findLocations", "@spider": "usps_collection_boxes", "addr:city": "WATERBURY", "addr:country": "US", "addr:postcode": "06708", "addr:state": "CT", "addr:street_address": "61 COUNTRY CLUB RD", "amenity": "post_box", "collection_times": "Mo-Fr 14:30; Sa 16:00", "note": "ON 12/24 AND 12/31, THIS BOX MAY BE COLLECTED AS EARLY AS 12 NOON.", "nsi_id": "unitedstatespostalservice-a77078", "operator": "United States Postal Service", "operator:short": "USPS", "operator:type": "public", "operator:wikidata": "Q668687", "ref": "0670800025"}, "type": "Feature"}
{"geometry": {"coordinates": [-73.0610693, 41.560338], "type": "Point"}, "id": "uD11BF53BvLJ_vb_FGSNL1CtbFg=", "properties": {"@source_uri": "https://tools.usps.com/UspsToolsRestServices/rest/POLocator/findLocations", "@spider": "usps_collection_boxes", "addr:city": "WATERBURY", "addr:country": "US", "addr:postcode": "06708", "addr:state": "CT", "addr:street_address": "134 GRANDVIEW AVE", "amenity": "post_box", "collection_times": "Mo-Fr 14:30; Sa 15:00", "note": "ON 12/24 AND 12/31, THIS BOX MAY BE COLLECTED AS EARLY AS 12 NOON.", "nsi_id": "unitedstatespostalservice-a77078", "operator": "United States Postal Service", "operator:short": "USPS", "operator:type": "public", "operator:wikidata": "Q668687", "ref": "0670800026"}, "type": "Feature"}
{"geometry": {"coordinates": [-73.0624676, 41.523242], "type": "Point"}, "id": "A1geDmwNXdFrmsHmWU3AFEGFdh0=", "properties": {"@source_uri": "https://tools.usps.com/UspsToolsRestServices/rest/POLocator/findLocations", "@spider": "usps_collection_boxes", "addr:city": "WATERBURY", "addr:country": "US", "addr:postcode": "06708", "addr:state": "CT", "addr:street_address": "925 ORONOKE RD", "amenity": "post_box", "collection_times": "Mo-Sa 14:00", "note": "ON 12/24 AND 12/31, THIS BOX MAY BE COLLECTED AS EARLY AS 12 NOON.", "nsi_id": "unitedstatespostalservice-a77078", "operator": "United States Postal Service", "operator:short": "USPS", "operator:type": "public", "operator:wikidata": "Q668687", "ref": "0670800030"}, "type": "Feature"}
{"geometry": {"coordinates": [-73.0520893329, 41.536849255], "type": "Point"}, "id": "bUp5tBCasdbd_wduZqiAcoUfYhE=", "properties": {"@source_uri": "https://tools.usps.com/UspsToolsRestServices/rest/POLocator/findLocations", "@spider": "usps_collection_boxes", "addr:city": "WATERBURY", "addr:country": "US", "addr:postcode": "06708", "addr:state": "CT", "addr:street_address": "785 HIGHLAND AVE", "amenity": "post_box", "collection_times": "Mo-Sa 14:00", "note": "ON 12/24 AND 12/31, THIS BOX MAY BE COLLECTED AS EARLY AS 12 NOON.", "nsi_id": "unitedstatespostalservice-a77078", "operator": "United States Postal Service", "operator:short": "USPS", "operator:type": "public", "operator:wikidata": "Q668687", "ref": "0670800036"}, "type": "Feature"}
{"geometry": {"coordinates": [-73.065015, 41.547807], "type": "Point"}, "id": "hLGQ656WGlAEL-3UE19AOBmxlLU=", "properties": {"@source_uri": "https://tools.usps.com/UspsToolsRestServices/rest/POLocator/findLocations", "@spider": "usps_collection_boxes", "addr:city": "WATERBURY", "addr:country": "US", "addr:postcode": "06708", "addr:state": "CT", "addr:street_address": "500 CHASE PKWY", "amenity": "post_box", "collection_times": "Mo-Sa 14:00", "note": "ON 12/24 AND 12/31, THIS BOX MAY BE COLLECTED AS EARLY AS 12 NOON.", "nsi_id": "unitedstatespostalservice-a77078", "operator": "United States Postal Service", "operator:short": "USPS", "operator:type": "public", "operator:wikidata": "Q668687", "ref": "0670800038"}, "type": "Feature"}
{"geometry": {"coordinates": [-73.0407877, 41.539635], "type": "Point"}, "id": "RMKbt8Xwf_L22fg4P6f5k5xZ3oE=", "properties": {"@source_uri": "https://tools.usps.com/UspsToolsRestServices/rest/POLocator/findLocations", "@spider": "usps_collection_boxes", "addr:city": "WATERBURY", "addr:country": "US", "addr:postcode": "06708", "addr:state": "CT", "addr:street_address": "165 RAILROAD HILL ST", "amenity": "post_box", "collection_times": "Mo-Sa 10:00", "nsi_id": "unitedstatespostalservice-a77078", "operator": "United States Postal Service", "operator:short": "USPS", "operator:type": "public", "operator:wikidata": "Q668687", "ref": "0670800040"}, "type": "Feature"}
{"geometry": {"coordinates": [-73.049934082, 41.529237213], "type": "Point"}, "id": "7NE-jRLEyCWLrDte5IQIL930Ez8=", "properties": {"@source_uri": "https://tools.usps.com/UspsToolsRestServices/rest/POLocator/findLocations", "@spider": "usps_collection_boxes", "addr:city": "WATERBURY", "addr:country": "US", "addr:postcode": "06708", "addr:state": "CT", "addr:street_address": "1075 HIGHLAND AVE", "amenity": "post_box", "collection_times": "Mo-Sa 14:00", "note": "ON 12/24 AND 12/31, THIS BOX MAY BE COLLECTED AS EARLY AS 12 NOON.", "nsi_id": "unitedstatespostalservice-a77078", "operator": "United States Postal Service", "operator:short": "USPS", "operator:type": "public", "operator:wikidata": "Q668687", "ref": "0670800050"}, "type": "Feature"}
{"geometry": {"coordinates": [-73.0447147792, 41.5584670974], "type": "Point"}, "id": "4JnEE_YFXYqWSR3OThejVoRMXDM=", "properties": {"@source_uri": "https://tools.usps.com/UspsToolsRestServices/rest/POLocator/findLocations", "@spider": "usps_collection_boxes", "addr:city": "WATERBURY", "addr:country": "US", "addr:postcode": "06710", "addr:state": "CT", "addr:street_address": "30 HOLMES AVE", "amenity": "post_box", "collection_times": "Mo-Sa 10:00", "nsi_id": "unitedstatespostalservice-a77078", "operator": "United States Postal Service", "operator:short": "USPS", "operator:type": "public", "operator:wikidata": "Q668687", "ref": "0671000004"}, "type": "Feature"}
{"geometry": {"coordinates": [-73.0421595, 41.571621], "type": "Point"}, "id": "0oOA0oLrl-GsC7yr6aGupu5teAU=", "properties": {"@source_uri": "https://tools.usps.com/UspsToolsRestServices/rest/POLocator/findLocations", "@spider": "usps_collection_boxes", "addr:city": "WATERBURY", "addr:country": "US", "addr:postcode": "06710", "addr:state": "CT", "addr:street_address": "511 COOKE ST", "amenity": "post_box", "collection_times": "Mo-Sa 10:00", "nsi_id": "unitedstatespostalservice-a77078", "operator": "United States Postal Service", "operator:short": "USPS", "operator:type": "public", "operator:wikidata": "Q668687", "ref": "0671000005"}, "type": "Feature"}
{"geometry": {"coordinates": [-72.9847215, 41.513895], "type": "Point"}, "id": "h7x10kKZRmu8CRf5J52D0_qgnbk=", "properties": {"@source_uri": "https://tools.usps.com/UspsToolsRestServices/rest/POLocator/findLocations", "@spider": "usps_collection_boxes", "addr:city": "WATERBURY", "addr:country": "US", "addr:postcode": "06712", "addr:state": "CT", "addr:street_address": "70 WATERBURY RD", "amenity": "post_box", "collection_times": "Mo-Fr 17:00; Sa 16:30", "note": "ON 12/24 AND 12/31, THIS BOX MAY BE COLLECTED AS EARLY AS 12 NOON.", "nsi_id": "unitedstatespostalservice-a77078", "operator": "United States Postal Service", "operator:short": "USPS", "operator:type": "public", "operator:wikidata": "Q668687", "ref": "0671200003"}, "type": "Feature"}
{"geometry": {"coordinates": [-72.9782865, 41.502933], "type": "Point"}, "id": "NONi7MFykilK4_qajtOmYgbeLT4=", "properties": {"@source_uri": "https://tools.usps.com/UspsToolsRestServices/rest/POLocator/findLocations", "@spider": "usps_collection_boxes", "addr:city": "WATERBURY", "addr:country": "US", "addr:postcode": "06712", "addr:state": "CT", "addr:street_address": "36 CENTER ST", "amenity": "post_box", "collection_times": "Mo-Sa 16:00", "note": "ON 12/24 AND 12/31, THIS BOX MAY BE COLLECTED AS EARLY AS 12 NOON.", "nsi_id": "unitedstatespostalservice-a77078", "operator": "United States Postal Service", "operator:short": "USPS", "operator:type": "public", "operator:wikidata": "Q668687", "ref": "0671200007"}, "type": "Feature"}
{"geometry": {"coordinates": [-72.9969182, 41.525626], "type": "Point"}, "id": "r3sS_rzD4v-7upKbjfQv_ISJQwI=", "properties": {"@source_uri": "https://tools.usps.com/UspsToolsRestServices/rest/POLocator/findLocations", "@spider": "usps_collection_boxes", "addr:city": "WATERBURY", "addr:country": "US", "addr:postcode": "06712", "addr:state": "CT", "addr:street_address": "166 WATERBURY RD", "amenity": "post_box", "collection_times": "Mo-Sa 12:00", "nsi_id": "unitedstatespostalservice-a77078", "operator": "United States Postal Service", "operator:short": "USPS", "operator:type": "public", "operator:wikidata": "Q668687", "ref": "0671200008"}, "type": "Feature"}
{"geometry": {"coordinates": [-72.9864271016, 41.6044780214], "type": "Point"}, "id": "7ubZO-10lOe-5Wza1Ka_9pdRJhc=", "properties": {"@source_uri": "https://tools.usps.com/UspsToolsRestServices/rest/POLocator/findLocations", "@spider": "usps_collection_boxes", "addr:city": "WATERBURY", "addr:country": "US", "addr:postcode": "06716", "addr:state": "CT", "addr:street_address": "803 WOLCOTT RD", "amenity": "post_box", "collection_times": "Mo-Fr 17:00; Sa 16:00", "note": "ON 12/24 AND 12/31, THIS BOX MAY BE COLLECTED AS EARLY AS 12 NOON.", "nsi_id": "unitedstatespostalservice-a77078", "operator": "United States Postal Service", "operator:short": "USPS", "operator:type": "public", "operator:wikidata": "Q668687", "ref": "0671600007"}, "type": "Feature"}
{"geometry": {"coordinates": [-72.986085572, 41.605735527], "type": "Point"}, "id": "0o7K9HUucoqJcIJ3BVhcmosUyqQ=", "properties": {"@source_uri": "https://tools.usps.com/UspsToolsRestServices/rest/POLocator/findLocations", "@spider": "usps_collection_boxes", "addr:city": "WATERBURY", "addr:country": "US", "addr:postcode": "06716", "addr:state": "CT", "addr:street_address": "816 WOLCOTT RD", "amenity": "post_box", "collection_times": "Mo-Sa 15:00", "note": "ON 12/24 AND 12/31, THIS BOX MAY BE COLLECTED AS EARLY AS 12 NOON.", "nsi_id": "unitedstatespostalservice-a77078", "operator": "United States Postal Service", "operator:short": "USPS", "operator:type": "public", "operator:wikidata": "Q668687", "ref": "0671600008"}, "type": "Feature"}
{"geometry": {"coordinates": [-73.237495, 41.725437], "type": "Point"}, "id": "Ad0xyLSifIQkYRsmiGtjMuqjjzI=", "properties": {"@source_uri": "https://tools.usps.com/UspsToolsRestServices/rest/POLocator/findLocations", "@spider": "usps_collection_boxes", "addr:city": "BANTAM", "addr:country": "US", "addr:postcode": "06750", "addr:state": "CT", "addr:street_address": "80 DOYLE RD", "amenity": "post_box", "collection_times": "Mo-Fr 16:30; Sa 12:00", "note": "ON 12/24 AND 12/31, THIS BOX MAY BE COLLECTED AS EARLY AS 12 NOON.", "nsi_id": "unitedstatespostalservice-a77078", "operator": "United States Postal Service", "operator:short": "USPS", "operator:type": "public", "operator:wikidata": "Q668687", "ref": "0675000001"}, "type": "Feature"}
{"geometry": {"coordinates": [-73.237495, 41.725437], "type": "Point"}, "id": "xTroYCBnDbiWDpmItkKKL4lEXMU=", "properties": {"@source_uri": "https://tools.usps.com/UspsToolsRestServices/rest/POLocator/findLocations", "@spider": "usps_collection_boxes", "addr:city": "BANTAM", "addr:country": "US", "addr:postcode": "06750", "addr:state": "CT", "addr:street_address": "80 DOYLE RD", "amenity": "post_box", "collection_times": "Mo-Fr 17:00; Sa 12:30", "indoor": "yes", "note": "ON 12/24 AND 12/31, THIS BOX MAY BE COLLECTED AS EARLY AS 12 NOON.", "nsi_id": "unitedstatespostalservice-a77078", "operator": "United States Postal Service", "operator:short": "USPS", "operator:type": "public", "operator:wikidata": "Q668687", "ref": "0675000003"}, "type": "Feature"}
{"geometry": {"coordinates": [-73.237469311, 41.725437355], "type": "Point"}, "id": "1QeSEm6HhwxHD1NqQlXTyGHY6Zo=", "properties": {"@source_uri": "https://tools.usps.com/UspsToolsRestServices/rest/POLocator/findLocations", "@spider": "usps_collection_boxes", "addr:city": "BANTAM", "addr:country": "US", "addr:postcode": "06750", "addr:state": "CT", "addr:street_address": "80 DOYLE RD", "amenity": "post_box", "collection_times": "Mo-Fr 16:30; Sa 12:00", "indoor": "yes", "note": "ON 12/24 AND 12/31, THIS BOX MAY BE COLLECTED AS EARLY AS 12 NOON.", "nsi_id": "unitedstatespostalservice-a77078", "operator": "United States Postal Service", "operator:short": "USPS", "operator:type": "public", "operator:wikidata": "Q668687", "ref": "0675000005"}, "type": "Feature"}
{"geometry": {"coordinates": [-73.204912, 41.639711], "type": "Point"}, "id": "f4UhyvAytu367-Vj5xtlPs4FDeE=", "properties": {"@source_uri": "https://tools.usps.com/UspsToolsRestServices/rest/POLocator/findLocations", "@spider": "usps_collection_boxes", "addr:city": "BETHLEHEM", "addr:country": "US", "addr:postcode": "06751", "addr:state": "CT", "addr:street_address": "34 EAST ST", "amenity": "post_box", "collection_times": "Mo-Fr 17:15; Sa 12:00", "indoor": "yes", "note": "ON 12/24 AND 12/31, THIS BOX MAY BE COLLECTED AS EARLY AS 12 NOON.", "nsi_id": "unitedstatespostalservice-a77078", "operator": "United States Postal Service", "operator:short": "USPS", "operator:type": "public", "operator:wikidata": "Q668687", "ref": "0675100003"}, "type": "Feature"}
{"geometry": {"coordinates": [-73.204939278, 41.639678553], "type": "Point"}, "id": "Lh7hsWyxWdHeFWtI36_MksMMRPQ=", "properties": {"@source_uri": "https://tools.usps.com/UspsToolsRestServices/rest/POLocator/findLocations", "@spider": "usps_collection_boxes", "addr:city": "BETHLEHEM", "addr:country": "US", "addr:postcode": "06751", "addr:state": "CT", "addr:street_address": "34 EAST ST", "amenity": "post_box", "collection_times": "Mo-Fr 17:00; Sa 12:00", "indoor": "yes", "note": "ON 12/24 AND 12/31, THIS BOX MAY BE COLLECTED AS EARLY AS 12 NOON.", "nsi_id": "unitedstatespostalservice-a77078", "operator": "United States Postal Service", "operator:short": "USPS", "operator:type": "public", "operator:wikidata": "Q668687", "ref": "0675100005"}, "type": "Feature"}
{"geometry": {"coordinates": [-73.2047260148, 41.6393109791], "type": "Point"}, "id": "lN7paQX9JbMahgKuoCH1ELB_dSI=", "properties": {"@source_uri": "https://tools.usps.com/UspsToolsRestServices/rest/POLocator/findLocations", "@spider": "usps_collection_boxes", "addr:city": "BETHLEHEM", "addr:country": "US", "addr:postcode": "06751", "addr:state": "CT", "addr:street_address": "34 EAST ST", "amenity": "post_box", "collection_times": "Mo-Fr 17:15; Sa 12:00", "note": "ON 12/24 AND 12/31, THIS BOX MAY BE COLLECTED AS EARLY AS 12 NOON.", "nsi_id": "unitedstatespostalservice-a77078", "operator": "United States Postal Service", "operator:short": "USPS", "operator:type": "public", "operator:wikidata": "Q668687", "ref": "0675100006"}, "type": "Feature"}
{"geometry": {"coordinates": [-73.3663222, 41.534366], "type": "Point"}, "id": "e5wqGQSiLcN2l3wIsnFp-L_Yv7U=", "properties": {"@source_uri": "https://tools.usps.com/UspsToolsRestServices/rest/POLocator/findLocations", "@spider": "usps_collection_boxes", "addr:city": "BRIDGEWATER", "addr:country": "US", "addr:postcode": "06752", "addr:state": "CT", "addr:street_address": "19 MAIN ST S", "amenity": "post_box", "collection_times": "Mo-Fr 17:00; Sa 12:00", "note": "ON 12/24 AND 12/31, THIS BOX MAY BE COLLECTED AS EARLY AS 12 NOON.", "nsi_id": "unitedstatespostalservice-a77078", "operator": "United States Postal Service", "operator:short": "USPS", "operator:type": "public", "operator:wikidata": "Q668687", "ref": "0675200001"}, "type": "Feature"}
{"geometry": {"coordinates": [-73.366359, 41.534416], "type": "Point"}, "id": "sDCH9cl9Qe10CdAQjeNdhmBfx0I=", "properties": {"@source_uri": "https://tools.usps.com/UspsToolsRestServices/rest/POLocator/findLocations", "@spider": "usps_collection_boxes", "addr:city": "BRIDGEWATER", "addr:country": "US", "addr:postcode": "06752", "addr:state": "CT", "addr:street_address": "19 MAIN ST S", "amenity": "post_box", "collection_times": "Mo-Fr 17:00; Sa 12:00", "indoor": "yes", "note": "ON 12/24 AND 12/31, THIS BOX MAY BE COLLECTED AS EARLY AS 12 NOON.", "nsi_id": "unitedstatespostalservice-a77078", "operator": "United States Postal Service", "operator:short": "USPS", "operator:type": "public", "operator:wikidata": "Q668687", "ref": "0675200002"}, "type": "Feature"}
{"geometry": {"coordinates": [-73.366170173, 41.534434274], "type": "Point"}, "id": "SQmqJE5720RdEikuYVyB2evDpwE=", "properties": {"@source_uri": "https://tools.usps.com/UspsToolsRestServices/rest/POLocator/findLocations", "@spider": "usps_collection_boxes", "addr:city": "BRIDGEWATER", "addr:country": "US", "addr:postcode": "06752", "addr:state": "CT", "addr:street_address": "19 MAIN ST S", "amenity": "post_box", "collection_times": "Mo-Fr 16:30; Sa 11:30", "indoor": "yes", "note": "ON 12/24 AND 12/31, THIS BOX MAY BE COLLECTED AS EARLY AS 12 NOON.", "nsi_id": "unitedstatespostalservice-a77078", "operator": "United States Postal Service", "operator:short": "USPS", "operator:type": "public", "operator:wikidata": "Q668687", "ref": "0675200004"}, "type": "Feature"}
{"geometry": {"coordinates": [-73.33402, 41.844538], "type": "Point"}, "id": "8QE33knew6sBTmyE1s35DOGKYQM=", "properties": {"@source_uri": "https://tools.usps.com/UspsToolsRestServices/rest/POLocator/findLocations", "@spider": "usps_collection_boxes", "addr:city": "CORNWALL", "addr:country": "US", "addr:postcode": "06753", "addr:state": "CT", "addr:street_address": "36 BOLTON HILL RD", "amenity": "post_box", "collection_times": "Mo-Fr 16:15; Sa 11:45", "note": "ON 12/24 AND 12/31, THIS BOX MAY BE COLLECTED AS EARLY AS 12 NOON.", "nsi_id": "unitedstatespostalservice-a77078", "operator": "United States Postal Service", "operator:short": "USPS", "operator:type": "public", "operator:wikidata": "Q668687", "ref": "0675300001"}, "type": "Feature"}
{"geometry": {"coordinates": [-73.333953, 41.8445], "type": "Point"}, "id": "LxTjvBYWeVmzaQHfJBJ18LM6ZVE=", "properties": {"@source_uri": "https://tools.usps.com/UspsToolsRestServices/rest/POLocator/findLocations", "@spider": "usps_collection_boxes", "addr:city": "CORNWALL", "addr:country": "US", "addr:postcode": "06753", "addr:state": "CT", "addr:street_address": "36 BOLTON HILL RD", "amenity": "post_box", "collection_times": "Mo-Fr 13:00; Sa 12:00", "indoor": "yes", "note": "ON 12/24 AND 12/31, THIS BOX MAY BE COLLECTED AS EARLY AS 12 NOON.", "nsi_id": "unitedstatespostalservice-a77078", "operator": "United States Postal Service", "operator:short": "USPS", "operator:type": "public", "operator:wikidata": "Q668687", "ref": "0675300002"}, "type": "Feature"}
{"geometry": {"coordinates": [-73.336369888, 41.844820493], "type": "Point"}, "id": "mjmYueRrKvcePH0MGs6dyH0WzWs=", "properties": {"@source_uri": "https://tools.usps.com/UspsToolsRestServices/rest/POLocator/findLocations", "@spider": "usps_collection_boxes", "addr:city": "CORNWALL", "addr:country": "US", "addr:postcode": "06753", "addr:state": "CT", "addr:street_address": "36 BOLTON HILL RD", "amenity": "post_box", "collection_times": "Mo-Fr 13:00; Sa 11:45", "indoor": "yes", "note": "ON 12/24 AND 12/31, THIS BOX MAY BE COLLECTED AS EARLY AS 12 NOON.", "nsi_id": "unitedstatespostalservice-a77078", "operator": "United States Postal Service", "operator:short": "USPS", "operator:type": "public", "operator:wikidata": "Q668687", "ref": "0675300004"}, "type": "Feature"}
{"geometry": {"coordinates": [-73.352087, 41.744142], "type": "Point"}, "id": "4GWIFio9Xd-A6NuDDfcChrRKHZA=", "properties": {"@source_uri": "https://tools.usps.com/UspsToolsRestServices/rest/POLocator/findLocations", "@spider": "usps_collection_boxes", "addr:city": "WARREN", "addr:country": "US", "addr:postcode": "06754", "addr:state": "CT", "addr:street_address": "18 KENT RD S", "amenity": "post_box", "collection_times": "Mo-Fr 16:45; Sa 12:30", "note": "ON 12/24 AND 12/31, THIS BOX MAY BE COLLECTED AS EARLY AS 12 NOON.", "nsi_id": "unitedstatespostalservice-a77078", "operator": "United States Postal Service", "operator:short": "USPS", "operator:type": "public", "operator:wikidata": "Q668687", "ref": "0675400001"}, "type": "Feature"}
{"geometry": {"coordinates": [-73.3489367235, 41.745138884], "type": "Point"}, "id": "4REJ9W0FAwhW9mko6yTfXqM1PzU=", "properties": {"@source_uri": "https://tools.usps.com/UspsToolsRestServices/rest/POLocator/findLocations", "@spider": "usps_collection_boxes", "addr:city": "WARREN", "addr:country": "US", "addr:postcode": "06754", "addr:state": "CT", "addr:street_address": "2 CORNWALL RD", "amenity": "post_box", "collection_times": "Mo-Sa 12:30", "note": "ON 12/24 AND 12/31, THIS BOX MAY BE COLLECTED AS EARLY AS 12 NOON.", "nsi_id": "unitedstatespostalservice-a77078", "operator": "United States Postal Service", "operator:short": "USPS", "operator:type": "public", "operator:wikidata": "Q668687", "ref": "0675400002"}, "type": "Feature"}
{"geometry": {"coordinates": [-73.3523, 41.744121], "type": "Point"}, "id": "anHl1YM8_eqcRLjqqP-X1d6LyRU=", "properties": {"@source_uri": "https://tools.usps.com/UspsToolsRestServices/rest/POLocator/findLocations", "@spider": "usps_collection_boxes", "addr:city": "WARREN", "addr:country": "US", "addr:postcode": "06754", "addr:state": "CT", "addr:street_address": "18 KENT RD S", "amenity": "post_box", "collection_times": "Mo-Fr 17:00; Sa 12:30", "indoor": "yes", "note": "ON 12/24 AND 12/31, THIS BOX MAY BE COLLECTED AS EARLY AS 12 NOON.", "nsi_id": "unitedstatespostalservice-a77078", "operator": "United States Postal Service", "operator:short": "USPS", "operator:type": "public", "operator:wikidata": "Q668687", "ref": "0675400003"}, "type": "Feature"}
{"geometry": {"coordinates": [-73.352083278, 41.744083618], "type": "Point"}, "id": "bzzp_IiwlqI5Ln4VnuRoWZNl3Qg=", "properties": {"@source_uri": "https://tools.usps.com/UspsToolsRestServices/rest/POLocator/findLocations", "@spider": "usps_collection_boxes", "addr:city": "WARREN", "addr:country": "US", "addr:postcode": "06754", "addr:state": "CT", "addr:street_address": "18A KENT RD S", "amenity": "post_box", "collection_times": "Mo-Fr 16:30; Sa 12:00", "indoor": "yes", "note": "ON 12/24 AND 12/31, THIS BOX MAY BE COLLECTED AS EARLY AS 12 NOON.", "nsi_id": "unitedstatespostalservice-a77078", "operator": "United States Postal Service", "operator:short": "USPS", "operator:type": "public", "operator:wikidata": "Q668687", "ref": "0675400005"}, "type": "Feature"}
{"geometry": {"coordinates": [-73.4834052, 41.64814], "type": "Point"}, "id": "bZ7L3eXAg2zhiBcEz_Ew6rqFGsE=", "properties": {"@source_uri": "https://tools.usps.com/UspsToolsRestServices/rest/POLocator/findLocations", "@spider": "usps_collection_boxes", "addr:city": "GAYLORDSVILLE", "addr:country": "US", "addr:postcode": "06755", "addr:state": "CT", "addr:street_address": "1 RIVERVIEW RD", "amenity": "post_box", "collection_times": "Mo-Sa 12:30", "note": "ON 12/24 AND 12/31, THIS BOX MAY BE COLLECTED AS EARLY AS 12 NOON.", "nsi_id": "unitedstatespostalservice-a77078", "operator": "United States Postal Service", "operator:short": "USPS", "operator:type": "public", "operator:wikidata": "Q668687", "ref": "0675500001"}, "type": "Feature"}
{"geometry": {"coordinates": [-73.481206, 41.638697], "type": "Point"}, "id": "rF4aB3pV52UXrWBp03WuFZqCPkA=", "properties": {"@source_uri": "https://tools.usps.com/UspsToolsRestServices/rest/POLocator/findLocations", "@spider": "usps_collection_boxes", "addr:city": "GAYLORDSVILLE", "addr:country": "US", "addr:postcode": "06755", "addr:state": "CT", "addr:street_address": "3 GEORGE WASHINGTON PLZ", "amenity": "post_box", "collection_times": "Mo-Fr 17:00; Sa 12:00", "note": "ON 12/24 AND 12/31, THIS BOX MAY BE COLLECTED AS EARLY AS 12 NOON.", "nsi_id": "unitedstatespostalservice-a77078", "operator": "United States Postal Service", "operator:short": "USPS", "operator:type": "public", "operator:wikidata": "Q668687", "ref": "0675500002"}, "type": "Feature"}
{"geometry": {"coordinates": [-73.481206, 41.638697], "type": "Point"}, "id": "tTfxKwhGXWM6BoHn4lTsGo4o5pY=", "properties": {"@source_uri": "https://tools.usps.com/UspsToolsRestServices/rest/POLocator/findLocations", "@spider": "usps_collection_boxes", "addr:city": "GAYLORDSVILLE", "addr:country": "US", "addr:postcode": "06755", "addr:state": "CT", "addr:street_address": "3 GEORGE WASHINGTON PLZ", "amenity": "post_box", "collection_times": "Mo-Fr 17:00; Sa 12:00", "indoor": "yes", "note": "ON 12/24 AND 12/31, THIS BOX MAY BE COLLECTED AS EARLY AS 12 NOON.", "nsi_id": "unitedstatespostalservice-a77078", "operator": "United States Postal Service", "operator:short": "USPS", "operator:type": "public", "operator:wikidata": "Q668687", "ref": "0675500003"}, "type": "Feature"}
{"geometry": {"coordinates": [-73.481207505, 41.638689152], "type": "Point"}, "id": "2MgaX7iN2TrCxb-X37krCw4ljNE=", "properties": {"@source_uri": "https://tools.usps.com/UspsToolsRestServices/rest/POLocator/findLocations", "@spider": "usps_collection_boxes", "addr:city": "GAYLORDSVILLE", "addr:country": "US", "addr:postcode": "06755", "addr:state": "CT", "addr:street_address": "3 GEORGE WASHINGTON PLZ UNIT 8", "amenity": "post_box", "collection_times": "Mo-Fr 17:00; Sa 12:00", "indoor": "yes", "note": "ON 12/24 AND 12/31, THIS BOX MAY BE COLLECTED AS EARLY AS 12 NOON.", "nsi_id": "unitedstatespostalservice-a77078", "operator": "United States Postal Service", "operator:short": "USPS", "operator:type": "public", "operator:wikidata": "Q668687", "ref": "0675500005"}, "type": "Feature"}
{"geometry": {"coordinates": [-73.231289, 41.831155], "type": "Point"}, "id": "Ue7RgjQkqbE6fWgRDupTpLSGtMc=", "properties": {"@source_uri": "https://tools.usps.com/UspsToolsRestServices/rest/POLocator/findLocations", "@spider": "usps_collection_boxes", "addr:city": "GOSHEN", "addr:country": "US", "addr:postcode": "06756", "addr:state": "CT", "addr:street_address": "9 SUNSET DR", "amenity": "post_box", "collection_times": "Mo-Fr 17:00; Sa 12:00", "note": "ON 12/24 AND 12/31, THIS BOX MAY BE COLLECTED AS EARLY AS 12 NOON.", "nsi_id": "unitedstatespostalservice-a77078", "operator": "United States Postal Service", "operator:short": "USPS", "operator:type": "public", "operator:wikidata": "Q668687", "ref": "0675600001"}, "type": "Feature"}
{"geometry": {"coordinates": [-73.231332, 41.831229], "type": "Point"}, "id": "TNPVyLAghyMMfo8iDeAn73WCQxc=", "properties": {"@source_uri": "https://tools.usps.com/UspsToolsRestServices/rest/POLocator/findLocations", "@spider": "usps_collection_boxes", "addr:city": "GOSHEN", "addr:country": "US", "addr:postcode": "06756", "addr:state": "CT", "addr:street_address": "9 SUNSET DR", "amenity": "post_box", "collection_times": "Mo-Fr 17:30; Sa 12:30", "indoor": "yes", "note": "ON 12/24 AND 12/31, THIS BOX MAY BE COLLECTED AS EARLY AS 12 NOON.", "nsi_id": "unitedstatespostalservice-a77078", "operator": "United States Postal Service", "operator:short": "USPS", "operator:type": "public", "operator:wikidata": "Q668687", "ref": "0675600002"}, "type": "Feature"}
{"geometry": {"coordinates": [-73.231236351, 41.830500228], "type": "Point"}, "id": "aSmf51ugCQ2jWS0HrIZI6i1-0m4=", "properties": {"@source_uri": "https://tools.usps.com/UspsToolsRestServices/rest/POLocator/findLocations", "@spider": "usps_collection_boxes", "addr:city": "GOSHEN", "addr:country": "US", "addr:postcode": "06756", "addr:state": "CT", "addr:street_address": "9 SUNSET DR", "amenity": "post_box", "collection_times": "Mo-Fr 17:15; Sa 12:30", "indoor": "yes", "note": "ON 12/24 AND 12/31, THIS BOX MAY BE COLLECTED AS EARLY AS 12 NOON.", "nsi_id": "unitedstatespostalservice-a77078", "operator": "United States Postal Service", "operator:short": "USPS", "operator:type": "public", "operator:wikidata": "Q668687", "ref": "0675600004"}, "type": "Feature"}
{"geometry": {"coordinates": [-73.4715410198, 41.7273199985], "type": "Point"}, "id": "_Gslm7mMeawipDdZAJSRndvlJyk=", "properties": {"@source_uri": "https://tools.usps.com/UspsToolsRestServices/rest/POLocator/findLocations", "@spider": "usps_collection_boxes", "addr:city": "KENT", "addr:country": "US", "addr:postcode": "06757", "addr:state": "CT", "addr:street_address": "31 KENT GREEN BLVD", "amenity": "post_box", "collection_times": "Mo-Fr 16:45; Sa 12:30", "note": "ON 12/24 AND 12/31, THIS BOX MAY BE COLLECTED AS EARLY AS 12 NOON.", "nsi_id": "unitedstatespostalservice-a77078", "operator": "United States Postal Service", "operator:short": "USPS", "operator:type": "public", "operator:wikidata": "Q668687", "ref": "0675700001"}, "type": "Feature"}
{"geometry": {"coordinates": [-73.472622, 41.726894], "type": "Point"}, "id": "l6Z1YJfJXxTPLY-BfNfU-5-n7bY=", "properties": {"@source_uri": "https://tools.usps.com/UspsToolsRestServices/rest/POLocator/findLocations", "@spider": "usps_collection_boxes", "addr:city": "KENT", "addr:country": "US", "addr:postcode": "06757", "addr:state": "CT", "addr:street_address": "31 KENT GREEN BLVD", "amenity": "post_box", "collection_times": "Mo-Fr 17:00; Sa 12:30", "indoor": "yes", "note": "ON 12/24 AND 12/31, THIS BOX MAY BE COLLECTED AS EARLY AS 12 NOON.", "nsi_id": "unitedstatespostalservice-a77078", "operator": "United States Postal Service", "operator:short": "USPS", "operator:type": "public", "operator:wikidata": "Q668687", "ref": "0675700002"}, "type": "Feature"}
{"geometry": {"coordinates": [-73.2038952, 41.744817], "type": "Point"}, "id": "TEp51-nPp7uFMjIm3M2iN6QYVkk=", "properties": {"@source_uri": "https://tools.usps.com/UspsToolsRestServices/rest/POLocator/findLocations", "@spider": "usps_collection_boxes", "addr:city": "LITCHFIELD", "addr:country": "US", "addr:postcode": "06759", "addr:state": "CT", "addr:street_address": "331 WEST ST", "amenity": "post_box", "collection_times": "Mo-Sa 11:00", "nsi_id": "unitedstatespostalservice-a77078", "operator": "United States Postal Service", "operator:short": "USPS", "operator:type": "public", "operator:wikidata": "Q668687", "ref": "0675900001"}, "type": "Feature"}
{"geometry": {"coordinates": [-73.188914, 41.746108], "type": "Point"}, "id": "4DK25q3L0BNgswqqC8olEA0Nfms=", "properties": {"@source_uri": "https://tools.usps.com/UspsToolsRestServices/rest/POLocator/findLocations", "@spider": "usps_collection_boxes", "addr:city": "LITCHFIELD", "addr:country": "US", "addr:postcode": "06759", "addr:state": "CT", "addr:street_address": "16 SOUTH ST", "amenity": "post_box", "collection_times": "Mo-Fr 17:00; Sa 13:30", "note": "ON 12/24 AND 12/31, THIS BOX MAY BE COLLECTED AS EARLY AS 12 NOON.", "nsi_id": "unitedstatespostalservice-a77078", "operator": "United States Postal Service", "operator:short": "USPS", "operator:type": "public", "operator:wikidata": "Q668687", "ref": "0675900004"}, "type": "Feature"}
{"geometry": {"coordinates": [-73.188916, 41.74619], "type": "Point"}, "id": "FO6lgpfHYGaB8-5n54BprLw1bJE=", "properties": {"@source_uri": "https://tools.usps.com/UspsToolsRestServices/rest/POLocator/findLocations", "@spider": "usps_collection_boxes", "addr:city": "LITCHFIELD", "addr:country": "US", "addr:postcode": "06759", "addr:state": "CT", "addr:street_address": "16 SOUTH ST", "amenity": "post_box", "collection_times": "Mo-Fr 17:00; Sa 13:30", "indoor": "yes", "note": "ON 12/24 AND 12/31, THIS BOX MAY BE COLLECTED AS EARLY AS 12 NOON.", "nsi_id": "unitedstatespostalservice-a77078", "operator": "United States Postal Service", "operator:short": "USPS", "operator:type": "public", "operator:wikidata": "Q668687", "ref": "0675900005"}, "type": "Feature"}
{"geometry": {"coordinates": [-73.1926389, 41.747514], "type": "Point"}, "id": "YowtLiAdy_LapRrIcWc3DmEXH24=", "properties": {"@source_uri": "https://tools.usps.com/UspsToolsRestServices/rest/POLocator/findLocations", "@spider": "usps_collection_boxes", "addr:city": "LITCHFIELD", "addr:country": "US", "addr:postcode": "06759", "addr:state": "CT", "addr:street_address": "74 WEST ST", "amenity": "post_box", "collection_times": "Mo-Sa 09:00", "nsi_id": "unitedstatespostalservice-a77078", "operator": "United States Postal Service", "operator:short": "USPS", "operator:type": "public", "operator:wikidata": "Q668687", "ref": "0675900006"}, "type": "Feature"}
{"geometry": {"coordinates": [-73.188947112, 41.746108928], "type": "Point"}, "id": "kPgO3OLXcqNZ1pIIEBuwt9ev-nI=", "properties": {"@source_uri": "https://tools.usps.com/UspsToolsRestServices/rest/POLocator/findLocations", "@spider": "usps_collection_boxes", "addr:city": "LITCHFIELD", "addr:country": "US", "addr:postcode": "06759", "addr:state": "CT", "addr:street_address": "16 SOUTH ST", "amenity": "post_box", "collection_times": "Mo-Fr 17:00; Sa 15:00", "indoor": "yes", "note": "ON 12/24 AND 12/31, THIS BOX MAY BE COLLECTED AS EARLY AS 12 NOON.", "nsi_id": "unitedstatespostalservice-a77078", "operator": "United States Postal Service", "operator:short": "USPS", "operator:type": "public", "operator:wikidata": "Q668687", "ref": "0675900009"}, "type": "Feature"}
{"geometry": {"coordinates": [-73.1079, 41.537802], "type": "Point"}, "id": "LUHiFCa90y0Snjt_SRfzvAVASPc=", "properties": {"@source_uri": "https://tools.usps.com/UspsToolsRestServices/rest/POLocator/findLocations", "@spider": "usps_collection_boxes", "addr:city": "MIDDLEBURY", "addr:country": "US", "addr:postcode": "06762", "addr:state": "CT", "addr:street_address": "590 MIDDLEBURY RD STE F", "amenity": "post_box", "collection_times": "Mo-Fr 17:00; Sa 12:00", "note": "ON 12/24 AND 12/31, THIS BOX MAY BE COLLECTED AS EARLY AS 12 NOON.", "nsi_id": "unitedstatespostalservice-a77078", "operator": "United States Postal Service", "operator:short": "USPS", "operator:type": "public", "operator:wikidata": "Q668687", "ref": "0676200001"}, "type": "Feature"}
{"geometry": {"coordinates": [-73.0843999, 41.531957], "type": "Point"}, "id": "9EFEUdJCk7hKroT3JgwHeDqu9rY=", "properties": {"@source_uri": "https://tools.usps.com/UspsToolsRestServices/rest/POLocator/findLocations", "@spider": "usps_collection_boxes", "addr:city": "MIDDLEBURY", "addr:country": "US", "addr:postcode": "06762", "addr:state": "CT", "addr:street_address": "850 STRAITS TPKE", "amenity": "post_box", "collection_times": "Mo-Sa 10:00", "nsi_id": "unitedstatespostalservice-a77078", "operator": "United States Postal Service", "operator:short": "USPS", "operator:type": "public", "operator:wikidata": "Q668687", "ref": "0676200002"}, "type": "Feature"}
{"geometry": {"coordinates": [-73.1061803, 41.538677], "type": "Point"}, "id": "-K08GQJy-PsS8HnK8IHwrANfevg=", "properties": {"@source_uri": "https://tools.usps.com/UspsToolsRestServices/rest/POLocator/findLocations", "@spider": "usps_collection_boxes", "addr:city": "MIDDLEBURY", "addr:country": "US", "addr:postcode": "06762", "addr:state": "CT", "addr:street_address": "530 MIDDLEBURY RD", "amenity": "post_box", "collection_times": "Mo-Sa 10:30", "nsi_id": "unitedstatespostalservice-a77078", "operator": "United States Postal Service", "operator:short": "USPS", "operator:type": "public", "operator:wikidata": "Q668687", "ref": "0676200005"}, "type": "Feature"}
{"geometry": {"coordinates": [-73.1079, 41.537802], "type": "Point"}, "id": "cD6H9psEAPH_RulQF3vvtpwHeP4=", "properties": {"@source_uri": "https://tools.usps.com/UspsToolsRestServices/rest/POLocator/findLocations", "@spider": "usps_collection_boxes", "addr:city": "MIDDLEBURY", "addr:country": "US", "addr:postcode": "06762", "addr:state": "CT", "addr:street_address": "590 MIDDLEBURY RD STE F", "amenity": "post_box", "collection_times": "Mo-Fr 17:00; Sa 12:00", "indoor": "yes", "note": "ON 12/24 AND 12/31, THIS BOX MAY BE COLLECTED AS EARLY AS 12 NOON.", "nsi_id": "unitedstatespostalservice-a77078", "operator": "United States Postal Service", "operator:short": "USPS", "operator:type": "public", "operator:wikidata": "Q668687", "ref": "0676200006"}, "type": "Feature"}
{"geometry": {"coordinates": [-73.107900231, 41.537839652], "type": "Point"}, "id": "BUurtDOlEfzD9q9l03G9ejMaNpM=", "properties": {"@source_uri": "https://tools.usps.com/UspsToolsRestServices/rest/POLocator/findLocations", "@spider": "usps_collection_boxes", "addr:city": "MIDDLEBURY", "addr:country": "US", "addr:postcode": "06762", "addr:state": "CT", "addr:street_address": "590 MIDDLEBURY RD STE F", "amenity": "post_box", "collection_times": "Mo-Fr 16:30; Sa 11:30", "indoor": "yes", "note": "ON 12/24 AND 12/31, THIS BOX MAY BE COLLECTED AS EARLY AS 12 NOON.", "nsi_id": "unitedstatespostalservice-a77078", "operator": "United States Postal Service", "operator:short": "USPS", "operator:type": "public", "operator:wikidata": "Q668687", "ref": "0676200008"}, "type": "Feature"}
{"geometry": {"coordinates": [-73.200507, 41.683356], "type": "Point"}, "id": "FdJwS987F2wGChEKKC6JAI5E5m0=", "properties": {"@source_uri": "https://tools.usps.com/UspsToolsRestServices/rest/POLocator/findLocations", "@spider": "usps_collection_boxes", "addr:city": "MORRIS", "addr:country": "US", "addr:postcode": "06763", "addr:state": "CT", "addr:street_address": "8 WEST", "amenity": "post_box", "collection_times": "Mo-Fr 17:00; Sa 12:00", "note": "ON 12/24 AND 12/31, THIS BOX MAY BE COLLECTED AS EARLY AS 12 NOON.", "nsi_id": "unitedstatespostalservice-a77078", "operator": "United States Postal Service", "operator:short": "USPS", "operator:type": "public", "operator:wikidata": "Q668687", "ref": "0676300001"}, "type": "Feature"}
{"geometry": {"coordinates": [-73.200507, 41.683356], "type": "Point"}, "id": "GJOZgusF8QGWkwCJ4IBc_oC7ylE=", "properties": {"@source_uri": "https://tools.usps.com/UspsToolsRestServices/rest/POLocator/findLocations", "@spider": "usps_collection_boxes", "addr:city": "MORRIS", "addr:country": "US", "addr:postcode": "06763", "addr:state": "CT", "addr:street_address": "8 WEST ST", "amenity": "post_box", "collection_times": "Mo-Fr 17:00; Sa 12:00", "indoor": "yes", "note": "ON 12/24 AND 12/31, THIS BOX MAY BE COLLECTED AS EARLY AS 12 NOON.", "nsi_id": "unitedstatespostalservice-a77078", "operator": "United States Postal Service", "operator:short": "USPS", "operator:type": "public", "operator:wikidata": "Q668687", "ref": "0676300002"}, "type": "Feature"}
{"geometry": {"coordinates": [-73.200515007, 41.683392149], "type": "Point"}, "id": "NUjGmhIZ_bmOb3wrpos1pEgRY6w=", "properties": {"@source_uri": "https://tools.usps.com/UspsToolsRestServices/rest/POLocator/findLocations", "@spider": "usps_collection_boxes", "addr:city": "MORRIS", "addr:country": "US", "addr:postcode": "06763", "addr:state": "CT", "addr:street_address": "8 WEST ST", "amenity": "post_box", "collection_times": "Mo-Fr 16:30; Sa 12:00", "indoor": "yes", "note": "ON 12/24 AND 12/31, THIS BOX MAY BE COLLECTED AS EARLY AS 12 NOON.", "nsi_id": "unitedstatespostalservice-a77078", "operator": "United States Postal Service", "operator:short": "USPS", "operator:type": "public", "operator:wikidata": "Q668687", "ref": "0676300004"}, "type": "Feature"}
{"geometry": {"coordinates": [-73.0430533, 41.473102], "type": "Point"}, "id": "pCmXwLfkvXKx3Ow8n6OHSoGm0fM=", "properties": {"@source_uri": "https://tools.usps.com/UspsToolsRestServices/rest/POLocator/findLocations", "@spider": "usps_collection_boxes", "addr:city": "NAUGATUCK", "addr:country": "US", "addr:postcode": "06770", "addr:state": "CT", "addr:street_address": "799 NEW HAVEN RD", "amenity": "post_box", "collection_times": "Mo-Sa 09:00", "nsi_id": "unitedstatespostalservice-a77078", "operator": "United States Postal Service", "operator:short": "USPS", "operator:type": "public", "operator:wikidata": "Q668687", "ref": "0677000005"}, "type": "Feature"}
{"geometry": {"coordinates": [-73.0483852, 41.4907439], "type": "Point"}, "id": "0yiCPjNobIobfjBsUck2rkSFRi8=", "properties": {"@source_uri": "https://tools.usps.com/UspsToolsRestServices/rest/POLocator/findLocations", "@spider": "usps_collection_boxes", "addr:city": "NAUGATUCK", "addr:country": "US", "addr:postcode": "06770", "addr:state": "CT", "addr:street_address": "155 MAPLE ST", "amenity": "post_box", "collection_times": "Mo-Sa 09:00", "nsi_id": "unitedstatespostalservice-a77078", "operator": "United States Postal Service", "operator:short": "USPS", "operator:type": "public", "operator:wikidata": "Q668687", "ref": "0677000007"}, "type": "Feature"}
{"geometry": {"coordinates": [-73.059865, 41.49266], "type": "Point"}, "id": "Ohcmy4dHYIdY-pnlO0m8iRULHE4=", "properties": {"@source_uri": "https://tools.usps.com/UspsToolsRestServices/rest/POLocator/findLocations", "@spider": "usps_collection_boxes", "addr:city": "NAUGATUCK", "addr:country": "US", "addr:postcode": "06770", "addr:state": "CT", "addr:street_address": "32 SPENCER ST", "amenity": "post_box", "collection_times": "Mo-Fr 15:00; Sa 14:30", "note": "ON 12/24 AND 12/31, THIS BOX MAY BE COLLECTED AS EARLY AS 12 NOON.", "nsi_id": "unitedstatespostalservice-a77078", "operator": "United States Postal Service", "operator:short": "USPS", "operator:type": "public", "operator:wikidata": "Q668687", "ref": "0677000012"}, "type": "Feature"}
{"geometry": {"coordinates": [-73.0552549, 41.490587], "type": "Point"}, "id": "LKhcibR2geEFdKaDB-ubxSBW5K4=", "properties": {"@source_uri": "https://tools.usps.com/UspsToolsRestServices/rest/POLocator/findLocations", "@spider": "usps_collection_boxes", "addr:city": "NAUGATUCK", "addr:country": "US", "addr:postcode": "06770", "addr:state": "CT", "addr:street_address": "229 CHURCH ST", "amenity": "post_box", "collection_times": "Mo-Fr 15:30; Sa 14:00", "note": "ON 12/24 AND 12/31, THIS BOX MAY BE COLLECTED AS EARLY AS 12 NOON.", "nsi_id": "unitedstatespostalservice-a77078", "operator": "United States Postal Service", "operator:short": "USPS", "operator:type": "public", "operator:wikidata": "Q668687", "ref": "0677000017"}, "type": "Feature"}
{"geometry": {"coordinates": [-73.0677377, 41.496045], "type": "Point"}, "id": "u37WPxrDfVj5ukr3BArgiexn5WQ=", "properties": {"@source_uri": "https://tools.usps.com/UspsToolsRestServices/rest/POLocator/findLocations", "@spider": "usps_collection_boxes", "addr:city": "NAUGATUCK", "addr:country": "US", "addr:postcode": "06770", "addr:state": "CT", "addr:street_address": "53 CONRAD ST", "amenity": "post_box", "collection_times": "Mo-Fr 10:30; Sa 09:30", "nsi_id": "unitedstatespostalservice-a77078", "operator": "United States Postal Service", "operator:short": "USPS", "operator:type": "public", "operator:wikidata": "Q668687", "ref": "0677000022"}, "type": "Feature"}
{"geometry": {"coordinates": [-73.0772744, 41.494441], "type": "Point"}, "id": "b2qK1VWnYdGBOGKvkjkPI-g0slA=", "properties": {"@source_uri": "https://tools.usps.com/UspsToolsRestServices/rest/POLocator/findLocations", "@spider": "usps_collection_boxes", "addr:city": "NAUGATUCK", "addr:country": "US", "addr:postcode": "06770", "addr:state": "CT", "addr:street_address": "727 RUBBER AVE", "amenity": "post_box", "collection_times": "Mo-Sa 14:00", "note": "ON 12/24 AND 12/31, THIS BOX MAY BE COLLECTED AS EARLY AS 12 NOON.", "nsi_id": "unitedstatespostalservice-a77078", "operator": "United States Postal Service", "operator:short": "USPS", "operator:type": "public", "operator:wikidata": "Q668687", "ref": "0677000025"}, "type": "Feature"}
{"geometry": {"coordinates": [-73.065923, 41.506746], "type": "Point"}, "id": "KiTra2-455E99qd_f4EwY9VWIi8=", "properties": {"@source_uri": "https://tools.usps.com/UspsToolsRestServices/rest/POLocator/findLocations", "@spider": "usps_collection_boxes", "addr:city": "NAUGATUCK", "addr:country": "US", "addr:postcode": "06770", "addr:state": "CT", "addr:street_address": "11 LANTERN PARK DR", "amenity": "post_box", "collection_times": "Mo-Sa 09:00", "nsi_id": "unitedstatespostalservice-a77078", "operator": "United States Postal Service", "operator:short": "USPS", "operator:type": "public", "operator:wikidata": "Q668687", "ref": "0677000026"}, "type": "Feature"}
{"geometry": {"coordinates": [-73.0288404, 41.469116], "type": "Point"}, "id": "U8sQL_Eb3Z-OCrYVLYv6NsCkPmI=", "properties": {"@source_uri": "https://tools.usps.com/UspsToolsRestServices/rest/POLocator/findLocations", "@spider": "usps_collection_boxes", "addr:city": "NAUGATUCK", "addr:country": "US", "addr:postcode": "06770", "addr:state": "CT", "addr:street_address": "1059 NEW HAVEN RD", "amenity": "post_box", "collection_times": "Mo-Sa 11:00", "nsi_id": "unitedstatespostalservice-a77078", "operator": "United States Postal Service", "operator:short": "USPS", "operator:type": "public", "operator:wikidata": "Q668687", "ref": "0677000027"}, "type": "Feature"}
{"geometry": {"coordinates": [-73.0563052, 41.506274], "type": "Point"}, "id": "-AZRrdn4TQoLGxwXrqpGj5AcOv8=", "properties": {"@source_uri": "https://tools.usps.com/UspsToolsRestServices/rest/POLocator/findLocations", "@spider": "usps_collection_boxes", "addr:city": "NAUGATUCK", "addr:country": "US", "addr:postcode": "06770", "addr:state": "CT", "addr:street_address": "270 SPRING ST", "amenity": "post_box", "collection_times": "Mo-Sa 10:00", "nsi_id": "unitedstatespostalservice-a77078", "operator": "United States Postal Service", "operator:short": "USPS", "operator:type": "public", "operator:wikidata": "Q668687", "ref": "0677000028"}, "type": "Feature"}
{"geometry": {"coordinates": [-73.0636043, 41.499161], "type": "Point"}, "id": "izeK0UOZtyYVr9K4yZGFAiPzHuo=", "properties": {"@source_uri": "https://tools.usps.com/UspsToolsRestServices/rest/POLocator/findLocations", "@spider": "usps_collection_boxes", "addr:city": "NAUGATUCK", "addr:country": "US", "addr:postcode": "06770", "addr:state": "CT", "addr:street_address": "157 QUINN ST", "amenity": "post_box", "collection_times": "Mo-Sa 10:00", "nsi_id": "unitedstatespostalservice-a77078", "operator": "United States Postal Service", "operator:short": "USPS", "operator:type": "public", "operator:wikidata": "Q668687", "ref": "0677000029"}, "type": "Feature"}
{"geometry": {"coordinates": [-73.0564843, 41.491468], "type": "Point"}, "id": "TcWnsfKAS00RPhKj_P0k2D1E_tQ=", "properties": {"@source_uri": "https://tools.usps.com/UspsToolsRestServices/rest/POLocator/findLocations", "@spider": "usps_collection_boxes", "addr:city": "NAUGATUCK", "addr:country": "US", "addr:postcode": "06770", "addr:state": "CT", "addr:street_address": "156 MEADOW ST", "amenity": "post_box", "collection_times": "Mo-Fr 15:30; Sa 13:30", "note": "ON 12/24 AND 12/31, THIS BOX MAY BE COLLECTED AS EARLY AS 12 NOON.", "nsi_id": "unitedstatespostalservice-a77078", "operator": "United States Postal Service", "operator:short": "USPS", "operator:type": "public", "operator:wikidata": "Q668687", "ref": "0677000034"}, "type": "Feature"}
{"geometry": {"coordinates": [-73.059621, 41.482112], "type": "Point"}, "id": "iV6xKAzMbss75IOmZfTOzHDfhYY=", "properties": {"@source_uri": "https://tools.usps.com/UspsToolsRestServices/rest/POLocator/findLocations", "@spider": "usps_collection_boxes", "addr:city": "NAUGATUCK", "addr:country": "US", "addr:postcode": "06770", "addr:state": "CT", "addr:street_address": "80 LEWIS ST", "amenity": "post_box", "collection_times": "Mo-Sa 10:00", "nsi_id": "unitedstatespostalservice-a77078", "operator": "United States Postal Service", "operator:short": "USPS", "operator:type": "public", "operator:wikidata": "Q668687", "ref": "0677000040"}, "type": "Feature"}
{"geometry": {"coordinates": [-73.0455215, 41.504086], "type": "Point"}, "id": "A33Pw-orQvhpsqxwTaDSTr4lWkY=", "properties": {"@source_uri": "https://tools.usps.com/UspsToolsRestServices/rest/POLocator/findLocations", "@spider": "usps_collection_boxes", "addr:city": "NAUGATUCK", "addr:country": "US", "addr:postcode": "06770", "addr:state": "CT", "addr:street_address": "505 N MAIN ST", "amenity": "post_box", "collection_times": "Mo-Fr 16:30; Sa 13:30", "note": "ON 12/24 AND 12/31, THIS BOX MAY BE COLLECTED AS EARLY AS 12 NOON.", "nsi_id": "unitedstatespostalservice-a77078", "operator": "United States Postal Service", "operator:short": "USPS", "operator:type": "public", "operator:wikidata": "Q668687", "ref": "0677000044"}, "type": "Feature"}
{"geometry": {"coordinates": [-73.0529584, 41.50061], "type": "Point"}, "id": "6HNR9HjZMO0fUsrmLytUxetXge4=", "properties": {"@source_uri": "https://tools.usps.com/UspsToolsRestServices/rest/POLocator/findLocations", "@spider": "usps_collection_boxes", "addr:city": "NAUGATUCK", "addr:country": "US", "addr:postcode": "06770", "addr:state": "CT", "addr:street_address": "115 BRIDGE ST", "amenity": "post_box", "collection_times": "Mo-Fr 15:00; Sa 14:00", "note": "ON 12/24 AND 12/31, THIS BOX MAY BE COLLECTED AS EARLY AS 12 NOON.", "nsi_id": "unitedstatespostalservice-a77078", "operator": "United States Postal Service", "operator:short": "USPS", "operator:type": "public", "operator:wikidata": "Q668687", "ref": "0677000045"}, "type": "Feature"}
{"geometry": {"coordinates": [-73.0312481494, 41.5069110319], "type": "Point"}, "id": "cpNZ7dwx47NSizAXkaVLIgT76bY=", "properties": {"@source_uri": "https://tools.usps.com/UspsToolsRestServices/rest/POLocator/findLocations", "@spider": "usps_collection_boxes", "addr:city": "NAUGATUCK", "addr:country": "US", "addr:postcode": "06770", "addr:state": "CT", "addr:street_address": "43 UNION CITY RD", "amenity": "post_box", "collection_times": "Mo-Fr 17:00; Sa 13:45", "note": "ON 12/24 AND 12/31, THIS BOX MAY BE COLLECTED AS EARLY AS 12 NOON.", "nsi_id": "unitedstatespostalservice-a77078", "operator": "United States Postal Service", "operator:short": "USPS", "operator:type": "public", "operator:wikidata": "Q668687", "ref": "0677000046"}, "type": "Feature"}
{"geometry": {"coordinates": [-73.0102222, 41.467861], "type": "Point"}, "id": "tT08I3Fn0fyDAEKlkw6RVAjZz6E=", "properties": {"@source_uri": "https://tools.usps.com/UspsToolsRestServices/rest/POLocator/findLocations", "@spider": "usps_collection_boxes", "addr:city": "NAUGATUCK", "addr:country": "US", "addr:postcode": "06770", "addr:state": "CT", "addr:street_address": "1419 NEW HAVEN RD", "amenity": "post_box", "collection_times": "Mo-Fr 13:30; Sa 13:45", "note": "ON 12/24 AND 12/31, THIS BOX MAY BE COLLECTED AS EARLY AS 12 NOON.", "nsi_id": "unitedstatespostalservice-a77078", "operator": "United States Postal Service", "operator:short": "USPS", "operator:type": "public", "operator:wikidata": "Q668687", "ref": "0677000050"}, "type": "Feature"}
{"geometry": {"coordinates": [-73.0325257, 41.468483], "type": "Point"}, "id": "dxvpuLIx0dwi9q16GawxT1ZlK9E=", "properties": {"@source_uri": "https://tools.usps.com/UspsToolsRestServices/rest/POLocator/findLocations", "@spider": "usps_collection_boxes", "addr:city": "NAUGATUCK", "addr:country": "US", "addr:postcode": "06770", "addr:state": "CT", "addr:street_address": "1013 WEID DR", "amenity": "post_box", "collection_times": "Mo-Sa 11:00", "nsi_id": "unitedstatespostalservice-a77078", "operator": "United States Postal Service", "operator:short": "USPS", "operator:type": "public", "operator:wikidata": "Q668687", "ref": "0677000051"}, "type": "Feature"}
{"geometry": {"coordinates": [-73.0452705, 41.50397], "type": "Point"}, "id": "E8sE9Ps5k02LtDIW0nbf6TcO9WA=", "properties": {"@source_uri": "https://tools.usps.com/UspsToolsRestServices/rest/POLocator/findLocations", "@spider": "usps_collection_boxes", "addr:city": "NAUGATUCK", "addr:country": "US", "addr:postcode": "06770", "addr:state": "CT", "addr:street_address": "505 N MAIN ST", "amenity": "post_box", "collection_times": "Mo-Fr 16:30; Sa 13:30", "indoor": "yes", "note": "ON 12/24 AND 12/31, THIS BOX MAY BE COLLECTED AS EARLY AS 12 NOON.", "nsi_id": "unitedstatespostalservice-a77078", "operator": "United States Postal Service", "operator:short": "USPS", "operator:type": "public", "operator:wikidata": "Q668687", "ref": "0677000056"}, "type": "Feature"}
{"geometry": {"coordinates": [-73.0530682, 41.491098], "type": "Point"}, "id": "l0t2bhMLZprTcT9DjyevmHwDjCI=", "properties": {"@source_uri": "https://tools.usps.com/UspsToolsRestServices/rest/POLocator/findLocations", "@spider": "usps_collection_boxes", "addr:city": "NAUGATUCK", "addr:country": "US", "addr:postcode": "06770", "addr:state": "CT", "addr:street_address": "170 WATER ST", "amenity": "post_box", "collection_times": "Mo-Fr 17:00; Sa 15:00", "note": "ON 12/24 AND 12/31, THIS BOX MAY BE COLLECTED AS EARLY AS 12 NOON.", "nsi_id": "unitedstatespostalservice-a77078", "operator": "United States Postal Service", "operator:short": "USPS", "operator:type": "public", "operator:wikidata": "Q668687", "ref": "0677000057"}, "type": "Feature"}
{"geometry": {"coordinates": [-73.0536592, 41.491314], "type": "Point"}, "id": "_u5_XDJ6gel1YMNS6j1FVyFjxwQ=", "properties": {"@source_uri": "https://tools.usps.com/UspsToolsRestServices/rest/POLocator/findLocations", "@spider": "usps_collection_boxes", "addr:city": "NAUGATUCK", "addr:country": "US", "addr:postcode": "06770", "addr:state": "CT", "addr:street_address": "170 WATER ST", "amenity": "post_box", "collection_times": "Mo-Fr 17:00; Sa 15:00", "indoor": "yes", "note": "ON 12/24 AND 12/31, THIS BOX MAY BE COLLECTED AS EARLY AS 12 NOON.", "nsi_id": "unitedstatespostalservice-a77078", "operator": "United States Postal Service", "operator:short": "USPS", "operator:type": "public", "operator:wikidata": "Q668687", "ref": "0677000058"}, "type": "Feature"}
{"geometry": {"coordinates": [-73.052876153, 41.491021545], "type": "Point"}, "id": "XGnYZjXvJTE0JkX9fsSKr9dnYJo=", "properties": {"@source_uri": "https://tools.usps.com/UspsToolsRestServices/rest/POLocator/findLocations", "@spider": "usps_collection_boxes", "addr:city": "NAUGATUCK", "addr:country": "US", "addr:postcode": "06770", "addr:state": "CT", "addr:street_address": "170 WATER ST", "amenity": "post_box", "collection_times": "Mo-Fr 17:45; Sa 17:00", "indoor": "yes", "note": "ON 12/24 AND 12/31, THIS BOX MAY BE COLLECTED AS EARLY AS 12 NOON.", "nsi_id": "unitedstatespostalservice-a77078", "operator": "United States Postal Service", "operator:short": "USPS", "operator:type": "public", "operator:wikidata": "Q668687", "ref": "0677000062"}, "type": "Feature"}
{"geometry": {"coordinates": [-73.045602478, 41.504080296], "type": "Point"}, "id": "dm3oDOF7Lc7se2aECaige55CwXU=", "properties": {"@source_uri": "https://tools.usps.com/UspsToolsRestServices/rest/POLocator/findLocations", "@spider": "usps_collection_boxes", "addr:city": "NAUGATUCK", "addr:country": "US", "addr:postcode": "06770", "addr:state": "CT", "addr:street_address": "505 N MAIN ST", "amenity": "post_box", "collection_times": "Mo-Fr 16:15; Sa 11:45", "indoor": "yes", "note": "ON 12/24 AND 12/31, THIS BOX MAY BE COLLECTED AS EARLY AS 12 NOON.", "nsi_id": "unitedstatespostalservice-a77078", "operator": "United States Postal Service", "operator:short": "USPS", "operator:type": "public", "operator:wikidata": "Q668687", "ref": "0677000063"}, "type": "Feature"}
{"geometry": {"coordinates": [-73.4257282, 41.53419], "type": "Point"}, "id": "cvxx6I9Cc6IWGeUdd_k_XWFvsOA=", "properties": {"@source_uri": "https://tools.usps.com/UspsToolsRestServices/rest/POLocator/findLocations", "@spider": "usps_collection_boxes", "addr:city": "NEW MILFORD", "addr:country": "US", "addr:postcode": "06776", "addr:state": "CT", "addr:street_address": "5 OLD TOWN PARK RD", "amenity": "post_box", "collection_times": "Mo-Fr 15:30; Sa 14:30", "note": "ON 12/24 AND 12/31, THIS BOX MAY BE COLLECTED AS EARLY AS 12 NOON.", "nsi_id": "unitedstatespostalservice-a77078", "operator": "United States Postal Service", "operator:short": "USPS", "operator:type": "public", "operator:wikidata": "Q668687", "ref": "0677600003"}, "type": "Feature"}
{"geometry": {"coordinates": [-73.405534078, 41.602958646], "type": "Point"}, "id": "4KLIIKiGqZvavCmWk6rR39Bya-o=", "properties": {"@source_uri": "https://tools.usps.com/UspsToolsRestServices/rest/POLocator/findLocations", "@spider": "usps_collection_boxes", "addr:city": "NEW MILFORD", "addr:country": "US", "addr:postcode": "06776", "addr:state": "CT", "addr:street_address": "100 PARK LN", "amenity": "post_box", "collection_times": "Mo-Fr 15:00; Sa 14:30", "note": "ON 12/24 AND 12/31, THIS BOX MAY BE COLLECTED AS EARLY AS 12 NOON.", "nsi_id": "unitedstatespostalservice-a77078", "operator": "United States Postal Service", "operator:short": "USPS", "operator:type": "public", "operator:wikidata": "Q668687", "ref": "0677600005"}, "type": "Feature"}
{"geometry": {"coordinates": [-73.4126072, 41.577366], "type": "Point"}, "id": "PCLSp40YkRrAMQxzJ5HJCFBuF9g=", "properties": {"@source_uri": "https://tools.usps.com/UspsToolsRestServices/rest/POLocator/findLocations", "@spider": "usps_collection_boxes", "addr:city": "NEW MILFORD", "addr:country": "US", "addr:postcode": "06776", "addr:state": "CT", "addr:street_address": "62 BANK ST", "amenity": "post_box", "collection_times": "Mo-Fr 15:30; Sa 14:30", "note": "ON 12/24 AND 12/31, THIS BOX MAY BE COLLECTED AS EARLY AS 12 NOON.", "nsi_id": "unitedstatespostalservice-a77078", "operator": "United States Postal Service", "operator:short": "USPS", "operator:type": "public", "operator:wikidata": "Q668687", "ref": "0677600006"}, "type": "Feature"}
{"geometry": {"coordinates": [-73.4199321, 41.5746], "type": "Point"}, "id": "TbjyGccmXFkGz7JMFZEiWp0mik8=", "properties": {"@source_uri": "https://tools.usps.com/UspsToolsRestServices/rest/POLocator/findLocations", "@spider": "usps_collection_boxes", "addr:city": "NEW MILFORD", "addr:country": "US", "addr:postcode": "06776", "addr:state": "CT", "addr:street_address": "7 VETERANS PLZ", "amenity": "post_box", "collection_times": "Mo-Fr 15:30; Sa 14:30", "note": "ON 12/24 AND 12/31, THIS BOX MAY BE COLLECTED AS EARLY AS 12 NOON.", "nsi_id": "unitedstatespostalservice-a77078", "operator": "United States Postal Service", "operator:short": "USPS", "operator:type": "public", "operator:wikidata": "Q668687", "ref": "0677600010"}, "type": "Feature"}
{"geometry": {"coordinates": [-73.4184989, 41.550442], "type": "Point"}, "id": "OgpVPzAvY5HRoYdJvzLXDDtn0nY=", "properties": {"@source_uri": "https://tools.usps.com/UspsToolsRestServices/rest/POLocator/findLocations", "@spider": "usps_collection_boxes", "addr:city": "NEW MILFORD", "addr:country": "US", "addr:postcode": "06776", "addr:state": "CT", "addr:street_address": "180 DANBURY RD", "amenity": "post_box", "collection_times": "Mo-Fr 15:30; Sa 14:30", "note": "ON 12/24 AND 12/31, THIS BOX MAY BE COLLECTED AS EARLY AS 12 NOON.", "nsi_id": "unitedstatespostalservice-a77078", "operator": "United States Postal Service", "operator:short": "USPS", "operator:type": "public", "operator:wikidata": "Q668687", "ref": "0677600012"}, "type": "Feature"}
{"geometry": {"coordinates": [-73.4114804, 41.578764], "type": "Point"}, "id": "A4NXTUDIUAnadfqURr3QzMAdTSo=", "properties": {"@source_uri": "https://tools.usps.com/UspsToolsRestServices/rest/POLocator/findLocations", "@spider": "usps_collection_boxes", "addr:city": "NEW MILFORD", "addr:country": "US", "addr:postcode": "06776", "addr:state": "CT", "addr:street_address": "37 MAIN ST", "amenity": "post_box", "collection_times": "Mo-Fr 17:00; Sa 15:00", "note": "ON 12/24 AND 12/31, THIS BOX MAY BE COLLECTED AS EARLY AS 12 NOON.", "nsi_id": "unitedstatespostalservice-a77078", "operator": "United States Postal Service", "operator:short": "USPS", "operator:type": "public", "operator:wikidata": "Q668687", "ref": "0677600017"}, "type": "Feature"}
{"geometry": {"coordinates": [-73.411459, 41.578493], "type": "Point"}, "id": "9zDzJduOUyoJRr5SIV_NyV8Kmyg=", "properties": {"@source_uri": "https://tools.usps.com/UspsToolsRestServices/rest/POLocator/findLocations", "@spider": "usps_collection_boxes", "addr:city": "NEW MILFORD", "addr:country": "US", "addr:postcode": "06776", "addr:state": "CT", "addr:street_address": "37 MAIN ST", "amenity": "post_box", "collection_times": "Mo-Fr 17:30; Sa 15:00", "indoor": "yes", "note": "ON 12/24 AND 12/31, THIS BOX MAY BE COLLECTED AS EARLY AS 12 NOON.", "nsi_id": "unitedstatespostalservice-a77078", "operator": "United States Postal Service", "operator:short": "USPS", "operator:type": "public", "operator:wikidata": "Q668687", "ref": "0677600018"}, "type": "Feature"}
{"geometry": {"coordinates": [-73.411459, 41.578493], "type": "Point"}, "id": "PC5JDO_jKj0vk1mPvsKuvNK_4d0=", "properties": {"@source_uri": "https://tools.usps.com/UspsToolsRestServices/rest/POLocator/findLocations", "@spider": "usps_collection_boxes", "addr:city": "NEW MILFORD", "addr:country": "US", "addr:postcode": "06776", "addr:state": "CT", "addr:street_address": "37 MAIN ST", "amenity": "post_box", "collection_times": "Mo-Fr 17:30; Sa 15:00", "indoor": "yes", "note": "ON 12/24 AND 12/31, THIS BOX MAY BE COLLECTED AS EARLY AS 12 NOON.", "nsi_id": "unitedstatespostalservice-a77078", "operator": "United States Postal Service", "operator:short": "USPS", "operator:type": "public", "operator:wikidata": "Q668687", "ref": "0677600019"}, "type": "Feature"}
{"geometry": {"coordinates": [-73.392917, 41.631126], "type": "Point"}, "id": "pJrJZrJ1GxhOGM9BQ7VsiO6Tpyc=", "properties": {"@source_uri": "https://tools.usps.com/UspsToolsRestServices/rest/POLocator/findLocations", "@spider": "usps_collection_boxes", "addr:city": "NEW MILFORD", "addr:country": "US", "addr:postcode": "06776", "addr:state": "CT", "addr:street_address": "301 LITCHFIELD RD", "amenity": "post_box", "collection_times": "Mo-Sa 11:30", "nsi_id": "unitedstatespostalservice-a77078", "operator": "United States Postal Service", "operator:short": "USPS", "operator:type": "public", "operator:wikidata": "Q668687", "ref": "0677600020"}, "type": "Feature"}
{"geometry": {"coordinates": [-73.411537818, 41.578521115], "type": "Point"}, "id": "gMG0d9DtnjNg5pBWF3rb3u9hQaE=", "properties": {"@source_uri": "https://tools.usps.com/UspsToolsRestServices/rest/POLocator/findLocations", "@spider": "usps_collection_boxes", "addr:city": "NEW MILFORD", "addr:country": "US", "addr:postcode": "06776", "addr:state": "CT", "addr:street_address": "37 MAIN ST", "amenity": "post_box", "collection_times": "Mo-Fr 17:30; Sa 16:30", "indoor": "yes", "note": "ON 12/24 AND 12/31, THIS BOX MAY BE COLLECTED AS EARLY AS 12 NOON.", "nsi_id": "unitedstatespostalservice-a77078", "operator": "United States Postal Service", "operator:short": "USPS", "operator:type": "public", "operator:wikidata": "Q668687", "ref": "0677600025"}, "type": "Feature"}
{"geometry": {"coordinates": [-73.369779361, 41.662830741], "type": "Point"}, "id": "72Yz-7AY_lgz_3fKCCLVmCvPQuY=", "properties": {"@source_uri": "https://tools.usps.com/UspsToolsRestServices/rest/POLocator/findLocations", "@spider": "usps_collection_boxes", "addr:city": "NEW PRESTON", "addr:country": "US", "addr:postcode": "06777", "addr:state": "CT", "addr:street_address": "253 NEW MILFORD TPKE", "amenity": "post_box", "collection_times": "Mo-Fr 16:30; Sa 11:30", "indoor": "yes", "note": "ON 12/24 AND 12/31, THIS BOX MAY BE COLLECTED AS EARLY AS 12 NOON.", "nsi_id": "unitedstatespostalservice-a77078", "operator": "United States Postal Service", "operator:short": "USPS", "operator:type": "public", "operator:wikidata": "Q668687", "ref": "0677700001"}, "type": "Feature"}
{"geometry": {"coordinates": [-73.087187591, 41.588744153], "type": "Point"}, "id": "aNQwFN76N4fxTQ9B0pQlR54e7Hc=", "properties": {"@source_uri": "https://tools.usps.com/UspsToolsRestServices/rest/POLocator/findLocations", "@spider": "usps_collection_boxes", "addr:city": "WATERTOWN", "addr:country": "US", "addr:postcode": "06779", "addr:state": "CT", "addr:street_address": "322 MAIN ST", "amenity": "post_box", "collection_times": "Mo-Fr 17:00; Sa 13:00", "indoor": "yes", "note": "ON 12/24 AND 12/31, THIS BOX MAY BE COLLECTED AS EARLY AS 12 NOON.", "nsi_id": "unitedstatespostalservice-a77078", "operator": "United States Postal Service", "operator:short": "USPS", "operator:type": "public", "operator:wikidata": "Q668687", "ref": "0677900003"}, "type": "Feature"}
{"geometry": {"coordinates": [-72.9923328, 41.67134], "type": "Point"}, "id": "ZswB3nu1ZtAxpLJLXK4xQdK63So=", "properties": {"@source_uri": "https://tools.usps.com/UspsToolsRestServices/rest/POLocator/findLocations", "@spider": "usps_collection_boxes", "addr:city": "PEQUABUCK", "addr:country": "US", "addr:postcode": "06781", "addr:state": "CT", "addr:street_address": "153 S RIVERSIDE AVE", "amenity": "post_box", "collection_times": "Mo-Sa 12:00", "nsi_id": "unitedstatespostalservice-a77078", "operator": "United States Postal Service", "operator:short": "USPS", "operator:type": "public", "operator:wikidata": "Q668687", "ref": "0678100001"}, "type": "Feature"}
{"geometry": {"coordinates": [-72.992045, 41.671432], "type": "Point"}, "id": "5xnBC0nZy362sBAtoYPd_iFpia4=", "properties": {"@source_uri": "https://tools.usps.com/UspsToolsRestServices/rest/POLocator/findLocations", "@spider": "usps_collection_boxes", "addr:city": "PEQUABUCK", "addr:country": "US", "addr:postcode": "06781", "addr:state": "CT", "addr:street_address": "153 S RIVERSIDE AVE", "amenity": "post_box", "collection_times": "Mo-Sa 12:00", "indoor": "yes", "nsi_id": "unitedstatespostalservice-a77078", "operator": "United States Postal Service", "operator:short": "USPS", "operator:type": "public", "operator:wikidata": "Q668687", "ref": "0678100002"}, "type": "Feature"}
{"geometry": {"coordinates": [-73.052899, 41.671993], "type": "Point"}, "id": "j3n3tvs5R6J-6ldCVufMcdDu-Fs=", "properties": {"@source_uri": "https://tools.usps.com/UspsToolsRestServices/rest/POLocator/findLocations", "@spider": "usps_collection_boxes", "addr:city": "PLYMOUTH", "addr:country": "US", "addr:postcode": "06782", "addr:state": "CT", "addr:street_address": "696 MAIN ST", "amenity": "post_box", "collection_times": "Mo-Fr 17:00; Sa 12:00", "note": "ON 12/24 AND 12/31, THIS BOX MAY BE COLLECTED AS EARLY AS 12 NOON.", "nsi_id": "unitedstatespostalservice-a77078", "operator": "United States Postal Service", "operator:short": "USPS", "operator:type": "public", "operator:wikidata": "Q668687", "ref": "0678200001"}, "type": "Feature"}
{"geometry": {"coordinates": [-73.309949, 41.559633], "type": "Point"}, "id": "bGvLRDVOuyGuhzTxZvczVCdpemM=", "properties": {"@source_uri": "https://tools.usps.com/UspsToolsRestServices/rest/POLocator/findLocations", "@spider": "usps_collection_boxes", "addr:city": "ROXBURY", "addr:country": "US", "addr:postcode": "06783", "addr:state": "CT", "addr:street_address": "26 NORTH ST", "amenity": "post_box", "collection_times": "Mo-Fr 17:00; Sa 12:00", "note": "ON 12/24 AND 12/31, THIS BOX MAY BE COLLECTED AS EARLY AS 12 NOON.", "nsi_id": "unitedstatespostalservice-a77078", "operator": "United States Postal Service", "operator:short": "USPS", "operator:type": "public", "operator:wikidata": "Q668687", "ref": "0678300001"}, "type": "Feature"}
{"geometry": {"coordinates": [-73.3217119, 41.5676804], "type": "Point"}, "id": "XJ9wPPwYgZW5ExDDsXz65Oml0ww=", "properties": {"@source_uri": "https://tools.usps.com/UspsToolsRestServices/rest/POLocator/findLocations", "@spider": "usps_collection_boxes", "addr:city": "ROXBURY", "addr:country": "US", "addr:postcode": "06783", "addr:state": "CT", "addr:street_address": "26 NORTH ST", "amenity": "post_box", "collection_times": "Mo-Fr 17:00; Sa 12:00", "indoor": "yes", "note": "ON 12/24 AND 12/31, THIS BOX MAY BE COLLECTED AS EARLY AS 12 NOON.", "nsi_id": "unitedstatespostalservice-a77078", "operator": "United States Postal Service", "operator:short": "USPS", "operator:type": "public", "operator:wikidata": "Q668687", "ref": "0678300002"}, "type": "Feature"}
{"geometry": {"coordinates": [-73.3217119, 41.5676804], "type": "Point"}, "id": "NbZPHhRCIz4KRY8BxpV2SRnJoQ4=", "properties": {"@source_uri": "https://tools.usps.com/UspsToolsRestServices/rest/POLocator/findLocations", "@spider": "usps_collection_boxes", "addr:city": "ROXBURY", "addr:country": "US", "addr:postcode": "06783", "addr:state": "CT", "addr:street_address": "26 NORTH ST", "amenity": "post_box", "collection_times": "Mo-Fr 16:30", "indoor": "yes", "note": "ON 12/24 AND 12/31, THIS BOX MAY BE COLLECTED AS EARLY AS 12 NOON.", "nsi_id": "unitedstatespostalservice-a77078", "operator": "United States Postal Service", "operator:short": "USPS", "operator:type": "public", "operator:wikidata": "Q668687", "ref": "0678300004"}, "type": "Feature"}
{"geometry": {"coordinates": [-73.4990079, 41.573222], "type": "Point"}, "id": "hPSdOMJVOC5y8umpXCAZndah7kc=", "properties": {"@source_uri": "https://tools.usps.com/UspsToolsRestServices/rest/POLocator/findLocations", "@spider": "usps_collection_boxes", "addr:city": "SHERMAN", "addr:country": "US", "addr:postcode": "06784", "addr:state": "CT", "addr:street_address": "29 ROUTE 37 CTR", "amenity": "post_box", "collection_times": "Mo-Fr 17:00; Sa 12:00", "note": "ON 12/24 AND 12/31, THIS BOX MAY BE COLLECTED AS EARLY AS 12 NOON.", "nsi_id": "unitedstatespostalservice-a77078", "operator": "United States Postal Service", "operator:short": "USPS", "operator:type": "public", "operator:wikidata": "Q668687", "ref": "0678400001"}, "type": "Feature"}
{"geometry": {"coordinates": [-73.4981199, 41.580165], "type": "Point"}, "id": "hEp0WMvzvJUV5tsOdhrc0Mfa6DA=", "properties": {"@source_uri": "https://tools.usps.com/UspsToolsRestServices/rest/POLocator/findLocations", "@spider": "usps_collection_boxes", "addr:city": "SHERMAN", "addr:country": "US", "addr:postcode": "06784", "addr:state": "CT", "addr:street_address": "11 ROUTE 39 N", "amenity": "post_box", "collection_times": "Mo-Sa 10:00", "nsi_id": "unitedstatespostalservice-a77078", "operator": "United States Postal Service", "operator:short": "USPS", "operator:type": "public", "operator:wikidata": "Q668687", "ref": "0678400002"}, "type": "Feature"}
{"geometry": {"coordinates": [-73.480683, 41.583885], "type": "Point"}, "id": "r9GP7cp2a3uNX3JaSPjsoer8_kI=", "properties": {"@source_uri": "https://tools.usps.com/UspsToolsRestServices/rest/POLocator/findLocations", "@spider": "usps_collection_boxes", "addr:city": "SHERMAN", "addr:country": "US", "addr:postcode": "06784", "addr:state": "CT", "addr:street_address": "29 ROUTE 37 CTR", "amenity": "post_box", "collection_times": "Mo-Fr 17:00; Sa 12:00", "indoor": "yes", "note": "ON 12/24 AND 12/31, THIS BOX MAY BE COLLECTED AS EARLY AS 12 NOON.", "nsi_id": "unitedstatespostalservice-a77078", "operator": "United States Postal Service", "operator:short": "USPS", "operator:type": "public", "operator:wikidata": "Q668687", "ref": "0678400003"}, "type": "Feature"}
{"geometry": {"coordinates": [-73.480431666, 41.584319726], "type": "Point"}, "id": "gvu5LgOwi2lcGfZupMM9EJ-vz80=", "properties": {"@source_uri": "https://tools.usps.com/UspsToolsRestServices/rest/POLocator/findLocations", "@spider": "usps_collection_boxes", "addr:city": "SHERMAN", "addr:country": "US", "addr:postcode": "06784", "addr:state": "CT", "addr:street_address": "29 ROUTE 37 CTR STE 1", "amenity": "post_box", "collection_times": "Mo-Fr 17:00; Sa 12:00", "indoor": "yes", "note": "ON 12/24 AND 12/31, THIS BOX MAY BE COLLECTED AS EARLY AS 12 NOON.", "nsi_id": "unitedstatespostalservice-a77078", "operator": "United States Postal Service", "operator:short": "USPS", "operator:type": "public", "operator:wikidata": "Q668687", "ref": "0678400005"}, "type": "Feature"}
{"geometry": {"coordinates": [-73.4707429788, 41.678636019], "type": "Point"}, "id": "fLhfuLGtEtaSjhcNK_WqWh2CS9E=", "properties": {"@source_uri": "https://tools.usps.com/UspsToolsRestServices/rest/POLocator/findLocations", "@spider": "usps_collection_boxes", "addr:city": "SOUTH KENT", "addr:country": "US", "addr:postcode": "06785", "addr:state": "CT", "addr:street_address": "314 S KENT RD", "amenity": "post_box", "collection_times": "Mo-Fr 17:00; Sa 12:00", "note": "ON 12/24 AND 12/31, THIS BOX MAY BE COLLECTED AS EARLY AS 12 NOON.", "nsi_id": "unitedstatespostalservice-a77078", "operator": "United States Postal Service", "operator:short": "USPS", "operator:type": "public", "operator:wikidata": "Q668687", "ref": "0678500001"}, "type": "Feature"}
{"geometry": {"coordinates": [-73.470256274, 41.678597924], "type": "Point"}, "id": "vmJ9durye54o0xcaUanXVIMN-nc=", "properties": {"@source_uri": "https://tools.usps.com/UspsToolsRestServices/rest/POLocator/findLocations", "@spider": "usps_collection_boxes", "addr:city": "SOUTH KENT", "addr:country": "US", "addr:postcode": "06785", "addr:state": "CT", "addr:street_address": "314 S KENT RD", "amenity": "post_box", "collection_times": "Mo-Fr 17:00; Sa 12:00", "indoor": "yes", "note": "ON 12/24 AND 12/31, THIS BOX MAY BE COLLECTED AS EARLY AS 12 NOON.", "nsi_id": "unitedstatespostalservice-a77078", "operator": "United States Postal Service", "operator:short": "USPS", "operator:type": "public", "operator:wikidata": "Q668687", "ref": "0678500003"}, "type": "Feature"}
{"geometry": {"coordinates": [-73.0316691, 41.688314], "type": "Point"}, "id": "V-Ve-xhh0LTH5Q7Lx0cEXlsJ2X0=", "properties": {"@source_uri": "https://tools.usps.com/UspsToolsRestServices/rest/POLocator/findLocations", "@spider": "usps_collection_boxes", "addr:city": "TERRYVILLE", "addr:country": "US", "addr:postcode": "06786", "addr:state": "CT", "addr:street_address": "1 NAPCO DR", "amenity": "post_box", "collection_times": "Mo-Fr 14:00; Sa 13:00", "note": "ON 12/24 AND 12/31, THIS BOX MAY BE COLLECTED AS EARLY AS 12 NOON.", "nsi_id": "unitedstatespostalservice-a77078", "operator": "United States Postal Service", "operator:short": "USPS", "operator:type": "public", "operator:wikidata": "Q668687", "ref": "0678600001"}, "type": "Feature"}
{"geometry": {"coordinates": [-73.0191533, 41.679237], "type": "Point"}, "id": "SYkwVs7KEYeu-CJfbHsmFs6vYh4=", "properties": {"@source_uri": "https://tools.usps.com/UspsToolsRestServices/rest/POLocator/findLocations", "@spider": "usps_collection_boxes", "addr:city": "TERRYVILLE", "addr:country": "US", "addr:postcode": "06786", "addr:state": "CT", "addr:street_address": "311 MAIN ST", "amenity": "post_box", "collection_times": "Mo-Fr 14:00; Sa 13:00", "note": "ON 12/24 AND 12/31, THIS BOX MAY BE COLLECTED AS EARLY AS 12 NOON.", "nsi_id": "unitedstatespostalservice-a77078", "operator": "United States Postal Service", "operator:short": "USPS", "operator:type": "public", "operator:wikidata": "Q668687", "ref": "0678600002"}, "type": "Feature"}
{"geometry": {"coordinates": [-73.009928, 41.678122], "type": "Point"}, "id": "qt_AwaHj2GhBDu7qD9jyXTwaoFg=", "properties": {"@source_uri": "https://tools.usps.com/UspsToolsRestServices/rest/POLocator/findLocations", "@spider": "usps_collection_boxes", "addr:city": "TERRYVILLE", "addr:country": "US", "addr:postcode": "06786", "addr:state": "CT", "addr:street_address": "10 AGNEY AVE", "amenity": "post_box", "collection_times": "Mo-Fr 14:00; Sa 13:00", "note": "ON 12/24 AND 12/31, THIS BOX MAY BE COLLECTED AS EARLY AS 12 NOON.", "nsi_id": "unitedstatespostalservice-a77078", "operator": "United States Postal Service", "operator:short": "USPS", "operator:type": "public", "operator:wikidata": "Q668687", "ref": "0678600003"}, "type": "Feature"}
{"geometry": {"coordinates": [-73.0118525, 41.677962], "type": "Point"}, "id": "FViZ24-sBbc7S9kB6R3JOWs1S3I=", "properties": {"@source_uri": "https://tools.usps.com/UspsToolsRestServices/rest/POLocator/findLocations", "@spider": "usps_collection_boxes", "addr:city": "TERRYVILLE", "addr:country": "US", "addr:postcode": "06786", "addr:state": "CT", "addr:street_address": "8 S MAIN ST", "amenity": "post_box", "collection_times": "Mo-Fr 14:00; Sa 13:00", "note": "ON 12/24 AND 12/31, THIS BOX MAY BE COLLECTED AS EARLY AS 12 NOON.", "nsi_id": "unitedstatespostalservice-a77078", "operator": "United States Postal Service", "operator:short": "USPS", "operator:type": "public", "operator:wikidata": "Q668687", "ref": "0678600004"}, "type": "Feature"}
{"geometry": {"coordinates": [-72.9989192, 41.679501], "type": "Point"}, "id": "88fvfWx5IYqx8hf0jyPG_SjbM5w=", "properties": {"@source_uri": "https://tools.usps.com/UspsToolsRestServices/rest/POLocator/findLocations", "@spider": "usps_collection_boxes", "addr:city": "TERRYVILLE", "addr:country": "US", "addr:postcode": "06786", "addr:state": "CT", "addr:street_address": "80 MAIN ST", "amenity": "post_box", "collection_times": "Mo-Fr 14:00; Sa 13:00", "note": "ON 12/24 AND 12/31, THIS BOX MAY BE COLLECTED AS EARLY AS 12 NOON.", "nsi_id": "unitedstatespostalservice-a77078", "operator": "United States Postal Service", "operator:short": "USPS", "operator:type": "public", "operator:wikidata": "Q668687", "ref": "0678600005"}, "type": "Feature"}
{"geometry": {"coordinates": [-73.0033247, 41.677625], "type": "Point"}, "id": "Wb045aHQzuey3dXK8PJZiQK3HZM=", "properties": {"@source_uri": "https://tools.usps.com/UspsToolsRestServices/rest/POLocator/findLocations", "@spider": "usps_collection_boxes", "addr:city": "TERRYVILLE", "addr:country": "US", "addr:postcode": "06786", "addr:state": "CT", "addr:street_address": "17 ALLEN ST", "amenity": "post_box", "collection_times": "Mo-Fr 14:00; Sa 13:00", "note": "ON 12/24 AND 12/31, THIS BOX MAY BE COLLECTED AS EARLY AS 12 NOON.", "nsi_id": "unitedstatespostalservice-a77078", "operator": "United States Postal Service", "operator:short": "USPS", "operator:type": "public", "operator:wikidata": "Q668687", "ref": "0678600007"}, "type": "Feature"}
{"geometry": {"coordinates": [-73.0118571, 41.683242], "type": "Point"}, "id": "DLZTfBjhUKGDPE-C816VyWt4wwQ=", "properties": {"@source_uri": "https://tools.usps.com/UspsToolsRestServices/rest/POLocator/findLocations", "@spider": "usps_collection_boxes", "addr:city": "TERRYVILLE", "addr:country": "US", "addr:postcode": "06786", "addr:state": "CT", "addr:street_address": "1 PROSPECT ST", "amenity": "post_box", "collection_times": "Mo-Fr 14:00; Sa 13:00", "note": "ON 12/24 AND 12/31, THIS BOX MAY BE COLLECTED AS EARLY AS 12 NOON.", "nsi_id": "unitedstatespostalservice-a77078", "operator": "United States Postal Service", "operator:short": "USPS", "operator:type": "public", "operator:wikidata": "Q668687", "ref": "0678600008"}, "type": "Feature"}
{"geometry": {"coordinates": [-73.0002614, 41.689507], "type": "Point"}, "id": "hl8F01BfwKRrx3aS0LwXKjBXZuo=", "properties": {"@source_uri": "https://tools.usps.com/UspsToolsRestServices/rest/POLocator/findLocations", "@spider": "usps_collection_boxes", "addr:city": "TERRYVILLE", "addr:country": "US", "addr:postcode": "06786", "addr:state": "CT", "addr:street_address": "2 HOYE ST", "amenity": "post_box", "collection_times": "Mo-Fr 14:00; Sa 13:00", "note": "ON 12/24 AND 12/31, THIS BOX MAY BE COLLECTED AS EARLY AS 12 NOON.", "nsi_id": "unitedstatespostalservice-a77078", "operator": "United States Postal Service", "operator:short": "USPS", "operator:type": "public", "operator:wikidata": "Q668687", "ref": "0678600009"}, "type": "Feature"}
{"geometry": {"coordinates": [-73.0007090329, 41.6805018642], "type": "Point"}, "id": "M5bZMzw83dAcZCfOQr6483rPcHc=", "properties": {"@source_uri": "https://tools.usps.com/UspsToolsRestServices/rest/POLocator/findLocations", "@spider": "usps_collection_boxes", "addr:city": "TERRYVILLE", "addr:country": "US", "addr:postcode": "06786", "addr:state": "CT", "addr:street_address": "19 N RIVERSIDE AVE", "amenity": "post_box", "collection_times": "Mo-Fr 17:00; Sa 15:00", "note": "ON 12/24 AND 12/31, THIS BOX MAY BE COLLECTED AS EARLY AS 12 NOON.", "nsi_id": "unitedstatespostalservice-a77078", "operator": "United States Postal Service", "operator:short": "USPS", "operator:type": "public", "operator:wikidata": "Q668687", "ref": "0678600011"}, "type": "Feature"}
{"geometry": {"coordinates": [-73.0014721, 41.680825], "type": "Point"}, "id": "bDASQBio8HXBc75zrdQSHps6RJo=", "properties": {"@source_uri": "https://tools.usps.com/UspsToolsRestServices/rest/POLocator/findLocations", "@spider": "usps_collection_boxes", "addr:city": "TERRYVILLE", "addr:country": "US", "addr:postcode": "06786", "addr:state": "CT", "addr:street_address": "19 N RIVERSIDE AVE", "amenity": "post_box", "collection_times": "Mo-Fr 17:00; Sa 15:00", "indoor": "yes", "note": "ON 12/24 AND 12/31, THIS BOX MAY BE COLLECTED AS EARLY AS 12 NOON.", "nsi_id": "unitedstatespostalservice-a77078", "operator": "United States Postal Service", "operator:short": "USPS", "operator:type": "public", "operator:wikidata": "Q668687", "ref": "0678600013"}, "type": "Feature"}
{"geometry": {"coordinates": [-73.0014852, 41.680841], "type": "Point"}, "id": "W9DxCHIGliO7NCjJqJQFcbfubbQ=", "properties": {"@source_uri": "https://tools.usps.com/UspsToolsRestServices/rest/POLocator/findLocations", "@spider": "usps_collection_boxes", "addr:city": "TERRYVILLE", "addr:country": "US", "addr:postcode": "06786", "addr:state": "CT", "addr:street_address": "19 N RIVERSIDE AVE", "amenity": "post_box", "collection_times": "Mo-Fr 17:00; Sa 15:00", "indoor": "yes", "note": "ON 12/24 AND 12/31, THIS BOX MAY BE COLLECTED AS EARLY AS 12 NOON.", "nsi_id": "unitedstatespostalservice-a77078", "operator": "United States Postal Service", "operator:short": "USPS", "operator:type": "public", "operator:wikidata": "Q668687", "ref": "0678600015"}, "type": "Feature"}
{"geometry": {"coordinates": [-73.00070462, 41.680421999], "type": "Point"}, "id": "ZvqVsSI4Gl8uHgVUzuUB6tw10_A=", "properties": {"@source_uri": "https://tools.usps.com/UspsToolsRestServices/rest/POLocator/findLocations", "@spider": "usps_collection_boxes", "addr:city": "TERRYVILLE", "addr:country": "US", "addr:postcode": "06786", "addr:state": "CT", "addr:street_address": "19 N RIVERSIDE AVE", "amenity": "post_box", "collection_times": "Mo-Fr 17:00; Sa 12:00", "indoor": "yes", "note": "ON 12/24 AND 12/31, THIS BOX MAY BE COLLECTED AS EARLY AS 12 NOON.", "nsi_id": "unitedstatespostalservice-a77078", "operator": "United States Postal Service", "operator:short": "USPS", "operator:type": "public", "operator:wikidata": "Q668687", "ref": "0678600018"}, "type": "Feature"}
{"geometry": {"coordinates": [-73.0811091, 41.659615], "type": "Point"}, "id": "NmE0njOMLzimcJJw8fq1ZabYZq8=", "properties": {"@source_uri": "https://tools.usps.com/UspsToolsRestServices/rest/POLocator/findLocations", "@spider": "usps_collection_boxes", "addr:city": "THOMASTON", "addr:country": "US", "addr:postcode": "06787", "addr:state": "CT", "addr:street_address": "36 WATERTOWN RD", "amenity": "post_box", "collection_times": "Mo-Sa 12:00", "nsi_id": "unitedstatespostalservice-a77078", "operator": "United States Postal Service", "operator:short": "USPS", "operator:type": "public", "operator:wikidata": "Q668687", "ref": "0678700002"}, "type": "Feature"}
{"geometry": {"coordinates": [-73.07519, 41.67338], "type": "Point"}, "id": "Rh9SgLZcvk2N4WRkjABbcu2mn5I=", "properties": {"@source_uri": "https://tools.usps.com/UspsToolsRestServices/rest/POLocator/findLocations", "@spider": "usps_collection_boxes", "addr:city": "THOMASTON", "addr:country": "US", "addr:postcode": "06787", "addr:state": "CT", "addr:street_address": "143 PINE HILL RD", "amenity": "post_box", "collection_times": "Mo-Sa 12:00", "nsi_id": "unitedstatespostalservice-a77078", "operator": "United States Postal Service", "operator:short": "USPS", "operator:type": "public", "operator:wikidata": "Q668687", "ref": "0678700003"}, "type": "Feature"}
{"geometry": {"coordinates": [-73.0738695, 41.673799], "type": "Point"}, "id": "aYwtAseOSxi89GYeEu7hyGV_52Y=", "properties": {"@source_uri": "https://tools.usps.com/UspsToolsRestServices/rest/POLocator/findLocations", "@spider": "usps_collection_boxes", "addr:city": "THOMASTON", "addr:country": "US", "addr:postcode": "06787", "addr:state": "CT", "addr:street_address": "92 MAIN ST", "amenity": "post_box", "collection_times": "Mo-Sa 12:00", "nsi_id": "unitedstatespostalservice-a77078", "operator": "United States Postal Service", "operator:short": "USPS", "operator:type": "public", "operator:wikidata": "Q668687", "ref": "0678700005"}, "type": "Feature"}
{"geometry": {"coordinates": [-73.1075593, 41.696745], "type": "Point"}, "id": "r3Us7zUFUvzxWfcoZRGwwliFppY=", "properties": {"@source_uri": "https://tools.usps.com/UspsToolsRestServices/rest/POLocator/findLocations", "@spider": "usps_collection_boxes", "addr:city": "THOMASTON", "addr:country": "US", "addr:postcode": "06787", "addr:state": "CT", "addr:street_address": "38 MAIN ST", "amenity": "post_box", "collection_times": "Mo-Sa 12:00", "nsi_id": "unitedstatespostalservice-a77078", "operator": "United States Postal Service", "operator:short": "USPS", "operator:type": "public", "operator:wikidata": "Q668687", "ref": "0678700008"}, "type": "Feature"}
{"geometry": {"coordinates": [-73.0603993, 41.586913], "type": "Point"}, "id": "9oQN5JRzi7-u6FC-Lb46MTZOYIU=", "properties": {"@source_uri": "https://tools.usps.com/UspsToolsRestServices/rest/POLocator/findLocations", "@spider": "usps_collection_boxes", "addr:city": "THOMASTON", "addr:country": "US", "addr:postcode": "06787", "addr:state": "CT", "addr:street_address": "150 MAIN ST", "amenity": "post_box", "collection_times": "Mo-Fr 17:00; Sa 15:30", "note": "ON 12/24 AND 12/31, THIS BOX MAY BE COLLECTED AS EARLY AS 12 NOON.", "nsi_id": "unitedstatespostalservice-a77078", "operator": "United States Postal Service", "operator:short": "USPS", "operator:type": "public", "operator:wikidata": "Q668687", "ref": "0678700010"}, "type": "Feature"}
{"geometry": {"coordinates": [-73.0749293, 41.673486], "type": "Point"}, "id": "ANrGZCy0YGWcQJkBqapYHEBkPu8=", "properties": {"@source_uri": "https://tools.usps.com/UspsToolsRestServices/rest/POLocator/findLocations", "@spider": "usps_collection_boxes", "addr:city": "THOMASTON", "addr:country": "US", "addr:postcode": "06787", "addr:state": "CT", "addr:street_address": "4 THOMAS AVE", "amenity": "post_box", "collection_times": "Mo-Fr 17:00; Sa 15:30", "note": "ON 12/24 AND 12/31, THIS BOX MAY BE COLLECTED AS EARLY AS 12 NOON.", "nsi_id": "unitedstatespostalservice-a77078", "operator": "United States Postal Service", "operator:short": "USPS", "operator:type": "public", "operator:wikidata": "Q668687", "ref": "0678700012"}, "type": "Feature"}
{"geometry": {"coordinates": [-73.0747478, 41.673317], "type": "Point"}, "id": "tR9Oc9bIu4K8dn29a08WIxs_Nuw=", "properties": {"@source_uri": "https://tools.usps.com/UspsToolsRestServices/rest/POLocator/findLocations", "@spider": "usps_collection_boxes", "addr:city": "THOMASTON", "addr:country": "US", "addr:postcode": "06787", "addr:state": "CT", "addr:street_address": "150 MAIN ST", "amenity": "post_box", "collection_times": "Mo-Fr 17:00; Sa 15:30", "indoor": "yes", "note": "ON 12/24 AND 12/31, THIS BOX MAY BE COLLECTED AS EARLY AS 12 NOON.", "nsi_id": "unitedstatespostalservice-a77078", "operator": "United States Postal Service", "operator:short": "USPS", "operator:type": "public", "operator:wikidata": "Q668687", "ref": "0678700013"}, "type": "Feature"}
{"geometry": {"coordinates": [-73.074551583, 41.673150743], "type": "Point"}, "id": "inxWs7xQ7T2to-KOMe23iKj6mZQ=", "properties": {"@source_uri": "https://tools.usps.com/UspsToolsRestServices/rest/POLocator/findLocations", "@spider": "usps_collection_boxes", "addr:city": "THOMASTON", "addr:country": "US", "addr:postcode": "06787", "addr:state": "CT", "addr:street_address": "150 MAIN ST", "amenity": "post_box", "collection_times": "Mo-Fr 16:30; Sa 15:00", "indoor": "yes", "note": "ON 12/24 AND 12/31, THIS BOX MAY BE COLLECTED AS EARLY AS 12 NOON.", "nsi_id": "unitedstatespostalservice-a77078", "operator": "United States Postal Service", "operator:short": "USPS", "operator:type": "public", "operator:wikidata": "Q668687", "ref": "0678700015"}, "type": "Feature"}
{"geometry": {"coordinates": [-73.0901856, 41.800987], "type": "Point"}, "id": "oJG96ui4N8xVf8Z0KLzBOPsJOv0=", "properties": {"@source_uri": "https://tools.usps.com/UspsToolsRestServices/rest/POLocator/findLocations", "@spider": "usps_collection_boxes", "addr:city": "TORRINGTON", "addr:country": "US", "addr:postcode": "06790", "addr:state": "CT", "addr:street_address": "5 CIRCLE CIR", "amenity": "post_box", "collection_times": "Mo-Sa 13:30", "note": "ON 12/24 AND 12/31, THIS BOX MAY BE COLLECTED AS EARLY AS 12 NOON.", "nsi_id": "unitedstatespostalservice-a77078", "operator": "United States Postal Service", "operator:short": "USPS", "operator:type": "public", "operator:wikidata": "Q668687", "ref": "0679000006"}, "type": "Feature"}
{"geometry": {"coordinates": [-73.117648, 41.809165], "type": "Point"}, "id": "3z3bfQUYc_N2xr-3eoHoq5uI_Vg=", "properties": {"@source_uri": "https://tools.usps.com/UspsToolsRestServices/rest/POLocator/findLocations", "@spider": "usps_collection_boxes", "addr:city": "TORRINGTON", "addr:country": "US", "addr:postcode": "06790", "addr:state": "CT", "addr:street_address": "185 E ELM ST", "amenity": "post_box", "collection_times": "Mo-Fr 17:00; Sa 15:30", "note": "ON 12/24 AND 12/31, THIS BOX MAY BE COLLECTED AS EARLY AS 12 NOON.", "nsi_id": "unitedstatespostalservice-a77078", "operator": "United States Postal Service", "operator:short": "USPS", "operator:type": "public", "operator:wikidata": "Q668687", "ref": "0679000009"}, "type": "Feature"}
{"geometry": {"coordinates": [-73.1173788, 41.802885], "type": "Point"}, "id": "aOv2cjfv37rQjiK_T5Rq5zUMr6s=", "properties": {"@source_uri": "https://tools.usps.com/UspsToolsRestServices/rest/POLocator/findLocations", "@spider": "usps_collection_boxes", "addr:city": "TORRINGTON", "addr:country": "US", "addr:postcode": "06790", "addr:state": "CT", "addr:street_address": "176 E MAIN ST", "amenity": "post_box", "collection_times": "Mo-Sa 13:30", "note": "ON 12/24 AND 12/31, THIS BOX MAY BE COLLECTED AS EARLY AS 12 NOON.", "nsi_id": "unitedstatespostalservice-a77078", "operator": "United States Postal Service", "operator:short": "USPS", "operator:type": "public", "operator:wikidata": "Q668687", "ref": "0679000013"}, "type": "Feature"}
{"geometry": {"coordinates": [-73.0932712, 41.815987], "type": "Point"}, "id": "cyJdBX_xMLBbvC0Xa8DiaBL_xUQ=", "properties": {"@source_uri": "https://tools.usps.com/UspsToolsRestServices/rest/POLocator/findLocations", "@spider": "usps_collection_boxes", "addr:city": "TORRINGTON", "addr:country": "US", "addr:postcode": "06790", "addr:state": "CT", "addr:street_address": "1238 E MAIN ST", "amenity": "post_box", "collection_times": "Mo-Sa 13:00", "note": "ON 12/24 AND 12/31, THIS BOX MAY BE COLLECTED AS EARLY AS 12 NOON.", "nsi_id": "unitedstatespostalservice-a77078", "operator": "United States Postal Service", "operator:short": "USPS", "operator:type": "public", "operator:wikidata": "Q668687", "ref": "0679000016"}, "type": "Feature"}
{"geometry": {"coordinates": [-73.1238552, 41.815198], "type": "Point"}, "id": "UEHaQbfyW5dawXwQ7RJUglUJMwA=", "properties": {"@source_uri": "https://tools.usps.com/UspsToolsRestServices/rest/POLocator/findLocations", "@spider": "usps_collection_boxes", "addr:city": "TORRINGTON", "addr:country": "US", "addr:postcode": "06790", "addr:state": "CT", "addr:street_address": "685 MAIN ST", "amenity": "post_box", "collection_times": "Mo-Fr 15:00; Sa 14:30", "note": "ON 12/24 AND 12/31, THIS BOX MAY BE COLLECTED AS EARLY AS 12 NOON.", "nsi_id": "unitedstatespostalservice-a77078", "operator": "United States Postal Service", "operator:short": "USPS", "operator:type": "public", "operator:wikidata": "Q668687", "ref": "0679000025"}, "type": "Feature"}
{"geometry": {"coordinates": [-73.1212179, 41.805675], "type": "Point"}, "id": "ls1H4wW7Kaf5Y0nPmkxVRpTGGWo=", "properties": {"@source_uri": "https://tools.usps.com/UspsToolsRestServices/rest/POLocator/findLocations", "@spider": "usps_collection_boxes", "addr:city": "TORRINGTON", "addr:country": "US", "addr:postcode": "06790", "addr:state": "CT", "addr:street_address": "258 MAIN ST", "amenity": "post_box", "collection_times": "Mo-Sa 14:15", "note": "ON 12/24 AND 12/31, THIS BOX MAY BE COLLECTED AS EARLY AS 12 NOON.", "nsi_id": "unitedstatespostalservice-a77078", "operator": "United States Postal Service", "operator:short": "USPS", "operator:type": "public", "operator:wikidata": "Q668687", "ref": "0679000035"}, "type": "Feature"}
{"geometry": {"coordinates": [-73.1213863, 41.811558], "type": "Point"}, "id": "rTrViYsuDy0GpTspm6DfZGmybM8=", "properties": {"@source_uri": "https://tools.usps.com/UspsToolsRestServices/rest/POLocator/findLocations", "@spider": "usps_collection_boxes", "addr:city": "TORRINGTON", "addr:country": "US", "addr:postcode": "06790", "addr:state": "CT", "addr:street_address": "551 MAIN ST", "amenity": "post_box", "collection_times": "Mo-Fr 15:30; Sa 15:00", "note": "ON 12/24 AND 12/31, THIS BOX MAY BE COLLECTED AS EARLY AS 12 NOON.", "nsi_id": "unitedstatespostalservice-a77078", "operator": "United States Postal Service", "operator:short": "USPS", "operator:type": "public", "operator:wikidata": "Q668687", "ref": "0679000037"}, "type": "Feature"}
{"geometry": {"coordinates": [-73.1263344, 41.800021], "type": "Point"}, "id": "zIRXYat0rbjs9cFgvbHlwSFvHEI=", "properties": {"@source_uri": "https://tools.usps.com/UspsToolsRestServices/rest/POLocator/findLocations", "@spider": "usps_collection_boxes", "addr:city": "TORRINGTON", "addr:country": "US", "addr:postcode": "06790", "addr:state": "CT", "addr:street_address": "251 HIGH ST", "amenity": "post_box", "collection_times": "Mo-Fr 15:30; Sa 13:15", "note": "ON 12/24 AND 12/31, THIS BOX MAY BE COLLECTED AS EARLY AS 12 NOON.", "nsi_id": "unitedstatespostalservice-a77078", "operator": "United States Postal Service", "operator:short": "USPS", "operator:type": "public", "operator:wikidata": "Q668687", "ref": "0679000038"}, "type": "Feature"}
{"geometry": {"coordinates": [-73.1219965, 41.802888], "type": "Point"}, "id": "iYy6pZb5GkODqYgxPdycDtSLduo=", "properties": {"@source_uri": "https://tools.usps.com/UspsToolsRestServices/rest/POLocator/findLocations", "@spider": "usps_collection_boxes", "addr:city": "TORRINGTON", "addr:country": "US", "addr:postcode": "06790", "addr:state": "CT", "addr:street_address": "19 MASON ST", "amenity": "post_box", "collection_times": "Mo-Fr 15:30; Sa 15:15", "note": "ON 12/24 AND 12/31, THIS BOX MAY BE COLLECTED AS EARLY AS 12 NOON.", "nsi_id": "unitedstatespostalservice-a77078", "operator": "United States Postal Service", "operator:short": "USPS", "operator:type": "public", "operator:wikidata": "Q668687", "ref": "0679000043"}, "type": "Feature"}
{"geometry": {"coordinates": [-73.1217537, 41.799843], "type": "Point"}, "id": "rP1_0QqT7fAVn2y2fwHtWkZ7ZMA=", "properties": {"@source_uri": "https://tools.usps.com/UspsToolsRestServices/rest/POLocator/findLocations", "@spider": "usps_collection_boxes", "addr:city": "TORRINGTON", "addr:country": "US", "addr:postcode": "06790", "addr:state": "CT", "addr:street_address": "221 OAK AVE", "amenity": "post_box", "collection_times": "Mo-Fr 14:00; Sa 13:45", "note": "ON 12/24 AND 12/31, THIS BOX MAY BE COLLECTED AS EARLY AS 12 NOON.", "nsi_id": "unitedstatespostalservice-a77078", "operator": "United States Postal Service", "operator:short": "USPS", "operator:type": "public", "operator:wikidata": "Q668687", "ref": "0679000048"}, "type": "Feature"}
{"geometry": {"coordinates": [-73.1225686, 41.805761], "type": "Point"}, "id": "k1UFKIBmma9un26c4KXbLGI9B5E=", "properties": {"@source_uri": "https://tools.usps.com/UspsToolsRestServices/rest/POLocator/findLocations", "@spider": "usps_collection_boxes", "addr:city": "TORRINGTON", "addr:country": "US", "addr:postcode": "06790", "addr:state": "CT", "addr:street_address": "400 PROSPECT ST", "amenity": "post_box", "collection_times": "Mo-Fr 15:30; Sa 14:45", "note": "ON 12/24 AND 12/31, THIS BOX MAY BE COLLECTED AS EARLY AS 12 NOON.", "nsi_id": "unitedstatespostalservice-a77078", "operator": "United States Postal Service", "operator:short": "USPS", "operator:type": "public", "operator:wikidata": "Q668687", "ref": "0679000049"}, "type": "Feature"}
{"geometry": {"coordinates": [-73.1449995, 41.817862], "type": "Point"}, "id": "kSUiFQ44HQXM_X4B5fGAd_gh1fM=", "properties": {"@source_uri": "https://tools.usps.com/UspsToolsRestServices/rest/POLocator/findLocations", "@spider": "usps_collection_boxes", "addr:city": "TORRINGTON", "addr:country": "US", "addr:postcode": "06790", "addr:state": "CT", "addr:street_address": "835 RIVERSIDE AVE", "amenity": "post_box", "collection_times": "Mo-Fr 15:30; Sa 14:30", "note": "ON 12/24 AND 12/31, THIS BOX MAY BE COLLECTED AS EARLY AS 12 NOON.", "nsi_id": "unitedstatespostalservice-a77078", "operator": "United States Postal Service", "operator:short": "USPS", "operator:type": "public", "operator:wikidata": "Q668687", "ref": "0679000052"}, "type": "Feature"}
{"geometry": {"coordinates": [-73.1107007, 41.825735], "type": "Point"}, "id": "IB2Q818qFh5smkj8emNborrkTV0=", "properties": {"@source_uri": "https://tools.usps.com/UspsToolsRestServices/rest/POLocator/findLocations", "@spider": "usps_collection_boxes", "addr:city": "TORRINGTON", "addr:country": "US", "addr:postcode": "06790", "addr:state": "CT", "addr:street_address": "500 WINSTED RD", "amenity": "post_box", "collection_times": "Mo-Fr 15:00; Sa 14:30", "note": "ON 12/24 AND 12/31, THIS BOX MAY BE COLLECTED AS EARLY AS 12 NOON.", "nsi_id": "unitedstatespostalservice-a77078", "operator": "United States Postal Service", "operator:short": "USPS", "operator:type": "public", "operator:wikidata": "Q668687", "ref": "0679000055"}, "type": "Feature"}
{"geometry": {"coordinates": [-73.0704210201, 41.7701560081], "type": "Point"}, "id": "2XR85EpeI-5wDALvo8BHyFx1iVU=", "properties": {"@source_uri": "https://tools.usps.com/UspsToolsRestServices/rest/POLocator/findLocations", "@spider": "usps_collection_boxes", "addr:city": "TORRINGTON", "addr:country": "US", "addr:postcode": "06790", "addr:state": "CT", "addr:street_address": "122 LITCHFIELD RD STE 2", "amenity": "post_box", "collection_times": "Mo-Fr 17:00; Sa 12:00", "note": "ON 12/24 AND 12/31, THIS BOX MAY BE COLLECTED AS EARLY AS 12 NOON.", "nsi_id": "unitedstatespostalservice-a77078", "operator": "United States Postal Service", "operator:short": "USPS", "operator:type": "public", "operator:wikidata": "Q668687", "ref": "0679000067"}, "type": "Feature"}
{"geometry": {"coordinates": [-73.115658575, 41.824217154], "type": "Point"}, "id": "kKj1Cs6zgjCU_rh6jliU_gm2098=", "properties": {"@source_uri": "https://tools.usps.com/UspsToolsRestServices/rest/POLocator/findLocations", "@spider": "usps_collection_boxes", "addr:city": "TORRINGTON", "addr:country": "US", "addr:postcode": "06790", "addr:state": "CT", "addr:street_address": "1 TORRINGTON OFFICE PLZ", "amenity": "post_box", "collection_times": "Mo-Fr 15:30", "note": "ON 12/24 AND 12/31, THIS BOX MAY BE COLLECTED AS EARLY AS 12 NOON.", "nsi_id": "unitedstatespostalservice-a77078", "operator": "United States Postal Service", "operator:short": "USPS", "operator:type": "public", "operator:wikidata": "Q668687", "ref": "0679000071"}, "type": "Feature"}
{"geometry": {"coordinates": [-73.0785847, 41.819318], "type": "Point"}, "id": "5x2ki3MOsgcFOUgHrK8sNr7Mu88=", "properties": {"@source_uri": "https://tools.usps.com/UspsToolsRestServices/rest/POLocator/findLocations", "@spider": "usps_collection_boxes", "addr:city": "TORRINGTON", "addr:country": "US", "addr:postcode": "06790", "addr:state": "CT", "addr:street_address": "990 TORRINGFORD ST", "amenity": "post_box", "collection_times": "Mo-Sa 13:15", "note": "ON 12/24 AND 12/31, THIS BOX MAY BE COLLECTED AS EARLY AS 12 NOON.", "nsi_id": "unitedstatespostalservice-a77078", "operator": "United States Postal Service", "operator:short": "USPS", "operator:type": "public", "operator:wikidata": "Q668687", "ref": "0679000074"}, "type": "Feature"}
{"geometry": {"coordinates": [-73.117648, 41.809165], "type": "Point"}, "id": "_NezbILgJpRbNq1VATjUcnQ0O1o=", "properties": {"@source_uri": "https://tools.usps.com/UspsToolsRestServices/rest/POLocator/findLocations", "@spider": "usps_collection_boxes", "addr:city": "TORRINGTON", "addr:country": "US", "addr:postcode": "06790", "addr:state": "CT", "addr:street_address": "185 E ELM ST", "amenity": "post_box", "collection_times": "Mo-Fr 17:00; Sa 15:30", "indoor": "yes", "note": "ON 12/24 AND 12/31, THIS BOX MAY BE COLLECTED AS EARLY AS 12 NOON.", "nsi_id": "unitedstatespostalservice-a77078", "operator": "United States Postal Service", "operator:short": "USPS", "operator:type": "public", "operator:wikidata": "Q668687", "ref": "0679000075"}, "type": "Feature"}
{"geometry": {"coordinates": [-73.1217537, 41.799843], "type": "Point"}, "id": "Nd-dl_19-7_O-kEnHD43Las4SpY=", "properties": {"@source_uri": "https://tools.usps.com/UspsToolsRestServices/rest/POLocator/findLocations", "@spider": "usps_collection_boxes", "addr:city": "TORRINGTON", "addr:country": "US", "addr:postcode": "06790", "addr:state": "CT", "addr:street_address": "1 DAYCOETON PL", "amenity": "post_box", "collection_times": "Mo-Fr 15:30; Sa 13:15", "note": "ON 12/24 AND 12/31, THIS BOX MAY BE COLLECTED AS EARLY AS 12 NOON.", "nsi_id": "unitedstatespostalservice-a77078", "operator": "United States Postal Service", "operator:short": "USPS", "operator:type": "public", "operator:wikidata": "Q668687", "ref": "0679000078"}, "type": "Feature"}
{"geometry": {"coordinates": [-73.1212833, 41.8032], "type": "Point"}, "id": "nSjSbl1kaniguWt0SkuX2-dT9Ig=", "properties": {"@source_uri": "https://tools.usps.com/UspsToolsRestServices/rest/POLocator/findLocations", "@spider": "usps_collection_boxes", "addr:city": "TORRINGTON", "addr:country": "US", "addr:postcode": "06790", "addr:state": "CT", "addr:street_address": "140 MAIN ST", "amenity": "post_box", "collection_times": "Mo-Fr 15:30; Sa 15:00", "note": "ON 12/24 AND 12/31, THIS BOX MAY BE COLLECTED AS EARLY AS 12 NOON.", "nsi_id": "unitedstatespostalservice-a77078", "operator": "United States Postal Service", "operator:short": "USPS", "operator:type": "public", "operator:wikidata": "Q668687", "ref": "0679000079"}, "type": "Feature"}
{"geometry": {"coordinates": [-73.122657974, 41.804986771], "type": "Point"}, "id": "RDRBmTDPhFWqOJam8rJ-j2R6WIs=", "properties": {"@source_uri": "https://tools.usps.com/UspsToolsRestServices/rest/POLocator/findLocations", "@spider": "usps_collection_boxes", "addr:city": "TORRINGTON", "addr:country": "US", "addr:postcode": "06790", "addr:state": "CT", "addr:street_address": "360 PROSPECT ST", "amenity": "post_box", "collection_times": "Mo-Fr 15:30", "note": "ON 12/24 AND 12/31, THIS BOX MAY BE COLLECTED AS EARLY AS 12 NOON.", "nsi_id": "unitedstatespostalservice-a77078", "operator": "United States Postal Service", "operator:short": "USPS", "operator:type": "public", "operator:wikidata": "Q668687", "ref": "0679000081"}, "type": "Feature"}
{"geometry": {"coordinates": [-73.1200343, 41.79951], "type": "Point"}, "id": "3VynBO-JTFaHANVAgeX_DIReb8Y=", "properties": {"@source_uri": "https://tools.usps.com/UspsToolsRestServices/rest/POLocator/findLocations", "@spider": "usps_collection_boxes", "addr:city": "TORRINGTON", "addr:country": "US", "addr:postcode": "06790", "addr:state": "CT", "addr:street_address": "15 S MAIN ST", "amenity": "post_box", "collection_times": "Mo-Fr 15:30; Sa 15:00", "note": "ON 12/24 AND 12/31, THIS BOX MAY BE COLLECTED AS EARLY AS 12 NOON.", "nsi_id": "unitedstatespostalservice-a77078", "operator": "United States Postal Service", "operator:short": "USPS", "operator:type": "public", "operator:wikidata": "Q668687", "ref": "0679000083"}, "type": "Feature"}
{"geometry": {"coordinates": [-73.117598888, 41.809200447], "type": "Point"}, "id": "LxyErHnR0F2rS0mZBAYo6T0YgO4=", "properties": {"@source_uri": "https://tools.usps.com/UspsToolsRestServices/rest/POLocator/findLocations", "@spider": "usps_collection_boxes", "addr:city": "TORRINGTON", "addr:country": "US", "addr:postcode": "06790", "addr:state": "CT", "addr:street_address": "185 E ELM ST", "amenity": "post_box", "collection_times": "Mo-Fr 17:45; Sa 17:00", "indoor": "yes", "note": "ON 12/24 AND 12/31, THIS BOX MAY BE COLLECTED AS EARLY AS 12 NOON.", "nsi_id": "unitedstatespostalservice-a77078", "operator": "United States Postal Service", "operator:short": "USPS", "operator:type": "public", "operator:wikidata": "Q668687", "ref": "0679000085"}, "type": "Feature"}
{"geometry": {"coordinates": [-73.070383572, 41.769627439], "type": "Point"}, "id": "6m1Fzpob0lvrGm9Hos26NkfW-wU=", "properties": {"@source_uri": "https://tools.usps.com/UspsToolsRestServices/rest/POLocator/findLocations", "@spider": "usps_collection_boxes", "addr:city": "TORRINGTON", "addr:country": "US", "addr:postcode": "06791", "addr:state": "CT", "addr:street_address": "122 LITCHFIELD RD STE 2", "amenity": "post_box", "collection_times": "Mo-Fr 16:30; Sa 11:30", "indoor": "yes", "note": "ON 12/24 AND 12/31, THIS BOX MAY BE COLLECTED AS EARLY AS 12 NOON.", "nsi_id": "unitedstatespostalservice-a77078", "operator": "United States Postal Service", "operator:short": "USPS", "operator:type": "public", "operator:wikidata": "Q668687", "ref": "0679100002"}, "type": "Feature"}
{"geometry": {"coordinates": [-73.312234757, 41.630204033], "type": "Point"}, "id": "R-0DzXhV_9m7nywj98jx9mxcyY0=", "properties": {"@source_uri": "https://tools.usps.com/UspsToolsRestServices/rest/POLocator/findLocations", "@spider": "usps_collection_boxes", "addr:city": "WASHINGTON GREEN", "addr:country": "US", "addr:postcode": "06793", "addr:state": "CT", "addr:street_address": "5 KIRBY RD", "amenity": "post_box", "collection_times": "Mo-Fr 13:00; Sa 11:30", "indoor": "yes", "note": "ON 12/24 AND 12/31, THIS BOX MAY BE COLLECTED AS EARLY AS 12 NOON.", "nsi_id": "unitedstatespostalservice-a77078", "operator": "United States Postal Service", "operator:short": "USPS", "operator:type": "public", "operator:wikidata": "Q668687", "ref": "0679300001"}, "type": "Feature"}
{"geometry": {"coordinates": [-73.3225309619, 41.6509910242], "type": "Point"}, "id": "qdLfvHI6q_XC2DGT9XbOxJp5k1Q=", "properties": {"@source_uri": "https://tools.usps.com/UspsToolsRestServices/rest/POLocator/findLocations", "@spider": "usps_collection_boxes", "addr:city": "WASHINGTON DT", "addr:country": "US", "addr:postcode": "06794", "addr:state": "CT", "addr:street_address": "253 NEW MILFORD", "amenity": "post_box", "collection_times": "Mo-Fr 13:00; Sa 12:00", "note": "ON 12/24 AND 12/31, THIS BOX MAY BE COLLECTED AS EARLY AS 12 NOON.", "nsi_id": "unitedstatespostalservice-a77078", "operator": "United States Postal Service", "operator:short": "USPS", "operator:type": "public", "operator:wikidata": "Q668687", "ref": "0679400003"}, "type": "Feature"}
{"geometry": {"coordinates": [-73.3200706117, 41.6398294005], "type": "Point"}, "id": "qC4vFAXqCc2pP4amu--KP-bGe-g=", "properties": {"@source_uri": "https://tools.usps.com/UspsToolsRestServices/rest/POLocator/findLocations", "@spider": "usps_collection_boxes", "addr:city": "WASHINGTON DT", "addr:country": "US", "addr:postcode": "06794", "addr:state": "CT", "addr:street_address": "9 BRYAN HALL PLZ", "amenity": "post_box", "collection_times": "Mo-Fr 13:00; Sa 12:00", "note": "ON 12/24 AND 12/31, THIS BOX MAY BE COLLECTED AS EARLY AS 12 NOON.", "nsi_id": "unitedstatespostalservice-a77078", "operator": "United States Postal Service", "operator:short": "USPS", "operator:type": "public", "operator:wikidata": "Q668687", "ref": "0679400006"}, "type": "Feature"}
{"geometry": {"coordinates": [-73.3225309619, 41.6509910242], "type": "Point"}, "id": "YVsNfV-OdCw4c0Bxnk4oc3v0IGk=", "properties": {"@source_uri": "https://tools.usps.com/UspsToolsRestServices/rest/POLocator/findLocations", "@spider": "usps_collection_boxes", "addr:city": "WASHINGTON DT", "addr:country": "US", "addr:postcode": "06794", "addr:state": "CT", "addr:street_address": "5 KIRBY", "amenity": "post_box", "collection_times": "Mo-Fr 13:00; Sa 12:00", "note": "ON 12/24 AND 12/31, THIS BOX MAY BE COLLECTED AS EARLY AS 12 NOON.", "nsi_id": "unitedstatespostalservice-a77078", "operator": "United States Postal Service", "operator:short": "USPS", "operator:type": "public", "operator:wikidata": "Q668687", "ref": "0679400008"}, "type": "Feature"}
{"geometry": {"coordinates": [-73.319768, 41.640528], "type": "Point"}, "id": "JjnM5PxYBdQROhGXdAblV6vxZO8=", "properties": {"@source_uri": "https://tools.usps.com/UspsToolsRestServices/rest/POLocator/findLocations", "@spider": "usps_collection_boxes", "addr:city": "WASHINGTON DT", "addr:country": "US", "addr:postcode": "06794", "addr:state": "CT", "addr:street_address": "2 BRYAN HALL PLZ", "amenity": "post_box", "collection_times": "Mo-Sa 10:00", "nsi_id": "unitedstatespostalservice-a77078", "operator": "United States Postal Service", "operator:short": "USPS", "operator:type": "public", "operator:wikidata": "Q668687", "ref": "0679400009"}, "type": "Feature"}
{"geometry": {"coordinates": [-73.3225309619, 41.6509910242], "type": "Point"}, "id": "0IiFKHdzawFG5o2mrHvK912TXGI=", "properties": {"@source_uri": "https://tools.usps.com/UspsToolsRestServices/rest/POLocator/findLocations", "@spider": "usps_collection_boxes", "addr:city": "WASHINGTON DT", "addr:country": "US", "addr:postcode": "06794", "addr:state": "CT", "addr:street_address": "253 NEW MILFORD", "amenity": "post_box", "collection_times": "Mo-Fr 13:00; Sa 12:00", "indoor": "yes", "note": "ON 12/24 AND 12/31, THIS BOX MAY BE COLLECTED AS EARLY AS 12 NOON.", "nsi_id": "unitedstatespostalservice-a77078", "operator": "United States Postal Service", "operator:short": "USPS", "operator:type": "public", "operator:wikidata": "Q668687", "ref": "0679400010"}, "type": "Feature"}
{"geometry": {"coordinates": [-73.3225309619, 41.6509910242], "type": "Point"}, "id": "1jjEWs3Jy8prCj0AXDMHHof88RA=", "properties": {"@source_uri": "https://tools.usps.com/UspsToolsRestServices/rest/POLocator/findLocations", "@spider": "usps_collection_boxes", "addr:city": "WASHINGTON DT", "addr:country": "US", "addr:postcode": "06794", "addr:state": "CT", "addr:street_address": "5 KIRBY RD", "amenity": "post_box", "collection_times": "Mo-Fr 13:00; Sa 12:00", "indoor": "yes", "note": "ON 12/24 AND 12/31, THIS BOX MAY BE COLLECTED AS EARLY AS 12 NOON.", "nsi_id": "unitedstatespostalservice-a77078", "operator": "United States Postal Service", "operator:short": "USPS", "operator:type": "public", "operator:wikidata": "Q668687", "ref": "0679400011"}, "type": "Feature"}
{"geometry": {"coordinates": [-73.320070612, 41.639829401], "type": "Point"}, "id": "9BEincaVaWkYNM4PW400Si0Zw1o=", "properties": {"@source_uri": "https://tools.usps.com/UspsToolsRestServices/rest/POLocator/findLocations", "@spider": "usps_collection_boxes", "addr:city": "WASHINGTON DT", "addr:country": "US", "addr:postcode": "06794", "addr:state": "CT", "addr:street_address": "9 BRYAN HALL PLZ", "amenity": "post_box", "collection_times": "Mo-Fr 13:00; Sa 11:30", "indoor": "yes", "note": "ON 12/24 AND 12/31, THIS BOX MAY BE COLLECTED AS EARLY AS 12 NOON.", "nsi_id": "unitedstatespostalservice-a77078", "operator": "United States Postal Service", "operator:short": "USPS", "operator:type": "public", "operator:wikidata": "Q668687", "ref": "0679400013"}, "type": "Feature"}
{"geometry": {"coordinates": [-73.3560549903, 41.6762200192], "type": "Point"}, "id": "P3qnJu0Jg473FKOwzJsbR2Vs8CU=", "properties": {"@source_uri": "https://tools.usps.com/UspsToolsRestServices/rest/POLocator/findLocations", "@spider": "usps_collection_boxes", "addr:city": "WASHINGTON DT", "addr:country": "US", "addr:postcode": "06794", "addr:state": "CT", "addr:street_address": "11 E SHORE RD", "amenity": "post_box", "collection_times": "Mo-Sa 10:00", "nsi_id": "unitedstatespostalservice-a77078", "operator": "United States Postal Service", "operator:short": "USPS", "operator:type": "public", "operator:wikidata": "Q668687", "ref": "0679400014"}, "type": "Feature"}
{"geometry": {"coordinates": [-73.1190407, 41.605289], "type": "Point"}, "id": "yyuFouzsb_k8cpG0sgBXCEDfhaA=", "properties": {"@source_uri": "https://tools.usps.com/UspsToolsRestServices/rest/POLocator/findLocations", "@spider": "usps_collection_boxes", "addr:city": "WATERTOWN", "addr:country": "US", "addr:postcode": "06795", "addr:state": "CT", "addr:street_address": "37 DEFOREST ST", "amenity": "post_box", "collection_times": "Mo-Sa 10:00", "nsi_id": "unitedstatespostalservice-a77078", "operator": "United States Postal Service", "operator:short": "USPS", "operator:type": "public", "operator:wikidata": "Q668687", "ref": "0679500002"}, "type": "Feature"}
{"geometry": {"coordinates": [-73.1159223, 41.605447], "type": "Point"}, "id": "kDVhJT7mc9Ft44yJjBvoVr0ocrc=", "properties": {"@source_uri": "https://tools.usps.com/UspsToolsRestServices/rest/POLocator/findLocations", "@spider": "usps_collection_boxes", "addr:city": "WATERTOWN", "addr:country": "US", "addr:postcode": "06795", "addr:state": "CT", "addr:street_address": "100 STEELE BROOK RD", "amenity": "post_box", "collection_times": "Mo-Sa 10:00", "nsi_id": "unitedstatespostalservice-a77078", "operator": "United States Postal Service", "operator:short": "USPS", "operator:type": "public", "operator:wikidata": "Q668687", "ref": "0679500005"}, "type": "Feature"}
{"geometry": {"coordinates": [-73.1132773, 41.603804], "type": "Point"}, "id": "kUqo93O7zH-Jo8kU_yGGhmDeheE=", "properties": {"@source_uri": "https://tools.usps.com/UspsToolsRestServices/rest/POLocator/findLocations", "@spider": "usps_collection_boxes", "addr:city": "WATERTOWN", "addr:country": "US", "addr:postcode": "06795", "addr:state": "CT", "addr:street_address": "27 SIEMON COMPANY DR", "amenity": "post_box", "collection_times": "Mo-Sa 11:00", "nsi_id": "unitedstatespostalservice-a77078", "operator": "United States Postal Service", "operator:short": "USPS", "operator:type": "public", "operator:wikidata": "Q668687", "ref": "0679500008"}, "type": "Feature"}
{"geometry": {"coordinates": [-73.0993608, 41.571055], "type": "Point"}, "id": "GDLxRiCowGs_3pwX2f5L9FEulig=", "properties": {"@source_uri": "https://tools.usps.com/UspsToolsRestServices/rest/POLocator/findLocations", "@spider": "usps_collection_boxes", "addr:city": "WATERTOWN", "addr:country": "US", "addr:postcode": "06795", "addr:state": "CT", "addr:street_address": "764 STRAITS TPKE", "amenity": "post_box", "collection_times": "Mo-Sa 11:00", "nsi_id": "unitedstatespostalservice-a77078", "operator": "United States Postal Service", "operator:short": "USPS", "operator:type": "public", "operator:wikidata": "Q668687", "ref": "0679500010"}, "type": "Feature"}
{"geometry": {"coordinates": [-73.1089941, 41.594409], "type": "Point"}, "id": "5ALOP2uDRw6T-ORdo4ZMUO9lwT0=", "properties": {"@source_uri": "https://tools.usps.com/UspsToolsRestServices/rest/POLocator/findLocations", "@spider": "usps_collection_boxes", "addr:city": "WATERTOWN", "addr:country": "US", "addr:postcode": "06795", "addr:state": "CT", "addr:street_address": "1161 MAIN ST", "amenity": "post_box", "collection_times": "Mo-Sa 10:00", "nsi_id": "unitedstatespostalservice-a77078", "operator": "United States Postal Service", "operator:short": "USPS", "operator:type": "public", "operator:wikidata": "Q668687", "ref": "0679500014"}, "type": "Feature"}
{"geometry": {"coordinates": [-73.1134179, 41.5972], "type": "Point"}, "id": "87svkNOOzeuEeo7BjURZzyAB5AU=", "properties": {"@source_uri": "https://tools.usps.com/UspsToolsRestServices/rest/POLocator/findLocations", "@spider": "usps_collection_boxes", "addr:city": "WATERTOWN", "addr:country": "US", "addr:postcode": "06795", "addr:state": "CT", "addr:street_address": "975 MAIN ST", "amenity": "post_box", "collection_times": "Mo-Sa 11:00", "nsi_id": "unitedstatespostalservice-a77078", "operator": "United States Postal Service", "operator:short": "USPS", "operator:type": "public", "operator:wikidata": "Q668687", "ref": "0679500015"}, "type": "Feature"}
{"geometry": {"coordinates": [-73.1159429, 41.601595], "type": "Point"}, "id": "sX1NFjykRONHrgt_g7JTw0PVtbQ=", "properties": {"@source_uri": "https://tools.usps.com/UspsToolsRestServices/rest/POLocator/findLocations", "@spider": "usps_collection_boxes", "addr:city": "WATERTOWN", "addr:country": "US", "addr:postcode": "06795", "addr:state": "CT", "addr:street_address": "656 MAIN ST", "amenity": "post_box", "collection_times": "Mo-Sa 11:00", "nsi_id": "unitedstatespostalservice-a77078", "operator": "United States Postal Service", "operator:short": "USPS", "operator:type": "public", "operator:wikidata": "Q668687", "ref": "0679500016"}, "type": "Feature"}
{"geometry": {"coordinates": [-73.1171094, 41.604209], "type": "Point"}, "id": "C_Xvml9XCeBINvv49id2VEpmUq4=", "properties": {"@source_uri": "https://tools.usps.com/UspsToolsRestServices/rest/POLocator/findLocations", "@spider": "usps_collection_boxes", "addr:city": "WATERTOWN", "addr:country": "US", "addr:postcode": "06795", "addr:state": "CT", "addr:street_address": "449 MAIN ST", "amenity": "post_box", "collection_times": "Mo-Sa 10:00", "nsi_id": "unitedstatespostalservice-a77078", "operator": "United States Postal Service", "operator:short": "USPS", "operator:type": "public", "operator:wikidata": "Q668687", "ref": "0679500017"}, "type": "Feature"}
{"geometry": {"coordinates": [-73.11596, 41.600341], "type": "Point"}, "id": "9IMk1_jGV8wwcFpzD2UAHvN3mLA=", "properties": {"@source_uri": "https://tools.usps.com/UspsToolsRestServices/rest/POLocator/findLocations", "@spider": "usps_collection_boxes", "addr:city": "WATERTOWN", "addr:country": "US", "addr:postcode": "06795", "addr:state": "CT", "addr:street_address": "30 WOODRUFF AVE", "amenity": "post_box", "collection_times": "Mo-Fr 17:00; Sa 16:00", "note": "ON 12/24 AND 12/31, THIS BOX MAY BE COLLECTED AS EARLY AS 12 NOON.", "nsi_id": "unitedstatespostalservice-a77078", "operator": "United States Postal Service", "operator:short": "USPS", "operator:type": "public", "operator:wikidata": "Q668687", "ref": "0679500019"}, "type": "Feature"}
{"geometry": {"coordinates": [-73.0870893, 41.588784], "type": "Point"}, "id": "8jm_YA0AovQEHETHB-wU9c4LPyQ=", "properties": {"@source_uri": "https://tools.usps.com/UspsToolsRestServices/rest/POLocator/findLocations", "@spider": "usps_collection_boxes", "addr:city": "WATERTOWN", "addr:country": "US", "addr:postcode": "06795", "addr:state": "CT", "addr:street_address": "322 MAIN ST", "amenity": "post_box", "collection_times": "Mo-Fr 17:00; Sa 12:00", "note": "ON 12/24 AND 12/31, THIS BOX MAY BE COLLECTED AS EARLY AS 12 NOON.", "nsi_id": "unitedstatespostalservice-a77078", "operator": "United States Postal Service", "operator:short": "USPS", "operator:type": "public", "operator:wikidata": "Q668687", "ref": "0679500021"}, "type": "Feature"}
{"geometry": {"coordinates": [-73.090036075, 41.609007995], "type": "Point"}, "id": "Tcmldml8QJlEejM6yjjUZQFshmY=", "properties": {"@source_uri": "https://tools.usps.com/UspsToolsRestServices/rest/POLocator/findLocations", "@spider": "usps_collection_boxes", "addr:city": "WATERTOWN", "addr:country": "US", "addr:postcode": "06795", "addr:state": "CT", "addr:street_address": "777 ECHO LAKE RD", "amenity": "post_box", "collection_times": "Mo-Sa 10:00", "nsi_id": "unitedstatespostalservice-a77078", "operator": "United States Postal Service", "operator:short": "USPS", "operator:type": "public", "operator:wikidata": "Q668687", "ref": "0679500023"}, "type": "Feature"}
{"geometry": {"coordinates": [-73.0832763, 41.593511], "type": "Point"}, "id": "Jz5HRuRGgslR7lgH0FgYD6-Vppg=", "properties": {"@source_uri": "https://tools.usps.com/UspsToolsRestServices/rest/POLocator/findLocations", "@spider": "usps_collection_boxes", "addr:city": "WATERTOWN", "addr:country": "US", "addr:postcode": "06795", "addr:state": "CT", "addr:street_address": "237 BUCKINGHAM", "amenity": "post_box", "collection_times": "Mo-Sa 10:00", "nsi_id": "unitedstatespostalservice-a77078", "operator": "United States Postal Service", "operator:short": "USPS", "operator:type": "public", "operator:wikidata": "Q668687", "ref": "0679500024"}, "type": "Feature"}
{"geometry": {"coordinates": [-73.0847887, 41.587312], "type": "Point"}, "id": "0gOkEuZ5uq3j151MKXVYfv0iJik=", "properties": {"@source_uri": "https://tools.usps.com/UspsToolsRestServices/rest/POLocator/findLocations", "@spider": "usps_collection_boxes", "addr:city": "WATERTOWN", "addr:country": "US", "addr:postcode": "06795", "addr:state": "CT", "addr:street_address": "151 MAIN ST", "amenity": "post_box", "collection_times": "Mo-Sa 10:00", "nsi_id": "unitedstatespostalservice-a77078", "operator": "United States Postal Service", "operator:short": "USPS", "operator:type": "public", "operator:wikidata": "Q668687", "ref": "0679500027"}, "type": "Feature"}
{"geometry": {"coordinates": [-73.1228056, 41.602646], "type": "Point"}, "id": "RFjK1Ua9eCmvM0I7xO48lGQTCR8=", "properties": {"@source_uri": "https://tools.usps.com/UspsToolsRestServices/rest/POLocator/findLocations", "@spider": "usps_collection_boxes", "addr:city": "WATERTOWN", "addr:country": "US", "addr:postcode": "06795", "addr:state": "CT", "addr:street_address": "2 MIDDLEBURY RD", "amenity": "post_box", "collection_times": "Mo-Sa 10:00", "nsi_id": "unitedstatespostalservice-a77078", "operator": "United States Postal Service", "operator:short": "USPS", "operator:type": "public", "operator:wikidata": "Q668687", "ref": "0679500033"}, "type": "Feature"}
{"geometry": {"coordinates": [-73.1173679, 41.60532], "type": "Point"}, "id": "nhY40MbZlCUnhkKI1suv671DstM=", "properties": {"@source_uri": "https://tools.usps.com/UspsToolsRestServices/rest/POLocator/findLocations", "@spider": "usps_collection_boxes", "addr:city": "WATERTOWN", "addr:country": "US", "addr:postcode": "06795", "addr:state": "CT", "addr:street_address": "365 MAIN ST", "amenity": "post_box", "collection_times": "Mo-Sa 10:00", "nsi_id": "unitedstatespostalservice-a77078", "operator": "United States Postal Service", "operator:short": "USPS", "operator:type": "public", "operator:wikidata": "Q668687", "ref": "0679500036"}, "type": "Feature"}
{"geometry": {"coordinates": [-73.115768, 41.600328], "type": "Point"}, "id": "S8HhwuhFSjN7pNI62T5xkLUWVKc=", "properties": {"@source_uri": "https://tools.usps.com/UspsToolsRestServices/rest/POLocator/findLocations", "@spider": "usps_collection_boxes", "addr:city": "WATERTOWN", "addr:country": "US", "addr:postcode": "06795", "addr:state": "CT", "addr:street_address": "30 WOODRUFF AVE", "amenity": "post_box", "collection_times": "Mo-Fr 17:30; Sa 16:00", "indoor": "yes", "note": "ON 12/24 AND 12/31, THIS BOX MAY BE COLLECTED AS EARLY AS 12 NOON.", "nsi_id": "unitedstatespostalservice-a77078", "operator": "United States Postal Service", "operator:short": "USPS", "operator:type": "public", "operator:wikidata": "Q668687", "ref": "0679500037"}, "type": "Feature"}
{"geometry": {"coordinates": [-73.118311, 41.606086], "type": "Point"}, "id": "nNc_Gklj21SBwpQNZ-rF7L8iNFc=", "properties": {"@source_uri": "https://tools.usps.com/UspsToolsRestServices/rest/POLocator/findLocations", "@spider": "usps_collection_boxes", "addr:city": "WATERTOWN", "addr:country": "US", "addr:postcode": "06795", "addr:state": "CT", "addr:street_address": "322 MAIN ST", "amenity": "post_box", "collection_times": "Mo-Fr 17:00; Sa 12:00", "indoor": "yes", "note": "ON 12/24 AND 12/31, THIS BOX MAY BE COLLECTED AS EARLY AS 12 NOON.", "nsi_id": "unitedstatespostalservice-a77078", "operator": "United States Postal Service", "operator:short": "USPS", "operator:type": "public", "operator:wikidata": "Q668687", "ref": "0679500038"}, "type": "Feature"}
{"geometry": {"coordinates": [-73.1141022, 41.601685], "type": "Point"}, "id": "jUpeaB3WP9PMdWfMJo-EInMJXdA=", "properties": {"@source_uri": "https://tools.usps.com/UspsToolsRestServices/rest/POLocator/findLocations", "@spider": "usps_collection_boxes", "addr:city": "WATERTOWN", "addr:country": "US", "addr:postcode": "06795", "addr:state": "CT", "addr:street_address": "51 DEPOT ST", "amenity": "post_box", "collection_times": "Mo-Sa 11:00", "nsi_id": "unitedstatespostalservice-a77078", "operator": "United States Postal Service", "operator:short": "USPS", "operator:type": "public", "operator:wikidata": "Q668687", "ref": "0679500039"}, "type": "Feature"}
{"geometry": {"coordinates": [-73.115971044, 41.600288954], "type": "Point"}, "id": "3cN34duuoeIlmF8Iin5pRJp2izQ=", "properties": {"@source_uri": "https://tools.usps.com/UspsToolsRestServices/rest/POLocator/findLocations", "@spider": "usps_collection_boxes", "addr:city": "WATERTOWN", "addr:country": "US", "addr:postcode": "06795", "addr:state": "CT", "addr:street_address": "30 WOODRUFF AVE", "amenity": "post_box", "collection_times": "Mo-Fr 17:45; Sa 17:00", "indoor": "yes", "note": "ON 12/24 AND 12/31, THIS BOX MAY BE COLLECTED AS EARLY AS 12 NOON.", "nsi_id": "unitedstatespostalservice-a77078", "operator": "United States Postal Service", "operator:short": "USPS", "operator:type": "public", "operator:wikidata": "Q668687", "ref": "0679500042"}, "type": "Feature"}
{"geometry": {"coordinates": [-73.36521, 41.871915], "type": "Point"}, "id": "VvUWSL11z8UeczvAT5KJ8hMyI28=", "properties": {"@source_uri": "https://tools.usps.com/UspsToolsRestServices/rest/POLocator/findLocations", "@spider": "usps_collection_boxes", "addr:city": "WEST CORNWALL", "addr:country": "US", "addr:postcode": "06796", "addr:state": "CT", "addr:street_address": "408 SHARON GOSHEN TPKE", "amenity": "post_box", "collection_times": "Mo-Fr 16:45; Sa 12:15", "note": "ON 12/24 AND 12/31, THIS BOX MAY BE COLLECTED AS EARLY AS 12 NOON.", "nsi_id": "unitedstatespostalservice-a77078", "operator": "United States Postal Service", "operator:short": "USPS", "operator:type": "public", "operator:wikidata": "Q668687", "ref": "0679600001"}, "type": "Feature"}
{"geometry": {"coordinates": [-73.3294146653, 41.8711587113], "type": "Point"}, "id": "ekom9sTGurnuLIHNfLcJb-HmWjs=", "properties": {"@source_uri": "https://tools.usps.com/UspsToolsRestServices/rest/POLocator/findLocations", "@spider": "usps_collection_boxes", "addr:city": "WEST CORNWALL", "addr:country": "US", "addr:postcode": "06796", "addr:state": "CT", "addr:street_address": "408 GOSHEN/SHARON TPKE", "amenity": "post_box", "collection_times": "Mo-Fr 16:30; Sa 12:00", "indoor": "yes", "note": "ON 12/24 AND 12/31, THIS BOX MAY BE COLLECTED AS EARLY AS 12 NOON.", "nsi_id": "unitedstatespostalservice-a77078", "operator": "United States Postal Service", "operator:short": "USPS", "operator:type": "public", "operator:wikidata": "Q668687", "ref": "0679600002"}, "type": "Feature"}
{"geometry": {"coordinates": [-73.360984846, 41.871661354], "type": "Point"}, "id": "M4gQyIGjhswy8pFnaBeqxlM6FoY=", "properties": {"@source_uri": "https://tools.usps.com/UspsToolsRestServices/rest/POLocator/findLocations", "@spider": "usps_collection_boxes", "addr:city": "WEST CORNWALL", "addr:country": "US", "addr:postcode": "06796", "addr:state": "CT", "addr:street_address": "408 SHARON GOSHEN TPKE", "amenity": "post_box", "collection_times": "Mo-Fr 16:00; Sa 11:45", "indoor": "yes", "note": "ON 12/24 AND 12/31, THIS BOX MAY BE COLLECTED AS EARLY AS 12 NOON.", "nsi_id": "unitedstatespostalservice-a77078", "operator": "United States Postal Service", "operator:short": "USPS", "operator:type": "public", "operator:wikidata": "Q668687", "ref": "0679600004"}, "type": "Feature"}
{"geometry": {"coordinates": [-73.209347, 41.5445], "type": "Point"}, "id": "WFxAzvpLLfM0C4Mph80PF9j97t8=", "properties": {"@source_uri": "https://tools.usps.com/UspsToolsRestServices/rest/POLocator/findLocations", "@spider": "usps_collection_boxes", "addr:city": "WOODBURY", "addr:country": "US", "addr:postcode": "06798", "addr:state": "CT", "addr:street_address": "1 WASHINGTON AVE", "amenity": "post_box", "collection_times": "Mo-Fr 17:00; Sa 14:00", "note": "ON 12/24 AND 12/31, THIS BOX MAY BE COLLECTED AS EARLY AS 12 NOON.", "nsi_id": "unitedstatespostalservice-a77078", "operator": "United States Postal Service", "operator:short": "USPS", "operator:type": "public", "operator:wikidata": "Q668687", "ref": "0679800003"}, "type": "Feature"}
{"geometry": {"coordinates": [-73.2048465, 41.527416], "type": "Point"}, "id": "rLQX8VcO7h7VT6bdlvzE6l2tLCo=", "properties": {"@source_uri": "https://tools.usps.com/UspsToolsRestServices/rest/POLocator/findLocations", "@spider": "usps_collection_boxes", "addr:city": "WOODBURY", "addr:country": "US", "addr:postcode": "06798", "addr:state": "CT", "addr:street_address": "670 MAIN ST S", "amenity": "post_box", "collection_times": "Mo-Sa 09:30", "nsi_id": "unitedstatespostalservice-a77078", "operator": "United States Postal Service", "operator:short": "USPS", "operator:type": "public", "operator:wikidata": "Q668687", "ref": "0679800006"}, "type": "Feature"}
{"geometry": {"coordinates": [-73.20939, 41.544412], "type": "Point"}, "id": "cglLicz1YoPtBBlQ5OyFxvE7QII=", "properties": {"@source_uri": "https://tools.usps.com/UspsToolsRestServices/rest/POLocator/findLocations", "@spider": "usps_collection_boxes", "addr:city": "WOODBURY", "addr:country": "US", "addr:postcode": "06798", "addr:state": "CT", "addr:street_address": "1 WASHINGTON AVE", "amenity": "post_box", "collection_times": "Mo-Fr 17:00; Sa 14:00", "indoor": "yes", "note": "ON 12/24 AND 12/31, THIS BOX MAY BE COLLECTED AS EARLY AS 12 NOON.", "nsi_id": "unitedstatespostalservice-a77078", "operator": "United States Postal Service", "operator:short": "USPS", "operator:type": "public", "operator:wikidata": "Q668687", "ref": "0679800008"}, "type": "Feature"}
{"geometry": {"coordinates": [-73.2309825, 41.521738], "type": "Point"}, "id": "NDDM4ikYM6C_gYGHKSLzNi7FZyg=", "properties": {"@source_uri": "https://tools.usps.com/UspsToolsRestServices/rest/POLocator/findLocations", "@spider": "usps_collection_boxes", "addr:city": "WOODBURY", "addr:country": "US", "addr:postcode": "06798", "addr:state": "CT", "addr:street_address": "57 CLUBHOUSE DR", "amenity": "post_box", "collection_times": "Mo-Sa 09:30", "nsi_id": "unitedstatespostalservice-a77078", "operator": "United States Postal Service", "operator:short": "USPS", "operator:type": "public", "operator:wikidata": "Q668687", "ref": "0679800009"}, "type": "Feature"}
{"geometry": {"coordinates": [-73.2009995, 41.5297], "type": "Point"}, "id": "HjT2VYAz9vQDY73e2jZFGRtlbus=", "properties": {"@source_uri": "https://tools.usps.com/UspsToolsRestServices/rest/POLocator/findLocations", "@spider": "usps_collection_boxes", "addr:city": "WOODBURY", "addr:country": "US", "addr:postcode": "06798", "addr:state": "CT", "addr:street_address": "47 SHERMAN HILL RD", "amenity": "post_box", "collection_times": "Mo-Sa 09:30", "nsi_id": "unitedstatespostalservice-a77078", "operator": "United States Postal Service", "operator:short": "USPS", "operator:type": "public", "operator:wikidata": "Q668687", "ref": "0679800010"}, "type": "Feature"}
{"geometry": {"coordinates": [-73.209118627, 41.544964928], "type": "Point"}, "id": "qP15mSzSt7Vwf1kaRlldSm6tXTk=", "properties": {"@source_uri": "https://tools.usps.com/UspsToolsRestServices/rest/POLocator/findLocations", "@spider": "usps_collection_boxes", "addr:city": "WOODBURY", "addr:country": "US", "addr:postcode": "06798", "addr:state": "CT", "addr:street_address": "1 WASHINGTON AVE", "amenity": "post_box", "collection_times": "Mo-Fr 16:30; Sa 14:15", "indoor": "yes", "note": "ON 12/24 AND 12/31, THIS BOX MAY BE COLLECTED AS EARLY AS 12 NOON.", "nsi_id": "unitedstatespostalservice-a77078", "operator": "United States Postal Service", "operator:short": "USPS", "operator:type": "public", "operator:wikidata": "Q668687", "ref": "0679800012"}, "type": "Feature"}
