{"geometry": {"coordinates": [-73.3991217, 41.417074], "type": "Point"}, "id": "MVAtlkLbgEbVleOYpmkhW6zIaQw=", "properties": {"@spider": "usps_collection_boxes", "addr:city": "BETHEL", "addr:country": "US", "addr:full": "10 STONY HILL RD", "addr:postcode": "06801", "addr:state": "CT", "brand": "USPS", "collection_times": "Mo-Fr 15:00; Sa 14:00", "name": "USPS COLLECTION BOX - BLUE BOX", "note": "ON 12/24 AND 12/31, THIS BOX MAY BE COLLECTED AS EARLY AS 12 NOON.", "ref": "0680100006"}, "type": "Feature"}
{"geometry": {"coordinates": [-73.4017249, 41.419051], "type": "Point"}, "id": "uiTQlYsB56LGGfEgpiiGfotRrdk=", "properties": {"@spider": "usps_collection_boxes", "addr:city": "BETHEL", "addr:country": "US", "addr:full": "8 BERKSHIRE BLVD", "addr:postcode": "06801", "addr:state": "CT", "brand": "USPS", "collection_times": "Mo-Fr 15:00; Sa 14:00", "name": "USPS COLLECTION BOX - BLUE BOX", "note": "ON 12/24 AND 12/31, THIS BOX MAY BE COLLECTED AS EARLY AS 12 NOON.", "ref": "0680100017"}, "type": "Feature"}
{"geometry": {"coordinates": [-73.3787139, 41.412879], "type": "Point"}, "id": "bqbTjNebJvwFV3jNjdpwdEO9ZKs=", "properties": {"@spider": "usps_collection_boxes", "addr:city": "BETHEL", "addr:country": "US", "addr:full": "81 STONY HILL RD", "addr:postcode": "06801", "addr:state": "CT", "brand": "USPS", "collection_times": "Mo-Sa 12:00", "name": "USPS COLLECTION BOX - BLUE BOX", "ref": "0680100020"}, "type": "Feature"}
{"geometry": {"coordinates": [-73.4126107, 41.434359], "type": "Point"}, "id": "YWS0DijcQFQJsxCEV2etAFDAXhc=", "properties": {"@spider": "usps_collection_boxes", "addr:city": "BROOKFIELD", "addr:country": "US", "addr:full": "14 CANDLEWOOD LAKE RD", "addr:postcode": "06804", "addr:state": "CT", "brand": "USPS", "collection_times": "Mo-Sa 10:30", "name": "USPS COLLECTION BOX - BLUE BOX", "ref": "0680400003"}, "type": "Feature"}
{"geometry": {"coordinates": [-73.398384, 41.46783], "type": "Point"}, "id": "C8wR0ByvfKiq4MhL9qLR7AZqLMc=", "properties": {"@spider": "usps_collection_boxes", "addr:city": "BROOKFIELD", "addr:country": "US", "addr:full": "115 POCONO RD", "addr:postcode": "06804", "addr:state": "CT", "brand": "USPS", "collection_times": "Mo-Fr 17:00; Sa 14:00", "name": "USPS COLLECTION BOX - EXPRESS", "note": "ON 12/24 AND 12/31, THIS BOX MAY BE COLLECTED AS EARLY AS 12 NOON.", "ref": "0680400005"}, "type": "Feature"}
{"geometry": {"coordinates": [-73.398448, 41.467911], "type": "Point"}, "id": "jv_Rajh6DFACnnDX48uprNPCbX4=", "properties": {"@spider": "usps_collection_boxes", "addr:city": "BROOKFIELD", "addr:country": "US", "addr:full": "115 POCONO RD", "addr:postcode": "06804", "addr:state": "CT", "brand": "USPS", "collection_times": "Mo-Fr 17:00; Sa 14:00", "name": "USPS COLLECTION BOX - BLUE BOX", "note": "ON 12/24 AND 12/31, THIS BOX MAY BE COLLECTED AS EARLY AS 12 NOON.", "ref": "0680400006"}, "type": "Feature"}
{"geometry": {"coordinates": [-73.398448, 41.467911], "type": "Point"}, "id": "7zVMj0PU_jERD2P6VUYmYRmEcCg=", "properties": {"@spider": "usps_collection_boxes", "addr:city": "BROOKFIELD", "addr:country": "US", "addr:full": "115 POCONO RD", "addr:postcode": "06804", "addr:state": "CT", "brand": "USPS", "collection_times": "Mo-Fr 17:00; Sa 14:00", "name": "USPS COLLECTION BOX - PO LOBBY", "note": "ON 12/24 AND 12/31, THIS BOX MAY BE COLLECTED AS EARLY AS 12 NOON.", "ref": "0680400010"}, "type": "Feature"}
{"geometry": {"coordinates": [-73.397959311, 41.46679253], "type": "Point"}, "id": "AxWvuA6CsBNPyRa5k2laZ_lvD7Q=", "properties": {"@spider": "usps_collection_boxes", "addr:city": "BROOKFIELD", "addr:country": "US", "addr:full": "115 POCONO RD", "addr:postcode": "06804", "addr:state": "CT", "brand": "USPS", "collection_times": "Mo-Fr 17:00; Sa 15:00", "name": "USPS COLLECTION BOX - PO LOBBY", "note": "ON 12/24 AND 12/31, THIS BOX MAY BE COLLECTED AS EARLY AS 12 NOON.", "ref": "0680400013"}, "type": "Feature"}
{"geometry": {"coordinates": [-73.4581899, 41.485075], "type": "Point"}, "id": "Ne2rqoVUvu6Ln7jS2vNMOUDT_XY=", "properties": {"@spider": "usps_collection_boxes", "addr:city": "DANBURY", "addr:country": "US", "addr:full": "1 LAKE SHR", "addr:postcode": "06810", "addr:state": "CT", "brand": "USPS", "collection_times": "Mo-Sa 10:00", "name": "USPS COLLECTION BOX - BLUE BOX", "ref": "0681000026"}, "type": "Feature"}
{"geometry": {"coordinates": [-73.4853257, 41.46571], "type": "Point"}, "id": "rbZ2pcl8W5qQtfeU_2h9ibIREN8=", "properties": {"@spider": "usps_collection_boxes", "addr:city": "DANBURY", "addr:country": "US", "addr:full": "1 BRUSHY HILL RD", "addr:postcode": "06810", "addr:state": "CT", "brand": "USPS", "collection_times": "Mo-Sa 10:00", "name": "USPS COLLECTION BOX - BLUE BOX", "ref": "0681000028"}, "type": "Feature"}
{"geometry": {"coordinates": [-73.4868083, 41.467632], "type": "Point"}, "id": "qtxzhSWnC1bK0Y_Bj8thfh5IJ3A=", "properties": {"@spider": "usps_collection_boxes", "addr:city": "DANBURY", "addr:country": "US", "addr:full": "100 STATE ROUTE 37", "addr:postcode": "06810", "addr:state": "CT", "brand": "USPS", "collection_times": "Mo-Sa 13:00", "name": "USPS COLLECTION BOX - BLUE BOX", "note": "ON 12/24 AND 12/31, THIS BOX MAY BE COLLECTED AS EARLY AS 12 NOON.", "ref": "0681000138"}, "type": "Feature"}
{"geometry": {"coordinates": [-73.419609691, 41.425649714], "type": "Point"}, "id": "bHWKP2ftdu369vDczv5x4RW-gZE=", "properties": {"@spider": "usps_collection_boxes", "addr:city": "DANBURY", "addr:country": "US", "addr:full": "114 FEDERAL RD", "addr:postcode": "06810", "addr:state": "CT", "brand": "USPS", "collection_times": "Mo-Sa 10:00", "name": "USPS COLLECTION BOX - BLUE BOX", "ref": "0681000140"}, "type": "Feature"}
