{"dataset_attributes": {"@spider": "usps_collection_boxes", "spider:collection_time": "2023-10-25T08:26:15.836184"}, "geometry": {"coordinates": [-73.5393743, 41.054177], "type": "Point"}, "id": "x1Md620qfDgqyWmhn70qk20hv_o=", "properties": {"@spider": "usps_collection_boxes", "addr:city": "STAMFORD", "addr:country": "US", "addr:full": "81 ATLANTIC ST", "addr:postcode": "06901", "addr:state": "CT", "amenity": "post_box", "brand": "United States Postal Service", "brand:wikidata": "Q668687", "collection_times": "Mo-Fr 15:00; Sa 12:00", "name": "USPS COLLECTION BOX - BLUE BOX", "note": "ON 12/24 AND 12/31, THIS BOX MAY BE COLLECTED AS EARLY AS 12 NOON.", "nsi_id": "unitedstatespostalservice-a77078", "operator": "United States Postal Service", "operator:short": "USPS", "operator:type": "public", "operator:wikidata": "Q668687", "ref": "0690100003"}, "type": "Feature"}
{"dataset_attributes": {"@spider": "usps_collection_boxes", "spider:collection_time": "2023-10-25T08:26:15.836184"}, "geometry": {"coordinates": [-73.5384908, 41.056326], "type": "Point"}, "id": "LyVA07nP_XE_jC6qtebm71Ph7RU=", "properties": {"@spider": "usps_collection_boxes", "addr:city": "STAMFORD", "addr:country": "US", "addr:full": "135 BEDFORD ST", "addr:postcode": "06901", "addr:state": "CT", "amenity": "post_box", "brand": "United States Postal Service", "brand:wikidata": "Q668687", "collection_times": "Mo-Fr 15:00; Sa 12:00", "name": "USPS COLLECTION BOX - BLUE BOX", "note": "ON 12/24 AND 12/31, THIS BOX MAY BE COLLECTED AS EARLY AS 12 NOON.", "nsi_id": "unitedstatespostalservice-a77078", "operator": "United States Postal Service", "operator:short": "USPS", "operator:type": "public", "operator:wikidata": "Q668687", "ref": "0690100013"}, "type": "Feature"}
{"dataset_attributes": {"@spider": "usps_collection_boxes", "spider:collection_time": "2023-10-25T08:26:15.836184"}, "geometry": {"coordinates": [-73.537688559, 41.061084329], "type": "Point"}, "id": "rkOJwGbsPaqSJjKTzIINsXgy1aQ=", "properties": {"@spider": "usps_collection_boxes", "addr:city": "STAMFORD", "addr:country": "US", "addr:full": "900 BEDFORD ST", "addr:postcode": "06901", "addr:state": "CT", "amenity": "post_box", "brand": "United States Postal Service", "brand:wikidata": "Q668687", "collection_times": "Mo-Fr 15:00; Sa 12:00", "name": "USPS COLLECTION BOX - BLUE BOX", "note": "ON 12/24 AND 12/31, THIS BOX MAY BE COLLECTED AS EARLY AS 12 NOON.", "nsi_id": "unitedstatespostalservice-a77078", "operator": "United States Postal Service", "operator:short": "USPS", "operator:type": "public", "operator:wikidata": "Q668687", "ref": "0690100020"}, "type": "Feature"}
{"dataset_attributes": {"@spider": "usps_collection_boxes", "spider:collection_time": "2023-10-25T08:26:15.836184"}, "geometry": {"coordinates": [-73.534743, 41.054409], "type": "Point"}, "id": "TEwQBRC8PnKoGa8loeqfBzBPzu8=", "properties": {"@spider": "usps_collection_boxes", "addr:city": "STAMFORD", "addr:country": "US", "addr:full": "201 BROAD ST", "addr:postcode": "06901", "addr:state": "CT", "amenity": "post_box", "brand": "United States Postal Service", "brand:wikidata": "Q668687", "collection_times": "Mo-Fr 14:00; Sa 12:00", "name": "USPS COLLECTION BOX - BLUE BOX", "note": "ON 12/24 AND 12/31, THIS BOX MAY BE COLLECTED AS EARLY AS 12 NOON.", "nsi_id": "unitedstatespostalservice-a77078", "operator": "United States Postal Service", "operator:short": "USPS", "operator:type": "public", "operator:wikidata": "Q668687", "ref": "0690100025"}, "type": "Feature"}
{"dataset_attributes": {"@spider": "usps_collection_boxes", "spider:collection_time": "2023-10-25T08:26:15.836184"}, "geometry": {"coordinates": [-73.5449626, 41.052682], "type": "Point"}, "id": "WuXHLGQ7mH5wOYKk-bpPq12KE4U=", "properties": {"@spider": "usps_collection_boxes", "addr:city": "STAMFORD", "addr:country": "US", "addr:full": "26 MAIN ST", "addr:postcode": "06901", "addr:state": "CT", "amenity": "post_box", "brand": "United States Postal Service", "brand:wikidata": "Q668687", "collection_times": "Mo-Fr 13:00; Sa 12:00", "name": "USPS COLLECTION BOX - BLUE BOX", "note": "ON 12/24 AND 12/31, THIS BOX MAY BE COLLECTED AS EARLY AS 12 NOON.", "nsi_id": "unitedstatespostalservice-a77078", "operator": "United States Postal Service", "operator:short": "USPS", "operator:type": "public", "operator:wikidata": "Q668687", "ref": "0690100033"}, "type": "Feature"}
{"dataset_attributes": {"@spider": "usps_collection_boxes", "spider:collection_time": "2023-10-25T08:26:15.836184"}, "geometry": {"coordinates": [-73.541321319, 41.053288147], "type": "Point"}, "id": "cDQLOM7APNKSNiCc6bWYh-co31s=", "properties": {"@spider": "usps_collection_boxes", "addr:city": "STAMFORD", "addr:country": "US", "addr:full": "84 W PARK PL", "addr:postcode": "06901", "addr:state": "CT", "amenity": "post_box", "brand": "United States Postal Service", "brand:wikidata": "Q668687", "collection_times": "Mo-Fr 13:00; Sa 12:00", "name": "USPS COLLECTION BOX - BLUE BOX", "note": "ON 12/24 AND 12/31, THIS BOX MAY BE COLLECTED AS EARLY AS 12 NOON.", "nsi_id": "unitedstatespostalservice-a77078", "operator": "United States Postal Service", "operator:short": "USPS", "operator:type": "public", "operator:wikidata": "Q668687", "ref": "0690100041"}, "type": "Feature"}
{"dataset_attributes": {"@spider": "usps_collection_boxes", "spider:collection_time": "2023-10-25T08:26:15.836184"}, "geometry": {"coordinates": [-73.5357179, 41.058845], "type": "Point"}, "id": "6azFetmnoyc2UEqx9PSm8NAawMY=", "properties": {"@spider": "usps_collection_boxes", "addr:city": "STAMFORD", "addr:country": "US", "addr:full": "100 PROSPECT ST", "addr:postcode": "06901", "addr:state": "CT", "amenity": "post_box", "brand": "United States Postal Service", "brand:wikidata": "Q668687", "collection_times": "Mo-Fr 15:00; Sa 12:00", "name": "USPS COLLECTION BOX - BLUE BOX", "note": "ON 12/24 AND 12/31, THIS BOX MAY BE COLLECTED AS EARLY AS 12 NOON.", "nsi_id": "unitedstatespostalservice-a77078", "operator": "United States Postal Service", "operator:short": "USPS", "operator:type": "public", "operator:wikidata": "Q668687", "ref": "0690100045"}, "type": "Feature"}
{"dataset_attributes": {"@spider": "usps_collection_boxes", "spider:collection_time": "2023-10-25T08:26:15.836184"}, "geometry": {"coordinates": [-73.5428653315, 41.0494394674], "type": "Point"}, "id": "do052zcYY8p8prydIvF3RmRn3mU=", "properties": {"@spider": "usps_collection_boxes", "addr:city": "STAMFORD", "addr:country": "US", "addr:full": "750 WASHINGTON BLVD", "addr:postcode": "06901", "addr:state": "CT", "amenity": "post_box", "brand": "United States Postal Service", "brand:wikidata": "Q668687", "collection_times": "Mo-Sa 11:00", "name": "USPS COLLECTION BOX - BLUE BOX", "nsi_id": "unitedstatespostalservice-a77078", "operator": "United States Postal Service", "operator:short": "USPS", "operator:type": "public", "operator:wikidata": "Q668687", "ref": "0690100072"}, "type": "Feature"}
{"dataset_attributes": {"@spider": "usps_collection_boxes", "spider:collection_time": "2023-10-25T08:26:15.836184"}, "geometry": {"coordinates": [-73.5422582, 41.052304], "type": "Point"}, "id": "sBcUuhOXn7EQ5mA5BQ5aCFFjZYo=", "properties": {"@spider": "usps_collection_boxes", "addr:city": "STAMFORD", "addr:country": "US", "addr:full": "909 WASHINGTON BLVD", "addr:postcode": "06901", "addr:state": "CT", "amenity": "post_box", "brand": "United States Postal Service", "brand:wikidata": "Q668687", "collection_times": "Mo-Sa 12:00", "name": "USPS COLLECTION BOX - BLUE BOX", "nsi_id": "unitedstatespostalservice-a77078", "operator": "United States Postal Service", "operator:short": "USPS", "operator:type": "public", "operator:wikidata": "Q668687", "ref": "0690100075"}, "type": "Feature"}
{"dataset_attributes": {"@spider": "usps_collection_boxes", "spider:collection_time": "2023-10-25T08:26:15.836184"}, "geometry": {"coordinates": [-73.537967, 41.057716], "type": "Point"}, "id": "Np1ni4cVG-eXq4Xbkn_bm7-68rA=", "properties": {"@spider": "usps_collection_boxes", "addr:city": "STAMFORD", "addr:country": "US", "addr:full": "350 BEDFORD ST", "addr:postcode": "06901", "addr:state": "CT", "amenity": "post_box", "brand": "United States Postal Service", "brand:wikidata": "Q668687", "collection_times": "Mo-Fr 15:00; Sa 12:00", "name": "USPS COLLECTION BOX - BLUE BOX", "note": "ON 12/24 AND 12/31, THIS BOX MAY BE COLLECTED AS EARLY AS 12 NOON.", "nsi_id": "unitedstatespostalservice-a77078", "operator": "United States Postal Service", "operator:short": "USPS", "operator:type": "public", "operator:wikidata": "Q668687", "ref": "0690100084"}, "type": "Feature"}
{"dataset_attributes": {"@spider": "usps_collection_boxes", "spider:collection_time": "2023-10-25T08:26:15.836184"}, "geometry": {"coordinates": [-73.5334590276, 41.052653197], "type": "Point"}, "id": "LNKZJPjZ89j_HNb3cXnyqpYbYis=", "properties": {"@spider": "usps_collection_boxes", "addr:city": "STAMFORD", "addr:country": "US", "addr:full": "301 TRESSER BLVD", "addr:postcode": "06901", "addr:state": "CT", "amenity": "post_box", "brand": "United States Postal Service", "brand:wikidata": "Q668687", "collection_times": "Mo-Fr 11:00", "name": "USPS COLLECTION BOX - BLUE BOX", "nsi_id": "unitedstatespostalservice-a77078", "operator": "United States Postal Service", "operator:short": "USPS", "operator:type": "public", "operator:wikidata": "Q668687", "ref": "0690100116"}, "type": "Feature"}
{"dataset_attributes": {"@spider": "usps_collection_boxes", "spider:collection_time": "2023-10-25T08:26:15.836184"}, "geometry": {"coordinates": [-73.540368, 41.056966], "type": "Point"}, "id": "ob05BLUT_vIzVFC2OG-xR41VUx8=", "properties": {"@spider": "usps_collection_boxes", "addr:city": "STAMFORD", "addr:country": "US", "addr:full": "550 SUMMER ST", "addr:postcode": "06901", "addr:state": "CT", "amenity": "post_box", "brand": "United States Postal Service", "brand:wikidata": "Q668687", "collection_times": "Mo-Fr 17:00; Sa 12:00", "name": "USPS COLLECTION BOX - PO LOBBY", "note": "ON 12/24 AND 12/31, THIS BOX MAY BE COLLECTED AS EARLY AS 12 NOON.", "nsi_id": "unitedstatespostalservice-a77078", "operator": "United States Postal Service", "operator:short": "USPS", "operator:type": "public", "operator:wikidata": "Q668687", "ref": "0690100120"}, "type": "Feature"}
{"dataset_attributes": {"@spider": "usps_collection_boxes", "spider:collection_time": "2023-10-25T08:26:15.836184"}, "geometry": {"coordinates": [-73.540368846, 41.056964015], "type": "Point"}, "id": "-8lixnD6vrwhudY2blb50m6pVk8=", "properties": {"@spider": "usps_collection_boxes", "addr:city": "STAMFORD", "addr:country": "US", "addr:full": "550 SUMMER ST", "addr:postcode": "06901", "addr:state": "CT", "amenity": "post_box", "brand": "United States Postal Service", "brand:wikidata": "Q668687", "collection_times": "Mo-Fr 16:45; Sa 12:30", "name": "USPS COLLECTION BOX - PO LOBBY", "note": "ON 12/24 AND 12/31, THIS BOX MAY BE COLLECTED AS EARLY AS 12 NOON.", "nsi_id": "unitedstatespostalservice-a77078", "operator": "United States Postal Service", "operator:short": "USPS", "operator:type": "public", "operator:wikidata": "Q668687", "ref": "0690100122"}, "type": "Feature"}
{"dataset_attributes": {"@spider": "usps_collection_boxes", "spider:collection_time": "2023-10-25T08:26:15.836184"}, "geometry": {"coordinates": [-73.54035566, 41.056973518], "type": "Point"}, "id": "71Ok3jKmi2FsDspxqCi52aILwHc=", "properties": {"@spider": "usps_collection_boxes", "addr:city": "STAMFORD", "addr:country": "US", "addr:full": "550 SUMMER ST", "addr:postcode": "06901", "addr:state": "CT", "amenity": "post_box", "brand": "United States Postal Service", "brand:wikidata": "Q668687", "collection_times": "Mo-Fr 17:00; Sa 12:00", "name": "USPS COLLECTION BOX - EXPRESS", "note": "ON 12/24 AND 12/31, THIS BOX MAY BE COLLECTED AS EARLY AS 12 NOON.", "nsi_id": "unitedstatespostalservice-a77078", "operator": "United States Postal Service", "operator:short": "USPS", "operator:type": "public", "operator:wikidata": "Q668687", "ref": "0690100125"}, "type": "Feature"}
{"dataset_attributes": {"@spider": "usps_collection_boxes", "spider:collection_time": "2023-10-25T08:26:15.836184"}, "geometry": {"coordinates": [-73.5439536, 41.041367], "type": "Point"}, "id": "8Uh7L1-kXklHPIZ1zP5j7YjJMlk=", "properties": {"@spider": "usps_collection_boxes", "addr:city": "STAMFORD", "addr:country": "US", "addr:full": "2187 ATLANTIC ST", "addr:postcode": "06902", "addr:state": "CT", "amenity": "post_box", "brand": "United States Postal Service", "brand:wikidata": "Q668687", "collection_times": "Mo-Fr 11:00", "name": "USPS COLLECTION BOX - BLUE BOX", "nsi_id": "unitedstatespostalservice-a77078", "operator": "United States Postal Service", "operator:short": "USPS", "operator:type": "public", "operator:wikidata": "Q668687", "ref": "0690200001"}, "type": "Feature"}
{"dataset_attributes": {"@spider": "usps_collection_boxes", "spider:collection_time": "2023-10-25T08:26:15.836184"}, "geometry": {"coordinates": [-73.5318866, 41.043983], "type": "Point"}, "id": "Cu4G_uRJSS2GvPY2zW2dq7ZH4aw=", "properties": {"@spider": "usps_collection_boxes", "addr:city": "STAMFORD", "addr:country": "US", "addr:full": "700 CANAL ST", "addr:postcode": "06902", "addr:state": "CT", "amenity": "post_box", "brand": "United States Postal Service", "brand:wikidata": "Q668687", "collection_times": "Mo-Sa 11:00", "name": "USPS COLLECTION BOX - BLUE BOX", "nsi_id": "unitedstatespostalservice-a77078", "operator": "United States Postal Service", "operator:short": "USPS", "operator:type": "public", "operator:wikidata": "Q668687", "ref": "0690200012"}, "type": "Feature"}
{"dataset_attributes": {"@spider": "usps_collection_boxes", "spider:collection_time": "2023-10-25T08:26:15.836184"}, "geometry": {"coordinates": [-73.5211143, 41.049317], "type": "Point"}, "id": "IkOCx0n67dkXhOcFJGnmseNeSrg=", "properties": {"@spider": "usps_collection_boxes", "addr:city": "STAMFORD", "addr:country": "US", "addr:full": "181 COVE RD", "addr:postcode": "06902", "addr:state": "CT", "amenity": "post_box", "brand": "United States Postal Service", "brand:wikidata": "Q668687", "collection_times": "Mo-Sa 10:30", "name": "USPS COLLECTION BOX - BLUE BOX", "nsi_id": "unitedstatespostalservice-a77078", "operator": "United States Postal Service", "operator:short": "USPS", "operator:type": "public", "operator:wikidata": "Q668687", "ref": "0690200014"}, "type": "Feature"}
{"dataset_attributes": {"@spider": "usps_collection_boxes", "spider:collection_time": "2023-10-25T08:26:15.836184"}, "geometry": {"coordinates": [-73.536155195, 41.047903066], "type": "Point"}, "id": "VsOemn2DKUva5NjHbIq68fvBQ-w=", "properties": {"@spider": "usps_collection_boxes", "addr:city": "STAMFORD", "addr:country": "US", "addr:full": "1 DOCK ST", "addr:postcode": "06902", "addr:state": "CT", "amenity": "post_box", "brand": "United States Postal Service", "brand:wikidata": "Q668687", "collection_times": "Mo-Fr 15:00; Sa 12:00", "name": "USPS COLLECTION BOX - BLUE BOX", "note": "ON 12/24 AND 12/31, THIS BOX MAY BE COLLECTED AS EARLY AS 12 NOON.", "nsi_id": "unitedstatespostalservice-a77078", "operator": "United States Postal Service", "operator:short": "USPS", "operator:type": "public", "operator:wikidata": "Q668687", "ref": "0690200018"}, "type": "Feature"}
{"dataset_attributes": {"@spider": "usps_collection_boxes", "spider:collection_time": "2023-10-25T08:26:15.836184"}, "geometry": {"coordinates": [-73.5539034923, 41.0304839414], "type": "Point"}, "id": "6iCJVcgCpGArlkF-Pv9X4KlYYNg=", "properties": {"@spider": "usps_collection_boxes", "addr:city": "STAMFORD", "addr:country": "US", "addr:full": "700 FAIRFIELD AVE", "addr:postcode": "06902", "addr:state": "CT", "amenity": "post_box", "brand": "United States Postal Service", "brand:wikidata": "Q668687", "collection_times": "Mo-Sa 10:30", "name": "USPS COLLECTION BOX - BLUE BOX", "nsi_id": "unitedstatespostalservice-a77078", "operator": "United States Postal Service", "operator:short": "USPS", "operator:type": "public", "operator:wikidata": "Q668687", "ref": "0690200028"}, "type": "Feature"}
{"dataset_attributes": {"@spider": "usps_collection_boxes", "spider:collection_time": "2023-10-25T08:26:15.836184"}, "geometry": {"coordinates": [-73.5499281317, 41.0441407216], "type": "Point"}, "id": "TefWDEHXYiQ_wIf62QLZAKvUkJs=", "properties": {"@spider": "usps_collection_boxes", "addr:city": "STAMFORD", "addr:country": "US", "addr:full": "100 FIRST STAMFORD PL", "addr:postcode": "06902", "addr:state": "CT", "amenity": "post_box", "brand": "United States Postal Service", "brand:wikidata": "Q668687", "collection_times": "Mo-Fr 15:00; Sa 12:00", "name": "USPS COLLECTION BOX - BLUE BOX", "note": "ON 12/24 AND 12/31, THIS BOX MAY BE COLLECTED AS EARLY AS 12 NOON.", "nsi_id": "unitedstatespostalservice-a77078", "operator": "United States Postal Service", "operator:short": "USPS", "operator:type": "public", "operator:wikidata": "Q668687", "ref": "0690200033"}, "type": "Feature"}
{"dataset_attributes": {"@spider": "usps_collection_boxes", "spider:collection_time": "2023-10-25T08:26:15.836184"}, "geometry": {"coordinates": [-73.5337054, 41.033784], "type": "Point"}, "id": "GXcqNn2NPFb2SG9uYuCz9Da0F5c=", "properties": {"@spider": "usps_collection_boxes", "addr:city": "STAMFORD", "addr:country": "US", "addr:full": "250 HARBOR DR", "addr:postcode": "06902", "addr:state": "CT", "amenity": "post_box", "brand": "United States Postal Service", "brand:wikidata": "Q668687", "collection_times": "Mo-Fr 15:00; Sa 12:00", "name": "USPS COLLECTION BOX - BLUE BOX", "note": "ON 12/24 AND 12/31, THIS BOX MAY BE COLLECTED AS EARLY AS 12 NOON.", "nsi_id": "unitedstatespostalservice-a77078", "operator": "United States Postal Service", "operator:short": "USPS", "operator:type": "public", "operator:wikidata": "Q668687", "ref": "0690200043"}, "type": "Feature"}
{"dataset_attributes": {"@spider": "usps_collection_boxes", "spider:collection_time": "2023-10-25T08:26:15.836184"}, "geometry": {"coordinates": [-73.5606452, 41.04685], "type": "Point"}, "id": "PWrX4haC8v0Sf7Uhwhyf_ajYzfU=", "properties": {"@spider": "usps_collection_boxes", "addr:city": "STAMFORD", "addr:country": "US", "addr:full": "61 HARVARD AVE", "addr:postcode": "06902", "addr:state": "CT", "amenity": "post_box", "brand": "United States Postal Service", "brand:wikidata": "Q668687", "collection_times": "Mo-Fr 15:00; Sa 12:00", "name": "USPS COLLECTION BOX - BLUE BOX", "note": "ON 12/24 AND 12/31, THIS BOX MAY BE COLLECTED AS EARLY AS 12 NOON.", "nsi_id": "unitedstatespostalservice-a77078", "operator": "United States Postal Service", "operator:short": "USPS", "operator:type": "public", "operator:wikidata": "Q668687", "ref": "0690200047"}, "type": "Feature"}
{"dataset_attributes": {"@spider": "usps_collection_boxes", "spider:collection_time": "2023-10-25T08:26:15.836184"}, "geometry": {"coordinates": [-73.527742904, 41.055287579], "type": "Point"}, "id": "I2X8RzM47vr-egWOeESF_fYKpbs=", "properties": {"@spider": "usps_collection_boxes", "addr:city": "STAMFORD", "addr:country": "US", "addr:full": "810 E MAIN ST", "addr:postcode": "06902", "addr:state": "CT", "amenity": "post_box", "brand": "United States Postal Service", "brand:wikidata": "Q668687", "collection_times": "Mo-Sa 12:00", "name": "USPS COLLECTION BOX - BLUE BOX", "nsi_id": "unitedstatespostalservice-a77078", "operator": "United States Postal Service", "operator:short": "USPS", "operator:type": "public", "operator:wikidata": "Q668687", "ref": "0690200055"}, "type": "Feature"}
{"dataset_attributes": {"@spider": "usps_collection_boxes", "spider:collection_time": "2023-10-25T08:26:15.836184"}, "geometry": {"coordinates": [-73.5142972, 41.058068], "type": "Point"}, "id": "9dX_khqpZ1xjBt1wzC9keG3UxHQ=", "properties": {"@spider": "usps_collection_boxes", "addr:city": "STAMFORD", "addr:country": "US", "addr:full": "1122 E MAIN ST", "addr:postcode": "06902", "addr:state": "CT", "amenity": "post_box", "brand": "United States Postal Service", "brand:wikidata": "Q668687", "collection_times": "Mo-Sa 12:00", "name": "USPS COLLECTION BOX - BLUE BOX", "nsi_id": "unitedstatespostalservice-a77078", "operator": "United States Postal Service", "operator:short": "USPS", "operator:type": "public", "operator:wikidata": "Q668687", "ref": "0690200057"}, "type": "Feature"}
{"dataset_attributes": {"@spider": "usps_collection_boxes", "spider:collection_time": "2023-10-25T08:26:15.836184"}, "geometry": {"coordinates": [-73.5085568, 41.060107], "type": "Point"}, "id": "DoS96pdX2hS94ZhxxPDpAjauwac=", "properties": {"@spider": "usps_collection_boxes", "addr:city": "STAMFORD", "addr:country": "US", "addr:full": "1281 E MAIN ST", "addr:postcode": "06902", "addr:state": "CT", "amenity": "post_box", "brand": "United States Postal Service", "brand:wikidata": "Q668687", "collection_times": "Mo-Sa 12:00", "name": "USPS COLLECTION BOX - BLUE BOX", "nsi_id": "unitedstatespostalservice-a77078", "operator": "United States Postal Service", "operator:short": "USPS", "operator:type": "public", "operator:wikidata": "Q668687", "ref": "0690200061"}, "type": "Feature"}
{"dataset_attributes": {"@spider": "usps_collection_boxes", "spider:collection_time": "2023-10-25T08:26:15.836184"}, "geometry": {"coordinates": [-73.55341, 41.04708], "type": "Point"}, "id": "53X_3Xsflu55ec4YBIxlv2KM5Xc=", "properties": {"@spider": "usps_collection_boxes", "addr:city": "STAMFORD", "addr:country": "US", "addr:full": "2001 W MAIN ST", "addr:postcode": "06902", "addr:state": "CT", "amenity": "post_box", "brand": "United States Postal Service", "brand:wikidata": "Q668687", "collection_times": "Mo-Fr 15:00; Sa 12:00", "name": "USPS COLLECTION BOX - BLUE BOX", "note": "ON 12/24 AND 12/31, THIS BOX MAY BE COLLECTED AS EARLY AS 12 NOON.", "nsi_id": "unitedstatespostalservice-a77078", "operator": "United States Postal Service", "operator:short": "USPS", "operator:type": "public", "operator:wikidata": "Q668687", "ref": "0690200067"}, "type": "Feature"}
{"dataset_attributes": {"@spider": "usps_collection_boxes", "spider:collection_time": "2023-10-25T08:26:15.836184"}, "geometry": {"coordinates": [-73.5222099, 41.041024], "type": "Point"}, "id": "F2mL6HvQnOftxmI3UfdhxOKS98o=", "properties": {"@spider": "usps_collection_boxes", "addr:city": "STAMFORD", "addr:country": "US", "addr:full": "70 SEAVIEW AVE", "addr:postcode": "06902", "addr:state": "CT", "amenity": "post_box", "brand": "United States Postal Service", "brand:wikidata": "Q668687", "collection_times": "Mo-Fr 12:30", "name": "USPS COLLECTION BOX - BLUE BOX", "note": "ON 12/24 AND 12/31, THIS BOX MAY BE COLLECTED AS EARLY AS 12 NOON.", "nsi_id": "unitedstatespostalservice-a77078", "operator": "United States Postal Service", "operator:short": "USPS", "operator:type": "public", "operator:wikidata": "Q668687", "ref": "0690200074"}, "type": "Feature"}
{"dataset_attributes": {"@spider": "usps_collection_boxes", "spider:collection_time": "2023-10-25T08:26:15.836184"}, "geometry": {"coordinates": [-73.5534773, 41.054963], "type": "Point"}, "id": "F8DWPJ46xunqUpQHRJ58JuV_SJI=", "properties": {"@spider": "usps_collection_boxes", "addr:city": "STAMFORD", "addr:country": "US", "addr:full": "34 SHELBURNE RD", "addr:postcode": "06902", "addr:state": "CT", "amenity": "post_box", "brand": "United States Postal Service", "brand:wikidata": "Q668687", "collection_times": "Mo-Fr 13:00; Sa 12:00", "name": "USPS COLLECTION BOX - BLUE BOX", "note": "ON 12/24 AND 12/31, THIS BOX MAY BE COLLECTED AS EARLY AS 12 NOON.", "nsi_id": "unitedstatespostalservice-a77078", "operator": "United States Postal Service", "operator:short": "USPS", "operator:type": "public", "operator:wikidata": "Q668687", "ref": "0690200076"}, "type": "Feature"}
{"dataset_attributes": {"@spider": "usps_collection_boxes", "spider:collection_time": "2023-10-25T08:26:15.836184"}, "geometry": {"coordinates": [-73.5239412363, 41.0466000252], "type": "Point"}, "id": "d5JYQVS4lTpA8oXyZP6iivdc43w=", "properties": {"@spider": "usps_collection_boxes", "addr:city": "STAMFORD", "addr:country": "US", "addr:full": "320 SHIPPAN AVE", "addr:postcode": "06902", "addr:state": "CT", "amenity": "post_box", "brand": "United States Postal Service", "brand:wikidata": "Q668687", "collection_times": "Mo-Fr 15:00; Sa 12:00", "name": "USPS COLLECTION BOX - BLUE BOX", "note": "ON 12/24 AND 12/31, THIS BOX MAY BE COLLECTED AS EARLY AS 12 NOON.", "nsi_id": "unitedstatespostalservice-a77078", "operator": "United States Postal Service", "operator:short": "USPS", "operator:type": "public", "operator:wikidata": "Q668687", "ref": "0690200079"}, "type": "Feature"}
{"dataset_attributes": {"@spider": "usps_collection_boxes", "spider:collection_time": "2023-10-25T08:26:15.836184"}, "geometry": {"coordinates": [-73.5275499, 41.036754], "type": "Point"}, "id": "GrS9G_CGn8jhaPrr9HAt0XyaoRU=", "properties": {"@spider": "usps_collection_boxes", "addr:city": "STAMFORD", "addr:country": "US", "addr:full": "1124 SHIPPAN AVE", "addr:postcode": "06902", "addr:state": "CT", "amenity": "post_box", "brand": "United States Postal Service", "brand:wikidata": "Q668687", "collection_times": "Mo-Sa 12:00", "name": "USPS COLLECTION BOX - BLUE BOX", "nsi_id": "unitedstatespostalservice-a77078", "operator": "United States Postal Service", "operator:short": "USPS", "operator:type": "public", "operator:wikidata": "Q668687", "ref": "0690200080"}, "type": "Feature"}
{"dataset_attributes": {"@spider": "usps_collection_boxes", "spider:collection_time": "2023-10-25T08:26:15.836184"}, "geometry": {"coordinates": [-73.5463153, 41.037885], "type": "Point"}, "id": "-uAUMwYVGwxlyxR8AA1j_JWigdU=", "properties": {"@spider": "usps_collection_boxes", "addr:city": "STAMFORD", "addr:country": "US", "addr:full": "62 SOUTHFIELD AVE", "addr:postcode": "06902", "addr:state": "CT", "amenity": "post_box", "brand": "United States Postal Service", "brand:wikidata": "Q668687", "collection_times": "Mo-Fr 15:00; Sa 12:00", "name": "USPS COLLECTION BOX - BLUE BOX", "note": "ON 12/24 AND 12/31, THIS BOX MAY BE COLLECTED AS EARLY AS 12 NOON.", "nsi_id": "unitedstatespostalservice-a77078", "operator": "United States Postal Service", "operator:short": "USPS", "operator:type": "public", "operator:wikidata": "Q668687", "ref": "0690200082"}, "type": "Feature"}
{"dataset_attributes": {"@spider": "usps_collection_boxes", "spider:collection_time": "2023-10-25T08:26:15.836184"}, "geometry": {"coordinates": [-73.5429694577, 41.0459282432], "type": "Point"}, "id": "9OD_Lew4na3l4B4pVF1F5W6Yr0A=", "properties": {"@spider": "usps_collection_boxes", "addr:city": "STAMFORD", "addr:country": "US", "addr:full": "1 STATION PL", "addr:postcode": "06902", "addr:state": "CT", "amenity": "post_box", "brand": "United States Postal Service", "brand:wikidata": "Q668687", "collection_times": "Mo-Fr 15:00; Sa 12:00", "name": "USPS COLLECTION BOX - BLUE BOX", "note": "ON 12/24 AND 12/31, THIS BOX MAY BE COLLECTED AS EARLY AS 12 NOON.", "nsi_id": "unitedstatespostalservice-a77078", "operator": "United States Postal Service", "operator:short": "USPS", "operator:type": "public", "operator:wikidata": "Q668687", "ref": "0690200087"}, "type": "Feature"}
{"dataset_attributes": {"@spider": "usps_collection_boxes", "spider:collection_time": "2023-10-25T08:26:15.836184"}, "geometry": {"coordinates": [-73.5434049, 41.057971], "type": "Point"}, "id": "JEVG4-U8lUwurq4TLpeUIOLxmfU=", "properties": {"@spider": "usps_collection_boxes", "addr:city": "STAMFORD", "addr:country": "US", "addr:full": "1351 WASHINGTON BLVD", "addr:postcode": "06902", "addr:state": "CT", "amenity": "post_box", "brand": "United States Postal Service", "brand:wikidata": "Q668687", "collection_times": "Mo-Fr 13:00; Sa 12:00", "name": "USPS COLLECTION BOX - BLUE BOX", "note": "ON 12/24 AND 12/31, THIS BOX MAY BE COLLECTED AS EARLY AS 12 NOON.", "nsi_id": "unitedstatespostalservice-a77078", "operator": "United States Postal Service", "operator:short": "USPS", "operator:type": "public", "operator:wikidata": "Q668687", "ref": "0690200105"}, "type": "Feature"}
{"dataset_attributes": {"@spider": "usps_collection_boxes", "spider:collection_time": "2023-10-25T08:26:15.836184"}, "geometry": {"coordinates": [-73.541516, 41.039828], "type": "Point"}, "id": "gbYwzDZhPYapJzXbo5YhysH1m4U=", "properties": {"@spider": "usps_collection_boxes", "addr:city": "STAMFORD", "addr:country": "US", "addr:full": "2 DYKE LN", "addr:postcode": "06902", "addr:state": "CT", "amenity": "post_box", "brand": "United States Postal Service", "brand:wikidata": "Q668687", "collection_times": "Mo-Sa 11:00", "name": "USPS COLLECTION BOX - BLUE BOX", "nsi_id": "unitedstatespostalservice-a77078", "operator": "United States Postal Service", "operator:short": "USPS", "operator:type": "public", "operator:wikidata": "Q668687", "ref": "0690200113"}, "type": "Feature"}
{"dataset_attributes": {"@spider": "usps_collection_boxes", "spider:collection_time": "2023-10-25T08:26:15.836184"}, "geometry": {"coordinates": [-73.5094458257, 41.0531423783], "type": "Point"}, "id": "MYGL9sZkoEsEAxe5l35nW2oxA5s=", "properties": {"@spider": "usps_collection_boxes", "addr:city": "STAMFORD", "addr:country": "US", "addr:full": "172 SEASIDE AVE", "addr:postcode": "06902", "addr:state": "CT", "amenity": "post_box", "brand": "United States Postal Service", "brand:wikidata": "Q668687", "collection_times": "Mo-Sa 11:00", "name": "USPS COLLECTION BOX - BLUE BOX", "nsi_id": "unitedstatespostalservice-a77078", "operator": "United States Postal Service", "operator:short": "USPS", "operator:type": "public", "operator:wikidata": "Q668687", "ref": "0690200126"}, "type": "Feature"}
{"dataset_attributes": {"@spider": "usps_collection_boxes", "spider:collection_time": "2023-10-25T08:26:15.836184"}, "geometry": {"coordinates": [-73.558729653, 41.042695725], "type": "Point"}, "id": "sdKHzL9NeGfhGFXW5c21FImG4zg=", "properties": {"@spider": "usps_collection_boxes", "addr:city": "STAMFORD", "addr:country": "US", "addr:full": "317 WEST AVE", "addr:postcode": "06902", "addr:state": "CT", "amenity": "post_box", "brand": "United States Postal Service", "brand:wikidata": "Q668687", "collection_times": "Mo-Fr 16:30; Sa 16:00", "name": "USPS COLLECTION BOX - BLUE BOX", "note": "ON 12/24 AND 12/31, THIS BOX MAY BE COLLECTED AS EARLY AS 12 NOON.", "nsi_id": "unitedstatespostalservice-a77078", "operator": "United States Postal Service", "operator:short": "USPS", "operator:type": "public", "operator:wikidata": "Q668687", "ref": "0690200127"}, "type": "Feature"}
{"dataset_attributes": {"@spider": "usps_collection_boxes", "spider:collection_time": "2023-10-25T08:26:15.836184"}, "geometry": {"coordinates": [-73.5339642, 41.0649], "type": "Point"}, "id": "8JSLYaMS3rG6baV5IpE_UgOBs_U=", "properties": {"@spider": "usps_collection_boxes", "addr:city": "STAMFORD", "addr:country": "US", "addr:full": "32 STRAWBERRY HILL CT", "addr:postcode": "06902", "addr:state": "CT", "amenity": "post_box", "brand": "United States Postal Service", "brand:wikidata": "Q668687", "collection_times": "Mo-Fr 13:00; Sa 12:00", "name": "USPS COLLECTION BOX - BLUE BOX", "note": "ON 12/24 AND 12/31, THIS BOX MAY BE COLLECTED AS EARLY AS 12 NOON.", "nsi_id": "unitedstatespostalservice-a77078", "operator": "United States Postal Service", "operator:short": "USPS", "operator:type": "public", "operator:wikidata": "Q668687", "ref": "0690200131"}, "type": "Feature"}
{"dataset_attributes": {"@spider": "usps_collection_boxes", "spider:collection_time": "2023-10-25T08:26:15.836184"}, "geometry": {"coordinates": [-73.5589358, 41.042812], "type": "Point"}, "id": "i063oTLwi_ppomm3uEF93-hItSM=", "properties": {"@spider": "usps_collection_boxes", "addr:city": "STAMFORD", "addr:country": "US", "addr:full": "317 WEST AVE", "addr:postcode": "06902", "addr:state": "CT", "amenity": "post_box", "brand": "United States Postal Service", "brand:wikidata": "Q668687", "collection_times": "Mo-Fr 17:00", "name": "USPS COLLECTION BOX - PO LOBBY", "note": "ON 12/24 AND 12/31, THIS BOX MAY BE COLLECTED AS EARLY AS 12 NOON.", "nsi_id": "unitedstatespostalservice-a77078", "operator": "United States Postal Service", "operator:short": "USPS", "operator:type": "public", "operator:wikidata": "Q668687", "ref": "0690200135"}, "type": "Feature"}
{"dataset_attributes": {"@spider": "usps_collection_boxes", "spider:collection_time": "2023-10-25T08:26:15.836184"}, "geometry": {"coordinates": [-73.558265567, 41.037912795], "type": "Point"}, "id": "-jNzZo2ERHj6XkVyJkOq0gpSlfQ=", "properties": {"@spider": "usps_collection_boxes", "addr:city": "STAMFORD", "addr:country": "US", "addr:full": "427 WEST AVE", "addr:postcode": "06902", "addr:state": "CT", "amenity": "post_box", "brand": "United States Postal Service", "brand:wikidata": "Q668687", "collection_times": "Mo-Sa 17:30", "name": "USPS COLLECTION BOX - PO LOBBY", "note": "ON 12/24 AND 12/31, THIS BOX MAY BE COLLECTED AS EARLY AS 12 NOON.", "nsi_id": "unitedstatespostalservice-a77078", "operator": "United States Postal Service", "operator:short": "USPS", "operator:type": "public", "operator:wikidata": "Q668687", "ref": "0690200137"}, "type": "Feature"}
{"dataset_attributes": {"@spider": "usps_collection_boxes", "spider:collection_time": "2023-10-25T08:26:15.836184"}, "geometry": {"coordinates": [-73.558729653, 41.042695725], "type": "Point"}, "id": "VK6-dWk8lh8MwFHIAwNpuCOr7HU=", "properties": {"@spider": "usps_collection_boxes", "addr:city": "STAMFORD", "addr:country": "US", "addr:full": "317 WEST AVE", "addr:postcode": "06902", "addr:state": "CT", "amenity": "post_box", "brand": "United States Postal Service", "brand:wikidata": "Q668687", "collection_times": "Mo-Fr 17:15; Sa 13:30", "name": "USPS COLLECTION BOX - PO LOBBY", "note": "ON 12/24 AND 12/31, THIS BOX MAY BE COLLECTED AS EARLY AS 12 NOON.", "nsi_id": "unitedstatespostalservice-a77078", "operator": "United States Postal Service", "operator:short": "USPS", "operator:type": "public", "operator:wikidata": "Q668687", "ref": "0690200138"}, "type": "Feature"}
{"dataset_attributes": {"@spider": "usps_collection_boxes", "spider:collection_time": "2023-10-25T08:26:15.836184"}, "geometry": {"coordinates": [-73.5668899, 41.104018], "type": "Point"}, "id": "ccGfp0PnwTG_ykB75hd4jx-Z-bs=", "properties": {"@spider": "usps_collection_boxes", "addr:city": "STAMFORD", "addr:country": "US", "addr:full": "1028 LONG RIDGE RD", "addr:postcode": "06903", "addr:state": "CT", "amenity": "post_box", "brand": "United States Postal Service", "brand:wikidata": "Q668687", "collection_times": "Mo-Fr 13:00; Sa 12:00", "name": "USPS COLLECTION BOX - BLUE BOX", "note": "ON 12/24 AND 12/31, THIS BOX MAY BE COLLECTED AS EARLY AS 12 NOON.", "nsi_id": "unitedstatespostalservice-a77078", "operator": "United States Postal Service", "operator:short": "USPS", "operator:type": "public", "operator:wikidata": "Q668687", "ref": "0690300002"}, "type": "Feature"}
{"dataset_attributes": {"@spider": "usps_collection_boxes", "spider:collection_time": "2023-10-25T08:26:15.836184"}, "geometry": {"coordinates": [-73.544596418, 41.123834084], "type": "Point"}, "id": "LZMeRqnvKg4cYgCLTd9vhWlqqPs=", "properties": {"@spider": "usps_collection_boxes", "addr:city": "STAMFORD", "addr:country": "US", "addr:full": "1530 HIGH RIDGE RD", "addr:postcode": "06903", "addr:state": "CT", "amenity": "post_box", "brand": "United States Postal Service", "brand:wikidata": "Q668687", "collection_times": "Mo-Sa 12:00", "name": "USPS COLLECTION BOX - BLUE BOX", "nsi_id": "unitedstatespostalservice-a77078", "operator": "United States Postal Service", "operator:short": "USPS", "operator:type": "public", "operator:wikidata": "Q668687", "ref": "0690300006"}, "type": "Feature"}
{"dataset_attributes": {"@spider": "usps_collection_boxes", "spider:collection_time": "2023-10-25T08:26:15.836184"}, "geometry": {"coordinates": [-73.5893399137, 41.1453616486], "type": "Point"}, "id": "9KWI3HgjYjn6c5Z7a0EAmhC1Je4=", "properties": {"@spider": "usps_collection_boxes", "addr:city": "STAMFORD", "addr:country": "US", "addr:full": "105 OLD LONG RIDGE RD", "addr:postcode": "06903", "addr:state": "CT", "amenity": "post_box", "brand": "United States Postal Service", "brand:wikidata": "Q668687", "collection_times": "Mo-Fr 13:00", "name": "USPS COLLECTION BOX - BLUE BOX", "note": "ON 12/24 AND 12/31, THIS BOX MAY BE COLLECTED AS EARLY AS 12 NOON.", "nsi_id": "unitedstatespostalservice-a77078", "operator": "United States Postal Service", "operator:short": "USPS", "operator:type": "public", "operator:wikidata": "Q668687", "ref": "0690300007"}, "type": "Feature"}
{"dataset_attributes": {"@spider": "usps_collection_boxes", "spider:collection_time": "2023-10-25T08:26:15.836184"}, "geometry": {"coordinates": [-73.541997, 41.065119], "type": "Point"}, "id": "Bc3TGPFhSGYmb_IidD6HtCZW-SM=", "properties": {"@spider": "usps_collection_boxes", "addr:city": "STAMFORD", "addr:country": "US", "addr:full": "1642 BEDFORD ST", "addr:postcode": "06905", "addr:state": "CT", "amenity": "post_box", "brand": "United States Postal Service", "brand:wikidata": "Q668687", "collection_times": "Mo-Fr 15:00; Sa 16:00", "name": "USPS COLLECTION BOX - BLUE BOX", "note": "ON 12/24 AND 12/31, THIS BOX MAY BE COLLECTED AS EARLY AS 12 NOON.", "nsi_id": "unitedstatespostalservice-a77078", "operator": "United States Postal Service", "operator:short": "USPS", "operator:type": "public", "operator:wikidata": "Q668687", "ref": "0690500005"}, "type": "Feature"}
{"dataset_attributes": {"@spider": "usps_collection_boxes", "spider:collection_time": "2023-10-25T08:26:15.836184"}, "geometry": {"coordinates": [-73.5312238, 41.07691], "type": "Point"}, "id": "rGQHvZlnAv9k54ja0x7K-IByjTM=", "properties": {"@spider": "usps_collection_boxes", "addr:city": "STAMFORD", "addr:country": "US", "addr:full": "31 BELLTOWN RD", "addr:postcode": "06905", "addr:state": "CT", "amenity": "post_box", "brand": "United States Postal Service", "brand:wikidata": "Q668687", "collection_times": "Mo-Sa 10:00", "name": "USPS COLLECTION BOX - BLUE BOX", "nsi_id": "unitedstatespostalservice-a77078", "operator": "United States Postal Service", "operator:short": "USPS", "operator:type": "public", "operator:wikidata": "Q668687", "ref": "0690500007"}, "type": "Feature"}
{"dataset_attributes": {"@spider": "usps_collection_boxes", "spider:collection_time": "2023-10-25T08:26:15.836184"}, "geometry": {"coordinates": [-73.5492973, 41.076121], "type": "Point"}, "id": "Y25zRrlWAPHvWf1HsPR0-5Mz_WY=", "properties": {"@spider": "usps_collection_boxes", "addr:city": "STAMFORD", "addr:country": "US", "addr:full": "123 HIGH RIDGE RD", "addr:postcode": "06905", "addr:state": "CT", "amenity": "post_box", "brand": "United States Postal Service", "brand:wikidata": "Q668687", "collection_times": "Mo-Sa 11:00", "name": "USPS COLLECTION BOX - BLUE BOX", "nsi_id": "unitedstatespostalservice-a77078", "operator": "United States Postal Service", "operator:short": "USPS", "operator:type": "public", "operator:wikidata": "Q668687", "ref": "0690500011"}, "type": "Feature"}
{"dataset_attributes": {"@spider": "usps_collection_boxes", "spider:collection_time": "2023-10-25T08:26:15.836184"}, "geometry": {"coordinates": [-73.5472559, 41.108007], "type": "Point"}, "id": "P0I7XYv_4RK05MB4a1tkQLKEmYs=", "properties": {"@spider": "usps_collection_boxes", "addr:city": "STAMFORD", "addr:country": "US", "addr:full": "1081 HIGH RIDGE RD", "addr:postcode": "06905", "addr:state": "CT", "amenity": "post_box", "brand": "United States Postal Service", "brand:wikidata": "Q668687", "collection_times": "Mo-Sa 11:00", "name": "USPS COLLECTION BOX - BLUE BOX", "nsi_id": "unitedstatespostalservice-a77078", "operator": "United States Postal Service", "operator:short": "USPS", "operator:type": "public", "operator:wikidata": "Q668687", "ref": "0690500022"}, "type": "Feature"}
{"dataset_attributes": {"@spider": "usps_collection_boxes", "spider:collection_time": "2023-10-25T08:26:15.836184"}, "geometry": {"coordinates": [-73.546983279, 41.109997838], "type": "Point"}, "id": "WYWTr_f2JhWYFIeUFSwgKN5m16I=", "properties": {"@spider": "usps_collection_boxes", "addr:city": "STAMFORD", "addr:country": "US", "addr:full": "1211 HIGH RIDGE RD", "addr:postcode": "06905", "addr:state": "CT", "amenity": "post_box", "brand": "United States Postal Service", "brand:wikidata": "Q668687", "collection_times": "Mo-Fr 15:00; Sa 12:00", "name": "USPS COLLECTION BOX - BLUE BOX", "note": "ON 12/24 AND 12/31, THIS BOX MAY BE COLLECTED AS EARLY AS 12 NOON.", "nsi_id": "unitedstatespostalservice-a77078", "operator": "United States Postal Service", "operator:short": "USPS", "operator:type": "public", "operator:wikidata": "Q668687", "ref": "0690500027"}, "type": "Feature"}
{"dataset_attributes": {"@spider": "usps_collection_boxes", "spider:collection_time": "2023-10-25T08:26:15.836184"}, "geometry": {"coordinates": [-73.53620133, 41.061056798], "type": "Point"}, "id": "dSoaC0tUjQTasO-FYs3qs6-KqYg=", "properties": {"@spider": "usps_collection_boxes", "addr:city": "STAMFORD", "addr:country": "US", "addr:full": "115 HOYT ST", "addr:postcode": "06905", "addr:state": "CT", "amenity": "post_box", "brand": "United States Postal Service", "brand:wikidata": "Q668687", "collection_times": "Mo-Sa 15:00", "name": "USPS COLLECTION BOX - BLUE BOX", "note": "ON 12/24 AND 12/31, THIS BOX MAY BE COLLECTED AS EARLY AS 12 NOON.", "nsi_id": "unitedstatespostalservice-a77078", "operator": "United States Postal Service", "operator:short": "USPS", "operator:type": "public", "operator:wikidata": "Q668687", "ref": "0690500028"}, "type": "Feature"}
{"dataset_attributes": {"@spider": "usps_collection_boxes", "spider:collection_time": "2023-10-25T08:26:15.836184"}, "geometry": {"coordinates": [-73.5338486, 41.080284], "type": "Point"}, "id": "R3Ru1vzLn9B3IYFMeCWeKpnwX_I=", "properties": {"@spider": "usps_collection_boxes", "addr:city": "STAMFORD", "addr:country": "US", "addr:full": "591 NEWFIELD AVE", "addr:postcode": "06905", "addr:state": "CT", "amenity": "post_box", "brand": "United States Postal Service", "brand:wikidata": "Q668687", "collection_times": "Mo-Fr 15:00; Sa 12:00", "name": "USPS COLLECTION BOX - BLUE BOX", "note": "ON 12/24 AND 12/31, THIS BOX MAY BE COLLECTED AS EARLY AS 12 NOON.", "nsi_id": "unitedstatespostalservice-a77078", "operator": "United States Postal Service", "operator:short": "USPS", "operator:type": "public", "operator:wikidata": "Q668687", "ref": "0690500030"}, "type": "Feature"}
{"dataset_attributes": {"@spider": "usps_collection_boxes", "spider:collection_time": "2023-10-25T08:26:15.836184"}, "geometry": {"coordinates": [-73.5489408, 41.072209], "type": "Point"}, "id": "9d-Q574DoEVHmDHBizayuaBqTB8=", "properties": {"@spider": "usps_collection_boxes", "addr:city": "STAMFORD", "addr:country": "US", "addr:full": "19 HIGH RIDGE RD", "addr:postcode": "06905", "addr:state": "CT", "amenity": "post_box", "brand": "United States Postal Service", "brand:wikidata": "Q668687", "collection_times": "Mo-Fr 17:00; Sa 14:00", "name": "USPS COLLECTION BOX - BLUE BOX", "note": "ON 12/24 AND 12/31, THIS BOX MAY BE COLLECTED AS EARLY AS 12 NOON.", "nsi_id": "unitedstatespostalservice-a77078", "operator": "United States Postal Service", "operator:short": "USPS", "operator:type": "public", "operator:wikidata": "Q668687", "ref": "0690500034"}, "type": "Feature"}
{"dataset_attributes": {"@spider": "usps_collection_boxes", "spider:collection_time": "2023-10-25T08:26:15.836184"}, "geometry": {"coordinates": [-73.5416685, 41.061069], "type": "Point"}, "id": "bXNk4apftA2WdgeAyRdvrLNET6s=", "properties": {"@spider": "usps_collection_boxes", "addr:city": "STAMFORD", "addr:country": "US", "addr:full": "1200 SUMMER ST", "addr:postcode": "06905", "addr:state": "CT", "amenity": "post_box", "brand": "United States Postal Service", "brand:wikidata": "Q668687", "collection_times": "Mo-Fr 13:00; Sa 12:00", "name": "USPS COLLECTION BOX - BLUE BOX", "note": "ON 12/24 AND 12/31, THIS BOX MAY BE COLLECTED AS EARLY AS 12 NOON.", "nsi_id": "unitedstatespostalservice-a77078", "operator": "United States Postal Service", "operator:short": "USPS", "operator:type": "public", "operator:wikidata": "Q668687", "ref": "0690500043"}, "type": "Feature"}
{"dataset_attributes": {"@spider": "usps_collection_boxes", "spider:collection_time": "2023-10-25T08:26:15.836184"}, "geometry": {"coordinates": [-73.5453337, 41.066624], "type": "Point"}, "id": "JIY-CRaAUEM7H_gpKu_DYgPQrzM=", "properties": {"@spider": "usps_collection_boxes", "addr:city": "STAMFORD", "addr:country": "US", "addr:full": "2080 SUMMER ST", "addr:postcode": "06905", "addr:state": "CT", "amenity": "post_box", "brand": "United States Postal Service", "brand:wikidata": "Q668687", "collection_times": "Mo-Fr 15:00; Sa 16:00", "name": "USPS COLLECTION BOX - BLUE BOX", "note": "ON 12/24 AND 12/31, THIS BOX MAY BE COLLECTED AS EARLY AS 12 NOON.", "nsi_id": "unitedstatespostalservice-a77078", "operator": "United States Postal Service", "operator:short": "USPS", "operator:type": "public", "operator:wikidata": "Q668687", "ref": "0690500060"}, "type": "Feature"}
{"dataset_attributes": {"@spider": "usps_collection_boxes", "spider:collection_time": "2023-10-25T08:26:15.836184"}, "geometry": {"coordinates": [-73.5494249091, 41.0698410242], "type": "Point"}, "id": "X5An7lZGEM2sfMGPTmshbAFAQsA=", "properties": {"@spider": "usps_collection_boxes", "addr:city": "STAMFORD", "addr:country": "US", "addr:full": "2777 SUMMER ST", "addr:postcode": "06905", "addr:state": "CT", "amenity": "post_box", "brand": "United States Postal Service", "brand:wikidata": "Q668687", "collection_times": "Mo-Sa 11:00", "name": "USPS COLLECTION BOX - BLUE BOX", "nsi_id": "unitedstatespostalservice-a77078", "operator": "United States Postal Service", "operator:short": "USPS", "operator:type": "public", "operator:wikidata": "Q668687", "ref": "0690500064"}, "type": "Feature"}
{"dataset_attributes": {"@spider": "usps_collection_boxes", "spider:collection_time": "2023-10-25T08:26:15.836184"}, "geometry": {"coordinates": [-73.549058866, 41.072475287], "type": "Point"}, "id": "J1LmrZBOh_PMzLqE9Y_lYYF6804=", "properties": {"@spider": "usps_collection_boxes", "addr:city": "STAMFORD", "addr:country": "US", "addr:full": "19 HIGH RIDGE RD", "addr:postcode": "06905", "addr:state": "CT", "amenity": "post_box", "brand": "United States Postal Service", "brand:wikidata": "Q668687", "collection_times": "Mo-Fr 16:30; Sa 14:00", "name": "USPS COLLECTION BOX - EXPRESS", "note": "ON 12/24 AND 12/31, THIS BOX MAY BE COLLECTED AS EARLY AS 12 NOON.", "nsi_id": "unitedstatespostalservice-a77078", "operator": "United States Postal Service", "operator:short": "USPS", "operator:type": "public", "operator:wikidata": "Q668687", "ref": "0690500073"}, "type": "Feature"}
{"dataset_attributes": {"@spider": "usps_collection_boxes", "spider:collection_time": "2023-10-25T08:26:15.836184"}, "geometry": {"coordinates": [-73.5487343, 41.072314], "type": "Point"}, "id": "mHvgttni8yraW5ocjWVZQIgzkus=", "properties": {"@spider": "usps_collection_boxes", "addr:city": "STAMFORD", "addr:country": "US", "addr:full": "19 HIGH RIDGE RD", "addr:postcode": "06905", "addr:state": "CT", "amenity": "post_box", "brand": "United States Postal Service", "brand:wikidata": "Q668687", "collection_times": "Mo-Fr 17:00; Sa 14:00", "name": "USPS COLLECTION BOX - PO LOBBY", "note": "ON 12/24 AND 12/31, THIS BOX MAY BE COLLECTED AS EARLY AS 12 NOON.", "nsi_id": "unitedstatespostalservice-a77078", "operator": "United States Postal Service", "operator:short": "USPS", "operator:type": "public", "operator:wikidata": "Q668687", "ref": "0690500075"}, "type": "Feature"}
{"dataset_attributes": {"@spider": "usps_collection_boxes", "spider:collection_time": "2023-10-25T08:26:15.836184"}, "geometry": {"coordinates": [-73.5415799, 41.065257], "type": "Point"}, "id": "RV4YhzCN5S5p8qkZCw8KhARL1CU=", "properties": {"@spider": "usps_collection_boxes", "addr:city": "STAMFORD", "addr:country": "US", "addr:full": "1642 BEDFORD ST", "addr:postcode": "06905", "addr:state": "CT", "amenity": "post_box", "brand": "United States Postal Service", "brand:wikidata": "Q668687", "collection_times": "Mo-Fr 15:00; Sa 12:00", "name": "USPS COLLECTION BOX - BLUE BOX", "note": "ON 12/24 AND 12/31, THIS BOX MAY BE COLLECTED AS EARLY AS 12 NOON.", "nsi_id": "unitedstatespostalservice-a77078", "operator": "United States Postal Service", "operator:short": "USPS", "operator:type": "public", "operator:wikidata": "Q668687", "ref": "0690500076"}, "type": "Feature"}
{"dataset_attributes": {"@spider": "usps_collection_boxes", "spider:collection_time": "2023-10-25T08:26:15.836184"}, "geometry": {"coordinates": [-73.554676, 41.06819], "type": "Point"}, "id": "XGldHdDFvzT_ei7PFnye5W6GgEk=", "properties": {"@spider": "usps_collection_boxes", "addr:city": "STAMFORD", "addr:country": "US", "addr:full": "154 COLD SPRING RD", "addr:postcode": "06905", "addr:state": "CT", "amenity": "post_box", "brand": "United States Postal Service", "brand:wikidata": "Q668687", "collection_times": "Mo-Sa 12:30", "name": "USPS COLLECTION BOX - BLUE BOX", "note": "ON 12/24 AND 12/31, THIS BOX MAY BE COLLECTED AS EARLY AS 12 NOON.", "nsi_id": "unitedstatespostalservice-a77078", "operator": "United States Postal Service", "operator:short": "USPS", "operator:type": "public", "operator:wikidata": "Q668687", "ref": "0690500077"}, "type": "Feature"}
{"dataset_attributes": {"@spider": "usps_collection_boxes", "spider:collection_time": "2023-10-25T08:26:15.836184"}, "geometry": {"coordinates": [-73.549058796, 41.07247528], "type": "Point"}, "id": "kYiRs54LjCGv84Js5AZGphiQOyQ=", "properties": {"@spider": "usps_collection_boxes", "addr:city": "STAMFORD", "addr:country": "US", "addr:full": "19 HIGH RIDGE RD", "addr:postcode": "06905", "addr:state": "CT", "amenity": "post_box", "brand": "United States Postal Service", "brand:wikidata": "Q668687", "collection_times": "Mo-Fr 17:00; Sa 14:00", "name": "USPS COLLECTION BOX - PO LOBBY", "note": "ON 12/24 AND 12/31, THIS BOX MAY BE COLLECTED AS EARLY AS 12 NOON.", "nsi_id": "unitedstatespostalservice-a77078", "operator": "United States Postal Service", "operator:short": "USPS", "operator:type": "public", "operator:wikidata": "Q668687", "ref": "0690500088"}, "type": "Feature"}
{"dataset_attributes": {"@spider": "usps_collection_boxes", "spider:collection_time": "2023-10-25T08:26:15.836184"}, "geometry": {"coordinates": [-73.5168757323, 41.0703590025], "type": "Point"}, "id": "Uh0yLXX_MYCvWKSpNxOTbug1zsU=", "properties": {"@spider": "usps_collection_boxes", "addr:city": "STAMFORD", "addr:country": "US", "addr:full": "61 CRESCENT ST", "addr:postcode": "06906", "addr:state": "CT", "amenity": "post_box", "brand": "United States Postal Service", "brand:wikidata": "Q668687", "collection_times": "Mo-Sa 10:00", "name": "USPS COLLECTION BOX - BLUE BOX", "nsi_id": "unitedstatespostalservice-a77078", "operator": "United States Postal Service", "operator:short": "USPS", "operator:type": "public", "operator:wikidata": "Q668687", "ref": "0690600003"}, "type": "Feature"}
{"dataset_attributes": {"@spider": "usps_collection_boxes", "spider:collection_time": "2023-10-25T08:26:15.836184"}, "geometry": {"coordinates": [-73.5240442, 41.072482], "type": "Point"}, "id": "EPgb_3V6U58uuDmi7kc8fiDJ4WI=", "properties": {"@spider": "usps_collection_boxes", "addr:city": "STAMFORD", "addr:country": "US", "addr:full": "370 HOPE ST", "addr:postcode": "06906", "addr:state": "CT", "amenity": "post_box", "brand": "United States Postal Service", "brand:wikidata": "Q668687", "collection_times": "Mo-Fr 17:00; Sa 16:00", "name": "USPS COLLECTION BOX - BLUE BOX", "note": "ON 12/24 AND 12/31, THIS BOX MAY BE COLLECTED AS EARLY AS 12 NOON.", "nsi_id": "unitedstatespostalservice-a77078", "operator": "United States Postal Service", "operator:short": "USPS", "operator:type": "public", "operator:wikidata": "Q668687", "ref": "0690600013"}, "type": "Feature"}
{"dataset_attributes": {"@spider": "usps_collection_boxes", "spider:collection_time": "2023-10-25T08:26:15.836184"}, "geometry": {"coordinates": [-73.524297, 41.072522], "type": "Point"}, "id": "5PyWIRHqcMlGKnDHTDBvqhduKQY=", "properties": {"@spider": "usps_collection_boxes", "addr:city": "STAMFORD", "addr:country": "US", "addr:full": "370 HOPE ST", "addr:postcode": "06906", "addr:state": "CT", "amenity": "post_box", "brand": "United States Postal Service", "brand:wikidata": "Q668687", "collection_times": "Mo-Fr 17:00", "name": "USPS COLLECTION BOX - PO LOBBY", "note": "ON 12/24 AND 12/31, THIS BOX MAY BE COLLECTED AS EARLY AS 12 NOON.", "nsi_id": "unitedstatespostalservice-a77078", "operator": "United States Postal Service", "operator:short": "USPS", "operator:type": "public", "operator:wikidata": "Q668687", "ref": "0690600020"}, "type": "Feature"}
{"dataset_attributes": {"@spider": "usps_collection_boxes", "spider:collection_time": "2023-10-25T08:26:15.836184"}, "geometry": {"coordinates": [-73.523882743, 41.072446648], "type": "Point"}, "id": "-vWTpaNBPKpEGZRijkVsGrfk8FI=", "properties": {"@spider": "usps_collection_boxes", "addr:city": "STAMFORD", "addr:country": "US", "addr:full": "370 HOPE ST", "addr:postcode": "06906", "addr:state": "CT", "amenity": "post_box", "brand": "United States Postal Service", "brand:wikidata": "Q668687", "collection_times": "Mo-Fr 17:30", "name": "USPS COLLECTION BOX - PO LOBBY", "note": "ON 12/24 AND 12/31, THIS BOX MAY BE COLLECTED AS EARLY AS 12 NOON.", "nsi_id": "unitedstatespostalservice-a77078", "operator": "United States Postal Service", "operator:short": "USPS", "operator:type": "public", "operator:wikidata": "Q668687", "ref": "0690600024"}, "type": "Feature"}
{"dataset_attributes": {"@spider": "usps_collection_boxes", "spider:collection_time": "2023-10-25T08:26:15.836184"}, "geometry": {"coordinates": [-73.517641648, 41.095447452], "type": "Point"}, "id": "RpnlD37A0Rrlph4NDlnRFBHgRGI=", "properties": {"@spider": "usps_collection_boxes", "addr:city": "STAMFORD", "addr:country": "US", "addr:full": "24 CAMP AVE", "addr:postcode": "06907", "addr:state": "CT", "amenity": "post_box", "brand": "United States Postal Service", "brand:wikidata": "Q668687", "collection_times": "Mo-Fr 16:30; Sa 16:00", "name": "USPS COLLECTION BOX - EXPRESS", "note": "ON 12/24 AND 12/31, THIS BOX MAY BE COLLECTED AS EARLY AS 12 NOON.", "nsi_id": "unitedstatespostalservice-a77078", "operator": "United States Postal Service", "operator:short": "USPS", "operator:type": "public", "operator:wikidata": "Q668687", "ref": "0690700017"}, "type": "Feature"}
{"dataset_attributes": {"@spider": "usps_collection_boxes", "spider:collection_time": "2023-10-25T08:26:15.836184"}, "geometry": {"coordinates": [-73.5180021, 41.096159], "type": "Point"}, "id": "V0qkswxOXCXseOdHnOuyJ-urX4k=", "properties": {"@spider": "usps_collection_boxes", "addr:city": "STAMFORD", "addr:country": "US", "addr:full": "24 CAMP AVE", "addr:postcode": "06907", "addr:state": "CT", "amenity": "post_box", "brand": "United States Postal Service", "brand:wikidata": "Q668687", "collection_times": "Mo-Fr 17:00; Sa 16:00", "name": "USPS COLLECTION BOX - PO LOBBY", "note": "ON 12/24 AND 12/31, THIS BOX MAY BE COLLECTED AS EARLY AS 12 NOON.", "nsi_id": "unitedstatespostalservice-a77078", "operator": "United States Postal Service", "operator:short": "USPS", "operator:type": "public", "operator:wikidata": "Q668687", "ref": "0690700018"}, "type": "Feature"}
{"dataset_attributes": {"@spider": "usps_collection_boxes", "spider:collection_time": "2023-10-25T08:26:15.836184"}, "geometry": {"coordinates": [-73.517641648, 41.095447452], "type": "Point"}, "id": "xtX5O-gMaFoJzXeTOMlsknV7mbs=", "properties": {"@spider": "usps_collection_boxes", "addr:city": "STAMFORD", "addr:country": "US", "addr:full": "24 CAMP AVE", "addr:postcode": "06907", "addr:state": "CT", "amenity": "post_box", "brand": "United States Postal Service", "brand:wikidata": "Q668687", "collection_times": "Mo-Fr 16:30; Sa 16:00", "name": "USPS COLLECTION BOX - BLUE BOX", "note": "ON 12/24 AND 12/31, THIS BOX MAY BE COLLECTED AS EARLY AS 12 NOON.", "nsi_id": "unitedstatespostalservice-a77078", "operator": "United States Postal Service", "operator:short": "USPS", "operator:type": "public", "operator:wikidata": "Q668687", "ref": "0690700020"}, "type": "Feature"}
{"dataset_attributes": {"@spider": "usps_collection_boxes", "spider:collection_time": "2023-10-25T08:26:15.836184"}, "geometry": {"coordinates": [-73.518705, 41.087682], "type": "Point"}, "id": "LASxaTqacONbRyH8vQiVswop4wk=", "properties": {"@spider": "usps_collection_boxes", "addr:city": "STAMFORD", "addr:country": "US", "addr:full": "2 OMEGA DR", "addr:postcode": "06907", "addr:state": "CT", "amenity": "post_box", "brand": "United States Postal Service", "brand:wikidata": "Q668687", "collection_times": "Mo-Fr 11:00", "name": "USPS COLLECTION BOX - BLUE BOX", "nsi_id": "unitedstatespostalservice-a77078", "operator": "United States Postal Service", "operator:short": "USPS", "operator:type": "public", "operator:wikidata": "Q668687", "ref": "0690700021"}, "type": "Feature"}
{"dataset_attributes": {"@spider": "usps_collection_boxes", "spider:collection_time": "2023-10-25T08:26:15.836184"}, "geometry": {"coordinates": [-73.5180966, 41.096203], "type": "Point"}, "id": "_lrDf0fI0C1TFdBvguP3w3kWkcs=", "properties": {"@spider": "usps_collection_boxes", "addr:city": "STAMFORD", "addr:country": "US", "addr:full": "24 CAMP AVE", "addr:postcode": "06907", "addr:state": "CT", "amenity": "post_box", "brand": "United States Postal Service", "brand:wikidata": "Q668687", "collection_times": "Mo-Fr 17:00; Sa 16:00", "name": "USPS COLLECTION BOX - APC", "note": "ON 12/24 AND 12/31, THIS BOX MAY BE COLLECTED AS EARLY AS 12 NOON.", "nsi_id": "unitedstatespostalservice-a77078", "operator": "United States Postal Service", "operator:short": "USPS", "operator:type": "public", "operator:wikidata": "Q668687", "ref": "0690700023"}, "type": "Feature"}
{"dataset_attributes": {"@spider": "usps_collection_boxes", "spider:collection_time": "2023-10-25T08:26:15.836184"}, "geometry": {"coordinates": [-73.517651706, 41.095447452], "type": "Point"}, "id": "QDZsIrBnTvMoNJVI7A-Px_3Jw_o=", "properties": {"@spider": "usps_collection_boxes", "addr:city": "STAMFORD", "addr:country": "US", "addr:full": "24 CAMP AVE", "addr:postcode": "06907", "addr:state": "CT", "amenity": "post_box", "brand": "United States Postal Service", "brand:wikidata": "Q668687", "collection_times": "Mo-Sa 18:00", "name": "USPS COLLECTION BOX - PO LOBBY", "note": "ON 12/24 AND 12/31, THIS BOX MAY BE COLLECTED AS EARLY AS 12 NOON.", "nsi_id": "unitedstatespostalservice-a77078", "operator": "United States Postal Service", "operator:short": "USPS", "operator:type": "public", "operator:wikidata": "Q668687", "ref": "0690700026"}, "type": "Feature"}
