{"dataset_attributes": {"@spider": "usps_collection_boxes", "spider:collection_time": "2023-10-07T08:22:43.442925"}, "geometry": {"coordinates": [-74.1697006594, 40.7359825346], "type": "Point"}, "id": "yJ3z6KVLagAUNUoD6A3-L_AT8Ao=", "properties": {"@spider": "usps_collection_boxes", "addr:city": "NEWARK", "addr:country": "US", "addr:full": "40 CLINTON ST STE L", "addr:postcode": "07102", "addr:state": "NJ", "amenity": "post_box", "brand": "United States Postal Service", "brand:wikidata": "Q668687", "collection_times": "Mo-Fr 17:00", "name": "USPS COLLECTION BOX - PO LOBBY", "note": "ON 12/24 AND 12/31, THIS BOX MAY BE COLLECTED AS EARLY AS 12 NOON.", "nsi_id": "unitedstatespostalservice-a77078", "operator": "United States Postal Service", "operator:short": "USPS", "operator:type": "public", "operator:wikidata": "Q668687", "ref": "0710200145"}, "type": "Feature"}
{"dataset_attributes": {"@spider": "usps_collection_boxes", "spider:collection_time": "2023-10-07T08:22:43.442925"}, "geometry": {"coordinates": [-74.173626924, 40.731192163], "type": "Point"}, "id": "UggUwWPtKTKOE9i1wluwioGHzIQ=", "properties": {"@spider": "usps_collection_boxes", "addr:city": "NEWARK", "addr:country": "US", "addr:full": "2 FEDERAL SQ", "addr:postcode": "07102", "addr:state": "NJ", "amenity": "post_box", "brand": "United States Postal Service", "brand:wikidata": "Q668687", "collection_times": "Mo-Fr 17:00; Sa 15:00", "name": "USPS COLLECTION BOX - PO LOBBY", "note": "ON 12/24 AND 12/31, THIS BOX MAY BE COLLECTED AS EARLY AS 12 NOON.", "nsi_id": "unitedstatespostalservice-a77078", "operator": "United States Postal Service", "operator:short": "USPS", "operator:type": "public", "operator:wikidata": "Q668687", "ref": "0710200146"}, "type": "Feature"}
{"dataset_attributes": {"@spider": "usps_collection_boxes", "spider:collection_time": "2023-10-07T08:22:43.442925"}, "geometry": {"coordinates": [-74.175028607, 40.730640984], "type": "Point"}, "id": "An2Ok0S6x23OXYgAI-w77VoeQAE=", "properties": {"@spider": "usps_collection_boxes", "addr:city": "NEWARK", "addr:country": "US", "addr:full": "1 COURT ST", "addr:postcode": "07102", "addr:state": "NJ", "amenity": "post_box", "brand": "United States Postal Service", "brand:wikidata": "Q668687", "collection_times": "Mo-Sa 13:00", "name": "USPS COLLECTION BOX - BLUE BOX", "note": "ON 12/24 AND 12/31, THIS BOX MAY BE COLLECTED AS EARLY AS 12 NOON.", "nsi_id": "unitedstatespostalservice-a77078", "operator": "United States Postal Service", "operator:short": "USPS", "operator:type": "public", "operator:wikidata": "Q668687", "ref": "0710200151"}, "type": "Feature"}
{"dataset_attributes": {"@spider": "usps_collection_boxes", "spider:collection_time": "2023-10-07T08:22:43.442925"}, "geometry": {"coordinates": [-74.174969355, 40.731586629], "type": "Point"}, "id": "Hm4QkrcA6pw1eTa4Kc_Z_oEOLWA=", "properties": {"@spider": "usps_collection_boxes", "addr:city": "NEWARK", "addr:country": "US", "addr:full": "10 HILL ST", "addr:postcode": "07102", "addr:state": "NJ", "amenity": "post_box", "brand": "United States Postal Service", "brand:wikidata": "Q668687", "collection_times": "Mo-Sa 13:00", "name": "USPS COLLECTION BOX - BLUE BOX", "note": "ON 12/24 AND 12/31, THIS BOX MAY BE COLLECTED AS EARLY AS 12 NOON.", "nsi_id": "unitedstatespostalservice-a77078", "operator": "United States Postal Service", "operator:short": "USPS", "operator:type": "public", "operator:wikidata": "Q668687", "ref": "0710200152"}, "type": "Feature"}
{"dataset_attributes": {"@spider": "usps_collection_boxes", "spider:collection_time": "2023-10-07T08:22:43.442925"}, "geometry": {"coordinates": [-74.175134611, 40.742400655], "type": "Point"}, "id": "BfDE5m5d4WbYlaMXMiq2PereRqg=", "properties": {"@spider": "usps_collection_boxes", "addr:city": "NEWARK", "addr:country": "US", "addr:full": "101 BLEEKER ST", "addr:postcode": "07102", "addr:state": "NJ", "amenity": "post_box", "brand": "United States Postal Service", "brand:wikidata": "Q668687", "collection_times": "Mo-Sa 13:00", "name": "USPS COLLECTION BOX - BLUE BOX", "note": "ON 12/24 AND 12/31, THIS BOX MAY BE COLLECTED AS EARLY AS 12 NOON.", "nsi_id": "unitedstatespostalservice-a77078", "operator": "United States Postal Service", "operator:short": "USPS", "operator:type": "public", "operator:wikidata": "Q668687", "ref": "0710200153"}, "type": "Feature"}
{"dataset_attributes": {"@spider": "usps_collection_boxes", "spider:collection_time": "2023-10-07T08:22:43.442925"}, "geometry": {"coordinates": [-74.177369469, 40.726499585], "type": "Point"}, "id": "P5YNozPa4GiGNb4trBVgMMjbJlM=", "properties": {"@spider": "usps_collection_boxes", "addr:city": "NEWARK", "addr:country": "US", "addr:full": "1060 BROAD ST", "addr:postcode": "07102", "addr:state": "NJ", "amenity": "post_box", "brand": "United States Postal Service", "brand:wikidata": "Q668687", "collection_times": "Mo-Sa 13:00", "name": "USPS COLLECTION BOX - BLUE BOX", "note": "ON 12/24 AND 12/31, THIS BOX MAY BE COLLECTED AS EARLY AS 12 NOON.", "nsi_id": "unitedstatespostalservice-a77078", "operator": "United States Postal Service", "operator:short": "USPS", "operator:type": "public", "operator:wikidata": "Q668687", "ref": "0710200154"}, "type": "Feature"}
{"dataset_attributes": {"@spider": "usps_collection_boxes", "spider:collection_time": "2023-10-07T08:22:43.442925"}, "geometry": {"coordinates": [-74.170627144, 40.737051744], "type": "Point"}, "id": "RfFIgg3WQ3KtbdWLTclRReNMYlM=", "properties": {"@spider": "usps_collection_boxes", "addr:city": "NEWARK", "addr:country": "US", "addr:full": "11 COMMERCE ST", "addr:postcode": "07102", "addr:state": "NJ", "amenity": "post_box", "brand": "United States Postal Service", "brand:wikidata": "Q668687", "collection_times": "Mo-Sa 13:00", "name": "USPS COLLECTION BOX - BLUE BOX", "note": "ON 12/24 AND 12/31, THIS BOX MAY BE COLLECTED AS EARLY AS 12 NOON.", "nsi_id": "unitedstatespostalservice-a77078", "operator": "United States Postal Service", "operator:short": "USPS", "operator:type": "public", "operator:wikidata": "Q668687", "ref": "0710200155"}, "type": "Feature"}
{"dataset_attributes": {"@spider": "usps_collection_boxes", "spider:collection_time": "2023-10-07T08:22:43.442925"}, "geometry": {"coordinates": [-74.172432469, 40.738210101], "type": "Point"}, "id": "6a0VQKnmqJMPguhvW62B-J64WtM=", "properties": {"@spider": "usps_collection_boxes", "addr:city": "NEWARK", "addr:country": "US", "addr:full": "124 HALSEY ST", "addr:postcode": "07102", "addr:state": "NJ", "amenity": "post_box", "brand": "United States Postal Service", "brand:wikidata": "Q668687", "collection_times": "Mo-Sa 13:00", "name": "USPS COLLECTION BOX - BLUE BOX", "note": "ON 12/24 AND 12/31, THIS BOX MAY BE COLLECTED AS EARLY AS 12 NOON.", "nsi_id": "unitedstatespostalservice-a77078", "operator": "United States Postal Service", "operator:short": "USPS", "operator:type": "public", "operator:wikidata": "Q668687", "ref": "0710200156"}, "type": "Feature"}
{"dataset_attributes": {"@spider": "usps_collection_boxes", "spider:collection_time": "2023-10-07T08:22:43.442925"}, "geometry": {"coordinates": [-74.172432469, 40.738210101], "type": "Point"}, "id": "1pVuB0-J7omm-XPrBdzACEYkdzo=", "properties": {"@spider": "usps_collection_boxes", "addr:city": "NEWARK", "addr:country": "US", "addr:full": "124 HALSEY ST", "addr:postcode": "07102", "addr:state": "NJ", "amenity": "post_box", "brand": "United States Postal Service", "brand:wikidata": "Q668687", "collection_times": "Mo-Sa 13:00", "name": "USPS COLLECTION BOX - BLUE BOX", "note": "ON 12/24 AND 12/31, THIS BOX MAY BE COLLECTED AS EARLY AS 12 NOON.", "nsi_id": "unitedstatespostalservice-a77078", "operator": "United States Postal Service", "operator:short": "USPS", "operator:type": "public", "operator:wikidata": "Q668687", "ref": "0710200157"}, "type": "Feature"}
{"dataset_attributes": {"@spider": "usps_collection_boxes", "spider:collection_time": "2023-10-07T08:22:43.442925"}, "geometry": {"coordinates": [-74.17073364, 40.741798632], "type": "Point"}, "id": "_UI3-f2-80u8u-7iPn1LiZ5NSGY=", "properties": {"@spider": "usps_collection_boxes", "addr:city": "NEWARK", "addr:country": "US", "addr:full": "32 CENTRAL AVE", "addr:postcode": "07102", "addr:state": "NJ", "amenity": "post_box", "brand": "United States Postal Service", "brand:wikidata": "Q668687", "collection_times": "Mo-Sa 13:00", "name": "USPS COLLECTION BOX - BLUE BOX", "note": "ON 12/24 AND 12/31, THIS BOX MAY BE COLLECTED AS EARLY AS 12 NOON.", "nsi_id": "unitedstatespostalservice-a77078", "operator": "United States Postal Service", "operator:short": "USPS", "operator:type": "public", "operator:wikidata": "Q668687", "ref": "0710200158"}, "type": "Feature"}
{"dataset_attributes": {"@spider": "usps_collection_boxes", "spider:collection_time": "2023-10-07T08:22:43.442925"}, "geometry": {"coordinates": [-74.172084353, 40.737695843], "type": "Point"}, "id": "5pdoU4t7rw3xKITUWwPIvqLI4D0=", "properties": {"@spider": "usps_collection_boxes", "addr:city": "NEWARK", "addr:country": "US", "addr:full": "1212 RAYMOND BLVD", "addr:postcode": "07102", "addr:state": "NJ", "amenity": "post_box", "brand": "United States Postal Service", "brand:wikidata": "Q668687", "collection_times": "Mo-Sa 13:00", "name": "USPS COLLECTION BOX - BLUE BOX", "note": "ON 12/24 AND 12/31, THIS BOX MAY BE COLLECTED AS EARLY AS 12 NOON.", "nsi_id": "unitedstatespostalservice-a77078", "operator": "United States Postal Service", "operator:short": "USPS", "operator:type": "public", "operator:wikidata": "Q668687", "ref": "0710200159"}, "type": "Feature"}
{"dataset_attributes": {"@spider": "usps_collection_boxes", "spider:collection_time": "2023-10-07T08:22:43.442925"}, "geometry": {"coordinates": [-74.169700659, 40.735982535], "type": "Point"}, "id": "MS-78ofZEFOjcAMiEUwe91-2uTo=", "properties": {"@spider": "usps_collection_boxes", "addr:city": "NEWARK", "addr:country": "US", "addr:full": "40 CLINTON ST", "addr:postcode": "07102", "addr:state": "NJ", "amenity": "post_box", "brand": "United States Postal Service", "brand:wikidata": "Q668687", "collection_times": "Mo-Fr 17:00; Sa 13:00", "name": "USPS COLLECTION BOX - BLUE BOX", "note": "ON 12/24 AND 12/31, THIS BOX MAY BE COLLECTED AS EARLY AS 12 NOON.", "nsi_id": "unitedstatespostalservice-a77078", "operator": "United States Postal Service", "operator:short": "USPS", "operator:type": "public", "operator:wikidata": "Q668687", "ref": "0710200160"}, "type": "Feature"}
{"dataset_attributes": {"@spider": "usps_collection_boxes", "spider:collection_time": "2023-10-07T08:22:43.442925"}, "geometry": {"coordinates": [-74.178581111, 40.726996593], "type": "Point"}, "id": "V5FPu_vNe6dlwmkvaLxzx0GLedA=", "properties": {"@spider": "usps_collection_boxes", "addr:city": "NEWARK", "addr:country": "US", "addr:full": "31 LINCOLN PARK", "addr:postcode": "07102", "addr:state": "NJ", "amenity": "post_box", "brand": "United States Postal Service", "brand:wikidata": "Q668687", "collection_times": "Mo-Sa 13:00", "name": "USPS COLLECTION BOX - BLUE BOX", "note": "ON 12/24 AND 12/31, THIS BOX MAY BE COLLECTED AS EARLY AS 12 NOON.", "nsi_id": "unitedstatespostalservice-a77078", "operator": "United States Postal Service", "operator:short": "USPS", "operator:type": "public", "operator:wikidata": "Q668687", "ref": "0710200161"}, "type": "Feature"}
{"dataset_attributes": {"@spider": "usps_collection_boxes", "spider:collection_time": "2023-10-07T08:22:43.442925"}, "geometry": {"coordinates": [-74.17087269, 40.743492987], "type": "Point"}, "id": "lpqMtuC25Fod8eAKewayuyIBZV8=", "properties": {"@spider": "usps_collection_boxes", "addr:city": "NEWARK", "addr:country": "US", "addr:full": "33 WASHINGTON ST", "addr:postcode": "07102", "addr:state": "NJ", "amenity": "post_box", "brand": "United States Postal Service", "brand:wikidata": "Q668687", "collection_times": "Mo-Sa 13:00", "name": "USPS COLLECTION BOX - BLUE BOX", "note": "ON 12/24 AND 12/31, THIS BOX MAY BE COLLECTED AS EARLY AS 12 NOON.", "nsi_id": "unitedstatespostalservice-a77078", "operator": "United States Postal Service", "operator:short": "USPS", "operator:type": "public", "operator:wikidata": "Q668687", "ref": "0710200162"}, "type": "Feature"}
{"dataset_attributes": {"@spider": "usps_collection_boxes", "spider:collection_time": "2023-10-07T08:22:43.442925"}, "geometry": {"coordinates": [-74.178503941, 40.730425555], "type": "Point"}, "id": "Iepm54vfexr4UfjdPznqykxYsNs=", "properties": {"@spider": "usps_collection_boxes", "addr:city": "NEWARK", "addr:country": "US", "addr:full": "440 WASHINGTON ST", "addr:postcode": "07102", "addr:state": "NJ", "amenity": "post_box", "brand": "United States Postal Service", "brand:wikidata": "Q668687", "collection_times": "Mo-Sa 13:00", "name": "USPS COLLECTION BOX - BLUE BOX", "note": "ON 12/24 AND 12/31, THIS BOX MAY BE COLLECTED AS EARLY AS 12 NOON.", "nsi_id": "unitedstatespostalservice-a77078", "operator": "United States Postal Service", "operator:short": "USPS", "operator:type": "public", "operator:wikidata": "Q668687", "ref": "0710200163"}, "type": "Feature"}
{"dataset_attributes": {"@spider": "usps_collection_boxes", "spider:collection_time": "2023-10-07T08:22:43.442925"}, "geometry": {"coordinates": [-74.170044277, 40.744454724], "type": "Point"}, "id": "DUgMjrGqS7D2eSx8wcuVhjLURm0=", "properties": {"@spider": "usps_collection_boxes", "addr:city": "NEWARK", "addr:country": "US", "addr:full": "5 WASHINGTON ST", "addr:postcode": "07102", "addr:state": "NJ", "amenity": "post_box", "brand": "United States Postal Service", "brand:wikidata": "Q668687", "collection_times": "Mo-Sa 13:00", "name": "USPS COLLECTION BOX - BLUE BOX", "note": "ON 12/24 AND 12/31, THIS BOX MAY BE COLLECTED AS EARLY AS 12 NOON.", "nsi_id": "unitedstatespostalservice-a77078", "operator": "United States Postal Service", "operator:short": "USPS", "operator:type": "public", "operator:wikidata": "Q668687", "ref": "0710200164"}, "type": "Feature"}
{"dataset_attributes": {"@spider": "usps_collection_boxes", "spider:collection_time": "2023-10-07T08:22:43.442925"}, "geometry": {"coordinates": [-74.170044277, 40.744454724], "type": "Point"}, "id": "vf3pFf8v6gXLpQWGpzV6JhhVBjs=", "properties": {"@spider": "usps_collection_boxes", "addr:city": "NEWARK", "addr:country": "US", "addr:full": "5 WASHINGTON ST", "addr:postcode": "07102", "addr:state": "NJ", "amenity": "post_box", "brand": "United States Postal Service", "brand:wikidata": "Q668687", "collection_times": "Mo-Sa 13:00", "name": "USPS COLLECTION BOX - BLUE BOX", "note": "ON 12/24 AND 12/31, THIS BOX MAY BE COLLECTED AS EARLY AS 12 NOON.", "nsi_id": "unitedstatespostalservice-a77078", "operator": "United States Postal Service", "operator:short": "USPS", "operator:type": "public", "operator:wikidata": "Q668687", "ref": "0710200165"}, "type": "Feature"}
{"dataset_attributes": {"@spider": "usps_collection_boxes", "spider:collection_time": "2023-10-07T08:22:43.442925"}, "geometry": {"coordinates": [-74.1685443731, 40.7392106572], "type": "Point"}, "id": "LmbUt_Zec8HBDeThgg6sFnPsNdE=", "properties": {"@spider": "usps_collection_boxes", "addr:city": "NEWARK", "addr:country": "US", "addr:full": "50 PARK PL STE 1", "addr:postcode": "07102", "addr:state": "NJ", "amenity": "post_box", "brand": "United States Postal Service", "brand:wikidata": "Q668687", "collection_times": "Mo-Sa 13:00", "name": "USPS COLLECTION BOX - BLUE BOX", "note": "ON 12/24 AND 12/31, THIS BOX MAY BE COLLECTED AS EARLY AS 12 NOON.", "nsi_id": "unitedstatespostalservice-a77078", "operator": "United States Postal Service", "operator:short": "USPS", "operator:type": "public", "operator:wikidata": "Q668687", "ref": "0710200166"}, "type": "Feature"}
{"dataset_attributes": {"@spider": "usps_collection_boxes", "spider:collection_time": "2023-10-07T08:22:43.442925"}, "geometry": {"coordinates": [-74.169158908, 40.742189067], "type": "Point"}, "id": "rNrown7cmuQyzzkJHTxUsuztdhs=", "properties": {"@spider": "usps_collection_boxes", "addr:city": "NEWARK", "addr:country": "US", "addr:full": "560 BROAD ST", "addr:postcode": "07102", "addr:state": "NJ", "amenity": "post_box", "brand": "United States Postal Service", "brand:wikidata": "Q668687", "collection_times": "Mo-Sa 13:00", "name": "USPS COLLECTION BOX - BLUE BOX", "note": "ON 12/24 AND 12/31, THIS BOX MAY BE COLLECTED AS EARLY AS 12 NOON.", "nsi_id": "unitedstatespostalservice-a77078", "operator": "United States Postal Service", "operator:short": "USPS", "operator:type": "public", "operator:wikidata": "Q668687", "ref": "0710200167"}, "type": "Feature"}
{"dataset_attributes": {"@spider": "usps_collection_boxes", "spider:collection_time": "2023-10-07T08:22:43.442925"}, "geometry": {"coordinates": [-74.1726933271, 40.7375036184], "type": "Point"}, "id": "yngIQ84ZgwjsN83vgrQ95xILQ44=", "properties": {"@spider": "usps_collection_boxes", "addr:city": "NEWARK", "addr:country": "US", "addr:full": "31 ACADEMY ST", "addr:postcode": "07102", "addr:state": "NJ", "amenity": "post_box", "brand": "United States Postal Service", "brand:wikidata": "Q668687", "collection_times": "Mo-Sa 13:00", "name": "USPS COLLECTION BOX - BLUE BOX", "note": "ON 12/24 AND 12/31, THIS BOX MAY BE COLLECTED AS EARLY AS 12 NOON.", "nsi_id": "unitedstatespostalservice-a77078", "operator": "United States Postal Service", "operator:short": "USPS", "operator:type": "public", "operator:wikidata": "Q668687", "ref": "0710200168"}, "type": "Feature"}
{"dataset_attributes": {"@spider": "usps_collection_boxes", "spider:collection_time": "2023-10-07T08:22:43.442925"}, "geometry": {"coordinates": [-74.171394925, 40.736815545], "type": "Point"}, "id": "zHwAEHjyBcMie16Fw7fdtYyGFE0=", "properties": {"@spider": "usps_collection_boxes", "addr:city": "NEWARK", "addr:country": "US", "addr:full": "744 BROAD ST", "addr:postcode": "07102", "addr:state": "NJ", "amenity": "post_box", "brand": "United States Postal Service", "brand:wikidata": "Q668687", "collection_times": "Mo-Sa 13:00", "name": "USPS COLLECTION BOX - BLUE BOX", "note": "ON 12/24 AND 12/31, THIS BOX MAY BE COLLECTED AS EARLY AS 12 NOON.", "nsi_id": "unitedstatespostalservice-a77078", "operator": "United States Postal Service", "operator:short": "USPS", "operator:type": "public", "operator:wikidata": "Q668687", "ref": "0710200169"}, "type": "Feature"}
{"dataset_attributes": {"@spider": "usps_collection_boxes", "spider:collection_time": "2023-10-07T08:22:43.442925"}, "geometry": {"coordinates": [-74.169825239, 40.744893977], "type": "Point"}, "id": "awG9zDkGAl499bxLtJ5vTHxvUlU=", "properties": {"@spider": "usps_collection_boxes", "addr:city": "NEWARK", "addr:country": "US", "addr:full": "494 BROAD ST", "addr:postcode": "07102", "addr:state": "NJ", "amenity": "post_box", "brand": "United States Postal Service", "brand:wikidata": "Q668687", "collection_times": "Mo-Sa 13:00", "name": "USPS COLLECTION BOX - BLUE BOX", "note": "ON 12/24 AND 12/31, THIS BOX MAY BE COLLECTED AS EARLY AS 12 NOON.", "nsi_id": "unitedstatespostalservice-a77078", "operator": "United States Postal Service", "operator:short": "USPS", "operator:type": "public", "operator:wikidata": "Q668687", "ref": "0710200170"}, "type": "Feature"}
{"dataset_attributes": {"@spider": "usps_collection_boxes", "spider:collection_time": "2023-10-07T08:22:43.442925"}, "geometry": {"coordinates": [-74.17087269, 40.743492987], "type": "Point"}, "id": "47aQfilOgJashUl4RA1HmwcbQnc=", "properties": {"@spider": "usps_collection_boxes", "addr:city": "NEWARK", "addr:country": "US", "addr:full": "33 WASHINGTON ST", "addr:postcode": "07102", "addr:state": "NJ", "amenity": "post_box", "brand": "United States Postal Service", "brand:wikidata": "Q668687", "collection_times": "Mo-Sa 13:00", "name": "USPS COLLECTION BOX - BLUE BOX", "note": "ON 12/24 AND 12/31, THIS BOX MAY BE COLLECTED AS EARLY AS 12 NOON.", "nsi_id": "unitedstatespostalservice-a77078", "operator": "United States Postal Service", "operator:short": "USPS", "operator:type": "public", "operator:wikidata": "Q668687", "ref": "0710200171"}, "type": "Feature"}
{"dataset_attributes": {"@spider": "usps_collection_boxes", "spider:collection_time": "2023-10-07T08:22:43.442925"}, "geometry": {"coordinates": [-74.171928921, 40.735431232], "type": "Point"}, "id": "TdPN_cnHGKoDSBRQ66wooyXj83k=", "properties": {"@spider": "usps_collection_boxes", "addr:city": "NEWARK", "addr:country": "US", "addr:full": "180 MARKET ST", "addr:postcode": "07102", "addr:state": "NJ", "amenity": "post_box", "brand": "United States Postal Service", "brand:wikidata": "Q668687", "collection_times": "Mo-Sa 13:00", "name": "USPS COLLECTION BOX - BLUE BOX", "note": "ON 12/24 AND 12/31, THIS BOX MAY BE COLLECTED AS EARLY AS 12 NOON.", "nsi_id": "unitedstatespostalservice-a77078", "operator": "United States Postal Service", "operator:short": "USPS", "operator:type": "public", "operator:wikidata": "Q668687", "ref": "0710200172"}, "type": "Feature"}
{"dataset_attributes": {"@spider": "usps_collection_boxes", "spider:collection_time": "2023-10-07T08:22:43.442925"}, "geometry": {"coordinates": [-74.172084353, 40.737695843], "type": "Point"}, "id": "837z-0u1fEoazkF2nF7hLcQGfjg=", "properties": {"@spider": "usps_collection_boxes", "addr:city": "NEWARK", "addr:country": "US", "addr:full": "1212 RAYMOND BLVD", "addr:postcode": "07102", "addr:state": "NJ", "amenity": "post_box", "brand": "United States Postal Service", "brand:wikidata": "Q668687", "collection_times": "Mo-Sa 13:00", "name": "USPS COLLECTION BOX - BLUE BOX", "note": "ON 12/24 AND 12/31, THIS BOX MAY BE COLLECTED AS EARLY AS 12 NOON.", "nsi_id": "unitedstatespostalservice-a77078", "operator": "United States Postal Service", "operator:short": "USPS", "operator:type": "public", "operator:wikidata": "Q668687", "ref": "0710200173"}, "type": "Feature"}
{"dataset_attributes": {"@spider": "usps_collection_boxes", "spider:collection_time": "2023-10-07T08:22:43.442925"}, "geometry": {"coordinates": [-74.173889737, 40.738073858], "type": "Point"}, "id": "bMensLnNx_g0FPk5j6QnHvJsPoM=", "properties": {"@spider": "usps_collection_boxes", "addr:city": "NEWARK", "addr:country": "US", "addr:full": "204 WASHINGTON ST", "addr:postcode": "07102", "addr:state": "NJ", "amenity": "post_box", "brand": "United States Postal Service", "brand:wikidata": "Q668687", "collection_times": "Mo-Sa 13:00", "name": "USPS COLLECTION BOX - BLUE BOX", "note": "ON 12/24 AND 12/31, THIS BOX MAY BE COLLECTED AS EARLY AS 12 NOON.", "nsi_id": "unitedstatespostalservice-a77078", "operator": "United States Postal Service", "operator:short": "USPS", "operator:type": "public", "operator:wikidata": "Q668687", "ref": "0710200174"}, "type": "Feature"}
{"dataset_attributes": {"@spider": "usps_collection_boxes", "spider:collection_time": "2023-10-07T08:22:43.442925"}, "geometry": {"coordinates": [-74.169700659, 40.735982535], "type": "Point"}, "id": "FtcwhHQGNG2Iwas4JBS23kyuGi8=", "properties": {"@spider": "usps_collection_boxes", "addr:city": "NEWARK", "addr:country": "US", "addr:full": "40 CLINTON ST", "addr:postcode": "07102", "addr:state": "NJ", "amenity": "post_box", "brand": "United States Postal Service", "brand:wikidata": "Q668687", "collection_times": "Mo-Fr 17:00", "name": "USPS COLLECTION BOX - BLUE BOX", "note": "ON 12/24 AND 12/31, THIS BOX MAY BE COLLECTED AS EARLY AS 12 NOON.", "nsi_id": "unitedstatespostalservice-a77078", "operator": "United States Postal Service", "operator:short": "USPS", "operator:type": "public", "operator:wikidata": "Q668687", "ref": "0710200175"}, "type": "Feature"}
{"dataset_attributes": {"@spider": "usps_collection_boxes", "spider:collection_time": "2023-10-07T08:22:43.442925"}, "geometry": {"coordinates": [-74.16495, 40.7356527451], "type": "Point"}, "id": "6FC3NBb2oe1GO_3056t9lLUQ-v0=", "properties": {"@spider": "usps_collection_boxes", "addr:city": "NEWARK", "addr:country": "US", "addr:full": "2 GATEWAY CTR FL 1", "addr:postcode": "07102", "addr:state": "NJ", "amenity": "post_box", "brand": "United States Postal Service", "brand:wikidata": "Q668687", "collection_times": "Mo-Sa 13:00", "name": "USPS COLLECTION BOX - BLUE BOX", "note": "ON 12/24 AND 12/31, THIS BOX MAY BE COLLECTED AS EARLY AS 12 NOON.", "nsi_id": "unitedstatespostalservice-a77078", "operator": "United States Postal Service", "operator:short": "USPS", "operator:type": "public", "operator:wikidata": "Q668687", "ref": "0710200176"}, "type": "Feature"}
{"dataset_attributes": {"@spider": "usps_collection_boxes", "spider:collection_time": "2023-10-07T08:22:43.442925"}, "geometry": {"coordinates": [-74.1641960347, 40.7353361282], "type": "Point"}, "id": "iUCvHM56TjTqlt3e2At3Liu5cwA=", "properties": {"@spider": "usps_collection_boxes", "addr:city": "NEWARK", "addr:country": "US", "addr:full": "3 GATEWAY CTR STE 2", "addr:postcode": "07102", "addr:state": "NJ", "amenity": "post_box", "brand": "United States Postal Service", "brand:wikidata": "Q668687", "collection_times": "Mo-Sa 13:00", "name": "USPS COLLECTION BOX - BLUE BOX", "note": "ON 12/24 AND 12/31, THIS BOX MAY BE COLLECTED AS EARLY AS 12 NOON.", "nsi_id": "unitedstatespostalservice-a77078", "operator": "United States Postal Service", "operator:short": "USPS", "operator:type": "public", "operator:wikidata": "Q668687", "ref": "0710200177"}, "type": "Feature"}
{"dataset_attributes": {"@spider": "usps_collection_boxes", "spider:collection_time": "2023-10-07T08:22:43.442925"}, "geometry": {"coordinates": [-74.171125, 40.737345], "type": "Point"}, "id": "c_0zXGp-NIS1B4_fHxMq1vdTulc=", "properties": {"@spider": "usps_collection_boxes", "addr:city": "NEWARK", "addr:country": "US", "addr:full": "1 GATEWAY CTR", "addr:postcode": "07102", "addr:state": "NJ", "amenity": "post_box", "brand": "United States Postal Service", "brand:wikidata": "Q668687", "collection_times": "Mo-Sa 13:00", "name": "USPS COLLECTION BOX - BLUE BOX", "note": "ON 12/24 AND 12/31, THIS BOX MAY BE COLLECTED AS EARLY AS 12 NOON.", "nsi_id": "unitedstatespostalservice-a77078", "operator": "United States Postal Service", "operator:short": "USPS", "operator:type": "public", "operator:wikidata": "Q668687", "ref": "0710200178"}, "type": "Feature"}
{"dataset_attributes": {"@spider": "usps_collection_boxes", "spider:collection_time": "2023-10-07T08:22:43.442925"}, "geometry": {"coordinates": [-74.1726933271, 40.7375036184], "type": "Point"}, "id": "EiVwwcEyvK8a5hXd7Ui5mAe_QPU=", "properties": {"@spider": "usps_collection_boxes", "addr:city": "NEWARK", "addr:country": "US", "addr:full": "31 ACADEMY ST", "addr:postcode": "07102", "addr:state": "NJ", "amenity": "post_box", "brand": "United States Postal Service", "brand:wikidata": "Q668687", "collection_times": "Mo-Sa 13:00", "name": "USPS COLLECTION BOX - BLUE BOX", "note": "ON 12/24 AND 12/31, THIS BOX MAY BE COLLECTED AS EARLY AS 12 NOON.", "nsi_id": "unitedstatespostalservice-a77078", "operator": "United States Postal Service", "operator:short": "USPS", "operator:type": "public", "operator:wikidata": "Q668687", "ref": "0710200179"}, "type": "Feature"}
{"dataset_attributes": {"@spider": "usps_collection_boxes", "spider:collection_time": "2023-10-07T08:22:43.442925"}, "geometry": {"coordinates": [-74.172693327, 40.737503618], "type": "Point"}, "id": "4jzdaUgpb5nPEgg9MePGokWBZ3U=", "properties": {"@spider": "usps_collection_boxes", "addr:city": "NEWARK", "addr:country": "US", "addr:full": "31 ACADEMY ST", "addr:postcode": "07102", "addr:state": "NJ", "amenity": "post_box", "brand": "United States Postal Service", "brand:wikidata": "Q668687", "collection_times": "Mo-Sa 13:00", "name": "USPS COLLECTION BOX - BLUE BOX", "note": "ON 12/24 AND 12/31, THIS BOX MAY BE COLLECTED AS EARLY AS 12 NOON.", "nsi_id": "unitedstatespostalservice-a77078", "operator": "United States Postal Service", "operator:short": "USPS", "operator:type": "public", "operator:wikidata": "Q668687", "ref": "0710200180"}, "type": "Feature"}
{"dataset_attributes": {"@spider": "usps_collection_boxes", "spider:collection_time": "2023-10-07T08:22:43.442925"}, "geometry": {"coordinates": [-74.17087269, 40.7434929866], "type": "Point"}, "id": "cw-rwZSRS0B26W27GR_LgaxRFLg=", "properties": {"@spider": "usps_collection_boxes", "addr:city": "NEWARK", "addr:country": "US", "addr:full": "33 WASHINGTON ST STE 203", "addr:postcode": "07102", "addr:state": "NJ", "amenity": "post_box", "brand": "United States Postal Service", "brand:wikidata": "Q668687", "collection_times": "Mo-Sa 13:00", "name": "USPS COLLECTION BOX - BLUE BOX", "note": "ON 12/24 AND 12/31, THIS BOX MAY BE COLLECTED AS EARLY AS 12 NOON.", "nsi_id": "unitedstatespostalservice-a77078", "operator": "United States Postal Service", "operator:short": "USPS", "operator:type": "public", "operator:wikidata": "Q668687", "ref": "0710200181"}, "type": "Feature"}
{"dataset_attributes": {"@spider": "usps_collection_boxes", "spider:collection_time": "2023-10-07T08:22:43.442925"}, "geometry": {"coordinates": [-74.179600006, 40.725811808], "type": "Point"}, "id": "OXcKv98keoImlOSca9MwsuOrEbk=", "properties": {"@spider": "usps_collection_boxes", "addr:city": "NEWARK", "addr:country": "US", "addr:full": "1 PENNSYLVANIA AVE", "addr:postcode": "07102", "addr:state": "NJ", "amenity": "post_box", "brand": "United States Postal Service", "brand:wikidata": "Q668687", "collection_times": "Mo-Sa 13:00", "name": "USPS COLLECTION BOX - BLUE BOX", "note": "ON 12/24 AND 12/31, THIS BOX MAY BE COLLECTED AS EARLY AS 12 NOON.", "nsi_id": "unitedstatespostalservice-a77078", "operator": "United States Postal Service", "operator:short": "USPS", "operator:type": "public", "operator:wikidata": "Q668687", "ref": "0710200182"}, "type": "Feature"}
{"dataset_attributes": {"@spider": "usps_collection_boxes", "spider:collection_time": "2023-10-07T08:22:43.442925"}, "geometry": {"coordinates": [-74.176286534, 40.737145694], "type": "Point"}, "id": "mX51mJS9LEgTsHYZax4aIt9jIz8=", "properties": {"@spider": "usps_collection_boxes", "addr:city": "NEWARK", "addr:country": "US", "addr:full": "312 UNIVERSITY AVE", "addr:postcode": "07102", "addr:state": "NJ", "amenity": "post_box", "brand": "United States Postal Service", "brand:wikidata": "Q668687", "collection_times": "Mo-Sa 13:00", "name": "USPS COLLECTION BOX - BLUE BOX", "note": "ON 12/24 AND 12/31, THIS BOX MAY BE COLLECTED AS EARLY AS 12 NOON.", "nsi_id": "unitedstatespostalservice-a77078", "operator": "United States Postal Service", "operator:short": "USPS", "operator:type": "public", "operator:wikidata": "Q668687", "ref": "0710200183"}, "type": "Feature"}
{"dataset_attributes": {"@spider": "usps_collection_boxes", "spider:collection_time": "2023-10-07T08:22:43.442925"}, "geometry": {"coordinates": [-74.180625858, 40.738803941], "type": "Point"}, "id": "Kz89d226tEKNWezf7JqmMvpWCIA=", "properties": {"@spider": "usps_collection_boxes", "addr:city": "NEWARK", "addr:country": "US", "addr:full": "50 W MARKET ST RM 1", "addr:postcode": "07102", "addr:state": "NJ", "amenity": "post_box", "brand": "United States Postal Service", "brand:wikidata": "Q668687", "collection_times": "Mo-Sa 13:00", "name": "USPS COLLECTION BOX - BLUE BOX", "note": "ON 12/24 AND 12/31, THIS BOX MAY BE COLLECTED AS EARLY AS 12 NOON.", "nsi_id": "unitedstatespostalservice-a77078", "operator": "United States Postal Service", "operator:short": "USPS", "operator:type": "public", "operator:wikidata": "Q668687", "ref": "0710200184"}, "type": "Feature"}
{"dataset_attributes": {"@spider": "usps_collection_boxes", "spider:collection_time": "2023-10-07T08:22:43.442925"}, "geometry": {"coordinates": [-74.168544373, 40.739210657], "type": "Point"}, "id": "Pego2uf7DxdygD8jbaTbI4-uCao=", "properties": {"@spider": "usps_collection_boxes", "addr:city": "NEWARK", "addr:country": "US", "addr:full": "50 PARK PL STE 3", "addr:postcode": "07102", "addr:state": "NJ", "amenity": "post_box", "brand": "United States Postal Service", "brand:wikidata": "Q668687", "collection_times": "Mo-Sa 13:00", "name": "USPS COLLECTION BOX - BLUE BOX", "note": "ON 12/24 AND 12/31, THIS BOX MAY BE COLLECTED AS EARLY AS 12 NOON.", "nsi_id": "unitedstatespostalservice-a77078", "operator": "United States Postal Service", "operator:short": "USPS", "operator:type": "public", "operator:wikidata": "Q668687", "ref": "0710200185"}, "type": "Feature"}
{"dataset_attributes": {"@spider": "usps_collection_boxes", "spider:collection_time": "2023-10-07T08:22:43.442925"}, "geometry": {"coordinates": [-74.1693844768, 40.7385128254], "type": "Point"}, "id": "A3H3wWCxwpDiqE6GdUH0QV8Q5qo=", "properties": {"@spider": "usps_collection_boxes", "addr:city": "NEWARK", "addr:country": "US", "addr:full": "60 PARK PL", "addr:postcode": "07102", "addr:state": "NJ", "amenity": "post_box", "brand": "United States Postal Service", "brand:wikidata": "Q668687", "collection_times": "Mo-Sa 13:00", "name": "USPS COLLECTION BOX - BLUE BOX", "note": "ON 12/24 AND 12/31, THIS BOX MAY BE COLLECTED AS EARLY AS 12 NOON.", "nsi_id": "unitedstatespostalservice-a77078", "operator": "United States Postal Service", "operator:short": "USPS", "operator:type": "public", "operator:wikidata": "Q668687", "ref": "0710200186"}, "type": "Feature"}
{"dataset_attributes": {"@spider": "usps_collection_boxes", "spider:collection_time": "2023-10-07T08:22:43.442925"}, "geometry": {"coordinates": [-74.1751400303, 40.7448949158], "type": "Point"}, "id": "JyFwjKOoAVHoaDcgXwBdAsotpSc=", "properties": {"@spider": "usps_collection_boxes", "addr:city": "NEWARK", "addr:country": "US", "addr:full": "268 DR MARTIN LUTHER KING JR BLVD", "addr:postcode": "07102", "addr:state": "NJ", "amenity": "post_box", "brand": "United States Postal Service", "brand:wikidata": "Q668687", "collection_times": "Mo-Sa 13:00", "name": "USPS COLLECTION BOX - BLUE BOX", "note": "ON 12/24 AND 12/31, THIS BOX MAY BE COLLECTED AS EARLY AS 12 NOON.", "nsi_id": "unitedstatespostalservice-a77078", "operator": "United States Postal Service", "operator:short": "USPS", "operator:type": "public", "operator:wikidata": "Q668687", "ref": "0710200187"}, "type": "Feature"}
{"dataset_attributes": {"@spider": "usps_collection_boxes", "spider:collection_time": "2023-10-07T08:22:43.442925"}, "geometry": {"coordinates": [-74.172450836, 40.744529759], "type": "Point"}, "id": "oDNupqS2Q9Nl1qzY9e6tkc7gzXk=", "properties": {"@spider": "usps_collection_boxes", "addr:city": "NEWARK", "addr:country": "US", "addr:full": "98 UNIVERSITY AVE", "addr:postcode": "07102", "addr:state": "NJ", "amenity": "post_box", "brand": "United States Postal Service", "brand:wikidata": "Q668687", "collection_times": "Mo-Sa 13:00", "name": "USPS COLLECTION BOX - BLUE BOX", "note": "ON 12/24 AND 12/31, THIS BOX MAY BE COLLECTED AS EARLY AS 12 NOON.", "nsi_id": "unitedstatespostalservice-a77078", "operator": "United States Postal Service", "operator:short": "USPS", "operator:type": "public", "operator:wikidata": "Q668687", "ref": "0710200188"}, "type": "Feature"}
{"dataset_attributes": {"@spider": "usps_collection_boxes", "spider:collection_time": "2023-10-07T08:22:43.442925"}, "geometry": {"coordinates": [-74.1739907704, 40.7380381496], "type": "Point"}, "id": "RGCryaTPJ1BV3demXGvkFZ14-wI=", "properties": {"@spider": "usps_collection_boxes", "addr:city": "NEWARK", "addr:country": "US", "addr:full": "201 WASHINGTON ST", "addr:postcode": "07102", "addr:state": "NJ", "amenity": "post_box", "brand": "United States Postal Service", "brand:wikidata": "Q668687", "collection_times": "Mo-Sa 13:00", "name": "USPS COLLECTION BOX - BLUE BOX", "note": "ON 12/24 AND 12/31, THIS BOX MAY BE COLLECTED AS EARLY AS 12 NOON.", "nsi_id": "unitedstatespostalservice-a77078", "operator": "United States Postal Service", "operator:short": "USPS", "operator:type": "public", "operator:wikidata": "Q668687", "ref": "0710200189"}, "type": "Feature"}
{"dataset_attributes": {"@spider": "usps_collection_boxes", "spider:collection_time": "2023-10-07T08:22:43.442925"}, "geometry": {"coordinates": [-74.1738897369, 40.7380738576], "type": "Point"}, "id": "UyXjwJspxnK_LaectBy11eblkWg=", "properties": {"@spider": "usps_collection_boxes", "addr:city": "NEWARK", "addr:country": "US", "addr:full": "204 WASHINGTON ST", "addr:postcode": "07102", "addr:state": "NJ", "amenity": "post_box", "brand": "United States Postal Service", "brand:wikidata": "Q668687", "collection_times": "Mo-Sa 13:00", "name": "USPS COLLECTION BOX - BLUE BOX", "note": "ON 12/24 AND 12/31, THIS BOX MAY BE COLLECTED AS EARLY AS 12 NOON.", "nsi_id": "unitedstatespostalservice-a77078", "operator": "United States Postal Service", "operator:short": "USPS", "operator:type": "public", "operator:wikidata": "Q668687", "ref": "0710200190"}, "type": "Feature"}
{"dataset_attributes": {"@spider": "usps_collection_boxes", "spider:collection_time": "2023-10-07T08:22:43.442925"}, "geometry": {"coordinates": [-74.1757897792, 40.7353536361], "type": "Point"}, "id": "8rZ2uAQmocEE3LIKQ5HbF9jRC2k=", "properties": {"@spider": "usps_collection_boxes", "addr:city": "NEWARK", "addr:country": "US", "addr:full": "278 WASHINGTON ST", "addr:postcode": "07102", "addr:state": "NJ", "amenity": "post_box", "brand": "United States Postal Service", "brand:wikidata": "Q668687", "collection_times": "Mo-Sa 13:00", "name": "USPS COLLECTION BOX - BLUE BOX", "note": "ON 12/24 AND 12/31, THIS BOX MAY BE COLLECTED AS EARLY AS 12 NOON.", "nsi_id": "unitedstatespostalservice-a77078", "operator": "United States Postal Service", "operator:short": "USPS", "operator:type": "public", "operator:wikidata": "Q668687", "ref": "0710200191"}, "type": "Feature"}
{"dataset_attributes": {"@spider": "usps_collection_boxes", "spider:collection_time": "2023-10-07T08:22:43.442925"}, "geometry": {"coordinates": [-74.1726707298, 40.7405784686], "type": "Point"}, "id": "q3ayLiuMgxbkccU9OAiw6ooYN6c=", "properties": {"@spider": "usps_collection_boxes", "addr:city": "NEWARK", "addr:country": "US", "addr:full": "121 WASHINGTON ST", "addr:postcode": "07102", "addr:state": "NJ", "amenity": "post_box", "brand": "United States Postal Service", "brand:wikidata": "Q668687", "collection_times": "Mo-Sa 13:00", "name": "USPS COLLECTION BOX - BLUE BOX", "note": "ON 12/24 AND 12/31, THIS BOX MAY BE COLLECTED AS EARLY AS 12 NOON.", "nsi_id": "unitedstatespostalservice-a77078", "operator": "United States Postal Service", "operator:short": "USPS", "operator:type": "public", "operator:wikidata": "Q668687", "ref": "0710200192"}, "type": "Feature"}
{"dataset_attributes": {"@spider": "usps_collection_boxes", "spider:collection_time": "2023-10-07T08:22:43.442925"}, "geometry": {"coordinates": [-74.173229432, 40.739478097], "type": "Point"}, "id": "7KlEJ1Uej2Q_uCbB75xRtsCXgoM=", "properties": {"@spider": "usps_collection_boxes", "addr:city": "NEWARK", "addr:country": "US", "addr:full": "157 WASHINGTON ST", "addr:postcode": "07102", "addr:state": "NJ", "amenity": "post_box", "brand": "United States Postal Service", "brand:wikidata": "Q668687", "collection_times": "Mo-Sa 13:00", "name": "USPS COLLECTION BOX - BLUE BOX", "note": "ON 12/24 AND 12/31, THIS BOX MAY BE COLLECTED AS EARLY AS 12 NOON.", "nsi_id": "unitedstatespostalservice-a77078", "operator": "United States Postal Service", "operator:short": "USPS", "operator:type": "public", "operator:wikidata": "Q668687", "ref": "0710200193"}, "type": "Feature"}
{"dataset_attributes": {"@spider": "usps_collection_boxes", "spider:collection_time": "2023-10-07T08:22:43.442925"}, "geometry": {"coordinates": [-74.1713949248, 40.7368155454], "type": "Point"}, "id": "-PL6R1merHo1W3zNJsHJ6kQBAbc=", "properties": {"@spider": "usps_collection_boxes", "addr:city": "NEWARK", "addr:country": "US", "addr:full": "744 BROAD ST", "addr:postcode": "07102", "addr:state": "NJ", "amenity": "post_box", "brand": "United States Postal Service", "brand:wikidata": "Q668687", "collection_times": "Mo-Sa 13:00", "name": "USPS COLLECTION BOX - BLUE BOX", "note": "ON 12/24 AND 12/31, THIS BOX MAY BE COLLECTED AS EARLY AS 12 NOON.", "nsi_id": "unitedstatespostalservice-a77078", "operator": "United States Postal Service", "operator:short": "USPS", "operator:type": "public", "operator:wikidata": "Q668687", "ref": "0710200194"}, "type": "Feature"}
{"dataset_attributes": {"@spider": "usps_collection_boxes", "spider:collection_time": "2023-10-07T08:22:43.442925"}, "geometry": {"coordinates": [-74.175162331, 40.7392416767], "type": "Point"}, "id": "cy2G7kQDwTxTlCpval0IZdyiEpg=", "properties": {"@spider": "usps_collection_boxes", "addr:city": "NEWARK", "addr:country": "US", "addr:full": "249 UNIVERSITY AVE", "addr:postcode": "07102", "addr:state": "NJ", "amenity": "post_box", "brand": "United States Postal Service", "brand:wikidata": "Q668687", "collection_times": "Mo-Sa 13:00", "name": "USPS COLLECTION BOX - BLUE BOX", "note": "ON 12/24 AND 12/31, THIS BOX MAY BE COLLECTED AS EARLY AS 12 NOON.", "nsi_id": "unitedstatespostalservice-a77078", "operator": "United States Postal Service", "operator:short": "USPS", "operator:type": "public", "operator:wikidata": "Q668687", "ref": "0710200195"}, "type": "Feature"}
{"dataset_attributes": {"@spider": "usps_collection_boxes", "spider:collection_time": "2023-10-07T08:22:43.442925"}, "geometry": {"coordinates": [-74.168544373, 40.739210657], "type": "Point"}, "id": "OFJrxzm41Kbp9c7s6-kfI-vaNog=", "properties": {"@spider": "usps_collection_boxes", "addr:city": "NEWARK", "addr:country": "US", "addr:full": "50 PARK PL LBBY 2", "addr:postcode": "07102", "addr:state": "NJ", "amenity": "post_box", "brand": "United States Postal Service", "brand:wikidata": "Q668687", "collection_times": "Mo-Sa 13:00", "name": "USPS COLLECTION BOX - BLUE BOX", "note": "ON 12/24 AND 12/31, THIS BOX MAY BE COLLECTED AS EARLY AS 12 NOON.", "nsi_id": "unitedstatespostalservice-a77078", "operator": "United States Postal Service", "operator:short": "USPS", "operator:type": "public", "operator:wikidata": "Q668687", "ref": "0710200196"}, "type": "Feature"}
{"dataset_attributes": {"@spider": "usps_collection_boxes", "spider:collection_time": "2023-10-07T08:22:43.442925"}, "geometry": {"coordinates": [-74.169158908, 40.742189067], "type": "Point"}, "id": "7qkD3P68U9pSQcEhgj5B_1lCDBg=", "properties": {"@spider": "usps_collection_boxes", "addr:city": "NEWARK", "addr:country": "US", "addr:full": "560 BROAD ST", "addr:postcode": "07102", "addr:state": "NJ", "amenity": "post_box", "brand": "United States Postal Service", "brand:wikidata": "Q668687", "collection_times": "Mo-Sa 13:00", "name": "USPS COLLECTION BOX - BLUE BOX", "note": "ON 12/24 AND 12/31, THIS BOX MAY BE COLLECTED AS EARLY AS 12 NOON.", "nsi_id": "unitedstatespostalservice-a77078", "operator": "United States Postal Service", "operator:short": "USPS", "operator:type": "public", "operator:wikidata": "Q668687", "ref": "0710200197"}, "type": "Feature"}
{"dataset_attributes": {"@spider": "usps_collection_boxes", "spider:collection_time": "2023-10-07T08:22:43.442925"}, "geometry": {"coordinates": [-74.179191435, 40.737494053], "type": "Point"}, "id": "J_HTAXW5nGTf73P91kWjYq-BEJA=", "properties": {"@spider": "usps_collection_boxes", "addr:city": "NEWARK", "addr:country": "US", "addr:full": "465 DR MARTIN LUTHER KING JR BLVD", "addr:postcode": "07102", "addr:state": "NJ", "amenity": "post_box", "brand": "United States Postal Service", "brand:wikidata": "Q668687", "collection_times": "Mo-Sa 13:00", "name": "USPS COLLECTION BOX - BLUE BOX", "note": "ON 12/24 AND 12/31, THIS BOX MAY BE COLLECTED AS EARLY AS 12 NOON.", "nsi_id": "unitedstatespostalservice-a77078", "operator": "United States Postal Service", "operator:short": "USPS", "operator:type": "public", "operator:wikidata": "Q668687", "ref": "0710200198"}, "type": "Feature"}
{"dataset_attributes": {"@spider": "usps_collection_boxes", "spider:collection_time": "2023-10-07T08:22:43.442925"}, "geometry": {"coordinates": [-74.173626924, 40.731192163], "type": "Point"}, "id": "JsSeUpGzQa22wIh4bKB6fpHKiBY=", "properties": {"@spider": "usps_collection_boxes", "addr:city": "NEWARK", "addr:country": "US", "addr:full": "2 FEDERAL SQ", "addr:postcode": "07102", "addr:state": "NJ", "amenity": "post_box", "brand": "United States Postal Service", "brand:wikidata": "Q668687", "collection_times": "Mo-Fr 17:00; Sa 15:00", "name": "USPS COLLECTION BOX - BLUE BOX", "note": "ON 12/24 AND 12/31, THIS BOX MAY BE COLLECTED AS EARLY AS 12 NOON.", "nsi_id": "unitedstatespostalservice-a77078", "operator": "United States Postal Service", "operator:short": "USPS", "operator:type": "public", "operator:wikidata": "Q668687", "ref": "0710200199"}, "type": "Feature"}
{"dataset_attributes": {"@spider": "usps_collection_boxes", "spider:collection_time": "2023-10-07T08:22:43.442925"}, "geometry": {"coordinates": [-74.173626924, 40.731192163], "type": "Point"}, "id": "R5e7QLJtdgRjJqV18xAezLPNA3A=", "properties": {"@spider": "usps_collection_boxes", "addr:city": "NEWARK", "addr:country": "US", "addr:full": "2 FEDERAL SQ", "addr:postcode": "07102", "addr:state": "NJ", "amenity": "post_box", "brand": "United States Postal Service", "brand:wikidata": "Q668687", "collection_times": "Mo-Fr 17:00; Sa 15:00", "name": "USPS COLLECTION BOX - BLUE BOX", "note": "ON 12/24 AND 12/31, THIS BOX MAY BE COLLECTED AS EARLY AS 12 NOON.", "nsi_id": "unitedstatespostalservice-a77078", "operator": "United States Postal Service", "operator:short": "USPS", "operator:type": "public", "operator:wikidata": "Q668687", "ref": "0710200200"}, "type": "Feature"}
{"dataset_attributes": {"@spider": "usps_collection_boxes", "spider:collection_time": "2023-10-07T08:22:43.442925"}, "geometry": {"coordinates": [-74.163471052, 40.7352551376], "type": "Point"}, "id": "OHrCH50IoAeIjzwastMK0Y_kWOU=", "properties": {"@spider": "usps_collection_boxes", "addr:city": "NEWARK", "addr:country": "US", "addr:full": "1037 RAYMOND BLVD", "addr:postcode": "07102", "addr:state": "NJ", "amenity": "post_box", "brand": "United States Postal Service", "brand:wikidata": "Q668687", "collection_times": "Mo-Fr 16:30", "name": "USPS COLLECTION BOX - BLUE BOX", "note": "ON 12/24 AND 12/31, THIS BOX MAY BE COLLECTED AS EARLY AS 12 NOON.", "nsi_id": "unitedstatespostalservice-a77078", "operator": "United States Postal Service", "operator:short": "USPS", "operator:type": "public", "operator:wikidata": "Q668687", "ref": "0710200201"}, "type": "Feature"}
{"dataset_attributes": {"@spider": "usps_collection_boxes", "spider:collection_time": "2023-10-07T08:22:43.442925"}, "geometry": {"coordinates": [-74.1693844768, 40.7385128254], "type": "Point"}, "id": "KdltT-a4XJ2wAtklPDSg1fx5j00=", "properties": {"@spider": "usps_collection_boxes", "addr:city": "NEWARK", "addr:country": "US", "addr:full": "60 PARK PL", "addr:postcode": "07102", "addr:state": "NJ", "amenity": "post_box", "brand": "United States Postal Service", "brand:wikidata": "Q668687", "collection_times": "Mo-Sa 13:00", "name": "USPS COLLECTION BOX - BLUE BOX", "note": "ON 12/24 AND 12/31, THIS BOX MAY BE COLLECTED AS EARLY AS 12 NOON.", "nsi_id": "unitedstatespostalservice-a77078", "operator": "United States Postal Service", "operator:short": "USPS", "operator:type": "public", "operator:wikidata": "Q668687", "ref": "0710200202"}, "type": "Feature"}
{"dataset_attributes": {"@spider": "usps_collection_boxes", "spider:collection_time": "2023-10-07T08:22:43.442925"}, "geometry": {"coordinates": [-74.168477579, 40.740505982], "type": "Point"}, "id": "j1ydKs_bEJg7GSMZA1TtjT7o1wQ=", "properties": {"@spider": "usps_collection_boxes", "addr:city": "NEWARK", "addr:country": "US", "addr:full": "6 PARK PLACE", "addr:postcode": "07102", "addr:state": "NJ", "amenity": "post_box", "brand": "United States Postal Service", "brand:wikidata": "Q668687", "collection_times": "Mo-Sa 13:00", "name": "USPS COLLECTION BOX - BLUE BOX", "note": "ON 12/24 AND 12/31, THIS BOX MAY BE COLLECTED AS EARLY AS 12 NOON.", "nsi_id": "unitedstatespostalservice-a77078", "operator": "United States Postal Service", "operator:short": "USPS", "operator:type": "public", "operator:wikidata": "Q668687", "ref": "0710200203"}, "type": "Feature"}
{"dataset_attributes": {"@spider": "usps_collection_boxes", "spider:collection_time": "2023-10-07T08:22:43.442925"}, "geometry": {"coordinates": [-74.168477579, 40.740505982], "type": "Point"}, "id": "c5XOSFhIfr4s7G3ezIV5O3vy54I=", "properties": {"@spider": "usps_collection_boxes", "addr:city": "NEWARK", "addr:country": "US", "addr:full": "6 PARK PLACE", "addr:postcode": "07102", "addr:state": "NJ", "amenity": "post_box", "brand": "United States Postal Service", "brand:wikidata": "Q668687", "collection_times": "Mo-Sa 13:00", "name": "USPS COLLECTION BOX - BLUE BOX", "note": "ON 12/24 AND 12/31, THIS BOX MAY BE COLLECTED AS EARLY AS 12 NOON.", "nsi_id": "unitedstatespostalservice-a77078", "operator": "United States Postal Service", "operator:short": "USPS", "operator:type": "public", "operator:wikidata": "Q668687", "ref": "0710200204"}, "type": "Feature"}
{"dataset_attributes": {"@spider": "usps_collection_boxes", "spider:collection_time": "2023-10-07T08:22:43.442925"}, "geometry": {"coordinates": [-74.168477579, 40.740505982], "type": "Point"}, "id": "Vza4xt-Q8OvYm6gEga9CiaX6T30=", "properties": {"@spider": "usps_collection_boxes", "addr:city": "NEWARK", "addr:country": "US", "addr:full": "6 PARK PLACE", "addr:postcode": "07102", "addr:state": "NJ", "amenity": "post_box", "brand": "United States Postal Service", "brand:wikidata": "Q668687", "collection_times": "Mo-Sa 13:00", "name": "USPS COLLECTION BOX - BLUE BOX", "note": "ON 12/24 AND 12/31, THIS BOX MAY BE COLLECTED AS EARLY AS 12 NOON.", "nsi_id": "unitedstatespostalservice-a77078", "operator": "United States Postal Service", "operator:short": "USPS", "operator:type": "public", "operator:wikidata": "Q668687", "ref": "0710200205"}, "type": "Feature"}
{"dataset_attributes": {"@spider": "usps_collection_boxes", "spider:collection_time": "2023-10-07T08:22:43.442925"}, "geometry": {"coordinates": [-74.169700659, 40.735982535], "type": "Point"}, "id": "c4aJMSMXR1gln5GV3rR_of3t7hs=", "properties": {"@spider": "usps_collection_boxes", "addr:city": "NEWARK", "addr:country": "US", "addr:full": "40 CLINTON ST STE L", "addr:postcode": "07102", "addr:state": "NJ", "amenity": "post_box", "brand": "United States Postal Service", "brand:wikidata": "Q668687", "collection_times": "Mo-Fr 17:00", "name": "USPS COLLECTION BOX - PO LOBBY", "note": "ON 12/24 AND 12/31, THIS BOX MAY BE COLLECTED AS EARLY AS 12 NOON.", "nsi_id": "unitedstatespostalservice-a77078", "operator": "United States Postal Service", "operator:short": "USPS", "operator:type": "public", "operator:wikidata": "Q668687", "ref": "0710200206"}, "type": "Feature"}
{"dataset_attributes": {"@spider": "usps_collection_boxes", "spider:collection_time": "2023-10-07T08:22:43.442925"}, "geometry": {"coordinates": [-74.173626924, 40.731192163], "type": "Point"}, "id": "aUIBeX_dIuAqE_MfF7_c9gNPVZ8=", "properties": {"@spider": "usps_collection_boxes", "addr:city": "NEWARK", "addr:country": "US", "addr:full": "2 FEDERAL SQ", "addr:postcode": "07102", "addr:state": "NJ", "amenity": "post_box", "brand": "United States Postal Service", "brand:wikidata": "Q668687", "collection_times": "Mo-Fr 18:00; Sa 15:00", "name": "USPS COLLECTION BOX - PO LOBBY", "note": "ON 12/24 AND 12/31, THIS BOX MAY BE COLLECTED AS EARLY AS 12 NOON.", "nsi_id": "unitedstatespostalservice-a77078", "operator": "United States Postal Service", "operator:short": "USPS", "operator:type": "public", "operator:wikidata": "Q668687", "ref": "0710200207"}, "type": "Feature"}
{"dataset_attributes": {"@spider": "usps_collection_boxes", "spider:collection_time": "2023-10-07T08:22:43.442925"}, "geometry": {"coordinates": [-74.1910863, 40.741138], "type": "Point"}, "id": "wQkR3jlUzw9hKWmiNtV2wbq0b8A=", "properties": {"@spider": "usps_collection_boxes", "addr:city": "NEWARK", "addr:country": "US", "addr:full": "100 BERGEN ST", "addr:postcode": "07103", "addr:state": "NJ", "amenity": "post_box", "brand": "United States Postal Service", "brand:wikidata": "Q668687", "collection_times": "Mo-Sa 13:00", "name": "USPS COLLECTION BOX - BLUE BOX", "note": "ON 12/24 AND 12/31, THIS BOX MAY BE COLLECTED AS EARLY AS 12 NOON.", "nsi_id": "unitedstatespostalservice-a77078", "operator": "United States Postal Service", "operator:short": "USPS", "operator:type": "public", "operator:wikidata": "Q668687", "ref": "0710300001"}, "type": "Feature"}
{"dataset_attributes": {"@spider": "usps_collection_boxes", "spider:collection_time": "2023-10-07T08:22:43.442925"}, "geometry": {"coordinates": [-74.1912622, 40.734318], "type": "Point"}, "id": "JjYAPbcGwxFnbU_zx49F8fvecKA=", "properties": {"@spider": "usps_collection_boxes", "addr:city": "NEWARK", "addr:country": "US", "addr:full": "290 SPRINGFIELD AVE", "addr:postcode": "07103", "addr:state": "NJ", "amenity": "post_box", "brand": "United States Postal Service", "brand:wikidata": "Q668687", "collection_times": "Mo-Fr 17:00; Sa 15:00", "name": "USPS COLLECTION BOX - BLUE BOX", "note": "ON 12/24 AND 12/31, THIS BOX MAY BE COLLECTED AS EARLY AS 12 NOON.", "nsi_id": "unitedstatespostalservice-a77078", "operator": "United States Postal Service", "operator:short": "USPS", "operator:type": "public", "operator:wikidata": "Q668687", "ref": "0710300004"}, "type": "Feature"}
{"dataset_attributes": {"@spider": "usps_collection_boxes", "spider:collection_time": "2023-10-07T08:22:43.442925"}, "geometry": {"coordinates": [-74.1829852, 40.732417], "type": "Point"}, "id": "mnt2UYNct_rvhN1-ElYD5D9MU1Q=", "properties": {"@spider": "usps_collection_boxes", "addr:city": "NEWARK", "addr:country": "US", "addr:full": "89 LINCOLN ST", "addr:postcode": "07103", "addr:state": "NJ", "amenity": "post_box", "brand": "United States Postal Service", "brand:wikidata": "Q668687", "collection_times": "Mo-Sa 13:00", "name": "USPS COLLECTION BOX - BLUE BOX", "note": "ON 12/24 AND 12/31, THIS BOX MAY BE COLLECTED AS EARLY AS 12 NOON.", "nsi_id": "unitedstatespostalservice-a77078", "operator": "United States Postal Service", "operator:short": "USPS", "operator:type": "public", "operator:wikidata": "Q668687", "ref": "0710300010"}, "type": "Feature"}
{"dataset_attributes": {"@spider": "usps_collection_boxes", "spider:collection_time": "2023-10-07T08:22:43.442925"}, "geometry": {"coordinates": [-74.1763643, 40.744934], "type": "Point"}, "id": "qXMgHgFmw6JZYzNqzmoR6EmGDBA=", "properties": {"@spider": "usps_collection_boxes", "addr:city": "NEWARK", "addr:country": "US", "addr:full": "25 SUMMIT ST", "addr:postcode": "07103", "addr:state": "NJ", "amenity": "post_box", "brand": "United States Postal Service", "brand:wikidata": "Q668687", "collection_times": "Mo-Sa 13:00", "name": "USPS COLLECTION BOX - BLUE BOX", "note": "ON 12/24 AND 12/31, THIS BOX MAY BE COLLECTED AS EARLY AS 12 NOON.", "nsi_id": "unitedstatespostalservice-a77078", "operator": "United States Postal Service", "operator:short": "USPS", "operator:type": "public", "operator:wikidata": "Q668687", "ref": "0710300011"}, "type": "Feature"}
{"dataset_attributes": {"@spider": "usps_collection_boxes", "spider:collection_time": "2023-10-07T08:22:43.442925"}, "geometry": {"coordinates": [-74.1896714, 40.738279], "type": "Point"}, "id": "5ABxw_XtfShMcFgZ9nI-g8-Pw5I=", "properties": {"@spider": "usps_collection_boxes", "addr:city": "NEWARK", "addr:country": "US", "addr:full": "180 S ORANGE AVE", "addr:postcode": "07103", "addr:state": "NJ", "amenity": "post_box", "brand": "United States Postal Service", "brand:wikidata": "Q668687", "collection_times": "Mo-Sa 13:00", "name": "USPS COLLECTION BOX - BLUE BOX", "note": "ON 12/24 AND 12/31, THIS BOX MAY BE COLLECTED AS EARLY AS 12 NOON.", "nsi_id": "unitedstatespostalservice-a77078", "operator": "United States Postal Service", "operator:short": "USPS", "operator:type": "public", "operator:wikidata": "Q668687", "ref": "0710300018"}, "type": "Feature"}
{"dataset_attributes": {"@spider": "usps_collection_boxes", "spider:collection_time": "2023-10-07T08:22:43.442925"}, "geometry": {"coordinates": [-74.1813491, 40.74245], "type": "Point"}, "id": "Pn4zJJjaGZcTfZpbzxzqAJRJNNw=", "properties": {"@spider": "usps_collection_boxes", "addr:city": "NEWARK", "addr:country": "US", "addr:full": "105 LOCK ST", "addr:postcode": "07103", "addr:state": "NJ", "amenity": "post_box", "brand": "United States Postal Service", "brand:wikidata": "Q668687", "collection_times": "Mo-Sa 13:00", "name": "USPS COLLECTION BOX - BLUE BOX", "note": "ON 12/24 AND 12/31, THIS BOX MAY BE COLLECTED AS EARLY AS 12 NOON.", "nsi_id": "unitedstatespostalservice-a77078", "operator": "United States Postal Service", "operator:short": "USPS", "operator:type": "public", "operator:wikidata": "Q668687", "ref": "0710300034"}, "type": "Feature"}
{"dataset_attributes": {"@spider": "usps_collection_boxes", "spider:collection_time": "2023-10-07T08:22:43.442925"}, "geometry": {"coordinates": [-74.1914603, 40.734416], "type": "Point"}, "id": "4ONa5kr3VmTqhOJHKR4fBjQ8JnA=", "properties": {"@spider": "usps_collection_boxes", "addr:city": "NEWARK", "addr:country": "US", "addr:full": "290 SPRINGFIELD AVE", "addr:postcode": "07103", "addr:state": "NJ", "amenity": "post_box", "brand": "United States Postal Service", "brand:wikidata": "Q668687", "collection_times": "Mo-Fr 17:00; Sa 15:00", "name": "USPS COLLECTION BOX - PO LOBBY", "note": "ON 12/24 AND 12/31, THIS BOX MAY BE COLLECTED AS EARLY AS 12 NOON.", "nsi_id": "unitedstatespostalservice-a77078", "operator": "United States Postal Service", "operator:short": "USPS", "operator:type": "public", "operator:wikidata": "Q668687", "ref": "0710300036"}, "type": "Feature"}
{"dataset_attributes": {"@spider": "usps_collection_boxes", "spider:collection_time": "2023-10-07T08:22:43.442925"}, "geometry": {"coordinates": [-74.191542616, 40.734067177], "type": "Point"}, "id": "5jz6cQFh-qe5-_HOnZIHEJo35-Q=", "properties": {"@spider": "usps_collection_boxes", "addr:city": "NEWARK", "addr:country": "US", "addr:full": "290 SPRINGFIELD AVE", "addr:postcode": "07103", "addr:state": "NJ", "amenity": "post_box", "brand": "United States Postal Service", "brand:wikidata": "Q668687", "collection_times": "Mo-Fr 17:00; Sa 15:00", "name": "USPS COLLECTION BOX - PO LOBBY", "note": "ON 12/24 AND 12/31, THIS BOX MAY BE COLLECTED AS EARLY AS 12 NOON.", "nsi_id": "unitedstatespostalservice-a77078", "operator": "United States Postal Service", "operator:short": "USPS", "operator:type": "public", "operator:wikidata": "Q668687", "ref": "0710300038"}, "type": "Feature"}
{"dataset_attributes": {"@spider": "usps_collection_boxes", "spider:collection_time": "2023-10-07T08:22:43.442925"}, "geometry": {"coordinates": [-74.1798705, 40.750687], "type": "Point"}, "id": "au1Mz2z7NpyCwTjeQsQlNt8k0BI=", "properties": {"@spider": "usps_collection_boxes", "addr:city": "NEWARK", "addr:country": "US", "addr:full": "25 CLIFTON AVE # 51", "addr:postcode": "07104", "addr:state": "NJ", "amenity": "post_box", "brand": "United States Postal Service", "brand:wikidata": "Q668687", "collection_times": "Mo-Sa 12:00", "name": "USPS COLLECTION BOX - BLUE BOX", "nsi_id": "unitedstatespostalservice-a77078", "operator": "United States Postal Service", "operator:short": "USPS", "operator:type": "public", "operator:wikidata": "Q668687", "ref": "0710400003"}, "type": "Feature"}
{"dataset_attributes": {"@spider": "usps_collection_boxes", "spider:collection_time": "2023-10-07T08:22:43.442925"}, "geometry": {"coordinates": [-74.169287686, 40.75891218], "type": "Point"}, "id": "w0L3943tyABIPFT2NfN7OJ3Um9w=", "properties": {"@spider": "usps_collection_boxes", "addr:city": "NEWARK", "addr:country": "US", "addr:full": "243 BROADWAY", "addr:postcode": "07104", "addr:state": "NJ", "amenity": "post_box", "brand": "United States Postal Service", "brand:wikidata": "Q668687", "collection_times": "Mo-Fr 17:00; Sa 15:00", "name": "USPS COLLECTION BOX - BLUE BOX", "note": "ON 12/24 AND 12/31, THIS BOX MAY BE COLLECTED AS EARLY AS 12 NOON.", "nsi_id": "unitedstatespostalservice-a77078", "operator": "United States Postal Service", "operator:short": "USPS", "operator:type": "public", "operator:wikidata": "Q668687", "ref": "0710400022"}, "type": "Feature"}
{"dataset_attributes": {"@spider": "usps_collection_boxes", "spider:collection_time": "2023-10-07T08:22:43.442925"}, "geometry": {"coordinates": [-74.1736464, 40.762836], "type": "Point"}, "id": "OQniJWJELE7lOQayLtfvySWggR4=", "properties": {"@spider": "usps_collection_boxes", "addr:city": "NEWARK", "addr:country": "US", "addr:full": "112 2ND AVE", "addr:postcode": "07104", "addr:state": "NJ", "amenity": "post_box", "brand": "United States Postal Service", "brand:wikidata": "Q668687", "collection_times": "Mo-Sa 12:00", "name": "USPS COLLECTION BOX - BLUE BOX", "nsi_id": "unitedstatespostalservice-a77078", "operator": "United States Postal Service", "operator:short": "USPS", "operator:type": "public", "operator:wikidata": "Q668687", "ref": "0710400027"}, "type": "Feature"}
{"dataset_attributes": {"@spider": "usps_collection_boxes", "spider:collection_time": "2023-10-07T08:22:43.442925"}, "geometry": {"coordinates": [-74.1719627, 40.78206], "type": "Point"}, "id": "rXIUOlGAhvxQsrt9HkGSkmHk43g=", "properties": {"@spider": "usps_collection_boxes", "addr:city": "NEWARK", "addr:country": "US", "addr:full": "341 MONTCLAIR AVE", "addr:postcode": "07104", "addr:state": "NJ", "amenity": "post_box", "brand": "United States Postal Service", "brand:wikidata": "Q668687", "collection_times": "Mo-Sa 12:00", "name": "USPS COLLECTION BOX - BLUE BOX", "nsi_id": "unitedstatespostalservice-a77078", "operator": "United States Postal Service", "operator:short": "USPS", "operator:type": "public", "operator:wikidata": "Q668687", "ref": "0710400030"}, "type": "Feature"}
{"dataset_attributes": {"@spider": "usps_collection_boxes", "spider:collection_time": "2023-10-07T08:22:43.442925"}, "geometry": {"coordinates": [-74.1627405, 40.781628], "type": "Point"}, "id": "Pu1B-foucirTF-kTsrrp1mPOY-A=", "properties": {"@spider": "usps_collection_boxes", "addr:city": "NEWARK", "addr:country": "US", "addr:full": "860 MOUNT PROSPECT AVE", "addr:postcode": "07104", "addr:state": "NJ", "amenity": "post_box", "brand": "United States Postal Service", "brand:wikidata": "Q668687", "collection_times": "Mo-Sa 12:00", "name": "USPS COLLECTION BOX - BLUE BOX", "nsi_id": "unitedstatespostalservice-a77078", "operator": "United States Postal Service", "operator:short": "USPS", "operator:type": "public", "operator:wikidata": "Q668687", "ref": "0710400034"}, "type": "Feature"}
{"dataset_attributes": {"@spider": "usps_collection_boxes", "spider:collection_time": "2023-10-07T08:22:43.442925"}, "geometry": {"coordinates": [-74.1741349, 40.755224], "type": "Point"}, "id": "5quwc4zFw5NFSC2nebEJuW-g9kk=", "properties": {"@spider": "usps_collection_boxes", "addr:city": "NEWARK", "addr:country": "US", "addr:full": "32 PARK AVE", "addr:postcode": "07104", "addr:state": "NJ", "amenity": "post_box", "brand": "United States Postal Service", "brand:wikidata": "Q668687", "collection_times": "Mo-Sa 12:00", "name": "USPS COLLECTION BOX - BLUE BOX", "nsi_id": "unitedstatespostalservice-a77078", "operator": "United States Postal Service", "operator:short": "USPS", "operator:type": "public", "operator:wikidata": "Q668687", "ref": "0710400037"}, "type": "Feature"}
{"dataset_attributes": {"@spider": "usps_collection_boxes", "spider:collection_time": "2023-10-07T08:22:43.442925"}, "geometry": {"coordinates": [-74.1717479, 40.770409], "type": "Point"}, "id": "BxcxViNDiOJVwJ_8eKTqyZ_TLB8=", "properties": {"@spider": "usps_collection_boxes", "addr:city": "NEWARK", "addr:country": "US", "addr:full": "224 BALLANTINE PKWY", "addr:postcode": "07104", "addr:state": "NJ", "amenity": "post_box", "brand": "United States Postal Service", "brand:wikidata": "Q668687", "collection_times": "Mo-Sa 12:00", "name": "USPS COLLECTION BOX - BLUE BOX", "nsi_id": "unitedstatespostalservice-a77078", "operator": "United States Postal Service", "operator:short": "USPS", "operator:type": "public", "operator:wikidata": "Q668687", "ref": "0710400039"}, "type": "Feature"}
{"dataset_attributes": {"@spider": "usps_collection_boxes", "spider:collection_time": "2023-10-07T08:22:43.442925"}, "geometry": {"coordinates": [-74.1707293, 40.764466], "type": "Point"}, "id": "1EITas_Pn5FXni9n6rusVPVdHlA=", "properties": {"@spider": "usps_collection_boxes", "addr:city": "NEWARK", "addr:country": "US", "addr:full": "375 MOUNT PROSPECT AVE", "addr:postcode": "07104", "addr:state": "NJ", "amenity": "post_box", "brand": "United States Postal Service", "brand:wikidata": "Q668687", "collection_times": "Mo-Sa 12:00", "name": "USPS COLLECTION BOX - BLUE BOX", "nsi_id": "unitedstatespostalservice-a77078", "operator": "United States Postal Service", "operator:short": "USPS", "operator:type": "public", "operator:wikidata": "Q668687", "ref": "0710400048"}, "type": "Feature"}
{"dataset_attributes": {"@spider": "usps_collection_boxes", "spider:collection_time": "2023-10-07T08:22:43.442925"}, "geometry": {"coordinates": [-74.169287686, 40.75891218], "type": "Point"}, "id": "8N6pW6YWqYgB6wBNAdH5daCDnck=", "properties": {"@spider": "usps_collection_boxes", "addr:city": "NEWARK", "addr:country": "US", "addr:full": "243 BROADWAY", "addr:postcode": "07104", "addr:state": "NJ", "amenity": "post_box", "brand": "United States Postal Service", "brand:wikidata": "Q668687", "collection_times": "Mo-Fr 17:00; Sa 15:00", "name": "USPS COLLECTION BOX - PO LOBBY", "note": "ON 12/24 AND 12/31, THIS BOX MAY BE COLLECTED AS EARLY AS 12 NOON.", "nsi_id": "unitedstatespostalservice-a77078", "operator": "United States Postal Service", "operator:short": "USPS", "operator:type": "public", "operator:wikidata": "Q668687", "ref": "0710400050"}, "type": "Feature"}
{"dataset_attributes": {"@spider": "usps_collection_boxes", "spider:collection_time": "2023-10-07T08:22:43.442925"}, "geometry": {"coordinates": [-74.169287686, 40.75891218], "type": "Point"}, "id": "Ad87daLlMSfeHx3eCrCpvpGVpEQ=", "properties": {"@spider": "usps_collection_boxes", "addr:city": "NEWARK", "addr:country": "US", "addr:full": "243 BROADWAY", "addr:postcode": "07104", "addr:state": "NJ", "amenity": "post_box", "brand": "United States Postal Service", "brand:wikidata": "Q668687", "collection_times": "Mo-Fr 17:00; Sa 15:00", "name": "USPS COLLECTION BOX - PO LOBBY", "note": "ON 12/24 AND 12/31, THIS BOX MAY BE COLLECTED AS EARLY AS 12 NOON.", "nsi_id": "unitedstatespostalservice-a77078", "operator": "United States Postal Service", "operator:short": "USPS", "operator:type": "public", "operator:wikidata": "Q668687", "ref": "0710400051"}, "type": "Feature"}
{"dataset_attributes": {"@spider": "usps_collection_boxes", "spider:collection_time": "2023-10-07T08:22:43.442925"}, "geometry": {"coordinates": [-74.177386649, 40.751272803], "type": "Point"}, "id": "Vyzk4I7SWcj4S7Jb2CfxzRmlxW4=", "properties": {"@spider": "usps_collection_boxes", "addr:city": "NEWARK", "addr:country": "US", "addr:full": "133 7TH AVE", "addr:postcode": "07104", "addr:state": "NJ", "amenity": "post_box", "brand": "United States Postal Service", "brand:wikidata": "Q668687", "collection_times": "Mo-Sa 12:00", "name": "USPS COLLECTION BOX - BLUE BOX", "nsi_id": "unitedstatespostalservice-a77078", "operator": "United States Postal Service", "operator:short": "USPS", "operator:type": "public", "operator:wikidata": "Q668687", "ref": "0710400052"}, "type": "Feature"}
{"dataset_attributes": {"@spider": "usps_collection_boxes", "spider:collection_time": "2023-10-07T08:22:43.442925"}, "geometry": {"coordinates": [-74.1652911, 40.72315], "type": "Point"}, "id": "4bj3ZEUjaPPRi3g9NYXsLUlYbG0=", "properties": {"@spider": "usps_collection_boxes", "addr:city": "NEWARK", "addr:country": "US", "addr:full": "247 CHESTNUT ST", "addr:postcode": "07105", "addr:state": "NJ", "amenity": "post_box", "brand": "United States Postal Service", "brand:wikidata": "Q668687", "collection_times": "Mo-Sa 13:00", "name": "USPS COLLECTION BOX - BLUE BOX", "note": "ON 12/24 AND 12/31, THIS BOX MAY BE COLLECTED AS EARLY AS 12 NOON.", "nsi_id": "unitedstatespostalservice-a77078", "operator": "United States Postal Service", "operator:short": "USPS", "operator:type": "public", "operator:wikidata": "Q668687", "ref": "0710500003"}, "type": "Feature"}
{"dataset_attributes": {"@spider": "usps_collection_boxes", "spider:collection_time": "2023-10-07T08:22:43.442925"}, "geometry": {"coordinates": [-74.1513499, 40.727596], "type": "Point"}, "id": "ZPCBQyw_oghMLv_nHDwlyVbDQfY=", "properties": {"@spider": "usps_collection_boxes", "addr:city": "NEWARK", "addr:country": "US", "addr:full": "279 FERRY ST", "addr:postcode": "07105", "addr:state": "NJ", "amenity": "post_box", "brand": "United States Postal Service", "brand:wikidata": "Q668687", "collection_times": "Mo-Fr 17:00; Sa 15:00", "name": "USPS COLLECTION BOX - BLUE BOX", "note": "ON 12/24 AND 12/31, THIS BOX MAY BE COLLECTED AS EARLY AS 12 NOON.", "nsi_id": "unitedstatespostalservice-a77078", "operator": "United States Postal Service", "operator:short": "USPS", "operator:type": "public", "operator:wikidata": "Q668687", "ref": "0710500004"}, "type": "Feature"}
{"dataset_attributes": {"@spider": "usps_collection_boxes", "spider:collection_time": "2023-10-07T08:22:43.442925"}, "geometry": {"coordinates": [-74.1659189, 40.727094], "type": "Point"}, "id": "puhXAthB6JEHDKWN4OSqfBgOU-Y=", "properties": {"@spider": "usps_collection_boxes", "addr:city": "NEWARK", "addr:country": "US", "addr:full": "94 NEW YORK AVE", "addr:postcode": "07105", "addr:state": "NJ", "amenity": "post_box", "brand": "United States Postal Service", "brand:wikidata": "Q668687", "collection_times": "Mo-Sa 13:00", "name": "USPS COLLECTION BOX - BLUE BOX", "note": "ON 12/24 AND 12/31, THIS BOX MAY BE COLLECTED AS EARLY AS 12 NOON.", "nsi_id": "unitedstatespostalservice-a77078", "operator": "United States Postal Service", "operator:short": "USPS", "operator:type": "public", "operator:wikidata": "Q668687", "ref": "0710500005"}, "type": "Feature"}
{"dataset_attributes": {"@spider": "usps_collection_boxes", "spider:collection_time": "2023-10-07T08:22:43.442925"}, "geometry": {"coordinates": [-74.1407786, 40.731564], "type": "Point"}, "id": "i4cyjnBorBa7yQn4x1dh1OqFoEw=", "properties": {"@spider": "usps_collection_boxes", "addr:city": "NEWARK", "addr:country": "US", "addr:full": "492 FERRY ST", "addr:postcode": "07105", "addr:state": "NJ", "amenity": "post_box", "brand": "United States Postal Service", "brand:wikidata": "Q668687", "collection_times": "Mo-Sa 13:00", "name": "USPS COLLECTION BOX - BLUE BOX", "note": "ON 12/24 AND 12/31, THIS BOX MAY BE COLLECTED AS EARLY AS 12 NOON.", "nsi_id": "unitedstatespostalservice-a77078", "operator": "United States Postal Service", "operator:short": "USPS", "operator:type": "public", "operator:wikidata": "Q668687", "ref": "0710500009"}, "type": "Feature"}
{"dataset_attributes": {"@spider": "usps_collection_boxes", "spider:collection_time": "2023-10-07T08:22:43.442925"}, "geometry": {"coordinates": [-74.162009141, 40.731544374], "type": "Point"}, "id": "hFW4ltULtgXD_WHjptRAwoRhAYs=", "properties": {"@spider": "usps_collection_boxes", "addr:city": "NEWARK", "addr:country": "US", "addr:full": "73 FERRY ST # 77", "addr:postcode": "07105", "addr:state": "NJ", "amenity": "post_box", "brand": "United States Postal Service", "brand:wikidata": "Q668687", "collection_times": "Mo-Sa 13:00", "name": "USPS COLLECTION BOX - BLUE BOX", "note": "ON 12/24 AND 12/31, THIS BOX MAY BE COLLECTED AS EARLY AS 12 NOON.", "nsi_id": "unitedstatespostalservice-a77078", "operator": "United States Postal Service", "operator:short": "USPS", "operator:type": "public", "operator:wikidata": "Q668687", "ref": "0710500011"}, "type": "Feature"}
{"dataset_attributes": {"@spider": "usps_collection_boxes", "spider:collection_time": "2023-10-07T08:22:43.442925"}, "geometry": {"coordinates": [-74.1580121, 40.720697], "type": "Point"}, "id": "x6fTq1NXSjJ4WIhfbhNKnknWADU=", "properties": {"@spider": "usps_collection_boxes", "addr:city": "NEWARK", "addr:country": "US", "addr:full": "414 CHESTNUT ST", "addr:postcode": "07105", "addr:state": "NJ", "amenity": "post_box", "brand": "United States Postal Service", "brand:wikidata": "Q668687", "collection_times": "Mo-Sa 13:00", "name": "USPS COLLECTION BOX - BLUE BOX", "note": "ON 12/24 AND 12/31, THIS BOX MAY BE COLLECTED AS EARLY AS 12 NOON.", "nsi_id": "unitedstatespostalservice-a77078", "operator": "United States Postal Service", "operator:short": "USPS", "operator:type": "public", "operator:wikidata": "Q668687", "ref": "0710500015"}, "type": "Feature"}
{"dataset_attributes": {"@spider": "usps_collection_boxes", "spider:collection_time": "2023-10-07T08:22:43.442925"}, "geometry": {"coordinates": [-74.1580699, 40.723723], "type": "Point"}, "id": "I3_PQQz4qKGZLHb2pzZJhYWDmXg=", "properties": {"@spider": "usps_collection_boxes", "addr:city": "NEWARK", "addr:country": "US", "addr:full": "70 PULASKI ST", "addr:postcode": "07105", "addr:state": "NJ", "amenity": "post_box", "brand": "United States Postal Service", "brand:wikidata": "Q668687", "collection_times": "Mo-Sa 13:00", "name": "USPS COLLECTION BOX - BLUE BOX", "note": "ON 12/24 AND 12/31, THIS BOX MAY BE COLLECTED AS EARLY AS 12 NOON.", "nsi_id": "unitedstatespostalservice-a77078", "operator": "United States Postal Service", "operator:short": "USPS", "operator:type": "public", "operator:wikidata": "Q668687", "ref": "0710500017"}, "type": "Feature"}
{"dataset_attributes": {"@spider": "usps_collection_boxes", "spider:collection_time": "2023-10-07T08:22:43.442925"}, "geometry": {"coordinates": [-74.1588474, 40.729425], "type": "Point"}, "id": "OBhoaF0TvSrzchEZGClo_-mXpVE=", "properties": {"@spider": "usps_collection_boxes", "addr:city": "NEWARK", "addr:country": "US", "addr:full": "151 FERRY ST", "addr:postcode": "07105", "addr:state": "NJ", "amenity": "post_box", "brand": "United States Postal Service", "brand:wikidata": "Q668687", "collection_times": "Mo-Sa 13:00", "name": "USPS COLLECTION BOX - BLUE BOX", "note": "ON 12/24 AND 12/31, THIS BOX MAY BE COLLECTED AS EARLY AS 12 NOON.", "nsi_id": "unitedstatespostalservice-a77078", "operator": "United States Postal Service", "operator:short": "USPS", "operator:type": "public", "operator:wikidata": "Q668687", "ref": "0710500018"}, "type": "Feature"}
{"dataset_attributes": {"@spider": "usps_collection_boxes", "spider:collection_time": "2023-10-07T08:22:43.442925"}, "geometry": {"coordinates": [-74.1513845, 40.727591], "type": "Point"}, "id": "VhZ5Jt2jGiKJuzdi7COXCyl7z4g=", "properties": {"@spider": "usps_collection_boxes", "addr:city": "NEWARK", "addr:country": "US", "addr:full": "279 FERRY ST", "addr:postcode": "07105", "addr:state": "NJ", "amenity": "post_box", "brand": "United States Postal Service", "brand:wikidata": "Q668687", "collection_times": "Mo-Fr 17:00; Sa 15:00", "name": "USPS COLLECTION BOX - BLUE BOX", "note": "ON 12/24 AND 12/31, THIS BOX MAY BE COLLECTED AS EARLY AS 12 NOON.", "nsi_id": "unitedstatespostalservice-a77078", "operator": "United States Postal Service", "operator:short": "USPS", "operator:type": "public", "operator:wikidata": "Q668687", "ref": "0710500022"}, "type": "Feature"}
{"dataset_attributes": {"@spider": "usps_collection_boxes", "spider:collection_time": "2023-10-07T08:22:43.442925"}, "geometry": {"coordinates": [-74.1572799, 40.728693], "type": "Point"}, "id": "zxDGY-7aFPLxmRPEcxLB0pTJ2uU=", "properties": {"@spider": "usps_collection_boxes", "addr:city": "NEWARK", "addr:country": "US", "addr:full": "185 FERRY ST", "addr:postcode": "07105", "addr:state": "NJ", "amenity": "post_box", "brand": "United States Postal Service", "brand:wikidata": "Q668687", "collection_times": "Mo-Sa 13:00", "name": "USPS COLLECTION BOX - BLUE BOX", "note": "ON 12/24 AND 12/31, THIS BOX MAY BE COLLECTED AS EARLY AS 12 NOON.", "nsi_id": "unitedstatespostalservice-a77078", "operator": "United States Postal Service", "operator:short": "USPS", "operator:type": "public", "operator:wikidata": "Q668687", "ref": "0710500023"}, "type": "Feature"}
{"dataset_attributes": {"@spider": "usps_collection_boxes", "spider:collection_time": "2023-10-07T08:22:43.442925"}, "geometry": {"coordinates": [-74.1631082, 40.727957], "type": "Point"}, "id": "mNIjk5UG8h_m4L_zz6b3ctB0otc=", "properties": {"@spider": "usps_collection_boxes", "addr:city": "NEWARK", "addr:country": "US", "addr:full": "155 JEFFERSON ST # 1", "addr:postcode": "07105", "addr:state": "NJ", "amenity": "post_box", "brand": "United States Postal Service", "brand:wikidata": "Q668687", "collection_times": "Mo-Sa 13:00", "name": "USPS COLLECTION BOX - BLUE BOX", "note": "ON 12/24 AND 12/31, THIS BOX MAY BE COLLECTED AS EARLY AS 12 NOON.", "nsi_id": "unitedstatespostalservice-a77078", "operator": "United States Postal Service", "operator:short": "USPS", "operator:type": "public", "operator:wikidata": "Q668687", "ref": "0710500026"}, "type": "Feature"}
{"dataset_attributes": {"@spider": "usps_collection_boxes", "spider:collection_time": "2023-10-07T08:22:43.442925"}, "geometry": {"coordinates": [-74.1637289, 40.726428], "type": "Point"}, "id": "ZLB3O140IMMBm-1Q4v_Kzs69Jlc=", "properties": {"@spider": "usps_collection_boxes", "addr:city": "NEWARK", "addr:country": "US", "addr:full": "140 NEW YORK AVE", "addr:postcode": "07105", "addr:state": "NJ", "amenity": "post_box", "brand": "United States Postal Service", "brand:wikidata": "Q668687", "collection_times": "Mo-Sa 13:00", "name": "USPS COLLECTION BOX - BLUE BOX", "note": "ON 12/24 AND 12/31, THIS BOX MAY BE COLLECTED AS EARLY AS 12 NOON.", "nsi_id": "unitedstatespostalservice-a77078", "operator": "United States Postal Service", "operator:short": "USPS", "operator:type": "public", "operator:wikidata": "Q668687", "ref": "0710500028"}, "type": "Feature"}
{"dataset_attributes": {"@spider": "usps_collection_boxes", "spider:collection_time": "2023-10-07T08:22:43.442925"}, "geometry": {"coordinates": [-74.1597468, 40.727705], "type": "Point"}, "id": "brsi1Wr1FN3glHL6L-FwnkCKCdk=", "properties": {"@spider": "usps_collection_boxes", "addr:city": "NEWARK", "addr:country": "US", "addr:full": "144 ADAMS ST", "addr:postcode": "07105", "addr:state": "NJ", "amenity": "post_box", "brand": "United States Postal Service", "brand:wikidata": "Q668687", "collection_times": "Mo-Sa 13:00", "name": "USPS COLLECTION BOX - BLUE BOX", "note": "ON 12/24 AND 12/31, THIS BOX MAY BE COLLECTED AS EARLY AS 12 NOON.", "nsi_id": "unitedstatespostalservice-a77078", "operator": "United States Postal Service", "operator:short": "USPS", "operator:type": "public", "operator:wikidata": "Q668687", "ref": "0710500030"}, "type": "Feature"}
{"dataset_attributes": {"@spider": "usps_collection_boxes", "spider:collection_time": "2023-10-07T08:22:43.442925"}, "geometry": {"coordinates": [-74.1649195, 40.729981], "type": "Point"}, "id": "qqIQ5rhkhbdoTN_rJJNfEt9iiyo=", "properties": {"@spider": "usps_collection_boxes", "addr:city": "NEWARK", "addr:country": "US", "addr:full": "112 UNION ST", "addr:postcode": "07105", "addr:state": "NJ", "amenity": "post_box", "brand": "United States Postal Service", "brand:wikidata": "Q668687", "collection_times": "Mo-Sa 13:00", "name": "USPS COLLECTION BOX - BLUE BOX", "note": "ON 12/24 AND 12/31, THIS BOX MAY BE COLLECTED AS EARLY AS 12 NOON.", "nsi_id": "unitedstatespostalservice-a77078", "operator": "United States Postal Service", "operator:short": "USPS", "operator:type": "public", "operator:wikidata": "Q668687", "ref": "0710500033"}, "type": "Feature"}
{"dataset_attributes": {"@spider": "usps_collection_boxes", "spider:collection_time": "2023-10-07T08:22:43.442925"}, "geometry": {"coordinates": [-74.1458966, 40.724877], "type": "Point"}, "id": "ZA2k48r4rCtcdrb_MyWm2SUy15w=", "properties": {"@spider": "usps_collection_boxes", "addr:city": "NEWARK", "addr:country": "US", "addr:full": "139 MAGAZINE ST", "addr:postcode": "07105", "addr:state": "NJ", "amenity": "post_box", "brand": "United States Postal Service", "brand:wikidata": "Q668687", "collection_times": "Mo-Sa 13:00", "name": "USPS COLLECTION BOX - BLUE BOX", "note": "ON 12/24 AND 12/31, THIS BOX MAY BE COLLECTED AS EARLY AS 12 NOON.", "nsi_id": "unitedstatespostalservice-a77078", "operator": "United States Postal Service", "operator:short": "USPS", "operator:type": "public", "operator:wikidata": "Q668687", "ref": "0710500035"}, "type": "Feature"}
{"dataset_attributes": {"@spider": "usps_collection_boxes", "spider:collection_time": "2023-10-07T08:22:43.442925"}, "geometry": {"coordinates": [-74.1495818, 40.725231], "type": "Point"}, "id": "iT833fjo1Lzoz6VS9CYmGHw2aEs=", "properties": {"@spider": "usps_collection_boxes", "addr:city": "NEWARK", "addr:country": "US", "addr:full": "51 MARNE ST", "addr:postcode": "07105", "addr:state": "NJ", "amenity": "post_box", "brand": "United States Postal Service", "brand:wikidata": "Q668687", "collection_times": "Mo-Sa 13:00", "name": "USPS COLLECTION BOX - BLUE BOX", "note": "ON 12/24 AND 12/31, THIS BOX MAY BE COLLECTED AS EARLY AS 12 NOON.", "nsi_id": "unitedstatespostalservice-a77078", "operator": "United States Postal Service", "operator:short": "USPS", "operator:type": "public", "operator:wikidata": "Q668687", "ref": "0710500038"}, "type": "Feature"}
{"dataset_attributes": {"@spider": "usps_collection_boxes", "spider:collection_time": "2023-10-07T08:22:43.442925"}, "geometry": {"coordinates": [-74.1608549265, 40.7216323766], "type": "Point"}, "id": "NAVwvPh6RmLPaQ8nG3sj2ej9tUg=", "properties": {"@spider": "usps_collection_boxes", "addr:city": "NEWARK", "addr:country": "US", "addr:full": "349 CHESTNUT ST", "addr:postcode": "07105", "addr:state": "NJ", "amenity": "post_box", "brand": "United States Postal Service", "brand:wikidata": "Q668687", "collection_times": "Mo-Sa 13:00", "name": "USPS COLLECTION BOX - BLUE BOX", "note": "ON 12/24 AND 12/31, THIS BOX MAY BE COLLECTED AS EARLY AS 12 NOON.", "nsi_id": "unitedstatespostalservice-a77078", "operator": "United States Postal Service", "operator:short": "USPS", "operator:type": "public", "operator:wikidata": "Q668687", "ref": "0710500040"}, "type": "Feature"}
{"dataset_attributes": {"@spider": "usps_collection_boxes", "spider:collection_time": "2023-10-07T08:22:43.442925"}, "geometry": {"coordinates": [-74.1498876, 40.732569], "type": "Point"}, "id": "7b8TOtvka0l1y0AiS7YZ1srblFw=", "properties": {"@spider": "usps_collection_boxes", "addr:city": "NEWARK", "addr:country": "US", "addr:full": "700 RAYMOND BLVD", "addr:postcode": "07105", "addr:state": "NJ", "amenity": "post_box", "brand": "United States Postal Service", "brand:wikidata": "Q668687", "collection_times": "Mo-Sa 13:00", "name": "USPS COLLECTION BOX - BLUE BOX", "note": "ON 12/24 AND 12/31, THIS BOX MAY BE COLLECTED AS EARLY AS 12 NOON.", "nsi_id": "unitedstatespostalservice-a77078", "operator": "United States Postal Service", "operator:short": "USPS", "operator:type": "public", "operator:wikidata": "Q668687", "ref": "0710500046"}, "type": "Feature"}
{"dataset_attributes": {"@spider": "usps_collection_boxes", "spider:collection_time": "2023-10-07T08:22:43.442925"}, "geometry": {"coordinates": [-74.1511419, 40.723402], "type": "Point"}, "id": "yx11VQhjBGCIIy3SOvWCh5JIYus=", "properties": {"@spider": "usps_collection_boxes", "addr:city": "NEWARK", "addr:country": "US", "addr:full": "149 WILSON AVE", "addr:postcode": "07105", "addr:state": "NJ", "amenity": "post_box", "brand": "United States Postal Service", "brand:wikidata": "Q668687", "collection_times": "Mo-Sa 13:00", "name": "USPS COLLECTION BOX - BLUE BOX", "note": "ON 12/24 AND 12/31, THIS BOX MAY BE COLLECTED AS EARLY AS 12 NOON.", "nsi_id": "unitedstatespostalservice-a77078", "operator": "United States Postal Service", "operator:short": "USPS", "operator:type": "public", "operator:wikidata": "Q668687", "ref": "0710500051"}, "type": "Feature"}
{"dataset_attributes": {"@spider": "usps_collection_boxes", "spider:collection_time": "2023-10-07T08:22:43.442925"}, "geometry": {"coordinates": [-74.1625578, 40.73477], "type": "Point"}, "id": "zDtkAbJjpFE7PnKkK2Xhw-5_GVE=", "properties": {"@spider": "usps_collection_boxes", "addr:city": "NEWARK", "addr:country": "US", "addr:full": "2 PENN PLZ E", "addr:postcode": "07105", "addr:state": "NJ", "amenity": "post_box", "brand": "United States Postal Service", "brand:wikidata": "Q668687", "collection_times": "Mo-Sa 13:00", "name": "USPS COLLECTION BOX - BLUE BOX", "note": "ON 12/24 AND 12/31, THIS BOX MAY BE COLLECTED AS EARLY AS 12 NOON.", "nsi_id": "unitedstatespostalservice-a77078", "operator": "United States Postal Service", "operator:short": "USPS", "operator:type": "public", "operator:wikidata": "Q668687", "ref": "0710500055"}, "type": "Feature"}
{"dataset_attributes": {"@spider": "usps_collection_boxes", "spider:collection_time": "2023-10-07T08:22:43.442925"}, "geometry": {"coordinates": [-74.1652893, 40.723145], "type": "Point"}, "id": "6dj3zcP-UQbtc5kzgrs1FCfBvUk=", "properties": {"@spider": "usps_collection_boxes", "addr:city": "NEWARK", "addr:country": "US", "addr:full": "247 CHESTNUT ST", "addr:postcode": "07105", "addr:state": "NJ", "amenity": "post_box", "brand": "United States Postal Service", "brand:wikidata": "Q668687", "collection_times": "Mo-Sa 13:00", "name": "USPS COLLECTION BOX - BLUE BOX", "note": "ON 12/24 AND 12/31, THIS BOX MAY BE COLLECTED AS EARLY AS 12 NOON.", "nsi_id": "unitedstatespostalservice-a77078", "operator": "United States Postal Service", "operator:short": "USPS", "operator:type": "public", "operator:wikidata": "Q668687", "ref": "0710500056"}, "type": "Feature"}
{"dataset_attributes": {"@spider": "usps_collection_boxes", "spider:collection_time": "2023-10-07T08:22:43.442925"}, "geometry": {"coordinates": [-74.152017689, 40.728624883], "type": "Point"}, "id": "c7Subg3ekwaz7nqaEtIOzc4lEEs=", "properties": {"@spider": "usps_collection_boxes", "addr:city": "NEWARK", "addr:country": "US", "addr:full": "279 FERRY ST STE 4", "addr:postcode": "07105", "addr:state": "NJ", "amenity": "post_box", "brand": "United States Postal Service", "brand:wikidata": "Q668687", "collection_times": "Mo-Fr 17:00; Sa 15:00", "name": "USPS COLLECTION BOX - PO LOBBY", "note": "ON 12/24 AND 12/31, THIS BOX MAY BE COLLECTED AS EARLY AS 12 NOON.", "nsi_id": "unitedstatespostalservice-a77078", "operator": "United States Postal Service", "operator:short": "USPS", "operator:type": "public", "operator:wikidata": "Q668687", "ref": "0710500057"}, "type": "Feature"}
{"dataset_attributes": {"@spider": "usps_collection_boxes", "spider:collection_time": "2023-10-07T08:22:43.442925"}, "geometry": {"coordinates": [-74.152017689, 40.728624883], "type": "Point"}, "id": "IvnRRGNuWJPoTXNPPADoDUFOhPI=", "properties": {"@spider": "usps_collection_boxes", "addr:city": "NEWARK", "addr:country": "US", "addr:full": "279 FERRY ST STE 4", "addr:postcode": "07105", "addr:state": "NJ", "amenity": "post_box", "brand": "United States Postal Service", "brand:wikidata": "Q668687", "collection_times": "Mo-Fr 17:00; Sa 15:00", "name": "USPS COLLECTION BOX - PO LOBBY", "note": "ON 12/24 AND 12/31, THIS BOX MAY BE COLLECTED AS EARLY AS 12 NOON.", "nsi_id": "unitedstatespostalservice-a77078", "operator": "United States Postal Service", "operator:short": "USPS", "operator:type": "public", "operator:wikidata": "Q668687", "ref": "0710500063"}, "type": "Feature"}
{"dataset_attributes": {"@spider": "usps_collection_boxes", "spider:collection_time": "2023-10-07T08:22:43.442925"}, "geometry": {"coordinates": [-74.231161986, 40.738950587], "type": "Point"}, "id": "_japhH5cgnBws5E9p3zaX6nKXuQ=", "properties": {"@spider": "usps_collection_boxes", "addr:city": "NEWARK", "addr:country": "US", "addr:full": "210 STUYVESANT AVE", "addr:postcode": "07106", "addr:state": "NJ", "amenity": "post_box", "brand": "United States Postal Service", "brand:wikidata": "Q668687", "collection_times": "Mo-Fr 17:00; Sa 15:00", "name": "USPS COLLECTION BOX - BLUE BOX", "note": "ON 12/24 AND 12/31, THIS BOX MAY BE COLLECTED AS EARLY AS 12 NOON.", "nsi_id": "unitedstatespostalservice-a77078", "operator": "United States Postal Service", "operator:short": "USPS", "operator:type": "public", "operator:wikidata": "Q668687", "ref": "0710600002"}, "type": "Feature"}
{"dataset_attributes": {"@spider": "usps_collection_boxes", "spider:collection_time": "2023-10-07T08:22:43.442925"}, "geometry": {"coordinates": [-74.2462252, 40.738016], "type": "Point"}, "id": "6KNc5TMqCcptHTdakXKdboD5fEM=", "properties": {"@spider": "usps_collection_boxes", "addr:city": "NEWARK", "addr:country": "US", "addr:full": "5 MANOR DR", "addr:postcode": "07106", "addr:state": "NJ", "amenity": "post_box", "brand": "United States Postal Service", "brand:wikidata": "Q668687", "collection_times": "Mo-Sa 13:00", "name": "USPS COLLECTION BOX - BLUE BOX", "note": "ON 12/24 AND 12/31, THIS BOX MAY BE COLLECTED AS EARLY AS 12 NOON.", "nsi_id": "unitedstatespostalservice-a77078", "operator": "United States Postal Service", "operator:short": "USPS", "operator:type": "public", "operator:wikidata": "Q668687", "ref": "0710600004"}, "type": "Feature"}
{"dataset_attributes": {"@spider": "usps_collection_boxes", "spider:collection_time": "2023-10-07T08:22:43.442925"}, "geometry": {"coordinates": [-74.240649, 40.736241], "type": "Point"}, "id": "mWn936fhh9UwCB3rBO8SO4RQY44=", "properties": {"@spider": "usps_collection_boxes", "addr:city": "NEWARK", "addr:country": "US", "addr:full": "72 MOUNT VERNON PL", "addr:postcode": "07106", "addr:state": "NJ", "amenity": "post_box", "brand": "United States Postal Service", "brand:wikidata": "Q668687", "collection_times": "Mo-Sa 13:00", "name": "USPS COLLECTION BOX - BLUE BOX", "note": "ON 12/24 AND 12/31, THIS BOX MAY BE COLLECTED AS EARLY AS 12 NOON.", "nsi_id": "unitedstatespostalservice-a77078", "operator": "United States Postal Service", "operator:short": "USPS", "operator:type": "public", "operator:wikidata": "Q668687", "ref": "0710600006"}, "type": "Feature"}
{"dataset_attributes": {"@spider": "usps_collection_boxes", "spider:collection_time": "2023-10-07T08:22:43.442925"}, "geometry": {"coordinates": [-74.2438860397, 40.7334639927], "type": "Point"}, "id": "PsDglBIMqkSie1WzBEz2qvAiKbw=", "properties": {"@spider": "usps_collection_boxes", "addr:city": "NEWARK", "addr:country": "US", "addr:full": "202 NORMAN RD", "addr:postcode": "07106", "addr:state": "NJ", "amenity": "post_box", "brand": "United States Postal Service", "brand:wikidata": "Q668687", "collection_times": "Mo-Sa 13:00", "name": "USPS COLLECTION BOX - BLUE BOX", "note": "ON 12/24 AND 12/31, THIS BOX MAY BE COLLECTED AS EARLY AS 12 NOON.", "nsi_id": "unitedstatespostalservice-a77078", "operator": "United States Postal Service", "operator:short": "USPS", "operator:type": "public", "operator:wikidata": "Q668687", "ref": "0710600010"}, "type": "Feature"}
{"dataset_attributes": {"@spider": "usps_collection_boxes", "spider:collection_time": "2023-10-07T08:22:43.442925"}, "geometry": {"coordinates": [-74.2363564, 40.745679], "type": "Point"}, "id": "6Y9wzn4H7vI2fLVWXqLBfwQMItk=", "properties": {"@spider": "usps_collection_boxes", "addr:city": "NEWARK", "addr:country": "US", "addr:full": "1143 S ORANGE AVE", "addr:postcode": "07106", "addr:state": "NJ", "amenity": "post_box", "brand": "United States Postal Service", "brand:wikidata": "Q668687", "collection_times": "Mo-Sa 13:00", "name": "USPS COLLECTION BOX - BLUE BOX", "note": "ON 12/24 AND 12/31, THIS BOX MAY BE COLLECTED AS EARLY AS 12 NOON.", "nsi_id": "unitedstatespostalservice-a77078", "operator": "United States Postal Service", "operator:short": "USPS", "operator:type": "public", "operator:wikidata": "Q668687", "ref": "0710600021"}, "type": "Feature"}
{"dataset_attributes": {"@spider": "usps_collection_boxes", "spider:collection_time": "2023-10-07T08:22:43.442925"}, "geometry": {"coordinates": [-74.2315995, 40.746315], "type": "Point"}, "id": "tJa27b6X6z28lo4KroMu8BrqCpE=", "properties": {"@spider": "usps_collection_boxes", "addr:city": "NEWARK", "addr:country": "US", "addr:full": "1039 S ORANGE AVE", "addr:postcode": "07106", "addr:state": "NJ", "amenity": "post_box", "brand": "United States Postal Service", "brand:wikidata": "Q668687", "collection_times": "Mo-Sa 13:00", "name": "USPS COLLECTION BOX - BLUE BOX", "note": "ON 12/24 AND 12/31, THIS BOX MAY BE COLLECTED AS EARLY AS 12 NOON.", "nsi_id": "unitedstatespostalservice-a77078", "operator": "United States Postal Service", "operator:short": "USPS", "operator:type": "public", "operator:wikidata": "Q668687", "ref": "0710600023"}, "type": "Feature"}
{"dataset_attributes": {"@spider": "usps_collection_boxes", "spider:collection_time": "2023-10-07T08:22:43.442925"}, "geometry": {"coordinates": [-74.231161986, 40.738950587], "type": "Point"}, "id": "92M4dgKxSBxudnIZCrDxyU79FNE=", "properties": {"@spider": "usps_collection_boxes", "addr:city": "NEWARK", "addr:country": "US", "addr:full": "210 STUYVESANT AVE", "addr:postcode": "07106", "addr:state": "NJ", "amenity": "post_box", "brand": "United States Postal Service", "brand:wikidata": "Q668687", "collection_times": "Mo-Fr 17:00; Sa 15:00", "name": "USPS COLLECTION BOX - PO LOBBY", "note": "ON 12/24 AND 12/31, THIS BOX MAY BE COLLECTED AS EARLY AS 12 NOON.", "nsi_id": "unitedstatespostalservice-a77078", "operator": "United States Postal Service", "operator:short": "USPS", "operator:type": "public", "operator:wikidata": "Q668687", "ref": "0710600024"}, "type": "Feature"}
{"dataset_attributes": {"@spider": "usps_collection_boxes", "spider:collection_time": "2023-10-07T08:22:43.442925"}, "geometry": {"coordinates": [-74.231161986, 40.738950587], "type": "Point"}, "id": "E84rNG_Rta-_hgISRLMNvMzP170=", "properties": {"@spider": "usps_collection_boxes", "addr:city": "NEWARK", "addr:country": "US", "addr:full": "210 STUYVESANT AVE", "addr:postcode": "07106", "addr:state": "NJ", "amenity": "post_box", "brand": "United States Postal Service", "brand:wikidata": "Q668687", "collection_times": "Mo-Fr 17:00; Sa 15:00", "name": "USPS COLLECTION BOX - PO LOBBY", "note": "ON 12/24 AND 12/31, THIS BOX MAY BE COLLECTED AS EARLY AS 12 NOON.", "nsi_id": "unitedstatespostalservice-a77078", "operator": "United States Postal Service", "operator:short": "USPS", "operator:type": "public", "operator:wikidata": "Q668687", "ref": "0710600026"}, "type": "Feature"}
{"dataset_attributes": {"@spider": "usps_collection_boxes", "spider:collection_time": "2023-10-07T08:22:43.442925"}, "geometry": {"coordinates": [-74.1870099, 40.772835], "type": "Point"}, "id": "2DQ7f9RQRX29mIZlk3pBxpFp5-w=", "properties": {"@spider": "usps_collection_boxes", "addr:city": "NEWARK", "addr:country": "US", "addr:full": "495 N 13TH ST", "addr:postcode": "07107", "addr:state": "NJ", "amenity": "post_box", "brand": "United States Postal Service", "brand:wikidata": "Q668687", "collection_times": "Mo-Sa 13:00", "name": "USPS COLLECTION BOX - BLUE BOX", "note": "ON 12/24 AND 12/31, THIS BOX MAY BE COLLECTED AS EARLY AS 12 NOON.", "nsi_id": "unitedstatespostalservice-a77078", "operator": "United States Postal Service", "operator:short": "USPS", "operator:type": "public", "operator:wikidata": "Q668687", "ref": "0710700010"}, "type": "Feature"}
{"dataset_attributes": {"@spider": "usps_collection_boxes", "spider:collection_time": "2023-10-07T08:22:43.442925"}, "geometry": {"coordinates": [-74.1763254, 40.781751], "type": "Point"}, "id": "xpoKrXmlNR1s62iApVQB_sDxbmw=", "properties": {"@spider": "usps_collection_boxes", "addr:city": "NEWARK", "addr:country": "US", "addr:full": "60 CEDAR LN", "addr:postcode": "07107", "addr:state": "NJ", "amenity": "post_box", "brand": "United States Postal Service", "brand:wikidata": "Q668687", "collection_times": "Mo-Sa 13:00", "name": "USPS COLLECTION BOX - BLUE BOX", "note": "ON 12/24 AND 12/31, THIS BOX MAY BE COLLECTED AS EARLY AS 12 NOON.", "nsi_id": "unitedstatespostalservice-a77078", "operator": "United States Postal Service", "operator:short": "USPS", "operator:type": "public", "operator:wikidata": "Q668687", "ref": "0710700013"}, "type": "Feature"}
{"dataset_attributes": {"@spider": "usps_collection_boxes", "spider:collection_time": "2023-10-07T08:22:43.442925"}, "geometry": {"coordinates": [-74.1773309, 40.776964], "type": "Point"}, "id": "LCl4INlUo1DlpkHww5PNuG3dYac=", "properties": {"@spider": "usps_collection_boxes", "addr:city": "NEWARK", "addr:country": "US", "addr:full": "801 N 6TH ST", "addr:postcode": "07107", "addr:state": "NJ", "amenity": "post_box", "brand": "United States Postal Service", "brand:wikidata": "Q668687", "collection_times": "Mo-Sa 13:00", "name": "USPS COLLECTION BOX - BLUE BOX", "note": "ON 12/24 AND 12/31, THIS BOX MAY BE COLLECTED AS EARLY AS 12 NOON.", "nsi_id": "unitedstatespostalservice-a77078", "operator": "United States Postal Service", "operator:short": "USPS", "operator:type": "public", "operator:wikidata": "Q668687", "ref": "0710700015"}, "type": "Feature"}
{"dataset_attributes": {"@spider": "usps_collection_boxes", "spider:collection_time": "2023-10-07T08:22:43.442925"}, "geometry": {"coordinates": [-74.1758759, 40.780306], "type": "Point"}, "id": "dL8mZFmm0tbD1GbLZpu3JJdfxPg=", "properties": {"@spider": "usps_collection_boxes", "addr:city": "NEWARK", "addr:country": "US", "addr:full": "900 FRANKLIN AVE", "addr:postcode": "07107", "addr:state": "NJ", "amenity": "post_box", "brand": "United States Postal Service", "brand:wikidata": "Q668687", "collection_times": "Mo-Sa 13:00", "name": "USPS COLLECTION BOX - BLUE BOX", "note": "ON 12/24 AND 12/31, THIS BOX MAY BE COLLECTED AS EARLY AS 12 NOON.", "nsi_id": "unitedstatespostalservice-a77078", "operator": "United States Postal Service", "operator:short": "USPS", "operator:type": "public", "operator:wikidata": "Q668687", "ref": "0710700016"}, "type": "Feature"}
{"dataset_attributes": {"@spider": "usps_collection_boxes", "spider:collection_time": "2023-10-07T08:22:43.442925"}, "geometry": {"coordinates": [-74.1810661, 40.767438], "type": "Point"}, "id": "NNHkl1y1AvCCsiL2_I0Eds0LQNA=", "properties": {"@spider": "usps_collection_boxes", "addr:city": "NEWARK", "addr:country": "US", "addr:full": "355 BLOOMFIELD AVE", "addr:postcode": "07107", "addr:state": "NJ", "amenity": "post_box", "brand": "United States Postal Service", "brand:wikidata": "Q668687", "collection_times": "Mo-Sa 13:00", "name": "USPS COLLECTION BOX - BLUE BOX", "note": "ON 12/24 AND 12/31, THIS BOX MAY BE COLLECTED AS EARLY AS 12 NOON.", "nsi_id": "unitedstatespostalservice-a77078", "operator": "United States Postal Service", "operator:short": "USPS", "operator:type": "public", "operator:wikidata": "Q668687", "ref": "0710700017"}, "type": "Feature"}
{"dataset_attributes": {"@spider": "usps_collection_boxes", "spider:collection_time": "2023-10-07T08:22:43.442925"}, "geometry": {"coordinates": [-74.1830181, 40.770341], "type": "Point"}, "id": "WWofpq98z43cDin9JpQxp4rwBBA=", "properties": {"@spider": "usps_collection_boxes", "addr:city": "NEWARK", "addr:country": "US", "addr:full": "427 BLOOMFIELD AVE", "addr:postcode": "07107", "addr:state": "NJ", "amenity": "post_box", "brand": "United States Postal Service", "brand:wikidata": "Q668687", "collection_times": "Mo-Sa 13:00", "name": "USPS COLLECTION BOX - BLUE BOX", "note": "ON 12/24 AND 12/31, THIS BOX MAY BE COLLECTED AS EARLY AS 12 NOON.", "nsi_id": "unitedstatespostalservice-a77078", "operator": "United States Postal Service", "operator:short": "USPS", "operator:type": "public", "operator:wikidata": "Q668687", "ref": "0710700019"}, "type": "Feature"}
{"dataset_attributes": {"@spider": "usps_collection_boxes", "spider:collection_time": "2023-10-07T08:22:43.442925"}, "geometry": {"coordinates": [-74.1825934, 40.77389], "type": "Point"}, "id": "aI5f5T03qRq91A_xpt7fnU5ouwE=", "properties": {"@spider": "usps_collection_boxes", "addr:city": "NEWARK", "addr:country": "US", "addr:full": "81 DAVENPORT AVE", "addr:postcode": "07107", "addr:state": "NJ", "amenity": "post_box", "brand": "United States Postal Service", "brand:wikidata": "Q668687", "collection_times": "Mo-Sa 13:00", "name": "USPS COLLECTION BOX - BLUE BOX", "note": "ON 12/24 AND 12/31, THIS BOX MAY BE COLLECTED AS EARLY AS 12 NOON.", "nsi_id": "unitedstatespostalservice-a77078", "operator": "United States Postal Service", "operator:short": "USPS", "operator:type": "public", "operator:wikidata": "Q668687", "ref": "0710700020"}, "type": "Feature"}
{"dataset_attributes": {"@spider": "usps_collection_boxes", "spider:collection_time": "2023-10-07T08:22:43.442925"}, "geometry": {"coordinates": [-74.189740127, 40.75468021], "type": "Point"}, "id": "he4l8mDY0kGxI75fot-olERWfMU=", "properties": {"@spider": "usps_collection_boxes", "addr:city": "NEWARK", "addr:country": "US", "addr:full": "374 7TH AVE W", "addr:postcode": "07107", "addr:state": "NJ", "amenity": "post_box", "brand": "United States Postal Service", "brand:wikidata": "Q668687", "collection_times": "Mo-Fr 17:00; Sa 15:00", "name": "USPS COLLECTION BOX - PO LOBBY", "note": "ON 12/24 AND 12/31, THIS BOX MAY BE COLLECTED AS EARLY AS 12 NOON.", "nsi_id": "unitedstatespostalservice-a77078", "operator": "United States Postal Service", "operator:short": "USPS", "operator:type": "public", "operator:wikidata": "Q668687", "ref": "0710700026"}, "type": "Feature"}
{"dataset_attributes": {"@spider": "usps_collection_boxes", "spider:collection_time": "2023-10-07T08:22:43.442925"}, "geometry": {"coordinates": [-74.1935634, 40.724146], "type": "Point"}, "id": "vlZpcemW8UrndfyGTH6uOj7KgDM=", "properties": {"@spider": "usps_collection_boxes", "addr:city": "NEWARK", "addr:country": "US", "addr:full": "125 AVON AVE", "addr:postcode": "07108", "addr:state": "NJ", "amenity": "post_box", "brand": "United States Postal Service", "brand:wikidata": "Q668687", "collection_times": "Mo-Sa 13:00", "name": "USPS COLLECTION BOX - BLUE BOX", "note": "ON 12/24 AND 12/31, THIS BOX MAY BE COLLECTED AS EARLY AS 12 NOON.", "nsi_id": "unitedstatespostalservice-a77078", "operator": "United States Postal Service", "operator:short": "USPS", "operator:type": "public", "operator:wikidata": "Q668687", "ref": "0710800001"}, "type": "Feature"}
{"dataset_attributes": {"@spider": "usps_collection_boxes", "spider:collection_time": "2023-10-07T08:22:43.442925"}, "geometry": {"coordinates": [-74.1752819, 40.785222], "type": "Point"}, "id": "7xVOmbTnCPh4R0vqUFLMXgbDodY=", "properties": {"@spider": "usps_collection_boxes", "addr:city": "BELLEVILLE", "addr:country": "US", "addr:full": "1 FRANKLIN AVE", "addr:postcode": "07109", "addr:state": "NJ", "amenity": "post_box", "brand": "United States Postal Service", "brand:wikidata": "Q668687", "collection_times": "Mo-Sa 13:00", "name": "USPS COLLECTION BOX - BLUE BOX", "note": "ON 12/24 AND 12/31, THIS BOX MAY BE COLLECTED AS EARLY AS 12 NOON.", "nsi_id": "unitedstatespostalservice-a77078", "operator": "United States Postal Service", "operator:short": "USPS", "operator:type": "public", "operator:wikidata": "Q668687", "ref": "0710900001"}, "type": "Feature"}
{"dataset_attributes": {"@spider": "usps_collection_boxes", "spider:collection_time": "2023-10-07T08:22:43.442925"}, "geometry": {"coordinates": [-74.1530404, 40.786317], "type": "Point"}, "id": "uqyiyOjbOKQBdNGAyaTTVHhfvcQ=", "properties": {"@spider": "usps_collection_boxes", "addr:city": "BELLEVILLE", "addr:country": "US", "addr:full": "152 WASHINGTON AVE", "addr:postcode": "07109", "addr:state": "NJ", "amenity": "post_box", "brand": "United States Postal Service", "brand:wikidata": "Q668687", "collection_times": "Mo-Sa 13:00", "name": "USPS COLLECTION BOX - BLUE BOX", "note": "ON 12/24 AND 12/31, THIS BOX MAY BE COLLECTED AS EARLY AS 12 NOON.", "nsi_id": "unitedstatespostalservice-a77078", "operator": "United States Postal Service", "operator:short": "USPS", "operator:type": "public", "operator:wikidata": "Q668687", "ref": "0710900002"}, "type": "Feature"}
{"dataset_attributes": {"@spider": "usps_collection_boxes", "spider:collection_time": "2023-10-07T08:22:43.442925"}, "geometry": {"coordinates": [-74.1768036, 40.784077], "type": "Point"}, "id": "NcgyDTsCKoYVeck98FBPA2QbOrM=", "properties": {"@spider": "usps_collection_boxes", "addr:city": "BELLEVILLE", "addr:country": "US", "addr:full": "36 NEWARK AVE", "addr:postcode": "07109", "addr:state": "NJ", "amenity": "post_box", "brand": "United States Postal Service", "brand:wikidata": "Q668687", "collection_times": "Mo-Sa 13:00", "name": "USPS COLLECTION BOX - BLUE BOX", "note": "ON 12/24 AND 12/31, THIS BOX MAY BE COLLECTED AS EARLY AS 12 NOON.", "nsi_id": "unitedstatespostalservice-a77078", "operator": "United States Postal Service", "operator:short": "USPS", "operator:type": "public", "operator:wikidata": "Q668687", "ref": "0710900004"}, "type": "Feature"}
{"dataset_attributes": {"@spider": "usps_collection_boxes", "spider:collection_time": "2023-10-07T08:22:43.442925"}, "geometry": {"coordinates": [-74.1496761, 40.794905], "type": "Point"}, "id": "AlRULc1PYuPwl5uemWC1nHQljig=", "properties": {"@spider": "usps_collection_boxes", "addr:city": "BELLEVILLE", "addr:country": "US", "addr:full": "413 WASHINGTON AVE UNIT 1", "addr:postcode": "07109", "addr:state": "NJ", "amenity": "post_box", "brand": "United States Postal Service", "brand:wikidata": "Q668687", "collection_times": "Mo-Fr 17:00; Sa 15:00", "name": "USPS COLLECTION BOX - BLUE BOX", "note": "ON 12/24 AND 12/31, THIS BOX MAY BE COLLECTED AS EARLY AS 12 NOON.", "nsi_id": "unitedstatespostalservice-a77078", "operator": "United States Postal Service", "operator:short": "USPS", "operator:type": "public", "operator:wikidata": "Q668687", "ref": "0710900006"}, "type": "Feature"}
{"dataset_attributes": {"@spider": "usps_collection_boxes", "spider:collection_time": "2023-10-07T08:22:43.442925"}, "geometry": {"coordinates": [-74.1496863, 40.794895], "type": "Point"}, "id": "UZcQFcsEludabduvrwMxhkwPYMY=", "properties": {"@spider": "usps_collection_boxes", "addr:city": "BELLEVILLE", "addr:country": "US", "addr:full": "413 WASHINGTON AVE UNIT 2", "addr:postcode": "07109", "addr:state": "NJ", "amenity": "post_box", "brand": "United States Postal Service", "brand:wikidata": "Q668687", "collection_times": "Mo-Fr 17:00; Sa 15:00", "name": "USPS COLLECTION BOX - BLUE BOX", "note": "ON 12/24 AND 12/31, THIS BOX MAY BE COLLECTED AS EARLY AS 12 NOON.", "nsi_id": "unitedstatespostalservice-a77078", "operator": "United States Postal Service", "operator:short": "USPS", "operator:type": "public", "operator:wikidata": "Q668687", "ref": "0710900007"}, "type": "Feature"}
{"dataset_attributes": {"@spider": "usps_collection_boxes", "spider:collection_time": "2023-10-07T08:22:43.442925"}, "geometry": {"coordinates": [-74.1756979, 40.786841], "type": "Point"}, "id": "6LzyO_IV-CFSlVJa87qc4N_a20A=", "properties": {"@spider": "usps_collection_boxes", "addr:city": "BELLEVILLE", "addr:country": "US", "addr:full": "5 FRANKLIN AVE", "addr:postcode": "07109", "addr:state": "NJ", "amenity": "post_box", "brand": "United States Postal Service", "brand:wikidata": "Q668687", "collection_times": "Mo-Sa 13:00", "name": "USPS COLLECTION BOX - BLUE BOX", "note": "ON 12/24 AND 12/31, THIS BOX MAY BE COLLECTED AS EARLY AS 12 NOON.", "nsi_id": "unitedstatespostalservice-a77078", "operator": "United States Postal Service", "operator:short": "USPS", "operator:type": "public", "operator:wikidata": "Q668687", "ref": "0710900008"}, "type": "Feature"}
{"dataset_attributes": {"@spider": "usps_collection_boxes", "spider:collection_time": "2023-10-07T08:22:43.442925"}, "geometry": {"coordinates": [-74.1782943, 40.784464], "type": "Point"}, "id": "cdRGVNO31biSHzLaNBR6L4JvFdg=", "properties": {"@spider": "usps_collection_boxes", "addr:city": "BELLEVILLE", "addr:country": "US", "addr:full": "50 NEWARK AVE", "addr:postcode": "07109", "addr:state": "NJ", "amenity": "post_box", "brand": "United States Postal Service", "brand:wikidata": "Q668687", "collection_times": "Mo-Sa 13:00", "name": "USPS COLLECTION BOX - BLUE BOX", "note": "ON 12/24 AND 12/31, THIS BOX MAY BE COLLECTED AS EARLY AS 12 NOON.", "nsi_id": "unitedstatespostalservice-a77078", "operator": "United States Postal Service", "operator:short": "USPS", "operator:type": "public", "operator:wikidata": "Q668687", "ref": "0710900009"}, "type": "Feature"}
{"dataset_attributes": {"@spider": "usps_collection_boxes", "spider:collection_time": "2023-10-07T08:22:43.442925"}, "geometry": {"coordinates": [-74.1698146, 40.802837], "type": "Point"}, "id": "IsA7uAmiSU1_a4cJv2Un_aYSBHw=", "properties": {"@spider": "usps_collection_boxes", "addr:city": "BELLEVILLE", "addr:country": "US", "addr:full": "381 FRANKLIN AVE", "addr:postcode": "07109", "addr:state": "NJ", "amenity": "post_box", "brand": "United States Postal Service", "brand:wikidata": "Q668687", "collection_times": "Mo-Sa 13:00", "name": "USPS COLLECTION BOX - BLUE BOX", "note": "ON 12/24 AND 12/31, THIS BOX MAY BE COLLECTED AS EARLY AS 12 NOON.", "nsi_id": "unitedstatespostalservice-a77078", "operator": "United States Postal Service", "operator:short": "USPS", "operator:type": "public", "operator:wikidata": "Q668687", "ref": "0710900025"}, "type": "Feature"}
{"dataset_attributes": {"@spider": "usps_collection_boxes", "spider:collection_time": "2023-10-07T08:22:43.442925"}, "geometry": {"coordinates": [-74.1822352, 40.782465], "type": "Point"}, "id": "GftF5IzIhCEThZMcCoUnAJpi27E=", "properties": {"@spider": "usps_collection_boxes", "addr:city": "BELLEVILLE", "addr:country": "US", "addr:full": "172 FRANKLIN ST", "addr:postcode": "07109", "addr:state": "NJ", "amenity": "post_box", "brand": "United States Postal Service", "brand:wikidata": "Q668687", "collection_times": "Mo-Sa 13:00", "name": "USPS COLLECTION BOX - BLUE BOX", "note": "ON 12/24 AND 12/31, THIS BOX MAY BE COLLECTED AS EARLY AS 12 NOON.", "nsi_id": "unitedstatespostalservice-a77078", "operator": "United States Postal Service", "operator:short": "USPS", "operator:type": "public", "operator:wikidata": "Q668687", "ref": "0710900026"}, "type": "Feature"}
{"dataset_attributes": {"@spider": "usps_collection_boxes", "spider:collection_time": "2023-10-07T08:22:43.442925"}, "geometry": {"coordinates": [-74.1537243, 40.802754], "type": "Point"}, "id": "OoYa1IpV6WYnQTcrdM3wf5iHbbA=", "properties": {"@spider": "usps_collection_boxes", "addr:city": "BELLEVILLE", "addr:country": "US", "addr:full": "562 UNION AVE", "addr:postcode": "07109", "addr:state": "NJ", "amenity": "post_box", "brand": "United States Postal Service", "brand:wikidata": "Q668687", "collection_times": "Mo-Sa 13:00", "name": "USPS COLLECTION BOX - BLUE BOX", "note": "ON 12/24 AND 12/31, THIS BOX MAY BE COLLECTED AS EARLY AS 12 NOON.", "nsi_id": "unitedstatespostalservice-a77078", "operator": "United States Postal Service", "operator:short": "USPS", "operator:type": "public", "operator:wikidata": "Q668687", "ref": "0710900031"}, "type": "Feature"}
{"dataset_attributes": {"@spider": "usps_collection_boxes", "spider:collection_time": "2023-10-07T08:22:43.442925"}, "geometry": {"coordinates": [-74.156358, 40.794222], "type": "Point"}, "id": "80DXxWCuUdPPG-H45yA8UfWyN10=", "properties": {"@spider": "usps_collection_boxes", "addr:city": "BELLEVILLE", "addr:country": "US", "addr:full": "298 UNION AVE", "addr:postcode": "07109", "addr:state": "NJ", "amenity": "post_box", "brand": "United States Postal Service", "brand:wikidata": "Q668687", "collection_times": "Mo-Sa 13:00", "name": "USPS COLLECTION BOX - BLUE BOX", "note": "ON 12/24 AND 12/31, THIS BOX MAY BE COLLECTED AS EARLY AS 12 NOON.", "nsi_id": "unitedstatespostalservice-a77078", "operator": "United States Postal Service", "operator:short": "USPS", "operator:type": "public", "operator:wikidata": "Q668687", "ref": "0710900032"}, "type": "Feature"}
{"dataset_attributes": {"@spider": "usps_collection_boxes", "spider:collection_time": "2023-10-07T08:22:43.442925"}, "geometry": {"coordinates": [-74.1457423, 40.797595], "type": "Point"}, "id": "F6_onWivH0A9g7WQT1TZwScXHVM=", "properties": {"@spider": "usps_collection_boxes", "addr:city": "BELLEVILLE", "addr:country": "US", "addr:full": "500 CORTLANDT ST", "addr:postcode": "07109", "addr:state": "NJ", "amenity": "post_box", "brand": "United States Postal Service", "brand:wikidata": "Q668687", "collection_times": "Mo-Sa 13:00", "name": "USPS COLLECTION BOX - BLUE BOX", "note": "ON 12/24 AND 12/31, THIS BOX MAY BE COLLECTED AS EARLY AS 12 NOON.", "nsi_id": "unitedstatespostalservice-a77078", "operator": "United States Postal Service", "operator:short": "USPS", "operator:type": "public", "operator:wikidata": "Q668687", "ref": "0710900043"}, "type": "Feature"}
{"dataset_attributes": {"@spider": "usps_collection_boxes", "spider:collection_time": "2023-10-07T08:22:43.442925"}, "geometry": {"coordinates": [-74.1834018, 40.777397], "type": "Point"}, "id": "xvG9E9o-wFDff3yVGjZOCGboUKQ=", "properties": {"@spider": "usps_collection_boxes", "addr:city": "BELLEVILLE", "addr:country": "US", "addr:full": "101 HECKEL ST", "addr:postcode": "07109", "addr:state": "NJ", "amenity": "post_box", "brand": "United States Postal Service", "brand:wikidata": "Q668687", "collection_times": "Mo-Sa 13:00", "name": "USPS COLLECTION BOX - BLUE BOX", "note": "ON 12/24 AND 12/31, THIS BOX MAY BE COLLECTED AS EARLY AS 12 NOON.", "nsi_id": "unitedstatespostalservice-a77078", "operator": "United States Postal Service", "operator:short": "USPS", "operator:type": "public", "operator:wikidata": "Q668687", "ref": "0710900045"}, "type": "Feature"}
{"dataset_attributes": {"@spider": "usps_collection_boxes", "spider:collection_time": "2023-10-07T08:22:43.442925"}, "geometry": {"coordinates": [-74.1495591995, 40.7948299196], "type": "Point"}, "id": "0rP5EuXcO1S23UK4sBCF2u42POw=", "properties": {"@spider": "usps_collection_boxes", "addr:city": "BELLEVILLE", "addr:country": "US", "addr:full": "413 WASHINGTON AVE", "addr:postcode": "07109", "addr:state": "NJ", "amenity": "post_box", "brand": "United States Postal Service", "brand:wikidata": "Q668687", "collection_times": "Mo-Fr 17:00; Sa 15:00", "name": "USPS COLLECTION BOX - PO LOBBY", "note": "ON 12/24 AND 12/31, THIS BOX MAY BE COLLECTED AS EARLY AS 12 NOON.", "nsi_id": "unitedstatespostalservice-a77078", "operator": "United States Postal Service", "operator:short": "USPS", "operator:type": "public", "operator:wikidata": "Q668687", "ref": "0710900046"}, "type": "Feature"}
{"dataset_attributes": {"@spider": "usps_collection_boxes", "spider:collection_time": "2023-10-07T08:22:43.442925"}, "geometry": {"coordinates": [-74.149562266, 40.794880588], "type": "Point"}, "id": "uNcuhFucJYze0fFlCGJKcxebrKI=", "properties": {"@spider": "usps_collection_boxes", "addr:city": "BELLEVILLE", "addr:country": "US", "addr:full": "413 WASHINGTON AVE", "addr:postcode": "07109", "addr:state": "NJ", "amenity": "post_box", "brand": "United States Postal Service", "brand:wikidata": "Q668687", "collection_times": "Mo-Fr 17:00; Sa 15:00", "name": "USPS COLLECTION BOX - PO LOBBY", "note": "ON 12/24 AND 12/31, THIS BOX MAY BE COLLECTED AS EARLY AS 12 NOON.", "nsi_id": "unitedstatespostalservice-a77078", "operator": "United States Postal Service", "operator:short": "USPS", "operator:type": "public", "operator:wikidata": "Q668687", "ref": "0710900048"}, "type": "Feature"}
{"dataset_attributes": {"@spider": "usps_collection_boxes", "spider:collection_time": "2023-10-07T08:22:43.442925"}, "geometry": {"coordinates": [-74.1406763, 40.806758], "type": "Point"}, "id": "PJguM3wCABzlPBMhwQFXKq2Cw7s=", "properties": {"@spider": "usps_collection_boxes", "addr:city": "NUTLEY", "addr:country": "US", "addr:full": "25 RIVER RD", "addr:postcode": "07110", "addr:state": "NJ", "amenity": "post_box", "brand": "United States Postal Service", "brand:wikidata": "Q668687", "collection_times": "Mo-Sa 13:00", "name": "USPS COLLECTION BOX - BLUE BOX", "note": "ON 12/24 AND 12/31, THIS BOX MAY BE COLLECTED AS EARLY AS 12 NOON.", "nsi_id": "unitedstatespostalservice-a77078", "operator": "United States Postal Service", "operator:short": "USPS", "operator:type": "public", "operator:wikidata": "Q668687", "ref": "0711000002"}, "type": "Feature"}
{"dataset_attributes": {"@spider": "usps_collection_boxes", "spider:collection_time": "2023-10-07T08:22:43.442925"}, "geometry": {"coordinates": [-74.1607922, 40.814511], "type": "Point"}, "id": "SWolOxtVrDtG0tk3GzUZUFcSTKw=", "properties": {"@spider": "usps_collection_boxes", "addr:city": "NUTLEY", "addr:country": "US", "addr:full": "350 CENTRE ST", "addr:postcode": "07110", "addr:state": "NJ", "amenity": "post_box", "brand": "United States Postal Service", "brand:wikidata": "Q668687", "collection_times": "Mo-Sa 13:00", "name": "USPS COLLECTION BOX - BLUE BOX", "note": "ON 12/24 AND 12/31, THIS BOX MAY BE COLLECTED AS EARLY AS 12 NOON.", "nsi_id": "unitedstatespostalservice-a77078", "operator": "United States Postal Service", "operator:short": "USPS", "operator:type": "public", "operator:wikidata": "Q668687", "ref": "0711000006"}, "type": "Feature"}
{"dataset_attributes": {"@spider": "usps_collection_boxes", "spider:collection_time": "2023-10-07T08:22:43.442925"}, "geometry": {"coordinates": [-74.1588723, 40.81993], "type": "Point"}, "id": "3bRjW2DZory0WRQRkxuJtvu4c94=", "properties": {"@spider": "usps_collection_boxes", "addr:city": "NUTLEY", "addr:country": "US", "addr:full": "372 FRANKLIN AVE UNIT 3", "addr:postcode": "07110", "addr:state": "NJ", "amenity": "post_box", "brand": "United States Postal Service", "brand:wikidata": "Q668687", "collection_times": "Mo-Fr 17:00; Sa 15:00", "name": "USPS COLLECTION BOX - BLUE BOX", "note": "ON 12/24 AND 12/31, THIS BOX MAY BE COLLECTED AS EARLY AS 12 NOON.", "nsi_id": "unitedstatespostalservice-a77078", "operator": "United States Postal Service", "operator:short": "USPS", "operator:type": "public", "operator:wikidata": "Q668687", "ref": "0711000007"}, "type": "Feature"}
{"dataset_attributes": {"@spider": "usps_collection_boxes", "spider:collection_time": "2023-10-07T08:22:43.442925"}, "geometry": {"coordinates": [-74.1588752, 40.819907], "type": "Point"}, "id": "9Ft8963zsgTolQrN-eCVMindDmc=", "properties": {"@spider": "usps_collection_boxes", "addr:city": "NUTLEY", "addr:country": "US", "addr:full": "372 FRANKLIN AVE UNIT 1", "addr:postcode": "07110", "addr:state": "NJ", "amenity": "post_box", "brand": "United States Postal Service", "brand:wikidata": "Q668687", "collection_times": "Mo-Fr 17:00; Sa 15:00", "name": "USPS COLLECTION BOX - BLUE BOX", "note": "ON 12/24 AND 12/31, THIS BOX MAY BE COLLECTED AS EARLY AS 12 NOON.", "nsi_id": "unitedstatespostalservice-a77078", "operator": "United States Postal Service", "operator:short": "USPS", "operator:type": "public", "operator:wikidata": "Q668687", "ref": "0711000008"}, "type": "Feature"}
{"dataset_attributes": {"@spider": "usps_collection_boxes", "spider:collection_time": "2023-10-07T08:22:43.442925"}, "geometry": {"coordinates": [-74.1588819, 40.819916], "type": "Point"}, "id": "Iy9SSX_tNkDCkVt-lZBWKUSAtkQ=", "properties": {"@spider": "usps_collection_boxes", "addr:city": "NUTLEY", "addr:country": "US", "addr:full": "372 FRANKLIN AVE UNIT 2", "addr:postcode": "07110", "addr:state": "NJ", "amenity": "post_box", "brand": "United States Postal Service", "brand:wikidata": "Q668687", "collection_times": "Mo-Fr 17:00; Sa 15:00", "name": "USPS COLLECTION BOX - BLUE BOX", "note": "ON 12/24 AND 12/31, THIS BOX MAY BE COLLECTED AS EARLY AS 12 NOON.", "nsi_id": "unitedstatespostalservice-a77078", "operator": "United States Postal Service", "operator:short": "USPS", "operator:type": "public", "operator:wikidata": "Q668687", "ref": "0711000009"}, "type": "Feature"}
{"dataset_attributes": {"@spider": "usps_collection_boxes", "spider:collection_time": "2023-10-07T08:22:43.442925"}, "geometry": {"coordinates": [-74.1506142, 40.827245], "type": "Point"}, "id": "OdUJsNDOSlkhQaNL5UEXfL02DnM=", "properties": {"@spider": "usps_collection_boxes", "addr:city": "NUTLEY", "addr:country": "US", "addr:full": "652 FRANKLIN AVE", "addr:postcode": "07110", "addr:state": "NJ", "amenity": "post_box", "brand": "United States Postal Service", "brand:wikidata": "Q668687", "collection_times": "Mo-Sa 13:00", "name": "USPS COLLECTION BOX - BLUE BOX", "note": "ON 12/24 AND 12/31, THIS BOX MAY BE COLLECTED AS EARLY AS 12 NOON.", "nsi_id": "unitedstatespostalservice-a77078", "operator": "United States Postal Service", "operator:short": "USPS", "operator:type": "public", "operator:wikidata": "Q668687", "ref": "0711000012"}, "type": "Feature"}
{"dataset_attributes": {"@spider": "usps_collection_boxes", "spider:collection_time": "2023-10-07T08:22:43.442925"}, "geometry": {"coordinates": [-74.1640324, 40.824725], "type": "Point"}, "id": "2YKIywnM3kEmo4DcR674rHDo_jw=", "properties": {"@spider": "usps_collection_boxes", "addr:city": "NUTLEY", "addr:country": "US", "addr:full": "509 BLOOMFIELD AVE", "addr:postcode": "07110", "addr:state": "NJ", "amenity": "post_box", "brand": "United States Postal Service", "brand:wikidata": "Q668687", "collection_times": "Mo-Sa 13:00", "name": "USPS COLLECTION BOX - BLUE BOX", "note": "ON 12/24 AND 12/31, THIS BOX MAY BE COLLECTED AS EARLY AS 12 NOON.", "nsi_id": "unitedstatespostalservice-a77078", "operator": "United States Postal Service", "operator:short": "USPS", "operator:type": "public", "operator:wikidata": "Q668687", "ref": "0711000019"}, "type": "Feature"}
{"dataset_attributes": {"@spider": "usps_collection_boxes", "spider:collection_time": "2023-10-07T08:22:43.442925"}, "geometry": {"coordinates": [-74.1581403, 40.818314], "type": "Point"}, "id": "I3KyYIKQy_yUnjlm2_-K1i7JYJw=", "properties": {"@spider": "usps_collection_boxes", "addr:city": "NUTLEY", "addr:country": "US", "addr:full": "1 KENNEDY DR # 1", "addr:postcode": "07110", "addr:state": "NJ", "amenity": "post_box", "brand": "United States Postal Service", "brand:wikidata": "Q668687", "collection_times": "Mo-Sa 13:00", "name": "USPS COLLECTION BOX - BLUE BOX", "note": "ON 12/24 AND 12/31, THIS BOX MAY BE COLLECTED AS EARLY AS 12 NOON.", "nsi_id": "unitedstatespostalservice-a77078", "operator": "United States Postal Service", "operator:short": "USPS", "operator:type": "public", "operator:wikidata": "Q668687", "ref": "0711000031"}, "type": "Feature"}
{"dataset_attributes": {"@spider": "usps_collection_boxes", "spider:collection_time": "2023-10-07T08:22:43.442925"}, "geometry": {"coordinates": [-74.1439531, 40.814351], "type": "Point"}, "id": "4PiU_jDZejIiUzSDIvqTnXQRHbE=", "properties": {"@spider": "usps_collection_boxes", "addr:city": "NUTLEY", "addr:country": "US", "addr:full": "246 WASHINGTON AVE", "addr:postcode": "07110", "addr:state": "NJ", "amenity": "post_box", "brand": "United States Postal Service", "brand:wikidata": "Q668687", "collection_times": "Mo-Sa 13:00", "name": "USPS COLLECTION BOX - BLUE BOX", "note": "ON 12/24 AND 12/31, THIS BOX MAY BE COLLECTED AS EARLY AS 12 NOON.", "nsi_id": "unitedstatespostalservice-a77078", "operator": "United States Postal Service", "operator:short": "USPS", "operator:type": "public", "operator:wikidata": "Q668687", "ref": "0711000044"}, "type": "Feature"}
{"dataset_attributes": {"@spider": "usps_collection_boxes", "spider:collection_time": "2023-10-07T08:22:43.442925"}, "geometry": {"coordinates": [-74.1607963, 40.81451], "type": "Point"}, "id": "gL0uOJpg9EMJpq5XUfqhuX0Mwx0=", "properties": {"@spider": "usps_collection_boxes", "addr:city": "NUTLEY", "addr:country": "US", "addr:full": "350 CENTRE ST # 2", "addr:postcode": "07110", "addr:state": "NJ", "amenity": "post_box", "brand": "United States Postal Service", "brand:wikidata": "Q668687", "collection_times": "Mo-Sa 13:00", "name": "USPS COLLECTION BOX - BLUE BOX", "note": "ON 12/24 AND 12/31, THIS BOX MAY BE COLLECTED AS EARLY AS 12 NOON.", "nsi_id": "unitedstatespostalservice-a77078", "operator": "United States Postal Service", "operator:short": "USPS", "operator:type": "public", "operator:wikidata": "Q668687", "ref": "0711000046"}, "type": "Feature"}
{"dataset_attributes": {"@spider": "usps_collection_boxes", "spider:collection_time": "2023-10-07T08:22:43.442925"}, "geometry": {"coordinates": [-74.158932402, 40.819909907], "type": "Point"}, "id": "s8hV4NB-D0SwalHnu8_EKQrc6Og=", "properties": {"@spider": "usps_collection_boxes", "addr:city": "NUTLEY", "addr:country": "US", "addr:full": "372 FRANKLIN AVE", "addr:postcode": "07110", "addr:state": "NJ", "amenity": "post_box", "brand": "United States Postal Service", "brand:wikidata": "Q668687", "collection_times": "Mo-Fr 17:00; Sa 15:00", "name": "USPS COLLECTION BOX - PO LOBBY", "note": "ON 12/24 AND 12/31, THIS BOX MAY BE COLLECTED AS EARLY AS 12 NOON.", "nsi_id": "unitedstatespostalservice-a77078", "operator": "United States Postal Service", "operator:short": "USPS", "operator:type": "public", "operator:wikidata": "Q668687", "ref": "0711000047"}, "type": "Feature"}
{"dataset_attributes": {"@spider": "usps_collection_boxes", "spider:collection_time": "2023-10-07T08:22:43.442925"}, "geometry": {"coordinates": [-74.158932402, 40.819909907], "type": "Point"}, "id": "E7SWazw77Fe4ASR5rRWDJS3BuRw=", "properties": {"@spider": "usps_collection_boxes", "addr:city": "NUTLEY", "addr:country": "US", "addr:full": "372 FRANKLIN AVE", "addr:postcode": "07110", "addr:state": "NJ", "amenity": "post_box", "brand": "United States Postal Service", "brand:wikidata": "Q668687", "collection_times": "Mo-Fr 17:00; Sa 15:00", "name": "USPS COLLECTION BOX - PO LOBBY", "note": "ON 12/24 AND 12/31, THIS BOX MAY BE COLLECTED AS EARLY AS 12 NOON.", "nsi_id": "unitedstatespostalservice-a77078", "operator": "United States Postal Service", "operator:short": "USPS", "operator:type": "public", "operator:wikidata": "Q668687", "ref": "0711000050"}, "type": "Feature"}
{"dataset_attributes": {"@spider": "usps_collection_boxes", "spider:collection_time": "2023-10-07T08:22:43.442925"}, "geometry": {"coordinates": [-74.2294686, 40.726936], "type": "Point"}, "id": "DAIhaVs5j80mDsBnDDKvfslU8RA=", "properties": {"@spider": "usps_collection_boxes", "addr:city": "IRVINGTON", "addr:country": "US", "addr:full": "1136 CLINTON AVE", "addr:postcode": "07111", "addr:state": "NJ", "amenity": "post_box", "brand": "United States Postal Service", "brand:wikidata": "Q668687", "collection_times": "Mo-Sa 13:00", "name": "USPS COLLECTION BOX - BLUE BOX", "note": "ON 12/24 AND 12/31, THIS BOX MAY BE COLLECTED AS EARLY AS 12 NOON.", "nsi_id": "unitedstatespostalservice-a77078", "operator": "United States Postal Service", "operator:short": "USPS", "operator:type": "public", "operator:wikidata": "Q668687", "ref": "0711100001"}, "type": "Feature"}
{"dataset_attributes": {"@spider": "usps_collection_boxes", "spider:collection_time": "2023-10-07T08:22:43.442925"}, "geometry": {"coordinates": [-74.2208227, 40.730007], "type": "Point"}, "id": "-eJunS9sRAfOASc7W6OrYdJnbIA=", "properties": {"@spider": "usps_collection_boxes", "addr:city": "IRVINGTON", "addr:country": "US", "addr:full": "12 MARSHALL ST", "addr:postcode": "07111", "addr:state": "NJ", "amenity": "post_box", "brand": "United States Postal Service", "brand:wikidata": "Q668687", "collection_times": "Mo-Sa 13:00", "name": "USPS COLLECTION BOX - BLUE BOX", "note": "ON 12/24 AND 12/31, THIS BOX MAY BE COLLECTED AS EARLY AS 12 NOON.", "nsi_id": "unitedstatespostalservice-a77078", "operator": "United States Postal Service", "operator:short": "USPS", "operator:type": "public", "operator:wikidata": "Q668687", "ref": "0711100012"}, "type": "Feature"}
{"dataset_attributes": {"@spider": "usps_collection_boxes", "spider:collection_time": "2023-10-07T08:22:43.442925"}, "geometry": {"coordinates": [-74.2338747, 40.717705], "type": "Point"}, "id": "cEl-PXuDoSxzUJILGIC3R04HvRA=", "properties": {"@spider": "usps_collection_boxes", "addr:city": "IRVINGTON", "addr:country": "US", "addr:full": "40 MOUNT VERNON AVE", "addr:postcode": "07111", "addr:state": "NJ", "amenity": "post_box", "brand": "United States Postal Service", "brand:wikidata": "Q668687", "collection_times": "Mo-Sa 13:00", "name": "USPS COLLECTION BOX - BLUE BOX", "note": "ON 12/24 AND 12/31, THIS BOX MAY BE COLLECTED AS EARLY AS 12 NOON.", "nsi_id": "unitedstatespostalservice-a77078", "operator": "United States Postal Service", "operator:short": "USPS", "operator:type": "public", "operator:wikidata": "Q668687", "ref": "0711100014"}, "type": "Feature"}
{"dataset_attributes": {"@spider": "usps_collection_boxes", "spider:collection_time": "2023-10-07T08:22:43.442925"}, "geometry": {"coordinates": [-74.2303099, 40.724816], "type": "Point"}, "id": "SuPePebRrHMtStDJBb1J2GfCV0Y=", "properties": {"@spider": "usps_collection_boxes", "addr:city": "IRVINGTON", "addr:country": "US", "addr:full": "50 UNION AVE # 2", "addr:postcode": "07111", "addr:state": "NJ", "amenity": "post_box", "brand": "United States Postal Service", "brand:wikidata": "Q668687", "collection_times": "Mo-Sa 13:00", "name": "USPS COLLECTION BOX - BLUE BOX", "note": "ON 12/24 AND 12/31, THIS BOX MAY BE COLLECTED AS EARLY AS 12 NOON.", "nsi_id": "unitedstatespostalservice-a77078", "operator": "United States Postal Service", "operator:short": "USPS", "operator:type": "public", "operator:wikidata": "Q668687", "ref": "0711100016"}, "type": "Feature"}
{"dataset_attributes": {"@spider": "usps_collection_boxes", "spider:collection_time": "2023-10-07T08:22:43.442925"}, "geometry": {"coordinates": [-74.2136208, 40.740361], "type": "Point"}, "id": "61jopebJM9onU7cYvOJsiak5NF8=", "properties": {"@spider": "usps_collection_boxes", "addr:city": "IRVINGTON", "addr:country": "US", "addr:full": "712 15TH AVE", "addr:postcode": "07111", "addr:state": "NJ", "amenity": "post_box", "brand": "United States Postal Service", "brand:wikidata": "Q668687", "collection_times": "Mo-Sa 13:00", "name": "USPS COLLECTION BOX - BLUE BOX", "note": "ON 12/24 AND 12/31, THIS BOX MAY BE COLLECTED AS EARLY AS 12 NOON.", "nsi_id": "unitedstatespostalservice-a77078", "operator": "United States Postal Service", "operator:short": "USPS", "operator:type": "public", "operator:wikidata": "Q668687", "ref": "0711100018"}, "type": "Feature"}
{"dataset_attributes": {"@spider": "usps_collection_boxes", "spider:collection_time": "2023-10-07T08:22:43.442925"}, "geometry": {"coordinates": [-74.2188147, 40.723852], "type": "Point"}, "id": "VFiAl1dOt3z_X5PUir3gqc6NIhc=", "properties": {"@spider": "usps_collection_boxes", "addr:city": "IRVINGTON", "addr:country": "US", "addr:full": "900 CLINTON AVE", "addr:postcode": "07111", "addr:state": "NJ", "amenity": "post_box", "brand": "United States Postal Service", "brand:wikidata": "Q668687", "collection_times": "Mo-Sa 13:00", "name": "USPS COLLECTION BOX - BLUE BOX", "note": "ON 12/24 AND 12/31, THIS BOX MAY BE COLLECTED AS EARLY AS 12 NOON.", "nsi_id": "unitedstatespostalservice-a77078", "operator": "United States Postal Service", "operator:short": "USPS", "operator:type": "public", "operator:wikidata": "Q668687", "ref": "0711100020"}, "type": "Feature"}
{"dataset_attributes": {"@spider": "usps_collection_boxes", "spider:collection_time": "2023-10-07T08:22:43.442925"}, "geometry": {"coordinates": [-74.2244216, 40.720667], "type": "Point"}, "id": "W7NtJQykDFUXKcjNYxkt5hWwSn4=", "properties": {"@spider": "usps_collection_boxes", "addr:city": "IRVINGTON", "addr:country": "US", "addr:full": "119 COIT ST", "addr:postcode": "07111", "addr:state": "NJ", "amenity": "post_box", "brand": "United States Postal Service", "brand:wikidata": "Q668687", "collection_times": "Mo-Sa 13:00", "name": "USPS COLLECTION BOX - BLUE BOX", "note": "ON 12/24 AND 12/31, THIS BOX MAY BE COLLECTED AS EARLY AS 12 NOON.", "nsi_id": "unitedstatespostalservice-a77078", "operator": "United States Postal Service", "operator:short": "USPS", "operator:type": "public", "operator:wikidata": "Q668687", "ref": "0711100032"}, "type": "Feature"}
{"dataset_attributes": {"@spider": "usps_collection_boxes", "spider:collection_time": "2023-10-07T08:22:43.442925"}, "geometry": {"coordinates": [-74.2152572, 40.735903], "type": "Point"}, "id": "4ITbSWdccnfSDCV6l1g9qrIBqCk=", "properties": {"@spider": "usps_collection_boxes", "addr:city": "IRVINGTON", "addr:country": "US", "addr:full": "635 GROVE ST", "addr:postcode": "07111", "addr:state": "NJ", "amenity": "post_box", "brand": "United States Postal Service", "brand:wikidata": "Q668687", "collection_times": "Mo-Sa 13:00", "name": "USPS COLLECTION BOX - BLUE BOX", "note": "ON 12/24 AND 12/31, THIS BOX MAY BE COLLECTED AS EARLY AS 12 NOON.", "nsi_id": "unitedstatespostalservice-a77078", "operator": "United States Postal Service", "operator:short": "USPS", "operator:type": "public", "operator:wikidata": "Q668687", "ref": "0711100036"}, "type": "Feature"}
{"dataset_attributes": {"@spider": "usps_collection_boxes", "spider:collection_time": "2023-10-07T08:22:43.442925"}, "geometry": {"coordinates": [-74.2330841, 40.72587], "type": "Point"}, "id": "TnMIDREVZHQjNhdKoEI4e4blm24=", "properties": {"@spider": "usps_collection_boxes", "addr:city": "IRVINGTON", "addr:country": "US", "addr:full": "1086 SPRINGFIELD AVE UNIT 1", "addr:postcode": "07111", "addr:state": "NJ", "amenity": "post_box", "brand": "United States Postal Service", "brand:wikidata": "Q668687", "collection_times": "Mo-Fr 17:00; Sa 15:00", "name": "USPS COLLECTION BOX - BLUE BOX", "note": "ON 12/24 AND 12/31, THIS BOX MAY BE COLLECTED AS EARLY AS 12 NOON.", "nsi_id": "unitedstatespostalservice-a77078", "operator": "United States Postal Service", "operator:short": "USPS", "operator:type": "public", "operator:wikidata": "Q668687", "ref": "0711100042"}, "type": "Feature"}
{"dataset_attributes": {"@spider": "usps_collection_boxes", "spider:collection_time": "2023-10-07T08:22:43.442925"}, "geometry": {"coordinates": [-74.2330954, 40.725877], "type": "Point"}, "id": "dGIgkGAMTv4s6wgyr0VBkTxBwGg=", "properties": {"@spider": "usps_collection_boxes", "addr:city": "IRVINGTON", "addr:country": "US", "addr:full": "1086 SPRINGFIELD AVE UNIT 2", "addr:postcode": "07111", "addr:state": "NJ", "amenity": "post_box", "brand": "United States Postal Service", "brand:wikidata": "Q668687", "collection_times": "Mo-Fr 17:00; Sa 15:00", "name": "USPS COLLECTION BOX - BLUE BOX", "note": "ON 12/24 AND 12/31, THIS BOX MAY BE COLLECTED AS EARLY AS 12 NOON.", "nsi_id": "unitedstatespostalservice-a77078", "operator": "United States Postal Service", "operator:short": "USPS", "operator:type": "public", "operator:wikidata": "Q668687", "ref": "0711100043"}, "type": "Feature"}
{"dataset_attributes": {"@spider": "usps_collection_boxes", "spider:collection_time": "2023-10-07T08:22:43.442925"}, "geometry": {"coordinates": [-74.2503885, 40.714082], "type": "Point"}, "id": "DWPNPREYNC4A8kJWybVBpEVjo1s=", "properties": {"@spider": "usps_collection_boxes", "addr:city": "IRVINGTON", "addr:country": "US", "addr:full": "1 MILL RD", "addr:postcode": "07111", "addr:state": "NJ", "amenity": "post_box", "brand": "United States Postal Service", "brand:wikidata": "Q668687", "collection_times": "Mo-Sa 13:00", "name": "USPS COLLECTION BOX - BLUE BOX", "note": "ON 12/24 AND 12/31, THIS BOX MAY BE COLLECTED AS EARLY AS 12 NOON.", "nsi_id": "unitedstatespostalservice-a77078", "operator": "United States Postal Service", "operator:short": "USPS", "operator:type": "public", "operator:wikidata": "Q668687", "ref": "0711100046"}, "type": "Feature"}
{"dataset_attributes": {"@spider": "usps_collection_boxes", "spider:collection_time": "2023-10-07T08:22:43.442925"}, "geometry": {"coordinates": [-74.2342284, 40.727616], "type": "Point"}, "id": "BWlsyIQoJuKDWFMKrayPXCDXta8=", "properties": {"@spider": "usps_collection_boxes", "addr:city": "IRVINGTON", "addr:country": "US", "addr:full": "1 CIVIC SQ # 2", "addr:postcode": "07111", "addr:state": "NJ", "amenity": "post_box", "brand": "United States Postal Service", "brand:wikidata": "Q668687", "collection_times": "Mo-Sa 13:00", "name": "USPS COLLECTION BOX - BLUE BOX", "note": "ON 12/24 AND 12/31, THIS BOX MAY BE COLLECTED AS EARLY AS 12 NOON.", "nsi_id": "unitedstatespostalservice-a77078", "operator": "United States Postal Service", "operator:short": "USPS", "operator:type": "public", "operator:wikidata": "Q668687", "ref": "0711100067"}, "type": "Feature"}
{"dataset_attributes": {"@spider": "usps_collection_boxes", "spider:collection_time": "2023-10-07T08:22:43.442925"}, "geometry": {"coordinates": [-74.2401056, 40.72961], "type": "Point"}, "id": "xY9WSP40XIMoof7v4-WzTlDWEVs=", "properties": {"@spider": "usps_collection_boxes", "addr:city": "IRVINGTON", "addr:country": "US", "addr:full": "1387 CLINTON AVE", "addr:postcode": "07111", "addr:state": "NJ", "amenity": "post_box", "brand": "United States Postal Service", "brand:wikidata": "Q668687", "collection_times": "Mo-Sa 13:00", "name": "USPS COLLECTION BOX - BLUE BOX", "note": "ON 12/24 AND 12/31, THIS BOX MAY BE COLLECTED AS EARLY AS 12 NOON.", "nsi_id": "unitedstatespostalservice-a77078", "operator": "United States Postal Service", "operator:short": "USPS", "operator:type": "public", "operator:wikidata": "Q668687", "ref": "0711100073"}, "type": "Feature"}
{"dataset_attributes": {"@spider": "usps_collection_boxes", "spider:collection_time": "2023-10-07T08:22:43.442925"}, "geometry": {"coordinates": [-74.2330919924, 40.7261379998], "type": "Point"}, "id": "ZkggT8QfnX2JV9iOV1dvLDTHnXo=", "properties": {"@spider": "usps_collection_boxes", "addr:city": "IRVINGTON", "addr:country": "US", "addr:full": "1086 SPRINGFIELD AVE", "addr:postcode": "07111", "addr:state": "NJ", "amenity": "post_box", "brand": "United States Postal Service", "brand:wikidata": "Q668687", "collection_times": "Mo-Fr 17:00; Sa 15:00", "name": "USPS COLLECTION BOX - PO LOBBY", "note": "ON 12/24 AND 12/31, THIS BOX MAY BE COLLECTED AS EARLY AS 12 NOON.", "nsi_id": "unitedstatespostalservice-a77078", "operator": "United States Postal Service", "operator:short": "USPS", "operator:type": "public", "operator:wikidata": "Q668687", "ref": "0711100074"}, "type": "Feature"}
{"dataset_attributes": {"@spider": "usps_collection_boxes", "spider:collection_time": "2023-10-07T08:22:43.442925"}, "geometry": {"coordinates": [-74.2330919924, 40.7261379998], "type": "Point"}, "id": "CuRqP24lLCqFK1D87YCSAlC7L7w=", "properties": {"@spider": "usps_collection_boxes", "addr:city": "IRVINGTON", "addr:country": "US", "addr:full": "1086 SPRINGFIELD AVE", "addr:postcode": "07111", "addr:state": "NJ", "amenity": "post_box", "brand": "United States Postal Service", "brand:wikidata": "Q668687", "collection_times": "Mo-Fr 17:00; Sa 15:00", "name": "USPS COLLECTION BOX - PO LOBBY", "note": "ON 12/24 AND 12/31, THIS BOX MAY BE COLLECTED AS EARLY AS 12 NOON.", "nsi_id": "unitedstatespostalservice-a77078", "operator": "United States Postal Service", "operator:short": "USPS", "operator:type": "public", "operator:wikidata": "Q668687", "ref": "0711100076"}, "type": "Feature"}
{"dataset_attributes": {"@spider": "usps_collection_boxes", "spider:collection_time": "2023-10-07T08:22:43.442925"}, "geometry": {"coordinates": [-74.2185845, 40.707882], "type": "Point"}, "id": "OWOdmVjZqZlbKhFW3mnO_8BCD7Y=", "properties": {"@spider": "usps_collection_boxes", "addr:city": "NEWARK", "addr:country": "US", "addr:full": "238 CHANCELLOR AVE", "addr:postcode": "07112", "addr:state": "NJ", "amenity": "post_box", "brand": "United States Postal Service", "brand:wikidata": "Q668687", "collection_times": "Mo-Sa 13:00", "name": "USPS COLLECTION BOX - BLUE BOX", "note": "ON 12/24 AND 12/31, THIS BOX MAY BE COLLECTED AS EARLY AS 12 NOON.", "nsi_id": "unitedstatespostalservice-a77078", "operator": "United States Postal Service", "operator:short": "USPS", "operator:type": "public", "operator:wikidata": "Q668687", "ref": "0711200013"}, "type": "Feature"}
{"dataset_attributes": {"@spider": "usps_collection_boxes", "spider:collection_time": "2023-10-07T08:22:43.442925"}, "geometry": {"coordinates": [-74.2085786, 40.707252], "type": "Point"}, "id": "6VA6d5feitHI_5nkYv0yxNwHcwg=", "properties": {"@spider": "usps_collection_boxes", "addr:city": "NEWARK", "addr:country": "US", "addr:full": "1080 BERGEN ST", "addr:postcode": "07112", "addr:state": "NJ", "amenity": "post_box", "brand": "United States Postal Service", "brand:wikidata": "Q668687", "collection_times": "Mo-Sa 13:00", "name": "USPS COLLECTION BOX - BLUE BOX", "note": "ON 12/24 AND 12/31, THIS BOX MAY BE COLLECTED AS EARLY AS 12 NOON.", "nsi_id": "unitedstatespostalservice-a77078", "operator": "United States Postal Service", "operator:short": "USPS", "operator:type": "public", "operator:wikidata": "Q668687", "ref": "0711200020"}, "type": "Feature"}
{"dataset_attributes": {"@spider": "usps_collection_boxes", "spider:collection_time": "2023-10-07T08:22:43.442925"}, "geometry": {"coordinates": [-74.2122924, 40.709656], "type": "Point"}, "id": "dCeTUZyRyFafmX4WVUh6UQSdjzM=", "properties": {"@spider": "usps_collection_boxes", "addr:city": "NEWARK", "addr:country": "US", "addr:full": "400 OSBORNE TER", "addr:postcode": "07112", "addr:state": "NJ", "amenity": "post_box", "brand": "United States Postal Service", "brand:wikidata": "Q668687", "collection_times": "Mo-Sa 13:00", "name": "USPS COLLECTION BOX - BLUE BOX", "note": "ON 12/24 AND 12/31, THIS BOX MAY BE COLLECTED AS EARLY AS 12 NOON.", "nsi_id": "unitedstatespostalservice-a77078", "operator": "United States Postal Service", "operator:short": "USPS", "operator:type": "public", "operator:wikidata": "Q668687", "ref": "0711200027"}, "type": "Feature"}
{"dataset_attributes": {"@spider": "usps_collection_boxes", "spider:collection_time": "2023-10-07T08:22:43.442925"}, "geometry": {"coordinates": [-74.1949591, 40.703003], "type": "Point"}, "id": "3s4B3JuxXyz1sJYwrDapuAqJZ5U=", "properties": {"@spider": "usps_collection_boxes", "addr:city": "NEWARK", "addr:country": "US", "addr:full": "514 FRELINGHUYSEN AVE # 1", "addr:postcode": "07114", "addr:state": "NJ", "amenity": "post_box", "brand": "United States Postal Service", "brand:wikidata": "Q668687", "collection_times": "Mo-Fr 17:00; Sa 15:00", "name": "USPS COLLECTION BOX - BLUE BOX", "note": "ON 12/24 AND 12/31, THIS BOX MAY BE COLLECTED AS EARLY AS 12 NOON.", "nsi_id": "unitedstatespostalservice-a77078", "operator": "United States Postal Service", "operator:short": "USPS", "operator:type": "public", "operator:wikidata": "Q668687", "ref": "0711400010"}, "type": "Feature"}
{"dataset_attributes": {"@spider": "usps_collection_boxes", "spider:collection_time": "2023-10-07T08:22:43.442925"}, "geometry": {"coordinates": [-74.1949552, 40.703014], "type": "Point"}, "id": "I1vX2VLuXchU1-P0NOW3yUH_NRw=", "properties": {"@spider": "usps_collection_boxes", "addr:city": "NEWARK", "addr:country": "US", "addr:full": "514 FRELINGHUYSEN AVE # 2", "addr:postcode": "07114", "addr:state": "NJ", "amenity": "post_box", "brand": "United States Postal Service", "brand:wikidata": "Q668687", "collection_times": "Mo-Fr 17:00; Sa 15:00", "name": "USPS COLLECTION BOX - BLUE BOX", "note": "ON 12/24 AND 12/31, THIS BOX MAY BE COLLECTED AS EARLY AS 12 NOON.", "nsi_id": "unitedstatespostalservice-a77078", "operator": "United States Postal Service", "operator:short": "USPS", "operator:type": "public", "operator:wikidata": "Q668687", "ref": "0711400011"}, "type": "Feature"}
{"dataset_attributes": {"@spider": "usps_collection_boxes", "spider:collection_time": "2023-10-07T08:22:43.442925"}, "geometry": {"coordinates": [-74.2038508, 40.688636], "type": "Point"}, "id": "q49r9XNS5ETv6Z8P83-665Njx1Y=", "properties": {"@spider": "usps_collection_boxes", "addr:city": "NEWARK", "addr:country": "US", "addr:full": "963 FRELINGHUYSEN AVE", "addr:postcode": "07114", "addr:state": "NJ", "amenity": "post_box", "brand": "United States Postal Service", "brand:wikidata": "Q668687", "collection_times": "Mo-Sa 13:00", "name": "USPS COLLECTION BOX - BLUE BOX", "note": "ON 12/24 AND 12/31, THIS BOX MAY BE COLLECTED AS EARLY AS 12 NOON.", "nsi_id": "unitedstatespostalservice-a77078", "operator": "United States Postal Service", "operator:short": "USPS", "operator:type": "public", "operator:wikidata": "Q668687", "ref": "0711400016"}, "type": "Feature"}
{"dataset_attributes": {"@spider": "usps_collection_boxes", "spider:collection_time": "2023-10-07T08:22:43.442925"}, "geometry": {"coordinates": [-74.2012017801, 40.6928812615], "type": "Point"}, "id": "14im6wWGwbT2u2EXpRwbxZQ7ra0=", "properties": {"@spider": "usps_collection_boxes", "addr:city": "NEWARK", "addr:country": "US", "addr:full": "839 FRELINGHUYSEN AVE", "addr:postcode": "07114", "addr:state": "NJ", "amenity": "post_box", "brand": "United States Postal Service", "brand:wikidata": "Q668687", "collection_times": "Mo-Sa 13:00", "name": "USPS COLLECTION BOX - BLUE BOX", "note": "ON 12/24 AND 12/31, THIS BOX MAY BE COLLECTED AS EARLY AS 12 NOON.", "nsi_id": "unitedstatespostalservice-a77078", "operator": "United States Postal Service", "operator:short": "USPS", "operator:type": "public", "operator:wikidata": "Q668687", "ref": "0711400027"}, "type": "Feature"}
{"dataset_attributes": {"@spider": "usps_collection_boxes", "spider:collection_time": "2023-10-07T08:22:43.442925"}, "geometry": {"coordinates": [-74.194995129, 40.703145832], "type": "Point"}, "id": "8BAFk2-I0G00M5_R3Uillv54ERo=", "properties": {"@spider": "usps_collection_boxes", "addr:city": "NEWARK", "addr:country": "US", "addr:full": "514 FRELINGHUYSEN AVE", "addr:postcode": "07114", "addr:state": "NJ", "amenity": "post_box", "brand": "United States Postal Service", "brand:wikidata": "Q668687", "collection_times": "Mo-Fr 17:00; Sa 15:00", "name": "USPS COLLECTION BOX - PO LOBBY", "note": "ON 12/24 AND 12/31, THIS BOX MAY BE COLLECTED AS EARLY AS 12 NOON.", "nsi_id": "unitedstatespostalservice-a77078", "operator": "United States Postal Service", "operator:short": "USPS", "operator:type": "public", "operator:wikidata": "Q668687", "ref": "0711400028"}, "type": "Feature"}
{"dataset_attributes": {"@spider": "usps_collection_boxes", "spider:collection_time": "2023-10-07T08:22:43.442925"}, "geometry": {"coordinates": [-74.194995129, 40.703145832], "type": "Point"}, "id": "MBTvZGMblS9q8EkLvdn1E-U9__0=", "properties": {"@spider": "usps_collection_boxes", "addr:city": "NEWARK", "addr:country": "US", "addr:full": "514 FRELINGHUYSEN AVE", "addr:postcode": "07114", "addr:state": "NJ", "amenity": "post_box", "brand": "United States Postal Service", "brand:wikidata": "Q668687", "collection_times": "Mo-Fr 17:00; Sa 15:00", "name": "USPS COLLECTION BOX - PO LOBBY", "note": "ON 12/24 AND 12/31, THIS BOX MAY BE COLLECTED AS EARLY AS 12 NOON.", "nsi_id": "unitedstatespostalservice-a77078", "operator": "United States Postal Service", "operator:short": "USPS", "operator:type": "public", "operator:wikidata": "Q668687", "ref": "0711400031"}, "type": "Feature"}
