{"dataset_attributes": {"@spider": "usps_collection_boxes"}, "geometry": {"coordinates": [-74.2115769, 40.663613], "type": "Point"}, "id": "gd6B0ET0YJvgA6Q1WA7ryawBozU=", "properties": {"@spider": "usps_collection_boxes", "addr:city": "ELIZABETH", "addr:country": "US", "addr:full": "50 WINFIELD SCOTT PLZ", "addr:postcode": "07201", "addr:state": "NJ", "amenity": "post_box", "brand": "United States Postal Service", "brand:wikidata": "Q668687", "collection_times": "Mo-Fr 10:00", "name": "USPS COLLECTION BOX - BLUE BOX", "nsi_id": "unitedstatespostalservice-a77078", "operator": "United States Postal Service", "operator:short": "USPS", "operator:type": "public", "operator:wikidata": "Q668687", "ref": "0720100003"}, "type": "Feature"}
{"dataset_attributes": {"@spider": "usps_collection_boxes"}, "geometry": {"coordinates": [-74.2068679, 40.66024], "type": "Point"}, "id": "cdGeYmZ96jolkMt4bIJtC2axM6Y=", "properties": {"@spider": "usps_collection_boxes", "addr:city": "ELIZABETH", "addr:country": "US", "addr:full": "946 ELIZABETH AVE", "addr:postcode": "07201", "addr:state": "NJ", "amenity": "post_box", "brand": "United States Postal Service", "brand:wikidata": "Q668687", "collection_times": "Mo-Fr 17:00", "name": "USPS COLLECTION BOX - PO LOBBY", "note": "ON 12/24 AND 12/31, THIS BOX MAY BE COLLECTED AS EARLY AS 12 NOON.", "nsi_id": "unitedstatespostalservice-a77078", "operator": "United States Postal Service", "operator:short": "USPS", "operator:type": "public", "operator:wikidata": "Q668687", "ref": "0720100006"}, "type": "Feature"}
{"dataset_attributes": {"@spider": "usps_collection_boxes"}, "geometry": {"coordinates": [-74.206832468, 40.660235436], "type": "Point"}, "id": "z5t-tFqvEt3TkU2R-FJoN966nH0=", "properties": {"@spider": "usps_collection_boxes", "addr:city": "ELIZABETH", "addr:country": "US", "addr:full": "946 ELIZABETH AVE", "addr:postcode": "07201", "addr:state": "NJ", "amenity": "post_box", "brand": "United States Postal Service", "brand:wikidata": "Q668687", "collection_times": "Mo-Fr 17:00", "name": "USPS COLLECTION BOX - PO LOBBY", "note": "ON 12/24 AND 12/31, THIS BOX MAY BE COLLECTED AS EARLY AS 12 NOON.", "nsi_id": "unitedstatespostalservice-a77078", "operator": "United States Postal Service", "operator:short": "USPS", "operator:type": "public", "operator:wikidata": "Q668687", "ref": "0720100011"}, "type": "Feature"}
{"dataset_attributes": {"@spider": "usps_collection_boxes"}, "geometry": {"coordinates": [-74.2014971009, 40.6642887331], "type": "Point"}, "id": "naNHD9NSbArVYsJlaGE-2JmcxhE=", "properties": {"@spider": "usps_collection_boxes", "addr:city": "ELIZABETH", "addr:country": "US", "addr:full": "878 E GRAND ST", "addr:postcode": "07201", "addr:state": "NJ", "amenity": "post_box", "brand": "United States Postal Service", "brand:wikidata": "Q668687", "collection_times": "Mo-Sa 10:00", "name": "USPS COLLECTION BOX - BLUE BOX", "nsi_id": "unitedstatespostalservice-a77078", "operator": "United States Postal Service", "operator:short": "USPS", "operator:type": "public", "operator:wikidata": "Q668687", "ref": "0720100015"}, "type": "Feature"}
{"dataset_attributes": {"@spider": "usps_collection_boxes"}, "geometry": {"coordinates": [-74.2195626, 40.666163], "type": "Point"}, "id": "NNQn97C1uaJWQLy3Kf6pT-AeZpo=", "properties": {"@spider": "usps_collection_boxes", "addr:city": "ELIZABETH", "addr:country": "US", "addr:full": "80 W GRAND ST", "addr:postcode": "07202", "addr:state": "NJ", "amenity": "post_box", "brand": "United States Postal Service", "brand:wikidata": "Q668687", "collection_times": "Mo-Sa 10:00", "name": "USPS COLLECTION BOX - BLUE BOX", "nsi_id": "unitedstatespostalservice-a77078", "operator": "United States Postal Service", "operator:short": "USPS", "operator:type": "public", "operator:wikidata": "Q668687", "ref": "0720200000"}, "type": "Feature"}
{"dataset_attributes": {"@spider": "usps_collection_boxes"}, "geometry": {"coordinates": [-74.213146287, 40.645122466], "type": "Point"}, "id": "SLLGBj8rDMfyMyV6qshGSYaknn4=", "properties": {"@spider": "usps_collection_boxes", "addr:city": "ELIZABETH", "addr:country": "US", "addr:full": "544 BAYWAY AVE", "addr:postcode": "07202", "addr:state": "NJ", "amenity": "post_box", "brand": "United States Postal Service", "brand:wikidata": "Q668687", "collection_times": "Mo-Fr 17:00; Sa 13:00", "name": "USPS COLLECTION BOX - PO LOBBY", "note": "ON 12/24 AND 12/31, THIS BOX MAY BE COLLECTED AS EARLY AS 12 NOON.", "nsi_id": "unitedstatespostalservice-a77078", "operator": "United States Postal Service", "operator:short": "USPS", "operator:type": "public", "operator:wikidata": "Q668687", "ref": "0720200001"}, "type": "Feature"}
{"dataset_attributes": {"@spider": "usps_collection_boxes"}, "geometry": {"coordinates": [-74.2335899, 40.663102], "type": "Point"}, "id": "6acTFf3J29RFlMfecAW4DimJdKo=", "properties": {"@spider": "usps_collection_boxes", "addr:city": "ELIZABETH", "addr:country": "US", "addr:full": "175 ELMORA AVE STE 1", "addr:postcode": "07202", "addr:state": "NJ", "amenity": "post_box", "brand": "United States Postal Service", "brand:wikidata": "Q668687", "collection_times": "Mo-Fr 17:00; Sa 13:00", "name": "USPS COLLECTION BOX - PO LOBBY", "note": "ON 12/24 AND 12/31, THIS BOX MAY BE COLLECTED AS EARLY AS 12 NOON.", "nsi_id": "unitedstatespostalservice-a77078", "operator": "United States Postal Service", "operator:short": "USPS", "operator:type": "public", "operator:wikidata": "Q668687", "ref": "0720200002"}, "type": "Feature"}
{"dataset_attributes": {"@spider": "usps_collection_boxes"}, "geometry": {"coordinates": [-74.213146287, 40.645122466], "type": "Point"}, "id": "HsP6FPzMpJ9iUM58xMs-P05bjes=", "properties": {"@spider": "usps_collection_boxes", "addr:city": "ELIZABETH", "addr:country": "US", "addr:full": "544 BAYWAY AVE", "addr:postcode": "07202", "addr:state": "NJ", "amenity": "post_box", "brand": "United States Postal Service", "brand:wikidata": "Q668687", "collection_times": "Mo-Fr 17:00; Sa 14:00", "name": "USPS COLLECTION BOX - PO LOBBY", "note": "ON 12/24 AND 12/31, THIS BOX MAY BE COLLECTED AS EARLY AS 12 NOON.", "nsi_id": "unitedstatespostalservice-a77078", "operator": "United States Postal Service", "operator:short": "USPS", "operator:type": "public", "operator:wikidata": "Q668687", "ref": "0720200005"}, "type": "Feature"}
{"dataset_attributes": {"@spider": "usps_collection_boxes"}, "geometry": {"coordinates": [-74.233638929, 40.663174316], "type": "Point"}, "id": "HM-6lkKgzTI8HJF57IsWvmhTT48=", "properties": {"@spider": "usps_collection_boxes", "addr:city": "ELIZABETH", "addr:country": "US", "addr:full": "175 ELMORA AVE STE 1", "addr:postcode": "07202", "addr:state": "NJ", "amenity": "post_box", "brand": "United States Postal Service", "brand:wikidata": "Q668687", "collection_times": "Mo-Fr 17:00; Sa 14:00", "name": "USPS COLLECTION BOX - PO LOBBY", "note": "ON 12/24 AND 12/31, THIS BOX MAY BE COLLECTED AS EARLY AS 12 NOON.", "nsi_id": "unitedstatespostalservice-a77078", "operator": "United States Postal Service", "operator:short": "USPS", "operator:type": "public", "operator:wikidata": "Q668687", "ref": "0720200006"}, "type": "Feature"}
{"dataset_attributes": {"@spider": "usps_collection_boxes"}, "geometry": {"coordinates": [-74.2652287, 40.642909], "type": "Point"}, "id": "9MbWz_BO7aLQsDV1Idjoo3yquCs=", "properties": {"@spider": "usps_collection_boxes", "addr:city": "ROSELLE", "addr:country": "US", "addr:full": "400 BROOKLAWN AVE", "addr:postcode": "07203", "addr:state": "NJ", "amenity": "post_box", "brand": "United States Postal Service", "brand:wikidata": "Q668687", "collection_times": "Mo-Sa 10:00", "name": "USPS COLLECTION BOX - BLUE BOX", "nsi_id": "unitedstatespostalservice-a77078", "operator": "United States Postal Service", "operator:short": "USPS", "operator:type": "public", "operator:wikidata": "Q668687", "ref": "0720300006"}, "type": "Feature"}
{"dataset_attributes": {"@spider": "usps_collection_boxes"}, "geometry": {"coordinates": [-74.2625849, 40.656296], "type": "Point"}, "id": "ydXnBF2EKXpGPUHaRsKz_k0pbbI=", "properties": {"@spider": "usps_collection_boxes", "addr:city": "ROSELLE", "addr:country": "US", "addr:full": "411 CHESTNUT ST", "addr:postcode": "07203", "addr:state": "NJ", "amenity": "post_box", "brand": "United States Postal Service", "brand:wikidata": "Q668687", "collection_times": "Mo-Sa 10:00", "name": "USPS COLLECTION BOX - BLUE BOX", "nsi_id": "unitedstatespostalservice-a77078", "operator": "United States Postal Service", "operator:short": "USPS", "operator:type": "public", "operator:wikidata": "Q668687", "ref": "0720300008"}, "type": "Feature"}
{"dataset_attributes": {"@spider": "usps_collection_boxes"}, "geometry": {"coordinates": [-74.2636465, 40.659675], "type": "Point"}, "id": "VwP3MrxpKQWUbnQjqM2DogzOPMc=", "properties": {"@spider": "usps_collection_boxes", "addr:city": "ROSELLE", "addr:country": "US", "addr:full": "104 CHESTNUT ST UNIT 1", "addr:postcode": "07203", "addr:state": "NJ", "amenity": "post_box", "brand": "United States Postal Service", "brand:wikidata": "Q668687", "collection_times": "Mo-Fr 17:00; Sa 10:00", "name": "USPS COLLECTION BOX - BLUE BOX", "note": "ON 12/24 AND 12/31, THIS BOX MAY BE COLLECTED AS EARLY AS 12 NOON.", "nsi_id": "unitedstatespostalservice-a77078", "operator": "United States Postal Service", "operator:short": "USPS", "operator:type": "public", "operator:wikidata": "Q668687", "ref": "0720300011"}, "type": "Feature"}
{"dataset_attributes": {"@spider": "usps_collection_boxes"}, "geometry": {"coordinates": [-74.2636359, 40.659662], "type": "Point"}, "id": "O0cACHvDJoEf2E-fhTjzwfrOKN4=", "properties": {"@spider": "usps_collection_boxes", "addr:city": "ROSELLE", "addr:country": "US", "addr:full": "104 CHESTNUT ST UNIT 2", "addr:postcode": "07203", "addr:state": "NJ", "amenity": "post_box", "brand": "United States Postal Service", "brand:wikidata": "Q668687", "collection_times": "Mo-Fr 17:00; Sa 10:00", "name": "USPS COLLECTION BOX - BLUE BOX", "note": "ON 12/24 AND 12/31, THIS BOX MAY BE COLLECTED AS EARLY AS 12 NOON.", "nsi_id": "unitedstatespostalservice-a77078", "operator": "United States Postal Service", "operator:short": "USPS", "operator:type": "public", "operator:wikidata": "Q668687", "ref": "0720300012"}, "type": "Feature"}
{"dataset_attributes": {"@spider": "usps_collection_boxes"}, "geometry": {"coordinates": [-74.248396009, 40.662118646], "type": "Point"}, "id": "ezTL0InvWM2gLI38IOcjA_BXJBk=", "properties": {"@spider": "usps_collection_boxes", "addr:city": "ROSELLE", "addr:country": "US", "addr:full": "612 E 1ST AVE", "addr:postcode": "07203", "addr:state": "NJ", "amenity": "post_box", "brand": "United States Postal Service", "brand:wikidata": "Q668687", "collection_times": "Mo-Sa 10:00", "name": "USPS COLLECTION BOX - BLUE BOX", "nsi_id": "unitedstatespostalservice-a77078", "operator": "United States Postal Service", "operator:short": "USPS", "operator:type": "public", "operator:wikidata": "Q668687", "ref": "0720300015"}, "type": "Feature"}
{"dataset_attributes": {"@spider": "usps_collection_boxes"}, "geometry": {"coordinates": [-74.2760527, 40.650766], "type": "Point"}, "id": "LmqYGtEKxv4thGD53kC2tQFtZyo=", "properties": {"@spider": "usps_collection_boxes", "addr:city": "ROSELLE", "addr:country": "US", "addr:full": "484 W 5TH AVE", "addr:postcode": "07203", "addr:state": "NJ", "amenity": "post_box", "brand": "United States Postal Service", "brand:wikidata": "Q668687", "collection_times": "Mo-Sa 10:00", "name": "USPS COLLECTION BOX - BLUE BOX", "nsi_id": "unitedstatespostalservice-a77078", "operator": "United States Postal Service", "operator:short": "USPS", "operator:type": "public", "operator:wikidata": "Q668687", "ref": "0720300019"}, "type": "Feature"}
{"dataset_attributes": {"@spider": "usps_collection_boxes"}, "geometry": {"coordinates": [-74.274343233, 40.644895786], "type": "Point"}, "id": "HPaChLlfKwjBQp9H00SXkh58nf0=", "properties": {"@spider": "usps_collection_boxes", "addr:city": "ROSELLE", "addr:country": "US", "addr:full": "921 WOOD AVE", "addr:postcode": "07203", "addr:state": "NJ", "amenity": "post_box", "brand": "United States Postal Service", "brand:wikidata": "Q668687", "collection_times": "Mo-Sa 10:00", "name": "USPS COLLECTION BOX - BLUE BOX", "nsi_id": "unitedstatespostalservice-a77078", "operator": "United States Postal Service", "operator:short": "USPS", "operator:type": "public", "operator:wikidata": "Q668687", "ref": "0720300038"}, "type": "Feature"}
{"dataset_attributes": {"@spider": "usps_collection_boxes"}, "geometry": {"coordinates": [-74.268105806, 40.64013002], "type": "Point"}, "id": "1Lft53v29EgH7X70GWJIo4shlrE=", "properties": {"@spider": "usps_collection_boxes", "addr:city": "ROSELLE", "addr:country": "US", "addr:full": "1913 WOOD AVE", "addr:postcode": "07203", "addr:state": "NJ", "amenity": "post_box", "brand": "United States Postal Service", "brand:wikidata": "Q668687", "collection_times": "Mo-Sa 10:00", "name": "USPS COLLECTION BOX - BLUE BOX", "nsi_id": "unitedstatespostalservice-a77078", "operator": "United States Postal Service", "operator:short": "USPS", "operator:type": "public", "operator:wikidata": "Q668687", "ref": "0720300039"}, "type": "Feature"}
{"dataset_attributes": {"@spider": "usps_collection_boxes"}, "geometry": {"coordinates": [-74.2638699, 40.659641], "type": "Point"}, "id": "4U-ZOWHY_tDlCeQ9KlCVhYlgsOA=", "properties": {"@spider": "usps_collection_boxes", "addr:city": "ROSELLE", "addr:country": "US", "addr:full": "104 CHESTNUT ST", "addr:postcode": "07203", "addr:state": "NJ", "amenity": "post_box", "brand": "United States Postal Service", "brand:wikidata": "Q668687", "collection_times": "Mo-Fr 17:00; Sa 13:00", "name": "USPS COLLECTION BOX - PO LOBBY", "note": "ON 12/24 AND 12/31, THIS BOX MAY BE COLLECTED AS EARLY AS 12 NOON.", "nsi_id": "unitedstatespostalservice-a77078", "operator": "United States Postal Service", "operator:short": "USPS", "operator:type": "public", "operator:wikidata": "Q668687", "ref": "0720300040"}, "type": "Feature"}
{"dataset_attributes": {"@spider": "usps_collection_boxes"}, "geometry": {"coordinates": [-74.263544419, 40.659700348], "type": "Point"}, "id": "5PF4Yz_w2J4RfmtUXIM2LaxV4OI=", "properties": {"@spider": "usps_collection_boxes", "addr:city": "ROSELLE", "addr:country": "US", "addr:full": "104 CHESTNUT ST", "addr:postcode": "07203", "addr:state": "NJ", "amenity": "post_box", "brand": "United States Postal Service", "brand:wikidata": "Q668687", "collection_times": "Mo-Fr 17:00; Sa 14:00", "name": "USPS COLLECTION BOX - PO LOBBY", "note": "ON 12/24 AND 12/31, THIS BOX MAY BE COLLECTED AS EARLY AS 12 NOON.", "nsi_id": "unitedstatespostalservice-a77078", "operator": "United States Postal Service", "operator:short": "USPS", "operator:type": "public", "operator:wikidata": "Q668687", "ref": "0720300043"}, "type": "Feature"}
{"dataset_attributes": {"@spider": "usps_collection_boxes"}, "geometry": {"coordinates": [-74.2601718, 40.66208], "type": "Point"}, "id": "hOZKQgjOmOB3c6XxPa6WS5eshH0=", "properties": {"@spider": "usps_collection_boxes", "addr:city": "ROSELLE PARK", "addr:country": "US", "addr:full": "110 E WESTFIELD AVE", "addr:postcode": "07204", "addr:state": "NJ", "amenity": "post_box", "brand": "United States Postal Service", "brand:wikidata": "Q668687", "collection_times": "Mo-Sa 10:00", "name": "USPS COLLECTION BOX - BLUE BOX", "nsi_id": "unitedstatespostalservice-a77078", "operator": "United States Postal Service", "operator:short": "USPS", "operator:type": "public", "operator:wikidata": "Q668687", "ref": "0720400001"}, "type": "Feature"}
{"dataset_attributes": {"@spider": "usps_collection_boxes"}, "geometry": {"coordinates": [-74.2645896, 40.66396], "type": "Point"}, "id": "M-6xhvKmqEsm12a9l5gLmRtgyBk=", "properties": {"@spider": "usps_collection_boxes", "addr:city": "ROSELLE PARK", "addr:country": "US", "addr:full": "290 CHESTNUT ST", "addr:postcode": "07204", "addr:state": "NJ", "amenity": "post_box", "brand": "United States Postal Service", "brand:wikidata": "Q668687", "collection_times": "Mo-Fr 17:00; Sa 10:00", "name": "USPS COLLECTION BOX - BLUE BOX", "note": "ON 12/24 AND 12/31, THIS BOX MAY BE COLLECTED AS EARLY AS 12 NOON.", "nsi_id": "unitedstatespostalservice-a77078", "operator": "United States Postal Service", "operator:short": "USPS", "operator:type": "public", "operator:wikidata": "Q668687", "ref": "0720400006"}, "type": "Feature"}
{"dataset_attributes": {"@spider": "usps_collection_boxes"}, "geometry": {"coordinates": [-74.2655353, 40.667915], "type": "Point"}, "id": "VfO_HPvW0wU3XXEkKyHmIXLEfXg=", "properties": {"@spider": "usps_collection_boxes", "addr:city": "ROSELLE PARK", "addr:country": "US", "addr:full": "594 CHESTNUT ST", "addr:postcode": "07204", "addr:state": "NJ", "amenity": "post_box", "brand": "United States Postal Service", "brand:wikidata": "Q668687", "collection_times": "Mo-Sa 10:00", "name": "USPS COLLECTION BOX - BLUE BOX", "nsi_id": "unitedstatespostalservice-a77078", "operator": "United States Postal Service", "operator:short": "USPS", "operator:type": "public", "operator:wikidata": "Q668687", "ref": "0720400008"}, "type": "Feature"}
{"dataset_attributes": {"@spider": "usps_collection_boxes"}, "geometry": {"coordinates": [-74.268831, 40.668723], "type": "Point"}, "id": "ifftRfgiixZKjWls0ju8_JEQlBk=", "properties": {"@spider": "usps_collection_boxes", "addr:city": "ROSELLE PARK", "addr:country": "US", "addr:full": "708 LOCUST ST", "addr:postcode": "07204", "addr:state": "NJ", "amenity": "post_box", "brand": "United States Postal Service", "brand:wikidata": "Q668687", "collection_times": "Mo-Sa 10:00", "name": "USPS COLLECTION BOX - BLUE BOX", "nsi_id": "unitedstatespostalservice-a77078", "operator": "United States Postal Service", "operator:short": "USPS", "operator:type": "public", "operator:wikidata": "Q668687", "ref": "0720400010"}, "type": "Feature"}
{"dataset_attributes": {"@spider": "usps_collection_boxes"}, "geometry": {"coordinates": [-74.2744579, 40.667952], "type": "Point"}, "id": "EI0fjxKvLKBA8y1LPAkZjmPovd8=", "properties": {"@spider": "usps_collection_boxes", "addr:city": "ROSELLE PARK", "addr:country": "US", "addr:full": "47 W COLFAX AVE", "addr:postcode": "07204", "addr:state": "NJ", "amenity": "post_box", "brand": "United States Postal Service", "brand:wikidata": "Q668687", "collection_times": "Mo-Sa 10:00", "name": "USPS COLLECTION BOX - BLUE BOX", "nsi_id": "unitedstatespostalservice-a77078", "operator": "United States Postal Service", "operator:short": "USPS", "operator:type": "public", "operator:wikidata": "Q668687", "ref": "0720400011"}, "type": "Feature"}
{"dataset_attributes": {"@spider": "usps_collection_boxes"}, "geometry": {"coordinates": [-74.2491885, 40.667487], "type": "Point"}, "id": "DqiMw1jep-AIDEhLmDjLhFVTQio=", "properties": {"@spider": "usps_collection_boxes", "addr:city": "ROSELLE PARK", "addr:country": "US", "addr:full": "578 E GRANT AVE", "addr:postcode": "07204", "addr:state": "NJ", "amenity": "post_box", "brand": "United States Postal Service", "brand:wikidata": "Q668687", "collection_times": "Mo-Sa 10:00", "name": "USPS COLLECTION BOX - BLUE BOX", "nsi_id": "unitedstatespostalservice-a77078", "operator": "United States Postal Service", "operator:short": "USPS", "operator:type": "public", "operator:wikidata": "Q668687", "ref": "0720400013"}, "type": "Feature"}
{"dataset_attributes": {"@spider": "usps_collection_boxes"}, "geometry": {"coordinates": [-74.2628992, 40.670844], "type": "Point"}, "id": "NK2zY7rc6hJaNYXupVitLyaIMiQ=", "properties": {"@spider": "usps_collection_boxes", "addr:city": "ROSELLE PARK", "addr:country": "US", "addr:full": "804 PROSPECT ST", "addr:postcode": "07204", "addr:state": "NJ", "amenity": "post_box", "brand": "United States Postal Service", "brand:wikidata": "Q668687", "collection_times": "Mo-Sa 10:00", "name": "USPS COLLECTION BOX - BLUE BOX", "nsi_id": "unitedstatespostalservice-a77078", "operator": "United States Postal Service", "operator:short": "USPS", "operator:type": "public", "operator:wikidata": "Q668687", "ref": "0720400016"}, "type": "Feature"}
{"dataset_attributes": {"@spider": "usps_collection_boxes"}, "geometry": {"coordinates": [-74.2590899, 40.667497], "type": "Point"}, "id": "q_xIZpvUkd4lExoKq3w97nUBqwQ=", "properties": {"@spider": "usps_collection_boxes", "addr:city": "ROSELLE PARK", "addr:country": "US", "addr:full": "516 SPRUCE ST", "addr:postcode": "07204", "addr:state": "NJ", "amenity": "post_box", "brand": "United States Postal Service", "brand:wikidata": "Q668687", "collection_times": "Mo-Sa 10:00", "name": "USPS COLLECTION BOX - BLUE BOX", "nsi_id": "unitedstatespostalservice-a77078", "operator": "United States Postal Service", "operator:short": "USPS", "operator:type": "public", "operator:wikidata": "Q668687", "ref": "0720400018"}, "type": "Feature"}
{"dataset_attributes": {"@spider": "usps_collection_boxes"}, "geometry": {"coordinates": [-74.2765705, 40.664133], "type": "Point"}, "id": "-yopwmZEYYFRrfiWT2THyjSDI4E=", "properties": {"@spider": "usps_collection_boxes", "addr:city": "ROSELLE PARK", "addr:country": "US", "addr:full": "315 W WEBSTER AVE", "addr:postcode": "07204", "addr:state": "NJ", "amenity": "post_box", "brand": "United States Postal Service", "brand:wikidata": "Q668687", "collection_times": "Mo-Sa 10:00", "name": "USPS COLLECTION BOX - BLUE BOX", "nsi_id": "unitedstatespostalservice-a77078", "operator": "United States Postal Service", "operator:short": "USPS", "operator:type": "public", "operator:wikidata": "Q668687", "ref": "0720400020"}, "type": "Feature"}
{"dataset_attributes": {"@spider": "usps_collection_boxes"}, "geometry": {"coordinates": [-74.2570574, 40.662751], "type": "Point"}, "id": "aXAhemTVoKypgrfr03BPwvH5cHk=", "properties": {"@spider": "usps_collection_boxes", "addr:city": "ROSELLE PARK", "addr:country": "US", "addr:full": "221 E WESTFIELD AVE", "addr:postcode": "07204", "addr:state": "NJ", "amenity": "post_box", "brand": "United States Postal Service", "brand:wikidata": "Q668687", "collection_times": "Mo-Sa 10:00", "name": "USPS COLLECTION BOX - BLUE BOX", "nsi_id": "unitedstatespostalservice-a77078", "operator": "United States Postal Service", "operator:short": "USPS", "operator:type": "public", "operator:wikidata": "Q668687", "ref": "0720400021"}, "type": "Feature"}
{"dataset_attributes": {"@spider": "usps_collection_boxes"}, "geometry": {"coordinates": [-74.2760847, 40.660148], "type": "Point"}, "id": "a9BoSBp4ujkHzOzWgH2zHj2keQE=", "properties": {"@spider": "usps_collection_boxes", "addr:city": "ROSELLE PARK", "addr:country": "US", "addr:full": "361 W WESTFIELD AVE", "addr:postcode": "07204", "addr:state": "NJ", "amenity": "post_box", "brand": "United States Postal Service", "brand:wikidata": "Q668687", "collection_times": "Mo-Sa 15:30", "name": "USPS COLLECTION BOX - BLUE BOX", "note": "ON 12/24 AND 12/31, THIS BOX MAY BE COLLECTED AS EARLY AS 12 NOON.", "nsi_id": "unitedstatespostalservice-a77078", "operator": "United States Postal Service", "operator:short": "USPS", "operator:type": "public", "operator:wikidata": "Q668687", "ref": "0720400024"}, "type": "Feature"}
{"dataset_attributes": {"@spider": "usps_collection_boxes"}, "geometry": {"coordinates": [-74.2608293, 40.664547], "type": "Point"}, "id": "lo3YQWk-f7XTHQsZsO2Ly0-QwSw=", "properties": {"@spider": "usps_collection_boxes", "addr:city": "ROSELLE PARK", "addr:country": "US", "addr:full": "128 E GRANT AVE", "addr:postcode": "07204", "addr:state": "NJ", "amenity": "post_box", "brand": "United States Postal Service", "brand:wikidata": "Q668687", "collection_times": "Mo-Sa 10:00", "name": "USPS COLLECTION BOX - BLUE BOX", "nsi_id": "unitedstatespostalservice-a77078", "operator": "United States Postal Service", "operator:short": "USPS", "operator:type": "public", "operator:wikidata": "Q668687", "ref": "0720400027"}, "type": "Feature"}
{"dataset_attributes": {"@spider": "usps_collection_boxes"}, "geometry": {"coordinates": [-74.2647751, 40.663881], "type": "Point"}, "id": "jZypkurzFFFudD6Cc-xizpcSMfI=", "properties": {"@spider": "usps_collection_boxes", "addr:city": "ROSELLE PARK", "addr:country": "US", "addr:full": "290 CHESTNUT ST", "addr:postcode": "07204", "addr:state": "NJ", "amenity": "post_box", "brand": "United States Postal Service", "brand:wikidata": "Q668687", "collection_times": "Mo-Fr 17:00; Sa 13:00", "name": "USPS COLLECTION BOX - PO LOBBY", "note": "ON 12/24 AND 12/31, THIS BOX MAY BE COLLECTED AS EARLY AS 12 NOON.", "nsi_id": "unitedstatespostalservice-a77078", "operator": "United States Postal Service", "operator:short": "USPS", "operator:type": "public", "operator:wikidata": "Q668687", "ref": "0720400028"}, "type": "Feature"}
{"dataset_attributes": {"@spider": "usps_collection_boxes"}, "geometry": {"coordinates": [-74.264569578, 40.664008854], "type": "Point"}, "id": "_vViue4KdFdCa4fApRxwebamrzo=", "properties": {"@spider": "usps_collection_boxes", "addr:city": "ROSELLE PARK", "addr:country": "US", "addr:full": "290 CHESTNUT ST", "addr:postcode": "07204", "addr:state": "NJ", "amenity": "post_box", "brand": "United States Postal Service", "brand:wikidata": "Q668687", "collection_times": "Mo-Fr 17:00; Sa 13:00", "name": "USPS COLLECTION BOX - PO LOBBY", "note": "ON 12/24 AND 12/31, THIS BOX MAY BE COLLECTED AS EARLY AS 12 NOON.", "nsi_id": "unitedstatespostalservice-a77078", "operator": "United States Postal Service", "operator:short": "USPS", "operator:type": "public", "operator:wikidata": "Q668687", "ref": "0720400029"}, "type": "Feature"}
{"dataset_attributes": {"@spider": "usps_collection_boxes"}, "geometry": {"coordinates": [-74.2373479876, 40.6935429995], "type": "Point"}, "id": "uXtjpG7RS87jNYll85R7l9AP4rw=", "properties": {"@spider": "usps_collection_boxes", "addr:city": "HILLSIDE", "addr:country": "US", "addr:full": "1146 LIBERTY AVE", "addr:postcode": "07205", "addr:state": "NJ", "amenity": "post_box", "brand": "United States Postal Service", "brand:wikidata": "Q668687", "collection_times": "Mo-Fr 17:00; Sa 10:00", "name": "USPS COLLECTION BOX - BLUE BOX", "note": "ON 12/24 AND 12/31, THIS BOX MAY BE COLLECTED AS EARLY AS 12 NOON.", "nsi_id": "unitedstatespostalservice-a77078", "operator": "United States Postal Service", "operator:short": "USPS", "operator:type": "public", "operator:wikidata": "Q668687", "ref": "0720500003"}, "type": "Feature"}
{"dataset_attributes": {"@spider": "usps_collection_boxes"}, "geometry": {"coordinates": [-74.2183663, 40.691136], "type": "Point"}, "id": "pYl-ApIQtqO5yN3g3aHj55BRa3I=", "properties": {"@spider": "usps_collection_boxes", "addr:city": "HILLSIDE", "addr:country": "US", "addr:full": "45 COE AVE", "addr:postcode": "07205", "addr:state": "NJ", "amenity": "post_box", "brand": "United States Postal Service", "brand:wikidata": "Q668687", "collection_times": "Mo-Sa 10:00", "name": "USPS COLLECTION BOX - BLUE BOX", "nsi_id": "unitedstatespostalservice-a77078", "operator": "United States Postal Service", "operator:short": "USPS", "operator:type": "public", "operator:wikidata": "Q668687", "ref": "0720500013"}, "type": "Feature"}
{"dataset_attributes": {"@spider": "usps_collection_boxes"}, "geometry": {"coordinates": [-74.2240588, 40.699049], "type": "Point"}, "id": "-GtvzZcMSXFLqAljdrIb1HefvOM=", "properties": {"@spider": "usps_collection_boxes", "addr:city": "HILLSIDE", "addr:country": "US", "addr:full": "1401 MAPLE AVE", "addr:postcode": "07205", "addr:state": "NJ", "amenity": "post_box", "brand": "United States Postal Service", "brand:wikidata": "Q668687", "collection_times": "Mo-Sa 10:00", "name": "USPS COLLECTION BOX - BLUE BOX", "nsi_id": "unitedstatespostalservice-a77078", "operator": "United States Postal Service", "operator:short": "USPS", "operator:type": "public", "operator:wikidata": "Q668687", "ref": "0720500018"}, "type": "Feature"}
{"dataset_attributes": {"@spider": "usps_collection_boxes"}, "geometry": {"coordinates": [-74.23300416, 40.703203311], "type": "Point"}, "id": "JUkmtESxLq9D-oGLtz5QH1WjjYs=", "properties": {"@spider": "usps_collection_boxes", "addr:city": "HILLSIDE", "addr:country": "US", "addr:full": "397 HILLSIDE AVE", "addr:postcode": "07205", "addr:state": "NJ", "amenity": "post_box", "brand": "United States Postal Service", "brand:wikidata": "Q668687", "collection_times": "Mo-Fr 17:00; Sa 10:00", "name": "USPS COLLECTION BOX - BLUE BOX", "note": "ON 12/24 AND 12/31, THIS BOX MAY BE COLLECTED AS EARLY AS 12 NOON.", "nsi_id": "unitedstatespostalservice-a77078", "operator": "United States Postal Service", "operator:short": "USPS", "operator:type": "public", "operator:wikidata": "Q668687", "ref": "0720500020"}, "type": "Feature"}
{"dataset_attributes": {"@spider": "usps_collection_boxes"}, "geometry": {"coordinates": [-74.23300416, 40.703203311], "type": "Point"}, "id": "6Txs6lYDuWKTrx5FLgpU25iNRZc=", "properties": {"@spider": "usps_collection_boxes", "addr:city": "HILLSIDE", "addr:country": "US", "addr:full": "397 HILLSIDE AVE", "addr:postcode": "07205", "addr:state": "NJ", "amenity": "post_box", "brand": "United States Postal Service", "brand:wikidata": "Q668687", "collection_times": "Mo-Fr 17:00; Sa 10:00", "name": "USPS COLLECTION BOX - BLUE BOX", "note": "ON 12/24 AND 12/31, THIS BOX MAY BE COLLECTED AS EARLY AS 12 NOON.", "nsi_id": "unitedstatespostalservice-a77078", "operator": "United States Postal Service", "operator:short": "USPS", "operator:type": "public", "operator:wikidata": "Q668687", "ref": "0720500021"}, "type": "Feature"}
{"dataset_attributes": {"@spider": "usps_collection_boxes"}, "geometry": {"coordinates": [-74.2292192, 40.701375], "type": "Point"}, "id": "KmPXtq2TFZtFamRzkL_lIWr4h1c=", "properties": {"@spider": "usps_collection_boxes", "addr:city": "HILLSIDE", "addr:country": "US", "addr:full": "1409 LIBERTY AVE", "addr:postcode": "07205", "addr:state": "NJ", "amenity": "post_box", "brand": "United States Postal Service", "brand:wikidata": "Q668687", "collection_times": "Mo-Sa 10:00", "name": "USPS COLLECTION BOX - BLUE BOX", "nsi_id": "unitedstatespostalservice-a77078", "operator": "United States Postal Service", "operator:short": "USPS", "operator:type": "public", "operator:wikidata": "Q668687", "ref": "0720500025"}, "type": "Feature"}
{"dataset_attributes": {"@spider": "usps_collection_boxes"}, "geometry": {"coordinates": [-74.2331704715, 40.697291679], "type": "Point"}, "id": "LBt0VWLTxLZupanktX9FFXpBez4=", "properties": {"@spider": "usps_collection_boxes", "addr:city": "HILLSIDE", "addr:country": "US", "addr:full": "1283 LIBERTY AVE", "addr:postcode": "07205", "addr:state": "NJ", "amenity": "post_box", "brand": "United States Postal Service", "brand:wikidata": "Q668687", "collection_times": "Mo-Sa 10:00", "name": "USPS COLLECTION BOX - BLUE BOX", "nsi_id": "unitedstatespostalservice-a77078", "operator": "United States Postal Service", "operator:short": "USPS", "operator:type": "public", "operator:wikidata": "Q668687", "ref": "0720500028"}, "type": "Feature"}
{"dataset_attributes": {"@spider": "usps_collection_boxes"}, "geometry": {"coordinates": [-74.2249981, 40.694868], "type": "Point"}, "id": "IA0my4Ga6W2RrqmvnddDGaKpWBo=", "properties": {"@spider": "usps_collection_boxes", "addr:city": "HILLSIDE", "addr:country": "US", "addr:full": "39 LONG AVE", "addr:postcode": "07205", "addr:state": "NJ", "amenity": "post_box", "brand": "United States Postal Service", "brand:wikidata": "Q668687", "collection_times": "Mo-Sa 10:00", "name": "USPS COLLECTION BOX - BLUE BOX", "nsi_id": "unitedstatespostalservice-a77078", "operator": "United States Postal Service", "operator:short": "USPS", "operator:type": "public", "operator:wikidata": "Q668687", "ref": "0720500030"}, "type": "Feature"}
{"dataset_attributes": {"@spider": "usps_collection_boxes"}, "geometry": {"coordinates": [-74.2253734, 40.705863], "type": "Point"}, "id": "6nDd6HQHiCtSmWrkEZbA_0YAqsg=", "properties": {"@spider": "usps_collection_boxes", "addr:city": "HILLSIDE", "addr:country": "US", "addr:full": "301 WINANS AVE", "addr:postcode": "07205", "addr:state": "NJ", "amenity": "post_box", "brand": "United States Postal Service", "brand:wikidata": "Q668687", "collection_times": "Mo-Sa 10:00", "name": "USPS COLLECTION BOX - BLUE BOX", "nsi_id": "unitedstatespostalservice-a77078", "operator": "United States Postal Service", "operator:short": "USPS", "operator:type": "public", "operator:wikidata": "Q668687", "ref": "0720500043"}, "type": "Feature"}
{"dataset_attributes": {"@spider": "usps_collection_boxes"}, "geometry": {"coordinates": [-74.236721884, 40.693184341], "type": "Point"}, "id": "A3czeFt1PFs9m8rbdwEHg7uGR8Q=", "properties": {"@spider": "usps_collection_boxes", "addr:city": "HILLSIDE", "addr:country": "US", "addr:full": "1146 LIBERTY AVE", "addr:postcode": "07205", "addr:state": "NJ", "amenity": "post_box", "brand": "United States Postal Service", "brand:wikidata": "Q668687", "collection_times": "Mo-Fr 16:15; Sa 13:30", "name": "USPS COLLECTION BOX - PO LOBBY", "note": "ON 12/24 AND 12/31, THIS BOX MAY BE COLLECTED AS EARLY AS 12 NOON.", "nsi_id": "unitedstatespostalservice-a77078", "operator": "United States Postal Service", "operator:short": "USPS", "operator:type": "public", "operator:wikidata": "Q668687", "ref": "0720500044"}, "type": "Feature"}
{"dataset_attributes": {"@spider": "usps_collection_boxes"}, "geometry": {"coordinates": [-74.23300416, 40.703203311], "type": "Point"}, "id": "iw8C_D6J4UB2I3X0G0N5Uy316ec=", "properties": {"@spider": "usps_collection_boxes", "addr:city": "HILLSIDE", "addr:country": "US", "addr:full": "397 HILLSIDE AVE", "addr:postcode": "07205", "addr:state": "NJ", "amenity": "post_box", "brand": "United States Postal Service", "brand:wikidata": "Q668687", "collection_times": "Mo-Fr 17:00; Sa 13:00", "name": "USPS COLLECTION BOX - PO LOBBY", "note": "ON 12/24 AND 12/31, THIS BOX MAY BE COLLECTED AS EARLY AS 12 NOON.", "nsi_id": "unitedstatespostalservice-a77078", "operator": "United States Postal Service", "operator:short": "USPS", "operator:type": "public", "operator:wikidata": "Q668687", "ref": "0720500045"}, "type": "Feature"}
{"dataset_attributes": {"@spider": "usps_collection_boxes"}, "geometry": {"coordinates": [-74.236721884, 40.693184341], "type": "Point"}, "id": "N-EwILFaSlPN2u_zKKx1mm03sYM=", "properties": {"@spider": "usps_collection_boxes", "addr:city": "HILLSIDE", "addr:country": "US", "addr:full": "1146 LIBERTY AVE", "addr:postcode": "07205", "addr:state": "NJ", "amenity": "post_box", "brand": "United States Postal Service", "brand:wikidata": "Q668687", "collection_times": "Mo-Fr 16:15; Sa 14:00", "name": "USPS COLLECTION BOX - PO LOBBY", "note": "ON 12/24 AND 12/31, THIS BOX MAY BE COLLECTED AS EARLY AS 12 NOON.", "nsi_id": "unitedstatespostalservice-a77078", "operator": "United States Postal Service", "operator:short": "USPS", "operator:type": "public", "operator:wikidata": "Q668687", "ref": "0720500047"}, "type": "Feature"}
{"dataset_attributes": {"@spider": "usps_collection_boxes"}, "geometry": {"coordinates": [-74.23300416, 40.703203311], "type": "Point"}, "id": "nqazmVGsaygeKbWY55UZuI1nU6w=", "properties": {"@spider": "usps_collection_boxes", "addr:city": "HILLSIDE", "addr:country": "US", "addr:full": "397 HILLSIDE AVE", "addr:postcode": "07205", "addr:state": "NJ", "amenity": "post_box", "brand": "United States Postal Service", "brand:wikidata": "Q668687", "collection_times": "Mo-Fr 17:00; Sa 14:00", "name": "USPS COLLECTION BOX - PO LOBBY", "note": "ON 12/24 AND 12/31, THIS BOX MAY BE COLLECTED AS EARLY AS 12 NOON.", "nsi_id": "unitedstatespostalservice-a77078", "operator": "United States Postal Service", "operator:short": "USPS", "operator:type": "public", "operator:wikidata": "Q668687", "ref": "0720500048"}, "type": "Feature"}
{"dataset_attributes": {"@spider": "usps_collection_boxes"}, "geometry": {"coordinates": [-74.2148288, 40.662175], "type": "Point"}, "id": "OA2S-Bfa9L-Na0p4t_VZzmWhZMQ=", "properties": {"@spider": "usps_collection_boxes", "addr:city": "ELIZABETH", "addr:country": "US", "addr:full": "1 BROAD ST", "addr:postcode": "07207", "addr:state": "NJ", "amenity": "post_box", "brand": "United States Postal Service", "brand:wikidata": "Q668687", "collection_times": "Mo-Sa 10:00", "name": "USPS COLLECTION BOX - BLUE BOX", "nsi_id": "unitedstatespostalservice-a77078", "operator": "United States Postal Service", "operator:short": "USPS", "operator:type": "public", "operator:wikidata": "Q668687", "ref": "0720700001"}, "type": "Feature"}
{"dataset_attributes": {"@spider": "usps_collection_boxes"}, "geometry": {"coordinates": [-74.2130871, 40.666728], "type": "Point"}, "id": "WgQ6wcU7ysSodaMG0Ntz98xqAO8=", "properties": {"@spider": "usps_collection_boxes", "addr:city": "ELIZABETH", "addr:country": "US", "addr:full": "1 POLICE PLZ", "addr:postcode": "07207", "addr:state": "NJ", "amenity": "post_box", "brand": "United States Postal Service", "brand:wikidata": "Q668687", "collection_times": "Mo-Sa 10:00", "name": "USPS COLLECTION BOX - BLUE BOX", "nsi_id": "unitedstatespostalservice-a77078", "operator": "United States Postal Service", "operator:short": "USPS", "operator:type": "public", "operator:wikidata": "Q668687", "ref": "0720700002"}, "type": "Feature"}
{"dataset_attributes": {"@spider": "usps_collection_boxes"}, "geometry": {"coordinates": [-74.1818916, 40.654259], "type": "Point"}, "id": "NIxlKuiBxlngTsB5mVT8P4-Puv8=", "properties": {"@spider": "usps_collection_boxes", "addr:city": "ELIZABETH", "addr:country": "US", "addr:full": "278 2ND ST", "addr:postcode": "07207", "addr:state": "NJ", "amenity": "post_box", "brand": "United States Postal Service", "brand:wikidata": "Q668687", "collection_times": "Mo-Sa 10:00", "name": "USPS COLLECTION BOX - BLUE BOX", "nsi_id": "unitedstatespostalservice-a77078", "operator": "United States Postal Service", "operator:short": "USPS", "operator:type": "public", "operator:wikidata": "Q668687", "ref": "0720700006"}, "type": "Feature"}
{"dataset_attributes": {"@spider": "usps_collection_boxes"}, "geometry": {"coordinates": [-74.2145291, 40.659278], "type": "Point"}, "id": "zoXatk4GoO2TaqVpGe8zREVh8bU=", "properties": {"@spider": "usps_collection_boxes", "addr:city": "ELIZABETH", "addr:country": "US", "addr:full": "225 WILLIAMSON ST", "addr:postcode": "07207", "addr:state": "NJ", "amenity": "post_box", "brand": "United States Postal Service", "brand:wikidata": "Q668687", "collection_times": "Mo-Sa 10:00", "name": "USPS COLLECTION BOX - BLUE BOX", "nsi_id": "unitedstatespostalservice-a77078", "operator": "United States Postal Service", "operator:short": "USPS", "operator:type": "public", "operator:wikidata": "Q668687", "ref": "0720700018"}, "type": "Feature"}
{"dataset_attributes": {"@spider": "usps_collection_boxes"}, "geometry": {"coordinates": [-74.2174652, 40.661665], "type": "Point"}, "id": "lbEd_9o1EqCSEwMd_cs9s9zW9Ho=", "properties": {"@spider": "usps_collection_boxes", "addr:city": "ELIZABETH", "addr:country": "US", "addr:full": "51 RAHWAY AVE", "addr:postcode": "07207", "addr:state": "NJ", "amenity": "post_box", "brand": "United States Postal Service", "brand:wikidata": "Q668687", "collection_times": "Mo-Sa 10:00", "name": "USPS COLLECTION BOX - BLUE BOX", "nsi_id": "unitedstatespostalservice-a77078", "operator": "United States Postal Service", "operator:short": "USPS", "operator:type": "public", "operator:wikidata": "Q668687", "ref": "0720700020"}, "type": "Feature"}
{"dataset_attributes": {"@spider": "usps_collection_boxes"}, "geometry": {"coordinates": [-74.2158689, 40.669935], "type": "Point"}, "id": "QYhZKEKE6bUyzIDd3s6zIkGrg0Y=", "properties": {"@spider": "usps_collection_boxes", "addr:city": "ELIZABETH", "addr:country": "US", "addr:full": "310 N BROAD ST      (1)", "addr:postcode": "07207", "addr:state": "NJ", "amenity": "post_box", "brand": "United States Postal Service", "brand:wikidata": "Q668687", "collection_times": "Mo-Fr 17:00; Sa 10:00", "name": "USPS COLLECTION BOX - BLUE BOX", "note": "ON 12/24 AND 12/31, THIS BOX MAY BE COLLECTED AS EARLY AS 12 NOON.", "nsi_id": "unitedstatespostalservice-a77078", "operator": "United States Postal Service", "operator:short": "USPS", "operator:type": "public", "operator:wikidata": "Q668687", "ref": "0720700027"}, "type": "Feature"}
{"dataset_attributes": {"@spider": "usps_collection_boxes"}, "geometry": {"coordinates": [-74.2158874, 40.669972], "type": "Point"}, "id": "raPAb0lLw4om-h-vp81B_ua9rxU=", "properties": {"@spider": "usps_collection_boxes", "addr:city": "ELIZABETH", "addr:country": "US", "addr:full": "310 N BROAD ST      (2)", "addr:postcode": "07207", "addr:state": "NJ", "amenity": "post_box", "brand": "United States Postal Service", "brand:wikidata": "Q668687", "collection_times": "Mo-Fr 17:00; Sa 10:00", "name": "USPS COLLECTION BOX - BLUE BOX", "note": "ON 12/24 AND 12/31, THIS BOX MAY BE COLLECTED AS EARLY AS 12 NOON.", "nsi_id": "unitedstatespostalservice-a77078", "operator": "United States Postal Service", "operator:short": "USPS", "operator:type": "public", "operator:wikidata": "Q668687", "ref": "0720700028"}, "type": "Feature"}
{"dataset_attributes": {"@spider": "usps_collection_boxes"}, "geometry": {"coordinates": [-74.219433, 40.66233], "type": "Point"}, "id": "JqmLeWAsgPBzvJ6JT5EqzVo_e5k=", "properties": {"@spider": "usps_collection_boxes", "addr:city": "ELIZABETH", "addr:country": "US", "addr:full": "33 CHERRY ST", "addr:postcode": "07207", "addr:state": "NJ", "amenity": "post_box", "brand": "United States Postal Service", "brand:wikidata": "Q668687", "collection_times": "Mo-Sa 10:00", "name": "USPS COLLECTION BOX - BLUE BOX", "nsi_id": "unitedstatespostalservice-a77078", "operator": "United States Postal Service", "operator:short": "USPS", "operator:type": "public", "operator:wikidata": "Q668687", "ref": "0720700030"}, "type": "Feature"}
{"dataset_attributes": {"@spider": "usps_collection_boxes"}, "geometry": {"coordinates": [-74.2271382, 40.662479], "type": "Point"}, "id": "Bm1rnmIFRezZ7OvWPPy81hDJyT4=", "properties": {"@spider": "usps_collection_boxes", "addr:city": "ELIZABETH", "addr:country": "US", "addr:full": "330 W JERSEY ST", "addr:postcode": "07207", "addr:state": "NJ", "amenity": "post_box", "brand": "United States Postal Service", "brand:wikidata": "Q668687", "collection_times": "Mo-Sa 10:00", "name": "USPS COLLECTION BOX - BLUE BOX", "nsi_id": "unitedstatespostalservice-a77078", "operator": "United States Postal Service", "operator:short": "USPS", "operator:type": "public", "operator:wikidata": "Q668687", "ref": "0720700032"}, "type": "Feature"}
{"dataset_attributes": {"@spider": "usps_collection_boxes"}, "geometry": {"coordinates": [-74.2328126, 40.665856], "type": "Point"}, "id": "19OSZ4ho-a0j3qytgwnhwXojZPo=", "properties": {"@spider": "usps_collection_boxes", "addr:city": "ELIZABETH", "addr:country": "US", "addr:full": "520 WESTFIELD AVE", "addr:postcode": "07207", "addr:state": "NJ", "amenity": "post_box", "brand": "United States Postal Service", "brand:wikidata": "Q668687", "collection_times": "Mo-Sa 10:00", "name": "USPS COLLECTION BOX - BLUE BOX", "nsi_id": "unitedstatespostalservice-a77078", "operator": "United States Postal Service", "operator:short": "USPS", "operator:type": "public", "operator:wikidata": "Q668687", "ref": "0720700036"}, "type": "Feature"}
{"dataset_attributes": {"@spider": "usps_collection_boxes"}, "geometry": {"coordinates": [-74.2197044, 40.667897], "type": "Point"}, "id": "IlbJatscNQV2RhH7CKRhqL6yW8s=", "properties": {"@spider": "usps_collection_boxes", "addr:city": "ELIZABETH", "addr:country": "US", "addr:full": "76 WESTFIELD AVE", "addr:postcode": "07207", "addr:state": "NJ", "amenity": "post_box", "brand": "United States Postal Service", "brand:wikidata": "Q668687", "collection_times": "Mo-Sa 10:00", "name": "USPS COLLECTION BOX - BLUE BOX", "nsi_id": "unitedstatespostalservice-a77078", "operator": "United States Postal Service", "operator:short": "USPS", "operator:type": "public", "operator:wikidata": "Q668687", "ref": "0720700042"}, "type": "Feature"}
{"dataset_attributes": {"@spider": "usps_collection_boxes"}, "geometry": {"coordinates": [-74.2068418, 40.660248], "type": "Point"}, "id": "o0c3cBAes2BP1ZTJtG0tO_seagg=", "properties": {"@spider": "usps_collection_boxes", "addr:city": "ELIZABETH", "addr:country": "US", "addr:full": "946 ELIZABETH AVE", "addr:postcode": "07207", "addr:state": "NJ", "amenity": "post_box", "brand": "United States Postal Service", "brand:wikidata": "Q668687", "collection_times": "Mo-Fr 17:00; Sa 10:00", "name": "USPS COLLECTION BOX - BLUE BOX", "note": "ON 12/24 AND 12/31, THIS BOX MAY BE COLLECTED AS EARLY AS 12 NOON.", "nsi_id": "unitedstatespostalservice-a77078", "operator": "United States Postal Service", "operator:short": "USPS", "operator:type": "public", "operator:wikidata": "Q668687", "ref": "0720700051"}, "type": "Feature"}
{"dataset_attributes": {"@spider": "usps_collection_boxes"}, "geometry": {"coordinates": [-74.2131889, 40.645052], "type": "Point"}, "id": "HZv3FqQVGA8hHlew5hbJZHyNncE=", "properties": {"@spider": "usps_collection_boxes", "addr:city": "ELIZABETH", "addr:country": "US", "addr:full": "544 BAYWAY AVE", "addr:postcode": "07207", "addr:state": "NJ", "amenity": "post_box", "brand": "United States Postal Service", "brand:wikidata": "Q668687", "collection_times": "Mo-Fr 17:00; Sa 10:00", "name": "USPS COLLECTION BOX - BLUE BOX", "note": "ON 12/24 AND 12/31, THIS BOX MAY BE COLLECTED AS EARLY AS 12 NOON.", "nsi_id": "unitedstatespostalservice-a77078", "operator": "United States Postal Service", "operator:short": "USPS", "operator:type": "public", "operator:wikidata": "Q668687", "ref": "0720700059"}, "type": "Feature"}
{"dataset_attributes": {"@spider": "usps_collection_boxes"}, "geometry": {"coordinates": [-74.1984733, 40.659625], "type": "Point"}, "id": "QfMuKd9jSUgWQcJKkca1H5fw05I=", "properties": {"@spider": "usps_collection_boxes", "addr:city": "ELIZABETH", "addr:country": "US", "addr:full": "655 E JERSEY ST", "addr:postcode": "07207", "addr:state": "NJ", "amenity": "post_box", "brand": "United States Postal Service", "brand:wikidata": "Q668687", "collection_times": "Mo-Sa 10:00", "name": "USPS COLLECTION BOX - BLUE BOX", "nsi_id": "unitedstatespostalservice-a77078", "operator": "United States Postal Service", "operator:short": "USPS", "operator:type": "public", "operator:wikidata": "Q668687", "ref": "0720700079"}, "type": "Feature"}
{"dataset_attributes": {"@spider": "usps_collection_boxes"}, "geometry": {"coordinates": [-74.233576, 40.662637], "type": "Point"}, "id": "8_7QHo7nLlciUFLWaD12M9PqUFQ=", "properties": {"@spider": "usps_collection_boxes", "addr:city": "ELIZABETH", "addr:country": "US", "addr:full": "162 ELMORA AVE", "addr:postcode": "07207", "addr:state": "NJ", "amenity": "post_box", "brand": "United States Postal Service", "brand:wikidata": "Q668687", "collection_times": "Mo-Sa 10:00", "name": "USPS COLLECTION BOX - BLUE BOX", "nsi_id": "unitedstatespostalservice-a77078", "operator": "United States Postal Service", "operator:short": "USPS", "operator:type": "public", "operator:wikidata": "Q668687", "ref": "0720700095"}, "type": "Feature"}
{"dataset_attributes": {"@spider": "usps_collection_boxes"}, "geometry": {"coordinates": [-74.2335923, 40.663097], "type": "Point"}, "id": "Nc1aWWbundpVBL2-ry_TJG4GeRI=", "properties": {"@spider": "usps_collection_boxes", "addr:city": "ELIZABETH", "addr:country": "US", "addr:full": "175 ELMORA AVE", "addr:postcode": "07207", "addr:state": "NJ", "amenity": "post_box", "brand": "United States Postal Service", "brand:wikidata": "Q668687", "collection_times": "Mo-Fr 17:00; Sa 10:00", "name": "USPS COLLECTION BOX - BLUE BOX", "note": "ON 12/24 AND 12/31, THIS BOX MAY BE COLLECTED AS EARLY AS 12 NOON.", "nsi_id": "unitedstatespostalservice-a77078", "operator": "United States Postal Service", "operator:short": "USPS", "operator:type": "public", "operator:wikidata": "Q668687", "ref": "0720700096"}, "type": "Feature"}
{"dataset_attributes": {"@spider": "usps_collection_boxes"}, "geometry": {"coordinates": [-74.2294733, 40.656569], "type": "Point"}, "id": "9Ehf0rkGMsqbWQe929LY9H6yxSw=", "properties": {"@spider": "usps_collection_boxes", "addr:city": "ELIZABETH", "addr:country": "US", "addr:full": "9 ELMORA AVE", "addr:postcode": "07207", "addr:state": "NJ", "amenity": "post_box", "brand": "United States Postal Service", "brand:wikidata": "Q668687", "collection_times": "Mo-Sa 10:00", "name": "USPS COLLECTION BOX - BLUE BOX", "nsi_id": "unitedstatespostalservice-a77078", "operator": "United States Postal Service", "operator:short": "USPS", "operator:type": "public", "operator:wikidata": "Q668687", "ref": "0720700097"}, "type": "Feature"}
{"dataset_attributes": {"@spider": "usps_collection_boxes"}, "geometry": {"coordinates": [-74.2346003, 40.665801], "type": "Point"}, "id": "zGAbu7e9BX1Zfi9-k_rmzH95T8A=", "properties": {"@spider": "usps_collection_boxes", "addr:city": "ELIZABETH", "addr:country": "US", "addr:full": "605 WESTFIELD AVE", "addr:postcode": "07207", "addr:state": "NJ", "amenity": "post_box", "brand": "United States Postal Service", "brand:wikidata": "Q668687", "collection_times": "Mo-Sa 10:00", "name": "USPS COLLECTION BOX - BLUE BOX", "nsi_id": "unitedstatespostalservice-a77078", "operator": "United States Postal Service", "operator:short": "USPS", "operator:type": "public", "operator:wikidata": "Q668687", "ref": "0720700098"}, "type": "Feature"}
{"dataset_attributes": {"@spider": "usps_collection_boxes"}, "geometry": {"coordinates": [-74.2062365, 40.65347], "type": "Point"}, "id": "smavFZoqB-qYXzDo2PYInxffc9Y=", "properties": {"@spider": "usps_collection_boxes", "addr:city": "ELIZABETH", "addr:country": "US", "addr:full": "560 FOURTH AVE", "addr:postcode": "07207", "addr:state": "NJ", "amenity": "post_box", "brand": "United States Postal Service", "brand:wikidata": "Q668687", "collection_times": "Mo-Sa 10:00", "name": "USPS COLLECTION BOX - BLUE BOX", "nsi_id": "unitedstatespostalservice-a77078", "operator": "United States Postal Service", "operator:short": "USPS", "operator:type": "public", "operator:wikidata": "Q668687", "ref": "0720700105"}, "type": "Feature"}
{"dataset_attributes": {"@spider": "usps_collection_boxes"}, "geometry": {"coordinates": [-74.2469918, 40.665115], "type": "Point"}, "id": "paw1tHCbKkANHHhoMxmlAsEpiDk=", "properties": {"@spider": "usps_collection_boxes", "addr:city": "ELIZABETH", "addr:country": "US", "addr:full": "25 GALLOPING HILL RD", "addr:postcode": "07207", "addr:state": "NJ", "amenity": "post_box", "brand": "United States Postal Service", "brand:wikidata": "Q668687", "collection_times": "Mo-Sa 10:00", "name": "USPS COLLECTION BOX - BLUE BOX", "nsi_id": "unitedstatespostalservice-a77078", "operator": "United States Postal Service", "operator:short": "USPS", "operator:type": "public", "operator:wikidata": "Q668687", "ref": "0720700108"}, "type": "Feature"}
{"dataset_attributes": {"@spider": "usps_collection_boxes"}, "geometry": {"coordinates": [-74.1969573, 40.682327], "type": "Point"}, "id": "A7LqfaqORL5h7M5U1RuU8jU978A=", "properties": {"@spider": "usps_collection_boxes", "addr:city": "ELIZABETH", "addr:country": "US", "addr:full": "963 JACKSON AVE", "addr:postcode": "07207", "addr:state": "NJ", "amenity": "post_box", "brand": "United States Postal Service", "brand:wikidata": "Q668687", "collection_times": "Mo-Sa 10:00", "name": "USPS COLLECTION BOX - BLUE BOX", "nsi_id": "unitedstatespostalservice-a77078", "operator": "United States Postal Service", "operator:short": "USPS", "operator:type": "public", "operator:wikidata": "Q668687", "ref": "0720700112"}, "type": "Feature"}
{"dataset_attributes": {"@spider": "usps_collection_boxes"}, "geometry": {"coordinates": [-74.2393386, 40.660893], "type": "Point"}, "id": "WGUOll0RSgPSVWHDFN0yZ202YJA=", "properties": {"@spider": "usps_collection_boxes", "addr:city": "ELIZABETH", "addr:country": "US", "addr:full": "863 JERSEY AVE", "addr:postcode": "07207", "addr:state": "NJ", "amenity": "post_box", "brand": "United States Postal Service", "brand:wikidata": "Q668687", "collection_times": "Mo-Sa 10:00", "name": "USPS COLLECTION BOX - BLUE BOX", "nsi_id": "unitedstatespostalservice-a77078", "operator": "United States Postal Service", "operator:short": "USPS", "operator:type": "public", "operator:wikidata": "Q668687", "ref": "0720700118"}, "type": "Feature"}
{"dataset_attributes": {"@spider": "usps_collection_boxes"}, "geometry": {"coordinates": [-74.1907938, 40.652322], "type": "Point"}, "id": "AZo40EgAjF7T3EZTg4R2aVqu6M0=", "properties": {"@spider": "usps_collection_boxes", "addr:city": "ELIZABETH", "addr:country": "US", "addr:full": "114 THIRD ST", "addr:postcode": "07207", "addr:state": "NJ", "amenity": "post_box", "brand": "United States Postal Service", "brand:wikidata": "Q668687", "collection_times": "Mo-Sa 10:00", "name": "USPS COLLECTION BOX - BLUE BOX", "nsi_id": "unitedstatespostalservice-a77078", "operator": "United States Postal Service", "operator:short": "USPS", "operator:type": "public", "operator:wikidata": "Q668687", "ref": "0720700121"}, "type": "Feature"}
{"dataset_attributes": {"@spider": "usps_collection_boxes"}, "geometry": {"coordinates": [-74.2518054, 40.671055], "type": "Point"}, "id": "UsYKd_zLZUmkooq0e8MfavBpghM=", "properties": {"@spider": "usps_collection_boxes", "addr:city": "ELIZABETH", "addr:country": "US", "addr:full": "1270 MAGIE AVE", "addr:postcode": "07207", "addr:state": "NJ", "amenity": "post_box", "brand": "United States Postal Service", "brand:wikidata": "Q668687", "collection_times": "Mo-Sa 10:00", "name": "USPS COLLECTION BOX - BLUE BOX", "nsi_id": "unitedstatespostalservice-a77078", "operator": "United States Postal Service", "operator:short": "USPS", "operator:type": "public", "operator:wikidata": "Q668687", "ref": "0720700124"}, "type": "Feature"}
{"dataset_attributes": {"@spider": "usps_collection_boxes"}, "geometry": {"coordinates": [-74.2291243257, 40.6670222381], "type": "Point"}, "id": "VEp0o7msV5FzMv14QRxoQOU5INE=", "properties": {"@spider": "usps_collection_boxes", "addr:city": "ELIZABETH", "addr:country": "US", "addr:full": "443 MAGIE AVE", "addr:postcode": "07207", "addr:state": "NJ", "amenity": "post_box", "brand": "United States Postal Service", "brand:wikidata": "Q668687", "collection_times": "Mo-Sa 10:00", "name": "USPS COLLECTION BOX - BLUE BOX", "nsi_id": "unitedstatespostalservice-a77078", "operator": "United States Postal Service", "operator:short": "USPS", "operator:type": "public", "operator:wikidata": "Q668687", "ref": "0720700128"}, "type": "Feature"}
{"dataset_attributes": {"@spider": "usps_collection_boxes"}, "geometry": {"coordinates": [-74.2251961, 40.674435], "type": "Point"}, "id": "KPfE_5sSTJXAOlWN3gk9SlSuSvQ=", "properties": {"@spider": "usps_collection_boxes", "addr:city": "ELIZABETH", "addr:country": "US", "addr:full": "578 CHERRY ST", "addr:postcode": "07207", "addr:state": "NJ", "amenity": "post_box", "brand": "United States Postal Service", "brand:wikidata": "Q668687", "collection_times": "Mo-Sa 10:00", "name": "USPS COLLECTION BOX - BLUE BOX", "nsi_id": "unitedstatespostalservice-a77078", "operator": "United States Postal Service", "operator:short": "USPS", "operator:type": "public", "operator:wikidata": "Q668687", "ref": "0720700133"}, "type": "Feature"}
{"dataset_attributes": {"@spider": "usps_collection_boxes"}, "geometry": {"coordinates": [-74.217695023, 40.668736003], "type": "Point"}, "id": "yMIisnNsw9C5FIM_ACFSMDk57uw=", "properties": {"@spider": "usps_collection_boxes", "addr:city": "ELIZABETH", "addr:country": "US", "addr:full": "300 MORRIS AVE", "addr:postcode": "07207", "addr:state": "NJ", "amenity": "post_box", "brand": "United States Postal Service", "brand:wikidata": "Q668687", "collection_times": "Mo-Sa 10:00", "name": "USPS COLLECTION BOX - BLUE BOX", "nsi_id": "unitedstatespostalservice-a77078", "operator": "United States Postal Service", "operator:short": "USPS", "operator:type": "public", "operator:wikidata": "Q668687", "ref": "0720700136"}, "type": "Feature"}
{"dataset_attributes": {"@spider": "usps_collection_boxes"}, "geometry": {"coordinates": [-74.2147108, 40.688045], "type": "Point"}, "id": "Ok9h7CrUvKu77h56sTEKF3cc0Xo=", "properties": {"@spider": "usps_collection_boxes", "addr:city": "ELIZABETH", "addr:country": "US", "addr:full": "1037 N BROAD ST", "addr:postcode": "07207", "addr:state": "NJ", "amenity": "post_box", "brand": "United States Postal Service", "brand:wikidata": "Q668687", "collection_times": "Mo-Sa 10:00", "name": "USPS COLLECTION BOX - BLUE BOX", "nsi_id": "unitedstatespostalservice-a77078", "operator": "United States Postal Service", "operator:short": "USPS", "operator:type": "public", "operator:wikidata": "Q668687", "ref": "0720700141"}, "type": "Feature"}
{"dataset_attributes": {"@spider": "usps_collection_boxes"}, "geometry": {"coordinates": [-74.2148969, 40.671066], "type": "Point"}, "id": "4iNaryycoxPxDNKxh9LKbcmxBvY=", "properties": {"@spider": "usps_collection_boxes", "addr:city": "ELIZABETH", "addr:country": "US", "addr:full": "339 N BROAD ST", "addr:postcode": "07207", "addr:state": "NJ", "amenity": "post_box", "brand": "United States Postal Service", "brand:wikidata": "Q668687", "collection_times": "Mo-Sa 10:00", "name": "USPS COLLECTION BOX - BLUE BOX", "nsi_id": "unitedstatespostalservice-a77078", "operator": "United States Postal Service", "operator:short": "USPS", "operator:type": "public", "operator:wikidata": "Q668687", "ref": "0720700142"}, "type": "Feature"}
{"dataset_attributes": {"@spider": "usps_collection_boxes"}, "geometry": {"coordinates": [-74.2143281, 40.681977], "type": "Point"}, "id": "lBlwulwqOvWIWdbwm0SXD12e0GQ=", "properties": {"@spider": "usps_collection_boxes", "addr:city": "ELIZABETH", "addr:country": "US", "addr:full": "750 N BROAD ST", "addr:postcode": "07207", "addr:state": "NJ", "amenity": "post_box", "brand": "United States Postal Service", "brand:wikidata": "Q668687", "collection_times": "Mo-Sa 10:00", "name": "USPS COLLECTION BOX - BLUE BOX", "nsi_id": "unitedstatespostalservice-a77078", "operator": "United States Postal Service", "operator:short": "USPS", "operator:type": "public", "operator:wikidata": "Q668687", "ref": "0720700144"}, "type": "Feature"}
{"dataset_attributes": {"@spider": "usps_collection_boxes"}, "geometry": {"coordinates": [-74.2135843523, 40.6731549366], "type": "Point"}, "id": "Wk_TCageAPTYsg8Jv-087egcWyE=", "properties": {"@spider": "usps_collection_boxes", "addr:city": "ELIZABETH", "addr:country": "US", "addr:full": "500 N BROAD ST", "addr:postcode": "07207", "addr:state": "NJ", "amenity": "post_box", "brand": "United States Postal Service", "brand:wikidata": "Q668687", "collection_times": "Mo-Sa 10:00", "name": "USPS COLLECTION BOX - BLUE BOX", "nsi_id": "unitedstatespostalservice-a77078", "operator": "United States Postal Service", "operator:short": "USPS", "operator:type": "public", "operator:wikidata": "Q668687", "ref": "0720700145"}, "type": "Feature"}
{"dataset_attributes": {"@spider": "usps_collection_boxes"}, "geometry": {"coordinates": [-74.1995495, 40.678482], "type": "Point"}, "id": "5fhuZCTg4RvPV9O0W5Y07tOYJ_E=", "properties": {"@spider": "usps_collection_boxes", "addr:city": "ELIZABETH", "addr:country": "US", "addr:full": "1039 NORTH AVE", "addr:postcode": "07207", "addr:state": "NJ", "amenity": "post_box", "brand": "United States Postal Service", "brand:wikidata": "Q668687", "collection_times": "Mo-Sa 10:00", "name": "USPS COLLECTION BOX - BLUE BOX", "nsi_id": "unitedstatespostalservice-a77078", "operator": "United States Postal Service", "operator:short": "USPS", "operator:type": "public", "operator:wikidata": "Q668687", "ref": "0720700146"}, "type": "Feature"}
{"dataset_attributes": {"@spider": "usps_collection_boxes"}, "geometry": {"coordinates": [-74.2395162, 40.666602], "type": "Point"}, "id": "YCQc0gHwWADzrI5TRh4IwVcdLgc=", "properties": {"@spider": "usps_collection_boxes", "addr:city": "ELIZABETH", "addr:country": "US", "addr:full": "742 PARK AVE", "addr:postcode": "07207", "addr:state": "NJ", "amenity": "post_box", "brand": "United States Postal Service", "brand:wikidata": "Q668687", "collection_times": "Mo-Sa 10:00", "name": "USPS COLLECTION BOX - BLUE BOX", "nsi_id": "unitedstatespostalservice-a77078", "operator": "United States Postal Service", "operator:short": "USPS", "operator:type": "public", "operator:wikidata": "Q668687", "ref": "0720700150"}, "type": "Feature"}
{"dataset_attributes": {"@spider": "usps_collection_boxes"}, "geometry": {"coordinates": [-74.2233286, 40.659371], "type": "Point"}, "id": "55OmknuHkr8Mx0uEKdwYaH7XEm8=", "properties": {"@spider": "usps_collection_boxes", "addr:city": "ELIZABETH", "addr:country": "US", "addr:full": "301 RAHWAY AVE", "addr:postcode": "07207", "addr:state": "NJ", "amenity": "post_box", "brand": "United States Postal Service", "brand:wikidata": "Q668687", "collection_times": "Mo-Sa 10:00", "name": "USPS COLLECTION BOX - BLUE BOX", "nsi_id": "unitedstatespostalservice-a77078", "operator": "United States Postal Service", "operator:short": "USPS", "operator:type": "public", "operator:wikidata": "Q668687", "ref": "0720700151"}, "type": "Feature"}
{"dataset_attributes": {"@spider": "usps_collection_boxes"}, "geometry": {"coordinates": [-74.1969052, 40.647854], "type": "Point"}, "id": "e13tPKo2ROjb13B9JwdHfPFODOo=", "properties": {"@spider": "usps_collection_boxes", "addr:city": "ELIZABETH", "addr:country": "US", "addr:full": "244 SECOND AVE", "addr:postcode": "07207", "addr:state": "NJ", "amenity": "post_box", "brand": "United States Postal Service", "brand:wikidata": "Q668687", "collection_times": "Mo-Sa 10:00", "name": "USPS COLLECTION BOX - BLUE BOX", "nsi_id": "unitedstatespostalservice-a77078", "operator": "United States Postal Service", "operator:short": "USPS", "operator:type": "public", "operator:wikidata": "Q668687", "ref": "0720700159"}, "type": "Feature"}
{"dataset_attributes": {"@spider": "usps_collection_boxes"}, "geometry": {"coordinates": [-74.2198588, 40.664325], "type": "Point"}, "id": "J3vfx7OyIS7Lltk6PD-VxVOjyoE=", "properties": {"@spider": "usps_collection_boxes", "addr:city": "ELIZABETH", "addr:country": "US", "addr:full": "94 W JERSEY ST", "addr:postcode": "07207", "addr:state": "NJ", "amenity": "post_box", "brand": "United States Postal Service", "brand:wikidata": "Q668687", "collection_times": "Mo-Sa 10:00", "name": "USPS COLLECTION BOX - BLUE BOX", "nsi_id": "unitedstatespostalservice-a77078", "operator": "United States Postal Service", "operator:short": "USPS", "operator:type": "public", "operator:wikidata": "Q668687", "ref": "0720700179"}, "type": "Feature"}
{"dataset_attributes": {"@spider": "usps_collection_boxes"}, "geometry": {"coordinates": [-74.2229887, 40.663674], "type": "Point"}, "id": "-AAPKZqNbvbX6OZKE1ezCrgAiDU=", "properties": {"@spider": "usps_collection_boxes", "addr:city": "ELIZABETH", "addr:country": "US", "addr:full": "203 W JERSEY ST", "addr:postcode": "07207", "addr:state": "NJ", "amenity": "post_box", "brand": "United States Postal Service", "brand:wikidata": "Q668687", "collection_times": "Mo-Sa 10:00", "name": "USPS COLLECTION BOX - BLUE BOX", "nsi_id": "unitedstatespostalservice-a77078", "operator": "United States Postal Service", "operator:short": "USPS", "operator:type": "public", "operator:wikidata": "Q668687", "ref": "0720700180"}, "type": "Feature"}
{"dataset_attributes": {"@spider": "usps_collection_boxes"}, "geometry": {"coordinates": [-74.2178764, 40.6601], "type": "Point"}, "id": "WoxkcVa9Aoap-f4FtW0IepSKk4o=", "properties": {"@spider": "usps_collection_boxes", "addr:city": "ELIZABETH", "addr:country": "US", "addr:full": "809 PEARL ST", "addr:postcode": "07207", "addr:state": "NJ", "amenity": "post_box", "brand": "United States Postal Service", "brand:wikidata": "Q668687", "collection_times": "Mo-Sa 10:00", "name": "USPS COLLECTION BOX - BLUE BOX", "nsi_id": "unitedstatespostalservice-a77078", "operator": "United States Postal Service", "operator:short": "USPS", "operator:type": "public", "operator:wikidata": "Q668687", "ref": "0720700185"}, "type": "Feature"}
{"dataset_attributes": {"@spider": "usps_collection_boxes"}, "geometry": {"coordinates": [-74.200149, 40.659397], "type": "Point"}, "id": "c5bOQZoBj12EiP6wyZWS0e30TBg=", "properties": {"@spider": "usps_collection_boxes", "addr:city": "ELIZABETH", "addr:country": "US", "addr:full": "69 DIVISION ST", "addr:postcode": "07207", "addr:state": "NJ", "amenity": "post_box", "brand": "United States Postal Service", "brand:wikidata": "Q668687", "collection_times": "Mo-Sa 10:00", "name": "USPS COLLECTION BOX - BLUE BOX", "nsi_id": "unitedstatespostalservice-a77078", "operator": "United States Postal Service", "operator:short": "USPS", "operator:type": "public", "operator:wikidata": "Q668687", "ref": "0720700187"}, "type": "Feature"}
{"dataset_attributes": {"@spider": "usps_collection_boxes"}, "geometry": {"coordinates": [-74.2076649, 40.687444], "type": "Point"}, "id": "TL0nprDFQTgJD7-vcg9Li_AHNZc=", "properties": {"@spider": "usps_collection_boxes", "addr:city": "ELIZABETH", "addr:country": "US", "addr:full": "1041 SHERIDAN AVE", "addr:postcode": "07207", "addr:state": "NJ", "amenity": "post_box", "brand": "United States Postal Service", "brand:wikidata": "Q668687", "collection_times": "Mo-Sa 10:00", "name": "USPS COLLECTION BOX - BLUE BOX", "nsi_id": "unitedstatespostalservice-a77078", "operator": "United States Postal Service", "operator:short": "USPS", "operator:type": "public", "operator:wikidata": "Q668687", "ref": "0720700209"}, "type": "Feature"}
{"dataset_attributes": {"@spider": "usps_collection_boxes"}, "geometry": {"coordinates": [-74.2165181, 40.669547], "type": "Point"}, "id": "6vSjItfwRdjpAyXsaMtsEg3sYrM=", "properties": {"@spider": "usps_collection_boxes", "addr:city": "ELIZABETH", "addr:country": "US", "addr:full": "310 N BROAD ST", "addr:postcode": "07207", "addr:state": "NJ", "amenity": "post_box", "brand": "United States Postal Service", "brand:wikidata": "Q668687", "collection_times": "Mo-Fr 17:00; Sa 14:00", "name": "USPS COLLECTION BOX - PO LOBBY", "note": "ON 12/24 AND 12/31, THIS BOX MAY BE COLLECTED AS EARLY AS 12 NOON.", "nsi_id": "unitedstatespostalservice-a77078", "operator": "United States Postal Service", "operator:short": "USPS", "operator:type": "public", "operator:wikidata": "Q668687", "ref": "0720700211"}, "type": "Feature"}
{"dataset_attributes": {"@spider": "usps_collection_boxes"}, "geometry": {"coordinates": [-74.215817346, 40.669924754], "type": "Point"}, "id": "vGOG8gquzcV3xBnBNgYVhHDpzPk=", "properties": {"@spider": "usps_collection_boxes", "addr:city": "ELIZABETH", "addr:country": "US", "addr:full": "310 N BROAD ST", "addr:postcode": "07207", "addr:state": "NJ", "amenity": "post_box", "brand": "United States Postal Service", "brand:wikidata": "Q668687", "collection_times": "Mo-Fr 17:30; Sa 14:00", "name": "USPS COLLECTION BOX - PO LOBBY", "note": "ON 12/24 AND 12/31, THIS BOX MAY BE COLLECTED AS EARLY AS 12 NOON.", "nsi_id": "unitedstatespostalservice-a77078", "operator": "United States Postal Service", "operator:short": "USPS", "operator:type": "public", "operator:wikidata": "Q668687", "ref": "0720700214"}, "type": "Feature"}
{"dataset_attributes": {"@spider": "usps_collection_boxes"}, "geometry": {"coordinates": [-74.2088756, 40.681095], "type": "Point"}, "id": "z_m1I5g9QrRHXWukOZGqTiUvMYU=", "properties": {"@spider": "usps_collection_boxes", "addr:city": "ELIZABETH", "addr:country": "US", "addr:full": "772 NEWARK AVE", "addr:postcode": "07208", "addr:state": "NJ", "amenity": "post_box", "brand": "United States Postal Service", "brand:wikidata": "Q668687", "collection_times": "Mo-Fr 17:00", "name": "USPS COLLECTION BOX - PO LOBBY", "note": "ON 12/24 AND 12/31, THIS BOX MAY BE COLLECTED AS EARLY AS 12 NOON.", "nsi_id": "unitedstatespostalservice-a77078", "operator": "United States Postal Service", "operator:short": "USPS", "operator:type": "public", "operator:wikidata": "Q668687", "ref": "0720800001"}, "type": "Feature"}
{"dataset_attributes": {"@spider": "usps_collection_boxes"}, "geometry": {"coordinates": [-74.208893158, 40.681051321], "type": "Point"}, "id": "sY5eP7l2OrOxMxGHCv7XIUa7Z0g=", "properties": {"@spider": "usps_collection_boxes", "addr:city": "ELIZABETH", "addr:country": "US", "addr:full": "772 NEWARK AVE", "addr:postcode": "07208", "addr:state": "NJ", "amenity": "post_box", "brand": "United States Postal Service", "brand:wikidata": "Q668687", "collection_times": "Mo-Fr 17:00", "name": "USPS COLLECTION BOX - PO LOBBY", "note": "ON 12/24 AND 12/31, THIS BOX MAY BE COLLECTED AS EARLY AS 12 NOON.", "nsi_id": "unitedstatespostalservice-a77078", "operator": "United States Postal Service", "operator:short": "USPS", "operator:type": "public", "operator:wikidata": "Q668687", "ref": "0720800003"}, "type": "Feature"}
