{"geometry": {"coordinates": [-74.0360409, 40.716739], "type": "Point"}, "id": "hwn7VhD43M9FNbI14-6RvL5zxVE=", "properties": {"@source_uri": "https://tools.usps.com/UspsToolsRestServices/rest/POLocator/findLocations", "@spider": "usps_collection_boxes", "addr:city": "JERSEY CITY", "addr:country": "US", "addr:postcode": "07302", "addr:state": "NJ", "addr:street_address": "30 MONTGOMERY ST", "amenity": "post_box", "brand": "United States Postal Service", "brand:wikidata": "Q668687", "collection_times": "Mo-Sa 13:00", "note": "ON 12/24 AND 12/31, THIS BOX MAY BE COLLECTED AS EARLY AS 12 NOON.", "nsi_id": "unitedstatespostalservice-a77078", "operator": "United States Postal Service", "operator:short": "USPS", "operator:type": "public", "operator:wikidata": "Q668687", "ref": "0730200008"}, "type": "Feature"}
{"geometry": {"coordinates": [-74.0621579, 40.723073], "type": "Point"}, "id": "R1zU3DnjieZrG1yDuHysI5UI3Jc=", "properties": {"@source_uri": "https://tools.usps.com/UspsToolsRestServices/rest/POLocator/findLocations", "@spider": "usps_collection_boxes", "addr:city": "JERSEY CITY", "addr:country": "US", "addr:postcode": "07302", "addr:state": "NJ", "addr:street_address": "591 MONTGOMERY ST", "amenity": "post_box", "brand": "United States Postal Service", "brand:wikidata": "Q668687", "collection_times": "Mo-Sa 11:00", "nsi_id": "unitedstatespostalservice-a77078", "operator": "United States Postal Service", "operator:short": "USPS", "operator:type": "public", "operator:wikidata": "Q668687", "ref": "0730200011"}, "type": "Feature"}
{"geometry": {"coordinates": [-74.0437939, 40.717769], "type": "Point"}, "id": "gmYvUGkjKJb2sUYKvbIJtTalzHc=", "properties": {"@source_uri": "https://tools.usps.com/UspsToolsRestServices/rest/POLocator/findLocations", "@spider": "usps_collection_boxes", "addr:city": "JERSEY CITY", "addr:country": "US", "addr:postcode": "07302", "addr:state": "NJ", "addr:street_address": "280 GROVE ST", "amenity": "post_box", "brand": "United States Postal Service", "brand:wikidata": "Q668687", "collection_times": "Mo-Sa 13:00", "note": "ON 12/24 AND 12/31, THIS BOX MAY BE COLLECTED AS EARLY AS 12 NOON.", "nsi_id": "unitedstatespostalservice-a77078", "operator": "United States Postal Service", "operator:short": "USPS", "operator:type": "public", "operator:wikidata": "Q668687", "ref": "0730200017"}, "type": "Feature"}
{"geometry": {"coordinates": [-74.045566416, 40.724286559], "type": "Point"}, "id": "NYUcEbogzKsDwiCH0nxgUknUlgU=", "properties": {"@source_uri": "https://tools.usps.com/UspsToolsRestServices/rest/POLocator/findLocations", "@spider": "usps_collection_boxes", "addr:city": "JERSEY CITY", "addr:country": "US", "addr:postcode": "07302", "addr:state": "NJ", "addr:street_address": "598 JERSEY AVE", "amenity": "post_box", "brand": "United States Postal Service", "brand:wikidata": "Q668687", "collection_times": "Mo-Sa 11:00", "nsi_id": "unitedstatespostalservice-a77078", "operator": "United States Postal Service", "operator:short": "USPS", "operator:type": "public", "operator:wikidata": "Q668687", "ref": "0730200019"}, "type": "Feature"}
{"geometry": {"coordinates": [-74.047401, 40.719245], "type": "Point"}, "id": "ThpBHzzlVhLUjGue54qOI1hKVf8=", "properties": {"@source_uri": "https://tools.usps.com/UspsToolsRestServices/rest/POLocator/findLocations", "@spider": "usps_collection_boxes", "addr:city": "JERSEY CITY", "addr:country": "US", "addr:postcode": "07302", "addr:state": "NJ", "addr:street_address": "111 MERCER ST", "amenity": "post_box", "brand": "United States Postal Service", "brand:wikidata": "Q668687", "collection_times": "Mo-Sa 11:00", "nsi_id": "unitedstatespostalservice-a77078", "operator": "United States Postal Service", "operator:short": "USPS", "operator:type": "public", "operator:wikidata": "Q668687", "ref": "0730200020"}, "type": "Feature"}
{"geometry": {"coordinates": [-74.0486463, 40.726407], "type": "Point"}, "id": "F-etpc8-cJIPXgf7k5Ytip8wmnU=", "properties": {"@source_uri": "https://tools.usps.com/UspsToolsRestServices/rest/POLocator/findLocations", "@spider": "usps_collection_boxes", "addr:city": "JERSEY CITY", "addr:country": "US", "addr:postcode": "07302", "addr:state": "NJ", "addr:street_address": "323 7TH ST", "amenity": "post_box", "brand": "United States Postal Service", "brand:wikidata": "Q668687", "collection_times": "Mo-Sa 11:00", "nsi_id": "unitedstatespostalservice-a77078", "operator": "United States Postal Service", "operator:short": "USPS", "operator:type": "public", "operator:wikidata": "Q668687", "ref": "0730200021"}, "type": "Feature"}
{"geometry": {"coordinates": [-74.0373177, 40.716574], "type": "Point"}, "id": "Si8ZX6Ti5plCnvlh93NM-Nn2dnw=", "properties": {"@source_uri": "https://tools.usps.com/UspsToolsRestServices/rest/POLocator/findLocations", "@spider": "usps_collection_boxes", "addr:city": "JERSEY CITY", "addr:country": "US", "addr:postcode": "07302", "addr:state": "NJ", "addr:street_address": "69 MONTGOMERY ST", "amenity": "post_box", "brand": "United States Postal Service", "brand:wikidata": "Q668687", "collection_times": "Mo-Fr 17:00; Sa 15:00", "note": "ON 12/24 AND 12/31, THIS BOX MAY BE COLLECTED AS EARLY AS 12 NOON.", "nsi_id": "unitedstatespostalservice-a77078", "operator": "United States Postal Service", "operator:short": "USPS", "operator:type": "public", "operator:wikidata": "Q668687", "ref": "0730200022"}, "type": "Feature"}
{"geometry": {"coordinates": [-74.0373414, 40.716585], "type": "Point"}, "id": "prysyKN32kUiq4nCyMVyCTsVy1g=", "properties": {"@source_uri": "https://tools.usps.com/UspsToolsRestServices/rest/POLocator/findLocations", "@spider": "usps_collection_boxes", "addr:city": "JERSEY CITY", "addr:country": "US", "addr:postcode": "07302", "addr:state": "NJ", "addr:street_address": "69 MONTGOMERY ST", "amenity": "post_box", "brand": "United States Postal Service", "brand:wikidata": "Q668687", "collection_times": "Mo-Fr 17:00; Sa 15:00", "name": "USPS COLLECTION BOX - EXPRESS", "note": "ON 12/24 AND 12/31, THIS BOX MAY BE COLLECTED AS EARLY AS 12 NOON.", "nsi_id": "unitedstatespostalservice-a77078", "operator": "United States Postal Service", "operator:short": "USPS", "operator:type": "public", "operator:wikidata": "Q668687", "ref": "0730200023"}, "type": "Feature"}
{"geometry": {"coordinates": [-74.044502, 40.720789], "type": "Point"}, "id": "lfC88o3N42gELXIqxuzmmim1K3Y=", "properties": {"@source_uri": "https://tools.usps.com/UspsToolsRestServices/rest/POLocator/findLocations", "@spider": "usps_collection_boxes", "addr:city": "JERSEY CITY", "addr:country": "US", "addr:postcode": "07302", "addr:state": "NJ", "addr:street_address": "156 NEWARK AVE", "amenity": "post_box", "brand": "United States Postal Service", "brand:wikidata": "Q668687", "collection_times": "Mo-Sa 11:00", "nsi_id": "unitedstatespostalservice-a77078", "operator": "United States Postal Service", "operator:short": "USPS", "operator:type": "public", "operator:wikidata": "Q668687", "ref": "0730200027"}, "type": "Feature"}
{"geometry": {"coordinates": [-74.0462423, 40.721466], "type": "Point"}, "id": "hr7pt8Ofu1ExXnYlisfuAY0f1IY=", "properties": {"@source_uri": "https://tools.usps.com/UspsToolsRestServices/rest/POLocator/findLocations", "@spider": "usps_collection_boxes", "addr:city": "JERSEY CITY", "addr:country": "US", "addr:postcode": "07302", "addr:state": "NJ", "addr:street_address": "194 NEWARK AVE", "amenity": "post_box", "brand": "United States Postal Service", "brand:wikidata": "Q668687", "collection_times": "Mo-Sa 13:00", "note": "ON 12/24 AND 12/31, THIS BOX MAY BE COLLECTED AS EARLY AS 12 NOON.", "nsi_id": "unitedstatespostalservice-a77078", "operator": "United States Postal Service", "operator:short": "USPS", "operator:type": "public", "operator:wikidata": "Q668687", "ref": "0730200028"}, "type": "Feature"}
{"geometry": {"coordinates": [-74.0491682, 40.723297], "type": "Point"}, "id": "oC0IUfI6PcQ-eewfvasVAElEawM=", "properties": {"@source_uri": "https://tools.usps.com/UspsToolsRestServices/rest/POLocator/findLocations", "@spider": "usps_collection_boxes", "addr:city": "JERSEY CITY", "addr:country": "US", "addr:postcode": "07302", "addr:state": "NJ", "addr:street_address": "270 NEWARK AVE", "amenity": "post_box", "brand": "United States Postal Service", "brand:wikidata": "Q668687", "collection_times": "Mo-Sa 11:00", "nsi_id": "unitedstatespostalservice-a77078", "operator": "United States Postal Service", "operator:short": "USPS", "operator:type": "public", "operator:wikidata": "Q668687", "ref": "0730200029"}, "type": "Feature"}
{"geometry": {"coordinates": [-74.046899, 40.727895], "type": "Point"}, "id": "GuNd8q5cunvoZYfMLCa0rqpjo_w=", "properties": {"@source_uri": "https://tools.usps.com/UspsToolsRestServices/rest/POLocator/findLocations", "@spider": "usps_collection_boxes", "addr:city": "JERSEY CITY", "addr:country": "US", "addr:postcode": "07302", "addr:state": "NJ", "addr:street_address": "155 COLES ST", "amenity": "post_box", "brand": "United States Postal Service", "brand:wikidata": "Q668687", "collection_times": "Mo-Sa 11:00", "nsi_id": "unitedstatespostalservice-a77078", "operator": "United States Postal Service", "operator:short": "USPS", "operator:type": "public", "operator:wikidata": "Q668687", "ref": "0730200030"}, "type": "Feature"}
{"geometry": {"coordinates": [-74.043526117, 40.718610352], "type": "Point"}, "id": "WHHb0F5manKPFRA20xHkubgPopQ=", "properties": {"@source_uri": "https://tools.usps.com/UspsToolsRestServices/rest/POLocator/findLocations", "@spider": "usps_collection_boxes", "addr:city": "JERSEY CITY", "addr:country": "US", "addr:postcode": "07302", "addr:state": "NJ", "addr:street_address": "500 GROVE ST", "amenity": "post_box", "brand": "United States Postal Service", "brand:wikidata": "Q668687", "collection_times": "Mo-Sa 11:00", "nsi_id": "unitedstatespostalservice-a77078", "operator": "United States Postal Service", "operator:short": "USPS", "operator:type": "public", "operator:wikidata": "Q668687", "ref": "0730200031"}, "type": "Feature"}
{"geometry": {"coordinates": [-74.0377799, 40.71467], "type": "Point"}, "id": "8O7jbuL-xEFs3yG2dS03RtByfj4=", "properties": {"@source_uri": "https://tools.usps.com/UspsToolsRestServices/rest/POLocator/findLocations", "@spider": "usps_collection_boxes", "addr:city": "JERSEY CITY", "addr:country": "US", "addr:postcode": "07302", "addr:state": "NJ", "addr:street_address": "82 SUSSEX ST", "amenity": "post_box", "brand": "United States Postal Service", "brand:wikidata": "Q668687", "collection_times": "Mo-Sa 11:00", "nsi_id": "unitedstatespostalservice-a77078", "operator": "United States Postal Service", "operator:short": "USPS", "operator:type": "public", "operator:wikidata": "Q668687", "ref": "0730200033"}, "type": "Feature"}
{"geometry": {"coordinates": [-74.0374513, 40.716059], "type": "Point"}, "id": "K0Z2PUN-nd-5qg3csiYQp1giPTA=", "properties": {"@source_uri": "https://tools.usps.com/UspsToolsRestServices/rest/POLocator/findLocations", "@spider": "usps_collection_boxes", "addr:city": "JERSEY CITY", "addr:country": "US", "addr:postcode": "07302", "addr:state": "NJ", "addr:street_address": "242 WASHINGTON ST", "amenity": "post_box", "brand": "United States Postal Service", "brand:wikidata": "Q668687", "collection_times": "Mo-Fr 17:00; Sa 15:00", "note": "ON 12/24 AND 12/31, THIS BOX MAY BE COLLECTED AS EARLY AS 12 NOON.", "nsi_id": "unitedstatespostalservice-a77078", "operator": "United States Postal Service", "operator:short": "USPS", "operator:type": "public", "operator:wikidata": "Q668687", "ref": "0730200034"}, "type": "Feature"}
{"geometry": {"coordinates": [-74.0374668, 40.716059], "type": "Point"}, "id": "FeH_4xbsUBn70KS1mi5YbR8KFo0=", "properties": {"@source_uri": "https://tools.usps.com/UspsToolsRestServices/rest/POLocator/findLocations", "@spider": "usps_collection_boxes", "addr:city": "JERSEY CITY", "addr:country": "US", "addr:postcode": "07302", "addr:state": "NJ", "addr:street_address": "242 WASHINGTON ST", "amenity": "post_box", "brand": "United States Postal Service", "brand:wikidata": "Q668687", "collection_times": "Mo-Fr 17:00; Sa 15:00", "note": "ON 12/24 AND 12/31, THIS BOX MAY BE COLLECTED AS EARLY AS 12 NOON.", "nsi_id": "unitedstatespostalservice-a77078", "operator": "United States Postal Service", "operator:short": "USPS", "operator:type": "public", "operator:wikidata": "Q668687", "ref": "0730200035"}, "type": "Feature"}
{"geometry": {"coordinates": [-74.042358, 40.719461], "type": "Point"}, "id": "2If9hHQPw4R8xWxfa1MHsLsRAw0=", "properties": {"@source_uri": "https://tools.usps.com/UspsToolsRestServices/rest/POLocator/findLocations", "@spider": "usps_collection_boxes", "addr:city": "JERSEY CITY", "addr:country": "US", "addr:postcode": "07302", "addr:state": "NJ", "addr:street_address": "95 CHRISTOPHER COLUMBUS DR", "amenity": "post_box", "brand": "United States Postal Service", "brand:wikidata": "Q668687", "collection_times": "Mo-Sa 13:00", "note": "ON 12/24 AND 12/31, THIS BOX MAY BE COLLECTED AS EARLY AS 12 NOON.", "nsi_id": "unitedstatespostalservice-a77078", "operator": "United States Postal Service", "operator:short": "USPS", "operator:type": "public", "operator:wikidata": "Q668687", "ref": "0730200037"}, "type": "Feature"}
{"geometry": {"coordinates": [-74.0566073, 40.721517], "type": "Point"}, "id": "FJeQjT0d6Bsfj15_MzTsnV1OP-4=", "properties": {"@source_uri": "https://tools.usps.com/UspsToolsRestServices/rest/POLocator/findLocations", "@spider": "usps_collection_boxes", "addr:city": "JERSEY CITY", "addr:country": "US", "addr:postcode": "07302", "addr:state": "NJ", "addr:street_address": "1 CHOPIN CT", "amenity": "post_box", "brand": "United States Postal Service", "brand:wikidata": "Q668687", "collection_times": "Mo-Sa 11:00", "nsi_id": "unitedstatespostalservice-a77078", "operator": "United States Postal Service", "operator:short": "USPS", "operator:type": "public", "operator:wikidata": "Q668687", "ref": "0730200038"}, "type": "Feature"}
{"geometry": {"coordinates": [-74.036813029, 40.716638594], "type": "Point"}, "id": "D4gvSD2pEvZHR-1yxA_xJbTFtEU=", "properties": {"@source_uri": "https://tools.usps.com/UspsToolsRestServices/rest/POLocator/findLocations", "@spider": "usps_collection_boxes", "addr:city": "JERSEY CITY", "addr:country": "US", "addr:postcode": "07302", "addr:state": "NJ", "addr:street_address": "69 MONTGOMERY ST", "amenity": "post_box", "brand": "United States Postal Service", "brand:wikidata": "Q668687", "collection_times": "Mo-Fr 17:00; Sa 15:00", "indoor": "yes", "note": "ON 12/24 AND 12/31, THIS BOX MAY BE COLLECTED AS EARLY AS 12 NOON.", "nsi_id": "unitedstatespostalservice-a77078", "operator": "United States Postal Service", "operator:short": "USPS", "operator:type": "public", "operator:wikidata": "Q668687", "ref": "0730200041"}, "type": "Feature"}
{"geometry": {"coordinates": [-74.036813029, 40.716638594], "type": "Point"}, "id": "pm9wsTyJ7ncigEvY7s3REx47USI=", "properties": {"@source_uri": "https://tools.usps.com/UspsToolsRestServices/rest/POLocator/findLocations", "@spider": "usps_collection_boxes", "addr:city": "JERSEY CITY", "addr:country": "US", "addr:postcode": "07302", "addr:state": "NJ", "addr:street_address": "69 MONTGOMERY ST", "amenity": "post_box", "brand": "United States Postal Service", "brand:wikidata": "Q668687", "collection_times": "Mo-Fr 17:00; Sa 16:00", "indoor": "yes", "note": "ON 12/24 AND 12/31, THIS BOX MAY BE COLLECTED AS EARLY AS 12 NOON.", "nsi_id": "unitedstatespostalservice-a77078", "operator": "United States Postal Service", "operator:short": "USPS", "operator:type": "public", "operator:wikidata": "Q668687", "ref": "0730200044"}, "type": "Feature"}
{"geometry": {"coordinates": [-74.0619127, 40.711898], "type": "Point"}, "id": "6DpJnCmPJJboEDE9Jf6BVl7TdBo=", "properties": {"@source_uri": "https://tools.usps.com/UspsToolsRestServices/rest/POLocator/findLocations", "@spider": "usps_collection_boxes", "addr:city": "JERSEY CITY", "addr:country": "US", "addr:postcode": "07304", "addr:state": "NJ", "addr:street_address": "322 PACIFIC AVE # 324", "amenity": "post_box", "brand": "United States Postal Service", "brand:wikidata": "Q668687", "collection_times": "Mo-Sa 11:00", "nsi_id": "unitedstatespostalservice-a77078", "operator": "United States Postal Service", "operator:short": "USPS", "operator:type": "public", "operator:wikidata": "Q668687", "ref": "0730400004"}, "type": "Feature"}
{"geometry": {"coordinates": [-74.0839308, 40.718066], "type": "Point"}, "id": "2l26vPp7mOpjGIcOC1X4ybp8bgI=", "properties": {"@source_uri": "https://tools.usps.com/UspsToolsRestServices/rest/POLocator/findLocations", "@spider": "usps_collection_boxes", "addr:city": "JERSEY CITY", "addr:country": "US", "addr:postcode": "07304", "addr:state": "NJ", "addr:street_address": "504 W SIDE AVE", "amenity": "post_box", "brand": "United States Postal Service", "brand:wikidata": "Q668687", "collection_times": "Mo-Fr 17:00; Sa 15:00", "note": "ON 12/24 AND 12/31, THIS BOX MAY BE COLLECTED AS EARLY AS 12 NOON.", "nsi_id": "unitedstatespostalservice-a77078", "operator": "United States Postal Service", "operator:short": "USPS", "operator:type": "public", "operator:wikidata": "Q668687", "ref": "0730400007"}, "type": "Feature"}
{"geometry": {"coordinates": [-74.0711011, 40.722876], "type": "Point"}, "id": "lgj2JWsQzDIMvpZ0ETAvKaP4O_k=", "properties": {"@source_uri": "https://tools.usps.com/UspsToolsRestServices/rest/POLocator/findLocations", "@spider": "usps_collection_boxes", "addr:city": "JERSEY CITY", "addr:country": "US", "addr:postcode": "07304", "addr:state": "NJ", "addr:street_address": "657 BERGEN AVE", "amenity": "post_box", "brand": "United States Postal Service", "brand:wikidata": "Q668687", "collection_times": "Mo-Sa 11:00", "nsi_id": "unitedstatespostalservice-a77078", "operator": "United States Postal Service", "operator:short": "USPS", "operator:type": "public", "operator:wikidata": "Q668687", "ref": "0730400010"}, "type": "Feature"}
{"geometry": {"coordinates": [-74.0746778, 40.718905], "type": "Point"}, "id": "AZP0kdknv7n-xtlU_7qN4jHuOJg=", "properties": {"@source_uri": "https://tools.usps.com/UspsToolsRestServices/rest/POLocator/findLocations", "@spider": "usps_collection_boxes", "addr:city": "JERSEY CITY", "addr:country": "US", "addr:postcode": "07304", "addr:state": "NJ", "addr:street_address": "528 BERGEN AVE", "amenity": "post_box", "brand": "United States Postal Service", "brand:wikidata": "Q668687", "collection_times": "Mo-Fr 17:00; Sa 15:00", "note": "ON 12/24 AND 12/31, THIS BOX MAY BE COLLECTED AS EARLY AS 12 NOON.", "nsi_id": "unitedstatespostalservice-a77078", "operator": "United States Postal Service", "operator:short": "USPS", "operator:type": "public", "operator:wikidata": "Q668687", "ref": "0730400011"}, "type": "Feature"}
{"geometry": {"coordinates": [-74.0949314, 40.721045], "type": "Point"}, "id": "ya-069HoimtJXk2m5az3NixMGZA=", "properties": {"@source_uri": "https://tools.usps.com/UspsToolsRestServices/rest/POLocator/findLocations", "@spider": "usps_collection_boxes", "addr:city": "JERSEY CITY", "addr:country": "US", "addr:postcode": "07304", "addr:state": "NJ", "addr:street_address": "701 ROUTE 440", "amenity": "post_box", "brand": "United States Postal Service", "brand:wikidata": "Q668687", "collection_times": "Mo-Sa 11:00", "nsi_id": "unitedstatespostalservice-a77078", "operator": "United States Postal Service", "operator:short": "USPS", "operator:type": "public", "operator:wikidata": "Q668687", "ref": "0730400016"}, "type": "Feature"}
{"geometry": {"coordinates": [-74.0672935057, 40.7196116408], "type": "Point"}, "id": "lwDWKmq0W1v37w2YmcW-d3tJ1ec=", "properties": {"@source_uri": "https://tools.usps.com/UspsToolsRestServices/rest/POLocator/findLocations", "@spider": "usps_collection_boxes", "addr:city": "JERSEY CITY", "addr:country": "US", "addr:postcode": "07304", "addr:state": "NJ", "addr:street_address": "125 SUMMIT AVENUE", "amenity": "post_box", "brand": "United States Postal Service", "brand:wikidata": "Q668687", "collection_times": "Mo-Sa 11:00", "nsi_id": "unitedstatespostalservice-a77078", "operator": "United States Postal Service", "operator:short": "USPS", "operator:type": "public", "operator:wikidata": "Q668687", "ref": "0730400044"}, "type": "Feature"}
{"geometry": {"coordinates": [-74.0806399, 40.721636], "type": "Point"}, "id": "tDKyrIR-VWMYATVF7bud9FVw_mE=", "properties": {"@source_uri": "https://tools.usps.com/UspsToolsRestServices/rest/POLocator/findLocations", "@spider": "usps_collection_boxes", "addr:city": "JERSEY CITY", "addr:country": "US", "addr:postcode": "07304", "addr:state": "NJ", "addr:street_address": "293 HARRISON AVE", "amenity": "post_box", "brand": "United States Postal Service", "brand:wikidata": "Q668687", "collection_times": "Mo-Sa 11:00", "nsi_id": "unitedstatespostalservice-a77078", "operator": "United States Postal Service", "operator:short": "USPS", "operator:type": "public", "operator:wikidata": "Q668687", "ref": "0730400045"}, "type": "Feature"}
{"geometry": {"coordinates": [-74.0878905, 40.719956], "type": "Point"}, "id": "27SrTTe33G9E7gjGiOkPMyc6dew=", "properties": {"@source_uri": "https://tools.usps.com/UspsToolsRestServices/rest/POLocator/findLocations", "@spider": "usps_collection_boxes", "addr:city": "JERSEY CITY", "addr:country": "US", "addr:postcode": "07304", "addr:state": "NJ", "addr:street_address": "163 MALLORY AVE", "amenity": "post_box", "brand": "United States Postal Service", "brand:wikidata": "Q668687", "collection_times": "Mo-Sa 11:00", "nsi_id": "unitedstatespostalservice-a77078", "operator": "United States Postal Service", "operator:short": "USPS", "operator:type": "public", "operator:wikidata": "Q668687", "ref": "0730400046"}, "type": "Feature"}
{"geometry": {"coordinates": [-74.0745219, 40.723603], "type": "Point"}, "id": "eEJ_9Oq0oZV2O78y46awH-OWt7U=", "properties": {"@source_uri": "https://tools.usps.com/UspsToolsRestServices/rest/POLocator/findLocations", "@spider": "usps_collection_boxes", "addr:city": "JERSEY CITY", "addr:country": "US", "addr:postcode": "07304", "addr:state": "NJ", "addr:street_address": "2530 JOHN F KENNEDY BLVD", "amenity": "post_box", "brand": "United States Postal Service", "brand:wikidata": "Q668687", "collection_times": "Mo-Sa 11:00", "nsi_id": "unitedstatespostalservice-a77078", "operator": "United States Postal Service", "operator:short": "USPS", "operator:type": "public", "operator:wikidata": "Q668687", "ref": "0730400053"}, "type": "Feature"}
{"geometry": {"coordinates": [-74.074875, 40.718792], "type": "Point"}, "id": "Boi9sivWhO07TarPvgbdxTOQ9-w=", "properties": {"@source_uri": "https://tools.usps.com/UspsToolsRestServices/rest/POLocator/findLocations", "@spider": "usps_collection_boxes", "addr:city": "JERSEY CITY", "addr:country": "US", "addr:postcode": "07304", "addr:state": "NJ", "addr:street_address": "528 BERGEN AVE", "amenity": "post_box", "brand": "United States Postal Service", "brand:wikidata": "Q668687", "collection_times": "Mo-Fr 17:00; Sa 15:00", "indoor": "yes", "note": "ON 12/24 AND 12/31, THIS BOX MAY BE COLLECTED AS EARLY AS 12 NOON.", "nsi_id": "unitedstatespostalservice-a77078", "operator": "United States Postal Service", "operator:short": "USPS", "operator:type": "public", "operator:wikidata": "Q668687", "ref": "0730400054"}, "type": "Feature"}
{"geometry": {"coordinates": [-74.0837949, 40.718022], "type": "Point"}, "id": "7TR5uzpmXtlzXpKSXz7gjF1PxVQ=", "properties": {"@source_uri": "https://tools.usps.com/UspsToolsRestServices/rest/POLocator/findLocations", "@spider": "usps_collection_boxes", "addr:city": "JERSEY CITY", "addr:country": "US", "addr:postcode": "07304", "addr:state": "NJ", "addr:street_address": "504 W SIDE AVE", "amenity": "post_box", "brand": "United States Postal Service", "brand:wikidata": "Q668687", "collection_times": "Mo-Fr 17:00; Sa 15:00", "indoor": "yes", "note": "ON 12/24 AND 12/31, THIS BOX MAY BE COLLECTED AS EARLY AS 12 NOON.", "nsi_id": "unitedstatespostalservice-a77078", "operator": "United States Postal Service", "operator:short": "USPS", "operator:type": "public", "operator:wikidata": "Q668687", "ref": "0730400055"}, "type": "Feature"}
{"geometry": {"coordinates": [-74.083825921, 40.718120763], "type": "Point"}, "id": "YoEKx3P1IjFFXWRJ_-aoYDM05gY=", "properties": {"@source_uri": "https://tools.usps.com/UspsToolsRestServices/rest/POLocator/findLocations", "@spider": "usps_collection_boxes", "addr:city": "JERSEY CITY", "addr:country": "US", "addr:postcode": "07304", "addr:state": "NJ", "addr:street_address": "504 W SIDE AVE", "amenity": "post_box", "brand": "United States Postal Service", "brand:wikidata": "Q668687", "collection_times": "Mo-Fr 17:00; Sa 16:00", "indoor": "yes", "note": "ON 12/24 AND 12/31, THIS BOX MAY BE COLLECTED AS EARLY AS 12 NOON.", "nsi_id": "unitedstatespostalservice-a77078", "operator": "United States Postal Service", "operator:short": "USPS", "operator:type": "public", "operator:wikidata": "Q668687", "ref": "0730400058"}, "type": "Feature"}
{"geometry": {"coordinates": [-74.074902828, 40.718761943], "type": "Point"}, "id": "aJMzt0wA1As2y58tFomMxTV2fXA=", "properties": {"@source_uri": "https://tools.usps.com/UspsToolsRestServices/rest/POLocator/findLocations", "@spider": "usps_collection_boxes", "addr:city": "JERSEY CITY", "addr:country": "US", "addr:postcode": "07304", "addr:state": "NJ", "addr:street_address": "528 BERGEN AVE", "amenity": "post_box", "brand": "United States Postal Service", "brand:wikidata": "Q668687", "collection_times": "Mo-Fr 17:00; Sa 16:00", "indoor": "yes", "note": "ON 12/24 AND 12/31, THIS BOX MAY BE COLLECTED AS EARLY AS 12 NOON.", "nsi_id": "unitedstatespostalservice-a77078", "operator": "United States Postal Service", "operator:short": "USPS", "operator:type": "public", "operator:wikidata": "Q668687", "ref": "0730400059"}, "type": "Feature"}
{"geometry": {"coordinates": [-74.086058218, 40.709090759], "type": "Point"}, "id": "QRGYQ0o_-9aYcs6qMcj7KEJAcM4=", "properties": {"@source_uri": "https://tools.usps.com/UspsToolsRestServices/rest/POLocator/findLocations", "@spider": "usps_collection_boxes", "addr:city": "JERSEY CITY", "addr:country": "US", "addr:postcode": "07305", "addr:state": "NJ", "addr:street_address": "2039 JOHN F KENNEDY BLVD", "amenity": "post_box", "brand": "United States Postal Service", "brand:wikidata": "Q668687", "collection_times": "Mo-Sa 13:00", "note": "ON 12/24 AND 12/31, THIS BOX MAY BE COLLECTED AS EARLY AS 12 NOON.", "nsi_id": "unitedstatespostalservice-a77078", "operator": "United States Postal Service", "operator:short": "USPS", "operator:type": "public", "operator:wikidata": "Q668687", "ref": "0730500003"}, "type": "Feature"}
{"geometry": {"coordinates": [-74.0715323, 40.685868], "type": "Point"}, "id": "-94o1mPFhHwT5g-S06YHrnZeSSU=", "properties": {"@source_uri": "https://tools.usps.com/UspsToolsRestServices/rest/POLocator/findLocations", "@spider": "usps_collection_boxes", "addr:city": "JERSEY CITY", "addr:country": "US", "addr:postcode": "07305", "addr:state": "NJ", "addr:street_address": "16 CHAPEL AVE", "amenity": "post_box", "brand": "United States Postal Service", "brand:wikidata": "Q668687", "collection_times": "Mo-Sa 11:00", "nsi_id": "unitedstatespostalservice-a77078", "operator": "United States Postal Service", "operator:short": "USPS", "operator:type": "public", "operator:wikidata": "Q668687", "ref": "0730500008"}, "type": "Feature"}
{"geometry": {"coordinates": [-74.0787973, 40.700938], "type": "Point"}, "id": "dlgNxZbHJNal2GdWLF7uS-kEnGA=", "properties": {"@source_uri": "https://tools.usps.com/UspsToolsRestServices/rest/POLocator/findLocations", "@spider": "usps_collection_boxes", "addr:city": "JERSEY CITY", "addr:country": "US", "addr:postcode": "07305", "addr:state": "NJ", "addr:street_address": "593 GARFIELD AVE", "amenity": "post_box", "brand": "United States Postal Service", "brand:wikidata": "Q668687", "collection_times": "Mo-Sa 11:00", "nsi_id": "unitedstatespostalservice-a77078", "operator": "United States Postal Service", "operator:short": "USPS", "operator:type": "public", "operator:wikidata": "Q668687", "ref": "0730500011"}, "type": "Feature"}
{"geometry": {"coordinates": [-74.09360212, 40.693287353], "type": "Point"}, "id": "80TGVb78kUcootjQLtLwMAcBI_I=", "properties": {"@source_uri": "https://tools.usps.com/UspsToolsRestServices/rest/POLocator/findLocations", "@spider": "usps_collection_boxes", "addr:city": "JERSEY CITY", "addr:country": "US", "addr:postcode": "07305", "addr:state": "NJ", "addr:street_address": "137 OCEAN AVE", "amenity": "post_box", "brand": "United States Postal Service", "brand:wikidata": "Q668687", "collection_times": "Mo-Fr 17:00; Sa 15:00", "note": "ON 12/24 AND 12/31, THIS BOX MAY BE COLLECTED AS EARLY AS 12 NOON.", "nsi_id": "unitedstatespostalservice-a77078", "operator": "United States Postal Service", "operator:short": "USPS", "operator:type": "public", "operator:wikidata": "Q668687", "ref": "0730500025"}, "type": "Feature"}
{"geometry": {"coordinates": [-74.0906149, 40.695493], "type": "Point"}, "id": "WB6Ga3ybGAOFUYTNPlR9joqaIg0=", "properties": {"@source_uri": "https://tools.usps.com/UspsToolsRestServices/rest/POLocator/findLocations", "@spider": "usps_collection_boxes", "addr:city": "JERSEY CITY", "addr:country": "US", "addr:postcode": "07305", "addr:state": "NJ", "addr:street_address": "108 DANFORTH AVE", "amenity": "post_box", "brand": "United States Postal Service", "brand:wikidata": "Q668687", "collection_times": "Mo-Sa 11:00", "nsi_id": "unitedstatespostalservice-a77078", "operator": "United States Postal Service", "operator:short": "USPS", "operator:type": "public", "operator:wikidata": "Q668687", "ref": "0730500028"}, "type": "Feature"}
{"geometry": {"coordinates": [-74.0987346, 40.704586], "type": "Point"}, "id": "UChiYdvwqTrZWTlVFslf2R0ZEy4=", "properties": {"@source_uri": "https://tools.usps.com/UspsToolsRestServices/rest/POLocator/findLocations", "@spider": "usps_collection_boxes", "addr:city": "JERSEY CITY", "addr:country": "US", "addr:postcode": "07305", "addr:state": "NJ", "addr:street_address": "395 DANFORTH AVE", "amenity": "post_box", "brand": "United States Postal Service", "brand:wikidata": "Q668687", "collection_times": "Mo-Sa 11:00", "nsi_id": "unitedstatespostalservice-a77078", "operator": "United States Postal Service", "operator:short": "USPS", "operator:type": "public", "operator:wikidata": "Q668687", "ref": "0730500052"}, "type": "Feature"}
{"geometry": {"coordinates": [-74.0912178, 40.703014], "type": "Point"}, "id": "ASlJR1BlRuz642iG5oSgGtWl8XE=", "properties": {"@source_uri": "https://tools.usps.com/UspsToolsRestServices/rest/POLocator/findLocations", "@spider": "usps_collection_boxes", "addr:city": "JERSEY CITY", "addr:country": "US", "addr:postcode": "07305", "addr:state": "NJ", "addr:street_address": "1841 JOHN F KENNEDY BLVD", "amenity": "post_box", "brand": "United States Postal Service", "brand:wikidata": "Q668687", "collection_times": "Mo-Sa 13:00", "note": "ON 12/24 AND 12/31, THIS BOX MAY BE COLLECTED AS EARLY AS 12 NOON.", "nsi_id": "unitedstatespostalservice-a77078", "operator": "United States Postal Service", "operator:short": "USPS", "operator:type": "public", "operator:wikidata": "Q668687", "ref": "0730500055"}, "type": "Feature"}
{"geometry": {"coordinates": [-74.0922695, 40.711801], "type": "Point"}, "id": "dWzPp6XfAx5N50P1VaH7b6fSQPs=", "properties": {"@source_uri": "https://tools.usps.com/UspsToolsRestServices/rest/POLocator/findLocations", "@spider": "usps_collection_boxes", "addr:city": "JERSEY CITY", "addr:country": "US", "addr:postcode": "07305", "addr:state": "NJ", "addr:street_address": "275 W SIDE AVE", "amenity": "post_box", "brand": "United States Postal Service", "brand:wikidata": "Q668687", "collection_times": "Mo-Sa 11:00", "nsi_id": "unitedstatespostalservice-a77078", "operator": "United States Postal Service", "operator:short": "USPS", "operator:type": "public", "operator:wikidata": "Q668687", "ref": "0730500056"}, "type": "Feature"}
{"geometry": {"coordinates": [-74.1011734, 40.699328], "type": "Point"}, "id": "-AE9hwJriZw_VSMnhoa0BivHNjM=", "properties": {"@source_uri": "https://tools.usps.com/UspsToolsRestServices/rest/POLocator/findLocations", "@spider": "usps_collection_boxes", "addr:city": "JERSEY CITY", "addr:country": "US", "addr:postcode": "07305", "addr:state": "NJ", "addr:street_address": "116 SYCAMORE RD", "amenity": "post_box", "brand": "United States Postal Service", "brand:wikidata": "Q668687", "collection_times": "Mo-Sa 11:00", "nsi_id": "unitedstatespostalservice-a77078", "operator": "United States Postal Service", "operator:short": "USPS", "operator:type": "public", "operator:wikidata": "Q668687", "ref": "0730500059"}, "type": "Feature"}
{"geometry": {"coordinates": [-74.078793647, 40.711174411], "type": "Point"}, "id": "EMX1bESjHUeXOVH43rP793qviII=", "properties": {"@source_uri": "https://tools.usps.com/UspsToolsRestServices/rest/POLocator/findLocations", "@spider": "usps_collection_boxes", "addr:city": "JERSEY CITY", "addr:country": "US", "addr:postcode": "07305", "addr:state": "NJ", "addr:street_address": "369 MARTIN LUTHER KING JR DR", "amenity": "post_box", "brand": "United States Postal Service", "brand:wikidata": "Q668687", "collection_times": "Mo-Fr 17:00; Sa 15:00", "indoor": "yes", "note": "ON 12/24 AND 12/31, THIS BOX MAY BE COLLECTED AS EARLY AS 12 NOON.", "nsi_id": "unitedstatespostalservice-a77078", "operator": "United States Postal Service", "operator:short": "USPS", "operator:type": "public", "operator:wikidata": "Q668687", "ref": "0730500060"}, "type": "Feature"}
{"geometry": {"coordinates": [-74.09360212, 40.693287353], "type": "Point"}, "id": "xFTN8qPJ-iRPfPKqxsASRQWDwxw=", "properties": {"@source_uri": "https://tools.usps.com/UspsToolsRestServices/rest/POLocator/findLocations", "@spider": "usps_collection_boxes", "addr:city": "JERSEY CITY", "addr:country": "US", "addr:postcode": "07305", "addr:state": "NJ", "addr:street_address": "137 OCEAN AVE", "amenity": "post_box", "brand": "United States Postal Service", "brand:wikidata": "Q668687", "collection_times": "Mo-Fr 17:00; Sa 15:00", "indoor": "yes", "note": "ON 12/24 AND 12/31, THIS BOX MAY BE COLLECTED AS EARLY AS 12 NOON.", "nsi_id": "unitedstatespostalservice-a77078", "operator": "United States Postal Service", "operator:short": "USPS", "operator:type": "public", "operator:wikidata": "Q668687", "ref": "0730500061"}, "type": "Feature"}
{"geometry": {"coordinates": [-74.0999037219, 40.6949810281], "type": "Point"}, "id": "L82Kw9PzFukJ2VfUsRFzm-zsr0o=", "properties": {"@source_uri": "https://tools.usps.com/UspsToolsRestServices/rest/POLocator/findLocations", "@spider": "usps_collection_boxes", "addr:city": "JERSEY CITY", "addr:country": "US", "addr:postcode": "07305", "addr:state": "NJ", "addr:street_address": "1557 JOHN F KENNEDY BLVD", "amenity": "post_box", "brand": "United States Postal Service", "brand:wikidata": "Q668687", "collection_times": "Mo-Fr 11:00; Sa 13:00", "note": "ON 12/24 AND 12/31, THIS BOX MAY BE COLLECTED AS EARLY AS 12 NOON.", "nsi_id": "unitedstatespostalservice-a77078", "operator": "United States Postal Service", "operator:short": "USPS", "operator:type": "public", "operator:wikidata": "Q668687", "ref": "0730500063"}, "type": "Feature"}
{"geometry": {"coordinates": [-74.09360212, 40.693287353], "type": "Point"}, "id": "lHyKN6WfIFU6SnmCCDhAoLLIjok=", "properties": {"@source_uri": "https://tools.usps.com/UspsToolsRestServices/rest/POLocator/findLocations", "@spider": "usps_collection_boxes", "addr:city": "JERSEY CITY", "addr:country": "US", "addr:postcode": "07305", "addr:state": "NJ", "addr:street_address": "137 OCEAN AVE", "amenity": "post_box", "brand": "United States Postal Service", "brand:wikidata": "Q668687", "collection_times": "Mo-Fr 17:00; Sa 16:00", "indoor": "yes", "note": "ON 12/24 AND 12/31, THIS BOX MAY BE COLLECTED AS EARLY AS 12 NOON.", "nsi_id": "unitedstatespostalservice-a77078", "operator": "United States Postal Service", "operator:short": "USPS", "operator:type": "public", "operator:wikidata": "Q668687", "ref": "0730500064"}, "type": "Feature"}
{"geometry": {"coordinates": [-74.078793647, 40.711174411], "type": "Point"}, "id": "IpYULiAcWtMNVCefrAJhWK_OGVk=", "properties": {"@source_uri": "https://tools.usps.com/UspsToolsRestServices/rest/POLocator/findLocations", "@spider": "usps_collection_boxes", "addr:city": "JERSEY CITY", "addr:country": "US", "addr:postcode": "07305", "addr:state": "NJ", "addr:street_address": "369 MARTIN LUTHER KING JR DR", "amenity": "post_box", "brand": "United States Postal Service", "brand:wikidata": "Q668687", "collection_times": "Mo-Fr 17:00; Sa 16:00", "indoor": "yes", "note": "ON 12/24 AND 12/31, THIS BOX MAY BE COLLECTED AS EARLY AS 12 NOON.", "nsi_id": "unitedstatespostalservice-a77078", "operator": "United States Postal Service", "operator:short": "USPS", "operator:type": "public", "operator:wikidata": "Q668687", "ref": "0730500065"}, "type": "Feature"}
{"geometry": {"coordinates": [-74.0788195, 40.711223968], "type": "Point"}, "id": "3afhYd91zuRX7E_l9onGh93z2Wk=", "properties": {"@source_uri": "https://tools.usps.com/UspsToolsRestServices/rest/POLocator/findLocations", "@spider": "usps_collection_boxes", "addr:city": "JERSEY CITY", "addr:country": "US", "addr:postcode": "07305", "addr:state": "NJ", "addr:street_address": "369 MARTIN LUTHER KING JR DR", "amenity": "post_box", "brand": "United States Postal Service", "brand:wikidata": "Q668687", "collection_times": "Mo-Fr 17:00; Sa 16:00", "note": "ON 12/24 AND 12/31, THIS BOX MAY BE COLLECTED AS EARLY AS 12 NOON.", "nsi_id": "unitedstatespostalservice-a77078", "operator": "United States Postal Service", "operator:short": "USPS", "operator:type": "public", "operator:wikidata": "Q668687", "ref": "0730500066"}, "type": "Feature"}
{"geometry": {"coordinates": [-74.0644095345, 40.7311445305], "type": "Point"}, "id": "4GKBRtQjiSlXJQhz_ZNavb6pgWM=", "properties": {"@source_uri": "https://tools.usps.com/UspsToolsRestServices/rest/POLocator/findLocations", "@spider": "usps_collection_boxes", "addr:city": "JERSEY CITY", "addr:country": "US", "addr:postcode": "07306", "addr:state": "NJ", "addr:street_address": "30 JOURNAL SQ", "amenity": "post_box", "brand": "United States Postal Service", "brand:wikidata": "Q668687", "collection_times": "Mo-Sa 13:00", "note": "ON 12/24 AND 12/31, THIS BOX MAY BE COLLECTED AS EARLY AS 12 NOON.", "nsi_id": "unitedstatespostalservice-a77078", "operator": "United States Postal Service", "operator:short": "USPS", "operator:type": "public", "operator:wikidata": "Q668687", "ref": "0730600011"}, "type": "Feature"}
{"geometry": {"coordinates": [-74.0641556, 40.732011], "type": "Point"}, "id": "aEhn6KjzApJrcZraEHsJxgpLmUE=", "properties": {"@source_uri": "https://tools.usps.com/UspsToolsRestServices/rest/POLocator/findLocations", "@spider": "usps_collection_boxes", "addr:city": "JERSEY CITY", "addr:country": "US", "addr:postcode": "07306", "addr:state": "NJ", "addr:street_address": "50 JOURNAL SQ", "amenity": "post_box", "brand": "United States Postal Service", "brand:wikidata": "Q668687", "collection_times": "Mo-Fr 13:00", "note": "ON 12/24 AND 12/31, THIS BOX MAY BE COLLECTED AS EARLY AS 12 NOON.", "nsi_id": "unitedstatespostalservice-a77078", "operator": "United States Postal Service", "operator:short": "USPS", "operator:type": "public", "operator:wikidata": "Q668687", "ref": "0730600014"}, "type": "Feature"}
{"geometry": {"coordinates": [-74.0584737, 40.733873], "type": "Point"}, "id": "AZGmJ6vKHPRTUFjwzOsUwSbS_Cg=", "properties": {"@source_uri": "https://tools.usps.com/UspsToolsRestServices/rest/POLocator/findLocations", "@spider": "usps_collection_boxes", "addr:city": "JERSEY CITY", "addr:country": "US", "addr:postcode": "07306", "addr:state": "NJ", "addr:street_address": "645 NEWARK AVE", "amenity": "post_box", "brand": "United States Postal Service", "brand:wikidata": "Q668687", "collection_times": "Mo-Fr 17:00; Sa 15:00", "note": "ON 12/24 AND 12/31, THIS BOX MAY BE COLLECTED AS EARLY AS 12 NOON.", "nsi_id": "unitedstatespostalservice-a77078", "operator": "United States Postal Service", "operator:short": "USPS", "operator:type": "public", "operator:wikidata": "Q668687", "ref": "0730600019"}, "type": "Feature"}
{"geometry": {"coordinates": [-74.0591463, 40.734485], "type": "Point"}, "id": "iXo24A0BrCzrq8rao3y0BAHcLU4=", "properties": {"@source_uri": "https://tools.usps.com/UspsToolsRestServices/rest/POLocator/findLocations", "@spider": "usps_collection_boxes", "addr:city": "JERSEY CITY", "addr:country": "US", "addr:postcode": "07306", "addr:state": "NJ", "addr:street_address": "666 NEWARK AVE", "amenity": "post_box", "brand": "United States Postal Service", "brand:wikidata": "Q668687", "collection_times": "Mo-Sa 11:00", "nsi_id": "unitedstatespostalservice-a77078", "operator": "United States Postal Service", "operator:short": "USPS", "operator:type": "public", "operator:wikidata": "Q668687", "ref": "0730600020"}, "type": "Feature"}
{"geometry": {"coordinates": [-74.0621276, 40.735321], "type": "Point"}, "id": "T_XaWb_hEhHKcwRFIDoz_V7Ot5o=", "properties": {"@source_uri": "https://tools.usps.com/UspsToolsRestServices/rest/POLocator/findLocations", "@spider": "usps_collection_boxes", "addr:city": "JERSEY CITY", "addr:country": "US", "addr:postcode": "07306", "addr:state": "NJ", "addr:street_address": "730 NEWARK AVE", "amenity": "post_box", "brand": "United States Postal Service", "brand:wikidata": "Q668687", "collection_times": "Mo-Sa 11:00", "nsi_id": "unitedstatespostalservice-a77078", "operator": "United States Postal Service", "operator:short": "USPS", "operator:type": "public", "operator:wikidata": "Q668687", "ref": "0730600021"}, "type": "Feature"}
{"geometry": {"coordinates": [-74.06540945, 40.729939321], "type": "Point"}, "id": "DnmKXc7e0Tu71s7Y8PQCaaVtO64=", "properties": {"@source_uri": "https://tools.usps.com/UspsToolsRestServices/rest/POLocator/findLocations", "@spider": "usps_collection_boxes", "addr:city": "JERSEY CITY", "addr:country": "US", "addr:postcode": "07306", "addr:state": "NJ", "addr:street_address": "899 BERGEN AVE", "amenity": "post_box", "brand": "United States Postal Service", "brand:wikidata": "Q668687", "collection_times": "Mo-Fr 17:00; Sa 15:00", "note": "ON 12/24 AND 12/31, THIS BOX MAY BE COLLECTED AS EARLY AS 12 NOON.", "nsi_id": "unitedstatespostalservice-a77078", "operator": "United States Postal Service", "operator:short": "USPS", "operator:type": "public", "operator:wikidata": "Q668687", "ref": "0730600023"}, "type": "Feature"}
{"geometry": {"coordinates": [-74.06540945, 40.729939321], "type": "Point"}, "id": "9xKagPEAs7aOP4OpvWfmyQH-Vkk=", "properties": {"@source_uri": "https://tools.usps.com/UspsToolsRestServices/rest/POLocator/findLocations", "@spider": "usps_collection_boxes", "addr:city": "JERSEY CITY", "addr:country": "US", "addr:postcode": "07306", "addr:state": "NJ", "addr:street_address": "899 BERGEN AVE", "amenity": "post_box", "brand": "United States Postal Service", "brand:wikidata": "Q668687", "collection_times": "Mo-Fr 17:00; Sa 15:00", "name": "USPS COLLECTION BOX - EXPRESS", "note": "ON 12/24 AND 12/31, THIS BOX MAY BE COLLECTED AS EARLY AS 12 NOON.", "nsi_id": "unitedstatespostalservice-a77078", "operator": "United States Postal Service", "operator:short": "USPS", "operator:type": "public", "operator:wikidata": "Q668687", "ref": "0730600024"}, "type": "Feature"}
{"geometry": {"coordinates": [-74.0728826, 40.73631], "type": "Point"}, "id": "oHPhLQKZk3SU-Z69r2FbP8DatEE=", "properties": {"@source_uri": "https://tools.usps.com/UspsToolsRestServices/rest/POLocator/findLocations", "@spider": "usps_collection_boxes", "addr:city": "JERSEY CITY", "addr:country": "US", "addr:postcode": "07306", "addr:state": "NJ", "addr:street_address": "99 BROADWAY", "amenity": "post_box", "brand": "United States Postal Service", "brand:wikidata": "Q668687", "collection_times": "Mo-Sa 11:00", "nsi_id": "unitedstatespostalservice-a77078", "operator": "United States Postal Service", "operator:short": "USPS", "operator:type": "public", "operator:wikidata": "Q668687", "ref": "0730600036"}, "type": "Feature"}
{"geometry": {"coordinates": [-74.0792699, 40.727806], "type": "Point"}, "id": "wrbKShHeLJICNNUBPk7wpDeb9WQ=", "properties": {"@source_uri": "https://tools.usps.com/UspsToolsRestServices/rest/POLocator/findLocations", "@spider": "usps_collection_boxes", "addr:city": "JERSEY CITY", "addr:country": "US", "addr:postcode": "07306", "addr:state": "NJ", "addr:street_address": "225 DUNCAN AVE", "amenity": "post_box", "brand": "United States Postal Service", "brand:wikidata": "Q668687", "collection_times": "Mo-Sa 11:00", "nsi_id": "unitedstatespostalservice-a77078", "operator": "United States Postal Service", "operator:short": "USPS", "operator:type": "public", "operator:wikidata": "Q668687", "ref": "0730600040"}, "type": "Feature"}
{"geometry": {"coordinates": [-74.0595047, 40.74281], "type": "Point"}, "id": "l6cN6NnNLm6G-5D2qbtabAkrnIM=", "properties": {"@source_uri": "https://tools.usps.com/UspsToolsRestServices/rest/POLocator/findLocations", "@spider": "usps_collection_boxes", "addr:city": "JERSEY CITY", "addr:country": "US", "addr:postcode": "07306", "addr:state": "NJ", "addr:street_address": "3220 JOHN F KENNEDY BLVD", "amenity": "post_box", "brand": "United States Postal Service", "brand:wikidata": "Q668687", "collection_times": "Mo-Sa 11:00", "nsi_id": "unitedstatespostalservice-a77078", "operator": "United States Postal Service", "operator:short": "USPS", "operator:type": "public", "operator:wikidata": "Q668687", "ref": "0730600042"}, "type": "Feature"}
{"geometry": {"coordinates": [-74.0708915, 40.727518], "type": "Point"}, "id": "PTx87jVrWDIEabNsntYllzBvNJ0=", "properties": {"@source_uri": "https://tools.usps.com/UspsToolsRestServices/rest/POLocator/findLocations", "@spider": "usps_collection_boxes", "addr:city": "JERSEY CITY", "addr:country": "US", "addr:postcode": "07306", "addr:state": "NJ", "addr:street_address": "2641 JOHN F KENNEDY BLVD", "amenity": "post_box", "brand": "United States Postal Service", "brand:wikidata": "Q668687", "collection_times": "Mo-Sa 13:00", "note": "ON 12/24 AND 12/31, THIS BOX MAY BE COLLECTED AS EARLY AS 12 NOON.", "nsi_id": "unitedstatespostalservice-a77078", "operator": "United States Postal Service", "operator:short": "USPS", "operator:type": "public", "operator:wikidata": "Q668687", "ref": "0730600045"}, "type": "Feature"}
{"geometry": {"coordinates": [-74.0604819, 40.744643], "type": "Point"}, "id": "VyakGHvfBzlMa4VR81O3TWALWW0=", "properties": {"@source_uri": "https://tools.usps.com/UspsToolsRestServices/rest/POLocator/findLocations", "@spider": "usps_collection_boxes", "addr:city": "JERSEY CITY", "addr:country": "US", "addr:postcode": "07306", "addr:state": "NJ", "addr:street_address": "133 CARLTON AVE", "amenity": "post_box", "brand": "United States Postal Service", "brand:wikidata": "Q668687", "collection_times": "Mo-Sa 11:00", "nsi_id": "unitedstatespostalservice-a77078", "operator": "United States Postal Service", "operator:short": "USPS", "operator:type": "public", "operator:wikidata": "Q668687", "ref": "0730600049"}, "type": "Feature"}
{"geometry": {"coordinates": [-74.0665677, 40.735811], "type": "Point"}, "id": "GxZcddGgCHN1TFvRmaV941bsbVs=", "properties": {"@source_uri": "https://tools.usps.com/UspsToolsRestServices/rest/POLocator/findLocations", "@spider": "usps_collection_boxes", "addr:city": "JERSEY CITY", "addr:country": "US", "addr:postcode": "07306", "addr:state": "NJ", "addr:street_address": "836 NEWARK AVE", "amenity": "post_box", "brand": "United States Postal Service", "brand:wikidata": "Q668687", "collection_times": "Mo-Sa 11:00", "nsi_id": "unitedstatespostalservice-a77078", "operator": "United States Postal Service", "operator:short": "USPS", "operator:type": "public", "operator:wikidata": "Q668687", "ref": "0730600056"}, "type": "Feature"}
{"geometry": {"coordinates": [-74.0504826, 40.734212], "type": "Point"}, "id": "cFRVdFATy0TlaIFkbQAA5xwdmHM=", "properties": {"@source_uri": "https://tools.usps.com/UspsToolsRestServices/rest/POLocator/findLocations", "@spider": "usps_collection_boxes", "addr:city": "JERSEY CITY", "addr:country": "US", "addr:postcode": "07306", "addr:state": "NJ", "addr:street_address": "176 PALISADE AVE", "amenity": "post_box", "brand": "United States Postal Service", "brand:wikidata": "Q668687", "collection_times": "Mo-Sa 13:00", "note": "ON 12/24 AND 12/31, THIS BOX MAY BE COLLECTED AS EARLY AS 12 NOON.", "nsi_id": "unitedstatespostalservice-a77078", "operator": "United States Postal Service", "operator:short": "USPS", "operator:type": "public", "operator:wikidata": "Q668687", "ref": "0730600057"}, "type": "Feature"}
{"geometry": {"coordinates": [-74.0495064, 40.73602], "type": "Point"}, "id": "7d3KrLXEASK9EJGNMfJMol6e_8g=", "properties": {"@source_uri": "https://tools.usps.com/UspsToolsRestServices/rest/POLocator/findLocations", "@spider": "usps_collection_boxes", "addr:city": "JERSEY CITY", "addr:country": "US", "addr:postcode": "07306", "addr:state": "NJ", "addr:street_address": "205 PALISADE AVE", "amenity": "post_box", "brand": "United States Postal Service", "brand:wikidata": "Q668687", "collection_times": "Mo-Sa 11:00", "nsi_id": "unitedstatespostalservice-a77078", "operator": "United States Postal Service", "operator:short": "USPS", "operator:type": "public", "operator:wikidata": "Q668687", "ref": "0730600058"}, "type": "Feature"}
{"geometry": {"coordinates": [-74.0626731, 40.73066], "type": "Point"}, "id": "Iy9_h-m5DjCfrOb9H_dp8p_ugmY=", "properties": {"@source_uri": "https://tools.usps.com/UspsToolsRestServices/rest/POLocator/findLocations", "@spider": "usps_collection_boxes", "addr:city": "JERSEY CITY", "addr:country": "US", "addr:postcode": "07306", "addr:state": "NJ", "addr:street_address": "71 SIP AVE", "amenity": "post_box", "brand": "United States Postal Service", "brand:wikidata": "Q668687", "collection_times": "Mo-Sa 13:00", "note": "ON 12/24 AND 12/31, THIS BOX MAY BE COLLECTED AS EARLY AS 12 NOON.", "nsi_id": "unitedstatespostalservice-a77078", "operator": "United States Postal Service", "operator:short": "USPS", "operator:type": "public", "operator:wikidata": "Q668687", "ref": "0730600059"}, "type": "Feature"}
{"geometry": {"coordinates": [-74.0644371, 40.72539], "type": "Point"}, "id": "hXXzc0uL1T-SQO8bZxhQO4hKQB8=", "properties": {"@source_uri": "https://tools.usps.com/UspsToolsRestServices/rest/POLocator/findLocations", "@spider": "usps_collection_boxes", "addr:city": "JERSEY CITY", "addr:country": "US", "addr:postcode": "07306", "addr:state": "NJ", "addr:street_address": "296 SUMMIT AVE", "amenity": "post_box", "brand": "United States Postal Service", "brand:wikidata": "Q668687", "collection_times": "Mo-Sa 11:00", "nsi_id": "unitedstatespostalservice-a77078", "operator": "United States Postal Service", "operator:short": "USPS", "operator:type": "public", "operator:wikidata": "Q668687", "ref": "0730600063"}, "type": "Feature"}
{"geometry": {"coordinates": [-74.059699, 40.732127], "type": "Point"}, "id": "Uo6dnnSAvJw1gAzTIPvgXXHvtKs=", "properties": {"@source_uri": "https://tools.usps.com/UspsToolsRestServices/rest/POLocator/findLocations", "@spider": "usps_collection_boxes", "addr:city": "JERSEY CITY", "addr:country": "US", "addr:postcode": "07306", "addr:state": "NJ", "addr:street_address": "532 SUMMIT AVE", "amenity": "post_box", "brand": "United States Postal Service", "brand:wikidata": "Q668687", "collection_times": "Mo-Sa 11:00", "nsi_id": "unitedstatespostalservice-a77078", "operator": "United States Postal Service", "operator:short": "USPS", "operator:type": "public", "operator:wikidata": "Q668687", "ref": "0730600065"}, "type": "Feature"}
{"geometry": {"coordinates": [-74.06095, 40.73298], "type": "Point"}, "id": "p_KLoQGO8dRGC41JySD8hNuZHpA=", "properties": {"@source_uri": "https://tools.usps.com/UspsToolsRestServices/rest/POLocator/findLocations", "@spider": "usps_collection_boxes", "addr:city": "JERSEY CITY", "addr:country": "US", "addr:postcode": "07306", "addr:state": "NJ", "addr:street_address": "1063 W SIDE AVE", "amenity": "post_box", "brand": "United States Postal Service", "brand:wikidata": "Q668687", "collection_times": "Mo-Sa 11:00", "nsi_id": "unitedstatespostalservice-a77078", "operator": "United States Postal Service", "operator:short": "USPS", "operator:type": "public", "operator:wikidata": "Q668687", "ref": "0730600067"}, "type": "Feature"}
{"geometry": {"coordinates": [-74.0755083, 40.733053], "type": "Point"}, "id": "wBCE-dqFP8MXhZZwQ_QHKAyIOyc=", "properties": {"@source_uri": "https://tools.usps.com/UspsToolsRestServices/rest/POLocator/findLocations", "@spider": "usps_collection_boxes", "addr:city": "JERSEY CITY", "addr:country": "US", "addr:postcode": "07306", "addr:state": "NJ", "addr:street_address": "321 SIP AVE", "amenity": "post_box", "brand": "United States Postal Service", "brand:wikidata": "Q668687", "collection_times": "Mo-Sa 11:00", "nsi_id": "unitedstatespostalservice-a77078", "operator": "United States Postal Service", "operator:short": "USPS", "operator:type": "public", "operator:wikidata": "Q668687", "ref": "0730600073"}, "type": "Feature"}
{"geometry": {"coordinates": [-74.068002, 40.725414], "type": "Point"}, "id": "vgJaxfcLWv60tkYJpxz4jX9zs4U=", "properties": {"@source_uri": "https://tools.usps.com/UspsToolsRestServices/rest/POLocator/findLocations", "@spider": "usps_collection_boxes", "addr:city": "JERSEY CITY", "addr:country": "US", "addr:postcode": "07306", "addr:state": "NJ", "addr:street_address": "761 BERGEN AVE", "amenity": "post_box", "brand": "United States Postal Service", "brand:wikidata": "Q668687", "collection_times": "Mo-Sa 13:00", "note": "ON 12/24 AND 12/31, THIS BOX MAY BE COLLECTED AS EARLY AS 12 NOON.", "nsi_id": "unitedstatespostalservice-a77078", "operator": "United States Postal Service", "operator:short": "USPS", "operator:type": "public", "operator:wikidata": "Q668687", "ref": "0730600081"}, "type": "Feature"}
{"geometry": {"coordinates": [-74.057617932, 40.732763679], "type": "Point"}, "id": "D7r92hAIA4C9R146Oa8c2FLcmYI=", "properties": {"@source_uri": "https://tools.usps.com/UspsToolsRestServices/rest/POLocator/findLocations", "@spider": "usps_collection_boxes", "addr:city": "JERSEY CITY", "addr:country": "US", "addr:postcode": "07306", "addr:state": "NJ", "addr:street_address": "595 NEWARK AVE", "amenity": "post_box", "brand": "United States Postal Service", "brand:wikidata": "Q668687", "collection_times": "Mo-Sa 13:00", "note": "ON 12/24 AND 12/31, THIS BOX MAY BE COLLECTED AS EARLY AS 12 NOON.", "nsi_id": "unitedstatespostalservice-a77078", "operator": "United States Postal Service", "operator:short": "USPS", "operator:type": "public", "operator:wikidata": "Q668687", "ref": "0730600082"}, "type": "Feature"}
{"geometry": {"coordinates": [-74.0740905, 40.73001], "type": "Point"}, "id": "M52nk1jgC4bFvHzHc_2ybNkQRYU=", "properties": {"@source_uri": "https://tools.usps.com/UspsToolsRestServices/rest/POLocator/findLocations", "@spider": "usps_collection_boxes", "addr:city": "JERSEY CITY", "addr:country": "US", "addr:postcode": "07306", "addr:state": "NJ", "addr:street_address": "168 HIGHLAND AVE", "amenity": "post_box", "brand": "United States Postal Service", "brand:wikidata": "Q668687", "collection_times": "Mo-Sa 11:00", "nsi_id": "unitedstatespostalservice-a77078", "operator": "United States Postal Service", "operator:short": "USPS", "operator:type": "public", "operator:wikidata": "Q668687", "ref": "0730600083"}, "type": "Feature"}
{"geometry": {"coordinates": [-74.0718204, 40.732259], "type": "Point"}, "id": "5RFPYa4cXFSrnkr5blbImXrxPys=", "properties": {"@source_uri": "https://tools.usps.com/UspsToolsRestServices/rest/POLocator/findLocations", "@spider": "usps_collection_boxes", "addr:city": "JERSEY CITY", "addr:country": "US", "addr:postcode": "07306", "addr:state": "NJ", "addr:street_address": "252 SIP AVE", "amenity": "post_box", "brand": "United States Postal Service", "brand:wikidata": "Q668687", "collection_times": "Mo-Sa 11:00", "nsi_id": "unitedstatespostalservice-a77078", "operator": "United States Postal Service", "operator:short": "USPS", "operator:type": "public", "operator:wikidata": "Q668687", "ref": "0730600084"}, "type": "Feature"}
{"geometry": {"coordinates": [-74.0544507, 40.738713], "type": "Point"}, "id": "RcbF28kgVOKtThVj5zrejeiwDI0=", "properties": {"@source_uri": "https://tools.usps.com/UspsToolsRestServices/rest/POLocator/findLocations", "@spider": "usps_collection_boxes", "addr:city": "JERSEY CITY", "addr:country": "US", "addr:postcode": "07306", "addr:state": "NJ", "addr:street_address": "114 CENTRAL AVE", "amenity": "post_box", "brand": "United States Postal Service", "brand:wikidata": "Q668687", "collection_times": "Mo-Sa 11:00", "nsi_id": "unitedstatespostalservice-a77078", "operator": "United States Postal Service", "operator:short": "USPS", "operator:type": "public", "operator:wikidata": "Q668687", "ref": "0730600085"}, "type": "Feature"}
{"geometry": {"coordinates": [-74.0646215, 40.730573], "type": "Point"}, "id": "atPEKo0poT7-YzfCcl3MP1wh-dg=", "properties": {"@source_uri": "https://tools.usps.com/UspsToolsRestServices/rest/POLocator/findLocations", "@spider": "usps_collection_boxes", "addr:city": "JERSEY CITY", "addr:country": "US", "addr:postcode": "07306", "addr:state": "NJ", "addr:street_address": "921 BERGEN AVE", "amenity": "post_box", "brand": "United States Postal Service", "brand:wikidata": "Q668687", "collection_times": "Mo-Sa 13:00", "note": "ON 12/24 AND 12/31, THIS BOX MAY BE COLLECTED AS EARLY AS 12 NOON.", "nsi_id": "unitedstatespostalservice-a77078", "operator": "United States Postal Service", "operator:short": "USPS", "operator:type": "public", "operator:wikidata": "Q668687", "ref": "0730600086"}, "type": "Feature"}
{"geometry": {"coordinates": [-74.0567674, 40.729216], "type": "Point"}, "id": "vwI80BosBMotBLEYc92kmhY4WYo=", "properties": {"@source_uri": "https://tools.usps.com/UspsToolsRestServices/rest/POLocator/findLocations", "@spider": "usps_collection_boxes", "addr:city": "JERSEY CITY", "addr:country": "US", "addr:postcode": "07306", "addr:state": "NJ", "addr:street_address": "132 CHESTNUT AVE", "amenity": "post_box", "brand": "United States Postal Service", "brand:wikidata": "Q668687", "collection_times": "Mo-Sa 11:00", "nsi_id": "unitedstatespostalservice-a77078", "operator": "United States Postal Service", "operator:short": "USPS", "operator:type": "public", "operator:wikidata": "Q668687", "ref": "0730600087"}, "type": "Feature"}
{"geometry": {"coordinates": [-74.058725, 40.73411], "type": "Point"}, "id": "72VqUIGNdFpi3gaaUUZ4Z8LFxKk=", "properties": {"@source_uri": "https://tools.usps.com/UspsToolsRestServices/rest/POLocator/findLocations", "@spider": "usps_collection_boxes", "addr:city": "JERSEY CITY", "addr:country": "US", "addr:postcode": "07306", "addr:state": "NJ", "addr:street_address": "645 NEWARK AVE", "amenity": "post_box", "brand": "United States Postal Service", "brand:wikidata": "Q668687", "collection_times": "Mo-Fr 17:00; Sa 15:00", "indoor": "yes", "note": "ON 12/24 AND 12/31, THIS BOX MAY BE COLLECTED AS EARLY AS 12 NOON.", "nsi_id": "unitedstatespostalservice-a77078", "operator": "United States Postal Service", "operator:short": "USPS", "operator:type": "public", "operator:wikidata": "Q668687", "ref": "0730600090"}, "type": "Feature"}
{"geometry": {"coordinates": [-74.06540945, 40.729939321], "type": "Point"}, "id": "nnX36aL87ud1c7bZ2WBGGcFLDaE=", "properties": {"@source_uri": "https://tools.usps.com/UspsToolsRestServices/rest/POLocator/findLocations", "@spider": "usps_collection_boxes", "addr:city": "JERSEY CITY", "addr:country": "US", "addr:postcode": "07306", "addr:state": "NJ", "addr:street_address": "899 BERGEN AVE", "amenity": "post_box", "brand": "United States Postal Service", "brand:wikidata": "Q668687", "collection_times": "Mo-Fr 17:00; Sa 15:00", "indoor": "yes", "note": "ON 12/24 AND 12/31, THIS BOX MAY BE COLLECTED AS EARLY AS 12 NOON.", "nsi_id": "unitedstatespostalservice-a77078", "operator": "United States Postal Service", "operator:short": "USPS", "operator:type": "public", "operator:wikidata": "Q668687", "ref": "0730600091"}, "type": "Feature"}
{"geometry": {"coordinates": [-74.058527534, 40.733863712], "type": "Point"}, "id": "bINXJEitCSF3zfg_G2bTYzn4dEo=", "properties": {"@source_uri": "https://tools.usps.com/UspsToolsRestServices/rest/POLocator/findLocations", "@spider": "usps_collection_boxes", "addr:city": "JERSEY CITY", "addr:country": "US", "addr:postcode": "07306", "addr:state": "NJ", "addr:street_address": "645 NEWARK AVE", "amenity": "post_box", "brand": "United States Postal Service", "brand:wikidata": "Q668687", "collection_times": "Mo-Fr 17:00; Sa 16:00", "indoor": "yes", "note": "ON 12/24 AND 12/31, THIS BOX MAY BE COLLECTED AS EARLY AS 12 NOON.", "nsi_id": "unitedstatespostalservice-a77078", "operator": "United States Postal Service", "operator:short": "USPS", "operator:type": "public", "operator:wikidata": "Q668687", "ref": "0730600093"}, "type": "Feature"}
{"geometry": {"coordinates": [-74.06540945, 40.729939321], "type": "Point"}, "id": "gSj2oLLwcUwBpD9i1_Pk3ZuiNMA=", "properties": {"@source_uri": "https://tools.usps.com/UspsToolsRestServices/rest/POLocator/findLocations", "@spider": "usps_collection_boxes", "addr:city": "JERSEY CITY", "addr:country": "US", "addr:postcode": "07306", "addr:state": "NJ", "addr:street_address": "899 BERGEN AVE", "amenity": "post_box", "brand": "United States Postal Service", "brand:wikidata": "Q668687", "collection_times": "Mo-Fr 17:00; Sa 16:00", "indoor": "yes", "note": "ON 12/24 AND 12/31, THIS BOX MAY BE COLLECTED AS EARLY AS 12 NOON.", "nsi_id": "unitedstatespostalservice-a77078", "operator": "United States Postal Service", "operator:short": "USPS", "operator:type": "public", "operator:wikidata": "Q668687", "ref": "0730600094"}, "type": "Feature"}
{"geometry": {"coordinates": [-74.0478341, 40.748174], "type": "Point"}, "id": "EtpTO5JTd38Sl_6UxisWSj2h9zI=", "properties": {"@source_uri": "https://tools.usps.com/UspsToolsRestServices/rest/POLocator/findLocations", "@spider": "usps_collection_boxes", "addr:city": "JERSEY CITY", "addr:country": "US", "addr:postcode": "07307", "addr:state": "NJ", "addr:street_address": "392 CENTRAL AVE", "amenity": "post_box", "brand": "United States Postal Service", "brand:wikidata": "Q668687", "collection_times": "Mo-Fr 17:00; Sa 15:00", "note": "ON 12/24 AND 12/31, THIS BOX MAY BE COLLECTED AS EARLY AS 12 NOON.", "nsi_id": "unitedstatespostalservice-a77078", "operator": "United States Postal Service", "operator:short": "USPS", "operator:type": "public", "operator:wikidata": "Q668687", "ref": "0730700001"}, "type": "Feature"}
{"geometry": {"coordinates": [-74.0482836, 40.745615], "type": "Point"}, "id": "MjpOQXO5Jn1rKmFgZSFiwj8qW1Q=", "properties": {"@source_uri": "https://tools.usps.com/UspsToolsRestServices/rest/POLocator/findLocations", "@spider": "usps_collection_boxes", "addr:city": "JERSEY CITY", "addr:country": "US", "addr:postcode": "07307", "addr:state": "NJ", "addr:street_address": "80 CAMBRIDGE AVE", "amenity": "post_box", "brand": "United States Postal Service", "brand:wikidata": "Q668687", "collection_times": "Mo-Sa 11:00", "nsi_id": "unitedstatespostalservice-a77078", "operator": "United States Postal Service", "operator:short": "USPS", "operator:type": "public", "operator:wikidata": "Q668687", "ref": "0730700003"}, "type": "Feature"}
{"geometry": {"coordinates": [-74.043457, 40.75462], "type": "Point"}, "id": "3BKnxweQdVBfNzbujyIEpFo5XeM=", "properties": {"@source_uri": "https://tools.usps.com/UspsToolsRestServices/rest/POLocator/findLocations", "@spider": "usps_collection_boxes", "addr:city": "JERSEY CITY", "addr:country": "US", "addr:postcode": "07307", "addr:state": "NJ", "addr:street_address": "587 CENTRAL AVE", "amenity": "post_box", "brand": "United States Postal Service", "brand:wikidata": "Q668687", "collection_times": "Mo-Sa 11:00", "nsi_id": "unitedstatespostalservice-a77078", "operator": "United States Postal Service", "operator:short": "USPS", "operator:type": "public", "operator:wikidata": "Q668687", "ref": "0730700009"}, "type": "Feature"}
{"geometry": {"coordinates": [-74.0498067, 40.745467], "type": "Point"}, "id": "7Es5ZZhyIPliC5K701WVuU1KKC4=", "properties": {"@source_uri": "https://tools.usps.com/UspsToolsRestServices/rest/POLocator/findLocations", "@spider": "usps_collection_boxes", "addr:city": "JERSEY CITY", "addr:country": "US", "addr:postcode": "07307", "addr:state": "NJ", "addr:street_address": "303 CENTRAL AVE", "amenity": "post_box", "brand": "United States Postal Service", "brand:wikidata": "Q668687", "collection_times": "Mo-Sa 11:00", "nsi_id": "unitedstatespostalservice-a77078", "operator": "United States Postal Service", "operator:short": "USPS", "operator:type": "public", "operator:wikidata": "Q668687", "ref": "0730700010"}, "type": "Feature"}
{"geometry": {"coordinates": [-74.050663977, 40.758048995], "type": "Point"}, "id": "kjatYOPuWD4A6Kxlkbv-ZDbZoWI=", "properties": {"@source_uri": "https://tools.usps.com/UspsToolsRestServices/rest/POLocator/findLocations", "@spider": "usps_collection_boxes", "addr:city": "JERSEY CITY", "addr:country": "US", "addr:postcode": "07307", "addr:state": "NJ", "addr:street_address": "299 COLUMBIA AVE", "amenity": "post_box", "brand": "United States Postal Service", "brand:wikidata": "Q668687", "collection_times": "Mo-Sa 11:00", "nsi_id": "unitedstatespostalservice-a77078", "operator": "United States Postal Service", "operator:short": "USPS", "operator:type": "public", "operator:wikidata": "Q668687", "ref": "0730700011"}, "type": "Feature"}
{"geometry": {"coordinates": [-74.0470640334, 40.7560619809], "type": "Point"}, "id": "2VZggZawN1aYNJCCWIcVJTptYxU=", "properties": {"@source_uri": "https://tools.usps.com/UspsToolsRestServices/rest/POLocator/findLocations", "@spider": "usps_collection_boxes", "addr:city": "JERSEY CITY", "addr:country": "US", "addr:postcode": "07307", "addr:state": "NJ", "addr:street_address": "3677 JOHN F KENNEDY BLVD", "amenity": "post_box", "brand": "United States Postal Service", "brand:wikidata": "Q668687", "collection_times": "Mo-Sa 11:00", "nsi_id": "unitedstatespostalservice-a77078", "operator": "United States Postal Service", "operator:short": "USPS", "operator:type": "public", "operator:wikidata": "Q668687", "ref": "0730700014"}, "type": "Feature"}
{"geometry": {"coordinates": [-74.0551199, 40.749246], "type": "Point"}, "id": "LstSKgWL3Y1gpy2vLcvAs8Zhyos=", "properties": {"@source_uri": "https://tools.usps.com/UspsToolsRestServices/rest/POLocator/findLocations", "@spider": "usps_collection_boxes", "addr:city": "JERSEY CITY", "addr:country": "US", "addr:postcode": "07307", "addr:state": "NJ", "addr:street_address": "3424 JOHN F KENNEDY BLVD", "amenity": "post_box", "brand": "United States Postal Service", "brand:wikidata": "Q668687", "collection_times": "Mo-Sa 11:00", "nsi_id": "unitedstatespostalservice-a77078", "operator": "United States Postal Service", "operator:short": "USPS", "operator:type": "public", "operator:wikidata": "Q668687", "ref": "0730700015"}, "type": "Feature"}
{"geometry": {"coordinates": [-74.0578714995, 40.7454427376], "type": "Point"}, "id": "EwpF7QvBKC1V0iZ9XTWAhF7CefE=", "properties": {"@source_uri": "https://tools.usps.com/UspsToolsRestServices/rest/POLocator/findLocations", "@spider": "usps_collection_boxes", "addr:city": "JERSEY CITY", "addr:country": "US", "addr:postcode": "07307", "addr:state": "NJ", "addr:street_address": "206 MANHATTAN AVE # 1", "amenity": "post_box", "brand": "United States Postal Service", "brand:wikidata": "Q668687", "collection_times": "Mo-Sa 13:00", "note": "ON 12/24 AND 12/31, THIS BOX MAY BE COLLECTED AS EARLY AS 12 NOON.", "nsi_id": "unitedstatespostalservice-a77078", "operator": "United States Postal Service", "operator:short": "USPS", "operator:type": "public", "operator:wikidata": "Q668687", "ref": "0730700016"}, "type": "Feature"}
{"geometry": {"coordinates": [-74.0539859343, 40.7511861592], "type": "Point"}, "id": "XH9HLEqlB3GfOhluY3a6TsruC7o=", "properties": {"@source_uri": "https://tools.usps.com/UspsToolsRestServices/rest/POLocator/findLocations", "@spider": "usps_collection_boxes", "addr:city": "JERSEY CITY", "addr:country": "US", "addr:postcode": "07307", "addr:state": "NJ", "addr:street_address": "3487 JOHN F KENNEDY BLVD", "amenity": "post_box", "brand": "United States Postal Service", "brand:wikidata": "Q668687", "collection_times": "Mo-Sa 13:00", "note": "ON 12/24 AND 12/31, THIS BOX MAY BE COLLECTED AS EARLY AS 12 NOON.", "nsi_id": "unitedstatespostalservice-a77078", "operator": "United States Postal Service", "operator:short": "USPS", "operator:type": "public", "operator:wikidata": "Q668687", "ref": "0730700018"}, "type": "Feature"}
{"geometry": {"coordinates": [-74.0555089, 40.744379], "type": "Point"}, "id": "xPYTd3wfEa0TyxI5UaSkejpnPBU=", "properties": {"@source_uri": "https://tools.usps.com/UspsToolsRestServices/rest/POLocator/findLocations", "@spider": "usps_collection_boxes", "addr:city": "JERSEY CITY", "addr:country": "US", "addr:postcode": "07307", "addr:state": "NJ", "addr:street_address": "155 MANHATTAN AVE", "amenity": "post_box", "brand": "United States Postal Service", "brand:wikidata": "Q668687", "collection_times": "Mo-Sa 11:00", "nsi_id": "unitedstatespostalservice-a77078", "operator": "United States Postal Service", "operator:short": "USPS", "operator:type": "public", "operator:wikidata": "Q668687", "ref": "0730700021"}, "type": "Feature"}
{"geometry": {"coordinates": [-74.0492637, 40.757768], "type": "Point"}, "id": "fgaTghIbsfXCm1_oP49OcAm3ydg=", "properties": {"@source_uri": "https://tools.usps.com/UspsToolsRestServices/rest/POLocator/findLocations", "@spider": "usps_collection_boxes", "addr:city": "JERSEY CITY", "addr:country": "US", "addr:postcode": "07307", "addr:state": "NJ", "addr:street_address": "174 NELSON AVE", "amenity": "post_box", "brand": "United States Postal Service", "brand:wikidata": "Q668687", "collection_times": "Mo-Sa 11:00", "nsi_id": "unitedstatespostalservice-a77078", "operator": "United States Postal Service", "operator:short": "USPS", "operator:type": "public", "operator:wikidata": "Q668687", "ref": "0730700023"}, "type": "Feature"}
{"geometry": {"coordinates": [-74.0477273, 40.738883], "type": "Point"}, "id": "4hjLiJ_LTq6wLtz_0RqG4DM_KhU=", "properties": {"@source_uri": "https://tools.usps.com/UspsToolsRestServices/rest/POLocator/findLocations", "@spider": "usps_collection_boxes", "addr:city": "JERSEY CITY", "addr:country": "US", "addr:postcode": "07307", "addr:state": "NJ", "addr:street_address": "32 BOORAEM AVE", "amenity": "post_box", "brand": "United States Postal Service", "brand:wikidata": "Q668687", "collection_times": "Mo-Sa 11:00", "nsi_id": "unitedstatespostalservice-a77078", "operator": "United States Postal Service", "operator:short": "USPS", "operator:type": "public", "operator:wikidata": "Q668687", "ref": "0730700025"}, "type": "Feature"}
{"geometry": {"coordinates": [-74.043385475, 40.745571967], "type": "Point"}, "id": "vSQ1oVEGFhtyBJp_utZcHTMt1Ts=", "properties": {"@source_uri": "https://tools.usps.com/UspsToolsRestServices/rest/POLocator/findLocations", "@spider": "usps_collection_boxes", "addr:city": "JERSEY CITY", "addr:country": "US", "addr:postcode": "07307", "addr:state": "NJ", "addr:street_address": "499 PALISADE AVE", "amenity": "post_box", "brand": "United States Postal Service", "brand:wikidata": "Q668687", "collection_times": "Mo-Sa 11:00", "nsi_id": "unitedstatespostalservice-a77078", "operator": "United States Postal Service", "operator:short": "USPS", "operator:type": "public", "operator:wikidata": "Q668687", "ref": "0730700026"}, "type": "Feature"}
{"geometry": {"coordinates": [-74.0412659, 40.749094], "type": "Point"}, "id": "-cE1v77rM1d-WiIr43H-T61ESgM=", "properties": {"@source_uri": "https://tools.usps.com/UspsToolsRestServices/rest/POLocator/findLocations", "@spider": "usps_collection_boxes", "addr:city": "JERSEY CITY", "addr:country": "US", "addr:postcode": "07307", "addr:state": "NJ", "addr:street_address": "601 PALISADE AVE", "amenity": "post_box", "brand": "United States Postal Service", "brand:wikidata": "Q668687", "collection_times": "Mo-Sa 13:00", "note": "ON 12/24 AND 12/31, THIS BOX MAY BE COLLECTED AS EARLY AS 12 NOON.", "nsi_id": "unitedstatespostalservice-a77078", "operator": "United States Postal Service", "operator:short": "USPS", "operator:type": "public", "operator:wikidata": "Q668687", "ref": "0730700027"}, "type": "Feature"}
{"geometry": {"coordinates": [-74.045548, 40.748855], "type": "Point"}, "id": "2iZnt1wKWR1S0syzVoduOoXv-EU=", "properties": {"@source_uri": "https://tools.usps.com/UspsToolsRestServices/rest/POLocator/findLocations", "@spider": "usps_collection_boxes", "addr:city": "JERSEY CITY", "addr:country": "US", "addr:postcode": "07307", "addr:state": "NJ", "addr:street_address": "183 HANCOCK AVE", "amenity": "post_box", "brand": "United States Postal Service", "brand:wikidata": "Q668687", "collection_times": "Mo-Sa 11:00", "nsi_id": "unitedstatespostalservice-a77078", "operator": "United States Postal Service", "operator:short": "USPS", "operator:type": "public", "operator:wikidata": "Q668687", "ref": "0730700029"}, "type": "Feature"}
{"geometry": {"coordinates": [-74.049167, 40.750835], "type": "Point"}, "id": "Ffhya6BbMbyhqeaZXHTIH5L8GDk=", "properties": {"@source_uri": "https://tools.usps.com/UspsToolsRestServices/rest/POLocator/findLocations", "@spider": "usps_collection_boxes", "addr:city": "JERSEY CITY", "addr:country": "US", "addr:postcode": "07307", "addr:state": "NJ", "addr:street_address": "1065 SUMMIT AVE", "amenity": "post_box", "brand": "United States Postal Service", "brand:wikidata": "Q668687", "collection_times": "Mo-Sa 11:00", "nsi_id": "unitedstatespostalservice-a77078", "operator": "United States Postal Service", "operator:short": "USPS", "operator:type": "public", "operator:wikidata": "Q668687", "ref": "0730700031"}, "type": "Feature"}
{"geometry": {"coordinates": [-74.0538850741, 40.756039302], "type": "Point"}, "id": "KxkAS5sw0yYJ2FQfQB0XsnkHkfQ=", "properties": {"@source_uri": "https://tools.usps.com/UspsToolsRestServices/rest/POLocator/findLocations", "@spider": "usps_collection_boxes", "addr:city": "JERSEY CITY", "addr:country": "US", "addr:postcode": "07307", "addr:state": "NJ", "addr:street_address": "283 TERRACE AVE", "amenity": "post_box", "brand": "United States Postal Service", "brand:wikidata": "Q668687", "collection_times": "Mo-Sa 11:00", "nsi_id": "unitedstatespostalservice-a77078", "operator": "United States Postal Service", "operator:short": "USPS", "operator:type": "public", "operator:wikidata": "Q668687", "ref": "0730700033"}, "type": "Feature"}
{"geometry": {"coordinates": [-74.0589231, 40.748668], "type": "Point"}, "id": "tJJDtaXB1I0WfgK-qPfcWkAuhNQ=", "properties": {"@source_uri": "https://tools.usps.com/UspsToolsRestServices/rest/POLocator/findLocations", "@spider": "usps_collection_boxes", "addr:city": "JERSEY CITY", "addr:country": "US", "addr:postcode": "07307", "addr:state": "NJ", "addr:street_address": "198 ZABRISKIE ST", "amenity": "post_box", "brand": "United States Postal Service", "brand:wikidata": "Q668687", "collection_times": "Mo-Sa 11:30", "nsi_id": "unitedstatespostalservice-a77078", "operator": "United States Postal Service", "operator:short": "USPS", "operator:type": "public", "operator:wikidata": "Q668687", "ref": "0730700035"}, "type": "Feature"}
{"geometry": {"coordinates": [-74.047764, 40.748252], "type": "Point"}, "id": "0YvSA17SSqtkFmusLjqtZEPu0GA=", "properties": {"@source_uri": "https://tools.usps.com/UspsToolsRestServices/rest/POLocator/findLocations", "@spider": "usps_collection_boxes", "addr:city": "JERSEY CITY", "addr:country": "US", "addr:postcode": "07307", "addr:state": "NJ", "addr:street_address": "392 CENTRAL AVE", "amenity": "post_box", "brand": "United States Postal Service", "brand:wikidata": "Q668687", "collection_times": "Mo-Fr 17:00; Sa 16:00", "indoor": "yes", "note": "ON 12/24 AND 12/31, THIS BOX MAY BE COLLECTED AS EARLY AS 12 NOON.", "nsi_id": "unitedstatespostalservice-a77078", "operator": "United States Postal Service", "operator:short": "USPS", "operator:type": "public", "operator:wikidata": "Q668687", "ref": "0730700040"}, "type": "Feature"}
{"geometry": {"coordinates": [-74.047873554, 40.748091549], "type": "Point"}, "id": "iQrBv5pTSorBqtdquYG5bVIBOAo=", "properties": {"@source_uri": "https://tools.usps.com/UspsToolsRestServices/rest/POLocator/findLocations", "@spider": "usps_collection_boxes", "addr:city": "JERSEY CITY", "addr:country": "US", "addr:postcode": "07307", "addr:state": "NJ", "addr:street_address": "392 CENTRAL AVE", "amenity": "post_box", "brand": "United States Postal Service", "brand:wikidata": "Q668687", "collection_times": "Mo-Fr 17:00; Sa 16:00", "indoor": "yes", "note": "ON 12/24 AND 12/31, THIS BOX MAY BE COLLECTED AS EARLY AS 12 NOON.", "nsi_id": "unitedstatespostalservice-a77078", "operator": "United States Postal Service", "operator:short": "USPS", "operator:type": "public", "operator:wikidata": "Q668687", "ref": "0730700042"}, "type": "Feature"}
{"geometry": {"coordinates": [-74.0338899, 40.726625], "type": "Point"}, "id": "Jsb8clkdmT2U-Q__4N3GwW4ea_w=", "properties": {"@source_uri": "https://tools.usps.com/UspsToolsRestServices/rest/POLocator/findLocations", "@spider": "usps_collection_boxes", "addr:city": "JERSEY CITY", "addr:country": "US", "addr:postcode": "07310", "addr:state": "NJ", "addr:street_address": "111 PAVONIA AVE", "amenity": "post_box", "brand": "United States Postal Service", "brand:wikidata": "Q668687", "collection_times": "Mo-Sa 13:00", "note": "ON 12/24 AND 12/31, THIS BOX MAY BE COLLECTED AS EARLY AS 12 NOON.", "nsi_id": "unitedstatespostalservice-a77078", "operator": "United States Postal Service", "operator:short": "USPS", "operator:type": "public", "operator:wikidata": "Q668687", "ref": "0731000001"}, "type": "Feature"}
{"geometry": {"coordinates": [-74.0378669, 40.732729], "type": "Point"}, "id": "ZNWPCqYpaTZrmsFl3CnvlaD1o-k=", "properties": {"@source_uri": "https://tools.usps.com/UspsToolsRestServices/rest/POLocator/findLocations", "@spider": "usps_collection_boxes", "addr:city": "JERSEY CITY", "addr:country": "US", "addr:postcode": "07310", "addr:state": "NJ", "addr:street_address": "125 18TH ST", "amenity": "post_box", "brand": "United States Postal Service", "brand:wikidata": "Q668687", "collection_times": "Mo-Sa 11:00", "nsi_id": "unitedstatespostalservice-a77078", "operator": "United States Postal Service", "operator:short": "USPS", "operator:type": "public", "operator:wikidata": "Q668687", "ref": "0731000009"}, "type": "Feature"}
{"geometry": {"coordinates": [-74.0351659, 40.726078], "type": "Point"}, "id": "VNW0-7LCJ02MaRG-JMRlTAD3Liw=", "properties": {"@source_uri": "https://tools.usps.com/UspsToolsRestServices/rest/POLocator/findLocations", "@spider": "usps_collection_boxes", "addr:city": "JERSEY CITY", "addr:country": "US", "addr:postcode": "07310", "addr:state": "NJ", "addr:street_address": "499 WASHINGTON BLVD", "amenity": "post_box", "brand": "United States Postal Service", "brand:wikidata": "Q668687", "collection_times": "Mo-Sa 13:00", "note": "ON 12/24 AND 12/31, THIS BOX MAY BE COLLECTED AS EARLY AS 12 NOON.", "nsi_id": "unitedstatespostalservice-a77078", "operator": "United States Postal Service", "operator:short": "USPS", "operator:type": "public", "operator:wikidata": "Q668687", "ref": "0731000011"}, "type": "Feature"}
{"geometry": {"coordinates": [-74.0339499, 40.726663], "type": "Point"}, "id": "P8hvsPjKz82ASRL6u5pmdu4TMzQ=", "properties": {"@source_uri": "https://tools.usps.com/UspsToolsRestServices/rest/POLocator/findLocations", "@spider": "usps_collection_boxes", "addr:city": "JERSEY CITY", "addr:country": "US", "addr:postcode": "07310", "addr:state": "NJ", "addr:street_address": "111 PAVONIA AVE", "amenity": "post_box", "brand": "United States Postal Service", "brand:wikidata": "Q668687", "collection_times": "Mo-Sa 13:00", "note": "ON 12/24 AND 12/31, THIS BOX MAY BE COLLECTED AS EARLY AS 12 NOON.", "nsi_id": "unitedstatespostalservice-a77078", "operator": "United States Postal Service", "operator:short": "USPS", "operator:type": "public", "operator:wikidata": "Q668687", "ref": "0731000013"}, "type": "Feature"}
