{"geometry": {"coordinates": [-74.1613861073, 40.9090622858], "type": "Point"}, "id": "1CCBlgkCPw1uOmNWNVXOcqQJqu4=", "properties": {"@source_uri": "https://tools.usps.com/UspsToolsRestServices/rest/POLocator/findLocations", "@spider": "usps_collection_boxes", "addr:city": "PATERSON", "addr:country": "US", "addr:postcode": "07501", "addr:state": "NJ", "addr:street_address": "195 20TH AVE", "amenity": "post_box", "brand": "United States Postal Service", "brand:wikidata": "Q668687", "collection_times": "Mo-Sa 10:00", "nsi_id": "unitedstatespostalservice-a77078", "operator": "United States Postal Service", "operator:short": "USPS", "operator:type": "public", "operator:wikidata": "Q668687", "ref": "0750100000"}, "type": "Feature"}
{"geometry": {"coordinates": [-74.1806232, 40.905058], "type": "Point"}, "id": "LvrianaMP3DWoZa3yV0z7bN2tc8=", "properties": {"@source_uri": "https://tools.usps.com/UspsToolsRestServices/rest/POLocator/findLocations", "@spider": "usps_collection_boxes", "addr:city": "PATERSON", "addr:country": "US", "addr:postcode": "07501", "addr:state": "NJ", "addr:street_address": "1 BOULDER RUN RD", "amenity": "post_box", "brand": "United States Postal Service", "brand:wikidata": "Q668687", "collection_times": "Mo-Sa 14:00", "note": "ON 12/24 AND 12/31, THIS BOX MAY BE COLLECTED AS EARLY AS 12 NOON.", "nsi_id": "unitedstatespostalservice-a77078", "operator": "United States Postal Service", "operator:short": "USPS", "operator:type": "public", "operator:wikidata": "Q668687", "ref": "0750100002"}, "type": "Feature"}
{"geometry": {"coordinates": [-74.159125457, 40.918600076], "type": "Point"}, "id": "H_7ygTdhiAYiH1EyJ11JxPWvybs=", "properties": {"@source_uri": "https://tools.usps.com/UspsToolsRestServices/rest/POLocator/findLocations", "@spider": "usps_collection_boxes", "addr:city": "PATERSON", "addr:country": "US", "addr:postcode": "07501", "addr:state": "NJ", "addr:street_address": "361 BROADWAY", "amenity": "post_box", "brand": "United States Postal Service", "brand:wikidata": "Q668687", "collection_times": "Mo-Sa 10:00", "nsi_id": "unitedstatespostalservice-a77078", "operator": "United States Postal Service", "operator:short": "USPS", "operator:type": "public", "operator:wikidata": "Q668687", "ref": "0750100003"}, "type": "Feature"}
{"geometry": {"coordinates": [-74.1619009, 40.917178], "type": "Point"}, "id": "dMQW36EiuFDUFCFIopDP7Eee7NA=", "properties": {"@source_uri": "https://tools.usps.com/UspsToolsRestServices/rest/POLocator/findLocations", "@spider": "usps_collection_boxes", "addr:city": "PATERSON", "addr:country": "US", "addr:postcode": "07501", "addr:state": "NJ", "addr:street_address": "199 CARROLL ST", "amenity": "post_box", "brand": "United States Postal Service", "brand:wikidata": "Q668687", "collection_times": "Mo-Sa 10:00", "nsi_id": "unitedstatespostalservice-a77078", "operator": "United States Postal Service", "operator:short": "USPS", "operator:type": "public", "operator:wikidata": "Q668687", "ref": "0750100009"}, "type": "Feature"}
{"geometry": {"coordinates": [-74.1766305, 40.916789], "type": "Point"}, "id": "TK7Qwfv29s1xSlGZSCUM7jpYNf4=", "properties": {"@source_uri": "https://tools.usps.com/UspsToolsRestServices/rest/POLocator/findLocations", "@spider": "usps_collection_boxes", "addr:city": "PATERSON", "addr:country": "US", "addr:postcode": "07501", "addr:state": "NJ", "addr:street_address": "22 ELLISON ST # 26", "amenity": "post_box", "brand": "United States Postal Service", "brand:wikidata": "Q668687", "collection_times": "Mo-Sa 14:30", "note": "ON 12/24 AND 12/31, THIS BOX MAY BE COLLECTED AS EARLY AS 12 NOON.", "nsi_id": "unitedstatespostalservice-a77078", "operator": "United States Postal Service", "operator:short": "USPS", "operator:type": "public", "operator:wikidata": "Q668687", "ref": "0750100010"}, "type": "Feature"}
{"geometry": {"coordinates": [-74.1703273, 40.921019], "type": "Point"}, "id": "uHPm83_lZ_dVOf8r790afHm7JvU=", "properties": {"@source_uri": "https://tools.usps.com/UspsToolsRestServices/rest/POLocator/findLocations", "@spider": "usps_collection_boxes", "addr:city": "PATERSON", "addr:country": "US", "addr:postcode": "07501", "addr:state": "NJ", "addr:street_address": "52 GODWIN ST", "amenity": "post_box", "brand": "United States Postal Service", "brand:wikidata": "Q668687", "collection_times": "Mo-Sa 14:30", "note": "ON 12/24 AND 12/31, THIS BOX MAY BE COLLECTED AS EARLY AS 12 NOON.", "nsi_id": "unitedstatespostalservice-a77078", "operator": "United States Postal Service", "operator:short": "USPS", "operator:type": "public", "operator:wikidata": "Q668687", "ref": "0750100011"}, "type": "Feature"}
{"geometry": {"coordinates": [-74.1576321, 40.906674], "type": "Point"}, "id": "CuKA0AgE-ApeqwZfDnsG-CbVJc4=", "properties": {"@source_uri": "https://tools.usps.com/UspsToolsRestServices/rest/POLocator/findLocations", "@spider": "usps_collection_boxes", "addr:city": "PATERSON", "addr:country": "US", "addr:postcode": "07501", "addr:state": "NJ", "addr:street_address": "1008 MADISON AVE", "amenity": "post_box", "brand": "United States Postal Service", "brand:wikidata": "Q668687", "collection_times": "Mo-Sa 10:00", "nsi_id": "unitedstatespostalservice-a77078", "operator": "United States Postal Service", "operator:short": "USPS", "operator:type": "public", "operator:wikidata": "Q668687", "ref": "0750100014"}, "type": "Feature"}
{"geometry": {"coordinates": [-74.183812806, 40.9115050424], "type": "Point"}, "id": "7BZUJ43pUSL7-rBuJO9dvKP0-JM=", "properties": {"@source_uri": "https://tools.usps.com/UspsToolsRestServices/rest/POLocator/findLocations", "@spider": "usps_collection_boxes", "addr:city": "PATERSON", "addr:country": "US", "addr:postcode": "07501", "addr:state": "NJ", "addr:street_address": "209 MCBRIDE AVE", "amenity": "post_box", "brand": "United States Postal Service", "brand:wikidata": "Q668687", "collection_times": "Mo-Sa 09:00", "nsi_id": "unitedstatespostalservice-a77078", "operator": "United States Postal Service", "operator:short": "USPS", "operator:type": "public", "operator:wikidata": "Q668687", "ref": "0750100020"}, "type": "Feature"}
{"geometry": {"coordinates": [-74.1637979607, 40.9116529864], "type": "Point"}, "id": "BgrX0i4ZKifm77VKRJSUhHx32ys=", "properties": {"@source_uri": "https://tools.usps.com/UspsToolsRestServices/rest/POLocator/findLocations", "@spider": "usps_collection_boxes", "addr:city": "PATERSON", "addr:country": "US", "addr:postcode": "07501", "addr:state": "NJ", "addr:street_address": "55 OAK ST", "amenity": "post_box", "brand": "United States Postal Service", "brand:wikidata": "Q668687", "collection_times": "Mo-Sa 14:30", "note": "ON 12/24 AND 12/31, THIS BOX MAY BE COLLECTED AS EARLY AS 12 NOON.", "nsi_id": "unitedstatespostalservice-a77078", "operator": "United States Postal Service", "operator:short": "USPS", "operator:type": "public", "operator:wikidata": "Q668687", "ref": "0750100023"}, "type": "Feature"}
{"geometry": {"coordinates": [-74.1782926, 40.912226], "type": "Point"}, "id": "iFJQMTe_acZ4nQcGNSBOWK0mx0I=", "properties": {"@source_uri": "https://tools.usps.com/UspsToolsRestServices/rest/POLocator/findLocations", "@spider": "usps_collection_boxes", "addr:city": "PATERSON", "addr:country": "US", "addr:postcode": "07501", "addr:state": "NJ", "addr:street_address": "101 OLIVER ST", "amenity": "post_box", "brand": "United States Postal Service", "brand:wikidata": "Q668687", "collection_times": "Mo-Sa 10:00", "nsi_id": "unitedstatespostalservice-a77078", "operator": "United States Postal Service", "operator:short": "USPS", "operator:type": "public", "operator:wikidata": "Q668687", "ref": "0750100024"}, "type": "Feature"}
{"geometry": {"coordinates": [-74.158766794, 40.925638121], "type": "Point"}, "id": "ICSRrazURbXKsAo9n80ld094_QE=", "properties": {"@source_uri": "https://tools.usps.com/UspsToolsRestServices/rest/POLocator/findLocations", "@spider": "usps_collection_boxes", "addr:city": "PATERSON", "addr:country": "US", "addr:postcode": "07501", "addr:state": "NJ", "addr:street_address": "92 ROSA PARK BLVD", "amenity": "post_box", "brand": "United States Postal Service", "brand:wikidata": "Q668687", "collection_times": "Mo-Sa 10:00", "nsi_id": "unitedstatespostalservice-a77078", "operator": "United States Postal Service", "operator:short": "USPS", "operator:type": "public", "operator:wikidata": "Q668687", "ref": "0750100027"}, "type": "Feature"}
{"geometry": {"coordinates": [-74.1717768, 40.910943], "type": "Point"}, "id": "GF25mgjc6G3S3UxzJ6fK1gh4kK4=", "properties": {"@source_uri": "https://tools.usps.com/UspsToolsRestServices/rest/POLocator/findLocations", "@spider": "usps_collection_boxes", "addr:city": "PATERSON", "addr:country": "US", "addr:postcode": "07501", "addr:state": "NJ", "addr:street_address": "210 SLATER ST", "amenity": "post_box", "brand": "United States Postal Service", "brand:wikidata": "Q668687", "collection_times": "Mo-Sa 13:30", "note": "ON 12/24 AND 12/31, THIS BOX MAY BE COLLECTED AS EARLY AS 12 NOON.", "nsi_id": "unitedstatespostalservice-a77078", "operator": "United States Postal Service", "operator:short": "USPS", "operator:type": "public", "operator:wikidata": "Q668687", "ref": "0750100028"}, "type": "Feature"}
{"geometry": {"coordinates": [-74.1900381, 40.92129], "type": "Point"}, "id": "R76eMizHws00KWzFmB7IXEbS7uw=", "properties": {"@source_uri": "https://tools.usps.com/UspsToolsRestServices/rest/POLocator/findLocations", "@spider": "usps_collection_boxes", "addr:city": "PATERSON", "addr:country": "US", "addr:postcode": "07502", "addr:state": "NJ", "addr:street_address": "145 MANCHESTER AVE", "amenity": "post_box", "brand": "United States Postal Service", "brand:wikidata": "Q668687", "collection_times": "Mo-Sa 09:00", "nsi_id": "unitedstatespostalservice-a77078", "operator": "United States Postal Service", "operator:short": "USPS", "operator:type": "public", "operator:wikidata": "Q668687", "ref": "0750200009"}, "type": "Feature"}
{"geometry": {"coordinates": [-74.185274995, 40.9180800202], "type": "Point"}, "id": "2C-kNQMdms1E43Z_zIsQVgOZKrs=", "properties": {"@source_uri": "https://tools.usps.com/UspsToolsRestServices/rest/POLocator/findLocations", "@spider": "usps_collection_boxes", "addr:city": "PATERSON", "addr:country": "US", "addr:postcode": "07502", "addr:state": "NJ", "addr:street_address": "359 TOTOWA AVE", "amenity": "post_box", "brand": "United States Postal Service", "brand:wikidata": "Q668687", "collection_times": "Mo-Sa 10:00", "nsi_id": "unitedstatespostalservice-a77078", "operator": "United States Postal Service", "operator:short": "USPS", "operator:type": "public", "operator:wikidata": "Q668687", "ref": "0750200017"}, "type": "Feature"}
{"geometry": {"coordinates": [-74.1940816364, 40.9160439027], "type": "Point"}, "id": "MWHRXCzy92dGp9VT-h8jg_vuwwM=", "properties": {"@source_uri": "https://tools.usps.com/UspsToolsRestServices/rest/POLocator/findLocations", "@spider": "usps_collection_boxes", "addr:city": "PATERSON", "addr:country": "US", "addr:postcode": "07502", "addr:state": "NJ", "addr:street_address": "81 BERKSHIRE AVE", "amenity": "post_box", "brand": "United States Postal Service", "brand:wikidata": "Q668687", "collection_times": "Mo-Sa 09:00", "nsi_id": "unitedstatespostalservice-a77078", "operator": "United States Postal Service", "operator:short": "USPS", "operator:type": "public", "operator:wikidata": "Q668687", "ref": "0750200018"}, "type": "Feature"}
{"geometry": {"coordinates": [-74.1598478, 40.895046], "type": "Point"}, "id": "x8zwRQi0U1btgiopoOsJ50aClWY=", "properties": {"@source_uri": "https://tools.usps.com/UspsToolsRestServices/rest/POLocator/findLocations", "@spider": "usps_collection_boxes", "addr:city": "PATERSON", "addr:country": "US", "addr:postcode": "07503", "addr:state": "NJ", "addr:street_address": "958 MAIN ST STE 1", "amenity": "post_box", "brand": "United States Postal Service", "brand:wikidata": "Q668687", "collection_times": "Mo-Sa 17:00", "note": "ON 12/24 AND 12/31, THIS BOX MAY BE COLLECTED AS EARLY AS 12 NOON.", "nsi_id": "unitedstatespostalservice-a77078", "operator": "United States Postal Service", "operator:short": "USPS", "operator:type": "public", "operator:wikidata": "Q668687", "ref": "0750300000"}, "type": "Feature"}
{"geometry": {"coordinates": [-74.1581919, 40.892052], "type": "Point"}, "id": "jrYDi3hSHfdc0l6CDCgzvzeUtxo=", "properties": {"@source_uri": "https://tools.usps.com/UspsToolsRestServices/rest/POLocator/findLocations", "@spider": "usps_collection_boxes", "addr:city": "PATERSON", "addr:country": "US", "addr:postcode": "07503", "addr:state": "NJ", "addr:street_address": "70 DEY ST", "amenity": "post_box", "brand": "United States Postal Service", "brand:wikidata": "Q668687", "collection_times": "Mo-Sa 10:00", "nsi_id": "unitedstatespostalservice-a77078", "operator": "United States Postal Service", "operator:short": "USPS", "operator:type": "public", "operator:wikidata": "Q668687", "ref": "0750300007"}, "type": "Feature"}
{"geometry": {"coordinates": [-74.1536847, 40.89178], "type": "Point"}, "id": "tKqNYcf2NkRNdpzGiq75OlpXH0k=", "properties": {"@source_uri": "https://tools.usps.com/UspsToolsRestServices/rest/POLocator/findLocations", "@spider": "usps_collection_boxes", "addr:city": "PATERSON", "addr:country": "US", "addr:postcode": "07503", "addr:state": "NJ", "addr:street_address": "473 GETTY AVE", "amenity": "post_box", "brand": "United States Postal Service", "brand:wikidata": "Q668687", "collection_times": "Mo-Sa 10:00", "nsi_id": "unitedstatespostalservice-a77078", "operator": "United States Postal Service", "operator:short": "USPS", "operator:type": "public", "operator:wikidata": "Q668687", "ref": "0750300010"}, "type": "Feature"}
{"geometry": {"coordinates": [-74.14056916, 40.896456727], "type": "Point"}, "id": "3ewSUICxKVJw8o8QycvTSe6aCdQ=", "properties": {"@source_uri": "https://tools.usps.com/UspsToolsRestServices/rest/POLocator/findLocations", "@spider": "usps_collection_boxes", "addr:city": "PATERSON", "addr:country": "US", "addr:postcode": "07503", "addr:state": "NJ", "addr:street_address": "172 LAKEVIEW AVE", "amenity": "post_box", "brand": "United States Postal Service", "brand:wikidata": "Q668687", "collection_times": "Mo-Sa 10:00", "nsi_id": "unitedstatespostalservice-a77078", "operator": "United States Postal Service", "operator:short": "USPS", "operator:type": "public", "operator:wikidata": "Q668687", "ref": "0750300011"}, "type": "Feature"}
{"geometry": {"coordinates": [-74.1605952, 40.899166], "type": "Point"}, "id": "pt0JgYy51WBpYhCZ2lCOxLy6uOY=", "properties": {"@source_uri": "https://tools.usps.com/UspsToolsRestServices/rest/POLocator/findLocations", "@spider": "usps_collection_boxes", "addr:city": "PATERSON", "addr:country": "US", "addr:postcode": "07503", "addr:state": "NJ", "addr:street_address": "1171 MADISON AVE", "amenity": "post_box", "brand": "United States Postal Service", "brand:wikidata": "Q668687", "collection_times": "Mo-Sa 10:00", "nsi_id": "unitedstatespostalservice-a77078", "operator": "United States Postal Service", "operator:short": "USPS", "operator:type": "public", "operator:wikidata": "Q668687", "ref": "0750300013"}, "type": "Feature"}
{"geometry": {"coordinates": [-74.1677294, 40.903324], "type": "Point"}, "id": "JOx9RxGmy40pOZTcGQXEXc7CeGI=", "properties": {"@source_uri": "https://tools.usps.com/UspsToolsRestServices/rest/POLocator/findLocations", "@spider": "usps_collection_boxes", "addr:city": "PATERSON", "addr:country": "US", "addr:postcode": "07503", "addr:state": "NJ", "addr:street_address": "645 MAIN ST", "amenity": "post_box", "brand": "United States Postal Service", "brand:wikidata": "Q668687", "collection_times": "Mo-Sa 10:00", "nsi_id": "unitedstatespostalservice-a77078", "operator": "United States Postal Service", "operator:short": "USPS", "operator:type": "public", "operator:wikidata": "Q668687", "ref": "0750300017"}, "type": "Feature"}
{"geometry": {"coordinates": [-74.1599143, 40.89497], "type": "Point"}, "id": "4TS7N0TJM1d_EgtA8pg-a6Hsjtc=", "properties": {"@source_uri": "https://tools.usps.com/UspsToolsRestServices/rest/POLocator/findLocations", "@spider": "usps_collection_boxes", "addr:city": "PATERSON", "addr:country": "US", "addr:postcode": "07503", "addr:state": "NJ", "addr:street_address": "958 MAIN ST STE 1", "amenity": "post_box", "brand": "United States Postal Service", "brand:wikidata": "Q668687", "collection_times": "Mo-Fr 17:00; Sa 13:00", "indoor": "yes", "note": "ON 12/24 AND 12/31, THIS BOX MAY BE COLLECTED AS EARLY AS 12 NOON.", "nsi_id": "unitedstatespostalservice-a77078", "operator": "United States Postal Service", "operator:short": "USPS", "operator:type": "public", "operator:wikidata": "Q668687", "ref": "0750300027"}, "type": "Feature"}
{"geometry": {"coordinates": [-74.159821596, 40.89496404], "type": "Point"}, "id": "mb_RsxjnY-0UtSXRMOty02NpB9w=", "properties": {"@source_uri": "https://tools.usps.com/UspsToolsRestServices/rest/POLocator/findLocations", "@spider": "usps_collection_boxes", "addr:city": "PATERSON", "addr:country": "US", "addr:postcode": "07503", "addr:state": "NJ", "addr:street_address": "958 MAIN ST STE 1", "amenity": "post_box", "brand": "United States Postal Service", "brand:wikidata": "Q668687", "collection_times": "Mo-Fr 17:00", "indoor": "yes", "note": "ON 12/24 AND 12/31, THIS BOX MAY BE COLLECTED AS EARLY AS 12 NOON.", "nsi_id": "unitedstatespostalservice-a77078", "operator": "United States Postal Service", "operator:short": "USPS", "operator:type": "public", "operator:wikidata": "Q668687", "ref": "0750300028"}, "type": "Feature"}
{"geometry": {"coordinates": [-74.136803726, 40.911313777], "type": "Point"}, "id": "7bS_cJvSu3qsk5_Jz40P1EEHknA=", "properties": {"@source_uri": "https://tools.usps.com/UspsToolsRestServices/rest/POLocator/findLocations", "@spider": "usps_collection_boxes", "addr:city": "PATERSON", "addr:country": "US", "addr:postcode": "07504", "addr:state": "NJ", "addr:street_address": "467 17TH AVE", "amenity": "post_box", "brand": "United States Postal Service", "brand:wikidata": "Q668687", "collection_times": "Mo-Sa 13:00", "note": "ON 12/24 AND 12/31, THIS BOX MAY BE COLLECTED AS EARLY AS 12 NOON.", "nsi_id": "unitedstatespostalservice-a77078", "operator": "United States Postal Service", "operator:short": "USPS", "operator:type": "public", "operator:wikidata": "Q668687", "ref": "0750400001"}, "type": "Feature"}
{"geometry": {"coordinates": [-74.1438157, 40.91814], "type": "Point"}, "id": "mIseCGG9vXcXqWxj9IflQtC4ZhI=", "properties": {"@source_uri": "https://tools.usps.com/UspsToolsRestServices/rest/POLocator/findLocations", "@spider": "usps_collection_boxes", "addr:city": "PATERSON", "addr:country": "US", "addr:postcode": "07504", "addr:state": "NJ", "addr:street_address": "680 BROADWAY", "amenity": "post_box", "brand": "United States Postal Service", "brand:wikidata": "Q668687", "collection_times": "Mo-Sa 11:00", "nsi_id": "unitedstatespostalservice-a77078", "operator": "United States Postal Service", "operator:short": "USPS", "operator:type": "public", "operator:wikidata": "Q668687", "ref": "0750400002"}, "type": "Feature"}
{"geometry": {"coordinates": [-74.1704763, 40.918968], "type": "Point"}, "id": "LX_k02MnLD9zZrjBGrHfAs9IVbY=", "properties": {"@source_uri": "https://tools.usps.com/UspsToolsRestServices/rest/POLocator/findLocations", "@spider": "usps_collection_boxes", "addr:city": "PATERSON", "addr:country": "US", "addr:postcode": "07505", "addr:state": "NJ", "addr:street_address": "111 BROADWAY", "amenity": "post_box", "brand": "United States Postal Service", "brand:wikidata": "Q668687", "collection_times": "Mo-Sa 10:00", "nsi_id": "unitedstatespostalservice-a77078", "operator": "United States Postal Service", "operator:short": "USPS", "operator:type": "public", "operator:wikidata": "Q668687", "ref": "0750500004"}, "type": "Feature"}
{"geometry": {"coordinates": [-74.1733188, 40.919062], "type": "Point"}, "id": "tiJ6hyBblrIoUcFoWAjERjzabpE=", "properties": {"@source_uri": "https://tools.usps.com/UspsToolsRestServices/rest/POLocator/findLocations", "@spider": "usps_collection_boxes", "addr:city": "PATERSON", "addr:country": "US", "addr:postcode": "07505", "addr:state": "NJ", "addr:street_address": "2 W BROADWAY # 2", "amenity": "post_box", "brand": "United States Postal Service", "brand:wikidata": "Q668687", "collection_times": "Mo-Sa 10:00", "nsi_id": "unitedstatespostalservice-a77078", "operator": "United States Postal Service", "operator:short": "USPS", "operator:type": "public", "operator:wikidata": "Q668687", "ref": "0750500006"}, "type": "Feature"}
{"geometry": {"coordinates": [-74.1725557, 40.912507], "type": "Point"}, "id": "FMyYecDLgt6hzIknxuzeuxGXeTk=", "properties": {"@source_uri": "https://tools.usps.com/UspsToolsRestServices/rest/POLocator/findLocations", "@spider": "usps_collection_boxes", "addr:city": "PATERSON", "addr:country": "US", "addr:postcode": "07505", "addr:state": "NJ", "addr:street_address": "381 GRAND ST", "amenity": "post_box", "brand": "United States Postal Service", "brand:wikidata": "Q668687", "collection_times": "Mo-Sa 10:00", "nsi_id": "unitedstatespostalservice-a77078", "operator": "United States Postal Service", "operator:short": "USPS", "operator:type": "public", "operator:wikidata": "Q668687", "ref": "0750500014"}, "type": "Feature"}
{"geometry": {"coordinates": [-74.1703221, 40.915634], "type": "Point"}, "id": "EBJ-T8vb_83ot08_mepZGWgwtbA=", "properties": {"@source_uri": "https://tools.usps.com/UspsToolsRestServices/rest/POLocator/findLocations", "@spider": "usps_collection_boxes", "addr:city": "PATERSON", "addr:country": "US", "addr:postcode": "07505", "addr:state": "NJ", "addr:street_address": "100 HAMILTON PLZ", "amenity": "post_box", "brand": "United States Postal Service", "brand:wikidata": "Q668687", "collection_times": "Mo-Sa 10:00", "nsi_id": "unitedstatespostalservice-a77078", "operator": "United States Postal Service", "operator:short": "USPS", "operator:type": "public", "operator:wikidata": "Q668687", "ref": "0750500016"}, "type": "Feature"}
{"geometry": {"coordinates": [-74.171872313, 40.914253321], "type": "Point"}, "id": "9cRRHi-UrtBpb0FjSFdKZMBENOY=", "properties": {"@source_uri": "https://tools.usps.com/UspsToolsRestServices/rest/POLocator/findLocations", "@spider": "usps_collection_boxes", "addr:city": "PATERSON", "addr:country": "US", "addr:postcode": "07505", "addr:state": "NJ", "addr:street_address": "64 HAMILTON ST", "amenity": "post_box", "brand": "United States Postal Service", "brand:wikidata": "Q668687", "collection_times": "Mo-Sa 10:00", "nsi_id": "unitedstatespostalservice-a77078", "operator": "United States Postal Service", "operator:short": "USPS", "operator:type": "public", "operator:wikidata": "Q668687", "ref": "0750500018"}, "type": "Feature"}
{"geometry": {"coordinates": [-74.1716114968, 40.91390572], "type": "Point"}, "id": "IJRFysr7zAWgnLmcG1olEhLlO54=", "properties": {"@source_uri": "https://tools.usps.com/UspsToolsRestServices/rest/POLocator/findLocations", "@spider": "usps_collection_boxes", "addr:city": "PATERSON", "addr:country": "US", "addr:postcode": "07505", "addr:state": "NJ", "addr:street_address": "77 HAMILTON ST", "amenity": "post_box", "brand": "United States Postal Service", "brand:wikidata": "Q668687", "collection_times": "Mo-Sa 10:00", "nsi_id": "unitedstatespostalservice-a77078", "operator": "United States Postal Service", "operator:short": "USPS", "operator:type": "public", "operator:wikidata": "Q668687", "ref": "0750500019"}, "type": "Feature"}
{"geometry": {"coordinates": [-74.173208, 40.916348], "type": "Point"}, "id": "ENjpeN8xTJB3WIe2bq2W0iMKgh8=", "properties": {"@source_uri": "https://tools.usps.com/UspsToolsRestServices/rest/POLocator/findLocations", "@spider": "usps_collection_boxes", "addr:city": "PATERSON", "addr:country": "US", "addr:postcode": "07505", "addr:state": "NJ", "addr:street_address": "244 MAIN ST", "amenity": "post_box", "brand": "United States Postal Service", "brand:wikidata": "Q668687", "collection_times": "Mo-Sa 10:00", "nsi_id": "unitedstatespostalservice-a77078", "operator": "United States Postal Service", "operator:short": "USPS", "operator:type": "public", "operator:wikidata": "Q668687", "ref": "0750500021"}, "type": "Feature"}
{"geometry": {"coordinates": [-74.1732519, 40.913809], "type": "Point"}, "id": "6YhhFGdB15kG7u_-qxF6EjnnFI8=", "properties": {"@source_uri": "https://tools.usps.com/UspsToolsRestServices/rest/POLocator/findLocations", "@spider": "usps_collection_boxes", "addr:city": "PATERSON", "addr:country": "US", "addr:postcode": "07505", "addr:state": "NJ", "addr:street_address": "329 MAIN ST", "amenity": "post_box", "brand": "United States Postal Service", "brand:wikidata": "Q668687", "collection_times": "Mo-Sa 10:00", "nsi_id": "unitedstatespostalservice-a77078", "operator": "United States Postal Service", "operator:short": "USPS", "operator:type": "public", "operator:wikidata": "Q668687", "ref": "0750500023"}, "type": "Feature"}
{"geometry": {"coordinates": [-74.1471768891, 40.9687409175], "type": "Point"}, "id": "4cSd8LsH59oCh3JzMyDiYHvLWLc=", "properties": {"@source_uri": "https://tools.usps.com/UspsToolsRestServices/rest/POLocator/findLocations", "@spider": "usps_collection_boxes", "addr:city": "HAWTHORNE", "addr:country": "US", "addr:postcode": "07506", "addr:state": "NJ", "addr:street_address": "100 ROCK RD", "amenity": "post_box", "brand": "United States Postal Service", "brand:wikidata": "Q668687", "collection_times": "Mo-Sa 14:00", "note": "ON 12/24 AND 12/31, THIS BOX MAY BE COLLECTED AS EARLY AS 12 NOON.", "nsi_id": "unitedstatespostalservice-a77078", "operator": "United States Postal Service", "operator:short": "USPS", "operator:type": "public", "operator:wikidata": "Q668687", "ref": "0750600001"}, "type": "Feature"}
{"geometry": {"coordinates": [-74.1553569, 40.953654], "type": "Point"}, "id": "h1zZCPeQzA98_iKb-7lnmqaR27E=", "properties": {"@source_uri": "https://tools.usps.com/UspsToolsRestServices/rest/POLocator/findLocations", "@spider": "usps_collection_boxes", "addr:city": "HAWTHORNE", "addr:country": "US", "addr:postcode": "07506", "addr:state": "NJ", "addr:street_address": "445 LAFAYETTE AVE", "amenity": "post_box", "brand": "United States Postal Service", "brand:wikidata": "Q668687", "collection_times": "Mo-Sa 11:00", "nsi_id": "unitedstatespostalservice-a77078", "operator": "United States Postal Service", "operator:short": "USPS", "operator:type": "public", "operator:wikidata": "Q668687", "ref": "0750600003"}, "type": "Feature"}
{"geometry": {"coordinates": [-74.149189009, 40.963722102], "type": "Point"}, "id": "lFWr63TrFcLRCX6rA0iG-ANcCgg=", "properties": {"@source_uri": "https://tools.usps.com/UspsToolsRestServices/rest/POLocator/findLocations", "@spider": "usps_collection_boxes", "addr:city": "HAWTHORNE", "addr:country": "US", "addr:postcode": "07506", "addr:state": "NJ", "addr:street_address": "252 VAN WINKLE AVE", "amenity": "post_box", "brand": "United States Postal Service", "brand:wikidata": "Q668687", "collection_times": "Mo-Sa 11:00", "nsi_id": "unitedstatespostalservice-a77078", "operator": "United States Postal Service", "operator:short": "USPS", "operator:type": "public", "operator:wikidata": "Q668687", "ref": "0750600007"}, "type": "Feature"}
{"geometry": {"coordinates": [-74.155415326, 40.954744758], "type": "Point"}, "id": "LD0wx-_jUXz78vwGgYgbFB5nI78=", "properties": {"@source_uri": "https://tools.usps.com/UspsToolsRestServices/rest/POLocator/findLocations", "@spider": "usps_collection_boxes", "addr:city": "HAWTHORNE", "addr:country": "US", "addr:postcode": "07506", "addr:state": "NJ", "addr:street_address": "485 LAFAYETTE AVE", "amenity": "post_box", "brand": "United States Postal Service", "brand:wikidata": "Q668687", "collection_times": "Mo-Sa 10:30", "nsi_id": "unitedstatespostalservice-a77078", "operator": "United States Postal Service", "operator:short": "USPS", "operator:type": "public", "operator:wikidata": "Q668687", "ref": "0750600014"}, "type": "Feature"}
{"geometry": {"coordinates": [-74.156279048, 40.962829631], "type": "Point"}, "id": "Mix_IswECFEzy3cUJbdRJykF6Ac=", "properties": {"@source_uri": "https://tools.usps.com/UspsToolsRestServices/rest/POLocator/findLocations", "@spider": "usps_collection_boxes", "addr:city": "HAWTHORNE", "addr:country": "US", "addr:postcode": "07506", "addr:state": "NJ", "addr:street_address": "720 LAFAYETTE AVE", "amenity": "post_box", "brand": "United States Postal Service", "brand:wikidata": "Q668687", "collection_times": "Mo-Sa 13:00", "note": "ON 12/24 AND 12/31, THIS BOX MAY BE COLLECTED AS EARLY AS 12 NOON.", "nsi_id": "unitedstatespostalservice-a77078", "operator": "United States Postal Service", "operator:short": "USPS", "operator:type": "public", "operator:wikidata": "Q668687", "ref": "0750600017"}, "type": "Feature"}
{"geometry": {"coordinates": [-74.169103308, 40.940718935], "type": "Point"}, "id": "tyfmFEYXw-RWGtccMGLi7rfW2bk=", "properties": {"@source_uri": "https://tools.usps.com/UspsToolsRestServices/rest/POLocator/findLocations", "@spider": "usps_collection_boxes", "addr:city": "HAWTHORNE", "addr:country": "US", "addr:postcode": "07506", "addr:state": "NJ", "addr:street_address": "163 WESTERVELT AVE", "amenity": "post_box", "brand": "United States Postal Service", "brand:wikidata": "Q668687", "collection_times": "Mo-Sa 12:00", "nsi_id": "unitedstatespostalservice-a77078", "operator": "United States Postal Service", "operator:short": "USPS", "operator:type": "public", "operator:wikidata": "Q668687", "ref": "0750600021"}, "type": "Feature"}
{"geometry": {"coordinates": [-74.1534527, 40.948985], "type": "Point"}, "id": "EjZ5hBo7qfxvlPPHZS5KyItKuOE=", "properties": {"@source_uri": "https://tools.usps.com/UspsToolsRestServices/rest/POLocator/findLocations", "@spider": "usps_collection_boxes", "addr:city": "HAWTHORNE", "addr:country": "US", "addr:postcode": "07506", "addr:state": "NJ", "addr:street_address": "226 DIAMOND BRIDGE AVE # 1", "amenity": "post_box", "brand": "United States Postal Service", "brand:wikidata": "Q668687", "collection_times": "Mo-Sa 17:00", "note": "ON 12/24 AND 12/31, THIS BOX MAY BE COLLECTED AS EARLY AS 12 NOON.", "nsi_id": "unitedstatespostalservice-a77078", "operator": "United States Postal Service", "operator:short": "USPS", "operator:type": "public", "operator:wikidata": "Q668687", "ref": "0750600024"}, "type": "Feature"}
{"geometry": {"coordinates": [-74.1534681, 40.948986], "type": "Point"}, "id": "9mehzFu5XkWPPoIBxCsK5AeF8Ho=", "properties": {"@source_uri": "https://tools.usps.com/UspsToolsRestServices/rest/POLocator/findLocations", "@spider": "usps_collection_boxes", "addr:city": "HAWTHORNE", "addr:country": "US", "addr:postcode": "07506", "addr:state": "NJ", "addr:street_address": "226 DIAMOND BRIDGE AVE # 2", "amenity": "post_box", "brand": "United States Postal Service", "brand:wikidata": "Q668687", "collection_times": "Mo-Sa 17:00", "note": "ON 12/24 AND 12/31, THIS BOX MAY BE COLLECTED AS EARLY AS 12 NOON.", "nsi_id": "unitedstatespostalservice-a77078", "operator": "United States Postal Service", "operator:short": "USPS", "operator:type": "public", "operator:wikidata": "Q668687", "ref": "0750600025"}, "type": "Feature"}
{"geometry": {"coordinates": [-74.1532286246, 40.9490263726], "type": "Point"}, "id": "Q5J1skKNaeLv6aW5B2_vD-AGSg0=", "properties": {"@source_uri": "https://tools.usps.com/UspsToolsRestServices/rest/POLocator/findLocations", "@spider": "usps_collection_boxes", "addr:city": "HAWTHORNE", "addr:country": "US", "addr:postcode": "07506", "addr:state": "NJ", "addr:street_address": "226 DIAMOND BRIDGE AVE", "amenity": "post_box", "brand": "United States Postal Service", "brand:wikidata": "Q668687", "collection_times": "Mo-Sa 17:00", "note": "ON 12/24 AND 12/31, THIS BOX MAY BE COLLECTED AS EARLY AS 12 NOON.", "nsi_id": "unitedstatespostalservice-a77078", "operator": "United States Postal Service", "operator:short": "USPS", "operator:type": "public", "operator:wikidata": "Q668687", "ref": "0750600027"}, "type": "Feature"}
{"geometry": {"coordinates": [-74.153439, 40.948797], "type": "Point"}, "id": "jz6P9THtFEndnyKG5nWU2AI45bQ=", "properties": {"@source_uri": "https://tools.usps.com/UspsToolsRestServices/rest/POLocator/findLocations", "@spider": "usps_collection_boxes", "addr:city": "HAWTHORNE", "addr:country": "US", "addr:postcode": "07506", "addr:state": "NJ", "addr:street_address": "226 DIAMOND BRIDGE AVE", "amenity": "post_box", "brand": "United States Postal Service", "brand:wikidata": "Q668687", "collection_times": "Mo-Fr 17:00; Sa 16:00", "indoor": "yes", "note": "ON 12/24 AND 12/31, THIS BOX MAY BE COLLECTED AS EARLY AS 12 NOON.", "nsi_id": "unitedstatespostalservice-a77078", "operator": "United States Postal Service", "operator:short": "USPS", "operator:type": "public", "operator:wikidata": "Q668687", "ref": "0750600035"}, "type": "Feature"}
{"geometry": {"coordinates": [-74.153232789, 40.949011143], "type": "Point"}, "id": "ZmxhpVdXSf_P5NLbYr2TR4rpM4E=", "properties": {"@source_uri": "https://tools.usps.com/UspsToolsRestServices/rest/POLocator/findLocations", "@spider": "usps_collection_boxes", "addr:city": "HAWTHORNE", "addr:country": "US", "addr:postcode": "07506", "addr:state": "NJ", "addr:street_address": "226 DIAMOND BRIDGE AVE", "amenity": "post_box", "brand": "United States Postal Service", "brand:wikidata": "Q668687", "collection_times": "Mo-Fr 17:00; Sa 14:00", "indoor": "yes", "note": "ON 12/24 AND 12/31, THIS BOX MAY BE COLLECTED AS EARLY AS 12 NOON.", "nsi_id": "unitedstatespostalservice-a77078", "operator": "United States Postal Service", "operator:short": "USPS", "operator:type": "public", "operator:wikidata": "Q668687", "ref": "0750600037"}, "type": "Feature"}
{"geometry": {"coordinates": [-74.184279141, 40.953061018], "type": "Point"}, "id": "KccHwXrJXl32DRd9AJaOslxGWtI=", "properties": {"@source_uri": "https://tools.usps.com/UspsToolsRestServices/rest/POLocator/findLocations", "@spider": "usps_collection_boxes", "addr:city": "NORTH HALEDON", "addr:country": "US", "addr:postcode": "07508", "addr:state": "NJ", "addr:street_address": "103 OVERLOOK AVE", "amenity": "post_box", "brand": "United States Postal Service", "brand:wikidata": "Q668687", "collection_times": "Mo-Sa 10:00", "nsi_id": "unitedstatespostalservice-a77078", "operator": "United States Postal Service", "operator:short": "USPS", "operator:type": "public", "operator:wikidata": "Q668687", "ref": "0750800001"}, "type": "Feature"}
{"geometry": {"coordinates": [-74.1915042, 40.971945], "type": "Point"}, "id": "buHYQ8maKBKKlxzBef4eXGZRKtU=", "properties": {"@source_uri": "https://tools.usps.com/UspsToolsRestServices/rest/POLocator/findLocations", "@spider": "usps_collection_boxes", "addr:city": "NORTH HALEDON", "addr:country": "US", "addr:postcode": "07508", "addr:state": "NJ", "addr:street_address": "1070 HIGH MOUNTAIN RD", "amenity": "post_box", "brand": "United States Postal Service", "brand:wikidata": "Q668687", "collection_times": "Mo-Sa 10:00", "nsi_id": "unitedstatespostalservice-a77078", "operator": "United States Postal Service", "operator:short": "USPS", "operator:type": "public", "operator:wikidata": "Q668687", "ref": "0750800002"}, "type": "Feature"}
{"geometry": {"coordinates": [-74.1840855, 40.932278], "type": "Point"}, "id": "AVrymWzSkSZQXs2CPsgXi3xsYms=", "properties": {"@source_uri": "https://tools.usps.com/UspsToolsRestServices/rest/POLocator/findLocations", "@spider": "usps_collection_boxes", "addr:city": "NORTH HALEDON", "addr:country": "US", "addr:postcode": "07508", "addr:state": "NJ", "addr:street_address": "271 BELMONT AVE", "amenity": "post_box", "brand": "United States Postal Service", "brand:wikidata": "Q668687", "collection_times": "Mo-Sa 10:00", "nsi_id": "unitedstatespostalservice-a77078", "operator": "United States Postal Service", "operator:short": "USPS", "operator:type": "public", "operator:wikidata": "Q668687", "ref": "0750800008"}, "type": "Feature"}
{"geometry": {"coordinates": [-74.1847641, 40.940693], "type": "Point"}, "id": "iiMpIwdQmPtJwS3krRfyocOOhMo=", "properties": {"@source_uri": "https://tools.usps.com/UspsToolsRestServices/rest/POLocator/findLocations", "@spider": "usps_collection_boxes", "addr:city": "NORTH HALEDON", "addr:country": "US", "addr:postcode": "07508", "addr:state": "NJ", "addr:street_address": "510 BELMONT AVE", "amenity": "post_box", "brand": "United States Postal Service", "brand:wikidata": "Q668687", "collection_times": "Mo-Sa 10:00", "nsi_id": "unitedstatespostalservice-a77078", "operator": "United States Postal Service", "operator:short": "USPS", "operator:type": "public", "operator:wikidata": "Q668687", "ref": "0750800009"}, "type": "Feature"}
{"geometry": {"coordinates": [-74.190271733, 40.930222116], "type": "Point"}, "id": "1CGE-TYopaVoRA2YASmwRQgYqWo=", "properties": {"@source_uri": "https://tools.usps.com/UspsToolsRestServices/rest/POLocator/findLocations", "@spider": "usps_collection_boxes", "addr:city": "NORTH HALEDON", "addr:country": "US", "addr:postcode": "07508", "addr:state": "NJ", "addr:street_address": "522 W BROADWAY", "amenity": "post_box", "brand": "United States Postal Service", "brand:wikidata": "Q668687", "collection_times": "Mo-Sa 10:00", "nsi_id": "unitedstatespostalservice-a77078", "operator": "United States Postal Service", "operator:short": "USPS", "operator:type": "public", "operator:wikidata": "Q668687", "ref": "0750800010"}, "type": "Feature"}
{"geometry": {"coordinates": [-74.1731023, 40.930632], "type": "Point"}, "id": "huKJmUO5VIW0n9WQ65zgHR_GO20=", "properties": {"@source_uri": "https://tools.usps.com/UspsToolsRestServices/rest/POLocator/findLocations", "@spider": "usps_collection_boxes", "addr:city": "NORTH HALEDON", "addr:country": "US", "addr:postcode": "07508", "addr:state": "NJ", "addr:street_address": "124 HALEDON AVE", "amenity": "post_box", "brand": "United States Postal Service", "brand:wikidata": "Q668687", "collection_times": "Mo-Sa 10:00", "nsi_id": "unitedstatespostalservice-a77078", "operator": "United States Postal Service", "operator:short": "USPS", "operator:type": "public", "operator:wikidata": "Q668687", "ref": "0750800015"}, "type": "Feature"}
{"geometry": {"coordinates": [-74.183488265, 40.962098614], "type": "Point"}, "id": "xHxsZRRkGemXp0R-5446yc3oTfA=", "properties": {"@source_uri": "https://tools.usps.com/UspsToolsRestServices/rest/POLocator/findLocations", "@spider": "usps_collection_boxes", "addr:city": "NORTH HALEDON", "addr:country": "US", "addr:postcode": "07508", "addr:state": "NJ", "addr:street_address": "119 BROWN AVE", "amenity": "post_box", "brand": "United States Postal Service", "brand:wikidata": "Q668687", "collection_times": "Mo-Sa 10:00", "nsi_id": "unitedstatespostalservice-a77078", "operator": "United States Postal Service", "operator:short": "USPS", "operator:type": "public", "operator:wikidata": "Q668687", "ref": "0750800017"}, "type": "Feature"}
{"geometry": {"coordinates": [-74.181653481, 40.937646756], "type": "Point"}, "id": "xebRi1Iso6a00i6GAJf7GCndA1g=", "properties": {"@source_uri": "https://tools.usps.com/UspsToolsRestServices/rest/POLocator/findLocations", "@spider": "usps_collection_boxes", "addr:city": "NORTH HALEDON", "addr:country": "US", "addr:postcode": "07508", "addr:state": "NJ", "addr:street_address": "400 HALEDON AVE", "amenity": "post_box", "brand": "United States Postal Service", "brand:wikidata": "Q668687", "collection_times": "Mo-Sa 17:00", "note": "ON 12/24 AND 12/31, THIS BOX MAY BE COLLECTED AS EARLY AS 12 NOON.", "nsi_id": "unitedstatespostalservice-a77078", "operator": "United States Postal Service", "operator:short": "USPS", "operator:type": "public", "operator:wikidata": "Q668687", "ref": "0750800021"}, "type": "Feature"}
{"geometry": {"coordinates": [-74.181168, 40.938122], "type": "Point"}, "id": "81CaL2ayjwQPkbXfoFGuUa5_mjc=", "properties": {"@source_uri": "https://tools.usps.com/UspsToolsRestServices/rest/POLocator/findLocations", "@spider": "usps_collection_boxes", "addr:city": "NORTH HALEDON", "addr:country": "US", "addr:postcode": "07508", "addr:state": "NJ", "addr:street_address": "400 HALEDON AVE", "amenity": "post_box", "brand": "United States Postal Service", "brand:wikidata": "Q668687", "collection_times": "Mo-Fr 16:00; Sa 12:00", "indoor": "yes", "note": "ON 12/24 AND 12/31, THIS BOX MAY BE COLLECTED AS EARLY AS 12 NOON.", "nsi_id": "unitedstatespostalservice-a77078", "operator": "United States Postal Service", "operator:short": "USPS", "operator:type": "public", "operator:wikidata": "Q668687", "ref": "0750800026"}, "type": "Feature"}
{"geometry": {"coordinates": [-74.181653481, 40.937646756], "type": "Point"}, "id": "W-5YBZ7nzky4KLOPzYNtjCX0IY4=", "properties": {"@source_uri": "https://tools.usps.com/UspsToolsRestServices/rest/POLocator/findLocations", "@spider": "usps_collection_boxes", "addr:city": "NORTH HALEDON", "addr:country": "US", "addr:postcode": "07508", "addr:state": "NJ", "addr:street_address": "400 HALEDON AVE", "amenity": "post_box", "brand": "United States Postal Service", "brand:wikidata": "Q668687", "collection_times": "Mo-Fr 17:00; Sa 12:30", "indoor": "yes", "note": "ON 12/24 AND 12/31, THIS BOX MAY BE COLLECTED AS EARLY AS 12 NOON.", "nsi_id": "unitedstatespostalservice-a77078", "operator": "United States Postal Service", "operator:short": "USPS", "operator:type": "public", "operator:wikidata": "Q668687", "ref": "0750800029"}, "type": "Feature"}
{"geometry": {"coordinates": [-74.181982779, 40.957269513], "type": "Point"}, "id": "8k7OgAomFqOHy5Q6V-PtevQ5GXw=", "properties": {"@source_uri": "https://tools.usps.com/UspsToolsRestServices/rest/POLocator/findLocations", "@spider": "usps_collection_boxes", "addr:city": "NORTH HALEDON", "addr:country": "US", "addr:postcode": "07508", "addr:state": "NJ", "addr:street_address": "572 HIGH MOUNTAIN RD", "amenity": "post_box", "brand": "United States Postal Service", "brand:wikidata": "Q668687", "collection_times": "Mo-Sa 10:00", "nsi_id": "unitedstatespostalservice-a77078", "operator": "United States Postal Service", "operator:short": "USPS", "operator:type": "public", "operator:wikidata": "Q668687", "ref": "0750800030"}, "type": "Feature"}
{"geometry": {"coordinates": [-74.1670918, 40.914735], "type": "Point"}, "id": "Gh4vNrFDc1Dg7fPjPBLV3cPqmGM=", "properties": {"@source_uri": "https://tools.usps.com/UspsToolsRestServices/rest/POLocator/findLocations", "@spider": "usps_collection_boxes", "addr:city": "PATERSON", "addr:country": "US", "addr:postcode": "07510", "addr:state": "NJ", "addr:street_address": "194 WARD ST", "amenity": "post_box", "brand": "United States Postal Service", "brand:wikidata": "Q668687", "collection_times": "Mo-Sa 17:00", "note": "ON 12/24 AND 12/31, THIS BOX MAY BE COLLECTED AS EARLY AS 12 NOON.", "nsi_id": "unitedstatespostalservice-a77078", "operator": "United States Postal Service", "operator:short": "USPS", "operator:type": "public", "operator:wikidata": "Q668687", "ref": "0751000104"}, "type": "Feature"}
{"geometry": {"coordinates": [-74.1666938, 40.914449], "type": "Point"}, "id": "Y6rrEc1bU6NTR2SxWVMxZ26ZzzQ=", "properties": {"@source_uri": "https://tools.usps.com/UspsToolsRestServices/rest/POLocator/findLocations", "@spider": "usps_collection_boxes", "addr:city": "PATERSON", "addr:country": "US", "addr:postcode": "07510", "addr:state": "NJ", "addr:street_address": "194 WARD ST", "amenity": "post_box", "brand": "United States Postal Service", "brand:wikidata": "Q668687", "collection_times": "Mo-Fr 17:00; Sa 13:30", "indoor": "yes", "note": "ON 12/24 AND 12/31, THIS BOX MAY BE COLLECTED AS EARLY AS 12 NOON.", "nsi_id": "unitedstatespostalservice-a77078", "operator": "United States Postal Service", "operator:short": "USPS", "operator:type": "public", "operator:wikidata": "Q668687", "ref": "0751000106"}, "type": "Feature"}
{"geometry": {"coordinates": [-74.1671852774, 40.914758585], "type": "Point"}, "id": "rMXX15lxkn_7xIZj_ZG-h1-i_YI=", "properties": {"@source_uri": "https://tools.usps.com/UspsToolsRestServices/rest/POLocator/findLocations", "@spider": "usps_collection_boxes", "addr:city": "PATERSON", "addr:country": "US", "addr:postcode": "07510", "addr:state": "NJ", "addr:street_address": "194 WARD ST", "amenity": "post_box", "brand": "United States Postal Service", "brand:wikidata": "Q668687", "collection_times": "Mo-Fr 17:00; Sa 13:30", "indoor": "yes", "note": "ON 12/24 AND 12/31, THIS BOX MAY BE COLLECTED AS EARLY AS 12 NOON.", "nsi_id": "unitedstatespostalservice-a77078", "operator": "United States Postal Service", "operator:short": "USPS", "operator:type": "public", "operator:wikidata": "Q668687", "ref": "0751000108"}, "type": "Feature"}
{"geometry": {"coordinates": [-74.231397, 40.894348], "type": "Point"}, "id": "kgqELM_lAznGvmzLJEEUDXLO9CM=", "properties": {"@source_uri": "https://tools.usps.com/UspsToolsRestServices/rest/POLocator/findLocations", "@spider": "usps_collection_boxes", "addr:city": "TOTOWA", "addr:country": "US", "addr:postcode": "07512", "addr:state": "NJ", "addr:street_address": "465 ROUTE 46", "amenity": "post_box", "brand": "United States Postal Service", "brand:wikidata": "Q668687", "collection_times": "Mo-Sa 10:00", "nsi_id": "unitedstatespostalservice-a77078", "operator": "United States Postal Service", "operator:short": "USPS", "operator:type": "public", "operator:wikidata": "Q668687", "ref": "0751200007"}, "type": "Feature"}
{"geometry": {"coordinates": [-74.2102981, 40.908008], "type": "Point"}, "id": "KMaiSSY6ZNtvecckGeM_x9EnQxA=", "properties": {"@source_uri": "https://tools.usps.com/UspsToolsRestServices/rest/POLocator/findLocations", "@spider": "usps_collection_boxes", "addr:city": "TOTOWA", "addr:country": "US", "addr:postcode": "07512", "addr:state": "NJ", "addr:street_address": "60 HOBART PL", "amenity": "post_box", "brand": "United States Postal Service", "brand:wikidata": "Q668687", "collection_times": "Mo-Sa 10:00", "nsi_id": "unitedstatespostalservice-a77078", "operator": "United States Postal Service", "operator:short": "USPS", "operator:type": "public", "operator:wikidata": "Q668687", "ref": "0751200017"}, "type": "Feature"}
{"geometry": {"coordinates": [-74.205770086, 40.908066516], "type": "Point"}, "id": "csg3x3_iasu8EVkgLW02ti1vgW0=", "properties": {"@source_uri": "https://tools.usps.com/UspsToolsRestServices/rest/POLocator/findLocations", "@spider": "usps_collection_boxes", "addr:city": "TOTOWA", "addr:country": "US", "addr:postcode": "07512", "addr:state": "NJ", "addr:street_address": "159 UNION BLVD", "amenity": "post_box", "brand": "United States Postal Service", "brand:wikidata": "Q668687", "collection_times": "Mo-Sa 10:00", "nsi_id": "unitedstatespostalservice-a77078", "operator": "United States Postal Service", "operator:short": "USPS", "operator:type": "public", "operator:wikidata": "Q668687", "ref": "0751200021"}, "type": "Feature"}
{"geometry": {"coordinates": [-74.215311775, 40.902731887], "type": "Point"}, "id": "RUq9eofHYmcyMF5nv2wesH92_AI=", "properties": {"@source_uri": "https://tools.usps.com/UspsToolsRestServices/rest/POLocator/findLocations", "@spider": "usps_collection_boxes", "addr:city": "TOTOWA", "addr:country": "US", "addr:postcode": "07512", "addr:state": "NJ", "addr:street_address": "20 CREWS ST", "amenity": "post_box", "brand": "United States Postal Service", "brand:wikidata": "Q668687", "collection_times": "Mo-Fr 17:00; Sa 16:30", "note": "ON 12/24 AND 12/31, THIS BOX MAY BE COLLECTED AS EARLY AS 12 NOON.", "nsi_id": "unitedstatespostalservice-a77078", "operator": "United States Postal Service", "operator:short": "USPS", "operator:type": "public", "operator:wikidata": "Q668687", "ref": "0751200025"}, "type": "Feature"}
{"geometry": {"coordinates": [-74.215311775, 40.902731887], "type": "Point"}, "id": "pC1P0v-lIlaCvx-ijdHFYmxarWg=", "properties": {"@source_uri": "https://tools.usps.com/UspsToolsRestServices/rest/POLocator/findLocations", "@spider": "usps_collection_boxes", "addr:city": "TOTOWA", "addr:country": "US", "addr:postcode": "07512", "addr:state": "NJ", "addr:street_address": "20 CREWS ST", "amenity": "post_box", "brand": "United States Postal Service", "brand:wikidata": "Q668687", "collection_times": "Mo-Fr 17:00; Sa 16:30", "note": "ON 12/24 AND 12/31, THIS BOX MAY BE COLLECTED AS EARLY AS 12 NOON.", "nsi_id": "unitedstatespostalservice-a77078", "operator": "United States Postal Service", "operator:short": "USPS", "operator:type": "public", "operator:wikidata": "Q668687", "ref": "0751200027"}, "type": "Feature"}
{"geometry": {"coordinates": [-74.2395299646, 40.9093239908], "type": "Point"}, "id": "-xzDES_tdQLx4wlVQ-6-v1C8KA8=", "properties": {"@source_uri": "https://tools.usps.com/UspsToolsRestServices/rest/POLocator/findLocations", "@spider": "usps_collection_boxes", "addr:city": "TOTOWA", "addr:country": "US", "addr:postcode": "07512", "addr:state": "NJ", "addr:street_address": "140 COMMERCE WAY", "amenity": "post_box", "brand": "United States Postal Service", "brand:wikidata": "Q668687", "collection_times": "Mo-Sa 09:00", "nsi_id": "unitedstatespostalservice-a77078", "operator": "United States Postal Service", "operator:short": "USPS", "operator:type": "public", "operator:wikidata": "Q668687", "ref": "0751200041"}, "type": "Feature"}
{"geometry": {"coordinates": [-74.215311775, 40.902731887], "type": "Point"}, "id": "cCz9J_Gx5dycFBrWwvSeUfgb6Lw=", "properties": {"@source_uri": "https://tools.usps.com/UspsToolsRestServices/rest/POLocator/findLocations", "@spider": "usps_collection_boxes", "addr:city": "TOTOWA", "addr:country": "US", "addr:postcode": "07512", "addr:state": "NJ", "addr:street_address": "20 CREWS ST", "amenity": "post_box", "brand": "United States Postal Service", "brand:wikidata": "Q668687", "collection_times": "Mo-Fr 17:00; Sa 14:00", "indoor": "yes", "note": "ON 12/24 AND 12/31, THIS BOX MAY BE COLLECTED AS EARLY AS 12 NOON.", "nsi_id": "unitedstatespostalservice-a77078", "operator": "United States Postal Service", "operator:short": "USPS", "operator:type": "public", "operator:wikidata": "Q668687", "ref": "0751200042"}, "type": "Feature"}
{"geometry": {"coordinates": [-74.215311775, 40.902731887], "type": "Point"}, "id": "VkHmLxALCBQb-9Md3q-8yD881C0=", "properties": {"@source_uri": "https://tools.usps.com/UspsToolsRestServices/rest/POLocator/findLocations", "@spider": "usps_collection_boxes", "addr:city": "TOTOWA", "addr:country": "US", "addr:postcode": "07512", "addr:state": "NJ", "addr:street_address": "20 CREWS ST", "amenity": "post_box", "brand": "United States Postal Service", "brand:wikidata": "Q668687", "collection_times": "Mo-Fr 17:00; Sa 14:00", "indoor": "yes", "note": "ON 12/24 AND 12/31, THIS BOX MAY BE COLLECTED AS EARLY AS 12 NOON.", "nsi_id": "unitedstatespostalservice-a77078", "operator": "United States Postal Service", "operator:short": "USPS", "operator:type": "public", "operator:wikidata": "Q668687", "ref": "0751200046"}, "type": "Feature"}
{"geometry": {"coordinates": [-74.1397249, 40.904446], "type": "Point"}, "id": "jBmaYCLtZECvesYittvawefs53g=", "properties": {"@source_uri": "https://tools.usps.com/UspsToolsRestServices/rest/POLocator/findLocations", "@spider": "usps_collection_boxes", "addr:city": "PATERSON", "addr:country": "US", "addr:postcode": "07513", "addr:state": "NJ", "addr:street_address": "766 21ST AVE", "amenity": "post_box", "brand": "United States Postal Service", "brand:wikidata": "Q668687", "collection_times": "Mo-Sa 10:00", "nsi_id": "unitedstatespostalservice-a77078", "operator": "United States Postal Service", "operator:short": "USPS", "operator:type": "public", "operator:wikidata": "Q668687", "ref": "0751300002"}, "type": "Feature"}
{"geometry": {"coordinates": [-74.152178403, 40.906079391], "type": "Point"}, "id": "EoNfUVk3Cye9lpPYZ6I9Vo6W24k=", "properties": {"@source_uri": "https://tools.usps.com/UspsToolsRestServices/rest/POLocator/findLocations", "@spider": "usps_collection_boxes", "addr:city": "PATERSON", "addr:country": "US", "addr:postcode": "07513", "addr:state": "NJ", "addr:street_address": "497 21ST AVE", "amenity": "post_box", "brand": "United States Postal Service", "brand:wikidata": "Q668687", "collection_times": "Mo-Sa 17:00", "note": "ON 12/24 AND 12/31, THIS BOX MAY BE COLLECTED AS EARLY AS 12 NOON.", "nsi_id": "unitedstatespostalservice-a77078", "operator": "United States Postal Service", "operator:short": "USPS", "operator:type": "public", "operator:wikidata": "Q668687", "ref": "0751300003"}, "type": "Feature"}
{"geometry": {"coordinates": [-74.152178403, 40.906079391], "type": "Point"}, "id": "k8OvOpk49gysAeCoLAOpx1VBpyE=", "properties": {"@source_uri": "https://tools.usps.com/UspsToolsRestServices/rest/POLocator/findLocations", "@spider": "usps_collection_boxes", "addr:city": "PATERSON", "addr:country": "US", "addr:postcode": "07513", "addr:state": "NJ", "addr:street_address": "497 21ST AVE", "amenity": "post_box", "brand": "United States Postal Service", "brand:wikidata": "Q668687", "collection_times": "Mo-Sa 17:00", "note": "ON 12/24 AND 12/31, THIS BOX MAY BE COLLECTED AS EARLY AS 12 NOON.", "nsi_id": "unitedstatespostalservice-a77078", "operator": "United States Postal Service", "operator:short": "USPS", "operator:type": "public", "operator:wikidata": "Q668687", "ref": "0751300004"}, "type": "Feature"}
{"geometry": {"coordinates": [-74.152178403, 40.906079391], "type": "Point"}, "id": "xZArj45896g7JfTly9dkSgFg2nE=", "properties": {"@source_uri": "https://tools.usps.com/UspsToolsRestServices/rest/POLocator/findLocations", "@spider": "usps_collection_boxes", "addr:city": "PATERSON", "addr:country": "US", "addr:postcode": "07513", "addr:state": "NJ", "addr:street_address": "497 21ST AVE", "amenity": "post_box", "brand": "United States Postal Service", "brand:wikidata": "Q668687", "collection_times": "Mo-Fr 17:00; Sa 12:00", "indoor": "yes", "note": "ON 12/24 AND 12/31, THIS BOX MAY BE COLLECTED AS EARLY AS 12 NOON.", "nsi_id": "unitedstatespostalservice-a77078", "operator": "United States Postal Service", "operator:short": "USPS", "operator:type": "public", "operator:wikidata": "Q668687", "ref": "0751300015"}, "type": "Feature"}
{"geometry": {"coordinates": [-74.152178403, 40.906079391], "type": "Point"}, "id": "NU8JVyz8-8c9XAHxKedb2NWsd7c=", "properties": {"@source_uri": "https://tools.usps.com/UspsToolsRestServices/rest/POLocator/findLocations", "@spider": "usps_collection_boxes", "addr:city": "PATERSON", "addr:country": "US", "addr:postcode": "07513", "addr:state": "NJ", "addr:street_address": "497 21ST AVE", "amenity": "post_box", "brand": "United States Postal Service", "brand:wikidata": "Q668687", "collection_times": "Mo-Fr 16:30", "indoor": "yes", "note": "ON 12/24 AND 12/31, THIS BOX MAY BE COLLECTED AS EARLY AS 12 NOON.", "nsi_id": "unitedstatespostalservice-a77078", "operator": "United States Postal Service", "operator:short": "USPS", "operator:type": "public", "operator:wikidata": "Q668687", "ref": "0751300016"}, "type": "Feature"}
{"geometry": {"coordinates": [-74.1539089, 40.924402], "type": "Point"}, "id": "AAUV4hrkw21akc-jV3JdSVIY9ik=", "properties": {"@source_uri": "https://tools.usps.com/UspsToolsRestServices/rest/POLocator/findLocations", "@spider": "usps_collection_boxes", "addr:city": "PATERSON", "addr:country": "US", "addr:postcode": "07514", "addr:state": "NJ", "addr:street_address": "456 E 18TH ST", "amenity": "post_box", "brand": "United States Postal Service", "brand:wikidata": "Q668687", "collection_times": "Mo-Sa 10:00", "nsi_id": "unitedstatespostalservice-a77078", "operator": "United States Postal Service", "operator:short": "USPS", "operator:type": "public", "operator:wikidata": "Q668687", "ref": "0751400000"}, "type": "Feature"}
{"geometry": {"coordinates": [-74.1487389, 40.921984], "type": "Point"}, "id": "hiHFsHSkm2YZXgokF3oM8_lDgkU=", "properties": {"@source_uri": "https://tools.usps.com/UspsToolsRestServices/rest/POLocator/findLocations", "@spider": "usps_collection_boxes", "addr:city": "PATERSON", "addr:country": "US", "addr:postcode": "07514", "addr:state": "NJ", "addr:street_address": "445 11TH AVE", "amenity": "post_box", "brand": "United States Postal Service", "brand:wikidata": "Q668687", "collection_times": "Mo-Sa 11:00", "nsi_id": "unitedstatespostalservice-a77078", "operator": "United States Postal Service", "operator:short": "USPS", "operator:type": "public", "operator:wikidata": "Q668687", "ref": "0751400002"}, "type": "Feature"}
{"geometry": {"coordinates": [-74.1319115, 40.919842], "type": "Point"}, "id": "INePBEn5oiy-nxrUXHUclYPe_ug=", "properties": {"@source_uri": "https://tools.usps.com/UspsToolsRestServices/rest/POLocator/findLocations", "@spider": "usps_collection_boxes", "addr:city": "PATERSON", "addr:country": "US", "addr:postcode": "07514", "addr:state": "NJ", "addr:street_address": "793 11TH AVE", "amenity": "post_box", "brand": "United States Postal Service", "brand:wikidata": "Q668687", "collection_times": "Mo-Sa 10:00", "nsi_id": "unitedstatespostalservice-a77078", "operator": "United States Postal Service", "operator:short": "USPS", "operator:type": "public", "operator:wikidata": "Q668687", "ref": "0751400004"}, "type": "Feature"}
{"geometry": {"coordinates": [-74.154066, 40.933638], "type": "Point"}, "id": "JvXlgaxD0ZWT09JCmhalYqfrGk4=", "properties": {"@source_uri": "https://tools.usps.com/UspsToolsRestServices/rest/POLocator/findLocations", "@spider": "usps_collection_boxes", "addr:city": "PATERSON", "addr:country": "US", "addr:postcode": "07524", "addr:state": "NJ", "addr:street_address": "82 E 15TH ST", "amenity": "post_box", "brand": "United States Postal Service", "brand:wikidata": "Q668687", "collection_times": "Mo-Sa 10:00", "nsi_id": "unitedstatespostalservice-a77078", "operator": "United States Postal Service", "operator:short": "USPS", "operator:type": "public", "operator:wikidata": "Q668687", "ref": "0752400001"}, "type": "Feature"}
{"geometry": {"coordinates": [-74.1619615, 40.92701], "type": "Point"}, "id": "rYWp6WHG4NC3puRE8jK5wX3cwxA=", "properties": {"@source_uri": "https://tools.usps.com/UspsToolsRestServices/rest/POLocator/findLocations", "@spider": "usps_collection_boxes", "addr:city": "PATERSON", "addr:country": "US", "addr:postcode": "07524", "addr:state": "NJ", "addr:street_address": "68 KEEN ST", "amenity": "post_box", "brand": "United States Postal Service", "brand:wikidata": "Q668687", "collection_times": "Mo-Sa 14:00", "note": "ON 12/24 AND 12/31, THIS BOX MAY BE COLLECTED AS EARLY AS 12 NOON.", "nsi_id": "unitedstatespostalservice-a77078", "operator": "United States Postal Service", "operator:short": "USPS", "operator:type": "public", "operator:wikidata": "Q668687", "ref": "0752400008"}, "type": "Feature"}
