{"geometry": {"coordinates": [-74.2564854106, 40.2180455128], "type": "Point"}, "id": "E2WtKdaL1Ix5hT6GKymNbyAn7yI=", "properties": {"@spider": "usps_collection_boxes", "addr:city": "ADELPHIA", "addr:country": "US", "addr:full": "16 WYKOFF MILLS RD", "addr:postcode": "07710", "addr:state": "NJ", "brand": "USPS", "collection_times": "Mo-Fr 16:30; Sa 12:00", "name": "USPS COLLECTION BOX - BLUE BOX", "note": "ON 12/24 AND 12/31, THIS BOX MAY BE COLLECTED AS EARLY AS 12 NOON.", "ref": "0771000001"}, "type": "Feature"}
{"geometry": {"coordinates": [-74.256325, 40.217722], "type": "Point"}, "id": "L7rVwbwjhbTeYjyKZ6ncFZAtd8g=", "properties": {"@spider": "usps_collection_boxes", "addr:city": "ADELPHIA", "addr:country": "US", "addr:full": "16 WYCKOFF MILLS RD", "addr:postcode": "07710", "addr:state": "NJ", "brand": "USPS", "collection_times": "Mo-Fr 16:30; Sa 12:00", "name": "USPS COLLECTION BOX - PO LOBBY", "note": "ON 12/24 AND 12/31, THIS BOX MAY BE COLLECTED AS EARLY AS 12 NOON.", "ref": "0771000002"}, "type": "Feature"}
{"geometry": {"coordinates": [-74.419542394, 40.265050467], "type": "Point"}, "id": "sQRjAhvX8L4pWTn8A6_itpb-YhI=", "properties": {"@spider": "usps_collection_boxes", "addr:city": "ADELPHIA", "addr:country": "US", "addr:full": "16 WYCKOFF MILLS RD", "addr:postcode": "07710", "addr:state": "NJ", "brand": "USPS", "collection_times": "Mo-Fr 16:30; Sa 12:00", "name": "USPS COLLECTION BOX - PO LOBBY", "note": "ON 12/24 AND 12/31, THIS BOX MAY BE COLLECTED AS EARLY AS 12 NOON.", "ref": "0771000005"}, "type": "Feature"}
{"geometry": {"coordinates": [-74.0273023, 40.171138], "type": "Point"}, "id": "287CCuYMioy0hnA7V1mAA8uLOgM=", "properties": {"@spider": "usps_collection_boxes", "addr:city": "WALL TOWNSHIP", "addr:country": "US", "addr:full": "1732 MAIN ST", "addr:postcode": "07719", "addr:state": "NJ", "brand": "USPS", "collection_times": "Mo-Sa 11:00", "name": "USPS COLLECTION BOX - BLUE BOX", "ref": "0771900010"}, "type": "Feature"}
{"geometry": {"coordinates": [-74.0272121, 40.18115], "type": "Point"}, "id": "x_eMwtGudr4ym7fyaSpF8Awbws4=", "properties": {"@spider": "usps_collection_boxes", "addr:city": "WALL TOWNSHIP", "addr:country": "US", "addr:full": "831 BELMAR PLZ", "addr:postcode": "07719", "addr:state": "NJ", "brand": "USPS", "collection_times": "Mo-Sa 11:00", "name": "USPS COLLECTION BOX - BLUE BOX", "ref": "0771900012"}, "type": "Feature"}
{"geometry": {"coordinates": [-74.0460105, 40.168544], "type": "Point"}, "id": "4PVyu5SBHFkBaszvTFQTGaAOglM=", "properties": {"@spider": "usps_collection_boxes", "addr:city": "WALL TOWNSHIP", "addr:country": "US", "addr:full": "1800 STATE ROUTE 35", "addr:postcode": "07719", "addr:state": "NJ", "brand": "USPS", "collection_times": "Mo-Sa 11:00", "name": "USPS COLLECTION BOX - BLUE BOX", "ref": "0771900016"}, "type": "Feature"}
{"geometry": {"coordinates": [-74.0249304, 40.183418], "type": "Point"}, "id": "w8yBbliONbd5eB9uPvc7HN0cMHU=", "properties": {"@spider": "usps_collection_boxes", "addr:city": "WALL TOWNSHIP", "addr:country": "US", "addr:full": "601 MAIN ST", "addr:postcode": "07719", "addr:state": "NJ", "brand": "USPS", "collection_times": "Mo-Sa 11:00", "name": "USPS COLLECTION BOX - BLUE BOX", "ref": "0771900019"}, "type": "Feature"}
{"geometry": {"coordinates": [-74.0716019, 40.153951], "type": "Point"}, "id": "m8qeKZ3o6u1GpNJrwijWY4SWXys=", "properties": {"@spider": "usps_collection_boxes", "addr:city": "WALL TOWNSHIP", "addr:country": "US", "addr:full": "2700 ALLAIRE RD", "addr:postcode": "07719", "addr:state": "NJ", "brand": "USPS", "collection_times": "Mo-Sa 09:30", "name": "USPS COLLECTION BOX - BLUE BOX", "ref": "0771900020"}, "type": "Feature"}
{"geometry": {"coordinates": [-74.0571711, 40.154299], "type": "Point"}, "id": "SQ0HAYT6s1LzyaKTk6PtE847Lmo=", "properties": {"@spider": "usps_collection_boxes", "addr:city": "WALL TOWNSHIP", "addr:country": "US", "addr:full": "1933 STATE ROUTE 35", "addr:postcode": "07719", "addr:state": "NJ", "brand": "USPS", "collection_times": "Mo-Sa 11:00", "name": "USPS COLLECTION BOX - BLUE BOX", "ref": "0771900021"}, "type": "Feature"}
{"geometry": {"coordinates": [-74.0561879, 40.172677], "type": "Point"}, "id": "yrdTrlyF16YkC-qRa1diZOniQBk=", "properties": {"@spider": "usps_collection_boxes", "addr:city": "WALL TOWNSHIP", "addr:country": "US", "addr:full": "1540 STATE ROUTE 138", "addr:postcode": "07719", "addr:state": "NJ", "brand": "USPS", "collection_times": "Mo-Sa 09:45", "name": "USPS COLLECTION BOX - BLUE BOX", "ref": "0771900022"}, "type": "Feature"}
{"geometry": {"coordinates": [-74.0250569, 40.180248], "type": "Point"}, "id": "POmg7fAiuWqrsbBuH8gkjed-Jag=", "properties": {"@spider": "usps_collection_boxes", "addr:city": "WALL TOWNSHIP", "addr:country": "US", "addr:full": "900 MAIN ST", "addr:postcode": "07719", "addr:state": "NJ", "brand": "USPS", "collection_times": "Mo-Sa 10:00", "name": "USPS COLLECTION BOX - BLUE BOX", "ref": "0771900023"}, "type": "Feature"}
{"geometry": {"coordinates": [-74.0266945, 40.176047], "type": "Point"}, "id": "B2TnVFAObzGtlcG5l8E_hK-xzY0=", "properties": {"@spider": "usps_collection_boxes", "addr:city": "WALL TOWNSHIP", "addr:country": "US", "addr:full": "1300 MAIN ST", "addr:postcode": "07719", "addr:state": "NJ", "brand": "USPS", "collection_times": "Mo-Fr 17:00; Sa 15:00", "name": "USPS COLLECTION BOX - BLUE BOX", "note": "ON 12/24 AND 12/31, THIS BOX MAY BE COLLECTED AS EARLY AS 12 NOON.", "ref": "0771900025"}, "type": "Feature"}
{"geometry": {"coordinates": [-74.0621903, 40.177099], "type": "Point"}, "id": "XiVU32ag47hhdjyWWC25JaBqAxU=", "properties": {"@spider": "usps_collection_boxes", "addr:city": "WALL TOWNSHIP", "addr:country": "US", "addr:full": "2510 BELMAR BLVD", "addr:postcode": "07719", "addr:state": "NJ", "brand": "USPS", "collection_times": "Mo-Fr 17:00; Sa 15:00", "name": "USPS COLLECTION BOX - BLUE BOX", "note": "ON 12/24 AND 12/31, THIS BOX MAY BE COLLECTED AS EARLY AS 12 NOON.", "ref": "0771900026"}, "type": "Feature"}
{"geometry": {"coordinates": [-74.0263796, 40.175967], "type": "Point"}, "id": "tcOhJIrSFxHOo0OqwRHOS3ankl8=", "properties": {"@spider": "usps_collection_boxes", "addr:city": "WALL TOWNSHIP", "addr:country": "US", "addr:full": "1300 MAIN ST", "addr:postcode": "07719", "addr:state": "NJ", "brand": "USPS", "collection_times": "Mo-Fr 17:00; Sa 15:00", "name": "USPS COLLECTION BOX - PO LOBBY", "note": "ON 12/24 AND 12/31, THIS BOX MAY BE COLLECTED AS EARLY AS 12 NOON.", "ref": "0771900027"}, "type": "Feature"}
{"geometry": {"coordinates": [-74.061917, 40.177131], "type": "Point"}, "id": "DxwKpj6YQV_TVaA5qNbcmS920Cw=", "properties": {"@spider": "usps_collection_boxes", "addr:city": "WALL TOWNSHIP", "addr:country": "US", "addr:full": "2510 BELMAR BLVD", "addr:postcode": "07719", "addr:state": "NJ", "brand": "USPS", "collection_times": "Mo-Fr 16:30; Sa 15:00", "name": "USPS COLLECTION BOX - PO LOBBY", "note": "ON 12/24 AND 12/31, THIS BOX MAY BE COLLECTED AS EARLY AS 12 NOON.", "ref": "0771900028"}, "type": "Feature"}
{"geometry": {"coordinates": [-74.026660885, 40.176302926], "type": "Point"}, "id": "kH1MKR-Z6fAIiCGWN5A-0RRpB0I=", "properties": {"@spider": "usps_collection_boxes", "addr:city": "WALL TOWNSHIP", "addr:country": "US", "addr:full": "1300 MAIN ST", "addr:postcode": "07719", "addr:state": "NJ", "brand": "USPS", "collection_times": "Mo-Fr 17:00; Sa 16:00", "name": "USPS COLLECTION BOX - PO LOBBY", "note": "ON 12/24 AND 12/31, THIS BOX MAY BE COLLECTED AS EARLY AS 12 NOON.", "ref": "0771900035"}, "type": "Feature"}
{"geometry": {"coordinates": [-74.063179625, 40.176341871], "type": "Point"}, "id": "RJBiYY49JlzlPTeem0MCXhmcnrM=", "properties": {"@spider": "usps_collection_boxes", "addr:city": "WALL TOWNSHIP", "addr:country": "US", "addr:full": "2510 BELMAR BLVD STE J-4", "addr:postcode": "07719", "addr:state": "NJ", "brand": "USPS", "collection_times": "Mo-Fr 16:45; Sa 12:00", "name": "USPS COLLECTION BOX - PO LOBBY", "note": "ON 12/24 AND 12/31, THIS BOX MAY BE COLLECTED AS EARLY AS 12 NOON.", "ref": "0771900036"}, "type": "Feature"}
{"geometry": {"coordinates": [-74.3424058, 40.291297], "type": "Point"}, "id": "TI9_cbDz53OWVvrPVd8Kz4O5Hnw=", "properties": {"@spider": "usps_collection_boxes", "addr:city": "MANALAPAN", "addr:country": "US", "addr:full": "9 TAYLORS MILLS RD", "addr:postcode": "07726", "addr:state": "NJ", "brand": "USPS", "collection_times": "Mo-Fr 17:00; Sa 15:00", "name": "USPS COLLECTION BOX - EXPRESS", "note": "ON 12/24 AND 12/31, THIS BOX MAY BE COLLECTED AS EARLY AS 12 NOON.", "ref": "0772600002"}, "type": "Feature"}
{"geometry": {"coordinates": [-74.3423958, 40.291289], "type": "Point"}, "id": "ObOWv_n_XjwgP3uGZLK5zajSS7g=", "properties": {"@spider": "usps_collection_boxes", "addr:city": "MANALAPAN", "addr:country": "US", "addr:full": "9 TAYLORS MILLS RD", "addr:postcode": "07726", "addr:state": "NJ", "brand": "USPS", "collection_times": "Mo-Fr 17:00; Sa 15:00", "name": "USPS COLLECTION BOX - BLUE BOX", "note": "ON 12/24 AND 12/31, THIS BOX MAY BE COLLECTED AS EARLY AS 12 NOON.", "ref": "0772600004"}, "type": "Feature"}
{"geometry": {"coordinates": [-74.3424099, 40.2913], "type": "Point"}, "id": "suRNQufn3o6OSEr4e3KOWPY_9qE=", "properties": {"@spider": "usps_collection_boxes", "addr:city": "MANALAPAN", "addr:country": "US", "addr:full": "9 TAYLORS MILLS RD", "addr:postcode": "07726", "addr:state": "NJ", "brand": "USPS", "collection_times": "Mo-Fr 17:00; Sa 15:00", "name": "USPS COLLECTION BOX - BLUE BOX", "note": "ON 12/24 AND 12/31, THIS BOX MAY BE COLLECTED AS EARLY AS 12 NOON.", "ref": "0772600005"}, "type": "Feature"}
{"geometry": {"coordinates": [-74.3052416, 40.284305], "type": "Point"}, "id": "l5peoDRz4LERLmquNv6LNh4S7_k=", "properties": {"@spider": "usps_collection_boxes", "addr:city": "MANALAPAN", "addr:country": "US", "addr:full": "1 MADISON CT", "addr:postcode": "07726", "addr:state": "NJ", "brand": "USPS", "collection_times": "Mo-Sa 10:00", "name": "USPS COLLECTION BOX - BLUE BOX", "ref": "0772600009"}, "type": "Feature"}
{"geometry": {"coordinates": [-74.3163926, 40.330783], "type": "Point"}, "id": "NBN2JYt06GfXqJ1P9wh7dr7oiRI=", "properties": {"@spider": "usps_collection_boxes", "addr:city": "MANALAPAN", "addr:country": "US", "addr:full": "1 AMBERLY DR", "addr:postcode": "07726", "addr:state": "NJ", "brand": "USPS", "collection_times": "Mo-Sa 11:00", "name": "USPS COLLECTION BOX - BLUE BOX", "ref": "0772600010"}, "type": "Feature"}
{"geometry": {"coordinates": [-74.3067303, 40.338386], "type": "Point"}, "id": "8adDbx4e1eyaxu-X4aDc7T_wMos=", "properties": {"@spider": "usps_collection_boxes", "addr:city": "MANALAPAN", "addr:country": "US", "addr:full": "322 UNION HILL RD", "addr:postcode": "07726", "addr:state": "NJ", "brand": "USPS", "collection_times": "Mo-Sa 10:00", "name": "USPS COLLECTION BOX - BLUE BOX", "ref": "0772600011"}, "type": "Feature"}
{"geometry": {"coordinates": [-74.306970204, 40.33496938], "type": "Point"}, "id": "AdVri5h6m3TOxpvtIKpd3zJ46Wc=", "properties": {"@spider": "usps_collection_boxes", "addr:city": "MANALAPAN", "addr:country": "US", "addr:full": "1 IVY HILL DR", "addr:postcode": "07726", "addr:state": "NJ", "brand": "USPS", "collection_times": "Mo-Sa 10:00", "name": "USPS COLLECTION BOX - BLUE BOX", "ref": "0772600014"}, "type": "Feature"}
{"geometry": {"coordinates": [-74.3084231, 40.32715], "type": "Point"}, "id": "1f88CiQItQzsEH0onhQ0V7GIV5U=", "properties": {"@spider": "usps_collection_boxes", "addr:city": "MANALAPAN", "addr:country": "US", "addr:full": "1 COVERED BRIDGE BLVD", "addr:postcode": "07726", "addr:state": "NJ", "brand": "USPS", "collection_times": "Mo-Sa 11:00", "name": "USPS COLLECTION BOX - BLUE BOX", "ref": "0772600015"}, "type": "Feature"}
{"geometry": {"coordinates": [-74.3108677, 40.327135], "type": "Point"}, "id": "B9u4vY5pJWCalrM9Tv5_ds68zFo=", "properties": {"@spider": "usps_collection_boxes", "addr:city": "MANALAPAN", "addr:country": "US", "addr:full": "185 CROSS SLOPE CT", "addr:postcode": "07726", "addr:state": "NJ", "brand": "USPS", "collection_times": "Mo-Sa 11:00", "name": "USPS COLLECTION BOX - BLUE BOX", "ref": "0772600016"}, "type": "Feature"}
{"geometry": {"coordinates": [-74.3173614, 40.327798], "type": "Point"}, "id": "GoH-M7II8gvT5cXxLo51o8yf-_c=", "properties": {"@spider": "usps_collection_boxes", "addr:city": "MANALAPAN", "addr:country": "US", "addr:full": "120 AMBERLY DR", "addr:postcode": "07726", "addr:state": "NJ", "brand": "USPS", "collection_times": "Mo-Sa 11:00", "name": "USPS COLLECTION BOX - BLUE BOX", "ref": "0772600017"}, "type": "Feature"}
{"geometry": {"coordinates": [-74.3178585, 40.334922], "type": "Point"}, "id": "ptsry0k7gYmAsCWUB58K_epFGBo=", "properties": {"@spider": "usps_collection_boxes", "addr:city": "MANALAPAN", "addr:country": "US", "addr:full": "1 WILD TURKEY WAY", "addr:postcode": "07726", "addr:state": "NJ", "brand": "USPS", "collection_times": "Mo-Sa 11:00", "name": "USPS COLLECTION BOX - BLUE BOX", "ref": "0772600018"}, "type": "Feature"}
{"geometry": {"coordinates": [-74.3198456, 40.337134], "type": "Point"}, "id": "zOzylYQQR2NGoG1BI3EyPqcyo3c=", "properties": {"@spider": "usps_collection_boxes", "addr:city": "MANALAPAN", "addr:country": "US", "addr:full": "4 BRIDGE PLAZA DR", "addr:postcode": "07726", "addr:state": "NJ", "brand": "USPS", "collection_times": "Mo-Sa 10:00", "name": "USPS COLLECTION BOX - BLUE BOX", "ref": "0772600019"}, "type": "Feature"}
{"geometry": {"coordinates": [-74.3221326, 40.309859], "type": "Point"}, "id": "7KEHpuQECA-8yunQq2DGxPJs5qs=", "properties": {"@spider": "usps_collection_boxes", "addr:city": "MANALAPAN", "addr:country": "US", "addr:full": "300 GORDONS CORNER RD", "addr:postcode": "07726", "addr:state": "NJ", "brand": "USPS", "collection_times": "Mo-Sa 11:00", "name": "USPS COLLECTION BOX - BLUE BOX", "ref": "0772600020"}, "type": "Feature"}
{"geometry": {"coordinates": [-74.3066676, 40.31518], "type": "Point"}, "id": "wDyzQKQR6I1QAzRbx2a3OivOdog=", "properties": {"@spider": "usps_collection_boxes", "addr:city": "MANALAPAN", "addr:country": "US", "addr:full": "700 TENNENT RD", "addr:postcode": "07726", "addr:state": "NJ", "brand": "USPS", "collection_times": "Mo-Sa 11:00", "name": "USPS COLLECTION BOX - BLUE BOX", "ref": "0772600021"}, "type": "Feature"}
{"geometry": {"coordinates": [-74.3233434, 40.308238], "type": "Point"}, "id": "QxGGiBplU5ukyBTu3RDnCoUtuos=", "properties": {"@spider": "usps_collection_boxes", "addr:city": "MANALAPAN", "addr:country": "US", "addr:full": "225 GORDONS CORNER RD", "addr:postcode": "07726", "addr:state": "NJ", "brand": "USPS", "collection_times": "Mo-Sa 10:00", "name": "USPS COLLECTION BOX - BLUE BOX", "ref": "0772600022"}, "type": "Feature"}
{"geometry": {"coordinates": [-74.3584511, 40.295691], "type": "Point"}, "id": "CoDrDTlf8PpLy5SlnWbFbZLz3JM=", "properties": {"@spider": "usps_collection_boxes", "addr:city": "MANALAPAN", "addr:country": "US", "addr:full": "15 MAIN ST", "addr:postcode": "07726", "addr:state": "NJ", "brand": "USPS", "collection_times": "Mo-Sa 10:00", "name": "USPS COLLECTION BOX - BLUE BOX", "ref": "0772600023"}, "type": "Feature"}
{"geometry": {"coordinates": [-74.3041078, 40.31338], "type": "Point"}, "id": "Ep-2HjWAXVr6FUbl-s53WzLQKc8=", "properties": {"@spider": "usps_collection_boxes", "addr:city": "MANALAPAN", "addr:country": "US", "addr:full": "356 US HIGHWAY 9", "addr:postcode": "07726", "addr:state": "NJ", "brand": "USPS", "collection_times": "Mo-Sa 10:00", "name": "USPS COLLECTION BOX - BLUE BOX", "ref": "0772600024"}, "type": "Feature"}
{"geometry": {"coordinates": [-74.3047733, 40.322718], "type": "Point"}, "id": "OUe5jZYwPj7Z34ntn2gyBCKEyP8=", "properties": {"@spider": "usps_collection_boxes", "addr:city": "MANALAPAN", "addr:country": "US", "addr:full": "520 US HIGHWAY 9", "addr:postcode": "07726", "addr:state": "NJ", "brand": "USPS", "collection_times": "Mo-Sa 10:00", "name": "USPS COLLECTION BOX - BLUE BOX", "ref": "0772600025"}, "type": "Feature"}
{"geometry": {"coordinates": [-74.3023438, 40.301228], "type": "Point"}, "id": "95UDDbN5pmgzVRRb-kBZmxbucnc=", "properties": {"@spider": "usps_collection_boxes", "addr:city": "MANALAPAN", "addr:country": "US", "addr:full": "198 US HIGHWAY 9", "addr:postcode": "07726", "addr:state": "NJ", "brand": "USPS", "collection_times": "Mo-Sa 11:00", "name": "USPS COLLECTION BOX - BLUE BOX", "ref": "0772600026"}, "type": "Feature"}
{"geometry": {"coordinates": [-74.2987419, 40.285358], "type": "Point"}, "id": "g-74gO9mxdGmQUcVbXt_JEvtW0I=", "properties": {"@spider": "usps_collection_boxes", "addr:city": "MANALAPAN", "addr:country": "US", "addr:full": "200 CRAIG RD", "addr:postcode": "07726", "addr:state": "NJ", "brand": "USPS", "collection_times": "Mo-Sa 10:00", "name": "USPS COLLECTION BOX - BLUE BOX", "ref": "0772600027"}, "type": "Feature"}
{"geometry": {"coordinates": [-74.3034694, 40.299435], "type": "Point"}, "id": "omx3qFuCXxRRYOd4E_5anasaslM=", "properties": {"@spider": "usps_collection_boxes", "addr:city": "MANALAPAN", "addr:country": "US", "addr:full": "193 US HIGHWAY 9", "addr:postcode": "07726", "addr:state": "NJ", "brand": "USPS", "collection_times": "Mo-Sa 11:00", "name": "USPS COLLECTION BOX - BLUE BOX", "ref": "0772600029"}, "type": "Feature"}
{"geometry": {"coordinates": [-74.3059264, 40.302548], "type": "Point"}, "id": "fFioeOYjG8Sq0P-xDBxM36q864I=", "properties": {"@spider": "usps_collection_boxes", "addr:city": "MANALAPAN", "addr:country": "US", "addr:full": "224 TAYLORS MILLS RD", "addr:postcode": "07726", "addr:state": "NJ", "brand": "USPS", "collection_times": "Mo-Sa 11:00", "name": "USPS COLLECTION BOX - BLUE BOX", "ref": "0772600030"}, "type": "Feature"}
{"geometry": {"coordinates": [-74.3063522, 40.313215], "type": "Point"}, "id": "b3gaZUgKElwXDFArMrWrElhSvN0=", "properties": {"@spider": "usps_collection_boxes", "addr:city": "MANALAPAN", "addr:country": "US", "addr:full": "357 US HIGHWAY 9", "addr:postcode": "07726", "addr:state": "NJ", "brand": "USPS", "collection_times": "Mo-Sa 11:00", "name": "USPS COLLECTION BOX - BLUE BOX", "ref": "0772600031"}, "type": "Feature"}
{"geometry": {"coordinates": [-74.3037388, 40.292965], "type": "Point"}, "id": "k2oIqykjFGsMTSrMSlAnFqbkeRY=", "properties": {"@spider": "usps_collection_boxes", "addr:city": "MANALAPAN", "addr:country": "US", "addr:full": "125 SYMMES RD", "addr:postcode": "07726", "addr:state": "NJ", "brand": "USPS", "collection_times": "Mo-Sa 11:00", "name": "USPS COLLECTION BOX - BLUE BOX", "ref": "0772600032"}, "type": "Feature"}
{"geometry": {"coordinates": [-74.324086, 40.307885], "type": "Point"}, "id": "EUTr6Fg7zxObfJ0J3MDpnQbGhUA=", "properties": {"@spider": "usps_collection_boxes", "addr:city": "MANALAPAN", "addr:country": "US", "addr:full": "215 GORDONS CORNER RD", "addr:postcode": "07726", "addr:state": "NJ", "brand": "USPS", "collection_times": "Mo-Sa 11:00", "name": "USPS COLLECTION BOX - BLUE BOX", "ref": "0772600037"}, "type": "Feature"}
{"geometry": {"coordinates": [-74.302824, 40.285086], "type": "Point"}, "id": "RJprUiGjHVkfkQRvcxQq9aEzLNo=", "properties": {"@spider": "usps_collection_boxes", "addr:city": "MANALAPAN", "addr:country": "US", "addr:full": "500 CRAIG RD", "addr:postcode": "07726", "addr:state": "NJ", "brand": "USPS", "collection_times": "Mo-Sa 10:00", "name": "USPS COLLECTION BOX - BLUE BOX", "ref": "0772600038"}, "type": "Feature"}
{"geometry": {"coordinates": [-74.2985839, 40.289971], "type": "Point"}, "id": "8nkgW4_MZ6nW1LoBC9sCQf7LMBo=", "properties": {"@spider": "usps_collection_boxes", "addr:city": "MANALAPAN", "addr:country": "US", "addr:full": "55 STATE ROUTE 9 S", "addr:postcode": "07726", "addr:state": "NJ", "brand": "USPS", "collection_times": "Mo-Sa 11:00", "name": "USPS COLLECTION BOX - BLUE BOX", "ref": "0772600039"}, "type": "Feature"}
{"geometry": {"coordinates": [-74.3200343815, 40.3372153533], "type": "Point"}, "id": "Umc_uUSXJZ_Rj7maxu4NXQoulkQ=", "properties": {"@spider": "usps_collection_boxes", "addr:city": "MANALAPAN", "addr:country": "US", "addr:full": "4 BRIDGE PLAZA DR", "addr:postcode": "07726", "addr:state": "NJ", "brand": "USPS", "collection_times": "Mo-Sa 10:00", "name": "USPS COLLECTION BOX - BLUE BOX", "ref": "0772600040"}, "type": "Feature"}
{"geometry": {"coordinates": [-74.3421295, 40.291301], "type": "Point"}, "id": "OTPpNw-ut0T-LkjjK4JYz7iLaqI=", "properties": {"@spider": "usps_collection_boxes", "addr:city": "MANALAPAN", "addr:country": "US", "addr:full": "9 TAYLORS MILLS RD", "addr:postcode": "07726", "addr:state": "NJ", "brand": "USPS", "collection_times": "Mo-Fr 17:00; Sa 15:00", "name": "USPS COLLECTION BOX - APC", "note": "ON 12/24 AND 12/31, THIS BOX MAY BE COLLECTED AS EARLY AS 12 NOON.", "ref": "0772600041"}, "type": "Feature"}
{"geometry": {"coordinates": [-74.3421319, 40.291264], "type": "Point"}, "id": "lHtiynubEW1sT9Tyi3NasZgL5zQ=", "properties": {"@spider": "usps_collection_boxes", "addr:city": "MANALAPAN", "addr:country": "US", "addr:full": "9 TAYLORS MILLS RD", "addr:postcode": "07726", "addr:state": "NJ", "brand": "USPS", "collection_times": "Mo-Fr 17:00; Sa 15:00", "name": "USPS COLLECTION BOX - PO LOBBY", "note": "ON 12/24 AND 12/31, THIS BOX MAY BE COLLECTED AS EARLY AS 12 NOON.", "ref": "0772600042"}, "type": "Feature"}
{"geometry": {"coordinates": [-74.342533673, 40.291970628], "type": "Point"}, "id": "VsC_EtqEaXebUv-XtebJp_JMJ0Y=", "properties": {"@spider": "usps_collection_boxes", "addr:city": "MANALAPAN", "addr:country": "US", "addr:full": "9 TAYLORS MILLS RD", "addr:postcode": "07726", "addr:state": "NJ", "brand": "USPS", "collection_times": "Mo-Fr 16:45; Sa 13:00", "name": "USPS COLLECTION BOX - PO LOBBY", "note": "ON 12/24 AND 12/31, THIS BOX MAY BE COLLECTED AS EARLY AS 12 NOON.", "ref": "0772600053"}, "type": "Feature"}
{"geometry": {"coordinates": [-74.228707, 40.151456], "type": "Point"}, "id": "WJnvC-lrpC57s5b0OIARKV0dCko=", "properties": {"@spider": "usps_collection_boxes", "addr:city": "WALL TOWNSHIP", "addr:country": "US", "addr:full": "66 MAIN ST", "addr:postcode": "07727", "addr:state": "NJ", "brand": "USPS", "collection_times": "Mo-Fr 17:00; Sa 16:00", "name": "USPS COLLECTION BOX - BLUE BOX", "note": "ON 12/24 AND 12/31, THIS BOX MAY BE COLLECTED AS EARLY AS 12 NOON.", "ref": "0772700002"}, "type": "Feature"}
{"geometry": {"coordinates": [-74.167027, 40.194811], "type": "Point"}, "id": "Q4DTIBeki3InII6U7npM5Ma1CDo=", "properties": {"@spider": "usps_collection_boxes", "addr:city": "WALL TOWNSHIP", "addr:country": "US", "addr:full": "64 MAIN ST", "addr:postcode": "07727", "addr:state": "NJ", "brand": "USPS", "collection_times": "Mo-Fr 17:00; Sa 15:00", "name": "USPS COLLECTION BOX - BLUE BOX", "note": "ON 12/24 AND 12/31, THIS BOX MAY BE COLLECTED AS EARLY AS 12 NOON.", "ref": "0772700003"}, "type": "Feature"}
{"geometry": {"coordinates": [-74.1702531, 40.198654], "type": "Point"}, "id": "z8LcLSgBrm2pfNSIhUY9rgzkXWE=", "properties": {"@spider": "usps_collection_boxes", "addr:city": "WALL TOWNSHIP", "addr:country": "US", "addr:full": "4 MAIN ST", "addr:postcode": "07727", "addr:state": "NJ", "brand": "USPS", "collection_times": "Mo-Sa 11:00", "name": "USPS COLLECTION BOX - BLUE BOX", "ref": "0772700004"}, "type": "Feature"}
{"geometry": {"coordinates": [-74.1746179, 40.199516], "type": "Point"}, "id": "Q8mDHukijc0Ur1ph7z6U-rPQI18=", "properties": {"@spider": "usps_collection_boxes", "addr:city": "WALL TOWNSHIP", "addr:country": "US", "addr:full": "35 W MAIN ST", "addr:postcode": "07727", "addr:state": "NJ", "brand": "USPS", "collection_times": "Mo-Sa 11:00", "name": "USPS COLLECTION BOX - BLUE BOX", "ref": "0772700006"}, "type": "Feature"}
{"geometry": {"coordinates": [-74.1651188, 40.192607], "type": "Point"}, "id": "u-HMg1npPSBXfGFscLTnMgCI73o=", "properties": {"@spider": "usps_collection_boxes", "addr:city": "WALL TOWNSHIP", "addr:country": "US", "addr:full": "6 BOUD AVE", "addr:postcode": "07727", "addr:state": "NJ", "brand": "USPS", "collection_times": "Mo-Sa 11:00", "name": "USPS COLLECTION BOX - BLUE BOX", "ref": "0772700008"}, "type": "Feature"}
{"geometry": {"coordinates": [-74.1150958185, 40.1864712245], "type": "Point"}, "id": "PRMZFJrrk_edHQPqq8g9V6W_p0s=", "properties": {"@spider": "usps_collection_boxes", "addr:city": "WALL TOWNSHIP", "addr:country": "US", "addr:full": "1725 STATE ROUTE 34", "addr:postcode": "07727", "addr:state": "NJ", "brand": "USPS", "collection_times": "Mo-Sa 11:00", "name": "USPS COLLECTION BOX - BLUE BOX", "ref": "0772700009"}, "type": "Feature"}
{"geometry": {"coordinates": [-74.1150958185, 40.1864712245], "type": "Point"}, "id": "LYBsDLxOZrqt7GpL4fHWIXbA_2Q=", "properties": {"@spider": "usps_collection_boxes", "addr:city": "WALL TOWNSHIP", "addr:country": "US", "addr:full": "1725 STATE ROUTE 34", "addr:postcode": "07727", "addr:state": "NJ", "brand": "USPS", "collection_times": "Mo-Sa 11:00", "name": "USPS COLLECTION BOX - BLUE BOX", "ref": "0772700010"}, "type": "Feature"}
{"geometry": {"coordinates": [-74.228707, 40.151456], "type": "Point"}, "id": "y1oS4CCLZspxPDQucE9SR3UWSoA=", "properties": {"@spider": "usps_collection_boxes", "addr:city": "WALL TOWNSHIP", "addr:country": "US", "addr:full": "66 MAIN ST", "addr:postcode": "07727", "addr:state": "NJ", "brand": "USPS", "collection_times": "Mo-Fr 17:00; Sa 15:00", "name": "USPS COLLECTION BOX - EXPRESS", "note": "ON 12/24 AND 12/31, THIS BOX MAY BE COLLECTED AS EARLY AS 12 NOON.", "ref": "0772700012"}, "type": "Feature"}
{"geometry": {"coordinates": [-74.228707, 40.151456], "type": "Point"}, "id": "uMFEpWd2LGHLh7RIJe8lwoeTOU8=", "properties": {"@spider": "usps_collection_boxes", "addr:city": "WALL TOWNSHIP", "addr:country": "US", "addr:full": "66 MAIN ST", "addr:postcode": "07727", "addr:state": "NJ", "brand": "USPS", "collection_times": "Mo-Fr 17:00; Sa 16:00", "name": "USPS COLLECTION BOX - PO LOBBY", "note": "ON 12/24 AND 12/31, THIS BOX MAY BE COLLECTED AS EARLY AS 12 NOON.", "ref": "0772700013"}, "type": "Feature"}
{"geometry": {"coordinates": [-74.166899272, 40.194704716], "type": "Point"}, "id": "No0_4aebloWXiqKeJZv6eurXlIo=", "properties": {"@spider": "usps_collection_boxes", "addr:city": "WALL TOWNSHIP", "addr:country": "US", "addr:full": "66 MAIN ST", "addr:postcode": "07727", "addr:state": "NJ", "brand": "USPS", "collection_times": "Mo-Fr 17:00; Sa 13:00", "name": "USPS COLLECTION BOX - PO LOBBY", "note": "ON 12/24 AND 12/31, THIS BOX MAY BE COLLECTED AS EARLY AS 12 NOON.", "ref": "0772700016"}, "type": "Feature"}
{"geometry": {"coordinates": [-74.2773495, 40.242463], "type": "Point"}, "id": "a9mfEKGfOIQpXO5RZ30nEXIXNJI=", "properties": {"@spider": "usps_collection_boxes", "addr:city": "FREEHOLD", "addr:country": "US", "addr:full": "3585 US HIGHWAY 9", "addr:postcode": "07728", "addr:state": "NJ", "brand": "USPS", "collection_times": "Mo-Sa 11:00", "name": "USPS COLLECTION BOX - BLUE BOX", "ref": "0772800001"}, "type": "Feature"}
{"geometry": {"coordinates": [-74.3083184, 40.239862], "type": "Point"}, "id": "UoVQKbY3wYLwBA7pRSvtlCLG1ls=", "properties": {"@spider": "usps_collection_boxes", "addr:city": "FREEHOLD", "addr:country": "US", "addr:full": "200 VILLAGE CENTER DR", "addr:postcode": "07728", "addr:state": "NJ", "brand": "USPS", "collection_times": "Mo-Fr 17:00; Sa 15:00", "name": "USPS COLLECTION BOX - BLUE BOX", "note": "ON 12/24 AND 12/31, THIS BOX MAY BE COLLECTED AS EARLY AS 12 NOON.", "ref": "0772800002"}, "type": "Feature"}
{"geometry": {"coordinates": [-74.3082723, 40.23985], "type": "Point"}, "id": "ViYrsSTPHXh5Iu3z2X7nj5Q8IsQ=", "properties": {"@spider": "usps_collection_boxes", "addr:city": "FREEHOLD", "addr:country": "US", "addr:full": "200 VILLAGE CENTER DR", "addr:postcode": "07728", "addr:state": "NJ", "brand": "USPS", "collection_times": "Mo-Fr 17:00; Sa 15:00", "name": "USPS COLLECTION BOX - BLUE BOX", "note": "ON 12/24 AND 12/31, THIS BOX MAY BE COLLECTED AS EARLY AS 12 NOON.", "ref": "0772800003"}, "type": "Feature"}
{"geometry": {"coordinates": [-74.3106311, 40.233597], "type": "Point"}, "id": "9-nClNKwWI9Fso4FjdBhliWeq-M=", "properties": {"@spider": "usps_collection_boxes", "addr:city": "FREEHOLD", "addr:country": "US", "addr:full": "501 IRON BRIDGE RD", "addr:postcode": "07728", "addr:state": "NJ", "brand": "USPS", "collection_times": "Mo-Sa 11:00", "name": "USPS COLLECTION BOX - BLUE BOX", "ref": "0772800006"}, "type": "Feature"}
{"geometry": {"coordinates": [-74.3006716, 40.23898], "type": "Point"}, "id": "weJLMLrZLJC2ZJKi4VrcObE8zW0=", "properties": {"@spider": "usps_collection_boxes", "addr:city": "FREEHOLD", "addr:country": "US", "addr:full": "509 STILLWELLS CORNER RD", "addr:postcode": "07728", "addr:state": "NJ", "brand": "USPS", "collection_times": "Mo-Sa 11:00", "name": "USPS COLLECTION BOX - BLUE BOX", "ref": "0772800007"}, "type": "Feature"}
{"geometry": {"coordinates": [-74.2776249, 40.257683], "type": "Point"}, "id": "RfMO4Kpr_FY39iCMCEzZ7GtfgSE=", "properties": {"@spider": "usps_collection_boxes", "addr:city": "FREEHOLD", "addr:country": "US", "addr:full": "72 W MAIN ST", "addr:postcode": "07728", "addr:state": "NJ", "brand": "USPS", "collection_times": "Mo-Fr 17:00; Sa 11:00", "name": "USPS COLLECTION BOX - BLUE BOX", "note": "ON 12/24 AND 12/31, THIS BOX MAY BE COLLECTED AS EARLY AS 12 NOON.", "ref": "0772800008"}, "type": "Feature"}
{"geometry": {"coordinates": [-74.2762319, 40.26136], "type": "Point"}, "id": "LqoJo1XCIUQ5ChZhW85ywDrby6c=", "properties": {"@spider": "usps_collection_boxes", "addr:city": "FREEHOLD", "addr:country": "US", "addr:full": "1 BROAD ST", "addr:postcode": "07728", "addr:state": "NJ", "brand": "USPS", "collection_times": "Mo-Sa 11:00", "name": "USPS COLLECTION BOX - BLUE BOX", "ref": "0772800014"}, "type": "Feature"}
{"geometry": {"coordinates": [-74.274121, 40.260308], "type": "Point"}, "id": "Wzr12hfzmIH8OdIOpbut5FetaAc=", "properties": {"@spider": "usps_collection_boxes", "addr:city": "FREEHOLD", "addr:country": "US", "addr:full": "1 E MAIN ST", "addr:postcode": "07728", "addr:state": "NJ", "brand": "USPS", "collection_times": "Mo-Fr 17:00; Sa 11:00", "name": "USPS COLLECTION BOX - BLUE BOX", "note": "ON 12/24 AND 12/31, THIS BOX MAY BE COLLECTED AS EARLY AS 12 NOON.", "ref": "0772800015"}, "type": "Feature"}
{"geometry": {"coordinates": [-74.2708471, 40.249449], "type": "Point"}, "id": "JgjZX2iBYQ6KKobnNLdrbFRu2mM=", "properties": {"@spider": "usps_collection_boxes", "addr:city": "FREEHOLD", "addr:country": "US", "addr:full": "600 PARK AVE", "addr:postcode": "07728", "addr:state": "NJ", "brand": "USPS", "collection_times": "Mo-Sa 09:30", "name": "USPS COLLECTION BOX - BLUE BOX", "ref": "0772800016"}, "type": "Feature"}
{"geometry": {"coordinates": [-74.2460134, 40.2552], "type": "Point"}, "id": "0HF2dRbW85wndPPsMn_MTaviH4w=", "properties": {"@spider": "usps_collection_boxes", "addr:city": "FREEHOLD", "addr:country": "US", "addr:full": "30 THOREAU DR", "addr:postcode": "07728", "addr:state": "NJ", "brand": "USPS", "collection_times": "Mo-Sa 11:00", "name": "USPS COLLECTION BOX - BLUE BOX", "ref": "0772800019"}, "type": "Feature"}
{"geometry": {"coordinates": [-74.2531617, 40.210632], "type": "Point"}, "id": "mJzjYbqZWpDAnIDc6UnWkmiS3AY=", "properties": {"@spider": "usps_collection_boxes", "addr:city": "FREEHOLD", "addr:country": "US", "addr:full": "100 DAG HAMMARSKJOLD BLVD", "addr:postcode": "07728", "addr:state": "NJ", "brand": "USPS", "collection_times": "Mo-Sa 11:00", "name": "USPS COLLECTION BOX - BLUE BOX", "ref": "0772800020"}, "type": "Feature"}
{"geometry": {"coordinates": [-74.2736657, 40.254542], "type": "Point"}, "id": "1fO5p1zBtFJ2b3tAsgYt5CpvSfo=", "properties": {"@spider": "usps_collection_boxes", "addr:city": "FREEHOLD", "addr:country": "US", "addr:full": "95 SOUTH ST", "addr:postcode": "07728", "addr:state": "NJ", "brand": "USPS", "collection_times": "Mo-Sa 11:00", "name": "USPS COLLECTION BOX - BLUE BOX", "ref": "0772800024"}, "type": "Feature"}
{"geometry": {"coordinates": [-74.2957315, 40.284538], "type": "Point"}, "id": "539BAUeBWQVUl19Oyl88fr0LvT4=", "properties": {"@spider": "usps_collection_boxes", "addr:city": "FREEHOLD", "addr:country": "US", "addr:full": "4400 US HIGHWAY 9", "addr:postcode": "07728", "addr:state": "NJ", "brand": "USPS", "collection_times": "Mo-Sa 11:00", "name": "USPS COLLECTION BOX - BLUE BOX", "ref": "0772800031"}, "type": "Feature"}
{"geometry": {"coordinates": [-74.2937119, 40.27739], "type": "Point"}, "id": "HZivUVxHdxkKtU3ZuB0RyktXcsc=", "properties": {"@spider": "usps_collection_boxes", "addr:city": "FREEHOLD", "addr:country": "US", "addr:full": "4253 US HIGHWAY 9", "addr:postcode": "07728", "addr:state": "NJ", "brand": "USPS", "collection_times": "Mo-Sa 11:00", "name": "USPS COLLECTION BOX - BLUE BOX", "ref": "0772800032"}, "type": "Feature"}
{"geometry": {"coordinates": [-74.2795349, 40.258607], "type": "Point"}, "id": "hCkLvyRPoj5oj7aYu3ueu2AyrjU=", "properties": {"@spider": "usps_collection_boxes", "addr:city": "FREEHOLD", "addr:country": "US", "addr:full": "59 BROAD ST", "addr:postcode": "07728", "addr:state": "NJ", "brand": "USPS", "collection_times": "Mo-Sa 11:00", "name": "USPS COLLECTION BOX - BLUE BOX", "ref": "0772800040"}, "type": "Feature"}
{"geometry": {"coordinates": [-74.2764281, 40.25867], "type": "Point"}, "id": "hoAiRiEd9b4Z_tbEhGIZh46ELTE=", "properties": {"@spider": "usps_collection_boxes", "addr:city": "FREEHOLD", "addr:country": "US", "addr:full": "51 W MAIN ST", "addr:postcode": "07728", "addr:state": "NJ", "brand": "USPS", "collection_times": "Mo-Fr 17:00; Sa 11:00", "name": "USPS COLLECTION BOX - BLUE BOX", "note": "ON 12/24 AND 12/31, THIS BOX MAY BE COLLECTED AS EARLY AS 12 NOON.", "ref": "0772800041"}, "type": "Feature"}
{"geometry": {"coordinates": [-74.2733405, 40.260692], "type": "Point"}, "id": "BKVkZvDXLIfZONZ4D_fkANA-kHE=", "properties": {"@spider": "usps_collection_boxes", "addr:city": "FREEHOLD", "addr:country": "US", "addr:full": "31 E MAIN ST", "addr:postcode": "07728", "addr:state": "NJ", "brand": "USPS", "collection_times": "Mo-Fr 17:00; Sa 11:00", "name": "USPS COLLECTION BOX - BLUE BOX", "note": "ON 12/24 AND 12/31, THIS BOX MAY BE COLLECTED AS EARLY AS 12 NOON.", "ref": "0772800044"}, "type": "Feature"}
{"geometry": {"coordinates": [-74.3107353, 40.238246], "type": "Point"}, "id": "HJaKDnti6zK0uHbiKi1KGb-S5fY=", "properties": {"@spider": "usps_collection_boxes", "addr:city": "FREEHOLD", "addr:country": "US", "addr:full": "901 W MAIN ST", "addr:postcode": "07728", "addr:state": "NJ", "brand": "USPS", "collection_times": "Mo-Sa 11:00", "name": "USPS COLLECTION BOX - BLUE BOX", "ref": "0772800046"}, "type": "Feature"}
{"geometry": {"coordinates": [-74.2723724, 40.23505], "type": "Point"}, "id": "cc16giTSquETt34yDu5HFnTBfSY=", "properties": {"@spider": "usps_collection_boxes", "addr:city": "FREEHOLD", "addr:country": "US", "addr:full": "3499 US HIGHWAY 9", "addr:postcode": "07728", "addr:state": "NJ", "brand": "USPS", "collection_times": "Mo-Sa 11:00", "name": "USPS COLLECTION BOX - BLUE BOX", "ref": "0772800047"}, "type": "Feature"}
{"geometry": {"coordinates": [-74.3083936, 40.239886], "type": "Point"}, "id": "DkQdhtseMcZ8h__vYHNf6Xu1Itw=", "properties": {"@spider": "usps_collection_boxes", "addr:city": "FREEHOLD", "addr:country": "US", "addr:full": "200 VILLAGE CENTER DR", "addr:postcode": "07728", "addr:state": "NJ", "brand": "USPS", "collection_times": "Mo-Fr 17:00; Sa 15:00", "name": "USPS COLLECTION BOX - APC", "note": "ON 12/24 AND 12/31, THIS BOX MAY BE COLLECTED AS EARLY AS 12 NOON.", "ref": "0772800048"}, "type": "Feature"}
{"geometry": {"coordinates": [-74.3086208, 40.239935], "type": "Point"}, "id": "0eAn4YyDrfTpZng4RK1C0VVk9rw=", "properties": {"@spider": "usps_collection_boxes", "addr:city": "FREEHOLD", "addr:country": "US", "addr:full": "200 VILLAGE CENTER DR", "addr:postcode": "07728", "addr:state": "NJ", "brand": "USPS", "collection_times": "Mo-Fr 17:00; Sa 15:00", "name": "USPS COLLECTION BOX - PO LOBBY", "note": "ON 12/24 AND 12/31, THIS BOX MAY BE COLLECTED AS EARLY AS 12 NOON.", "ref": "0772800049"}, "type": "Feature"}
{"geometry": {"coordinates": [-74.2994995, 40.253276], "type": "Point"}, "id": "l97MalwAtsjQG_ueJeBQA5Rjre4=", "properties": {"@spider": "usps_collection_boxes", "addr:city": "FREEHOLD", "addr:country": "US", "addr:full": "3710 US HIGHWAY 9", "addr:postcode": "07728", "addr:state": "NJ", "brand": "USPS", "collection_times": "Mo-Sa 11:00", "name": "USPS COLLECTION BOX - BLUE BOX", "ref": "0772800051"}, "type": "Feature"}
{"geometry": {"coordinates": [-74.308198586, 40.240273392], "type": "Point"}, "id": "x_2g9-QVayeDgq5IvPEscao6g3I=", "properties": {"@spider": "usps_collection_boxes", "addr:city": "FREEHOLD", "addr:country": "US", "addr:full": "200 VILLAGE CENTER DR", "addr:postcode": "07728", "addr:state": "NJ", "brand": "USPS", "collection_times": "Mo-Fr 17:00; Sa 13:00", "name": "USPS COLLECTION BOX - PO LOBBY", "note": "ON 12/24 AND 12/31, THIS BOX MAY BE COLLECTED AS EARLY AS 12 NOON.", "ref": "0772800061"}, "type": "Feature"}
{"geometry": {"coordinates": [-74.2255467, 40.147271], "type": "Point"}, "id": "bwkcVUNP2-ElEYImBDS-Tttty-E=", "properties": {"@spider": "usps_collection_boxes", "addr:city": "HOWELL", "addr:country": "US", "addr:full": "4261 US HIGHWAY 9", "addr:postcode": "07731", "addr:state": "NJ", "brand": "USPS", "collection_times": "Mo-Fr 15:00; Sa 11:00", "name": "USPS COLLECTION BOX - BLUE BOX", "note": "ON 12/24 AND 12/31, THIS BOX MAY BE COLLECTED AS EARLY AS 12 NOON.", "ref": "0773100001"}, "type": "Feature"}
{"geometry": {"coordinates": [-74.2361638, 40.167112], "type": "Point"}, "id": "h7AE1BcSyysa435Mod5OMp554G8=", "properties": {"@spider": "usps_collection_boxes", "addr:city": "HOWELL", "addr:country": "US", "addr:full": "3001 US HIGHWAY 9", "addr:postcode": "07731", "addr:state": "NJ", "brand": "USPS", "collection_times": "Mo-Sa 09:30", "name": "USPS COLLECTION BOX - BLUE BOX", "ref": "0773100002"}, "type": "Feature"}
{"geometry": {"coordinates": [-74.2588543, 40.202422], "type": "Point"}, "id": "JbqRZkafatAhhuUr8CoJcOdrGq8=", "properties": {"@spider": "usps_collection_boxes", "addr:city": "HOWELL", "addr:country": "US", "addr:full": "99 WILLOW POND DR", "addr:postcode": "07731", "addr:state": "NJ", "brand": "USPS", "collection_times": "Mo-Sa 11:00", "name": "USPS COLLECTION BOX - BLUE BOX", "ref": "0773100012"}, "type": "Feature"}
{"geometry": {"coordinates": [-74.1450864, 40.121492], "type": "Point"}, "id": "HL9XE5vkeoMN5mCcO0ggiJliDP4=", "properties": {"@spider": "usps_collection_boxes", "addr:city": "HOWELL", "addr:country": "US", "addr:full": "20 RAMTOWN GREENVILLE RD", "addr:postcode": "07731", "addr:state": "NJ", "brand": "USPS", "collection_times": "Mo-Sa 11:00", "name": "USPS COLLECTION BOX - BLUE BOX", "ref": "0773100015"}, "type": "Feature"}
{"geometry": {"coordinates": [-74.1440263, 40.119323], "type": "Point"}, "id": "YsW-rVt5Y6rv5tdTq81Frb-fBpA=", "properties": {"@spider": "usps_collection_boxes", "addr:city": "HOWELL", "addr:country": "US", "addr:full": "125 NEWTONS CORNER RD", "addr:postcode": "07731", "addr:state": "NJ", "brand": "USPS", "collection_times": "Mo-Sa 11:00", "name": "USPS COLLECTION BOX - BLUE BOX", "ref": "0773100016"}, "type": "Feature"}
{"geometry": {"coordinates": [-74.2284419, 40.151506], "type": "Point"}, "id": "bYX8LKrUxkXaL85HfvmthN8Yya0=", "properties": {"@spider": "usps_collection_boxes", "addr:city": "HOWELL", "addr:country": "US", "addr:full": "4170 US HIGHWAY 9", "addr:postcode": "07731", "addr:state": "NJ", "brand": "USPS", "collection_times": "Mo-Fr 17:00; Sa 15:00", "name": "USPS COLLECTION BOX - BLUE BOX", "note": "ON 12/24 AND 12/31, THIS BOX MAY BE COLLECTED AS EARLY AS 12 NOON.", "ref": "0773100017"}, "type": "Feature"}
{"geometry": {"coordinates": [-74.2241074, 40.137155], "type": "Point"}, "id": "bIfkneQLEzPJ_spbiN3NsMkqIjU=", "properties": {"@spider": "usps_collection_boxes", "addr:city": "HOWELL", "addr:country": "US", "addr:full": "4689 US HIGHWAY 9", "addr:postcode": "07731", "addr:state": "NJ", "brand": "USPS", "collection_times": "Mo-Sa 11:00", "name": "USPS COLLECTION BOX - BLUE BOX", "ref": "0773100023"}, "type": "Feature"}
{"geometry": {"coordinates": [-74.2241881, 40.147074], "type": "Point"}, "id": "98-yCxTjs5JcruO0Se3odBNlbC0=", "properties": {"@spider": "usps_collection_boxes", "addr:city": "HOWELL", "addr:country": "US", "addr:full": "305 CANDLEWOOD COMMONS", "addr:postcode": "07731", "addr:state": "NJ", "brand": "USPS", "collection_times": "Mo-Sa 11:00", "name": "USPS COLLECTION BOX - BLUE BOX", "ref": "0773100024"}, "type": "Feature"}
{"geometry": {"coordinates": [-74.2491023, 40.182816], "type": "Point"}, "id": "O46u8NF6HP2P6EWdfmpuYYg0sm0=", "properties": {"@spider": "usps_collection_boxes", "addr:city": "HOWELL", "addr:country": "US", "addr:full": "2228 US HIGHWAY 9", "addr:postcode": "07731", "addr:state": "NJ", "brand": "USPS", "collection_times": "Mo-Sa 11:00", "name": "USPS COLLECTION BOX - BLUE BOX", "ref": "0773100026"}, "type": "Feature"}
{"geometry": {"coordinates": [-74.2275061, 40.153718], "type": "Point"}, "id": "_-o41DEXAAvT_h3TqvmPZ4lfi94=", "properties": {"@spider": "usps_collection_boxes", "addr:city": "HOWELL", "addr:country": "US", "addr:full": "4059 US HIGHWAY 9", "addr:postcode": "07731", "addr:state": "NJ", "brand": "USPS", "collection_times": "Mo-Fr 15:00; Sa 11:00", "name": "USPS COLLECTION BOX - BLUE BOX", "note": "ON 12/24 AND 12/31, THIS BOX MAY BE COLLECTED AS EARLY AS 12 NOON.", "ref": "0773100036"}, "type": "Feature"}
{"geometry": {"coordinates": [-74.227851212, 40.151945408], "type": "Point"}, "id": "8FcolA8YJTUMpR7A9-XFI2caYB0=", "properties": {"@spider": "usps_collection_boxes", "addr:city": "HOWELL", "addr:country": "US", "addr:full": "4170 US HIGHWAY 9", "addr:postcode": "07731", "addr:state": "NJ", "brand": "USPS", "collection_times": "Mo-Fr 17:00; Sa 15:00", "name": "USPS COLLECTION BOX - BLUE BOX", "note": "ON 12/24 AND 12/31, THIS BOX MAY BE COLLECTED AS EARLY AS 12 NOON.", "ref": "0773100037"}, "type": "Feature"}
{"geometry": {"coordinates": [-74.2284295, 40.151518], "type": "Point"}, "id": "QHZDpRJGeuND7BYcQuqZ0Wp4hSg=", "properties": {"@spider": "usps_collection_boxes", "addr:city": "HOWELL", "addr:country": "US", "addr:full": "4170 US HIGHWAY 9", "addr:postcode": "07731", "addr:state": "NJ", "brand": "USPS", "collection_times": "Mo-Fr 17:00; Sa 15:00", "name": "USPS COLLECTION BOX - APC", "note": "ON 12/24 AND 12/31, THIS BOX MAY BE COLLECTED AS EARLY AS 12 NOON.", "ref": "0773100038"}, "type": "Feature"}
{"geometry": {"coordinates": [-74.227857, 40.152023], "type": "Point"}, "id": "slUW_hMBYmFs4wKoHA8f_bbt_NU=", "properties": {"@spider": "usps_collection_boxes", "addr:city": "HOWELL", "addr:country": "US", "addr:full": "4170 US HIGHWAY 9", "addr:postcode": "07731", "addr:state": "NJ", "brand": "USPS", "collection_times": "Mo-Fr 17:00; Sa 15:00", "name": "USPS COLLECTION BOX - PO LOBBY", "note": "ON 12/24 AND 12/31, THIS BOX MAY BE COLLECTED AS EARLY AS 12 NOON.", "ref": "0773100039"}, "type": "Feature"}
{"geometry": {"coordinates": [-74.227851212, 40.151945408], "type": "Point"}, "id": "pZE4LrSMzpEWzoe280BYU4bepCs=", "properties": {"@spider": "usps_collection_boxes", "addr:city": "HOWELL", "addr:country": "US", "addr:full": "4170 US HIGHWAY 9", "addr:postcode": "07731", "addr:state": "NJ", "brand": "USPS", "collection_times": "Mo-Fr 17:00; Sa 12:30", "name": "USPS COLLECTION BOX - PO LOBBY", "note": "ON 12/24 AND 12/31, THIS BOX MAY BE COLLECTED AS EARLY AS 12 NOON.", "ref": "0773100046"}, "type": "Feature"}
{"geometry": {"coordinates": [-74.2774905, 40.309378], "type": "Point"}, "id": "CJdG-KDIZqUkRG4SJ4cs9h-lWyg=", "properties": {"@spider": "usps_collection_boxes", "addr:city": "MARLBORO", "addr:country": "US", "addr:full": "21 CLUBHOUSE LN", "addr:postcode": "07746", "addr:state": "NJ", "brand": "USPS", "collection_times": "Mo-Sa 11:00", "name": "USPS COLLECTION BOX - BLUE BOX", "ref": "0774600006"}, "type": "Feature"}
{"geometry": {"coordinates": [-74.3087319, 40.340812], "type": "Point"}, "id": "W1P7xiusUutSu5298mQVjwv6KzM=", "properties": {"@spider": "usps_collection_boxes", "addr:city": "MORGANVILLE", "addr:country": "US", "addr:full": "23 KILMER DR", "addr:postcode": "07751", "addr:state": "NJ", "brand": "USPS", "collection_times": "Mo-Sa 10:00", "name": "USPS COLLECTION BOX - BLUE BOX", "ref": "0775100005"}, "type": "Feature"}
{"geometry": {"coordinates": [-74.0718958096, 40.2270374531], "type": "Point"}, "id": "FYU1Kni6jU-zONzd-335fOOG0Q0=", "properties": {"@spider": "usps_collection_boxes", "addr:city": "NEPTUNE", "addr:country": "US", "addr:full": "3433 STATE ROUTE 66", "addr:postcode": "07753", "addr:state": "NJ", "brand": "USPS", "collection_times": "Mo-Fr 17:00; Sa 15:00", "name": "USPS COLLECTION BOX - BLUE BOX", "note": "ON 12/24 AND 12/31, THIS BOX MAY BE COLLECTED AS EARLY AS 12 NOON.", "ref": "0775300013"}, "type": "Feature"}
{"geometry": {"coordinates": [-74.121852, 40.217324], "type": "Point"}, "id": "qw_owWpNDIzfepBxUW2rOxqqvm0=", "properties": {"@spider": "usps_collection_boxes", "addr:city": "NEPTUNE", "addr:country": "US", "addr:full": "1305 CAMPUS PKWY", "addr:postcode": "07753", "addr:state": "NJ", "brand": "USPS", "collection_times": "Mo-Fr 17:00; Sa 15:00", "name": "USPS COLLECTION BOX - BLUE BOX", "note": "ON 12/24 AND 12/31, THIS BOX MAY BE COLLECTED AS EARLY AS 12 NOON.", "ref": "0775300017"}, "type": "Feature"}
{"geometry": {"coordinates": [-74.0937977, 40.219188], "type": "Point"}, "id": "vdM2Yuc4zrDKTR6t-g_NZEAgUIo=", "properties": {"@spider": "usps_collection_boxes", "addr:city": "NEPTUNE", "addr:country": "US", "addr:full": "4000 STATE ROUTE 66", "addr:postcode": "07753", "addr:state": "NJ", "brand": "USPS", "collection_times": "Mo-Fr 17:00; Sa 15:00", "name": "USPS COLLECTION BOX - BLUE BOX", "note": "ON 12/24 AND 12/31, THIS BOX MAY BE COLLECTED AS EARLY AS 12 NOON.", "ref": "0775300019"}, "type": "Feature"}
{"geometry": {"coordinates": [-74.0908449, 40.210863], "type": "Point"}, "id": "jI2BEczWff4W1nzzeeORN-v5p3c=", "properties": {"@spider": "usps_collection_boxes", "addr:city": "NEPTUNE", "addr:country": "US", "addr:full": "3701 STATE ROUTE 33", "addr:postcode": "07753", "addr:state": "NJ", "brand": "USPS", "collection_times": "Mo-Fr 17:00; Sa 15:00", "name": "USPS COLLECTION BOX - BLUE BOX", "note": "ON 12/24 AND 12/31, THIS BOX MAY BE COLLECTED AS EARLY AS 12 NOON.", "ref": "0775300020"}, "type": "Feature"}
{"geometry": {"coordinates": [-74.0556704, 40.207351], "type": "Point"}, "id": "c2e3qaanJvQjsdGeX4k119OAz8c=", "properties": {"@spider": "usps_collection_boxes", "addr:city": "NEPTUNE", "addr:country": "US", "addr:full": "2433 STATE ROUTE 33", "addr:postcode": "07753", "addr:state": "NJ", "brand": "USPS", "collection_times": "Mo-Fr 17:00; Sa 15:00", "name": "USPS COLLECTION BOX - BLUE BOX", "note": "ON 12/24 AND 12/31, THIS BOX MAY BE COLLECTED AS EARLY AS 12 NOON.", "ref": "0775300022"}, "type": "Feature"}
{"geometry": {"coordinates": [-74.0550236, 40.196928], "type": "Point"}, "id": "-NbtYRE7jIfFRuKsfOBxYbCkwr0=", "properties": {"@spider": "usps_collection_boxes", "addr:city": "NEPTUNE", "addr:country": "US", "addr:full": "312 BRIGHTON AVE", "addr:postcode": "07753", "addr:state": "NJ", "brand": "USPS", "collection_times": "Mo-Sa 11:00", "name": "USPS COLLECTION BOX - BLUE BOX", "ref": "0775300023"}, "type": "Feature"}
{"geometry": {"coordinates": [-74.0426971, 40.196089], "type": "Point"}, "id": "WqMrlMTXBA7aEsRhm7_U6KjeoD4=", "properties": {"@spider": "usps_collection_boxes", "addr:city": "NEPTUNE", "addr:country": "US", "addr:full": "1 S RIVERSIDE DR", "addr:postcode": "07753", "addr:state": "NJ", "brand": "USPS", "collection_times": "Mo-Sa 10:00", "name": "USPS COLLECTION BOX - BLUE BOX", "ref": "0775300024"}, "type": "Feature"}
{"geometry": {"coordinates": [-74.0444440744, 40.2062938453], "type": "Point"}, "id": "_QwbkOR9irnZ1IccQrU2CxrhzGs=", "properties": {"@spider": "usps_collection_boxes", "addr:city": "NEPTUNE", "addr:country": "US", "addr:full": "1 OXFORD WAY", "addr:postcode": "07753", "addr:state": "NJ", "brand": "USPS", "collection_times": "Mo-Sa 10:00", "name": "USPS COLLECTION BOX - BLUE BOX", "ref": "0775300027"}, "type": "Feature"}
{"geometry": {"coordinates": [-74.0302617, 40.197891], "type": "Point"}, "id": "cZCT39UYYXgnfi64Z2Bk4s_xyYY=", "properties": {"@spider": "usps_collection_boxes", "addr:city": "NEPTUNE", "addr:country": "US", "addr:full": "106 W SYLVANIA AVE", "addr:postcode": "07753", "addr:state": "NJ", "brand": "USPS", "collection_times": "Mo-Sa 10:00", "name": "USPS COLLECTION BOX - BLUE BOX", "ref": "0775300032"}, "type": "Feature"}
{"geometry": {"coordinates": [-74.043932, 40.206837], "type": "Point"}, "id": "AyrJSBkTuQXX2uiifIzP_pRSiM0=", "properties": {"@spider": "usps_collection_boxes", "addr:city": "NEPTUNE", "addr:country": "US", "addr:full": "2040 STATE ROUTE 33", "addr:postcode": "07753", "addr:state": "NJ", "brand": "USPS", "collection_times": "Mo-Fr 17:00; Sa 15:00", "name": "USPS COLLECTION BOX - BLUE BOX", "note": "ON 12/24 AND 12/31, THIS BOX MAY BE COLLECTED AS EARLY AS 12 NOON.", "ref": "0775300041"}, "type": "Feature"}
{"geometry": {"coordinates": [-74.0417383, 40.207695], "type": "Point"}, "id": "156O3CoZe5WrcE7gP9avQfpOhEI=", "properties": {"@spider": "usps_collection_boxes", "addr:city": "NEPTUNE", "addr:country": "US", "addr:full": "1945 STATE ROUTE 33", "addr:postcode": "07753", "addr:state": "NJ", "brand": "USPS", "collection_times": "Mo-Sa 10:00", "name": "USPS COLLECTION BOX - BLUE BOX", "ref": "0775300045"}, "type": "Feature"}
{"geometry": {"coordinates": [-74.123381371, 40.211051642], "type": "Point"}, "id": "oJcX96f9xZ7fnT8RElQ-aINSUdk=", "properties": {"@spider": "usps_collection_boxes", "addr:city": "NEPTUNE", "addr:country": "US", "addr:full": "1350 CAMPUS PKWY", "addr:postcode": "07753", "addr:state": "NJ", "brand": "USPS", "collection_times": "Mo-Fr 17:00; Sa 15:00", "name": "USPS COLLECTION BOX - BLUE BOX", "note": "ON 12/24 AND 12/31, THIS BOX MAY BE COLLECTED AS EARLY AS 12 NOON.", "ref": "0775300049"}, "type": "Feature"}
{"geometry": {"coordinates": [-74.1237129, 40.211804], "type": "Point"}, "id": "bthXxLq9tFyTWefzL-tAW1b0Uo4=", "properties": {"@spider": "usps_collection_boxes", "addr:city": "NEPTUNE", "addr:country": "US", "addr:full": "1350 CAMPUS PKWY", "addr:postcode": "07753", "addr:state": "NJ", "brand": "USPS", "collection_times": "Mo-Fr 17:00; Sa 15:00", "name": "USPS COLLECTION BOX - BLUE BOX", "note": "ON 12/24 AND 12/31, THIS BOX MAY BE COLLECTED AS EARLY AS 12 NOON.", "ref": "0775300050"}, "type": "Feature"}
{"geometry": {"coordinates": [-74.0427031, 40.153122], "type": "Point"}, "id": "wiEigjDg-A68vTr3BwUnZkSL8bk=", "properties": {"@spider": "usps_collection_boxes", "addr:city": "SPRING LAKE", "addr:country": "US", "addr:full": "12 LINDEN DR", "addr:postcode": "07762", "addr:state": "NJ", "brand": "USPS", "collection_times": "Mo-Sa 11:00", "name": "USPS COLLECTION BOX - BLUE BOX", "ref": "0776200016"}, "type": "Feature"}
{"geometry": {"coordinates": [-74.034668, 40.162685], "type": "Point"}, "id": "iCf4ZLLlbrS_WpPDxmcUlLzOq5g=", "properties": {"@spider": "usps_collection_boxes", "addr:city": "SPRING LAKE", "addr:country": "US", "addr:full": "2407 STATE ROUTE 71", "addr:postcode": "07762", "addr:state": "NJ", "brand": "USPS", "collection_times": "Mo-Fr 17:00; Sa 15:00", "name": "USPS COLLECTION BOX - BLUE BOX", "note": "ON 12/24 AND 12/31, THIS BOX MAY BE COLLECTED AS EARLY AS 12 NOON.", "ref": "0776200017"}, "type": "Feature"}
{"geometry": {"coordinates": [-74.0285559, 40.152434], "type": "Point"}, "id": "roAjVzjk35E-uT3AYCNiv6bN1TM=", "properties": {"@spider": "usps_collection_boxes", "addr:city": "SPRING LAKE", "addr:country": "US", "addr:full": "1123 3RD AVE", "addr:postcode": "07762", "addr:state": "NJ", "brand": "USPS", "collection_times": "Mo-Sa 11:00", "name": "USPS COLLECTION BOX - BLUE BOX", "ref": "0776200019"}, "type": "Feature"}
{"geometry": {"coordinates": [-74.0389852, 40.151266], "type": "Point"}, "id": "ieIklK1miy4ja_gCsCHcSKd0yyE=", "properties": {"@spider": "usps_collection_boxes", "addr:city": "SPRING LAKE", "addr:country": "US", "addr:full": "900 STATE ROUTE 71", "addr:postcode": "07762", "addr:state": "NJ", "brand": "USPS", "collection_times": "Mo-Sa 10:00", "name": "USPS COLLECTION BOX - BLUE BOX", "ref": "0776200021"}, "type": "Feature"}
{"geometry": {"coordinates": [-74.0422554, 40.144028], "type": "Point"}, "id": "n1IHMjyljdI_ILXAclrnXZNeUC8=", "properties": {"@spider": "usps_collection_boxes", "addr:city": "SPRING LAKE", "addr:country": "US", "addr:full": "301 STATE ROUTE 71", "addr:postcode": "07762", "addr:state": "NJ", "brand": "USPS", "collection_times": "Mo-Sa 10:00", "name": "USPS COLLECTION BOX - BLUE BOX", "ref": "0776200022"}, "type": "Feature"}
{"geometry": {"coordinates": [-74.027439, 40.154939], "type": "Point"}, "id": "R5bfvIruIyyWoWRUedVeg6JoARo=", "properties": {"@spider": "usps_collection_boxes", "addr:city": "SPRING LAKE", "addr:country": "US", "addr:full": "1410 3RD AVE", "addr:postcode": "07762", "addr:state": "NJ", "brand": "USPS", "collection_times": "Mo-Sa 11:00", "name": "USPS COLLECTION BOX - BLUE BOX", "ref": "0776200024"}, "type": "Feature"}
{"geometry": {"coordinates": [-74.034668, 40.162685], "type": "Point"}, "id": "Sb2WRhEN1ze66Oubvot7dTDNBYQ=", "properties": {"@spider": "usps_collection_boxes", "addr:city": "SPRING LAKE", "addr:country": "US", "addr:full": "2407 STATE ROUTE 71", "addr:postcode": "07762", "addr:state": "NJ", "brand": "USPS", "collection_times": "Mo-Fr 17:00; Sa 15:00", "name": "USPS COLLECTION BOX - EXPRESS", "note": "ON 12/24 AND 12/31, THIS BOX MAY BE COLLECTED AS EARLY AS 12 NOON.", "ref": "0776200027"}, "type": "Feature"}
{"geometry": {"coordinates": [-74.034668, 40.162685], "type": "Point"}, "id": "XKXe6ucqpPt8nYQpjU6CXLZLp1k=", "properties": {"@spider": "usps_collection_boxes", "addr:city": "SPRING LAKE", "addr:country": "US", "addr:full": "2407 STATE ROUTE 71", "addr:postcode": "07762", "addr:state": "NJ", "brand": "USPS", "collection_times": "Mo-Fr 17:00; Sa 15:00", "name": "USPS COLLECTION BOX - BLUE BOX", "note": "ON 12/24 AND 12/31, THIS BOX MAY BE COLLECTED AS EARLY AS 12 NOON.", "ref": "0776200028"}, "type": "Feature"}
{"geometry": {"coordinates": [-74.034668, 40.162685], "type": "Point"}, "id": "mC5hUmJyo6epBzY6DdAaJ3tt5kc=", "properties": {"@spider": "usps_collection_boxes", "addr:city": "SPRING LAKE", "addr:country": "US", "addr:full": "2407 STATE ROUTE 71", "addr:postcode": "07762", "addr:state": "NJ", "brand": "USPS", "collection_times": "Mo-Fr 17:15; Sa 16:00", "name": "USPS COLLECTION BOX - PO LOBBY", "note": "ON 12/24 AND 12/31, THIS BOX MAY BE COLLECTED AS EARLY AS 12 NOON.", "ref": "0776200031"}, "type": "Feature"}
{"geometry": {"coordinates": [-74.034668, 40.162685], "type": "Point"}, "id": "fQ0Dv8AFH7m1Oh6pPxMFVtzc9-0=", "properties": {"@spider": "usps_collection_boxes", "addr:city": "SPRING LAKE", "addr:country": "US", "addr:full": "2407 STATE ROUTE 71", "addr:postcode": "07762", "addr:state": "NJ", "brand": "USPS", "collection_times": "Mo-Fr 17:15; Sa 16:00", "name": "USPS COLLECTION BOX - PO LOBBY", "note": "ON 12/24 AND 12/31, THIS BOX MAY BE COLLECTED AS EARLY AS 12 NOON.", "ref": "0776200032"}, "type": "Feature"}
{"geometry": {"coordinates": [-74.034507711, 40.163537231], "type": "Point"}, "id": "teO9H0HzjVjwmMLPLT-G_qQlrpI=", "properties": {"@spider": "usps_collection_boxes", "addr:city": "SPRING LAKE", "addr:country": "US", "addr:full": "2407 STATE ROUTE 71 STE 1", "addr:postcode": "07762", "addr:state": "NJ", "brand": "USPS", "collection_times": "Mo-Fr 17:00; Sa 12:00", "name": "USPS COLLECTION BOX - PO LOBBY", "note": "ON 12/24 AND 12/31, THIS BOX MAY BE COLLECTED AS EARLY AS 12 NOON.", "ref": "0776200035"}, "type": "Feature"}
{"geometry": {"coordinates": [-74.330542, 40.281295], "type": "Point"}, "id": "3JGAIXnO53i0jMqOh5qiayDQOVo=", "properties": {"@spider": "usps_collection_boxes", "addr:city": "TENNENT", "addr:country": "US", "addr:full": "420 MAIN ST", "addr:postcode": "07763", "addr:state": "NJ", "brand": "USPS", "collection_times": "Mo-Fr 16:30; Sa 12:00", "name": "USPS COLLECTION BOX - BLUE BOX", "note": "ON 12/24 AND 12/31, THIS BOX MAY BE COLLECTED AS EARLY AS 12 NOON.", "ref": "0776300001"}, "type": "Feature"}
{"geometry": {"coordinates": [-74.330542, 40.281295], "type": "Point"}, "id": "9gkjcTMwhDHTbMCN_BP2B4kL5Jk=", "properties": {"@spider": "usps_collection_boxes", "addr:city": "TENNENT", "addr:country": "US", "addr:full": "420 MAIN ST", "addr:postcode": "07763", "addr:state": "NJ", "brand": "USPS", "collection_times": "Mo-Fr 16:30; Sa 12:00", "name": "USPS COLLECTION BOX - PO LOBBY", "note": "ON 12/24 AND 12/31, THIS BOX MAY BE COLLECTED AS EARLY AS 12 NOON.", "ref": "0776300002"}, "type": "Feature"}
{"geometry": {"coordinates": [-74.039286448, 40.115859987], "type": "Point"}, "id": "nPeHr8sgvKgkudHNK7zNa3ddj8s=", "properties": {"@spider": "usps_collection_boxes", "addr:city": "TENNENT", "addr:country": "US", "addr:full": "420 MAIN ST", "addr:postcode": "07763", "addr:state": "NJ", "brand": "USPS", "collection_times": "Mo-Fr 16:15; Sa 12:00", "name": "USPS COLLECTION BOX - PO LOBBY", "note": "ON 12/24 AND 12/31, THIS BOX MAY BE COLLECTED AS EARLY AS 12 NOON.", "ref": "0776300005"}, "type": "Feature"}
