{"geometry": {"coordinates": [-75.0544735, 40.842792], "type": "Point"}, "id": "Cn0EI8zcnGgeDAm-TPzn3ef68Hg=", "properties": {"@spider": "usps_collection_boxes", "addr:city": "BELVIDERE", "addr:country": "US", "addr:full": "525 US HIGHWAY 46", "addr:postcode": "07823", "addr:state": "NJ", "brand": "USPS", "collection_times": "Mo-Sa 10:00", "name": "USPS COLLECTION BOX - BLUE BOX", "ref": "0782300003"}, "type": "Feature"}
{"geometry": {"coordinates": [-75.0789652, 40.824486], "type": "Point"}, "id": "f84E-ozSTzZXCy7dpRM3DgKsOjE=", "properties": {"@spider": "usps_collection_boxes", "addr:city": "BELVIDERE", "addr:country": "US", "addr:full": "336 GREENWICH ST", "addr:postcode": "07823", "addr:state": "NJ", "brand": "USPS", "collection_times": "Mo-Sa 11:00", "name": "USPS COLLECTION BOX - BLUE BOX", "ref": "0782300008"}, "type": "Feature"}
{"geometry": {"coordinates": [-75.077274381, 40.827970069], "type": "Point"}, "id": "G0bpzlm9s_iWsOfBvRJL-axVo_I=", "properties": {"@spider": "usps_collection_boxes", "addr:city": "BELVIDERE", "addr:country": "US", "addr:full": "111 MANSFIELD ST", "addr:postcode": "07823", "addr:state": "NJ", "brand": "USPS", "collection_times": "Mo-Fr 17:00; Sa 15:00", "name": "USPS COLLECTION BOX - BLUE BOX", "note": "ON 12/24 AND 12/31, THIS BOX MAY BE COLLECTED AS EARLY AS 12 NOON.", "ref": "0782300009"}, "type": "Feature"}
{"geometry": {"coordinates": [-75.077274381, 40.827970069], "type": "Point"}, "id": "y1RaNpwkzVAdtbxdT6VFukn3BrM=", "properties": {"@spider": "usps_collection_boxes", "addr:city": "BELVIDERE", "addr:country": "US", "addr:full": "111 MANSFIELD ST", "addr:postcode": "07823", "addr:state": "NJ", "brand": "USPS", "collection_times": "Mo-Fr 17:00; Sa 15:00", "name": "USPS COLLECTION BOX - BLUE BOX", "note": "ON 12/24 AND 12/31, THIS BOX MAY BE COLLECTED AS EARLY AS 12 NOON.", "ref": "0782300010"}, "type": "Feature"}
{"geometry": {"coordinates": [-75.0779175, 40.828598], "type": "Point"}, "id": "-VVkOjPq6up0yLAZ54zkEcc-8ZA=", "properties": {"@spider": "usps_collection_boxes", "addr:city": "BELVIDERE", "addr:country": "US", "addr:full": "314 MILL ST", "addr:postcode": "07823", "addr:state": "NJ", "brand": "USPS", "collection_times": "Mo-Fr 15:00; Sa 14:00", "name": "USPS COLLECTION BOX - BLUE BOX", "note": "ON 12/24 AND 12/31, THIS BOX MAY BE COLLECTED AS EARLY AS 12 NOON.", "ref": "0782300014"}, "type": "Feature"}
{"geometry": {"coordinates": [-75.077274381, 40.827970069], "type": "Point"}, "id": "PuBlpUnVhdhkMetroPGQxqc4Eew=", "properties": {"@spider": "usps_collection_boxes", "addr:city": "BELVIDERE", "addr:country": "US", "addr:full": "111 MANSFIELD ST", "addr:postcode": "07823", "addr:state": "NJ", "brand": "USPS", "collection_times": "Mo-Fr 17:00; Sa 12:00", "name": "USPS COLLECTION BOX - PO LOBBY", "note": "ON 12/24 AND 12/31, THIS BOX MAY BE COLLECTED AS EARLY AS 12 NOON.", "ref": "0782300015"}, "type": "Feature"}
{"geometry": {"coordinates": [-75.077274381, 40.827970069], "type": "Point"}, "id": "vGx8hELKsei_cjX59eAehdIIdog=", "properties": {"@spider": "usps_collection_boxes", "addr:city": "BELVIDERE", "addr:country": "US", "addr:full": "111 MANSFIELD ST", "addr:postcode": "07823", "addr:state": "NJ", "brand": "USPS", "collection_times": "Mo-Fr 16:30; Sa 12:00", "name": "USPS COLLECTION BOX - PO LOBBY", "note": "ON 12/24 AND 12/31, THIS BOX MAY BE COLLECTED AS EARLY AS 12 NOON.", "ref": "0782300017"}, "type": "Feature"}
{"geometry": {"coordinates": [-74.961999222, 40.982778318], "type": "Point"}, "id": "inO8U5eQtLOuF3_YBM5yerme_84=", "properties": {"@spider": "usps_collection_boxes", "addr:city": "BLAIRSTOWN", "addr:country": "US", "addr:full": "39 MAIN ST", "addr:postcode": "07825", "addr:state": "NJ", "brand": "USPS", "collection_times": "Mo-Fr 17:00; Sa 14:00", "name": "USPS COLLECTION BOX - BLUE BOX", "note": "ON 12/24 AND 12/31, THIS BOX MAY BE COLLECTED AS EARLY AS 12 NOON.", "ref": "0782500001"}, "type": "Feature"}
{"geometry": {"coordinates": [-74.961999222, 40.982778318], "type": "Point"}, "id": "G9qIbrb0nsbQiRGVIXGnSFLWtFY=", "properties": {"@spider": "usps_collection_boxes", "addr:city": "BLAIRSTOWN", "addr:country": "US", "addr:full": "39 MAIN ST", "addr:postcode": "07825", "addr:state": "NJ", "brand": "USPS", "collection_times": "Mo-Fr 17:00; Sa 14:00", "name": "USPS COLLECTION BOX - PO LOBBY", "note": "ON 12/24 AND 12/31, THIS BOX MAY BE COLLECTED AS EARLY AS 12 NOON.", "ref": "0782500003"}, "type": "Feature"}
{"geometry": {"coordinates": [-74.961999222, 40.982778318], "type": "Point"}, "id": "uqvJ3e7yRTxt7BqQDTQ3XdaKab8=", "properties": {"@spider": "usps_collection_boxes", "addr:city": "BLAIRSTOWN", "addr:country": "US", "addr:full": "39 MAIN ST", "addr:postcode": "07825", "addr:state": "NJ", "brand": "USPS", "collection_times": "Mo-Fr 17:00; Sa 12:30", "name": "USPS COLLECTION BOX - PO LOBBY", "note": "ON 12/24 AND 12/31, THIS BOX MAY BE COLLECTED AS EARLY AS 12 NOON.", "ref": "0782500004"}, "type": "Feature"}
{"geometry": {"coordinates": [-74.836954366, 40.719902994], "type": "Point"}, "id": "6JRUxWWdjtN64QCJRzjoReoFmfc=", "properties": {"@spider": "usps_collection_boxes", "addr:city": "CALIFON", "addr:country": "US", "addr:full": "53 MAIN ST", "addr:postcode": "07830", "addr:state": "NJ", "brand": "USPS", "collection_times": "Mo-Fr 16:45; Sa 15:00", "name": "USPS COLLECTION BOX - BLUE BOX", "note": "ON 12/24 AND 12/31, THIS BOX MAY BE COLLECTED AS EARLY AS 12 NOON.", "ref": "0783000001"}, "type": "Feature"}
{"geometry": {"coordinates": [-74.836954366, 40.719902994], "type": "Point"}, "id": "-r37a9RO82IQIWIIGyWNNmiNDkY=", "properties": {"@spider": "usps_collection_boxes", "addr:city": "CALIFON", "addr:country": "US", "addr:full": "53 MAIN ST", "addr:postcode": "07830", "addr:state": "NJ", "brand": "USPS", "collection_times": "Mo-Fr 16:45; Sa 15:00", "name": "USPS COLLECTION BOX - PO LOBBY", "note": "ON 12/24 AND 12/31, THIS BOX MAY BE COLLECTED AS EARLY AS 12 NOON.", "ref": "0783000003"}, "type": "Feature"}
{"geometry": {"coordinates": [-74.836954366, 40.719902994], "type": "Point"}, "id": "J2nwsRQcuPSLTMJSFljm_0Wzu3g=", "properties": {"@spider": "usps_collection_boxes", "addr:city": "CALIFON", "addr:country": "US", "addr:full": "53 MAIN ST", "addr:postcode": "07830", "addr:state": "NJ", "brand": "USPS", "collection_times": "Mo-Fr 16:30; Sa 12:00", "name": "USPS COLLECTION BOX - PO LOBBY", "note": "ON 12/24 AND 12/31, THIS BOX MAY BE COLLECTED AS EARLY AS 12 NOON.", "ref": "0783000004"}, "type": "Feature"}
{"geometry": {"coordinates": [-75.093772954, 40.926300057], "type": "Point"}, "id": "DLumShMfNcrf362Y6QYsn17KOUk=", "properties": {"@spider": "usps_collection_boxes", "addr:city": "COLUMBIA", "addr:country": "US", "addr:full": "27 DECATUR ST", "addr:postcode": "07832", "addr:state": "NJ", "brand": "USPS", "collection_times": "Mo-Fr 16:00; Sa 12:00", "name": "USPS COLLECTION BOX - BLUE BOX", "note": "ON 12/24 AND 12/31, THIS BOX MAY BE COLLECTED AS EARLY AS 12 NOON.", "ref": "0783200001"}, "type": "Feature"}
{"geometry": {"coordinates": [-75.098264437, 40.931580544], "type": "Point"}, "id": "N4PO2NxJhQL2RjcXRNX3HuPJodQ=", "properties": {"@spider": "usps_collection_boxes", "addr:city": "COLUMBIA", "addr:country": "US", "addr:full": "2 SIMPSON RD", "addr:postcode": "07832", "addr:state": "NJ", "brand": "USPS", "collection_times": "Mo-Sa 10:00", "name": "USPS COLLECTION BOX - BLUE BOX", "ref": "0783200002"}, "type": "Feature"}
{"geometry": {"coordinates": [-75.093772954, 40.926300057], "type": "Point"}, "id": "HyKpAouU_8pmVCiLcstOz4zpV0I=", "properties": {"@spider": "usps_collection_boxes", "addr:city": "COLUMBIA", "addr:country": "US", "addr:full": "27 DECATUR ST", "addr:postcode": "07832", "addr:state": "NJ", "brand": "USPS", "collection_times": "Mo-Fr 16:00; Sa 12:00", "name": "USPS COLLECTION BOX - PO LOBBY", "note": "ON 12/24 AND 12/31, THIS BOX MAY BE COLLECTED AS EARLY AS 12 NOON.", "ref": "0783200004"}, "type": "Feature"}
{"geometry": {"coordinates": [-75.093772954, 40.926300057], "type": "Point"}, "id": "iLo2-qkUOrncwELKntcqUuogTko=", "properties": {"@spider": "usps_collection_boxes", "addr:city": "COLUMBIA", "addr:country": "US", "addr:full": "27 DECATUR ST", "addr:postcode": "07832", "addr:state": "NJ", "brand": "USPS", "collection_times": "Mo-Fr 16:30; Sa 12:00", "name": "USPS COLLECTION BOX - PO LOBBY", "note": "ON 12/24 AND 12/31, THIS BOX MAY BE COLLECTED AS EARLY AS 12 NOON.", "ref": "0783200006"}, "type": "Feature"}
{"geometry": {"coordinates": [-75.064390784, 40.892992301], "type": "Point"}, "id": "7cLyu3nmfYyggRw669GuoblQHdI=", "properties": {"@spider": "usps_collection_boxes", "addr:city": "DELAWARE", "addr:country": "US", "addr:full": "9 CLINTON ST", "addr:postcode": "07833", "addr:state": "NJ", "brand": "USPS", "collection_times": "Mo-Fr 16:00; Sa 11:00", "name": "USPS COLLECTION BOX - BLUE BOX", "note": "ON 12/24 AND 12/31, THIS BOX MAY BE COLLECTED AS EARLY AS 12 NOON.", "ref": "0783300001"}, "type": "Feature"}
{"geometry": {"coordinates": [-75.064390784, 40.892992301], "type": "Point"}, "id": "l5hQWluFlav83B1uaqShq6FjW-I=", "properties": {"@spider": "usps_collection_boxes", "addr:city": "DELAWARE", "addr:country": "US", "addr:full": "9 CLINTON ST", "addr:postcode": "07833", "addr:state": "NJ", "brand": "USPS", "collection_times": "Mo-Fr 12:00; Sa 11:00", "name": "USPS COLLECTION BOX - PO LOBBY", "ref": "0783300002"}, "type": "Feature"}
{"geometry": {"coordinates": [-75.064390784, 40.892992301], "type": "Point"}, "id": "CHETGWTrujpuU0_GwtMpxprXHlQ=", "properties": {"@spider": "usps_collection_boxes", "addr:city": "DELAWARE", "addr:country": "US", "addr:full": "9 CLINTON ST", "addr:postcode": "07833", "addr:state": "NJ", "brand": "USPS", "collection_times": "Mo-Fr 12:00; Sa 11:30", "name": "USPS COLLECTION BOX - PO LOBBY", "ref": "0783300003"}, "type": "Feature"}
{"geometry": {"coordinates": [-74.901485701, 40.872786505], "type": "Point"}, "id": "Bn4U0ICDKInS86Jg8-qLEAHTKh8=", "properties": {"@spider": "usps_collection_boxes", "addr:city": "GREAT MEADOWS", "addr:country": "US", "addr:full": "4 REGINA LN", "addr:postcode": "07838", "addr:state": "NJ", "brand": "USPS", "collection_times": "Mo-Fr 16:30; Sa 11:00", "name": "USPS COLLECTION BOX - BLUE BOX", "note": "ON 12/24 AND 12/31, THIS BOX MAY BE COLLECTED AS EARLY AS 12 NOON.", "ref": "0783800001"}, "type": "Feature"}
{"geometry": {"coordinates": [-74.901485701, 40.872786505], "type": "Point"}, "id": "uJNgw8WYut7wnr6n4Y1obuGXymo=", "properties": {"@spider": "usps_collection_boxes", "addr:city": "GREAT MEADOWS", "addr:country": "US", "addr:full": "4 REGINA LN", "addr:postcode": "07838", "addr:state": "NJ", "brand": "USPS", "collection_times": "Mo-Fr 16:30; Sa 12:00", "name": "USPS COLLECTION BOX - PO LOBBY", "note": "ON 12/24 AND 12/31, THIS BOX MAY BE COLLECTED AS EARLY AS 12 NOON.", "ref": "0783800002"}, "type": "Feature"}
{"geometry": {"coordinates": [-74.901485701, 40.872786505], "type": "Point"}, "id": "s3M1do3J5V0nBjJxTc18FE7BvBQ=", "properties": {"@spider": "usps_collection_boxes", "addr:city": "GREAT MEADOWS", "addr:country": "US", "addr:full": "4 REGINA LN", "addr:postcode": "07838", "addr:state": "NJ", "brand": "USPS", "collection_times": "Mo-Fr 16:45; Sa 12:00", "name": "USPS COLLECTION BOX - PO LOBBY", "note": "ON 12/24 AND 12/31, THIS BOX MAY BE COLLECTED AS EARLY AS 12 NOON.", "ref": "0783800003"}, "type": "Feature"}
{"geometry": {"coordinates": [-74.8286244, 40.853263], "type": "Point"}, "id": "jfc5PaciY60_9Mxtyy1C40v47BQ=", "properties": {"@spider": "usps_collection_boxes", "addr:city": "HACKETTSTOWN", "addr:country": "US", "addr:full": "176 MAIN ST", "addr:postcode": "07840", "addr:state": "NJ", "brand": "USPS", "collection_times": "Mo-Sa 11:00", "name": "USPS COLLECTION BOX - BLUE BOX", "ref": "0784000007"}, "type": "Feature"}
{"geometry": {"coordinates": [-74.8268962, 40.85153], "type": "Point"}, "id": "E2B54KB4PtGy2CYWz7W0M-C_tLU=", "properties": {"@spider": "usps_collection_boxes", "addr:city": "HACKETTSTOWN", "addr:country": "US", "addr:full": "232 MAIN ST", "addr:postcode": "07840", "addr:state": "NJ", "brand": "USPS", "collection_times": "Mo-Sa 11:00", "name": "USPS COLLECTION BOX - BLUE BOX", "ref": "0784000009"}, "type": "Feature"}
{"geometry": {"coordinates": [-74.8360552, 40.823491], "type": "Point"}, "id": "LgJuli945_0A9_u_d8AyyVen1QI=", "properties": {"@spider": "usps_collection_boxes", "addr:city": "HACKETTSTOWN", "addr:country": "US", "addr:full": "1965 STATE ROUTE 57", "addr:postcode": "07840", "addr:state": "NJ", "brand": "USPS", "collection_times": "Mo-Sa 11:00", "name": "USPS COLLECTION BOX - BLUE BOX", "ref": "0784000019"}, "type": "Feature"}
{"geometry": {"coordinates": [-74.8333824, 40.830766], "type": "Point"}, "id": "kjlfKTgOyknuBleqlW1CX1EIDIo=", "properties": {"@spider": "usps_collection_boxes", "addr:city": "HACKETTSTOWN", "addr:country": "US", "addr:full": "1 STATE ROUTE 57", "addr:postcode": "07840", "addr:state": "NJ", "brand": "USPS", "collection_times": "Mo-Sa 11:00", "name": "USPS COLLECTION BOX - BLUE BOX", "ref": "0784000027"}, "type": "Feature"}
{"geometry": {"coordinates": [-74.83032062, 40.853288816], "type": "Point"}, "id": "cw1wlGeNIIKRKHxNgiRAgOILzS4=", "properties": {"@spider": "usps_collection_boxes", "addr:city": "HACKETTSTOWN", "addr:country": "US", "addr:full": "120 GRAND AVE", "addr:postcode": "07840", "addr:state": "NJ", "brand": "USPS", "collection_times": "Mo-Fr 17:00; Sa 15:00", "name": "USPS COLLECTION BOX - BLUE BOX", "note": "ON 12/24 AND 12/31, THIS BOX MAY BE COLLECTED AS EARLY AS 12 NOON.", "ref": "0784000037"}, "type": "Feature"}
{"geometry": {"coordinates": [-74.83032062, 40.853288816], "type": "Point"}, "id": "1EoZ63WS95077C6jQjDyDTYYo-M=", "properties": {"@spider": "usps_collection_boxes", "addr:city": "HACKETTSTOWN", "addr:country": "US", "addr:full": "120 GRAND AVE", "addr:postcode": "07840", "addr:state": "NJ", "brand": "USPS", "collection_times": "Mo-Fr 17:00; Sa 15:00", "name": "USPS COLLECTION BOX - BLUE BOX", "note": "ON 12/24 AND 12/31, THIS BOX MAY BE COLLECTED AS EARLY AS 12 NOON.", "ref": "0784000039"}, "type": "Feature"}
{"geometry": {"coordinates": [-74.83032062, 40.853288816], "type": "Point"}, "id": "Tpq5S9Tu4QEtKMGZ2FUiD6O6UYw=", "properties": {"@spider": "usps_collection_boxes", "addr:city": "HACKETTSTOWN", "addr:country": "US", "addr:full": "120 GRAND AVE", "addr:postcode": "07840", "addr:state": "NJ", "brand": "USPS", "collection_times": "Mo-Fr 17:00; Sa 15:00", "name": "USPS COLLECTION BOX - PO LOBBY", "note": "ON 12/24 AND 12/31, THIS BOX MAY BE COLLECTED AS EARLY AS 12 NOON.", "ref": "0784000049"}, "type": "Feature"}
{"geometry": {"coordinates": [-74.83032062, 40.853288816], "type": "Point"}, "id": "c-kjp9W6ffFgEuLhw8PjU4pqhlg=", "properties": {"@spider": "usps_collection_boxes", "addr:city": "HACKETTSTOWN", "addr:country": "US", "addr:full": "120 GRAND AVE", "addr:postcode": "07840", "addr:state": "NJ", "brand": "USPS", "collection_times": "Mo-Fr 17:00; Sa 15:00", "name": "USPS COLLECTION BOX - PO LOBBY", "note": "ON 12/24 AND 12/31, THIS BOX MAY BE COLLECTED AS EARLY AS 12 NOON.", "ref": "0784000054"}, "type": "Feature"}
{"geometry": {"coordinates": [-74.967894768, 40.911627389], "type": "Point"}, "id": "e3W8KCeyfHeJE8NKuNZNR90H4Ww=", "properties": {"@spider": "usps_collection_boxes", "addr:city": "HOPE", "addr:country": "US", "addr:full": "10 BLAIRSTOWN RD", "addr:postcode": "07844", "addr:state": "NJ", "brand": "USPS", "collection_times": "Mo-Fr 16:30; Sa 12:00", "name": "USPS COLLECTION BOX - BLUE BOX", "note": "ON 12/24 AND 12/31, THIS BOX MAY BE COLLECTED AS EARLY AS 12 NOON.", "ref": "0784400001"}, "type": "Feature"}
{"geometry": {"coordinates": [-74.967894768, 40.911627389], "type": "Point"}, "id": "WbNwa8E5GFBdw5IhU9plX95TPug=", "properties": {"@spider": "usps_collection_boxes", "addr:city": "HOPE", "addr:country": "US", "addr:full": "10 BLAIRSTOWN RD", "addr:postcode": "07844", "addr:state": "NJ", "brand": "USPS", "collection_times": "Mo-Fr 16:30; Sa 12:00", "name": "USPS COLLECTION BOX - PO LOBBY", "note": "ON 12/24 AND 12/31, THIS BOX MAY BE COLLECTED AS EARLY AS 12 NOON.", "ref": "0784400002"}, "type": "Feature"}
{"geometry": {"coordinates": [-74.967894768, 40.911627389], "type": "Point"}, "id": "kBP0aXt8gWHGbn5LAucRJkV6UdI=", "properties": {"@spider": "usps_collection_boxes", "addr:city": "HOPE", "addr:country": "US", "addr:full": "10 BLAIRSTOWN RD", "addr:postcode": "07844", "addr:state": "NJ", "brand": "USPS", "collection_times": "Mo-Fr 16:30; Sa 12:00", "name": "USPS COLLECTION BOX - PO LOBBY", "note": "ON 12/24 AND 12/31, THIS BOX MAY BE COLLECTED AS EARLY AS 12 NOON.", "ref": "0784400003"}, "type": "Feature"}
{"geometry": {"coordinates": [-74.8746621, 40.966603], "type": "Point"}, "id": "kLE4fvU1lXZzSRmHLCvOj984Bhc=", "properties": {"@spider": "usps_collection_boxes", "addr:city": "JOHNSONBURG", "addr:country": "US", "addr:full": "210 MAIN ST", "addr:postcode": "07846", "addr:state": "NJ", "brand": "USPS", "collection_times": "Mo-Sa 10:00", "name": "USPS COLLECTION BOX - BLUE BOX", "ref": "0784600001"}, "type": "Feature"}
{"geometry": {"coordinates": [-74.826116, 41.216019], "type": "Point"}, "id": "WwOL8kcLtWaExFUMeCYvL4Do_nU=", "properties": {"@spider": "usps_collection_boxes", "addr:city": "LAYTON", "addr:country": "US", "addr:full": "122 ROUTE 560", "addr:postcode": "07851", "addr:state": "NJ", "brand": "USPS", "collection_times": "Mo-Fr 11:30; Sa 11:00", "name": "USPS COLLECTION BOX - BLUE BOX", "ref": "0785100001"}, "type": "Feature"}
{"geometry": {"coordinates": [-74.825300407, 41.216200035], "type": "Point"}, "id": "y8oBb-ewdM-tQefS1XIbH3Pgn5M=", "properties": {"@spider": "usps_collection_boxes", "addr:city": "LAYTON", "addr:country": "US", "addr:full": "122 COUNTY ROAD 560", "addr:postcode": "07851", "addr:state": "NJ", "brand": "USPS", "collection_times": "Mo-Fr 11:15; Sa 11:30", "name": "USPS COLLECTION BOX - PO LOBBY", "ref": "0785100002"}, "type": "Feature"}
{"geometry": {"coordinates": [-74.825300407, 41.216200035], "type": "Point"}, "id": "swhmpMjAFY6sF2okA9h-Vre04nA=", "properties": {"@spider": "usps_collection_boxes", "addr:city": "LAYTON", "addr:country": "US", "addr:full": "122 COUNTY ROAD 560", "addr:postcode": "07851", "addr:state": "NJ", "brand": "USPS", "collection_times": "Mo-Sa 11:30", "name": "USPS COLLECTION BOX - PO LOBBY", "ref": "0785100003"}, "type": "Feature"}
{"geometry": {"coordinates": [-74.8624077, 41.055657], "type": "Point"}, "id": "FWboKS0PxUMwfnin69iPuVUzDJU=", "properties": {"@spider": "usps_collection_boxes", "addr:city": "MIDDLEVILLE", "addr:country": "US", "addr:full": "904 ROUTE 521", "addr:postcode": "07855", "addr:state": "NJ", "brand": "USPS", "collection_times": "Mo-Fr 16:00; Sa 11:00", "name": "USPS COLLECTION BOX - BLUE BOX", "note": "ON 12/24 AND 12/31, THIS BOX MAY BE COLLECTED AS EARLY AS 12 NOON.", "ref": "0785500001"}, "type": "Feature"}
{"geometry": {"coordinates": [-74.891652586, 41.025980338], "type": "Point"}, "id": "gsQrVRGdASZuZrnuWzFpuXWN-jk=", "properties": {"@spider": "usps_collection_boxes", "addr:city": "MIDDLEVILLE", "addr:country": "US", "addr:full": "904 COUNTY ROAD 521", "addr:postcode": "07855", "addr:state": "NJ", "brand": "USPS", "collection_times": "Mo-Fr 16:00; Sa 11:00", "name": "USPS COLLECTION BOX - PO LOBBY", "note": "ON 12/24 AND 12/31, THIS BOX MAY BE COLLECTED AS EARLY AS 12 NOON.", "ref": "0785500003"}, "type": "Feature"}
{"geometry": {"coordinates": [-74.995785097, 40.807194669], "type": "Point"}, "id": "as3vs0Rf1kjguqu3stUmw_8pGsM=", "properties": {"@spider": "usps_collection_boxes", "addr:city": "OXFORD", "addr:country": "US", "addr:full": "170 STATE ROUTE 31 N", "addr:postcode": "07863", "addr:state": "NJ", "brand": "USPS", "collection_times": "Mo-Fr 16:00; Sa 13:00", "name": "USPS COLLECTION BOX - BLUE BOX", "note": "ON 12/24 AND 12/31, THIS BOX MAY BE COLLECTED AS EARLY AS 12 NOON.", "ref": "0786300001"}, "type": "Feature"}
{"geometry": {"coordinates": [-74.995785097, 40.807194669], "type": "Point"}, "id": "Ls_utw9DosJro0MxDA33qLSaKS8=", "properties": {"@spider": "usps_collection_boxes", "addr:city": "OXFORD", "addr:country": "US", "addr:full": "170 STATE ROUTE 31 N", "addr:postcode": "07863", "addr:state": "NJ", "brand": "USPS", "collection_times": "Mo-Fr 16:00; Sa 13:00", "name": "USPS COLLECTION BOX - PO LOBBY", "note": "ON 12/24 AND 12/31, THIS BOX MAY BE COLLECTED AS EARLY AS 12 NOON.", "ref": "0786300002"}, "type": "Feature"}
{"geometry": {"coordinates": [-74.995785097, 40.807194669], "type": "Point"}, "id": "ObDZSowV7uDeyWKkWZh5iE7D8Gk=", "properties": {"@spider": "usps_collection_boxes", "addr:city": "OXFORD", "addr:country": "US", "addr:full": "170 STATE ROUTE 31 N", "addr:postcode": "07863", "addr:state": "NJ", "brand": "USPS", "collection_times": "Mo-Fr 16:30; Sa 12:00", "name": "USPS COLLECTION BOX - PO LOBBY", "note": "ON 12/24 AND 12/31, THIS BOX MAY BE COLLECTED AS EARLY AS 12 NOON.", "ref": "0786300003"}, "type": "Feature"}
{"geometry": {"coordinates": [-74.9158965176, 40.786958693], "type": "Point"}, "id": "JM-0pWwhjhjuq1ac_2XEo8znoK0=", "properties": {"@spider": "usps_collection_boxes", "addr:city": "PORT MURRAY", "addr:country": "US", "addr:full": "218 MAIN ST", "addr:postcode": "07865", "addr:state": "NJ", "brand": "USPS", "collection_times": "Mo-Fr 15:00; Sa 12:00", "name": "USPS COLLECTION BOX - BLUE BOX", "note": "ON 12/24 AND 12/31, THIS BOX MAY BE COLLECTED AS EARLY AS 12 NOON.", "ref": "0786500001"}, "type": "Feature"}
{"geometry": {"coordinates": [-74.915901018, 40.786949693], "type": "Point"}, "id": "D6NBWcKa-44yWaCeTbCorIEtIgQ=", "properties": {"@spider": "usps_collection_boxes", "addr:city": "PORT MURRAY", "addr:country": "US", "addr:full": "218 MAIN ST", "addr:postcode": "07865", "addr:state": "NJ", "brand": "USPS", "collection_times": "Mo-Fr 15:15; Sa 12:00", "name": "USPS COLLECTION BOX - PO LOBBY", "note": "ON 12/24 AND 12/31, THIS BOX MAY BE COLLECTED AS EARLY AS 12 NOON.", "ref": "0786500002"}, "type": "Feature"}
{"geometry": {"coordinates": [-74.915901018, 40.786949693], "type": "Point"}, "id": "0Zu9UBTnuoMksFUbG12mpgc-uT0=", "properties": {"@spider": "usps_collection_boxes", "addr:city": "PORT MURRAY", "addr:country": "US", "addr:full": "218 MAIN ST", "addr:postcode": "07865", "addr:state": "NJ", "brand": "USPS", "collection_times": "Mo-Fr 15:15; Sa 12:00", "name": "USPS COLLECTION BOX - PO LOBBY", "note": "ON 12/24 AND 12/31, THIS BOX MAY BE COLLECTED AS EARLY AS 12 NOON.", "ref": "0786500004"}, "type": "Feature"}
{"geometry": {"coordinates": [-74.876193559, 41.035158986], "type": "Point"}, "id": "gr5IMG7fbfaRhCpZF4bLEXZWhEo=", "properties": {"@spider": "usps_collection_boxes", "addr:city": "STILLWATER", "addr:country": "US", "addr:full": "912 MAIN ST", "addr:postcode": "07875", "addr:state": "NJ", "brand": "USPS", "collection_times": "Mo-Fr 16:00; Sa 10:45", "name": "USPS COLLECTION BOX - BLUE BOX", "note": "ON 12/24 AND 12/31, THIS BOX MAY BE COLLECTED AS EARLY AS 12 NOON.", "ref": "0787500001"}, "type": "Feature"}
{"geometry": {"coordinates": [-74.876193559, 41.035158986], "type": "Point"}, "id": "DsT68ypg-_x3aTFy3LpvwBtP4xI=", "properties": {"@spider": "usps_collection_boxes", "addr:city": "STILLWATER", "addr:country": "US", "addr:full": "912 MAIN ST", "addr:postcode": "07875", "addr:state": "NJ", "brand": "USPS", "collection_times": "Mo-Fr 12:00; Sa 11:00", "name": "USPS COLLECTION BOX - PO LOBBY", "ref": "0787500002"}, "type": "Feature"}
{"geometry": {"coordinates": [-74.876193559, 41.035158986], "type": "Point"}, "id": "JVCXzP03FJ2Hv4WcCchiV6yKRmo=", "properties": {"@spider": "usps_collection_boxes", "addr:city": "STILLWATER", "addr:country": "US", "addr:full": "912 MAIN ST", "addr:postcode": "07875", "addr:state": "NJ", "brand": "USPS", "collection_times": "Mo-Fr 12:00; Sa 11:00", "name": "USPS COLLECTION BOX - PO LOBBY", "ref": "0787500003"}, "type": "Feature"}
{"geometry": {"coordinates": [-74.827940691, 41.086977874], "type": "Point"}, "id": "J0xd2MryL75WlhTIQ5HSJSddNcM=", "properties": {"@spider": "usps_collection_boxes", "addr:city": "SWARTSWOOD", "addr:country": "US", "addr:full": "1064 COUNTY ROAD 521", "addr:postcode": "07877", "addr:state": "NJ", "brand": "USPS", "collection_times": "Mo-Fr 15:30; Sa 10:30", "name": "USPS COLLECTION BOX - BLUE BOX", "note": "ON 12/24 AND 12/31, THIS BOX MAY BE COLLECTED AS EARLY AS 12 NOON.", "ref": "0787700001"}, "type": "Feature"}
{"geometry": {"coordinates": [-74.827940691, 41.086977874], "type": "Point"}, "id": "uP8LGU7kUlqwt3paxi5eiUxAgww=", "properties": {"@spider": "usps_collection_boxes", "addr:city": "SWARTSWOOD", "addr:country": "US", "addr:full": "1064 COUNTY ROAD 521", "addr:postcode": "07877", "addr:state": "NJ", "brand": "USPS", "collection_times": "Mo-Fr 12:00; Sa 11:00", "name": "USPS COLLECTION BOX - PO LOBBY", "ref": "0787700003"}, "type": "Feature"}
{"geometry": {"coordinates": [-74.89335201, 40.871351198], "type": "Point"}, "id": "svs0JbLi3aAaU7uMk0l9wiTnrKc=", "properties": {"@spider": "usps_collection_boxes", "addr:city": "VIENNA", "addr:country": "US", "addr:full": "7 WATER ST", "addr:postcode": "07880", "addr:state": "NJ", "brand": "USPS", "collection_times": "Mo-Fr 16:30; Sa 11:30", "name": "USPS COLLECTION BOX - BLUE BOX", "note": "ON 12/24 AND 12/31, THIS BOX MAY BE COLLECTED AS EARLY AS 12 NOON.", "ref": "0788000001"}, "type": "Feature"}
{"geometry": {"coordinates": [-74.89335201, 40.871351198], "type": "Point"}, "id": "UXkt59eF3pPat7pbsLlff6JZT7g=", "properties": {"@spider": "usps_collection_boxes", "addr:city": "VIENNA", "addr:country": "US", "addr:full": "7 WATER ST", "addr:postcode": "07880", "addr:state": "NJ", "brand": "USPS", "collection_times": "Mo-Fr 12:00; Sa 11:30", "name": "USPS COLLECTION BOX - PO LOBBY", "ref": "0788000002"}, "type": "Feature"}
{"geometry": {"coordinates": [-74.89335201, 40.871351198], "type": "Point"}, "id": "6aBX6IArjAhoQtr3oMtIhEJi_yM=", "properties": {"@spider": "usps_collection_boxes", "addr:city": "VIENNA", "addr:country": "US", "addr:full": "7 WATER ST", "addr:postcode": "07880", "addr:state": "NJ", "brand": "USPS", "collection_times": "Mo-Fr 12:00; Sa 11:30", "name": "USPS COLLECTION BOX - PO LOBBY", "ref": "0788000003"}, "type": "Feature"}
{"geometry": {"coordinates": [-74.9794559, 40.758385], "type": "Point"}, "id": "FjiuPiWSf6mZMOfCvr146aWS03k=", "properties": {"@spider": "usps_collection_boxes", "addr:city": "WASHINGTON", "addr:country": "US", "addr:full": "3 E WASHINGTON AVE", "addr:postcode": "07882", "addr:state": "NJ", "brand": "USPS", "collection_times": "Mo-Fr 12:00; Sa 11:00", "name": "USPS COLLECTION BOX - BLUE BOX", "ref": "0788200021"}, "type": "Feature"}
{"geometry": {"coordinates": [-74.980157079, 40.759329383], "type": "Point"}, "id": "yCJKgK8VMy-WlEeWck86w85SNLM=", "properties": {"@spider": "usps_collection_boxes", "addr:city": "WASHINGTON", "addr:country": "US", "addr:full": "36 BELVIDERE AVE", "addr:postcode": "07882", "addr:state": "NJ", "brand": "USPS", "collection_times": "Mo-Fr 16:30; Sa 14:00", "name": "USPS COLLECTION BOX - BLUE BOX", "note": "ON 12/24 AND 12/31, THIS BOX MAY BE COLLECTED AS EARLY AS 12 NOON.", "ref": "0788200024"}, "type": "Feature"}
{"geometry": {"coordinates": [-74.980157079, 40.759329383], "type": "Point"}, "id": "-TjZkgwANdMrl2jfYzsvYLlxy5s=", "properties": {"@spider": "usps_collection_boxes", "addr:city": "WASHINGTON", "addr:country": "US", "addr:full": "36 BELVIDERE AVE", "addr:postcode": "07882", "addr:state": "NJ", "brand": "USPS", "collection_times": "Mo-Fr 16:30; Sa 14:00", "name": "USPS COLLECTION BOX - PO LOBBY", "note": "ON 12/24 AND 12/31, THIS BOX MAY BE COLLECTED AS EARLY AS 12 NOON.", "ref": "0788200028"}, "type": "Feature"}
{"geometry": {"coordinates": [-74.980157079, 40.759329383], "type": "Point"}, "id": "2nLRrWa7o8CBIFYW3OiPOE0nMbI=", "properties": {"@spider": "usps_collection_boxes", "addr:city": "WASHINGTON", "addr:country": "US", "addr:full": "36 BELVIDERE AVE", "addr:postcode": "07882", "addr:state": "NJ", "brand": "USPS", "collection_times": "Mo-Fr 16:30; Sa 12:00", "name": "USPS COLLECTION BOX - PO LOBBY", "note": "ON 12/24 AND 12/31, THIS BOX MAY BE COLLECTED AS EARLY AS 12 NOON.", "ref": "0788200030"}, "type": "Feature"}
