{"dataset_attributes": {"@spider": "usps_collection_boxes", "spider:collection_time": "2023-08-22T08:24:26.238206"}, "geometry": {"coordinates": [-74.35929453, 40.716524158], "type": "Point"}, "id": "_P1-T7I_NXxGrPs2fhrgj3Mj5Dc=", "properties": {"@spider": "usps_collection_boxes", "addr:city": "SUMMIT", "addr:country": "US", "addr:full": "61 MAPLE ST", "addr:postcode": "07901", "addr:state": "NJ", "amenity": "post_box", "brand": "United States Postal Service", "brand:wikidata": "Q668687", "collection_times": "Mo-Fr 17:00; Sa 15:00", "name": "USPS COLLECTION BOX - BLUE BOX", "note": "ON 12/24 AND 12/31, THIS BOX MAY BE COLLECTED AS EARLY AS 12 NOON.", "nsi_id": "unitedstatespostalservice-a77078", "operator": "United States Postal Service", "operator:short": "USPS", "operator:type": "public", "operator:wikidata": "Q668687", "ref": "0790100002"}, "type": "Feature"}
{"dataset_attributes": {"@spider": "usps_collection_boxes", "spider:collection_time": "2023-08-22T08:24:26.238206"}, "geometry": {"coordinates": [-74.3578094, 40.716148], "type": "Point"}, "id": "8eU9-ymFMqWv_0N6VgAzwRJX8sE=", "properties": {"@spider": "usps_collection_boxes", "addr:city": "SUMMIT", "addr:country": "US", "addr:full": "51 RAILROAD AVE", "addr:postcode": "07901", "addr:state": "NJ", "amenity": "post_box", "brand": "United States Postal Service", "brand:wikidata": "Q668687", "collection_times": "Mo-Sa 15:00", "name": "USPS COLLECTION BOX - BLUE BOX", "note": "ON 12/24 AND 12/31, THIS BOX MAY BE COLLECTED AS EARLY AS 12 NOON.", "nsi_id": "unitedstatespostalservice-a77078", "operator": "United States Postal Service", "operator:short": "USPS", "operator:type": "public", "operator:wikidata": "Q668687", "ref": "0790100006"}, "type": "Feature"}
{"dataset_attributes": {"@spider": "usps_collection_boxes", "spider:collection_time": "2023-08-22T08:24:26.238206"}, "geometry": {"coordinates": [-74.3601187, 40.716934], "type": "Point"}, "id": "cTxeAZIf-Aiq-4NpTP-sp6XbM-g=", "properties": {"@spider": "usps_collection_boxes", "addr:city": "SUMMIT", "addr:country": "US", "addr:full": "40 RAILROAD AVE", "addr:postcode": "07901", "addr:state": "NJ", "amenity": "post_box", "brand": "United States Postal Service", "brand:wikidata": "Q668687", "collection_times": "Mo-Fr 17:00; Sa 15:00", "name": "USPS COLLECTION BOX - BLUE BOX", "note": "ON 12/24 AND 12/31, THIS BOX MAY BE COLLECTED AS EARLY AS 12 NOON.", "nsi_id": "unitedstatespostalservice-a77078", "operator": "United States Postal Service", "operator:short": "USPS", "operator:type": "public", "operator:wikidata": "Q668687", "ref": "0790100007"}, "type": "Feature"}
{"dataset_attributes": {"@spider": "usps_collection_boxes", "spider:collection_time": "2023-08-22T08:24:26.238206"}, "geometry": {"coordinates": [-74.3585774, 40.718023], "type": "Point"}, "id": "7LuGU0hGxu8hKBWurrFqPL0SWaE=", "properties": {"@spider": "usps_collection_boxes", "addr:city": "SUMMIT", "addr:country": "US", "addr:full": "396 SPRINGFIELD AVE", "addr:postcode": "07901", "addr:state": "NJ", "amenity": "post_box", "brand": "United States Postal Service", "brand:wikidata": "Q668687", "collection_times": "Mo-Sa 15:00", "name": "USPS COLLECTION BOX - BLUE BOX", "note": "ON 12/24 AND 12/31, THIS BOX MAY BE COLLECTED AS EARLY AS 12 NOON.", "nsi_id": "unitedstatespostalservice-a77078", "operator": "United States Postal Service", "operator:short": "USPS", "operator:type": "public", "operator:wikidata": "Q668687", "ref": "0790100010"}, "type": "Feature"}
{"dataset_attributes": {"@spider": "usps_collection_boxes", "spider:collection_time": "2023-08-22T08:24:26.238206"}, "geometry": {"coordinates": [-74.3575704, 40.717899], "type": "Point"}, "id": "nW21EgVMx96hthhDii0aahLxVj0=", "properties": {"@spider": "usps_collection_boxes", "addr:city": "SUMMIT", "addr:country": "US", "addr:full": "30 BEECHWOOD RD", "addr:postcode": "07901", "addr:state": "NJ", "amenity": "post_box", "brand": "United States Postal Service", "brand:wikidata": "Q668687", "collection_times": "Mo-Sa 15:00", "name": "USPS COLLECTION BOX - BLUE BOX", "note": "ON 12/24 AND 12/31, THIS BOX MAY BE COLLECTED AS EARLY AS 12 NOON.", "nsi_id": "unitedstatespostalservice-a77078", "operator": "United States Postal Service", "operator:short": "USPS", "operator:type": "public", "operator:wikidata": "Q668687", "ref": "0790100014"}, "type": "Feature"}
{"dataset_attributes": {"@spider": "usps_collection_boxes", "spider:collection_time": "2023-08-22T08:24:26.238206"}, "geometry": {"coordinates": [-74.3561533, 40.717061], "type": "Point"}, "id": "pOi4oxbLaYvwODMuSoZINsVh7wI=", "properties": {"@spider": "usps_collection_boxes", "addr:city": "SUMMIT", "addr:country": "US", "addr:full": "69 SUMMIT AVE", "addr:postcode": "07901", "addr:state": "NJ", "amenity": "post_box", "brand": "United States Postal Service", "brand:wikidata": "Q668687", "collection_times": "Mo-Sa 15:00", "name": "USPS COLLECTION BOX - BLUE BOX", "note": "ON 12/24 AND 12/31, THIS BOX MAY BE COLLECTED AS EARLY AS 12 NOON.", "nsi_id": "unitedstatespostalservice-a77078", "operator": "United States Postal Service", "operator:short": "USPS", "operator:type": "public", "operator:wikidata": "Q668687", "ref": "0790100015"}, "type": "Feature"}
{"dataset_attributes": {"@spider": "usps_collection_boxes", "spider:collection_time": "2023-08-22T08:24:26.238206"}, "geometry": {"coordinates": [-74.362552, 40.717276], "type": "Point"}, "id": "jVQHWoPhTlZJ6OiWmAo-P6Ygqr8=", "properties": {"@spider": "usps_collection_boxes", "addr:city": "SUMMIT", "addr:country": "US", "addr:full": "512 SPRINGFIELD AVE", "addr:postcode": "07901", "addr:state": "NJ", "amenity": "post_box", "brand": "United States Postal Service", "brand:wikidata": "Q668687", "collection_times": "Mo-Sa 15:00", "name": "USPS COLLECTION BOX - BLUE BOX", "note": "ON 12/24 AND 12/31, THIS BOX MAY BE COLLECTED AS EARLY AS 12 NOON.", "nsi_id": "unitedstatespostalservice-a77078", "operator": "United States Postal Service", "operator:short": "USPS", "operator:type": "public", "operator:wikidata": "Q668687", "ref": "0790100020"}, "type": "Feature"}
{"dataset_attributes": {"@spider": "usps_collection_boxes", "spider:collection_time": "2023-08-22T08:24:26.238206"}, "geometry": {"coordinates": [-74.3702404, 40.716969], "type": "Point"}, "id": "NxWdUZ79oCqLPdd7lAo-pmShlho=", "properties": {"@spider": "usps_collection_boxes", "addr:city": "SUMMIT", "addr:country": "US", "addr:full": "105 NEW ENGLAND AVE", "addr:postcode": "07901", "addr:state": "NJ", "amenity": "post_box", "brand": "United States Postal Service", "brand:wikidata": "Q668687", "collection_times": "Mo-Sa 11:00", "name": "USPS COLLECTION BOX - BLUE BOX", "nsi_id": "unitedstatespostalservice-a77078", "operator": "United States Postal Service", "operator:short": "USPS", "operator:type": "public", "operator:wikidata": "Q668687", "ref": "0790100024"}, "type": "Feature"}
{"dataset_attributes": {"@spider": "usps_collection_boxes", "spider:collection_time": "2023-08-22T08:24:26.238206"}, "geometry": {"coordinates": [-74.3861965, 40.712191], "type": "Point"}, "id": "4wRKuEwJf-wLJuF7_gAqQnRczSQ=", "properties": {"@spider": "usps_collection_boxes", "addr:city": "SUMMIT", "addr:country": "US", "addr:full": "801 OLD SPRINGFIELD AVE", "addr:postcode": "07901", "addr:state": "NJ", "amenity": "post_box", "brand": "United States Postal Service", "brand:wikidata": "Q668687", "collection_times": "Mo-Sa 15:00", "name": "USPS COLLECTION BOX - BLUE BOX", "note": "ON 12/24 AND 12/31, THIS BOX MAY BE COLLECTED AS EARLY AS 12 NOON.", "nsi_id": "unitedstatespostalservice-a77078", "operator": "United States Postal Service", "operator:short": "USPS", "operator:type": "public", "operator:wikidata": "Q668687", "ref": "0790100038"}, "type": "Feature"}
{"dataset_attributes": {"@spider": "usps_collection_boxes", "spider:collection_time": "2023-08-22T08:24:26.238206"}, "geometry": {"coordinates": [-74.3614013, 40.717866], "type": "Point"}, "id": "JucOUykc9blXNMGvKnifKN7nAIE=", "properties": {"@spider": "usps_collection_boxes", "addr:city": "SUMMIT", "addr:country": "US", "addr:full": "2 KENT PLACE BLVD", "addr:postcode": "07901", "addr:state": "NJ", "amenity": "post_box", "brand": "United States Postal Service", "brand:wikidata": "Q668687", "collection_times": "Mo-Sa 15:00", "name": "USPS COLLECTION BOX - BLUE BOX", "note": "ON 12/24 AND 12/31, THIS BOX MAY BE COLLECTED AS EARLY AS 12 NOON.", "nsi_id": "unitedstatespostalservice-a77078", "operator": "United States Postal Service", "operator:short": "USPS", "operator:type": "public", "operator:wikidata": "Q668687", "ref": "0790100045"}, "type": "Feature"}
{"dataset_attributes": {"@spider": "usps_collection_boxes", "spider:collection_time": "2023-08-22T08:24:26.238206"}, "geometry": {"coordinates": [-74.35929453, 40.716524158], "type": "Point"}, "id": "JEaFsV7zYOFxrqG08RGlqKDtWTo=", "properties": {"@spider": "usps_collection_boxes", "addr:city": "SUMMIT", "addr:country": "US", "addr:full": "61 MAPLE ST", "addr:postcode": "07901", "addr:state": "NJ", "amenity": "post_box", "brand": "United States Postal Service", "brand:wikidata": "Q668687", "collection_times": "Mo-Fr 16:00; Sa 13:00", "name": "USPS COLLECTION BOX - PO LOBBY", "note": "ON 12/24 AND 12/31, THIS BOX MAY BE COLLECTED AS EARLY AS 12 NOON.", "nsi_id": "unitedstatespostalservice-a77078", "operator": "United States Postal Service", "operator:short": "USPS", "operator:type": "public", "operator:wikidata": "Q668687", "ref": "0790100062"}, "type": "Feature"}
{"dataset_attributes": {"@spider": "usps_collection_boxes", "spider:collection_time": "2023-08-22T08:24:26.238206"}, "geometry": {"coordinates": [-74.35929453, 40.716524158], "type": "Point"}, "id": "c_FEHf1sWH3e_COMmkF8b5w5Z9o=", "properties": {"@spider": "usps_collection_boxes", "addr:city": "SUMMIT", "addr:country": "US", "addr:full": "61 MAPLE ST", "addr:postcode": "07901", "addr:state": "NJ", "amenity": "post_box", "brand": "United States Postal Service", "brand:wikidata": "Q668687", "collection_times": "Mo-Fr 16:00; Sa 13:00", "name": "USPS COLLECTION BOX - PO LOBBY", "note": "ON 12/24 AND 12/31, THIS BOX MAY BE COLLECTED AS EARLY AS 12 NOON.", "nsi_id": "unitedstatespostalservice-a77078", "operator": "United States Postal Service", "operator:short": "USPS", "operator:type": "public", "operator:wikidata": "Q668687", "ref": "0790100065"}, "type": "Feature"}
{"dataset_attributes": {"@spider": "usps_collection_boxes", "spider:collection_time": "2023-08-22T08:24:26.238206"}, "geometry": {"coordinates": [-74.549503, 40.684692], "type": "Point"}, "id": "vd7tB3ccIktq2WAFN7Gmx7DBJ4Y=", "properties": {"@spider": "usps_collection_boxes", "addr:city": "BASKING RIDGE", "addr:country": "US", "addr:full": "120 LYONS PL", "addr:postcode": "07920", "addr:state": "NJ", "amenity": "post_box", "brand": "United States Postal Service", "brand:wikidata": "Q668687", "collection_times": "Mo-Sa 10:00", "name": "USPS COLLECTION BOX - BLUE BOX", "nsi_id": "unitedstatespostalservice-a77078", "operator": "United States Postal Service", "operator:short": "USPS", "operator:type": "public", "operator:wikidata": "Q668687", "ref": "0792000001"}, "type": "Feature"}
{"dataset_attributes": {"@spider": "usps_collection_boxes", "spider:collection_time": "2023-08-22T08:24:26.238206"}, "geometry": {"coordinates": [-74.570169977, 40.659609996], "type": "Point"}, "id": "NoAh1smxf_mDw1NI3zSlw42v1iI=", "properties": {"@spider": "usps_collection_boxes", "addr:city": "BASKING RIDGE", "addr:country": "US", "addr:full": "150 SPRING VALLEY BLVD", "addr:postcode": "07920", "addr:state": "NJ", "amenity": "post_box", "brand": "United States Postal Service", "brand:wikidata": "Q668687", "collection_times": "Mo-Sa 10:00", "name": "USPS COLLECTION BOX - BLUE BOX", "nsi_id": "unitedstatespostalservice-a77078", "operator": "United States Postal Service", "operator:short": "USPS", "operator:type": "public", "operator:wikidata": "Q668687", "ref": "0792000002"}, "type": "Feature"}
{"dataset_attributes": {"@spider": "usps_collection_boxes", "spider:collection_time": "2023-08-22T08:24:26.238206"}, "geometry": {"coordinates": [-74.550131062, 40.705431704], "type": "Point"}, "id": "ou1E7uP_UIKnjGQ4cy50vct9Sqs=", "properties": {"@spider": "usps_collection_boxes", "addr:city": "BASKING RIDGE", "addr:country": "US", "addr:full": "21 BROWNLEE PL", "addr:postcode": "07920", "addr:state": "NJ", "amenity": "post_box", "brand": "United States Postal Service", "brand:wikidata": "Q668687", "collection_times": "Mo-Fr 17:00; Sa 15:00", "name": "USPS COLLECTION BOX - BLUE BOX", "note": "ON 12/24 AND 12/31, THIS BOX MAY BE COLLECTED AS EARLY AS 12 NOON.", "nsi_id": "unitedstatespostalservice-a77078", "operator": "United States Postal Service", "operator:short": "USPS", "operator:type": "public", "operator:wikidata": "Q668687", "ref": "0792000004"}, "type": "Feature"}
{"dataset_attributes": {"@spider": "usps_collection_boxes", "spider:collection_time": "2023-08-22T08:24:26.238206"}, "geometry": {"coordinates": [-74.5492635, 40.704993], "type": "Point"}, "id": "fK2bpilHqRIC_cTOm57x9c7K2is=", "properties": {"@spider": "usps_collection_boxes", "addr:city": "BASKING RIDGE", "addr:country": "US", "addr:full": "59 S FINLEY AVE", "addr:postcode": "07920", "addr:state": "NJ", "amenity": "post_box", "brand": "United States Postal Service", "brand:wikidata": "Q668687", "collection_times": "Mo-Sa 10:00", "name": "USPS COLLECTION BOX - BLUE BOX", "nsi_id": "unitedstatespostalservice-a77078", "operator": "United States Postal Service", "operator:short": "USPS", "operator:type": "public", "operator:wikidata": "Q668687", "ref": "0792000006"}, "type": "Feature"}
{"dataset_attributes": {"@spider": "usps_collection_boxes", "spider:collection_time": "2023-08-22T08:24:26.238206"}, "geometry": {"coordinates": [-74.5567338, 40.7165], "type": "Point"}, "id": "blscHa1Yqk71kfK4yt90hs4FM1c=", "properties": {"@spider": "usps_collection_boxes", "addr:city": "BASKING RIDGE", "addr:country": "US", "addr:full": "150 N FINLEY AVE", "addr:postcode": "07920", "addr:state": "NJ", "amenity": "post_box", "brand": "United States Postal Service", "brand:wikidata": "Q668687", "collection_times": "Mo-Sa 10:00", "name": "USPS COLLECTION BOX - BLUE BOX", "nsi_id": "unitedstatespostalservice-a77078", "operator": "United States Postal Service", "operator:short": "USPS", "operator:type": "public", "operator:wikidata": "Q668687", "ref": "0792000008"}, "type": "Feature"}
{"dataset_attributes": {"@spider": "usps_collection_boxes", "spider:collection_time": "2023-08-22T08:24:26.238206"}, "geometry": {"coordinates": [-74.5425119, 40.707528], "type": "Point"}, "id": "lGX7EC0u8rcngVp2xc5BUHBOvkQ=", "properties": {"@spider": "usps_collection_boxes", "addr:city": "BASKING RIDGE", "addr:country": "US", "addr:full": "150 MANCHESTER DR", "addr:postcode": "07920", "addr:state": "NJ", "amenity": "post_box", "brand": "United States Postal Service", "brand:wikidata": "Q668687", "collection_times": "Mo-Sa 14:00", "name": "USPS COLLECTION BOX - BLUE BOX", "note": "ON 12/24 AND 12/31, THIS BOX MAY BE COLLECTED AS EARLY AS 12 NOON.", "nsi_id": "unitedstatespostalservice-a77078", "operator": "United States Postal Service", "operator:short": "USPS", "operator:type": "public", "operator:wikidata": "Q668687", "ref": "0792000009"}, "type": "Feature"}
{"dataset_attributes": {"@spider": "usps_collection_boxes", "spider:collection_time": "2023-08-22T08:24:26.238206"}, "geometry": {"coordinates": [-74.535007, 40.684624], "type": "Point"}, "id": "kiJXW0lMvmWGmG2NbDkWsrBxB4k=", "properties": {"@spider": "usps_collection_boxes", "addr:city": "BASKING RIDGE", "addr:country": "US", "addr:full": "1 DEXTER DR S", "addr:postcode": "07920", "addr:state": "NJ", "amenity": "post_box", "brand": "United States Postal Service", "brand:wikidata": "Q668687", "collection_times": "Mo-Sa 11:00", "name": "USPS COLLECTION BOX - BLUE BOX", "nsi_id": "unitedstatespostalservice-a77078", "operator": "United States Postal Service", "operator:short": "USPS", "operator:type": "public", "operator:wikidata": "Q668687", "ref": "0792000011"}, "type": "Feature"}
{"dataset_attributes": {"@spider": "usps_collection_boxes", "spider:collection_time": "2023-08-22T08:24:26.238206"}, "geometry": {"coordinates": [-74.5503449, 40.684065], "type": "Point"}, "id": "onBs-leYnl6eOFo6k_NVvEHjwWE=", "properties": {"@spider": "usps_collection_boxes", "addr:city": "BASKING RIDGE", "addr:country": "US", "addr:full": "1 LYONS MALL", "addr:postcode": "07920", "addr:state": "NJ", "amenity": "post_box", "brand": "United States Postal Service", "brand:wikidata": "Q668687", "collection_times": "Mo-Sa 10:00", "name": "USPS COLLECTION BOX - BLUE BOX", "nsi_id": "unitedstatespostalservice-a77078", "operator": "United States Postal Service", "operator:short": "USPS", "operator:type": "public", "operator:wikidata": "Q668687", "ref": "0792000014"}, "type": "Feature"}
{"dataset_attributes": {"@spider": "usps_collection_boxes", "spider:collection_time": "2023-08-22T08:24:26.238206"}, "geometry": {"coordinates": [-74.5566317, 40.662], "type": "Point"}, "id": "aEt1PTQSq7EdtwxUQIcfC1f_DD4=", "properties": {"@spider": "usps_collection_boxes", "addr:city": "BASKING RIDGE", "addr:country": "US", "addr:full": "1 ARBOR CIR", "addr:postcode": "07920", "addr:state": "NJ", "amenity": "post_box", "brand": "United States Postal Service", "brand:wikidata": "Q668687", "collection_times": "Mo-Sa 11:00", "name": "USPS COLLECTION BOX - BLUE BOX", "nsi_id": "unitedstatespostalservice-a77078", "operator": "United States Postal Service", "operator:short": "USPS", "operator:type": "public", "operator:wikidata": "Q668687", "ref": "0792000015"}, "type": "Feature"}
{"dataset_attributes": {"@spider": "usps_collection_boxes", "spider:collection_time": "2023-08-22T08:24:26.238206"}, "geometry": {"coordinates": [-74.5472936, 40.7057], "type": "Point"}, "id": "MzLMDj0LbpWyp8BE1OUBjCBPL3g=", "properties": {"@spider": "usps_collection_boxes", "addr:city": "BASKING RIDGE", "addr:country": "US", "addr:full": "10 LINBERG LN", "addr:postcode": "07920", "addr:state": "NJ", "amenity": "post_box", "brand": "United States Postal Service", "brand:wikidata": "Q668687", "collection_times": "Mo-Sa 11:00", "name": "USPS COLLECTION BOX - BLUE BOX", "nsi_id": "unitedstatespostalservice-a77078", "operator": "United States Postal Service", "operator:short": "USPS", "operator:type": "public", "operator:wikidata": "Q668687", "ref": "0792000016"}, "type": "Feature"}
{"dataset_attributes": {"@spider": "usps_collection_boxes", "spider:collection_time": "2023-08-22T08:24:26.238206"}, "geometry": {"coordinates": [-74.5515964, 40.672416], "type": "Point"}, "id": "_dPi8wR3e6jthLg4o947spuTZJA=", "properties": {"@spider": "usps_collection_boxes", "addr:city": "BASKING RIDGE", "addr:country": "US", "addr:full": "41 ASPEN DR", "addr:postcode": "07920", "addr:state": "NJ", "amenity": "post_box", "brand": "United States Postal Service", "brand:wikidata": "Q668687", "collection_times": "Mo-Sa 12:00", "name": "USPS COLLECTION BOX - BLUE BOX", "nsi_id": "unitedstatespostalservice-a77078", "operator": "United States Postal Service", "operator:short": "USPS", "operator:type": "public", "operator:wikidata": "Q668687", "ref": "0792000017"}, "type": "Feature"}
{"dataset_attributes": {"@spider": "usps_collection_boxes", "spider:collection_time": "2023-08-22T08:24:26.238206"}, "geometry": {"coordinates": [-74.5529741, 40.722113], "type": "Point"}, "id": "0hggEmzm1PfzOgcMcsr0nv-llkA=", "properties": {"@spider": "usps_collection_boxes", "addr:city": "BASKING RIDGE", "addr:country": "US", "addr:full": "19 MORRISTOWN RD", "addr:postcode": "07920", "addr:state": "NJ", "amenity": "post_box", "brand": "United States Postal Service", "brand:wikidata": "Q668687", "collection_times": "Mo-Sa 11:00", "name": "USPS COLLECTION BOX - BLUE BOX", "nsi_id": "unitedstatespostalservice-a77078", "operator": "United States Postal Service", "operator:short": "USPS", "operator:type": "public", "operator:wikidata": "Q668687", "ref": "0792000018"}, "type": "Feature"}
{"dataset_attributes": {"@spider": "usps_collection_boxes", "spider:collection_time": "2023-08-22T08:24:26.238206"}, "geometry": {"coordinates": [-74.619812666, 40.655833968], "type": "Point"}, "id": "FOtax6p1IWDzdB01KoLEOPosgMI=", "properties": {"@spider": "usps_collection_boxes", "addr:city": "BASKING RIDGE", "addr:country": "US", "addr:full": "566 ALLEN RD", "addr:postcode": "07920", "addr:state": "NJ", "amenity": "post_box", "brand": "United States Postal Service", "brand:wikidata": "Q668687", "collection_times": "Mo-Fr 16:00; Sa 15:00", "name": "USPS COLLECTION BOX - BLUE BOX", "note": "ON 12/24 AND 12/31, THIS BOX MAY BE COLLECTED AS EARLY AS 12 NOON.", "nsi_id": "unitedstatespostalservice-a77078", "operator": "United States Postal Service", "operator:short": "USPS", "operator:type": "public", "operator:wikidata": "Q668687", "ref": "0792000019"}, "type": "Feature"}
{"dataset_attributes": {"@spider": "usps_collection_boxes", "spider:collection_time": "2023-08-22T08:24:26.238206"}, "geometry": {"coordinates": [-74.550129312, 40.705432295], "type": "Point"}, "id": "IRr4g2DpCTW3XaOB-qpbt7NaU7Q=", "properties": {"@spider": "usps_collection_boxes", "addr:city": "BASKING RIDGE", "addr:country": "US", "addr:full": "21 BROWNLEE PL", "addr:postcode": "07920", "addr:state": "NJ", "amenity": "post_box", "brand": "United States Postal Service", "brand:wikidata": "Q668687", "collection_times": "Mo-Fr 17:00; Sa 16:00", "name": "USPS COLLECTION BOX - PO LOBBY", "note": "ON 12/24 AND 12/31, THIS BOX MAY BE COLLECTED AS EARLY AS 12 NOON.", "nsi_id": "unitedstatespostalservice-a77078", "operator": "United States Postal Service", "operator:short": "USPS", "operator:type": "public", "operator:wikidata": "Q668687", "ref": "0792000021"}, "type": "Feature"}
{"dataset_attributes": {"@spider": "usps_collection_boxes", "spider:collection_time": "2023-08-22T08:24:26.238206"}, "geometry": {"coordinates": [-74.619812666, 40.655833968], "type": "Point"}, "id": "x0-d5DZIU2fnt4tJDkAsyAwEQhc=", "properties": {"@spider": "usps_collection_boxes", "addr:city": "BASKING RIDGE", "addr:country": "US", "addr:full": "566 ALLEN RD", "addr:postcode": "07920", "addr:state": "NJ", "amenity": "post_box", "brand": "United States Postal Service", "brand:wikidata": "Q668687", "collection_times": "Mo-Fr 15:00; Sa 12:00", "name": "USPS COLLECTION BOX - PO LOBBY", "note": "ON 12/24 AND 12/31, THIS BOX MAY BE COLLECTED AS EARLY AS 12 NOON.", "nsi_id": "unitedstatespostalservice-a77078", "operator": "United States Postal Service", "operator:short": "USPS", "operator:type": "public", "operator:wikidata": "Q668687", "ref": "0792000022"}, "type": "Feature"}
{"dataset_attributes": {"@spider": "usps_collection_boxes", "spider:collection_time": "2023-08-22T08:24:26.238206"}, "geometry": {"coordinates": [-74.619812666, 40.655833968], "type": "Point"}, "id": "mB09MD5uSTw3rZl46CHFCcCl30U=", "properties": {"@spider": "usps_collection_boxes", "addr:city": "BASKING RIDGE", "addr:country": "US", "addr:full": "566 ALLEN RD", "addr:postcode": "07920", "addr:state": "NJ", "amenity": "post_box", "brand": "United States Postal Service", "brand:wikidata": "Q668687", "collection_times": "Mo-Fr 16:00; Sa 12:00", "name": "USPS COLLECTION BOX - PO LOBBY", "note": "ON 12/24 AND 12/31, THIS BOX MAY BE COLLECTED AS EARLY AS 12 NOON.", "nsi_id": "unitedstatespostalservice-a77078", "operator": "United States Postal Service", "operator:short": "USPS", "operator:type": "public", "operator:wikidata": "Q668687", "ref": "0792000025"}, "type": "Feature"}
{"dataset_attributes": {"@spider": "usps_collection_boxes", "spider:collection_time": "2023-08-22T08:24:26.238206"}, "geometry": {"coordinates": [-74.550129312, 40.705432295], "type": "Point"}, "id": "MJ78194Pfiip6ndp9bY9jFVNXeI=", "properties": {"@spider": "usps_collection_boxes", "addr:city": "BASKING RIDGE", "addr:country": "US", "addr:full": "21 BROWNLEE PL", "addr:postcode": "07920", "addr:state": "NJ", "amenity": "post_box", "brand": "United States Postal Service", "brand:wikidata": "Q668687", "collection_times": "Mo-Fr 18:00; Sa 16:00", "name": "USPS COLLECTION BOX - PO LOBBY", "note": "ON 12/24 AND 12/31, THIS BOX MAY BE COLLECTED AS EARLY AS 12 NOON.", "nsi_id": "unitedstatespostalservice-a77078", "operator": "United States Postal Service", "operator:short": "USPS", "operator:type": "public", "operator:wikidata": "Q668687", "ref": "0792000026"}, "type": "Feature"}
{"dataset_attributes": {"@spider": "usps_collection_boxes", "spider:collection_time": "2023-08-22T08:24:26.238206"}, "geometry": {"coordinates": [-74.6433299, 40.651972], "type": "Point"}, "id": "NOeuG8YWiSmckqkd1rq3icDX6Rg=", "properties": {"@spider": "usps_collection_boxes", "addr:city": "BEDMINSTER", "addr:country": "US", "addr:full": "500 HILLS DR", "addr:postcode": "07921", "addr:state": "NJ", "amenity": "post_box", "brand": "United States Postal Service", "brand:wikidata": "Q668687", "collection_times": "Mo-Fr 09:30", "name": "USPS COLLECTION BOX - BLUE BOX", "nsi_id": "unitedstatespostalservice-a77078", "operator": "United States Postal Service", "operator:short": "USPS", "operator:type": "public", "operator:wikidata": "Q668687", "ref": "0792100002"}, "type": "Feature"}
{"dataset_attributes": {"@spider": "usps_collection_boxes", "spider:collection_time": "2023-08-22T08:24:26.238206"}, "geometry": {"coordinates": [-74.6422611, 40.652886], "type": "Point"}, "id": "YXQfxg0n8SZUrBO8f7_j2LjwatM=", "properties": {"@spider": "usps_collection_boxes", "addr:city": "BEDMINSTER", "addr:country": "US", "addr:full": "550 US HIGHWAY 202 206", "addr:postcode": "07921", "addr:state": "NJ", "amenity": "post_box", "brand": "United States Postal Service", "brand:wikidata": "Q668687", "collection_times": "Mo-Fr 09:30", "name": "USPS COLLECTION BOX - BLUE BOX", "nsi_id": "unitedstatespostalservice-a77078", "operator": "United States Postal Service", "operator:short": "USPS", "operator:type": "public", "operator:wikidata": "Q668687", "ref": "0792100003"}, "type": "Feature"}
{"dataset_attributes": {"@spider": "usps_collection_boxes", "spider:collection_time": "2023-08-22T08:24:26.238206"}, "geometry": {"coordinates": [-74.6410746, 40.650471], "type": "Point"}, "id": "fQI0j-696MTxGqGEgVriIFHiphM=", "properties": {"@spider": "usps_collection_boxes", "addr:city": "BEDMINSTER", "addr:country": "US", "addr:full": "442 US HIGHWAY 202 206", "addr:postcode": "07921", "addr:state": "NJ", "amenity": "post_box", "brand": "United States Postal Service", "brand:wikidata": "Q668687", "collection_times": "Mo-Sa 15:00", "name": "USPS COLLECTION BOX - BLUE BOX", "note": "ON 12/24 AND 12/31, THIS BOX MAY BE COLLECTED AS EARLY AS 12 NOON.", "nsi_id": "unitedstatespostalservice-a77078", "operator": "United States Postal Service", "operator:short": "USPS", "operator:type": "public", "operator:wikidata": "Q668687", "ref": "0792100004"}, "type": "Feature"}
{"dataset_attributes": {"@spider": "usps_collection_boxes", "spider:collection_time": "2023-08-22T08:24:26.238206"}, "geometry": {"coordinates": [-74.6401469, 40.647096], "type": "Point"}, "id": "Bg2WB6_y8Wm2Y_04Rdz97XesUqM=", "properties": {"@spider": "usps_collection_boxes", "addr:city": "BEDMINSTER", "addr:country": "US", "addr:full": "1 WASHINGTON VALLEY RD", "addr:postcode": "07921", "addr:state": "NJ", "amenity": "post_box", "brand": "United States Postal Service", "brand:wikidata": "Q668687", "collection_times": "Mo-Sa 15:00", "name": "USPS COLLECTION BOX - BLUE BOX", "note": "ON 12/24 AND 12/31, THIS BOX MAY BE COLLECTED AS EARLY AS 12 NOON.", "nsi_id": "unitedstatespostalservice-a77078", "operator": "United States Postal Service", "operator:short": "USPS", "operator:type": "public", "operator:wikidata": "Q668687", "ref": "0792100005"}, "type": "Feature"}
{"dataset_attributes": {"@spider": "usps_collection_boxes", "spider:collection_time": "2023-08-22T08:24:26.238206"}, "geometry": {"coordinates": [-74.6458408, 40.679673], "type": "Point"}, "id": "LoTCUzZ0etrDApNaT0mm4dbN1xU=", "properties": {"@spider": "usps_collection_boxes", "addr:city": "BEDMINSTER", "addr:country": "US", "addr:full": "251 SOMERVILLE RD", "addr:postcode": "07921", "addr:state": "NJ", "amenity": "post_box", "brand": "United States Postal Service", "brand:wikidata": "Q668687", "collection_times": "Mo-Fr 17:00; Sa 15:00", "name": "USPS COLLECTION BOX - BLUE BOX", "note": "ON 12/24 AND 12/31, THIS BOX MAY BE COLLECTED AS EARLY AS 12 NOON.", "nsi_id": "unitedstatespostalservice-a77078", "operator": "United States Postal Service", "operator:short": "USPS", "operator:type": "public", "operator:wikidata": "Q668687", "ref": "0792100008"}, "type": "Feature"}
{"dataset_attributes": {"@spider": "usps_collection_boxes", "spider:collection_time": "2023-08-22T08:24:26.238206"}, "geometry": {"coordinates": [-74.6447421, 40.647212], "type": "Point"}, "id": "4h1EBfcTM_SCe7k6UA0nRk3GrTY=", "properties": {"@spider": "usps_collection_boxes", "addr:city": "BEDMINSTER", "addr:country": "US", "addr:full": "1 CROSSROADS DR", "addr:postcode": "07921", "addr:state": "NJ", "amenity": "post_box", "brand": "United States Postal Service", "brand:wikidata": "Q668687", "collection_times": "Mo-Fr 15:00", "name": "USPS COLLECTION BOX - BLUE BOX", "note": "ON 12/24 AND 12/31, THIS BOX MAY BE COLLECTED AS EARLY AS 12 NOON.", "nsi_id": "unitedstatespostalservice-a77078", "operator": "United States Postal Service", "operator:short": "USPS", "operator:type": "public", "operator:wikidata": "Q668687", "ref": "0792100009"}, "type": "Feature"}
{"dataset_attributes": {"@spider": "usps_collection_boxes", "spider:collection_time": "2023-08-22T08:24:26.238206"}, "geometry": {"coordinates": [-74.6461142, 40.679732], "type": "Point"}, "id": "w5zwMV2KZSzuQJD7I_j4s6jIY8Y=", "properties": {"@spider": "usps_collection_boxes", "addr:city": "BEDMINSTER", "addr:country": "US", "addr:full": "251 SOMERVILLE RD", "addr:postcode": "07921", "addr:state": "NJ", "amenity": "post_box", "brand": "United States Postal Service", "brand:wikidata": "Q668687", "collection_times": "Mo-Fr 16:00; Sa 15:00", "name": "USPS COLLECTION BOX - PO LOBBY", "note": "ON 12/24 AND 12/31, THIS BOX MAY BE COLLECTED AS EARLY AS 12 NOON.", "nsi_id": "unitedstatespostalservice-a77078", "operator": "United States Postal Service", "operator:short": "USPS", "operator:type": "public", "operator:wikidata": "Q668687", "ref": "0792100010"}, "type": "Feature"}
{"dataset_attributes": {"@spider": "usps_collection_boxes", "spider:collection_time": "2023-08-22T08:24:26.238206"}, "geometry": {"coordinates": [-74.6456281566, 40.6796131049], "type": "Point"}, "id": "dy3tw46mtJK911irhjUooKm3v8o=", "properties": {"@spider": "usps_collection_boxes", "addr:city": "BEDMINSTER", "addr:country": "US", "addr:full": "251 SOMERVILLE RD", "addr:postcode": "07921", "addr:state": "NJ", "amenity": "post_box", "brand": "United States Postal Service", "brand:wikidata": "Q668687", "collection_times": "Mo-Fr 16:30; Sa 13:30", "name": "USPS COLLECTION BOX - PO LOBBY", "note": "ON 12/24 AND 12/31, THIS BOX MAY BE COLLECTED AS EARLY AS 12 NOON.", "nsi_id": "unitedstatespostalservice-a77078", "operator": "United States Postal Service", "operator:short": "USPS", "operator:type": "public", "operator:wikidata": "Q668687", "ref": "0792100014"}, "type": "Feature"}
{"dataset_attributes": {"@spider": "usps_collection_boxes", "spider:collection_time": "2023-08-22T08:24:26.238206"}, "geometry": {"coordinates": [-74.437486, 40.686543], "type": "Point"}, "id": "Ff0Qjwy8elslsUxUoOYHrAykdhE=", "properties": {"@spider": "usps_collection_boxes", "addr:city": "BERKELEY HTS", "addr:country": "US", "addr:full": "360 SPRINGFIELD AVE", "addr:postcode": "07922", "addr:state": "NJ", "amenity": "post_box", "brand": "United States Postal Service", "brand:wikidata": "Q668687", "collection_times": "Mo-Fr 17:00; Sa 15:00", "name": "USPS COLLECTION BOX - BLUE BOX", "note": "ON 12/24 AND 12/31, THIS BOX MAY BE COLLECTED AS EARLY AS 12 NOON.", "nsi_id": "unitedstatespostalservice-a77078", "operator": "United States Postal Service", "operator:short": "USPS", "operator:type": "public", "operator:wikidata": "Q668687", "ref": "0792200003"}, "type": "Feature"}
{"dataset_attributes": {"@spider": "usps_collection_boxes", "spider:collection_time": "2023-08-22T08:24:26.238206"}, "geometry": {"coordinates": [-74.4424919, 40.681739], "type": "Point"}, "id": "q3sZOYc8Pnuc9AwEvlZwzc-ra54=", "properties": {"@spider": "usps_collection_boxes", "addr:city": "BERKELEY HTS", "addr:country": "US", "addr:full": "29 PARK AVE", "addr:postcode": "07922", "addr:state": "NJ", "amenity": "post_box", "brand": "United States Postal Service", "brand:wikidata": "Q668687", "collection_times": "Mo-Sa 11:00", "name": "USPS COLLECTION BOX - BLUE BOX", "nsi_id": "unitedstatespostalservice-a77078", "operator": "United States Postal Service", "operator:short": "USPS", "operator:type": "public", "operator:wikidata": "Q668687", "ref": "0792200004"}, "type": "Feature"}
{"dataset_attributes": {"@spider": "usps_collection_boxes", "spider:collection_time": "2023-08-22T08:24:26.238206"}, "geometry": {"coordinates": [-74.437639013, 40.686333999], "type": "Point"}, "id": "APdMEa6FlvLOOCGaKe3RPadWyZ8=", "properties": {"@spider": "usps_collection_boxes", "addr:city": "BERKELEY HTS", "addr:country": "US", "addr:full": "364 SPRINGFIELD AVE", "addr:postcode": "07922", "addr:state": "NJ", "amenity": "post_box", "brand": "United States Postal Service", "brand:wikidata": "Q668687", "collection_times": "Mo-Fr 16:30; Sa 13:00", "name": "USPS COLLECTION BOX - PO LOBBY", "note": "ON 12/24 AND 12/31, THIS BOX MAY BE COLLECTED AS EARLY AS 12 NOON.", "nsi_id": "unitedstatespostalservice-a77078", "operator": "United States Postal Service", "operator:short": "USPS", "operator:type": "public", "operator:wikidata": "Q668687", "ref": "0792200012"}, "type": "Feature"}
{"dataset_attributes": {"@spider": "usps_collection_boxes", "spider:collection_time": "2023-08-22T08:24:26.238206"}, "geometry": {"coordinates": [-74.437639013, 40.686333999], "type": "Point"}, "id": "9SgxoscFPEkc2ycqWyLUWo2U74U=", "properties": {"@spider": "usps_collection_boxes", "addr:city": "BERKELEY HTS", "addr:country": "US", "addr:full": "364 SPRINGFIELD AVE", "addr:postcode": "07922", "addr:state": "NJ", "amenity": "post_box", "brand": "United States Postal Service", "brand:wikidata": "Q668687", "collection_times": "Mo-Fr 16:30; Sa 13:00", "name": "USPS COLLECTION BOX - PO LOBBY", "note": "ON 12/24 AND 12/31, THIS BOX MAY BE COLLECTED AS EARLY AS 12 NOON.", "nsi_id": "unitedstatespostalservice-a77078", "operator": "United States Postal Service", "operator:short": "USPS", "operator:type": "public", "operator:wikidata": "Q668687", "ref": "0792200017"}, "type": "Feature"}
{"dataset_attributes": {"@spider": "usps_collection_boxes", "spider:collection_time": "2023-08-22T08:24:26.238206"}, "geometry": {"coordinates": [-74.5674238, 40.721592], "type": "Point"}, "id": "9kuo2HpTbDBwIba58_cH62VJi3s=", "properties": {"@spider": "usps_collection_boxes", "addr:city": "BERNARDSVILLE", "addr:country": "US", "addr:full": "25 OLCOTT AVE", "addr:postcode": "07924", "addr:state": "NJ", "amenity": "post_box", "brand": "United States Postal Service", "brand:wikidata": "Q668687", "collection_times": "Mo-Sa 10:00", "name": "USPS COLLECTION BOX - BLUE BOX", "nsi_id": "unitedstatespostalservice-a77078", "operator": "United States Postal Service", "operator:short": "USPS", "operator:type": "public", "operator:wikidata": "Q668687", "ref": "0792400001"}, "type": "Feature"}
{"dataset_attributes": {"@spider": "usps_collection_boxes", "spider:collection_time": "2023-08-22T08:24:26.238206"}, "geometry": {"coordinates": [-74.55701, 40.720886], "type": "Point"}, "id": "gaZ_Lceo8skjRIrdO2rvramfVIY=", "properties": {"@spider": "usps_collection_boxes", "addr:city": "BERNARDSVILLE", "addr:country": "US", "addr:full": "150 MORRISTOWN RD", "addr:postcode": "07924", "addr:state": "NJ", "amenity": "post_box", "brand": "United States Postal Service", "brand:wikidata": "Q668687", "collection_times": "Mo-Sa 10:00", "name": "USPS COLLECTION BOX - BLUE BOX", "nsi_id": "unitedstatespostalservice-a77078", "operator": "United States Postal Service", "operator:short": "USPS", "operator:type": "public", "operator:wikidata": "Q668687", "ref": "0792400002"}, "type": "Feature"}
{"dataset_attributes": {"@spider": "usps_collection_boxes", "spider:collection_time": "2023-08-22T08:24:26.238206"}, "geometry": {"coordinates": [-74.5716044, 40.717224], "type": "Point"}, "id": "0hYGp0GSHzNb2mXTyXWjzyXReFs=", "properties": {"@spider": "usps_collection_boxes", "addr:city": "BERNARDSVILLE", "addr:country": "US", "addr:full": "47 MINE BROOK RD", "addr:postcode": "07924", "addr:state": "NJ", "amenity": "post_box", "brand": "United States Postal Service", "brand:wikidata": "Q668687", "collection_times": "Mo-Sa 10:00", "name": "USPS COLLECTION BOX - BLUE BOX", "nsi_id": "unitedstatespostalservice-a77078", "operator": "United States Postal Service", "operator:short": "USPS", "operator:type": "public", "operator:wikidata": "Q668687", "ref": "0792400003"}, "type": "Feature"}
{"dataset_attributes": {"@spider": "usps_collection_boxes", "spider:collection_time": "2023-08-22T08:24:26.238206"}, "geometry": {"coordinates": [-74.5716069, 40.713479], "type": "Point"}, "id": "FHX0sgJqi5U7ytuSjkgGLt1zm9s=", "properties": {"@spider": "usps_collection_boxes", "addr:city": "BERNARDSVILLE", "addr:country": "US", "addr:full": "50 BERNARDS AVE", "addr:postcode": "07924", "addr:state": "NJ", "amenity": "post_box", "brand": "United States Postal Service", "brand:wikidata": "Q668687", "collection_times": "Mo-Sa 10:00", "name": "USPS COLLECTION BOX - BLUE BOX", "nsi_id": "unitedstatespostalservice-a77078", "operator": "United States Postal Service", "operator:short": "USPS", "operator:type": "public", "operator:wikidata": "Q668687", "ref": "0792400004"}, "type": "Feature"}
{"dataset_attributes": {"@spider": "usps_collection_boxes", "spider:collection_time": "2023-08-22T08:24:26.238206"}, "geometry": {"coordinates": [-74.5627575837, 40.7195141336], "type": "Point"}, "id": "2Sran4CkrUeT1-b2X8xLMh6-g8A=", "properties": {"@spider": "usps_collection_boxes", "addr:city": "BERNARDSVILLE", "addr:country": "US", "addr:full": "80 MORRISTOWN RD UNIT 23", "addr:postcode": "07924", "addr:state": "NJ", "amenity": "post_box", "brand": "United States Postal Service", "brand:wikidata": "Q668687", "collection_times": "Mo-Sa 10:00", "name": "USPS COLLECTION BOX - BLUE BOX", "nsi_id": "unitedstatespostalservice-a77078", "operator": "United States Postal Service", "operator:short": "USPS", "operator:type": "public", "operator:wikidata": "Q668687", "ref": "0792400006"}, "type": "Feature"}
{"dataset_attributes": {"@spider": "usps_collection_boxes", "spider:collection_time": "2023-08-22T08:24:26.238206"}, "geometry": {"coordinates": [-74.570459319, 40.718703835], "type": "Point"}, "id": "tSLipiZPuFAEBF6Mh6JlU24NVFM=", "properties": {"@spider": "usps_collection_boxes", "addr:city": "BERNARDSVILLE", "addr:country": "US", "addr:full": "23 QUIMBY LN", "addr:postcode": "07924", "addr:state": "NJ", "amenity": "post_box", "brand": "United States Postal Service", "brand:wikidata": "Q668687", "collection_times": "Mo-Fr 17:00; Sa 15:00", "name": "USPS COLLECTION BOX - BLUE BOX", "note": "ON 12/24 AND 12/31, THIS BOX MAY BE COLLECTED AS EARLY AS 12 NOON.", "nsi_id": "unitedstatespostalservice-a77078", "operator": "United States Postal Service", "operator:short": "USPS", "operator:type": "public", "operator:wikidata": "Q668687", "ref": "0792400008"}, "type": "Feature"}
{"dataset_attributes": {"@spider": "usps_collection_boxes", "spider:collection_time": "2023-08-22T08:24:26.238206"}, "geometry": {"coordinates": [-74.5704680941, 40.7186264707], "type": "Point"}, "id": "sfOfRcaIhrydDM3DW94pbfBFqB8=", "properties": {"@spider": "usps_collection_boxes", "addr:city": "BERNARDSVILLE", "addr:country": "US", "addr:full": "23 QUIMBY LN", "addr:postcode": "07924", "addr:state": "NJ", "amenity": "post_box", "brand": "United States Postal Service", "brand:wikidata": "Q668687", "collection_times": "Mo-Fr 16:30; Sa 12:00", "name": "USPS COLLECTION BOX - PO LOBBY", "note": "ON 12/24 AND 12/31, THIS BOX MAY BE COLLECTED AS EARLY AS 12 NOON.", "nsi_id": "unitedstatespostalservice-a77078", "operator": "United States Postal Service", "operator:short": "USPS", "operator:type": "public", "operator:wikidata": "Q668687", "ref": "0792400010"}, "type": "Feature"}
{"dataset_attributes": {"@spider": "usps_collection_boxes", "spider:collection_time": "2023-08-22T08:24:26.238206"}, "geometry": {"coordinates": [-74.5704680941, 40.7186264707], "type": "Point"}, "id": "kGzNX0o-cecJOypzXweP4gsoZ1A=", "properties": {"@spider": "usps_collection_boxes", "addr:city": "BERNARDSVILLE", "addr:country": "US", "addr:full": "23 QUIMBY LN", "addr:postcode": "07924", "addr:state": "NJ", "amenity": "post_box", "brand": "United States Postal Service", "brand:wikidata": "Q668687", "collection_times": "Mo-Fr 16:30; Sa 12:00", "name": "USPS COLLECTION BOX - PO LOBBY", "note": "ON 12/24 AND 12/31, THIS BOX MAY BE COLLECTED AS EARLY AS 12 NOON.", "nsi_id": "unitedstatespostalservice-a77078", "operator": "United States Postal Service", "operator:short": "USPS", "operator:type": "public", "operator:wikidata": "Q668687", "ref": "0792400013"}, "type": "Feature"}
{"dataset_attributes": {"@spider": "usps_collection_boxes", "spider:collection_time": "2023-08-22T08:24:26.238206"}, "geometry": {"coordinates": [-74.5682715, 40.794669], "type": "Point"}, "id": "Wi4VomjMbOXSVIjTqjGsOVg9_NU=", "properties": {"@spider": "usps_collection_boxes", "addr:city": "BROOKSIDE", "addr:country": "US", "addr:full": "2 E MAIN ST", "addr:postcode": "07926", "addr:state": "NJ", "amenity": "post_box", "brand": "United States Postal Service", "brand:wikidata": "Q668687", "collection_times": "Mo-Fr 16:30; Sa 11:30", "name": "USPS COLLECTION BOX - BLUE BOX", "note": "ON 12/24 AND 12/31, THIS BOX MAY BE COLLECTED AS EARLY AS 12 NOON.", "nsi_id": "unitedstatespostalservice-a77078", "operator": "United States Postal Service", "operator:short": "USPS", "operator:type": "public", "operator:wikidata": "Q668687", "ref": "0792600001"}, "type": "Feature"}
{"dataset_attributes": {"@spider": "usps_collection_boxes", "spider:collection_time": "2023-08-22T08:24:26.238206"}, "geometry": {"coordinates": [-74.568053241, 40.794544371], "type": "Point"}, "id": "bDxtWXLz5G1RvTpHphobGS_uvzQ=", "properties": {"@spider": "usps_collection_boxes", "addr:city": "BROOKSIDE", "addr:country": "US", "addr:full": "2 E MAIN ST", "addr:postcode": "07926", "addr:state": "NJ", "amenity": "post_box", "brand": "United States Postal Service", "brand:wikidata": "Q668687", "collection_times": "Mo-Fr 16:30; Sa 11:00", "name": "USPS COLLECTION BOX - PO LOBBY", "note": "ON 12/24 AND 12/31, THIS BOX MAY BE COLLECTED AS EARLY AS 12 NOON.", "nsi_id": "unitedstatespostalservice-a77078", "operator": "United States Postal Service", "operator:short": "USPS", "operator:type": "public", "operator:wikidata": "Q668687", "ref": "0792600002"}, "type": "Feature"}
{"dataset_attributes": {"@spider": "usps_collection_boxes", "spider:collection_time": "2023-08-22T08:24:26.238206"}, "geometry": {"coordinates": [-74.568053241, 40.794544371], "type": "Point"}, "id": "fG18As_2P-GqNYTJYs-J3mmZkbE=", "properties": {"@spider": "usps_collection_boxes", "addr:city": "BROOKSIDE", "addr:country": "US", "addr:full": "2 E MAIN ST", "addr:postcode": "07926", "addr:state": "NJ", "amenity": "post_box", "brand": "United States Postal Service", "brand:wikidata": "Q668687", "collection_times": "Mo-Fr 16:30; Sa 11:00", "name": "USPS COLLECTION BOX - PO LOBBY", "note": "ON 12/24 AND 12/31, THIS BOX MAY BE COLLECTED AS EARLY AS 12 NOON.", "nsi_id": "unitedstatespostalservice-a77078", "operator": "United States Postal Service", "operator:short": "USPS", "operator:type": "public", "operator:wikidata": "Q668687", "ref": "0792600003"}, "type": "Feature"}
{"dataset_attributes": {"@spider": "usps_collection_boxes", "spider:collection_time": "2023-08-22T08:24:26.238206"}, "geometry": {"coordinates": [-74.449185533, 40.823167837], "type": "Point"}, "id": "jX-qkDCE8SmBM-SdsWo20JOvnl4=", "properties": {"@spider": "usps_collection_boxes", "addr:city": "CEDAR KNOLLS", "addr:country": "US", "addr:full": "2 MOUNTAIN AVE", "addr:postcode": "07927", "addr:state": "NJ", "amenity": "post_box", "brand": "United States Postal Service", "brand:wikidata": "Q668687", "collection_times": "Mo-Fr 17:00; Sa 14:00", "name": "USPS COLLECTION BOX - BLUE BOX", "note": "ON 12/24 AND 12/31, THIS BOX MAY BE COLLECTED AS EARLY AS 12 NOON.", "nsi_id": "unitedstatespostalservice-a77078", "operator": "United States Postal Service", "operator:short": "USPS", "operator:type": "public", "operator:wikidata": "Q668687", "ref": "0792700003"}, "type": "Feature"}
{"dataset_attributes": {"@spider": "usps_collection_boxes", "spider:collection_time": "2023-08-22T08:24:26.238206"}, "geometry": {"coordinates": [-74.449185533, 40.823167837], "type": "Point"}, "id": "WAGJc7TUnLM9ZLJS4v6dGUokNWQ=", "properties": {"@spider": "usps_collection_boxes", "addr:city": "CEDAR KNOLLS", "addr:country": "US", "addr:full": "2 MOUNTAIN AVE", "addr:postcode": "07927", "addr:state": "NJ", "amenity": "post_box", "brand": "United States Postal Service", "brand:wikidata": "Q668687", "collection_times": "Mo-Fr 17:00; Sa 14:00", "name": "USPS COLLECTION BOX - BLUE BOX", "note": "ON 12/24 AND 12/31, THIS BOX MAY BE COLLECTED AS EARLY AS 12 NOON.", "nsi_id": "unitedstatespostalservice-a77078", "operator": "United States Postal Service", "operator:short": "USPS", "operator:type": "public", "operator:wikidata": "Q668687", "ref": "0792700004"}, "type": "Feature"}
{"dataset_attributes": {"@spider": "usps_collection_boxes", "spider:collection_time": "2023-08-22T08:24:26.238206"}, "geometry": {"coordinates": [-74.4471174, 40.835436], "type": "Point"}, "id": "klqS7IzJ3GeTIxkGU0-wuDm_pYw=", "properties": {"@spider": "usps_collection_boxes", "addr:city": "CEDAR KNOLLS", "addr:country": "US", "addr:full": "2 RIDGEDALE AVE", "addr:postcode": "07927", "addr:state": "NJ", "amenity": "post_box", "brand": "United States Postal Service", "brand:wikidata": "Q668687", "collection_times": "Mo-Fr 15:00; Sa 11:00", "name": "USPS COLLECTION BOX - BLUE BOX", "note": "ON 12/24 AND 12/31, THIS BOX MAY BE COLLECTED AS EARLY AS 12 NOON.", "nsi_id": "unitedstatespostalservice-a77078", "operator": "United States Postal Service", "operator:short": "USPS", "operator:type": "public", "operator:wikidata": "Q668687", "ref": "0792700007"}, "type": "Feature"}
{"dataset_attributes": {"@spider": "usps_collection_boxes", "spider:collection_time": "2023-08-22T08:24:26.238206"}, "geometry": {"coordinates": [-74.4639664, 40.814104], "type": "Point"}, "id": "AtBLPM_yfhotru4oEsYetsUGRsE=", "properties": {"@spider": "usps_collection_boxes", "addr:city": "CEDAR KNOLLS", "addr:country": "US", "addr:full": "1 SADDLE RD", "addr:postcode": "07927", "addr:state": "NJ", "amenity": "post_box", "brand": "United States Postal Service", "brand:wikidata": "Q668687", "collection_times": "Mo-Fr 15:00; Sa 11:00", "name": "USPS COLLECTION BOX - BLUE BOX", "note": "ON 12/24 AND 12/31, THIS BOX MAY BE COLLECTED AS EARLY AS 12 NOON.", "nsi_id": "unitedstatespostalservice-a77078", "operator": "United States Postal Service", "operator:short": "USPS", "operator:type": "public", "operator:wikidata": "Q668687", "ref": "0792700010"}, "type": "Feature"}
{"dataset_attributes": {"@spider": "usps_collection_boxes", "spider:collection_time": "2023-08-22T08:24:26.238206"}, "geometry": {"coordinates": [-74.4547864, 40.813355], "type": "Point"}, "id": "HK4xviseV6n2Y3XlXcODUzeGCjY=", "properties": {"@spider": "usps_collection_boxes", "addr:city": "CEDAR KNOLLS", "addr:country": "US", "addr:full": "2 E FREDERICK PL", "addr:postcode": "07927", "addr:state": "NJ", "amenity": "post_box", "brand": "United States Postal Service", "brand:wikidata": "Q668687", "collection_times": "Mo-Fr 15:00; Sa 11:00", "name": "USPS COLLECTION BOX - BLUE BOX", "note": "ON 12/24 AND 12/31, THIS BOX MAY BE COLLECTED AS EARLY AS 12 NOON.", "nsi_id": "unitedstatespostalservice-a77078", "operator": "United States Postal Service", "operator:short": "USPS", "operator:type": "public", "operator:wikidata": "Q668687", "ref": "0792700012"}, "type": "Feature"}
{"dataset_attributes": {"@spider": "usps_collection_boxes", "spider:collection_time": "2023-08-22T08:24:26.238206"}, "geometry": {"coordinates": [-74.449185533, 40.823167837], "type": "Point"}, "id": "igb87VR0D2h2ZYGZ_UgJys15MMw=", "properties": {"@spider": "usps_collection_boxes", "addr:city": "CEDAR KNOLLS", "addr:country": "US", "addr:full": "2 MOUNTAIN AVE", "addr:postcode": "07927", "addr:state": "NJ", "amenity": "post_box", "brand": "United States Postal Service", "brand:wikidata": "Q668687", "collection_times": "Mo-Fr 16:30; Sa 13:00", "name": "USPS COLLECTION BOX - PO LOBBY", "note": "ON 12/24 AND 12/31, THIS BOX MAY BE COLLECTED AS EARLY AS 12 NOON.", "nsi_id": "unitedstatespostalservice-a77078", "operator": "United States Postal Service", "operator:short": "USPS", "operator:type": "public", "operator:wikidata": "Q668687", "ref": "0792700014"}, "type": "Feature"}
{"dataset_attributes": {"@spider": "usps_collection_boxes", "spider:collection_time": "2023-08-22T08:24:26.238206"}, "geometry": {"coordinates": [-74.449185533, 40.823167837], "type": "Point"}, "id": "TzGu5iREhnIqH2uH8N9HB-GpxCc=", "properties": {"@spider": "usps_collection_boxes", "addr:city": "CEDAR KNOLLS", "addr:country": "US", "addr:full": "2 MOUNTAIN AVE", "addr:postcode": "07927", "addr:state": "NJ", "amenity": "post_box", "brand": "United States Postal Service", "brand:wikidata": "Q668687", "collection_times": "Mo-Fr 16:30; Sa 13:00", "name": "USPS COLLECTION BOX - PO LOBBY", "note": "ON 12/24 AND 12/31, THIS BOX MAY BE COLLECTED AS EARLY AS 12 NOON.", "nsi_id": "unitedstatespostalservice-a77078", "operator": "United States Postal Service", "operator:short": "USPS", "operator:type": "public", "operator:wikidata": "Q668687", "ref": "0792700016"}, "type": "Feature"}
{"dataset_attributes": {"@spider": "usps_collection_boxes", "spider:collection_time": "2023-08-22T08:24:26.238206"}, "geometry": {"coordinates": [-74.382576, 40.739626], "type": "Point"}, "id": "ZgcEdVgPfkWSSuqqkEk2RSrl3p8=", "properties": {"@spider": "usps_collection_boxes", "addr:city": "CHATHAM", "addr:country": "US", "addr:full": "19 S PASSAIC AVE", "addr:postcode": "07928", "addr:state": "NJ", "amenity": "post_box", "brand": "United States Postal Service", "brand:wikidata": "Q668687", "collection_times": "Mo-Fr 17:00; Sa 15:00", "name": "USPS COLLECTION BOX - BLUE BOX", "note": "ON 12/24 AND 12/31, THIS BOX MAY BE COLLECTED AS EARLY AS 12 NOON.", "nsi_id": "unitedstatespostalservice-a77078", "operator": "United States Postal Service", "operator:short": "USPS", "operator:type": "public", "operator:wikidata": "Q668687", "ref": "0792800002"}, "type": "Feature"}
{"dataset_attributes": {"@spider": "usps_collection_boxes", "spider:collection_time": "2023-08-22T08:24:26.238206"}, "geometry": {"coordinates": [-74.395999, 40.722067], "type": "Point"}, "id": "aDRqJuujMEZAMJoFoIQH-68yeiw=", "properties": {"@spider": "usps_collection_boxes", "addr:city": "CHATHAM", "addr:country": "US", "addr:full": "23 CANTERBURY RD", "addr:postcode": "07928", "addr:state": "NJ", "amenity": "post_box", "brand": "United States Postal Service", "brand:wikidata": "Q668687", "collection_times": "Mo-Sa 11:00", "name": "USPS COLLECTION BOX - BLUE BOX", "nsi_id": "unitedstatespostalservice-a77078", "operator": "United States Postal Service", "operator:short": "USPS", "operator:type": "public", "operator:wikidata": "Q668687", "ref": "0792800012"}, "type": "Feature"}
{"dataset_attributes": {"@spider": "usps_collection_boxes", "spider:collection_time": "2023-08-22T08:24:26.238206"}, "geometry": {"coordinates": [-74.4004166, 40.719202], "type": "Point"}, "id": "dqWKFlEHiJFV1jT_OvVHAucZKYs=", "properties": {"@spider": "usps_collection_boxes", "addr:city": "CHATHAM", "addr:country": "US", "addr:full": "13 HERITAGE DR", "addr:postcode": "07928", "addr:state": "NJ", "amenity": "post_box", "brand": "United States Postal Service", "brand:wikidata": "Q668687", "collection_times": "Mo-Sa 11:00", "name": "USPS COLLECTION BOX - BLUE BOX", "nsi_id": "unitedstatespostalservice-a77078", "operator": "United States Postal Service", "operator:short": "USPS", "operator:type": "public", "operator:wikidata": "Q668687", "ref": "0792800022"}, "type": "Feature"}
{"dataset_attributes": {"@spider": "usps_collection_boxes", "spider:collection_time": "2023-08-22T08:24:26.238206"}, "geometry": {"coordinates": [-74.390804626, 40.7439926422], "type": "Point"}, "id": "2c_qMzaVu267aANHQbr7T5-dw9s=", "properties": {"@spider": "usps_collection_boxes", "addr:city": "CHATHAM", "addr:country": "US", "addr:full": "465 MAIN ST", "addr:postcode": "07928", "addr:state": "NJ", "amenity": "post_box", "brand": "United States Postal Service", "brand:wikidata": "Q668687", "collection_times": "Mo-Sa 11:00", "name": "USPS COLLECTION BOX - BLUE BOX", "nsi_id": "unitedstatespostalservice-a77078", "operator": "United States Postal Service", "operator:short": "USPS", "operator:type": "public", "operator:wikidata": "Q668687", "ref": "0792800023"}, "type": "Feature"}
{"dataset_attributes": {"@spider": "usps_collection_boxes", "spider:collection_time": "2023-08-22T08:24:26.238206"}, "geometry": {"coordinates": [-74.382602, 40.739595], "type": "Point"}, "id": "MpNhxI-AFkkTaKrq6157eTPzZMM=", "properties": {"@spider": "usps_collection_boxes", "addr:city": "CHATHAM", "addr:country": "US", "addr:full": "23 S PASSAIC AVE", "addr:postcode": "07928", "addr:state": "NJ", "amenity": "post_box", "brand": "United States Postal Service", "brand:wikidata": "Q668687", "collection_times": "Mo-Fr 17:00; Sa 15:00", "name": "USPS COLLECTION BOX - BLUE BOX", "note": "ON 12/24 AND 12/31, THIS BOX MAY BE COLLECTED AS EARLY AS 12 NOON.", "nsi_id": "unitedstatespostalservice-a77078", "operator": "United States Postal Service", "operator:short": "USPS", "operator:type": "public", "operator:wikidata": "Q668687", "ref": "0792800024"}, "type": "Feature"}
{"dataset_attributes": {"@spider": "usps_collection_boxes", "spider:collection_time": "2023-08-22T08:24:26.238206"}, "geometry": {"coordinates": [-74.4313079, 40.74708], "type": "Point"}, "id": "dTlOYC-RNp8LZQWTjqigutCVACI=", "properties": {"@spider": "usps_collection_boxes", "addr:city": "CHATHAM", "addr:country": "US", "addr:full": "650 SHUNPIKE RD", "addr:postcode": "07928", "addr:state": "NJ", "amenity": "post_box", "brand": "United States Postal Service", "brand:wikidata": "Q668687", "collection_times": "Mo-Sa 12:00", "name": "USPS COLLECTION BOX - BLUE BOX", "nsi_id": "unitedstatespostalservice-a77078", "operator": "United States Postal Service", "operator:short": "USPS", "operator:type": "public", "operator:wikidata": "Q668687", "ref": "0792800025"}, "type": "Feature"}
{"dataset_attributes": {"@spider": "usps_collection_boxes", "spider:collection_time": "2023-08-22T08:24:26.238206"}, "geometry": {"coordinates": [-74.4317864, 40.745666], "type": "Point"}, "id": "yPvJUbjxw_5S9qschHwWpuQduxo=", "properties": {"@spider": "usps_collection_boxes", "addr:city": "CHATHAM", "addr:country": "US", "addr:full": "641 SHUNPIKE RD", "addr:postcode": "07928", "addr:state": "NJ", "amenity": "post_box", "brand": "United States Postal Service", "brand:wikidata": "Q668687", "collection_times": "Mo-Sa 12:00", "name": "USPS COLLECTION BOX - BLUE BOX", "nsi_id": "unitedstatespostalservice-a77078", "operator": "United States Postal Service", "operator:short": "USPS", "operator:type": "public", "operator:wikidata": "Q668687", "ref": "0792800026"}, "type": "Feature"}
{"dataset_attributes": {"@spider": "usps_collection_boxes", "spider:collection_time": "2023-08-22T08:24:26.238206"}, "geometry": {"coordinates": [-74.3924493, 40.718812], "type": "Point"}, "id": "873YE0WuI0jzPElxy25hIGojFDE=", "properties": {"@spider": "usps_collection_boxes", "addr:city": "CHATHAM", "addr:country": "US", "addr:full": "165 RIVEREDGE DR", "addr:postcode": "07928", "addr:state": "NJ", "amenity": "post_box", "brand": "United States Postal Service", "brand:wikidata": "Q668687", "collection_times": "Mo-Sa 11:00", "name": "USPS COLLECTION BOX - BLUE BOX", "nsi_id": "unitedstatespostalservice-a77078", "operator": "United States Postal Service", "operator:short": "USPS", "operator:type": "public", "operator:wikidata": "Q668687", "ref": "0792800031"}, "type": "Feature"}
{"dataset_attributes": {"@spider": "usps_collection_boxes", "spider:collection_time": "2023-08-22T08:24:26.238206"}, "geometry": {"coordinates": [-74.382576, 40.739626], "type": "Point"}, "id": "lSPXIYTGoflbGlJ8yZ4XuYfH0zg=", "properties": {"@spider": "usps_collection_boxes", "addr:city": "CHATHAM", "addr:country": "US", "addr:full": "19 S PASSAIC AVE", "addr:postcode": "07928", "addr:state": "NJ", "amenity": "post_box", "brand": "United States Postal Service", "brand:wikidata": "Q668687", "collection_times": "Mo-Fr 17:00; Sa 15:00", "name": "USPS COLLECTION BOX - PO LOBBY", "note": "ON 12/24 AND 12/31, THIS BOX MAY BE COLLECTED AS EARLY AS 12 NOON.", "nsi_id": "unitedstatespostalservice-a77078", "operator": "United States Postal Service", "operator:short": "USPS", "operator:type": "public", "operator:wikidata": "Q668687", "ref": "0792800034"}, "type": "Feature"}
{"dataset_attributes": {"@spider": "usps_collection_boxes", "spider:collection_time": "2023-08-22T08:24:26.238206"}, "geometry": {"coordinates": [-74.381139, 40.740293], "type": "Point"}, "id": "XSNcO2lA9C2vGnXzhzUE_mqJQDY=", "properties": {"@spider": "usps_collection_boxes", "addr:city": "CHATHAM", "addr:country": "US", "addr:full": "219 MAIN ST", "addr:postcode": "07928", "addr:state": "NJ", "amenity": "post_box", "brand": "United States Postal Service", "brand:wikidata": "Q668687", "collection_times": "Mo-Fr 17:00; Sa 16:00", "name": "USPS COLLECTION BOX - PO LOBBY", "note": "ON 12/24 AND 12/31, THIS BOX MAY BE COLLECTED AS EARLY AS 12 NOON.", "nsi_id": "unitedstatespostalservice-a77078", "operator": "United States Postal Service", "operator:short": "USPS", "operator:type": "public", "operator:wikidata": "Q668687", "ref": "0792800035"}, "type": "Feature"}
{"dataset_attributes": {"@spider": "usps_collection_boxes", "spider:collection_time": "2023-08-22T08:24:26.238206"}, "geometry": {"coordinates": [-74.381139313, 40.740287199], "type": "Point"}, "id": "SqmDJvVPQ2TzjQfG7wo5aVMVLLE=", "properties": {"@spider": "usps_collection_boxes", "addr:city": "CHATHAM", "addr:country": "US", "addr:full": "219 MAIN ST STE B", "addr:postcode": "07928", "addr:state": "NJ", "amenity": "post_box", "brand": "United States Postal Service", "brand:wikidata": "Q668687", "collection_times": "Mo-Fr 17:00; Sa 16:00", "name": "USPS COLLECTION BOX - PO LOBBY", "note": "ON 12/24 AND 12/31, THIS BOX MAY BE COLLECTED AS EARLY AS 12 NOON.", "nsi_id": "unitedstatespostalservice-a77078", "operator": "United States Postal Service", "operator:short": "USPS", "operator:type": "public", "operator:wikidata": "Q668687", "ref": "0792800042"}, "type": "Feature"}
{"dataset_attributes": {"@spider": "usps_collection_boxes", "spider:collection_time": "2023-08-22T08:24:26.238206"}, "geometry": {"coordinates": [-74.683375, 40.787662], "type": "Point"}, "id": "ms2ruASK5aMQPYKGwJ1gH18u1v0=", "properties": {"@spider": "usps_collection_boxes", "addr:city": "CHESTER", "addr:country": "US", "addr:full": "1 SENTRY LN", "addr:postcode": "07930", "addr:state": "NJ", "amenity": "post_box", "brand": "United States Postal Service", "brand:wikidata": "Q668687", "collection_times": "Mo-Fr 17:00; Sa 15:00", "name": "USPS COLLECTION BOX - BLUE BOX", "note": "ON 12/24 AND 12/31, THIS BOX MAY BE COLLECTED AS EARLY AS 12 NOON.", "nsi_id": "unitedstatespostalservice-a77078", "operator": "United States Postal Service", "operator:short": "USPS", "operator:type": "public", "operator:wikidata": "Q668687", "ref": "0793000001"}, "type": "Feature"}
{"dataset_attributes": {"@spider": "usps_collection_boxes", "spider:collection_time": "2023-08-22T08:24:26.238206"}, "geometry": {"coordinates": [-74.683278, 40.787604], "type": "Point"}, "id": "M6xGjyO2hQozds02e9x-o3V7GoA=", "properties": {"@spider": "usps_collection_boxes", "addr:city": "CHESTER", "addr:country": "US", "addr:full": "1 SENTRY LN", "addr:postcode": "07930", "addr:state": "NJ", "amenity": "post_box", "brand": "United States Postal Service", "brand:wikidata": "Q668687", "collection_times": "Mo-Fr 17:00; Sa 15:00", "name": "USPS COLLECTION BOX - BLUE BOX", "note": "ON 12/24 AND 12/31, THIS BOX MAY BE COLLECTED AS EARLY AS 12 NOON.", "nsi_id": "unitedstatespostalservice-a77078", "operator": "United States Postal Service", "operator:short": "USPS", "operator:type": "public", "operator:wikidata": "Q668687", "ref": "0793000002"}, "type": "Feature"}
{"dataset_attributes": {"@spider": "usps_collection_boxes", "spider:collection_time": "2023-08-22T08:24:26.238206"}, "geometry": {"coordinates": [-74.6947563, 40.780212], "type": "Point"}, "id": "H18UOzKkI5vM_8GQyeexFJygmt8=", "properties": {"@spider": "usps_collection_boxes", "addr:city": "CHESTER", "addr:country": "US", "addr:full": "195 US HIGHWAY 206 S", "addr:postcode": "07930", "addr:state": "NJ", "amenity": "post_box", "brand": "United States Postal Service", "brand:wikidata": "Q668687", "collection_times": "Mo-Sa 10:00", "name": "USPS COLLECTION BOX - BLUE BOX", "nsi_id": "unitedstatespostalservice-a77078", "operator": "United States Postal Service", "operator:short": "USPS", "operator:type": "public", "operator:wikidata": "Q668687", "ref": "0793000003"}, "type": "Feature"}
{"dataset_attributes": {"@spider": "usps_collection_boxes", "spider:collection_time": "2023-08-22T08:24:26.238206"}, "geometry": {"coordinates": [-74.700197, 40.782325], "type": "Point"}, "id": "rNGIKPKzbMjZY8Nnz3V1m1ubfBY=", "properties": {"@spider": "usps_collection_boxes", "addr:city": "CHESTER", "addr:country": "US", "addr:full": "71 W MAIN ST", "addr:postcode": "07930", "addr:state": "NJ", "amenity": "post_box", "brand": "United States Postal Service", "brand:wikidata": "Q668687", "collection_times": "Mo-Sa 10:00", "name": "USPS COLLECTION BOX - BLUE BOX", "nsi_id": "unitedstatespostalservice-a77078", "operator": "United States Postal Service", "operator:short": "USPS", "operator:type": "public", "operator:wikidata": "Q668687", "ref": "0793000004"}, "type": "Feature"}
{"dataset_attributes": {"@spider": "usps_collection_boxes", "spider:collection_time": "2023-08-22T08:24:26.238206"}, "geometry": {"coordinates": [-74.6676836, 40.780741], "type": "Point"}, "id": "zk-xKtxFFxiaJUy11Vodobd6TZU=", "properties": {"@spider": "usps_collection_boxes", "addr:city": "CHESTER", "addr:country": "US", "addr:full": "385 ROUTE 24", "addr:postcode": "07930", "addr:state": "NJ", "amenity": "post_box", "brand": "United States Postal Service", "brand:wikidata": "Q668687", "collection_times": "Mo-Sa 10:00", "name": "USPS COLLECTION BOX - BLUE BOX", "nsi_id": "unitedstatespostalservice-a77078", "operator": "United States Postal Service", "operator:short": "USPS", "operator:type": "public", "operator:wikidata": "Q668687", "ref": "0793000005"}, "type": "Feature"}
{"dataset_attributes": {"@spider": "usps_collection_boxes", "spider:collection_time": "2023-08-22T08:24:26.238206"}, "geometry": {"coordinates": [-74.683278, 40.787604], "type": "Point"}, "id": "eJYl3-fVKcK3W8AYWBxpzQY32BM=", "properties": {"@spider": "usps_collection_boxes", "addr:city": "CHESTER", "addr:country": "US", "addr:full": "1 SENTRY LN", "addr:postcode": "07930", "addr:state": "NJ", "amenity": "post_box", "brand": "United States Postal Service", "brand:wikidata": "Q668687", "collection_times": "Mo-Fr 17:00; Sa 15:00", "name": "USPS COLLECTION BOX - PO LOBBY", "note": "ON 12/24 AND 12/31, THIS BOX MAY BE COLLECTED AS EARLY AS 12 NOON.", "nsi_id": "unitedstatespostalservice-a77078", "operator": "United States Postal Service", "operator:short": "USPS", "operator:type": "public", "operator:wikidata": "Q668687", "ref": "0793000006"}, "type": "Feature"}
{"dataset_attributes": {"@spider": "usps_collection_boxes", "spider:collection_time": "2023-08-22T08:24:26.238206"}, "geometry": {"coordinates": [-74.6833727218, 40.7875989227], "type": "Point"}, "id": "VGqhMd99J6X4RNJEGDE226nMgYw=", "properties": {"@spider": "usps_collection_boxes", "addr:city": "CHESTER", "addr:country": "US", "addr:full": "1 SENTRY LN", "addr:postcode": "07930", "addr:state": "NJ", "amenity": "post_box", "brand": "United States Postal Service", "brand:wikidata": "Q668687", "collection_times": "Mo-Fr 16:30; Sa 13:00", "name": "USPS COLLECTION BOX - PO LOBBY", "note": "ON 12/24 AND 12/31, THIS BOX MAY BE COLLECTED AS EARLY AS 12 NOON.", "nsi_id": "unitedstatespostalservice-a77078", "operator": "United States Postal Service", "operator:short": "USPS", "operator:type": "public", "operator:wikidata": "Q668687", "ref": "0793000010"}, "type": "Feature"}
{"dataset_attributes": {"@spider": "usps_collection_boxes", "spider:collection_time": "2023-08-22T08:24:26.238206"}, "geometry": {"coordinates": [-74.635213, 40.68383], "type": "Point"}, "id": "CkbQ_UbnVU6PDwqV7aYDYilmex0=", "properties": {"@spider": "usps_collection_boxes", "addr:city": "FAR HILLS", "addr:country": "US", "addr:full": "35 US HIGHWAY 202", "addr:postcode": "07931", "addr:state": "NJ", "amenity": "post_box", "brand": "United States Postal Service", "brand:wikidata": "Q668687", "collection_times": "Mo-Fr 16:30; Sa 13:30", "name": "USPS COLLECTION BOX - BLUE BOX", "note": "ON 12/24 AND 12/31, THIS BOX MAY BE COLLECTED AS EARLY AS 12 NOON.", "nsi_id": "unitedstatespostalservice-a77078", "operator": "United States Postal Service", "operator:short": "USPS", "operator:type": "public", "operator:wikidata": "Q668687", "ref": "0793100001"}, "type": "Feature"}
{"dataset_attributes": {"@spider": "usps_collection_boxes", "spider:collection_time": "2023-08-22T08:24:26.238206"}, "geometry": {"coordinates": [-74.635144, 40.683836], "type": "Point"}, "id": "qmbURlAlxzo8YTOuRiiSTE7_PQA=", "properties": {"@spider": "usps_collection_boxes", "addr:city": "FAR HILLS", "addr:country": "US", "addr:full": "35 US HIGHWAY 202", "addr:postcode": "07931", "addr:state": "NJ", "amenity": "post_box", "brand": "United States Postal Service", "brand:wikidata": "Q668687", "collection_times": "Mo-Fr 16:30; Sa 12:00", "name": "USPS COLLECTION BOX - PO LOBBY", "note": "ON 12/24 AND 12/31, THIS BOX MAY BE COLLECTED AS EARLY AS 12 NOON.", "nsi_id": "unitedstatespostalservice-a77078", "operator": "United States Postal Service", "operator:short": "USPS", "operator:type": "public", "operator:wikidata": "Q668687", "ref": "0793100004"}, "type": "Feature"}
{"dataset_attributes": {"@spider": "usps_collection_boxes", "spider:collection_time": "2023-08-22T08:24:26.238206"}, "geometry": {"coordinates": [-74.6354542296, 40.6836836276], "type": "Point"}, "id": "LWpGTO6qlMHvoRhN7wDu7tHz35A=", "properties": {"@spider": "usps_collection_boxes", "addr:city": "FAR HILLS", "addr:country": "US", "addr:full": "35 US HIGHWAY 202", "addr:postcode": "07931", "addr:state": "NJ", "amenity": "post_box", "brand": "United States Postal Service", "brand:wikidata": "Q668687", "collection_times": "Mo-Fr 16:30; Sa 12:00", "name": "USPS COLLECTION BOX - PO LOBBY", "note": "ON 12/24 AND 12/31, THIS BOX MAY BE COLLECTED AS EARLY AS 12 NOON.", "nsi_id": "unitedstatespostalservice-a77078", "operator": "United States Postal Service", "operator:short": "USPS", "operator:type": "public", "operator:wikidata": "Q668687", "ref": "0793100006"}, "type": "Feature"}
{"dataset_attributes": {"@spider": "usps_collection_boxes", "spider:collection_time": "2023-08-22T08:24:26.238206"}, "geometry": {"coordinates": [-74.3923822, 40.787696], "type": "Point"}, "id": "PjqVcmnvxUdb1FtuNLnUAwue2so=", "properties": {"@spider": "usps_collection_boxes", "addr:city": "FLORHAM PARK", "addr:country": "US", "addr:full": "187 COLUMBIA TPKE", "addr:postcode": "07932", "addr:state": "NJ", "amenity": "post_box", "brand": "United States Postal Service", "brand:wikidata": "Q668687", "collection_times": "Mo-Fr 17:00; Sa 15:00", "name": "USPS COLLECTION BOX - BLUE BOX", "note": "ON 12/24 AND 12/31, THIS BOX MAY BE COLLECTED AS EARLY AS 12 NOON.", "nsi_id": "unitedstatespostalservice-a77078", "operator": "United States Postal Service", "operator:short": "USPS", "operator:type": "public", "operator:wikidata": "Q668687", "ref": "0793200002"}, "type": "Feature"}
{"dataset_attributes": {"@spider": "usps_collection_boxes", "spider:collection_time": "2023-08-22T08:24:26.238206"}, "geometry": {"coordinates": [-74.3975261, 40.775721], "type": "Point"}, "id": "khk_FTZSTgWubOdlIBMpfD2DWf0=", "properties": {"@spider": "usps_collection_boxes", "addr:city": "FLORHAM PARK", "addr:country": "US", "addr:full": "27 ROOSEVELT BLVD", "addr:postcode": "07932", "addr:state": "NJ", "amenity": "post_box", "brand": "United States Postal Service", "brand:wikidata": "Q668687", "collection_times": "Mo-Sa 14:30", "name": "USPS COLLECTION BOX - BLUE BOX", "note": "ON 12/24 AND 12/31, THIS BOX MAY BE COLLECTED AS EARLY AS 12 NOON.", "nsi_id": "unitedstatespostalservice-a77078", "operator": "United States Postal Service", "operator:short": "USPS", "operator:type": "public", "operator:wikidata": "Q668687", "ref": "0793200005"}, "type": "Feature"}
{"dataset_attributes": {"@spider": "usps_collection_boxes", "spider:collection_time": "2023-08-22T08:24:26.238206"}, "geometry": {"coordinates": [-74.384433, 40.789312], "type": "Point"}, "id": "usphF-JXDCqWYCmr3W0wlR_gamA=", "properties": {"@spider": "usps_collection_boxes", "addr:city": "FLORHAM PARK", "addr:country": "US", "addr:full": "25 HANOVER RD", "addr:postcode": "07932", "addr:state": "NJ", "amenity": "post_box", "brand": "United States Postal Service", "brand:wikidata": "Q668687", "collection_times": "Mo-Sa 12:00", "name": "USPS COLLECTION BOX - BLUE BOX", "nsi_id": "unitedstatespostalservice-a77078", "operator": "United States Postal Service", "operator:short": "USPS", "operator:type": "public", "operator:wikidata": "Q668687", "ref": "0793200012"}, "type": "Feature"}
{"dataset_attributes": {"@spider": "usps_collection_boxes", "spider:collection_time": "2023-08-22T08:24:26.238206"}, "geometry": {"coordinates": [-74.392698, 40.78817], "type": "Point"}, "id": "yP8braHAkhfMmPB0Wbgh2dahS6Y=", "properties": {"@spider": "usps_collection_boxes", "addr:city": "FLORHAM PARK", "addr:country": "US", "addr:full": "187 COLUMBIA TPKE", "addr:postcode": "07932", "addr:state": "NJ", "amenity": "post_box", "brand": "United States Postal Service", "brand:wikidata": "Q668687", "collection_times": "Mo-Fr 17:00; Sa 15:00", "name": "USPS COLLECTION BOX - BLUE BOX", "note": "ON 12/24 AND 12/31, THIS BOX MAY BE COLLECTED AS EARLY AS 12 NOON.", "nsi_id": "unitedstatespostalservice-a77078", "operator": "United States Postal Service", "operator:short": "USPS", "operator:type": "public", "operator:wikidata": "Q668687", "ref": "0793200013"}, "type": "Feature"}
{"dataset_attributes": {"@spider": "usps_collection_boxes", "spider:collection_time": "2023-08-22T08:24:26.238206"}, "geometry": {"coordinates": [-74.4000895, 40.78971], "type": "Point"}, "id": "9Axvwg0DkwKn-4Rpv1XwR0fPN4U=", "properties": {"@spider": "usps_collection_boxes", "addr:city": "FLORHAM PARK", "addr:country": "US", "addr:full": "256 COLUMBIA TPKE", "addr:postcode": "07932", "addr:state": "NJ", "amenity": "post_box", "brand": "United States Postal Service", "brand:wikidata": "Q668687", "collection_times": "Mo-Sa 11:00", "name": "USPS COLLECTION BOX - BLUE BOX", "nsi_id": "unitedstatespostalservice-a77078", "operator": "United States Postal Service", "operator:short": "USPS", "operator:type": "public", "operator:wikidata": "Q668687", "ref": "0793200015"}, "type": "Feature"}
{"dataset_attributes": {"@spider": "usps_collection_boxes", "spider:collection_time": "2023-08-22T08:24:26.238206"}, "geometry": {"coordinates": [-74.369119, 40.786622], "type": "Point"}, "id": "KngqiNczYPW306brIL5jHNU1Mtw=", "properties": {"@spider": "usps_collection_boxes", "addr:city": "FLORHAM PARK", "addr:country": "US", "addr:full": "23 VREELAND RD", "addr:postcode": "07932", "addr:state": "NJ", "amenity": "post_box", "brand": "United States Postal Service", "brand:wikidata": "Q668687", "collection_times": "Mo-Sa 12:00", "name": "USPS COLLECTION BOX - BLUE BOX", "nsi_id": "unitedstatespostalservice-a77078", "operator": "United States Postal Service", "operator:short": "USPS", "operator:type": "public", "operator:wikidata": "Q668687", "ref": "0793200016"}, "type": "Feature"}
{"dataset_attributes": {"@spider": "usps_collection_boxes", "spider:collection_time": "2023-08-22T08:24:26.238206"}, "geometry": {"coordinates": [-74.4105624, 40.789532], "type": "Point"}, "id": "U4CNJlL-1hqNzQKr6HCgR6QbZ9Q=", "properties": {"@spider": "usps_collection_boxes", "addr:city": "FLORHAM PARK", "addr:country": "US", "addr:full": "325 COLUMBIA TPKE", "addr:postcode": "07932", "addr:state": "NJ", "amenity": "post_box", "brand": "United States Postal Service", "brand:wikidata": "Q668687", "collection_times": "Mo-Sa 11:00", "name": "USPS COLLECTION BOX - BLUE BOX", "nsi_id": "unitedstatespostalservice-a77078", "operator": "United States Postal Service", "operator:short": "USPS", "operator:type": "public", "operator:wikidata": "Q668687", "ref": "0793200017"}, "type": "Feature"}
{"dataset_attributes": {"@spider": "usps_collection_boxes", "spider:collection_time": "2023-08-22T08:24:26.238206"}, "geometry": {"coordinates": [-74.3689129, 40.785236], "type": "Point"}, "id": "N1xttbyCvnq8yQ2YmtcJfx2lHN4=", "properties": {"@spider": "usps_collection_boxes", "addr:city": "FLORHAM PARK", "addr:country": "US", "addr:full": "25 VREELAND RD", "addr:postcode": "07932", "addr:state": "NJ", "amenity": "post_box", "brand": "United States Postal Service", "brand:wikidata": "Q668687", "collection_times": "Mo-Sa 12:00", "name": "USPS COLLECTION BOX - BLUE BOX", "nsi_id": "unitedstatespostalservice-a77078", "operator": "United States Postal Service", "operator:short": "USPS", "operator:type": "public", "operator:wikidata": "Q668687", "ref": "0793200019"}, "type": "Feature"}
{"dataset_attributes": {"@spider": "usps_collection_boxes", "spider:collection_time": "2023-08-22T08:24:26.238206"}, "geometry": {"coordinates": [-74.3927042, 40.788176], "type": "Point"}, "id": "bpCOqM7-ei-C9pMIji3hkkTUmug=", "properties": {"@spider": "usps_collection_boxes", "addr:city": "FLORHAM PARK", "addr:country": "US", "addr:full": "187 COLUMBIA TPKE", "addr:postcode": "07932", "addr:state": "NJ", "amenity": "post_box", "brand": "United States Postal Service", "brand:wikidata": "Q668687", "collection_times": "Mo-Fr 17:00; Sa 15:00", "name": "USPS COLLECTION BOX - BLUE BOX", "note": "ON 12/24 AND 12/31, THIS BOX MAY BE COLLECTED AS EARLY AS 12 NOON.", "nsi_id": "unitedstatespostalservice-a77078", "operator": "United States Postal Service", "operator:short": "USPS", "operator:type": "public", "operator:wikidata": "Q668687", "ref": "0793200020"}, "type": "Feature"}
{"dataset_attributes": {"@spider": "usps_collection_boxes", "spider:collection_time": "2023-08-22T08:24:26.238206"}, "geometry": {"coordinates": [-74.3705566, 40.784698], "type": "Point"}, "id": "SeQKbSf36yNDPz9ANspyoAK9Vlw=", "properties": {"@spider": "usps_collection_boxes", "addr:city": "FLORHAM PARK", "addr:country": "US", "addr:full": "30 VREELAND RD", "addr:postcode": "07932", "addr:state": "NJ", "amenity": "post_box", "brand": "United States Postal Service", "brand:wikidata": "Q668687", "collection_times": "Mo-Sa 12:00", "name": "USPS COLLECTION BOX - BLUE BOX", "nsi_id": "unitedstatespostalservice-a77078", "operator": "United States Postal Service", "operator:short": "USPS", "operator:type": "public", "operator:wikidata": "Q668687", "ref": "0793200021"}, "type": "Feature"}
{"dataset_attributes": {"@spider": "usps_collection_boxes", "spider:collection_time": "2023-08-22T08:24:26.238206"}, "geometry": {"coordinates": [-74.3890689846, 40.7876089917], "type": "Point"}, "id": "41uBS1pNJVyOucgvlxaIqqRa5m8=", "properties": {"@spider": "usps_collection_boxes", "addr:city": "FLORHAM PARK", "addr:country": "US", "addr:full": "151 COLUMBIA TPKE", "addr:postcode": "07932", "addr:state": "NJ", "amenity": "post_box", "brand": "United States Postal Service", "brand:wikidata": "Q668687", "collection_times": "Mo-Sa 11:00", "name": "USPS COLLECTION BOX - BLUE BOX", "nsi_id": "unitedstatespostalservice-a77078", "operator": "United States Postal Service", "operator:short": "USPS", "operator:type": "public", "operator:wikidata": "Q668687", "ref": "0793200022"}, "type": "Feature"}
{"dataset_attributes": {"@spider": "usps_collection_boxes", "spider:collection_time": "2023-08-22T08:24:26.238206"}, "geometry": {"coordinates": [-74.3924533, 40.787693], "type": "Point"}, "id": "Dn5UMHgv3uYaL4AbW-iZKVYkDQQ=", "properties": {"@spider": "usps_collection_boxes", "addr:city": "FLORHAM PARK", "addr:country": "US", "addr:full": "187 COLUMBIA TPKE", "addr:postcode": "07932", "addr:state": "NJ", "amenity": "post_box", "brand": "United States Postal Service", "brand:wikidata": "Q668687", "collection_times": "Mo-Fr 16:30; Sa 13:00", "name": "USPS COLLECTION BOX - PO LOBBY", "note": "ON 12/24 AND 12/31, THIS BOX MAY BE COLLECTED AS EARLY AS 12 NOON.", "nsi_id": "unitedstatespostalservice-a77078", "operator": "United States Postal Service", "operator:short": "USPS", "operator:type": "public", "operator:wikidata": "Q668687", "ref": "0793200023"}, "type": "Feature"}
{"dataset_attributes": {"@spider": "usps_collection_boxes", "spider:collection_time": "2023-08-22T08:24:26.238206"}, "geometry": {"coordinates": [-74.392895524, 40.78849464], "type": "Point"}, "id": "3a8MRNJkY3A5-p4DHXh6FTNWYnM=", "properties": {"@spider": "usps_collection_boxes", "addr:city": "FLORHAM PARK", "addr:country": "US", "addr:full": "187 COLUMBIA TPKE STE 15", "addr:postcode": "07932", "addr:state": "NJ", "amenity": "post_box", "brand": "United States Postal Service", "brand:wikidata": "Q668687", "collection_times": "Mo-Fr 16:30; Sa 13:00", "name": "USPS COLLECTION BOX - PO LOBBY", "note": "ON 12/24 AND 12/31, THIS BOX MAY BE COLLECTED AS EARLY AS 12 NOON.", "nsi_id": "unitedstatespostalservice-a77078", "operator": "United States Postal Service", "operator:short": "USPS", "operator:type": "public", "operator:wikidata": "Q668687", "ref": "0793200028"}, "type": "Feature"}
{"dataset_attributes": {"@spider": "usps_collection_boxes", "spider:collection_time": "2023-08-22T08:24:26.238206"}, "geometry": {"coordinates": [-74.39985004, 40.782228019], "type": "Point"}, "id": "OCZbjQGCkanKbMywl2GbQY1Tp2E=", "properties": {"@spider": "usps_collection_boxes", "addr:city": "FLORHAM PARK", "addr:country": "US", "addr:full": "111 RIDGEDALE AVE", "addr:postcode": "07932", "addr:state": "NJ", "amenity": "post_box", "brand": "United States Postal Service", "brand:wikidata": "Q668687", "collection_times": "Mo-Sa 11:00", "name": "USPS COLLECTION BOX - BLUE BOX", "nsi_id": "unitedstatespostalservice-a77078", "operator": "United States Postal Service", "operator:short": "USPS", "operator:type": "public", "operator:wikidata": "Q668687", "ref": "0793200030"}, "type": "Feature"}
{"dataset_attributes": {"@spider": "usps_collection_boxes", "spider:collection_time": "2023-08-22T08:24:26.238206"}, "geometry": {"coordinates": [-74.464257291, 40.674883561], "type": "Point"}, "id": "2FhqymCWHTAfW0QgzZMtNVNzAUg=", "properties": {"@spider": "usps_collection_boxes", "addr:city": "GILLETTE", "addr:country": "US", "addr:full": "594 VALLEY RD", "addr:postcode": "07933", "addr:state": "NJ", "amenity": "post_box", "brand": "United States Postal Service", "brand:wikidata": "Q668687", "collection_times": "Mo-Fr 17:00; Sa 15:00", "name": "USPS COLLECTION BOX - BLUE BOX", "note": "ON 12/24 AND 12/31, THIS BOX MAY BE COLLECTED AS EARLY AS 12 NOON.", "nsi_id": "unitedstatespostalservice-a77078", "operator": "United States Postal Service", "operator:short": "USPS", "operator:type": "public", "operator:wikidata": "Q668687", "ref": "0793300001"}, "type": "Feature"}
{"dataset_attributes": {"@spider": "usps_collection_boxes", "spider:collection_time": "2023-08-22T08:24:26.238206"}, "geometry": {"coordinates": [-74.4791117, 40.668393], "type": "Point"}, "id": "oSQiwIANmC--Hk_9M02iGUVw5SI=", "properties": {"@spider": "usps_collection_boxes", "addr:city": "GILLETTE", "addr:country": "US", "addr:full": "977 VALLEY RD", "addr:postcode": "07933", "addr:state": "NJ", "amenity": "post_box", "brand": "United States Postal Service", "brand:wikidata": "Q668687", "collection_times": "Mo-Sa 11:00", "name": "USPS COLLECTION BOX - BLUE BOX", "nsi_id": "unitedstatespostalservice-a77078", "operator": "United States Postal Service", "operator:short": "USPS", "operator:type": "public", "operator:wikidata": "Q668687", "ref": "0793300003"}, "type": "Feature"}
{"dataset_attributes": {"@spider": "usps_collection_boxes", "spider:collection_time": "2023-08-22T08:24:26.238206"}, "geometry": {"coordinates": [-74.464257291, 40.674883561], "type": "Point"}, "id": "MXCJyvZNJmXNBzCrQCY3BDJ8zYw=", "properties": {"@spider": "usps_collection_boxes", "addr:city": "GILLETTE", "addr:country": "US", "addr:full": "594 VALLEY RD", "addr:postcode": "07933", "addr:state": "NJ", "amenity": "post_box", "brand": "United States Postal Service", "brand:wikidata": "Q668687", "collection_times": "Mo-Fr 16:00; Sa 12:00", "name": "USPS COLLECTION BOX - PO LOBBY", "note": "ON 12/24 AND 12/31, THIS BOX MAY BE COLLECTED AS EARLY AS 12 NOON.", "nsi_id": "unitedstatespostalservice-a77078", "operator": "United States Postal Service", "operator:short": "USPS", "operator:type": "public", "operator:wikidata": "Q668687", "ref": "0793300004"}, "type": "Feature"}
{"dataset_attributes": {"@spider": "usps_collection_boxes", "spider:collection_time": "2023-08-22T08:24:26.238206"}, "geometry": {"coordinates": [-74.464257291, 40.674883561], "type": "Point"}, "id": "XHYJy4zTk9sVNBaAmmr8w3x0QXk=", "properties": {"@spider": "usps_collection_boxes", "addr:city": "GILLETTE", "addr:country": "US", "addr:full": "594 VALLEY RD", "addr:postcode": "07933", "addr:state": "NJ", "amenity": "post_box", "brand": "United States Postal Service", "brand:wikidata": "Q668687", "collection_times": "Mo-Fr 16:30; Sa 12:00", "name": "USPS COLLECTION BOX - PO LOBBY", "note": "ON 12/24 AND 12/31, THIS BOX MAY BE COLLECTED AS EARLY AS 12 NOON.", "nsi_id": "unitedstatespostalservice-a77078", "operator": "United States Postal Service", "operator:short": "USPS", "operator:type": "public", "operator:wikidata": "Q668687", "ref": "0793300006"}, "type": "Feature"}
{"dataset_attributes": {"@spider": "usps_collection_boxes", "spider:collection_time": "2023-08-22T08:24:26.238206"}, "geometry": {"coordinates": [-74.667433, 40.721916], "type": "Point"}, "id": "L5QZxBB9Y9u7PpFDtuyqyg6JgSw=", "properties": {"@spider": "usps_collection_boxes", "addr:city": "GLADSTONE", "addr:country": "US", "addr:full": "266 MAIN ST", "addr:postcode": "07934", "addr:state": "NJ", "amenity": "post_box", "brand": "United States Postal Service", "brand:wikidata": "Q668687", "collection_times": "Mo-Fr 14:00; Sa 12:00", "name": "USPS COLLECTION BOX - PO LOBBY", "note": "ON 12/24 AND 12/31, THIS BOX MAY BE COLLECTED AS EARLY AS 12 NOON.", "nsi_id": "unitedstatespostalservice-a77078", "operator": "United States Postal Service", "operator:short": "USPS", "operator:type": "public", "operator:wikidata": "Q668687", "ref": "0793400002"}, "type": "Feature"}
{"dataset_attributes": {"@spider": "usps_collection_boxes", "spider:collection_time": "2023-08-22T08:24:26.238206"}, "geometry": {"coordinates": [-74.66744268, 40.721919684], "type": "Point"}, "id": "mXWZGltiLC9dEpOgg9K-N30K2SI=", "properties": {"@spider": "usps_collection_boxes", "addr:city": "GLADSTONE", "addr:country": "US", "addr:full": "266 MAIN ST STE A", "addr:postcode": "07934", "addr:state": "NJ", "amenity": "post_box", "brand": "United States Postal Service", "brand:wikidata": "Q668687", "collection_times": "Mo-Fr 16:30; Sa 12:00", "name": "USPS COLLECTION BOX - PO LOBBY", "note": "ON 12/24 AND 12/31, THIS BOX MAY BE COLLECTED AS EARLY AS 12 NOON.", "nsi_id": "unitedstatespostalservice-a77078", "operator": "United States Postal Service", "operator:short": "USPS", "operator:type": "public", "operator:wikidata": "Q668687", "ref": "0793400003"}, "type": "Feature"}
{"dataset_attributes": {"@spider": "usps_collection_boxes", "spider:collection_time": "2023-08-22T08:24:26.238206"}, "geometry": {"coordinates": [-74.43972136, 40.740982091], "type": "Point"}, "id": "4gSVl0UwHZUV15ff6RWHucDcwEE=", "properties": {"@spider": "usps_collection_boxes", "addr:city": "GREEN VILLAGE", "addr:country": "US", "addr:full": "372 GREEN VILLAGE RD", "addr:postcode": "07935", "addr:state": "NJ", "amenity": "post_box", "brand": "United States Postal Service", "brand:wikidata": "Q668687", "collection_times": "Mo-Fr 16:00; Sa 11:30", "name": "USPS COLLECTION BOX - BLUE BOX", "note": "ON 12/24 AND 12/31, THIS BOX MAY BE COLLECTED AS EARLY AS 12 NOON.", "nsi_id": "unitedstatespostalservice-a77078", "operator": "United States Postal Service", "operator:short": "USPS", "operator:type": "public", "operator:wikidata": "Q668687", "ref": "0793500001"}, "type": "Feature"}
{"dataset_attributes": {"@spider": "usps_collection_boxes", "spider:collection_time": "2023-08-22T08:24:26.238206"}, "geometry": {"coordinates": [-74.43972136, 40.740982091], "type": "Point"}, "id": "EUzRbZ9Uy5fMmOmiUSObMNHbrdM=", "properties": {"@spider": "usps_collection_boxes", "addr:city": "GREEN VILLAGE", "addr:country": "US", "addr:full": "372 GREEN VILLAGE RD", "addr:postcode": "07935", "addr:state": "NJ", "amenity": "post_box", "brand": "United States Postal Service", "brand:wikidata": "Q668687", "collection_times": "Mo-Fr 16:30; Sa 12:00", "name": "USPS COLLECTION BOX - PO LOBBY", "note": "ON 12/24 AND 12/31, THIS BOX MAY BE COLLECTED AS EARLY AS 12 NOON.", "nsi_id": "unitedstatespostalservice-a77078", "operator": "United States Postal Service", "operator:short": "USPS", "operator:type": "public", "operator:wikidata": "Q668687", "ref": "0793500002"}, "type": "Feature"}
{"dataset_attributes": {"@spider": "usps_collection_boxes", "spider:collection_time": "2023-08-22T08:24:26.238206"}, "geometry": {"coordinates": [-74.43972136, 40.740982091], "type": "Point"}, "id": "qzFEsdv3fdXfCiiiIMayzi_d41w=", "properties": {"@spider": "usps_collection_boxes", "addr:city": "GREEN VILLAGE", "addr:country": "US", "addr:full": "372 GREEN VILLAGE RD", "addr:postcode": "07935", "addr:state": "NJ", "amenity": "post_box", "brand": "United States Postal Service", "brand:wikidata": "Q668687", "collection_times": "Mo-Fr 16:30; Sa 11:30", "name": "USPS COLLECTION BOX - PO LOBBY", "note": "ON 12/24 AND 12/31, THIS BOX MAY BE COLLECTED AS EARLY AS 12 NOON.", "nsi_id": "unitedstatespostalservice-a77078", "operator": "United States Postal Service", "operator:short": "USPS", "operator:type": "public", "operator:wikidata": "Q668687", "ref": "0793500003"}, "type": "Feature"}
{"dataset_attributes": {"@spider": "usps_collection_boxes", "spider:collection_time": "2023-08-22T08:24:26.238206"}, "geometry": {"coordinates": [-74.367059498, 40.820849657], "type": "Point"}, "id": "y7S2pR8uaalHgIi6oPLWt-Injsk=", "properties": {"@spider": "usps_collection_boxes", "addr:city": "EAST HANOVER", "addr:country": "US", "addr:full": "315 RIDGEDALE AVE", "addr:postcode": "07936", "addr:state": "NJ", "amenity": "post_box", "brand": "United States Postal Service", "brand:wikidata": "Q668687", "collection_times": "Mo-Fr 17:00; Sa 15:00", "name": "USPS COLLECTION BOX - BLUE BOX", "note": "ON 12/24 AND 12/31, THIS BOX MAY BE COLLECTED AS EARLY AS 12 NOON.", "nsi_id": "unitedstatespostalservice-a77078", "operator": "United States Postal Service", "operator:short": "USPS", "operator:type": "public", "operator:wikidata": "Q668687", "ref": "0793600001"}, "type": "Feature"}
{"dataset_attributes": {"@spider": "usps_collection_boxes", "spider:collection_time": "2023-08-22T08:24:26.238206"}, "geometry": {"coordinates": [-74.367059498, 40.820849657], "type": "Point"}, "id": "fdxIgSnWs5mu_UBO4FDWfHm_IXM=", "properties": {"@spider": "usps_collection_boxes", "addr:city": "EAST HANOVER", "addr:country": "US", "addr:full": "315 RIDGEDALE AVE", "addr:postcode": "07936", "addr:state": "NJ", "amenity": "post_box", "brand": "United States Postal Service", "brand:wikidata": "Q668687", "collection_times": "Mo-Fr 17:00; Sa 15:00", "name": "USPS COLLECTION BOX - BLUE BOX", "note": "ON 12/24 AND 12/31, THIS BOX MAY BE COLLECTED AS EARLY AS 12 NOON.", "nsi_id": "unitedstatespostalservice-a77078", "operator": "United States Postal Service", "operator:short": "USPS", "operator:type": "public", "operator:wikidata": "Q668687", "ref": "0793600002"}, "type": "Feature"}
{"dataset_attributes": {"@spider": "usps_collection_boxes", "spider:collection_time": "2023-08-22T08:24:26.238206"}, "geometry": {"coordinates": [-74.3651231, 40.817774], "type": "Point"}, "id": "pQyHj-CcfHgSueT-qh5PN9maOD8=", "properties": {"@spider": "usps_collection_boxes", "addr:city": "EAST HANOVER", "addr:country": "US", "addr:full": "44 DEFOREST AVE", "addr:postcode": "07936", "addr:state": "NJ", "amenity": "post_box", "brand": "United States Postal Service", "brand:wikidata": "Q668687", "collection_times": "Mo-Sa 09:00", "name": "USPS COLLECTION BOX - BLUE BOX", "nsi_id": "unitedstatespostalservice-a77078", "operator": "United States Postal Service", "operator:short": "USPS", "operator:type": "public", "operator:wikidata": "Q668687", "ref": "0793600004"}, "type": "Feature"}
{"dataset_attributes": {"@spider": "usps_collection_boxes", "spider:collection_time": "2023-08-22T08:24:26.238206"}, "geometry": {"coordinates": [-74.3540454, 40.815248], "type": "Point"}, "id": "lMhc2MBMf8wpogedW28VduYI5hM=", "properties": {"@spider": "usps_collection_boxes", "addr:city": "EAST HANOVER", "addr:country": "US", "addr:full": "56 FAIRWAY DR", "addr:postcode": "07936", "addr:state": "NJ", "amenity": "post_box", "brand": "United States Postal Service", "brand:wikidata": "Q668687", "collection_times": "Mo-Sa 14:30", "name": "USPS COLLECTION BOX - BLUE BOX", "note": "ON 12/24 AND 12/31, THIS BOX MAY BE COLLECTED AS EARLY AS 12 NOON.", "nsi_id": "unitedstatespostalservice-a77078", "operator": "United States Postal Service", "operator:short": "USPS", "operator:type": "public", "operator:wikidata": "Q668687", "ref": "0793600005"}, "type": "Feature"}
{"dataset_attributes": {"@spider": "usps_collection_boxes", "spider:collection_time": "2023-08-22T08:24:26.238206"}, "geometry": {"coordinates": [-74.369282, 40.803914], "type": "Point"}, "id": "G2alNRl7RwWywdVHCYxokPf8YVM=", "properties": {"@spider": "usps_collection_boxes", "addr:city": "EAST HANOVER", "addr:country": "US", "addr:full": "96 MOUNT PLEASANT AVE", "addr:postcode": "07936", "addr:state": "NJ", "amenity": "post_box", "brand": "United States Postal Service", "brand:wikidata": "Q668687", "collection_times": "Mo-Sa 09:00", "name": "USPS COLLECTION BOX - BLUE BOX", "nsi_id": "unitedstatespostalservice-a77078", "operator": "United States Postal Service", "operator:short": "USPS", "operator:type": "public", "operator:wikidata": "Q668687", "ref": "0793600006"}, "type": "Feature"}
{"dataset_attributes": {"@spider": "usps_collection_boxes", "spider:collection_time": "2023-08-22T08:24:26.238206"}, "geometry": {"coordinates": [-74.3775624, 40.809424], "type": "Point"}, "id": "yPDVSqARKOSGBqKkvvfPwN4Xgm8=", "properties": {"@spider": "usps_collection_boxes", "addr:city": "EAST HANOVER", "addr:country": "US", "addr:full": "188 STATE ROUTE 10", "addr:postcode": "07936", "addr:state": "NJ", "amenity": "post_box", "brand": "United States Postal Service", "brand:wikidata": "Q668687", "collection_times": "Mo-Sa 12:00", "name": "USPS COLLECTION BOX - BLUE BOX", "nsi_id": "unitedstatespostalservice-a77078", "operator": "United States Postal Service", "operator:short": "USPS", "operator:type": "public", "operator:wikidata": "Q668687", "ref": "0793600010"}, "type": "Feature"}
{"dataset_attributes": {"@spider": "usps_collection_boxes", "spider:collection_time": "2023-08-22T08:24:26.238206"}, "geometry": {"coordinates": [-74.3883266, 40.813276], "type": "Point"}, "id": "lNIhTX42g1Yy7S03r-Ns7abXsdE=", "properties": {"@spider": "usps_collection_boxes", "addr:city": "EAST HANOVER", "addr:country": "US", "addr:full": "7 LITTELL RD", "addr:postcode": "07936", "addr:state": "NJ", "amenity": "post_box", "brand": "United States Postal Service", "brand:wikidata": "Q668687", "collection_times": "Mo-Sa 11:00", "name": "USPS COLLECTION BOX - BLUE BOX", "nsi_id": "unitedstatespostalservice-a77078", "operator": "United States Postal Service", "operator:short": "USPS", "operator:type": "public", "operator:wikidata": "Q668687", "ref": "0793600011"}, "type": "Feature"}
{"dataset_attributes": {"@spider": "usps_collection_boxes", "spider:collection_time": "2023-08-22T08:24:26.238206"}, "geometry": {"coordinates": [-74.3985838, 40.802885], "type": "Point"}, "id": "7jxiQC-QYA_gpt55iZqnE5rz_4c=", "properties": {"@spider": "usps_collection_boxes", "addr:city": "EAST HANOVER", "addr:country": "US", "addr:full": "3 GREAT MEADOW LN", "addr:postcode": "07936", "addr:state": "NJ", "amenity": "post_box", "brand": "United States Postal Service", "brand:wikidata": "Q668687", "collection_times": "Mo-Sa 10:00", "name": "USPS COLLECTION BOX - BLUE BOX", "nsi_id": "unitedstatespostalservice-a77078", "operator": "United States Postal Service", "operator:short": "USPS", "operator:type": "public", "operator:wikidata": "Q668687", "ref": "0793600012"}, "type": "Feature"}
{"dataset_attributes": {"@spider": "usps_collection_boxes", "spider:collection_time": "2023-08-22T08:24:26.238206"}, "geometry": {"coordinates": [-74.3394487, 40.831381], "type": "Point"}, "id": "wyBsKv3vPYxIPEdyjOVwM898BMA=", "properties": {"@spider": "usps_collection_boxes", "addr:city": "EAST HANOVER", "addr:country": "US", "addr:full": "72 EAGLE ROCK AVE", "addr:postcode": "07936", "addr:state": "NJ", "amenity": "post_box", "brand": "United States Postal Service", "brand:wikidata": "Q668687", "collection_times": "Mo-Sa 11:00", "name": "USPS COLLECTION BOX - BLUE BOX", "nsi_id": "unitedstatespostalservice-a77078", "operator": "United States Postal Service", "operator:short": "USPS", "operator:type": "public", "operator:wikidata": "Q668687", "ref": "0793600016"}, "type": "Feature"}
{"dataset_attributes": {"@spider": "usps_collection_boxes", "spider:collection_time": "2023-08-22T08:24:26.238206"}, "geometry": {"coordinates": [-74.3649742, 40.80717], "type": "Point"}, "id": "M2N9YIEWzgi8CD8k1PvrqoA8nh8=", "properties": {"@spider": "usps_collection_boxes", "addr:city": "EAST HANOVER", "addr:country": "US", "addr:full": "10 GRACIE RD", "addr:postcode": "07936", "addr:state": "NJ", "amenity": "post_box", "brand": "United States Postal Service", "brand:wikidata": "Q668687", "collection_times": "Mo-Sa 12:00", "name": "USPS COLLECTION BOX - BLUE BOX", "nsi_id": "unitedstatespostalservice-a77078", "operator": "United States Postal Service", "operator:short": "USPS", "operator:type": "public", "operator:wikidata": "Q668687", "ref": "0793600017"}, "type": "Feature"}
{"dataset_attributes": {"@spider": "usps_collection_boxes", "spider:collection_time": "2023-08-22T08:24:26.238206"}, "geometry": {"coordinates": [-74.38776, 40.815874], "type": "Point"}, "id": "aUYoKlUJM6xsa3kqLWTPRqrZEm0=", "properties": {"@spider": "usps_collection_boxes", "addr:city": "EAST HANOVER", "addr:country": "US", "addr:full": "15 MELANIE LN", "addr:postcode": "07936", "addr:state": "NJ", "amenity": "post_box", "brand": "United States Postal Service", "brand:wikidata": "Q668687", "collection_times": "Mo-Sa 11:00", "name": "USPS COLLECTION BOX - BLUE BOX", "nsi_id": "unitedstatespostalservice-a77078", "operator": "United States Postal Service", "operator:short": "USPS", "operator:type": "public", "operator:wikidata": "Q668687", "ref": "0793600019"}, "type": "Feature"}
{"dataset_attributes": {"@spider": "usps_collection_boxes", "spider:collection_time": "2023-08-22T08:24:26.238206"}, "geometry": {"coordinates": [-74.3579509, 40.827621], "type": "Point"}, "id": "9yWmwZNDpBUXBOgwGzCIlhaIXeY=", "properties": {"@spider": "usps_collection_boxes", "addr:city": "EAST HANOVER", "addr:country": "US", "addr:full": "460 RIDGEDALE AVE", "addr:postcode": "07936", "addr:state": "NJ", "amenity": "post_box", "brand": "United States Postal Service", "brand:wikidata": "Q668687", "collection_times": "Mo-Sa 10:00", "name": "USPS COLLECTION BOX - BLUE BOX", "nsi_id": "unitedstatespostalservice-a77078", "operator": "United States Postal Service", "operator:short": "USPS", "operator:type": "public", "operator:wikidata": "Q668687", "ref": "0793600020"}, "type": "Feature"}
{"dataset_attributes": {"@spider": "usps_collection_boxes", "spider:collection_time": "2023-08-22T08:24:26.238206"}, "geometry": {"coordinates": [-74.367059498, 40.820849657], "type": "Point"}, "id": "4hwDDlV5h5qAYYytBraA_LXaOsQ=", "properties": {"@spider": "usps_collection_boxes", "addr:city": "EAST HANOVER", "addr:country": "US", "addr:full": "315 RIDGEDALE AVE", "addr:postcode": "07936", "addr:state": "NJ", "amenity": "post_box", "brand": "United States Postal Service", "brand:wikidata": "Q668687", "collection_times": "Mo-Fr 17:00; Sa 16:00", "name": "USPS COLLECTION BOX - PO LOBBY", "note": "ON 12/24 AND 12/31, THIS BOX MAY BE COLLECTED AS EARLY AS 12 NOON.", "nsi_id": "unitedstatespostalservice-a77078", "operator": "United States Postal Service", "operator:short": "USPS", "operator:type": "public", "operator:wikidata": "Q668687", "ref": "0793600021"}, "type": "Feature"}
{"dataset_attributes": {"@spider": "usps_collection_boxes", "spider:collection_time": "2023-08-22T08:24:26.238206"}, "geometry": {"coordinates": [-74.367059498, 40.820849657], "type": "Point"}, "id": "n4uPk_L63vLXQ5QRW-CkQkzDmGg=", "properties": {"@spider": "usps_collection_boxes", "addr:city": "EAST HANOVER", "addr:country": "US", "addr:full": "315 RIDGEDALE AVE", "addr:postcode": "07936", "addr:state": "NJ", "amenity": "post_box", "brand": "United States Postal Service", "brand:wikidata": "Q668687", "collection_times": "Mo-Fr 17:00; Sa 14:00", "name": "USPS COLLECTION BOX - PO LOBBY", "note": "ON 12/24 AND 12/31, THIS BOX MAY BE COLLECTED AS EARLY AS 12 NOON.", "nsi_id": "unitedstatespostalservice-a77078", "operator": "United States Postal Service", "operator:short": "USPS", "operator:type": "public", "operator:wikidata": "Q668687", "ref": "0793600026"}, "type": "Feature"}
{"dataset_attributes": {"@spider": "usps_collection_boxes", "spider:collection_time": "2023-08-22T08:24:26.238206"}, "geometry": {"coordinates": [-74.578458847, 40.665102746], "type": "Point"}, "id": "KspqC4fxeXNx6YhVAa0VkpgUPPY=", "properties": {"@spider": "usps_collection_boxes", "addr:city": "LIBERTY CORNER", "addr:country": "US", "addr:full": "8 CHURCH ST", "addr:postcode": "07938", "addr:state": "NJ", "amenity": "post_box", "brand": "United States Postal Service", "brand:wikidata": "Q668687", "collection_times": "Mo-Fr 16:30; Sa 14:30", "name": "USPS COLLECTION BOX - BLUE BOX", "note": "ON 12/24 AND 12/31, THIS BOX MAY BE COLLECTED AS EARLY AS 12 NOON.", "nsi_id": "unitedstatespostalservice-a77078", "operator": "United States Postal Service", "operator:short": "USPS", "operator:type": "public", "operator:wikidata": "Q668687", "ref": "0793800001"}, "type": "Feature"}
{"dataset_attributes": {"@spider": "usps_collection_boxes", "spider:collection_time": "2023-08-22T08:24:26.238206"}, "geometry": {"coordinates": [-74.578458847, 40.665102746], "type": "Point"}, "id": "evFPiacGVyg5SB-bBQxeVlwAn7c=", "properties": {"@spider": "usps_collection_boxes", "addr:city": "LIBERTY CORNER", "addr:country": "US", "addr:full": "8 CHURCH ST", "addr:postcode": "07938", "addr:state": "NJ", "amenity": "post_box", "brand": "United States Postal Service", "brand:wikidata": "Q668687", "collection_times": "Mo-Fr 16:30; Sa 14:30", "name": "USPS COLLECTION BOX - PO LOBBY", "note": "ON 12/24 AND 12/31, THIS BOX MAY BE COLLECTED AS EARLY AS 12 NOON.", "nsi_id": "unitedstatespostalservice-a77078", "operator": "United States Postal Service", "operator:short": "USPS", "operator:type": "public", "operator:wikidata": "Q668687", "ref": "0793800002"}, "type": "Feature"}
{"dataset_attributes": {"@spider": "usps_collection_boxes", "spider:collection_time": "2023-08-22T08:24:26.238206"}, "geometry": {"coordinates": [-74.578458847, 40.665102746], "type": "Point"}, "id": "pa9Yao6H8IoeithnH1KPXCYdKLE=", "properties": {"@spider": "usps_collection_boxes", "addr:city": "LIBERTY CORNER", "addr:country": "US", "addr:full": "8 CHURCH ST", "addr:postcode": "07938", "addr:state": "NJ", "amenity": "post_box", "brand": "United States Postal Service", "brand:wikidata": "Q668687", "collection_times": "Mo-Fr 16:30; Sa 14:30", "name": "USPS COLLECTION BOX - PO LOBBY", "note": "ON 12/24 AND 12/31, THIS BOX MAY BE COLLECTED AS EARLY AS 12 NOON.", "nsi_id": "unitedstatespostalservice-a77078", "operator": "United States Postal Service", "operator:short": "USPS", "operator:type": "public", "operator:wikidata": "Q668687", "ref": "0793800003"}, "type": "Feature"}
{"dataset_attributes": {"@spider": "usps_collection_boxes", "spider:collection_time": "2023-08-22T08:24:26.238206"}, "geometry": {"coordinates": [-74.4150141, 40.758833], "type": "Point"}, "id": "T91_46lPUiSOxSgZ7vBr11NtX0E=", "properties": {"@spider": "usps_collection_boxes", "addr:city": "MADISON", "addr:country": "US", "addr:full": "64 MAIN ST", "addr:postcode": "07940", "addr:state": "NJ", "amenity": "post_box", "brand": "United States Postal Service", "brand:wikidata": "Q668687", "collection_times": "Mo-Sa 15:00", "name": "USPS COLLECTION BOX - BLUE BOX", "note": "ON 12/24 AND 12/31, THIS BOX MAY BE COLLECTED AS EARLY AS 12 NOON.", "nsi_id": "unitedstatespostalservice-a77078", "operator": "United States Postal Service", "operator:short": "USPS", "operator:type": "public", "operator:wikidata": "Q668687", "ref": "0794000007"}, "type": "Feature"}
{"dataset_attributes": {"@spider": "usps_collection_boxes", "spider:collection_time": "2023-08-22T08:24:26.238206"}, "geometry": {"coordinates": [-74.4162095, 40.75947], "type": "Point"}, "id": "E-pCIC04OsHRRcfh_bWg5W8f8zY=", "properties": {"@spider": "usps_collection_boxes", "addr:city": "MADISON", "addr:country": "US", "addr:full": "23 MAIN ST", "addr:postcode": "07940", "addr:state": "NJ", "amenity": "post_box", "brand": "United States Postal Service", "brand:wikidata": "Q668687", "collection_times": "Mo-Sa 15:00", "name": "USPS COLLECTION BOX - BLUE BOX", "note": "ON 12/24 AND 12/31, THIS BOX MAY BE COLLECTED AS EARLY AS 12 NOON.", "nsi_id": "unitedstatespostalservice-a77078", "operator": "United States Postal Service", "operator:short": "USPS", "operator:type": "public", "operator:wikidata": "Q668687", "ref": "0794000008"}, "type": "Feature"}
{"dataset_attributes": {"@spider": "usps_collection_boxes", "spider:collection_time": "2023-08-22T08:24:26.238206"}, "geometry": {"coordinates": [-74.4170357, 40.760953], "type": "Point"}, "id": "-zfE0VGyXsRRQb4pnAxIBi8Ilns=", "properties": {"@spider": "usps_collection_boxes", "addr:city": "MADISON", "addr:country": "US", "addr:full": "2 COMMUNITY PL", "addr:postcode": "07940", "addr:state": "NJ", "amenity": "post_box", "brand": "United States Postal Service", "brand:wikidata": "Q668687", "collection_times": "Mo-Sa 15:00", "name": "USPS COLLECTION BOX - BLUE BOX", "note": "ON 12/24 AND 12/31, THIS BOX MAY BE COLLECTED AS EARLY AS 12 NOON.", "nsi_id": "unitedstatespostalservice-a77078", "operator": "United States Postal Service", "operator:short": "USPS", "operator:type": "public", "operator:wikidata": "Q668687", "ref": "0794000009"}, "type": "Feature"}
{"dataset_attributes": {"@spider": "usps_collection_boxes", "spider:collection_time": "2023-08-22T08:24:26.238206"}, "geometry": {"coordinates": [-74.4103009, 40.759264], "type": "Point"}, "id": "j7hC7gv0NyeHACjrPq6f4bXUIdE=", "properties": {"@spider": "usps_collection_boxes", "addr:city": "MADISON", "addr:country": "US", "addr:full": "41 GREENWOOD AVE", "addr:postcode": "07940", "addr:state": "NJ", "amenity": "post_box", "brand": "United States Postal Service", "brand:wikidata": "Q668687", "collection_times": "Mo-Sa 15:00", "name": "USPS COLLECTION BOX - BLUE BOX", "note": "ON 12/24 AND 12/31, THIS BOX MAY BE COLLECTED AS EARLY AS 12 NOON.", "nsi_id": "unitedstatespostalservice-a77078", "operator": "United States Postal Service", "operator:short": "USPS", "operator:type": "public", "operator:wikidata": "Q668687", "ref": "0794000013"}, "type": "Feature"}
{"dataset_attributes": {"@spider": "usps_collection_boxes", "spider:collection_time": "2023-08-22T08:24:26.238206"}, "geometry": {"coordinates": [-74.4086247, 40.75474], "type": "Point"}, "id": "zR_qx0E2KJsbplV48CsnQ5VmQe0=", "properties": {"@spider": "usps_collection_boxes", "addr:city": "MADISON", "addr:country": "US", "addr:full": "171 MAIN ST", "addr:postcode": "07940", "addr:state": "NJ", "amenity": "post_box", "brand": "United States Postal Service", "brand:wikidata": "Q668687", "collection_times": "Mo-Sa 15:00", "name": "USPS COLLECTION BOX - BLUE BOX", "note": "ON 12/24 AND 12/31, THIS BOX MAY BE COLLECTED AS EARLY AS 12 NOON.", "nsi_id": "unitedstatespostalservice-a77078", "operator": "United States Postal Service", "operator:short": "USPS", "operator:type": "public", "operator:wikidata": "Q668687", "ref": "0794000014"}, "type": "Feature"}
{"dataset_attributes": {"@spider": "usps_collection_boxes", "spider:collection_time": "2023-08-22T08:24:26.238206"}, "geometry": {"coordinates": [-74.3970137, 40.747741], "type": "Point"}, "id": "ZCxO8mHga2TDdrk_Vz-KnD1lv4Y=", "properties": {"@spider": "usps_collection_boxes", "addr:city": "MADISON", "addr:country": "US", "addr:full": "340 MAIN ST", "addr:postcode": "07940", "addr:state": "NJ", "amenity": "post_box", "brand": "United States Postal Service", "brand:wikidata": "Q668687", "collection_times": "Mo-Sa 15:00", "name": "USPS COLLECTION BOX - BLUE BOX", "note": "ON 12/24 AND 12/31, THIS BOX MAY BE COLLECTED AS EARLY AS 12 NOON.", "nsi_id": "unitedstatespostalservice-a77078", "operator": "United States Postal Service", "operator:short": "USPS", "operator:type": "public", "operator:wikidata": "Q668687", "ref": "0794000015"}, "type": "Feature"}
{"dataset_attributes": {"@spider": "usps_collection_boxes", "spider:collection_time": "2023-08-22T08:24:26.238206"}, "geometry": {"coordinates": [-74.41555, 40.757885], "type": "Point"}, "id": "C0r_pwomi7wEYpXA-KdgGChjvQU=", "properties": {"@spider": "usps_collection_boxes", "addr:city": "MADISON", "addr:country": "US", "addr:full": "10 LINCOLN PL # 1", "addr:postcode": "07940", "addr:state": "NJ", "amenity": "post_box", "brand": "United States Postal Service", "brand:wikidata": "Q668687", "collection_times": "Mo-Fr 17:00; Sa 16:00", "name": "USPS COLLECTION BOX - BLUE BOX", "note": "ON 12/24 AND 12/31, THIS BOX MAY BE COLLECTED AS EARLY AS 12 NOON.", "nsi_id": "unitedstatespostalservice-a77078", "operator": "United States Postal Service", "operator:short": "USPS", "operator:type": "public", "operator:wikidata": "Q668687", "ref": "0794000020"}, "type": "Feature"}
{"dataset_attributes": {"@spider": "usps_collection_boxes", "spider:collection_time": "2023-08-22T08:24:26.238206"}, "geometry": {"coordinates": [-74.415561122, 40.757924879], "type": "Point"}, "id": "hPz6r8tpeck8wYzQQg2Ah6kUgiU=", "properties": {"@spider": "usps_collection_boxes", "addr:city": "MADISON", "addr:country": "US", "addr:full": "10 LINCOLN PL", "addr:postcode": "07940", "addr:state": "NJ", "amenity": "post_box", "brand": "United States Postal Service", "brand:wikidata": "Q668687", "collection_times": "Mo-Fr 17:00; Sa 16:00", "name": "USPS COLLECTION BOX - PO LOBBY", "note": "ON 12/24 AND 12/31, THIS BOX MAY BE COLLECTED AS EARLY AS 12 NOON.", "nsi_id": "unitedstatespostalservice-a77078", "operator": "United States Postal Service", "operator:short": "USPS", "operator:type": "public", "operator:wikidata": "Q668687", "ref": "0794000030"}, "type": "Feature"}
{"dataset_attributes": {"@spider": "usps_collection_boxes", "spider:collection_time": "2023-08-22T08:24:26.238206"}, "geometry": {"coordinates": [-74.415561122, 40.757924879], "type": "Point"}, "id": "AZpN3E-xVC4xLDrCOqEwfs1yFbQ=", "properties": {"@spider": "usps_collection_boxes", "addr:city": "MADISON", "addr:country": "US", "addr:full": "10 LINCOLN PL", "addr:postcode": "07940", "addr:state": "NJ", "amenity": "post_box", "brand": "United States Postal Service", "brand:wikidata": "Q668687", "collection_times": "Mo-Fr 18:00; Sa 16:00", "name": "USPS COLLECTION BOX - PO LOBBY", "note": "ON 12/24 AND 12/31, THIS BOX MAY BE COLLECTED AS EARLY AS 12 NOON.", "nsi_id": "unitedstatespostalservice-a77078", "operator": "United States Postal Service", "operator:short": "USPS", "operator:type": "public", "operator:wikidata": "Q668687", "ref": "0794000034"}, "type": "Feature"}
{"dataset_attributes": {"@spider": "usps_collection_boxes", "spider:collection_time": "2023-08-22T08:24:26.238206"}, "geometry": {"coordinates": [-74.588841, 40.781067], "type": "Point"}, "id": "-1dXu12pSjeMHuviFktvHsrLYPk=", "properties": {"@spider": "usps_collection_boxes", "addr:city": "MENDHAM", "addr:country": "US", "addr:full": "2 TEMPE WICK RD", "addr:postcode": "07945", "addr:state": "NJ", "amenity": "post_box", "brand": "United States Postal Service", "brand:wikidata": "Q668687", "collection_times": "Mo-Fr 17:00; Sa 15:00", "name": "USPS COLLECTION BOX - BLUE BOX", "note": "ON 12/24 AND 12/31, THIS BOX MAY BE COLLECTED AS EARLY AS 12 NOON.", "nsi_id": "unitedstatespostalservice-a77078", "operator": "United States Postal Service", "operator:short": "USPS", "operator:type": "public", "operator:wikidata": "Q668687", "ref": "0794500001"}, "type": "Feature"}
{"dataset_attributes": {"@spider": "usps_collection_boxes", "spider:collection_time": "2023-08-22T08:24:26.238206"}, "geometry": {"coordinates": [-74.5890003, 40.782844], "type": "Point"}, "id": "kLYs91g092GYmyIZTcdIOC8FNP4=", "properties": {"@spider": "usps_collection_boxes", "addr:city": "MENDHAM", "addr:country": "US", "addr:full": "86 E MAIN ST", "addr:postcode": "07945", "addr:state": "NJ", "amenity": "post_box", "brand": "United States Postal Service", "brand:wikidata": "Q668687", "collection_times": "Mo-Sa 11:00", "name": "USPS COLLECTION BOX - BLUE BOX", "nsi_id": "unitedstatespostalservice-a77078", "operator": "United States Postal Service", "operator:short": "USPS", "operator:type": "public", "operator:wikidata": "Q668687", "ref": "0794500002"}, "type": "Feature"}
{"dataset_attributes": {"@spider": "usps_collection_boxes", "spider:collection_time": "2023-08-22T08:24:26.238206"}, "geometry": {"coordinates": [-74.5974982, 40.777198], "type": "Point"}, "id": "rUplYHQkMB1o1BYsPgHHVzH91MY=", "properties": {"@spider": "usps_collection_boxes", "addr:city": "MENDHAM", "addr:country": "US", "addr:full": "30 E MAIN ST", "addr:postcode": "07945", "addr:state": "NJ", "amenity": "post_box", "brand": "United States Postal Service", "brand:wikidata": "Q668687", "collection_times": "Mo-Sa 11:00", "name": "USPS COLLECTION BOX - BLUE BOX", "nsi_id": "unitedstatespostalservice-a77078", "operator": "United States Postal Service", "operator:short": "USPS", "operator:type": "public", "operator:wikidata": "Q668687", "ref": "0794500003"}, "type": "Feature"}
{"dataset_attributes": {"@spider": "usps_collection_boxes", "spider:collection_time": "2023-08-22T08:24:26.238206"}, "geometry": {"coordinates": [-74.588841, 40.781067], "type": "Point"}, "id": "XrvwjKCvsjok7lOAR3hit1jszjA=", "properties": {"@spider": "usps_collection_boxes", "addr:city": "MENDHAM", "addr:country": "US", "addr:full": "2 TEMPE WICK RD", "addr:postcode": "07945", "addr:state": "NJ", "amenity": "post_box", "brand": "United States Postal Service", "brand:wikidata": "Q668687", "collection_times": "Mo-Fr 16:30; Sa 13:00", "name": "USPS COLLECTION BOX - PO LOBBY", "note": "ON 12/24 AND 12/31, THIS BOX MAY BE COLLECTED AS EARLY AS 12 NOON.", "nsi_id": "unitedstatespostalservice-a77078", "operator": "United States Postal Service", "operator:short": "USPS", "operator:type": "public", "operator:wikidata": "Q668687", "ref": "0794500008"}, "type": "Feature"}
{"dataset_attributes": {"@spider": "usps_collection_boxes", "spider:collection_time": "2023-08-22T08:24:26.238206"}, "geometry": {"coordinates": [-74.5887423877, 40.7810504788], "type": "Point"}, "id": "lcVZakxRG43qQq0zGLrrmFy-tuc=", "properties": {"@spider": "usps_collection_boxes", "addr:city": "MENDHAM", "addr:country": "US", "addr:full": "2 TEMPE WICK RD", "addr:postcode": "07945", "addr:state": "NJ", "amenity": "post_box", "brand": "United States Postal Service", "brand:wikidata": "Q668687", "collection_times": "Mo-Fr 16:30; Sa 13:00", "name": "USPS COLLECTION BOX - PO LOBBY", "note": "ON 12/24 AND 12/31, THIS BOX MAY BE COLLECTED AS EARLY AS 12 NOON.", "nsi_id": "unitedstatespostalservice-a77078", "operator": "United States Postal Service", "operator:short": "USPS", "operator:type": "public", "operator:wikidata": "Q668687", "ref": "0794500011"}, "type": "Feature"}
{"dataset_attributes": {"@spider": "usps_collection_boxes", "spider:collection_time": "2023-08-22T08:24:26.238206"}, "geometry": {"coordinates": [-74.523464057, 40.673835626], "type": "Point"}, "id": "isewdt2nQLoFrDK1ryoAwqjupQU=", "properties": {"@spider": "usps_collection_boxes", "addr:city": "MILLINGTON", "addr:country": "US", "addr:full": "1936 LONG HILL RD", "addr:postcode": "07946", "addr:state": "NJ", "amenity": "post_box", "brand": "United States Postal Service", "brand:wikidata": "Q668687", "collection_times": "Mo-Fr 17:00; Sa 11:00", "name": "USPS COLLECTION BOX - BLUE BOX", "note": "ON 12/24 AND 12/31, THIS BOX MAY BE COLLECTED AS EARLY AS 12 NOON.", "nsi_id": "unitedstatespostalservice-a77078", "operator": "United States Postal Service", "operator:short": "USPS", "operator:type": "public", "operator:wikidata": "Q668687", "ref": "0794600001"}, "type": "Feature"}
{"dataset_attributes": {"@spider": "usps_collection_boxes", "spider:collection_time": "2023-08-22T08:24:26.238206"}, "geometry": {"coordinates": [-74.523464057, 40.673835626], "type": "Point"}, "id": "AvZOQMyYBDAozZtjhP7Uk9LOJsI=", "properties": {"@spider": "usps_collection_boxes", "addr:city": "MILLINGTON", "addr:country": "US", "addr:full": "1936 LONG HILL RD", "addr:postcode": "07946", "addr:state": "NJ", "amenity": "post_box", "brand": "United States Postal Service", "brand:wikidata": "Q668687", "collection_times": "Mo-Fr 16:30; Sa 12:00", "name": "USPS COLLECTION BOX - PO LOBBY", "note": "ON 12/24 AND 12/31, THIS BOX MAY BE COLLECTED AS EARLY AS 12 NOON.", "nsi_id": "unitedstatespostalservice-a77078", "operator": "United States Postal Service", "operator:short": "USPS", "operator:type": "public", "operator:wikidata": "Q668687", "ref": "0794600002"}, "type": "Feature"}
{"dataset_attributes": {"@spider": "usps_collection_boxes", "spider:collection_time": "2023-08-22T08:24:26.238206"}, "geometry": {"coordinates": [-74.523464057, 40.673835626], "type": "Point"}, "id": "6NkOBMshKhD3PipyfAwHzwjg9lU=", "properties": {"@spider": "usps_collection_boxes", "addr:city": "MILLINGTON", "addr:country": "US", "addr:full": "1936 LONG HILL RD", "addr:postcode": "07946", "addr:state": "NJ", "amenity": "post_box", "brand": "United States Postal Service", "brand:wikidata": "Q668687", "collection_times": "Mo-Fr 16:30; Sa 12:00", "name": "USPS COLLECTION BOX - PO LOBBY", "note": "ON 12/24 AND 12/31, THIS BOX MAY BE COLLECTED AS EARLY AS 12 NOON.", "nsi_id": "unitedstatespostalservice-a77078", "operator": "United States Postal Service", "operator:short": "USPS", "operator:type": "public", "operator:wikidata": "Q668687", "ref": "0794600003"}, "type": "Feature"}
{"dataset_attributes": {"@spider": "usps_collection_boxes", "spider:collection_time": "2023-08-22T08:24:26.238206"}, "geometry": {"coordinates": [-74.4554399, 40.851825], "type": "Point"}, "id": "unbO_IUp6-H9C1RwiFEJG_vqQck=", "properties": {"@spider": "usps_collection_boxes", "addr:city": "MORRIS PLAINS", "addr:country": "US", "addr:full": "2 SEDGEFIELD DR", "addr:postcode": "07950", "addr:state": "NJ", "amenity": "post_box", "brand": "United States Postal Service", "brand:wikidata": "Q668687", "collection_times": "Mo-Sa 11:00", "name": "USPS COLLECTION BOX - BLUE BOX", "nsi_id": "unitedstatespostalservice-a77078", "operator": "United States Postal Service", "operator:short": "USPS", "operator:type": "public", "operator:wikidata": "Q668687", "ref": "0795000001"}, "type": "Feature"}
{"dataset_attributes": {"@spider": "usps_collection_boxes", "spider:collection_time": "2023-08-22T08:24:26.238206"}, "geometry": {"coordinates": [-74.4897159, 40.822397], "type": "Point"}, "id": "kAvnbvDAO4T15DSZcSFDamiBdeo=", "properties": {"@spider": "usps_collection_boxes", "addr:city": "MORRIS PLAINS", "addr:country": "US", "addr:full": "16 BURNHAM RD", "addr:postcode": "07950", "addr:state": "NJ", "amenity": "post_box", "brand": "United States Postal Service", "brand:wikidata": "Q668687", "collection_times": "Mo-Sa 11:00", "name": "USPS COLLECTION BOX - BLUE BOX", "nsi_id": "unitedstatespostalservice-a77078", "operator": "United States Postal Service", "operator:short": "USPS", "operator:type": "public", "operator:wikidata": "Q668687", "ref": "0795000005"}, "type": "Feature"}
{"dataset_attributes": {"@spider": "usps_collection_boxes", "spider:collection_time": "2023-08-22T08:24:26.238206"}, "geometry": {"coordinates": [-74.482181, 40.819716], "type": "Point"}, "id": "XD_XuGkF52n6mJlVPtTghgouKyQ=", "properties": {"@spider": "usps_collection_boxes", "addr:city": "MORRIS PLAINS", "addr:country": "US", "addr:full": "2 SHERMAN AVE", "addr:postcode": "07950", "addr:state": "NJ", "amenity": "post_box", "brand": "United States Postal Service", "brand:wikidata": "Q668687", "collection_times": "Mo-Sa 11:00", "name": "USPS COLLECTION BOX - BLUE BOX", "nsi_id": "unitedstatespostalservice-a77078", "operator": "United States Postal Service", "operator:short": "USPS", "operator:type": "public", "operator:wikidata": "Q668687", "ref": "0795000007"}, "type": "Feature"}
{"dataset_attributes": {"@spider": "usps_collection_boxes", "spider:collection_time": "2023-08-22T08:24:26.238206"}, "geometry": {"coordinates": [-74.4790410038, 40.8304799957], "type": "Point"}, "id": "QCqkIdQKo4Bthwn3vuO7wjTfz_4=", "properties": {"@spider": "usps_collection_boxes", "addr:city": "MORRIS PLAINS", "addr:country": "US", "addr:full": "800 SPEEDWELL AVE", "addr:postcode": "07950", "addr:state": "NJ", "amenity": "post_box", "brand": "United States Postal Service", "brand:wikidata": "Q668687", "collection_times": "Mo-Sa 11:00", "name": "USPS COLLECTION BOX - BLUE BOX", "nsi_id": "unitedstatespostalservice-a77078", "operator": "United States Postal Service", "operator:short": "USPS", "operator:type": "public", "operator:wikidata": "Q668687", "ref": "0795000012"}, "type": "Feature"}
{"dataset_attributes": {"@spider": "usps_collection_boxes", "spider:collection_time": "2023-08-22T08:24:26.238206"}, "geometry": {"coordinates": [-74.476320992, 40.849359981], "type": "Point"}, "id": "cNwv5az5WeryLD9jvDpZvi7mCSY=", "properties": {"@spider": "usps_collection_boxes", "addr:city": "MORRIS PLAINS", "addr:country": "US", "addr:full": "2 FOXWOOD DRIVE", "addr:postcode": "07950", "addr:state": "NJ", "amenity": "post_box", "brand": "United States Postal Service", "brand:wikidata": "Q668687", "collection_times": "Mo-Sa 11:00", "name": "USPS COLLECTION BOX - BLUE BOX", "nsi_id": "unitedstatespostalservice-a77078", "operator": "United States Postal Service", "operator:short": "USPS", "operator:type": "public", "operator:wikidata": "Q668687", "ref": "0795000013"}, "type": "Feature"}
{"dataset_attributes": {"@spider": "usps_collection_boxes", "spider:collection_time": "2023-08-22T08:24:26.238206"}, "geometry": {"coordinates": [-74.4800952, 40.853777], "type": "Point"}, "id": "Kbp2XmnSNRicoNuTXap34bCQc2Y=", "properties": {"@spider": "usps_collection_boxes", "addr:city": "MORRIS PLAINS", "addr:country": "US", "addr:full": "2467 STATE ROUTE 10", "addr:postcode": "07950", "addr:state": "NJ", "amenity": "post_box", "brand": "United States Postal Service", "brand:wikidata": "Q668687", "collection_times": "Mo-Sa 11:00", "name": "USPS COLLECTION BOX - BLUE BOX", "nsi_id": "unitedstatespostalservice-a77078", "operator": "United States Postal Service", "operator:short": "USPS", "operator:type": "public", "operator:wikidata": "Q668687", "ref": "0795000014"}, "type": "Feature"}
{"dataset_attributes": {"@spider": "usps_collection_boxes", "spider:collection_time": "2023-08-22T08:24:26.238206"}, "geometry": {"coordinates": [-74.4892907, 40.857062], "type": "Point"}, "id": "BJTrN4vaEhERZbK_G6pPNglXRBo=", "properties": {"@spider": "usps_collection_boxes", "addr:city": "MORRIS PLAINS", "addr:country": "US", "addr:full": "28 GIBRALTAR DR", "addr:postcode": "07950", "addr:state": "NJ", "amenity": "post_box", "brand": "United States Postal Service", "brand:wikidata": "Q668687", "collection_times": "Mo-Sa 11:00", "name": "USPS COLLECTION BOX - BLUE BOX", "nsi_id": "unitedstatespostalservice-a77078", "operator": "United States Postal Service", "operator:short": "USPS", "operator:type": "public", "operator:wikidata": "Q668687", "ref": "0795000017"}, "type": "Feature"}
{"dataset_attributes": {"@spider": "usps_collection_boxes", "spider:collection_time": "2023-08-22T08:24:26.238206"}, "geometry": {"coordinates": [-74.480167299, 40.825495939], "type": "Point"}, "id": "NH6a8L_HI2sAvJSLX7v4eWUJEFI=", "properties": {"@spider": "usps_collection_boxes", "addr:city": "MORRIS PLAINS", "addr:country": "US", "addr:full": "485 SPEEDWELL AVE", "addr:postcode": "07950", "addr:state": "NJ", "amenity": "post_box", "brand": "United States Postal Service", "brand:wikidata": "Q668687", "collection_times": "Mo-Fr 17:00; Sa 15:00", "name": "USPS COLLECTION BOX - BLUE BOX", "note": "ON 12/24 AND 12/31, THIS BOX MAY BE COLLECTED AS EARLY AS 12 NOON.", "nsi_id": "unitedstatespostalservice-a77078", "operator": "United States Postal Service", "operator:short": "USPS", "operator:type": "public", "operator:wikidata": "Q668687", "ref": "0795000019"}, "type": "Feature"}
{"dataset_attributes": {"@spider": "usps_collection_boxes", "spider:collection_time": "2023-08-22T08:24:26.238206"}, "geometry": {"coordinates": [-74.480167299, 40.825495939], "type": "Point"}, "id": "7AX_8ivLbFAyq-oYVBSKHcqs13s=", "properties": {"@spider": "usps_collection_boxes", "addr:city": "MORRIS PLAINS", "addr:country": "US", "addr:full": "485 SPEEDWELL AVE", "addr:postcode": "07950", "addr:state": "NJ", "amenity": "post_box", "brand": "United States Postal Service", "brand:wikidata": "Q668687", "collection_times": "Mo-Fr 17:00; Sa 15:00", "name": "USPS COLLECTION BOX - BLUE BOX", "note": "ON 12/24 AND 12/31, THIS BOX MAY BE COLLECTED AS EARLY AS 12 NOON.", "nsi_id": "unitedstatespostalservice-a77078", "operator": "United States Postal Service", "operator:short": "USPS", "operator:type": "public", "operator:wikidata": "Q668687", "ref": "0795000020"}, "type": "Feature"}
{"dataset_attributes": {"@spider": "usps_collection_boxes", "spider:collection_time": "2023-08-22T08:24:26.238206"}, "geometry": {"coordinates": [-74.480167299, 40.825495939], "type": "Point"}, "id": "0TFr7XGhYss5d96N2e8oUhMbPJ0=", "properties": {"@spider": "usps_collection_boxes", "addr:city": "MORRIS PLAINS", "addr:country": "US", "addr:full": "485 SPEEDWELL AVE", "addr:postcode": "07950", "addr:state": "NJ", "amenity": "post_box", "brand": "United States Postal Service", "brand:wikidata": "Q668687", "collection_times": "Mo-Fr 17:00; Sa 15:00", "name": "USPS COLLECTION BOX - BLUE BOX", "note": "ON 12/24 AND 12/31, THIS BOX MAY BE COLLECTED AS EARLY AS 12 NOON.", "nsi_id": "unitedstatespostalservice-a77078", "operator": "United States Postal Service", "operator:short": "USPS", "operator:type": "public", "operator:wikidata": "Q668687", "ref": "0795000021"}, "type": "Feature"}
{"dataset_attributes": {"@spider": "usps_collection_boxes", "spider:collection_time": "2023-08-22T08:24:26.238206"}, "geometry": {"coordinates": [-74.4879927, 40.856983], "type": "Point"}, "id": "5jVXIndxWhgfr0ErcPQI__38ZSk=", "properties": {"@spider": "usps_collection_boxes", "addr:city": "MORRIS PLAINS", "addr:country": "US", "addr:full": "101 GIBRALTAR DR", "addr:postcode": "07950", "addr:state": "NJ", "amenity": "post_box", "brand": "United States Postal Service", "brand:wikidata": "Q668687", "collection_times": "Mo-Fr 11:00", "name": "USPS COLLECTION BOX - BLUE BOX", "nsi_id": "unitedstatespostalservice-a77078", "operator": "United States Postal Service", "operator:short": "USPS", "operator:type": "public", "operator:wikidata": "Q668687", "ref": "0795000025"}, "type": "Feature"}
{"dataset_attributes": {"@spider": "usps_collection_boxes", "spider:collection_time": "2023-08-22T08:24:26.238206"}, "geometry": {"coordinates": [-74.4801509, 40.822108], "type": "Point"}, "id": "Fr7GU_-Z0aKGx2DOTfkraBUFE5w=", "properties": {"@spider": "usps_collection_boxes", "addr:city": "MORRIS PLAINS", "addr:country": "US", "addr:full": "329 SPEEDWELL AVE", "addr:postcode": "07950", "addr:state": "NJ", "amenity": "post_box", "brand": "United States Postal Service", "brand:wikidata": "Q668687", "collection_times": "Mo-Sa 11:00", "name": "USPS COLLECTION BOX - BLUE BOX", "nsi_id": "unitedstatespostalservice-a77078", "operator": "United States Postal Service", "operator:short": "USPS", "operator:type": "public", "operator:wikidata": "Q668687", "ref": "0795000026"}, "type": "Feature"}
{"dataset_attributes": {"@spider": "usps_collection_boxes", "spider:collection_time": "2023-08-22T08:24:26.238206"}, "geometry": {"coordinates": [-74.480167299, 40.825495939], "type": "Point"}, "id": "9zjbVXIvAyXIA7PtIe6P9H6AMps=", "properties": {"@spider": "usps_collection_boxes", "addr:city": "MORRIS PLAINS", "addr:country": "US", "addr:full": "485 SPEEDWELL AVE", "addr:postcode": "07950", "addr:state": "NJ", "amenity": "post_box", "brand": "United States Postal Service", "brand:wikidata": "Q668687", "collection_times": "Mo-Fr 17:00; Sa 15:00", "name": "USPS COLLECTION BOX - PO LOBBY", "note": "ON 12/24 AND 12/31, THIS BOX MAY BE COLLECTED AS EARLY AS 12 NOON.", "nsi_id": "unitedstatespostalservice-a77078", "operator": "United States Postal Service", "operator:short": "USPS", "operator:type": "public", "operator:wikidata": "Q668687", "ref": "0795000027"}, "type": "Feature"}
{"dataset_attributes": {"@spider": "usps_collection_boxes", "spider:collection_time": "2023-08-22T08:24:26.238206"}, "geometry": {"coordinates": [-74.480167299, 40.825495939], "type": "Point"}, "id": "6parYXB4wt7XI3Z1efh1byKmd88=", "properties": {"@spider": "usps_collection_boxes", "addr:city": "MORRIS PLAINS", "addr:country": "US", "addr:full": "485 SPEEDWELL AVE", "addr:postcode": "07950", "addr:state": "NJ", "amenity": "post_box", "brand": "United States Postal Service", "brand:wikidata": "Q668687", "collection_times": "Mo-Fr 17:00; Sa 13:00", "name": "USPS COLLECTION BOX - PO LOBBY", "note": "ON 12/24 AND 12/31, THIS BOX MAY BE COLLECTED AS EARLY AS 12 NOON.", "nsi_id": "unitedstatespostalservice-a77078", "operator": "United States Postal Service", "operator:short": "USPS", "operator:type": "public", "operator:wikidata": "Q668687", "ref": "0795000029"}, "type": "Feature"}
{"dataset_attributes": {"@spider": "usps_collection_boxes", "spider:collection_time": "2023-08-22T08:24:26.238206"}, "geometry": {"coordinates": [-74.467246, 40.787945], "type": "Point"}, "id": "zp9qExKl5B4ijUllgzZj5fcuYaA=", "properties": {"@spider": "usps_collection_boxes", "addr:city": "MORRISTOWN", "addr:country": "US", "addr:full": "55 MADISON AVE", "addr:postcode": "07960", "addr:state": "NJ", "amenity": "post_box", "brand": "United States Postal Service", "brand:wikidata": "Q668687", "collection_times": "Mo-Fr 15:00; Sa 11:00", "name": "USPS COLLECTION BOX - BLUE BOX", "note": "ON 12/24 AND 12/31, THIS BOX MAY BE COLLECTED AS EARLY AS 12 NOON.", "nsi_id": "unitedstatespostalservice-a77078", "operator": "United States Postal Service", "operator:short": "USPS", "operator:type": "public", "operator:wikidata": "Q668687", "ref": "0796000003"}, "type": "Feature"}
{"dataset_attributes": {"@spider": "usps_collection_boxes", "spider:collection_time": "2023-08-22T08:24:26.238206"}, "geometry": {"coordinates": [-74.4647655, 40.788751], "type": "Point"}, "id": "c_wNxg-rVrKE3T5UfotyJ0DPT5w=", "properties": {"@spider": "usps_collection_boxes", "addr:city": "MORRISTOWN", "addr:country": "US", "addr:full": "100 MADISON AVE", "addr:postcode": "07960", "addr:state": "NJ", "amenity": "post_box", "brand": "United States Postal Service", "brand:wikidata": "Q668687", "collection_times": "Mo-Fr 15:00; Sa 11:00", "name": "USPS COLLECTION BOX - BLUE BOX", "note": "ON 12/24 AND 12/31, THIS BOX MAY BE COLLECTED AS EARLY AS 12 NOON.", "nsi_id": "unitedstatespostalservice-a77078", "operator": "United States Postal Service", "operator:short": "USPS", "operator:type": "public", "operator:wikidata": "Q668687", "ref": "0796000005"}, "type": "Feature"}
{"dataset_attributes": {"@spider": "usps_collection_boxes", "spider:collection_time": "2023-08-22T08:24:26.238206"}, "geometry": {"coordinates": [-74.464305, 40.787802], "type": "Point"}, "id": "0mMM03cjo-L_chJsW_20DXxkzRg=", "properties": {"@spider": "usps_collection_boxes", "addr:city": "MORRISTOWN", "addr:country": "US", "addr:full": "95 MADISON AVE", "addr:postcode": "07960", "addr:state": "NJ", "amenity": "post_box", "brand": "United States Postal Service", "brand:wikidata": "Q668687", "collection_times": "Mo-Fr 15:00; Sa 11:00", "name": "USPS COLLECTION BOX - BLUE BOX", "note": "ON 12/24 AND 12/31, THIS BOX MAY BE COLLECTED AS EARLY AS 12 NOON.", "nsi_id": "unitedstatespostalservice-a77078", "operator": "United States Postal Service", "operator:short": "USPS", "operator:type": "public", "operator:wikidata": "Q668687", "ref": "0796000006"}, "type": "Feature"}
{"dataset_attributes": {"@spider": "usps_collection_boxes", "spider:collection_time": "2023-08-22T08:24:26.238206"}, "geometry": {"coordinates": [-74.4806229, 40.795901], "type": "Point"}, "id": "ptfGLrRXccelKrLv3Wd-pVM_7ws=", "properties": {"@spider": "usps_collection_boxes", "addr:city": "MORRISTOWN", "addr:country": "US", "addr:full": "16 SOUTH ST", "addr:postcode": "07960", "addr:state": "NJ", "amenity": "post_box", "brand": "United States Postal Service", "brand:wikidata": "Q668687", "collection_times": "Mo-Fr 15:00; Sa 11:00", "name": "USPS COLLECTION BOX - BLUE BOX", "note": "ON 12/24 AND 12/31, THIS BOX MAY BE COLLECTED AS EARLY AS 12 NOON.", "nsi_id": "unitedstatespostalservice-a77078", "operator": "United States Postal Service", "operator:short": "USPS", "operator:type": "public", "operator:wikidata": "Q668687", "ref": "0796000015"}, "type": "Feature"}
{"dataset_attributes": {"@spider": "usps_collection_boxes", "spider:collection_time": "2023-08-22T08:24:26.238206"}, "geometry": {"coordinates": [-74.4793672, 40.79497], "type": "Point"}, "id": "uPZn4G6KcC9EuD8L4Kqb8u9-UxY=", "properties": {"@spider": "usps_collection_boxes", "addr:city": "MORRISTOWN", "addr:country": "US", "addr:full": "60 SOUTH ST", "addr:postcode": "07960", "addr:state": "NJ", "amenity": "post_box", "brand": "United States Postal Service", "brand:wikidata": "Q668687", "collection_times": "Mo-Fr 15:00; Sa 11:00", "name": "USPS COLLECTION BOX - BLUE BOX", "note": "ON 12/24 AND 12/31, THIS BOX MAY BE COLLECTED AS EARLY AS 12 NOON.", "nsi_id": "unitedstatespostalservice-a77078", "operator": "United States Postal Service", "operator:short": "USPS", "operator:type": "public", "operator:wikidata": "Q668687", "ref": "0796000016"}, "type": "Feature"}
{"dataset_attributes": {"@spider": "usps_collection_boxes", "spider:collection_time": "2023-08-22T08:24:26.238206"}, "geometry": {"coordinates": [-74.4881623, 40.7996], "type": "Point"}, "id": "vjcNL69k15OYUdLsY_0hL4-Yzlo=", "properties": {"@spider": "usps_collection_boxes", "addr:city": "MORRISTOWN", "addr:country": "US", "addr:full": "123 WASHINGTON ST", "addr:postcode": "07960", "addr:state": "NJ", "amenity": "post_box", "brand": "United States Postal Service", "brand:wikidata": "Q668687", "collection_times": "Mo-Fr 15:00; Sa 11:00", "name": "USPS COLLECTION BOX - BLUE BOX", "note": "ON 12/24 AND 12/31, THIS BOX MAY BE COLLECTED AS EARLY AS 12 NOON.", "nsi_id": "unitedstatespostalservice-a77078", "operator": "United States Postal Service", "operator:short": "USPS", "operator:type": "public", "operator:wikidata": "Q668687", "ref": "0796000018"}, "type": "Feature"}
{"dataset_attributes": {"@spider": "usps_collection_boxes", "spider:collection_time": "2023-08-22T08:24:26.238206"}, "geometry": {"coordinates": [-74.4806345, 40.795949], "type": "Point"}, "id": "-eOr1kQcxw0dt-vbdosKrt9I6vQ=", "properties": {"@spider": "usps_collection_boxes", "addr:city": "MORRISTOWN", "addr:country": "US", "addr:full": "21 SOUTH ST", "addr:postcode": "07960", "addr:state": "NJ", "amenity": "post_box", "brand": "United States Postal Service", "brand:wikidata": "Q668687", "collection_times": "Mo-Fr 15:00; Sa 11:00", "name": "USPS COLLECTION BOX - BLUE BOX", "note": "ON 12/24 AND 12/31, THIS BOX MAY BE COLLECTED AS EARLY AS 12 NOON.", "nsi_id": "unitedstatespostalservice-a77078", "operator": "United States Postal Service", "operator:short": "USPS", "operator:type": "public", "operator:wikidata": "Q668687", "ref": "0796000020"}, "type": "Feature"}
{"dataset_attributes": {"@spider": "usps_collection_boxes", "spider:collection_time": "2023-08-22T08:24:26.238206"}, "geometry": {"coordinates": [-74.4753132961, 40.7934371118], "type": "Point"}, "id": "v1rKPstOBmI88BgiqM1r9o6Qfcc=", "properties": {"@spider": "usps_collection_boxes", "addr:city": "MORRISTOWN", "addr:country": "US", "addr:full": "25 ELM ST", "addr:postcode": "07960", "addr:state": "NJ", "amenity": "post_box", "brand": "United States Postal Service", "brand:wikidata": "Q668687", "collection_times": "Mo-Fr 15:00; Sa 11:00", "name": "USPS COLLECTION BOX - BLUE BOX", "note": "ON 12/24 AND 12/31, THIS BOX MAY BE COLLECTED AS EARLY AS 12 NOON.", "nsi_id": "unitedstatespostalservice-a77078", "operator": "United States Postal Service", "operator:short": "USPS", "operator:type": "public", "operator:wikidata": "Q668687", "ref": "0796000021"}, "type": "Feature"}
{"dataset_attributes": {"@spider": "usps_collection_boxes", "spider:collection_time": "2023-08-22T08:24:26.238206"}, "geometry": {"coordinates": [-74.4750628541, 40.7967307657], "type": "Point"}, "id": "XN7Ys77_8GTxkmrXxQrfXx1qEUI=", "properties": {"@spider": "usps_collection_boxes", "addr:city": "MORRISTOWN", "addr:country": "US", "addr:full": "131 MORRIS ST", "addr:postcode": "07960", "addr:state": "NJ", "amenity": "post_box", "brand": "United States Postal Service", "brand:wikidata": "Q668687", "collection_times": "Mo-Fr 15:00; Sa 11:00", "name": "USPS COLLECTION BOX - BLUE BOX", "note": "ON 12/24 AND 12/31, THIS BOX MAY BE COLLECTED AS EARLY AS 12 NOON.", "nsi_id": "unitedstatespostalservice-a77078", "operator": "United States Postal Service", "operator:short": "USPS", "operator:type": "public", "operator:wikidata": "Q668687", "ref": "0796000023"}, "type": "Feature"}
{"dataset_attributes": {"@spider": "usps_collection_boxes", "spider:collection_time": "2023-08-22T08:24:26.238206"}, "geometry": {"coordinates": [-74.4828644, 40.797372], "type": "Point"}, "id": "3di_9GgnubCl_ib2GXk7V9ob2lU=", "properties": {"@spider": "usps_collection_boxes", "addr:city": "MORRISTOWN", "addr:country": "US", "addr:full": "32 WASHINGTON ST", "addr:postcode": "07960", "addr:state": "NJ", "amenity": "post_box", "brand": "United States Postal Service", "brand:wikidata": "Q668687", "collection_times": "Mo-Fr 15:00; Sa 11:00", "name": "USPS COLLECTION BOX - BLUE BOX", "note": "ON 12/24 AND 12/31, THIS BOX MAY BE COLLECTED AS EARLY AS 12 NOON.", "nsi_id": "unitedstatespostalservice-a77078", "operator": "United States Postal Service", "operator:short": "USPS", "operator:type": "public", "operator:wikidata": "Q668687", "ref": "0796000027"}, "type": "Feature"}
{"dataset_attributes": {"@spider": "usps_collection_boxes", "spider:collection_time": "2023-08-22T08:24:26.238206"}, "geometry": {"coordinates": [-74.4810973, 40.797774], "type": "Point"}, "id": "FWy3wkOptw2fFUHUjd3dJiW68mI=", "properties": {"@spider": "usps_collection_boxes", "addr:city": "MORRISTOWN", "addr:country": "US", "addr:full": "10 N PARK PL", "addr:postcode": "07960", "addr:state": "NJ", "amenity": "post_box", "brand": "United States Postal Service", "brand:wikidata": "Q668687", "collection_times": "Mo-Fr 15:00; Sa 11:00", "name": "USPS COLLECTION BOX - BLUE BOX", "note": "ON 12/24 AND 12/31, THIS BOX MAY BE COLLECTED AS EARLY AS 12 NOON.", "nsi_id": "unitedstatespostalservice-a77078", "operator": "United States Postal Service", "operator:short": "USPS", "operator:type": "public", "operator:wikidata": "Q668687", "ref": "0796000029"}, "type": "Feature"}
{"dataset_attributes": {"@spider": "usps_collection_boxes", "spider:collection_time": "2023-08-22T08:24:26.238206"}, "geometry": {"coordinates": [-74.4824858, 40.803325], "type": "Point"}, "id": "AS3Zu5XgXqEnHBnP4lzrnnldnN8=", "properties": {"@spider": "usps_collection_boxes", "addr:city": "MORRISTOWN", "addr:country": "US", "addr:full": "150 SPEEDWELL AVE", "addr:postcode": "07960", "addr:state": "NJ", "amenity": "post_box", "brand": "United States Postal Service", "brand:wikidata": "Q668687", "collection_times": "Mo-Fr 15:00; Sa 11:00", "name": "USPS COLLECTION BOX - BLUE BOX", "note": "ON 12/24 AND 12/31, THIS BOX MAY BE COLLECTED AS EARLY AS 12 NOON.", "nsi_id": "unitedstatespostalservice-a77078", "operator": "United States Postal Service", "operator:short": "USPS", "operator:type": "public", "operator:wikidata": "Q668687", "ref": "0796000035"}, "type": "Feature"}
{"dataset_attributes": {"@spider": "usps_collection_boxes", "spider:collection_time": "2023-08-22T08:24:26.238206"}, "geometry": {"coordinates": [-74.464437367, 40.80453829], "type": "Point"}, "id": "xDQiWlDBR_h-FkmpWOgW65Pkclc=", "properties": {"@spider": "usps_collection_boxes", "addr:city": "MORRISTOWN", "addr:country": "US", "addr:full": "166 RIDGEDALE AVE STE 9", "addr:postcode": "07960", "addr:state": "NJ", "amenity": "post_box", "brand": "United States Postal Service", "brand:wikidata": "Q668687", "collection_times": "Mo-Fr 17:00; Sa 16:00", "name": "USPS COLLECTION BOX - BLUE BOX", "note": "ON 12/24 AND 12/31, THIS BOX MAY BE COLLECTED AS EARLY AS 12 NOON.", "nsi_id": "unitedstatespostalservice-a77078", "operator": "United States Postal Service", "operator:short": "USPS", "operator:type": "public", "operator:wikidata": "Q668687", "ref": "0796000037"}, "type": "Feature"}
{"dataset_attributes": {"@spider": "usps_collection_boxes", "spider:collection_time": "2023-08-22T08:24:26.238206"}, "geometry": {"coordinates": [-74.464437367, 40.80453829], "type": "Point"}, "id": "brCR5nbARuBwODGASTyMFy7AXtU=", "properties": {"@spider": "usps_collection_boxes", "addr:city": "MORRISTOWN", "addr:country": "US", "addr:full": "166 RIDGEDALE AVE STE 9", "addr:postcode": "07960", "addr:state": "NJ", "amenity": "post_box", "brand": "United States Postal Service", "brand:wikidata": "Q668687", "collection_times": "Mo-Fr 17:00; Sa 16:00", "name": "USPS COLLECTION BOX - BLUE BOX", "note": "ON 12/24 AND 12/31, THIS BOX MAY BE COLLECTED AS EARLY AS 12 NOON.", "nsi_id": "unitedstatespostalservice-a77078", "operator": "United States Postal Service", "operator:short": "USPS", "operator:type": "public", "operator:wikidata": "Q668687", "ref": "0796000038"}, "type": "Feature"}
{"dataset_attributes": {"@spider": "usps_collection_boxes", "spider:collection_time": "2023-08-22T08:24:26.238206"}, "geometry": {"coordinates": [-74.4891983, 40.802492], "type": "Point"}, "id": "b4RnrAoLTWbo3Ru1PG1Usssow14=", "properties": {"@spider": "usps_collection_boxes", "addr:city": "MORRISTOWN", "addr:country": "US", "addr:full": "40 MILLS ST", "addr:postcode": "07960", "addr:state": "NJ", "amenity": "post_box", "brand": "United States Postal Service", "brand:wikidata": "Q668687", "collection_times": "Mo-Sa 11:00", "name": "USPS COLLECTION BOX - BLUE BOX", "nsi_id": "unitedstatespostalservice-a77078", "operator": "United States Postal Service", "operator:short": "USPS", "operator:type": "public", "operator:wikidata": "Q668687", "ref": "0796000053"}, "type": "Feature"}
{"dataset_attributes": {"@spider": "usps_collection_boxes", "spider:collection_time": "2023-08-22T08:24:26.238206"}, "geometry": {"coordinates": [-74.4810074, 40.798823], "type": "Point"}, "id": "ytmLycIKCrcuI4p2h22EmjdbpJs=", "properties": {"@spider": "usps_collection_boxes", "addr:city": "MORRISTOWN", "addr:country": "US", "addr:full": "1 SPEEDWELL AVE", "addr:postcode": "07960", "addr:state": "NJ", "amenity": "post_box", "brand": "United States Postal Service", "brand:wikidata": "Q668687", "collection_times": "Mo-Sa 11:00", "name": "USPS COLLECTION BOX - BLUE BOX", "nsi_id": "unitedstatespostalservice-a77078", "operator": "United States Postal Service", "operator:short": "USPS", "operator:type": "public", "operator:wikidata": "Q668687", "ref": "0796000058"}, "type": "Feature"}
{"dataset_attributes": {"@spider": "usps_collection_boxes", "spider:collection_time": "2023-08-22T08:24:26.238206"}, "geometry": {"coordinates": [-74.4794695, 40.77846], "type": "Point"}, "id": "KXxXV60I2YpigAXlMZBvFe1860E=", "properties": {"@spider": "usps_collection_boxes", "addr:city": "MORRISTOWN", "addr:country": "US", "addr:full": "3 COTTONWOOD RD", "addr:postcode": "07960", "addr:state": "NJ", "amenity": "post_box", "brand": "United States Postal Service", "brand:wikidata": "Q668687", "collection_times": "Mo-Sa 11:00", "name": "USPS COLLECTION BOX - BLUE BOX", "nsi_id": "unitedstatespostalservice-a77078", "operator": "United States Postal Service", "operator:short": "USPS", "operator:type": "public", "operator:wikidata": "Q668687", "ref": "0796000059"}, "type": "Feature"}
{"dataset_attributes": {"@spider": "usps_collection_boxes", "spider:collection_time": "2023-08-22T08:24:26.238206"}, "geometry": {"coordinates": [-74.4889363, 40.789407], "type": "Point"}, "id": "PVWivf_fzGDeJQvrDkHpZJX6UHc=", "properties": {"@spider": "usps_collection_boxes", "addr:city": "MORRISTOWN", "addr:country": "US", "addr:full": "95 MOUNT KEMBLE AVE", "addr:postcode": "07960", "addr:state": "NJ", "amenity": "post_box", "brand": "United States Postal Service", "brand:wikidata": "Q668687", "collection_times": "Mo-Sa 11:00", "name": "USPS COLLECTION BOX - BLUE BOX", "nsi_id": "unitedstatespostalservice-a77078", "operator": "United States Postal Service", "operator:short": "USPS", "operator:type": "public", "operator:wikidata": "Q668687", "ref": "0796000065"}, "type": "Feature"}
{"dataset_attributes": {"@spider": "usps_collection_boxes", "spider:collection_time": "2023-08-22T08:24:26.238206"}, "geometry": {"coordinates": [-74.4578333, 40.797886], "type": "Point"}, "id": "a8DI2W2-neWbhMRdOtGwh-_-qcE=", "properties": {"@spider": "usps_collection_boxes", "addr:city": "MORRISTOWN", "addr:country": "US", "addr:full": "201 LINDSLEY DR", "addr:postcode": "07960", "addr:state": "NJ", "amenity": "post_box", "brand": "United States Postal Service", "brand:wikidata": "Q668687", "collection_times": "Mo-Sa 11:00", "name": "USPS COLLECTION BOX - BLUE BOX", "nsi_id": "unitedstatespostalservice-a77078", "operator": "United States Postal Service", "operator:short": "USPS", "operator:type": "public", "operator:wikidata": "Q668687", "ref": "0796000067"}, "type": "Feature"}
{"dataset_attributes": {"@spider": "usps_collection_boxes", "spider:collection_time": "2023-08-22T08:24:26.238206"}, "geometry": {"coordinates": [-74.4821978, 40.769986], "type": "Point"}, "id": "c1x2OLTIJ8se4JqKm2z3BmwhiVA=", "properties": {"@spider": "usps_collection_boxes", "addr:city": "MORRISTOWN", "addr:country": "US", "addr:full": "261 JAMES ST", "addr:postcode": "07960", "addr:state": "NJ", "amenity": "post_box", "brand": "United States Postal Service", "brand:wikidata": "Q668687", "collection_times": "Mo-Sa 11:00", "name": "USPS COLLECTION BOX - BLUE BOX", "nsi_id": "unitedstatespostalservice-a77078", "operator": "United States Postal Service", "operator:short": "USPS", "operator:type": "public", "operator:wikidata": "Q668687", "ref": "0796000069"}, "type": "Feature"}
{"dataset_attributes": {"@spider": "usps_collection_boxes", "spider:collection_time": "2023-08-22T08:24:26.238206"}, "geometry": {"coordinates": [-74.4656138, 40.790664], "type": "Point"}, "id": "vtIGxvKMoVC52GKeMTIhaWgd6HY=", "properties": {"@spider": "usps_collection_boxes", "addr:city": "MORRISTOWN", "addr:country": "US", "addr:full": "114 FRANKLIN ST", "addr:postcode": "07960", "addr:state": "NJ", "amenity": "post_box", "brand": "United States Postal Service", "brand:wikidata": "Q668687", "collection_times": "Mo-Sa 11:00", "name": "USPS COLLECTION BOX - BLUE BOX", "nsi_id": "unitedstatespostalservice-a77078", "operator": "United States Postal Service", "operator:short": "USPS", "operator:type": "public", "operator:wikidata": "Q668687", "ref": "0796000071"}, "type": "Feature"}
{"dataset_attributes": {"@spider": "usps_collection_boxes", "spider:collection_time": "2023-08-22T08:24:26.238206"}, "geometry": {"coordinates": [-74.4852608, 40.80181], "type": "Point"}, "id": "zep3FxXRqKYbe4D1KGjoMK1V0nY=", "properties": {"@spider": "usps_collection_boxes", "addr:city": "MORRISTOWN", "addr:country": "US", "addr:full": "50 EARLY ST", "addr:postcode": "07960", "addr:state": "NJ", "amenity": "post_box", "brand": "United States Postal Service", "brand:wikidata": "Q668687", "collection_times": "Mo-Sa 11:00", "name": "USPS COLLECTION BOX - BLUE BOX", "nsi_id": "unitedstatespostalservice-a77078", "operator": "United States Postal Service", "operator:short": "USPS", "operator:type": "public", "operator:wikidata": "Q668687", "ref": "0796000073"}, "type": "Feature"}
{"dataset_attributes": {"@spider": "usps_collection_boxes", "spider:collection_time": "2023-08-22T08:24:26.238206"}, "geometry": {"coordinates": [-74.479523, 40.797033], "type": "Point"}, "id": "-ZRfjBaB8i1Hemel_LvLKpAj1_s=", "properties": {"@spider": "usps_collection_boxes", "addr:city": "MORRISTOWN", "addr:country": "US", "addr:full": "1 MORRIS ST", "addr:postcode": "07960", "addr:state": "NJ", "amenity": "post_box", "brand": "United States Postal Service", "brand:wikidata": "Q668687", "collection_times": "Mo-Fr 16:00; Sa 12:30", "name": "USPS COLLECTION BOX - PO LOBBY", "note": "ON 12/24 AND 12/31, THIS BOX MAY BE COLLECTED AS EARLY AS 12 NOON.", "nsi_id": "unitedstatespostalservice-a77078", "operator": "United States Postal Service", "operator:short": "USPS", "operator:type": "public", "operator:wikidata": "Q668687", "ref": "0796000089"}, "type": "Feature"}
{"dataset_attributes": {"@spider": "usps_collection_boxes", "spider:collection_time": "2023-08-22T08:24:26.238206"}, "geometry": {"coordinates": [-74.4655316, 40.80487], "type": "Point"}, "id": "OXpj0zWldIj6BWQo5w-Tm01iuwE=", "properties": {"@spider": "usps_collection_boxes", "addr:city": "MORRISTOWN", "addr:country": "US", "addr:full": "150 RIDGEDALE AVE", "addr:postcode": "07960", "addr:state": "NJ", "amenity": "post_box", "brand": "United States Postal Service", "brand:wikidata": "Q668687", "collection_times": "Mo-Fr 17:00; Sa 13:30", "name": "USPS COLLECTION BOX - PO LOBBY", "note": "ON 12/24 AND 12/31, THIS BOX MAY BE COLLECTED AS EARLY AS 12 NOON.", "nsi_id": "unitedstatespostalservice-a77078", "operator": "United States Postal Service", "operator:short": "USPS", "operator:type": "public", "operator:wikidata": "Q668687", "ref": "0796000090"}, "type": "Feature"}
{"dataset_attributes": {"@spider": "usps_collection_boxes", "spider:collection_time": "2023-08-22T08:24:26.238206"}, "geometry": {"coordinates": [-74.464437367, 40.80453829], "type": "Point"}, "id": "dzTQeX5OfMyFI5QVsAmnVzLXaRA=", "properties": {"@spider": "usps_collection_boxes", "addr:city": "MORRISTOWN", "addr:country": "US", "addr:full": "166 RIDGEDALE AVE STE 6", "addr:postcode": "07960", "addr:state": "NJ", "amenity": "post_box", "brand": "United States Postal Service", "brand:wikidata": "Q668687", "collection_times": "Mo-Fr 17:30; Sa 13:30", "name": "USPS COLLECTION BOX - PO LOBBY", "note": "ON 12/24 AND 12/31, THIS BOX MAY BE COLLECTED AS EARLY AS 12 NOON.", "nsi_id": "unitedstatespostalservice-a77078", "operator": "United States Postal Service", "operator:short": "USPS", "operator:type": "public", "operator:wikidata": "Q668687", "ref": "0796000096"}, "type": "Feature"}
{"dataset_attributes": {"@spider": "usps_collection_boxes", "spider:collection_time": "2023-08-22T08:24:26.238206"}, "geometry": {"coordinates": [-74.4794126257, 40.7970823849], "type": "Point"}, "id": "xYFEQLq39wqQ55x9O4if9tXHT00=", "properties": {"@spider": "usps_collection_boxes", "addr:city": "MORRISTOWN", "addr:country": "US", "addr:full": "1 MORRIS ST", "addr:postcode": "07960", "addr:state": "NJ", "amenity": "post_box", "brand": "United States Postal Service", "brand:wikidata": "Q668687", "collection_times": "Mo-Fr 16:45; Sa 12:30", "name": "USPS COLLECTION BOX - PO LOBBY", "note": "ON 12/24 AND 12/31, THIS BOX MAY BE COLLECTED AS EARLY AS 12 NOON.", "nsi_id": "unitedstatespostalservice-a77078", "operator": "United States Postal Service", "operator:short": "USPS", "operator:type": "public", "operator:wikidata": "Q668687", "ref": "0796000097"}, "type": "Feature"}
{"dataset_attributes": {"@spider": "usps_collection_boxes", "spider:collection_time": "2023-08-22T08:24:26.238206"}, "geometry": {"coordinates": [-74.479323977, 40.796836], "type": "Point"}, "id": "hnBcuvoDvPLIDzsKFgKzirkV8DQ=", "properties": {"@spider": "usps_collection_boxes", "addr:city": "MORRISTOWN", "addr:country": "US", "addr:full": "1 MORRIS ST", "addr:postcode": "07960", "addr:state": "NJ", "amenity": "post_box", "brand": "United States Postal Service", "brand:wikidata": "Q668687", "collection_times": "Mo-Fr 16:00; Sa 12:30", "name": "USPS COLLECTION BOX - BLUE BOX", "note": "ON 12/24 AND 12/31, THIS BOX MAY BE COLLECTED AS EARLY AS 12 NOON.", "nsi_id": "unitedstatespostalservice-a77078", "operator": "United States Postal Service", "operator:short": "USPS", "operator:type": "public", "operator:wikidata": "Q668687", "ref": "0796000099"}, "type": "Feature"}
{"dataset_attributes": {"@spider": "usps_collection_boxes", "spider:collection_time": "2023-08-22T08:24:26.238206"}, "geometry": {"coordinates": [-74.4433296, 40.778236], "type": "Point"}, "id": "l4yNsm45Yfc8P0IBwrbnFnXX2Lw=", "properties": {"@spider": "usps_collection_boxes", "addr:city": "MORRISTOWN", "addr:country": "US", "addr:full": "1 CONVENT RD", "addr:postcode": "07961", "addr:state": "NJ", "amenity": "post_box", "brand": "United States Postal Service", "brand:wikidata": "Q668687", "collection_times": "Mo-Fr 17:00; Sa 11:00", "name": "USPS COLLECTION BOX - BLUE BOX", "note": "ON 12/24 AND 12/31, THIS BOX MAY BE COLLECTED AS EARLY AS 12 NOON.", "nsi_id": "unitedstatespostalservice-a77078", "operator": "United States Postal Service", "operator:short": "USPS", "operator:type": "public", "operator:wikidata": "Q668687", "ref": "0796100000"}, "type": "Feature"}
{"dataset_attributes": {"@spider": "usps_collection_boxes", "spider:collection_time": "2023-08-22T08:24:26.238206"}, "geometry": {"coordinates": [-74.444901, 40.77671], "type": "Point"}, "id": "6r3gR2KAskP3xyiE1o19uTdxtlM=", "properties": {"@spider": "usps_collection_boxes", "addr:city": "MORRISTOWN", "addr:country": "US", "addr:full": "501 CONVENT RD", "addr:postcode": "07961", "addr:state": "NJ", "amenity": "post_box", "brand": "United States Postal Service", "brand:wikidata": "Q668687", "collection_times": "Mo-Fr 16:00; Sa 12:00", "name": "USPS COLLECTION BOX - PO LOBBY", "note": "ON 12/24 AND 12/31, THIS BOX MAY BE COLLECTED AS EARLY AS 12 NOON.", "nsi_id": "unitedstatespostalservice-a77078", "operator": "United States Postal Service", "operator:short": "USPS", "operator:type": "public", "operator:wikidata": "Q668687", "ref": "0796100001"}, "type": "Feature"}
{"dataset_attributes": {"@spider": "usps_collection_boxes", "spider:collection_time": "2023-08-22T08:24:26.238206"}, "geometry": {"coordinates": [-74.4433431427, 40.7781968721], "type": "Point"}, "id": "yAxd1Ddei8kUCxFoRUCqGhB2710=", "properties": {"@spider": "usps_collection_boxes", "addr:city": "MORRISTOWN", "addr:country": "US", "addr:full": "11 CONVENT RD", "addr:postcode": "07961", "addr:state": "NJ", "amenity": "post_box", "brand": "United States Postal Service", "brand:wikidata": "Q668687", "collection_times": "Mo-Fr 16:00; Sa 12:00", "name": "USPS COLLECTION BOX - PO LOBBY", "note": "ON 12/24 AND 12/31, THIS BOX MAY BE COLLECTED AS EARLY AS 12 NOON.", "nsi_id": "unitedstatespostalservice-a77078", "operator": "United States Postal Service", "operator:short": "USPS", "operator:type": "public", "operator:wikidata": "Q668687", "ref": "0796100002"}, "type": "Feature"}
{"dataset_attributes": {"@spider": "usps_collection_boxes", "spider:collection_time": "2023-08-22T08:24:26.238206"}, "geometry": {"coordinates": [-74.581923122, 40.826731771], "type": "Point"}, "id": "ffcbsWzt5lhWbdB3pKeow-4ChBA=", "properties": {"@spider": "usps_collection_boxes", "addr:city": "MOUNT FREEDOM", "addr:country": "US", "addr:full": "1250 SUSSEX TPKE", "addr:postcode": "07970", "addr:state": "NJ", "amenity": "post_box", "brand": "United States Postal Service", "brand:wikidata": "Q668687", "collection_times": "Mo-Fr 16:30; Sa 12:00", "name": "USPS COLLECTION BOX - BLUE BOX", "note": "ON 12/24 AND 12/31, THIS BOX MAY BE COLLECTED AS EARLY AS 12 NOON.", "nsi_id": "unitedstatespostalservice-a77078", "operator": "United States Postal Service", "operator:short": "USPS", "operator:type": "public", "operator:wikidata": "Q668687", "ref": "0797000001"}, "type": "Feature"}
{"dataset_attributes": {"@spider": "usps_collection_boxes", "spider:collection_time": "2023-08-22T08:24:26.238206"}, "geometry": {"coordinates": [-74.581923122, 40.826731771], "type": "Point"}, "id": "RRkcTZ2QpGTdretPMq65olElSG0=", "properties": {"@spider": "usps_collection_boxes", "addr:city": "MOUNT FREEDOM", "addr:country": "US", "addr:full": "1250 SUSSEX TPKE", "addr:postcode": "07970", "addr:state": "NJ", "amenity": "post_box", "brand": "United States Postal Service", "brand:wikidata": "Q668687", "collection_times": "Mo-Fr 16:30; Sa 12:00", "name": "USPS COLLECTION BOX - BLUE BOX", "note": "ON 12/24 AND 12/31, THIS BOX MAY BE COLLECTED AS EARLY AS 12 NOON.", "nsi_id": "unitedstatespostalservice-a77078", "operator": "United States Postal Service", "operator:short": "USPS", "operator:type": "public", "operator:wikidata": "Q668687", "ref": "0797000003"}, "type": "Feature"}
{"dataset_attributes": {"@spider": "usps_collection_boxes", "spider:collection_time": "2023-08-22T08:24:26.238206"}, "geometry": {"coordinates": [-74.581923122, 40.826731771], "type": "Point"}, "id": "eQMpaT89qBFuhfmcDVKIE5Rp5F8=", "properties": {"@spider": "usps_collection_boxes", "addr:city": "MOUNT FREEDOM", "addr:country": "US", "addr:full": "1250 SUSSEX TPKE", "addr:postcode": "07970", "addr:state": "NJ", "amenity": "post_box", "brand": "United States Postal Service", "brand:wikidata": "Q668687", "collection_times": "Mo-Fr 16:30; Sa 12:00", "name": "USPS COLLECTION BOX - PO LOBBY", "note": "ON 12/24 AND 12/31, THIS BOX MAY BE COLLECTED AS EARLY AS 12 NOON.", "nsi_id": "unitedstatespostalservice-a77078", "operator": "United States Postal Service", "operator:short": "USPS", "operator:type": "public", "operator:wikidata": "Q668687", "ref": "0797000004"}, "type": "Feature"}
{"dataset_attributes": {"@spider": "usps_collection_boxes", "spider:collection_time": "2023-08-22T08:24:26.238206"}, "geometry": {"coordinates": [-74.581923122, 40.826731771], "type": "Point"}, "id": "0gwF2DtLtuEG_icNYMWXwADCZ3c=", "properties": {"@spider": "usps_collection_boxes", "addr:city": "MOUNT FREEDOM", "addr:country": "US", "addr:full": "1250 SUSSEX TPKE", "addr:postcode": "07970", "addr:state": "NJ", "amenity": "post_box", "brand": "United States Postal Service", "brand:wikidata": "Q668687", "collection_times": "Mo-Fr 16:30; Sa 12:00", "name": "USPS COLLECTION BOX - PO LOBBY", "note": "ON 12/24 AND 12/31, THIS BOX MAY BE COLLECTED AS EARLY AS 12 NOON.", "nsi_id": "unitedstatespostalservice-a77078", "operator": "United States Postal Service", "operator:short": "USPS", "operator:type": "public", "operator:wikidata": "Q668687", "ref": "0797000005"}, "type": "Feature"}
{"dataset_attributes": {"@spider": "usps_collection_boxes", "spider:collection_time": "2023-08-22T08:24:26.238206"}, "geometry": {"coordinates": [-74.4029849, 40.694871], "type": "Point"}, "id": "vu-UA1Qu9nD7olYkHLp2C0ubDdo=", "properties": {"@spider": "usps_collection_boxes", "addr:city": "NEW PROVIDENCE", "addr:country": "US", "addr:full": "2 FOLEY PL", "addr:postcode": "07974", "addr:state": "NJ", "amenity": "post_box", "brand": "United States Postal Service", "brand:wikidata": "Q668687", "collection_times": "Mo-Sa 11:00", "name": "USPS COLLECTION BOX - BLUE BOX", "nsi_id": "unitedstatespostalservice-a77078", "operator": "United States Postal Service", "operator:short": "USPS", "operator:type": "public", "operator:wikidata": "Q668687", "ref": "0797400013"}, "type": "Feature"}
{"dataset_attributes": {"@spider": "usps_collection_boxes", "spider:collection_time": "2023-08-22T08:24:26.238206"}, "geometry": {"coordinates": [-74.405286, 40.697001], "type": "Point"}, "id": "vsT-ULDpt8oyfYxXZ7XVlgJkG7c=", "properties": {"@spider": "usps_collection_boxes", "addr:city": "NEW PROVIDENCE", "addr:country": "US", "addr:full": "598 CENTRAL AVE", "addr:postcode": "07974", "addr:state": "NJ", "amenity": "post_box", "brand": "United States Postal Service", "brand:wikidata": "Q668687", "collection_times": "Mo-Fr 17:00; Sa 15:00", "name": "USPS COLLECTION BOX - BLUE BOX", "note": "ON 12/24 AND 12/31, THIS BOX MAY BE COLLECTED AS EARLY AS 12 NOON.", "nsi_id": "unitedstatespostalservice-a77078", "operator": "United States Postal Service", "operator:short": "USPS", "operator:type": "public", "operator:wikidata": "Q668687", "ref": "0797400023"}, "type": "Feature"}
{"dataset_attributes": {"@spider": "usps_collection_boxes", "spider:collection_time": "2023-08-22T08:24:26.238206"}, "geometry": {"coordinates": [-74.3939427, 40.687644], "type": "Point"}, "id": "Dl5MWmfsSfmHoqw7KUd2lK7vnDA=", "properties": {"@spider": "usps_collection_boxes", "addr:city": "NEW PROVIDENCE", "addr:country": "US", "addr:full": "430 MOUNTAIN AVE", "addr:postcode": "07974", "addr:state": "NJ", "amenity": "post_box", "brand": "United States Postal Service", "brand:wikidata": "Q668687", "collection_times": "Mo-Sa 11:00", "name": "USPS COLLECTION BOX - BLUE BOX", "nsi_id": "unitedstatespostalservice-a77078", "operator": "United States Postal Service", "operator:short": "USPS", "operator:type": "public", "operator:wikidata": "Q668687", "ref": "0797400024"}, "type": "Feature"}
{"dataset_attributes": {"@spider": "usps_collection_boxes", "spider:collection_time": "2023-08-22T08:24:26.238206"}, "geometry": {"coordinates": [-74.3990205, 40.682933], "type": "Point"}, "id": "HsHEwufL7ATpEkMSt2WysY8E0uw=", "properties": {"@spider": "usps_collection_boxes", "addr:city": "NEW PROVIDENCE", "addr:country": "US", "addr:full": "600 MOUNTAIN AVE", "addr:postcode": "07974", "addr:state": "NJ", "amenity": "post_box", "brand": "United States Postal Service", "brand:wikidata": "Q668687", "collection_times": "Mo-Fr 11:00", "name": "USPS COLLECTION BOX - BLUE BOX", "nsi_id": "unitedstatespostalservice-a77078", "operator": "United States Postal Service", "operator:short": "USPS", "operator:type": "public", "operator:wikidata": "Q668687", "ref": "0797400025"}, "type": "Feature"}
{"dataset_attributes": {"@spider": "usps_collection_boxes", "spider:collection_time": "2023-08-22T08:24:26.238206"}, "geometry": {"coordinates": [-74.405058, 40.697923], "type": "Point"}, "id": "83uxFhWsOSx9oIr6fp8Zp1ee9v4=", "properties": {"@spider": "usps_collection_boxes", "addr:city": "NEW PROVIDENCE", "addr:country": "US", "addr:full": "598 CENTRAL AVE", "addr:postcode": "07974", "addr:state": "NJ", "amenity": "post_box", "brand": "United States Postal Service", "brand:wikidata": "Q668687", "collection_times": "Mo-Fr 16:30; Sa 14:00", "name": "USPS COLLECTION BOX - PO LOBBY", "note": "ON 12/24 AND 12/31, THIS BOX MAY BE COLLECTED AS EARLY AS 12 NOON.", "nsi_id": "unitedstatespostalservice-a77078", "operator": "United States Postal Service", "operator:short": "USPS", "operator:type": "public", "operator:wikidata": "Q668687", "ref": "0797400027"}, "type": "Feature"}
{"dataset_attributes": {"@spider": "usps_collection_boxes", "spider:collection_time": "2023-08-22T08:24:26.238206"}, "geometry": {"coordinates": [-74.4050615981, 40.6979155273], "type": "Point"}, "id": "7sHhTKnjPKLqTEc6FiJcwQohvW4=", "properties": {"@spider": "usps_collection_boxes", "addr:city": "NEW PROVIDENCE", "addr:country": "US", "addr:full": "598 CENTRAL AVE STE 7", "addr:postcode": "07974", "addr:state": "NJ", "amenity": "post_box", "brand": "United States Postal Service", "brand:wikidata": "Q668687", "collection_times": "Mo-Fr 16:30; Sa 14:00", "name": "USPS COLLECTION BOX - PO LOBBY", "note": "ON 12/24 AND 12/31, THIS BOX MAY BE COLLECTED AS EARLY AS 12 NOON.", "nsi_id": "unitedstatespostalservice-a77078", "operator": "United States Postal Service", "operator:short": "USPS", "operator:type": "public", "operator:wikidata": "Q668687", "ref": "0797400030"}, "type": "Feature"}
{"dataset_attributes": {"@spider": "usps_collection_boxes", "spider:collection_time": "2023-08-22T08:24:26.238206"}, "geometry": {"coordinates": [-74.4053036944, 40.7023846829], "type": "Point"}, "id": "JblrvYdbGlnRCxae4EzEkZUmB9A=", "properties": {"@spider": "usps_collection_boxes", "addr:city": "NEW PROVIDENCE", "addr:country": "US", "addr:full": "111 SOUTH ST", "addr:postcode": "07974", "addr:state": "NJ", "amenity": "post_box", "brand": "United States Postal Service", "brand:wikidata": "Q668687", "collection_times": "Mo-Sa 11:00", "name": "USPS COLLECTION BOX - BLUE BOX", "nsi_id": "unitedstatespostalservice-a77078", "operator": "United States Postal Service", "operator:short": "USPS", "operator:type": "public", "operator:wikidata": "Q668687", "ref": "0797400031"}, "type": "Feature"}
{"dataset_attributes": {"@spider": "usps_collection_boxes", "spider:collection_time": "2023-08-22T08:24:26.238206"}, "geometry": {"coordinates": [-74.494885598, 40.744390507], "type": "Point"}, "id": "vV-Th39DZJjapMi9gIVKf7ztf-s=", "properties": {"@spider": "usps_collection_boxes", "addr:city": "NEW VERNON", "addr:country": "US", "addr:full": "12 VILLAGE RD", "addr:postcode": "07976", "addr:state": "NJ", "amenity": "post_box", "brand": "United States Postal Service", "brand:wikidata": "Q668687", "collection_times": "Mo-Fr 16:30; Sa 11:30", "name": "USPS COLLECTION BOX - PO LOBBY", "note": "ON 12/24 AND 12/31, THIS BOX MAY BE COLLECTED AS EARLY AS 12 NOON.", "nsi_id": "unitedstatespostalservice-a77078", "operator": "United States Postal Service", "operator:short": "USPS", "operator:type": "public", "operator:wikidata": "Q668687", "ref": "0797600002"}, "type": "Feature"}
{"dataset_attributes": {"@spider": "usps_collection_boxes", "spider:collection_time": "2023-08-22T08:24:26.238206"}, "geometry": {"coordinates": [-74.494885598, 40.744390507], "type": "Point"}, "id": "0dnzxlCxGUNvKT76_K7vhL79UY0=", "properties": {"@spider": "usps_collection_boxes", "addr:city": "NEW VERNON", "addr:country": "US", "addr:full": "12 VILLAGE RD", "addr:postcode": "07976", "addr:state": "NJ", "amenity": "post_box", "brand": "United States Postal Service", "brand:wikidata": "Q668687", "collection_times": "Mo-Fr 16:30; Sa 11:30", "name": "USPS COLLECTION BOX - BLUE BOX", "note": "ON 12/24 AND 12/31, THIS BOX MAY BE COLLECTED AS EARLY AS 12 NOON.", "nsi_id": "unitedstatespostalservice-a77078", "operator": "United States Postal Service", "operator:short": "USPS", "operator:type": "public", "operator:wikidata": "Q668687", "ref": "0797600003"}, "type": "Feature"}
{"dataset_attributes": {"@spider": "usps_collection_boxes", "spider:collection_time": "2023-08-22T08:24:26.238206"}, "geometry": {"coordinates": [-74.494885598, 40.744390507], "type": "Point"}, "id": "UR12bRKuf6ryFTKDlVHlY-Kdla8=", "properties": {"@spider": "usps_collection_boxes", "addr:city": "NEW VERNON", "addr:country": "US", "addr:full": "12 VILLAGE RD", "addr:postcode": "07976", "addr:state": "NJ", "amenity": "post_box", "brand": "United States Postal Service", "brand:wikidata": "Q668687", "collection_times": "Mo-Fr 16:30; Sa 11:30", "name": "USPS COLLECTION BOX - PO LOBBY", "note": "ON 12/24 AND 12/31, THIS BOX MAY BE COLLECTED AS EARLY AS 12 NOON.", "nsi_id": "unitedstatespostalservice-a77078", "operator": "United States Postal Service", "operator:short": "USPS", "operator:type": "public", "operator:wikidata": "Q668687", "ref": "0797600004"}, "type": "Feature"}
{"dataset_attributes": {"@spider": "usps_collection_boxes", "spider:collection_time": "2023-08-22T08:24:26.238206"}, "geometry": {"coordinates": [-74.659127464, 40.715563213], "type": "Point"}, "id": "5R1jeUye7hZ55HZmzqSpCfpqpmM=", "properties": {"@spider": "usps_collection_boxes", "addr:city": "PEAPACK", "addr:country": "US", "addr:full": "155 MAIN ST", "addr:postcode": "07977", "addr:state": "NJ", "amenity": "post_box", "brand": "United States Postal Service", "brand:wikidata": "Q668687", "collection_times": "Mo-Fr 16:30; Sa 12:00", "name": "USPS COLLECTION BOX - BLUE BOX", "note": "ON 12/24 AND 12/31, THIS BOX MAY BE COLLECTED AS EARLY AS 12 NOON.", "nsi_id": "unitedstatespostalservice-a77078", "operator": "United States Postal Service", "operator:short": "USPS", "operator:type": "public", "operator:wikidata": "Q668687", "ref": "0797700001"}, "type": "Feature"}
{"dataset_attributes": {"@spider": "usps_collection_boxes", "spider:collection_time": "2023-08-22T08:24:26.238206"}, "geometry": {"coordinates": [-74.659127464, 40.715563213], "type": "Point"}, "id": "FdNRH8XreJvAM-_V-ncxujjiiZQ=", "properties": {"@spider": "usps_collection_boxes", "addr:city": "PEAPACK", "addr:country": "US", "addr:full": "155 MAIN ST", "addr:postcode": "07977", "addr:state": "NJ", "amenity": "post_box", "brand": "United States Postal Service", "brand:wikidata": "Q668687", "collection_times": "Mo-Fr 16:30; Sa 12:00", "name": "USPS COLLECTION BOX - PO LOBBY", "note": "ON 12/24 AND 12/31, THIS BOX MAY BE COLLECTED AS EARLY AS 12 NOON.", "nsi_id": "unitedstatespostalservice-a77078", "operator": "United States Postal Service", "operator:short": "USPS", "operator:type": "public", "operator:wikidata": "Q668687", "ref": "0797700002"}, "type": "Feature"}
{"dataset_attributes": {"@spider": "usps_collection_boxes", "spider:collection_time": "2023-08-22T08:24:26.238206"}, "geometry": {"coordinates": [-74.659127464, 40.715563213], "type": "Point"}, "id": "zk-yX9-fM6fA_Pc2TsxRdz6ie6w=", "properties": {"@spider": "usps_collection_boxes", "addr:city": "PEAPACK", "addr:country": "US", "addr:full": "155 MAIN ST", "addr:postcode": "07977", "addr:state": "NJ", "amenity": "post_box", "brand": "United States Postal Service", "brand:wikidata": "Q668687", "collection_times": "Mo-Fr 16:30; Sa 12:00", "name": "USPS COLLECTION BOX - PO LOBBY", "note": "ON 12/24 AND 12/31, THIS BOX MAY BE COLLECTED AS EARLY AS 12 NOON.", "nsi_id": "unitedstatespostalservice-a77078", "operator": "United States Postal Service", "operator:short": "USPS", "operator:type": "public", "operator:wikidata": "Q668687", "ref": "0797700003"}, "type": "Feature"}
{"dataset_attributes": {"@spider": "usps_collection_boxes", "spider:collection_time": "2023-08-22T08:24:26.238206"}, "geometry": {"coordinates": [-74.632287269, 40.514589866], "type": "Point"}, "id": "bc-lIFflYVXMt9zB2HzKR3ut_gU=", "properties": {"@spider": "usps_collection_boxes", "addr:city": "PLUCKEMIN", "addr:country": "US", "addr:full": "318 US HIGHWAY 206", "addr:postcode": "07978", "addr:state": "NJ", "amenity": "post_box", "brand": "United States Postal Service", "brand:wikidata": "Q668687", "collection_times": "Mo-Fr 16:15; Sa 11:15", "name": "USPS COLLECTION BOX - BLUE BOX", "note": "ON 12/24 AND 12/31, THIS BOX MAY BE COLLECTED AS EARLY AS 12 NOON.", "nsi_id": "unitedstatespostalservice-a77078", "operator": "United States Postal Service", "operator:short": "USPS", "operator:type": "public", "operator:wikidata": "Q668687", "ref": "0797800002"}, "type": "Feature"}
{"dataset_attributes": {"@spider": "usps_collection_boxes", "spider:collection_time": "2023-08-22T08:24:26.238206"}, "geometry": {"coordinates": [-74.632287269, 40.514589866], "type": "Point"}, "id": "_hQ3n5dFHR3tvVPrv4Oa35S1Xq4=", "properties": {"@spider": "usps_collection_boxes", "addr:city": "PLUCKEMIN", "addr:country": "US", "addr:full": "318 US HIGHWAY 206", "addr:postcode": "07978", "addr:state": "NJ", "amenity": "post_box", "brand": "United States Postal Service", "brand:wikidata": "Q668687", "collection_times": "Mo-Fr 16:30; Sa 11:30", "name": "USPS COLLECTION BOX - PO LOBBY", "note": "ON 12/24 AND 12/31, THIS BOX MAY BE COLLECTED AS EARLY AS 12 NOON.", "nsi_id": "unitedstatespostalservice-a77078", "operator": "United States Postal Service", "operator:short": "USPS", "operator:type": "public", "operator:wikidata": "Q668687", "ref": "0797800003"}, "type": "Feature"}
{"dataset_attributes": {"@spider": "usps_collection_boxes", "spider:collection_time": "2023-08-22T08:24:26.238206"}, "geometry": {"coordinates": [-74.632287269, 40.514589866], "type": "Point"}, "id": "fNuQI6GvwAX5U53t76RAroz0Wds=", "properties": {"@spider": "usps_collection_boxes", "addr:city": "PLUCKEMIN", "addr:country": "US", "addr:full": "318 US HIGHWAY 206", "addr:postcode": "07978", "addr:state": "NJ", "amenity": "post_box", "brand": "United States Postal Service", "brand:wikidata": "Q668687", "collection_times": "Mo-Fr 16:00; Sa 11:00", "name": "USPS COLLECTION BOX - PO LOBBY", "note": "ON 12/24 AND 12/31, THIS BOX MAY BE COLLECTED AS EARLY AS 12 NOON.", "nsi_id": "unitedstatespostalservice-a77078", "operator": "United States Postal Service", "operator:short": "USPS", "operator:type": "public", "operator:wikidata": "Q668687", "ref": "0797800004"}, "type": "Feature"}
{"dataset_attributes": {"@spider": "usps_collection_boxes", "spider:collection_time": "2023-08-22T08:24:26.238206"}, "geometry": {"coordinates": [-74.717067, 40.714544], "type": "Point"}, "id": "ELth1Hr8c-zOxOH2r9tRntleDvo=", "properties": {"@spider": "usps_collection_boxes", "addr:city": "POTTERSVILLE", "addr:country": "US", "addr:full": "5 STATE ROUTE 512", "addr:postcode": "07979", "addr:state": "NJ", "amenity": "post_box", "brand": "United States Postal Service", "brand:wikidata": "Q668687", "collection_times": "Mo-Fr 16:30; Sa 12:00", "name": "USPS COLLECTION BOX - BLUE BOX", "note": "ON 12/24 AND 12/31, THIS BOX MAY BE COLLECTED AS EARLY AS 12 NOON.", "nsi_id": "unitedstatespostalservice-a77078", "operator": "United States Postal Service", "operator:short": "USPS", "operator:type": "public", "operator:wikidata": "Q668687", "ref": "0797900001"}, "type": "Feature"}
{"dataset_attributes": {"@spider": "usps_collection_boxes", "spider:collection_time": "2023-08-22T08:24:26.238206"}, "geometry": {"coordinates": [-74.721349408, 40.715541181], "type": "Point"}, "id": "pcZne3HQgqaWrfRntV5JhLOQvB4=", "properties": {"@spider": "usps_collection_boxes", "addr:city": "POTTERSVILLE", "addr:country": "US", "addr:full": "5 FAIRMOUNT RD E", "addr:postcode": "07979", "addr:state": "NJ", "amenity": "post_box", "brand": "United States Postal Service", "brand:wikidata": "Q668687", "collection_times": "Mo-Fr 16:30; Sa 11:30", "name": "USPS COLLECTION BOX - PO LOBBY", "note": "ON 12/24 AND 12/31, THIS BOX MAY BE COLLECTED AS EARLY AS 12 NOON.", "nsi_id": "unitedstatespostalservice-a77078", "operator": "United States Postal Service", "operator:short": "USPS", "operator:type": "public", "operator:wikidata": "Q668687", "ref": "0797900003"}, "type": "Feature"}
{"dataset_attributes": {"@spider": "usps_collection_boxes", "spider:collection_time": "2023-08-22T08:24:26.238206"}, "geometry": {"coordinates": [-74.490855, 40.67149], "type": "Point"}, "id": "MkePbsyqzi04-fPkFYT7cRbO-gc=", "properties": {"@spider": "usps_collection_boxes", "addr:city": "STIRLING", "addr:country": "US", "addr:full": "184 CENTRAL AVE", "addr:postcode": "07980", "addr:state": "NJ", "amenity": "post_box", "brand": "United States Postal Service", "brand:wikidata": "Q668687", "collection_times": "Mo-Sa 11:00", "name": "USPS COLLECTION BOX - BLUE BOX", "nsi_id": "unitedstatespostalservice-a77078", "operator": "United States Postal Service", "operator:short": "USPS", "operator:type": "public", "operator:wikidata": "Q668687", "ref": "0798000001"}, "type": "Feature"}
{"dataset_attributes": {"@spider": "usps_collection_boxes", "spider:collection_time": "2023-08-22T08:24:26.238206"}, "geometry": {"coordinates": [-74.486599, 40.668244], "type": "Point"}, "id": "V17FUKJn7dZujuwpqwr9Ryahwro=", "properties": {"@spider": "usps_collection_boxes", "addr:city": "STIRLING", "addr:country": "US", "addr:full": "1153 VALLEY RD", "addr:postcode": "07980", "addr:state": "NJ", "amenity": "post_box", "brand": "United States Postal Service", "brand:wikidata": "Q668687", "collection_times": "Mo-Fr 17:00; Sa 13:00", "name": "USPS COLLECTION BOX - BLUE BOX", "note": "ON 12/24 AND 12/31, THIS BOX MAY BE COLLECTED AS EARLY AS 12 NOON.", "nsi_id": "unitedstatespostalservice-a77078", "operator": "United States Postal Service", "operator:short": "USPS", "operator:type": "public", "operator:wikidata": "Q668687", "ref": "0798000002"}, "type": "Feature"}
{"dataset_attributes": {"@spider": "usps_collection_boxes", "spider:collection_time": "2023-08-22T08:24:26.238206"}, "geometry": {"coordinates": [-74.486599, 40.668244], "type": "Point"}, "id": "1yzZpZnT-aAezCllbvoaQHFonoM=", "properties": {"@spider": "usps_collection_boxes", "addr:city": "STIRLING", "addr:country": "US", "addr:full": "1153 VALLEY RD", "addr:postcode": "07980", "addr:state": "NJ", "amenity": "post_box", "brand": "United States Postal Service", "brand:wikidata": "Q668687", "collection_times": "Mo-Fr 17:00; Sa 13:00", "name": "USPS COLLECTION BOX - PO LOBBY", "note": "ON 12/24 AND 12/31, THIS BOX MAY BE COLLECTED AS EARLY AS 12 NOON.", "nsi_id": "unitedstatespostalservice-a77078", "operator": "United States Postal Service", "operator:short": "USPS", "operator:type": "public", "operator:wikidata": "Q668687", "ref": "0798000003"}, "type": "Feature"}
{"dataset_attributes": {"@spider": "usps_collection_boxes", "spider:collection_time": "2023-08-22T08:24:26.238206"}, "geometry": {"coordinates": [-74.4884108963, 40.6681105128], "type": "Point"}, "id": "6Ux8frDTZcQzMy6TYmAKJFeOzaw=", "properties": {"@spider": "usps_collection_boxes", "addr:city": "STIRLING", "addr:country": "US", "addr:full": "1153 VALLEY RD STE 8", "addr:postcode": "07980", "addr:state": "NJ", "amenity": "post_box", "brand": "United States Postal Service", "brand:wikidata": "Q668687", "collection_times": "Mo-Fr 16:30; Sa 12:00", "name": "USPS COLLECTION BOX - PO LOBBY", "note": "ON 12/24 AND 12/31, THIS BOX MAY BE COLLECTED AS EARLY AS 12 NOON.", "nsi_id": "unitedstatespostalservice-a77078", "operator": "United States Postal Service", "operator:short": "USPS", "operator:type": "public", "operator:wikidata": "Q668687", "ref": "0798000006"}, "type": "Feature"}
{"dataset_attributes": {"@spider": "usps_collection_boxes", "spider:collection_time": "2023-08-22T08:24:26.238206"}, "geometry": {"coordinates": [-74.4164826, 40.823844], "type": "Point"}, "id": "-x9ua_shSemEQ8WCwHW9E83VsXU=", "properties": {"@spider": "usps_collection_boxes", "addr:city": "WHIPPANY", "addr:country": "US", "addr:full": "628 STATE ROUTE 10", "addr:postcode": "07981", "addr:state": "NJ", "amenity": "post_box", "brand": "United States Postal Service", "brand:wikidata": "Q668687", "collection_times": "Mo-Fr 14:00; Sa 11:00", "name": "USPS COLLECTION BOX - BLUE BOX", "note": "ON 12/24 AND 12/31, THIS BOX MAY BE COLLECTED AS EARLY AS 12 NOON.", "nsi_id": "unitedstatespostalservice-a77078", "operator": "United States Postal Service", "operator:short": "USPS", "operator:type": "public", "operator:wikidata": "Q668687", "ref": "0798100001"}, "type": "Feature"}
{"dataset_attributes": {"@spider": "usps_collection_boxes", "spider:collection_time": "2023-08-22T08:24:26.238206"}, "geometry": {"coordinates": [-74.419016336, 40.824951366], "type": "Point"}, "id": "NX2c2xhA0kHTPSqg_HKnO5L2FcU=", "properties": {"@spider": "usps_collection_boxes", "addr:city": "WHIPPANY", "addr:country": "US", "addr:full": "699 STATE ROUTE 10", "addr:postcode": "07981", "addr:state": "NJ", "amenity": "post_box", "brand": "United States Postal Service", "brand:wikidata": "Q668687", "collection_times": "Mo-Fr 14:00; Sa 11:00", "name": "USPS COLLECTION BOX - BLUE BOX", "note": "ON 12/24 AND 12/31, THIS BOX MAY BE COLLECTED AS EARLY AS 12 NOON.", "nsi_id": "unitedstatespostalservice-a77078", "operator": "United States Postal Service", "operator:short": "USPS", "operator:type": "public", "operator:wikidata": "Q668687", "ref": "0798100003"}, "type": "Feature"}
{"dataset_attributes": {"@spider": "usps_collection_boxes", "spider:collection_time": "2023-08-22T08:24:26.238206"}, "geometry": {"coordinates": [-74.4089836, 40.820216], "type": "Point"}, "id": "mBtXySqD3h4bJwLbhg3vhc-5cqw=", "properties": {"@spider": "usps_collection_boxes", "addr:city": "WHIPPANY", "addr:country": "US", "addr:full": "9 WHIPPANY RD", "addr:postcode": "07981", "addr:state": "NJ", "amenity": "post_box", "brand": "United States Postal Service", "brand:wikidata": "Q668687", "collection_times": "Mo-Fr 14:00; Sa 11:00", "name": "USPS COLLECTION BOX - BLUE BOX", "note": "ON 12/24 AND 12/31, THIS BOX MAY BE COLLECTED AS EARLY AS 12 NOON.", "nsi_id": "unitedstatespostalservice-a77078", "operator": "United States Postal Service", "operator:short": "USPS", "operator:type": "public", "operator:wikidata": "Q668687", "ref": "0798100005"}, "type": "Feature"}
{"dataset_attributes": {"@spider": "usps_collection_boxes", "spider:collection_time": "2023-08-22T08:24:26.238206"}, "geometry": {"coordinates": [-74.433307, 40.830735], "type": "Point"}, "id": "gb5Lnn-IKU-zstQWNsb-8OjOhfk=", "properties": {"@spider": "usps_collection_boxes", "addr:city": "WHIPPANY", "addr:country": "US", "addr:full": "1000 STATE ROUTE 10", "addr:postcode": "07981", "addr:state": "NJ", "amenity": "post_box", "brand": "United States Postal Service", "brand:wikidata": "Q668687", "collection_times": "Mo-Fr 16:00; Sa 11:00", "name": "USPS COLLECTION BOX - BLUE BOX", "note": "ON 12/24 AND 12/31, THIS BOX MAY BE COLLECTED AS EARLY AS 12 NOON.", "nsi_id": "unitedstatespostalservice-a77078", "operator": "United States Postal Service", "operator:short": "USPS", "operator:type": "public", "operator:wikidata": "Q668687", "ref": "0798100018"}, "type": "Feature"}
