{"dataset_attributes": {"@spider": "usps_collection_boxes", "spider:collection_time": "2023-12-10T08:24:07.887270"}, "geometry": {"coordinates": [-75.122318, 39.945872], "type": "Point"}, "id": "A1XSW8SZogJQJlHM9uz2GjLXYGA=", "properties": {"@spider": "usps_collection_boxes", "addr:city": "CAMDEN", "addr:country": "US", "addr:full": "401 MARKET ST", "addr:postcode": "08101", "addr:state": "NJ", "amenity": "post_box", "brand": "United States Postal Service", "brand:wikidata": "Q668687", "collection_times": "Mo-Fr 17:00; Sa 12:30", "name": "USPS COLLECTION BOX - PO LOBBY", "note": "ON 12/24 AND 12/31, THIS BOX MAY BE COLLECTED AS EARLY AS 12 NOON.", "nsi_id": "unitedstatespostalservice-a77078", "operator": "United States Postal Service", "operator:short": "USPS", "operator:type": "public", "operator:wikidata": "Q668687", "ref": "0810100000"}, "type": "Feature"}
{"dataset_attributes": {"@spider": "usps_collection_boxes", "spider:collection_time": "2023-12-10T08:24:07.887270"}, "geometry": {"coordinates": [-75.122382336, 39.945781973], "type": "Point"}, "id": "pVRDxb5Kna3J6nHPbrtQPcVPb9s=", "properties": {"@spider": "usps_collection_boxes", "addr:city": "CAMDEN", "addr:country": "US", "addr:full": "400 MARKET ST", "addr:postcode": "08102", "addr:state": "NJ", "amenity": "post_box", "brand": "United States Postal Service", "brand:wikidata": "Q668687", "collection_times": "Mo-Fr 14:30; Sa 10:00", "name": "USPS COLLECTION BOX - BLUE BOX", "note": "ON 12/24 AND 12/31, THIS BOX MAY BE COLLECTED AS EARLY AS 12 NOON.", "nsi_id": "unitedstatespostalservice-a77078", "operator": "United States Postal Service", "operator:short": "USPS", "operator:type": "public", "operator:wikidata": "Q668687", "ref": "0810200004"}, "type": "Feature"}
{"dataset_attributes": {"@spider": "usps_collection_boxes", "spider:collection_time": "2023-12-10T08:24:07.887270"}, "geometry": {"coordinates": [-75.1259921, 39.94807], "type": "Point"}, "id": "dLgS1kz_Js5XQS7m2JLsId9H1GU=", "properties": {"@spider": "usps_collection_boxes", "addr:city": "CAMDEN", "addr:country": "US", "addr:full": "200 N FRONT ST", "addr:postcode": "08102", "addr:state": "NJ", "amenity": "post_box", "brand": "United States Postal Service", "brand:wikidata": "Q668687", "collection_times": "Mo-Fr 14:30", "name": "USPS COLLECTION BOX - BLUE BOX", "note": "ON 12/24 AND 12/31, THIS BOX MAY BE COLLECTED AS EARLY AS 12 NOON.", "nsi_id": "unitedstatespostalservice-a77078", "operator": "United States Postal Service", "operator:short": "USPS", "operator:type": "public", "operator:wikidata": "Q668687", "ref": "0810200010"}, "type": "Feature"}
{"dataset_attributes": {"@spider": "usps_collection_boxes", "spider:collection_time": "2023-12-10T08:24:07.887270"}, "geometry": {"coordinates": [-75.122007115, 39.945781024], "type": "Point"}, "id": "ZAfduN3mOCN59Q6ynnx0YOmAkWA=", "properties": {"@spider": "usps_collection_boxes", "addr:city": "CAMDEN", "addr:country": "US", "addr:full": "401 MARKET ST", "addr:postcode": "08102", "addr:state": "NJ", "amenity": "post_box", "brand": "United States Postal Service", "brand:wikidata": "Q668687", "collection_times": "Mo-Fr 17:00; Sa 12:30", "name": "USPS COLLECTION BOX - PO LOBBY", "note": "ON 12/24 AND 12/31, THIS BOX MAY BE COLLECTED AS EARLY AS 12 NOON.", "nsi_id": "unitedstatespostalservice-a77078", "operator": "United States Postal Service", "operator:short": "USPS", "operator:type": "public", "operator:wikidata": "Q668687", "ref": "0810200049"}, "type": "Feature"}
{"dataset_attributes": {"@spider": "usps_collection_boxes", "spider:collection_time": "2023-12-10T08:24:07.887270"}, "geometry": {"coordinates": [-75.1144743, 39.940738], "type": "Point"}, "id": "O5xq1OF7jtFVz8hwdwn6GOvNudI=", "properties": {"@spider": "usps_collection_boxes", "addr:city": "CAMDEN", "addr:country": "US", "addr:full": "3 COOPER PLZ", "addr:postcode": "08103", "addr:state": "NJ", "amenity": "post_box", "brand": "United States Postal Service", "brand:wikidata": "Q668687", "collection_times": "Mo-Fr 14:30", "name": "USPS COLLECTION BOX - BLUE BOX", "note": "ON 12/24 AND 12/31, THIS BOX MAY BE COLLECTED AS EARLY AS 12 NOON.", "nsi_id": "unitedstatespostalservice-a77078", "operator": "United States Postal Service", "operator:short": "USPS", "operator:type": "public", "operator:wikidata": "Q668687", "ref": "0810300001"}, "type": "Feature"}
{"dataset_attributes": {"@spider": "usps_collection_boxes", "spider:collection_time": "2023-12-10T08:24:07.887270"}, "geometry": {"coordinates": [-75.1191015, 39.943803], "type": "Point"}, "id": "2OnXSMmwsu540hUouTfMOUZcnts=", "properties": {"@spider": "usps_collection_boxes", "addr:city": "CAMDEN", "addr:country": "US", "addr:full": "1 S BROADWAY", "addr:postcode": "08103", "addr:state": "NJ", "amenity": "post_box", "brand": "United States Postal Service", "brand:wikidata": "Q668687", "collection_times": "Mo-Fr 14:30; Sa 11:30", "name": "USPS COLLECTION BOX - BLUE BOX", "note": "ON 12/24 AND 12/31, THIS BOX MAY BE COLLECTED AS EARLY AS 12 NOON.", "nsi_id": "unitedstatespostalservice-a77078", "operator": "United States Postal Service", "operator:short": "USPS", "operator:type": "public", "operator:wikidata": "Q668687", "ref": "0810300006"}, "type": "Feature"}
{"dataset_attributes": {"@spider": "usps_collection_boxes", "spider:collection_time": "2023-12-10T08:24:07.887270"}, "geometry": {"coordinates": [-75.1030526, 39.932213], "type": "Point"}, "id": "4DCcQhgataIL-ysZy6OH3kal830=", "properties": {"@spider": "usps_collection_boxes", "addr:city": "CAMDEN", "addr:country": "US", "addr:full": "1201 HADDON AVE", "addr:postcode": "08103", "addr:state": "NJ", "amenity": "post_box", "brand": "United States Postal Service", "brand:wikidata": "Q668687", "collection_times": "Mo-Fr 14:00; Sa 11:30", "name": "USPS COLLECTION BOX - BLUE BOX", "note": "ON 12/24 AND 12/31, THIS BOX MAY BE COLLECTED AS EARLY AS 12 NOON.", "nsi_id": "unitedstatespostalservice-a77078", "operator": "United States Postal Service", "operator:short": "USPS", "operator:type": "public", "operator:wikidata": "Q668687", "ref": "0810300014"}, "type": "Feature"}
{"dataset_attributes": {"@spider": "usps_collection_boxes", "spider:collection_time": "2023-12-10T08:24:07.887270"}, "geometry": {"coordinates": [-75.0954611, 39.927438], "type": "Point"}, "id": "dmtPSnPZrhX-XrHd_FqU3tI6_bY=", "properties": {"@spider": "usps_collection_boxes", "addr:city": "CAMDEN", "addr:country": "US", "addr:full": "1600 HADDON AVE", "addr:postcode": "08103", "addr:state": "NJ", "amenity": "post_box", "brand": "United States Postal Service", "brand:wikidata": "Q668687", "collection_times": "Mo-Fr 14:00; Sa 09:00", "name": "USPS COLLECTION BOX - BLUE BOX", "note": "ON 12/24 AND 12/31, THIS BOX MAY BE COLLECTED AS EARLY AS 12 NOON.", "nsi_id": "unitedstatespostalservice-a77078", "operator": "United States Postal Service", "operator:short": "USPS", "operator:type": "public", "operator:wikidata": "Q668687", "ref": "0810300052"}, "type": "Feature"}
{"dataset_attributes": {"@spider": "usps_collection_boxes", "spider:collection_time": "2023-12-10T08:24:07.887270"}, "geometry": {"coordinates": [-75.1170852, 39.943307], "type": "Point"}, "id": "N9kdfbDUVr3kX6CSyfYXol2DNXQ=", "properties": {"@spider": "usps_collection_boxes", "addr:city": "CAMDEN", "addr:country": "US", "addr:full": "101 HADDON AVE", "addr:postcode": "08103", "addr:state": "NJ", "amenity": "post_box", "brand": "United States Postal Service", "brand:wikidata": "Q668687", "collection_times": "Mo-Fr 14:30", "name": "USPS COLLECTION BOX - BLUE BOX", "note": "ON 12/24 AND 12/31, THIS BOX MAY BE COLLECTED AS EARLY AS 12 NOON.", "nsi_id": "unitedstatespostalservice-a77078", "operator": "United States Postal Service", "operator:short": "USPS", "operator:type": "public", "operator:wikidata": "Q668687", "ref": "0810300057"}, "type": "Feature"}
{"dataset_attributes": {"@spider": "usps_collection_boxes", "spider:collection_time": "2023-12-10T08:24:07.887270"}, "geometry": {"coordinates": [-75.1194661, 39.929279], "type": "Point"}, "id": "PBSCuHj57mGXeSi7FmQlUJLrsIM=", "properties": {"@spider": "usps_collection_boxes", "addr:city": "CAMDEN", "addr:country": "US", "addr:full": "1400 S BROADWAY", "addr:postcode": "08104", "addr:state": "NJ", "amenity": "post_box", "brand": "United States Postal Service", "brand:wikidata": "Q668687", "collection_times": "Mo-Fr 14:00; Sa 10:15", "name": "USPS COLLECTION BOX - BLUE BOX", "note": "ON 12/24 AND 12/31, THIS BOX MAY BE COLLECTED AS EARLY AS 12 NOON.", "nsi_id": "unitedstatespostalservice-a77078", "operator": "United States Postal Service", "operator:short": "USPS", "operator:type": "public", "operator:wikidata": "Q668687", "ref": "0810400000"}, "type": "Feature"}
{"dataset_attributes": {"@spider": "usps_collection_boxes", "spider:collection_time": "2023-12-10T08:24:07.887270"}, "geometry": {"coordinates": [-75.1088351, 39.928845], "type": "Point"}, "id": "Y156H18WLzRLUVpGzYx2psOs7RM=", "properties": {"@spider": "usps_collection_boxes", "addr:city": "CAMDEN", "addr:country": "US", "addr:full": "1000 ATLANTIC AVE", "addr:postcode": "08104", "addr:state": "NJ", "amenity": "post_box", "brand": "United States Postal Service", "brand:wikidata": "Q668687", "collection_times": "Mo-Fr 14:00; Sa 10:00", "name": "USPS COLLECTION BOX - BLUE BOX", "note": "ON 12/24 AND 12/31, THIS BOX MAY BE COLLECTED AS EARLY AS 12 NOON.", "nsi_id": "unitedstatespostalservice-a77078", "operator": "United States Postal Service", "operator:short": "USPS", "operator:type": "public", "operator:wikidata": "Q668687", "ref": "0810400003"}, "type": "Feature"}
{"dataset_attributes": {"@spider": "usps_collection_boxes", "spider:collection_time": "2023-12-10T08:24:07.887270"}, "geometry": {"coordinates": [-75.0918588, 39.922484], "type": "Point"}, "id": "ii8A0ZxDI60YKN-2ZEi9WD4nMAI=", "properties": {"@spider": "usps_collection_boxes", "addr:city": "CAMDEN", "addr:country": "US", "addr:full": "1800 FERRY AVE", "addr:postcode": "08104", "addr:state": "NJ", "amenity": "post_box", "brand": "United States Postal Service", "brand:wikidata": "Q668687", "collection_times": "Mo-Fr 14:00; Sa 11:00", "name": "USPS COLLECTION BOX - BLUE BOX", "note": "ON 12/24 AND 12/31, THIS BOX MAY BE COLLECTED AS EARLY AS 12 NOON.", "nsi_id": "unitedstatespostalservice-a77078", "operator": "United States Postal Service", "operator:short": "USPS", "operator:type": "public", "operator:wikidata": "Q668687", "ref": "0810400017"}, "type": "Feature"}
{"dataset_attributes": {"@spider": "usps_collection_boxes", "spider:collection_time": "2023-12-10T08:24:07.887270"}, "geometry": {"coordinates": [-75.1007319, 39.905599], "type": "Point"}, "id": "Gfj76HpkRLg1VBAo50CalEpy7JE=", "properties": {"@spider": "usps_collection_boxes", "addr:city": "CAMDEN", "addr:country": "US", "addr:full": "1503 COLLINGS RD", "addr:postcode": "08104", "addr:state": "NJ", "amenity": "post_box", "brand": "United States Postal Service", "brand:wikidata": "Q668687", "collection_times": "Mo-Fr 14:00; Sa 12:00", "name": "USPS COLLECTION BOX - BLUE BOX", "note": "ON 12/24 AND 12/31, THIS BOX MAY BE COLLECTED AS EARLY AS 12 NOON.", "nsi_id": "unitedstatespostalservice-a77078", "operator": "United States Postal Service", "operator:short": "USPS", "operator:type": "public", "operator:wikidata": "Q668687", "ref": "0810400031"}, "type": "Feature"}
{"dataset_attributes": {"@spider": "usps_collection_boxes", "spider:collection_time": "2023-12-10T08:24:07.887270"}, "geometry": {"coordinates": [-75.0840192465, 39.9465720102], "type": "Point"}, "id": "SrZ46L272YAmXm5lyaM6YH4faWM=", "properties": {"@spider": "usps_collection_boxes", "addr:city": "PENNSAUKEN", "addr:country": "US", "addr:full": "2816 FEDERAL ST", "addr:postcode": "08105", "addr:state": "NJ", "amenity": "post_box", "brand": "United States Postal Service", "brand:wikidata": "Q668687", "collection_times": "Mo-Fr 16:30; Sa 15:45", "name": "USPS COLLECTION BOX - BLUE BOX", "note": "ON 12/24 AND 12/31, THIS BOX MAY BE COLLECTED AS EARLY AS 12 NOON.", "nsi_id": "unitedstatespostalservice-a77078", "operator": "United States Postal Service", "operator:short": "USPS", "operator:type": "public", "operator:wikidata": "Q668687", "ref": "0810500001"}, "type": "Feature"}
{"dataset_attributes": {"@spider": "usps_collection_boxes", "spider:collection_time": "2023-12-10T08:24:07.887270"}, "geometry": {"coordinates": [-75.0719524, 39.947878], "type": "Point"}, "id": "yqwn5HM-5uOoPEqZ-zFhvZHm55s=", "properties": {"@spider": "usps_collection_boxes", "addr:city": "PENNSAUKEN", "addr:country": "US", "addr:full": "3620 FEDERAL ST", "addr:postcode": "08105", "addr:state": "NJ", "amenity": "post_box", "brand": "United States Postal Service", "brand:wikidata": "Q668687", "collection_times": "Mo-Fr 14:30; Sa 12:00", "name": "USPS COLLECTION BOX - BLUE BOX", "note": "ON 12/24 AND 12/31, THIS BOX MAY BE COLLECTED AS EARLY AS 12 NOON.", "nsi_id": "unitedstatespostalservice-a77078", "operator": "United States Postal Service", "operator:short": "USPS", "operator:type": "public", "operator:wikidata": "Q668687", "ref": "0810500016"}, "type": "Feature"}
{"dataset_attributes": {"@spider": "usps_collection_boxes", "spider:collection_time": "2023-12-10T08:24:07.887270"}, "geometry": {"coordinates": [-75.0836088, 39.938732], "type": "Point"}, "id": "uFiyanvG0soSzI841X782DyWOSs=", "properties": {"@spider": "usps_collection_boxes", "addr:city": "PENNSAUKEN", "addr:country": "US", "addr:full": "7101 LEE AVE", "addr:postcode": "08105", "addr:state": "NJ", "amenity": "post_box", "brand": "United States Postal Service", "brand:wikidata": "Q668687", "collection_times": "Mo-Fr 14:30; Sa 11:00", "name": "USPS COLLECTION BOX - BLUE BOX", "note": "ON 12/24 AND 12/31, THIS BOX MAY BE COLLECTED AS EARLY AS 12 NOON.", "nsi_id": "unitedstatespostalservice-a77078", "operator": "United States Postal Service", "operator:short": "USPS", "operator:type": "public", "operator:wikidata": "Q668687", "ref": "0810500022"}, "type": "Feature"}
{"dataset_attributes": {"@spider": "usps_collection_boxes", "spider:collection_time": "2023-12-10T08:24:07.887270"}, "geometry": {"coordinates": [-75.083991, 39.946626], "type": "Point"}, "id": "akLc7ftNzWCLinbpYXd-BN63AkY=", "properties": {"@spider": "usps_collection_boxes", "addr:city": "PENNSAUKEN", "addr:country": "US", "addr:full": "2816 FEDERAL ST", "addr:postcode": "08105", "addr:state": "NJ", "amenity": "post_box", "brand": "United States Postal Service", "brand:wikidata": "Q668687", "collection_times": "Mo-Fr 16:15; Sa 12:30", "name": "USPS COLLECTION BOX - PO LOBBY", "note": "ON 12/24 AND 12/31, THIS BOX MAY BE COLLECTED AS EARLY AS 12 NOON.", "nsi_id": "unitedstatespostalservice-a77078", "operator": "United States Postal Service", "operator:short": "USPS", "operator:type": "public", "operator:wikidata": "Q668687", "ref": "0810500030"}, "type": "Feature"}
{"dataset_attributes": {"@spider": "usps_collection_boxes", "spider:collection_time": "2023-12-10T08:24:07.887270"}, "geometry": {"coordinates": [-75.084019824, 39.946570282], "type": "Point"}, "id": "sYbDtTonlBRNOoJejOWTt8W_uDs=", "properties": {"@spider": "usps_collection_boxes", "addr:city": "PENNSAUKEN", "addr:country": "US", "addr:full": "2816 FEDERAL ST", "addr:postcode": "08105", "addr:state": "NJ", "amenity": "post_box", "brand": "United States Postal Service", "brand:wikidata": "Q668687", "collection_times": "Mo-Fr 16:15; Sa 12:15", "name": "USPS COLLECTION BOX - PO LOBBY", "note": "ON 12/24 AND 12/31, THIS BOX MAY BE COLLECTED AS EARLY AS 12 NOON.", "nsi_id": "unitedstatespostalservice-a77078", "operator": "United States Postal Service", "operator:short": "USPS", "operator:type": "public", "operator:wikidata": "Q668687", "ref": "0810500033"}, "type": "Feature"}
{"dataset_attributes": {"@spider": "usps_collection_boxes", "spider:collection_time": "2023-12-10T08:24:07.887270"}, "geometry": {"coordinates": [-75.0882199, 39.890156], "type": "Point"}, "id": "TUc_67vOHv6Qm9eEWkwMNOEi6vk=", "properties": {"@spider": "usps_collection_boxes", "addr:city": "AUDUBON", "addr:country": "US", "addr:full": "130 BLACK HORSE PIKE", "addr:postcode": "08106", "addr:state": "NJ", "amenity": "post_box", "brand": "United States Postal Service", "brand:wikidata": "Q668687", "collection_times": "Mo-Fr 17:00; Sa 12:00", "name": "USPS COLLECTION BOX - BLUE BOX", "note": "ON 12/24 AND 12/31, THIS BOX MAY BE COLLECTED AS EARLY AS 12 NOON.", "nsi_id": "unitedstatespostalservice-a77078", "operator": "United States Postal Service", "operator:short": "USPS", "operator:type": "public", "operator:wikidata": "Q668687", "ref": "0810600001"}, "type": "Feature"}
{"dataset_attributes": {"@spider": "usps_collection_boxes", "spider:collection_time": "2023-12-10T08:24:07.887270"}, "geometry": {"coordinates": [-75.0686388, 39.884788], "type": "Point"}, "id": "9_z5SqdO4mQ0u72eg_u1xIz8cCA=", "properties": {"@spider": "usps_collection_boxes", "addr:city": "AUDUBON", "addr:country": "US", "addr:full": "303 WASHINGTON TER", "addr:postcode": "08106", "addr:state": "NJ", "amenity": "post_box", "brand": "United States Postal Service", "brand:wikidata": "Q668687", "collection_times": "Mo-Fr 13:30; Sa 14:00", "name": "USPS COLLECTION BOX - BLUE BOX", "note": "ON 12/24 AND 12/31, THIS BOX MAY BE COLLECTED AS EARLY AS 12 NOON.", "nsi_id": "unitedstatespostalservice-a77078", "operator": "United States Postal Service", "operator:short": "USPS", "operator:type": "public", "operator:wikidata": "Q668687", "ref": "0810600003"}, "type": "Feature"}
{"dataset_attributes": {"@spider": "usps_collection_boxes", "spider:collection_time": "2023-12-10T08:24:07.887270"}, "geometry": {"coordinates": [-75.0576594, 39.888972], "type": "Point"}, "id": "RyJ2UMFtt-SzkjdYy0zbW3v56Zg=", "properties": {"@spider": "usps_collection_boxes", "addr:city": "AUDUBON", "addr:country": "US", "addr:full": "137 PARIS AVE", "addr:postcode": "08106", "addr:state": "NJ", "amenity": "post_box", "brand": "United States Postal Service", "brand:wikidata": "Q668687", "collection_times": "Mo-Fr 13:00; Sa 10:00", "name": "USPS COLLECTION BOX - BLUE BOX", "note": "ON 12/24 AND 12/31, THIS BOX MAY BE COLLECTED AS EARLY AS 12 NOON.", "nsi_id": "unitedstatespostalservice-a77078", "operator": "United States Postal Service", "operator:short": "USPS", "operator:type": "public", "operator:wikidata": "Q668687", "ref": "0810600005"}, "type": "Feature"}
{"dataset_attributes": {"@spider": "usps_collection_boxes", "spider:collection_time": "2023-12-10T08:24:07.887270"}, "geometry": {"coordinates": [-75.0622176429, 39.8880633547], "type": "Point"}, "id": "_4PYTdbfG9b6kUVO3s5Mf3-5fsY=", "properties": {"@spider": "usps_collection_boxes", "addr:city": "AUDUBON", "addr:country": "US", "addr:full": "701 S WHITE HORSE PIKE", "addr:postcode": "08106", "addr:state": "NJ", "amenity": "post_box", "brand": "United States Postal Service", "brand:wikidata": "Q668687", "collection_times": "Mo-Fr 13:00; Sa 12:00", "name": "USPS COLLECTION BOX - BLUE BOX", "note": "ON 12/24 AND 12/31, THIS BOX MAY BE COLLECTED AS EARLY AS 12 NOON.", "nsi_id": "unitedstatespostalservice-a77078", "operator": "United States Postal Service", "operator:short": "USPS", "operator:type": "public", "operator:wikidata": "Q668687", "ref": "0810600006"}, "type": "Feature"}
{"dataset_attributes": {"@spider": "usps_collection_boxes", "spider:collection_time": "2023-12-10T08:24:07.887270"}, "geometry": {"coordinates": [-75.0756383, 39.89208], "type": "Point"}, "id": "qjjWwM1n4yUhvYltCY5t_Yhb80U=", "properties": {"@spider": "usps_collection_boxes", "addr:city": "AUDUBON", "addr:country": "US", "addr:full": "270 W MERCHANT ST", "addr:postcode": "08106", "addr:state": "NJ", "amenity": "post_box", "brand": "United States Postal Service", "brand:wikidata": "Q668687", "collection_times": "Mo-Fr 13:30; Sa 11:45", "name": "USPS COLLECTION BOX - BLUE BOX", "note": "ON 12/24 AND 12/31, THIS BOX MAY BE COLLECTED AS EARLY AS 12 NOON.", "nsi_id": "unitedstatespostalservice-a77078", "operator": "United States Postal Service", "operator:short": "USPS", "operator:type": "public", "operator:wikidata": "Q668687", "ref": "0810600008"}, "type": "Feature"}
{"dataset_attributes": {"@spider": "usps_collection_boxes", "spider:collection_time": "2023-12-10T08:24:07.887270"}, "geometry": {"coordinates": [-75.0716822, 39.887648], "type": "Point"}, "id": "dFYpwvoaZm5pWLOC7ywOy-573kE=", "properties": {"@spider": "usps_collection_boxes", "addr:city": "AUDUBON", "addr:country": "US", "addr:full": "268 WYOMING AVE", "addr:postcode": "08106", "addr:state": "NJ", "amenity": "post_box", "brand": "United States Postal Service", "brand:wikidata": "Q668687", "collection_times": "Mo-Fr 13:30; Sa 13:00", "name": "USPS COLLECTION BOX - BLUE BOX", "note": "ON 12/24 AND 12/31, THIS BOX MAY BE COLLECTED AS EARLY AS 12 NOON.", "nsi_id": "unitedstatespostalservice-a77078", "operator": "United States Postal Service", "operator:short": "USPS", "operator:type": "public", "operator:wikidata": "Q668687", "ref": "0810600010"}, "type": "Feature"}
{"dataset_attributes": {"@spider": "usps_collection_boxes", "spider:collection_time": "2023-12-10T08:24:07.887270"}, "geometry": {"coordinates": [-75.0580144, 39.892], "type": "Point"}, "id": "tLaAPjOIUJ1DPO6dGNYQXDfJoCw=", "properties": {"@spider": "usps_collection_boxes", "addr:city": "AUDUBON", "addr:country": "US", "addr:full": "199 CARLISLE RD", "addr:postcode": "08106", "addr:state": "NJ", "amenity": "post_box", "brand": "United States Postal Service", "brand:wikidata": "Q668687", "collection_times": "Mo-Fr 13:00; Sa 14:30", "name": "USPS COLLECTION BOX - BLUE BOX", "note": "ON 12/24 AND 12/31, THIS BOX MAY BE COLLECTED AS EARLY AS 12 NOON.", "nsi_id": "unitedstatespostalservice-a77078", "operator": "United States Postal Service", "operator:short": "USPS", "operator:type": "public", "operator:wikidata": "Q668687", "ref": "0810600011"}, "type": "Feature"}
{"dataset_attributes": {"@spider": "usps_collection_boxes", "spider:collection_time": "2023-12-10T08:24:07.887270"}, "geometry": {"coordinates": [-75.0652835, 39.895401], "type": "Point"}, "id": "SwMgjz43uBAXVNlcFivZsgTONuQ=", "properties": {"@spider": "usps_collection_boxes", "addr:city": "AUDUBON", "addr:country": "US", "addr:full": "118 E GRAISBURY AVE", "addr:postcode": "08106", "addr:state": "NJ", "amenity": "post_box", "brand": "United States Postal Service", "brand:wikidata": "Q668687", "collection_times": "Mo-Fr 13:00; Sa 10:00", "name": "USPS COLLECTION BOX - BLUE BOX", "note": "ON 12/24 AND 12/31, THIS BOX MAY BE COLLECTED AS EARLY AS 12 NOON.", "nsi_id": "unitedstatespostalservice-a77078", "operator": "United States Postal Service", "operator:short": "USPS", "operator:type": "public", "operator:wikidata": "Q668687", "ref": "0810600014"}, "type": "Feature"}
{"dataset_attributes": {"@spider": "usps_collection_boxes", "spider:collection_time": "2023-12-10T08:24:07.887270"}, "geometry": {"coordinates": [-75.0909662, 39.89671], "type": "Point"}, "id": "bIXfhBzy8QrN1wIhMYluMeRO7zQ=", "properties": {"@spider": "usps_collection_boxes", "addr:city": "AUDUBON", "addr:country": "US", "addr:full": "20 ROAD C", "addr:postcode": "08106", "addr:state": "NJ", "amenity": "post_box", "brand": "United States Postal Service", "brand:wikidata": "Q668687", "collection_times": "Mo-Fr 14:30", "name": "USPS COLLECTION BOX - BLUE BOX", "note": "ON 12/24 AND 12/31, THIS BOX MAY BE COLLECTED AS EARLY AS 12 NOON.", "nsi_id": "unitedstatespostalservice-a77078", "operator": "United States Postal Service", "operator:short": "USPS", "operator:type": "public", "operator:wikidata": "Q668687", "ref": "0810600015"}, "type": "Feature"}
{"dataset_attributes": {"@spider": "usps_collection_boxes", "spider:collection_time": "2023-12-10T08:24:07.887270"}, "geometry": {"coordinates": [-75.0657596, 39.891425], "type": "Point"}, "id": "1_0iCuVht9dUoidYPbO_mRsiO5s=", "properties": {"@spider": "usps_collection_boxes", "addr:city": "AUDUBON", "addr:country": "US", "addr:full": "277 S WHITE HORSE PIKE", "addr:postcode": "08106", "addr:state": "NJ", "amenity": "post_box", "brand": "United States Postal Service", "brand:wikidata": "Q668687", "collection_times": "Mo-Fr 13:00; Sa 09:30", "name": "USPS COLLECTION BOX - BLUE BOX", "note": "ON 12/24 AND 12/31, THIS BOX MAY BE COLLECTED AS EARLY AS 12 NOON.", "nsi_id": "unitedstatespostalservice-a77078", "operator": "United States Postal Service", "operator:short": "USPS", "operator:type": "public", "operator:wikidata": "Q668687", "ref": "0810600018"}, "type": "Feature"}
{"dataset_attributes": {"@spider": "usps_collection_boxes", "spider:collection_time": "2023-12-10T08:24:07.887270"}, "geometry": {"coordinates": [-75.0874753, 39.893145], "type": "Point"}, "id": "fltVRQZSzHQzy3g0OmaVT1UTXKw=", "properties": {"@spider": "usps_collection_boxes", "addr:city": "AUDUBON", "addr:country": "US", "addr:full": "606 W NICHOLSON RD", "addr:postcode": "08106", "addr:state": "NJ", "amenity": "post_box", "brand": "United States Postal Service", "brand:wikidata": "Q668687", "collection_times": "Mo-Fr 14:30", "name": "USPS COLLECTION BOX - BLUE BOX", "note": "ON 12/24 AND 12/31, THIS BOX MAY BE COLLECTED AS EARLY AS 12 NOON.", "nsi_id": "unitedstatespostalservice-a77078", "operator": "United States Postal Service", "operator:short": "USPS", "operator:type": "public", "operator:wikidata": "Q668687", "ref": "0810600022"}, "type": "Feature"}
{"dataset_attributes": {"@spider": "usps_collection_boxes", "spider:collection_time": "2023-12-10T08:24:07.887270"}, "geometry": {"coordinates": [-75.0725794, 39.893528], "type": "Point"}, "id": "ZuooY9XT4jmnLWjqFIURosdBem0=", "properties": {"@spider": "usps_collection_boxes", "addr:city": "AUDUBON", "addr:country": "US", "addr:full": "200 W MERCHANT ST", "addr:postcode": "08106", "addr:state": "NJ", "amenity": "post_box", "brand": "United States Postal Service", "brand:wikidata": "Q668687", "collection_times": "Mo-Fr 13:30; Sa 09:00", "name": "USPS COLLECTION BOX - BLUE BOX", "note": "ON 12/24 AND 12/31, THIS BOX MAY BE COLLECTED AS EARLY AS 12 NOON.", "nsi_id": "unitedstatespostalservice-a77078", "operator": "United States Postal Service", "operator:short": "USPS", "operator:type": "public", "operator:wikidata": "Q668687", "ref": "0810600024"}, "type": "Feature"}
{"dataset_attributes": {"@spider": "usps_collection_boxes", "spider:collection_time": "2023-12-10T08:24:07.887270"}, "geometry": {"coordinates": [-75.089489, 39.890106], "type": "Point"}, "id": "2AKkJKK1sEoam30VbWxqC8XDHdc=", "properties": {"@spider": "usps_collection_boxes", "addr:city": "AUDUBON", "addr:country": "US", "addr:full": "130 BLACK HORSE PIKE", "addr:postcode": "08106", "addr:state": "NJ", "amenity": "post_box", "brand": "United States Postal Service", "brand:wikidata": "Q668687", "collection_times": "Mo-Fr 17:00; Sa 12:30", "name": "USPS COLLECTION BOX - PO LOBBY", "note": "ON 12/24 AND 12/31, THIS BOX MAY BE COLLECTED AS EARLY AS 12 NOON.", "nsi_id": "unitedstatespostalservice-a77078", "operator": "United States Postal Service", "operator:short": "USPS", "operator:type": "public", "operator:wikidata": "Q668687", "ref": "0810600026"}, "type": "Feature"}
{"dataset_attributes": {"@spider": "usps_collection_boxes", "spider:collection_time": "2023-12-10T08:24:07.887270"}, "geometry": {"coordinates": [-75.089393483, 39.889810853], "type": "Point"}, "id": "Iuks980Wnw-4x4GyUuJwiNWJeP4=", "properties": {"@spider": "usps_collection_boxes", "addr:city": "AUDUBON", "addr:country": "US", "addr:full": "130 BLACK HORSE PIKE STE 400", "addr:postcode": "08106", "addr:state": "NJ", "amenity": "post_box", "brand": "United States Postal Service", "brand:wikidata": "Q668687", "collection_times": "Mo-Fr 17:00; Sa 12:30", "name": "USPS COLLECTION BOX - PO LOBBY", "note": "ON 12/24 AND 12/31, THIS BOX MAY BE COLLECTED AS EARLY AS 12 NOON.", "nsi_id": "unitedstatespostalservice-a77078", "operator": "United States Postal Service", "operator:short": "USPS", "operator:type": "public", "operator:wikidata": "Q668687", "ref": "0810600030"}, "type": "Feature"}
{"dataset_attributes": {"@spider": "usps_collection_boxes", "spider:collection_time": "2023-12-10T08:24:07.887270"}, "geometry": {"coordinates": [-75.0788091, 39.905283], "type": "Point"}, "id": "hoQpwDnE7Q8DhfFOgx_vxmG42tE=", "properties": {"@spider": "usps_collection_boxes", "addr:city": "HADDON TOWNSHIP", "addr:country": "US", "addr:full": "5 E BETTLEWOOD AVE", "addr:postcode": "08107", "addr:state": "NJ", "amenity": "post_box", "brand": "United States Postal Service", "brand:wikidata": "Q668687", "collection_times": "Mo-Fr 17:00; Sa 13:00", "name": "USPS COLLECTION BOX - BLUE BOX", "note": "ON 12/24 AND 12/31, THIS BOX MAY BE COLLECTED AS EARLY AS 12 NOON.", "nsi_id": "unitedstatespostalservice-a77078", "operator": "United States Postal Service", "operator:short": "USPS", "operator:type": "public", "operator:wikidata": "Q668687", "ref": "0810700001"}, "type": "Feature"}
{"dataset_attributes": {"@spider": "usps_collection_boxes", "spider:collection_time": "2023-12-10T08:24:07.887270"}, "geometry": {"coordinates": [-75.0826686, 39.901873], "type": "Point"}, "id": "FpzBposuvPhp8o3RjOTwiyWklkA=", "properties": {"@spider": "usps_collection_boxes", "addr:city": "HADDON TOWNSHIP", "addr:country": "US", "addr:full": "201 W CLINTON AVE", "addr:postcode": "08107", "addr:state": "NJ", "amenity": "post_box", "brand": "United States Postal Service", "brand:wikidata": "Q668687", "collection_times": "Mo-Fr 13:30; Sa 13:00", "name": "USPS COLLECTION BOX - BLUE BOX", "note": "ON 12/24 AND 12/31, THIS BOX MAY BE COLLECTED AS EARLY AS 12 NOON.", "nsi_id": "unitedstatespostalservice-a77078", "operator": "United States Postal Service", "operator:short": "USPS", "operator:type": "public", "operator:wikidata": "Q668687", "ref": "0810700003"}, "type": "Feature"}
{"dataset_attributes": {"@spider": "usps_collection_boxes", "spider:collection_time": "2023-12-10T08:24:07.887270"}, "geometry": {"coordinates": [-75.0782083, 39.903776], "type": "Point"}, "id": "dPL90K1_FasuQ_rNQYWh61DiPSg=", "properties": {"@spider": "usps_collection_boxes", "addr:city": "HADDON TOWNSHIP", "addr:country": "US", "addr:full": "507 WHITE HORSE PIKE", "addr:postcode": "08107", "addr:state": "NJ", "amenity": "post_box", "brand": "United States Postal Service", "brand:wikidata": "Q668687", "collection_times": "Mo-Fr 13:30; Sa 11:00", "name": "USPS COLLECTION BOX - BLUE BOX", "note": "ON 12/24 AND 12/31, THIS BOX MAY BE COLLECTED AS EARLY AS 12 NOON.", "nsi_id": "unitedstatespostalservice-a77078", "operator": "United States Postal Service", "operator:short": "USPS", "operator:type": "public", "operator:wikidata": "Q668687", "ref": "0810700005"}, "type": "Feature"}
{"dataset_attributes": {"@spider": "usps_collection_boxes", "spider:collection_time": "2023-12-10T08:24:07.887270"}, "geometry": {"coordinates": [-75.0853838, 39.9107], "type": "Point"}, "id": "m1a8dZ5CuvwV7rT386KiylJv7yM=", "properties": {"@spider": "usps_collection_boxes", "addr:city": "HADDON TOWNSHIP", "addr:country": "US", "addr:full": "701 COLLINGS AVE", "addr:postcode": "08107", "addr:state": "NJ", "amenity": "post_box", "brand": "United States Postal Service", "brand:wikidata": "Q668687", "collection_times": "Mo-Fr 14:00; Sa 12:45", "name": "USPS COLLECTION BOX - BLUE BOX", "note": "ON 12/24 AND 12/31, THIS BOX MAY BE COLLECTED AS EARLY AS 12 NOON.", "nsi_id": "unitedstatespostalservice-a77078", "operator": "United States Postal Service", "operator:short": "USPS", "operator:type": "public", "operator:wikidata": "Q668687", "ref": "0810700006"}, "type": "Feature"}
{"dataset_attributes": {"@spider": "usps_collection_boxes", "spider:collection_time": "2023-12-10T08:24:07.887270"}, "geometry": {"coordinates": [-75.0955266, 39.917407], "type": "Point"}, "id": "yV-vVjUlcmqyWO-7AH5hVnDuTns=", "properties": {"@spider": "usps_collection_boxes", "addr:city": "HADDON TOWNSHIP", "addr:country": "US", "addr:full": "200 COOPER AVE", "addr:postcode": "08107", "addr:state": "NJ", "amenity": "post_box", "brand": "United States Postal Service", "brand:wikidata": "Q668687", "collection_times": "Mo-Fr 14:00; Sa 09:30", "name": "USPS COLLECTION BOX - BLUE BOX", "note": "ON 12/24 AND 12/31, THIS BOX MAY BE COLLECTED AS EARLY AS 12 NOON.", "nsi_id": "unitedstatespostalservice-a77078", "operator": "United States Postal Service", "operator:short": "USPS", "operator:type": "public", "operator:wikidata": "Q668687", "ref": "0810700013"}, "type": "Feature"}
{"dataset_attributes": {"@spider": "usps_collection_boxes", "spider:collection_time": "2023-12-10T08:24:07.887270"}, "geometry": {"coordinates": [-75.0719552, 39.900277], "type": "Point"}, "id": "vPxoZctdRWfeQArsV-jG-OSHuXA=", "properties": {"@spider": "usps_collection_boxes", "addr:city": "HADDON TOWNSHIP", "addr:country": "US", "addr:full": "100 E CEDAR AVE", "addr:postcode": "08107", "addr:state": "NJ", "amenity": "post_box", "brand": "United States Postal Service", "brand:wikidata": "Q668687", "collection_times": "Mo-Fr 13:30; Sa 10:30", "name": "USPS COLLECTION BOX - BLUE BOX", "note": "ON 12/24 AND 12/31, THIS BOX MAY BE COLLECTED AS EARLY AS 12 NOON.", "nsi_id": "unitedstatespostalservice-a77078", "operator": "United States Postal Service", "operator:short": "USPS", "operator:type": "public", "operator:wikidata": "Q668687", "ref": "0810700024"}, "type": "Feature"}
{"dataset_attributes": {"@spider": "usps_collection_boxes", "spider:collection_time": "2023-12-10T08:24:07.887270"}, "geometry": {"coordinates": [-75.078884, 39.905197], "type": "Point"}, "id": "JUkOA_f9NzymIJKHnDt-1Q0h8EM=", "properties": {"@spider": "usps_collection_boxes", "addr:city": "HADDON TOWNSHIP", "addr:country": "US", "addr:full": "5 E BETTLEWOOD AVE", "addr:postcode": "08107", "addr:state": "NJ", "amenity": "post_box", "brand": "United States Postal Service", "brand:wikidata": "Q668687", "collection_times": "Mo-Fr 17:00; Sa 12:30", "name": "USPS COLLECTION BOX - PO LOBBY", "note": "ON 12/24 AND 12/31, THIS BOX MAY BE COLLECTED AS EARLY AS 12 NOON.", "nsi_id": "unitedstatespostalservice-a77078", "operator": "United States Postal Service", "operator:short": "USPS", "operator:type": "public", "operator:wikidata": "Q668687", "ref": "0810700033"}, "type": "Feature"}
{"dataset_attributes": {"@spider": "usps_collection_boxes", "spider:collection_time": "2023-12-10T08:24:07.887270"}, "geometry": {"coordinates": [-75.07888607, 39.905188773], "type": "Point"}, "id": "NoFROKjuPqX7O7LL0NwTGFxuTJU=", "properties": {"@spider": "usps_collection_boxes", "addr:city": "HADDON TOWNSHIP", "addr:country": "US", "addr:full": "5 E BETTLEWOOD AVE", "addr:postcode": "08107", "addr:state": "NJ", "amenity": "post_box", "brand": "United States Postal Service", "brand:wikidata": "Q668687", "collection_times": "Mo-Fr 17:00; Sa 12:30", "name": "USPS COLLECTION BOX - PO LOBBY", "note": "ON 12/24 AND 12/31, THIS BOX MAY BE COLLECTED AS EARLY AS 12 NOON.", "nsi_id": "unitedstatespostalservice-a77078", "operator": "United States Postal Service", "operator:short": "USPS", "operator:type": "public", "operator:wikidata": "Q668687", "ref": "0810700038"}, "type": "Feature"}
{"dataset_attributes": {"@spider": "usps_collection_boxes", "spider:collection_time": "2023-12-10T08:24:07.887270"}, "geometry": {"coordinates": [-75.0694931, 39.91683], "type": "Point"}, "id": "3RWRd8ms7fg5Noyza0CxyF8GTZk=", "properties": {"@spider": "usps_collection_boxes", "addr:city": "CAMDEN", "addr:country": "US", "addr:full": "9 LINCOLN AVE", "addr:postcode": "08108", "addr:state": "NJ", "amenity": "post_box", "brand": "United States Postal Service", "brand:wikidata": "Q668687", "collection_times": "Mo-Fr 13:30; Sa 09:30", "name": "USPS COLLECTION BOX - BLUE BOX", "note": "ON 12/24 AND 12/31, THIS BOX MAY BE COLLECTED AS EARLY AS 12 NOON.", "nsi_id": "unitedstatespostalservice-a77078", "operator": "United States Postal Service", "operator:short": "USPS", "operator:type": "public", "operator:wikidata": "Q668687", "ref": "0810800007"}, "type": "Feature"}
{"dataset_attributes": {"@spider": "usps_collection_boxes", "spider:collection_time": "2023-12-10T08:24:07.887270"}, "geometry": {"coordinates": [-75.0767327, 39.918773], "type": "Point"}, "id": "aY1Qta3TzbcVHbeu8-I8ASdZsOk=", "properties": {"@spider": "usps_collection_boxes", "addr:city": "CAMDEN", "addr:country": "US", "addr:full": "460 HADDON AVE", "addr:postcode": "08108", "addr:state": "NJ", "amenity": "post_box", "brand": "United States Postal Service", "brand:wikidata": "Q668687", "collection_times": "Mo-Fr 13:30; Sa 09:30", "name": "USPS COLLECTION BOX - BLUE BOX", "note": "ON 12/24 AND 12/31, THIS BOX MAY BE COLLECTED AS EARLY AS 12 NOON.", "nsi_id": "unitedstatespostalservice-a77078", "operator": "United States Postal Service", "operator:short": "USPS", "operator:type": "public", "operator:wikidata": "Q668687", "ref": "0810800025"}, "type": "Feature"}
{"dataset_attributes": {"@spider": "usps_collection_boxes", "spider:collection_time": "2023-12-10T08:24:07.887270"}, "geometry": {"coordinates": [-75.0495723, 39.910523], "type": "Point"}, "id": "mXX7P3ftEl8wRIQjjj90lCNaeFU=", "properties": {"@spider": "usps_collection_boxes", "addr:city": "CAMDEN", "addr:country": "US", "addr:full": "135 HADDON AVE", "addr:postcode": "08108", "addr:state": "NJ", "amenity": "post_box", "brand": "United States Postal Service", "brand:wikidata": "Q668687", "collection_times": "Mo-Fr 13:00; Sa 14:00", "name": "USPS COLLECTION BOX - BLUE BOX", "note": "ON 12/24 AND 12/31, THIS BOX MAY BE COLLECTED AS EARLY AS 12 NOON.", "nsi_id": "unitedstatespostalservice-a77078", "operator": "United States Postal Service", "operator:short": "USPS", "operator:type": "public", "operator:wikidata": "Q668687", "ref": "0810800027"}, "type": "Feature"}
{"dataset_attributes": {"@spider": "usps_collection_boxes", "spider:collection_time": "2023-12-10T08:24:07.887270"}, "geometry": {"coordinates": [-75.0588958, 39.902304], "type": "Point"}, "id": "r0OBHP1NFjSf2o835FlrNlWXcKs=", "properties": {"@spider": "usps_collection_boxes", "addr:city": "CAMDEN", "addr:country": "US", "addr:full": "11 MACARTHUR BLVD", "addr:postcode": "08108", "addr:state": "NJ", "amenity": "post_box", "brand": "United States Postal Service", "brand:wikidata": "Q668687", "collection_times": "Mo-Sa 13:00", "name": "USPS COLLECTION BOX - BLUE BOX", "note": "ON 12/24 AND 12/31, THIS BOX MAY BE COLLECTED AS EARLY AS 12 NOON.", "nsi_id": "unitedstatespostalservice-a77078", "operator": "United States Postal Service", "operator:short": "USPS", "operator:type": "public", "operator:wikidata": "Q668687", "ref": "0810800042"}, "type": "Feature"}
{"dataset_attributes": {"@spider": "usps_collection_boxes", "spider:collection_time": "2023-12-10T08:24:07.887270"}, "geometry": {"coordinates": [-75.0600582, 39.902315], "type": "Point"}, "id": "bCVULSd1JgwO24CLl6F3Af2pdQE=", "properties": {"@spider": "usps_collection_boxes", "addr:city": "CAMDEN", "addr:country": "US", "addr:full": "1 MACARTHUR BLVD", "addr:postcode": "08108", "addr:state": "NJ", "amenity": "post_box", "brand": "United States Postal Service", "brand:wikidata": "Q668687", "collection_times": "Mo-Fr 13:00; Sa 12:30", "name": "USPS COLLECTION BOX - BLUE BOX", "note": "ON 12/24 AND 12/31, THIS BOX MAY BE COLLECTED AS EARLY AS 12 NOON.", "nsi_id": "unitedstatespostalservice-a77078", "operator": "United States Postal Service", "operator:short": "USPS", "operator:type": "public", "operator:wikidata": "Q668687", "ref": "0810800043"}, "type": "Feature"}
{"dataset_attributes": {"@spider": "usps_collection_boxes", "spider:collection_time": "2023-12-10T08:24:07.887270"}, "geometry": {"coordinates": [-75.0621858, 39.914012], "type": "Point"}, "id": "3Q1NG7Bm7CHl9E0LBIOrdwVRn-Y=", "properties": {"@spider": "usps_collection_boxes", "addr:city": "CAMDEN", "addr:country": "US", "addr:full": "970 HADDON AVE", "addr:postcode": "08108", "addr:state": "NJ", "amenity": "post_box", "brand": "United States Postal Service", "brand:wikidata": "Q668687", "collection_times": "Mo-Fr 17:00; Sa 13:15", "name": "USPS COLLECTION BOX - BLUE BOX", "note": "ON 12/24 AND 12/31, THIS BOX MAY BE COLLECTED AS EARLY AS 12 NOON.", "nsi_id": "unitedstatespostalservice-a77078", "operator": "United States Postal Service", "operator:short": "USPS", "operator:type": "public", "operator:wikidata": "Q668687", "ref": "0810800047"}, "type": "Feature"}
{"dataset_attributes": {"@spider": "usps_collection_boxes", "spider:collection_time": "2023-12-10T08:24:07.887270"}, "geometry": {"coordinates": [-75.0465953, 39.90696], "type": "Point"}, "id": "C6DC0JF1VsLTryPV6cq7kR3hoCw=", "properties": {"@spider": "usps_collection_boxes", "addr:city": "CAMDEN", "addr:country": "US", "addr:full": "350 ATLANTIC AVE", "addr:postcode": "08108", "addr:state": "NJ", "amenity": "post_box", "brand": "United States Postal Service", "brand:wikidata": "Q668687", "collection_times": "Mo-Fr 13:00; Sa 14:00", "name": "USPS COLLECTION BOX - BLUE BOX", "note": "ON 12/24 AND 12/31, THIS BOX MAY BE COLLECTED AS EARLY AS 12 NOON.", "nsi_id": "unitedstatespostalservice-a77078", "operator": "United States Postal Service", "operator:short": "USPS", "operator:type": "public", "operator:wikidata": "Q668687", "ref": "0810800048"}, "type": "Feature"}
{"dataset_attributes": {"@spider": "usps_collection_boxes", "spider:collection_time": "2023-12-10T08:24:07.887270"}, "geometry": {"coordinates": [-75.0629858, 39.900607], "type": "Point"}, "id": "bf98AAR7A3Y7qFD2zUU9mnpQE-w=", "properties": {"@spider": "usps_collection_boxes", "addr:city": "CAMDEN", "addr:country": "US", "addr:full": "654 W CUTHBERT BLVD", "addr:postcode": "08108", "addr:state": "NJ", "amenity": "post_box", "brand": "United States Postal Service", "brand:wikidata": "Q668687", "collection_times": "Mo-Fr 13:00; Sa 12:00", "name": "USPS COLLECTION BOX - BLUE BOX", "note": "ON 12/24 AND 12/31, THIS BOX MAY BE COLLECTED AS EARLY AS 12 NOON.", "nsi_id": "unitedstatespostalservice-a77078", "operator": "United States Postal Service", "operator:short": "USPS", "operator:type": "public", "operator:wikidata": "Q668687", "ref": "0810800054"}, "type": "Feature"}
{"dataset_attributes": {"@spider": "usps_collection_boxes", "spider:collection_time": "2023-12-10T08:24:07.887270"}, "geometry": {"coordinates": [-75.062214, 39.913978], "type": "Point"}, "id": "M28_1aqV34FxXGoziRYNscbcgxM=", "properties": {"@spider": "usps_collection_boxes", "addr:city": "CAMDEN", "addr:country": "US", "addr:full": "970 HADDON AVE", "addr:postcode": "08108", "addr:state": "NJ", "amenity": "post_box", "brand": "United States Postal Service", "brand:wikidata": "Q668687", "collection_times": "Mo-Fr 17:00; Sa 13:15", "name": "USPS COLLECTION BOX - BLUE BOX", "note": "ON 12/24 AND 12/31, THIS BOX MAY BE COLLECTED AS EARLY AS 12 NOON.", "nsi_id": "unitedstatespostalservice-a77078", "operator": "United States Postal Service", "operator:short": "USPS", "operator:type": "public", "operator:wikidata": "Q668687", "ref": "0810800060"}, "type": "Feature"}
{"dataset_attributes": {"@spider": "usps_collection_boxes", "spider:collection_time": "2023-12-10T08:24:07.887270"}, "geometry": {"coordinates": [-75.0621972, 39.914014], "type": "Point"}, "id": "6A2fcnwj1aBbfsl5pQQHsGlcjOI=", "properties": {"@spider": "usps_collection_boxes", "addr:city": "CAMDEN", "addr:country": "US", "addr:full": "970 HADDON AVE", "addr:postcode": "08108", "addr:state": "NJ", "amenity": "post_box", "brand": "United States Postal Service", "brand:wikidata": "Q668687", "collection_times": "Mo-Fr 17:00; Sa 13:15", "name": "USPS COLLECTION BOX - BLUE BOX", "note": "ON 12/24 AND 12/31, THIS BOX MAY BE COLLECTED AS EARLY AS 12 NOON.", "nsi_id": "unitedstatespostalservice-a77078", "operator": "United States Postal Service", "operator:short": "USPS", "operator:type": "public", "operator:wikidata": "Q668687", "ref": "0810800061"}, "type": "Feature"}
{"dataset_attributes": {"@spider": "usps_collection_boxes", "spider:collection_time": "2023-12-10T08:24:07.887270"}, "geometry": {"coordinates": [-75.0621999, 39.913979], "type": "Point"}, "id": "CUgZJ7I7iGJxNRzB634nFATLb1g=", "properties": {"@spider": "usps_collection_boxes", "addr:city": "CAMDEN", "addr:country": "US", "addr:full": "970 HADDON AVE", "addr:postcode": "08108", "addr:state": "NJ", "amenity": "post_box", "brand": "United States Postal Service", "brand:wikidata": "Q668687", "collection_times": "Mo-Fr 17:00; Sa 13:15", "name": "USPS COLLECTION BOX - BLUE BOX", "note": "ON 12/24 AND 12/31, THIS BOX MAY BE COLLECTED AS EARLY AS 12 NOON.", "nsi_id": "unitedstatespostalservice-a77078", "operator": "United States Postal Service", "operator:short": "USPS", "operator:type": "public", "operator:wikidata": "Q668687", "ref": "0810800062"}, "type": "Feature"}
{"dataset_attributes": {"@spider": "usps_collection_boxes", "spider:collection_time": "2023-12-10T08:24:07.887270"}, "geometry": {"coordinates": [-75.0622186, 39.91399], "type": "Point"}, "id": "i0HEKMWKPu0o3bY-QJvmNU1vQls=", "properties": {"@spider": "usps_collection_boxes", "addr:city": "CAMDEN", "addr:country": "US", "addr:full": "970 HADDON AVE", "addr:postcode": "08108", "addr:state": "NJ", "amenity": "post_box", "brand": "United States Postal Service", "brand:wikidata": "Q668687", "collection_times": "Mo-Fr 17:00; Sa 13:15", "name": "USPS COLLECTION BOX - BLUE BOX", "note": "ON 12/24 AND 12/31, THIS BOX MAY BE COLLECTED AS EARLY AS 12 NOON.", "nsi_id": "unitedstatespostalservice-a77078", "operator": "United States Postal Service", "operator:short": "USPS", "operator:type": "public", "operator:wikidata": "Q668687", "ref": "0810800068"}, "type": "Feature"}
{"dataset_attributes": {"@spider": "usps_collection_boxes", "spider:collection_time": "2023-12-10T08:24:07.887270"}, "geometry": {"coordinates": [-75.061898, 39.914254], "type": "Point"}, "id": "dCdron2iUbeXiJC9PEBP6vY5KVA=", "properties": {"@spider": "usps_collection_boxes", "addr:city": "CAMDEN", "addr:country": "US", "addr:full": "970 HADDON AVE", "addr:postcode": "08108", "addr:state": "NJ", "amenity": "post_box", "brand": "United States Postal Service", "brand:wikidata": "Q668687", "collection_times": "Mo-Fr 17:00; Sa 12:30", "name": "USPS COLLECTION BOX - PO LOBBY", "note": "ON 12/24 AND 12/31, THIS BOX MAY BE COLLECTED AS EARLY AS 12 NOON.", "nsi_id": "unitedstatespostalservice-a77078", "operator": "United States Postal Service", "operator:short": "USPS", "operator:type": "public", "operator:wikidata": "Q668687", "ref": "0810800069"}, "type": "Feature"}
{"dataset_attributes": {"@spider": "usps_collection_boxes", "spider:collection_time": "2023-12-10T08:24:07.887270"}, "geometry": {"coordinates": [-75.061899533, 39.914252122], "type": "Point"}, "id": "ejipS93llRTdWJDNMY27mx4bDN0=", "properties": {"@spider": "usps_collection_boxes", "addr:city": "CAMDEN", "addr:country": "US", "addr:full": "970 HADDON AVE", "addr:postcode": "08108", "addr:state": "NJ", "amenity": "post_box", "brand": "United States Postal Service", "brand:wikidata": "Q668687", "collection_times": "Mo-Fr 16:45; Sa 12:30", "name": "USPS COLLECTION BOX - PO LOBBY", "note": "ON 12/24 AND 12/31, THIS BOX MAY BE COLLECTED AS EARLY AS 12 NOON.", "nsi_id": "unitedstatespostalservice-a77078", "operator": "United States Postal Service", "operator:short": "USPS", "operator:type": "public", "operator:wikidata": "Q668687", "ref": "0810800079"}, "type": "Feature"}
{"dataset_attributes": {"@spider": "usps_collection_boxes", "spider:collection_time": "2023-12-10T08:24:07.887270"}, "geometry": {"coordinates": [-75.0373018, 39.967456], "type": "Point"}, "id": "89JTaqi5JvgsksJeS1_HSo8BSd4=", "properties": {"@spider": "usps_collection_boxes", "addr:city": "PENNSAUKEN", "addr:country": "US", "addr:full": "2557 UNION AVE", "addr:postcode": "08109", "addr:state": "NJ", "amenity": "post_box", "brand": "United States Postal Service", "brand:wikidata": "Q668687", "collection_times": "Mo-Fr 14:00; Sa 11:00", "name": "USPS COLLECTION BOX - BLUE BOX", "note": "ON 12/24 AND 12/31, THIS BOX MAY BE COLLECTED AS EARLY AS 12 NOON.", "nsi_id": "unitedstatespostalservice-a77078", "operator": "United States Postal Service", "operator:short": "USPS", "operator:type": "public", "operator:wikidata": "Q668687", "ref": "0810900005"}, "type": "Feature"}
{"dataset_attributes": {"@spider": "usps_collection_boxes", "spider:collection_time": "2023-12-10T08:24:07.887270"}, "geometry": {"coordinates": [-75.0589887, 39.937802], "type": "Point"}, "id": "EIl9Qz45wXCuHhR5QyceovnbbpQ=", "properties": {"@spider": "usps_collection_boxes", "addr:city": "PENNSAUKEN", "addr:country": "US", "addr:full": "5339 GARFIELD AVE", "addr:postcode": "08109", "addr:state": "NJ", "amenity": "post_box", "brand": "United States Postal Service", "brand:wikidata": "Q668687", "collection_times": "Mo-Fr 14:30; Sa 12:00", "name": "USPS COLLECTION BOX - BLUE BOX", "note": "ON 12/24 AND 12/31, THIS BOX MAY BE COLLECTED AS EARLY AS 12 NOON.", "nsi_id": "unitedstatespostalservice-a77078", "operator": "United States Postal Service", "operator:short": "USPS", "operator:type": "public", "operator:wikidata": "Q668687", "ref": "0810900013"}, "type": "Feature"}
{"dataset_attributes": {"@spider": "usps_collection_boxes", "spider:collection_time": "2023-12-10T08:24:07.887270"}, "geometry": {"coordinates": [-75.02664, 39.954337], "type": "Point"}, "id": "wKijuo94FZMe5Rx8mB-ZzG8Phws=", "properties": {"@spider": "usps_collection_boxes", "addr:city": "PENNSAUKEN", "addr:country": "US", "addr:full": "4350 HADDONFIELD RD", "addr:postcode": "08109", "addr:state": "NJ", "amenity": "post_box", "brand": "United States Postal Service", "brand:wikidata": "Q668687", "collection_times": "Mo-Fr 14:00", "name": "USPS COLLECTION BOX - BLUE BOX", "note": "ON 12/24 AND 12/31, THIS BOX MAY BE COLLECTED AS EARLY AS 12 NOON.", "nsi_id": "unitedstatespostalservice-a77078", "operator": "United States Postal Service", "operator:short": "USPS", "operator:type": "public", "operator:wikidata": "Q668687", "ref": "0810900016"}, "type": "Feature"}
{"dataset_attributes": {"@spider": "usps_collection_boxes", "spider:collection_time": "2023-12-10T08:24:07.887270"}, "geometry": {"coordinates": [-75.0503108, 39.94973], "type": "Point"}, "id": "c-fRhoId7RZJ8xNKJWJ4-lIHtNw=", "properties": {"@spider": "usps_collection_boxes", "addr:city": "PENNSAUKEN", "addr:country": "US", "addr:full": "22 W MAPLE AVE", "addr:postcode": "08109", "addr:state": "NJ", "amenity": "post_box", "brand": "United States Postal Service", "brand:wikidata": "Q668687", "collection_times": "Mo-Fr 17:00; Sa 15:30", "name": "USPS COLLECTION BOX - BLUE BOX", "note": "ON 12/24 AND 12/31, THIS BOX MAY BE COLLECTED AS EARLY AS 12 NOON.", "nsi_id": "unitedstatespostalservice-a77078", "operator": "United States Postal Service", "operator:short": "USPS", "operator:type": "public", "operator:wikidata": "Q668687", "ref": "0810900022"}, "type": "Feature"}
{"dataset_attributes": {"@spider": "usps_collection_boxes", "spider:collection_time": "2023-12-10T08:24:07.887270"}, "geometry": {"coordinates": [-75.0800392, 39.927298], "type": "Point"}, "id": "4GSjDk2U4yDal02qv02jY7R-kBA=", "properties": {"@spider": "usps_collection_boxes", "addr:city": "PENNSAUKEN", "addr:country": "US", "addr:full": "6981 N PARK DR", "addr:postcode": "08109", "addr:state": "NJ", "amenity": "post_box", "brand": "United States Postal Service", "brand:wikidata": "Q668687", "collection_times": "Mo-Fr 15:00", "name": "USPS COLLECTION BOX - BLUE BOX", "note": "ON 12/24 AND 12/31, THIS BOX MAY BE COLLECTED AS EARLY AS 12 NOON.", "nsi_id": "unitedstatespostalservice-a77078", "operator": "United States Postal Service", "operator:short": "USPS", "operator:type": "public", "operator:wikidata": "Q668687", "ref": "0810900050"}, "type": "Feature"}
{"dataset_attributes": {"@spider": "usps_collection_boxes", "spider:collection_time": "2023-12-10T08:24:07.887270"}, "geometry": {"coordinates": [-75.0595869, 39.933859], "type": "Point"}, "id": "oNa0oUONOOoaR1C-soa8aESZmbg=", "properties": {"@spider": "usps_collection_boxes", "addr:city": "PENNSAUKEN", "addr:country": "US", "addr:full": "5468 BURWOOD AVE", "addr:postcode": "08109", "addr:state": "NJ", "amenity": "post_box", "brand": "United States Postal Service", "brand:wikidata": "Q668687", "collection_times": "Mo-Fr 14:30; Sa 09:30", "name": "USPS COLLECTION BOX - BLUE BOX", "note": "ON 12/24 AND 12/31, THIS BOX MAY BE COLLECTED AS EARLY AS 12 NOON.", "nsi_id": "unitedstatespostalservice-a77078", "operator": "United States Postal Service", "operator:short": "USPS", "operator:type": "public", "operator:wikidata": "Q668687", "ref": "0810900057"}, "type": "Feature"}
{"dataset_attributes": {"@spider": "usps_collection_boxes", "spider:collection_time": "2023-12-10T08:24:07.887270"}, "geometry": {"coordinates": [-75.0676985, 39.931381], "type": "Point"}, "id": "u2u__PJri6sU9LSBBiTD5Bur7D0=", "properties": {"@spider": "usps_collection_boxes", "addr:city": "PENNSAUKEN", "addr:country": "US", "addr:full": "2500 MCCLELLAN AVE", "addr:postcode": "08109", "addr:state": "NJ", "amenity": "post_box", "brand": "United States Postal Service", "brand:wikidata": "Q668687", "collection_times": "Mo-Fr 15:00", "name": "USPS COLLECTION BOX - BLUE BOX", "note": "ON 12/24 AND 12/31, THIS BOX MAY BE COLLECTED AS EARLY AS 12 NOON.", "nsi_id": "unitedstatespostalservice-a77078", "operator": "United States Postal Service", "operator:short": "USPS", "operator:type": "public", "operator:wikidata": "Q668687", "ref": "0810900074"}, "type": "Feature"}
{"dataset_attributes": {"@spider": "usps_collection_boxes", "spider:collection_time": "2023-12-10T08:24:07.887270"}, "geometry": {"coordinates": [-75.0790941, 39.926906], "type": "Point"}, "id": "c3W2i_JNZcCu3HqhCg9HF7sLPhE=", "properties": {"@spider": "usps_collection_boxes", "addr:city": "PENNSAUKEN", "addr:country": "US", "addr:full": "6991 N PARK DR", "addr:postcode": "08109", "addr:state": "NJ", "amenity": "post_box", "brand": "United States Postal Service", "brand:wikidata": "Q668687", "collection_times": "Mo-Fr 15:00", "name": "USPS COLLECTION BOX - BLUE BOX", "note": "ON 12/24 AND 12/31, THIS BOX MAY BE COLLECTED AS EARLY AS 12 NOON.", "nsi_id": "unitedstatespostalservice-a77078", "operator": "United States Postal Service", "operator:short": "USPS", "operator:type": "public", "operator:wikidata": "Q668687", "ref": "0810900075"}, "type": "Feature"}
{"dataset_attributes": {"@spider": "usps_collection_boxes", "spider:collection_time": "2023-12-10T08:24:07.887270"}, "geometry": {"coordinates": [-75.07303, 39.934115], "type": "Point"}, "id": "RojxtJOWMSotRzUgIfDqeUhQ0Hk=", "properties": {"@spider": "usps_collection_boxes", "addr:city": "PENNSAUKEN", "addr:country": "US", "addr:full": "7882 BROWNING RD", "addr:postcode": "08109", "addr:state": "NJ", "amenity": "post_box", "brand": "United States Postal Service", "brand:wikidata": "Q668687", "collection_times": "Mo-Fr 15:00", "name": "USPS COLLECTION BOX - BLUE BOX", "note": "ON 12/24 AND 12/31, THIS BOX MAY BE COLLECTED AS EARLY AS 12 NOON.", "nsi_id": "unitedstatespostalservice-a77078", "operator": "United States Postal Service", "operator:short": "USPS", "operator:type": "public", "operator:wikidata": "Q668687", "ref": "0810900078"}, "type": "Feature"}
{"dataset_attributes": {"@spider": "usps_collection_boxes", "spider:collection_time": "2023-12-10T08:24:07.887270"}, "geometry": {"coordinates": [-75.0503244, 39.949741], "type": "Point"}, "id": "4U8JAe4s90v8yuHQDyhsrs8RMsg=", "properties": {"@spider": "usps_collection_boxes", "addr:city": "PENNSAUKEN", "addr:country": "US", "addr:full": "22 W MAPLE AVE", "addr:postcode": "08109", "addr:state": "NJ", "amenity": "post_box", "brand": "United States Postal Service", "brand:wikidata": "Q668687", "collection_times": "Mo-Fr 17:00; Sa 15:30", "name": "USPS COLLECTION BOX - BLUE BOX", "note": "ON 12/24 AND 12/31, THIS BOX MAY BE COLLECTED AS EARLY AS 12 NOON.", "nsi_id": "unitedstatespostalservice-a77078", "operator": "United States Postal Service", "operator:short": "USPS", "operator:type": "public", "operator:wikidata": "Q668687", "ref": "0810900079"}, "type": "Feature"}
{"dataset_attributes": {"@spider": "usps_collection_boxes", "spider:collection_time": "2023-12-10T08:24:07.887270"}, "geometry": {"coordinates": [-75.050379, 39.950223], "type": "Point"}, "id": "l2KYs_3s_1zq8Gn3Zm9boVotJqk=", "properties": {"@spider": "usps_collection_boxes", "addr:city": "PENNSAUKEN", "addr:country": "US", "addr:full": "22 W MAPLE AVE", "addr:postcode": "08109", "addr:state": "NJ", "amenity": "post_box", "brand": "United States Postal Service", "brand:wikidata": "Q668687", "collection_times": "Mo-Fr 17:00; Sa 12:30", "name": "USPS COLLECTION BOX - PO LOBBY", "note": "ON 12/24 AND 12/31, THIS BOX MAY BE COLLECTED AS EARLY AS 12 NOON.", "nsi_id": "unitedstatespostalservice-a77078", "operator": "United States Postal Service", "operator:short": "USPS", "operator:type": "public", "operator:wikidata": "Q668687", "ref": "0810900086"}, "type": "Feature"}
{"dataset_attributes": {"@spider": "usps_collection_boxes", "spider:collection_time": "2023-12-10T08:24:07.887270"}, "geometry": {"coordinates": [-75.02664, 39.954337], "type": "Point"}, "id": "J-MGN8W0pTBTamdmb5_YoDCHOoI=", "properties": {"@spider": "usps_collection_boxes", "addr:city": "PENNSAUKEN", "addr:country": "US", "addr:full": "4350 HADDONFIELD RD", "addr:postcode": "08109", "addr:state": "NJ", "amenity": "post_box", "brand": "United States Postal Service", "brand:wikidata": "Q668687", "collection_times": "Mo-Fr 14:00", "name": "USPS COLLECTION BOX - BLUE BOX", "note": "ON 12/24 AND 12/31, THIS BOX MAY BE COLLECTED AS EARLY AS 12 NOON.", "nsi_id": "unitedstatespostalservice-a77078", "operator": "United States Postal Service", "operator:short": "USPS", "operator:type": "public", "operator:wikidata": "Q668687", "ref": "0810900089"}, "type": "Feature"}
{"dataset_attributes": {"@spider": "usps_collection_boxes", "spider:collection_time": "2023-12-10T08:24:07.887270"}, "geometry": {"coordinates": [-75.0306692, 39.955698], "type": "Point"}, "id": "ooQBJJ4qPW7iNVPuzt0U3c1BQFM=", "properties": {"@spider": "usps_collection_boxes", "addr:city": "PENNSAUKEN", "addr:country": "US", "addr:full": "3730 HERBERT AVE", "addr:postcode": "08109", "addr:state": "NJ", "amenity": "post_box", "brand": "United States Postal Service", "brand:wikidata": "Q668687", "collection_times": "Mo-Fr 14:00; Sa 13:00", "name": "USPS COLLECTION BOX - BLUE BOX", "note": "ON 12/24 AND 12/31, THIS BOX MAY BE COLLECTED AS EARLY AS 12 NOON.", "nsi_id": "unitedstatespostalservice-a77078", "operator": "United States Postal Service", "operator:short": "USPS", "operator:type": "public", "operator:wikidata": "Q668687", "ref": "0810900091"}, "type": "Feature"}
{"dataset_attributes": {"@spider": "usps_collection_boxes", "spider:collection_time": "2023-12-10T08:24:07.887270"}, "geometry": {"coordinates": [-75.050377565, 39.950215557], "type": "Point"}, "id": "eR5-w5eOCMlw6h_47Y0G0lE_mi8=", "properties": {"@spider": "usps_collection_boxes", "addr:city": "PENNSAUKEN", "addr:country": "US", "addr:full": "22 W MAPLE AVE", "addr:postcode": "08109", "addr:state": "NJ", "amenity": "post_box", "brand": "United States Postal Service", "brand:wikidata": "Q668687", "collection_times": "Mo-Fr 17:00; Sa 12:30", "name": "USPS COLLECTION BOX - PO LOBBY", "note": "ON 12/24 AND 12/31, THIS BOX MAY BE COLLECTED AS EARLY AS 12 NOON.", "nsi_id": "unitedstatespostalservice-a77078", "operator": "United States Postal Service", "operator:short": "USPS", "operator:type": "public", "operator:wikidata": "Q668687", "ref": "0810900103"}, "type": "Feature"}
{"dataset_attributes": {"@spider": "usps_collection_boxes", "spider:collection_time": "2023-12-10T08:24:07.887270"}, "geometry": {"coordinates": [-75.0667763, 39.957685273], "type": "Point"}, "id": "WrLPgYNLNN-5DX9bMzyxzMwjNgg=", "properties": {"@spider": "usps_collection_boxes", "addr:city": "PENNSAUKEN", "addr:country": "US", "addr:full": "4724 WESTFIELD AVE", "addr:postcode": "08110", "addr:state": "NJ", "amenity": "post_box", "brand": "United States Postal Service", "brand:wikidata": "Q668687", "collection_times": "Mo-Fr 17:00; Sa 16:00", "name": "USPS COLLECTION BOX - BLUE BOX", "note": "ON 12/24 AND 12/31, THIS BOX MAY BE COLLECTED AS EARLY AS 12 NOON.", "nsi_id": "unitedstatespostalservice-a77078", "operator": "United States Postal Service", "operator:short": "USPS", "operator:type": "public", "operator:wikidata": "Q668687", "ref": "0811000001"}, "type": "Feature"}
{"dataset_attributes": {"@spider": "usps_collection_boxes", "spider:collection_time": "2023-12-10T08:24:07.887270"}, "geometry": {"coordinates": [-75.0431389244, 39.9829893111], "type": "Point"}, "id": "1yXZzEQyz3onZkWUkuP29h8ZFfI=", "properties": {"@spider": "usps_collection_boxes", "addr:city": "PENNSAUKEN", "addr:country": "US", "addr:full": "1201 JOHN TIPTON BLVD", "addr:postcode": "08110", "addr:state": "NJ", "amenity": "post_box", "brand": "United States Postal Service", "brand:wikidata": "Q668687", "collection_times": "Mo-Fr 14:00", "name": "USPS COLLECTION BOX - BLUE BOX", "note": "ON 12/24 AND 12/31, THIS BOX MAY BE COLLECTED AS EARLY AS 12 NOON.", "nsi_id": "unitedstatespostalservice-a77078", "operator": "United States Postal Service", "operator:short": "USPS", "operator:type": "public", "operator:wikidata": "Q668687", "ref": "0811000008"}, "type": "Feature"}
{"dataset_attributes": {"@spider": "usps_collection_boxes", "spider:collection_time": "2023-12-10T08:24:07.887270"}, "geometry": {"coordinates": [-75.0598435, 39.962317], "type": "Point"}, "id": "rCs9FvLs6IO6kqAO3rHfV7d514A=", "properties": {"@spider": "usps_collection_boxes", "addr:city": "PENNSAUKEN", "addr:country": "US", "addr:full": "6001 WESTFIELD AVE", "addr:postcode": "08110", "addr:state": "NJ", "amenity": "post_box", "brand": "United States Postal Service", "brand:wikidata": "Q668687", "collection_times": "Mo-Fr 14:30; Sa 11:30", "name": "USPS COLLECTION BOX - BLUE BOX", "note": "ON 12/24 AND 12/31, THIS BOX MAY BE COLLECTED AS EARLY AS 12 NOON.", "nsi_id": "unitedstatespostalservice-a77078", "operator": "United States Postal Service", "operator:short": "USPS", "operator:type": "public", "operator:wikidata": "Q668687", "ref": "0811000018"}, "type": "Feature"}
{"dataset_attributes": {"@spider": "usps_collection_boxes", "spider:collection_time": "2023-12-10T08:24:07.887270"}, "geometry": {"coordinates": [-75.0728235, 39.963897], "type": "Point"}, "id": "ejI7T9ZHctG8tkQGBOWAd1KatzI=", "properties": {"@spider": "usps_collection_boxes", "addr:city": "PENNSAUKEN", "addr:country": "US", "addr:full": "4700 RIVER RD", "addr:postcode": "08110", "addr:state": "NJ", "amenity": "post_box", "brand": "United States Postal Service", "brand:wikidata": "Q668687", "collection_times": "Mo-Fr 14:30; Sa 11:00", "name": "USPS COLLECTION BOX - BLUE BOX", "note": "ON 12/24 AND 12/31, THIS BOX MAY BE COLLECTED AS EARLY AS 12 NOON.", "nsi_id": "unitedstatespostalservice-a77078", "operator": "United States Postal Service", "operator:short": "USPS", "operator:type": "public", "operator:wikidata": "Q668687", "ref": "0811000023"}, "type": "Feature"}
{"dataset_attributes": {"@spider": "usps_collection_boxes", "spider:collection_time": "2023-12-10T08:24:07.887270"}, "geometry": {"coordinates": [-75.029437, 39.988733], "type": "Point"}, "id": "BAJ1DV7ZTvrtdN-UbAJv3QV4UZ8=", "properties": {"@spider": "usps_collection_boxes", "addr:city": "PENNSAUKEN", "addr:country": "US", "addr:full": "731 HYLTON RD", "addr:postcode": "08110", "addr:state": "NJ", "amenity": "post_box", "brand": "United States Postal Service", "brand:wikidata": "Q668687", "collection_times": "Mo-Fr 14:00", "name": "USPS COLLECTION BOX - BLUE BOX", "note": "ON 12/24 AND 12/31, THIS BOX MAY BE COLLECTED AS EARLY AS 12 NOON.", "nsi_id": "unitedstatespostalservice-a77078", "operator": "United States Postal Service", "operator:short": "USPS", "operator:type": "public", "operator:wikidata": "Q668687", "ref": "0811000040"}, "type": "Feature"}
{"dataset_attributes": {"@spider": "usps_collection_boxes", "spider:collection_time": "2023-12-10T08:24:07.887270"}, "geometry": {"coordinates": [-75.0667763, 39.957685273], "type": "Point"}, "id": "ZZZEcdNrCauYrs8LcPaT-fXXR40=", "properties": {"@spider": "usps_collection_boxes", "addr:city": "PENNSAUKEN", "addr:country": "US", "addr:full": "4724 WESTFIELD AVE", "addr:postcode": "08110", "addr:state": "NJ", "amenity": "post_box", "brand": "United States Postal Service", "brand:wikidata": "Q668687", "collection_times": "Mo-Fr 17:00; Sa 16:00", "name": "USPS COLLECTION BOX - BLUE BOX", "note": "ON 12/24 AND 12/31, THIS BOX MAY BE COLLECTED AS EARLY AS 12 NOON.", "nsi_id": "unitedstatespostalservice-a77078", "operator": "United States Postal Service", "operator:short": "USPS", "operator:type": "public", "operator:wikidata": "Q668687", "ref": "0811000048"}, "type": "Feature"}
{"dataset_attributes": {"@spider": "usps_collection_boxes", "spider:collection_time": "2023-12-10T08:24:07.887270"}, "geometry": {"coordinates": [-75.066704, 39.957735], "type": "Point"}, "id": "JocaT9MPvFHoZxxh5kTBazUTREA=", "properties": {"@spider": "usps_collection_boxes", "addr:city": "PENNSAUKEN", "addr:country": "US", "addr:full": "4724 WESTFIELD AVE", "addr:postcode": "08110", "addr:state": "NJ", "amenity": "post_box", "brand": "United States Postal Service", "brand:wikidata": "Q668687", "collection_times": "Mo-Fr 17:00; Sa 12:30", "name": "USPS COLLECTION BOX - PO LOBBY", "note": "ON 12/24 AND 12/31, THIS BOX MAY BE COLLECTED AS EARLY AS 12 NOON.", "nsi_id": "unitedstatespostalservice-a77078", "operator": "United States Postal Service", "operator:short": "USPS", "operator:type": "public", "operator:wikidata": "Q668687", "ref": "0811000049"}, "type": "Feature"}
{"dataset_attributes": {"@spider": "usps_collection_boxes", "spider:collection_time": "2023-12-10T08:24:07.887270"}, "geometry": {"coordinates": [-75.0667763, 39.957685273], "type": "Point"}, "id": "h7dhLPW3IZLR3k9gc5zCaLCDRlU=", "properties": {"@spider": "usps_collection_boxes", "addr:city": "PENNSAUKEN", "addr:country": "US", "addr:full": "4724 WESTFIELD AVE", "addr:postcode": "08110", "addr:state": "NJ", "amenity": "post_box", "brand": "United States Postal Service", "brand:wikidata": "Q668687", "collection_times": "Mo-Fr 16:45; Sa 12:30", "name": "USPS COLLECTION BOX - PO LOBBY", "note": "ON 12/24 AND 12/31, THIS BOX MAY BE COLLECTED AS EARLY AS 12 NOON.", "nsi_id": "unitedstatespostalservice-a77078", "operator": "United States Postal Service", "operator:short": "USPS", "operator:type": "public", "operator:wikidata": "Q668687", "ref": "0811000054"}, "type": "Feature"}
