{"dataset_attributes": {"@spider": "usps_collection_boxes", "spider:collection_time": "2023-09-25T08:26:09.915926"}, "geometry": {"coordinates": [-74.5012565, 39.425356], "type": "Point"}, "id": "rVXE06a2C8KTFPK3vT1pIKjfCLU=", "properties": {"@spider": "usps_collection_boxes", "addr:city": "ABSECON", "addr:country": "US", "addr:full": "136 NEW JERSEY AVE", "addr:postcode": "08201", "addr:state": "NJ", "amenity": "post_box", "brand": "United States Postal Service", "brand:wikidata": "Q668687", "collection_times": "Mo-Sa 10:00", "name": "USPS COLLECTION BOX - BLUE BOX", "nsi_id": "unitedstatespostalservice-a77078", "operator": "United States Postal Service", "operator:short": "USPS", "operator:type": "public", "operator:wikidata": "Q668687", "ref": "0820100014"}, "type": "Feature"}
{"dataset_attributes": {"@spider": "usps_collection_boxes", "spider:collection_time": "2023-09-25T08:26:09.915926"}, "geometry": {"coordinates": [-74.5108421, 39.433006], "type": "Point"}, "id": "gemIQk1mJBnG65TBlfb2-TOPvos=", "properties": {"@spider": "usps_collection_boxes", "addr:city": "ABSECON", "addr:country": "US", "addr:full": "616 WHITE HORSE PIKE", "addr:postcode": "08201", "addr:state": "NJ", "amenity": "post_box", "brand": "United States Postal Service", "brand:wikidata": "Q668687", "collection_times": "Mo-Sa 09:00", "name": "USPS COLLECTION BOX - BLUE BOX", "nsi_id": "unitedstatespostalservice-a77078", "operator": "United States Postal Service", "operator:short": "USPS", "operator:type": "public", "operator:wikidata": "Q668687", "ref": "0820100015"}, "type": "Feature"}
{"dataset_attributes": {"@spider": "usps_collection_boxes", "spider:collection_time": "2023-09-25T08:26:09.915926"}, "geometry": {"coordinates": [-74.5077296, 39.432688], "type": "Point"}, "id": "lOeS9zZy2Oz-YL5WAlU2NZbpfnM=", "properties": {"@spider": "usps_collection_boxes", "addr:city": "ABSECON", "addr:country": "US", "addr:full": "500 MILL RD", "addr:postcode": "08201", "addr:state": "NJ", "amenity": "post_box", "brand": "United States Postal Service", "brand:wikidata": "Q668687", "collection_times": "Mo-Sa 10:00", "name": "USPS COLLECTION BOX - BLUE BOX", "nsi_id": "unitedstatespostalservice-a77078", "operator": "United States Postal Service", "operator:short": "USPS", "operator:type": "public", "operator:wikidata": "Q668687", "ref": "0820100019"}, "type": "Feature"}
{"dataset_attributes": {"@spider": "usps_collection_boxes", "spider:collection_time": "2023-09-25T08:26:09.915926"}, "geometry": {"coordinates": [-74.515091, 39.43687], "type": "Point"}, "id": "sBkYRGoftRPy0lxWLsFghCow5Mc=", "properties": {"@spider": "usps_collection_boxes", "addr:city": "ABSECON", "addr:country": "US", "addr:full": "1001 NEW JERSEY AVE", "addr:postcode": "08201", "addr:state": "NJ", "amenity": "post_box", "brand": "United States Postal Service", "brand:wikidata": "Q668687", "collection_times": "Mo-Fr 17:15; Sa 13:00", "name": "USPS COLLECTION BOX - BLUE BOX", "note": "ON 12/24 AND 12/31, THIS BOX MAY BE COLLECTED AS EARLY AS 12 NOON.", "nsi_id": "unitedstatespostalservice-a77078", "operator": "United States Postal Service", "operator:short": "USPS", "operator:type": "public", "operator:wikidata": "Q668687", "ref": "0820100024"}, "type": "Feature"}
{"dataset_attributes": {"@spider": "usps_collection_boxes", "spider:collection_time": "2023-09-25T08:26:09.915926"}, "geometry": {"coordinates": [-74.514981, 39.43683], "type": "Point"}, "id": "fHS6S4aJUUJ1nEUjbLn-xULhRUA=", "properties": {"@spider": "usps_collection_boxes", "addr:city": "ABSECON", "addr:country": "US", "addr:full": "1001 NEW JERSEY AVE", "addr:postcode": "08201", "addr:state": "NJ", "amenity": "post_box", "brand": "United States Postal Service", "brand:wikidata": "Q668687", "collection_times": "Mo-Fr 17:15; Sa 13:00", "name": "USPS COLLECTION BOX - PO LOBBY", "note": "ON 12/24 AND 12/31, THIS BOX MAY BE COLLECTED AS EARLY AS 12 NOON.", "nsi_id": "unitedstatespostalservice-a77078", "operator": "United States Postal Service", "operator:short": "USPS", "operator:type": "public", "operator:wikidata": "Q668687", "ref": "0820100030"}, "type": "Feature"}
{"dataset_attributes": {"@spider": "usps_collection_boxes", "spider:collection_time": "2023-09-25T08:26:09.915926"}, "geometry": {"coordinates": [-74.514981, 39.43683], "type": "Point"}, "id": "dmGlsd2DzTvphF2J9c7Z1dIzwIE=", "properties": {"@spider": "usps_collection_boxes", "addr:city": "ABSECON", "addr:country": "US", "addr:full": "1001 NEW JERSEY AVE", "addr:postcode": "08201", "addr:state": "NJ", "amenity": "post_box", "brand": "United States Postal Service", "brand:wikidata": "Q668687", "collection_times": "Mo-Fr 17:15; Sa 13:00", "name": "USPS COLLECTION BOX - BLUE BOX", "note": "ON 12/24 AND 12/31, THIS BOX MAY BE COLLECTED AS EARLY AS 12 NOON.", "nsi_id": "unitedstatespostalservice-a77078", "operator": "United States Postal Service", "operator:short": "USPS", "operator:type": "public", "operator:wikidata": "Q668687", "ref": "0820100038"}, "type": "Feature"}
{"dataset_attributes": {"@spider": "usps_collection_boxes", "spider:collection_time": "2023-09-25T08:26:09.915926"}, "geometry": {"coordinates": [-74.515420144, 39.43709467], "type": "Point"}, "id": "RPT_o51xeXWtpEF9br4cj2CL4es=", "properties": {"@spider": "usps_collection_boxes", "addr:city": "ABSECON", "addr:country": "US", "addr:full": "1001 NEW JERSEY AVE", "addr:postcode": "08201", "addr:state": "NJ", "amenity": "post_box", "brand": "United States Postal Service", "brand:wikidata": "Q668687", "collection_times": "Mo-Fr 17:00; Sa 13:00", "name": "USPS COLLECTION BOX - PO LOBBY", "note": "ON 12/24 AND 12/31, THIS BOX MAY BE COLLECTED AS EARLY AS 12 NOON.", "nsi_id": "unitedstatespostalservice-a77078", "operator": "United States Postal Service", "operator:short": "USPS", "operator:type": "public", "operator:wikidata": "Q668687", "ref": "0820100043"}, "type": "Feature"}
{"dataset_attributes": {"@spider": "usps_collection_boxes", "spider:collection_time": "2023-09-25T08:26:09.915926"}, "geometry": {"coordinates": [-74.723962, 39.09436], "type": "Point"}, "id": "NQzMLrZ3okbIuGKOtjq9gaTgXB0=", "properties": {"@spider": "usps_collection_boxes", "addr:city": "AVALON", "addr:country": "US", "addr:full": "3219 DUNE DR", "addr:postcode": "08202", "addr:state": "NJ", "amenity": "post_box", "brand": "United States Postal Service", "brand:wikidata": "Q668687", "collection_times": "Mo-Fr 17:00; Sa 11:45", "name": "USPS COLLECTION BOX - BLUE BOX", "note": "ON 12/24 AND 12/31, THIS BOX MAY BE COLLECTED AS EARLY AS 12 NOON.", "nsi_id": "unitedstatespostalservice-a77078", "operator": "United States Postal Service", "operator:short": "USPS", "operator:type": "public", "operator:wikidata": "Q668687", "ref": "0820200002"}, "type": "Feature"}
{"dataset_attributes": {"@spider": "usps_collection_boxes", "spider:collection_time": "2023-09-25T08:26:09.915926"}, "geometry": {"coordinates": [-74.72395, 39.094422], "type": "Point"}, "id": "Wh32FHLSq7hVIGnFO8r0gI0SXBg=", "properties": {"@spider": "usps_collection_boxes", "addr:city": "AVALON", "addr:country": "US", "addr:full": "3219 DUNE DR", "addr:postcode": "08202", "addr:state": "NJ", "amenity": "post_box", "brand": "United States Postal Service", "brand:wikidata": "Q668687", "collection_times": "Mo-Fr 17:00; Sa 11:45", "name": "USPS COLLECTION BOX - BLUE BOX", "note": "ON 12/24 AND 12/31, THIS BOX MAY BE COLLECTED AS EARLY AS 12 NOON.", "nsi_id": "unitedstatespostalservice-a77078", "operator": "United States Postal Service", "operator:short": "USPS", "operator:type": "public", "operator:wikidata": "Q668687", "ref": "0820200003"}, "type": "Feature"}
{"dataset_attributes": {"@spider": "usps_collection_boxes", "spider:collection_time": "2023-09-25T08:26:09.915926"}, "geometry": {"coordinates": [-74.7182104, 39.097924], "type": "Point"}, "id": "rqu1MSsZRyrUtJKvrIrB5vGYM44=", "properties": {"@spider": "usps_collection_boxes", "addr:city": "AVALON", "addr:country": "US", "addr:full": "2501 1ST AVE", "addr:postcode": "08202", "addr:state": "NJ", "amenity": "post_box", "brand": "United States Postal Service", "brand:wikidata": "Q668687", "collection_times": "Mo-Sa 10:45", "name": "USPS COLLECTION BOX - BLUE BOX", "nsi_id": "unitedstatespostalservice-a77078", "operator": "United States Postal Service", "operator:short": "USPS", "operator:type": "public", "operator:wikidata": "Q668687", "ref": "0820200008"}, "type": "Feature"}
{"dataset_attributes": {"@spider": "usps_collection_boxes", "spider:collection_time": "2023-09-25T08:26:09.915926"}, "geometry": {"coordinates": [-74.7220294, 39.097183], "type": "Point"}, "id": "gcVDUVzAjE7Zk7V-mIzt4OrgcPE=", "properties": {"@spider": "usps_collection_boxes", "addr:city": "AVALON", "addr:country": "US", "addr:full": "2808 DUNE DR", "addr:postcode": "08202", "addr:state": "NJ", "amenity": "post_box", "brand": "United States Postal Service", "brand:wikidata": "Q668687", "collection_times": "Mo-Sa 10:30", "name": "USPS COLLECTION BOX - BLUE BOX", "nsi_id": "unitedstatespostalservice-a77078", "operator": "United States Postal Service", "operator:short": "USPS", "operator:type": "public", "operator:wikidata": "Q668687", "ref": "0820200009"}, "type": "Feature"}
{"dataset_attributes": {"@spider": "usps_collection_boxes", "spider:collection_time": "2023-09-25T08:26:09.915926"}, "geometry": {"coordinates": [-74.7092029, 39.109025], "type": "Point"}, "id": "Y0TDbA0s5XYO95cdZYZ3TZCB0eQ=", "properties": {"@spider": "usps_collection_boxes", "addr:city": "AVALON", "addr:country": "US", "addr:full": "818 1ST AVE", "addr:postcode": "08202", "addr:state": "NJ", "amenity": "post_box", "brand": "United States Postal Service", "brand:wikidata": "Q668687", "collection_times": "Mo-Sa 12:30", "name": "USPS COLLECTION BOX - BLUE BOX", "note": "ON 12/24 AND 12/31, THIS BOX MAY BE COLLECTED AS EARLY AS 12 NOON.", "nsi_id": "unitedstatespostalservice-a77078", "operator": "United States Postal Service", "operator:short": "USPS", "operator:type": "public", "operator:wikidata": "Q668687", "ref": "0820200010"}, "type": "Feature"}
{"dataset_attributes": {"@spider": "usps_collection_boxes", "spider:collection_time": "2023-09-25T08:26:09.915926"}, "geometry": {"coordinates": [-74.7283606, 39.106845], "type": "Point"}, "id": "23D-JrpJWP_9kNX4ADG84ry6mac=", "properties": {"@spider": "usps_collection_boxes", "addr:city": "AVALON", "addr:country": "US", "addr:full": "2105 7TH AVE", "addr:postcode": "08202", "addr:state": "NJ", "amenity": "post_box", "brand": "United States Postal Service", "brand:wikidata": "Q668687", "collection_times": "Mo-Sa 09:30", "name": "USPS COLLECTION BOX - BLUE BOX", "nsi_id": "unitedstatespostalservice-a77078", "operator": "United States Postal Service", "operator:short": "USPS", "operator:type": "public", "operator:wikidata": "Q668687", "ref": "0820200011"}, "type": "Feature"}
{"dataset_attributes": {"@spider": "usps_collection_boxes", "spider:collection_time": "2023-09-25T08:26:09.915926"}, "geometry": {"coordinates": [-74.7334327, 39.090151], "type": "Point"}, "id": "w7ZQWb1OPUFa5Hv_vmegl9e-tf0=", "properties": {"@spider": "usps_collection_boxes", "addr:city": "AVALON", "addr:country": "US", "addr:full": "318 42ND ST", "addr:postcode": "08202", "addr:state": "NJ", "amenity": "post_box", "brand": "United States Postal Service", "brand:wikidata": "Q668687", "collection_times": "Mo-Sa 10:45", "name": "USPS COLLECTION BOX - BLUE BOX", "nsi_id": "unitedstatespostalservice-a77078", "operator": "United States Postal Service", "operator:short": "USPS", "operator:type": "public", "operator:wikidata": "Q668687", "ref": "0820200012"}, "type": "Feature"}
{"dataset_attributes": {"@spider": "usps_collection_boxes", "spider:collection_time": "2023-09-25T08:26:09.915926"}, "geometry": {"coordinates": [-74.7416417, 39.077044], "type": "Point"}, "id": "APKmQqqaYAvGNregrf4lbUNTR-A=", "properties": {"@spider": "usps_collection_boxes", "addr:city": "AVALON", "addr:country": "US", "addr:full": "6089 OCEAN DR", "addr:postcode": "08202", "addr:state": "NJ", "amenity": "post_box", "brand": "United States Postal Service", "brand:wikidata": "Q668687", "collection_times": "Mo-Sa 13:00", "name": "USPS COLLECTION BOX - BLUE BOX", "note": "ON 12/24 AND 12/31, THIS BOX MAY BE COLLECTED AS EARLY AS 12 NOON.", "nsi_id": "unitedstatespostalservice-a77078", "operator": "United States Postal Service", "operator:short": "USPS", "operator:type": "public", "operator:wikidata": "Q668687", "ref": "0820200014"}, "type": "Feature"}
{"dataset_attributes": {"@spider": "usps_collection_boxes", "spider:collection_time": "2023-09-25T08:26:09.915926"}, "geometry": {"coordinates": [-74.7493099, 39.064223], "type": "Point"}, "id": "PLW6Rhl-RPsuYcu6bpngHACpXqI=", "properties": {"@spider": "usps_collection_boxes", "addr:city": "AVALON", "addr:country": "US", "addr:full": "7849 DUNE DR", "addr:postcode": "08202", "addr:state": "NJ", "amenity": "post_box", "brand": "United States Postal Service", "brand:wikidata": "Q668687", "collection_times": "Mo-Sa 12:45", "name": "USPS COLLECTION BOX - BLUE BOX", "note": "ON 12/24 AND 12/31, THIS BOX MAY BE COLLECTED AS EARLY AS 12 NOON.", "nsi_id": "unitedstatespostalservice-a77078", "operator": "United States Postal Service", "operator:short": "USPS", "operator:type": "public", "operator:wikidata": "Q668687", "ref": "0820200016"}, "type": "Feature"}
{"dataset_attributes": {"@spider": "usps_collection_boxes", "spider:collection_time": "2023-09-25T08:26:09.915926"}, "geometry": {"coordinates": [-74.72395, 39.094422], "type": "Point"}, "id": "MfFi2NCpXosEh2sw7_05QKkrDE8=", "properties": {"@spider": "usps_collection_boxes", "addr:city": "AVALON", "addr:country": "US", "addr:full": "3219 DUNE DR", "addr:postcode": "08202", "addr:state": "NJ", "amenity": "post_box", "brand": "United States Postal Service", "brand:wikidata": "Q668687", "collection_times": "Mo-Fr 17:00; Sa 12:00", "name": "USPS COLLECTION BOX - PO LOBBY", "note": "ON 12/24 AND 12/31, THIS BOX MAY BE COLLECTED AS EARLY AS 12 NOON.", "nsi_id": "unitedstatespostalservice-a77078", "operator": "United States Postal Service", "operator:short": "USPS", "operator:type": "public", "operator:wikidata": "Q668687", "ref": "0820200018"}, "type": "Feature"}
{"dataset_attributes": {"@spider": "usps_collection_boxes", "spider:collection_time": "2023-09-25T08:26:09.915926"}, "geometry": {"coordinates": [-74.724148578, 39.094137745], "type": "Point"}, "id": "v-bUG5YS0A4Oyc_nZ5f1K9GfjuY=", "properties": {"@spider": "usps_collection_boxes", "addr:city": "AVALON", "addr:country": "US", "addr:full": "3219 DUNE DR", "addr:postcode": "08202", "addr:state": "NJ", "amenity": "post_box", "brand": "United States Postal Service", "brand:wikidata": "Q668687", "collection_times": "Mo-Fr 16:45; Sa 12:00", "name": "USPS COLLECTION BOX - PO LOBBY", "note": "ON 12/24 AND 12/31, THIS BOX MAY BE COLLECTED AS EARLY AS 12 NOON.", "nsi_id": "unitedstatespostalservice-a77078", "operator": "United States Postal Service", "operator:short": "USPS", "operator:type": "public", "operator:wikidata": "Q668687", "ref": "0820200021"}, "type": "Feature"}
{"dataset_attributes": {"@spider": "usps_collection_boxes", "spider:collection_time": "2023-09-25T08:26:09.915926"}, "geometry": {"coordinates": [-74.3900233, 39.391131], "type": "Point"}, "id": "YdFVV2uiv5NzfnT06RoOAo83WQU=", "properties": {"@spider": "usps_collection_boxes", "addr:city": "BRIGANTINE", "addr:country": "US", "addr:full": "3801 W BRIGANTINE AVE", "addr:postcode": "08203", "addr:state": "NJ", "amenity": "post_box", "brand": "United States Postal Service", "brand:wikidata": "Q668687", "collection_times": "Mo-Sa 13:00", "name": "USPS COLLECTION BOX - BLUE BOX", "note": "ON 12/24 AND 12/31, THIS BOX MAY BE COLLECTED AS EARLY AS 12 NOON.", "nsi_id": "unitedstatespostalservice-a77078", "operator": "United States Postal Service", "operator:short": "USPS", "operator:type": "public", "operator:wikidata": "Q668687", "ref": "0820300003"}, "type": "Feature"}
{"dataset_attributes": {"@spider": "usps_collection_boxes", "spider:collection_time": "2023-09-25T08:26:09.915926"}, "geometry": {"coordinates": [-74.3852845, 39.396607], "type": "Point"}, "id": "wzPsp_szpWgMdMptuyhqVSpwvgQ=", "properties": {"@spider": "usps_collection_boxes", "addr:city": "BRIGANTINE", "addr:country": "US", "addr:full": "2901 REVERE BLVD", "addr:postcode": "08203", "addr:state": "NJ", "amenity": "post_box", "brand": "United States Postal Service", "brand:wikidata": "Q668687", "collection_times": "Mo-Sa 09:30", "name": "USPS COLLECTION BOX - BLUE BOX", "nsi_id": "unitedstatespostalservice-a77078", "operator": "United States Postal Service", "operator:short": "USPS", "operator:type": "public", "operator:wikidata": "Q668687", "ref": "0820300004"}, "type": "Feature"}
{"dataset_attributes": {"@spider": "usps_collection_boxes", "spider:collection_time": "2023-09-25T08:26:09.915926"}, "geometry": {"coordinates": [-74.3751043, 39.402669], "type": "Point"}, "id": "3sw_HHxhK90AOuYHlz5Pq5sH_4Q=", "properties": {"@spider": "usps_collection_boxes", "addr:city": "BRIGANTINE", "addr:country": "US", "addr:full": "1501 REVERE BLVD", "addr:postcode": "08203", "addr:state": "NJ", "amenity": "post_box", "brand": "United States Postal Service", "brand:wikidata": "Q668687", "collection_times": "Mo-Sa 13:00", "name": "USPS COLLECTION BOX - BLUE BOX", "note": "ON 12/24 AND 12/31, THIS BOX MAY BE COLLECTED AS EARLY AS 12 NOON.", "nsi_id": "unitedstatespostalservice-a77078", "operator": "United States Postal Service", "operator:short": "USPS", "operator:type": "public", "operator:wikidata": "Q668687", "ref": "0820300007"}, "type": "Feature"}
{"dataset_attributes": {"@spider": "usps_collection_boxes", "spider:collection_time": "2023-09-25T08:26:09.915926"}, "geometry": {"coordinates": [-74.3692399, 39.404065], "type": "Point"}, "id": "HgsMVNJbKQICh0egYgF1-vA3P7I=", "properties": {"@spider": "usps_collection_boxes", "addr:city": "BRIGANTINE", "addr:country": "US", "addr:full": "260 9TH ST S", "addr:postcode": "08203", "addr:state": "NJ", "amenity": "post_box", "brand": "United States Postal Service", "brand:wikidata": "Q668687", "collection_times": "Mo-Sa 10:00", "name": "USPS COLLECTION BOX - BLUE BOX", "nsi_id": "unitedstatespostalservice-a77078", "operator": "United States Postal Service", "operator:short": "USPS", "operator:type": "public", "operator:wikidata": "Q668687", "ref": "0820300010"}, "type": "Feature"}
{"dataset_attributes": {"@spider": "usps_collection_boxes", "spider:collection_time": "2023-09-25T08:26:09.915926"}, "geometry": {"coordinates": [-74.3691216, 39.408572], "type": "Point"}, "id": "i0BbVdC8L9ZXMKlTnKXaqgxg7j8=", "properties": {"@spider": "usps_collection_boxes", "addr:city": "BRIGANTINE", "addr:country": "US", "addr:full": "501 W EVANS BLVD", "addr:postcode": "08203", "addr:state": "NJ", "amenity": "post_box", "brand": "United States Postal Service", "brand:wikidata": "Q668687", "collection_times": "Mo-Sa 11:00", "name": "USPS COLLECTION BOX - BLUE BOX", "nsi_id": "unitedstatespostalservice-a77078", "operator": "United States Postal Service", "operator:short": "USPS", "operator:type": "public", "operator:wikidata": "Q668687", "ref": "0820300011"}, "type": "Feature"}
{"dataset_attributes": {"@spider": "usps_collection_boxes", "spider:collection_time": "2023-09-25T08:26:09.915926"}, "geometry": {"coordinates": [-74.397305, 39.390858], "type": "Point"}, "id": "MuRCr6hg82sitwMZZNod7mMcUk8=", "properties": {"@spider": "usps_collection_boxes", "addr:city": "BRIGANTINE", "addr:country": "US", "addr:full": "4326 HARBOUR BEACH BLVD", "addr:postcode": "08203", "addr:state": "NJ", "amenity": "post_box", "brand": "United States Postal Service", "brand:wikidata": "Q668687", "collection_times": "Mo-Fr 17:00; Sa 13:00", "name": "USPS COLLECTION BOX - BLUE BOX", "note": "ON 12/24 AND 12/31, THIS BOX MAY BE COLLECTED AS EARLY AS 12 NOON.", "nsi_id": "unitedstatespostalservice-a77078", "operator": "United States Postal Service", "operator:short": "USPS", "operator:type": "public", "operator:wikidata": "Q668687", "ref": "0820300017"}, "type": "Feature"}
{"dataset_attributes": {"@spider": "usps_collection_boxes", "spider:collection_time": "2023-09-25T08:26:09.915926"}, "geometry": {"coordinates": [-74.4017372, 39.383596], "type": "Point"}, "id": "7gjOUZYnsvOTncjTR6mdYxl7KDw=", "properties": {"@spider": "usps_collection_boxes", "addr:city": "BRIGANTINE", "addr:country": "US", "addr:full": "4901 HARBOUR BEACH BLVD", "addr:postcode": "08203", "addr:state": "NJ", "amenity": "post_box", "brand": "United States Postal Service", "brand:wikidata": "Q668687", "collection_times": "Mo-Sa 09:30", "name": "USPS COLLECTION BOX - BLUE BOX", "nsi_id": "unitedstatespostalservice-a77078", "operator": "United States Postal Service", "operator:short": "USPS", "operator:type": "public", "operator:wikidata": "Q668687", "ref": "0820300018"}, "type": "Feature"}
{"dataset_attributes": {"@spider": "usps_collection_boxes", "spider:collection_time": "2023-09-25T08:26:09.915926"}, "geometry": {"coordinates": [-74.3589333, 39.411059], "type": "Point"}, "id": "XI2ErUlqou8h9tfp5L3XQIyS1xA=", "properties": {"@spider": "usps_collection_boxes", "addr:city": "BRIGANTINE", "addr:country": "US", "addr:full": "701 E BRIGANTINE AVE", "addr:postcode": "08203", "addr:state": "NJ", "amenity": "post_box", "brand": "United States Postal Service", "brand:wikidata": "Q668687", "collection_times": "Mo-Sa 09:30", "name": "USPS COLLECTION BOX - BLUE BOX", "nsi_id": "unitedstatespostalservice-a77078", "operator": "United States Postal Service", "operator:short": "USPS", "operator:type": "public", "operator:wikidata": "Q668687", "ref": "0820300019"}, "type": "Feature"}
{"dataset_attributes": {"@spider": "usps_collection_boxes", "spider:collection_time": "2023-09-25T08:26:09.915926"}, "geometry": {"coordinates": [-74.3952459, 39.39397], "type": "Point"}, "id": "bEbDkDlRxGoReGGTwBtTxMPd1uQ=", "properties": {"@spider": "usps_collection_boxes", "addr:city": "BRIGANTINE", "addr:country": "US", "addr:full": "4230 HARBOUR BEACH BLVD", "addr:postcode": "08203", "addr:state": "NJ", "amenity": "post_box", "brand": "United States Postal Service", "brand:wikidata": "Q668687", "collection_times": "Mo-Sa 10:00", "name": "USPS COLLECTION BOX - BLUE BOX", "nsi_id": "unitedstatespostalservice-a77078", "operator": "United States Postal Service", "operator:short": "USPS", "operator:type": "public", "operator:wikidata": "Q668687", "ref": "0820300022"}, "type": "Feature"}
{"dataset_attributes": {"@spider": "usps_collection_boxes", "spider:collection_time": "2023-09-25T08:26:09.915926"}, "geometry": {"coordinates": [-74.39734, 39.3909], "type": "Point"}, "id": "LcED1MJFwvItF1d391guPsNCVDI=", "properties": {"@spider": "usps_collection_boxes", "addr:city": "BRIGANTINE", "addr:country": "US", "addr:full": "4326 HARBOUR BEACH BLVD", "addr:postcode": "08203", "addr:state": "NJ", "amenity": "post_box", "brand": "United States Postal Service", "brand:wikidata": "Q668687", "collection_times": "Mo-Fr 17:00; Sa 13:00", "name": "USPS COLLECTION BOX - BLUE BOX", "note": "ON 12/24 AND 12/31, THIS BOX MAY BE COLLECTED AS EARLY AS 12 NOON.", "nsi_id": "unitedstatespostalservice-a77078", "operator": "United States Postal Service", "operator:short": "USPS", "operator:type": "public", "operator:wikidata": "Q668687", "ref": "0820300023"}, "type": "Feature"}
{"dataset_attributes": {"@spider": "usps_collection_boxes", "spider:collection_time": "2023-09-25T08:26:09.915926"}, "geometry": {"coordinates": [-74.3630473, 39.407941], "type": "Point"}, "id": "iPq2H7jbjGus_zswhIqjpXKnvLA=", "properties": {"@spider": "usps_collection_boxes", "addr:city": "BRIGANTINE", "addr:country": "US", "addr:full": "101 W BRIGANTINE AVE", "addr:postcode": "08203", "addr:state": "NJ", "amenity": "post_box", "brand": "United States Postal Service", "brand:wikidata": "Q668687", "collection_times": "Mo-Sa 10:00", "name": "USPS COLLECTION BOX - BLUE BOX", "nsi_id": "unitedstatespostalservice-a77078", "operator": "United States Postal Service", "operator:short": "USPS", "operator:type": "public", "operator:wikidata": "Q668687", "ref": "0820300025"}, "type": "Feature"}
{"dataset_attributes": {"@spider": "usps_collection_boxes", "spider:collection_time": "2023-09-25T08:26:09.915926"}, "geometry": {"coordinates": [-74.39734, 39.3909], "type": "Point"}, "id": "5bR_cvqM7_lVC-jDJCqCzzy_W7c=", "properties": {"@spider": "usps_collection_boxes", "addr:city": "BRIGANTINE", "addr:country": "US", "addr:full": "4326 HARBOUR BEACH BLVD", "addr:postcode": "08203", "addr:state": "NJ", "amenity": "post_box", "brand": "United States Postal Service", "brand:wikidata": "Q668687", "collection_times": "Mo-Fr 17:00; Sa 13:00", "name": "USPS COLLECTION BOX - PO LOBBY", "note": "ON 12/24 AND 12/31, THIS BOX MAY BE COLLECTED AS EARLY AS 12 NOON.", "nsi_id": "unitedstatespostalservice-a77078", "operator": "United States Postal Service", "operator:short": "USPS", "operator:type": "public", "operator:wikidata": "Q668687", "ref": "0820300026"}, "type": "Feature"}
{"dataset_attributes": {"@spider": "usps_collection_boxes", "spider:collection_time": "2023-09-25T08:26:09.915926"}, "geometry": {"coordinates": [-74.39734, 39.3909], "type": "Point"}, "id": "JTDHK-szdxe6a7Yqoz97U_TPpcM=", "properties": {"@spider": "usps_collection_boxes", "addr:city": "BRIGANTINE", "addr:country": "US", "addr:full": "4326 HARBOUR BEACH BLVD", "addr:postcode": "08203", "addr:state": "NJ", "amenity": "post_box", "brand": "United States Postal Service", "brand:wikidata": "Q668687", "collection_times": "Mo-Fr 17:00; Sa 13:00", "name": "USPS COLLECTION BOX - PO LOBBY", "note": "ON 12/24 AND 12/31, THIS BOX MAY BE COLLECTED AS EARLY AS 12 NOON.", "nsi_id": "unitedstatespostalservice-a77078", "operator": "United States Postal Service", "operator:short": "USPS", "operator:type": "public", "operator:wikidata": "Q668687", "ref": "0820300027"}, "type": "Feature"}
{"dataset_attributes": {"@spider": "usps_collection_boxes", "spider:collection_time": "2023-09-25T08:26:09.915926"}, "geometry": {"coordinates": [-74.388689057, 39.3948795], "type": "Point"}, "id": "CJRmtdJWSoAHFPn5xFe8AxqTAF8=", "properties": {"@spider": "usps_collection_boxes", "addr:city": "BRIGANTINE", "addr:country": "US", "addr:full": "3313 ATLANTIC BRIGANTINE BLVD", "addr:postcode": "08203", "addr:state": "NJ", "amenity": "post_box", "brand": "United States Postal Service", "brand:wikidata": "Q668687", "collection_times": "Mo-Sa 10:30", "name": "USPS COLLECTION BOX - BLUE BOX", "nsi_id": "unitedstatespostalservice-a77078", "operator": "United States Postal Service", "operator:short": "USPS", "operator:type": "public", "operator:wikidata": "Q668687", "ref": "0820300028"}, "type": "Feature"}
{"dataset_attributes": {"@spider": "usps_collection_boxes", "spider:collection_time": "2023-09-25T08:26:09.915926"}, "geometry": {"coordinates": [-74.397315927, 39.391884587], "type": "Point"}, "id": "hP_lasZL9uzMR0B2nEeePBCb5m0=", "properties": {"@spider": "usps_collection_boxes", "addr:city": "BRIGANTINE", "addr:country": "US", "addr:full": "4326 HARBOR BEACH BLVD", "addr:postcode": "08203", "addr:state": "NJ", "amenity": "post_box", "brand": "United States Postal Service", "brand:wikidata": "Q668687", "collection_times": "Mo-Fr 17:00; Sa 12:30", "name": "USPS COLLECTION BOX - PO LOBBY", "note": "ON 12/24 AND 12/31, THIS BOX MAY BE COLLECTED AS EARLY AS 12 NOON.", "nsi_id": "unitedstatespostalservice-a77078", "operator": "United States Postal Service", "operator:short": "USPS", "operator:type": "public", "operator:wikidata": "Q668687", "ref": "0820300033"}, "type": "Feature"}
{"dataset_attributes": {"@spider": "usps_collection_boxes", "spider:collection_time": "2023-09-25T08:26:09.915926"}, "geometry": {"coordinates": [-74.9283968, 38.934928], "type": "Point"}, "id": "S7cgjJI-4oW1aulmx4tAz2FfPL8=", "properties": {"@spider": "usps_collection_boxes", "addr:city": "CAPE MAY", "addr:country": "US", "addr:full": "139 MYRTLE AVE", "addr:postcode": "08204", "addr:state": "NJ", "amenity": "post_box", "brand": "United States Postal Service", "brand:wikidata": "Q668687", "collection_times": "Mo-Sa 09:30", "name": "USPS COLLECTION BOX - BLUE BOX", "nsi_id": "unitedstatespostalservice-a77078", "operator": "United States Postal Service", "operator:short": "USPS", "operator:type": "public", "operator:wikidata": "Q668687", "ref": "0820400002"}, "type": "Feature"}
{"dataset_attributes": {"@spider": "usps_collection_boxes", "spider:collection_time": "2023-09-25T08:26:09.915926"}, "geometry": {"coordinates": [-74.9214753, 38.933127], "type": "Point"}, "id": "2GrDnyGz29oLyWKIozLCfL-kacA=", "properties": {"@spider": "usps_collection_boxes", "addr:city": "CAPE MAY", "addr:country": "US", "addr:full": "525 WASHINGTON ST", "addr:postcode": "08204", "addr:state": "NJ", "amenity": "post_box", "brand": "United States Postal Service", "brand:wikidata": "Q668687", "collection_times": "Mo-Sa 09:00", "name": "USPS COLLECTION BOX - BLUE BOX", "nsi_id": "unitedstatespostalservice-a77078", "operator": "United States Postal Service", "operator:short": "USPS", "operator:type": "public", "operator:wikidata": "Q668687", "ref": "0820400007"}, "type": "Feature"}
{"dataset_attributes": {"@spider": "usps_collection_boxes", "spider:collection_time": "2023-09-25T08:26:09.915926"}, "geometry": {"coordinates": [-74.9089773, 38.946435], "type": "Point"}, "id": "KSbvuWeoJOphk9NzGkFqiQMFB98=", "properties": {"@spider": "usps_collection_boxes", "addr:city": "CAPE MAY", "addr:country": "US", "addr:full": "1432 TEXAS AVE", "addr:postcode": "08204", "addr:state": "NJ", "amenity": "post_box", "brand": "United States Postal Service", "brand:wikidata": "Q668687", "collection_times": "Mo-Sa 09:30", "name": "USPS COLLECTION BOX - BLUE BOX", "nsi_id": "unitedstatespostalservice-a77078", "operator": "United States Postal Service", "operator:short": "USPS", "operator:type": "public", "operator:wikidata": "Q668687", "ref": "0820400012"}, "type": "Feature"}
{"dataset_attributes": {"@spider": "usps_collection_boxes", "spider:collection_time": "2023-09-25T08:26:09.915926"}, "geometry": {"coordinates": [-74.9436869, 38.97426], "type": "Point"}, "id": "ZPVHuu8emCXmc_z83Z2Et4tgI40=", "properties": {"@spider": "usps_collection_boxes", "addr:city": "CAPE MAY", "addr:country": "US", "addr:full": "3860 BAYSHORE RD STE 3", "addr:postcode": "08204", "addr:state": "NJ", "amenity": "post_box", "brand": "United States Postal Service", "brand:wikidata": "Q668687", "collection_times": "Mo-Fr 16:30; Sa 12:30", "name": "USPS COLLECTION BOX - BLUE BOX", "note": "ON 12/24 AND 12/31, THIS BOX MAY BE COLLECTED AS EARLY AS 12 NOON.", "nsi_id": "unitedstatespostalservice-a77078", "operator": "United States Postal Service", "operator:short": "USPS", "operator:type": "public", "operator:wikidata": "Q668687", "ref": "0820400016"}, "type": "Feature"}
{"dataset_attributes": {"@spider": "usps_collection_boxes", "spider:collection_time": "2023-09-25T08:26:09.915926"}, "geometry": {"coordinates": [-74.9391367, 38.974431], "type": "Point"}, "id": "37aBUwHAnvmo9NziXty2tzAZDO4=", "properties": {"@spider": "usps_collection_boxes", "addr:city": "CAPE MAY", "addr:country": "US", "addr:full": "3845 BAYSHORE RD", "addr:postcode": "08204", "addr:state": "NJ", "amenity": "post_box", "brand": "United States Postal Service", "brand:wikidata": "Q668687", "collection_times": "Mo-Sa 09:15", "name": "USPS COLLECTION BOX - BLUE BOX", "nsi_id": "unitedstatespostalservice-a77078", "operator": "United States Postal Service", "operator:short": "USPS", "operator:type": "public", "operator:wikidata": "Q668687", "ref": "0820400017"}, "type": "Feature"}
{"dataset_attributes": {"@spider": "usps_collection_boxes", "spider:collection_time": "2023-09-25T08:26:09.915926"}, "geometry": {"coordinates": [-74.892797207, 38.945707814], "type": "Point"}, "id": "j84kW9WD7sYg3YEiAiToQ90yUuk=", "properties": {"@spider": "usps_collection_boxes", "addr:city": "CAPE MAY", "addr:country": "US", "addr:full": "1 MUNRO DR", "addr:postcode": "08204", "addr:state": "NJ", "amenity": "post_box", "brand": "United States Postal Service", "brand:wikidata": "Q668687", "collection_times": "Mo-Sa 08:00", "name": "USPS COLLECTION BOX - BLUE BOX", "nsi_id": "unitedstatespostalservice-a77078", "operator": "United States Postal Service", "operator:short": "USPS", "operator:type": "public", "operator:wikidata": "Q668687", "ref": "0820400021"}, "type": "Feature"}
{"dataset_attributes": {"@spider": "usps_collection_boxes", "spider:collection_time": "2023-09-25T08:26:09.915926"}, "geometry": {"coordinates": [-74.892797207, 38.945707814], "type": "Point"}, "id": "nvRP5CJ3IeccnhxwHa8DsC3BZP0=", "properties": {"@spider": "usps_collection_boxes", "addr:city": "CAPE MAY", "addr:country": "US", "addr:full": "1 MUNRO DR", "addr:postcode": "08204", "addr:state": "NJ", "amenity": "post_box", "brand": "United States Postal Service", "brand:wikidata": "Q668687", "collection_times": "Mo-Sa 08:15", "name": "USPS COLLECTION BOX - BLUE BOX", "nsi_id": "unitedstatespostalservice-a77078", "operator": "United States Postal Service", "operator:short": "USPS", "operator:type": "public", "operator:wikidata": "Q668687", "ref": "0820400022"}, "type": "Feature"}
{"dataset_attributes": {"@spider": "usps_collection_boxes", "spider:collection_time": "2023-09-25T08:26:09.915926"}, "geometry": {"coordinates": [-74.9188345, 38.934793], "type": "Point"}, "id": "zop0BwQtfhizi6U8N-8aYIeQxI4=", "properties": {"@spider": "usps_collection_boxes", "addr:city": "CAPE MAY", "addr:country": "US", "addr:full": "700 WASHINGTON ST", "addr:postcode": "08204", "addr:state": "NJ", "amenity": "post_box", "brand": "United States Postal Service", "brand:wikidata": "Q668687", "collection_times": "Mo-Fr 17:00; Sa 15:30", "name": "USPS COLLECTION BOX - BLUE BOX", "note": "ON 12/24 AND 12/31, THIS BOX MAY BE COLLECTED AS EARLY AS 12 NOON.", "nsi_id": "unitedstatespostalservice-a77078", "operator": "United States Postal Service", "operator:short": "USPS", "operator:type": "public", "operator:wikidata": "Q668687", "ref": "0820400025"}, "type": "Feature"}
{"dataset_attributes": {"@spider": "usps_collection_boxes", "spider:collection_time": "2023-09-25T08:26:09.915926"}, "geometry": {"coordinates": [-74.919424, 38.935114], "type": "Point"}, "id": "vujSmCQNyiJJq71PMeInUOwPfGg=", "properties": {"@spider": "usps_collection_boxes", "addr:city": "CAPE MAY", "addr:country": "US", "addr:full": "700 WASHINGTON ST", "addr:postcode": "08204", "addr:state": "NJ", "amenity": "post_box", "brand": "United States Postal Service", "brand:wikidata": "Q668687", "collection_times": "Mo-Fr 17:00; Sa 15:30", "name": "USPS COLLECTION BOX - BLUE BOX", "note": "ON 12/24 AND 12/31, THIS BOX MAY BE COLLECTED AS EARLY AS 12 NOON.", "nsi_id": "unitedstatespostalservice-a77078", "operator": "United States Postal Service", "operator:short": "USPS", "operator:type": "public", "operator:wikidata": "Q668687", "ref": "0820400030"}, "type": "Feature"}
{"dataset_attributes": {"@spider": "usps_collection_boxes", "spider:collection_time": "2023-09-25T08:26:09.915926"}, "geometry": {"coordinates": [-74.9191913, 38.93514], "type": "Point"}, "id": "Xy0ITQjFBm3UBUp_63huZf1lDBY=", "properties": {"@spider": "usps_collection_boxes", "addr:city": "CAPE MAY", "addr:country": "US", "addr:full": "700 WASHINGTON ST", "addr:postcode": "08204", "addr:state": "NJ", "amenity": "post_box", "brand": "United States Postal Service", "brand:wikidata": "Q668687", "collection_times": "Mo-Fr 17:00; Sa 15:30", "name": "USPS COLLECTION BOX - PO LOBBY", "note": "ON 12/24 AND 12/31, THIS BOX MAY BE COLLECTED AS EARLY AS 12 NOON.", "nsi_id": "unitedstatespostalservice-a77078", "operator": "United States Postal Service", "operator:short": "USPS", "operator:type": "public", "operator:wikidata": "Q668687", "ref": "0820400031"}, "type": "Feature"}
{"dataset_attributes": {"@spider": "usps_collection_boxes", "spider:collection_time": "2023-09-25T08:26:09.915926"}, "geometry": {"coordinates": [-74.943887, 38.974254], "type": "Point"}, "id": "_4kprfJtt_rHLP8Bfi5Cm5WiUeU=", "properties": {"@spider": "usps_collection_boxes", "addr:city": "CAPE MAY", "addr:country": "US", "addr:full": "3868 BAYSHORE RD", "addr:postcode": "08204", "addr:state": "NJ", "amenity": "post_box", "brand": "United States Postal Service", "brand:wikidata": "Q668687", "collection_times": "Mo-Fr 16:30; Sa 12:30", "name": "USPS COLLECTION BOX - PO LOBBY", "note": "ON 12/24 AND 12/31, THIS BOX MAY BE COLLECTED AS EARLY AS 12 NOON.", "nsi_id": "unitedstatespostalservice-a77078", "operator": "United States Postal Service", "operator:short": "USPS", "operator:type": "public", "operator:wikidata": "Q668687", "ref": "0820400032"}, "type": "Feature"}
{"dataset_attributes": {"@spider": "usps_collection_boxes", "spider:collection_time": "2023-09-25T08:26:09.915926"}, "geometry": {"coordinates": [-74.919439737, 38.935250928], "type": "Point"}, "id": "mcmTPIsTwnaH7ZOxRYbyDFS0-gQ=", "properties": {"@spider": "usps_collection_boxes", "addr:city": "CAPE MAY", "addr:country": "US", "addr:full": "700 WASHINGTON ST", "addr:postcode": "08204", "addr:state": "NJ", "amenity": "post_box", "brand": "United States Postal Service", "brand:wikidata": "Q668687", "collection_times": "Mo-Fr 17:00; Sa 12:00", "name": "USPS COLLECTION BOX - PO LOBBY", "note": "ON 12/24 AND 12/31, THIS BOX MAY BE COLLECTED AS EARLY AS 12 NOON.", "nsi_id": "unitedstatespostalservice-a77078", "operator": "United States Postal Service", "operator:short": "USPS", "operator:type": "public", "operator:wikidata": "Q668687", "ref": "0820400044"}, "type": "Feature"}
{"dataset_attributes": {"@spider": "usps_collection_boxes", "spider:collection_time": "2023-09-25T08:26:09.915926"}, "geometry": {"coordinates": [-74.882524354, 38.947965469], "type": "Point"}, "id": "Zl0gUq6FDNsrpXfevhhgHH86STA=", "properties": {"@spider": "usps_collection_boxes", "addr:city": "CAPE MAY", "addr:country": "US", "addr:full": "1 MUNRO AVE", "addr:postcode": "08204", "addr:state": "NJ", "amenity": "post_box", "brand": "United States Postal Service", "brand:wikidata": "Q668687", "collection_times": "Mo-Fr 13:30", "name": "USPS COLLECTION BOX - PO LOBBY", "note": "ON 12/24 AND 12/31, THIS BOX MAY BE COLLECTED AS EARLY AS 12 NOON.", "nsi_id": "unitedstatespostalservice-a77078", "operator": "United States Postal Service", "operator:short": "USPS", "operator:type": "public", "operator:wikidata": "Q668687", "ref": "0820400045"}, "type": "Feature"}
{"dataset_attributes": {"@spider": "usps_collection_boxes", "spider:collection_time": "2023-09-25T08:26:09.915926"}, "geometry": {"coordinates": [-74.942656699, 38.974799287], "type": "Point"}, "id": "ZKl-cVgzPzkfzw4FEMD1MvEWGhQ=", "properties": {"@spider": "usps_collection_boxes", "addr:city": "CAPE MAY", "addr:country": "US", "addr:full": "3860 BAYSHORE RD STE 4", "addr:postcode": "08204", "addr:state": "NJ", "amenity": "post_box", "brand": "United States Postal Service", "brand:wikidata": "Q668687", "collection_times": "Mo-Fr 16:15; Sa 12:30", "name": "USPS COLLECTION BOX - PO LOBBY", "note": "ON 12/24 AND 12/31, THIS BOX MAY BE COLLECTED AS EARLY AS 12 NOON.", "nsi_id": "unitedstatespostalservice-a77078", "operator": "United States Postal Service", "operator:short": "USPS", "operator:type": "public", "operator:wikidata": "Q668687", "ref": "0820400046"}, "type": "Feature"}
{"dataset_attributes": {"@spider": "usps_collection_boxes", "spider:collection_time": "2023-09-25T08:26:09.915926"}, "geometry": {"coordinates": [-74.4979244, 39.465223], "type": "Point"}, "id": "OIzdxGosGXZ7vQ5SE6SosGpo1O0=", "properties": {"@spider": "usps_collection_boxes", "addr:city": "ABSECON", "addr:country": "US", "addr:full": "300 E JIMMIE LEEDS RD", "addr:postcode": "08205", "addr:state": "NJ", "amenity": "post_box", "brand": "United States Postal Service", "brand:wikidata": "Q668687", "collection_times": "Mo-Sa 10:00", "name": "USPS COLLECTION BOX - BLUE BOX", "nsi_id": "unitedstatespostalservice-a77078", "operator": "United States Postal Service", "operator:short": "USPS", "operator:type": "public", "operator:wikidata": "Q668687", "ref": "0820500002"}, "type": "Feature"}
{"dataset_attributes": {"@spider": "usps_collection_boxes", "spider:collection_time": "2023-09-25T08:26:09.915926"}, "geometry": {"coordinates": [-74.458726, 39.486936], "type": "Point"}, "id": "lDnH3fAswgWhVc68uo9-EzLGPSQ=", "properties": {"@spider": "usps_collection_boxes", "addr:city": "ABSECON", "addr:country": "US", "addr:full": "45 S NEW YORK RD", "addr:postcode": "08205", "addr:state": "NJ", "amenity": "post_box", "brand": "United States Postal Service", "brand:wikidata": "Q668687", "collection_times": "Mo-Sa 10:00", "name": "USPS COLLECTION BOX - BLUE BOX", "nsi_id": "unitedstatespostalservice-a77078", "operator": "United States Postal Service", "operator:short": "USPS", "operator:type": "public", "operator:wikidata": "Q668687", "ref": "0820500003"}, "type": "Feature"}
{"dataset_attributes": {"@spider": "usps_collection_boxes", "spider:collection_time": "2023-09-25T08:26:09.915926"}, "geometry": {"coordinates": [-74.5395099, 39.478159], "type": "Point"}, "id": "P7oZ4bN0PpTcToyDmtc5uAYZtHc=", "properties": {"@spider": "usps_collection_boxes", "addr:city": "ABSECON", "addr:country": "US", "addr:full": "101 W JIMMIE LEEDS RD", "addr:postcode": "08205", "addr:state": "NJ", "amenity": "post_box", "brand": "United States Postal Service", "brand:wikidata": "Q668687", "collection_times": "Mo-Sa 10:00", "name": "USPS COLLECTION BOX - BLUE BOX", "nsi_id": "unitedstatespostalservice-a77078", "operator": "United States Postal Service", "operator:short": "USPS", "operator:type": "public", "operator:wikidata": "Q668687", "ref": "0820500004"}, "type": "Feature"}
{"dataset_attributes": {"@spider": "usps_collection_boxes", "spider:collection_time": "2023-09-25T08:26:09.915926"}, "geometry": {"coordinates": [-74.4608159, 39.49499], "type": "Point"}, "id": "auYX8iMtf5mbycc1i7dacg6EUk0=", "properties": {"@spider": "usps_collection_boxes", "addr:city": "ABSECON", "addr:country": "US", "addr:full": "615 E MOSS MILL RD", "addr:postcode": "08205", "addr:state": "NJ", "amenity": "post_box", "brand": "United States Postal Service", "brand:wikidata": "Q668687", "collection_times": "Mo-Sa 10:30", "name": "USPS COLLECTION BOX - BLUE BOX", "nsi_id": "unitedstatespostalservice-a77078", "operator": "United States Postal Service", "operator:short": "USPS", "operator:type": "public", "operator:wikidata": "Q668687", "ref": "0820500005"}, "type": "Feature"}
{"dataset_attributes": {"@spider": "usps_collection_boxes", "spider:collection_time": "2023-09-25T08:26:09.915926"}, "geometry": {"coordinates": [-74.4581599, 39.48585], "type": "Point"}, "id": "IOmV9yaJRILioRDk9DwOwj4Nhkc=", "properties": {"@spider": "usps_collection_boxes", "addr:city": "ABSECON", "addr:country": "US", "addr:full": "48 S NEW YORK RD", "addr:postcode": "08205", "addr:state": "NJ", "amenity": "post_box", "brand": "United States Postal Service", "brand:wikidata": "Q668687", "collection_times": "Mo-Sa 11:00", "name": "USPS COLLECTION BOX - BLUE BOX", "nsi_id": "unitedstatespostalservice-a77078", "operator": "United States Postal Service", "operator:short": "USPS", "operator:type": "public", "operator:wikidata": "Q668687", "ref": "0820500006"}, "type": "Feature"}
{"dataset_attributes": {"@spider": "usps_collection_boxes", "spider:collection_time": "2023-09-25T08:26:09.915926"}, "geometry": {"coordinates": [-74.4959973, 39.465388], "type": "Point"}, "id": "S6zBBKZs5xjUwYikSrqS1RzuxZM=", "properties": {"@spider": "usps_collection_boxes", "addr:city": "ABSECON", "addr:country": "US", "addr:full": "333 E JIMMIE LEEDS RD", "addr:postcode": "08205", "addr:state": "NJ", "amenity": "post_box", "brand": "United States Postal Service", "brand:wikidata": "Q668687", "collection_times": "Mo-Sa 10:15", "name": "USPS COLLECTION BOX - BLUE BOX", "nsi_id": "unitedstatespostalservice-a77078", "operator": "United States Postal Service", "operator:short": "USPS", "operator:type": "public", "operator:wikidata": "Q668687", "ref": "0820500007"}, "type": "Feature"}
{"dataset_attributes": {"@spider": "usps_collection_boxes", "spider:collection_time": "2023-09-25T08:26:09.915926"}, "geometry": {"coordinates": [-74.4979049, 39.464976], "type": "Point"}, "id": "cgehHDhf7Yxlk4HOSFIioj_gJvQ=", "properties": {"@spider": "usps_collection_boxes", "addr:city": "ABSECON", "addr:country": "US", "addr:full": "300 E JIMMIE LEEDS RD", "addr:postcode": "08205", "addr:state": "NJ", "amenity": "post_box", "brand": "United States Postal Service", "brand:wikidata": "Q668687", "collection_times": "Mo-Sa 10:00", "name": "USPS COLLECTION BOX - BLUE BOX", "nsi_id": "unitedstatespostalservice-a77078", "operator": "United States Postal Service", "operator:short": "USPS", "operator:type": "public", "operator:wikidata": "Q668687", "ref": "0820500009"}, "type": "Feature"}
{"dataset_attributes": {"@spider": "usps_collection_boxes", "spider:collection_time": "2023-09-25T08:26:09.915926"}, "geometry": {"coordinates": [-74.816209, 39.087233], "type": "Point"}, "id": "BHEAvPwOZVdiwB0SGikR49rY6S4=", "properties": {"@spider": "usps_collection_boxes", "addr:city": "CAPE MAY CH", "addr:country": "US", "addr:full": "2 STONE HARBOR BLVD", "addr:postcode": "08210", "addr:state": "NJ", "amenity": "post_box", "brand": "United States Postal Service", "brand:wikidata": "Q668687", "collection_times": "Mo-Sa 11:00", "name": "USPS COLLECTION BOX - BLUE BOX", "nsi_id": "unitedstatespostalservice-a77078", "operator": "United States Postal Service", "operator:short": "USPS", "operator:type": "public", "operator:wikidata": "Q668687", "ref": "0821000001"}, "type": "Feature"}
{"dataset_attributes": {"@spider": "usps_collection_boxes", "spider:collection_time": "2023-09-25T08:26:09.915926"}, "geometry": {"coordinates": [-74.8212396, 39.089707], "type": "Point"}, "id": "GAlctp7KfiWSIsOB2d-gXnlc77g=", "properties": {"@spider": "usps_collection_boxes", "addr:city": "CAPE MAY CH", "addr:country": "US", "addr:full": "11 COURT HOUSE SOUTH DENNIS RD", "addr:postcode": "08210", "addr:state": "NJ", "amenity": "post_box", "brand": "United States Postal Service", "brand:wikidata": "Q668687", "collection_times": "Mo-Sa 11:00", "name": "USPS COLLECTION BOX - BLUE BOX", "nsi_id": "unitedstatespostalservice-a77078", "operator": "United States Postal Service", "operator:short": "USPS", "operator:type": "public", "operator:wikidata": "Q668687", "ref": "0821000003"}, "type": "Feature"}
{"dataset_attributes": {"@spider": "usps_collection_boxes", "spider:collection_time": "2023-09-25T08:26:09.915926"}, "geometry": {"coordinates": [-74.8257321, 39.083076], "type": "Point"}, "id": "p6TLrVWCQcPx5aBNVy111MtQWSM=", "properties": {"@spider": "usps_collection_boxes", "addr:city": "CAPE MAY CH", "addr:country": "US", "addr:full": "33 MECHANIC ST", "addr:postcode": "08210", "addr:state": "NJ", "amenity": "post_box", "brand": "United States Postal Service", "brand:wikidata": "Q668687", "collection_times": "Mo-Sa 11:00", "name": "USPS COLLECTION BOX - BLUE BOX", "nsi_id": "unitedstatespostalservice-a77078", "operator": "United States Postal Service", "operator:short": "USPS", "operator:type": "public", "operator:wikidata": "Q668687", "ref": "0821000005"}, "type": "Feature"}
{"dataset_attributes": {"@spider": "usps_collection_boxes", "spider:collection_time": "2023-09-25T08:26:09.915926"}, "geometry": {"coordinates": [-74.8247005, 39.080744], "type": "Point"}, "id": "EU3Q2D60gYBhZW5xwMnfDvz5i4E=", "properties": {"@spider": "usps_collection_boxes", "addr:city": "CAPE MAY CH", "addr:country": "US", "addr:full": "101 S MAIN ST", "addr:postcode": "08210", "addr:state": "NJ", "amenity": "post_box", "brand": "United States Postal Service", "brand:wikidata": "Q668687", "collection_times": "Mo-Sa 11:00", "name": "USPS COLLECTION BOX - BLUE BOX", "nsi_id": "unitedstatespostalservice-a77078", "operator": "United States Postal Service", "operator:short": "USPS", "operator:type": "public", "operator:wikidata": "Q668687", "ref": "0821000007"}, "type": "Feature"}
{"dataset_attributes": {"@spider": "usps_collection_boxes", "spider:collection_time": "2023-09-25T08:26:09.915926"}, "geometry": {"coordinates": [-74.8301674, 39.071835], "type": "Point"}, "id": "s360dXY_Qg1oJ8zxisjj_ZocX88=", "properties": {"@spider": "usps_collection_boxes", "addr:city": "CAPE MAY CH", "addr:country": "US", "addr:full": "615 S ROUTE 9", "addr:postcode": "08210", "addr:state": "NJ", "amenity": "post_box", "brand": "United States Postal Service", "brand:wikidata": "Q668687", "collection_times": "Mo-Fr 17:00; Sa 15:30", "name": "USPS COLLECTION BOX - BLUE BOX", "note": "ON 12/24 AND 12/31, THIS BOX MAY BE COLLECTED AS EARLY AS 12 NOON.", "nsi_id": "unitedstatespostalservice-a77078", "operator": "United States Postal Service", "operator:short": "USPS", "operator:type": "public", "operator:wikidata": "Q668687", "ref": "0821000008"}, "type": "Feature"}
{"dataset_attributes": {"@spider": "usps_collection_boxes", "spider:collection_time": "2023-09-25T08:26:09.915926"}, "geometry": {"coordinates": [-74.8301687, 39.07184], "type": "Point"}, "id": "4-ZNTlaTn-GDMdKpQNkQd-F445w=", "properties": {"@spider": "usps_collection_boxes", "addr:city": "CAPE MAY CH", "addr:country": "US", "addr:full": "615 S ROUTE 9", "addr:postcode": "08210", "addr:state": "NJ", "amenity": "post_box", "brand": "United States Postal Service", "brand:wikidata": "Q668687", "collection_times": "Mo-Fr 17:00; Sa 15:30", "name": "USPS COLLECTION BOX - BLUE BOX", "note": "ON 12/24 AND 12/31, THIS BOX MAY BE COLLECTED AS EARLY AS 12 NOON.", "nsi_id": "unitedstatespostalservice-a77078", "operator": "United States Postal Service", "operator:short": "USPS", "operator:type": "public", "operator:wikidata": "Q668687", "ref": "0821000009"}, "type": "Feature"}
{"dataset_attributes": {"@spider": "usps_collection_boxes", "spider:collection_time": "2023-09-25T08:26:09.915926"}, "geometry": {"coordinates": [-74.8305966, 39.072365], "type": "Point"}, "id": "dKqVOsXhRNAIH3NSsB_tzf9aR2k=", "properties": {"@spider": "usps_collection_boxes", "addr:city": "CAPE MAY CH", "addr:country": "US", "addr:full": "615 S ROUTE 9", "addr:postcode": "08210", "addr:state": "NJ", "amenity": "post_box", "brand": "United States Postal Service", "brand:wikidata": "Q668687", "collection_times": "Mo-Fr 17:00; Sa 15:30", "name": "USPS COLLECTION BOX - PO LOBBY", "note": "ON 12/24 AND 12/31, THIS BOX MAY BE COLLECTED AS EARLY AS 12 NOON.", "nsi_id": "unitedstatespostalservice-a77078", "operator": "United States Postal Service", "operator:short": "USPS", "operator:type": "public", "operator:wikidata": "Q668687", "ref": "0821000012"}, "type": "Feature"}
{"dataset_attributes": {"@spider": "usps_collection_boxes", "spider:collection_time": "2023-09-25T08:26:09.915926"}, "geometry": {"coordinates": [-74.829531825, 39.071926555], "type": "Point"}, "id": "9eVTjjw9OtMSWsHTmcwfLmRfKoI=", "properties": {"@spider": "usps_collection_boxes", "addr:city": "CAPE MAY CH", "addr:country": "US", "addr:full": "615 ROUTE 9 S", "addr:postcode": "08210", "addr:state": "NJ", "amenity": "post_box", "brand": "United States Postal Service", "brand:wikidata": "Q668687", "collection_times": "Mo-Fr 16:45; Sa 12:00", "name": "USPS COLLECTION BOX - PO LOBBY", "note": "ON 12/24 AND 12/31, THIS BOX MAY BE COLLECTED AS EARLY AS 12 NOON.", "nsi_id": "unitedstatespostalservice-a77078", "operator": "United States Postal Service", "operator:short": "USPS", "operator:type": "public", "operator:wikidata": "Q668687", "ref": "0821000027"}, "type": "Feature"}
{"dataset_attributes": {"@spider": "usps_collection_boxes", "spider:collection_time": "2023-09-25T08:26:09.915926"}, "geometry": {"coordinates": [-74.9668563, 38.935622], "type": "Point"}, "id": "bCXSnREyaPf0N6zhWMe-Bil04MA=", "properties": {"@spider": "usps_collection_boxes", "addr:city": "CAPE MAY POINT", "addr:country": "US", "addr:full": "408 YALE AVE", "addr:postcode": "08212", "addr:state": "NJ", "amenity": "post_box", "brand": "United States Postal Service", "brand:wikidata": "Q668687", "collection_times": "Mo-Fr 16:00; Sa 12:00", "name": "USPS COLLECTION BOX - BLUE BOX", "note": "ON 12/24 AND 12/31, THIS BOX MAY BE COLLECTED AS EARLY AS 12 NOON.", "nsi_id": "unitedstatespostalservice-a77078", "operator": "United States Postal Service", "operator:short": "USPS", "operator:type": "public", "operator:wikidata": "Q668687", "ref": "0821200001"}, "type": "Feature"}
{"dataset_attributes": {"@spider": "usps_collection_boxes", "spider:collection_time": "2023-09-25T08:26:09.915926"}, "geometry": {"coordinates": [-74.9668549, 38.935585], "type": "Point"}, "id": "QmLrWaYBqcQHKHvo-PBWpTpZjQg=", "properties": {"@spider": "usps_collection_boxes", "addr:city": "CAPE MAY POINT", "addr:country": "US", "addr:full": "408 YALE AVE", "addr:postcode": "08212", "addr:state": "NJ", "amenity": "post_box", "brand": "United States Postal Service", "brand:wikidata": "Q668687", "collection_times": "Mo-Fr 16:00; Sa 12:00", "name": "USPS COLLECTION BOX - PO LOBBY", "note": "ON 12/24 AND 12/31, THIS BOX MAY BE COLLECTED AS EARLY AS 12 NOON.", "nsi_id": "unitedstatespostalservice-a77078", "operator": "United States Postal Service", "operator:short": "USPS", "operator:type": "public", "operator:wikidata": "Q668687", "ref": "0821200002"}, "type": "Feature"}
{"dataset_attributes": {"@spider": "usps_collection_boxes", "spider:collection_time": "2023-09-25T08:26:09.915926"}, "geometry": {"coordinates": [-74.966426778, 38.935347255], "type": "Point"}, "id": "cpuoSqwd6cVFMwwiR3Mj8G3IlQE=", "properties": {"@spider": "usps_collection_boxes", "addr:city": "CAPE MAY POINT", "addr:country": "US", "addr:full": "408 YALE AVE", "addr:postcode": "08212", "addr:state": "NJ", "amenity": "post_box", "brand": "United States Postal Service", "brand:wikidata": "Q668687", "collection_times": "Mo-Fr 15:45; Sa 11:45", "name": "USPS COLLECTION BOX - PO LOBBY", "note": "ON 12/24 AND 12/31, THIS BOX MAY BE COLLECTED AS EARLY AS 12 NOON.", "nsi_id": "unitedstatespostalservice-a77078", "operator": "United States Postal Service", "operator:short": "USPS", "operator:type": "public", "operator:wikidata": "Q668687", "ref": "0821200005"}, "type": "Feature"}
{"dataset_attributes": {"@spider": "usps_collection_boxes", "spider:collection_time": "2023-09-25T08:26:09.915926"}, "geometry": {"coordinates": [-74.611008, 39.503602], "type": "Point"}, "id": "K0P_ydq4H7Rc5gGr9-1lCJ4PLcQ=", "properties": {"@spider": "usps_collection_boxes", "addr:city": "COLOGNE", "addr:country": "US", "addr:full": "807 W WHITE HORSE PIKE", "addr:postcode": "08213", "addr:state": "NJ", "amenity": "post_box", "brand": "United States Postal Service", "brand:wikidata": "Q668687", "collection_times": "Mo-Fr 17:00; Sa 12:00", "name": "USPS COLLECTION BOX - BLUE BOX", "note": "ON 12/24 AND 12/31, THIS BOX MAY BE COLLECTED AS EARLY AS 12 NOON.", "nsi_id": "unitedstatespostalservice-a77078", "operator": "United States Postal Service", "operator:short": "USPS", "operator:type": "public", "operator:wikidata": "Q668687", "ref": "0821300001"}, "type": "Feature"}
{"dataset_attributes": {"@spider": "usps_collection_boxes", "spider:collection_time": "2023-09-25T08:26:09.915926"}, "geometry": {"coordinates": [-74.611008, 39.503602], "type": "Point"}, "id": "3d4kCtX7GVGuLyJK0PfE3_oXkGQ=", "properties": {"@spider": "usps_collection_boxes", "addr:city": "COLOGNE", "addr:country": "US", "addr:full": "807 W WHITE HORSE PIKE", "addr:postcode": "08213", "addr:state": "NJ", "amenity": "post_box", "brand": "United States Postal Service", "brand:wikidata": "Q668687", "collection_times": "Mo-Fr 17:00; Sa 12:00", "name": "USPS COLLECTION BOX - PO LOBBY", "note": "ON 12/24 AND 12/31, THIS BOX MAY BE COLLECTED AS EARLY AS 12 NOON.", "nsi_id": "unitedstatespostalservice-a77078", "operator": "United States Postal Service", "operator:short": "USPS", "operator:type": "public", "operator:wikidata": "Q668687", "ref": "0821300002"}, "type": "Feature"}
{"dataset_attributes": {"@spider": "usps_collection_boxes", "spider:collection_time": "2023-09-25T08:26:09.915926"}, "geometry": {"coordinates": [-74.611217235, 39.503531323], "type": "Point"}, "id": "Keju6AZKgx_wYVxVXXCN51Y_aWU=", "properties": {"@spider": "usps_collection_boxes", "addr:city": "COLOGNE", "addr:country": "US", "addr:full": "807 W WHITE HORSE PIKE", "addr:postcode": "08213", "addr:state": "NJ", "amenity": "post_box", "brand": "United States Postal Service", "brand:wikidata": "Q668687", "collection_times": "Mo-Fr 17:00; Sa 12:00", "name": "USPS COLLECTION BOX - PO LOBBY", "note": "ON 12/24 AND 12/31, THIS BOX MAY BE COLLECTED AS EARLY AS 12 NOON.", "nsi_id": "unitedstatespostalservice-a77078", "operator": "United States Postal Service", "operator:short": "USPS", "operator:type": "public", "operator:wikidata": "Q668687", "ref": "0821300005"}, "type": "Feature"}
{"dataset_attributes": {"@spider": "usps_collection_boxes", "spider:collection_time": "2023-09-25T08:26:09.915926"}, "geometry": {"coordinates": [-74.819843, 39.193135], "type": "Point"}, "id": "tmem71Wqk3jp8lOfvVqghzxyzPE=", "properties": {"@spider": "usps_collection_boxes", "addr:city": "DENNISVILLE", "addr:country": "US", "addr:full": "24 HALL AVE", "addr:postcode": "08214", "addr:state": "NJ", "amenity": "post_box", "brand": "United States Postal Service", "brand:wikidata": "Q668687", "collection_times": "Mo-Fr 16:00; Sa 10:30", "name": "USPS COLLECTION BOX - BLUE BOX", "note": "ON 12/24 AND 12/31, THIS BOX MAY BE COLLECTED AS EARLY AS 12 NOON.", "nsi_id": "unitedstatespostalservice-a77078", "operator": "United States Postal Service", "operator:short": "USPS", "operator:type": "public", "operator:wikidata": "Q668687", "ref": "0821400001"}, "type": "Feature"}
{"dataset_attributes": {"@spider": "usps_collection_boxes", "spider:collection_time": "2023-09-25T08:26:09.915926"}, "geometry": {"coordinates": [-74.819843, 39.193135], "type": "Point"}, "id": "uTH5G3V_mX1z3Qh5SlLVcWOoV2w=", "properties": {"@spider": "usps_collection_boxes", "addr:city": "DENNISVILLE", "addr:country": "US", "addr:full": "24 HALL AVE", "addr:postcode": "08214", "addr:state": "NJ", "amenity": "post_box", "brand": "United States Postal Service", "brand:wikidata": "Q668687", "collection_times": "Mo-Fr 16:15; Sa 11:30", "name": "USPS COLLECTION BOX - PO LOBBY", "note": "ON 12/24 AND 12/31, THIS BOX MAY BE COLLECTED AS EARLY AS 12 NOON.", "nsi_id": "unitedstatespostalservice-a77078", "operator": "United States Postal Service", "operator:short": "USPS", "operator:type": "public", "operator:wikidata": "Q668687", "ref": "0821400002"}, "type": "Feature"}
{"dataset_attributes": {"@spider": "usps_collection_boxes", "spider:collection_time": "2023-09-25T08:26:09.915926"}, "geometry": {"coordinates": [-74.820092592, 39.192993973], "type": "Point"}, "id": "NRviReck5LYS48vldO2_k_Pt0-Q=", "properties": {"@spider": "usps_collection_boxes", "addr:city": "DENNISVILLE", "addr:country": "US", "addr:full": "24 HALL AVE", "addr:postcode": "08214", "addr:state": "NJ", "amenity": "post_box", "brand": "United States Postal Service", "brand:wikidata": "Q668687", "collection_times": "Mo-Fr 16:00; Sa 11:45", "name": "USPS COLLECTION BOX - PO LOBBY", "note": "ON 12/24 AND 12/31, THIS BOX MAY BE COLLECTED AS EARLY AS 12 NOON.", "nsi_id": "unitedstatespostalservice-a77078", "operator": "United States Postal Service", "operator:short": "USPS", "operator:type": "public", "operator:wikidata": "Q668687", "ref": "0821400005"}, "type": "Feature"}
{"dataset_attributes": {"@spider": "usps_collection_boxes", "spider:collection_time": "2023-09-25T08:26:09.915926"}, "geometry": {"coordinates": [-74.645497, 39.530638], "type": "Point"}, "id": "srbAi6Xi3vjp1P5Z9bEkhKRHZoM=", "properties": {"@spider": "usps_collection_boxes", "addr:city": "EGG HARBOR CITY", "addr:country": "US", "addr:full": "237 PHILADELPHIA AVE", "addr:postcode": "08215", "addr:state": "NJ", "amenity": "post_box", "brand": "United States Postal Service", "brand:wikidata": "Q668687", "collection_times": "Mo-Fr 17:00; Sa 12:30", "name": "USPS COLLECTION BOX - BLUE BOX", "note": "ON 12/24 AND 12/31, THIS BOX MAY BE COLLECTED AS EARLY AS 12 NOON.", "nsi_id": "unitedstatespostalservice-a77078", "operator": "United States Postal Service", "operator:short": "USPS", "operator:type": "public", "operator:wikidata": "Q668687", "ref": "0821500001"}, "type": "Feature"}
{"dataset_attributes": {"@spider": "usps_collection_boxes", "spider:collection_time": "2023-09-25T08:26:09.915926"}, "geometry": {"coordinates": [-74.645491, 39.530602], "type": "Point"}, "id": "v2bfvNCW7GVQyEHHevrfqpnTsWs=", "properties": {"@spider": "usps_collection_boxes", "addr:city": "EGG HARBOR CITY", "addr:country": "US", "addr:full": "237 PHILADELPHIA AVE", "addr:postcode": "08215", "addr:state": "NJ", "amenity": "post_box", "brand": "United States Postal Service", "brand:wikidata": "Q668687", "collection_times": "Mo-Fr 17:00; Sa 12:30", "name": "USPS COLLECTION BOX - PO LOBBY", "note": "ON 12/24 AND 12/31, THIS BOX MAY BE COLLECTED AS EARLY AS 12 NOON.", "nsi_id": "unitedstatespostalservice-a77078", "operator": "United States Postal Service", "operator:short": "USPS", "operator:type": "public", "operator:wikidata": "Q668687", "ref": "0821500008"}, "type": "Feature"}
{"dataset_attributes": {"@spider": "usps_collection_boxes", "spider:collection_time": "2023-09-25T08:26:09.915926"}, "geometry": {"coordinates": [-74.645109742, 39.530969883], "type": "Point"}, "id": "Xr8AxxyRL_xghO2QXXUpKsYYxy4=", "properties": {"@spider": "usps_collection_boxes", "addr:city": "EGG HARBOR CITY", "addr:country": "US", "addr:full": "237 PHILADELPHIA AVE", "addr:postcode": "08215", "addr:state": "NJ", "amenity": "post_box", "brand": "United States Postal Service", "brand:wikidata": "Q668687", "collection_times": "Mo-Fr 17:00; Sa 12:30", "name": "USPS COLLECTION BOX - PO LOBBY", "note": "ON 12/24 AND 12/31, THIS BOX MAY BE COLLECTED AS EARLY AS 12 NOON.", "nsi_id": "unitedstatespostalservice-a77078", "operator": "United States Postal Service", "operator:short": "USPS", "operator:type": "public", "operator:wikidata": "Q668687", "ref": "0821500015"}, "type": "Feature"}
{"dataset_attributes": {"@spider": "usps_collection_boxes", "spider:collection_time": "2023-09-25T08:26:09.915926"}, "geometry": {"coordinates": [-74.721891, 39.57916], "type": "Point"}, "id": "5jJSJfvCEztCnFxtvduLjvwhL2Y=", "properties": {"@spider": "usps_collection_boxes", "addr:city": "ELWOOD", "addr:country": "US", "addr:full": "4401 WHITE HORSE PIKE", "addr:postcode": "08217", "addr:state": "NJ", "amenity": "post_box", "brand": "United States Postal Service", "brand:wikidata": "Q668687", "collection_times": "Mo-Fr 16:45; Sa 12:00", "name": "USPS COLLECTION BOX - BLUE BOX", "note": "ON 12/24 AND 12/31, THIS BOX MAY BE COLLECTED AS EARLY AS 12 NOON.", "nsi_id": "unitedstatespostalservice-a77078", "operator": "United States Postal Service", "operator:short": "USPS", "operator:type": "public", "operator:wikidata": "Q668687", "ref": "0821700001"}, "type": "Feature"}
{"dataset_attributes": {"@spider": "usps_collection_boxes", "spider:collection_time": "2023-09-25T08:26:09.915926"}, "geometry": {"coordinates": [-74.721891, 39.57916], "type": "Point"}, "id": "KLf5LlngF2YW21EHMUIEON0xOr8=", "properties": {"@spider": "usps_collection_boxes", "addr:city": "ELWOOD", "addr:country": "US", "addr:full": "4401 WHITE HORSE PIKE", "addr:postcode": "08217", "addr:state": "NJ", "amenity": "post_box", "brand": "United States Postal Service", "brand:wikidata": "Q668687", "collection_times": "Mo-Fr 16:45; Sa 12:30", "name": "USPS COLLECTION BOX - PO LOBBY", "note": "ON 12/24 AND 12/31, THIS BOX MAY BE COLLECTED AS EARLY AS 12 NOON.", "nsi_id": "unitedstatespostalservice-a77078", "operator": "United States Postal Service", "operator:short": "USPS", "operator:type": "public", "operator:wikidata": "Q668687", "ref": "0821700002"}, "type": "Feature"}
{"dataset_attributes": {"@spider": "usps_collection_boxes", "spider:collection_time": "2023-09-25T08:26:09.915926"}, "geometry": {"coordinates": [-74.721119269, 39.579821691], "type": "Point"}, "id": "87kRvjNlvxpC_bWUi7tZU1Idg7g=", "properties": {"@spider": "usps_collection_boxes", "addr:city": "ELWOOD", "addr:country": "US", "addr:full": "4401 WHITE HORSE PIKE", "addr:postcode": "08217", "addr:state": "NJ", "amenity": "post_box", "brand": "United States Postal Service", "brand:wikidata": "Q668687", "collection_times": "Mo-Fr 16:45; Sa 12:00", "name": "USPS COLLECTION BOX - PO LOBBY", "note": "ON 12/24 AND 12/31, THIS BOX MAY BE COLLECTED AS EARLY AS 12 NOON.", "nsi_id": "unitedstatespostalservice-a77078", "operator": "United States Postal Service", "operator:short": "USPS", "operator:type": "public", "operator:wikidata": "Q668687", "ref": "0821700005"}, "type": "Feature"}
{"dataset_attributes": {"@spider": "usps_collection_boxes", "spider:collection_time": "2023-09-25T08:26:09.915926"}, "geometry": {"coordinates": [-74.901462, 39.045899], "type": "Point"}, "id": "KTvmDWybB8zViiT7_VhHoGS2nbg=", "properties": {"@spider": "usps_collection_boxes", "addr:city": "GREEN CREEK", "addr:country": "US", "addr:full": "501 ROUTE 47 S", "addr:postcode": "08219", "addr:state": "NJ", "amenity": "post_box", "brand": "United States Postal Service", "brand:wikidata": "Q668687", "collection_times": "Mo-Fr 16:30; Sa 12:00", "name": "USPS COLLECTION BOX - BLUE BOX", "note": "ON 12/24 AND 12/31, THIS BOX MAY BE COLLECTED AS EARLY AS 12 NOON.", "nsi_id": "unitedstatespostalservice-a77078", "operator": "United States Postal Service", "operator:short": "USPS", "operator:type": "public", "operator:wikidata": "Q668687", "ref": "0821900001"}, "type": "Feature"}
{"dataset_attributes": {"@spider": "usps_collection_boxes", "spider:collection_time": "2023-09-25T08:26:09.915926"}, "geometry": {"coordinates": [-74.8954763661, 39.0327272004], "type": "Point"}, "id": "wbCHa9pIBPNmX-JKzDitCx4mxpc=", "properties": {"@spider": "usps_collection_boxes", "addr:city": "GREEN CREEK", "addr:country": "US", "addr:full": "501-A ROUTE 47 S", "addr:postcode": "08219", "addr:state": "NJ", "amenity": "post_box", "brand": "United States Postal Service", "brand:wikidata": "Q668687", "collection_times": "Mo-Fr 16:30; Sa 12:30", "name": "USPS COLLECTION BOX - PO LOBBY", "note": "ON 12/24 AND 12/31, THIS BOX MAY BE COLLECTED AS EARLY AS 12 NOON.", "nsi_id": "unitedstatespostalservice-a77078", "operator": "United States Postal Service", "operator:short": "USPS", "operator:type": "public", "operator:wikidata": "Q668687", "ref": "0821900002"}, "type": "Feature"}
{"dataset_attributes": {"@spider": "usps_collection_boxes", "spider:collection_time": "2023-09-25T08:26:09.915926"}, "geometry": {"coordinates": [-74.90097267, 39.045793726], "type": "Point"}, "id": "3mGLTuujUbzvayRNsenXDfjQsr0=", "properties": {"@spider": "usps_collection_boxes", "addr:city": "GREEN CREEK", "addr:country": "US", "addr:full": "501 ROUTE 47 S", "addr:postcode": "08219", "addr:state": "NJ", "amenity": "post_box", "brand": "United States Postal Service", "brand:wikidata": "Q668687", "collection_times": "Mo-Fr 17:00; Sa 12:00", "name": "USPS COLLECTION BOX - PO LOBBY", "note": "ON 12/24 AND 12/31, THIS BOX MAY BE COLLECTED AS EARLY AS 12 NOON.", "nsi_id": "unitedstatespostalservice-a77078", "operator": "United States Postal Service", "operator:short": "USPS", "operator:type": "public", "operator:wikidata": "Q668687", "ref": "0821900005"}, "type": "Feature"}
{"dataset_attributes": {"@spider": "usps_collection_boxes", "spider:collection_time": "2023-09-25T08:26:09.915926"}, "geometry": {"coordinates": [-74.436047, 39.490756], "type": "Point"}, "id": "6O6GGPAUuhMmuB-BfHGmnC4k3UA=", "properties": {"@spider": "usps_collection_boxes", "addr:city": "LEEDS POINT", "addr:country": "US", "addr:full": "15 S LEEDS POINT RD", "addr:postcode": "08220", "addr:state": "NJ", "amenity": "post_box", "brand": "United States Postal Service", "brand:wikidata": "Q668687", "collection_times": "Mo-Fr 17:00; Sa 12:30", "name": "USPS COLLECTION BOX - BLUE BOX", "note": "ON 12/24 AND 12/31, THIS BOX MAY BE COLLECTED AS EARLY AS 12 NOON.", "nsi_id": "unitedstatespostalservice-a77078", "operator": "United States Postal Service", "operator:short": "USPS", "operator:type": "public", "operator:wikidata": "Q668687", "ref": "0822000001"}, "type": "Feature"}
{"dataset_attributes": {"@spider": "usps_collection_boxes", "spider:collection_time": "2023-09-25T08:26:09.915926"}, "geometry": {"coordinates": [-74.436047, 39.490756], "type": "Point"}, "id": "dSwceD5FG5u8ZA-4faN61jsh86U=", "properties": {"@spider": "usps_collection_boxes", "addr:city": "LEEDS POINT", "addr:country": "US", "addr:full": "15 S LEEDS POINT RD", "addr:postcode": "08220", "addr:state": "NJ", "amenity": "post_box", "brand": "United States Postal Service", "brand:wikidata": "Q668687", "collection_times": "Mo-Fr 17:00; Sa 12:30", "name": "USPS COLLECTION BOX - PO LOBBY", "note": "ON 12/24 AND 12/31, THIS BOX MAY BE COLLECTED AS EARLY AS 12 NOON.", "nsi_id": "unitedstatespostalservice-a77078", "operator": "United States Postal Service", "operator:short": "USPS", "operator:type": "public", "operator:wikidata": "Q668687", "ref": "0822000002"}, "type": "Feature"}
{"dataset_attributes": {"@spider": "usps_collection_boxes", "spider:collection_time": "2023-09-25T08:26:09.915926"}, "geometry": {"coordinates": [-74.451903232, 39.47801435], "type": "Point"}, "id": "e92FDJX5G157LRGCztEC--xJ9tk=", "properties": {"@spider": "usps_collection_boxes", "addr:city": "LEEDS POINT", "addr:country": "US", "addr:full": "15 S LEEDS POINT RD", "addr:postcode": "08220", "addr:state": "NJ", "amenity": "post_box", "brand": "United States Postal Service", "brand:wikidata": "Q668687", "collection_times": "Mo-Fr 16:45; Sa 12:30", "name": "USPS COLLECTION BOX - PO LOBBY", "note": "ON 12/24 AND 12/31, THIS BOX MAY BE COLLECTED AS EARLY AS 12 NOON.", "nsi_id": "unitedstatespostalservice-a77078", "operator": "United States Postal Service", "operator:short": "USPS", "operator:type": "public", "operator:wikidata": "Q668687", "ref": "0822000005"}, "type": "Feature"}
{"dataset_attributes": {"@spider": "usps_collection_boxes", "spider:collection_time": "2023-09-25T08:26:09.915926"}, "geometry": {"coordinates": [-74.5694567696, 39.3473709425], "type": "Point"}, "id": "k6Q_JxT2PriGMk6Uk8vF4_IJJEc=", "properties": {"@spider": "usps_collection_boxes", "addr:city": "LINWOOD", "addr:country": "US", "addr:full": "15 W EDGEWOOD AVE", "addr:postcode": "08221", "addr:state": "NJ", "amenity": "post_box", "brand": "United States Postal Service", "brand:wikidata": "Q668687", "collection_times": "Mo-Fr 17:00; Sa 13:00", "name": "USPS COLLECTION BOX - BLUE BOX", "note": "ON 12/24 AND 12/31, THIS BOX MAY BE COLLECTED AS EARLY AS 12 NOON.", "nsi_id": "unitedstatespostalservice-a77078", "operator": "United States Postal Service", "operator:short": "USPS", "operator:type": "public", "operator:wikidata": "Q668687", "ref": "0822100001"}, "type": "Feature"}
{"dataset_attributes": {"@spider": "usps_collection_boxes", "spider:collection_time": "2023-09-25T08:26:09.915926"}, "geometry": {"coordinates": [-74.5677842, 39.359761], "type": "Point"}, "id": "cqgNuTV1BBgnUWiUVNUGcplFaR8=", "properties": {"@spider": "usps_collection_boxes", "addr:city": "LINWOOD", "addr:country": "US", "addr:full": "199 NEW RD", "addr:postcode": "08221", "addr:state": "NJ", "amenity": "post_box", "brand": "United States Postal Service", "brand:wikidata": "Q668687", "collection_times": "Mo-Sa 12:00", "name": "USPS COLLECTION BOX - BLUE BOX", "nsi_id": "unitedstatespostalservice-a77078", "operator": "United States Postal Service", "operator:short": "USPS", "operator:type": "public", "operator:wikidata": "Q668687", "ref": "0822100006"}, "type": "Feature"}
{"dataset_attributes": {"@spider": "usps_collection_boxes", "spider:collection_time": "2023-09-25T08:26:09.915926"}, "geometry": {"coordinates": [-74.5696559, 39.35723], "type": "Point"}, "id": "hIOVDhJYuKWxrZjgXDG_5pbcBhY=", "properties": {"@spider": "usps_collection_boxes", "addr:city": "LINWOOD", "addr:country": "US", "addr:full": "222 NEW RD", "addr:postcode": "08221", "addr:state": "NJ", "amenity": "post_box", "brand": "United States Postal Service", "brand:wikidata": "Q668687", "collection_times": "Mo-Sa 12:00", "name": "USPS COLLECTION BOX - BLUE BOX", "nsi_id": "unitedstatespostalservice-a77078", "operator": "United States Postal Service", "operator:short": "USPS", "operator:type": "public", "operator:wikidata": "Q668687", "ref": "0822100008"}, "type": "Feature"}
{"dataset_attributes": {"@spider": "usps_collection_boxes", "spider:collection_time": "2023-09-25T08:26:09.915926"}, "geometry": {"coordinates": [-74.5744541, 39.353709], "type": "Point"}, "id": "uIg9CPnmtVQ-ZMNLIIc5HyyzPRw=", "properties": {"@spider": "usps_collection_boxes", "addr:city": "LINWOOD", "addr:country": "US", "addr:full": "400 W POPLAR AVE", "addr:postcode": "08221", "addr:state": "NJ", "amenity": "post_box", "brand": "United States Postal Service", "brand:wikidata": "Q668687", "collection_times": "Mo-Sa 12:00", "name": "USPS COLLECTION BOX - BLUE BOX", "nsi_id": "unitedstatespostalservice-a77078", "operator": "United States Postal Service", "operator:short": "USPS", "operator:type": "public", "operator:wikidata": "Q668687", "ref": "0822100009"}, "type": "Feature"}
{"dataset_attributes": {"@spider": "usps_collection_boxes", "spider:collection_time": "2023-09-25T08:26:09.915926"}, "geometry": {"coordinates": [-74.5874126, 39.33488], "type": "Point"}, "id": "JS4KoWsUguNbBsFUSap-I8vI7lY=", "properties": {"@spider": "usps_collection_boxes", "addr:city": "LINWOOD", "addr:country": "US", "addr:full": "2106 NEW RD", "addr:postcode": "08221", "addr:state": "NJ", "amenity": "post_box", "brand": "United States Postal Service", "brand:wikidata": "Q668687", "collection_times": "Mo-Sa 12:00", "name": "USPS COLLECTION BOX - BLUE BOX", "nsi_id": "unitedstatespostalservice-a77078", "operator": "United States Postal Service", "operator:short": "USPS", "operator:type": "public", "operator:wikidata": "Q668687", "ref": "0822100014"}, "type": "Feature"}
{"dataset_attributes": {"@spider": "usps_collection_boxes", "spider:collection_time": "2023-09-25T08:26:09.915926"}, "geometry": {"coordinates": [-74.5883977, 39.336058], "type": "Point"}, "id": "_yw3n0msuGDcXCVNY6gjCOYc7Ac=", "properties": {"@spider": "usps_collection_boxes", "addr:city": "LINWOOD", "addr:country": "US", "addr:full": "2021 NEW RD", "addr:postcode": "08221", "addr:state": "NJ", "amenity": "post_box", "brand": "United States Postal Service", "brand:wikidata": "Q668687", "collection_times": "Mo-Sa 12:00", "name": "USPS COLLECTION BOX - BLUE BOX", "nsi_id": "unitedstatespostalservice-a77078", "operator": "United States Postal Service", "operator:short": "USPS", "operator:type": "public", "operator:wikidata": "Q668687", "ref": "0822100015"}, "type": "Feature"}
{"dataset_attributes": {"@spider": "usps_collection_boxes", "spider:collection_time": "2023-09-25T08:26:09.915926"}, "geometry": {"coordinates": [-74.5714999, 39.359844], "type": "Point"}, "id": "t-SMPOesRCBKBTVxW39s_s-UxyI=", "properties": {"@spider": "usps_collection_boxes", "addr:city": "LINWOOD", "addr:country": "US", "addr:full": "550 CENTRAL AVE", "addr:postcode": "08221", "addr:state": "NJ", "amenity": "post_box", "brand": "United States Postal Service", "brand:wikidata": "Q668687", "collection_times": "Mo-Sa 12:00", "name": "USPS COLLECTION BOX - BLUE BOX", "nsi_id": "unitedstatespostalservice-a77078", "operator": "United States Postal Service", "operator:short": "USPS", "operator:type": "public", "operator:wikidata": "Q668687", "ref": "0822100017"}, "type": "Feature"}
{"dataset_attributes": {"@spider": "usps_collection_boxes", "spider:collection_time": "2023-09-25T08:26:09.915926"}, "geometry": {"coordinates": [-74.569196, 39.347266], "type": "Point"}, "id": "YrBqIFNfXE-VaBfDk_-Uyxvp6HE=", "properties": {"@spider": "usps_collection_boxes", "addr:city": "LINWOOD", "addr:country": "US", "addr:full": "1103 SHORE RD", "addr:postcode": "08221", "addr:state": "NJ", "amenity": "post_box", "brand": "United States Postal Service", "brand:wikidata": "Q668687", "collection_times": "Mo-Fr 17:00; Sa 13:00", "name": "USPS COLLECTION BOX - PO LOBBY", "note": "ON 12/24 AND 12/31, THIS BOX MAY BE COLLECTED AS EARLY AS 12 NOON.", "nsi_id": "unitedstatespostalservice-a77078", "operator": "United States Postal Service", "operator:short": "USPS", "operator:type": "public", "operator:wikidata": "Q668687", "ref": "0822100018"}, "type": "Feature"}
{"dataset_attributes": {"@spider": "usps_collection_boxes", "spider:collection_time": "2023-09-25T08:26:09.915926"}, "geometry": {"coordinates": [-74.5692823376, 39.3472497884], "type": "Point"}, "id": "nKmYu7YA5WBRNR_dd_tnsO5Xqak=", "properties": {"@spider": "usps_collection_boxes", "addr:city": "LINWOOD", "addr:country": "US", "addr:full": "1103 SHORE RD", "addr:postcode": "08221", "addr:state": "NJ", "amenity": "post_box", "brand": "United States Postal Service", "brand:wikidata": "Q668687", "collection_times": "Mo-Fr 16:45; Sa 13:00", "name": "USPS COLLECTION BOX - PO LOBBY", "note": "ON 12/24 AND 12/31, THIS BOX MAY BE COLLECTED AS EARLY AS 12 NOON.", "nsi_id": "unitedstatespostalservice-a77078", "operator": "United States Postal Service", "operator:short": "USPS", "operator:type": "public", "operator:wikidata": "Q668687", "ref": "0822100022"}, "type": "Feature"}
{"dataset_attributes": {"@spider": "usps_collection_boxes", "spider:collection_time": "2023-09-25T08:26:09.915926"}, "geometry": {"coordinates": [-74.653841, 39.265557], "type": "Point"}, "id": "adZUCJdYYRyWLUfEO301fxrFzaI=", "properties": {"@spider": "usps_collection_boxes", "addr:city": "MARMORA", "addr:country": "US", "addr:full": "120 TUCKAHOE RD", "addr:postcode": "08223", "addr:state": "NJ", "amenity": "post_box", "brand": "United States Postal Service", "brand:wikidata": "Q668687", "collection_times": "Mo-Fr 16:45; Sa 12:00", "name": "USPS COLLECTION BOX - BLUE BOX", "note": "ON 12/24 AND 12/31, THIS BOX MAY BE COLLECTED AS EARLY AS 12 NOON.", "nsi_id": "unitedstatespostalservice-a77078", "operator": "United States Postal Service", "operator:short": "USPS", "operator:type": "public", "operator:wikidata": "Q668687", "ref": "0822300001"}, "type": "Feature"}
{"dataset_attributes": {"@spider": "usps_collection_boxes", "spider:collection_time": "2023-09-25T08:26:09.915926"}, "geometry": {"coordinates": [-74.6522616, 39.264001], "type": "Point"}, "id": "Ea9_We1TBYxIX576uqRVCuEJW_o=", "properties": {"@spider": "usps_collection_boxes", "addr:city": "MARMORA", "addr:country": "US", "addr:full": "62 TUCKAHOE RD", "addr:postcode": "08223", "addr:state": "NJ", "amenity": "post_box", "brand": "United States Postal Service", "brand:wikidata": "Q668687", "collection_times": "Mo-Fr 12:00; Sa 11:00", "name": "USPS COLLECTION BOX - BLUE BOX", "nsi_id": "unitedstatespostalservice-a77078", "operator": "United States Postal Service", "operator:short": "USPS", "operator:type": "public", "operator:wikidata": "Q668687", "ref": "0822300003"}, "type": "Feature"}
{"dataset_attributes": {"@spider": "usps_collection_boxes", "spider:collection_time": "2023-09-25T08:26:09.915926"}, "geometry": {"coordinates": [-74.653841, 39.265557], "type": "Point"}, "id": "zyXZ9ZFmCI1L8cGHKor8s45paXU=", "properties": {"@spider": "usps_collection_boxes", "addr:city": "MARMORA", "addr:country": "US", "addr:full": "120 TUCKAHOE RD", "addr:postcode": "08223", "addr:state": "NJ", "amenity": "post_box", "brand": "United States Postal Service", "brand:wikidata": "Q668687", "collection_times": "Mo-Fr 17:00; Sa 12:00", "name": "USPS COLLECTION BOX - PO LOBBY", "note": "ON 12/24 AND 12/31, THIS BOX MAY BE COLLECTED AS EARLY AS 12 NOON.", "nsi_id": "unitedstatespostalservice-a77078", "operator": "United States Postal Service", "operator:short": "USPS", "operator:type": "public", "operator:wikidata": "Q668687", "ref": "0822300005"}, "type": "Feature"}
{"dataset_attributes": {"@spider": "usps_collection_boxes", "spider:collection_time": "2023-09-25T08:26:09.915926"}, "geometry": {"coordinates": [-74.6535543, 39.259005], "type": "Point"}, "id": "8N-ufQd_u11To2yTyLu7RVPv-TI=", "properties": {"@spider": "usps_collection_boxes", "addr:city": "MARMORA", "addr:country": "US", "addr:full": "287 ROUTE US 9 S", "addr:postcode": "08223", "addr:state": "NJ", "amenity": "post_box", "brand": "United States Postal Service", "brand:wikidata": "Q668687", "collection_times": "Mo-Fr 12:00; Sa 11:00", "name": "USPS COLLECTION BOX - BLUE BOX", "nsi_id": "unitedstatespostalservice-a77078", "operator": "United States Postal Service", "operator:short": "USPS", "operator:type": "public", "operator:wikidata": "Q668687", "ref": "0822300006"}, "type": "Feature"}
{"dataset_attributes": {"@spider": "usps_collection_boxes", "spider:collection_time": "2023-09-25T08:26:09.915926"}, "geometry": {"coordinates": [-74.653841, 39.265557], "type": "Point"}, "id": "cFRGChjAsxFInmavH0rd-NTgWDY=", "properties": {"@spider": "usps_collection_boxes", "addr:city": "MARMORA", "addr:country": "US", "addr:full": "120 TUCKAHOE RD", "addr:postcode": "08223", "addr:state": "NJ", "amenity": "post_box", "brand": "United States Postal Service", "brand:wikidata": "Q668687", "collection_times": "Mo-Fr 17:00; Sa 12:00", "name": "USPS COLLECTION BOX - PO LOBBY", "note": "ON 12/24 AND 12/31, THIS BOX MAY BE COLLECTED AS EARLY AS 12 NOON.", "nsi_id": "unitedstatespostalservice-a77078", "operator": "United States Postal Service", "operator:short": "USPS", "operator:type": "public", "operator:wikidata": "Q668687", "ref": "0822300007"}, "type": "Feature"}
{"dataset_attributes": {"@spider": "usps_collection_boxes", "spider:collection_time": "2023-09-25T08:26:09.915926"}, "geometry": {"coordinates": [-74.653840114, 39.265553044], "type": "Point"}, "id": "XHn0tAc_jt9BzcycylgF43Dx2D0=", "properties": {"@spider": "usps_collection_boxes", "addr:city": "MARMORA", "addr:country": "US", "addr:full": "120 TUCKAHOE RD", "addr:postcode": "08223", "addr:state": "NJ", "amenity": "post_box", "brand": "United States Postal Service", "brand:wikidata": "Q668687", "collection_times": "Mo-Fr 16:45; Sa 11:45", "name": "USPS COLLECTION BOX - PO LOBBY", "note": "ON 12/24 AND 12/31, THIS BOX MAY BE COLLECTED AS EARLY AS 12 NOON.", "nsi_id": "unitedstatespostalservice-a77078", "operator": "United States Postal Service", "operator:short": "USPS", "operator:type": "public", "operator:wikidata": "Q668687", "ref": "0822300011"}, "type": "Feature"}
{"dataset_attributes": {"@spider": "usps_collection_boxes", "spider:collection_time": "2023-09-25T08:26:09.915926"}, "geometry": {"coordinates": [-74.4565826, 39.591447], "type": "Point"}, "id": "HCVH7Z_eotP9pIPBsjrvIU-YNSw=", "properties": {"@spider": "usps_collection_boxes", "addr:city": "NEW GRETNA", "addr:country": "US", "addr:full": "5624 ROUTE 9", "addr:postcode": "08224", "addr:state": "NJ", "amenity": "post_box", "brand": "United States Postal Service", "brand:wikidata": "Q668687", "collection_times": "Mo-Fr 16:45; Sa 12:00", "name": "USPS COLLECTION BOX - BLUE BOX", "note": "ON 12/24 AND 12/31, THIS BOX MAY BE COLLECTED AS EARLY AS 12 NOON.", "nsi_id": "unitedstatespostalservice-a77078", "operator": "United States Postal Service", "operator:short": "USPS", "operator:type": "public", "operator:wikidata": "Q668687", "ref": "0822400001"}, "type": "Feature"}
{"dataset_attributes": {"@spider": "usps_collection_boxes", "spider:collection_time": "2023-09-25T08:26:09.915926"}, "geometry": {"coordinates": [-74.4565703, 39.591403], "type": "Point"}, "id": "66CMS7PhLV9NomyOImDLgRmmgds=", "properties": {"@spider": "usps_collection_boxes", "addr:city": "NEW GRETNA", "addr:country": "US", "addr:full": "5624 ROUTE 9", "addr:postcode": "08224", "addr:state": "NJ", "amenity": "post_box", "brand": "United States Postal Service", "brand:wikidata": "Q668687", "collection_times": "Mo-Fr 16:45; Sa 12:00", "name": "USPS COLLECTION BOX - PO LOBBY", "note": "ON 12/24 AND 12/31, THIS BOX MAY BE COLLECTED AS EARLY AS 12 NOON.", "nsi_id": "unitedstatespostalservice-a77078", "operator": "United States Postal Service", "operator:short": "USPS", "operator:type": "public", "operator:wikidata": "Q668687", "ref": "0822400002"}, "type": "Feature"}
{"dataset_attributes": {"@spider": "usps_collection_boxes", "spider:collection_time": "2023-09-25T08:26:09.915926"}, "geometry": {"coordinates": [-74.456186054, 39.591507223], "type": "Point"}, "id": "kt_Ev-UEQYxczTH2C6hlBtwX6Ok=", "properties": {"@spider": "usps_collection_boxes", "addr:city": "NEW GRETNA", "addr:country": "US", "addr:full": "5624 ROUTE 9", "addr:postcode": "08224", "addr:state": "NJ", "amenity": "post_box", "brand": "United States Postal Service", "brand:wikidata": "Q668687", "collection_times": "Mo-Fr 16:30; Sa 12:00", "name": "USPS COLLECTION BOX - PO LOBBY", "note": "ON 12/24 AND 12/31, THIS BOX MAY BE COLLECTED AS EARLY AS 12 NOON.", "nsi_id": "unitedstatespostalservice-a77078", "operator": "United States Postal Service", "operator:short": "USPS", "operator:type": "public", "operator:wikidata": "Q668687", "ref": "0822400005"}, "type": "Feature"}
{"dataset_attributes": {"@spider": "usps_collection_boxes", "spider:collection_time": "2023-09-25T08:26:09.915926"}, "geometry": {"coordinates": [-74.550373, 39.378035], "type": "Point"}, "id": "1KDZZEjZAE_zaiohIBa0HiPuyyI=", "properties": {"@spider": "usps_collection_boxes", "addr:city": "NORTHFIELD", "addr:country": "US", "addr:full": "800 NEW RD", "addr:postcode": "08225", "addr:state": "NJ", "amenity": "post_box", "brand": "United States Postal Service", "brand:wikidata": "Q668687", "collection_times": "Mo-Fr 17:00; Sa 13:00", "name": "USPS COLLECTION BOX - BLUE BOX", "note": "ON 12/24 AND 12/31, THIS BOX MAY BE COLLECTED AS EARLY AS 12 NOON.", "nsi_id": "unitedstatespostalservice-a77078", "operator": "United States Postal Service", "operator:short": "USPS", "operator:type": "public", "operator:wikidata": "Q668687", "ref": "0822500001"}, "type": "Feature"}
{"dataset_attributes": {"@spider": "usps_collection_boxes", "spider:collection_time": "2023-09-25T08:26:09.915926"}, "geometry": {"coordinates": [-74.5530422, 39.37082], "type": "Point"}, "id": "wtA7xr7hi8THoVzIWs2Hx50Qkyw=", "properties": {"@spider": "usps_collection_boxes", "addr:city": "NORTHFIELD", "addr:country": "US", "addr:full": "1501 TILTON RD", "addr:postcode": "08225", "addr:state": "NJ", "amenity": "post_box", "brand": "United States Postal Service", "brand:wikidata": "Q668687", "collection_times": "Mo-Sa 10:00", "name": "USPS COLLECTION BOX - BLUE BOX", "nsi_id": "unitedstatespostalservice-a77078", "operator": "United States Postal Service", "operator:short": "USPS", "operator:type": "public", "operator:wikidata": "Q668687", "ref": "0822500003"}, "type": "Feature"}
{"dataset_attributes": {"@spider": "usps_collection_boxes", "spider:collection_time": "2023-09-25T08:26:09.915926"}, "geometry": {"coordinates": [-74.5548791, 39.384057], "type": "Point"}, "id": "djB7KHV6JSswBFc0GoR34DFKDEI=", "properties": {"@spider": "usps_collection_boxes", "addr:city": "NORTHFIELD", "addr:country": "US", "addr:full": "801 TILTON RD", "addr:postcode": "08225", "addr:state": "NJ", "amenity": "post_box", "brand": "United States Postal Service", "brand:wikidata": "Q668687", "collection_times": "Mo-Sa 10:00", "name": "USPS COLLECTION BOX - BLUE BOX", "nsi_id": "unitedstatespostalservice-a77078", "operator": "United States Postal Service", "operator:short": "USPS", "operator:type": "public", "operator:wikidata": "Q668687", "ref": "0822500004"}, "type": "Feature"}
{"dataset_attributes": {"@spider": "usps_collection_boxes", "spider:collection_time": "2023-09-25T08:26:09.915926"}, "geometry": {"coordinates": [-74.5563717, 39.382585], "type": "Point"}, "id": "LXez-Tol68JcCPdfu7S5U4eoSLk=", "properties": {"@spider": "usps_collection_boxes", "addr:city": "NORTHFIELD", "addr:country": "US", "addr:full": "535 TILTON RD", "addr:postcode": "08225", "addr:state": "NJ", "amenity": "post_box", "brand": "United States Postal Service", "brand:wikidata": "Q668687", "collection_times": "Mo-Sa 11:00", "name": "USPS COLLECTION BOX - BLUE BOX", "nsi_id": "unitedstatespostalservice-a77078", "operator": "United States Postal Service", "operator:short": "USPS", "operator:type": "public", "operator:wikidata": "Q668687", "ref": "0822500005"}, "type": "Feature"}
{"dataset_attributes": {"@spider": "usps_collection_boxes", "spider:collection_time": "2023-09-25T08:26:09.915926"}, "geometry": {"coordinates": [-74.5643591, 39.363413], "type": "Point"}, "id": "BPrdAw2uGwB0-DlvI5ILWLA7-TA=", "properties": {"@spider": "usps_collection_boxes", "addr:city": "NORTHFIELD", "addr:country": "US", "addr:full": "2500 NEW RD", "addr:postcode": "08225", "addr:state": "NJ", "amenity": "post_box", "brand": "United States Postal Service", "brand:wikidata": "Q668687", "collection_times": "Mo-Sa 10:00", "name": "USPS COLLECTION BOX - BLUE BOX", "nsi_id": "unitedstatespostalservice-a77078", "operator": "United States Postal Service", "operator:short": "USPS", "operator:type": "public", "operator:wikidata": "Q668687", "ref": "0822500006"}, "type": "Feature"}
{"dataset_attributes": {"@spider": "usps_collection_boxes", "spider:collection_time": "2023-09-25T08:26:09.915926"}, "geometry": {"coordinates": [-74.5631691, 39.367516], "type": "Point"}, "id": "9k5qIvSyZJiEgypmHysgfWzzqiU=", "properties": {"@spider": "usps_collection_boxes", "addr:city": "NORTHFIELD", "addr:country": "US", "addr:full": "2111 NEW RD", "addr:postcode": "08225", "addr:state": "NJ", "amenity": "post_box", "brand": "United States Postal Service", "brand:wikidata": "Q668687", "collection_times": "Mo-Sa 11:00", "name": "USPS COLLECTION BOX - BLUE BOX", "nsi_id": "unitedstatespostalservice-a77078", "operator": "United States Postal Service", "operator:short": "USPS", "operator:type": "public", "operator:wikidata": "Q668687", "ref": "0822500011"}, "type": "Feature"}
{"dataset_attributes": {"@spider": "usps_collection_boxes", "spider:collection_time": "2023-09-25T08:26:09.915926"}, "geometry": {"coordinates": [-74.550397, 39.378055], "type": "Point"}, "id": "F_VHaAa7pZiRPGFrkyaaAnfyDjM=", "properties": {"@spider": "usps_collection_boxes", "addr:city": "NORTHFIELD", "addr:country": "US", "addr:full": "800 NEW RD", "addr:postcode": "08225", "addr:state": "NJ", "amenity": "post_box", "brand": "United States Postal Service", "brand:wikidata": "Q668687", "collection_times": "Mo-Fr 17:00; Sa 13:00", "name": "USPS COLLECTION BOX - PO LOBBY", "note": "ON 12/24 AND 12/31, THIS BOX MAY BE COLLECTED AS EARLY AS 12 NOON.", "nsi_id": "unitedstatespostalservice-a77078", "operator": "United States Postal Service", "operator:short": "USPS", "operator:type": "public", "operator:wikidata": "Q668687", "ref": "0822500012"}, "type": "Feature"}
{"dataset_attributes": {"@spider": "usps_collection_boxes", "spider:collection_time": "2023-09-25T08:26:09.915926"}, "geometry": {"coordinates": [-74.550377192, 39.378033725], "type": "Point"}, "id": "j9U9Tozk8pulhi03E6qZcbMnFoU=", "properties": {"@spider": "usps_collection_boxes", "addr:city": "NORTHFIELD", "addr:country": "US", "addr:full": "800 NEW RD", "addr:postcode": "08225", "addr:state": "NJ", "amenity": "post_box", "brand": "United States Postal Service", "brand:wikidata": "Q668687", "collection_times": "Mo-Fr 17:00; Sa 13:00", "name": "USPS COLLECTION BOX - PO LOBBY", "note": "ON 12/24 AND 12/31, THIS BOX MAY BE COLLECTED AS EARLY AS 12 NOON.", "nsi_id": "unitedstatespostalservice-a77078", "operator": "United States Postal Service", "operator:short": "USPS", "operator:type": "public", "operator:wikidata": "Q668687", "ref": "0822500015"}, "type": "Feature"}
{"dataset_attributes": {"@spider": "usps_collection_boxes", "spider:collection_time": "2023-09-25T08:26:09.915926"}, "geometry": {"coordinates": [-74.5579357, 39.294544], "type": "Point"}, "id": "UCnGryPVYy0PIDXYK7L6Sb_q0Vk=", "properties": {"@spider": "usps_collection_boxes", "addr:city": "OCEAN CITY", "addr:country": "US", "addr:full": "805 GARDENS PKWY", "addr:postcode": "08226", "addr:state": "NJ", "amenity": "post_box", "brand": "United States Postal Service", "brand:wikidata": "Q668687", "collection_times": "Mo-Sa 11:00", "name": "USPS COLLECTION BOX - BLUE BOX", "nsi_id": "unitedstatespostalservice-a77078", "operator": "United States Postal Service", "operator:short": "USPS", "operator:type": "public", "operator:wikidata": "Q668687", "ref": "0822600002"}, "type": "Feature"}
{"dataset_attributes": {"@spider": "usps_collection_boxes", "spider:collection_time": "2023-09-25T08:26:09.915926"}, "geometry": {"coordinates": [-74.5602695, 39.288731], "type": "Point"}, "id": "wA4ner2JTo3pHvvZFO6BFwPxJGY=", "properties": {"@spider": "usps_collection_boxes", "addr:city": "OCEAN CITY", "addr:country": "US", "addr:full": "601 BATTERSEA RD", "addr:postcode": "08226", "addr:state": "NJ", "amenity": "post_box", "brand": "United States Postal Service", "brand:wikidata": "Q668687", "collection_times": "Mo-Sa 12:00", "name": "USPS COLLECTION BOX - BLUE BOX", "nsi_id": "unitedstatespostalservice-a77078", "operator": "United States Postal Service", "operator:short": "USPS", "operator:type": "public", "operator:wikidata": "Q668687", "ref": "0822600005"}, "type": "Feature"}
{"dataset_attributes": {"@spider": "usps_collection_boxes", "spider:collection_time": "2023-09-25T08:26:09.915926"}, "geometry": {"coordinates": [-74.5651769, 39.28753], "type": "Point"}, "id": "kEN50IpgDwvnND0lNWEoUEDYVBw=", "properties": {"@spider": "usps_collection_boxes", "addr:city": "OCEAN CITY", "addr:country": "US", "addr:full": "101 ASBURY AVE", "addr:postcode": "08226", "addr:state": "NJ", "amenity": "post_box", "brand": "United States Postal Service", "brand:wikidata": "Q668687", "collection_times": "Mo-Sa 11:30", "name": "USPS COLLECTION BOX - BLUE BOX", "nsi_id": "unitedstatespostalservice-a77078", "operator": "United States Postal Service", "operator:short": "USPS", "operator:type": "public", "operator:wikidata": "Q668687", "ref": "0822600010"}, "type": "Feature"}
{"dataset_attributes": {"@spider": "usps_collection_boxes", "spider:collection_time": "2023-09-25T08:26:09.915926"}, "geometry": {"coordinates": [-74.5779461, 39.282438], "type": "Point"}, "id": "JhQ4BcK0v_7GQiuQQerj6SqghG8=", "properties": {"@spider": "usps_collection_boxes", "addr:city": "OCEAN CITY", "addr:country": "US", "addr:full": "734 BAY AVE", "addr:postcode": "08226", "addr:state": "NJ", "amenity": "post_box", "brand": "United States Postal Service", "brand:wikidata": "Q668687", "collection_times": "Mo-Sa 13:00", "name": "USPS COLLECTION BOX - BLUE BOX", "note": "ON 12/24 AND 12/31, THIS BOX MAY BE COLLECTED AS EARLY AS 12 NOON.", "nsi_id": "unitedstatespostalservice-a77078", "operator": "United States Postal Service", "operator:short": "USPS", "operator:type": "public", "operator:wikidata": "Q668687", "ref": "0822600014"}, "type": "Feature"}
{"dataset_attributes": {"@spider": "usps_collection_boxes", "spider:collection_time": "2023-09-25T08:26:09.915926"}, "geometry": {"coordinates": [-74.5864259, 39.276115], "type": "Point"}, "id": "XB28IvoVPsX309PKBG4JaJrqDLY=", "properties": {"@spider": "usps_collection_boxes", "addr:city": "OCEAN CITY", "addr:country": "US", "addr:full": "1340 BAY AVE", "addr:postcode": "08226", "addr:state": "NJ", "amenity": "post_box", "brand": "United States Postal Service", "brand:wikidata": "Q668687", "collection_times": "Mo-Sa 14:00", "name": "USPS COLLECTION BOX - BLUE BOX", "note": "ON 12/24 AND 12/31, THIS BOX MAY BE COLLECTED AS EARLY AS 12 NOON.", "nsi_id": "unitedstatespostalservice-a77078", "operator": "United States Postal Service", "operator:short": "USPS", "operator:type": "public", "operator:wikidata": "Q668687", "ref": "0822600016"}, "type": "Feature"}
{"dataset_attributes": {"@spider": "usps_collection_boxes", "spider:collection_time": "2023-09-25T08:26:09.915926"}, "geometry": {"coordinates": [-74.5748104, 39.279841], "type": "Point"}, "id": "XJ8OOi8_un_hl4lFruhjM0x4f_A=", "properties": {"@spider": "usps_collection_boxes", "addr:city": "OCEAN CITY", "addr:country": "US", "addr:full": "801 ASBURY AVE", "addr:postcode": "08226", "addr:state": "NJ", "amenity": "post_box", "brand": "United States Postal Service", "brand:wikidata": "Q668687", "collection_times": "Mo-Sa 12:30", "name": "USPS COLLECTION BOX - BLUE BOX", "note": "ON 12/24 AND 12/31, THIS BOX MAY BE COLLECTED AS EARLY AS 12 NOON.", "nsi_id": "unitedstatespostalservice-a77078", "operator": "United States Postal Service", "operator:short": "USPS", "operator:type": "public", "operator:wikidata": "Q668687", "ref": "0822600017"}, "type": "Feature"}
{"dataset_attributes": {"@spider": "usps_collection_boxes", "spider:collection_time": "2023-09-25T08:26:09.915926"}, "geometry": {"coordinates": [-74.5736388, 39.281095], "type": "Point"}, "id": "d04ETWsZeSyarHJCf2-IeLG4hxY=", "properties": {"@spider": "usps_collection_boxes", "addr:city": "OCEAN CITY", "addr:country": "US", "addr:full": "700 ASBURY AVE", "addr:postcode": "08226", "addr:state": "NJ", "amenity": "post_box", "brand": "United States Postal Service", "brand:wikidata": "Q668687", "collection_times": "Mo-Sa 11:00", "name": "USPS COLLECTION BOX - BLUE BOX", "nsi_id": "unitedstatespostalservice-a77078", "operator": "United States Postal Service", "operator:short": "USPS", "operator:type": "public", "operator:wikidata": "Q668687", "ref": "0822600018"}, "type": "Feature"}
{"dataset_attributes": {"@spider": "usps_collection_boxes", "spider:collection_time": "2023-09-25T08:26:09.915926"}, "geometry": {"coordinates": [-74.5777918, 39.277853], "type": "Point"}, "id": "mmtowuVWvQvsF6u7Dy2-yyNcaoA=", "properties": {"@spider": "usps_collection_boxes", "addr:city": "OCEAN CITY", "addr:country": "US", "addr:full": "960 ASBURY AVE", "addr:postcode": "08226", "addr:state": "NJ", "amenity": "post_box", "brand": "United States Postal Service", "brand:wikidata": "Q668687", "collection_times": "Mo-Sa 14:30", "name": "USPS COLLECTION BOX - BLUE BOX", "note": "ON 12/24 AND 12/31, THIS BOX MAY BE COLLECTED AS EARLY AS 12 NOON.", "nsi_id": "unitedstatespostalservice-a77078", "operator": "United States Postal Service", "operator:short": "USPS", "operator:type": "public", "operator:wikidata": "Q668687", "ref": "0822600019"}, "type": "Feature"}
{"dataset_attributes": {"@spider": "usps_collection_boxes", "spider:collection_time": "2023-09-25T08:26:09.915926"}, "geometry": {"coordinates": [-74.5759857, 39.278972], "type": "Point"}, "id": "DIo7jzlWBHMkb4Kof9UAzEbcXf4=", "properties": {"@spider": "usps_collection_boxes", "addr:city": "OCEAN CITY", "addr:country": "US", "addr:full": "859 ASBURY AVE", "addr:postcode": "08226", "addr:state": "NJ", "amenity": "post_box", "brand": "United States Postal Service", "brand:wikidata": "Q668687", "collection_times": "Mo-Fr 17:00; Sa 13:00", "name": "USPS COLLECTION BOX - BLUE BOX", "note": "ON 12/24 AND 12/31, THIS BOX MAY BE COLLECTED AS EARLY AS 12 NOON.", "nsi_id": "unitedstatespostalservice-a77078", "operator": "United States Postal Service", "operator:short": "USPS", "operator:type": "public", "operator:wikidata": "Q668687", "ref": "0822600020"}, "type": "Feature"}
{"dataset_attributes": {"@spider": "usps_collection_boxes", "spider:collection_time": "2023-09-25T08:26:09.915926"}, "geometry": {"coordinates": [-74.5835313, 39.273397], "type": "Point"}, "id": "hLt1QUSIKi3VObLb896Mf00kKfs=", "properties": {"@spider": "usps_collection_boxes", "addr:city": "OCEAN CITY", "addr:country": "US", "addr:full": "1401 ASBURY AVE", "addr:postcode": "08226", "addr:state": "NJ", "amenity": "post_box", "brand": "United States Postal Service", "brand:wikidata": "Q668687", "collection_times": "Mo-Sa 12:00", "name": "USPS COLLECTION BOX - BLUE BOX", "nsi_id": "unitedstatespostalservice-a77078", "operator": "United States Postal Service", "operator:short": "USPS", "operator:type": "public", "operator:wikidata": "Q668687", "ref": "0822600022"}, "type": "Feature"}
{"dataset_attributes": {"@spider": "usps_collection_boxes", "spider:collection_time": "2023-09-25T08:26:09.915926"}, "geometry": {"coordinates": [-74.5897604, 39.269902], "type": "Point"}, "id": "0Yyf1bGQsEL-VWtUD5ROEFY1js0=", "properties": {"@spider": "usps_collection_boxes", "addr:city": "OCEAN CITY", "addr:country": "US", "addr:full": "1759 WEST AVE", "addr:postcode": "08226", "addr:state": "NJ", "amenity": "post_box", "brand": "United States Postal Service", "brand:wikidata": "Q668687", "collection_times": "Mo-Sa 14:00", "name": "USPS COLLECTION BOX - BLUE BOX", "note": "ON 12/24 AND 12/31, THIS BOX MAY BE COLLECTED AS EARLY AS 12 NOON.", "nsi_id": "unitedstatespostalservice-a77078", "operator": "United States Postal Service", "operator:short": "USPS", "operator:type": "public", "operator:wikidata": "Q668687", "ref": "0822600024"}, "type": "Feature"}
{"dataset_attributes": {"@spider": "usps_collection_boxes", "spider:collection_time": "2023-09-25T08:26:09.915926"}, "geometry": {"coordinates": [-74.5876977, 39.272589], "type": "Point"}, "id": "sYtpIeXIUVnAqid4nanHN8Xy8jg=", "properties": {"@spider": "usps_collection_boxes", "addr:city": "OCEAN CITY", "addr:country": "US", "addr:full": "201 E 16TH ST", "addr:postcode": "08226", "addr:state": "NJ", "amenity": "post_box", "brand": "United States Postal Service", "brand:wikidata": "Q668687", "collection_times": "Mo-Sa 12:00", "name": "USPS COLLECTION BOX - BLUE BOX", "nsi_id": "unitedstatespostalservice-a77078", "operator": "United States Postal Service", "operator:short": "USPS", "operator:type": "public", "operator:wikidata": "Q668687", "ref": "0822600025"}, "type": "Feature"}
{"dataset_attributes": {"@spider": "usps_collection_boxes", "spider:collection_time": "2023-09-25T08:26:09.915926"}, "geometry": {"coordinates": [-74.6034052, 39.258432], "type": "Point"}, "id": "881xghav_saw5WJNKsfjGfp-MJs=", "properties": {"@spider": "usps_collection_boxes", "addr:city": "OCEAN CITY", "addr:country": "US", "addr:full": "2760 ASBURY AVE", "addr:postcode": "08226", "addr:state": "NJ", "amenity": "post_box", "brand": "United States Postal Service", "brand:wikidata": "Q668687", "collection_times": "Mo-Sa 12:00", "name": "USPS COLLECTION BOX - BLUE BOX", "nsi_id": "unitedstatespostalservice-a77078", "operator": "United States Postal Service", "operator:short": "USPS", "operator:type": "public", "operator:wikidata": "Q668687", "ref": "0822600026"}, "type": "Feature"}
{"dataset_attributes": {"@spider": "usps_collection_boxes", "spider:collection_time": "2023-09-25T08:26:09.915926"}, "geometry": {"coordinates": [-74.6254252, 39.237466], "type": "Point"}, "id": "zeAPt2xmWGKk9dTON5u2up70LeI=", "properties": {"@spider": "usps_collection_boxes", "addr:city": "OCEAN CITY", "addr:country": "US", "addr:full": "4520 WEST AVE", "addr:postcode": "08226", "addr:state": "NJ", "amenity": "post_box", "brand": "United States Postal Service", "brand:wikidata": "Q668687", "collection_times": "Mo-Sa 12:30", "name": "USPS COLLECTION BOX - BLUE BOX", "note": "ON 12/24 AND 12/31, THIS BOX MAY BE COLLECTED AS EARLY AS 12 NOON.", "nsi_id": "unitedstatespostalservice-a77078", "operator": "United States Postal Service", "operator:short": "USPS", "operator:type": "public", "operator:wikidata": "Q668687", "ref": "0822600031"}, "type": "Feature"}
{"dataset_attributes": {"@spider": "usps_collection_boxes", "spider:collection_time": "2023-09-25T08:26:09.915926"}, "geometry": {"coordinates": [-74.5688675, 39.279608], "type": "Point"}, "id": "P7jPxKJLQbOf99bVro8faGQRYpY=", "properties": {"@spider": "usps_collection_boxes", "addr:city": "OCEAN CITY", "addr:country": "US", "addr:full": "601 ATLANTIC AVE", "addr:postcode": "08226", "addr:state": "NJ", "amenity": "post_box", "brand": "United States Postal Service", "brand:wikidata": "Q668687", "collection_times": "Mo-Sa 10:00", "name": "USPS COLLECTION BOX - BLUE BOX", "nsi_id": "unitedstatespostalservice-a77078", "operator": "United States Postal Service", "operator:short": "USPS", "operator:type": "public", "operator:wikidata": "Q668687", "ref": "0822600039"}, "type": "Feature"}
{"dataset_attributes": {"@spider": "usps_collection_boxes", "spider:collection_time": "2023-09-25T08:26:09.915926"}, "geometry": {"coordinates": [-74.6104299, 39.250697], "type": "Point"}, "id": "GeLwC-fAAqZQSypJgCF78flhtNU=", "properties": {"@spider": "usps_collection_boxes", "addr:city": "OCEAN CITY", "addr:country": "US", "addr:full": "3400 CENTRAL AVE", "addr:postcode": "08226", "addr:state": "NJ", "amenity": "post_box", "brand": "United States Postal Service", "brand:wikidata": "Q668687", "collection_times": "Mo-Sa 12:00", "name": "USPS COLLECTION BOX - BLUE BOX", "nsi_id": "unitedstatespostalservice-a77078", "operator": "United States Postal Service", "operator:short": "USPS", "operator:type": "public", "operator:wikidata": "Q668687", "ref": "0822600043"}, "type": "Feature"}
{"dataset_attributes": {"@spider": "usps_collection_boxes", "spider:collection_time": "2023-09-25T08:26:09.915926"}, "geometry": {"coordinates": [-74.6137735, 39.252667], "type": "Point"}, "id": "C3HM37g2nDQaWi3A54sKa4Z9INw=", "properties": {"@spider": "usps_collection_boxes", "addr:city": "OCEAN CITY", "addr:country": "US", "addr:full": "3400 SIMPSON AVE", "addr:postcode": "08226", "addr:state": "NJ", "amenity": "post_box", "brand": "United States Postal Service", "brand:wikidata": "Q668687", "collection_times": "Mo-Sa 10:00", "name": "USPS COLLECTION BOX - BLUE BOX", "nsi_id": "unitedstatespostalservice-a77078", "operator": "United States Postal Service", "operator:short": "USPS", "operator:type": "public", "operator:wikidata": "Q668687", "ref": "0822600046"}, "type": "Feature"}
{"dataset_attributes": {"@spider": "usps_collection_boxes", "spider:collection_time": "2023-09-25T08:26:09.915926"}, "geometry": {"coordinates": [-74.5793123, 39.274503], "type": "Point"}, "id": "vfUCZYB9t7qqNOyzDWFk-BxjefE=", "properties": {"@spider": "usps_collection_boxes", "addr:city": "OCEAN CITY", "addr:country": "US", "addr:full": "1200 WESLEY AVE", "addr:postcode": "08226", "addr:state": "NJ", "amenity": "post_box", "brand": "United States Postal Service", "brand:wikidata": "Q668687", "collection_times": "Mo-Sa 10:00", "name": "USPS COLLECTION BOX - BLUE BOX", "nsi_id": "unitedstatespostalservice-a77078", "operator": "United States Postal Service", "operator:short": "USPS", "operator:type": "public", "operator:wikidata": "Q668687", "ref": "0822600048"}, "type": "Feature"}
{"dataset_attributes": {"@spider": "usps_collection_boxes", "spider:collection_time": "2023-09-25T08:26:09.915926"}, "geometry": {"coordinates": [-74.5618154, 39.285236], "type": "Point"}, "id": "k1h9dMAu8lgb3toE7AxnossGgqw=", "properties": {"@spider": "usps_collection_boxes", "addr:city": "OCEAN CITY", "addr:country": "US", "addr:full": "59 ATLANTIC AVE", "addr:postcode": "08226", "addr:state": "NJ", "amenity": "post_box", "brand": "United States Postal Service", "brand:wikidata": "Q668687", "collection_times": "Mo-Sa 10:00", "name": "USPS COLLECTION BOX - BLUE BOX", "nsi_id": "unitedstatespostalservice-a77078", "operator": "United States Postal Service", "operator:short": "USPS", "operator:type": "public", "operator:wikidata": "Q668687", "ref": "0822600052"}, "type": "Feature"}
{"dataset_attributes": {"@spider": "usps_collection_boxes", "spider:collection_time": "2023-09-25T08:26:09.915926"}, "geometry": {"coordinates": [-74.5735708, 39.277221], "type": "Point"}, "id": "TbhWAf9OwhMZfA13Npa_XZkRBYg=", "properties": {"@spider": "usps_collection_boxes", "addr:city": "OCEAN CITY", "addr:country": "US", "addr:full": "859 OCEAN AVE", "addr:postcode": "08226", "addr:state": "NJ", "amenity": "post_box", "brand": "United States Postal Service", "brand:wikidata": "Q668687", "collection_times": "Mo-Fr 17:00; Sa 15:15", "name": "USPS COLLECTION BOX - BLUE BOX", "note": "ON 12/24 AND 12/31, THIS BOX MAY BE COLLECTED AS EARLY AS 12 NOON.", "nsi_id": "unitedstatespostalservice-a77078", "operator": "United States Postal Service", "operator:short": "USPS", "operator:type": "public", "operator:wikidata": "Q668687", "ref": "0822600054"}, "type": "Feature"}
{"dataset_attributes": {"@spider": "usps_collection_boxes", "spider:collection_time": "2023-09-25T08:26:09.915926"}, "geometry": {"coordinates": [-74.5735689, 39.277215], "type": "Point"}, "id": "lS_VaspSY3sqsqATeQ-LzfKDj6k=", "properties": {"@spider": "usps_collection_boxes", "addr:city": "OCEAN CITY", "addr:country": "US", "addr:full": "859 OCEAN AVE", "addr:postcode": "08226", "addr:state": "NJ", "amenity": "post_box", "brand": "United States Postal Service", "brand:wikidata": "Q668687", "collection_times": "Mo-Fr 17:00; Sa 15:15", "name": "USPS COLLECTION BOX - BLUE BOX", "note": "ON 12/24 AND 12/31, THIS BOX MAY BE COLLECTED AS EARLY AS 12 NOON.", "nsi_id": "unitedstatespostalservice-a77078", "operator": "United States Postal Service", "operator:short": "USPS", "operator:type": "public", "operator:wikidata": "Q668687", "ref": "0822600055"}, "type": "Feature"}
{"dataset_attributes": {"@spider": "usps_collection_boxes", "spider:collection_time": "2023-09-25T08:26:09.915926"}, "geometry": {"coordinates": [-74.5935919, 39.270886], "type": "Point"}, "id": "kUKbLf_NsUw78NlApHKpt6VV2Cg=", "properties": {"@spider": "usps_collection_boxes", "addr:city": "OCEAN CITY", "addr:country": "US", "addr:full": "1818 BAY AVE", "addr:postcode": "08226", "addr:state": "NJ", "amenity": "post_box", "brand": "United States Postal Service", "brand:wikidata": "Q668687", "collection_times": "Mo-Sa 13:30", "name": "USPS COLLECTION BOX - BLUE BOX", "note": "ON 12/24 AND 12/31, THIS BOX MAY BE COLLECTED AS EARLY AS 12 NOON.", "nsi_id": "unitedstatespostalservice-a77078", "operator": "United States Postal Service", "operator:short": "USPS", "operator:type": "public", "operator:wikidata": "Q668687", "ref": "0822600056"}, "type": "Feature"}
{"dataset_attributes": {"@spider": "usps_collection_boxes", "spider:collection_time": "2023-09-25T08:26:09.915926"}, "geometry": {"coordinates": [-74.6189949, 39.244073], "type": "Point"}, "id": "ddrOhhvvNeIyy5E-i-I1_lMkEV4=", "properties": {"@spider": "usps_collection_boxes", "addr:city": "OCEAN CITY", "addr:country": "US", "addr:full": "4001 WEST AVE", "addr:postcode": "08226", "addr:state": "NJ", "amenity": "post_box", "brand": "United States Postal Service", "brand:wikidata": "Q668687", "collection_times": "Mo-Sa 10:00", "name": "USPS COLLECTION BOX - BLUE BOX", "nsi_id": "unitedstatespostalservice-a77078", "operator": "United States Postal Service", "operator:short": "USPS", "operator:type": "public", "operator:wikidata": "Q668687", "ref": "0822600060"}, "type": "Feature"}
{"dataset_attributes": {"@spider": "usps_collection_boxes", "spider:collection_time": "2023-09-25T08:26:09.915926"}, "geometry": {"coordinates": [-74.6358684, 39.225038], "type": "Point"}, "id": "9DmzwbhEeNwfSzU3tLPY5CgNO2c=", "properties": {"@spider": "usps_collection_boxes", "addr:city": "OCEAN CITY", "addr:country": "US", "addr:full": "5501 WEST AVE", "addr:postcode": "08226", "addr:state": "NJ", "amenity": "post_box", "brand": "United States Postal Service", "brand:wikidata": "Q668687", "collection_times": "Mo-Sa 10:00", "name": "USPS COLLECTION BOX - BLUE BOX", "nsi_id": "unitedstatespostalservice-a77078", "operator": "United States Postal Service", "operator:short": "USPS", "operator:type": "public", "operator:wikidata": "Q668687", "ref": "0822600062"}, "type": "Feature"}
{"dataset_attributes": {"@spider": "usps_collection_boxes", "spider:collection_time": "2023-09-25T08:26:09.915926"}, "geometry": {"coordinates": [-74.6055682, 39.257772], "type": "Point"}, "id": "QukBgD3D2gxc9KaAsf1JFe0BS8s=", "properties": {"@spider": "usps_collection_boxes", "addr:city": "OCEAN CITY", "addr:country": "US", "addr:full": "2860 WEST AVE", "addr:postcode": "08226", "addr:state": "NJ", "amenity": "post_box", "brand": "United States Postal Service", "brand:wikidata": "Q668687", "collection_times": "Mo-Sa 12:00", "name": "USPS COLLECTION BOX - BLUE BOX", "nsi_id": "unitedstatespostalservice-a77078", "operator": "United States Postal Service", "operator:short": "USPS", "operator:type": "public", "operator:wikidata": "Q668687", "ref": "0822600065"}, "type": "Feature"}
{"dataset_attributes": {"@spider": "usps_collection_boxes", "spider:collection_time": "2023-09-25T08:26:09.915926"}, "geometry": {"coordinates": [-74.5735629, 39.277214], "type": "Point"}, "id": "_CbIxszkdxFVzREYKErPHtjR7Eo=", "properties": {"@spider": "usps_collection_boxes", "addr:city": "OCEAN CITY", "addr:country": "US", "addr:full": "859 OCEAN AVE", "addr:postcode": "08226", "addr:state": "NJ", "amenity": "post_box", "brand": "United States Postal Service", "brand:wikidata": "Q668687", "collection_times": "Mo-Fr 17:00; Sa 15:15", "name": "USPS COLLECTION BOX - BLUE BOX", "note": "ON 12/24 AND 12/31, THIS BOX MAY BE COLLECTED AS EARLY AS 12 NOON.", "nsi_id": "unitedstatespostalservice-a77078", "operator": "United States Postal Service", "operator:short": "USPS", "operator:type": "public", "operator:wikidata": "Q668687", "ref": "0822600068"}, "type": "Feature"}
{"dataset_attributes": {"@spider": "usps_collection_boxes", "spider:collection_time": "2023-09-25T08:26:09.915926"}, "geometry": {"coordinates": [-74.5734712, 39.277096], "type": "Point"}, "id": "7XZt1FmnHlH80W9L-0RUp0QjG_o=", "properties": {"@spider": "usps_collection_boxes", "addr:city": "OCEAN CITY", "addr:country": "US", "addr:full": "859 OCEAN AVE", "addr:postcode": "08226", "addr:state": "NJ", "amenity": "post_box", "brand": "United States Postal Service", "brand:wikidata": "Q668687", "collection_times": "Mo-Fr 17:00; Sa 15:15", "name": "USPS COLLECTION BOX - PO LOBBY", "note": "ON 12/24 AND 12/31, THIS BOX MAY BE COLLECTED AS EARLY AS 12 NOON.", "nsi_id": "unitedstatespostalservice-a77078", "operator": "United States Postal Service", "operator:short": "USPS", "operator:type": "public", "operator:wikidata": "Q668687", "ref": "0822600069"}, "type": "Feature"}
{"dataset_attributes": {"@spider": "usps_collection_boxes", "spider:collection_time": "2023-09-25T08:26:09.915926"}, "geometry": {"coordinates": [-74.5730814, 39.282654], "type": "Point"}, "id": "16iOwbbqWV5Mr0CRQLsPJoXSY_A=", "properties": {"@spider": "usps_collection_boxes", "addr:city": "OCEAN CITY", "addr:country": "US", "addr:full": "600 WEST AVE", "addr:postcode": "08226", "addr:state": "NJ", "amenity": "post_box", "brand": "United States Postal Service", "brand:wikidata": "Q668687", "collection_times": "Mo-Sa 08:45", "name": "USPS COLLECTION BOX - BLUE BOX", "nsi_id": "unitedstatespostalservice-a77078", "operator": "United States Postal Service", "operator:short": "USPS", "operator:type": "public", "operator:wikidata": "Q668687", "ref": "0822600070"}, "type": "Feature"}
{"dataset_attributes": {"@spider": "usps_collection_boxes", "spider:collection_time": "2023-09-25T08:26:09.915926"}, "geometry": {"coordinates": [-74.575962, 39.27897], "type": "Point"}, "id": "qElCSoz29qdXedV0GrCx39HEtAA=", "properties": {"@spider": "usps_collection_boxes", "addr:city": "OCEAN CITY", "addr:country": "US", "addr:full": "859 ASBURY AVE", "addr:postcode": "08226", "addr:state": "NJ", "amenity": "post_box", "brand": "United States Postal Service", "brand:wikidata": "Q668687", "collection_times": "Mo-Fr 17:00; Sa 13:00", "name": "USPS COLLECTION BOX - BLUE BOX", "note": "ON 12/24 AND 12/31, THIS BOX MAY BE COLLECTED AS EARLY AS 12 NOON.", "nsi_id": "unitedstatespostalservice-a77078", "operator": "United States Postal Service", "operator:short": "USPS", "operator:type": "public", "operator:wikidata": "Q668687", "ref": "0822600074"}, "type": "Feature"}
{"dataset_attributes": {"@spider": "usps_collection_boxes", "spider:collection_time": "2023-09-25T08:26:09.915926"}, "geometry": {"coordinates": [-74.5619005, 39.293031], "type": "Point"}, "id": "lpPY1AhIv2FpO3RQkcbqAWNAUaM=", "properties": {"@spider": "usps_collection_boxes", "addr:city": "OCEAN CITY", "addr:country": "US", "addr:full": "200 W ATLANTIC BLVD", "addr:postcode": "08226", "addr:state": "NJ", "amenity": "post_box", "brand": "United States Postal Service", "brand:wikidata": "Q668687", "collection_times": "Mo-Sa 14:30", "name": "USPS COLLECTION BOX - BLUE BOX", "note": "ON 12/24 AND 12/31, THIS BOX MAY BE COLLECTED AS EARLY AS 12 NOON.", "nsi_id": "unitedstatespostalservice-a77078", "operator": "United States Postal Service", "operator:short": "USPS", "operator:type": "public", "operator:wikidata": "Q668687", "ref": "0822600076"}, "type": "Feature"}
{"dataset_attributes": {"@spider": "usps_collection_boxes", "spider:collection_time": "2023-09-25T08:26:09.915926"}, "geometry": {"coordinates": [-74.573581932, 39.277302497], "type": "Point"}, "id": "JdAqIWcfI0xpqXgsvXn-B6-6uiM=", "properties": {"@spider": "usps_collection_boxes", "addr:city": "OCEAN CITY", "addr:country": "US", "addr:full": "859 OCEAN AVE", "addr:postcode": "08226", "addr:state": "NJ", "amenity": "post_box", "brand": "United States Postal Service", "brand:wikidata": "Q668687", "collection_times": "Mo-Fr 17:00; Sa 13:00", "name": "USPS COLLECTION BOX - PO LOBBY", "note": "ON 12/24 AND 12/31, THIS BOX MAY BE COLLECTED AS EARLY AS 12 NOON.", "nsi_id": "unitedstatespostalservice-a77078", "operator": "United States Postal Service", "operator:short": "USPS", "operator:type": "public", "operator:wikidata": "Q668687", "ref": "0822600081"}, "type": "Feature"}
{"dataset_attributes": {"@spider": "usps_collection_boxes", "spider:collection_time": "2023-09-25T08:26:09.915926"}, "geometry": {"coordinates": [-74.702828, 39.208502], "type": "Point"}, "id": "pZDRmybHgXKUHzNcIkWyknO09Ec=", "properties": {"@spider": "usps_collection_boxes", "addr:city": "OCEAN VIEW", "addr:country": "US", "addr:full": "2087 ROUTE 9", "addr:postcode": "08230", "addr:state": "NJ", "amenity": "post_box", "brand": "United States Postal Service", "brand:wikidata": "Q668687", "collection_times": "Mo-Sa 09:30", "name": "USPS COLLECTION BOX - BLUE BOX", "nsi_id": "unitedstatespostalservice-a77078", "operator": "United States Postal Service", "operator:short": "USPS", "operator:type": "public", "operator:wikidata": "Q668687", "ref": "0823000002"}, "type": "Feature"}
{"dataset_attributes": {"@spider": "usps_collection_boxes", "spider:collection_time": "2023-09-25T08:26:09.915926"}, "geometry": {"coordinates": [-74.6867749973, 39.2278847316], "type": "Point"}, "id": "wYU-aEfbGwu9c-300OgZdBoNeSE=", "properties": {"@spider": "usps_collection_boxes", "addr:city": "OCEAN VIEW", "addr:country": "US", "addr:full": "1621 ROUTE 9", "addr:postcode": "08230", "addr:state": "NJ", "amenity": "post_box", "brand": "United States Postal Service", "brand:wikidata": "Q668687", "collection_times": "Mo-Sa 09:00", "name": "USPS COLLECTION BOX - BLUE BOX", "nsi_id": "unitedstatespostalservice-a77078", "operator": "United States Postal Service", "operator:short": "USPS", "operator:type": "public", "operator:wikidata": "Q668687", "ref": "0823000003"}, "type": "Feature"}
{"dataset_attributes": {"@spider": "usps_collection_boxes", "spider:collection_time": "2023-09-25T08:26:09.915926"}, "geometry": {"coordinates": [-74.731268, 39.174082], "type": "Point"}, "id": "8K8DmkoKK0hNe0uNnB-KYgAslmM=", "properties": {"@spider": "usps_collection_boxes", "addr:city": "OCEAN VIEW", "addr:country": "US", "addr:full": "556 SEA ISLE BLVD UNIT A6", "addr:postcode": "08230", "addr:state": "NJ", "amenity": "post_box", "brand": "United States Postal Service", "brand:wikidata": "Q668687", "collection_times": "Mo-Fr 17:00; Sa 12:30", "name": "USPS COLLECTION BOX - BLUE BOX", "note": "ON 12/24 AND 12/31, THIS BOX MAY BE COLLECTED AS EARLY AS 12 NOON.", "nsi_id": "unitedstatespostalservice-a77078", "operator": "United States Postal Service", "operator:short": "USPS", "operator:type": "public", "operator:wikidata": "Q668687", "ref": "0823000005"}, "type": "Feature"}
{"dataset_attributes": {"@spider": "usps_collection_boxes", "spider:collection_time": "2023-09-25T08:26:09.915926"}, "geometry": {"coordinates": [-74.731268, 39.174082], "type": "Point"}, "id": "or9qJk0pbcJV2URgGqVUBOcdcDU=", "properties": {"@spider": "usps_collection_boxes", "addr:city": "OCEAN VIEW", "addr:country": "US", "addr:full": "556 SEA ISLE BLVD UNIT A6", "addr:postcode": "08230", "addr:state": "NJ", "amenity": "post_box", "brand": "United States Postal Service", "brand:wikidata": "Q668687", "collection_times": "Mo-Fr 17:00; Sa 12:30", "name": "USPS COLLECTION BOX - PO LOBBY", "note": "ON 12/24 AND 12/31, THIS BOX MAY BE COLLECTED AS EARLY AS 12 NOON.", "nsi_id": "unitedstatespostalservice-a77078", "operator": "United States Postal Service", "operator:short": "USPS", "operator:type": "public", "operator:wikidata": "Q668687", "ref": "0823000007"}, "type": "Feature"}
{"dataset_attributes": {"@spider": "usps_collection_boxes", "spider:collection_time": "2023-09-25T08:26:09.915926"}, "geometry": {"coordinates": [-74.731748433, 39.174574494], "type": "Point"}, "id": "BLJE2qDMy01ZbzkSV6iZzKJ7eAc=", "properties": {"@spider": "usps_collection_boxes", "addr:city": "OCEAN VIEW", "addr:country": "US", "addr:full": "556 SEA ISLE BLVD UNIT H", "addr:postcode": "08230", "addr:state": "NJ", "amenity": "post_box", "brand": "United States Postal Service", "brand:wikidata": "Q668687", "collection_times": "Mo-Fr 17:00; Sa 12:30", "name": "USPS COLLECTION BOX - PO LOBBY", "note": "ON 12/24 AND 12/31, THIS BOX MAY BE COLLECTED AS EARLY AS 12 NOON.", "nsi_id": "unitedstatespostalservice-a77078", "operator": "United States Postal Service", "operator:short": "USPS", "operator:type": "public", "operator:wikidata": "Q668687", "ref": "0823000012"}, "type": "Feature"}
{"dataset_attributes": {"@spider": "usps_collection_boxes", "spider:collection_time": "2023-09-25T08:26:09.915926"}, "geometry": {"coordinates": [-74.459804, 39.472713], "type": "Point"}, "id": "GBp-J82UZF66FPDZ6Ia1lPjgqbg=", "properties": {"@spider": "usps_collection_boxes", "addr:city": "OCEANVILLE", "addr:country": "US", "addr:full": "174 S NEW YORK AVE", "addr:postcode": "08231", "addr:state": "NJ", "amenity": "post_box", "brand": "United States Postal Service", "brand:wikidata": "Q668687", "collection_times": "Mo-Fr 17:00; Sa 12:00", "name": "USPS COLLECTION BOX - BLUE BOX", "note": "ON 12/24 AND 12/31, THIS BOX MAY BE COLLECTED AS EARLY AS 12 NOON.", "nsi_id": "unitedstatespostalservice-a77078", "operator": "United States Postal Service", "operator:short": "USPS", "operator:type": "public", "operator:wikidata": "Q668687", "ref": "0823100001"}, "type": "Feature"}
{"dataset_attributes": {"@spider": "usps_collection_boxes", "spider:collection_time": "2023-09-25T08:26:09.915926"}, "geometry": {"coordinates": [-74.459804, 39.472713], "type": "Point"}, "id": "8DRvLHdtG-bokz9EesYjbNW8F-c=", "properties": {"@spider": "usps_collection_boxes", "addr:city": "OCEANVILLE", "addr:country": "US", "addr:full": "174 S NEW YORK AVE", "addr:postcode": "08231", "addr:state": "NJ", "amenity": "post_box", "brand": "United States Postal Service", "brand:wikidata": "Q668687", "collection_times": "Mo-Fr 17:00; Sa 12:00", "name": "USPS COLLECTION BOX - PO LOBBY", "note": "ON 12/24 AND 12/31, THIS BOX MAY BE COLLECTED AS EARLY AS 12 NOON.", "nsi_id": "unitedstatespostalservice-a77078", "operator": "United States Postal Service", "operator:short": "USPS", "operator:type": "public", "operator:wikidata": "Q668687", "ref": "0823100002"}, "type": "Feature"}
{"dataset_attributes": {"@spider": "usps_collection_boxes", "spider:collection_time": "2023-09-25T08:26:09.915926"}, "geometry": {"coordinates": [-74.427091068, 39.35815632], "type": "Point"}, "id": "fjZAI4ZxgqyW58yHfG89Eb3Ujvc=", "properties": {"@spider": "usps_collection_boxes", "addr:city": "OCEANVILLE", "addr:country": "US", "addr:full": "174 S NEW YORK AVE", "addr:postcode": "08231", "addr:state": "NJ", "amenity": "post_box", "brand": "United States Postal Service", "brand:wikidata": "Q668687", "collection_times": "Mo-Fr 17:00; Sa 12:00", "name": "USPS COLLECTION BOX - PO LOBBY", "note": "ON 12/24 AND 12/31, THIS BOX MAY BE COLLECTED AS EARLY AS 12 NOON.", "nsi_id": "unitedstatespostalservice-a77078", "operator": "United States Postal Service", "operator:short": "USPS", "operator:type": "public", "operator:wikidata": "Q668687", "ref": "0823100005"}, "type": "Feature"}
{"dataset_attributes": {"@spider": "usps_collection_boxes", "spider:collection_time": "2023-09-25T08:26:09.915926"}, "geometry": {"coordinates": [-74.5219546, 39.387179], "type": "Point"}, "id": "Ti3c2Olmmx7q8K3_BUdYDXtkFGs=", "properties": {"@spider": "usps_collection_boxes", "addr:city": "PLEASANTVILLE", "addr:country": "US", "addr:full": "345 N FRANKLIN BLVD", "addr:postcode": "08232", "addr:state": "NJ", "amenity": "post_box", "brand": "United States Postal Service", "brand:wikidata": "Q668687", "collection_times": "Mo-Fr 15:00; Sa 14:00", "name": "USPS COLLECTION BOX - BLUE BOX", "note": "ON 12/24 AND 12/31, THIS BOX MAY BE COLLECTED AS EARLY AS 12 NOON.", "nsi_id": "unitedstatespostalservice-a77078", "operator": "United States Postal Service", "operator:short": "USPS", "operator:type": "public", "operator:wikidata": "Q668687", "ref": "0823200015"}, "type": "Feature"}
{"dataset_attributes": {"@spider": "usps_collection_boxes", "spider:collection_time": "2023-09-25T08:26:09.915926"}, "geometry": {"coordinates": [-74.5306031, 39.382605], "type": "Point"}, "id": "GMgdDh9LFcd-ll8TtP4BZf8aEhU=", "properties": {"@spider": "usps_collection_boxes", "addr:city": "PLEASANTVILLE", "addr:country": "US", "addr:full": "932 S MAIN ST", "addr:postcode": "08232", "addr:state": "NJ", "amenity": "post_box", "brand": "United States Postal Service", "brand:wikidata": "Q668687", "collection_times": "Mo-Sa 09:30", "name": "USPS COLLECTION BOX - BLUE BOX", "nsi_id": "unitedstatespostalservice-a77078", "operator": "United States Postal Service", "operator:short": "USPS", "operator:type": "public", "operator:wikidata": "Q668687", "ref": "0823200016"}, "type": "Feature"}
{"dataset_attributes": {"@spider": "usps_collection_boxes", "spider:collection_time": "2023-09-25T08:26:09.915926"}, "geometry": {"coordinates": [-74.5253819, 39.391286], "type": "Point"}, "id": "no1b2aQ5BGlvSOElI8V1li7ur5c=", "properties": {"@spider": "usps_collection_boxes", "addr:city": "PLEASANTVILLE", "addr:country": "US", "addr:full": "50 W BLACK HORSE PIKE", "addr:postcode": "08232", "addr:state": "NJ", "amenity": "post_box", "brand": "United States Postal Service", "brand:wikidata": "Q668687", "collection_times": "Mo-Fr 15:30; Sa 14:15", "name": "USPS COLLECTION BOX - BLUE BOX", "note": "ON 12/24 AND 12/31, THIS BOX MAY BE COLLECTED AS EARLY AS 12 NOON.", "nsi_id": "unitedstatespostalservice-a77078", "operator": "United States Postal Service", "operator:short": "USPS", "operator:type": "public", "operator:wikidata": "Q668687", "ref": "0823200039"}, "type": "Feature"}
{"dataset_attributes": {"@spider": "usps_collection_boxes", "spider:collection_time": "2023-09-25T08:26:09.915926"}, "geometry": {"coordinates": [-74.4926784, 39.377267], "type": "Point"}, "id": "VJTRQs9spDgnFhHTN_E5VzPlv_4=", "properties": {"@spider": "usps_collection_boxes", "addr:city": "PLEASANTVILLE", "addr:country": "US", "addr:full": "8025 BLACK HORSE PIKE", "addr:postcode": "08232", "addr:state": "NJ", "amenity": "post_box", "brand": "United States Postal Service", "brand:wikidata": "Q668687", "collection_times": "Mo-Fr 15:15", "name": "USPS COLLECTION BOX - BLUE BOX", "note": "ON 12/24 AND 12/31, THIS BOX MAY BE COLLECTED AS EARLY AS 12 NOON.", "nsi_id": "unitedstatespostalservice-a77078", "operator": "United States Postal Service", "operator:short": "USPS", "operator:type": "public", "operator:wikidata": "Q668687", "ref": "0823200045"}, "type": "Feature"}
{"dataset_attributes": {"@spider": "usps_collection_boxes", "spider:collection_time": "2023-09-25T08:26:09.915926"}, "geometry": {"coordinates": [-74.5381999, 39.393711], "type": "Point"}, "id": "pzL33VpOAUvO1CwNVtKuxA2ADSc=", "properties": {"@spider": "usps_collection_boxes", "addr:city": "PLEASANTVILLE", "addr:country": "US", "addr:full": "752 BLACK HORSE PIKE", "addr:postcode": "08232", "addr:state": "NJ", "amenity": "post_box", "brand": "United States Postal Service", "brand:wikidata": "Q668687", "collection_times": "Mo-Fr 17:15; Sa 14:15", "name": "USPS COLLECTION BOX - BLUE BOX", "note": "ON 12/24 AND 12/31, THIS BOX MAY BE COLLECTED AS EARLY AS 12 NOON.", "nsi_id": "unitedstatespostalservice-a77078", "operator": "United States Postal Service", "operator:short": "USPS", "operator:type": "public", "operator:wikidata": "Q668687", "ref": "0823200046"}, "type": "Feature"}
{"dataset_attributes": {"@spider": "usps_collection_boxes", "spider:collection_time": "2023-09-25T08:26:09.915926"}, "geometry": {"coordinates": [-74.5381936, 39.393705], "type": "Point"}, "id": "GPcRBrFclCQIC6u2amlRThH53_8=", "properties": {"@spider": "usps_collection_boxes", "addr:city": "PLEASANTVILLE", "addr:country": "US", "addr:full": "752 BLACK HORSE PIKE", "addr:postcode": "08232", "addr:state": "NJ", "amenity": "post_box", "brand": "United States Postal Service", "brand:wikidata": "Q668687", "collection_times": "Mo-Fr 17:15; Sa 14:15", "name": "USPS COLLECTION BOX - BLUE BOX", "note": "ON 12/24 AND 12/31, THIS BOX MAY BE COLLECTED AS EARLY AS 12 NOON.", "nsi_id": "unitedstatespostalservice-a77078", "operator": "United States Postal Service", "operator:short": "USPS", "operator:type": "public", "operator:wikidata": "Q668687", "ref": "0823200047"}, "type": "Feature"}
{"dataset_attributes": {"@spider": "usps_collection_boxes", "spider:collection_time": "2023-09-25T08:26:09.915926"}, "geometry": {"coordinates": [-74.5382765, 39.394494], "type": "Point"}, "id": "V1zKXBuYJO0Xab-_JO9lZBi9jY4=", "properties": {"@spider": "usps_collection_boxes", "addr:city": "PLEASANTVILLE", "addr:country": "US", "addr:full": "752 BLACK HORSE PIKE", "addr:postcode": "08232", "addr:state": "NJ", "amenity": "post_box", "brand": "United States Postal Service", "brand:wikidata": "Q668687", "collection_times": "Mo-Fr 17:30; Sa 14:15", "name": "USPS COLLECTION BOX - PO LOBBY", "note": "ON 12/24 AND 12/31, THIS BOX MAY BE COLLECTED AS EARLY AS 12 NOON.", "nsi_id": "unitedstatespostalservice-a77078", "operator": "United States Postal Service", "operator:short": "USPS", "operator:type": "public", "operator:wikidata": "Q668687", "ref": "0823200049"}, "type": "Feature"}
{"dataset_attributes": {"@spider": "usps_collection_boxes", "spider:collection_time": "2023-09-25T08:26:09.915926"}, "geometry": {"coordinates": [-74.5382895, 39.394498], "type": "Point"}, "id": "KuEH2LeSrzpfwrMm_Sij-og4qJY=", "properties": {"@spider": "usps_collection_boxes", "addr:city": "PLEASANTVILLE", "addr:country": "US", "addr:full": "752 BLACK HORSE PIKE", "addr:postcode": "08232", "addr:state": "NJ", "amenity": "post_box", "brand": "United States Postal Service", "brand:wikidata": "Q668687", "collection_times": "Mo-Fr 17:30; Sa 14:15", "name": "USPS COLLECTION BOX - PO LOBBY", "note": "ON 12/24 AND 12/31, THIS BOX MAY BE COLLECTED AS EARLY AS 12 NOON.", "nsi_id": "unitedstatespostalservice-a77078", "operator": "United States Postal Service", "operator:short": "USPS", "operator:type": "public", "operator:wikidata": "Q668687", "ref": "0823200050"}, "type": "Feature"}
{"dataset_attributes": {"@spider": "usps_collection_boxes", "spider:collection_time": "2023-09-25T08:26:09.915926"}, "geometry": {"coordinates": [-74.537338144, 39.393453585], "type": "Point"}, "id": "oNgfM4y_gT8zqT-hqmy-Hm6DH3E=", "properties": {"@spider": "usps_collection_boxes", "addr:city": "PLEASANTVILLE", "addr:country": "US", "addr:full": "752 BLACK HORSE PIKE", "addr:postcode": "08232", "addr:state": "NJ", "amenity": "post_box", "brand": "United States Postal Service", "brand:wikidata": "Q668687", "collection_times": "Mo-Fr 17:30; Sa 13:00", "name": "USPS COLLECTION BOX - PO LOBBY", "note": "ON 12/24 AND 12/31, THIS BOX MAY BE COLLECTED AS EARLY AS 12 NOON.", "nsi_id": "unitedstatespostalservice-a77078", "operator": "United States Postal Service", "operator:short": "USPS", "operator:type": "public", "operator:wikidata": "Q668687", "ref": "0823200089"}, "type": "Feature"}
{"dataset_attributes": {"@spider": "usps_collection_boxes", "spider:collection_time": "2023-09-25T08:26:09.915926"}, "geometry": {"coordinates": [-74.5610663, 39.390363], "type": "Point"}, "id": "Hg00ceMNv8uA-jFtvxPHx9SXMCE=", "properties": {"@spider": "usps_collection_boxes", "addr:city": "EGG HARBOR TWP", "addr:country": "US", "addr:full": "3116 HINGSTON AVE", "addr:postcode": "08234", "addr:state": "NJ", "amenity": "post_box", "brand": "United States Postal Service", "brand:wikidata": "Q668687", "collection_times": "Mo-Fr 14:45; Sa 13:30", "name": "USPS COLLECTION BOX - BLUE BOX", "note": "ON 12/24 AND 12/31, THIS BOX MAY BE COLLECTED AS EARLY AS 12 NOON.", "nsi_id": "unitedstatespostalservice-a77078", "operator": "United States Postal Service", "operator:short": "USPS", "operator:type": "public", "operator:wikidata": "Q668687", "ref": "0823400001"}, "type": "Feature"}
{"dataset_attributes": {"@spider": "usps_collection_boxes", "spider:collection_time": "2023-09-25T08:26:09.915926"}, "geometry": {"coordinates": [-74.5618366, 39.404376], "type": "Point"}, "id": "rkY_UXMtbm-9YPi7N1m1ig2RwaE=", "properties": {"@spider": "usps_collection_boxes", "addr:city": "EGG HARBOR TWP", "addr:country": "US", "addr:full": "6718 BLACK HORSE PIKE", "addr:postcode": "08234", "addr:state": "NJ", "amenity": "post_box", "brand": "United States Postal Service", "brand:wikidata": "Q668687", "collection_times": "Mo-Fr 14:45; Sa 13:00", "name": "USPS COLLECTION BOX - BLUE BOX", "note": "ON 12/24 AND 12/31, THIS BOX MAY BE COLLECTED AS EARLY AS 12 NOON.", "nsi_id": "unitedstatespostalservice-a77078", "operator": "United States Postal Service", "operator:short": "USPS", "operator:type": "public", "operator:wikidata": "Q668687", "ref": "0823400002"}, "type": "Feature"}
{"dataset_attributes": {"@spider": "usps_collection_boxes", "spider:collection_time": "2023-09-25T08:26:09.915926"}, "geometry": {"coordinates": [-74.5743827, 39.416788], "type": "Point"}, "id": "e04fSOcEI8dD86OCCg4pTCoW-54=", "properties": {"@spider": "usps_collection_boxes", "addr:city": "EGG HARBOR TWP", "addr:country": "US", "addr:full": "1 COUNTRY OAK LN", "addr:postcode": "08234", "addr:state": "NJ", "amenity": "post_box", "brand": "United States Postal Service", "brand:wikidata": "Q668687", "collection_times": "Mo-Sa 10:00", "name": "USPS COLLECTION BOX - BLUE BOX", "nsi_id": "unitedstatespostalservice-a77078", "operator": "United States Postal Service", "operator:short": "USPS", "operator:type": "public", "operator:wikidata": "Q668687", "ref": "0823400004"}, "type": "Feature"}
{"dataset_attributes": {"@spider": "usps_collection_boxes", "spider:collection_time": "2023-09-25T08:26:09.915926"}, "geometry": {"coordinates": [-74.6125041, 39.43302], "type": "Point"}, "id": "VWs_MDcj2y6xmDpVicK9Y0nRoqE=", "properties": {"@spider": "usps_collection_boxes", "addr:city": "EGG HARBOR TWP", "addr:country": "US", "addr:full": "3003 ENGLISH CREEK AVE", "addr:postcode": "08234", "addr:state": "NJ", "amenity": "post_box", "brand": "United States Postal Service", "brand:wikidata": "Q668687", "collection_times": "Mo-Sa 09:00", "name": "USPS COLLECTION BOX - BLUE BOX", "nsi_id": "unitedstatespostalservice-a77078", "operator": "United States Postal Service", "operator:short": "USPS", "operator:type": "public", "operator:wikidata": "Q668687", "ref": "0823400006"}, "type": "Feature"}
{"dataset_attributes": {"@spider": "usps_collection_boxes", "spider:collection_time": "2023-09-25T08:26:09.915926"}, "geometry": {"coordinates": [-74.5439294, 39.403882], "type": "Point"}, "id": "QQ9MvL8gm7fBfMUKvNcD9a3yusQ=", "properties": {"@spider": "usps_collection_boxes", "addr:city": "EGG HARBOR TWP", "addr:country": "US", "addr:full": "5 COLUMBUS AVE", "addr:postcode": "08234", "addr:state": "NJ", "amenity": "post_box", "brand": "United States Postal Service", "brand:wikidata": "Q668687", "collection_times": "Mo-Fr 17:30; Sa 14:30", "name": "USPS COLLECTION BOX - BLUE BOX", "note": "ON 12/24 AND 12/31, THIS BOX MAY BE COLLECTED AS EARLY AS 12 NOON.", "nsi_id": "unitedstatespostalservice-a77078", "operator": "United States Postal Service", "operator:short": "USPS", "operator:type": "public", "operator:wikidata": "Q668687", "ref": "0823400008"}, "type": "Feature"}
{"dataset_attributes": {"@spider": "usps_collection_boxes", "spider:collection_time": "2023-09-25T08:26:09.915926"}, "geometry": {"coordinates": [-74.6076181, 39.433761], "type": "Point"}, "id": "AbRIifQXLIA0GoI7DfI1OnBf3lQ=", "properties": {"@spider": "usps_collection_boxes", "addr:city": "EGG HARBOR TWP", "addr:country": "US", "addr:full": "6100 BLACK HORSE PIKE", "addr:postcode": "08234", "addr:state": "NJ", "amenity": "post_box", "brand": "United States Postal Service", "brand:wikidata": "Q668687", "collection_times": "Mo-Sa 10:00", "name": "USPS COLLECTION BOX - BLUE BOX", "nsi_id": "unitedstatespostalservice-a77078", "operator": "United States Postal Service", "operator:short": "USPS", "operator:type": "public", "operator:wikidata": "Q668687", "ref": "0823400009"}, "type": "Feature"}
{"dataset_attributes": {"@spider": "usps_collection_boxes", "spider:collection_time": "2023-09-25T08:26:09.915926"}, "geometry": {"coordinates": [-74.6171896, 39.36285], "type": "Point"}, "id": "uT060n7_OlumFpCksrPoTy0oaCA=", "properties": {"@spider": "usps_collection_boxes", "addr:city": "EGG HARBOR TWP", "addr:country": "US", "addr:full": "501 ZION RD", "addr:postcode": "08234", "addr:state": "NJ", "amenity": "post_box", "brand": "United States Postal Service", "brand:wikidata": "Q668687", "collection_times": "Mo-Sa 10:00", "name": "USPS COLLECTION BOX - BLUE BOX", "nsi_id": "unitedstatespostalservice-a77078", "operator": "United States Postal Service", "operator:short": "USPS", "operator:type": "public", "operator:wikidata": "Q668687", "ref": "0823400011"}, "type": "Feature"}
{"dataset_attributes": {"@spider": "usps_collection_boxes", "spider:collection_time": "2023-09-25T08:26:09.915926"}, "geometry": {"coordinates": [-74.5816926, 39.361714], "type": "Point"}, "id": "VxQKbfoy4Cz8W6NzsAd-NqeiqS0=", "properties": {"@spider": "usps_collection_boxes", "addr:city": "EGG HARBOR TWP", "addr:country": "US", "addr:full": "3515 BARGAINTOWN RD", "addr:postcode": "08234", "addr:state": "NJ", "amenity": "post_box", "brand": "United States Postal Service", "brand:wikidata": "Q668687", "collection_times": "Mo-Sa 10:00", "name": "USPS COLLECTION BOX - BLUE BOX", "nsi_id": "unitedstatespostalservice-a77078", "operator": "United States Postal Service", "operator:short": "USPS", "operator:type": "public", "operator:wikidata": "Q668687", "ref": "0823400012"}, "type": "Feature"}
{"dataset_attributes": {"@spider": "usps_collection_boxes", "spider:collection_time": "2023-09-25T08:26:09.915926"}, "geometry": {"coordinates": [-74.573051, 39.47802], "type": "Point"}, "id": "ZRjVOfvb-Ai9F16nkWPRckOfhxo=", "properties": {"@spider": "usps_collection_boxes", "addr:city": "POMONA", "addr:country": "US", "addr:full": "269 W WHITE HORSE PIKE", "addr:postcode": "08240", "addr:state": "NJ", "amenity": "post_box", "brand": "United States Postal Service", "brand:wikidata": "Q668687", "collection_times": "Mo-Fr 16:45; Sa 12:00", "name": "USPS COLLECTION BOX - BLUE BOX", "note": "ON 12/24 AND 12/31, THIS BOX MAY BE COLLECTED AS EARLY AS 12 NOON.", "nsi_id": "unitedstatespostalservice-a77078", "operator": "United States Postal Service", "operator:short": "USPS", "operator:type": "public", "operator:wikidata": "Q668687", "ref": "0824000001"}, "type": "Feature"}
{"dataset_attributes": {"@spider": "usps_collection_boxes", "spider:collection_time": "2023-09-25T08:26:09.915926"}, "geometry": {"coordinates": [-74.573051, 39.47802], "type": "Point"}, "id": "-ad-um3k_i5rTCL5QoQX59WfrQU=", "properties": {"@spider": "usps_collection_boxes", "addr:city": "POMONA", "addr:country": "US", "addr:full": "269 W WHITE HORSE PIKE", "addr:postcode": "08240", "addr:state": "NJ", "amenity": "post_box", "brand": "United States Postal Service", "brand:wikidata": "Q668687", "collection_times": "Mo-Fr 16:45; Sa 12:00", "name": "USPS COLLECTION BOX - PO LOBBY", "note": "ON 12/24 AND 12/31, THIS BOX MAY BE COLLECTED AS EARLY AS 12 NOON.", "nsi_id": "unitedstatespostalservice-a77078", "operator": "United States Postal Service", "operator:short": "USPS", "operator:type": "public", "operator:wikidata": "Q668687", "ref": "0824000002"}, "type": "Feature"}
{"dataset_attributes": {"@spider": "usps_collection_boxes", "spider:collection_time": "2023-09-25T08:26:09.915926"}, "geometry": {"coordinates": [-74.574117804, 39.47778092], "type": "Point"}, "id": "ru2Lb6JiX1a3W69UcI9GtN6eCpw=", "properties": {"@spider": "usps_collection_boxes", "addr:city": "POMONA", "addr:country": "US", "addr:full": "269 W WHITE HORSE PIKE", "addr:postcode": "08240", "addr:state": "NJ", "amenity": "post_box", "brand": "United States Postal Service", "brand:wikidata": "Q668687", "collection_times": "Mo-Fr 16:30; Sa 12:00", "name": "USPS COLLECTION BOX - PO LOBBY", "note": "ON 12/24 AND 12/31, THIS BOX MAY BE COLLECTED AS EARLY AS 12 NOON.", "nsi_id": "unitedstatespostalservice-a77078", "operator": "United States Postal Service", "operator:short": "USPS", "operator:type": "public", "operator:wikidata": "Q668687", "ref": "0824000006"}, "type": "Feature"}
{"dataset_attributes": {"@spider": "usps_collection_boxes", "spider:collection_time": "2023-09-25T08:26:09.915926"}, "geometry": {"coordinates": [-74.493387922, 39.519593095], "type": "Point"}, "id": "6CsgSUFEiFuJbB1hVZGZAl_ya7c=", "properties": {"@spider": "usps_collection_boxes", "addr:city": "PORT REPUBLIC", "addr:country": "US", "addr:full": "143 MAIN ST", "addr:postcode": "08241", "addr:state": "NJ", "amenity": "post_box", "brand": "United States Postal Service", "brand:wikidata": "Q668687", "collection_times": "Mo-Sa 13:00", "name": "USPS COLLECTION BOX - BLUE BOX", "note": "ON 12/24 AND 12/31, THIS BOX MAY BE COLLECTED AS EARLY AS 12 NOON.", "nsi_id": "unitedstatespostalservice-a77078", "operator": "United States Postal Service", "operator:short": "USPS", "operator:type": "public", "operator:wikidata": "Q668687", "ref": "0824100007"}, "type": "Feature"}
{"dataset_attributes": {"@spider": "usps_collection_boxes", "spider:collection_time": "2023-09-25T08:26:09.915926"}, "geometry": {"coordinates": [-74.8822063, 39.016766], "type": "Point"}, "id": "Q_LPk0jdqpwCznwM-WF3zLFpV0A=", "properties": {"@spider": "usps_collection_boxes", "addr:city": "RIO GRANDE", "addr:country": "US", "addr:full": "1087 ROUTE 47 S", "addr:postcode": "08242", "addr:state": "NJ", "amenity": "post_box", "brand": "United States Postal Service", "brand:wikidata": "Q668687", "collection_times": "Mo-Fr 17:00; Sa 15:00", "name": "USPS COLLECTION BOX - BLUE BOX", "note": "ON 12/24 AND 12/31, THIS BOX MAY BE COLLECTED AS EARLY AS 12 NOON.", "nsi_id": "unitedstatespostalservice-a77078", "operator": "United States Postal Service", "operator:short": "USPS", "operator:type": "public", "operator:wikidata": "Q668687", "ref": "0824200002"}, "type": "Feature"}
{"dataset_attributes": {"@spider": "usps_collection_boxes", "spider:collection_time": "2023-09-25T08:26:09.915926"}, "geometry": {"coordinates": [-74.8791730287, 39.0135410051], "type": "Point"}, "id": "nE0wHtf2MSRiLrqx-fsh1RUNz8M=", "properties": {"@spider": "usps_collection_boxes", "addr:city": "RIO GRANDE", "addr:country": "US", "addr:full": "3801 RT 9 S", "addr:postcode": "08242", "addr:state": "NJ", "amenity": "post_box", "brand": "United States Postal Service", "brand:wikidata": "Q668687", "collection_times": "Mo-Sa 10:00", "name": "USPS COLLECTION BOX - BLUE BOX", "nsi_id": "unitedstatespostalservice-a77078", "operator": "United States Postal Service", "operator:short": "USPS", "operator:type": "public", "operator:wikidata": "Q668687", "ref": "0824200003"}, "type": "Feature"}
{"dataset_attributes": {"@spider": "usps_collection_boxes", "spider:collection_time": "2023-09-25T08:26:09.915926"}, "geometry": {"coordinates": [-74.8692534, 39.012454], "type": "Point"}, "id": "F1YZENC5OKDTVSAfzW6EMkkKabI=", "properties": {"@spider": "usps_collection_boxes", "addr:city": "RIO GRANDE", "addr:country": "US", "addr:full": "1500 ROUTE 47", "addr:postcode": "08242", "addr:state": "NJ", "amenity": "post_box", "brand": "United States Postal Service", "brand:wikidata": "Q668687", "collection_times": "Mo-Sa 10:00", "name": "USPS COLLECTION BOX - BLUE BOX", "nsi_id": "unitedstatespostalservice-a77078", "operator": "United States Postal Service", "operator:short": "USPS", "operator:type": "public", "operator:wikidata": "Q668687", "ref": "0824200006"}, "type": "Feature"}
{"dataset_attributes": {"@spider": "usps_collection_boxes", "spider:collection_time": "2023-09-25T08:26:09.915926"}, "geometry": {"coordinates": [-74.882198, 39.016779], "type": "Point"}, "id": "iEwTxgt1W9VBvwp6lzeCUHpNHKA=", "properties": {"@spider": "usps_collection_boxes", "addr:city": "RIO GRANDE", "addr:country": "US", "addr:full": "1087 ROUTE 47 S", "addr:postcode": "08242", "addr:state": "NJ", "amenity": "post_box", "brand": "United States Postal Service", "brand:wikidata": "Q668687", "collection_times": "Mo-Fr 17:00; Sa 15:00", "name": "USPS COLLECTION BOX - BLUE BOX", "note": "ON 12/24 AND 12/31, THIS BOX MAY BE COLLECTED AS EARLY AS 12 NOON.", "nsi_id": "unitedstatespostalservice-a77078", "operator": "United States Postal Service", "operator:short": "USPS", "operator:type": "public", "operator:wikidata": "Q668687", "ref": "0824200008"}, "type": "Feature"}
{"dataset_attributes": {"@spider": "usps_collection_boxes", "spider:collection_time": "2023-09-25T08:26:09.915926"}, "geometry": {"coordinates": [-74.8826365, 39.016719], "type": "Point"}, "id": "ajcx_0wFvALtt2-HxYRRAQ2HeQE=", "properties": {"@spider": "usps_collection_boxes", "addr:city": "RIO GRANDE", "addr:country": "US", "addr:full": "1087 ROUTE 47 S", "addr:postcode": "08242", "addr:state": "NJ", "amenity": "post_box", "brand": "United States Postal Service", "brand:wikidata": "Q668687", "collection_times": "Mo-Fr 17:00; Sa 15:00", "name": "USPS COLLECTION BOX - PO LOBBY", "note": "ON 12/24 AND 12/31, THIS BOX MAY BE COLLECTED AS EARLY AS 12 NOON.", "nsi_id": "unitedstatespostalservice-a77078", "operator": "United States Postal Service", "operator:short": "USPS", "operator:type": "public", "operator:wikidata": "Q668687", "ref": "0824200009"}, "type": "Feature"}
{"dataset_attributes": {"@spider": "usps_collection_boxes", "spider:collection_time": "2023-09-25T08:26:09.915926"}, "geometry": {"coordinates": [-74.882213023, 39.016886599], "type": "Point"}, "id": "x06P-4KpEQmq-DtgLJ9ADVA58ZY=", "properties": {"@spider": "usps_collection_boxes", "addr:city": "RIO GRANDE", "addr:country": "US", "addr:full": "1087 ROUTE 47 S", "addr:postcode": "08242", "addr:state": "NJ", "amenity": "post_box", "brand": "United States Postal Service", "brand:wikidata": "Q668687", "collection_times": "Mo-Fr 17:00; Sa 13:00", "name": "USPS COLLECTION BOX - PO LOBBY", "note": "ON 12/24 AND 12/31, THIS BOX MAY BE COLLECTED AS EARLY AS 12 NOON.", "nsi_id": "unitedstatespostalservice-a77078", "operator": "United States Postal Service", "operator:short": "USPS", "operator:type": "public", "operator:wikidata": "Q668687", "ref": "0824200025"}, "type": "Feature"}
{"dataset_attributes": {"@spider": "usps_collection_boxes", "spider:collection_time": "2023-09-25T08:26:09.915926"}, "geometry": {"coordinates": [-74.6895318, 39.157437], "type": "Point"}, "id": "UiJZMF6cnobHMfdMVyAf1ZgBUXk=", "properties": {"@spider": "usps_collection_boxes", "addr:city": "SEA ISLE CITY", "addr:country": "US", "addr:full": "3801 LANDIS AVE", "addr:postcode": "08243", "addr:state": "NJ", "amenity": "post_box", "brand": "United States Postal Service", "brand:wikidata": "Q668687", "collection_times": "Mo-Sa 10:30", "name": "USPS COLLECTION BOX - BLUE BOX", "nsi_id": "unitedstatespostalservice-a77078", "operator": "United States Postal Service", "operator:short": "USPS", "operator:type": "public", "operator:wikidata": "Q668687", "ref": "0824300001"}, "type": "Feature"}
{"dataset_attributes": {"@spider": "usps_collection_boxes", "spider:collection_time": "2023-09-25T08:26:09.915926"}, "geometry": {"coordinates": [-74.6931194, 39.153445], "type": "Point"}, "id": "0y5QATp5a9cjaQaQp8_Pn_peF_I=", "properties": {"@spider": "usps_collection_boxes", "addr:city": "SEA ISLE CITY", "addr:country": "US", "addr:full": "4400 LANDIS AVE", "addr:postcode": "08243", "addr:state": "NJ", "amenity": "post_box", "brand": "United States Postal Service", "brand:wikidata": "Q668687", "collection_times": "Mo-Sa 10:30", "name": "USPS COLLECTION BOX - BLUE BOX", "nsi_id": "unitedstatespostalservice-a77078", "operator": "United States Postal Service", "operator:short": "USPS", "operator:type": "public", "operator:wikidata": "Q668687", "ref": "0824300003"}, "type": "Feature"}
{"dataset_attributes": {"@spider": "usps_collection_boxes", "spider:collection_time": "2023-09-25T08:26:09.915926"}, "geometry": {"coordinates": [-74.7025271, 39.141236], "type": "Point"}, "id": "-qRz2hgSLVLYrR5ID4hNhef3w8o=", "properties": {"@spider": "usps_collection_boxes", "addr:city": "SEA ISLE CITY", "addr:country": "US", "addr:full": "6216 LANDIS AVE", "addr:postcode": "08243", "addr:state": "NJ", "amenity": "post_box", "brand": "United States Postal Service", "brand:wikidata": "Q668687", "collection_times": "Mo-Sa 11:15", "name": "USPS COLLECTION BOX - BLUE BOX", "nsi_id": "unitedstatespostalservice-a77078", "operator": "United States Postal Service", "operator:short": "USPS", "operator:type": "public", "operator:wikidata": "Q668687", "ref": "0824300006"}, "type": "Feature"}
{"dataset_attributes": {"@spider": "usps_collection_boxes", "spider:collection_time": "2023-09-25T08:26:09.915926"}, "geometry": {"coordinates": [-74.7117252, 39.125915], "type": "Point"}, "id": "Ypr5H3CdP_R4qWPZ5kz46EF4h6E=", "properties": {"@spider": "usps_collection_boxes", "addr:city": "SEA ISLE CITY", "addr:country": "US", "addr:full": "8515 LANDIS AVE", "addr:postcode": "08243", "addr:state": "NJ", "amenity": "post_box", "brand": "United States Postal Service", "brand:wikidata": "Q668687", "collection_times": "Mo-Sa 13:00", "name": "USPS COLLECTION BOX - BLUE BOX", "note": "ON 12/24 AND 12/31, THIS BOX MAY BE COLLECTED AS EARLY AS 12 NOON.", "nsi_id": "unitedstatespostalservice-a77078", "operator": "United States Postal Service", "operator:short": "USPS", "operator:type": "public", "operator:wikidata": "Q668687", "ref": "0824300008"}, "type": "Feature"}
{"dataset_attributes": {"@spider": "usps_collection_boxes", "spider:collection_time": "2023-09-25T08:26:09.915926"}, "geometry": {"coordinates": [-74.691935, 39.155998], "type": "Point"}, "id": "7GSQGkCqq3XTuyxL4R4iyikG1R8=", "properties": {"@spider": "usps_collection_boxes", "addr:city": "SEA ISLE CITY", "addr:country": "US", "addr:full": "145 JOHN F KENNEDY BLVD", "addr:postcode": "08243", "addr:state": "NJ", "amenity": "post_box", "brand": "United States Postal Service", "brand:wikidata": "Q668687", "collection_times": "Mo-Fr 17:00; Sa 15:00", "name": "USPS COLLECTION BOX - BLUE BOX", "note": "ON 12/24 AND 12/31, THIS BOX MAY BE COLLECTED AS EARLY AS 12 NOON.", "nsi_id": "unitedstatespostalservice-a77078", "operator": "United States Postal Service", "operator:short": "USPS", "operator:type": "public", "operator:wikidata": "Q668687", "ref": "0824300009"}, "type": "Feature"}
{"dataset_attributes": {"@spider": "usps_collection_boxes", "spider:collection_time": "2023-09-25T08:26:09.915926"}, "geometry": {"coordinates": [-74.692051, 39.156024], "type": "Point"}, "id": "G9k2nt90Kfgh5m1WHOJTX0mPlik=", "properties": {"@spider": "usps_collection_boxes", "addr:city": "SEA ISLE CITY", "addr:country": "US", "addr:full": "145 JOHN F KENNEDY BLVD", "addr:postcode": "08243", "addr:state": "NJ", "amenity": "post_box", "brand": "United States Postal Service", "brand:wikidata": "Q668687", "collection_times": "Mo-Fr 17:00; Sa 15:00", "name": "USPS COLLECTION BOX - PO LOBBY", "note": "ON 12/24 AND 12/31, THIS BOX MAY BE COLLECTED AS EARLY AS 12 NOON.", "nsi_id": "unitedstatespostalservice-a77078", "operator": "United States Postal Service", "operator:short": "USPS", "operator:type": "public", "operator:wikidata": "Q668687", "ref": "0824300012"}, "type": "Feature"}
{"dataset_attributes": {"@spider": "usps_collection_boxes", "spider:collection_time": "2023-09-25T08:26:09.915926"}, "geometry": {"coordinates": [-74.692051, 39.156024], "type": "Point"}, "id": "LxeX4EgUfFD-cGItedl5xZh6M5c=", "properties": {"@spider": "usps_collection_boxes", "addr:city": "SEA ISLE CITY", "addr:country": "US", "addr:full": "145 JOHN F KENNEDY BLVD", "addr:postcode": "08243", "addr:state": "NJ", "amenity": "post_box", "brand": "United States Postal Service", "brand:wikidata": "Q668687", "collection_times": "Mo-Fr 17:00; Sa 15:00", "name": "USPS COLLECTION BOX - PO LOBBY", "note": "ON 12/24 AND 12/31, THIS BOX MAY BE COLLECTED AS EARLY AS 12 NOON.", "nsi_id": "unitedstatespostalservice-a77078", "operator": "United States Postal Service", "operator:short": "USPS", "operator:type": "public", "operator:wikidata": "Q668687", "ref": "0824300013"}, "type": "Feature"}
{"dataset_attributes": {"@spider": "usps_collection_boxes", "spider:collection_time": "2023-09-25T08:26:09.915926"}, "geometry": {"coordinates": [-74.691955379, 39.156077988], "type": "Point"}, "id": "odnqz6K5IJid3VOciB4iSLImM34=", "properties": {"@spider": "usps_collection_boxes", "addr:city": "SEA ISLE CITY", "addr:country": "US", "addr:full": "145 JOHN F KENNEDY BLVD", "addr:postcode": "08243", "addr:state": "NJ", "amenity": "post_box", "brand": "United States Postal Service", "brand:wikidata": "Q668687", "collection_times": "Mo-Fr 16:45; Sa 12:45", "name": "USPS COLLECTION BOX - PO LOBBY", "note": "ON 12/24 AND 12/31, THIS BOX MAY BE COLLECTED AS EARLY AS 12 NOON.", "nsi_id": "unitedstatespostalservice-a77078", "operator": "United States Postal Service", "operator:short": "USPS", "operator:type": "public", "operator:wikidata": "Q668687", "ref": "0824300018"}, "type": "Feature"}
{"dataset_attributes": {"@spider": "usps_collection_boxes", "spider:collection_time": "2023-09-25T08:26:09.915926"}, "geometry": {"coordinates": [-74.59631, 39.323552], "type": "Point"}, "id": "GrLYO3dAUIHLzV4EiP3iaKzKFDk=", "properties": {"@spider": "usps_collection_boxes", "addr:city": "SOMERS POINT", "addr:country": "US", "addr:full": "325 W GROVELAND AVE", "addr:postcode": "08244", "addr:state": "NJ", "amenity": "post_box", "brand": "United States Postal Service", "brand:wikidata": "Q668687", "collection_times": "Mo-Fr 17:00; Sa 15:30", "name": "USPS COLLECTION BOX - BLUE BOX", "note": "ON 12/24 AND 12/31, THIS BOX MAY BE COLLECTED AS EARLY AS 12 NOON.", "nsi_id": "unitedstatespostalservice-a77078", "operator": "United States Postal Service", "operator:short": "USPS", "operator:type": "public", "operator:wikidata": "Q668687", "ref": "0824400001"}, "type": "Feature"}
{"dataset_attributes": {"@spider": "usps_collection_boxes", "spider:collection_time": "2023-09-25T08:26:09.915926"}, "geometry": {"coordinates": [-74.5966262, 39.312966], "type": "Point"}, "id": "VBzjcCoNKcXHU-D8zIBKwxL3p9Y=", "properties": {"@spider": "usps_collection_boxes", "addr:city": "SOMERS POINT", "addr:country": "US", "addr:full": "1 W NEW JERSEY AVE", "addr:postcode": "08244", "addr:state": "NJ", "amenity": "post_box", "brand": "United States Postal Service", "brand:wikidata": "Q668687", "collection_times": "Mo-Sa 12:00", "name": "USPS COLLECTION BOX - BLUE BOX", "nsi_id": "unitedstatespostalservice-a77078", "operator": "United States Postal Service", "operator:short": "USPS", "operator:type": "public", "operator:wikidata": "Q668687", "ref": "0824400005"}, "type": "Feature"}
{"dataset_attributes": {"@spider": "usps_collection_boxes", "spider:collection_time": "2023-09-25T08:26:09.915926"}, "geometry": {"coordinates": [-74.5852117, 39.326582], "type": "Point"}, "id": "AvRQDZHJhz_rppCFOZj6qqICDWs=", "properties": {"@spider": "usps_collection_boxes", "addr:city": "SOMERS POINT", "addr:country": "US", "addr:full": "100 SHORE RD", "addr:postcode": "08244", "addr:state": "NJ", "amenity": "post_box", "brand": "United States Postal Service", "brand:wikidata": "Q668687", "collection_times": "Mo-Sa 12:00", "name": "USPS COLLECTION BOX - BLUE BOX", "nsi_id": "unitedstatespostalservice-a77078", "operator": "United States Postal Service", "operator:short": "USPS", "operator:type": "public", "operator:wikidata": "Q668687", "ref": "0824400022"}, "type": "Feature"}
{"dataset_attributes": {"@spider": "usps_collection_boxes", "spider:collection_time": "2023-09-25T08:26:09.915926"}, "geometry": {"coordinates": [-74.596246, 39.323485], "type": "Point"}, "id": "G3as3NOBNO4ck4Mcaf2z2fuyOmc=", "properties": {"@spider": "usps_collection_boxes", "addr:city": "SOMERS POINT", "addr:country": "US", "addr:full": "325 W GROVELAND AVE", "addr:postcode": "08244", "addr:state": "NJ", "amenity": "post_box", "brand": "United States Postal Service", "brand:wikidata": "Q668687", "collection_times": "Mo-Fr 17:00; Sa 15:30", "name": "USPS COLLECTION BOX - PO LOBBY", "note": "ON 12/24 AND 12/31, THIS BOX MAY BE COLLECTED AS EARLY AS 12 NOON.", "nsi_id": "unitedstatespostalservice-a77078", "operator": "United States Postal Service", "operator:short": "USPS", "operator:type": "public", "operator:wikidata": "Q668687", "ref": "0824400028"}, "type": "Feature"}
{"dataset_attributes": {"@spider": "usps_collection_boxes", "spider:collection_time": "2023-09-25T08:26:09.915926"}, "geometry": {"coordinates": [-74.598387634, 39.324617788], "type": "Point"}, "id": "xJE482vrLOi2wwk1NTIS9j5EoSA=", "properties": {"@spider": "usps_collection_boxes", "addr:city": "SOMERS POINT", "addr:country": "US", "addr:full": "325 W GROVELAND AVE", "addr:postcode": "08244", "addr:state": "NJ", "amenity": "post_box", "brand": "United States Postal Service", "brand:wikidata": "Q668687", "collection_times": "Mo-Fr 17:00; Sa 13:00", "name": "USPS COLLECTION BOX - PO LOBBY", "note": "ON 12/24 AND 12/31, THIS BOX MAY BE COLLECTED AS EARLY AS 12 NOON.", "nsi_id": "unitedstatespostalservice-a77078", "operator": "United States Postal Service", "operator:short": "USPS", "operator:type": "public", "operator:wikidata": "Q668687", "ref": "0824400035"}, "type": "Feature"}
{"dataset_attributes": {"@spider": "usps_collection_boxes", "spider:collection_time": "2023-09-25T08:26:09.915926"}, "geometry": {"coordinates": [-74.818477, 39.177434], "type": "Point"}, "id": "3iDOwapcAOG68u3v8lgNd17RafM=", "properties": {"@spider": "usps_collection_boxes", "addr:city": "SOUTH DENNIS", "addr:country": "US", "addr:full": "231 COUNTY RD", "addr:postcode": "08245", "addr:state": "NJ", "amenity": "post_box", "brand": "United States Postal Service", "brand:wikidata": "Q668687", "collection_times": "Mo-Fr 16:00; Sa 11:30", "name": "USPS COLLECTION BOX - BLUE BOX", "note": "ON 12/24 AND 12/31, THIS BOX MAY BE COLLECTED AS EARLY AS 12 NOON.", "nsi_id": "unitedstatespostalservice-a77078", "operator": "United States Postal Service", "operator:short": "USPS", "operator:type": "public", "operator:wikidata": "Q668687", "ref": "0824500001"}, "type": "Feature"}
{"dataset_attributes": {"@spider": "usps_collection_boxes", "spider:collection_time": "2023-09-25T08:26:09.915926"}, "geometry": {"coordinates": [-74.818477, 39.177434], "type": "Point"}, "id": "eJfjHuGgAED3aaHg5LQC4OWk-Io=", "properties": {"@spider": "usps_collection_boxes", "addr:city": "SOUTH DENNIS", "addr:country": "US", "addr:full": "231 COUNTY RD", "addr:postcode": "08245", "addr:state": "NJ", "amenity": "post_box", "brand": "United States Postal Service", "brand:wikidata": "Q668687", "collection_times": "Mo-Fr 16:15; Sa 11:30", "name": "USPS COLLECTION BOX - PO LOBBY", "note": "ON 12/24 AND 12/31, THIS BOX MAY BE COLLECTED AS EARLY AS 12 NOON.", "nsi_id": "unitedstatespostalservice-a77078", "operator": "United States Postal Service", "operator:short": "USPS", "operator:type": "public", "operator:wikidata": "Q668687", "ref": "0824500002"}, "type": "Feature"}
{"dataset_attributes": {"@spider": "usps_collection_boxes", "spider:collection_time": "2023-09-25T08:26:09.915926"}, "geometry": {"coordinates": [-74.819625704, 39.177992369], "type": "Point"}, "id": "tQofX7arsYYeTCiYyJqVsriimvE=", "properties": {"@spider": "usps_collection_boxes", "addr:city": "SOUTH DENNIS", "addr:country": "US", "addr:full": "231 COUNTY RD", "addr:postcode": "08245", "addr:state": "NJ", "amenity": "post_box", "brand": "United States Postal Service", "brand:wikidata": "Q668687", "collection_times": "Mo-Fr 16:15; Sa 11:45", "name": "USPS COLLECTION BOX - PO LOBBY", "note": "ON 12/24 AND 12/31, THIS BOX MAY BE COLLECTED AS EARLY AS 12 NOON.", "nsi_id": "unitedstatespostalservice-a77078", "operator": "United States Postal Service", "operator:short": "USPS", "operator:type": "public", "operator:wikidata": "Q668687", "ref": "0824500005"}, "type": "Feature"}
{"dataset_attributes": {"@spider": "usps_collection_boxes", "spider:collection_time": "2023-09-25T08:26:09.915926"}, "geometry": {"coordinates": [-74.760123, 39.180122], "type": "Point"}, "id": "JeNznad9wETZn5FO6FIXZa3WmfU=", "properties": {"@spider": "usps_collection_boxes", "addr:city": "SOUTH SEAVILLE", "addr:country": "US", "addr:full": "493 KINGS HWY", "addr:postcode": "08246", "addr:state": "NJ", "amenity": "post_box", "brand": "United States Postal Service", "brand:wikidata": "Q668687", "collection_times": "Mo-Fr 16:30; Sa 11:30", "name": "USPS COLLECTION BOX - BLUE BOX", "note": "ON 12/24 AND 12/31, THIS BOX MAY BE COLLECTED AS EARLY AS 12 NOON.", "nsi_id": "unitedstatespostalservice-a77078", "operator": "United States Postal Service", "operator:short": "USPS", "operator:type": "public", "operator:wikidata": "Q668687", "ref": "0824600001"}, "type": "Feature"}
{"dataset_attributes": {"@spider": "usps_collection_boxes", "spider:collection_time": "2023-09-25T08:26:09.915926"}, "geometry": {"coordinates": [-74.760123, 39.180122], "type": "Point"}, "id": "FV4Y5b8GpGuue_PwXOdhzvDvguk=", "properties": {"@spider": "usps_collection_boxes", "addr:city": "SOUTH SEAVILLE", "addr:country": "US", "addr:full": "493 KINGS HWY", "addr:postcode": "08246", "addr:state": "NJ", "amenity": "post_box", "brand": "United States Postal Service", "brand:wikidata": "Q668687", "collection_times": "Mo-Fr 16:45; Sa 11:45", "name": "USPS COLLECTION BOX - PO LOBBY", "note": "ON 12/24 AND 12/31, THIS BOX MAY BE COLLECTED AS EARLY AS 12 NOON.", "nsi_id": "unitedstatespostalservice-a77078", "operator": "United States Postal Service", "operator:short": "USPS", "operator:type": "public", "operator:wikidata": "Q668687", "ref": "0824600002"}, "type": "Feature"}
{"dataset_attributes": {"@spider": "usps_collection_boxes", "spider:collection_time": "2023-09-25T08:26:09.915926"}, "geometry": {"coordinates": [-74.76064016, 39.17870996], "type": "Point"}, "id": "aTknbOifWaaDlRj8B0kgoNLd4CA=", "properties": {"@spider": "usps_collection_boxes", "addr:city": "SOUTH SEAVILLE", "addr:country": "US", "addr:full": "493 KINGS HWY", "addr:postcode": "08246", "addr:state": "NJ", "amenity": "post_box", "brand": "United States Postal Service", "brand:wikidata": "Q668687", "collection_times": "Mo-Fr 16:45; Sa 11:45", "name": "USPS COLLECTION BOX - PO LOBBY", "note": "ON 12/24 AND 12/31, THIS BOX MAY BE COLLECTED AS EARLY AS 12 NOON.", "nsi_id": "unitedstatespostalservice-a77078", "operator": "United States Postal Service", "operator:short": "USPS", "operator:type": "public", "operator:wikidata": "Q668687", "ref": "0824600005"}, "type": "Feature"}
{"dataset_attributes": {"@spider": "usps_collection_boxes", "spider:collection_time": "2023-09-25T08:26:09.915926"}, "geometry": {"coordinates": [-74.75876, 39.05349], "type": "Point"}, "id": "-JQOJPPTWQ6iLouh_fod_bpCu_I=", "properties": {"@spider": "usps_collection_boxes", "addr:city": "STONE HARBOR", "addr:country": "US", "addr:full": "9601 2ND AVE", "addr:postcode": "08247", "addr:state": "NJ", "amenity": "post_box", "brand": "United States Postal Service", "brand:wikidata": "Q668687", "collection_times": "Mo-Fr 16:30; Sa 12:00", "name": "USPS COLLECTION BOX - BLUE BOX", "note": "ON 12/24 AND 12/31, THIS BOX MAY BE COLLECTED AS EARLY AS 12 NOON.", "nsi_id": "unitedstatespostalservice-a77078", "operator": "United States Postal Service", "operator:short": "USPS", "operator:type": "public", "operator:wikidata": "Q668687", "ref": "0824700002"}, "type": "Feature"}
{"dataset_attributes": {"@spider": "usps_collection_boxes", "spider:collection_time": "2023-09-25T08:26:09.915926"}, "geometry": {"coordinates": [-74.758668, 39.05355], "type": "Point"}, "id": "2AGRqTA69gbNR46Z_MhiesVRPbA=", "properties": {"@spider": "usps_collection_boxes", "addr:city": "STONE HARBOR", "addr:country": "US", "addr:full": "9601 2ND AVE", "addr:postcode": "08247", "addr:state": "NJ", "amenity": "post_box", "brand": "United States Postal Service", "brand:wikidata": "Q668687", "collection_times": "Mo-Fr 16:30; Sa 12:00", "name": "USPS COLLECTION BOX - PO LOBBY", "note": "ON 12/24 AND 12/31, THIS BOX MAY BE COLLECTED AS EARLY AS 12 NOON.", "nsi_id": "unitedstatespostalservice-a77078", "operator": "United States Postal Service", "operator:short": "USPS", "operator:type": "public", "operator:wikidata": "Q668687", "ref": "0824700016"}, "type": "Feature"}
{"dataset_attributes": {"@spider": "usps_collection_boxes", "spider:collection_time": "2023-09-25T08:26:09.915926"}, "geometry": {"coordinates": [-74.758904753, 39.053317044], "type": "Point"}, "id": "RF9L2PYVD1Jqjh0-YAY-eVk4gUU=", "properties": {"@spider": "usps_collection_boxes", "addr:city": "STONE HARBOR", "addr:country": "US", "addr:full": "9601 2ND AVE", "addr:postcode": "08247", "addr:state": "NJ", "amenity": "post_box", "brand": "United States Postal Service", "brand:wikidata": "Q668687", "collection_times": "Mo-Fr 16:15; Sa 11:45", "name": "USPS COLLECTION BOX - PO LOBBY", "note": "ON 12/24 AND 12/31, THIS BOX MAY BE COLLECTED AS EARLY AS 12 NOON.", "nsi_id": "unitedstatespostalservice-a77078", "operator": "United States Postal Service", "operator:short": "USPS", "operator:type": "public", "operator:wikidata": "Q668687", "ref": "0824700019"}, "type": "Feature"}
{"dataset_attributes": {"@spider": "usps_collection_boxes", "spider:collection_time": "2023-09-25T08:26:09.915926"}, "geometry": {"coordinates": [-74.654888, 39.199295], "type": "Point"}, "id": "f4RFQELIJi8aeHDFzTRQg92L8V8=", "properties": {"@spider": "usps_collection_boxes", "addr:city": "STRATHMERE", "addr:country": "US", "addr:full": "9 COMMONWEALTH AVE", "addr:postcode": "08248", "addr:state": "NJ", "amenity": "post_box", "brand": "United States Postal Service", "brand:wikidata": "Q668687", "collection_times": "Mo-Fr 16:15; Sa 11:45", "name": "USPS COLLECTION BOX - BLUE BOX", "note": "ON 12/24 AND 12/31, THIS BOX MAY BE COLLECTED AS EARLY AS 12 NOON.", "nsi_id": "unitedstatespostalservice-a77078", "operator": "United States Postal Service", "operator:short": "USPS", "operator:type": "public", "operator:wikidata": "Q668687", "ref": "0824800001"}, "type": "Feature"}
{"dataset_attributes": {"@spider": "usps_collection_boxes", "spider:collection_time": "2023-09-25T08:26:09.915926"}, "geometry": {"coordinates": [-74.654875, 39.199375], "type": "Point"}, "id": "G5MG06rpLKRA15R1fniZxO_VmxY=", "properties": {"@spider": "usps_collection_boxes", "addr:city": "STRATHMERE", "addr:country": "US", "addr:full": "9 COMMONWEALTH AVE", "addr:postcode": "08248", "addr:state": "NJ", "amenity": "post_box", "brand": "United States Postal Service", "brand:wikidata": "Q668687", "collection_times": "Mo-Fr 16:15; Sa 11:45", "name": "USPS COLLECTION BOX - PO LOBBY", "note": "ON 12/24 AND 12/31, THIS BOX MAY BE COLLECTED AS EARLY AS 12 NOON.", "nsi_id": "unitedstatespostalservice-a77078", "operator": "United States Postal Service", "operator:short": "USPS", "operator:type": "public", "operator:wikidata": "Q668687", "ref": "0824800002"}, "type": "Feature"}
{"dataset_attributes": {"@spider": "usps_collection_boxes", "spider:collection_time": "2023-09-25T08:26:09.915926"}, "geometry": {"coordinates": [-74.65515811, 39.198979322], "type": "Point"}, "id": "NV6fzZq3xzm1mzE47JepkOG2YLM=", "properties": {"@spider": "usps_collection_boxes", "addr:city": "STRATHMERE", "addr:country": "US", "addr:full": "9 COMMONWEALTH AVE", "addr:postcode": "08248", "addr:state": "NJ", "amenity": "post_box", "brand": "United States Postal Service", "brand:wikidata": "Q668687", "collection_times": "Mo-Fr 16:15; Sa 12:00", "name": "USPS COLLECTION BOX - PO LOBBY", "note": "ON 12/24 AND 12/31, THIS BOX MAY BE COLLECTED AS EARLY AS 12 NOON.", "nsi_id": "unitedstatespostalservice-a77078", "operator": "United States Postal Service", "operator:short": "USPS", "operator:type": "public", "operator:wikidata": "Q668687", "ref": "0824800005"}, "type": "Feature"}
{"dataset_attributes": {"@spider": "usps_collection_boxes", "spider:collection_time": "2023-09-25T08:26:09.915926"}, "geometry": {"coordinates": [-74.7521266, 39.2899517], "type": "Point"}, "id": "OWyTU2WOUDG28m2aqecZc6BA28A=", "properties": {"@spider": "usps_collection_boxes", "addr:city": "TUCKAHOE", "addr:country": "US", "addr:full": "2250 ROUTE 50", "addr:postcode": "08250", "addr:state": "NJ", "amenity": "post_box", "brand": "United States Postal Service", "brand:wikidata": "Q668687", "collection_times": "Mo-Fr 16:45; Sa 12:15", "name": "USPS COLLECTION BOX - BLUE BOX", "note": "ON 12/24 AND 12/31, THIS BOX MAY BE COLLECTED AS EARLY AS 12 NOON.", "nsi_id": "unitedstatespostalservice-a77078", "operator": "United States Postal Service", "operator:short": "USPS", "operator:type": "public", "operator:wikidata": "Q668687", "ref": "0825000001"}, "type": "Feature"}
{"dataset_attributes": {"@spider": "usps_collection_boxes", "spider:collection_time": "2023-09-25T08:26:09.915926"}, "geometry": {"coordinates": [-74.7521266, 39.2899517], "type": "Point"}, "id": "-0LlI_fJyVv3Jeeu4yuaegllgmo=", "properties": {"@spider": "usps_collection_boxes", "addr:city": "TUCKAHOE", "addr:country": "US", "addr:full": "2250 ROUTE 50", "addr:postcode": "08250", "addr:state": "NJ", "amenity": "post_box", "brand": "United States Postal Service", "brand:wikidata": "Q668687", "collection_times": "Mo-Fr 16:45; Sa 12:15", "name": "USPS COLLECTION BOX - PO LOBBY", "note": "ON 12/24 AND 12/31, THIS BOX MAY BE COLLECTED AS EARLY AS 12 NOON.", "nsi_id": "unitedstatespostalservice-a77078", "operator": "United States Postal Service", "operator:short": "USPS", "operator:type": "public", "operator:wikidata": "Q668687", "ref": "0825000002"}, "type": "Feature"}
{"dataset_attributes": {"@spider": "usps_collection_boxes", "spider:collection_time": "2023-09-25T08:26:09.915926"}, "geometry": {"coordinates": [-74.753882651, 39.290648919], "type": "Point"}, "id": "ms53Z1jCOecgkM6qAXBdpcajtUw=", "properties": {"@spider": "usps_collection_boxes", "addr:city": "TUCKAHOE", "addr:country": "US", "addr:full": "2250 ROUTE 50", "addr:postcode": "08250", "addr:state": "NJ", "amenity": "post_box", "brand": "United States Postal Service", "brand:wikidata": "Q668687", "collection_times": "Mo-Fr 16:45; Sa 12:00", "name": "USPS COLLECTION BOX - PO LOBBY", "note": "ON 12/24 AND 12/31, THIS BOX MAY BE COLLECTED AS EARLY AS 12 NOON.", "nsi_id": "unitedstatespostalservice-a77078", "operator": "United States Postal Service", "operator:short": "USPS", "operator:type": "public", "operator:wikidata": "Q668687", "ref": "0825000006"}, "type": "Feature"}
{"dataset_attributes": {"@spider": "usps_collection_boxes", "spider:collection_time": "2023-09-25T08:26:09.915926"}, "geometry": {"coordinates": [-74.936088, 39.017807], "type": "Point"}, "id": "q-SJ8TfDcu20xRvoS3x7W6gdacM=", "properties": {"@spider": "usps_collection_boxes", "addr:city": "VILLAS", "addr:country": "US", "addr:full": "1814 BAYSHORE RD", "addr:postcode": "08251", "addr:state": "NJ", "amenity": "post_box", "brand": "United States Postal Service", "brand:wikidata": "Q668687", "collection_times": "Mo-Fr 17:00; Sa 13:00", "name": "USPS COLLECTION BOX - BLUE BOX", "note": "ON 12/24 AND 12/31, THIS BOX MAY BE COLLECTED AS EARLY AS 12 NOON.", "nsi_id": "unitedstatespostalservice-a77078", "operator": "United States Postal Service", "operator:short": "USPS", "operator:type": "public", "operator:wikidata": "Q668687", "ref": "0825100001"}, "type": "Feature"}
{"dataset_attributes": {"@spider": "usps_collection_boxes", "spider:collection_time": "2023-09-25T08:26:09.915926"}, "geometry": {"coordinates": [-74.9389513, 39.009398], "type": "Point"}, "id": "yRoz_s-8d1KOvXxYSsgrPqNr6BQ=", "properties": {"@spider": "usps_collection_boxes", "addr:city": "VILLAS", "addr:country": "US", "addr:full": "2600 BAYSHORE RD", "addr:postcode": "08251", "addr:state": "NJ", "amenity": "post_box", "brand": "United States Postal Service", "brand:wikidata": "Q668687", "collection_times": "Mo-Sa 09:00", "name": "USPS COLLECTION BOX - BLUE BOX", "nsi_id": "unitedstatespostalservice-a77078", "operator": "United States Postal Service", "operator:short": "USPS", "operator:type": "public", "operator:wikidata": "Q668687", "ref": "0825100003"}, "type": "Feature"}
{"dataset_attributes": {"@spider": "usps_collection_boxes", "spider:collection_time": "2023-09-25T08:26:09.915926"}, "geometry": {"coordinates": [-74.9335399, 39.034395], "type": "Point"}, "id": "iOsSCoBWnfmU-7orIH71hV-HGjk=", "properties": {"@spider": "usps_collection_boxes", "addr:city": "VILLAS", "addr:country": "US", "addr:full": "406 BAYSHORE RD", "addr:postcode": "08251", "addr:state": "NJ", "amenity": "post_box", "brand": "United States Postal Service", "brand:wikidata": "Q668687", "collection_times": "Mo-Sa 09:30", "name": "USPS COLLECTION BOX - BLUE BOX", "nsi_id": "unitedstatespostalservice-a77078", "operator": "United States Postal Service", "operator:short": "USPS", "operator:type": "public", "operator:wikidata": "Q668687", "ref": "0825100004"}, "type": "Feature"}
{"dataset_attributes": {"@spider": "usps_collection_boxes", "spider:collection_time": "2023-09-25T08:26:09.915926"}, "geometry": {"coordinates": [-74.9339009, 39.030079], "type": "Point"}, "id": "aIsO694kzqGE-aYdmAvIqh-svtg=", "properties": {"@spider": "usps_collection_boxes", "addr:city": "VILLAS", "addr:country": "US", "addr:full": "1010 BAYSHORE RD", "addr:postcode": "08251", "addr:state": "NJ", "amenity": "post_box", "brand": "United States Postal Service", "brand:wikidata": "Q668687", "collection_times": "Mo-Sa 09:00", "name": "USPS COLLECTION BOX - BLUE BOX", "nsi_id": "unitedstatespostalservice-a77078", "operator": "United States Postal Service", "operator:short": "USPS", "operator:type": "public", "operator:wikidata": "Q668687", "ref": "0825100005"}, "type": "Feature"}
{"dataset_attributes": {"@spider": "usps_collection_boxes", "spider:collection_time": "2023-09-25T08:26:09.915926"}, "geometry": {"coordinates": [-74.936088, 39.017807], "type": "Point"}, "id": "j3ipg-w9r9N-dp3wm0L7wNCZsW4=", "properties": {"@spider": "usps_collection_boxes", "addr:city": "VILLAS", "addr:country": "US", "addr:full": "1814 BAYSHORE RD", "addr:postcode": "08251", "addr:state": "NJ", "amenity": "post_box", "brand": "United States Postal Service", "brand:wikidata": "Q668687", "collection_times": "Mo-Fr 17:00; Sa 13:00", "name": "USPS COLLECTION BOX - PO LOBBY", "note": "ON 12/24 AND 12/31, THIS BOX MAY BE COLLECTED AS EARLY AS 12 NOON.", "nsi_id": "unitedstatespostalservice-a77078", "operator": "United States Postal Service", "operator:short": "USPS", "operator:type": "public", "operator:wikidata": "Q668687", "ref": "0825100006"}, "type": "Feature"}
{"dataset_attributes": {"@spider": "usps_collection_boxes", "spider:collection_time": "2023-09-25T08:26:09.915926"}, "geometry": {"coordinates": [-74.936501949, 39.017995218], "type": "Point"}, "id": "K6iPDZok4AVIphVcASIA-tPoRj8=", "properties": {"@spider": "usps_collection_boxes", "addr:city": "VILLAS", "addr:country": "US", "addr:full": "1814 BAYSHORE RD STE 1", "addr:postcode": "08251", "addr:state": "NJ", "amenity": "post_box", "brand": "United States Postal Service", "brand:wikidata": "Q668687", "collection_times": "Mo-Fr 17:00; Sa 13:00", "name": "USPS COLLECTION BOX - PO LOBBY", "note": "ON 12/24 AND 12/31, THIS BOX MAY BE COLLECTED AS EARLY AS 12 NOON.", "nsi_id": "unitedstatespostalservice-a77078", "operator": "United States Postal Service", "operator:short": "USPS", "operator:type": "public", "operator:wikidata": "Q668687", "ref": "0825100011"}, "type": "Feature"}
{"dataset_attributes": {"@spider": "usps_collection_boxes", "spider:collection_time": "2023-09-25T08:26:09.915926"}, "geometry": {"coordinates": [-74.8619032402, 39.0304272565], "type": "Point"}, "id": "HAWtu_SbEbV0J57K90eGBku0hqE=", "properties": {"@spider": "usps_collection_boxes", "addr:city": "WHITESBORO", "addr:country": "US", "addr:full": "6 E MAIN ST", "addr:postcode": "08252", "addr:state": "NJ", "amenity": "post_box", "brand": "United States Postal Service", "brand:wikidata": "Q668687", "collection_times": "Mo-Sa 12:00", "name": "USPS COLLECTION BOX - PO LOBBY", "nsi_id": "unitedstatespostalservice-a77078", "operator": "United States Postal Service", "operator:short": "USPS", "operator:type": "public", "operator:wikidata": "Q668687", "ref": "0825200006"}, "type": "Feature"}
{"dataset_attributes": {"@spider": "usps_collection_boxes", "spider:collection_time": "2023-09-25T08:26:09.915926"}, "geometry": {"coordinates": [-74.8619032402, 39.0304272565], "type": "Point"}, "id": "MTvbbv6B4LbNhG99RPBtOMQvVF0=", "properties": {"@spider": "usps_collection_boxes", "addr:city": "WHITESBORO", "addr:country": "US", "addr:full": "6 E MAIN ST", "addr:postcode": "08252", "addr:state": "NJ", "amenity": "post_box", "brand": "United States Postal Service", "brand:wikidata": "Q668687", "collection_times": "Mo-Sa 12:00", "name": "USPS COLLECTION BOX - BLUE BOX", "nsi_id": "unitedstatespostalservice-a77078", "operator": "United States Postal Service", "operator:short": "USPS", "operator:type": "public", "operator:wikidata": "Q668687", "ref": "0825200007"}, "type": "Feature"}
{"dataset_attributes": {"@spider": "usps_collection_boxes", "spider:collection_time": "2023-09-25T08:26:09.915926"}, "geometry": {"coordinates": [-74.8619032402, 39.0304272565], "type": "Point"}, "id": "wHRtOA--ibJFyoG8COWYZYsCdyI=", "properties": {"@spider": "usps_collection_boxes", "addr:city": "WHITESBORO", "addr:country": "US", "addr:full": "6 E MAIN ST", "addr:postcode": "08252", "addr:state": "NJ", "amenity": "post_box", "brand": "United States Postal Service", "brand:wikidata": "Q668687", "collection_times": "Mo-Sa 12:00", "name": "USPS COLLECTION BOX - PO LOBBY", "nsi_id": "unitedstatespostalservice-a77078", "operator": "United States Postal Service", "operator:short": "USPS", "operator:type": "public", "operator:wikidata": "Q668687", "ref": "0825200008"}, "type": "Feature"}
{"dataset_attributes": {"@spider": "usps_collection_boxes", "spider:collection_time": "2023-09-25T08:26:09.915926"}, "geometry": {"coordinates": [-74.7968719191, 39.0176624924], "type": "Point"}, "id": "I888mc5FIxCvRQsPCTYQuwZL0MM=", "properties": {"@spider": "usps_collection_boxes", "addr:city": "WILDWOOD", "addr:country": "US", "addr:full": "124 ANGLESEA DR", "addr:postcode": "08260", "addr:state": "NJ", "amenity": "post_box", "brand": "United States Postal Service", "brand:wikidata": "Q668687", "collection_times": "Mo-Sa 11:30", "name": "USPS COLLECTION BOX - BLUE BOX", "nsi_id": "unitedstatespostalservice-a77078", "operator": "United States Postal Service", "operator:short": "USPS", "operator:type": "public", "operator:wikidata": "Q668687", "ref": "0826000002"}, "type": "Feature"}
{"dataset_attributes": {"@spider": "usps_collection_boxes", "spider:collection_time": "2023-09-25T08:26:09.915926"}, "geometry": {"coordinates": [-74.7949761, 39.004728], "type": "Point"}, "id": "LIYNJC6ZPfMFAmMv8-exy-fo6Ws=", "properties": {"@spider": "usps_collection_boxes", "addr:city": "WILDWOOD", "addr:country": "US", "addr:full": "406 CENTRAL AVE", "addr:postcode": "08260", "addr:state": "NJ", "amenity": "post_box", "brand": "United States Postal Service", "brand:wikidata": "Q668687", "collection_times": "Mo-Sa 10:00", "name": "USPS COLLECTION BOX - BLUE BOX", "nsi_id": "unitedstatespostalservice-a77078", "operator": "United States Postal Service", "operator:short": "USPS", "operator:type": "public", "operator:wikidata": "Q668687", "ref": "0826000004"}, "type": "Feature"}
{"dataset_attributes": {"@spider": "usps_collection_boxes", "spider:collection_time": "2023-09-25T08:26:09.915926"}, "geometry": {"coordinates": [-74.7964494, 39.001108], "type": "Point"}, "id": "oyleq_Ljii9aphxxaHGu23TByx4=", "properties": {"@spider": "usps_collection_boxes", "addr:city": "WILDWOOD", "addr:country": "US", "addr:full": "902 ATLANTIC AVE", "addr:postcode": "08260", "addr:state": "NJ", "amenity": "post_box", "brand": "United States Postal Service", "brand:wikidata": "Q668687", "collection_times": "Mo-Sa 11:45", "name": "USPS COLLECTION BOX - BLUE BOX", "nsi_id": "unitedstatespostalservice-a77078", "operator": "United States Postal Service", "operator:short": "USPS", "operator:type": "public", "operator:wikidata": "Q668687", "ref": "0826000005"}, "type": "Feature"}
{"dataset_attributes": {"@spider": "usps_collection_boxes", "spider:collection_time": "2023-09-25T08:26:09.915926"}, "geometry": {"coordinates": [-74.8010105, 39.001793], "type": "Point"}, "id": "9rc1rKe87PoPa-_iAvoJ2Z8xf-M=", "properties": {"@spider": "usps_collection_boxes", "addr:city": "WILDWOOD", "addr:country": "US", "addr:full": "1201 NEW JERSEY AVE", "addr:postcode": "08260", "addr:state": "NJ", "amenity": "post_box", "brand": "United States Postal Service", "brand:wikidata": "Q668687", "collection_times": "Mo-Sa 10:15", "name": "USPS COLLECTION BOX - BLUE BOX", "nsi_id": "unitedstatespostalservice-a77078", "operator": "United States Postal Service", "operator:short": "USPS", "operator:type": "public", "operator:wikidata": "Q668687", "ref": "0826000007"}, "type": "Feature"}
{"dataset_attributes": {"@spider": "usps_collection_boxes", "spider:collection_time": "2023-09-25T08:26:09.915926"}, "geometry": {"coordinates": [-74.7997092, 39.002885], "type": "Point"}, "id": "0kP_k0eN6BvybuPGZmIwnxGtzRQ=", "properties": {"@spider": "usps_collection_boxes", "addr:city": "WILDWOOD", "addr:country": "US", "addr:full": "1001 NEW JERSEY AVE", "addr:postcode": "08260", "addr:state": "NJ", "amenity": "post_box", "brand": "United States Postal Service", "brand:wikidata": "Q668687", "collection_times": "Mo-Sa 10:30", "name": "USPS COLLECTION BOX - BLUE BOX", "nsi_id": "unitedstatespostalservice-a77078", "operator": "United States Postal Service", "operator:short": "USPS", "operator:type": "public", "operator:wikidata": "Q668687", "ref": "0826000008"}, "type": "Feature"}
{"dataset_attributes": {"@spider": "usps_collection_boxes", "spider:collection_time": "2023-09-25T08:26:09.915926"}, "geometry": {"coordinates": [-74.7986485, 38.99928], "type": "Point"}, "id": "NaCY6AhuRHY548FT6-VRuB5Hlzo=", "properties": {"@spider": "usps_collection_boxes", "addr:city": "WILDWOOD", "addr:country": "US", "addr:full": "1212 ATLANTIC AVE", "addr:postcode": "08260", "addr:state": "NJ", "amenity": "post_box", "brand": "United States Postal Service", "brand:wikidata": "Q668687", "collection_times": "Mo-Sa 09:15", "name": "USPS COLLECTION BOX - BLUE BOX", "nsi_id": "unitedstatespostalservice-a77078", "operator": "United States Postal Service", "operator:short": "USPS", "operator:type": "public", "operator:wikidata": "Q668687", "ref": "0826000009"}, "type": "Feature"}
{"dataset_attributes": {"@spider": "usps_collection_boxes", "spider:collection_time": "2023-09-25T08:26:09.915926"}, "geometry": {"coordinates": [-74.8096313, 38.994862], "type": "Point"}, "id": "z4-hV-o8SaVNQ_z79Af_f74Z5sY=", "properties": {"@spider": "usps_collection_boxes", "addr:city": "WILDWOOD", "addr:country": "US", "addr:full": "2500 NEW JERSEY AVE", "addr:postcode": "08260", "addr:state": "NJ", "amenity": "post_box", "brand": "United States Postal Service", "brand:wikidata": "Q668687", "collection_times": "Mo-Sa 09:15", "name": "USPS COLLECTION BOX - BLUE BOX", "nsi_id": "unitedstatespostalservice-a77078", "operator": "United States Postal Service", "operator:short": "USPS", "operator:type": "public", "operator:wikidata": "Q668687", "ref": "0826000014"}, "type": "Feature"}
{"dataset_attributes": {"@spider": "usps_collection_boxes", "spider:collection_time": "2023-09-25T08:26:09.915926"}, "geometry": {"coordinates": [-74.8141374, 38.991475], "type": "Point"}, "id": "CHqoIqiRqCQSRadpuRpE1bLn_OA=", "properties": {"@spider": "usps_collection_boxes", "addr:city": "WILDWOOD", "addr:country": "US", "addr:full": "101 E WILDWOOD AVE", "addr:postcode": "08260", "addr:state": "NJ", "amenity": "post_box", "brand": "United States Postal Service", "brand:wikidata": "Q668687", "collection_times": "Mo-Sa 09:15", "name": "USPS COLLECTION BOX - BLUE BOX", "nsi_id": "unitedstatespostalservice-a77078", "operator": "United States Postal Service", "operator:short": "USPS", "operator:type": "public", "operator:wikidata": "Q668687", "ref": "0826000020"}, "type": "Feature"}
{"dataset_attributes": {"@spider": "usps_collection_boxes", "spider:collection_time": "2023-09-25T08:26:09.915926"}, "geometry": {"coordinates": [-74.8215552, 38.986487], "type": "Point"}, "id": "IDUNFtd1wKKQAbyG73mtf_OuuwQ=", "properties": {"@spider": "usps_collection_boxes", "addr:city": "WILDWOOD", "addr:country": "US", "addr:full": "4400 NEW JERSEY AVE", "addr:postcode": "08260", "addr:state": "NJ", "amenity": "post_box", "brand": "United States Postal Service", "brand:wikidata": "Q668687", "collection_times": "Mo-Sa 10:00", "name": "USPS COLLECTION BOX - BLUE BOX", "nsi_id": "unitedstatespostalservice-a77078", "operator": "United States Postal Service", "operator:short": "USPS", "operator:type": "public", "operator:wikidata": "Q668687", "ref": "0826000027"}, "type": "Feature"}
{"dataset_attributes": {"@spider": "usps_collection_boxes", "spider:collection_time": "2023-09-25T08:26:09.915926"}, "geometry": {"coordinates": [-74.8374838, 38.98891], "type": "Point"}, "id": "yq9OonKAcgz1DKZS04ZckUA0HWY=", "properties": {"@spider": "usps_collection_boxes", "addr:city": "WILDWOOD", "addr:country": "US", "addr:full": "5200 SHAWCREST RD", "addr:postcode": "08260", "addr:state": "NJ", "amenity": "post_box", "brand": "United States Postal Service", "brand:wikidata": "Q668687", "collection_times": "Mo-Sa 09:00", "name": "USPS COLLECTION BOX - BLUE BOX", "nsi_id": "unitedstatespostalservice-a77078", "operator": "United States Postal Service", "operator:short": "USPS", "operator:type": "public", "operator:wikidata": "Q668687", "ref": "0826000034"}, "type": "Feature"}
{"dataset_attributes": {"@spider": "usps_collection_boxes", "spider:collection_time": "2023-09-25T08:26:09.915926"}, "geometry": {"coordinates": [-74.8266804585, 38.9825160528], "type": "Point"}, "id": "JNyFVXFFuUDzeEhOyrmLkr4sGU0=", "properties": {"@spider": "usps_collection_boxes", "addr:city": "WILDWOOD", "addr:country": "US", "addr:full": "5201 NEW JERSEY AVE", "addr:postcode": "08260", "addr:state": "NJ", "amenity": "post_box", "brand": "United States Postal Service", "brand:wikidata": "Q668687", "collection_times": "Mo-Sa 14:15", "name": "USPS COLLECTION BOX - BLUE BOX", "note": "ON 12/24 AND 12/31, THIS BOX MAY BE COLLECTED AS EARLY AS 12 NOON.", "nsi_id": "unitedstatespostalservice-a77078", "operator": "United States Postal Service", "operator:short": "USPS", "operator:type": "public", "operator:wikidata": "Q668687", "ref": "0826000035"}, "type": "Feature"}
{"dataset_attributes": {"@spider": "usps_collection_boxes", "spider:collection_time": "2023-09-25T08:26:09.915926"}, "geometry": {"coordinates": [-74.8298146, 38.983982], "type": "Point"}, "id": "AravPwY0k5Q5OHx9VPkH4Ftj8u0=", "properties": {"@spider": "usps_collection_boxes", "addr:city": "WILDWOOD", "addr:country": "US", "addr:full": "5300 PARK BLVD", "addr:postcode": "08260", "addr:state": "NJ", "amenity": "post_box", "brand": "United States Postal Service", "brand:wikidata": "Q668687", "collection_times": "Mo-Sa 10:30", "name": "USPS COLLECTION BOX - BLUE BOX", "nsi_id": "unitedstatespostalservice-a77078", "operator": "United States Postal Service", "operator:short": "USPS", "operator:type": "public", "operator:wikidata": "Q668687", "ref": "0826000037"}, "type": "Feature"}
{"dataset_attributes": {"@spider": "usps_collection_boxes", "spider:collection_time": "2023-09-25T08:26:09.915926"}, "geometry": {"coordinates": [-74.8311272, 38.979225], "type": "Point"}, "id": "YRtAjqY5r5KoRkv072JLSBi_cFk=", "properties": {"@spider": "usps_collection_boxes", "addr:city": "WILDWOOD", "addr:country": "US", "addr:full": "5811 NEW JERSEY AVE", "addr:postcode": "08260", "addr:state": "NJ", "amenity": "post_box", "brand": "United States Postal Service", "brand:wikidata": "Q668687", "collection_times": "Mo-Sa 10:00", "name": "USPS COLLECTION BOX - BLUE BOX", "nsi_id": "unitedstatespostalservice-a77078", "operator": "United States Postal Service", "operator:short": "USPS", "operator:type": "public", "operator:wikidata": "Q668687", "ref": "0826000038"}, "type": "Feature"}
{"dataset_attributes": {"@spider": "usps_collection_boxes", "spider:collection_time": "2023-09-25T08:26:09.915926"}, "geometry": {"coordinates": [-74.8411893, 38.969338], "type": "Point"}, "id": "XxjFjN4OhliJkATKURYXIbBrgG0=", "properties": {"@spider": "usps_collection_boxes", "addr:city": "WILDWOOD", "addr:country": "US", "addr:full": "7600 PACIFIC AVE", "addr:postcode": "08260", "addr:state": "NJ", "amenity": "post_box", "brand": "United States Postal Service", "brand:wikidata": "Q668687", "collection_times": "Mo-Sa 12:00", "name": "USPS COLLECTION BOX - BLUE BOX", "nsi_id": "unitedstatespostalservice-a77078", "operator": "United States Postal Service", "operator:short": "USPS", "operator:type": "public", "operator:wikidata": "Q668687", "ref": "0826000039"}, "type": "Feature"}
{"dataset_attributes": {"@spider": "usps_collection_boxes", "spider:collection_time": "2023-09-25T08:26:09.915926"}, "geometry": {"coordinates": [-74.8323194, 38.978191], "type": "Point"}, "id": "9YjeGQewYMwBNHIs8_I81f1E28w=", "properties": {"@spider": "usps_collection_boxes", "addr:city": "WILDWOOD", "addr:country": "US", "addr:full": "6011 NEW JERSEY AVE", "addr:postcode": "08260", "addr:state": "NJ", "amenity": "post_box", "brand": "United States Postal Service", "brand:wikidata": "Q668687", "collection_times": "Mo-Sa 12:00", "name": "USPS COLLECTION BOX - BLUE BOX", "nsi_id": "unitedstatespostalservice-a77078", "operator": "United States Postal Service", "operator:short": "USPS", "operator:type": "public", "operator:wikidata": "Q668687", "ref": "0826000040"}, "type": "Feature"}
{"dataset_attributes": {"@spider": "usps_collection_boxes", "spider:collection_time": "2023-09-25T08:26:09.915926"}, "geometry": {"coordinates": [-74.850615528, 38.9625728926], "type": "Point"}, "id": "rLdfG3mq60W-rZPq8XK1SpklWhI=", "properties": {"@spider": "usps_collection_boxes", "addr:city": "WILDWOOD", "addr:country": "US", "addr:full": "9300 PACIFIC AVE", "addr:postcode": "08260", "addr:state": "NJ", "amenity": "post_box", "brand": "United States Postal Service", "brand:wikidata": "Q668687", "collection_times": "Mo-Sa 15:00", "name": "USPS COLLECTION BOX - BLUE BOX", "note": "ON 12/24 AND 12/31, THIS BOX MAY BE COLLECTED AS EARLY AS 12 NOON.", "nsi_id": "unitedstatespostalservice-a77078", "operator": "United States Postal Service", "operator:short": "USPS", "operator:type": "public", "operator:wikidata": "Q668687", "ref": "0826000049"}, "type": "Feature"}
{"dataset_attributes": {"@spider": "usps_collection_boxes", "spider:collection_time": "2023-09-25T08:26:09.915926"}, "geometry": {"coordinates": [-74.8112996427, 38.9888415479], "type": "Point"}, "id": "MyYvJlFSTNQaZoTSQfrjIeouDPs=", "properties": {"@spider": "usps_collection_boxes", "addr:city": "WILDWOOD", "addr:country": "US", "addr:full": "3311 ATLANTIC AVE", "addr:postcode": "08260", "addr:state": "NJ", "amenity": "post_box", "brand": "United States Postal Service", "brand:wikidata": "Q668687", "collection_times": "Mo-Fr 17:00; Sa 13:00", "name": "USPS COLLECTION BOX - BLUE BOX", "note": "ON 12/24 AND 12/31, THIS BOX MAY BE COLLECTED AS EARLY AS 12 NOON.", "nsi_id": "unitedstatespostalservice-a77078", "operator": "United States Postal Service", "operator:short": "USPS", "operator:type": "public", "operator:wikidata": "Q668687", "ref": "0826000051"}, "type": "Feature"}
{"dataset_attributes": {"@spider": "usps_collection_boxes", "spider:collection_time": "2023-09-25T08:26:09.915926"}, "geometry": {"coordinates": [-74.8112996427, 38.9888415479], "type": "Point"}, "id": "nK-0YA3UIEhrUN1Xd6uV1iXjm3E=", "properties": {"@spider": "usps_collection_boxes", "addr:city": "WILDWOOD", "addr:country": "US", "addr:full": "3311 ATLANTIC AVE", "addr:postcode": "08260", "addr:state": "NJ", "amenity": "post_box", "brand": "United States Postal Service", "brand:wikidata": "Q668687", "collection_times": "Mo-Fr 17:00; Sa 13:00", "name": "USPS COLLECTION BOX - PO LOBBY", "note": "ON 12/24 AND 12/31, THIS BOX MAY BE COLLECTED AS EARLY AS 12 NOON.", "nsi_id": "unitedstatespostalservice-a77078", "operator": "United States Postal Service", "operator:short": "USPS", "operator:type": "public", "operator:wikidata": "Q668687", "ref": "0826000056"}, "type": "Feature"}
{"dataset_attributes": {"@spider": "usps_collection_boxes", "spider:collection_time": "2023-09-25T08:26:09.915926"}, "geometry": {"coordinates": [-74.8074957, 38.996645], "type": "Point"}, "id": "AsOKOEqnBzQxIWoYSz-KmS90OAc=", "properties": {"@spider": "usps_collection_boxes", "addr:city": "WILDWOOD", "addr:country": "US", "addr:full": "2198 NEW JERSEY AVE", "addr:postcode": "08260", "addr:state": "NJ", "amenity": "post_box", "brand": "United States Postal Service", "brand:wikidata": "Q668687", "collection_times": "Mo-Sa 09:15", "name": "USPS COLLECTION BOX - BLUE BOX", "nsi_id": "unitedstatespostalservice-a77078", "operator": "United States Postal Service", "operator:short": "USPS", "operator:type": "public", "operator:wikidata": "Q668687", "ref": "0826000057"}, "type": "Feature"}
{"dataset_attributes": {"@spider": "usps_collection_boxes", "spider:collection_time": "2023-09-25T08:26:09.915926"}, "geometry": {"coordinates": [-74.8122069, 38.990847], "type": "Point"}, "id": "yP80QZNlgmCfSYi1Abf6iMHEnb8=", "properties": {"@spider": "usps_collection_boxes", "addr:city": "WILDWOOD", "addr:country": "US", "addr:full": "3200 PACIFIC AVE", "addr:postcode": "08260", "addr:state": "NJ", "amenity": "post_box", "brand": "United States Postal Service", "brand:wikidata": "Q668687", "collection_times": "Mo-Sa 09:15", "name": "USPS COLLECTION BOX - BLUE BOX", "nsi_id": "unitedstatespostalservice-a77078", "operator": "United States Postal Service", "operator:short": "USPS", "operator:type": "public", "operator:wikidata": "Q668687", "ref": "0826000061"}, "type": "Feature"}
{"dataset_attributes": {"@spider": "usps_collection_boxes", "spider:collection_time": "2023-09-25T08:26:09.915926"}, "geometry": {"coordinates": [-74.8112996427, 38.9888415479], "type": "Point"}, "id": "5MReFBBmA8jLbQKwXiSW4hJGpHw=", "properties": {"@spider": "usps_collection_boxes", "addr:city": "WILDWOOD", "addr:country": "US", "addr:full": "3311 ATLANTIC AVE", "addr:postcode": "08260", "addr:state": "NJ", "amenity": "post_box", "brand": "United States Postal Service", "brand:wikidata": "Q668687", "collection_times": "Mo-Fr 17:00; Sa 13:00", "name": "USPS COLLECTION BOX - PO LOBBY", "note": "ON 12/24 AND 12/31, THIS BOX MAY BE COLLECTED AS EARLY AS 12 NOON.", "nsi_id": "unitedstatespostalservice-a77078", "operator": "United States Postal Service", "operator:short": "USPS", "operator:type": "public", "operator:wikidata": "Q668687", "ref": "0826000072"}, "type": "Feature"}
{"dataset_attributes": {"@spider": "usps_collection_boxes", "spider:collection_time": "2023-09-25T08:26:09.915926"}, "geometry": {"coordinates": [-74.81871, 39.23892], "type": "Point"}, "id": "UQUgdGBYB5xEm3cpLJ3SeEXSyDs=", "properties": {"@spider": "usps_collection_boxes", "addr:city": "WOODBINE", "addr:country": "US", "addr:full": "642 WASHINGTON AVE", "addr:postcode": "08270", "addr:state": "NJ", "amenity": "post_box", "brand": "United States Postal Service", "brand:wikidata": "Q668687", "collection_times": "Mo-Fr 16:45; Sa 11:45", "name": "USPS COLLECTION BOX - BLUE BOX", "note": "ON 12/24 AND 12/31, THIS BOX MAY BE COLLECTED AS EARLY AS 12 NOON.", "nsi_id": "unitedstatespostalservice-a77078", "operator": "United States Postal Service", "operator:short": "USPS", "operator:type": "public", "operator:wikidata": "Q668687", "ref": "0827000001"}, "type": "Feature"}
{"dataset_attributes": {"@spider": "usps_collection_boxes", "spider:collection_time": "2023-09-25T08:26:09.915926"}, "geometry": {"coordinates": [-74.817803, 39.239383], "type": "Point"}, "id": "1EZV9TOPXF0LaCIeEzw2mxDcZvQ=", "properties": {"@spider": "usps_collection_boxes", "addr:city": "WOODBINE", "addr:country": "US", "addr:full": "642 WASHINGTON AVE", "addr:postcode": "08270", "addr:state": "NJ", "amenity": "post_box", "brand": "United States Postal Service", "brand:wikidata": "Q668687", "collection_times": "Mo-Fr 16:45; Sa 11:45", "name": "USPS COLLECTION BOX - PO LOBBY", "note": "ON 12/24 AND 12/31, THIS BOX MAY BE COLLECTED AS EARLY AS 12 NOON.", "nsi_id": "unitedstatespostalservice-a77078", "operator": "United States Postal Service", "operator:short": "USPS", "operator:type": "public", "operator:wikidata": "Q668687", "ref": "0827000003"}, "type": "Feature"}
{"dataset_attributes": {"@spider": "usps_collection_boxes", "spider:collection_time": "2023-09-25T08:26:09.915926"}, "geometry": {"coordinates": [-74.818426461, 39.238773232], "type": "Point"}, "id": "U8h3iCM_s0ngRuFdHY8GCKQTJEU=", "properties": {"@spider": "usps_collection_boxes", "addr:city": "WOODBINE", "addr:country": "US", "addr:full": "642 WASHINGTON AVE", "addr:postcode": "08270", "addr:state": "NJ", "amenity": "post_box", "brand": "United States Postal Service", "brand:wikidata": "Q668687", "collection_times": "Mo-Fr 16:30; Sa 11:30", "name": "USPS COLLECTION BOX - PO LOBBY", "note": "ON 12/24 AND 12/31, THIS BOX MAY BE COLLECTED AS EARLY AS 12 NOON.", "nsi_id": "unitedstatespostalservice-a77078", "operator": "United States Postal Service", "operator:short": "USPS", "operator:type": "public", "operator:wikidata": "Q668687", "ref": "0827000006"}, "type": "Feature"}
