{"geometry": {"coordinates": [-75.2313999, 39.431725], "type": "Point"}, "id": "9oot19kZZ0tHTYo25oSSlKlcqJk=", "properties": {"@source_uri": "https://tools.usps.com/UspsToolsRestServices/rest/POLocator/findLocations", "@spider": "usps_collection_boxes", "addr:city": "BRIDGETON", "addr:country": "US", "addr:postcode": "08302", "addr:state": "NJ", "addr:street_address": "100 N PEARL ST", "amenity": "post_box", "collection_times": "Mo-Fr 17:00; Sa 12:30", "note": "ON 12/24 AND 12/31, THIS BOX MAY BE COLLECTED AS EARLY AS 12 NOON.", "nsi_id": "unitedstatespostalservice-a77078", "operator": "United States Postal Service", "operator:short": "USPS", "operator:type": "public", "operator:wikidata": "Q668687", "ref": "0830200003"}, "type": "Feature"}
{"geometry": {"coordinates": [-75.2163794, 39.498955], "type": "Point"}, "id": "FnyBzbrFNZFAlR9Uvcc-MdaJqe4=", "properties": {"@source_uri": "https://tools.usps.com/UspsToolsRestServices/rest/POLocator/findLocations", "@spider": "usps_collection_boxes", "addr:city": "BRIDGETON", "addr:country": "US", "addr:postcode": "08302", "addr:state": "NJ", "addr:street_address": "1335 HIGHWAY 77", "amenity": "post_box", "collection_times": "Mo-Fr 14:15; Sa 14:00", "note": "ON 12/24 AND 12/31, THIS BOX MAY BE COLLECTED AS EARLY AS 12 NOON.", "nsi_id": "unitedstatespostalservice-a77078", "operator": "United States Postal Service", "operator:short": "USPS", "operator:type": "public", "operator:wikidata": "Q668687", "ref": "0830200005"}, "type": "Feature"}
{"geometry": {"coordinates": [-75.2099773, 39.462308], "type": "Point"}, "id": "vfz7rXG4Cp2GwxGITjRaKRwT-nE=", "properties": {"@source_uri": "https://tools.usps.com/UspsToolsRestServices/rest/POLocator/findLocations", "@spider": "usps_collection_boxes", "addr:city": "BRIDGETON", "addr:country": "US", "addr:postcode": "08302", "addr:state": "NJ", "addr:street_address": "32 CORNWELL DR", "amenity": "post_box", "collection_times": "Mo-Sa 13:30", "note": "ON 12/24 AND 12/31, THIS BOX MAY BE COLLECTED AS EARLY AS 12 NOON.", "nsi_id": "unitedstatespostalservice-a77078", "operator": "United States Postal Service", "operator:short": "USPS", "operator:type": "public", "operator:wikidata": "Q668687", "ref": "0830200006"}, "type": "Feature"}
{"geometry": {"coordinates": [-75.2186569, 39.435985], "type": "Point"}, "id": "o5GGJGdt9DaJ3YnbbnjOTEAkGuI=", "properties": {"@source_uri": "https://tools.usps.com/UspsToolsRestServices/rest/POLocator/findLocations", "@spider": "usps_collection_boxes", "addr:city": "BRIDGETON", "addr:country": "US", "addr:postcode": "08302", "addr:state": "NJ", "addr:street_address": "351 IRVING AVE", "amenity": "post_box", "collection_times": "Mo-Fr 16:30; Sa 12:15", "note": "ON 12/24 AND 12/31, THIS BOX MAY BE COLLECTED AS EARLY AS 12 NOON.", "nsi_id": "unitedstatespostalservice-a77078", "operator": "United States Postal Service", "operator:short": "USPS", "operator:type": "public", "operator:wikidata": "Q668687", "ref": "0830200010"}, "type": "Feature"}
{"geometry": {"coordinates": [-75.232863445, 39.428905634], "type": "Point"}, "id": "kym5qYHwpg1XmsLCYr2RAEXJAnw=", "properties": {"@source_uri": "https://tools.usps.com/UspsToolsRestServices/rest/POLocator/findLocations", "@spider": "usps_collection_boxes", "addr:city": "BRIDGETON", "addr:country": "US", "addr:postcode": "08302", "addr:state": "NJ", "addr:street_address": "110 E COMMERCE ST", "amenity": "post_box", "collection_times": "Mo-Sa 09:15", "nsi_id": "unitedstatespostalservice-a77078", "operator": "United States Postal Service", "operator:short": "USPS", "operator:type": "public", "operator:wikidata": "Q668687", "ref": "0830200019"}, "type": "Feature"}
{"geometry": {"coordinates": [-75.2312724, 39.429084], "type": "Point"}, "id": "1Y9_vFBwyBXGXGMKI2HHSIrKcG8=", "properties": {"@source_uri": "https://tools.usps.com/UspsToolsRestServices/rest/POLocator/findLocations", "@spider": "usps_collection_boxes", "addr:city": "BRIDGETON", "addr:country": "US", "addr:postcode": "08302", "addr:state": "NJ", "addr:street_address": "181 E COMMERCE ST", "amenity": "post_box", "collection_times": "Mo-Fr 17:00; Sa 12:30", "note": "ON 12/24 AND 12/31, THIS BOX MAY BE COLLECTED AS EARLY AS 12 NOON.", "nsi_id": "unitedstatespostalservice-a77078", "operator": "United States Postal Service", "operator:short": "USPS", "operator:type": "public", "operator:wikidata": "Q668687", "ref": "0830200020"}, "type": "Feature"}
{"geometry": {"coordinates": [-75.2330129, 39.431022], "type": "Point"}, "id": "HPgafdc1-36dh4PT8F8Nm4uT2_w=", "properties": {"@source_uri": "https://tools.usps.com/UspsToolsRestServices/rest/POLocator/findLocations", "@spider": "usps_collection_boxes", "addr:city": "BRIDGETON", "addr:country": "US", "addr:postcode": "08302", "addr:state": "NJ", "addr:street_address": "75 N LAUREL ST", "amenity": "post_box", "collection_times": "Mo-Sa 12:00", "nsi_id": "unitedstatespostalservice-a77078", "operator": "United States Postal Service", "operator:short": "USPS", "operator:type": "public", "operator:wikidata": "Q668687", "ref": "0830200025"}, "type": "Feature"}
{"geometry": {"coordinates": [-75.2349623, 39.427979], "type": "Point"}, "id": "HZR3h2Ig-W9u6NIahtnKAoW9BVA=", "properties": {"@source_uri": "https://tools.usps.com/UspsToolsRestServices/rest/POLocator/findLocations", "@spider": "usps_collection_boxes", "addr:city": "BRIDGETON", "addr:country": "US", "addr:postcode": "08302", "addr:state": "NJ", "addr:street_address": "53 S LAUREL ST", "amenity": "post_box", "collection_times": "Mo-Fr 17:00; Sa 12:30", "note": "ON 12/24 AND 12/31, THIS BOX MAY BE COLLECTED AS EARLY AS 12 NOON.", "nsi_id": "unitedstatespostalservice-a77078", "operator": "United States Postal Service", "operator:short": "USPS", "operator:type": "public", "operator:wikidata": "Q668687", "ref": "0830200027"}, "type": "Feature"}
{"geometry": {"coordinates": [-75.2350586, 39.429018], "type": "Point"}, "id": "hsfpGacETYyNpt7x7eqhwom7UQQ=", "properties": {"@source_uri": "https://tools.usps.com/UspsToolsRestServices/rest/POLocator/findLocations", "@spider": "usps_collection_boxes", "addr:city": "BRIDGETON", "addr:country": "US", "addr:postcode": "08302", "addr:state": "NJ", "addr:street_address": "40 E COMMERCE ST", "amenity": "post_box", "collection_times": "Mo-Fr 17:00; Sa 12:30", "note": "ON 12/24 AND 12/31, THIS BOX MAY BE COLLECTED AS EARLY AS 12 NOON.", "nsi_id": "unitedstatespostalservice-a77078", "operator": "United States Postal Service", "operator:short": "USPS", "operator:type": "public", "operator:wikidata": "Q668687", "ref": "0830200028"}, "type": "Feature"}
{"geometry": {"coordinates": [-75.2464623, 39.441092], "type": "Point"}, "id": "IQ4JY0AwZwfi1ZeCwbA1hQwMUhI=", "properties": {"@source_uri": "https://tools.usps.com/UspsToolsRestServices/rest/POLocator/findLocations", "@spider": "usps_collection_boxes", "addr:city": "BRIDGETON", "addr:country": "US", "addr:postcode": "08302", "addr:state": "NJ", "addr:street_address": "226 N WEST AVE", "amenity": "post_box", "collection_times": "Mo-Sa 14:00", "note": "ON 12/24 AND 12/31, THIS BOX MAY BE COLLECTED AS EARLY AS 12 NOON.", "nsi_id": "unitedstatespostalservice-a77078", "operator": "United States Postal Service", "operator:short": "USPS", "operator:type": "public", "operator:wikidata": "Q668687", "ref": "0830200031"}, "type": "Feature"}
{"geometry": {"coordinates": [-75.2631884, 39.438493], "type": "Point"}, "id": "siIk6rkGrmlju506LPF-Q2q5G9w=", "properties": {"@source_uri": "https://tools.usps.com/UspsToolsRestServices/rest/POLocator/findLocations", "@spider": "usps_collection_boxes", "addr:city": "BRIDGETON", "addr:country": "US", "addr:postcode": "08302", "addr:state": "NJ", "addr:street_address": "590 SHILOH PIKE", "amenity": "post_box", "collection_times": "Mo-Fr 13:00; Sa 13:30", "note": "ON 12/24 AND 12/31, THIS BOX MAY BE COLLECTED AS EARLY AS 12 NOON.", "nsi_id": "unitedstatespostalservice-a77078", "operator": "United States Postal Service", "operator:short": "USPS", "operator:type": "public", "operator:wikidata": "Q668687", "ref": "0830200032"}, "type": "Feature"}
{"geometry": {"coordinates": [-75.2320674, 39.4500967], "type": "Point"}, "id": "3IkZY8icY9X9ubhLQVase9twDtM=", "properties": {"@source_uri": "https://tools.usps.com/UspsToolsRestServices/rest/POLocator/findLocations", "@spider": "usps_collection_boxes", "addr:city": "BRIDGETON", "addr:country": "US", "addr:postcode": "08302", "addr:state": "NJ", "addr:street_address": "402 VINE ST", "amenity": "post_box", "collection_times": "Mo-Fr 12:45; Sa 13:30", "note": "ON 12/24 AND 12/31, THIS BOX MAY BE COLLECTED AS EARLY AS 12 NOON.", "nsi_id": "unitedstatespostalservice-a77078", "operator": "United States Postal Service", "operator:short": "USPS", "operator:type": "public", "operator:wikidata": "Q668687", "ref": "0830200033"}, "type": "Feature"}
{"geometry": {"coordinates": [-75.240141, 39.428127], "type": "Point"}, "id": "_Vl_5i4qoFq4g1s7IrCKG6yTm1A=", "properties": {"@source_uri": "https://tools.usps.com/UspsToolsRestServices/rest/POLocator/findLocations", "@spider": "usps_collection_boxes", "addr:city": "BRIDGETON", "addr:country": "US", "addr:postcode": "08302", "addr:state": "NJ", "addr:street_address": "102 W BROAD ST", "amenity": "post_box", "collection_times": "Mo-Fr 17:15; Sa 16:00", "note": "ON 12/24 AND 12/31, THIS BOX MAY BE COLLECTED AS EARLY AS 12 NOON.", "nsi_id": "unitedstatespostalservice-a77078", "operator": "United States Postal Service", "operator:short": "USPS", "operator:type": "public", "operator:wikidata": "Q668687", "ref": "0830200038"}, "type": "Feature"}
{"geometry": {"coordinates": [-75.2161441, 39.439775], "type": "Point"}, "id": "93Y2TcNyzRWt6mFk6_kXEkSthQk=", "properties": {"@source_uri": "https://tools.usps.com/UspsToolsRestServices/rest/POLocator/findLocations", "@spider": "usps_collection_boxes", "addr:city": "BRIDGETON", "addr:country": "US", "addr:postcode": "08302", "addr:state": "NJ", "addr:street_address": "1 RIDGE AVE", "amenity": "post_box", "collection_times": "Mo-Sa 13:00", "note": "ON 12/24 AND 12/31, THIS BOX MAY BE COLLECTED AS EARLY AS 12 NOON.", "nsi_id": "unitedstatespostalservice-a77078", "operator": "United States Postal Service", "operator:short": "USPS", "operator:type": "public", "operator:wikidata": "Q668687", "ref": "0830200039"}, "type": "Feature"}
{"geometry": {"coordinates": [-75.234437, 39.426451], "type": "Point"}, "id": "FUIKbrixuWxvaveyXR6ZfFBYNaw=", "properties": {"@source_uri": "https://tools.usps.com/UspsToolsRestServices/rest/POLocator/findLocations", "@spider": "usps_collection_boxes", "addr:city": "BRIDGETON", "addr:country": "US", "addr:postcode": "08302", "addr:state": "NJ", "addr:street_address": "40 E BROAD ST", "amenity": "post_box", "collection_times": "Mo-Fr 16:30", "note": "ON 12/24 AND 12/31, THIS BOX MAY BE COLLECTED AS EARLY AS 12 NOON.", "nsi_id": "unitedstatespostalservice-a77078", "operator": "United States Postal Service", "operator:short": "USPS", "operator:type": "public", "operator:wikidata": "Q668687", "ref": "0830200044"}, "type": "Feature"}
{"geometry": {"coordinates": [-75.240108, 39.428147], "type": "Point"}, "id": "tr9m_J9NZBhr6pJA27KpvFqCuNo=", "properties": {"@source_uri": "https://tools.usps.com/UspsToolsRestServices/rest/POLocator/findLocations", "@spider": "usps_collection_boxes", "addr:city": "BRIDGETON", "addr:country": "US", "addr:postcode": "08302", "addr:state": "NJ", "addr:street_address": "102 W BROAD ST", "amenity": "post_box", "collection_times": "Mo-Fr 17:15; Sa 16:00", "indoor": "yes", "note": "ON 12/24 AND 12/31, THIS BOX MAY BE COLLECTED AS EARLY AS 12 NOON.", "nsi_id": "unitedstatespostalservice-a77078", "operator": "United States Postal Service", "operator:short": "USPS", "operator:type": "public", "operator:wikidata": "Q668687", "ref": "0830200049"}, "type": "Feature"}
{"geometry": {"coordinates": [-75.2305273, 39.453417], "type": "Point"}, "id": "VtnMRVZlKSuXoYpbEj5IhyJcZEY=", "properties": {"@source_uri": "https://tools.usps.com/UspsToolsRestServices/rest/POLocator/findLocations", "@spider": "usps_collection_boxes", "addr:city": "BRIDGETON", "addr:country": "US", "addr:postcode": "08302", "addr:state": "NJ", "addr:street_address": "225 LAUREL HEIGHTS DR", "amenity": "post_box", "collection_times": "Mo-Fr 14:00; Sa 13:00", "note": "ON 12/24 AND 12/31, THIS BOX MAY BE COLLECTED AS EARLY AS 12 NOON.", "nsi_id": "unitedstatespostalservice-a77078", "operator": "United States Postal Service", "operator:short": "USPS", "operator:type": "public", "operator:wikidata": "Q668687", "ref": "0830200050"}, "type": "Feature"}
{"geometry": {"coordinates": [-75.240340432, 39.428169049], "type": "Point"}, "id": "qRIdkKtVrjCj99xa6um_N3DbCJU=", "properties": {"@source_uri": "https://tools.usps.com/UspsToolsRestServices/rest/POLocator/findLocations", "@spider": "usps_collection_boxes", "addr:city": "BRIDGETON", "addr:country": "US", "addr:postcode": "08302", "addr:state": "NJ", "addr:street_address": "102 W BROAD ST", "amenity": "post_box", "collection_times": "Mo-Fr 17:00; Sa 12:15", "indoor": "yes", "note": "ON 12/24 AND 12/31, THIS BOX MAY BE COLLECTED AS EARLY AS 12 NOON.", "nsi_id": "unitedstatespostalservice-a77078", "operator": "United States Postal Service", "operator:short": "USPS", "operator:type": "public", "operator:wikidata": "Q668687", "ref": "0830200070"}, "type": "Feature"}
{"geometry": {"coordinates": [-74.907724, 39.506408], "type": "Point"}, "id": "DtIcW-pN8uTwMgHHcQg_DitwzhI=", "properties": {"@source_uri": "https://tools.usps.com/UspsToolsRestServices/rest/POLocator/findLocations", "@spider": "usps_collection_boxes", "addr:city": "BUENA", "addr:country": "US", "addr:postcode": "08310", "addr:state": "NJ", "addr:street_address": "896 HARDING HWY", "amenity": "post_box", "collection_times": "Mo-Fr 16:45; Sa 12:45", "note": "ON 12/24 AND 12/31, THIS BOX MAY BE COLLECTED AS EARLY AS 12 NOON.", "nsi_id": "unitedstatespostalservice-a77078", "operator": "United States Postal Service", "operator:short": "USPS", "operator:type": "public", "operator:wikidata": "Q668687", "ref": "0831000001"}, "type": "Feature"}
{"geometry": {"coordinates": [-74.907797, 39.506467], "type": "Point"}, "id": "Zy8ju38bNnz5X-AJ_dQfC8oXD5Y=", "properties": {"@source_uri": "https://tools.usps.com/UspsToolsRestServices/rest/POLocator/findLocations", "@spider": "usps_collection_boxes", "addr:city": "BUENA", "addr:country": "US", "addr:postcode": "08310", "addr:state": "NJ", "addr:street_address": "896 HARDING HWY", "amenity": "post_box", "collection_times": "Mo-Fr 16:45; Sa 12:45", "indoor": "yes", "note": "ON 12/24 AND 12/31, THIS BOX MAY BE COLLECTED AS EARLY AS 12 NOON.", "nsi_id": "unitedstatespostalservice-a77078", "operator": "United States Postal Service", "operator:short": "USPS", "operator:type": "public", "operator:wikidata": "Q668687", "ref": "0831000002"}, "type": "Feature"}
{"geometry": {"coordinates": [-74.907953315, 39.506486664], "type": "Point"}, "id": "LNjr4RixZB1IJyp9RUSmUcpYVz0=", "properties": {"@source_uri": "https://tools.usps.com/UspsToolsRestServices/rest/POLocator/findLocations", "@spider": "usps_collection_boxes", "addr:city": "BUENA", "addr:country": "US", "addr:postcode": "08310", "addr:state": "NJ", "addr:street_address": "896 HARDING HWY", "amenity": "post_box", "collection_times": "Mo-Fr 17:00; Sa 13:00", "indoor": "yes", "note": "ON 12/24 AND 12/31, THIS BOX MAY BE COLLECTED AS EARLY AS 12 NOON.", "nsi_id": "unitedstatespostalservice-a77078", "operator": "United States Postal Service", "operator:short": "USPS", "operator:type": "public", "operator:wikidata": "Q668687", "ref": "0831000005"}, "type": "Feature"}
{"geometry": {"coordinates": [-75.200666, 39.332783], "type": "Point"}, "id": "pCqccD2Nw9_-8EqStXA54sOImfI=", "properties": {"@source_uri": "https://tools.usps.com/UspsToolsRestServices/rest/POLocator/findLocations", "@spider": "usps_collection_boxes", "addr:city": "CEDARVILLE", "addr:country": "US", "addr:postcode": "08311", "addr:state": "NJ", "addr:street_address": "343 MAIN ST", "amenity": "post_box", "collection_times": "Mo-Fr 16:45; Sa 11:15", "note": "ON 12/24 AND 12/31, THIS BOX MAY BE COLLECTED AS EARLY AS 12 NOON.", "nsi_id": "unitedstatespostalservice-a77078", "operator": "United States Postal Service", "operator:short": "USPS", "operator:type": "public", "operator:wikidata": "Q668687", "ref": "0831100001"}, "type": "Feature"}
{"geometry": {"coordinates": [-75.200648, 39.332732], "type": "Point"}, "id": "ENBiFe-YXyTjICsELyEeRHA1V-U=", "properties": {"@source_uri": "https://tools.usps.com/UspsToolsRestServices/rest/POLocator/findLocations", "@spider": "usps_collection_boxes", "addr:city": "CEDARVILLE", "addr:country": "US", "addr:postcode": "08311", "addr:state": "NJ", "addr:street_address": "343 MAIN ST", "amenity": "post_box", "collection_times": "Mo-Fr 17:00; Sa 11:30", "indoor": "yes", "note": "ON 12/24 AND 12/31, THIS BOX MAY BE COLLECTED AS EARLY AS 12 NOON.", "nsi_id": "unitedstatespostalservice-a77078", "operator": "United States Postal Service", "operator:short": "USPS", "operator:type": "public", "operator:wikidata": "Q668687", "ref": "0831100002"}, "type": "Feature"}
{"geometry": {"coordinates": [-75.200643893, 39.332797916], "type": "Point"}, "id": "p72tC5Lx5WzEgf1jfIC-lHt8OmM=", "properties": {"@source_uri": "https://tools.usps.com/UspsToolsRestServices/rest/POLocator/findLocations", "@spider": "usps_collection_boxes", "addr:city": "CEDARVILLE", "addr:country": "US", "addr:postcode": "08311", "addr:state": "NJ", "addr:street_address": "343 MAIN ST", "amenity": "post_box", "collection_times": "Mo-Fr 17:00; Sa 11:30", "indoor": "yes", "note": "ON 12/24 AND 12/31, THIS BOX MAY BE COLLECTED AS EARLY AS 12 NOON.", "nsi_id": "unitedstatespostalservice-a77078", "operator": "United States Postal Service", "operator:short": "USPS", "operator:type": "public", "operator:wikidata": "Q668687", "ref": "0831100005"}, "type": "Feature"}
{"geometry": {"coordinates": [-75.091133, 39.655883], "type": "Point"}, "id": "s_f2wpcovhmcZbtIVg3oP5p8Bpg=", "properties": {"@source_uri": "https://tools.usps.com/UspsToolsRestServices/rest/POLocator/findLocations", "@spider": "usps_collection_boxes", "addr:city": "CLAYTON", "addr:country": "US", "addr:postcode": "08312", "addr:state": "NJ", "addr:street_address": "29 N DELSEA DR", "amenity": "post_box", "collection_times": "Mo-Sa 10:00", "nsi_id": "unitedstatespostalservice-a77078", "operator": "United States Postal Service", "operator:short": "USPS", "operator:type": "public", "operator:wikidata": "Q668687", "ref": "0831200005"}, "type": "Feature"}
{"geometry": {"coordinates": [-75.093451, 39.66415], "type": "Point"}, "id": "qG0BEpNaLNBZzm60GLOxCMYVWYk=", "properties": {"@source_uri": "https://tools.usps.com/UspsToolsRestServices/rest/POLocator/findLocations", "@spider": "usps_collection_boxes", "addr:city": "CLAYTON", "addr:country": "US", "addr:postcode": "08312", "addr:state": "NJ", "addr:street_address": "732 N DELSEA DR", "amenity": "post_box", "collection_times": "Mo-Fr 17:00; Sa 12:00", "note": "ON 12/24 AND 12/31, THIS BOX MAY BE COLLECTED AS EARLY AS 12 NOON.", "nsi_id": "unitedstatespostalservice-a77078", "operator": "United States Postal Service", "operator:short": "USPS", "operator:type": "public", "operator:wikidata": "Q668687", "ref": "0831200007"}, "type": "Feature"}
{"geometry": {"coordinates": [-75.093409, 39.664125], "type": "Point"}, "id": "eLXwJuCGXxILkRhGLqrb4Xa0WjE=", "properties": {"@source_uri": "https://tools.usps.com/UspsToolsRestServices/rest/POLocator/findLocations", "@spider": "usps_collection_boxes", "addr:city": "CLAYTON", "addr:country": "US", "addr:postcode": "08312", "addr:state": "NJ", "addr:street_address": "732 N DELSEA DR", "amenity": "post_box", "collection_times": "Mo-Fr 17:00; Sa 12:00", "indoor": "yes", "note": "ON 12/24 AND 12/31, THIS BOX MAY BE COLLECTED AS EARLY AS 12 NOON.", "nsi_id": "unitedstatespostalservice-a77078", "operator": "United States Postal Service", "operator:short": "USPS", "operator:type": "public", "operator:wikidata": "Q668687", "ref": "0831200009"}, "type": "Feature"}
{"geometry": {"coordinates": [-75.0937277, 39.665122827], "type": "Point"}, "id": "ziSP49ure_hiJ-yJXI19vD69Rr0=", "properties": {"@source_uri": "https://tools.usps.com/UspsToolsRestServices/rest/POLocator/findLocations", "@spider": "usps_collection_boxes", "addr:city": "CLAYTON", "addr:country": "US", "addr:postcode": "08312", "addr:state": "NJ", "addr:street_address": "732 N DELSEA DR", "amenity": "post_box", "collection_times": "Mo-Fr 17:00; Sa 12:00", "indoor": "yes", "note": "ON 12/24 AND 12/31, THIS BOX MAY BE COLLECTED AS EARLY AS 12 NOON.", "nsi_id": "unitedstatespostalservice-a77078", "operator": "United States Postal Service", "operator:short": "USPS", "operator:type": "public", "operator:wikidata": "Q668687", "ref": "0831200012"}, "type": "Feature"}
{"geometry": {"coordinates": [-75.2361309599, 39.523415989], "type": "Point"}, "id": "t4yaXev_oBKss1Zgq_O_kwHoP0g=", "properties": {"@source_uri": "https://tools.usps.com/UspsToolsRestServices/rest/POLocator/findLocations", "@spider": "usps_collection_boxes", "addr:city": "DEERFIELD STREET", "addr:country": "US", "addr:postcode": "08313", "addr:state": "NJ", "addr:street_address": "1542 ROUTE 77", "amenity": "post_box", "collection_times": "Mo-Fr 16:30; Sa 11:45", "note": "ON 12/24 AND 12/31, THIS BOX MAY BE COLLECTED AS EARLY AS 12 NOON.", "nsi_id": "unitedstatespostalservice-a77078", "operator": "United States Postal Service", "operator:short": "USPS", "operator:type": "public", "operator:wikidata": "Q668687", "ref": "0831300001"}, "type": "Feature"}
{"geometry": {"coordinates": [-75.2348757, 39.5213201], "type": "Point"}, "id": "gPW1ElRlewpCovJUVhgEayHo2zk=", "properties": {"@source_uri": "https://tools.usps.com/UspsToolsRestServices/rest/POLocator/findLocations", "@spider": "usps_collection_boxes", "addr:city": "DEERFIELD STREET", "addr:country": "US", "addr:postcode": "08313", "addr:state": "NJ", "addr:street_address": "1542 ROUTE 77", "amenity": "post_box", "collection_times": "Mo-Fr 16:30; Sa 11:45", "indoor": "yes", "note": "ON 12/24 AND 12/31, THIS BOX MAY BE COLLECTED AS EARLY AS 12 NOON.", "nsi_id": "unitedstatespostalservice-a77078", "operator": "United States Postal Service", "operator:short": "USPS", "operator:type": "public", "operator:wikidata": "Q668687", "ref": "0831300002"}, "type": "Feature"}
{"geometry": {"coordinates": [-75.2348757, 39.5213201], "type": "Point"}, "id": "EAp3jqTM-_6BFbyhUHAsCqFCCBI=", "properties": {"@source_uri": "https://tools.usps.com/UspsToolsRestServices/rest/POLocator/findLocations", "@spider": "usps_collection_boxes", "addr:city": "DEERFIELD STREET", "addr:country": "US", "addr:postcode": "08313", "addr:state": "NJ", "addr:street_address": "1542 ROUTE 77", "amenity": "post_box", "collection_times": "Mo-Fr 16:30; Sa 12:00", "indoor": "yes", "note": "ON 12/24 AND 12/31, THIS BOX MAY BE COLLECTED AS EARLY AS 12 NOON.", "nsi_id": "unitedstatespostalservice-a77078", "operator": "United States Postal Service", "operator:short": "USPS", "operator:type": "public", "operator:wikidata": "Q668687", "ref": "0831300005"}, "type": "Feature"}
{"geometry": {"coordinates": [-74.951042, 39.213997], "type": "Point"}, "id": "H_ECa9Yi2A8muovcr_vGxBw3aX4=", "properties": {"@source_uri": "https://tools.usps.com/UspsToolsRestServices/rest/POLocator/findLocations", "@spider": "usps_collection_boxes", "addr:city": "DELMONT", "addr:country": "US", "addr:postcode": "08314", "addr:state": "NJ", "addr:street_address": "4507 ROUTE 47", "amenity": "post_box", "collection_times": "Mo-Fr 16:15; Sa 11:15", "note": "ON 12/24 AND 12/31, THIS BOX MAY BE COLLECTED AS EARLY AS 12 NOON.", "nsi_id": "unitedstatespostalservice-a77078", "operator": "United States Postal Service", "operator:short": "USPS", "operator:type": "public", "operator:wikidata": "Q668687", "ref": "0831400001"}, "type": "Feature"}
{"geometry": {"coordinates": [-74.951149, 39.213952], "type": "Point"}, "id": "6V_XNUKKhZ6Q8VuACBzVpe_ehRg=", "properties": {"@source_uri": "https://tools.usps.com/UspsToolsRestServices/rest/POLocator/findLocations", "@spider": "usps_collection_boxes", "addr:city": "DELMONT", "addr:country": "US", "addr:postcode": "08314", "addr:state": "NJ", "addr:street_address": "4507 ROUTE 47", "amenity": "post_box", "collection_times": "Mo-Fr 16:15; Sa 11:15", "indoor": "yes", "note": "ON 12/24 AND 12/31, THIS BOX MAY BE COLLECTED AS EARLY AS 12 NOON.", "nsi_id": "unitedstatespostalservice-a77078", "operator": "United States Postal Service", "operator:short": "USPS", "operator:type": "public", "operator:wikidata": "Q668687", "ref": "0831400002"}, "type": "Feature"}
{"geometry": {"coordinates": [-74.950915399, 39.214016242], "type": "Point"}, "id": "7fFhLkcra3tOEifctyxJjXCOByo=", "properties": {"@source_uri": "https://tools.usps.com/UspsToolsRestServices/rest/POLocator/findLocations", "@spider": "usps_collection_boxes", "addr:city": "DELMONT", "addr:country": "US", "addr:postcode": "08314", "addr:state": "NJ", "addr:street_address": "4507 ROUTE 47", "amenity": "post_box", "collection_times": "Mo-Fr 17:00; Sa 12:00", "indoor": "yes", "note": "ON 12/24 AND 12/31, THIS BOX MAY BE COLLECTED AS EARLY AS 12 NOON.", "nsi_id": "unitedstatespostalservice-a77078", "operator": "United States Postal Service", "operator:short": "USPS", "operator:type": "public", "operator:wikidata": "Q668687", "ref": "0831400005"}, "type": "Feature"}
{"geometry": {"coordinates": [-75.101015, 39.271302], "type": "Point"}, "id": "ttScKbuqTlEqsyvhIMHcVTJM0wQ=", "properties": {"@source_uri": "https://tools.usps.com/UspsToolsRestServices/rest/POLocator/findLocations", "@spider": "usps_collection_boxes", "addr:city": "DIVIDING CREEK", "addr:country": "US", "addr:postcode": "08315", "addr:state": "NJ", "addr:street_address": "918 UNION ST", "amenity": "post_box", "collection_times": "Mo-Fr 11:45; Sa 11:30", "nsi_id": "unitedstatespostalservice-a77078", "operator": "United States Postal Service", "operator:short": "USPS", "operator:type": "public", "operator:wikidata": "Q668687", "ref": "0831500002"}, "type": "Feature"}
{"geometry": {"coordinates": [-75.100801026, 39.271434983], "type": "Point"}, "id": "JNeG8QW_IQsrW6fz4GLDKfmdLso=", "properties": {"@source_uri": "https://tools.usps.com/UspsToolsRestServices/rest/POLocator/findLocations", "@spider": "usps_collection_boxes", "addr:city": "DIVIDING CREEK", "addr:country": "US", "addr:postcode": "08315", "addr:state": "NJ", "addr:street_address": "918 UNION ST", "amenity": "post_box", "collection_times": "Mo-Fr 11:45; Sa 11:30", "indoor": "yes", "nsi_id": "unitedstatespostalservice-a77078", "operator": "United States Postal Service", "operator:short": "USPS", "operator:type": "public", "operator:wikidata": "Q668687", "ref": "0831500003"}, "type": "Feature"}
{"geometry": {"coordinates": [-75.100801026, 39.271434983], "type": "Point"}, "id": "fFNLNTZ3ZlzPaVvBeD9dNZU3GSg=", "properties": {"@source_uri": "https://tools.usps.com/UspsToolsRestServices/rest/POLocator/findLocations", "@spider": "usps_collection_boxes", "addr:city": "DIVIDING CREEK", "addr:country": "US", "addr:postcode": "08315", "addr:state": "NJ", "addr:street_address": "918 UNION ST", "amenity": "post_box", "collection_times": "Mo-Fr 11:45; Sa 12:00", "indoor": "yes", "nsi_id": "unitedstatespostalservice-a77078", "operator": "United States Postal Service", "operator:short": "USPS", "operator:type": "public", "operator:wikidata": "Q668687", "ref": "0831500006"}, "type": "Feature"}
{"geometry": {"coordinates": [-74.973838, 39.272583], "type": "Point"}, "id": "7ilI2o7_4BEuLQfBUJLbc2b15u0=", "properties": {"@source_uri": "https://tools.usps.com/UspsToolsRestServices/rest/POLocator/findLocations", "@spider": "usps_collection_boxes", "addr:city": "DORCHESTER", "addr:country": "US", "addr:postcode": "08316", "addr:state": "NJ", "addr:street_address": "239 CARLISLE PLACE RD", "amenity": "post_box", "collection_times": "Mo-Fr 16:15; Sa 11:45", "note": "ON 12/24 AND 12/31, THIS BOX MAY BE COLLECTED AS EARLY AS 12 NOON.", "nsi_id": "unitedstatespostalservice-a77078", "operator": "United States Postal Service", "operator:short": "USPS", "operator:type": "public", "operator:wikidata": "Q668687", "ref": "0831600001"}, "type": "Feature"}
{"geometry": {"coordinates": [-74.974125552, 39.272540671], "type": "Point"}, "id": "V_p9U3CTRCUvoWBAWK06xuMURTo=", "properties": {"@source_uri": "https://tools.usps.com/UspsToolsRestServices/rest/POLocator/findLocations", "@spider": "usps_collection_boxes", "addr:city": "DORCHESTER", "addr:country": "US", "addr:postcode": "08316", "addr:state": "NJ", "addr:street_address": "239 CARLISLE PLACE RD", "amenity": "post_box", "collection_times": "Mo-Fr 16:15; Sa 11:45", "indoor": "yes", "note": "ON 12/24 AND 12/31, THIS BOX MAY BE COLLECTED AS EARLY AS 12 NOON.", "nsi_id": "unitedstatespostalservice-a77078", "operator": "United States Postal Service", "operator:short": "USPS", "operator:type": "public", "operator:wikidata": "Q668687", "ref": "0831600002"}, "type": "Feature"}
{"geometry": {"coordinates": [-74.974125552, 39.272540671], "type": "Point"}, "id": "6xu1gW_vApc8Uix-jri20nDoWIg=", "properties": {"@source_uri": "https://tools.usps.com/UspsToolsRestServices/rest/POLocator/findLocations", "@spider": "usps_collection_boxes", "addr:city": "DORCHESTER", "addr:country": "US", "addr:postcode": "08316", "addr:state": "NJ", "addr:street_address": "239 CARLISLE PLACE RD", "amenity": "post_box", "collection_times": "Mo-Fr 16:15; Sa 12:00", "indoor": "yes", "note": "ON 12/24 AND 12/31, THIS BOX MAY BE COLLECTED AS EARLY AS 12 NOON.", "nsi_id": "unitedstatespostalservice-a77078", "operator": "United States Postal Service", "operator:short": "USPS", "operator:type": "public", "operator:wikidata": "Q668687", "ref": "0831600005"}, "type": "Feature"}
{"geometry": {"coordinates": [-74.829566, 39.40719], "type": "Point"}, "id": "35IYIHo4IhvllM9JsspMauX_0t0=", "properties": {"@source_uri": "https://tools.usps.com/UspsToolsRestServices/rest/POLocator/findLocations", "@spider": "usps_collection_boxes", "addr:city": "DOROTHY", "addr:country": "US", "addr:postcode": "08317", "addr:state": "NJ", "addr:street_address": "42 TUCKAHOE RD", "amenity": "post_box", "collection_times": "Mo-Fr 16:30; Sa 12:00", "note": "ON 12/24 AND 12/31, THIS BOX MAY BE COLLECTED AS EARLY AS 12 NOON.", "nsi_id": "unitedstatespostalservice-a77078", "operator": "United States Postal Service", "operator:short": "USPS", "operator:type": "public", "operator:wikidata": "Q668687", "ref": "0831700001"}, "type": "Feature"}
{"geometry": {"coordinates": [-74.829566, 39.40719], "type": "Point"}, "id": "9j70ybKPeb8B5fcXE_tFDw80oVc=", "properties": {"@source_uri": "https://tools.usps.com/UspsToolsRestServices/rest/POLocator/findLocations", "@spider": "usps_collection_boxes", "addr:city": "DOROTHY", "addr:country": "US", "addr:postcode": "08317", "addr:state": "NJ", "addr:street_address": "42 TUCKAHOE RD", "amenity": "post_box", "collection_times": "Mo-Fr 16:30; Sa 12:00", "indoor": "yes", "note": "ON 12/24 AND 12/31, THIS BOX MAY BE COLLECTED AS EARLY AS 12 NOON.", "nsi_id": "unitedstatespostalservice-a77078", "operator": "United States Postal Service", "operator:short": "USPS", "operator:type": "public", "operator:wikidata": "Q668687", "ref": "0831700003"}, "type": "Feature"}
{"geometry": {"coordinates": [-75.1768427, 39.601519], "type": "Point"}, "id": "a9avigasdTxUO3K4EE_CVCMNQHQ=", "properties": {"@source_uri": "https://tools.usps.com/UspsToolsRestServices/rest/POLocator/findLocations", "@spider": "usps_collection_boxes", "addr:city": "ELMER", "addr:country": "US", "addr:postcode": "08318", "addr:state": "NJ", "addr:street_address": "625 N MAIN ST", "amenity": "post_box", "collection_times": "Mo-Fr 16:45; Sa 14:30", "note": "ON 12/24 AND 12/31, THIS BOX MAY BE COLLECTED AS EARLY AS 12 NOON.", "nsi_id": "unitedstatespostalservice-a77078", "operator": "United States Postal Service", "operator:short": "USPS", "operator:type": "public", "operator:wikidata": "Q668687", "ref": "0831800001"}, "type": "Feature"}
{"geometry": {"coordinates": [-75.1763609, 39.601574], "type": "Point"}, "id": "qoK8gSsugK1a3CMwf633B_rsUSc=", "properties": {"@source_uri": "https://tools.usps.com/UspsToolsRestServices/rest/POLocator/findLocations", "@spider": "usps_collection_boxes", "addr:city": "ELMER", "addr:country": "US", "addr:postcode": "08318", "addr:state": "NJ", "addr:street_address": "625 N MAIN ST", "amenity": "post_box", "collection_times": "Mo-Fr 16:45; Sa 14:30", "indoor": "yes", "note": "ON 12/24 AND 12/31, THIS BOX MAY BE COLLECTED AS EARLY AS 12 NOON.", "nsi_id": "unitedstatespostalservice-a77078", "operator": "United States Postal Service", "operator:short": "USPS", "operator:type": "public", "operator:wikidata": "Q668687", "ref": "0831800005"}, "type": "Feature"}
{"geometry": {"coordinates": [-75.1764077, 39.601547], "type": "Point"}, "id": "JIuYkEGfdyMtT1Ij0j33kR0gXPU=", "properties": {"@source_uri": "https://tools.usps.com/UspsToolsRestServices/rest/POLocator/findLocations", "@spider": "usps_collection_boxes", "addr:city": "ELMER", "addr:country": "US", "addr:postcode": "08318", "addr:state": "NJ", "addr:street_address": "625 N MAIN ST", "amenity": "post_box", "collection_times": "Mo-Fr 16:45; Sa 14:30", "indoor": "yes", "note": "ON 12/24 AND 12/31, THIS BOX MAY BE COLLECTED AS EARLY AS 12 NOON.", "nsi_id": "unitedstatespostalservice-a77078", "operator": "United States Postal Service", "operator:short": "USPS", "operator:type": "public", "operator:wikidata": "Q668687", "ref": "0831800006"}, "type": "Feature"}
{"geometry": {"coordinates": [-75.176283, 39.600593], "type": "Point"}, "id": "15egon2qC6qmU5Ycborsgn0auC8=", "properties": {"@source_uri": "https://tools.usps.com/UspsToolsRestServices/rest/POLocator/findLocations", "@spider": "usps_collection_boxes", "addr:city": "ELMER", "addr:country": "US", "addr:postcode": "08318", "addr:state": "NJ", "addr:street_address": "625 N MAIN ST", "amenity": "post_box", "collection_times": "Mo-Fr 16:45; Sa 14:30", "indoor": "yes", "note": "ON 12/24 AND 12/31, THIS BOX MAY BE COLLECTED AS EARLY AS 12 NOON.", "nsi_id": "unitedstatespostalservice-a77078", "operator": "United States Postal Service", "operator:short": "USPS", "operator:type": "public", "operator:wikidata": "Q668687", "ref": "0831800007"}, "type": "Feature"}
{"geometry": {"coordinates": [-75.176804482, 39.601057303], "type": "Point"}, "id": "sFS0XbAcVEoXYt3JTa3j8WI2KSM=", "properties": {"@source_uri": "https://tools.usps.com/UspsToolsRestServices/rest/POLocator/findLocations", "@spider": "usps_collection_boxes", "addr:city": "ELMER", "addr:country": "US", "addr:postcode": "08318", "addr:state": "NJ", "addr:street_address": "625 N MAIN ST", "amenity": "post_box", "collection_times": "Mo-Fr 17:00; Sa 12:30", "indoor": "yes", "note": "ON 12/24 AND 12/31, THIS BOX MAY BE COLLECTED AS EARLY AS 12 NOON.", "nsi_id": "unitedstatespostalservice-a77078", "operator": "United States Postal Service", "operator:short": "USPS", "operator:type": "public", "operator:wikidata": "Q668687", "ref": "0831800011"}, "type": "Feature"}
{"geometry": {"coordinates": [-74.805888, 39.37916], "type": "Point"}, "id": "fqH40kvumr0GpW8DwO3eOIJ_bPQ=", "properties": {"@source_uri": "https://tools.usps.com/UspsToolsRestServices/rest/POLocator/findLocations", "@spider": "usps_collection_boxes", "addr:city": "ESTELL MANOR", "addr:country": "US", "addr:postcode": "08319", "addr:state": "NJ", "addr:street_address": "156 TUCKAHOE RD", "amenity": "post_box", "collection_times": "Mo-Fr 16:30; Sa 11:45", "note": "ON 12/24 AND 12/31, THIS BOX MAY BE COLLECTED AS EARLY AS 12 NOON.", "nsi_id": "unitedstatespostalservice-a77078", "operator": "United States Postal Service", "operator:short": "USPS", "operator:type": "public", "operator:wikidata": "Q668687", "ref": "0831900001"}, "type": "Feature"}
{"geometry": {"coordinates": [-74.8059, 39.379225], "type": "Point"}, "id": "WrcaLOn2Ebm9-Nrulr3uddbfjI4=", "properties": {"@source_uri": "https://tools.usps.com/UspsToolsRestServices/rest/POLocator/findLocations", "@spider": "usps_collection_boxes", "addr:city": "ESTELL MANOR", "addr:country": "US", "addr:postcode": "08319", "addr:state": "NJ", "addr:street_address": "156 TUCKAHOE RD", "amenity": "post_box", "collection_times": "Mo-Fr 16:30; Sa 11:45", "indoor": "yes", "note": "ON 12/24 AND 12/31, THIS BOX MAY BE COLLECTED AS EARLY AS 12 NOON.", "nsi_id": "unitedstatespostalservice-a77078", "operator": "United States Postal Service", "operator:short": "USPS", "operator:type": "public", "operator:wikidata": "Q668687", "ref": "0831900002"}, "type": "Feature"}
{"geometry": {"coordinates": [-75.222581, 39.38583], "type": "Point"}, "id": "lZoDdYqXSoDoxNYOTsnZyYVWsR8=", "properties": {"@source_uri": "https://tools.usps.com/UspsToolsRestServices/rest/POLocator/findLocations", "@spider": "usps_collection_boxes", "addr:city": "FAIRTON", "addr:country": "US", "addr:postcode": "08320", "addr:state": "NJ", "addr:street_address": "56 BRIDGETON FAIRTON RD", "amenity": "post_box", "collection_times": "Mo-Fr 16:30; Sa 11:00", "note": "ON 12/24 AND 12/31, THIS BOX MAY BE COLLECTED AS EARLY AS 12 NOON.", "nsi_id": "unitedstatespostalservice-a77078", "operator": "United States Postal Service", "operator:short": "USPS", "operator:type": "public", "operator:wikidata": "Q668687", "ref": "0832000001"}, "type": "Feature"}
{"geometry": {"coordinates": [-75.222581, 39.38583], "type": "Point"}, "id": "IX6YPX3LldjXHLrE8MuJ1enyFIs=", "properties": {"@source_uri": "https://tools.usps.com/UspsToolsRestServices/rest/POLocator/findLocations", "@spider": "usps_collection_boxes", "addr:city": "FAIRTON", "addr:country": "US", "addr:postcode": "08320", "addr:state": "NJ", "addr:street_address": "56 BRIDGETON FAIRTON RD", "amenity": "post_box", "collection_times": "Mo-Fr 16:30; Sa 11:00", "indoor": "yes", "note": "ON 12/24 AND 12/31, THIS BOX MAY BE COLLECTED AS EARLY AS 12 NOON.", "nsi_id": "unitedstatespostalservice-a77078", "operator": "United States Postal Service", "operator:short": "USPS", "operator:type": "public", "operator:wikidata": "Q668687", "ref": "0832000003"}, "type": "Feature"}
{"geometry": {"coordinates": [-75.163, 39.38559], "type": "Point"}, "id": "RzGsW_kTwYMB1RQ0_qpuxAQpAuA=", "properties": {"@source_uri": "https://tools.usps.com/UspsToolsRestServices/rest/POLocator/findLocations", "@spider": "usps_collection_boxes", "addr:city": "FAIRTON", "addr:country": "US", "addr:postcode": "08320", "addr:state": "NJ", "addr:street_address": "56 BRIDGETON FAIRTON RD", "amenity": "post_box", "collection_times": "Mo-Fr 16:45; Sa 12:00", "indoor": "yes", "note": "ON 12/24 AND 12/31, THIS BOX MAY BE COLLECTED AS EARLY AS 12 NOON.", "nsi_id": "unitedstatespostalservice-a77078", "operator": "United States Postal Service", "operator:short": "USPS", "operator:type": "public", "operator:wikidata": "Q668687", "ref": "0832000006"}, "type": "Feature"}
{"geometry": {"coordinates": [-75.17023, 39.238725], "type": "Point"}, "id": "L6l-MG9D4U_dFHQacHX1P2Xeako=", "properties": {"@source_uri": "https://tools.usps.com/UspsToolsRestServices/rest/POLocator/findLocations", "@spider": "usps_collection_boxes", "addr:city": "FORTESCUE", "addr:country": "US", "addr:postcode": "08321", "addr:state": "NJ", "addr:street_address": "880 DOWNE AVE", "amenity": "post_box", "collection_times": "Mo-Fr 15:30; Sa 10:30", "note": "ON 12/24 AND 12/31, THIS BOX MAY BE COLLECTED AS EARLY AS 12 NOON.", "nsi_id": "unitedstatespostalservice-a77078", "operator": "United States Postal Service", "operator:short": "USPS", "operator:type": "public", "operator:wikidata": "Q668687", "ref": "0832100001"}, "type": "Feature"}
{"geometry": {"coordinates": [-75.170233965, 39.238761746], "type": "Point"}, "id": "5yx1d5fbAiBlpF8xil0Ng_6amyQ=", "properties": {"@source_uri": "https://tools.usps.com/UspsToolsRestServices/rest/POLocator/findLocations", "@spider": "usps_collection_boxes", "addr:city": "FORTESCUE", "addr:country": "US", "addr:postcode": "08321", "addr:state": "NJ", "addr:street_address": "880 DOWNE AVE", "amenity": "post_box", "collection_times": "Mo-Fr 16:00; Sa 11:00", "indoor": "yes", "note": "ON 12/24 AND 12/31, THIS BOX MAY BE COLLECTED AS EARLY AS 12 NOON.", "nsi_id": "unitedstatespostalservice-a77078", "operator": "United States Postal Service", "operator:short": "USPS", "operator:type": "public", "operator:wikidata": "Q668687", "ref": "0832100004"}, "type": "Feature"}
{"geometry": {"coordinates": [-75.077187599, 39.615077831], "type": "Point"}, "id": "kQKPIF_DXF1taz_30o-qWrmBNw8=", "properties": {"@source_uri": "https://tools.usps.com/UspsToolsRestServices/rest/POLocator/findLocations", "@spider": "usps_collection_boxes", "addr:city": "FRANKLINVILLE", "addr:country": "US", "addr:postcode": "08322", "addr:state": "NJ", "addr:street_address": "2387 DELSEA DR", "amenity": "post_box", "collection_times": "Mo-Fr 17:00; Sa 12:00", "note": "ON 12/24 AND 12/31, THIS BOX MAY BE COLLECTED AS EARLY AS 12 NOON.", "nsi_id": "unitedstatespostalservice-a77078", "operator": "United States Postal Service", "operator:short": "USPS", "operator:type": "public", "operator:wikidata": "Q668687", "ref": "0832200003"}, "type": "Feature"}
{"geometry": {"coordinates": [-75.077187599, 39.615077831], "type": "Point"}, "id": "BDlATGncQ850T9U6mkVHFxC7S1c=", "properties": {"@source_uri": "https://tools.usps.com/UspsToolsRestServices/rest/POLocator/findLocations", "@spider": "usps_collection_boxes", "addr:city": "FRANKLINVILLE", "addr:country": "US", "addr:postcode": "08322", "addr:state": "NJ", "addr:street_address": "2387 DELSEA DR", "amenity": "post_box", "collection_times": "Mo-Fr 17:00; Sa 12:00", "indoor": "yes", "note": "ON 12/24 AND 12/31, THIS BOX MAY BE COLLECTED AS EARLY AS 12 NOON.", "nsi_id": "unitedstatespostalservice-a77078", "operator": "United States Postal Service", "operator:short": "USPS", "operator:type": "public", "operator:wikidata": "Q668687", "ref": "0832200004"}, "type": "Feature"}
{"geometry": {"coordinates": [-75.077187599, 39.615077831], "type": "Point"}, "id": "t7rkWo8Hs-3SUcHMzKyRBAVvGl0=", "properties": {"@source_uri": "https://tools.usps.com/UspsToolsRestServices/rest/POLocator/findLocations", "@spider": "usps_collection_boxes", "addr:city": "FRANKLINVILLE", "addr:country": "US", "addr:postcode": "08322", "addr:state": "NJ", "addr:street_address": "2387 DELSEA DR", "amenity": "post_box", "collection_times": "Mo-Fr 17:00; Sa 12:00", "indoor": "yes", "note": "ON 12/24 AND 12/31, THIS BOX MAY BE COLLECTED AS EARLY AS 12 NOON.", "nsi_id": "unitedstatespostalservice-a77078", "operator": "United States Postal Service", "operator:short": "USPS", "operator:type": "public", "operator:wikidata": "Q668687", "ref": "0832200008"}, "type": "Feature"}
{"geometry": {"coordinates": [-75.338382, 39.389045], "type": "Point"}, "id": "kwblKmzebOUIjL5rNI6ehGfhUr0=", "properties": {"@source_uri": "https://tools.usps.com/UspsToolsRestServices/rest/POLocator/findLocations", "@spider": "usps_collection_boxes", "addr:city": "GREENWICH", "addr:country": "US", "addr:postcode": "08323", "addr:state": "NJ", "addr:street_address": "1016 YE GREATE ST", "amenity": "post_box", "collection_times": "Mo-Fr 16:45; Sa 11:45", "note": "ON 12/24 AND 12/31, THIS BOX MAY BE COLLECTED AS EARLY AS 12 NOON.", "nsi_id": "unitedstatespostalservice-a77078", "operator": "United States Postal Service", "operator:short": "USPS", "operator:type": "public", "operator:wikidata": "Q668687", "ref": "0832300001"}, "type": "Feature"}
{"geometry": {"coordinates": [-75.3388039563, 39.389603133], "type": "Point"}, "id": "QOrT51Gp7JBD8SdsYL_IRUyszI0=", "properties": {"@source_uri": "https://tools.usps.com/UspsToolsRestServices/rest/POLocator/findLocations", "@spider": "usps_collection_boxes", "addr:city": "GREENWICH", "addr:country": "US", "addr:postcode": "08323", "addr:state": "NJ", "addr:street_address": "1016 YE GREATE ST", "amenity": "post_box", "collection_times": "Mo-Fr 16:45; Sa 11:45", "indoor": "yes", "note": "ON 12/24 AND 12/31, THIS BOX MAY BE COLLECTED AS EARLY AS 12 NOON.", "nsi_id": "unitedstatespostalservice-a77078", "operator": "United States Postal Service", "operator:short": "USPS", "operator:type": "public", "operator:wikidata": "Q668687", "ref": "0832300002"}, "type": "Feature"}
{"geometry": {"coordinates": [-75.3388039563, 39.389603133], "type": "Point"}, "id": "DZo1PeJ3a7kMQBgcey-PLNmsZ2c=", "properties": {"@source_uri": "https://tools.usps.com/UspsToolsRestServices/rest/POLocator/findLocations", "@spider": "usps_collection_boxes", "addr:city": "GREENWICH", "addr:country": "US", "addr:postcode": "08323", "addr:state": "NJ", "addr:street_address": "1016 YE GREATE ST", "amenity": "post_box", "collection_times": "Mo-Fr 16:45; Sa 11:45", "indoor": "yes", "note": "ON 12/24 AND 12/31, THIS BOX MAY BE COLLECTED AS EARLY AS 12 NOON.", "nsi_id": "unitedstatespostalservice-a77078", "operator": "United States Postal Service", "operator:short": "USPS", "operator:type": "public", "operator:wikidata": "Q668687", "ref": "0832300003"}, "type": "Feature"}
{"geometry": {"coordinates": [-75.3388039563, 39.389603133], "type": "Point"}, "id": "01mCVtIvZhRIZz1IglXYhCHwnhw=", "properties": {"@source_uri": "https://tools.usps.com/UspsToolsRestServices/rest/POLocator/findLocations", "@spider": "usps_collection_boxes", "addr:city": "GREENWICH", "addr:country": "US", "addr:postcode": "08323", "addr:state": "NJ", "addr:street_address": "1016 YE GREATE ST", "amenity": "post_box", "collection_times": "Mo-Fr 16:30; Sa 11:45", "indoor": "yes", "note": "ON 12/24 AND 12/31, THIS BOX MAY BE COLLECTED AS EARLY AS 12 NOON.", "nsi_id": "unitedstatespostalservice-a77078", "operator": "United States Postal Service", "operator:short": "USPS", "operator:type": "public", "operator:wikidata": "Q668687", "ref": "0832300006"}, "type": "Feature"}
{"geometry": {"coordinates": [-74.991467, 39.220547], "type": "Point"}, "id": "iuejot9fP_hkBkV4edJB-j7eNsc=", "properties": {"@source_uri": "https://tools.usps.com/UspsToolsRestServices/rest/POLocator/findLocations", "@spider": "usps_collection_boxes", "addr:city": "HEISLERVILLE", "addr:country": "US", "addr:postcode": "08324", "addr:state": "NJ", "addr:street_address": "222 MAIN ST", "amenity": "post_box", "collection_times": "Mo-Fr 16:45; Sa 11:45", "note": "ON 12/24 AND 12/31, THIS BOX MAY BE COLLECTED AS EARLY AS 12 NOON.", "nsi_id": "unitedstatespostalservice-a77078", "operator": "United States Postal Service", "operator:short": "USPS", "operator:type": "public", "operator:wikidata": "Q668687", "ref": "0832400001"}, "type": "Feature"}
{"geometry": {"coordinates": [-74.991494, 39.220525], "type": "Point"}, "id": "QAbVtVHaCaYqt5QBGJj75-mJi34=", "properties": {"@source_uri": "https://tools.usps.com/UspsToolsRestServices/rest/POLocator/findLocations", "@spider": "usps_collection_boxes", "addr:city": "HEISLERVILLE", "addr:country": "US", "addr:postcode": "08324", "addr:state": "NJ", "addr:street_address": "222 MAIN ST", "amenity": "post_box", "collection_times": "Mo-Fr 16:45; Sa 11:45", "indoor": "yes", "note": "ON 12/24 AND 12/31, THIS BOX MAY BE COLLECTED AS EARLY AS 12 NOON.", "nsi_id": "unitedstatespostalservice-a77078", "operator": "United States Postal Service", "operator:short": "USPS", "operator:type": "public", "operator:wikidata": "Q668687", "ref": "0832400002"}, "type": "Feature"}
{"geometry": {"coordinates": [-74.992239195, 39.222341926], "type": "Point"}, "id": "H-difzuM6sWbOQ1qNM6dWs1tNzU=", "properties": {"@source_uri": "https://tools.usps.com/UspsToolsRestServices/rest/POLocator/findLocations", "@spider": "usps_collection_boxes", "addr:city": "HEISLERVILLE", "addr:country": "US", "addr:postcode": "08324", "addr:state": "NJ", "addr:street_address": "222 MAIN ST", "amenity": "post_box", "collection_times": "Mo-Fr 17:00; Sa 12:00", "indoor": "yes", "note": "ON 12/24 AND 12/31, THIS BOX MAY BE COLLECTED AS EARLY AS 12 NOON.", "nsi_id": "unitedstatespostalservice-a77078", "operator": "United States Postal Service", "operator:short": "USPS", "operator:type": "public", "operator:wikidata": "Q668687", "ref": "0832400005"}, "type": "Feature"}
{"geometry": {"coordinates": [-74.937871, 39.524714], "type": "Point"}, "id": "_Y4faKB1hj548k9q9GS6_dxgwug=", "properties": {"@source_uri": "https://tools.usps.com/UspsToolsRestServices/rest/POLocator/findLocations", "@spider": "usps_collection_boxes", "addr:city": "LANDISVILLE", "addr:country": "US", "addr:postcode": "08326", "addr:state": "NJ", "addr:street_address": "101 S HARDING HWY", "amenity": "post_box", "collection_times": "Mo-Fr 17:00; Sa 12:00", "note": "ON 12/24 AND 12/31, THIS BOX MAY BE COLLECTED AS EARLY AS 12 NOON.", "nsi_id": "unitedstatespostalservice-a77078", "operator": "United States Postal Service", "operator:short": "USPS", "operator:type": "public", "operator:wikidata": "Q668687", "ref": "0832600001"}, "type": "Feature"}
{"geometry": {"coordinates": [-74.937871, 39.524714], "type": "Point"}, "id": "8rYmw-O94LdhjtUQyu5DRi1xTVU=", "properties": {"@source_uri": "https://tools.usps.com/UspsToolsRestServices/rest/POLocator/findLocations", "@spider": "usps_collection_boxes", "addr:city": "LANDISVILLE", "addr:country": "US", "addr:postcode": "08326", "addr:state": "NJ", "addr:street_address": "101 S HARDING HWY", "amenity": "post_box", "collection_times": "Mo-Fr 17:00; Sa 12:00", "indoor": "yes", "note": "ON 12/24 AND 12/31, THIS BOX MAY BE COLLECTED AS EARLY AS 12 NOON.", "nsi_id": "unitedstatespostalservice-a77078", "operator": "United States Postal Service", "operator:short": "USPS", "operator:type": "public", "operator:wikidata": "Q668687", "ref": "0832600002"}, "type": "Feature"}
{"geometry": {"coordinates": [-74.937874276, 39.524710923], "type": "Point"}, "id": "cCUsWDSZu03kEnPfo2KuwaXIzro=", "properties": {"@source_uri": "https://tools.usps.com/UspsToolsRestServices/rest/POLocator/findLocations", "@spider": "usps_collection_boxes", "addr:city": "LANDISVILLE", "addr:country": "US", "addr:postcode": "08326", "addr:state": "NJ", "addr:street_address": "101 S HARDING HWY", "amenity": "post_box", "collection_times": "Mo-Fr 17:00; Sa 12:00", "indoor": "yes", "note": "ON 12/24 AND 12/31, THIS BOX MAY BE COLLECTED AS EARLY AS 12 NOON.", "nsi_id": "unitedstatespostalservice-a77078", "operator": "United States Postal Service", "operator:short": "USPS", "operator:type": "public", "operator:wikidata": "Q668687", "ref": "0832600005"}, "type": "Feature"}
{"geometry": {"coordinates": [-74.988402, 39.257484], "type": "Point"}, "id": "Cm7xQxSkmQ7uKurUKuwb1JhgBiY=", "properties": {"@source_uri": "https://tools.usps.com/UspsToolsRestServices/rest/POLocator/findLocations", "@spider": "usps_collection_boxes", "addr:city": "LEESBURG", "addr:country": "US", "addr:postcode": "08327", "addr:state": "NJ", "addr:street_address": "174 HIGH ST", "amenity": "post_box", "collection_times": "Mo-Fr 16:45; Sa 12:00", "note": "ON 12/24 AND 12/31, THIS BOX MAY BE COLLECTED AS EARLY AS 12 NOON.", "nsi_id": "unitedstatespostalservice-a77078", "operator": "United States Postal Service", "operator:short": "USPS", "operator:type": "public", "operator:wikidata": "Q668687", "ref": "0832700001"}, "type": "Feature"}
{"geometry": {"coordinates": [-74.988239101, 39.2573694987], "type": "Point"}, "id": "xu0WP7moBrj7wsfe9ZJB54yt9jU=", "properties": {"@source_uri": "https://tools.usps.com/UspsToolsRestServices/rest/POLocator/findLocations", "@spider": "usps_collection_boxes", "addr:city": "LEESBURG", "addr:country": "US", "addr:postcode": "08327", "addr:state": "NJ", "addr:street_address": "174 HIGH ST", "amenity": "post_box", "collection_times": "Mo-Fr 16:45; Sa 12:00", "indoor": "yes", "note": "ON 12/24 AND 12/31, THIS BOX MAY BE COLLECTED AS EARLY AS 12 NOON.", "nsi_id": "unitedstatespostalservice-a77078", "operator": "United States Postal Service", "operator:short": "USPS", "operator:type": "public", "operator:wikidata": "Q668687", "ref": "0832700002"}, "type": "Feature"}
{"geometry": {"coordinates": [-74.988239101, 39.257369499], "type": "Point"}, "id": "pKa1b-n8cCr4SJZ4D4m6M3G-200=", "properties": {"@source_uri": "https://tools.usps.com/UspsToolsRestServices/rest/POLocator/findLocations", "@spider": "usps_collection_boxes", "addr:city": "LEESBURG", "addr:country": "US", "addr:postcode": "08327", "addr:state": "NJ", "addr:street_address": "174 HIGH ST", "amenity": "post_box", "collection_times": "Mo-Fr 16:30; Sa 11:45", "indoor": "yes", "note": "ON 12/24 AND 12/31, THIS BOX MAY BE COLLECTED AS EARLY AS 12 NOON.", "nsi_id": "unitedstatespostalservice-a77078", "operator": "United States Postal Service", "operator:short": "USPS", "operator:type": "public", "operator:wikidata": "Q668687", "ref": "0832700005"}, "type": "Feature"}
{"geometry": {"coordinates": [-75.049446, 39.573617], "type": "Point"}, "id": "dHiDN7Qawi_TjRvdZEIpPUAGLm8=", "properties": {"@source_uri": "https://tools.usps.com/UspsToolsRestServices/rest/POLocator/findLocations", "@spider": "usps_collection_boxes", "addr:city": "MALAGA", "addr:country": "US", "addr:postcode": "08328", "addr:state": "NJ", "addr:street_address": "603 DELSEA DR", "amenity": "post_box", "collection_times": "Mo-Fr 17:00; Sa 12:00", "note": "ON 12/24 AND 12/31, THIS BOX MAY BE COLLECTED AS EARLY AS 12 NOON.", "nsi_id": "unitedstatespostalservice-a77078", "operator": "United States Postal Service", "operator:short": "USPS", "operator:type": "public", "operator:wikidata": "Q668687", "ref": "0832800001"}, "type": "Feature"}
{"geometry": {"coordinates": [-75.049362, 39.573604], "type": "Point"}, "id": "bA-mU4r4mhGXJoCV94Chjnw_ZBQ=", "properties": {"@source_uri": "https://tools.usps.com/UspsToolsRestServices/rest/POLocator/findLocations", "@spider": "usps_collection_boxes", "addr:city": "MALAGA", "addr:country": "US", "addr:postcode": "08328", "addr:state": "NJ", "addr:street_address": "603 DELSEA DR", "amenity": "post_box", "collection_times": "Mo-Fr 17:00; Sa 12:00", "indoor": "yes", "note": "ON 12/24 AND 12/31, THIS BOX MAY BE COLLECTED AS EARLY AS 12 NOON.", "nsi_id": "unitedstatespostalservice-a77078", "operator": "United States Postal Service", "operator:short": "USPS", "operator:type": "public", "operator:wikidata": "Q668687", "ref": "0832800002"}, "type": "Feature"}
{"geometry": {"coordinates": [-75.049444436, 39.573677195], "type": "Point"}, "id": "KIIHD618e_STaNe_MO7t0gyHPb4=", "properties": {"@source_uri": "https://tools.usps.com/UspsToolsRestServices/rest/POLocator/findLocations", "@spider": "usps_collection_boxes", "addr:city": "MALAGA", "addr:country": "US", "addr:postcode": "08328", "addr:state": "NJ", "addr:street_address": "603 DELSEA DR", "amenity": "post_box", "collection_times": "Mo-Fr 17:00; Sa 12:00", "indoor": "yes", "note": "ON 12/24 AND 12/31, THIS BOX MAY BE COLLECTED AS EARLY AS 12 NOON.", "nsi_id": "unitedstatespostalservice-a77078", "operator": "United States Postal Service", "operator:short": "USPS", "operator:type": "public", "operator:wikidata": "Q668687", "ref": "0832800006"}, "type": "Feature"}
{"geometry": {"coordinates": [-74.994229, 39.286074], "type": "Point"}, "id": "Kh4VLOfR7zi0Md4YecJwd7mySMI=", "properties": {"@source_uri": "https://tools.usps.com/UspsToolsRestServices/rest/POLocator/findLocations", "@spider": "usps_collection_boxes", "addr:city": "MAURICETOWN", "addr:country": "US", "addr:postcode": "08329", "addr:state": "NJ", "addr:street_address": "9572 HIGHLAND ST", "amenity": "post_box", "collection_times": "Mo-Fr 11:45; Sa 12:30", "note": "ON 12/24 AND 12/31, THIS BOX MAY BE COLLECTED AS EARLY AS 12 NOON.", "nsi_id": "unitedstatespostalservice-a77078", "operator": "United States Postal Service", "operator:short": "USPS", "operator:type": "public", "operator:wikidata": "Q668687", "ref": "0832900001"}, "type": "Feature"}
{"geometry": {"coordinates": [-74.993975011, 39.286206998], "type": "Point"}, "id": "2MNUZOblZvpTxrEKiwJgiDoqPDM=", "properties": {"@source_uri": "https://tools.usps.com/UspsToolsRestServices/rest/POLocator/findLocations", "@spider": "usps_collection_boxes", "addr:city": "MAURICETOWN", "addr:country": "US", "addr:postcode": "08329", "addr:state": "NJ", "addr:street_address": "9572 HIGHLAND ST", "amenity": "post_box", "collection_times": "Mo-Fr 11:45; Sa 12:30", "indoor": "yes", "note": "ON 12/24 AND 12/31, THIS BOX MAY BE COLLECTED AS EARLY AS 12 NOON.", "nsi_id": "unitedstatespostalservice-a77078", "operator": "United States Postal Service", "operator:short": "USPS", "operator:type": "public", "operator:wikidata": "Q668687", "ref": "0832900002"}, "type": "Feature"}
{"geometry": {"coordinates": [-74.993975011, 39.286206998], "type": "Point"}, "id": "KffQmU8oYBede_RGcetvx6r3BD8=", "properties": {"@source_uri": "https://tools.usps.com/UspsToolsRestServices/rest/POLocator/findLocations", "@spider": "usps_collection_boxes", "addr:city": "MAURICETOWN", "addr:country": "US", "addr:postcode": "08329", "addr:state": "NJ", "addr:street_address": "9572 HIGHLAND ST", "amenity": "post_box", "collection_times": "Mo-Fr 11:45; Sa 12:30", "indoor": "yes", "note": "ON 12/24 AND 12/31, THIS BOX MAY BE COLLECTED AS EARLY AS 12 NOON.", "nsi_id": "unitedstatespostalservice-a77078", "operator": "United States Postal Service", "operator:short": "USPS", "operator:type": "public", "operator:wikidata": "Q668687", "ref": "0832900003"}, "type": "Feature"}
{"geometry": {"coordinates": [-74.993975011, 39.286206998], "type": "Point"}, "id": "XIE_BSnZL3o626HdkNGxGjnwFHA=", "properties": {"@source_uri": "https://tools.usps.com/UspsToolsRestServices/rest/POLocator/findLocations", "@spider": "usps_collection_boxes", "addr:city": "MAURICETOWN", "addr:country": "US", "addr:postcode": "08329", "addr:state": "NJ", "addr:street_address": "9572 HIGHLAND ST", "amenity": "post_box", "collection_times": "Mo-Fr 11:45; Sa 12:30", "indoor": "yes", "note": "ON 12/24 AND 12/31, THIS BOX MAY BE COLLECTED AS EARLY AS 12 NOON.", "nsi_id": "unitedstatespostalservice-a77078", "operator": "United States Postal Service", "operator:short": "USPS", "operator:type": "public", "operator:wikidata": "Q668687", "ref": "0832900006"}, "type": "Feature"}
{"geometry": {"coordinates": [-74.7474269, 39.450725], "type": "Point"}, "id": "l7S36OudWE3N8-7HXecGamrh8vo=", "properties": {"@source_uri": "https://tools.usps.com/UspsToolsRestServices/rest/POLocator/findLocations", "@spider": "usps_collection_boxes", "addr:city": "MAYS LANDING", "addr:country": "US", "addr:postcode": "08330", "addr:state": "NJ", "addr:street_address": "6260 OLD HARDING HWY STE 1", "amenity": "post_box", "collection_times": "Mo-Sa 09:30", "nsi_id": "unitedstatespostalservice-a77078", "operator": "United States Postal Service", "operator:short": "USPS", "operator:type": "public", "operator:wikidata": "Q668687", "ref": "0833000001"}, "type": "Feature"}
{"geometry": {"coordinates": [-74.7252752, 39.457378], "type": "Point"}, "id": "zqwoWHzbpQaQus-bpEi17uGMDGQ=", "properties": {"@source_uri": "https://tools.usps.com/UspsToolsRestServices/rest/POLocator/findLocations", "@spider": "usps_collection_boxes", "addr:city": "MAYS LANDING", "addr:country": "US", "addr:postcode": "08330", "addr:state": "NJ", "addr:street_address": "565 ROUTE 50", "amenity": "post_box", "collection_times": "Mo-Sa 13:00", "note": "ON 12/24 AND 12/31, THIS BOX MAY BE COLLECTED AS EARLY AS 12 NOON.", "nsi_id": "unitedstatespostalservice-a77078", "operator": "United States Postal Service", "operator:short": "USPS", "operator:type": "public", "operator:wikidata": "Q668687", "ref": "0833000004"}, "type": "Feature"}
{"geometry": {"coordinates": [-74.6641314, 39.448417], "type": "Point"}, "id": "TJd9wkaDROBKUh4Y5_0zxSIEpZ4=", "properties": {"@source_uri": "https://tools.usps.com/UspsToolsRestServices/rest/POLocator/findLocations", "@spider": "usps_collection_boxes", "addr:city": "MAYS LANDING", "addr:country": "US", "addr:postcode": "08330", "addr:state": "NJ", "addr:street_address": "4699 SUMMERSWEET DR", "amenity": "post_box", "collection_times": "Mo-Sa 11:30", "nsi_id": "unitedstatespostalservice-a77078", "operator": "United States Postal Service", "operator:short": "USPS", "operator:type": "public", "operator:wikidata": "Q668687", "ref": "0833000005"}, "type": "Feature"}
{"geometry": {"coordinates": [-74.7254495, 39.451625], "type": "Point"}, "id": "ZYNQexj9H0Wu_lc2Z3-43xMSYzI=", "properties": {"@source_uri": "https://tools.usps.com/UspsToolsRestServices/rest/POLocator/findLocations", "@spider": "usps_collection_boxes", "addr:city": "MAYS LANDING", "addr:country": "US", "addr:postcode": "08330", "addr:state": "NJ", "addr:street_address": "101 FARRAGUT AVE", "amenity": "post_box", "collection_times": "Mo-Sa 10:30", "nsi_id": "unitedstatespostalservice-a77078", "operator": "United States Postal Service", "operator:short": "USPS", "operator:type": "public", "operator:wikidata": "Q668687", "ref": "0833000009"}, "type": "Feature"}
{"geometry": {"coordinates": [-74.7262251, 39.451514], "type": "Point"}, "id": "lIeCQvlsq5K9mHxuVyIHOLm-uAo=", "properties": {"@source_uri": "https://tools.usps.com/UspsToolsRestServices/rest/POLocator/findLocations", "@spider": "usps_collection_boxes", "addr:city": "MAYS LANDING", "addr:country": "US", "addr:postcode": "08330", "addr:state": "NJ", "addr:street_address": "5914 MAIN ST", "amenity": "post_box", "collection_times": "Mo-Sa 11:30", "nsi_id": "unitedstatespostalservice-a77078", "operator": "United States Postal Service", "operator:short": "USPS", "operator:type": "public", "operator:wikidata": "Q668687", "ref": "0833000010"}, "type": "Feature"}
{"geometry": {"coordinates": [-74.6478079, 39.450926], "type": "Point"}, "id": "1A0XfwFL8bV5Py-F0p5x_p9Hv0U=", "properties": {"@source_uri": "https://tools.usps.com/UspsToolsRestServices/rest/POLocator/findLocations", "@spider": "usps_collection_boxes", "addr:city": "MAYS LANDING", "addr:country": "US", "addr:postcode": "08330", "addr:state": "NJ", "addr:street_address": "3922 BLACK HORSE PIKE", "amenity": "post_box", "collection_times": "Mo-Sa 11:30", "nsi_id": "unitedstatespostalservice-a77078", "operator": "United States Postal Service", "operator:short": "USPS", "operator:type": "public", "operator:wikidata": "Q668687", "ref": "0833000013"}, "type": "Feature"}
{"geometry": {"coordinates": [-74.703955, 39.445674], "type": "Point"}, "id": "fCw5pDm_g19Koz3vGeK7egLx-sg=", "properties": {"@source_uri": "https://tools.usps.com/UspsToolsRestServices/rest/POLocator/findLocations", "@spider": "usps_collection_boxes", "addr:city": "MAYS LANDING", "addr:country": "US", "addr:postcode": "08330", "addr:state": "NJ", "addr:street_address": "5306 ATLANTIC AVE", "amenity": "post_box", "collection_times": "Mo-Fr 17:00; Sa 16:00", "note": "ON 12/24 AND 12/31, THIS BOX MAY BE COLLECTED AS EARLY AS 12 NOON.", "nsi_id": "unitedstatespostalservice-a77078", "operator": "United States Postal Service", "operator:short": "USPS", "operator:type": "public", "operator:wikidata": "Q668687", "ref": "0833000017"}, "type": "Feature"}
{"geometry": {"coordinates": [-74.734503, 39.447747], "type": "Point"}, "id": "4DybCZ0_FwTPMTVyRcJX5UnjbXY=", "properties": {"@source_uri": "https://tools.usps.com/UspsToolsRestServices/rest/POLocator/findLocations", "@spider": "usps_collection_boxes", "addr:city": "MAYS LANDING", "addr:country": "US", "addr:postcode": "08330", "addr:state": "NJ", "addr:street_address": "6056 HARDING HWY", "amenity": "post_box", "collection_times": "Mo-Sa 12:00", "nsi_id": "unitedstatespostalservice-a77078", "operator": "United States Postal Service", "operator:short": "USPS", "operator:type": "public", "operator:wikidata": "Q668687", "ref": "0833000019"}, "type": "Feature"}
{"geometry": {"coordinates": [-74.699833996, 39.443772989], "type": "Point"}, "id": "AMhQbuWFMRxuB-5_6VK82jlR3pc=", "properties": {"@source_uri": "https://tools.usps.com/UspsToolsRestServices/rest/POLocator/findLocations", "@spider": "usps_collection_boxes", "addr:city": "MAYS LANDING", "addr:country": "US", "addr:postcode": "08330", "addr:state": "NJ", "addr:street_address": "5218 ATLANTIC AVE", "amenity": "post_box", "collection_times": "Mo-Sa 09:00", "nsi_id": "unitedstatespostalservice-a77078", "operator": "United States Postal Service", "operator:short": "USPS", "operator:type": "public", "operator:wikidata": "Q668687", "ref": "0833000020"}, "type": "Feature"}
{"geometry": {"coordinates": [-74.7038773, 39.44537], "type": "Point"}, "id": "MrbH-W7I2jkD-HvEG8gJtTzNrA4=", "properties": {"@source_uri": "https://tools.usps.com/UspsToolsRestServices/rest/POLocator/findLocations", "@spider": "usps_collection_boxes", "addr:city": "MAYS LANDING", "addr:country": "US", "addr:postcode": "08330", "addr:state": "NJ", "addr:street_address": "5306 ATLANTIC AVE", "amenity": "post_box", "collection_times": "Mo-Fr 17:00; Sa 16:00", "indoor": "yes", "note": "ON 12/24 AND 12/31, THIS BOX MAY BE COLLECTED AS EARLY AS 12 NOON.", "nsi_id": "unitedstatespostalservice-a77078", "operator": "United States Postal Service", "operator:short": "USPS", "operator:type": "public", "operator:wikidata": "Q668687", "ref": "0833000021"}, "type": "Feature"}
{"geometry": {"coordinates": [-74.6469947, 39.459823], "type": "Point"}, "id": "g-mr4dg33J6-AXSQjQBzvbwzuVY=", "properties": {"@source_uri": "https://tools.usps.com/UspsToolsRestServices/rest/POLocator/findLocations", "@spider": "usps_collection_boxes", "addr:city": "MAYS LANDING", "addr:country": "US", "addr:postcode": "08330", "addr:state": "NJ", "addr:street_address": "3100 JASMINE CT", "amenity": "post_box", "collection_times": "Mo-Sa 11:00", "nsi_id": "unitedstatespostalservice-a77078", "operator": "United States Postal Service", "operator:short": "USPS", "operator:type": "public", "operator:wikidata": "Q668687", "ref": "0833000022"}, "type": "Feature"}
{"geometry": {"coordinates": [-74.6331771, 39.451779], "type": "Point"}, "id": "gPNkOetZvJgeYo9gyL3H04ZuJgY=", "properties": {"@source_uri": "https://tools.usps.com/UspsToolsRestServices/rest/POLocator/findLocations", "@spider": "usps_collection_boxes", "addr:city": "MAYS LANDING", "addr:country": "US", "addr:postcode": "08330", "addr:state": "NJ", "addr:street_address": "370 CONSUMER SQ", "amenity": "post_box", "collection_times": "Mo-Sa 13:00", "note": "ON 12/24 AND 12/31, THIS BOX MAY BE COLLECTED AS EARLY AS 12 NOON.", "nsi_id": "unitedstatespostalservice-a77078", "operator": "United States Postal Service", "operator:short": "USPS", "operator:type": "public", "operator:wikidata": "Q668687", "ref": "0833000023"}, "type": "Feature"}
{"geometry": {"coordinates": [-75.0394882, 39.406538], "type": "Point"}, "id": "15lKkMwCp97F7EtaD1cZoXAV2KY=", "properties": {"@source_uri": "https://tools.usps.com/UspsToolsRestServices/rest/POLocator/findLocations", "@spider": "usps_collection_boxes", "addr:city": "MILLVILLE", "addr:country": "US", "addr:postcode": "08332", "addr:state": "NJ", "addr:street_address": "1000 N HIGH ST", "amenity": "post_box", "collection_times": "Mo-Sa 11:45", "nsi_id": "unitedstatespostalservice-a77078", "operator": "United States Postal Service", "operator:short": "USPS", "operator:type": "public", "operator:wikidata": "Q668687", "ref": "0833200002"}, "type": "Feature"}
{"geometry": {"coordinates": [-75.0556816, 39.398018], "type": "Point"}, "id": "FUyOCMaqGUssAYvXJlx02VYjh7I=", "properties": {"@source_uri": "https://tools.usps.com/UspsToolsRestServices/rest/POLocator/findLocations", "@spider": "usps_collection_boxes", "addr:city": "MILLVILLE", "addr:country": "US", "addr:postcode": "08332", "addr:state": "NJ", "addr:street_address": "640 W MAIN ST", "amenity": "post_box", "collection_times": "Mo-Sa 13:45", "note": "ON 12/24 AND 12/31, THIS BOX MAY BE COLLECTED AS EARLY AS 12 NOON.", "nsi_id": "unitedstatespostalservice-a77078", "operator": "United States Postal Service", "operator:short": "USPS", "operator:type": "public", "operator:wikidata": "Q668687", "ref": "0833200007"}, "type": "Feature"}
{"geometry": {"coordinates": [-75.0603542, 39.39822], "type": "Point"}, "id": "xXSh3Gvwe3uUPHO-RTY-nu17iq0=", "properties": {"@source_uri": "https://tools.usps.com/UspsToolsRestServices/rest/POLocator/findLocations", "@spider": "usps_collection_boxes", "addr:city": "MILLVILLE", "addr:country": "US", "addr:postcode": "08332", "addr:state": "NJ", "addr:street_address": "917 W MAIN ST", "amenity": "post_box", "collection_times": "Mo-Sa 14:30", "note": "ON 12/24 AND 12/31, THIS BOX MAY BE COLLECTED AS EARLY AS 12 NOON.", "nsi_id": "unitedstatespostalservice-a77078", "operator": "United States Postal Service", "operator:short": "USPS", "operator:type": "public", "operator:wikidata": "Q668687", "ref": "0833200010"}, "type": "Feature"}
{"geometry": {"coordinates": [-75.0021831, 39.390196], "type": "Point"}, "id": "uk4mBmS-a-C60lQDG5lHNz44NJ0=", "properties": {"@source_uri": "https://tools.usps.com/UspsToolsRestServices/rest/POLocator/findLocations", "@spider": "usps_collection_boxes", "addr:city": "MILLVILLE", "addr:country": "US", "addr:postcode": "08332", "addr:state": "NJ", "addr:street_address": "2314 E MAIN ST", "amenity": "post_box", "collection_times": "Mo-Sa 14:45", "note": "ON 12/24 AND 12/31, THIS BOX MAY BE COLLECTED AS EARLY AS 12 NOON.", "nsi_id": "unitedstatespostalservice-a77078", "operator": "United States Postal Service", "operator:short": "USPS", "operator:type": "public", "operator:wikidata": "Q668687", "ref": "0833200027"}, "type": "Feature"}
{"geometry": {"coordinates": [-75.0225931, 39.395036], "type": "Point"}, "id": "vrSJqhvs7ZeN_fF26YViW-dbjsE=", "properties": {"@source_uri": "https://tools.usps.com/UspsToolsRestServices/rest/POLocator/findLocations", "@spider": "usps_collection_boxes", "addr:city": "MILLVILLE", "addr:country": "US", "addr:postcode": "08332", "addr:state": "NJ", "addr:street_address": "1210 E MAIN ST", "amenity": "post_box", "collection_times": "Mo-Sa 10:15", "nsi_id": "unitedstatespostalservice-a77078", "operator": "United States Postal Service", "operator:short": "USPS", "operator:type": "public", "operator:wikidata": "Q668687", "ref": "0833200028"}, "type": "Feature"}
{"geometry": {"coordinates": [-75.0272978, 39.405842], "type": "Point"}, "id": "RnSvr_7ry1_GcpTq1ivlJAtBDZE=", "properties": {"@source_uri": "https://tools.usps.com/UspsToolsRestServices/rest/POLocator/findLocations", "@spider": "usps_collection_boxes", "addr:city": "MILLVILLE", "addr:country": "US", "addr:postcode": "08332", "addr:state": "NJ", "addr:street_address": "806 N 9TH ST", "amenity": "post_box", "collection_times": "Mo-Sa 14:15", "note": "ON 12/24 AND 12/31, THIS BOX MAY BE COLLECTED AS EARLY AS 12 NOON.", "nsi_id": "unitedstatespostalservice-a77078", "operator": "United States Postal Service", "operator:short": "USPS", "operator:type": "public", "operator:wikidata": "Q668687", "ref": "0833200038"}, "type": "Feature"}
{"geometry": {"coordinates": [-75.0314268, 39.41774], "type": "Point"}, "id": "AEANqkPTkduZ94QqMGmYUiMtK_M=", "properties": {"@source_uri": "https://tools.usps.com/UspsToolsRestServices/rest/POLocator/findLocations", "@spider": "usps_collection_boxes", "addr:city": "MILLVILLE", "addr:country": "US", "addr:postcode": "08332", "addr:state": "NJ", "addr:street_address": "25 S LADOW AVE", "amenity": "post_box", "collection_times": "Mo-Sa 15:30", "note": "ON 12/24 AND 12/31, THIS BOX MAY BE COLLECTED AS EARLY AS 12 NOON.", "nsi_id": "unitedstatespostalservice-a77078", "operator": "United States Postal Service", "operator:short": "USPS", "operator:type": "public", "operator:wikidata": "Q668687", "ref": "0833200039"}, "type": "Feature"}
{"geometry": {"coordinates": [-75.0363318, 39.39374], "type": "Point"}, "id": "G58rf-0B64TZ2JJe4N_9d018NwQ=", "properties": {"@source_uri": "https://tools.usps.com/UspsToolsRestServices/rest/POLocator/findLocations", "@spider": "usps_collection_boxes", "addr:city": "MILLVILLE", "addr:country": "US", "addr:postcode": "08332", "addr:state": "NJ", "addr:street_address": "130 S 2ND ST", "amenity": "post_box", "collection_times": "Mo-Sa 10:15", "nsi_id": "unitedstatespostalservice-a77078", "operator": "United States Postal Service", "operator:short": "USPS", "operator:type": "public", "operator:wikidata": "Q668687", "ref": "0833200041"}, "type": "Feature"}
{"geometry": {"coordinates": [-75.0729999, 39.377584], "type": "Point"}, "id": "Ct0qaeDAG0z-bCapVdFKlqeA_yo=", "properties": {"@source_uri": "https://tools.usps.com/UspsToolsRestServices/rest/POLocator/findLocations", "@spider": "usps_collection_boxes", "addr:city": "MILLVILLE", "addr:country": "US", "addr:postcode": "08332", "addr:state": "NJ", "addr:street_address": "30 BOGDEN BLVD", "amenity": "post_box", "collection_times": "Mo-Sa 10:30", "nsi_id": "unitedstatespostalservice-a77078", "operator": "United States Postal Service", "operator:short": "USPS", "operator:type": "public", "operator:wikidata": "Q668687", "ref": "0833200042"}, "type": "Feature"}
{"geometry": {"coordinates": [-75.0385477, 39.394696], "type": "Point"}, "id": "0t_yr1gh0HVrHDbEiJXHPsFJ2g4=", "properties": {"@source_uri": "https://tools.usps.com/UspsToolsRestServices/rest/POLocator/findLocations", "@spider": "usps_collection_boxes", "addr:city": "MILLVILLE", "addr:country": "US", "addr:postcode": "08332", "addr:state": "NJ", "addr:street_address": "18 S HIGH ST", "amenity": "post_box", "collection_times": "Mo-Sa 13:30", "note": "ON 12/24 AND 12/31, THIS BOX MAY BE COLLECTED AS EARLY AS 12 NOON.", "nsi_id": "unitedstatespostalservice-a77078", "operator": "United States Postal Service", "operator:short": "USPS", "operator:type": "public", "operator:wikidata": "Q668687", "ref": "0833200044"}, "type": "Feature"}
{"geometry": {"coordinates": [-75.0761907, 39.401001], "type": "Point"}, "id": "7Oh7lgt04zXje1mVTMZtADVF0n8=", "properties": {"@source_uri": "https://tools.usps.com/UspsToolsRestServices/rest/POLocator/findLocations", "@spider": "usps_collection_boxes", "addr:city": "MILLVILLE", "addr:country": "US", "addr:postcode": "08332", "addr:state": "NJ", "addr:street_address": "1609 W MAIN ST", "amenity": "post_box", "collection_times": "Mo-Sa 14:00", "note": "ON 12/24 AND 12/31, THIS BOX MAY BE COLLECTED AS EARLY AS 12 NOON.", "nsi_id": "unitedstatespostalservice-a77078", "operator": "United States Postal Service", "operator:short": "USPS", "operator:type": "public", "operator:wikidata": "Q668687", "ref": "0833200045"}, "type": "Feature"}
{"geometry": {"coordinates": [-75.0387763, 39.399019], "type": "Point"}, "id": "-lOzSiLXsTzXZdTVz0GhG--HVIc=", "properties": {"@source_uri": "https://tools.usps.com/UspsToolsRestServices/rest/POLocator/findLocations", "@spider": "usps_collection_boxes", "addr:city": "MILLVILLE", "addr:country": "US", "addr:postcode": "08332", "addr:state": "NJ", "addr:street_address": "302 N HIGH ST", "amenity": "post_box", "collection_times": "Mo-Fr 17:00; Sa 14:15", "note": "ON 12/24 AND 12/31, THIS BOX MAY BE COLLECTED AS EARLY AS 12 NOON.", "nsi_id": "unitedstatespostalservice-a77078", "operator": "United States Postal Service", "operator:short": "USPS", "operator:type": "public", "operator:wikidata": "Q668687", "ref": "0833200051"}, "type": "Feature"}
{"geometry": {"coordinates": [-75.0385168, 39.398635], "type": "Point"}, "id": "ofsiiEBQvEvO6A7byWjEeeWDHwM=", "properties": {"@source_uri": "https://tools.usps.com/UspsToolsRestServices/rest/POLocator/findLocations", "@spider": "usps_collection_boxes", "addr:city": "MILLVILLE", "addr:country": "US", "addr:postcode": "08332", "addr:state": "NJ", "addr:street_address": "302 N HIGH ST", "amenity": "post_box", "collection_times": "Mo-Fr 17:00; Sa 14:15", "indoor": "yes", "note": "ON 12/24 AND 12/31, THIS BOX MAY BE COLLECTED AS EARLY AS 12 NOON.", "nsi_id": "unitedstatespostalservice-a77078", "operator": "United States Postal Service", "operator:short": "USPS", "operator:type": "public", "operator:wikidata": "Q668687", "ref": "0833200052"}, "type": "Feature"}
{"geometry": {"coordinates": [-75.038567278, 39.398893512], "type": "Point"}, "id": "QANnrZQ834_fl-2_EnsrqipsFBE=", "properties": {"@source_uri": "https://tools.usps.com/UspsToolsRestServices/rest/POLocator/findLocations", "@spider": "usps_collection_boxes", "addr:city": "MILLVILLE", "addr:country": "US", "addr:postcode": "08332", "addr:state": "NJ", "addr:street_address": "302 HIGH ST N", "amenity": "post_box", "collection_times": "Mo-Fr 17:00; Sa 12:30", "indoor": "yes", "note": "ON 12/24 AND 12/31, THIS BOX MAY BE COLLECTED AS EARLY AS 12 NOON.", "nsi_id": "unitedstatespostalservice-a77078", "operator": "United States Postal Service", "operator:short": "USPS", "operator:type": "public", "operator:wikidata": "Q668687", "ref": "0833200070"}, "type": "Feature"}
{"geometry": {"coordinates": [-75.062430075, 39.371797956], "type": "Point"}, "id": "wDkuZGmLj2C1YzHSgsYQf34YNKs=", "properties": {"@source_uri": "https://tools.usps.com/UspsToolsRestServices/rest/POLocator/findLocations", "@spider": "usps_collection_boxes", "addr:city": "MILLVILLE", "addr:country": "US", "addr:postcode": "08332", "addr:state": "NJ", "addr:street_address": "1600 MALONE ST", "amenity": "post_box", "collection_times": "Mo-Sa 10:30", "nsi_id": "unitedstatespostalservice-a77078", "operator": "United States Postal Service", "operator:short": "USPS", "operator:type": "public", "operator:wikidata": "Q668687", "ref": "0833200071"}, "type": "Feature"}
{"geometry": {"coordinates": [-74.858822, 39.438285], "type": "Point"}, "id": "IMyJ91hoM8Mq7lHL5dNttGKMs4U=", "properties": {"@source_uri": "https://tools.usps.com/UspsToolsRestServices/rest/POLocator/findLocations", "@spider": "usps_collection_boxes", "addr:city": "MILMAY", "addr:country": "US", "addr:postcode": "08340", "addr:state": "NJ", "addr:street_address": "225 BROAD ST", "amenity": "post_box", "collection_times": "Mo-Fr 16:30; Sa 11:30", "note": "ON 12/24 AND 12/31, THIS BOX MAY BE COLLECTED AS EARLY AS 12 NOON.", "nsi_id": "unitedstatespostalservice-a77078", "operator": "United States Postal Service", "operator:short": "USPS", "operator:type": "public", "operator:wikidata": "Q668687", "ref": "0834000001"}, "type": "Feature"}
{"geometry": {"coordinates": [-74.858413718, 39.438494558], "type": "Point"}, "id": "IiRfQCJMFUC2v2Qimuh7TLx2ekM=", "properties": {"@source_uri": "https://tools.usps.com/UspsToolsRestServices/rest/POLocator/findLocations", "@spider": "usps_collection_boxes", "addr:city": "MILMAY", "addr:country": "US", "addr:postcode": "08340", "addr:state": "NJ", "addr:street_address": "225 BROAD ST", "amenity": "post_box", "collection_times": "Mo-Fr 16:00; Sa 11:00", "indoor": "yes", "note": "ON 12/24 AND 12/31, THIS BOX MAY BE COLLECTED AS EARLY AS 12 NOON.", "nsi_id": "unitedstatespostalservice-a77078", "operator": "United States Postal Service", "operator:short": "USPS", "operator:type": "public", "operator:wikidata": "Q668687", "ref": "0834000005"}, "type": "Feature"}
{"geometry": {"coordinates": [-74.948295, 39.519884], "type": "Point"}, "id": "YJXm_Rv3VGOv3QxseBXa_aQCpgo=", "properties": {"@source_uri": "https://tools.usps.com/UspsToolsRestServices/rest/POLocator/findLocations", "@spider": "usps_collection_boxes", "addr:city": "MINOTOLA", "addr:country": "US", "addr:postcode": "08341", "addr:state": "NJ", "addr:street_address": "807 CENTRAL AVE", "amenity": "post_box", "collection_times": "Mo-Fr 17:00; Sa 11:30", "note": "ON 12/24 AND 12/31, THIS BOX MAY BE COLLECTED AS EARLY AS 12 NOON.", "nsi_id": "unitedstatespostalservice-a77078", "operator": "United States Postal Service", "operator:short": "USPS", "operator:type": "public", "operator:wikidata": "Q668687", "ref": "0834100001"}, "type": "Feature"}
{"geometry": {"coordinates": [-74.948324, 39.519965], "type": "Point"}, "id": "0evOcwYPtkf2kEHMgTrsTfVvxzo=", "properties": {"@source_uri": "https://tools.usps.com/UspsToolsRestServices/rest/POLocator/findLocations", "@spider": "usps_collection_boxes", "addr:city": "MINOTOLA", "addr:country": "US", "addr:postcode": "08341", "addr:state": "NJ", "addr:street_address": "807 CENTRAL AVE", "amenity": "post_box", "collection_times": "Mo-Fr 17:00; Sa 11:30", "indoor": "yes", "note": "ON 12/24 AND 12/31, THIS BOX MAY BE COLLECTED AS EARLY AS 12 NOON.", "nsi_id": "unitedstatespostalservice-a77078", "operator": "United States Postal Service", "operator:short": "USPS", "operator:type": "public", "operator:wikidata": "Q668687", "ref": "0834100002"}, "type": "Feature"}
{"geometry": {"coordinates": [-74.9483475, 39.519250376], "type": "Point"}, "id": "tTa8AAe5ViNvHFmiFdP7bP4M5O8=", "properties": {"@source_uri": "https://tools.usps.com/UspsToolsRestServices/rest/POLocator/findLocations", "@spider": "usps_collection_boxes", "addr:city": "MINOTOLA", "addr:country": "US", "addr:postcode": "08341", "addr:state": "NJ", "addr:street_address": "807 CENTRAL AVE", "amenity": "post_box", "collection_times": "Mo-Fr 17:00; Sa 11:30", "indoor": "yes", "note": "ON 12/24 AND 12/31, THIS BOX MAY BE COLLECTED AS EARLY AS 12 NOON.", "nsi_id": "unitedstatespostalservice-a77078", "operator": "United States Postal Service", "operator:short": "USPS", "operator:type": "public", "operator:wikidata": "Q668687", "ref": "0834100005"}, "type": "Feature"}
{"geometry": {"coordinates": [-74.837935, 39.481384], "type": "Point"}, "id": "XX5Vrhvce-uQQPN0ewHcKl6vvzI=", "properties": {"@source_uri": "https://tools.usps.com/UspsToolsRestServices/rest/POLocator/findLocations", "@spider": "usps_collection_boxes", "addr:city": "MIZPAH", "addr:country": "US", "addr:postcode": "08342", "addr:state": "NJ", "addr:street_address": "6442 DEHIRSCH AVE", "amenity": "post_box", "collection_times": "Mo-Fr 14:00; Sa 12:00", "note": "ON 12/24 AND 12/31, THIS BOX MAY BE COLLECTED AS EARLY AS 12 NOON.", "nsi_id": "unitedstatespostalservice-a77078", "operator": "United States Postal Service", "operator:short": "USPS", "operator:type": "public", "operator:wikidata": "Q668687", "ref": "0834200000"}, "type": "Feature"}
{"geometry": {"coordinates": [-74.8373139719, 39.4819290049], "type": "Point"}, "id": "FafftvBn2a1J7_xvUig_ETdvnHE=", "properties": {"@source_uri": "https://tools.usps.com/UspsToolsRestServices/rest/POLocator/findLocations", "@spider": "usps_collection_boxes", "addr:city": "MIZPAH", "addr:country": "US", "addr:postcode": "08342", "addr:state": "NJ", "addr:street_address": "6442 DEHIRSCH AVE", "amenity": "post_box", "collection_times": "Mo-Fr 14:00; Sa 12:00", "indoor": "yes", "note": "ON 12/24 AND 12/31, THIS BOX MAY BE COLLECTED AS EARLY AS 12 NOON.", "nsi_id": "unitedstatespostalservice-a77078", "operator": "United States Postal Service", "operator:short": "USPS", "operator:type": "public", "operator:wikidata": "Q668687", "ref": "0834200001"}, "type": "Feature"}
{"geometry": {"coordinates": [-74.8373139719, 39.4819290049], "type": "Point"}, "id": "vTAF2IibEgREx4-2pPoXj0rI660=", "properties": {"@source_uri": "https://tools.usps.com/UspsToolsRestServices/rest/POLocator/findLocations", "@spider": "usps_collection_boxes", "addr:city": "MIZPAH", "addr:country": "US", "addr:postcode": "08342", "addr:state": "NJ", "addr:street_address": "6442 DEHIRSCH AVE", "amenity": "post_box", "collection_times": "Mo-Fr 14:00; Sa 12:00", "indoor": "yes", "note": "ON 12/24 AND 12/31, THIS BOX MAY BE COLLECTED AS EARLY AS 12 NOON.", "nsi_id": "unitedstatespostalservice-a77078", "operator": "United States Postal Service", "operator:short": "USPS", "operator:type": "public", "operator:wikidata": "Q668687", "ref": "0834200002"}, "type": "Feature"}
{"geometry": {"coordinates": [-74.8373139719, 39.4819290049], "type": "Point"}, "id": "u0yojPFiKrufg2JsG6SURPH3nG8=", "properties": {"@source_uri": "https://tools.usps.com/UspsToolsRestServices/rest/POLocator/findLocations", "@spider": "usps_collection_boxes", "addr:city": "MIZPAH", "addr:country": "US", "addr:postcode": "08342", "addr:state": "NJ", "addr:street_address": "6442 DEHIRSCH AVE", "amenity": "post_box", "collection_times": "Mo-Fr 14:00; Sa 12:00", "indoor": "yes", "note": "ON 12/24 AND 12/31, THIS BOX MAY BE COLLECTED AS EARLY AS 12 NOON.", "nsi_id": "unitedstatespostalservice-a77078", "operator": "United States Postal Service", "operator:short": "USPS", "operator:type": "public", "operator:wikidata": "Q668687", "ref": "0834200005"}, "type": "Feature"}
{"geometry": {"coordinates": [-75.160323, 39.629174], "type": "Point"}, "id": "l2d1hVMvbuiDdF8Aoh32isPWD2s=", "properties": {"@source_uri": "https://tools.usps.com/UspsToolsRestServices/rest/POLocator/findLocations", "@spider": "usps_collection_boxes", "addr:city": "MONROEVILLE", "addr:country": "US", "addr:postcode": "08343", "addr:state": "NJ", "addr:street_address": "403 MONROEVILLE RD", "amenity": "post_box", "collection_times": "Mo-Fr 16:15; Sa 12:15", "note": "ON 12/24 AND 12/31, THIS BOX MAY BE COLLECTED AS EARLY AS 12 NOON.", "nsi_id": "unitedstatespostalservice-a77078", "operator": "United States Postal Service", "operator:short": "USPS", "operator:type": "public", "operator:wikidata": "Q668687", "ref": "0834300001"}, "type": "Feature"}
{"geometry": {"coordinates": [-75.160241, 39.629187], "type": "Point"}, "id": "Uwlltx4xVL0lCB01UAWU4KBgxoo=", "properties": {"@source_uri": "https://tools.usps.com/UspsToolsRestServices/rest/POLocator/findLocations", "@spider": "usps_collection_boxes", "addr:city": "MONROEVILLE", "addr:country": "US", "addr:postcode": "08343", "addr:state": "NJ", "addr:street_address": "403 MONROEVILLE RD", "amenity": "post_box", "collection_times": "Mo-Fr 16:15; Sa 12:15", "indoor": "yes", "note": "ON 12/24 AND 12/31, THIS BOX MAY BE COLLECTED AS EARLY AS 12 NOON.", "nsi_id": "unitedstatespostalservice-a77078", "operator": "United States Postal Service", "operator:short": "USPS", "operator:type": "public", "operator:wikidata": "Q668687", "ref": "0834300002"}, "type": "Feature"}
{"geometry": {"coordinates": [-75.159947413, 39.629098735], "type": "Point"}, "id": "N6sZ6JeGT4PfpI6DmXHgqfKXwr8=", "properties": {"@source_uri": "https://tools.usps.com/UspsToolsRestServices/rest/POLocator/findLocations", "@spider": "usps_collection_boxes", "addr:city": "MONROEVILLE", "addr:country": "US", "addr:postcode": "08343", "addr:state": "NJ", "addr:street_address": "403 MONROEVILLE RD", "amenity": "post_box", "collection_times": "Mo-Fr 16:30; Sa 12:15", "indoor": "yes", "note": "ON 12/24 AND 12/31, THIS BOX MAY BE COLLECTED AS EARLY AS 12 NOON.", "nsi_id": "unitedstatespostalservice-a77078", "operator": "United States Postal Service", "operator:short": "USPS", "operator:type": "public", "operator:wikidata": "Q668687", "ref": "0834300005"}, "type": "Feature"}
{"geometry": {"coordinates": [-75.025071, 39.546688], "type": "Point"}, "id": "jzKCtNVF8KTeUokjeqqQn-b1SSg=", "properties": {"@source_uri": "https://tools.usps.com/UspsToolsRestServices/rest/POLocator/findLocations", "@spider": "usps_collection_boxes", "addr:city": "NEWFIELD", "addr:country": "US", "addr:postcode": "08344", "addr:state": "NJ", "addr:street_address": "10 N WEST BLVD", "amenity": "post_box", "collection_times": "Mo-Fr 17:00; Sa 12:30", "note": "ON 12/24 AND 12/31, THIS BOX MAY BE COLLECTED AS EARLY AS 12 NOON.", "nsi_id": "unitedstatespostalservice-a77078", "operator": "United States Postal Service", "operator:short": "USPS", "operator:type": "public", "operator:wikidata": "Q668687", "ref": "0834400001"}, "type": "Feature"}
{"geometry": {"coordinates": [-75.0516457, 39.553076], "type": "Point"}, "id": "yizPHMyIC8jGr3LZUw9LYs_gkrA=", "properties": {"@source_uri": "https://tools.usps.com/UspsToolsRestServices/rest/POLocator/findLocations", "@spider": "usps_collection_boxes", "addr:city": "NEWFIELD", "addr:country": "US", "addr:postcode": "08344", "addr:state": "NJ", "addr:street_address": "4448 ARBUTUS AVE", "amenity": "post_box", "collection_times": "Mo-Sa 10:30", "nsi_id": "unitedstatespostalservice-a77078", "operator": "United States Postal Service", "operator:short": "USPS", "operator:type": "public", "operator:wikidata": "Q668687", "ref": "0834400005"}, "type": "Feature"}
{"geometry": {"coordinates": [-75.025011, 39.546623], "type": "Point"}, "id": "cZ4OWTqm9p-I2ywSGwg2d3ZrF80=", "properties": {"@source_uri": "https://tools.usps.com/UspsToolsRestServices/rest/POLocator/findLocations", "@spider": "usps_collection_boxes", "addr:city": "NEWFIELD", "addr:country": "US", "addr:postcode": "08344", "addr:state": "NJ", "addr:street_address": "10 N WEST BLVD", "amenity": "post_box", "collection_times": "Mo-Fr 17:00; Sa 12:30", "indoor": "yes", "note": "ON 12/24 AND 12/31, THIS BOX MAY BE COLLECTED AS EARLY AS 12 NOON.", "nsi_id": "unitedstatespostalservice-a77078", "operator": "United States Postal Service", "operator:short": "USPS", "operator:type": "public", "operator:wikidata": "Q668687", "ref": "0834400007"}, "type": "Feature"}
{"geometry": {"coordinates": [-75.025242746, 39.547122287], "type": "Point"}, "id": "2M6UTjAekcBeKhSdEhOieP5Jubk=", "properties": {"@source_uri": "https://tools.usps.com/UspsToolsRestServices/rest/POLocator/findLocations", "@spider": "usps_collection_boxes", "addr:city": "NEWFIELD", "addr:country": "US", "addr:postcode": "08344", "addr:state": "NJ", "addr:street_address": "10 N WEST BLVD", "amenity": "post_box", "collection_times": "Mo-Fr 16:45; Sa 12:15", "indoor": "yes", "note": "ON 12/24 AND 12/31, THIS BOX MAY BE COLLECTED AS EARLY AS 12 NOON.", "nsi_id": "unitedstatespostalservice-a77078", "operator": "United States Postal Service", "operator:short": "USPS", "operator:type": "public", "operator:wikidata": "Q668687", "ref": "0834400010"}, "type": "Feature"}
{"geometry": {"coordinates": [-75.177905, 39.296568], "type": "Point"}, "id": "a4vHracJ_9jrUAay_eDUjvjuDBI=", "properties": {"@source_uri": "https://tools.usps.com/UspsToolsRestServices/rest/POLocator/findLocations", "@spider": "usps_collection_boxes", "addr:city": "NEWPORT", "addr:country": "US", "addr:postcode": "08345", "addr:state": "NJ", "addr:street_address": "304 BAPTIST RD", "amenity": "post_box", "collection_times": "Mo-Fr 16:30; Sa 12:00", "note": "ON 12/24 AND 12/31, THIS BOX MAY BE COLLECTED AS EARLY AS 12 NOON.", "nsi_id": "unitedstatespostalservice-a77078", "operator": "United States Postal Service", "operator:short": "USPS", "operator:type": "public", "operator:wikidata": "Q668687", "ref": "0834500001"}, "type": "Feature"}
{"geometry": {"coordinates": [-75.177982, 39.296575], "type": "Point"}, "id": "OofkiF95_xh0tC4-qXopmhYkogs=", "properties": {"@source_uri": "https://tools.usps.com/UspsToolsRestServices/rest/POLocator/findLocations", "@spider": "usps_collection_boxes", "addr:city": "NEWPORT", "addr:country": "US", "addr:postcode": "08345", "addr:state": "NJ", "addr:street_address": "304 BAPTIST RD", "amenity": "post_box", "collection_times": "Mo-Fr 16:45; Sa 12:00", "indoor": "yes", "note": "ON 12/24 AND 12/31, THIS BOX MAY BE COLLECTED AS EARLY AS 12 NOON.", "nsi_id": "unitedstatespostalservice-a77078", "operator": "United States Postal Service", "operator:short": "USPS", "operator:type": "public", "operator:wikidata": "Q668687", "ref": "0834500002"}, "type": "Feature"}
{"geometry": {"coordinates": [-75.177564518, 39.296659141], "type": "Point"}, "id": "_6hN09MiItIM7x9nWE3qURzQiIk=", "properties": {"@source_uri": "https://tools.usps.com/UspsToolsRestServices/rest/POLocator/findLocations", "@spider": "usps_collection_boxes", "addr:city": "NEWPORT", "addr:country": "US", "addr:postcode": "08345", "addr:state": "NJ", "addr:street_address": "304 BAPTIST RD", "amenity": "post_box", "collection_times": "Mo-Fr 17:00; Sa 12:00", "indoor": "yes", "note": "ON 12/24 AND 12/31, THIS BOX MAY BE COLLECTED AS EARLY AS 12 NOON.", "nsi_id": "unitedstatespostalservice-a77078", "operator": "United States Postal Service", "operator:short": "USPS", "operator:type": "public", "operator:wikidata": "Q668687", "ref": "0834500005"}, "type": "Feature"}
{"geometry": {"coordinates": [-74.865328, 39.558928], "type": "Point"}, "id": "1cjZ8Rwq2IANf_xjxxvZt2seX1E=", "properties": {"@source_uri": "https://tools.usps.com/UspsToolsRestServices/rest/POLocator/findLocations", "@spider": "usps_collection_boxes", "addr:city": "NEWTONVILLE", "addr:country": "US", "addr:postcode": "08346", "addr:state": "NJ", "addr:street_address": "711 JACKSON RD", "amenity": "post_box", "collection_times": "Mo-Fr 16:45; Sa 11:45", "note": "ON 12/24 AND 12/31, THIS BOX MAY BE COLLECTED AS EARLY AS 12 NOON.", "nsi_id": "unitedstatespostalservice-a77078", "operator": "United States Postal Service", "operator:short": "USPS", "operator:type": "public", "operator:wikidata": "Q668687", "ref": "0834600001"}, "type": "Feature"}
{"geometry": {"coordinates": [-74.865313, 39.558882], "type": "Point"}, "id": "1VuNvNd3XQ0PUN2FETCRcICLhLY=", "properties": {"@source_uri": "https://tools.usps.com/UspsToolsRestServices/rest/POLocator/findLocations", "@spider": "usps_collection_boxes", "addr:city": "NEWTONVILLE", "addr:country": "US", "addr:postcode": "08346", "addr:state": "NJ", "addr:street_address": "711 JACKSON RD", "amenity": "post_box", "collection_times": "Mo-Fr 17:00; Sa 12:00", "indoor": "yes", "note": "ON 12/24 AND 12/31, THIS BOX MAY BE COLLECTED AS EARLY AS 12 NOON.", "nsi_id": "unitedstatespostalservice-a77078", "operator": "United States Postal Service", "operator:short": "USPS", "operator:type": "public", "operator:wikidata": "Q668687", "ref": "0834600002"}, "type": "Feature"}
{"geometry": {"coordinates": [-74.865309834, 39.558952129], "type": "Point"}, "id": "YF-TFc1vJICKkyYXkOftEgXLM_o=", "properties": {"@source_uri": "https://tools.usps.com/UspsToolsRestServices/rest/POLocator/findLocations", "@spider": "usps_collection_boxes", "addr:city": "NEWTONVILLE", "addr:country": "US", "addr:postcode": "08346", "addr:state": "NJ", "addr:street_address": "711 JACKSON RD", "amenity": "post_box", "collection_times": "Mo-Fr 17:00; Sa 12:00", "indoor": "yes", "note": "ON 12/24 AND 12/31, THIS BOX MAY BE COLLECTED AS EARLY AS 12 NOON.", "nsi_id": "unitedstatespostalservice-a77078", "operator": "United States Postal Service", "operator:short": "USPS", "operator:type": "public", "operator:wikidata": "Q668687", "ref": "0834600005"}, "type": "Feature"}
{"geometry": {"coordinates": [-75.088271, 39.49615], "type": "Point"}, "id": "cjeq6bGfG49heIBs2fP_LdhWgIM=", "properties": {"@source_uri": "https://tools.usps.com/UspsToolsRestServices/rest/POLocator/findLocations", "@spider": "usps_collection_boxes", "addr:city": "NORMA", "addr:country": "US", "addr:postcode": "08347", "addr:state": "NJ", "addr:street_address": "809 GERSHAL AVE", "amenity": "post_box", "collection_times": "Mo-Fr 16:45; Sa 11:45", "note": "ON 12/24 AND 12/31, THIS BOX MAY BE COLLECTED AS EARLY AS 12 NOON.", "nsi_id": "unitedstatespostalservice-a77078", "operator": "United States Postal Service", "operator:short": "USPS", "operator:type": "public", "operator:wikidata": "Q668687", "ref": "0834700001"}, "type": "Feature"}
{"geometry": {"coordinates": [-75.088271, 39.49615], "type": "Point"}, "id": "h2392mec_8xKUNxSeWBfH1n3MQc=", "properties": {"@source_uri": "https://tools.usps.com/UspsToolsRestServices/rest/POLocator/findLocations", "@spider": "usps_collection_boxes", "addr:city": "NORMA", "addr:country": "US", "addr:postcode": "08347", "addr:state": "NJ", "addr:street_address": "809 GERSHAL AVE", "amenity": "post_box", "collection_times": "Mo-Fr 17:00; Sa 12:00", "indoor": "yes", "note": "ON 12/24 AND 12/31, THIS BOX MAY BE COLLECTED AS EARLY AS 12 NOON.", "nsi_id": "unitedstatespostalservice-a77078", "operator": "United States Postal Service", "operator:short": "USPS", "operator:type": "public", "operator:wikidata": "Q668687", "ref": "0834700002"}, "type": "Feature"}
{"geometry": {"coordinates": [-75.087958089, 39.496156429], "type": "Point"}, "id": "Znk8gAb3YiXv07SaHF4hXDW9fFw=", "properties": {"@source_uri": "https://tools.usps.com/UspsToolsRestServices/rest/POLocator/findLocations", "@spider": "usps_collection_boxes", "addr:city": "NORMA", "addr:country": "US", "addr:postcode": "08347", "addr:state": "NJ", "addr:street_address": "809 GERSHAL AVE", "amenity": "post_box", "collection_times": "Mo-Fr 16:45; Sa 11:45", "indoor": "yes", "note": "ON 12/24 AND 12/31, THIS BOX MAY BE COLLECTED AS EARLY AS 12 NOON.", "nsi_id": "unitedstatespostalservice-a77078", "operator": "United States Postal Service", "operator:short": "USPS", "operator:type": "public", "operator:wikidata": "Q668687", "ref": "0834700005"}, "type": "Feature"}
{"geometry": {"coordinates": [-74.982261, 39.308604], "type": "Point"}, "id": "61Fd4HGDEWdrc7wIzD44S4go7sY=", "properties": {"@source_uri": "https://tools.usps.com/UspsToolsRestServices/rest/POLocator/findLocations", "@spider": "usps_collection_boxes", "addr:city": "PORT ELIZABETH", "addr:country": "US", "addr:postcode": "08348", "addr:state": "NJ", "addr:street_address": "3575 ROUTE 47", "amenity": "post_box", "collection_times": "Mo-Fr 16:30; Sa 10:30", "note": "ON 12/24 AND 12/31, THIS BOX MAY BE COLLECTED AS EARLY AS 12 NOON.", "nsi_id": "unitedstatespostalservice-a77078", "operator": "United States Postal Service", "operator:short": "USPS", "operator:type": "public", "operator:wikidata": "Q668687", "ref": "0834800001"}, "type": "Feature"}
{"geometry": {"coordinates": [-74.982279, 39.308562], "type": "Point"}, "id": "2qVfIMu1HR4qfs5xmoV7ZMBsYfM=", "properties": {"@source_uri": "https://tools.usps.com/UspsToolsRestServices/rest/POLocator/findLocations", "@spider": "usps_collection_boxes", "addr:city": "PORT ELIZABETH", "addr:country": "US", "addr:postcode": "08348", "addr:state": "NJ", "addr:street_address": "3575 ROUTE 47", "amenity": "post_box", "collection_times": "Mo-Fr 16:30; Sa 10:30", "indoor": "yes", "note": "ON 12/24 AND 12/31, THIS BOX MAY BE COLLECTED AS EARLY AS 12 NOON.", "nsi_id": "unitedstatespostalservice-a77078", "operator": "United States Postal Service", "operator:short": "USPS", "operator:type": "public", "operator:wikidata": "Q668687", "ref": "0834800002"}, "type": "Feature"}
{"geometry": {"coordinates": [-74.982279, 39.308562], "type": "Point"}, "id": "6S59ysLWAyQKMTcD6KnlKw3cPRc=", "properties": {"@source_uri": "https://tools.usps.com/UspsToolsRestServices/rest/POLocator/findLocations", "@spider": "usps_collection_boxes", "addr:city": "PORT ELIZABETH", "addr:country": "US", "addr:postcode": "08348", "addr:state": "NJ", "addr:street_address": "3575 ROUTE 47", "amenity": "post_box", "collection_times": "Mo-Fr 16:30; Sa 10:30", "indoor": "yes", "note": "ON 12/24 AND 12/31, THIS BOX MAY BE COLLECTED AS EARLY AS 12 NOON.", "nsi_id": "unitedstatespostalservice-a77078", "operator": "United States Postal Service", "operator:short": "USPS", "operator:type": "public", "operator:wikidata": "Q668687", "ref": "0834800003"}, "type": "Feature"}
{"geometry": {"coordinates": [-74.982341548, 39.30877626], "type": "Point"}, "id": "QTB_CnzU8jjxNVA_82LjzHklPrA=", "properties": {"@source_uri": "https://tools.usps.com/UspsToolsRestServices/rest/POLocator/findLocations", "@spider": "usps_collection_boxes", "addr:city": "PORT ELIZABETH", "addr:country": "US", "addr:postcode": "08348", "addr:state": "NJ", "addr:street_address": "3575 ROUTE 47", "amenity": "post_box", "collection_times": "Mo-Fr 17:00; Sa 12:00", "indoor": "yes", "note": "ON 12/24 AND 12/31, THIS BOX MAY BE COLLECTED AS EARLY AS 12 NOON.", "nsi_id": "unitedstatespostalservice-a77078", "operator": "United States Postal Service", "operator:short": "USPS", "operator:type": "public", "operator:wikidata": "Q668687", "ref": "0834800006"}, "type": "Feature"}
{"geometry": {"coordinates": [-75.029519, 39.245169], "type": "Point"}, "id": "oUjRx8g5GG8903ohJv74Duc9LJM=", "properties": {"@source_uri": "https://tools.usps.com/UspsToolsRestServices/rest/POLocator/findLocations", "@spider": "usps_collection_boxes", "addr:city": "PORT NORRIS", "addr:country": "US", "addr:postcode": "08349", "addr:state": "NJ", "addr:street_address": "1770 MAIN ST", "amenity": "post_box", "collection_times": "Mo-Fr 16:30; Sa 11:30", "note": "ON 12/24 AND 12/31, THIS BOX MAY BE COLLECTED AS EARLY AS 12 NOON.", "nsi_id": "unitedstatespostalservice-a77078", "operator": "United States Postal Service", "operator:short": "USPS", "operator:type": "public", "operator:wikidata": "Q668687", "ref": "0834900001"}, "type": "Feature"}
{"geometry": {"coordinates": [-75.029638, 39.24515], "type": "Point"}, "id": "gxcY-Ado1tfDL377BhSVg1WZ6Nw=", "properties": {"@source_uri": "https://tools.usps.com/UspsToolsRestServices/rest/POLocator/findLocations", "@spider": "usps_collection_boxes", "addr:city": "PORT NORRIS", "addr:country": "US", "addr:postcode": "08349", "addr:state": "NJ", "addr:street_address": "1770 MAIN ST", "amenity": "post_box", "collection_times": "Mo-Fr 16:30; Sa 11:30", "indoor": "yes", "note": "ON 12/24 AND 12/31, THIS BOX MAY BE COLLECTED AS EARLY AS 12 NOON.", "nsi_id": "unitedstatespostalservice-a77078", "operator": "United States Postal Service", "operator:short": "USPS", "operator:type": "public", "operator:wikidata": "Q668687", "ref": "0834900002"}, "type": "Feature"}
{"geometry": {"coordinates": [-75.029619149, 39.245177436], "type": "Point"}, "id": "8tRUfkATfXpBlIZ7J-0XbgRKYDs=", "properties": {"@source_uri": "https://tools.usps.com/UspsToolsRestServices/rest/POLocator/findLocations", "@spider": "usps_collection_boxes", "addr:city": "PORT NORRIS", "addr:country": "US", "addr:postcode": "08349", "addr:state": "NJ", "addr:street_address": "1770 MAIN ST", "amenity": "post_box", "collection_times": "Mo-Fr 16:30; Sa 11:30", "indoor": "yes", "note": "ON 12/24 AND 12/31, THIS BOX MAY BE COLLECTED AS EARLY AS 12 NOON.", "nsi_id": "unitedstatespostalservice-a77078", "operator": "United States Postal Service", "operator:short": "USPS", "operator:type": "public", "operator:wikidata": "Q668687", "ref": "0834900005"}, "type": "Feature"}
{"geometry": {"coordinates": [-74.871214, 39.492129], "type": "Point"}, "id": "Krt5P_WX7NwN-n3PMU_moSQ34Rk=", "properties": {"@source_uri": "https://tools.usps.com/UspsToolsRestServices/rest/POLocator/findLocations", "@spider": "usps_collection_boxes", "addr:city": "RICHLAND", "addr:country": "US", "addr:postcode": "08350", "addr:state": "NJ", "addr:street_address": "1276 HARDING HWY", "amenity": "post_box", "collection_times": "Mo-Fr 16:15; Sa 11:45", "note": "ON 12/24 AND 12/31, THIS BOX MAY BE COLLECTED AS EARLY AS 12 NOON.", "nsi_id": "unitedstatespostalservice-a77078", "operator": "United States Postal Service", "operator:short": "USPS", "operator:type": "public", "operator:wikidata": "Q668687", "ref": "0835000001"}, "type": "Feature"}
{"geometry": {"coordinates": [-74.871257, 39.492176], "type": "Point"}, "id": "JgxIrk2AwGrcpfnN_73vaMzWPJM=", "properties": {"@source_uri": "https://tools.usps.com/UspsToolsRestServices/rest/POLocator/findLocations", "@spider": "usps_collection_boxes", "addr:city": "RICHLAND", "addr:country": "US", "addr:postcode": "08350", "addr:state": "NJ", "addr:street_address": "1276 HARDING HWY", "amenity": "post_box", "collection_times": "Mo-Fr 16:30; Sa 12:00", "indoor": "yes", "note": "ON 12/24 AND 12/31, THIS BOX MAY BE COLLECTED AS EARLY AS 12 NOON.", "nsi_id": "unitedstatespostalservice-a77078", "operator": "United States Postal Service", "operator:short": "USPS", "operator:type": "public", "operator:wikidata": "Q668687", "ref": "0835000002"}, "type": "Feature"}
{"geometry": {"coordinates": [-74.87124456, 39.492079629], "type": "Point"}, "id": "7UyxC0z1pE2B27Eq8H3s_8VgfhE=", "properties": {"@source_uri": "https://tools.usps.com/UspsToolsRestServices/rest/POLocator/findLocations", "@spider": "usps_collection_boxes", "addr:city": "RICHLAND", "addr:country": "US", "addr:postcode": "08350", "addr:state": "NJ", "addr:street_address": "1276 HARDING HWY", "amenity": "post_box", "collection_times": "Mo-Fr 16:30; Sa 12:00", "indoor": "yes", "note": "ON 12/24 AND 12/31, THIS BOX MAY BE COLLECTED AS EARLY AS 12 NOON.", "nsi_id": "unitedstatespostalservice-a77078", "operator": "United States Postal Service", "operator:short": "USPS", "operator:type": "public", "operator:wikidata": "Q668687", "ref": "0835000005"}, "type": "Feature"}
{"geometry": {"coordinates": [-75.127934, 39.470158], "type": "Point"}, "id": "eqg5sPv6Tmn3UGTs9EnRIrkGPUQ=", "properties": {"@source_uri": "https://tools.usps.com/UspsToolsRestServices/rest/POLocator/findLocations", "@spider": "usps_collection_boxes", "addr:city": "ROSENHAYN", "addr:country": "US", "addr:postcode": "08352", "addr:state": "NJ", "addr:street_address": "522 MORTON AVE", "amenity": "post_box", "collection_times": "Mo-Fr 16:30; Sa 12:00", "note": "ON 12/24 AND 12/31, THIS BOX MAY BE COLLECTED AS EARLY AS 12 NOON.", "nsi_id": "unitedstatespostalservice-a77078", "operator": "United States Postal Service", "operator:short": "USPS", "operator:type": "public", "operator:wikidata": "Q668687", "ref": "0835200001"}, "type": "Feature"}
{"geometry": {"coordinates": [-75.12794, 39.470082], "type": "Point"}, "id": "Grd6ubGTfjQMV75Q-wn48AmR26Q=", "properties": {"@source_uri": "https://tools.usps.com/UspsToolsRestServices/rest/POLocator/findLocations", "@spider": "usps_collection_boxes", "addr:city": "ROSENHAYN", "addr:country": "US", "addr:postcode": "08352", "addr:state": "NJ", "addr:street_address": "522 MORTON AVE", "amenity": "post_box", "collection_times": "Mo-Fr 16:45; Sa 12:00", "indoor": "yes", "note": "ON 12/24 AND 12/31, THIS BOX MAY BE COLLECTED AS EARLY AS 12 NOON.", "nsi_id": "unitedstatespostalservice-a77078", "operator": "United States Postal Service", "operator:short": "USPS", "operator:type": "public", "operator:wikidata": "Q668687", "ref": "0835200002"}, "type": "Feature"}
{"geometry": {"coordinates": [-75.127910756, 39.470099175], "type": "Point"}, "id": "oW7g6n7PiSTM9cTTjRK2tX5sFYI=", "properties": {"@source_uri": "https://tools.usps.com/UspsToolsRestServices/rest/POLocator/findLocations", "@spider": "usps_collection_boxes", "addr:city": "ROSENHAYN", "addr:country": "US", "addr:postcode": "08352", "addr:state": "NJ", "addr:street_address": "522 MORTON AVE", "amenity": "post_box", "collection_times": "Mo-Fr 16:30; Sa 11:45", "indoor": "yes", "note": "ON 12/24 AND 12/31, THIS BOX MAY BE COLLECTED AS EARLY AS 12 NOON.", "nsi_id": "unitedstatespostalservice-a77078", "operator": "United States Postal Service", "operator:short": "USPS", "operator:type": "public", "operator:wikidata": "Q668687", "ref": "0835200005"}, "type": "Feature"}
{"geometry": {"coordinates": [-75.299967, 39.460669], "type": "Point"}, "id": "B1g8KngaEAA9El8AZQLS5Ic8HDg=", "properties": {"@source_uri": "https://tools.usps.com/UspsToolsRestServices/rest/POLocator/findLocations", "@spider": "usps_collection_boxes", "addr:city": "SHILOH", "addr:country": "US", "addr:postcode": "08353", "addr:state": "NJ", "addr:street_address": "966 MAIN ST", "amenity": "post_box", "collection_times": "Mo-Fr 16:30; Sa 11:45", "note": "ON 12/24 AND 12/31, THIS BOX MAY BE COLLECTED AS EARLY AS 12 NOON.", "nsi_id": "unitedstatespostalservice-a77078", "operator": "United States Postal Service", "operator:short": "USPS", "operator:type": "public", "operator:wikidata": "Q668687", "ref": "0835300001"}, "type": "Feature"}
{"geometry": {"coordinates": [-75.299941, 39.460748], "type": "Point"}, "id": "ixu_OeiWPJiR9XYB0Y_KBKbhiDM=", "properties": {"@source_uri": "https://tools.usps.com/UspsToolsRestServices/rest/POLocator/findLocations", "@spider": "usps_collection_boxes", "addr:city": "SHILOH", "addr:country": "US", "addr:postcode": "08353", "addr:state": "NJ", "addr:street_address": "966 MAIN ST", "amenity": "post_box", "collection_times": "Mo-Fr 16:30; Sa 11:45", "indoor": "yes", "note": "ON 12/24 AND 12/31, THIS BOX MAY BE COLLECTED AS EARLY AS 12 NOON.", "nsi_id": "unitedstatespostalservice-a77078", "operator": "United States Postal Service", "operator:short": "USPS", "operator:type": "public", "operator:wikidata": "Q668687", "ref": "0835300003"}, "type": "Feature"}
{"geometry": {"coordinates": [-75.29999515, 39.460840732], "type": "Point"}, "id": "uCLCc4mdhW7QO2WBPzES-XMeF5k=", "properties": {"@source_uri": "https://tools.usps.com/UspsToolsRestServices/rest/POLocator/findLocations", "@spider": "usps_collection_boxes", "addr:city": "SHILOH", "addr:country": "US", "addr:postcode": "08353", "addr:state": "NJ", "addr:street_address": "966 MAIN ST", "amenity": "post_box", "collection_times": "Mo-Fr 16:30; Sa 11:45", "indoor": "yes", "note": "ON 12/24 AND 12/31, THIS BOX MAY BE COLLECTED AS EARLY AS 12 NOON.", "nsi_id": "unitedstatespostalservice-a77078", "operator": "United States Postal Service", "operator:short": "USPS", "operator:type": "public", "operator:wikidata": "Q668687", "ref": "0835300006"}, "type": "Feature"}
{"geometry": {"coordinates": [-75.0236912, 39.486153], "type": "Point"}, "id": "tinxfv8sp-EgakgzItmNOqVxjFE=", "properties": {"@source_uri": "https://tools.usps.com/UspsToolsRestServices/rest/POLocator/findLocations", "@spider": "usps_collection_boxes", "addr:city": "VINELAND", "addr:country": "US", "addr:postcode": "08360", "addr:state": "NJ", "addr:street_address": "552 E LANDIS AVE", "amenity": "post_box", "collection_times": "Mo-Sa 09:30", "nsi_id": "unitedstatespostalservice-a77078", "operator": "United States Postal Service", "operator:short": "USPS", "operator:type": "public", "operator:wikidata": "Q668687", "ref": "0836000008"}, "type": "Feature"}
{"geometry": {"coordinates": [-75.0357468, 39.486761], "type": "Point"}, "id": "G-3xO6GrJscfjRYQHL-nG86PQ1g=", "properties": {"@source_uri": "https://tools.usps.com/UspsToolsRestServices/rest/POLocator/findLocations", "@spider": "usps_collection_boxes", "addr:city": "VINELAND", "addr:country": "US", "addr:postcode": "08360", "addr:state": "NJ", "addr:street_address": "84 W LANDIS AVE", "amenity": "post_box", "collection_times": "Mo-Sa 09:45", "nsi_id": "unitedstatespostalservice-a77078", "operator": "United States Postal Service", "operator:short": "USPS", "operator:type": "public", "operator:wikidata": "Q668687", "ref": "0836000011"}, "type": "Feature"}
{"geometry": {"coordinates": [-75.0408742, 39.487003], "type": "Point"}, "id": "1yslWbhQjAhd3kKSOrG0RWeMH6o=", "properties": {"@source_uri": "https://tools.usps.com/UspsToolsRestServices/rest/POLocator/findLocations", "@spider": "usps_collection_boxes", "addr:city": "VINELAND", "addr:country": "US", "addr:postcode": "08360", "addr:state": "NJ", "addr:street_address": "26 W LANDIS AVE", "amenity": "post_box", "collection_times": "Mo-Sa 09:45", "nsi_id": "unitedstatespostalservice-a77078", "operator": "United States Postal Service", "operator:short": "USPS", "operator:type": "public", "operator:wikidata": "Q668687", "ref": "0836000013"}, "type": "Feature"}
{"geometry": {"coordinates": [-75.0225153, 39.485026], "type": "Point"}, "id": "_NBOOsNBASSRVx-LygCshajxmgg=", "properties": {"@source_uri": "https://tools.usps.com/UspsToolsRestServices/rest/POLocator/findLocations", "@spider": "usps_collection_boxes", "addr:city": "VINELAND", "addr:country": "US", "addr:postcode": "08360", "addr:state": "NJ", "addr:street_address": "632 E ELMER RD", "amenity": "post_box", "collection_times": "Mo-Sa 09:00", "nsi_id": "unitedstatespostalservice-a77078", "operator": "United States Postal Service", "operator:short": "USPS", "operator:type": "public", "operator:wikidata": "Q668687", "ref": "0836000015"}, "type": "Feature"}
{"geometry": {"coordinates": [-75.0282643, 39.486407], "type": "Point"}, "id": "PJrUo8tZPHm7BrBSOyB8VP4zEOc=", "properties": {"@source_uri": "https://tools.usps.com/UspsToolsRestServices/rest/POLocator/findLocations", "@spider": "usps_collection_boxes", "addr:city": "VINELAND", "addr:country": "US", "addr:postcode": "08360", "addr:state": "NJ", "addr:street_address": "400 W LANDIS AVE", "amenity": "post_box", "collection_times": "Mo-Sa 10:00", "nsi_id": "unitedstatespostalservice-a77078", "operator": "United States Postal Service", "operator:short": "USPS", "operator:type": "public", "operator:wikidata": "Q668687", "ref": "0836000017"}, "type": "Feature"}
{"geometry": {"coordinates": [-75.0072999, 39.48517], "type": "Point"}, "id": "kVrdyBSEQ1lve_L5vdgRBGIkdKE=", "properties": {"@source_uri": "https://tools.usps.com/UspsToolsRestServices/rest/POLocator/findLocations", "@spider": "usps_collection_boxes", "addr:city": "VINELAND", "addr:country": "US", "addr:postcode": "08360", "addr:state": "NJ", "addr:street_address": "1083 E LANDIS AVE", "amenity": "post_box", "collection_times": "Mo-Sa 09:00", "nsi_id": "unitedstatespostalservice-a77078", "operator": "United States Postal Service", "operator:short": "USPS", "operator:type": "public", "operator:wikidata": "Q668687", "ref": "0836000024"}, "type": "Feature"}
{"geometry": {"coordinates": [-75.0404863, 39.492651], "type": "Point"}, "id": "FZQg0E2FYX88MdLhRZOgViU3or4=", "properties": {"@source_uri": "https://tools.usps.com/UspsToolsRestServices/rest/POLocator/findLocations", "@spider": "usps_collection_boxes", "addr:city": "VINELAND", "addr:country": "US", "addr:postcode": "08360", "addr:state": "NJ", "addr:street_address": "14 W PARK AVE", "amenity": "post_box", "collection_times": "Mo-Sa 09:00", "nsi_id": "unitedstatespostalservice-a77078", "operator": "United States Postal Service", "operator:short": "USPS", "operator:type": "public", "operator:wikidata": "Q668687", "ref": "0836000031"}, "type": "Feature"}
{"geometry": {"coordinates": [-75.0586281, 39.445622], "type": "Point"}, "id": "BEUGvTf7C28e4i53uEDTYtxD4mw=", "properties": {"@source_uri": "https://tools.usps.com/UspsToolsRestServices/rest/POLocator/findLocations", "@spider": "usps_collection_boxes", "addr:city": "VINELAND", "addr:country": "US", "addr:postcode": "08360", "addr:state": "NJ", "addr:street_address": "1505 W SHERMAN AVE", "amenity": "post_box", "collection_times": "Mo-Sa 09:00", "nsi_id": "unitedstatespostalservice-a77078", "operator": "United States Postal Service", "operator:short": "USPS", "operator:type": "public", "operator:wikidata": "Q668687", "ref": "0836000032"}, "type": "Feature"}
{"geometry": {"coordinates": [-75.0112994, 39.481466], "type": "Point"}, "id": "HHU0eEc_0Dd69u5GEOI8-N-qY5g=", "properties": {"@source_uri": "https://tools.usps.com/UspsToolsRestServices/rest/POLocator/findLocations", "@spider": "usps_collection_boxes", "addr:city": "VINELAND", "addr:country": "US", "addr:postcode": "08360", "addr:state": "NJ", "addr:street_address": "47 HOWARD ST", "amenity": "post_box", "collection_times": "Mo-Sa 10:00", "nsi_id": "unitedstatespostalservice-a77078", "operator": "United States Postal Service", "operator:short": "USPS", "operator:type": "public", "operator:wikidata": "Q668687", "ref": "0836000033"}, "type": "Feature"}
{"geometry": {"coordinates": [-75.0246221, 39.49884], "type": "Point"}, "id": "9aCpxREN4WQP6j1Fwcn0bvScF1c=", "properties": {"@source_uri": "https://tools.usps.com/UspsToolsRestServices/rest/POLocator/findLocations", "@spider": "usps_collection_boxes", "addr:city": "VINELAND", "addr:country": "US", "addr:postcode": "08360", "addr:state": "NJ", "addr:street_address": "561 N EAST BLVD", "amenity": "post_box", "collection_times": "Mo-Sa 09:00", "nsi_id": "unitedstatespostalservice-a77078", "operator": "United States Postal Service", "operator:short": "USPS", "operator:type": "public", "operator:wikidata": "Q668687", "ref": "0836000034"}, "type": "Feature"}
{"geometry": {"coordinates": [-74.9996038, 39.485862], "type": "Point"}, "id": "vCGOXUo-CCnHLgwHp1OgqHbPL4E=", "properties": {"@source_uri": "https://tools.usps.com/UspsToolsRestServices/rest/POLocator/findLocations", "@spider": "usps_collection_boxes", "addr:city": "VINELAND", "addr:country": "US", "addr:postcode": "08360", "addr:state": "NJ", "addr:street_address": "1181 KARIN ST", "amenity": "post_box", "collection_times": "Mo-Sa 09:00", "nsi_id": "unitedstatespostalservice-a77078", "operator": "United States Postal Service", "operator:short": "USPS", "operator:type": "public", "operator:wikidata": "Q668687", "ref": "0836000038"}, "type": "Feature"}
{"geometry": {"coordinates": [-75.0378727, 39.432362], "type": "Point"}, "id": "Mqj0zm9C6mH90O1D8iW8sBwKqWI=", "properties": {"@source_uri": "https://tools.usps.com/UspsToolsRestServices/rest/POLocator/findLocations", "@spider": "usps_collection_boxes", "addr:city": "VINELAND", "addr:country": "US", "addr:postcode": "08360", "addr:state": "NJ", "addr:street_address": "3849 S DELSEA DR", "amenity": "post_box", "collection_times": "Mo-Sa 11:00", "nsi_id": "unitedstatespostalservice-a77078", "operator": "United States Postal Service", "operator:short": "USPS", "operator:type": "public", "operator:wikidata": "Q668687", "ref": "0836000041"}, "type": "Feature"}
{"geometry": {"coordinates": [-75.0597277, 39.535645], "type": "Point"}, "id": "DSgtkzmNlcZyW30ufDEt2zizUGQ=", "properties": {"@source_uri": "https://tools.usps.com/UspsToolsRestServices/rest/POLocator/findLocations", "@spider": "usps_collection_boxes", "addr:city": "VINELAND", "addr:country": "US", "addr:postcode": "08360", "addr:state": "NJ", "addr:street_address": "3329 N MILL RD", "amenity": "post_box", "collection_times": "Mo-Sa 09:00", "nsi_id": "unitedstatespostalservice-a77078", "operator": "United States Postal Service", "operator:short": "USPS", "operator:type": "public", "operator:wikidata": "Q668687", "ref": "0836000042"}, "type": "Feature"}
{"geometry": {"coordinates": [-75.0041752, 39.47909], "type": "Point"}, "id": "p1JqJ9YZ_OLkIrOBHixEkAP8VN4=", "properties": {"@source_uri": "https://tools.usps.com/UspsToolsRestServices/rest/POLocator/findLocations", "@spider": "usps_collection_boxes", "addr:city": "VINELAND", "addr:country": "US", "addr:postcode": "08360", "addr:state": "NJ", "addr:street_address": "1138 E CHESTNUT AVE", "amenity": "post_box", "collection_times": "Mo-Sa 10:00", "nsi_id": "unitedstatespostalservice-a77078", "operator": "United States Postal Service", "operator:short": "USPS", "operator:type": "public", "operator:wikidata": "Q668687", "ref": "0836000045"}, "type": "Feature"}
{"geometry": {"coordinates": [-74.9963476, 39.496488], "type": "Point"}, "id": "qHLSCf9WS99a1N7QVQIPnK-_epo=", "properties": {"@source_uri": "https://tools.usps.com/UspsToolsRestServices/rest/POLocator/findLocations", "@spider": "usps_collection_boxes", "addr:city": "VINELAND", "addr:country": "US", "addr:postcode": "08360", "addr:state": "NJ", "addr:street_address": "774 N MAIN RD", "amenity": "post_box", "collection_times": "Mo-Sa 12:00", "nsi_id": "unitedstatespostalservice-a77078", "operator": "United States Postal Service", "operator:short": "USPS", "operator:type": "public", "operator:wikidata": "Q668687", "ref": "0836000048"}, "type": "Feature"}
{"geometry": {"coordinates": [-75.020476, 39.485957], "type": "Point"}, "id": "XUcp9dnbwhLArFtydit2d-qMAdc=", "properties": {"@source_uri": "https://tools.usps.com/UspsToolsRestServices/rest/POLocator/findLocations", "@spider": "usps_collection_boxes", "addr:city": "VINELAND", "addr:country": "US", "addr:postcode": "08360", "addr:state": "NJ", "addr:street_address": "722 E LANDIS AVE", "amenity": "post_box", "collection_times": "Mo-Fr 17:30; Sa 14:00", "indoor": "yes", "note": "ON 12/24 AND 12/31, THIS BOX MAY BE COLLECTED AS EARLY AS 12 NOON.", "nsi_id": "unitedstatespostalservice-a77078", "operator": "United States Postal Service", "operator:short": "USPS", "operator:type": "public", "operator:wikidata": "Q668687", "ref": "0836000053"}, "type": "Feature"}
{"geometry": {"coordinates": [-75.0198600045, 39.4862240178], "type": "Point"}, "id": "r212Qadog4nb9Scpb4tFoz1vW8A=", "properties": {"@source_uri": "https://tools.usps.com/UspsToolsRestServices/rest/POLocator/findLocations", "@spider": "usps_collection_boxes", "addr:city": "VINELAND", "addr:country": "US", "addr:postcode": "08360", "addr:state": "NJ", "addr:street_address": "722 E LANDIS AVE", "amenity": "post_box", "collection_times": "Mo-Fr 17:30; Sa 14:00", "note": "ON 12/24 AND 12/31, THIS BOX MAY BE COLLECTED AS EARLY AS 12 NOON.", "nsi_id": "unitedstatespostalservice-a77078", "operator": "United States Postal Service", "operator:short": "USPS", "operator:type": "public", "operator:wikidata": "Q668687", "ref": "0836000057"}, "type": "Feature"}
{"geometry": {"coordinates": [-75.0273915, 39.494752], "type": "Point"}, "id": "pp21HfkMgYG6ZTvLNRe1gClNwSI=", "properties": {"@source_uri": "https://tools.usps.com/UspsToolsRestServices/rest/POLocator/findLocations", "@spider": "usps_collection_boxes", "addr:city": "VINELAND", "addr:country": "US", "addr:postcode": "08360", "addr:state": "NJ", "addr:street_address": "524 N WEST BLVD", "amenity": "post_box", "collection_times": "Mo-Sa 09:45", "nsi_id": "unitedstatespostalservice-a77078", "operator": "United States Postal Service", "operator:short": "USPS", "operator:type": "public", "operator:wikidata": "Q668687", "ref": "0836000060"}, "type": "Feature"}
{"geometry": {"coordinates": [-75.0431206, 39.445685], "type": "Point"}, "id": "Tq45jjrhi7EozYf8Q6p6jcLMOXY=", "properties": {"@source_uri": "https://tools.usps.com/UspsToolsRestServices/rest/POLocator/findLocations", "@spider": "usps_collection_boxes", "addr:city": "VINELAND", "addr:country": "US", "addr:postcode": "08360", "addr:state": "NJ", "addr:street_address": "2848 S DELSEA DR", "amenity": "post_box", "collection_times": "Mo-Sa 09:30", "nsi_id": "unitedstatespostalservice-a77078", "operator": "United States Postal Service", "operator:short": "USPS", "operator:type": "public", "operator:wikidata": "Q668687", "ref": "0836000061"}, "type": "Feature"}
{"geometry": {"coordinates": [-75.0050799, 39.465984], "type": "Point"}, "id": "UXB70wYH-wLGNAjakjfbDuppTO4=", "properties": {"@source_uri": "https://tools.usps.com/UspsToolsRestServices/rest/POLocator/findLocations", "@spider": "usps_collection_boxes", "addr:city": "VINELAND", "addr:country": "US", "addr:postcode": "08360", "addr:state": "NJ", "addr:street_address": "1317 S MAIN RD", "amenity": "post_box", "collection_times": "Mo-Sa 12:00", "nsi_id": "unitedstatespostalservice-a77078", "operator": "United States Postal Service", "operator:short": "USPS", "operator:type": "public", "operator:wikidata": "Q668687", "ref": "0836000070"}, "type": "Feature"}
{"geometry": {"coordinates": [-74.9964649, 39.497999], "type": "Point"}, "id": "7Ye8tC9wfvnCRDEgVNlM9k_qLPE=", "properties": {"@source_uri": "https://tools.usps.com/UspsToolsRestServices/rest/POLocator/findLocations", "@spider": "usps_collection_boxes", "addr:city": "VINELAND", "addr:country": "US", "addr:postcode": "08360", "addr:state": "NJ", "addr:street_address": "868 N MAIN RD", "amenity": "post_box", "collection_times": "Mo-Sa 12:00", "nsi_id": "unitedstatespostalservice-a77078", "operator": "United States Postal Service", "operator:short": "USPS", "operator:type": "public", "operator:wikidata": "Q668687", "ref": "0836000072"}, "type": "Feature"}
{"geometry": {"coordinates": [-75.0287731, 39.44546], "type": "Point"}, "id": "xy_rg3WYFT0yn2s25Z0yV2DvUYQ=", "properties": {"@source_uri": "https://tools.usps.com/UspsToolsRestServices/rest/POLocator/findLocations", "@spider": "usps_collection_boxes", "addr:city": "VINELAND", "addr:country": "US", "addr:postcode": "08360", "addr:state": "NJ", "addr:street_address": "2809 S EAST BLVD", "amenity": "post_box", "collection_times": "Mo-Fr 17:00; Sa 13:00", "indoor": "yes", "note": "ON 12/24 AND 12/31, THIS BOX MAY BE COLLECTED AS EARLY AS 12 NOON.", "nsi_id": "unitedstatespostalservice-a77078", "operator": "United States Postal Service", "operator:short": "USPS", "operator:type": "public", "operator:wikidata": "Q668687", "ref": "0836000085"}, "type": "Feature"}
{"geometry": {"coordinates": [-75.0066819, 39.466527], "type": "Point"}, "id": "yDZ7nyhDvTBp2jPAbYeuyPXNKko=", "properties": {"@source_uri": "https://tools.usps.com/UspsToolsRestServices/rest/POLocator/findLocations", "@spider": "usps_collection_boxes", "addr:city": "VINELAND", "addr:country": "US", "addr:postcode": "08360", "addr:state": "NJ", "addr:street_address": "1318 S MAIN RD", "amenity": "post_box", "collection_times": "Mo-Sa 11:00", "nsi_id": "unitedstatespostalservice-a77078", "operator": "United States Postal Service", "operator:short": "USPS", "operator:type": "public", "operator:wikidata": "Q668687", "ref": "0836000088"}, "type": "Feature"}
{"geometry": {"coordinates": [-74.9990356, 39.478546], "type": "Point"}, "id": "lInL1nk2ozfWOcAklQ5YkE1uv6E=", "properties": {"@source_uri": "https://tools.usps.com/UspsToolsRestServices/rest/POLocator/findLocations", "@spider": "usps_collection_boxes", "addr:city": "VINELAND", "addr:country": "US", "addr:postcode": "08360", "addr:state": "NJ", "addr:street_address": "301 S MAIN RD", "amenity": "post_box", "collection_times": "Mo-Sa 11:30", "nsi_id": "unitedstatespostalservice-a77078", "operator": "United States Postal Service", "operator:short": "USPS", "operator:type": "public", "operator:wikidata": "Q668687", "ref": "0836000089"}, "type": "Feature"}
{"geometry": {"coordinates": [-75.0200449, 39.486915], "type": "Point"}, "id": "W90DYLNVzMV7Xi07WEGoaqMPVgI=", "properties": {"@source_uri": "https://tools.usps.com/UspsToolsRestServices/rest/POLocator/findLocations", "@spider": "usps_collection_boxes", "addr:city": "VINELAND", "addr:country": "US", "addr:postcode": "08360", "addr:state": "NJ", "addr:street_address": "722 E LANDIS AVE", "amenity": "post_box", "collection_times": "Mo-Fr 17:30; Sa 14:00", "note": "ON 12/24 AND 12/31, THIS BOX MAY BE COLLECTED AS EARLY AS 12 NOON.", "nsi_id": "unitedstatespostalservice-a77078", "operator": "United States Postal Service", "operator:short": "USPS", "operator:type": "public", "operator:wikidata": "Q668687", "ref": "0836000093"}, "type": "Feature"}
{"geometry": {"coordinates": [-75.020542, 39.485934], "type": "Point"}, "id": "uaxw0OUtbJvvDGsfAlhVeE6elTI=", "properties": {"@source_uri": "https://tools.usps.com/UspsToolsRestServices/rest/POLocator/findLocations", "@spider": "usps_collection_boxes", "addr:city": "VINELAND", "addr:country": "US", "addr:postcode": "08360", "addr:state": "NJ", "addr:street_address": "722 E LANDIS AVE", "amenity": "post_box", "collection_times": "Mo-Fr 17:30; Sa 14:00", "indoor": "yes", "note": "ON 12/24 AND 12/31, THIS BOX MAY BE COLLECTED AS EARLY AS 12 NOON.", "nsi_id": "unitedstatespostalservice-a77078", "operator": "United States Postal Service", "operator:short": "USPS", "operator:type": "public", "operator:wikidata": "Q668687", "ref": "0836000094"}, "type": "Feature"}
{"geometry": {"coordinates": [-75.0638005, 39.520106], "type": "Point"}, "id": "CqxsdKvgvaMHNwf_IpHDP6RNqB4=", "properties": {"@source_uri": "https://tools.usps.com/UspsToolsRestServices/rest/POLocator/findLocations", "@spider": "usps_collection_boxes", "addr:city": "VINELAND", "addr:country": "US", "addr:postcode": "08360", "addr:state": "NJ", "addr:street_address": "2141 DEMARCO DR", "amenity": "post_box", "collection_times": "Mo-Sa 10:00", "nsi_id": "unitedstatespostalservice-a77078", "operator": "United States Postal Service", "operator:short": "USPS", "operator:type": "public", "operator:wikidata": "Q668687", "ref": "0836000095"}, "type": "Feature"}
{"geometry": {"coordinates": [-75.0288319, 39.445561], "type": "Point"}, "id": "HwYZeFKpfYv3vM1X0iba7fNWcGI=", "properties": {"@source_uri": "https://tools.usps.com/UspsToolsRestServices/rest/POLocator/findLocations", "@spider": "usps_collection_boxes", "addr:city": "VINELAND", "addr:country": "US", "addr:postcode": "08360", "addr:state": "NJ", "addr:street_address": "2809 S EAST BLVD", "amenity": "post_box", "collection_times": "Mo-Fr 17:00; Sa 13:00", "note": "ON 12/24 AND 12/31, THIS BOX MAY BE COLLECTED AS EARLY AS 12 NOON.", "nsi_id": "unitedstatespostalservice-a77078", "operator": "United States Postal Service", "operator:short": "USPS", "operator:type": "public", "operator:wikidata": "Q668687", "ref": "0836000107"}, "type": "Feature"}
{"geometry": {"coordinates": [-75.0321199, 39.486641], "type": "Point"}, "id": "qfbjdI8telbuAj2W-C3iqOn9PPI=", "properties": {"@source_uri": "https://tools.usps.com/UspsToolsRestServices/rest/POLocator/findLocations", "@spider": "usps_collection_boxes", "addr:city": "VINELAND", "addr:country": "US", "addr:postcode": "08360", "addr:state": "NJ", "addr:street_address": "226 W LANDIS AVE", "amenity": "post_box", "collection_times": "Mo-Sa 11:30", "nsi_id": "unitedstatespostalservice-a77078", "operator": "United States Postal Service", "operator:short": "USPS", "operator:type": "public", "operator:wikidata": "Q668687", "ref": "0836000108"}, "type": "Feature"}
{"geometry": {"coordinates": [-75.029118106, 39.445505099], "type": "Point"}, "id": "mJAtWO7XNI6CrLkVC_xK8t8ExhI=", "properties": {"@source_uri": "https://tools.usps.com/UspsToolsRestServices/rest/POLocator/findLocations", "@spider": "usps_collection_boxes", "addr:city": "VINELAND", "addr:country": "US", "addr:postcode": "08360", "addr:state": "NJ", "addr:street_address": "2809 S EAST BLVD", "amenity": "post_box", "collection_times": "Mo-Fr 17:00; Sa 13:00", "indoor": "yes", "note": "ON 12/24 AND 12/31, THIS BOX MAY BE COLLECTED AS EARLY AS 12 NOON.", "nsi_id": "unitedstatespostalservice-a77078", "operator": "United States Postal Service", "operator:short": "USPS", "operator:type": "public", "operator:wikidata": "Q668687", "ref": "0836000122"}, "type": "Feature"}
{"geometry": {"coordinates": [-75.019892024, 39.485920472], "type": "Point"}, "id": "gJU_3Q1em3giOZ4D-AvOfBRrBEo=", "properties": {"@source_uri": "https://tools.usps.com/UspsToolsRestServices/rest/POLocator/findLocations", "@spider": "usps_collection_boxes", "addr:city": "VINELAND", "addr:country": "US", "addr:postcode": "08360", "addr:state": "NJ", "addr:street_address": "722 E LANDIS AVE", "amenity": "post_box", "collection_times": "Mo-Fr 17:30; Sa 14:00", "indoor": "yes", "note": "ON 12/24 AND 12/31, THIS BOX MAY BE COLLECTED AS EARLY AS 12 NOON.", "nsi_id": "unitedstatespostalservice-a77078", "operator": "United States Postal Service", "operator:short": "USPS", "operator:type": "public", "operator:wikidata": "Q668687", "ref": "0836000123"}, "type": "Feature"}
{"geometry": {"coordinates": [-74.9858644, 39.459622], "type": "Point"}, "id": "Cz7fyN7JErd7oUsmWNY-Ko58ih0=", "properties": {"@source_uri": "https://tools.usps.com/UspsToolsRestServices/rest/POLocator/findLocations", "@spider": "usps_collection_boxes", "addr:city": "VINELAND", "addr:country": "US", "addr:postcode": "08361", "addr:state": "NJ", "addr:street_address": "1768 S LINCOLN AVE", "amenity": "post_box", "collection_times": "Mo-Sa 08:30", "nsi_id": "unitedstatespostalservice-a77078", "operator": "United States Postal Service", "operator:short": "USPS", "operator:type": "public", "operator:wikidata": "Q668687", "ref": "0836100001"}, "type": "Feature"}
{"geometry": {"coordinates": [-74.9930452, 39.499298], "type": "Point"}, "id": "3QEwvp2PzgyltjoyNXVSzRJyhnI=", "properties": {"@source_uri": "https://tools.usps.com/UspsToolsRestServices/rest/POLocator/findLocations", "@spider": "usps_collection_boxes", "addr:city": "VINELAND", "addr:country": "US", "addr:postcode": "08361", "addr:state": "NJ", "addr:street_address": "1740 E OAK RD", "amenity": "post_box", "collection_times": "Mo-Sa 10:00", "nsi_id": "unitedstatespostalservice-a77078", "operator": "United States Postal Service", "operator:short": "USPS", "operator:type": "public", "operator:wikidata": "Q668687", "ref": "0836100002"}, "type": "Feature"}
{"geometry": {"coordinates": [-74.9571726, 39.484359], "type": "Point"}, "id": "gL4h-c7g1dTSEhawZcFtIh3Idyg=", "properties": {"@source_uri": "https://tools.usps.com/UspsToolsRestServices/rest/POLocator/findLocations", "@spider": "usps_collection_boxes", "addr:city": "VINELAND", "addr:country": "US", "addr:postcode": "08361", "addr:state": "NJ", "addr:street_address": "3600 E LANDIS AVE", "amenity": "post_box", "collection_times": "Mo-Sa 12:30", "note": "ON 12/24 AND 12/31, THIS BOX MAY BE COLLECTED AS EARLY AS 12 NOON.", "nsi_id": "unitedstatespostalservice-a77078", "operator": "United States Postal Service", "operator:short": "USPS", "operator:type": "public", "operator:wikidata": "Q668687", "ref": "0836100003"}, "type": "Feature"}
