{"geometry": {"coordinates": [-74.426321266, 39.363556229], "type": "Point"}, "id": "3_VxReIadKSfI0_0aLZn4fdZEuA=", "properties": {"@source_uri": "https://tools.usps.com/UspsToolsRestServices/rest/POLocator/findLocations", "@spider": "usps_collection_boxes", "addr:city": "ATLANTIC CITY", "addr:country": "US", "addr:full": "1201 BACHARACH BLVD", "addr:postcode": "08401", "addr:state": "NJ", "amenity": "post_box", "brand": "United States Postal Service", "brand:wikidata": "Q668687", "collection_times": "Mo-Fr 16:00", "note": "ON 12/24 AND 12/31, THIS BOX MAY BE COLLECTED AS EARLY AS 12 NOON.", "nsi_id": "unitedstatespostalservice-a77078", "operator": "United States Postal Service", "operator:short": "USPS", "operator:type": "public", "operator:wikidata": "Q668687", "ref": "0840100012"}, "type": "Feature"}
{"geometry": {"coordinates": [-74.4617849, 39.346369], "type": "Point"}, "id": "DlyZ19ONfLTGS5XQBWj4qhSOxeI=", "properties": {"@source_uri": "https://tools.usps.com/UspsToolsRestServices/rest/POLocator/findLocations", "@spider": "usps_collection_boxes", "addr:city": "ATLANTIC CITY", "addr:country": "US", "addr:full": "4401 ATLANTIC AVE", "addr:postcode": "08401", "addr:state": "NJ", "amenity": "post_box", "brand": "United States Postal Service", "brand:wikidata": "Q668687", "collection_times": "Mo-Sa 09:45", "nsi_id": "unitedstatespostalservice-a77078", "operator": "United States Postal Service", "operator:short": "USPS", "operator:type": "public", "operator:wikidata": "Q668687", "ref": "0840100013"}, "type": "Feature"}
{"geometry": {"coordinates": [-74.4468176, 39.354596], "type": "Point"}, "id": "7sOZBMSfnTnrnyso6O7nXDQN4zk=", "properties": {"@source_uri": "https://tools.usps.com/UspsToolsRestServices/rest/POLocator/findLocations", "@spider": "usps_collection_boxes", "addr:city": "ATLANTIC CITY", "addr:country": "US", "addr:full": "2829 ATLANTIC AVE", "addr:postcode": "08401", "addr:state": "NJ", "amenity": "post_box", "brand": "United States Postal Service", "brand:wikidata": "Q668687", "collection_times": "Mo-Sa 09:00", "nsi_id": "unitedstatespostalservice-a77078", "operator": "United States Postal Service", "operator:short": "USPS", "operator:type": "public", "operator:wikidata": "Q668687", "ref": "0840100019"}, "type": "Feature"}
{"geometry": {"coordinates": [-74.450174, 39.355213], "type": "Point"}, "id": "wqfm3qtLUEPC0yr-d14Z5RZoahw=", "properties": {"@source_uri": "https://tools.usps.com/UspsToolsRestServices/rest/POLocator/findLocations", "@spider": "usps_collection_boxes", "addr:city": "ATLANTIC CITY", "addr:country": "US", "addr:full": "3100 ARCTIC AVE", "addr:postcode": "08401", "addr:state": "NJ", "amenity": "post_box", "brand": "United States Postal Service", "brand:wikidata": "Q668687", "collection_times": "Mo-Fr 10:15; Sa 10:00", "nsi_id": "unitedstatespostalservice-a77078", "operator": "United States Postal Service", "operator:short": "USPS", "operator:type": "public", "operator:wikidata": "Q668687", "ref": "0840100024"}, "type": "Feature"}
{"geometry": {"coordinates": [-74.427199301, 39.363195214], "type": "Point"}, "id": "tolKCVv6qgXdL8mMG40u9_ix3h0=", "properties": {"@source_uri": "https://tools.usps.com/UspsToolsRestServices/rest/POLocator/findLocations", "@spider": "usps_collection_boxes", "addr:city": "ATLANTIC CITY", "addr:country": "US", "addr:full": "1301 BACHARACH BLVD", "addr:postcode": "08401", "addr:state": "NJ", "amenity": "post_box", "brand": "United States Postal Service", "brand:wikidata": "Q668687", "collection_times": "Mo-Fr 16:00", "note": "ON 12/24 AND 12/31, THIS BOX MAY BE COLLECTED AS EARLY AS 12 NOON.", "nsi_id": "unitedstatespostalservice-a77078", "operator": "United States Postal Service", "operator:short": "USPS", "operator:type": "public", "operator:wikidata": "Q668687", "ref": "0840100026"}, "type": "Feature"}
{"geometry": {"coordinates": [-74.4619704, 39.347953], "type": "Point"}, "id": "ElwqIS8HTtA25PGzHiWHBUpiHfE=", "properties": {"@source_uri": "https://tools.usps.com/UspsToolsRestServices/rest/POLocator/findLocations", "@spider": "usps_collection_boxes", "addr:city": "ATLANTIC CITY", "addr:country": "US", "addr:full": "4300 VENTNOR AVE", "addr:postcode": "08401", "addr:state": "NJ", "amenity": "post_box", "brand": "United States Postal Service", "brand:wikidata": "Q668687", "collection_times": "Mo-Sa 10:00", "nsi_id": "unitedstatespostalservice-a77078", "operator": "United States Postal Service", "operator:short": "USPS", "operator:type": "public", "operator:wikidata": "Q668687", "ref": "0840100029"}, "type": "Feature"}
{"geometry": {"coordinates": [-74.4417749, 39.356678], "type": "Point"}, "id": "zZ8duh261tve4R0HIAzW_k9xdKQ=", "properties": {"@source_uri": "https://tools.usps.com/UspsToolsRestServices/rest/POLocator/findLocations", "@spider": "usps_collection_boxes", "addr:city": "ATLANTIC CITY", "addr:country": "US", "addr:full": "2499 ATLANTIC AVE", "addr:postcode": "08401", "addr:state": "NJ", "amenity": "post_box", "brand": "United States Postal Service", "brand:wikidata": "Q668687", "collection_times": "Mo-Sa 10:15", "nsi_id": "unitedstatespostalservice-a77078", "operator": "United States Postal Service", "operator:short": "USPS", "operator:type": "public", "operator:wikidata": "Q668687", "ref": "0840100031"}, "type": "Feature"}
{"geometry": {"coordinates": [-74.441539, 39.358599], "type": "Point"}, "id": "grSjYeD5xKH93qI4A9qII1hKL8Q=", "properties": {"@source_uri": "https://tools.usps.com/UspsToolsRestServices/rest/POLocator/findLocations", "@spider": "usps_collection_boxes", "addr:city": "ATLANTIC CITY", "addr:country": "US", "addr:full": "2398 ARCTIC AVE", "addr:postcode": "08401", "addr:state": "NJ", "amenity": "post_box", "brand": "United States Postal Service", "brand:wikidata": "Q668687", "collection_times": "Mo-Sa 10:00", "nsi_id": "unitedstatespostalservice-a77078", "operator": "United States Postal Service", "operator:short": "USPS", "operator:type": "public", "operator:wikidata": "Q668687", "ref": "0840100032"}, "type": "Feature"}
{"geometry": {"coordinates": [-74.4603417, 39.354972], "type": "Point"}, "id": "zby4n1TePrbb4-i1Wuo682i_TeU=", "properties": {"@source_uri": "https://tools.usps.com/UspsToolsRestServices/rest/POLocator/findLocations", "@spider": "usps_collection_boxes", "addr:city": "ATLANTIC CITY", "addr:country": "US", "addr:full": "3800 PORTER AVE", "addr:postcode": "08401", "addr:state": "NJ", "amenity": "post_box", "brand": "United States Postal Service", "brand:wikidata": "Q668687", "collection_times": "Mo-Sa 11:00", "nsi_id": "unitedstatespostalservice-a77078", "operator": "United States Postal Service", "operator:short": "USPS", "operator:type": "public", "operator:wikidata": "Q668687", "ref": "0840100035"}, "type": "Feature"}
{"geometry": {"coordinates": [-74.4570724, 39.35036], "type": "Point"}, "id": "zQ8zLnCBatn4MrIxy34Ily74WFQ=", "properties": {"@source_uri": "https://tools.usps.com/UspsToolsRestServices/rest/POLocator/findLocations", "@spider": "usps_collection_boxes", "addr:city": "ATLANTIC CITY", "addr:country": "US", "addr:full": "3900 VENTNOR AVE", "addr:postcode": "08401", "addr:state": "NJ", "amenity": "post_box", "brand": "United States Postal Service", "brand:wikidata": "Q668687", "collection_times": "Mo-Sa 10:30", "nsi_id": "unitedstatespostalservice-a77078", "operator": "United States Postal Service", "operator:short": "USPS", "operator:type": "public", "operator:wikidata": "Q668687", "ref": "0840100036"}, "type": "Feature"}
{"geometry": {"coordinates": [-74.4319091324, 39.3605428479], "type": "Point"}, "id": "y9z-VH8jXABTqbU5bTCPj0hgLDw=", "properties": {"@source_uri": "https://tools.usps.com/UspsToolsRestServices/rest/POLocator/findLocations", "@spider": "usps_collection_boxes", "addr:city": "ATLANTIC CITY", "addr:country": "US", "addr:full": "1700 ATLANTIC AVE", "addr:postcode": "08401", "addr:state": "NJ", "amenity": "post_box", "brand": "United States Postal Service", "brand:wikidata": "Q668687", "collection_times": "Mo-Sa 11:00", "nsi_id": "unitedstatespostalservice-a77078", "operator": "United States Postal Service", "operator:short": "USPS", "operator:type": "public", "operator:wikidata": "Q668687", "ref": "0840100037"}, "type": "Feature"}
{"geometry": {"coordinates": [-74.4372443, 39.366126], "type": "Point"}, "id": "pxPej8vqZxeugNRxexlgM7ZrKwE=", "properties": {"@source_uri": "https://tools.usps.com/UspsToolsRestServices/rest/POLocator/findLocations", "@spider": "usps_collection_boxes", "addr:city": "ATLANTIC CITY", "addr:country": "US", "addr:full": "1800 HUMMOCK AVE", "addr:postcode": "08401", "addr:state": "NJ", "amenity": "post_box", "brand": "United States Postal Service", "brand:wikidata": "Q668687", "collection_times": "Mo-Sa 10:00", "nsi_id": "unitedstatespostalservice-a77078", "operator": "United States Postal Service", "operator:short": "USPS", "operator:type": "public", "operator:wikidata": "Q668687", "ref": "0840100043"}, "type": "Feature"}
{"geometry": {"coordinates": [-74.440336, 39.362459], "type": "Point"}, "id": "J1N8AtkC4KAqc26SYSaotGabEW0=", "properties": {"@source_uri": "https://tools.usps.com/UspsToolsRestServices/rest/POLocator/findLocations", "@spider": "usps_collection_boxes", "addr:city": "ATLANTIC CITY", "addr:country": "US", "addr:full": "1 ATLANTIC CITY EXPY", "addr:postcode": "08401", "addr:state": "NJ", "amenity": "post_box", "brand": "United States Postal Service", "brand:wikidata": "Q668687", "collection_times": "Mo-Sa 09:00", "nsi_id": "unitedstatespostalservice-a77078", "operator": "United States Postal Service", "operator:short": "USPS", "operator:type": "public", "operator:wikidata": "Q668687", "ref": "0840100045"}, "type": "Feature"}
{"geometry": {"coordinates": [-74.4447139, 39.353634], "type": "Point"}, "id": "ytDJdXKeRlnRF0xfBfD1NkjELSc=", "properties": {"@source_uri": "https://tools.usps.com/UspsToolsRestServices/rest/POLocator/findLocations", "@spider": "usps_collection_boxes", "addr:city": "ATLANTIC CITY", "addr:country": "US", "addr:full": "99 S IOWA AVE", "addr:postcode": "08401", "addr:state": "NJ", "amenity": "post_box", "brand": "United States Postal Service", "brand:wikidata": "Q668687", "collection_times": "Mo-Sa 09:30", "nsi_id": "unitedstatespostalservice-a77078", "operator": "United States Postal Service", "operator:short": "USPS", "operator:type": "public", "operator:wikidata": "Q668687", "ref": "0840100046"}, "type": "Feature"}
{"geometry": {"coordinates": [-74.4663449, 39.345808], "type": "Point"}, "id": "gk3uK9z3HEPhpgaghVSxaebn-Qc=", "properties": {"@source_uri": "https://tools.usps.com/UspsToolsRestServices/rest/POLocator/findLocations", "@spider": "usps_collection_boxes", "addr:city": "ATLANTIC CITY", "addr:country": "US", "addr:full": "2 S JACKSON AVE", "addr:postcode": "08401", "addr:state": "NJ", "amenity": "post_box", "brand": "United States Postal Service", "brand:wikidata": "Q668687", "collection_times": "Mo-Sa 10:00", "nsi_id": "unitedstatespostalservice-a77078", "operator": "United States Postal Service", "operator:short": "USPS", "operator:type": "public", "operator:wikidata": "Q668687", "ref": "0840100048"}, "type": "Feature"}
{"geometry": {"coordinates": [-74.4307736, 39.361136], "type": "Point"}, "id": "_TKsJIwWLwm_Q-l5DqoGp0KYy48=", "properties": {"@source_uri": "https://tools.usps.com/UspsToolsRestServices/rest/POLocator/findLocations", "@spider": "usps_collection_boxes", "addr:city": "ATLANTIC CITY", "addr:country": "US", "addr:full": "1601 ATLANTIC AVE", "addr:postcode": "08401", "addr:state": "NJ", "amenity": "post_box", "brand": "United States Postal Service", "brand:wikidata": "Q668687", "collection_times": "Mo-Sa 09:00", "nsi_id": "unitedstatespostalservice-a77078", "operator": "United States Postal Service", "operator:short": "USPS", "operator:type": "public", "operator:wikidata": "Q668687", "ref": "0840100051"}, "type": "Feature"}
{"geometry": {"coordinates": [-74.4395779, 39.357535], "type": "Point"}, "id": "Ux-KV6v4QYMD8aCRYxXFTDHytLw=", "properties": {"@source_uri": "https://tools.usps.com/UspsToolsRestServices/rest/POLocator/findLocations", "@spider": "usps_collection_boxes", "addr:city": "ATLANTIC CITY", "addr:country": "US", "addr:full": "2299 ATLANTIC AVE", "addr:postcode": "08401", "addr:state": "NJ", "amenity": "post_box", "brand": "United States Postal Service", "brand:wikidata": "Q668687", "collection_times": "Mo-Sa 10:00", "nsi_id": "unitedstatespostalservice-a77078", "operator": "United States Postal Service", "operator:short": "USPS", "operator:type": "public", "operator:wikidata": "Q668687", "ref": "0840100055"}, "type": "Feature"}
{"geometry": {"coordinates": [-74.4498575, 39.353432], "type": "Point"}, "id": "gz3VlopQwePFdciKQblpz7LLDrY=", "properties": {"@source_uri": "https://tools.usps.com/UspsToolsRestServices/rest/POLocator/findLocations", "@spider": "usps_collection_boxes", "addr:city": "ATLANTIC CITY", "addr:country": "US", "addr:full": "3199 ATLANTIC AVE", "addr:postcode": "08401", "addr:state": "NJ", "amenity": "post_box", "brand": "United States Postal Service", "brand:wikidata": "Q668687", "collection_times": "Mo-Sa 10:00", "nsi_id": "unitedstatespostalservice-a77078", "operator": "United States Postal Service", "operator:short": "USPS", "operator:type": "public", "operator:wikidata": "Q668687", "ref": "0840100060"}, "type": "Feature"}
{"geometry": {"coordinates": [-74.4499999, 39.356913], "type": "Point"}, "id": "9PZt4b11ewfRZ9KtC-OgPvRd5Tc=", "properties": {"@source_uri": "https://tools.usps.com/UspsToolsRestServices/rest/POLocator/findLocations", "@spider": "usps_collection_boxes", "addr:city": "ATLANTIC CITY", "addr:country": "US", "addr:full": "3001 FAIRMOUNT AVE", "addr:postcode": "08401", "addr:state": "NJ", "amenity": "post_box", "brand": "United States Postal Service", "brand:wikidata": "Q668687", "collection_times": "Mo-Sa 10:00", "nsi_id": "unitedstatespostalservice-a77078", "operator": "United States Postal Service", "operator:short": "USPS", "operator:type": "public", "operator:wikidata": "Q668687", "ref": "0840100062"}, "type": "Feature"}
{"geometry": {"coordinates": [-74.4283321, 39.360174], "type": "Point"}, "id": "cCRphwpjLYb6yfq8YycdWSM74W8=", "properties": {"@source_uri": "https://tools.usps.com/UspsToolsRestServices/rest/POLocator/findLocations", "@spider": "usps_collection_boxes", "addr:city": "ATLANTIC CITY", "addr:country": "US", "addr:full": "1499 PACIFIC AVE", "addr:postcode": "08401", "addr:state": "NJ", "amenity": "post_box", "brand": "United States Postal Service", "brand:wikidata": "Q668687", "collection_times": "Mo-Sa 10:00", "nsi_id": "unitedstatespostalservice-a77078", "operator": "United States Postal Service", "operator:short": "USPS", "operator:type": "public", "operator:wikidata": "Q668687", "ref": "0840100067"}, "type": "Feature"}
{"geometry": {"coordinates": [-74.4450492, 39.373759], "type": "Point"}, "id": "KrNCuwoAqujleQgX6MNNmwOiylc=", "properties": {"@source_uri": "https://tools.usps.com/UspsToolsRestServices/rest/POLocator/findLocations", "@spider": "usps_collection_boxes", "addr:city": "ATLANTIC CITY", "addr:country": "US", "addr:full": "1400 N OHIO AVE", "addr:postcode": "08401", "addr:state": "NJ", "amenity": "post_box", "brand": "United States Postal Service", "brand:wikidata": "Q668687", "collection_times": "Mo-Sa 10:30", "nsi_id": "unitedstatespostalservice-a77078", "operator": "United States Postal Service", "operator:short": "USPS", "operator:type": "public", "operator:wikidata": "Q668687", "ref": "0840100073"}, "type": "Feature"}
{"geometry": {"coordinates": [-74.442416, 39.37141], "type": "Point"}, "id": "9U6UrqOmZmi8Qvgq1XGPCfMgzyM=", "properties": {"@source_uri": "https://tools.usps.com/UspsToolsRestServices/rest/POLocator/findLocations", "@spider": "usps_collection_boxes", "addr:city": "ATLANTIC CITY", "addr:country": "US", "addr:full": "1900 ERIE AVE", "addr:postcode": "08401", "addr:state": "NJ", "amenity": "post_box", "brand": "United States Postal Service", "brand:wikidata": "Q668687", "collection_times": "Mo-Sa 10:00", "nsi_id": "unitedstatespostalservice-a77078", "operator": "United States Postal Service", "operator:short": "USPS", "operator:type": "public", "operator:wikidata": "Q668687", "ref": "0840100074"}, "type": "Feature"}
{"geometry": {"coordinates": [-74.4237785, 39.362752], "type": "Point"}, "id": "zXtriVuVBX4EnAV0y_gPbmKIvN8=", "properties": {"@source_uri": "https://tools.usps.com/UspsToolsRestServices/rest/POLocator/findLocations", "@spider": "usps_collection_boxes", "addr:city": "ATLANTIC CITY", "addr:country": "US", "addr:full": "26 S PENNSYLVANIA AVE", "addr:postcode": "08401", "addr:state": "NJ", "amenity": "post_box", "brand": "United States Postal Service", "brand:wikidata": "Q668687", "collection_times": "Mo-Sa 10:30", "nsi_id": "unitedstatespostalservice-a77078", "operator": "United States Postal Service", "operator:short": "USPS", "operator:type": "public", "operator:wikidata": "Q668687", "ref": "0840100081"}, "type": "Feature"}
{"geometry": {"coordinates": [-74.4624642, 39.34965], "type": "Point"}, "id": "6Z87fT2PkSvpyqhNDfuYzvoZFTw=", "properties": {"@source_uri": "https://tools.usps.com/UspsToolsRestServices/rest/POLocator/findLocations", "@spider": "usps_collection_boxes", "addr:city": "ATLANTIC CITY", "addr:country": "US", "addr:full": "4301 WINCHESTER AVE", "addr:postcode": "08401", "addr:state": "NJ", "amenity": "post_box", "brand": "United States Postal Service", "brand:wikidata": "Q668687", "collection_times": "Sa 11:15", "nsi_id": "unitedstatespostalservice-a77078", "operator": "United States Postal Service", "operator:short": "USPS", "operator:type": "public", "operator:wikidata": "Q668687", "ref": "0840100082"}, "type": "Feature"}
{"geometry": {"coordinates": [-74.4292251, 39.361281], "type": "Point"}, "id": "CpUAQAmFFqOGHsD6fSzHx6UakdA=", "properties": {"@source_uri": "https://tools.usps.com/UspsToolsRestServices/rest/POLocator/findLocations", "@spider": "usps_collection_boxes", "addr:city": "ATLANTIC CITY", "addr:country": "US", "addr:full": "1 S NEW YORK AVE", "addr:postcode": "08401", "addr:state": "NJ", "amenity": "post_box", "brand": "United States Postal Service", "brand:wikidata": "Q668687", "collection_times": "Mo-Sa 10:00", "nsi_id": "unitedstatespostalservice-a77078", "operator": "United States Postal Service", "operator:short": "USPS", "operator:type": "public", "operator:wikidata": "Q668687", "ref": "0840100086"}, "type": "Feature"}
{"geometry": {"coordinates": [-74.427106298, 39.36254307], "type": "Point"}, "id": "QnJgEDfA5lev4I2-z5tXdD27R4o=", "properties": {"@source_uri": "https://tools.usps.com/UspsToolsRestServices/rest/POLocator/findLocations", "@spider": "usps_collection_boxes", "addr:city": "ATLANTIC CITY", "addr:country": "US", "addr:full": "1300 ATLANTIC AVE", "addr:postcode": "08401", "addr:state": "NJ", "amenity": "post_box", "brand": "United States Postal Service", "brand:wikidata": "Q668687", "collection_times": "Mo-Fr 16:00; Sa 10:15", "note": "ON 12/24 AND 12/31, THIS BOX MAY BE COLLECTED AS EARLY AS 12 NOON.", "nsi_id": "unitedstatespostalservice-a77078", "operator": "United States Postal Service", "operator:short": "USPS", "operator:type": "public", "operator:wikidata": "Q668687", "ref": "0840100089"}, "type": "Feature"}
{"geometry": {"coordinates": [-74.4257408, 39.36095], "type": "Point"}, "id": "-1CPixXcXAA1P2mLpIok8XQ-GIo=", "properties": {"@source_uri": "https://tools.usps.com/UspsToolsRestServices/rest/POLocator/findLocations", "@spider": "usps_collection_boxes", "addr:city": "ATLANTIC CITY", "addr:country": "US", "addr:full": "100 S SOUTH CAROLINA AVE", "addr:postcode": "08401", "addr:state": "NJ", "amenity": "post_box", "brand": "United States Postal Service", "brand:wikidata": "Q668687", "collection_times": "Mo-Sa 10:00", "nsi_id": "unitedstatespostalservice-a77078", "operator": "United States Postal Service", "operator:short": "USPS", "operator:type": "public", "operator:wikidata": "Q668687", "ref": "0840100091"}, "type": "Feature"}
{"geometry": {"coordinates": [-74.42767045, 39.362356433], "type": "Point"}, "id": "xmg6VA6drvbcK_Qmqpjdc3HvUdQ=", "properties": {"@source_uri": "https://tools.usps.com/UspsToolsRestServices/rest/POLocator/findLocations", "@spider": "usps_collection_boxes", "addr:city": "ATLANTIC CITY", "addr:country": "US", "addr:full": "1333 ATLANTIC AVE", "addr:postcode": "08401", "addr:state": "NJ", "amenity": "post_box", "brand": "United States Postal Service", "brand:wikidata": "Q668687", "collection_times": "Mo-Sa 11:00", "nsi_id": "unitedstatespostalservice-a77078", "operator": "United States Postal Service", "operator:short": "USPS", "operator:type": "public", "operator:wikidata": "Q668687", "ref": "0840100093"}, "type": "Feature"}
{"geometry": {"coordinates": [-74.4248275, 39.357232], "type": "Point"}, "id": "6WKs7QVmHmgM9u2HluJR7lluTpk=", "properties": {"@source_uri": "https://tools.usps.com/UspsToolsRestServices/rest/POLocator/findLocations", "@spider": "usps_collection_boxes", "addr:city": "ATLANTIC CITY", "addr:country": "US", "addr:full": "1325 BOARDWALK", "addr:postcode": "08401", "addr:state": "NJ", "amenity": "post_box", "brand": "United States Postal Service", "brand:wikidata": "Q668687", "collection_times": "Mo-Sa 10:15", "nsi_id": "unitedstatespostalservice-a77078", "operator": "United States Postal Service", "operator:short": "USPS", "operator:type": "public", "operator:wikidata": "Q668687", "ref": "0840100095"}, "type": "Feature"}
{"geometry": {"coordinates": [-74.4449616, 39.35898], "type": "Point"}, "id": "uEr9mdEo5eG28mSvG-zsfn0mEJQ=", "properties": {"@source_uri": "https://tools.usps.com/UspsToolsRestServices/rest/POLocator/findLocations", "@spider": "usps_collection_boxes", "addr:city": "ATLANTIC CITY", "addr:country": "US", "addr:full": "2599 FAIRMOUNT AVE", "addr:postcode": "08401", "addr:state": "NJ", "amenity": "post_box", "brand": "United States Postal Service", "brand:wikidata": "Q668687", "collection_times": "Mo-Sa 11:00", "nsi_id": "unitedstatespostalservice-a77078", "operator": "United States Postal Service", "operator:short": "USPS", "operator:type": "public", "operator:wikidata": "Q668687", "ref": "0840100096"}, "type": "Feature"}
{"geometry": {"coordinates": [-74.4421303, 39.354619], "type": "Point"}, "id": "zXJ-vsVKjPHJP0BuqrrVREppcgg=", "properties": {"@source_uri": "https://tools.usps.com/UspsToolsRestServices/rest/POLocator/findLocations", "@spider": "usps_collection_boxes", "addr:city": "ATLANTIC CITY", "addr:country": "US", "addr:full": "2599 PACIFIC AVE", "addr:postcode": "08401", "addr:state": "NJ", "amenity": "post_box", "brand": "United States Postal Service", "brand:wikidata": "Q668687", "collection_times": "Mo-Sa 09:00", "nsi_id": "unitedstatespostalservice-a77078", "operator": "United States Postal Service", "operator:short": "USPS", "operator:type": "public", "operator:wikidata": "Q668687", "ref": "0840100097"}, "type": "Feature"}
{"geometry": {"coordinates": [-74.4618608, 39.358332], "type": "Point"}, "id": "khAvkzSa0ETWiveceSmEjff5PsU=", "properties": {"@source_uri": "https://tools.usps.com/UspsToolsRestServices/rest/POLocator/findLocations", "@spider": "usps_collection_boxes", "addr:city": "ATLANTIC CITY", "addr:country": "US", "addr:full": "574 N TRENTON AVE", "addr:postcode": "08401", "addr:state": "NJ", "amenity": "post_box", "brand": "United States Postal Service", "brand:wikidata": "Q668687", "collection_times": "Mo-Sa 15:00", "note": "ON 12/24 AND 12/31, THIS BOX MAY BE COLLECTED AS EARLY AS 12 NOON.", "nsi_id": "unitedstatespostalservice-a77078", "operator": "United States Postal Service", "operator:short": "USPS", "operator:type": "public", "operator:wikidata": "Q668687", "ref": "0840100098"}, "type": "Feature"}
{"geometry": {"coordinates": [-74.4582399, 39.34993], "type": "Point"}, "id": "kkQRh83F4xKqS1r4lono6IkjtJ0=", "properties": {"@source_uri": "https://tools.usps.com/UspsToolsRestServices/rest/POLocator/findLocations", "@spider": "usps_collection_boxes", "addr:city": "ATLANTIC CITY", "addr:country": "US", "addr:full": "4021 VENTNOR AVE", "addr:postcode": "08401", "addr:state": "NJ", "amenity": "post_box", "brand": "United States Postal Service", "brand:wikidata": "Q668687", "collection_times": "Mo-Sa 10:00", "nsi_id": "unitedstatespostalservice-a77078", "operator": "United States Postal Service", "operator:short": "USPS", "operator:type": "public", "operator:wikidata": "Q668687", "ref": "0840100099"}, "type": "Feature"}
{"geometry": {"coordinates": [-74.4143034, 39.367648], "type": "Point"}, "id": "Ak_8fh1WdZ1HvHsy66qNym-hNmI=", "properties": {"@source_uri": "https://tools.usps.com/UspsToolsRestServices/rest/POLocator/findLocations", "@spider": "usps_collection_boxes", "addr:city": "ATLANTIC CITY", "addr:country": "US", "addr:full": "301 ATLANTIC AVE", "addr:postcode": "08401", "addr:state": "NJ", "amenity": "post_box", "brand": "United States Postal Service", "brand:wikidata": "Q668687", "collection_times": "Mo-Sa 09:30", "nsi_id": "unitedstatespostalservice-a77078", "operator": "United States Postal Service", "operator:short": "USPS", "operator:type": "public", "operator:wikidata": "Q668687", "ref": "0840100100"}, "type": "Feature"}
{"geometry": {"coordinates": [-74.4228283, 39.364133], "type": "Point"}, "id": "pgC9n15XavomKzlp1IlC51OBz2A=", "properties": {"@source_uri": "https://tools.usps.com/UspsToolsRestServices/rest/POLocator/findLocations", "@spider": "usps_collection_boxes", "addr:city": "ATLANTIC CITY", "addr:country": "US", "addr:full": "998 ATLANTIC AVE", "addr:postcode": "08401", "addr:state": "NJ", "amenity": "post_box", "brand": "United States Postal Service", "brand:wikidata": "Q668687", "collection_times": "Mo-Sa 10:30", "nsi_id": "unitedstatespostalservice-a77078", "operator": "United States Postal Service", "operator:short": "USPS", "operator:type": "public", "operator:wikidata": "Q668687", "ref": "0840100105"}, "type": "Feature"}
{"geometry": {"coordinates": [-74.4526678, 39.355735], "type": "Point"}, "id": "qLq92b5lJDQPVdOqku88PjEwXys=", "properties": {"@source_uri": "https://tools.usps.com/UspsToolsRestServices/rest/POLocator/findLocations", "@spider": "usps_collection_boxes", "addr:city": "ATLANTIC CITY", "addr:country": "US", "addr:full": "3300 FAIRMOUNT AVE", "addr:postcode": "08401", "addr:state": "NJ", "amenity": "post_box", "brand": "United States Postal Service", "brand:wikidata": "Q668687", "collection_times": "Mo-Sa 09:30", "nsi_id": "unitedstatespostalservice-a77078", "operator": "United States Postal Service", "operator:short": "USPS", "operator:type": "public", "operator:wikidata": "Q668687", "ref": "0840100117"}, "type": "Feature"}
{"geometry": {"coordinates": [-74.4491272, 39.353731], "type": "Point"}, "id": "FjlvvCLChn_IA8cOQ4dXXfIlhEI=", "properties": {"@source_uri": "https://tools.usps.com/UspsToolsRestServices/rest/POLocator/findLocations", "@spider": "usps_collection_boxes", "addr:city": "ATLANTIC CITY", "addr:country": "US", "addr:full": "3101 ATLANTIC AVE", "addr:postcode": "08401", "addr:state": "NJ", "amenity": "post_box", "brand": "United States Postal Service", "brand:wikidata": "Q668687", "collection_times": "Mo-Sa 10:45", "nsi_id": "unitedstatespostalservice-a77078", "operator": "United States Postal Service", "operator:short": "USPS", "operator:type": "public", "operator:wikidata": "Q668687", "ref": "0840100119"}, "type": "Feature"}
{"geometry": {"coordinates": [-74.425249292, 39.363348171], "type": "Point"}, "id": "tU5WD-oyIWQUCmuzagZkOj2ZcQ8=", "properties": {"@source_uri": "https://tools.usps.com/UspsToolsRestServices/rest/POLocator/findLocations", "@spider": "usps_collection_boxes", "addr:city": "ATLANTIC CITY", "addr:country": "US", "addr:full": "1125 ATLANTIC AVE", "addr:postcode": "08401", "addr:state": "NJ", "amenity": "post_box", "brand": "United States Postal Service", "brand:wikidata": "Q668687", "collection_times": "Mo-Fr 17:00", "note": "ON 12/24 AND 12/31, THIS BOX MAY BE COLLECTED AS EARLY AS 12 NOON.", "nsi_id": "unitedstatespostalservice-a77078", "operator": "United States Postal Service", "operator:short": "USPS", "operator:type": "public", "operator:wikidata": "Q668687", "ref": "0840100123"}, "type": "Feature"}
{"geometry": {"coordinates": [-74.432345, 39.36608], "type": "Point"}, "id": "jlfE8e9Bgi2FqtOUbYUN17KoT0w=", "properties": {"@source_uri": "https://tools.usps.com/UspsToolsRestServices/rest/POLocator/findLocations", "@spider": "usps_collection_boxes", "addr:city": "ATLANTIC CITY", "addr:country": "US", "addr:full": "3399 ATLANTIC AVE", "addr:postcode": "08401", "addr:state": "NJ", "amenity": "post_box", "brand": "United States Postal Service", "brand:wikidata": "Q668687", "collection_times": "Mo-Sa 10:45", "nsi_id": "unitedstatespostalservice-a77078", "operator": "United States Postal Service", "operator:short": "USPS", "operator:type": "public", "operator:wikidata": "Q668687", "ref": "0840100126"}, "type": "Feature"}
{"geometry": {"coordinates": [-74.424458722, 39.357143692], "type": "Point"}, "id": "jsrjUR_BINmuB2s7K7U_R5RAPRM=", "properties": {"@source_uri": "https://tools.usps.com/UspsToolsRestServices/rest/POLocator/findLocations", "@spider": "usps_collection_boxes", "addr:city": "ATLANTIC CITY", "addr:country": "US", "addr:full": "1325 BOARDWALK", "addr:postcode": "08401", "addr:state": "NJ", "amenity": "post_box", "brand": "United States Postal Service", "brand:wikidata": "Q668687", "collection_times": "Mo-Fr 16:30; Sa 10:15", "note": "ON 12/24 AND 12/31, THIS BOX MAY BE COLLECTED AS EARLY AS 12 NOON.", "nsi_id": "unitedstatespostalservice-a77078", "operator": "United States Postal Service", "operator:short": "USPS", "operator:type": "public", "operator:wikidata": "Q668687", "ref": "0840100128"}, "type": "Feature"}
{"geometry": {"coordinates": [-74.433288824, 39.360022218], "type": "Point"}, "id": "r49be5q3AKS_ZOI26JDX3wU4wKA=", "properties": {"@source_uri": "https://tools.usps.com/UspsToolsRestServices/rest/POLocator/findLocations", "@spider": "usps_collection_boxes", "addr:city": "ATLANTIC CITY", "addr:country": "US", "addr:full": "1801 ATLANTIC AVE", "addr:postcode": "08401", "addr:state": "NJ", "amenity": "post_box", "brand": "United States Postal Service", "brand:wikidata": "Q668687", "collection_times": "Mo-Fr 17:00; Sa 12:15", "indoor": "yes", "note": "ON 12/24 AND 12/31, THIS BOX MAY BE COLLECTED AS EARLY AS 12 NOON.", "nsi_id": "unitedstatespostalservice-a77078", "operator": "United States Postal Service", "operator:short": "USPS", "operator:type": "public", "operator:wikidata": "Q668687", "ref": "0840100135"}, "type": "Feature"}
{"geometry": {"coordinates": [-74.4349349, 39.369675], "type": "Point"}, "id": "rKQii48ItGRyEqupi_XQ-AkMAZo=", "properties": {"@source_uri": "https://tools.usps.com/UspsToolsRestServices/rest/POLocator/findLocations", "@spider": "usps_collection_boxes", "addr:city": "ATLANTIC CITY", "addr:country": "US", "addr:full": "1501 MAGELLAN AVE", "addr:postcode": "08401", "addr:state": "NJ", "amenity": "post_box", "brand": "United States Postal Service", "brand:wikidata": "Q668687", "collection_times": "Mo-Sa 09:00", "nsi_id": "unitedstatespostalservice-a77078", "operator": "United States Postal Service", "operator:short": "USPS", "operator:type": "public", "operator:wikidata": "Q668687", "ref": "0840100136"}, "type": "Feature"}
{"geometry": {"coordinates": [-74.433288824, 39.360022218], "type": "Point"}, "id": "5VO-i5-3tnXzD-PcR9dTDU6rjU0=", "properties": {"@source_uri": "https://tools.usps.com/UspsToolsRestServices/rest/POLocator/findLocations", "@spider": "usps_collection_boxes", "addr:city": "ATLANTIC CITY", "addr:country": "US", "addr:full": "1801 ATLANTIC AVE", "addr:postcode": "08401", "addr:state": "NJ", "amenity": "post_box", "brand": "United States Postal Service", "brand:wikidata": "Q668687", "collection_times": "Mo-Fr 17:00; Sa 12:15", "indoor": "yes", "note": "ON 12/24 AND 12/31, THIS BOX MAY BE COLLECTED AS EARLY AS 12 NOON.", "nsi_id": "unitedstatespostalservice-a77078", "operator": "United States Postal Service", "operator:short": "USPS", "operator:type": "public", "operator:wikidata": "Q668687", "ref": "0840100139"}, "type": "Feature"}
{"geometry": {"coordinates": [-74.433288824, 39.360022218], "type": "Point"}, "id": "GIhzUNOAWzYP9ixHTLZbmfi4JcE=", "properties": {"@source_uri": "https://tools.usps.com/UspsToolsRestServices/rest/POLocator/findLocations", "@spider": "usps_collection_boxes", "addr:city": "ATLANTIC CITY", "addr:country": "US", "addr:full": "1801 ATLANTIC AVE", "addr:postcode": "08401", "addr:state": "NJ", "amenity": "post_box", "brand": "United States Postal Service", "brand:wikidata": "Q668687", "collection_times": "Mo-Sa 17:00", "note": "ON 12/24 AND 12/31, THIS BOX MAY BE COLLECTED AS EARLY AS 12 NOON.", "nsi_id": "unitedstatespostalservice-a77078", "operator": "United States Postal Service", "operator:short": "USPS", "operator:type": "public", "operator:wikidata": "Q668687", "ref": "0840100140"}, "type": "Feature"}
{"geometry": {"coordinates": [-74.433288824, 39.360022218], "type": "Point"}, "id": "m15_AnwbXkl_esH5dDXc9X1RSWk=", "properties": {"@source_uri": "https://tools.usps.com/UspsToolsRestServices/rest/POLocator/findLocations", "@spider": "usps_collection_boxes", "addr:city": "ATLANTIC CITY", "addr:country": "US", "addr:full": "1801 ATLANTIC AVE STE 101", "addr:postcode": "08401", "addr:state": "NJ", "amenity": "post_box", "brand": "United States Postal Service", "brand:wikidata": "Q668687", "collection_times": "Mo-Fr 17:00; Sa 12:30", "indoor": "yes", "note": "ON 12/24 AND 12/31, THIS BOX MAY BE COLLECTED AS EARLY AS 12 NOON.", "nsi_id": "unitedstatespostalservice-a77078", "operator": "United States Postal Service", "operator:short": "USPS", "operator:type": "public", "operator:wikidata": "Q668687", "ref": "0840100148"}, "type": "Feature"}
{"geometry": {"coordinates": [-74.5149972, 39.32369], "type": "Point"}, "id": "Gh7v_NXFsXUnmxFKKLPIvHDAnJ0=", "properties": {"@source_uri": "https://tools.usps.com/UspsToolsRestServices/rest/POLocator/findLocations", "@spider": "usps_collection_boxes", "addr:city": "MARGATE CITY", "addr:country": "US", "addr:full": "101 N WASHINGTON AVE", "addr:postcode": "08402", "addr:state": "NJ", "amenity": "post_box", "brand": "United States Postal Service", "brand:wikidata": "Q668687", "collection_times": "Mo-Fr 12:30; Sa 13:30", "note": "ON 12/24 AND 12/31, THIS BOX MAY BE COLLECTED AS EARLY AS 12 NOON.", "nsi_id": "unitedstatespostalservice-a77078", "operator": "United States Postal Service", "operator:short": "USPS", "operator:type": "public", "operator:wikidata": "Q668687", "ref": "0840200003"}, "type": "Feature"}
{"geometry": {"coordinates": [-74.5087114, 39.336736], "type": "Point"}, "id": "InHwxIOLTqlNpYwRba9BcscD3b0=", "properties": {"@source_uri": "https://tools.usps.com/UspsToolsRestServices/rest/POLocator/findLocations", "@spider": "usps_collection_boxes", "addr:city": "MARGATE CITY", "addr:country": "US", "addr:full": "8200 MARSHALL AVE", "addr:postcode": "08402", "addr:state": "NJ", "amenity": "post_box", "brand": "United States Postal Service", "brand:wikidata": "Q668687", "collection_times": "Mo-Fr 12:45; Sa 13:45", "note": "ON 12/24 AND 12/31, THIS BOX MAY BE COLLECTED AS EARLY AS 12 NOON.", "nsi_id": "unitedstatespostalservice-a77078", "operator": "United States Postal Service", "operator:short": "USPS", "operator:type": "public", "operator:wikidata": "Q668687", "ref": "0840200004"}, "type": "Feature"}
{"geometry": {"coordinates": [-74.5173373, 39.320545], "type": "Point"}, "id": "PIIKGswH6lQq_YUcjVzM-2CGje8=", "properties": {"@source_uri": "https://tools.usps.com/UspsToolsRestServices/rest/POLocator/findLocations", "@spider": "usps_collection_boxes", "addr:city": "MARGATE CITY", "addr:country": "US", "addr:full": "9615 VENTNOR AVE", "addr:postcode": "08402", "addr:state": "NJ", "amenity": "post_box", "brand": "United States Postal Service", "brand:wikidata": "Q668687", "collection_times": "Mo-Fr 12:15; Sa 13:15", "note": "ON 12/24 AND 12/31, THIS BOX MAY BE COLLECTED AS EARLY AS 12 NOON.", "nsi_id": "unitedstatespostalservice-a77078", "operator": "United States Postal Service", "operator:short": "USPS", "operator:type": "public", "operator:wikidata": "Q668687", "ref": "0840200005"}, "type": "Feature"}
{"geometry": {"coordinates": [-74.4987117467, 39.328398984], "type": "Point"}, "id": "AGHuse-8yC23Fpe42ntb5EbrcR4=", "properties": {"@source_uri": "https://tools.usps.com/UspsToolsRestServices/rest/POLocator/findLocations", "@spider": "usps_collection_boxes", "addr:city": "MARGATE CITY", "addr:country": "US", "addr:full": "8013 ATLANTIC AVE", "addr:postcode": "08402", "addr:state": "NJ", "amenity": "post_box", "brand": "United States Postal Service", "brand:wikidata": "Q668687", "collection_times": "Mo-Fr 12:00; Sa 13:00", "note": "ON 12/24 AND 12/31, THIS BOX MAY BE COLLECTED AS EARLY AS 12 NOON.", "nsi_id": "unitedstatespostalservice-a77078", "operator": "United States Postal Service", "operator:short": "USPS", "operator:type": "public", "operator:wikidata": "Q668687", "ref": "0840200007"}, "type": "Feature"}
{"geometry": {"coordinates": [-74.5059968, 39.340503], "type": "Point"}, "id": "2f_mcQ9mImF9xBYWsQ3wxwSPsD4=", "properties": {"@source_uri": "https://tools.usps.com/UspsToolsRestServices/rest/POLocator/findLocations", "@spider": "usps_collection_boxes", "addr:city": "MARGATE CITY", "addr:country": "US", "addr:full": "618 N DOUGLAS AVE", "addr:postcode": "08402", "addr:state": "NJ", "amenity": "post_box", "brand": "United States Postal Service", "brand:wikidata": "Q668687", "collection_times": "Mo-Fr 12:45; Sa 13:45", "note": "ON 12/24 AND 12/31, THIS BOX MAY BE COLLECTED AS EARLY AS 12 NOON.", "nsi_id": "unitedstatespostalservice-a77078", "operator": "United States Postal Service", "operator:short": "USPS", "operator:type": "public", "operator:wikidata": "Q668687", "ref": "0840200008"}, "type": "Feature"}
{"geometry": {"coordinates": [-74.5002914, 39.329541], "type": "Point"}, "id": "UWAdIHOHULsz7upkGAlNjniz124=", "properties": {"@source_uri": "https://tools.usps.com/UspsToolsRestServices/rest/POLocator/findLocations", "@spider": "usps_collection_boxes", "addr:city": "MARGATE CITY", "addr:country": "US", "addr:full": "8101 VENTNOR AVE", "addr:postcode": "08402", "addr:state": "NJ", "amenity": "post_box", "brand": "United States Postal Service", "brand:wikidata": "Q668687", "collection_times": "Mo-Fr 12:00; Sa 13:00", "note": "ON 12/24 AND 12/31, THIS BOX MAY BE COLLECTED AS EARLY AS 12 NOON.", "nsi_id": "unitedstatespostalservice-a77078", "operator": "United States Postal Service", "operator:short": "USPS", "operator:type": "public", "operator:wikidata": "Q668687", "ref": "0840200011"}, "type": "Feature"}
{"geometry": {"coordinates": [-74.5046451, 39.327221], "type": "Point"}, "id": "voSXOjXCjqjw0mAZQhm1lFBHxck=", "properties": {"@source_uri": "https://tools.usps.com/UspsToolsRestServices/rest/POLocator/findLocations", "@spider": "usps_collection_boxes", "addr:city": "MARGATE CITY", "addr:country": "US", "addr:full": "8510 VENTNOR AVE", "addr:postcode": "08402", "addr:state": "NJ", "amenity": "post_box", "brand": "United States Postal Service", "brand:wikidata": "Q668687", "collection_times": "Mo-Fr 12:00; Sa 13:00", "note": "ON 12/24 AND 12/31, THIS BOX MAY BE COLLECTED AS EARLY AS 12 NOON.", "nsi_id": "unitedstatespostalservice-a77078", "operator": "United States Postal Service", "operator:short": "USPS", "operator:type": "public", "operator:wikidata": "Q668687", "ref": "0840200013"}, "type": "Feature"}
{"geometry": {"coordinates": [-74.4979136, 39.329831], "type": "Point"}, "id": "xaQ1CDgToSwhGj80bn4TPTgxJ1Y=", "properties": {"@source_uri": "https://tools.usps.com/UspsToolsRestServices/rest/POLocator/findLocations", "@spider": "usps_collection_boxes", "addr:city": "MARGATE CITY", "addr:country": "US", "addr:full": "7 S FRANKLIN AVE", "addr:postcode": "08402", "addr:state": "NJ", "amenity": "post_box", "brand": "United States Postal Service", "brand:wikidata": "Q668687", "collection_times": "Mo-Fr 17:00; Sa 14:00", "note": "ON 12/24 AND 12/31, THIS BOX MAY BE COLLECTED AS EARLY AS 12 NOON.", "nsi_id": "unitedstatespostalservice-a77078", "operator": "United States Postal Service", "operator:short": "USPS", "operator:type": "public", "operator:wikidata": "Q668687", "ref": "0840200015"}, "type": "Feature"}
{"geometry": {"coordinates": [-74.5065878, 39.326034], "type": "Point"}, "id": "3hKCQbEzEW_SgpEDtT7xn0fHxvQ=", "properties": {"@source_uri": "https://tools.usps.com/UspsToolsRestServices/rest/POLocator/findLocations", "@spider": "usps_collection_boxes", "addr:city": "MARGATE CITY", "addr:country": "US", "addr:full": "1 N OSBORNE AVE", "addr:postcode": "08402", "addr:state": "NJ", "amenity": "post_box", "brand": "United States Postal Service", "brand:wikidata": "Q668687", "collection_times": "Mo-Fr 12:00; Sa 13:00", "note": "ON 12/24 AND 12/31, THIS BOX MAY BE COLLECTED AS EARLY AS 12 NOON.", "nsi_id": "unitedstatespostalservice-a77078", "operator": "United States Postal Service", "operator:short": "USPS", "operator:type": "public", "operator:wikidata": "Q668687", "ref": "0840200016"}, "type": "Feature"}
{"geometry": {"coordinates": [-74.5097942, 39.324832], "type": "Point"}, "id": "N0j2rD9u18PtWfGnTTMItA29CmY=", "properties": {"@source_uri": "https://tools.usps.com/UspsToolsRestServices/rest/POLocator/findLocations", "@spider": "usps_collection_boxes", "addr:city": "MARGATE CITY", "addr:country": "US", "addr:full": "1 N THURLOW AVE", "addr:postcode": "08402", "addr:state": "NJ", "amenity": "post_box", "brand": "United States Postal Service", "brand:wikidata": "Q668687", "collection_times": "Mo-Fr 12:00; Sa 13:00", "note": "ON 12/24 AND 12/31, THIS BOX MAY BE COLLECTED AS EARLY AS 12 NOON.", "nsi_id": "unitedstatespostalservice-a77078", "operator": "United States Postal Service", "operator:short": "USPS", "operator:type": "public", "operator:wikidata": "Q668687", "ref": "0840200019"}, "type": "Feature"}
{"geometry": {"coordinates": [-74.5139037, 39.322511], "type": "Point"}, "id": "0PkaTSo3FdxRMadRtLGk8nyLWfg=", "properties": {"@source_uri": "https://tools.usps.com/UspsToolsRestServices/rest/POLocator/findLocations", "@spider": "usps_collection_boxes", "addr:city": "MARGATE CITY", "addr:country": "US", "addr:full": "9223 VENTNOR AVE", "addr:postcode": "08402", "addr:state": "NJ", "amenity": "post_box", "brand": "United States Postal Service", "brand:wikidata": "Q668687", "collection_times": "Mo-Fr 17:00; Sa 13:15", "note": "ON 12/24 AND 12/31, THIS BOX MAY BE COLLECTED AS EARLY AS 12 NOON.", "nsi_id": "unitedstatespostalservice-a77078", "operator": "United States Postal Service", "operator:short": "USPS", "operator:type": "public", "operator:wikidata": "Q668687", "ref": "0840200020"}, "type": "Feature"}
{"geometry": {"coordinates": [-74.5042949, 39.329851], "type": "Point"}, "id": "4tzZp0VmP19dbm6ruNgf_vEcHUY=", "properties": {"@source_uri": "https://tools.usps.com/UspsToolsRestServices/rest/POLocator/findLocations", "@spider": "usps_collection_boxes", "addr:city": "MARGATE CITY", "addr:country": "US", "addr:full": "101 N JASPER AVE", "addr:postcode": "08402", "addr:state": "NJ", "amenity": "post_box", "brand": "United States Postal Service", "brand:wikidata": "Q668687", "collection_times": "Mo-Fr 12:45; Sa 13:45", "note": "ON 12/24 AND 12/31, THIS BOX MAY BE COLLECTED AS EARLY AS 12 NOON.", "nsi_id": "unitedstatespostalservice-a77078", "operator": "United States Postal Service", "operator:short": "USPS", "operator:type": "public", "operator:wikidata": "Q668687", "ref": "0840200022"}, "type": "Feature"}
{"geometry": {"coordinates": [-74.4981766, 39.329897], "type": "Point"}, "id": "GrDn0dBxmr1HUtXthjRobKwcxmE=", "properties": {"@source_uri": "https://tools.usps.com/UspsToolsRestServices/rest/POLocator/findLocations", "@spider": "usps_collection_boxes", "addr:city": "MARGATE CITY", "addr:country": "US", "addr:full": "8 S FRANKLIN AVE", "addr:postcode": "08402", "addr:state": "NJ", "amenity": "post_box", "brand": "United States Postal Service", "brand:wikidata": "Q668687", "collection_times": "Mo-Fr 17:00; Sa 14:00", "indoor": "yes", "note": "ON 12/24 AND 12/31, THIS BOX MAY BE COLLECTED AS EARLY AS 12 NOON.", "nsi_id": "unitedstatespostalservice-a77078", "operator": "United States Postal Service", "operator:short": "USPS", "operator:type": "public", "operator:wikidata": "Q668687", "ref": "0840200025"}, "type": "Feature"}
{"geometry": {"coordinates": [-74.498336464, 39.330186208], "type": "Point"}, "id": "x2mnGeX_7a7D4TN6cjnjF3dhync=", "properties": {"@source_uri": "https://tools.usps.com/UspsToolsRestServices/rest/POLocator/findLocations", "@spider": "usps_collection_boxes", "addr:city": "MARGATE CITY", "addr:country": "US", "addr:full": "8 S FRANKLIN AVE", "addr:postcode": "08402", "addr:state": "NJ", "amenity": "post_box", "brand": "United States Postal Service", "brand:wikidata": "Q668687", "collection_times": "Mo-Fr 17:00; Sa 12:30", "indoor": "yes", "note": "ON 12/24 AND 12/31, THIS BOX MAY BE COLLECTED AS EARLY AS 12 NOON.", "nsi_id": "unitedstatespostalservice-a77078", "operator": "United States Postal Service", "operator:short": "USPS", "operator:type": "public", "operator:wikidata": "Q668687", "ref": "0840200029"}, "type": "Feature"}
{"geometry": {"coordinates": [-74.5254588, 39.313476], "type": "Point"}, "id": "O8EpSRVf-40MsWxoCDBOeZwUjYo=", "properties": {"@source_uri": "https://tools.usps.com/UspsToolsRestServices/rest/POLocator/findLocations", "@spider": "usps_collection_boxes", "addr:city": "ATLANTIC CITY", "addr:country": "US", "addr:full": "4 S 27TH AVE", "addr:postcode": "08403", "addr:state": "NJ", "amenity": "post_box", "brand": "United States Postal Service", "brand:wikidata": "Q668687", "collection_times": "Mo-Fr 16:45; Sa 13:15", "note": "ON 12/24 AND 12/31, THIS BOX MAY BE COLLECTED AS EARLY AS 12 NOON.", "nsi_id": "unitedstatespostalservice-a77078", "operator": "United States Postal Service", "operator:short": "USPS", "operator:type": "public", "operator:wikidata": "Q668687", "ref": "0840300001"}, "type": "Feature"}
{"geometry": {"coordinates": [-74.5216754, 39.317802], "type": "Point"}, "id": "SpulbRrI_oTCnQhWmd3qRMEsYlI=", "properties": {"@source_uri": "https://tools.usps.com/UspsToolsRestServices/rest/POLocator/findLocations", "@spider": "usps_collection_boxes", "addr:city": "ATLANTIC CITY", "addr:country": "US", "addr:full": "3202 VENTNOR AVE", "addr:postcode": "08403", "addr:state": "NJ", "amenity": "post_box", "brand": "United States Postal Service", "brand:wikidata": "Q668687", "collection_times": "Mo-Fr 12:15; Sa 13:15", "note": "ON 12/24 AND 12/31, THIS BOX MAY BE COLLECTED AS EARLY AS 12 NOON.", "nsi_id": "unitedstatespostalservice-a77078", "operator": "United States Postal Service", "operator:short": "USPS", "operator:type": "public", "operator:wikidata": "Q668687", "ref": "0840300007"}, "type": "Feature"}
{"geometry": {"coordinates": [-74.5272969, 39.311863], "type": "Point"}, "id": "BzoR8kdboLP3uyOA1downlY6NpI=", "properties": {"@source_uri": "https://tools.usps.com/UspsToolsRestServices/rest/POLocator/findLocations", "@spider": "usps_collection_boxes", "addr:city": "ATLANTIC CITY", "addr:country": "US", "addr:full": "2301 ATLANTIC AVE", "addr:postcode": "08403", "addr:state": "NJ", "amenity": "post_box", "brand": "United States Postal Service", "brand:wikidata": "Q668687", "collection_times": "Mo-Sa 13:15", "note": "ON 12/24 AND 12/31, THIS BOX MAY BE COLLECTED AS EARLY AS 12 NOON.", "nsi_id": "unitedstatespostalservice-a77078", "operator": "United States Postal Service", "operator:short": "USPS", "operator:type": "public", "operator:wikidata": "Q668687", "ref": "0840300009"}, "type": "Feature"}
{"geometry": {"coordinates": [-74.4767785, 39.353218], "type": "Point"}, "id": "SqRX0EgBcV-KxhnvUDLeBANr5Xc=", "properties": {"@source_uri": "https://tools.usps.com/UspsToolsRestServices/rest/POLocator/findLocations", "@spider": "usps_collection_boxes", "addr:city": "VENTNOR CITY", "addr:country": "US", "addr:full": "5006 WELLINGTON AVE", "addr:postcode": "08406", "addr:state": "NJ", "amenity": "post_box", "brand": "United States Postal Service", "brand:wikidata": "Q668687", "collection_times": "Mo-Fr 17:00; Sa 12:15", "note": "ON 12/24 AND 12/31, THIS BOX MAY BE COLLECTED AS EARLY AS 12 NOON.", "nsi_id": "unitedstatespostalservice-a77078", "operator": "United States Postal Service", "operator:short": "USPS", "operator:type": "public", "operator:wikidata": "Q668687", "ref": "0840600001"}, "type": "Feature"}
{"geometry": {"coordinates": [-74.4906281, 39.334241], "type": "Point"}, "id": "cBrcEYk3ulfHvVSrvegnK7KaJxg=", "properties": {"@source_uri": "https://tools.usps.com/UspsToolsRestServices/rest/POLocator/findLocations", "@spider": "usps_collection_boxes", "addr:city": "VENTNOR CITY", "addr:country": "US", "addr:full": "7117 VENTNOR AVE", "addr:postcode": "08406", "addr:state": "NJ", "amenity": "post_box", "brand": "United States Postal Service", "brand:wikidata": "Q668687", "collection_times": "Mo-Sa 10:00", "nsi_id": "unitedstatespostalservice-a77078", "operator": "United States Postal Service", "operator:short": "USPS", "operator:type": "public", "operator:wikidata": "Q668687", "ref": "0840600002"}, "type": "Feature"}
{"geometry": {"coordinates": [-74.4792438, 39.339554], "type": "Point"}, "id": "9Z1ANaZhoM7iBZfcLWauRTp7UqU=", "properties": {"@source_uri": "https://tools.usps.com/UspsToolsRestServices/rest/POLocator/findLocations", "@spider": "usps_collection_boxes", "addr:city": "VENTNOR CITY", "addr:country": "US", "addr:full": "6100 VENTNOR AVE", "addr:postcode": "08406", "addr:state": "NJ", "amenity": "post_box", "brand": "United States Postal Service", "brand:wikidata": "Q668687", "collection_times": "Mo-Sa 10:30", "nsi_id": "unitedstatespostalservice-a77078", "operator": "United States Postal Service", "operator:short": "USPS", "operator:type": "public", "operator:wikidata": "Q668687", "ref": "0840600004"}, "type": "Feature"}
{"geometry": {"coordinates": [-74.4806033, 39.344755], "type": "Point"}, "id": "yxOF_j1g892ZImh_y8EjCQzQ_Nk=", "properties": {"@source_uri": "https://tools.usps.com/UspsToolsRestServices/rest/POLocator/findLocations", "@spider": "usps_collection_boxes", "addr:city": "VENTNOR CITY", "addr:country": "US", "addr:full": "301 N DORSET AVE", "addr:postcode": "08406", "addr:state": "NJ", "amenity": "post_box", "brand": "United States Postal Service", "brand:wikidata": "Q668687", "collection_times": "Mo-Sa 10:00", "nsi_id": "unitedstatespostalservice-a77078", "operator": "United States Postal Service", "operator:short": "USPS", "operator:type": "public", "operator:wikidata": "Q668687", "ref": "0840600005"}, "type": "Feature"}
{"geometry": {"coordinates": [-74.4849869, 39.349879], "type": "Point"}, "id": "mG0K2JMfUDoNqcfOoQ67_6RZT-M=", "properties": {"@source_uri": "https://tools.usps.com/UspsToolsRestServices/rest/POLocator/findLocations", "@spider": "usps_collection_boxes", "addr:city": "VENTNOR CITY", "addr:country": "US", "addr:full": "700 N DORSET AVE", "addr:postcode": "08406", "addr:state": "NJ", "amenity": "post_box", "brand": "United States Postal Service", "brand:wikidata": "Q668687", "collection_times": "Mo-Sa 09:00", "nsi_id": "unitedstatespostalservice-a77078", "operator": "United States Postal Service", "operator:short": "USPS", "operator:type": "public", "operator:wikidata": "Q668687", "ref": "0840600006"}, "type": "Feature"}
{"geometry": {"coordinates": [-74.4841818, 39.337169], "type": "Point"}, "id": "S6gPwzDEldfUWdN5em-Tv6adGlE=", "properties": {"@source_uri": "https://tools.usps.com/UspsToolsRestServices/rest/POLocator/findLocations", "@spider": "usps_collection_boxes", "addr:city": "VENTNOR CITY", "addr:country": "US", "addr:full": "6524 VENTNOR AVE", "addr:postcode": "08406", "addr:state": "NJ", "amenity": "post_box", "brand": "United States Postal Service", "brand:wikidata": "Q668687", "collection_times": "Mo-Sa 09:30", "nsi_id": "unitedstatespostalservice-a77078", "operator": "United States Postal Service", "operator:short": "USPS", "operator:type": "public", "operator:wikidata": "Q668687", "ref": "0840600011"}, "type": "Feature"}
{"geometry": {"coordinates": [-74.4873404, 39.33563], "type": "Point"}, "id": "a2CvaqL6whYZS6dpHbSpJGJ6aXs=", "properties": {"@source_uri": "https://tools.usps.com/UspsToolsRestServices/rest/POLocator/findLocations", "@spider": "usps_collection_boxes", "addr:city": "VENTNOR CITY", "addr:country": "US", "addr:full": "6818 VENTNOR AVE", "addr:postcode": "08406", "addr:state": "NJ", "amenity": "post_box", "brand": "United States Postal Service", "brand:wikidata": "Q668687", "collection_times": "Mo-Sa 10:00", "nsi_id": "unitedstatespostalservice-a77078", "operator": "United States Postal Service", "operator:short": "USPS", "operator:type": "public", "operator:wikidata": "Q668687", "ref": "0840600012"}, "type": "Feature"}
{"geometry": {"coordinates": [-74.4904064, 39.338774], "type": "Point"}, "id": "M2GN4kEczvvfIB5KYEjy0LaezdU=", "properties": {"@source_uri": "https://tools.usps.com/UspsToolsRestServices/rest/POLocator/findLocations", "@spider": "usps_collection_boxes", "addr:city": "VENTNOR CITY", "addr:country": "US", "addr:full": "6803 VENTNOR GARDENS PLZ", "addr:postcode": "08406", "addr:state": "NJ", "amenity": "post_box", "brand": "United States Postal Service", "brand:wikidata": "Q668687", "collection_times": "Mo-Sa 11:00", "nsi_id": "unitedstatespostalservice-a77078", "operator": "United States Postal Service", "operator:short": "USPS", "operator:type": "public", "operator:wikidata": "Q668687", "ref": "0840600013"}, "type": "Feature"}
{"geometry": {"coordinates": [-74.4756599, 39.341286], "type": "Point"}, "id": "nchkgmerOyO4CjwhA9TO1XNpXFc=", "properties": {"@source_uri": "https://tools.usps.com/UspsToolsRestServices/rest/POLocator/findLocations", "@spider": "usps_collection_boxes", "addr:city": "VENTNOR CITY", "addr:country": "US", "addr:full": "5702 VENTNOR AVE", "addr:postcode": "08406", "addr:state": "NJ", "amenity": "post_box", "brand": "United States Postal Service", "brand:wikidata": "Q668687", "collection_times": "Mo-Sa 09:30", "nsi_id": "unitedstatespostalservice-a77078", "operator": "United States Postal Service", "operator:short": "USPS", "operator:type": "public", "operator:wikidata": "Q668687", "ref": "0840600014"}, "type": "Feature"}
{"geometry": {"coordinates": [-74.4717194, 39.341563], "type": "Point"}, "id": "Xbz2QG7lVoCj8lro8ncLTWCy6WM=", "properties": {"@source_uri": "https://tools.usps.com/UspsToolsRestServices/rest/POLocator/findLocations", "@spider": "usps_collection_boxes", "addr:city": "VENTNOR CITY", "addr:country": "US", "addr:full": "5321 ATLANTIC AVE", "addr:postcode": "08406", "addr:state": "NJ", "amenity": "post_box", "brand": "United States Postal Service", "brand:wikidata": "Q668687", "collection_times": "Mo-Fr 17:00; Sa 12:00", "note": "ON 12/24 AND 12/31, THIS BOX MAY BE COLLECTED AS EARLY AS 12 NOON.", "nsi_id": "unitedstatespostalservice-a77078", "operator": "United States Postal Service", "operator:short": "USPS", "operator:type": "public", "operator:wikidata": "Q668687", "ref": "0840600017"}, "type": "Feature"}
{"geometry": {"coordinates": [-74.4796703, 39.337691], "type": "Point"}, "id": "NbzJnmCMh7aiwva7IxiYuOg2MZw=", "properties": {"@source_uri": "https://tools.usps.com/UspsToolsRestServices/rest/POLocator/findLocations", "@spider": "usps_collection_boxes", "addr:city": "VENTNOR CITY", "addr:country": "US", "addr:full": "6201 ATLANTIC AVE", "addr:postcode": "08406", "addr:state": "NJ", "amenity": "post_box", "brand": "United States Postal Service", "brand:wikidata": "Q668687", "collection_times": "Mo-Sa 12:00", "nsi_id": "unitedstatespostalservice-a77078", "operator": "United States Postal Service", "operator:short": "USPS", "operator:type": "public", "operator:wikidata": "Q668687", "ref": "0840600019"}, "type": "Feature"}
{"geometry": {"coordinates": [-74.4822086, 39.338296], "type": "Point"}, "id": "XkdYiV3FBopyJUcqX1vbpVU-5OU=", "properties": {"@source_uri": "https://tools.usps.com/UspsToolsRestServices/rest/POLocator/findLocations", "@spider": "usps_collection_boxes", "addr:city": "VENTNOR CITY", "addr:country": "US", "addr:full": "6311 VENTNOR AVE", "addr:postcode": "08406", "addr:state": "NJ", "amenity": "post_box", "brand": "United States Postal Service", "brand:wikidata": "Q668687", "collection_times": "Mo-Fr 17:00; Sa 12:00", "note": "ON 12/24 AND 12/31, THIS BOX MAY BE COLLECTED AS EARLY AS 12 NOON.", "nsi_id": "unitedstatespostalservice-a77078", "operator": "United States Postal Service", "operator:short": "USPS", "operator:type": "public", "operator:wikidata": "Q668687", "ref": "0840600020"}, "type": "Feature"}
{"geometry": {"coordinates": [-74.4849722, 39.336995], "type": "Point"}, "id": "fCzADCiUiQMX6ucsAM3t0jIgl8s=", "properties": {"@source_uri": "https://tools.usps.com/UspsToolsRestServices/rest/POLocator/findLocations", "@spider": "usps_collection_boxes", "addr:city": "VENTNOR CITY", "addr:country": "US", "addr:full": "6601 VENTNOR AVE", "addr:postcode": "08406", "addr:state": "NJ", "amenity": "post_box", "brand": "United States Postal Service", "brand:wikidata": "Q668687", "collection_times": "Mo-Fr 17:00; Sa 12:00", "note": "ON 12/24 AND 12/31, THIS BOX MAY BE COLLECTED AS EARLY AS 12 NOON.", "nsi_id": "unitedstatespostalservice-a77078", "operator": "United States Postal Service", "operator:short": "USPS", "operator:type": "public", "operator:wikidata": "Q668687", "ref": "0840600023"}, "type": "Feature"}
{"geometry": {"coordinates": [-74.479786, 39.352038], "type": "Point"}, "id": "gfbkYLPKWyTEL2-cw8F6-Hph8K8=", "properties": {"@source_uri": "https://tools.usps.com/UspsToolsRestServices/rest/POLocator/findLocations", "@spider": "usps_collection_boxes", "addr:city": "VENTNOR CITY", "addr:country": "US", "addr:full": "5006 WELLINGTON AVE", "addr:postcode": "08406", "addr:state": "NJ", "amenity": "post_box", "brand": "United States Postal Service", "brand:wikidata": "Q668687", "collection_times": "Mo-Fr 17:00; Sa 12:15", "indoor": "yes", "note": "ON 12/24 AND 12/31, THIS BOX MAY BE COLLECTED AS EARLY AS 12 NOON.", "nsi_id": "unitedstatespostalservice-a77078", "operator": "United States Postal Service", "operator:short": "USPS", "operator:type": "public", "operator:wikidata": "Q668687", "ref": "0840600028"}, "type": "Feature"}
{"geometry": {"coordinates": [-74.479751057, 39.352001196], "type": "Point"}, "id": "hseVc3grZWBXdY0GvpCfQEgfIGg=", "properties": {"@source_uri": "https://tools.usps.com/UspsToolsRestServices/rest/POLocator/findLocations", "@spider": "usps_collection_boxes", "addr:city": "VENTNOR CITY", "addr:country": "US", "addr:full": "5006 WELLINGTON AVE", "addr:postcode": "08406", "addr:state": "NJ", "amenity": "post_box", "brand": "United States Postal Service", "brand:wikidata": "Q668687", "collection_times": "Mo-Fr 17:00; Sa 12:30", "indoor": "yes", "note": "ON 12/24 AND 12/31, THIS BOX MAY BE COLLECTED AS EARLY AS 12 NOON.", "nsi_id": "unitedstatespostalservice-a77078", "operator": "United States Postal Service", "operator:short": "USPS", "operator:type": "public", "operator:wikidata": "Q668687", "ref": "0840600032"}, "type": "Feature"}
