{"geometry": {"coordinates": [-74.584984991, 40.1778210095], "type": "Point"}, "id": "KrLwCNx7oPH7miB0vaHS5e0afkc=", "properties": {"@source_uri": "https://tools.usps.com/UspsToolsRestServices/rest/POLocator/findLocations", "@spider": "usps_collection_boxes", "addr:city": "ALLENTOWN", "addr:country": "US", "addr:postcode": "08501", "addr:state": "NJ", "addr:street_address": "12 S MAIN ST", "amenity": "post_box", "collection_times": "Mo-Fr 16:10; Sa 12:45", "note": "ON 12/24 AND 12/31, THIS BOX MAY BE COLLECTED AS EARLY AS 12 NOON.", "nsi_id": "unitedstatespostalservice-a77078", "operator": "United States Postal Service", "operator:short": "USPS", "operator:type": "public", "operator:wikidata": "Q668687", "ref": "0850100001"}, "type": "Feature"}
{"geometry": {"coordinates": [-74.584832, 40.177397], "type": "Point"}, "id": "kmjdy9BqGTkZm2jOhwxXYfp-lZ0=", "properties": {"@source_uri": "https://tools.usps.com/UspsToolsRestServices/rest/POLocator/findLocations", "@spider": "usps_collection_boxes", "addr:city": "ALLENTOWN", "addr:country": "US", "addr:postcode": "08501", "addr:state": "NJ", "addr:street_address": "12 S MAIN ST", "amenity": "post_box", "collection_times": "Mo-Fr 16:10; Sa 12:45", "note": "ON 12/24 AND 12/31, THIS BOX MAY BE COLLECTED AS EARLY AS 12 NOON.", "nsi_id": "unitedstatespostalservice-a77078", "operator": "United States Postal Service", "operator:short": "USPS", "operator:type": "public", "operator:wikidata": "Q668687", "ref": "0850100002"}, "type": "Feature"}
{"geometry": {"coordinates": [-74.584657381, 40.177563075], "type": "Point"}, "id": "FSWbGdPEmeCmvSsdZLIn0TiR6fA=", "properties": {"@source_uri": "https://tools.usps.com/UspsToolsRestServices/rest/POLocator/findLocations", "@spider": "usps_collection_boxes", "addr:city": "ALLENTOWN", "addr:country": "US", "addr:postcode": "08501", "addr:state": "NJ", "addr:street_address": "12 S MAIN ST", "amenity": "post_box", "collection_times": "Mo-Fr 16:15; Sa 13:00", "indoor": "yes", "note": "ON 12/24 AND 12/31, THIS BOX MAY BE COLLECTED AS EARLY AS 12 NOON.", "nsi_id": "unitedstatespostalservice-a77078", "operator": "United States Postal Service", "operator:short": "USPS", "operator:type": "public", "operator:wikidata": "Q668687", "ref": "0850100006"}, "type": "Feature"}
{"geometry": {"coordinates": [-74.65498, 40.452817], "type": "Point"}, "id": "_xZjPe2pbl8dbMI75B2n0WOb8LY=", "properties": {"@source_uri": "https://tools.usps.com/UspsToolsRestServices/rest/POLocator/findLocations", "@spider": "usps_collection_boxes", "addr:city": "BELLE MEAD", "addr:country": "US", "addr:postcode": "08502", "addr:state": "NJ", "addr:street_address": "2468 US HIGHWAY 206", "amenity": "post_box", "collection_times": "Mo-Fr 16:30; Sa 15:00", "note": "ON 12/24 AND 12/31, THIS BOX MAY BE COLLECTED AS EARLY AS 12 NOON.", "nsi_id": "unitedstatespostalservice-a77078", "operator": "United States Postal Service", "operator:short": "USPS", "operator:type": "public", "operator:wikidata": "Q668687", "ref": "0850200001"}, "type": "Feature"}
{"geometry": {"coordinates": [-74.661024, 40.469065], "type": "Point"}, "id": "wWh6IsLNMPCVqN9Fs5YBt-LJGOw=", "properties": {"@source_uri": "https://tools.usps.com/UspsToolsRestServices/rest/POLocator/findLocations", "@spider": "usps_collection_boxes", "addr:city": "BELLE MEAD", "addr:country": "US", "addr:postcode": "08502", "addr:state": "NJ", "addr:street_address": "2468 US HIGHWAY 206", "amenity": "post_box", "collection_times": "Mo-Fr 17:00; Sa 15:00", "indoor": "yes", "note": "ON 12/24 AND 12/31, THIS BOX MAY BE COLLECTED AS EARLY AS 12 NOON.", "nsi_id": "unitedstatespostalservice-a77078", "operator": "United States Postal Service", "operator:short": "USPS", "operator:type": "public", "operator:wikidata": "Q668687", "ref": "0850200005"}, "type": "Feature"}
{"geometry": {"coordinates": [-74.660787107, 40.469234132], "type": "Point"}, "id": "nsEi9lGKCFVQD7KyW2w8_q4ub0Y=", "properties": {"@source_uri": "https://tools.usps.com/UspsToolsRestServices/rest/POLocator/findLocations", "@spider": "usps_collection_boxes", "addr:city": "BELLE MEAD", "addr:country": "US", "addr:postcode": "08502", "addr:state": "NJ", "addr:street_address": "2468 US HIGHWAY 206", "amenity": "post_box", "collection_times": "Mo-Fr 17:00; Sa 13:15", "indoor": "yes", "note": "ON 12/24 AND 12/31, THIS BOX MAY BE COLLECTED AS EARLY AS 12 NOON.", "nsi_id": "unitedstatespostalservice-a77078", "operator": "United States Postal Service", "operator:short": "USPS", "operator:type": "public", "operator:wikidata": "Q668687", "ref": "0850200008"}, "type": "Feature"}
{"geometry": {"coordinates": [-74.702481, 40.407275], "type": "Point"}, "id": "Bn7iLzAm7JOaWedqX_EIErvSSRs=", "properties": {"@source_uri": "https://tools.usps.com/UspsToolsRestServices/rest/POLocator/findLocations", "@spider": "usps_collection_boxes", "addr:city": "BLAWENBURG", "addr:country": "US", "addr:postcode": "08504", "addr:state": "NJ", "addr:street_address": "1693 GREAT RD", "amenity": "post_box", "collection_times": "Mo-Fr 16:45; Sa 12:00", "note": "ON 12/24 AND 12/31, THIS BOX MAY BE COLLECTED AS EARLY AS 12 NOON.", "nsi_id": "unitedstatespostalservice-a77078", "operator": "United States Postal Service", "operator:short": "USPS", "operator:type": "public", "operator:wikidata": "Q668687", "ref": "0850400001"}, "type": "Feature"}
{"geometry": {"coordinates": [-74.702481, 40.407275], "type": "Point"}, "id": "LawwjcTY1RD-qSBgIGFhzKZBJSY=", "properties": {"@source_uri": "https://tools.usps.com/UspsToolsRestServices/rest/POLocator/findLocations", "@spider": "usps_collection_boxes", "addr:city": "BLAWENBURG", "addr:country": "US", "addr:postcode": "08504", "addr:state": "NJ", "addr:street_address": "1693 GREAT RD", "amenity": "post_box", "collection_times": "Mo-Fr 16:45; Sa 12:00", "indoor": "yes", "note": "ON 12/24 AND 12/31, THIS BOX MAY BE COLLECTED AS EARLY AS 12 NOON.", "nsi_id": "unitedstatespostalservice-a77078", "operator": "United States Postal Service", "operator:short": "USPS", "operator:type": "public", "operator:wikidata": "Q668687", "ref": "0850400002"}, "type": "Feature"}
{"geometry": {"coordinates": [-74.702481, 40.407275], "type": "Point"}, "id": "AL1mUXSYJkuKBdsBgsaC6yguTi0=", "properties": {"@source_uri": "https://tools.usps.com/UspsToolsRestServices/rest/POLocator/findLocations", "@spider": "usps_collection_boxes", "addr:city": "BLAWENBURG", "addr:country": "US", "addr:postcode": "08504", "addr:state": "NJ", "addr:street_address": "1693 GREAT RD", "amenity": "post_box", "collection_times": "Mo-Fr 16:15; Sa 12:00", "indoor": "yes", "note": "ON 12/24 AND 12/31, THIS BOX MAY BE COLLECTED AS EARLY AS 12 NOON.", "nsi_id": "unitedstatespostalservice-a77078", "operator": "United States Postal Service", "operator:short": "USPS", "operator:type": "public", "operator:wikidata": "Q668687", "ref": "0850400005"}, "type": "Feature"}
{"geometry": {"coordinates": [-74.7091084, 40.14287], "type": "Point"}, "id": "Db-dFHh_OkE2Wc9BphWKaX-NW60=", "properties": {"@source_uri": "https://tools.usps.com/UspsToolsRestServices/rest/POLocator/findLocations", "@spider": "usps_collection_boxes", "addr:city": "BORDENTOWN", "addr:country": "US", "addr:postcode": "08505", "addr:state": "NJ", "addr:street_address": "501 FARNSWORTH AVE", "amenity": "post_box", "collection_times": "Mo-Sa 14:00", "note": "ON 12/24 AND 12/31, THIS BOX MAY BE COLLECTED AS EARLY AS 12 NOON.", "nsi_id": "unitedstatespostalservice-a77078", "operator": "United States Postal Service", "operator:short": "USPS", "operator:type": "public", "operator:wikidata": "Q668687", "ref": "0850500005"}, "type": "Feature"}
{"geometry": {"coordinates": [-74.7033317, 40.145808], "type": "Point"}, "id": "QIX21x40iNQmZ3T2XudgT8KJTfI=", "properties": {"@source_uri": "https://tools.usps.com/UspsToolsRestServices/rest/POLocator/findLocations", "@spider": "usps_collection_boxes", "addr:city": "BORDENTOWN", "addr:country": "US", "addr:postcode": "08505", "addr:state": "NJ", "addr:street_address": "201 CROSSWICKS ST", "amenity": "post_box", "collection_times": "Mo-Sa 14:30", "note": "ON 12/24 AND 12/31, THIS BOX MAY BE COLLECTED AS EARLY AS 12 NOON.", "nsi_id": "unitedstatespostalservice-a77078", "operator": "United States Postal Service", "operator:short": "USPS", "operator:type": "public", "operator:wikidata": "Q668687", "ref": "0850500007"}, "type": "Feature"}
{"geometry": {"coordinates": [-74.7128461, 40.1234], "type": "Point"}, "id": "2D_AVjDWaOnkYoSFtsJCFFvJuE8=", "properties": {"@source_uri": "https://tools.usps.com/UspsToolsRestServices/rest/POLocator/findLocations", "@spider": "usps_collection_boxes", "addr:city": "BORDENTOWN", "addr:country": "US", "addr:postcode": "08505", "addr:state": "NJ", "addr:street_address": "402 RISING SUN RD", "amenity": "post_box", "collection_times": "Mo-Sa 10:00", "nsi_id": "unitedstatespostalservice-a77078", "operator": "United States Postal Service", "operator:short": "USPS", "operator:type": "public", "operator:wikidata": "Q668687", "ref": "0850500009"}, "type": "Feature"}
{"geometry": {"coordinates": [-74.6956177, 40.131341], "type": "Point"}, "id": "l01pa-5-P3b7JZZr9FrS7c_Rw6Q=", "properties": {"@source_uri": "https://tools.usps.com/UspsToolsRestServices/rest/POLocator/findLocations", "@spider": "usps_collection_boxes", "addr:city": "BORDENTOWN", "addr:country": "US", "addr:postcode": "08505", "addr:state": "NJ", "addr:street_address": "17 AMHERST CT", "amenity": "post_box", "collection_times": "Mo-Sa 13:30", "note": "ON 12/24 AND 12/31, THIS BOX MAY BE COLLECTED AS EARLY AS 12 NOON.", "nsi_id": "unitedstatespostalservice-a77078", "operator": "United States Postal Service", "operator:short": "USPS", "operator:type": "public", "operator:wikidata": "Q668687", "ref": "0850500011"}, "type": "Feature"}
{"geometry": {"coordinates": [-74.712137, 40.146298], "type": "Point"}, "id": "mxDo8xOHrWV8onXKgwL8sjaqQJA=", "properties": {"@source_uri": "https://tools.usps.com/UspsToolsRestServices/rest/POLocator/findLocations", "@spider": "usps_collection_boxes", "addr:city": "BORDENTOWN", "addr:country": "US", "addr:postcode": "08505", "addr:state": "NJ", "addr:street_address": "14 WALNUT ST", "amenity": "post_box", "collection_times": "Mo-Fr 17:00; Sa 15:00", "note": "ON 12/24 AND 12/31, THIS BOX MAY BE COLLECTED AS EARLY AS 12 NOON.", "nsi_id": "unitedstatespostalservice-a77078", "operator": "United States Postal Service", "operator:short": "USPS", "operator:type": "public", "operator:wikidata": "Q668687", "ref": "0850500022"}, "type": "Feature"}
{"geometry": {"coordinates": [-74.7798487, 40.101854], "type": "Point"}, "id": "G0hDJu_zJatSUVbBWCucJiY7NAQ=", "properties": {"@source_uri": "https://tools.usps.com/UspsToolsRestServices/rest/POLocator/findLocations", "@spider": "usps_collection_boxes", "addr:city": "BORDENTOWN", "addr:country": "US", "addr:postcode": "08505", "addr:state": "NJ", "addr:street_address": "100 BIRCH HOLLOW DR", "amenity": "post_box", "collection_times": "Mo-Sa 11:30", "nsi_id": "unitedstatespostalservice-a77078", "operator": "United States Postal Service", "operator:short": "USPS", "operator:type": "public", "operator:wikidata": "Q668687", "ref": "0850500023"}, "type": "Feature"}
{"geometry": {"coordinates": [-74.712137, 40.146298], "type": "Point"}, "id": "kOIbP5Mwsw63GFYn8lkb_vFNwn8=", "properties": {"@source_uri": "https://tools.usps.com/UspsToolsRestServices/rest/POLocator/findLocations", "@spider": "usps_collection_boxes", "addr:city": "BORDENTOWN", "addr:country": "US", "addr:postcode": "08505", "addr:state": "NJ", "addr:street_address": "14 WALNUT ST", "amenity": "post_box", "collection_times": "Mo-Fr 17:00; Sa 15:00", "indoor": "yes", "note": "ON 12/24 AND 12/31, THIS BOX MAY BE COLLECTED AS EARLY AS 12 NOON.", "nsi_id": "unitedstatespostalservice-a77078", "operator": "United States Postal Service", "operator:short": "USPS", "operator:type": "public", "operator:wikidata": "Q668687", "ref": "0850500027"}, "type": "Feature"}
{"geometry": {"coordinates": [-74.712112937, 40.146348537], "type": "Point"}, "id": "02aSpolPEOsGZdzGzGLWwowZdWs=", "properties": {"@source_uri": "https://tools.usps.com/UspsToolsRestServices/rest/POLocator/findLocations", "@spider": "usps_collection_boxes", "addr:city": "BORDENTOWN", "addr:country": "US", "addr:postcode": "08505", "addr:state": "NJ", "addr:street_address": "14 WALNUT ST", "amenity": "post_box", "collection_times": "Mo-Fr 16:30; Sa 12:00", "indoor": "yes", "note": "ON 12/24 AND 12/31, THIS BOX MAY BE COLLECTED AS EARLY AS 12 NOON.", "nsi_id": "unitedstatespostalservice-a77078", "operator": "United States Postal Service", "operator:short": "USPS", "operator:type": "public", "operator:wikidata": "Q668687", "ref": "0850500031"}, "type": "Feature"}
{"geometry": {"coordinates": [-74.429467, 40.191482], "type": "Point"}, "id": "7rn2TqFUHcTdCOgoHC5-YwVc2CQ=", "properties": {"@source_uri": "https://tools.usps.com/UspsToolsRestServices/rest/POLocator/findLocations", "@spider": "usps_collection_boxes", "addr:city": "CLARKSBURG", "addr:country": "US", "addr:postcode": "08510", "addr:state": "NJ", "addr:street_address": "424 STAGECOACH RD", "amenity": "post_box", "collection_times": "Mo-Fr 16:30; Sa 13:00", "note": "ON 12/24 AND 12/31, THIS BOX MAY BE COLLECTED AS EARLY AS 12 NOON.", "nsi_id": "unitedstatespostalservice-a77078", "operator": "United States Postal Service", "operator:short": "USPS", "operator:type": "public", "operator:wikidata": "Q668687", "ref": "0851000001"}, "type": "Feature"}
{"geometry": {"coordinates": [-74.42953, 40.191402], "type": "Point"}, "id": "Opddm-RO_RoIdxi4AlyTMB1HpwI=", "properties": {"@source_uri": "https://tools.usps.com/UspsToolsRestServices/rest/POLocator/findLocations", "@spider": "usps_collection_boxes", "addr:city": "CLARKSBURG", "addr:country": "US", "addr:postcode": "08510", "addr:state": "NJ", "addr:street_address": "424 STAGECOACH RD", "amenity": "post_box", "collection_times": "Mo-Fr 16:30; Sa 13:00", "indoor": "yes", "note": "ON 12/24 AND 12/31, THIS BOX MAY BE COLLECTED AS EARLY AS 12 NOON.", "nsi_id": "unitedstatespostalservice-a77078", "operator": "United States Postal Service", "operator:short": "USPS", "operator:type": "public", "operator:wikidata": "Q668687", "ref": "0851000002"}, "type": "Feature"}
{"geometry": {"coordinates": [-74.428820385, 40.191928301], "type": "Point"}, "id": "mgYAmfUfzT2C9xYl8hh_3E_nVPE=", "properties": {"@source_uri": "https://tools.usps.com/UspsToolsRestServices/rest/POLocator/findLocations", "@spider": "usps_collection_boxes", "addr:city": "CLARKSBURG", "addr:country": "US", "addr:postcode": "08510", "addr:state": "NJ", "addr:street_address": "424 STAGECOACH RD", "amenity": "post_box", "collection_times": "Mo-Fr 16:30; Sa 13:00", "indoor": "yes", "note": "ON 12/24 AND 12/31, THIS BOX MAY BE COLLECTED AS EARLY AS 12 NOON.", "nsi_id": "unitedstatespostalservice-a77078", "operator": "United States Postal Service", "operator:short": "USPS", "operator:type": "public", "operator:wikidata": "Q668687", "ref": "0851000005"}, "type": "Feature"}
{"geometry": {"coordinates": [-74.580641, 40.041353], "type": "Point"}, "id": "gT6t-flLwYs_9edd1_CpEML5jXg=", "properties": {"@source_uri": "https://tools.usps.com/UspsToolsRestServices/rest/POLocator/findLocations", "@spider": "usps_collection_boxes", "addr:city": "COOKSTOWN", "addr:country": "US", "addr:postcode": "08511", "addr:state": "NJ", "addr:street_address": "7 WRIGHTSTOWN COOKSTOWN RD", "amenity": "post_box", "collection_times": "Mo-Fr 16:00; Sa 11:00", "note": "ON 12/24 AND 12/31, THIS BOX MAY BE COLLECTED AS EARLY AS 12 NOON.", "nsi_id": "unitedstatespostalservice-a77078", "operator": "United States Postal Service", "operator:short": "USPS", "operator:type": "public", "operator:wikidata": "Q668687", "ref": "0851100001"}, "type": "Feature"}
{"geometry": {"coordinates": [-74.579788, 40.041667], "type": "Point"}, "id": "_hF4FkNR5aCGFeYfPMYXpCeWW0Y=", "properties": {"@source_uri": "https://tools.usps.com/UspsToolsRestServices/rest/POLocator/findLocations", "@spider": "usps_collection_boxes", "addr:city": "COOKSTOWN", "addr:country": "US", "addr:postcode": "08511", "addr:state": "NJ", "addr:street_address": "7 WRIGHTSTOWN COOKSTOWN RD", "amenity": "post_box", "collection_times": "Mo-Fr 16:45; Sa 11:45", "indoor": "yes", "note": "ON 12/24 AND 12/31, THIS BOX MAY BE COLLECTED AS EARLY AS 12 NOON.", "nsi_id": "unitedstatespostalservice-a77078", "operator": "United States Postal Service", "operator:short": "USPS", "operator:type": "public", "operator:wikidata": "Q668687", "ref": "0851100002"}, "type": "Feature"}
{"geometry": {"coordinates": [-74.580919867, 40.041309668], "type": "Point"}, "id": "I-gVhQ6Ud6uPdNWGkonve59zngA=", "properties": {"@source_uri": "https://tools.usps.com/UspsToolsRestServices/rest/POLocator/findLocations", "@spider": "usps_collection_boxes", "addr:city": "COOKSTOWN", "addr:country": "US", "addr:postcode": "08511", "addr:state": "NJ", "addr:street_address": "7 WRIGHTSTOWN COOKSTOWN RD", "amenity": "post_box", "collection_times": "Mo-Fr 16:45; Sa 11:45", "indoor": "yes", "note": "ON 12/24 AND 12/31, THIS BOX MAY BE COLLECTED AS EARLY AS 12 NOON.", "nsi_id": "unitedstatespostalservice-a77078", "operator": "United States Postal Service", "operator:short": "USPS", "operator:type": "public", "operator:wikidata": "Q668687", "ref": "0851100005"}, "type": "Feature"}
{"geometry": {"coordinates": [-74.5186807, 40.306925], "type": "Point"}, "id": "hAraqT3We4Bsus0x0Ka6H_W0M0M=", "properties": {"@source_uri": "https://tools.usps.com/UspsToolsRestServices/rest/POLocator/findLocations", "@spider": "usps_collection_boxes", "addr:city": "EAST WINDSOR", "addr:country": "US", "addr:postcode": "08512", "addr:state": "NJ", "addr:street_address": "38 S MAIN ST", "amenity": "post_box", "collection_times": "Mo-Sa 10:00", "nsi_id": "unitedstatespostalservice-a77078", "operator": "United States Postal Service", "operator:short": "USPS", "operator:type": "public", "operator:wikidata": "Q668687", "ref": "0851200001"}, "type": "Feature"}
{"geometry": {"coordinates": [-74.5451179, 40.279541], "type": "Point"}, "id": "HvtA7idXpwMK8ORhD5kwPjlJhY8=", "properties": {"@source_uri": "https://tools.usps.com/UspsToolsRestServices/rest/POLocator/findLocations", "@spider": "usps_collection_boxes", "addr:city": "EAST WINDSOR", "addr:country": "US", "addr:postcode": "08512", "addr:state": "NJ", "addr:street_address": "60 ONE MILE RD", "amenity": "post_box", "collection_times": "Mo-Sa 11:00", "nsi_id": "unitedstatespostalservice-a77078", "operator": "United States Postal Service", "operator:short": "USPS", "operator:type": "public", "operator:wikidata": "Q668687", "ref": "0851200002"}, "type": "Feature"}
{"geometry": {"coordinates": [-74.5499312, 40.289287], "type": "Point"}, "id": "iGYPjfHfBCf5oExbOWzNXeSVpaI=", "properties": {"@source_uri": "https://tools.usps.com/UspsToolsRestServices/rest/POLocator/findLocations", "@spider": "usps_collection_boxes", "addr:city": "EAST WINDSOR", "addr:country": "US", "addr:postcode": "08512", "addr:state": "NJ", "addr:street_address": "1 WINDSOR MILL BLVD", "amenity": "post_box", "collection_times": "Mo-Sa 11:00", "nsi_id": "unitedstatespostalservice-a77078", "operator": "United States Postal Service", "operator:short": "USPS", "operator:type": "public", "operator:wikidata": "Q668687", "ref": "0851200003"}, "type": "Feature"}
{"geometry": {"coordinates": [-74.5157104, 40.311964], "type": "Point"}, "id": "-iCaatkVQkUyyOyBG1HHZzrfU1k=", "properties": {"@source_uri": "https://tools.usps.com/UspsToolsRestServices/rest/POLocator/findLocations", "@spider": "usps_collection_boxes", "addr:city": "EAST WINDSOR", "addr:country": "US", "addr:postcode": "08512", "addr:state": "NJ", "addr:street_address": "32 N MAIN ST", "amenity": "post_box", "collection_times": "Mo-Sa 11:00", "nsi_id": "unitedstatespostalservice-a77078", "operator": "United States Postal Service", "operator:short": "USPS", "operator:type": "public", "operator:wikidata": "Q668687", "ref": "0851200004"}, "type": "Feature"}
{"geometry": {"coordinates": [-74.5695124, 40.27811], "type": "Point"}, "id": "gpvhaDnEKNmSEFZwINO9KYFiTMQ=", "properties": {"@source_uri": "https://tools.usps.com/UspsToolsRestServices/rest/POLocator/findLocations", "@spider": "usps_collection_boxes", "addr:city": "EAST WINDSOR", "addr:country": "US", "addr:postcode": "08512", "addr:state": "NJ", "addr:street_address": "1 DORCHESTER ARMS", "amenity": "post_box", "collection_times": "Mo-Sa 11:00", "nsi_id": "unitedstatespostalservice-a77078", "operator": "United States Postal Service", "operator:short": "USPS", "operator:type": "public", "operator:wikidata": "Q668687", "ref": "0851200006"}, "type": "Feature"}
{"geometry": {"coordinates": [-74.5003678, 40.34028], "type": "Point"}, "id": "8iZZVFxRYgbtbKSHaozdlcOpyRQ=", "properties": {"@source_uri": "https://tools.usps.com/UspsToolsRestServices/rest/POLocator/findLocations", "@spider": "usps_collection_boxes", "addr:city": "EAST WINDSOR", "addr:country": "US", "addr:postcode": "08512", "addr:state": "NJ", "addr:street_address": "1000 EASTPARK BLVD", "amenity": "post_box", "collection_times": "Mo-Sa 11:00", "nsi_id": "unitedstatespostalservice-a77078", "operator": "United States Postal Service", "operator:short": "USPS", "operator:type": "public", "operator:wikidata": "Q668687", "ref": "0851200011"}, "type": "Feature"}
{"geometry": {"coordinates": [-74.515223, 40.313423], "type": "Point"}, "id": "1BhvoA00pHGesASES7XR-Av5eOA=", "properties": {"@source_uri": "https://tools.usps.com/UspsToolsRestServices/rest/POLocator/findLocations", "@spider": "usps_collection_boxes", "addr:city": "EAST WINDSOR", "addr:country": "US", "addr:postcode": "08512", "addr:state": "NJ", "addr:street_address": "65 N MAIN ST", "amenity": "post_box", "collection_times": "Mo-Fr 17:00; Sa 15:00", "note": "ON 12/24 AND 12/31, THIS BOX MAY BE COLLECTED AS EARLY AS 12 NOON.", "nsi_id": "unitedstatespostalservice-a77078", "operator": "United States Postal Service", "operator:short": "USPS", "operator:type": "public", "operator:wikidata": "Q668687", "ref": "0851200012"}, "type": "Feature"}
{"geometry": {"coordinates": [-74.4845283, 40.3404], "type": "Point"}, "id": "TmPhRtGMq9fsUuqxwW7YUzQyysY=", "properties": {"@source_uri": "https://tools.usps.com/UspsToolsRestServices/rest/POLocator/findLocations", "@spider": "usps_collection_boxes", "addr:city": "EAST WINDSOR", "addr:country": "US", "addr:postcode": "08512", "addr:state": "NJ", "addr:street_address": "53 COMMERCE DR", "amenity": "post_box", "collection_times": "Mo-Fr 11:00", "name": "USPS COLLECTION BOX - EXPRESS", "nsi_id": "unitedstatespostalservice-a77078", "operator": "United States Postal Service", "operator:short": "USPS", "operator:type": "public", "operator:wikidata": "Q668687", "ref": "0851200019"}, "type": "Feature"}
{"geometry": {"coordinates": [-74.4990917, 40.348924], "type": "Point"}, "id": "Re2p_D80Uex66iD9HQHh81l2hlI=", "properties": {"@source_uri": "https://tools.usps.com/UspsToolsRestServices/rest/POLocator/findLocations", "@spider": "usps_collection_boxes", "addr:city": "EAST WINDSOR", "addr:country": "US", "addr:postcode": "08512", "addr:state": "NJ", "addr:street_address": "2501 US HIGHWAY 130", "amenity": "post_box", "collection_times": "Mo-Sa 11:00", "nsi_id": "unitedstatespostalservice-a77078", "operator": "United States Postal Service", "operator:short": "USPS", "operator:type": "public", "operator:wikidata": "Q668687", "ref": "0851200023"}, "type": "Feature"}
{"geometry": {"coordinates": [-74.5055885, 40.327581], "type": "Point"}, "id": "iNtq6odTCvJOcVuBNg7jcqzg5_Y=", "properties": {"@source_uri": "https://tools.usps.com/UspsToolsRestServices/rest/POLocator/findLocations", "@spider": "usps_collection_boxes", "addr:city": "EAST WINDSOR", "addr:country": "US", "addr:postcode": "08512", "addr:state": "NJ", "addr:street_address": "2650 US HIGHWAY 130", "amenity": "post_box", "collection_times": "Mo-Sa 10:00", "nsi_id": "unitedstatespostalservice-a77078", "operator": "United States Postal Service", "operator:short": "USPS", "operator:type": "public", "operator:wikidata": "Q668687", "ref": "0851200025"}, "type": "Feature"}
{"geometry": {"coordinates": [-74.5022717, 40.331873], "type": "Point"}, "id": "qYOK2p8nzWlb-hn42utFIEoQlQo=", "properties": {"@source_uri": "https://tools.usps.com/UspsToolsRestServices/rest/POLocator/findLocations", "@spider": "usps_collection_boxes", "addr:city": "EAST WINDSOR", "addr:country": "US", "addr:postcode": "08512", "addr:state": "NJ", "addr:street_address": "3 CEDARBROOK DR", "amenity": "post_box", "collection_times": "Mo-Sa 11:00", "nsi_id": "unitedstatespostalservice-a77078", "operator": "United States Postal Service", "operator:short": "USPS", "operator:type": "public", "operator:wikidata": "Q668687", "ref": "0851200026"}, "type": "Feature"}
{"geometry": {"coordinates": [-74.515223, 40.313423], "type": "Point"}, "id": "XaGsnfQ6kS-M565D8P80dpDXVLk=", "properties": {"@source_uri": "https://tools.usps.com/UspsToolsRestServices/rest/POLocator/findLocations", "@spider": "usps_collection_boxes", "addr:city": "EAST WINDSOR", "addr:country": "US", "addr:postcode": "08512", "addr:state": "NJ", "addr:street_address": "65 N MAIN ST", "amenity": "post_box", "collection_times": "Mo-Sa 13:50", "indoor": "yes", "note": "ON 12/24 AND 12/31, THIS BOX MAY BE COLLECTED AS EARLY AS 12 NOON.", "nsi_id": "unitedstatespostalservice-a77078", "operator": "United States Postal Service", "operator:short": "USPS", "operator:type": "public", "operator:wikidata": "Q668687", "ref": "0851200027"}, "type": "Feature"}
{"geometry": {"coordinates": [-74.515222404, 40.313416839], "type": "Point"}, "id": "VySLe84q-KNOB2oCvwWbpxKkZ9c=", "properties": {"@source_uri": "https://tools.usps.com/UspsToolsRestServices/rest/POLocator/findLocations", "@spider": "usps_collection_boxes", "addr:city": "EAST WINDSOR", "addr:country": "US", "addr:postcode": "08512", "addr:state": "NJ", "addr:street_address": "65 N MAIN ST", "amenity": "post_box", "collection_times": "Mo-Fr 16:45; Sa 15:45", "indoor": "yes", "note": "ON 12/24 AND 12/31, THIS BOX MAY BE COLLECTED AS EARLY AS 12 NOON.", "nsi_id": "unitedstatespostalservice-a77078", "operator": "United States Postal Service", "operator:short": "USPS", "operator:type": "public", "operator:wikidata": "Q668687", "ref": "0851200030"}, "type": "Feature"}
{"geometry": {"coordinates": [-74.52808, 40.133315], "type": "Point"}, "id": "hIN6CK2CoAqEdARIB6AaAEXOjls=", "properties": {"@source_uri": "https://tools.usps.com/UspsToolsRestServices/rest/POLocator/findLocations", "@spider": "usps_collection_boxes", "addr:city": "CREAMRIDGE", "addr:country": "US", "addr:postcode": "08514", "addr:state": "NJ", "addr:street_address": "163 BURLINGTON PATH RD STE D", "amenity": "post_box", "collection_times": "Mo-Fr 16:15; Sa 11:15", "note": "ON 12/24 AND 12/31, THIS BOX MAY BE COLLECTED AS EARLY AS 12 NOON.", "nsi_id": "unitedstatespostalservice-a77078", "operator": "United States Postal Service", "operator:short": "USPS", "operator:type": "public", "operator:wikidata": "Q668687", "ref": "0851400001"}, "type": "Feature"}
{"geometry": {"coordinates": [-74.52808, 40.133315], "type": "Point"}, "id": "dRKFrzIIJKp_j3UyhN89wnGeHdY=", "properties": {"@source_uri": "https://tools.usps.com/UspsToolsRestServices/rest/POLocator/findLocations", "@spider": "usps_collection_boxes", "addr:city": "CREAMRIDGE", "addr:country": "US", "addr:postcode": "08514", "addr:state": "NJ", "addr:street_address": "163 BURLINGTON PATH RD STE D", "amenity": "post_box", "collection_times": "Mo-Fr 16:15; Sa 11:15", "indoor": "yes", "note": "ON 12/24 AND 12/31, THIS BOX MAY BE COLLECTED AS EARLY AS 12 NOON.", "nsi_id": "unitedstatespostalservice-a77078", "operator": "United States Postal Service", "operator:short": "USPS", "operator:type": "public", "operator:wikidata": "Q668687", "ref": "0851400002"}, "type": "Feature"}
{"geometry": {"coordinates": [-74.528308827, 40.133196109], "type": "Point"}, "id": "abnM9Ca08uUrO6-TR8kwSoxHqMg=", "properties": {"@source_uri": "https://tools.usps.com/UspsToolsRestServices/rest/POLocator/findLocations", "@spider": "usps_collection_boxes", "addr:city": "CREAMRIDGE", "addr:country": "US", "addr:postcode": "08514", "addr:state": "NJ", "addr:street_address": "163 BURLINGTON PATH RD STE D", "amenity": "post_box", "collection_times": "Mo-Fr 16:30; Sa 11:30", "indoor": "yes", "note": "ON 12/24 AND 12/31, THIS BOX MAY BE COLLECTED AS EARLY AS 12 NOON.", "nsi_id": "unitedstatespostalservice-a77078", "operator": "United States Postal Service", "operator:short": "USPS", "operator:type": "public", "operator:wikidata": "Q668687", "ref": "0851400005"}, "type": "Feature"}
{"geometry": {"coordinates": [-74.645938, 40.15268], "type": "Point"}, "id": "x5BJKtHQdQJIUQKAo3g0fgCuOwI=", "properties": {"@source_uri": "https://tools.usps.com/UspsToolsRestServices/rest/POLocator/findLocations", "@spider": "usps_collection_boxes", "addr:city": "CROSSWICKS", "addr:country": "US", "addr:postcode": "08515", "addr:state": "NJ", "addr:street_address": "3 NEW ST", "amenity": "post_box", "collection_times": "Mo-Fr 16:15; Sa 11:45", "note": "ON 12/24 AND 12/31, THIS BOX MAY BE COLLECTED AS EARLY AS 12 NOON.", "nsi_id": "unitedstatespostalservice-a77078", "operator": "United States Postal Service", "operator:short": "USPS", "operator:type": "public", "operator:wikidata": "Q668687", "ref": "0851500001"}, "type": "Feature"}
{"geometry": {"coordinates": [-74.646053, 40.152658], "type": "Point"}, "id": "0UxGitLtmlGW61vw7UMhyyx23YE=", "properties": {"@source_uri": "https://tools.usps.com/UspsToolsRestServices/rest/POLocator/findLocations", "@spider": "usps_collection_boxes", "addr:city": "CROSSWICKS", "addr:country": "US", "addr:postcode": "08515", "addr:state": "NJ", "addr:street_address": "3 NEW ST", "amenity": "post_box", "collection_times": "Mo-Fr 16:00; Sa 12:00", "indoor": "yes", "note": "ON 12/24 AND 12/31, THIS BOX MAY BE COLLECTED AS EARLY AS 12 NOON.", "nsi_id": "unitedstatespostalservice-a77078", "operator": "United States Postal Service", "operator:short": "USPS", "operator:type": "public", "operator:wikidata": "Q668687", "ref": "0851500002"}, "type": "Feature"}
{"geometry": {"coordinates": [-74.645933826, 40.152672092], "type": "Point"}, "id": "-xfnf1BedGiyJDCwlFh5QKm2kC8=", "properties": {"@source_uri": "https://tools.usps.com/UspsToolsRestServices/rest/POLocator/findLocations", "@spider": "usps_collection_boxes", "addr:city": "CROSSWICKS", "addr:country": "US", "addr:postcode": "08515", "addr:state": "NJ", "addr:street_address": "3 NEW ST", "amenity": "post_box", "collection_times": "Mo-Fr 16:15; Sa 12:00", "indoor": "yes", "note": "ON 12/24 AND 12/31, THIS BOX MAY BE COLLECTED AS EARLY AS 12 NOON.", "nsi_id": "unitedstatespostalservice-a77078", "operator": "United States Postal Service", "operator:short": "USPS", "operator:type": "public", "operator:wikidata": "Q668687", "ref": "0851500005"}, "type": "Feature"}
{"geometry": {"coordinates": [-74.8096971, 40.123158], "type": "Point"}, "id": "9hvZ0MV_e_-NDmn_3yrdaivCUmM=", "properties": {"@source_uri": "https://tools.usps.com/UspsToolsRestServices/rest/POLocator/findLocations", "@spider": "usps_collection_boxes", "addr:city": "FLORENCE", "addr:country": "US", "addr:postcode": "08518", "addr:state": "NJ", "addr:street_address": "338 W FRONT ST", "amenity": "post_box", "collection_times": "Mo-Sa 08:30", "nsi_id": "unitedstatespostalservice-a77078", "operator": "United States Postal Service", "operator:short": "USPS", "operator:type": "public", "operator:wikidata": "Q668687", "ref": "0851800003"}, "type": "Feature"}
{"geometry": {"coordinates": [-74.805387, 40.119661], "type": "Point"}, "id": "vscXKtWcIvOtQjUkKNxVr8acmWQ=", "properties": {"@source_uri": "https://tools.usps.com/UspsToolsRestServices/rest/POLocator/findLocations", "@spider": "usps_collection_boxes", "addr:city": "FLORENCE", "addr:country": "US", "addr:postcode": "08518", "addr:state": "NJ", "addr:street_address": "400 BROAD ST", "amenity": "post_box", "collection_times": "Mo-Fr 16:15; Sa 11:45", "note": "ON 12/24 AND 12/31, THIS BOX MAY BE COLLECTED AS EARLY AS 12 NOON.", "nsi_id": "unitedstatespostalservice-a77078", "operator": "United States Postal Service", "operator:short": "USPS", "operator:type": "public", "operator:wikidata": "Q668687", "ref": "0851800008"}, "type": "Feature"}
{"geometry": {"coordinates": [-74.805387, 40.119661], "type": "Point"}, "id": "up2Ebqo-QFgRTFgHXD1lIEwv-NI=", "properties": {"@source_uri": "https://tools.usps.com/UspsToolsRestServices/rest/POLocator/findLocations", "@spider": "usps_collection_boxes", "addr:city": "FLORENCE", "addr:country": "US", "addr:postcode": "08518", "addr:state": "NJ", "addr:street_address": "400 BROAD ST", "amenity": "post_box", "collection_times": "Mo-Fr 16:15; Sa 11:45", "indoor": "yes", "note": "ON 12/24 AND 12/31, THIS BOX MAY BE COLLECTED AS EARLY AS 12 NOON.", "nsi_id": "unitedstatespostalservice-a77078", "operator": "United States Postal Service", "operator:short": "USPS", "operator:type": "public", "operator:wikidata": "Q668687", "ref": "0851800009"}, "type": "Feature"}
{"geometry": {"coordinates": [-74.805422545, 40.119513643], "type": "Point"}, "id": "hFEtqh-2zS1BOAJ9x8rYAFSfomY=", "properties": {"@source_uri": "https://tools.usps.com/UspsToolsRestServices/rest/POLocator/findLocations", "@spider": "usps_collection_boxes", "addr:city": "FLORENCE", "addr:country": "US", "addr:postcode": "08518", "addr:state": "NJ", "addr:street_address": "400 BROAD ST", "amenity": "post_box", "collection_times": "Mo-Fr 16:30; Sa 12:00", "indoor": "yes", "note": "ON 12/24 AND 12/31, THIS BOX MAY BE COLLECTED AS EARLY AS 12 NOON.", "nsi_id": "unitedstatespostalservice-a77078", "operator": "United States Postal Service", "operator:short": "USPS", "operator:type": "public", "operator:wikidata": "Q668687", "ref": "0851800012"}, "type": "Feature"}
{"geometry": {"coordinates": [-74.5568974, 40.263562], "type": "Point"}, "id": "rUEoCaQYNLnMB-Utp-cFeqFMxLI=", "properties": {"@source_uri": "https://tools.usps.com/UspsToolsRestServices/rest/POLocator/findLocations", "@spider": "usps_collection_boxes", "addr:city": "EAST WINDSOR", "addr:country": "US", "addr:postcode": "08520", "addr:state": "NJ", "addr:street_address": "152 HICKORY CORNER RD", "amenity": "post_box", "collection_times": "Mo-Sa 11:30", "nsi_id": "unitedstatespostalservice-a77078", "operator": "United States Postal Service", "operator:short": "USPS", "operator:type": "public", "operator:wikidata": "Q668687", "ref": "0852000001"}, "type": "Feature"}
{"geometry": {"coordinates": [-74.5594842, 40.271072], "type": "Point"}, "id": "INpAuENNxCWdGV6moHEop4Kfyrs=", "properties": {"@source_uri": "https://tools.usps.com/UspsToolsRestServices/rest/POLocator/findLocations", "@spider": "usps_collection_boxes", "addr:city": "EAST WINDSOR", "addr:country": "US", "addr:postcode": "08520", "addr:state": "NJ", "addr:street_address": "400 DUTCH NECK RD", "amenity": "post_box", "collection_times": "Mo-Sa 11:30", "nsi_id": "unitedstatespostalservice-a77078", "operator": "United States Postal Service", "operator:short": "USPS", "operator:type": "public", "operator:wikidata": "Q668687", "ref": "0852000002"}, "type": "Feature"}
{"geometry": {"coordinates": [-74.5222578, 40.271339], "type": "Point"}, "id": "YURkllnr7XxwndqfYoFgq24Mz8g=", "properties": {"@source_uri": "https://tools.usps.com/UspsToolsRestServices/rest/POLocator/findLocations", "@spider": "usps_collection_boxes", "addr:city": "EAST WINDSOR", "addr:country": "US", "addr:postcode": "08520", "addr:state": "NJ", "addr:street_address": "164 N MAIN ST", "amenity": "post_box", "collection_times": "Mo-Sa 11:30", "nsi_id": "unitedstatespostalservice-a77078", "operator": "United States Postal Service", "operator:short": "USPS", "operator:type": "public", "operator:wikidata": "Q668687", "ref": "0852000009"}, "type": "Feature"}
{"geometry": {"coordinates": [-74.5162069, 40.282341], "type": "Point"}, "id": "jQgOcOO8SKWqp9E5rjT4jkJ_EQY=", "properties": {"@source_uri": "https://tools.usps.com/UspsToolsRestServices/rest/POLocator/findLocations", "@spider": "usps_collection_boxes", "addr:city": "EAST WINDSOR", "addr:country": "US", "addr:postcode": "08520", "addr:state": "NJ", "addr:street_address": "47 GARDEN VIEW TER", "amenity": "post_box", "collection_times": "Mo-Sa 11:15", "nsi_id": "unitedstatespostalservice-a77078", "operator": "United States Postal Service", "operator:short": "USPS", "operator:type": "public", "operator:wikidata": "Q668687", "ref": "0852000011"}, "type": "Feature"}
{"geometry": {"coordinates": [-74.5173954, 40.284735], "type": "Point"}, "id": "znDZ-BW5GHv0YaI-9a2guVIznuo=", "properties": {"@source_uri": "https://tools.usps.com/UspsToolsRestServices/rest/POLocator/findLocations", "@spider": "usps_collection_boxes", "addr:city": "EAST WINDSOR", "addr:country": "US", "addr:postcode": "08520", "addr:state": "NJ", "addr:street_address": "719 SAINT JAMES PL", "amenity": "post_box", "collection_times": "Mo-Sa 11:15", "nsi_id": "unitedstatespostalservice-a77078", "operator": "United States Postal Service", "operator:short": "USPS", "operator:type": "public", "operator:wikidata": "Q668687", "ref": "0852000012"}, "type": "Feature"}
{"geometry": {"coordinates": [-74.4840377, 40.269631], "type": "Point"}, "id": "0OaN4tKtjTFTBrF-H8o0cIpqk_A=", "properties": {"@source_uri": "https://tools.usps.com/UspsToolsRestServices/rest/POLocator/findLocations", "@spider": "usps_collection_boxes", "addr:city": "EAST WINDSOR", "addr:country": "US", "addr:postcode": "08520", "addr:state": "NJ", "addr:street_address": "955 JAMESTOWN RD", "amenity": "post_box", "collection_times": "Mo-Sa 11:00", "nsi_id": "unitedstatespostalservice-a77078", "operator": "United States Postal Service", "operator:short": "USPS", "operator:type": "public", "operator:wikidata": "Q668687", "ref": "0852000015"}, "type": "Feature"}
{"geometry": {"coordinates": [-74.4850876, 40.2626], "type": "Point"}, "id": "s0t6oor_X12GDoJNABMOSWooq6c=", "properties": {"@source_uri": "https://tools.usps.com/UspsToolsRestServices/rest/POLocator/findLocations", "@spider": "usps_collection_boxes", "addr:city": "EAST WINDSOR", "addr:country": "US", "addr:postcode": "08520", "addr:state": "NJ", "addr:street_address": "446 KELLINGTON DR", "amenity": "post_box", "collection_times": "Mo-Sa 11:00", "nsi_id": "unitedstatespostalservice-a77078", "operator": "United States Postal Service", "operator:short": "USPS", "operator:type": "public", "operator:wikidata": "Q668687", "ref": "0852000016"}, "type": "Feature"}
{"geometry": {"coordinates": [-74.4945209, 40.263817], "type": "Point"}, "id": "gSEi7rdjktURf6lGJkO5DSxteLA=", "properties": {"@source_uri": "https://tools.usps.com/UspsToolsRestServices/rest/POLocator/findLocations", "@spider": "usps_collection_boxes", "addr:city": "EAST WINDSOR", "addr:country": "US", "addr:postcode": "08520", "addr:state": "NJ", "addr:street_address": "2 COVINGTON DR", "amenity": "post_box", "collection_times": "Mo-Sa 11:00", "nsi_id": "unitedstatespostalservice-a77078", "operator": "United States Postal Service", "operator:short": "USPS", "operator:type": "public", "operator:wikidata": "Q668687", "ref": "0852000017"}, "type": "Feature"}
{"geometry": {"coordinates": [-74.4891574, 40.265639], "type": "Point"}, "id": "Cknjy4PjJdj0TK-X059czpvqye4=", "properties": {"@source_uri": "https://tools.usps.com/UspsToolsRestServices/rest/POLocator/findLocations", "@spider": "usps_collection_boxes", "addr:city": "EAST WINDSOR", "addr:country": "US", "addr:postcode": "08520", "addr:state": "NJ", "addr:street_address": "659 ABBINGTON DR", "amenity": "post_box", "collection_times": "Mo-Sa 11:00", "nsi_id": "unitedstatespostalservice-a77078", "operator": "United States Postal Service", "operator:short": "USPS", "operator:type": "public", "operator:wikidata": "Q668687", "ref": "0852000020"}, "type": "Feature"}
{"geometry": {"coordinates": [-74.5182899, 40.258065], "type": "Point"}, "id": "5Kfoqyfr32-d6Vu8FagM5q6rc44=", "properties": {"@source_uri": "https://tools.usps.com/UspsToolsRestServices/rest/POLocator/findLocations", "@spider": "usps_collection_boxes", "addr:city": "EAST WINDSOR", "addr:country": "US", "addr:postcode": "08520", "addr:state": "NJ", "addr:street_address": "1 MEADOW LKS", "amenity": "post_box", "collection_times": "Mo-Sa 11:00", "nsi_id": "unitedstatespostalservice-a77078", "operator": "United States Postal Service", "operator:short": "USPS", "operator:type": "public", "operator:wikidata": "Q668687", "ref": "0852000021"}, "type": "Feature"}
{"geometry": {"coordinates": [-74.5257140391, 40.2684699932], "type": "Point"}, "id": "KjuUuYdfDEKdHwioxVeFVQxwKoo=", "properties": {"@source_uri": "https://tools.usps.com/UspsToolsRestServices/rest/POLocator/findLocations", "@spider": "usps_collection_boxes", "addr:city": "EAST WINDSOR", "addr:country": "US", "addr:postcode": "08520", "addr:state": "NJ", "addr:street_address": "150 MERCER ST", "amenity": "post_box", "collection_times": "Mo-Fr 17:00; Sa 15:45", "note": "ON 12/24 AND 12/31, THIS BOX MAY BE COLLECTED AS EARLY AS 12 NOON.", "nsi_id": "unitedstatespostalservice-a77078", "operator": "United States Postal Service", "operator:short": "USPS", "operator:type": "public", "operator:wikidata": "Q668687", "ref": "0852000027"}, "type": "Feature"}
{"geometry": {"coordinates": [-74.5298354, 40.278928], "type": "Point"}, "id": "zY6QFQI3OzdB8xwbxYThYy3a6HY=", "properties": {"@source_uri": "https://tools.usps.com/UspsToolsRestServices/rest/POLocator/findLocations", "@spider": "usps_collection_boxes", "addr:city": "EAST WINDSOR", "addr:country": "US", "addr:postcode": "08520", "addr:state": "NJ", "addr:street_address": "319 US HIGHWAY 130", "amenity": "post_box", "collection_times": "Mo-Sa 11:30", "nsi_id": "unitedstatespostalservice-a77078", "operator": "United States Postal Service", "operator:short": "USPS", "operator:type": "public", "operator:wikidata": "Q668687", "ref": "0852000037"}, "type": "Feature"}
{"geometry": {"coordinates": [-74.4941505, 40.270544], "type": "Point"}, "id": "EQff701tEPSyPHUQdSXKPoX68fM=", "properties": {"@source_uri": "https://tools.usps.com/UspsToolsRestServices/rest/POLocator/findLocations", "@spider": "usps_collection_boxes", "addr:city": "EAST WINDSOR", "addr:country": "US", "addr:postcode": "08520", "addr:state": "NJ", "addr:street_address": "451 PROBASCO RD", "amenity": "post_box", "collection_times": "Mo-Sa 11:15", "nsi_id": "unitedstatespostalservice-a77078", "operator": "United States Postal Service", "operator:short": "USPS", "operator:type": "public", "operator:wikidata": "Q668687", "ref": "0852000039"}, "type": "Feature"}
{"geometry": {"coordinates": [-74.525802, 40.267986], "type": "Point"}, "id": "iuDGizpUQN4jKez1yIOniW-C-9M=", "properties": {"@source_uri": "https://tools.usps.com/UspsToolsRestServices/rest/POLocator/findLocations", "@spider": "usps_collection_boxes", "addr:city": "EAST WINDSOR", "addr:country": "US", "addr:postcode": "08520", "addr:state": "NJ", "addr:street_address": "150 MERCER ST", "amenity": "post_box", "collection_times": "Mo-Fr 17:00; Sa 15:45", "indoor": "yes", "note": "ON 12/24 AND 12/31, THIS BOX MAY BE COLLECTED AS EARLY AS 12 NOON.", "nsi_id": "unitedstatespostalservice-a77078", "operator": "United States Postal Service", "operator:short": "USPS", "operator:type": "public", "operator:wikidata": "Q668687", "ref": "0852000040"}, "type": "Feature"}
{"geometry": {"coordinates": [-74.525802834, 40.267979127], "type": "Point"}, "id": "h-EBTQP9qN7QXZwMAOVvNDpOzts=", "properties": {"@source_uri": "https://tools.usps.com/UspsToolsRestServices/rest/POLocator/findLocations", "@spider": "usps_collection_boxes", "addr:city": "EAST WINDSOR", "addr:country": "US", "addr:postcode": "08520", "addr:state": "NJ", "addr:street_address": "150 MERCER ST", "amenity": "post_box", "collection_times": "Mo-Fr 17:45; Sa 16:00", "indoor": "yes", "note": "ON 12/24 AND 12/31, THIS BOX MAY BE COLLECTED AS EARLY AS 12 NOON.", "nsi_id": "unitedstatespostalservice-a77078", "operator": "United States Postal Service", "operator:short": "USPS", "operator:type": "public", "operator:wikidata": "Q668687", "ref": "0852000047"}, "type": "Feature"}
{"geometry": {"coordinates": [-74.5257140391, 40.2684699932], "type": "Point"}, "id": "zua6YrALpj36VoiA7_iQeOz-B90=", "properties": {"@source_uri": "https://tools.usps.com/UspsToolsRestServices/rest/POLocator/findLocations", "@spider": "usps_collection_boxes", "addr:city": "EAST WINDSOR", "addr:country": "US", "addr:postcode": "08520", "addr:state": "NJ", "addr:street_address": "150 MERCER ST", "amenity": "post_box", "collection_times": "Mo-Fr 17:00; Sa 15:45", "name": "USPS COLLECTION BOX - APC", "note": "ON 12/24 AND 12/31, THIS BOX MAY BE COLLECTED AS EARLY AS 12 NOON.", "nsi_id": "unitedstatespostalservice-a77078", "operator": "United States Postal Service", "operator:short": "USPS", "operator:type": "public", "operator:wikidata": "Q668687", "ref": "0852000051"}, "type": "Feature"}
{"geometry": {"coordinates": [-74.7614169836, 40.3884122803], "type": "Point"}, "id": "m1TWHgFG_D7TzBtOY0-PMCGQpmY=", "properties": {"@source_uri": "https://tools.usps.com/UspsToolsRestServices/rest/POLocator/findLocations", "@spider": "usps_collection_boxes", "addr:city": "HOPEWELL", "addr:country": "US", "addr:postcode": "08525", "addr:state": "NJ", "addr:street_address": "9 S GREENWOOD AVE", "amenity": "post_box", "collection_times": "Mo-Fr 16:15; Sa 11:45", "note": "ON 12/24 AND 12/31, THIS BOX MAY BE COLLECTED AS EARLY AS 12 NOON.", "nsi_id": "unitedstatespostalservice-a77078", "operator": "United States Postal Service", "operator:short": "USPS", "operator:type": "public", "operator:wikidata": "Q668687", "ref": "0852500001"}, "type": "Feature"}
{"geometry": {"coordinates": [-74.7649008, 40.387511], "type": "Point"}, "id": "zpFknatidpDG8Y97V67Gy6SsDuk=", "properties": {"@source_uri": "https://tools.usps.com/UspsToolsRestServices/rest/POLocator/findLocations", "@spider": "usps_collection_boxes", "addr:city": "HOPEWELL", "addr:country": "US", "addr:postcode": "08525", "addr:state": "NJ", "addr:street_address": "57 W BROAD ST", "amenity": "post_box", "collection_times": "Mo-Sa 11:00", "nsi_id": "unitedstatespostalservice-a77078", "operator": "United States Postal Service", "operator:short": "USPS", "operator:type": "public", "operator:wikidata": "Q668687", "ref": "0852500003"}, "type": "Feature"}
{"geometry": {"coordinates": [-74.7673511, 40.386079], "type": "Point"}, "id": "iywuItKJwr-YolGm0w03GTaFeYs=", "properties": {"@source_uri": "https://tools.usps.com/UspsToolsRestServices/rest/POLocator/findLocations", "@spider": "usps_collection_boxes", "addr:city": "HOPEWELL", "addr:country": "US", "addr:postcode": "08525", "addr:state": "NJ", "addr:street_address": "93 W BROAD ST", "amenity": "post_box", "collection_times": "Mo-Sa 11:00", "nsi_id": "unitedstatespostalservice-a77078", "operator": "United States Postal Service", "operator:short": "USPS", "operator:type": "public", "operator:wikidata": "Q668687", "ref": "0852500004"}, "type": "Feature"}
{"geometry": {"coordinates": [-74.7666916, 40.388881], "type": "Point"}, "id": "uXSIjVBEwdNmyMao1IXv_N95nK0=", "properties": {"@source_uri": "https://tools.usps.com/UspsToolsRestServices/rest/POLocator/findLocations", "@spider": "usps_collection_boxes", "addr:city": "HOPEWELL", "addr:country": "US", "addr:postcode": "08525", "addr:state": "NJ", "addr:street_address": "51 MODEL AVE", "amenity": "post_box", "collection_times": "Mo-Sa 11:00", "nsi_id": "unitedstatespostalservice-a77078", "operator": "United States Postal Service", "operator:short": "USPS", "operator:type": "public", "operator:wikidata": "Q668687", "ref": "0852500006"}, "type": "Feature"}
{"geometry": {"coordinates": [-74.7561984, 40.390852], "type": "Point"}, "id": "IE5qHSwSQThEaMfp6d-Qlv3Hb6g=", "properties": {"@source_uri": "https://tools.usps.com/UspsToolsRestServices/rest/POLocator/findLocations", "@spider": "usps_collection_boxes", "addr:city": "HOPEWELL", "addr:country": "US", "addr:postcode": "08525", "addr:state": "NJ", "addr:street_address": "52 E BROAD ST", "amenity": "post_box", "collection_times": "Mo-Sa 11:00", "nsi_id": "unitedstatespostalservice-a77078", "operator": "United States Postal Service", "operator:short": "USPS", "operator:type": "public", "operator:wikidata": "Q668687", "ref": "0852500009"}, "type": "Feature"}
{"geometry": {"coordinates": [-74.7603584, 40.389776], "type": "Point"}, "id": "qwVNzO9BOAp-02XHIGIHCDbGGGE=", "properties": {"@source_uri": "https://tools.usps.com/UspsToolsRestServices/rest/POLocator/findLocations", "@spider": "usps_collection_boxes", "addr:city": "HOPEWELL", "addr:country": "US", "addr:postcode": "08525", "addr:state": "NJ", "addr:street_address": "21 E BROAD ST", "amenity": "post_box", "collection_times": "Mo-Sa 11:00", "nsi_id": "unitedstatespostalservice-a77078", "operator": "United States Postal Service", "operator:short": "USPS", "operator:type": "public", "operator:wikidata": "Q668687", "ref": "0852500012"}, "type": "Feature"}
{"geometry": {"coordinates": [-74.761347, 40.3883], "type": "Point"}, "id": "-RlWOrkG7-Q7FCGOS8cgXLM16j0=", "properties": {"@source_uri": "https://tools.usps.com/UspsToolsRestServices/rest/POLocator/findLocations", "@spider": "usps_collection_boxes", "addr:city": "HOPEWELL", "addr:country": "US", "addr:postcode": "08525", "addr:state": "NJ", "addr:street_address": "9 S GREENWOOD AVE", "amenity": "post_box", "collection_times": "Mo-Fr 16:15; Sa 11:45", "indoor": "yes", "note": "ON 12/24 AND 12/31, THIS BOX MAY BE COLLECTED AS EARLY AS 12 NOON.", "nsi_id": "unitedstatespostalservice-a77078", "operator": "United States Postal Service", "operator:short": "USPS", "operator:type": "public", "operator:wikidata": "Q668687", "ref": "0852500013"}, "type": "Feature"}
{"geometry": {"coordinates": [-74.761348766, 40.388292776], "type": "Point"}, "id": "lkp8h_LmeATtZBCFTAP4cTdKr6s=", "properties": {"@source_uri": "https://tools.usps.com/UspsToolsRestServices/rest/POLocator/findLocations", "@spider": "usps_collection_boxes", "addr:city": "HOPEWELL", "addr:country": "US", "addr:postcode": "08525", "addr:state": "NJ", "addr:street_address": "9 S GREENWOOD AVE", "amenity": "post_box", "collection_times": "Mo-Fr 16:30; Sa 12:00", "indoor": "yes", "note": "ON 12/24 AND 12/31, THIS BOX MAY BE COLLECTED AS EARLY AS 12 NOON.", "nsi_id": "unitedstatespostalservice-a77078", "operator": "United States Postal Service", "operator:short": "USPS", "operator:type": "public", "operator:wikidata": "Q668687", "ref": "0852500016"}, "type": "Feature"}
{"geometry": {"coordinates": [-74.5146106, 40.165615], "type": "Point"}, "id": "qE-HkAmynqsQYXpXsxQ19jSTEig=", "properties": {"@source_uri": "https://tools.usps.com/UspsToolsRestServices/rest/POLocator/findLocations", "@spider": "usps_collection_boxes", "addr:city": "IMLAYSTOWN", "addr:country": "US", "addr:postcode": "08526", "addr:state": "NJ", "addr:street_address": "41 MAIN ST", "amenity": "post_box", "collection_times": "Mo-Sa 11:00", "nsi_id": "unitedstatespostalservice-a77078", "operator": "United States Postal Service", "operator:short": "USPS", "operator:type": "public", "operator:wikidata": "Q668687", "ref": "0852600001"}, "type": "Feature"}
{"geometry": {"coordinates": [-74.2741311, 40.129872], "type": "Point"}, "id": "7RlSIkm1a8aGAFsbc7W_psWQrN0=", "properties": {"@source_uri": "https://tools.usps.com/UspsToolsRestServices/rest/POLocator/findLocations", "@spider": "usps_collection_boxes", "addr:city": "JACKSON", "addr:country": "US", "addr:postcode": "08527", "addr:state": "NJ", "addr:street_address": "915 BENNETTS MILLS RD", "amenity": "post_box", "collection_times": "Mo-Fr 17:00; Sa 15:00", "note": "ON 12/24 AND 12/31, THIS BOX MAY BE COLLECTED AS EARLY AS 12 NOON.", "nsi_id": "unitedstatespostalservice-a77078", "operator": "United States Postal Service", "operator:short": "USPS", "operator:type": "public", "operator:wikidata": "Q668687", "ref": "0852700002"}, "type": "Feature"}
{"geometry": {"coordinates": [-74.2620399, 40.143494], "type": "Point"}, "id": "1JtiGsUfJ1BeFmua2DinOmU1__k=", "properties": {"@source_uri": "https://tools.usps.com/UspsToolsRestServices/rest/POLocator/findLocations", "@spider": "usps_collection_boxes", "addr:city": "JACKSON", "addr:country": "US", "addr:postcode": "08527", "addr:state": "NJ", "addr:street_address": "1 E CONNECTICUT CONCOURSE", "amenity": "post_box", "collection_times": "Mo-Sa 11:00", "nsi_id": "unitedstatespostalservice-a77078", "operator": "United States Postal Service", "operator:short": "USPS", "operator:type": "public", "operator:wikidata": "Q668687", "ref": "0852700005"}, "type": "Feature"}
{"geometry": {"coordinates": [-74.284875319, 40.120272983], "type": "Point"}, "id": "xpHApdv6NyxdKbHxSoEA3f5Q-68=", "properties": {"@source_uri": "https://tools.usps.com/UspsToolsRestServices/rest/POLocator/findLocations", "@spider": "usps_collection_boxes", "addr:city": "JACKSON", "addr:country": "US", "addr:postcode": "08527", "addr:state": "NJ", "addr:street_address": "903 VIOLET LN", "amenity": "post_box", "collection_times": "Mo-Sa 11:00", "nsi_id": "unitedstatespostalservice-a77078", "operator": "United States Postal Service", "operator:short": "USPS", "operator:type": "public", "operator:wikidata": "Q668687", "ref": "0852700006"}, "type": "Feature"}
{"geometry": {"coordinates": [-74.2692973, 40.143241], "type": "Point"}, "id": "b379WJZ9LBc4QPelkhRC--GgE1o=", "properties": {"@source_uri": "https://tools.usps.com/UspsToolsRestServices/rest/POLocator/findLocations", "@spider": "usps_collection_boxes", "addr:city": "JACKSON", "addr:country": "US", "addr:postcode": "08527", "addr:state": "NJ", "addr:street_address": "2 HARFIELD DR", "amenity": "post_box", "collection_times": "Mo-Sa 11:00", "nsi_id": "unitedstatespostalservice-a77078", "operator": "United States Postal Service", "operator:short": "USPS", "operator:type": "public", "operator:wikidata": "Q668687", "ref": "0852700007"}, "type": "Feature"}
{"geometry": {"coordinates": [-74.3514455, 40.111638], "type": "Point"}, "id": "Beknb6oiRU8a70lbz4_D8nBP2tg=", "properties": {"@source_uri": "https://tools.usps.com/UspsToolsRestServices/rest/POLocator/findLocations", "@spider": "usps_collection_boxes", "addr:city": "JACKSON", "addr:country": "US", "addr:postcode": "08527", "addr:state": "NJ", "addr:street_address": "95 W VETERANS HWY", "amenity": "post_box", "collection_times": "Mo-Sa 11:00", "nsi_id": "unitedstatespostalservice-a77078", "operator": "United States Postal Service", "operator:short": "USPS", "operator:type": "public", "operator:wikidata": "Q668687", "ref": "0852700012"}, "type": "Feature"}
{"geometry": {"coordinates": [-74.3114536, 40.097682], "type": "Point"}, "id": "Bf6vtqJgDPaqWXPlCf4WdNnOIhA=", "properties": {"@source_uri": "https://tools.usps.com/UspsToolsRestServices/rest/POLocator/findLocations", "@spider": "usps_collection_boxes", "addr:city": "JACKSON", "addr:country": "US", "addr:postcode": "08527", "addr:state": "NJ", "addr:street_address": "1 SOUTH ST", "amenity": "post_box", "collection_times": "Mo-Sa 11:00", "nsi_id": "unitedstatespostalservice-a77078", "operator": "United States Postal Service", "operator:short": "USPS", "operator:type": "public", "operator:wikidata": "Q668687", "ref": "0852700014"}, "type": "Feature"}
{"geometry": {"coordinates": [-74.2541294, 40.118205], "type": "Point"}, "id": "sBcGMfvnSpie56oJIBO2o3mZKoE=", "properties": {"@source_uri": "https://tools.usps.com/UspsToolsRestServices/rest/POLocator/findLocations", "@spider": "usps_collection_boxes", "addr:city": "JACKSON", "addr:country": "US", "addr:postcode": "08527", "addr:state": "NJ", "addr:street_address": "400 S NEW PROSPECT RD", "amenity": "post_box", "collection_times": "Mo-Sa 11:00", "nsi_id": "unitedstatespostalservice-a77078", "operator": "United States Postal Service", "operator:short": "USPS", "operator:type": "public", "operator:wikidata": "Q668687", "ref": "0852700016"}, "type": "Feature"}
{"geometry": {"coordinates": [-74.2720823, 40.068844], "type": "Point"}, "id": "ZPJ89jJ0m88kNi6UQ7iMw3SuRSk=", "properties": {"@source_uri": "https://tools.usps.com/UspsToolsRestServices/rest/POLocator/findLocations", "@spider": "usps_collection_boxes", "addr:city": "JACKSON", "addr:country": "US", "addr:postcode": "08527", "addr:state": "NJ", "addr:street_address": "305 WHITESVILLE RD", "amenity": "post_box", "collection_times": "Mo-Sa 10:00", "nsi_id": "unitedstatespostalservice-a77078", "operator": "United States Postal Service", "operator:short": "USPS", "operator:type": "public", "operator:wikidata": "Q668687", "ref": "0852700017"}, "type": "Feature"}
{"geometry": {"coordinates": [-74.3583069, 40.067379], "type": "Point"}, "id": "0n6bV7LBndGXr35mi-NkMQ-WOBg=", "properties": {"@source_uri": "https://tools.usps.com/UspsToolsRestServices/rest/POLocator/findLocations", "@spider": "usps_collection_boxes", "addr:city": "JACKSON", "addr:country": "US", "addr:postcode": "08527", "addr:state": "NJ", "addr:street_address": "2 LISA LN S", "amenity": "post_box", "collection_times": "Mo-Sa 11:00", "nsi_id": "unitedstatespostalservice-a77078", "operator": "United States Postal Service", "operator:short": "USPS", "operator:type": "public", "operator:wikidata": "Q668687", "ref": "0852700020"}, "type": "Feature"}
{"geometry": {"coordinates": [-74.2543899, 40.1246], "type": "Point"}, "id": "9POjRivzT6APKuyzLDrCIdaBXtI=", "properties": {"@source_uri": "https://tools.usps.com/UspsToolsRestServices/rest/POLocator/findLocations", "@spider": "usps_collection_boxes", "addr:city": "JACKSON", "addr:country": "US", "addr:postcode": "08527", "addr:state": "NJ", "addr:street_address": "330 S NEW PROSPECT RD", "amenity": "post_box", "collection_times": "Mo-Sa 11:00", "nsi_id": "unitedstatespostalservice-a77078", "operator": "United States Postal Service", "operator:short": "USPS", "operator:type": "public", "operator:wikidata": "Q668687", "ref": "0852700021"}, "type": "Feature"}
{"geometry": {"coordinates": [-74.2933652, 40.139034], "type": "Point"}, "id": "zWwci3D2dZHikMio7A-EWExZ8Gk=", "properties": {"@source_uri": "https://tools.usps.com/UspsToolsRestServices/rest/POLocator/findLocations", "@spider": "usps_collection_boxes", "addr:city": "JACKSON", "addr:country": "US", "addr:postcode": "08527", "addr:state": "NJ", "addr:street_address": "260 N COUNTYLINE RD", "amenity": "post_box", "collection_times": "Mo-Sa 11:00", "nsi_id": "unitedstatespostalservice-a77078", "operator": "United States Postal Service", "operator:short": "USPS", "operator:type": "public", "operator:wikidata": "Q668687", "ref": "0852700024"}, "type": "Feature"}
{"geometry": {"coordinates": [-74.2741386, 40.129923], "type": "Point"}, "id": "ebx1uTlUeQiq1yynAjLdKz4s7l8=", "properties": {"@source_uri": "https://tools.usps.com/UspsToolsRestServices/rest/POLocator/findLocations", "@spider": "usps_collection_boxes", "addr:city": "JACKSON", "addr:country": "US", "addr:postcode": "08527", "addr:state": "NJ", "addr:street_address": "915 BENNETTS MILLS RD", "amenity": "post_box", "collection_times": "Mo-Fr 17:00; Sa 15:00", "name": "USPS COLLECTION BOX - APC", "note": "ON 12/24 AND 12/31, THIS BOX MAY BE COLLECTED AS EARLY AS 12 NOON.", "nsi_id": "unitedstatespostalservice-a77078", "operator": "United States Postal Service", "operator:short": "USPS", "operator:type": "public", "operator:wikidata": "Q668687", "ref": "0852700025"}, "type": "Feature"}
{"geometry": {"coordinates": [-74.2739662, 40.129781], "type": "Point"}, "id": "3ZinRsOaU4K79_XZ6rXrCfBVow8=", "properties": {"@source_uri": "https://tools.usps.com/UspsToolsRestServices/rest/POLocator/findLocations", "@spider": "usps_collection_boxes", "addr:city": "JACKSON", "addr:country": "US", "addr:postcode": "08527", "addr:state": "NJ", "addr:street_address": "915 BENNETTS MILLS RD", "amenity": "post_box", "collection_times": "Mo-Fr 17:00; Sa 15:00", "indoor": "yes", "note": "ON 12/24 AND 12/31, THIS BOX MAY BE COLLECTED AS EARLY AS 12 NOON.", "nsi_id": "unitedstatespostalservice-a77078", "operator": "United States Postal Service", "operator:short": "USPS", "operator:type": "public", "operator:wikidata": "Q668687", "ref": "0852700026"}, "type": "Feature"}
{"geometry": {"coordinates": [-74.274311466, 40.129873556], "type": "Point"}, "id": "sFjbeGE9beiZj3PX2QzPRqXKQaM=", "properties": {"@source_uri": "https://tools.usps.com/UspsToolsRestServices/rest/POLocator/findLocations", "@spider": "usps_collection_boxes", "addr:city": "JACKSON", "addr:country": "US", "addr:postcode": "08527", "addr:state": "NJ", "addr:street_address": "915 BENNETTS MILLS RD", "amenity": "post_box", "collection_times": "Mo-Fr 16:30; Sa 12:00", "indoor": "yes", "note": "ON 12/24 AND 12/31, THIS BOX MAY BE COLLECTED AS EARLY AS 12 NOON.", "nsi_id": "unitedstatespostalservice-a77078", "operator": "United States Postal Service", "operator:short": "USPS", "operator:type": "public", "operator:wikidata": "Q668687", "ref": "0852700033"}, "type": "Feature"}
{"geometry": {"coordinates": [-74.615171, 40.375071], "type": "Point"}, "id": "kUP5527ww6JwGsyXCoft8Xpss34=", "properties": {"@source_uri": "https://tools.usps.com/UspsToolsRestServices/rest/POLocator/findLocations", "@spider": "usps_collection_boxes", "addr:city": "KINGSTON", "addr:country": "US", "addr:postcode": "08528", "addr:state": "NJ", "addr:street_address": "4599 STATE ROUTE 27", "amenity": "post_box", "collection_times": "Mo-Fr 16:45; Sa 12:30", "note": "ON 12/24 AND 12/31, THIS BOX MAY BE COLLECTED AS EARLY AS 12 NOON.", "nsi_id": "unitedstatespostalservice-a77078", "operator": "United States Postal Service", "operator:short": "USPS", "operator:type": "public", "operator:wikidata": "Q668687", "ref": "0852800001"}, "type": "Feature"}
{"geometry": {"coordinates": [-74.615129, 40.375087], "type": "Point"}, "id": "y7HGpSVu714YJ4FN_TnSr5e6CY4=", "properties": {"@source_uri": "https://tools.usps.com/UspsToolsRestServices/rest/POLocator/findLocations", "@spider": "usps_collection_boxes", "addr:city": "KINGSTON", "addr:country": "US", "addr:postcode": "08528", "addr:state": "NJ", "addr:street_address": "4599 STATE ROUTE 27", "amenity": "post_box", "collection_times": "Mo-Fr 16:45; Sa 12:30", "indoor": "yes", "note": "ON 12/24 AND 12/31, THIS BOX MAY BE COLLECTED AS EARLY AS 12 NOON.", "nsi_id": "unitedstatespostalservice-a77078", "operator": "United States Postal Service", "operator:short": "USPS", "operator:type": "public", "operator:wikidata": "Q668687", "ref": "0852800002"}, "type": "Feature"}
{"geometry": {"coordinates": [-74.615132178, 40.375080732], "type": "Point"}, "id": "ukc3VR54sJsoTJKQp00rmFEIEME=", "properties": {"@source_uri": "https://tools.usps.com/UspsToolsRestServices/rest/POLocator/findLocations", "@spider": "usps_collection_boxes", "addr:city": "KINGSTON", "addr:country": "US", "addr:postcode": "08528", "addr:state": "NJ", "addr:street_address": "4599 ROUTE 27", "amenity": "post_box", "collection_times": "Mo-Fr 16:30; Sa 12:00", "indoor": "yes", "note": "ON 12/24 AND 12/31, THIS BOX MAY BE COLLECTED AS EARLY AS 12 NOON.", "nsi_id": "unitedstatespostalservice-a77078", "operator": "United States Postal Service", "operator:short": "USPS", "operator:type": "public", "operator:wikidata": "Q668687", "ref": "0852800005"}, "type": "Feature"}
{"geometry": {"coordinates": [-74.946016, 40.368183], "type": "Point"}, "id": "W5QXgSHfsNIH6MJCp-5la_jYpYQ=", "properties": {"@source_uri": "https://tools.usps.com/UspsToolsRestServices/rest/POLocator/findLocations", "@spider": "usps_collection_boxes", "addr:city": "LAMBERTVILLE", "addr:country": "US", "addr:postcode": "08530", "addr:state": "NJ", "addr:street_address": "10 YORK ST", "amenity": "post_box", "collection_times": "Mo-Fr 16:35; Sa 11:45", "note": "ON 12/24 AND 12/31, THIS BOX MAY BE COLLECTED AS EARLY AS 12 NOON.", "nsi_id": "unitedstatespostalservice-a77078", "operator": "United States Postal Service", "operator:short": "USPS", "operator:type": "public", "operator:wikidata": "Q668687", "ref": "0853000002"}, "type": "Feature"}
{"geometry": {"coordinates": [-74.9450840405, 40.3661000125], "type": "Point"}, "id": "VrnmCQG09nUw1AdCabnHkxRjFNo=", "properties": {"@source_uri": "https://tools.usps.com/UspsToolsRestServices/rest/POLocator/findLocations", "@spider": "usps_collection_boxes", "addr:city": "LAMBERTVILLE", "addr:country": "US", "addr:postcode": "08530", "addr:state": "NJ", "addr:street_address": "9 N UNION ST", "amenity": "post_box", "collection_times": "Mo-Sa 13:00", "note": "ON 12/24 AND 12/31, THIS BOX MAY BE COLLECTED AS EARLY AS 12 NOON.", "nsi_id": "unitedstatespostalservice-a77078", "operator": "United States Postal Service", "operator:short": "USPS", "operator:type": "public", "operator:wikidata": "Q668687", "ref": "0853000004"}, "type": "Feature"}
{"geometry": {"coordinates": [-74.9453039, 40.365558], "type": "Point"}, "id": "idKo5WDkD4b00nGUIN5U1ASVr7c=", "properties": {"@source_uri": "https://tools.usps.com/UspsToolsRestServices/rest/POLocator/findLocations", "@spider": "usps_collection_boxes", "addr:city": "LAMBERTVILLE", "addr:country": "US", "addr:postcode": "08530", "addr:state": "NJ", "addr:street_address": "29 BRIDGE ST", "amenity": "post_box", "collection_times": "Mo-Sa 13:15", "note": "ON 12/24 AND 12/31, THIS BOX MAY BE COLLECTED AS EARLY AS 12 NOON.", "nsi_id": "unitedstatespostalservice-a77078", "operator": "United States Postal Service", "operator:short": "USPS", "operator:type": "public", "operator:wikidata": "Q668687", "ref": "0853000005"}, "type": "Feature"}
{"geometry": {"coordinates": [-74.9471404, 40.376412], "type": "Point"}, "id": "8-huu3d13Keq6ep0qkeGlna-7yY=", "properties": {"@source_uri": "https://tools.usps.com/UspsToolsRestServices/rest/POLocator/findLocations", "@spider": "usps_collection_boxes", "addr:city": "LAMBERTVILLE", "addr:country": "US", "addr:postcode": "08530", "addr:state": "NJ", "addr:street_address": "1 CHERRY ST", "amenity": "post_box", "collection_times": "Mo-Sa 11:00", "nsi_id": "unitedstatespostalservice-a77078", "operator": "United States Postal Service", "operator:short": "USPS", "operator:type": "public", "operator:wikidata": "Q668687", "ref": "0853000007"}, "type": "Feature"}
{"geometry": {"coordinates": [-74.9436408, 40.368555], "type": "Point"}, "id": "inODZcw7UyRKV7Z7FtKsh_SV7mk=", "properties": {"@source_uri": "https://tools.usps.com/UspsToolsRestServices/rest/POLocator/findLocations", "@spider": "usps_collection_boxes", "addr:city": "LAMBERTVILLE", "addr:country": "US", "addr:postcode": "08530", "addr:state": "NJ", "addr:street_address": "71 N MAIN ST", "amenity": "post_box", "collection_times": "Mo-Sa 09:30", "nsi_id": "unitedstatespostalservice-a77078", "operator": "United States Postal Service", "operator:short": "USPS", "operator:type": "public", "operator:wikidata": "Q668687", "ref": "0853000009"}, "type": "Feature"}
{"geometry": {"coordinates": [-74.9462470296, 40.3683590192], "type": "Point"}, "id": "zed_Z4qDklOaYqmlW5skMiQeq3E=", "properties": {"@source_uri": "https://tools.usps.com/UspsToolsRestServices/rest/POLocator/findLocations", "@spider": "usps_collection_boxes", "addr:city": "LAMBERTVILLE", "addr:country": "US", "addr:postcode": "08530", "addr:state": "NJ", "addr:street_address": "10 YORK ST", "amenity": "post_box", "collection_times": "Mo-Fr 16:35; Sa 11:45", "indoor": "yes", "note": "ON 12/24 AND 12/31, THIS BOX MAY BE COLLECTED AS EARLY AS 12 NOON.", "nsi_id": "unitedstatespostalservice-a77078", "operator": "United States Postal Service", "operator:short": "USPS", "operator:type": "public", "operator:wikidata": "Q668687", "ref": "0853000011"}, "type": "Feature"}
{"geometry": {"coordinates": [-74.9462470296, 40.3683590192], "type": "Point"}, "id": "QD1YYlfKk7imFA1WJMPQLDzeiIQ=", "properties": {"@source_uri": "https://tools.usps.com/UspsToolsRestServices/rest/POLocator/findLocations", "@spider": "usps_collection_boxes", "addr:city": "LAMBERTVILLE", "addr:country": "US", "addr:postcode": "08530", "addr:state": "NJ", "addr:street_address": "10 YORK ST", "amenity": "post_box", "collection_times": "Mo-Fr 17:00; Sa 12:00", "indoor": "yes", "note": "ON 12/24 AND 12/31, THIS BOX MAY BE COLLECTED AS EARLY AS 12 NOON.", "nsi_id": "unitedstatespostalservice-a77078", "operator": "United States Postal Service", "operator:short": "USPS", "operator:type": "public", "operator:wikidata": "Q668687", "ref": "0853000015"}, "type": "Feature"}
{"geometry": {"coordinates": [-74.5284845, 40.068752], "type": "Point"}, "id": "MyUZhkG0uxjjJfRVvmlBKJwEY8w=", "properties": {"@source_uri": "https://tools.usps.com/UspsToolsRestServices/rest/POLocator/findLocations", "@spider": "usps_collection_boxes", "addr:city": "NEW EGYPT", "addr:country": "US", "addr:postcode": "08533", "addr:state": "NJ", "addr:street_address": "22 N MAIN ST", "amenity": "post_box", "collection_times": "Mo-Fr 16:45; Sa 16:00", "note": "ON 12/24 AND 12/31, THIS BOX MAY BE COLLECTED AS EARLY AS 12 NOON.", "nsi_id": "unitedstatespostalservice-a77078", "operator": "United States Postal Service", "operator:short": "USPS", "operator:type": "public", "operator:wikidata": "Q668687", "ref": "0853300002"}, "type": "Feature"}
{"geometry": {"coordinates": [-74.5406799, 40.063814], "type": "Point"}, "id": "Vzj0AGtGD_EZxmjTU7n9IHitH_M=", "properties": {"@source_uri": "https://tools.usps.com/UspsToolsRestServices/rest/POLocator/findLocations", "@spider": "usps_collection_boxes", "addr:city": "NEW EGYPT", "addr:country": "US", "addr:postcode": "08533", "addr:state": "NJ", "addr:street_address": "78 MAPLE AVE", "amenity": "post_box", "collection_times": "Mo-Sa 11:00", "nsi_id": "unitedstatespostalservice-a77078", "operator": "United States Postal Service", "operator:short": "USPS", "operator:type": "public", "operator:wikidata": "Q668687", "ref": "0853300003"}, "type": "Feature"}
{"geometry": {"coordinates": [-74.528552, 40.068778], "type": "Point"}, "id": "9td-ilHX_glz2jkgB0U7OlT89VY=", "properties": {"@source_uri": "https://tools.usps.com/UspsToolsRestServices/rest/POLocator/findLocations", "@spider": "usps_collection_boxes", "addr:city": "NEW EGYPT", "addr:country": "US", "addr:postcode": "08533", "addr:state": "NJ", "addr:street_address": "22 N MAIN ST", "amenity": "post_box", "collection_times": "Mo-Fr 16:45; Sa 16:00", "indoor": "yes", "note": "ON 12/24 AND 12/31, THIS BOX MAY BE COLLECTED AS EARLY AS 12 NOON.", "nsi_id": "unitedstatespostalservice-a77078", "operator": "United States Postal Service", "operator:short": "USPS", "operator:type": "public", "operator:wikidata": "Q668687", "ref": "0853300007"}, "type": "Feature"}
{"geometry": {"coordinates": [-74.52847429, 40.068704263], "type": "Point"}, "id": "Zmv63QRl43aTAqwEKgFu86MUTeI=", "properties": {"@source_uri": "https://tools.usps.com/UspsToolsRestServices/rest/POLocator/findLocations", "@spider": "usps_collection_boxes", "addr:city": "NEW EGYPT", "addr:country": "US", "addr:postcode": "08533", "addr:state": "NJ", "addr:street_address": "22 N MAIN ST", "amenity": "post_box", "collection_times": "Mo-Fr 16:30; Sa 14:00", "indoor": "yes", "note": "ON 12/24 AND 12/31, THIS BOX MAY BE COLLECTED AS EARLY AS 12 NOON.", "nsi_id": "unitedstatespostalservice-a77078", "operator": "United States Postal Service", "operator:short": "USPS", "operator:type": "public", "operator:wikidata": "Q668687", "ref": "0853300011"}, "type": "Feature"}
{"geometry": {"coordinates": [-74.7810679, 40.301417], "type": "Point"}, "id": "f4kctpl4YdZs-3-439JEvF1ucwc=", "properties": {"@source_uri": "https://tools.usps.com/UspsToolsRestServices/rest/POLocator/findLocations", "@spider": "usps_collection_boxes", "addr:city": "PENNINGTON", "addr:country": "US", "addr:postcode": "08534", "addr:state": "NJ", "addr:street_address": "800 DENOW RD", "amenity": "post_box", "collection_times": "Mo-Sa 11:00", "nsi_id": "unitedstatespostalservice-a77078", "operator": "United States Postal Service", "operator:short": "USPS", "operator:type": "public", "operator:wikidata": "Q668687", "ref": "0853400006"}, "type": "Feature"}
{"geometry": {"coordinates": [-74.7982259, 40.326491], "type": "Point"}, "id": "efvVqv7dWVpbN-puAHbA76LMzBI=", "properties": {"@source_uri": "https://tools.usps.com/UspsToolsRestServices/rest/POLocator/findLocations", "@spider": "usps_collection_boxes", "addr:city": "PENNINGTON", "addr:country": "US", "addr:postcode": "08534", "addr:state": "NJ", "addr:street_address": "25 STATE ROUTE 31 N", "amenity": "post_box", "collection_times": "Mo-Sa 11:00", "nsi_id": "unitedstatespostalservice-a77078", "operator": "United States Postal Service", "operator:short": "USPS", "operator:type": "public", "operator:wikidata": "Q668687", "ref": "0853400007"}, "type": "Feature"}
{"geometry": {"coordinates": [-74.7902999, 40.321325], "type": "Point"}, "id": "v9Y1Ak5PM7Bhvis0W7cfTWgmzLg=", "properties": {"@source_uri": "https://tools.usps.com/UspsToolsRestServices/rest/POLocator/findLocations", "@spider": "usps_collection_boxes", "addr:city": "PENNINGTON", "addr:country": "US", "addr:postcode": "08534", "addr:state": "NJ", "addr:street_address": "275 S MAIN ST", "amenity": "post_box", "collection_times": "Mo-Sa 11:00", "nsi_id": "unitedstatespostalservice-a77078", "operator": "United States Postal Service", "operator:short": "USPS", "operator:type": "public", "operator:wikidata": "Q668687", "ref": "0853400010"}, "type": "Feature"}
{"geometry": {"coordinates": [-74.789692, 40.32602], "type": "Point"}, "id": "iv5GVjt1MsGLRu8r1OTIuqnwf9M=", "properties": {"@source_uri": "https://tools.usps.com/UspsToolsRestServices/rest/POLocator/findLocations", "@spider": "usps_collection_boxes", "addr:city": "PENNINGTON", "addr:country": "US", "addr:postcode": "08534", "addr:state": "NJ", "addr:street_address": "65 S MAIN ST", "amenity": "post_box", "collection_times": "Mo-Sa 11:00", "nsi_id": "unitedstatespostalservice-a77078", "operator": "United States Postal Service", "operator:short": "USPS", "operator:type": "public", "operator:wikidata": "Q668687", "ref": "0853400014"}, "type": "Feature"}
{"geometry": {"coordinates": [-74.7961541, 40.33708], "type": "Point"}, "id": "n5rwEseVciVfHnqTU-JtNIqxn5A=", "properties": {"@source_uri": "https://tools.usps.com/UspsToolsRestServices/rest/POLocator/findLocations", "@spider": "usps_collection_boxes", "addr:city": "PENNINGTON", "addr:country": "US", "addr:postcode": "08534", "addr:state": "NJ", "addr:street_address": "23 STATE ROUTE 31 N", "amenity": "post_box", "collection_times": "Mo-Sa 11:00", "nsi_id": "unitedstatespostalservice-a77078", "operator": "United States Postal Service", "operator:short": "USPS", "operator:type": "public", "operator:wikidata": "Q668687", "ref": "0853400018"}, "type": "Feature"}
{"geometry": {"coordinates": [-74.7602266, 40.290758], "type": "Point"}, "id": "jqkuQYob6lenzgdwrBZ6DC1u0KI=", "properties": {"@source_uri": "https://tools.usps.com/UspsToolsRestServices/rest/POLocator/findLocations", "@spider": "usps_collection_boxes", "addr:city": "PENNINGTON", "addr:country": "US", "addr:postcode": "08534", "addr:state": "NJ", "addr:street_address": "1 SHREWSBURY CT", "amenity": "post_box", "collection_times": "Mo-Sa 11:00", "nsi_id": "unitedstatespostalservice-a77078", "operator": "United States Postal Service", "operator:short": "USPS", "operator:type": "public", "operator:wikidata": "Q668687", "ref": "0853400019"}, "type": "Feature"}
{"geometry": {"coordinates": [-74.7971385, 40.330588], "type": "Point"}, "id": "TD4K1IQ7H0Pq1nuCFFjTYXTkqJs=", "properties": {"@source_uri": "https://tools.usps.com/UspsToolsRestServices/rest/POLocator/findLocations", "@spider": "usps_collection_boxes", "addr:city": "PENNINGTON", "addr:country": "US", "addr:postcode": "08534", "addr:state": "NJ", "addr:street_address": "125 BROEMEL PL", "amenity": "post_box", "collection_times": "Mo-Fr 17:00; Sa 16:00", "indoor": "yes", "note": "ON 12/24 AND 12/31, THIS BOX MAY BE COLLECTED AS EARLY AS 12 NOON.", "nsi_id": "unitedstatespostalservice-a77078", "operator": "United States Postal Service", "operator:short": "USPS", "operator:type": "public", "operator:wikidata": "Q668687", "ref": "0853400020"}, "type": "Feature"}
{"geometry": {"coordinates": [-74.797110218, 40.330137192], "type": "Point"}, "id": "gvewVtm0fTINKCaOAYRPd3OSG1o=", "properties": {"@source_uri": "https://tools.usps.com/UspsToolsRestServices/rest/POLocator/findLocations", "@spider": "usps_collection_boxes", "addr:city": "PENNINGTON", "addr:country": "US", "addr:postcode": "08534", "addr:state": "NJ", "addr:street_address": "125 BROEMEL PL", "amenity": "post_box", "collection_times": "Mo-Fr 17:00; Sa 12:45", "indoor": "yes", "note": "ON 12/24 AND 12/31, THIS BOX MAY BE COLLECTED AS EARLY AS 12 NOON.", "nsi_id": "unitedstatespostalservice-a77078", "operator": "United States Postal Service", "operator:short": "USPS", "operator:type": "public", "operator:wikidata": "Q668687", "ref": "0853400023"}, "type": "Feature"}
{"geometry": {"coordinates": [-74.429663, 40.224428], "type": "Point"}, "id": "-Xm0SF-_e58H1A_mZNKMdv7fdA4=", "properties": {"@source_uri": "https://tools.usps.com/UspsToolsRestServices/rest/POLocator/findLocations", "@spider": "usps_collection_boxes", "addr:city": "PERRINEVILLE", "addr:country": "US", "addr:postcode": "08535", "addr:state": "NJ", "addr:street_address": "221 MILLSTONE RD", "amenity": "post_box", "collection_times": "Mo-Fr 16:30; Sa 12:00", "note": "ON 12/24 AND 12/31, THIS BOX MAY BE COLLECTED AS EARLY AS 12 NOON.", "nsi_id": "unitedstatespostalservice-a77078", "operator": "United States Postal Service", "operator:short": "USPS", "operator:type": "public", "operator:wikidata": "Q668687", "ref": "0853500001"}, "type": "Feature"}
{"geometry": {"coordinates": [-74.429649, 40.224522], "type": "Point"}, "id": "c1xq2EqgzGDscTJNksavtcvkYOM=", "properties": {"@source_uri": "https://tools.usps.com/UspsToolsRestServices/rest/POLocator/findLocations", "@spider": "usps_collection_boxes", "addr:city": "PERRINEVILLE", "addr:country": "US", "addr:postcode": "08535", "addr:state": "NJ", "addr:street_address": "221 MILLSTONE RD", "amenity": "post_box", "collection_times": "Mo-Fr 16:30; Sa 12:00", "indoor": "yes", "note": "ON 12/24 AND 12/31, THIS BOX MAY BE COLLECTED AS EARLY AS 12 NOON.", "nsi_id": "unitedstatespostalservice-a77078", "operator": "United States Postal Service", "operator:short": "USPS", "operator:type": "public", "operator:wikidata": "Q668687", "ref": "0853500002"}, "type": "Feature"}
{"geometry": {"coordinates": [-74.429548075, 40.223878387], "type": "Point"}, "id": "AbIi6xlHOUwG13U3Yfqls8n7lQI=", "properties": {"@source_uri": "https://tools.usps.com/UspsToolsRestServices/rest/POLocator/findLocations", "@spider": "usps_collection_boxes", "addr:city": "PERRINEVILLE", "addr:country": "US", "addr:postcode": "08535", "addr:state": "NJ", "addr:street_address": "221 MILLSTONE RD", "amenity": "post_box", "collection_times": "Mo-Fr 16:30; Sa 13:00", "indoor": "yes", "note": "ON 12/24 AND 12/31, THIS BOX MAY BE COLLECTED AS EARLY AS 12 NOON.", "nsi_id": "unitedstatespostalservice-a77078", "operator": "United States Postal Service", "operator:short": "USPS", "operator:type": "public", "operator:wikidata": "Q668687", "ref": "0853500005"}, "type": "Feature"}
{"geometry": {"coordinates": [-74.5925467798, 40.3368673286], "type": "Point"}, "id": "_LTN6iq4zbUssTAZozkp-FegaBo=", "properties": {"@source_uri": "https://tools.usps.com/UspsToolsRestServices/rest/POLocator/findLocations", "@spider": "usps_collection_boxes", "addr:city": "PLAINSBORO", "addr:country": "US", "addr:postcode": "08536", "addr:state": "NJ", "addr:street_address": "12 SCHALKS CROSSING RD", "amenity": "post_box", "collection_times": "Mo-Fr 17:00; Sa 15:00", "note": "ON 12/24 AND 12/31, THIS BOX MAY BE COLLECTED AS EARLY AS 12 NOON.", "nsi_id": "unitedstatespostalservice-a77078", "operator": "United States Postal Service", "operator:short": "USPS", "operator:type": "public", "operator:wikidata": "Q668687", "ref": "0853600002"}, "type": "Feature"}
{"geometry": {"coordinates": [-74.5899334, 40.329589], "type": "Point"}, "id": "XxLf7pIwqwt1VrI70CMUzLpjnR0=", "properties": {"@source_uri": "https://tools.usps.com/UspsToolsRestServices/rest/POLocator/findLocations", "@spider": "usps_collection_boxes", "addr:city": "PLAINSBORO", "addr:country": "US", "addr:postcode": "08536", "addr:state": "NJ", "addr:street_address": "70 FOX RUN DR", "amenity": "post_box", "collection_times": "Mo-Sa 11:00", "nsi_id": "unitedstatespostalservice-a77078", "operator": "United States Postal Service", "operator:short": "USPS", "operator:type": "public", "operator:wikidata": "Q668687", "ref": "0853600005"}, "type": "Feature"}
{"geometry": {"coordinates": [-74.5729158, 40.327081], "type": "Point"}, "id": "hJwM3BHB9Zb3cBD-Gf-Mrshxf-s=", "properties": {"@source_uri": "https://tools.usps.com/UspsToolsRestServices/rest/POLocator/findLocations", "@spider": "usps_collection_boxes", "addr:city": "PLAINSBORO", "addr:country": "US", "addr:postcode": "08536", "addr:state": "NJ", "addr:street_address": "101 DEER CREEK DR", "amenity": "post_box", "collection_times": "Mo-Sa 11:00", "nsi_id": "unitedstatespostalservice-a77078", "operator": "United States Postal Service", "operator:short": "USPS", "operator:type": "public", "operator:wikidata": "Q668687", "ref": "0853600008"}, "type": "Feature"}
{"geometry": {"coordinates": [-74.573053, 40.328036], "type": "Point"}, "id": "mS7nkxAD4W5CSbgtDOsZi9Ihwp4=", "properties": {"@source_uri": "https://tools.usps.com/UspsToolsRestServices/rest/POLocator/findLocations", "@spider": "usps_collection_boxes", "addr:city": "PLAINSBORO", "addr:country": "US", "addr:postcode": "08536", "addr:state": "NJ", "addr:street_address": "1101 HUNTERS GLEN DR", "amenity": "post_box", "collection_times": "Mo-Sa 11:00", "nsi_id": "unitedstatespostalservice-a77078", "operator": "United States Postal Service", "operator:short": "USPS", "operator:type": "public", "operator:wikidata": "Q668687", "ref": "0853600009"}, "type": "Feature"}
{"geometry": {"coordinates": [-74.5602864, 40.334659], "type": "Point"}, "id": "_JDZJ1w1z28u11my66f5491FfB8=", "properties": {"@source_uri": "https://tools.usps.com/UspsToolsRestServices/rest/POLocator/findLocations", "@spider": "usps_collection_boxes", "addr:city": "PLAINSBORO", "addr:country": "US", "addr:postcode": "08536", "addr:state": "NJ", "addr:street_address": "2101 QUAIL RIDGE DR", "amenity": "post_box", "collection_times": "Mo-Sa 11:00", "nsi_id": "unitedstatespostalservice-a77078", "operator": "United States Postal Service", "operator:short": "USPS", "operator:type": "public", "operator:wikidata": "Q668687", "ref": "0853600010"}, "type": "Feature"}
{"geometry": {"coordinates": [-74.592545, 40.33686], "type": "Point"}, "id": "DBXcsxPJGmedkJNQmmo-N_ztKt0=", "properties": {"@source_uri": "https://tools.usps.com/UspsToolsRestServices/rest/POLocator/findLocations", "@spider": "usps_collection_boxes", "addr:city": "PLAINSBORO", "addr:country": "US", "addr:postcode": "08536", "addr:state": "NJ", "addr:street_address": "12 SCHALKS CROSSING RD", "amenity": "post_box", "collection_times": "Mo-Fr 17:00; Sa 15:00", "indoor": "yes", "note": "ON 12/24 AND 12/31, THIS BOX MAY BE COLLECTED AS EARLY AS 12 NOON.", "nsi_id": "unitedstatespostalservice-a77078", "operator": "United States Postal Service", "operator:short": "USPS", "operator:type": "public", "operator:wikidata": "Q668687", "ref": "0853600013"}, "type": "Feature"}
{"geometry": {"coordinates": [-74.59254678, 40.336867329], "type": "Point"}, "id": "ncWhYUEkFCBarFe5CXCF3J8qMmc=", "properties": {"@source_uri": "https://tools.usps.com/UspsToolsRestServices/rest/POLocator/findLocations", "@spider": "usps_collection_boxes", "addr:city": "PLAINSBORO", "addr:country": "US", "addr:postcode": "08536", "addr:state": "NJ", "addr:street_address": "12 SCHALKS CROSSING RD", "amenity": "post_box", "collection_times": "Mo-Fr 16:30; Sa 13:30", "indoor": "yes", "note": "ON 12/24 AND 12/31, THIS BOX MAY BE COLLECTED AS EARLY AS 12 NOON.", "nsi_id": "unitedstatespostalservice-a77078", "operator": "United States Postal Service", "operator:short": "USPS", "operator:type": "public", "operator:wikidata": "Q668687", "ref": "0853600017"}, "type": "Feature"}
{"geometry": {"coordinates": [-74.6004617, 40.358749], "type": "Point"}, "id": "i-akzC-Jljz5H2_dp8T2HOtvHXA=", "properties": {"@source_uri": "https://tools.usps.com/UspsToolsRestServices/rest/POLocator/findLocations", "@spider": "usps_collection_boxes", "addr:city": "PRINCETON", "addr:country": "US", "addr:postcode": "08540", "addr:state": "NJ", "addr:street_address": "105 COLLEGE RD E", "amenity": "post_box", "collection_times": "Mo-Sa 11:00", "nsi_id": "unitedstatespostalservice-a77078", "operator": "United States Postal Service", "operator:short": "USPS", "operator:type": "public", "operator:wikidata": "Q668687", "ref": "0854000019"}, "type": "Feature"}
{"geometry": {"coordinates": [-74.6552713, 40.3238], "type": "Point"}, "id": "TnxUAmq_acIwHAzZ3wRwx040BKg=", "properties": {"@source_uri": "https://tools.usps.com/UspsToolsRestServices/rest/POLocator/findLocations", "@spider": "usps_collection_boxes", "addr:city": "PRINCETON", "addr:country": "US", "addr:postcode": "08540", "addr:state": "NJ", "addr:street_address": "106 HERITAGE BLVD", "amenity": "post_box", "collection_times": "Mo-Sa 11:00", "nsi_id": "unitedstatespostalservice-a77078", "operator": "United States Postal Service", "operator:short": "USPS", "operator:type": "public", "operator:wikidata": "Q668687", "ref": "0854000034"}, "type": "Feature"}
{"geometry": {"coordinates": [-74.6485247, 40.376985], "type": "Point"}, "id": "GtJQSrugx3sDnb5FyW0tSiuEk7I=", "properties": {"@source_uri": "https://tools.usps.com/UspsToolsRestServices/rest/POLocator/findLocations", "@spider": "usps_collection_boxes", "addr:city": "PRINCETON", "addr:country": "US", "addr:postcode": "08540", "addr:state": "NJ", "addr:street_address": "1 HOLLY HOUSE", "amenity": "post_box", "collection_times": "Mo-Sa 11:00", "nsi_id": "unitedstatespostalservice-a77078", "operator": "United States Postal Service", "operator:short": "USPS", "operator:type": "public", "operator:wikidata": "Q668687", "ref": "0854000035"}, "type": "Feature"}
{"geometry": {"coordinates": [-74.6736874, 40.303917], "type": "Point"}, "id": "Krq-wg9PbewnfVsTRyn9Si0J09E=", "properties": {"@source_uri": "https://tools.usps.com/UspsToolsRestServices/rest/POLocator/findLocations", "@spider": "usps_collection_boxes", "addr:city": "PRINCETON", "addr:country": "US", "addr:postcode": "08540", "addr:state": "NJ", "addr:street_address": "100 NASSAU PARK BLVD", "amenity": "post_box", "collection_times": "Mo-Fr 15:00; Sa 11:00", "note": "ON 12/24 AND 12/31, THIS BOX MAY BE COLLECTED AS EARLY AS 12 NOON.", "nsi_id": "unitedstatespostalservice-a77078", "operator": "United States Postal Service", "operator:short": "USPS", "operator:type": "public", "operator:wikidata": "Q668687", "ref": "0854000046"}, "type": "Feature"}
{"geometry": {"coordinates": [-74.6632256, 40.348769], "type": "Point"}, "id": "xKDYEK3f8pkk0ufGnq8VK1rx40Q=", "properties": {"@source_uri": "https://tools.usps.com/UspsToolsRestServices/rest/POLocator/findLocations", "@spider": "usps_collection_boxes", "addr:city": "PRINCETON", "addr:country": "US", "addr:postcode": "08540", "addr:state": "NJ", "addr:street_address": "10 NASSAU ST", "amenity": "post_box", "collection_times": "Mo-Sa 11:00", "nsi_id": "unitedstatespostalservice-a77078", "operator": "United States Postal Service", "operator:short": "USPS", "operator:type": "public", "operator:wikidata": "Q668687", "ref": "0854000049"}, "type": "Feature"}
{"geometry": {"coordinates": [-74.6448319, 40.35413], "type": "Point"}, "id": "4IY5m19jiOt94n4Dkl8f06rLxFU=", "properties": {"@source_uri": "https://tools.usps.com/UspsToolsRestServices/rest/POLocator/findLocations", "@spider": "usps_collection_boxes", "addr:city": "PRINCETON", "addr:country": "US", "addr:postcode": "08540", "addr:state": "NJ", "addr:street_address": "353 NASSAU ST", "amenity": "post_box", "collection_times": "Mo-Sa 11:00", "nsi_id": "unitedstatespostalservice-a77078", "operator": "United States Postal Service", "operator:short": "USPS", "operator:type": "public", "operator:wikidata": "Q668687", "ref": "0854000051"}, "type": "Feature"}
{"geometry": {"coordinates": [-74.654694, 40.351464], "type": "Point"}, "id": "aI8NtE4Io5doPFDdsy5rWyDOL90=", "properties": {"@source_uri": "https://tools.usps.com/UspsToolsRestServices/rest/POLocator/findLocations", "@spider": "usps_collection_boxes", "addr:city": "PRINCETON", "addr:country": "US", "addr:postcode": "08540", "addr:state": "NJ", "addr:street_address": "210 NASSAU ST", "amenity": "post_box", "collection_times": "Mo-Sa 11:00", "nsi_id": "unitedstatespostalservice-a77078", "operator": "United States Postal Service", "operator:short": "USPS", "operator:type": "public", "operator:wikidata": "Q668687", "ref": "0854000053"}, "type": "Feature"}
{"geometry": {"coordinates": [-74.6596656, 40.349773], "type": "Point"}, "id": "eULFl01LeufZfdZOSKv-6XawnVY=", "properties": {"@source_uri": "https://tools.usps.com/UspsToolsRestServices/rest/POLocator/findLocations", "@spider": "usps_collection_boxes", "addr:city": "PRINCETON", "addr:country": "US", "addr:postcode": "08540", "addr:state": "NJ", "addr:street_address": "92 NASSAU ST", "amenity": "post_box", "collection_times": "Mo-Sa 11:00", "nsi_id": "unitedstatespostalservice-a77078", "operator": "United States Postal Service", "operator:short": "USPS", "operator:type": "public", "operator:wikidata": "Q668687", "ref": "0854000058"}, "type": "Feature"}
{"geometry": {"coordinates": [-74.6611638, 40.349598], "type": "Point"}, "id": "LZ80Z6lJEhS9QNRJVamW2y1BaQY=", "properties": {"@source_uri": "https://tools.usps.com/UspsToolsRestServices/rest/POLocator/findLocations", "@spider": "usps_collection_boxes", "addr:city": "PRINCETON", "addr:country": "US", "addr:postcode": "08540", "addr:state": "NJ", "addr:street_address": "1 PALMER SQ W", "amenity": "post_box", "collection_times": "Mo-Sa 11:00", "nsi_id": "unitedstatespostalservice-a77078", "operator": "United States Postal Service", "operator:short": "USPS", "operator:type": "public", "operator:wikidata": "Q668687", "ref": "0854000061"}, "type": "Feature"}
{"geometry": {"coordinates": [-74.6500571, 40.36257], "type": "Point"}, "id": "2bCPKo6F4EyfRanaGqXVUihjBVQ=", "properties": {"@source_uri": "https://tools.usps.com/UspsToolsRestServices/rest/POLocator/findLocations", "@spider": "usps_collection_boxes", "addr:city": "PRINCETON", "addr:country": "US", "addr:postcode": "08540", "addr:state": "NJ", "addr:street_address": "301 N HARRISON ST", "amenity": "post_box", "collection_times": "Mo-Sa 11:00", "nsi_id": "unitedstatespostalservice-a77078", "operator": "United States Postal Service", "operator:short": "USPS", "operator:type": "public", "operator:wikidata": "Q668687", "ref": "0854000067"}, "type": "Feature"}
{"geometry": {"coordinates": [-74.649899, 40.3563385], "type": "Point"}, "id": "FqE-lkMti2HUrXLx1N-J6KmrTEM=", "properties": {"@source_uri": "https://tools.usps.com/UspsToolsRestServices/rest/POLocator/findLocations", "@spider": "usps_collection_boxes", "addr:city": "PRINCETON", "addr:country": "US", "addr:postcode": "08540", "addr:state": "NJ", "addr:street_address": "71 UNIVERSITY PL", "amenity": "post_box", "collection_times": "Mo-Sa 11:00", "nsi_id": "unitedstatespostalservice-a77078", "operator": "United States Postal Service", "operator:short": "USPS", "operator:type": "public", "operator:wikidata": "Q668687", "ref": "0854000070"}, "type": "Feature"}
{"geometry": {"coordinates": [-74.6600636, 40.372131], "type": "Point"}, "id": "D0uXgHfgCaj7LpywPMWdHhZR6Go=", "properties": {"@source_uri": "https://tools.usps.com/UspsToolsRestServices/rest/POLocator/findLocations", "@spider": "usps_collection_boxes", "addr:city": "PRINCETON", "addr:country": "US", "addr:postcode": "08540", "addr:state": "NJ", "addr:street_address": "200 REDDING CIR", "amenity": "post_box", "collection_times": "Mo-Sa 11:00", "nsi_id": "unitedstatespostalservice-a77078", "operator": "United States Postal Service", "operator:short": "USPS", "operator:type": "public", "operator:wikidata": "Q668687", "ref": "0854000071"}, "type": "Feature"}
{"geometry": {"coordinates": [-74.6188777, 40.349773], "type": "Point"}, "id": "1svTR_HsHKqJnoHgGoyykT0jsKs=", "properties": {"@source_uri": "https://tools.usps.com/UspsToolsRestServices/rest/POLocator/findLocations", "@spider": "usps_collection_boxes", "addr:city": "PRINCETON", "addr:country": "US", "addr:postcode": "08540", "addr:state": "NJ", "addr:street_address": "580 SAYRE DR", "amenity": "post_box", "collection_times": "Mo-Sa 11:00", "nsi_id": "unitedstatespostalservice-a77078", "operator": "United States Postal Service", "operator:short": "USPS", "operator:type": "public", "operator:wikidata": "Q668687", "ref": "0854000072"}, "type": "Feature"}
{"geometry": {"coordinates": [-74.6490223, 40.400081], "type": "Point"}, "id": "S08NaWi8nlSKkZ-5c7QCm2Vwoa4=", "properties": {"@source_uri": "https://tools.usps.com/UspsToolsRestServices/rest/POLocator/findLocations", "@spider": "usps_collection_boxes", "addr:city": "PRINCETON", "addr:country": "US", "addr:postcode": "08540", "addr:state": "NJ", "addr:street_address": "1225 STATE RD", "amenity": "post_box", "collection_times": "Mo-Sa 11:00", "nsi_id": "unitedstatespostalservice-a77078", "operator": "United States Postal Service", "operator:short": "USPS", "operator:type": "public", "operator:wikidata": "Q668687", "ref": "0854000074"}, "type": "Feature"}
{"geometry": {"coordinates": [-74.647629, 40.35566], "type": "Point"}, "id": "5EqBmA4bCieCiNZRQu8irU2QFdo=", "properties": {"@source_uri": "https://tools.usps.com/UspsToolsRestServices/rest/POLocator/findLocations", "@spider": "usps_collection_boxes", "addr:city": "PRINCETON", "addr:country": "US", "addr:postcode": "08540", "addr:state": "NJ", "addr:street_address": "181 SPRUCE CIR", "amenity": "post_box", "collection_times": "Mo-Sa 11:00", "nsi_id": "unitedstatespostalservice-a77078", "operator": "United States Postal Service", "operator:short": "USPS", "operator:type": "public", "operator:wikidata": "Q668687", "ref": "0854000076"}, "type": "Feature"}
{"geometry": {"coordinates": [-74.665027, 40.359824], "type": "Point"}, "id": "jyX5JS8WrO2wWK6VPaN4Ce-YKZ0=", "properties": {"@source_uri": "https://tools.usps.com/UspsToolsRestServices/rest/POLocator/findLocations", "@spider": "usps_collection_boxes", "addr:city": "PRINCETON", "addr:country": "US", "addr:postcode": "08540", "addr:state": "NJ", "addr:street_address": "372 WITHERSPOON ST", "amenity": "post_box", "collection_times": "Mo-Sa 11:00", "nsi_id": "unitedstatespostalservice-a77078", "operator": "United States Postal Service", "operator:short": "USPS", "operator:type": "public", "operator:wikidata": "Q668687", "ref": "0854000077"}, "type": "Feature"}
{"geometry": {"coordinates": [-74.6651774, 40.307751], "type": "Point"}, "id": "RWJ_bMXvEnmSPwcy9Md6Xc7Y7Ok=", "properties": {"@source_uri": "https://tools.usps.com/UspsToolsRestServices/rest/POLocator/findLocations", "@spider": "usps_collection_boxes", "addr:city": "PRINCETON", "addr:country": "US", "addr:postcode": "08540", "addr:state": "NJ", "addr:street_address": "3490 US HIGHWAY 1", "amenity": "post_box", "collection_times": "Mo-Sa 11:00", "nsi_id": "unitedstatespostalservice-a77078", "operator": "United States Postal Service", "operator:short": "USPS", "operator:type": "public", "operator:wikidata": "Q668687", "ref": "0854000079"}, "type": "Feature"}
{"geometry": {"coordinates": [-74.6602596, 40.350739], "type": "Point"}, "id": "ytVPgiAzlmFlfUCG89NHAbUjazo=", "properties": {"@source_uri": "https://tools.usps.com/UspsToolsRestServices/rest/POLocator/findLocations", "@spider": "usps_collection_boxes", "addr:city": "PRINCETON", "addr:country": "US", "addr:postcode": "08540", "addr:state": "NJ", "addr:street_address": "33 WITHERSPOON ST", "amenity": "post_box", "collection_times": "Mo-Sa 11:00", "nsi_id": "unitedstatespostalservice-a77078", "operator": "United States Postal Service", "operator:short": "USPS", "operator:type": "public", "operator:wikidata": "Q668687", "ref": "0854000084"}, "type": "Feature"}
{"geometry": {"coordinates": [-74.645769984, 40.318009455], "type": "Point"}, "id": "Odg512FgjdenOLLFOMnVhrDYxKc=", "properties": {"@source_uri": "https://tools.usps.com/UspsToolsRestServices/rest/POLocator/findLocations", "@spider": "usps_collection_boxes", "addr:city": "PRINCETON", "addr:country": "US", "addr:postcode": "08540", "addr:state": "NJ", "addr:street_address": "213 CARNEGIE CTR", "amenity": "post_box", "collection_times": "Mo-Fr 17:00; Sa 15:00", "note": "ON 12/24 AND 12/31, THIS BOX MAY BE COLLECTED AS EARLY AS 12 NOON.", "nsi_id": "unitedstatespostalservice-a77078", "operator": "United States Postal Service", "operator:short": "USPS", "operator:type": "public", "operator:wikidata": "Q668687", "ref": "0854000087"}, "type": "Feature"}
{"geometry": {"coordinates": [-74.6530862, 40.394512], "type": "Point"}, "id": "M00zGdnz2QovR7p-9c64MvlLras=", "properties": {"@source_uri": "https://tools.usps.com/UspsToolsRestServices/rest/POLocator/findLocations", "@spider": "usps_collection_boxes", "addr:city": "PRINCETON", "addr:country": "US", "addr:postcode": "08540", "addr:state": "NJ", "addr:street_address": "1 APPLEGATE RD", "amenity": "post_box", "collection_times": "Mo-Sa 11:00", "nsi_id": "unitedstatespostalservice-a77078", "operator": "United States Postal Service", "operator:short": "USPS", "operator:type": "public", "operator:wikidata": "Q668687", "ref": "0854000100"}, "type": "Feature"}
{"geometry": {"coordinates": [-74.6638715, 40.316638], "type": "Point"}, "id": "hi4PxEMlN4tnWwq9Y_5F1OGTv_E=", "properties": {"@source_uri": "https://tools.usps.com/UspsToolsRestServices/rest/POLocator/findLocations", "@spider": "usps_collection_boxes", "addr:city": "PRINCETON", "addr:country": "US", "addr:postcode": "08540", "addr:state": "NJ", "addr:street_address": "102 SEQUOIA CT", "amenity": "post_box", "collection_times": "Mo-Sa 11:00", "nsi_id": "unitedstatespostalservice-a77078", "operator": "United States Postal Service", "operator:short": "USPS", "operator:type": "public", "operator:wikidata": "Q668687", "ref": "0854000102"}, "type": "Feature"}
{"geometry": {"coordinates": [-74.6503355, 40.351907], "type": "Point"}, "id": "G7p4W6aO79B24NZY43KGUufUW0E=", "properties": {"@source_uri": "https://tools.usps.com/UspsToolsRestServices/rest/POLocator/findLocations", "@spider": "usps_collection_boxes", "addr:city": "PRINCETON", "addr:country": "US", "addr:postcode": "08540", "addr:state": "NJ", "addr:street_address": "259 NASSAU ST STE 2", "amenity": "post_box", "collection_times": "Mo-Fr 17:00; Sa 15:00", "name": "USPS COLLECTION BOX - APC", "note": "ON 12/24 AND 12/31, THIS BOX MAY BE COLLECTED AS EARLY AS 12 NOON.", "nsi_id": "unitedstatespostalservice-a77078", "operator": "United States Postal Service", "operator:short": "USPS", "operator:type": "public", "operator:wikidata": "Q668687", "ref": "0854000104"}, "type": "Feature"}
{"geometry": {"coordinates": [-74.645392, 40.318089], "type": "Point"}, "id": "vGaxSJCTLvfNhwHxwb7pghOskNM=", "properties": {"@source_uri": "https://tools.usps.com/UspsToolsRestServices/rest/POLocator/findLocations", "@spider": "usps_collection_boxes", "addr:city": "PRINCETON", "addr:country": "US", "addr:postcode": "08540", "addr:state": "NJ", "addr:street_address": "213 CARNEGIE CTR", "amenity": "post_box", "collection_times": "Mo-Fr 17:00; Sa 16:00", "indoor": "yes", "note": "ON 12/24 AND 12/31, THIS BOX MAY BE COLLECTED AS EARLY AS 12 NOON.", "nsi_id": "unitedstatespostalservice-a77078", "operator": "United States Postal Service", "operator:short": "USPS", "operator:type": "public", "operator:wikidata": "Q668687", "ref": "0854000105"}, "type": "Feature"}
{"geometry": {"coordinates": [-74.650292372, 40.352488054], "type": "Point"}, "id": "ebCLqiaVE9iTwduTNjISfoJR9vw=", "properties": {"@source_uri": "https://tools.usps.com/UspsToolsRestServices/rest/POLocator/findLocations", "@spider": "usps_collection_boxes", "addr:city": "PRINCETON", "addr:country": "US", "addr:postcode": "08540", "addr:state": "NJ", "addr:street_address": "259 NASSAU ST STE 2", "amenity": "post_box", "collection_times": "Mo-Fr 17:00; Sa 15:00", "note": "ON 12/24 AND 12/31, THIS BOX MAY BE COLLECTED AS EARLY AS 12 NOON.", "nsi_id": "unitedstatespostalservice-a77078", "operator": "United States Postal Service", "operator:short": "USPS", "operator:type": "public", "operator:wikidata": "Q668687", "ref": "0854000109"}, "type": "Feature"}
{"geometry": {"coordinates": [-74.6502441, 40.351961], "type": "Point"}, "id": "acbqDPcIfw9eqeHi1-g-0FTpRSc=", "properties": {"@source_uri": "https://tools.usps.com/UspsToolsRestServices/rest/POLocator/findLocations", "@spider": "usps_collection_boxes", "addr:city": "PRINCETON", "addr:country": "US", "addr:postcode": "08540", "addr:state": "NJ", "addr:street_address": "259 NASSAU ST STE 2", "amenity": "post_box", "collection_times": "Mo-Fr 16:30; Sa 14:00", "indoor": "yes", "note": "ON 12/24 AND 12/31, THIS BOX MAY BE COLLECTED AS EARLY AS 12 NOON.", "nsi_id": "unitedstatespostalservice-a77078", "operator": "United States Postal Service", "operator:short": "USPS", "operator:type": "public", "operator:wikidata": "Q668687", "ref": "0854000111"}, "type": "Feature"}
{"geometry": {"coordinates": [-74.645769876, 40.317991405], "type": "Point"}, "id": "YPytIdI8VX6RN3iFbm5KjnorABA=", "properties": {"@source_uri": "https://tools.usps.com/UspsToolsRestServices/rest/POLocator/findLocations", "@spider": "usps_collection_boxes", "addr:city": "PRINCETON", "addr:country": "US", "addr:postcode": "08540", "addr:state": "NJ", "addr:street_address": "213 CARNEGIE CTR", "amenity": "post_box", "collection_times": "Mo-Fr 16:30; Sa 13:00", "indoor": "yes", "note": "ON 12/24 AND 12/31, THIS BOX MAY BE COLLECTED AS EARLY AS 12 NOON.", "nsi_id": "unitedstatespostalservice-a77078", "operator": "United States Postal Service", "operator:short": "USPS", "operator:type": "public", "operator:wikidata": "Q668687", "ref": "0854000117"}, "type": "Feature"}
{"geometry": {"coordinates": [-74.650364498, 40.352460298], "type": "Point"}, "id": "N0OfLK66DNbZ6diwPZohskcv7gg=", "properties": {"@source_uri": "https://tools.usps.com/UspsToolsRestServices/rest/POLocator/findLocations", "@spider": "usps_collection_boxes", "addr:city": "PRINCETON", "addr:country": "US", "addr:postcode": "08540", "addr:state": "NJ", "addr:street_address": "259 NASSAU ST STE 2", "amenity": "post_box", "collection_times": "Mo-Fr 16:30; Sa 14:00", "indoor": "yes", "note": "ON 12/24 AND 12/31, THIS BOX MAY BE COLLECTED AS EARLY AS 12 NOON.", "nsi_id": "unitedstatespostalservice-a77078", "operator": "United States Postal Service", "operator:short": "USPS", "operator:type": "public", "operator:wikidata": "Q668687", "ref": "0854000118"}, "type": "Feature"}
{"geometry": {"coordinates": [-74.6205304, 40.313145], "type": "Point"}, "id": "cWYWXc07hxjwzpbU-F0j3SQKoAY=", "properties": {"@source_uri": "https://tools.usps.com/UspsToolsRestServices/rest/POLocator/findLocations", "@spider": "usps_collection_boxes", "addr:city": "PRINCETON JCT", "addr:country": "US", "addr:postcode": "08550", "addr:state": "NJ", "addr:street_address": "64 HIGHTSTOWN/PRINCETON RD", "amenity": "post_box", "collection_times": "Mo-Sa 11:30", "nsi_id": "unitedstatespostalservice-a77078", "operator": "United States Postal Service", "operator:short": "USPS", "operator:type": "public", "operator:wikidata": "Q668687", "ref": "0855000002"}, "type": "Feature"}
{"geometry": {"coordinates": [-74.6237799, 40.315806], "type": "Point"}, "id": "GUnaviVMDrR3W6EeI1CsZ7fwyMQ=", "properties": {"@source_uri": "https://tools.usps.com/UspsToolsRestServices/rest/POLocator/findLocations", "@spider": "usps_collection_boxes", "addr:city": "PRINCETON JCT", "addr:country": "US", "addr:postcode": "08550", "addr:state": "NJ", "addr:street_address": "2 WALLACE CIR", "amenity": "post_box", "collection_times": "Mo-Sa 12:00", "nsi_id": "unitedstatespostalservice-a77078", "operator": "United States Postal Service", "operator:short": "USPS", "operator:type": "public", "operator:wikidata": "Q668687", "ref": "0855000003"}, "type": "Feature"}
{"geometry": {"coordinates": [-74.632359497, 40.305703482], "type": "Point"}, "id": "12Wve0SXJRMPhl0-tN6K7SffdO4=", "properties": {"@source_uri": "https://tools.usps.com/UspsToolsRestServices/rest/POLocator/findLocations", "@spider": "usps_collection_boxes", "addr:city": "PRINCETON JCT", "addr:country": "US", "addr:postcode": "08550", "addr:state": "NJ", "addr:street_address": "331 N POST RD", "amenity": "post_box", "collection_times": "Mo-Fr 16:45; Sa 14:45", "note": "ON 12/24 AND 12/31, THIS BOX MAY BE COLLECTED AS EARLY AS 12 NOON.", "nsi_id": "unitedstatespostalservice-a77078", "operator": "United States Postal Service", "operator:short": "USPS", "operator:type": "public", "operator:wikidata": "Q668687", "ref": "0855000005"}, "type": "Feature"}
{"geometry": {"coordinates": [-74.6414857, 40.300315], "type": "Point"}, "id": "_ykDPzKNAkQ-NHJaG8tMHW35m_g=", "properties": {"@source_uri": "https://tools.usps.com/UspsToolsRestServices/rest/POLocator/findLocations", "@spider": "usps_collection_boxes", "addr:city": "PRINCETON JCT", "addr:country": "US", "addr:postcode": "08550", "addr:state": "NJ", "addr:street_address": "217 CLARKSVILLE RD", "amenity": "post_box", "collection_times": "Mo-Sa 11:00", "nsi_id": "unitedstatespostalservice-a77078", "operator": "United States Postal Service", "operator:short": "USPS", "operator:type": "public", "operator:wikidata": "Q668687", "ref": "0855000011"}, "type": "Feature"}
{"geometry": {"coordinates": [-74.6380095, 40.302381], "type": "Point"}, "id": "De8GmN1WItwuqXq4E-1ixWmBvis=", "properties": {"@source_uri": "https://tools.usps.com/UspsToolsRestServices/rest/POLocator/findLocations", "@spider": "usps_collection_boxes", "addr:city": "PRINCETON JCT", "addr:country": "US", "addr:postcode": "08550", "addr:state": "NJ", "addr:street_address": "51 EVERETT DR", "amenity": "post_box", "collection_times": "Mo-Sa 11:00", "nsi_id": "unitedstatespostalservice-a77078", "operator": "United States Postal Service", "operator:short": "USPS", "operator:type": "public", "operator:wikidata": "Q668687", "ref": "0855000012"}, "type": "Feature"}
{"geometry": {"coordinates": [-74.5833642, 40.292293], "type": "Point"}, "id": "ErMIHBnXuOxKfvLlVd0QVVaEHuo=", "properties": {"@source_uri": "https://tools.usps.com/UspsToolsRestServices/rest/POLocator/findLocations", "@spider": "usps_collection_boxes", "addr:city": "PRINCETON JCT", "addr:country": "US", "addr:postcode": "08550", "addr:state": "NJ", "addr:street_address": "335 PRINCETON HIGHTSTOWN RD", "amenity": "post_box", "collection_times": "Mo-Sa 09:00", "nsi_id": "unitedstatespostalservice-a77078", "operator": "United States Postal Service", "operator:short": "USPS", "operator:type": "public", "operator:wikidata": "Q668687", "ref": "0855000013"}, "type": "Feature"}
{"geometry": {"coordinates": [-74.6063809, 40.299622], "type": "Point"}, "id": "fxwtsqRzM-UCeOiYgA5uPfqmzCA=", "properties": {"@source_uri": "https://tools.usps.com/UspsToolsRestServices/rest/POLocator/findLocations", "@spider": "usps_collection_boxes", "addr:city": "PRINCETON JCT", "addr:country": "US", "addr:postcode": "08550", "addr:state": "NJ", "addr:street_address": "196 PRINCETON HIGHTSTOWN RD", "amenity": "post_box", "collection_times": "Mo-Sa 09:00", "nsi_id": "unitedstatespostalservice-a77078", "operator": "United States Postal Service", "operator:short": "USPS", "operator:type": "public", "operator:wikidata": "Q668687", "ref": "0855000014"}, "type": "Feature"}
{"geometry": {"coordinates": [-74.632341, 40.305739], "type": "Point"}, "id": "XWSni_iqz4emxqr98kYeona3xZU=", "properties": {"@source_uri": "https://tools.usps.com/UspsToolsRestServices/rest/POLocator/findLocations", "@spider": "usps_collection_boxes", "addr:city": "PRINCETON JCT", "addr:country": "US", "addr:postcode": "08550", "addr:state": "NJ", "addr:street_address": "331 N POST RD", "amenity": "post_box", "collection_times": "Mo-Fr 17:00; Sa 15:30", "indoor": "yes", "note": "ON 12/24 AND 12/31, THIS BOX MAY BE COLLECTED AS EARLY AS 12 NOON.", "nsi_id": "unitedstatespostalservice-a77078", "operator": "United States Postal Service", "operator:short": "USPS", "operator:type": "public", "operator:wikidata": "Q668687", "ref": "0855000015"}, "type": "Feature"}
{"geometry": {"coordinates": [-74.632363304, 40.305702464], "type": "Point"}, "id": "Fve3J_qL8JNmBc1TpKP7m1nvWs0=", "properties": {"@source_uri": "https://tools.usps.com/UspsToolsRestServices/rest/POLocator/findLocations", "@spider": "usps_collection_boxes", "addr:city": "PRINCETON JCT", "addr:country": "US", "addr:postcode": "08550", "addr:state": "NJ", "addr:street_address": "331 N POST RD", "amenity": "post_box", "collection_times": "Mo-Fr 16:45; Sa 15:00", "indoor": "yes", "note": "ON 12/24 AND 12/31, THIS BOX MAY BE COLLECTED AS EARLY AS 12 NOON.", "nsi_id": "unitedstatespostalservice-a77078", "operator": "United States Postal Service", "operator:short": "USPS", "operator:type": "public", "operator:wikidata": "Q668687", "ref": "0855000019"}, "type": "Feature"}
{"geometry": {"coordinates": [-74.868161, 40.425724], "type": "Point"}, "id": "ShNE4aeZrBJT77xC9N-fRVbmuhM=", "properties": {"@source_uri": "https://tools.usps.com/UspsToolsRestServices/rest/POLocator/findLocations", "@spider": "usps_collection_boxes", "addr:city": "RINGOES", "addr:country": "US", "addr:postcode": "08551", "addr:state": "NJ", "addr:street_address": "1108 OLD YORK RD", "amenity": "post_box", "collection_times": "Mo-Fr 16:30; Sa 13:00", "note": "ON 12/24 AND 12/31, THIS BOX MAY BE COLLECTED AS EARLY AS 12 NOON.", "nsi_id": "unitedstatespostalservice-a77078", "operator": "United States Postal Service", "operator:short": "USPS", "operator:type": "public", "operator:wikidata": "Q668687", "ref": "0855100001"}, "type": "Feature"}
{"geometry": {"coordinates": [-74.86818, 40.425758], "type": "Point"}, "id": "mie6ppNAbZgJ_BfHLsIQRU7fLU8=", "properties": {"@source_uri": "https://tools.usps.com/UspsToolsRestServices/rest/POLocator/findLocations", "@spider": "usps_collection_boxes", "addr:city": "RINGOES", "addr:country": "US", "addr:postcode": "08551", "addr:state": "NJ", "addr:street_address": "1108 OLD YORK RD", "amenity": "post_box", "collection_times": "Mo-Fr 16:30; Sa 13:00", "indoor": "yes", "note": "ON 12/24 AND 12/31, THIS BOX MAY BE COLLECTED AS EARLY AS 12 NOON.", "nsi_id": "unitedstatespostalservice-a77078", "operator": "United States Postal Service", "operator:short": "USPS", "operator:type": "public", "operator:wikidata": "Q668687", "ref": "0855100002"}, "type": "Feature"}
{"geometry": {"coordinates": [-74.86806421, 40.425892334], "type": "Point"}, "id": "iUrkzMRfzm1iIyABC8JRypShuNo=", "properties": {"@source_uri": "https://tools.usps.com/UspsToolsRestServices/rest/POLocator/findLocations", "@spider": "usps_collection_boxes", "addr:city": "RINGOES", "addr:country": "US", "addr:postcode": "08551", "addr:state": "NJ", "addr:street_address": "1108 OLD YORK RD", "amenity": "post_box", "collection_times": "Mo-Fr 16:30; Sa 12:00", "indoor": "yes", "note": "ON 12/24 AND 12/31, THIS BOX MAY BE COLLECTED AS EARLY AS 12 NOON.", "nsi_id": "unitedstatespostalservice-a77078", "operator": "United States Postal Service", "operator:short": "USPS", "operator:type": "public", "operator:wikidata": "Q668687", "ref": "0855100005"}, "type": "Feature"}
{"geometry": {"coordinates": [-74.6352093, 40.400143], "type": "Point"}, "id": "hb39JCQ2u3fsdrT1zknBC-dBBJA=", "properties": {"@source_uri": "https://tools.usps.com/UspsToolsRestServices/rest/POLocator/findLocations", "@spider": "usps_collection_boxes", "addr:city": "ROCKY HILL", "addr:country": "US", "addr:postcode": "08553", "addr:state": "NJ", "addr:street_address": "130 WASHINGTON ST", "amenity": "post_box", "collection_times": "Mo-Fr 16:15; Sa 11:45", "note": "ON 12/24 AND 12/31, THIS BOX MAY BE COLLECTED AS EARLY AS 12 NOON.", "nsi_id": "unitedstatespostalservice-a77078", "operator": "United States Postal Service", "operator:short": "USPS", "operator:type": "public", "operator:wikidata": "Q668687", "ref": "0855300001"}, "type": "Feature"}
{"geometry": {"coordinates": [-74.6351866, 40.400154], "type": "Point"}, "id": "Ra0Yv_C79cqq6Z6YLutpdpbNUvg=", "properties": {"@source_uri": "https://tools.usps.com/UspsToolsRestServices/rest/POLocator/findLocations", "@spider": "usps_collection_boxes", "addr:city": "ROCKY HILL", "addr:country": "US", "addr:postcode": "08553", "addr:state": "NJ", "addr:street_address": "130 WASHINGTON ST", "amenity": "post_box", "collection_times": "Mo-Fr 16:15; Sa 11:45", "indoor": "yes", "note": "ON 12/24 AND 12/31, THIS BOX MAY BE COLLECTED AS EARLY AS 12 NOON.", "nsi_id": "unitedstatespostalservice-a77078", "operator": "United States Postal Service", "operator:short": "USPS", "operator:type": "public", "operator:wikidata": "Q668687", "ref": "0855300002"}, "type": "Feature"}
{"geometry": {"coordinates": [-74.635269528, 40.400136322], "type": "Point"}, "id": "3xM3clW0Qd3Q11y8eWAJEmPM77k=", "properties": {"@source_uri": "https://tools.usps.com/UspsToolsRestServices/rest/POLocator/findLocations", "@spider": "usps_collection_boxes", "addr:city": "ROCKY HILL", "addr:country": "US", "addr:postcode": "08553", "addr:state": "NJ", "addr:street_address": "130 WASHINGTON ST", "amenity": "post_box", "collection_times": "Mo-Fr 16:30; Sa 12:00", "indoor": "yes", "note": "ON 12/24 AND 12/31, THIS BOX MAY BE COLLECTED AS EARLY AS 12 NOON.", "nsi_id": "unitedstatespostalservice-a77078", "operator": "United States Postal Service", "operator:short": "USPS", "operator:type": "public", "operator:wikidata": "Q668687", "ref": "0855300005"}, "type": "Feature"}
{"geometry": {"coordinates": [-74.776719, 40.118277], "type": "Point"}, "id": "LdEY-WHAVPwjaVzHoneCNQlR9QQ=", "properties": {"@source_uri": "https://tools.usps.com/UspsToolsRestServices/rest/POLocator/findLocations", "@spider": "usps_collection_boxes", "addr:city": "ROEBLING", "addr:country": "US", "addr:postcode": "08554", "addr:state": "NJ", "addr:street_address": "51 MAIN ST", "amenity": "post_box", "collection_times": "Mo-Fr 16:15; Sa 12:45", "note": "ON 12/24 AND 12/31, THIS BOX MAY BE COLLECTED AS EARLY AS 12 NOON.", "nsi_id": "unitedstatespostalservice-a77078", "operator": "United States Postal Service", "operator:short": "USPS", "operator:type": "public", "operator:wikidata": "Q668687", "ref": "0855400007"}, "type": "Feature"}
{"geometry": {"coordinates": [-74.776598, 40.118262], "type": "Point"}, "id": "NCHdqauiaRLqXUFJQTUx3aquDiU=", "properties": {"@source_uri": "https://tools.usps.com/UspsToolsRestServices/rest/POLocator/findLocations", "@spider": "usps_collection_boxes", "addr:city": "ROEBLING", "addr:country": "US", "addr:postcode": "08554", "addr:state": "NJ", "addr:street_address": "51 MAIN ST", "amenity": "post_box", "collection_times": "Mo-Fr 16:15; Sa 12:45", "indoor": "yes", "note": "ON 12/24 AND 12/31, THIS BOX MAY BE COLLECTED AS EARLY AS 12 NOON.", "nsi_id": "unitedstatespostalservice-a77078", "operator": "United States Postal Service", "operator:short": "USPS", "operator:type": "public", "operator:wikidata": "Q668687", "ref": "0855400009"}, "type": "Feature"}
{"geometry": {"coordinates": [-74.776684961, 40.118322784], "type": "Point"}, "id": "CpWuHoPRnvs7HlaSmaK2xQA-g-E=", "properties": {"@source_uri": "https://tools.usps.com/UspsToolsRestServices/rest/POLocator/findLocations", "@spider": "usps_collection_boxes", "addr:city": "ROEBLING", "addr:country": "US", "addr:postcode": "08554", "addr:state": "NJ", "addr:street_address": "51 MAIN ST", "amenity": "post_box", "collection_times": "Mo-Fr 16:30; Sa 13:00", "indoor": "yes", "note": "ON 12/24 AND 12/31, THIS BOX MAY BE COLLECTED AS EARLY AS 12 NOON.", "nsi_id": "unitedstatespostalservice-a77078", "operator": "United States Postal Service", "operator:short": "USPS", "operator:type": "public", "operator:wikidata": "Q668687", "ref": "0855400012"}, "type": "Feature"}
{"geometry": {"coordinates": [-74.474336, 40.218199], "type": "Point"}, "id": "bW4m1rLrVQKP_4e7x4OcGOMiPOc=", "properties": {"@source_uri": "https://tools.usps.com/UspsToolsRestServices/rest/POLocator/findLocations", "@spider": "usps_collection_boxes", "addr:city": "ROOSEVELT", "addr:country": "US", "addr:postcode": "08555", "addr:state": "NJ", "addr:street_address": "1 FARM LN", "amenity": "post_box", "collection_times": "Mo-Fr 16:15; Sa 11:45", "note": "ON 12/24 AND 12/31, THIS BOX MAY BE COLLECTED AS EARLY AS 12 NOON.", "nsi_id": "unitedstatespostalservice-a77078", "operator": "United States Postal Service", "operator:short": "USPS", "operator:type": "public", "operator:wikidata": "Q668687", "ref": "0855500001"}, "type": "Feature"}
{"geometry": {"coordinates": [-74.474438, 40.218251], "type": "Point"}, "id": "ld7Xtze9_JbIHQ98uWWLcqr34xw=", "properties": {"@source_uri": "https://tools.usps.com/UspsToolsRestServices/rest/POLocator/findLocations", "@spider": "usps_collection_boxes", "addr:city": "ROOSEVELT", "addr:country": "US", "addr:postcode": "08555", "addr:state": "NJ", "addr:street_address": "1 FARM LN", "amenity": "post_box", "collection_times": "Mo-Fr 16:15; Sa 11:45", "indoor": "yes", "note": "ON 12/24 AND 12/31, THIS BOX MAY BE COLLECTED AS EARLY AS 12 NOON.", "nsi_id": "unitedstatespostalservice-a77078", "operator": "United States Postal Service", "operator:short": "USPS", "operator:type": "public", "operator:wikidata": "Q668687", "ref": "0855500002"}, "type": "Feature"}
{"geometry": {"coordinates": [-74.474009381, 40.218120944], "type": "Point"}, "id": "hV9HnYJjIwHA4eXgixV4aGa9EHw=", "properties": {"@source_uri": "https://tools.usps.com/UspsToolsRestServices/rest/POLocator/findLocations", "@spider": "usps_collection_boxes", "addr:city": "ROOSEVELT", "addr:country": "US", "addr:postcode": "08555", "addr:state": "NJ", "addr:street_address": "1 FARM LN", "amenity": "post_box", "collection_times": "Mo-Fr 16:30; Sa 12:00", "indoor": "yes", "note": "ON 12/24 AND 12/31, THIS BOX MAY BE COLLECTED AS EARLY AS 12 NOON.", "nsi_id": "unitedstatespostalservice-a77078", "operator": "United States Postal Service", "operator:short": "USPS", "operator:type": "public", "operator:wikidata": "Q668687", "ref": "0855500005"}, "type": "Feature"}
{"geometry": {"coordinates": [-74.9957839935, 40.4269369973], "type": "Point"}, "id": "w_0rUBEettElW_pr12efGLSNL3E=", "properties": {"@source_uri": "https://tools.usps.com/UspsToolsRestServices/rest/POLocator/findLocations", "@spider": "usps_collection_boxes", "addr:city": "ROSEMONT", "addr:country": "US", "addr:postcode": "08556", "addr:state": "NJ", "addr:street_address": "99 KINGWOOD STOCKTON RD", "amenity": "post_box", "collection_times": "Mo-Fr 16:15; Sa 11:45", "note": "ON 12/24 AND 12/31, THIS BOX MAY BE COLLECTED AS EARLY AS 12 NOON.", "nsi_id": "unitedstatespostalservice-a77078", "operator": "United States Postal Service", "operator:short": "USPS", "operator:type": "public", "operator:wikidata": "Q668687", "ref": "0855600001"}, "type": "Feature"}
{"geometry": {"coordinates": [-74.9957839935, 40.4269369973], "type": "Point"}, "id": "JkL-wZDEOYfd6n6dkyUspWHYjcA=", "properties": {"@source_uri": "https://tools.usps.com/UspsToolsRestServices/rest/POLocator/findLocations", "@spider": "usps_collection_boxes", "addr:city": "ROSEMONT", "addr:country": "US", "addr:postcode": "08556", "addr:state": "NJ", "addr:street_address": "99 KINGWOOD STOCKTON RD", "amenity": "post_box", "collection_times": "Mo-Fr 16:15; Sa 11:45", "indoor": "yes", "note": "ON 12/24 AND 12/31, THIS BOX MAY BE COLLECTED AS EARLY AS 12 NOON.", "nsi_id": "unitedstatespostalservice-a77078", "operator": "United States Postal Service", "operator:short": "USPS", "operator:type": "public", "operator:wikidata": "Q668687", "ref": "0855600002"}, "type": "Feature"}
{"geometry": {"coordinates": [-74.9957839935, 40.4269369973], "type": "Point"}, "id": "h14eOxfGbhC1g6hrcheljQVStRo=", "properties": {"@source_uri": "https://tools.usps.com/UspsToolsRestServices/rest/POLocator/findLocations", "@spider": "usps_collection_boxes", "addr:city": "ROSEMONT", "addr:country": "US", "addr:postcode": "08556", "addr:state": "NJ", "addr:street_address": "99 KINGWOOD STOCKTON RD", "amenity": "post_box", "collection_times": "Mo-Fr 16:30; Sa 12:00", "indoor": "yes", "note": "ON 12/24 AND 12/31, THIS BOX MAY BE COLLECTED AS EARLY AS 12 NOON.", "nsi_id": "unitedstatespostalservice-a77078", "operator": "United States Postal Service", "operator:short": "USPS", "operator:type": "public", "operator:wikidata": "Q668687", "ref": "0855600005"}, "type": "Feature"}
{"geometry": {"coordinates": [-74.702519, 40.421627], "type": "Point"}, "id": "H-CDAHgGSapbU_SQkT5S8WaCl8c=", "properties": {"@source_uri": "https://tools.usps.com/UspsToolsRestServices/rest/POLocator/findLocations", "@spider": "usps_collection_boxes", "addr:city": "SKILLMAN", "addr:country": "US", "addr:postcode": "08558", "addr:state": "NJ", "addr:street_address": "950 STATE ROUTE 601", "amenity": "post_box", "collection_times": "Mo-Fr 15:45; Sa 13:15", "note": "ON 12/24 AND 12/31, THIS BOX MAY BE COLLECTED AS EARLY AS 12 NOON.", "nsi_id": "unitedstatespostalservice-a77078", "operator": "United States Postal Service", "operator:short": "USPS", "operator:type": "public", "operator:wikidata": "Q668687", "ref": "0855800001"}, "type": "Feature"}
{"geometry": {"coordinates": [-74.702517, 40.421612], "type": "Point"}, "id": "1QJg-BKUL-PKavKpqdPpJKs_kjg=", "properties": {"@source_uri": "https://tools.usps.com/UspsToolsRestServices/rest/POLocator/findLocations", "@spider": "usps_collection_boxes", "addr:city": "SKILLMAN", "addr:country": "US", "addr:postcode": "08558", "addr:state": "NJ", "addr:street_address": "950 ROUTE 601", "amenity": "post_box", "collection_times": "Mo-Fr 15:45; Sa 13:15", "indoor": "yes", "note": "ON 12/24 AND 12/31, THIS BOX MAY BE COLLECTED AS EARLY AS 12 NOON.", "nsi_id": "unitedstatespostalservice-a77078", "operator": "United States Postal Service", "operator:short": "USPS", "operator:type": "public", "operator:wikidata": "Q668687", "ref": "0855800002"}, "type": "Feature"}
{"geometry": {"coordinates": [-74.702516508, 40.421635062], "type": "Point"}, "id": "6qIOL8nc_JUX5Eo9CRwCZj1sk2I=", "properties": {"@source_uri": "https://tools.usps.com/UspsToolsRestServices/rest/POLocator/findLocations", "@spider": "usps_collection_boxes", "addr:city": "SKILLMAN", "addr:country": "US", "addr:postcode": "08558", "addr:state": "NJ", "addr:street_address": "950 ROUTE 601", "amenity": "post_box", "collection_times": "Mo-Fr 16:00; Sa 13:30", "indoor": "yes", "note": "ON 12/24 AND 12/31, THIS BOX MAY BE COLLECTED AS EARLY AS 12 NOON.", "nsi_id": "unitedstatespostalservice-a77078", "operator": "United States Postal Service", "operator:short": "USPS", "operator:type": "public", "operator:wikidata": "Q668687", "ref": "0855800006"}, "type": "Feature"}
{"geometry": {"coordinates": [-74.978235, 40.40479], "type": "Point"}, "id": "EpAd4731oX4WJ7UrTXzP0tpY1iM=", "properties": {"@source_uri": "https://tools.usps.com/UspsToolsRestServices/rest/POLocator/findLocations", "@spider": "usps_collection_boxes", "addr:city": "STOCKTON", "addr:country": "US", "addr:postcode": "08559", "addr:state": "NJ", "addr:street_address": "2 BRIDGE ST", "amenity": "post_box", "collection_times": "Mo-Fr 16:15; Sa 11:45", "note": "ON 12/24 AND 12/31, THIS BOX MAY BE COLLECTED AS EARLY AS 12 NOON.", "nsi_id": "unitedstatespostalservice-a77078", "operator": "United States Postal Service", "operator:short": "USPS", "operator:type": "public", "operator:wikidata": "Q668687", "ref": "0855900001"}, "type": "Feature"}
{"geometry": {"coordinates": [-74.978211, 40.404882], "type": "Point"}, "id": "mnQLKKVnEcDX4nbJlUrZQkbL7AA=", "properties": {"@source_uri": "https://tools.usps.com/UspsToolsRestServices/rest/POLocator/findLocations", "@spider": "usps_collection_boxes", "addr:city": "STOCKTON", "addr:country": "US", "addr:postcode": "08559", "addr:state": "NJ", "addr:street_address": "2 BRIDGE ST", "amenity": "post_box", "collection_times": "Mo-Fr 16:15; Sa 11:45", "indoor": "yes", "note": "ON 12/24 AND 12/31, THIS BOX MAY BE COLLECTED AS EARLY AS 12 NOON.", "nsi_id": "unitedstatespostalservice-a77078", "operator": "United States Postal Service", "operator:short": "USPS", "operator:type": "public", "operator:wikidata": "Q668687", "ref": "0855900002"}, "type": "Feature"}
{"geometry": {"coordinates": [-74.978337334, 40.404651487], "type": "Point"}, "id": "dAOret9R25Sm_CbyoPdlVYv7Eh8=", "properties": {"@source_uri": "https://tools.usps.com/UspsToolsRestServices/rest/POLocator/findLocations", "@spider": "usps_collection_boxes", "addr:city": "STOCKTON", "addr:country": "US", "addr:postcode": "08559", "addr:state": "NJ", "addr:street_address": "2 BRIDGE ST", "amenity": "post_box", "collection_times": "Mo-Fr 16:30; Sa 12:00", "indoor": "yes", "note": "ON 12/24 AND 12/31, THIS BOX MAY BE COLLECTED AS EARLY AS 12 NOON.", "nsi_id": "unitedstatespostalservice-a77078", "operator": "United States Postal Service", "operator:short": "USPS", "operator:type": "public", "operator:wikidata": "Q668687", "ref": "0855900005"}, "type": "Feature"}
{"geometry": {"coordinates": [-74.869688, 40.300509], "type": "Point"}, "id": "hvpq2UscPpoHqeyy6DbvTft--8c=", "properties": {"@source_uri": "https://tools.usps.com/UspsToolsRestServices/rest/POLocator/findLocations", "@spider": "usps_collection_boxes", "addr:city": "TITUSVILLE", "addr:country": "US", "addr:postcode": "08560", "addr:state": "NJ", "addr:street_address": "1380 RIVER RD", "amenity": "post_box", "collection_times": "Mo-Fr 16:00; Sa 11:45", "note": "ON 12/24 AND 12/31, THIS BOX MAY BE COLLECTED AS EARLY AS 12 NOON.", "nsi_id": "unitedstatespostalservice-a77078", "operator": "United States Postal Service", "operator:short": "USPS", "operator:type": "public", "operator:wikidata": "Q668687", "ref": "0856000001"}, "type": "Feature"}
{"geometry": {"coordinates": [-74.869648, 40.30042], "type": "Point"}, "id": "5ji7miZgeyaUGbBvGtYa4_7oIMA=", "properties": {"@source_uri": "https://tools.usps.com/UspsToolsRestServices/rest/POLocator/findLocations", "@spider": "usps_collection_boxes", "addr:city": "TITUSVILLE", "addr:country": "US", "addr:postcode": "08560", "addr:state": "NJ", "addr:street_address": "1380 RIVER RD", "amenity": "post_box", "collection_times": "Mo-Fr 16:00; Sa 11:45", "indoor": "yes", "note": "ON 12/24 AND 12/31, THIS BOX MAY BE COLLECTED AS EARLY AS 12 NOON.", "nsi_id": "unitedstatespostalservice-a77078", "operator": "United States Postal Service", "operator:short": "USPS", "operator:type": "public", "operator:wikidata": "Q668687", "ref": "0856000002"}, "type": "Feature"}
{"geometry": {"coordinates": [-74.869940379, 40.30077141], "type": "Point"}, "id": "Fn9otwoO7g4OUrwKbGwEQ-BGhPQ=", "properties": {"@source_uri": "https://tools.usps.com/UspsToolsRestServices/rest/POLocator/findLocations", "@spider": "usps_collection_boxes", "addr:city": "TITUSVILLE", "addr:country": "US", "addr:postcode": "08560", "addr:state": "NJ", "addr:street_address": "1380 RIVER RD", "amenity": "post_box", "collection_times": "Mo-Fr 16:15; Sa 12:00", "indoor": "yes", "note": "ON 12/24 AND 12/31, THIS BOX MAY BE COLLECTED AS EARLY AS 12 NOON.", "nsi_id": "unitedstatespostalservice-a77078", "operator": "United States Postal Service", "operator:short": "USPS", "operator:type": "public", "operator:wikidata": "Q668687", "ref": "0856000005"}, "type": "Feature"}
{"geometry": {"coordinates": [-74.583115, 40.240453], "type": "Point"}, "id": "2daFvy1WdhjcG5cl92-qV5ZdSNM=", "properties": {"@source_uri": "https://tools.usps.com/UspsToolsRestServices/rest/POLocator/findLocations", "@spider": "usps_collection_boxes", "addr:city": "WINDSOR", "addr:country": "US", "addr:postcode": "08561", "addr:state": "NJ", "addr:street_address": "39 S MAIN ST", "amenity": "post_box", "collection_times": "Mo-Fr 16:15; Sa 11:45", "note": "ON 12/24 AND 12/31, THIS BOX MAY BE COLLECTED AS EARLY AS 12 NOON.", "nsi_id": "unitedstatespostalservice-a77078", "operator": "United States Postal Service", "operator:short": "USPS", "operator:type": "public", "operator:wikidata": "Q668687", "ref": "0856100001"}, "type": "Feature"}
{"geometry": {"coordinates": [-74.583127, 40.240485], "type": "Point"}, "id": "w7TAqc1Uu68jgi0K5hTDBP4WX0s=", "properties": {"@source_uri": "https://tools.usps.com/UspsToolsRestServices/rest/POLocator/findLocations", "@spider": "usps_collection_boxes", "addr:city": "WINDSOR", "addr:country": "US", "addr:postcode": "08561", "addr:state": "NJ", "addr:street_address": "39 S MAIN ST", "amenity": "post_box", "collection_times": "Mo-Fr 16:15; Sa 11:45", "indoor": "yes", "note": "ON 12/24 AND 12/31, THIS BOX MAY BE COLLECTED AS EARLY AS 12 NOON.", "nsi_id": "unitedstatespostalservice-a77078", "operator": "United States Postal Service", "operator:short": "USPS", "operator:type": "public", "operator:wikidata": "Q668687", "ref": "0856100002"}, "type": "Feature"}
{"geometry": {"coordinates": [-74.583081146, 40.240447275], "type": "Point"}, "id": "NcA46TocZUYByURG3ByjI51-TCo=", "properties": {"@source_uri": "https://tools.usps.com/UspsToolsRestServices/rest/POLocator/findLocations", "@spider": "usps_collection_boxes", "addr:city": "WINDSOR", "addr:country": "US", "addr:postcode": "08561", "addr:state": "NJ", "addr:street_address": "39 S MAIN ST", "amenity": "post_box", "collection_times": "Mo-Fr 16:30; Sa 12:00", "indoor": "yes", "note": "ON 12/24 AND 12/31, THIS BOX MAY BE COLLECTED AS EARLY AS 12 NOON.", "nsi_id": "unitedstatespostalservice-a77078", "operator": "United States Postal Service", "operator:short": "USPS", "operator:type": "public", "operator:wikidata": "Q668687", "ref": "0856100005"}, "type": "Feature"}
{"geometry": {"coordinates": [-74.6167847, 40.036023], "type": "Point"}, "id": "G8s5zC7KR2KgiEAzilw-lMWk998=", "properties": {"@source_uri": "https://tools.usps.com/UspsToolsRestServices/rest/POLocator/findLocations", "@spider": "usps_collection_boxes", "addr:city": "WRIGHTSTOWN", "addr:country": "US", "addr:postcode": "08562", "addr:state": "NJ", "addr:street_address": "10 E MAIN ST", "amenity": "post_box", "collection_times": "Mo-Fr 16:00; Sa 13:00", "note": "ON 12/24 AND 12/31, THIS BOX MAY BE COLLECTED AS EARLY AS 12 NOON.", "nsi_id": "unitedstatespostalservice-a77078", "operator": "United States Postal Service", "operator:short": "USPS", "operator:type": "public", "operator:wikidata": "Q668687", "ref": "0856200002"}, "type": "Feature"}
{"geometry": {"coordinates": [-74.617551, 40.036192], "type": "Point"}, "id": "wmy1oIH1i7cdYJ0_n5-OJVDV2PU=", "properties": {"@source_uri": "https://tools.usps.com/UspsToolsRestServices/rest/POLocator/findLocations", "@spider": "usps_collection_boxes", "addr:city": "WRIGHTSTOWN", "addr:country": "US", "addr:postcode": "08562", "addr:state": "NJ", "addr:street_address": "10 E MAIN ST", "amenity": "post_box", "collection_times": "Mo-Fr 16:00; Sa 13:00", "indoor": "yes", "note": "ON 12/24 AND 12/31, THIS BOX MAY BE COLLECTED AS EARLY AS 12 NOON.", "nsi_id": "unitedstatespostalservice-a77078", "operator": "United States Postal Service", "operator:short": "USPS", "operator:type": "public", "operator:wikidata": "Q668687", "ref": "0856200003"}, "type": "Feature"}
{"geometry": {"coordinates": [-74.616968683, 40.036070747], "type": "Point"}, "id": "M_V-J2fjDs67wTuEIB8PpHsDpoQ=", "properties": {"@source_uri": "https://tools.usps.com/UspsToolsRestServices/rest/POLocator/findLocations", "@spider": "usps_collection_boxes", "addr:city": "WRIGHTSTOWN", "addr:country": "US", "addr:postcode": "08562", "addr:state": "NJ", "addr:street_address": "10 E MAIN ST", "amenity": "post_box", "collection_times": "Mo-Fr 16:30; Sa 12:00", "indoor": "yes", "note": "ON 12/24 AND 12/31, THIS BOX MAY BE COLLECTED AS EARLY AS 12 NOON.", "nsi_id": "unitedstatespostalservice-a77078", "operator": "United States Postal Service", "operator:short": "USPS", "operator:type": "public", "operator:wikidata": "Q668687", "ref": "0856200006"}, "type": "Feature"}
