{"geometry": {"coordinates": [-74.7616691, 40.219348], "type": "Point"}, "id": "is5aTo2a7WK941jVZQeQhvlu1SQ=", "properties": {"@source_uri": "https://tools.usps.com/UspsToolsRestServices/rest/POLocator/findLocations", "@spider": "usps_collection_boxes", "addr:city": "TRENTON", "addr:country": "US", "addr:postcode": "08608", "addr:state": "NJ", "addr:street_address": "20 S MONTGOMERY ST", "amenity": "post_box", "brand": "United States Postal Service", "brand:wikidata": "Q668687", "collection_times": "Mo-Sa 15:00", "name": "USPS COLLECTION BOX - EXPRESS", "note": "ON 12/24 AND 12/31, THIS BOX MAY BE COLLECTED AS EARLY AS 12 NOON.", "nsi_id": "unitedstatespostalservice-a77078", "operator": "United States Postal Service", "operator:short": "USPS", "operator:type": "public", "operator:wikidata": "Q668687", "ref": "0860800001"}, "type": "Feature"}
{"geometry": {"coordinates": [-74.7617187, 40.219311], "type": "Point"}, "id": "4BZWSVXZfE4GtCH-HAd2qgB4bTA=", "properties": {"@source_uri": "https://tools.usps.com/UspsToolsRestServices/rest/POLocator/findLocations", "@spider": "usps_collection_boxes", "addr:city": "TRENTON", "addr:country": "US", "addr:postcode": "08608", "addr:state": "NJ", "addr:street_address": "20 S MONTGOMERY ST", "amenity": "post_box", "brand": "United States Postal Service", "brand:wikidata": "Q668687", "collection_times": "Mo-Sa 15:00", "note": "ON 12/24 AND 12/31, THIS BOX MAY BE COLLECTED AS EARLY AS 12 NOON.", "nsi_id": "unitedstatespostalservice-a77078", "operator": "United States Postal Service", "operator:short": "USPS", "operator:type": "public", "operator:wikidata": "Q668687", "ref": "0860800002"}, "type": "Feature"}
{"geometry": {"coordinates": [-74.7672026, 40.21875], "type": "Point"}, "id": "lC47BHSSQviUwSoNby4umpow6IE=", "properties": {"@source_uri": "https://tools.usps.com/UspsToolsRestServices/rest/POLocator/findLocations", "@spider": "usps_collection_boxes", "addr:city": "TRENTON", "addr:country": "US", "addr:postcode": "08608", "addr:state": "NJ", "addr:street_address": "28 W LAFAYETTE ST", "amenity": "post_box", "brand": "United States Postal Service", "brand:wikidata": "Q668687", "collection_times": "Mo-Sa 10:00", "nsi_id": "unitedstatespostalservice-a77078", "operator": "United States Postal Service", "operator:short": "USPS", "operator:type": "public", "operator:wikidata": "Q668687", "ref": "0860800006"}, "type": "Feature"}
{"geometry": {"coordinates": [-74.7619984, 40.221146], "type": "Point"}, "id": "DBy5XvHiJbH0DCl0Ozf-eoyoWd0=", "properties": {"@source_uri": "https://tools.usps.com/UspsToolsRestServices/rest/POLocator/findLocations", "@spider": "usps_collection_boxes", "addr:city": "TRENTON", "addr:country": "US", "addr:postcode": "08608", "addr:state": "NJ", "addr:street_address": "70 N MONTGOMERY ST", "amenity": "post_box", "brand": "United States Postal Service", "brand:wikidata": "Q668687", "collection_times": "Mo-Sa 10:00", "nsi_id": "unitedstatespostalservice-a77078", "operator": "United States Postal Service", "operator:short": "USPS", "operator:type": "public", "operator:wikidata": "Q668687", "ref": "0860800009"}, "type": "Feature"}
{"geometry": {"coordinates": [-74.7659435, 40.221176], "type": "Point"}, "id": "ZlbPd2LMDzLUeDjQWO7xzzqVrNU=", "properties": {"@source_uri": "https://tools.usps.com/UspsToolsRestServices/rest/POLocator/findLocations", "@spider": "usps_collection_boxes", "addr:city": "TRENTON", "addr:country": "US", "addr:postcode": "08608", "addr:state": "NJ", "addr:street_address": "33 N WARREN ST", "amenity": "post_box", "brand": "United States Postal Service", "brand:wikidata": "Q668687", "collection_times": "Mo-Sa 10:00", "nsi_id": "unitedstatespostalservice-a77078", "operator": "United States Postal Service", "operator:short": "USPS", "operator:type": "public", "operator:wikidata": "Q668687", "ref": "0860800010"}, "type": "Feature"}
{"geometry": {"coordinates": [-74.7662119, 40.21943], "type": "Point"}, "id": "EE5cA1AO5uq-LYtSrrjhINaORj0=", "properties": {"@source_uri": "https://tools.usps.com/UspsToolsRestServices/rest/POLocator/findLocations", "@spider": "usps_collection_boxes", "addr:city": "TRENTON", "addr:country": "US", "addr:postcode": "08608", "addr:state": "NJ", "addr:street_address": "101 S WARREN ST", "amenity": "post_box", "brand": "United States Postal Service", "brand:wikidata": "Q668687", "collection_times": "Mo-Sa 10:00", "nsi_id": "unitedstatespostalservice-a77078", "operator": "United States Postal Service", "operator:short": "USPS", "operator:type": "public", "operator:wikidata": "Q668687", "ref": "0860800013"}, "type": "Feature"}
{"geometry": {"coordinates": [-74.7659357, 40.218135], "type": "Point"}, "id": "yDzeADjLkskqtXfOrqHcGsegkD4=", "properties": {"@source_uri": "https://tools.usps.com/UspsToolsRestServices/rest/POLocator/findLocations", "@spider": "usps_collection_boxes", "addr:city": "TRENTON", "addr:country": "US", "addr:postcode": "08608", "addr:state": "NJ", "addr:street_address": "221 S WARREN ST", "amenity": "post_box", "brand": "United States Postal Service", "brand:wikidata": "Q668687", "collection_times": "Mo-Sa 10:00", "nsi_id": "unitedstatespostalservice-a77078", "operator": "United States Postal Service", "operator:short": "USPS", "operator:type": "public", "operator:wikidata": "Q668687", "ref": "0860800014"}, "type": "Feature"}
{"geometry": {"coordinates": [-74.7663549, 40.220504], "type": "Point"}, "id": "Vh4QLJKD4azzwFC5XdLLxqQ4T8c=", "properties": {"@source_uri": "https://tools.usps.com/UspsToolsRestServices/rest/POLocator/findLocations", "@spider": "usps_collection_boxes", "addr:city": "TRENTON", "addr:country": "US", "addr:postcode": "08608", "addr:state": "NJ", "addr:street_address": "1 W STATE ST", "amenity": "post_box", "brand": "United States Postal Service", "brand:wikidata": "Q668687", "collection_times": "Mo-Sa 10:00", "nsi_id": "unitedstatespostalservice-a77078", "operator": "United States Postal Service", "operator:short": "USPS", "operator:type": "public", "operator:wikidata": "Q668687", "ref": "0860800017"}, "type": "Feature"}
{"geometry": {"coordinates": [-74.7668899, 40.220444], "type": "Point"}, "id": "DNbcoDfvM2t9bhC0yiV22TQMOyQ=", "properties": {"@source_uri": "https://tools.usps.com/UspsToolsRestServices/rest/POLocator/findLocations", "@spider": "usps_collection_boxes", "addr:city": "TRENTON", "addr:country": "US", "addr:postcode": "08608", "addr:state": "NJ", "addr:street_address": "28 W STATE ST", "amenity": "post_box", "brand": "United States Postal Service", "brand:wikidata": "Q668687", "collection_times": "Mo-Sa 11:00", "nsi_id": "unitedstatespostalservice-a77078", "operator": "United States Postal Service", "operator:short": "USPS", "operator:type": "public", "operator:wikidata": "Q668687", "ref": "0860800019"}, "type": "Feature"}
{"geometry": {"coordinates": [-74.7682532, 40.220608], "type": "Point"}, "id": "LZNMJmKNhiZ_yg27271nn6iAUF0=", "properties": {"@source_uri": "https://tools.usps.com/UspsToolsRestServices/rest/POLocator/findLocations", "@spider": "usps_collection_boxes", "addr:city": "TRENTON", "addr:country": "US", "addr:postcode": "08608", "addr:state": "NJ", "addr:street_address": "102 W STATE ST", "amenity": "post_box", "brand": "United States Postal Service", "brand:wikidata": "Q668687", "collection_times": "Mo-Sa 11:00", "nsi_id": "unitedstatespostalservice-a77078", "operator": "United States Postal Service", "operator:short": "USPS", "operator:type": "public", "operator:wikidata": "Q668687", "ref": "0860800022"}, "type": "Feature"}
{"geometry": {"coordinates": [-74.7696714, 40.220957], "type": "Point"}, "id": "vLHZMHMTesriFNICV5qYJgHVliQ=", "properties": {"@source_uri": "https://tools.usps.com/UspsToolsRestServices/rest/POLocator/findLocations", "@spider": "usps_collection_boxes", "addr:city": "TRENTON", "addr:country": "US", "addr:postcode": "08608", "addr:state": "NJ", "addr:street_address": "134 W STATE ST", "amenity": "post_box", "brand": "United States Postal Service", "brand:wikidata": "Q668687", "collection_times": "Mo-Sa 11:00", "nsi_id": "unitedstatespostalservice-a77078", "operator": "United States Postal Service", "operator:short": "USPS", "operator:type": "public", "operator:wikidata": "Q668687", "ref": "0860800024"}, "type": "Feature"}
{"geometry": {"coordinates": [-74.7713306, 40.221445], "type": "Point"}, "id": "iakAHPsdW_NfLF5ipBWFU8Oy8-4=", "properties": {"@source_uri": "https://tools.usps.com/UspsToolsRestServices/rest/POLocator/findLocations", "@spider": "usps_collection_boxes", "addr:city": "TRENTON", "addr:country": "US", "addr:postcode": "08608", "addr:state": "NJ", "addr:street_address": "170 W STATE ST", "amenity": "post_box", "brand": "United States Postal Service", "brand:wikidata": "Q668687", "collection_times": "Mo-Sa 11:00", "nsi_id": "unitedstatespostalservice-a77078", "operator": "United States Postal Service", "operator:short": "USPS", "operator:type": "public", "operator:wikidata": "Q668687", "ref": "0860800025"}, "type": "Feature"}
{"geometry": {"coordinates": [-74.761595, 40.219295], "type": "Point"}, "id": "yMeXgTQDEcCyC6USu2QD9QMHqdI=", "properties": {"@source_uri": "https://tools.usps.com/UspsToolsRestServices/rest/POLocator/findLocations", "@spider": "usps_collection_boxes", "addr:city": "TRENTON", "addr:country": "US", "addr:postcode": "08608", "addr:state": "NJ", "addr:street_address": "20 S MONTGOMERY ST", "amenity": "post_box", "brand": "United States Postal Service", "brand:wikidata": "Q668687", "collection_times": "Mo-Fr 17:15; Sa 16:30", "indoor": "yes", "note": "ON 12/24 AND 12/31, THIS BOX MAY BE COLLECTED AS EARLY AS 12 NOON.", "nsi_id": "unitedstatespostalservice-a77078", "operator": "United States Postal Service", "operator:short": "USPS", "operator:type": "public", "operator:wikidata": "Q668687", "ref": "0860800036"}, "type": "Feature"}
{"geometry": {"coordinates": [-74.761597875, 40.219286951], "type": "Point"}, "id": "e2wd4_DLhJ2L4ZPWoYyLZoZ--KE=", "properties": {"@source_uri": "https://tools.usps.com/UspsToolsRestServices/rest/POLocator/findLocations", "@spider": "usps_collection_boxes", "addr:city": "TRENTON", "addr:country": "US", "addr:postcode": "08608", "addr:state": "NJ", "addr:street_address": "20 S MONTGOMERY ST", "amenity": "post_box", "brand": "United States Postal Service", "brand:wikidata": "Q668687", "collection_times": "Mo-Fr 16:30; Sa 14:00", "indoor": "yes", "note": "ON 12/24 AND 12/31, THIS BOX MAY BE COLLECTED AS EARLY AS 12 NOON.", "nsi_id": "unitedstatespostalservice-a77078", "operator": "United States Postal Service", "operator:short": "USPS", "operator:type": "public", "operator:wikidata": "Q668687", "ref": "0860800040"}, "type": "Feature"}
{"geometry": {"coordinates": [-74.761593375, 40.219295951], "type": "Point"}, "id": "i38YNO7bCHXKQXrwve-1yTj7Agk=", "properties": {"@source_uri": "https://tools.usps.com/UspsToolsRestServices/rest/POLocator/findLocations", "@spider": "usps_collection_boxes", "addr:city": "TRENTON", "addr:country": "US", "addr:postcode": "08608", "addr:state": "NJ", "addr:street_address": "20 S MONTGOMERY ST", "amenity": "post_box", "brand": "United States Postal Service", "brand:wikidata": "Q668687", "collection_times": "Mo-Sa 15:00", "note": "ON 12/24 AND 12/31, THIS BOX MAY BE COLLECTED AS EARLY AS 12 NOON.", "nsi_id": "unitedstatespostalservice-a77078", "operator": "United States Postal Service", "operator:short": "USPS", "operator:type": "public", "operator:wikidata": "Q668687", "ref": "0860800041"}, "type": "Feature"}
{"geometry": {"coordinates": [-74.7451773, 40.2198], "type": "Point"}, "id": "xSVwbhquJb3yVey9zwvgNURK3Rc=", "properties": {"@source_uri": "https://tools.usps.com/UspsToolsRestServices/rest/POLocator/findLocations", "@spider": "usps_collection_boxes", "addr:city": "TRENTON", "addr:country": "US", "addr:postcode": "08609", "addr:state": "NJ", "addr:street_address": "739 GREENWOOD AVE", "amenity": "post_box", "brand": "United States Postal Service", "brand:wikidata": "Q668687", "collection_times": "Mo-Sa 10:00", "nsi_id": "unitedstatespostalservice-a77078", "operator": "United States Postal Service", "operator:short": "USPS", "operator:type": "public", "operator:wikidata": "Q668687", "ref": "0860900003"}, "type": "Feature"}
{"geometry": {"coordinates": [-74.7505304, 40.217466], "type": "Point"}, "id": "BfCY3-Z_15BCJ8pkpQDp_KePF9E=", "properties": {"@source_uri": "https://tools.usps.com/UspsToolsRestServices/rest/POLocator/findLocations", "@spider": "usps_collection_boxes", "addr:city": "TRENTON", "addr:country": "US", "addr:postcode": "08609", "addr:state": "NJ", "addr:street_address": "511 GREENWOOD AVE", "amenity": "post_box", "brand": "United States Postal Service", "brand:wikidata": "Q668687", "collection_times": "Mo-Sa 10:00", "nsi_id": "unitedstatespostalservice-a77078", "operator": "United States Postal Service", "operator:short": "USPS", "operator:type": "public", "operator:wikidata": "Q668687", "ref": "0860900004"}, "type": "Feature"}
{"geometry": {"coordinates": [-74.7517891, 40.217122], "type": "Point"}, "id": "Fpirum1VT271yrqg8ithoZTA9tI=", "properties": {"@source_uri": "https://tools.usps.com/UspsToolsRestServices/rest/POLocator/findLocations", "@spider": "usps_collection_boxes", "addr:city": "TRENTON", "addr:country": "US", "addr:postcode": "08609", "addr:state": "NJ", "addr:street_address": "465 GREENWOOD AVE", "amenity": "post_box", "brand": "United States Postal Service", "brand:wikidata": "Q668687", "collection_times": "Mo-Sa 10:00", "nsi_id": "unitedstatespostalservice-a77078", "operator": "United States Postal Service", "operator:short": "USPS", "operator:type": "public", "operator:wikidata": "Q668687", "ref": "0860900005"}, "type": "Feature"}
{"geometry": {"coordinates": [-74.7516683, 40.214673], "type": "Point"}, "id": "fQLJ4rg3_IQfZZ8C6WtxHutBfEE=", "properties": {"@source_uri": "https://tools.usps.com/UspsToolsRestServices/rest/POLocator/findLocations", "@spider": "usps_collection_boxes", "addr:city": "TRENTON", "addr:country": "US", "addr:postcode": "08609", "addr:state": "NJ", "addr:street_address": "271 HAMILTON AVE", "amenity": "post_box", "brand": "United States Postal Service", "brand:wikidata": "Q668687", "collection_times": "Mo-Sa 10:00", "nsi_id": "unitedstatespostalservice-a77078", "operator": "United States Postal Service", "operator:short": "USPS", "operator:type": "public", "operator:wikidata": "Q668687", "ref": "0860900006"}, "type": "Feature"}
{"geometry": {"coordinates": [-74.749075, 40.220905], "type": "Point"}, "id": "ZwtQD0qe6GBfXLCaFHRshYi2b1c=", "properties": {"@source_uri": "https://tools.usps.com/UspsToolsRestServices/rest/POLocator/findLocations", "@spider": "usps_collection_boxes", "addr:city": "TRENTON", "addr:country": "US", "addr:postcode": "08609", "addr:state": "NJ", "addr:street_address": "534 HAMILTON AVE", "amenity": "post_box", "brand": "United States Postal Service", "brand:wikidata": "Q668687", "collection_times": "Mo-Sa 10:00", "nsi_id": "unitedstatespostalservice-a77078", "operator": "United States Postal Service", "operator:short": "USPS", "operator:type": "public", "operator:wikidata": "Q668687", "ref": "0860900007"}, "type": "Feature"}
{"geometry": {"coordinates": [-74.7280152, 40.228317], "type": "Point"}, "id": "h18m1SVc8L0WoRRN7IfYyO_zOGo=", "properties": {"@source_uri": "https://tools.usps.com/UspsToolsRestServices/rest/POLocator/findLocations", "@spider": "usps_collection_boxes", "addr:city": "TRENTON", "addr:country": "US", "addr:postcode": "08609", "addr:state": "NJ", "addr:street_address": "1901 GREENWOOD AVE", "amenity": "post_box", "brand": "United States Postal Service", "brand:wikidata": "Q668687", "collection_times": "Mo-Sa 10:00", "nsi_id": "unitedstatespostalservice-a77078", "operator": "United States Postal Service", "operator:short": "USPS", "operator:type": "public", "operator:wikidata": "Q668687", "ref": "0860900010"}, "type": "Feature"}
{"geometry": {"coordinates": [-74.7236666, 40.230538], "type": "Point"}, "id": "Dm5Kavqf-FtAYcvm9wRlnmz109k=", "properties": {"@source_uri": "https://tools.usps.com/UspsToolsRestServices/rest/POLocator/findLocations", "@spider": "usps_collection_boxes", "addr:city": "TRENTON", "addr:country": "US", "addr:postcode": "08609", "addr:state": "NJ", "addr:street_address": "2090 GREENWOOD AVE", "amenity": "post_box", "brand": "United States Postal Service", "brand:wikidata": "Q668687", "collection_times": "Mo-Sa 10:00", "nsi_id": "unitedstatespostalservice-a77078", "operator": "United States Postal Service", "operator:short": "USPS", "operator:type": "public", "operator:wikidata": "Q668687", "ref": "0860900013"}, "type": "Feature"}
{"geometry": {"coordinates": [-74.7483504, 40.215704], "type": "Point"}, "id": "QYFLQfz9-dvsJeaikFDw3zjPoVU=", "properties": {"@source_uri": "https://tools.usps.com/UspsToolsRestServices/rest/POLocator/findLocations", "@spider": "usps_collection_boxes", "addr:city": "TRENTON", "addr:country": "US", "addr:postcode": "08609", "addr:state": "NJ", "addr:street_address": "360 HAMILTON AVE", "amenity": "post_box", "brand": "United States Postal Service", "brand:wikidata": "Q668687", "collection_times": "Mo-Sa 10:00", "nsi_id": "unitedstatespostalservice-a77078", "operator": "United States Postal Service", "operator:short": "USPS", "operator:type": "public", "operator:wikidata": "Q668687", "ref": "0860900014"}, "type": "Feature"}
{"geometry": {"coordinates": [-74.7368961, 40.224066], "type": "Point"}, "id": "Kip_emVoIdGbeN0lLq9VeAmSvGs=", "properties": {"@source_uri": "https://tools.usps.com/UspsToolsRestServices/rest/POLocator/findLocations", "@spider": "usps_collection_boxes", "addr:city": "TRENTON", "addr:country": "US", "addr:postcode": "08609", "addr:state": "NJ", "addr:street_address": "1235 GREENWOOD AVE", "amenity": "post_box", "brand": "United States Postal Service", "brand:wikidata": "Q668687", "collection_times": "Mo-Sa 10:00", "nsi_id": "unitedstatespostalservice-a77078", "operator": "United States Postal Service", "operator:short": "USPS", "operator:type": "public", "operator:wikidata": "Q668687", "ref": "0860900015"}, "type": "Feature"}
{"geometry": {"coordinates": [-74.7448666, 40.216465], "type": "Point"}, "id": "_7QodmPFdshiA3Ahv-p_LWiHe0I=", "properties": {"@source_uri": "https://tools.usps.com/UspsToolsRestServices/rest/POLocator/findLocations", "@spider": "usps_collection_boxes", "addr:city": "TRENTON", "addr:country": "US", "addr:postcode": "08609", "addr:state": "NJ", "addr:street_address": "485 HAMILTON AVE", "amenity": "post_box", "brand": "United States Postal Service", "brand:wikidata": "Q668687", "collection_times": "Mo-Sa 10:00", "nsi_id": "unitedstatespostalservice-a77078", "operator": "United States Postal Service", "operator:short": "USPS", "operator:type": "public", "operator:wikidata": "Q668687", "ref": "0860900016"}, "type": "Feature"}
{"geometry": {"coordinates": [-74.7551571003, 40.2197151998], "type": "Point"}, "id": "X3wo4KlTKBabSyapvV5tDkwME7U=", "properties": {"@source_uri": "https://tools.usps.com/UspsToolsRestServices/rest/POLocator/findLocations", "@spider": "usps_collection_boxes", "addr:city": "TRENTON", "addr:country": "US", "addr:postcode": "08609", "addr:state": "NJ", "addr:street_address": "44 S CLINTON AVE", "amenity": "post_box", "brand": "United States Postal Service", "brand:wikidata": "Q668687", "collection_times": "Mo-Sa 11:00", "nsi_id": "unitedstatespostalservice-a77078", "operator": "United States Postal Service", "operator:short": "USPS", "operator:type": "public", "operator:wikidata": "Q668687", "ref": "0860900017"}, "type": "Feature"}
{"geometry": {"coordinates": [-74.7318795, 40.231772], "type": "Point"}, "id": "frNY97ZWSpS60cHKoGr_Aik3KL4=", "properties": {"@source_uri": "https://tools.usps.com/UspsToolsRestServices/rest/POLocator/findLocations", "@spider": "usps_collection_boxes", "addr:city": "TRENTON", "addr:country": "US", "addr:postcode": "08609", "addr:state": "NJ", "addr:street_address": "1601 E STATE ST", "amenity": "post_box", "brand": "United States Postal Service", "brand:wikidata": "Q668687", "collection_times": "Mo-Sa 11:00", "nsi_id": "unitedstatespostalservice-a77078", "operator": "United States Postal Service", "operator:short": "USPS", "operator:type": "public", "operator:wikidata": "Q668687", "ref": "0860900020"}, "type": "Feature"}
{"geometry": {"coordinates": [-74.7551571003, 40.2197151998], "type": "Point"}, "id": "LotvRp3OdUfYPDSJkSOXKgoqWEA=", "properties": {"@source_uri": "https://tools.usps.com/UspsToolsRestServices/rest/POLocator/findLocations", "@spider": "usps_collection_boxes", "addr:city": "TRENTON", "addr:country": "US", "addr:postcode": "08609", "addr:state": "NJ", "addr:street_address": "44 S CLINTON AVE", "amenity": "post_box", "brand": "United States Postal Service", "brand:wikidata": "Q668687", "collection_times": "Mo-Sa 11:00", "nsi_id": "unitedstatespostalservice-a77078", "operator": "United States Postal Service", "operator:short": "USPS", "operator:type": "public", "operator:wikidata": "Q668687", "ref": "0860900025"}, "type": "Feature"}
{"geometry": {"coordinates": [-74.708450006, 40.200869986], "type": "Point"}, "id": "gDy-sJkMPaBFvVPOnz1LBKRK4ps=", "properties": {"@source_uri": "https://tools.usps.com/UspsToolsRestServices/rest/POLocator/findLocations", "@spider": "usps_collection_boxes", "addr:city": "TRENTON", "addr:country": "US", "addr:postcode": "08610", "addr:state": "NJ", "addr:street_address": "1 BRADFORD AVE", "amenity": "post_box", "brand": "United States Postal Service", "brand:wikidata": "Q668687", "collection_times": "Mo-Sa 11:00", "nsi_id": "unitedstatespostalservice-a77078", "operator": "United States Postal Service", "operator:short": "USPS", "operator:type": "public", "operator:wikidata": "Q668687", "ref": "0861000003"}, "type": "Feature"}
{"geometry": {"coordinates": [-74.7346814, 40.206001], "type": "Point"}, "id": "xZH65WlcFvHMs6Q4yF0FtrSN1eA=", "properties": {"@source_uri": "https://tools.usps.com/UspsToolsRestServices/rest/POLocator/findLocations", "@spider": "usps_collection_boxes", "addr:city": "TRENTON", "addr:country": "US", "addr:postcode": "08610", "addr:state": "NJ", "addr:street_address": "1331 CHAMBERS ST", "amenity": "post_box", "brand": "United States Postal Service", "brand:wikidata": "Q668687", "collection_times": "Mo-Sa 11:00", "nsi_id": "unitedstatespostalservice-a77078", "operator": "United States Postal Service", "operator:short": "USPS", "operator:type": "public", "operator:wikidata": "Q668687", "ref": "0861000004"}, "type": "Feature"}
{"geometry": {"coordinates": [-74.7341974, 40.210318], "type": "Point"}, "id": "2jjWSZWX2_SbTo9bcC_SJSccAJM=", "properties": {"@source_uri": "https://tools.usps.com/UspsToolsRestServices/rest/POLocator/findLocations", "@spider": "usps_collection_boxes", "addr:city": "TRENTON", "addr:country": "US", "addr:postcode": "08610", "addr:state": "NJ", "addr:street_address": "205 E FRANKLIN ST", "amenity": "post_box", "brand": "United States Postal Service", "brand:wikidata": "Q668687", "collection_times": "Mo-Sa 11:00", "nsi_id": "unitedstatespostalservice-a77078", "operator": "United States Postal Service", "operator:short": "USPS", "operator:type": "public", "operator:wikidata": "Q668687", "ref": "0861000008"}, "type": "Feature"}
{"geometry": {"coordinates": [-74.711459, 40.194472], "type": "Point"}, "id": "UsFlsqIpjA-fOGvJx2WH_e4bLwc=", "properties": {"@source_uri": "https://tools.usps.com/UspsToolsRestServices/rest/POLocator/findLocations", "@spider": "usps_collection_boxes", "addr:city": "TRENTON", "addr:country": "US", "addr:postcode": "08610", "addr:state": "NJ", "addr:street_address": "172 FETTER AVE", "amenity": "post_box", "brand": "United States Postal Service", "brand:wikidata": "Q668687", "collection_times": "Mo-Sa 11:00", "nsi_id": "unitedstatespostalservice-a77078", "operator": "United States Postal Service", "operator:short": "USPS", "operator:type": "public", "operator:wikidata": "Q668687", "ref": "0861000009"}, "type": "Feature"}
{"geometry": {"coordinates": [-74.68992, 40.197975], "type": "Point"}, "id": "HewhmObpN2vVigSWrLJat6KNF_w=", "properties": {"@source_uri": "https://tools.usps.com/UspsToolsRestServices/rest/POLocator/findLocations", "@spider": "usps_collection_boxes", "addr:city": "TRENTON", "addr:country": "US", "addr:postcode": "08610", "addr:state": "NJ", "addr:street_address": "99 HEMPSTEAD RD", "amenity": "post_box", "brand": "United States Postal Service", "brand:wikidata": "Q668687", "collection_times": "Mo-Sa 10:00", "nsi_id": "unitedstatespostalservice-a77078", "operator": "United States Postal Service", "operator:short": "USPS", "operator:type": "public", "operator:wikidata": "Q668687", "ref": "0861000011"}, "type": "Feature"}
{"geometry": {"coordinates": [-74.7151877788, 40.1879821521], "type": "Point"}, "id": "-MoCt94gogPo-F0CmrIUjbrnPpI=", "properties": {"@source_uri": "https://tools.usps.com/UspsToolsRestServices/rest/POLocator/findLocations", "@spider": "usps_collection_boxes", "addr:city": "TRENTON", "addr:country": "US", "addr:postcode": "08610", "addr:state": "NJ", "addr:street_address": "820 INDEPENDENCE AVE", "amenity": "post_box", "brand": "United States Postal Service", "brand:wikidata": "Q668687", "collection_times": "Mo-Sa 11:00", "nsi_id": "unitedstatespostalservice-a77078", "operator": "United States Postal Service", "operator:short": "USPS", "operator:type": "public", "operator:wikidata": "Q668687", "ref": "0861000012"}, "type": "Feature"}
{"geometry": {"coordinates": [-74.7273077, 40.214363], "type": "Point"}, "id": "WJ2ETjOwXO8kt2XYIJsgT1uu-qM=", "properties": {"@source_uri": "https://tools.usps.com/UspsToolsRestServices/rest/POLocator/findLocations", "@spider": "usps_collection_boxes", "addr:city": "TRENTON", "addr:country": "US", "addr:postcode": "08610", "addr:state": "NJ", "addr:street_address": "930 S OLDEN AVE", "amenity": "post_box", "brand": "United States Postal Service", "brand:wikidata": "Q668687", "collection_times": "Mo-Sa 11:00", "nsi_id": "unitedstatespostalservice-a77078", "operator": "United States Postal Service", "operator:short": "USPS", "operator:type": "public", "operator:wikidata": "Q668687", "ref": "0861000016"}, "type": "Feature"}
{"geometry": {"coordinates": [-74.7110833, 40.203768], "type": "Point"}, "id": "xv3uHa6DGfEVVX1hiRZmUp_6q4A=", "properties": {"@source_uri": "https://tools.usps.com/UspsToolsRestServices/rest/POLocator/findLocations", "@spider": "usps_collection_boxes", "addr:city": "TRENTON", "addr:country": "US", "addr:postcode": "08610", "addr:state": "NJ", "addr:street_address": "255 REEVES AVE", "amenity": "post_box", "brand": "United States Postal Service", "brand:wikidata": "Q668687", "collection_times": "Mo-Sa 11:00", "nsi_id": "unitedstatespostalservice-a77078", "operator": "United States Postal Service", "operator:short": "USPS", "operator:type": "public", "operator:wikidata": "Q668687", "ref": "0861000020"}, "type": "Feature"}
{"geometry": {"coordinates": [-74.7360799, 40.201245], "type": "Point"}, "id": "ddhrf7AGMePx9lqKGxyhDiysYUs=", "properties": {"@source_uri": "https://tools.usps.com/UspsToolsRestServices/rest/POLocator/findLocations", "@spider": "usps_collection_boxes", "addr:city": "TRENTON", "addr:country": "US", "addr:postcode": "08610", "addr:state": "NJ", "addr:street_address": "1450 S BROAD ST", "amenity": "post_box", "brand": "United States Postal Service", "brand:wikidata": "Q668687", "collection_times": "Mo-Sa 11:00", "nsi_id": "unitedstatespostalservice-a77078", "operator": "United States Postal Service", "operator:short": "USPS", "operator:type": "public", "operator:wikidata": "Q668687", "ref": "0861000022"}, "type": "Feature"}
{"geometry": {"coordinates": [-74.7330666, 40.19999], "type": "Point"}, "id": "F9WNnFgppzpC-3W1__E5nH91sCk=", "properties": {"@source_uri": "https://tools.usps.com/UspsToolsRestServices/rest/POLocator/findLocations", "@spider": "usps_collection_boxes", "addr:city": "TRENTON", "addr:country": "US", "addr:postcode": "08610", "addr:state": "NJ", "addr:street_address": "1708 S BROAD ST", "amenity": "post_box", "brand": "United States Postal Service", "brand:wikidata": "Q668687", "collection_times": "Mo-Sa 11:00", "nsi_id": "unitedstatespostalservice-a77078", "operator": "United States Postal Service", "operator:short": "USPS", "operator:type": "public", "operator:wikidata": "Q668687", "ref": "0861000023"}, "type": "Feature"}
{"geometry": {"coordinates": [-74.706388, 40.188977], "type": "Point"}, "id": "7qqhOyk0x7wEWO0P5z6nOihHZEo=", "properties": {"@source_uri": "https://tools.usps.com/UspsToolsRestServices/rest/POLocator/findLocations", "@spider": "usps_collection_boxes", "addr:city": "TRENTON", "addr:country": "US", "addr:postcode": "08610", "addr:state": "NJ", "addr:street_address": "3048 S BROAD ST", "amenity": "post_box", "brand": "United States Postal Service", "brand:wikidata": "Q668687", "collection_times": "Mo-Sa 11:00", "nsi_id": "unitedstatespostalservice-a77078", "operator": "United States Postal Service", "operator:short": "USPS", "operator:type": "public", "operator:wikidata": "Q668687", "ref": "0861000027"}, "type": "Feature"}
{"geometry": {"coordinates": [-74.7014709, 40.188026], "type": "Point"}, "id": "fht3muHOUXLM0Dhd8KhwqPYAQ3w=", "properties": {"@source_uri": "https://tools.usps.com/UspsToolsRestServices/rest/POLocator/findLocations", "@spider": "usps_collection_boxes", "addr:city": "TRENTON", "addr:country": "US", "addr:postcode": "08610", "addr:state": "NJ", "addr:street_address": "3301 S BROAD ST", "amenity": "post_box", "brand": "United States Postal Service", "brand:wikidata": "Q668687", "collection_times": "Mo-Sa 11:00", "nsi_id": "unitedstatespostalservice-a77078", "operator": "United States Postal Service", "operator:short": "USPS", "operator:type": "public", "operator:wikidata": "Q668687", "ref": "0861000028"}, "type": "Feature"}
{"geometry": {"coordinates": [-74.7134146, 40.207486], "type": "Point"}, "id": "bQJNmStaja7dlRlcW9Mp6vqqBpU=", "properties": {"@source_uri": "https://tools.usps.com/UspsToolsRestServices/rest/POLocator/findLocations", "@spider": "usps_collection_boxes", "addr:city": "TRENTON", "addr:country": "US", "addr:postcode": "08610", "addr:state": "NJ", "addr:street_address": "1590 S OLDEN AVE", "amenity": "post_box", "brand": "United States Postal Service", "brand:wikidata": "Q668687", "collection_times": "Mo-Sa 11:00", "nsi_id": "unitedstatespostalservice-a77078", "operator": "United States Postal Service", "operator:short": "USPS", "operator:type": "public", "operator:wikidata": "Q668687", "ref": "0861000033"}, "type": "Feature"}
{"geometry": {"coordinates": [-74.6845994, 40.19647], "type": "Point"}, "id": "2UjG_X1UbDtn2v9oXnW8manudNY=", "properties": {"@source_uri": "https://tools.usps.com/UspsToolsRestServices/rest/POLocator/findLocations", "@spider": "usps_collection_boxes", "addr:city": "TRENTON", "addr:country": "US", "addr:postcode": "08610", "addr:state": "NJ", "addr:street_address": "349 SHARPS LN", "amenity": "post_box", "brand": "United States Postal Service", "brand:wikidata": "Q668687", "collection_times": "Mo-Sa 11:00", "nsi_id": "unitedstatespostalservice-a77078", "operator": "United States Postal Service", "operator:short": "USPS", "operator:type": "public", "operator:wikidata": "Q668687", "ref": "0861000036"}, "type": "Feature"}
{"geometry": {"coordinates": [-74.746048147, 40.199245183], "type": "Point"}, "id": "8UjZrP1S8KI4ShdkSJNKuqKCWr0=", "properties": {"@source_uri": "https://tools.usps.com/UspsToolsRestServices/rest/POLocator/findLocations", "@spider": "usps_collection_boxes", "addr:city": "TRENTON", "addr:country": "US", "addr:postcode": "08610", "addr:state": "NJ", "addr:street_address": "1 STENTON CT", "amenity": "post_box", "brand": "United States Postal Service", "brand:wikidata": "Q668687", "collection_times": "Mo-Sa 11:00", "nsi_id": "unitedstatespostalservice-a77078", "operator": "United States Postal Service", "operator:short": "USPS", "operator:type": "public", "operator:wikidata": "Q668687", "ref": "0861000037"}, "type": "Feature"}
{"geometry": {"coordinates": [-74.7181736, 40.207265], "type": "Point"}, "id": "k1XHIfoaqmdFPYebzt0yWe4MPM0=", "properties": {"@source_uri": "https://tools.usps.com/UspsToolsRestServices/rest/POLocator/findLocations", "@spider": "usps_collection_boxes", "addr:city": "TRENTON", "addr:country": "US", "addr:postcode": "08610", "addr:state": "NJ", "addr:street_address": "100 WERT AVE", "amenity": "post_box", "brand": "United States Postal Service", "brand:wikidata": "Q668687", "collection_times": "Mo-Sa 11:00", "nsi_id": "unitedstatespostalservice-a77078", "operator": "United States Postal Service", "operator:short": "USPS", "operator:type": "public", "operator:wikidata": "Q668687", "ref": "0861000039"}, "type": "Feature"}
{"geometry": {"coordinates": [-74.6951333, 40.206728], "type": "Point"}, "id": "GoaBYH7XLZ3RhKRNB79mXj6XOFw=", "properties": {"@source_uri": "https://tools.usps.com/UspsToolsRestServices/rest/POLocator/findLocations", "@spider": "usps_collection_boxes", "addr:city": "TRENTON", "addr:country": "US", "addr:postcode": "08610", "addr:state": "NJ", "addr:street_address": "1058 WHITEHORSE AVE", "amenity": "post_box", "brand": "United States Postal Service", "brand:wikidata": "Q668687", "collection_times": "Mo-Sa 11:00", "nsi_id": "unitedstatespostalservice-a77078", "operator": "United States Postal Service", "operator:short": "USPS", "operator:type": "public", "operator:wikidata": "Q668687", "ref": "0861000042"}, "type": "Feature"}
{"geometry": {"coordinates": [-74.7370204, 40.204304], "type": "Point"}, "id": "wBcc9KgF9NSOR0p5rB2ErtGDgzI=", "properties": {"@source_uri": "https://tools.usps.com/UspsToolsRestServices/rest/POLocator/findLocations", "@spider": "usps_collection_boxes", "addr:city": "TRENTON", "addr:country": "US", "addr:postcode": "08610", "addr:state": "NJ", "addr:street_address": "502 WILLIAM ST", "amenity": "post_box", "brand": "United States Postal Service", "brand:wikidata": "Q668687", "collection_times": "Mo-Sa 11:00", "nsi_id": "unitedstatespostalservice-a77078", "operator": "United States Postal Service", "operator:short": "USPS", "operator:type": "public", "operator:wikidata": "Q668687", "ref": "0861000043"}, "type": "Feature"}
{"geometry": {"coordinates": [-74.7427521, 40.203703], "type": "Point"}, "id": "ko8VgXlYQBugqbqKhu3EZ2g7DTI=", "properties": {"@source_uri": "https://tools.usps.com/UspsToolsRestServices/rest/POLocator/findLocations", "@spider": "usps_collection_boxes", "addr:city": "TRENTON", "addr:country": "US", "addr:postcode": "08610", "addr:state": "NJ", "addr:street_address": "1201 S BROAD ST", "amenity": "post_box", "brand": "United States Postal Service", "brand:wikidata": "Q668687", "collection_times": "Mo-Sa 11:00", "nsi_id": "unitedstatespostalservice-a77078", "operator": "United States Postal Service", "operator:short": "USPS", "operator:type": "public", "operator:wikidata": "Q668687", "ref": "0861000047"}, "type": "Feature"}
{"geometry": {"coordinates": [-74.704674, 40.187978], "type": "Point"}, "id": "1HTAMGGiynuUUel0Js09Ai1u0yg=", "properties": {"@source_uri": "https://tools.usps.com/UspsToolsRestServices/rest/POLocator/findLocations", "@spider": "usps_collection_boxes", "addr:city": "TRENTON", "addr:country": "US", "addr:postcode": "08610", "addr:state": "NJ", "addr:street_address": "127 ROUTE 206", "amenity": "post_box", "brand": "United States Postal Service", "brand:wikidata": "Q668687", "collection_times": "Mo-Sa 10:00", "nsi_id": "unitedstatespostalservice-a77078", "operator": "United States Postal Service", "operator:short": "USPS", "operator:type": "public", "operator:wikidata": "Q668687", "ref": "0861000048"}, "type": "Feature"}
{"geometry": {"coordinates": [-74.73437, 40.202295], "type": "Point"}, "id": "_rRAbZxiP4yH-ZQ8-QsjrSOsn_M=", "properties": {"@source_uri": "https://tools.usps.com/UspsToolsRestServices/rest/POLocator/findLocations", "@spider": "usps_collection_boxes", "addr:city": "TRENTON", "addr:country": "US", "addr:postcode": "08610", "addr:state": "NJ", "addr:street_address": "2465 S BROAD ST STE C2", "amenity": "post_box", "brand": "United States Postal Service", "brand:wikidata": "Q668687", "collection_times": "Mo-Sa 15:00", "note": "ON 12/24 AND 12/31, THIS BOX MAY BE COLLECTED AS EARLY AS 12 NOON.", "nsi_id": "unitedstatespostalservice-a77078", "operator": "United States Postal Service", "operator:short": "USPS", "operator:type": "public", "operator:wikidata": "Q668687", "ref": "0861000049"}, "type": "Feature"}
{"geometry": {"coordinates": [-74.6960222, 40.203928], "type": "Point"}, "id": "_RqwTdAtF5Mj9tnc9ywVLu90O-s=", "properties": {"@source_uri": "https://tools.usps.com/UspsToolsRestServices/rest/POLocator/findLocations", "@spider": "usps_collection_boxes", "addr:city": "TRENTON", "addr:country": "US", "addr:postcode": "08610", "addr:state": "NJ", "addr:street_address": "941 WHITEHORSE AVE", "amenity": "post_box", "brand": "United States Postal Service", "brand:wikidata": "Q668687", "collection_times": "Mo-Sa 10:00", "nsi_id": "unitedstatespostalservice-a77078", "operator": "United States Postal Service", "operator:short": "USPS", "operator:type": "public", "operator:wikidata": "Q668687", "ref": "0861000050"}, "type": "Feature"}
{"geometry": {"coordinates": [-74.718952, 40.193964], "type": "Point"}, "id": "upvlz9j7ZW0ZgKHM2HXyUZoQcZU=", "properties": {"@source_uri": "https://tools.usps.com/UspsToolsRestServices/rest/POLocator/findLocations", "@spider": "usps_collection_boxes", "addr:city": "TRENTON", "addr:country": "US", "addr:postcode": "08610", "addr:state": "NJ", "addr:street_address": "2465 S BROAD ST STE C2", "amenity": "post_box", "brand": "United States Postal Service", "brand:wikidata": "Q668687", "collection_times": "Mo-Fr 16:30; Sa 14:00", "indoor": "yes", "note": "ON 12/24 AND 12/31, THIS BOX MAY BE COLLECTED AS EARLY AS 12 NOON.", "nsi_id": "unitedstatespostalservice-a77078", "operator": "United States Postal Service", "operator:short": "USPS", "operator:type": "public", "operator:wikidata": "Q668687", "ref": "0861000051"}, "type": "Feature"}
{"geometry": {"coordinates": [-74.7189487912, 40.1939618144], "type": "Point"}, "id": "uXmRKblgMOj49gYsvkZnpLGmJtE=", "properties": {"@source_uri": "https://tools.usps.com/UspsToolsRestServices/rest/POLocator/findLocations", "@spider": "usps_collection_boxes", "addr:city": "TRENTON", "addr:country": "US", "addr:postcode": "08610", "addr:state": "NJ", "addr:street_address": "2465 S BROAD ST STE C2", "amenity": "post_box", "brand": "United States Postal Service", "brand:wikidata": "Q668687", "collection_times": "Mo-Fr 16:15; Sa 13:45", "indoor": "yes", "note": "ON 12/24 AND 12/31, THIS BOX MAY BE COLLECTED AS EARLY AS 12 NOON.", "nsi_id": "unitedstatespostalservice-a77078", "operator": "United States Postal Service", "operator:short": "USPS", "operator:type": "public", "operator:wikidata": "Q668687", "ref": "0861000054"}, "type": "Feature"}
{"geometry": {"coordinates": [-74.73437, 40.202295], "type": "Point"}, "id": "SflluKu_MlzG8a11DR2lqtmD5hs=", "properties": {"@source_uri": "https://tools.usps.com/UspsToolsRestServices/rest/POLocator/findLocations", "@spider": "usps_collection_boxes", "addr:city": "TRENTON", "addr:country": "US", "addr:postcode": "08610", "addr:state": "NJ", "addr:street_address": "1301 S BROAD ST", "amenity": "post_box", "brand": "United States Postal Service", "brand:wikidata": "Q668687", "collection_times": "Mo-Sa 12:00", "nsi_id": "unitedstatespostalservice-a77078", "operator": "United States Postal Service", "operator:short": "USPS", "operator:type": "public", "operator:wikidata": "Q668687", "ref": "0861000055"}, "type": "Feature"}
{"geometry": {"coordinates": [-74.7476571, 40.214141], "type": "Point"}, "id": "DTnY6tBK2oZzBVCWsZXmB7YMg-8=", "properties": {"@source_uri": "https://tools.usps.com/UspsToolsRestServices/rest/POLocator/findLocations", "@spider": "usps_collection_boxes", "addr:city": "TRENTON", "addr:country": "US", "addr:postcode": "08611", "addr:state": "NJ", "addr:street_address": "453 CHESTNUT AVE", "amenity": "post_box", "brand": "United States Postal Service", "brand:wikidata": "Q668687", "collection_times": "Mo-Sa 10:00", "nsi_id": "unitedstatespostalservice-a77078", "operator": "United States Postal Service", "operator:short": "USPS", "operator:type": "public", "operator:wikidata": "Q668687", "ref": "0861100000"}, "type": "Feature"}
{"geometry": {"coordinates": [-74.7446137, 40.211313], "type": "Point"}, "id": "PTQWLmujugyevSXZq_igbKry8NY=", "properties": {"@source_uri": "https://tools.usps.com/UspsToolsRestServices/rest/POLocator/findLocations", "@spider": "usps_collection_boxes", "addr:city": "TRENTON", "addr:country": "US", "addr:postcode": "08611", "addr:state": "NJ", "addr:street_address": "701 ROEBLING AVE", "amenity": "post_box", "brand": "United States Postal Service", "brand:wikidata": "Q668687", "collection_times": "Mo-Sa 10:00", "nsi_id": "unitedstatespostalservice-a77078", "operator": "United States Postal Service", "operator:short": "USPS", "operator:type": "public", "operator:wikidata": "Q668687", "ref": "0861100001"}, "type": "Feature"}
{"geometry": {"coordinates": [-74.7464121, 40.205612], "type": "Point"}, "id": "1oERYCAaFcqr1QhCgw-38AOU1A0=", "properties": {"@source_uri": "https://tools.usps.com/UspsToolsRestServices/rest/POLocator/findLocations", "@spider": "usps_collection_boxes", "addr:city": "TRENTON", "addr:country": "US", "addr:postcode": "08611", "addr:state": "NJ", "addr:street_address": "998 S BROAD ST", "amenity": "post_box", "brand": "United States Postal Service", "brand:wikidata": "Q668687", "collection_times": "Mo-Sa 10:00", "nsi_id": "unitedstatespostalservice-a77078", "operator": "United States Postal Service", "operator:short": "USPS", "operator:type": "public", "operator:wikidata": "Q668687", "ref": "0861100005"}, "type": "Feature"}
{"geometry": {"coordinates": [-74.7526889, 40.206363], "type": "Point"}, "id": "NIFDEn8_keiDltVwiOzLn0DQA0U=", "properties": {"@source_uri": "https://tools.usps.com/UspsToolsRestServices/rest/POLocator/findLocations", "@spider": "usps_collection_boxes", "addr:city": "TRENTON", "addr:country": "US", "addr:postcode": "08611", "addr:state": "NJ", "addr:street_address": "702 CASS ST", "amenity": "post_box", "brand": "United States Postal Service", "brand:wikidata": "Q668687", "collection_times": "Mo-Sa 10:00", "nsi_id": "unitedstatespostalservice-a77078", "operator": "United States Postal Service", "operator:short": "USPS", "operator:type": "public", "operator:wikidata": "Q668687", "ref": "0861100009"}, "type": "Feature"}
{"geometry": {"coordinates": [-74.7596777, 40.211289], "type": "Point"}, "id": "QX26B2_Kr-70JQFzhzZR7iGMRDw=", "properties": {"@source_uri": "https://tools.usps.com/UspsToolsRestServices/rest/POLocator/findLocations", "@spider": "usps_collection_boxes", "addr:city": "TRENTON", "addr:country": "US", "addr:postcode": "08611", "addr:state": "NJ", "addr:street_address": "200 CENTRE ST", "amenity": "post_box", "brand": "United States Postal Service", "brand:wikidata": "Q668687", "collection_times": "Mo-Sa 10:00", "nsi_id": "unitedstatespostalservice-a77078", "operator": "United States Postal Service", "operator:short": "USPS", "operator:type": "public", "operator:wikidata": "Q668687", "ref": "0861100010"}, "type": "Feature"}
{"geometry": {"coordinates": [-74.746792, 40.212085], "type": "Point"}, "id": "zIspnzlHTL73RDxO1SxL0mUBtEY=", "properties": {"@source_uri": "https://tools.usps.com/UspsToolsRestServices/rest/POLocator/findLocations", "@spider": "usps_collection_boxes", "addr:city": "TRENTON", "addr:country": "US", "addr:postcode": "08611", "addr:state": "NJ", "addr:street_address": "540 CHESTNUT AVE", "amenity": "post_box", "brand": "United States Postal Service", "brand:wikidata": "Q668687", "collection_times": "Mo-Sa 10:00", "nsi_id": "unitedstatespostalservice-a77078", "operator": "United States Postal Service", "operator:short": "USPS", "operator:type": "public", "operator:wikidata": "Q668687", "ref": "0861100012"}, "type": "Feature"}
{"geometry": {"coordinates": [-74.7472113, 40.202299], "type": "Point"}, "id": "ZsECMCa0e9hC-ZHxCLA-Ipt7QqI=", "properties": {"@source_uri": "https://tools.usps.com/UspsToolsRestServices/rest/POLocator/findLocations", "@spider": "usps_collection_boxes", "addr:city": "TRENTON", "addr:country": "US", "addr:postcode": "08611", "addr:state": "NJ", "addr:street_address": "1662 CHESTNUT AVE", "amenity": "post_box", "brand": "United States Postal Service", "brand:wikidata": "Q668687", "collection_times": "Mo-Sa 10:00", "nsi_id": "unitedstatespostalservice-a77078", "operator": "United States Postal Service", "operator:short": "USPS", "operator:type": "public", "operator:wikidata": "Q668687", "ref": "0861100014"}, "type": "Feature"}
{"geometry": {"coordinates": [-74.7482488, 40.20816], "type": "Point"}, "id": "j9rAVZ9gz10bmlrMAh8m7VbreUo=", "properties": {"@source_uri": "https://tools.usps.com/UspsToolsRestServices/rest/POLocator/findLocations", "@spider": "usps_collection_boxes", "addr:city": "TRENTON", "addr:country": "US", "addr:postcode": "08611", "addr:state": "NJ", "addr:street_address": "1000 S CLINTON AVE", "amenity": "post_box", "brand": "United States Postal Service", "brand:wikidata": "Q668687", "collection_times": "Mo-Sa 10:00", "nsi_id": "unitedstatespostalservice-a77078", "operator": "United States Postal Service", "operator:short": "USPS", "operator:type": "public", "operator:wikidata": "Q668687", "ref": "0861100015"}, "type": "Feature"}
{"geometry": {"coordinates": [-74.7440303, 40.20643], "type": "Point"}, "id": "91v5KeQRG7VSzGiwseRZRzbBhVU=", "properties": {"@source_uri": "https://tools.usps.com/UspsToolsRestServices/rest/POLocator/findLocations", "@spider": "usps_collection_boxes", "addr:city": "TRENTON", "addr:country": "US", "addr:postcode": "08611", "addr:state": "NJ", "addr:street_address": "901 DIVISION ST", "amenity": "post_box", "brand": "United States Postal Service", "brand:wikidata": "Q668687", "collection_times": "Mo-Sa 10:00", "nsi_id": "unitedstatespostalservice-a77078", "operator": "United States Postal Service", "operator:short": "USPS", "operator:type": "public", "operator:wikidata": "Q668687", "ref": "0861100017"}, "type": "Feature"}
{"geometry": {"coordinates": [-74.7476417, 40.209937], "type": "Point"}, "id": "L3XptvGvfySPO1FBwKrLYKEvceY=", "properties": {"@source_uri": "https://tools.usps.com/UspsToolsRestServices/rest/POLocator/findLocations", "@spider": "usps_collection_boxes", "addr:city": "TRENTON", "addr:country": "US", "addr:postcode": "08611", "addr:state": "NJ", "addr:street_address": "202 EMORY AVE", "amenity": "post_box", "brand": "United States Postal Service", "brand:wikidata": "Q668687", "collection_times": "Mo-Sa 10:00", "nsi_id": "unitedstatespostalservice-a77078", "operator": "United States Postal Service", "operator:short": "USPS", "operator:type": "public", "operator:wikidata": "Q668687", "ref": "0861100018"}, "type": "Feature"}
{"geometry": {"coordinates": [-74.7426757, 40.215371], "type": "Point"}, "id": "4IBO07TGRm02s2YIQBvjxP0NskY=", "properties": {"@source_uri": "https://tools.usps.com/UspsToolsRestServices/rest/POLocator/findLocations", "@spider": "usps_collection_boxes", "addr:city": "TRENTON", "addr:country": "US", "addr:postcode": "08611", "addr:state": "NJ", "addr:street_address": "98 FRANKLIN ST", "amenity": "post_box", "brand": "United States Postal Service", "brand:wikidata": "Q668687", "collection_times": "Mo-Sa 10:00", "nsi_id": "unitedstatespostalservice-a77078", "operator": "United States Postal Service", "operator:short": "USPS", "operator:type": "public", "operator:wikidata": "Q668687", "ref": "0861100019"}, "type": "Feature"}
{"geometry": {"coordinates": [-74.7404104, 40.212516], "type": "Point"}, "id": "9vSsgCb9r6ZfJDCkaNEk3oVUQwc=", "properties": {"@source_uri": "https://tools.usps.com/UspsToolsRestServices/rest/POLocator/findLocations", "@spider": "usps_collection_boxes", "addr:city": "TRENTON", "addr:country": "US", "addr:postcode": "08611", "addr:state": "NJ", "addr:street_address": "302 FRANKLIN ST", "amenity": "post_box", "brand": "United States Postal Service", "brand:wikidata": "Q668687", "collection_times": "Mo-Sa 10:00", "nsi_id": "unitedstatespostalservice-a77078", "operator": "United States Postal Service", "operator:short": "USPS", "operator:type": "public", "operator:wikidata": "Q668687", "ref": "0861100020"}, "type": "Feature"}
{"geometry": {"coordinates": [-74.7666073, 40.214904], "type": "Point"}, "id": "uEsv0kc8zc4s0frdoXhx959nphM=", "properties": {"@source_uri": "https://tools.usps.com/UspsToolsRestServices/rest/POLocator/findLocations", "@spider": "usps_collection_boxes", "addr:city": "TRENTON", "addr:country": "US", "addr:postcode": "08611", "addr:state": "NJ", "addr:street_address": "1 JOHN FITCH PLZ", "amenity": "post_box", "brand": "United States Postal Service", "brand:wikidata": "Q668687", "collection_times": "Mo-Sa 10:00", "nsi_id": "unitedstatespostalservice-a77078", "operator": "United States Postal Service", "operator:short": "USPS", "operator:type": "public", "operator:wikidata": "Q668687", "ref": "0861100022"}, "type": "Feature"}
{"geometry": {"coordinates": [-74.7733707, 40.222015], "type": "Point"}, "id": "nhHf15CZN63X4zveZlJHAlqmZAI=", "properties": {"@source_uri": "https://tools.usps.com/UspsToolsRestServices/rest/POLocator/findLocations", "@spider": "usps_collection_boxes", "addr:city": "TRENTON", "addr:country": "US", "addr:postcode": "08611", "addr:state": "NJ", "addr:street_address": "216 W STATE ST", "amenity": "post_box", "brand": "United States Postal Service", "brand:wikidata": "Q668687", "collection_times": "Mo-Sa 11:00", "nsi_id": "unitedstatespostalservice-a77078", "operator": "United States Postal Service", "operator:short": "USPS", "operator:type": "public", "operator:wikidata": "Q668687", "ref": "0861100023"}, "type": "Feature"}
{"geometry": {"coordinates": [-74.7626462, 40.204891], "type": "Point"}, "id": "TwEdjoyLPoPJrBL-EgXrVc9qrG4=", "properties": {"@source_uri": "https://tools.usps.com/UspsToolsRestServices/rest/POLocator/findLocations", "@spider": "usps_collection_boxes", "addr:city": "TRENTON", "addr:country": "US", "addr:postcode": "08611", "addr:state": "NJ", "addr:street_address": "210 RIVERVIEW PLZ", "amenity": "post_box", "brand": "United States Postal Service", "brand:wikidata": "Q668687", "collection_times": "Mo-Sa 11:00", "nsi_id": "unitedstatespostalservice-a77078", "operator": "United States Postal Service", "operator:short": "USPS", "operator:type": "public", "operator:wikidata": "Q668687", "ref": "0861100024"}, "type": "Feature"}
{"geometry": {"coordinates": [-74.7510859, 40.198747], "type": "Point"}, "id": "ZRno0-tqTcQ0a8SgMiKXKdJTglc=", "properties": {"@source_uri": "https://tools.usps.com/UspsToolsRestServices/rest/POLocator/findLocations", "@spider": "usps_collection_boxes", "addr:city": "TRENTON", "addr:country": "US", "addr:postcode": "08611", "addr:state": "NJ", "addr:street_address": "410 LALOR ST", "amenity": "post_box", "brand": "United States Postal Service", "brand:wikidata": "Q668687", "collection_times": "Mo-Sa 10:00", "nsi_id": "unitedstatespostalservice-a77078", "operator": "United States Postal Service", "operator:short": "USPS", "operator:type": "public", "operator:wikidata": "Q668687", "ref": "0861100026"}, "type": "Feature"}
{"geometry": {"coordinates": [-74.7492594, 40.198924], "type": "Point"}, "id": "hb52cnQXtcqYQYAUbeg397ofs5w=", "properties": {"@source_uri": "https://tools.usps.com/UspsToolsRestServices/rest/POLocator/findLocations", "@spider": "usps_collection_boxes", "addr:city": "TRENTON", "addr:country": "US", "addr:postcode": "08611", "addr:state": "NJ", "addr:street_address": "528 LALOR ST", "amenity": "post_box", "brand": "United States Postal Service", "brand:wikidata": "Q668687", "collection_times": "Mo-Sa 10:00", "nsi_id": "unitedstatespostalservice-a77078", "operator": "United States Postal Service", "operator:short": "USPS", "operator:type": "public", "operator:wikidata": "Q668687", "ref": "0861100027"}, "type": "Feature"}
{"geometry": {"coordinates": [-74.742254, 40.210405], "type": "Point"}, "id": "J_ZEK7wK4vBdETaIoZ7WcDbcS0I=", "properties": {"@source_uri": "https://tools.usps.com/UspsToolsRestServices/rest/POLocator/findLocations", "@spider": "usps_collection_boxes", "addr:city": "TRENTON", "addr:country": "US", "addr:postcode": "08611", "addr:state": "NJ", "addr:street_address": "300 MORRIS AVE", "amenity": "post_box", "brand": "United States Postal Service", "brand:wikidata": "Q668687", "collection_times": "Mo-Sa 10:00", "nsi_id": "unitedstatespostalservice-a77078", "operator": "United States Postal Service", "operator:short": "USPS", "operator:type": "public", "operator:wikidata": "Q668687", "ref": "0861100028"}, "type": "Feature"}
{"geometry": {"coordinates": [-74.7545386, 40.209207], "type": "Point"}, "id": "BEvZlEFfv9jfboqbrazpScwHJbo=", "properties": {"@source_uri": "https://tools.usps.com/UspsToolsRestServices/rest/POLocator/findLocations", "@spider": "usps_collection_boxes", "addr:city": "TRENTON", "addr:country": "US", "addr:postcode": "08611", "addr:state": "NJ", "addr:street_address": "640 S BROAD ST", "amenity": "post_box", "brand": "United States Postal Service", "brand:wikidata": "Q668687", "collection_times": "Mo-Sa 11:00", "nsi_id": "unitedstatespostalservice-a77078", "operator": "United States Postal Service", "operator:short": "USPS", "operator:type": "public", "operator:wikidata": "Q668687", "ref": "0861100030"}, "type": "Feature"}
{"geometry": {"coordinates": [-74.7494133168, 40.206669691], "type": "Point"}, "id": "mAXH-aFemQYzRLPvn7ZBbN5IJW4=", "properties": {"@source_uri": "https://tools.usps.com/UspsToolsRestServices/rest/POLocator/findLocations", "@spider": "usps_collection_boxes", "addr:city": "TRENTON", "addr:country": "US", "addr:postcode": "08611", "addr:state": "NJ", "addr:street_address": "899 S BROAD ST", "amenity": "post_box", "brand": "United States Postal Service", "brand:wikidata": "Q668687", "collection_times": "Mo-Sa 10:00", "nsi_id": "unitedstatespostalservice-a77078", "operator": "United States Postal Service", "operator:short": "USPS", "operator:type": "public", "operator:wikidata": "Q668687", "ref": "0861100031"}, "type": "Feature"}
{"geometry": {"coordinates": [-74.7509499, 40.20926], "type": "Point"}, "id": "7nt35QypdS6X74P52VGB236s2Jc=", "properties": {"@source_uri": "https://tools.usps.com/UspsToolsRestServices/rest/POLocator/findLocations", "@spider": "usps_collection_boxes", "addr:city": "TRENTON", "addr:country": "US", "addr:postcode": "08611", "addr:state": "NJ", "addr:street_address": "726 S CLINTON AVE", "amenity": "post_box", "brand": "United States Postal Service", "brand:wikidata": "Q668687", "collection_times": "Mo-Sa 10:00", "nsi_id": "unitedstatespostalservice-a77078", "operator": "United States Postal Service", "operator:short": "USPS", "operator:type": "public", "operator:wikidata": "Q668687", "ref": "0861100032"}, "type": "Feature"}
{"geometry": {"coordinates": [-74.7544142, 40.210757], "type": "Point"}, "id": "1PVzfqTM-OKKx49mkSperPywxNU=", "properties": {"@source_uri": "https://tools.usps.com/UspsToolsRestServices/rest/POLocator/findLocations", "@spider": "usps_collection_boxes", "addr:city": "TRENTON", "addr:country": "US", "addr:postcode": "08611", "addr:state": "NJ", "addr:street_address": "635 S CLINTON AVE", "amenity": "post_box", "brand": "United States Postal Service", "brand:wikidata": "Q668687", "collection_times": "Mo-Sa 10:00", "nsi_id": "unitedstatespostalservice-a77078", "operator": "United States Postal Service", "operator:short": "USPS", "operator:type": "public", "operator:wikidata": "Q668687", "ref": "0861100035"}, "type": "Feature"}
{"geometry": {"coordinates": [-74.74615, 40.20871], "type": "Point"}, "id": "tHROL3eN5cSDNfLXy9mJUimAD5g=", "properties": {"@source_uri": "https://tools.usps.com/UspsToolsRestServices/rest/POLocator/findLocations", "@spider": "usps_collection_boxes", "addr:city": "TRENTON", "addr:country": "US", "addr:postcode": "08611", "addr:state": "NJ", "addr:street_address": "100 RIVER VIEW PLZ", "amenity": "post_box", "brand": "United States Postal Service", "brand:wikidata": "Q668687", "collection_times": "Mo-Sa 10:00", "nsi_id": "unitedstatespostalservice-a77078", "operator": "United States Postal Service", "operator:short": "USPS", "operator:type": "public", "operator:wikidata": "Q668687", "ref": "0861100036"}, "type": "Feature"}
{"geometry": {"coordinates": [-74.7642576, 40.21874], "type": "Point"}, "id": "gr8Lal5W43pTFoQOHUTLVssDi1I=", "properties": {"@source_uri": "https://tools.usps.com/UspsToolsRestServices/rest/POLocator/findLocations", "@spider": "usps_collection_boxes", "addr:city": "TRENTON", "addr:country": "US", "addr:postcode": "08611", "addr:state": "NJ", "addr:street_address": "101 S BROAD ST", "amenity": "post_box", "brand": "United States Postal Service", "brand:wikidata": "Q668687", "collection_times": "Mo-Sa 10:00", "nsi_id": "unitedstatespostalservice-a77078", "operator": "United States Postal Service", "operator:short": "USPS", "operator:type": "public", "operator:wikidata": "Q668687", "ref": "0861100037"}, "type": "Feature"}
{"geometry": {"coordinates": [-74.7619296, 40.215439], "type": "Point"}, "id": "d92A9ohVGubeLJ9ni5uxvP4mW-A=", "properties": {"@source_uri": "https://tools.usps.com/UspsToolsRestServices/rest/POLocator/findLocations", "@spider": "usps_collection_boxes", "addr:city": "TRENTON", "addr:country": "US", "addr:postcode": "08611", "addr:state": "NJ", "addr:street_address": "323 S BROAD ST", "amenity": "post_box", "brand": "United States Postal Service", "brand:wikidata": "Q668687", "collection_times": "Mo-Sa 10:00", "nsi_id": "unitedstatespostalservice-a77078", "operator": "United States Postal Service", "operator:short": "USPS", "operator:type": "public", "operator:wikidata": "Q668687", "ref": "0861100038"}, "type": "Feature"}
{"geometry": {"coordinates": [-74.7457333, 40.208952], "type": "Point"}, "id": "dZoZQvH0ZYzn0Osuq38s3xeysQ8=", "properties": {"@source_uri": "https://tools.usps.com/UspsToolsRestServices/rest/POLocator/findLocations", "@spider": "usps_collection_boxes", "addr:city": "TRENTON", "addr:country": "US", "addr:postcode": "08611", "addr:state": "NJ", "addr:street_address": "819 CHESTNUT AVE", "amenity": "post_box", "brand": "United States Postal Service", "brand:wikidata": "Q668687", "collection_times": "Mo-Sa 10:00", "nsi_id": "unitedstatespostalservice-a77078", "operator": "United States Postal Service", "operator:short": "USPS", "operator:type": "public", "operator:wikidata": "Q668687", "ref": "0861100039"}, "type": "Feature"}
{"geometry": {"coordinates": [-74.7418793, 40.20854], "type": "Point"}, "id": "OtaIBlrlus8tDux2Y4RqPkdf6rQ=", "properties": {"@source_uri": "https://tools.usps.com/UspsToolsRestServices/rest/POLocator/findLocations", "@spider": "usps_collection_boxes", "addr:city": "TRENTON", "addr:country": "US", "addr:postcode": "08611", "addr:state": "NJ", "addr:street_address": "301 CUMMINGS AVE", "amenity": "post_box", "brand": "United States Postal Service", "brand:wikidata": "Q668687", "collection_times": "Mo-Sa 10:00", "nsi_id": "unitedstatespostalservice-a77078", "operator": "United States Postal Service", "operator:short": "USPS", "operator:type": "public", "operator:wikidata": "Q668687", "ref": "0861100041"}, "type": "Feature"}
{"geometry": {"coordinates": [-74.7645564, 40.213956], "type": "Point"}, "id": "X1wyCbEkXWG65IbIy0gQANHnGQI=", "properties": {"@source_uri": "https://tools.usps.com/UspsToolsRestServices/rest/POLocator/findLocations", "@spider": "usps_collection_boxes", "addr:city": "TRENTON", "addr:country": "US", "addr:postcode": "08611", "addr:state": "NJ", "addr:street_address": "25 MARKET ST", "amenity": "post_box", "brand": "United States Postal Service", "brand:wikidata": "Q668687", "collection_times": "Mo-Sa 10:00", "nsi_id": "unitedstatespostalservice-a77078", "operator": "United States Postal Service", "operator:short": "USPS", "operator:type": "public", "operator:wikidata": "Q668687", "ref": "0861100042"}, "type": "Feature"}
{"geometry": {"coordinates": [-74.7374286, 40.209567], "type": "Point"}, "id": "6cYz4w6zbbW9Ruw_dLLotYCtvXI=", "properties": {"@source_uri": "https://tools.usps.com/UspsToolsRestServices/rest/POLocator/findLocations", "@spider": "usps_collection_boxes", "addr:city": "TRENTON", "addr:country": "US", "addr:postcode": "08611", "addr:state": "NJ", "addr:street_address": "1047 LIBERTY ST", "amenity": "post_box", "brand": "United States Postal Service", "brand:wikidata": "Q668687", "collection_times": "Mo-Sa 11:00", "nsi_id": "unitedstatespostalservice-a77078", "operator": "United States Postal Service", "operator:short": "USPS", "operator:type": "public", "operator:wikidata": "Q668687", "ref": "0861100045"}, "type": "Feature"}
{"geometry": {"coordinates": [-74.7665691, 40.216526], "type": "Point"}, "id": "WxVnjkqgrFpxNjmWHwi87o3XEdU=", "properties": {"@source_uri": "https://tools.usps.com/UspsToolsRestServices/rest/POLocator/findLocations", "@spider": "usps_collection_boxes", "addr:city": "TRENTON", "addr:country": "US", "addr:postcode": "08611", "addr:state": "NJ", "addr:street_address": "2 JOHN FITCH PLZ", "amenity": "post_box", "brand": "United States Postal Service", "brand:wikidata": "Q668687", "collection_times": "Mo-Sa 10:00", "nsi_id": "unitedstatespostalservice-a77078", "operator": "United States Postal Service", "operator:short": "USPS", "operator:type": "public", "operator:wikidata": "Q668687", "ref": "0861100049"}, "type": "Feature"}
{"geometry": {"coordinates": [-74.764206514, 40.218764018], "type": "Point"}, "id": "ev7qwi6_6sOBjYaF-MlmfJcqjSc=", "properties": {"@source_uri": "https://tools.usps.com/UspsToolsRestServices/rest/POLocator/findLocations", "@spider": "usps_collection_boxes", "addr:city": "TRENTON", "addr:country": "US", "addr:postcode": "08611", "addr:state": "NJ", "addr:street_address": "101 S BROAD ST", "amenity": "post_box", "brand": "United States Postal Service", "brand:wikidata": "Q668687", "collection_times": "Mo-Sa 10:00", "nsi_id": "unitedstatespostalservice-a77078", "operator": "United States Postal Service", "operator:short": "USPS", "operator:type": "public", "operator:wikidata": "Q668687", "ref": "0861100052"}, "type": "Feature"}
{"geometry": {"coordinates": [-74.7848219533, 40.263871317], "type": "Point"}, "id": "gthZAp1plFG76CBRSisXjv-e61E=", "properties": {"@source_uri": "https://tools.usps.com/UspsToolsRestServices/rest/POLocator/findLocations", "@spider": "usps_collection_boxes", "addr:city": "EWING", "addr:country": "US", "addr:postcode": "08618", "addr:state": "NJ", "addr:street_address": "2 DORSET DR", "amenity": "post_box", "brand": "United States Postal Service", "brand:wikidata": "Q668687", "collection_times": "Mo-Sa 11:00", "nsi_id": "unitedstatespostalservice-a77078", "operator": "United States Postal Service", "operator:short": "USPS", "operator:type": "public", "operator:wikidata": "Q668687", "ref": "0861800002"}, "type": "Feature"}
{"geometry": {"coordinates": [-74.7757830074, 40.2485369892], "type": "Point"}, "id": "Fon-Ia224ZHUmlnv9317HjRSwko=", "properties": {"@source_uri": "https://tools.usps.com/UspsToolsRestServices/rest/POLocator/findLocations", "@spider": "usps_collection_boxes", "addr:city": "EWING", "addr:country": "US", "addr:postcode": "08618", "addr:state": "NJ", "addr:street_address": "1479 PENNINGTON RD", "amenity": "post_box", "brand": "United States Postal Service", "brand:wikidata": "Q668687", "collection_times": "Mo-Sa 10:00", "nsi_id": "unitedstatespostalservice-a77078", "operator": "United States Postal Service", "operator:short": "USPS", "operator:type": "public", "operator:wikidata": "Q668687", "ref": "0861800003"}, "type": "Feature"}
{"geometry": {"coordinates": [-74.7817157, 40.25052], "type": "Point"}, "id": "ZkT0OY_RJwg0MaanlLy7AMcugb0=", "properties": {"@source_uri": "https://tools.usps.com/UspsToolsRestServices/rest/POLocator/findLocations", "@spider": "usps_collection_boxes", "addr:city": "EWING", "addr:country": "US", "addr:postcode": "08618", "addr:state": "NJ", "addr:street_address": "1901 N OLDEN AVENUE EXT", "amenity": "post_box", "brand": "United States Postal Service", "brand:wikidata": "Q668687", "collection_times": "Mo-Sa 09:30", "nsi_id": "unitedstatespostalservice-a77078", "operator": "United States Postal Service", "operator:short": "USPS", "operator:type": "public", "operator:wikidata": "Q668687", "ref": "0861800006"}, "type": "Feature"}
{"geometry": {"coordinates": [-74.7875217, 40.253308], "type": "Point"}, "id": "AUoH-2H-lPuN5O8zysWZX5yaTxU=", "properties": {"@source_uri": "https://tools.usps.com/UspsToolsRestServices/rest/POLocator/findLocations", "@spider": "usps_collection_boxes", "addr:city": "EWING", "addr:country": "US", "addr:postcode": "08618", "addr:state": "NJ", "addr:street_address": "1 HIGHGATE DR", "amenity": "post_box", "brand": "United States Postal Service", "brand:wikidata": "Q668687", "collection_times": "Mo-Sa 11:00", "nsi_id": "unitedstatespostalservice-a77078", "operator": "United States Postal Service", "operator:short": "USPS", "operator:type": "public", "operator:wikidata": "Q668687", "ref": "0861800007"}, "type": "Feature"}
{"geometry": {"coordinates": [-74.7946488, 40.253542], "type": "Point"}, "id": "lGgB-ffLC3yjrqnQo9YQi-UhOsM=", "properties": {"@source_uri": "https://tools.usps.com/UspsToolsRestServices/rest/POLocator/findLocations", "@spider": "usps_collection_boxes", "addr:city": "EWING", "addr:country": "US", "addr:postcode": "08618", "addr:state": "NJ", "addr:street_address": "129 W FARRELL AVE", "amenity": "post_box", "brand": "United States Postal Service", "brand:wikidata": "Q668687", "collection_times": "Mo-Sa 10:00", "nsi_id": "unitedstatespostalservice-a77078", "operator": "United States Postal Service", "operator:short": "USPS", "operator:type": "public", "operator:wikidata": "Q668687", "ref": "0861800008"}, "type": "Feature"}
{"geometry": {"coordinates": [-74.795058935, 40.243366566], "type": "Point"}, "id": "7MummQWlwfTAPXtqx7u-G7KxrYg=", "properties": {"@source_uri": "https://tools.usps.com/UspsToolsRestServices/rest/POLocator/findLocations", "@spider": "usps_collection_boxes", "addr:city": "EWING", "addr:country": "US", "addr:postcode": "08618", "addr:state": "NJ", "addr:street_address": "1433 STUYVESANT AVE", "amenity": "post_box", "brand": "United States Postal Service", "brand:wikidata": "Q668687", "collection_times": "Mo-Sa 11:00", "nsi_id": "unitedstatespostalservice-a77078", "operator": "United States Postal Service", "operator:short": "USPS", "operator:type": "public", "operator:wikidata": "Q668687", "ref": "0861800010"}, "type": "Feature"}
{"geometry": {"coordinates": [-74.779311565, 40.258144727], "type": "Point"}, "id": "6_6vQKAWy--oXOMZuW820J94NXM=", "properties": {"@source_uri": "https://tools.usps.com/UspsToolsRestServices/rest/POLocator/findLocations", "@spider": "usps_collection_boxes", "addr:city": "EWING", "addr:country": "US", "addr:postcode": "08618", "addr:state": "NJ", "addr:street_address": "1678 PENNINGTON RD", "amenity": "post_box", "brand": "United States Postal Service", "brand:wikidata": "Q668687", "collection_times": "Mo-Sa 10:30", "nsi_id": "unitedstatespostalservice-a77078", "operator": "United States Postal Service", "operator:short": "USPS", "operator:type": "public", "operator:wikidata": "Q668687", "ref": "0861800011"}, "type": "Feature"}
{"geometry": {"coordinates": [-74.7865819, 40.240721], "type": "Point"}, "id": "F9nkMiy9jDnQIYoFIl2_oGnMMmI=", "properties": {"@source_uri": "https://tools.usps.com/UspsToolsRestServices/rest/POLocator/findLocations", "@spider": "usps_collection_boxes", "addr:city": "EWING", "addr:country": "US", "addr:postcode": "08618", "addr:state": "NJ", "addr:street_address": "207 HILLCREST AVE", "amenity": "post_box", "brand": "United States Postal Service", "brand:wikidata": "Q668687", "collection_times": "Mo-Sa 11:00", "nsi_id": "unitedstatespostalservice-a77078", "operator": "United States Postal Service", "operator:short": "USPS", "operator:type": "public", "operator:wikidata": "Q668687", "ref": "0861800014"}, "type": "Feature"}
{"geometry": {"coordinates": [-74.792703457, 40.255595474], "type": "Point"}, "id": "4bCFKjzElPy7oSlS1xpsAx6GjiM=", "properties": {"@source_uri": "https://tools.usps.com/UspsToolsRestServices/rest/POLocator/findLocations", "@spider": "usps_collection_boxes", "addr:city": "EWING", "addr:country": "US", "addr:postcode": "08618", "addr:state": "NJ", "addr:street_address": "940 PARKWAY AVE", "amenity": "post_box", "brand": "United States Postal Service", "brand:wikidata": "Q668687", "collection_times": "Mo-Sa 10:00", "nsi_id": "unitedstatespostalservice-a77078", "operator": "United States Postal Service", "operator:short": "USPS", "operator:type": "public", "operator:wikidata": "Q668687", "ref": "0861800016"}, "type": "Feature"}
{"geometry": {"coordinates": [-74.776415042, 40.229082363], "type": "Point"}, "id": "UZQPqkyjr_jNewPImvZvhzl1AGc=", "properties": {"@source_uri": "https://tools.usps.com/UspsToolsRestServices/rest/POLocator/findLocations", "@spider": "usps_collection_boxes", "addr:city": "EWING", "addr:country": "US", "addr:postcode": "08618", "addr:state": "NJ", "addr:street_address": "416 BELLEVUE AVE", "amenity": "post_box", "brand": "United States Postal Service", "brand:wikidata": "Q668687", "collection_times": "Mo-Sa 11:00", "nsi_id": "unitedstatespostalservice-a77078", "operator": "United States Postal Service", "operator:short": "USPS", "operator:type": "public", "operator:wikidata": "Q668687", "ref": "0861800021"}, "type": "Feature"}
{"geometry": {"coordinates": [-74.7778939, 40.229778], "type": "Point"}, "id": "n46jqtwhsGfUnVBTGjyqyq82mak=", "properties": {"@source_uri": "https://tools.usps.com/UspsToolsRestServices/rest/POLocator/findLocations", "@spider": "usps_collection_boxes", "addr:city": "EWING", "addr:country": "US", "addr:postcode": "08618", "addr:state": "NJ", "addr:street_address": "447 BELLEVUE AVE", "amenity": "post_box", "brand": "United States Postal Service", "brand:wikidata": "Q668687", "collection_times": "Mo-Sa 10:00", "nsi_id": "unitedstatespostalservice-a77078", "operator": "United States Postal Service", "operator:short": "USPS", "operator:type": "public", "operator:wikidata": "Q668687", "ref": "0861800022"}, "type": "Feature"}
{"geometry": {"coordinates": [-74.7841671, 40.233816], "type": "Point"}, "id": "HkX59dr6m7fZ80aZyGgTQb-hy_k=", "properties": {"@source_uri": "https://tools.usps.com/UspsToolsRestServices/rest/POLocator/findLocations", "@spider": "usps_collection_boxes", "addr:city": "EWING", "addr:country": "US", "addr:postcode": "08618", "addr:state": "NJ", "addr:street_address": "900 BELLEVUE AVE", "amenity": "post_box", "brand": "United States Postal Service", "brand:wikidata": "Q668687", "collection_times": "Mo-Sa 10:00", "nsi_id": "unitedstatespostalservice-a77078", "operator": "United States Postal Service", "operator:short": "USPS", "operator:type": "public", "operator:wikidata": "Q668687", "ref": "0861800023"}, "type": "Feature"}
{"geometry": {"coordinates": [-74.7895149, 40.230366], "type": "Point"}, "id": "jh9SY5afVxCXC_NBeY8UDtageTk=", "properties": {"@source_uri": "https://tools.usps.com/UspsToolsRestServices/rest/POLocator/findLocations", "@spider": "usps_collection_boxes", "addr:city": "EWING", "addr:country": "US", "addr:postcode": "08618", "addr:state": "NJ", "addr:street_address": "900 BERKELEY AVE", "amenity": "post_box", "brand": "United States Postal Service", "brand:wikidata": "Q668687", "collection_times": "Mo-Sa 10:00", "nsi_id": "unitedstatespostalservice-a77078", "operator": "United States Postal Service", "operator:short": "USPS", "operator:type": "public", "operator:wikidata": "Q668687", "ref": "0861800024"}, "type": "Feature"}
{"geometry": {"coordinates": [-74.7828026, 40.230591], "type": "Point"}, "id": "XXhbiA7d_SJHj0vq-66GrfbvlMA=", "properties": {"@source_uri": "https://tools.usps.com/UspsToolsRestServices/rest/POLocator/findLocations", "@spider": "usps_collection_boxes", "addr:city": "EWING", "addr:country": "US", "addr:postcode": "08618", "addr:state": "NJ", "addr:street_address": "222 N HERMITAGE AVE", "amenity": "post_box", "brand": "United States Postal Service", "brand:wikidata": "Q668687", "collection_times": "Mo-Sa 10:00", "nsi_id": "unitedstatespostalservice-a77078", "operator": "United States Postal Service", "operator:short": "USPS", "operator:type": "public", "operator:wikidata": "Q668687", "ref": "0861800025"}, "type": "Feature"}
{"geometry": {"coordinates": [-74.7799499, 40.237876], "type": "Point"}, "id": "Gb5v5WM3QjDCKrzANI4bNnUqiF4=", "properties": {"@source_uri": "https://tools.usps.com/UspsToolsRestServices/rest/POLocator/findLocations", "@spider": "usps_collection_boxes", "addr:city": "EWING", "addr:country": "US", "addr:postcode": "08618", "addr:state": "NJ", "addr:street_address": "237 OAKLAND ST", "amenity": "post_box", "brand": "United States Postal Service", "brand:wikidata": "Q668687", "collection_times": "Mo-Sa 10:00", "nsi_id": "unitedstatespostalservice-a77078", "operator": "United States Postal Service", "operator:short": "USPS", "operator:type": "public", "operator:wikidata": "Q668687", "ref": "0861800026"}, "type": "Feature"}
{"geometry": {"coordinates": [-74.7691433, 40.230278], "type": "Point"}, "id": "KIl0bLgVmO6G2Xm-rOEtpcl5rmc=", "properties": {"@source_uri": "https://tools.usps.com/UspsToolsRestServices/rest/POLocator/findLocations", "@spider": "usps_collection_boxes", "addr:city": "EWING", "addr:country": "US", "addr:postcode": "08618", "addr:state": "NJ", "addr:street_address": "301 PENNINGTON AVE", "amenity": "post_box", "brand": "United States Postal Service", "brand:wikidata": "Q668687", "collection_times": "Mo-Sa 10:00", "nsi_id": "unitedstatespostalservice-a77078", "operator": "United States Postal Service", "operator:short": "USPS", "operator:type": "public", "operator:wikidata": "Q668687", "ref": "0861800027"}, "type": "Feature"}
{"geometry": {"coordinates": [-74.7759052, 40.223162], "type": "Point"}, "id": "DdH30SirY7ncgfNkCP1Y5ZJsdl0=", "properties": {"@source_uri": "https://tools.usps.com/UspsToolsRestServices/rest/POLocator/findLocations", "@spider": "usps_collection_boxes", "addr:city": "EWING", "addr:country": "US", "addr:postcode": "08618", "addr:state": "NJ", "addr:street_address": "329 W STATE ST", "amenity": "post_box", "brand": "United States Postal Service", "brand:wikidata": "Q668687", "collection_times": "Mo-Sa 11:00", "nsi_id": "unitedstatespostalservice-a77078", "operator": "United States Postal Service", "operator:short": "USPS", "operator:type": "public", "operator:wikidata": "Q668687", "ref": "0861800034"}, "type": "Feature"}
{"geometry": {"coordinates": [-74.7781424, 40.22533], "type": "Point"}, "id": "GmUsD77eG9-9xfgOCPTRZUWfiV4=", "properties": {"@source_uri": "https://tools.usps.com/UspsToolsRestServices/rest/POLocator/findLocations", "@spider": "usps_collection_boxes", "addr:city": "EWING", "addr:country": "US", "addr:postcode": "08618", "addr:state": "NJ", "addr:street_address": "407 W STATE ST", "amenity": "post_box", "brand": "United States Postal Service", "brand:wikidata": "Q668687", "collection_times": "Mo-Sa 10:00", "nsi_id": "unitedstatespostalservice-a77078", "operator": "United States Postal Service", "operator:short": "USPS", "operator:type": "public", "operator:wikidata": "Q668687", "ref": "0861800037"}, "type": "Feature"}
{"geometry": {"coordinates": [-74.7863826, 40.229516], "type": "Point"}, "id": "1AsoS8Y3R-dQvcAif1daKsjmhog=", "properties": {"@source_uri": "https://tools.usps.com/UspsToolsRestServices/rest/POLocator/findLocations", "@spider": "usps_collection_boxes", "addr:city": "EWING", "addr:country": "US", "addr:postcode": "08618", "addr:state": "NJ", "addr:street_address": "777 W STATE ST", "amenity": "post_box", "brand": "United States Postal Service", "brand:wikidata": "Q668687", "collection_times": "Mo-Sa 10:00", "nsi_id": "unitedstatespostalservice-a77078", "operator": "United States Postal Service", "operator:short": "USPS", "operator:type": "public", "operator:wikidata": "Q668687", "ref": "0861800040"}, "type": "Feature"}
{"geometry": {"coordinates": [-74.793906, 40.233615], "type": "Point"}, "id": "MYP-qXuanXqFxUN0LidzhDaZFeQ=", "properties": {"@source_uri": "https://tools.usps.com/UspsToolsRestServices/rest/POLocator/findLocations", "@spider": "usps_collection_boxes", "addr:city": "EWING", "addr:country": "US", "addr:postcode": "08618", "addr:state": "NJ", "addr:street_address": "1119 W STATE ST", "amenity": "post_box", "brand": "United States Postal Service", "brand:wikidata": "Q668687", "collection_times": "Mo-Sa 10:00", "nsi_id": "unitedstatespostalservice-a77078", "operator": "United States Postal Service", "operator:short": "USPS", "operator:type": "public", "operator:wikidata": "Q668687", "ref": "0861800041"}, "type": "Feature"}
{"geometry": {"coordinates": [-74.7961455, 40.234549], "type": "Point"}, "id": "wH62MKPes2dlx2o9SW71SosAAHo=", "properties": {"@source_uri": "https://tools.usps.com/UspsToolsRestServices/rest/POLocator/findLocations", "@spider": "usps_collection_boxes", "addr:city": "EWING", "addr:country": "US", "addr:postcode": "08618", "addr:state": "NJ", "addr:street_address": "1315 W STATE ST", "amenity": "post_box", "brand": "United States Postal Service", "brand:wikidata": "Q668687", "collection_times": "Mo-Sa 10:00", "nsi_id": "unitedstatespostalservice-a77078", "operator": "United States Postal Service", "operator:short": "USPS", "operator:type": "public", "operator:wikidata": "Q668687", "ref": "0861800042"}, "type": "Feature"}
{"geometry": {"coordinates": [-74.798142, 40.235911], "type": "Point"}, "id": "HjWkOOzmAlhZPKb6lNYPygHzvD4=", "properties": {"@source_uri": "https://tools.usps.com/UspsToolsRestServices/rest/POLocator/findLocations", "@spider": "usps_collection_boxes", "addr:city": "EWING", "addr:country": "US", "addr:postcode": "08618", "addr:state": "NJ", "addr:street_address": "1450 W STATE ST", "amenity": "post_box", "brand": "United States Postal Service", "brand:wikidata": "Q668687", "collection_times": "Mo-Sa 10:00", "nsi_id": "unitedstatespostalservice-a77078", "operator": "United States Postal Service", "operator:short": "USPS", "operator:type": "public", "operator:wikidata": "Q668687", "ref": "0861800043"}, "type": "Feature"}
{"geometry": {"coordinates": [-74.7726889359, 40.2315322152], "type": "Point"}, "id": "pn0xwPObi5jbdcmXr1lKqH221Ao=", "properties": {"@source_uri": "https://tools.usps.com/UspsToolsRestServices/rest/POLocator/findLocations", "@spider": "usps_collection_boxes", "addr:city": "EWING", "addr:country": "US", "addr:postcode": "08618", "addr:state": "NJ", "addr:street_address": "28 PROSPECT VLG", "amenity": "post_box", "brand": "United States Postal Service", "brand:wikidata": "Q668687", "collection_times": "Mo-Sa 10:00", "nsi_id": "unitedstatespostalservice-a77078", "operator": "United States Postal Service", "operator:short": "USPS", "operator:type": "public", "operator:wikidata": "Q668687", "ref": "0861800044"}, "type": "Feature"}
{"geometry": {"coordinates": [-74.7839242, 40.228586], "type": "Point"}, "id": "C0ns9MypKcPqpdDsS54Iul7UQD0=", "properties": {"@source_uri": "https://tools.usps.com/UspsToolsRestServices/rest/POLocator/findLocations", "@spider": "usps_collection_boxes", "addr:city": "EWING", "addr:country": "US", "addr:postcode": "08618", "addr:state": "NJ", "addr:street_address": "630 W STATE ST", "amenity": "post_box", "brand": "United States Postal Service", "brand:wikidata": "Q668687", "collection_times": "Mo-Sa 10:00", "nsi_id": "unitedstatespostalservice-a77078", "operator": "United States Postal Service", "operator:short": "USPS", "operator:type": "public", "operator:wikidata": "Q668687", "ref": "0861800046"}, "type": "Feature"}
{"geometry": {"coordinates": [-74.7906128, 40.232239], "type": "Point"}, "id": "JHoAt5wNezu8WetxTGSpK6vmqUs=", "properties": {"@source_uri": "https://tools.usps.com/UspsToolsRestServices/rest/POLocator/findLocations", "@spider": "usps_collection_boxes", "addr:city": "EWING", "addr:country": "US", "addr:postcode": "08618", "addr:state": "NJ", "addr:street_address": "942 W STATE ST", "amenity": "post_box", "brand": "United States Postal Service", "brand:wikidata": "Q668687", "collection_times": "Mo-Sa 10:00", "nsi_id": "unitedstatespostalservice-a77078", "operator": "United States Postal Service", "operator:short": "USPS", "operator:type": "public", "operator:wikidata": "Q668687", "ref": "0861800048"}, "type": "Feature"}
{"geometry": {"coordinates": [-74.7680635, 40.2286452], "type": "Point"}, "id": "V97opbtBcW52FQm_rLyGToSII-o=", "properties": {"@source_uri": "https://tools.usps.com/UspsToolsRestServices/rest/POLocator/findLocations", "@spider": "usps_collection_boxes", "addr:city": "EWING", "addr:country": "US", "addr:postcode": "08618", "addr:state": "NJ", "addr:street_address": "578 PERRY ST", "amenity": "post_box", "brand": "United States Postal Service", "brand:wikidata": "Q668687", "collection_times": "Mo-Sa 10:00", "nsi_id": "unitedstatespostalservice-a77078", "operator": "United States Postal Service", "operator:short": "USPS", "operator:type": "public", "operator:wikidata": "Q668687", "ref": "0861800049"}, "type": "Feature"}
{"geometry": {"coordinates": [-74.8001589, 40.233991], "type": "Point"}, "id": "rAe-GEnYDJE_mWGhzPRqee8d0SU=", "properties": {"@source_uri": "https://tools.usps.com/UspsToolsRestServices/rest/POLocator/findLocations", "@spider": "usps_collection_boxes", "addr:city": "EWING", "addr:country": "US", "addr:postcode": "08618", "addr:state": "NJ", "addr:street_address": "1600 RIVERSIDE DR", "amenity": "post_box", "brand": "United States Postal Service", "brand:wikidata": "Q668687", "collection_times": "Mo-Sa 10:00", "nsi_id": "unitedstatespostalservice-a77078", "operator": "United States Postal Service", "operator:short": "USPS", "operator:type": "public", "operator:wikidata": "Q668687", "ref": "0861800050"}, "type": "Feature"}
{"geometry": {"coordinates": [-74.7693573, 40.222116], "type": "Point"}, "id": "No49WZZz6IILGuoC0s9I2iLIwpI=", "properties": {"@source_uri": "https://tools.usps.com/UspsToolsRestServices/rest/POLocator/findLocations", "@spider": "usps_collection_boxes", "addr:city": "EWING", "addr:country": "US", "addr:postcode": "08618", "addr:state": "NJ", "addr:street_address": "135 W HANOVER ST", "amenity": "post_box", "brand": "United States Postal Service", "brand:wikidata": "Q668687", "collection_times": "Mo-Sa 11:00", "nsi_id": "unitedstatespostalservice-a77078", "operator": "United States Postal Service", "operator:short": "USPS", "operator:type": "public", "operator:wikidata": "Q668687", "ref": "0861800051"}, "type": "Feature"}
{"geometry": {"coordinates": [-74.7675279, 40.22556], "type": "Point"}, "id": "keseSJ2WEUmEClaPTosRxTWrdAQ=", "properties": {"@source_uri": "https://tools.usps.com/UspsToolsRestServices/rest/POLocator/findLocations", "@spider": "usps_collection_boxes", "addr:city": "EWING", "addr:country": "US", "addr:postcode": "08618", "addr:state": "NJ", "addr:street_address": "260 N WILLOW ST", "amenity": "post_box", "brand": "United States Postal Service", "brand:wikidata": "Q668687", "collection_times": "Mo-Sa 10:00", "nsi_id": "unitedstatespostalservice-a77078", "operator": "United States Postal Service", "operator:short": "USPS", "operator:type": "public", "operator:wikidata": "Q668687", "ref": "0861800052"}, "type": "Feature"}
{"geometry": {"coordinates": [-74.7878347, 40.251605], "type": "Point"}, "id": "x8AqDx_ERI44Ps5qQRZaYF6kvIo=", "properties": {"@source_uri": "https://tools.usps.com/UspsToolsRestServices/rest/POLocator/findLocations", "@spider": "usps_collection_boxes", "addr:city": "EWING", "addr:country": "US", "addr:postcode": "08618", "addr:state": "NJ", "addr:street_address": "1977 N OLDEN AVENUE EXT", "amenity": "post_box", "brand": "United States Postal Service", "brand:wikidata": "Q668687", "collection_times": "Mo-Sa 10:00", "nsi_id": "unitedstatespostalservice-a77078", "operator": "United States Postal Service", "operator:short": "USPS", "operator:type": "public", "operator:wikidata": "Q668687", "ref": "0861800053"}, "type": "Feature"}
{"geometry": {"coordinates": [-74.7639507, 40.228146], "type": "Point"}, "id": "C1XaKmOzMdIosaANAsleVaIVaDI=", "properties": {"@source_uri": "https://tools.usps.com/UspsToolsRestServices/rest/POLocator/findLocations", "@spider": "usps_collection_boxes", "addr:city": "EWING", "addr:country": "US", "addr:postcode": "08618", "addr:state": "NJ", "addr:street_address": "483 MARTIN LUTHER KING JR BLVD", "amenity": "post_box", "brand": "United States Postal Service", "brand:wikidata": "Q668687", "collection_times": "Mo-Sa 10:00", "nsi_id": "unitedstatespostalservice-a77078", "operator": "United States Postal Service", "operator:short": "USPS", "operator:type": "public", "operator:wikidata": "Q668687", "ref": "0861800054"}, "type": "Feature"}
{"geometry": {"coordinates": [-74.7801152, 40.226608], "type": "Point"}, "id": "qDbCdTzsg11QkTYpHvogVzPCkRk=", "properties": {"@source_uri": "https://tools.usps.com/UspsToolsRestServices/rest/POLocator/findLocations", "@spider": "usps_collection_boxes", "addr:city": "EWING", "addr:country": "US", "addr:postcode": "08618", "addr:state": "NJ", "addr:street_address": "489 W STATE ST", "amenity": "post_box", "brand": "United States Postal Service", "brand:wikidata": "Q668687", "collection_times": "Mo-Sa 10:00", "nsi_id": "unitedstatespostalservice-a77078", "operator": "United States Postal Service", "operator:short": "USPS", "operator:type": "public", "operator:wikidata": "Q668687", "ref": "0861800055"}, "type": "Feature"}
{"geometry": {"coordinates": [-74.792703457, 40.255595474], "type": "Point"}, "id": "Ecqt3pCWpiD3mkghuVt6SUdFR8E=", "properties": {"@source_uri": "https://tools.usps.com/UspsToolsRestServices/rest/POLocator/findLocations", "@spider": "usps_collection_boxes", "addr:city": "EWING", "addr:country": "US", "addr:postcode": "08618", "addr:state": "NJ", "addr:street_address": "940 PARKWAY AVE", "amenity": "post_box", "brand": "United States Postal Service", "brand:wikidata": "Q668687", "collection_times": "Mo-Sa 10:00", "nsi_id": "unitedstatespostalservice-a77078", "operator": "United States Postal Service", "operator:short": "USPS", "operator:type": "public", "operator:wikidata": "Q668687", "ref": "0861800056"}, "type": "Feature"}
{"geometry": {"coordinates": [-74.6814728294, 40.2398325483], "type": "Point"}, "id": "bp59GamnR2IxpYdnEvpDixGTenw=", "properties": {"@source_uri": "https://tools.usps.com/UspsToolsRestServices/rest/POLocator/findLocations", "@spider": "usps_collection_boxes", "addr:city": "TRENTON", "addr:country": "US", "addr:postcode": "08619", "addr:state": "NJ", "addr:street_address": "315 EDINBURG RD", "amenity": "post_box", "brand": "United States Postal Service", "brand:wikidata": "Q668687", "collection_times": "Mo-Sa 11:00", "nsi_id": "unitedstatespostalservice-a77078", "operator": "United States Postal Service", "operator:short": "USPS", "operator:type": "public", "operator:wikidata": "Q668687", "ref": "0861900000"}, "type": "Feature"}
{"geometry": {"coordinates": [-74.6946588, 40.231448], "type": "Point"}, "id": "3cJkUsXxHby0DrU5AG6nZXNxHCs=", "properties": {"@source_uri": "https://tools.usps.com/UspsToolsRestServices/rest/POLocator/findLocations", "@spider": "usps_collection_boxes", "addr:city": "TRENTON", "addr:country": "US", "addr:postcode": "08619", "addr:state": "NJ", "addr:street_address": "229 CRESCENT AVE", "amenity": "post_box", "brand": "United States Postal Service", "brand:wikidata": "Q668687", "collection_times": "Mo-Sa 11:00", "nsi_id": "unitedstatespostalservice-a77078", "operator": "United States Postal Service", "operator:short": "USPS", "operator:type": "public", "operator:wikidata": "Q668687", "ref": "0861900001"}, "type": "Feature"}
{"geometry": {"coordinates": [-74.7024357, 40.209877], "type": "Point"}, "id": "DH0HazegUXeDLQf9oRVCmBWoCXE=", "properties": {"@source_uri": "https://tools.usps.com/UspsToolsRestServices/rest/POLocator/findLocations", "@spider": "usps_collection_boxes", "addr:city": "TRENTON", "addr:country": "US", "addr:postcode": "08619", "addr:state": "NJ", "addr:street_address": "1345 KUSER RD", "amenity": "post_box", "brand": "United States Postal Service", "brand:wikidata": "Q668687", "collection_times": "Mo-Sa 10:00", "nsi_id": "unitedstatespostalservice-a77078", "operator": "United States Postal Service", "operator:short": "USPS", "operator:type": "public", "operator:wikidata": "Q668687", "ref": "0861900007"}, "type": "Feature"}
{"geometry": {"coordinates": [-74.6964636, 40.20809], "type": "Point"}, "id": "k6fADOT-QIQheuhayAinmtV-jIc=", "properties": {"@source_uri": "https://tools.usps.com/UspsToolsRestServices/rest/POLocator/findLocations", "@spider": "usps_collection_boxes", "addr:city": "TRENTON", "addr:country": "US", "addr:postcode": "08619", "addr:state": "NJ", "addr:street_address": "1540 KUSER RD", "amenity": "post_box", "brand": "United States Postal Service", "brand:wikidata": "Q668687", "collection_times": "Mo-Sa 10:00", "nsi_id": "unitedstatespostalservice-a77078", "operator": "United States Postal Service", "operator:short": "USPS", "operator:type": "public", "operator:wikidata": "Q668687", "ref": "0861900009"}, "type": "Feature"}
{"geometry": {"coordinates": [-74.7117144, 40.232736], "type": "Point"}, "id": "1nBvofcykrkxZzk2PGvwPwuKEp4=", "properties": {"@source_uri": "https://tools.usps.com/UspsToolsRestServices/rest/POLocator/findLocations", "@spider": "usps_collection_boxes", "addr:city": "TRENTON", "addr:country": "US", "addr:postcode": "08619", "addr:state": "NJ", "addr:street_address": "1903 NOTTINGHAM WAY", "amenity": "post_box", "brand": "United States Postal Service", "brand:wikidata": "Q668687", "collection_times": "Mo-Sa 11:00", "nsi_id": "unitedstatespostalservice-a77078", "operator": "United States Postal Service", "operator:short": "USPS", "operator:type": "public", "operator:wikidata": "Q668687", "ref": "0861900011"}, "type": "Feature"}
{"geometry": {"coordinates": [-74.7107367106, 40.2160605967], "type": "Point"}, "id": "gAf-v_45WtYhl7cb8pSYi45LDmw=", "properties": {"@source_uri": "https://tools.usps.com/UspsToolsRestServices/rest/POLocator/findLocations", "@spider": "usps_collection_boxes", "addr:city": "TRENTON", "addr:country": "US", "addr:postcode": "08619", "addr:state": "NJ", "addr:street_address": "101 NOTTINGHILL LN", "amenity": "post_box", "brand": "United States Postal Service", "brand:wikidata": "Q668687", "collection_times": "Mo-Sa 10:00", "nsi_id": "unitedstatespostalservice-a77078", "operator": "United States Postal Service", "operator:short": "USPS", "operator:type": "public", "operator:wikidata": "Q668687", "ref": "0861900012"}, "type": "Feature"}
{"geometry": {"coordinates": [-74.6832694, 40.253542], "type": "Point"}, "id": "feLQfIp4opp1pI3vDv23iC58dho=", "properties": {"@source_uri": "https://tools.usps.com/UspsToolsRestServices/rest/POLocator/findLocations", "@spider": "usps_collection_boxes", "addr:city": "TRENTON", "addr:country": "US", "addr:postcode": "08619", "addr:state": "NJ", "addr:street_address": "1 QUAKERBRIDGE PLZ", "amenity": "post_box", "brand": "United States Postal Service", "brand:wikidata": "Q668687", "collection_times": "Mo-Sa 10:00", "nsi_id": "unitedstatespostalservice-a77078", "operator": "United States Postal Service", "operator:short": "USPS", "operator:type": "public", "operator:wikidata": "Q668687", "ref": "0861900013"}, "type": "Feature"}
{"geometry": {"coordinates": [-74.6747239, 40.262012], "type": "Point"}, "id": "wTY5-_16WdIfhOTTRIJzf1TSiW4=", "properties": {"@source_uri": "https://tools.usps.com/UspsToolsRestServices/rest/POLocator/findLocations", "@spider": "usps_collection_boxes", "addr:city": "TRENTON", "addr:country": "US", "addr:postcode": "08619", "addr:state": "NJ", "addr:street_address": "3705 QUAKERBRIDGE RD", "amenity": "post_box", "brand": "United States Postal Service", "brand:wikidata": "Q668687", "collection_times": "Mo-Sa 10:00", "nsi_id": "unitedstatespostalservice-a77078", "operator": "United States Postal Service", "operator:short": "USPS", "operator:type": "public", "operator:wikidata": "Q668687", "ref": "0861900014"}, "type": "Feature"}
{"geometry": {"coordinates": [-74.6767236, 40.260061], "type": "Point"}, "id": "xo0Lu71fHiW-Rek3JowoBqcZ0MQ=", "properties": {"@source_uri": "https://tools.usps.com/UspsToolsRestServices/rest/POLocator/findLocations", "@spider": "usps_collection_boxes", "addr:city": "TRENTON", "addr:country": "US", "addr:postcode": "08619", "addr:state": "NJ", "addr:street_address": "3635 QUAKERBRIDGE RD", "amenity": "post_box", "brand": "United States Postal Service", "brand:wikidata": "Q668687", "collection_times": "Mo-Sa 10:00", "nsi_id": "unitedstatespostalservice-a77078", "operator": "United States Postal Service", "operator:short": "USPS", "operator:type": "public", "operator:wikidata": "Q668687", "ref": "0861900016"}, "type": "Feature"}
{"geometry": {"coordinates": [-74.6886143, 40.247966], "type": "Point"}, "id": "4BNve5Z7OOS9JMCE6KcndkE2slw=", "properties": {"@source_uri": "https://tools.usps.com/UspsToolsRestServices/rest/POLocator/findLocations", "@spider": "usps_collection_boxes", "addr:city": "TRENTON", "addr:country": "US", "addr:postcode": "08619", "addr:state": "NJ", "addr:street_address": "3100 QUAKERBRIDGE RD", "amenity": "post_box", "brand": "United States Postal Service", "brand:wikidata": "Q668687", "collection_times": "Mo-Sa 10:00", "nsi_id": "unitedstatespostalservice-a77078", "operator": "United States Postal Service", "operator:short": "USPS", "operator:type": "public", "operator:wikidata": "Q668687", "ref": "0861900017"}, "type": "Feature"}
{"geometry": {"coordinates": [-74.686009509, 40.233180064], "type": "Point"}, "id": "mtX9AkEVv6WNbZAVu_KCme_0qoc=", "properties": {"@source_uri": "https://tools.usps.com/UspsToolsRestServices/rest/POLocator/findLocations", "@spider": "usps_collection_boxes", "addr:city": "TRENTON", "addr:country": "US", "addr:postcode": "08619", "addr:state": "NJ", "addr:street_address": "339 STATE ROUTE 33", "amenity": "post_box", "brand": "United States Postal Service", "brand:wikidata": "Q668687", "collection_times": "Mo-Sa 15:00", "note": "ON 12/24 AND 12/31, THIS BOX MAY BE COLLECTED AS EARLY AS 12 NOON.", "nsi_id": "unitedstatespostalservice-a77078", "operator": "United States Postal Service", "operator:short": "USPS", "operator:type": "public", "operator:wikidata": "Q668687", "ref": "0861900021"}, "type": "Feature"}
{"geometry": {"coordinates": [-74.712307031, 40.226710699], "type": "Point"}, "id": "4mYVlnSKhbc4KA5gWq3zguWHfoU=", "properties": {"@source_uri": "https://tools.usps.com/UspsToolsRestServices/rest/POLocator/findLocations", "@spider": "usps_collection_boxes", "addr:city": "TRENTON", "addr:country": "US", "addr:postcode": "08619", "addr:state": "NJ", "addr:street_address": "1 CYPRESS LN", "amenity": "post_box", "brand": "United States Postal Service", "brand:wikidata": "Q668687", "collection_times": "Mo-Sa 10:00", "nsi_id": "unitedstatespostalservice-a77078", "operator": "United States Postal Service", "operator:short": "USPS", "operator:type": "public", "operator:wikidata": "Q668687", "ref": "0861900023"}, "type": "Feature"}
{"geometry": {"coordinates": [-74.6865917, 40.230528], "type": "Point"}, "id": "aJpNPH6MbSMjH07H71FOLaMC5BA=", "properties": {"@source_uri": "https://tools.usps.com/UspsToolsRestServices/rest/POLocator/findLocations", "@spider": "usps_collection_boxes", "addr:city": "TRENTON", "addr:country": "US", "addr:postcode": "08619", "addr:state": "NJ", "addr:street_address": "2333 WHITEHORSE MERCERVILLE RD", "amenity": "post_box", "brand": "United States Postal Service", "brand:wikidata": "Q668687", "collection_times": "Mo-Sa 10:00", "nsi_id": "unitedstatespostalservice-a77078", "operator": "United States Postal Service", "operator:short": "USPS", "operator:type": "public", "operator:wikidata": "Q668687", "ref": "0861900024"}, "type": "Feature"}
{"geometry": {"coordinates": [-74.6832721, 40.253544], "type": "Point"}, "id": "reCTKwPPtV2hxQR3zxEAj_g26SQ=", "properties": {"@source_uri": "https://tools.usps.com/UspsToolsRestServices/rest/POLocator/findLocations", "@spider": "usps_collection_boxes", "addr:city": "TRENTON", "addr:country": "US", "addr:postcode": "08619", "addr:state": "NJ", "addr:street_address": "1 QUAKERBRIDGE PLZ", "amenity": "post_box", "brand": "United States Postal Service", "brand:wikidata": "Q668687", "collection_times": "Mo-Fr 15:00; Sa 11:00", "name": "USPS COLLECTION BOX - EXPRESS", "note": "ON 12/24 AND 12/31, THIS BOX MAY BE COLLECTED AS EARLY AS 12 NOON.", "nsi_id": "unitedstatespostalservice-a77078", "operator": "United States Postal Service", "operator:short": "USPS", "operator:type": "public", "operator:wikidata": "Q668687", "ref": "0861900028"}, "type": "Feature"}
{"geometry": {"coordinates": [-74.6969614, 40.233899], "type": "Point"}, "id": "XU0KU4L5GJPRsKRXmXP2bApgaak=", "properties": {"@source_uri": "https://tools.usps.com/UspsToolsRestServices/rest/POLocator/findLocations", "@spider": "usps_collection_boxes", "addr:city": "TRENTON", "addr:country": "US", "addr:postcode": "08619", "addr:state": "NJ", "addr:street_address": "2419 NOTTINGHAM WAY", "amenity": "post_box", "brand": "United States Postal Service", "brand:wikidata": "Q668687", "collection_times": "Mo-Sa 10:00", "nsi_id": "unitedstatespostalservice-a77078", "operator": "United States Postal Service", "operator:short": "USPS", "operator:type": "public", "operator:wikidata": "Q668687", "ref": "0861900030"}, "type": "Feature"}
{"geometry": {"coordinates": [-74.6786435, 40.234309], "type": "Point"}, "id": "qF0ZheNKT1Yhf186rBBMpKSvulE=", "properties": {"@source_uri": "https://tools.usps.com/UspsToolsRestServices/rest/POLocator/findLocations", "@spider": "usps_collection_boxes", "addr:city": "TRENTON", "addr:country": "US", "addr:postcode": "08619", "addr:state": "NJ", "addr:street_address": "2918 NOTTINGHAM WAY", "amenity": "post_box", "brand": "United States Postal Service", "brand:wikidata": "Q668687", "collection_times": "Mo-Sa 11:00", "nsi_id": "unitedstatespostalservice-a77078", "operator": "United States Postal Service", "operator:short": "USPS", "operator:type": "public", "operator:wikidata": "Q668687", "ref": "0861900032"}, "type": "Feature"}
{"geometry": {"coordinates": [-74.7039289, 40.255033], "type": "Point"}, "id": "qiLNiGMRVDSTFbTOjREEgsZ8rJ0=", "properties": {"@source_uri": "https://tools.usps.com/UspsToolsRestServices/rest/POLocator/findLocations", "@spider": "usps_collection_boxes", "addr:city": "TRENTON", "addr:country": "US", "addr:postcode": "08619", "addr:state": "NJ", "addr:street_address": "800 SLOAN AVE", "amenity": "post_box", "brand": "United States Postal Service", "brand:wikidata": "Q668687", "collection_times": "Mo-Sa 10:00", "nsi_id": "unitedstatespostalservice-a77078", "operator": "United States Postal Service", "operator:short": "USPS", "operator:type": "public", "operator:wikidata": "Q668687", "ref": "0861900033"}, "type": "Feature"}
{"geometry": {"coordinates": [-74.6857131, 40.232718], "type": "Point"}, "id": "SH5-NLI_5MwPpDARaGCXZaVB8FU=", "properties": {"@source_uri": "https://tools.usps.com/UspsToolsRestServices/rest/POLocator/findLocations", "@spider": "usps_collection_boxes", "addr:city": "TRENTON", "addr:country": "US", "addr:postcode": "08619", "addr:state": "NJ", "addr:street_address": "339 STATE ROUTE 33", "amenity": "post_box", "brand": "United States Postal Service", "brand:wikidata": "Q668687", "collection_times": "Mo-Sa 15:00", "note": "ON 12/24 AND 12/31, THIS BOX MAY BE COLLECTED AS EARLY AS 12 NOON.", "nsi_id": "unitedstatespostalservice-a77078", "operator": "United States Postal Service", "operator:short": "USPS", "operator:type": "public", "operator:wikidata": "Q668687", "ref": "0861900036"}, "type": "Feature"}
{"geometry": {"coordinates": [-74.6783274, 40.231207], "type": "Point"}, "id": "YA4Tvk-o0jyDP9MB4jR2rQFfklo=", "properties": {"@source_uri": "https://tools.usps.com/UspsToolsRestServices/rest/POLocator/findLocations", "@spider": "usps_collection_boxes", "addr:city": "TRENTON", "addr:country": "US", "addr:postcode": "08619", "addr:state": "NJ", "addr:street_address": "691 STATE ROUTE 33", "amenity": "post_box", "brand": "United States Postal Service", "brand:wikidata": "Q668687", "collection_times": "Mo-Fr 15:00; Sa 11:00", "note": "ON 12/24 AND 12/31, THIS BOX MAY BE COLLECTED AS EARLY AS 12 NOON.", "nsi_id": "unitedstatespostalservice-a77078", "operator": "United States Postal Service", "operator:short": "USPS", "operator:type": "public", "operator:wikidata": "Q668687", "ref": "0861900037"}, "type": "Feature"}
{"geometry": {"coordinates": [-74.685828, 40.233133], "type": "Point"}, "id": "dSQlMnBQdkuCvq3igegoUwd0yLI=", "properties": {"@source_uri": "https://tools.usps.com/UspsToolsRestServices/rest/POLocator/findLocations", "@spider": "usps_collection_boxes", "addr:city": "TRENTON", "addr:country": "US", "addr:postcode": "08619", "addr:state": "NJ", "addr:street_address": "339 STATE HIGHWAY 33", "amenity": "post_box", "brand": "United States Postal Service", "brand:wikidata": "Q668687", "collection_times": "Mo-Fr 17:00; Sa 15:00", "indoor": "yes", "note": "ON 12/24 AND 12/31, THIS BOX MAY BE COLLECTED AS EARLY AS 12 NOON.", "nsi_id": "unitedstatespostalservice-a77078", "operator": "United States Postal Service", "operator:short": "USPS", "operator:type": "public", "operator:wikidata": "Q668687", "ref": "0861900039"}, "type": "Feature"}
{"geometry": {"coordinates": [-74.7032715, 40.221452], "type": "Point"}, "id": "6rZSWwVNv4xjfPPufXwyRYxLAmo=", "properties": {"@source_uri": "https://tools.usps.com/UspsToolsRestServices/rest/POLocator/findLocations", "@spider": "usps_collection_boxes", "addr:city": "TRENTON", "addr:country": "US", "addr:postcode": "08619", "addr:state": "NJ", "addr:street_address": "409 CYPRESS LN", "amenity": "post_box", "brand": "United States Postal Service", "brand:wikidata": "Q668687", "collection_times": "Mo-Sa 10:00", "nsi_id": "unitedstatespostalservice-a77078", "operator": "United States Postal Service", "operator:short": "USPS", "operator:type": "public", "operator:wikidata": "Q668687", "ref": "0861900040"}, "type": "Feature"}
{"geometry": {"coordinates": [-74.686009509, 40.233180064], "type": "Point"}, "id": "daUCnqHNgnXsMaunN1yKXkZce20=", "properties": {"@source_uri": "https://tools.usps.com/UspsToolsRestServices/rest/POLocator/findLocations", "@spider": "usps_collection_boxes", "addr:city": "TRENTON", "addr:country": "US", "addr:postcode": "08619", "addr:state": "NJ", "addr:street_address": "339 HIGHWAY 33 STE 2", "amenity": "post_box", "brand": "United States Postal Service", "brand:wikidata": "Q668687", "collection_times": "Mo-Fr 15:15; Sa 15:00", "indoor": "yes", "note": "ON 12/24 AND 12/31, THIS BOX MAY BE COLLECTED AS EARLY AS 12 NOON.", "nsi_id": "unitedstatespostalservice-a77078", "operator": "United States Postal Service", "operator:short": "USPS", "operator:type": "public", "operator:wikidata": "Q668687", "ref": "0861900045"}, "type": "Feature"}
{"geometry": {"coordinates": [-74.6781148, 40.185488], "type": "Point"}, "id": "sHW54P1BJRJEzo9W1ML9S_hXHKw=", "properties": {"@source_uri": "https://tools.usps.com/UspsToolsRestServices/rest/POLocator/findLocations", "@spider": "usps_collection_boxes", "addr:city": "TRENTON", "addr:country": "US", "addr:postcode": "08620", "addr:state": "NJ", "addr:street_address": "9 SUNNYBRAE BLVD", "amenity": "post_box", "brand": "United States Postal Service", "brand:wikidata": "Q668687", "collection_times": "Mo-Sa 15:00", "note": "ON 12/24 AND 12/31, THIS BOX MAY BE COLLECTED AS EARLY AS 12 NOON.", "nsi_id": "unitedstatespostalservice-a77078", "operator": "United States Postal Service", "operator:short": "USPS", "operator:type": "public", "operator:wikidata": "Q668687", "ref": "0862000000"}, "type": "Feature"}
{"geometry": {"coordinates": [-74.6710371, 40.178878], "type": "Point"}, "id": "KtRUL49MBD4Y_gRTlcdXNDHLevQ=", "properties": {"@source_uri": "https://tools.usps.com/UspsToolsRestServices/rest/POLocator/findLocations", "@spider": "usps_collection_boxes", "addr:city": "TRENTON", "addr:country": "US", "addr:postcode": "08620", "addr:state": "NJ", "addr:street_address": "4556 S BROAD ST", "amenity": "post_box", "brand": "United States Postal Service", "brand:wikidata": "Q668687", "collection_times": "Mo-Sa 11:00", "nsi_id": "unitedstatespostalservice-a77078", "operator": "United States Postal Service", "operator:short": "USPS", "operator:type": "public", "operator:wikidata": "Q668687", "ref": "0862000005"}, "type": "Feature"}
{"geometry": {"coordinates": [-74.6995517, 40.174268], "type": "Point"}, "id": "kB0yZwqHpUglRLC-ZyTimLDvTXA=", "properties": {"@source_uri": "https://tools.usps.com/UspsToolsRestServices/rest/POLocator/findLocations", "@spider": "usps_collection_boxes", "addr:city": "TRENTON", "addr:country": "US", "addr:postcode": "08620", "addr:state": "NJ", "addr:street_address": "3 MISSION RD", "amenity": "post_box", "brand": "United States Postal Service", "brand:wikidata": "Q668687", "collection_times": "Mo-Sa 11:00", "nsi_id": "unitedstatespostalservice-a77078", "operator": "United States Postal Service", "operator:short": "USPS", "operator:type": "public", "operator:wikidata": "Q668687", "ref": "0862000007"}, "type": "Feature"}
{"geometry": {"coordinates": [-74.8185509515, 40.264631582], "type": "Point"}, "id": "8STRNDx62k0pVhQiJPXLF0QEqUg=", "properties": {"@source_uri": "https://tools.usps.com/UspsToolsRestServices/rest/POLocator/findLocations", "@spider": "usps_collection_boxes", "addr:city": "EWING", "addr:country": "US", "addr:postcode": "08628", "addr:state": "NJ", "addr:street_address": "555 GRAND AVE", "amenity": "post_box", "brand": "United States Postal Service", "brand:wikidata": "Q668687", "collection_times": "Mo-Sa 15:00", "note": "ON 12/24 AND 12/31, THIS BOX MAY BE COLLECTED AS EARLY AS 12 NOON.", "nsi_id": "unitedstatespostalservice-a77078", "operator": "United States Postal Service", "operator:short": "USPS", "operator:type": "public", "operator:wikidata": "Q668687", "ref": "0862800002"}, "type": "Feature"}
{"geometry": {"coordinates": [-74.801707171, 40.278913467], "type": "Point"}, "id": "yCtetqXohWPY8mAVptDQD-7pg5I=", "properties": {"@source_uri": "https://tools.usps.com/UspsToolsRestServices/rest/POLocator/findLocations", "@spider": "usps_collection_boxes", "addr:city": "EWING", "addr:country": "US", "addr:postcode": "08628", "addr:state": "NJ", "addr:street_address": "2 JAKE GARZIO DR", "amenity": "post_box", "brand": "United States Postal Service", "brand:wikidata": "Q668687", "collection_times": "Mo-Sa 10:00", "nsi_id": "unitedstatespostalservice-a77078", "operator": "United States Postal Service", "operator:short": "USPS", "operator:type": "public", "operator:wikidata": "Q668687", "ref": "0862800007"}, "type": "Feature"}
{"geometry": {"coordinates": [-74.8035886, 40.275198], "type": "Point"}, "id": "ywdDPX5AlmrFBi1ewgeY1xfl_NY=", "properties": {"@source_uri": "https://tools.usps.com/UspsToolsRestServices/rest/POLocator/findLocations", "@spider": "usps_collection_boxes", "addr:city": "EWING", "addr:country": "US", "addr:postcode": "08628", "addr:state": "NJ", "addr:street_address": "186 SCOTCH RD", "amenity": "post_box", "brand": "United States Postal Service", "brand:wikidata": "Q668687", "collection_times": "Mo-Sa 12:30", "note": "ON 12/24 AND 12/31, THIS BOX MAY BE COLLECTED AS EARLY AS 12 NOON.", "nsi_id": "unitedstatespostalservice-a77078", "operator": "United States Postal Service", "operator:short": "USPS", "operator:type": "public", "operator:wikidata": "Q668687", "ref": "0862800009"}, "type": "Feature"}
{"geometry": {"coordinates": [-74.8292741, 40.279686], "type": "Point"}, "id": "gOdPm1nHz3JFVTqdn_PERgCoYnQ=", "properties": {"@source_uri": "https://tools.usps.com/UspsToolsRestServices/rest/POLocator/findLocations", "@spider": "usps_collection_boxes", "addr:city": "EWING", "addr:country": "US", "addr:postcode": "08628", "addr:state": "NJ", "addr:street_address": "840 BEAR TAVERN RD", "amenity": "post_box", "brand": "United States Postal Service", "brand:wikidata": "Q668687", "collection_times": "Mo-Sa 11:00", "nsi_id": "unitedstatespostalservice-a77078", "operator": "United States Postal Service", "operator:short": "USPS", "operator:type": "public", "operator:wikidata": "Q668687", "ref": "0862800011"}, "type": "Feature"}
{"geometry": {"coordinates": [-74.8005327, 40.263606], "type": "Point"}, "id": "3UaRlNAdYnS86byiaMRr21eN7Ok=", "properties": {"@source_uri": "https://tools.usps.com/UspsToolsRestServices/rest/POLocator/findLocations", "@spider": "usps_collection_boxes", "addr:city": "EWING", "addr:country": "US", "addr:postcode": "08628", "addr:state": "NJ", "addr:street_address": "1230 PARKWAY AVE", "amenity": "post_box", "brand": "United States Postal Service", "brand:wikidata": "Q668687", "collection_times": "Mo-Sa 10:00", "nsi_id": "unitedstatespostalservice-a77078", "operator": "United States Postal Service", "operator:short": "USPS", "operator:type": "public", "operator:wikidata": "Q668687", "ref": "0862800019"}, "type": "Feature"}
{"geometry": {"coordinates": [-74.8024776, 40.265461], "type": "Point"}, "id": "eNiAUEs1MCbgbuRomPE7faxcPCs=", "properties": {"@source_uri": "https://tools.usps.com/UspsToolsRestServices/rest/POLocator/findLocations", "@spider": "usps_collection_boxes", "addr:city": "EWING", "addr:country": "US", "addr:postcode": "08628", "addr:state": "NJ", "addr:street_address": "25 SCOTCH RD", "amenity": "post_box", "brand": "United States Postal Service", "brand:wikidata": "Q668687", "collection_times": "Mo-Sa 12:00", "nsi_id": "unitedstatespostalservice-a77078", "operator": "United States Postal Service", "operator:short": "USPS", "operator:type": "public", "operator:wikidata": "Q668687", "ref": "0862800021"}, "type": "Feature"}
{"geometry": {"coordinates": [-74.818551, 40.264635], "type": "Point"}, "id": "7_c2P_ekuPUfcBooOU4vM44URUk=", "properties": {"@source_uri": "https://tools.usps.com/UspsToolsRestServices/rest/POLocator/findLocations", "@spider": "usps_collection_boxes", "addr:city": "EWING", "addr:country": "US", "addr:postcode": "08628", "addr:state": "NJ", "addr:street_address": "555 GRAND AVE", "amenity": "post_box", "brand": "United States Postal Service", "brand:wikidata": "Q668687", "collection_times": "Mo-Fr 17:15; Sa 14:45", "indoor": "yes", "note": "ON 12/24 AND 12/31, THIS BOX MAY BE COLLECTED AS EARLY AS 12 NOON.", "nsi_id": "unitedstatespostalservice-a77078", "operator": "United States Postal Service", "operator:short": "USPS", "operator:type": "public", "operator:wikidata": "Q668687", "ref": "0862800022"}, "type": "Feature"}
{"geometry": {"coordinates": [-74.818550951, 40.264631582], "type": "Point"}, "id": "SAUoQuhuDf4WQvMJUSUsI5jMbvA=", "properties": {"@source_uri": "https://tools.usps.com/UspsToolsRestServices/rest/POLocator/findLocations", "@spider": "usps_collection_boxes", "addr:city": "EWING", "addr:country": "US", "addr:postcode": "08628", "addr:state": "NJ", "addr:street_address": "555 GRAND AVE", "amenity": "post_box", "brand": "United States Postal Service", "brand:wikidata": "Q668687", "collection_times": "Mo-Fr 16:30; Sa 13:45", "indoor": "yes", "note": "ON 12/24 AND 12/31, THIS BOX MAY BE COLLECTED AS EARLY AS 12 NOON.", "nsi_id": "unitedstatespostalservice-a77078", "operator": "United States Postal Service", "operator:short": "USPS", "operator:type": "public", "operator:wikidata": "Q668687", "ref": "0862800027"}, "type": "Feature"}
{"geometry": {"coordinates": [-74.801707171, 40.278913467], "type": "Point"}, "id": "sO2u-_3bs95Yk8e3o6dncyvh-Ao=", "properties": {"@source_uri": "https://tools.usps.com/UspsToolsRestServices/rest/POLocator/findLocations", "@spider": "usps_collection_boxes", "addr:city": "EWING", "addr:country": "US", "addr:postcode": "08628", "addr:state": "NJ", "addr:street_address": "2 JAKE GARZIO DR", "amenity": "post_box", "brand": "United States Postal Service", "brand:wikidata": "Q668687", "collection_times": "Mo-Sa 10:00", "nsi_id": "unitedstatespostalservice-a77078", "operator": "United States Postal Service", "operator:short": "USPS", "operator:type": "public", "operator:wikidata": "Q668687", "ref": "0862800028"}, "type": "Feature"}
{"geometry": {"coordinates": [-74.7404874, 40.216515], "type": "Point"}, "id": "89szREpHw9iVwFZygOXaETt3Cjc=", "properties": {"@source_uri": "https://tools.usps.com/UspsToolsRestServices/rest/POLocator/findLocations", "@spider": "usps_collection_boxes", "addr:city": "TRENTON", "addr:country": "US", "addr:postcode": "08629", "addr:state": "NJ", "addr:street_address": "601 HAMILTON AVE", "amenity": "post_box", "brand": "United States Postal Service", "brand:wikidata": "Q668687", "collection_times": "Mo-Sa 11:00", "nsi_id": "unitedstatespostalservice-a77078", "operator": "United States Postal Service", "operator:short": "USPS", "operator:type": "public", "operator:wikidata": "Q668687", "ref": "0862900003"}, "type": "Feature"}
{"geometry": {"coordinates": [-74.732899, 40.219857], "type": "Point"}, "id": "np0s5snwvgTVYvBtMhISHVLvK_o=", "properties": {"@source_uri": "https://tools.usps.com/UspsToolsRestServices/rest/POLocator/findLocations", "@spider": "usps_collection_boxes", "addr:city": "TRENTON", "addr:country": "US", "addr:postcode": "08629", "addr:state": "NJ", "addr:street_address": "1200 HAMILTON AVE", "amenity": "post_box", "brand": "United States Postal Service", "brand:wikidata": "Q668687", "collection_times": "Mo-Sa 11:00", "nsi_id": "unitedstatespostalservice-a77078", "operator": "United States Postal Service", "operator:short": "USPS", "operator:type": "public", "operator:wikidata": "Q668687", "ref": "0862900004"}, "type": "Feature"}
{"geometry": {"coordinates": [-74.7297472, 40.220679], "type": "Point"}, "id": "kfYOeMG8s0coguZPJr2lmribYg4=", "properties": {"@source_uri": "https://tools.usps.com/UspsToolsRestServices/rest/POLocator/findLocations", "@spider": "usps_collection_boxes", "addr:city": "TRENTON", "addr:country": "US", "addr:postcode": "08629", "addr:state": "NJ", "addr:street_address": "1300 HAMILTON AVE", "amenity": "post_box", "brand": "United States Postal Service", "brand:wikidata": "Q668687", "collection_times": "Mo-Sa 11:00", "nsi_id": "unitedstatespostalservice-a77078", "operator": "United States Postal Service", "operator:short": "USPS", "operator:type": "public", "operator:wikidata": "Q668687", "ref": "0862900005"}, "type": "Feature"}
{"geometry": {"coordinates": [-74.7340152, 40.219347], "type": "Point"}, "id": "HYueK2ZQWY0b4E5uSVJQR-V9mPk=", "properties": {"@source_uri": "https://tools.usps.com/UspsToolsRestServices/rest/POLocator/findLocations", "@spider": "usps_collection_boxes", "addr:city": "TRENTON", "addr:country": "US", "addr:postcode": "08629", "addr:state": "NJ", "addr:street_address": "1137 HAMILTON AVE", "amenity": "post_box", "brand": "United States Postal Service", "brand:wikidata": "Q668687", "collection_times": "Mo-Sa 15:00", "note": "ON 12/24 AND 12/31, THIS BOX MAY BE COLLECTED AS EARLY AS 12 NOON.", "nsi_id": "unitedstatespostalservice-a77078", "operator": "United States Postal Service", "operator:short": "USPS", "operator:type": "public", "operator:wikidata": "Q668687", "ref": "0862900008"}, "type": "Feature"}
{"geometry": {"coordinates": [-74.7334636, 40.216685], "type": "Point"}, "id": "HSvOMFc51-uNoQ32OOCgKx8jsLM=", "properties": {"@source_uri": "https://tools.usps.com/UspsToolsRestServices/rest/POLocator/findLocations", "@spider": "usps_collection_boxes", "addr:city": "TRENTON", "addr:country": "US", "addr:postcode": "08629", "addr:state": "NJ", "addr:street_address": "934 PARK AVE", "amenity": "post_box", "brand": "United States Postal Service", "brand:wikidata": "Q668687", "collection_times": "Mo-Sa 11:00", "nsi_id": "unitedstatespostalservice-a77078", "operator": "United States Postal Service", "operator:short": "USPS", "operator:type": "public", "operator:wikidata": "Q668687", "ref": "0862900009"}, "type": "Feature"}
{"geometry": {"coordinates": [-74.734078, 40.219341], "type": "Point"}, "id": "W6kW8xYAUFetciLodQdcqBc-R6Y=", "properties": {"@source_uri": "https://tools.usps.com/UspsToolsRestServices/rest/POLocator/findLocations", "@spider": "usps_collection_boxes", "addr:city": "TRENTON", "addr:country": "US", "addr:postcode": "08629", "addr:state": "NJ", "addr:street_address": "1137 HAMILTON AVE", "amenity": "post_box", "brand": "United States Postal Service", "brand:wikidata": "Q668687", "collection_times": "Mo-Fr 16:30; Sa 14:00", "indoor": "yes", "note": "ON 12/24 AND 12/31, THIS BOX MAY BE COLLECTED AS EARLY AS 12 NOON.", "nsi_id": "unitedstatespostalservice-a77078", "operator": "United States Postal Service", "operator:short": "USPS", "operator:type": "public", "operator:wikidata": "Q668687", "ref": "0862900014"}, "type": "Feature"}
{"geometry": {"coordinates": [-74.734040721, 40.219299635], "type": "Point"}, "id": "cAg0FiCurHAEtMyDWpFzuZFN1GI=", "properties": {"@source_uri": "https://tools.usps.com/UspsToolsRestServices/rest/POLocator/findLocations", "@spider": "usps_collection_boxes", "addr:city": "TRENTON", "addr:country": "US", "addr:postcode": "08629", "addr:state": "NJ", "addr:street_address": "1137 HAMILTON AVE", "amenity": "post_box", "brand": "United States Postal Service", "brand:wikidata": "Q668687", "collection_times": "Mo-Fr 16:30; Sa 14:00", "indoor": "yes", "note": "ON 12/24 AND 12/31, THIS BOX MAY BE COLLECTED AS EARLY AS 12 NOON.", "nsi_id": "unitedstatespostalservice-a77078", "operator": "United States Postal Service", "operator:short": "USPS", "operator:type": "public", "operator:wikidata": "Q668687", "ref": "0862900017"}, "type": "Feature"}
{"geometry": {"coordinates": [-74.7516541078, 40.2377237521], "type": "Point"}, "id": "yUbxd7zL4huIHFlI3MC4taO1Eoo=", "properties": {"@source_uri": "https://tools.usps.com/UspsToolsRestServices/rest/POLocator/findLocations", "@spider": "usps_collection_boxes", "addr:city": "EWING", "addr:country": "US", "addr:postcode": "08638", "addr:state": "NJ", "addr:street_address": "2601 BRUNSWICK AVE", "amenity": "post_box", "brand": "United States Postal Service", "brand:wikidata": "Q668687", "collection_times": "Mo-Sa 15:00", "note": "ON 12/24 AND 12/31, THIS BOX MAY BE COLLECTED AS EARLY AS 12 NOON.", "nsi_id": "unitedstatespostalservice-a77078", "operator": "United States Postal Service", "operator:short": "USPS", "operator:type": "public", "operator:wikidata": "Q668687", "ref": "0863800000"}, "type": "Feature"}
{"geometry": {"coordinates": [-74.7516538886, 40.237723911], "type": "Point"}, "id": "1PA0-OUmtAYlY5FtoAaiUW7mhiY=", "properties": {"@source_uri": "https://tools.usps.com/UspsToolsRestServices/rest/POLocator/findLocations", "@spider": "usps_collection_boxes", "addr:city": "EWING", "addr:country": "US", "addr:postcode": "08638", "addr:state": "NJ", "addr:street_address": "2601 BRUNSWICK AVE", "amenity": "post_box", "brand": "United States Postal Service", "brand:wikidata": "Q668687", "collection_times": "Mo-Sa 15:00", "note": "ON 12/24 AND 12/31, THIS BOX MAY BE COLLECTED AS EARLY AS 12 NOON.", "nsi_id": "unitedstatespostalservice-a77078", "operator": "United States Postal Service", "operator:short": "USPS", "operator:type": "public", "operator:wikidata": "Q668687", "ref": "0863800001"}, "type": "Feature"}
{"geometry": {"coordinates": [-74.7517434459, 40.2376361737], "type": "Point"}, "id": "Uvaw8vBgGWpyLb_bFWXZMnDTR5Q=", "properties": {"@source_uri": "https://tools.usps.com/UspsToolsRestServices/rest/POLocator/findLocations", "@spider": "usps_collection_boxes", "addr:city": "EWING", "addr:country": "US", "addr:postcode": "08638", "addr:state": "NJ", "addr:street_address": "2601 BRUNSWICK AVE", "amenity": "post_box", "brand": "United States Postal Service", "brand:wikidata": "Q668687", "collection_times": "Mo-Sa 15:00", "note": "ON 12/24 AND 12/31, THIS BOX MAY BE COLLECTED AS EARLY AS 12 NOON.", "nsi_id": "unitedstatespostalservice-a77078", "operator": "United States Postal Service", "operator:short": "USPS", "operator:type": "public", "operator:wikidata": "Q668687", "ref": "0863800002"}, "type": "Feature"}
{"geometry": {"coordinates": [-74.7503423, 40.238996], "type": "Point"}, "id": "QU02ekE5FsZgHURZrNJky3i7xHE=", "properties": {"@source_uri": "https://tools.usps.com/UspsToolsRestServices/rest/POLocator/findLocations", "@spider": "usps_collection_boxes", "addr:city": "EWING", "addr:country": "US", "addr:postcode": "08638", "addr:state": "NJ", "addr:street_address": "891 BRUNSWICK AVE", "amenity": "post_box", "brand": "United States Postal Service", "brand:wikidata": "Q668687", "collection_times": "Mo-Sa 10:00", "nsi_id": "unitedstatespostalservice-a77078", "operator": "United States Postal Service", "operator:short": "USPS", "operator:type": "public", "operator:wikidata": "Q668687", "ref": "0863800003"}, "type": "Feature"}
{"geometry": {"coordinates": [-74.7527034, 40.235938], "type": "Point"}, "id": "z22Uy5x-em82WZbY2eY89cLiZio=", "properties": {"@source_uri": "https://tools.usps.com/UspsToolsRestServices/rest/POLocator/findLocations", "@spider": "usps_collection_boxes", "addr:city": "EWING", "addr:country": "US", "addr:postcode": "08638", "addr:state": "NJ", "addr:street_address": "750 BRUNSWICK AVE", "amenity": "post_box", "brand": "United States Postal Service", "brand:wikidata": "Q668687", "collection_times": "Mo-Sa 14:00", "note": "ON 12/24 AND 12/31, THIS BOX MAY BE COLLECTED AS EARLY AS 12 NOON.", "nsi_id": "unitedstatespostalservice-a77078", "operator": "United States Postal Service", "operator:short": "USPS", "operator:type": "public", "operator:wikidata": "Q668687", "ref": "0863800004"}, "type": "Feature"}
{"geometry": {"coordinates": [-74.7437899, 40.23989], "type": "Point"}, "id": "En5hbnOdYECmYMHYeFZKkNDoDxM=", "properties": {"@source_uri": "https://tools.usps.com/UspsToolsRestServices/rest/POLocator/findLocations", "@spider": "usps_collection_boxes", "addr:city": "EWING", "addr:country": "US", "addr:postcode": "08638", "addr:state": "NJ", "addr:street_address": "951 PENNSYLVANIA AVE", "amenity": "post_box", "brand": "United States Postal Service", "brand:wikidata": "Q668687", "collection_times": "Mo-Sa 10:00", "nsi_id": "unitedstatespostalservice-a77078", "operator": "United States Postal Service", "operator:short": "USPS", "operator:type": "public", "operator:wikidata": "Q668687", "ref": "0863800007"}, "type": "Feature"}
{"geometry": {"coordinates": [-74.7686499, 40.257552], "type": "Point"}, "id": "CFI38Ge-aLa5igcSy_8oxDWIww4=", "properties": {"@source_uri": "https://tools.usps.com/UspsToolsRestServices/rest/POLocator/findLocations", "@spider": "usps_collection_boxes", "addr:city": "EWING", "addr:country": "US", "addr:postcode": "08638", "addr:state": "NJ", "addr:street_address": "159 BUTTONWOOD DR", "amenity": "post_box", "brand": "United States Postal Service", "brand:wikidata": "Q668687", "collection_times": "Mo-Sa 11:00", "nsi_id": "unitedstatespostalservice-a77078", "operator": "United States Postal Service", "operator:short": "USPS", "operator:type": "public", "operator:wikidata": "Q668687", "ref": "0863800009"}, "type": "Feature"}
{"geometry": {"coordinates": [-74.7684699, 40.252528], "type": "Point"}, "id": "IVlOd6AY4diVA3ZatWE-t_dTOW8=", "properties": {"@source_uri": "https://tools.usps.com/UspsToolsRestServices/rest/POLocator/findLocations", "@spider": "usps_collection_boxes", "addr:city": "EWING", "addr:country": "US", "addr:postcode": "08638", "addr:state": "NJ", "addr:street_address": "1465 PARKSIDE AVE", "amenity": "post_box", "brand": "United States Postal Service", "brand:wikidata": "Q668687", "collection_times": "Mo-Sa 10:00", "nsi_id": "unitedstatespostalservice-a77078", "operator": "United States Postal Service", "operator:short": "USPS", "operator:type": "public", "operator:wikidata": "Q668687", "ref": "0863800011"}, "type": "Feature"}
{"geometry": {"coordinates": [-74.7716461, 40.248657], "type": "Point"}, "id": "vbFHBYz94MQweuxKITJuGTEi4Vc=", "properties": {"@source_uri": "https://tools.usps.com/UspsToolsRestServices/rest/POLocator/findLocations", "@spider": "usps_collection_boxes", "addr:city": "EWING", "addr:country": "US", "addr:postcode": "08638", "addr:state": "NJ", "addr:street_address": "1765 N OLDEN AVENUE EXT", "amenity": "post_box", "brand": "United States Postal Service", "brand:wikidata": "Q668687", "collection_times": "Mo-Sa 11:00", "nsi_id": "unitedstatespostalservice-a77078", "operator": "United States Postal Service", "operator:short": "USPS", "operator:type": "public", "operator:wikidata": "Q668687", "ref": "0863800012"}, "type": "Feature"}
{"geometry": {"coordinates": [-74.7688947, 40.240154], "type": "Point"}, "id": "IHCGl0unaQkFKahec36detDOre4=", "properties": {"@source_uri": "https://tools.usps.com/UspsToolsRestServices/rest/POLocator/findLocations", "@spider": "usps_collection_boxes", "addr:city": "EWING", "addr:country": "US", "addr:postcode": "08638", "addr:state": "NJ", "addr:street_address": "1125 PROSPECT ST", "amenity": "post_box", "brand": "United States Postal Service", "brand:wikidata": "Q668687", "collection_times": "Mo-Sa 14:00", "note": "ON 12/24 AND 12/31, THIS BOX MAY BE COLLECTED AS EARLY AS 12 NOON.", "nsi_id": "unitedstatespostalservice-a77078", "operator": "United States Postal Service", "operator:short": "USPS", "operator:type": "public", "operator:wikidata": "Q668687", "ref": "0863800013"}, "type": "Feature"}
{"geometry": {"coordinates": [-74.7619291, 40.257777], "type": "Point"}, "id": "uWxvfleI_2H363Z-69Jl8FRBlsQ=", "properties": {"@source_uri": "https://tools.usps.com/UspsToolsRestServices/rest/POLocator/findLocations", "@spider": "usps_collection_boxes", "addr:city": "EWING", "addr:country": "US", "addr:postcode": "08638", "addr:state": "NJ", "addr:street_address": "2325 SPRUCE ST", "amenity": "post_box", "brand": "United States Postal Service", "brand:wikidata": "Q668687", "collection_times": "Mo-Sa 10:30", "nsi_id": "unitedstatespostalservice-a77078", "operator": "United States Postal Service", "operator:short": "USPS", "operator:type": "public", "operator:wikidata": "Q668687", "ref": "0863800020"}, "type": "Feature"}
{"geometry": {"coordinates": [-74.7593794, 40.259777], "type": "Point"}, "id": "5Cj355H8fpexww_O5DbPoKDxbgk=", "properties": {"@source_uri": "https://tools.usps.com/UspsToolsRestServices/rest/POLocator/findLocations", "@spider": "usps_collection_boxes", "addr:city": "EWING", "addr:country": "US", "addr:postcode": "08638", "addr:state": "NJ", "addr:street_address": "15 SHERBROOKE RD", "amenity": "post_box", "brand": "United States Postal Service", "brand:wikidata": "Q668687", "collection_times": "Mo-Sa 11:00", "nsi_id": "unitedstatespostalservice-a77078", "operator": "United States Postal Service", "operator:short": "USPS", "operator:type": "public", "operator:wikidata": "Q668687", "ref": "0863800021"}, "type": "Feature"}
{"geometry": {"coordinates": [-74.7657715, 40.272512], "type": "Point"}, "id": "eEuldru-T1JctbCahJG-ERoWA_o=", "properties": {"@source_uri": "https://tools.usps.com/UspsToolsRestServices/rest/POLocator/findLocations", "@spider": "usps_collection_boxes", "addr:city": "EWING", "addr:country": "US", "addr:postcode": "08638", "addr:state": "NJ", "addr:street_address": "331 EWINGVILLE RD", "amenity": "post_box", "brand": "United States Postal Service", "brand:wikidata": "Q668687", "collection_times": "Mo-Sa 12:00", "nsi_id": "unitedstatespostalservice-a77078", "operator": "United States Postal Service", "operator:short": "USPS", "operator:type": "public", "operator:wikidata": "Q668687", "ref": "0863800024"}, "type": "Feature"}
{"geometry": {"coordinates": [-74.7800594, 40.277866], "type": "Point"}, "id": "ZC1DHasPv4wUnWXslQli-I3W1bE=", "properties": {"@source_uri": "https://tools.usps.com/UspsToolsRestServices/rest/POLocator/findLocations", "@spider": "usps_collection_boxes", "addr:city": "EWING", "addr:country": "US", "addr:postcode": "08638", "addr:state": "NJ", "addr:street_address": "2108 PENNINGTON RD", "amenity": "post_box", "brand": "United States Postal Service", "brand:wikidata": "Q668687", "collection_times": "Mo-Sa 09:00", "nsi_id": "unitedstatespostalservice-a77078", "operator": "United States Postal Service", "operator:short": "USPS", "operator:type": "public", "operator:wikidata": "Q668687", "ref": "0863800025"}, "type": "Feature"}
{"geometry": {"coordinates": [-74.7489547, 40.239692], "type": "Point"}, "id": "xIrCznU7vnLwh-eX8gmoQqrFalo=", "properties": {"@source_uri": "https://tools.usps.com/UspsToolsRestServices/rest/POLocator/findLocations", "@spider": "usps_collection_boxes", "addr:city": "EWING", "addr:country": "US", "addr:postcode": "08638", "addr:state": "NJ", "addr:street_address": "940 BRUNSWICK AVE", "amenity": "post_box", "brand": "United States Postal Service", "brand:wikidata": "Q668687", "collection_times": "Mo-Sa 11:00", "nsi_id": "unitedstatespostalservice-a77078", "operator": "United States Postal Service", "operator:short": "USPS", "operator:type": "public", "operator:wikidata": "Q668687", "ref": "0863800033"}, "type": "Feature"}
{"geometry": {"coordinates": [-74.751651, 40.237727], "type": "Point"}, "id": "SXeL4-UsIbH0zIZGQjpoEAGaq4c=", "properties": {"@source_uri": "https://tools.usps.com/UspsToolsRestServices/rest/POLocator/findLocations", "@spider": "usps_collection_boxes", "addr:city": "EWING", "addr:country": "US", "addr:postcode": "08638", "addr:state": "NJ", "addr:street_address": "2601 BRUNSWICK AVE", "amenity": "post_box", "brand": "United States Postal Service", "brand:wikidata": "Q668687", "collection_times": "Mo-Sa 17:30", "indoor": "yes", "note": "ON 12/24 AND 12/31, THIS BOX MAY BE COLLECTED AS EARLY AS 12 NOON.", "nsi_id": "unitedstatespostalservice-a77078", "operator": "United States Postal Service", "operator:short": "USPS", "operator:type": "public", "operator:wikidata": "Q668687", "ref": "0863800034"}, "type": "Feature"}
{"geometry": {"coordinates": [-74.751743446, 40.237636174], "type": "Point"}, "id": "TkItw-xzL7Np9X_SPL5uKAt3Xk0=", "properties": {"@source_uri": "https://tools.usps.com/UspsToolsRestServices/rest/POLocator/findLocations", "@spider": "usps_collection_boxes", "addr:city": "EWING", "addr:country": "US", "addr:postcode": "08638", "addr:state": "NJ", "addr:street_address": "2601 BRUNSWICK AVE", "amenity": "post_box", "brand": "United States Postal Service", "brand:wikidata": "Q668687", "collection_times": "Mo-Fr 16:30; Sa 16:00", "indoor": "yes", "note": "ON 12/24 AND 12/31, THIS BOX MAY BE COLLECTED AS EARLY AS 12 NOON.", "nsi_id": "unitedstatespostalservice-a77078", "operator": "United States Postal Service", "operator:short": "USPS", "operator:type": "public", "operator:wikidata": "Q668687", "ref": "0863800038"}, "type": "Feature"}
{"geometry": {"coordinates": [-74.6196376, 40.012812], "type": "Point"}, "id": "B7b9tXjCVnTr3fXZmnSFnvAnT9k=", "properties": {"@source_uri": "https://tools.usps.com/UspsToolsRestServices/rest/POLocator/findLocations", "@spider": "usps_collection_boxes", "addr:city": "FORT DIX", "addr:country": "US", "addr:postcode": "08640", "addr:state": "NJ", "addr:street_address": "5434 DELAWARE AVE", "amenity": "post_box", "brand": "United States Postal Service", "brand:wikidata": "Q668687", "collection_times": "Mo-Sa 10:00", "nsi_id": "unitedstatespostalservice-a77078", "operator": "United States Postal Service", "operator:short": "USPS", "operator:type": "public", "operator:wikidata": "Q668687", "ref": "0864000001"}, "type": "Feature"}
{"geometry": {"coordinates": [-74.6271966, 40.009603], "type": "Point"}, "id": "e6s784XoEbJLmu7tfAT39qMB13A=", "properties": {"@source_uri": "https://tools.usps.com/UspsToolsRestServices/rest/POLocator/findLocations", "@spider": "usps_collection_boxes", "addr:city": "FORT DIX", "addr:country": "US", "addr:postcode": "08640", "addr:state": "NJ", "addr:street_address": "6038 W 9TH ST STE 1", "amenity": "post_box", "brand": "United States Postal Service", "brand:wikidata": "Q668687", "collection_times": "Mo-Fr 15:00; Sa 12:00", "note": "ON 12/24 AND 12/31, THIS BOX MAY BE COLLECTED AS EARLY AS 12 NOON.", "nsi_id": "unitedstatespostalservice-a77078", "operator": "United States Postal Service", "operator:short": "USPS", "operator:type": "public", "operator:wikidata": "Q668687", "ref": "0864000005"}, "type": "Feature"}
{"geometry": {"coordinates": [-74.6059282, 40.007926], "type": "Point"}, "id": "9cyDFa_pSFDGcbQLdpIA5kLLSTM=", "properties": {"@source_uri": "https://tools.usps.com/UspsToolsRestServices/rest/POLocator/findLocations", "@spider": "usps_collection_boxes", "addr:city": "FORT DIX", "addr:country": "US", "addr:postcode": "08640", "addr:state": "NJ", "addr:street_address": "5641 BALTIMORE ST", "amenity": "post_box", "brand": "United States Postal Service", "brand:wikidata": "Q668687", "collection_times": "Mo-Sa 10:00", "nsi_id": "unitedstatespostalservice-a77078", "operator": "United States Postal Service", "operator:short": "USPS", "operator:type": "public", "operator:wikidata": "Q668687", "ref": "0864000008"}, "type": "Feature"}
{"geometry": {"coordinates": [-74.6274916, 40.009286], "type": "Point"}, "id": "mtDXTJ4J9trzFMvlCNk_Ebtv8j0=", "properties": {"@source_uri": "https://tools.usps.com/UspsToolsRestServices/rest/POLocator/findLocations", "@spider": "usps_collection_boxes", "addr:city": "FORT DIX", "addr:country": "US", "addr:postcode": "08640", "addr:state": "NJ", "addr:street_address": "6038 W 9TH ST STE 1", "amenity": "post_box", "brand": "United States Postal Service", "brand:wikidata": "Q668687", "collection_times": "Mo-Fr 16:30; Sa 15:45", "indoor": "yes", "note": "ON 12/24 AND 12/31, THIS BOX MAY BE COLLECTED AS EARLY AS 12 NOON.", "nsi_id": "unitedstatespostalservice-a77078", "operator": "United States Postal Service", "operator:short": "USPS", "operator:type": "public", "operator:wikidata": "Q668687", "ref": "0864000009"}, "type": "Feature"}
{"geometry": {"coordinates": [-74.6281002185, 40.0086825736], "type": "Point"}, "id": "VYexZkEfl_kbqCHBb-cHNJcP1sc=", "properties": {"@source_uri": "https://tools.usps.com/UspsToolsRestServices/rest/POLocator/findLocations", "@spider": "usps_collection_boxes", "addr:city": "FORT DIX", "addr:country": "US", "addr:postcode": "08640", "addr:state": "NJ", "addr:street_address": "6038 W 9TH ST STE 1", "amenity": "post_box", "brand": "United States Postal Service", "brand:wikidata": "Q668687", "collection_times": "Mo-Fr 16:30; Sa 12:00", "indoor": "yes", "note": "ON 12/24 AND 12/31, THIS BOX MAY BE COLLECTED AS EARLY AS 12 NOON.", "nsi_id": "unitedstatespostalservice-a77078", "operator": "United States Postal Service", "operator:short": "USPS", "operator:type": "public", "operator:wikidata": "Q668687", "ref": "0864000012"}, "type": "Feature"}
{"geometry": {"coordinates": [-74.5834805, 40.036927], "type": "Point"}, "id": "K8kINK0ZRuINYX8RgzhTuoWZx9k=", "properties": {"@source_uri": "https://tools.usps.com/UspsToolsRestServices/rest/POLocator/findLocations", "@spider": "usps_collection_boxes", "addr:city": "TRENTON", "addr:country": "US", "addr:postcode": "08641", "addr:state": "NJ", "addr:street_address": "2907 TUSKEGEE AIRMEN AVE", "amenity": "post_box", "brand": "United States Postal Service", "brand:wikidata": "Q668687", "collection_times": "Mo-Fr 15:00; Sa 12:00", "note": "ON 12/24 AND 12/31, THIS BOX MAY BE COLLECTED AS EARLY AS 12 NOON.", "nsi_id": "unitedstatespostalservice-a77078", "operator": "United States Postal Service", "operator:short": "USPS", "operator:type": "public", "operator:wikidata": "Q668687", "ref": "0864100001"}, "type": "Feature"}
{"geometry": {"coordinates": [-74.5880654, 40.05441], "type": "Point"}, "id": "oyuja8VH4fy3YwYUOlRxPuS6Hog=", "properties": {"@source_uri": "https://tools.usps.com/UspsToolsRestServices/rest/POLocator/findLocations", "@spider": "usps_collection_boxes", "addr:city": "TRENTON", "addr:country": "US", "addr:postcode": "08641", "addr:state": "NJ", "addr:street_address": "4213A E GEORGE ST", "amenity": "post_box", "brand": "United States Postal Service", "brand:wikidata": "Q668687", "collection_times": "Mo-Sa 10:00", "nsi_id": "unitedstatespostalservice-a77078", "operator": "United States Postal Service", "operator:short": "USPS", "operator:type": "public", "operator:wikidata": "Q668687", "ref": "0864100002"}, "type": "Feature"}
{"geometry": {"coordinates": [-74.582054, 40.037044], "type": "Point"}, "id": "BnJrxJydisA6zlaZb6vETgvKR5Q=", "properties": {"@source_uri": "https://tools.usps.com/UspsToolsRestServices/rest/POLocator/findLocations", "@spider": "usps_collection_boxes", "addr:city": "TRENTON", "addr:country": "US", "addr:postcode": "08641", "addr:state": "NJ", "addr:street_address": "2907 TUSKEGEE AIRMEN AVE", "amenity": "post_box", "brand": "United States Postal Service", "brand:wikidata": "Q668687", "collection_times": "Mo-Fr 16:30", "indoor": "yes", "note": "ON 12/24 AND 12/31, THIS BOX MAY BE COLLECTED AS EARLY AS 12 NOON.", "nsi_id": "unitedstatespostalservice-a77078", "operator": "United States Postal Service", "operator:short": "USPS", "operator:type": "public", "operator:wikidata": "Q668687", "ref": "0864100003"}, "type": "Feature"}
{"geometry": {"coordinates": [-74.5819231947, 40.0371275346], "type": "Point"}, "id": "swWZ8wZZ4aF1W6OMgwgjSROXmHo=", "properties": {"@source_uri": "https://tools.usps.com/UspsToolsRestServices/rest/POLocator/findLocations", "@spider": "usps_collection_boxes", "addr:city": "TRENTON", "addr:country": "US", "addr:postcode": "08641", "addr:state": "NJ", "addr:street_address": "2907 TUSKEGEE AIRMEN AVE", "amenity": "post_box", "brand": "United States Postal Service", "brand:wikidata": "Q668687", "collection_times": "Mo-Fr 16:30", "indoor": "yes", "note": "ON 12/24 AND 12/31, THIS BOX MAY BE COLLECTED AS EARLY AS 12 NOON.", "nsi_id": "unitedstatespostalservice-a77078", "operator": "United States Postal Service", "operator:short": "USPS", "operator:type": "public", "operator:wikidata": "Q668687", "ref": "0864100007"}, "type": "Feature"}
{"geometry": {"coordinates": [-74.716679, 40.282951], "type": "Point"}, "id": "ecDzwIcx_sF45sAzt6Wi0RFBAyU=", "properties": {"@source_uri": "https://tools.usps.com/UspsToolsRestServices/rest/POLocator/findLocations", "@spider": "usps_collection_boxes", "addr:city": "LAWRENCEVILLE", "addr:country": "US", "addr:postcode": "08648", "addr:state": "NJ", "addr:street_address": "3131 PRINCETON PIKE", "amenity": "post_box", "brand": "United States Postal Service", "brand:wikidata": "Q668687", "collection_times": "Mo-Fr 15:00; Sa 11:00", "name": "USPS COLLECTION BOX - EXPRESS", "note": "ON 12/24 AND 12/31, THIS BOX MAY BE COLLECTED AS EARLY AS 12 NOON.", "nsi_id": "unitedstatespostalservice-a77078", "operator": "United States Postal Service", "operator:short": "USPS", "operator:type": "public", "operator:wikidata": "Q668687", "ref": "0864800000"}, "type": "Feature"}
{"geometry": {"coordinates": [-74.7089989, 40.275637], "type": "Point"}, "id": "nb2_maJftb9tCd0knF7YVVzXq7g=", "properties": {"@source_uri": "https://tools.usps.com/UspsToolsRestServices/rest/POLocator/findLocations", "@spider": "usps_collection_boxes", "addr:city": "LAWRENCEVILLE", "addr:country": "US", "addr:postcode": "08648", "addr:state": "NJ", "addr:street_address": "180 FRANKLIN CORNER RD", "amenity": "post_box", "brand": "United States Postal Service", "brand:wikidata": "Q668687", "collection_times": "Mo-Sa 11:00", "nsi_id": "unitedstatespostalservice-a77078", "operator": "United States Postal Service", "operator:short": "USPS", "operator:type": "public", "operator:wikidata": "Q668687", "ref": "0864800004"}, "type": "Feature"}
{"geometry": {"coordinates": [-74.7166863, 40.28296], "type": "Point"}, "id": "JL8br5UTcH3ZShVnHkX6CD-qogM=", "properties": {"@source_uri": "https://tools.usps.com/UspsToolsRestServices/rest/POLocator/findLocations", "@spider": "usps_collection_boxes", "addr:city": "LAWRENCEVILLE", "addr:country": "US", "addr:postcode": "08648", "addr:state": "NJ", "addr:street_address": "3131 PRINCETON PIKE", "amenity": "post_box", "brand": "United States Postal Service", "brand:wikidata": "Q668687", "collection_times": "Mo-Sa 11:00", "nsi_id": "unitedstatespostalservice-a77078", "operator": "United States Postal Service", "operator:short": "USPS", "operator:type": "public", "operator:wikidata": "Q668687", "ref": "0864800007"}, "type": "Feature"}
{"geometry": {"coordinates": [-74.718017, 40.283595], "type": "Point"}, "id": "JuMwCwvtxVMrdZorDjCbL7mV5qg=", "properties": {"@source_uri": "https://tools.usps.com/UspsToolsRestServices/rest/POLocator/findLocations", "@spider": "usps_collection_boxes", "addr:city": "LAWRENCEVILLE", "addr:country": "US", "addr:postcode": "08648", "addr:state": "NJ", "addr:street_address": "3131 PRINCETON PIKE", "amenity": "post_box", "brand": "United States Postal Service", "brand:wikidata": "Q668687", "collection_times": "Mo-Fr 15:00; Sa 11:00", "note": "ON 12/24 AND 12/31, THIS BOX MAY BE COLLECTED AS EARLY AS 12 NOON.", "nsi_id": "unitedstatespostalservice-a77078", "operator": "United States Postal Service", "operator:short": "USPS", "operator:type": "public", "operator:wikidata": "Q668687", "ref": "0864800008"}, "type": "Feature"}
{"geometry": {"coordinates": [-74.7194199, 40.284986], "type": "Point"}, "id": "GbdCrONasghFyL6MKEiHkLKcIk8=", "properties": {"@source_uri": "https://tools.usps.com/UspsToolsRestServices/rest/POLocator/findLocations", "@spider": "usps_collection_boxes", "addr:city": "LAWRENCEVILLE", "addr:country": "US", "addr:postcode": "08648", "addr:state": "NJ", "addr:street_address": "3131 PRINCETON PIKE", "amenity": "post_box", "brand": "United States Postal Service", "brand:wikidata": "Q668687", "collection_times": "Mo-Fr 15:00; Sa 11:00", "note": "ON 12/24 AND 12/31, THIS BOX MAY BE COLLECTED AS EARLY AS 12 NOON.", "nsi_id": "unitedstatespostalservice-a77078", "operator": "United States Postal Service", "operator:short": "USPS", "operator:type": "public", "operator:wikidata": "Q668687", "ref": "0864800010"}, "type": "Feature"}
{"geometry": {"coordinates": [-74.7180552, 40.278312], "type": "Point"}, "id": "ZEjhVNvh2I27dQq90TZW3Cezcms=", "properties": {"@source_uri": "https://tools.usps.com/UspsToolsRestServices/rest/POLocator/findLocations", "@spider": "usps_collection_boxes", "addr:city": "LAWRENCEVILLE", "addr:country": "US", "addr:postcode": "08648", "addr:state": "NJ", "addr:street_address": "2988 PRINCETON PIKE", "amenity": "post_box", "brand": "United States Postal Service", "brand:wikidata": "Q668687", "collection_times": "Mo-Sa 11:00", "nsi_id": "unitedstatespostalservice-a77078", "operator": "United States Postal Service", "operator:short": "USPS", "operator:type": "public", "operator:wikidata": "Q668687", "ref": "0864800012"}, "type": "Feature"}
{"geometry": {"coordinates": [-74.7297407, 40.25847], "type": "Point"}, "id": "QbRae_j1Apai9Mg09tGHXBiYPMQ=", "properties": {"@source_uri": "https://tools.usps.com/UspsToolsRestServices/rest/POLocator/findLocations", "@spider": "usps_collection_boxes", "addr:city": "LAWRENCEVILLE", "addr:country": "US", "addr:postcode": "08648", "addr:state": "NJ", "addr:street_address": "2495 BRUNSWICK PIKE", "amenity": "post_box", "brand": "United States Postal Service", "brand:wikidata": "Q668687", "collection_times": "Mo-Sa 12:00", "nsi_id": "unitedstatespostalservice-a77078", "operator": "United States Postal Service", "operator:short": "USPS", "operator:type": "public", "operator:wikidata": "Q668687", "ref": "0864800013"}, "type": "Feature"}
{"geometry": {"coordinates": [-74.7358072, 40.250785], "type": "Point"}, "id": "gYWpJqqflO8Db70YSQjr2hq_Ajk=", "properties": {"@source_uri": "https://tools.usps.com/UspsToolsRestServices/rest/POLocator/findLocations", "@spider": "usps_collection_boxes", "addr:city": "LAWRENCEVILLE", "addr:country": "US", "addr:postcode": "08648", "addr:state": "NJ", "addr:street_address": "1961 BRUNSWICK AVE", "amenity": "post_box", "brand": "United States Postal Service", "brand:wikidata": "Q668687", "collection_times": "Mo-Sa 11:00", "nsi_id": "unitedstatespostalservice-a77078", "operator": "United States Postal Service", "operator:short": "USPS", "operator:type": "public", "operator:wikidata": "Q668687", "ref": "0864800015"}, "type": "Feature"}
{"geometry": {"coordinates": [-74.7413039, 40.246218], "type": "Point"}, "id": "oHZRQlIxKwnOGpK0nzuctiEw-w0=", "properties": {"@source_uri": "https://tools.usps.com/UspsToolsRestServices/rest/POLocator/findLocations", "@spider": "usps_collection_boxes", "addr:city": "LAWRENCEVILLE", "addr:country": "US", "addr:postcode": "08648", "addr:state": "NJ", "addr:street_address": "1575 BRUNSWICK AVE", "amenity": "post_box", "brand": "United States Postal Service", "brand:wikidata": "Q668687", "collection_times": "Mo-Sa 14:00", "note": "ON 12/24 AND 12/31, THIS BOX MAY BE COLLECTED AS EARLY AS 12 NOON.", "nsi_id": "unitedstatespostalservice-a77078", "operator": "United States Postal Service", "operator:short": "USPS", "operator:type": "public", "operator:wikidata": "Q668687", "ref": "0864800016"}, "type": "Feature"}
{"geometry": {"coordinates": [-74.7382088, 40.248404], "type": "Point"}, "id": "Pn9NTf50qB4zBPcHuy_OAUwHIKo=", "properties": {"@source_uri": "https://tools.usps.com/UspsToolsRestServices/rest/POLocator/findLocations", "@spider": "usps_collection_boxes", "addr:city": "LAWRENCEVILLE", "addr:country": "US", "addr:postcode": "08648", "addr:state": "NJ", "addr:street_address": "1770 BRUNSWICK AVE", "amenity": "post_box", "brand": "United States Postal Service", "brand:wikidata": "Q668687", "collection_times": "Mo-Sa 12:00", "nsi_id": "unitedstatespostalservice-a77078", "operator": "United States Postal Service", "operator:short": "USPS", "operator:type": "public", "operator:wikidata": "Q668687", "ref": "0864800019"}, "type": "Feature"}
{"geometry": {"coordinates": [-74.7288034, 40.251043], "type": "Point"}, "id": "e_vO0w9vaitYvgsrtU4MmYsgCd0=", "properties": {"@source_uri": "https://tools.usps.com/UspsToolsRestServices/rest/POLocator/findLocations", "@spider": "usps_collection_boxes", "addr:city": "LAWRENCEVILLE", "addr:country": "US", "addr:postcode": "08648", "addr:state": "NJ", "addr:street_address": "98 LAKEDALE DR", "amenity": "post_box", "brand": "United States Postal Service", "brand:wikidata": "Q668687", "collection_times": "Mo-Sa 11:00", "nsi_id": "unitedstatespostalservice-a77078", "operator": "United States Postal Service", "operator:short": "USPS", "operator:type": "public", "operator:wikidata": "Q668687", "ref": "0864800020"}, "type": "Feature"}
{"geometry": {"coordinates": [-74.7327923, 40.25179], "type": "Point"}, "id": "veP4MyHJ3KcKpkfVoKJjFBFRxEE=", "properties": {"@source_uri": "https://tools.usps.com/UspsToolsRestServices/rest/POLocator/findLocations", "@spider": "usps_collection_boxes", "addr:city": "LAWRENCEVILLE", "addr:country": "US", "addr:postcode": "08648", "addr:state": "NJ", "addr:street_address": "684 WHITEHEAD RD", "amenity": "post_box", "brand": "United States Postal Service", "brand:wikidata": "Q668687", "collection_times": "Mo-Sa 11:00", "nsi_id": "unitedstatespostalservice-a77078", "operator": "United States Postal Service", "operator:short": "USPS", "operator:type": "public", "operator:wikidata": "Q668687", "ref": "0864800021"}, "type": "Feature"}
{"geometry": {"coordinates": [-74.7236457, 40.260451], "type": "Point"}, "id": "HJWmC924fqiXg6gu9SUrzqseaq0=", "properties": {"@source_uri": "https://tools.usps.com/UspsToolsRestServices/rest/POLocator/findLocations", "@spider": "usps_collection_boxes", "addr:city": "LAWRENCEVILLE", "addr:country": "US", "addr:postcode": "08648", "addr:state": "NJ", "addr:street_address": "2542 BRUNSWICK PIKE", "amenity": "post_box", "brand": "United States Postal Service", "brand:wikidata": "Q668687", "collection_times": "Mo-Sa 11:00", "nsi_id": "unitedstatespostalservice-a77078", "operator": "United States Postal Service", "operator:short": "USPS", "operator:type": "public", "operator:wikidata": "Q668687", "ref": "0864800022"}, "type": "Feature"}
{"geometry": {"coordinates": [-74.6793423, 40.28846], "type": "Point"}, "id": "UFJxNSELByXlkAsQF6zNalXdee0=", "properties": {"@source_uri": "https://tools.usps.com/UspsToolsRestServices/rest/POLocator/findLocations", "@spider": "usps_collection_boxes", "addr:city": "LAWRENCEVILLE", "addr:country": "US", "addr:postcode": "08648", "addr:state": "NJ", "addr:street_address": "101 GROVERS MILL RD", "amenity": "post_box", "brand": "United States Postal Service", "brand:wikidata": "Q668687", "collection_times": "Mo-Sa 11:00", "nsi_id": "unitedstatespostalservice-a77078", "operator": "United States Postal Service", "operator:short": "USPS", "operator:type": "public", "operator:wikidata": "Q668687", "ref": "0864800025"}, "type": "Feature"}
{"geometry": {"coordinates": [-74.6817472, 40.297898], "type": "Point"}, "id": "kw1EFspYYseoDKNoYop6juILeSY=", "properties": {"@source_uri": "https://tools.usps.com/UspsToolsRestServices/rest/POLocator/findLocations", "@spider": "usps_collection_boxes", "addr:city": "LAWRENCEVILLE", "addr:country": "US", "addr:postcode": "08648", "addr:state": "NJ", "addr:street_address": "3373 BRUNSWICK PIKE", "amenity": "post_box", "brand": "United States Postal Service", "brand:wikidata": "Q668687", "collection_times": "Mo-Sa 12:00", "nsi_id": "unitedstatespostalservice-a77078", "operator": "United States Postal Service", "operator:short": "USPS", "operator:type": "public", "operator:wikidata": "Q668687", "ref": "0864800027"}, "type": "Feature"}
{"geometry": {"coordinates": [-74.7176175739, 40.2657718701], "type": "Point"}, "id": "Jpaagj-8Ji7jkhfKI7KGtc4z4LY=", "properties": {"@source_uri": "https://tools.usps.com/UspsToolsRestServices/rest/POLocator/findLocations", "@spider": "usps_collection_boxes", "addr:city": "LAWRENCEVILLE", "addr:country": "US", "addr:postcode": "08648", "addr:state": "NJ", "addr:street_address": "2751 BRUNSWICK PIKE", "amenity": "post_box", "brand": "United States Postal Service", "brand:wikidata": "Q668687", "collection_times": "Mo-Sa 14:00", "note": "ON 12/24 AND 12/31, THIS BOX MAY BE COLLECTED AS EARLY AS 12 NOON.", "nsi_id": "unitedstatespostalservice-a77078", "operator": "United States Postal Service", "operator:short": "USPS", "operator:type": "public", "operator:wikidata": "Q668687", "ref": "0864800028"}, "type": "Feature"}
{"geometry": {"coordinates": [-74.7166899, 40.266847], "type": "Point"}, "id": "9_t7scvngjNZ4YoCO0DzmAzithc=", "properties": {"@source_uri": "https://tools.usps.com/UspsToolsRestServices/rest/POLocator/findLocations", "@spider": "usps_collection_boxes", "addr:city": "LAWRENCEVILLE", "addr:country": "US", "addr:postcode": "08648", "addr:state": "NJ", "addr:street_address": "2791 BRUNSWICK PIKE", "amenity": "post_box", "brand": "United States Postal Service", "brand:wikidata": "Q668687", "collection_times": "Mo-Sa 10:30", "nsi_id": "unitedstatespostalservice-a77078", "operator": "United States Postal Service", "operator:short": "USPS", "operator:type": "public", "operator:wikidata": "Q668687", "ref": "0864800029"}, "type": "Feature"}
{"geometry": {"coordinates": [-74.7326689, 40.261571], "type": "Point"}, "id": "8HjZl4PmuJLH36OdAfX62vzYTxE=", "properties": {"@source_uri": "https://tools.usps.com/UspsToolsRestServices/rest/POLocator/findLocations", "@spider": "usps_collection_boxes", "addr:city": "LAWRENCEVILLE", "addr:country": "US", "addr:postcode": "08648", "addr:state": "NJ", "addr:street_address": "2400 PRINCETON PIKE", "amenity": "post_box", "brand": "United States Postal Service", "brand:wikidata": "Q668687", "collection_times": "Mo-Sa 11:00", "nsi_id": "unitedstatespostalservice-a77078", "operator": "United States Postal Service", "operator:short": "USPS", "operator:type": "public", "operator:wikidata": "Q668687", "ref": "0864800030"}, "type": "Feature"}
{"geometry": {"coordinates": [-74.7380876, 40.255014], "type": "Point"}, "id": "kiHMgTWZsuTN8XHR0KV56ezNMv4=", "properties": {"@source_uri": "https://tools.usps.com/UspsToolsRestServices/rest/POLocator/findLocations", "@spider": "usps_collection_boxes", "addr:city": "LAWRENCEVILLE", "addr:country": "US", "addr:postcode": "08648", "addr:state": "NJ", "addr:street_address": "2175 PRINCETON PIKE", "amenity": "post_box", "brand": "United States Postal Service", "brand:wikidata": "Q668687", "collection_times": "Mo-Sa 11:00", "nsi_id": "unitedstatespostalservice-a77078", "operator": "United States Postal Service", "operator:short": "USPS", "operator:type": "public", "operator:wikidata": "Q668687", "ref": "0864800031"}, "type": "Feature"}
{"geometry": {"coordinates": [-74.7403351, 40.265805], "type": "Point"}, "id": "maEDyYB-O57wr6mHF3MmBL_jlbk=", "properties": {"@source_uri": "https://tools.usps.com/UspsToolsRestServices/rest/POLocator/findLocations", "@spider": "usps_collection_boxes", "addr:city": "LAWRENCEVILLE", "addr:country": "US", "addr:postcode": "08648", "addr:state": "NJ", "addr:street_address": "1276 LAWRENCEVILLE RD", "amenity": "post_box", "brand": "United States Postal Service", "brand:wikidata": "Q668687", "collection_times": "Mo-Sa 11:00", "nsi_id": "unitedstatespostalservice-a77078", "operator": "United States Postal Service", "operator:short": "USPS", "operator:type": "public", "operator:wikidata": "Q668687", "ref": "0864800033"}, "type": "Feature"}
{"geometry": {"coordinates": [-74.7373447, 40.278737], "type": "Point"}, "id": "NG6seawchbKvOjRobB_0Q_CyauM=", "properties": {"@source_uri": "https://tools.usps.com/UspsToolsRestServices/rest/POLocator/findLocations", "@spider": "usps_collection_boxes", "addr:city": "LAWRENCEVILLE", "addr:country": "US", "addr:postcode": "08648", "addr:state": "NJ", "addr:street_address": "2083 LAWRENCEVILLE RD", "amenity": "post_box", "brand": "United States Postal Service", "brand:wikidata": "Q668687", "collection_times": "Mo-Sa 11:00", "nsi_id": "unitedstatespostalservice-a77078", "operator": "United States Postal Service", "operator:short": "USPS", "operator:type": "public", "operator:wikidata": "Q668687", "ref": "0864800034"}, "type": "Feature"}
{"geometry": {"coordinates": [-74.7379717, 40.276521], "type": "Point"}, "id": "0gbKax3__ACA7OETqm2s_OFgXsA=", "properties": {"@source_uri": "https://tools.usps.com/UspsToolsRestServices/rest/POLocator/findLocations", "@spider": "usps_collection_boxes", "addr:city": "LAWRENCEVILLE", "addr:country": "US", "addr:postcode": "08648", "addr:state": "NJ", "addr:street_address": "1600 WHITE PINE CIR", "amenity": "post_box", "brand": "United States Postal Service", "brand:wikidata": "Q668687", "collection_times": "Mo-Sa 11:00", "nsi_id": "unitedstatespostalservice-a77078", "operator": "United States Postal Service", "operator:short": "USPS", "operator:type": "public", "operator:wikidata": "Q668687", "ref": "0864800035"}, "type": "Feature"}
{"geometry": {"coordinates": [-74.7314362, 40.296231], "type": "Point"}, "id": "cEUuee6ozTu1Ym8zyHE3wbm1HiA=", "properties": {"@source_uri": "https://tools.usps.com/UspsToolsRestServices/rest/POLocator/findLocations", "@spider": "usps_collection_boxes", "addr:city": "LAWRENCEVILLE", "addr:country": "US", "addr:postcode": "08648", "addr:state": "NJ", "addr:street_address": "1 CRAVEN LN", "amenity": "post_box", "brand": "United States Postal Service", "brand:wikidata": "Q668687", "collection_times": "Mo-Fr 15:00; Sa 11:00", "note": "ON 12/24 AND 12/31, THIS BOX MAY BE COLLECTED AS EARLY AS 12 NOON.", "nsi_id": "unitedstatespostalservice-a77078", "operator": "United States Postal Service", "operator:short": "USPS", "operator:type": "public", "operator:wikidata": "Q668687", "ref": "0864800037"}, "type": "Feature"}
{"geometry": {"coordinates": [-74.7473633, 40.301081], "type": "Point"}, "id": "UYEoTp-BQzcdoyYjDD4pl5DCySw=", "properties": {"@source_uri": "https://tools.usps.com/UspsToolsRestServices/rest/POLocator/findLocations", "@spider": "usps_collection_boxes", "addr:city": "LAWRENCEVILLE", "addr:country": "US", "addr:postcode": "08648", "addr:state": "NJ", "addr:street_address": "20 SHIRLEY LN", "amenity": "post_box", "brand": "United States Postal Service", "brand:wikidata": "Q668687", "collection_times": "Mo-Sa 14:00", "note": "ON 12/24 AND 12/31, THIS BOX MAY BE COLLECTED AS EARLY AS 12 NOON.", "nsi_id": "unitedstatespostalservice-a77078", "operator": "United States Postal Service", "operator:short": "USPS", "operator:type": "public", "operator:wikidata": "Q668687", "ref": "0864800038"}, "type": "Feature"}
{"geometry": {"coordinates": [-74.7490382, 40.289176], "type": "Point"}, "id": "EfwSFjHomhbIvViA1wz_-JkBg_Y=", "properties": {"@source_uri": "https://tools.usps.com/UspsToolsRestServices/rest/POLocator/findLocations", "@spider": "usps_collection_boxes", "addr:city": "LAWRENCEVILLE", "addr:country": "US", "addr:postcode": "08648", "addr:state": "NJ", "addr:street_address": "8 STURWOOD WAY", "amenity": "post_box", "brand": "United States Postal Service", "brand:wikidata": "Q668687", "collection_times": "Mo-Sa 14:00", "note": "ON 12/24 AND 12/31, THIS BOX MAY BE COLLECTED AS EARLY AS 12 NOON.", "nsi_id": "unitedstatespostalservice-a77078", "operator": "United States Postal Service", "operator:short": "USPS", "operator:type": "public", "operator:wikidata": "Q668687", "ref": "0864800039"}, "type": "Feature"}
{"geometry": {"coordinates": [-74.7325182, 40.28273], "type": "Point"}, "id": "WdhIMlnfVVreqLOju0T_bekXT1I=", "properties": {"@source_uri": "https://tools.usps.com/UspsToolsRestServices/rest/POLocator/findLocations", "@spider": "usps_collection_boxes", "addr:city": "LAWRENCEVILLE", "addr:country": "US", "addr:postcode": "08648", "addr:state": "NJ", "addr:street_address": "2207 LAWRENCEVILLE RD", "amenity": "post_box", "brand": "United States Postal Service", "brand:wikidata": "Q668687", "collection_times": "Mo-Sa 12:00", "nsi_id": "unitedstatespostalservice-a77078", "operator": "United States Postal Service", "operator:short": "USPS", "operator:type": "public", "operator:wikidata": "Q668687", "ref": "0864800041"}, "type": "Feature"}
{"geometry": {"coordinates": [-74.7425686, 40.272073], "type": "Point"}, "id": "6Nq_gD4S7-ZS5KnRllhbZCp0pAc=", "properties": {"@source_uri": "https://tools.usps.com/UspsToolsRestServices/rest/POLocator/findLocations", "@spider": "usps_collection_boxes", "addr:city": "LAWRENCEVILLE", "addr:country": "US", "addr:postcode": "08648", "addr:state": "NJ", "addr:street_address": "141 EGGERTS CROSSING RD", "amenity": "post_box", "brand": "United States Postal Service", "brand:wikidata": "Q668687", "collection_times": "Mo-Sa 11:00", "nsi_id": "unitedstatespostalservice-a77078", "operator": "United States Postal Service", "operator:short": "USPS", "operator:type": "public", "operator:wikidata": "Q668687", "ref": "0864800042"}, "type": "Feature"}
{"geometry": {"coordinates": [-74.7174999, 40.281126], "type": "Point"}, "id": "DyMDISHmjMX8Bej7_ga7V6dslXc=", "properties": {"@source_uri": "https://tools.usps.com/UspsToolsRestServices/rest/POLocator/findLocations", "@spider": "usps_collection_boxes", "addr:city": "LAWRENCEVILLE", "addr:country": "US", "addr:postcode": "08648", "addr:state": "NJ", "addr:street_address": "112 FRANKLIN CORNER RD", "amenity": "post_box", "brand": "United States Postal Service", "brand:wikidata": "Q668687", "collection_times": "Mo-Sa 11:00", "nsi_id": "unitedstatespostalservice-a77078", "operator": "United States Postal Service", "operator:short": "USPS", "operator:type": "public", "operator:wikidata": "Q668687", "ref": "0864800043"}, "type": "Feature"}
{"geometry": {"coordinates": [-74.7081572, 40.28439], "type": "Point"}, "id": "LdKRBLXCK-alkYI2tE6F7a7Lf9U=", "properties": {"@source_uri": "https://tools.usps.com/UspsToolsRestServices/rest/POLocator/findLocations", "@spider": "usps_collection_boxes", "addr:city": "LAWRENCEVILLE", "addr:country": "US", "addr:postcode": "08648", "addr:state": "NJ", "addr:street_address": "6 PRINCESS RD", "amenity": "post_box", "brand": "United States Postal Service", "brand:wikidata": "Q668687", "collection_times": "Mo-Sa 10:30", "nsi_id": "unitedstatespostalservice-a77078", "operator": "United States Postal Service", "operator:short": "USPS", "operator:type": "public", "operator:wikidata": "Q668687", "ref": "0864800047"}, "type": "Feature"}
{"geometry": {"coordinates": [-74.7151089, 40.282244], "type": "Point"}, "id": "v_ULNCxNOWlotkvxsFG1bGtyi4M=", "properties": {"@source_uri": "https://tools.usps.com/UspsToolsRestServices/rest/POLocator/findLocations", "@spider": "usps_collection_boxes", "addr:city": "LAWRENCEVILLE", "addr:country": "US", "addr:postcode": "08648", "addr:state": "NJ", "addr:street_address": "3100 PRINCETON PIKE", "amenity": "post_box", "brand": "United States Postal Service", "brand:wikidata": "Q668687", "collection_times": "Mo-Sa 09:00", "nsi_id": "unitedstatespostalservice-a77078", "operator": "United States Postal Service", "operator:short": "USPS", "operator:type": "public", "operator:wikidata": "Q668687", "ref": "0864800048"}, "type": "Feature"}
{"geometry": {"coordinates": [-74.7157021, 40.279668], "type": "Point"}, "id": "mwB1MxZO09BN3Ck2SBsItqc0GOA=", "properties": {"@source_uri": "https://tools.usps.com/UspsToolsRestServices/rest/POLocator/findLocations", "@spider": "usps_collection_boxes", "addr:city": "LAWRENCEVILLE", "addr:country": "US", "addr:postcode": "08648", "addr:state": "NJ", "addr:street_address": "123 FRANKLIN CORNER RD", "amenity": "post_box", "brand": "United States Postal Service", "brand:wikidata": "Q668687", "collection_times": "Mo-Sa 12:00", "nsi_id": "unitedstatespostalservice-a77078", "operator": "United States Postal Service", "operator:short": "USPS", "operator:type": "public", "operator:wikidata": "Q668687", "ref": "0864800049"}, "type": "Feature"}
{"geometry": {"coordinates": [-74.7497635, 40.302776], "type": "Point"}, "id": "Puzjm0fZsQ_VHId-GV2Jf3mTjJY=", "properties": {"@source_uri": "https://tools.usps.com/UspsToolsRestServices/rest/POLocator/findLocations", "@spider": "usps_collection_boxes", "addr:city": "LAWRENCEVILLE", "addr:country": "US", "addr:postcode": "08648", "addr:state": "NJ", "addr:street_address": "160 LAWRENCEVILLE PENNINGTON RD", "amenity": "post_box", "brand": "United States Postal Service", "brand:wikidata": "Q668687", "collection_times": "Mo-Sa 14:00", "note": "ON 12/24 AND 12/31, THIS BOX MAY BE COLLECTED AS EARLY AS 12 NOON.", "nsi_id": "unitedstatespostalservice-a77078", "operator": "United States Postal Service", "operator:short": "USPS", "operator:type": "public", "operator:wikidata": "Q668687", "ref": "0864800051"}, "type": "Feature"}
{"geometry": {"coordinates": [-74.7089568, 40.289666], "type": "Point"}, "id": "TEGsQ4Sp-MLafqxRPW-BXkd71oc=", "properties": {"@source_uri": "https://tools.usps.com/UspsToolsRestServices/rest/POLocator/findLocations", "@spider": "usps_collection_boxes", "addr:city": "LAWRENCEVILLE", "addr:country": "US", "addr:postcode": "08648", "addr:state": "NJ", "addr:street_address": "100 LENOX DR", "amenity": "post_box", "brand": "United States Postal Service", "brand:wikidata": "Q668687", "collection_times": "Mo-Sa 10:00", "nsi_id": "unitedstatespostalservice-a77078", "operator": "United States Postal Service", "operator:short": "USPS", "operator:type": "public", "operator:wikidata": "Q668687", "ref": "0864800054"}, "type": "Feature"}
{"geometry": {"coordinates": [-74.6855437414, 40.2920132521], "type": "Point"}, "id": "2k1QCkxBL51RlDIOyOoaT4KOQOw=", "properties": {"@source_uri": "https://tools.usps.com/UspsToolsRestServices/rest/POLocator/findLocations", "@spider": "usps_collection_boxes", "addr:city": "LAWRENCEVILLE", "addr:country": "US", "addr:postcode": "08648", "addr:state": "NJ", "addr:street_address": "3320 BRUNSWICK AVE", "amenity": "post_box", "brand": "United States Postal Service", "brand:wikidata": "Q668687", "collection_times": "Mo-Sa 11:00", "nsi_id": "unitedstatespostalservice-a77078", "operator": "United States Postal Service", "operator:short": "USPS", "operator:type": "public", "operator:wikidata": "Q668687", "ref": "0864800055"}, "type": "Feature"}
{"geometry": {"coordinates": [-74.6737754, 40.272618], "type": "Point"}, "id": "0AAr2SqNlVXXIUtAm-GWTzxWkKM=", "properties": {"@source_uri": "https://tools.usps.com/UspsToolsRestServices/rest/POLocator/findLocations", "@spider": "usps_collection_boxes", "addr:city": "LAWRENCEVILLE", "addr:country": "US", "addr:postcode": "08648", "addr:state": "NJ", "addr:street_address": "3 MENDREY CT", "amenity": "post_box", "brand": "United States Postal Service", "brand:wikidata": "Q668687", "collection_times": "Mo-Sa 11:00", "nsi_id": "unitedstatespostalservice-a77078", "operator": "United States Postal Service", "operator:short": "USPS", "operator:type": "public", "operator:wikidata": "Q668687", "ref": "0864800056"}, "type": "Feature"}
{"geometry": {"coordinates": [-74.7180111, 40.283589], "type": "Point"}, "id": "NgIUdVhzV1WnIZ2baiGzBQRc9Nc=", "properties": {"@source_uri": "https://tools.usps.com/UspsToolsRestServices/rest/POLocator/findLocations", "@spider": "usps_collection_boxes", "addr:city": "LAWRENCEVILLE", "addr:country": "US", "addr:postcode": "08648", "addr:state": "NJ", "addr:street_address": "3131 PRINCETON PIKE", "amenity": "post_box", "brand": "United States Postal Service", "brand:wikidata": "Q668687", "collection_times": "Mo-Fr 15:00; Sa 11:00", "name": "USPS COLLECTION BOX - EXPRESS", "note": "ON 12/24 AND 12/31, THIS BOX MAY BE COLLECTED AS EARLY AS 12 NOON.", "nsi_id": "unitedstatespostalservice-a77078", "operator": "United States Postal Service", "operator:short": "USPS", "operator:type": "public", "operator:wikidata": "Q668687", "ref": "0864800058"}, "type": "Feature"}
{"geometry": {"coordinates": [-74.731161, 40.296115], "type": "Point"}, "id": "sDjHl9DU6WJnNx9kYL-7SsOg3Sk=", "properties": {"@source_uri": "https://tools.usps.com/UspsToolsRestServices/rest/POLocator/findLocations", "@spider": "usps_collection_boxes", "addr:city": "LAWRENCEVILLE", "addr:country": "US", "addr:postcode": "08648", "addr:state": "NJ", "addr:street_address": "1 CRAVEN LN", "amenity": "post_box", "brand": "United States Postal Service", "brand:wikidata": "Q668687", "collection_times": "Mo-Fr 16:30; Sa 13:45", "indoor": "yes", "note": "ON 12/24 AND 12/31, THIS BOX MAY BE COLLECTED AS EARLY AS 12 NOON.", "nsi_id": "unitedstatespostalservice-a77078", "operator": "United States Postal Service", "operator:short": "USPS", "operator:type": "public", "operator:wikidata": "Q668687", "ref": "0864800059"}, "type": "Feature"}
{"geometry": {"coordinates": [-74.731144376, 40.296053477], "type": "Point"}, "id": "B1ltjDliY6qtelI7-iARO9MTgkc=", "properties": {"@source_uri": "https://tools.usps.com/UspsToolsRestServices/rest/POLocator/findLocations", "@spider": "usps_collection_boxes", "addr:city": "LAWRENCEVILLE", "addr:country": "US", "addr:postcode": "08648", "addr:state": "NJ", "addr:street_address": "1 CRAVEN LN", "amenity": "post_box", "brand": "United States Postal Service", "brand:wikidata": "Q668687", "collection_times": "Mo-Fr 16:30; Sa 13:45", "indoor": "yes", "note": "ON 12/24 AND 12/31, THIS BOX MAY BE COLLECTED AS EARLY AS 12 NOON.", "nsi_id": "unitedstatespostalservice-a77078", "operator": "United States Postal Service", "operator:short": "USPS", "operator:type": "public", "operator:wikidata": "Q668687", "ref": "0864800069"}, "type": "Feature"}
{"geometry": {"coordinates": [-74.6470662, 40.193274], "type": "Point"}, "id": "KHa9pH82gKnroQTPbRPQ82gQu00=", "properties": {"@source_uri": "https://tools.usps.com/UspsToolsRestServices/rest/POLocator/findLocations", "@spider": "usps_collection_boxes", "addr:city": "TRENTON", "addr:country": "US", "addr:postcode": "08650", "addr:state": "NJ", "addr:street_address": "680 US HIGHWAY 130", "amenity": "post_box", "brand": "United States Postal Service", "brand:wikidata": "Q668687", "collection_times": "Mo-Fr 17:00; Sa 15:00", "note": "ON 12/24 AND 12/31, THIS BOX MAY BE COLLECTED AS EARLY AS 12 NOON.", "nsi_id": "unitedstatespostalservice-a77078", "operator": "United States Postal Service", "operator:short": "USPS", "operator:type": "public", "operator:wikidata": "Q668687", "ref": "0865000001"}, "type": "Feature"}
{"geometry": {"coordinates": [-74.647518, 40.192361], "type": "Point"}, "id": "XhkAjbY22IXFXP2dmE8Q6C9zX3E=", "properties": {"@source_uri": "https://tools.usps.com/UspsToolsRestServices/rest/POLocator/findLocations", "@spider": "usps_collection_boxes", "addr:city": "TRENTON", "addr:country": "US", "addr:postcode": "08650", "addr:state": "NJ", "addr:street_address": "680 US HIGHWAY 130", "amenity": "post_box", "brand": "United States Postal Service", "brand:wikidata": "Q668687", "collection_times": "Mo-Fr 17:00; Sa 15:00", "indoor": "yes", "note": "ON 12/24 AND 12/31, THIS BOX MAY BE COLLECTED AS EARLY AS 12 NOON.", "nsi_id": "unitedstatespostalservice-a77078", "operator": "United States Postal Service", "operator:short": "USPS", "operator:type": "public", "operator:wikidata": "Q668687", "ref": "0865000005"}, "type": "Feature"}
{"geometry": {"coordinates": [-74.647518695, 40.192428818], "type": "Point"}, "id": "MIiEabty94prr4nXCXHbmxXodBo=", "properties": {"@source_uri": "https://tools.usps.com/UspsToolsRestServices/rest/POLocator/findLocations", "@spider": "usps_collection_boxes", "addr:city": "TRENTON", "addr:country": "US", "addr:postcode": "08650", "addr:state": "NJ", "addr:street_address": "680 US HIGHWAY 130", "amenity": "post_box", "brand": "United States Postal Service", "brand:wikidata": "Q668687", "collection_times": "Mo-Fr 17:00; Sa 15:00", "indoor": "yes", "note": "ON 12/24 AND 12/31, THIS BOX MAY BE COLLECTED AS EARLY AS 12 NOON.", "nsi_id": "unitedstatespostalservice-a77078", "operator": "United States Postal Service", "operator:short": "USPS", "operator:type": "public", "operator:wikidata": "Q668687", "ref": "0865000018"}, "type": "Feature"}
{"geometry": {"coordinates": [-74.6794136689, 40.2217297527], "type": "Point"}, "id": "gUZOCCiux1IU5hhnsbnYwCv5Ors=", "properties": {"@source_uri": "https://tools.usps.com/UspsToolsRestServices/rest/POLocator/findLocations", "@spider": "usps_collection_boxes", "addr:city": "HAMILTON SQUARE", "addr:country": "US", "addr:postcode": "08690", "addr:state": "NJ", "addr:street_address": "2210 KLOCKNER RD", "amenity": "post_box", "brand": "United States Postal Service", "brand:wikidata": "Q668687", "collection_times": "Mo-Fr 15:00", "name": "USPS COLLECTION BOX - EXPRESS", "note": "ON 12/24 AND 12/31, THIS BOX MAY BE COLLECTED AS EARLY AS 12 NOON.", "nsi_id": "unitedstatespostalservice-a77078", "operator": "United States Postal Service", "operator:short": "USPS", "operator:type": "public", "operator:wikidata": "Q668687", "ref": "0869000000"}, "type": "Feature"}
{"geometry": {"coordinates": [-74.6627214, 40.232588], "type": "Point"}, "id": "Z1usMbqzGRVjWWZ-qhP1cnyS230=", "properties": {"@source_uri": "https://tools.usps.com/UspsToolsRestServices/rest/POLocator/findLocations", "@spider": "usps_collection_boxes", "addr:city": "HAMILTON SQUARE", "addr:country": "US", "addr:postcode": "08690", "addr:state": "NJ", "addr:street_address": "90 PARK AVE", "amenity": "post_box", "brand": "United States Postal Service", "brand:wikidata": "Q668687", "collection_times": "Mo-Sa 10:00", "nsi_id": "unitedstatespostalservice-a77078", "operator": "United States Postal Service", "operator:short": "USPS", "operator:type": "public", "operator:wikidata": "Q668687", "ref": "0869000008"}, "type": "Feature"}
{"geometry": {"coordinates": [-74.679437, 40.214962], "type": "Point"}, "id": "xHLcIS3jJealiIhcHLbdeC4qWyk=", "properties": {"@source_uri": "https://tools.usps.com/UspsToolsRestServices/rest/POLocator/findLocations", "@spider": "usps_collection_boxes", "addr:city": "HAMILTON SQUARE", "addr:country": "US", "addr:postcode": "08690", "addr:state": "NJ", "addr:street_address": "100 SILVER CT", "amenity": "post_box", "brand": "United States Postal Service", "brand:wikidata": "Q668687", "collection_times": "Mo-Sa 10:00", "nsi_id": "unitedstatespostalservice-a77078", "operator": "United States Postal Service", "operator:short": "USPS", "operator:type": "public", "operator:wikidata": "Q668687", "ref": "0869000009"}, "type": "Feature"}
{"geometry": {"coordinates": [-74.645614, 40.222524], "type": "Point"}, "id": "TeLl5QIF-WrzxqmytXm7YJVPH3Y=", "properties": {"@source_uri": "https://tools.usps.com/UspsToolsRestServices/rest/POLocator/findLocations", "@spider": "usps_collection_boxes", "addr:city": "HAMILTON SQUARE", "addr:country": "US", "addr:postcode": "08690", "addr:state": "NJ", "addr:street_address": "2141 STATE ROUTE 33", "amenity": "post_box", "brand": "United States Postal Service", "brand:wikidata": "Q668687", "collection_times": "Mo-Sa 11:00", "nsi_id": "unitedstatespostalservice-a77078", "operator": "United States Postal Service", "operator:short": "USPS", "operator:type": "public", "operator:wikidata": "Q668687", "ref": "0869000010"}, "type": "Feature"}
{"geometry": {"coordinates": [-74.6794136689, 40.2217297527], "type": "Point"}, "id": "oNXRRn7x0_zolgz1S3cbeTV4cYg=", "properties": {"@source_uri": "https://tools.usps.com/UspsToolsRestServices/rest/POLocator/findLocations", "@spider": "usps_collection_boxes", "addr:city": "HAMILTON SQUARE", "addr:country": "US", "addr:postcode": "08690", "addr:state": "NJ", "addr:street_address": "2210 KLOCKNER RD", "amenity": "post_box", "brand": "United States Postal Service", "brand:wikidata": "Q668687", "collection_times": "Mo-Sa 15:00", "note": "ON 12/24 AND 12/31, THIS BOX MAY BE COLLECTED AS EARLY AS 12 NOON.", "nsi_id": "unitedstatespostalservice-a77078", "operator": "United States Postal Service", "operator:short": "USPS", "operator:type": "public", "operator:wikidata": "Q668687", "ref": "0869000013"}, "type": "Feature"}
{"geometry": {"coordinates": [-74.6368149, 40.22292], "type": "Point"}, "id": "46AAHxcNo_BQnKboumUEZYud9ko=", "properties": {"@source_uri": "https://tools.usps.com/UspsToolsRestServices/rest/POLocator/findLocations", "@spider": "usps_collection_boxes", "addr:city": "TRENTON", "addr:country": "US", "addr:postcode": "08691", "addr:state": "NJ", "addr:street_address": "1059 WASHINGTON BLVD", "amenity": "post_box", "brand": "United States Postal Service", "brand:wikidata": "Q668687", "collection_times": "Mo-Fr 15:00; Sa 11:00", "name": "USPS COLLECTION BOX - EXPRESS", "note": "ON 12/24 AND 12/31, THIS BOX MAY BE COLLECTED AS EARLY AS 12 NOON.", "nsi_id": "unitedstatespostalservice-a77078", "operator": "United States Postal Service", "operator:short": "USPS", "operator:type": "public", "operator:wikidata": "Q668687", "ref": "0869100000"}, "type": "Feature"}
{"geometry": {"coordinates": [-74.6368289, 40.222922], "type": "Point"}, "id": "EQW2zj5pWYEd4Iriyx-3cmHPTzk=", "properties": {"@source_uri": "https://tools.usps.com/UspsToolsRestServices/rest/POLocator/findLocations", "@spider": "usps_collection_boxes", "addr:city": "TRENTON", "addr:country": "US", "addr:postcode": "08691", "addr:state": "NJ", "addr:street_address": "1059 WASHINGTON BLVD", "amenity": "post_box", "brand": "United States Postal Service", "brand:wikidata": "Q668687", "collection_times": "Mo-Fr 15:00; Sa 11:00", "note": "ON 12/24 AND 12/31, THIS BOX MAY BE COLLECTED AS EARLY AS 12 NOON.", "nsi_id": "unitedstatespostalservice-a77078", "operator": "United States Postal Service", "operator:short": "USPS", "operator:type": "public", "operator:wikidata": "Q668687", "ref": "0869100001"}, "type": "Feature"}
{"geometry": {"coordinates": [-74.6338365, 40.234911], "type": "Point"}, "id": "2ry5XHlo1LowWb3yY-lbWoloaKo=", "properties": {"@source_uri": "https://tools.usps.com/UspsToolsRestServices/rest/POLocator/findLocations", "@spider": "usps_collection_boxes", "addr:city": "TRENTON", "addr:country": "US", "addr:postcode": "08691", "addr:state": "NJ", "addr:street_address": "203 HUTCHINSON RD", "amenity": "post_box", "brand": "United States Postal Service", "brand:wikidata": "Q668687", "collection_times": "Mo-Sa 11:00", "nsi_id": "unitedstatespostalservice-a77078", "operator": "United States Postal Service", "operator:short": "USPS", "operator:type": "public", "operator:wikidata": "Q668687", "ref": "0869100002"}, "type": "Feature"}
{"geometry": {"coordinates": [-74.6219173, 40.214396], "type": "Point"}, "id": "jDjgpy5cFWsSo5-xRLZbFaddytI=", "properties": {"@source_uri": "https://tools.usps.com/UspsToolsRestServices/rest/POLocator/findLocations", "@spider": "usps_collection_boxes", "addr:city": "TRENTON", "addr:country": "US", "addr:postcode": "08691", "addr:state": "NJ", "addr:street_address": "35 ROBBINSVILLE ALLENTOWN RD", "amenity": "post_box", "brand": "United States Postal Service", "brand:wikidata": "Q668687", "collection_times": "Mo-Sa 11:00", "nsi_id": "unitedstatespostalservice-a77078", "operator": "United States Postal Service", "operator:short": "USPS", "operator:type": "public", "operator:wikidata": "Q668687", "ref": "0869100003"}, "type": "Feature"}
{"geometry": {"coordinates": [-74.6280639, 40.207645], "type": "Point"}, "id": "kddKztf2mKcYH56L0B0zb6Yksl0=", "properties": {"@source_uri": "https://tools.usps.com/UspsToolsRestServices/rest/POLocator/findLocations", "@spider": "usps_collection_boxes", "addr:city": "TRENTON", "addr:country": "US", "addr:postcode": "08691", "addr:state": "NJ", "addr:street_address": "3 S GOLD DR", "amenity": "post_box", "brand": "United States Postal Service", "brand:wikidata": "Q668687", "collection_times": "Mo-Sa 10:00", "nsi_id": "unitedstatespostalservice-a77078", "operator": "United States Postal Service", "operator:short": "USPS", "operator:type": "public", "operator:wikidata": "Q668687", "ref": "0869100006"}, "type": "Feature"}
