{"dataset_attributes": {"@spider": "usps_collection_boxes", "spider:collection_time": "2023-11-25T08:23:32.202811"}, "geometry": {"coordinates": [-74.2212066, 40.09633], "type": "Point"}, "id": "is7a5B1kNSk2DC3X0I4tzZvsG9o=", "properties": {"@spider": "usps_collection_boxes", "addr:city": "LAKEWOOD", "addr:country": "US", "addr:full": "601 PRIVATE WAY", "addr:postcode": "08701", "addr:state": "NJ", "amenity": "post_box", "brand": "United States Postal Service", "brand:wikidata": "Q668687", "collection_times": "Mo-Sa 10:00", "name": "USPS COLLECTION BOX - BLUE BOX", "nsi_id": "unitedstatespostalservice-a77078", "operator": "United States Postal Service", "operator:short": "USPS", "operator:type": "public", "operator:wikidata": "Q668687", "ref": "0870100004"}, "type": "Feature"}
{"dataset_attributes": {"@spider": "usps_collection_boxes", "spider:collection_time": "2023-11-25T08:23:32.202811"}, "geometry": {"coordinates": [-74.2550819, 40.087953], "type": "Point"}, "id": "1BZ0lbs_VqTIuTo8aMKSVNvAeYc=", "properties": {"@spider": "usps_collection_boxes", "addr:city": "LAKEWOOD", "addr:country": "US", "addr:full": "84 HILLSIDE BLVD", "addr:postcode": "08701", "addr:state": "NJ", "amenity": "post_box", "brand": "United States Postal Service", "brand:wikidata": "Q668687", "collection_times": "Mo-Sa 10:00", "name": "USPS COLLECTION BOX - BLUE BOX", "nsi_id": "unitedstatespostalservice-a77078", "operator": "United States Postal Service", "operator:short": "USPS", "operator:type": "public", "operator:wikidata": "Q668687", "ref": "0870100007"}, "type": "Feature"}
{"dataset_attributes": {"@spider": "usps_collection_boxes", "spider:collection_time": "2023-11-25T08:23:32.202811"}, "geometry": {"coordinates": [-74.220252, 40.107447], "type": "Point"}, "id": "c6RsGUm-0l616X2lQiJIJQvAVrQ=", "properties": {"@spider": "usps_collection_boxes", "addr:city": "LAKEWOOD", "addr:country": "US", "addr:full": "1700 MADISON AVE", "addr:postcode": "08701", "addr:state": "NJ", "amenity": "post_box", "brand": "United States Postal Service", "brand:wikidata": "Q668687", "collection_times": "Mo-Sa 15:00", "name": "USPS COLLECTION BOX - BLUE BOX", "note": "ON 12/24 AND 12/31, THIS BOX MAY BE COLLECTED AS EARLY AS 12 NOON.", "nsi_id": "unitedstatespostalservice-a77078", "operator": "United States Postal Service", "operator:short": "USPS", "operator:type": "public", "operator:wikidata": "Q668687", "ref": "0870100014"}, "type": "Feature"}
{"dataset_attributes": {"@spider": "usps_collection_boxes", "spider:collection_time": "2023-11-25T08:23:32.202811"}, "geometry": {"coordinates": [-74.2183261252, 40.1004311288], "type": "Point"}, "id": "K3jYtR_O3b0FNx3ERwbW9mOAM6s=", "properties": {"@spider": "usps_collection_boxes", "addr:city": "LAKEWOOD", "addr:country": "US", "addr:full": "1072 MADISON AVE", "addr:postcode": "08701", "addr:state": "NJ", "amenity": "post_box", "brand": "United States Postal Service", "brand:wikidata": "Q668687", "collection_times": "Mo-Fr 15:00; Sa 11:00", "name": "USPS COLLECTION BOX - BLUE BOX", "note": "ON 12/24 AND 12/31, THIS BOX MAY BE COLLECTED AS EARLY AS 12 NOON.", "nsi_id": "unitedstatespostalservice-a77078", "operator": "United States Postal Service", "operator:short": "USPS", "operator:type": "public", "operator:wikidata": "Q668687", "ref": "0870100015"}, "type": "Feature"}
{"dataset_attributes": {"@spider": "usps_collection_boxes", "spider:collection_time": "2023-11-25T08:23:32.202811"}, "geometry": {"coordinates": [-74.2199262, 40.098626], "type": "Point"}, "id": "D9l0qs-9ynRt7ig6pee9UiFMG8I=", "properties": {"@spider": "usps_collection_boxes", "addr:city": "LAKEWOOD", "addr:country": "US", "addr:full": "925 FOREST AVE", "addr:postcode": "08701", "addr:state": "NJ", "amenity": "post_box", "brand": "United States Postal Service", "brand:wikidata": "Q668687", "collection_times": "Mo-Sa 10:00", "name": "USPS COLLECTION BOX - BLUE BOX", "nsi_id": "unitedstatespostalservice-a77078", "operator": "United States Postal Service", "operator:short": "USPS", "operator:type": "public", "operator:wikidata": "Q668687", "ref": "0870100016"}, "type": "Feature"}
{"dataset_attributes": {"@spider": "usps_collection_boxes", "spider:collection_time": "2023-11-25T08:23:32.202811"}, "geometry": {"coordinates": [-74.225698, 40.095789], "type": "Point"}, "id": "Wm54IVNwr-6PWy4UMKaJXSpK5bE=", "properties": {"@spider": "usps_collection_boxes", "addr:city": "LAKEWOOD", "addr:country": "US", "addr:full": "699 LAKEWOOD AVE", "addr:postcode": "08701", "addr:state": "NJ", "amenity": "post_box", "brand": "United States Postal Service", "brand:wikidata": "Q668687", "collection_times": "Mo-Sa 10:00", "name": "USPS COLLECTION BOX - BLUE BOX", "nsi_id": "unitedstatespostalservice-a77078", "operator": "United States Postal Service", "operator:short": "USPS", "operator:type": "public", "operator:wikidata": "Q668687", "ref": "0870100018"}, "type": "Feature"}
{"dataset_attributes": {"@spider": "usps_collection_boxes", "spider:collection_time": "2023-11-25T08:23:32.202811"}, "geometry": {"coordinates": [-74.2190024, 40.09254], "type": "Point"}, "id": "_YkFFkuflfQJsd6q1uNiJccRsYs=", "properties": {"@spider": "usps_collection_boxes", "addr:city": "LAKEWOOD", "addr:country": "US", "addr:full": "290 FOREST AVE", "addr:postcode": "08701", "addr:state": "NJ", "amenity": "post_box", "brand": "United States Postal Service", "brand:wikidata": "Q668687", "collection_times": "Mo-Sa 10:00", "name": "USPS COLLECTION BOX - BLUE BOX", "nsi_id": "unitedstatespostalservice-a77078", "operator": "United States Postal Service", "operator:short": "USPS", "operator:type": "public", "operator:wikidata": "Q668687", "ref": "0870100020"}, "type": "Feature"}
{"dataset_attributes": {"@spider": "usps_collection_boxes", "spider:collection_time": "2023-11-25T08:23:32.202811"}, "geometry": {"coordinates": [-74.2145181, 40.092025], "type": "Point"}, "id": "HVLUXpP8SVfBaxjoMmb0L2UllvU=", "properties": {"@spider": "usps_collection_boxes", "addr:city": "LAKEWOOD", "addr:country": "US", "addr:full": "129 CLIFTON AVE", "addr:postcode": "08701", "addr:state": "NJ", "amenity": "post_box", "brand": "United States Postal Service", "brand:wikidata": "Q668687", "collection_times": "Mo-Fr 15:00; Sa 11:00", "name": "USPS COLLECTION BOX - BLUE BOX", "note": "ON 12/24 AND 12/31, THIS BOX MAY BE COLLECTED AS EARLY AS 12 NOON.", "nsi_id": "unitedstatespostalservice-a77078", "operator": "United States Postal Service", "operator:short": "USPS", "operator:type": "public", "operator:wikidata": "Q668687", "ref": "0870100023"}, "type": "Feature"}
{"dataset_attributes": {"@spider": "usps_collection_boxes", "spider:collection_time": "2023-11-25T08:23:32.202811"}, "geometry": {"coordinates": [-74.2142149, 40.091127], "type": "Point"}, "id": "6Y8F6iqfeO2tybZH1qUW-UWIh6k=", "properties": {"@spider": "usps_collection_boxes", "addr:city": "LAKEWOOD", "addr:country": "US", "addr:full": "240 1ST ST", "addr:postcode": "08701", "addr:state": "NJ", "amenity": "post_box", "brand": "United States Postal Service", "brand:wikidata": "Q668687", "collection_times": "Mo-Sa 15:00", "name": "USPS COLLECTION BOX - BLUE BOX", "note": "ON 12/24 AND 12/31, THIS BOX MAY BE COLLECTED AS EARLY AS 12 NOON.", "nsi_id": "unitedstatespostalservice-a77078", "operator": "United States Postal Service", "operator:short": "USPS", "operator:type": "public", "operator:wikidata": "Q668687", "ref": "0870100025"}, "type": "Feature"}
{"dataset_attributes": {"@spider": "usps_collection_boxes", "spider:collection_time": "2023-11-25T08:23:32.202811"}, "geometry": {"coordinates": [-74.2132758, 40.093364], "type": "Point"}, "id": "VyhO0j6LepfFDisIYFRikzrq9gU=", "properties": {"@spider": "usps_collection_boxes", "addr:city": "LAKEWOOD", "addr:country": "US", "addr:full": "231 3RD ST", "addr:postcode": "08701", "addr:state": "NJ", "amenity": "post_box", "brand": "United States Postal Service", "brand:wikidata": "Q668687", "collection_times": "Mo-Fr 15:00; Sa 11:00", "name": "USPS COLLECTION BOX - BLUE BOX", "note": "ON 12/24 AND 12/31, THIS BOX MAY BE COLLECTED AS EARLY AS 12 NOON.", "nsi_id": "unitedstatespostalservice-a77078", "operator": "United States Postal Service", "operator:short": "USPS", "operator:type": "public", "operator:wikidata": "Q668687", "ref": "0870100028"}, "type": "Feature"}
{"dataset_attributes": {"@spider": "usps_collection_boxes", "spider:collection_time": "2023-11-25T08:23:32.202811"}, "geometry": {"coordinates": [-74.2167009, 40.092977], "type": "Point"}, "id": "JZaGmb80uMHcMEA6ORsXctfvWvQ=", "properties": {"@spider": "usps_collection_boxes", "addr:city": "LAKEWOOD", "addr:country": "US", "addr:full": "301 MADISON AVE", "addr:postcode": "08701", "addr:state": "NJ", "amenity": "post_box", "brand": "United States Postal Service", "brand:wikidata": "Q668687", "collection_times": "Mo-Fr 15:00; Sa 11:00", "name": "USPS COLLECTION BOX - BLUE BOX", "note": "ON 12/24 AND 12/31, THIS BOX MAY BE COLLECTED AS EARLY AS 12 NOON.", "nsi_id": "unitedstatespostalservice-a77078", "operator": "United States Postal Service", "operator:short": "USPS", "operator:type": "public", "operator:wikidata": "Q668687", "ref": "0870100030"}, "type": "Feature"}
{"dataset_attributes": {"@spider": "usps_collection_boxes", "spider:collection_time": "2023-11-25T08:23:32.202811"}, "geometry": {"coordinates": [-74.2112660195, 40.1008110168], "type": "Point"}, "id": "Yw0jlWTE9vyuUXCctbyXykShGZI=", "properties": {"@spider": "usps_collection_boxes", "addr:city": "LAKEWOOD", "addr:country": "US", "addr:full": "1003 MONMOUTH AVE", "addr:postcode": "08701", "addr:state": "NJ", "amenity": "post_box", "brand": "United States Postal Service", "brand:wikidata": "Q668687", "collection_times": "Mo-Sa 10:00", "name": "USPS COLLECTION BOX - BLUE BOX", "nsi_id": "unitedstatespostalservice-a77078", "operator": "United States Postal Service", "operator:short": "USPS", "operator:type": "public", "operator:wikidata": "Q668687", "ref": "0870100031"}, "type": "Feature"}
{"dataset_attributes": {"@spider": "usps_collection_boxes", "spider:collection_time": "2023-11-25T08:23:32.202811"}, "geometry": {"coordinates": [-74.2197954, 40.087217], "type": "Point"}, "id": "jEXtkJW40ts1INkl0-McnKMGlLU=", "properties": {"@spider": "usps_collection_boxes", "addr:city": "LAKEWOOD", "addr:country": "US", "addr:full": "201 CENTRAL AVE", "addr:postcode": "08701", "addr:state": "NJ", "amenity": "post_box", "brand": "United States Postal Service", "brand:wikidata": "Q668687", "collection_times": "Mo-Sa 10:00", "name": "USPS COLLECTION BOX - BLUE BOX", "nsi_id": "unitedstatespostalservice-a77078", "operator": "United States Postal Service", "operator:short": "USPS", "operator:type": "public", "operator:wikidata": "Q668687", "ref": "0870100037"}, "type": "Feature"}
{"dataset_attributes": {"@spider": "usps_collection_boxes", "spider:collection_time": "2023-11-25T08:23:32.202811"}, "geometry": {"coordinates": [-74.2209351, 40.055059], "type": "Point"}, "id": "NCFR2x83WRJcb4WxWLsGTp_oeUk=", "properties": {"@spider": "usps_collection_boxes", "addr:city": "LAKEWOOD", "addr:country": "US", "addr:full": "1200 RIVER AVE", "addr:postcode": "08701", "addr:state": "NJ", "amenity": "post_box", "brand": "United States Postal Service", "brand:wikidata": "Q668687", "collection_times": "Mo-Sa 15:00", "name": "USPS COLLECTION BOX - BLUE BOX", "note": "ON 12/24 AND 12/31, THIS BOX MAY BE COLLECTED AS EARLY AS 12 NOON.", "nsi_id": "unitedstatespostalservice-a77078", "operator": "United States Postal Service", "operator:short": "USPS", "operator:type": "public", "operator:wikidata": "Q668687", "ref": "0870100039"}, "type": "Feature"}
{"dataset_attributes": {"@spider": "usps_collection_boxes", "spider:collection_time": "2023-11-25T08:23:32.202811"}, "geometry": {"coordinates": [-74.2231407, 40.051513], "type": "Point"}, "id": "o7E4MkAaSk9T_Zmv9kr0DPTL4Kc=", "properties": {"@spider": "usps_collection_boxes", "addr:city": "LAKEWOOD", "addr:country": "US", "addr:full": "1328 RIVER AVE", "addr:postcode": "08701", "addr:state": "NJ", "amenity": "post_box", "brand": "United States Postal Service", "brand:wikidata": "Q668687", "collection_times": "Mo-Sa 15:00", "name": "USPS COLLECTION BOX - BLUE BOX", "note": "ON 12/24 AND 12/31, THIS BOX MAY BE COLLECTED AS EARLY AS 12 NOON.", "nsi_id": "unitedstatespostalservice-a77078", "operator": "United States Postal Service", "operator:short": "USPS", "operator:type": "public", "operator:wikidata": "Q668687", "ref": "0870100040"}, "type": "Feature"}
{"dataset_attributes": {"@spider": "usps_collection_boxes", "spider:collection_time": "2023-11-25T08:23:32.202811"}, "geometry": {"coordinates": [-74.1759217, 40.052472], "type": "Point"}, "id": "_NYzp-dYObeE0QtfJFWatnSIZE8=", "properties": {"@spider": "usps_collection_boxes", "addr:city": "LAKEWOOD", "addr:country": "US", "addr:full": "1000 STATE ROUTE 70", "addr:postcode": "08701", "addr:state": "NJ", "amenity": "post_box", "brand": "United States Postal Service", "brand:wikidata": "Q668687", "collection_times": "Mo-Fr 15:00; Sa 11:00", "name": "USPS COLLECTION BOX - BLUE BOX", "note": "ON 12/24 AND 12/31, THIS BOX MAY BE COLLECTED AS EARLY AS 12 NOON.", "nsi_id": "unitedstatespostalservice-a77078", "operator": "United States Postal Service", "operator:short": "USPS", "operator:type": "public", "operator:wikidata": "Q668687", "ref": "0870100048"}, "type": "Feature"}
{"dataset_attributes": {"@spider": "usps_collection_boxes", "spider:collection_time": "2023-11-25T08:23:32.202811"}, "geometry": {"coordinates": [-74.1619577304, 40.0554656798], "type": "Point"}, "id": "TVxIpWlERgUeF3PlKPdFB6NeYao=", "properties": {"@spider": "usps_collection_boxes", "addr:city": "LAKEWOOD", "addr:country": "US", "addr:full": "1900 STATE ROUTE 70", "addr:postcode": "08701", "addr:state": "NJ", "amenity": "post_box", "brand": "United States Postal Service", "brand:wikidata": "Q668687", "collection_times": "Mo-Sa 10:00", "name": "USPS COLLECTION BOX - BLUE BOX", "nsi_id": "unitedstatespostalservice-a77078", "operator": "United States Postal Service", "operator:short": "USPS", "operator:type": "public", "operator:wikidata": "Q668687", "ref": "0870100050"}, "type": "Feature"}
{"dataset_attributes": {"@spider": "usps_collection_boxes", "spider:collection_time": "2023-11-25T08:23:32.202811"}, "geometry": {"coordinates": [-74.1626466, 40.029885], "type": "Point"}, "id": "OE-0ZkqMlOU7kQod29Aj2645Yik=", "properties": {"@spider": "usps_collection_boxes", "addr:city": "LAKEWOOD", "addr:country": "US", "addr:full": "1051B ARGYLL CIR", "addr:postcode": "08701", "addr:state": "NJ", "amenity": "post_box", "brand": "United States Postal Service", "brand:wikidata": "Q668687", "collection_times": "Mo-Sa 10:00", "name": "USPS COLLECTION BOX - BLUE BOX", "nsi_id": "unitedstatespostalservice-a77078", "operator": "United States Postal Service", "operator:short": "USPS", "operator:type": "public", "operator:wikidata": "Q668687", "ref": "0870100056"}, "type": "Feature"}
{"dataset_attributes": {"@spider": "usps_collection_boxes", "spider:collection_time": "2023-11-25T08:23:32.202811"}, "geometry": {"coordinates": [-74.1801137, 40.057357], "type": "Point"}, "id": "CPp-M0nFg7J00qeXKjoxDdixUH4=", "properties": {"@spider": "usps_collection_boxes", "addr:city": "LAKEWOOD", "addr:country": "US", "addr:full": "1000 AIRPORT RD", "addr:postcode": "08701", "addr:state": "NJ", "amenity": "post_box", "brand": "United States Postal Service", "brand:wikidata": "Q668687", "collection_times": "Mo-Fr 15:00; Sa 11:00", "name": "USPS COLLECTION BOX - BLUE BOX", "note": "ON 12/24 AND 12/31, THIS BOX MAY BE COLLECTED AS EARLY AS 12 NOON.", "nsi_id": "unitedstatespostalservice-a77078", "operator": "United States Postal Service", "operator:short": "USPS", "operator:type": "public", "operator:wikidata": "Q668687", "ref": "0870100058"}, "type": "Feature"}
{"dataset_attributes": {"@spider": "usps_collection_boxes", "spider:collection_time": "2023-11-25T08:23:32.202811"}, "geometry": {"coordinates": [-74.1895728, 40.055113], "type": "Point"}, "id": "9gFMLTXPLV6TTbJzmf5hHRuM19I=", "properties": {"@spider": "usps_collection_boxes", "addr:city": "LAKEWOOD", "addr:country": "US", "addr:full": "1195 TOWBIN AVE", "addr:postcode": "08701", "addr:state": "NJ", "amenity": "post_box", "brand": "United States Postal Service", "brand:wikidata": "Q668687", "collection_times": "Mo-Fr 15:00; Sa 11:00", "name": "USPS COLLECTION BOX - BLUE BOX", "note": "ON 12/24 AND 12/31, THIS BOX MAY BE COLLECTED AS EARLY AS 12 NOON.", "nsi_id": "unitedstatespostalservice-a77078", "operator": "United States Postal Service", "operator:short": "USPS", "operator:type": "public", "operator:wikidata": "Q668687", "ref": "0870100060"}, "type": "Feature"}
{"dataset_attributes": {"@spider": "usps_collection_boxes", "spider:collection_time": "2023-11-25T08:23:32.202811"}, "geometry": {"coordinates": [-74.1759758, 40.079262], "type": "Point"}, "id": "OzB4uChSPkVSurLuvzWmmro1Iag=", "properties": {"@spider": "usps_collection_boxes", "addr:city": "LAKEWOOD", "addr:country": "US", "addr:full": "1820 SWARTHMORE AVE", "addr:postcode": "08701", "addr:state": "NJ", "amenity": "post_box", "brand": "United States Postal Service", "brand:wikidata": "Q668687", "collection_times": "Mo-Fr 17:00; Sa 16:00", "name": "USPS COLLECTION BOX - BLUE BOX", "note": "ON 12/24 AND 12/31, THIS BOX MAY BE COLLECTED AS EARLY AS 12 NOON.", "nsi_id": "unitedstatespostalservice-a77078", "operator": "United States Postal Service", "operator:short": "USPS", "operator:type": "public", "operator:wikidata": "Q668687", "ref": "0870100065"}, "type": "Feature"}
{"dataset_attributes": {"@spider": "usps_collection_boxes", "spider:collection_time": "2023-11-25T08:23:32.202811"}, "geometry": {"coordinates": [-74.2404841, 40.098992], "type": "Point"}, "id": "Od65BP-ybXSW_8RxS4uVR_YTtZQ=", "properties": {"@spider": "usps_collection_boxes", "addr:city": "LAKEWOOD", "addr:country": "US", "addr:full": "1400 PARK DR", "addr:postcode": "08701", "addr:state": "NJ", "amenity": "post_box", "brand": "United States Postal Service", "brand:wikidata": "Q668687", "collection_times": "Mo-Sa 10:00", "name": "USPS COLLECTION BOX - BLUE BOX", "nsi_id": "unitedstatespostalservice-a77078", "operator": "United States Postal Service", "operator:short": "USPS", "operator:type": "public", "operator:wikidata": "Q668687", "ref": "0870100066"}, "type": "Feature"}
{"dataset_attributes": {"@spider": "usps_collection_boxes", "spider:collection_time": "2023-11-25T08:23:32.202811"}, "geometry": {"coordinates": [-74.2193349, 40.07327], "type": "Point"}, "id": "mo52TsrP_dsnR0LSOec3IB2D2So=", "properties": {"@spider": "usps_collection_boxes", "addr:city": "LAKEWOOD", "addr:country": "US", "addr:full": "600 RIVER AVE", "addr:postcode": "08701", "addr:state": "NJ", "amenity": "post_box", "brand": "United States Postal Service", "brand:wikidata": "Q668687", "collection_times": "Mo-Sa 10:00", "name": "USPS COLLECTION BOX - BLUE BOX", "nsi_id": "unitedstatespostalservice-a77078", "operator": "United States Postal Service", "operator:short": "USPS", "operator:type": "public", "operator:wikidata": "Q668687", "ref": "0870100067"}, "type": "Feature"}
{"dataset_attributes": {"@spider": "usps_collection_boxes", "spider:collection_time": "2023-11-25T08:23:32.202811"}, "geometry": {"coordinates": [-74.183623, 40.036063], "type": "Point"}, "id": "yuzcgrfoIBQDk4FNg1ckB9NDqWg=", "properties": {"@spider": "usps_collection_boxes", "addr:city": "LAKEWOOD", "addr:country": "US", "addr:full": "368 DORCHESTER DR", "addr:postcode": "08701", "addr:state": "NJ", "amenity": "post_box", "brand": "United States Postal Service", "brand:wikidata": "Q668687", "collection_times": "Mo-Sa 10:00", "name": "USPS COLLECTION BOX - BLUE BOX", "nsi_id": "unitedstatespostalservice-a77078", "operator": "United States Postal Service", "operator:short": "USPS", "operator:type": "public", "operator:wikidata": "Q668687", "ref": "0870100070"}, "type": "Feature"}
{"dataset_attributes": {"@spider": "usps_collection_boxes", "spider:collection_time": "2023-11-25T08:23:32.202811"}, "geometry": {"coordinates": [-74.1636029, 40.032273], "type": "Point"}, "id": "zNlL5odgGFVQsaINd5wdm3LNznc=", "properties": {"@spider": "usps_collection_boxes", "addr:city": "LAKEWOOD", "addr:country": "US", "addr:full": "1 DUMBARTON DR", "addr:postcode": "08701", "addr:state": "NJ", "amenity": "post_box", "brand": "United States Postal Service", "brand:wikidata": "Q668687", "collection_times": "Mo-Sa 10:00", "name": "USPS COLLECTION BOX - BLUE BOX", "nsi_id": "unitedstatespostalservice-a77078", "operator": "United States Postal Service", "operator:short": "USPS", "operator:type": "public", "operator:wikidata": "Q668687", "ref": "0870100071"}, "type": "Feature"}
{"dataset_attributes": {"@spider": "usps_collection_boxes", "spider:collection_time": "2023-11-25T08:23:32.202811"}, "geometry": {"coordinates": [-74.2148599, 40.106714], "type": "Point"}, "id": "ir1zaXjEc_zo8jtZF5HP2B1SnuQ=", "properties": {"@spider": "usps_collection_boxes", "addr:city": "LAKEWOOD", "addr:country": "US", "addr:full": "199 E KENNEDY BLVD", "addr:postcode": "08701", "addr:state": "NJ", "amenity": "post_box", "brand": "United States Postal Service", "brand:wikidata": "Q668687", "collection_times": "Mo-Sa 15:00", "name": "USPS COLLECTION BOX - BLUE BOX", "note": "ON 12/24 AND 12/31, THIS BOX MAY BE COLLECTED AS EARLY AS 12 NOON.", "nsi_id": "unitedstatespostalservice-a77078", "operator": "United States Postal Service", "operator:short": "USPS", "operator:type": "public", "operator:wikidata": "Q668687", "ref": "0870100075"}, "type": "Feature"}
{"dataset_attributes": {"@spider": "usps_collection_boxes", "spider:collection_time": "2023-11-25T08:23:32.202811"}, "geometry": {"coordinates": [-74.1790105, 40.047458], "type": "Point"}, "id": "SOidhvaqvMSCO4T4vvQURYyn_y8=", "properties": {"@spider": "usps_collection_boxes", "addr:city": "LAKEWOOD", "addr:country": "US", "addr:full": "19 BUCKINGHAM DR", "addr:postcode": "08701", "addr:state": "NJ", "amenity": "post_box", "brand": "United States Postal Service", "brand:wikidata": "Q668687", "collection_times": "Mo-Sa 10:00", "name": "USPS COLLECTION BOX - BLUE BOX", "nsi_id": "unitedstatespostalservice-a77078", "operator": "United States Postal Service", "operator:short": "USPS", "operator:type": "public", "operator:wikidata": "Q668687", "ref": "0870100077"}, "type": "Feature"}
{"dataset_attributes": {"@spider": "usps_collection_boxes", "spider:collection_time": "2023-11-25T08:23:32.202811"}, "geometry": {"coordinates": [-74.1894719, 40.046743], "type": "Point"}, "id": "Y85UlopSwQi19KQDDV13yqzcewE=", "properties": {"@spider": "usps_collection_boxes", "addr:city": "LAKEWOOD", "addr:country": "US", "addr:full": "213A HUNTINGTON DR", "addr:postcode": "08701", "addr:state": "NJ", "amenity": "post_box", "brand": "United States Postal Service", "brand:wikidata": "Q668687", "collection_times": "Mo-Sa 10:00", "name": "USPS COLLECTION BOX - BLUE BOX", "nsi_id": "unitedstatespostalservice-a77078", "operator": "United States Postal Service", "operator:short": "USPS", "operator:type": "public", "operator:wikidata": "Q668687", "ref": "0870100078"}, "type": "Feature"}
{"dataset_attributes": {"@spider": "usps_collection_boxes", "spider:collection_time": "2023-11-25T08:23:32.202811"}, "geometry": {"coordinates": [-74.2273582, 40.073537], "type": "Point"}, "id": "OL2v012GjX5saBGXYQ3uUUx1wEo=", "properties": {"@spider": "usps_collection_boxes", "addr:city": "LAKEWOOD", "addr:country": "US", "addr:full": "501 PROSPECT ST", "addr:postcode": "08701", "addr:state": "NJ", "amenity": "post_box", "brand": "United States Postal Service", "brand:wikidata": "Q668687", "collection_times": "Mo-Sa 10:00", "name": "USPS COLLECTION BOX - BLUE BOX", "nsi_id": "unitedstatespostalservice-a77078", "operator": "United States Postal Service", "operator:short": "USPS", "operator:type": "public", "operator:wikidata": "Q668687", "ref": "0870100079"}, "type": "Feature"}
{"dataset_attributes": {"@spider": "usps_collection_boxes", "spider:collection_time": "2023-11-25T08:23:32.202811"}, "geometry": {"coordinates": [-74.1756539, 40.078709], "type": "Point"}, "id": "HRZfLycQlewdQDVxtyft6eAgnd8=", "properties": {"@spider": "usps_collection_boxes", "addr:city": "LAKEWOOD", "addr:country": "US", "addr:full": "1820 SWARTHMORE AVE", "addr:postcode": "08701", "addr:state": "NJ", "amenity": "post_box", "brand": "United States Postal Service", "brand:wikidata": "Q668687", "collection_times": "Mo-Fr 17:00; Sa 16:00", "name": "USPS COLLECTION BOX - PO LOBBY", "note": "ON 12/24 AND 12/31, THIS BOX MAY BE COLLECTED AS EARLY AS 12 NOON.", "nsi_id": "unitedstatespostalservice-a77078", "operator": "United States Postal Service", "operator:short": "USPS", "operator:type": "public", "operator:wikidata": "Q668687", "ref": "0870100080"}, "type": "Feature"}
{"dataset_attributes": {"@spider": "usps_collection_boxes", "spider:collection_time": "2023-11-25T08:23:32.202811"}, "geometry": {"coordinates": [-74.1760204, 40.078705], "type": "Point"}, "id": "vf9tS96lNnGjtVnxTWigt9qYLe4=", "properties": {"@spider": "usps_collection_boxes", "addr:city": "LAKEWOOD", "addr:country": "US", "addr:full": "1820 SWARTHMORE AVE", "addr:postcode": "08701", "addr:state": "NJ", "amenity": "post_box", "brand": "United States Postal Service", "brand:wikidata": "Q668687", "collection_times": "Mo-Fr 17:00; Sa 16:00", "name": "USPS COLLECTION BOX - APC", "note": "ON 12/24 AND 12/31, THIS BOX MAY BE COLLECTED AS EARLY AS 12 NOON.", "nsi_id": "unitedstatespostalservice-a77078", "operator": "United States Postal Service", "operator:short": "USPS", "operator:type": "public", "operator:wikidata": "Q668687", "ref": "0870100086"}, "type": "Feature"}
{"dataset_attributes": {"@spider": "usps_collection_boxes", "spider:collection_time": "2023-11-25T08:23:32.202811"}, "geometry": {"coordinates": [-74.1763645837, 40.0796135572], "type": "Point"}, "id": "UHnHJyj3dtR0aNpMr1TUBIYR6uA=", "properties": {"@spider": "usps_collection_boxes", "addr:city": "LAKEWOOD", "addr:country": "US", "addr:full": "1820 SWARTHMORE AVE", "addr:postcode": "08701", "addr:state": "NJ", "amenity": "post_box", "brand": "United States Postal Service", "brand:wikidata": "Q668687", "collection_times": "Mo-Fr 17:00; Sa 14:45", "name": "USPS COLLECTION BOX - PO LOBBY", "note": "ON 12/24 AND 12/31, THIS BOX MAY BE COLLECTED AS EARLY AS 12 NOON.", "nsi_id": "unitedstatespostalservice-a77078", "operator": "United States Postal Service", "operator:short": "USPS", "operator:type": "public", "operator:wikidata": "Q668687", "ref": "0870100089"}, "type": "Feature"}
{"dataset_attributes": {"@spider": "usps_collection_boxes", "spider:collection_time": "2023-11-25T08:23:32.202811"}, "geometry": {"coordinates": [-74.100428, 40.141976], "type": "Point"}, "id": "eHLqiGoWeY3_6rUFQETUS7Fwto4=", "properties": {"@spider": "usps_collection_boxes", "addr:city": "ALLENWOOD", "addr:country": "US", "addr:full": "3212 ALLENWOOD LAKEWOOD RD", "addr:postcode": "08720", "addr:state": "NJ", "amenity": "post_box", "brand": "United States Postal Service", "brand:wikidata": "Q668687", "collection_times": "Mo-Fr 16:30; Sa 12:00", "name": "USPS COLLECTION BOX - BLUE BOX", "note": "ON 12/24 AND 12/31, THIS BOX MAY BE COLLECTED AS EARLY AS 12 NOON.", "nsi_id": "unitedstatespostalservice-a77078", "operator": "United States Postal Service", "operator:short": "USPS", "operator:type": "public", "operator:wikidata": "Q668687", "ref": "0872000001"}, "type": "Feature"}
{"dataset_attributes": {"@spider": "usps_collection_boxes", "spider:collection_time": "2023-11-25T08:23:32.202811"}, "geometry": {"coordinates": [-74.100346, 40.141937], "type": "Point"}, "id": "5MalCUUI9V7A-68ZiPRXbsXDiJ0=", "properties": {"@spider": "usps_collection_boxes", "addr:city": "ALLENWOOD", "addr:country": "US", "addr:full": "3212 ALLENWOOD LAKEWOOD RD", "addr:postcode": "08720", "addr:state": "NJ", "amenity": "post_box", "brand": "United States Postal Service", "brand:wikidata": "Q668687", "collection_times": "Mo-Fr 16:30; Sa 12:00", "name": "USPS COLLECTION BOX - PO LOBBY", "note": "ON 12/24 AND 12/31, THIS BOX MAY BE COLLECTED AS EARLY AS 12 NOON.", "nsi_id": "unitedstatespostalservice-a77078", "operator": "United States Postal Service", "operator:short": "USPS", "operator:type": "public", "operator:wikidata": "Q668687", "ref": "0872000002"}, "type": "Feature"}
{"dataset_attributes": {"@spider": "usps_collection_boxes", "spider:collection_time": "2023-11-25T08:23:32.202811"}, "geometry": {"coordinates": [-74.1019684613, 40.1421913878], "type": "Point"}, "id": "huYg1O0RhTA2lZdMlkSis6UlbXM=", "properties": {"@spider": "usps_collection_boxes", "addr:city": "ALLENWOOD", "addr:country": "US", "addr:full": "3212 ALLENWOOD LAKEWOOD RD", "addr:postcode": "08720", "addr:state": "NJ", "amenity": "post_box", "brand": "United States Postal Service", "brand:wikidata": "Q668687", "collection_times": "Mo-Fr 16:30; Sa 12:00", "name": "USPS COLLECTION BOX - PO LOBBY", "note": "ON 12/24 AND 12/31, THIS BOX MAY BE COLLECTED AS EARLY AS 12 NOON.", "nsi_id": "unitedstatespostalservice-a77078", "operator": "United States Postal Service", "operator:short": "USPS", "operator:type": "public", "operator:wikidata": "Q668687", "ref": "0872000005"}, "type": "Feature"}
{"dataset_attributes": {"@spider": "usps_collection_boxes", "spider:collection_time": "2023-11-25T08:23:32.202811"}, "geometry": {"coordinates": [-74.16113, 39.889916], "type": "Point"}, "id": "U3FdmefrOU1SV9cFaJleLUGjXeo=", "properties": {"@spider": "usps_collection_boxes", "addr:city": "BAYVILLE", "addr:country": "US", "addr:full": "801 ATLANTIC CITY BLVD", "addr:postcode": "08721", "addr:state": "NJ", "amenity": "post_box", "brand": "United States Postal Service", "brand:wikidata": "Q668687", "collection_times": "Mo-Fr 17:00; Sa 14:00", "name": "USPS COLLECTION BOX - BLUE BOX", "note": "ON 12/24 AND 12/31, THIS BOX MAY BE COLLECTED AS EARLY AS 12 NOON.", "nsi_id": "unitedstatespostalservice-a77078", "operator": "United States Postal Service", "operator:short": "USPS", "operator:type": "public", "operator:wikidata": "Q668687", "ref": "0872100004"}, "type": "Feature"}
{"dataset_attributes": {"@spider": "usps_collection_boxes", "spider:collection_time": "2023-11-25T08:23:32.202811"}, "geometry": {"coordinates": [-74.168062002, 39.923086003], "type": "Point"}, "id": "gw-g8dLh3OzVQ7wnvjAs7I0eW4Y=", "properties": {"@spider": "usps_collection_boxes", "addr:city": "BAYVILLE", "addr:country": "US", "addr:full": "3 SYLVAN LAKE BLVD", "addr:postcode": "08721", "addr:state": "NJ", "amenity": "post_box", "brand": "United States Postal Service", "brand:wikidata": "Q668687", "collection_times": "Mo-Sa 11:00", "name": "USPS COLLECTION BOX - BLUE BOX", "nsi_id": "unitedstatespostalservice-a77078", "operator": "United States Postal Service", "operator:short": "USPS", "operator:type": "public", "operator:wikidata": "Q668687", "ref": "0872100005"}, "type": "Feature"}
{"dataset_attributes": {"@spider": "usps_collection_boxes", "spider:collection_time": "2023-11-25T08:23:32.202811"}, "geometry": {"coordinates": [-74.1592008, 39.920926], "type": "Point"}, "id": "BHUHT8s6Wd9mYeHJw94AGsi5RjU=", "properties": {"@spider": "usps_collection_boxes", "addr:city": "BAYVILLE", "addr:country": "US", "addr:full": "333 US HIGHWAY 9", "addr:postcode": "08721", "addr:state": "NJ", "amenity": "post_box", "brand": "United States Postal Service", "brand:wikidata": "Q668687", "collection_times": "Mo-Sa 11:00", "name": "USPS COLLECTION BOX - BLUE BOX", "nsi_id": "unitedstatespostalservice-a77078", "operator": "United States Postal Service", "operator:short": "USPS", "operator:type": "public", "operator:wikidata": "Q668687", "ref": "0872100007"}, "type": "Feature"}
{"dataset_attributes": {"@spider": "usps_collection_boxes", "spider:collection_time": "2023-11-25T08:23:32.202811"}, "geometry": {"coordinates": [-74.16113, 39.889916], "type": "Point"}, "id": "ljnw_7q6vAjiRntD-GYQ_SZAHDo=", "properties": {"@spider": "usps_collection_boxes", "addr:city": "BAYVILLE", "addr:country": "US", "addr:full": "801 ATLANTIC CITY BLVD", "addr:postcode": "08721", "addr:state": "NJ", "amenity": "post_box", "brand": "United States Postal Service", "brand:wikidata": "Q668687", "collection_times": "Mo-Fr 17:00; Sa 15:00", "name": "USPS COLLECTION BOX - PO LOBBY", "note": "ON 12/24 AND 12/31, THIS BOX MAY BE COLLECTED AS EARLY AS 12 NOON.", "nsi_id": "unitedstatespostalservice-a77078", "operator": "United States Postal Service", "operator:short": "USPS", "operator:type": "public", "operator:wikidata": "Q668687", "ref": "0872100010"}, "type": "Feature"}
{"dataset_attributes": {"@spider": "usps_collection_boxes", "spider:collection_time": "2023-11-25T08:23:32.202811"}, "geometry": {"coordinates": [-74.161231158, 39.889676078], "type": "Point"}, "id": "oA7yRv0tOndl6Wj2Vjp1gDm5Lkg=", "properties": {"@spider": "usps_collection_boxes", "addr:city": "BAYVILLE", "addr:country": "US", "addr:full": "801 ATLANTIC CITY BLVD", "addr:postcode": "08721", "addr:state": "NJ", "amenity": "post_box", "brand": "United States Postal Service", "brand:wikidata": "Q668687", "collection_times": "Mo-Fr 16:30; Sa 12:00", "name": "USPS COLLECTION BOX - PO LOBBY", "note": "ON 12/24 AND 12/31, THIS BOX MAY BE COLLECTED AS EARLY AS 12 NOON.", "nsi_id": "unitedstatespostalservice-a77078", "operator": "United States Postal Service", "operator:short": "USPS", "operator:type": "public", "operator:wikidata": "Q668687", "ref": "0872100013"}, "type": "Feature"}
{"dataset_attributes": {"@spider": "usps_collection_boxes", "spider:collection_time": "2023-11-25T08:23:32.202811"}, "geometry": {"coordinates": [-74.192966, 39.939954], "type": "Point"}, "id": "rO1WBqK380VkOts8JTO3DRPL4aI=", "properties": {"@spider": "usps_collection_boxes", "addr:city": "BEACHWOOD", "addr:country": "US", "addr:full": "74 LOCKER ST", "addr:postcode": "08722", "addr:state": "NJ", "amenity": "post_box", "brand": "United States Postal Service", "brand:wikidata": "Q668687", "collection_times": "Mo-Fr 16:30; Sa 12:15", "name": "USPS COLLECTION BOX - BLUE BOX", "note": "ON 12/24 AND 12/31, THIS BOX MAY BE COLLECTED AS EARLY AS 12 NOON.", "nsi_id": "unitedstatespostalservice-a77078", "operator": "United States Postal Service", "operator:short": "USPS", "operator:type": "public", "operator:wikidata": "Q668687", "ref": "0872200001"}, "type": "Feature"}
{"dataset_attributes": {"@spider": "usps_collection_boxes", "spider:collection_time": "2023-11-25T08:23:32.202811"}, "geometry": {"coordinates": [-74.2073186, 39.917078], "type": "Point"}, "id": "wlrhguWMWIxdZKQc4DAI9BTK2Ik=", "properties": {"@spider": "usps_collection_boxes", "addr:city": "BEACHWOOD", "addr:country": "US", "addr:full": "1600 PINEWALD RD", "addr:postcode": "08722", "addr:state": "NJ", "amenity": "post_box", "brand": "United States Postal Service", "brand:wikidata": "Q668687", "collection_times": "Mo-Sa 09:30", "name": "USPS COLLECTION BOX - BLUE BOX", "nsi_id": "unitedstatespostalservice-a77078", "operator": "United States Postal Service", "operator:short": "USPS", "operator:type": "public", "operator:wikidata": "Q668687", "ref": "0872200006"}, "type": "Feature"}
{"dataset_attributes": {"@spider": "usps_collection_boxes", "spider:collection_time": "2023-11-25T08:23:32.202811"}, "geometry": {"coordinates": [-74.193079, 39.939991], "type": "Point"}, "id": "avBXBSgZo7x-4m_9eUkAYzwHOTw=", "properties": {"@spider": "usps_collection_boxes", "addr:city": "BEACHWOOD", "addr:country": "US", "addr:full": "74 LOCKER ST", "addr:postcode": "08722", "addr:state": "NJ", "amenity": "post_box", "brand": "United States Postal Service", "brand:wikidata": "Q668687", "collection_times": "Mo-Fr 16:30; Sa 12:15", "name": "USPS COLLECTION BOX - PO LOBBY", "note": "ON 12/24 AND 12/31, THIS BOX MAY BE COLLECTED AS EARLY AS 12 NOON.", "nsi_id": "unitedstatespostalservice-a77078", "operator": "United States Postal Service", "operator:short": "USPS", "operator:type": "public", "operator:wikidata": "Q668687", "ref": "0872200007"}, "type": "Feature"}
{"dataset_attributes": {"@spider": "usps_collection_boxes", "spider:collection_time": "2023-11-25T08:23:32.202811"}, "geometry": {"coordinates": [-74.192805907, 39.939853337], "type": "Point"}, "id": "td79To5Ny05U4rV5WiFhmbuiEck=", "properties": {"@spider": "usps_collection_boxes", "addr:city": "BEACHWOOD", "addr:country": "US", "addr:full": "74 LOCKER ST", "addr:postcode": "08722", "addr:state": "NJ", "amenity": "post_box", "brand": "United States Postal Service", "brand:wikidata": "Q668687", "collection_times": "Mo-Fr 16:30; Sa 12:15", "name": "USPS COLLECTION BOX - PO LOBBY", "note": "ON 12/24 AND 12/31, THIS BOX MAY BE COLLECTED AS EARLY AS 12 NOON.", "nsi_id": "unitedstatespostalservice-a77078", "operator": "United States Postal Service", "operator:short": "USPS", "operator:type": "public", "operator:wikidata": "Q668687", "ref": "0872200011"}, "type": "Feature"}
{"dataset_attributes": {"@spider": "usps_collection_boxes", "spider:collection_time": "2023-11-25T08:23:32.202811"}, "geometry": {"coordinates": [-74.1452783, 40.065133], "type": "Point"}, "id": "lxNjO19ubkOwuxgydIb0EK6VfBA=", "properties": {"@spider": "usps_collection_boxes", "addr:city": "BRICK", "addr:country": "US", "addr:full": "160 CHAMBERSBRIDGE RD", "addr:postcode": "08723", "addr:state": "NJ", "amenity": "post_box", "brand": "United States Postal Service", "brand:wikidata": "Q668687", "collection_times": "Mo-Fr 17:00; Sa 15:00", "name": "USPS COLLECTION BOX - BLUE BOX", "note": "ON 12/24 AND 12/31, THIS BOX MAY BE COLLECTED AS EARLY AS 12 NOON.", "nsi_id": "unitedstatespostalservice-a77078", "operator": "United States Postal Service", "operator:short": "USPS", "operator:type": "public", "operator:wikidata": "Q668687", "ref": "0872300001"}, "type": "Feature"}
{"dataset_attributes": {"@spider": "usps_collection_boxes", "spider:collection_time": "2023-11-25T08:23:32.202811"}, "geometry": {"coordinates": [-74.1452687, 40.065253], "type": "Point"}, "id": "fv3Bpgv4baRAY29wmznb98iJdUM=", "properties": {"@spider": "usps_collection_boxes", "addr:city": "BRICK", "addr:country": "US", "addr:full": "160 CHAMBERSBRIDGE RD", "addr:postcode": "08723", "addr:state": "NJ", "amenity": "post_box", "brand": "United States Postal Service", "brand:wikidata": "Q668687", "collection_times": "Mo-Fr 17:00; Sa 15:00", "name": "USPS COLLECTION BOX - BLUE BOX", "note": "ON 12/24 AND 12/31, THIS BOX MAY BE COLLECTED AS EARLY AS 12 NOON.", "nsi_id": "unitedstatespostalservice-a77078", "operator": "United States Postal Service", "operator:short": "USPS", "operator:type": "public", "operator:wikidata": "Q668687", "ref": "0872300004"}, "type": "Feature"}
{"dataset_attributes": {"@spider": "usps_collection_boxes", "spider:collection_time": "2023-11-25T08:23:32.202811"}, "geometry": {"coordinates": [-74.127925226, 40.045070357], "type": "Point"}, "id": "e4U38fmcgbRzNj0dpUpMOIov1b0=", "properties": {"@spider": "usps_collection_boxes", "addr:city": "BRICK", "addr:country": "US", "addr:full": "2532 HOOPER AVE", "addr:postcode": "08723", "addr:state": "NJ", "amenity": "post_box", "brand": "United States Postal Service", "brand:wikidata": "Q668687", "collection_times": "Mo-Fr 17:00; Sa 11:00", "name": "USPS COLLECTION BOX - BLUE BOX", "note": "ON 12/24 AND 12/31, THIS BOX MAY BE COLLECTED AS EARLY AS 12 NOON.", "nsi_id": "unitedstatespostalservice-a77078", "operator": "United States Postal Service", "operator:short": "USPS", "operator:type": "public", "operator:wikidata": "Q668687", "ref": "0872300010"}, "type": "Feature"}
{"dataset_attributes": {"@spider": "usps_collection_boxes", "spider:collection_time": "2023-11-25T08:23:32.202811"}, "geometry": {"coordinates": [-74.1283919, 40.044011], "type": "Point"}, "id": "5UBUnAvdZcYVm_s4lSc935anJnk=", "properties": {"@spider": "usps_collection_boxes", "addr:city": "BRICK", "addr:country": "US", "addr:full": "2532 HOOPER AVE", "addr:postcode": "08723", "addr:state": "NJ", "amenity": "post_box", "brand": "United States Postal Service", "brand:wikidata": "Q668687", "collection_times": "Mo-Fr 17:00; Sa 11:00", "name": "USPS COLLECTION BOX - BLUE BOX", "note": "ON 12/24 AND 12/31, THIS BOX MAY BE COLLECTED AS EARLY AS 12 NOON.", "nsi_id": "unitedstatespostalservice-a77078", "operator": "United States Postal Service", "operator:short": "USPS", "operator:type": "public", "operator:wikidata": "Q668687", "ref": "0872300011"}, "type": "Feature"}
{"dataset_attributes": {"@spider": "usps_collection_boxes", "spider:collection_time": "2023-11-25T08:23:32.202811"}, "geometry": {"coordinates": [-74.1414676, 40.047437], "type": "Point"}, "id": "devXU52Jj0tD4skl_1AUDNXnbHk=", "properties": {"@spider": "usps_collection_boxes", "addr:city": "BRICK", "addr:country": "US", "addr:full": "445 BRICK BLVD", "addr:postcode": "08723", "addr:state": "NJ", "amenity": "post_box", "brand": "United States Postal Service", "brand:wikidata": "Q668687", "collection_times": "Mo-Sa 11:00", "name": "USPS COLLECTION BOX - BLUE BOX", "nsi_id": "unitedstatespostalservice-a77078", "operator": "United States Postal Service", "operator:short": "USPS", "operator:type": "public", "operator:wikidata": "Q668687", "ref": "0872300030"}, "type": "Feature"}
{"dataset_attributes": {"@spider": "usps_collection_boxes", "spider:collection_time": "2023-11-25T08:23:32.202811"}, "geometry": {"coordinates": [-74.1434263, 40.061961], "type": "Point"}, "id": "xqAo8mBeekZFSfF_iHadXXLmteg=", "properties": {"@spider": "usps_collection_boxes", "addr:city": "BRICK", "addr:country": "US", "addr:full": "668 ROUTE 70", "addr:postcode": "08723", "addr:state": "NJ", "amenity": "post_box", "brand": "United States Postal Service", "brand:wikidata": "Q668687", "collection_times": "Mo-Sa 10:00", "name": "USPS COLLECTION BOX - BLUE BOX", "nsi_id": "unitedstatespostalservice-a77078", "operator": "United States Postal Service", "operator:short": "USPS", "operator:type": "public", "operator:wikidata": "Q668687", "ref": "0872300039"}, "type": "Feature"}
{"dataset_attributes": {"@spider": "usps_collection_boxes", "spider:collection_time": "2023-11-25T08:23:32.202811"}, "geometry": {"coordinates": [-74.1454908, 40.031921], "type": "Point"}, "id": "bJSrsDtARYfHC3ZKxhjrdQ0lIok=", "properties": {"@spider": "usps_collection_boxes", "addr:city": "BRICK", "addr:country": "US", "addr:full": "35 BEAVERSON BLVD", "addr:postcode": "08723", "addr:state": "NJ", "amenity": "post_box", "brand": "United States Postal Service", "brand:wikidata": "Q668687", "collection_times": "Mo-Sa 10:00", "name": "USPS COLLECTION BOX - BLUE BOX", "nsi_id": "unitedstatespostalservice-a77078", "operator": "United States Postal Service", "operator:short": "USPS", "operator:type": "public", "operator:wikidata": "Q668687", "ref": "0872300041"}, "type": "Feature"}
{"dataset_attributes": {"@spider": "usps_collection_boxes", "spider:collection_time": "2023-11-25T08:23:32.202811"}, "geometry": {"coordinates": [-74.142833, 40.063097], "type": "Point"}, "id": "RPwET5LChFNo5Vt8I4wrJ8WkIbQ=", "properties": {"@spider": "usps_collection_boxes", "addr:city": "BRICK", "addr:country": "US", "addr:full": "160 CHAMBERSBRIDGE RD", "addr:postcode": "08723", "addr:state": "NJ", "amenity": "post_box", "brand": "United States Postal Service", "brand:wikidata": "Q668687", "collection_times": "Mo-Fr 17:00; Sa 15:00", "name": "USPS COLLECTION BOX - PO LOBBY", "note": "ON 12/24 AND 12/31, THIS BOX MAY BE COLLECTED AS EARLY AS 12 NOON.", "nsi_id": "unitedstatespostalservice-a77078", "operator": "United States Postal Service", "operator:short": "USPS", "operator:type": "public", "operator:wikidata": "Q668687", "ref": "0872300056"}, "type": "Feature"}
{"dataset_attributes": {"@spider": "usps_collection_boxes", "spider:collection_time": "2023-11-25T08:23:32.202811"}, "geometry": {"coordinates": [-74.1285304, 40.044102], "type": "Point"}, "id": "ZsXbpEIDS5roVyrZUdBA8imXIec=", "properties": {"@spider": "usps_collection_boxes", "addr:city": "BRICK", "addr:country": "US", "addr:full": "2532 HOOPER AVE", "addr:postcode": "08723", "addr:state": "NJ", "amenity": "post_box", "brand": "United States Postal Service", "brand:wikidata": "Q668687", "collection_times": "Mo-Fr 16:00; Sa 11:00", "name": "USPS COLLECTION BOX - PO LOBBY", "note": "ON 12/24 AND 12/31, THIS BOX MAY BE COLLECTED AS EARLY AS 12 NOON.", "nsi_id": "unitedstatespostalservice-a77078", "operator": "United States Postal Service", "operator:short": "USPS", "operator:type": "public", "operator:wikidata": "Q668687", "ref": "0872300057"}, "type": "Feature"}
{"dataset_attributes": {"@spider": "usps_collection_boxes", "spider:collection_time": "2023-11-25T08:23:32.202811"}, "geometry": {"coordinates": [-74.144330177, 40.06478428], "type": "Point"}, "id": "aEpBgvvRvhjgBMRQrVqW_-_ajSc=", "properties": {"@spider": "usps_collection_boxes", "addr:city": "BRICK", "addr:country": "US", "addr:full": "160 CHAMBERS BRIDGE RD", "addr:postcode": "08723", "addr:state": "NJ", "amenity": "post_box", "brand": "United States Postal Service", "brand:wikidata": "Q668687", "collection_times": "Mo-Fr 16:30; Sa 13:00", "name": "USPS COLLECTION BOX - PO LOBBY", "note": "ON 12/24 AND 12/31, THIS BOX MAY BE COLLECTED AS EARLY AS 12 NOON.", "nsi_id": "unitedstatespostalservice-a77078", "operator": "United States Postal Service", "operator:short": "USPS", "operator:type": "public", "operator:wikidata": "Q668687", "ref": "0872300067"}, "type": "Feature"}
{"dataset_attributes": {"@spider": "usps_collection_boxes", "spider:collection_time": "2023-11-25T08:23:32.202811"}, "geometry": {"coordinates": [-74.1279252263, 40.0450703566], "type": "Point"}, "id": "sHtxOZVMh7hq4njAQp-kwK_E550=", "properties": {"@spider": "usps_collection_boxes", "addr:city": "BRICK", "addr:country": "US", "addr:full": "2532 HOOPER AVE", "addr:postcode": "08723", "addr:state": "NJ", "amenity": "post_box", "brand": "United States Postal Service", "brand:wikidata": "Q668687", "collection_times": "Mo-Fr 16:00; Sa 12:00", "name": "USPS COLLECTION BOX - PO LOBBY", "note": "ON 12/24 AND 12/31, THIS BOX MAY BE COLLECTED AS EARLY AS 12 NOON.", "nsi_id": "unitedstatespostalservice-a77078", "operator": "United States Postal Service", "operator:short": "USPS", "operator:type": "public", "operator:wikidata": "Q668687", "ref": "0872300068"}, "type": "Feature"}
{"dataset_attributes": {"@spider": "usps_collection_boxes", "spider:collection_time": "2023-11-25T08:23:32.202811"}, "geometry": {"coordinates": [-74.1187378, 40.074484], "type": "Point"}, "id": "YbFTZd5Ck4nIngUAyGjA7vNdV_k=", "properties": {"@spider": "usps_collection_boxes", "addr:city": "BRICK", "addr:country": "US", "addr:full": "1930 STATE ROUTE 88", "addr:postcode": "08724", "addr:state": "NJ", "amenity": "post_box", "brand": "United States Postal Service", "brand:wikidata": "Q668687", "collection_times": "Mo-Sa 11:00", "name": "USPS COLLECTION BOX - BLUE BOX", "nsi_id": "unitedstatespostalservice-a77078", "operator": "United States Postal Service", "operator:short": "USPS", "operator:type": "public", "operator:wikidata": "Q668687", "ref": "0872400001"}, "type": "Feature"}
{"dataset_attributes": {"@spider": "usps_collection_boxes", "spider:collection_time": "2023-11-25T08:23:32.202811"}, "geometry": {"coordinates": [-74.1381239, 40.0981], "type": "Point"}, "id": "n8uE-Mg-wHsskt7zb42gsvlabkY=", "properties": {"@spider": "usps_collection_boxes", "addr:city": "BRICK", "addr:country": "US", "addr:full": "1820 LANES MILL RD", "addr:postcode": "08724", "addr:state": "NJ", "amenity": "post_box", "brand": "United States Postal Service", "brand:wikidata": "Q668687", "collection_times": "Mo-Sa 10:00", "name": "USPS COLLECTION BOX - BLUE BOX", "nsi_id": "unitedstatespostalservice-a77078", "operator": "United States Postal Service", "operator:short": "USPS", "operator:type": "public", "operator:wikidata": "Q668687", "ref": "0872400002"}, "type": "Feature"}
{"dataset_attributes": {"@spider": "usps_collection_boxes", "spider:collection_time": "2023-11-25T08:23:32.202811"}, "geometry": {"coordinates": [-74.1034486, 40.076318], "type": "Point"}, "id": "b9-w8jDW60dyNEp8u6EIMtxY_YE=", "properties": {"@spider": "usps_collection_boxes", "addr:city": "BRICK", "addr:country": "US", "addr:full": "2108 STATE ROUTE 88", "addr:postcode": "08724", "addr:state": "NJ", "amenity": "post_box", "brand": "United States Postal Service", "brand:wikidata": "Q668687", "collection_times": "Mo-Sa 11:00", "name": "USPS COLLECTION BOX - BLUE BOX", "nsi_id": "unitedstatespostalservice-a77078", "operator": "United States Postal Service", "operator:short": "USPS", "operator:type": "public", "operator:wikidata": "Q668687", "ref": "0872400003"}, "type": "Feature"}
{"dataset_attributes": {"@spider": "usps_collection_boxes", "spider:collection_time": "2023-11-25T08:23:32.202811"}, "geometry": {"coordinates": [-74.1367933, 40.091557], "type": "Point"}, "id": "zGLH51iJYUoN4Pdwaw8hL9cVNrw=", "properties": {"@spider": "usps_collection_boxes", "addr:city": "BRICK", "addr:country": "US", "addr:full": "1 DARLEY CIR", "addr:postcode": "08724", "addr:state": "NJ", "amenity": "post_box", "brand": "United States Postal Service", "brand:wikidata": "Q668687", "collection_times": "Mo-Sa 10:00", "name": "USPS COLLECTION BOX - BLUE BOX", "nsi_id": "unitedstatespostalservice-a77078", "operator": "United States Postal Service", "operator:short": "USPS", "operator:type": "public", "operator:wikidata": "Q668687", "ref": "0872400004"}, "type": "Feature"}
{"dataset_attributes": {"@spider": "usps_collection_boxes", "spider:collection_time": "2023-11-25T08:23:32.202811"}, "geometry": {"coordinates": [-74.1306417, 40.077413], "type": "Point"}, "id": "QMifkLFExGDx3UqJD0e76ZWNHek=", "properties": {"@spider": "usps_collection_boxes", "addr:city": "BRICK", "addr:country": "US", "addr:full": "425 JACK MARTIN BLVD", "addr:postcode": "08724", "addr:state": "NJ", "amenity": "post_box", "brand": "United States Postal Service", "brand:wikidata": "Q668687", "collection_times": "Mo-Sa 11:00", "name": "USPS COLLECTION BOX - BLUE BOX", "nsi_id": "unitedstatespostalservice-a77078", "operator": "United States Postal Service", "operator:short": "USPS", "operator:type": "public", "operator:wikidata": "Q668687", "ref": "0872400005"}, "type": "Feature"}
{"dataset_attributes": {"@spider": "usps_collection_boxes", "spider:collection_time": "2023-11-25T08:23:32.202811"}, "geometry": {"coordinates": [-74.1428241, 40.080931], "type": "Point"}, "id": "Xv_4-qybcfV5Rc6sKWLyJh9i5gc=", "properties": {"@spider": "usps_collection_boxes", "addr:city": "BRICK", "addr:country": "US", "addr:full": "1523 STATE ROUTE 88", "addr:postcode": "08724", "addr:state": "NJ", "amenity": "post_box", "brand": "United States Postal Service", "brand:wikidata": "Q668687", "collection_times": "Mo-Sa 11:00", "name": "USPS COLLECTION BOX - BLUE BOX", "nsi_id": "unitedstatespostalservice-a77078", "operator": "United States Postal Service", "operator:short": "USPS", "operator:type": "public", "operator:wikidata": "Q668687", "ref": "0872400006"}, "type": "Feature"}
{"dataset_attributes": {"@spider": "usps_collection_boxes", "spider:collection_time": "2023-11-25T08:23:32.202811"}, "geometry": {"coordinates": [-74.1448089, 40.095521], "type": "Point"}, "id": "asw9g8kWAEHkqDioYGVx1BnpCVU=", "properties": {"@spider": "usps_collection_boxes", "addr:city": "BRICK", "addr:country": "US", "addr:full": "34 LANES MILL RD", "addr:postcode": "08724", "addr:state": "NJ", "amenity": "post_box", "brand": "United States Postal Service", "brand:wikidata": "Q668687", "collection_times": "Mo-Sa 10:00", "name": "USPS COLLECTION BOX - BLUE BOX", "nsi_id": "unitedstatespostalservice-a77078", "operator": "United States Postal Service", "operator:short": "USPS", "operator:type": "public", "operator:wikidata": "Q668687", "ref": "0872400007"}, "type": "Feature"}
{"dataset_attributes": {"@spider": "usps_collection_boxes", "spider:collection_time": "2023-11-25T08:23:32.202811"}, "geometry": {"coordinates": [-74.1431724, 40.10495], "type": "Point"}, "id": "pSrM0EQdZktuCFM5wmMNNrhQ5xQ=", "properties": {"@spider": "usps_collection_boxes", "addr:city": "BRICK", "addr:country": "US", "addr:full": "1288 ELENA CT", "addr:postcode": "08724", "addr:state": "NJ", "amenity": "post_box", "brand": "United States Postal Service", "brand:wikidata": "Q668687", "collection_times": "Mo-Sa 11:00", "name": "USPS COLLECTION BOX - BLUE BOX", "nsi_id": "unitedstatespostalservice-a77078", "operator": "United States Postal Service", "operator:short": "USPS", "operator:type": "public", "operator:wikidata": "Q668687", "ref": "0872400008"}, "type": "Feature"}
{"dataset_attributes": {"@spider": "usps_collection_boxes", "spider:collection_time": "2023-11-25T08:23:32.202811"}, "geometry": {"coordinates": [-74.0581638, 40.107583], "type": "Point"}, "id": "XmcwWEglxgzFAfK8ApREB8Y8kjs=", "properties": {"@spider": "usps_collection_boxes", "addr:city": "BRIELLE", "addr:country": "US", "addr:full": "602 HIGGINS AVE", "addr:postcode": "08730", "addr:state": "NJ", "amenity": "post_box", "brand": "United States Postal Service", "brand:wikidata": "Q668687", "collection_times": "Mo-Sa 09:30", "name": "USPS COLLECTION BOX - BLUE BOX", "nsi_id": "unitedstatespostalservice-a77078", "operator": "United States Postal Service", "operator:short": "USPS", "operator:type": "public", "operator:wikidata": "Q668687", "ref": "0873000004"}, "type": "Feature"}
{"dataset_attributes": {"@spider": "usps_collection_boxes", "spider:collection_time": "2023-11-25T08:23:32.202811"}, "geometry": {"coordinates": [-74.05159, 40.122337], "type": "Point"}, "id": "_aO5axu-PofedoR4cgaGSSTyzjo=", "properties": {"@spider": "usps_collection_boxes", "addr:city": "BRIELLE", "addr:country": "US", "addr:full": "412 HIGGINS AVE", "addr:postcode": "08730", "addr:state": "NJ", "amenity": "post_box", "brand": "United States Postal Service", "brand:wikidata": "Q668687", "collection_times": "Mo-Fr 17:00; Sa 12:00", "name": "USPS COLLECTION BOX - BLUE BOX", "note": "ON 12/24 AND 12/31, THIS BOX MAY BE COLLECTED AS EARLY AS 12 NOON.", "nsi_id": "unitedstatespostalservice-a77078", "operator": "United States Postal Service", "operator:short": "USPS", "operator:type": "public", "operator:wikidata": "Q668687", "ref": "0873000007"}, "type": "Feature"}
{"dataset_attributes": {"@spider": "usps_collection_boxes", "spider:collection_time": "2023-11-25T08:23:32.202811"}, "geometry": {"coordinates": [-74.058185, 40.111075], "type": "Point"}, "id": "sohp7DkQ0NPFo3URoQns3pwQhXY=", "properties": {"@spider": "usps_collection_boxes", "addr:city": "BRIELLE", "addr:country": "US", "addr:full": "412 HIGGINS AVE", "addr:postcode": "08730", "addr:state": "NJ", "amenity": "post_box", "brand": "United States Postal Service", "brand:wikidata": "Q668687", "collection_times": "Mo-Fr 17:00; Sa 12:00", "name": "USPS COLLECTION BOX - BLUE BOX", "note": "ON 12/24 AND 12/31, THIS BOX MAY BE COLLECTED AS EARLY AS 12 NOON.", "nsi_id": "unitedstatespostalservice-a77078", "operator": "United States Postal Service", "operator:short": "USPS", "operator:type": "public", "operator:wikidata": "Q668687", "ref": "0873000008"}, "type": "Feature"}
{"dataset_attributes": {"@spider": "usps_collection_boxes", "spider:collection_time": "2023-11-25T08:23:32.202811"}, "geometry": {"coordinates": [-74.05159, 40.122337], "type": "Point"}, "id": "nl7p3uPF0jrStgv2VgwUU9TNX-8=", "properties": {"@spider": "usps_collection_boxes", "addr:city": "BRIELLE", "addr:country": "US", "addr:full": "412 HIGGINS AVE", "addr:postcode": "08730", "addr:state": "NJ", "amenity": "post_box", "brand": "United States Postal Service", "brand:wikidata": "Q668687", "collection_times": "Mo-Fr 17:00; Sa 12:00", "name": "USPS COLLECTION BOX - PO LOBBY", "note": "ON 12/24 AND 12/31, THIS BOX MAY BE COLLECTED AS EARLY AS 12 NOON.", "nsi_id": "unitedstatespostalservice-a77078", "operator": "United States Postal Service", "operator:short": "USPS", "operator:type": "public", "operator:wikidata": "Q668687", "ref": "0873000009"}, "type": "Feature"}
{"dataset_attributes": {"@spider": "usps_collection_boxes", "spider:collection_time": "2023-11-25T08:23:32.202811"}, "geometry": {"coordinates": [-74.057115921, 40.106797636], "type": "Point"}, "id": "aQVSGvU0uT-4PX8Q6C-o1Z3T_Q4=", "properties": {"@spider": "usps_collection_boxes", "addr:city": "BRIELLE", "addr:country": "US", "addr:full": "412 HIGGINS AVE", "addr:postcode": "08730", "addr:state": "NJ", "amenity": "post_box", "brand": "United States Postal Service", "brand:wikidata": "Q668687", "collection_times": "Mo-Fr 16:30; Sa 12:00", "name": "USPS COLLECTION BOX - PO LOBBY", "note": "ON 12/24 AND 12/31, THIS BOX MAY BE COLLECTED AS EARLY AS 12 NOON.", "nsi_id": "unitedstatespostalservice-a77078", "operator": "United States Postal Service", "operator:short": "USPS", "operator:type": "public", "operator:wikidata": "Q668687", "ref": "0873000012"}, "type": "Feature"}
{"dataset_attributes": {"@spider": "usps_collection_boxes", "spider:collection_time": "2023-11-25T08:23:32.202811"}, "geometry": {"coordinates": [-74.2087393, 39.860405], "type": "Point"}, "id": "FR16iX9SFZUiK7wWrDa8k8uuzDA=", "properties": {"@spider": "usps_collection_boxes", "addr:city": "FORKED RIVER", "addr:country": "US", "addr:full": "818 LACEY RD", "addr:postcode": "08731", "addr:state": "NJ", "amenity": "post_box", "brand": "United States Postal Service", "brand:wikidata": "Q668687", "collection_times": "Mo-Sa 11:00", "name": "USPS COLLECTION BOX - BLUE BOX", "nsi_id": "unitedstatespostalservice-a77078", "operator": "United States Postal Service", "operator:short": "USPS", "operator:type": "public", "operator:wikidata": "Q668687", "ref": "0873100005"}, "type": "Feature"}
{"dataset_attributes": {"@spider": "usps_collection_boxes", "spider:collection_time": "2023-11-25T08:23:32.202811"}, "geometry": {"coordinates": [-74.201031, 39.853849], "type": "Point"}, "id": "A8NQu5Dt_FzURSEKDwZsYoy-3ls=", "properties": {"@spider": "usps_collection_boxes", "addr:city": "FORKED RIVER", "addr:country": "US", "addr:full": "610 LACEY RD", "addr:postcode": "08731", "addr:state": "NJ", "amenity": "post_box", "brand": "United States Postal Service", "brand:wikidata": "Q668687", "collection_times": "Mo-Fr 17:00; Sa 15:00", "name": "USPS COLLECTION BOX - PO LOBBY", "note": "ON 12/24 AND 12/31, THIS BOX MAY BE COLLECTED AS EARLY AS 12 NOON.", "nsi_id": "unitedstatespostalservice-a77078", "operator": "United States Postal Service", "operator:short": "USPS", "operator:type": "public", "operator:wikidata": "Q668687", "ref": "0873100010"}, "type": "Feature"}
{"dataset_attributes": {"@spider": "usps_collection_boxes", "spider:collection_time": "2023-11-25T08:23:32.202811"}, "geometry": {"coordinates": [-74.201202943, 39.85407553], "type": "Point"}, "id": "kg8f7Pyyc_Wmj09PRlhOuzN6RPI=", "properties": {"@spider": "usps_collection_boxes", "addr:city": "FORKED RIVER", "addr:country": "US", "addr:full": "610 LACEY RD", "addr:postcode": "08731", "addr:state": "NJ", "amenity": "post_box", "brand": "United States Postal Service", "brand:wikidata": "Q668687", "collection_times": "Mo-Fr 17:00; Sa 15:00", "name": "USPS COLLECTION BOX - BLUE BOX", "note": "ON 12/24 AND 12/31, THIS BOX MAY BE COLLECTED AS EARLY AS 12 NOON.", "nsi_id": "unitedstatespostalservice-a77078", "operator": "United States Postal Service", "operator:short": "USPS", "operator:type": "public", "operator:wikidata": "Q668687", "ref": "0873100011"}, "type": "Feature"}
{"dataset_attributes": {"@spider": "usps_collection_boxes", "spider:collection_time": "2023-11-25T08:23:32.202811"}, "geometry": {"coordinates": [-74.20117411, 39.854036554], "type": "Point"}, "id": "-DbxzkSYW-AoVC9An9Uv15gSP9s=", "properties": {"@spider": "usps_collection_boxes", "addr:city": "FORKED RIVER", "addr:country": "US", "addr:full": "610 LACEY RD", "addr:postcode": "08731", "addr:state": "NJ", "amenity": "post_box", "brand": "United States Postal Service", "brand:wikidata": "Q668687", "collection_times": "Mo-Fr 17:15; Sa 16:00", "name": "USPS COLLECTION BOX - PO LOBBY", "note": "ON 12/24 AND 12/31, THIS BOX MAY BE COLLECTED AS EARLY AS 12 NOON.", "nsi_id": "unitedstatespostalservice-a77078", "operator": "United States Postal Service", "operator:short": "USPS", "operator:type": "public", "operator:wikidata": "Q668687", "ref": "0873100015"}, "type": "Feature"}
{"dataset_attributes": {"@spider": "usps_collection_boxes", "spider:collection_time": "2023-11-25T08:23:32.202811"}, "geometry": {"coordinates": [-74.137248, 39.940805], "type": "Point"}, "id": "Hsuc5c91HK64Z9M0uAd9ZjvgLm4=", "properties": {"@spider": "usps_collection_boxes", "addr:city": "ISLAND HEIGHTS", "addr:country": "US", "addr:full": "5 WANAMAKER MUNICIPAL COMPLEX", "addr:postcode": "08732", "addr:state": "NJ", "amenity": "post_box", "brand": "United States Postal Service", "brand:wikidata": "Q668687", "collection_times": "Mo-Fr 16:00; Sa 13:00", "name": "USPS COLLECTION BOX - BLUE BOX", "note": "ON 12/24 AND 12/31, THIS BOX MAY BE COLLECTED AS EARLY AS 12 NOON.", "nsi_id": "unitedstatespostalservice-a77078", "operator": "United States Postal Service", "operator:short": "USPS", "operator:type": "public", "operator:wikidata": "Q668687", "ref": "0873200001"}, "type": "Feature"}
{"dataset_attributes": {"@spider": "usps_collection_boxes", "spider:collection_time": "2023-11-25T08:23:32.202811"}, "geometry": {"coordinates": [-74.137361, 39.940808], "type": "Point"}, "id": "n9XiVPUaOHPXKUCHI8HcOAMK9XE=", "properties": {"@spider": "usps_collection_boxes", "addr:city": "ISLAND HEIGHTS", "addr:country": "US", "addr:full": "5 WANAMAKER MUNICIPAL COMPLEX", "addr:postcode": "08732", "addr:state": "NJ", "amenity": "post_box", "brand": "United States Postal Service", "brand:wikidata": "Q668687", "collection_times": "Mo-Fr 16:15; Sa 13:00", "name": "USPS COLLECTION BOX - PO LOBBY", "note": "ON 12/24 AND 12/31, THIS BOX MAY BE COLLECTED AS EARLY AS 12 NOON.", "nsi_id": "unitedstatespostalservice-a77078", "operator": "United States Postal Service", "operator:short": "USPS", "operator:type": "public", "operator:wikidata": "Q668687", "ref": "0873200002"}, "type": "Feature"}
{"dataset_attributes": {"@spider": "usps_collection_boxes", "spider:collection_time": "2023-11-25T08:23:32.202811"}, "geometry": {"coordinates": [-74.1372778254, 39.9408481395], "type": "Point"}, "id": "jJK4F5AGqTjtKiXY589Vd2y2w_g=", "properties": {"@spider": "usps_collection_boxes", "addr:city": "ISLAND HEIGHTS", "addr:country": "US", "addr:full": "5 WANAMAKER MUNICIPAL COMPLEX", "addr:postcode": "08732", "addr:state": "NJ", "amenity": "post_box", "brand": "United States Postal Service", "brand:wikidata": "Q668687", "collection_times": "Mo-Fr 16:30; Sa 13:00", "name": "USPS COLLECTION BOX - PO LOBBY", "note": "ON 12/24 AND 12/31, THIS BOX MAY BE COLLECTED AS EARLY AS 12 NOON.", "nsi_id": "unitedstatespostalservice-a77078", "operator": "United States Postal Service", "operator:short": "USPS", "operator:type": "public", "operator:wikidata": "Q668687", "ref": "0873200005"}, "type": "Feature"}
{"dataset_attributes": {"@spider": "usps_collection_boxes", "spider:collection_time": "2023-11-25T08:23:32.202811"}, "geometry": {"coordinates": [-74.2814699, 40.006515], "type": "Point"}, "id": "j1z0VBzYroxYoLSmQsveDDkHWg8=", "properties": {"@spider": "usps_collection_boxes", "addr:city": "MANCHESTER", "addr:country": "US", "addr:full": "1000 BUCKINGHAM", "addr:postcode": "08733", "addr:state": "NJ", "amenity": "post_box", "brand": "United States Postal Service", "brand:wikidata": "Q668687", "collection_times": "Mo-Sa 11:00", "name": "USPS COLLECTION BOX - BLUE BOX", "nsi_id": "unitedstatespostalservice-a77078", "operator": "United States Postal Service", "operator:short": "USPS", "operator:type": "public", "operator:wikidata": "Q668687", "ref": "0873300001"}, "type": "Feature"}
{"dataset_attributes": {"@spider": "usps_collection_boxes", "spider:collection_time": "2023-11-25T08:23:32.202811"}, "geometry": {"coordinates": [-74.3527389, 39.945766], "type": "Point"}, "id": "28MJSr-iLOZnoWkPxZBKqFhDyOc=", "properties": {"@spider": "usps_collection_boxes", "addr:city": "MANCHESTER", "addr:country": "US", "addr:full": "550 STATE RT 530", "addr:postcode": "08733", "addr:state": "NJ", "amenity": "post_box", "brand": "United States Postal Service", "brand:wikidata": "Q668687", "collection_times": "Mo-Fr 15:00; Sa 12:00", "name": "USPS COLLECTION BOX - BLUE BOX", "note": "ON 12/24 AND 12/31, THIS BOX MAY BE COLLECTED AS EARLY AS 12 NOON.", "nsi_id": "unitedstatespostalservice-a77078", "operator": "United States Postal Service", "operator:short": "USPS", "operator:type": "public", "operator:wikidata": "Q668687", "ref": "0873300002"}, "type": "Feature"}
{"dataset_attributes": {"@spider": "usps_collection_boxes", "spider:collection_time": "2023-11-25T08:23:32.202811"}, "geometry": {"coordinates": [-74.3197524, 40.033804], "type": "Point"}, "id": "ijTso0qryoHpl2zBjRiVs4j4NXk=", "properties": {"@spider": "usps_collection_boxes", "addr:city": "MANCHESTER", "addr:country": "US", "addr:full": "38 LANSDOWNE RD", "addr:postcode": "08733", "addr:state": "NJ", "amenity": "post_box", "brand": "United States Postal Service", "brand:wikidata": "Q668687", "collection_times": "Mo-Fr 11:00; Sa 10:30", "name": "USPS COLLECTION BOX - BLUE BOX", "nsi_id": "unitedstatespostalservice-a77078", "operator": "United States Postal Service", "operator:short": "USPS", "operator:type": "public", "operator:wikidata": "Q668687", "ref": "0873300006"}, "type": "Feature"}
{"dataset_attributes": {"@spider": "usps_collection_boxes", "spider:collection_time": "2023-11-25T08:23:32.202811"}, "geometry": {"coordinates": [-74.2744494, 40.017887], "type": "Point"}, "id": "_8sCv76Jiyb-FYfR60WB56PnvO8=", "properties": {"@spider": "usps_collection_boxes", "addr:city": "MANCHESTER", "addr:country": "US", "addr:full": "3 BUCKINGHAM DR", "addr:postcode": "08733", "addr:state": "NJ", "amenity": "post_box", "brand": "United States Postal Service", "brand:wikidata": "Q668687", "collection_times": "Mo-Sa 11:00", "name": "USPS COLLECTION BOX - BLUE BOX", "nsi_id": "unitedstatespostalservice-a77078", "operator": "United States Postal Service", "operator:short": "USPS", "operator:type": "public", "operator:wikidata": "Q668687", "ref": "0873300009"}, "type": "Feature"}
{"dataset_attributes": {"@spider": "usps_collection_boxes", "spider:collection_time": "2023-11-25T08:23:32.202811"}, "geometry": {"coordinates": [-74.2681089299, 40.0241342337], "type": "Point"}, "id": "YqpU4drHVy4j7y50sw8kvs50mEc=", "properties": {"@spider": "usps_collection_boxes", "addr:city": "MANCHESTER", "addr:country": "US", "addr:full": "2100 ROUTE 70", "addr:postcode": "08733", "addr:state": "NJ", "amenity": "post_box", "brand": "United States Postal Service", "brand:wikidata": "Q668687", "collection_times": "Mo-Sa 11:00", "name": "USPS COLLECTION BOX - BLUE BOX", "nsi_id": "unitedstatespostalservice-a77078", "operator": "United States Postal Service", "operator:short": "USPS", "operator:type": "public", "operator:wikidata": "Q668687", "ref": "0873300011"}, "type": "Feature"}
{"dataset_attributes": {"@spider": "usps_collection_boxes", "spider:collection_time": "2023-11-25T08:23:32.202811"}, "geometry": {"coordinates": [-74.2963315, 40.006814], "type": "Point"}, "id": "RlsdN0KY6jAe-2DoGJoqhUv1HHg=", "properties": {"@spider": "usps_collection_boxes", "addr:city": "MANCHESTER", "addr:country": "US", "addr:full": "1 COLONIAL DR", "addr:postcode": "08733", "addr:state": "NJ", "amenity": "post_box", "brand": "United States Postal Service", "brand:wikidata": "Q668687", "collection_times": "Mo-Sa 11:00", "name": "USPS COLLECTION BOX - BLUE BOX", "nsi_id": "unitedstatespostalservice-a77078", "operator": "United States Postal Service", "operator:short": "USPS", "operator:type": "public", "operator:wikidata": "Q668687", "ref": "0873300015"}, "type": "Feature"}
{"dataset_attributes": {"@spider": "usps_collection_boxes", "spider:collection_time": "2023-11-25T08:23:32.202811"}, "geometry": {"coordinates": [-74.3571855, 39.958962], "type": "Point"}, "id": "lsqsoS3H5IOp9Xc263iF7vwQFZE=", "properties": {"@spider": "usps_collection_boxes", "addr:city": "MANCHESTER", "addr:country": "US", "addr:full": "250 SCHOOLHOUSE RD", "addr:postcode": "08733", "addr:state": "NJ", "amenity": "post_box", "brand": "United States Postal Service", "brand:wikidata": "Q668687", "collection_times": "Mo-Sa 11:00", "name": "USPS COLLECTION BOX - BLUE BOX", "nsi_id": "unitedstatespostalservice-a77078", "operator": "United States Postal Service", "operator:short": "USPS", "operator:type": "public", "operator:wikidata": "Q668687", "ref": "0873300016"}, "type": "Feature"}
{"dataset_attributes": {"@spider": "usps_collection_boxes", "spider:collection_time": "2023-11-25T08:23:32.202811"}, "geometry": {"coordinates": [-74.3326405, 39.953518], "type": "Point"}, "id": "m4qtf-UQLWennfI5KBoyR0H11D0=", "properties": {"@spider": "usps_collection_boxes", "addr:city": "MANCHESTER", "addr:country": "US", "addr:full": "6 CONGASIA ROAD RD", "addr:postcode": "08733", "addr:state": "NJ", "amenity": "post_box", "brand": "United States Postal Service", "brand:wikidata": "Q668687", "collection_times": "Mo-Sa 11:00", "name": "USPS COLLECTION BOX - BLUE BOX", "nsi_id": "unitedstatespostalservice-a77078", "operator": "United States Postal Service", "operator:short": "USPS", "operator:type": "public", "operator:wikidata": "Q668687", "ref": "0873300017"}, "type": "Feature"}
{"dataset_attributes": {"@spider": "usps_collection_boxes", "spider:collection_time": "2023-11-25T08:23:32.202811"}, "geometry": {"coordinates": [-74.3815085, 39.953336], "type": "Point"}, "id": "2zVTtv3DwmPbTY7RHdRSOSlpubo=", "properties": {"@spider": "usps_collection_boxes", "addr:city": "MANCHESTER", "addr:country": "US", "addr:full": "108 LACEY RD", "addr:postcode": "08733", "addr:state": "NJ", "amenity": "post_box", "brand": "United States Postal Service", "brand:wikidata": "Q668687", "collection_times": "Mo-Fr 16:00; Sa 12:00", "name": "USPS COLLECTION BOX - BLUE BOX", "note": "ON 12/24 AND 12/31, THIS BOX MAY BE COLLECTED AS EARLY AS 12 NOON.", "nsi_id": "unitedstatespostalservice-a77078", "operator": "United States Postal Service", "operator:short": "USPS", "operator:type": "public", "operator:wikidata": "Q668687", "ref": "0873300019"}, "type": "Feature"}
{"dataset_attributes": {"@spider": "usps_collection_boxes", "spider:collection_time": "2023-11-25T08:23:32.202811"}, "geometry": {"coordinates": [-74.3085411, 40.012206], "type": "Point"}, "id": "uPzfsZYd3jsidIVh1UdCByj8qqU=", "properties": {"@spider": "usps_collection_boxes", "addr:city": "MANCHESTER", "addr:country": "US", "addr:full": "1 BROWN AVE", "addr:postcode": "08733", "addr:state": "NJ", "amenity": "post_box", "brand": "United States Postal Service", "brand:wikidata": "Q668687", "collection_times": "Mo-Fr 16:30; Sa 15:00", "name": "USPS COLLECTION BOX - BLUE BOX", "note": "ON 12/24 AND 12/31, THIS BOX MAY BE COLLECTED AS EARLY AS 12 NOON.", "nsi_id": "unitedstatespostalservice-a77078", "operator": "United States Postal Service", "operator:short": "USPS", "operator:type": "public", "operator:wikidata": "Q668687", "ref": "0873300021"}, "type": "Feature"}
{"dataset_attributes": {"@spider": "usps_collection_boxes", "spider:collection_time": "2023-11-25T08:23:32.202811"}, "geometry": {"coordinates": [-74.3813134, 39.953545], "type": "Point"}, "id": "cVEKWB7oSV7EtXdHq5N501MOq8U=", "properties": {"@spider": "usps_collection_boxes", "addr:city": "MANCHESTER", "addr:country": "US", "addr:full": "108 LACEY RD", "addr:postcode": "08733", "addr:state": "NJ", "amenity": "post_box", "brand": "United States Postal Service", "brand:wikidata": "Q668687", "collection_times": "Mo-Fr 16:00; Sa 12:00", "name": "USPS COLLECTION BOX - BLUE BOX", "note": "ON 12/24 AND 12/31, THIS BOX MAY BE COLLECTED AS EARLY AS 12 NOON.", "nsi_id": "unitedstatespostalservice-a77078", "operator": "United States Postal Service", "operator:short": "USPS", "operator:type": "public", "operator:wikidata": "Q668687", "ref": "0873300023"}, "type": "Feature"}
{"dataset_attributes": {"@spider": "usps_collection_boxes", "spider:collection_time": "2023-11-25T08:23:32.202811"}, "geometry": {"coordinates": [-74.2987486, 40.014686], "type": "Point"}, "id": "de0OQJovQXqSjzTEFkga6Jfqy_Q=", "properties": {"@spider": "usps_collection_boxes", "addr:city": "MANCHESTER", "addr:country": "US", "addr:full": "1001 STATE ROUTE 70", "addr:postcode": "08733", "addr:state": "NJ", "amenity": "post_box", "brand": "United States Postal Service", "brand:wikidata": "Q668687", "collection_times": "Mo-Sa 10:30", "name": "USPS COLLECTION BOX - BLUE BOX", "nsi_id": "unitedstatespostalservice-a77078", "operator": "United States Postal Service", "operator:short": "USPS", "operator:type": "public", "operator:wikidata": "Q668687", "ref": "0873300024"}, "type": "Feature"}
{"dataset_attributes": {"@spider": "usps_collection_boxes", "spider:collection_time": "2023-11-25T08:23:32.202811"}, "geometry": {"coordinates": [-74.308713, 40.011949], "type": "Point"}, "id": "V1qExkUJNnFcdnMV9cHfa68HAVk=", "properties": {"@spider": "usps_collection_boxes", "addr:city": "MANCHESTER", "addr:country": "US", "addr:full": "1 BROWN AVE", "addr:postcode": "08733", "addr:state": "NJ", "amenity": "post_box", "brand": "United States Postal Service", "brand:wikidata": "Q668687", "collection_times": "Mo-Fr 16:30; Sa 15:00", "name": "USPS COLLECTION BOX - APC", "note": "ON 12/24 AND 12/31, THIS BOX MAY BE COLLECTED AS EARLY AS 12 NOON.", "nsi_id": "unitedstatespostalservice-a77078", "operator": "United States Postal Service", "operator:short": "USPS", "operator:type": "public", "operator:wikidata": "Q668687", "ref": "0873300025"}, "type": "Feature"}
{"dataset_attributes": {"@spider": "usps_collection_boxes", "spider:collection_time": "2023-11-25T08:23:32.202811"}, "geometry": {"coordinates": [-74.3086671, 40.011943], "type": "Point"}, "id": "7ov-cpA86laSwKbh_N2IUZu5Dx8=", "properties": {"@spider": "usps_collection_boxes", "addr:city": "MANCHESTER", "addr:country": "US", "addr:full": "1 BROWN AVE", "addr:postcode": "08733", "addr:state": "NJ", "amenity": "post_box", "brand": "United States Postal Service", "brand:wikidata": "Q668687", "collection_times": "Mo-Sa 16:30", "name": "USPS COLLECTION BOX - PO LOBBY", "note": "ON 12/24 AND 12/31, THIS BOX MAY BE COLLECTED AS EARLY AS 12 NOON.", "nsi_id": "unitedstatespostalservice-a77078", "operator": "United States Postal Service", "operator:short": "USPS", "operator:type": "public", "operator:wikidata": "Q668687", "ref": "0873300026"}, "type": "Feature"}
{"dataset_attributes": {"@spider": "usps_collection_boxes", "spider:collection_time": "2023-11-25T08:23:32.202811"}, "geometry": {"coordinates": [-74.4712754265, 40.0145422131], "type": "Point"}, "id": "c87Reqwdvyf091EJIt3372s2CYo=", "properties": {"@spider": "usps_collection_boxes", "addr:city": "MANCHESTER", "addr:country": "US", "addr:full": "38 LANSDOWNE RD STE 1", "addr:postcode": "08733", "addr:state": "NJ", "amenity": "post_box", "brand": "United States Postal Service", "brand:wikidata": "Q668687", "collection_times": "Mo-Fr 13:00", "name": "USPS COLLECTION BOX - PO LOBBY", "note": "ON 12/24 AND 12/31, THIS BOX MAY BE COLLECTED AS EARLY AS 12 NOON.", "nsi_id": "unitedstatespostalservice-a77078", "operator": "United States Postal Service", "operator:short": "USPS", "operator:type": "public", "operator:wikidata": "Q668687", "ref": "0873300027"}, "type": "Feature"}
{"dataset_attributes": {"@spider": "usps_collection_boxes", "spider:collection_time": "2023-11-25T08:23:32.202811"}, "geometry": {"coordinates": [-74.308218216, 40.012141143], "type": "Point"}, "id": "F9XZUD_tqOAhgn0f51vaEKL6dQk=", "properties": {"@spider": "usps_collection_boxes", "addr:city": "MANCHESTER", "addr:country": "US", "addr:full": "1 BROWN AVE", "addr:postcode": "08733", "addr:state": "NJ", "amenity": "post_box", "brand": "United States Postal Service", "brand:wikidata": "Q668687", "collection_times": "Mo-Fr 16:30; Sa 12:00", "name": "USPS COLLECTION BOX - PO LOBBY", "note": "ON 12/24 AND 12/31, THIS BOX MAY BE COLLECTED AS EARLY AS 12 NOON.", "nsi_id": "unitedstatespostalservice-a77078", "operator": "United States Postal Service", "operator:short": "USPS", "operator:type": "public", "operator:wikidata": "Q668687", "ref": "0873300032"}, "type": "Feature"}
{"dataset_attributes": {"@spider": "usps_collection_boxes", "spider:collection_time": "2023-11-25T08:23:32.202811"}, "geometry": {"coordinates": [-74.323505, 40.0136922], "type": "Point"}, "id": "to8On_HQW33RmG7pFY2IqXkZJhc=", "properties": {"@spider": "usps_collection_boxes", "addr:city": "MANCHESTER", "addr:country": "US", "addr:full": "38 LANSDOWNE RD STE 1", "addr:postcode": "08733", "addr:state": "NJ", "amenity": "post_box", "brand": "United States Postal Service", "brand:wikidata": "Q668687", "collection_times": "Mo-Fr 12:45", "name": "USPS COLLECTION BOX - PO LOBBY", "note": "ON 12/24 AND 12/31, THIS BOX MAY BE COLLECTED AS EARLY AS 12 NOON.", "nsi_id": "unitedstatespostalservice-a77078", "operator": "United States Postal Service", "operator:short": "USPS", "operator:type": "public", "operator:wikidata": "Q668687", "ref": "0873300033"}, "type": "Feature"}
{"dataset_attributes": {"@spider": "usps_collection_boxes", "spider:collection_time": "2023-11-25T08:23:32.202811"}, "geometry": {"coordinates": [-74.181866, 39.852743], "type": "Point"}, "id": "5T5s5swLbLcnbq9ITKgOCGRkwpo=", "properties": {"@spider": "usps_collection_boxes", "addr:city": "LANOKA HARBOR", "addr:country": "US", "addr:full": "402 US HIGHWAY 9", "addr:postcode": "08734", "addr:state": "NJ", "amenity": "post_box", "brand": "United States Postal Service", "brand:wikidata": "Q668687", "collection_times": "Mo-Fr 16:30; Sa 12:00", "name": "USPS COLLECTION BOX - BLUE BOX", "note": "ON 12/24 AND 12/31, THIS BOX MAY BE COLLECTED AS EARLY AS 12 NOON.", "nsi_id": "unitedstatespostalservice-a77078", "operator": "United States Postal Service", "operator:short": "USPS", "operator:type": "public", "operator:wikidata": "Q668687", "ref": "0873400001"}, "type": "Feature"}
{"dataset_attributes": {"@spider": "usps_collection_boxes", "spider:collection_time": "2023-11-25T08:23:32.202811"}, "geometry": {"coordinates": [-74.181884, 39.852655], "type": "Point"}, "id": "YlIdNNjaSMSzN68ZJuV1pazyJKQ=", "properties": {"@spider": "usps_collection_boxes", "addr:city": "LANOKA HARBOR", "addr:country": "US", "addr:full": "402 US HIGHWAY 9", "addr:postcode": "08734", "addr:state": "NJ", "amenity": "post_box", "brand": "United States Postal Service", "brand:wikidata": "Q668687", "collection_times": "Mo-Fr 16:30; Sa 12:00", "name": "USPS COLLECTION BOX - BLUE BOX", "note": "ON 12/24 AND 12/31, THIS BOX MAY BE COLLECTED AS EARLY AS 12 NOON.", "nsi_id": "unitedstatespostalservice-a77078", "operator": "United States Postal Service", "operator:short": "USPS", "operator:type": "public", "operator:wikidata": "Q668687", "ref": "0873400002"}, "type": "Feature"}
{"dataset_attributes": {"@spider": "usps_collection_boxes", "spider:collection_time": "2023-11-25T08:23:32.202811"}, "geometry": {"coordinates": [-74.181884, 39.852655], "type": "Point"}, "id": "sKmrbnHtMqKfTb8592EYjtOlOOs=", "properties": {"@spider": "usps_collection_boxes", "addr:city": "LANOKA HARBOR", "addr:country": "US", "addr:full": "402 US HIGHWAY 9", "addr:postcode": "08734", "addr:state": "NJ", "amenity": "post_box", "brand": "United States Postal Service", "brand:wikidata": "Q668687", "collection_times": "Mo-Fr 16:30; Sa 12:00", "name": "USPS COLLECTION BOX - PO LOBBY", "note": "ON 12/24 AND 12/31, THIS BOX MAY BE COLLECTED AS EARLY AS 12 NOON.", "nsi_id": "unitedstatespostalservice-a77078", "operator": "United States Postal Service", "operator:short": "USPS", "operator:type": "public", "operator:wikidata": "Q668687", "ref": "0873400003"}, "type": "Feature"}
{"dataset_attributes": {"@spider": "usps_collection_boxes", "spider:collection_time": "2023-11-25T08:23:32.202811"}, "geometry": {"coordinates": [-74.181729075, 39.85293604], "type": "Point"}, "id": "dL9nPSp0aR7xdbKlEEAKlbZWiQ4=", "properties": {"@spider": "usps_collection_boxes", "addr:city": "LANOKA HARBOR", "addr:country": "US", "addr:full": "402 US HIGHWAY 9", "addr:postcode": "08734", "addr:state": "NJ", "amenity": "post_box", "brand": "United States Postal Service", "brand:wikidata": "Q668687", "collection_times": "Mo-Fr 16:30; Sa 12:00", "name": "USPS COLLECTION BOX - PO LOBBY", "note": "ON 12/24 AND 12/31, THIS BOX MAY BE COLLECTED AS EARLY AS 12 NOON.", "nsi_id": "unitedstatespostalservice-a77078", "operator": "United States Postal Service", "operator:short": "USPS", "operator:type": "public", "operator:wikidata": "Q668687", "ref": "0873400007"}, "type": "Feature"}
{"dataset_attributes": {"@spider": "usps_collection_boxes", "spider:collection_time": "2023-11-25T08:23:32.202811"}, "geometry": {"coordinates": [-74.0767114, 39.967545], "type": "Point"}, "id": "LjLsA47Ak6-bXCeU2pYCBkWiL5s=", "properties": {"@spider": "usps_collection_boxes", "addr:city": "LAVALLETTE", "addr:country": "US", "addr:full": "10 PERSHING BLVD", "addr:postcode": "08735", "addr:state": "NJ", "amenity": "post_box", "brand": "United States Postal Service", "brand:wikidata": "Q668687", "collection_times": "Mo-Sa 11:00", "name": "USPS COLLECTION BOX - BLUE BOX", "nsi_id": "unitedstatespostalservice-a77078", "operator": "United States Postal Service", "operator:short": "USPS", "operator:type": "public", "operator:wikidata": "Q668687", "ref": "0873500002"}, "type": "Feature"}
{"dataset_attributes": {"@spider": "usps_collection_boxes", "spider:collection_time": "2023-11-25T08:23:32.202811"}, "geometry": {"coordinates": [-74.065449, 39.986434], "type": "Point"}, "id": "Nws5xWBSz_hyZEu5ko8PD3enHsQ=", "properties": {"@spider": "usps_collection_boxes", "addr:city": "LAVALLETTE", "addr:country": "US", "addr:full": "1302 GRAND CENTRAL AVE", "addr:postcode": "08735", "addr:state": "NJ", "amenity": "post_box", "brand": "United States Postal Service", "brand:wikidata": "Q668687", "collection_times": "Mo-Fr 16:00; Sa 12:00", "name": "USPS COLLECTION BOX - BLUE BOX", "note": "ON 12/24 AND 12/31, THIS BOX MAY BE COLLECTED AS EARLY AS 12 NOON.", "nsi_id": "unitedstatespostalservice-a77078", "operator": "United States Postal Service", "operator:short": "USPS", "operator:type": "public", "operator:wikidata": "Q668687", "ref": "0873500014"}, "type": "Feature"}
{"dataset_attributes": {"@spider": "usps_collection_boxes", "spider:collection_time": "2023-11-25T08:23:32.202811"}, "geometry": {"coordinates": [-74.0686291, 39.973287], "type": "Point"}, "id": "579ZyvT1qGXJYyMxum7W0YZ1V8o=", "properties": {"@spider": "usps_collection_boxes", "addr:city": "LAVALLETTE", "addr:country": "US", "addr:full": "702 GRAND CENTRAL AVE", "addr:postcode": "08735", "addr:state": "NJ", "amenity": "post_box", "brand": "United States Postal Service", "brand:wikidata": "Q668687", "collection_times": "Mo-Sa 11:00", "name": "USPS COLLECTION BOX - BLUE BOX", "nsi_id": "unitedstatespostalservice-a77078", "operator": "United States Postal Service", "operator:short": "USPS", "operator:type": "public", "operator:wikidata": "Q668687", "ref": "0873500015"}, "type": "Feature"}
{"dataset_attributes": {"@spider": "usps_collection_boxes", "spider:collection_time": "2023-11-25T08:23:32.202811"}, "geometry": {"coordinates": [-74.0722735, 39.963779], "type": "Point"}, "id": "tjfuhrvWXnGs7uNNmwRRyVDKMQE=", "properties": {"@spider": "usps_collection_boxes", "addr:city": "LAVALLETTE", "addr:country": "US", "addr:full": "112 JERSEY CITY AVE", "addr:postcode": "08735", "addr:state": "NJ", "amenity": "post_box", "brand": "United States Postal Service", "brand:wikidata": "Q668687", "collection_times": "Mo-Sa 11:00", "name": "USPS COLLECTION BOX - BLUE BOX", "nsi_id": "unitedstatespostalservice-a77078", "operator": "United States Postal Service", "operator:short": "USPS", "operator:type": "public", "operator:wikidata": "Q668687", "ref": "0873500023"}, "type": "Feature"}
{"dataset_attributes": {"@spider": "usps_collection_boxes", "spider:collection_time": "2023-11-25T08:23:32.202811"}, "geometry": {"coordinates": [-74.065439, 39.986344], "type": "Point"}, "id": "zAfLTSQG052hBxYVqKauPC0gEZs=", "properties": {"@spider": "usps_collection_boxes", "addr:city": "LAVALLETTE", "addr:country": "US", "addr:full": "1302 GRAND CENTRAL AVE", "addr:postcode": "08735", "addr:state": "NJ", "amenity": "post_box", "brand": "United States Postal Service", "brand:wikidata": "Q668687", "collection_times": "Mo-Fr 16:00; Sa 12:00", "name": "USPS COLLECTION BOX - PO LOBBY", "note": "ON 12/24 AND 12/31, THIS BOX MAY BE COLLECTED AS EARLY AS 12 NOON.", "nsi_id": "unitedstatespostalservice-a77078", "operator": "United States Postal Service", "operator:short": "USPS", "operator:type": "public", "operator:wikidata": "Q668687", "ref": "0873500024"}, "type": "Feature"}
{"dataset_attributes": {"@spider": "usps_collection_boxes", "spider:collection_time": "2023-11-25T08:23:32.202811"}, "geometry": {"coordinates": [-74.069262698, 39.968759947], "type": "Point"}, "id": "OOKuYug6YsrkEi4AfX1vD7YEvVY=", "properties": {"@spider": "usps_collection_boxes", "addr:city": "LAVALLETTE", "addr:country": "US", "addr:full": "1302 GRAND CENTRAL AVE", "addr:postcode": "08735", "addr:state": "NJ", "amenity": "post_box", "brand": "United States Postal Service", "brand:wikidata": "Q668687", "collection_times": "Mo-Fr 15:45; Sa 11:45", "name": "USPS COLLECTION BOX - PO LOBBY", "note": "ON 12/24 AND 12/31, THIS BOX MAY BE COLLECTED AS EARLY AS 12 NOON.", "nsi_id": "unitedstatespostalservice-a77078", "operator": "United States Postal Service", "operator:short": "USPS", "operator:type": "public", "operator:wikidata": "Q668687", "ref": "0873500027"}, "type": "Feature"}
{"dataset_attributes": {"@spider": "usps_collection_boxes", "spider:collection_time": "2023-11-25T08:23:32.202811"}, "geometry": {"coordinates": [-74.051654, 40.12385], "type": "Point"}, "id": "6NHo883pivg40WWkThoxg1km-_w=", "properties": {"@spider": "usps_collection_boxes", "addr:city": "MANASQUAN", "addr:country": "US", "addr:full": "107 MAIN ST", "addr:postcode": "08736", "addr:state": "NJ", "amenity": "post_box", "brand": "United States Postal Service", "brand:wikidata": "Q668687", "collection_times": "Mo-Sa 11:00", "name": "USPS COLLECTION BOX - BLUE BOX", "nsi_id": "unitedstatespostalservice-a77078", "operator": "United States Postal Service", "operator:short": "USPS", "operator:type": "public", "operator:wikidata": "Q668687", "ref": "0873600003"}, "type": "Feature"}
{"dataset_attributes": {"@spider": "usps_collection_boxes", "spider:collection_time": "2023-11-25T08:23:32.202811"}, "geometry": {"coordinates": [-74.0719646, 40.121114], "type": "Point"}, "id": "VmEQXvX_snIxhGgTZLXgDw606-w=", "properties": {"@spider": "usps_collection_boxes", "addr:city": "MANASQUAN", "addr:country": "US", "addr:full": "2517 STATE ROUTE 35", "addr:postcode": "08736", "addr:state": "NJ", "amenity": "post_box", "brand": "United States Postal Service", "brand:wikidata": "Q668687", "collection_times": "Mo-Sa 10:45", "name": "USPS COLLECTION BOX - BLUE BOX", "nsi_id": "unitedstatespostalservice-a77078", "operator": "United States Postal Service", "operator:short": "USPS", "operator:type": "public", "operator:wikidata": "Q668687", "ref": "0873600004"}, "type": "Feature"}
{"dataset_attributes": {"@spider": "usps_collection_boxes", "spider:collection_time": "2023-11-25T08:23:32.202811"}, "geometry": {"coordinates": [-74.0719533, 40.1211], "type": "Point"}, "id": "eNGElYdhanCvTfeOomaYJdbpSDE=", "properties": {"@spider": "usps_collection_boxes", "addr:city": "MANASQUAN", "addr:country": "US", "addr:full": "2517 STATE ROUTE 35", "addr:postcode": "08736", "addr:state": "NJ", "amenity": "post_box", "brand": "United States Postal Service", "brand:wikidata": "Q668687", "collection_times": "Mo-Sa 10:45", "name": "USPS COLLECTION BOX - BLUE BOX", "nsi_id": "unitedstatespostalservice-a77078", "operator": "United States Postal Service", "operator:short": "USPS", "operator:type": "public", "operator:wikidata": "Q668687", "ref": "0873600005"}, "type": "Feature"}
{"dataset_attributes": {"@spider": "usps_collection_boxes", "spider:collection_time": "2023-11-25T08:23:32.202811"}, "geometry": {"coordinates": [-74.0687799, 40.122899], "type": "Point"}, "id": "TRLC9-snfptmv-7CPohQPqtaLUg=", "properties": {"@spider": "usps_collection_boxes", "addr:city": "MANASQUAN", "addr:country": "US", "addr:full": "2500 STATE ROUTE 35", "addr:postcode": "08736", "addr:state": "NJ", "amenity": "post_box", "brand": "United States Postal Service", "brand:wikidata": "Q668687", "collection_times": "Mo-Sa 11:00", "name": "USPS COLLECTION BOX - BLUE BOX", "nsi_id": "unitedstatespostalservice-a77078", "operator": "United States Postal Service", "operator:short": "USPS", "operator:type": "public", "operator:wikidata": "Q668687", "ref": "0873600014"}, "type": "Feature"}
{"dataset_attributes": {"@spider": "usps_collection_boxes", "spider:collection_time": "2023-11-25T08:23:32.202811"}, "geometry": {"coordinates": [-74.05159, 40.122337], "type": "Point"}, "id": "OQ6qWEZW1a0d_KCssTqCqp84p1k=", "properties": {"@spider": "usps_collection_boxes", "addr:city": "MANASQUAN", "addr:country": "US", "addr:full": "43 ABE VOORHEES DR", "addr:postcode": "08736", "addr:state": "NJ", "amenity": "post_box", "brand": "United States Postal Service", "brand:wikidata": "Q668687", "collection_times": "Mo-Fr 17:00; Sa 16:00", "name": "USPS COLLECTION BOX - BLUE BOX", "note": "ON 12/24 AND 12/31, THIS BOX MAY BE COLLECTED AS EARLY AS 12 NOON.", "nsi_id": "unitedstatespostalservice-a77078", "operator": "United States Postal Service", "operator:short": "USPS", "operator:type": "public", "operator:wikidata": "Q668687", "ref": "0873600018"}, "type": "Feature"}
{"dataset_attributes": {"@spider": "usps_collection_boxes", "spider:collection_time": "2023-11-25T08:23:32.202811"}, "geometry": {"coordinates": [-74.05159, 40.122337], "type": "Point"}, "id": "pjr9c7HXqzYDWtGyRzYWqxF75a8=", "properties": {"@spider": "usps_collection_boxes", "addr:city": "MANASQUAN", "addr:country": "US", "addr:full": "43 ABE VOORHEES DR", "addr:postcode": "08736", "addr:state": "NJ", "amenity": "post_box", "brand": "United States Postal Service", "brand:wikidata": "Q668687", "collection_times": "Mo-Fr 17:00; Sa 16:00", "name": "USPS COLLECTION BOX - BLUE BOX", "note": "ON 12/24 AND 12/31, THIS BOX MAY BE COLLECTED AS EARLY AS 12 NOON.", "nsi_id": "unitedstatespostalservice-a77078", "operator": "United States Postal Service", "operator:short": "USPS", "operator:type": "public", "operator:wikidata": "Q668687", "ref": "0873600019"}, "type": "Feature"}
{"dataset_attributes": {"@spider": "usps_collection_boxes", "spider:collection_time": "2023-11-25T08:23:32.202811"}, "geometry": {"coordinates": [-74.049585, 40.12289], "type": "Point"}, "id": "mIioYTXEzx0AKbRZzsu-GCUcj4s=", "properties": {"@spider": "usps_collection_boxes", "addr:city": "MANASQUAN", "addr:country": "US", "addr:full": "43 ABE VOORHEES DR", "addr:postcode": "08736", "addr:state": "NJ", "amenity": "post_box", "brand": "United States Postal Service", "brand:wikidata": "Q668687", "collection_times": "Mo-Fr 17:00; Sa 16:00", "name": "USPS COLLECTION BOX - BLUE BOX", "note": "ON 12/24 AND 12/31, THIS BOX MAY BE COLLECTED AS EARLY AS 12 NOON.", "nsi_id": "unitedstatespostalservice-a77078", "operator": "United States Postal Service", "operator:short": "USPS", "operator:type": "public", "operator:wikidata": "Q668687", "ref": "0873600020"}, "type": "Feature"}
{"dataset_attributes": {"@spider": "usps_collection_boxes", "spider:collection_time": "2023-11-25T08:23:32.202811"}, "geometry": {"coordinates": [-74.0515883207, 40.1223351399], "type": "Point"}, "id": "pPRnkeOiw-cIKBzBzX9RhDajuV4=", "properties": {"@spider": "usps_collection_boxes", "addr:city": "MANASQUAN", "addr:country": "US", "addr:full": "43 ABE VOORHEES DR", "addr:postcode": "08736", "addr:state": "NJ", "amenity": "post_box", "brand": "United States Postal Service", "brand:wikidata": "Q668687", "collection_times": "Mo-Fr 17:00; Sa 16:00", "name": "USPS COLLECTION BOX - BLUE BOX", "note": "ON 12/24 AND 12/31, THIS BOX MAY BE COLLECTED AS EARLY AS 12 NOON.", "nsi_id": "unitedstatespostalservice-a77078", "operator": "United States Postal Service", "operator:short": "USPS", "operator:type": "public", "operator:wikidata": "Q668687", "ref": "0873600021"}, "type": "Feature"}
{"dataset_attributes": {"@spider": "usps_collection_boxes", "spider:collection_time": "2023-11-25T08:23:32.202811"}, "geometry": {"coordinates": [-74.05159, 40.122337], "type": "Point"}, "id": "4ohiZBnS0j03JvZV1S2l6kD3XyQ=", "properties": {"@spider": "usps_collection_boxes", "addr:city": "MANASQUAN", "addr:country": "US", "addr:full": "43 ABE VOORHEES DR", "addr:postcode": "08736", "addr:state": "NJ", "amenity": "post_box", "brand": "United States Postal Service", "brand:wikidata": "Q668687", "collection_times": "Mo-Fr 17:00; Sa 16:00", "name": "USPS COLLECTION BOX - BLUE BOX", "note": "ON 12/24 AND 12/31, THIS BOX MAY BE COLLECTED AS EARLY AS 12 NOON.", "nsi_id": "unitedstatespostalservice-a77078", "operator": "United States Postal Service", "operator:short": "USPS", "operator:type": "public", "operator:wikidata": "Q668687", "ref": "0873600022"}, "type": "Feature"}
{"dataset_attributes": {"@spider": "usps_collection_boxes", "spider:collection_time": "2023-11-25T08:23:32.202811"}, "geometry": {"coordinates": [-74.0719654, 40.121122], "type": "Point"}, "id": "AhP9jXQIn8lcobMOySt_-tKRLjE=", "properties": {"@spider": "usps_collection_boxes", "addr:city": "MANASQUAN", "addr:country": "US", "addr:full": "2517 STATE ROUTE 35", "addr:postcode": "08736", "addr:state": "NJ", "amenity": "post_box", "brand": "United States Postal Service", "brand:wikidata": "Q668687", "collection_times": "Mo-Sa 10:45", "name": "USPS COLLECTION BOX - BLUE BOX", "nsi_id": "unitedstatespostalservice-a77078", "operator": "United States Postal Service", "operator:short": "USPS", "operator:type": "public", "operator:wikidata": "Q668687", "ref": "0873600024"}, "type": "Feature"}
{"dataset_attributes": {"@spider": "usps_collection_boxes", "spider:collection_time": "2023-11-25T08:23:32.202811"}, "geometry": {"coordinates": [-74.0735378, 40.110441], "type": "Point"}, "id": "9Hkvjc-gGHDuPgk95p6FFmfa1uY=", "properties": {"@spider": "usps_collection_boxes", "addr:city": "MANASQUAN", "addr:country": "US", "addr:full": "2640 HIGHWAY 70", "addr:postcode": "08736", "addr:state": "NJ", "amenity": "post_box", "brand": "United States Postal Service", "brand:wikidata": "Q668687", "collection_times": "Mo-Sa 11:00", "name": "USPS COLLECTION BOX - BLUE BOX", "nsi_id": "unitedstatespostalservice-a77078", "operator": "United States Postal Service", "operator:short": "USPS", "operator:type": "public", "operator:wikidata": "Q668687", "ref": "0873600027"}, "type": "Feature"}
{"dataset_attributes": {"@spider": "usps_collection_boxes", "spider:collection_time": "2023-11-25T08:23:32.202811"}, "geometry": {"coordinates": [-74.0735227, 40.110444], "type": "Point"}, "id": "EIRO8fqd4_XbjuppGjYC4-nbXEU=", "properties": {"@spider": "usps_collection_boxes", "addr:city": "MANASQUAN", "addr:country": "US", "addr:full": "2640 HIGHWAY 70", "addr:postcode": "08736", "addr:state": "NJ", "amenity": "post_box", "brand": "United States Postal Service", "brand:wikidata": "Q668687", "collection_times": "Mo-Sa 11:00", "name": "USPS COLLECTION BOX - BLUE BOX", "nsi_id": "unitedstatespostalservice-a77078", "operator": "United States Postal Service", "operator:short": "USPS", "operator:type": "public", "operator:wikidata": "Q668687", "ref": "0873600028"}, "type": "Feature"}
{"dataset_attributes": {"@spider": "usps_collection_boxes", "spider:collection_time": "2023-11-25T08:23:32.202811"}, "geometry": {"coordinates": [-74.076154984, 40.135229743], "type": "Point"}, "id": "z2zoeurvQH87Hn0eP1ROlRGshok=", "properties": {"@spider": "usps_collection_boxes", "addr:city": "MANASQUAN", "addr:country": "US", "addr:full": "1904 ATLANTIC AVE", "addr:postcode": "08736", "addr:state": "NJ", "amenity": "post_box", "brand": "United States Postal Service", "brand:wikidata": "Q668687", "collection_times": "Mo-Sa 11:00", "name": "USPS COLLECTION BOX - BLUE BOX", "nsi_id": "unitedstatespostalservice-a77078", "operator": "United States Postal Service", "operator:short": "USPS", "operator:type": "public", "operator:wikidata": "Q668687", "ref": "0873600029"}, "type": "Feature"}
{"dataset_attributes": {"@spider": "usps_collection_boxes", "spider:collection_time": "2023-11-25T08:23:32.202811"}, "geometry": {"coordinates": [-74.05159, 40.122337], "type": "Point"}, "id": "pwXT7T_TljZBmSz8q4Wo7Y1SJUs=", "properties": {"@spider": "usps_collection_boxes", "addr:city": "MANASQUAN", "addr:country": "US", "addr:full": "43 ABE VOORHEES DR", "addr:postcode": "08736", "addr:state": "NJ", "amenity": "post_box", "brand": "United States Postal Service", "brand:wikidata": "Q668687", "collection_times": "Mo-Fr 17:00; Sa 16:00", "name": "USPS COLLECTION BOX - PO LOBBY", "note": "ON 12/24 AND 12/31, THIS BOX MAY BE COLLECTED AS EARLY AS 12 NOON.", "nsi_id": "unitedstatespostalservice-a77078", "operator": "United States Postal Service", "operator:short": "USPS", "operator:type": "public", "operator:wikidata": "Q668687", "ref": "0873600032"}, "type": "Feature"}
{"dataset_attributes": {"@spider": "usps_collection_boxes", "spider:collection_time": "2023-11-25T08:23:32.202811"}, "geometry": {"coordinates": [-74.051588321, 40.12233514], "type": "Point"}, "id": "B-IDC_C7sTlU4g196FqaQKRIyjU=", "properties": {"@spider": "usps_collection_boxes", "addr:city": "MANASQUAN", "addr:country": "US", "addr:full": "43 ABE VOORHEES DR", "addr:postcode": "08736", "addr:state": "NJ", "amenity": "post_box", "brand": "United States Postal Service", "brand:wikidata": "Q668687", "collection_times": "Mo-Fr 17:00; Sa 16:00", "name": "USPS COLLECTION BOX - PO LOBBY", "note": "ON 12/24 AND 12/31, THIS BOX MAY BE COLLECTED AS EARLY AS 12 NOON.", "nsi_id": "unitedstatespostalservice-a77078", "operator": "United States Postal Service", "operator:short": "USPS", "operator:type": "public", "operator:wikidata": "Q668687", "ref": "0873600036"}, "type": "Feature"}
{"dataset_attributes": {"@spider": "usps_collection_boxes", "spider:collection_time": "2023-11-25T08:23:32.202811"}, "geometry": {"coordinates": [-74.051106, 40.036879], "type": "Point"}, "id": "3TbY8Ul7w1BzweiYq6wflwd7jKY=", "properties": {"@spider": "usps_collection_boxes", "addr:city": "MANTOLOKING", "addr:country": "US", "addr:full": "207 DOWNER AVE", "addr:postcode": "08738", "addr:state": "NJ", "amenity": "post_box", "brand": "United States Postal Service", "brand:wikidata": "Q668687", "collection_times": "Mo-Fr 16:00; Sa 12:00", "name": "USPS COLLECTION BOX - BLUE BOX", "note": "ON 12/24 AND 12/31, THIS BOX MAY BE COLLECTED AS EARLY AS 12 NOON.", "nsi_id": "unitedstatespostalservice-a77078", "operator": "United States Postal Service", "operator:short": "USPS", "operator:type": "public", "operator:wikidata": "Q668687", "ref": "0873800001"}, "type": "Feature"}
{"dataset_attributes": {"@spider": "usps_collection_boxes", "spider:collection_time": "2023-11-25T08:23:32.202811"}, "geometry": {"coordinates": [-74.050998, 40.036887], "type": "Point"}, "id": "4Z-3Kn9MASTmXb1wNk21k2Js3ms=", "properties": {"@spider": "usps_collection_boxes", "addr:city": "MANTOLOKING", "addr:country": "US", "addr:full": "207 DOWNER AVE", "addr:postcode": "08738", "addr:state": "NJ", "amenity": "post_box", "brand": "United States Postal Service", "brand:wikidata": "Q668687", "collection_times": "Mo-Fr 16:00; Sa 12:00", "name": "USPS COLLECTION BOX - PO LOBBY", "note": "ON 12/24 AND 12/31, THIS BOX MAY BE COLLECTED AS EARLY AS 12 NOON.", "nsi_id": "unitedstatespostalservice-a77078", "operator": "United States Postal Service", "operator:short": "USPS", "operator:type": "public", "operator:wikidata": "Q668687", "ref": "0873800002"}, "type": "Feature"}
{"dataset_attributes": {"@spider": "usps_collection_boxes", "spider:collection_time": "2023-11-25T08:23:32.202811"}, "geometry": {"coordinates": [-74.05206477, 40.037041729], "type": "Point"}, "id": "pRNDjZ7MgAZ08fN6HCJ8XywrjMo=", "properties": {"@spider": "usps_collection_boxes", "addr:city": "MANTOLOKING", "addr:country": "US", "addr:full": "207 DOWNER AVE", "addr:postcode": "08738", "addr:state": "NJ", "amenity": "post_box", "brand": "United States Postal Service", "brand:wikidata": "Q668687", "collection_times": "Mo-Fr 15:45; Sa 11:45", "name": "USPS COLLECTION BOX - PO LOBBY", "note": "ON 12/24 AND 12/31, THIS BOX MAY BE COLLECTED AS EARLY AS 12 NOON.", "nsi_id": "unitedstatespostalservice-a77078", "operator": "United States Postal Service", "operator:short": "USPS", "operator:type": "public", "operator:wikidata": "Q668687", "ref": "0873800005"}, "type": "Feature"}
{"dataset_attributes": {"@spider": "usps_collection_boxes", "spider:collection_time": "2023-11-25T08:23:32.202811"}, "geometry": {"coordinates": [-74.061093, 40.002295], "type": "Point"}, "id": "St-N04X8fOkAWlUATUf9pwb-85w=", "properties": {"@spider": "usps_collection_boxes", "addr:city": "NORMANDY BEACH", "addr:country": "US", "addr:full": "551 STATE ROUTE 35 N", "addr:postcode": "08739", "addr:state": "NJ", "amenity": "post_box", "brand": "United States Postal Service", "brand:wikidata": "Q668687", "collection_times": "Mo-Fr 16:00; Sa 11:00", "name": "USPS COLLECTION BOX - BLUE BOX", "note": "ON 12/24 AND 12/31, THIS BOX MAY BE COLLECTED AS EARLY AS 12 NOON.", "nsi_id": "unitedstatespostalservice-a77078", "operator": "United States Postal Service", "operator:short": "USPS", "operator:type": "public", "operator:wikidata": "Q668687", "ref": "0873900001"}, "type": "Feature"}
{"dataset_attributes": {"@spider": "usps_collection_boxes", "spider:collection_time": "2023-11-25T08:23:32.202811"}, "geometry": {"coordinates": [-74.061093, 40.002295], "type": "Point"}, "id": "ZaopshBo5GO0UupUFW37DS5sS00=", "properties": {"@spider": "usps_collection_boxes", "addr:city": "NORMANDY BEACH", "addr:country": "US", "addr:full": "551 STATE ROUTE 35 N", "addr:postcode": "08739", "addr:state": "NJ", "amenity": "post_box", "brand": "United States Postal Service", "brand:wikidata": "Q668687", "collection_times": "Mo-Fr 16:00; Sa 12:00", "name": "USPS COLLECTION BOX - PO LOBBY", "note": "ON 12/24 AND 12/31, THIS BOX MAY BE COLLECTED AS EARLY AS 12 NOON.", "nsi_id": "unitedstatespostalservice-a77078", "operator": "United States Postal Service", "operator:short": "USPS", "operator:type": "public", "operator:wikidata": "Q668687", "ref": "0873900002"}, "type": "Feature"}
{"dataset_attributes": {"@spider": "usps_collection_boxes", "spider:collection_time": "2023-11-25T08:23:32.202811"}, "geometry": {"coordinates": [-74.060935437, 40.002044018], "type": "Point"}, "id": "xd2_ktcMQsrXsJXKKRuZBHvoPaE=", "properties": {"@spider": "usps_collection_boxes", "addr:city": "NORMANDY BEACH", "addr:country": "US", "addr:full": "551 STATE ROUTE 35 N", "addr:postcode": "08739", "addr:state": "NJ", "amenity": "post_box", "brand": "United States Postal Service", "brand:wikidata": "Q668687", "collection_times": "Mo-Fr 16:00; Sa 12:00", "name": "USPS COLLECTION BOX - PO LOBBY", "note": "ON 12/24 AND 12/31, THIS BOX MAY BE COLLECTED AS EARLY AS 12 NOON.", "nsi_id": "unitedstatespostalservice-a77078", "operator": "United States Postal Service", "operator:short": "USPS", "operator:type": "public", "operator:wikidata": "Q668687", "ref": "0873900005"}, "type": "Feature"}
{"dataset_attributes": {"@spider": "usps_collection_boxes", "spider:collection_time": "2023-11-25T08:23:32.202811"}, "geometry": {"coordinates": [-74.140609, 39.926915], "type": "Point"}, "id": "DuvvP9DBI52UFFLUzfORbe54c_I=", "properties": {"@spider": "usps_collection_boxes", "addr:city": "OCEAN GATE", "addr:country": "US", "addr:full": "450 OCEAN GATE AVE", "addr:postcode": "08740", "addr:state": "NJ", "amenity": "post_box", "brand": "United States Postal Service", "brand:wikidata": "Q668687", "collection_times": "Mo-Fr 16:45; Sa 12:00", "name": "USPS COLLECTION BOX - BLUE BOX", "note": "ON 12/24 AND 12/31, THIS BOX MAY BE COLLECTED AS EARLY AS 12 NOON.", "nsi_id": "unitedstatespostalservice-a77078", "operator": "United States Postal Service", "operator:short": "USPS", "operator:type": "public", "operator:wikidata": "Q668687", "ref": "0874000001"}, "type": "Feature"}
{"dataset_attributes": {"@spider": "usps_collection_boxes", "spider:collection_time": "2023-11-25T08:23:32.202811"}, "geometry": {"coordinates": [-74.140567, 39.927003], "type": "Point"}, "id": "w55s-nmhralrOhCON6cQiAsbO68=", "properties": {"@spider": "usps_collection_boxes", "addr:city": "OCEAN GATE", "addr:country": "US", "addr:full": "450 OCEAN GATE AVE", "addr:postcode": "08740", "addr:state": "NJ", "amenity": "post_box", "brand": "United States Postal Service", "brand:wikidata": "Q668687", "collection_times": "Mo-Fr 16:45; Sa 12:00", "name": "USPS COLLECTION BOX - PO LOBBY", "note": "ON 12/24 AND 12/31, THIS BOX MAY BE COLLECTED AS EARLY AS 12 NOON.", "nsi_id": "unitedstatespostalservice-a77078", "operator": "United States Postal Service", "operator:short": "USPS", "operator:type": "public", "operator:wikidata": "Q668687", "ref": "0874000002"}, "type": "Feature"}
{"dataset_attributes": {"@spider": "usps_collection_boxes", "spider:collection_time": "2023-11-25T08:23:32.202811"}, "geometry": {"coordinates": [-74.140616711, 39.926857609], "type": "Point"}, "id": "ATCbffIPXs6yUOuLWB45XcZLUBU=", "properties": {"@spider": "usps_collection_boxes", "addr:city": "OCEAN GATE", "addr:country": "US", "addr:full": "450 OCEAN GATE AVE", "addr:postcode": "08740", "addr:state": "NJ", "amenity": "post_box", "brand": "United States Postal Service", "brand:wikidata": "Q668687", "collection_times": "Mo-Fr 16:30; Sa 12:00", "name": "USPS COLLECTION BOX - PO LOBBY", "note": "ON 12/24 AND 12/31, THIS BOX MAY BE COLLECTED AS EARLY AS 12 NOON.", "nsi_id": "unitedstatespostalservice-a77078", "operator": "United States Postal Service", "operator:short": "USPS", "operator:type": "public", "operator:wikidata": "Q668687", "ref": "0874000005"}, "type": "Feature"}
{"dataset_attributes": {"@spider": "usps_collection_boxes", "spider:collection_time": "2023-11-25T08:23:32.202811"}, "geometry": {"coordinates": [-74.169378, 39.933788], "type": "Point"}, "id": "1RflyiAqMcIJht4t1KN0IQxHLs8=", "properties": {"@spider": "usps_collection_boxes", "addr:city": "PINE BEACH", "addr:country": "US", "addr:full": "601 PENNSYLVANIA AVE", "addr:postcode": "08741", "addr:state": "NJ", "amenity": "post_box", "brand": "United States Postal Service", "brand:wikidata": "Q668687", "collection_times": "Mo-Fr 16:30; Sa 12:00", "name": "USPS COLLECTION BOX - BLUE BOX", "note": "ON 12/24 AND 12/31, THIS BOX MAY BE COLLECTED AS EARLY AS 12 NOON.", "nsi_id": "unitedstatespostalservice-a77078", "operator": "United States Postal Service", "operator:short": "USPS", "operator:type": "public", "operator:wikidata": "Q668687", "ref": "0874100001"}, "type": "Feature"}
{"dataset_attributes": {"@spider": "usps_collection_boxes", "spider:collection_time": "2023-11-25T08:23:32.202811"}, "geometry": {"coordinates": [-74.16948, 39.93384], "type": "Point"}, "id": "bGSsc-fCm4niHnU3cGFSonlszoE=", "properties": {"@spider": "usps_collection_boxes", "addr:city": "PINE BEACH", "addr:country": "US", "addr:full": "601 PENNSYLVANIA AVE", "addr:postcode": "08741", "addr:state": "NJ", "amenity": "post_box", "brand": "United States Postal Service", "brand:wikidata": "Q668687", "collection_times": "Mo-Fr 16:30; Sa 12:00", "name": "USPS COLLECTION BOX - PO LOBBY", "note": "ON 12/24 AND 12/31, THIS BOX MAY BE COLLECTED AS EARLY AS 12 NOON.", "nsi_id": "unitedstatespostalservice-a77078", "operator": "United States Postal Service", "operator:short": "USPS", "operator:type": "public", "operator:wikidata": "Q668687", "ref": "0874100005"}, "type": "Feature"}
{"dataset_attributes": {"@spider": "usps_collection_boxes", "spider:collection_time": "2023-11-25T08:23:32.202811"}, "geometry": {"coordinates": [-74.1689669069, 39.9336859403], "type": "Point"}, "id": "CLWP9b1W_B9enPd8t4_ZAwQlCfk=", "properties": {"@spider": "usps_collection_boxes", "addr:city": "PINE BEACH", "addr:country": "US", "addr:full": "601 PENNSYLVANIA AVE", "addr:postcode": "08741", "addr:state": "NJ", "amenity": "post_box", "brand": "United States Postal Service", "brand:wikidata": "Q668687", "collection_times": "Mo-Fr 16:30; Sa 12:00", "name": "USPS COLLECTION BOX - PO LOBBY", "note": "ON 12/24 AND 12/31, THIS BOX MAY BE COLLECTED AS EARLY AS 12 NOON.", "nsi_id": "unitedstatespostalservice-a77078", "operator": "United States Postal Service", "operator:short": "USPS", "operator:type": "public", "operator:wikidata": "Q668687", "ref": "0874100008"}, "type": "Feature"}
{"dataset_attributes": {"@spider": "usps_collection_boxes", "spider:collection_time": "2023-11-25T08:23:32.202811"}, "geometry": {"coordinates": [-74.0473544, 40.091854], "type": "Point"}, "id": "jIfovXmoCv4RbDUmuiuEErXe5O0=", "properties": {"@spider": "usps_collection_boxes", "addr:city": "PT PLEASANT BEAC", "addr:country": "US", "addr:full": "410 ARNOLD AVE", "addr:postcode": "08742", "addr:state": "NJ", "amenity": "post_box", "brand": "United States Postal Service", "brand:wikidata": "Q668687", "collection_times": "Mo-Fr 17:00; Sa 15:00", "name": "USPS COLLECTION BOX - BLUE BOX", "note": "ON 12/24 AND 12/31, THIS BOX MAY BE COLLECTED AS EARLY AS 12 NOON.", "nsi_id": "unitedstatespostalservice-a77078", "operator": "United States Postal Service", "operator:short": "USPS", "operator:type": "public", "operator:wikidata": "Q668687", "ref": "0874200004"}, "type": "Feature"}
{"dataset_attributes": {"@spider": "usps_collection_boxes", "spider:collection_time": "2023-11-25T08:23:32.202811"}, "geometry": {"coordinates": [-74.0463406, 40.070736], "type": "Point"}, "id": "uCfaSijuzRqolMktzFgFJDalbi4=", "properties": {"@spider": "usps_collection_boxes", "addr:city": "PT PLEASANT BEAC", "addr:country": "US", "addr:full": "82 BRIDGE AVE", "addr:postcode": "08742", "addr:state": "NJ", "amenity": "post_box", "brand": "United States Postal Service", "brand:wikidata": "Q668687", "collection_times": "Mo-Fr 16:30; Sa 12:00", "name": "USPS COLLECTION BOX - BLUE BOX", "note": "ON 12/24 AND 12/31, THIS BOX MAY BE COLLECTED AS EARLY AS 12 NOON.", "nsi_id": "unitedstatespostalservice-a77078", "operator": "United States Postal Service", "operator:short": "USPS", "operator:type": "public", "operator:wikidata": "Q668687", "ref": "0874200006"}, "type": "Feature"}
{"dataset_attributes": {"@spider": "usps_collection_boxes", "spider:collection_time": "2023-11-25T08:23:32.202811"}, "geometry": {"coordinates": [-74.0465031, 40.070222], "type": "Point"}, "id": "dKI96YAn-a5XpQEIKK69s4cWZrI=", "properties": {"@spider": "usps_collection_boxes", "addr:city": "PT PLEASANT BEAC", "addr:country": "US", "addr:full": "83 BRIDGE AVE", "addr:postcode": "08742", "addr:state": "NJ", "amenity": "post_box", "brand": "United States Postal Service", "brand:wikidata": "Q668687", "collection_times": "Mo-Fr 16:30; Sa 12:00", "name": "USPS COLLECTION BOX - BLUE BOX", "note": "ON 12/24 AND 12/31, THIS BOX MAY BE COLLECTED AS EARLY AS 12 NOON.", "nsi_id": "unitedstatespostalservice-a77078", "operator": "United States Postal Service", "operator:short": "USPS", "operator:type": "public", "operator:wikidata": "Q668687", "ref": "0874200008"}, "type": "Feature"}
{"dataset_attributes": {"@spider": "usps_collection_boxes", "spider:collection_time": "2023-11-25T08:23:32.202811"}, "geometry": {"coordinates": [-74.0685039, 40.072198], "type": "Point"}, "id": "jyTX3BeeOBGA7FBsR0xWeW3Oydw=", "properties": {"@spider": "usps_collection_boxes", "addr:city": "PT PLEASANT BEAC", "addr:country": "US", "addr:full": "2229 BRIDGE AVE", "addr:postcode": "08742", "addr:state": "NJ", "amenity": "post_box", "brand": "United States Postal Service", "brand:wikidata": "Q668687", "collection_times": "Mo-Fr 17:00; Sa 13:00", "name": "USPS COLLECTION BOX - BLUE BOX", "note": "ON 12/24 AND 12/31, THIS BOX MAY BE COLLECTED AS EARLY AS 12 NOON.", "nsi_id": "unitedstatespostalservice-a77078", "operator": "United States Postal Service", "operator:short": "USPS", "operator:type": "public", "operator:wikidata": "Q668687", "ref": "0874200010"}, "type": "Feature"}
{"dataset_attributes": {"@spider": "usps_collection_boxes", "spider:collection_time": "2023-11-25T08:23:32.202811"}, "geometry": {"coordinates": [-74.0472964, 40.087163], "type": "Point"}, "id": "481q35PAzKsXvAIWgZvnMV7_gqA=", "properties": {"@spider": "usps_collection_boxes", "addr:city": "PT PLEASANT BEAC", "addr:country": "US", "addr:full": "416 NEW JERSEY AVE", "addr:postcode": "08742", "addr:state": "NJ", "amenity": "post_box", "brand": "United States Postal Service", "brand:wikidata": "Q668687", "collection_times": "Mo-Sa 10:00", "name": "USPS COLLECTION BOX - BLUE BOX", "nsi_id": "unitedstatespostalservice-a77078", "operator": "United States Postal Service", "operator:short": "USPS", "operator:type": "public", "operator:wikidata": "Q668687", "ref": "0874200011"}, "type": "Feature"}
{"dataset_attributes": {"@spider": "usps_collection_boxes", "spider:collection_time": "2023-11-25T08:23:32.202811"}, "geometry": {"coordinates": [-74.0689683, 40.071492], "type": "Point"}, "id": "UUUtClBEeJRE4OGqxT1UnVc7i6k=", "properties": {"@spider": "usps_collection_boxes", "addr:city": "PT PLEASANT BEAC", "addr:country": "US", "addr:full": "2232 BRIDGE AVE", "addr:postcode": "08742", "addr:state": "NJ", "amenity": "post_box", "brand": "United States Postal Service", "brand:wikidata": "Q668687", "collection_times": "Mo-Fr 17:00; Sa 11:00", "name": "USPS COLLECTION BOX - BLUE BOX", "note": "ON 12/24 AND 12/31, THIS BOX MAY BE COLLECTED AS EARLY AS 12 NOON.", "nsi_id": "unitedstatespostalservice-a77078", "operator": "United States Postal Service", "operator:short": "USPS", "operator:type": "public", "operator:wikidata": "Q668687", "ref": "0874200012"}, "type": "Feature"}
{"dataset_attributes": {"@spider": "usps_collection_boxes", "spider:collection_time": "2023-11-25T08:23:32.202811"}, "geometry": {"coordinates": [-74.0520015, 40.091627], "type": "Point"}, "id": "1QJmqKnijuQMZQmW1wF4Uj-aYUI=", "properties": {"@spider": "usps_collection_boxes", "addr:city": "PT PLEASANT BEAC", "addr:country": "US", "addr:full": "701 ARNOLD AVE", "addr:postcode": "08742", "addr:state": "NJ", "amenity": "post_box", "brand": "United States Postal Service", "brand:wikidata": "Q668687", "collection_times": "Mo-Sa 11:00", "name": "USPS COLLECTION BOX - BLUE BOX", "nsi_id": "unitedstatespostalservice-a77078", "operator": "United States Postal Service", "operator:short": "USPS", "operator:type": "public", "operator:wikidata": "Q668687", "ref": "0874200013"}, "type": "Feature"}
{"dataset_attributes": {"@spider": "usps_collection_boxes", "spider:collection_time": "2023-11-25T08:23:32.202811"}, "geometry": {"coordinates": [-74.0476983, 40.092013], "type": "Point"}, "id": "hg6e87GMptBhH7vvwi_HW63bYdQ=", "properties": {"@spider": "usps_collection_boxes", "addr:city": "PT PLEASANT BEAC", "addr:country": "US", "addr:full": "415 ARNOLD AVE", "addr:postcode": "08742", "addr:state": "NJ", "amenity": "post_box", "brand": "United States Postal Service", "brand:wikidata": "Q668687", "collection_times": "Mo-Sa 09:00", "name": "USPS COLLECTION BOX - BLUE BOX", "nsi_id": "unitedstatespostalservice-a77078", "operator": "United States Postal Service", "operator:short": "USPS", "operator:type": "public", "operator:wikidata": "Q668687", "ref": "0874200014"}, "type": "Feature"}
{"dataset_attributes": {"@spider": "usps_collection_boxes", "spider:collection_time": "2023-11-25T08:23:32.202811"}, "geometry": {"coordinates": [-74.0724219, 40.072461], "type": "Point"}, "id": "iO3VVvbi9yaa9YUmUDLqu3rpb2I=", "properties": {"@spider": "usps_collection_boxes", "addr:city": "PT PLEASANT BEAC", "addr:country": "US", "addr:full": "2301 BRIDGE AVE", "addr:postcode": "08742", "addr:state": "NJ", "amenity": "post_box", "brand": "United States Postal Service", "brand:wikidata": "Q668687", "collection_times": "Mo-Sa 11:00", "name": "USPS COLLECTION BOX - BLUE BOX", "nsi_id": "unitedstatespostalservice-a77078", "operator": "United States Postal Service", "operator:short": "USPS", "operator:type": "public", "operator:wikidata": "Q668687", "ref": "0874200018"}, "type": "Feature"}
{"dataset_attributes": {"@spider": "usps_collection_boxes", "spider:collection_time": "2023-11-25T08:23:32.202811"}, "geometry": {"coordinates": [-74.0777155, 40.081621], "type": "Point"}, "id": "C6_Jfw3yUpLj-r4dRhT4C3T0byk=", "properties": {"@spider": "usps_collection_boxes", "addr:city": "PT PLEASANT BEAC", "addr:country": "US", "addr:full": "2701 LAKEWOOD RD", "addr:postcode": "08742", "addr:state": "NJ", "amenity": "post_box", "brand": "United States Postal Service", "brand:wikidata": "Q668687", "collection_times": "Mo-Sa 09:30", "name": "USPS COLLECTION BOX - BLUE BOX", "nsi_id": "unitedstatespostalservice-a77078", "operator": "United States Postal Service", "operator:short": "USPS", "operator:type": "public", "operator:wikidata": "Q668687", "ref": "0874200019"}, "type": "Feature"}
{"dataset_attributes": {"@spider": "usps_collection_boxes", "spider:collection_time": "2023-11-25T08:23:32.202811"}, "geometry": {"coordinates": [-74.0777242, 40.07367], "type": "Point"}, "id": "SGNASjn9uobl5cIAk8utuDn2AHs=", "properties": {"@spider": "usps_collection_boxes", "addr:city": "PT PLEASANT BEAC", "addr:country": "US", "addr:full": "2500 BRIDGE AVE", "addr:postcode": "08742", "addr:state": "NJ", "amenity": "post_box", "brand": "United States Postal Service", "brand:wikidata": "Q668687", "collection_times": "Mo-Sa 09:30", "name": "USPS COLLECTION BOX - BLUE BOX", "nsi_id": "unitedstatespostalservice-a77078", "operator": "United States Postal Service", "operator:short": "USPS", "operator:type": "public", "operator:wikidata": "Q668687", "ref": "0874200022"}, "type": "Feature"}
{"dataset_attributes": {"@spider": "usps_collection_boxes", "spider:collection_time": "2023-11-25T08:23:32.202811"}, "geometry": {"coordinates": [-74.0630781, 40.085513], "type": "Point"}, "id": "m_-aL9790FoqomVcGSc4vuTp7I8=", "properties": {"@spider": "usps_collection_boxes", "addr:city": "PT PLEASANT BEAC", "addr:country": "US", "addr:full": "1115 ARNOLD AVE", "addr:postcode": "08742", "addr:state": "NJ", "amenity": "post_box", "brand": "United States Postal Service", "brand:wikidata": "Q668687", "collection_times": "Mo-Sa 09:30", "name": "USPS COLLECTION BOX - BLUE BOX", "nsi_id": "unitedstatespostalservice-a77078", "operator": "United States Postal Service", "operator:short": "USPS", "operator:type": "public", "operator:wikidata": "Q668687", "ref": "0874200032"}, "type": "Feature"}
{"dataset_attributes": {"@spider": "usps_collection_boxes", "spider:collection_time": "2023-11-25T08:23:32.202811"}, "geometry": {"coordinates": [-74.0685126, 40.072211], "type": "Point"}, "id": "RNsAuPLCyk6JPg4fERPPjhRIBwo=", "properties": {"@spider": "usps_collection_boxes", "addr:city": "PT PLEASANT BEAC", "addr:country": "US", "addr:full": "2229 BRIDGE AVE", "addr:postcode": "08742", "addr:state": "NJ", "amenity": "post_box", "brand": "United States Postal Service", "brand:wikidata": "Q668687", "collection_times": "Mo-Fr 17:00; Sa 13:00", "name": "USPS COLLECTION BOX - BLUE BOX", "note": "ON 12/24 AND 12/31, THIS BOX MAY BE COLLECTED AS EARLY AS 12 NOON.", "nsi_id": "unitedstatespostalservice-a77078", "operator": "United States Postal Service", "operator:short": "USPS", "operator:type": "public", "operator:wikidata": "Q668687", "ref": "0874200039"}, "type": "Feature"}
{"dataset_attributes": {"@spider": "usps_collection_boxes", "spider:collection_time": "2023-11-25T08:23:32.202811"}, "geometry": {"coordinates": [-74.047298, 40.091912], "type": "Point"}, "id": "FAkxfx5PQ2RdhP1WKmuKmUv1DeA=", "properties": {"@spider": "usps_collection_boxes", "addr:city": "PT PLEASANT BEAC", "addr:country": "US", "addr:full": "410 ARNOLD AVE", "addr:postcode": "08742", "addr:state": "NJ", "amenity": "post_box", "brand": "United States Postal Service", "brand:wikidata": "Q668687", "collection_times": "Mo-Sa 17:00", "name": "USPS COLLECTION BOX - PO LOBBY", "note": "ON 12/24 AND 12/31, THIS BOX MAY BE COLLECTED AS EARLY AS 12 NOON.", "nsi_id": "unitedstatespostalservice-a77078", "operator": "United States Postal Service", "operator:short": "USPS", "operator:type": "public", "operator:wikidata": "Q668687", "ref": "0874200041"}, "type": "Feature"}
{"dataset_attributes": {"@spider": "usps_collection_boxes", "spider:collection_time": "2023-11-25T08:23:32.202811"}, "geometry": {"coordinates": [-74.0685635, 40.072274], "type": "Point"}, "id": "Iy5RgNZOjNBLI90wOdIPJgQpKxs=", "properties": {"@spider": "usps_collection_boxes", "addr:city": "PT PLEASANT BEAC", "addr:country": "US", "addr:full": "2229 BRIDGE AVE", "addr:postcode": "08742", "addr:state": "NJ", "amenity": "post_box", "brand": "United States Postal Service", "brand:wikidata": "Q668687", "collection_times": "Mo-Fr 17:00; Sa 16:30", "name": "USPS COLLECTION BOX - PO LOBBY", "note": "ON 12/24 AND 12/31, THIS BOX MAY BE COLLECTED AS EARLY AS 12 NOON.", "nsi_id": "unitedstatespostalservice-a77078", "operator": "United States Postal Service", "operator:short": "USPS", "operator:type": "public", "operator:wikidata": "Q668687", "ref": "0874200042"}, "type": "Feature"}
{"dataset_attributes": {"@spider": "usps_collection_boxes", "spider:collection_time": "2023-11-25T08:23:32.202811"}, "geometry": {"coordinates": [-74.0463166, 40.070821], "type": "Point"}, "id": "ODEFMdwI5LqD4oi6V2-1hotqO5w=", "properties": {"@spider": "usps_collection_boxes", "addr:city": "PT PLEASANT BEAC", "addr:country": "US", "addr:full": "82 BRIDGE AVE", "addr:postcode": "08742", "addr:state": "NJ", "amenity": "post_box", "brand": "United States Postal Service", "brand:wikidata": "Q668687", "collection_times": "Mo-Fr 16:30; Sa 12:00", "name": "USPS COLLECTION BOX - PO LOBBY", "note": "ON 12/24 AND 12/31, THIS BOX MAY BE COLLECTED AS EARLY AS 12 NOON.", "nsi_id": "unitedstatespostalservice-a77078", "operator": "United States Postal Service", "operator:short": "USPS", "operator:type": "public", "operator:wikidata": "Q668687", "ref": "0874200043"}, "type": "Feature"}
{"dataset_attributes": {"@spider": "usps_collection_boxes", "spider:collection_time": "2023-11-25T08:23:32.202811"}, "geometry": {"coordinates": [-74.046368139, 40.070728509], "type": "Point"}, "id": "YKeV-wOJiL2-Iu4o2KGJSAMg624=", "properties": {"@spider": "usps_collection_boxes", "addr:city": "PT PLEASANT BEAC", "addr:country": "US", "addr:full": "82 BRIDGE AVE STE 1", "addr:postcode": "08742", "addr:state": "NJ", "amenity": "post_box", "brand": "United States Postal Service", "brand:wikidata": "Q668687", "collection_times": "Mo-Fr 16:00; Sa 12:00", "name": "USPS COLLECTION BOX - PO LOBBY", "note": "ON 12/24 AND 12/31, THIS BOX MAY BE COLLECTED AS EARLY AS 12 NOON.", "nsi_id": "unitedstatespostalservice-a77078", "operator": "United States Postal Service", "operator:short": "USPS", "operator:type": "public", "operator:wikidata": "Q668687", "ref": "0874200051"}, "type": "Feature"}
{"dataset_attributes": {"@spider": "usps_collection_boxes", "spider:collection_time": "2023-11-25T08:23:32.202811"}, "geometry": {"coordinates": [-74.047298663, 40.091907554], "type": "Point"}, "id": "dlWo-gSBlPgLDqDq8_5PYBioUtA=", "properties": {"@spider": "usps_collection_boxes", "addr:city": "PT PLEASANT BEAC", "addr:country": "US", "addr:full": "410 ARNOLD AVE", "addr:postcode": "08742", "addr:state": "NJ", "amenity": "post_box", "brand": "United States Postal Service", "brand:wikidata": "Q668687", "collection_times": "Mo-Fr 16:30; Sa 15:45", "name": "USPS COLLECTION BOX - PO LOBBY", "note": "ON 12/24 AND 12/31, THIS BOX MAY BE COLLECTED AS EARLY AS 12 NOON.", "nsi_id": "unitedstatespostalservice-a77078", "operator": "United States Postal Service", "operator:short": "USPS", "operator:type": "public", "operator:wikidata": "Q668687", "ref": "0874200052"}, "type": "Feature"}
{"dataset_attributes": {"@spider": "usps_collection_boxes", "spider:collection_time": "2023-11-25T08:23:32.202811"}, "geometry": {"coordinates": [-74.068507237, 40.072046278], "type": "Point"}, "id": "vzeKfwSpuzrRXqVToB7SrPz-C9c=", "properties": {"@spider": "usps_collection_boxes", "addr:city": "PT PLEASANT BEAC", "addr:country": "US", "addr:full": "2229 BRIDGE AVE", "addr:postcode": "08742", "addr:state": "NJ", "amenity": "post_box", "brand": "United States Postal Service", "brand:wikidata": "Q668687", "collection_times": "Mo-Fr 17:00; Sa 16:30", "name": "USPS COLLECTION BOX - PO LOBBY", "note": "ON 12/24 AND 12/31, THIS BOX MAY BE COLLECTED AS EARLY AS 12 NOON.", "nsi_id": "unitedstatespostalservice-a77078", "operator": "United States Postal Service", "operator:short": "USPS", "operator:type": "public", "operator:wikidata": "Q668687", "ref": "0874200053"}, "type": "Feature"}
{"dataset_attributes": {"@spider": "usps_collection_boxes", "spider:collection_time": "2023-11-25T08:23:32.202811"}, "geometry": {"coordinates": [-74.0438249, 40.138886], "type": "Point"}, "id": "J9HVhPusONp6hmprGZyFKjPcYak=", "properties": {"@spider": "usps_collection_boxes", "addr:city": "SEA GIRT", "addr:country": "US", "addr:full": "2137 8TH AVE", "addr:postcode": "08750", "addr:state": "NJ", "amenity": "post_box", "brand": "United States Postal Service", "brand:wikidata": "Q668687", "collection_times": "Mo-Sa 11:00", "name": "USPS COLLECTION BOX - BLUE BOX", "nsi_id": "unitedstatespostalservice-a77078", "operator": "United States Postal Service", "operator:short": "USPS", "operator:type": "public", "operator:wikidata": "Q668687", "ref": "0875000001"}, "type": "Feature"}
{"dataset_attributes": {"@spider": "usps_collection_boxes", "spider:collection_time": "2023-11-25T08:23:32.202811"}, "geometry": {"coordinates": [-74.0404183, 40.129958], "type": "Point"}, "id": "cXbFtjUW2Zrf-dcj9MBPnp3t9Qg=", "properties": {"@spider": "usps_collection_boxes", "addr:city": "SEA GIRT", "addr:country": "US", "addr:full": "529 WASHINGTON BLVD", "addr:postcode": "08750", "addr:state": "NJ", "amenity": "post_box", "brand": "United States Postal Service", "brand:wikidata": "Q668687", "collection_times": "Mo-Sa 11:00", "name": "USPS COLLECTION BOX - BLUE BOX", "nsi_id": "unitedstatespostalservice-a77078", "operator": "United States Postal Service", "operator:short": "USPS", "operator:type": "public", "operator:wikidata": "Q668687", "ref": "0875000005"}, "type": "Feature"}
{"dataset_attributes": {"@spider": "usps_collection_boxes", "spider:collection_time": "2023-11-25T08:23:32.202811"}, "geometry": {"coordinates": [-74.0349378, 40.131275], "type": "Point"}, "id": "fxHD2eGw1yysA6fdbdApbnQB5ww=", "properties": {"@spider": "usps_collection_boxes", "addr:city": "SEA GIRT", "addr:country": "US", "addr:full": "301 BOSTON BLVD", "addr:postcode": "08750", "addr:state": "NJ", "amenity": "post_box", "brand": "United States Postal Service", "brand:wikidata": "Q668687", "collection_times": "Mo-Sa 11:00", "name": "USPS COLLECTION BOX - BLUE BOX", "nsi_id": "unitedstatespostalservice-a77078", "operator": "United States Postal Service", "operator:short": "USPS", "operator:type": "public", "operator:wikidata": "Q668687", "ref": "0875000008"}, "type": "Feature"}
{"dataset_attributes": {"@spider": "usps_collection_boxes", "spider:collection_time": "2023-11-25T08:23:32.202811"}, "geometry": {"coordinates": [-74.0365554, 40.133658], "type": "Point"}, "id": "uW5ipIpf1uZipYotpdqOlyNJUtA=", "properties": {"@spider": "usps_collection_boxes", "addr:city": "SEA GIRT", "addr:country": "US", "addr:full": "403 BALTIMORE BLVD", "addr:postcode": "08750", "addr:state": "NJ", "amenity": "post_box", "brand": "United States Postal Service", "brand:wikidata": "Q668687", "collection_times": "Mo-Sa 11:00", "name": "USPS COLLECTION BOX - BLUE BOX", "nsi_id": "unitedstatespostalservice-a77078", "operator": "United States Postal Service", "operator:short": "USPS", "operator:type": "public", "operator:wikidata": "Q668687", "ref": "0875000009"}, "type": "Feature"}
{"dataset_attributes": {"@spider": "usps_collection_boxes", "spider:collection_time": "2023-11-25T08:23:32.202811"}, "geometry": {"coordinates": [-74.0425386, 40.127594], "type": "Point"}, "id": "kDCakxtIK-LNNnq0JNOko4odb8Q=", "properties": {"@spider": "usps_collection_boxes", "addr:city": "SEA GIRT", "addr:country": "US", "addr:full": "2 CAMP DR", "addr:postcode": "08750", "addr:state": "NJ", "amenity": "post_box", "brand": "United States Postal Service", "brand:wikidata": "Q668687", "collection_times": "Mo-Sa 10:00", "name": "USPS COLLECTION BOX - BLUE BOX", "nsi_id": "unitedstatespostalservice-a77078", "operator": "United States Postal Service", "operator:short": "USPS", "operator:type": "public", "operator:wikidata": "Q668687", "ref": "0875000010"}, "type": "Feature"}
{"dataset_attributes": {"@spider": "usps_collection_boxes", "spider:collection_time": "2023-11-25T08:23:32.202811"}, "geometry": {"coordinates": [-74.0597014, 40.141747], "type": "Point"}, "id": "n0LZRGljv0vfoBUgED8BJYOarq0=", "properties": {"@spider": "usps_collection_boxes", "addr:city": "SEA GIRT", "addr:country": "US", "addr:full": "2130 HIGHWAY 35", "addr:postcode": "08750", "addr:state": "NJ", "amenity": "post_box", "brand": "United States Postal Service", "brand:wikidata": "Q668687", "collection_times": "Mo-Sa 11:00", "name": "USPS COLLECTION BOX - BLUE BOX", "nsi_id": "unitedstatespostalservice-a77078", "operator": "United States Postal Service", "operator:short": "USPS", "operator:type": "public", "operator:wikidata": "Q668687", "ref": "0875000011"}, "type": "Feature"}
{"dataset_attributes": {"@spider": "usps_collection_boxes", "spider:collection_time": "2023-11-25T08:23:32.202811"}, "geometry": {"coordinates": [-74.0623396, 40.134364], "type": "Point"}, "id": "oRnfBH9Ah30FSSbhYDXGtOnyU1g=", "properties": {"@spider": "usps_collection_boxes", "addr:city": "SEA GIRT", "addr:country": "US", "addr:full": "2204 HIGHWAY 35 STE 19", "addr:postcode": "08750", "addr:state": "NJ", "amenity": "post_box", "brand": "United States Postal Service", "brand:wikidata": "Q668687", "collection_times": "Mo-Sa 11:00", "name": "USPS COLLECTION BOX - BLUE BOX", "nsi_id": "unitedstatespostalservice-a77078", "operator": "United States Postal Service", "operator:short": "USPS", "operator:type": "public", "operator:wikidata": "Q668687", "ref": "0875000014"}, "type": "Feature"}
{"dataset_attributes": {"@spider": "usps_collection_boxes", "spider:collection_time": "2023-11-25T08:23:32.202811"}, "geometry": {"coordinates": [-74.041736, 40.130768], "type": "Point"}, "id": "hJRhXN6Lb2gHjZ07tT4Rol-3ix0=", "properties": {"@spider": "usps_collection_boxes", "addr:city": "SEA GIRT", "addr:country": "US", "addr:full": "800 THE PLZ", "addr:postcode": "08750", "addr:state": "NJ", "amenity": "post_box", "brand": "United States Postal Service", "brand:wikidata": "Q668687", "collection_times": "Mo-Fr 16:30; Sa 15:00", "name": "USPS COLLECTION BOX - BLUE BOX", "note": "ON 12/24 AND 12/31, THIS BOX MAY BE COLLECTED AS EARLY AS 12 NOON.", "nsi_id": "unitedstatespostalservice-a77078", "operator": "United States Postal Service", "operator:short": "USPS", "operator:type": "public", "operator:wikidata": "Q668687", "ref": "0875000015"}, "type": "Feature"}
{"dataset_attributes": {"@spider": "usps_collection_boxes", "spider:collection_time": "2023-11-25T08:23:32.202811"}, "geometry": {"coordinates": [-74.041736, 40.130768], "type": "Point"}, "id": "X-YdP3DaPJpcxW3_fk98xFI6zmE=", "properties": {"@spider": "usps_collection_boxes", "addr:city": "SEA GIRT", "addr:country": "US", "addr:full": "800 THE PLZ", "addr:postcode": "08750", "addr:state": "NJ", "amenity": "post_box", "brand": "United States Postal Service", "brand:wikidata": "Q668687", "collection_times": "Mo-Fr 16:30; Sa 15:00", "name": "USPS COLLECTION BOX - BLUE BOX", "note": "ON 12/24 AND 12/31, THIS BOX MAY BE COLLECTED AS EARLY AS 12 NOON.", "nsi_id": "unitedstatespostalservice-a77078", "operator": "United States Postal Service", "operator:short": "USPS", "operator:type": "public", "operator:wikidata": "Q668687", "ref": "0875000016"}, "type": "Feature"}
{"dataset_attributes": {"@spider": "usps_collection_boxes", "spider:collection_time": "2023-11-25T08:23:32.202811"}, "geometry": {"coordinates": [-74.0612803, 40.139233], "type": "Point"}, "id": "mAkerEOXbaQlKs1D8bw_QTegyEg=", "properties": {"@spider": "usps_collection_boxes", "addr:city": "SEA GIRT", "addr:country": "US", "addr:full": "2150 HIGHWAY 35", "addr:postcode": "08750", "addr:state": "NJ", "amenity": "post_box", "brand": "United States Postal Service", "brand:wikidata": "Q668687", "collection_times": "Mo-Sa 11:00", "name": "USPS COLLECTION BOX - BLUE BOX", "nsi_id": "unitedstatespostalservice-a77078", "operator": "United States Postal Service", "operator:short": "USPS", "operator:type": "public", "operator:wikidata": "Q668687", "ref": "0875000018"}, "type": "Feature"}
{"dataset_attributes": {"@spider": "usps_collection_boxes", "spider:collection_time": "2023-11-25T08:23:32.202811"}, "geometry": {"coordinates": [-74.0617731, 40.136664], "type": "Point"}, "id": "mw_iQb5F7_Vf5x-xIk5yAfoohUg=", "properties": {"@spider": "usps_collection_boxes", "addr:city": "SEA GIRT", "addr:country": "US", "addr:full": "1330 LAUREL AVE", "addr:postcode": "08750", "addr:state": "NJ", "amenity": "post_box", "brand": "United States Postal Service", "brand:wikidata": "Q668687", "collection_times": "Mo-Sa 11:00", "name": "USPS COLLECTION BOX - BLUE BOX", "nsi_id": "unitedstatespostalservice-a77078", "operator": "United States Postal Service", "operator:short": "USPS", "operator:type": "public", "operator:wikidata": "Q668687", "ref": "0875000021"}, "type": "Feature"}
{"dataset_attributes": {"@spider": "usps_collection_boxes", "spider:collection_time": "2023-11-25T08:23:32.202811"}, "geometry": {"coordinates": [-74.041736, 40.130768], "type": "Point"}, "id": "KBnZW3W34Jyc_rrXSQAoaXC9Qo4=", "properties": {"@spider": "usps_collection_boxes", "addr:city": "SEA GIRT", "addr:country": "US", "addr:full": "800 THE PLZ", "addr:postcode": "08750", "addr:state": "NJ", "amenity": "post_box", "brand": "United States Postal Service", "brand:wikidata": "Q668687", "collection_times": "Mo-Fr 16:30; Sa 15:30", "name": "USPS COLLECTION BOX - PO LOBBY", "note": "ON 12/24 AND 12/31, THIS BOX MAY BE COLLECTED AS EARLY AS 12 NOON.", "nsi_id": "unitedstatespostalservice-a77078", "operator": "United States Postal Service", "operator:short": "USPS", "operator:type": "public", "operator:wikidata": "Q668687", "ref": "0875000023"}, "type": "Feature"}
{"dataset_attributes": {"@spider": "usps_collection_boxes", "spider:collection_time": "2023-11-25T08:23:32.202811"}, "geometry": {"coordinates": [-74.041804574, 40.130660148], "type": "Point"}, "id": "3QdjjR4g2cWkSZKxNbrJrnV8zRI=", "properties": {"@spider": "usps_collection_boxes", "addr:city": "SEA GIRT", "addr:country": "US", "addr:full": "800 THE PLZ STE 10", "addr:postcode": "08750", "addr:state": "NJ", "amenity": "post_box", "brand": "United States Postal Service", "brand:wikidata": "Q668687", "collection_times": "Mo-Fr 15:15; Sa 12:00", "name": "USPS COLLECTION BOX - PO LOBBY", "note": "ON 12/24 AND 12/31, THIS BOX MAY BE COLLECTED AS EARLY AS 12 NOON.", "nsi_id": "unitedstatespostalservice-a77078", "operator": "United States Postal Service", "operator:short": "USPS", "operator:type": "public", "operator:wikidata": "Q668687", "ref": "0875000028"}, "type": "Feature"}
{"dataset_attributes": {"@spider": "usps_collection_boxes", "spider:collection_time": "2023-11-25T08:23:32.202811"}, "geometry": {"coordinates": [-74.072893091, 39.941192558], "type": "Point"}, "id": "m6fylLRorIDMWkLZ_Vt4fEqpkts=", "properties": {"@spider": "usps_collection_boxes", "addr:city": "SEASIDE HEIGHTS", "addr:country": "US", "addr:full": "55 SUMNER AVE", "addr:postcode": "08751", "addr:state": "NJ", "amenity": "post_box", "brand": "United States Postal Service", "brand:wikidata": "Q668687", "collection_times": "Mo-Fr 16:00; Sa 12:30", "name": "USPS COLLECTION BOX - BLUE BOX", "note": "ON 12/24 AND 12/31, THIS BOX MAY BE COLLECTED AS EARLY AS 12 NOON.", "nsi_id": "unitedstatespostalservice-a77078", "operator": "United States Postal Service", "operator:short": "USPS", "operator:type": "public", "operator:wikidata": "Q668687", "ref": "0875100001"}, "type": "Feature"}
{"dataset_attributes": {"@spider": "usps_collection_boxes", "spider:collection_time": "2023-11-25T08:23:32.202811"}, "geometry": {"coordinates": [-74.0735204, 39.943515], "type": "Point"}, "id": "1y_wY8OW-qgbQD6a-fImuB48eWI=", "properties": {"@spider": "usps_collection_boxes", "addr:city": "SEASIDE HEIGHTS", "addr:country": "US", "addr:full": "901 BOULEVARD", "addr:postcode": "08751", "addr:state": "NJ", "amenity": "post_box", "brand": "United States Postal Service", "brand:wikidata": "Q668687", "collection_times": "Mo-Sa 10:00", "name": "USPS COLLECTION BOX - BLUE BOX", "nsi_id": "unitedstatespostalservice-a77078", "operator": "United States Postal Service", "operator:short": "USPS", "operator:type": "public", "operator:wikidata": "Q668687", "ref": "0875100004"}, "type": "Feature"}
{"dataset_attributes": {"@spider": "usps_collection_boxes", "spider:collection_time": "2023-11-25T08:23:32.202811"}, "geometry": {"coordinates": [-74.0786205, 39.952815], "type": "Point"}, "id": "VodPKWUcNjRWS24RLEbZ6Okm4zs=", "properties": {"@spider": "usps_collection_boxes", "addr:city": "SEASIDE HEIGHTS", "addr:country": "US", "addr:full": "1801 BAY BLVD", "addr:postcode": "08751", "addr:state": "NJ", "amenity": "post_box", "brand": "United States Postal Service", "brand:wikidata": "Q668687", "collection_times": "Mo-Sa 10:15", "name": "USPS COLLECTION BOX - BLUE BOX", "nsi_id": "unitedstatespostalservice-a77078", "operator": "United States Postal Service", "operator:short": "USPS", "operator:type": "public", "operator:wikidata": "Q668687", "ref": "0875100014"}, "type": "Feature"}
{"dataset_attributes": {"@spider": "usps_collection_boxes", "spider:collection_time": "2023-11-25T08:23:32.202811"}, "geometry": {"coordinates": [-74.0748321, 39.945591], "type": "Point"}, "id": "ILP10fuitKsltGj-vocH1a3djsI=", "properties": {"@spider": "usps_collection_boxes", "addr:city": "SEASIDE HEIGHTS", "addr:country": "US", "addr:full": "201 FREMONT AVE", "addr:postcode": "08751", "addr:state": "NJ", "amenity": "post_box", "brand": "United States Postal Service", "brand:wikidata": "Q668687", "collection_times": "Mo-Sa 10:15", "name": "USPS COLLECTION BOX - BLUE BOX", "nsi_id": "unitedstatespostalservice-a77078", "operator": "United States Postal Service", "operator:short": "USPS", "operator:type": "public", "operator:wikidata": "Q668687", "ref": "0875100015"}, "type": "Feature"}
{"dataset_attributes": {"@spider": "usps_collection_boxes", "spider:collection_time": "2023-11-25T08:23:32.202811"}, "geometry": {"coordinates": [-74.0766504, 39.950495], "type": "Point"}, "id": "r_Wk5VlvlungCvveaPp55GUS5wY=", "properties": {"@spider": "usps_collection_boxes", "addr:city": "SEASIDE HEIGHTS", "addr:country": "US", "addr:full": "4030 ROUTE 37 E STE 5", "addr:postcode": "08751", "addr:state": "NJ", "amenity": "post_box", "brand": "United States Postal Service", "brand:wikidata": "Q668687", "collection_times": "Mo-Sa 10:00", "name": "USPS COLLECTION BOX - BLUE BOX", "nsi_id": "unitedstatespostalservice-a77078", "operator": "United States Postal Service", "operator:short": "USPS", "operator:type": "public", "operator:wikidata": "Q668687", "ref": "0875100016"}, "type": "Feature"}
{"dataset_attributes": {"@spider": "usps_collection_boxes", "spider:collection_time": "2023-11-25T08:23:32.202811"}, "geometry": {"coordinates": [-74.072642, 39.941203], "type": "Point"}, "id": "LSdJ3ACB07BKcLq39h8pYvVDpNo=", "properties": {"@spider": "usps_collection_boxes", "addr:city": "SEASIDE HEIGHTS", "addr:country": "US", "addr:full": "55 SUMNER AVE", "addr:postcode": "08751", "addr:state": "NJ", "amenity": "post_box", "brand": "United States Postal Service", "brand:wikidata": "Q668687", "collection_times": "Mo-Fr 16:15; Sa 12:30", "name": "USPS COLLECTION BOX - PO LOBBY", "note": "ON 12/24 AND 12/31, THIS BOX MAY BE COLLECTED AS EARLY AS 12 NOON.", "nsi_id": "unitedstatespostalservice-a77078", "operator": "United States Postal Service", "operator:short": "USPS", "operator:type": "public", "operator:wikidata": "Q668687", "ref": "0875100017"}, "type": "Feature"}
{"dataset_attributes": {"@spider": "usps_collection_boxes", "spider:collection_time": "2023-11-25T08:23:32.202811"}, "geometry": {"coordinates": [-74.072893091, 39.941192558], "type": "Point"}, "id": "_PqKVCIWWrFceIKGysOMadQW2MU=", "properties": {"@spider": "usps_collection_boxes", "addr:city": "SEASIDE HEIGHTS", "addr:country": "US", "addr:full": "55 SUMNER AVE", "addr:postcode": "08751", "addr:state": "NJ", "amenity": "post_box", "brand": "United States Postal Service", "brand:wikidata": "Q668687", "collection_times": "Mo-Fr 16:15; Sa 12:30", "name": "USPS COLLECTION BOX - PO LOBBY", "note": "ON 12/24 AND 12/31, THIS BOX MAY BE COLLECTED AS EARLY AS 12 NOON.", "nsi_id": "unitedstatespostalservice-a77078", "operator": "United States Postal Service", "operator:short": "USPS", "operator:type": "public", "operator:wikidata": "Q668687", "ref": "0875100021"}, "type": "Feature"}
{"dataset_attributes": {"@spider": "usps_collection_boxes", "spider:collection_time": "2023-11-25T08:23:32.202811"}, "geometry": {"coordinates": [-74.0765909, 39.930644], "type": "Point"}, "id": "xP6733L0I3iYv4goE2rbXyZg9tY=", "properties": {"@spider": "usps_collection_boxes", "addr:city": "SEASIDE PARK", "addr:country": "US", "addr:full": "1000 NE CENTRAL AVE", "addr:postcode": "08752", "addr:state": "NJ", "amenity": "post_box", "brand": "United States Postal Service", "brand:wikidata": "Q668687", "collection_times": "Mo-Sa 10:00", "name": "USPS COLLECTION BOX - BLUE BOX", "nsi_id": "unitedstatespostalservice-a77078", "operator": "United States Postal Service", "operator:short": "USPS", "operator:type": "public", "operator:wikidata": "Q668687", "ref": "0875200003"}, "type": "Feature"}
{"dataset_attributes": {"@spider": "usps_collection_boxes", "spider:collection_time": "2023-11-25T08:23:32.202811"}, "geometry": {"coordinates": [-74.079289, 39.91657], "type": "Point"}, "id": "lyCRMeYj8x8bWs45pmdwIcLwoms=", "properties": {"@spider": "usps_collection_boxes", "addr:city": "SEASIDE PARK", "addr:country": "US", "addr:full": "900 SE CENTRAL AVE", "addr:postcode": "08752", "addr:state": "NJ", "amenity": "post_box", "brand": "United States Postal Service", "brand:wikidata": "Q668687", "collection_times": "Mo-Fr 16:00; Sa 12:00", "name": "USPS COLLECTION BOX - BLUE BOX", "note": "ON 12/24 AND 12/31, THIS BOX MAY BE COLLECTED AS EARLY AS 12 NOON.", "nsi_id": "unitedstatespostalservice-a77078", "operator": "United States Postal Service", "operator:short": "USPS", "operator:type": "public", "operator:wikidata": "Q668687", "ref": "0875200008"}, "type": "Feature"}
{"dataset_attributes": {"@spider": "usps_collection_boxes", "spider:collection_time": "2023-11-25T08:23:32.202811"}, "geometry": {"coordinates": [-74.079308, 39.916663], "type": "Point"}, "id": "YNJQl4wGDJcv_nHJeUIkAnRyucY=", "properties": {"@spider": "usps_collection_boxes", "addr:city": "SEASIDE PARK", "addr:country": "US", "addr:full": "900 SE CENTRAL AVE", "addr:postcode": "08752", "addr:state": "NJ", "amenity": "post_box", "brand": "United States Postal Service", "brand:wikidata": "Q668687", "collection_times": "Mo-Fr 16:00; Sa 12:00", "name": "USPS COLLECTION BOX - PO LOBBY", "note": "ON 12/24 AND 12/31, THIS BOX MAY BE COLLECTED AS EARLY AS 12 NOON.", "nsi_id": "unitedstatespostalservice-a77078", "operator": "United States Postal Service", "operator:short": "USPS", "operator:type": "public", "operator:wikidata": "Q668687", "ref": "0875200010"}, "type": "Feature"}
{"dataset_attributes": {"@spider": "usps_collection_boxes", "spider:collection_time": "2023-11-25T08:23:32.202811"}, "geometry": {"coordinates": [-74.0793090397, 39.9164638884], "type": "Point"}, "id": "PNt5lDQNZ-Ph16CJZb5LB6jV7vg=", "properties": {"@spider": "usps_collection_boxes", "addr:city": "SEASIDE PARK", "addr:country": "US", "addr:full": "900 SE CENTRAL AVE", "addr:postcode": "08752", "addr:state": "NJ", "amenity": "post_box", "brand": "United States Postal Service", "brand:wikidata": "Q668687", "collection_times": "Mo-Fr 16:00; Sa 12:00", "name": "USPS COLLECTION BOX - PO LOBBY", "note": "ON 12/24 AND 12/31, THIS BOX MAY BE COLLECTED AS EARLY AS 12 NOON.", "nsi_id": "unitedstatespostalservice-a77078", "operator": "United States Postal Service", "operator:short": "USPS", "operator:type": "public", "operator:wikidata": "Q668687", "ref": "0875200013"}, "type": "Feature"}
{"dataset_attributes": {"@spider": "usps_collection_boxes", "spider:collection_time": "2023-11-25T08:23:32.202811"}, "geometry": {"coordinates": [-74.1472149, 40.011453], "type": "Point"}, "id": "3UJ3WIV-LUqSAQy6tyEBMZXJ5J0=", "properties": {"@spider": "usps_collection_boxes", "addr:city": "TOMS RIVER", "addr:country": "US", "addr:full": "1824 HOOPER AVE STE 1", "addr:postcode": "08753", "addr:state": "NJ", "amenity": "post_box", "brand": "United States Postal Service", "brand:wikidata": "Q668687", "collection_times": "Mo-Sa 11:00", "name": "USPS COLLECTION BOX - BLUE BOX", "nsi_id": "unitedstatespostalservice-a77078", "operator": "United States Postal Service", "operator:short": "USPS", "operator:type": "public", "operator:wikidata": "Q668687", "ref": "0875300001"}, "type": "Feature"}
{"dataset_attributes": {"@spider": "usps_collection_boxes", "spider:collection_time": "2023-11-25T08:23:32.202811"}, "geometry": {"coordinates": [-74.1465685, 40.011522], "type": "Point"}, "id": "fUxvXMPQuXhm9kUdjyCvYPngEEI=", "properties": {"@spider": "usps_collection_boxes", "addr:city": "TOMS RIVER", "addr:country": "US", "addr:full": "1843 HOOPER AVE", "addr:postcode": "08753", "addr:state": "NJ", "amenity": "post_box", "brand": "United States Postal Service", "brand:wikidata": "Q668687", "collection_times": "Mo-Sa 10:00", "name": "USPS COLLECTION BOX - BLUE BOX", "nsi_id": "unitedstatespostalservice-a77078", "operator": "United States Postal Service", "operator:short": "USPS", "operator:type": "public", "operator:wikidata": "Q668687", "ref": "0875300002"}, "type": "Feature"}
{"dataset_attributes": {"@spider": "usps_collection_boxes", "spider:collection_time": "2023-11-25T08:23:32.202811"}, "geometry": {"coordinates": [-74.1594279, 40.019845], "type": "Point"}, "id": "v4HkiKoPeeyEJYIoaj71w7-XIq4=", "properties": {"@spider": "usps_collection_boxes", "addr:city": "TOMS RIVER", "addr:country": "US", "addr:full": "2100 HOVSONS BLVD", "addr:postcode": "08753", "addr:state": "NJ", "amenity": "post_box", "brand": "United States Postal Service", "brand:wikidata": "Q668687", "collection_times": "Mo-Sa 11:00", "name": "USPS COLLECTION BOX - BLUE BOX", "nsi_id": "unitedstatespostalservice-a77078", "operator": "United States Postal Service", "operator:short": "USPS", "operator:type": "public", "operator:wikidata": "Q668687", "ref": "0875300006"}, "type": "Feature"}
{"dataset_attributes": {"@spider": "usps_collection_boxes", "spider:collection_time": "2023-11-25T08:23:32.202811"}, "geometry": {"coordinates": [-74.1593744, 40.022516], "type": "Point"}, "id": "ADYgEXKeQQNQQVcp3orbQRIMSqU=", "properties": {"@spider": "usps_collection_boxes", "addr:city": "TOMS RIVER", "addr:country": "US", "addr:full": "1999 YORKTOWNE BLVD", "addr:postcode": "08753", "addr:state": "NJ", "amenity": "post_box", "brand": "United States Postal Service", "brand:wikidata": "Q668687", "collection_times": "Mo-Sa 10:00", "name": "USPS COLLECTION BOX - BLUE BOX", "nsi_id": "unitedstatespostalservice-a77078", "operator": "United States Postal Service", "operator:short": "USPS", "operator:type": "public", "operator:wikidata": "Q668687", "ref": "0875300008"}, "type": "Feature"}
{"dataset_attributes": {"@spider": "usps_collection_boxes", "spider:collection_time": "2023-11-25T08:23:32.202811"}, "geometry": {"coordinates": [-74.1376455, 39.976657], "type": "Point"}, "id": "W3baqSjOagkiXJkVfsk1BsLExAg=", "properties": {"@spider": "usps_collection_boxes", "addr:city": "TOMS RIVER", "addr:country": "US", "addr:full": "953 FISCHER BLVD", "addr:postcode": "08753", "addr:state": "NJ", "amenity": "post_box", "brand": "United States Postal Service", "brand:wikidata": "Q668687", "collection_times": "Mo-Sa 11:00", "name": "USPS COLLECTION BOX - BLUE BOX", "nsi_id": "unitedstatespostalservice-a77078", "operator": "United States Postal Service", "operator:short": "USPS", "operator:type": "public", "operator:wikidata": "Q668687", "ref": "0875300012"}, "type": "Feature"}
{"dataset_attributes": {"@spider": "usps_collection_boxes", "spider:collection_time": "2023-11-25T08:23:32.202811"}, "geometry": {"coordinates": [-74.1366227, 39.971978], "type": "Point"}, "id": "aaDeJ2J0x01g84G13haHBfjFO90=", "properties": {"@spider": "usps_collection_boxes", "addr:city": "TOMS RIVER", "addr:country": "US", "addr:full": "860 FISCHER BLVD", "addr:postcode": "08753", "addr:state": "NJ", "amenity": "post_box", "brand": "United States Postal Service", "brand:wikidata": "Q668687", "collection_times": "Mo-Sa 10:00", "name": "USPS COLLECTION BOX - BLUE BOX", "nsi_id": "unitedstatespostalservice-a77078", "operator": "United States Postal Service", "operator:short": "USPS", "operator:type": "public", "operator:wikidata": "Q668687", "ref": "0875300013"}, "type": "Feature"}
{"dataset_attributes": {"@spider": "usps_collection_boxes", "spider:collection_time": "2023-11-25T08:23:32.202811"}, "geometry": {"coordinates": [-74.1732506, 39.992571], "type": "Point"}, "id": "dkEE82ygeSdb1BFCL9BuNL9wbbM=", "properties": {"@spider": "usps_collection_boxes", "addr:city": "TOMS RIVER", "addr:country": "US", "addr:full": "1415 HOOPER AVE", "addr:postcode": "08753", "addr:state": "NJ", "amenity": "post_box", "brand": "United States Postal Service", "brand:wikidata": "Q668687", "collection_times": "Mo-Sa 10:00", "name": "USPS COLLECTION BOX - BLUE BOX", "nsi_id": "unitedstatespostalservice-a77078", "operator": "United States Postal Service", "operator:short": "USPS", "operator:type": "public", "operator:wikidata": "Q668687", "ref": "0875300014"}, "type": "Feature"}
{"dataset_attributes": {"@spider": "usps_collection_boxes", "spider:collection_time": "2023-11-25T08:23:32.202811"}, "geometry": {"coordinates": [-74.258148, 39.972117], "type": "Point"}, "id": "KAALrcCjgs44rfYW77tT_gk0d4s=", "properties": {"@spider": "usps_collection_boxes", "addr:city": "TOMS RIVER", "addr:country": "US", "addr:full": "98 BANANIER DR", "addr:postcode": "08753", "addr:state": "NJ", "amenity": "post_box", "brand": "United States Postal Service", "brand:wikidata": "Q668687", "collection_times": "Mo-Sa 11:00", "name": "USPS COLLECTION BOX - BLUE BOX", "nsi_id": "unitedstatespostalservice-a77078", "operator": "United States Postal Service", "operator:short": "USPS", "operator:type": "public", "operator:wikidata": "Q668687", "ref": "0875300015"}, "type": "Feature"}
{"dataset_attributes": {"@spider": "usps_collection_boxes", "spider:collection_time": "2023-11-25T08:23:32.202811"}, "geometry": {"coordinates": [-74.1609147, 39.954891], "type": "Point"}, "id": "JbrujK_mpqcKhmF3priH5xqmy9M=", "properties": {"@spider": "usps_collection_boxes", "addr:city": "TOMS RIVER", "addr:country": "US", "addr:full": "1214 STATE ROUTE 37 E", "addr:postcode": "08753", "addr:state": "NJ", "amenity": "post_box", "brand": "United States Postal Service", "brand:wikidata": "Q668687", "collection_times": "Mo-Sa 11:00", "name": "USPS COLLECTION BOX - BLUE BOX", "nsi_id": "unitedstatespostalservice-a77078", "operator": "United States Postal Service", "operator:short": "USPS", "operator:type": "public", "operator:wikidata": "Q668687", "ref": "0875300016"}, "type": "Feature"}
{"dataset_attributes": {"@spider": "usps_collection_boxes", "spider:collection_time": "2023-11-25T08:23:32.202811"}, "geometry": {"coordinates": [-74.151855837, 39.954704651], "type": "Point"}, "id": "3hqQrbVh33Q5SJprmEg4V5dFVh4=", "properties": {"@spider": "usps_collection_boxes", "addr:city": "TOMS RIVER", "addr:country": "US", "addr:full": "541 VAUGHN AVE", "addr:postcode": "08753", "addr:state": "NJ", "amenity": "post_box", "brand": "United States Postal Service", "brand:wikidata": "Q668687", "collection_times": "Mo-Sa 11:00", "name": "USPS COLLECTION BOX - BLUE BOX", "nsi_id": "unitedstatespostalservice-a77078", "operator": "United States Postal Service", "operator:short": "USPS", "operator:type": "public", "operator:wikidata": "Q668687", "ref": "0875300017"}, "type": "Feature"}
{"dataset_attributes": {"@spider": "usps_collection_boxes", "spider:collection_time": "2023-11-25T08:23:32.202811"}, "geometry": {"coordinates": [-74.1997557, 39.960641], "type": "Point"}, "id": "ymQhK7tBQwvvFO2sg2vKuWFwpHs=", "properties": {"@spider": "usps_collection_boxes", "addr:city": "TOMS RIVER", "addr:country": "US", "addr:full": "801 MAIN ST", "addr:postcode": "08753", "addr:state": "NJ", "amenity": "post_box", "brand": "United States Postal Service", "brand:wikidata": "Q668687", "collection_times": "Mo-Sa 10:00", "name": "USPS COLLECTION BOX - BLUE BOX", "nsi_id": "unitedstatespostalservice-a77078", "operator": "United States Postal Service", "operator:short": "USPS", "operator:type": "public", "operator:wikidata": "Q668687", "ref": "0875300024"}, "type": "Feature"}
{"dataset_attributes": {"@spider": "usps_collection_boxes", "spider:collection_time": "2023-11-25T08:23:32.202811"}, "geometry": {"coordinates": [-74.2022969, 39.962753], "type": "Point"}, "id": "pkYONjmHCRIO6aYq4KHEg__SEX0=", "properties": {"@spider": "usps_collection_boxes", "addr:city": "TOMS RIVER", "addr:country": "US", "addr:full": "1 ROUTE 37 W", "addr:postcode": "08753", "addr:state": "NJ", "amenity": "post_box", "brand": "United States Postal Service", "brand:wikidata": "Q668687", "collection_times": "Mo-Sa 10:00", "name": "USPS COLLECTION BOX - BLUE BOX", "nsi_id": "unitedstatespostalservice-a77078", "operator": "United States Postal Service", "operator:short": "USPS", "operator:type": "public", "operator:wikidata": "Q668687", "ref": "0875300025"}, "type": "Feature"}
{"dataset_attributes": {"@spider": "usps_collection_boxes", "spider:collection_time": "2023-11-25T08:23:32.202811"}, "geometry": {"coordinates": [-74.1852744, 39.9625], "type": "Point"}, "id": "0oAN5YgO8gzHRUzZJBN7SYsJVxc=", "properties": {"@spider": "usps_collection_boxes", "addr:city": "TOMS RIVER", "addr:country": "US", "addr:full": "821 CONIFER ST", "addr:postcode": "08753", "addr:state": "NJ", "amenity": "post_box", "brand": "United States Postal Service", "brand:wikidata": "Q668687", "collection_times": "Mo-Sa 11:00", "name": "USPS COLLECTION BOX - BLUE BOX", "nsi_id": "unitedstatespostalservice-a77078", "operator": "United States Postal Service", "operator:short": "USPS", "operator:type": "public", "operator:wikidata": "Q668687", "ref": "0875300026"}, "type": "Feature"}
{"dataset_attributes": {"@spider": "usps_collection_boxes", "spider:collection_time": "2023-11-25T08:23:32.202811"}, "geometry": {"coordinates": [-74.1959215, 39.953092], "type": "Point"}, "id": "LiHSYACsP0UujCk8igzHcX7QZs0=", "properties": {"@spider": "usps_collection_boxes", "addr:city": "TOMS RIVER", "addr:country": "US", "addr:full": "56 WASHINGTON ST", "addr:postcode": "08753", "addr:state": "NJ", "amenity": "post_box", "brand": "United States Postal Service", "brand:wikidata": "Q668687", "collection_times": "Mo-Fr 17:00; Sa 10:00", "name": "USPS COLLECTION BOX - BLUE BOX", "note": "ON 12/24 AND 12/31, THIS BOX MAY BE COLLECTED AS EARLY AS 12 NOON.", "nsi_id": "unitedstatespostalservice-a77078", "operator": "United States Postal Service", "operator:short": "USPS", "operator:type": "public", "operator:wikidata": "Q668687", "ref": "0875300030"}, "type": "Feature"}
{"dataset_attributes": {"@spider": "usps_collection_boxes", "spider:collection_time": "2023-11-25T08:23:32.202811"}, "geometry": {"coordinates": [-74.2170343, 39.939534], "type": "Point"}, "id": "HcsD1xDqgH25As2e_Mhs9XCuWvw=", "properties": {"@spider": "usps_collection_boxes", "addr:city": "TOMS RIVER", "addr:country": "US", "addr:full": "424 DOVER RD", "addr:postcode": "08753", "addr:state": "NJ", "amenity": "post_box", "brand": "United States Postal Service", "brand:wikidata": "Q668687", "collection_times": "Mo-Sa 11:00", "name": "USPS COLLECTION BOX - BLUE BOX", "nsi_id": "unitedstatespostalservice-a77078", "operator": "United States Postal Service", "operator:short": "USPS", "operator:type": "public", "operator:wikidata": "Q668687", "ref": "0875300031"}, "type": "Feature"}
{"dataset_attributes": {"@spider": "usps_collection_boxes", "spider:collection_time": "2023-11-25T08:23:32.202811"}, "geometry": {"coordinates": [-74.2163095, 39.96315], "type": "Point"}, "id": "BrQUhgA1sZZaJKmUFMkYiqgqLeA=", "properties": {"@spider": "usps_collection_boxes", "addr:city": "TOMS RIVER", "addr:country": "US", "addr:full": "9 HOSPITAL DR", "addr:postcode": "08753", "addr:state": "NJ", "amenity": "post_box", "brand": "United States Postal Service", "brand:wikidata": "Q668687", "collection_times": "Mo-Sa 11:00", "name": "USPS COLLECTION BOX - BLUE BOX", "nsi_id": "unitedstatespostalservice-a77078", "operator": "United States Postal Service", "operator:short": "USPS", "operator:type": "public", "operator:wikidata": "Q668687", "ref": "0875300032"}, "type": "Feature"}
{"dataset_attributes": {"@spider": "usps_collection_boxes", "spider:collection_time": "2023-11-25T08:23:32.202811"}, "geometry": {"coordinates": [-74.2314657, 39.96076], "type": "Point"}, "id": "bgUhvwmuY9uMiRYYkbdmaAeNu6I=", "properties": {"@spider": "usps_collection_boxes", "addr:city": "TOMS RIVER", "addr:country": "US", "addr:full": "979 EDGEBROOK DR N", "addr:postcode": "08753", "addr:state": "NJ", "amenity": "post_box", "brand": "United States Postal Service", "brand:wikidata": "Q668687", "collection_times": "Mo-Sa 11:00", "name": "USPS COLLECTION BOX - BLUE BOX", "nsi_id": "unitedstatespostalservice-a77078", "operator": "United States Postal Service", "operator:short": "USPS", "operator:type": "public", "operator:wikidata": "Q668687", "ref": "0875300033"}, "type": "Feature"}
{"dataset_attributes": {"@spider": "usps_collection_boxes", "spider:collection_time": "2023-11-25T08:23:32.202811"}, "geometry": {"coordinates": [-74.2396856, 39.960283], "type": "Point"}, "id": "SSGWTfaP29qYYYNVmvyUzgxSmdA=", "properties": {"@spider": "usps_collection_boxes", "addr:city": "TOMS RIVER", "addr:country": "US", "addr:full": "49 EDINBURGH DR", "addr:postcode": "08753", "addr:state": "NJ", "amenity": "post_box", "brand": "United States Postal Service", "brand:wikidata": "Q668687", "collection_times": "Mo-Sa 11:00", "name": "USPS COLLECTION BOX - BLUE BOX", "nsi_id": "unitedstatespostalservice-a77078", "operator": "United States Postal Service", "operator:short": "USPS", "operator:type": "public", "operator:wikidata": "Q668687", "ref": "0875300034"}, "type": "Feature"}
{"dataset_attributes": {"@spider": "usps_collection_boxes", "spider:collection_time": "2023-11-25T08:23:32.202811"}, "geometry": {"coordinates": [-74.2687844, 39.967235], "type": "Point"}, "id": "gowMy37FS1kx6o0SQgVkExwv4fk=", "properties": {"@spider": "usps_collection_boxes", "addr:city": "TOMS RIVER", "addr:country": "US", "addr:full": "451 JAMAICA BLVD", "addr:postcode": "08753", "addr:state": "NJ", "amenity": "post_box", "brand": "United States Postal Service", "brand:wikidata": "Q668687", "collection_times": "Mo-Sa 11:00", "name": "USPS COLLECTION BOX - BLUE BOX", "nsi_id": "unitedstatespostalservice-a77078", "operator": "United States Postal Service", "operator:short": "USPS", "operator:type": "public", "operator:wikidata": "Q668687", "ref": "0875300035"}, "type": "Feature"}
{"dataset_attributes": {"@spider": "usps_collection_boxes", "spider:collection_time": "2023-11-25T08:23:32.202811"}, "geometry": {"coordinates": [-74.2522726, 39.967501], "type": "Point"}, "id": "OY9GA6vMFtmTchYUYjIzMbMRNf0=", "properties": {"@spider": "usps_collection_boxes", "addr:city": "TOMS RIVER", "addr:country": "US", "addr:full": "630 JAMAICA BLVD", "addr:postcode": "08753", "addr:state": "NJ", "amenity": "post_box", "brand": "United States Postal Service", "brand:wikidata": "Q668687", "collection_times": "Mo-Sa 11:00", "name": "USPS COLLECTION BOX - BLUE BOX", "nsi_id": "unitedstatespostalservice-a77078", "operator": "United States Postal Service", "operator:short": "USPS", "operator:type": "public", "operator:wikidata": "Q668687", "ref": "0875300036"}, "type": "Feature"}
{"dataset_attributes": {"@spider": "usps_collection_boxes", "spider:collection_time": "2023-11-25T08:23:32.202811"}, "geometry": {"coordinates": [-74.2455672, 39.971644], "type": "Point"}, "id": "fiepBlGJCpPkZVMrvOK6f99LBpA=", "properties": {"@spider": "usps_collection_boxes", "addr:city": "TOMS RIVER", "addr:country": "US", "addr:full": "730 JAMAICA BLVD STE 23", "addr:postcode": "08753", "addr:state": "NJ", "amenity": "post_box", "brand": "United States Postal Service", "brand:wikidata": "Q668687", "collection_times": "Mo-Fr 16:00; Sa 11:00", "name": "USPS COLLECTION BOX - BLUE BOX", "note": "ON 12/24 AND 12/31, THIS BOX MAY BE COLLECTED AS EARLY AS 12 NOON.", "nsi_id": "unitedstatespostalservice-a77078", "operator": "United States Postal Service", "operator:short": "USPS", "operator:type": "public", "operator:wikidata": "Q668687", "ref": "0875300038"}, "type": "Feature"}
{"dataset_attributes": {"@spider": "usps_collection_boxes", "spider:collection_time": "2023-11-25T08:23:32.202811"}, "geometry": {"coordinates": [-74.2455679, 39.971638], "type": "Point"}, "id": "KKmQb7G7ap7oYOJwsFq2R1btvW4=", "properties": {"@spider": "usps_collection_boxes", "addr:city": "TOMS RIVER", "addr:country": "US", "addr:full": "730 JAMAICA BLVD STE 23", "addr:postcode": "08753", "addr:state": "NJ", "amenity": "post_box", "brand": "United States Postal Service", "brand:wikidata": "Q668687", "collection_times": "Mo-Fr 16:00; Sa 11:00", "name": "USPS COLLECTION BOX - BLUE BOX", "note": "ON 12/24 AND 12/31, THIS BOX MAY BE COLLECTED AS EARLY AS 12 NOON.", "nsi_id": "unitedstatespostalservice-a77078", "operator": "United States Postal Service", "operator:short": "USPS", "operator:type": "public", "operator:wikidata": "Q668687", "ref": "0875300039"}, "type": "Feature"}
{"dataset_attributes": {"@spider": "usps_collection_boxes", "spider:collection_time": "2023-11-25T08:23:32.202811"}, "geometry": {"coordinates": [-74.2203909, 39.966625], "type": "Point"}, "id": "c6Xym6zNfMr3A9Zyc-Gu6Uo8MCA=", "properties": {"@spider": "usps_collection_boxes", "addr:city": "TOMS RIVER", "addr:country": "US", "addr:full": "150 STATE ROUTE 37 W", "addr:postcode": "08753", "addr:state": "NJ", "amenity": "post_box", "brand": "United States Postal Service", "brand:wikidata": "Q668687", "collection_times": "Mo-Sa 11:00", "name": "USPS COLLECTION BOX - BLUE BOX", "nsi_id": "unitedstatespostalservice-a77078", "operator": "United States Postal Service", "operator:short": "USPS", "operator:type": "public", "operator:wikidata": "Q668687", "ref": "0875300040"}, "type": "Feature"}
{"dataset_attributes": {"@spider": "usps_collection_boxes", "spider:collection_time": "2023-11-25T08:23:32.202811"}, "geometry": {"coordinates": [-74.2308986, 39.967611], "type": "Point"}, "id": "TpLuhkVsDlqHG8EV9XsijNHsZC0=", "properties": {"@spider": "usps_collection_boxes", "addr:city": "TOMS RIVER", "addr:country": "US", "addr:full": "601 STATE ROUTE 37 W", "addr:postcode": "08753", "addr:state": "NJ", "amenity": "post_box", "brand": "United States Postal Service", "brand:wikidata": "Q668687", "collection_times": "Mo-Sa 10:00", "name": "USPS COLLECTION BOX - BLUE BOX", "nsi_id": "unitedstatespostalservice-a77078", "operator": "United States Postal Service", "operator:short": "USPS", "operator:type": "public", "operator:wikidata": "Q668687", "ref": "0875300041"}, "type": "Feature"}
{"dataset_attributes": {"@spider": "usps_collection_boxes", "spider:collection_time": "2023-11-25T08:23:32.202811"}, "geometry": {"coordinates": [-74.2463894, 39.975157], "type": "Point"}, "id": "MIab8p8-Ws7r3dbETtFboyE5C04=", "properties": {"@spider": "usps_collection_boxes", "addr:city": "TOMS RIVER", "addr:country": "US", "addr:full": "1071 STATE ROUTE 37 W", "addr:postcode": "08753", "addr:state": "NJ", "amenity": "post_box", "brand": "United States Postal Service", "brand:wikidata": "Q668687", "collection_times": "Mo-Sa 11:00", "name": "USPS COLLECTION BOX - BLUE BOX", "nsi_id": "unitedstatespostalservice-a77078", "operator": "United States Postal Service", "operator:short": "USPS", "operator:type": "public", "operator:wikidata": "Q668687", "ref": "0875300042"}, "type": "Feature"}
{"dataset_attributes": {"@spider": "usps_collection_boxes", "spider:collection_time": "2023-11-25T08:23:32.202811"}, "geometry": {"coordinates": [-74.2489563, 39.977687], "type": "Point"}, "id": "ozWP3boE8tMHk76mAsrxtW_QIuo=", "properties": {"@spider": "usps_collection_boxes", "addr:city": "TOMS RIVER", "addr:country": "US", "addr:full": "1163 STATE ROUTE 37 W", "addr:postcode": "08753", "addr:state": "NJ", "amenity": "post_box", "brand": "United States Postal Service", "brand:wikidata": "Q668687", "collection_times": "Mo-Sa 11:00", "name": "USPS COLLECTION BOX - BLUE BOX", "nsi_id": "unitedstatespostalservice-a77078", "operator": "United States Postal Service", "operator:short": "USPS", "operator:type": "public", "operator:wikidata": "Q668687", "ref": "0875300043"}, "type": "Feature"}
{"dataset_attributes": {"@spider": "usps_collection_boxes", "spider:collection_time": "2023-11-25T08:23:32.202811"}, "geometry": {"coordinates": [-74.1520151418, 39.9522252866], "type": "Point"}, "id": "ESaG9BM8Q6OC3_ieM1xqMYYeSME=", "properties": {"@spider": "usps_collection_boxes", "addr:city": "TOMS RIVER", "addr:country": "US", "addr:full": "1700 ROUTE 37 W", "addr:postcode": "08753", "addr:state": "NJ", "amenity": "post_box", "brand": "United States Postal Service", "brand:wikidata": "Q668687", "collection_times": "Mo-Sa 11:00", "name": "USPS COLLECTION BOX - BLUE BOX", "nsi_id": "unitedstatespostalservice-a77078", "operator": "United States Postal Service", "operator:short": "USPS", "operator:type": "public", "operator:wikidata": "Q668687", "ref": "0875300044"}, "type": "Feature"}
{"dataset_attributes": {"@spider": "usps_collection_boxes", "spider:collection_time": "2023-11-25T08:23:32.202811"}, "geometry": {"coordinates": [-74.217343, 39.993904], "type": "Point"}, "id": "lVyXDuaBfynftnONmBUuSA75TYs=", "properties": {"@spider": "usps_collection_boxes", "addr:city": "TOMS RIVER", "addr:country": "US", "addr:full": "49 COLUMBINE CIR", "addr:postcode": "08753", "addr:state": "NJ", "amenity": "post_box", "brand": "United States Postal Service", "brand:wikidata": "Q668687", "collection_times": "Mo-Sa 10:00", "name": "USPS COLLECTION BOX - BLUE BOX", "nsi_id": "unitedstatespostalservice-a77078", "operator": "United States Postal Service", "operator:short": "USPS", "operator:type": "public", "operator:wikidata": "Q668687", "ref": "0875300045"}, "type": "Feature"}
{"dataset_attributes": {"@spider": "usps_collection_boxes", "spider:collection_time": "2023-11-25T08:23:32.202811"}, "geometry": {"coordinates": [-74.2502577, 40.031958], "type": "Point"}, "id": "qCr0JXn0U8jQ6i2Ci116IVuPayU=", "properties": {"@spider": "usps_collection_boxes", "addr:city": "TOMS RIVER", "addr:country": "US", "addr:full": "100 FIRESIDE BLVD", "addr:postcode": "08753", "addr:state": "NJ", "amenity": "post_box", "brand": "United States Postal Service", "brand:wikidata": "Q668687", "collection_times": "Mo-Sa 10:00", "name": "USPS COLLECTION BOX - BLUE BOX", "nsi_id": "unitedstatespostalservice-a77078", "operator": "United States Postal Service", "operator:short": "USPS", "operator:type": "public", "operator:wikidata": "Q668687", "ref": "0875300047"}, "type": "Feature"}
{"dataset_attributes": {"@spider": "usps_collection_boxes", "spider:collection_time": "2023-11-25T08:23:32.202811"}, "geometry": {"coordinates": [-74.2014059, 39.95317], "type": "Point"}, "id": "OYy9_vd4eNYqRM1HzzUz-DWJsiI=", "properties": {"@spider": "usps_collection_boxes", "addr:city": "TOMS RIVER", "addr:country": "US", "addr:full": "130 W WATER ST", "addr:postcode": "08753", "addr:state": "NJ", "amenity": "post_box", "brand": "United States Postal Service", "brand:wikidata": "Q668687", "collection_times": "Mo-Fr 17:00; Sa 15:00", "name": "USPS COLLECTION BOX - BLUE BOX", "note": "ON 12/24 AND 12/31, THIS BOX MAY BE COLLECTED AS EARLY AS 12 NOON.", "nsi_id": "unitedstatespostalservice-a77078", "operator": "United States Postal Service", "operator:short": "USPS", "operator:type": "public", "operator:wikidata": "Q668687", "ref": "0875300048"}, "type": "Feature"}
{"dataset_attributes": {"@spider": "usps_collection_boxes", "spider:collection_time": "2023-11-25T08:23:32.202811"}, "geometry": {"coordinates": [-74.2015681, 39.953249], "type": "Point"}, "id": "h0mXV2x2ePZDtVmPSvTltyFD1YA=", "properties": {"@spider": "usps_collection_boxes", "addr:city": "TOMS RIVER", "addr:country": "US", "addr:full": "130 W WATER ST", "addr:postcode": "08753", "addr:state": "NJ", "amenity": "post_box", "brand": "United States Postal Service", "brand:wikidata": "Q668687", "collection_times": "Mo-Fr 17:00; Sa 15:00", "name": "USPS COLLECTION BOX - BLUE BOX", "note": "ON 12/24 AND 12/31, THIS BOX MAY BE COLLECTED AS EARLY AS 12 NOON.", "nsi_id": "unitedstatespostalservice-a77078", "operator": "United States Postal Service", "operator:short": "USPS", "operator:type": "public", "operator:wikidata": "Q668687", "ref": "0875300049"}, "type": "Feature"}
{"dataset_attributes": {"@spider": "usps_collection_boxes", "spider:collection_time": "2023-11-25T08:23:32.202811"}, "geometry": {"coordinates": [-74.1720859, 39.993781], "type": "Point"}, "id": "ohkl4NCtaRJHx3P2BphpSawOtZo=", "properties": {"@spider": "usps_collection_boxes", "addr:city": "TOMS RIVER", "addr:country": "US", "addr:full": "1433 HOOPER AVE", "addr:postcode": "08753", "addr:state": "NJ", "amenity": "post_box", "brand": "United States Postal Service", "brand:wikidata": "Q668687", "collection_times": "Mo-Sa 10:00", "name": "USPS COLLECTION BOX - BLUE BOX", "nsi_id": "unitedstatespostalservice-a77078", "operator": "United States Postal Service", "operator:short": "USPS", "operator:type": "public", "operator:wikidata": "Q668687", "ref": "0875300052"}, "type": "Feature"}
{"dataset_attributes": {"@spider": "usps_collection_boxes", "spider:collection_time": "2023-11-25T08:23:32.202811"}, "geometry": {"coordinates": [-74.2186939, 40.019941], "type": "Point"}, "id": "1HVURP_CxgRBF59ZaI_jwOWadb4=", "properties": {"@spider": "usps_collection_boxes", "addr:city": "TOMS RIVER", "addr:country": "US", "addr:full": "1889 LAKEWOOD RD", "addr:postcode": "08753", "addr:state": "NJ", "amenity": "post_box", "brand": "United States Postal Service", "brand:wikidata": "Q668687", "collection_times": "Mo-Sa 10:00", "name": "USPS COLLECTION BOX - BLUE BOX", "nsi_id": "unitedstatespostalservice-a77078", "operator": "United States Postal Service", "operator:short": "USPS", "operator:type": "public", "operator:wikidata": "Q668687", "ref": "0875300054"}, "type": "Feature"}
{"dataset_attributes": {"@spider": "usps_collection_boxes", "spider:collection_time": "2023-11-25T08:23:32.202811"}, "geometry": {"coordinates": [-74.2398845, 40.037615], "type": "Point"}, "id": "etcYtN4XpD7vAi_c5A-Qr04bq0c=", "properties": {"@spider": "usps_collection_boxes", "addr:city": "TOMS RIVER", "addr:country": "US", "addr:full": "200 CAMINO HERMOSA", "addr:postcode": "08753", "addr:state": "NJ", "amenity": "post_box", "brand": "United States Postal Service", "brand:wikidata": "Q668687", "collection_times": "Mo-Sa 10:00", "name": "USPS COLLECTION BOX - BLUE BOX", "nsi_id": "unitedstatespostalservice-a77078", "operator": "United States Postal Service", "operator:short": "USPS", "operator:type": "public", "operator:wikidata": "Q668687", "ref": "0875300055"}, "type": "Feature"}
{"dataset_attributes": {"@spider": "usps_collection_boxes", "spider:collection_time": "2023-11-25T08:23:32.202811"}, "geometry": {"coordinates": [-74.2014247, 39.953181], "type": "Point"}, "id": "06Dq9xQ1AEiEM_szPzK4jI_y8Vg=", "properties": {"@spider": "usps_collection_boxes", "addr:city": "TOMS RIVER", "addr:country": "US", "addr:full": "130 W WATER ST", "addr:postcode": "08753", "addr:state": "NJ", "amenity": "post_box", "brand": "United States Postal Service", "brand:wikidata": "Q668687", "collection_times": "Mo-Fr 17:00; Sa 15:00", "name": "USPS COLLECTION BOX - EXPRESS", "note": "ON 12/24 AND 12/31, THIS BOX MAY BE COLLECTED AS EARLY AS 12 NOON.", "nsi_id": "unitedstatespostalservice-a77078", "operator": "United States Postal Service", "operator:short": "USPS", "operator:type": "public", "operator:wikidata": "Q668687", "ref": "0875300062"}, "type": "Feature"}
{"dataset_attributes": {"@spider": "usps_collection_boxes", "spider:collection_time": "2023-11-25T08:23:32.202811"}, "geometry": {"coordinates": [-74.2098822, 39.985041], "type": "Point"}, "id": "uiWncPek6X5sYvyzLvf4TC_RSIk=", "properties": {"@spider": "usps_collection_boxes", "addr:city": "TOMS RIVER", "addr:country": "US", "addr:full": "1241 LAKEWOOD RD", "addr:postcode": "08753", "addr:state": "NJ", "amenity": "post_box", "brand": "United States Postal Service", "brand:wikidata": "Q668687", "collection_times": "Mo-Sa 10:00", "name": "USPS COLLECTION BOX - BLUE BOX", "nsi_id": "unitedstatespostalservice-a77078", "operator": "United States Postal Service", "operator:short": "USPS", "operator:type": "public", "operator:wikidata": "Q668687", "ref": "0875300064"}, "type": "Feature"}
{"dataset_attributes": {"@spider": "usps_collection_boxes", "spider:collection_time": "2023-11-25T08:23:32.202811"}, "geometry": {"coordinates": [-74.2147165, 39.99072], "type": "Point"}, "id": "WGdxthhy7phId8cF5I-ZJgeqRn8=", "properties": {"@spider": "usps_collection_boxes", "addr:city": "TOMS RIVER", "addr:country": "US", "addr:full": "1334 LAKEWOOD RD", "addr:postcode": "08753", "addr:state": "NJ", "amenity": "post_box", "brand": "United States Postal Service", "brand:wikidata": "Q668687", "collection_times": "Mo-Sa 10:00", "name": "USPS COLLECTION BOX - BLUE BOX", "nsi_id": "unitedstatespostalservice-a77078", "operator": "United States Postal Service", "operator:short": "USPS", "operator:type": "public", "operator:wikidata": "Q668687", "ref": "0875300065"}, "type": "Feature"}
{"dataset_attributes": {"@spider": "usps_collection_boxes", "spider:collection_time": "2023-11-25T08:23:32.202811"}, "geometry": {"coordinates": [-74.2452462, 39.956959], "type": "Point"}, "id": "JHsJrSodAy_fLpBwvvphSmObWVk=", "properties": {"@spider": "usps_collection_boxes", "addr:city": "TOMS RIVER", "addr:country": "US", "addr:full": "600 MULE RD", "addr:postcode": "08753", "addr:state": "NJ", "amenity": "post_box", "brand": "United States Postal Service", "brand:wikidata": "Q668687", "collection_times": "Mo-Sa 10:00", "name": "USPS COLLECTION BOX - BLUE BOX", "nsi_id": "unitedstatespostalservice-a77078", "operator": "United States Postal Service", "operator:short": "USPS", "operator:type": "public", "operator:wikidata": "Q668687", "ref": "0875300066"}, "type": "Feature"}
{"dataset_attributes": {"@spider": "usps_collection_boxes", "spider:collection_time": "2023-11-25T08:23:32.202811"}, "geometry": {"coordinates": [-74.1732084, 39.953211], "type": "Point"}, "id": "frU_-5V0BP5fAKvviPWq0P8M6Qw=", "properties": {"@spider": "usps_collection_boxes", "addr:city": "TOMS RIVER", "addr:country": "US", "addr:full": "650 WASHINGTON ST", "addr:postcode": "08753", "addr:state": "NJ", "amenity": "post_box", "brand": "United States Postal Service", "brand:wikidata": "Q668687", "collection_times": "Mo-Sa 10:00", "name": "USPS COLLECTION BOX - BLUE BOX", "nsi_id": "unitedstatespostalservice-a77078", "operator": "United States Postal Service", "operator:short": "USPS", "operator:type": "public", "operator:wikidata": "Q668687", "ref": "0875300067"}, "type": "Feature"}
{"dataset_attributes": {"@spider": "usps_collection_boxes", "spider:collection_time": "2023-11-25T08:23:32.202811"}, "geometry": {"coordinates": [-74.1496084, 39.944819], "type": "Point"}, "id": "OvgP90n73wVWRLRAFPifJQJ1tgw=", "properties": {"@spider": "usps_collection_boxes", "addr:city": "TOMS RIVER", "addr:country": "US", "addr:full": "135 CENTRAL AVE", "addr:postcode": "08753", "addr:state": "NJ", "amenity": "post_box", "brand": "United States Postal Service", "brand:wikidata": "Q668687", "collection_times": "Mo-Sa 11:00", "name": "USPS COLLECTION BOX - BLUE BOX", "nsi_id": "unitedstatespostalservice-a77078", "operator": "United States Postal Service", "operator:short": "USPS", "operator:type": "public", "operator:wikidata": "Q668687", "ref": "0875300068"}, "type": "Feature"}
{"dataset_attributes": {"@spider": "usps_collection_boxes", "spider:collection_time": "2023-11-25T08:23:32.202811"}, "geometry": {"coordinates": [-74.2014134, 39.953172], "type": "Point"}, "id": "yVL4c1eCN1yJD2R8qGeUsMh0P88=", "properties": {"@spider": "usps_collection_boxes", "addr:city": "TOMS RIVER", "addr:country": "US", "addr:full": "130 W WATER ST", "addr:postcode": "08753", "addr:state": "NJ", "amenity": "post_box", "brand": "United States Postal Service", "brand:wikidata": "Q668687", "collection_times": "Mo-Fr 17:00; Sa 15:00", "name": "USPS COLLECTION BOX - BLUE BOX", "note": "ON 12/24 AND 12/31, THIS BOX MAY BE COLLECTED AS EARLY AS 12 NOON.", "nsi_id": "unitedstatespostalservice-a77078", "operator": "United States Postal Service", "operator:short": "USPS", "operator:type": "public", "operator:wikidata": "Q668687", "ref": "0875300073"}, "type": "Feature"}
{"dataset_attributes": {"@spider": "usps_collection_boxes", "spider:collection_time": "2023-11-25T08:23:32.202811"}, "geometry": {"coordinates": [-74.2014139, 39.953185], "type": "Point"}, "id": "Q_99OARGq-_LVZamwapJSuEd4dM=", "properties": {"@spider": "usps_collection_boxes", "addr:city": "TOMS RIVER", "addr:country": "US", "addr:full": "130 W WATER ST", "addr:postcode": "08753", "addr:state": "NJ", "amenity": "post_box", "brand": "United States Postal Service", "brand:wikidata": "Q668687", "collection_times": "Mo-Fr 17:00; Sa 15:00", "name": "USPS COLLECTION BOX - BLUE BOX", "note": "ON 12/24 AND 12/31, THIS BOX MAY BE COLLECTED AS EARLY AS 12 NOON.", "nsi_id": "unitedstatespostalservice-a77078", "operator": "United States Postal Service", "operator:short": "USPS", "operator:type": "public", "operator:wikidata": "Q668687", "ref": "0875300074"}, "type": "Feature"}
{"dataset_attributes": {"@spider": "usps_collection_boxes", "spider:collection_time": "2023-11-25T08:23:32.202811"}, "geometry": {"coordinates": [-74.2014041, 39.95317], "type": "Point"}, "id": "TbUb9r9Q08wdbJtBvIHHvjPqTk4=", "properties": {"@spider": "usps_collection_boxes", "addr:city": "TOMS RIVER", "addr:country": "US", "addr:full": "130 W WATER ST", "addr:postcode": "08753", "addr:state": "NJ", "amenity": "post_box", "brand": "United States Postal Service", "brand:wikidata": "Q668687", "collection_times": "Mo-Fr 17:00; Sa 15:00", "name": "USPS COLLECTION BOX - BLUE BOX", "note": "ON 12/24 AND 12/31, THIS BOX MAY BE COLLECTED AS EARLY AS 12 NOON.", "nsi_id": "unitedstatespostalservice-a77078", "operator": "United States Postal Service", "operator:short": "USPS", "operator:type": "public", "operator:wikidata": "Q668687", "ref": "0875300075"}, "type": "Feature"}
{"dataset_attributes": {"@spider": "usps_collection_boxes", "spider:collection_time": "2023-11-25T08:23:32.202811"}, "geometry": {"coordinates": [-74.1998329, 39.953411], "type": "Point"}, "id": "EnK5QqfAKNQr3OUl7BvJSdMGxfA=", "properties": {"@spider": "usps_collection_boxes", "addr:city": "TOMS RIVER", "addr:country": "US", "addr:full": "355 IRONS ST", "addr:postcode": "08753", "addr:state": "NJ", "amenity": "post_box", "brand": "United States Postal Service", "brand:wikidata": "Q668687", "collection_times": "Mo-Fr 17:00; Sa 15:00", "name": "USPS COLLECTION BOX - BLUE BOX", "note": "ON 12/24 AND 12/31, THIS BOX MAY BE COLLECTED AS EARLY AS 12 NOON.", "nsi_id": "unitedstatespostalservice-a77078", "operator": "United States Postal Service", "operator:short": "USPS", "operator:type": "public", "operator:wikidata": "Q668687", "ref": "0875300076"}, "type": "Feature"}
{"dataset_attributes": {"@spider": "usps_collection_boxes", "spider:collection_time": "2023-11-25T08:23:32.202811"}, "geometry": {"coordinates": [-74.1997399, 39.95351], "type": "Point"}, "id": "fKgwLyKM3ZtBmjbA_fDwcKMXHes=", "properties": {"@spider": "usps_collection_boxes", "addr:city": "TOMS RIVER", "addr:country": "US", "addr:full": "355 IRONS", "addr:postcode": "08753", "addr:state": "NJ", "amenity": "post_box", "brand": "United States Postal Service", "brand:wikidata": "Q668687", "collection_times": "Mo-Fr 17:00; Sa 15:00", "name": "USPS COLLECTION BOX - BLUE BOX", "note": "ON 12/24 AND 12/31, THIS BOX MAY BE COLLECTED AS EARLY AS 12 NOON.", "nsi_id": "unitedstatespostalservice-a77078", "operator": "United States Postal Service", "operator:short": "USPS", "operator:type": "public", "operator:wikidata": "Q668687", "ref": "0875300077"}, "type": "Feature"}
{"dataset_attributes": {"@spider": "usps_collection_boxes", "spider:collection_time": "2023-11-25T08:23:32.202811"}, "geometry": {"coordinates": [-74.1677688, 40.022451], "type": "Point"}, "id": "2Z2hYhIuhQnQwdATIpDYRuDpmjU=", "properties": {"@spider": "usps_collection_boxes", "addr:city": "TOMS RIVER", "addr:country": "US", "addr:full": "2099 MOUNT CARMEL BLVD", "addr:postcode": "08753", "addr:state": "NJ", "amenity": "post_box", "brand": "United States Postal Service", "brand:wikidata": "Q668687", "collection_times": "Mo-Sa 10:00", "name": "USPS COLLECTION BOX - BLUE BOX", "nsi_id": "unitedstatespostalservice-a77078", "operator": "United States Postal Service", "operator:short": "USPS", "operator:type": "public", "operator:wikidata": "Q668687", "ref": "0875300078"}, "type": "Feature"}
{"dataset_attributes": {"@spider": "usps_collection_boxes", "spider:collection_time": "2023-11-25T08:23:32.202811"}, "geometry": {"coordinates": [-74.2011288, 39.953017], "type": "Point"}, "id": "CSeppqnJW8KUYkGkxBTUdxuEdrM=", "properties": {"@spider": "usps_collection_boxes", "addr:city": "TOMS RIVER", "addr:country": "US", "addr:full": "130 W WATER ST", "addr:postcode": "08753", "addr:state": "NJ", "amenity": "post_box", "brand": "United States Postal Service", "brand:wikidata": "Q668687", "collection_times": "Mo-Fr 17:00; Sa 15:00", "name": "USPS COLLECTION BOX - APC", "note": "ON 12/24 AND 12/31, THIS BOX MAY BE COLLECTED AS EARLY AS 12 NOON.", "nsi_id": "unitedstatespostalservice-a77078", "operator": "United States Postal Service", "operator:short": "USPS", "operator:type": "public", "operator:wikidata": "Q668687", "ref": "0875300080"}, "type": "Feature"}
{"dataset_attributes": {"@spider": "usps_collection_boxes", "spider:collection_time": "2023-11-25T08:23:32.202811"}, "geometry": {"coordinates": [-74.2012343, 39.952771], "type": "Point"}, "id": "YURQ_nhyERRgdI70j-z6DyQPzNM=", "properties": {"@spider": "usps_collection_boxes", "addr:city": "TOMS RIVER", "addr:country": "US", "addr:full": "130 W WATER ST", "addr:postcode": "08753", "addr:state": "NJ", "amenity": "post_box", "brand": "United States Postal Service", "brand:wikidata": "Q668687", "collection_times": "Mo-Fr 17:30; Sa 12:30", "name": "USPS COLLECTION BOX - PO LOBBY", "note": "ON 12/24 AND 12/31, THIS BOX MAY BE COLLECTED AS EARLY AS 12 NOON.", "nsi_id": "unitedstatespostalservice-a77078", "operator": "United States Postal Service", "operator:short": "USPS", "operator:type": "public", "operator:wikidata": "Q668687", "ref": "0875300081"}, "type": "Feature"}
{"dataset_attributes": {"@spider": "usps_collection_boxes", "spider:collection_time": "2023-11-25T08:23:32.202811"}, "geometry": {"coordinates": [-74.201105894, 39.953099518], "type": "Point"}, "id": "zVoKeRPSSgZN2yXfUkxeLwzheFE=", "properties": {"@spider": "usps_collection_boxes", "addr:city": "TOMS RIVER", "addr:country": "US", "addr:full": "130 W WATER ST", "addr:postcode": "08753", "addr:state": "NJ", "amenity": "post_box", "brand": "United States Postal Service", "brand:wikidata": "Q668687", "collection_times": "Mo-Fr 16:30; Sa 12:00", "name": "USPS COLLECTION BOX - PO LOBBY", "note": "ON 12/24 AND 12/31, THIS BOX MAY BE COLLECTED AS EARLY AS 12 NOON.", "nsi_id": "unitedstatespostalservice-a77078", "operator": "United States Postal Service", "operator:short": "USPS", "operator:type": "public", "operator:wikidata": "Q668687", "ref": "0875300094"}, "type": "Feature"}
{"dataset_attributes": {"@spider": "usps_collection_boxes", "spider:collection_time": "2023-11-25T08:23:32.202811"}, "geometry": {"coordinates": [-74.2462241669, 39.9725553858], "type": "Point"}, "id": "sjWewkHcZDnMv_9ThQgtvNAvRIE=", "properties": {"@spider": "usps_collection_boxes", "addr:city": "TOMS RIVER", "addr:country": "US", "addr:full": "730 JAMAICA BLVD STE 23", "addr:postcode": "08753", "addr:state": "NJ", "amenity": "post_box", "brand": "United States Postal Service", "brand:wikidata": "Q668687", "collection_times": "Mo-Fr 15:30; Sa 12:00", "name": "USPS COLLECTION BOX - PO LOBBY", "note": "ON 12/24 AND 12/31, THIS BOX MAY BE COLLECTED AS EARLY AS 12 NOON.", "nsi_id": "unitedstatespostalservice-a77078", "operator": "United States Postal Service", "operator:short": "USPS", "operator:type": "public", "operator:wikidata": "Q668687", "ref": "0875300095"}, "type": "Feature"}
{"dataset_attributes": {"@spider": "usps_collection_boxes", "spider:collection_time": "2023-11-25T08:23:32.202811"}, "geometry": {"coordinates": [-74.197196, 39.798144], "type": "Point"}, "id": "1O3k3IrI9vwyqck7QnCqX2OTWkk=", "properties": {"@spider": "usps_collection_boxes", "addr:city": "WARETOWN", "addr:country": "US", "addr:full": "529 ROUTE 9 STE 17", "addr:postcode": "08758", "addr:state": "NJ", "amenity": "post_box", "brand": "United States Postal Service", "brand:wikidata": "Q668687", "collection_times": "Mo-Fr 16:30; Sa 12:00", "name": "USPS COLLECTION BOX - BLUE BOX", "note": "ON 12/24 AND 12/31, THIS BOX MAY BE COLLECTED AS EARLY AS 12 NOON.", "nsi_id": "unitedstatespostalservice-a77078", "operator": "United States Postal Service", "operator:short": "USPS", "operator:type": "public", "operator:wikidata": "Q668687", "ref": "0875800001"}, "type": "Feature"}
{"dataset_attributes": {"@spider": "usps_collection_boxes", "spider:collection_time": "2023-11-25T08:23:32.202811"}, "geometry": {"coordinates": [-74.197196, 39.798144], "type": "Point"}, "id": "i5958kP_CohVANb05sopKsoJrE4=", "properties": {"@spider": "usps_collection_boxes", "addr:city": "WARETOWN", "addr:country": "US", "addr:full": "529 ROUTE 9 STE 17", "addr:postcode": "08758", "addr:state": "NJ", "amenity": "post_box", "brand": "United States Postal Service", "brand:wikidata": "Q668687", "collection_times": "Mo-Fr 16:30; Sa 12:00", "name": "USPS COLLECTION BOX - BLUE BOX", "note": "ON 12/24 AND 12/31, THIS BOX MAY BE COLLECTED AS EARLY AS 12 NOON.", "nsi_id": "unitedstatespostalservice-a77078", "operator": "United States Postal Service", "operator:short": "USPS", "operator:type": "public", "operator:wikidata": "Q668687", "ref": "0875800002"}, "type": "Feature"}
{"dataset_attributes": {"@spider": "usps_collection_boxes", "spider:collection_time": "2023-11-25T08:23:32.202811"}, "geometry": {"coordinates": [-74.197196, 39.798144], "type": "Point"}, "id": "P29vOwBpl9YUsn7C3apGYenub3E=", "properties": {"@spider": "usps_collection_boxes", "addr:city": "WARETOWN", "addr:country": "US", "addr:full": "529 ROUTE 9 STE 17", "addr:postcode": "08758", "addr:state": "NJ", "amenity": "post_box", "brand": "United States Postal Service", "brand:wikidata": "Q668687", "collection_times": "Mo-Fr 16:30; Sa 12:00", "name": "USPS COLLECTION BOX - PO LOBBY", "note": "ON 12/24 AND 12/31, THIS BOX MAY BE COLLECTED AS EARLY AS 12 NOON.", "nsi_id": "unitedstatespostalservice-a77078", "operator": "United States Postal Service", "operator:short": "USPS", "operator:type": "public", "operator:wikidata": "Q668687", "ref": "0875800003"}, "type": "Feature"}
{"dataset_attributes": {"@spider": "usps_collection_boxes", "spider:collection_time": "2023-11-25T08:23:32.202811"}, "geometry": {"coordinates": [-74.197277257, 39.798538448], "type": "Point"}, "id": "13y7z3GXPIH5pX94Hn6ASgnffvY=", "properties": {"@spider": "usps_collection_boxes", "addr:city": "WARETOWN", "addr:country": "US", "addr:full": "529 ROUTE 9 STE 17", "addr:postcode": "08758", "addr:state": "NJ", "amenity": "post_box", "brand": "United States Postal Service", "brand:wikidata": "Q668687", "collection_times": "Mo-Fr 16:30; Sa 12:00", "name": "USPS COLLECTION BOX - PO LOBBY", "note": "ON 12/24 AND 12/31, THIS BOX MAY BE COLLECTED AS EARLY AS 12 NOON.", "nsi_id": "unitedstatespostalservice-a77078", "operator": "United States Postal Service", "operator:short": "USPS", "operator:type": "public", "operator:wikidata": "Q668687", "ref": "0875800007"}, "type": "Feature"}
{"dataset_attributes": {"@spider": "usps_collection_boxes", "spider:collection_time": "2023-11-25T08:23:32.202811"}, "geometry": {"coordinates": [-74.379553, 39.954495], "type": "Point"}, "id": "l4UWtBOd2vTzqrfh6ky4TPKBjdI=", "properties": {"@spider": "usps_collection_boxes", "addr:city": "WHITING", "addr:country": "US", "addr:full": "108 LACEY RD", "addr:postcode": "08759", "addr:state": "NJ", "amenity": "post_box", "brand": "United States Postal Service", "brand:wikidata": "Q668687", "collection_times": "Mo-Fr 16:00; Sa 12:00", "name": "USPS COLLECTION BOX - PO LOBBY", "note": "ON 12/24 AND 12/31, THIS BOX MAY BE COLLECTED AS EARLY AS 12 NOON.", "nsi_id": "unitedstatespostalservice-a77078", "operator": "United States Postal Service", "operator:short": "USPS", "operator:type": "public", "operator:wikidata": "Q668687", "ref": "0875900001"}, "type": "Feature"}
{"dataset_attributes": {"@spider": "usps_collection_boxes", "spider:collection_time": "2023-11-25T08:23:32.202811"}, "geometry": {"coordinates": [-74.378860978, 39.954256083], "type": "Point"}, "id": "Ud_ieNlTtysPizlj1w5N4qNOb7I=", "properties": {"@spider": "usps_collection_boxes", "addr:city": "WHITING", "addr:country": "US", "addr:full": "108 LACEY RD STE 38", "addr:postcode": "08759", "addr:state": "NJ", "amenity": "post_box", "brand": "United States Postal Service", "brand:wikidata": "Q668687", "collection_times": "Mo-Fr 16:00; Sa 12:00", "name": "USPS COLLECTION BOX - PO LOBBY", "note": "ON 12/24 AND 12/31, THIS BOX MAY BE COLLECTED AS EARLY AS 12 NOON.", "nsi_id": "unitedstatespostalservice-a77078", "operator": "United States Postal Service", "operator:short": "USPS", "operator:type": "public", "operator:wikidata": "Q668687", "ref": "0875900006"}, "type": "Feature"}
