{"geometry": {"coordinates": [-74.881119, 40.640742], "type": "Point"}, "id": "QrdUGZw-65SYnlSpGRA6KaFngoc=", "properties": {"@spider": "usps_collection_boxes", "addr:city": "ANNANDALE", "addr:country": "US", "addr:full": "10 LOWER WEST ST", "addr:postcode": "08801", "addr:state": "NJ", "brand": "USPS", "collection_times": "Mo-Fr 16:00; Sa 12:00", "name": "USPS COLLECTION BOX - BLUE BOX", "note": "ON 12/24 AND 12/31, THIS BOX MAY BE COLLECTED AS EARLY AS 12 NOON.", "ref": "0880100001"}, "type": "Feature"}
{"geometry": {"coordinates": [-74.8832935462, 40.6404491557], "type": "Point"}, "id": "yRII9f4WSyindyhroMKVANkVNho=", "properties": {"@spider": "usps_collection_boxes", "addr:city": "ANNANDALE", "addr:country": "US", "addr:full": "67 BEAVER AVE", "addr:postcode": "08801", "addr:state": "NJ", "brand": "USPS", "collection_times": "Mo-Sa 10:00", "name": "USPS COLLECTION BOX - BLUE BOX", "ref": "0880100002"}, "type": "Feature"}
{"geometry": {"coordinates": [-74.8831799975, 40.6313299996], "type": "Point"}, "id": "aZR6zGlzuIJWTiBHGIuAi3jALOE=", "properties": {"@spider": "usps_collection_boxes", "addr:city": "ANNANDALE", "addr:country": "US", "addr:full": "1465 STATE ROUTE 31", "addr:postcode": "08801", "addr:state": "NJ", "brand": "USPS", "collection_times": "Mo-Sa 10:00", "name": "USPS COLLECTION BOX - BLUE BOX", "ref": "0880100003"}, "type": "Feature"}
{"geometry": {"coordinates": [-74.881108, 40.640821], "type": "Point"}, "id": "MwpruTA6Dv5Jem5aDyjZZ9yPT-g=", "properties": {"@spider": "usps_collection_boxes", "addr:city": "ANNANDALE", "addr:country": "US", "addr:full": "10 LOWER WEST ST", "addr:postcode": "08801", "addr:state": "NJ", "brand": "USPS", "collection_times": "Mo-Fr 17:00; Sa 12:00", "name": "USPS COLLECTION BOX - PO LOBBY", "note": "ON 12/24 AND 12/31, THIS BOX MAY BE COLLECTED AS EARLY AS 12 NOON.", "ref": "0880100004"}, "type": "Feature"}
{"geometry": {"coordinates": [-74.880943828, 40.640185216], "type": "Point"}, "id": "8x5mS4Ht1BImTLHRRwoTY4r8ynE=", "properties": {"@spider": "usps_collection_boxes", "addr:city": "ANNANDALE", "addr:country": "US", "addr:full": "10 LOWER WEST ST", "addr:postcode": "08801", "addr:state": "NJ", "brand": "USPS", "collection_times": "Mo-Fr 16:30; Sa 12:00", "name": "USPS COLLECTION BOX - PO LOBBY", "note": "ON 12/24 AND 12/31, THIS BOX MAY BE COLLECTED AS EARLY AS 12 NOON.", "ref": "0880100005"}, "type": "Feature"}
{"geometry": {"coordinates": [-75.013041, 40.700997], "type": "Point"}, "id": "fWIjM0pRTV4wWpiIfLqP4tq8cn8=", "properties": {"@spider": "usps_collection_boxes", "addr:city": "ASBURY", "addr:country": "US", "addr:full": "285 ASBURY ANDERSON RD", "addr:postcode": "08802", "addr:state": "NJ", "brand": "USPS", "collection_times": "Mo-Fr 16:30; Sa 12:00", "name": "USPS COLLECTION BOX - BLUE BOX", "note": "ON 12/24 AND 12/31, THIS BOX MAY BE COLLECTED AS EARLY AS 12 NOON.", "ref": "0880200001"}, "type": "Feature"}
{"geometry": {"coordinates": [-75.013041, 40.700997], "type": "Point"}, "id": "sftucvhaVJrG-8ERVZkZ8FJPLPg=", "properties": {"@spider": "usps_collection_boxes", "addr:city": "ASBURY", "addr:country": "US", "addr:full": "285 ASBURY ANDERSON RD", "addr:postcode": "08802", "addr:state": "NJ", "brand": "USPS", "collection_times": "Mo-Fr 16:30; Sa 12:00", "name": "USPS COLLECTION BOX - PO LOBBY", "note": "ON 12/24 AND 12/31, THIS BOX MAY BE COLLECTED AS EARLY AS 12 NOON.", "ref": "0880200002"}, "type": "Feature"}
{"geometry": {"coordinates": [-75.013039762, 40.700994193], "type": "Point"}, "id": "63bBi8gOgUsgVHP6ZGrIGZRqegU=", "properties": {"@spider": "usps_collection_boxes", "addr:city": "ASBURY", "addr:country": "US", "addr:full": "285 ASBURY ANDERSON RD", "addr:postcode": "08802", "addr:state": "NJ", "brand": "USPS", "collection_times": "Mo-Fr 16:30; Sa 12:00", "name": "USPS COLLECTION BOX - PO LOBBY", "note": "ON 12/24 AND 12/31, THIS BOX MAY BE COLLECTED AS EARLY AS 12 NOON.", "ref": "0880200003"}, "type": "Feature"}
{"geometry": {"coordinates": [-75.0064950862, 40.5219741595], "type": "Point"}, "id": "wo4VpHIAKEwBnxQogFjMlrTjz2A=", "properties": {"@spider": "usps_collection_boxes", "addr:city": "BAPTISTOWN", "addr:country": "US", "addr:full": "1031 COUNTY ROAD 519", "addr:postcode": "08803", "addr:state": "NJ", "brand": "USPS", "collection_times": "Mo-Fr 16:30; Sa 11:00", "name": "USPS COLLECTION BOX - BLUE BOX", "note": "ON 12/24 AND 12/31, THIS BOX MAY BE COLLECTED AS EARLY AS 12 NOON.", "ref": "0880300001"}, "type": "Feature"}
{"geometry": {"coordinates": [-75.0064950862, 40.5219741595], "type": "Point"}, "id": "Lzs7gvhJU2PUo35bMXgkEfVUHH4=", "properties": {"@spider": "usps_collection_boxes", "addr:city": "BAPTISTOWN", "addr:country": "US", "addr:full": "1031 COUNTY ROAD 519", "addr:postcode": "08803", "addr:state": "NJ", "brand": "USPS", "collection_times": "Mo-Fr 16:30; Sa 12:00", "name": "USPS COLLECTION BOX - PO LOBBY", "note": "ON 12/24 AND 12/31, THIS BOX MAY BE COLLECTED AS EARLY AS 12 NOON.", "ref": "0880300002"}, "type": "Feature"}
{"geometry": {"coordinates": [-75.005989112, 40.523678948], "type": "Point"}, "id": "mXm3qxktsw8420XBIU6aOjWsbwo=", "properties": {"@spider": "usps_collection_boxes", "addr:city": "BAPTISTOWN", "addr:country": "US", "addr:full": "1031 COUNTY ROAD 519", "addr:postcode": "08803", "addr:state": "NJ", "brand": "USPS", "collection_times": "Mo-Fr 16:30; Sa 12:00", "name": "USPS COLLECTION BOX - PO LOBBY", "note": "ON 12/24 AND 12/31, THIS BOX MAY BE COLLECTED AS EARLY AS 12 NOON.", "ref": "0880300003"}, "type": "Feature"}
{"geometry": {"coordinates": [-75.0840628068, 40.6546432379], "type": "Point"}, "id": "gbKK9Rx45L8InwJAR8YhLWfX9x0=", "properties": {"@spider": "usps_collection_boxes", "addr:city": "BLOOMSBURY", "addr:country": "US", "addr:full": "53 CENTER ST", "addr:postcode": "08804", "addr:state": "NJ", "brand": "USPS", "collection_times": "Mo-Fr 16:30; Sa 13:00", "name": "USPS COLLECTION BOX - BLUE BOX", "note": "ON 12/24 AND 12/31, THIS BOX MAY BE COLLECTED AS EARLY AS 12 NOON.", "ref": "0880400001"}, "type": "Feature"}
{"geometry": {"coordinates": [-75.0727757, 40.659478], "type": "Point"}, "id": "v3um0HkQP60DFPkUrbEGUG-T448=", "properties": {"@spider": "usps_collection_boxes", "addr:city": "BLOOMSBURY", "addr:country": "US", "addr:full": "979 STATE ROUTE 173", "addr:postcode": "08804", "addr:state": "NJ", "brand": "USPS", "collection_times": "Mo-Sa 11:00", "name": "USPS COLLECTION BOX - BLUE BOX", "ref": "0880400002"}, "type": "Feature"}
{"geometry": {"coordinates": [-75.084033, 40.654608], "type": "Point"}, "id": "jAuja6q6wzTtlbvrHrOO7ZVrOis=", "properties": {"@spider": "usps_collection_boxes", "addr:city": "BLOOMSBURY", "addr:country": "US", "addr:full": "53 CENTER ST", "addr:postcode": "08804", "addr:state": "NJ", "brand": "USPS", "collection_times": "Mo-Fr 16:30; Sa 12:00", "name": "USPS COLLECTION BOX - PO LOBBY", "note": "ON 12/24 AND 12/31, THIS BOX MAY BE COLLECTED AS EARLY AS 12 NOON.", "ref": "0880400003"}, "type": "Feature"}
{"geometry": {"coordinates": [-75.084062807, 40.654643238], "type": "Point"}, "id": "cX82fX0l39veyeKu09IaYhW9Sk0=", "properties": {"@spider": "usps_collection_boxes", "addr:city": "BLOOMSBURY", "addr:country": "US", "addr:full": "53 CENTER ST", "addr:postcode": "08804", "addr:state": "NJ", "brand": "USPS", "collection_times": "Mo-Fr 16:30; Sa 12:00", "name": "USPS COLLECTION BOX - PO LOBBY", "note": "ON 12/24 AND 12/31, THIS BOX MAY BE COLLECTED AS EARLY AS 12 NOON.", "ref": "0880400004"}, "type": "Feature"}
{"geometry": {"coordinates": [-75.051264, 40.731447], "type": "Point"}, "id": "uJ7DcysFrRU45xnUErKuHO3Kww0=", "properties": {"@spider": "usps_collection_boxes", "addr:city": "BROADWAY", "addr:country": "US", "addr:full": "12 ASBURY RD", "addr:postcode": "08808", "addr:state": "NJ", "brand": "USPS", "collection_times": "Mo-Fr 16:15; Sa 11:45", "name": "USPS COLLECTION BOX - BLUE BOX", "note": "ON 12/24 AND 12/31, THIS BOX MAY BE COLLECTED AS EARLY AS 12 NOON.", "ref": "0880800001"}, "type": "Feature"}
{"geometry": {"coordinates": [-75.051264, 40.731447], "type": "Point"}, "id": "MntH55wSUlfKAvOMPUUZSHLdwnY=", "properties": {"@spider": "usps_collection_boxes", "addr:city": "BROADWAY", "addr:country": "US", "addr:full": "12 ASBURY RD", "addr:postcode": "08808", "addr:state": "NJ", "brand": "USPS", "collection_times": "Mo-Fr 16:30; Sa 12:00", "name": "USPS COLLECTION BOX - PO LOBBY", "note": "ON 12/24 AND 12/31, THIS BOX MAY BE COLLECTED AS EARLY AS 12 NOON.", "ref": "0880800002"}, "type": "Feature"}
{"geometry": {"coordinates": [-74.871765196, 40.86442204], "type": "Point"}, "id": "cYfH0CMFX_8pcl3gzi_bAVkCmR8=", "properties": {"@spider": "usps_collection_boxes", "addr:city": "BROADWAY", "addr:country": "US", "addr:full": "12 ASBURY RD", "addr:postcode": "08808", "addr:state": "NJ", "brand": "USPS", "collection_times": "Mo-Fr 16:30; Sa 12:00", "name": "USPS COLLECTION BOX - PO LOBBY", "note": "ON 12/24 AND 12/31, THIS BOX MAY BE COLLECTED AS EARLY AS 12 NOON.", "ref": "0880800003"}, "type": "Feature"}
{"geometry": {"coordinates": [-74.905934, 40.638075], "type": "Point"}, "id": "dcluDulhDRlAsoj30bjvNhfd3xU=", "properties": {"@spider": "usps_collection_boxes", "addr:city": "CLINTON", "addr:country": "US", "addr:full": "37 ROUTE 22", "addr:postcode": "08809", "addr:state": "NJ", "brand": "USPS", "collection_times": "Mo-Sa 09:30", "name": "USPS COLLECTION BOX - BLUE BOX", "ref": "0880900003"}, "type": "Feature"}
{"geometry": {"coordinates": [-74.910688, 40.637834], "type": "Point"}, "id": "I1kHqdWNKt0tJHO7n-1NgwZo6y8=", "properties": {"@spider": "usps_collection_boxes", "addr:city": "CLINTON", "addr:country": "US", "addr:full": "27 CENTER ST", "addr:postcode": "08809", "addr:state": "NJ", "brand": "USPS", "collection_times": "Mo-Sa 11:00", "name": "USPS COLLECTION BOX - BLUE BOX", "ref": "0880900004"}, "type": "Feature"}
{"geometry": {"coordinates": [-74.9197237913, 40.6255629272], "type": "Point"}, "id": "4or95wrbDtIi3D90hfbftghypc4=", "properties": {"@spider": "usps_collection_boxes", "addr:city": "CLINTON", "addr:country": "US", "addr:full": "50 WALMART PLZ", "addr:postcode": "08809", "addr:state": "NJ", "brand": "USPS", "collection_times": "Mo-Sa 10:00", "name": "USPS COLLECTION BOX - BLUE BOX", "ref": "0880900007"}, "type": "Feature"}
{"geometry": {"coordinates": [-74.9111156, 40.636526], "type": "Point"}, "id": "G1AbCdANoUF4xN4whKnrzjgsDoQ=", "properties": {"@spider": "usps_collection_boxes", "addr:city": "CLINTON", "addr:country": "US", "addr:full": "30 MAIN ST", "addr:postcode": "08809", "addr:state": "NJ", "brand": "USPS", "collection_times": "Mo-Sa 11:00", "name": "USPS COLLECTION BOX - BLUE BOX", "ref": "0880900009"}, "type": "Feature"}
{"geometry": {"coordinates": [-74.9085192, 40.637565], "type": "Point"}, "id": "5qQSNPqf7nR_Qp0bTZsCuqFcjhY=", "properties": {"@spider": "usps_collection_boxes", "addr:city": "CLINTON", "addr:country": "US", "addr:full": "19 E MAIN ST", "addr:postcode": "08809", "addr:state": "NJ", "brand": "USPS", "collection_times": "Mo-Fr 17:00; Sa 16:00", "name": "USPS COLLECTION BOX - BLUE BOX", "note": "ON 12/24 AND 12/31, THIS BOX MAY BE COLLECTED AS EARLY AS 12 NOON.", "ref": "0880900010"}, "type": "Feature"}
{"geometry": {"coordinates": [-74.9085107, 40.637569], "type": "Point"}, "id": "KVjdVea3JiJrbwwYlyLCIRhPoQw=", "properties": {"@spider": "usps_collection_boxes", "addr:city": "CLINTON", "addr:country": "US", "addr:full": "19 E MAIN ST", "addr:postcode": "08809", "addr:state": "NJ", "brand": "USPS", "collection_times": "Mo-Fr 17:00; Sa 16:00", "name": "USPS COLLECTION BOX - BLUE BOX", "note": "ON 12/24 AND 12/31, THIS BOX MAY BE COLLECTED AS EARLY AS 12 NOON.", "ref": "0880900011"}, "type": "Feature"}
{"geometry": {"coordinates": [-74.9116683, 40.658602], "type": "Point"}, "id": "kfFtrGeB7-HcJs8QKpkynySDTeM=", "properties": {"@spider": "usps_collection_boxes", "addr:city": "CLINTON", "addr:country": "US", "addr:full": "1802 STATE ROUTE 31", "addr:postcode": "08809", "addr:state": "NJ", "brand": "USPS", "collection_times": "Mo-Sa 11:00", "name": "USPS COLLECTION BOX - BLUE BOX", "ref": "0880900013"}, "type": "Feature"}
{"geometry": {"coordinates": [-74.8961111, 40.638895], "type": "Point"}, "id": "5vI7QzpkTLtX8VxwmwykRX2YGUc=", "properties": {"@spider": "usps_collection_boxes", "addr:city": "CLINTON", "addr:country": "US", "addr:full": "186 CENTER ST", "addr:postcode": "08809", "addr:state": "NJ", "brand": "USPS", "collection_times": "Mo-Sa 11:00", "name": "USPS COLLECTION BOX - BLUE BOX", "ref": "0880900014"}, "type": "Feature"}
{"geometry": {"coordinates": [-74.9083489, 40.637408], "type": "Point"}, "id": "Itu5BU4vYk43K60Dcui7V5FP5t8=", "properties": {"@spider": "usps_collection_boxes", "addr:city": "CLINTON", "addr:country": "US", "addr:full": "24 E MAIN ST", "addr:postcode": "08809", "addr:state": "NJ", "brand": "USPS", "collection_times": "Mo-Fr 17:00; Sa 16:00", "name": "USPS COLLECTION BOX - PO LOBBY", "note": "ON 12/24 AND 12/31, THIS BOX MAY BE COLLECTED AS EARLY AS 12 NOON.", "ref": "0880900015"}, "type": "Feature"}
{"geometry": {"coordinates": [-74.90838424, 40.637495568], "type": "Point"}, "id": "qUGUvmFPpXQeyOyWjAqvuLufSw8=", "properties": {"@spider": "usps_collection_boxes", "addr:city": "CLINTON", "addr:country": "US", "addr:full": "24 E MAIN ST", "addr:postcode": "08809", "addr:state": "NJ", "brand": "USPS", "collection_times": "Mo-Fr 16:30; Sa 16:00", "name": "USPS COLLECTION BOX - PO LOBBY", "note": "ON 12/24 AND 12/31, THIS BOX MAY BE COLLECTED AS EARLY AS 12 NOON.", "ref": "0880900018"}, "type": "Feature"}
{"geometry": {"coordinates": [-74.5107015723, 40.3732384593], "type": "Point"}, "id": "zU8OHpuTvVAOjl7pI7sgeKcs2MM=", "properties": {"@spider": "usps_collection_boxes", "addr:city": "DAYTON", "addr:country": "US", "addr:full": "347 GEORGES RD", "addr:postcode": "08810", "addr:state": "NJ", "brand": "USPS", "collection_times": "Mo-Fr 17:00; Sa 15:00", "name": "USPS COLLECTION BOX - BLUE BOX", "note": "ON 12/24 AND 12/31, THIS BOX MAY BE COLLECTED AS EARLY AS 12 NOON.", "ref": "0881000000"}, "type": "Feature"}
{"geometry": {"coordinates": [-74.511809, 40.374314], "type": "Point"}, "id": "NBbDU8259WGaO4jwEGbT7UA0I8o=", "properties": {"@spider": "usps_collection_boxes", "addr:city": "DAYTON", "addr:country": "US", "addr:full": "365 GEORGES RD", "addr:postcode": "08810", "addr:state": "NJ", "brand": "USPS", "collection_times": "Mo-Sa 11:00", "name": "USPS COLLECTION BOX - BLUE BOX", "ref": "0881000001"}, "type": "Feature"}
{"geometry": {"coordinates": [-74.5153807, 40.379968], "type": "Point"}, "id": "VqkiwVA_6FatbMxzY7t1d3cjfMU=", "properties": {"@spider": "usps_collection_boxes", "addr:city": "DAYTON", "addr:country": "US", "addr:full": "B1 GEORGES RD", "addr:postcode": "08810", "addr:state": "NJ", "brand": "USPS", "collection_times": "Mo-Sa 11:00", "name": "USPS COLLECTION BOX - BLUE BOX", "ref": "0881000003"}, "type": "Feature"}
{"geometry": {"coordinates": [-74.510650793, 40.373145022], "type": "Point"}, "id": "euIUzzZkPHbuFJSrUDZ1g2LLeno=", "properties": {"@spider": "usps_collection_boxes", "addr:city": "DAYTON", "addr:country": "US", "addr:full": "347 GEORGES RD", "addr:postcode": "08810", "addr:state": "NJ", "brand": "USPS", "collection_times": "Mo-Fr 16:30; Sa 12:00", "name": "USPS COLLECTION BOX - PO LOBBY", "note": "ON 12/24 AND 12/31, THIS BOX MAY BE COLLECTED AS EARLY AS 12 NOON.", "ref": "0881000005"}, "type": "Feature"}
{"geometry": {"coordinates": [-74.510650793, 40.373145022], "type": "Point"}, "id": "BvftCJQpOJf3agV6N1iBonyKgaQ=", "properties": {"@spider": "usps_collection_boxes", "addr:city": "DAYTON", "addr:country": "US", "addr:full": "347 GEORGES RD", "addr:postcode": "08810", "addr:state": "NJ", "brand": "USPS", "collection_times": "Mo-Fr 16:30; Sa 12:00", "name": "USPS COLLECTION BOX - PO LOBBY", "note": "ON 12/24 AND 12/31, THIS BOX MAY BE COLLECTED AS EARLY AS 12 NOON.", "ref": "0881000006"}, "type": "Feature"}
{"geometry": {"coordinates": [-74.8606304, 40.531655], "type": "Point"}, "id": "AXHVkPoKeNcmN5IN7HXfZAFIHDU=", "properties": {"@spider": "usps_collection_boxes", "addr:city": "FLEMINGTON", "addr:country": "US", "addr:full": "2100 WESCOTT DR", "addr:postcode": "08822", "addr:state": "NJ", "brand": "USPS", "collection_times": "Mo-Sa 11:00", "name": "USPS COLLECTION BOX - BLUE BOX", "ref": "0882200002"}, "type": "Feature"}
{"geometry": {"coordinates": [-74.8435647, 40.504526], "type": "Point"}, "id": "A_A-SD5JnPcMCkraDMjPUw3f4BE=", "properties": {"@spider": "usps_collection_boxes", "addr:city": "FLEMINGTON", "addr:country": "US", "addr:full": "8 READING RD", "addr:postcode": "08822", "addr:state": "NJ", "brand": "USPS", "collection_times": "Mo-Sa 11:00", "name": "USPS COLLECTION BOX - BLUE BOX", "ref": "0882200004"}, "type": "Feature"}
{"geometry": {"coordinates": [-74.8366738, 40.494494], "type": "Point"}, "id": "THupbSWhe7Zen09yuDIsbUmcoUc=", "properties": {"@spider": "usps_collection_boxes", "addr:city": "FLEMINGTON", "addr:country": "US", "addr:full": "1 SUNRIDGE DR", "addr:postcode": "08822", "addr:state": "NJ", "brand": "USPS", "collection_times": "Mo-Sa 11:00", "name": "USPS COLLECTION BOX - BLUE BOX", "ref": "0882200006"}, "type": "Feature"}
{"geometry": {"coordinates": [-74.8572483, 40.500393], "type": "Point"}, "id": "d_S9QJrgQSWcXAyjnAmgnVJu9Fo=", "properties": {"@spider": "usps_collection_boxes", "addr:city": "FLEMINGTON", "addr:country": "US", "addr:full": "10 REAVILLE AVE", "addr:postcode": "08822", "addr:state": "NJ", "brand": "USPS", "collection_times": "Mo-Sa 11:00", "name": "USPS COLLECTION BOX - BLUE BOX", "ref": "0882200008"}, "type": "Feature"}
{"geometry": {"coordinates": [-74.8555843, 40.503544], "type": "Point"}, "id": "hanA9KsypnV_Hv0QgyGhGneYhAI=", "properties": {"@spider": "usps_collection_boxes", "addr:city": "FLEMINGTON", "addr:country": "US", "addr:full": "155 BROAD ST", "addr:postcode": "08822", "addr:state": "NJ", "brand": "USPS", "collection_times": "Mo-Sa 11:00", "name": "USPS COLLECTION BOX - BLUE BOX", "ref": "0882200011"}, "type": "Feature"}
{"geometry": {"coordinates": [-74.8568845, 40.513185], "type": "Point"}, "id": "q5OlZVux5VZ61WYKbllPjrUeMPc=", "properties": {"@spider": "usps_collection_boxes", "addr:city": "FLEMINGTON", "addr:country": "US", "addr:full": "31 BROAD ST", "addr:postcode": "08822", "addr:state": "NJ", "brand": "USPS", "collection_times": "Mo-Sa 11:00", "name": "USPS COLLECTION BOX - BLUE BOX", "ref": "0882200013"}, "type": "Feature"}
{"geometry": {"coordinates": [-74.8584666, 40.50555], "type": "Point"}, "id": "VjR6A9-EDeliwsbMariJ_zFEXmE=", "properties": {"@spider": "usps_collection_boxes", "addr:city": "FLEMINGTON", "addr:country": "US", "addr:full": "171 MAIN ST", "addr:postcode": "08822", "addr:state": "NJ", "brand": "USPS", "collection_times": "Mo-Sa 11:00", "name": "USPS COLLECTION BOX - BLUE BOX", "ref": "0882200016"}, "type": "Feature"}
{"geometry": {"coordinates": [-74.8602949, 40.514843], "type": "Point"}, "id": "4tsiLnSWhuwjnTabqdTB_fB38ds=", "properties": {"@spider": "usps_collection_boxes", "addr:city": "FLEMINGTON", "addr:country": "US", "addr:full": "38 N MAIN ST", "addr:postcode": "08822", "addr:state": "NJ", "brand": "USPS", "collection_times": "Mo-Sa 11:30", "name": "USPS COLLECTION BOX - BLUE BOX", "ref": "0882200021"}, "type": "Feature"}
{"geometry": {"coordinates": [-74.8635605, 40.516757], "type": "Point"}, "id": "4CCJwKeqzKK0BPnkjgYL4v-mQoA=", "properties": {"@spider": "usps_collection_boxes", "addr:city": "FLEMINGTON", "addr:country": "US", "addr:full": "65 N MAIN ST", "addr:postcode": "08822", "addr:state": "NJ", "brand": "USPS", "collection_times": "Mo-Sa 11:30", "name": "USPS COLLECTION BOX - BLUE BOX", "ref": "0882200023"}, "type": "Feature"}
{"geometry": {"coordinates": [-74.8615509, 40.51439], "type": "Point"}, "id": "74CzknN4jfE7gIVYO4r-wYzB9ew=", "properties": {"@spider": "usps_collection_boxes", "addr:city": "FLEMINGTON", "addr:country": "US", "addr:full": "84 PARK AVE", "addr:postcode": "08822", "addr:state": "NJ", "brand": "USPS", "collection_times": "Mo-Sa 11:00", "name": "USPS COLLECTION BOX - BLUE BOX", "ref": "0882200024"}, "type": "Feature"}
{"geometry": {"coordinates": [-74.8571857, 40.522354], "type": "Point"}, "id": "r4QxMS2Q4AqIBMlW0yeunS861vM=", "properties": {"@spider": "usps_collection_boxes", "addr:city": "FLEMINGTON", "addr:country": "US", "addr:full": "4 WALTER E FORAN BLVD", "addr:postcode": "08822", "addr:state": "NJ", "brand": "USPS", "collection_times": "Mo-Sa 11:30", "name": "USPS COLLECTION BOX - BLUE BOX", "ref": "0882200025"}, "type": "Feature"}
{"geometry": {"coordinates": [-74.859137205, 40.5118879], "type": "Point"}, "id": "m4nJCJmRpUgoE9bNUuou9TpYb4I=", "properties": {"@spider": "usps_collection_boxes", "addr:city": "FLEMINGTON", "addr:country": "US", "addr:full": "15 MAIN ST", "addr:postcode": "08822", "addr:state": "NJ", "brand": "USPS", "collection_times": "Mo-Fr 17:00; Sa 15:00", "name": "USPS COLLECTION BOX - BLUE BOX", "note": "ON 12/24 AND 12/31, THIS BOX MAY BE COLLECTED AS EARLY AS 12 NOON.", "ref": "0882200027"}, "type": "Feature"}
{"geometry": {"coordinates": [-74.859137205, 40.5118879], "type": "Point"}, "id": "sy62d3kexTOBBa4hJkdWwXHXp8Y=", "properties": {"@spider": "usps_collection_boxes", "addr:city": "FLEMINGTON", "addr:country": "US", "addr:full": "15 MAIN ST", "addr:postcode": "08822", "addr:state": "NJ", "brand": "USPS", "collection_times": "Mo-Fr 17:00; Sa 15:00", "name": "USPS COLLECTION BOX - BLUE BOX", "note": "ON 12/24 AND 12/31, THIS BOX MAY BE COLLECTED AS EARLY AS 12 NOON.", "ref": "0882200028"}, "type": "Feature"}
{"geometry": {"coordinates": [-74.859137205, 40.5118879], "type": "Point"}, "id": "d7kELbPiM0x4JHyNCgqHOoioAwI=", "properties": {"@spider": "usps_collection_boxes", "addr:city": "FLEMINGTON", "addr:country": "US", "addr:full": "15 MAIN ST", "addr:postcode": "08822", "addr:state": "NJ", "brand": "USPS", "collection_times": "Mo-Fr 17:00; Sa 15:00", "name": "USPS COLLECTION BOX - EXPRESS", "note": "ON 12/24 AND 12/31, THIS BOX MAY BE COLLECTED AS EARLY AS 12 NOON.", "ref": "0882200030"}, "type": "Feature"}
{"geometry": {"coordinates": [-74.859137205, 40.5118879], "type": "Point"}, "id": "Pu3-RD-7QLFpdAv7eVeQo4zD0ls=", "properties": {"@spider": "usps_collection_boxes", "addr:city": "FLEMINGTON", "addr:country": "US", "addr:full": "15 MAIN ST", "addr:postcode": "08822", "addr:state": "NJ", "brand": "USPS", "collection_times": "Mo-Fr 17:00; Sa 15:00", "name": "USPS COLLECTION BOX - BLUE BOX", "note": "ON 12/24 AND 12/31, THIS BOX MAY BE COLLECTED AS EARLY AS 12 NOON.", "ref": "0882200031"}, "type": "Feature"}
{"geometry": {"coordinates": [-74.8525686, 40.513661], "type": "Point"}, "id": "JT7EEbCurJucUErmE5xp8m5cXW0=", "properties": {"@spider": "usps_collection_boxes", "addr:city": "FLEMINGTON", "addr:country": "US", "addr:full": "62 PENNSYLVANIA AVE", "addr:postcode": "08822", "addr:state": "NJ", "brand": "USPS", "collection_times": "Mo-Sa 11:00", "name": "USPS COLLECTION BOX - BLUE BOX", "ref": "0882200034"}, "type": "Feature"}
{"geometry": {"coordinates": [-74.8556078, 40.541733], "type": "Point"}, "id": "DXhHv2AaNfIK3RE2Qh-W77GYXbI=", "properties": {"@spider": "usps_collection_boxes", "addr:city": "FLEMINGTON", "addr:country": "US", "addr:full": "334 STATE ROUTE 31", "addr:postcode": "08822", "addr:state": "NJ", "brand": "USPS", "collection_times": "Mo-Sa 11:00", "name": "USPS COLLECTION BOX - BLUE BOX", "ref": "0882200037"}, "type": "Feature"}
{"geometry": {"coordinates": [-74.8602016, 40.530376], "type": "Point"}, "id": "ThyZteEP4PkmVT98_17uVEjsMCM=", "properties": {"@spider": "usps_collection_boxes", "addr:city": "FLEMINGTON", "addr:country": "US", "addr:full": "1100 WESTCOTT DR", "addr:postcode": "08822", "addr:state": "NJ", "brand": "USPS", "collection_times": "Mo-Sa 11:00", "name": "USPS COLLECTION BOX - BLUE BOX", "ref": "0882200038"}, "type": "Feature"}
{"geometry": {"coordinates": [-74.8581999, 40.495852], "type": "Point"}, "id": "1HndW1vbyjBOWAUz3su8gFxJCas=", "properties": {"@spider": "usps_collection_boxes", "addr:city": "FLEMINGTON", "addr:country": "US", "addr:full": "260 ROUTE 202 & 31", "addr:postcode": "08822", "addr:state": "NJ", "brand": "USPS", "collection_times": "Mo-Sa 11:30", "name": "USPS COLLECTION BOX - BLUE BOX", "ref": "0882200039"}, "type": "Feature"}
{"geometry": {"coordinates": [-74.859137205, 40.5118879], "type": "Point"}, "id": "fwtdlcuLGylFhQY7Kq4x8CE4W2s=", "properties": {"@spider": "usps_collection_boxes", "addr:city": "FLEMINGTON", "addr:country": "US", "addr:full": "15 MAIN ST", "addr:postcode": "08822", "addr:state": "NJ", "brand": "USPS", "collection_times": "Mo-Fr 17:00; Sa 13:00", "name": "USPS COLLECTION BOX - PO LOBBY", "note": "ON 12/24 AND 12/31, THIS BOX MAY BE COLLECTED AS EARLY AS 12 NOON.", "ref": "0882200042"}, "type": "Feature"}
{"geometry": {"coordinates": [-74.859137205, 40.5118879], "type": "Point"}, "id": "pWDxny6AjsuHHiTXLubG6lC18CY=", "properties": {"@spider": "usps_collection_boxes", "addr:city": "FLEMINGTON", "addr:country": "US", "addr:full": "15 MAIN ST", "addr:postcode": "08822", "addr:state": "NJ", "brand": "USPS", "collection_times": "Mo-Fr 17:00; Sa 13:00", "name": "USPS COLLECTION BOX - PO LOBBY", "note": "ON 12/24 AND 12/31, THIS BOX MAY BE COLLECTED AS EARLY AS 12 NOON.", "ref": "0882200048"}, "type": "Feature"}
{"geometry": {"coordinates": [-74.5452049, 40.43375], "type": "Point"}, "id": "GNM_pUX53URxgUKG2eyVdACBYoA=", "properties": {"@spider": "usps_collection_boxes", "addr:city": "KENDALL PARK", "addr:country": "US", "addr:full": "3176 STATE ROUTE 27", "addr:postcode": "08824", "addr:state": "NJ", "brand": "USPS", "collection_times": "Mo-Sa 10:00", "name": "USPS COLLECTION BOX - BLUE BOX", "ref": "0882400006"}, "type": "Feature"}
{"geometry": {"coordinates": [-74.553439, 40.428847], "type": "Point"}, "id": "tbK6jY1hgKOAhc_ZxHThrGYJ0ZA=", "properties": {"@spider": "usps_collection_boxes", "addr:city": "KENDALL PARK", "addr:country": "US", "addr:full": "12 STILLWELL RD", "addr:postcode": "08824", "addr:state": "NJ", "brand": "USPS", "collection_times": "Mo-Sa 10:00", "name": "USPS COLLECTION BOX - BLUE BOX", "ref": "0882400007"}, "type": "Feature"}
{"geometry": {"coordinates": [-74.5548912, 40.419546], "type": "Point"}, "id": "JtCEY3WLFloQ2H119xhUQSj2vAo=", "properties": {"@spider": "usps_collection_boxes", "addr:city": "KENDALL PARK", "addr:country": "US", "addr:full": "107 STILLWELL RD", "addr:postcode": "08824", "addr:state": "NJ", "brand": "USPS", "collection_times": "Mo-Sa 10:00", "name": "USPS COLLECTION BOX - BLUE BOX", "ref": "0882400008"}, "type": "Feature"}
{"geometry": {"coordinates": [-74.5642347, 40.414482], "type": "Point"}, "id": "dPtxkM2PpaJLRwbPXca8FyQ1TjM=", "properties": {"@spider": "usps_collection_boxes", "addr:city": "KENDALL PARK", "addr:country": "US", "addr:full": "100 KENDALL RD", "addr:postcode": "08824", "addr:state": "NJ", "brand": "USPS", "collection_times": "Mo-Sa 10:00", "name": "USPS COLLECTION BOX - BLUE BOX", "ref": "0882400009"}, "type": "Feature"}
{"geometry": {"coordinates": [-74.5669127, 40.425207], "type": "Point"}, "id": "ZbHPAhUr6oBccdejwy2i91oyB38=", "properties": {"@spider": "usps_collection_boxes", "addr:city": "KENDALL PARK", "addr:country": "US", "addr:full": "3500 BARRETT DR", "addr:postcode": "08824", "addr:state": "NJ", "brand": "USPS", "collection_times": "Mo-Sa 10:30", "name": "USPS COLLECTION BOX - BLUE BOX", "ref": "0882400016"}, "type": "Feature"}
{"geometry": {"coordinates": [-74.5650459, 40.425666], "type": "Point"}, "id": "bhZfPESL-4ahhasRQMzLihl5v84=", "properties": {"@spider": "usps_collection_boxes", "addr:city": "KENDALL PARK", "addr:country": "US", "addr:full": "4 STANWORTH RD", "addr:postcode": "08824", "addr:state": "NJ", "brand": "USPS", "collection_times": "Mo-Sa 10:00", "name": "USPS COLLECTION BOX - BLUE BOX", "ref": "0882400017"}, "type": "Feature"}
{"geometry": {"coordinates": [-74.5623116, 40.428079], "type": "Point"}, "id": "Zjj7s7MXA1Sg4tCCVKWQEEO0CgY=", "properties": {"@spider": "usps_collection_boxes", "addr:city": "KENDALL PARK", "addr:country": "US", "addr:full": "3391 STATE ROUTE 27", "addr:postcode": "08824", "addr:state": "NJ", "brand": "USPS", "collection_times": "Mo-Sa 10:00", "name": "USPS COLLECTION BOX - BLUE BOX", "ref": "0882400024"}, "type": "Feature"}
{"geometry": {"coordinates": [-75.061161, 40.525435], "type": "Point"}, "id": "qHevCKGC9RwOU0uZJJGXJyCIRg4=", "properties": {"@spider": "usps_collection_boxes", "addr:city": "FRENCHTOWN", "addr:country": "US", "addr:full": "16 TRENTON AVE", "addr:postcode": "08825", "addr:state": "NJ", "brand": "USPS", "collection_times": "Mo-Fr 16:30; Sa 15:00", "name": "USPS COLLECTION BOX - BLUE BOX", "note": "ON 12/24 AND 12/31, THIS BOX MAY BE COLLECTED AS EARLY AS 12 NOON.", "ref": "0882500003"}, "type": "Feature"}
{"geometry": {"coordinates": [-75.061553, 40.526459], "type": "Point"}, "id": "-85Huuk-PaHfy38pmzjbu1Lw7uk=", "properties": {"@spider": "usps_collection_boxes", "addr:city": "FRENCHTOWN", "addr:country": "US", "addr:full": "29 BRIDGE ST", "addr:postcode": "08825", "addr:state": "NJ", "brand": "USPS", "collection_times": "Mo-Fr 16:00; Sa 12:00", "name": "USPS COLLECTION BOX - BLUE BOX", "note": "ON 12/24 AND 12/31, THIS BOX MAY BE COLLECTED AS EARLY AS 12 NOON.", "ref": "0882500004"}, "type": "Feature"}
{"geometry": {"coordinates": [-75.061161, 40.525435], "type": "Point"}, "id": "UDOkaKj44TuG1ABs9lq7-eO3nEk=", "properties": {"@spider": "usps_collection_boxes", "addr:city": "FRENCHTOWN", "addr:country": "US", "addr:full": "16 TRENTON AVE", "addr:postcode": "08825", "addr:state": "NJ", "brand": "USPS", "collection_times": "Mo-Fr 16:30; Sa 12:00", "name": "USPS COLLECTION BOX - PO LOBBY", "note": "ON 12/24 AND 12/31, THIS BOX MAY BE COLLECTED AS EARLY AS 12 NOON.", "ref": "0882500005"}, "type": "Feature"}
{"geometry": {"coordinates": [-75.061187896, 40.525446276], "type": "Point"}, "id": "J72a_u24G_v1gOjX2XuHAO26CDo=", "properties": {"@spider": "usps_collection_boxes", "addr:city": "FRENCHTOWN", "addr:country": "US", "addr:full": "16 TRENTON AVE", "addr:postcode": "08825", "addr:state": "NJ", "brand": "USPS", "collection_times": "Mo-Fr 16:30; Sa 12:00", "name": "USPS COLLECTION BOX - PO LOBBY", "note": "ON 12/24 AND 12/31, THIS BOX MAY BE COLLECTED AS EARLY AS 12 NOON.", "ref": "0882500006"}, "type": "Feature"}
{"geometry": {"coordinates": [-74.9392002592, 40.6941292045], "type": "Point"}, "id": "HUPIzuq8cdPc3PQZC9AjJfZ7qSI=", "properties": {"@spider": "usps_collection_boxes", "addr:city": "GLEN GARDNER", "addr:country": "US", "addr:full": "64 MAIN ST", "addr:postcode": "08826", "addr:state": "NJ", "brand": "USPS", "collection_times": "Mo-Fr 17:00; Sa 15:00", "name": "USPS COLLECTION BOX - BLUE BOX", "note": "ON 12/24 AND 12/31, THIS BOX MAY BE COLLECTED AS EARLY AS 12 NOON.", "ref": "0882600001"}, "type": "Feature"}
{"geometry": {"coordinates": [-74.9468711, 40.7007], "type": "Point"}, "id": "Qd4sQiBrQ2TW3PcGJp3rLO-qxaY=", "properties": {"@spider": "usps_collection_boxes", "addr:city": "GLEN GARDNER", "addr:country": "US", "addr:full": "100 SPRUCE HILLS DR", "addr:postcode": "08826", "addr:state": "NJ", "brand": "USPS", "collection_times": "Mo-Sa 11:00", "name": "USPS COLLECTION BOX - BLUE BOX", "ref": "0882600004"}, "type": "Feature"}
{"geometry": {"coordinates": [-74.939272, 40.694208], "type": "Point"}, "id": "rGbHinSa-xF3-J1rGx3Ys9qjFoI=", "properties": {"@spider": "usps_collection_boxes", "addr:city": "GLEN GARDNER", "addr:country": "US", "addr:full": "64 MAIN ST", "addr:postcode": "08826", "addr:state": "NJ", "brand": "USPS", "collection_times": "Mo-Fr 16:30; Sa 12:30", "name": "USPS COLLECTION BOX - PO LOBBY", "note": "ON 12/24 AND 12/31, THIS BOX MAY BE COLLECTED AS EARLY AS 12 NOON.", "ref": "0882600005"}, "type": "Feature"}
{"geometry": {"coordinates": [-74.939200259, 40.694129205], "type": "Point"}, "id": "6unAIFq_BoLc01wMX2PMrZX_1ug=", "properties": {"@spider": "usps_collection_boxes", "addr:city": "GLEN GARDNER", "addr:country": "US", "addr:full": "64 MAIN ST", "addr:postcode": "08826", "addr:state": "NJ", "brand": "USPS", "collection_times": "Mo-Fr 16:30; Sa 12:30", "name": "USPS COLLECTION BOX - PO LOBBY", "note": "ON 12/24 AND 12/31, THIS BOX MAY BE COLLECTED AS EARLY AS 12 NOON.", "ref": "0882600006"}, "type": "Feature"}
{"geometry": {"coordinates": [-74.958819, 40.703184], "type": "Point"}, "id": "WwlXKdKPOuyFOtf6_QvQUpnr9HU=", "properties": {"@spider": "usps_collection_boxes", "addr:city": "HAMPTON", "addr:country": "US", "addr:full": "77 FOSS AVE", "addr:postcode": "08827", "addr:state": "NJ", "brand": "USPS", "collection_times": "Mo-Fr 16:45; Sa 15:00", "name": "USPS COLLECTION BOX - BLUE BOX", "note": "ON 12/24 AND 12/31, THIS BOX MAY BE COLLECTED AS EARLY AS 12 NOON.", "ref": "0882700001"}, "type": "Feature"}
{"geometry": {"coordinates": [-74.9580647, 40.711799], "type": "Point"}, "id": "HsgSY3evpmdD2VJh9k6NrqrH_-0=", "properties": {"@spider": "usps_collection_boxes", "addr:city": "HAMPTON", "addr:country": "US", "addr:full": "401 MANOR DR", "addr:postcode": "08827", "addr:state": "NJ", "brand": "USPS", "collection_times": "Mo-Sa 10:00", "name": "USPS COLLECTION BOX - BLUE BOX", "ref": "0882700002"}, "type": "Feature"}
{"geometry": {"coordinates": [-74.958819, 40.703184], "type": "Point"}, "id": "VjgBOG0sPwP5h-CBZRo-PeVEGfo=", "properties": {"@spider": "usps_collection_boxes", "addr:city": "HAMPTON", "addr:country": "US", "addr:full": "77 FOSS AVE", "addr:postcode": "08827", "addr:state": "NJ", "brand": "USPS", "collection_times": "Mo-Fr 17:00; Sa 12:00", "name": "USPS COLLECTION BOX - PO LOBBY", "note": "ON 12/24 AND 12/31, THIS BOX MAY BE COLLECTED AS EARLY AS 12 NOON.", "ref": "0882700003"}, "type": "Feature"}
{"geometry": {"coordinates": [-74.9588679082, 40.7031542048], "type": "Point"}, "id": "4qrRl3xquYlyyiCIRKwqhsj5Wbs=", "properties": {"@spider": "usps_collection_boxes", "addr:city": "HAMPTON", "addr:country": "US", "addr:full": "77 FOSS AVE", "addr:postcode": "08827", "addr:state": "NJ", "brand": "USPS", "collection_times": "Mo-Fr 16:30; Sa 12:00", "name": "USPS COLLECTION BOX - PO LOBBY", "note": "ON 12/24 AND 12/31, THIS BOX MAY BE COLLECTED AS EARLY AS 12 NOON.", "ref": "0882700004"}, "type": "Feature"}
{"geometry": {"coordinates": [-74.8947906, 40.667816], "type": "Point"}, "id": "Zw2nMT9GSyX5EWVkKRvJdRPsWMo=", "properties": {"@spider": "usps_collection_boxes", "addr:city": "HIGHBRIDGE", "addr:country": "US", "addr:full": "10 MCDONALD ST", "addr:postcode": "08829", "addr:state": "NJ", "brand": "USPS", "collection_times": "Mo-Fr 17:00; Sa 12:30", "name": "USPS COLLECTION BOX - BLUE BOX", "note": "ON 12/24 AND 12/31, THIS BOX MAY BE COLLECTED AS EARLY AS 12 NOON.", "ref": "0882900001"}, "type": "Feature"}
{"geometry": {"coordinates": [-74.8956099, 40.66792], "type": "Point"}, "id": "otkCc1g8c7gr0A-1Q-Ps50lJaDA=", "properties": {"@spider": "usps_collection_boxes", "addr:city": "HIGHBRIDGE", "addr:country": "US", "addr:full": "37 MAIN ST", "addr:postcode": "08829", "addr:state": "NJ", "brand": "USPS", "collection_times": "Mo-Sa 11:00", "name": "USPS COLLECTION BOX - BLUE BOX", "ref": "0882900002"}, "type": "Feature"}
{"geometry": {"coordinates": [-74.893088, 40.677082], "type": "Point"}, "id": "YLEvxGqgZINq9GejHseoVfAUSIw=", "properties": {"@spider": "usps_collection_boxes", "addr:city": "HIGHBRIDGE", "addr:country": "US", "addr:full": "115 FAIRVIEW AVE", "addr:postcode": "08829", "addr:state": "NJ", "brand": "USPS", "collection_times": "Mo-Sa 11:00", "name": "USPS COLLECTION BOX - BLUE BOX", "ref": "0882900003"}, "type": "Feature"}
{"geometry": {"coordinates": [-74.9020311, 40.661541], "type": "Point"}, "id": "LAyQEm2kliHnQLByW5ds6fD9WTw=", "properties": {"@spider": "usps_collection_boxes", "addr:city": "HIGHBRIDGE", "addr:country": "US", "addr:full": "112 W MAIN ST", "addr:postcode": "08829", "addr:state": "NJ", "brand": "USPS", "collection_times": "Mo-Sa 11:00", "name": "USPS COLLECTION BOX - BLUE BOX", "ref": "0882900006"}, "type": "Feature"}
{"geometry": {"coordinates": [-74.8947333, 40.667776], "type": "Point"}, "id": "oFLXCER62xQYdw6pWQ3kVQAM8-U=", "properties": {"@spider": "usps_collection_boxes", "addr:city": "HIGHBRIDGE", "addr:country": "US", "addr:full": "10 MCDONALD ST", "addr:postcode": "08829", "addr:state": "NJ", "brand": "USPS", "collection_times": "Mo-Fr 16:30; Sa 12:00", "name": "USPS COLLECTION BOX - PO LOBBY", "note": "ON 12/24 AND 12/31, THIS BOX MAY BE COLLECTED AS EARLY AS 12 NOON.", "ref": "0882900007"}, "type": "Feature"}
{"geometry": {"coordinates": [-74.894724335, 40.667889532], "type": "Point"}, "id": "LKOCnSS_CZ2gnXTcfiCggdRrVOE=", "properties": {"@spider": "usps_collection_boxes", "addr:city": "HIGHBRIDGE", "addr:country": "US", "addr:full": "10 MCDONALD ST", "addr:postcode": "08829", "addr:state": "NJ", "brand": "USPS", "collection_times": "Mo-Fr 16:30; Sa 12:00", "name": "USPS COLLECTION BOX - PO LOBBY", "note": "ON 12/24 AND 12/31, THIS BOX MAY BE COLLECTED AS EARLY AS 12 NOON.", "ref": "0882900009"}, "type": "Feature"}
{"geometry": {"coordinates": [-74.438117002, 40.318901928], "type": "Point"}, "id": "IUWU1kggg496cI8yqc0Zq1ju27s=", "properties": {"@spider": "usps_collection_boxes", "addr:city": "JAMESBURG", "addr:country": "US", "addr:full": "1601 PERRINEVILLE RD", "addr:postcode": "08831", "addr:state": "NJ", "brand": "USPS", "collection_times": "Mo-Fr 17:00; Sa 15:00", "name": "USPS COLLECTION BOX - BLUE BOX", "note": "ON 12/24 AND 12/31, THIS BOX MAY BE COLLECTED AS EARLY AS 12 NOON.", "ref": "0883100001"}, "type": "Feature"}
{"geometry": {"coordinates": [-74.438117002, 40.318901928], "type": "Point"}, "id": "Nsz1T_OL3-WcVqhc_62lh_hDAd8=", "properties": {"@spider": "usps_collection_boxes", "addr:city": "JAMESBURG", "addr:country": "US", "addr:full": "1601 PERRINEVILLE RD", "addr:postcode": "08831", "addr:state": "NJ", "brand": "USPS", "collection_times": "Mo-Fr 17:00; Sa 15:00", "name": "USPS COLLECTION BOX - EXPRESS", "note": "ON 12/24 AND 12/31, THIS BOX MAY BE COLLECTED AS EARLY AS 12 NOON.", "ref": "0883100002"}, "type": "Feature"}
{"geometry": {"coordinates": [-74.438117002, 40.318901928], "type": "Point"}, "id": "NEd3Ee0dW_KkRL8us11o9HzyDsQ=", "properties": {"@spider": "usps_collection_boxes", "addr:city": "JAMESBURG", "addr:country": "US", "addr:full": "1601 PERRINEVILLE RD", "addr:postcode": "08831", "addr:state": "NJ", "brand": "USPS", "collection_times": "Mo-Fr 17:00; Sa 15:00", "name": "USPS COLLECTION BOX - BLUE BOX", "note": "ON 12/24 AND 12/31, THIS BOX MAY BE COLLECTED AS EARLY AS 12 NOON.", "ref": "0883100003"}, "type": "Feature"}
{"geometry": {"coordinates": [-74.4354935, 40.34848], "type": "Point"}, "id": "Z1nM05mKmEk6vvWHCjkcMjVoQW8=", "properties": {"@spider": "usps_collection_boxes", "addr:city": "JAMESBURG", "addr:country": "US", "addr:full": "13 E RAILROAD AVE", "addr:postcode": "08831", "addr:state": "NJ", "brand": "USPS", "collection_times": "Mo-Fr 16:00; Sa 12:00", "name": "USPS COLLECTION BOX - BLUE BOX", "note": "ON 12/24 AND 12/31, THIS BOX MAY BE COLLECTED AS EARLY AS 12 NOON.", "ref": "0883100004"}, "type": "Feature"}
{"geometry": {"coordinates": [-74.4365004, 40.348495], "type": "Point"}, "id": "0gQMD03Kz06NqgEqLAjEerPMzhE=", "properties": {"@spider": "usps_collection_boxes", "addr:city": "JAMESBURG", "addr:country": "US", "addr:full": "24 W RAILROAD AVE", "addr:postcode": "08831", "addr:state": "NJ", "brand": "USPS", "collection_times": "Mo-Sa 09:00", "name": "USPS COLLECTION BOX - BLUE BOX", "ref": "0883100008"}, "type": "Feature"}
{"geometry": {"coordinates": [-74.4696479, 40.341492], "type": "Point"}, "id": "Y7wROPrORAAeqhHPM8w-nObmZnU=", "properties": {"@spider": "usps_collection_boxes", "addr:city": "JAMESBURG", "addr:country": "US", "addr:full": "2 ROSSMOOR DR", "addr:postcode": "08831", "addr:state": "NJ", "brand": "USPS", "collection_times": "Mo-Sa 09:00", "name": "USPS COLLECTION BOX - BLUE BOX", "ref": "0883100013"}, "type": "Feature"}
{"geometry": {"coordinates": [-74.4403757, 40.347425], "type": "Point"}, "id": "xsI8fgCq-5dG0RWRu0tIv-zl8Mk=", "properties": {"@spider": "usps_collection_boxes", "addr:city": "JAMESBURG", "addr:country": "US", "addr:full": "241 FORSGATE DR", "addr:postcode": "08831", "addr:state": "NJ", "brand": "USPS", "collection_times": "Mo-Sa 09:30", "name": "USPS COLLECTION BOX - BLUE BOX", "ref": "0883100020"}, "type": "Feature"}
{"geometry": {"coordinates": [-74.4700809, 40.324998], "type": "Point"}, "id": "I2DnZ1wtxjkethMkeL4d5x-_mZ0=", "properties": {"@spider": "usps_collection_boxes", "addr:city": "JAMESBURG", "addr:country": "US", "addr:full": "355 APPLEGARTH RD", "addr:postcode": "08831", "addr:state": "NJ", "brand": "USPS", "collection_times": "Mo-Sa 09:30", "name": "USPS COLLECTION BOX - BLUE BOX", "ref": "0883100026"}, "type": "Feature"}
{"geometry": {"coordinates": [-74.4545419, 40.305795], "type": "Point"}, "id": "gdHhWdor3AlBRyU1fzbPFJvmz98=", "properties": {"@spider": "usps_collection_boxes", "addr:city": "JAMESBURG", "addr:country": "US", "addr:full": "100 WATERSIDE BLVD", "addr:postcode": "08831", "addr:state": "NJ", "brand": "USPS", "collection_times": "Mo-Sa 10:00", "name": "USPS COLLECTION BOX - BLUE BOX", "ref": "0883100029"}, "type": "Feature"}
{"geometry": {"coordinates": [-74.4740238, 40.356602], "type": "Point"}, "id": "-04ctcNTRKkE4sPCrePkriIElZs=", "properties": {"@spider": "usps_collection_boxes", "addr:city": "JAMESBURG", "addr:country": "US", "addr:full": "1085 CRANBURY SOUTH RIVER RD", "addr:postcode": "08831", "addr:state": "NJ", "brand": "USPS", "collection_times": "Mo-Sa 10:00", "name": "USPS COLLECTION BOX - BLUE BOX", "ref": "0883100033"}, "type": "Feature"}
{"geometry": {"coordinates": [-74.4351346, 40.348535], "type": "Point"}, "id": "WRjehyxqUkb13gwMGnk1GTmwXto=", "properties": {"@spider": "usps_collection_boxes", "addr:city": "JAMESBURG", "addr:country": "US", "addr:full": "13 E RAILROAD AVE", "addr:postcode": "08831", "addr:state": "NJ", "brand": "USPS", "collection_times": "Mo-Fr 16:00; Sa 12:00", "name": "USPS COLLECTION BOX - PO LOBBY", "note": "ON 12/24 AND 12/31, THIS BOX MAY BE COLLECTED AS EARLY AS 12 NOON.", "ref": "0883100034"}, "type": "Feature"}
{"geometry": {"coordinates": [-74.438117002, 40.318901928], "type": "Point"}, "id": "JIz2kau679d9gsfY_QEyy0cMkPI=", "properties": {"@spider": "usps_collection_boxes", "addr:city": "JAMESBURG", "addr:country": "US", "addr:full": "1601 PERRINEVILLE RD", "addr:postcode": "08831", "addr:state": "NJ", "brand": "USPS", "collection_times": "Mo-Fr 17:00; Sa 16:00", "name": "USPS COLLECTION BOX - PO LOBBY", "note": "ON 12/24 AND 12/31, THIS BOX MAY BE COLLECTED AS EARLY AS 12 NOON.", "ref": "0883100035"}, "type": "Feature"}
{"geometry": {"coordinates": [-74.4355515037, 40.3483176134], "type": "Point"}, "id": "fD2OR-JBxS_eLT4gfwpa9_V92IY=", "properties": {"@spider": "usps_collection_boxes", "addr:city": "JAMESBURG", "addr:country": "US", "addr:full": "13 E RAILROAD AVE", "addr:postcode": "08831", "addr:state": "NJ", "brand": "USPS", "collection_times": "Mo-Fr 16:00; Sa 12:00", "name": "USPS COLLECTION BOX - PO LOBBY", "note": "ON 12/24 AND 12/31, THIS BOX MAY BE COLLECTED AS EARLY AS 12 NOON.", "ref": "0883100039"}, "type": "Feature"}
{"geometry": {"coordinates": [-74.438117002, 40.318901928], "type": "Point"}, "id": "sbHFLDPpYMX9jKf1aSmtM-Lkj4Y=", "properties": {"@spider": "usps_collection_boxes", "addr:city": "JAMESBURG", "addr:country": "US", "addr:full": "1601 PERRINEVILLE RD", "addr:postcode": "08831", "addr:state": "NJ", "brand": "USPS", "collection_times": "Mo-Fr 18:00; Sa 16:00", "name": "USPS COLLECTION BOX - PO LOBBY", "note": "ON 12/24 AND 12/31, THIS BOX MAY BE COLLECTED AS EARLY AS 12 NOON.", "ref": "0883100040"}, "type": "Feature"}
{"geometry": {"coordinates": [-74.468709, 40.34286], "type": "Point"}, "id": "Wwd0f9ZTvJluUTEsfwTLndhCbbg=", "properties": {"@spider": "usps_collection_boxes", "addr:city": "JAMESBURG", "addr:country": "US", "addr:full": "1 ROSSMOOR DR", "addr:postcode": "08831", "addr:state": "NJ", "brand": "USPS", "collection_times": "Mo-Sa 09:00", "name": "USPS COLLECTION BOX - BLUE BOX", "ref": "0883100041"}, "type": "Feature"}
{"geometry": {"coordinates": [-74.4650990723, 40.3349982023], "type": "Point"}, "id": "L71uXfsaWyXz3H3Ei7-YD9533Po=", "properties": {"@spider": "usps_collection_boxes", "addr:city": "JAMESBURG", "addr:country": "US", "addr:full": "211A ROSSMOOR DR", "addr:postcode": "08831", "addr:state": "NJ", "brand": "USPS", "collection_times": "Mo-Sa 09:00", "name": "USPS COLLECTION BOX - BLUE BOX", "ref": "0883100042"}, "type": "Feature"}
{"geometry": {"coordinates": [-74.4693433377, 40.3116563014], "type": "Point"}, "id": "ucLbpwighW-GrWCW8E_6bgIVO70=", "properties": {"@spider": "usps_collection_boxes", "addr:city": "JAMESBURG", "addr:country": "US", "addr:full": "1 CLEARBROOK DR", "addr:postcode": "08831", "addr:state": "NJ", "brand": "USPS", "collection_times": "Mo-Sa 09:30", "name": "USPS COLLECTION BOX - BLUE BOX", "ref": "0883100043"}, "type": "Feature"}
{"geometry": {"coordinates": [-74.8735394, 40.599883], "type": "Point"}, "id": "ygR_Tq91JBbZTLOsqPT6dxWushg=", "properties": {"@spider": "usps_collection_boxes", "addr:city": "LEBANON", "addr:country": "US", "addr:full": "1220 STATE ROUTE 31", "addr:postcode": "08833", "addr:state": "NJ", "brand": "USPS", "collection_times": "Mo-Sa 12:00", "name": "USPS COLLECTION BOX - BLUE BOX", "ref": "0883300001"}, "type": "Feature"}
{"geometry": {"coordinates": [-74.831811, 40.643763], "type": "Point"}, "id": "mHmscPd-0AVwLLjNyM8b4spydtI=", "properties": {"@spider": "usps_collection_boxes", "addr:city": "LEBANON", "addr:country": "US", "addr:full": "1271 US HIGHWAY 22", "addr:postcode": "08833", "addr:state": "NJ", "brand": "USPS", "collection_times": "Mo-Fr 16:30; Sa 11:00", "name": "USPS COLLECTION BOX - BLUE BOX", "note": "ON 12/24 AND 12/31, THIS BOX MAY BE COLLECTED AS EARLY AS 12 NOON.", "ref": "0883300003"}, "type": "Feature"}
{"geometry": {"coordinates": [-74.831811, 40.643763], "type": "Point"}, "id": "nYxTmU-mawCYDDiMExmnK8e_Yg0=", "properties": {"@spider": "usps_collection_boxes", "addr:city": "LEBANON", "addr:country": "US", "addr:full": "1271 US HIGHWAY 22", "addr:postcode": "08833", "addr:state": "NJ", "brand": "USPS", "collection_times": "Mo-Fr 16:30; Sa 12:00", "name": "USPS COLLECTION BOX - PO LOBBY", "note": "ON 12/24 AND 12/31, THIS BOX MAY BE COLLECTED AS EARLY AS 12 NOON.", "ref": "0883300005"}, "type": "Feature"}
{"geometry": {"coordinates": [-74.830890526, 40.643756537], "type": "Point"}, "id": "-AQVfEzy3IzbN0aTru2Mt8Tpj3c=", "properties": {"@spider": "usps_collection_boxes", "addr:city": "LEBANON", "addr:country": "US", "addr:full": "1271 US HIGHWAY 22 STE A", "addr:postcode": "08833", "addr:state": "NJ", "brand": "USPS", "collection_times": "Mo-Fr 16:30; Sa 12:00", "name": "USPS COLLECTION BOX - PO LOBBY", "note": "ON 12/24 AND 12/31, THIS BOX MAY BE COLLECTED AS EARLY AS 12 NOON.", "ref": "0883300006"}, "type": "Feature"}
{"geometry": {"coordinates": [-75.1155595, 40.591142], "type": "Point"}, "id": "yLtXvNilCIKcVqc_cFO6N5Hwdrw=", "properties": {"@spider": "usps_collection_boxes", "addr:city": "MILFORD", "addr:country": "US", "addr:full": "561 MILFORD WARREN GLEN RD", "addr:postcode": "08848", "addr:state": "NJ", "brand": "USPS", "collection_times": "Mo-Sa 11:00", "name": "USPS COLLECTION BOX - BLUE BOX", "ref": "0884800003"}, "type": "Feature"}
{"geometry": {"coordinates": [-75.0949648076, 40.5686272223], "type": "Point"}, "id": "g4oXZiVN8AAf6Xv9vxivEx5VerI=", "properties": {"@spider": "usps_collection_boxes", "addr:city": "MILFORD", "addr:country": "US", "addr:full": "73 BRIDGE ST", "addr:postcode": "08848", "addr:state": "NJ", "brand": "USPS", "collection_times": "Mo-Fr 16:30; Sa 15:00", "name": "USPS COLLECTION BOX - BLUE BOX", "note": "ON 12/24 AND 12/31, THIS BOX MAY BE COLLECTED AS EARLY AS 12 NOON.", "ref": "0884800004"}, "type": "Feature"}
{"geometry": {"coordinates": [-75.0947423, 40.568794], "type": "Point"}, "id": "1Y17dGZ0nV1AYeg568orPMm10GQ=", "properties": {"@spider": "usps_collection_boxes", "addr:city": "MILFORD", "addr:country": "US", "addr:full": "73 BRIDGE ST", "addr:postcode": "08848", "addr:state": "NJ", "brand": "USPS", "collection_times": "Mo-Fr 16:30; Sa 12:00", "name": "USPS COLLECTION BOX - PO LOBBY", "note": "ON 12/24 AND 12/31, THIS BOX MAY BE COLLECTED AS EARLY AS 12 NOON.", "ref": "0884800005"}, "type": "Feature"}
{"geometry": {"coordinates": [-75.094948491, 40.568626292], "type": "Point"}, "id": "LSJVEe92McoBIpf7VhKrkKpset0=", "properties": {"@spider": "usps_collection_boxes", "addr:city": "MILFORD", "addr:country": "US", "addr:full": "73 BRIDGE ST", "addr:postcode": "08848", "addr:state": "NJ", "brand": "USPS", "collection_times": "Mo-Fr 16:30; Sa 12:00", "name": "USPS COLLECTION BOX - PO LOBBY", "note": "ON 12/24 AND 12/31, THIS BOX MAY BE COLLECTED AS EARLY AS 12 NOON.", "ref": "0884800006"}, "type": "Feature"}
{"geometry": {"coordinates": [-74.5493346275, 40.377009257], "type": "Point"}, "id": "X99D_coKGCSNa7b0IMoz49ht9PE=", "properties": {"@spider": "usps_collection_boxes", "addr:city": "MONMOUTH JCT", "addr:country": "US", "addr:full": "651 RIDGE RD", "addr:postcode": "08852", "addr:state": "NJ", "brand": "USPS", "collection_times": "Mo-Fr 17:00; Sa 15:00", "name": "USPS COLLECTION BOX - BLUE BOX", "note": "ON 12/24 AND 12/31, THIS BOX MAY BE COLLECTED AS EARLY AS 12 NOON.", "ref": "0885200002"}, "type": "Feature"}
{"geometry": {"coordinates": [-74.5069926, 40.412812], "type": "Point"}, "id": "4I3XUNvOq9nLU41aWE3IYl5Mnus=", "properties": {"@spider": "usps_collection_boxes", "addr:city": "MONMOUTH JCT", "addr:country": "US", "addr:full": "2031 US HIGHWAY 130", "addr:postcode": "08852", "addr:state": "NJ", "brand": "USPS", "collection_times": "Mo-Sa 11:00", "name": "USPS COLLECTION BOX - BLUE BOX", "ref": "0885200004"}, "type": "Feature"}
{"geometry": {"coordinates": [-74.56463637, 40.391733117], "type": "Point"}, "id": "S_VQFD4Xul3DzoSPxP5NSQtdr_E=", "properties": {"@spider": "usps_collection_boxes", "addr:city": "MONMOUTH JCT", "addr:country": "US", "addr:full": "1 WHISPERING WOODS BLVD", "addr:postcode": "08852", "addr:state": "NJ", "brand": "USPS", "collection_times": "Mo-Sa 11:00", "name": "USPS COLLECTION BOX - BLUE BOX", "ref": "0885200008"}, "type": "Feature"}
{"geometry": {"coordinates": [-74.5654144, 40.394071], "type": "Point"}, "id": "bMIYpCyh9ASwg7IHB2l33GVCIAY=", "properties": {"@spider": "usps_collection_boxes", "addr:city": "MONMOUTH JCT", "addr:country": "US", "addr:full": "4095 US HIGHWAY 1", "addr:postcode": "08852", "addr:state": "NJ", "brand": "USPS", "collection_times": "Mo-Sa 11:00", "name": "USPS COLLECTION BOX - BLUE BOX", "ref": "0885200009"}, "type": "Feature"}
{"geometry": {"coordinates": [-74.5850741, 40.375918], "type": "Point"}, "id": "P-6ZO9t4kJfckOF12V-aRRt4h7k=", "properties": {"@spider": "usps_collection_boxes", "addr:city": "MONMOUTH JCT", "addr:country": "US", "addr:full": "1 DEERPARK DR", "addr:postcode": "08852", "addr:state": "NJ", "brand": "USPS", "collection_times": "Mo-Sa 11:00", "name": "USPS COLLECTION BOX - BLUE BOX", "ref": "0885200015"}, "type": "Feature"}
{"geometry": {"coordinates": [-74.5858292957, 40.3769616777], "type": "Point"}, "id": "uwvqdwoTZV6Ema5_30rbRxuDpQg=", "properties": {"@spider": "usps_collection_boxes", "addr:city": "MONMOUTH JCT", "addr:country": "US", "addr:full": "7 DEERPARK DR", "addr:postcode": "08852", "addr:state": "NJ", "brand": "USPS", "collection_times": "Mo-Sa 11:00", "name": "USPS COLLECTION BOX - BLUE BOX", "ref": "0885200016"}, "type": "Feature"}
{"geometry": {"coordinates": [-74.5868583, 40.375755], "type": "Point"}, "id": "zQ29OWrlD3xVrqpBZ_NhGfsMnRY=", "properties": {"@spider": "usps_collection_boxes", "addr:city": "MONMOUTH JCT", "addr:country": "US", "addr:full": "9 DEERPARK DR", "addr:postcode": "08852", "addr:state": "NJ", "brand": "USPS", "collection_times": "Mo-Sa 11:00", "name": "USPS COLLECTION BOX - BLUE BOX", "ref": "0885200018"}, "type": "Feature"}
{"geometry": {"coordinates": [-74.54927, 40.37685], "type": "Point"}, "id": "InAxKJozdDlcoQF1yiegjy5bowU=", "properties": {"@spider": "usps_collection_boxes", "addr:city": "MONMOUTH JCT", "addr:country": "US", "addr:full": "651 RIDGE RD", "addr:postcode": "08852", "addr:state": "NJ", "brand": "USPS", "collection_times": "Mo-Fr 17:00; Sa 15:00", "name": "USPS COLLECTION BOX - PO LOBBY", "note": "ON 12/24 AND 12/31, THIS BOX MAY BE COLLECTED AS EARLY AS 12 NOON.", "ref": "0885200019"}, "type": "Feature"}
{"geometry": {"coordinates": [-74.549305657, 40.376967045], "type": "Point"}, "id": "zqzLB-JIpEGCGKumDuxMK2bYM-w=", "properties": {"@spider": "usps_collection_boxes", "addr:city": "MONMOUTH JCT", "addr:country": "US", "addr:full": "651 RIDGE RD", "addr:postcode": "08852", "addr:state": "NJ", "brand": "USPS", "collection_times": "Mo-Fr 17:00; Sa 16:00", "name": "USPS COLLECTION BOX - PO LOBBY", "note": "ON 12/24 AND 12/31, THIS BOX MAY BE COLLECTED AS EARLY AS 12 NOON.", "ref": "0885200023"}, "type": "Feature"}
{"geometry": {"coordinates": [-74.729432, 40.507964], "type": "Point"}, "id": "8tvbjWuAErIC_EKvhInNZTDnjtI=", "properties": {"@spider": "usps_collection_boxes", "addr:city": "NESHANIC STA", "addr:country": "US", "addr:full": "1 MAIN ST", "addr:postcode": "08853", "addr:state": "NJ", "brand": "USPS", "collection_times": "Mo-Fr 16:30; Sa 11:00", "name": "USPS COLLECTION BOX - BLUE BOX", "note": "ON 12/24 AND 12/31, THIS BOX MAY BE COLLECTED AS EARLY AS 12 NOON.", "ref": "0885300002"}, "type": "Feature"}
{"geometry": {"coordinates": [-74.729432, 40.507964], "type": "Point"}, "id": "KVFGtSYtc6a7CnwX7j7AmCmXK8Y=", "properties": {"@spider": "usps_collection_boxes", "addr:city": "NESHANIC STA", "addr:country": "US", "addr:full": "1 MAIN ST", "addr:postcode": "08853", "addr:state": "NJ", "brand": "USPS", "collection_times": "Mo-Fr 15:00; Sa 12:00", "name": "USPS COLLECTION BOX - PO LOBBY", "note": "ON 12/24 AND 12/31, THIS BOX MAY BE COLLECTED AS EARLY AS 12 NOON.", "ref": "0885300003"}, "type": "Feature"}
{"geometry": {"coordinates": [-74.7294493811, 40.5080199539], "type": "Point"}, "id": "jaXPwoYcJ1fRvLPTbaeGQU2hQok=", "properties": {"@spider": "usps_collection_boxes", "addr:city": "NESHANIC STA", "addr:country": "US", "addr:full": "1 MAIN ST", "addr:postcode": "08853", "addr:state": "NJ", "brand": "USPS", "collection_times": "Mo-Fr 16:30; Sa 12:00", "name": "USPS COLLECTION BOX - PO LOBBY", "note": "ON 12/24 AND 12/31, THIS BOX MAY BE COLLECTED AS EARLY AS 12 NOON.", "ref": "0885300004"}, "type": "Feature"}
{"geometry": {"coordinates": [-75.191349381, 40.695499087], "type": "Point"}, "id": "7hj7t84q1rw5mGDY1rp53OxYaEk=", "properties": {"@spider": "usps_collection_boxes", "addr:city": "PHILLIPSBURG", "addr:country": "US", "addr:full": "361 MEMORIAL PKWY", "addr:postcode": "08865", "addr:state": "NJ", "brand": "USPS", "collection_times": "Mo-Fr 17:00; Sa 15:00", "name": "USPS COLLECTION BOX - BLUE BOX", "note": "ON 12/24 AND 12/31, THIS BOX MAY BE COLLECTED AS EARLY AS 12 NOON.", "ref": "0886500001"}, "type": "Feature"}
{"geometry": {"coordinates": [-75.191349381, 40.695499087], "type": "Point"}, "id": "2ByUxcw-PYqvoBqIACR6MHLEtwM=", "properties": {"@spider": "usps_collection_boxes", "addr:city": "PHILLIPSBURG", "addr:country": "US", "addr:full": "361 MEMORIAL PKWY", "addr:postcode": "08865", "addr:state": "NJ", "brand": "USPS", "collection_times": "Mo-Fr 17:00; Sa 15:00", "name": "USPS COLLECTION BOX - BLUE BOX", "note": "ON 12/24 AND 12/31, THIS BOX MAY BE COLLECTED AS EARLY AS 12 NOON.", "ref": "0886500003"}, "type": "Feature"}
{"geometry": {"coordinates": [-75.191349381, 40.695499087], "type": "Point"}, "id": "s7m51Gok5cob4ZDj-voEk_2IHfQ=", "properties": {"@spider": "usps_collection_boxes", "addr:city": "PHILLIPSBURG", "addr:country": "US", "addr:full": "361 MEMORIAL PKWY", "addr:postcode": "08865", "addr:state": "NJ", "brand": "USPS", "collection_times": "Mo-Fr 17:00; Sa 15:00", "name": "USPS COLLECTION BOX - BLUE BOX", "note": "ON 12/24 AND 12/31, THIS BOX MAY BE COLLECTED AS EARLY AS 12 NOON.", "ref": "0886500004"}, "type": "Feature"}
{"geometry": {"coordinates": [-75.1787199, 40.702436], "type": "Point"}, "id": "yx_8t7tuWwMXZDiRefsAy5r3E3Q=", "properties": {"@spider": "usps_collection_boxes", "addr:city": "PHILLIPSBURG", "addr:country": "US", "addr:full": "185 ROSEBERRY ST", "addr:postcode": "08865", "addr:state": "NJ", "brand": "USPS", "collection_times": "Mo-Sa 11:00", "name": "USPS COLLECTION BOX - BLUE BOX", "ref": "0886500006"}, "type": "Feature"}
{"geometry": {"coordinates": [-75.158865, 40.66405], "type": "Point"}, "id": "ZTBVxcbFn9YSany_cFf5s8QTP-c=", "properties": {"@spider": "usps_collection_boxes", "addr:city": "PHILLIPSBURG", "addr:country": "US", "addr:full": "1001 E. BOULEVARD", "addr:postcode": "08865", "addr:state": "NJ", "brand": "USPS", "collection_times": "Mo-Sa 11:00", "name": "USPS COLLECTION BOX - BLUE BOX", "ref": "0886500012"}, "type": "Feature"}
{"geometry": {"coordinates": [-75.1906865, 40.685528], "type": "Point"}, "id": "gexKr7N6f24xI7NEmRNqe9uJlsM=", "properties": {"@spider": "usps_collection_boxes", "addr:city": "PHILLIPSBURG", "addr:country": "US", "addr:full": "437 S MAIN ST", "addr:postcode": "08865", "addr:state": "NJ", "brand": "USPS", "collection_times": "Mo-Sa 11:00", "name": "USPS COLLECTION BOX - BLUE BOX", "ref": "0886500014"}, "type": "Feature"}
{"geometry": {"coordinates": [-75.2005594, 40.689295], "type": "Point"}, "id": "GCCZ22Ygc-80J_vZ_1KNT4fHq-Q=", "properties": {"@spider": "usps_collection_boxes", "addr:city": "PHILLIPSBURG", "addr:country": "US", "addr:full": "115 S MAIN ST", "addr:postcode": "08865", "addr:state": "NJ", "brand": "USPS", "collection_times": "Mo-Sa 11:00", "name": "USPS COLLECTION BOX - BLUE BOX", "ref": "0886500018"}, "type": "Feature"}
{"geometry": {"coordinates": [-75.1953387, 40.69021], "type": "Point"}, "id": "5cyjtMuxntc9sW2uJhbE4Oqwm58=", "properties": {"@spider": "usps_collection_boxes", "addr:city": "PHILLIPSBURG", "addr:country": "US", "addr:full": "198 CHAMBERS ST", "addr:postcode": "08865", "addr:state": "NJ", "brand": "USPS", "collection_times": "Mo-Sa 11:00", "name": "USPS COLLECTION BOX - BLUE BOX", "ref": "0886500020"}, "type": "Feature"}
{"geometry": {"coordinates": [-75.183566, 40.694433], "type": "Point"}, "id": "ZCkV590LR6t70Th9_5JHARaiZSc=", "properties": {"@spider": "usps_collection_boxes", "addr:city": "PHILLIPSBURG", "addr:country": "US", "addr:full": "350 MARSHALL ST", "addr:postcode": "08865", "addr:state": "NJ", "brand": "USPS", "collection_times": "Mo-Sa 11:00", "name": "USPS COLLECTION BOX - BLUE BOX", "ref": "0886500024"}, "type": "Feature"}
{"geometry": {"coordinates": [-75.191349381, 40.695499087], "type": "Point"}, "id": "6PaE0kboCwCLwf1HTywcZI3B_S4=", "properties": {"@spider": "usps_collection_boxes", "addr:city": "PHILLIPSBURG", "addr:country": "US", "addr:full": "361 MEMORIAL PKWY", "addr:postcode": "08865", "addr:state": "NJ", "brand": "USPS", "collection_times": "Mo-Fr 17:00; Sa 16:00", "name": "USPS COLLECTION BOX - PO LOBBY", "note": "ON 12/24 AND 12/31, THIS BOX MAY BE COLLECTED AS EARLY AS 12 NOON.", "ref": "0886500070"}, "type": "Feature"}
{"geometry": {"coordinates": [-75.191349381, 40.695499087], "type": "Point"}, "id": "mn2sSrO60h6AHG9WkRSZS5oQ1gg=", "properties": {"@spider": "usps_collection_boxes", "addr:city": "PHILLIPSBURG", "addr:country": "US", "addr:full": "361 MEMORIAL PKWY", "addr:postcode": "08865", "addr:state": "NJ", "brand": "USPS", "collection_times": "Mo-Fr 17:45; Sa 16:00", "name": "USPS COLLECTION BOX - PO LOBBY", "note": "ON 12/24 AND 12/31, THIS BOX MAY BE COLLECTED AS EARLY AS 12 NOON.", "ref": "0886500078"}, "type": "Feature"}
{"geometry": {"coordinates": [-74.9530926559, 40.5873221567], "type": "Point"}, "id": "dZVD0kUzTtdHMqvIuv7Z4Ssy24c=", "properties": {"@spider": "usps_collection_boxes", "addr:city": "PITTSTOWN", "addr:country": "US", "addr:full": "313 PITTSTOWN RD", "addr:postcode": "08867", "addr:state": "NJ", "brand": "USPS", "collection_times": "Mo-Fr 16:30; Sa 14:00", "name": "USPS COLLECTION BOX - BLUE BOX", "note": "ON 12/24 AND 12/31, THIS BOX MAY BE COLLECTED AS EARLY AS 12 NOON.", "ref": "0886700001"}, "type": "Feature"}
{"geometry": {"coordinates": [-74.952461, 40.587619], "type": "Point"}, "id": "iAf3T3cztL2ZuDjMtTJux8QYN9Y=", "properties": {"@spider": "usps_collection_boxes", "addr:city": "PITTSTOWN", "addr:country": "US", "addr:full": "313 PITTSTOWN RD", "addr:postcode": "08867", "addr:state": "NJ", "brand": "USPS", "collection_times": "Mo-Fr 16:30; Sa 13:00", "name": "USPS COLLECTION BOX - PO LOBBY", "note": "ON 12/24 AND 12/31, THIS BOX MAY BE COLLECTED AS EARLY AS 12 NOON.", "ref": "0886700002"}, "type": "Feature"}
{"geometry": {"coordinates": [-74.9530987009, 40.5873203323], "type": "Point"}, "id": "fQMr1ho8nOeXXJjxSr3eeK0boXo=", "properties": {"@spider": "usps_collection_boxes", "addr:city": "PITTSTOWN", "addr:country": "US", "addr:full": "313 PITTSTOWN RD", "addr:postcode": "08867", "addr:state": "NJ", "brand": "USPS", "collection_times": "Mo-Fr 16:30; Sa 13:00", "name": "USPS COLLECTION BOX - PO LOBBY", "note": "ON 12/24 AND 12/31, THIS BOX MAY BE COLLECTED AS EARLY AS 12 NOON.", "ref": "0886700003"}, "type": "Feature"}
{"geometry": {"coordinates": [-74.943443, 40.568446], "type": "Point"}, "id": "BAlOtcc7pGzpXImzr1hCseUMYVk=", "properties": {"@spider": "usps_collection_boxes", "addr:city": "QUAKERTOWN", "addr:country": "US", "addr:full": "289 WHITEBRIDGE RD", "addr:postcode": "08868", "addr:state": "NJ", "brand": "USPS", "collection_times": "Mo-Sa 12:00", "name": "USPS COLLECTION BOX - PO LOBBY", "ref": "0886800002"}, "type": "Feature"}
{"geometry": {"coordinates": [-74.943213806, 40.566717], "type": "Point"}, "id": "4KAXilU_09Qt2BaHrwSFJHVtLV8=", "properties": {"@spider": "usps_collection_boxes", "addr:city": "QUAKERTOWN", "addr:country": "US", "addr:full": "289 WHITEBRIDGE RD", "addr:postcode": "08868", "addr:state": "NJ", "brand": "USPS", "collection_times": "Mo-Sa 12:00", "name": "USPS COLLECTION BOX - PO LOBBY", "ref": "0886800003"}, "type": "Feature"}
{"geometry": {"coordinates": [-75.118569457, 40.704227125], "type": "Point"}, "id": "2PSl7639N0TSjntbbUUsmLS1PdI=", "properties": {"@spider": "usps_collection_boxes", "addr:city": "STEWARTSVILLE", "addr:country": "US", "addr:full": "731 STATE ROUTE 57", "addr:postcode": "08886", "addr:state": "NJ", "brand": "USPS", "collection_times": "Mo-Fr 16:30; Sa 12:00", "name": "USPS COLLECTION BOX - BLUE BOX", "note": "ON 12/24 AND 12/31, THIS BOX MAY BE COLLECTED AS EARLY AS 12 NOON.", "ref": "0888600002"}, "type": "Feature"}
{"geometry": {"coordinates": [-75.118569457, 40.704227125], "type": "Point"}, "id": "Ae8bbHddeSh_jXrx1zAI-FvtjYk=", "properties": {"@spider": "usps_collection_boxes", "addr:city": "STEWARTSVILLE", "addr:country": "US", "addr:full": "731 STATE ROUTE 57", "addr:postcode": "08886", "addr:state": "NJ", "brand": "USPS", "collection_times": "Mo-Fr 16:30; Sa 12:00", "name": "USPS COLLECTION BOX - PO LOBBY", "note": "ON 12/24 AND 12/31, THIS BOX MAY BE COLLECTED AS EARLY AS 12 NOON.", "ref": "0888600003"}, "type": "Feature"}
{"geometry": {"coordinates": [-75.1185694565, 40.7042271255], "type": "Point"}, "id": "jtpwVZzS_nOwuwcY-cV2JHPXsxE=", "properties": {"@spider": "usps_collection_boxes", "addr:city": "STEWARTSVILLE", "addr:country": "US", "addr:full": "731 STATE ROUTE 57", "addr:postcode": "08886", "addr:state": "NJ", "brand": "USPS", "collection_times": "Mo-Fr 16:00; Sa 12:00", "name": "USPS COLLECTION BOX - PO LOBBY", "note": "ON 12/24 AND 12/31, THIS BOX MAY BE COLLECTED AS EARLY AS 12 NOON.", "ref": "0888600004"}, "type": "Feature"}
{"geometry": {"coordinates": [-74.798609093, 40.524644796], "type": "Point"}, "id": "Oe96oHZgFNN4yxvQjpWC_jJDnYI=", "properties": {"@spider": "usps_collection_boxes", "addr:city": "THREE BRIDGES", "addr:country": "US", "addr:full": "39 BROAD ST", "addr:postcode": "08887", "addr:state": "NJ", "brand": "USPS", "collection_times": "Mo-Fr 17:00; Sa 12:00", "name": "USPS COLLECTION BOX - BLUE BOX", "note": "ON 12/24 AND 12/31, THIS BOX MAY BE COLLECTED AS EARLY AS 12 NOON.", "ref": "0888700001"}, "type": "Feature"}
{"geometry": {"coordinates": [-74.798609093, 40.524644796], "type": "Point"}, "id": "RpQdRB5du0Qiqzu0yejF8hRjnGE=", "properties": {"@spider": "usps_collection_boxes", "addr:city": "THREE BRIDGES", "addr:country": "US", "addr:full": "39 BROAD ST", "addr:postcode": "08887", "addr:state": "NJ", "brand": "USPS", "collection_times": "Mo-Fr 17:00; Sa 12:00", "name": "USPS COLLECTION BOX - PO LOBBY", "note": "ON 12/24 AND 12/31, THIS BOX MAY BE COLLECTED AS EARLY AS 12 NOON.", "ref": "0888700002"}, "type": "Feature"}
{"geometry": {"coordinates": [-74.7803653336, 40.5305336984], "type": "Point"}, "id": "xqo5e49AkTt4WUx74DQMaabBNXA=", "properties": {"@spider": "usps_collection_boxes", "addr:city": "THREE BRIDGES", "addr:country": "US", "addr:full": "1 FOX CHASE DR", "addr:postcode": "08887", "addr:state": "NJ", "brand": "USPS", "collection_times": "Mo-Sa 11:00", "name": "USPS COLLECTION BOX - BLUE BOX", "ref": "0888700003"}, "type": "Feature"}
{"geometry": {"coordinates": [-74.798609093, 40.524644796], "type": "Point"}, "id": "O3jYhaMlUTbEmQ_ynla49hplOB8=", "properties": {"@spider": "usps_collection_boxes", "addr:city": "THREE BRIDGES", "addr:country": "US", "addr:full": "39 BROAD ST", "addr:postcode": "08887", "addr:state": "NJ", "brand": "USPS", "collection_times": "Mo-Fr 17:00; Sa 12:00", "name": "USPS COLLECTION BOX - PO LOBBY", "note": "ON 12/24 AND 12/31, THIS BOX MAY BE COLLECTED AS EARLY AS 12 NOON.", "ref": "0888700004"}, "type": "Feature"}
