{"geometry": {"coordinates": [-74.453415404, 40.490821172], "type": "Point"}, "id": "LPnAEQj1gmUgTw-QBPlygeXL7_c=", "properties": {"@source_uri": "https://tools.usps.com/UspsToolsRestServices/rest/POLocator/findLocations", "@spider": "usps_collection_boxes", "addr:city": "NEW BRUNSWICK", "addr:country": "US", "addr:postcode": "08901", "addr:state": "NJ", "addr:street_address": "333 HANDY ST", "amenity": "post_box", "collection_times": "Mo-Fr 16:00; Sa 13:00", "note": "ON 12/24 AND 12/31, THIS BOX MAY BE COLLECTED AS EARLY AS 12 NOON.", "nsi_id": "unitedstatespostalservice-a77078", "operator": "United States Postal Service", "operator:short": "USPS", "operator:type": "public", "operator:wikidata": "Q668687", "ref": "0890100001"}, "type": "Feature"}
{"geometry": {"coordinates": [-74.4451558, 40.482133], "type": "Point"}, "id": "-SMUQWpzfxQx9aCUKGLSbKTi0rY=", "properties": {"@source_uri": "https://tools.usps.com/UspsToolsRestServices/rest/POLocator/findLocations", "@spider": "usps_collection_boxes", "addr:city": "NEW BRUNSWICK", "addr:country": "US", "addr:postcode": "08901", "addr:state": "NJ", "addr:street_address": "234 PAUL ROBESON BLVD", "amenity": "post_box", "collection_times": "Mo-Sa 08:00", "nsi_id": "unitedstatespostalservice-a77078", "operator": "United States Postal Service", "operator:short": "USPS", "operator:type": "public", "operator:wikidata": "Q668687", "ref": "0890100006"}, "type": "Feature"}
{"geometry": {"coordinates": [-74.4424185, 40.496169], "type": "Point"}, "id": "S3nzjXMcz1uf2AQ5dkoYpbvbXSc=", "properties": {"@source_uri": "https://tools.usps.com/UspsToolsRestServices/rest/POLocator/findLocations", "@spider": "usps_collection_boxes", "addr:city": "NEW BRUNSWICK", "addr:country": "US", "addr:postcode": "08901", "addr:state": "NJ", "addr:street_address": "61 CHURCH ST", "amenity": "post_box", "collection_times": "Mo-Sa 10:00", "nsi_id": "unitedstatespostalservice-a77078", "operator": "United States Postal Service", "operator:short": "USPS", "operator:type": "public", "operator:wikidata": "Q668687", "ref": "0890100009"}, "type": "Feature"}
{"geometry": {"coordinates": [-74.4450855, 40.487381], "type": "Point"}, "id": "Q7a56fMsFEl4MPhPQZHt0BnfAtE=", "properties": {"@source_uri": "https://tools.usps.com/UspsToolsRestServices/rest/POLocator/findLocations", "@spider": "usps_collection_boxes", "addr:city": "NEW BRUNSWICK", "addr:country": "US", "addr:postcode": "08901", "addr:state": "NJ", "addr:street_address": "83 REMSEN AVE", "amenity": "post_box", "collection_times": "Mo-Sa 08:00", "nsi_id": "unitedstatespostalservice-a77078", "operator": "United States Postal Service", "operator:short": "USPS", "operator:type": "public", "operator:wikidata": "Q668687", "ref": "0890100011"}, "type": "Feature"}
{"geometry": {"coordinates": [-74.4506288, 40.495737], "type": "Point"}, "id": "DPK81ipxS_yWL1hhcdBxyJCf1m0=", "properties": {"@source_uri": "https://tools.usps.com/UspsToolsRestServices/rest/POLocator/findLocations", "@spider": "usps_collection_boxes", "addr:city": "NEW BRUNSWICK", "addr:country": "US", "addr:postcode": "08901", "addr:state": "NJ", "addr:street_address": "1 LITTLE ALBANY ST", "amenity": "post_box", "collection_times": "Mo-Sa 10:00", "nsi_id": "unitedstatespostalservice-a77078", "operator": "United States Postal Service", "operator:short": "USPS", "operator:type": "public", "operator:wikidata": "Q668687", "ref": "0890100014"}, "type": "Feature"}
{"geometry": {"coordinates": [-74.4603717, 40.500725], "type": "Point"}, "id": "H6E67_fTS3LC8jWtCRaZl7gA00w=", "properties": {"@source_uri": "https://tools.usps.com/UspsToolsRestServices/rest/POLocator/findLocations", "@spider": "usps_collection_boxes", "addr:city": "NEW BRUNSWICK", "addr:country": "US", "addr:postcode": "08901", "addr:state": "NJ", "addr:street_address": "254 EASTON AVE", "amenity": "post_box", "collection_times": "Mo-Sa 12:00", "nsi_id": "unitedstatespostalservice-a77078", "operator": "United States Postal Service", "operator:short": "USPS", "operator:type": "public", "operator:wikidata": "Q668687", "ref": "0890100019"}, "type": "Feature"}
{"geometry": {"coordinates": [-74.4144729, 40.484655], "type": "Point"}, "id": "MZtbMRfaKKdPWYBEdDvSr_Rajlo=", "properties": {"@source_uri": "https://tools.usps.com/UspsToolsRestServices/rest/POLocator/findLocations", "@spider": "usps_collection_boxes", "addr:city": "NEW BRUNSWICK", "addr:country": "US", "addr:postcode": "08901", "addr:state": "NJ", "addr:street_address": "10 TUNISON RD", "amenity": "post_box", "collection_times": "Mo-Sa 10:00", "nsi_id": "unitedstatespostalservice-a77078", "operator": "United States Postal Service", "operator:short": "USPS", "operator:type": "public", "operator:wikidata": "Q668687", "ref": "0890100026"}, "type": "Feature"}
{"geometry": {"coordinates": [-74.4427943, 40.49146], "type": "Point"}, "id": "3v8OEXSE3jQwlIuybdoF0_-Q734=", "properties": {"@source_uri": "https://tools.usps.com/UspsToolsRestServices/rest/POLocator/findLocations", "@spider": "usps_collection_boxes", "addr:city": "NEW BRUNSWICK", "addr:country": "US", "addr:postcode": "08901", "addr:state": "NJ", "addr:street_address": "279 GEORGE ST", "amenity": "post_box", "collection_times": "Mo-Sa 10:00", "nsi_id": "unitedstatespostalservice-a77078", "operator": "United States Postal Service", "operator:short": "USPS", "operator:type": "public", "operator:wikidata": "Q668687", "ref": "0890100032"}, "type": "Feature"}
{"geometry": {"coordinates": [-74.4437468, 40.495203], "type": "Point"}, "id": "voJu4F44cLIKd4vDL11xFvKfXD0=", "properties": {"@source_uri": "https://tools.usps.com/UspsToolsRestServices/rest/POLocator/findLocations", "@spider": "usps_collection_boxes", "addr:city": "NEW BRUNSWICK", "addr:country": "US", "addr:postcode": "08901", "addr:state": "NJ", "addr:street_address": "366 GEORGE ST", "amenity": "post_box", "collection_times": "Mo-Sa 10:30", "nsi_id": "unitedstatespostalservice-a77078", "operator": "United States Postal Service", "operator:short": "USPS", "operator:type": "public", "operator:wikidata": "Q668687", "ref": "0890100034"}, "type": "Feature"}
{"geometry": {"coordinates": [-74.4232049, 40.4848], "type": "Point"}, "id": "qIxjcaneMr5B23WjhSh5Lg9KnDA=", "properties": {"@source_uri": "https://tools.usps.com/UspsToolsRestServices/rest/POLocator/findLocations", "@spider": "usps_collection_boxes", "addr:city": "NEW BRUNSWICK", "addr:country": "US", "addr:postcode": "08901", "addr:state": "NJ", "addr:street_address": "1 PAULUS BLVD", "amenity": "post_box", "collection_times": "Mo-Sa 08:00", "nsi_id": "unitedstatespostalservice-a77078", "operator": "United States Postal Service", "operator:short": "USPS", "operator:type": "public", "operator:wikidata": "Q668687", "ref": "0890100035"}, "type": "Feature"}
{"geometry": {"coordinates": [-74.4504904, 40.48196], "type": "Point"}, "id": "i6GpcDNvbt0H-QyRzhk2ET9qIkU=", "properties": {"@source_uri": "https://tools.usps.com/UspsToolsRestServices/rest/POLocator/findLocations", "@spider": "usps_collection_boxes", "addr:city": "NEW BRUNSWICK", "addr:country": "US", "addr:postcode": "08901", "addr:state": "NJ", "addr:street_address": "260 REMSEN AVE", "amenity": "post_box", "collection_times": "Mo-Fr 08:00", "nsi_id": "unitedstatespostalservice-a77078", "operator": "United States Postal Service", "operator:short": "USPS", "operator:type": "public", "operator:wikidata": "Q668687", "ref": "0890100039"}, "type": "Feature"}
{"geometry": {"coordinates": [-74.4600045119, 40.478106849], "type": "Point"}, "id": "S83H071oRWLs24hx85-2Ci6sjXM=", "properties": {"@source_uri": "https://tools.usps.com/UspsToolsRestServices/rest/POLocator/findLocations", "@spider": "usps_collection_boxes", "addr:city": "NEW BRUNSWICK", "addr:country": "US", "addr:postcode": "08901", "addr:state": "NJ", "addr:street_address": "2 ELIZABETH ST", "amenity": "post_box", "collection_times": "Mo-Sa 11:00", "nsi_id": "unitedstatespostalservice-a77078", "operator": "United States Postal Service", "operator:short": "USPS", "operator:type": "public", "operator:wikidata": "Q668687", "ref": "0890100045"}, "type": "Feature"}
{"geometry": {"coordinates": [-74.4442666, 40.495955], "type": "Point"}, "id": "6BOaILlW6gzeqHRo5iDm68LJUsg=", "properties": {"@source_uri": "https://tools.usps.com/UspsToolsRestServices/rest/POLocator/findLocations", "@spider": "usps_collection_boxes", "addr:city": "NEW BRUNSWICK", "addr:country": "US", "addr:postcode": "08901", "addr:state": "NJ", "addr:street_address": "390 GEORGE ST", "amenity": "post_box", "collection_times": "Mo-Sa 10:00", "nsi_id": "unitedstatespostalservice-a77078", "operator": "United States Postal Service", "operator:short": "USPS", "operator:type": "public", "operator:wikidata": "Q668687", "ref": "0890100055"}, "type": "Feature"}
{"geometry": {"coordinates": [-74.4468208, 40.493952], "type": "Point"}, "id": "mQ97e28R4n2n--Q-qNjYBGbg9rg=", "properties": {"@source_uri": "https://tools.usps.com/UspsToolsRestServices/rest/POLocator/findLocations", "@spider": "usps_collection_boxes", "addr:city": "NEW BRUNSWICK", "addr:country": "US", "addr:postcode": "08901", "addr:state": "NJ", "addr:street_address": "92 BAYARD ST", "amenity": "post_box", "collection_times": "Mo-Fr 17:00; Sa 12:00", "note": "ON 12/24 AND 12/31, THIS BOX MAY BE COLLECTED AS EARLY AS 12 NOON.", "nsi_id": "unitedstatespostalservice-a77078", "operator": "United States Postal Service", "operator:short": "USPS", "operator:type": "public", "operator:wikidata": "Q668687", "ref": "0890100065"}, "type": "Feature"}
{"geometry": {"coordinates": [-74.4464161, 40.494757], "type": "Point"}, "id": "1okQCqTmjSuqeqLZe1UUTvLCZTQ=", "properties": {"@source_uri": "https://tools.usps.com/UspsToolsRestServices/rest/POLocator/findLocations", "@spider": "usps_collection_boxes", "addr:city": "NEW BRUNSWICK", "addr:country": "US", "addr:postcode": "08901", "addr:state": "NJ", "addr:street_address": "67 PATERSON ST", "amenity": "post_box", "collection_times": "Mo-Sa 11:30", "nsi_id": "unitedstatespostalservice-a77078", "operator": "United States Postal Service", "operator:short": "USPS", "operator:type": "public", "operator:wikidata": "Q668687", "ref": "0890100068"}, "type": "Feature"}
{"geometry": {"coordinates": [-74.447277, 40.492789], "type": "Point"}, "id": "Dbak9zpeGVdiUv8n9kKzeX-lUrI=", "properties": {"@source_uri": "https://tools.usps.com/UspsToolsRestServices/rest/POLocator/findLocations", "@spider": "usps_collection_boxes", "addr:city": "NEW BRUNSWICK", "addr:country": "US", "addr:postcode": "08901", "addr:state": "NJ", "addr:street_address": "167 NEW ST", "amenity": "post_box", "collection_times": "Mo-Sa 09:30", "nsi_id": "unitedstatespostalservice-a77078", "operator": "United States Postal Service", "operator:short": "USPS", "operator:type": "public", "operator:wikidata": "Q668687", "ref": "0890100071"}, "type": "Feature"}
{"geometry": {"coordinates": [-74.4452789, 40.492445], "type": "Point"}, "id": "BgFUJxtaip6vO3B6vk5G7ZewZg0=", "properties": {"@source_uri": "https://tools.usps.com/UspsToolsRestServices/rest/POLocator/findLocations", "@spider": "usps_collection_boxes", "addr:city": "NEW BRUNSWICK", "addr:country": "US", "addr:postcode": "08901", "addr:state": "NJ", "addr:street_address": "51 LIVINGSTON AVE", "amenity": "post_box", "collection_times": "Mo-Sa 08:00", "nsi_id": "unitedstatespostalservice-a77078", "operator": "United States Postal Service", "operator:short": "USPS", "operator:type": "public", "operator:wikidata": "Q668687", "ref": "0890100072"}, "type": "Feature"}
{"geometry": {"coordinates": [-74.4469183, 40.490458], "type": "Point"}, "id": "3ox9TV0GmMiA9c8urbccEO_r9ic=", "properties": {"@source_uri": "https://tools.usps.com/UspsToolsRestServices/rest/POLocator/findLocations", "@spider": "usps_collection_boxes", "addr:city": "NEW BRUNSWICK", "addr:country": "US", "addr:postcode": "08901", "addr:state": "NJ", "addr:street_address": "253 REDMOND ST", "amenity": "post_box", "collection_times": "Mo-Sa 10:30", "nsi_id": "unitedstatespostalservice-a77078", "operator": "United States Postal Service", "operator:short": "USPS", "operator:type": "public", "operator:wikidata": "Q668687", "ref": "0890100073"}, "type": "Feature"}
{"geometry": {"coordinates": [-74.4525263, 40.504041], "type": "Point"}, "id": "Vbw-q_6QnXb6d0aN5B8Kliq1reQ=", "properties": {"@source_uri": "https://tools.usps.com/UspsToolsRestServices/rest/POLocator/findLocations", "@spider": "usps_collection_boxes", "addr:city": "NEW BRUNSWICK", "addr:country": "US", "addr:postcode": "08901", "addr:state": "NJ", "addr:street_address": "155 COLLEGE AVE", "amenity": "post_box", "collection_times": "Mo-Sa 08:00", "nsi_id": "unitedstatespostalservice-a77078", "operator": "United States Postal Service", "operator:short": "USPS", "operator:type": "public", "operator:wikidata": "Q668687", "ref": "0890100074"}, "type": "Feature"}
{"geometry": {"coordinates": [-74.4687479, 40.477485], "type": "Point"}, "id": "PmqVaBRc_MSrImjW20y81k9ozmk=", "properties": {"@source_uri": "https://tools.usps.com/UspsToolsRestServices/rest/POLocator/findLocations", "@spider": "usps_collection_boxes", "addr:city": "NEW BRUNSWICK", "addr:country": "US", "addr:postcode": "08901", "addr:state": "NJ", "addr:street_address": "422 JERSEY AVE", "amenity": "post_box", "collection_times": "Mo-Sa 08:00", "nsi_id": "unitedstatespostalservice-a77078", "operator": "United States Postal Service", "operator:short": "USPS", "operator:type": "public", "operator:wikidata": "Q668687", "ref": "0890100081"}, "type": "Feature"}
{"geometry": {"coordinates": [-74.443386, 40.492721], "type": "Point"}, "id": "CGIAHQ8FTNEKA3iCsgRo-Inq5eM=", "properties": {"@source_uri": "https://tools.usps.com/UspsToolsRestServices/rest/POLocator/findLocations", "@spider": "usps_collection_boxes", "addr:city": "NEW BRUNSWICK", "addr:country": "US", "addr:postcode": "08901", "addr:state": "NJ", "addr:street_address": "303 GEORGE ST", "amenity": "post_box", "collection_times": "Mo-Sa 11:00", "nsi_id": "unitedstatespostalservice-a77078", "operator": "United States Postal Service", "operator:short": "USPS", "operator:type": "public", "operator:wikidata": "Q668687", "ref": "0890100090"}, "type": "Feature"}
{"geometry": {"coordinates": [-74.4471543, 40.498371], "type": "Point"}, "id": "qHjuD4iCKpozEH7acWrDvg_SHDA=", "properties": {"@source_uri": "https://tools.usps.com/UspsToolsRestServices/rest/POLocator/findLocations", "@spider": "usps_collection_boxes", "addr:city": "NEW BRUNSWICK", "addr:country": "US", "addr:postcode": "08901", "addr:state": "NJ", "addr:street_address": "29 COLLEGE AVE", "amenity": "post_box", "collection_times": "Mo-Sa 08:00", "nsi_id": "unitedstatespostalservice-a77078", "operator": "United States Postal Service", "operator:short": "USPS", "operator:type": "public", "operator:wikidata": "Q668687", "ref": "0890100096"}, "type": "Feature"}
{"geometry": {"coordinates": [-74.444716, 40.496076], "type": "Point"}, "id": "A023G74Ivb9cratPf0wnQxznTOo=", "properties": {"@source_uri": "https://tools.usps.com/UspsToolsRestServices/rest/POLocator/findLocations", "@spider": "usps_collection_boxes", "addr:city": "NEW BRUNSWICK", "addr:country": "US", "addr:postcode": "08901", "addr:state": "NJ", "addr:street_address": "120 ALBANY ST", "amenity": "post_box", "collection_times": "Mo-Sa 09:00", "nsi_id": "unitedstatespostalservice-a77078", "operator": "United States Postal Service", "operator:short": "USPS", "operator:type": "public", "operator:wikidata": "Q668687", "ref": "0890100101"}, "type": "Feature"}
{"geometry": {"coordinates": [-74.413804, 40.48778], "type": "Point"}, "id": "5VDh89S_VyY6b_KmFsDXCbMS5kE=", "properties": {"@source_uri": "https://tools.usps.com/UspsToolsRestServices/rest/POLocator/findLocations", "@spider": "usps_collection_boxes", "addr:city": "NEW BRUNSWICK", "addr:country": "US", "addr:postcode": "08901", "addr:state": "NJ", "addr:street_address": "50 REGENCY MANOR DR BLDG 8", "amenity": "post_box", "collection_times": "Mo-Sa 08:00", "nsi_id": "unitedstatespostalservice-a77078", "operator": "United States Postal Service", "operator:short": "USPS", "operator:type": "public", "operator:wikidata": "Q668687", "ref": "0890100102"}, "type": "Feature"}
{"geometry": {"coordinates": [-74.4584399, 40.501658], "type": "Point"}, "id": "u874GNV73DrGVzXojwwXrb4CdCA=", "properties": {"@source_uri": "https://tools.usps.com/UspsToolsRestServices/rest/POLocator/findLocations", "@spider": "usps_collection_boxes", "addr:city": "NEW BRUNSWICK", "addr:country": "US", "addr:postcode": "08901", "addr:state": "NJ", "addr:street_address": "245 EASTON AVE", "amenity": "post_box", "collection_times": "Mo-Sa 08:00", "nsi_id": "unitedstatespostalservice-a77078", "operator": "United States Postal Service", "operator:short": "USPS", "operator:type": "public", "operator:wikidata": "Q668687", "ref": "0890100105"}, "type": "Feature"}
{"geometry": {"coordinates": [-74.453415404, 40.490821172], "type": "Point"}, "id": "80n2zzYBD7N9u_LWvKixiufT0hA=", "properties": {"@source_uri": "https://tools.usps.com/UspsToolsRestServices/rest/POLocator/findLocations", "@spider": "usps_collection_boxes", "addr:city": "NEW BRUNSWICK", "addr:country": "US", "addr:postcode": "08901", "addr:state": "NJ", "addr:street_address": "333 HANDY ST", "amenity": "post_box", "collection_times": "Mo-Fr 16:00; Sa 13:00", "indoor": "yes", "note": "ON 12/24 AND 12/31, THIS BOX MAY BE COLLECTED AS EARLY AS 12 NOON.", "nsi_id": "unitedstatespostalservice-a77078", "operator": "United States Postal Service", "operator:short": "USPS", "operator:type": "public", "operator:wikidata": "Q668687", "ref": "0890100106"}, "type": "Feature"}
{"geometry": {"coordinates": [-74.446226341, 40.494015612], "type": "Point"}, "id": "EoRBGmHXoUNOFSB2BaTfb1XZUic=", "properties": {"@source_uri": "https://tools.usps.com/UspsToolsRestServices/rest/POLocator/findLocations", "@spider": "usps_collection_boxes", "addr:city": "NEW BRUNSWICK", "addr:country": "US", "addr:postcode": "08901", "addr:state": "NJ", "addr:street_address": "86 BAYARD ST", "amenity": "post_box", "collection_times": "Mo-Fr 17:00; Sa 12:00", "indoor": "yes", "note": "ON 12/24 AND 12/31, THIS BOX MAY BE COLLECTED AS EARLY AS 12 NOON.", "nsi_id": "unitedstatespostalservice-a77078", "operator": "United States Postal Service", "operator:short": "USPS", "operator:type": "public", "operator:wikidata": "Q668687", "ref": "0890100108"}, "type": "Feature"}
{"geometry": {"coordinates": [-74.446226341, 40.494015612], "type": "Point"}, "id": "ONXLpVgbGUyCFczED4R4aVQmp78=", "properties": {"@source_uri": "https://tools.usps.com/UspsToolsRestServices/rest/POLocator/findLocations", "@spider": "usps_collection_boxes", "addr:city": "NEW BRUNSWICK", "addr:country": "US", "addr:postcode": "08901", "addr:state": "NJ", "addr:street_address": "86 BAYARD ST", "amenity": "post_box", "collection_times": "Mo-Fr 17:00; Sa 12:00", "indoor": "yes", "note": "ON 12/24 AND 12/31, THIS BOX MAY BE COLLECTED AS EARLY AS 12 NOON.", "nsi_id": "unitedstatespostalservice-a77078", "operator": "United States Postal Service", "operator:short": "USPS", "operator:type": "public", "operator:wikidata": "Q668687", "ref": "0890100111"}, "type": "Feature"}
{"geometry": {"coordinates": [-74.453415404, 40.490821172], "type": "Point"}, "id": "SaAeoeHKnWjJL3tYsu3SBHEOgLQ=", "properties": {"@source_uri": "https://tools.usps.com/UspsToolsRestServices/rest/POLocator/findLocations", "@spider": "usps_collection_boxes", "addr:city": "NEW BRUNSWICK", "addr:country": "US", "addr:postcode": "08901", "addr:state": "NJ", "addr:street_address": "333 HANDY ST", "amenity": "post_box", "collection_times": "Mo-Fr 16:00; Sa 13:00", "indoor": "yes", "note": "ON 12/24 AND 12/31, THIS BOX MAY BE COLLECTED AS EARLY AS 12 NOON.", "nsi_id": "unitedstatespostalservice-a77078", "operator": "United States Postal Service", "operator:short": "USPS", "operator:type": "public", "operator:wikidata": "Q668687", "ref": "0890100112"}, "type": "Feature"}
{"geometry": {"coordinates": [-74.472040809, 40.467639909], "type": "Point"}, "id": "S6nc0I5BOsRI2oktHBwi46TFsjI=", "properties": {"@source_uri": "https://tools.usps.com/UspsToolsRestServices/rest/POLocator/findLocations", "@spider": "usps_collection_boxes", "addr:city": "NEW BRUNSWICK", "addr:country": "US", "addr:postcode": "08902", "addr:state": "NJ", "addr:street_address": "1062 LIVINGSTON AVE", "amenity": "post_box", "collection_times": "Mo-Fr 17:00; Sa 13:00", "note": "ON 12/24 AND 12/31, THIS BOX MAY BE COLLECTED AS EARLY AS 12 NOON.", "nsi_id": "unitedstatespostalservice-a77078", "operator": "United States Postal Service", "operator:short": "USPS", "operator:type": "public", "operator:wikidata": "Q668687", "ref": "0890200001"}, "type": "Feature"}
{"geometry": {"coordinates": [-74.47231116, 40.467407051], "type": "Point"}, "id": "QJalJCkEKLhHrU9PbDLl5003G3Q=", "properties": {"@source_uri": "https://tools.usps.com/UspsToolsRestServices/rest/POLocator/findLocations", "@spider": "usps_collection_boxes", "addr:city": "NEW BRUNSWICK", "addr:country": "US", "addr:postcode": "08902", "addr:state": "NJ", "addr:street_address": "1072 LIVINGSTON AVE", "amenity": "post_box", "collection_times": "Mo-Sa 10:00", "nsi_id": "unitedstatespostalservice-a77078", "operator": "United States Postal Service", "operator:short": "USPS", "operator:type": "public", "operator:wikidata": "Q668687", "ref": "0890200003"}, "type": "Feature"}
{"geometry": {"coordinates": [-74.4619831, 40.475963], "type": "Point"}, "id": "adFi-jlIrT3ah6pCLrIuRDsQUG8=", "properties": {"@source_uri": "https://tools.usps.com/UspsToolsRestServices/rest/POLocator/findLocations", "@spider": "usps_collection_boxes", "addr:city": "NEW BRUNSWICK", "addr:country": "US", "addr:postcode": "08902", "addr:state": "NJ", "addr:street_address": "648 LIVINGSTON AVE", "amenity": "post_box", "collection_times": "Mo-Sa 11:00", "nsi_id": "unitedstatespostalservice-a77078", "operator": "United States Postal Service", "operator:short": "USPS", "operator:type": "public", "operator:wikidata": "Q668687", "ref": "0890200005"}, "type": "Feature"}
{"geometry": {"coordinates": [-74.4529922, 40.468375], "type": "Point"}, "id": "RZh7SDgoXKr-rbYM8xGRpDp9Psw=", "properties": {"@source_uri": "https://tools.usps.com/UspsToolsRestServices/rest/POLocator/findLocations", "@spider": "usps_collection_boxes", "addr:city": "NEW BRUNSWICK", "addr:country": "US", "addr:postcode": "08902", "addr:state": "NJ", "addr:street_address": "663 GEORGES RD", "amenity": "post_box", "collection_times": "Mo-Sa 10:00", "nsi_id": "unitedstatespostalservice-a77078", "operator": "United States Postal Service", "operator:short": "USPS", "operator:type": "public", "operator:wikidata": "Q668687", "ref": "0890200007"}, "type": "Feature"}
{"geometry": {"coordinates": [-74.4527955, 40.465607], "type": "Point"}, "id": "4MSDTO3mJpet3esHzq29hB2BXZY=", "properties": {"@source_uri": "https://tools.usps.com/UspsToolsRestServices/rest/POLocator/findLocations", "@spider": "usps_collection_boxes", "addr:city": "NEW BRUNSWICK", "addr:country": "US", "addr:postcode": "08902", "addr:state": "NJ", "addr:street_address": "560 MILLTOWN RD", "amenity": "post_box", "collection_times": "Mo-Sa 10:00", "nsi_id": "unitedstatespostalservice-a77078", "operator": "United States Postal Service", "operator:short": "USPS", "operator:type": "public", "operator:wikidata": "Q668687", "ref": "0890200008"}, "type": "Feature"}
{"geometry": {"coordinates": [-74.4553914, 40.465062], "type": "Point"}, "id": "Tu_h9Ytm3aEqc4pRpckltP-9DPA=", "properties": {"@source_uri": "https://tools.usps.com/UspsToolsRestServices/rest/POLocator/findLocations", "@spider": "usps_collection_boxes", "addr:city": "NEW BRUNSWICK", "addr:country": "US", "addr:postcode": "08902", "addr:state": "NJ", "addr:street_address": "9 PARDUN RD", "amenity": "post_box", "collection_times": "Mo-Sa 08:00", "nsi_id": "unitedstatespostalservice-a77078", "operator": "United States Postal Service", "operator:short": "USPS", "operator:type": "public", "operator:wikidata": "Q668687", "ref": "0890200009"}, "type": "Feature"}
{"geometry": {"coordinates": [-74.4585605, 40.462705], "type": "Point"}, "id": "Qhz-r4amOGcbb9Aj5gSneZSPp8I=", "properties": {"@source_uri": "https://tools.usps.com/UspsToolsRestServices/rest/POLocator/findLocations", "@spider": "usps_collection_boxes", "addr:city": "NEW BRUNSWICK", "addr:country": "US", "addr:postcode": "08902", "addr:state": "NJ", "addr:street_address": "869 US HIGHWAY 1", "amenity": "post_box", "collection_times": "Mo-Sa 09:30", "nsi_id": "unitedstatespostalservice-a77078", "operator": "United States Postal Service", "operator:short": "USPS", "operator:type": "public", "operator:wikidata": "Q668687", "ref": "0890200011"}, "type": "Feature"}
{"geometry": {"coordinates": [-74.4728355447, 40.4520893407], "type": "Point"}, "id": "S7r4fE_4GRACX5rgFCktWHi2z2Q=", "properties": {"@source_uri": "https://tools.usps.com/UspsToolsRestServices/rest/POLocator/findLocations", "@spider": "usps_collection_boxes", "addr:city": "NEW BRUNSWICK", "addr:country": "US", "addr:postcode": "08902", "addr:state": "NJ", "addr:street_address": "300 BIRCHWOOD CT", "amenity": "post_box", "collection_times": "Mo-Sa 08:00", "nsi_id": "unitedstatespostalservice-a77078", "operator": "United States Postal Service", "operator:short": "USPS", "operator:type": "public", "operator:wikidata": "Q668687", "ref": "0890200012"}, "type": "Feature"}
{"geometry": {"coordinates": [-74.454165, 40.462218], "type": "Point"}, "id": "0cmDJ4RAvEkQuYkhnpe86P2PjyU=", "properties": {"@source_uri": "https://tools.usps.com/UspsToolsRestServices/rest/POLocator/findLocations", "@spider": "usps_collection_boxes", "addr:city": "NEW BRUNSWICK", "addr:country": "US", "addr:postcode": "08902", "addr:state": "NJ", "addr:street_address": "850 CAROLIER LN", "amenity": "post_box", "collection_times": "Mo-Sa 11:00", "nsi_id": "unitedstatespostalservice-a77078", "operator": "United States Postal Service", "operator:short": "USPS", "operator:type": "public", "operator:wikidata": "Q668687", "ref": "0890200013"}, "type": "Feature"}
{"geometry": {"coordinates": [-74.4622764, 40.463603], "type": "Point"}, "id": "5YkIzJ911Hkuh_WV4vRikLhcc6k=", "properties": {"@source_uri": "https://tools.usps.com/UspsToolsRestServices/rest/POLocator/findLocations", "@spider": "usps_collection_boxes", "addr:city": "NEW BRUNSWICK", "addr:country": "US", "addr:postcode": "08902", "addr:state": "NJ", "addr:street_address": "962 VILLAGE DR W", "amenity": "post_box", "collection_times": "Mo-Sa 11:00", "nsi_id": "unitedstatespostalservice-a77078", "operator": "United States Postal Service", "operator:short": "USPS", "operator:type": "public", "operator:wikidata": "Q668687", "ref": "0890200015"}, "type": "Feature"}
{"geometry": {"coordinates": [-74.4617766, 40.466359], "type": "Point"}, "id": "dgMv6-E2UaXFKGsUbaUub7Y4ogU=", "properties": {"@source_uri": "https://tools.usps.com/UspsToolsRestServices/rest/POLocator/findLocations", "@spider": "usps_collection_boxes", "addr:city": "NEW BRUNSWICK", "addr:country": "US", "addr:postcode": "08902", "addr:state": "NJ", "addr:street_address": "771 CRANBURY CROSS RD", "amenity": "post_box", "collection_times": "Mo-Sa 11:00", "nsi_id": "unitedstatespostalservice-a77078", "operator": "United States Postal Service", "operator:short": "USPS", "operator:type": "public", "operator:wikidata": "Q668687", "ref": "0890200016"}, "type": "Feature"}
{"geometry": {"coordinates": [-74.458698, 40.470708], "type": "Point"}, "id": "qrVOLMn2XmetfvalJXfBhghV3Zo=", "properties": {"@source_uri": "https://tools.usps.com/UspsToolsRestServices/rest/POLocator/findLocations", "@spider": "usps_collection_boxes", "addr:city": "NEW BRUNSWICK", "addr:country": "US", "addr:postcode": "08902", "addr:state": "NJ", "addr:street_address": "19 ROSELAND PL", "amenity": "post_box", "collection_times": "Mo-Sa 08:00", "nsi_id": "unitedstatespostalservice-a77078", "operator": "United States Postal Service", "operator:short": "USPS", "operator:type": "public", "operator:wikidata": "Q668687", "ref": "0890200018"}, "type": "Feature"}
{"geometry": {"coordinates": [-74.4792944, 40.44159], "type": "Point"}, "id": "8-gsdZYdbXY3_W8RSWNpRO6g0XA=", "properties": {"@source_uri": "https://tools.usps.com/UspsToolsRestServices/rest/POLocator/findLocations", "@spider": "usps_collection_boxes", "addr:city": "NEW BRUNSWICK", "addr:country": "US", "addr:postcode": "08902", "addr:state": "NJ", "addr:street_address": "500 ADAMS LN", "amenity": "post_box", "collection_times": "Mo-Sa 08:00", "nsi_id": "unitedstatespostalservice-a77078", "operator": "United States Postal Service", "operator:short": "USPS", "operator:type": "public", "operator:wikidata": "Q668687", "ref": "0890200019"}, "type": "Feature"}
{"geometry": {"coordinates": [-74.5002219, 40.453702], "type": "Point"}, "id": "TYcnJAoNF9x6d4Dm6ttkvr9AWc8=", "properties": {"@source_uri": "https://tools.usps.com/UspsToolsRestServices/rest/POLocator/findLocations", "@spider": "usps_collection_boxes", "addr:city": "NEW BRUNSWICK", "addr:country": "US", "addr:postcode": "08902", "addr:state": "NJ", "addr:street_address": "19 WILLOWBROOK DR", "amenity": "post_box", "collection_times": "Mo-Sa 10:30", "nsi_id": "unitedstatespostalservice-a77078", "operator": "United States Postal Service", "operator:short": "USPS", "operator:type": "public", "operator:wikidata": "Q668687", "ref": "0890200021"}, "type": "Feature"}
{"geometry": {"coordinates": [-74.5111364, 40.45657], "type": "Point"}, "id": "XdeGEyYmtDflP_BI__6zJRMUjaA=", "properties": {"@source_uri": "https://tools.usps.com/UspsToolsRestServices/rest/POLocator/findLocations", "@spider": "usps_collection_boxes", "addr:city": "NEW BRUNSWICK", "addr:country": "US", "addr:postcode": "08902", "addr:state": "NJ", "addr:street_address": "999 HIDDEN LAKE DR", "amenity": "post_box", "collection_times": "Mo-Sa 11:00", "nsi_id": "unitedstatespostalservice-a77078", "operator": "United States Postal Service", "operator:short": "USPS", "operator:type": "public", "operator:wikidata": "Q668687", "ref": "0890200022"}, "type": "Feature"}
{"geometry": {"coordinates": [-74.5222023, 40.436387], "type": "Point"}, "id": "mA-iBZ4Ay8O3Wqsd7K_0B-bdhJU=", "properties": {"@source_uri": "https://tools.usps.com/UspsToolsRestServices/rest/POLocator/findLocations", "@spider": "usps_collection_boxes", "addr:city": "NEW BRUNSWICK", "addr:country": "US", "addr:postcode": "08902", "addr:state": "NJ", "addr:street_address": "1 PETUNIA DR", "amenity": "post_box", "collection_times": "Sa 08:00", "nsi_id": "unitedstatespostalservice-a77078", "operator": "United States Postal Service", "operator:short": "USPS", "operator:type": "public", "operator:wikidata": "Q668687", "ref": "0890200023"}, "type": "Feature"}
{"geometry": {"coordinates": [-74.46124465, 40.478918], "type": "Point"}, "id": "5deQcQX3q9AeA6MpfugzNK5OR74=", "properties": {"@source_uri": "https://tools.usps.com/UspsToolsRestServices/rest/POLocator/findLocations", "@spider": "usps_collection_boxes", "addr:city": "NEW BRUNSWICK", "addr:country": "US", "addr:postcode": "08902", "addr:state": "NJ", "addr:street_address": "1405 OAK TREE DR", "amenity": "post_box", "collection_times": "Mo-Sa 08:00", "nsi_id": "unitedstatespostalservice-a77078", "operator": "United States Postal Service", "operator:short": "USPS", "operator:type": "public", "operator:wikidata": "Q668687", "ref": "0890200024"}, "type": "Feature"}
{"geometry": {"coordinates": [-74.4565814, 40.465383], "type": "Point"}, "id": "OvtL-kEwEz6HmaSaOwT2Rjz6kZE=", "properties": {"@source_uri": "https://tools.usps.com/UspsToolsRestServices/rest/POLocator/findLocations", "@spider": "usps_collection_boxes", "addr:city": "NEW BRUNSWICK", "addr:country": "US", "addr:postcode": "08902", "addr:state": "NJ", "addr:street_address": "825 GEORGES RD", "amenity": "post_box", "collection_times": "Mo-Sa 10:30", "nsi_id": "unitedstatespostalservice-a77078", "operator": "United States Postal Service", "operator:short": "USPS", "operator:type": "public", "operator:wikidata": "Q668687", "ref": "0890200025"}, "type": "Feature"}
{"geometry": {"coordinates": [-74.4783199, 40.461514], "type": "Point"}, "id": "ZkYdPlh3cG0HpdVv72_iD0nnESk=", "properties": {"@source_uri": "https://tools.usps.com/UspsToolsRestServices/rest/POLocator/findLocations", "@spider": "usps_collection_boxes", "addr:city": "NEW BRUNSWICK", "addr:country": "US", "addr:postcode": "08902", "addr:state": "NJ", "addr:street_address": "100 N OAKS BLVD", "amenity": "post_box", "collection_times": "Mo-Sa 11:00", "nsi_id": "unitedstatespostalservice-a77078", "operator": "United States Postal Service", "operator:short": "USPS", "operator:type": "public", "operator:wikidata": "Q668687", "ref": "0890200026"}, "type": "Feature"}
{"geometry": {"coordinates": [-74.501973, 40.446594], "type": "Point"}, "id": "UF98drZGhARK68tyrF3qWgu-3AA=", "properties": {"@source_uri": "https://tools.usps.com/UspsToolsRestServices/rest/POLocator/findLocations", "@spider": "usps_collection_boxes", "addr:city": "NEW BRUNSWICK", "addr:country": "US", "addr:postcode": "08902", "addr:state": "NJ", "addr:street_address": "215 N CENTER DR", "amenity": "post_box", "collection_times": "Mo-Sa 10:00", "nsi_id": "unitedstatespostalservice-a77078", "operator": "United States Postal Service", "operator:short": "USPS", "operator:type": "public", "operator:wikidata": "Q668687", "ref": "0890200028"}, "type": "Feature"}
{"geometry": {"coordinates": [-74.4699878, 40.458316], "type": "Point"}, "id": "gtPlGISpQ4HWu3flrCyXDAYDO9g=", "properties": {"@source_uri": "https://tools.usps.com/UspsToolsRestServices/rest/POLocator/findLocations", "@spider": "usps_collection_boxes", "addr:city": "NEW BRUNSWICK", "addr:country": "US", "addr:postcode": "08902", "addr:state": "NJ", "addr:street_address": "1 SOCIETY HILL WAY", "amenity": "post_box", "collection_times": "Mo-Sa 11:00", "nsi_id": "unitedstatespostalservice-a77078", "operator": "United States Postal Service", "operator:short": "USPS", "operator:type": "public", "operator:wikidata": "Q668687", "ref": "0890200031"}, "type": "Feature"}
{"geometry": {"coordinates": [-74.5259836, 40.439376], "type": "Point"}, "id": "a1YHTkmU4prdgWru7qK12u7zPfQ=", "properties": {"@source_uri": "https://tools.usps.com/UspsToolsRestServices/rest/POLocator/findLocations", "@spider": "usps_collection_boxes", "addr:city": "NEW BRUNSWICK", "addr:country": "US", "addr:postcode": "08902", "addr:state": "NJ", "addr:street_address": "1 ASPEN DR", "amenity": "post_box", "collection_times": "Mo-Sa 10:00", "nsi_id": "unitedstatespostalservice-a77078", "operator": "United States Postal Service", "operator:short": "USPS", "operator:type": "public", "operator:wikidata": "Q668687", "ref": "0890200032"}, "type": "Feature"}
{"geometry": {"coordinates": [-74.4710705, 40.468367], "type": "Point"}, "id": "YgHG8AzAr_ObVAbQgU6PEJVpxK8=", "properties": {"@source_uri": "https://tools.usps.com/UspsToolsRestServices/rest/POLocator/findLocations", "@spider": "usps_collection_boxes", "addr:city": "NEW BRUNSWICK", "addr:country": "US", "addr:postcode": "08902", "addr:state": "NJ", "addr:street_address": "1026 LIVINGSTON AVE", "amenity": "post_box", "collection_times": "Mo-Sa 08:00", "nsi_id": "unitedstatespostalservice-a77078", "operator": "United States Postal Service", "operator:short": "USPS", "operator:type": "public", "operator:wikidata": "Q668687", "ref": "0890200033"}, "type": "Feature"}
{"geometry": {"coordinates": [-74.4864499, 40.434612], "type": "Point"}, "id": "KTqD_ymiH0I2ucamLz4cjSkBt78=", "properties": {"@source_uri": "https://tools.usps.com/UspsToolsRestServices/rest/POLocator/findLocations", "@spider": "usps_collection_boxes", "addr:city": "NEW BRUNSWICK", "addr:country": "US", "addr:postcode": "08902", "addr:state": "NJ", "addr:street_address": "2200 US HIGHWAY 130", "amenity": "post_box", "collection_times": "Mo-Sa 09:00", "nsi_id": "unitedstatespostalservice-a77078", "operator": "United States Postal Service", "operator:short": "USPS", "operator:type": "public", "operator:wikidata": "Q668687", "ref": "0890200037"}, "type": "Feature"}
{"geometry": {"coordinates": [-74.4586659, 40.467166], "type": "Point"}, "id": "UyKjCDrLhELgA8y1tfYRB2bn_gc=", "properties": {"@source_uri": "https://tools.usps.com/UspsToolsRestServices/rest/POLocator/findLocations", "@spider": "usps_collection_boxes", "addr:city": "NEW BRUNSWICK", "addr:country": "US", "addr:postcode": "08902", "addr:state": "NJ", "addr:street_address": "710 HERMANN RD", "amenity": "post_box", "collection_times": "Mo-Sa 11:00", "nsi_id": "unitedstatespostalservice-a77078", "operator": "United States Postal Service", "operator:short": "USPS", "operator:type": "public", "operator:wikidata": "Q668687", "ref": "0890200038"}, "type": "Feature"}
{"geometry": {"coordinates": [-74.4672052, 40.445077], "type": "Point"}, "id": "I12D_8ff9m14Em6Tt-D-qhh4gGY=", "properties": {"@source_uri": "https://tools.usps.com/UspsToolsRestServices/rest/POLocator/findLocations", "@spider": "usps_collection_boxes", "addr:city": "NEW BRUNSWICK", "addr:country": "US", "addr:postcode": "08902", "addr:state": "NJ", "addr:street_address": "1582 US HIGHWAY 130", "amenity": "post_box", "collection_times": "Mo-Sa 13:00", "note": "ON 12/24 AND 12/31, THIS BOX MAY BE COLLECTED AS EARLY AS 12 NOON.", "nsi_id": "unitedstatespostalservice-a77078", "operator": "United States Postal Service", "operator:short": "USPS", "operator:type": "public", "operator:wikidata": "Q668687", "ref": "0890200039"}, "type": "Feature"}
{"geometry": {"coordinates": [-74.472040809, 40.467639909], "type": "Point"}, "id": "6nkoXkYhGcPzNWUMGe7dloOprdM=", "properties": {"@source_uri": "https://tools.usps.com/UspsToolsRestServices/rest/POLocator/findLocations", "@spider": "usps_collection_boxes", "addr:city": "NEW BRUNSWICK", "addr:country": "US", "addr:postcode": "08902", "addr:state": "NJ", "addr:street_address": "1062 LIVINGSTON AVE", "amenity": "post_box", "collection_times": "Mo-Fr 17:00; Sa 13:00", "name": "USPS COLLECTION BOX - APC", "note": "ON 12/24 AND 12/31, THIS BOX MAY BE COLLECTED AS EARLY AS 12 NOON.", "nsi_id": "unitedstatespostalservice-a77078", "operator": "United States Postal Service", "operator:short": "USPS", "operator:type": "public", "operator:wikidata": "Q668687", "ref": "0890200040"}, "type": "Feature"}
{"geometry": {"coordinates": [-74.472040809, 40.467639909], "type": "Point"}, "id": "T_3v2_t0HU81nyEXzJWWVnw-HRM=", "properties": {"@source_uri": "https://tools.usps.com/UspsToolsRestServices/rest/POLocator/findLocations", "@spider": "usps_collection_boxes", "addr:city": "NEW BRUNSWICK", "addr:country": "US", "addr:postcode": "08902", "addr:state": "NJ", "addr:street_address": "1062 LIVINGSTON AVE", "amenity": "post_box", "collection_times": "Mo-Fr 17:00; Sa 13:00", "indoor": "yes", "note": "ON 12/24 AND 12/31, THIS BOX MAY BE COLLECTED AS EARLY AS 12 NOON.", "nsi_id": "unitedstatespostalservice-a77078", "operator": "United States Postal Service", "operator:short": "USPS", "operator:type": "public", "operator:wikidata": "Q668687", "ref": "0890200041"}, "type": "Feature"}
{"geometry": {"coordinates": [-74.472040809, 40.467639909], "type": "Point"}, "id": "KkEcYXs037zXLWzAMrGKCeodSMI=", "properties": {"@source_uri": "https://tools.usps.com/UspsToolsRestServices/rest/POLocator/findLocations", "@spider": "usps_collection_boxes", "addr:city": "NEW BRUNSWICK", "addr:country": "US", "addr:postcode": "08902", "addr:state": "NJ", "addr:street_address": "1062 LIVINGSTON AVE", "amenity": "post_box", "collection_times": "Mo-Fr 17:00; Sa 13:00", "indoor": "yes", "note": "ON 12/24 AND 12/31, THIS BOX MAY BE COLLECTED AS EARLY AS 12 NOON.", "nsi_id": "unitedstatespostalservice-a77078", "operator": "United States Postal Service", "operator:short": "USPS", "operator:type": "public", "operator:wikidata": "Q668687", "ref": "0890200049"}, "type": "Feature"}
{"geometry": {"coordinates": [-74.425562153, 40.499938553], "type": "Point"}, "id": "KPyk6p4m5EPSVHMhhQ_8yeEigVM=", "properties": {"@source_uri": "https://tools.usps.com/UspsToolsRestServices/rest/POLocator/findLocations", "@spider": "usps_collection_boxes", "addr:city": "NEW BRUNSWICK", "addr:country": "US", "addr:postcode": "08904", "addr:state": "NJ", "addr:street_address": "406 RARITAN AVE", "amenity": "post_box", "collection_times": "Mo-Fr 17:00; Sa 12:00", "note": "ON 12/24 AND 12/31, THIS BOX MAY BE COLLECTED AS EARLY AS 12 NOON.", "nsi_id": "unitedstatespostalservice-a77078", "operator": "United States Postal Service", "operator:short": "USPS", "operator:type": "public", "operator:wikidata": "Q668687", "ref": "0890400001"}, "type": "Feature"}
{"geometry": {"coordinates": [-74.4323984, 40.498163], "type": "Point"}, "id": "k93DHNU2-3KJzTazEQnN4XYESNo=", "properties": {"@source_uri": "https://tools.usps.com/UspsToolsRestServices/rest/POLocator/findLocations", "@spider": "usps_collection_boxes", "addr:city": "NEW BRUNSWICK", "addr:country": "US", "addr:postcode": "08904", "addr:state": "NJ", "addr:street_address": "104 RARITAN AVE", "amenity": "post_box", "collection_times": "Mo-Sa 08:00", "nsi_id": "unitedstatespostalservice-a77078", "operator": "United States Postal Service", "operator:short": "USPS", "operator:type": "public", "operator:wikidata": "Q668687", "ref": "0890400003"}, "type": "Feature"}
{"geometry": {"coordinates": [-74.4331947, 40.494262], "type": "Point"}, "id": "l4chs7ZvMHekVaAQAX4gDBCYDx8=", "properties": {"@source_uri": "https://tools.usps.com/UspsToolsRestServices/rest/POLocator/findLocations", "@spider": "usps_collection_boxes", "addr:city": "NEW BRUNSWICK", "addr:country": "US", "addr:postcode": "08904", "addr:state": "NJ", "addr:street_address": "107 S ADELAIDE AVE", "amenity": "post_box", "collection_times": "Mo-Sa 08:00", "nsi_id": "unitedstatespostalservice-a77078", "operator": "United States Postal Service", "operator:short": "USPS", "operator:type": "public", "operator:wikidata": "Q668687", "ref": "0890400011"}, "type": "Feature"}
{"geometry": {"coordinates": [-74.4316803, 40.495903], "type": "Point"}, "id": "RWrr7V_pVT6fhgfsTo-9GNovigo=", "properties": {"@source_uri": "https://tools.usps.com/UspsToolsRestServices/rest/POLocator/findLocations", "@spider": "usps_collection_boxes", "addr:city": "NEW BRUNSWICK", "addr:country": "US", "addr:postcode": "08904", "addr:state": "NJ", "addr:street_address": "119 S 1ST AVE", "amenity": "post_box", "collection_times": "Mo-Sa 08:00", "nsi_id": "unitedstatespostalservice-a77078", "operator": "United States Postal Service", "operator:short": "USPS", "operator:type": "public", "operator:wikidata": "Q668687", "ref": "0890400013"}, "type": "Feature"}
{"geometry": {"coordinates": [-74.4210503, 40.497071], "type": "Point"}, "id": "CHDVLecMMLynFmSjKB_YBOEPraw=", "properties": {"@source_uri": "https://tools.usps.com/UspsToolsRestServices/rest/POLocator/findLocations", "@spider": "usps_collection_boxes", "addr:city": "NEW BRUNSWICK", "addr:country": "US", "addr:postcode": "08904", "addr:state": "NJ", "addr:street_address": "242 S 6TH AVE", "amenity": "post_box", "collection_times": "Mo-Sa 08:00", "nsi_id": "unitedstatespostalservice-a77078", "operator": "United States Postal Service", "operator:short": "USPS", "operator:type": "public", "operator:wikidata": "Q668687", "ref": "0890400016"}, "type": "Feature"}
{"geometry": {"coordinates": [-74.4168974, 40.499161], "type": "Point"}, "id": "U3xFFlztTvzXuR8m197Lc5qPV3E=", "properties": {"@source_uri": "https://tools.usps.com/UspsToolsRestServices/rest/POLocator/findLocations", "@spider": "usps_collection_boxes", "addr:city": "NEW BRUNSWICK", "addr:country": "US", "addr:postcode": "08904", "addr:state": "NJ", "addr:street_address": "261 S 11TH AVE", "amenity": "post_box", "collection_times": "Mo-Sa 08:00", "nsi_id": "unitedstatespostalservice-a77078", "operator": "United States Postal Service", "operator:short": "USPS", "operator:type": "public", "operator:wikidata": "Q668687", "ref": "0890400020"}, "type": "Feature"}
{"geometry": {"coordinates": [-74.4143086, 40.504246], "type": "Point"}, "id": "UKXUoyI0Qo_TGRP552Xr7bDwdlI=", "properties": {"@source_uri": "https://tools.usps.com/UspsToolsRestServices/rest/POLocator/findLocations", "@spider": "usps_collection_boxes", "addr:city": "NEW BRUNSWICK", "addr:country": "US", "addr:postcode": "08904", "addr:state": "NJ", "addr:street_address": "1503 PARKER RD", "amenity": "post_box", "collection_times": "Mo-Sa 08:00", "nsi_id": "unitedstatespostalservice-a77078", "operator": "United States Postal Service", "operator:short": "USPS", "operator:type": "public", "operator:wikidata": "Q668687", "ref": "0890400021"}, "type": "Feature"}
{"geometry": {"coordinates": [-74.4202217, 40.503749], "type": "Point"}, "id": "n20iNL2k54MOMWoIl_Ezzdcmo08=", "properties": {"@source_uri": "https://tools.usps.com/UspsToolsRestServices/rest/POLocator/findLocations", "@spider": "usps_collection_boxes", "addr:city": "NEW BRUNSWICK", "addr:country": "US", "addr:postcode": "08904", "addr:state": "NJ", "addr:street_address": "23 N 10TH AVE", "amenity": "post_box", "collection_times": "Mo-Sa 08:00", "nsi_id": "unitedstatespostalservice-a77078", "operator": "United States Postal Service", "operator:short": "USPS", "operator:type": "public", "operator:wikidata": "Q668687", "ref": "0890400022"}, "type": "Feature"}
{"geometry": {"coordinates": [-74.4228866, 40.503357], "type": "Point"}, "id": "iKiVxsFtMIiDaRTHSrCh7IjwBfk=", "properties": {"@source_uri": "https://tools.usps.com/UspsToolsRestServices/rest/POLocator/findLocations", "@spider": "usps_collection_boxes", "addr:city": "NEW BRUNSWICK", "addr:country": "US", "addr:postcode": "08904", "addr:state": "NJ", "addr:street_address": "702 ABBOTT ST", "amenity": "post_box", "collection_times": "Mo-Sa 08:00", "nsi_id": "unitedstatespostalservice-a77078", "operator": "United States Postal Service", "operator:short": "USPS", "operator:type": "public", "operator:wikidata": "Q668687", "ref": "0890400023"}, "type": "Feature"}
{"geometry": {"coordinates": [-74.4247719, 40.503249], "type": "Point"}, "id": "njuW5zD_NgcvFLtVjcaWZ-D78G8=", "properties": {"@source_uri": "https://tools.usps.com/UspsToolsRestServices/rest/POLocator/findLocations", "@spider": "usps_collection_boxes", "addr:city": "NEW BRUNSWICK", "addr:country": "US", "addr:postcode": "08904", "addr:state": "NJ", "addr:street_address": "101 N 5TH AVE", "amenity": "post_box", "collection_times": "Mo-Sa 08:00", "nsi_id": "unitedstatespostalservice-a77078", "operator": "United States Postal Service", "operator:short": "USPS", "operator:type": "public", "operator:wikidata": "Q668687", "ref": "0890400024"}, "type": "Feature"}
{"geometry": {"coordinates": [-74.4294899, 40.501813], "type": "Point"}, "id": "Gf23yvLy1WL1-d8MLEGMPn4EMK0=", "properties": {"@source_uri": "https://tools.usps.com/UspsToolsRestServices/rest/POLocator/findLocations", "@spider": "usps_collection_boxes", "addr:city": "NEW BRUNSWICK", "addr:country": "US", "addr:postcode": "08904", "addr:state": "NJ", "addr:street_address": "217 N 3RD AVE", "amenity": "post_box", "collection_times": "Mo-Sa 08:00", "nsi_id": "unitedstatespostalservice-a77078", "operator": "United States Postal Service", "operator:short": "USPS", "operator:type": "public", "operator:wikidata": "Q668687", "ref": "0890400025"}, "type": "Feature"}
{"geometry": {"coordinates": [-74.4303713, 40.503997], "type": "Point"}, "id": "wPlQTK3AGC3vQLqsG5Do3OiDFiE=", "properties": {"@source_uri": "https://tools.usps.com/UspsToolsRestServices/rest/POLocator/findLocations", "@spider": "usps_collection_boxes", "addr:city": "NEW BRUNSWICK", "addr:country": "US", "addr:postcode": "08904", "addr:state": "NJ", "addr:street_address": "324 LINCOLN AVE", "amenity": "post_box", "collection_times": "Mo-Sa 08:00", "nsi_id": "unitedstatespostalservice-a77078", "operator": "United States Postal Service", "operator:short": "USPS", "operator:type": "public", "operator:wikidata": "Q668687", "ref": "0890400026"}, "type": "Feature"}
{"geometry": {"coordinates": [-74.4339252, 40.501836], "type": "Point"}, "id": "UOn7Xvc_9PDKg6iijFD-PIoVEbw=", "properties": {"@source_uri": "https://tools.usps.com/UspsToolsRestServices/rest/POLocator/findLocations", "@spider": "usps_collection_boxes", "addr:city": "NEW BRUNSWICK", "addr:country": "US", "addr:postcode": "08904", "addr:state": "NJ", "addr:street_address": "70 GRANT AVE", "amenity": "post_box", "collection_times": "Mo-Sa 08:00", "nsi_id": "unitedstatespostalservice-a77078", "operator": "United States Postal Service", "operator:short": "USPS", "operator:type": "public", "operator:wikidata": "Q668687", "ref": "0890400028"}, "type": "Feature"}
{"geometry": {"coordinates": [-74.4354409, 40.508064], "type": "Point"}, "id": "Hc_ZTa5k9cHd0nyh6jNyVnvJlbo=", "properties": {"@source_uri": "https://tools.usps.com/UspsToolsRestServices/rest/POLocator/findLocations", "@spider": "usps_collection_boxes", "addr:city": "NEW BRUNSWICK", "addr:country": "US", "addr:postcode": "08904", "addr:state": "NJ", "addr:street_address": "100 CEDAR LN", "amenity": "post_box", "collection_times": "Mo-Sa 08:00", "nsi_id": "unitedstatespostalservice-a77078", "operator": "United States Postal Service", "operator:short": "USPS", "operator:type": "public", "operator:wikidata": "Q668687", "ref": "0890400030"}, "type": "Feature"}
{"geometry": {"coordinates": [-74.4163076, 40.495834], "type": "Point"}, "id": "3nVW6Sk2R9wZnJ5Jsm-W_T6d_Nk=", "properties": {"@source_uri": "https://tools.usps.com/UspsToolsRestServices/rest/POLocator/findLocations", "@spider": "usps_collection_boxes", "addr:city": "NEW BRUNSWICK", "addr:country": "US", "addr:postcode": "08904", "addr:state": "NJ", "addr:street_address": "919 GRAHAM ST", "amenity": "post_box", "collection_times": "Mo-Sa 08:00", "nsi_id": "unitedstatespostalservice-a77078", "operator": "United States Postal Service", "operator:short": "USPS", "operator:type": "public", "operator:wikidata": "Q668687", "ref": "0890400032"}, "type": "Feature"}
{"geometry": {"coordinates": [-74.433258, 40.50483], "type": "Point"}, "id": "ytyfNZc-5Us5l1GlJeS4vMnS5-o=", "properties": {"@source_uri": "https://tools.usps.com/UspsToolsRestServices/rest/POLocator/findLocations", "@spider": "usps_collection_boxes", "addr:city": "NEW BRUNSWICK", "addr:country": "US", "addr:postcode": "08904", "addr:state": "NJ", "addr:street_address": "271 CLEVELAND AVE", "amenity": "post_box", "collection_times": "Mo-Fr 17:00; Sa 11:00", "note": "ON 12/24 AND 12/31, THIS BOX MAY BE COLLECTED AS EARLY AS 12 NOON.", "nsi_id": "unitedstatespostalservice-a77078", "operator": "United States Postal Service", "operator:short": "USPS", "operator:type": "public", "operator:wikidata": "Q668687", "ref": "0890400033"}, "type": "Feature"}
{"geometry": {"coordinates": [-74.425562153, 40.499938553], "type": "Point"}, "id": "8gWwmIbpqgxGap-3rmjgFwQZe8g=", "properties": {"@source_uri": "https://tools.usps.com/UspsToolsRestServices/rest/POLocator/findLocations", "@spider": "usps_collection_boxes", "addr:city": "NEW BRUNSWICK", "addr:country": "US", "addr:postcode": "08904", "addr:state": "NJ", "addr:street_address": "406 RARITAN AVE", "amenity": "post_box", "collection_times": "Mo-Fr 17:00; Sa 12:00", "indoor": "yes", "note": "ON 12/24 AND 12/31, THIS BOX MAY BE COLLECTED AS EARLY AS 12 NOON.", "nsi_id": "unitedstatespostalservice-a77078", "operator": "United States Postal Service", "operator:short": "USPS", "operator:type": "public", "operator:wikidata": "Q668687", "ref": "0890400034"}, "type": "Feature"}
{"geometry": {"coordinates": [-74.425562153, 40.499938553], "type": "Point"}, "id": "Puz_3ai_KmCKYfbFoXGeDH_zPXs=", "properties": {"@source_uri": "https://tools.usps.com/UspsToolsRestServices/rest/POLocator/findLocations", "@spider": "usps_collection_boxes", "addr:city": "NEW BRUNSWICK", "addr:country": "US", "addr:postcode": "08904", "addr:state": "NJ", "addr:street_address": "406 RARITAN AVE", "amenity": "post_box", "collection_times": "Mo-Fr 17:00; Sa 12:00", "indoor": "yes", "note": "ON 12/24 AND 12/31, THIS BOX MAY BE COLLECTED AS EARLY AS 12 NOON.", "nsi_id": "unitedstatespostalservice-a77078", "operator": "United States Postal Service", "operator:short": "USPS", "operator:type": "public", "operator:wikidata": "Q668687", "ref": "0890400035"}, "type": "Feature"}
