{"geometry": {"coordinates": [-73.7666936, 41.036092], "type": "Point"}, "id": "UimYhUyfjiTALY9xXGV3Dg1U9ME=", "properties": {"@source_uri": "https://tools.usps.com/UspsToolsRestServices/rest/POLocator/findLocations", "@spider": "usps_collection_boxes", "addr:city": "WHITE PLAINS", "addr:country": "US", "addr:postcode": "10601", "addr:state": "NY", "addr:street_address": "41 BARKER AVE", "amenity": "post_box", "collection_times": "Mo-Sa 09:30", "nsi_id": "unitedstatespostalservice-a77078", "operator": "United States Postal Service", "operator:short": "USPS", "operator:type": "public", "operator:wikidata": "Q668687", "ref": "1060100001"}, "type": "Feature"}
{"geometry": {"coordinates": [-73.767421, 41.034302], "type": "Point"}, "id": "ChChCqr8d-RcLnB-YkPPGX0BD6E=", "properties": {"@source_uri": "https://tools.usps.com/UspsToolsRestServices/rest/POLocator/findLocations", "@spider": "usps_collection_boxes", "addr:city": "WHITE PLAINS", "addr:country": "US", "addr:postcode": "10601", "addr:state": "NY", "addr:street_address": "95 CHURCH ST", "amenity": "post_box", "collection_times": "Mo-Fr 17:00; Sa 09:30", "note": "ON 12/24 AND 12/31, THIS BOX MAY BE COLLECTED AS EARLY AS 12 NOON.", "nsi_id": "unitedstatespostalservice-a77078", "operator": "United States Postal Service", "operator:short": "USPS", "operator:type": "public", "operator:wikidata": "Q668687", "ref": "1060100007"}, "type": "Feature"}
{"geometry": {"coordinates": [-73.765537, 41.028913], "type": "Point"}, "id": "ZlvCqnMG19_ATlWbSGtgBZvWLFM=", "properties": {"@source_uri": "https://tools.usps.com/UspsToolsRestServices/rest/POLocator/findLocations", "@spider": "usps_collection_boxes", "addr:city": "WHITE PLAINS", "addr:country": "US", "addr:postcode": "10601", "addr:state": "NY", "addr:street_address": "151 E POST RD", "amenity": "post_box", "collection_times": "Mo-Sa 09:30", "nsi_id": "unitedstatespostalservice-a77078", "operator": "United States Postal Service", "operator:short": "USPS", "operator:type": "public", "operator:wikidata": "Q668687", "ref": "1060100012"}, "type": "Feature"}
{"geometry": {"coordinates": [-73.7652199, 41.029366], "type": "Point"}, "id": "lCxh3EnwCp9t8v8sGQkymCfgmFw=", "properties": {"@source_uri": "https://tools.usps.com/UspsToolsRestServices/rest/POLocator/findLocations", "@spider": "usps_collection_boxes", "addr:city": "WHITE PLAINS", "addr:country": "US", "addr:postcode": "10601", "addr:state": "NY", "addr:street_address": "131 MAMARONECK AVE", "amenity": "post_box", "collection_times": "Mo-Sa 09:30", "nsi_id": "unitedstatespostalservice-a77078", "operator": "United States Postal Service", "operator:short": "USPS", "operator:type": "public", "operator:wikidata": "Q668687", "ref": "1060100013"}, "type": "Feature"}
{"geometry": {"coordinates": [-73.7626116, 41.030246], "type": "Point"}, "id": "SjU8IWM3YlCdO8owzV0MdLIxpvc=", "properties": {"@source_uri": "https://tools.usps.com/UspsToolsRestServices/rest/POLocator/findLocations", "@spider": "usps_collection_boxes", "addr:city": "WHITE PLAINS", "addr:country": "US", "addr:postcode": "10601", "addr:state": "NY", "addr:street_address": "223 E POST RD", "amenity": "post_box", "collection_times": "Mo-Sa 09:30", "nsi_id": "unitedstatespostalservice-a77078", "operator": "United States Postal Service", "operator:short": "USPS", "operator:type": "public", "operator:wikidata": "Q668687", "ref": "1060100014"}, "type": "Feature"}
{"geometry": {"coordinates": [-73.7675445, 41.028758], "type": "Point"}, "id": "ubIl1T03yudpUyDQoyVGZjLQxCk=", "properties": {"@source_uri": "https://tools.usps.com/UspsToolsRestServices/rest/POLocator/findLocations", "@spider": "usps_collection_boxes", "addr:city": "WHITE PLAINS", "addr:country": "US", "addr:postcode": "10601", "addr:state": "NY", "addr:street_address": "150 GRAND ST", "amenity": "post_box", "collection_times": "Mo-Fr 17:00; Sa 09:30", "note": "ON 12/24 AND 12/31, THIS BOX MAY BE COLLECTED AS EARLY AS 12 NOON.", "nsi_id": "unitedstatespostalservice-a77078", "operator": "United States Postal Service", "operator:short": "USPS", "operator:type": "public", "operator:wikidata": "Q668687", "ref": "1060100015"}, "type": "Feature"}
{"geometry": {"coordinates": [-73.7691621, 41.029935], "type": "Point"}, "id": "xYzeNniSHIjrS49bb7b3UadzRN0=", "properties": {"@source_uri": "https://tools.usps.com/UspsToolsRestServices/rest/POLocator/findLocations", "@spider": "usps_collection_boxes", "addr:city": "WHITE PLAINS", "addr:country": "US", "addr:postcode": "10601", "addr:state": "NY", "addr:street_address": "111 GROVE ST", "amenity": "post_box", "collection_times": "Mo-Fr 17:00; Sa 09:30", "note": "ON 12/24 AND 12/31, THIS BOX MAY BE COLLECTED AS EARLY AS 12 NOON.", "nsi_id": "unitedstatespostalservice-a77078", "operator": "United States Postal Service", "operator:short": "USPS", "operator:type": "public", "operator:wikidata": "Q668687", "ref": "1060100017"}, "type": "Feature"}
{"geometry": {"coordinates": [-73.7694483, 41.033426], "type": "Point"}, "id": "RFxSn0eco2bOtwVNrdLBtiZQiQg=", "properties": {"@source_uri": "https://tools.usps.com/UspsToolsRestServices/rest/POLocator/findLocations", "@spider": "usps_collection_boxes", "addr:city": "WHITE PLAINS", "addr:country": "US", "addr:postcode": "10601", "addr:state": "NY", "addr:street_address": "200 HAMILTON AVE", "amenity": "post_box", "collection_times": "Mo-Sa 09:30", "nsi_id": "unitedstatespostalservice-a77078", "operator": "United States Postal Service", "operator:short": "USPS", "operator:type": "public", "operator:wikidata": "Q668687", "ref": "1060100022"}, "type": "Feature"}
{"geometry": {"coordinates": [-73.7646363, 41.027553], "type": "Point"}, "id": "8AHiO_zGxhnSiAwnwlhdIOCL4Cs=", "properties": {"@source_uri": "https://tools.usps.com/UspsToolsRestServices/rest/POLocator/findLocations", "@spider": "usps_collection_boxes", "addr:city": "WHITE PLAINS", "addr:country": "US", "addr:postcode": "10601", "addr:state": "NY", "addr:street_address": "214 MAMARONECK AVE", "amenity": "post_box", "collection_times": "Mo-Sa 09:30", "nsi_id": "unitedstatespostalservice-a77078", "operator": "United States Postal Service", "operator:short": "USPS", "operator:type": "public", "operator:wikidata": "Q668687", "ref": "1060100027"}, "type": "Feature"}
{"geometry": {"coordinates": [-73.7659804, 41.032836], "type": "Point"}, "id": "BZjw5Zvv5TyxuLz3sIHbkzFxiJA=", "properties": {"@source_uri": "https://tools.usps.com/UspsToolsRestServices/rest/POLocator/findLocations", "@spider": "usps_collection_boxes", "addr:city": "WHITE PLAINS", "addr:country": "US", "addr:postcode": "10601", "addr:state": "NY", "addr:street_address": "235 MAIN ST", "amenity": "post_box", "collection_times": "Mo-Fr 17:00; Sa 09:30", "note": "ON 12/24 AND 12/31, THIS BOX MAY BE COLLECTED AS EARLY AS 12 NOON.", "nsi_id": "unitedstatespostalservice-a77078", "operator": "United States Postal Service", "operator:short": "USPS", "operator:type": "public", "operator:wikidata": "Q668687", "ref": "1060100030"}, "type": "Feature"}
{"geometry": {"coordinates": [-73.7634546, 41.03379], "type": "Point"}, "id": "_pFRO7vKynsBJsJCWCflgdLk1p0=", "properties": {"@source_uri": "https://tools.usps.com/UspsToolsRestServices/rest/POLocator/findLocations", "@spider": "usps_collection_boxes", "addr:city": "WHITE PLAINS", "addr:country": "US", "addr:postcode": "10601", "addr:state": "NY", "addr:street_address": "1 S BROADWAY", "amenity": "post_box", "collection_times": "Mo-Sa 09:30", "nsi_id": "unitedstatespostalservice-a77078", "operator": "United States Postal Service", "operator:short": "USPS", "operator:type": "public", "operator:wikidata": "Q668687", "ref": "1060100034"}, "type": "Feature"}
{"geometry": {"coordinates": [-73.7694508, 41.024965], "type": "Point"}, "id": "WfB8YZx7kAxnfyuM3ldM7dFxp14=", "properties": {"@source_uri": "https://tools.usps.com/UspsToolsRestServices/rest/POLocator/findLocations", "@spider": "usps_collection_boxes", "addr:city": "WHITE PLAINS", "addr:country": "US", "addr:postcode": "10601", "addr:state": "NY", "addr:street_address": "170 MAPLE AVE", "amenity": "post_box", "collection_times": "Mo-Fr 17:00; Sa 09:30", "note": "ON 12/24 AND 12/31, THIS BOX MAY BE COLLECTED AS EARLY AS 12 NOON.", "nsi_id": "unitedstatespostalservice-a77078", "operator": "United States Postal Service", "operator:short": "USPS", "operator:type": "public", "operator:wikidata": "Q668687", "ref": "1060100037"}, "type": "Feature"}
{"geometry": {"coordinates": [-73.7750459, 41.033498], "type": "Point"}, "id": "YdqoKRpPOXGf42rxKTYB9VnGFQA=", "properties": {"@source_uri": "https://tools.usps.com/UspsToolsRestServices/rest/POLocator/findLocations", "@spider": "usps_collection_boxes", "addr:city": "WHITE PLAINS", "addr:country": "US", "addr:postcode": "10601", "addr:state": "NY", "addr:street_address": "10 FERRIS AVE", "amenity": "post_box", "collection_times": "Mo-Sa 09:30", "nsi_id": "unitedstatespostalservice-a77078", "operator": "United States Postal Service", "operator:short": "USPS", "operator:type": "public", "operator:wikidata": "Q668687", "ref": "1060100048"}, "type": "Feature"}
{"geometry": {"coordinates": [-73.762661, 41.034121], "type": "Point"}, "id": "jKZ1gujDaOu3wfeKYHISXJr-SPk=", "properties": {"@source_uri": "https://tools.usps.com/UspsToolsRestServices/rest/POLocator/findLocations", "@spider": "usps_collection_boxes", "addr:city": "WHITE PLAINS", "addr:country": "US", "addr:postcode": "10601", "addr:state": "NY", "addr:street_address": "2 WESTCHESTER AVE", "amenity": "post_box", "collection_times": "Mo-Sa 09:30", "nsi_id": "unitedstatespostalservice-a77078", "operator": "United States Postal Service", "operator:short": "USPS", "operator:type": "public", "operator:wikidata": "Q668687", "ref": "1060100062"}, "type": "Feature"}
{"geometry": {"coordinates": [-73.7699138, 41.025006], "type": "Point"}, "id": "fIQZ7IwxcSM4zXjEAdTPVzsux4g=", "properties": {"@source_uri": "https://tools.usps.com/UspsToolsRestServices/rest/POLocator/findLocations", "@spider": "usps_collection_boxes", "addr:city": "WHITE PLAINS", "addr:country": "US", "addr:postcode": "10601", "addr:state": "NY", "addr:street_address": "41 E POST RD", "amenity": "post_box", "collection_times": "Mo-Fr 17:00; Sa 09:30", "note": "ON 12/24 AND 12/31, THIS BOX MAY BE COLLECTED AS EARLY AS 12 NOON.", "nsi_id": "unitedstatespostalservice-a77078", "operator": "United States Postal Service", "operator:short": "USPS", "operator:type": "public", "operator:wikidata": "Q668687", "ref": "1060100068"}, "type": "Feature"}
{"geometry": {"coordinates": [-73.7683913, 41.032276], "type": "Point"}, "id": "-1AL7yNB62gv45piiLhiOcObAn0=", "properties": {"@source_uri": "https://tools.usps.com/UspsToolsRestServices/rest/POLocator/findLocations", "@spider": "usps_collection_boxes", "addr:city": "WHITE PLAINS", "addr:country": "US", "addr:postcode": "10601", "addr:state": "NY", "addr:street_address": "175 MAIN ST", "amenity": "post_box", "collection_times": "Mo-Fr 17:00; Sa 09:30", "note": "ON 12/24 AND 12/31, THIS BOX MAY BE COLLECTED AS EARLY AS 12 NOON.", "nsi_id": "unitedstatespostalservice-a77078", "operator": "United States Postal Service", "operator:short": "USPS", "operator:type": "public", "operator:wikidata": "Q668687", "ref": "1060100070"}, "type": "Feature"}
{"geometry": {"coordinates": [-73.7683032, 41.027063], "type": "Point"}, "id": "RF_wjhBuGLWx7spUeOksUvbV9d4=", "properties": {"@source_uri": "https://tools.usps.com/UspsToolsRestServices/rest/POLocator/findLocations", "@spider": "usps_collection_boxes", "addr:city": "WHITE PLAINS", "addr:country": "US", "addr:postcode": "10601", "addr:state": "NY", "addr:street_address": "79 E POST RD", "amenity": "post_box", "collection_times": "Mo-Sa 09:30", "nsi_id": "unitedstatespostalservice-a77078", "operator": "United States Postal Service", "operator:short": "USPS", "operator:type": "public", "operator:wikidata": "Q668687", "ref": "1060100074"}, "type": "Feature"}
{"geometry": {"coordinates": [-73.7621007, 41.031678], "type": "Point"}, "id": "jV3q0ERTwQ_MrXsG_z-vEElHiyg=", "properties": {"@source_uri": "https://tools.usps.com/UspsToolsRestServices/rest/POLocator/findLocations", "@spider": "usps_collection_boxes", "addr:city": "WHITE PLAINS", "addr:country": "US", "addr:postcode": "10601", "addr:state": "NY", "addr:street_address": "35 S BROADWAY", "amenity": "post_box", "collection_times": "Mo-Sa 09:30", "nsi_id": "unitedstatespostalservice-a77078", "operator": "United States Postal Service", "operator:short": "USPS", "operator:type": "public", "operator:wikidata": "Q668687", "ref": "1060100075"}, "type": "Feature"}
{"geometry": {"coordinates": [-73.7679747, 41.030965], "type": "Point"}, "id": "pZX0KERAKZfvmv_YfB-MN3oQ5CM=", "properties": {"@source_uri": "https://tools.usps.com/UspsToolsRestServices/rest/POLocator/findLocations", "@spider": "usps_collection_boxes", "addr:city": "WHITE PLAINS", "addr:country": "US", "addr:postcode": "10601", "addr:state": "NY", "addr:street_address": "148 MARTINE AVE", "amenity": "post_box", "collection_times": "Mo-Sa 09:30", "nsi_id": "unitedstatespostalservice-a77078", "operator": "United States Postal Service", "operator:short": "USPS", "operator:type": "public", "operator:wikidata": "Q668687", "ref": "1060100081"}, "type": "Feature"}
{"geometry": {"coordinates": [-73.7680106, 41.029133], "type": "Point"}, "id": "IS8KG1j1paZreblzk79-dzRbvmo=", "properties": {"@source_uri": "https://tools.usps.com/UspsToolsRestServices/rest/POLocator/findLocations", "@spider": "usps_collection_boxes", "addr:city": "WHITE PLAINS", "addr:country": "US", "addr:postcode": "10601", "addr:state": "NY", "addr:street_address": "140 GRAND ST", "amenity": "post_box", "collection_times": "Mo-Fr 17:00; Sa 09:30", "note": "ON 12/24 AND 12/31, THIS BOX MAY BE COLLECTED AS EARLY AS 12 NOON.", "nsi_id": "unitedstatespostalservice-a77078", "operator": "United States Postal Service", "operator:short": "USPS", "operator:type": "public", "operator:wikidata": "Q668687", "ref": "1060100085"}, "type": "Feature"}
{"geometry": {"coordinates": [-73.7656999, 41.033046], "type": "Point"}, "id": "A32IncQUnItcJ_q1jLfjT2z7a2Y=", "properties": {"@source_uri": "https://tools.usps.com/UspsToolsRestServices/rest/POLocator/findLocations", "@spider": "usps_collection_boxes", "addr:city": "WHITE PLAINS", "addr:country": "US", "addr:postcode": "10601", "addr:state": "NY", "addr:street_address": "255 MAIN ST", "amenity": "post_box", "collection_times": "Mo-Fr 17:00; Sa 09:30", "note": "ON 12/24 AND 12/31, THIS BOX MAY BE COLLECTED AS EARLY AS 12 NOON.", "nsi_id": "unitedstatespostalservice-a77078", "operator": "United States Postal Service", "operator:short": "USPS", "operator:type": "public", "operator:wikidata": "Q668687", "ref": "1060100087"}, "type": "Feature"}
{"geometry": {"coordinates": [-73.760309, 41.033992], "type": "Point"}, "id": "oNU8WQ2kwW7BEN5ceoSudXsfgeU=", "properties": {"@source_uri": "https://tools.usps.com/UspsToolsRestServices/rest/POLocator/findLocations", "@spider": "usps_collection_boxes", "addr:city": "WHITE PLAINS", "addr:country": "US", "addr:postcode": "10601", "addr:state": "NY", "addr:street_address": "40 WINDSOR TER", "amenity": "post_box", "collection_times": "Mo-Sa 09:30", "nsi_id": "unitedstatespostalservice-a77078", "operator": "United States Postal Service", "operator:short": "USPS", "operator:type": "public", "operator:wikidata": "Q668687", "ref": "1060100103"}, "type": "Feature"}
{"geometry": {"coordinates": [-73.767011, 41.03118], "type": "Point"}, "id": "1IwQSvxtU2I3Oo2MDL3T66f5bfc=", "properties": {"@source_uri": "https://tools.usps.com/UspsToolsRestServices/rest/POLocator/findLocations", "@spider": "usps_collection_boxes", "addr:city": "WHITE PLAINS", "addr:country": "US", "addr:postcode": "10601", "addr:state": "NY", "addr:street_address": "170 MARTINE AVE ( LOBBY DROP SLOT )", "amenity": "post_box", "collection_times": "Mo-Fr 17:00; Sa 13:00", "indoor": "yes", "note": "ON 12/24 AND 12/31, THIS BOX MAY BE COLLECTED AS EARLY AS 12 NOON.", "nsi_id": "unitedstatespostalservice-a77078", "operator": "United States Postal Service", "operator:short": "USPS", "operator:type": "public", "operator:wikidata": "Q668687", "ref": "1060100109"}, "type": "Feature"}
{"geometry": {"coordinates": [-73.767028038, 41.031119107], "type": "Point"}, "id": "NJfkY4own_IAcDQ0MsyYQG4hQKs=", "properties": {"@source_uri": "https://tools.usps.com/UspsToolsRestServices/rest/POLocator/findLocations", "@spider": "usps_collection_boxes", "addr:city": "WHITE PLAINS", "addr:country": "US", "addr:postcode": "10601", "addr:state": "NY", "addr:street_address": "170 MARTINE AVE", "amenity": "post_box", "collection_times": "Mo-Fr 17:00; Sa 15:00", "indoor": "yes", "note": "ON 12/24 AND 12/31, THIS BOX MAY BE COLLECTED AS EARLY AS 12 NOON.", "nsi_id": "unitedstatespostalservice-a77078", "operator": "United States Postal Service", "operator:short": "USPS", "operator:type": "public", "operator:wikidata": "Q668687", "ref": "1060100119"}, "type": "Feature"}
{"geometry": {"coordinates": [-73.774197, 41.027556], "type": "Point"}, "id": "yQtBa9SKNXaOyXUog6G37rebGlA=", "properties": {"@source_uri": "https://tools.usps.com/UspsToolsRestServices/rest/POLocator/findLocations", "@spider": "usps_collection_boxes", "addr:city": "WHITE PLAINS", "addr:country": "US", "addr:postcode": "10602", "addr:state": "NY", "addr:street_address": "100 FISHER AVE", "amenity": "post_box", "collection_times": "Mo-Fr 17:00; Sa 16:00", "note": "ON 12/24 AND 12/31, THIS BOX MAY BE COLLECTED AS EARLY AS 12 NOON.", "nsi_id": "unitedstatespostalservice-a77078", "operator": "United States Postal Service", "operator:short": "USPS", "operator:type": "public", "operator:wikidata": "Q668687", "ref": "1060200002"}, "type": "Feature"}
{"geometry": {"coordinates": [-73.774197, 41.027557], "type": "Point"}, "id": "zE35WnBMn9ibHow4Jr49-u9fYuM=", "properties": {"@source_uri": "https://tools.usps.com/UspsToolsRestServices/rest/POLocator/findLocations", "@spider": "usps_collection_boxes", "addr:city": "WHITE PLAINS", "addr:country": "US", "addr:postcode": "10602", "addr:state": "NY", "addr:street_address": "100 FISHER AVE", "amenity": "post_box", "collection_times": "Mo-Fr 17:00; Sa 16:00", "name": "USPS COLLECTION BOX - APC", "note": "ON 12/24 AND 12/31, THIS BOX MAY BE COLLECTED AS EARLY AS 12 NOON.", "nsi_id": "unitedstatespostalservice-a77078", "operator": "United States Postal Service", "operator:short": "USPS", "operator:type": "public", "operator:wikidata": "Q668687", "ref": "1060200006"}, "type": "Feature"}
{"geometry": {"coordinates": [-73.774197, 41.027556], "type": "Point"}, "id": "UsUB6uK6keDpPV2doiUw2ZLMHCk=", "properties": {"@source_uri": "https://tools.usps.com/UspsToolsRestServices/rest/POLocator/findLocations", "@spider": "usps_collection_boxes", "addr:city": "WHITE PLAINS", "addr:country": "US", "addr:postcode": "10602", "addr:state": "NY", "addr:street_address": "100 FISHER AVE ( LOBBY DROP SLOT )", "amenity": "post_box", "collection_times": "Mo-Fr 17:00; Sa 16:00", "indoor": "yes", "note": "ON 12/24 AND 12/31, THIS BOX MAY BE COLLECTED AS EARLY AS 12 NOON.", "nsi_id": "unitedstatespostalservice-a77078", "operator": "United States Postal Service", "operator:short": "USPS", "operator:type": "public", "operator:wikidata": "Q668687", "ref": "1060200008"}, "type": "Feature"}
{"geometry": {"coordinates": [-73.7995063, 41.071506], "type": "Point"}, "id": "N2y36h5PCBRYaC8a_tpekfDh_CY=", "properties": {"@source_uri": "https://tools.usps.com/UspsToolsRestServices/rest/POLocator/findLocations", "@spider": "usps_collection_boxes", "addr:city": "WHITE PLAINS", "addr:country": "US", "addr:postcode": "10603", "addr:state": "NY", "addr:street_address": "8 MAYFAIR WAY", "amenity": "post_box", "collection_times": "Mo-Sa 09:30", "nsi_id": "unitedstatespostalservice-a77078", "operator": "United States Postal Service", "operator:short": "USPS", "operator:type": "public", "operator:wikidata": "Q668687", "ref": "1060300001"}, "type": "Feature"}
{"geometry": {"coordinates": [-73.7709527, 41.044563], "type": "Point"}, "id": "OtDKYSYWwpHBCRcPPh5GkIyExuw=", "properties": {"@source_uri": "https://tools.usps.com/UspsToolsRestServices/rest/POLocator/findLocations", "@spider": "usps_collection_boxes", "addr:city": "WHITE PLAINS", "addr:country": "US", "addr:postcode": "10603", "addr:state": "NY", "addr:street_address": "379 CHURCH ST", "amenity": "post_box", "collection_times": "Mo-Sa 09:30", "nsi_id": "unitedstatespostalservice-a77078", "operator": "United States Postal Service", "operator:short": "USPS", "operator:type": "public", "operator:wikidata": "Q668687", "ref": "1060300003"}, "type": "Feature"}
{"geometry": {"coordinates": [-73.7741778, 41.043052], "type": "Point"}, "id": "Eov5NjBgPeZ5NgVQTO7sjSbIvDQ=", "properties": {"@source_uri": "https://tools.usps.com/UspsToolsRestServices/rest/POLocator/findLocations", "@spider": "usps_collection_boxes", "addr:city": "WHITE PLAINS", "addr:country": "US", "addr:postcode": "10603", "addr:state": "NY", "addr:street_address": "29 WARDMAN ST", "amenity": "post_box", "collection_times": "Mo-Sa 09:30", "nsi_id": "unitedstatespostalservice-a77078", "operator": "United States Postal Service", "operator:short": "USPS", "operator:type": "public", "operator:wikidata": "Q668687", "ref": "1060300006"}, "type": "Feature"}
{"geometry": {"coordinates": [-73.7722882, 41.049586], "type": "Point"}, "id": "pm5LV2hOgZ1QNGsY9QuPFw7XGmc=", "properties": {"@source_uri": "https://tools.usps.com/UspsToolsRestServices/rest/POLocator/findLocations", "@spider": "usps_collection_boxes", "addr:city": "WHITE PLAINS", "addr:country": "US", "addr:postcode": "10603", "addr:state": "NY", "addr:street_address": "2 HOLLAND AVE", "amenity": "post_box", "collection_times": "Mo-Sa 09:30", "nsi_id": "unitedstatespostalservice-a77078", "operator": "United States Postal Service", "operator:short": "USPS", "operator:type": "public", "operator:wikidata": "Q668687", "ref": "1060300011"}, "type": "Feature"}
{"geometry": {"coordinates": [-73.7667247, 41.06253], "type": "Point"}, "id": "yr5DbCxb_wKlSGolNe4aLnKiY4c=", "properties": {"@source_uri": "https://tools.usps.com/UspsToolsRestServices/rest/POLocator/findLocations", "@spider": "usps_collection_boxes", "addr:city": "WHITE PLAINS", "addr:country": "US", "addr:postcode": "10603", "addr:state": "NY", "addr:street_address": "901 N BROADWAY", "amenity": "post_box", "collection_times": "Mo-Fr 17:00; Sa 09:30", "note": "ON 12/24 AND 12/31, THIS BOX MAY BE COLLECTED AS EARLY AS 12 NOON.", "nsi_id": "unitedstatespostalservice-a77078", "operator": "United States Postal Service", "operator:short": "USPS", "operator:type": "public", "operator:wikidata": "Q668687", "ref": "1060300013"}, "type": "Feature"}
{"geometry": {"coordinates": [-73.7593542, 41.038151], "type": "Point"}, "id": "Bf_s755dlFEknMWtyVFNKRLO3QE=", "properties": {"@source_uri": "https://tools.usps.com/UspsToolsRestServices/rest/POLocator/findLocations", "@spider": "usps_collection_boxes", "addr:city": "WHITE PLAINS", "addr:country": "US", "addr:postcode": "10603", "addr:state": "NY", "addr:street_address": "1 S KENSICO AVE", "amenity": "post_box", "collection_times": "Mo-Sa 09:30", "nsi_id": "unitedstatespostalservice-a77078", "operator": "United States Postal Service", "operator:short": "USPS", "operator:type": "public", "operator:wikidata": "Q668687", "ref": "1060300015"}, "type": "Feature"}
{"geometry": {"coordinates": [-73.7612177, 41.037315], "type": "Point"}, "id": "6M0PJhppPm2rilpIxN2jsbljmVc=", "properties": {"@source_uri": "https://tools.usps.com/UspsToolsRestServices/rest/POLocator/findLocations", "@spider": "usps_collection_boxes", "addr:city": "WHITE PLAINS", "addr:country": "US", "addr:postcode": "10603", "addr:state": "NY", "addr:street_address": "30 LAKE ST", "amenity": "post_box", "collection_times": "Mo-Sa 09:30", "nsi_id": "unitedstatespostalservice-a77078", "operator": "United States Postal Service", "operator:short": "USPS", "operator:type": "public", "operator:wikidata": "Q668687", "ref": "1060300016"}, "type": "Feature"}
{"geometry": {"coordinates": [-73.7697252, 41.053365], "type": "Point"}, "id": "QkjeNlVpCeASBOMQ40Znruxu7u8=", "properties": {"@source_uri": "https://tools.usps.com/UspsToolsRestServices/rest/POLocator/findLocations", "@spider": "usps_collection_boxes", "addr:city": "WHITE PLAINS", "addr:country": "US", "addr:postcode": "10603", "addr:state": "NY", "addr:street_address": "585 N BROADWAY", "amenity": "post_box", "collection_times": "Mo-Fr 17:00; Sa 09:30", "note": "ON 12/24 AND 12/31, THIS BOX MAY BE COLLECTED AS EARLY AS 12 NOON.", "nsi_id": "unitedstatespostalservice-a77078", "operator": "United States Postal Service", "operator:short": "USPS", "operator:type": "public", "operator:wikidata": "Q668687", "ref": "1060300018"}, "type": "Feature"}
{"geometry": {"coordinates": [-73.7754536, 41.063384], "type": "Point"}, "id": "XV1Y23F2aubxnCBhCE3I4QTaNRM=", "properties": {"@source_uri": "https://tools.usps.com/UspsToolsRestServices/rest/POLocator/findLocations", "@spider": "usps_collection_boxes", "addr:city": "WHITE PLAINS", "addr:country": "US", "addr:postcode": "10603", "addr:state": "NY", "addr:street_address": "70 VIRGINIA RD", "amenity": "post_box", "collection_times": "Mo-Sa 09:30", "nsi_id": "unitedstatespostalservice-a77078", "operator": "United States Postal Service", "operator:short": "USPS", "operator:type": "public", "operator:wikidata": "Q668687", "ref": "1060300021"}, "type": "Feature"}
{"geometry": {"coordinates": [-73.7889219, 41.053572], "type": "Point"}, "id": "i_Q3TzpizLU3-nxYfzS5PoFFUk8=", "properties": {"@source_uri": "https://tools.usps.com/UspsToolsRestServices/rest/POLocator/findLocations", "@spider": "usps_collection_boxes", "addr:city": "WHITE PLAINS", "addr:country": "US", "addr:postcode": "10603", "addr:state": "NY", "addr:street_address": "298 HILLSIDE AVE", "amenity": "post_box", "collection_times": "Mo-Sa 09:30", "nsi_id": "unitedstatespostalservice-a77078", "operator": "United States Postal Service", "operator:short": "USPS", "operator:type": "public", "operator:wikidata": "Q668687", "ref": "1060300024"}, "type": "Feature"}
{"geometry": {"coordinates": [-73.7800878, 41.062093], "type": "Point"}, "id": "msHW_iBmOJqVTH-Ox7S9w34ukyY=", "properties": {"@source_uri": "https://tools.usps.com/UspsToolsRestServices/rest/POLocator/findLocations", "@spider": "usps_collection_boxes", "addr:city": "WHITE PLAINS", "addr:country": "US", "addr:postcode": "10603", "addr:state": "NY", "addr:street_address": "80 LAWRENCE DR", "amenity": "post_box", "collection_times": "Mo-Sa 09:30", "nsi_id": "unitedstatespostalservice-a77078", "operator": "United States Postal Service", "operator:short": "USPS", "operator:type": "public", "operator:wikidata": "Q668687", "ref": "1060300025"}, "type": "Feature"}
{"geometry": {"coordinates": [-73.7680307281, 41.0410106047], "type": "Point"}, "id": "xkbetaBnU0ksbL2Q19bSQSJO5Kc=", "properties": {"@source_uri": "https://tools.usps.com/UspsToolsRestServices/rest/POLocator/findLocations", "@spider": "usps_collection_boxes", "addr:city": "WHITE PLAINS", "addr:country": "US", "addr:postcode": "10603", "addr:state": "NY", "addr:street_address": "101 N BROADWAY", "amenity": "post_box", "collection_times": "Mo-Sa 09:30", "nsi_id": "unitedstatespostalservice-a77078", "operator": "United States Postal Service", "operator:short": "USPS", "operator:type": "public", "operator:wikidata": "Q668687", "ref": "1060300029"}, "type": "Feature"}
{"geometry": {"coordinates": [-73.7640335, 41.040281], "type": "Point"}, "id": "05hhj2i6bQ4QjKyQuwZKG557h-4=", "properties": {"@source_uri": "https://tools.usps.com/UspsToolsRestServices/rest/POLocator/findLocations", "@spider": "usps_collection_boxes", "addr:city": "WHITE PLAINS", "addr:country": "US", "addr:postcode": "10603", "addr:state": "NY", "addr:street_address": "78 N BROADWAY", "amenity": "post_box", "collection_times": "Mo-Fr 09:30", "nsi_id": "unitedstatespostalservice-a77078", "operator": "United States Postal Service", "operator:short": "USPS", "operator:type": "public", "operator:wikidata": "Q668687", "ref": "1060300036"}, "type": "Feature"}
{"geometry": {"coordinates": [-73.769648, 41.053319], "type": "Point"}, "id": "L46_of6CYR6bwB8QbDyo2rlJbbA=", "properties": {"@source_uri": "https://tools.usps.com/UspsToolsRestServices/rest/POLocator/findLocations", "@spider": "usps_collection_boxes", "addr:city": "WHITE PLAINS", "addr:country": "US", "addr:postcode": "10603", "addr:state": "NY", "addr:street_address": "585 N BROADWAY LBBY SLOT", "amenity": "post_box", "collection_times": "Mo-Fr 17:00; Sa 16:00", "indoor": "yes", "note": "ON 12/24 AND 12/31, THIS BOX MAY BE COLLECTED AS EARLY AS 12 NOON.", "nsi_id": "unitedstatespostalservice-a77078", "operator": "United States Postal Service", "operator:short": "USPS", "operator:type": "public", "operator:wikidata": "Q668687", "ref": "1060300037"}, "type": "Feature"}
{"geometry": {"coordinates": [-73.769647838, 41.053311565], "type": "Point"}, "id": "TcTS7zd8aXjJBUrh_qjLhuu7lMU=", "properties": {"@source_uri": "https://tools.usps.com/UspsToolsRestServices/rest/POLocator/findLocations", "@spider": "usps_collection_boxes", "addr:city": "WHITE PLAINS", "addr:country": "US", "addr:postcode": "10603", "addr:state": "NY", "addr:street_address": "585 N BROADWAY", "amenity": "post_box", "collection_times": "Mo-Fr 17:00; Sa 16:00", "indoor": "yes", "note": "ON 12/24 AND 12/31, THIS BOX MAY BE COLLECTED AS EARLY AS 12 NOON.", "nsi_id": "unitedstatespostalservice-a77078", "operator": "United States Postal Service", "operator:short": "USPS", "operator:type": "public", "operator:wikidata": "Q668687", "ref": "1060300039"}, "type": "Feature"}
{"geometry": {"coordinates": [-73.7640866, 41.047174], "type": "Point"}, "id": "0seTlQ1AbyQ13Rg7KpSRVgjsg5o=", "properties": {"@source_uri": "https://tools.usps.com/UspsToolsRestServices/rest/POLocator/findLocations", "@spider": "usps_collection_boxes", "addr:city": "WHITE PLAINS", "addr:country": "US", "addr:postcode": "10604", "addr:state": "NY", "addr:street_address": "68 BEECH ST W", "amenity": "post_box", "collection_times": "Mo-Sa 09:30", "nsi_id": "unitedstatespostalservice-a77078", "operator": "United States Postal Service", "operator:short": "USPS", "operator:type": "public", "operator:wikidata": "Q668687", "ref": "1060400004"}, "type": "Feature"}
{"geometry": {"coordinates": [-73.7611085, 41.042834], "type": "Point"}, "id": "8eyQckTBdQDLd2pTlxNtlJZbih8=", "properties": {"@source_uri": "https://tools.usps.com/UspsToolsRestServices/rest/POLocator/findLocations", "@spider": "usps_collection_boxes", "addr:city": "WHITE PLAINS", "addr:country": "US", "addr:postcode": "10604", "addr:state": "NY", "addr:street_address": "149 N KENSICO AVE", "amenity": "post_box", "collection_times": "Mo-Sa 09:30", "nsi_id": "unitedstatespostalservice-a77078", "operator": "United States Postal Service", "operator:short": "USPS", "operator:type": "public", "operator:wikidata": "Q668687", "ref": "1060400013"}, "type": "Feature"}
{"geometry": {"coordinates": [-73.7434882, 41.040216], "type": "Point"}, "id": "KKpHdA5Ga9Id-ac7IRRmvVKMWt8=", "properties": {"@source_uri": "https://tools.usps.com/UspsToolsRestServices/rest/POLocator/findLocations", "@spider": "usps_collection_boxes", "addr:city": "WHITE PLAINS", "addr:country": "US", "addr:postcode": "10604", "addr:state": "NY", "addr:street_address": "80 WOODSIDE AVE", "amenity": "post_box", "collection_times": "Mo-Sa 09:30", "nsi_id": "unitedstatespostalservice-a77078", "operator": "United States Postal Service", "operator:short": "USPS", "operator:type": "public", "operator:wikidata": "Q668687", "ref": "1060400018"}, "type": "Feature"}
{"geometry": {"coordinates": [-73.7155163, 41.084574], "type": "Point"}, "id": "0CltOYSg0WImUKomEViU-JS5a-w=", "properties": {"@source_uri": "https://tools.usps.com/UspsToolsRestServices/rest/POLocator/findLocations", "@spider": "usps_collection_boxes", "addr:city": "WHITE PLAINS", "addr:country": "US", "addr:postcode": "10604", "addr:state": "NY", "addr:street_address": "4 NEW KING ST", "amenity": "post_box", "collection_times": "Mo-Fr 16:30", "note": "ON 12/24 AND 12/31, THIS BOX MAY BE COLLECTED AS EARLY AS 12 NOON.", "nsi_id": "unitedstatespostalservice-a77078", "operator": "United States Postal Service", "operator:short": "USPS", "operator:type": "public", "operator:wikidata": "Q668687", "ref": "1060400019"}, "type": "Feature"}
{"geometry": {"coordinates": [-73.7146509, 41.08344], "type": "Point"}, "id": "V3M2D7QjVeILu79RIXEy1qktRRY=", "properties": {"@source_uri": "https://tools.usps.com/UspsToolsRestServices/rest/POLocator/findLocations", "@spider": "usps_collection_boxes", "addr:city": "WHITE PLAINS", "addr:country": "US", "addr:postcode": "10604", "addr:state": "NY", "addr:street_address": "10 NEW KING ST", "amenity": "post_box", "collection_times": "Mo-Fr 16:30", "note": "ON 12/24 AND 12/31, THIS BOX MAY BE COLLECTED AS EARLY AS 12 NOON.", "nsi_id": "unitedstatespostalservice-a77078", "operator": "United States Postal Service", "operator:short": "USPS", "operator:type": "public", "operator:wikidata": "Q668687", "ref": "1060400020"}, "type": "Feature"}
{"geometry": {"coordinates": [-73.7487536, 41.041859], "type": "Point"}, "id": "a2GonTJsMnB5PgNwi4LQBB14vgo=", "properties": {"@source_uri": "https://tools.usps.com/UspsToolsRestServices/rest/POLocator/findLocations", "@spider": "usps_collection_boxes", "addr:city": "WHITE PLAINS", "addr:country": "US", "addr:postcode": "10604", "addr:state": "NY", "addr:street_address": "2 MADISON ST", "amenity": "post_box", "collection_times": "Mo-Sa 09:30", "nsi_id": "unitedstatespostalservice-a77078", "operator": "United States Postal Service", "operator:short": "USPS", "operator:type": "public", "operator:wikidata": "Q668687", "ref": "1060400021"}, "type": "Feature"}
{"geometry": {"coordinates": [-73.7401833, 41.031426], "type": "Point"}, "id": "tS58RIoYF8-1MGqxgvojs2LxT8k=", "properties": {"@source_uri": "https://tools.usps.com/UspsToolsRestServices/rest/POLocator/findLocations", "@spider": "usps_collection_boxes", "addr:city": "WHITE PLAINS", "addr:country": "US", "addr:postcode": "10604", "addr:state": "NY", "addr:street_address": "222 WESTCHESTER AVE", "amenity": "post_box", "collection_times": "Mo-Fr 17:00; Sa 09:30", "note": "ON 12/24 AND 12/31, THIS BOX MAY BE COLLECTED AS EARLY AS 12 NOON.", "nsi_id": "unitedstatespostalservice-a77078", "operator": "United States Postal Service", "operator:short": "USPS", "operator:type": "public", "operator:wikidata": "Q668687", "ref": "1060400030"}, "type": "Feature"}
{"geometry": {"coordinates": [-73.7491430542, 41.037987424], "type": "Point"}, "id": "nmeA-1qSR2uO2ZG-jBq8MCEZkrk=", "properties": {"@source_uri": "https://tools.usps.com/UspsToolsRestServices/rest/POLocator/findLocations", "@spider": "usps_collection_boxes", "addr:city": "WHITE PLAINS", "addr:country": "US", "addr:postcode": "10604", "addr:state": "NY", "addr:street_address": "160 COLUMBUS AVE", "amenity": "post_box", "collection_times": "Mo-Sa 09:30", "nsi_id": "unitedstatespostalservice-a77078", "operator": "United States Postal Service", "operator:short": "USPS", "operator:type": "public", "operator:wikidata": "Q668687", "ref": "1060400048"}, "type": "Feature"}
{"geometry": {"coordinates": [-73.7467785, 41.04019], "type": "Point"}, "id": "5uV96xDlB_WwMxDVZsdVQs1Bh9s=", "properties": {"@source_uri": "https://tools.usps.com/UspsToolsRestServices/rest/POLocator/findLocations", "@spider": "usps_collection_boxes", "addr:city": "WHITE PLAINS", "addr:country": "US", "addr:postcode": "10604", "addr:state": "NY", "addr:street_address": "109 GAINSBORG AVE E", "amenity": "post_box", "collection_times": "Mo-Sa 09:30", "nsi_id": "unitedstatespostalservice-a77078", "operator": "United States Postal Service", "operator:short": "USPS", "operator:type": "public", "operator:wikidata": "Q668687", "ref": "1060400049"}, "type": "Feature"}
{"geometry": {"coordinates": [-73.7553531, 41.044879], "type": "Point"}, "id": "U7Co2RPwa8_mFZ7fG_aiyRSzCoI=", "properties": {"@source_uri": "https://tools.usps.com/UspsToolsRestServices/rest/POLocator/findLocations", "@spider": "usps_collection_boxes", "addr:city": "WHITE PLAINS", "addr:country": "US", "addr:postcode": "10604", "addr:state": "NY", "addr:street_address": "94 WOODCREST AVE", "amenity": "post_box", "collection_times": "Mo-Sa 09:30", "nsi_id": "unitedstatespostalservice-a77078", "operator": "United States Postal Service", "operator:short": "USPS", "operator:type": "public", "operator:wikidata": "Q668687", "ref": "1060400058"}, "type": "Feature"}
{"geometry": {"coordinates": [-73.7533595, 41.046882], "type": "Point"}, "id": "MomSMtCVDPbp6xDgn7pq9FLtJnE=", "properties": {"@source_uri": "https://tools.usps.com/UspsToolsRestServices/rest/POLocator/findLocations", "@spider": "usps_collection_boxes", "addr:city": "WHITE PLAINS", "addr:country": "US", "addr:postcode": "10604", "addr:state": "NY", "addr:street_address": "36 SUNSET DR", "amenity": "post_box", "collection_times": "Mo-Sa 09:30", "nsi_id": "unitedstatespostalservice-a77078", "operator": "United States Postal Service", "operator:short": "USPS", "operator:type": "public", "operator:wikidata": "Q668687", "ref": "1060400059"}, "type": "Feature"}
{"geometry": {"coordinates": [-73.7601559, 41.006674], "type": "Point"}, "id": "8eLL4nkpfM-vbpl0s-9Gqf6ZsyU=", "properties": {"@source_uri": "https://tools.usps.com/UspsToolsRestServices/rest/POLocator/findLocations", "@spider": "usps_collection_boxes", "addr:city": "WHITE PLAINS", "addr:country": "US", "addr:postcode": "10605", "addr:state": "NY", "addr:street_address": "184 BEVERLY RD", "amenity": "post_box", "collection_times": "Mo-Sa 09:30", "nsi_id": "unitedstatespostalservice-a77078", "operator": "United States Postal Service", "operator:short": "USPS", "operator:type": "public", "operator:wikidata": "Q668687", "ref": "1060500002"}, "type": "Feature"}
{"geometry": {"coordinates": [-73.7476212, 41.011789], "type": "Point"}, "id": "wrD7JhqmSmoD0HNQ6gUAAPBjKh0=", "properties": {"@source_uri": "https://tools.usps.com/UspsToolsRestServices/rest/POLocator/findLocations", "@spider": "usps_collection_boxes", "addr:city": "WHITE PLAINS", "addr:country": "US", "addr:postcode": "10605", "addr:state": "NY", "addr:street_address": "1 GEDNEY ESPLANADE", "amenity": "post_box", "collection_times": "Mo-Sa 09:30", "nsi_id": "unitedstatespostalservice-a77078", "operator": "United States Postal Service", "operator:short": "USPS", "operator:type": "public", "operator:wikidata": "Q668687", "ref": "1060500010"}, "type": "Feature"}
{"geometry": {"coordinates": [-73.7586103, 41.013807], "type": "Point"}, "id": "18RQuAj2puE4B9f6H-2UHTa1zrc=", "properties": {"@source_uri": "https://tools.usps.com/UspsToolsRestServices/rest/POLocator/findLocations", "@spider": "usps_collection_boxes", "addr:city": "WHITE PLAINS", "addr:country": "US", "addr:postcode": "10605", "addr:state": "NY", "addr:street_address": "46 GEDNEY WAY", "amenity": "post_box", "collection_times": "Mo-Sa 09:30", "nsi_id": "unitedstatespostalservice-a77078", "operator": "United States Postal Service", "operator:short": "USPS", "operator:type": "public", "operator:wikidata": "Q668687", "ref": "1060500013"}, "type": "Feature"}
{"geometry": {"coordinates": [-73.7653289, 41.025225], "type": "Point"}, "id": "0DKEYK0QGGRfVtnfRh83QNma23A=", "properties": {"@source_uri": "https://tools.usps.com/UspsToolsRestServices/rest/POLocator/findLocations", "@spider": "usps_collection_boxes", "addr:city": "WHITE PLAINS", "addr:country": "US", "addr:postcode": "10605", "addr:state": "NY", "addr:street_address": "30 GREENRIDGE AVE", "amenity": "post_box", "collection_times": "Mo-Sa 09:30", "nsi_id": "unitedstatespostalservice-a77078", "operator": "United States Postal Service", "operator:short": "USPS", "operator:type": "public", "operator:wikidata": "Q668687", "ref": "1060500015"}, "type": "Feature"}
{"geometry": {"coordinates": [-73.7320849, 41.007755], "type": "Point"}, "id": "fBQ81Ou2MPZ_R8RmQ-Kt7NVNQBE=", "properties": {"@source_uri": "https://tools.usps.com/UspsToolsRestServices/rest/POLocator/findLocations", "@spider": "usps_collection_boxes", "addr:city": "WHITE PLAINS", "addr:country": "US", "addr:postcode": "10605", "addr:state": "NY", "addr:street_address": "905 NORTH ST", "amenity": "post_box", "collection_times": "Mo-Sa 09:30", "nsi_id": "unitedstatespostalservice-a77078", "operator": "United States Postal Service", "operator:short": "USPS", "operator:type": "public", "operator:wikidata": "Q668687", "ref": "1060500021"}, "type": "Feature"}
{"geometry": {"coordinates": [-73.7360484, 41.014591], "type": "Point"}, "id": "sHUEK4T5gOVjpGBoVvWlStOZHx4=", "properties": {"@source_uri": "https://tools.usps.com/UspsToolsRestServices/rest/POLocator/findLocations", "@spider": "usps_collection_boxes", "addr:city": "WHITE PLAINS", "addr:country": "US", "addr:postcode": "10605", "addr:state": "NY", "addr:street_address": "515 RIDGEWAY", "amenity": "post_box", "collection_times": "Mo-Sa 09:30", "nsi_id": "unitedstatespostalservice-a77078", "operator": "United States Postal Service", "operator:short": "USPS", "operator:type": "public", "operator:wikidata": "Q668687", "ref": "1060500022"}, "type": "Feature"}
{"geometry": {"coordinates": [-73.7459757, 40.992713], "type": "Point"}, "id": "VBlPQMJS2SJnLhKM-fhEm1WbICw=", "properties": {"@source_uri": "https://tools.usps.com/UspsToolsRestServices/rest/POLocator/findLocations", "@spider": "usps_collection_boxes", "addr:city": "WHITE PLAINS", "addr:country": "US", "addr:postcode": "10605", "addr:state": "NY", "addr:street_address": "1211 MAMARONECK AVE", "amenity": "post_box", "collection_times": "Mo-Sa 09:30", "nsi_id": "unitedstatespostalservice-a77078", "operator": "United States Postal Service", "operator:short": "USPS", "operator:type": "public", "operator:wikidata": "Q668687", "ref": "1060500025"}, "type": "Feature"}
{"geometry": {"coordinates": [-73.7481394, 41.001058], "type": "Point"}, "id": "y0uFcg-gcFUcIbcY5abcuumG8E4=", "properties": {"@source_uri": "https://tools.usps.com/UspsToolsRestServices/rest/POLocator/findLocations", "@spider": "usps_collection_boxes", "addr:city": "WHITE PLAINS", "addr:country": "US", "addr:postcode": "10605", "addr:state": "NY", "addr:street_address": "10 MEADOW WAY", "amenity": "post_box", "collection_times": "Mo-Sa 09:30", "nsi_id": "unitedstatespostalservice-a77078", "operator": "United States Postal Service", "operator:short": "USPS", "operator:type": "public", "operator:wikidata": "Q668687", "ref": "1060500026"}, "type": "Feature"}
{"geometry": {"coordinates": [-73.7599457, 41.022943], "type": "Point"}, "id": "6u95kFkHfQJYXs_dRSe66wnu678=", "properties": {"@source_uri": "https://tools.usps.com/UspsToolsRestServices/rest/POLocator/findLocations", "@spider": "usps_collection_boxes", "addr:city": "WHITE PLAINS", "addr:country": "US", "addr:postcode": "10605", "addr:state": "NY", "addr:street_address": "180 S BROADWAY", "amenity": "post_box", "collection_times": "Mo-Fr 17:00; Sa 09:30", "note": "ON 12/24 AND 12/31, THIS BOX MAY BE COLLECTED AS EARLY AS 12 NOON.", "nsi_id": "unitedstatespostalservice-a77078", "operator": "United States Postal Service", "operator:short": "USPS", "operator:type": "public", "operator:wikidata": "Q668687", "ref": "1060500033"}, "type": "Feature"}
{"geometry": {"coordinates": [-73.7624634608, 41.0236931308], "type": "Point"}, "id": "a4RmATYGcTdn1Ub_idjlWUF_pNo=", "properties": {"@source_uri": "https://tools.usps.com/UspsToolsRestServices/rest/POLocator/findLocations", "@spider": "usps_collection_boxes", "addr:city": "WHITE PLAINS", "addr:country": "US", "addr:postcode": "10605", "addr:state": "NY", "addr:street_address": "382 MAMARONECK AVE", "amenity": "post_box", "collection_times": "Mo-Sa 09:30", "nsi_id": "unitedstatespostalservice-a77078", "operator": "United States Postal Service", "operator:short": "USPS", "operator:type": "public", "operator:wikidata": "Q668687", "ref": "1060500034"}, "type": "Feature"}
{"geometry": {"coordinates": [-73.7632294, 41.024854], "type": "Point"}, "id": "Ffob6t21qyTINFAwgVvBXWeSCFM=", "properties": {"@source_uri": "https://tools.usps.com/UspsToolsRestServices/rest/POLocator/findLocations", "@spider": "usps_collection_boxes", "addr:city": "WHITE PLAINS", "addr:country": "US", "addr:postcode": "10605", "addr:state": "NY", "addr:street_address": "333 MAMARONECK AVE", "amenity": "post_box", "collection_times": "Mo-Sa 09:30", "nsi_id": "unitedstatespostalservice-a77078", "operator": "United States Postal Service", "operator:short": "USPS", "operator:type": "public", "operator:wikidata": "Q668687", "ref": "1060500035"}, "type": "Feature"}
{"geometry": {"coordinates": [-73.7573549, 41.019829], "type": "Point"}, "id": "QzIskVQaOR9_v-bVngRnChmLIus=", "properties": {"@source_uri": "https://tools.usps.com/UspsToolsRestServices/rest/POLocator/findLocations", "@spider": "usps_collection_boxes", "addr:city": "WHITE PLAINS", "addr:country": "US", "addr:postcode": "10605", "addr:state": "NY", "addr:street_address": "620 MAMARONECK AVE", "amenity": "post_box", "collection_times": "Mo-Fr 17:00; Sa 14:00", "note": "ON 12/24 AND 12/31, THIS BOX MAY BE COLLECTED AS EARLY AS 12 NOON.", "nsi_id": "unitedstatespostalservice-a77078", "operator": "United States Postal Service", "operator:short": "USPS", "operator:type": "public", "operator:wikidata": "Q668687", "ref": "1060500042"}, "type": "Feature"}
{"geometry": {"coordinates": [-73.757276, 41.019747], "type": "Point"}, "id": "_d1hRN6SkvjHEMvsDLOsyNSU30Y=", "properties": {"@source_uri": "https://tools.usps.com/UspsToolsRestServices/rest/POLocator/findLocations", "@spider": "usps_collection_boxes", "addr:city": "WHITE PLAINS", "addr:country": "US", "addr:postcode": "10605", "addr:state": "NY", "addr:street_address": "620 MAMARONECK AVE LBBY SLOT", "amenity": "post_box", "collection_times": "Mo-Fr 17:00; Sa 12:00", "indoor": "yes", "note": "ON 12/24 AND 12/31, THIS BOX MAY BE COLLECTED AS EARLY AS 12 NOON.", "nsi_id": "unitedstatespostalservice-a77078", "operator": "United States Postal Service", "operator:short": "USPS", "operator:type": "public", "operator:wikidata": "Q668687", "ref": "1060500045"}, "type": "Feature"}
{"geometry": {"coordinates": [-73.757301289, 41.019727955], "type": "Point"}, "id": "WH1O6lfmvOeFIMNIl8qxEI7x7oE=", "properties": {"@source_uri": "https://tools.usps.com/UspsToolsRestServices/rest/POLocator/findLocations", "@spider": "usps_collection_boxes", "addr:city": "WHITE PLAINS", "addr:country": "US", "addr:postcode": "10605", "addr:state": "NY", "addr:street_address": "620 MAMARONECK AVE", "amenity": "post_box", "collection_times": "Mo-Fr 17:00; Sa 12:00", "indoor": "yes", "note": "ON 12/24 AND 12/31, THIS BOX MAY BE COLLECTED AS EARLY AS 12 NOON.", "nsi_id": "unitedstatespostalservice-a77078", "operator": "United States Postal Service", "operator:short": "USPS", "operator:type": "public", "operator:wikidata": "Q668687", "ref": "1060500048"}, "type": "Feature"}
{"geometry": {"coordinates": [-73.7744703, 41.022072], "type": "Point"}, "id": "w3hl0FBevKzshH3fUQGdB78YYBk=", "properties": {"@source_uri": "https://tools.usps.com/UspsToolsRestServices/rest/POLocator/findLocations", "@spider": "usps_collection_boxes", "addr:city": "WHITE PLAINS", "addr:country": "US", "addr:postcode": "10606", "addr:state": "NY", "addr:street_address": "1 SUMMIT AVE", "amenity": "post_box", "collection_times": "Mo-Sa 09:30", "nsi_id": "unitedstatespostalservice-a77078", "operator": "United States Postal Service", "operator:short": "USPS", "operator:type": "public", "operator:wikidata": "Q668687", "ref": "1060600016"}, "type": "Feature"}
{"geometry": {"coordinates": [-73.7713923, 41.015172], "type": "Point"}, "id": "diveKn4d4TGyr6HAUnRZvoDaHt8=", "properties": {"@source_uri": "https://tools.usps.com/UspsToolsRestServices/rest/POLocator/findLocations", "@spider": "usps_collection_boxes", "addr:city": "WHITE PLAINS", "addr:country": "US", "addr:postcode": "10606", "addr:state": "NY", "addr:street_address": "90 SOUNDVIEW AVE", "amenity": "post_box", "collection_times": "Mo-Sa 09:30", "nsi_id": "unitedstatespostalservice-a77078", "operator": "United States Postal Service", "operator:short": "USPS", "operator:type": "public", "operator:wikidata": "Q668687", "ref": "1060600024"}, "type": "Feature"}
{"geometry": {"coordinates": [-73.7688027, 41.009413], "type": "Point"}, "id": "pC-V5iQT0G9869r-vHydRQ0Evpc=", "properties": {"@source_uri": "https://tools.usps.com/UspsToolsRestServices/rest/POLocator/findLocations", "@spider": "usps_collection_boxes", "addr:city": "WHITE PLAINS", "addr:country": "US", "addr:postcode": "10606", "addr:state": "NY", "addr:street_address": "174 HARTSDALE AVE", "amenity": "post_box", "collection_times": "Mo-Sa 09:30", "nsi_id": "unitedstatespostalservice-a77078", "operator": "United States Postal Service", "operator:short": "USPS", "operator:type": "public", "operator:wikidata": "Q668687", "ref": "1060600026"}, "type": "Feature"}
{"geometry": {"coordinates": [-73.7656899, 41.006815], "type": "Point"}, "id": "6mpmebKjkmWQicG4DY_O848AiWc=", "properties": {"@source_uri": "https://tools.usps.com/UspsToolsRestServices/rest/POLocator/findLocations", "@spider": "usps_collection_boxes", "addr:city": "WHITE PLAINS", "addr:country": "US", "addr:postcode": "10606", "addr:state": "NY", "addr:street_address": "85 MIDCHESTER AVE", "amenity": "post_box", "collection_times": "Mo-Sa 09:30", "nsi_id": "unitedstatespostalservice-a77078", "operator": "United States Postal Service", "operator:short": "USPS", "operator:type": "public", "operator:wikidata": "Q668687", "ref": "1060600027"}, "type": "Feature"}
{"geometry": {"coordinates": [-73.7810431, 41.020795], "type": "Point"}, "id": "HerzOQls090jUk0zQ858FBiGX_8=", "properties": {"@source_uri": "https://tools.usps.com/UspsToolsRestServices/rest/POLocator/findLocations", "@spider": "usps_collection_boxes", "addr:city": "WHITE PLAINS", "addr:country": "US", "addr:postcode": "10606", "addr:state": "NY", "addr:street_address": "88 QUINBY AVE", "amenity": "post_box", "collection_times": "Mo-Sa 09:30", "nsi_id": "unitedstatespostalservice-a77078", "operator": "United States Postal Service", "operator:short": "USPS", "operator:type": "public", "operator:wikidata": "Q668687", "ref": "1060600032"}, "type": "Feature"}
{"geometry": {"coordinates": [-73.774248145, 41.027589525], "type": "Point"}, "id": "N_ZtIvFxlnIcH6RSlUZM0XGmoZg=", "properties": {"@source_uri": "https://tools.usps.com/UspsToolsRestServices/rest/POLocator/findLocations", "@spider": "usps_collection_boxes", "addr:city": "WHITE PLAINS", "addr:country": "US", "addr:postcode": "10606", "addr:state": "NY", "addr:street_address": "100 FISHER AVE", "amenity": "post_box", "collection_times": "Mo-Fr 17:00; Sa 14:00", "indoor": "yes", "note": "ON 12/24 AND 12/31, THIS BOX MAY BE COLLECTED AS EARLY AS 12 NOON.", "nsi_id": "unitedstatespostalservice-a77078", "operator": "United States Postal Service", "operator:short": "USPS", "operator:type": "public", "operator:wikidata": "Q668687", "ref": "1060600037"}, "type": "Feature"}
{"geometry": {"coordinates": [-73.7803478, 41.038738], "type": "Point"}, "id": "0M-HmzgzZONzCIGfdT1dbKF7o-U=", "properties": {"@source_uri": "https://tools.usps.com/UspsToolsRestServices/rest/POLocator/findLocations", "@spider": "usps_collection_boxes", "addr:city": "WHITE PLAINS", "addr:country": "US", "addr:postcode": "10607", "addr:state": "NY", "addr:street_address": "10 COUNTY CENTER RD", "amenity": "post_box", "collection_times": "Mo-Sa 09:30", "nsi_id": "unitedstatespostalservice-a77078", "operator": "United States Postal Service", "operator:short": "USPS", "operator:type": "public", "operator:wikidata": "Q668687", "ref": "1060700002"}, "type": "Feature"}
{"geometry": {"coordinates": [-73.7886814, 41.036549], "type": "Point"}, "id": "EA0FbE6Vr6w6XbTqG_0MEv7fzD0=", "properties": {"@source_uri": "https://tools.usps.com/UspsToolsRestServices/rest/POLocator/findLocations", "@spider": "usps_collection_boxes", "addr:city": "WHITE PLAINS", "addr:country": "US", "addr:postcode": "10607", "addr:state": "NY", "addr:street_address": "3 SOUTHWOOD PL", "amenity": "post_box", "collection_times": "Mo-Sa 09:30", "nsi_id": "unitedstatespostalservice-a77078", "operator": "United States Postal Service", "operator:short": "USPS", "operator:type": "public", "operator:wikidata": "Q668687", "ref": "1060700007"}, "type": "Feature"}
{"geometry": {"coordinates": [-73.7997753, 41.042883], "type": "Point"}, "id": "ZuzBO_nnSJYkNTb2a1mkOv0FqD8=", "properties": {"@source_uri": "https://tools.usps.com/UspsToolsRestServices/rest/POLocator/findLocations", "@spider": "usps_collection_boxes", "addr:city": "WHITE PLAINS", "addr:country": "US", "addr:postcode": "10607", "addr:state": "NY", "addr:street_address": "455 TARRYTOWN RD", "amenity": "post_box", "collection_times": "Mo-Sa 09:30", "nsi_id": "unitedstatespostalservice-a77078", "operator": "United States Postal Service", "operator:short": "USPS", "operator:type": "public", "operator:wikidata": "Q668687", "ref": "1060700009"}, "type": "Feature"}
{"geometry": {"coordinates": [-73.810443306, 41.036055148], "type": "Point"}, "id": "zBfqxza5YooRkR-VDmyngtbny-M=", "properties": {"@source_uri": "https://tools.usps.com/UspsToolsRestServices/rest/POLocator/findLocations", "@spider": "usps_collection_boxes", "addr:city": "WHITE PLAINS", "addr:country": "US", "addr:postcode": "10607", "addr:state": "NY", "addr:street_address": "595 W HARTSDALE AVE", "amenity": "post_box", "collection_times": "Mo-Fr 17:00", "note": "ON 12/24 AND 12/31, THIS BOX MAY BE COLLECTED AS EARLY AS 12 NOON.", "nsi_id": "unitedstatespostalservice-a77078", "operator": "United States Postal Service", "operator:short": "USPS", "operator:type": "public", "operator:wikidata": "Q668687", "ref": "1060700012"}, "type": "Feature"}
{"geometry": {"coordinates": [-73.8050004, 41.04455], "type": "Point"}, "id": "DacREZGRvRUhW1bei36SQWh4pPU=", "properties": {"@source_uri": "https://tools.usps.com/UspsToolsRestServices/rest/POLocator/findLocations", "@spider": "usps_collection_boxes", "addr:city": "WHITE PLAINS", "addr:country": "US", "addr:postcode": "10607", "addr:state": "NY", "addr:street_address": "297 KNOLLWOOD RD", "amenity": "post_box", "collection_times": "Mo-Fr 17:00", "note": "ON 12/24 AND 12/31, THIS BOX MAY BE COLLECTED AS EARLY AS 12 NOON.", "nsi_id": "unitedstatespostalservice-a77078", "operator": "United States Postal Service", "operator:short": "USPS", "operator:type": "public", "operator:wikidata": "Q668687", "ref": "1060700014"}, "type": "Feature"}
