{"geometry": {"coordinates": [-73.7858304, 40.919825], "type": "Point"}, "id": "8BPl21bioDXhR7hvlPUhAhmOIUM=", "properties": {"@source_uri": "https://tools.usps.com/UspsToolsRestServices/rest/POLocator/findLocations", "@spider": "usps_collection_boxes", "addr:city": "NEW ROCHELLE", "addr:country": "US", "addr:postcode": "10801", "addr:state": "NY", "addr:street_address": "515 NORTH AVE", "amenity": "post_box", "collection_times": "Mo-Fr 12:30", "note": "ON 12/24 AND 12/31, THIS BOX MAY BE COLLECTED AS EARLY AS 12 NOON.", "nsi_id": "unitedstatespostalservice-a77078", "operator": "United States Postal Service", "operator:short": "USPS", "operator:type": "public", "operator:wikidata": "Q668687", "ref": "1080100004"}, "type": "Feature"}
{"geometry": {"coordinates": [-73.7931449, 40.905843], "type": "Point"}, "id": "mkAweTZzOfBfoSlAJuHIHVwjG1M=", "properties": {"@source_uri": "https://tools.usps.com/UspsToolsRestServices/rest/POLocator/findLocations", "@spider": "usps_collection_boxes", "addr:city": "NEW ROCHELLE", "addr:country": "US", "addr:postcode": "10801", "addr:state": "NY", "addr:street_address": "125 BEECHWOOD AVE", "amenity": "post_box", "collection_times": "Mo-Fr 13:00", "note": "ON 12/24 AND 12/31, THIS BOX MAY BE COLLECTED AS EARLY AS 12 NOON.", "nsi_id": "unitedstatespostalservice-a77078", "operator": "United States Postal Service", "operator:short": "USPS", "operator:type": "public", "operator:wikidata": "Q668687", "ref": "1080100005"}, "type": "Feature"}
{"geometry": {"coordinates": [-73.7808549, 40.907612], "type": "Point"}, "id": "eZiKrOwqINI5yHP7zsjrdBq-mms=", "properties": {"@source_uri": "https://tools.usps.com/UspsToolsRestServices/rest/POLocator/findLocations", "@spider": "usps_collection_boxes", "addr:city": "NEW ROCHELLE", "addr:country": "US", "addr:postcode": "10801", "addr:state": "NY", "addr:street_address": "36 CHURCH ST", "amenity": "post_box", "collection_times": "Mo-Fr 09:30", "nsi_id": "unitedstatespostalservice-a77078", "operator": "United States Postal Service", "operator:short": "USPS", "operator:type": "public", "operator:wikidata": "Q668687", "ref": "1080100007"}, "type": "Feature"}
{"geometry": {"coordinates": [-73.7788869, 40.908972], "type": "Point"}, "id": "MilDnjCDoLGDvgnp2mRuL2I1fjo=", "properties": {"@source_uri": "https://tools.usps.com/UspsToolsRestServices/rest/POLocator/findLocations", "@spider": "usps_collection_boxes", "addr:city": "NEW ROCHELLE", "addr:country": "US", "addr:postcode": "10801", "addr:state": "NY", "addr:street_address": "2 CLINTON PL", "amenity": "post_box", "collection_times": "Mo-Sa 09:30", "nsi_id": "unitedstatespostalservice-a77078", "operator": "United States Postal Service", "operator:short": "USPS", "operator:type": "public", "operator:wikidata": "Q668687", "ref": "1080100011"}, "type": "Feature"}
{"geometry": {"coordinates": [-73.7869623, 40.920876], "type": "Point"}, "id": "uVYABHpcW2KyMdRmz0nybabUIeU=", "properties": {"@source_uri": "https://tools.usps.com/UspsToolsRestServices/rest/POLocator/findLocations", "@spider": "usps_collection_boxes", "addr:city": "NEW ROCHELLE", "addr:country": "US", "addr:postcode": "10801", "addr:state": "NY", "addr:street_address": "2 HAMILTON AVE", "amenity": "post_box", "collection_times": "Mo-Fr 11:30", "nsi_id": "unitedstatespostalservice-a77078", "operator": "United States Postal Service", "operator:short": "USPS", "operator:type": "public", "operator:wikidata": "Q668687", "ref": "1080100017"}, "type": "Feature"}
{"geometry": {"coordinates": [-73.7795035, 40.912975], "type": "Point"}, "id": "mCD110h7e9N1zxiU_TVJeVJuBNU=", "properties": {"@source_uri": "https://tools.usps.com/UspsToolsRestServices/rest/POLocator/findLocations", "@spider": "usps_collection_boxes", "addr:city": "NEW ROCHELLE", "addr:country": "US", "addr:postcode": "10801", "addr:state": "NY", "addr:street_address": "56 HARRISON ST", "amenity": "post_box", "collection_times": "Mo-Fr 09:30", "nsi_id": "unitedstatespostalservice-a77078", "operator": "United States Postal Service", "operator:short": "USPS", "operator:type": "public", "operator:wikidata": "Q668687", "ref": "1080100020"}, "type": "Feature"}
{"geometry": {"coordinates": [-73.7797489, 40.913195], "type": "Point"}, "id": "ia5pTIUHjuH-CPpgpVPFwmwyZnM=", "properties": {"@source_uri": "https://tools.usps.com/UspsToolsRestServices/rest/POLocator/findLocations", "@spider": "usps_collection_boxes", "addr:city": "NEW ROCHELLE", "addr:country": "US", "addr:postcode": "10801", "addr:state": "NY", "addr:street_address": "145 HUGUENOT ST", "amenity": "post_box", "collection_times": "Mo-Fr 15:30; Sa 12:30", "note": "ON 12/24 AND 12/31, THIS BOX MAY BE COLLECTED AS EARLY AS 12 NOON.", "nsi_id": "unitedstatespostalservice-a77078", "operator": "United States Postal Service", "operator:short": "USPS", "operator:type": "public", "operator:wikidata": "Q668687", "ref": "1080100024"}, "type": "Feature"}
{"geometry": {"coordinates": [-73.7866244, 40.906021], "type": "Point"}, "id": "kWVY5jOTWoLF4jtphOlxuHIQdsI=", "properties": {"@source_uri": "https://tools.usps.com/UspsToolsRestServices/rest/POLocator/findLocations", "@spider": "usps_collection_boxes", "addr:city": "NEW ROCHELLE", "addr:country": "US", "addr:postcode": "10801", "addr:state": "NY", "addr:street_address": "415 HUGUENOT ST", "amenity": "post_box", "collection_times": "Mo-Fr 10:30", "nsi_id": "unitedstatespostalservice-a77078", "operator": "United States Postal Service", "operator:short": "USPS", "operator:type": "public", "operator:wikidata": "Q668687", "ref": "1080100025"}, "type": "Feature"}
{"geometry": {"coordinates": [-73.7714449, 40.915253], "type": "Point"}, "id": "mTgfL8LV3S5yHayS6-I3UGVKZdI=", "properties": {"@source_uri": "https://tools.usps.com/UspsToolsRestServices/rest/POLocator/findLocations", "@spider": "usps_collection_boxes", "addr:city": "NEW ROCHELLE", "addr:country": "US", "addr:postcode": "10801", "addr:state": "NY", "addr:street_address": "211 MAIN ST", "amenity": "post_box", "collection_times": "Mo-Sa 10:30", "nsi_id": "unitedstatespostalservice-a77078", "operator": "United States Postal Service", "operator:short": "USPS", "operator:type": "public", "operator:wikidata": "Q668687", "ref": "1080100026"}, "type": "Feature"}
{"geometry": {"coordinates": [-73.7902331, 40.917119], "type": "Point"}, "id": "m2OZLjkLySY9HCMyh7_MiJF4G9k=", "properties": {"@source_uri": "https://tools.usps.com/UspsToolsRestServices/rest/POLocator/findLocations", "@spider": "usps_collection_boxes", "addr:city": "NEW ROCHELLE", "addr:country": "US", "addr:postcode": "10801", "addr:state": "NY", "addr:street_address": "95 LINCOLN AVE", "amenity": "post_box", "collection_times": "Mo-Sa 11:30", "nsi_id": "unitedstatespostalservice-a77078", "operator": "United States Postal Service", "operator:short": "USPS", "operator:type": "public", "operator:wikidata": "Q668687", "ref": "1080100031"}, "type": "Feature"}
{"geometry": {"coordinates": [-73.787208, 40.913218], "type": "Point"}, "id": "xUARdSbJFcsBZdEqrdRxTUPBPrM=", "properties": {"@source_uri": "https://tools.usps.com/UspsToolsRestServices/rest/POLocator/findLocations", "@spider": "usps_collection_boxes", "addr:city": "NEW ROCHELLE", "addr:country": "US", "addr:postcode": "10801", "addr:state": "NY", "addr:street_address": "16 GUION PL", "amenity": "post_box", "collection_times": "Mo-Sa 11:30", "nsi_id": "unitedstatespostalservice-a77078", "operator": "United States Postal Service", "operator:short": "USPS", "operator:type": "public", "operator:wikidata": "Q668687", "ref": "1080100033"}, "type": "Feature"}
{"geometry": {"coordinates": [-73.7897066, 40.91362], "type": "Point"}, "id": "TK-Q-WCIqgAOJ7hXjocvEkvAH8s=", "properties": {"@source_uri": "https://tools.usps.com/UspsToolsRestServices/rest/POLocator/findLocations", "@spider": "usps_collection_boxes", "addr:city": "NEW ROCHELLE", "addr:country": "US", "addr:postcode": "10801", "addr:state": "NY", "addr:street_address": "111 LOCKWOOD AVE", "amenity": "post_box", "collection_times": "Mo-Sa 11:30", "nsi_id": "unitedstatespostalservice-a77078", "operator": "United States Postal Service", "operator:short": "USPS", "operator:type": "public", "operator:wikidata": "Q668687", "ref": "1080100034"}, "type": "Feature"}
{"geometry": {"coordinates": [-73.7908652, 40.91292], "type": "Point"}, "id": "b4ffqXsuPiZQeByux-YKvupjALE=", "properties": {"@source_uri": "https://tools.usps.com/UspsToolsRestServices/rest/POLocator/findLocations", "@spider": "usps_collection_boxes", "addr:city": "NEW ROCHELLE", "addr:country": "US", "addr:postcode": "10801", "addr:state": "NY", "addr:street_address": "140 LOCKWOOD AVE", "amenity": "post_box", "collection_times": "Mo-Fr 11:30", "nsi_id": "unitedstatespostalservice-a77078", "operator": "United States Postal Service", "operator:short": "USPS", "operator:type": "public", "operator:wikidata": "Q668687", "ref": "1080100035"}, "type": "Feature"}
{"geometry": {"coordinates": [-73.7865454, 40.914284], "type": "Point"}, "id": "DoxlrVnO5a0jGws1AMmb0sDHYCc=", "properties": {"@source_uri": "https://tools.usps.com/UspsToolsRestServices/rest/POLocator/findLocations", "@spider": "usps_collection_boxes", "addr:city": "NEW ROCHELLE", "addr:country": "US", "addr:postcode": "10801", "addr:state": "NY", "addr:street_address": "41 LOCKWOOD AVE", "amenity": "post_box", "collection_times": "Mo-Sa 11:30", "nsi_id": "unitedstatespostalservice-a77078", "operator": "United States Postal Service", "operator:short": "USPS", "operator:type": "public", "operator:wikidata": "Q668687", "ref": "1080100036"}, "type": "Feature"}
{"geometry": {"coordinates": [-73.7825665, 40.908106], "type": "Point"}, "id": "V7PZrsqQHCVsHats5uQ0JvyBlGI=", "properties": {"@source_uri": "https://tools.usps.com/UspsToolsRestServices/rest/POLocator/findLocations", "@spider": "usps_collection_boxes", "addr:city": "NEW ROCHELLE", "addr:country": "US", "addr:postcode": "10801", "addr:state": "NY", "addr:street_address": "530 MAIN ST", "amenity": "post_box", "collection_times": "Mo-Sa 10:00", "nsi_id": "unitedstatespostalservice-a77078", "operator": "United States Postal Service", "operator:short": "USPS", "operator:type": "public", "operator:wikidata": "Q668687", "ref": "1080100040"}, "type": "Feature"}
{"geometry": {"coordinates": [-73.7778131, 40.911387], "type": "Point"}, "id": "Lj_a0ruEXUhTw4sEU4zXxsDHGwc=", "properties": {"@source_uri": "https://tools.usps.com/UspsToolsRestServices/rest/POLocator/findLocations", "@spider": "usps_collection_boxes", "addr:city": "NEW ROCHELLE", "addr:country": "US", "addr:postcode": "10801", "addr:state": "NY", "addr:street_address": "425 MAIN ST", "amenity": "post_box", "collection_times": "Mo-Sa 09:30", "nsi_id": "unitedstatespostalservice-a77078", "operator": "United States Postal Service", "operator:short": "USPS", "operator:type": "public", "operator:wikidata": "Q668687", "ref": "1080100043"}, "type": "Feature"}
{"geometry": {"coordinates": [-73.7865931, 40.905536], "type": "Point"}, "id": "R78yR0hpAW1Ym24vT73U4A3AtJ8=", "properties": {"@source_uri": "https://tools.usps.com/UspsToolsRestServices/rest/POLocator/findLocations", "@spider": "usps_collection_boxes", "addr:city": "NEW ROCHELLE", "addr:country": "US", "addr:postcode": "10801", "addr:state": "NY", "addr:street_address": "650 MAIN ST", "amenity": "post_box", "collection_times": "Mo-Sa 10:00", "nsi_id": "unitedstatespostalservice-a77078", "operator": "United States Postal Service", "operator:short": "USPS", "operator:type": "public", "operator:wikidata": "Q668687", "ref": "1080100046"}, "type": "Feature"}
{"geometry": {"coordinates": [-73.7821757, 40.911666], "type": "Point"}, "id": "q4Q9Vo2TDrH5gjCQ7_DSv8GJO_A=", "properties": {"@source_uri": "https://tools.usps.com/UspsToolsRestServices/rest/POLocator/findLocations", "@spider": "usps_collection_boxes", "addr:city": "NEW ROCHELLE", "addr:country": "US", "addr:postcode": "10801", "addr:state": "NY", "addr:street_address": "255 NORTH AVE", "amenity": "post_box", "collection_times": "Mo-Fr 17:00; Sa 14:00", "note": "ON 12/24 AND 12/31, THIS BOX MAY BE COLLECTED AS EARLY AS 12 NOON.", "nsi_id": "unitedstatespostalservice-a77078", "operator": "United States Postal Service", "operator:short": "USPS", "operator:type": "public", "operator:wikidata": "Q668687", "ref": "1080100052"}, "type": "Feature"}
{"geometry": {"coordinates": [-73.7852976, 40.916667], "type": "Point"}, "id": "tM-uYo_1B6pKAWgP94fF1eqb6Wo=", "properties": {"@source_uri": "https://tools.usps.com/UspsToolsRestServices/rest/POLocator/findLocations", "@spider": "usps_collection_boxes", "addr:city": "NEW ROCHELLE", "addr:country": "US", "addr:postcode": "10801", "addr:state": "NY", "addr:street_address": "420 NORTH AVE", "amenity": "post_box", "collection_times": "Mo-Fr 12:30", "note": "ON 12/24 AND 12/31, THIS BOX MAY BE COLLECTED AS EARLY AS 12 NOON.", "nsi_id": "unitedstatespostalservice-a77078", "operator": "United States Postal Service", "operator:short": "USPS", "operator:type": "public", "operator:wikidata": "Q668687", "ref": "1080100057"}, "type": "Feature"}
{"geometry": {"coordinates": [-73.7880437, 40.924718], "type": "Point"}, "id": "0LTa0fEpSbfTlOA3UonnmwbZhT0=", "properties": {"@source_uri": "https://tools.usps.com/UspsToolsRestServices/rest/POLocator/findLocations", "@spider": "usps_collection_boxes", "addr:city": "NEW ROCHELLE", "addr:country": "US", "addr:postcode": "10801", "addr:state": "NY", "addr:street_address": "673 NORTH AVE", "amenity": "post_box", "collection_times": "Mo-Sa 11:00", "nsi_id": "unitedstatespostalservice-a77078", "operator": "United States Postal Service", "operator:short": "USPS", "operator:type": "public", "operator:wikidata": "Q668687", "ref": "1080100059"}, "type": "Feature"}
{"geometry": {"coordinates": [-73.7803862, 40.90948], "type": "Point"}, "id": "jpvV1Z4_IFqKMOnhn-ti7k02hLg=", "properties": {"@source_uri": "https://tools.usps.com/UspsToolsRestServices/rest/POLocator/findLocations", "@spider": "usps_collection_boxes", "addr:city": "NEW ROCHELLE", "addr:country": "US", "addr:postcode": "10801", "addr:state": "NY", "addr:street_address": "466 MAIN ST", "amenity": "post_box", "collection_times": "Mo-Sa 09:30", "nsi_id": "unitedstatespostalservice-a77078", "operator": "United States Postal Service", "operator:short": "USPS", "operator:type": "public", "operator:wikidata": "Q668687", "ref": "1080100061"}, "type": "Feature"}
{"geometry": {"coordinates": [-73.7692485, 40.917849], "type": "Point"}, "id": "RejXqSoigj_aY0gbtQ8oQxw5UqI=", "properties": {"@source_uri": "https://tools.usps.com/UspsToolsRestServices/rest/POLocator/findLocations", "@spider": "usps_collection_boxes", "addr:city": "NEW ROCHELLE", "addr:country": "US", "addr:postcode": "10801", "addr:state": "NY", "addr:street_address": "2 STONELEA PL", "amenity": "post_box", "collection_times": "Mo-Sa 10:30", "nsi_id": "unitedstatespostalservice-a77078", "operator": "United States Postal Service", "operator:short": "USPS", "operator:type": "public", "operator:wikidata": "Q668687", "ref": "1080100064"}, "type": "Feature"}
{"geometry": {"coordinates": [-73.7685616, 40.925362], "type": "Point"}, "id": "yxjaKJwfjrnflshbqOaqpZUX_rU=", "properties": {"@source_uri": "https://tools.usps.com/UspsToolsRestServices/rest/POLocator/findLocations", "@spider": "usps_collection_boxes", "addr:city": "NEW ROCHELLE", "addr:country": "US", "addr:postcode": "10801", "addr:state": "NY", "addr:street_address": "2250 PALMER AVE", "amenity": "post_box", "collection_times": "Mo-Sa 10:30", "nsi_id": "unitedstatespostalservice-a77078", "operator": "United States Postal Service", "operator:short": "USPS", "operator:type": "public", "operator:wikidata": "Q668687", "ref": "1080100066"}, "type": "Feature"}
{"geometry": {"coordinates": [-73.8049511, 40.926596], "type": "Point"}, "id": "G84Ze8y_mXSxt31BiCp8pe2_8qc=", "properties": {"@source_uri": "https://tools.usps.com/UspsToolsRestServices/rest/POLocator/findLocations", "@spider": "usps_collection_boxes", "addr:city": "NEW ROCHELLE", "addr:country": "US", "addr:postcode": "10801", "addr:state": "NY", "addr:street_address": "838 PELHAMDALE AVE", "amenity": "post_box", "collection_times": "Mo-Sa 11:30", "nsi_id": "unitedstatespostalservice-a77078", "operator": "United States Postal Service", "operator:short": "USPS", "operator:type": "public", "operator:wikidata": "Q668687", "ref": "1080100070"}, "type": "Feature"}
{"geometry": {"coordinates": [-73.7999704, 40.922304], "type": "Point"}, "id": "lD6uyWuDg1RZkcYurEpUhzqs_q8=", "properties": {"@source_uri": "https://tools.usps.com/UspsToolsRestServices/rest/POLocator/findLocations", "@spider": "usps_collection_boxes", "addr:city": "NEW ROCHELLE", "addr:country": "US", "addr:postcode": "10801", "addr:state": "NY", "addr:street_address": "277 MAYFLOWER AVE", "amenity": "post_box", "collection_times": "Mo-Sa 11:30", "nsi_id": "unitedstatespostalservice-a77078", "operator": "United States Postal Service", "operator:short": "USPS", "operator:type": "public", "operator:wikidata": "Q668687", "ref": "1080100071"}, "type": "Feature"}
{"geometry": {"coordinates": [-73.7780357, 40.913985], "type": "Point"}, "id": "g-Fx2aNnD9_W-ubzPjHMQA3MiJo=", "properties": {"@source_uri": "https://tools.usps.com/UspsToolsRestServices/rest/POLocator/findLocations", "@spider": "usps_collection_boxes", "addr:city": "NEW ROCHELLE", "addr:country": "US", "addr:postcode": "10801", "addr:state": "NY", "addr:street_address": "1 RAMADA PLZ", "amenity": "post_box", "collection_times": "Mo-Sa 09:30", "nsi_id": "unitedstatespostalservice-a77078", "operator": "United States Postal Service", "operator:short": "USPS", "operator:type": "public", "operator:wikidata": "Q668687", "ref": "1080100073"}, "type": "Feature"}
{"geometry": {"coordinates": [-73.7676654, 40.919876], "type": "Point"}, "id": "tgMqCuAkY8mZqScSjXvyzvl_8yY=", "properties": {"@source_uri": "https://tools.usps.com/UspsToolsRestServices/rest/POLocator/findLocations", "@spider": "usps_collection_boxes", "addr:city": "NEW ROCHELLE", "addr:country": "US", "addr:postcode": "10801", "addr:state": "NY", "addr:street_address": "22 SUN HAVEN DR", "amenity": "post_box", "collection_times": "Mo-Sa 10:30", "nsi_id": "unitedstatespostalservice-a77078", "operator": "United States Postal Service", "operator:short": "USPS", "operator:type": "public", "operator:wikidata": "Q668687", "ref": "1080100074"}, "type": "Feature"}
{"geometry": {"coordinates": [-73.7965042, 40.910182], "type": "Point"}, "id": "4MMcGMLNevXGMIaAuj_aLEDQu6w=", "properties": {"@source_uri": "https://tools.usps.com/UspsToolsRestServices/rest/POLocator/findLocations", "@spider": "usps_collection_boxes", "addr:city": "NEW ROCHELLE", "addr:country": "US", "addr:postcode": "10801", "addr:state": "NY", "addr:street_address": "88 4TH ST", "amenity": "post_box", "collection_times": "Mo-Sa 11:30", "nsi_id": "unitedstatespostalservice-a77078", "operator": "United States Postal Service", "operator:short": "USPS", "operator:type": "public", "operator:wikidata": "Q668687", "ref": "1080100079"}, "type": "Feature"}
{"geometry": {"coordinates": [-73.7865123, 40.91322], "type": "Point"}, "id": "jqbcaFMJVvbSmWRmXjQGQZLxdUE=", "properties": {"@source_uri": "https://tools.usps.com/UspsToolsRestServices/rest/POLocator/findLocations", "@spider": "usps_collection_boxes", "addr:city": "NEW ROCHELLE", "addr:country": "US", "addr:postcode": "10801", "addr:state": "NY", "addr:street_address": "175 MEMORIAL HWY", "amenity": "post_box", "collection_times": "Mo-Fr 10:30", "nsi_id": "unitedstatespostalservice-a77078", "operator": "United States Postal Service", "operator:short": "USPS", "operator:type": "public", "operator:wikidata": "Q668687", "ref": "1080100085"}, "type": "Feature"}
{"geometry": {"coordinates": [-73.7929972, 40.907569], "type": "Point"}, "id": "VWsLKm5BdWiE-HPsbTN0ZZ_3AZw=", "properties": {"@source_uri": "https://tools.usps.com/UspsToolsRestServices/rest/POLocator/findLocations", "@spider": "usps_collection_boxes", "addr:city": "NEW ROCHELLE", "addr:country": "US", "addr:postcode": "10801", "addr:state": "NY", "addr:street_address": "20 JONES ST", "amenity": "post_box", "collection_times": "Mo-Fr 13:00", "note": "ON 12/24 AND 12/31, THIS BOX MAY BE COLLECTED AS EARLY AS 12 NOON.", "nsi_id": "unitedstatespostalservice-a77078", "operator": "United States Postal Service", "operator:short": "USPS", "operator:type": "public", "operator:wikidata": "Q668687", "ref": "1080100088"}, "type": "Feature"}
{"geometry": {"coordinates": [-73.785066, 40.910373], "type": "Point"}, "id": "nK7taLHiGfYhSunmh6qRmxNc8uw=", "properties": {"@source_uri": "https://tools.usps.com/UspsToolsRestServices/rest/POLocator/findLocations", "@spider": "usps_collection_boxes", "addr:city": "NEW ROCHELLE", "addr:country": "US", "addr:postcode": "10801", "addr:state": "NY", "addr:street_address": "1 RAILROAD PLZ", "amenity": "post_box", "collection_times": "Mo-Sa 10:30", "nsi_id": "unitedstatespostalservice-a77078", "operator": "United States Postal Service", "operator:short": "USPS", "operator:type": "public", "operator:wikidata": "Q668687", "ref": "1080100089"}, "type": "Feature"}
{"geometry": {"coordinates": [-73.780994, 40.909319], "type": "Point"}, "id": "YeiMQwXp7G1bmu0vFJoy0YJuieM=", "properties": {"@source_uri": "https://tools.usps.com/UspsToolsRestServices/rest/POLocator/findLocations", "@spider": "usps_collection_boxes", "addr:city": "NEW ROCHELLE", "addr:country": "US", "addr:postcode": "10801", "addr:state": "NY", "addr:street_address": "481 MAIN ST", "amenity": "post_box", "collection_times": "Mo-Sa 10:00", "nsi_id": "unitedstatespostalservice-a77078", "operator": "United States Postal Service", "operator:short": "USPS", "operator:type": "public", "operator:wikidata": "Q668687", "ref": "1080100090"}, "type": "Feature"}
{"geometry": {"coordinates": [-73.7821694, 40.911684], "type": "Point"}, "id": "lIDDyeU7jYqrewhiZXQSxMhWhuc=", "properties": {"@source_uri": "https://tools.usps.com/UspsToolsRestServices/rest/POLocator/findLocations", "@spider": "usps_collection_boxes", "addr:city": "NEW ROCHELLE", "addr:country": "US", "addr:postcode": "10801", "addr:state": "NY", "addr:street_address": "255 NORTH AVE", "amenity": "post_box", "collection_times": "Mo-Fr 17:00; Sa 14:00", "name": "USPS COLLECTION BOX - APC", "note": "ON 12/24 AND 12/31, THIS BOX MAY BE COLLECTED AS EARLY AS 12 NOON.", "nsi_id": "unitedstatespostalservice-a77078", "operator": "United States Postal Service", "operator:short": "USPS", "operator:type": "public", "operator:wikidata": "Q668687", "ref": "1080100091"}, "type": "Feature"}
{"geometry": {"coordinates": [-73.7820063, 40.911564], "type": "Point"}, "id": "MXv3bHVhZCKdeNsblj-MwKOjAwA=", "properties": {"@source_uri": "https://tools.usps.com/UspsToolsRestServices/rest/POLocator/findLocations", "@spider": "usps_collection_boxes", "addr:city": "NEW ROCHELLE", "addr:country": "US", "addr:postcode": "10801", "addr:state": "NY", "addr:street_address": "255 NORTH AVE ( LOBBY DROP SLOT )", "amenity": "post_box", "collection_times": "Mo-Fr 17:00; Sa 14:00", "indoor": "yes", "note": "ON 12/24 AND 12/31, THIS BOX MAY BE COLLECTED AS EARLY AS 12 NOON.", "nsi_id": "unitedstatespostalservice-a77078", "operator": "United States Postal Service", "operator:short": "USPS", "operator:type": "public", "operator:wikidata": "Q668687", "ref": "1080100092"}, "type": "Feature"}
{"geometry": {"coordinates": [-73.782131415, 40.911398945], "type": "Point"}, "id": "PtWayBhZA2fSpwe39YgnZT8wjY0=", "properties": {"@source_uri": "https://tools.usps.com/UspsToolsRestServices/rest/POLocator/findLocations", "@spider": "usps_collection_boxes", "addr:city": "NEW ROCHELLE", "addr:country": "US", "addr:postcode": "10801", "addr:state": "NY", "addr:street_address": "255 NORTH AVE", "amenity": "post_box", "collection_times": "Mo-Fr 17:00; Sa 13:00", "indoor": "yes", "note": "ON 12/24 AND 12/31, THIS BOX MAY BE COLLECTED AS EARLY AS 12 NOON.", "nsi_id": "unitedstatespostalservice-a77078", "operator": "United States Postal Service", "operator:short": "USPS", "operator:type": "public", "operator:wikidata": "Q668687", "ref": "1080100096"}, "type": "Feature"}
{"geometry": {"coordinates": [-73.8045424, 40.896806], "type": "Point"}, "id": "yerp8R1v0MYXtKIRv1oYSEcPxxQ=", "properties": {"@source_uri": "https://tools.usps.com/UspsToolsRestServices/rest/POLocator/findLocations", "@spider": "usps_collection_boxes", "addr:city": "PELHAM", "addr:country": "US", "addr:postcode": "10803", "addr:state": "NY", "addr:street_address": "4773 BOSTON POST RD", "amenity": "post_box", "collection_times": "Mo-Fr 13:00", "note": "ON 12/24 AND 12/31, THIS BOX MAY BE COLLECTED AS EARLY AS 12 NOON.", "nsi_id": "unitedstatespostalservice-a77078", "operator": "United States Postal Service", "operator:short": "USPS", "operator:type": "public", "operator:wikidata": "Q668687", "ref": "1080300003"}, "type": "Feature"}
{"geometry": {"coordinates": [-73.8053485, 40.895778], "type": "Point"}, "id": "5itOH9HedKUquFtGVuerAmgPei4=", "properties": {"@source_uri": "https://tools.usps.com/UspsToolsRestServices/rest/POLocator/findLocations", "@spider": "usps_collection_boxes", "addr:city": "PELHAM", "addr:country": "US", "addr:postcode": "10803", "addr:state": "NY", "addr:street_address": "900 PELHAMDALE AVE", "amenity": "post_box", "collection_times": "Mo-Sa 13:30", "note": "ON 12/24 AND 12/31, THIS BOX MAY BE COLLECTED AS EARLY AS 12 NOON.", "nsi_id": "unitedstatespostalservice-a77078", "operator": "United States Postal Service", "operator:short": "USPS", "operator:type": "public", "operator:wikidata": "Q668687", "ref": "1080300010"}, "type": "Feature"}
{"geometry": {"coordinates": [-73.8039005, 40.89085], "type": "Point"}, "id": "60_XIzT40vrX_qIQch6SrpCtnWw=", "properties": {"@source_uri": "https://tools.usps.com/UspsToolsRestServices/rest/POLocator/findLocations", "@spider": "usps_collection_boxes", "addr:city": "PELHAM", "addr:country": "US", "addr:postcode": "10803", "addr:state": "NY", "addr:street_address": "6 PENFIELD PL", "amenity": "post_box", "collection_times": "Mo-Fr 13:30", "note": "ON 12/24 AND 12/31, THIS BOX MAY BE COLLECTED AS EARLY AS 12 NOON.", "nsi_id": "unitedstatespostalservice-a77078", "operator": "United States Postal Service", "operator:short": "USPS", "operator:type": "public", "operator:wikidata": "Q668687", "ref": "1080300014"}, "type": "Feature"}
{"geometry": {"coordinates": [-73.8121329, 40.898333], "type": "Point"}, "id": "PLCH6J1Pwm0EbAhYBS4wPInpdP8=", "properties": {"@source_uri": "https://tools.usps.com/UspsToolsRestServices/rest/POLocator/findLocations", "@spider": "usps_collection_boxes", "addr:city": "PELHAM", "addr:country": "US", "addr:postcode": "10803", "addr:state": "NY", "addr:street_address": "591 WOLFS LN", "amenity": "post_box", "collection_times": "Mo-Sa 13:00", "note": "ON 12/24 AND 12/31, THIS BOX MAY BE COLLECTED AS EARLY AS 12 NOON.", "nsi_id": "unitedstatespostalservice-a77078", "operator": "United States Postal Service", "operator:short": "USPS", "operator:type": "public", "operator:wikidata": "Q668687", "ref": "1080300020"}, "type": "Feature"}
{"geometry": {"coordinates": [-73.8092443, 40.912027], "type": "Point"}, "id": "DyGOrArqYl6BUreej4umh-JcEOA=", "properties": {"@source_uri": "https://tools.usps.com/UspsToolsRestServices/rest/POLocator/findLocations", "@spider": "usps_collection_boxes", "addr:city": "PELHAM", "addr:country": "US", "addr:postcode": "10803", "addr:state": "NY", "addr:street_address": "50 FIFTH AVE", "amenity": "post_box", "collection_times": "Mo-Sa 13:00", "note": "ON 12/24 AND 12/31, THIS BOX MAY BE COLLECTED AS EARLY AS 12 NOON.", "nsi_id": "unitedstatespostalservice-a77078", "operator": "United States Postal Service", "operator:short": "USPS", "operator:type": "public", "operator:wikidata": "Q668687", "ref": "1080300025"}, "type": "Feature"}
{"geometry": {"coordinates": [-73.8076554, 40.915283], "type": "Point"}, "id": "8hTw67KFWprDYrN5zpCGIJqF2dE=", "properties": {"@source_uri": "https://tools.usps.com/UspsToolsRestServices/rest/POLocator/findLocations", "@spider": "usps_collection_boxes", "addr:city": "PELHAM", "addr:country": "US", "addr:postcode": "10803", "addr:state": "NY", "addr:street_address": "300 FIFTH AVE", "amenity": "post_box", "collection_times": "Mo-Sa 13:00", "note": "ON 12/24 AND 12/31, THIS BOX MAY BE COLLECTED AS EARLY AS 12 NOON.", "nsi_id": "unitedstatespostalservice-a77078", "operator": "United States Postal Service", "operator:short": "USPS", "operator:type": "public", "operator:wikidata": "Q668687", "ref": "1080300030"}, "type": "Feature"}
{"geometry": {"coordinates": [-73.8049283, 40.903642], "type": "Point"}, "id": "xLSoAR65ncShGgVUlNGJHrBfK_A=", "properties": {"@source_uri": "https://tools.usps.com/UspsToolsRestServices/rest/POLocator/findLocations", "@spider": "usps_collection_boxes", "addr:city": "PELHAM", "addr:country": "US", "addr:postcode": "10803", "addr:state": "NY", "addr:street_address": "267 MONTEREY AVE", "amenity": "post_box", "collection_times": "Mo-Sa 13:00", "note": "ON 12/24 AND 12/31, THIS BOX MAY BE COLLECTED AS EARLY AS 12 NOON.", "nsi_id": "unitedstatespostalservice-a77078", "operator": "United States Postal Service", "operator:short": "USPS", "operator:type": "public", "operator:wikidata": "Q668687", "ref": "1080300031"}, "type": "Feature"}
{"geometry": {"coordinates": [-73.8126196, 40.9113], "type": "Point"}, "id": "5_TCv5QOPYQRMfOaPxIGMpRExqQ=", "properties": {"@source_uri": "https://tools.usps.com/UspsToolsRestServices/rest/POLocator/findLocations", "@spider": "usps_collection_boxes", "addr:city": "PELHAM", "addr:country": "US", "addr:postcode": "10803", "addr:state": "NY", "addr:street_address": "26 1ST ST", "amenity": "post_box", "collection_times": "Mo-Fr 17:00; Sa 13:00", "note": "ON 12/24 AND 12/31, THIS BOX MAY BE COLLECTED AS EARLY AS 12 NOON.", "nsi_id": "unitedstatespostalservice-a77078", "operator": "United States Postal Service", "operator:short": "USPS", "operator:type": "public", "operator:wikidata": "Q668687", "ref": "1080300032"}, "type": "Feature"}
{"geometry": {"coordinates": [-73.8090061, 40.910347], "type": "Point"}, "id": "TazO-MwYCmaLHsJgvgrT01-DjwI=", "properties": {"@source_uri": "https://tools.usps.com/UspsToolsRestServices/rest/POLocator/findLocations", "@spider": "usps_collection_boxes", "addr:city": "PELHAM", "addr:country": "US", "addr:postcode": "10803", "addr:state": "NY", "addr:street_address": "2 HARMON PL", "amenity": "post_box", "collection_times": "Mo-Sa 13:00", "note": "ON 12/24 AND 12/31, THIS BOX MAY BE COLLECTED AS EARLY AS 12 NOON.", "nsi_id": "unitedstatespostalservice-a77078", "operator": "United States Postal Service", "operator:short": "USPS", "operator:type": "public", "operator:wikidata": "Q668687", "ref": "1080300035"}, "type": "Feature"}
{"geometry": {"coordinates": [-73.8090406, 40.909751], "type": "Point"}, "id": "HmEUJA3b-GtpQRJ7FJRRLsq1ghA=", "properties": {"@source_uri": "https://tools.usps.com/UspsToolsRestServices/rest/POLocator/findLocations", "@spider": "usps_collection_boxes", "addr:city": "PELHAM", "addr:country": "US", "addr:postcode": "10803", "addr:state": "NY", "addr:street_address": "105 CORLIES AVE", "amenity": "post_box", "collection_times": "Mo-Sa 13:00", "note": "ON 12/24 AND 12/31, THIS BOX MAY BE COLLECTED AS EARLY AS 12 NOON.", "nsi_id": "unitedstatespostalservice-a77078", "operator": "United States Postal Service", "operator:short": "USPS", "operator:type": "public", "operator:wikidata": "Q668687", "ref": "1080300037"}, "type": "Feature"}
{"geometry": {"coordinates": [-73.8118324, 40.913064], "type": "Point"}, "id": "f6eJBWhH20mGbEr-mZ8q-1UGOlA=", "properties": {"@source_uri": "https://tools.usps.com/UspsToolsRestServices/rest/POLocator/findLocations", "@spider": "usps_collection_boxes", "addr:city": "PELHAM", "addr:country": "US", "addr:postcode": "10803", "addr:state": "NY", "addr:street_address": "107 SECOND AVE", "amenity": "post_box", "collection_times": "Mo-Sa 13:00", "note": "ON 12/24 AND 12/31, THIS BOX MAY BE COLLECTED AS EARLY AS 12 NOON.", "nsi_id": "unitedstatespostalservice-a77078", "operator": "United States Postal Service", "operator:short": "USPS", "operator:type": "public", "operator:wikidata": "Q668687", "ref": "1080300038"}, "type": "Feature"}
{"geometry": {"coordinates": [-73.8058235, 40.918722], "type": "Point"}, "id": "l5rjA80NDt-aVg-Y_jPvZ89C-LI=", "properties": {"@source_uri": "https://tools.usps.com/UspsToolsRestServices/rest/POLocator/findLocations", "@spider": "usps_collection_boxes", "addr:city": "PELHAM", "addr:country": "US", "addr:postcode": "10803", "addr:state": "NY", "addr:street_address": "503 FIFTH AVE", "amenity": "post_box", "collection_times": "Mo-Sa 13:00", "note": "ON 12/24 AND 12/31, THIS BOX MAY BE COLLECTED AS EARLY AS 12 NOON.", "nsi_id": "unitedstatespostalservice-a77078", "operator": "United States Postal Service", "operator:short": "USPS", "operator:type": "public", "operator:wikidata": "Q668687", "ref": "1080300039"}, "type": "Feature"}
{"geometry": {"coordinates": [-73.808423029, 40.9138910147], "type": "Point"}, "id": "jviL2EHZUfosY4CkMH_XuRn9nBI=", "properties": {"@source_uri": "https://tools.usps.com/UspsToolsRestServices/rest/POLocator/findLocations", "@spider": "usps_collection_boxes", "addr:city": "PELHAM", "addr:country": "US", "addr:postcode": "10803", "addr:state": "NY", "addr:street_address": "155 FIFTH AVE", "amenity": "post_box", "collection_times": "Mo-Sa 13:00", "note": "ON 12/24 AND 12/31, THIS BOX MAY BE COLLECTED AS EARLY AS 12 NOON.", "nsi_id": "unitedstatespostalservice-a77078", "operator": "United States Postal Service", "operator:short": "USPS", "operator:type": "public", "operator:wikidata": "Q668687", "ref": "1080300040"}, "type": "Feature"}
{"geometry": {"coordinates": [-73.8075971, 40.921443], "type": "Point"}, "id": "pFX2Iaj9rXF9ohAqZ3_bD6tD5TM=", "properties": {"@source_uri": "https://tools.usps.com/UspsToolsRestServices/rest/POLocator/findLocations", "@spider": "usps_collection_boxes", "addr:city": "PELHAM", "addr:country": "US", "addr:postcode": "10803", "addr:state": "NY", "addr:street_address": "553 SECOND AVE", "amenity": "post_box", "collection_times": "Mo-Sa 13:00", "note": "ON 12/24 AND 12/31, THIS BOX MAY BE COLLECTED AS EARLY AS 12 NOON.", "nsi_id": "unitedstatespostalservice-a77078", "operator": "United States Postal Service", "operator:short": "USPS", "operator:type": "public", "operator:wikidata": "Q668687", "ref": "1080300043"}, "type": "Feature"}
{"geometry": {"coordinates": [-73.8122205, 40.905588], "type": "Point"}, "id": "R5YfovALQPciAnUM7Sldb8DcFvI=", "properties": {"@source_uri": "https://tools.usps.com/UspsToolsRestServices/rest/POLocator/findLocations", "@spider": "usps_collection_boxes", "addr:city": "PELHAM", "addr:country": "US", "addr:postcode": "10803", "addr:state": "NY", "addr:street_address": "259 WOLFS LN", "amenity": "post_box", "collection_times": "Mo-Sa 13:00", "note": "ON 12/24 AND 12/31, THIS BOX MAY BE COLLECTED AS EARLY AS 12 NOON.", "nsi_id": "unitedstatespostalservice-a77078", "operator": "United States Postal Service", "operator:short": "USPS", "operator:type": "public", "operator:wikidata": "Q668687", "ref": "1080300044"}, "type": "Feature"}
{"geometry": {"coordinates": [-73.8051399, 40.919761], "type": "Point"}, "id": "wi6U-kgEdDUB174FDkVRwbKNTEc=", "properties": {"@source_uri": "https://tools.usps.com/UspsToolsRestServices/rest/POLocator/findLocations", "@spider": "usps_collection_boxes", "addr:city": "PELHAM", "addr:country": "US", "addr:postcode": "10803", "addr:state": "NY", "addr:street_address": "531 FIFTH AVE", "amenity": "post_box", "collection_times": "Mo-Sa 13:00", "note": "ON 12/24 AND 12/31, THIS BOX MAY BE COLLECTED AS EARLY AS 12 NOON.", "nsi_id": "unitedstatespostalservice-a77078", "operator": "United States Postal Service", "operator:short": "USPS", "operator:type": "public", "operator:wikidata": "Q668687", "ref": "1080300046"}, "type": "Feature"}
{"geometry": {"coordinates": [-73.8048659, 40.920674], "type": "Point"}, "id": "Uu9ThAokoVImEiG6rhC8Nmek6G8=", "properties": {"@source_uri": "https://tools.usps.com/UspsToolsRestServices/rest/POLocator/findLocations", "@spider": "usps_collection_boxes", "addr:city": "PELHAM", "addr:country": "US", "addr:postcode": "10803", "addr:state": "NY", "addr:street_address": "629 FIFTH AVE", "amenity": "post_box", "collection_times": "Mo-Fr 13:00", "note": "ON 12/24 AND 12/31, THIS BOX MAY BE COLLECTED AS EARLY AS 12 NOON.", "nsi_id": "unitedstatespostalservice-a77078", "operator": "United States Postal Service", "operator:short": "USPS", "operator:type": "public", "operator:wikidata": "Q668687", "ref": "1080300047"}, "type": "Feature"}
{"geometry": {"coordinates": [-73.8125742, 40.91118], "type": "Point"}, "id": "klvoguwcxAKzinz43f1GDhYFmMo=", "properties": {"@source_uri": "https://tools.usps.com/UspsToolsRestServices/rest/POLocator/findLocations", "@spider": "usps_collection_boxes", "addr:city": "PELHAM", "addr:country": "US", "addr:postcode": "10803", "addr:state": "NY", "addr:street_address": "26 1 ST ST ( LOBBY DROP SLOT )", "amenity": "post_box", "collection_times": "Mo-Fr 17:00; Sa 14:30", "indoor": "yes", "note": "ON 12/24 AND 12/31, THIS BOX MAY BE COLLECTED AS EARLY AS 12 NOON.", "nsi_id": "unitedstatespostalservice-a77078", "operator": "United States Postal Service", "operator:short": "USPS", "operator:type": "public", "operator:wikidata": "Q668687", "ref": "1080300049"}, "type": "Feature"}
{"geometry": {"coordinates": [-73.812411303, 40.911225046], "type": "Point"}, "id": "-_EOSmS6sE272rXv4yLn6WP3YFo=", "properties": {"@source_uri": "https://tools.usps.com/UspsToolsRestServices/rest/POLocator/findLocations", "@spider": "usps_collection_boxes", "addr:city": "PELHAM", "addr:country": "US", "addr:postcode": "10803", "addr:state": "NY", "addr:street_address": "26 1ST ST", "amenity": "post_box", "collection_times": "Mo-Fr 17:00; Sa 16:00", "indoor": "yes", "note": "ON 12/24 AND 12/31, THIS BOX MAY BE COLLECTED AS EARLY AS 12 NOON.", "nsi_id": "unitedstatespostalservice-a77078", "operator": "United States Postal Service", "operator:short": "USPS", "operator:type": "public", "operator:wikidata": "Q668687", "ref": "1080300051"}, "type": "Feature"}
{"geometry": {"coordinates": [-73.7950599, 40.931957], "type": "Point"}, "id": "Eo8QQ9tS_QFklsnJveWtgKuK0Ug=", "properties": {"@source_uri": "https://tools.usps.com/UspsToolsRestServices/rest/POLocator/findLocations", "@spider": "usps_collection_boxes", "addr:city": "NEW ROCHELLE", "addr:country": "US", "addr:postcode": "10804", "addr:state": "NY", "addr:street_address": "36 CALTON RD", "amenity": "post_box", "collection_times": "Mo-Sa 11:00", "nsi_id": "unitedstatespostalservice-a77078", "operator": "United States Postal Service", "operator:short": "USPS", "operator:type": "public", "operator:wikidata": "Q668687", "ref": "1080400001"}, "type": "Feature"}
{"geometry": {"coordinates": [-73.7936418, 40.939542], "type": "Point"}, "id": "Jjhvmgf9H7o18XMhhXmK_kCj61k=", "properties": {"@source_uri": "https://tools.usps.com/UspsToolsRestServices/rest/POLocator/findLocations", "@spider": "usps_collection_boxes", "addr:city": "NEW ROCHELLE", "addr:country": "US", "addr:postcode": "10804", "addr:state": "NY", "addr:street_address": "1107 NORTH AVE", "amenity": "post_box", "collection_times": "Mo-Sa 11:00", "nsi_id": "unitedstatespostalservice-a77078", "operator": "United States Postal Service", "operator:short": "USPS", "operator:type": "public", "operator:wikidata": "Q668687", "ref": "1080400011"}, "type": "Feature"}
{"geometry": {"coordinates": [-73.7961411, 40.94592], "type": "Point"}, "id": "HU1BhC_-S5YmiZlxfrbWACTOwWg=", "properties": {"@source_uri": "https://tools.usps.com/UspsToolsRestServices/rest/POLocator/findLocations", "@spider": "usps_collection_boxes", "addr:city": "NEW ROCHELLE", "addr:country": "US", "addr:postcode": "10804", "addr:state": "NY", "addr:street_address": "1292 NORTH AVE", "amenity": "post_box", "collection_times": "Mo-Fr 11:00", "nsi_id": "unitedstatespostalservice-a77078", "operator": "United States Postal Service", "operator:short": "USPS", "operator:type": "public", "operator:wikidata": "Q668687", "ref": "1080400012"}, "type": "Feature"}
{"geometry": {"coordinates": [-73.7927744, 40.948623], "type": "Point"}, "id": "WK1cSLxlDoSSmOXvijZwr6ktH1s=", "properties": {"@source_uri": "https://tools.usps.com/UspsToolsRestServices/rest/POLocator/findLocations", "@spider": "usps_collection_boxes", "addr:city": "NEW ROCHELLE", "addr:country": "US", "addr:postcode": "10804", "addr:state": "NY", "addr:street_address": "77 QUAKER RIDGE RD", "amenity": "post_box", "collection_times": "Mo-Sa 11:00", "nsi_id": "unitedstatespostalservice-a77078", "operator": "United States Postal Service", "operator:short": "USPS", "operator:type": "public", "operator:wikidata": "Q668687", "ref": "1080400017"}, "type": "Feature"}
{"geometry": {"coordinates": [-73.7983107, 40.938747], "type": "Point"}, "id": "L9UXRE-LqnyjUcrFVIzVOUSArfk=", "properties": {"@source_uri": "https://tools.usps.com/UspsToolsRestServices/rest/POLocator/findLocations", "@spider": "usps_collection_boxes", "addr:city": "NEW ROCHELLE", "addr:country": "US", "addr:postcode": "10804", "addr:state": "NY", "addr:street_address": "98 BON AIR AVE", "amenity": "post_box", "collection_times": "Mo-Sa 11:00", "nsi_id": "unitedstatespostalservice-a77078", "operator": "United States Postal Service", "operator:short": "USPS", "operator:type": "public", "operator:wikidata": "Q668687", "ref": "1080400020"}, "type": "Feature"}
{"geometry": {"coordinates": [-73.7947478, 40.946754], "type": "Point"}, "id": "vnm6TX6Cj3CE1T3FKo2l7bELud8=", "properties": {"@source_uri": "https://tools.usps.com/UspsToolsRestServices/rest/POLocator/findLocations", "@spider": "usps_collection_boxes", "addr:city": "NEW ROCHELLE", "addr:country": "US", "addr:postcode": "10804", "addr:state": "NY", "addr:street_address": "3 QUAKER RIDGE RD", "amenity": "post_box", "collection_times": "Mo-Fr 17:00; Sa 13:00", "note": "ON 12/24 AND 12/31, THIS BOX MAY BE COLLECTED AS EARLY AS 12 NOON.", "nsi_id": "unitedstatespostalservice-a77078", "operator": "United States Postal Service", "operator:short": "USPS", "operator:type": "public", "operator:wikidata": "Q668687", "ref": "1080400021"}, "type": "Feature"}
{"geometry": {"coordinates": [-73.7946283, 40.946678], "type": "Point"}, "id": "43bm5sxZ41IF3Y5sxBAzG1hvT2U=", "properties": {"@source_uri": "https://tools.usps.com/UspsToolsRestServices/rest/POLocator/findLocations", "@spider": "usps_collection_boxes", "addr:city": "NEW ROCHELLE", "addr:country": "US", "addr:postcode": "10804", "addr:state": "NY", "addr:street_address": "3 QUAKER RD ( LOBBY DROP SLOT )", "amenity": "post_box", "collection_times": "Mo-Fr 17:00; Sa 11:00", "indoor": "yes", "note": "ON 12/24 AND 12/31, THIS BOX MAY BE COLLECTED AS EARLY AS 12 NOON.", "nsi_id": "unitedstatespostalservice-a77078", "operator": "United States Postal Service", "operator:short": "USPS", "operator:type": "public", "operator:wikidata": "Q668687", "ref": "1080400023"}, "type": "Feature"}
{"geometry": {"coordinates": [-73.794712077, 40.948019755], "type": "Point"}, "id": "_23TtIq02HJEYBrLxR55f9A9yCo=", "properties": {"@source_uri": "https://tools.usps.com/UspsToolsRestServices/rest/POLocator/findLocations", "@spider": "usps_collection_boxes", "addr:city": "NEW ROCHELLE", "addr:country": "US", "addr:postcode": "10804", "addr:state": "NY", "addr:street_address": "3 QUAKER RIDGE RD", "amenity": "post_box", "collection_times": "Mo-Fr 17:00; Sa 16:00", "indoor": "yes", "note": "ON 12/24 AND 12/31, THIS BOX MAY BE COLLECTED AS EARLY AS 12 NOON.", "nsi_id": "unitedstatespostalservice-a77078", "operator": "United States Postal Service", "operator:short": "USPS", "operator:type": "public", "operator:wikidata": "Q668687", "ref": "1080400026"}, "type": "Feature"}
{"geometry": {"coordinates": [-73.7807244, 40.903778], "type": "Point"}, "id": "GRvcwfb8_ddv_KYmMlmB6n_bLmM=", "properties": {"@source_uri": "https://tools.usps.com/UspsToolsRestServices/rest/POLocator/findLocations", "@spider": "usps_collection_boxes", "addr:city": "NEW ROCHELLE", "addr:country": "US", "addr:postcode": "10805", "addr:state": "NY", "addr:street_address": "219 CENTRE AVE", "amenity": "post_box", "collection_times": "Mo-Sa 10:00", "nsi_id": "unitedstatespostalservice-a77078", "operator": "United States Postal Service", "operator:short": "USPS", "operator:type": "public", "operator:wikidata": "Q668687", "ref": "1080500002"}, "type": "Feature"}
{"geometry": {"coordinates": [-73.7824354, 40.90589], "type": "Point"}, "id": "TV8zoCk-NVJq9K3Vs6VZ8fFZDyE=", "properties": {"@source_uri": "https://tools.usps.com/UspsToolsRestServices/rest/POLocator/findLocations", "@spider": "usps_collection_boxes", "addr:city": "NEW ROCHELLE", "addr:country": "US", "addr:postcode": "10805", "addr:state": "NY", "addr:street_address": "138 CENTRE AVE", "amenity": "post_box", "collection_times": "Mo-Sa 10:00", "nsi_id": "unitedstatespostalservice-a77078", "operator": "United States Postal Service", "operator:short": "USPS", "operator:type": "public", "operator:wikidata": "Q668687", "ref": "1080500003"}, "type": "Feature"}
{"geometry": {"coordinates": [-73.7728563, 40.900247], "type": "Point"}, "id": "fxC8IRwix_ib9aeaCGSoebz-06o=", "properties": {"@source_uri": "https://tools.usps.com/UspsToolsRestServices/rest/POLocator/findLocations", "@spider": "usps_collection_boxes", "addr:city": "NEW ROCHELLE", "addr:country": "US", "addr:postcode": "10805", "addr:state": "NY", "addr:street_address": "223 DAVENPORT AVE", "amenity": "post_box", "collection_times": "Mo-Sa 09:30", "nsi_id": "unitedstatespostalservice-a77078", "operator": "United States Postal Service", "operator:short": "USPS", "operator:type": "public", "operator:wikidata": "Q668687", "ref": "1080500005"}, "type": "Feature"}
{"geometry": {"coordinates": [-73.7866494, 40.899839], "type": "Point"}, "id": "f1ZiM1uqirdhcegqH3AMKWb0Sxw=", "properties": {"@source_uri": "https://tools.usps.com/UspsToolsRestServices/rest/POLocator/findLocations", "@spider": "usps_collection_boxes", "addr:city": "NEW ROCHELLE", "addr:country": "US", "addr:postcode": "10805", "addr:state": "NY", "addr:street_address": "170 ELM ST", "amenity": "post_box", "collection_times": "Mo-Sa 10:00", "nsi_id": "unitedstatespostalservice-a77078", "operator": "United States Postal Service", "operator:short": "USPS", "operator:type": "public", "operator:wikidata": "Q668687", "ref": "1080500006"}, "type": "Feature"}
{"geometry": {"coordinates": [-73.7762443, 40.90192], "type": "Point"}, "id": "wBjmEr629-Hgg812E2j6d5Od5B8=", "properties": {"@source_uri": "https://tools.usps.com/UspsToolsRestServices/rest/POLocator/findLocations", "@spider": "usps_collection_boxes", "addr:city": "NEW ROCHELLE", "addr:country": "US", "addr:postcode": "10805", "addr:state": "NY", "addr:street_address": "220 PELHAM RD", "amenity": "post_box", "collection_times": "Mo-Sa 10:30", "nsi_id": "unitedstatespostalservice-a77078", "operator": "United States Postal Service", "operator:short": "USPS", "operator:type": "public", "operator:wikidata": "Q668687", "ref": "1080500010"}, "type": "Feature"}
{"geometry": {"coordinates": [-73.7780016, 40.897787], "type": "Point"}, "id": "UgGrbrdeICJWoRifN_cjkSzv5sw=", "properties": {"@source_uri": "https://tools.usps.com/UspsToolsRestServices/rest/POLocator/findLocations", "@spider": "usps_collection_boxes", "addr:city": "NEW ROCHELLE", "addr:country": "US", "addr:postcode": "10805", "addr:state": "NY", "addr:street_address": "366 PELHAM RD", "amenity": "post_box", "collection_times": "Mo-Sa 10:30", "nsi_id": "unitedstatespostalservice-a77078", "operator": "United States Postal Service", "operator:short": "USPS", "operator:type": "public", "operator:wikidata": "Q668687", "ref": "1080500011"}, "type": "Feature"}
{"geometry": {"coordinates": [-73.7879047, 40.889761], "type": "Point"}, "id": "YJunLvOd-i6ncQHJ2Xi6jMhOxig=", "properties": {"@source_uri": "https://tools.usps.com/UspsToolsRestServices/rest/POLocator/findLocations", "@spider": "usps_collection_boxes", "addr:city": "NEW ROCHELLE", "addr:country": "US", "addr:postcode": "10805", "addr:state": "NY", "addr:street_address": "720 PELHAM RD", "amenity": "post_box", "collection_times": "Mo-Sa 10:30", "nsi_id": "unitedstatespostalservice-a77078", "operator": "United States Postal Service", "operator:short": "USPS", "operator:type": "public", "operator:wikidata": "Q668687", "ref": "1080500014"}, "type": "Feature"}
{"geometry": {"coordinates": [-73.7909642, 40.899056], "type": "Point"}, "id": "IVPKpdq5elziW4PyEfIn7UPAZR4=", "properties": {"@source_uri": "https://tools.usps.com/UspsToolsRestServices/rest/POLocator/findLocations", "@spider": "usps_collection_boxes", "addr:city": "NEW ROCHELLE", "addr:country": "US", "addr:postcode": "10805", "addr:state": "NY", "addr:street_address": "85 WEYMAN AVE", "amenity": "post_box", "collection_times": "Mo-Fr 10:30", "nsi_id": "unitedstatespostalservice-a77078", "operator": "United States Postal Service", "operator:short": "USPS", "operator:type": "public", "operator:wikidata": "Q668687", "ref": "1080500015"}, "type": "Feature"}
{"geometry": {"coordinates": [-73.7901974, 40.888113], "type": "Point"}, "id": "yQtQutEq7FbcpZ0uSQ_-x2I9FCI=", "properties": {"@source_uri": "https://tools.usps.com/UspsToolsRestServices/rest/POLocator/findLocations", "@spider": "usps_collection_boxes", "addr:city": "NEW ROCHELLE", "addr:country": "US", "addr:postcode": "10805", "addr:state": "NY", "addr:street_address": "781 PELHAM RD", "amenity": "post_box", "collection_times": "Mo-Sa 10:30", "nsi_id": "unitedstatespostalservice-a77078", "operator": "United States Postal Service", "operator:short": "USPS", "operator:type": "public", "operator:wikidata": "Q668687", "ref": "1080500016"}, "type": "Feature"}
