{"geometry": {"coordinates": [-74.3572645331, 41.5415493755], "type": "Point"}, "id": "IY5ySnd9stA5zfHkdWIblzy4DoU=", "properties": {"@spider": "usps_collection_boxes", "addr:city": "BULLVILLE", "addr:country": "US", "addr:full": "652 LYBOLT RD", "addr:postcode": "10915", "addr:state": "NY", "brand": "USPS", "collection_times": "Mo-Fr 17:00; Sa 11:30", "name": "USPS COLLECTION BOX - BLUE BOX", "note": "ON 12/24 AND 12/31, THIS BOX MAY BE COLLECTED AS EARLY AS 12 NOON.", "ref": "1091500001"}, "type": "Feature"}
{"geometry": {"coordinates": [-74.3572645331, 41.5415493755], "type": "Point"}, "id": "CdUHC_YVdEZSRfsmGRdRqedzc0E=", "properties": {"@spider": "usps_collection_boxes", "addr:city": "BULLVILLE", "addr:country": "US", "addr:full": "652 LYBOLT RD LBBY DROP", "addr:postcode": "10915", "addr:state": "NY", "brand": "USPS", "collection_times": "Mo-Fr 17:00; Sa 11:30", "name": "USPS COLLECTION BOX - PO LOBBY", "note": "ON 12/24 AND 12/31, THIS BOX MAY BE COLLECTED AS EARLY AS 12 NOON.", "ref": "1091500002"}, "type": "Feature"}
{"geometry": {"coordinates": [-74.360960065, 41.541185398], "type": "Point"}, "id": "9e9BeM4T1daVFm_wZ9ULp7X7eUY=", "properties": {"@spider": "usps_collection_boxes", "addr:city": "BULLVILLE", "addr:country": "US", "addr:full": "652 LYBOLT RD", "addr:postcode": "10915", "addr:state": "NY", "brand": "USPS", "collection_times": "Mo-Fr 17:00; Sa 11:30", "name": "USPS COLLECTION BOX - PO LOBBY", "note": "ON 12/24 AND 12/31, THIS BOX MAY BE COLLECTED AS EARLY AS 12 NOON.", "ref": "1091500003"}, "type": "Feature"}
{"geometry": {"coordinates": [-74.387064, 41.514549], "type": "Point"}, "id": "QSijilVpFAM5cAAAjZVMuOkqazc=", "properties": {"@spider": "usps_collection_boxes", "addr:city": "CIRCLEVILLE", "addr:country": "US", "addr:full": "2079 ROUTE 302", "addr:postcode": "10919", "addr:state": "NY", "brand": "USPS", "collection_times": "Mo-Fr 17:00; Sa 12:00", "name": "USPS COLLECTION BOX - BLUE BOX", "note": "ON 12/24 AND 12/31, THIS BOX MAY BE COLLECTED AS EARLY AS 12 NOON.", "ref": "1091900002"}, "type": "Feature"}
{"geometry": {"coordinates": [-74.387064, 41.514549], "type": "Point"}, "id": "W2N-YzRC8XZPeAe7E_-IXqrNJFM=", "properties": {"@spider": "usps_collection_boxes", "addr:city": "CIRCLEVILLE", "addr:country": "US", "addr:full": "2079 ROUTE 302 LBBY DROP", "addr:postcode": "10919", "addr:state": "NY", "brand": "USPS", "collection_times": "Mo-Fr 17:00; Sa 12:00", "name": "USPS COLLECTION BOX - PO LOBBY", "note": "ON 12/24 AND 12/31, THIS BOX MAY BE COLLECTED AS EARLY AS 12 NOON.", "ref": "1091900003"}, "type": "Feature"}
{"geometry": {"coordinates": [-74.387292756, 41.514663292], "type": "Point"}, "id": "q5W1hSq8_76Aity2FPQdWboadNg=", "properties": {"@spider": "usps_collection_boxes", "addr:city": "CIRCLEVILLE", "addr:country": "US", "addr:full": "2079 ROUTE 302", "addr:postcode": "10919", "addr:state": "NY", "brand": "USPS", "collection_times": "Mo-Fr 17:00; Sa 12:00", "name": "USPS COLLECTION BOX - PO LOBBY", "note": "ON 12/24 AND 12/31, THIS BOX MAY BE COLLECTED AS EARLY AS 12 NOON.", "ref": "1091900004"}, "type": "Feature"}
{"geometry": {"coordinates": [-74.467834, 41.480455], "type": "Point"}, "id": "mOKaIVO5psOtZ4IM-O0Pu4KWCEg=", "properties": {"@spider": "usps_collection_boxes", "addr:city": "HOWELLS", "addr:country": "US", "addr:full": "126 NEW VERNON RD STE 1", "addr:postcode": "10932", "addr:state": "NY", "brand": "USPS", "collection_times": "Mo-Fr 17:00; Sa 11:30", "name": "USPS COLLECTION BOX - BLUE BOX", "note": "ON 12/24 AND 12/31, THIS BOX MAY BE COLLECTED AS EARLY AS 12 NOON.", "ref": "1093200001"}, "type": "Feature"}
{"geometry": {"coordinates": [-74.467834, 41.480455], "type": "Point"}, "id": "QhSW2KJuKTDUoZFt3YkwxC_fFDU=", "properties": {"@spider": "usps_collection_boxes", "addr:city": "HOWELLS", "addr:country": "US", "addr:full": "126 NEW VERNON RD STE DROP", "addr:postcode": "10932", "addr:state": "NY", "brand": "USPS", "collection_times": "Mo-Fr 17:00; Sa 11:30", "name": "USPS COLLECTION BOX - PO LOBBY", "note": "ON 12/24 AND 12/31, THIS BOX MAY BE COLLECTED AS EARLY AS 12 NOON.", "ref": "1093200002"}, "type": "Feature"}
{"geometry": {"coordinates": [-74.467901651, 41.480443486], "type": "Point"}, "id": "OUUyeLi2fKVgUrsOtid6phDr_Uk=", "properties": {"@spider": "usps_collection_boxes", "addr:city": "HOWELLS", "addr:country": "US", "addr:full": "126 NEW VERNON RD STE 1", "addr:postcode": "10932", "addr:state": "NY", "brand": "USPS", "collection_times": "Mo-Fr 17:00; Sa 11:30", "name": "USPS COLLECTION BOX - PO LOBBY", "note": "ON 12/24 AND 12/31, THIS BOX MAY BE COLLECTED AS EARLY AS 12 NOON.", "ref": "1093200003"}, "type": "Feature"}
{"geometry": {"coordinates": [-74.53882, 41.473542], "type": "Point"}, "id": "nDFoHn6Gcv2TVmZIR364QEWkJMM=", "properties": {"@spider": "usps_collection_boxes", "addr:city": "OTISVILLE", "addr:country": "US", "addr:full": "11 MAIN ST", "addr:postcode": "10963", "addr:state": "NY", "brand": "USPS", "collection_times": "Mo-Fr 17:00; Sa 11:00", "name": "USPS COLLECTION BOX - BLUE BOX", "note": "ON 12/24 AND 12/31, THIS BOX MAY BE COLLECTED AS EARLY AS 12 NOON.", "ref": "1096300001"}, "type": "Feature"}
{"geometry": {"coordinates": [-74.53882, 41.473542], "type": "Point"}, "id": "iwSnPIHOZF6ll9aoszuMo7za4fk=", "properties": {"@spider": "usps_collection_boxes", "addr:city": "OTISVILLE", "addr:country": "US", "addr:full": "11 MAIN ST LBBY DROP", "addr:postcode": "10963", "addr:state": "NY", "brand": "USPS", "collection_times": "Mo-Fr 17:00; Sa 11:00", "name": "USPS COLLECTION BOX - PO LOBBY", "note": "ON 12/24 AND 12/31, THIS BOX MAY BE COLLECTED AS EARLY AS 12 NOON.", "ref": "1096300002"}, "type": "Feature"}
{"geometry": {"coordinates": [-74.539250832, 41.473526481], "type": "Point"}, "id": "vD8R15jbgmSjuHYGeAryJ2-2EeU=", "properties": {"@spider": "usps_collection_boxes", "addr:city": "OTISVILLE", "addr:country": "US", "addr:full": "11 MAIN ST", "addr:postcode": "10963", "addr:state": "NY", "brand": "USPS", "collection_times": "Mo-Fr 17:00; Sa 11:00", "name": "USPS COLLECTION BOX - PO LOBBY", "note": "ON 12/24 AND 12/31, THIS BOX MAY BE COLLECTED AS EARLY AS 12 NOON.", "ref": "1096300004"}, "type": "Feature"}
{"geometry": {"coordinates": [-74.331028, 41.56875], "type": "Point"}, "id": "K4bu0rRbrqJi8sSL0L1_0l-cm14=", "properties": {"@spider": "usps_collection_boxes", "addr:city": "THOMPSON RIDGE", "addr:country": "US", "addr:full": "49 COUNTY HIGHWAY 17", "addr:postcode": "10985", "addr:state": "NY", "brand": "USPS", "collection_times": "Mo-Fr 17:00; Sa 12:00", "name": "USPS COLLECTION BOX - BLUE BOX", "note": "ON 12/24 AND 12/31, THIS BOX MAY BE COLLECTED AS EARLY AS 12 NOON.", "ref": "1098500001"}, "type": "Feature"}
{"geometry": {"coordinates": [-74.331028, 41.56875], "type": "Point"}, "id": "XfYjujSs-GN5EeCOpZQxLUwRGo0=", "properties": {"@spider": "usps_collection_boxes", "addr:city": "THOMPSON RIDGE", "addr:country": "US", "addr:full": "49 COUNTY HIGHWAY 17 LBBY DROP", "addr:postcode": "10985", "addr:state": "NY", "brand": "USPS", "collection_times": "Mo-Fr 17:00; Sa 12:00", "name": "USPS COLLECTION BOX - PO LOBBY", "note": "ON 12/24 AND 12/31, THIS BOX MAY BE COLLECTED AS EARLY AS 12 NOON.", "ref": "1098500002"}, "type": "Feature"}
{"geometry": {"coordinates": [-74.331058076, 41.56876515], "type": "Point"}, "id": "NyUKdZw4W5xxwCfF7HUfNJNMZmU=", "properties": {"@spider": "usps_collection_boxes", "addr:city": "THOMPSON RIDGE", "addr:country": "US", "addr:full": "49 COUNTY HIGHWAY 17", "addr:postcode": "10985", "addr:state": "NY", "brand": "USPS", "collection_times": "Mo-Fr 17:00; Sa 12:00", "name": "USPS COLLECTION BOX - PO LOBBY", "note": "ON 12/24 AND 12/31, THIS BOX MAY BE COLLECTED AS EARLY AS 12 NOON.", "ref": "1098500003"}, "type": "Feature"}
