{"geometry": {"coordinates": [-73.9416966108, 40.7430747563], "type": "Point"}, "id": "uCswsVwQG7k2mhTS8XSrPwUtHvc=", "properties": {"@spider": "usps_collection_boxes", "addr:city": "LONG IS CITY", "addr:country": "US", "addr:full": "4716 AUSTEL PL", "addr:postcode": "11101", "addr:state": "NY", "amenity": "post_box", "brand": "United States Postal Service", "brand:wikidata": "Q668687", "collection_times": "Mo-Fr 14:00; Sa 08:00", "name": "USPS COLLECTION BOX - BLUE BOX", "note": "ON 12/24 AND 12/31, THIS BOX MAY BE COLLECTED AS EARLY AS 12 NOON.", "nsi_id": "unitedstatespostalservice-a77078", "operator": "United States Postal Service", "operator:short": "USPS", "operator:type": "public", "operator:wikidata": "Q668687", "ref": "1110100001"}, "type": "Feature"}
{"geometry": {"coordinates": [-73.9523995, 40.740869], "type": "Point"}, "id": "vDfyho34C6cb-pZAEtEV94r6zYo=", "properties": {"@spider": "usps_collection_boxes", "addr:city": "LONG IS CITY", "addr:country": "US", "addr:full": "1040 BORDEN AVE", "addr:postcode": "11101", "addr:state": "NY", "amenity": "post_box", "brand": "United States Postal Service", "brand:wikidata": "Q668687", "collection_times": "Mo-Fr 15:00; Sa 08:00", "name": "USPS COLLECTION BOX - BLUE BOX", "note": "ON 12/24 AND 12/31, THIS BOX MAY BE COLLECTED AS EARLY AS 12 NOON.", "nsi_id": "unitedstatespostalservice-a77078", "operator": "United States Postal Service", "operator:short": "USPS", "operator:type": "public", "operator:wikidata": "Q668687", "ref": "1110100002"}, "type": "Feature"}
{"geometry": {"coordinates": [-73.9500315, 40.740514], "type": "Point"}, "id": "f0OuFT4vgS69-xZi0sFZXN6DLd4=", "properties": {"@spider": "usps_collection_boxes", "addr:city": "LONG IS CITY", "addr:country": "US", "addr:full": "2107 BORDEN AVE", "addr:postcode": "11101", "addr:state": "NY", "amenity": "post_box", "brand": "United States Postal Service", "brand:wikidata": "Q668687", "collection_times": "Mo-Fr 15:00; Sa 08:00", "name": "USPS COLLECTION BOX - BLUE BOX", "note": "ON 12/24 AND 12/31, THIS BOX MAY BE COLLECTED AS EARLY AS 12 NOON.", "nsi_id": "unitedstatespostalservice-a77078", "operator": "United States Postal Service", "operator:short": "USPS", "operator:type": "public", "operator:wikidata": "Q668687", "ref": "1110100003"}, "type": "Feature"}
{"geometry": {"coordinates": [-73.9407618, 40.738789], "type": "Point"}, "id": "CS0c_Y42RkyWKbDDSXiZjKs1Pqg=", "properties": {"@spider": "usps_collection_boxes", "addr:city": "LONG IS CITY", "addr:country": "US", "addr:full": "2831 REVIEW AVE", "addr:postcode": "11101", "addr:state": "NY", "amenity": "post_box", "brand": "United States Postal Service", "brand:wikidata": "Q668687", "collection_times": "Mo-Fr 15:00; Sa 08:00", "name": "USPS COLLECTION BOX - BLUE BOX", "note": "ON 12/24 AND 12/31, THIS BOX MAY BE COLLECTED AS EARLY AS 12 NOON.", "nsi_id": "unitedstatespostalservice-a77078", "operator": "United States Postal Service", "operator:short": "USPS", "operator:type": "public", "operator:wikidata": "Q668687", "ref": "1110100005"}, "type": "Feature"}
{"geometry": {"coordinates": [-73.934905761, 40.738176125], "type": "Point"}, "id": "we67Z5k6_010BWmmV5mcs12YWUs=", "properties": {"@spider": "usps_collection_boxes", "addr:city": "LONG IS CITY", "addr:country": "US", "addr:full": "4962 VAN DAM ST", "addr:postcode": "11101", "addr:state": "NY", "amenity": "post_box", "brand": "United States Postal Service", "brand:wikidata": "Q668687", "collection_times": "Mo-Fr 14:00; Sa 08:00", "name": "USPS COLLECTION BOX - BLUE BOX", "note": "ON 12/24 AND 12/31, THIS BOX MAY BE COLLECTED AS EARLY AS 12 NOON.", "nsi_id": "unitedstatespostalservice-a77078", "operator": "United States Postal Service", "operator:short": "USPS", "operator:type": "public", "operator:wikidata": "Q668687", "ref": "1110100006"}, "type": "Feature"}
{"geometry": {"coordinates": [-73.94842, 40.746055], "type": "Point"}, "id": "MKR-qiQlsoV3ls0DEEnDKAWdN6I=", "properties": {"@spider": "usps_collection_boxes", "addr:city": "LONG IS CITY", "addr:country": "US", "addr:full": "2403 QUEENS PLAZA NORTH", "addr:postcode": "11101", "addr:state": "NY", "amenity": "post_box", "brand": "United States Postal Service", "brand:wikidata": "Q668687", "collection_times": "Mo-Fr 15:00; Sa 08:00", "name": "USPS COLLECTION BOX - BLUE BOX", "note": "ON 12/24 AND 12/31, THIS BOX MAY BE COLLECTED AS EARLY AS 12 NOON.", "nsi_id": "unitedstatespostalservice-a77078", "operator": "United States Postal Service", "operator:short": "USPS", "operator:type": "public", "operator:wikidata": "Q668687", "ref": "1110100007"}, "type": "Feature"}
{"geometry": {"coordinates": [-73.9394557, 40.75064], "type": "Point"}, "id": "OyAVDlqNn6KoTQ7qDLuJYBKTKso=", "properties": {"@spider": "usps_collection_boxes", "addr:city": "LONG IS CITY", "addr:country": "US", "addr:full": "4136 27TH ST", "addr:postcode": "11101", "addr:state": "NY", "amenity": "post_box", "brand": "United States Postal Service", "brand:wikidata": "Q668687", "collection_times": "Mo-Fr 16:00; Sa 08:00", "name": "USPS COLLECTION BOX - BLUE BOX", "note": "ON 12/24 AND 12/31, THIS BOX MAY BE COLLECTED AS EARLY AS 12 NOON.", "nsi_id": "unitedstatespostalservice-a77078", "operator": "United States Postal Service", "operator:short": "USPS", "operator:type": "public", "operator:wikidata": "Q668687", "ref": "1110100010"}, "type": "Feature"}
{"geometry": {"coordinates": [-73.9376949, 40.749889], "type": "Point"}, "id": "p37lcFX4-zLAm8aVtI_YRb97mug=", "properties": {"@spider": "usps_collection_boxes", "addr:city": "LONG IS CITY", "addr:country": "US", "addr:full": "2909 BRIDGE PLAZA NO.", "addr:postcode": "11101", "addr:state": "NY", "amenity": "post_box", "brand": "United States Postal Service", "brand:wikidata": "Q668687", "collection_times": "Mo-Fr 14:00; Sa 08:00", "name": "USPS COLLECTION BOX - BLUE BOX", "note": "ON 12/24 AND 12/31, THIS BOX MAY BE COLLECTED AS EARLY AS 12 NOON.", "nsi_id": "unitedstatespostalservice-a77078", "operator": "United States Postal Service", "operator:short": "USPS", "operator:type": "public", "operator:wikidata": "Q668687", "ref": "1110100012"}, "type": "Feature"}
{"geometry": {"coordinates": [-73.942709, 40.746118], "type": "Point"}, "id": "ycfDCcOT4ICG8ENYl5XviJsiORk=", "properties": {"@spider": "usps_collection_boxes", "addr:city": "LONG IS CITY", "addr:country": "US", "addr:full": "4531 COURT SQ", "addr:postcode": "11101", "addr:state": "NY", "amenity": "post_box", "brand": "United States Postal Service", "brand:wikidata": "Q668687", "collection_times": "Mo-Fr 15:00; Sa 08:00", "name": "USPS COLLECTION BOX - BLUE BOX", "note": "ON 12/24 AND 12/31, THIS BOX MAY BE COLLECTED AS EARLY AS 12 NOON.", "nsi_id": "unitedstatespostalservice-a77078", "operator": "United States Postal Service", "operator:short": "USPS", "operator:type": "public", "operator:wikidata": "Q668687", "ref": "1110100022"}, "type": "Feature"}
{"geometry": {"coordinates": [-73.9348564, 40.735504], "type": "Point"}, "id": "jWGjNkgweNykCopDyRAUdLAJ0Yc=", "properties": {"@spider": "usps_collection_boxes", "addr:city": "LONG IS CITY", "addr:country": "US", "addr:full": "3236 GREENPOINT AVE", "addr:postcode": "11101", "addr:state": "NY", "amenity": "post_box", "brand": "United States Postal Service", "brand:wikidata": "Q668687", "collection_times": "Mo-Fr 14:00; Sa 08:00", "name": "USPS COLLECTION BOX - BLUE BOX", "note": "ON 12/24 AND 12/31, THIS BOX MAY BE COLLECTED AS EARLY AS 12 NOON.", "nsi_id": "unitedstatespostalservice-a77078", "operator": "United States Postal Service", "operator:short": "USPS", "operator:type": "public", "operator:wikidata": "Q668687", "ref": "1110100026"}, "type": "Feature"}
{"geometry": {"coordinates": [-73.9299495, 40.73763], "type": "Point"}, "id": "dprwtXRzyU0WihilnstMoR4oqMA=", "properties": {"@spider": "usps_collection_boxes", "addr:city": "LONG IS CITY", "addr:country": "US", "addr:full": "3603 GREENPOINT AVE", "addr:postcode": "11101", "addr:state": "NY", "amenity": "post_box", "brand": "United States Postal Service", "brand:wikidata": "Q668687", "collection_times": "Mo-Fr 09:00; Sa 08:00", "name": "USPS COLLECTION BOX - BLUE BOX", "nsi_id": "unitedstatespostalservice-a77078", "operator": "United States Postal Service", "operator:short": "USPS", "operator:type": "public", "operator:wikidata": "Q668687", "ref": "1110100028"}, "type": "Feature"}
{"geometry": {"coordinates": [-73.9377847, 40.734273], "type": "Point"}, "id": "eqgJ1TVtAkAqBxt3eDDdCTFIUrw=", "properties": {"@spider": "usps_collection_boxes", "addr:city": "LONG IS CITY", "addr:country": "US", "addr:full": "3120 GREENPOINT AVE", "addr:postcode": "11101", "addr:state": "NY", "amenity": "post_box", "brand": "United States Postal Service", "brand:wikidata": "Q668687", "collection_times": "Mo-Fr 14:00; Sa 08:00", "name": "USPS COLLECTION BOX - BLUE BOX", "note": "ON 12/24 AND 12/31, THIS BOX MAY BE COLLECTED AS EARLY AS 12 NOON.", "nsi_id": "unitedstatespostalservice-a77078", "operator": "United States Postal Service", "operator:short": "USPS", "operator:type": "public", "operator:wikidata": "Q668687", "ref": "1110100029"}, "type": "Feature"}
{"geometry": {"coordinates": [-73.9442043, 40.746446], "type": "Point"}, "id": "GWWictdsZGj4LV6EMW0HN8Od3Bo=", "properties": {"@spider": "usps_collection_boxes", "addr:city": "LONG IS CITY", "addr:country": "US", "addr:full": "2424 JACKSON AVE", "addr:postcode": "11101", "addr:state": "NY", "amenity": "post_box", "brand": "United States Postal Service", "brand:wikidata": "Q668687", "collection_times": "Mo-Fr 15:00; Sa 08:00", "name": "USPS COLLECTION BOX - BLUE BOX", "note": "ON 12/24 AND 12/31, THIS BOX MAY BE COLLECTED AS EARLY AS 12 NOON.", "nsi_id": "unitedstatespostalservice-a77078", "operator": "United States Postal Service", "operator:short": "USPS", "operator:type": "public", "operator:wikidata": "Q668687", "ref": "1110100031"}, "type": "Feature"}
{"geometry": {"coordinates": [-73.9352455, 40.750492], "type": "Point"}, "id": "wbYixfh8lIu9sawWRbn4IF707UQ=", "properties": {"@spider": "usps_collection_boxes", "addr:city": "LONG IS CITY", "addr:country": "US", "addr:full": "2976 NORTHERN BLVD", "addr:postcode": "11101", "addr:state": "NY", "amenity": "post_box", "brand": "United States Postal Service", "brand:wikidata": "Q668687", "collection_times": "Mo-Fr 16:00; Sa 08:00", "name": "USPS COLLECTION BOX - BLUE BOX", "note": "ON 12/24 AND 12/31, THIS BOX MAY BE COLLECTED AS EARLY AS 12 NOON.", "nsi_id": "unitedstatespostalservice-a77078", "operator": "United States Postal Service", "operator:short": "USPS", "operator:type": "public", "operator:wikidata": "Q668687", "ref": "1110100034"}, "type": "Feature"}
{"geometry": {"coordinates": [-73.9341081, 40.751321], "type": "Point"}, "id": "tGIchMTyXYWe3DxR_AL-k12u1Eg=", "properties": {"@spider": "usps_collection_boxes", "addr:city": "LONG IS CITY", "addr:country": "US", "addr:full": "3030 NORTHERN BLVD", "addr:postcode": "11101", "addr:state": "NY", "amenity": "post_box", "brand": "United States Postal Service", "brand:wikidata": "Q668687", "collection_times": "Mo-Fr 16:00; Sa 08:00", "name": "USPS COLLECTION BOX - BLUE BOX", "note": "ON 12/24 AND 12/31, THIS BOX MAY BE COLLECTED AS EARLY AS 12 NOON.", "nsi_id": "unitedstatespostalservice-a77078", "operator": "United States Postal Service", "operator:short": "USPS", "operator:type": "public", "operator:wikidata": "Q668687", "ref": "1110100035"}, "type": "Feature"}
{"geometry": {"coordinates": [-73.93003, 40.751989], "type": "Point"}, "id": "B0JqOE8hLVb657-k327fjyIta0I=", "properties": {"@spider": "usps_collection_boxes", "addr:city": "LONG IS CITY", "addr:country": "US", "addr:full": "3328 NORTHERN BLVD", "addr:postcode": "11101", "addr:state": "NY", "amenity": "post_box", "brand": "United States Postal Service", "brand:wikidata": "Q668687", "collection_times": "Mo-Fr 14:00; Sa 08:00", "name": "USPS COLLECTION BOX - BLUE BOX", "note": "ON 12/24 AND 12/31, THIS BOX MAY BE COLLECTED AS EARLY AS 12 NOON.", "nsi_id": "unitedstatespostalservice-a77078", "operator": "United States Postal Service", "operator:short": "USPS", "operator:type": "public", "operator:wikidata": "Q668687", "ref": "1110100041"}, "type": "Feature"}
{"geometry": {"coordinates": [-73.93003, 40.751989], "type": "Point"}, "id": "XaUpHB-63T2bxpz6WDfrBmX2-kI=", "properties": {"@spider": "usps_collection_boxes", "addr:city": "LONG IS CITY", "addr:country": "US", "addr:full": "3328 NORTHERN BLVD", "addr:postcode": "11101", "addr:state": "NY", "amenity": "post_box", "brand": "United States Postal Service", "brand:wikidata": "Q668687", "collection_times": "Mo-Fr 14:00; Sa 08:00", "name": "USPS COLLECTION BOX - BLUE BOX", "note": "ON 12/24 AND 12/31, THIS BOX MAY BE COLLECTED AS EARLY AS 12 NOON.", "nsi_id": "unitedstatespostalservice-a77078", "operator": "United States Postal Service", "operator:short": "USPS", "operator:type": "public", "operator:wikidata": "Q668687", "ref": "1110100042"}, "type": "Feature"}
{"geometry": {"coordinates": [-73.9255667, 40.752245], "type": "Point"}, "id": "UUrxvFfAs1CCA6IlZ4Egxl6Lkfo=", "properties": {"@spider": "usps_collection_boxes", "addr:city": "LONG IS CITY", "addr:country": "US", "addr:full": "3718 NORTHERN BLVD", "addr:postcode": "11101", "addr:state": "NY", "amenity": "post_box", "brand": "United States Postal Service", "brand:wikidata": "Q668687", "collection_times": "Mo-Fr 14:00; Sa 08:00", "name": "USPS COLLECTION BOX - BLUE BOX", "note": "ON 12/24 AND 12/31, THIS BOX MAY BE COLLECTED AS EARLY AS 12 NOON.", "nsi_id": "unitedstatespostalservice-a77078", "operator": "United States Postal Service", "operator:short": "USPS", "operator:type": "public", "operator:wikidata": "Q668687", "ref": "1110100044"}, "type": "Feature"}
{"geometry": {"coordinates": [-73.9204466, 40.753412], "type": "Point"}, "id": "7lJJt76TMmrYV_wP7fTuwGfNeJc=", "properties": {"@spider": "usps_collection_boxes", "addr:city": "LONG IS CITY", "addr:country": "US", "addr:full": "4211 NORTHERN BLVD", "addr:postcode": "11101", "addr:state": "NY", "amenity": "post_box", "brand": "United States Postal Service", "brand:wikidata": "Q668687", "collection_times": "Mo-Fr 15:00; Sa 08:00", "name": "USPS COLLECTION BOX - BLUE BOX", "note": "ON 12/24 AND 12/31, THIS BOX MAY BE COLLECTED AS EARLY AS 12 NOON.", "nsi_id": "unitedstatespostalservice-a77078", "operator": "United States Postal Service", "operator:short": "USPS", "operator:type": "public", "operator:wikidata": "Q668687", "ref": "1110100047"}, "type": "Feature"}
{"geometry": {"coordinates": [-73.9174742, 40.753763], "type": "Point"}, "id": "ojSwuyt2gMysC6o0s8E2aNQZfMI=", "properties": {"@spider": "usps_collection_boxes", "addr:city": "LONG IS CITY", "addr:country": "US", "addr:full": "4502 NORTHERN BLVD", "addr:postcode": "11101", "addr:state": "NY", "amenity": "post_box", "brand": "United States Postal Service", "brand:wikidata": "Q668687", "collection_times": "Mo-Fr 14:00; Sa 08:00", "name": "USPS COLLECTION BOX - BLUE BOX", "note": "ON 12/24 AND 12/31, THIS BOX MAY BE COLLECTED AS EARLY AS 12 NOON.", "nsi_id": "unitedstatespostalservice-a77078", "operator": "United States Postal Service", "operator:short": "USPS", "operator:type": "public", "operator:wikidata": "Q668687", "ref": "1110100048"}, "type": "Feature"}
{"geometry": {"coordinates": [-73.9145295, 40.753556], "type": "Point"}, "id": "By3m2LfKcyXSmTK8RorpdBgrYuw=", "properties": {"@spider": "usps_collection_boxes", "addr:city": "LONG IS CITY", "addr:country": "US", "addr:full": "4818 NORTHERN BLVD", "addr:postcode": "11101", "addr:state": "NY", "amenity": "post_box", "brand": "United States Postal Service", "brand:wikidata": "Q668687", "collection_times": "Mo-Fr 15:00; Sa 08:00", "name": "USPS COLLECTION BOX - BLUE BOX", "note": "ON 12/24 AND 12/31, THIS BOX MAY BE COLLECTED AS EARLY AS 12 NOON.", "nsi_id": "unitedstatespostalservice-a77078", "operator": "United States Postal Service", "operator:short": "USPS", "operator:type": "public", "operator:wikidata": "Q668687", "ref": "1110100050"}, "type": "Feature"}
{"geometry": {"coordinates": [-73.9138706, 40.753646], "type": "Point"}, "id": "pCirwVcjTsvFSLvwVzhHCDYrZuQ=", "properties": {"@spider": "usps_collection_boxes", "addr:city": "LONG IS CITY", "addr:country": "US", "addr:full": "4815 NORTHERN BLVD", "addr:postcode": "11101", "addr:state": "NY", "amenity": "post_box", "brand": "United States Postal Service", "brand:wikidata": "Q668687", "collection_times": "Mo-Fr 15:00; Sa 08:00", "name": "USPS COLLECTION BOX - BLUE BOX", "note": "ON 12/24 AND 12/31, THIS BOX MAY BE COLLECTED AS EARLY AS 12 NOON.", "nsi_id": "unitedstatespostalservice-a77078", "operator": "United States Postal Service", "operator:short": "USPS", "operator:type": "public", "operator:wikidata": "Q668687", "ref": "1110100051"}, "type": "Feature"}
{"geometry": {"coordinates": [-73.9428219, 40.743049], "type": "Point"}, "id": "1Wlkp38Jvo7neW2o8UQ9Q6X7KyM=", "properties": {"@spider": "usps_collection_boxes", "addr:city": "LONG IS CITY", "addr:country": "US", "addr:full": "4707 PEARSON PL", "addr:postcode": "11101", "addr:state": "NY", "amenity": "post_box", "brand": "United States Postal Service", "brand:wikidata": "Q668687", "collection_times": "Mo-Fr 14:00; Sa 08:00", "name": "USPS COLLECTION BOX - BLUE BOX", "note": "ON 12/24 AND 12/31, THIS BOX MAY BE COLLECTED AS EARLY AS 12 NOON.", "nsi_id": "unitedstatespostalservice-a77078", "operator": "United States Postal Service", "operator:short": "USPS", "operator:type": "public", "operator:wikidata": "Q668687", "ref": "1110100053"}, "type": "Feature"}
{"geometry": {"coordinates": [-73.9280077, 40.744471], "type": "Point"}, "id": "r3iZUHCgkBBJkw07pmlawfX7c6s=", "properties": {"@spider": "usps_collection_boxes", "addr:city": "LONG IS CITY", "addr:country": "US", "addr:full": "3615 QUEENS BLVD", "addr:postcode": "11101", "addr:state": "NY", "amenity": "post_box", "brand": "United States Postal Service", "brand:wikidata": "Q668687", "collection_times": "Mo-Fr 09:00; Sa 08:00", "name": "USPS COLLECTION BOX - BLUE BOX", "nsi_id": "unitedstatespostalservice-a77078", "operator": "United States Postal Service", "operator:short": "USPS", "operator:type": "public", "operator:wikidata": "Q668687", "ref": "1110100054"}, "type": "Feature"}
{"geometry": {"coordinates": [-73.9308569, 40.744257], "type": "Point"}, "id": "ATUd_j4b7SmSxp6ryUe8lsaNWbs=", "properties": {"@spider": "usps_collection_boxes", "addr:city": "LONG IS CITY", "addr:country": "US", "addr:full": "4508 34TH ST", "addr:postcode": "11101", "addr:state": "NY", "amenity": "post_box", "brand": "United States Postal Service", "brand:wikidata": "Q668687", "collection_times": "Mo-Fr 14:00; Sa 08:00", "name": "USPS COLLECTION BOX - BLUE BOX", "note": "ON 12/24 AND 12/31, THIS BOX MAY BE COLLECTED AS EARLY AS 12 NOON.", "nsi_id": "unitedstatespostalservice-a77078", "operator": "United States Postal Service", "operator:short": "USPS", "operator:type": "public", "operator:wikidata": "Q668687", "ref": "1110100058"}, "type": "Feature"}
{"geometry": {"coordinates": [-73.9307766, 40.744807], "type": "Point"}, "id": "w4gMc_c-uDEKF3bpvGhp8S28yI0=", "properties": {"@spider": "usps_collection_boxes", "addr:city": "LONG IS CITY", "addr:country": "US", "addr:full": "3401 QUEENS BLVD", "addr:postcode": "11101", "addr:state": "NY", "amenity": "post_box", "brand": "United States Postal Service", "brand:wikidata": "Q668687", "collection_times": "Mo-Fr 09:00; Sa 08:00", "name": "USPS COLLECTION BOX - BLUE BOX", "nsi_id": "unitedstatespostalservice-a77078", "operator": "United States Postal Service", "operator:short": "USPS", "operator:type": "public", "operator:wikidata": "Q668687", "ref": "1110100059"}, "type": "Feature"}
{"geometry": {"coordinates": [-73.9298991, 40.744652], "type": "Point"}, "id": "G4erZtLB_C44m15BYU38jK68ZWI=", "properties": {"@spider": "usps_collection_boxes", "addr:city": "LONG IS CITY", "addr:country": "US", "addr:full": "3409 QUEENS BLVD", "addr:postcode": "11101", "addr:state": "NY", "amenity": "post_box", "brand": "United States Postal Service", "brand:wikidata": "Q668687", "collection_times": "Mo-Fr 14:00; Sa 08:00", "name": "USPS COLLECTION BOX - BLUE BOX", "note": "ON 12/24 AND 12/31, THIS BOX MAY BE COLLECTED AS EARLY AS 12 NOON.", "nsi_id": "unitedstatespostalservice-a77078", "operator": "United States Postal Service", "operator:short": "USPS", "operator:type": "public", "operator:wikidata": "Q668687", "ref": "1110100060"}, "type": "Feature"}
{"geometry": {"coordinates": [-73.9321333, 40.746442], "type": "Point"}, "id": "63vMDp-x4ELcn9PdOL1rfa2DWlg=", "properties": {"@spider": "usps_collection_boxes", "addr:city": "LONG IS CITY", "addr:country": "US", "addr:full": "3230 SKILLMAN AVE", "addr:postcode": "11101", "addr:state": "NY", "amenity": "post_box", "brand": "United States Postal Service", "brand:wikidata": "Q668687", "collection_times": "Mo-Fr 09:00; Sa 08:00", "name": "USPS COLLECTION BOX - BLUE BOX", "nsi_id": "unitedstatespostalservice-a77078", "operator": "United States Postal Service", "operator:short": "USPS", "operator:type": "public", "operator:wikidata": "Q668687", "ref": "1110100061"}, "type": "Feature"}
{"geometry": {"coordinates": [-73.9372053, 40.745195], "type": "Point"}, "id": "Br-LTrGekq_YIYnIymOdvHRjnAE=", "properties": {"@spider": "usps_collection_boxes", "addr:city": "LONG IS CITY", "addr:country": "US", "addr:full": "2910 THOMSON AVE", "addr:postcode": "11101", "addr:state": "NY", "amenity": "post_box", "brand": "United States Postal Service", "brand:wikidata": "Q668687", "collection_times": "Mo-Fr 14:00; Sa 08:00", "name": "USPS COLLECTION BOX - BLUE BOX", "note": "ON 12/24 AND 12/31, THIS BOX MAY BE COLLECTED AS EARLY AS 12 NOON.", "nsi_id": "unitedstatespostalservice-a77078", "operator": "United States Postal Service", "operator:short": "USPS", "operator:type": "public", "operator:wikidata": "Q668687", "ref": "1110100066"}, "type": "Feature"}
{"geometry": {"coordinates": [-73.9481999, 40.745618], "type": "Point"}, "id": "K9yOH5g_GYpDTJmtX1pka2wT7Jw=", "properties": {"@spider": "usps_collection_boxes", "addr:city": "LONG IS CITY", "addr:country": "US", "addr:full": "4602 21ST ST", "addr:postcode": "11101", "addr:state": "NY", "amenity": "post_box", "brand": "United States Postal Service", "brand:wikidata": "Q668687", "collection_times": "Mo-Fr 17:00; Sa 13:00", "name": "USPS COLLECTION BOX - EXPRESS", "note": "ON 12/24 AND 12/31, THIS BOX MAY BE COLLECTED AS EARLY AS 12 NOON.", "nsi_id": "unitedstatespostalservice-a77078", "operator": "United States Postal Service", "operator:short": "USPS", "operator:type": "public", "operator:wikidata": "Q668687", "ref": "1110100072"}, "type": "Feature"}
{"geometry": {"coordinates": [-73.9353399, 40.744925], "type": "Point"}, "id": "WP-oYpLCfCj89MgMEOsl9BaxSec=", "properties": {"@spider": "usps_collection_boxes", "addr:city": "LONG IS CITY", "addr:country": "US", "addr:full": "3110 THOMPSON AVE", "addr:postcode": "11101", "addr:state": "NY", "amenity": "post_box", "brand": "United States Postal Service", "brand:wikidata": "Q668687", "collection_times": "Mo-Fr 14:00; Sa 08:00", "name": "USPS COLLECTION BOX - BLUE BOX", "note": "ON 12/24 AND 12/31, THIS BOX MAY BE COLLECTED AS EARLY AS 12 NOON.", "nsi_id": "unitedstatespostalservice-a77078", "operator": "United States Postal Service", "operator:short": "USPS", "operator:type": "public", "operator:wikidata": "Q668687", "ref": "1110100073"}, "type": "Feature"}
{"geometry": {"coordinates": [-73.9481851, 40.745629], "type": "Point"}, "id": "FkgNdH-tctgAuNbvyHgnXK9mpzc=", "properties": {"@spider": "usps_collection_boxes", "addr:city": "LONG IS CITY", "addr:country": "US", "addr:full": "4602 21ST ST", "addr:postcode": "11101", "addr:state": "NY", "amenity": "post_box", "brand": "United States Postal Service", "brand:wikidata": "Q668687", "collection_times": "Mo-Fr 17:00; Sa 13:00", "name": "USPS COLLECTION BOX - BLUE BOX", "note": "ON 12/24 AND 12/31, THIS BOX MAY BE COLLECTED AS EARLY AS 12 NOON.", "nsi_id": "unitedstatespostalservice-a77078", "operator": "United States Postal Service", "operator:short": "USPS", "operator:type": "public", "operator:wikidata": "Q668687", "ref": "1110100077"}, "type": "Feature"}
{"geometry": {"coordinates": [-73.9488478, 40.743864], "type": "Point"}, "id": "s761RZC0ZMld4VAK_2zhYNPQNbw=", "properties": {"@spider": "usps_collection_boxes", "addr:city": "LONG IS CITY", "addr:country": "US", "addr:full": "4740 21ST ST", "addr:postcode": "11101", "addr:state": "NY", "amenity": "post_box", "brand": "United States Postal Service", "brand:wikidata": "Q668687", "collection_times": "Mo-Fr 15:00; Sa 08:00", "name": "USPS COLLECTION BOX - BLUE BOX", "note": "ON 12/24 AND 12/31, THIS BOX MAY BE COLLECTED AS EARLY AS 12 NOON.", "nsi_id": "unitedstatespostalservice-a77078", "operator": "United States Postal Service", "operator:short": "USPS", "operator:type": "public", "operator:wikidata": "Q668687", "ref": "1110100080"}, "type": "Feature"}
{"geometry": {"coordinates": [-73.9208983, 40.756598], "type": "Point"}, "id": "N1FlkgzYP4ua-hnma1pPfJhCpWw=", "properties": {"@spider": "usps_collection_boxes", "addr:city": "LONG IS CITY", "addr:country": "US", "addr:full": "3401 STEINWAY ST", "addr:postcode": "11101", "addr:state": "NY", "amenity": "post_box", "brand": "United States Postal Service", "brand:wikidata": "Q668687", "collection_times": "Mo-Fr 11:00; Sa 08:00", "name": "USPS COLLECTION BOX - BLUE BOX", "nsi_id": "unitedstatespostalservice-a77078", "operator": "United States Postal Service", "operator:short": "USPS", "operator:type": "public", "operator:wikidata": "Q668687", "ref": "1110100081"}, "type": "Feature"}
{"geometry": {"coordinates": [-73.9237961, 40.755873], "type": "Point"}, "id": "zkgY6tAydvQbifhrKgKkNHhhvz4=", "properties": {"@spider": "usps_collection_boxes", "addr:city": "LONG IS CITY", "addr:country": "US", "addr:full": "3604 35 AVE", "addr:postcode": "11101", "addr:state": "NY", "amenity": "post_box", "brand": "United States Postal Service", "brand:wikidata": "Q668687", "collection_times": "Mo-Fr 11:00; Sa 08:00", "name": "USPS COLLECTION BOX - BLUE BOX", "nsi_id": "unitedstatespostalservice-a77078", "operator": "United States Postal Service", "operator:short": "USPS", "operator:type": "public", "operator:wikidata": "Q668687", "ref": "1110100084"}, "type": "Feature"}
{"geometry": {"coordinates": [-73.9432843, 40.760556], "type": "Point"}, "id": "kjJrQoM_10mvstXqZq4ZI8BENd4=", "properties": {"@spider": "usps_collection_boxes", "addr:city": "LONG IS CITY", "addr:country": "US", "addr:full": "3701 VERNON BLVD", "addr:postcode": "11101", "addr:state": "NY", "amenity": "post_box", "brand": "United States Postal Service", "brand:wikidata": "Q668687", "collection_times": "Mo-Fr 15:00; Sa 08:00", "name": "USPS COLLECTION BOX - BLUE BOX", "note": "ON 12/24 AND 12/31, THIS BOX MAY BE COLLECTED AS EARLY AS 12 NOON.", "nsi_id": "unitedstatespostalservice-a77078", "operator": "United States Postal Service", "operator:short": "USPS", "operator:type": "public", "operator:wikidata": "Q668687", "ref": "1110100087"}, "type": "Feature"}
{"geometry": {"coordinates": [-73.941452391, 40.7599116784], "type": "Point"}, "id": "6TGjAWI3GKHsewMqA8C0-1hyb08=", "properties": {"@spider": "usps_collection_boxes", "addr:city": "LONG IS CITY", "addr:country": "US", "addr:full": "1020 37TH AVE", "addr:postcode": "11101", "addr:state": "NY", "amenity": "post_box", "brand": "United States Postal Service", "brand:wikidata": "Q668687", "collection_times": "Mo-Fr 14:00; Sa 08:00", "name": "USPS COLLECTION BOX - BLUE BOX", "note": "ON 12/24 AND 12/31, THIS BOX MAY BE COLLECTED AS EARLY AS 12 NOON.", "nsi_id": "unitedstatespostalservice-a77078", "operator": "United States Postal Service", "operator:short": "USPS", "operator:type": "public", "operator:wikidata": "Q668687", "ref": "1110100088"}, "type": "Feature"}
{"geometry": {"coordinates": [-73.9390654, 40.759126], "type": "Point"}, "id": "1bb8VUj4nvi_7tpUwncK_B8FbPQ=", "properties": {"@spider": "usps_collection_boxes", "addr:city": "LONG IS CITY", "addr:country": "US", "addr:full": "1301 37TH AVE", "addr:postcode": "11101", "addr:state": "NY", "amenity": "post_box", "brand": "United States Postal Service", "brand:wikidata": "Q668687", "collection_times": "Mo-Fr 14:00; Sa 08:00", "name": "USPS COLLECTION BOX - BLUE BOX", "note": "ON 12/24 AND 12/31, THIS BOX MAY BE COLLECTED AS EARLY AS 12 NOON.", "nsi_id": "unitedstatespostalservice-a77078", "operator": "United States Postal Service", "operator:short": "USPS", "operator:type": "public", "operator:wikidata": "Q668687", "ref": "1110100089"}, "type": "Feature"}
{"geometry": {"coordinates": [-73.9380928, 40.75715], "type": "Point"}, "id": "id6paqBh9e5APm4Mw84HvM5Vmbw=", "properties": {"@spider": "usps_collection_boxes", "addr:city": "LONG IS CITY", "addr:country": "US", "addr:full": "2211 38TH AVE", "addr:postcode": "11101", "addr:state": "NY", "amenity": "post_box", "brand": "United States Postal Service", "brand:wikidata": "Q668687", "collection_times": "Mo-Fr 15:00; Sa 08:00", "name": "USPS COLLECTION BOX - BLUE BOX", "note": "ON 12/24 AND 12/31, THIS BOX MAY BE COLLECTED AS EARLY AS 12 NOON.", "nsi_id": "unitedstatespostalservice-a77078", "operator": "United States Postal Service", "operator:short": "USPS", "operator:type": "public", "operator:wikidata": "Q668687", "ref": "1110100091"}, "type": "Feature"}
{"geometry": {"coordinates": [-73.9357003, 40.755766], "type": "Point"}, "id": "zJg1UCHP5xTHBlDkP6I8YF89fKI=", "properties": {"@spider": "usps_collection_boxes", "addr:city": "LONG IS CITY", "addr:country": "US", "addr:full": "2509 38TH AVE", "addr:postcode": "11101", "addr:state": "NY", "amenity": "post_box", "brand": "United States Postal Service", "brand:wikidata": "Q668687", "collection_times": "Mo-Fr 15:00; Sa 08:00", "name": "USPS COLLECTION BOX - BLUE BOX", "note": "ON 12/24 AND 12/31, THIS BOX MAY BE COLLECTED AS EARLY AS 12 NOON.", "nsi_id": "unitedstatespostalservice-a77078", "operator": "United States Postal Service", "operator:short": "USPS", "operator:type": "public", "operator:wikidata": "Q668687", "ref": "1110100092"}, "type": "Feature"}
{"geometry": {"coordinates": [-73.9304107, 40.752969], "type": "Point"}, "id": "7iF8HP_BZ7F3-uApI5hcZ4yCKU4=", "properties": {"@spider": "usps_collection_boxes", "addr:city": "LONG IS CITY", "addr:country": "US", "addr:full": "3301 38TH AVE", "addr:postcode": "11101", "addr:state": "NY", "amenity": "post_box", "brand": "United States Postal Service", "brand:wikidata": "Q668687", "collection_times": "Mo-Fr 15:00; Sa 08:00", "name": "USPS COLLECTION BOX - BLUE BOX", "note": "ON 12/24 AND 12/31, THIS BOX MAY BE COLLECTED AS EARLY AS 12 NOON.", "nsi_id": "unitedstatespostalservice-a77078", "operator": "United States Postal Service", "operator:short": "USPS", "operator:type": "public", "operator:wikidata": "Q668687", "ref": "1110100095"}, "type": "Feature"}
{"geometry": {"coordinates": [-73.9375313, 40.755115], "type": "Point"}, "id": "9PwC5l2ienu601wXgdyqv-boKLA=", "properties": {"@spider": "usps_collection_boxes", "addr:city": "LONG IS CITY", "addr:country": "US", "addr:full": "2402 39TH AVE", "addr:postcode": "11101", "addr:state": "NY", "amenity": "post_box", "brand": "United States Postal Service", "brand:wikidata": "Q668687", "collection_times": "Mo-Fr 14:00; Sa 08:00", "name": "USPS COLLECTION BOX - BLUE BOX", "note": "ON 12/24 AND 12/31, THIS BOX MAY BE COLLECTED AS EARLY AS 12 NOON.", "nsi_id": "unitedstatespostalservice-a77078", "operator": "United States Postal Service", "operator:short": "USPS", "operator:type": "public", "operator:wikidata": "Q668687", "ref": "1110100096"}, "type": "Feature"}
{"geometry": {"coordinates": [-73.9359396, 40.754341], "type": "Point"}, "id": "OLdfhyMf_LM5cGw75-1McYCo7EU=", "properties": {"@spider": "usps_collection_boxes", "addr:city": "LONG IS CITY", "addr:country": "US", "addr:full": "2701 39TH AVE", "addr:postcode": "11101", "addr:state": "NY", "amenity": "post_box", "brand": "United States Postal Service", "brand:wikidata": "Q668687", "collection_times": "Mo-Fr 16:00; Sa 08:00", "name": "USPS COLLECTION BOX - BLUE BOX", "note": "ON 12/24 AND 12/31, THIS BOX MAY BE COLLECTED AS EARLY AS 12 NOON.", "nsi_id": "unitedstatespostalservice-a77078", "operator": "United States Postal Service", "operator:short": "USPS", "operator:type": "public", "operator:wikidata": "Q668687", "ref": "1110100097"}, "type": "Feature"}
{"geometry": {"coordinates": [-73.9337396, 40.753216], "type": "Point"}, "id": "FuOgyUV0nAEQtr2qiPAAC1rWSAQ=", "properties": {"@spider": "usps_collection_boxes", "addr:city": "LONG IS CITY", "addr:country": "US", "addr:full": "2919 39TH AVE", "addr:postcode": "11101", "addr:state": "NY", "amenity": "post_box", "brand": "United States Postal Service", "brand:wikidata": "Q668687", "collection_times": "Mo-Fr 16:00; Sa 08:00", "name": "USPS COLLECTION BOX - BLUE BOX", "note": "ON 12/24 AND 12/31, THIS BOX MAY BE COLLECTED AS EARLY AS 12 NOON.", "nsi_id": "unitedstatespostalservice-a77078", "operator": "United States Postal Service", "operator:short": "USPS", "operator:type": "public", "operator:wikidata": "Q668687", "ref": "1110100098"}, "type": "Feature"}
{"geometry": {"coordinates": [-73.9457244, 40.757739], "type": "Point"}, "id": "cAhwPlSBfSdMHZIymbvEKjeP2Jo=", "properties": {"@spider": "usps_collection_boxes", "addr:city": "LONG IS CITY", "addr:country": "US", "addr:full": "4001 VERNON BLVD", "addr:postcode": "11101", "addr:state": "NY", "amenity": "post_box", "brand": "United States Postal Service", "brand:wikidata": "Q668687", "collection_times": "Mo-Fr 14:00; Sa 08:00", "name": "USPS COLLECTION BOX - BLUE BOX", "note": "ON 12/24 AND 12/31, THIS BOX MAY BE COLLECTED AS EARLY AS 12 NOON.", "nsi_id": "unitedstatespostalservice-a77078", "operator": "United States Postal Service", "operator:short": "USPS", "operator:type": "public", "operator:wikidata": "Q668687", "ref": "1110100099"}, "type": "Feature"}
{"geometry": {"coordinates": [-73.9429976, 40.756029], "type": "Point"}, "id": "xctDlqLfbNsVfQx-GR8v05ugr74=", "properties": {"@spider": "usps_collection_boxes", "addr:city": "LONG IS CITY", "addr:country": "US", "addr:full": "4001 12TH ST", "addr:postcode": "11101", "addr:state": "NY", "amenity": "post_box", "brand": "United States Postal Service", "brand:wikidata": "Q668687", "collection_times": "Mo-Fr 14:00; Sa 08:00", "name": "USPS COLLECTION BOX - BLUE BOX", "note": "ON 12/24 AND 12/31, THIS BOX MAY BE COLLECTED AS EARLY AS 12 NOON.", "nsi_id": "unitedstatespostalservice-a77078", "operator": "United States Postal Service", "operator:short": "USPS", "operator:type": "public", "operator:wikidata": "Q668687", "ref": "1110100100"}, "type": "Feature"}
{"geometry": {"coordinates": [-73.9402233, 40.754859], "type": "Point"}, "id": "mF7dhuJM9ZFjFH8GlVLo5yH0APk=", "properties": {"@spider": "usps_collection_boxes", "addr:city": "LONG IS CITY", "addr:country": "US", "addr:full": "4001 22ND ST", "addr:postcode": "11101", "addr:state": "NY", "amenity": "post_box", "brand": "United States Postal Service", "brand:wikidata": "Q668687", "collection_times": "Mo-Fr 14:00; Sa 08:00", "name": "USPS COLLECTION BOX - BLUE BOX", "note": "ON 12/24 AND 12/31, THIS BOX MAY BE COLLECTED AS EARLY AS 12 NOON.", "nsi_id": "unitedstatespostalservice-a77078", "operator": "United States Postal Service", "operator:short": "USPS", "operator:type": "public", "operator:wikidata": "Q668687", "ref": "1110100101"}, "type": "Feature"}
{"geometry": {"coordinates": [-73.9380404, 40.753576], "type": "Point"}, "id": "pFJ031hrF8YeTNiWAB9yZALCSMQ=", "properties": {"@spider": "usps_collection_boxes", "addr:city": "LONG IS CITY", "addr:country": "US", "addr:full": "3950 CRESCENT ST", "addr:postcode": "11101", "addr:state": "NY", "amenity": "post_box", "brand": "United States Postal Service", "brand:wikidata": "Q668687", "collection_times": "Mo-Fr 16:00; Sa 08:00", "name": "USPS COLLECTION BOX - BLUE BOX", "note": "ON 12/24 AND 12/31, THIS BOX MAY BE COLLECTED AS EARLY AS 12 NOON.", "nsi_id": "unitedstatespostalservice-a77078", "operator": "United States Postal Service", "operator:short": "USPS", "operator:type": "public", "operator:wikidata": "Q668687", "ref": "1110100103"}, "type": "Feature"}
{"geometry": {"coordinates": [-73.9424135, 40.753966], "type": "Point"}, "id": "cUjyTc0OG50ZW2yAxJ0hukt0lOw=", "properties": {"@spider": "usps_collection_boxes", "addr:city": "LONG IS CITY", "addr:country": "US", "addr:full": "4035 21ST ST", "addr:postcode": "11101", "addr:state": "NY", "amenity": "post_box", "brand": "United States Postal Service", "brand:wikidata": "Q668687", "collection_times": "Mo-Fr 15:00; Sa 08:00", "name": "USPS COLLECTION BOX - BLUE BOX", "note": "ON 12/24 AND 12/31, THIS BOX MAY BE COLLECTED AS EARLY AS 12 NOON.", "nsi_id": "unitedstatespostalservice-a77078", "operator": "United States Postal Service", "operator:short": "USPS", "operator:type": "public", "operator:wikidata": "Q668687", "ref": "1110100106"}, "type": "Feature"}
{"geometry": {"coordinates": [-73.9392254, 40.75222], "type": "Point"}, "id": "e0uiQ0c5Ha9vWznA_g9vZqgMFXI=", "properties": {"@spider": "usps_collection_boxes", "addr:city": "LONG IS CITY", "addr:country": "US", "addr:full": "4114 CRESCENT ST", "addr:postcode": "11101", "addr:state": "NY", "amenity": "post_box", "brand": "United States Postal Service", "brand:wikidata": "Q668687", "collection_times": "Mo-Fr 15:00; Sa 08:00", "name": "USPS COLLECTION BOX - BLUE BOX", "note": "ON 12/24 AND 12/31, THIS BOX MAY BE COLLECTED AS EARLY AS 12 NOON.", "nsi_id": "unitedstatespostalservice-a77078", "operator": "United States Postal Service", "operator:short": "USPS", "operator:type": "public", "operator:wikidata": "Q668687", "ref": "1110100108"}, "type": "Feature"}
{"geometry": {"coordinates": [-73.9362961, 40.749811], "type": "Point"}, "id": "gDOVk6KHS81nj3Krdn9fBUY3v88=", "properties": {"@spider": "usps_collection_boxes", "addr:city": "LONG IS CITY", "addr:country": "US", "addr:full": "2927 41ST AVE", "addr:postcode": "11101", "addr:state": "NY", "amenity": "post_box", "brand": "United States Postal Service", "brand:wikidata": "Q668687", "collection_times": "Mo-Fr 16:00; Sa 08:00", "name": "USPS COLLECTION BOX - BLUE BOX", "note": "ON 12/24 AND 12/31, THIS BOX MAY BE COLLECTED AS EARLY AS 12 NOON.", "nsi_id": "unitedstatespostalservice-a77078", "operator": "United States Postal Service", "operator:short": "USPS", "operator:type": "public", "operator:wikidata": "Q668687", "ref": "1110100110"}, "type": "Feature"}
{"geometry": {"coordinates": [-73.939247373, 40.749626948], "type": "Point"}, "id": "nfrUUSp941LB0aRF-S4Vq1aOcaI=", "properties": {"@spider": "usps_collection_boxes", "addr:city": "LONG IS CITY", "addr:country": "US", "addr:full": "4226 28TH ST", "addr:postcode": "11101", "addr:state": "NY", "amenity": "post_box", "brand": "United States Postal Service", "brand:wikidata": "Q668687", "collection_times": "Mo-Fr 15:00; Sa 08:00", "name": "USPS COLLECTION BOX - BLUE BOX", "note": "ON 12/24 AND 12/31, THIS BOX MAY BE COLLECTED AS EARLY AS 12 NOON.", "nsi_id": "unitedstatespostalservice-a77078", "operator": "United States Postal Service", "operator:short": "USPS", "operator:type": "public", "operator:wikidata": "Q668687", "ref": "1110100114"}, "type": "Feature"}
{"geometry": {"coordinates": [-73.9392607, 40.74859], "type": "Point"}, "id": "mN2EMK_bsVWbmHBhR4jSODcUxxQ=", "properties": {"@spider": "usps_collection_boxes", "addr:city": "LONG IS CITY", "addr:country": "US", "addr:full": "2755 JACKSON AVE", "addr:postcode": "11101", "addr:state": "NY", "amenity": "post_box", "brand": "United States Postal Service", "brand:wikidata": "Q668687", "collection_times": "Mo-Fr 14:00; Sa 08:00", "name": "USPS COLLECTION BOX - BLUE BOX", "note": "ON 12/24 AND 12/31, THIS BOX MAY BE COLLECTED AS EARLY AS 12 NOON.", "nsi_id": "unitedstatespostalservice-a77078", "operator": "United States Postal Service", "operator:short": "USPS", "operator:type": "public", "operator:wikidata": "Q668687", "ref": "1110100115"}, "type": "Feature"}
{"geometry": {"coordinates": [-73.9455811, 40.750547], "type": "Point"}, "id": "9qKCWWhSk0IUdlA4WeR7hYaWhfE=", "properties": {"@spider": "usps_collection_boxes", "addr:city": "LONG IS CITY", "addr:country": "US", "addr:full": "4301 21ST ST", "addr:postcode": "11101", "addr:state": "NY", "amenity": "post_box", "brand": "United States Postal Service", "brand:wikidata": "Q668687", "collection_times": "Mo-Fr 15:00; Sa 08:00", "name": "USPS COLLECTION BOX - BLUE BOX", "note": "ON 12/24 AND 12/31, THIS BOX MAY BE COLLECTED AS EARLY AS 12 NOON.", "nsi_id": "unitedstatespostalservice-a77078", "operator": "United States Postal Service", "operator:short": "USPS", "operator:type": "public", "operator:wikidata": "Q668687", "ref": "1110100116"}, "type": "Feature"}
{"geometry": {"coordinates": [-73.9453680492, 40.7493113534], "type": "Point"}, "id": "WVg6JalxPeOEs_ScxmwMV1sRFVY=", "properties": {"@spider": "usps_collection_boxes", "addr:city": "LONG IS CITY", "addr:country": "US", "addr:full": "2201 44TH RD", "addr:postcode": "11101", "addr:state": "NY", "amenity": "post_box", "brand": "United States Postal Service", "brand:wikidata": "Q668687", "collection_times": "Mo-Fr 15:00; Sa 08:00", "name": "USPS COLLECTION BOX - BLUE BOX", "note": "ON 12/24 AND 12/31, THIS BOX MAY BE COLLECTED AS EARLY AS 12 NOON.", "nsi_id": "unitedstatespostalservice-a77078", "operator": "United States Postal Service", "operator:short": "USPS", "operator:type": "public", "operator:wikidata": "Q668687", "ref": "1110100118"}, "type": "Feature"}
{"geometry": {"coordinates": [-73.9494827, 40.748603], "type": "Point"}, "id": "fmzCmvcFp1vsCsGv21G7SPF3eRU=", "properties": {"@spider": "usps_collection_boxes", "addr:city": "LONG IS CITY", "addr:country": "US", "addr:full": "1105 44TH DR", "addr:postcode": "11101", "addr:state": "NY", "amenity": "post_box", "brand": "United States Postal Service", "brand:wikidata": "Q668687", "collection_times": "Mo-Fr 15:00; Sa 08:00", "name": "USPS COLLECTION BOX - BLUE BOX", "note": "ON 12/24 AND 12/31, THIS BOX MAY BE COLLECTED AS EARLY AS 12 NOON.", "nsi_id": "unitedstatespostalservice-a77078", "operator": "United States Postal Service", "operator:short": "USPS", "operator:type": "public", "operator:wikidata": "Q668687", "ref": "1110100120"}, "type": "Feature"}
{"geometry": {"coordinates": [-73.9472946, 40.747981], "type": "Point"}, "id": "z3OIetOnZsyrg249eWXnOrfso5w=", "properties": {"@spider": "usps_collection_boxes", "addr:city": "LONG IS CITY", "addr:country": "US", "addr:full": "4461 21ST ST", "addr:postcode": "11101", "addr:state": "NY", "amenity": "post_box", "brand": "United States Postal Service", "brand:wikidata": "Q668687", "collection_times": "Mo-Fr 15:00; Sa 08:00", "name": "USPS COLLECTION BOX - BLUE BOX", "note": "ON 12/24 AND 12/31, THIS BOX MAY BE COLLECTED AS EARLY AS 12 NOON.", "nsi_id": "unitedstatespostalservice-a77078", "operator": "United States Postal Service", "operator:short": "USPS", "operator:type": "public", "operator:wikidata": "Q668687", "ref": "1110100121"}, "type": "Feature"}
{"geometry": {"coordinates": [-73.9520920412, 40.7499248352], "type": "Point"}, "id": "ECgMDQB4rg3YpdrShhWFmPb2HE0=", "properties": {"@spider": "usps_collection_boxes", "addr:city": "LONG IS CITY", "addr:country": "US", "addr:full": "4419 VERNON BLVD", "addr:postcode": "11101", "addr:state": "NY", "amenity": "post_box", "brand": "United States Postal Service", "brand:wikidata": "Q668687", "collection_times": "Mo-Fr 14:00; Sa 08:00", "name": "USPS COLLECTION BOX - BLUE BOX", "note": "ON 12/24 AND 12/31, THIS BOX MAY BE COLLECTED AS EARLY AS 12 NOON.", "nsi_id": "unitedstatespostalservice-a77078", "operator": "United States Postal Service", "operator:short": "USPS", "operator:type": "public", "operator:wikidata": "Q668687", "ref": "1110100124"}, "type": "Feature"}
{"geometry": {"coordinates": [-73.9456777, 40.746216], "type": "Point"}, "id": "1FoU2XyL8k5fZWa0XEyzPQmDrj8=", "properties": {"@spider": "usps_collection_boxes", "addr:city": "LONG IS CITY", "addr:country": "US", "addr:full": "4520 23RD ST", "addr:postcode": "11101", "addr:state": "NY", "amenity": "post_box", "brand": "United States Postal Service", "brand:wikidata": "Q668687", "collection_times": "Mo-Fr 15:00; Sa 08:00", "name": "USPS COLLECTION BOX - BLUE BOX", "note": "ON 12/24 AND 12/31, THIS BOX MAY BE COLLECTED AS EARLY AS 12 NOON.", "nsi_id": "unitedstatespostalservice-a77078", "operator": "United States Postal Service", "operator:short": "USPS", "operator:type": "public", "operator:wikidata": "Q668687", "ref": "1110100125"}, "type": "Feature"}
{"geometry": {"coordinates": [-73.9338715, 40.742805], "type": "Point"}, "id": "fzo4xFNXM0M30gB0YmuJOrDKHfs=", "properties": {"@spider": "usps_collection_boxes", "addr:city": "LONG IS CITY", "addr:country": "US", "addr:full": "4701 VAN DAM ST", "addr:postcode": "11101", "addr:state": "NY", "amenity": "post_box", "brand": "United States Postal Service", "brand:wikidata": "Q668687", "collection_times": "Mo-Fr 14:00; Sa 08:00", "name": "USPS COLLECTION BOX - BLUE BOX", "note": "ON 12/24 AND 12/31, THIS BOX MAY BE COLLECTED AS EARLY AS 12 NOON.", "nsi_id": "unitedstatespostalservice-a77078", "operator": "United States Postal Service", "operator:short": "USPS", "operator:type": "public", "operator:wikidata": "Q668687", "ref": "1110100126"}, "type": "Feature"}
{"geometry": {"coordinates": [-73.9531459, 40.745378], "type": "Point"}, "id": "nkPi4KKhngGcy9fQl6U-97Eaum0=", "properties": {"@spider": "usps_collection_boxes", "addr:city": "LONG IS CITY", "addr:country": "US", "addr:full": "4707 VERNON BLVD", "addr:postcode": "11101", "addr:state": "NY", "amenity": "post_box", "brand": "United States Postal Service", "brand:wikidata": "Q668687", "collection_times": "Mo-Fr 15:00; Sa 08:00", "name": "USPS COLLECTION BOX - BLUE BOX", "note": "ON 12/24 AND 12/31, THIS BOX MAY BE COLLECTED AS EARLY AS 12 NOON.", "nsi_id": "unitedstatespostalservice-a77078", "operator": "United States Postal Service", "operator:short": "USPS", "operator:type": "public", "operator:wikidata": "Q668687", "ref": "1110100129"}, "type": "Feature"}
{"geometry": {"coordinates": [-73.9374804, 40.743348], "type": "Point"}, "id": "XECxHKhxLkHRiMzzIB2OTJh3Hcs=", "properties": {"@spider": "usps_collection_boxes", "addr:city": "LONG IS CITY", "addr:country": "US", "addr:full": "4709 30TH ST", "addr:postcode": "11101", "addr:state": "NY", "amenity": "post_box", "brand": "United States Postal Service", "brand:wikidata": "Q668687", "collection_times": "Mo-Fr 14:00; Sa 08:00", "name": "USPS COLLECTION BOX - BLUE BOX", "note": "ON 12/24 AND 12/31, THIS BOX MAY BE COLLECTED AS EARLY AS 12 NOON.", "nsi_id": "unitedstatespostalservice-a77078", "operator": "United States Postal Service", "operator:short": "USPS", "operator:type": "public", "operator:wikidata": "Q668687", "ref": "1110100130"}, "type": "Feature"}
{"geometry": {"coordinates": [-73.9356739, 40.743032], "type": "Point"}, "id": "xeNFilmnAgpEwDUDEK3eq77rR0M=", "properties": {"@spider": "usps_collection_boxes", "addr:city": "LONG IS CITY", "addr:country": "US", "addr:full": "3100 47TH AVE", "addr:postcode": "11101", "addr:state": "NY", "amenity": "post_box", "brand": "United States Postal Service", "brand:wikidata": "Q668687", "collection_times": "Mo-Fr 14:00; Sa 08:00", "name": "USPS COLLECTION BOX - BLUE BOX", "note": "ON 12/24 AND 12/31, THIS BOX MAY BE COLLECTED AS EARLY AS 12 NOON.", "nsi_id": "unitedstatespostalservice-a77078", "operator": "United States Postal Service", "operator:short": "USPS", "operator:type": "public", "operator:wikidata": "Q668687", "ref": "1110100131"}, "type": "Feature"}
{"geometry": {"coordinates": [-73.9309275, 40.741335], "type": "Point"}, "id": "-GAv27C-BbZJdqrTJvV2iFUOjyA=", "properties": {"@spider": "usps_collection_boxes", "addr:city": "LONG IS CITY", "addr:country": "US", "addr:full": "4725 34TH ST", "addr:postcode": "11101", "addr:state": "NY", "amenity": "post_box", "brand": "United States Postal Service", "brand:wikidata": "Q668687", "collection_times": "Mo-Fr 14:00; Sa 08:00", "name": "USPS COLLECTION BOX - BLUE BOX", "note": "ON 12/24 AND 12/31, THIS BOX MAY BE COLLECTED AS EARLY AS 12 NOON.", "nsi_id": "unitedstatespostalservice-a77078", "operator": "United States Postal Service", "operator:short": "USPS", "operator:type": "public", "operator:wikidata": "Q668687", "ref": "1110100134"}, "type": "Feature"}
{"geometry": {"coordinates": [-73.9301472, 40.742364], "type": "Point"}, "id": "XeciTbi612TaAuadBVkL3vjeakI=", "properties": {"@spider": "usps_collection_boxes", "addr:city": "LONG IS CITY", "addr:country": "US", "addr:full": "3502 47TH AVE", "addr:postcode": "11101", "addr:state": "NY", "amenity": "post_box", "brand": "United States Postal Service", "brand:wikidata": "Q668687", "collection_times": "Mo-Fr 14:00; Sa 08:00", "name": "USPS COLLECTION BOX - BLUE BOX", "note": "ON 12/24 AND 12/31, THIS BOX MAY BE COLLECTED AS EARLY AS 12 NOON.", "nsi_id": "unitedstatespostalservice-a77078", "operator": "United States Postal Service", "operator:short": "USPS", "operator:type": "public", "operator:wikidata": "Q668687", "ref": "1110100135"}, "type": "Feature"}
{"geometry": {"coordinates": [-73.951167, 40.744335], "type": "Point"}, "id": "wh2L4y2AeNccUR3bmfSkfGVAVx8=", "properties": {"@spider": "usps_collection_boxes", "addr:city": "LONG IS CITY", "addr:country": "US", "addr:full": "4728 11TH ST", "addr:postcode": "11101", "addr:state": "NY", "amenity": "post_box", "brand": "United States Postal Service", "brand:wikidata": "Q668687", "collection_times": "Mo-Fr 15:00; Sa 08:00", "name": "USPS COLLECTION BOX - BLUE BOX", "note": "ON 12/24 AND 12/31, THIS BOX MAY BE COLLECTED AS EARLY AS 12 NOON.", "nsi_id": "unitedstatespostalservice-a77078", "operator": "United States Postal Service", "operator:short": "USPS", "operator:type": "public", "operator:wikidata": "Q668687", "ref": "1110100136"}, "type": "Feature"}
{"geometry": {"coordinates": [-73.9537177, 40.744187], "type": "Point"}, "id": "9lFRMeiEMjQAtFc9kxD4gF3nObo=", "properties": {"@spider": "usps_collection_boxes", "addr:city": "LONG IS CITY", "addr:country": "US", "addr:full": "4746 VERNON BLVD", "addr:postcode": "11101", "addr:state": "NY", "amenity": "post_box", "brand": "United States Postal Service", "brand:wikidata": "Q668687", "collection_times": "Mo-Fr 15:00; Sa 08:00", "name": "USPS COLLECTION BOX - BLUE BOX", "note": "ON 12/24 AND 12/31, THIS BOX MAY BE COLLECTED AS EARLY AS 12 NOON.", "nsi_id": "unitedstatespostalservice-a77078", "operator": "United States Postal Service", "operator:short": "USPS", "operator:type": "public", "operator:wikidata": "Q668687", "ref": "1110100138"}, "type": "Feature"}
{"geometry": {"coordinates": [-73.934054, 40.741059], "type": "Point"}, "id": "fhyKidQiYeSCSyhEnRrA2C9dP3o=", "properties": {"@spider": "usps_collection_boxes", "addr:city": "LONG IS CITY", "addr:country": "US", "addr:full": "4747 VAN DAM ST", "addr:postcode": "11101", "addr:state": "NY", "amenity": "post_box", "brand": "United States Postal Service", "brand:wikidata": "Q668687", "collection_times": "Mo-Fr 09:00; Sa 08:00", "name": "USPS COLLECTION BOX - BLUE BOX", "nsi_id": "unitedstatespostalservice-a77078", "operator": "United States Postal Service", "operator:short": "USPS", "operator:type": "public", "operator:wikidata": "Q668687", "ref": "1110100140"}, "type": "Feature"}
{"geometry": {"coordinates": [-73.9323715, 40.740759], "type": "Point"}, "id": "YTlm9TvuagIEyoOT06YgpedqtoQ=", "properties": {"@spider": "usps_collection_boxes", "addr:city": "LONG IS CITY", "addr:country": "US", "addr:full": "3302 48TH AVE", "addr:postcode": "11101", "addr:state": "NY", "amenity": "post_box", "brand": "United States Postal Service", "brand:wikidata": "Q668687", "collection_times": "Mo-Fr 14:00; Sa 08:00", "name": "USPS COLLECTION BOX - BLUE BOX", "note": "ON 12/24 AND 12/31, THIS BOX MAY BE COLLECTED AS EARLY AS 12 NOON.", "nsi_id": "unitedstatespostalservice-a77078", "operator": "United States Postal Service", "operator:short": "USPS", "operator:type": "public", "operator:wikidata": "Q668687", "ref": "1110100143"}, "type": "Feature"}
{"geometry": {"coordinates": [-73.9296064, 40.740576], "type": "Point"}, "id": "pmAB-w1PU6XfvlSnvZQtrv45kio=", "properties": {"@spider": "usps_collection_boxes", "addr:city": "LONG IS CITY", "addr:country": "US", "addr:full": "4747 36TH ST", "addr:postcode": "11101", "addr:state": "NY", "amenity": "post_box", "brand": "United States Postal Service", "brand:wikidata": "Q668687", "collection_times": "Mo-Fr 14:00; Sa 08:00", "name": "USPS COLLECTION BOX - BLUE BOX", "note": "ON 12/24 AND 12/31, THIS BOX MAY BE COLLECTED AS EARLY AS 12 NOON.", "nsi_id": "unitedstatespostalservice-a77078", "operator": "United States Postal Service", "operator:short": "USPS", "operator:type": "public", "operator:wikidata": "Q668687", "ref": "1110100144"}, "type": "Feature"}
{"geometry": {"coordinates": [-73.9517694, 40.743088], "type": "Point"}, "id": "0WWAzP-lZtOcoMmA0hcu1LWdpIs=", "properties": {"@spider": "usps_collection_boxes", "addr:city": "LONG IS CITY", "addr:country": "US", "addr:full": "1087 JACKSON AVE", "addr:postcode": "11101", "addr:state": "NY", "amenity": "post_box", "brand": "United States Postal Service", "brand:wikidata": "Q668687", "collection_times": "Mo-Fr 15:00; Sa 08:00", "name": "USPS COLLECTION BOX - BLUE BOX", "note": "ON 12/24 AND 12/31, THIS BOX MAY BE COLLECTED AS EARLY AS 12 NOON.", "nsi_id": "unitedstatespostalservice-a77078", "operator": "United States Postal Service", "operator:short": "USPS", "operator:type": "public", "operator:wikidata": "Q668687", "ref": "1110100145"}, "type": "Feature"}
{"geometry": {"coordinates": [-73.9491134, 40.7425], "type": "Point"}, "id": "VH_2IKCS3Uah4KaI5m_A3fOIrqI=", "properties": {"@spider": "usps_collection_boxes", "addr:city": "LONG IS CITY", "addr:country": "US", "addr:full": "2100 49TH AVE", "addr:postcode": "11101", "addr:state": "NY", "amenity": "post_box", "brand": "United States Postal Service", "brand:wikidata": "Q668687", "collection_times": "Mo-Fr 15:00; Sa 08:00", "name": "USPS COLLECTION BOX - BLUE BOX", "note": "ON 12/24 AND 12/31, THIS BOX MAY BE COLLECTED AS EARLY AS 12 NOON.", "nsi_id": "unitedstatespostalservice-a77078", "operator": "United States Postal Service", "operator:short": "USPS", "operator:type": "public", "operator:wikidata": "Q668687", "ref": "1110100146"}, "type": "Feature"}
{"geometry": {"coordinates": [-73.9424531, 40.74115], "type": "Point"}, "id": "pHAub4DdI65RFcO4uYX4uxwyd64=", "properties": {"@spider": "usps_collection_boxes", "addr:city": "LONG IS CITY", "addr:country": "US", "addr:full": "2710 49TH AVE", "addr:postcode": "11101", "addr:state": "NY", "amenity": "post_box", "brand": "United States Postal Service", "brand:wikidata": "Q668687", "collection_times": "Mo-Fr 15:00; Sa 08:00", "name": "USPS COLLECTION BOX - BLUE BOX", "note": "ON 12/24 AND 12/31, THIS BOX MAY BE COLLECTED AS EARLY AS 12 NOON.", "nsi_id": "unitedstatespostalservice-a77078", "operator": "United States Postal Service", "operator:short": "USPS", "operator:type": "public", "operator:wikidata": "Q668687", "ref": "1110100147"}, "type": "Feature"}
{"geometry": {"coordinates": [-73.9528207, 40.742516], "type": "Point"}, "id": "IrnTr6i3xDJUfS8DXhGw_W0VHKI=", "properties": {"@spider": "usps_collection_boxes", "addr:city": "LONG IS CITY", "addr:country": "US", "addr:full": "1051 JACKSON AVE", "addr:postcode": "11101", "addr:state": "NY", "amenity": "post_box", "brand": "United States Postal Service", "brand:wikidata": "Q668687", "collection_times": "Mo-Fr 15:00; Sa 08:00", "name": "USPS COLLECTION BOX - BLUE BOX", "note": "ON 12/24 AND 12/31, THIS BOX MAY BE COLLECTED AS EARLY AS 12 NOON.", "nsi_id": "unitedstatespostalservice-a77078", "operator": "United States Postal Service", "operator:short": "USPS", "operator:type": "public", "operator:wikidata": "Q668687", "ref": "1110100150"}, "type": "Feature"}
{"geometry": {"coordinates": [-73.9539372, 40.74305], "type": "Point"}, "id": "4VYqTZSP7OoSf0ZrVXn9ZeWgsQo=", "properties": {"@spider": "usps_collection_boxes", "addr:city": "LONG IS CITY", "addr:country": "US", "addr:full": "4915 VERNON BLVD", "addr:postcode": "11101", "addr:state": "NY", "amenity": "post_box", "brand": "United States Postal Service", "brand:wikidata": "Q668687", "collection_times": "Mo-Fr 15:00; Sa 08:00", "name": "USPS COLLECTION BOX - BLUE BOX", "note": "ON 12/24 AND 12/31, THIS BOX MAY BE COLLECTED AS EARLY AS 12 NOON.", "nsi_id": "unitedstatespostalservice-a77078", "operator": "United States Postal Service", "operator:short": "USPS", "operator:type": "public", "operator:wikidata": "Q668687", "ref": "1110100154"}, "type": "Feature"}
{"geometry": {"coordinates": [-73.9264359, 40.743897], "type": "Point"}, "id": "79b5jh3bJhNgKNTfTgr1llF8ywY=", "properties": {"@spider": "usps_collection_boxes", "addr:city": "LONG IS CITY", "addr:country": "US", "addr:full": "3818 QUEENS BLVD", "addr:postcode": "11101", "addr:state": "NY", "amenity": "post_box", "brand": "United States Postal Service", "brand:wikidata": "Q668687", "collection_times": "Mo-Fr 09:00; Sa 08:00", "name": "USPS COLLECTION BOX - BLUE BOX", "nsi_id": "unitedstatespostalservice-a77078", "operator": "United States Postal Service", "operator:short": "USPS", "operator:type": "public", "operator:wikidata": "Q668687", "ref": "1110100159"}, "type": "Feature"}
{"geometry": {"coordinates": [-73.955931727, 40.744501782], "type": "Point"}, "id": "XQKXR20d_ho6NyHh0TURHJf_17g=", "properties": {"@spider": "usps_collection_boxes", "addr:city": "LONG IS CITY", "addr:country": "US", "addr:full": "48-01 5TH STREET", "addr:postcode": "11101", "addr:state": "NY", "amenity": "post_box", "brand": "United States Postal Service", "brand:wikidata": "Q668687", "collection_times": "Mo-Fr 15:00; Sa 08:00", "name": "USPS COLLECTION BOX - BLUE BOX", "note": "ON 12/24 AND 12/31, THIS BOX MAY BE COLLECTED AS EARLY AS 12 NOON.", "nsi_id": "unitedstatespostalservice-a77078", "operator": "United States Postal Service", "operator:short": "USPS", "operator:type": "public", "operator:wikidata": "Q668687", "ref": "1110100165"}, "type": "Feature"}
{"geometry": {"coordinates": [-73.9490863644, 40.7501320028], "type": "Point"}, "id": "PxWyPzr7CyLQarFm4JACh2BGgsY=", "properties": {"@spider": "usps_collection_boxes", "addr:city": "LONG IS CITY", "addr:country": "US", "addr:full": "4367 11TH ST", "addr:postcode": "11101", "addr:state": "NY", "amenity": "post_box", "brand": "United States Postal Service", "brand:wikidata": "Q668687", "collection_times": "Mo-Fr 15:00; Sa 08:00", "name": "USPS COLLECTION BOX - BLUE BOX", "note": "ON 12/24 AND 12/31, THIS BOX MAY BE COLLECTED AS EARLY AS 12 NOON.", "nsi_id": "unitedstatespostalservice-a77078", "operator": "United States Postal Service", "operator:short": "USPS", "operator:type": "public", "operator:wikidata": "Q668687", "ref": "1110100166"}, "type": "Feature"}
{"geometry": {"coordinates": [-73.9503133, 40.753063], "type": "Point"}, "id": "MRmb00Po-2tcn6oWpMO4NLKFq58=", "properties": {"@spider": "usps_collection_boxes", "addr:city": "LONG IS CITY", "addr:country": "US", "addr:full": "4225 VERNON BLVD", "addr:postcode": "11101", "addr:state": "NY", "amenity": "post_box", "brand": "United States Postal Service", "brand:wikidata": "Q668687", "collection_times": "Mo-Fr 14:00; Sa 08:00", "name": "USPS COLLECTION BOX - BLUE BOX", "note": "ON 12/24 AND 12/31, THIS BOX MAY BE COLLECTED AS EARLY AS 12 NOON.", "nsi_id": "unitedstatespostalservice-a77078", "operator": "United States Postal Service", "operator:short": "USPS", "operator:type": "public", "operator:wikidata": "Q668687", "ref": "1110100167"}, "type": "Feature"}
{"geometry": {"coordinates": [-73.9315699, 40.744885], "type": "Point"}, "id": "r0RKg_RR0eGLXXrpmwL3pH1FTrA=", "properties": {"@spider": "usps_collection_boxes", "addr:city": "LONG IS CITY", "addr:country": "US", "addr:full": "3301 QUEENS BLVD", "addr:postcode": "11101", "addr:state": "NY", "amenity": "post_box", "brand": "United States Postal Service", "brand:wikidata": "Q668687", "collection_times": "Mo-Fr 09:00; Sa 08:00", "name": "USPS COLLECTION BOX - BLUE BOX", "nsi_id": "unitedstatespostalservice-a77078", "operator": "United States Postal Service", "operator:short": "USPS", "operator:type": "public", "operator:wikidata": "Q668687", "ref": "1110100171"}, "type": "Feature"}
{"geometry": {"coordinates": [-73.944962, 40.747559], "type": "Point"}, "id": "mbDmmDGp-pKwwew0vM5BihjLmPo=", "properties": {"@spider": "usps_collection_boxes", "addr:city": "LONG IS CITY", "addr:country": "US", "addr:full": "4461 23RD ST", "addr:postcode": "11101", "addr:state": "NY", "amenity": "post_box", "brand": "United States Postal Service", "brand:wikidata": "Q668687", "collection_times": "Mo-Fr 15:00; Sa 08:00", "name": "USPS COLLECTION BOX - BLUE BOX", "note": "ON 12/24 AND 12/31, THIS BOX MAY BE COLLECTED AS EARLY AS 12 NOON.", "nsi_id": "unitedstatespostalservice-a77078", "operator": "United States Postal Service", "operator:short": "USPS", "operator:type": "public", "operator:wikidata": "Q668687", "ref": "1110100175"}, "type": "Feature"}
{"geometry": {"coordinates": [-73.9309281, 40.754816], "type": "Point"}, "id": "q88RG9KG_uxdFfreUTObS3n2cHs=", "properties": {"@spider": "usps_collection_boxes", "addr:city": "LONG IS CITY", "addr:country": "US", "addr:full": "3102 37TH AVE", "addr:postcode": "11101", "addr:state": "NY", "amenity": "post_box", "brand": "United States Postal Service", "brand:wikidata": "Q668687", "collection_times": "Mo-Fr 15:00; Sa 08:00", "name": "USPS COLLECTION BOX - BLUE BOX", "note": "ON 12/24 AND 12/31, THIS BOX MAY BE COLLECTED AS EARLY AS 12 NOON.", "nsi_id": "unitedstatespostalservice-a77078", "operator": "United States Postal Service", "operator:short": "USPS", "operator:type": "public", "operator:wikidata": "Q668687", "ref": "1110100176"}, "type": "Feature"}
{"geometry": {"coordinates": [-73.9499599, 40.744012], "type": "Point"}, "id": "j6XH5B3IfQG3dhi4WBy-ljHj3oA=", "properties": {"@spider": "usps_collection_boxes", "addr:city": "LONG IS CITY", "addr:country": "US", "addr:full": "1223 JACKSON AVE", "addr:postcode": "11101", "addr:state": "NY", "amenity": "post_box", "brand": "United States Postal Service", "brand:wikidata": "Q668687", "collection_times": "Mo-Fr 14:00; Sa 08:00", "name": "USPS COLLECTION BOX - BLUE BOX", "note": "ON 12/24 AND 12/31, THIS BOX MAY BE COLLECTED AS EARLY AS 12 NOON.", "nsi_id": "unitedstatespostalservice-a77078", "operator": "United States Postal Service", "operator:short": "USPS", "operator:type": "public", "operator:wikidata": "Q668687", "ref": "1110100177"}, "type": "Feature"}
{"geometry": {"coordinates": [-73.9565582, 40.74243], "type": "Point"}, "id": "r2zc1nWHlPMunSQvTKHrho_3uQ4=", "properties": {"@spider": "usps_collection_boxes", "addr:city": "LONG IS CITY", "addr:country": "US", "addr:full": "506 51ST AVE", "addr:postcode": "11101", "addr:state": "NY", "amenity": "post_box", "brand": "United States Postal Service", "brand:wikidata": "Q668687", "collection_times": "Mo-Fr 14:00; Sa 08:00", "name": "USPS COLLECTION BOX - BLUE BOX", "note": "ON 12/24 AND 12/31, THIS BOX MAY BE COLLECTED AS EARLY AS 12 NOON.", "nsi_id": "unitedstatespostalservice-a77078", "operator": "United States Postal Service", "operator:short": "USPS", "operator:type": "public", "operator:wikidata": "Q668687", "ref": "1110100182"}, "type": "Feature"}
{"geometry": {"coordinates": [-73.9232199, 40.753561], "type": "Point"}, "id": "WQn-0dzzHQ3FdNdeYM1SvXBlOgk=", "properties": {"@spider": "usps_collection_boxes", "addr:city": "LONG IS CITY", "addr:country": "US", "addr:full": "3553 STEINWAY ST", "addr:postcode": "11101", "addr:state": "NY", "amenity": "post_box", "brand": "United States Postal Service", "brand:wikidata": "Q668687", "collection_times": "Mo-Fr 11:00; Sa 08:00", "name": "USPS COLLECTION BOX - BLUE BOX", "nsi_id": "unitedstatespostalservice-a77078", "operator": "United States Postal Service", "operator:short": "USPS", "operator:type": "public", "operator:wikidata": "Q668687", "ref": "1110100183"}, "type": "Feature"}
{"geometry": {"coordinates": [-73.9442385, 40.754966], "type": "Point"}, "id": "vN6VKeRXu3bGA0fZRza6HqJkjEs=", "properties": {"@spider": "usps_collection_boxes", "addr:city": "LONG IS CITY", "addr:country": "US", "addr:full": "1043 41ST AVE", "addr:postcode": "11101", "addr:state": "NY", "amenity": "post_box", "brand": "United States Postal Service", "brand:wikidata": "Q668687", "collection_times": "Mo-Fr 14:00; Sa 08:00", "name": "USPS COLLECTION BOX - BLUE BOX", "note": "ON 12/24 AND 12/31, THIS BOX MAY BE COLLECTED AS EARLY AS 12 NOON.", "nsi_id": "unitedstatespostalservice-a77078", "operator": "United States Postal Service", "operator:short": "USPS", "operator:type": "public", "operator:wikidata": "Q668687", "ref": "1110100219"}, "type": "Feature"}
{"geometry": {"coordinates": [-73.948234, 40.74561], "type": "Point"}, "id": "5-KlCsQoTLu_bjrHul2mgqyY520=", "properties": {"@spider": "usps_collection_boxes", "addr:city": "LONG IS CITY", "addr:country": "US", "addr:full": "4602 21ST ST", "addr:postcode": "11101", "addr:state": "NY", "amenity": "post_box", "brand": "United States Postal Service", "brand:wikidata": "Q668687", "collection_times": "Mo-Fr 17:00; Sa 13:00", "name": "USPS COLLECTION BOX - PO LOBBY", "note": "ON 12/24 AND 12/31, THIS BOX MAY BE COLLECTED AS EARLY AS 12 NOON.", "nsi_id": "unitedstatespostalservice-a77078", "operator": "United States Postal Service", "operator:short": "USPS", "operator:type": "public", "operator:wikidata": "Q668687", "ref": "1110100224"}, "type": "Feature"}
{"geometry": {"coordinates": [-73.943099, 40.750393], "type": "Point"}, "id": "gvMPYGBHgEIhCODA2S4L9vKCCX4=", "properties": {"@spider": "usps_collection_boxes", "addr:city": "LONG IS CITY", "addr:country": "US", "addr:full": "4254 23RD ST", "addr:postcode": "11101", "addr:state": "NY", "amenity": "post_box", "brand": "United States Postal Service", "brand:wikidata": "Q668687", "collection_times": "Mo-Fr 17:00; Sa 13:00", "name": "USPS COLLECTION BOX - BLUE BOX", "note": "ON 12/24 AND 12/31, THIS BOX MAY BE COLLECTED AS EARLY AS 12 NOON.", "nsi_id": "unitedstatespostalservice-a77078", "operator": "United States Postal Service", "operator:short": "USPS", "operator:type": "public", "operator:wikidata": "Q668687", "ref": "1110100232"}, "type": "Feature"}
{"geometry": {"coordinates": [-73.93572537, 40.7429892617], "type": "Point"}, "id": "tW_ve-9O77ye83KrpnAEJfhqyIs=", "properties": {"@spider": "usps_collection_boxes", "addr:city": "LONG IS CITY", "addr:country": "US", "addr:full": "3100 47TH AVE", "addr:postcode": "11101", "addr:state": "NY", "amenity": "post_box", "brand": "United States Postal Service", "brand:wikidata": "Q668687", "collection_times": "Mo-Fr 14:00; Sa 07:00", "name": "USPS COLLECTION BOX - BLUE BOX", "note": "ON 12/24 AND 12/31, THIS BOX MAY BE COLLECTED AS EARLY AS 12 NOON.", "nsi_id": "unitedstatespostalservice-a77078", "operator": "United States Postal Service", "operator:short": "USPS", "operator:type": "public", "operator:wikidata": "Q668687", "ref": "1110100233"}, "type": "Feature"}
{"geometry": {"coordinates": [-73.943142379, 40.750389812], "type": "Point"}, "id": "KYWkrkvePyq2IdMXR_kdh61PcFk=", "properties": {"@spider": "usps_collection_boxes", "addr:city": "LONG IS CITY", "addr:country": "US", "addr:full": "4254 23RD ST", "addr:postcode": "11101", "addr:state": "NY", "amenity": "post_box", "brand": "United States Postal Service", "brand:wikidata": "Q668687", "collection_times": "Mo-Fr 17:00", "name": "USPS COLLECTION BOX - PO LOBBY", "note": "ON 12/24 AND 12/31, THIS BOX MAY BE COLLECTED AS EARLY AS 12 NOON.", "nsi_id": "unitedstatespostalservice-a77078", "operator": "United States Postal Service", "operator:short": "USPS", "operator:type": "public", "operator:wikidata": "Q668687", "ref": "1110100235"}, "type": "Feature"}
{"geometry": {"coordinates": [-73.948233785, 40.745610984], "type": "Point"}, "id": "AXE5bI05eu20tA_4-O0u7UY3hl8=", "properties": {"@spider": "usps_collection_boxes", "addr:city": "LONG IS CITY", "addr:country": "US", "addr:full": "4602 21ST ST", "addr:postcode": "11101", "addr:state": "NY", "amenity": "post_box", "brand": "United States Postal Service", "brand:wikidata": "Q668687", "collection_times": "Mo-Fr 17:00; Sa 13:00", "name": "USPS COLLECTION BOX - PO LOBBY", "note": "ON 12/24 AND 12/31, THIS BOX MAY BE COLLECTED AS EARLY AS 12 NOON.", "nsi_id": "unitedstatespostalservice-a77078", "operator": "United States Postal Service", "operator:short": "USPS", "operator:type": "public", "operator:wikidata": "Q668687", "ref": "1110100236"}, "type": "Feature"}
{"geometry": {"coordinates": [-73.9327103, 40.772839], "type": "Point"}, "id": "yQLO5tzpjHg6Y-JQ7hC0SBsE8KU=", "properties": {"@spider": "usps_collection_boxes", "addr:city": "LONG IS CITY", "addr:country": "US", "addr:full": "425 ASTORIA BLVD", "addr:postcode": "11102", "addr:state": "NY", "amenity": "post_box", "brand": "United States Postal Service", "brand:wikidata": "Q668687", "collection_times": "Mo-Fr 09:00; Sa 08:00", "name": "USPS COLLECTION BOX - BLUE BOX", "nsi_id": "unitedstatespostalservice-a77078", "operator": "United States Postal Service", "operator:short": "USPS", "operator:type": "public", "operator:wikidata": "Q668687", "ref": "1110200001"}, "type": "Feature"}
{"geometry": {"coordinates": [-73.9286046, 40.772236], "type": "Point"}, "id": "w99Nh_U9UeY9BKzWHsJ9es_iHNY=", "properties": {"@spider": "usps_collection_boxes", "addr:city": "LONG IS CITY", "addr:country": "US", "addr:full": "1401 ASTORIA BLVD", "addr:postcode": "11102", "addr:state": "NY", "amenity": "post_box", "brand": "United States Postal Service", "brand:wikidata": "Q668687", "collection_times": "Mo-Fr 09:00; Sa 08:00", "name": "USPS COLLECTION BOX - BLUE BOX", "nsi_id": "unitedstatespostalservice-a77078", "operator": "United States Postal Service", "operator:short": "USPS", "operator:type": "public", "operator:wikidata": "Q668687", "ref": "1110200002"}, "type": "Feature"}
{"geometry": {"coordinates": [-73.9244245, 40.771863], "type": "Point"}, "id": "RDJNelSvY0YTMYvw3CD0cKWPhEw=", "properties": {"@spider": "usps_collection_boxes", "addr:city": "LONG IS CITY", "addr:country": "US", "addr:full": "2217 ASTORIA BLVD", "addr:postcode": "11102", "addr:state": "NY", "amenity": "post_box", "brand": "United States Postal Service", "brand:wikidata": "Q668687", "collection_times": "Mo-Fr 09:00; Sa 08:00", "name": "USPS COLLECTION BOX - BLUE BOX", "nsi_id": "unitedstatespostalservice-a77078", "operator": "United States Postal Service", "operator:short": "USPS", "operator:type": "public", "operator:wikidata": "Q668687", "ref": "1110200003"}, "type": "Feature"}
{"geometry": {"coordinates": [-73.9227894, 40.771273], "type": "Point"}, "id": "oAViXD4-kSambj2e176n1CnbVhM=", "properties": {"@spider": "usps_collection_boxes", "addr:city": "LONG IS CITY", "addr:country": "US", "addr:full": "2502 ASTORIA BLVD", "addr:postcode": "11102", "addr:state": "NY", "amenity": "post_box", "brand": "United States Postal Service", "brand:wikidata": "Q668687", "collection_times": "Mo-Fr 09:00; Sa 08:00", "name": "USPS COLLECTION BOX - BLUE BOX", "nsi_id": "unitedstatespostalservice-a77078", "operator": "United States Postal Service", "operator:short": "USPS", "operator:type": "public", "operator:wikidata": "Q668687", "ref": "1110200004"}, "type": "Feature"}
{"geometry": {"coordinates": [-73.9212685, 40.770956], "type": "Point"}, "id": "nyzdDyy7WuWlMotxqPXP9C1x4wo=", "properties": {"@spider": "usps_collection_boxes", "addr:city": "LONG IS CITY", "addr:country": "US", "addr:full": "2711 ASTORIA BLVD", "addr:postcode": "11102", "addr:state": "NY", "amenity": "post_box", "brand": "United States Postal Service", "brand:wikidata": "Q668687", "collection_times": "Mo-Fr 09:00; Sa 08:00", "name": "USPS COLLECTION BOX - BLUE BOX", "nsi_id": "unitedstatespostalservice-a77078", "operator": "United States Postal Service", "operator:short": "USPS", "operator:type": "public", "operator:wikidata": "Q668687", "ref": "1110200005"}, "type": "Feature"}
{"geometry": {"coordinates": [-73.9242033, 40.774615], "type": "Point"}, "id": "nOTuwmrFPaMoIcW2FUmO7nHcLtA=", "properties": {"@spider": "usps_collection_boxes", "addr:city": "LONG IS CITY", "addr:country": "US", "addr:full": "1930 HOYT AVE SO.", "addr:postcode": "11102", "addr:state": "NY", "amenity": "post_box", "brand": "United States Postal Service", "brand:wikidata": "Q668687", "collection_times": "Mo-Fr 09:00; Sa 08:00", "name": "USPS COLLECTION BOX - BLUE BOX", "nsi_id": "unitedstatespostalservice-a77078", "operator": "United States Postal Service", "operator:short": "USPS", "operator:type": "public", "operator:wikidata": "Q668687", "ref": "1110200007"}, "type": "Feature"}
{"geometry": {"coordinates": [-73.9188766, 40.772121], "type": "Point"}, "id": "kJsL_Z3kHIXFpiupJ3quNbFAnaY=", "properties": {"@spider": "usps_collection_boxes", "addr:city": "LONG IS CITY", "addr:country": "US", "addr:full": "2464 28TH ST", "addr:postcode": "11102", "addr:state": "NY", "amenity": "post_box", "brand": "United States Postal Service", "brand:wikidata": "Q668687", "collection_times": "Mo-Fr 09:00; Sa 08:00", "name": "USPS COLLECTION BOX - BLUE BOX", "nsi_id": "unitedstatespostalservice-a77078", "operator": "United States Postal Service", "operator:short": "USPS", "operator:type": "public", "operator:wikidata": "Q668687", "ref": "1110200008"}, "type": "Feature"}
{"geometry": {"coordinates": [-73.9241143, 40.770926], "type": "Point"}, "id": "0Qt6bBCJSytnaTxKRjewwOI3Gy4=", "properties": {"@spider": "usps_collection_boxes", "addr:city": "LONG IS CITY", "addr:country": "US", "addr:full": "2325 NEWTOWN AVE", "addr:postcode": "11102", "addr:state": "NY", "amenity": "post_box", "brand": "United States Postal Service", "brand:wikidata": "Q668687", "collection_times": "Mo-Fr 09:00; Sa 08:00", "name": "USPS COLLECTION BOX - BLUE BOX", "nsi_id": "unitedstatespostalservice-a77078", "operator": "United States Postal Service", "operator:short": "USPS", "operator:type": "public", "operator:wikidata": "Q668687", "ref": "1110200009"}, "type": "Feature"}
{"geometry": {"coordinates": [-73.9221278, 40.769096], "type": "Point"}, "id": "zTsO6fc0duOFzMVt6dvrHCPpa8Q=", "properties": {"@spider": "usps_collection_boxes", "addr:city": "LONG IS CITY", "addr:country": "US", "addr:full": "2902 NEWTOWN AVE", "addr:postcode": "11102", "addr:state": "NY", "amenity": "post_box", "brand": "United States Postal Service", "brand:wikidata": "Q668687", "collection_times": "Mo-Fr 09:00; Sa 08:00", "name": "USPS COLLECTION BOX - BLUE BOX", "nsi_id": "unitedstatespostalservice-a77078", "operator": "United States Postal Service", "operator:short": "USPS", "operator:type": "public", "operator:wikidata": "Q668687", "ref": "1110200010"}, "type": "Feature"}
{"geometry": {"coordinates": [-73.9215584, 40.776475], "type": "Point"}, "id": "SEtuC7b3PzBGL8sBWge9eUkRqEI=", "properties": {"@spider": "usps_collection_boxes", "addr:city": "LONG IS CITY", "addr:country": "US", "addr:full": "2102 24TH AVE", "addr:postcode": "11102", "addr:state": "NY", "amenity": "post_box", "brand": "United States Postal Service", "brand:wikidata": "Q668687", "collection_times": "Mo-Fr 09:00; Sa 08:00", "name": "USPS COLLECTION BOX - BLUE BOX", "nsi_id": "unitedstatespostalservice-a77078", "operator": "United States Postal Service", "operator:short": "USPS", "operator:type": "public", "operator:wikidata": "Q668687", "ref": "1110200011"}, "type": "Feature"}
{"geometry": {"coordinates": [-73.9171463, 40.773355], "type": "Point"}, "id": "F3JdO6X5To1wlar4nQcrzbtst4I=", "properties": {"@spider": "usps_collection_boxes", "addr:city": "LONG IS CITY", "addr:country": "US", "addr:full": "2405 28TH ST", "addr:postcode": "11102", "addr:state": "NY", "amenity": "post_box", "brand": "United States Postal Service", "brand:wikidata": "Q668687", "collection_times": "Mo-Fr 09:00; Sa 08:00", "name": "USPS COLLECTION BOX - BLUE BOX", "nsi_id": "unitedstatespostalservice-a77078", "operator": "United States Postal Service", "operator:short": "USPS", "operator:type": "public", "operator:wikidata": "Q668687", "ref": "1110200012"}, "type": "Feature"}
{"geometry": {"coordinates": [-73.9155579, 40.772219], "type": "Point"}, "id": "Ruytu-tVDHRzV1R1bffPV-STsD4=", "properties": {"@spider": "usps_collection_boxes", "addr:city": "LONG IS CITY", "addr:country": "US", "addr:full": "2402 31ST ST", "addr:postcode": "11102", "addr:state": "NY", "amenity": "post_box", "brand": "United States Postal Service", "brand:wikidata": "Q668687", "collection_times": "Mo-Fr 09:00; Sa 08:00", "name": "USPS COLLECTION BOX - BLUE BOX", "nsi_id": "unitedstatespostalservice-a77078", "operator": "United States Postal Service", "operator:short": "USPS", "operator:type": "public", "operator:wikidata": "Q668687", "ref": "1110200013"}, "type": "Feature"}
{"geometry": {"coordinates": [-73.9263987, 40.774957], "type": "Point"}, "id": "eDFiy1z1G_X_5TwOei9B0z_VTQM=", "properties": {"@spider": "usps_collection_boxes", "addr:city": "LONG IS CITY", "addr:country": "US", "addr:full": "1802 25TH RD", "addr:postcode": "11102", "addr:state": "NY", "amenity": "post_box", "brand": "United States Postal Service", "brand:wikidata": "Q668687", "collection_times": "Mo-Fr 09:00; Sa 08:00", "name": "USPS COLLECTION BOX - BLUE BOX", "nsi_id": "unitedstatespostalservice-a77078", "operator": "United States Postal Service", "operator:short": "USPS", "operator:type": "public", "operator:wikidata": "Q668687", "ref": "1110200014"}, "type": "Feature"}
{"geometry": {"coordinates": [-73.9325961, 40.77459], "type": "Point"}, "id": "BfRg7rjU_UFMlHHiI1h0HzyWcFw=", "properties": {"@spider": "usps_collection_boxes", "addr:city": "LONG IS CITY", "addr:country": "US", "addr:full": "421 27TH AVE", "addr:postcode": "11102", "addr:state": "NY", "amenity": "post_box", "brand": "United States Postal Service", "brand:wikidata": "Q668687", "collection_times": "Mo-Fr 09:00; Sa 08:00", "name": "USPS COLLECTION BOX - BLUE BOX", "nsi_id": "unitedstatespostalservice-a77078", "operator": "United States Postal Service", "operator:short": "USPS", "operator:type": "public", "operator:wikidata": "Q668687", "ref": "1110200015"}, "type": "Feature"}
{"geometry": {"coordinates": [-73.9303089, 40.773693], "type": "Point"}, "id": "QJnrn0ez-dYIXaPq0FUx8jZDcfk=", "properties": {"@spider": "usps_collection_boxes", "addr:city": "LONG IS CITY", "addr:country": "US", "addr:full": "920 27TH AVE", "addr:postcode": "11102", "addr:state": "NY", "amenity": "post_box", "brand": "United States Postal Service", "brand:wikidata": "Q668687", "collection_times": "Mo-Fr 09:00; Sa 08:00", "name": "USPS COLLECTION BOX - BLUE BOX", "nsi_id": "unitedstatespostalservice-a77078", "operator": "United States Postal Service", "operator:short": "USPS", "operator:type": "public", "operator:wikidata": "Q668687", "ref": "1110200016"}, "type": "Feature"}
{"geometry": {"coordinates": [-73.9241868, 40.769827], "type": "Point"}, "id": "n68vQ4P2M1gf0ZA-v1B79SNB3FU=", "properties": {"@spider": "usps_collection_boxes", "addr:city": "LONG IS CITY", "addr:country": "US", "addr:full": "2802 CRESCENT ST", "addr:postcode": "11102", "addr:state": "NY", "amenity": "post_box", "brand": "United States Postal Service", "brand:wikidata": "Q668687", "collection_times": "Mo-Fr 09:00; Sa 08:00", "name": "USPS COLLECTION BOX - BLUE BOX", "nsi_id": "unitedstatespostalservice-a77078", "operator": "United States Postal Service", "operator:short": "USPS", "operator:type": "public", "operator:wikidata": "Q668687", "ref": "1110200020"}, "type": "Feature"}
{"geometry": {"coordinates": [-73.9199517342, 40.7683412462], "type": "Point"}, "id": "B5SRzuM4Oq0bJQ3kxyfeJ7jdY4M=", "properties": {"@spider": "usps_collection_boxes", "addr:city": "LONG IS CITY", "addr:country": "US", "addr:full": "3102 28TH AVE", "addr:postcode": "11102", "addr:state": "NY", "amenity": "post_box", "brand": "United States Postal Service", "brand:wikidata": "Q668687", "collection_times": "Mo-Fr 09:00; Sa 08:00", "name": "USPS COLLECTION BOX - BLUE BOX", "nsi_id": "unitedstatespostalservice-a77078", "operator": "United States Postal Service", "operator:short": "USPS", "operator:type": "public", "operator:wikidata": "Q668687", "ref": "1110200021"}, "type": "Feature"}
{"geometry": {"coordinates": [-73.9299199, 40.770756], "type": "Point"}, "id": "gtIMlS13FP0L5h4j9L-cYyEQAeU=", "properties": {"@spider": "usps_collection_boxes", "addr:city": "LONG IS CITY", "addr:country": "US", "addr:full": "1402 30TH AVE", "addr:postcode": "11102", "addr:state": "NY", "amenity": "post_box", "brand": "United States Postal Service", "brand:wikidata": "Q668687", "collection_times": "Mo-Fr 09:00; Sa 08:00", "name": "USPS COLLECTION BOX - BLUE BOX", "nsi_id": "unitedstatespostalservice-a77078", "operator": "United States Postal Service", "operator:short": "USPS", "operator:type": "public", "operator:wikidata": "Q668687", "ref": "1110200022"}, "type": "Feature"}
{"geometry": {"coordinates": [-73.9276292, 40.769888], "type": "Point"}, "id": "l9LUWDwIJZDlQvuit2OHkA1xWto=", "properties": {"@spider": "usps_collection_boxes", "addr:city": "LONG IS CITY", "addr:country": "US", "addr:full": "2101 30TH AVE", "addr:postcode": "11102", "addr:state": "NY", "amenity": "post_box", "brand": "United States Postal Service", "brand:wikidata": "Q668687", "collection_times": "Mo-Fr 09:00; Sa 08:00", "name": "USPS COLLECTION BOX - BLUE BOX", "nsi_id": "unitedstatespostalservice-a77078", "operator": "United States Postal Service", "operator:short": "USPS", "operator:type": "public", "operator:wikidata": "Q668687", "ref": "1110200023"}, "type": "Feature"}
{"geometry": {"coordinates": [-73.925009, 40.768483], "type": "Point"}, "id": "po2ShmJOXB2OQilq_X5JnmWJhno=", "properties": {"@spider": "usps_collection_boxes", "addr:city": "LONG IS CITY", "addr:country": "US", "addr:full": "2510 30TH AVE", "addr:postcode": "11102", "addr:state": "NY", "amenity": "post_box", "brand": "United States Postal Service", "brand:wikidata": "Q668687", "collection_times": "Mo-Fr 09:00; Sa 08:00", "name": "USPS COLLECTION BOX - BLUE BOX", "nsi_id": "unitedstatespostalservice-a77078", "operator": "United States Postal Service", "operator:short": "USPS", "operator:type": "public", "operator:wikidata": "Q668687", "ref": "1110200024"}, "type": "Feature"}
{"geometry": {"coordinates": [-73.9211818, 40.766765], "type": "Point"}, "id": "ZOdInw2knSmrXwxX_RBu2gPwzmg=", "properties": {"@spider": "usps_collection_boxes", "addr:city": "LONG IS CITY", "addr:country": "US", "addr:full": "3102 30TH AVE", "addr:postcode": "11102", "addr:state": "NY", "amenity": "post_box", "brand": "United States Postal Service", "brand:wikidata": "Q668687", "collection_times": "Mo-Fr 09:00; Sa 08:00", "name": "USPS COLLECTION BOX - BLUE BOX", "nsi_id": "unitedstatespostalservice-a77078", "operator": "United States Postal Service", "operator:short": "USPS", "operator:type": "public", "operator:wikidata": "Q668687", "ref": "1110200026"}, "type": "Feature"}
{"geometry": {"coordinates": [-73.9344222, 40.770317], "type": "Point"}, "id": "hIc6SFs-p0DeACQVFcQ2-knERLE=", "properties": {"@spider": "usps_collection_boxes", "addr:city": "LONG IS CITY", "addr:country": "US", "addr:full": "3055 VERNON BLVD", "addr:postcode": "11102", "addr:state": "NY", "amenity": "post_box", "brand": "United States Postal Service", "brand:wikidata": "Q668687", "collection_times": "Mo-Fr 09:00; Sa 08:00", "name": "USPS COLLECTION BOX - BLUE BOX", "nsi_id": "unitedstatespostalservice-a77078", "operator": "United States Postal Service", "operator:short": "USPS", "operator:type": "public", "operator:wikidata": "Q668687", "ref": "1110200028"}, "type": "Feature"}
{"geometry": {"coordinates": [-73.9312919, 40.769043], "type": "Point"}, "id": "2qhodsTQFyp7MVeCDwa4YLXEOtA=", "properties": {"@spider": "usps_collection_boxes", "addr:city": "LONG IS CITY", "addr:country": "US", "addr:full": "3073 14TH ST", "addr:postcode": "11102", "addr:state": "NY", "amenity": "post_box", "brand": "United States Postal Service", "brand:wikidata": "Q668687", "collection_times": "Mo-Fr 09:00; Sa 08:00", "name": "USPS COLLECTION BOX - BLUE BOX", "nsi_id": "unitedstatespostalservice-a77078", "operator": "United States Postal Service", "operator:short": "USPS", "operator:type": "public", "operator:wikidata": "Q668687", "ref": "1110200030"}, "type": "Feature"}
{"geometry": {"coordinates": [-73.9258468, 40.766726], "type": "Point"}, "id": "qpl1tYH4bkuGpq6TbOcxWMw98Ck=", "properties": {"@spider": "usps_collection_boxes", "addr:city": "LONG IS CITY", "addr:country": "US", "addr:full": "3063 CRESCENT ST", "addr:postcode": "11102", "addr:state": "NY", "amenity": "post_box", "brand": "United States Postal Service", "brand:wikidata": "Q668687", "collection_times": "Mo-Fr 09:00; Sa 08:00", "name": "USPS COLLECTION BOX - BLUE BOX", "nsi_id": "unitedstatespostalservice-a77078", "operator": "United States Postal Service", "operator:short": "USPS", "operator:type": "public", "operator:wikidata": "Q668687", "ref": "1110200031"}, "type": "Feature"}
{"geometry": {"coordinates": [-73.928157, 40.769381], "type": "Point"}, "id": "wg3pjyLDZ5C_CKsTmOdAfvanmsY=", "properties": {"@spider": "usps_collection_boxes", "addr:city": "LONG IS CITY", "addr:country": "US", "addr:full": "3011 21ST ST", "addr:postcode": "11102", "addr:state": "NY", "amenity": "post_box", "brand": "United States Postal Service", "brand:wikidata": "Q668687", "collection_times": "Mo-Fr 17:00; Sa 13:00", "name": "USPS COLLECTION BOX - PO LOBBY", "note": "ON 12/24 AND 12/31, THIS BOX MAY BE COLLECTED AS EARLY AS 12 NOON.", "nsi_id": "unitedstatespostalservice-a77078", "operator": "United States Postal Service", "operator:short": "USPS", "operator:type": "public", "operator:wikidata": "Q668687", "ref": "1110200068"}, "type": "Feature"}
{"geometry": {"coordinates": [-73.928157, 40.769381], "type": "Point"}, "id": "skwkR_x_4npMYOjMpHnGIrkKuPc=", "properties": {"@spider": "usps_collection_boxes", "addr:city": "LONG IS CITY", "addr:country": "US", "addr:full": "3011 21ST ST", "addr:postcode": "11102", "addr:state": "NY", "amenity": "post_box", "brand": "United States Postal Service", "brand:wikidata": "Q668687", "collection_times": "Mo-Fr 17:00; Sa 13:00", "name": "USPS COLLECTION BOX - BLUE BOX", "note": "ON 12/24 AND 12/31, THIS BOX MAY BE COLLECTED AS EARLY AS 12 NOON.", "nsi_id": "unitedstatespostalservice-a77078", "operator": "United States Postal Service", "operator:short": "USPS", "operator:type": "public", "operator:wikidata": "Q668687", "ref": "1110200070"}, "type": "Feature"}
{"geometry": {"coordinates": [-73.928155287, 40.769372861], "type": "Point"}, "id": "3vAcLD3g1dugiIsdsGKV50VLUx0=", "properties": {"@spider": "usps_collection_boxes", "addr:city": "LONG IS CITY", "addr:country": "US", "addr:full": "3011 21ST ST STE A", "addr:postcode": "11102", "addr:state": "NY", "amenity": "post_box", "brand": "United States Postal Service", "brand:wikidata": "Q668687", "collection_times": "Mo-Fr 17:00; Sa 13:00", "name": "USPS COLLECTION BOX - PO LOBBY", "note": "ON 12/24 AND 12/31, THIS BOX MAY BE COLLECTED AS EARLY AS 12 NOON.", "nsi_id": "unitedstatespostalservice-a77078", "operator": "United States Postal Service", "operator:short": "USPS", "operator:type": "public", "operator:wikidata": "Q668687", "ref": "1110200071"}, "type": "Feature"}
{"geometry": {"coordinates": [-73.9138483, 40.769241], "type": "Point"}, "id": "1YC-ochiXdC28fdMGOjV7H1IH8Q=", "properties": {"@spider": "usps_collection_boxes", "addr:city": "LONG IS CITY", "addr:country": "US", "addr:full": "3602 ASTORIA BLVD", "addr:postcode": "11103", "addr:state": "NY", "amenity": "post_box", "brand": "United States Postal Service", "brand:wikidata": "Q668687", "collection_times": "Mo-Fr 14:00; Sa 08:00", "name": "USPS COLLECTION BOX - BLUE BOX", "note": "ON 12/24 AND 12/31, THIS BOX MAY BE COLLECTED AS EARLY AS 12 NOON.", "nsi_id": "unitedstatespostalservice-a77078", "operator": "United States Postal Service", "operator:short": "USPS", "operator:type": "public", "operator:wikidata": "Q668687", "ref": "1110300001"}, "type": "Feature"}
{"geometry": {"coordinates": [-73.9111309, 40.768704], "type": "Point"}, "id": "Yesl5h3tSsGpUMKyHGIb4WLz-OE=", "properties": {"@spider": "usps_collection_boxes", "addr:city": "LONG IS CITY", "addr:country": "US", "addr:full": "2412 STEINWAY ST", "addr:postcode": "11103", "addr:state": "NY", "amenity": "post_box", "brand": "United States Postal Service", "brand:wikidata": "Q668687", "collection_times": "Mo-Fr 14:00; Sa 08:00", "name": "USPS COLLECTION BOX - BLUE BOX", "note": "ON 12/24 AND 12/31, THIS BOX MAY BE COLLECTED AS EARLY AS 12 NOON.", "nsi_id": "unitedstatespostalservice-a77078", "operator": "United States Postal Service", "operator:short": "USPS", "operator:type": "public", "operator:wikidata": "Q668687", "ref": "1110300002"}, "type": "Feature"}
{"geometry": {"coordinates": [-73.9062542, 40.768], "type": "Point"}, "id": "iBjUq6bzVE813dpiRGKRcy874Is=", "properties": {"@spider": "usps_collection_boxes", "addr:city": "LONG IS CITY", "addr:country": "US", "addr:full": "4414 ASTORIA BLVD", "addr:postcode": "11103", "addr:state": "NY", "amenity": "post_box", "brand": "United States Postal Service", "brand:wikidata": "Q668687", "collection_times": "Mo-Fr 14:00; Sa 08:00", "name": "USPS COLLECTION BOX - BLUE BOX", "note": "ON 12/24 AND 12/31, THIS BOX MAY BE COLLECTED AS EARLY AS 12 NOON.", "nsi_id": "unitedstatespostalservice-a77078", "operator": "United States Postal Service", "operator:short": "USPS", "operator:type": "public", "operator:wikidata": "Q668687", "ref": "1110300003"}, "type": "Feature"}
{"geometry": {"coordinates": [-73.9165223, 40.757787], "type": "Point"}, "id": "ONIRtkuwDrdOMo4quWWbQg3jIyY=", "properties": {"@spider": "usps_collection_boxes", "addr:city": "LONG IS CITY", "addr:country": "US", "addr:full": "4304 BROADWAY", "addr:postcode": "11103", "addr:state": "NY", "amenity": "post_box", "brand": "United States Postal Service", "brand:wikidata": "Q668687", "collection_times": "Mo-Fr 17:00; Sa 13:00", "name": "USPS COLLECTION BOX - EXPRESS", "note": "ON 12/24 AND 12/31, THIS BOX MAY BE COLLECTED AS EARLY AS 12 NOON.", "nsi_id": "unitedstatespostalservice-a77078", "operator": "United States Postal Service", "operator:short": "USPS", "operator:type": "public", "operator:wikidata": "Q668687", "ref": "1110300006"}, "type": "Feature"}
{"geometry": {"coordinates": [-73.9165216, 40.757781], "type": "Point"}, "id": "G16ETDi9cuvzeausgSqlkDIrV9M=", "properties": {"@spider": "usps_collection_boxes", "addr:city": "LONG IS CITY", "addr:country": "US", "addr:full": "4304 BROADWAY", "addr:postcode": "11103", "addr:state": "NY", "amenity": "post_box", "brand": "United States Postal Service", "brand:wikidata": "Q668687", "collection_times": "Mo-Fr 17:00; Sa 13:00", "name": "USPS COLLECTION BOX - BLUE BOX", "note": "ON 12/24 AND 12/31, THIS BOX MAY BE COLLECTED AS EARLY AS 12 NOON.", "nsi_id": "unitedstatespostalservice-a77078", "operator": "United States Postal Service", "operator:short": "USPS", "operator:type": "public", "operator:wikidata": "Q668687", "ref": "1110300009"}, "type": "Feature"}
{"geometry": {"coordinates": [-73.913358, 40.756244], "type": "Point"}, "id": "ScJv7miqq6GcuVA8cVeCA-heLpE=", "properties": {"@spider": "usps_collection_boxes", "addr:city": "LONG IS CITY", "addr:country": "US", "addr:full": "4707 BROADWAY", "addr:postcode": "11103", "addr:state": "NY", "amenity": "post_box", "brand": "United States Postal Service", "brand:wikidata": "Q668687", "collection_times": "Mo-Fr 14:00; Sa 08:00", "name": "USPS COLLECTION BOX - BLUE BOX", "note": "ON 12/24 AND 12/31, THIS BOX MAY BE COLLECTED AS EARLY AS 12 NOON.", "nsi_id": "unitedstatespostalservice-a77078", "operator": "United States Postal Service", "operator:short": "USPS", "operator:type": "public", "operator:wikidata": "Q668687", "ref": "1110300011"}, "type": "Feature"}
{"geometry": {"coordinates": [-73.9137974, 40.758757], "type": "Point"}, "id": "f2vXdKasQ8dUcLa8gRhM6fT7U-Q=", "properties": {"@spider": "usps_collection_boxes", "addr:city": "LONG IS CITY", "addr:country": "US", "addr:full": "4420 NEWTOWN RD", "addr:postcode": "11103", "addr:state": "NY", "amenity": "post_box", "brand": "United States Postal Service", "brand:wikidata": "Q668687", "collection_times": "Mo-Fr 14:00; Sa 08:00", "name": "USPS COLLECTION BOX - BLUE BOX", "note": "ON 12/24 AND 12/31, THIS BOX MAY BE COLLECTED AS EARLY AS 12 NOON.", "nsi_id": "unitedstatespostalservice-a77078", "operator": "United States Postal Service", "operator:short": "USPS", "operator:type": "public", "operator:wikidata": "Q668687", "ref": "1110300012"}, "type": "Feature"}
{"geometry": {"coordinates": [-73.9158733, 40.762912], "type": "Point"}, "id": "q5CV1bZPkl6-n2mwvwRyyJnDCV8=", "properties": {"@spider": "usps_collection_boxes", "addr:city": "LONG IS CITY", "addr:country": "US", "addr:full": "3038 STEINWAY ST", "addr:postcode": "11103", "addr:state": "NY", "amenity": "post_box", "brand": "United States Postal Service", "brand:wikidata": "Q668687", "collection_times": "Mo-Fr 14:00; Sa 08:00", "name": "USPS COLLECTION BOX - BLUE BOX", "note": "ON 12/24 AND 12/31, THIS BOX MAY BE COLLECTED AS EARLY AS 12 NOON.", "nsi_id": "unitedstatespostalservice-a77078", "operator": "United States Postal Service", "operator:short": "USPS", "operator:type": "public", "operator:wikidata": "Q668687", "ref": "1110300013"}, "type": "Feature"}
{"geometry": {"coordinates": [-73.9120838, 40.770014], "type": "Point"}, "id": "IBEBYSh-ogzsw1oo5cKa01nHcNw=", "properties": {"@spider": "usps_collection_boxes", "addr:city": "LONG IS CITY", "addr:country": "US", "addr:full": "3701 24TH AVE", "addr:postcode": "11103", "addr:state": "NY", "amenity": "post_box", "brand": "United States Postal Service", "brand:wikidata": "Q668687", "collection_times": "Mo-Fr 14:00; Sa 08:00", "name": "USPS COLLECTION BOX - BLUE BOX", "note": "ON 12/24 AND 12/31, THIS BOX MAY BE COLLECTED AS EARLY AS 12 NOON.", "nsi_id": "unitedstatespostalservice-a77078", "operator": "United States Postal Service", "operator:short": "USPS", "operator:type": "public", "operator:wikidata": "Q668687", "ref": "1110300014"}, "type": "Feature"}
{"geometry": {"coordinates": [-73.9118084, 40.767914], "type": "Point"}, "id": "vgRiKmIRdlXPkpSiXy-Zk7M3aVM=", "properties": {"@spider": "usps_collection_boxes", "addr:city": "LONG IS CITY", "addr:country": "US", "addr:full": "2502 STEINWAY ST", "addr:postcode": "11103", "addr:state": "NY", "amenity": "post_box", "brand": "United States Postal Service", "brand:wikidata": "Q668687", "collection_times": "Mo-Fr 14:00; Sa 08:00", "name": "USPS COLLECTION BOX - BLUE BOX", "note": "ON 12/24 AND 12/31, THIS BOX MAY BE COLLECTED AS EARLY AS 12 NOON.", "nsi_id": "unitedstatespostalservice-a77078", "operator": "United States Postal Service", "operator:short": "USPS", "operator:type": "public", "operator:wikidata": "Q668687", "ref": "1110300015"}, "type": "Feature"}
{"geometry": {"coordinates": [-73.9092942, 40.766732], "type": "Point"}, "id": "mF5qqVwmDbOJZ2H93aVqzgrvauA=", "properties": {"@spider": "usps_collection_boxes", "addr:city": "LONG IS CITY", "addr:country": "US", "addr:full": "2505 43RD ST", "addr:postcode": "11103", "addr:state": "NY", "amenity": "post_box", "brand": "United States Postal Service", "brand:wikidata": "Q668687", "collection_times": "Mo-Fr 14:00; Sa 08:00", "name": "USPS COLLECTION BOX - BLUE BOX", "note": "ON 12/24 AND 12/31, THIS BOX MAY BE COLLECTED AS EARLY AS 12 NOON.", "nsi_id": "unitedstatespostalservice-a77078", "operator": "United States Postal Service", "operator:short": "USPS", "operator:type": "public", "operator:wikidata": "Q668687", "ref": "1110300016"}, "type": "Feature"}
{"geometry": {"coordinates": [-73.9078573, 40.766088], "type": "Point"}, "id": "ngVFQn7J2_eLC_bwiNde6yzCLCw=", "properties": {"@spider": "usps_collection_boxes", "addr:city": "LONG IS CITY", "addr:country": "US", "addr:full": "4420 25TH AVE", "addr:postcode": "11103", "addr:state": "NY", "amenity": "post_box", "brand": "United States Postal Service", "brand:wikidata": "Q668687", "collection_times": "Mo-Fr 14:00; Sa 08:00", "name": "USPS COLLECTION BOX - BLUE BOX", "note": "ON 12/24 AND 12/31, THIS BOX MAY BE COLLECTED AS EARLY AS 12 NOON.", "nsi_id": "unitedstatespostalservice-a77078", "operator": "United States Postal Service", "operator:short": "USPS", "operator:type": "public", "operator:wikidata": "Q668687", "ref": "1110300017"}, "type": "Feature"}
{"geometry": {"coordinates": [-73.9168126, 40.766966], "type": "Point"}, "id": "YIorIldemQY7mZrPwfmKxEuDVmM=", "properties": {"@spider": "usps_collection_boxes", "addr:city": "LONG IS CITY", "addr:country": "US", "addr:full": "3501 28TH AVE", "addr:postcode": "11103", "addr:state": "NY", "amenity": "post_box", "brand": "United States Postal Service", "brand:wikidata": "Q668687", "collection_times": "Mo-Fr 14:00; Sa 08:00", "name": "USPS COLLECTION BOX - BLUE BOX", "note": "ON 12/24 AND 12/31, THIS BOX MAY BE COLLECTED AS EARLY AS 12 NOON.", "nsi_id": "unitedstatespostalservice-a77078", "operator": "United States Postal Service", "operator:short": "USPS", "operator:type": "public", "operator:wikidata": "Q668687", "ref": "1110300018"}, "type": "Feature"}
{"geometry": {"coordinates": [-73.9154847, 40.766354], "type": "Point"}, "id": "o-MW3oFcJD5hSuaDGlj2DvkcDsE=", "properties": {"@spider": "usps_collection_boxes", "addr:city": "LONG IS CITY", "addr:country": "US", "addr:full": "3617 28TH AVE", "addr:postcode": "11103", "addr:state": "NY", "amenity": "post_box", "brand": "United States Postal Service", "brand:wikidata": "Q668687", "collection_times": "Mo-Fr 14:00; Sa 08:00", "name": "USPS COLLECTION BOX - BLUE BOX", "note": "ON 12/24 AND 12/31, THIS BOX MAY BE COLLECTED AS EARLY AS 12 NOON.", "nsi_id": "unitedstatespostalservice-a77078", "operator": "United States Postal Service", "operator:short": "USPS", "operator:type": "public", "operator:wikidata": "Q668687", "ref": "1110300019"}, "type": "Feature"}
{"geometry": {"coordinates": [-73.9138137, 40.765628], "type": "Point"}, "id": "KnQka47HYRwDITkiWAId4G6fLqU=", "properties": {"@spider": "usps_collection_boxes", "addr:city": "LONG IS CITY", "addr:country": "US", "addr:full": "2598 STEINWAY ST", "addr:postcode": "11103", "addr:state": "NY", "amenity": "post_box", "brand": "United States Postal Service", "brand:wikidata": "Q668687", "collection_times": "Mo-Fr 14:00; Sa 08:00", "name": "USPS COLLECTION BOX - BLUE BOX", "note": "ON 12/24 AND 12/31, THIS BOX MAY BE COLLECTED AS EARLY AS 12 NOON.", "nsi_id": "unitedstatespostalservice-a77078", "operator": "United States Postal Service", "operator:short": "USPS", "operator:type": "public", "operator:wikidata": "Q668687", "ref": "1110300020"}, "type": "Feature"}
{"geometry": {"coordinates": [-73.9112231, 40.764337], "type": "Point"}, "id": "7YxEVKNSZBt1YeEmgwTroA-8gbc=", "properties": {"@spider": "usps_collection_boxes", "addr:city": "LONG IS CITY", "addr:country": "US", "addr:full": "2595 43RD ST", "addr:postcode": "11103", "addr:state": "NY", "amenity": "post_box", "brand": "United States Postal Service", "brand:wikidata": "Q668687", "collection_times": "Mo-Fr 14:00; Sa 08:00", "name": "USPS COLLECTION BOX - BLUE BOX", "note": "ON 12/24 AND 12/31, THIS BOX MAY BE COLLECTED AS EARLY AS 12 NOON.", "nsi_id": "unitedstatespostalservice-a77078", "operator": "United States Postal Service", "operator:short": "USPS", "operator:type": "public", "operator:wikidata": "Q668687", "ref": "1110300021"}, "type": "Feature"}
{"geometry": {"coordinates": [-73.9082164, 40.762993], "type": "Point"}, "id": "eqlaEBRmjAWc3ICmjhAPWArFdBI=", "properties": {"@spider": "usps_collection_boxes", "addr:city": "LONG IS CITY", "addr:country": "US", "addr:full": "4621 28TH AVE", "addr:postcode": "11103", "addr:state": "NY", "amenity": "post_box", "brand": "United States Postal Service", "brand:wikidata": "Q668687", "collection_times": "Mo-Fr 14:00; Sa 08:00", "name": "USPS COLLECTION BOX - BLUE BOX", "note": "ON 12/24 AND 12/31, THIS BOX MAY BE COLLECTED AS EARLY AS 12 NOON.", "nsi_id": "unitedstatespostalservice-a77078", "operator": "United States Postal Service", "operator:short": "USPS", "operator:type": "public", "operator:wikidata": "Q668687", "ref": "1110300022"}, "type": "Feature"}
{"geometry": {"coordinates": [-73.9189445, 40.765708], "type": "Point"}, "id": "wHMOxOlIZqcs9C1-NM8rZb4cV4E=", "properties": {"@spider": "usps_collection_boxes", "addr:city": "LONG IS CITY", "addr:country": "US", "addr:full": "3402 30TH AVE", "addr:postcode": "11103", "addr:state": "NY", "amenity": "post_box", "brand": "United States Postal Service", "brand:wikidata": "Q668687", "collection_times": "Mo-Fr 14:00; Sa 08:00", "name": "USPS COLLECTION BOX - BLUE BOX", "note": "ON 12/24 AND 12/31, THIS BOX MAY BE COLLECTED AS EARLY AS 12 NOON.", "nsi_id": "unitedstatespostalservice-a77078", "operator": "United States Postal Service", "operator:short": "USPS", "operator:type": "public", "operator:wikidata": "Q668687", "ref": "1110300023"}, "type": "Feature"}
{"geometry": {"coordinates": [-73.9175679, 40.765043], "type": "Point"}, "id": "vJq461KkLoRZBlgDUGGKQfDo2zY=", "properties": {"@spider": "usps_collection_boxes", "addr:city": "LONG IS CITY", "addr:country": "US", "addr:full": "3520 30TH AVE", "addr:postcode": "11103", "addr:state": "NY", "amenity": "post_box", "brand": "United States Postal Service", "brand:wikidata": "Q668687", "collection_times": "Mo-Fr 14:00; Sa 08:00", "name": "USPS COLLECTION BOX - BLUE BOX", "note": "ON 12/24 AND 12/31, THIS BOX MAY BE COLLECTED AS EARLY AS 12 NOON.", "nsi_id": "unitedstatespostalservice-a77078", "operator": "United States Postal Service", "operator:short": "USPS", "operator:type": "public", "operator:wikidata": "Q668687", "ref": "1110300024"}, "type": "Feature"}
{"geometry": {"coordinates": [-73.9167319, 40.764642], "type": "Point"}, "id": "TRH7kBn1NHNMzREKry2LVOLIKGE=", "properties": {"@spider": "usps_collection_boxes", "addr:city": "LONG IS CITY", "addr:country": "US", "addr:full": "3620 30TH AVE", "addr:postcode": "11103", "addr:state": "NY", "amenity": "post_box", "brand": "United States Postal Service", "brand:wikidata": "Q668687", "collection_times": "Mo-Fr 14:00; Sa 08:00", "name": "USPS COLLECTION BOX - BLUE BOX", "note": "ON 12/24 AND 12/31, THIS BOX MAY BE COLLECTED AS EARLY AS 12 NOON.", "nsi_id": "unitedstatespostalservice-a77078", "operator": "United States Postal Service", "operator:short": "USPS", "operator:type": "public", "operator:wikidata": "Q668687", "ref": "1110300025"}, "type": "Feature"}
{"geometry": {"coordinates": [-73.9149394, 40.763775], "type": "Point"}, "id": "Og2JHfPc2qzSmUJ8XT_lcTvrqMQ=", "properties": {"@spider": "usps_collection_boxes", "addr:city": "LONG IS CITY", "addr:country": "US", "addr:full": "3001 STEINWAY ST", "addr:postcode": "11103", "addr:state": "NY", "amenity": "post_box", "brand": "United States Postal Service", "brand:wikidata": "Q668687", "collection_times": "Mo-Fr 14:00; Sa 08:00", "name": "USPS COLLECTION BOX - BLUE BOX", "note": "ON 12/24 AND 12/31, THIS BOX MAY BE COLLECTED AS EARLY AS 12 NOON.", "nsi_id": "unitedstatespostalservice-a77078", "operator": "United States Postal Service", "operator:short": "USPS", "operator:type": "public", "operator:wikidata": "Q668687", "ref": "1110300026"}, "type": "Feature"}
{"geometry": {"coordinates": [-73.9124668, 40.762794], "type": "Point"}, "id": "XoaQ1q3vZdq1cik0IeqMy1FfZb8=", "properties": {"@spider": "usps_collection_boxes", "addr:city": "LONG IS CITY", "addr:country": "US", "addr:full": "4319 30TH AVE", "addr:postcode": "11103", "addr:state": "NY", "amenity": "post_box", "brand": "United States Postal Service", "brand:wikidata": "Q668687", "collection_times": "Mo-Fr 14:00; Sa 08:00", "name": "USPS COLLECTION BOX - BLUE BOX", "note": "ON 12/24 AND 12/31, THIS BOX MAY BE COLLECTED AS EARLY AS 12 NOON.", "nsi_id": "unitedstatespostalservice-a77078", "operator": "United States Postal Service", "operator:short": "USPS", "operator:type": "public", "operator:wikidata": "Q668687", "ref": "1110300027"}, "type": "Feature"}
{"geometry": {"coordinates": [-73.9108125, 40.761711], "type": "Point"}, "id": "JvUxzIAf1DSlEAMP5UVS93Yol1I=", "properties": {"@spider": "usps_collection_boxes", "addr:city": "LONG IS CITY", "addr:country": "US", "addr:full": "4508 30TH AVE", "addr:postcode": "11103", "addr:state": "NY", "amenity": "post_box", "brand": "United States Postal Service", "brand:wikidata": "Q668687", "collection_times": "Mo-Fr 17:00; Sa 13:00", "name": "USPS COLLECTION BOX - BLUE BOX", "note": "ON 12/24 AND 12/31, THIS BOX MAY BE COLLECTED AS EARLY AS 12 NOON.", "nsi_id": "unitedstatespostalservice-a77078", "operator": "United States Postal Service", "operator:short": "USPS", "operator:type": "public", "operator:wikidata": "Q668687", "ref": "1110300028"}, "type": "Feature"}
{"geometry": {"coordinates": [-73.9086576, 40.761008], "type": "Point"}, "id": "sCKc1gZ9QaBZeXQwu6JbLmuO-ms=", "properties": {"@spider": "usps_collection_boxes", "addr:city": "LONG IS CITY", "addr:country": "US", "addr:full": "4717 30TH AVE", "addr:postcode": "11103", "addr:state": "NY", "amenity": "post_box", "brand": "United States Postal Service", "brand:wikidata": "Q668687", "collection_times": "Mo-Fr 14:00; Sa 08:00", "name": "USPS COLLECTION BOX - BLUE BOX", "note": "ON 12/24 AND 12/31, THIS BOX MAY BE COLLECTED AS EARLY AS 12 NOON.", "nsi_id": "unitedstatespostalservice-a77078", "operator": "United States Postal Service", "operator:short": "USPS", "operator:type": "public", "operator:wikidata": "Q668687", "ref": "1110300030"}, "type": "Feature"}
{"geometry": {"coordinates": [-73.9187131, 40.761981], "type": "Point"}, "id": "o31TtlMDfnFq021wO8klg5Fpmk4=", "properties": {"@spider": "usps_collection_boxes", "addr:city": "LONG IS CITY", "addr:country": "US", "addr:full": "3702 31ST AVE", "addr:postcode": "11103", "addr:state": "NY", "amenity": "post_box", "brand": "United States Postal Service", "brand:wikidata": "Q668687", "collection_times": "Mo-Fr 14:00; Sa 08:00", "name": "USPS COLLECTION BOX - BLUE BOX", "note": "ON 12/24 AND 12/31, THIS BOX MAY BE COLLECTED AS EARLY AS 12 NOON.", "nsi_id": "unitedstatespostalservice-a77078", "operator": "United States Postal Service", "operator:short": "USPS", "operator:type": "public", "operator:wikidata": "Q668687", "ref": "1110300031"}, "type": "Feature"}
{"geometry": {"coordinates": [-73.9153764, 40.760632], "type": "Point"}, "id": "Dy8IIdbg7A8MR58GDHaaGNeV3AY=", "properties": {"@spider": "usps_collection_boxes", "addr:city": "LONG IS CITY", "addr:country": "US", "addr:full": "4201 31ST AVE", "addr:postcode": "11103", "addr:state": "NY", "amenity": "post_box", "brand": "United States Postal Service", "brand:wikidata": "Q668687", "collection_times": "Mo-Fr 14:00; Sa 08:00", "name": "USPS COLLECTION BOX - BLUE BOX", "note": "ON 12/24 AND 12/31, THIS BOX MAY BE COLLECTED AS EARLY AS 12 NOON.", "nsi_id": "unitedstatespostalservice-a77078", "operator": "United States Postal Service", "operator:short": "USPS", "operator:type": "public", "operator:wikidata": "Q668687", "ref": "1110300033"}, "type": "Feature"}
{"geometry": {"coordinates": [-73.912137018, 40.758850011], "type": "Point"}, "id": "hZgvN-zS1-TUIUMyTpq28x60V48=", "properties": {"@spider": "usps_collection_boxes", "addr:city": "LONG IS CITY", "addr:country": "US", "addr:full": "4604 31ST AVE", "addr:postcode": "11103", "addr:state": "NY", "amenity": "post_box", "brand": "United States Postal Service", "brand:wikidata": "Q668687", "collection_times": "Mo-Fr 14:00; Sa 08:00", "name": "USPS COLLECTION BOX - BLUE BOX", "note": "ON 12/24 AND 12/31, THIS BOX MAY BE COLLECTED AS EARLY AS 12 NOON.", "nsi_id": "unitedstatespostalservice-a77078", "operator": "United States Postal Service", "operator:short": "USPS", "operator:type": "public", "operator:wikidata": "Q668687", "ref": "1110300034"}, "type": "Feature"}
{"geometry": {"coordinates": [-73.9105763, 40.758315], "type": "Point"}, "id": "719ynls4y_pQoU66h2zcX-I3tOE=", "properties": {"@spider": "usps_collection_boxes", "addr:city": "LONG IS CITY", "addr:country": "US", "addr:full": "4801 31ST AVE", "addr:postcode": "11103", "addr:state": "NY", "amenity": "post_box", "brand": "United States Postal Service", "brand:wikidata": "Q668687", "collection_times": "Mo-Fr 14:00; Sa 08:00", "name": "USPS COLLECTION BOX - BLUE BOX", "note": "ON 12/24 AND 12/31, THIS BOX MAY BE COLLECTED AS EARLY AS 12 NOON.", "nsi_id": "unitedstatespostalservice-a77078", "operator": "United States Postal Service", "operator:short": "USPS", "operator:type": "public", "operator:wikidata": "Q668687", "ref": "1110300035"}, "type": "Feature"}
{"geometry": {"coordinates": [-73.9188826, 40.759011], "type": "Point"}, "id": "dL668Nvq82f8E1XSK9tUrREJ57U=", "properties": {"@spider": "usps_collection_boxes", "addr:city": "LONG IS CITY", "addr:country": "US", "addr:full": "3191 STEINWAY ST", "addr:postcode": "11103", "addr:state": "NY", "amenity": "post_box", "brand": "United States Postal Service", "brand:wikidata": "Q668687", "collection_times": "Mo-Fr 14:00; Sa 08:00", "name": "USPS COLLECTION BOX - BLUE BOX", "note": "ON 12/24 AND 12/31, THIS BOX MAY BE COLLECTED AS EARLY AS 12 NOON.", "nsi_id": "unitedstatespostalservice-a77078", "operator": "United States Postal Service", "operator:short": "USPS", "operator:type": "public", "operator:wikidata": "Q668687", "ref": "1110300036"}, "type": "Feature"}
{"geometry": {"coordinates": [-73.916003, 40.769585], "type": "Point"}, "id": "aMQTk9DPH82DBEjdZqPSQaE3Azs=", "properties": {"@spider": "usps_collection_boxes", "addr:city": "LONG IS CITY", "addr:country": "US", "addr:full": "3310 ASTORIA BLVD", "addr:postcode": "11103", "addr:state": "NY", "amenity": "post_box", "brand": "United States Postal Service", "brand:wikidata": "Q668687", "collection_times": "Mo-Fr 14:00; Sa 08:00", "name": "USPS COLLECTION BOX - BLUE BOX", "note": "ON 12/24 AND 12/31, THIS BOX MAY BE COLLECTED AS EARLY AS 12 NOON.", "nsi_id": "unitedstatespostalservice-a77078", "operator": "United States Postal Service", "operator:short": "USPS", "operator:type": "public", "operator:wikidata": "Q668687", "ref": "1110300037"}, "type": "Feature"}
{"geometry": {"coordinates": [-73.916464, 40.757744], "type": "Point"}, "id": "eMB8Zr1C5d_EjJVtmXYm6fB8IWs=", "properties": {"@spider": "usps_collection_boxes", "addr:city": "LONG IS CITY", "addr:country": "US", "addr:full": "4304 BROADWAY", "addr:postcode": "11103", "addr:state": "NY", "amenity": "post_box", "brand": "United States Postal Service", "brand:wikidata": "Q668687", "collection_times": "Mo-Fr 17:00; Sa 13:00", "name": "USPS COLLECTION BOX - PO LOBBY", "note": "ON 12/24 AND 12/31, THIS BOX MAY BE COLLECTED AS EARLY AS 12 NOON.", "nsi_id": "unitedstatespostalservice-a77078", "operator": "United States Postal Service", "operator:short": "USPS", "operator:type": "public", "operator:wikidata": "Q668687", "ref": "1110300079"}, "type": "Feature"}
{"geometry": {"coordinates": [-73.910713, 40.761854], "type": "Point"}, "id": "Q5KvOq3Ze9q6qdNm4T7mXXlVxXY=", "properties": {"@spider": "usps_collection_boxes", "addr:city": "LONG IS CITY", "addr:country": "US", "addr:full": "4508 30TH AVE", "addr:postcode": "11103", "addr:state": "NY", "amenity": "post_box", "brand": "United States Postal Service", "brand:wikidata": "Q668687", "collection_times": "Mo-Fr 17:00", "name": "USPS COLLECTION BOX - PO LOBBY", "note": "ON 12/24 AND 12/31, THIS BOX MAY BE COLLECTED AS EARLY AS 12 NOON.", "nsi_id": "unitedstatespostalservice-a77078", "operator": "United States Postal Service", "operator:short": "USPS", "operator:type": "public", "operator:wikidata": "Q668687", "ref": "1110300080"}, "type": "Feature"}
{"geometry": {"coordinates": [-73.910716008, 40.761852099], "type": "Point"}, "id": "jUNjegakikMw1t6DHpbylqUBLX0=", "properties": {"@spider": "usps_collection_boxes", "addr:city": "LONG IS CITY", "addr:country": "US", "addr:full": "4508 30TH AVE STE A", "addr:postcode": "11103", "addr:state": "NY", "amenity": "post_box", "brand": "United States Postal Service", "brand:wikidata": "Q668687", "collection_times": "Mo-Fr 17:00", "name": "USPS COLLECTION BOX - PO LOBBY", "note": "ON 12/24 AND 12/31, THIS BOX MAY BE COLLECTED AS EARLY AS 12 NOON.", "nsi_id": "unitedstatespostalservice-a77078", "operator": "United States Postal Service", "operator:short": "USPS", "operator:type": "public", "operator:wikidata": "Q668687", "ref": "1110300085"}, "type": "Feature"}
{"geometry": {"coordinates": [-73.916466202, 40.757739121], "type": "Point"}, "id": "32D7rmy0D61sYsOZTa_mMHaQcJI=", "properties": {"@spider": "usps_collection_boxes", "addr:city": "LONG IS CITY", "addr:country": "US", "addr:full": "4304 BROADWAY", "addr:postcode": "11103", "addr:state": "NY", "amenity": "post_box", "brand": "United States Postal Service", "brand:wikidata": "Q668687", "collection_times": "Mo-Fr 17:00; Sa 13:00", "name": "USPS COLLECTION BOX - PO LOBBY", "note": "ON 12/24 AND 12/31, THIS BOX MAY BE COLLECTED AS EARLY AS 12 NOON.", "nsi_id": "unitedstatespostalservice-a77078", "operator": "United States Postal Service", "operator:short": "USPS", "operator:type": "public", "operator:wikidata": "Q668687", "ref": "1110300086"}, "type": "Feature"}
{"geometry": {"coordinates": [-73.9192825204, 40.7419774409], "type": "Point"}, "id": "UN9hNDZJ1Hk1lKb6R92ryElFJFw=", "properties": {"@spider": "usps_collection_boxes", "addr:city": "LONG IS CITY", "addr:country": "US", "addr:full": "4544 GREENPOINT AVE", "addr:postcode": "11104", "addr:state": "NY", "amenity": "post_box", "brand": "United States Postal Service", "brand:wikidata": "Q668687", "collection_times": "Mo-Fr 09:00; Sa 08:00", "name": "USPS COLLECTION BOX - BLUE BOX", "nsi_id": "unitedstatespostalservice-a77078", "operator": "United States Postal Service", "operator:short": "USPS", "operator:type": "public", "operator:wikidata": "Q668687", "ref": "1110400002"}, "type": "Feature"}
{"geometry": {"coordinates": [-73.9251919, 40.74375], "type": "Point"}, "id": "Ce7yD56iR9jv3uhWageQZm_RKwQ=", "properties": {"@spider": "usps_collection_boxes", "addr:city": "LONG IS CITY", "addr:country": "US", "addr:full": "3924 QUEENS BLVD", "addr:postcode": "11104", "addr:state": "NY", "amenity": "post_box", "brand": "United States Postal Service", "brand:wikidata": "Q668687", "collection_times": "Mo-Fr 09:00; Sa 08:00", "name": "USPS COLLECTION BOX - BLUE BOX", "nsi_id": "unitedstatespostalservice-a77078", "operator": "United States Postal Service", "operator:short": "USPS", "operator:type": "public", "operator:wikidata": "Q668687", "ref": "1110400005"}, "type": "Feature"}
{"geometry": {"coordinates": [-73.9242383, 40.744088], "type": "Point"}, "id": "kdvMerDKe7VQOZ0CAaNF3t7Gs7E=", "properties": {"@spider": "usps_collection_boxes", "addr:city": "LONG IS CITY", "addr:country": "US", "addr:full": "3951 QUEENS BLVD", "addr:postcode": "11104", "addr:state": "NY", "amenity": "post_box", "brand": "United States Postal Service", "brand:wikidata": "Q668687", "collection_times": "Mo-Fr 09:00; Sa 08:00", "name": "USPS COLLECTION BOX - BLUE BOX", "nsi_id": "unitedstatespostalservice-a77078", "operator": "United States Postal Service", "operator:short": "USPS", "operator:type": "public", "operator:wikidata": "Q668687", "ref": "1110400006"}, "type": "Feature"}
{"geometry": {"coordinates": [-73.9235576, 40.74359], "type": "Point"}, "id": "zTubsSweEEzWHmgsoqp7mAuHIlo=", "properties": {"@spider": "usps_collection_boxes", "addr:city": "LONG IS CITY", "addr:country": "US", "addr:full": "4102 QUEENS BLVD", "addr:postcode": "11104", "addr:state": "NY", "amenity": "post_box", "brand": "United States Postal Service", "brand:wikidata": "Q668687", "collection_times": "Mo-Fr 09:00; Sa 08:00", "name": "USPS COLLECTION BOX - BLUE BOX", "nsi_id": "unitedstatespostalservice-a77078", "operator": "United States Postal Service", "operator:short": "USPS", "operator:type": "public", "operator:wikidata": "Q668687", "ref": "1110400008"}, "type": "Feature"}
{"geometry": {"coordinates": [-73.9217182, 40.74332], "type": "Point"}, "id": "BjGE7HqjXtd9hhWAb3ag3O31eWk=", "properties": {"@spider": "usps_collection_boxes", "addr:city": "LONG IS CITY", "addr:country": "US", "addr:full": "4220 QUEENS BLVD", "addr:postcode": "11104", "addr:state": "NY", "amenity": "post_box", "brand": "United States Postal Service", "brand:wikidata": "Q668687", "collection_times": "Mo-Fr 09:00; Sa 08:00", "name": "USPS COLLECTION BOX - BLUE BOX", "nsi_id": "unitedstatespostalservice-a77078", "operator": "United States Postal Service", "operator:short": "USPS", "operator:type": "public", "operator:wikidata": "Q668687", "ref": "1110400009"}, "type": "Feature"}
{"geometry": {"coordinates": [-73.9213143, 40.743691], "type": "Point"}, "id": "WwMk6RL6-2mfJcWHFSQZQ0Gm_EA=", "properties": {"@spider": "usps_collection_boxes", "addr:city": "LONG IS CITY", "addr:country": "US", "addr:full": "4301 QUEENS BLVD", "addr:postcode": "11104", "addr:state": "NY", "amenity": "post_box", "brand": "United States Postal Service", "brand:wikidata": "Q668687", "collection_times": "Mo-Fr 09:00; Sa 08:00", "name": "USPS COLLECTION BOX - BLUE BOX", "nsi_id": "unitedstatespostalservice-a77078", "operator": "United States Postal Service", "operator:short": "USPS", "operator:type": "public", "operator:wikidata": "Q668687", "ref": "1110400010"}, "type": "Feature"}
{"geometry": {"coordinates": [-73.9195036, 40.743484], "type": "Point"}, "id": "17C41UjZvp3S6jzTJLbFNqM2KLs=", "properties": {"@spider": "usps_collection_boxes", "addr:city": "LONG IS CITY", "addr:country": "US", "addr:full": "4423 QUEENS BLVD", "addr:postcode": "11104", "addr:state": "NY", "amenity": "post_box", "brand": "United States Postal Service", "brand:wikidata": "Q668687", "collection_times": "Mo-Fr 09:00; Sa 08:00", "name": "USPS COLLECTION BOX - BLUE BOX", "nsi_id": "unitedstatespostalservice-a77078", "operator": "United States Postal Service", "operator:short": "USPS", "operator:type": "public", "operator:wikidata": "Q668687", "ref": "1110400011"}, "type": "Feature"}
{"geometry": {"coordinates": [-73.9178269, 40.743312], "type": "Point"}, "id": "dIPWhO4EVzik55QT8sANNumcTJQ=", "properties": {"@spider": "usps_collection_boxes", "addr:city": "LONG IS CITY", "addr:country": "US", "addr:full": "4625 QUEENS BLVD", "addr:postcode": "11104", "addr:state": "NY", "amenity": "post_box", "brand": "United States Postal Service", "brand:wikidata": "Q668687", "collection_times": "Mo-Fr 09:00; Sa 08:00", "name": "USPS COLLECTION BOX - BLUE BOX", "nsi_id": "unitedstatespostalservice-a77078", "operator": "United States Postal Service", "operator:short": "USPS", "operator:type": "public", "operator:wikidata": "Q668687", "ref": "1110400012"}, "type": "Feature"}
{"geometry": {"coordinates": [-73.9243956, 40.747247], "type": "Point"}, "id": "yRdhEHqo5nQvdEx_zoUDyKrb_ao=", "properties": {"@spider": "usps_collection_boxes", "addr:city": "LONG IS CITY", "addr:country": "US", "addr:full": "3925 SKILLMAN AVE", "addr:postcode": "11104", "addr:state": "NY", "amenity": "post_box", "brand": "United States Postal Service", "brand:wikidata": "Q668687", "collection_times": "Mo-Fr 09:00; Sa 08:00", "name": "USPS COLLECTION BOX - BLUE BOX", "nsi_id": "unitedstatespostalservice-a77078", "operator": "United States Postal Service", "operator:short": "USPS", "operator:type": "public", "operator:wikidata": "Q668687", "ref": "1110400014"}, "type": "Feature"}
{"geometry": {"coordinates": [-73.9188437, 40.746603], "type": "Point"}, "id": "fE7R_jgtues7uD0pgLdeM1o2ew0=", "properties": {"@spider": "usps_collection_boxes", "addr:city": "LONG IS CITY", "addr:country": "US", "addr:full": "4502 SKILLMAN AVE", "addr:postcode": "11104", "addr:state": "NY", "amenity": "post_box", "brand": "United States Postal Service", "brand:wikidata": "Q668687", "collection_times": "Mo-Fr 09:00; Sa 08:00", "name": "USPS COLLECTION BOX - BLUE BOX", "nsi_id": "unitedstatespostalservice-a77078", "operator": "United States Postal Service", "operator:short": "USPS", "operator:type": "public", "operator:wikidata": "Q668687", "ref": "1110400017"}, "type": "Feature"}
{"geometry": {"coordinates": [-73.9171227, 40.746526], "type": "Point"}, "id": "6PyUpyOwEjVkM1xkAhMVzz-jxec=", "properties": {"@spider": "usps_collection_boxes", "addr:city": "LONG IS CITY", "addr:country": "US", "addr:full": "4631 SKILLMAN AVE", "addr:postcode": "11104", "addr:state": "NY", "amenity": "post_box", "brand": "United States Postal Service", "brand:wikidata": "Q668687", "collection_times": "Mo-Fr 09:00; Sa 08:00", "name": "USPS COLLECTION BOX - BLUE BOX", "nsi_id": "unitedstatespostalservice-a77078", "operator": "United States Postal Service", "operator:short": "USPS", "operator:type": "public", "operator:wikidata": "Q668687", "ref": "1110400018"}, "type": "Feature"}
{"geometry": {"coordinates": [-73.9160333, 40.746457], "type": "Point"}, "id": "b_eQb9ygOlRu65I9J7r_pgg_u48=", "properties": {"@spider": "usps_collection_boxes", "addr:city": "LONG IS CITY", "addr:country": "US", "addr:full": "4803 SKILLMAN AVE", "addr:postcode": "11104", "addr:state": "NY", "amenity": "post_box", "brand": "United States Postal Service", "brand:wikidata": "Q668687", "collection_times": "Mo-Fr 09:00; Sa 08:00", "name": "USPS COLLECTION BOX - BLUE BOX", "nsi_id": "unitedstatespostalservice-a77078", "operator": "United States Postal Service", "operator:short": "USPS", "operator:type": "public", "operator:wikidata": "Q668687", "ref": "1110400019"}, "type": "Feature"}
{"geometry": {"coordinates": [-73.9155763, 40.74899], "type": "Point"}, "id": "6WYbDAeeMXMoxf3PD-dI5uf0EfQ=", "properties": {"@spider": "usps_collection_boxes", "addr:city": "LONG IS CITY", "addr:country": "US", "addr:full": "3903 48TH ST", "addr:postcode": "11104", "addr:state": "NY", "amenity": "post_box", "brand": "United States Postal Service", "brand:wikidata": "Q668687", "collection_times": "Mo-Fr 09:00; Sa 08:00", "name": "USPS COLLECTION BOX - BLUE BOX", "nsi_id": "unitedstatespostalservice-a77078", "operator": "United States Postal Service", "operator:short": "USPS", "operator:type": "public", "operator:wikidata": "Q668687", "ref": "1110400022"}, "type": "Feature"}
{"geometry": {"coordinates": [-73.9128653, 40.748843], "type": "Point"}, "id": "V1eD-s6HYUwi9o8v_0syqfaZFDg=", "properties": {"@spider": "usps_collection_boxes", "addr:city": "LONG IS CITY", "addr:country": "US", "addr:full": "5101 39TH AVE", "addr:postcode": "11104", "addr:state": "NY", "amenity": "post_box", "brand": "United States Postal Service", "brand:wikidata": "Q668687", "collection_times": "Mo-Fr 09:00; Sa 08:00", "name": "USPS COLLECTION BOX - BLUE BOX", "nsi_id": "unitedstatespostalservice-a77078", "operator": "United States Postal Service", "operator:short": "USPS", "operator:type": "public", "operator:wikidata": "Q668687", "ref": "1110400023"}, "type": "Feature"}
{"geometry": {"coordinates": [-73.9256688, 40.745696], "type": "Point"}, "id": "Sw6ruIsDcis_f_pW5K1Ap6YUj_0=", "properties": {"@spider": "usps_collection_boxes", "addr:city": "LONG IS CITY", "addr:country": "US", "addr:full": "4301 39TH ST", "addr:postcode": "11104", "addr:state": "NY", "amenity": "post_box", "brand": "United States Postal Service", "brand:wikidata": "Q668687", "collection_times": "Mo-Fr 09:00; Sa 08:00", "name": "USPS COLLECTION BOX - BLUE BOX", "nsi_id": "unitedstatespostalservice-a77078", "operator": "United States Postal Service", "operator:short": "USPS", "operator:type": "public", "operator:wikidata": "Q668687", "ref": "1110400025"}, "type": "Feature"}
{"geometry": {"coordinates": [-73.9219958, 40.745291], "type": "Point"}, "id": "X_co6CHHl2XgqePH79uU8PP-Unc=", "properties": {"@spider": "usps_collection_boxes", "addr:city": "LONG IS CITY", "addr:country": "US", "addr:full": "4202 43RD AVE", "addr:postcode": "11104", "addr:state": "NY", "amenity": "post_box", "brand": "United States Postal Service", "brand:wikidata": "Q668687", "collection_times": "Mo-Fr 09:00; Sa 08:00", "name": "USPS COLLECTION BOX - BLUE BOX", "nsi_id": "unitedstatespostalservice-a77078", "operator": "United States Postal Service", "operator:short": "USPS", "operator:type": "public", "operator:wikidata": "Q668687", "ref": "1110400027"}, "type": "Feature"}
{"geometry": {"coordinates": [-73.920172, 40.745125], "type": "Point"}, "id": "RC16_NRc7qunkFAtmhhtEc9rqic=", "properties": {"@spider": "usps_collection_boxes", "addr:city": "LONG IS CITY", "addr:country": "US", "addr:full": "4402 43RD AVE", "addr:postcode": "11104", "addr:state": "NY", "amenity": "post_box", "brand": "United States Postal Service", "brand:wikidata": "Q668687", "collection_times": "Mo-Fr 09:00; Sa 08:00", "name": "USPS COLLECTION BOX - BLUE BOX", "nsi_id": "unitedstatespostalservice-a77078", "operator": "United States Postal Service", "operator:short": "USPS", "operator:type": "public", "operator:wikidata": "Q668687", "ref": "1110400028"}, "type": "Feature"}
{"geometry": {"coordinates": [-73.9184674, 40.744971], "type": "Point"}, "id": "7301wCF1t4PSul9Sm1csyEYF6gc=", "properties": {"@spider": "usps_collection_boxes", "addr:city": "LONG IS CITY", "addr:country": "US", "addr:full": "4515 43RD AVE", "addr:postcode": "11104", "addr:state": "NY", "amenity": "post_box", "brand": "United States Postal Service", "brand:wikidata": "Q668687", "collection_times": "Mo-Fr 09:00; Sa 08:00", "name": "USPS COLLECTION BOX - BLUE BOX", "nsi_id": "unitedstatespostalservice-a77078", "operator": "United States Postal Service", "operator:short": "USPS", "operator:type": "public", "operator:wikidata": "Q668687", "ref": "1110400029"}, "type": "Feature"}
{"geometry": {"coordinates": [-73.9156917, 40.744663], "type": "Point"}, "id": "PCjCnn-WhGdFtX-JDFizq4xdHtU=", "properties": {"@spider": "usps_collection_boxes", "addr:city": "LONG IS CITY", "addr:country": "US", "addr:full": "4819 43RD AVE", "addr:postcode": "11104", "addr:state": "NY", "amenity": "post_box", "brand": "United States Postal Service", "brand:wikidata": "Q668687", "collection_times": "Mo-Fr 09:00; Sa 08:00", "name": "USPS COLLECTION BOX - BLUE BOX", "nsi_id": "unitedstatespostalservice-a77078", "operator": "United States Postal Service", "operator:short": "USPS", "operator:type": "public", "operator:wikidata": "Q668687", "ref": "1110400030"}, "type": "Feature"}
{"geometry": {"coordinates": [-73.9265459, 40.742074], "type": "Point"}, "id": "NMaoJTGPOvUnNwSHTADPMgEMR_8=", "properties": {"@spider": "usps_collection_boxes", "addr:city": "LONG IS CITY", "addr:country": "US", "addr:full": "3919 47TH AVE", "addr:postcode": "11104", "addr:state": "NY", "amenity": "post_box", "brand": "United States Postal Service", "brand:wikidata": "Q668687", "collection_times": "Mo-Fr 09:00; Sa 08:00", "name": "USPS COLLECTION BOX - BLUE BOX", "nsi_id": "unitedstatespostalservice-a77078", "operator": "United States Postal Service", "operator:short": "USPS", "operator:type": "public", "operator:wikidata": "Q668687", "ref": "1110400031"}, "type": "Feature"}
{"geometry": {"coordinates": [-73.9211866, 40.741424], "type": "Point"}, "id": "Q_YfnN2e5vD6KCbx6JX9Fg6ukls=", "properties": {"@spider": "usps_collection_boxes", "addr:city": "LONG IS CITY", "addr:country": "US", "addr:full": "4309 47TH AVE", "addr:postcode": "11104", "addr:state": "NY", "amenity": "post_box", "brand": "United States Postal Service", "brand:wikidata": "Q668687", "collection_times": "Mo-Fr 09:00; Sa 08:00", "name": "USPS COLLECTION BOX - BLUE BOX", "nsi_id": "unitedstatespostalservice-a77078", "operator": "United States Postal Service", "operator:short": "USPS", "operator:type": "public", "operator:wikidata": "Q668687", "ref": "1110400032"}, "type": "Feature"}
{"geometry": {"coordinates": [-73.9239076, 40.740126], "type": "Point"}, "id": "DaiJ4YI5x3oaOb4r8OWWd_kPdP8=", "properties": {"@spider": "usps_collection_boxes", "addr:city": "LONG IS CITY", "addr:country": "US", "addr:full": "4102 48TH AVE", "addr:postcode": "11104", "addr:state": "NY", "amenity": "post_box", "brand": "United States Postal Service", "brand:wikidata": "Q668687", "collection_times": "Mo-Fr 09:00; Sa 08:00", "name": "USPS COLLECTION BOX - BLUE BOX", "nsi_id": "unitedstatespostalservice-a77078", "operator": "United States Postal Service", "operator:short": "USPS", "operator:type": "public", "operator:wikidata": "Q668687", "ref": "1110400034"}, "type": "Feature"}
{"geometry": {"coordinates": [-73.9243703, 40.738031], "type": "Point"}, "id": "sfDXrZDDFHT6rkCc44Rj94XIz7c=", "properties": {"@spider": "usps_collection_boxes", "addr:city": "LONG IS CITY", "addr:country": "US", "addr:full": "4115 50TH AVE", "addr:postcode": "11104", "addr:state": "NY", "amenity": "post_box", "brand": "United States Postal Service", "brand:wikidata": "Q668687", "collection_times": "Mo-Fr 09:00; Sa 08:00", "name": "USPS COLLECTION BOX - BLUE BOX", "nsi_id": "unitedstatespostalservice-a77078", "operator": "United States Postal Service", "operator:short": "USPS", "operator:type": "public", "operator:wikidata": "Q668687", "ref": "1110400035"}, "type": "Feature"}
{"geometry": {"coordinates": [-73.9185709, 40.742945], "type": "Point"}, "id": "n8cCY-5rsEHIafbhy36gN7LXMTQ=", "properties": {"@spider": "usps_collection_boxes", "addr:city": "LONG IS CITY", "addr:country": "US", "addr:full": "4602 QUEENS BLVD", "addr:postcode": "11104", "addr:state": "NY", "amenity": "post_box", "brand": "United States Postal Service", "brand:wikidata": "Q668687", "collection_times": "Mo-Fr 09:00; Sa 08:00", "name": "USPS COLLECTION BOX - BLUE BOX", "nsi_id": "unitedstatespostalservice-a77078", "operator": "United States Postal Service", "operator:short": "USPS", "operator:type": "public", "operator:wikidata": "Q668687", "ref": "1110400036"}, "type": "Feature"}
{"geometry": {"coordinates": [-73.9207329, 40.742619], "type": "Point"}, "id": "JqkwkgUK1ArvYgU1-1PgY80J1kU=", "properties": {"@spider": "usps_collection_boxes", "addr:city": "LONG IS CITY", "addr:country": "US", "addr:full": "4515 44TH ST", "addr:postcode": "11104", "addr:state": "NY", "amenity": "post_box", "brand": "United States Postal Service", "brand:wikidata": "Q668687", "collection_times": "Mo-Fr 17:00; Sa 13:00", "name": "USPS COLLECTION BOX - EXPRESS", "note": "ON 12/24 AND 12/31, THIS BOX MAY BE COLLECTED AS EARLY AS 12 NOON.", "nsi_id": "unitedstatespostalservice-a77078", "operator": "United States Postal Service", "operator:short": "USPS", "operator:type": "public", "operator:wikidata": "Q668687", "ref": "1110400039"}, "type": "Feature"}
{"geometry": {"coordinates": [-73.9101317, 40.749804], "type": "Point"}, "id": "zE4vlZQez7hLXKxdy1pf1kECsI0=", "properties": {"@spider": "usps_collection_boxes", "addr:city": "LONG IS CITY", "addr:country": "US", "addr:full": "5235 BARNETT AVE", "addr:postcode": "11104", "addr:state": "NY", "amenity": "post_box", "brand": "United States Postal Service", "brand:wikidata": "Q668687", "collection_times": "Mo-Fr 09:00; Sa 08:00", "name": "USPS COLLECTION BOX - BLUE BOX", "nsi_id": "unitedstatespostalservice-a77078", "operator": "United States Postal Service", "operator:short": "USPS", "operator:type": "public", "operator:wikidata": "Q668687", "ref": "1110400074"}, "type": "Feature"}
{"geometry": {"coordinates": [-73.922913, 40.745471], "type": "Point"}, "id": "C96bz8hAC56cqt4q78tFshy-Cn8=", "properties": {"@spider": "usps_collection_boxes", "addr:city": "LONG IS CITY", "addr:country": "US", "addr:full": "4141 41ST ST", "addr:postcode": "11104", "addr:state": "NY", "amenity": "post_box", "brand": "United States Postal Service", "brand:wikidata": "Q668687", "collection_times": "Mo-Fr 09:00; Sa 08:00", "name": "USPS COLLECTION BOX - BLUE BOX", "nsi_id": "unitedstatespostalservice-a77078", "operator": "United States Postal Service", "operator:short": "USPS", "operator:type": "public", "operator:wikidata": "Q668687", "ref": "1110400076"}, "type": "Feature"}
{"geometry": {"coordinates": [-73.9207116, 40.742703], "type": "Point"}, "id": "L4imyMv3Rw_XtPVB3ETq9Llze_4=", "properties": {"@spider": "usps_collection_boxes", "addr:city": "LONG IS CITY", "addr:country": "US", "addr:full": "4515 44TH ST", "addr:postcode": "11104", "addr:state": "NY", "amenity": "post_box", "brand": "United States Postal Service", "brand:wikidata": "Q668687", "collection_times": "Mo-Fr 17:00; Sa 13:00", "name": "USPS COLLECTION BOX - APC", "note": "ON 12/24 AND 12/31, THIS BOX MAY BE COLLECTED AS EARLY AS 12 NOON.", "nsi_id": "unitedstatespostalservice-a77078", "operator": "United States Postal Service", "operator:short": "USPS", "operator:type": "public", "operator:wikidata": "Q668687", "ref": "1110400077"}, "type": "Feature"}
{"geometry": {"coordinates": [-73.920667, 40.742683], "type": "Point"}, "id": "JTZZB1Yo2cn7ZM6P33PzSXflyIE=", "properties": {"@spider": "usps_collection_boxes", "addr:city": "LONG IS CITY", "addr:country": "US", "addr:full": "4515 44TH ST", "addr:postcode": "11104", "addr:state": "NY", "amenity": "post_box", "brand": "United States Postal Service", "brand:wikidata": "Q668687", "collection_times": "Mo-Fr 17:00; Sa 13:00", "name": "USPS COLLECTION BOX - PO LOBBY", "note": "ON 12/24 AND 12/31, THIS BOX MAY BE COLLECTED AS EARLY AS 12 NOON.", "nsi_id": "unitedstatespostalservice-a77078", "operator": "United States Postal Service", "operator:short": "USPS", "operator:type": "public", "operator:wikidata": "Q668687", "ref": "1110400078"}, "type": "Feature"}
{"geometry": {"coordinates": [-73.920664919, 40.742682109], "type": "Point"}, "id": "ksOXDavpUFTj0FFzy2EBG134B8s=", "properties": {"@spider": "usps_collection_boxes", "addr:city": "LONG IS CITY", "addr:country": "US", "addr:full": "4515 44TH ST", "addr:postcode": "11104", "addr:state": "NY", "amenity": "post_box", "brand": "United States Postal Service", "brand:wikidata": "Q668687", "collection_times": "Mo-Fr 17:00; Sa 13:00", "name": "USPS COLLECTION BOX - PO LOBBY", "note": "ON 12/24 AND 12/31, THIS BOX MAY BE COLLECTED AS EARLY AS 12 NOON.", "nsi_id": "unitedstatespostalservice-a77078", "operator": "United States Postal Service", "operator:short": "USPS", "operator:type": "public", "operator:wikidata": "Q668687", "ref": "1110400081"}, "type": "Feature"}
{"geometry": {"coordinates": [-73.9180507, 40.781379], "type": "Point"}, "id": "Cm6vd6zsi8mDaVSlue8sOJc7rmQ=", "properties": {"@spider": "usps_collection_boxes", "addr:city": "LONG IS CITY", "addr:country": "US", "addr:full": "1859 DITMARS BLVD", "addr:postcode": "11105", "addr:state": "NY", "amenity": "post_box", "brand": "United States Postal Service", "brand:wikidata": "Q668687", "collection_times": "Mo-Fr 09:00; Sa 08:00", "name": "USPS COLLECTION BOX - BLUE BOX", "nsi_id": "unitedstatespostalservice-a77078", "operator": "United States Postal Service", "operator:short": "USPS", "operator:type": "public", "operator:wikidata": "Q668687", "ref": "1110500001"}, "type": "Feature"}
{"geometry": {"coordinates": [-73.9169153, 40.780275], "type": "Point"}, "id": "gr09s6JzuGXd0kNSmmjK2gFPbTc=", "properties": {"@spider": "usps_collection_boxes", "addr:city": "LONG IS CITY", "addr:country": "US", "addr:full": "2102 DITMARS BLVD", "addr:postcode": "11105", "addr:state": "NY", "amenity": "post_box", "brand": "United States Postal Service", "brand:wikidata": "Q668687", "collection_times": "Mo-Fr 09:00; Sa 08:00", "name": "USPS COLLECTION BOX - BLUE BOX", "nsi_id": "unitedstatespostalservice-a77078", "operator": "United States Postal Service", "operator:short": "USPS", "operator:type": "public", "operator:wikidata": "Q668687", "ref": "1110500002"}, "type": "Feature"}
{"geometry": {"coordinates": [-73.9145844, 40.77874], "type": "Point"}, "id": "eDh1rMB_hvaGtY7pISVf_HZJsTU=", "properties": {"@spider": "usps_collection_boxes", "addr:city": "LONG IS CITY", "addr:country": "US", "addr:full": "2420 DITMARS BLVD", "addr:postcode": "11105", "addr:state": "NY", "amenity": "post_box", "brand": "United States Postal Service", "brand:wikidata": "Q668687", "collection_times": "Mo-Fr 09:00; Sa 08:00", "name": "USPS COLLECTION BOX - BLUE BOX", "nsi_id": "unitedstatespostalservice-a77078", "operator": "United States Postal Service", "operator:short": "USPS", "operator:type": "public", "operator:wikidata": "Q668687", "ref": "1110500003"}, "type": "Feature"}
{"geometry": {"coordinates": [-73.9130805, 40.777734], "type": "Point"}, "id": "Tc5Fv1EDK6nq9INuxO-_yU63j0Y=", "properties": {"@spider": "usps_collection_boxes", "addr:city": "LONG IS CITY", "addr:country": "US", "addr:full": "2702 DITMARS BLVD", "addr:postcode": "11105", "addr:state": "NY", "amenity": "post_box", "brand": "United States Postal Service", "brand:wikidata": "Q668687", "collection_times": "Mo-Fr 09:00; Sa 08:00", "name": "USPS COLLECTION BOX - BLUE BOX", "nsi_id": "unitedstatespostalservice-a77078", "operator": "United States Postal Service", "operator:short": "USPS", "operator:type": "public", "operator:wikidata": "Q668687", "ref": "1110500004"}, "type": "Feature"}
{"geometry": {"coordinates": [-73.9109359, 40.776059], "type": "Point"}, "id": "v6sQ1vfkVHPRLkAbl0fjdHF7MNw=", "properties": {"@spider": "usps_collection_boxes", "addr:city": "LONG IS CITY", "addr:country": "US", "addr:full": "2202 31ST ST", "addr:postcode": "11105", "addr:state": "NY", "amenity": "post_box", "brand": "United States Postal Service", "brand:wikidata": "Q668687", "collection_times": "Mo-Fr 09:00; Sa 08:00", "name": "USPS COLLECTION BOX - BLUE BOX", "nsi_id": "unitedstatespostalservice-a77078", "operator": "United States Postal Service", "operator:short": "USPS", "operator:type": "public", "operator:wikidata": "Q668687", "ref": "1110500005"}, "type": "Feature"}
{"geometry": {"coordinates": [-73.9090399, 40.774856], "type": "Point"}, "id": "QHX1wXHIaZTAAVIuGKFSobcbk-0=", "properties": {"@spider": "usps_collection_boxes", "addr:city": "LONG IS CITY", "addr:country": "US", "addr:full": "3320 DITMARS BLVD", "addr:postcode": "11105", "addr:state": "NY", "amenity": "post_box", "brand": "United States Postal Service", "brand:wikidata": "Q668687", "collection_times": "Mo-Fr 09:00; Sa 08:00", "name": "USPS COLLECTION BOX - BLUE BOX", "nsi_id": "unitedstatespostalservice-a77078", "operator": "United States Postal Service", "operator:short": "USPS", "operator:type": "public", "operator:wikidata": "Q668687", "ref": "1110500006"}, "type": "Feature"}
{"geometry": {"coordinates": [-73.9073695, 40.773855], "type": "Point"}, "id": "PvUNHvLmnX9tc-BsA6Pjubysfwk=", "properties": {"@spider": "usps_collection_boxes", "addr:city": "LONG IS CITY", "addr:country": "US", "addr:full": "3701 DITMARS BLVD", "addr:postcode": "11105", "addr:state": "NY", "amenity": "post_box", "brand": "United States Postal Service", "brand:wikidata": "Q668687", "collection_times": "Mo-Fr 09:00; Sa 08:00", "name": "USPS COLLECTION BOX - BLUE BOX", "nsi_id": "unitedstatespostalservice-a77078", "operator": "United States Postal Service", "operator:short": "USPS", "operator:type": "public", "operator:wikidata": "Q668687", "ref": "1110500007"}, "type": "Feature"}
{"geometry": {"coordinates": [-73.9061619, 40.773018], "type": "Point"}, "id": "sU-5BlB3xNGBHyWfUTeiRb_smKA=", "properties": {"@spider": "usps_collection_boxes", "addr:city": "LONG IS CITY", "addr:country": "US", "addr:full": "3815 DITMARS BLVD", "addr:postcode": "11105", "addr:state": "NY", "amenity": "post_box", "brand": "United States Postal Service", "brand:wikidata": "Q668687", "collection_times": "Mo-Fr 09:00; Sa 08:00", "name": "USPS COLLECTION BOX - BLUE BOX", "nsi_id": "unitedstatespostalservice-a77078", "operator": "United States Postal Service", "operator:short": "USPS", "operator:type": "public", "operator:wikidata": "Q668687", "ref": "1110500008"}, "type": "Feature"}
{"geometry": {"coordinates": [-73.9032222, 40.770975], "type": "Point"}, "id": "E8MLVXPsfRAK5DCbaIQxXfdr_Lo=", "properties": {"@spider": "usps_collection_boxes", "addr:city": "LONG IS CITY", "addr:country": "US", "addr:full": "4321 DITMARS BLVD", "addr:postcode": "11105", "addr:state": "NY", "amenity": "post_box", "brand": "United States Postal Service", "brand:wikidata": "Q668687", "collection_times": "Mo-Fr 09:00; Sa 08:00", "name": "USPS COLLECTION BOX - BLUE BOX", "nsi_id": "unitedstatespostalservice-a77078", "operator": "United States Postal Service", "operator:short": "USPS", "operator:type": "public", "operator:wikidata": "Q668687", "ref": "1110500009"}, "type": "Feature"}
{"geometry": {"coordinates": [-73.9019168, 40.769833], "type": "Point"}, "id": "F0_BLR8nQoHo84MdRGvh36zKxnI=", "properties": {"@spider": "usps_collection_boxes", "addr:city": "LONG IS CITY", "addr:country": "US", "addr:full": "4620 DITMARS BLVD", "addr:postcode": "11105", "addr:state": "NY", "amenity": "post_box", "brand": "United States Postal Service", "brand:wikidata": "Q668687", "collection_times": "Mo-Fr 09:00; Sa 08:00", "name": "USPS COLLECTION BOX - BLUE BOX", "nsi_id": "unitedstatespostalservice-a77078", "operator": "United States Postal Service", "operator:short": "USPS", "operator:type": "public", "operator:wikidata": "Q668687", "ref": "1110500010"}, "type": "Feature"}
{"geometry": {"coordinates": [-73.9030262, 40.777586], "type": "Point"}, "id": "4ht7YP9G-Pqlx5KFmJ13pk7ztVU=", "properties": {"@spider": "usps_collection_boxes", "addr:city": "LONG IS CITY", "addr:country": "US", "addr:full": "1950 37TH ST", "addr:postcode": "11105", "addr:state": "NY", "amenity": "post_box", "brand": "United States Postal Service", "brand:wikidata": "Q668687", "collection_times": "Mo-Fr 09:00; Sa 08:00", "name": "USPS COLLECTION BOX - BLUE BOX", "nsi_id": "unitedstatespostalservice-a77078", "operator": "United States Postal Service", "operator:short": "USPS", "operator:type": "public", "operator:wikidata": "Q668687", "ref": "1110500011"}, "type": "Feature"}
{"geometry": {"coordinates": [-73.8994609, 40.778175], "type": "Point"}, "id": "YxKUTOX3IteWVtfaDoBJuDvKyj4=", "properties": {"@spider": "usps_collection_boxes", "addr:city": "LONG IS CITY", "addr:country": "US", "addr:full": "1902 STEINWAY ST", "addr:postcode": "11105", "addr:state": "NY", "amenity": "post_box", "brand": "United States Postal Service", "brand:wikidata": "Q668687", "collection_times": "Mo-Fr 09:00; Sa 08:00", "name": "USPS COLLECTION BOX - BLUE BOX", "nsi_id": "unitedstatespostalservice-a77078", "operator": "United States Postal Service", "operator:short": "USPS", "operator:type": "public", "operator:wikidata": "Q668687", "ref": "1110500012"}, "type": "Feature"}
{"geometry": {"coordinates": [-73.9169727, 40.784054], "type": "Point"}, "id": "BSa_G_p3pbtz3JCZiK1bWU8T-zo=", "properties": {"@spider": "usps_collection_boxes", "addr:city": "LONG IS CITY", "addr:country": "US", "addr:full": "2075 SHORE BLVD", "addr:postcode": "11105", "addr:state": "NY", "amenity": "post_box", "brand": "United States Postal Service", "brand:wikidata": "Q668687", "collection_times": "Mo-Fr 09:00; Sa 08:00", "name": "USPS COLLECTION BOX - BLUE BOX", "nsi_id": "unitedstatespostalservice-a77078", "operator": "United States Postal Service", "operator:short": "USPS", "operator:type": "public", "operator:wikidata": "Q668687", "ref": "1110500015"}, "type": "Feature"}
{"geometry": {"coordinates": [-73.9144082, 40.782256], "type": "Point"}, "id": "TPQ4PV0cPWkA9tKt54Vvsgm8h9Q=", "properties": {"@spider": "usps_collection_boxes", "addr:city": "LONG IS CITY", "addr:country": "US", "addr:full": "2102 21ST AVE", "addr:postcode": "11105", "addr:state": "NY", "amenity": "post_box", "brand": "United States Postal Service", "brand:wikidata": "Q668687", "collection_times": "Mo-Fr 09:00; Sa 08:00", "name": "USPS COLLECTION BOX - BLUE BOX", "nsi_id": "unitedstatespostalservice-a77078", "operator": "United States Postal Service", "operator:short": "USPS", "operator:type": "public", "operator:wikidata": "Q668687", "ref": "1110500016"}, "type": "Feature"}
{"geometry": {"coordinates": [-73.9120983, 40.780621], "type": "Point"}, "id": "WzCDBu_66LqfR8r-kS9g3kAznbo=", "properties": {"@spider": "usps_collection_boxes", "addr:city": "LONG IS CITY", "addr:country": "US", "addr:full": "2075 CRESCENT ST", "addr:postcode": "11105", "addr:state": "NY", "amenity": "post_box", "brand": "United States Postal Service", "brand:wikidata": "Q668687", "collection_times": "Mo-Fr 09:00; Sa 08:00", "name": "USPS COLLECTION BOX - BLUE BOX", "nsi_id": "unitedstatespostalservice-a77078", "operator": "United States Postal Service", "operator:short": "USPS", "operator:type": "public", "operator:wikidata": "Q668687", "ref": "1110500017"}, "type": "Feature"}
{"geometry": {"coordinates": [-73.9084666, 40.778106], "type": "Point"}, "id": "4vBWcMMNO8c0_w-KD2rpP-N_YI4=", "properties": {"@spider": "usps_collection_boxes", "addr:city": "LONG IS CITY", "addr:country": "US", "addr:full": "2923 21ST AVE", "addr:postcode": "11105", "addr:state": "NY", "amenity": "post_box", "brand": "United States Postal Service", "brand:wikidata": "Q668687", "collection_times": "Mo-Fr 09:00; Sa 08:00", "name": "USPS COLLECTION BOX - BLUE BOX", "nsi_id": "unitedstatespostalservice-a77078", "operator": "United States Postal Service", "operator:short": "USPS", "operator:type": "public", "operator:wikidata": "Q668687", "ref": "1110500018"}, "type": "Feature"}
{"geometry": {"coordinates": [-73.9040146, 40.774643], "type": "Point"}, "id": "bmtVkz6yMWK1-NZu75jk8zqkbGg=", "properties": {"@spider": "usps_collection_boxes", "addr:city": "LONG IS CITY", "addr:country": "US", "addr:full": "2102 STEINWAY ST", "addr:postcode": "11105", "addr:state": "NY", "amenity": "post_box", "brand": "United States Postal Service", "brand:wikidata": "Q668687", "collection_times": "Mo-Fr 09:00; Sa 08:00", "name": "USPS COLLECTION BOX - BLUE BOX", "nsi_id": "unitedstatespostalservice-a77078", "operator": "United States Postal Service", "operator:short": "USPS", "operator:type": "public", "operator:wikidata": "Q668687", "ref": "1110500019"}, "type": "Feature"}
{"geometry": {"coordinates": [-73.9018081, 40.773167], "type": "Point"}, "id": "HAUy-YHq7KmD1kdm4GUnp2U9AR4=", "properties": {"@spider": "usps_collection_boxes", "addr:city": "LONG IS CITY", "addr:country": "US", "addr:full": "4220 21ST AVE", "addr:postcode": "11105", "addr:state": "NY", "amenity": "post_box", "brand": "United States Postal Service", "brand:wikidata": "Q668687", "collection_times": "Mo-Fr 09:00; Sa 08:00", "name": "USPS COLLECTION BOX - BLUE BOX", "nsi_id": "unitedstatespostalservice-a77078", "operator": "United States Postal Service", "operator:short": "USPS", "operator:type": "public", "operator:wikidata": "Q668687", "ref": "1110500020"}, "type": "Feature"}
{"geometry": {"coordinates": [-73.8986374, 40.771171], "type": "Point"}, "id": "0VnTVMoFuaQAGpDgWF9I8y5641M=", "properties": {"@spider": "usps_collection_boxes", "addr:city": "LONG IS CITY", "addr:country": "US", "addr:full": "4803 21ST AVE", "addr:postcode": "11105", "addr:state": "NY", "amenity": "post_box", "brand": "United States Postal Service", "brand:wikidata": "Q668687", "collection_times": "Mo-Fr 09:00; Sa 08:00", "name": "USPS COLLECTION BOX - BLUE BOX", "nsi_id": "unitedstatespostalservice-a77078", "operator": "United States Postal Service", "operator:short": "USPS", "operator:type": "public", "operator:wikidata": "Q668687", "ref": "1110500021"}, "type": "Feature"}
{"geometry": {"coordinates": [-73.915184, 40.775926], "type": "Point"}, "id": "2t-7STXB7BwT_6M2TD1Da8aTz-4=", "properties": {"@spider": "usps_collection_boxes", "addr:city": "LONG IS CITY", "addr:country": "US", "addr:full": "2702 23RD AVE", "addr:postcode": "11105", "addr:state": "NY", "amenity": "post_box", "brand": "United States Postal Service", "brand:wikidata": "Q668687", "collection_times": "Mo-Fr 09:00; Sa 08:00", "name": "USPS COLLECTION BOX - BLUE BOX", "nsi_id": "unitedstatespostalservice-a77078", "operator": "United States Postal Service", "operator:short": "USPS", "operator:type": "public", "operator:wikidata": "Q668687", "ref": "1110500023"}, "type": "Feature"}
{"geometry": {"coordinates": [-73.9139081, 40.775184], "type": "Point"}, "id": "HEUbhZAcKF9HcmsdGPyn5KRJKLE=", "properties": {"@spider": "usps_collection_boxes", "addr:city": "LONG IS CITY", "addr:country": "US", "addr:full": "2819 23RD AVE", "addr:postcode": "11105", "addr:state": "NY", "amenity": "post_box", "brand": "United States Postal Service", "brand:wikidata": "Q668687", "collection_times": "Mo-Fr 09:00; Sa 08:00", "name": "USPS COLLECTION BOX - BLUE BOX", "nsi_id": "unitedstatespostalservice-a77078", "operator": "United States Postal Service", "operator:short": "USPS", "operator:type": "public", "operator:wikidata": "Q668687", "ref": "1110500024"}, "type": "Feature"}
{"geometry": {"coordinates": [-73.910948, 40.773088], "type": "Point"}, "id": "9GqySujp1rTpvVT1pDG44G_ADUg=", "properties": {"@spider": "usps_collection_boxes", "addr:city": "LONG IS CITY", "addr:country": "US", "addr:full": "3501 23RD AVE", "addr:postcode": "11105", "addr:state": "NY", "amenity": "post_box", "brand": "United States Postal Service", "brand:wikidata": "Q668687", "collection_times": "Mo-Fr 09:00; Sa 08:00", "name": "USPS COLLECTION BOX - BLUE BOX", "nsi_id": "unitedstatespostalservice-a77078", "operator": "United States Postal Service", "operator:short": "USPS", "operator:type": "public", "operator:wikidata": "Q668687", "ref": "1110500025"}, "type": "Feature"}
{"geometry": {"coordinates": [-73.9082761, 40.771229], "type": "Point"}, "id": "g19VEZD3myloDJ9WxkpY-bF8jIA=", "properties": {"@spider": "usps_collection_boxes", "addr:city": "LONG IS CITY", "addr:country": "US", "addr:full": "3819 23RD AVE", "addr:postcode": "11105", "addr:state": "NY", "amenity": "post_box", "brand": "United States Postal Service", "brand:wikidata": "Q668687", "collection_times": "Mo-Fr 09:00; Sa 08:00", "name": "USPS COLLECTION BOX - BLUE BOX", "nsi_id": "unitedstatespostalservice-a77078", "operator": "United States Postal Service", "operator:short": "USPS", "operator:type": "public", "operator:wikidata": "Q668687", "ref": "1110500026"}, "type": "Feature"}
{"geometry": {"coordinates": [-73.9061219, 40.769709], "type": "Point"}, "id": "Wx2pr4xc9y4saj2PvuNMQpeAtIs=", "properties": {"@spider": "usps_collection_boxes", "addr:city": "LONG IS CITY", "addr:country": "US", "addr:full": "4219 23RD AVE", "addr:postcode": "11105", "addr:state": "NY", "amenity": "post_box", "brand": "United States Postal Service", "brand:wikidata": "Q668687", "collection_times": "Mo-Fr 09:00; Sa 08:00", "name": "USPS COLLECTION BOX - BLUE BOX", "nsi_id": "unitedstatespostalservice-a77078", "operator": "United States Postal Service", "operator:short": "USPS", "operator:type": "public", "operator:wikidata": "Q668687", "ref": "1110500027"}, "type": "Feature"}
{"geometry": {"coordinates": [-73.9117749, 40.775202], "type": "Point"}, "id": "3RbV4BUPQiLosnqUoSAFCxc8crQ=", "properties": {"@spider": "usps_collection_boxes", "addr:city": "LONG IS CITY", "addr:country": "US", "addr:full": "2239 31ST ST", "addr:postcode": "11105", "addr:state": "NY", "amenity": "post_box", "brand": "United States Postal Service", "brand:wikidata": "Q668687", "collection_times": "Mo-Fr 09:00; Sa 08:00", "name": "USPS COLLECTION BOX - BLUE BOX", "nsi_id": "unitedstatespostalservice-a77078", "operator": "United States Postal Service", "operator:short": "USPS", "operator:type": "public", "operator:wikidata": "Q668687", "ref": "1110500028"}, "type": "Feature"}
{"geometry": {"coordinates": [-73.9125426, 40.774696], "type": "Point"}, "id": "y_9RcSag7fZ3wPr2K6JGflhhgVA=", "properties": {"@spider": "usps_collection_boxes", "addr:city": "LONG IS CITY", "addr:country": "US", "addr:full": "2268 31ST ST", "addr:postcode": "11105", "addr:state": "NY", "amenity": "post_box", "brand": "United States Postal Service", "brand:wikidata": "Q668687", "collection_times": "Mo-Fr 17:00; Sa 13:00", "name": "USPS COLLECTION BOX - BLUE BOX", "note": "ON 12/24 AND 12/31, THIS BOX MAY BE COLLECTED AS EARLY AS 12 NOON.", "nsi_id": "unitedstatespostalservice-a77078", "operator": "United States Postal Service", "operator:short": "USPS", "operator:type": "public", "operator:wikidata": "Q668687", "ref": "1110500030"}, "type": "Feature"}
{"geometry": {"coordinates": [-73.899816937, 40.775174297], "type": "Point"}, "id": "uSMVF-xP0G5USbjkRYU95l5FOMI=", "properties": {"@spider": "usps_collection_boxes", "addr:city": "LONG IS CITY", "addr:country": "US", "addr:full": "4207 20TH AVE", "addr:postcode": "11105", "addr:state": "NY", "amenity": "post_box", "brand": "United States Postal Service", "brand:wikidata": "Q668687", "collection_times": "Mo-Fr 09:00; Sa 08:00", "name": "USPS COLLECTION BOX - BLUE BOX", "nsi_id": "unitedstatespostalservice-a77078", "operator": "United States Postal Service", "operator:short": "USPS", "operator:type": "public", "operator:wikidata": "Q668687", "ref": "1110500035"}, "type": "Feature"}
{"geometry": {"coordinates": [-73.8982193, 40.773912], "type": "Point"}, "id": "34aJn0LEJ9MeixhV-jv71adXTyE=", "properties": {"@spider": "usps_collection_boxes", "addr:city": "LONG IS CITY", "addr:country": "US", "addr:full": "2002 46TH ST", "addr:postcode": "11105", "addr:state": "NY", "amenity": "post_box", "brand": "United States Postal Service", "brand:wikidata": "Q668687", "collection_times": "Mo-Fr 09:00; Sa 08:00", "name": "USPS COLLECTION BOX - BLUE BOX", "nsi_id": "unitedstatespostalservice-a77078", "operator": "United States Postal Service", "operator:short": "USPS", "operator:type": "public", "operator:wikidata": "Q668687", "ref": "1110500036"}, "type": "Feature"}
{"geometry": {"coordinates": [-73.9171712, 40.777471], "type": "Point"}, "id": "wPinmiUYdm4nWGVxUC48560fthw=", "properties": {"@spider": "usps_collection_boxes", "addr:city": "LONG IS CITY", "addr:country": "US", "addr:full": "2401 23RD AVE", "addr:postcode": "11105", "addr:state": "NY", "amenity": "post_box", "brand": "United States Postal Service", "brand:wikidata": "Q668687", "collection_times": "Mo-Fr 09:00; Sa 08:00", "name": "USPS COLLECTION BOX - BLUE BOX", "nsi_id": "unitedstatespostalservice-a77078", "operator": "United States Postal Service", "operator:short": "USPS", "operator:type": "public", "operator:wikidata": "Q668687", "ref": "1110500037"}, "type": "Feature"}
{"geometry": {"coordinates": [-73.912589, 40.77463], "type": "Point"}, "id": "y5e9ddk8rKf5LXN0UiMlrydhkX8=", "properties": {"@spider": "usps_collection_boxes", "addr:city": "LONG IS CITY", "addr:country": "US", "addr:full": "2268 31ST ST", "addr:postcode": "11105", "addr:state": "NY", "amenity": "post_box", "brand": "United States Postal Service", "brand:wikidata": "Q668687", "collection_times": "Mo-Fr 17:00; Sa 13:00", "name": "USPS COLLECTION BOX - APC", "note": "ON 12/24 AND 12/31, THIS BOX MAY BE COLLECTED AS EARLY AS 12 NOON.", "nsi_id": "unitedstatespostalservice-a77078", "operator": "United States Postal Service", "operator:short": "USPS", "operator:type": "public", "operator:wikidata": "Q668687", "ref": "1110500076"}, "type": "Feature"}
{"geometry": {"coordinates": [-73.9128112, 40.774876], "type": "Point"}, "id": "0RCDtrd5cROWPuxQc1sU0AhwPrs=", "properties": {"@spider": "usps_collection_boxes", "addr:city": "LONG IS CITY", "addr:country": "US", "addr:full": "2268 31ST ST", "addr:postcode": "11105", "addr:state": "NY", "amenity": "post_box", "brand": "United States Postal Service", "brand:wikidata": "Q668687", "collection_times": "Mo-Fr 17:00; Sa 13:00", "name": "USPS COLLECTION BOX - PO LOBBY", "note": "ON 12/24 AND 12/31, THIS BOX MAY BE COLLECTED AS EARLY AS 12 NOON.", "nsi_id": "unitedstatespostalservice-a77078", "operator": "United States Postal Service", "operator:short": "USPS", "operator:type": "public", "operator:wikidata": "Q668687", "ref": "1110500077"}, "type": "Feature"}
{"geometry": {"coordinates": [-73.912591818, 40.77466479], "type": "Point"}, "id": "WdEaZ3KOtI4ESCGdILSjzIILPYs=", "properties": {"@spider": "usps_collection_boxes", "addr:city": "LONG IS CITY", "addr:country": "US", "addr:full": "2268 31ST ST", "addr:postcode": "11105", "addr:state": "NY", "amenity": "post_box", "brand": "United States Postal Service", "brand:wikidata": "Q668687", "collection_times": "Mo-Fr 17:00; Sa 13:00", "name": "USPS COLLECTION BOX - PO LOBBY", "note": "ON 12/24 AND 12/31, THIS BOX MAY BE COLLECTED AS EARLY AS 12 NOON.", "nsi_id": "unitedstatespostalservice-a77078", "operator": "United States Postal Service", "operator:short": "USPS", "operator:type": "public", "operator:wikidata": "Q668687", "ref": "1110500079"}, "type": "Feature"}
{"geometry": {"coordinates": [-73.9358954, 40.767458], "type": "Point"}, "id": "43h92Nulu4uDxZ_VoY3N6tuG0wo=", "properties": {"@spider": "usps_collection_boxes", "addr:city": "LONG IS CITY", "addr:country": "US", "addr:full": "1106 BROADWAY", "addr:postcode": "11106", "addr:state": "NY", "amenity": "post_box", "brand": "United States Postal Service", "brand:wikidata": "Q668687", "collection_times": "Mo-Fr 11:00; Sa 08:00", "name": "USPS COLLECTION BOX - BLUE BOX", "nsi_id": "unitedstatespostalservice-a77078", "operator": "United States Postal Service", "operator:short": "USPS", "operator:type": "public", "operator:wikidata": "Q668687", "ref": "1110600001"}, "type": "Feature"}
{"geometry": {"coordinates": [-73.9305029, 40.76517], "type": "Point"}, "id": "ifufmPb7BK8-Jb2-6Ia0Zw5TQI4=", "properties": {"@spider": "usps_collection_boxes", "addr:city": "LONG IS CITY", "addr:country": "US", "addr:full": "2117 BROADWAY", "addr:postcode": "11106", "addr:state": "NY", "amenity": "post_box", "brand": "United States Postal Service", "brand:wikidata": "Q668687", "collection_times": "Mo-Fr 17:00; Sa 13:00", "name": "USPS COLLECTION BOX - EXPRESS", "note": "ON 12/24 AND 12/31, THIS BOX MAY BE COLLECTED AS EARLY AS 12 NOON.", "nsi_id": "unitedstatespostalservice-a77078", "operator": "United States Postal Service", "operator:short": "USPS", "operator:type": "public", "operator:wikidata": "Q668687", "ref": "1110600002"}, "type": "Feature"}
{"geometry": {"coordinates": [-73.9286441549, 40.7634876789], "type": "Point"}, "id": "1W2DAbUkfdxq5uZdcGGgCWKOerc=", "properties": {"@spider": "usps_collection_boxes", "addr:city": "LONG IS CITY", "addr:country": "US", "addr:full": "2356 BROADWAY", "addr:postcode": "11106", "addr:state": "NY", "amenity": "post_box", "brand": "United States Postal Service", "brand:wikidata": "Q668687", "collection_times": "Mo-Fr 11:00; Sa 08:00", "name": "USPS COLLECTION BOX - BLUE BOX", "nsi_id": "unitedstatespostalservice-a77078", "operator": "United States Postal Service", "operator:short": "USPS", "operator:type": "public", "operator:wikidata": "Q668687", "ref": "1110600003"}, "type": "Feature"}
{"geometry": {"coordinates": [-73.9270379, 40.762824], "type": "Point"}, "id": "PCBUxDJ5b5aXB-l9xGT0K4Rzgzs=", "properties": {"@spider": "usps_collection_boxes", "addr:city": "LONG IS CITY", "addr:country": "US", "addr:full": "2541 BROADWAY", "addr:postcode": "11106", "addr:state": "NY", "amenity": "post_box", "brand": "United States Postal Service", "brand:wikidata": "Q668687", "collection_times": "Mo-Fr 11:00; Sa 08:00", "name": "USPS COLLECTION BOX - BLUE BOX", "nsi_id": "unitedstatespostalservice-a77078", "operator": "United States Postal Service", "operator:short": "USPS", "operator:type": "public", "operator:wikidata": "Q668687", "ref": "1110600004"}, "type": "Feature"}
{"geometry": {"coordinates": [-73.9255966, 40.762067], "type": "Point"}, "id": "q5ZbZ2sg95PXRuhBSsbYT95ky1o=", "properties": {"@spider": "usps_collection_boxes", "addr:city": "LONG IS CITY", "addr:country": "US", "addr:full": "3017 BROADWAY", "addr:postcode": "11106", "addr:state": "NY", "amenity": "post_box", "brand": "United States Postal Service", "brand:wikidata": "Q668687", "collection_times": "Mo-Fr 11:00; Sa 08:00", "name": "USPS COLLECTION BOX - BLUE BOX", "nsi_id": "unitedstatespostalservice-a77078", "operator": "United States Postal Service", "operator:short": "USPS", "operator:type": "public", "operator:wikidata": "Q668687", "ref": "1110600005"}, "type": "Feature"}
{"geometry": {"coordinates": [-73.9238714589, 40.7612959406], "type": "Point"}, "id": "wcIgpWSPFyL261_cZ63Uji-5GkY=", "properties": {"@spider": "usps_collection_boxes", "addr:city": "LONG IS CITY", "addr:country": "US", "addr:full": "3221 BROADWAY", "addr:postcode": "11106", "addr:state": "NY", "amenity": "post_box", "brand": "United States Postal Service", "brand:wikidata": "Q668687", "collection_times": "Mo-Fr 11:00; Sa 08:00", "name": "USPS COLLECTION BOX - BLUE BOX", "nsi_id": "unitedstatespostalservice-a77078", "operator": "United States Postal Service", "operator:short": "USPS", "operator:type": "public", "operator:wikidata": "Q668687", "ref": "1110600006"}, "type": "Feature"}
{"geometry": {"coordinates": [-73.9212470345, 40.759951511], "type": "Point"}, "id": "c5ECQWkDiRFUu8Mr5UVckN4oqlc=", "properties": {"@spider": "usps_collection_boxes", "addr:city": "LONG IS CITY", "addr:country": "US", "addr:full": "3602 BROADWAY", "addr:postcode": "11106", "addr:state": "NY", "amenity": "post_box", "brand": "United States Postal Service", "brand:wikidata": "Q668687", "collection_times": "Mo-Fr 11:00; Sa 08:00", "name": "USPS COLLECTION BOX - BLUE BOX", "nsi_id": "unitedstatespostalservice-a77078", "operator": "United States Postal Service", "operator:short": "USPS", "operator:type": "public", "operator:wikidata": "Q668687", "ref": "1110600007"}, "type": "Feature"}
{"geometry": {"coordinates": [-73.9322003, 40.768213], "type": "Point"}, "id": "1WZu69RcT2T6ycDxhXOZc_COQ0A=", "properties": {"@spider": "usps_collection_boxes", "addr:city": "LONG IS CITY", "addr:country": "US", "addr:full": "3114 14TH ST", "addr:postcode": "11106", "addr:state": "NY", "amenity": "post_box", "brand": "United States Postal Service", "brand:wikidata": "Q668687", "collection_times": "Mo-Fr 11:00; Sa 08:00", "name": "USPS COLLECTION BOX - BLUE BOX", "nsi_id": "unitedstatespostalservice-a77078", "operator": "United States Postal Service", "operator:short": "USPS", "operator:type": "public", "operator:wikidata": "Q668687", "ref": "1110600009"}, "type": "Feature"}
{"geometry": {"coordinates": [-73.929869, 40.767178], "type": "Point"}, "id": "Rw1fGxRp32VmAllZgipHI_5fPp8=", "properties": {"@spider": "usps_collection_boxes", "addr:city": "LONG IS CITY", "addr:country": "US", "addr:full": "3101 21ST ST", "addr:postcode": "11106", "addr:state": "NY", "amenity": "post_box", "brand": "United States Postal Service", "brand:wikidata": "Q668687", "collection_times": "Mo-Fr 11:00; Sa 08:00", "name": "USPS COLLECTION BOX - BLUE BOX", "nsi_id": "unitedstatespostalservice-a77078", "operator": "United States Postal Service", "operator:short": "USPS", "operator:type": "public", "operator:wikidata": "Q668687", "ref": "1110600010"}, "type": "Feature"}
{"geometry": {"coordinates": [-73.9265842094, 40.7655661192], "type": "Point"}, "id": "Bt7F5GLE6evzzjimv54BOORrcAw=", "properties": {"@spider": "usps_collection_boxes", "addr:city": "LONG IS CITY", "addr:country": "US", "addr:full": "3104 CRESCENT ST", "addr:postcode": "11106", "addr:state": "NY", "amenity": "post_box", "brand": "United States Postal Service", "brand:wikidata": "Q668687", "collection_times": "Mo-Fr 11:00; Sa 08:00", "name": "USPS COLLECTION BOX - BLUE BOX", "nsi_id": "unitedstatespostalservice-a77078", "operator": "United States Postal Service", "operator:short": "USPS", "operator:type": "public", "operator:wikidata": "Q668687", "ref": "1110600011"}, "type": "Feature"}
{"geometry": {"coordinates": [-73.9250519, 40.765038], "type": "Point"}, "id": "x41wMApqeHddeTvG_FUdmhOwsbQ=", "properties": {"@spider": "usps_collection_boxes", "addr:city": "LONG IS CITY", "addr:country": "US", "addr:full": "2908 31ST AVE", "addr:postcode": "11106", "addr:state": "NY", "amenity": "post_box", "brand": "United States Postal Service", "brand:wikidata": "Q668687", "collection_times": "Mo-Fr 11:00; Sa 08:00", "name": "USPS COLLECTION BOX - BLUE BOX", "nsi_id": "unitedstatespostalservice-a77078", "operator": "United States Postal Service", "operator:short": "USPS", "operator:type": "public", "operator:wikidata": "Q668687", "ref": "1110600012"}, "type": "Feature"}
{"geometry": {"coordinates": [-73.932065, 40.761955], "type": "Point"}, "id": "foNd-bYoxHcjqJ6t6Ig_oRmISrI=", "properties": {"@spider": "usps_collection_boxes", "addr:city": "LONG IS CITY", "addr:country": "US", "addr:full": "3102 31ST AVE", "addr:postcode": "11106", "addr:state": "NY", "amenity": "post_box", "brand": "United States Postal Service", "brand:wikidata": "Q668687", "collection_times": "Mo-Fr 11:00; Sa 08:00", "name": "USPS COLLECTION BOX - BLUE BOX", "nsi_id": "unitedstatespostalservice-a77078", "operator": "United States Postal Service", "operator:short": "USPS", "operator:type": "public", "operator:wikidata": "Q668687", "ref": "1110600013"}, "type": "Feature"}
{"geometry": {"coordinates": [-73.9210784, 40.76313], "type": "Point"}, "id": "Ay1mmtiNVUoxi9TX1ywJvuuB19o=", "properties": {"@spider": "usps_collection_boxes", "addr:city": "LONG IS CITY", "addr:country": "US", "addr:full": "3402 31ST AVE", "addr:postcode": "11106", "addr:state": "NY", "amenity": "post_box", "brand": "United States Postal Service", "brand:wikidata": "Q668687", "collection_times": "Mo-Fr 11:00; Sa 08:00", "name": "USPS COLLECTION BOX - BLUE BOX", "nsi_id": "unitedstatespostalservice-a77078", "operator": "United States Postal Service", "operator:short": "USPS", "operator:type": "public", "operator:wikidata": "Q668687", "ref": "1110600014"}, "type": "Feature"}
{"geometry": {"coordinates": [-73.9329426, 40.763808], "type": "Point"}, "id": "lUExX77jFHHIFtiegJ7Ma-wM_pY=", "properties": {"@spider": "usps_collection_boxes", "addr:city": "LONG IS CITY", "addr:country": "US", "addr:full": "2110 33RD RD", "addr:postcode": "11106", "addr:state": "NY", "amenity": "post_box", "brand": "United States Postal Service", "brand:wikidata": "Q668687", "collection_times": "Mo-Fr 11:00; Sa 08:00", "name": "USPS COLLECTION BOX - BLUE BOX", "nsi_id": "unitedstatespostalservice-a77078", "operator": "United States Postal Service", "operator:short": "USPS", "operator:type": "public", "operator:wikidata": "Q668687", "ref": "1110600015"}, "type": "Feature"}
{"geometry": {"coordinates": [-73.938669, 40.765023], "type": "Point"}, "id": "oS71DmD1kYw6tTpRfQO-_rwU1ck=", "properties": {"@spider": "usps_collection_boxes", "addr:city": "LONG IS CITY", "addr:country": "US", "addr:full": "919 34TH AVE", "addr:postcode": "11106", "addr:state": "NY", "amenity": "post_box", "brand": "United States Postal Service", "brand:wikidata": "Q668687", "collection_times": "Mo-Fr 11:00; Sa 08:00", "name": "USPS COLLECTION BOX - BLUE BOX", "nsi_id": "unitedstatespostalservice-a77078", "operator": "United States Postal Service", "operator:short": "USPS", "operator:type": "public", "operator:wikidata": "Q668687", "ref": "1110600016"}, "type": "Feature"}
{"geometry": {"coordinates": [-73.9341385, 40.762775], "type": "Point"}, "id": "jjyjfOPkw5UDhX2Dw8wSYMYc184=", "properties": {"@spider": "usps_collection_boxes", "addr:city": "LONG IS CITY", "addr:country": "US", "addr:full": "1 34 AVE", "addr:postcode": "11106", "addr:state": "NY", "amenity": "post_box", "brand": "United States Postal Service", "brand:wikidata": "Q668687", "collection_times": "Mo-Fr 11:00; Sa 08:00", "name": "USPS COLLECTION BOX - BLUE BOX", "nsi_id": "unitedstatespostalservice-a77078", "operator": "United States Postal Service", "operator:short": "USPS", "operator:type": "public", "operator:wikidata": "Q668687", "ref": "1110600017"}, "type": "Feature"}
{"geometry": {"coordinates": [-73.929917694, 40.7619643477], "type": "Point"}, "id": "0p6tZITF0Wd4XyS-i9fSxiMlM8Y=", "properties": {"@spider": "usps_collection_boxes", "addr:city": "LONG IS CITY", "addr:country": "US", "addr:full": "3352 CRESCENT ST", "addr:postcode": "11106", "addr:state": "NY", "amenity": "post_box", "brand": "United States Postal Service", "brand:wikidata": "Q668687", "collection_times": "Mo-Fr 11:00; Sa 08:00", "name": "USPS COLLECTION BOX - BLUE BOX", "nsi_id": "unitedstatespostalservice-a77078", "operator": "United States Postal Service", "operator:short": "USPS", "operator:type": "public", "operator:wikidata": "Q668687", "ref": "1110600018"}, "type": "Feature"}
{"geometry": {"coordinates": [-73.9282073, 40.760092], "type": "Point"}, "id": "MqUrJm7cvkKFxM6Hhh19i-oJM8o=", "properties": {"@spider": "usps_collection_boxes", "addr:city": "LONG IS CITY", "addr:country": "US", "addr:full": "3402 30TH ST", "addr:postcode": "11106", "addr:state": "NY", "amenity": "post_box", "brand": "United States Postal Service", "brand:wikidata": "Q668687", "collection_times": "Mo-Fr 11:00; Sa 08:00", "name": "USPS COLLECTION BOX - BLUE BOX", "nsi_id": "unitedstatespostalservice-a77078", "operator": "United States Postal Service", "operator:short": "USPS", "operator:type": "public", "operator:wikidata": "Q668687", "ref": "1110600019"}, "type": "Feature"}
{"geometry": {"coordinates": [-73.9248827, 40.758635], "type": "Point"}, "id": "Jw_cYsrGgwFAgmkSlFdEmRm3_Po=", "properties": {"@spider": "usps_collection_boxes", "addr:city": "LONG IS CITY", "addr:country": "US", "addr:full": "3286 34TH ST", "addr:postcode": "11106", "addr:state": "NY", "amenity": "post_box", "brand": "United States Postal Service", "brand:wikidata": "Q668687", "collection_times": "Mo-Fr 11:00; Sa 08:00", "name": "USPS COLLECTION BOX - BLUE BOX", "nsi_id": "unitedstatespostalservice-a77078", "operator": "United States Postal Service", "operator:short": "USPS", "operator:type": "public", "operator:wikidata": "Q668687", "ref": "1110600020"}, "type": "Feature"}
{"geometry": {"coordinates": [-73.9412886, 40.76376], "type": "Point"}, "id": "MKGxQOCozt4TRpbEEDWxkg0dTCk=", "properties": {"@spider": "usps_collection_boxes", "addr:city": "LONG IS CITY", "addr:country": "US", "addr:full": "3461 VERNON BLVD", "addr:postcode": "11106", "addr:state": "NY", "amenity": "post_box", "brand": "United States Postal Service", "brand:wikidata": "Q668687", "collection_times": "Mo-Fr 11:00; Sa 08:00", "name": "USPS COLLECTION BOX - BLUE BOX", "nsi_id": "unitedstatespostalservice-a77078", "operator": "United States Postal Service", "operator:short": "USPS", "operator:type": "public", "operator:wikidata": "Q668687", "ref": "1110600021"}, "type": "Feature"}
{"geometry": {"coordinates": [-73.935383, 40.761218], "type": "Point"}, "id": "fj0xWgHC8zg1t8IIinEO5h3u084=", "properties": {"@spider": "usps_collection_boxes", "addr:city": "LONG IS CITY", "addr:country": "US", "addr:full": "3505 21ST ST", "addr:postcode": "11106", "addr:state": "NY", "amenity": "post_box", "brand": "United States Postal Service", "brand:wikidata": "Q668687", "collection_times": "Mo-Fr 11:00; Sa 08:00", "name": "USPS COLLECTION BOX - BLUE BOX", "nsi_id": "unitedstatespostalservice-a77078", "operator": "United States Postal Service", "operator:short": "USPS", "operator:type": "public", "operator:wikidata": "Q668687", "ref": "1110600022"}, "type": "Feature"}
{"geometry": {"coordinates": [-73.9307199, 40.759242], "type": "Point"}, "id": "kK5gwqP_Wd2zpiuMy_REoD9qJjo=", "properties": {"@spider": "usps_collection_boxes", "addr:city": "LONG IS CITY", "addr:country": "US", "addr:full": "3457 28TH ST", "addr:postcode": "11106", "addr:state": "NY", "amenity": "post_box", "brand": "United States Postal Service", "brand:wikidata": "Q668687", "collection_times": "Mo-Fr 11:00; Sa 08:00", "name": "USPS COLLECTION BOX - BLUE BOX", "nsi_id": "unitedstatespostalservice-a77078", "operator": "United States Postal Service", "operator:short": "USPS", "operator:type": "public", "operator:wikidata": "Q668687", "ref": "1110600023"}, "type": "Feature"}
{"geometry": {"coordinates": [-73.9283061, 40.758074], "type": "Point"}, "id": "HPSrAQBMAnCyYvNM6hio3m_MCZQ=", "properties": {"@spider": "usps_collection_boxes", "addr:city": "LONG IS CITY", "addr:country": "US", "addr:full": "3109 35TH AVE", "addr:postcode": "11106", "addr:state": "NY", "amenity": "post_box", "brand": "United States Postal Service", "brand:wikidata": "Q668687", "collection_times": "Mo-Fr 11:00; Sa 08:00", "name": "USPS COLLECTION BOX - BLUE BOX", "nsi_id": "unitedstatespostalservice-a77078", "operator": "United States Postal Service", "operator:short": "USPS", "operator:type": "public", "operator:wikidata": "Q668687", "ref": "1110600024"}, "type": "Feature"}
{"geometry": {"coordinates": [-73.9253145, 40.756664], "type": "Point"}, "id": "v5lDk4xFZ_S5maAXHiyS0dC5v44=", "properties": {"@spider": "usps_collection_boxes", "addr:city": "LONG IS CITY", "addr:country": "US", "addr:full": "3535 35TH ST", "addr:postcode": "11106", "addr:state": "NY", "amenity": "post_box", "brand": "United States Postal Service", "brand:wikidata": "Q668687", "collection_times": "Mo-Fr 11:00; Sa 08:00", "name": "USPS COLLECTION BOX - BLUE BOX", "nsi_id": "unitedstatespostalservice-a77078", "operator": "United States Postal Service", "operator:short": "USPS", "operator:type": "public", "operator:wikidata": "Q668687", "ref": "1110600025"}, "type": "Feature"}
{"geometry": {"coordinates": [-73.9390947, 40.760727], "type": "Point"}, "id": "ItmCCJQYZ4N_W0IozwdYVohuSQY=", "properties": {"@spider": "usps_collection_boxes", "addr:city": "LONG IS CITY", "addr:country": "US", "addr:full": "1202 36TH AVE", "addr:postcode": "11106", "addr:state": "NY", "amenity": "post_box", "brand": "United States Postal Service", "brand:wikidata": "Q668687", "collection_times": "Mo-Fr 11:00; Sa 08:00", "name": "USPS COLLECTION BOX - BLUE BOX", "nsi_id": "unitedstatespostalservice-a77078", "operator": "United States Postal Service", "operator:short": "USPS", "operator:type": "public", "operator:wikidata": "Q668687", "ref": "1110600026"}, "type": "Feature"}
{"geometry": {"coordinates": [-73.9343027, 40.758804], "type": "Point"}, "id": "WY1KHjyq_-j8xCtdkaQDWVbB7Xc=", "properties": {"@spider": "usps_collection_boxes", "addr:city": "LONG IS CITY", "addr:country": "US", "addr:full": "3552 24TH ST", "addr:postcode": "11106", "addr:state": "NY", "amenity": "post_box", "brand": "United States Postal Service", "brand:wikidata": "Q668687", "collection_times": "Mo-Fr 11:00; Sa 08:00", "name": "USPS COLLECTION BOX - BLUE BOX", "nsi_id": "unitedstatespostalservice-a77078", "operator": "United States Postal Service", "operator:short": "USPS", "operator:type": "public", "operator:wikidata": "Q668687", "ref": "1110600027"}, "type": "Feature"}
{"geometry": {"coordinates": [-73.9312562, 40.757239], "type": "Point"}, "id": "w3No8x_8Q1_yff54o4tTGI5OICQ=", "properties": {"@spider": "usps_collection_boxes", "addr:city": "LONG IS CITY", "addr:country": "US", "addr:full": "2901 36TH AVE", "addr:postcode": "11106", "addr:state": "NY", "amenity": "post_box", "brand": "United States Postal Service", "brand:wikidata": "Q668687", "collection_times": "Mo-Fr 11:00; Sa 08:00", "name": "USPS COLLECTION BOX - BLUE BOX", "nsi_id": "unitedstatespostalservice-a77078", "operator": "United States Postal Service", "operator:short": "USPS", "operator:type": "public", "operator:wikidata": "Q668687", "ref": "1110600028"}, "type": "Feature"}
{"geometry": {"coordinates": [-73.9294426802, 40.7565021703], "type": "Point"}, "id": "8ES7qWp4SWs4uVEZPWjpHEEL9Tw=", "properties": {"@spider": "usps_collection_boxes", "addr:city": "LONG IS CITY", "addr:country": "US", "addr:full": "3115 36TH AVE", "addr:postcode": "11106", "addr:state": "NY", "amenity": "post_box", "brand": "United States Postal Service", "brand:wikidata": "Q668687", "collection_times": "Mo-Fr 11:00; Sa 08:00", "name": "USPS COLLECTION BOX - BLUE BOX", "nsi_id": "unitedstatespostalservice-a77078", "operator": "United States Postal Service", "operator:short": "USPS", "operator:type": "public", "operator:wikidata": "Q668687", "ref": "1110600030"}, "type": "Feature"}
{"geometry": {"coordinates": [-73.9257741, 40.754798], "type": "Point"}, "id": "CN6ZbbNC9PhCcEcFduxsIJoWDn4=", "properties": {"@spider": "usps_collection_boxes", "addr:city": "LONG IS CITY", "addr:country": "US", "addr:full": "3519 36TH AVE", "addr:postcode": "11106", "addr:state": "NY", "amenity": "post_box", "brand": "United States Postal Service", "brand:wikidata": "Q668687", "collection_times": "Mo-Fr 11:00; Sa 08:00", "name": "USPS COLLECTION BOX - BLUE BOX", "nsi_id": "unitedstatespostalservice-a77078", "operator": "United States Postal Service", "operator:short": "USPS", "operator:type": "public", "operator:wikidata": "Q668687", "ref": "1110600031"}, "type": "Feature"}
{"geometry": {"coordinates": [-73.9304999, 40.765162], "type": "Point"}, "id": "azIdG-pdXG-pMfaPR69tnloy2VM=", "properties": {"@spider": "usps_collection_boxes", "addr:city": "LONG IS CITY", "addr:country": "US", "addr:full": "2117 BROADWAY", "addr:postcode": "11106", "addr:state": "NY", "amenity": "post_box", "brand": "United States Postal Service", "brand:wikidata": "Q668687", "collection_times": "Mo-Fr 17:00; Sa 13:00", "name": "USPS COLLECTION BOX - BLUE BOX", "note": "ON 12/24 AND 12/31, THIS BOX MAY BE COLLECTED AS EARLY AS 12 NOON.", "nsi_id": "unitedstatespostalservice-a77078", "operator": "United States Postal Service", "operator:short": "USPS", "operator:type": "public", "operator:wikidata": "Q668687", "ref": "1110600033"}, "type": "Feature"}
{"geometry": {"coordinates": [-73.9298617, 40.756709], "type": "Point"}, "id": "d0Vb5wHgDYCape6gThAYk6xt8Gw=", "properties": {"@spider": "usps_collection_boxes", "addr:city": "LONG IS CITY", "addr:country": "US", "addr:full": "3015 36TH AVE", "addr:postcode": "11106", "addr:state": "NY", "amenity": "post_box", "brand": "United States Postal Service", "brand:wikidata": "Q668687", "collection_times": "Mo-Fr 11:00; Sa 08:00", "name": "USPS COLLECTION BOX - BLUE BOX", "nsi_id": "unitedstatespostalservice-a77078", "operator": "United States Postal Service", "operator:short": "USPS", "operator:type": "public", "operator:wikidata": "Q668687", "ref": "1110600083"}, "type": "Feature"}
{"geometry": {"coordinates": [-73.9290741, 40.75475], "type": "Point"}, "id": "yAfsl9831145Cagmg-dPR4P7YOs=", "properties": {"@spider": "usps_collection_boxes", "addr:city": "LONG IS CITY", "addr:country": "US", "addr:full": "3636 33RD ST", "addr:postcode": "11106", "addr:state": "NY", "amenity": "post_box", "brand": "United States Postal Service", "brand:wikidata": "Q668687", "collection_times": "Mo-Fr 11:00; Sa 08:00", "name": "USPS COLLECTION BOX - BLUE BOX", "nsi_id": "unitedstatespostalservice-a77078", "operator": "United States Postal Service", "operator:short": "USPS", "operator:type": "public", "operator:wikidata": "Q668687", "ref": "1110600087"}, "type": "Feature"}
{"geometry": {"coordinates": [-73.930807, 40.764766], "type": "Point"}, "id": "NChOom1Ltu-Fwg718XZDqmUzMj4=", "properties": {"@spider": "usps_collection_boxes", "addr:city": "LONG IS CITY", "addr:country": "US", "addr:full": "2117 BROADWAY", "addr:postcode": "11106", "addr:state": "NY", "amenity": "post_box", "brand": "United States Postal Service", "brand:wikidata": "Q668687", "collection_times": "Mo-Fr 17:00; Sa 13:00", "name": "USPS COLLECTION BOX - PO LOBBY", "note": "ON 12/24 AND 12/31, THIS BOX MAY BE COLLECTED AS EARLY AS 12 NOON.", "nsi_id": "unitedstatespostalservice-a77078", "operator": "United States Postal Service", "operator:short": "USPS", "operator:type": "public", "operator:wikidata": "Q668687", "ref": "1110600088"}, "type": "Feature"}
{"geometry": {"coordinates": [-73.93080737, 40.764763361], "type": "Point"}, "id": "ao2ItGjyU6bV8lsyt2wlBKOELnw=", "properties": {"@spider": "usps_collection_boxes", "addr:city": "LONG IS CITY", "addr:country": "US", "addr:full": "2117 BROADWAY", "addr:postcode": "11106", "addr:state": "NY", "amenity": "post_box", "brand": "United States Postal Service", "brand:wikidata": "Q668687", "collection_times": "Mo-Fr 17:00; Sa 13:00", "name": "USPS COLLECTION BOX - PO LOBBY", "note": "ON 12/24 AND 12/31, THIS BOX MAY BE COLLECTED AS EARLY AS 12 NOON.", "nsi_id": "unitedstatespostalservice-a77078", "operator": "United States Postal Service", "operator:short": "USPS", "operator:type": "public", "operator:wikidata": "Q668687", "ref": "1110600089"}, "type": "Feature"}
