{"geometry": {"coordinates": [-73.7521758, 40.60505], "type": "Point"}, "id": "uttSeuNkdOmQYZ-yQcYyzQ97Zwc=", "properties": {"@source_uri": "https://tools.usps.com/UspsToolsRestServices/rest/POLocator/findLocations", "@spider": "usps_collection_boxes", "addr:city": "FAR ROCKAWAY", "addr:country": "US", "addr:postcode": "11691", "addr:state": "NY", "addr:street_address": "1600 CENTRAL AVE", "amenity": "post_box", "brand": "United States Postal Service", "brand:wikidata": "Q668687", "collection_times": "Mo-Fr 15:00; Sa 09:30", "note": "ON 12/24 AND 12/31, THIS BOX MAY BE COLLECTED AS EARLY AS 12 NOON.", "nsi_id": "unitedstatespostalservice-a77078", "operator": "United States Postal Service", "operator:short": "USPS", "operator:type": "public", "operator:wikidata": "Q668687", "ref": "1169100001"}, "type": "Feature"}
{"geometry": {"coordinates": [-73.7558449, 40.595031], "type": "Point"}, "id": "mlhX3Gb335WFGJpE1Tt3KKrRNRM=", "properties": {"@source_uri": "https://tools.usps.com/UspsToolsRestServices/rest/POLocator/findLocations", "@spider": "usps_collection_boxes", "addr:city": "FAR ROCKAWAY", "addr:country": "US", "addr:postcode": "11691", "addr:state": "NY", "addr:street_address": "2033 SEAGIRT BLVD", "amenity": "post_box", "brand": "United States Postal Service", "brand:wikidata": "Q668687", "collection_times": "Mo-Sa 09:30", "nsi_id": "unitedstatespostalservice-a77078", "operator": "United States Postal Service", "operator:short": "USPS", "operator:type": "public", "operator:wikidata": "Q668687", "ref": "1169100002"}, "type": "Feature"}
{"geometry": {"coordinates": [-73.7542432, 40.598758], "type": "Point"}, "id": "PPC5mh6xMZY43jWax6784xjcFHM=", "properties": {"@source_uri": "https://tools.usps.com/UspsToolsRestServices/rest/POLocator/findLocations", "@spider": "usps_collection_boxes", "addr:city": "FAR ROCKAWAY", "addr:country": "US", "addr:postcode": "11691", "addr:state": "NY", "addr:street_address": "407 BEACH 20TH ST", "amenity": "post_box", "brand": "United States Postal Service", "brand:wikidata": "Q668687", "collection_times": "Mo-Sa 09:30", "nsi_id": "unitedstatespostalservice-a77078", "operator": "United States Postal Service", "operator:short": "USPS", "operator:type": "public", "operator:wikidata": "Q668687", "ref": "1169100003"}, "type": "Feature"}
{"geometry": {"coordinates": [-73.7650145, 40.607583], "type": "Point"}, "id": "vRbvHVdghaQghnCbS8FKSISnB58=", "properties": {"@source_uri": "https://tools.usps.com/UspsToolsRestServices/rest/POLocator/findLocations", "@spider": "usps_collection_boxes", "addr:city": "FAR ROCKAWAY", "addr:country": "US", "addr:postcode": "11691", "addr:state": "NY", "addr:street_address": "2526 WESTBOURNE AVE", "amenity": "post_box", "brand": "United States Postal Service", "brand:wikidata": "Q668687", "collection_times": "Mo-Sa 09:30", "nsi_id": "unitedstatespostalservice-a77078", "operator": "United States Postal Service", "operator:short": "USPS", "operator:type": "public", "operator:wikidata": "Q668687", "ref": "1169100006"}, "type": "Feature"}
{"geometry": {"coordinates": [-73.7678866, 40.610553], "type": "Point"}, "id": "yvvkJdc5tRXGt4-IXEpdffj3niA=", "properties": {"@source_uri": "https://tools.usps.com/UspsToolsRestServices/rest/POLocator/findLocations", "@spider": "usps_collection_boxes", "addr:city": "FAR ROCKAWAY", "addr:country": "US", "addr:postcode": "11691", "addr:state": "NY", "addr:street_address": "1454 EGMONT PL", "amenity": "post_box", "brand": "United States Postal Service", "brand:wikidata": "Q668687", "collection_times": "Mo-Sa 09:30", "nsi_id": "unitedstatespostalservice-a77078", "operator": "United States Postal Service", "operator:short": "USPS", "operator:type": "public", "operator:wikidata": "Q668687", "ref": "1169100007"}, "type": "Feature"}
{"geometry": {"coordinates": [-73.75425, 40.60079], "type": "Point"}, "id": "QL-BgX1jCVBeZXNw4nc-ntxuJ-E=", "properties": {"@source_uri": "https://tools.usps.com/UspsToolsRestServices/rest/POLocator/findLocations", "@spider": "usps_collection_boxes", "addr:city": "FAR ROCKAWAY", "addr:country": "US", "addr:postcode": "11691", "addr:state": "NY", "addr:street_address": "2115 MOTT AVE", "amenity": "post_box", "brand": "United States Postal Service", "brand:wikidata": "Q668687", "collection_times": "Mo-Fr 15:00; Sa 09:30", "note": "ON 12/24 AND 12/31, THIS BOX MAY BE COLLECTED AS EARLY AS 12 NOON.", "nsi_id": "unitedstatespostalservice-a77078", "operator": "United States Postal Service", "operator:short": "USPS", "operator:type": "public", "operator:wikidata": "Q668687", "ref": "1169100009"}, "type": "Feature"}
{"geometry": {"coordinates": [-73.7532186, 40.604526], "type": "Point"}, "id": "VUkc-BrSMaI0lMjJVBsdJ84GMq0=", "properties": {"@source_uri": "https://tools.usps.com/UspsToolsRestServices/rest/POLocator/findLocations", "@spider": "usps_collection_boxes", "addr:city": "FAR ROCKAWAY", "addr:country": "US", "addr:postcode": "11691", "addr:state": "NY", "addr:street_address": "2010 MOTT AVE", "amenity": "post_box", "brand": "United States Postal Service", "brand:wikidata": "Q668687", "collection_times": "Mo-Sa 09:30", "nsi_id": "unitedstatespostalservice-a77078", "operator": "United States Postal Service", "operator:short": "USPS", "operator:type": "public", "operator:wikidata": "Q668687", "ref": "1169100011"}, "type": "Feature"}
{"geometry": {"coordinates": [-73.7533178, 40.593262], "type": "Point"}, "id": "C-MLwtyzhx9CGD53hCSLfxdwxJA=", "properties": {"@source_uri": "https://tools.usps.com/UspsToolsRestServices/rest/POLocator/findLocations", "@spider": "usps_collection_boxes", "addr:city": "FAR ROCKAWAY", "addr:country": "US", "addr:postcode": "11691", "addr:state": "NY", "addr:street_address": "125 BEACH 19TH ST", "amenity": "post_box", "brand": "United States Postal Service", "brand:wikidata": "Q668687", "collection_times": "Mo-Sa 09:30", "nsi_id": "unitedstatespostalservice-a77078", "operator": "United States Postal Service", "operator:short": "USPS", "operator:type": "public", "operator:wikidata": "Q668687", "ref": "1169100015"}, "type": "Feature"}
{"geometry": {"coordinates": [-73.7478396, 40.60307], "type": "Point"}, "id": "sGgoqjNjD1oUoWKYptCBM5-icBU=", "properties": {"@source_uri": "https://tools.usps.com/UspsToolsRestServices/rest/POLocator/findLocations", "@spider": "usps_collection_boxes", "addr:city": "FAR ROCKAWAY", "addr:country": "US", "addr:postcode": "11691", "addr:state": "NY", "addr:street_address": "1011 NEILSON ST", "amenity": "post_box", "brand": "United States Postal Service", "brand:wikidata": "Q668687", "collection_times": "Mo-Sa 09:30", "nsi_id": "unitedstatespostalservice-a77078", "operator": "United States Postal Service", "operator:short": "USPS", "operator:type": "public", "operator:wikidata": "Q668687", "ref": "1169100018"}, "type": "Feature"}
{"geometry": {"coordinates": [-73.7455191, 40.602097], "type": "Point"}, "id": "68gsLGTk68W92qB6iBVgxNEEJMY=", "properties": {"@source_uri": "https://tools.usps.com/UspsToolsRestServices/rest/POLocator/findLocations", "@spider": "usps_collection_boxes", "addr:city": "FAR ROCKAWAY", "addr:country": "US", "addr:postcode": "11691", "addr:state": "NY", "addr:street_address": "707 B 9 ST", "amenity": "post_box", "brand": "United States Postal Service", "brand:wikidata": "Q668687", "collection_times": "Mo-Sa 09:30", "nsi_id": "unitedstatespostalservice-a77078", "operator": "United States Postal Service", "operator:short": "USPS", "operator:type": "public", "operator:wikidata": "Q668687", "ref": "1169100019"}, "type": "Feature"}
{"geometry": {"coordinates": [-73.7442828, 40.606217], "type": "Point"}, "id": "-ceiCl8GuMxmzQPvDnGysWbpl78=", "properties": {"@source_uri": "https://tools.usps.com/UspsToolsRestServices/rest/POLocator/findLocations", "@spider": "usps_collection_boxes", "addr:city": "FAR ROCKAWAY", "addr:country": "US", "addr:postcode": "11691", "addr:state": "NY", "addr:street_address": "732 EMPIRE AVE", "amenity": "post_box", "brand": "United States Postal Service", "brand:wikidata": "Q668687", "collection_times": "Mo-Sa 09:30", "nsi_id": "unitedstatespostalservice-a77078", "operator": "United States Postal Service", "operator:short": "USPS", "operator:type": "public", "operator:wikidata": "Q668687", "ref": "1169100020"}, "type": "Feature"}
{"geometry": {"coordinates": [-73.7422664, 40.595516], "type": "Point"}, "id": "jaZazIiyXQ4hKTgiagmzhLSHgTA=", "properties": {"@source_uri": "https://tools.usps.com/UspsToolsRestServices/rest/POLocator/findLocations", "@spider": "usps_collection_boxes", "addr:city": "FAR ROCKAWAY", "addr:country": "US", "addr:postcode": "11691", "addr:state": "NY", "addr:street_address": "711 SEAGRIT BLVD", "amenity": "post_box", "brand": "United States Postal Service", "brand:wikidata": "Q668687", "collection_times": "Mo-Sa 09:30", "nsi_id": "unitedstatespostalservice-a77078", "operator": "United States Postal Service", "operator:short": "USPS", "operator:type": "public", "operator:wikidata": "Q668687", "ref": "1169100022"}, "type": "Feature"}
{"geometry": {"coordinates": [-73.7413734, 40.601788], "type": "Point"}, "id": "t4icWTUBNcX1a4LYu4nx9sZp2UQ=", "properties": {"@source_uri": "https://tools.usps.com/UspsToolsRestServices/rest/POLocator/findLocations", "@spider": "usps_collection_boxes", "addr:city": "FAR ROCKAWAY", "addr:country": "US", "addr:postcode": "11691", "addr:state": "NY", "addr:street_address": "605 READS LN", "amenity": "post_box", "brand": "United States Postal Service", "brand:wikidata": "Q668687", "collection_times": "Mo-Sa 09:30", "nsi_id": "unitedstatespostalservice-a77078", "operator": "United States Postal Service", "operator:short": "USPS", "operator:type": "public", "operator:wikidata": "Q668687", "ref": "1169100024"}, "type": "Feature"}
{"geometry": {"coordinates": [-73.7535059, 40.609901], "type": "Point"}, "id": "whK425eIVEGPZnRkVnCyVlgShRs=", "properties": {"@source_uri": "https://tools.usps.com/UspsToolsRestServices/rest/POLocator/findLocations", "@spider": "usps_collection_boxes", "addr:city": "FAR ROCKAWAY", "addr:country": "US", "addr:postcode": "11691", "addr:state": "NY", "addr:street_address": "1460 BEACH CHANNEL DR", "amenity": "post_box", "brand": "United States Postal Service", "brand:wikidata": "Q668687", "collection_times": "Mo-Sa 09:30", "nsi_id": "unitedstatespostalservice-a77078", "operator": "United States Postal Service", "operator:short": "USPS", "operator:type": "public", "operator:wikidata": "Q668687", "ref": "1169100026"}, "type": "Feature"}
{"geometry": {"coordinates": [-73.7526631, 40.598955], "type": "Point"}, "id": "T6pKoETEgWHy6nZ7lhxUi4DsXLE=", "properties": {"@source_uri": "https://tools.usps.com/UspsToolsRestServices/rest/POLocator/findLocations", "@spider": "usps_collection_boxes", "addr:city": "FAR ROCKAWAY", "addr:country": "US", "addr:postcode": "11691", "addr:state": "NY", "addr:street_address": "327 BEACH 19TH ST", "amenity": "post_box", "brand": "United States Postal Service", "brand:wikidata": "Q668687", "collection_times": "Mo-Sa 09:30", "nsi_id": "unitedstatespostalservice-a77078", "operator": "United States Postal Service", "operator:short": "USPS", "operator:type": "public", "operator:wikidata": "Q668687", "ref": "1169100027"}, "type": "Feature"}
{"geometry": {"coordinates": [-73.7503159, 40.606662], "type": "Point"}, "id": "P5aO5cDjwJIBw-UgmGmaIewR2YA=", "properties": {"@source_uri": "https://tools.usps.com/UspsToolsRestServices/rest/POLocator/findLocations", "@spider": "usps_collection_boxes", "addr:city": "FAR ROCKAWAY", "addr:country": "US", "addr:postcode": "11691", "addr:state": "NY", "addr:street_address": "1342 CENTRAL AVE", "amenity": "post_box", "brand": "United States Postal Service", "brand:wikidata": "Q668687", "collection_times": "Mo-Sa 09:30", "nsi_id": "unitedstatespostalservice-a77078", "operator": "United States Postal Service", "operator:short": "USPS", "operator:type": "public", "operator:wikidata": "Q668687", "ref": "1169100029"}, "type": "Feature"}
{"geometry": {"coordinates": [-73.7536505, 40.60078], "type": "Point"}, "id": "x3zdMAVlgePAAVPFqjA_gog1JE0=", "properties": {"@source_uri": "https://tools.usps.com/UspsToolsRestServices/rest/POLocator/findLocations", "@spider": "usps_collection_boxes", "addr:city": "FAR ROCKAWAY", "addr:country": "US", "addr:postcode": "11691", "addr:state": "NY", "addr:street_address": "622 B 20 ST", "amenity": "post_box", "brand": "United States Postal Service", "brand:wikidata": "Q668687", "collection_times": "Mo-Sa 09:30", "nsi_id": "unitedstatespostalservice-a77078", "operator": "United States Postal Service", "operator:short": "USPS", "operator:type": "public", "operator:wikidata": "Q668687", "ref": "1169100031"}, "type": "Feature"}
{"geometry": {"coordinates": [-73.751389, 40.594942], "type": "Point"}, "id": "JRlLAVfb73lb4jF8nLBt9G6Mjy0=", "properties": {"@source_uri": "https://tools.usps.com/UspsToolsRestServices/rest/POLocator/findLocations", "@spider": "usps_collection_boxes", "addr:city": "FAR ROCKAWAY", "addr:country": "US", "addr:postcode": "11691", "addr:state": "NY", "addr:street_address": "1701 SEAGRIT BLVD", "amenity": "post_box", "brand": "United States Postal Service", "brand:wikidata": "Q668687", "collection_times": "Mo-Sa 09:30", "nsi_id": "unitedstatespostalservice-a77078", "operator": "United States Postal Service", "operator:short": "USPS", "operator:type": "public", "operator:wikidata": "Q668687", "ref": "1169100032"}, "type": "Feature"}
{"geometry": {"coordinates": [-73.7399583, 40.597997], "type": "Point"}, "id": "m3rpRFVJs-soajeDgEB91SDBsrw=", "properties": {"@source_uri": "https://tools.usps.com/UspsToolsRestServices/rest/POLocator/findLocations", "@spider": "usps_collection_boxes", "addr:city": "FAR ROCKAWAY", "addr:country": "US", "addr:postcode": "11691", "addr:state": "NY", "addr:street_address": "602 SEAGIRT BLVD", "amenity": "post_box", "brand": "United States Postal Service", "brand:wikidata": "Q668687", "collection_times": "Mo-Sa 09:30", "nsi_id": "unitedstatespostalservice-a77078", "operator": "United States Postal Service", "operator:short": "USPS", "operator:type": "public", "operator:wikidata": "Q668687", "ref": "1169100033"}, "type": "Feature"}
{"geometry": {"coordinates": [-73.7543671, 40.59714], "type": "Point"}, "id": "UZymKHRr8p56GIj62l2I8cLh_5k=", "properties": {"@source_uri": "https://tools.usps.com/UspsToolsRestServices/rest/POLocator/findLocations", "@spider": "usps_collection_boxes", "addr:city": "FAR ROCKAWAY", "addr:country": "US", "addr:postcode": "11691", "addr:state": "NY", "addr:street_address": "299 BEACH 20TH ST", "amenity": "post_box", "brand": "United States Postal Service", "brand:wikidata": "Q668687", "collection_times": "Mo-Sa 09:30", "nsi_id": "unitedstatespostalservice-a77078", "operator": "United States Postal Service", "operator:short": "USPS", "operator:type": "public", "operator:wikidata": "Q668687", "ref": "1169100034"}, "type": "Feature"}
{"geometry": {"coordinates": [-73.7720899, 40.59594], "type": "Point"}, "id": "0zWo23JvKMy9rgZuAewwn1vFFuY=", "properties": {"@source_uri": "https://tools.usps.com/UspsToolsRestServices/rest/POLocator/findLocations", "@spider": "usps_collection_boxes", "addr:city": "FAR ROCKAWAY", "addr:country": "US", "addr:postcode": "11691", "addr:state": "NY", "addr:street_address": "3820 BEACH CHANNEL DR", "amenity": "post_box", "brand": "United States Postal Service", "brand:wikidata": "Q668687", "collection_times": "Mo-Fr 09:30; Sa 08:00", "nsi_id": "unitedstatespostalservice-a77078", "operator": "United States Postal Service", "operator:short": "USPS", "operator:type": "public", "operator:wikidata": "Q668687", "ref": "1169100037"}, "type": "Feature"}
{"geometry": {"coordinates": [-73.7602427, 40.595891], "type": "Point"}, "id": "MfId-MGOt4lFVfn9Xer5je_b6bg=", "properties": {"@source_uri": "https://tools.usps.com/UspsToolsRestServices/rest/POLocator/findLocations", "@spider": "usps_collection_boxes", "addr:city": "FAR ROCKAWAY", "addr:country": "US", "addr:postcode": "11691", "addr:state": "NY", "addr:street_address": "224 BEACH 27TH ST", "amenity": "post_box", "brand": "United States Postal Service", "brand:wikidata": "Q668687", "collection_times": "Mo-Fr 09:30; Sa 08:00", "nsi_id": "unitedstatespostalservice-a77078", "operator": "United States Postal Service", "operator:short": "USPS", "operator:type": "public", "operator:wikidata": "Q668687", "ref": "1169100039"}, "type": "Feature"}
{"geometry": {"coordinates": [-73.7614215, 40.599761], "type": "Point"}, "id": "dM9Q-M2Z_JLjcEd9xY7flWYzllE=", "properties": {"@source_uri": "https://tools.usps.com/UspsToolsRestServices/rest/POLocator/findLocations", "@spider": "usps_collection_boxes", "addr:city": "FAR ROCKAWAY", "addr:country": "US", "addr:postcode": "11691", "addr:state": "NY", "addr:street_address": "558 BEACH 25TH ST", "amenity": "post_box", "brand": "United States Postal Service", "brand:wikidata": "Q668687", "collection_times": "Mo-Sa 09:30", "nsi_id": "unitedstatespostalservice-a77078", "operator": "United States Postal Service", "operator:short": "USPS", "operator:type": "public", "operator:wikidata": "Q668687", "ref": "1169100040"}, "type": "Feature"}
{"geometry": {"coordinates": [-73.7639795, 40.59978], "type": "Point"}, "id": "twz3oYTzBBs1mnqqAiJO-FZU8eY=", "properties": {"@source_uri": "https://tools.usps.com/UspsToolsRestServices/rest/POLocator/findLocations", "@spider": "usps_collection_boxes", "addr:city": "FAR ROCKAWAY", "addr:country": "US", "addr:postcode": "11691", "addr:state": "NY", "addr:street_address": "2902 BEACH CHANNEL DR", "amenity": "post_box", "brand": "United States Postal Service", "brand:wikidata": "Q668687", "collection_times": "Mo-Fr 09:30; Sa 08:00", "nsi_id": "unitedstatespostalservice-a77078", "operator": "United States Postal Service", "operator:short": "USPS", "operator:type": "public", "operator:wikidata": "Q668687", "ref": "1169100042"}, "type": "Feature"}
{"geometry": {"coordinates": [-73.7647559, 40.59597], "type": "Point"}, "id": "v3OpMPlLT6Wz-2_nR2-qRBc_YL0=", "properties": {"@source_uri": "https://tools.usps.com/UspsToolsRestServices/rest/POLocator/findLocations", "@spider": "usps_collection_boxes", "addr:city": "FAR ROCKAWAY", "addr:country": "US", "addr:postcode": "11691", "addr:state": "NY", "addr:street_address": "333 BEACH 32ND ST", "amenity": "post_box", "brand": "United States Postal Service", "brand:wikidata": "Q668687", "collection_times": "Mo-Fr 09:30; Sa 08:00", "nsi_id": "unitedstatespostalservice-a77078", "operator": "United States Postal Service", "operator:short": "USPS", "operator:type": "public", "operator:wikidata": "Q668687", "ref": "1169100044"}, "type": "Feature"}
{"geometry": {"coordinates": [-73.7478764, 40.598039], "type": "Point"}, "id": "r2dRi2a5klgX3NxnjXkwV0aMKvs=", "properties": {"@source_uri": "https://tools.usps.com/UspsToolsRestServices/rest/POLocator/findLocations", "@spider": "usps_collection_boxes", "addr:city": "FAR ROCKAWAY", "addr:country": "US", "addr:postcode": "11691", "addr:state": "NY", "addr:street_address": "1301 NEW HAVEN AVE", "amenity": "post_box", "brand": "United States Postal Service", "brand:wikidata": "Q668687", "collection_times": "Mo-Sa 09:30", "nsi_id": "unitedstatespostalservice-a77078", "operator": "United States Postal Service", "operator:short": "USPS", "operator:type": "public", "operator:wikidata": "Q668687", "ref": "1169100051"}, "type": "Feature"}
{"geometry": {"coordinates": [-73.7556113, 40.605383], "type": "Point"}, "id": "SwC4fEYMr7QyA-GpYqG3vAF2XR0=", "properties": {"@source_uri": "https://tools.usps.com/UspsToolsRestServices/rest/POLocator/findLocations", "@spider": "usps_collection_boxes", "addr:city": "FAR ROCKAWAY", "addr:country": "US", "addr:postcode": "11691", "addr:state": "NY", "addr:street_address": "1065 BEACH CHANNEL DR", "amenity": "post_box", "brand": "United States Postal Service", "brand:wikidata": "Q668687", "collection_times": "Mo-Sa 09:30", "nsi_id": "unitedstatespostalservice-a77078", "operator": "United States Postal Service", "operator:short": "USPS", "operator:type": "public", "operator:wikidata": "Q668687", "ref": "1169100053"}, "type": "Feature"}
{"geometry": {"coordinates": [-73.7621234, 40.60503], "type": "Point"}, "id": "2BwgblhV2XCueR0LdmGrLQBtmHo=", "properties": {"@source_uri": "https://tools.usps.com/UspsToolsRestServices/rest/POLocator/findLocations", "@spider": "usps_collection_boxes", "addr:city": "FAR ROCKAWAY", "addr:country": "US", "addr:postcode": "11691", "addr:state": "NY", "addr:street_address": "2382 HEALY AVE", "amenity": "post_box", "brand": "United States Postal Service", "brand:wikidata": "Q668687", "collection_times": "Mo-Sa 09:30", "nsi_id": "unitedstatespostalservice-a77078", "operator": "United States Postal Service", "operator:short": "USPS", "operator:type": "public", "operator:wikidata": "Q668687", "ref": "1169100056"}, "type": "Feature"}
{"geometry": {"coordinates": [-73.7542358, 40.594997], "type": "Point"}, "id": "WAQERAOybu9U70Gj8O4ln-Hp1hc=", "properties": {"@source_uri": "https://tools.usps.com/UspsToolsRestServices/rest/POLocator/findLocations", "@spider": "usps_collection_boxes", "addr:city": "FAR ROCKAWAY", "addr:country": "US", "addr:postcode": "11691", "addr:state": "NY", "addr:street_address": "1915 SEAGRIT BLVD", "amenity": "post_box", "brand": "United States Postal Service", "brand:wikidata": "Q668687", "collection_times": "Mo-Sa 09:30", "nsi_id": "unitedstatespostalservice-a77078", "operator": "United States Postal Service", "operator:short": "USPS", "operator:type": "public", "operator:wikidata": "Q668687", "ref": "1169100058"}, "type": "Feature"}
{"geometry": {"coordinates": [-73.750882556, 40.603255162], "type": "Point"}, "id": "LW2WbIymfrlT0iZ8-U2RPHCrgc8=", "properties": {"@source_uri": "https://tools.usps.com/UspsToolsRestServices/rest/POLocator/findLocations", "@spider": "usps_collection_boxes", "addr:city": "FAR ROCKAWAY", "addr:country": "US", "addr:postcode": "11691", "addr:state": "NY", "addr:street_address": "1836 MOTT AVE", "amenity": "post_box", "brand": "United States Postal Service", "brand:wikidata": "Q668687", "collection_times": "Mo-Fr 17:00; Sa 13:00", "note": "ON 12/24 AND 12/31, THIS BOX MAY BE COLLECTED AS EARLY AS 12 NOON.", "nsi_id": "unitedstatespostalservice-a77078", "operator": "United States Postal Service", "operator:short": "USPS", "operator:type": "public", "operator:wikidata": "Q668687", "ref": "1169100063"}, "type": "Feature"}
{"geometry": {"coordinates": [-73.750882556, 40.603255162], "type": "Point"}, "id": "aUkQpwh0m5cIVO5So5h6wBLC4-k=", "properties": {"@source_uri": "https://tools.usps.com/UspsToolsRestServices/rest/POLocator/findLocations", "@spider": "usps_collection_boxes", "addr:city": "FAR ROCKAWAY", "addr:country": "US", "addr:postcode": "11691", "addr:state": "NY", "addr:street_address": "1836 MOTT AVE", "amenity": "post_box", "brand": "United States Postal Service", "brand:wikidata": "Q668687", "collection_times": "Mo-Fr 17:00; Sa 13:00", "name": "USPS COLLECTION BOX - EXPRESS", "note": "ON 12/24 AND 12/31, THIS BOX MAY BE COLLECTED AS EARLY AS 12 NOON.", "nsi_id": "unitedstatespostalservice-a77078", "operator": "United States Postal Service", "operator:short": "USPS", "operator:type": "public", "operator:wikidata": "Q668687", "ref": "1169100064"}, "type": "Feature"}
{"geometry": {"coordinates": [-73.750882556, 40.603255162], "type": "Point"}, "id": "-nXtEsIMAsQ-9Eb_t4tsBH7NPz0=", "properties": {"@source_uri": "https://tools.usps.com/UspsToolsRestServices/rest/POLocator/findLocations", "@spider": "usps_collection_boxes", "addr:city": "FAR ROCKAWAY", "addr:country": "US", "addr:postcode": "11691", "addr:state": "NY", "addr:street_address": "1836 MOTT AVE", "amenity": "post_box", "brand": "United States Postal Service", "brand:wikidata": "Q668687", "collection_times": "Mo-Fr 17:00; Sa 13:00", "note": "ON 12/24 AND 12/31, THIS BOX MAY BE COLLECTED AS EARLY AS 12 NOON.", "nsi_id": "unitedstatespostalservice-a77078", "operator": "United States Postal Service", "operator:short": "USPS", "operator:type": "public", "operator:wikidata": "Q668687", "ref": "1169100067"}, "type": "Feature"}
{"geometry": {"coordinates": [-73.750882556, 40.603255162], "type": "Point"}, "id": "pA3aNCkUZjvPJ8GBkiaB1gE769g=", "properties": {"@source_uri": "https://tools.usps.com/UspsToolsRestServices/rest/POLocator/findLocations", "@spider": "usps_collection_boxes", "addr:city": "FAR ROCKAWAY", "addr:country": "US", "addr:postcode": "11691", "addr:state": "NY", "addr:street_address": "1836 MOTT AVE", "amenity": "post_box", "brand": "United States Postal Service", "brand:wikidata": "Q668687", "collection_times": "Mo-Fr 17:00; Sa 13:00", "indoor": "yes", "note": "ON 12/24 AND 12/31, THIS BOX MAY BE COLLECTED AS EARLY AS 12 NOON.", "nsi_id": "unitedstatespostalservice-a77078", "operator": "United States Postal Service", "operator:short": "USPS", "operator:type": "public", "operator:wikidata": "Q668687", "ref": "1169100100"}, "type": "Feature"}
{"geometry": {"coordinates": [-73.750882556, 40.603255162], "type": "Point"}, "id": "TpSEH60zAqTsZQT_cdHfumkmNk0=", "properties": {"@source_uri": "https://tools.usps.com/UspsToolsRestServices/rest/POLocator/findLocations", "@spider": "usps_collection_boxes", "addr:city": "FAR ROCKAWAY", "addr:country": "US", "addr:postcode": "11691", "addr:state": "NY", "addr:street_address": "1836 MOTT AVE", "amenity": "post_box", "brand": "United States Postal Service", "brand:wikidata": "Q668687", "collection_times": "Mo-Fr 17:00; Sa 13:00", "indoor": "yes", "note": "ON 12/24 AND 12/31, THIS BOX MAY BE COLLECTED AS EARLY AS 12 NOON.", "nsi_id": "unitedstatespostalservice-a77078", "operator": "United States Postal Service", "operator:short": "USPS", "operator:type": "public", "operator:wikidata": "Q668687", "ref": "1169100102"}, "type": "Feature"}
{"geometry": {"coordinates": [-73.7846219, 40.59489], "type": "Point"}, "id": "EMbLcdd_1DpDQDhWuwnxj-o8Yis=", "properties": {"@source_uri": "https://tools.usps.com/UspsToolsRestServices/rest/POLocator/findLocations", "@spider": "usps_collection_boxes", "addr:city": "FAR ROCKAWAY", "addr:country": "US", "addr:postcode": "11692", "addr:state": "NY", "addr:street_address": "363 BEACH 54TH ST", "amenity": "post_box", "brand": "United States Postal Service", "brand:wikidata": "Q668687", "collection_times": "Mo-Fr 09:30; Sa 08:00", "nsi_id": "unitedstatespostalservice-a77078", "operator": "United States Postal Service", "operator:short": "USPS", "operator:type": "public", "operator:wikidata": "Q668687", "ref": "1169200001"}, "type": "Feature"}
{"geometry": {"coordinates": [-73.8921076, 40.566753], "type": "Point"}, "id": "6v9CUgC9UDxDisvmxsRO1VyumXI=", "properties": {"@source_uri": "https://tools.usps.com/UspsToolsRestServices/rest/POLocator/findLocations", "@spider": "usps_collection_boxes", "addr:city": "FAR ROCKAWAY", "addr:country": "US", "addr:postcode": "11692", "addr:state": "NY", "addr:street_address": "231 ROXBURY BLVD", "amenity": "post_box", "brand": "United States Postal Service", "brand:wikidata": "Q668687", "collection_times": "Mo-Fr 09:30; Sa 08:00", "nsi_id": "unitedstatespostalservice-a77078", "operator": "United States Postal Service", "operator:short": "USPS", "operator:type": "public", "operator:wikidata": "Q668687", "ref": "1169200012"}, "type": "Feature"}
{"geometry": {"coordinates": [-73.9121427, 40.561266], "type": "Point"}, "id": "U_spI7ly2LPa3TOe8gimDCH1M6s=", "properties": {"@source_uri": "https://tools.usps.com/UspsToolsRestServices/rest/POLocator/findLocations", "@spider": "usps_collection_boxes", "addr:city": "FAR ROCKAWAY", "addr:country": "US", "addr:postcode": "11692", "addr:state": "NY", "addr:street_address": "20230 ROCKAWAY POINT BLVD", "amenity": "post_box", "brand": "United States Postal Service", "brand:wikidata": "Q668687", "collection_times": "Mo-Fr 13:00; Sa 08:00", "note": "ON 12/24 AND 12/31, THIS BOX MAY BE COLLECTED AS EARLY AS 12 NOON.", "nsi_id": "unitedstatespostalservice-a77078", "operator": "United States Postal Service", "operator:short": "USPS", "operator:type": "public", "operator:wikidata": "Q668687", "ref": "1169200014"}, "type": "Feature"}
{"geometry": {"coordinates": [-73.9143237, 40.560795], "type": "Point"}, "id": "4iDKNVrS3oLkHxwCSNEZFWFG-K8=", "properties": {"@source_uri": "https://tools.usps.com/UspsToolsRestServices/rest/POLocator/findLocations", "@spider": "usps_collection_boxes", "addr:city": "FAR ROCKAWAY", "addr:country": "US", "addr:postcode": "11692", "addr:state": "NY", "addr:street_address": "20425 ROCKAWAY POINT BLVD", "amenity": "post_box", "brand": "United States Postal Service", "brand:wikidata": "Q668687", "collection_times": "Mo-Fr 09:30; Sa 08:00", "nsi_id": "unitedstatespostalservice-a77078", "operator": "United States Postal Service", "operator:short": "USPS", "operator:type": "public", "operator:wikidata": "Q668687", "ref": "1169200015"}, "type": "Feature"}
{"geometry": {"coordinates": [-73.7891847, 40.593711], "type": "Point"}, "id": "1MqTHTDbg_VUbjeJNWt9YvKyNKQ=", "properties": {"@source_uri": "https://tools.usps.com/UspsToolsRestServices/rest/POLocator/findLocations", "@spider": "usps_collection_boxes", "addr:city": "FAR ROCKAWAY", "addr:country": "US", "addr:postcode": "11692", "addr:state": "NY", "addr:street_address": "329 BEACH 59TH ST", "amenity": "post_box", "brand": "United States Postal Service", "brand:wikidata": "Q668687", "collection_times": "Mo-Fr 17:00; Sa 13:00", "note": "ON 12/24 AND 12/31, THIS BOX MAY BE COLLECTED AS EARLY AS 12 NOON.", "nsi_id": "unitedstatespostalservice-a77078", "operator": "United States Postal Service", "operator:short": "USPS", "operator:type": "public", "operator:wikidata": "Q668687", "ref": "1169200020"}, "type": "Feature"}
{"geometry": {"coordinates": [-73.9181785, 40.559264], "type": "Point"}, "id": "TooPEK4dr8-jO94jwcSYNm77ULs=", "properties": {"@source_uri": "https://tools.usps.com/UspsToolsRestServices/rest/POLocator/findLocations", "@spider": "usps_collection_boxes", "addr:city": "FAR ROCKAWAY", "addr:country": "US", "addr:postcode": "11692", "addr:state": "NY", "addr:street_address": "33 BEACH 209 ST", "amenity": "post_box", "brand": "United States Postal Service", "brand:wikidata": "Q668687", "collection_times": "Mo-Fr 09:30; Sa 08:00", "nsi_id": "unitedstatespostalservice-a77078", "operator": "United States Postal Service", "operator:short": "USPS", "operator:type": "public", "operator:wikidata": "Q668687", "ref": "1169200022"}, "type": "Feature"}
{"geometry": {"coordinates": [-73.789118, 40.593536], "type": "Point"}, "id": "9rC3wZdfCfgAmHg0APBaZd6_7sw=", "properties": {"@source_uri": "https://tools.usps.com/UspsToolsRestServices/rest/POLocator/findLocations", "@spider": "usps_collection_boxes", "addr:city": "FAR ROCKAWAY", "addr:country": "US", "addr:postcode": "11692", "addr:state": "NY", "addr:street_address": "329 BEACH 59TH ST", "amenity": "post_box", "brand": "United States Postal Service", "brand:wikidata": "Q668687", "collection_times": "Mo-Fr 16:00; Sa 13:00", "indoor": "yes", "note": "ON 12/24 AND 12/31, THIS BOX MAY BE COLLECTED AS EARLY AS 12 NOON.", "nsi_id": "unitedstatespostalservice-a77078", "operator": "United States Postal Service", "operator:short": "USPS", "operator:type": "public", "operator:wikidata": "Q668687", "ref": "1169200035"}, "type": "Feature"}
{"geometry": {"coordinates": [-73.789118353, 40.593598177], "type": "Point"}, "id": "XmC9uaVT1YNRu7fx8uZL5Im9nc8=", "properties": {"@source_uri": "https://tools.usps.com/UspsToolsRestServices/rest/POLocator/findLocations", "@spider": "usps_collection_boxes", "addr:city": "FAR ROCKAWAY", "addr:country": "US", "addr:postcode": "11692", "addr:state": "NY", "addr:street_address": "329 BEACH 59TH ST", "amenity": "post_box", "brand": "United States Postal Service", "brand:wikidata": "Q668687", "collection_times": "Mo-Fr 17:00; Sa 13:00", "indoor": "yes", "note": "ON 12/24 AND 12/31, THIS BOX MAY BE COLLECTED AS EARLY AS 12 NOON.", "nsi_id": "unitedstatespostalservice-a77078", "operator": "United States Postal Service", "operator:short": "USPS", "operator:type": "public", "operator:wikidata": "Q668687", "ref": "1169200036"}, "type": "Feature"}
{"geometry": {"coordinates": [-73.8114499, 40.587436], "type": "Point"}, "id": "WVJzdFkpvD-NtsVfeylLo7jncUA=", "properties": {"@source_uri": "https://tools.usps.com/UspsToolsRestServices/rest/POLocator/findLocations", "@spider": "usps_collection_boxes", "addr:city": "ROCKAWAY PARK", "addr:country": "US", "addr:postcode": "11693", "addr:state": "NY", "addr:street_address": "8601 ROCKAWAY BEACH BLVD", "amenity": "post_box", "brand": "United States Postal Service", "brand:wikidata": "Q668687", "collection_times": "Mo-Fr 09:30; Sa 08:00", "nsi_id": "unitedstatespostalservice-a77078", "operator": "United States Postal Service", "operator:short": "USPS", "operator:type": "public", "operator:wikidata": "Q668687", "ref": "1169300005"}, "type": "Feature"}
{"geometry": {"coordinates": [-73.8196303, 40.584489], "type": "Point"}, "id": "qsRxrpot0OB7YYFWBGOiPSYt4Fk=", "properties": {"@source_uri": "https://tools.usps.com/UspsToolsRestServices/rest/POLocator/findLocations", "@spider": "usps_collection_boxes", "addr:city": "ROCKAWAY PARK", "addr:country": "US", "addr:postcode": "11693", "addr:state": "NY", "addr:street_address": "9801 ROCKAWAY BEACH BLVD", "amenity": "post_box", "brand": "United States Postal Service", "brand:wikidata": "Q668687", "collection_times": "Mo-Fr 09:30; Sa 08:00", "nsi_id": "unitedstatespostalservice-a77078", "operator": "United States Postal Service", "operator:short": "USPS", "operator:type": "public", "operator:wikidata": "Q668687", "ref": "1169300007"}, "type": "Feature"}
{"geometry": {"coordinates": [-73.8259631, 40.583159], "type": "Point"}, "id": "dUVhKiPabzT7vEtqZiCxwE5T8PA=", "properties": {"@source_uri": "https://tools.usps.com/UspsToolsRestServices/rest/POLocator/findLocations", "@spider": "usps_collection_boxes", "addr:city": "ROCKAWAY PARK", "addr:country": "US", "addr:postcode": "11693", "addr:state": "NY", "addr:street_address": "10408 ROCKAWAY BEACH BLVD", "amenity": "post_box", "brand": "United States Postal Service", "brand:wikidata": "Q668687", "collection_times": "Mo-Fr 09:30; Sa 08:00", "nsi_id": "unitedstatespostalservice-a77078", "operator": "United States Postal Service", "operator:short": "USPS", "operator:type": "public", "operator:wikidata": "Q668687", "ref": "1169300008"}, "type": "Feature"}
{"geometry": {"coordinates": [-73.8191577, 40.6077], "type": "Point"}, "id": "XLQDwEi2pn_lSeyFVaNTU9p7xeY=", "properties": {"@source_uri": "https://tools.usps.com/UspsToolsRestServices/rest/POLocator/findLocations", "@spider": "usps_collection_boxes", "addr:city": "ROCKAWAY PARK", "addr:country": "US", "addr:postcode": "11693", "addr:state": "NY", "addr:street_address": "728 CROSS BAY BLVD", "amenity": "post_box", "brand": "United States Postal Service", "brand:wikidata": "Q668687", "collection_times": "Mo-Fr 09:30; Sa 08:00", "nsi_id": "unitedstatespostalservice-a77078", "operator": "United States Postal Service", "operator:short": "USPS", "operator:type": "public", "operator:wikidata": "Q668687", "ref": "1169300014"}, "type": "Feature"}
{"geometry": {"coordinates": [-73.8196686, 40.606615], "type": "Point"}, "id": "IWTchicFNEC6njSB3xwSHTfhz7I=", "properties": {"@source_uri": "https://tools.usps.com/UspsToolsRestServices/rest/POLocator/findLocations", "@spider": "usps_collection_boxes", "addr:city": "ROCKAWAY PARK", "addr:country": "US", "addr:postcode": "11693", "addr:state": "NY", "addr:street_address": "811 CROSS BAY BLVD", "amenity": "post_box", "brand": "United States Postal Service", "brand:wikidata": "Q668687", "collection_times": "Mo-Fr 09:30; Sa 08:00", "nsi_id": "unitedstatespostalservice-a77078", "operator": "United States Postal Service", "operator:short": "USPS", "operator:type": "public", "operator:wikidata": "Q668687", "ref": "1169300015"}, "type": "Feature"}
{"geometry": {"coordinates": [-73.8202047, 40.603135], "type": "Point"}, "id": "qRZ8buOj8Z38bdY6Y2AkbguUFis=", "properties": {"@source_uri": "https://tools.usps.com/UspsToolsRestServices/rest/POLocator/findLocations", "@spider": "usps_collection_boxes", "addr:city": "ROCKAWAY PARK", "addr:country": "US", "addr:postcode": "11693", "addr:state": "NY", "addr:street_address": "1317 CROSS BAY BLVD", "amenity": "post_box", "brand": "United States Postal Service", "brand:wikidata": "Q668687", "collection_times": "Mo-Fr 09:30; Sa 08:00", "nsi_id": "unitedstatespostalservice-a77078", "operator": "United States Postal Service", "operator:short": "USPS", "operator:type": "public", "operator:wikidata": "Q668687", "ref": "1169300016"}, "type": "Feature"}
{"geometry": {"coordinates": [-73.8143571, 40.586956], "type": "Point"}, "id": "LdKcB5Qrrmnf3BYJqdwDfaoE0tc=", "properties": {"@source_uri": "https://tools.usps.com/UspsToolsRestServices/rest/POLocator/findLocations", "@spider": "usps_collection_boxes", "addr:city": "ROCKAWAY PARK", "addr:country": "US", "addr:postcode": "11693", "addr:state": "NY", "addr:street_address": "9014 ROCKAWAY BEACH BLVD", "amenity": "post_box", "brand": "United States Postal Service", "brand:wikidata": "Q668687", "collection_times": "Mo-Fr 16:00; Sa 13:00", "note": "ON 12/24 AND 12/31, THIS BOX MAY BE COLLECTED AS EARLY AS 12 NOON.", "nsi_id": "unitedstatespostalservice-a77078", "operator": "United States Postal Service", "operator:short": "USPS", "operator:type": "public", "operator:wikidata": "Q668687", "ref": "1169300019"}, "type": "Feature"}
{"geometry": {"coordinates": [-73.8173928, 40.585573], "type": "Point"}, "id": "vnhvlNcO8uets_0L74brosz82lQ=", "properties": {"@source_uri": "https://tools.usps.com/UspsToolsRestServices/rest/POLocator/findLocations", "@spider": "usps_collection_boxes", "addr:city": "ROCKAWAY PARK", "addr:country": "US", "addr:postcode": "11693", "addr:state": "NY", "addr:street_address": "9501 ROCKAWAY BEACH BLVD", "amenity": "post_box", "brand": "United States Postal Service", "brand:wikidata": "Q668687", "collection_times": "Mo-Fr 09:30; Sa 08:00", "nsi_id": "unitedstatespostalservice-a77078", "operator": "United States Postal Service", "operator:short": "USPS", "operator:type": "public", "operator:wikidata": "Q668687", "ref": "1169300029"}, "type": "Feature"}
{"geometry": {"coordinates": [-73.814352, 40.586936], "type": "Point"}, "id": "mXHulpD0I9-5CqZ60GAsAMyGJ90=", "properties": {"@source_uri": "https://tools.usps.com/UspsToolsRestServices/rest/POLocator/findLocations", "@spider": "usps_collection_boxes", "addr:city": "ROCKAWAY PARK", "addr:country": "US", "addr:postcode": "11693", "addr:state": "NY", "addr:street_address": "9014 ROCKAWAY BEACH BLVD", "amenity": "post_box", "brand": "United States Postal Service", "brand:wikidata": "Q668687", "collection_times": "Mo-Fr 17:00; Sa 13:00", "indoor": "yes", "note": "ON 12/24 AND 12/31, THIS BOX MAY BE COLLECTED AS EARLY AS 12 NOON.", "nsi_id": "unitedstatespostalservice-a77078", "operator": "United States Postal Service", "operator:short": "USPS", "operator:type": "public", "operator:wikidata": "Q668687", "ref": "1169300030"}, "type": "Feature"}
{"geometry": {"coordinates": [-73.814353123, 40.586932203], "type": "Point"}, "id": "tcynKtakHznR2vs38bd-nIf_HUA=", "properties": {"@source_uri": "https://tools.usps.com/UspsToolsRestServices/rest/POLocator/findLocations", "@spider": "usps_collection_boxes", "addr:city": "ROCKAWAY PARK", "addr:country": "US", "addr:postcode": "11693", "addr:state": "NY", "addr:street_address": "9014 ROCKAWAY BEACH BLVD", "amenity": "post_box", "brand": "United States Postal Service", "brand:wikidata": "Q668687", "collection_times": "Mo-Fr 17:00; Sa 13:00", "indoor": "yes", "note": "ON 12/24 AND 12/31, THIS BOX MAY BE COLLECTED AS EARLY AS 12 NOON.", "nsi_id": "unitedstatespostalservice-a77078", "operator": "United States Postal Service", "operator:short": "USPS", "operator:type": "public", "operator:wikidata": "Q668687", "ref": "1169300032"}, "type": "Feature"}
{"geometry": {"coordinates": [-73.8638726, 40.572802], "type": "Point"}, "id": "Q0-lMidkeYZhpDryzwHq1NV92wg=", "properties": {"@source_uri": "https://tools.usps.com/UspsToolsRestServices/rest/POLocator/findLocations", "@spider": "usps_collection_boxes", "addr:city": "FAR ROCKAWAY", "addr:country": "US", "addr:postcode": "11694", "addr:state": "NY", "addr:street_address": "350 BEACH 147TH ST", "amenity": "post_box", "brand": "United States Postal Service", "brand:wikidata": "Q668687", "collection_times": "Mo-Fr 09:30; Sa 08:00", "nsi_id": "unitedstatespostalservice-a77078", "operator": "United States Postal Service", "operator:short": "USPS", "operator:type": "public", "operator:wikidata": "Q668687", "ref": "1169400002"}, "type": "Feature"}
{"geometry": {"coordinates": [-73.8590272, 40.574416], "type": "Point"}, "id": "jSsPp8w2M8gTPeCdPF16HmeHFI0=", "properties": {"@source_uri": "https://tools.usps.com/UspsToolsRestServices/rest/POLocator/findLocations", "@spider": "usps_collection_boxes", "addr:city": "FAR ROCKAWAY", "addr:country": "US", "addr:postcode": "11694", "addr:state": "NY", "addr:street_address": "14105 NEWPORT AVE", "amenity": "post_box", "brand": "United States Postal Service", "brand:wikidata": "Q668687", "collection_times": "Mo-Fr 09:30; Sa 08:00", "nsi_id": "unitedstatespostalservice-a77078", "operator": "United States Postal Service", "operator:short": "USPS", "operator:type": "public", "operator:wikidata": "Q668687", "ref": "1169400005"}, "type": "Feature"}
{"geometry": {"coordinates": [-73.8531299, 40.576541], "type": "Point"}, "id": "ATsfjjeJ4mIYcveLyRpracfsmMw=", "properties": {"@source_uri": "https://tools.usps.com/UspsToolsRestServices/rest/POLocator/findLocations", "@spider": "usps_collection_boxes", "addr:city": "FAR ROCKAWAY", "addr:country": "US", "addr:postcode": "11694", "addr:state": "NY", "addr:street_address": "402 BEACH 134TH ST", "amenity": "post_box", "brand": "United States Postal Service", "brand:wikidata": "Q668687", "collection_times": "Mo-Fr 09:30; Sa 08:00", "nsi_id": "unitedstatespostalservice-a77078", "operator": "United States Postal Service", "operator:short": "USPS", "operator:type": "public", "operator:wikidata": "Q668687", "ref": "1169400007"}, "type": "Feature"}
{"geometry": {"coordinates": [-73.8495352, 40.575453], "type": "Point"}, "id": "SsCdPLXvm1dTOKXk0sHftRI9AzE=", "properties": {"@source_uri": "https://tools.usps.com/UspsToolsRestServices/rest/POLocator/findLocations", "@spider": "usps_collection_boxes", "addr:city": "FAR ROCKAWAY", "addr:country": "US", "addr:postcode": "11694", "addr:state": "NY", "addr:street_address": "13016 ROCKAWAY BEACH BLVD", "amenity": "post_box", "brand": "United States Postal Service", "brand:wikidata": "Q668687", "collection_times": "Mo-Fr 09:30; Sa 08:00", "nsi_id": "unitedstatespostalservice-a77078", "operator": "United States Postal Service", "operator:short": "USPS", "operator:type": "public", "operator:wikidata": "Q668687", "ref": "1169400009"}, "type": "Feature"}
{"geometry": {"coordinates": [-73.8502619, 40.579611], "type": "Point"}, "id": "btDx7rEbnjXgvDvFokmns2QWmJU=", "properties": {"@source_uri": "https://tools.usps.com/UspsToolsRestServices/rest/POLocator/findLocations", "@spider": "usps_collection_boxes", "addr:city": "FAR ROCKAWAY", "addr:country": "US", "addr:postcode": "11694", "addr:state": "NY", "addr:street_address": "463 B 129 ST", "amenity": "post_box", "brand": "United States Postal Service", "brand:wikidata": "Q668687", "collection_times": "Mo-Fr 09:30; Sa 08:00", "nsi_id": "unitedstatespostalservice-a77078", "operator": "United States Postal Service", "operator:short": "USPS", "operator:type": "public", "operator:wikidata": "Q668687", "ref": "1169400010"}, "type": "Feature"}
{"geometry": {"coordinates": [-73.8455578, 40.579077], "type": "Point"}, "id": "uIHrREfH4E_afnCkmD0mLRljytY=", "properties": {"@source_uri": "https://tools.usps.com/UspsToolsRestServices/rest/POLocator/findLocations", "@spider": "usps_collection_boxes", "addr:city": "FAR ROCKAWAY", "addr:country": "US", "addr:postcode": "11694", "addr:state": "NY", "addr:street_address": "408 B 125 ST", "amenity": "post_box", "brand": "United States Postal Service", "brand:wikidata": "Q668687", "collection_times": "Mo-Fr 09:30; Sa 08:00", "nsi_id": "unitedstatespostalservice-a77078", "operator": "United States Postal Service", "operator:short": "USPS", "operator:type": "public", "operator:wikidata": "Q668687", "ref": "1169400012"}, "type": "Feature"}
{"geometry": {"coordinates": [-73.8437574, 40.577513], "type": "Point"}, "id": "KgEtvLMbXHxCNuMLLEzoBmpYNDw=", "properties": {"@source_uri": "https://tools.usps.com/UspsToolsRestServices/rest/POLocator/findLocations", "@spider": "usps_collection_boxes", "addr:city": "FAR ROCKAWAY", "addr:country": "US", "addr:postcode": "11694", "addr:state": "NY", "addr:street_address": "12311 ROCKAWAY BEACH BLVD", "amenity": "post_box", "brand": "United States Postal Service", "brand:wikidata": "Q668687", "collection_times": "Mo-Fr 09:30; Sa 08:00", "nsi_id": "unitedstatespostalservice-a77078", "operator": "United States Postal Service", "operator:short": "USPS", "operator:type": "public", "operator:wikidata": "Q668687", "ref": "1169400013"}, "type": "Feature"}
{"geometry": {"coordinates": [-73.8422436797, 40.5802802698], "type": "Point"}, "id": "em5oAF9gExdIHNCIdysBtx96_CM=", "properties": {"@source_uri": "https://tools.usps.com/UspsToolsRestServices/rest/POLocator/findLocations", "@spider": "usps_collection_boxes", "addr:city": "FAR ROCKAWAY", "addr:country": "US", "addr:postcode": "11694", "addr:state": "NY", "addr:street_address": "12018 NEWPORT AVE", "amenity": "post_box", "brand": "United States Postal Service", "brand:wikidata": "Q668687", "collection_times": "Mo-Fr 09:30; Sa 08:00", "nsi_id": "unitedstatespostalservice-a77078", "operator": "United States Postal Service", "operator:short": "USPS", "operator:type": "public", "operator:wikidata": "Q668687", "ref": "1169400014"}, "type": "Feature"}
{"geometry": {"coordinates": [-73.8374834, 40.580509], "type": "Point"}, "id": "-up-jJZkf8kXL8LmqJ8EOBBdW2A=", "properties": {"@source_uri": "https://tools.usps.com/UspsToolsRestServices/rest/POLocator/findLocations", "@spider": "usps_collection_boxes", "addr:city": "FAR ROCKAWAY", "addr:country": "US", "addr:postcode": "11694", "addr:state": "NY", "addr:street_address": "234 BEACH 116TH ST", "amenity": "post_box", "brand": "United States Postal Service", "brand:wikidata": "Q668687", "collection_times": "Mo-Fr 13:00; Sa 08:00", "note": "ON 12/24 AND 12/31, THIS BOX MAY BE COLLECTED AS EARLY AS 12 NOON.", "nsi_id": "unitedstatespostalservice-a77078", "operator": "United States Postal Service", "operator:short": "USPS", "operator:type": "public", "operator:wikidata": "Q668687", "ref": "1169400016"}, "type": "Feature"}
{"geometry": {"coordinates": [-73.8543377971, 40.5782258958], "type": "Point"}, "id": "k94MiyOJOHmWKG21SCz5ml_Sa7c=", "properties": {"@source_uri": "https://tools.usps.com/UspsToolsRestServices/rest/POLocator/findLocations", "@spider": "usps_collection_boxes", "addr:city": "FAR ROCKAWAY", "addr:country": "US", "addr:postcode": "11694", "addr:state": "NY", "addr:street_address": "13401 CRONSTON AVE", "amenity": "post_box", "brand": "United States Postal Service", "brand:wikidata": "Q668687", "collection_times": "Mo-Fr 09:30; Sa 08:00", "nsi_id": "unitedstatespostalservice-a77078", "operator": "United States Postal Service", "operator:short": "USPS", "operator:type": "public", "operator:wikidata": "Q668687", "ref": "1169400018"}, "type": "Feature"}
{"geometry": {"coordinates": [-73.8829466, 40.567175], "type": "Point"}, "id": "C8RAzjPtFhrUuey8khQ66veAjWs=", "properties": {"@source_uri": "https://tools.usps.com/UspsToolsRestServices/rest/POLocator/findLocations", "@spider": "usps_collection_boxes", "addr:city": "FAR ROCKAWAY", "addr:country": "US", "addr:postcode": "11694", "addr:state": "NY", "addr:street_address": "134 STEELE RD", "amenity": "post_box", "brand": "United States Postal Service", "brand:wikidata": "Q668687", "collection_times": "Mo-Fr 13:00; Sa 08:00", "note": "ON 12/24 AND 12/31, THIS BOX MAY BE COLLECTED AS EARLY AS 12 NOON.", "nsi_id": "unitedstatespostalservice-a77078", "operator": "United States Postal Service", "operator:short": "USPS", "operator:type": "public", "operator:wikidata": "Q668687", "ref": "1169400020"}, "type": "Feature"}
{"geometry": {"coordinates": [-73.8485258, 40.580173], "type": "Point"}, "id": "U_LSbyo7ufEprOECTIKHpZw5ySk=", "properties": {"@source_uri": "https://tools.usps.com/UspsToolsRestServices/rest/POLocator/findLocations", "@spider": "usps_collection_boxes", "addr:city": "FAR ROCKAWAY", "addr:country": "US", "addr:postcode": "11694", "addr:state": "NY", "addr:street_address": "463 BEACH 127TH ST", "amenity": "post_box", "brand": "United States Postal Service", "brand:wikidata": "Q668687", "collection_times": "Mo-Fr 09:30; Sa 08:00", "nsi_id": "unitedstatespostalservice-a77078", "operator": "United States Postal Service", "operator:short": "USPS", "operator:type": "public", "operator:wikidata": "Q668687", "ref": "1169400024"}, "type": "Feature"}
{"geometry": {"coordinates": [-73.8525056, 40.578852], "type": "Point"}, "id": "AjwOaUMj3o6qoluko8U0Sg6DQ9I=", "properties": {"@source_uri": "https://tools.usps.com/UspsToolsRestServices/rest/POLocator/findLocations", "@spider": "usps_collection_boxes", "addr:city": "FAR ROCKAWAY", "addr:country": "US", "addr:postcode": "11694", "addr:state": "NY", "addr:street_address": "13115 CRONSTON AVE", "amenity": "post_box", "brand": "United States Postal Service", "brand:wikidata": "Q668687", "collection_times": "Mo-Fr 09:30; Sa 08:00", "nsi_id": "unitedstatespostalservice-a77078", "operator": "United States Postal Service", "operator:short": "USPS", "operator:type": "public", "operator:wikidata": "Q668687", "ref": "1169400067"}, "type": "Feature"}
{"geometry": {"coordinates": [-73.836302899, 40.582214598], "type": "Point"}, "id": "0i2RqlL7bzFpOzGXRdlZHwhdYss=", "properties": {"@source_uri": "https://tools.usps.com/UspsToolsRestServices/rest/POLocator/findLocations", "@spider": "usps_collection_boxes", "addr:city": "FAR ROCKAWAY", "addr:country": "US", "addr:postcode": "11694", "addr:state": "NY", "addr:street_address": "11325 BEACH CHANNEL DR", "amenity": "post_box", "brand": "United States Postal Service", "brand:wikidata": "Q668687", "collection_times": "Mo-Fr 17:00; Sa 13:00", "note": "ON 12/24 AND 12/31, THIS BOX MAY BE COLLECTED AS EARLY AS 12 NOON.", "nsi_id": "unitedstatespostalservice-a77078", "operator": "United States Postal Service", "operator:short": "USPS", "operator:type": "public", "operator:wikidata": "Q668687", "ref": "1169400068"}, "type": "Feature"}
{"geometry": {"coordinates": [-73.836163, 40.582323], "type": "Point"}, "id": "fz6asJGIOrym8pYdOEMd66TivQo=", "properties": {"@source_uri": "https://tools.usps.com/UspsToolsRestServices/rest/POLocator/findLocations", "@spider": "usps_collection_boxes", "addr:city": "FAR ROCKAWAY", "addr:country": "US", "addr:postcode": "11694", "addr:state": "NY", "addr:street_address": "11325 BEACH CHANNEL DR", "amenity": "post_box", "brand": "United States Postal Service", "brand:wikidata": "Q668687", "collection_times": "Mo-Fr 17:00; Sa 12:00", "indoor": "yes", "note": "ON 12/24 AND 12/31, THIS BOX MAY BE COLLECTED AS EARLY AS 12 NOON.", "nsi_id": "unitedstatespostalservice-a77078", "operator": "United States Postal Service", "operator:short": "USPS", "operator:type": "public", "operator:wikidata": "Q668687", "ref": "1169400069"}, "type": "Feature"}
{"geometry": {"coordinates": [-73.83653267, 40.5821203909], "type": "Point"}, "id": "SKihcuwdTQ1QCtRbhwJ3K71ROTg=", "properties": {"@source_uri": "https://tools.usps.com/UspsToolsRestServices/rest/POLocator/findLocations", "@spider": "usps_collection_boxes", "addr:city": "FAR ROCKAWAY", "addr:country": "US", "addr:postcode": "11694", "addr:state": "NY", "addr:street_address": "11325 BEACH CHANNEL DR", "amenity": "post_box", "brand": "United States Postal Service", "brand:wikidata": "Q668687", "collection_times": "Mo-Fr 17:00; Sa 13:00", "indoor": "yes", "note": "ON 12/24 AND 12/31, THIS BOX MAY BE COLLECTED AS EARLY AS 12 NOON.", "nsi_id": "unitedstatespostalservice-a77078", "operator": "United States Postal Service", "operator:short": "USPS", "operator:type": "public", "operator:wikidata": "Q668687", "ref": "1169400070"}, "type": "Feature"}
