{"geometry": {"coordinates": [-73.0501, 40.747331], "type": "Point"}, "id": "Ed3s73ksQ5hinZqp0l8W6lPOYv0=", "properties": {"@spider": "usps_collection_boxes", "addr:city": "BAYPORT", "addr:country": "US", "addr:full": "850 MONTAUK HWY", "addr:postcode": "11705", "addr:state": "NY", "brand": "USPS", "collection_times": "Mo-Fr 17:00; Sa 15:00", "name": "USPS COLLECTION BOX - BLUE BOX", "note": "ON 12/24 AND 12/31, THIS BOX MAY BE COLLECTED AS EARLY AS 12 NOON.", "ref": "1170500006"}, "type": "Feature"}
{"geometry": {"coordinates": [-73.0501, 40.747331], "type": "Point"}, "id": "N8zxbzVj0r5bMVKyeFU-Gslr-To=", "properties": {"@spider": "usps_collection_boxes", "addr:city": "BAYPORT", "addr:country": "US", "addr:full": "850 MONTAUK HWY", "addr:postcode": "11705", "addr:state": "NY", "brand": "USPS", "collection_times": "Mo-Fr 17:00; Sa 15:00", "name": "USPS COLLECTION BOX - PO LOBBY", "note": "ON 12/24 AND 12/31, THIS BOX MAY BE COLLECTED AS EARLY AS 12 NOON.", "ref": "1170500013"}, "type": "Feature"}
{"geometry": {"coordinates": [-73.050096778, 40.74732982], "type": "Point"}, "id": "SE1dboRoEYtH4YMG60MgDuKdO3E=", "properties": {"@spider": "usps_collection_boxes", "addr:city": "BAYPORT", "addr:country": "US", "addr:full": "850 MONTAUK HWY", "addr:postcode": "11705", "addr:state": "NY", "brand": "USPS", "collection_times": "Mo-Fr 17:00; Sa 13:00", "name": "USPS COLLECTION BOX - PO LOBBY", "note": "ON 12/24 AND 12/31, THIS BOX MAY BE COLLECTED AS EARLY AS 12 NOON.", "ref": "1170500015"}, "type": "Feature"}
{"geometry": {"coordinates": [-72.9400009, 40.756937], "type": "Point"}, "id": "wuSHxl45ckD4Jt0aFasPsD-cB6o=", "properties": {"@spider": "usps_collection_boxes", "addr:city": "BELLPORT", "addr:country": "US", "addr:full": "107 S COUNTRY RD", "addr:postcode": "11713", "addr:state": "NY", "brand": "USPS", "collection_times": "Mo-Sa 13:00", "name": "USPS COLLECTION BOX - BLUE BOX", "note": "ON 12/24 AND 12/31, THIS BOX MAY BE COLLECTED AS EARLY AS 12 NOON.", "ref": "1171300001"}, "type": "Feature"}
{"geometry": {"coordinates": [-72.939674, 40.758733], "type": "Point"}, "id": "lsUSdQDzHNWN0N5pCT0cxl_DOMU=", "properties": {"@spider": "usps_collection_boxes", "addr:city": "BELLPORT", "addr:country": "US", "addr:full": "26 STATION RD", "addr:postcode": "11713", "addr:state": "NY", "brand": "USPS", "collection_times": "Mo-Fr 17:00; Sa 15:00", "name": "USPS COLLECTION BOX - BLUE BOX", "note": "ON 12/24 AND 12/31, THIS BOX MAY BE COLLECTED AS EARLY AS 12 NOON.", "ref": "1171300002"}, "type": "Feature"}
{"geometry": {"coordinates": [-72.9459358, 40.799211], "type": "Point"}, "id": "dgtRwiVOl4S4flzgSjkX7Lpf11I=", "properties": {"@spider": "usps_collection_boxes", "addr:city": "BELLPORT", "addr:country": "US", "addr:full": "58 SAWGRASS DR", "addr:postcode": "11713", "addr:state": "NY", "brand": "USPS", "collection_times": "Mo-Sa 13:00", "name": "USPS COLLECTION BOX - BLUE BOX", "note": "ON 12/24 AND 12/31, THIS BOX MAY BE COLLECTED AS EARLY AS 12 NOON.", "ref": "1171300003"}, "type": "Feature"}
{"geometry": {"coordinates": [-72.9381199, 40.756319], "type": "Point"}, "id": "Z5OJgztBEiFHAltg3fmfTayXmj0=", "properties": {"@spider": "usps_collection_boxes", "addr:city": "BELLPORT", "addr:country": "US", "addr:full": "29 BELLPORT LN", "addr:postcode": "11713", "addr:state": "NY", "brand": "USPS", "collection_times": "Mo-Sa 13:00", "name": "USPS COLLECTION BOX - BLUE BOX", "note": "ON 12/24 AND 12/31, THIS BOX MAY BE COLLECTED AS EARLY AS 12 NOON.", "ref": "1171300004"}, "type": "Feature"}
{"geometry": {"coordinates": [-72.9388084, 40.757867], "type": "Point"}, "id": "Q_FOJgSgcZmKgSDSk6icrwzhRWA=", "properties": {"@spider": "usps_collection_boxes", "addr:city": "BELLPORT", "addr:country": "US", "addr:full": "145 S COUNTRY RD", "addr:postcode": "11713", "addr:state": "NY", "brand": "USPS", "collection_times": "Mo-Sa 13:00", "name": "USPS COLLECTION BOX - BLUE BOX", "note": "ON 12/24 AND 12/31, THIS BOX MAY BE COLLECTED AS EARLY AS 12 NOON.", "ref": "1171300007"}, "type": "Feature"}
{"geometry": {"coordinates": [-72.939674, 40.758733], "type": "Point"}, "id": "IO2-nFTOxLhx455DVZ8-oqUa20k=", "properties": {"@spider": "usps_collection_boxes", "addr:city": "BELLPORT", "addr:country": "US", "addr:full": "26 STATION RD", "addr:postcode": "11713", "addr:state": "NY", "brand": "USPS", "collection_times": "Mo-Fr 17:00; Sa 15:00", "name": "USPS COLLECTION BOX - BLUE BOX", "note": "ON 12/24 AND 12/31, THIS BOX MAY BE COLLECTED AS EARLY AS 12 NOON.", "ref": "1171300008"}, "type": "Feature"}
{"geometry": {"coordinates": [-72.9396976987, 40.7587366001], "type": "Point"}, "id": "5QQDfitsCEvgNIFmZsICartIZjk=", "properties": {"@spider": "usps_collection_boxes", "addr:city": "BELLPORT", "addr:country": "US", "addr:full": "26 STATION RD", "addr:postcode": "11713", "addr:state": "NY", "brand": "USPS", "collection_times": "Mo-Fr 17:00; Sa 15:00", "name": "USPS COLLECTION BOX - BLUE BOX", "note": "ON 12/24 AND 12/31, THIS BOX MAY BE COLLECTED AS EARLY AS 12 NOON.", "ref": "1171300009"}, "type": "Feature"}
{"geometry": {"coordinates": [-72.948730405, 40.7910837786], "type": "Point"}, "id": "R2N1JYU9eo4xB6VN3Mfszs8ugOE=", "properties": {"@spider": "usps_collection_boxes", "addr:city": "BELLPORT", "addr:country": "US", "addr:full": "10 FARBER DR", "addr:postcode": "11713", "addr:state": "NY", "brand": "USPS", "collection_times": "Mo-Sa 13:00", "name": "USPS COLLECTION BOX - BLUE BOX", "note": "ON 12/24 AND 12/31, THIS BOX MAY BE COLLECTED AS EARLY AS 12 NOON.", "ref": "1171300013"}, "type": "Feature"}
{"geometry": {"coordinates": [-72.9528186, 40.789846], "type": "Point"}, "id": "d2AxrscLYDWtj39u2eb19FtFu1w=", "properties": {"@spider": "usps_collection_boxes", "addr:city": "BELLPORT", "addr:country": "US", "addr:full": "10 FARBER DR", "addr:postcode": "11713", "addr:state": "NY", "brand": "USPS", "collection_times": "Mo-Sa 13:00", "name": "USPS COLLECTION BOX - BLUE BOX", "note": "ON 12/24 AND 12/31, THIS BOX MAY BE COLLECTED AS EARLY AS 12 NOON.", "ref": "1171300014"}, "type": "Feature"}
{"geometry": {"coordinates": [-72.939674, 40.758733], "type": "Point"}, "id": "ZImyOgiGYxgZF0-_6wCUIOtRBiA=", "properties": {"@spider": "usps_collection_boxes", "addr:city": "BELLPORT", "addr:country": "US", "addr:full": "26 STATION RD", "addr:postcode": "11713", "addr:state": "NY", "brand": "USPS", "collection_times": "Mo-Fr 17:00; Sa 15:00", "name": "USPS COLLECTION BOX - PO LOBBY", "note": "ON 12/24 AND 12/31, THIS BOX MAY BE COLLECTED AS EARLY AS 12 NOON.", "ref": "1171300019"}, "type": "Feature"}
{"geometry": {"coordinates": [-72.939697765, 40.758722919], "type": "Point"}, "id": "KdtqEwYyIClZj_0M-T_8AZ0SGBA=", "properties": {"@spider": "usps_collection_boxes", "addr:city": "BELLPORT", "addr:country": "US", "addr:full": "26 STATION RD", "addr:postcode": "11713", "addr:state": "NY", "brand": "USPS", "collection_times": "Mo-Fr 17:00; Sa 13:00", "name": "USPS COLLECTION BOX - PO LOBBY", "note": "ON 12/24 AND 12/31, THIS BOX MAY BE COLLECTED AS EARLY AS 12 NOON.", "ref": "1171300021"}, "type": "Feature"}
{"geometry": {"coordinates": [-73.033627, 40.757708], "type": "Point"}, "id": "jl0BJ7ojGCAnJ8-1WpXvuJ8iamc=", "properties": {"@spider": "usps_collection_boxes", "addr:city": "BLUE POINT", "addr:country": "US", "addr:full": "141 MONTAUK HWY", "addr:postcode": "11715", "addr:state": "NY", "brand": "USPS", "collection_times": "Mo-Fr 17:00; Sa 15:30", "name": "USPS COLLECTION BOX - BLUE BOX", "note": "ON 12/24 AND 12/31, THIS BOX MAY BE COLLECTED AS EARLY AS 12 NOON.", "ref": "1171500001"}, "type": "Feature"}
{"geometry": {"coordinates": [-73.033627, 40.757708], "type": "Point"}, "id": "U7YJ8-SWKSsFVTR3xqMMdOhOLBs=", "properties": {"@spider": "usps_collection_boxes", "addr:city": "BLUE POINT", "addr:country": "US", "addr:full": "141 MONTAUK HWY", "addr:postcode": "11715", "addr:state": "NY", "brand": "USPS", "collection_times": "Mo-Fr 17:00; Sa 15:30", "name": "USPS COLLECTION BOX - BLUE BOX", "note": "ON 12/24 AND 12/31, THIS BOX MAY BE COLLECTED AS EARLY AS 12 NOON.", "ref": "1171500002"}, "type": "Feature"}
{"geometry": {"coordinates": [-73.033537912, 40.757826268], "type": "Point"}, "id": "wKym6Dn_J80zG43HZ0635HewT3Y=", "properties": {"@spider": "usps_collection_boxes", "addr:city": "BLUE POINT", "addr:country": "US", "addr:full": "141 MONTAUK HWY", "addr:postcode": "11715", "addr:state": "NY", "brand": "USPS", "collection_times": "Mo-Fr 16:30; Sa 15:30", "name": "USPS COLLECTION BOX - BLUE BOX", "note": "ON 12/24 AND 12/31, THIS BOX MAY BE COLLECTED AS EARLY AS 12 NOON.", "ref": "1171500003"}, "type": "Feature"}
{"geometry": {"coordinates": [-73.0366726, 40.74969], "type": "Point"}, "id": "4HX0wtfFtG6fVR1LAnC8YOQE4bc=", "properties": {"@spider": "usps_collection_boxes", "addr:city": "BLUE POINT", "addr:country": "US", "addr:full": "205 BLUE POINT AVE", "addr:postcode": "11715", "addr:state": "NY", "brand": "USPS", "collection_times": "Mo-Sa 09:30", "name": "USPS COLLECTION BOX - BLUE BOX", "ref": "1171500004"}, "type": "Feature"}
{"geometry": {"coordinates": [-73.0287666, 40.753958], "type": "Point"}, "id": "lB0TEJAwBye0VhS3hWnM4tRQ-mo=", "properties": {"@spider": "usps_collection_boxes", "addr:city": "BLUE POINT", "addr:country": "US", "addr:full": "3 KINN ST", "addr:postcode": "11715", "addr:state": "NY", "brand": "USPS", "collection_times": "Mo-Sa 09:30", "name": "USPS COLLECTION BOX - BLUE BOX", "ref": "1171500007"}, "type": "Feature"}
{"geometry": {"coordinates": [-73.0344816, 40.743701], "type": "Point"}, "id": "ruOduXaT_jQ0qxxGHBigPG405U0=", "properties": {"@spider": "usps_collection_boxes", "addr:city": "BLUE POINT", "addr:country": "US", "addr:full": "206 MIDDLE RD", "addr:postcode": "11715", "addr:state": "NY", "brand": "USPS", "collection_times": "Mo-Sa 09:30", "name": "USPS COLLECTION BOX - BLUE BOX", "ref": "1171500010"}, "type": "Feature"}
{"geometry": {"coordinates": [-73.033627, 40.757708], "type": "Point"}, "id": "qMVA54cWRr2Wiy4cry9pcaSa7O4=", "properties": {"@spider": "usps_collection_boxes", "addr:city": "BLUE POINT", "addr:country": "US", "addr:full": "141 MONTAUK HWY", "addr:postcode": "11715", "addr:state": "NY", "brand": "USPS", "collection_times": "Mo-Fr 16:30; Sa 13:00", "name": "USPS COLLECTION BOX - PO LOBBY", "note": "ON 12/24 AND 12/31, THIS BOX MAY BE COLLECTED AS EARLY AS 12 NOON.", "ref": "1171500044"}, "type": "Feature"}
{"geometry": {"coordinates": [-73.033537912, 40.757826268], "type": "Point"}, "id": "pWxlPkYNFxxTlscebKB_sWOAwMk=", "properties": {"@spider": "usps_collection_boxes", "addr:city": "BLUE POINT", "addr:country": "US", "addr:full": "141 MONTAUK HWY", "addr:postcode": "11715", "addr:state": "NY", "brand": "USPS", "collection_times": "Mo-Fr 17:00; Sa 13:00", "name": "USPS COLLECTION BOX - PO LOBBY", "note": "ON 12/24 AND 12/31, THIS BOX MAY BE COLLECTED AS EARLY AS 12 NOON.", "ref": "1171500045"}, "type": "Feature"}
{"geometry": {"coordinates": [-73.0872523, 40.775368], "type": "Point"}, "id": "dKe9VcBGohjPbQcVrtc6OfGpark=", "properties": {"@spider": "usps_collection_boxes", "addr:city": "BOHEMIA", "addr:country": "US", "addr:full": "195 KNICKERBOCKER AVE", "addr:postcode": "11716", "addr:state": "NY", "brand": "USPS", "collection_times": "Mo-Sa 09:30", "name": "USPS COLLECTION BOX - BLUE BOX", "ref": "1171600003"}, "type": "Feature"}
{"geometry": {"coordinates": [-73.0872765842, 40.7751383814], "type": "Point"}, "id": "8K2GvvtAivX1KTKDn1nfnT9KHL8=", "properties": {"@spider": "usps_collection_boxes", "addr:city": "BOHEMIA", "addr:country": "US", "addr:full": "195 KNICKERBOCKER AVE", "addr:postcode": "11716", "addr:state": "NY", "brand": "USPS", "collection_times": "Mo-Sa 09:30", "name": "USPS COLLECTION BOX - BLUE BOX", "ref": "1171600004"}, "type": "Feature"}
{"geometry": {"coordinates": [-73.1022069, 40.779257], "type": "Point"}, "id": "6C5mMMTr-xAA4v17vEE9alZlNfA=", "properties": {"@spider": "usps_collection_boxes", "addr:city": "BOHEMIA", "addr:country": "US", "addr:full": "40 ORVILLE DR", "addr:postcode": "11716", "addr:state": "NY", "brand": "USPS", "collection_times": "Mo-Fr 12:00; Sa 10:00", "name": "USPS COLLECTION BOX - BLUE BOX", "ref": "1171600011"}, "type": "Feature"}
{"geometry": {"coordinates": [-73.1021475872, 40.7790711829], "type": "Point"}, "id": "4rZuXub4jWRwM8bt0lEuMEjN9oU=", "properties": {"@spider": "usps_collection_boxes", "addr:city": "BOHEMIA", "addr:country": "US", "addr:full": "40 ORVILLE DR", "addr:postcode": "11716", "addr:state": "NY", "brand": "USPS", "collection_times": "Mo-Fr 12:00; Sa 10:00", "name": "USPS COLLECTION BOX - BLUE BOX", "ref": "1171600012"}, "type": "Feature"}
{"geometry": {"coordinates": [-73.0957745, 40.776634], "type": "Point"}, "id": "-PP6sVP3Np9Nbp4nZjP1Nkh2xR8=", "properties": {"@spider": "usps_collection_boxes", "addr:city": "BOHEMIA", "addr:country": "US", "addr:full": "20 KEYLAND CT", "addr:postcode": "11716", "addr:state": "NY", "brand": "USPS", "collection_times": "Mo-Sa 10:30", "name": "USPS COLLECTION BOX - BLUE BOX", "ref": "1171600013"}, "type": "Feature"}
{"geometry": {"coordinates": [-73.1145847, 40.755732], "type": "Point"}, "id": "z1Qd2LU3ZKAx5K05V1nbK_if80k=", "properties": {"@spider": "usps_collection_boxes", "addr:city": "BOHEMIA", "addr:country": "US", "addr:full": "4625 SUNRISE HWY", "addr:postcode": "11716", "addr:state": "NY", "brand": "USPS", "collection_times": "Mo-Sa 10:00", "name": "USPS COLLECTION BOX - BLUE BOX", "ref": "1171600014"}, "type": "Feature"}
{"geometry": {"coordinates": [-73.1002663, 40.764624], "type": "Point"}, "id": "AGDJmyH7eOCjVrS7IR2Kacv7kLc=", "properties": {"@spider": "usps_collection_boxes", "addr:city": "BOHEMIA", "addr:country": "US", "addr:full": "15 WESTGATE DR", "addr:postcode": "11716", "addr:state": "NY", "brand": "USPS", "collection_times": "Mo-Sa 13:00", "name": "USPS COLLECTION BOX - BLUE BOX", "note": "ON 12/24 AND 12/31, THIS BOX MAY BE COLLECTED AS EARLY AS 12 NOON.", "ref": "1171600015"}, "type": "Feature"}
{"geometry": {"coordinates": [-73.101907, 40.776702], "type": "Point"}, "id": "pEsYRZ8BtW0c1qp-XOqIxWgQhwc=", "properties": {"@spider": "usps_collection_boxes", "addr:city": "BOHEMIA", "addr:country": "US", "addr:full": "200 ORVILLE DR", "addr:postcode": "11716", "addr:state": "NY", "brand": "USPS", "collection_times": "Mo-Fr 17:00; Sa 15:30", "name": "USPS COLLECTION BOX - BLUE BOX", "note": "ON 12/24 AND 12/31, THIS BOX MAY BE COLLECTED AS EARLY AS 12 NOON.", "ref": "1171600016"}, "type": "Feature"}
{"geometry": {"coordinates": [-73.101907, 40.776702], "type": "Point"}, "id": "mo7SJvoiALwLOZ7LEDlg9RkkXlI=", "properties": {"@spider": "usps_collection_boxes", "addr:city": "BOHEMIA", "addr:country": "US", "addr:full": "200 ORVILLE DR", "addr:postcode": "11716", "addr:state": "NY", "brand": "USPS", "collection_times": "Mo-Fr 17:00; Sa 15:30", "name": "USPS COLLECTION BOX - BLUE BOX", "note": "ON 12/24 AND 12/31, THIS BOX MAY BE COLLECTED AS EARLY AS 12 NOON.", "ref": "1171600017"}, "type": "Feature"}
{"geometry": {"coordinates": [-73.1013945944, 40.7705660991], "type": "Point"}, "id": "S7o3A2i1OMNwpGUAssWLJ28dhsQ=", "properties": {"@spider": "usps_collection_boxes", "addr:city": "BOHEMIA", "addr:country": "US", "addr:full": "200 ORVILLE DR", "addr:postcode": "11716", "addr:state": "NY", "brand": "USPS", "collection_times": "Mo-Fr 17:00; Sa 15:30", "name": "USPS COLLECTION BOX - BLUE BOX", "note": "ON 12/24 AND 12/31, THIS BOX MAY BE COLLECTED AS EARLY AS 12 NOON.", "ref": "1171600019"}, "type": "Feature"}
{"geometry": {"coordinates": [-73.1073849, 40.782755], "type": "Point"}, "id": "tX7qGTQzfz41uIs57yaWXo0WK_U=", "properties": {"@spider": "usps_collection_boxes", "addr:city": "BOHEMIA", "addr:country": "US", "addr:full": "3900 VETERANS MEMORIAL HWY", "addr:postcode": "11716", "addr:state": "NY", "brand": "USPS", "collection_times": "Mo-Sa 10:00", "name": "USPS COLLECTION BOX - BLUE BOX", "ref": "1171600020"}, "type": "Feature"}
{"geometry": {"coordinates": [-73.101907, 40.776702], "type": "Point"}, "id": "7sigAatqcGOE4schuI1hTW_O-Yk=", "properties": {"@spider": "usps_collection_boxes", "addr:city": "BOHEMIA", "addr:country": "US", "addr:full": "200 ORVILLE DR", "addr:postcode": "11716", "addr:state": "NY", "brand": "USPS", "collection_times": "Mo-Fr 17:00; Sa 15:30", "name": "USPS COLLECTION BOX - PO LOBBY", "note": "ON 12/24 AND 12/31, THIS BOX MAY BE COLLECTED AS EARLY AS 12 NOON.", "ref": "1171600028"}, "type": "Feature"}
{"geometry": {"coordinates": [-73.101399094, 40.770566099], "type": "Point"}, "id": "PbdLkKxdKNgNqYudM1Xj1eJKUq4=", "properties": {"@spider": "usps_collection_boxes", "addr:city": "BOHEMIA", "addr:country": "US", "addr:full": "200 ORVILLE DR", "addr:postcode": "11716", "addr:state": "NY", "brand": "USPS", "collection_times": "Mo-Fr 17:00; Sa 13:00", "name": "USPS COLLECTION BOX - PO LOBBY", "note": "ON 12/24 AND 12/31, THIS BOX MAY BE COLLECTED AS EARLY AS 12 NOON.", "ref": "1171600030"}, "type": "Feature"}
{"geometry": {"coordinates": [-72.916945, 40.787582], "type": "Point"}, "id": "sMI3x6GyUthOOo6GxaoMKXpoP9M=", "properties": {"@spider": "usps_collection_boxes", "addr:city": "BROOKHAVEN", "addr:country": "US", "addr:full": "2512 MONTAUK HWY", "addr:postcode": "11719", "addr:state": "NY", "brand": "USPS", "collection_times": "Mo-Fr 16:30; Sa 13:00", "name": "USPS COLLECTION BOX - BLUE BOX", "note": "ON 12/24 AND 12/31, THIS BOX MAY BE COLLECTED AS EARLY AS 12 NOON.", "ref": "1171900002"}, "type": "Feature"}
{"geometry": {"coordinates": [-72.917003, 40.787505], "type": "Point"}, "id": "IQPVzNKTXhkqaDW5ecUPr46CIEQ=", "properties": {"@spider": "usps_collection_boxes", "addr:city": "BROOKHAVEN", "addr:country": "US", "addr:full": "2512 MONTAUK HWY", "addr:postcode": "11719", "addr:state": "NY", "brand": "USPS", "collection_times": "Mo-Fr 16:30; Sa 13:00", "name": "USPS COLLECTION BOX - PO LOBBY", "note": "ON 12/24 AND 12/31, THIS BOX MAY BE COLLECTED AS EARLY AS 12 NOON.", "ref": "1171900004"}, "type": "Feature"}
{"geometry": {"coordinates": [-72.916908599, 40.787702131], "type": "Point"}, "id": "zqzL_k4N0Dit_Qhti4vY6UcIU2w=", "properties": {"@spider": "usps_collection_boxes", "addr:city": "BROOKHAVEN", "addr:country": "US", "addr:full": "2512 MONTAUK HWY", "addr:postcode": "11719", "addr:state": "NY", "brand": "USPS", "collection_times": "Mo-Fr 17:00; Sa 13:00", "name": "USPS COLLECTION BOX - PO LOBBY", "note": "ON 12/24 AND 12/31, THIS BOX MAY BE COLLECTED AS EARLY AS 12 NOON.", "ref": "1171900005"}, "type": "Feature"}
{"geometry": {"coordinates": [-73.0806939, 40.898389], "type": "Point"}, "id": "YLEPgphAnJbhSlHNIAp0Ajdo4BM=", "properties": {"@spider": "usps_collection_boxes", "addr:city": "SOUTH SETAUKET", "addr:country": "US", "addr:full": "3771 NESCONSET HWY", "addr:postcode": "11720", "addr:state": "NY", "brand": "USPS", "collection_times": "Mo-Fr 15:00; Sa 13:00", "name": "USPS COLLECTION BOX - BLUE BOX", "note": "ON 12/24 AND 12/31, THIS BOX MAY BE COLLECTED AS EARLY AS 12 NOON.", "ref": "1172000002"}, "type": "Feature"}
{"geometry": {"coordinates": [-73.0851645, 40.857565], "type": "Point"}, "id": "tX3U0Y2lSnYRVZ3BDLL4kXn4IDE=", "properties": {"@spider": "usps_collection_boxes", "addr:city": "SOUTH SETAUKET", "addr:country": "US", "addr:full": "2100 MIDDLE COUNTRY RD", "addr:postcode": "11720", "addr:state": "NY", "brand": "USPS", "collection_times": "Mo-Fr 15:00; Sa 13:00", "name": "USPS COLLECTION BOX - BLUE BOX", "note": "ON 12/24 AND 12/31, THIS BOX MAY BE COLLECTED AS EARLY AS 12 NOON.", "ref": "1172000004"}, "type": "Feature"}
{"geometry": {"coordinates": [-73.084941649, 40.858327389], "type": "Point"}, "id": "XSPpwr2Q7STeFCNjgErdGXccWKo=", "properties": {"@spider": "usps_collection_boxes", "addr:city": "SOUTH SETAUKET", "addr:country": "US", "addr:full": "2100 MIDDLE COUNTRY RD", "addr:postcode": "11720", "addr:state": "NY", "brand": "USPS", "collection_times": "Mo-Fr 15:00; Sa 13:00", "name": "USPS COLLECTION BOX - BLUE BOX", "note": "ON 12/24 AND 12/31, THIS BOX MAY BE COLLECTED AS EARLY AS 12 NOON.", "ref": "1172000005"}, "type": "Feature"}
{"geometry": {"coordinates": [-73.0791047, 40.859831], "type": "Point"}, "id": "n4B5ZGpTo8zTHKZunuXJFKYj3GA=", "properties": {"@spider": "usps_collection_boxes", "addr:city": "SOUTH SETAUKET", "addr:country": "US", "addr:full": "1919 MIDDLE COUNTRY RD", "addr:postcode": "11720", "addr:state": "NY", "brand": "USPS", "collection_times": "Mo-Sa 09:00", "name": "USPS COLLECTION BOX - BLUE BOX", "ref": "1172000006"}, "type": "Feature"}
{"geometry": {"coordinates": [-73.082477, 40.859467], "type": "Point"}, "id": "VOtz3JlzTa4DQYfbsUYy6piWaAQ=", "properties": {"@spider": "usps_collection_boxes", "addr:city": "SOUTH SETAUKET", "addr:country": "US", "addr:full": "245 CENTEREACH MALL", "addr:postcode": "11720", "addr:state": "NY", "brand": "USPS", "collection_times": "Mo-Fr 17:00; Sa 13:00", "name": "USPS COLLECTION BOX - BLUE BOX", "note": "ON 12/24 AND 12/31, THIS BOX MAY BE COLLECTED AS EARLY AS 12 NOON.", "ref": "1172000007"}, "type": "Feature"}
{"geometry": {"coordinates": [-73.082478974, 40.860171], "type": "Point"}, "id": "0ursFug5oY5bvFpIjjJLuedN9yQ=", "properties": {"@spider": "usps_collection_boxes", "addr:city": "SOUTH SETAUKET", "addr:country": "US", "addr:full": "245 CENTEREACH MALL", "addr:postcode": "11720", "addr:state": "NY", "brand": "USPS", "collection_times": "Mo-Fr 17:00; Sa 13:00", "name": "USPS COLLECTION BOX - BLUE BOX", "note": "ON 12/24 AND 12/31, THIS BOX MAY BE COLLECTED AS EARLY AS 12 NOON.", "ref": "1172000009"}, "type": "Feature"}
{"geometry": {"coordinates": [-73.107837, 40.859052], "type": "Point"}, "id": "AIeZhkGfmKuWngwG6LNJ6a5Toeo=", "properties": {"@spider": "usps_collection_boxes", "addr:city": "SOUTH SETAUKET", "addr:country": "US", "addr:full": "245 MIDDLE COUNTRY RD", "addr:postcode": "11720", "addr:state": "NY", "brand": "USPS", "collection_times": "Mo-Fr 17:00; Sa 13:00", "name": "USPS COLLECTION BOX - PO LOBBY", "note": "ON 12/24 AND 12/31, THIS BOX MAY BE COLLECTED AS EARLY AS 12 NOON.", "ref": "1172000014"}, "type": "Feature"}
{"geometry": {"coordinates": [-73.082502405, 40.859433928], "type": "Point"}, "id": "gQDtVJuyEL26F2RQ8ZiU0B-lngg=", "properties": {"@spider": "usps_collection_boxes", "addr:city": "SOUTH SETAUKET", "addr:country": "US", "addr:full": "245 CENTEREACH MALL", "addr:postcode": "11720", "addr:state": "NY", "brand": "USPS", "collection_times": "Mo-Fr 17:30; Sa 14:30", "name": "USPS COLLECTION BOX - PO LOBBY", "note": "ON 12/24 AND 12/31, THIS BOX MAY BE COLLECTED AS EARLY AS 12 NOON.", "ref": "1172000017"}, "type": "Feature"}
{"geometry": {"coordinates": [-73.0111740423, 40.8694439937], "type": "Point"}, "id": "i1rBJuzY7riCO4oZojGER_JuYe8=", "properties": {"@spider": "usps_collection_boxes", "addr:city": "CORAM", "addr:country": "US", "addr:full": "117 PAULS PATH", "addr:postcode": "11727", "addr:state": "NY", "brand": "USPS", "collection_times": "Mo-Fr 17:00; Sa 16:00", "name": "USPS COLLECTION BOX - BLUE BOX", "note": "ON 12/24 AND 12/31, THIS BOX MAY BE COLLECTED AS EARLY AS 12 NOON.", "ref": "1172700002"}, "type": "Feature"}
{"geometry": {"coordinates": [-73.0160481, 40.875078], "type": "Point"}, "id": "xN_fd9CAQ0gld5eq4qN5gxqWQ6k=", "properties": {"@spider": "usps_collection_boxes", "addr:city": "CORAM", "addr:country": "US", "addr:full": "301 CHELSEA PL", "addr:postcode": "11727", "addr:state": "NY", "brand": "USPS", "collection_times": "Mo-Sa 13:00", "name": "USPS COLLECTION BOX - BLUE BOX", "note": "ON 12/24 AND 12/31, THIS BOX MAY BE COLLECTED AS EARLY AS 12 NOON.", "ref": "1172700003"}, "type": "Feature"}
{"geometry": {"coordinates": [-73.0069342, 40.898579], "type": "Point"}, "id": "exldtsv67JNi_gprlRepQawd7kE=", "properties": {"@spider": "usps_collection_boxes", "addr:city": "CORAM", "addr:country": "US", "addr:full": "50 GIBBS RD", "addr:postcode": "11727", "addr:state": "NY", "brand": "USPS", "collection_times": "Mo-Sa 13:00", "name": "USPS COLLECTION BOX - BLUE BOX", "note": "ON 12/24 AND 12/31, THIS BOX MAY BE COLLECTED AS EARLY AS 12 NOON.", "ref": "1172700004"}, "type": "Feature"}
{"geometry": {"coordinates": [-72.9952864, 40.870151], "type": "Point"}, "id": "T6kuwj7yYFh4_bAZToRM7lKlOeA=", "properties": {"@spider": "usps_collection_boxes", "addr:city": "CORAM", "addr:country": "US", "addr:full": "264 ROUTE 25", "addr:postcode": "11727", "addr:state": "NY", "brand": "USPS", "collection_times": "Mo-Sa 09:00", "name": "USPS COLLECTION BOX - BLUE BOX", "ref": "1172700006"}, "type": "Feature"}
{"geometry": {"coordinates": [-73.0113254, 40.861319], "type": "Point"}, "id": "Et3v2pGAzQHatn2jrw36LBvz9BQ=", "properties": {"@spider": "usps_collection_boxes", "addr:city": "CORAM", "addr:country": "US", "addr:full": "1027 CLUBHOUSE CT", "addr:postcode": "11727", "addr:state": "NY", "brand": "USPS", "collection_times": "Mo-Sa 13:00", "name": "USPS COLLECTION BOX - BLUE BOX", "note": "ON 12/24 AND 12/31, THIS BOX MAY BE COLLECTED AS EARLY AS 12 NOON.", "ref": "1172700007"}, "type": "Feature"}
{"geometry": {"coordinates": [-73.0111740423, 40.8694439937], "type": "Point"}, "id": "Ny-2EKq8y0Vfi9zomLcrRjVdQzM=", "properties": {"@spider": "usps_collection_boxes", "addr:city": "CORAM", "addr:country": "US", "addr:full": "117 PAULS PATH", "addr:postcode": "11727", "addr:state": "NY", "brand": "USPS", "collection_times": "Mo-Fr 17:00; Sa 16:00", "name": "USPS COLLECTION BOX - BLUE BOX", "note": "ON 12/24 AND 12/31, THIS BOX MAY BE COLLECTED AS EARLY AS 12 NOON.", "ref": "1172700010"}, "type": "Feature"}
{"geometry": {"coordinates": [-73.0146049, 40.88931], "type": "Point"}, "id": "dTdTosY-lObRn6w_nKKPZ2kGvqM=", "properties": {"@spider": "usps_collection_boxes", "addr:city": "CORAM", "addr:country": "US", "addr:full": "1850 ROUTE 112", "addr:postcode": "11727", "addr:state": "NY", "brand": "USPS", "collection_times": "Mo-Sa 12:00", "name": "USPS COLLECTION BOX - BLUE BOX", "ref": "1172700014"}, "type": "Feature"}
{"geometry": {"coordinates": [-73.011167, 40.869441], "type": "Point"}, "id": "1ajDERspuaH8y1UHB7HolNi97qs=", "properties": {"@spider": "usps_collection_boxes", "addr:city": "CORAM", "addr:country": "US", "addr:full": "117 PAULS PATH", "addr:postcode": "11727", "addr:state": "NY", "brand": "USPS", "collection_times": "Mo-Fr 17:00; Sa 16:00", "name": "USPS COLLECTION BOX - PO LOBBY", "note": "ON 12/24 AND 12/31, THIS BOX MAY BE COLLECTED AS EARLY AS 12 NOON.", "ref": "1172700015"}, "type": "Feature"}
{"geometry": {"coordinates": [-73.011167762, 40.869439793], "type": "Point"}, "id": "APcp3hW6LRwjN43F8AaOUDO-9ko=", "properties": {"@spider": "usps_collection_boxes", "addr:city": "CORAM", "addr:country": "US", "addr:full": "117 PAULS PATH", "addr:postcode": "11727", "addr:state": "NY", "brand": "USPS", "collection_times": "Mo-Fr 17:00; Sa 13:00", "name": "USPS COLLECTION BOX - PO LOBBY", "note": "ON 12/24 AND 12/31, THIS BOX MAY BE COLLECTED AS EARLY AS 12 NOON.", "ref": "1172700017"}, "type": "Feature"}
{"geometry": {"coordinates": [-73.111296, 40.934455], "type": "Point"}, "id": "YbwvEq9-NHSnanFSCREBE6Gt2vc=", "properties": {"@spider": "usps_collection_boxes", "addr:city": "SETAUKET", "addr:country": "US", "addr:full": "450 ROUTE 25A", "addr:postcode": "11733", "addr:state": "NY", "brand": "USPS", "collection_times": "Mo-Fr 17:00; Sa 15:30", "name": "USPS COLLECTION BOX - BLUE BOX", "note": "ON 12/24 AND 12/31, THIS BOX MAY BE COLLECTED AS EARLY AS 12 NOON.", "ref": "1173300007"}, "type": "Feature"}
{"geometry": {"coordinates": [-73.084839796, 40.945374473], "type": "Point"}, "id": "tq632OAMHnCHuBKUL2frxLwbo0w=", "properties": {"@spider": "usps_collection_boxes", "addr:city": "SETAUKET", "addr:country": "US", "addr:full": "450 ROUTE 25A", "addr:postcode": "11733", "addr:state": "NY", "brand": "USPS", "collection_times": "Mo-Fr 17:00; Sa 15:30", "name": "USPS COLLECTION BOX - BLUE BOX", "note": "ON 12/24 AND 12/31, THIS BOX MAY BE COLLECTED AS EARLY AS 12 NOON.", "ref": "1173300009"}, "type": "Feature"}
{"geometry": {"coordinates": [-73.1078495, 40.938229], "type": "Point"}, "id": "RW8sUX9CAEq5Tw5cTHuIwSv6L2w=", "properties": {"@spider": "usps_collection_boxes", "addr:city": "SETAUKET", "addr:country": "US", "addr:full": "100 S JERSEY AVE", "addr:postcode": "11733", "addr:state": "NY", "brand": "USPS", "collection_times": "Mo-Sa 13:00", "name": "USPS COLLECTION BOX - BLUE BOX", "note": "ON 12/24 AND 12/31, THIS BOX MAY BE COLLECTED AS EARLY AS 12 NOON.", "ref": "1173300010"}, "type": "Feature"}
{"geometry": {"coordinates": [-73.0872269, 40.903347], "type": "Point"}, "id": "71NV9ivj5fTPoT1XtK-0B5NL-Ls=", "properties": {"@spider": "usps_collection_boxes", "addr:city": "SETAUKET", "addr:country": "US", "addr:full": "22 RESEARCH WAY", "addr:postcode": "11733", "addr:state": "NY", "brand": "USPS", "collection_times": "Mo-Sa 10:30", "name": "USPS COLLECTION BOX - BLUE BOX", "ref": "1173300011"}, "type": "Feature"}
{"geometry": {"coordinates": [-73.0870668, 40.89954], "type": "Point"}, "id": "rEy8NvEydcGK0BuSw-kh5g866XU=", "properties": {"@spider": "usps_collection_boxes", "addr:city": "SETAUKET", "addr:country": "US", "addr:full": "14 TECHNOLOGY DR", "addr:postcode": "11733", "addr:state": "NY", "brand": "USPS", "collection_times": "Mo-Sa 13:00", "name": "USPS COLLECTION BOX - BLUE BOX", "note": "ON 12/24 AND 12/31, THIS BOX MAY BE COLLECTED AS EARLY AS 12 NOON.", "ref": "1173300012"}, "type": "Feature"}
{"geometry": {"coordinates": [-73.0891347, 40.899962], "type": "Point"}, "id": "ZQO-eJyir9JzrgJvf3TDNzqtkao=", "properties": {"@spider": "usps_collection_boxes", "addr:city": "SETAUKET", "addr:country": "US", "addr:full": "000 BELLEMEADE RD", "addr:postcode": "11733", "addr:state": "NY", "brand": "USPS", "collection_times": "Mo-Sa 13:00", "name": "USPS COLLECTION BOX - BLUE BOX", "note": "ON 12/24 AND 12/31, THIS BOX MAY BE COLLECTED AS EARLY AS 12 NOON.", "ref": "1173300013"}, "type": "Feature"}
{"geometry": {"coordinates": [-73.111296, 40.934455], "type": "Point"}, "id": "h-PWh9Y2ruWqDPsTZj1iIKKStOA=", "properties": {"@spider": "usps_collection_boxes", "addr:city": "SETAUKET", "addr:country": "US", "addr:full": "450 ROUTE 25A", "addr:postcode": "11733", "addr:state": "NY", "brand": "USPS", "collection_times": "Mo-Fr 17:00; Sa 15:30", "name": "USPS COLLECTION BOX - BLUE BOX", "note": "ON 12/24 AND 12/31, THIS BOX MAY BE COLLECTED AS EARLY AS 12 NOON.", "ref": "1173300024"}, "type": "Feature"}
{"geometry": {"coordinates": [-73.111296, 40.934455], "type": "Point"}, "id": "epSrk8xZDhNcFKOFEQ0Timt74RM=", "properties": {"@spider": "usps_collection_boxes", "addr:city": "SETAUKET", "addr:country": "US", "addr:full": "450 ROUTE 25A", "addr:postcode": "11733", "addr:state": "NY", "brand": "USPS", "collection_times": "Mo-Fr 17:00; Sa 15:30", "name": "USPS COLLECTION BOX - PO LOBBY", "note": "ON 12/24 AND 12/31, THIS BOX MAY BE COLLECTED AS EARLY AS 12 NOON.", "ref": "1173300025"}, "type": "Feature"}
{"geometry": {"coordinates": [-73.084837063, 40.945369636], "type": "Point"}, "id": "V5lpn6E5PzEeeFIf8hKtwqv3x0w=", "properties": {"@spider": "usps_collection_boxes", "addr:city": "SETAUKET", "addr:country": "US", "addr:full": "450 ROUTE 25A", "addr:postcode": "11733", "addr:state": "NY", "brand": "USPS", "collection_times": "Mo-Fr 17:00; Sa 15:30", "name": "USPS COLLECTION BOX - PO LOBBY", "note": "ON 12/24 AND 12/31, THIS BOX MAY BE COLLECTED AS EARLY AS 12 NOON.", "ref": "1173300027"}, "type": "Feature"}
{"geometry": {"coordinates": [-73.0155924, 40.844242], "type": "Point"}, "id": "8wzmybgmXBsn17wx5q8Nw_NwTGE=", "properties": {"@spider": "usps_collection_boxes", "addr:city": "FARMINGVILLE", "addr:country": "US", "addr:full": "1 INDEPENDENCE HL", "addr:postcode": "11738", "addr:state": "NY", "brand": "USPS", "collection_times": "Mo-Fr 15:00", "name": "USPS COLLECTION BOX - BLUE BOX", "note": "ON 12/24 AND 12/31, THIS BOX MAY BE COLLECTED AS EARLY AS 12 NOON.", "ref": "1173800001"}, "type": "Feature"}
{"geometry": {"coordinates": [-73.0232939, 40.828626], "type": "Point"}, "id": "75kDsxgd4rIuPey8l9Jf7FTC2A8=", "properties": {"@spider": "usps_collection_boxes", "addr:city": "FARMINGVILLE", "addr:country": "US", "addr:full": "2324 N OCEAN AVE", "addr:postcode": "11738", "addr:state": "NY", "brand": "USPS", "collection_times": "Mo-Sa 13:00", "name": "USPS COLLECTION BOX - BLUE BOX", "note": "ON 12/24 AND 12/31, THIS BOX MAY BE COLLECTED AS EARLY AS 12 NOON.", "ref": "1173800005"}, "type": "Feature"}
{"geometry": {"coordinates": [-73.0439907548, 40.8348897526], "type": "Point"}, "id": "gl7L1kcnz2QcrIL59NVxIjL9EXQ=", "properties": {"@spider": "usps_collection_boxes", "addr:city": "FARMINGVILLE", "addr:country": "US", "addr:full": "500 HORSEBLOCK RD", "addr:postcode": "11738", "addr:state": "NY", "brand": "USPS", "collection_times": "Mo-Fr 16:45; Sa 15:30", "name": "USPS COLLECTION BOX - BLUE BOX", "note": "ON 12/24 AND 12/31, THIS BOX MAY BE COLLECTED AS EARLY AS 12 NOON.", "ref": "1173800006"}, "type": "Feature"}
{"geometry": {"coordinates": [-73.043265, 40.834753], "type": "Point"}, "id": "prrdfdSmqOUFdAF9hU4UWKD2Pp8=", "properties": {"@spider": "usps_collection_boxes", "addr:city": "FARMINGVILLE", "addr:country": "US", "addr:full": "500 HORSEBLOCK RD", "addr:postcode": "11738", "addr:state": "NY", "brand": "USPS", "collection_times": "Mo-Fr 17:00; Sa 15:30", "name": "USPS COLLECTION BOX - BLUE BOX", "note": "ON 12/24 AND 12/31, THIS BOX MAY BE COLLECTED AS EARLY AS 12 NOON.", "ref": "1173800008"}, "type": "Feature"}
{"geometry": {"coordinates": [-73.043265, 40.834753], "type": "Point"}, "id": "7v_24Ch1TJSTNmqcQkLQhROhCDc=", "properties": {"@spider": "usps_collection_boxes", "addr:city": "FARMINGVILLE", "addr:country": "US", "addr:full": "500 HORSEBLOCK RD", "addr:postcode": "11738", "addr:state": "NY", "brand": "USPS", "collection_times": "Mo-Fr 16:45; Sa 15:30", "name": "USPS COLLECTION BOX - PO LOBBY", "note": "ON 12/24 AND 12/31, THIS BOX MAY BE COLLECTED AS EARLY AS 12 NOON.", "ref": "1173800015"}, "type": "Feature"}
{"geometry": {"coordinates": [-73.04398948, 40.834878333], "type": "Point"}, "id": "6maO23OK1TH32cmalQYpcr-UTHw=", "properties": {"@spider": "usps_collection_boxes", "addr:city": "FARMINGVILLE", "addr:country": "US", "addr:full": "500 HORSEBLOCK RD", "addr:postcode": "11738", "addr:state": "NY", "brand": "USPS", "collection_times": "Mo-Fr 17:00; Sa 13:00", "name": "USPS COLLECTION BOX - PO LOBBY", "note": "ON 12/24 AND 12/31, THIS BOX MAY BE COLLECTED AS EARLY AS 12 NOON.", "ref": "1173800017"}, "type": "Feature"}
{"geometry": {"coordinates": [-73.0803811, 40.823242], "type": "Point"}, "id": "5hXqTDLZ4CvvVpQgdWqtmGKftWk=", "properties": {"@spider": "usps_collection_boxes", "addr:city": "HOLBROOK", "addr:country": "US", "addr:full": "150 HOLBROOK RD", "addr:postcode": "11741", "addr:state": "NY", "brand": "USPS", "collection_times": "Mo-Fr 12:00; Sa 13:00", "name": "USPS COLLECTION BOX - BLUE BOX", "note": "ON 12/24 AND 12/31, THIS BOX MAY BE COLLECTED AS EARLY AS 12 NOON.", "ref": "1174100001"}, "type": "Feature"}
{"geometry": {"coordinates": [-73.0652048, 40.780391], "type": "Point"}, "id": "GPAKy4Hc5hLBtNnTFhFbe2rCI9g=", "properties": {"@spider": "usps_collection_boxes", "addr:city": "HOLBROOK", "addr:country": "US", "addr:full": "865 BROADWAY AVE", "addr:postcode": "11741", "addr:state": "NY", "brand": "USPS", "collection_times": "Mo-Fr 12:00; Sa 13:00", "name": "USPS COLLECTION BOX - BLUE BOX", "note": "ON 12/24 AND 12/31, THIS BOX MAY BE COLLECTED AS EARLY AS 12 NOON.", "ref": "1174100005"}, "type": "Feature"}
{"geometry": {"coordinates": [-73.0637099, 40.77087], "type": "Point"}, "id": "ULBnQ0WsKId7R7Zm_IH7Tsvnkf4=", "properties": {"@spider": "usps_collection_boxes", "addr:city": "HOLBROOK", "addr:country": "US", "addr:full": "5801 SUNRISE HWY", "addr:postcode": "11741", "addr:state": "NY", "brand": "USPS", "collection_times": "Mo-Sa 09:00", "name": "USPS COLLECTION BOX - BLUE BOX", "ref": "1174100011"}, "type": "Feature"}
{"geometry": {"coordinates": [-73.050009, 40.776047], "type": "Point"}, "id": "xpHzV6mCUQl9FpsF_KjYH7ZVn6I=", "properties": {"@spider": "usps_collection_boxes", "addr:city": "HOLBROOK", "addr:country": "US", "addr:full": "91 COLIN DR", "addr:postcode": "11741", "addr:state": "NY", "brand": "USPS", "collection_times": "Mo-Sa 10:00", "name": "USPS COLLECTION BOX - BLUE BOX", "ref": "1174100012"}, "type": "Feature"}
{"geometry": {"coordinates": [-73.084298929, 40.784327168], "type": "Point"}, "id": "PEQYAqrVw-vf5QA9K-PybwEXNVM=", "properties": {"@spider": "usps_collection_boxes", "addr:city": "HOLBROOK", "addr:country": "US", "addr:full": "1363 LINCOLN AVE", "addr:postcode": "11741", "addr:state": "NY", "brand": "USPS", "collection_times": "Mo-Sa 12:00", "name": "USPS COLLECTION BOX - BLUE BOX", "ref": "1174100014"}, "type": "Feature"}
{"geometry": {"coordinates": [-73.0632323, 40.807419], "type": "Point"}, "id": "e8B5amYognj1EAKEN-Fsum3eydg=", "properties": {"@spider": "usps_collection_boxes", "addr:city": "HOLBROOK", "addr:country": "US", "addr:full": "1 CLUBHOUSE DR", "addr:postcode": "11741", "addr:state": "NY", "brand": "USPS", "collection_times": "Mo-Sa 12:00", "name": "USPS COLLECTION BOX - BLUE BOX", "ref": "1174100016"}, "type": "Feature"}
{"geometry": {"coordinates": [-73.0941991, 40.7821], "type": "Point"}, "id": "sCcr7KESb1F3wP2zlc-F0_-prek=", "properties": {"@spider": "usps_collection_boxes", "addr:city": "HOLBROOK", "addr:country": "US", "addr:full": "4320 VETERANS HWY", "addr:postcode": "11741", "addr:state": "NY", "brand": "USPS", "collection_times": "Mo-Sa 11:30", "name": "USPS COLLECTION BOX - BLUE BOX", "ref": "1174100017"}, "type": "Feature"}
{"geometry": {"coordinates": [-73.069789, 40.807468], "type": "Point"}, "id": "gvSrgqnghqBdep4hFZfbiCgBUCI=", "properties": {"@spider": "usps_collection_boxes", "addr:city": "HOLBROOK", "addr:country": "US", "addr:full": "445 FURROWS RD", "addr:postcode": "11741", "addr:state": "NY", "brand": "USPS", "collection_times": "Mo-Fr 17:00; Sa 16:00", "name": "USPS COLLECTION BOX - BLUE BOX", "note": "ON 12/24 AND 12/31, THIS BOX MAY BE COLLECTED AS EARLY AS 12 NOON.", "ref": "1174100019"}, "type": "Feature"}
{"geometry": {"coordinates": [-73.069789, 40.807468], "type": "Point"}, "id": "lhRAj1lU9oCd4rR9zgjCdfTYxYk=", "properties": {"@spider": "usps_collection_boxes", "addr:city": "HOLBROOK", "addr:country": "US", "addr:full": "445 FURROWS RD", "addr:postcode": "11741", "addr:state": "NY", "brand": "USPS", "collection_times": "Mo-Fr 17:00; Sa 16:00", "name": "USPS COLLECTION BOX - BLUE BOX", "note": "ON 12/24 AND 12/31, THIS BOX MAY BE COLLECTED AS EARLY AS 12 NOON.", "ref": "1174100020"}, "type": "Feature"}
{"geometry": {"coordinates": [-73.0687475317, 40.8077632315], "type": "Point"}, "id": "kwmVm8h1Pox2yZFA2uUg5Ke5I2c=", "properties": {"@spider": "usps_collection_boxes", "addr:city": "HOLBROOK", "addr:country": "US", "addr:full": "445 FURROWS RD", "addr:postcode": "11741", "addr:state": "NY", "brand": "USPS", "collection_times": "Mo-Fr 17:00; Sa 16:00", "name": "USPS COLLECTION BOX - BLUE BOX", "note": "ON 12/24 AND 12/31, THIS BOX MAY BE COLLECTED AS EARLY AS 12 NOON.", "ref": "1174100021"}, "type": "Feature"}
{"geometry": {"coordinates": [-73.0786536, 40.781452], "type": "Point"}, "id": "5MdEzUs8EapnQbnLzJImRNm63SE=", "properties": {"@spider": "usps_collection_boxes", "addr:city": "HOLBROOK", "addr:country": "US", "addr:full": "761 COATES AVE", "addr:postcode": "11741", "addr:state": "NY", "brand": "USPS", "collection_times": "Mo-Sa 13:00", "name": "USPS COLLECTION BOX - BLUE BOX", "note": "ON 12/24 AND 12/31, THIS BOX MAY BE COLLECTED AS EARLY AS 12 NOON.", "ref": "1174100023"}, "type": "Feature"}
{"geometry": {"coordinates": [-73.0747252922, 40.8077755432], "type": "Point"}, "id": "4kXS47cvlQpNXqUPuaoBrQEiMSI=", "properties": {"@spider": "usps_collection_boxes", "addr:city": "HOLBROOK", "addr:country": "US", "addr:full": "975 MAIN ST", "addr:postcode": "11741", "addr:state": "NY", "brand": "USPS", "collection_times": "Mo-Fr 12:00; Sa 13:00", "name": "USPS COLLECTION BOX - BLUE BOX", "note": "ON 12/24 AND 12/31, THIS BOX MAY BE COLLECTED AS EARLY AS 12 NOON.", "ref": "1174100027"}, "type": "Feature"}
{"geometry": {"coordinates": [-73.0620511901, 40.7969775789], "type": "Point"}, "id": "B7PQlgKT0FNkMAyuJaEYVnTm9hA=", "properties": {"@spider": "usps_collection_boxes", "addr:city": "HOLBROOK", "addr:country": "US", "addr:full": "240 SPRINGMEADOW DR", "addr:postcode": "11741", "addr:state": "NY", "brand": "USPS", "collection_times": "Mo-Fr 12:00", "name": "USPS COLLECTION BOX - BLUE BOX", "ref": "1174100035"}, "type": "Feature"}
{"geometry": {"coordinates": [-73.069789, 40.807468], "type": "Point"}, "id": "j7ZMma9rOvk9zUotWwavHbd0f3A=", "properties": {"@spider": "usps_collection_boxes", "addr:city": "HOLBROOK", "addr:country": "US", "addr:full": "445 FURROWS RD", "addr:postcode": "11741", "addr:state": "NY", "brand": "USPS", "collection_times": "Mo-Fr 17:00; Sa 16:00", "name": "USPS COLLECTION BOX - PO LOBBY", "note": "ON 12/24 AND 12/31, THIS BOX MAY BE COLLECTED AS EARLY AS 12 NOON.", "ref": "1174100036"}, "type": "Feature"}
{"geometry": {"coordinates": [-73.06866849, 40.807778958], "type": "Point"}, "id": "VMSN9O8Wn7sZJ-iRR2kCwUTu-lg=", "properties": {"@spider": "usps_collection_boxes", "addr:city": "HOLBROOK", "addr:country": "US", "addr:full": "445 FURROWS RD", "addr:postcode": "11741", "addr:state": "NY", "brand": "USPS", "collection_times": "Mo-Fr 17:30; Sa 15:00", "name": "USPS COLLECTION BOX - PO LOBBY", "note": "ON 12/24 AND 12/31, THIS BOX MAY BE COLLECTED AS EARLY AS 12 NOON.", "ref": "1174100041"}, "type": "Feature"}
{"geometry": {"coordinates": [-73.042784, 40.814524], "type": "Point"}, "id": "3ysQFDOlxjEgxICNWSDNeHSGK3k=", "properties": {"@spider": "usps_collection_boxes", "addr:city": "HOLBROOK", "addr:country": "US", "addr:full": "162 LONG ISLAND AVE", "addr:postcode": "11742", "addr:state": "NY", "brand": "USPS", "collection_times": "Mo-Fr 17:00; Sa 13:00", "name": "USPS COLLECTION BOX - BLUE BOX", "note": "ON 12/24 AND 12/31, THIS BOX MAY BE COLLECTED AS EARLY AS 12 NOON.", "ref": "1174200003"}, "type": "Feature"}
{"geometry": {"coordinates": [-73.042908, 40.814533], "type": "Point"}, "id": "TI1pefnyC6IiFeemwWysDzb0dZk=", "properties": {"@spider": "usps_collection_boxes", "addr:city": "HOLBROOK", "addr:country": "US", "addr:full": "162 LONG ISLAND AVE", "addr:postcode": "11742", "addr:state": "NY", "brand": "USPS", "collection_times": "Mo-Fr 17:00; Sa 13:00", "name": "USPS COLLECTION BOX - BLUE BOX", "note": "ON 12/24 AND 12/31, THIS BOX MAY BE COLLECTED AS EARLY AS 12 NOON.", "ref": "1174200004"}, "type": "Feature"}
{"geometry": {"coordinates": [-73.042908, 40.814533], "type": "Point"}, "id": "DxvoxKMhE3cOEQXQOambZVOvsnQ=", "properties": {"@spider": "usps_collection_boxes", "addr:city": "HOLBROOK", "addr:country": "US", "addr:full": "162 LONG ISLAND AVE", "addr:postcode": "11742", "addr:state": "NY", "brand": "USPS", "collection_times": "Mo-Fr 16:45; Sa 13:00", "name": "USPS COLLECTION BOX - PO LOBBY", "note": "ON 12/24 AND 12/31, THIS BOX MAY BE COLLECTED AS EARLY AS 12 NOON.", "ref": "1174200010"}, "type": "Feature"}
{"geometry": {"coordinates": [-73.042556805, 40.814548703], "type": "Point"}, "id": "zB4ILtpeTPQEQn_7HyNOkLHrqK4=", "properties": {"@spider": "usps_collection_boxes", "addr:city": "HOLBROOK", "addr:country": "US", "addr:full": "162 LONG ISLAND AVE", "addr:postcode": "11742", "addr:state": "NY", "brand": "USPS", "collection_times": "Mo-Fr 17:00; Sa 13:00", "name": "USPS COLLECTION BOX - PO LOBBY", "note": "ON 12/24 AND 12/31, THIS BOX MAY BE COLLECTED AS EARLY AS 12 NOON.", "ref": "1174200012"}, "type": "Feature"}
{"geometry": {"coordinates": [-73.0043514, 40.801314], "type": "Point"}, "id": "KA6KyqFqNQj29O58GitsfMOW7i8=", "properties": {"@spider": "usps_collection_boxes", "addr:city": "MEDFORD", "addr:country": "US", "addr:full": "74 SOUTHAVEN AVE", "addr:postcode": "11763", "addr:state": "NY", "brand": "USPS", "collection_times": "Mo-Sa 13:00", "name": "USPS COLLECTION BOX - BLUE BOX", "note": "ON 12/24 AND 12/31, THIS BOX MAY BE COLLECTED AS EARLY AS 12 NOON.", "ref": "1176300001"}, "type": "Feature"}
{"geometry": {"coordinates": [-72.9543467, 40.80532], "type": "Point"}, "id": "Wu7c5MmmXIGQDYPF4K8P5SvxFS0=", "properties": {"@spider": "usps_collection_boxes", "addr:city": "MEDFORD", "addr:country": "US", "addr:full": "700 PATCHOGUE YAPHANK RD STE 60", "addr:postcode": "11763", "addr:state": "NY", "brand": "USPS", "collection_times": "Mo-Sa 13:00", "name": "USPS COLLECTION BOX - BLUE BOX", "note": "ON 12/24 AND 12/31, THIS BOX MAY BE COLLECTED AS EARLY AS 12 NOON.", "ref": "1176300002"}, "type": "Feature"}
{"geometry": {"coordinates": [-72.9832472922, 40.8252926271], "type": "Point"}, "id": "z50V60X-XAR7HYJHXIJONGgePg8=", "properties": {"@spider": "usps_collection_boxes", "addr:city": "MEDFORD", "addr:country": "US", "addr:full": "3247 HORSEBLOCK RD", "addr:postcode": "11763", "addr:state": "NY", "brand": "USPS", "collection_times": "Mo-Sa 13:00", "name": "USPS COLLECTION BOX - BLUE BOX", "note": "ON 12/24 AND 12/31, THIS BOX MAY BE COLLECTED AS EARLY AS 12 NOON.", "ref": "1176300004"}, "type": "Feature"}
{"geometry": {"coordinates": [-72.9935277, 40.825585], "type": "Point"}, "id": "bE8UJsPGnmKb7tMauEaJ7Bv4Wi0=", "properties": {"@spider": "usps_collection_boxes", "addr:city": "MEDFORD", "addr:country": "US", "addr:full": "2799 ROUTE 112", "addr:postcode": "11763", "addr:state": "NY", "brand": "USPS", "collection_times": "Mo-Sa 13:00", "name": "USPS COLLECTION BOX - BLUE BOX", "note": "ON 12/24 AND 12/31, THIS BOX MAY BE COLLECTED AS EARLY AS 12 NOON.", "ref": "1176300005"}, "type": "Feature"}
{"geometry": {"coordinates": [-72.9953276, 40.84247], "type": "Point"}, "id": "a-msSzir1TT5EoVQFzAvf8AYHwE=", "properties": {"@spider": "usps_collection_boxes", "addr:city": "MEDFORD", "addr:country": "US", "addr:full": "3233 ROUTE 112", "addr:postcode": "11763", "addr:state": "NY", "brand": "USPS", "collection_times": "Mo-Sa 13:00", "name": "USPS COLLECTION BOX - BLUE BOX", "note": "ON 12/24 AND 12/31, THIS BOX MAY BE COLLECTED AS EARLY AS 12 NOON.", "ref": "1176300006"}, "type": "Feature"}
{"geometry": {"coordinates": [-73.0017554, 40.841202], "type": "Point"}, "id": "WbrJEHA9ooIfNR5MBTZ5clDecik=", "properties": {"@spider": "usps_collection_boxes", "addr:city": "MEDFORD", "addr:country": "US", "addr:full": "888 GOLF LN", "addr:postcode": "11763", "addr:state": "NY", "brand": "USPS", "collection_times": "Mo-Sa 13:00", "name": "USPS COLLECTION BOX - BLUE BOX", "note": "ON 12/24 AND 12/31, THIS BOX MAY BE COLLECTED AS EARLY AS 12 NOON.", "ref": "1176300008"}, "type": "Feature"}
{"geometry": {"coordinates": [-73.0195673, 40.82183], "type": "Point"}, "id": "XqxKhucb5nY-noFIUwt-nz8LrmU=", "properties": {"@spider": "usps_collection_boxes", "addr:city": "MEDFORD", "addr:country": "US", "addr:full": "1743 N OCEAN AVE", "addr:postcode": "11763", "addr:state": "NY", "brand": "USPS", "collection_times": "Mo-Sa 13:00", "name": "USPS COLLECTION BOX - BLUE BOX", "note": "ON 12/24 AND 12/31, THIS BOX MAY BE COLLECTED AS EARLY AS 12 NOON.", "ref": "1176300009"}, "type": "Feature"}
{"geometry": {"coordinates": [-73.002402, 40.806333], "type": "Point"}, "id": "cWOAUYVwPLYf-smxRr3OBoEC12A=", "properties": {"@spider": "usps_collection_boxes", "addr:city": "MEDFORD", "addr:country": "US", "addr:full": "1905 ROUTE 112", "addr:postcode": "11763", "addr:state": "NY", "brand": "USPS", "collection_times": "Mo-Fr 17:00; Sa 15:30", "name": "USPS COLLECTION BOX - BLUE BOX", "note": "ON 12/24 AND 12/31, THIS BOX MAY BE COLLECTED AS EARLY AS 12 NOON.", "ref": "1176300012"}, "type": "Feature"}
{"geometry": {"coordinates": [-73.003259, 40.806269], "type": "Point"}, "id": "YPC2reRou-qxov3nEtJJTKJjgMQ=", "properties": {"@spider": "usps_collection_boxes", "addr:city": "MEDFORD", "addr:country": "US", "addr:full": "1905 ROUTE 112", "addr:postcode": "11763", "addr:state": "NY", "brand": "USPS", "collection_times": "Mo-Fr 17:00; Sa 15:30", "name": "USPS COLLECTION BOX - BLUE BOX", "note": "ON 12/24 AND 12/31, THIS BOX MAY BE COLLECTED AS EARLY AS 12 NOON.", "ref": "1176300013"}, "type": "Feature"}
{"geometry": {"coordinates": [-72.9623589, 40.80514], "type": "Point"}, "id": "fW2rKlOlDUX3PX0uSAaOf4JZnWQ=", "properties": {"@spider": "usps_collection_boxes", "addr:city": "MEDFORD", "addr:country": "US", "addr:full": "590 CHRISTOPHER CT", "addr:postcode": "11763", "addr:state": "NY", "brand": "USPS", "collection_times": "Mo-Sa 13:00", "name": "USPS COLLECTION BOX - BLUE BOX", "note": "ON 12/24 AND 12/31, THIS BOX MAY BE COLLECTED AS EARLY AS 12 NOON.", "ref": "1176300014"}, "type": "Feature"}
{"geometry": {"coordinates": [-73.003259, 40.806269], "type": "Point"}, "id": "JM2KVaz8mQN5DfX2thzFllLGp04=", "properties": {"@spider": "usps_collection_boxes", "addr:city": "MEDFORD", "addr:country": "US", "addr:full": "1905 ROUTE 112", "addr:postcode": "11763", "addr:state": "NY", "brand": "USPS", "collection_times": "Mo-Fr 17:00; Sa 15:30", "name": "USPS COLLECTION BOX - PO LOBBY", "note": "ON 12/24 AND 12/31, THIS BOX MAY BE COLLECTED AS EARLY AS 12 NOON.", "ref": "1176300021"}, "type": "Feature"}
{"geometry": {"coordinates": [-73.003189805, 40.806456895], "type": "Point"}, "id": "omDFw5wcxwDh65eLeZTLXvOUe7A=", "properties": {"@spider": "usps_collection_boxes", "addr:city": "MEDFORD", "addr:country": "US", "addr:full": "1905 ROUTE 112", "addr:postcode": "11763", "addr:state": "NY", "brand": "USPS", "collection_times": "Mo-Fr 17:30; Sa 15:00", "name": "USPS COLLECTION BOX - PO LOBBY", "note": "ON 12/24 AND 12/31, THIS BOX MAY BE COLLECTED AS EARLY AS 12 NOON.", "ref": "1176300024"}, "type": "Feature"}
{"geometry": {"coordinates": [-72.998464595, 40.944477951], "type": "Point"}, "id": "8BRazL2P2e_SZEQUC6VwDGTJ9JE=", "properties": {"@spider": "usps_collection_boxes", "addr:city": "MILLER PLACE", "addr:country": "US", "addr:full": "47 ECHO AVE", "addr:postcode": "11764", "addr:state": "NY", "brand": "USPS", "collection_times": "Mo-Fr 17:00; Sa 13:00", "name": "USPS COLLECTION BOX - BLUE BOX", "note": "ON 12/24 AND 12/31, THIS BOX MAY BE COLLECTED AS EARLY AS 12 NOON.", "ref": "1176400001"}, "type": "Feature"}
{"geometry": {"coordinates": [-73.000518, 40.943196], "type": "Point"}, "id": "TTX2tn94Ku2hANo8MwSXEwZhn4o=", "properties": {"@spider": "usps_collection_boxes", "addr:city": "MILLER PLACE", "addr:country": "US", "addr:full": "47 ECHO AVE", "addr:postcode": "11764", "addr:state": "NY", "brand": "USPS", "collection_times": "Mo-Fr 17:00; Sa 13:00", "name": "USPS COLLECTION BOX - BLUE BOX", "note": "ON 12/24 AND 12/31, THIS BOX MAY BE COLLECTED AS EARLY AS 12 NOON.", "ref": "1176400006"}, "type": "Feature"}
{"geometry": {"coordinates": [-73.000518, 40.943196], "type": "Point"}, "id": "YuoycCgNRoFhIlpGrYbCt6vMGGY=", "properties": {"@spider": "usps_collection_boxes", "addr:city": "MILLER PLACE", "addr:country": "US", "addr:full": "47 ECHO AVE", "addr:postcode": "11764", "addr:state": "NY", "brand": "USPS", "collection_times": "Mo-Fr 17:00; Sa 13:00", "name": "USPS COLLECTION BOX - PO LOBBY", "note": "ON 12/24 AND 12/31, THIS BOX MAY BE COLLECTED AS EARLY AS 12 NOON.", "ref": "1176400014"}, "type": "Feature"}
{"geometry": {"coordinates": [-73.000539563, 40.943257011], "type": "Point"}, "id": "ToOec708KAMz-NUiHuuFReLtx50=", "properties": {"@spider": "usps_collection_boxes", "addr:city": "MILLER PLACE", "addr:country": "US", "addr:full": "47 ECHO AVE", "addr:postcode": "11764", "addr:state": "NY", "brand": "USPS", "collection_times": "Mo-Fr 17:00; Sa 13:00", "name": "USPS COLLECTION BOX - PO LOBBY", "note": "ON 12/24 AND 12/31, THIS BOX MAY BE COLLECTED AS EARLY AS 12 NOON.", "ref": "1176400016"}, "type": "Feature"}
{"geometry": {"coordinates": [-73.020414, 40.935251], "type": "Point"}, "id": "iaWD4pYcJUu6D2tkzKiWYksbUtY=", "properties": {"@spider": "usps_collection_boxes", "addr:city": "MOUNT SINAI", "addr:country": "US", "addr:full": "457 ROUTE 25A", "addr:postcode": "11766", "addr:state": "NY", "brand": "USPS", "collection_times": "Mo-Fr 17:00; Sa 13:00", "name": "USPS COLLECTION BOX - BLUE BOX", "note": "ON 12/24 AND 12/31, THIS BOX MAY BE COLLECTED AS EARLY AS 12 NOON.", "ref": "1176600001"}, "type": "Feature"}
{"geometry": {"coordinates": [-73.0204107303, 40.9352918483], "type": "Point"}, "id": "GLrsRZDlmr1vdJ_412gO5PlDDnI=", "properties": {"@spider": "usps_collection_boxes", "addr:city": "MOUNT SINAI", "addr:country": "US", "addr:full": "457 ROUTE 25A", "addr:postcode": "11766", "addr:state": "NY", "brand": "USPS", "collection_times": "Mo-Fr 17:00; Sa 13:00", "name": "USPS COLLECTION BOX - BLUE BOX", "note": "ON 12/24 AND 12/31, THIS BOX MAY BE COLLECTED AS EARLY AS 12 NOON.", "ref": "1176600003"}, "type": "Feature"}
{"geometry": {"coordinates": [-73.020359, 40.935236], "type": "Point"}, "id": "mCqDha1HNxn4WPow-Jul_lPsLLM=", "properties": {"@spider": "usps_collection_boxes", "addr:city": "MOUNT SINAI", "addr:country": "US", "addr:full": "457 ROUTE 25A", "addr:postcode": "11766", "addr:state": "NY", "brand": "USPS", "collection_times": "Mo-Fr 17:00; Sa 13:00", "name": "USPS COLLECTION BOX - PO LOBBY", "note": "ON 12/24 AND 12/31, THIS BOX MAY BE COLLECTED AS EARLY AS 12 NOON.", "ref": "1176600010"}, "type": "Feature"}
{"geometry": {"coordinates": [-73.020350908, 40.935302619], "type": "Point"}, "id": "FxKZTFdv68a50XSuzdJjqNhldn4=", "properties": {"@spider": "usps_collection_boxes", "addr:city": "MOUNT SINAI", "addr:country": "US", "addr:full": "457 ROUTE 25A", "addr:postcode": "11766", "addr:state": "NY", "brand": "USPS", "collection_times": "Mo-Fr 17:00; Sa 13:00", "name": "USPS COLLECTION BOX - PO LOBBY", "note": "ON 12/24 AND 12/31, THIS BOX MAY BE COLLECTED AS EARLY AS 12 NOON.", "ref": "1176600012"}, "type": "Feature"}
{"geometry": {"coordinates": [-73.1193407, 40.738449], "type": "Point"}, "id": "PszukjvbfoM-vEOeflkfwCVIDkE=", "properties": {"@spider": "usps_collection_boxes", "addr:city": "OAKDALE", "addr:country": "US", "addr:full": "927 MONTAUK HWY", "addr:postcode": "11769", "addr:state": "NY", "brand": "USPS", "collection_times": "Mo-Fr 17:00; Sa 15:00", "name": "USPS COLLECTION BOX - BLUE BOX", "note": "ON 12/24 AND 12/31, THIS BOX MAY BE COLLECTED AS EARLY AS 12 NOON.", "ref": "1176900001"}, "type": "Feature"}
{"geometry": {"coordinates": [-73.1208155521, 40.7382786957], "type": "Point"}, "id": "-u1D8sznLrRp_JiVLhT5aNC8KHA=", "properties": {"@spider": "usps_collection_boxes", "addr:city": "OAKDALE", "addr:country": "US", "addr:full": "927 MONTAUK HWY", "addr:postcode": "11769", "addr:state": "NY", "brand": "USPS", "collection_times": "Mo-Fr 17:00; Sa 15:00", "name": "USPS COLLECTION BOX - BLUE BOX", "note": "ON 12/24 AND 12/31, THIS BOX MAY BE COLLECTED AS EARLY AS 12 NOON.", "ref": "1176900004"}, "type": "Feature"}
{"geometry": {"coordinates": [-73.1219499, 40.739995], "type": "Point"}, "id": "7EtZmbVOKD-7ZW3kJlawAjtsxU8=", "properties": {"@spider": "usps_collection_boxes", "addr:city": "OAKDALE", "addr:country": "US", "addr:full": "702 OCKERS DR", "addr:postcode": "11769", "addr:state": "NY", "brand": "USPS", "collection_times": "Mo-Sa 09:00", "name": "USPS COLLECTION BOX - BLUE BOX", "ref": "1176900007"}, "type": "Feature"}
{"geometry": {"coordinates": [-73.1192914, 40.738539], "type": "Point"}, "id": "nB2Fpj-IabkDYTSF2Y7hy43AIrM=", "properties": {"@spider": "usps_collection_boxes", "addr:city": "OAKDALE", "addr:country": "US", "addr:full": "927 MONTAUK HWY", "addr:postcode": "11769", "addr:state": "NY", "brand": "USPS", "collection_times": "Mo-Fr 17:00; Sa 13:00", "name": "USPS COLLECTION BOX - PO LOBBY", "note": "ON 12/24 AND 12/31, THIS BOX MAY BE COLLECTED AS EARLY AS 12 NOON.", "ref": "1176900018"}, "type": "Feature"}
{"geometry": {"coordinates": [-73.120815609, 40.738278688], "type": "Point"}, "id": "lQNMMsDqERkPP6EV5M5xBnVygAE=", "properties": {"@spider": "usps_collection_boxes", "addr:city": "OAKDALE", "addr:country": "US", "addr:full": "927 MONTAUK HWY", "addr:postcode": "11769", "addr:state": "NY", "brand": "USPS", "collection_times": "Mo-Fr 17:00; Sa 13:00", "name": "USPS COLLECTION BOX - PO LOBBY", "note": "ON 12/24 AND 12/31, THIS BOX MAY BE COLLECTED AS EARLY AS 12 NOON.", "ref": "1176900019"}, "type": "Feature"}
{"geometry": {"coordinates": [-73.0113378, 40.764998], "type": "Point"}, "id": "bGyMUODNNM2Y1Qpb-5feQrJNlcI=", "properties": {"@spider": "usps_collection_boxes", "addr:city": "EAST PATCHOGUE", "addr:country": "US", "addr:full": "170 E MAIN ST", "addr:postcode": "11772", "addr:state": "NY", "brand": "USPS", "collection_times": "Mo-Fr 17:00; Sa 13:00", "name": "USPS COLLECTION BOX - BLUE BOX", "note": "ON 12/24 AND 12/31, THIS BOX MAY BE COLLECTED AS EARLY AS 12 NOON.", "ref": "1177200001"}, "type": "Feature"}
{"geometry": {"coordinates": [-73.0112141, 40.76574], "type": "Point"}, "id": "xigfMGNX6xcDyEbAZ5HacVVmLYM=", "properties": {"@spider": "usps_collection_boxes", "addr:city": "EAST PATCHOGUE", "addr:country": "US", "addr:full": "170 E MAIN ST", "addr:postcode": "11772", "addr:state": "NY", "brand": "USPS", "collection_times": "Mo-Fr 17:00; Sa 13:00", "name": "USPS COLLECTION BOX - BLUE BOX", "note": "ON 12/24 AND 12/31, THIS BOX MAY BE COLLECTED AS EARLY AS 12 NOON.", "ref": "1177200003"}, "type": "Feature"}
{"geometry": {"coordinates": [-73.0147004, 40.764535], "type": "Point"}, "id": "tM_vEN1Y67H1Q72oMyhbUMIywrY=", "properties": {"@spider": "usps_collection_boxes", "addr:city": "EAST PATCHOGUE", "addr:country": "US", "addr:full": "62 S OCEAN AVE", "addr:postcode": "11772", "addr:state": "NY", "brand": "USPS", "collection_times": "Mo-Sa 09:30", "name": "USPS COLLECTION BOX - BLUE BOX", "ref": "1177200006"}, "type": "Feature"}
{"geometry": {"coordinates": [-73.0151854, 40.765688], "type": "Point"}, "id": "_Mo7jOxRWVFHq8kAtwNJq9t1y64=", "properties": {"@spider": "usps_collection_boxes", "addr:city": "EAST PATCHOGUE", "addr:country": "US", "addr:full": "2 W MAIN ST", "addr:postcode": "11772", "addr:state": "NY", "brand": "USPS", "collection_times": "Mo-Sa 11:30", "name": "USPS COLLECTION BOX - BLUE BOX", "ref": "1177200007"}, "type": "Feature"}
{"geometry": {"coordinates": [-73.0259852, 40.767855], "type": "Point"}, "id": "CCAYvcJM76EFSb8vcJgDuF9qQ9U=", "properties": {"@spider": "usps_collection_boxes", "addr:city": "EAST PATCHOGUE", "addr:country": "US", "addr:full": "99 WAVERLY AVE", "addr:postcode": "11772", "addr:state": "NY", "brand": "USPS", "collection_times": "Mo-Sa 13:00", "name": "USPS COLLECTION BOX - BLUE BOX", "note": "ON 12/24 AND 12/31, THIS BOX MAY BE COLLECTED AS EARLY AS 12 NOON.", "ref": "1177200015"}, "type": "Feature"}
{"geometry": {"coordinates": [-73.0135569, 40.767151], "type": "Point"}, "id": "7aYmswVIsdKwuiiLpA1_ASyYeFs=", "properties": {"@spider": "usps_collection_boxes", "addr:city": "EAST PATCHOGUE", "addr:country": "US", "addr:full": "31 OAK ST", "addr:postcode": "11772", "addr:state": "NY", "brand": "USPS", "collection_times": "Mo-Fr 17:00; Sa 13:00", "name": "USPS COLLECTION BOX - BLUE BOX", "note": "ON 12/24 AND 12/31, THIS BOX MAY BE COLLECTED AS EARLY AS 12 NOON.", "ref": "1177200016"}, "type": "Feature"}
{"geometry": {"coordinates": [-72.9775192, 40.789872], "type": "Point"}, "id": "ICW3OEVBTMgAY1fEhwiWrNfkaO0=", "properties": {"@spider": "usps_collection_boxes", "addr:city": "EAST PATCHOGUE", "addr:country": "US", "addr:full": "24 LA BONNE VIE DR", "addr:postcode": "11772", "addr:state": "NY", "brand": "USPS", "collection_times": "Mo-Sa 10:00", "name": "USPS COLLECTION BOX - BLUE BOX", "ref": "1177200021"}, "type": "Feature"}
{"geometry": {"coordinates": [-72.9793782, 40.780874], "type": "Point"}, "id": "blswd9ByWxvZeJehz09Xk-LZaqo=", "properties": {"@spider": "usps_collection_boxes", "addr:city": "EAST PATCHOGUE", "addr:country": "US", "addr:full": "12 PONDVIEW DR APT 11", "addr:postcode": "11772", "addr:state": "NY", "brand": "USPS", "collection_times": "Mo-Sa 10:30", "name": "USPS COLLECTION BOX - BLUE BOX", "ref": "1177200022"}, "type": "Feature"}
{"geometry": {"coordinates": [-73.0220641, 40.752331], "type": "Point"}, "id": "h0ePumJcw2PBR30TshFHELN6o1s=", "properties": {"@spider": "usps_collection_boxes", "addr:city": "EAST PATCHOGUE", "addr:country": "US", "addr:full": "400 FAIR HARBOR DR", "addr:postcode": "11772", "addr:state": "NY", "brand": "USPS", "collection_times": "Mo-Sa 10:00", "name": "USPS COLLECTION BOX - BLUE BOX", "ref": "1177200032"}, "type": "Feature"}
{"geometry": {"coordinates": [-73.0214377, 40.755922], "type": "Point"}, "id": "9ziog8PrShuwshINIspim-Mmbl0=", "properties": {"@spider": "usps_collection_boxes", "addr:city": "EAST PATCHOGUE", "addr:country": "US", "addr:full": "234 RIVER AVE", "addr:postcode": "11772", "addr:state": "NY", "brand": "USPS", "collection_times": "Mo-Sa 11:30", "name": "USPS COLLECTION BOX - BLUE BOX", "ref": "1177200034"}, "type": "Feature"}
{"geometry": {"coordinates": [-73.0351044, 40.779724], "type": "Point"}, "id": "JK9UnziUoQ-aFi_dmBuiDnS--hk=", "properties": {"@spider": "usps_collection_boxes", "addr:city": "EAST PATCHOGUE", "addr:country": "US", "addr:full": "450 WAVERLY AVE", "addr:postcode": "11772", "addr:state": "NY", "brand": "USPS", "collection_times": "Mo-Sa 09:30", "name": "USPS COLLECTION BOX - BLUE BOX", "ref": "1177200043"}, "type": "Feature"}
{"geometry": {"coordinates": [-73.0111155, 40.765406], "type": "Point"}, "id": "b5Easf0vWUg-BP0M7mCRV2tFHhQ=", "properties": {"@spider": "usps_collection_boxes", "addr:city": "EAST PATCHOGUE", "addr:country": "US", "addr:full": "170 E MAIN ST", "addr:postcode": "11772", "addr:state": "NY", "brand": "USPS", "collection_times": "Mo-Fr 17:00; Sa 13:00", "name": "USPS COLLECTION BOX - PO LOBBY", "note": "ON 12/24 AND 12/31, THIS BOX MAY BE COLLECTED AS EARLY AS 12 NOON.", "ref": "1177200066"}, "type": "Feature"}
{"geometry": {"coordinates": [-73.011102585, 40.765780481], "type": "Point"}, "id": "vq3q0v0tM-Wp4L3VhZZCHK64_IQ=", "properties": {"@spider": "usps_collection_boxes", "addr:city": "EAST PATCHOGUE", "addr:country": "US", "addr:full": "170 E MAIN ST", "addr:postcode": "11772", "addr:state": "NY", "brand": "USPS", "collection_times": "Mo-Fr 17:00; Sa 13:00", "name": "USPS COLLECTION BOX - PO LOBBY", "note": "ON 12/24 AND 12/31, THIS BOX MAY BE COLLECTED AS EARLY AS 12 NOON.", "ref": "1177200071"}, "type": "Feature"}
{"geometry": {"coordinates": [-73.0531408, 40.929421], "type": "Point"}, "id": "Ca4DxV5QorlOrpT9H_RydcG8AfY=", "properties": {"@spider": "usps_collection_boxes", "addr:city": "PORT JEFF STA", "addr:country": "US", "addr:full": "544 JEFFERSON PLZ", "addr:postcode": "11776", "addr:state": "NY", "brand": "USPS", "collection_times": "Mo-Fr 17:00; Sa 13:00", "name": "USPS COLLECTION BOX - BLUE BOX", "note": "ON 12/24 AND 12/31, THIS BOX MAY BE COLLECTED AS EARLY AS 12 NOON.", "ref": "1177600001"}, "type": "Feature"}
{"geometry": {"coordinates": [-73.0533045, 40.937487], "type": "Point"}, "id": "Mi2tvaJeqc4h5VsysM8cfNJX3f8=", "properties": {"@spider": "usps_collection_boxes", "addr:city": "PORT JEFF STA", "addr:country": "US", "addr:full": "70 N COUNTRY RD", "addr:postcode": "11776", "addr:state": "NY", "brand": "USPS", "collection_times": "Mo-Sa 13:00", "name": "USPS COLLECTION BOX - BLUE BOX", "note": "ON 12/24 AND 12/31, THIS BOX MAY BE COLLECTED AS EARLY AS 12 NOON.", "ref": "1177600002"}, "type": "Feature"}
{"geometry": {"coordinates": [-73.0440264, 40.923617], "type": "Point"}, "id": "v-BNLbPntmPFjYN53TAsJ-cv5G8=", "properties": {"@spider": "usps_collection_boxes", "addr:city": "PORT JEFF STA", "addr:country": "US", "addr:full": "1051 ROUTE 112", "addr:postcode": "11776", "addr:state": "NY", "brand": "USPS", "collection_times": "Mo-Sa 13:00", "name": "USPS COLLECTION BOX - BLUE BOX", "note": "ON 12/24 AND 12/31, THIS BOX MAY BE COLLECTED AS EARLY AS 12 NOON.", "ref": "1177600004"}, "type": "Feature"}
{"geometry": {"coordinates": [-73.0552588, 40.935197], "type": "Point"}, "id": "DKSlY4WvvWC3cVNiHpS3sw1p2mw=", "properties": {"@spider": "usps_collection_boxes", "addr:city": "PORT JEFF STA", "addr:country": "US", "addr:full": "1534 MAIN ST", "addr:postcode": "11776", "addr:state": "NY", "brand": "USPS", "collection_times": "Mo-Sa 13:00", "name": "USPS COLLECTION BOX - BLUE BOX", "note": "ON 12/24 AND 12/31, THIS BOX MAY BE COLLECTED AS EARLY AS 12 NOON.", "ref": "1177600007"}, "type": "Feature"}
{"geometry": {"coordinates": [-73.0587877, 40.931823], "type": "Point"}, "id": "2_xl6Uc2inTkZPrJvKhhCJ31S3E=", "properties": {"@spider": "usps_collection_boxes", "addr:city": "PORT JEFF STA", "addr:country": "US", "addr:full": "75A PIEDMONT DR", "addr:postcode": "11776", "addr:state": "NY", "brand": "USPS", "collection_times": "Mo-Sa 11:00", "name": "USPS COLLECTION BOX - BLUE BOX", "ref": "1177600013"}, "type": "Feature"}
{"geometry": {"coordinates": [-73.0545877, 40.919], "type": "Point"}, "id": "e6eQjFrCh26WidoOJNHHUaEYYI8=", "properties": {"@spider": "usps_collection_boxes", "addr:city": "PORT JEFF STA", "addr:country": "US", "addr:full": "4910 NESCONSET HWY", "addr:postcode": "11776", "addr:state": "NY", "brand": "USPS", "collection_times": "Mo-Sa 10:00", "name": "USPS COLLECTION BOX - BLUE BOX", "ref": "1177600014"}, "type": "Feature"}
{"geometry": {"coordinates": [-73.0613494, 40.957644], "type": "Point"}, "id": "ZB1QoRwfVTIM_v9ZR7bkplvYWKk=", "properties": {"@spider": "usps_collection_boxes", "addr:city": "PORT JEFF STA", "addr:country": "US", "addr:full": "55 CLIFF RD", "addr:postcode": "11776", "addr:state": "NY", "brand": "USPS", "collection_times": "Mo-Sa 13:00", "name": "USPS COLLECTION BOX - BLUE BOX", "note": "ON 12/24 AND 12/31, THIS BOX MAY BE COLLECTED AS EARLY AS 12 NOON.", "ref": "1177600015"}, "type": "Feature"}
{"geometry": {"coordinates": [-73.0708115, 40.94599], "type": "Point"}, "id": "aNuENIbRgpmUgl5toUeLdyr-cko=", "properties": {"@spider": "usps_collection_boxes", "addr:city": "PORT JEFF STA", "addr:country": "US", "addr:full": "115 W BROADWAY", "addr:postcode": "11776", "addr:state": "NY", "brand": "USPS", "collection_times": "Mo-Sa 13:00", "name": "USPS COLLECTION BOX - BLUE BOX", "note": "ON 12/24 AND 12/31, THIS BOX MAY BE COLLECTED AS EARLY AS 12 NOON.", "ref": "1177600016"}, "type": "Feature"}
{"geometry": {"coordinates": [-73.0674639, 40.945307], "type": "Point"}, "id": "y4BngAxp27HGXCBoa3IGUkGoEjE=", "properties": {"@spider": "usps_collection_boxes", "addr:city": "PORT JEFF STA", "addr:country": "US", "addr:full": "407 E MAIN ST", "addr:postcode": "11776", "addr:state": "NY", "brand": "USPS", "collection_times": "Mo-Fr 17:00; Sa 13:00", "name": "USPS COLLECTION BOX - BLUE BOX", "note": "ON 12/24 AND 12/31, THIS BOX MAY BE COLLECTED AS EARLY AS 12 NOON.", "ref": "1177600017"}, "type": "Feature"}
{"geometry": {"coordinates": [-73.0674755, 40.945299], "type": "Point"}, "id": "zvNsN5r3kY-pAbPKVjVLt5RWI6s=", "properties": {"@spider": "usps_collection_boxes", "addr:city": "PORT JEFF STA", "addr:country": "US", "addr:full": "407 E MAIN ST", "addr:postcode": "11776", "addr:state": "NY", "brand": "USPS", "collection_times": "Mo-Fr 17:00; Sa 13:00", "name": "USPS COLLECTION BOX - BLUE BOX", "note": "ON 12/24 AND 12/31, THIS BOX MAY BE COLLECTED AS EARLY AS 12 NOON.", "ref": "1177600018"}, "type": "Feature"}
{"geometry": {"coordinates": [-73.0531424, 40.929413], "type": "Point"}, "id": "glH5oclxtNCoIFDooKIPUat1n3E=", "properties": {"@spider": "usps_collection_boxes", "addr:city": "PORT JEFF STA", "addr:country": "US", "addr:full": "544 JEFFERSON PLZ", "addr:postcode": "11776", "addr:state": "NY", "brand": "USPS", "collection_times": "Mo-Fr 17:00; Sa 13:00", "name": "USPS COLLECTION BOX - BLUE BOX", "note": "ON 12/24 AND 12/31, THIS BOX MAY BE COLLECTED AS EARLY AS 12 NOON.", "ref": "1177600019"}, "type": "Feature"}
{"geometry": {"coordinates": [-73.0531467, 40.929426], "type": "Point"}, "id": "gVyub1t73VgOgS76y_2KZuUGGuU=", "properties": {"@spider": "usps_collection_boxes", "addr:city": "PORT JEFF STA", "addr:country": "US", "addr:full": "544 JEFFERSON PLZ", "addr:postcode": "11776", "addr:state": "NY", "brand": "USPS", "collection_times": "Mo-Fr 17:00; Sa 13:00", "name": "USPS COLLECTION BOX - BLUE BOX", "note": "ON 12/24 AND 12/31, THIS BOX MAY BE COLLECTED AS EARLY AS 12 NOON.", "ref": "1177600020"}, "type": "Feature"}
{"geometry": {"coordinates": [-73.0540129, 40.938665], "type": "Point"}, "id": "a8BXyuN_NidG5HL1ABSaSgKsBEM=", "properties": {"@spider": "usps_collection_boxes", "addr:city": "PORT JEFF STA", "addr:country": "US", "addr:full": "75 NORTH COUNTRY RD", "addr:postcode": "11776", "addr:state": "NY", "brand": "USPS", "collection_times": "Mo-Sa 13:00", "name": "USPS COLLECTION BOX - BLUE BOX", "note": "ON 12/24 AND 12/31, THIS BOX MAY BE COLLECTED AS EARLY AS 12 NOON.", "ref": "1177600021"}, "type": "Feature"}
{"geometry": {"coordinates": [-73.0531455, 40.929397], "type": "Point"}, "id": "4-dLvtNWMpwISuWFdajcjGMhvOM=", "properties": {"@spider": "usps_collection_boxes", "addr:city": "PORT JEFF STA", "addr:country": "US", "addr:full": "544 JEFFERSON PLZ", "addr:postcode": "11776", "addr:state": "NY", "brand": "USPS", "collection_times": "Mo-Fr 17:00; Sa 13:00", "name": "USPS COLLECTION BOX - BLUE BOX", "note": "ON 12/24 AND 12/31, THIS BOX MAY BE COLLECTED AS EARLY AS 12 NOON.", "ref": "1177600022"}, "type": "Feature"}
{"geometry": {"coordinates": [-73.0530855, 40.929111], "type": "Point"}, "id": "wOWHROrzSH7KNQ3DDzL5hIWtxHI=", "properties": {"@spider": "usps_collection_boxes", "addr:city": "PORT JEFF STA", "addr:country": "US", "addr:full": "544 JEFFERSON PLZ", "addr:postcode": "11776", "addr:state": "NY", "brand": "USPS", "collection_times": "Mo-Fr 17:00", "name": "USPS COLLECTION BOX - PO LOBBY", "note": "ON 12/24 AND 12/31, THIS BOX MAY BE COLLECTED AS EARLY AS 12 NOON.", "ref": "1177600032"}, "type": "Feature"}
{"geometry": {"coordinates": [-73.0673371, 40.945231], "type": "Point"}, "id": "k0TPCr-3Jlo2cupbOcYQ6VdsbEc=", "properties": {"@spider": "usps_collection_boxes", "addr:city": "PORT JEFF STA", "addr:country": "US", "addr:full": "407 E MAIN ST", "addr:postcode": "11776", "addr:state": "NY", "brand": "USPS", "collection_times": "Mo-Fr 16:00; Sa 12:00", "name": "USPS COLLECTION BOX - PO LOBBY", "note": "ON 12/24 AND 12/31, THIS BOX MAY BE COLLECTED AS EARLY AS 12 NOON.", "ref": "1177600033"}, "type": "Feature"}
{"geometry": {"coordinates": [-73.052110864, 40.930200433], "type": "Point"}, "id": "Zfj4O2toErzxlX8hZ0D1xJkneLw=", "properties": {"@spider": "usps_collection_boxes", "addr:city": "PORT JEFF STA", "addr:country": "US", "addr:full": "544 JEFFERSON PLZ", "addr:postcode": "11776", "addr:state": "NY", "brand": "USPS", "collection_times": "Mo-Fr 17:00; Sa 13:00", "name": "USPS COLLECTION BOX - PO LOBBY", "note": "ON 12/24 AND 12/31, THIS BOX MAY BE COLLECTED AS EARLY AS 12 NOON.", "ref": "1177600038"}, "type": "Feature"}
{"geometry": {"coordinates": [-73.06758876, 40.945264387], "type": "Point"}, "id": "Wkqv3NgrfjRdrpvJUYxx_dY3KVA=", "properties": {"@spider": "usps_collection_boxes", "addr:city": "PORT JEFFERSON S", "addr:country": "US", "addr:full": "407 E MAIN ST STE 17", "addr:postcode": "11777", "addr:state": "NY", "brand": "USPS", "collection_times": "Mo-Fr 16:00; Sa 12:00", "name": "USPS COLLECTION BOX - PO LOBBY", "note": "ON 12/24 AND 12/31, THIS BOX MAY BE COLLECTED AS EARLY AS 12 NOON.", "ref": "1177700001"}, "type": "Feature"}
{"geometry": {"coordinates": [-72.9463139, 40.945632], "type": "Point"}, "id": "ssu6K-nDxoCmJ6YDwpt9o2pUNjA=", "properties": {"@spider": "usps_collection_boxes", "addr:city": "ROCKY POINT", "addr:country": "US", "addr:full": "283 ROUTE 25A", "addr:postcode": "11778", "addr:state": "NY", "brand": "USPS", "collection_times": "Mo-Sa 13:00", "name": "USPS COLLECTION BOX - BLUE BOX", "note": "ON 12/24 AND 12/31, THIS BOX MAY BE COLLECTED AS EARLY AS 12 NOON.", "ref": "1177800002"}, "type": "Feature"}
{"geometry": {"coordinates": [-72.914904025, 40.948065903], "type": "Point"}, "id": "-BAV2dEicIOvzZ3aOveM1OhI_fc=", "properties": {"@spider": "usps_collection_boxes", "addr:city": "ROCKY POINT", "addr:country": "US", "addr:full": "729 RTE 25A", "addr:postcode": "11778", "addr:state": "NY", "brand": "USPS", "collection_times": "Mo-Sa 13:00", "name": "USPS COLLECTION BOX - BLUE BOX", "note": "ON 12/24 AND 12/31, THIS BOX MAY BE COLLECTED AS EARLY AS 12 NOON.", "ref": "1177800003"}, "type": "Feature"}
{"geometry": {"coordinates": [-72.943318, 40.944992], "type": "Point"}, "id": "AT2bbWdoMmL6-ip0_v8hcPRdpWg=", "properties": {"@spider": "usps_collection_boxes", "addr:city": "ROCKY POINT", "addr:country": "US", "addr:full": "346 ROUTE 25A STE 84", "addr:postcode": "11778", "addr:state": "NY", "brand": "USPS", "collection_times": "Mo-Fr 17:00; Sa 13:00", "name": "USPS COLLECTION BOX - BLUE BOX", "note": "ON 12/24 AND 12/31, THIS BOX MAY BE COLLECTED AS EARLY AS 12 NOON.", "ref": "1177800005"}, "type": "Feature"}
{"geometry": {"coordinates": [-72.943318, 40.944992], "type": "Point"}, "id": "psRSgjpRssRxBdPtp8ejn1Wi9N8=", "properties": {"@spider": "usps_collection_boxes", "addr:city": "ROCKY POINT", "addr:country": "US", "addr:full": "346 ROUTE 25A STE 84", "addr:postcode": "11778", "addr:state": "NY", "brand": "USPS", "collection_times": "Mo-Fr 17:00; Sa 13:00", "name": "USPS COLLECTION BOX - BLUE BOX", "note": "ON 12/24 AND 12/31, THIS BOX MAY BE COLLECTED AS EARLY AS 12 NOON.", "ref": "1177800006"}, "type": "Feature"}
{"geometry": {"coordinates": [-72.943318, 40.944992], "type": "Point"}, "id": "pjMfGusrHJucQlmFLDx5C2xen0I=", "properties": {"@spider": "usps_collection_boxes", "addr:city": "ROCKY POINT", "addr:country": "US", "addr:full": "346 ROUTE 25A STE 84", "addr:postcode": "11778", "addr:state": "NY", "brand": "USPS", "collection_times": "Mo-Fr 17:00; Sa 13:00", "name": "USPS COLLECTION BOX - BLUE BOX", "note": "ON 12/24 AND 12/31, THIS BOX MAY BE COLLECTED AS EARLY AS 12 NOON.", "ref": "1177800007"}, "type": "Feature"}
{"geometry": {"coordinates": [-72.9439974, 40.945213], "type": "Point"}, "id": "C_arLJAmAsWNjWsU5t7mPHl9tlo=", "properties": {"@spider": "usps_collection_boxes", "addr:city": "ROCKY POINT", "addr:country": "US", "addr:full": "333 ROUTE 25A", "addr:postcode": "11778", "addr:state": "NY", "brand": "USPS", "collection_times": "Mo-Sa 13:00", "name": "USPS COLLECTION BOX - BLUE BOX", "note": "ON 12/24 AND 12/31, THIS BOX MAY BE COLLECTED AS EARLY AS 12 NOON.", "ref": "1177800008"}, "type": "Feature"}
{"geometry": {"coordinates": [-72.943318, 40.944992], "type": "Point"}, "id": "WmDPT0jnS3-W1RXhX0glD7Qm4XE=", "properties": {"@spider": "usps_collection_boxes", "addr:city": "ROCKY POINT", "addr:country": "US", "addr:full": "346 ROUTE 25A", "addr:postcode": "11778", "addr:state": "NY", "brand": "USPS", "collection_times": "Mo-Fr 17:00; Sa 13:00", "name": "USPS COLLECTION BOX - PO LOBBY", "note": "ON 12/24 AND 12/31, THIS BOX MAY BE COLLECTED AS EARLY AS 12 NOON.", "ref": "1177800012"}, "type": "Feature"}
{"geometry": {"coordinates": [-72.943320888, 40.944987598], "type": "Point"}, "id": "LysTcyvYGETNuNGvioAfM7Ai2wc=", "properties": {"@spider": "usps_collection_boxes", "addr:city": "ROCKY POINT", "addr:country": "US", "addr:full": "346 ROUTE 25A STE 84", "addr:postcode": "11778", "addr:state": "NY", "brand": "USPS", "collection_times": "Mo-Fr 17:00; Sa 14:00", "name": "USPS COLLECTION BOX - PO LOBBY", "note": "ON 12/24 AND 12/31, THIS BOX MAY BE COLLECTED AS EARLY AS 12 NOON.", "ref": "1177800014"}, "type": "Feature"}
{"geometry": {"coordinates": [-73.107958, 40.816808], "type": "Point"}, "id": "sYfUDxUSVAt-EF1vO1xI8U_86zE=", "properties": {"@spider": "usps_collection_boxes", "addr:city": "RONKONKOMA", "addr:country": "US", "addr:full": "200 HAWKINS AVE", "addr:postcode": "11779", "addr:state": "NY", "brand": "USPS", "collection_times": "Mo-Fr 17:00; Sa 16:00", "name": "USPS COLLECTION BOX - BLUE BOX", "note": "ON 12/24 AND 12/31, THIS BOX MAY BE COLLECTED AS EARLY AS 12 NOON.", "ref": "1177900002"}, "type": "Feature"}
{"geometry": {"coordinates": [-73.107958, 40.816808], "type": "Point"}, "id": "ELTB8XDdQDPWAmZzdsAE5zFjGXQ=", "properties": {"@spider": "usps_collection_boxes", "addr:city": "RONKONKOMA", "addr:country": "US", "addr:full": "200 HAWKINS AVE", "addr:postcode": "11779", "addr:state": "NY", "brand": "USPS", "collection_times": "Mo-Fr 17:00; Sa 16:00", "name": "USPS COLLECTION BOX - BLUE BOX", "note": "ON 12/24 AND 12/31, THIS BOX MAY BE COLLECTED AS EARLY AS 12 NOON.", "ref": "1177900003"}, "type": "Feature"}
{"geometry": {"coordinates": [-73.1085255, 40.815783], "type": "Point"}, "id": "4Z74wKfsRvCnj8WrezyWER1TqpQ=", "properties": {"@spider": "usps_collection_boxes", "addr:city": "RONKONKOMA", "addr:country": "US", "addr:full": "200 HAWKINS AVE", "addr:postcode": "11779", "addr:state": "NY", "brand": "USPS", "collection_times": "Mo-Fr 17:00; Sa 16:00", "name": "USPS COLLECTION BOX - BLUE BOX", "note": "ON 12/24 AND 12/31, THIS BOX MAY BE COLLECTED AS EARLY AS 12 NOON.", "ref": "1177900004"}, "type": "Feature"}
{"geometry": {"coordinates": [-73.10758558, 40.824530166], "type": "Point"}, "id": "RhXB2cWEEwERdGW6smSwKlq0Qew=", "properties": {"@spider": "usps_collection_boxes", "addr:city": "RONKONKOMA", "addr:country": "US", "addr:full": "416 HAWKINS AVE", "addr:postcode": "11779", "addr:state": "NY", "brand": "USPS", "collection_times": "Mo-Fr 14:00; Sa 13:00", "name": "USPS COLLECTION BOX - BLUE BOX", "note": "ON 12/24 AND 12/31, THIS BOX MAY BE COLLECTED AS EARLY AS 12 NOON.", "ref": "1177900007"}, "type": "Feature"}
{"geometry": {"coordinates": [-73.1002818, 40.826866], "type": "Point"}, "id": "CMhMDRnpkwa1h37T_VEKUY6JAAI=", "properties": {"@spider": "usps_collection_boxes", "addr:city": "RONKONKOMA", "addr:country": "US", "addr:full": "300 PORTION RD", "addr:postcode": "11779", "addr:state": "NY", "brand": "USPS", "collection_times": "Mo-Fr 17:00; Sa 13:00", "name": "USPS COLLECTION BOX - BLUE BOX", "note": "ON 12/24 AND 12/31, THIS BOX MAY BE COLLECTED AS EARLY AS 12 NOON.", "ref": "1177900009"}, "type": "Feature"}
{"geometry": {"coordinates": [-73.0885557, 40.832008], "type": "Point"}, "id": "c8lQo5WKaJDxNPBGEMHsMX_aiDg=", "properties": {"@spider": "usps_collection_boxes", "addr:city": "RONKONKOMA", "addr:country": "US", "addr:full": "601 PORTION RD", "addr:postcode": "11779", "addr:state": "NY", "brand": "USPS", "collection_times": "Mo-Sa 12:00", "name": "USPS COLLECTION BOX - BLUE BOX", "ref": "1177900012"}, "type": "Feature"}
{"geometry": {"coordinates": [-73.097737236, 40.832587433], "type": "Point"}, "id": "W5mWu9SbXzyGn6pM_e6cJG66vw0=", "properties": {"@spider": "usps_collection_boxes", "addr:city": "RONKONKOMA", "addr:country": "US", "addr:full": "1507 ROUND POND RD", "addr:postcode": "11779", "addr:state": "NY", "brand": "USPS", "collection_times": "Mo-Fr 14:00; Sa 13:00", "name": "USPS COLLECTION BOX - BLUE BOX", "note": "ON 12/24 AND 12/31, THIS BOX MAY BE COLLECTED AS EARLY AS 12 NOON.", "ref": "1177900013"}, "type": "Feature"}
{"geometry": {"coordinates": [-73.1160714, 40.817289], "type": "Point"}, "id": "ar99kCGY_1Qnb5BA1oWXkb_n-z4=", "properties": {"@spider": "usps_collection_boxes", "addr:city": "RONKONKOMA", "addr:country": "US", "addr:full": "45 CHURCH ST", "addr:postcode": "11779", "addr:state": "NY", "brand": "USPS", "collection_times": "Mo-Sa 09:00", "name": "USPS COLLECTION BOX - BLUE BOX", "ref": "1177900014"}, "type": "Feature"}
{"geometry": {"coordinates": [-73.0985996, 40.783198], "type": "Point"}, "id": "FbzUwwnRzikS5qgmO3P01Y1Ui_o=", "properties": {"@spider": "usps_collection_boxes", "addr:city": "RONKONKOMA", "addr:country": "US", "addr:full": "4175 VETERANS HWY", "addr:postcode": "11779", "addr:state": "NY", "brand": "USPS", "collection_times": "Mo-Sa 11:00", "name": "USPS COLLECTION BOX - BLUE BOX", "ref": "1177900028"}, "type": "Feature"}
{"geometry": {"coordinates": [-73.111311, 40.797369], "type": "Point"}, "id": "r8uNp3zHoGBoUN4EX1GGP4lhY28=", "properties": {"@spider": "usps_collection_boxes", "addr:city": "RONKONKOMA", "addr:country": "US", "addr:full": "999 MARCONI AVE", "addr:postcode": "11779", "addr:state": "NY", "brand": "USPS", "collection_times": "Mo-Fr 11:00; Sa 10:00", "name": "USPS COLLECTION BOX - BLUE BOX", "ref": "1177900030"}, "type": "Feature"}
{"geometry": {"coordinates": [-73.111311, 40.797369], "type": "Point"}, "id": "0L5yhe_zG4oEHIz1mKrv4GjzikQ=", "properties": {"@spider": "usps_collection_boxes", "addr:city": "RONKONKOMA", "addr:country": "US", "addr:full": "999 MARCONI AVE", "addr:postcode": "11779", "addr:state": "NY", "brand": "USPS", "collection_times": "Mo-Fr 11:00; Sa 10:00", "name": "USPS COLLECTION BOX - BLUE BOX", "ref": "1177900031"}, "type": "Feature"}
{"geometry": {"coordinates": [-73.090549531, 40.783188311], "type": "Point"}, "id": "HyOTg6cPUYbdm-XCLi1nBq5w6S8=", "properties": {"@spider": "usps_collection_boxes", "addr:city": "RONKONKOMA", "addr:country": "US", "addr:full": "2 TRADE ZONE DR", "addr:postcode": "11779", "addr:state": "NY", "brand": "USPS", "collection_times": "Mo-Sa 10:00", "name": "USPS COLLECTION BOX - BLUE BOX", "ref": "1177900032"}, "type": "Feature"}
{"geometry": {"coordinates": [-73.106376004, 40.808605192], "type": "Point"}, "id": "imIVUkh6f1YTnPTP_3NqBRxbllY=", "properties": {"@spider": "usps_collection_boxes", "addr:city": "RONKONKOMA", "addr:country": "US", "addr:full": "90 RAILROAD AVENUE", "addr:postcode": "11779", "addr:state": "NY", "brand": "USPS", "collection_times": "Mo-Fr 12:00; Sa 10:00", "name": "USPS COLLECTION BOX - BLUE BOX", "ref": "1177900035"}, "type": "Feature"}
{"geometry": {"coordinates": [-73.106376004, 40.808605192], "type": "Point"}, "id": "oNt8RXebYK_VjAiW-2zsL9lH5ro=", "properties": {"@spider": "usps_collection_boxes", "addr:city": "RONKONKOMA", "addr:country": "US", "addr:full": "90 RAILROAD AVENUE", "addr:postcode": "11779", "addr:state": "NY", "brand": "USPS", "collection_times": "Mo-Fr 12:00; Sa 10:00", "name": "USPS COLLECTION BOX - BLUE BOX", "ref": "1177900038"}, "type": "Feature"}
{"geometry": {"coordinates": [-73.0905495311, 40.7831883111], "type": "Point"}, "id": "lAxp6zWL4FBvhHdTqfDC05MT3nQ=", "properties": {"@spider": "usps_collection_boxes", "addr:city": "RONKONKOMA", "addr:country": "US", "addr:full": "2 TRADE ZONE", "addr:postcode": "11779", "addr:state": "NY", "brand": "USPS", "collection_times": "Mo-Sa 10:00", "name": "USPS COLLECTION BOX - BLUE BOX", "ref": "1177900046"}, "type": "Feature"}
{"geometry": {"coordinates": [-73.107958, 40.816808], "type": "Point"}, "id": "XwZ9ZTDwrVPcKD1aBlcF52qc1Dg=", "properties": {"@spider": "usps_collection_boxes", "addr:city": "RONKONKOMA", "addr:country": "US", "addr:full": "200 HAWKINS AVE", "addr:postcode": "11779", "addr:state": "NY", "brand": "USPS", "collection_times": "Mo-Fr 17:00; Sa 16:00", "name": "USPS COLLECTION BOX - APC", "note": "ON 12/24 AND 12/31, THIS BOX MAY BE COLLECTED AS EARLY AS 12 NOON.", "ref": "1177900047"}, "type": "Feature"}
{"geometry": {"coordinates": [-73.107958, 40.816808], "type": "Point"}, "id": "X4He5ijZZ2Z14LdB_yajhUXa5hM=", "properties": {"@spider": "usps_collection_boxes", "addr:city": "RONKONKOMA", "addr:country": "US", "addr:full": "200 HAWKINS AVE", "addr:postcode": "11779", "addr:state": "NY", "brand": "USPS", "collection_times": "Mo-Fr 17:00; Sa 16:00", "name": "USPS COLLECTION BOX - PO LOBBY", "note": "ON 12/24 AND 12/31, THIS BOX MAY BE COLLECTED AS EARLY AS 12 NOON.", "ref": "1177900048"}, "type": "Feature"}
{"geometry": {"coordinates": [-73.1000254, 40.826827], "type": "Point"}, "id": "HEMY9jDY69eMfGyUFvYQkxF1BPQ=", "properties": {"@spider": "usps_collection_boxes", "addr:city": "RONKONKOMA", "addr:country": "US", "addr:full": "300 PORTION RD", "addr:postcode": "11779", "addr:state": "NY", "brand": "USPS", "collection_times": "Mo-Fr 17:00; Sa 12:00", "name": "USPS COLLECTION BOX - PO LOBBY", "note": "ON 12/24 AND 12/31, THIS BOX MAY BE COLLECTED AS EARLY AS 12 NOON.", "ref": "1177900049"}, "type": "Feature"}
{"geometry": {"coordinates": [-73.108016189, 40.815756063], "type": "Point"}, "id": "nWMQ887GiXWPsfghN6dDMqISET4=", "properties": {"@spider": "usps_collection_boxes", "addr:city": "RONKONKOMA", "addr:country": "US", "addr:full": "200 HAWKINS AVE", "addr:postcode": "11779", "addr:state": "NY", "brand": "USPS", "collection_times": "Mo-Fr 17:00; Sa 13:00", "name": "USPS COLLECTION BOX - PO LOBBY", "note": "ON 12/24 AND 12/31, THIS BOX MAY BE COLLECTED AS EARLY AS 12 NOON.", "ref": "1177900053"}, "type": "Feature"}
{"geometry": {"coordinates": [-73.100422971, 40.827872213], "type": "Point"}, "id": "ceQ4zKIDYSFOu4M-tf0zvLkucZw=", "properties": {"@spider": "usps_collection_boxes", "addr:city": "RONKONKOMA", "addr:country": "US", "addr:full": "300 PORTION RD", "addr:postcode": "11779", "addr:state": "NY", "brand": "USPS", "collection_times": "Mo-Fr 17:00; Sa 12:00", "name": "USPS COLLECTION BOX - PO LOBBY", "note": "ON 12/24 AND 12/31, THIS BOX MAY BE COLLECTED AS EARLY AS 12 NOON.", "ref": "1177900054"}, "type": "Feature"}
{"geometry": {"coordinates": [-73.085116145, 40.735466718], "type": "Point"}, "id": "BuFVxvOK0oLc4GY9az9Pl5vLGrQ=", "properties": {"@spider": "usps_collection_boxes", "addr:city": "SAYVILLE", "addr:country": "US", "addr:full": "130 GREENE AVE", "addr:postcode": "11782", "addr:state": "NY", "brand": "USPS", "collection_times": "Mo-Fr 17:00; Sa 15:00", "name": "USPS COLLECTION BOX - BLUE BOX", "note": "ON 12/24 AND 12/31, THIS BOX MAY BE COLLECTED AS EARLY AS 12 NOON.", "ref": "1178200001"}, "type": "Feature"}
{"geometry": {"coordinates": [-73.085116145, 40.735466718], "type": "Point"}, "id": "_FJgiYq5auFhxyLR2q6zg1tGUsE=", "properties": {"@spider": "usps_collection_boxes", "addr:city": "SAYVILLE", "addr:country": "US", "addr:full": "130 GREENE AVE", "addr:postcode": "11782", "addr:state": "NY", "brand": "USPS", "collection_times": "Mo-Fr 17:00; Sa 15:00", "name": "USPS COLLECTION BOX - BLUE BOX", "note": "ON 12/24 AND 12/31, THIS BOX MAY BE COLLECTED AS EARLY AS 12 NOON.", "ref": "1178200002"}, "type": "Feature"}
{"geometry": {"coordinates": [-73.0851161449, 40.7354667177], "type": "Point"}, "id": "uNei11g8yXeJdMei3T5mazZ0Xw0=", "properties": {"@spider": "usps_collection_boxes", "addr:city": "SAYVILLE", "addr:country": "US", "addr:full": "130 GREENE AVE", "addr:postcode": "11782", "addr:state": "NY", "brand": "USPS", "collection_times": "Mo-Fr 17:00; Sa 15:00", "name": "USPS COLLECTION BOX - BLUE BOX", "note": "ON 12/24 AND 12/31, THIS BOX MAY BE COLLECTED AS EARLY AS 12 NOON.", "ref": "1178200003"}, "type": "Feature"}
{"geometry": {"coordinates": [-73.0890673, 40.752914], "type": "Point"}, "id": "g4Bha1auYEwBVL0S20-ZlVJ06EM=", "properties": {"@spider": "usps_collection_boxes", "addr:city": "SAYVILLE", "addr:country": "US", "addr:full": "25 HIGH ST", "addr:postcode": "11782", "addr:state": "NY", "brand": "USPS", "collection_times": "Mo-Sa 10:30", "name": "USPS COLLECTION BOX - BLUE BOX", "ref": "1178200004"}, "type": "Feature"}
{"geometry": {"coordinates": [-73.077717, 40.73117], "type": "Point"}, "id": "PPqzLGUTiRzkPJUvQHbHAe5DYqA=", "properties": {"@spider": "usps_collection_boxes", "addr:city": "SAYVILLE", "addr:country": "US", "addr:full": "199 FOSTER AVE", "addr:postcode": "11782", "addr:state": "NY", "brand": "USPS", "collection_times": "Mo-Sa 12:00", "name": "USPS COLLECTION BOX - BLUE BOX", "ref": "1178200005"}, "type": "Feature"}
{"geometry": {"coordinates": [-73.0824768, 40.725183], "type": "Point"}, "id": "HTLKIjevaJSAJLOgnnveXtvky3M=", "properties": {"@spider": "usps_collection_boxes", "addr:city": "SAYVILLE", "addr:country": "US", "addr:full": "40 ELM ST", "addr:postcode": "11782", "addr:state": "NY", "brand": "USPS", "collection_times": "Mo-Sa 10:00", "name": "USPS COLLECTION BOX - BLUE BOX", "ref": "1178200006"}, "type": "Feature"}
{"geometry": {"coordinates": [-73.0673668, 40.75629], "type": "Point"}, "id": "Z4fKFl3_Eq-V133zz7_hfp3piTw=", "properties": {"@spider": "usps_collection_boxes", "addr:city": "SAYVILLE", "addr:country": "US", "addr:full": "348 VERSA PL", "addr:postcode": "11782", "addr:state": "NY", "brand": "USPS", "collection_times": "Mo-Sa 09:30", "name": "USPS COLLECTION BOX - BLUE BOX", "ref": "1178200007"}, "type": "Feature"}
{"geometry": {"coordinates": [-73.0723716, 40.745622], "type": "Point"}, "id": "IDbYY0SqfB3LXca0ADkAw_Kq9u0=", "properties": {"@spider": "usps_collection_boxes", "addr:city": "SAYVILLE", "addr:country": "US", "addr:full": "24 SAYVILLE BLVD", "addr:postcode": "11782", "addr:state": "NY", "brand": "USPS", "collection_times": "Mo-Sa 12:00", "name": "USPS COLLECTION BOX - BLUE BOX", "ref": "1178200008"}, "type": "Feature"}
{"geometry": {"coordinates": [-73.0886594, 40.725447], "type": "Point"}, "id": "3rdcsx_Zs3fKtWSa_xDsHJWbd0g=", "properties": {"@spider": "usps_collection_boxes", "addr:city": "SAYVILLE", "addr:country": "US", "addr:full": "63 JONES DR", "addr:postcode": "11782", "addr:state": "NY", "brand": "USPS", "collection_times": "Mo-Sa 12:00", "name": "USPS COLLECTION BOX - BLUE BOX", "ref": "1178200013"}, "type": "Feature"}
{"geometry": {"coordinates": [-73.0887212, 40.745485], "type": "Point"}, "id": "X0vurg4i9vKG9grzpxcrFpQsm3k=", "properties": {"@spider": "usps_collection_boxes", "addr:city": "SAYVILLE", "addr:country": "US", "addr:full": "314 GREELEY AVE", "addr:postcode": "11782", "addr:state": "NY", "brand": "USPS", "collection_times": "Mo-Sa 09:00", "name": "USPS COLLECTION BOX - BLUE BOX", "ref": "1178200014"}, "type": "Feature"}
{"geometry": {"coordinates": [-73.084158, 40.735043], "type": "Point"}, "id": "IgaLVC2rfJmJfAaRG5nYnxOn5EM=", "properties": {"@spider": "usps_collection_boxes", "addr:city": "SAYVILLE", "addr:country": "US", "addr:full": "136 MAIN ST", "addr:postcode": "11782", "addr:state": "NY", "brand": "USPS", "collection_times": "Mo-Sa 10:30", "name": "USPS COLLECTION BOX - BLUE BOX", "ref": "1178200015"}, "type": "Feature"}
{"geometry": {"coordinates": [-73.085116145, 40.735466718], "type": "Point"}, "id": "fRwaZcRLC6fzCTRocj9M4wnxxec=", "properties": {"@spider": "usps_collection_boxes", "addr:city": "SAYVILLE", "addr:country": "US", "addr:full": "130 GREENE AVE", "addr:postcode": "11782", "addr:state": "NY", "brand": "USPS", "collection_times": "Mo-Fr 17:00; Sa 15:00", "name": "USPS COLLECTION BOX - PO LOBBY", "note": "ON 12/24 AND 12/31, THIS BOX MAY BE COLLECTED AS EARLY AS 12 NOON.", "ref": "1178200023"}, "type": "Feature"}
{"geometry": {"coordinates": [-73.085116145, 40.735466718], "type": "Point"}, "id": "BQ5xZHPNnQx797YuXFgT9WH5jZs=", "properties": {"@spider": "usps_collection_boxes", "addr:city": "SAYVILLE", "addr:country": "US", "addr:full": "130 GREENE AVE", "addr:postcode": "11782", "addr:state": "NY", "brand": "USPS", "collection_times": "Mo-Fr 17:00; Sa 14:00", "name": "USPS COLLECTION BOX - PO LOBBY", "note": "ON 12/24 AND 12/31, THIS BOX MAY BE COLLECTED AS EARLY AS 12 NOON.", "ref": "1178200024"}, "type": "Feature"}
{"geometry": {"coordinates": [-73.0509417, 40.886713], "type": "Point"}, "id": "qZzs80YDtlAMe5OKDPobP2HG07Y=", "properties": {"@spider": "usps_collection_boxes", "addr:city": "SELDEN", "addr:country": "US", "addr:full": "2000 BOYLE RD", "addr:postcode": "11784", "addr:state": "NY", "brand": "USPS", "collection_times": "Mo-Sa 13:00", "name": "USPS COLLECTION BOX - BLUE BOX", "note": "ON 12/24 AND 12/31, THIS BOX MAY BE COLLECTED AS EARLY AS 12 NOON.", "ref": "1178400001"}, "type": "Feature"}
{"geometry": {"coordinates": [-73.0518408, 40.881194], "type": "Point"}, "id": "JDTRItTCrsMAoOgBaUZ-JKnqcKE=", "properties": {"@spider": "usps_collection_boxes", "addr:city": "SELDEN", "addr:country": "US", "addr:full": "243 BOYLE RD", "addr:postcode": "11784", "addr:state": "NY", "brand": "USPS", "collection_times": "Mo-Sa 09:30", "name": "USPS COLLECTION BOX - BLUE BOX", "ref": "1178400002"}, "type": "Feature"}
{"geometry": {"coordinates": [-73.0252406, 40.869246], "type": "Point"}, "id": "9E39mqmgs-H8VBabGqDj1e_Y8o4=", "properties": {"@spider": "usps_collection_boxes", "addr:city": "SELDEN", "addr:country": "US", "addr:full": "211 MIDDLE COUNTRY RD", "addr:postcode": "11784", "addr:state": "NY", "brand": "USPS", "collection_times": "Mo-Sa 13:00", "name": "USPS COLLECTION BOX - BLUE BOX", "note": "ON 12/24 AND 12/31, THIS BOX MAY BE COLLECTED AS EARLY AS 12 NOON.", "ref": "1178400003"}, "type": "Feature"}
{"geometry": {"coordinates": [-73.0458367, 40.85415], "type": "Point"}, "id": "v5piQ5_B2Ov40C6lln6zc91VQzs=", "properties": {"@spider": "usps_collection_boxes", "addr:city": "SELDEN", "addr:country": "US", "addr:full": "111 COLLEGE RD", "addr:postcode": "11784", "addr:state": "NY", "brand": "USPS", "collection_times": "Mo-Sa 13:00", "name": "USPS COLLECTION BOX - BLUE BOX", "note": "ON 12/24 AND 12/31, THIS BOX MAY BE COLLECTED AS EARLY AS 12 NOON.", "ref": "1178400005"}, "type": "Feature"}
{"geometry": {"coordinates": [-73.0515543, 40.865866], "type": "Point"}, "id": "-7BDKMfqdcf2blH69YdZs8DOGCQ=", "properties": {"@spider": "usps_collection_boxes", "addr:city": "SELDEN", "addr:country": "US", "addr:full": "329 INDEPENDENCE PLZ", "addr:postcode": "11784", "addr:state": "NY", "brand": "USPS", "collection_times": "Mo-Sa 10:00", "name": "USPS COLLECTION BOX - BLUE BOX", "ref": "1178400006"}, "type": "Feature"}
{"geometry": {"coordinates": [-73.047774, 40.864106], "type": "Point"}, "id": "Kk70qqhecknhWv-GOJ9NYHZmPBA=", "properties": {"@spider": "usps_collection_boxes", "addr:city": "SELDEN", "addr:country": "US", "addr:full": "109 COLLEGE PLZ", "addr:postcode": "11784", "addr:state": "NY", "brand": "USPS", "collection_times": "Mo-Fr 17:00; Sa 15:30", "name": "USPS COLLECTION BOX - BLUE BOX", "note": "ON 12/24 AND 12/31, THIS BOX MAY BE COLLECTED AS EARLY AS 12 NOON.", "ref": "1178400007"}, "type": "Feature"}
{"geometry": {"coordinates": [-73.047774, 40.864106], "type": "Point"}, "id": "MzD5Cnnb3scCbk6bNo7nMYahTwg=", "properties": {"@spider": "usps_collection_boxes", "addr:city": "SELDEN", "addr:country": "US", "addr:full": "109 COLLEGE PLZ", "addr:postcode": "11784", "addr:state": "NY", "brand": "USPS", "collection_times": "Mo-Fr 17:00; Sa 15:30", "name": "USPS COLLECTION BOX - BLUE BOX", "note": "ON 12/24 AND 12/31, THIS BOX MAY BE COLLECTED AS EARLY AS 12 NOON.", "ref": "1178400009"}, "type": "Feature"}
{"geometry": {"coordinates": [-73.046268, 40.865193], "type": "Point"}, "id": "LZxiwITAuZ__irM-b_UZVz_Pkkg=", "properties": {"@spider": "usps_collection_boxes", "addr:city": "SELDEN", "addr:country": "US", "addr:full": "109 COLLEGE PLZ", "addr:postcode": "11784", "addr:state": "NY", "brand": "USPS", "collection_times": "Mo-Fr 17:00; Sa 15:30", "name": "USPS COLLECTION BOX - BLUE BOX", "note": "ON 12/24 AND 12/31, THIS BOX MAY BE COLLECTED AS EARLY AS 12 NOON.", "ref": "1178400010"}, "type": "Feature"}
{"geometry": {"coordinates": [-73.047774, 40.864106], "type": "Point"}, "id": "y73wCyZ7pO1eZR5cc3gUJBC7TNI=", "properties": {"@spider": "usps_collection_boxes", "addr:city": "SELDEN", "addr:country": "US", "addr:full": "109 COLLEGE PLZ", "addr:postcode": "11784", "addr:state": "NY", "brand": "USPS", "collection_times": "Mo-Fr 17:00; Sa 15:30", "name": "USPS COLLECTION BOX - PO LOBBY", "note": "ON 12/24 AND 12/31, THIS BOX MAY BE COLLECTED AS EARLY AS 12 NOON.", "ref": "1178400015"}, "type": "Feature"}
{"geometry": {"coordinates": [-73.047896997, 40.865039915], "type": "Point"}, "id": "K0bxcqgnleE2kIyFeT_-MFNPhWg=", "properties": {"@spider": "usps_collection_boxes", "addr:city": "SELDEN", "addr:country": "US", "addr:full": "109 COLLEGE PLZ", "addr:postcode": "11784", "addr:state": "NY", "brand": "USPS", "collection_times": "Mo-Fr 17:30; Sa 16:00", "name": "USPS COLLECTION BOX - PO LOBBY", "note": "ON 12/24 AND 12/31, THIS BOX MAY BE COLLECTED AS EARLY AS 12 NOON.", "ref": "1178400018"}, "type": "Feature"}
{"geometry": {"coordinates": [-72.895854, 40.946455], "type": "Point"}, "id": "d0kpRE99fSVicdhqaOC8EcO_1JU=", "properties": {"@spider": "usps_collection_boxes", "addr:city": "SHOREHAM", "addr:country": "US", "addr:full": "69 ROUTE 25A", "addr:postcode": "11786", "addr:state": "NY", "brand": "USPS", "collection_times": "Mo-Fr 17:00; Sa 14:30", "name": "USPS COLLECTION BOX - BLUE BOX", "note": "ON 12/24 AND 12/31, THIS BOX MAY BE COLLECTED AS EARLY AS 12 NOON.", "ref": "1178600001"}, "type": "Feature"}
{"geometry": {"coordinates": [-72.8960895, 40.946913], "type": "Point"}, "id": "9VFP1MjV7rdMqmOJPixDCkJxmRc=", "properties": {"@spider": "usps_collection_boxes", "addr:city": "SHOREHAM", "addr:country": "US", "addr:full": "69 ROUTE 25A", "addr:postcode": "11786", "addr:state": "NY", "brand": "USPS", "collection_times": "Mo-Fr 17:00; Sa 14:30", "name": "USPS COLLECTION BOX - BLUE BOX", "note": "ON 12/24 AND 12/31, THIS BOX MAY BE COLLECTED AS EARLY AS 12 NOON.", "ref": "1178600003"}, "type": "Feature"}
{"geometry": {"coordinates": [-72.895854, 40.946455], "type": "Point"}, "id": "bqaXnSZeDKujL9iG5esEcJML6XQ=", "properties": {"@spider": "usps_collection_boxes", "addr:city": "SHOREHAM", "addr:country": "US", "addr:full": "69 ROUTE 25A", "addr:postcode": "11786", "addr:state": "NY", "brand": "USPS", "collection_times": "Mo-Fr 17:00; Sa 14:30", "name": "USPS COLLECTION BOX - PO LOBBY", "note": "ON 12/24 AND 12/31, THIS BOX MAY BE COLLECTED AS EARLY AS 12 NOON.", "ref": "1178600006"}, "type": "Feature"}
{"geometry": {"coordinates": [-72.895893516, 40.946493092], "type": "Point"}, "id": "UOtSuwdGsFXJsqziM2OuXo-CLkI=", "properties": {"@spider": "usps_collection_boxes", "addr:city": "SHOREHAM", "addr:country": "US", "addr:full": "69 ROUTE 25A", "addr:postcode": "11786", "addr:state": "NY", "brand": "USPS", "collection_times": "Mo-Fr 17:00; Sa 13:00", "name": "USPS COLLECTION BOX - PO LOBBY", "note": "ON 12/24 AND 12/31, THIS BOX MAY BE COLLECTED AS EARLY AS 12 NOON.", "ref": "1178600007"}, "type": "Feature"}
{"geometry": {"coordinates": [-72.969117, 40.956022], "type": "Point"}, "id": "NMlv-1z3cBFElVlVfAo7FSFNUP0=", "properties": {"@spider": "usps_collection_boxes", "addr:city": "SOUND BEACH", "addr:country": "US", "addr:full": "25 NEW YORK AVE", "addr:postcode": "11789", "addr:state": "NY", "brand": "USPS", "collection_times": "Mo-Fr 16:30; Sa 13:00", "name": "USPS COLLECTION BOX - BLUE BOX", "note": "ON 12/24 AND 12/31, THIS BOX MAY BE COLLECTED AS EARLY AS 12 NOON.", "ref": "1178900001"}, "type": "Feature"}
{"geometry": {"coordinates": [-72.96917, 40.955965], "type": "Point"}, "id": "zJwJBKXriDlCa9X1BBybI5_eCxQ=", "properties": {"@spider": "usps_collection_boxes", "addr:city": "SOUND BEACH", "addr:country": "US", "addr:full": "25 NEW YORK AVE", "addr:postcode": "11789", "addr:state": "NY", "brand": "USPS", "collection_times": "Mo-Fr 16:30; Sa 13:00", "name": "USPS COLLECTION BOX - PO LOBBY", "note": "ON 12/24 AND 12/31, THIS BOX MAY BE COLLECTED AS EARLY AS 12 NOON.", "ref": "1178900004"}, "type": "Feature"}
{"geometry": {"coordinates": [-72.969155646, 40.956045808], "type": "Point"}, "id": "GMmUKZXshJwT7vQiwGyLgglLMw8=", "properties": {"@spider": "usps_collection_boxes", "addr:city": "SOUND BEACH", "addr:country": "US", "addr:full": "25 NEW YORK AVE", "addr:postcode": "11789", "addr:state": "NY", "brand": "USPS", "collection_times": "Mo-Fr 17:00; Sa 13:00", "name": "USPS COLLECTION BOX - PO LOBBY", "note": "ON 12/24 AND 12/31, THIS BOX MAY BE COLLECTED AS EARLY AS 12 NOON.", "ref": "1178900005"}, "type": "Feature"}
{"geometry": {"coordinates": [-73.1151919, 40.908159], "type": "Point"}, "id": "QLUyqgTmfVnxn-uNET2EU9GWhcA=", "properties": {"@spider": "usps_collection_boxes", "addr:city": "STONYBROOK", "addr:country": "US", "addr:full": "000 UNIVERSITY HOSPITAL", "addr:postcode": "11790", "addr:state": "NY", "brand": "USPS", "collection_times": "Mo-Sa 13:00", "name": "USPS COLLECTION BOX - BLUE BOX", "note": "ON 12/24 AND 12/31, THIS BOX MAY BE COLLECTED AS EARLY AS 12 NOON.", "ref": "1179000007"}, "type": "Feature"}
{"geometry": {"coordinates": [-73.1158976, 40.880447], "type": "Point"}, "id": "RzLFuJ3RwhXOiXhubDTkV0k9MdA=", "properties": {"@spider": "usps_collection_boxes", "addr:city": "STONYBROOK", "addr:country": "US", "addr:full": "2500 ROUTE 347", "addr:postcode": "11790", "addr:state": "NY", "brand": "USPS", "collection_times": "Mo-Sa 13:00", "name": "USPS COLLECTION BOX - BLUE BOX", "note": "ON 12/24 AND 12/31, THIS BOX MAY BE COLLECTED AS EARLY AS 12 NOON.", "ref": "1179000011"}, "type": "Feature"}
{"geometry": {"coordinates": [-73.1111376, 40.908002], "type": "Point"}, "id": "LwNbvUIOY_6W6EhojuiGsgVL7OE=", "properties": {"@spider": "usps_collection_boxes", "addr:city": "STONYBROOK", "addr:country": "US", "addr:full": "700 E LOOP RD", "addr:postcode": "11790", "addr:state": "NY", "brand": "USPS", "collection_times": "Mo-Sa 13:00", "name": "USPS COLLECTION BOX - BLUE BOX", "note": "ON 12/24 AND 12/31, THIS BOX MAY BE COLLECTED AS EARLY AS 12 NOON.", "ref": "1179000015"}, "type": "Feature"}
{"geometry": {"coordinates": [-72.8418387549, 40.942882917], "type": "Point"}, "id": "0FbVueczXA1lt_47ZXsvucaGIXo=", "properties": {"@spider": "usps_collection_boxes", "addr:city": "WADING RIVER", "addr:country": "US", "addr:full": "1816 WADING RIVER MANOR RD", "addr:postcode": "11792", "addr:state": "NY", "brand": "USPS", "collection_times": "Mo-Fr 16:30; Sa 14:30", "name": "USPS COLLECTION BOX - BLUE BOX", "note": "ON 12/24 AND 12/31, THIS BOX MAY BE COLLECTED AS EARLY AS 12 NOON.", "ref": "1179200004"}, "type": "Feature"}
{"geometry": {"coordinates": [-72.841851532, 40.942903337], "type": "Point"}, "id": "ijAWwcZLRg4gO8GHQmdsvWuYHQU=", "properties": {"@spider": "usps_collection_boxes", "addr:city": "WADING RIVER", "addr:country": "US", "addr:full": "1816 WADING RIVER MANOR RD", "addr:postcode": "11792", "addr:state": "NY", "brand": "USPS", "collection_times": "Mo-Fr 16:30; Sa 14:30", "name": "USPS COLLECTION BOX - BLUE BOX", "note": "ON 12/24 AND 12/31, THIS BOX MAY BE COLLECTED AS EARLY AS 12 NOON.", "ref": "1179200006"}, "type": "Feature"}
{"geometry": {"coordinates": [-72.841847, 40.942886], "type": "Point"}, "id": "AIjSUsT3a29xSAtl8zmpYGFdpz0=", "properties": {"@spider": "usps_collection_boxes", "addr:city": "WADING RIVER", "addr:country": "US", "addr:full": "1816 WADING RIVER MANOR RD", "addr:postcode": "11792", "addr:state": "NY", "brand": "USPS", "collection_times": "Mo-Fr 16:30; Sa 13:00", "name": "USPS COLLECTION BOX - PO LOBBY", "note": "ON 12/24 AND 12/31, THIS BOX MAY BE COLLECTED AS EARLY AS 12 NOON.", "ref": "1179200011"}, "type": "Feature"}
{"geometry": {"coordinates": [-72.841838755, 40.942882917], "type": "Point"}, "id": "gy2FRAemrFWpAEeg6VlpPL8L0kY=", "properties": {"@spider": "usps_collection_boxes", "addr:city": "WADING RIVER", "addr:country": "US", "addr:full": "1816 WADING RIVER MANOR RD", "addr:postcode": "11792", "addr:state": "NY", "brand": "USPS", "collection_times": "Mo-Fr 17:00; Sa 13:00", "name": "USPS COLLECTION BOX - PO LOBBY", "note": "ON 12/24 AND 12/31, THIS BOX MAY BE COLLECTED AS EARLY AS 12 NOON.", "ref": "1179200013"}, "type": "Feature"}
{"geometry": {"coordinates": [-73.101354, 40.728752], "type": "Point"}, "id": "Trp50jfSPiu1BpKTeJPaNAsRQLE=", "properties": {"@spider": "usps_collection_boxes", "addr:city": "WEST SAYVILLE", "addr:country": "US", "addr:full": "12 WASHINGTON AVE", "addr:postcode": "11796", "addr:state": "NY", "brand": "USPS", "collection_times": "Mo-Fr 17:00; Sa 13:00", "name": "USPS COLLECTION BOX - BLUE BOX", "note": "ON 12/24 AND 12/31, THIS BOX MAY BE COLLECTED AS EARLY AS 12 NOON.", "ref": "1179600011"}, "type": "Feature"}
{"geometry": {"coordinates": [-73.101354, 40.728752], "type": "Point"}, "id": "n7-IVnMYB7vKpbuR0F_cVq_q7Js=", "properties": {"@spider": "usps_collection_boxes", "addr:city": "WEST SAYVILLE", "addr:country": "US", "addr:full": "12 WASHINGTON AVE", "addr:postcode": "11796", "addr:state": "NY", "brand": "USPS", "collection_times": "Mo-Fr 16:45; Sa 13:00", "name": "USPS COLLECTION BOX - PO LOBBY", "note": "ON 12/24 AND 12/31, THIS BOX MAY BE COLLECTED AS EARLY AS 12 NOON.", "ref": "1179600024"}, "type": "Feature"}
{"geometry": {"coordinates": [-73.101352833, 40.728747467], "type": "Point"}, "id": "uLHhxnwmMcGDf5gFcC_KqMCoUXU=", "properties": {"@spider": "usps_collection_boxes", "addr:city": "WEST SAYVILLE", "addr:country": "US", "addr:full": "12 WASHINGTON AVE", "addr:postcode": "11796", "addr:state": "NY", "brand": "USPS", "collection_times": "Mo-Fr 17:00; Sa 13:00", "name": "USPS COLLECTION BOX - PO LOBBY", "note": "ON 12/24 AND 12/31, THIS BOX MAY BE COLLECTED AS EARLY AS 12 NOON.", "ref": "1179600026"}, "type": "Feature"}
