{"geometry": {"coordinates": [-73.5205991, 40.774269], "type": "Point"}, "id": "4pk9s7iR3VZUnMM0gFNr3SPNeRk=", "properties": {"@source_uri": "https://tools.usps.com/UspsToolsRestServices/rest/POLocator/findLocations", "@spider": "usps_collection_boxes", "addr:city": "HICKSVILLE", "addr:country": "US", "addr:postcode": "11801", "addr:state": "NY", "addr:street_address": "60 BETHPAGE RD", "amenity": "post_box", "brand": "United States Postal Service", "brand:wikidata": "Q668687", "collection_times": "Mo-Fr 17:00; Sa 13:00", "note": "ON 12/24 AND 12/31, THIS BOX MAY BE COLLECTED AS EARLY AS 12 NOON.", "nsi_id": "unitedstatespostalservice-a77078", "operator": "United States Postal Service", "operator:short": "USPS", "operator:type": "public", "operator:wikidata": "Q668687", "ref": "1180100002"}, "type": "Feature"}
{"geometry": {"coordinates": [-73.5134649, 40.759363], "type": "Point"}, "id": "Mkz0d6rrO0mu8c6pc6JBTiDg-VA=", "properties": {"@source_uri": "https://tools.usps.com/UspsToolsRestServices/rest/POLocator/findLocations", "@spider": "usps_collection_boxes", "addr:city": "HICKSVILLE", "addr:country": "US", "addr:postcode": "11801", "addr:state": "NY", "addr:street_address": "393 S BROADWAY", "amenity": "post_box", "brand": "United States Postal Service", "brand:wikidata": "Q668687", "collection_times": "Mo-Sa 10:30", "nsi_id": "unitedstatespostalservice-a77078", "operator": "United States Postal Service", "operator:short": "USPS", "operator:type": "public", "operator:wikidata": "Q668687", "ref": "1180100009"}, "type": "Feature"}
{"geometry": {"coordinates": [-73.5266639, 40.77117], "type": "Point"}, "id": "9XuBg6IsiVt2kF5hnoxbOKxZiZA=", "properties": {"@source_uri": "https://tools.usps.com/UspsToolsRestServices/rest/POLocator/findLocations", "@spider": "usps_collection_boxes", "addr:city": "HICKSVILLE", "addr:country": "US", "addr:postcode": "11801", "addr:state": "NY", "addr:street_address": "87 N BROADWAY", "amenity": "post_box", "brand": "United States Postal Service", "brand:wikidata": "Q668687", "collection_times": "Mo-Fr 17:00; Sa 13:00", "note": "ON 12/24 AND 12/31, THIS BOX MAY BE COLLECTED AS EARLY AS 12 NOON.", "nsi_id": "unitedstatespostalservice-a77078", "operator": "United States Postal Service", "operator:short": "USPS", "operator:type": "public", "operator:wikidata": "Q668687", "ref": "1180100011"}, "type": "Feature"}
{"geometry": {"coordinates": [-73.510049402, 40.756452683], "type": "Point"}, "id": "j_aHbUYSIl6la4_K5jhvRPlqDbE=", "properties": {"@source_uri": "https://tools.usps.com/UspsToolsRestServices/rest/POLocator/findLocations", "@spider": "usps_collection_boxes", "addr:city": "HICKSVILLE", "addr:country": "US", "addr:postcode": "11801", "addr:state": "NY", "addr:street_address": "501 S BROADWAY", "amenity": "post_box", "brand": "United States Postal Service", "brand:wikidata": "Q668687", "collection_times": "Mo-Sa 10:00", "nsi_id": "unitedstatespostalservice-a77078", "operator": "United States Postal Service", "operator:short": "USPS", "operator:type": "public", "operator:wikidata": "Q668687", "ref": "1180100014"}, "type": "Feature"}
{"geometry": {"coordinates": [-73.5314588, 40.772059], "type": "Point"}, "id": "ls9ygFmVFUgs01f-SoVBtcDeZz4=", "properties": {"@source_uri": "https://tools.usps.com/UspsToolsRestServices/rest/POLocator/findLocations", "@spider": "usps_collection_boxes", "addr:city": "HICKSVILLE", "addr:country": "US", "addr:postcode": "11801", "addr:state": "NY", "addr:street_address": "1100 BROADWAY MALL", "amenity": "post_box", "brand": "United States Postal Service", "brand:wikidata": "Q668687", "collection_times": "Mo-Fr 17:00; Sa 13:00", "note": "ON 12/24 AND 12/31, THIS BOX MAY BE COLLECTED AS EARLY AS 12 NOON.", "nsi_id": "unitedstatespostalservice-a77078", "operator": "United States Postal Service", "operator:short": "USPS", "operator:type": "public", "operator:wikidata": "Q668687", "ref": "1180100015"}, "type": "Feature"}
{"geometry": {"coordinates": [-73.4997957, 40.745025], "type": "Point"}, "id": "HTtPjwbN13QgNLeXGFDwWEcUeXQ=", "properties": {"@source_uri": "https://tools.usps.com/UspsToolsRestServices/rest/POLocator/findLocations", "@spider": "usps_collection_boxes", "addr:city": "HICKSVILLE", "addr:country": "US", "addr:postcode": "11801", "addr:state": "NY", "addr:street_address": "960 S BROADWAY", "amenity": "post_box", "brand": "United States Postal Service", "brand:wikidata": "Q668687", "collection_times": "Mo-Sa 12:00", "nsi_id": "unitedstatespostalservice-a77078", "operator": "United States Postal Service", "operator:short": "USPS", "operator:type": "public", "operator:wikidata": "Q668687", "ref": "1180100016"}, "type": "Feature"}
{"geometry": {"coordinates": [-73.5152824, 40.76048], "type": "Point"}, "id": "CmUzkGtcJw_BJBxfHTnY4SJBrsw=", "properties": {"@source_uri": "https://tools.usps.com/UspsToolsRestServices/rest/POLocator/findLocations", "@spider": "usps_collection_boxes", "addr:city": "HICKSVILLE", "addr:country": "US", "addr:postcode": "11801", "addr:state": "NY", "addr:street_address": "350 S BROADWAY", "amenity": "post_box", "brand": "United States Postal Service", "brand:wikidata": "Q668687", "collection_times": "Mo-Fr 17:00; Sa 13:00", "note": "ON 12/24 AND 12/31, THIS BOX MAY BE COLLECTED AS EARLY AS 12 NOON.", "nsi_id": "unitedstatespostalservice-a77078", "operator": "United States Postal Service", "operator:short": "USPS", "operator:type": "public", "operator:wikidata": "Q668687", "ref": "1180100022"}, "type": "Feature"}
{"geometry": {"coordinates": [-73.5031004, 40.751616], "type": "Point"}, "id": "qaHkopmTdjGLkgCn4X4kKSTferA=", "properties": {"@source_uri": "https://tools.usps.com/UspsToolsRestServices/rest/POLocator/findLocations", "@spider": "usps_collection_boxes", "addr:city": "HICKSVILLE", "addr:country": "US", "addr:postcode": "11801", "addr:state": "NY", "addr:street_address": "50 HAZEL ST", "amenity": "post_box", "brand": "United States Postal Service", "brand:wikidata": "Q668687", "collection_times": "Mo-Sa 10:00", "nsi_id": "unitedstatespostalservice-a77078", "operator": "United States Postal Service", "operator:short": "USPS", "operator:type": "public", "operator:wikidata": "Q668687", "ref": "1180100028"}, "type": "Feature"}
{"geometry": {"coordinates": [-73.5186805, 40.749665], "type": "Point"}, "id": "9OEB4uKsUfZ19o3fhNEpeFlmWns=", "properties": {"@source_uri": "https://tools.usps.com/UspsToolsRestServices/rest/POLocator/findLocations", "@spider": "usps_collection_boxes", "addr:city": "HICKSVILLE", "addr:country": "US", "addr:postcode": "11801", "addr:state": "NY", "addr:street_address": "424 JERUSALEM AVE", "amenity": "post_box", "brand": "United States Postal Service", "brand:wikidata": "Q668687", "collection_times": "Mo-Fr 17:00; Sa 13:00", "note": "ON 12/24 AND 12/31, THIS BOX MAY BE COLLECTED AS EARLY AS 12 NOON.", "nsi_id": "unitedstatespostalservice-a77078", "operator": "United States Postal Service", "operator:short": "USPS", "operator:type": "public", "operator:wikidata": "Q668687", "ref": "1180100030"}, "type": "Feature"}
{"geometry": {"coordinates": [-73.524614, 40.764719], "type": "Point"}, "id": "BdUkoHLkGz0RdGlh3rR86qHkUTw=", "properties": {"@source_uri": "https://tools.usps.com/UspsToolsRestServices/rest/POLocator/findLocations", "@spider": "usps_collection_boxes", "addr:city": "HICKSVILLE", "addr:country": "US", "addr:postcode": "11801", "addr:state": "NY", "addr:street_address": "90 JERUSALEM AVE", "amenity": "post_box", "brand": "United States Postal Service", "brand:wikidata": "Q668687", "collection_times": "Mo-Fr 17:00; Sa 13:00", "note": "ON 12/24 AND 12/31, THIS BOX MAY BE COLLECTED AS EARLY AS 12 NOON.", "nsi_id": "unitedstatespostalservice-a77078", "operator": "United States Postal Service", "operator:short": "USPS", "operator:type": "public", "operator:wikidata": "Q668687", "ref": "1180100033"}, "type": "Feature"}
{"geometry": {"coordinates": [-73.5418604, 40.75331], "type": "Point"}, "id": "xNrvEprdQCnrkscrkyAAnwiMWw4=", "properties": {"@source_uri": "https://tools.usps.com/UspsToolsRestServices/rest/POLocator/findLocations", "@spider": "usps_collection_boxes", "addr:city": "HICKSVILLE", "addr:country": "US", "addr:postcode": "11801", "addr:state": "NY", "addr:street_address": "161 LEVITTOWN PKWY", "amenity": "post_box", "brand": "United States Postal Service", "brand:wikidata": "Q668687", "collection_times": "Mo-Fr 17:00; Sa 13:00", "note": "ON 12/24 AND 12/31, THIS BOX MAY BE COLLECTED AS EARLY AS 12 NOON.", "nsi_id": "unitedstatespostalservice-a77078", "operator": "United States Postal Service", "operator:short": "USPS", "operator:type": "public", "operator:wikidata": "Q668687", "ref": "1180100035"}, "type": "Feature"}
{"geometry": {"coordinates": [-73.529616148, 40.7578246546], "type": "Point"}, "id": "lizyTUHVAdVr3gb1gD1ipFhseho=", "properties": {"@source_uri": "https://tools.usps.com/UspsToolsRestServices/rest/POLocator/findLocations", "@spider": "usps_collection_boxes", "addr:city": "HICKSVILLE", "addr:country": "US", "addr:postcode": "11801", "addr:state": "NY", "addr:street_address": "NEW BRIDGE RD", "amenity": "post_box", "brand": "United States Postal Service", "brand:wikidata": "Q668687", "collection_times": "Mo-Fr 17:00; Sa 13:00", "note": "ON 12/24 AND 12/31, THIS BOX MAY BE COLLECTED AS EARLY AS 12 NOON.", "nsi_id": "unitedstatespostalservice-a77078", "operator": "United States Postal Service", "operator:short": "USPS", "operator:type": "public", "operator:wikidata": "Q668687", "ref": "1180100038"}, "type": "Feature"}
{"geometry": {"coordinates": [-73.5065377, 40.760752], "type": "Point"}, "id": "8luYk4tA5OvcGk_WVNlzLZsShzM=", "properties": {"@source_uri": "https://tools.usps.com/UspsToolsRestServices/rest/POLocator/findLocations", "@spider": "usps_collection_boxes", "addr:city": "HICKSVILLE", "addr:country": "US", "addr:postcode": "11801", "addr:state": "NY", "addr:street_address": "102 NEW SOUTH RD", "amenity": "post_box", "brand": "United States Postal Service", "brand:wikidata": "Q668687", "collection_times": "Mo-Fr 17:00; Sa 13:00", "name": "USPS COLLECTION BOX - EXPRESS", "note": "ON 12/24 AND 12/31, THIS BOX MAY BE COLLECTED AS EARLY AS 12 NOON.", "nsi_id": "unitedstatespostalservice-a77078", "operator": "United States Postal Service", "operator:short": "USPS", "operator:type": "public", "operator:wikidata": "Q668687", "ref": "1180100043"}, "type": "Feature"}
{"geometry": {"coordinates": [-73.5150547, 40.78507], "type": "Point"}, "id": "m8syP29OSiizY4ZNlfqL_1NN41Y=", "properties": {"@source_uri": "https://tools.usps.com/UspsToolsRestServices/rest/POLocator/findLocations", "@spider": "usps_collection_boxes", "addr:city": "HICKSVILLE", "addr:country": "US", "addr:postcode": "11801", "addr:state": "NY", "addr:street_address": "180 MILLER PL", "amenity": "post_box", "brand": "United States Postal Service", "brand:wikidata": "Q668687", "collection_times": "Mo-Fr 17:00; Sa 13:00", "note": "ON 12/24 AND 12/31, THIS BOX MAY BE COLLECTED AS EARLY AS 12 NOON.", "nsi_id": "unitedstatespostalservice-a77078", "operator": "United States Postal Service", "operator:short": "USPS", "operator:type": "public", "operator:wikidata": "Q668687", "ref": "1180100044"}, "type": "Feature"}
{"geometry": {"coordinates": [-73.5293883, 40.761647], "type": "Point"}, "id": "YQIHhMDXvBAI3W9w0V4TsICUqkA=", "properties": {"@source_uri": "https://tools.usps.com/UspsToolsRestServices/rest/POLocator/findLocations", "@spider": "usps_collection_boxes", "addr:city": "HICKSVILLE", "addr:country": "US", "addr:postcode": "11801", "addr:state": "NY", "addr:street_address": "234 W OLD COUNTRY RD", "amenity": "post_box", "brand": "United States Postal Service", "brand:wikidata": "Q668687", "collection_times": "Mo-Sa 11:30", "nsi_id": "unitedstatespostalservice-a77078", "operator": "United States Postal Service", "operator:short": "USPS", "operator:type": "public", "operator:wikidata": "Q668687", "ref": "1180100048"}, "type": "Feature"}
{"geometry": {"coordinates": [-73.5443705, 40.748302], "type": "Point"}, "id": "SwyjOHwBaExy9hO_S0Kj__-envg=", "properties": {"@source_uri": "https://tools.usps.com/UspsToolsRestServices/rest/POLocator/findLocations", "@spider": "usps_collection_boxes", "addr:city": "HICKSVILLE", "addr:country": "US", "addr:postcode": "11801", "addr:state": "NY", "addr:street_address": "100 STEWART AVE", "amenity": "post_box", "brand": "United States Postal Service", "brand:wikidata": "Q668687", "collection_times": "Mo-Fr 17:00; Sa 13:00", "note": "ON 12/24 AND 12/31, THIS BOX MAY BE COLLECTED AS EARLY AS 12 NOON.", "nsi_id": "unitedstatespostalservice-a77078", "operator": "United States Postal Service", "operator:short": "USPS", "operator:type": "public", "operator:wikidata": "Q668687", "ref": "1180100058"}, "type": "Feature"}
{"geometry": {"coordinates": [-73.5032933, 40.783894], "type": "Point"}, "id": "w7gcc-59BEZzryaXbvac6ZPyE7s=", "properties": {"@source_uri": "https://tools.usps.com/UspsToolsRestServices/rest/POLocator/findLocations", "@spider": "usps_collection_boxes", "addr:city": "HICKSVILLE", "addr:country": "US", "addr:postcode": "11801", "addr:state": "NY", "addr:street_address": "400 S OYSTER BAY RD", "amenity": "post_box", "brand": "United States Postal Service", "brand:wikidata": "Q668687", "collection_times": "Mo-Fr 17:00; Sa 13:00", "note": "ON 12/24 AND 12/31, THIS BOX MAY BE COLLECTED AS EARLY AS 12 NOON.", "nsi_id": "unitedstatespostalservice-a77078", "operator": "United States Postal Service", "operator:short": "USPS", "operator:type": "public", "operator:wikidata": "Q668687", "ref": "1180100059"}, "type": "Feature"}
{"geometry": {"coordinates": [-73.5035949, 40.785778], "type": "Point"}, "id": "KVOZL1pxj8-Pn7i4dAQ5XiG1sC4=", "properties": {"@source_uri": "https://tools.usps.com/UspsToolsRestServices/rest/POLocator/findLocations", "@spider": "usps_collection_boxes", "addr:city": "HICKSVILLE", "addr:country": "US", "addr:postcode": "11801", "addr:state": "NY", "addr:street_address": "378 S OYSTER BAY RD", "amenity": "post_box", "brand": "United States Postal Service", "brand:wikidata": "Q668687", "collection_times": "Mo-Fr 17:00; Sa 13:00", "note": "ON 12/24 AND 12/31, THIS BOX MAY BE COLLECTED AS EARLY AS 12 NOON.", "nsi_id": "unitedstatespostalservice-a77078", "operator": "United States Postal Service", "operator:short": "USPS", "operator:type": "public", "operator:wikidata": "Q668687", "ref": "1180100061"}, "type": "Feature"}
{"geometry": {"coordinates": [-73.5036347, 40.780745], "type": "Point"}, "id": "mt8eGMtVp9SI2njb1LR97eDYn5s=", "properties": {"@source_uri": "https://tools.usps.com/UspsToolsRestServices/rest/POLocator/findLocations", "@spider": "usps_collection_boxes", "addr:city": "HICKSVILLE", "addr:country": "US", "addr:postcode": "11801", "addr:state": "NY", "addr:street_address": "442 S OYSTER BAY RD", "amenity": "post_box", "brand": "United States Postal Service", "brand:wikidata": "Q668687", "collection_times": "Mo-Fr 17:00; Sa 13:00", "note": "ON 12/24 AND 12/31, THIS BOX MAY BE COLLECTED AS EARLY AS 12 NOON.", "nsi_id": "unitedstatespostalservice-a77078", "operator": "United States Postal Service", "operator:short": "USPS", "operator:type": "public", "operator:wikidata": "Q668687", "ref": "1180100062"}, "type": "Feature"}
{"geometry": {"coordinates": [-73.533074, 40.767713], "type": "Point"}, "id": "B3b5sYS8cOnhQbzlMgJdCoeQqcY=", "properties": {"@source_uri": "https://tools.usps.com/UspsToolsRestServices/rest/POLocator/findLocations", "@spider": "usps_collection_boxes", "addr:city": "HICKSVILLE", "addr:country": "US", "addr:postcode": "11801", "addr:state": "NY", "addr:street_address": "185 W JOHN ST", "amenity": "post_box", "brand": "United States Postal Service", "brand:wikidata": "Q668687", "collection_times": "Mo-Fr 18:00; Sa 17:00", "note": "ON 12/24 AND 12/31, THIS BOX MAY BE COLLECTED AS EARLY AS 12 NOON.", "nsi_id": "unitedstatespostalservice-a77078", "operator": "United States Postal Service", "operator:short": "USPS", "operator:type": "public", "operator:wikidata": "Q668687", "ref": "1180100065"}, "type": "Feature"}
{"geometry": {"coordinates": [-73.533074, 40.767713], "type": "Point"}, "id": "QHXTLsY67ZBJgPBtR4b4tZvQSyk=", "properties": {"@source_uri": "https://tools.usps.com/UspsToolsRestServices/rest/POLocator/findLocations", "@spider": "usps_collection_boxes", "addr:city": "HICKSVILLE", "addr:country": "US", "addr:postcode": "11801", "addr:state": "NY", "addr:street_address": "185 W JOHN ST", "amenity": "post_box", "brand": "United States Postal Service", "brand:wikidata": "Q668687", "collection_times": "Mo-Fr 18:00; Sa 17:00", "note": "ON 12/24 AND 12/31, THIS BOX MAY BE COLLECTED AS EARLY AS 12 NOON.", "nsi_id": "unitedstatespostalservice-a77078", "operator": "United States Postal Service", "operator:short": "USPS", "operator:type": "public", "operator:wikidata": "Q668687", "ref": "1180100066"}, "type": "Feature"}
{"geometry": {"coordinates": [-73.5410319, 40.766779], "type": "Point"}, "id": "Z8CvZ0LlsvCMXndYIhaUWLgXVYE=", "properties": {"@source_uri": "https://tools.usps.com/UspsToolsRestServices/rest/POLocator/findLocations", "@spider": "usps_collection_boxes", "addr:city": "HICKSVILLE", "addr:country": "US", "addr:postcode": "11801", "addr:state": "NY", "addr:street_address": "2 KUHL AVE", "amenity": "post_box", "brand": "United States Postal Service", "brand:wikidata": "Q668687", "collection_times": "Mo-Sa 13:00", "note": "ON 12/24 AND 12/31, THIS BOX MAY BE COLLECTED AS EARLY AS 12 NOON.", "nsi_id": "unitedstatespostalservice-a77078", "operator": "United States Postal Service", "operator:short": "USPS", "operator:type": "public", "operator:wikidata": "Q668687", "ref": "1180100067"}, "type": "Feature"}
{"geometry": {"coordinates": [-73.5155794, 40.773275], "type": "Point"}, "id": "08OU5yNzyGR0FQWAWDfjlZP92sA=", "properties": {"@source_uri": "https://tools.usps.com/UspsToolsRestServices/rest/POLocator/findLocations", "@spider": "usps_collection_boxes", "addr:city": "HICKSVILLE", "addr:country": "US", "addr:postcode": "11801", "addr:state": "NY", "addr:street_address": "195 CENTER ST", "amenity": "post_box", "brand": "United States Postal Service", "brand:wikidata": "Q668687", "collection_times": "Mo-Fr 17:00; Sa 13:00", "note": "ON 12/24 AND 12/31, THIS BOX MAY BE COLLECTED AS EARLY AS 12 NOON.", "nsi_id": "unitedstatespostalservice-a77078", "operator": "United States Postal Service", "operator:short": "USPS", "operator:type": "public", "operator:wikidata": "Q668687", "ref": "1180100068"}, "type": "Feature"}
{"geometry": {"coordinates": [-73.5354868, 40.75961], "type": "Point"}, "id": "LvkZAyHLvrVTmwWb5oLwmp0MzZo=", "properties": {"@source_uri": "https://tools.usps.com/UspsToolsRestServices/rest/POLocator/findLocations", "@spider": "usps_collection_boxes", "addr:city": "HICKSVILLE", "addr:country": "US", "addr:postcode": "11801", "addr:state": "NY", "addr:street_address": "303 W OLD COUNTRY RD", "amenity": "post_box", "brand": "United States Postal Service", "brand:wikidata": "Q668687", "collection_times": "Mo-Fr 17:00; Sa 13:00", "note": "ON 12/24 AND 12/31, THIS BOX MAY BE COLLECTED AS EARLY AS 12 NOON.", "nsi_id": "unitedstatespostalservice-a77078", "operator": "United States Postal Service", "operator:short": "USPS", "operator:type": "public", "operator:wikidata": "Q668687", "ref": "1180100073"}, "type": "Feature"}
{"geometry": {"coordinates": [-73.5210872, 40.76975], "type": "Point"}, "id": "RXFhJ3iUYRamow43Tzl8NN7DNFY=", "properties": {"@source_uri": "https://tools.usps.com/UspsToolsRestServices/rest/POLocator/findLocations", "@spider": "usps_collection_boxes", "addr:city": "HICKSVILLE", "addr:country": "US", "addr:postcode": "11801", "addr:state": "NY", "addr:street_address": "27 WOODBURY RD", "amenity": "post_box", "brand": "United States Postal Service", "brand:wikidata": "Q668687", "collection_times": "Mo-Fr 17:00; Sa 13:00", "note": "ON 12/24 AND 12/31, THIS BOX MAY BE COLLECTED AS EARLY AS 12 NOON.", "nsi_id": "unitedstatespostalservice-a77078", "operator": "United States Postal Service", "operator:short": "USPS", "operator:type": "public", "operator:wikidata": "Q668687", "ref": "1180100075"}, "type": "Feature"}
{"geometry": {"coordinates": [-73.5402419, 40.76274], "type": "Point"}, "id": "1smrF2kh8rZVeT03wr2sOUCMZgw=", "properties": {"@source_uri": "https://tools.usps.com/UspsToolsRestServices/rest/POLocator/findLocations", "@spider": "usps_collection_boxes", "addr:city": "HICKSVILLE", "addr:country": "US", "addr:postcode": "11801", "addr:state": "NY", "addr:street_address": "270 DUFFY AVE", "amenity": "post_box", "brand": "United States Postal Service", "brand:wikidata": "Q668687", "collection_times": "Mo-Fr 17:00; Sa 13:00", "note": "ON 12/24 AND 12/31, THIS BOX MAY BE COLLECTED AS EARLY AS 12 NOON.", "nsi_id": "unitedstatespostalservice-a77078", "operator": "United States Postal Service", "operator:short": "USPS", "operator:type": "public", "operator:wikidata": "Q668687", "ref": "1180100077"}, "type": "Feature"}
{"geometry": {"coordinates": [-73.5254544, 40.766745], "type": "Point"}, "id": "lw4ewScZh9jmCm3DbL9aWBPP-As=", "properties": {"@source_uri": "https://tools.usps.com/UspsToolsRestServices/rest/POLocator/findLocations", "@spider": "usps_collection_boxes", "addr:city": "HICKSVILLE", "addr:country": "US", "addr:postcode": "11801", "addr:state": "NY", "addr:street_address": "20 JERUSALEM AVE", "amenity": "post_box", "brand": "United States Postal Service", "brand:wikidata": "Q668687", "collection_times": "Mo-Fr 17:00", "note": "ON 12/24 AND 12/31, THIS BOX MAY BE COLLECTED AS EARLY AS 12 NOON.", "nsi_id": "unitedstatespostalservice-a77078", "operator": "United States Postal Service", "operator:short": "USPS", "operator:type": "public", "operator:wikidata": "Q668687", "ref": "1180100082"}, "type": "Feature"}
{"geometry": {"coordinates": [-73.5065524, 40.760745], "type": "Point"}, "id": "tGtU3lRLba8DOX1mdqgoano474w=", "properties": {"@source_uri": "https://tools.usps.com/UspsToolsRestServices/rest/POLocator/findLocations", "@spider": "usps_collection_boxes", "addr:city": "HICKSVILLE", "addr:country": "US", "addr:postcode": "11801", "addr:state": "NY", "addr:street_address": "102 NEW SOUTH RD", "amenity": "post_box", "brand": "United States Postal Service", "brand:wikidata": "Q668687", "collection_times": "Mo-Fr 17:00; Sa 13:00", "note": "ON 12/24 AND 12/31, THIS BOX MAY BE COLLECTED AS EARLY AS 12 NOON.", "nsi_id": "unitedstatespostalservice-a77078", "operator": "United States Postal Service", "operator:short": "USPS", "operator:type": "public", "operator:wikidata": "Q668687", "ref": "1180100087"}, "type": "Feature"}
{"geometry": {"coordinates": [-73.5052524, 40.749881], "type": "Point"}, "id": "9EIeHjHxHBwdIVT36IOSGTjyaPE=", "properties": {"@source_uri": "https://tools.usps.com/UspsToolsRestServices/rest/POLocator/findLocations", "@spider": "usps_collection_boxes", "addr:city": "HICKSVILLE", "addr:country": "US", "addr:postcode": "11801", "addr:state": "NY", "addr:street_address": "33 BLOOMINGDALE RD", "amenity": "post_box", "brand": "United States Postal Service", "brand:wikidata": "Q668687", "collection_times": "Mo-Fr 17:00; Sa 13:00", "note": "ON 12/24 AND 12/31, THIS BOX MAY BE COLLECTED AS EARLY AS 12 NOON.", "nsi_id": "unitedstatespostalservice-a77078", "operator": "United States Postal Service", "operator:short": "USPS", "operator:type": "public", "operator:wikidata": "Q668687", "ref": "1180100090"}, "type": "Feature"}
{"geometry": {"coordinates": [-73.5254389, 40.776525], "type": "Point"}, "id": "Lw56cRIHok3A3VnFpZheUDR3znE=", "properties": {"@source_uri": "https://tools.usps.com/UspsToolsRestServices/rest/POLocator/findLocations", "@spider": "usps_collection_boxes", "addr:city": "HICKSVILLE", "addr:country": "US", "addr:postcode": "11801", "addr:state": "NY", "addr:street_address": "120 BETHPAGE RD", "amenity": "post_box", "brand": "United States Postal Service", "brand:wikidata": "Q668687", "collection_times": "Mo-Fr 17:00; Sa 13:00", "note": "ON 12/24 AND 12/31, THIS BOX MAY BE COLLECTED AS EARLY AS 12 NOON.", "nsi_id": "unitedstatespostalservice-a77078", "operator": "United States Postal Service", "operator:short": "USPS", "operator:type": "public", "operator:wikidata": "Q668687", "ref": "1180100093"}, "type": "Feature"}
{"geometry": {"coordinates": [-73.5274783, 40.763998], "type": "Point"}, "id": "PntlFGd0iN8hlc2HhNrpUr1eXSs=", "properties": {"@source_uri": "https://tools.usps.com/UspsToolsRestServices/rest/POLocator/findLocations", "@spider": "usps_collection_boxes", "addr:city": "HICKSVILLE", "addr:country": "US", "addr:postcode": "11801", "addr:state": "NY", "addr:street_address": "100 NEWBRIDGE RD", "amenity": "post_box", "brand": "United States Postal Service", "brand:wikidata": "Q668687", "collection_times": "Mo-Fr 17:00; Sa 13:00", "note": "ON 12/24 AND 12/31, THIS BOX MAY BE COLLECTED AS EARLY AS 12 NOON.", "nsi_id": "unitedstatespostalservice-a77078", "operator": "United States Postal Service", "operator:short": "USPS", "operator:type": "public", "operator:wikidata": "Q668687", "ref": "1180100098"}, "type": "Feature"}
{"geometry": {"coordinates": [-73.5232799, 40.767265], "type": "Point"}, "id": "jh9duETQFraSqEBcEpAbeiTz45M=", "properties": {"@source_uri": "https://tools.usps.com/UspsToolsRestServices/rest/POLocator/findLocations", "@spider": "usps_collection_boxes", "addr:city": "HICKSVILLE", "addr:country": "US", "addr:postcode": "11801", "addr:state": "NY", "addr:street_address": "89 BROADWAY", "amenity": "post_box", "brand": "United States Postal Service", "brand:wikidata": "Q668687", "collection_times": "Mo-Fr 17:00; Sa 13:00", "note": "ON 12/24 AND 12/31, THIS BOX MAY BE COLLECTED AS EARLY AS 12 NOON.", "nsi_id": "unitedstatespostalservice-a77078", "operator": "United States Postal Service", "operator:short": "USPS", "operator:type": "public", "operator:wikidata": "Q668687", "ref": "1180100101"}, "type": "Feature"}
{"geometry": {"coordinates": [-73.520358, 40.764891], "type": "Point"}, "id": "jdaaSNXyETHa7LeWGUHHHy7Vi64=", "properties": {"@source_uri": "https://tools.usps.com/UspsToolsRestServices/rest/POLocator/findLocations", "@spider": "usps_collection_boxes", "addr:city": "HICKSVILLE", "addr:country": "US", "addr:postcode": "11801", "addr:state": "NY", "addr:street_address": "183 BROADWAY", "amenity": "post_box", "brand": "United States Postal Service", "brand:wikidata": "Q668687", "collection_times": "Mo-Fr 17:00; Sa 13:00", "note": "ON 12/24 AND 12/31, THIS BOX MAY BE COLLECTED AS EARLY AS 12 NOON.", "nsi_id": "unitedstatespostalservice-a77078", "operator": "United States Postal Service", "operator:short": "USPS", "operator:type": "public", "operator:wikidata": "Q668687", "ref": "1180100103"}, "type": "Feature"}
{"geometry": {"coordinates": [-73.5268848, 40.768477], "type": "Point"}, "id": "piwxH2Ut40UNobyGWy0b5x4ytUo=", "properties": {"@source_uri": "https://tools.usps.com/UspsToolsRestServices/rest/POLocator/findLocations", "@spider": "usps_collection_boxes", "addr:city": "HICKSVILLE", "addr:country": "US", "addr:postcode": "11801", "addr:state": "NY", "addr:street_address": "25 W BARCLAY ST", "amenity": "post_box", "brand": "United States Postal Service", "brand:wikidata": "Q668687", "collection_times": "Mo-Fr 17:00; Sa 13:00", "note": "ON 12/24 AND 12/31, THIS BOX MAY BE COLLECTED AS EARLY AS 12 NOON.", "nsi_id": "unitedstatespostalservice-a77078", "operator": "United States Postal Service", "operator:short": "USPS", "operator:type": "public", "operator:wikidata": "Q668687", "ref": "1180100104"}, "type": "Feature"}
{"geometry": {"coordinates": [-73.5268934, 40.768517], "type": "Point"}, "id": "wCKIIrJk1ZzSWDJLLuWZdkxf22g=", "properties": {"@source_uri": "https://tools.usps.com/UspsToolsRestServices/rest/POLocator/findLocations", "@spider": "usps_collection_boxes", "addr:city": "HICKSVILLE", "addr:country": "US", "addr:postcode": "11801", "addr:state": "NY", "addr:street_address": "25 W BARCLAY ST", "amenity": "post_box", "brand": "United States Postal Service", "brand:wikidata": "Q668687", "collection_times": "Mo-Fr 17:00; Sa 13:00", "note": "ON 12/24 AND 12/31, THIS BOX MAY BE COLLECTED AS EARLY AS 12 NOON.", "nsi_id": "unitedstatespostalservice-a77078", "operator": "United States Postal Service", "operator:short": "USPS", "operator:type": "public", "operator:wikidata": "Q668687", "ref": "1180100105"}, "type": "Feature"}
{"geometry": {"coordinates": [-73.5120931703, 40.7656375509], "type": "Point"}, "id": "xS6RXDe2PkeLfsnllBKCBEjvhc4=", "properties": {"@source_uri": "https://tools.usps.com/UspsToolsRestServices/rest/POLocator/findLocations", "@spider": "usps_collection_boxes", "addr:city": "HICKSVILLE", "addr:country": "US", "addr:postcode": "11801", "addr:state": "NY", "addr:street_address": "175 E OLD COUNTRY RD", "amenity": "post_box", "brand": "United States Postal Service", "brand:wikidata": "Q668687", "collection_times": "Mo-Sa 11:00", "nsi_id": "unitedstatespostalservice-a77078", "operator": "United States Postal Service", "operator:short": "USPS", "operator:type": "public", "operator:wikidata": "Q668687", "ref": "1180100106"}, "type": "Feature"}
{"geometry": {"coordinates": [-73.533074, 40.767713], "type": "Point"}, "id": "H8uvabw8wYxqGJAPsCdIuSo9-Hs=", "properties": {"@source_uri": "https://tools.usps.com/UspsToolsRestServices/rest/POLocator/findLocations", "@spider": "usps_collection_boxes", "addr:city": "HICKSVILLE", "addr:country": "US", "addr:postcode": "11801", "addr:state": "NY", "addr:street_address": "185 W JOHN ST", "amenity": "post_box", "brand": "United States Postal Service", "brand:wikidata": "Q668687", "collection_times": "Mo-Sa 17:00", "name": "USPS COLLECTION BOX - APC", "note": "ON 12/24 AND 12/31, THIS BOX MAY BE COLLECTED AS EARLY AS 12 NOON.", "nsi_id": "unitedstatespostalservice-a77078", "operator": "United States Postal Service", "operator:short": "USPS", "operator:type": "public", "operator:wikidata": "Q668687", "ref": "1180100130"}, "type": "Feature"}
{"geometry": {"coordinates": [-73.533074, 40.767713], "type": "Point"}, "id": "vye0deBSPHNFaTG-BGyVoTCaH4Q=", "properties": {"@source_uri": "https://tools.usps.com/UspsToolsRestServices/rest/POLocator/findLocations", "@spider": "usps_collection_boxes", "addr:city": "HICKSVILLE", "addr:country": "US", "addr:postcode": "11801", "addr:state": "NY", "addr:street_address": "185 W JOHN ST", "amenity": "post_box", "brand": "United States Postal Service", "brand:wikidata": "Q668687", "collection_times": "Mo-Sa 17:00", "indoor": "yes", "note": "ON 12/24 AND 12/31, THIS BOX MAY BE COLLECTED AS EARLY AS 12 NOON.", "nsi_id": "unitedstatespostalservice-a77078", "operator": "United States Postal Service", "operator:short": "USPS", "operator:type": "public", "operator:wikidata": "Q668687", "ref": "1180100133"}, "type": "Feature"}
{"geometry": {"coordinates": [-73.533074, 40.767713], "type": "Point"}, "id": "xsodQ2346f9kk7ETkbeZ9SBiXZ8=", "properties": {"@source_uri": "https://tools.usps.com/UspsToolsRestServices/rest/POLocator/findLocations", "@spider": "usps_collection_boxes", "addr:city": "HICKSVILLE", "addr:country": "US", "addr:postcode": "11801", "addr:state": "NY", "addr:street_address": "185 W JOHN ST", "amenity": "post_box", "brand": "United States Postal Service", "brand:wikidata": "Q668687", "collection_times": "Mo-Sa 17:00", "name": "USPS COLLECTION BOX - APC", "note": "ON 12/24 AND 12/31, THIS BOX MAY BE COLLECTED AS EARLY AS 12 NOON.", "nsi_id": "unitedstatespostalservice-a77078", "operator": "United States Postal Service", "operator:short": "USPS", "operator:type": "public", "operator:wikidata": "Q668687", "ref": "1180100134"}, "type": "Feature"}
{"geometry": {"coordinates": [-73.533075046, 40.767713001], "type": "Point"}, "id": "q1OkdRF3gmixIDwDE2GAaszMppk=", "properties": {"@source_uri": "https://tools.usps.com/UspsToolsRestServices/rest/POLocator/findLocations", "@spider": "usps_collection_boxes", "addr:city": "HICKSVILLE", "addr:country": "US", "addr:postcode": "11801", "addr:state": "NY", "addr:street_address": "185 W JOHN ST", "amenity": "post_box", "brand": "United States Postal Service", "brand:wikidata": "Q668687", "collection_times": "Mo-Fr 19:00; Sa 15:00", "indoor": "yes", "note": "ON 12/24 AND 12/31, THIS BOX MAY BE COLLECTED AS EARLY AS 12 NOON.", "nsi_id": "unitedstatespostalservice-a77078", "operator": "United States Postal Service", "operator:short": "USPS", "operator:type": "public", "operator:wikidata": "Q668687", "ref": "1180100139"}, "type": "Feature"}
{"geometry": {"coordinates": [-73.4882277, 40.771031], "type": "Point"}, "id": "5xdiwrHQVoxKoPsyg2BRQ-TaDs8=", "properties": {"@source_uri": "https://tools.usps.com/UspsToolsRestServices/rest/POLocator/findLocations", "@spider": "usps_collection_boxes", "addr:city": "PLAINVIEW", "addr:country": "US", "addr:postcode": "11803", "addr:state": "NY", "addr:street_address": "80 BARNUM AVE", "amenity": "post_box", "brand": "United States Postal Service", "brand:wikidata": "Q668687", "collection_times": "Mo-Sa 13:00", "note": "ON 12/24 AND 12/31, THIS BOX MAY BE COLLECTED AS EARLY AS 12 NOON.", "nsi_id": "unitedstatespostalservice-a77078", "operator": "United States Postal Service", "operator:short": "USPS", "operator:type": "public", "operator:wikidata": "Q668687", "ref": "1180300001"}, "type": "Feature"}
{"geometry": {"coordinates": [-73.4812431, 40.791787], "type": "Point"}, "id": "UM8ajzjqBUwLCY_3Pl2bZdW_fIY=", "properties": {"@source_uri": "https://tools.usps.com/UspsToolsRestServices/rest/POLocator/findLocations", "@spider": "usps_collection_boxes", "addr:city": "PLAINVIEW", "addr:country": "US", "addr:postcode": "11803", "addr:state": "NY", "addr:street_address": "241 CENTRAL PARK RD", "amenity": "post_box", "brand": "United States Postal Service", "brand:wikidata": "Q668687", "collection_times": "Mo-Sa 13:00", "note": "ON 12/24 AND 12/31, THIS BOX MAY BE COLLECTED AS EARLY AS 12 NOON.", "nsi_id": "unitedstatespostalservice-a77078", "operator": "United States Postal Service", "operator:short": "USPS", "operator:type": "public", "operator:wikidata": "Q668687", "ref": "1180300002"}, "type": "Feature"}
{"geometry": {"coordinates": [-73.4796386, 40.778509], "type": "Point"}, "id": "XCgAkp3jj32BAB9bpgFjDswvT4s=", "properties": {"@source_uri": "https://tools.usps.com/UspsToolsRestServices/rest/POLocator/findLocations", "@spider": "usps_collection_boxes", "addr:city": "PLAINVIEW", "addr:country": "US", "addr:postcode": "11803", "addr:state": "NY", "addr:street_address": "109 CENTRAL PARK RD", "amenity": "post_box", "brand": "United States Postal Service", "brand:wikidata": "Q668687", "collection_times": "Mo-Sa 13:00", "note": "ON 12/24 AND 12/31, THIS BOX MAY BE COLLECTED AS EARLY AS 12 NOON.", "nsi_id": "unitedstatespostalservice-a77078", "operator": "United States Postal Service", "operator:short": "USPS", "operator:type": "public", "operator:wikidata": "Q668687", "ref": "1180300003"}, "type": "Feature"}
{"geometry": {"coordinates": [-73.4656728, 40.789431], "type": "Point"}, "id": "qR1mkWd9UcpSwDM_kluIkD-c3u0=", "properties": {"@source_uri": "https://tools.usps.com/UspsToolsRestServices/rest/POLocator/findLocations", "@spider": "usps_collection_boxes", "addr:city": "PLAINVIEW", "addr:country": "US", "addr:postcode": "11803", "addr:state": "NY", "addr:street_address": "20 S TERMINAL DR", "amenity": "post_box", "brand": "United States Postal Service", "brand:wikidata": "Q668687", "collection_times": "Mo-Fr 17:00; Sa 13:00", "note": "ON 12/24 AND 12/31, THIS BOX MAY BE COLLECTED AS EARLY AS 12 NOON.", "nsi_id": "unitedstatespostalservice-a77078", "operator": "United States Postal Service", "operator:short": "USPS", "operator:type": "public", "operator:wikidata": "Q668687", "ref": "1180300004"}, "type": "Feature"}
{"geometry": {"coordinates": [-73.4637044, 40.787795], "type": "Point"}, "id": "IX3SLAGvmEtQ289OkgaGgMdHtJo=", "properties": {"@source_uri": "https://tools.usps.com/UspsToolsRestServices/rest/POLocator/findLocations", "@spider": "usps_collection_boxes", "addr:city": "PLAINVIEW", "addr:country": "US", "addr:postcode": "11803", "addr:state": "NY", "addr:street_address": "120 EXPRESS ST", "amenity": "post_box", "brand": "United States Postal Service", "brand:wikidata": "Q668687", "collection_times": "Mo-Fr 17:00; Sa 13:00", "note": "ON 12/24 AND 12/31, THIS BOX MAY BE COLLECTED AS EARLY AS 12 NOON.", "nsi_id": "unitedstatespostalservice-a77078", "operator": "United States Postal Service", "operator:short": "USPS", "operator:type": "public", "operator:wikidata": "Q668687", "ref": "1180300007"}, "type": "Feature"}
{"geometry": {"coordinates": [-73.4647961862, 40.792848268], "type": "Point"}, "id": "nnm8bukQmNszEhdPVSZVa4xvtNE=", "properties": {"@source_uri": "https://tools.usps.com/UspsToolsRestServices/rest/POLocator/findLocations", "@spider": "usps_collection_boxes", "addr:city": "PLAINVIEW", "addr:country": "US", "addr:postcode": "11803", "addr:state": "NY", "addr:street_address": "255 EXECUTIVE DR", "amenity": "post_box", "brand": "United States Postal Service", "brand:wikidata": "Q668687", "collection_times": "Mo-Fr 17:00; Sa 13:00", "note": "ON 12/24 AND 12/31, THIS BOX MAY BE COLLECTED AS EARLY AS 12 NOON.", "nsi_id": "unitedstatespostalservice-a77078", "operator": "United States Postal Service", "operator:short": "USPS", "operator:type": "public", "operator:wikidata": "Q668687", "ref": "1180300010"}, "type": "Feature"}
{"geometry": {"coordinates": [-73.4662716, 40.797173], "type": "Point"}, "id": "IbqA7Oz36Kfh7xq0RL9bkamM2vM=", "properties": {"@source_uri": "https://tools.usps.com/UspsToolsRestServices/rest/POLocator/findLocations", "@spider": "usps_collection_boxes", "addr:city": "PLAINVIEW", "addr:country": "US", "addr:postcode": "11803", "addr:state": "NY", "addr:street_address": "2 DUPONT ST", "amenity": "post_box", "brand": "United States Postal Service", "brand:wikidata": "Q668687", "collection_times": "Mo-Fr 17:00; Sa 13:00", "note": "ON 12/24 AND 12/31, THIS BOX MAY BE COLLECTED AS EARLY AS 12 NOON.", "nsi_id": "unitedstatespostalservice-a77078", "operator": "United States Postal Service", "operator:short": "USPS", "operator:type": "public", "operator:wikidata": "Q668687", "ref": "1180300013"}, "type": "Feature"}
{"geometry": {"coordinates": [-73.4659104, 40.797407], "type": "Point"}, "id": "lONEx3UitB9NU8essbA79iJ_hf0=", "properties": {"@source_uri": "https://tools.usps.com/UspsToolsRestServices/rest/POLocator/findLocations", "@spider": "usps_collection_boxes", "addr:city": "PLAINVIEW", "addr:country": "US", "addr:postcode": "11803", "addr:state": "NY", "addr:street_address": "1 DUPONT ST", "amenity": "post_box", "brand": "United States Postal Service", "brand:wikidata": "Q668687", "collection_times": "Mo-Fr 17:00; Sa 13:00", "note": "ON 12/24 AND 12/31, THIS BOX MAY BE COLLECTED AS EARLY AS 12 NOON.", "nsi_id": "unitedstatespostalservice-a77078", "operator": "United States Postal Service", "operator:short": "USPS", "operator:type": "public", "operator:wikidata": "Q668687", "ref": "1180300015"}, "type": "Feature"}
{"geometry": {"coordinates": [-73.4641646, 40.795954], "type": "Point"}, "id": "O9OULlJcok0M0X04d2WKUtAZ5c8=", "properties": {"@source_uri": "https://tools.usps.com/UspsToolsRestServices/rest/POLocator/findLocations", "@spider": "usps_collection_boxes", "addr:city": "PLAINVIEW", "addr:country": "US", "addr:postcode": "11803", "addr:state": "NY", "addr:street_address": "101 FAIRCHILD AVE", "amenity": "post_box", "brand": "United States Postal Service", "brand:wikidata": "Q668687", "collection_times": "Mo-Fr 17:00; Sa 13:00", "note": "ON 12/24 AND 12/31, THIS BOX MAY BE COLLECTED AS EARLY AS 12 NOON.", "nsi_id": "unitedstatespostalservice-a77078", "operator": "United States Postal Service", "operator:short": "USPS", "operator:type": "public", "operator:wikidata": "Q668687", "ref": "1180300017"}, "type": "Feature"}
{"geometry": {"coordinates": [-73.4807177, 40.777598], "type": "Point"}, "id": "Gqy2ILiCLGlEy5JiK5Id2p6z0GU=", "properties": {"@source_uri": "https://tools.usps.com/UspsToolsRestServices/rest/POLocator/findLocations", "@spider": "usps_collection_boxes", "addr:city": "PLAINVIEW", "addr:country": "US", "addr:postcode": "11803", "addr:state": "NY", "addr:street_address": "32 GARNET LN", "amenity": "post_box", "brand": "United States Postal Service", "brand:wikidata": "Q668687", "collection_times": "Mo-Sa 13:00", "note": "ON 12/24 AND 12/31, THIS BOX MAY BE COLLECTED AS EARLY AS 12 NOON.", "nsi_id": "unitedstatespostalservice-a77078", "operator": "United States Postal Service", "operator:short": "USPS", "operator:type": "public", "operator:wikidata": "Q668687", "ref": "1180300021"}, "type": "Feature"}
{"geometry": {"coordinates": [-73.4733693644, 40.7823367327], "type": "Point"}, "id": "Au7PRg-MyEf1a5crMcntC5mNAsc=", "properties": {"@source_uri": "https://tools.usps.com/UspsToolsRestServices/rest/POLocator/findLocations", "@spider": "usps_collection_boxes", "addr:city": "PLAINVIEW", "addr:country": "US", "addr:postcode": "11803", "addr:state": "NY", "addr:street_address": "146 MANETTO HILL RD", "amenity": "post_box", "brand": "United States Postal Service", "brand:wikidata": "Q668687", "collection_times": "Mo-Fr 17:00; Sa 13:00", "note": "ON 12/24 AND 12/31, THIS BOX MAY BE COLLECTED AS EARLY AS 12 NOON.", "nsi_id": "unitedstatespostalservice-a77078", "operator": "United States Postal Service", "operator:short": "USPS", "operator:type": "public", "operator:wikidata": "Q668687", "ref": "1180300022"}, "type": "Feature"}
{"geometry": {"coordinates": [-73.4727833, 40.781105], "type": "Point"}, "id": "hbrYvf3ozm0MKWMnVl9kq8Oe3Zw=", "properties": {"@source_uri": "https://tools.usps.com/UspsToolsRestServices/rest/POLocator/findLocations", "@spider": "usps_collection_boxes", "addr:city": "PLAINVIEW", "addr:country": "US", "addr:postcode": "11803", "addr:state": "NY", "addr:street_address": "100 MANETTO HILL RD", "amenity": "post_box", "brand": "United States Postal Service", "brand:wikidata": "Q668687", "collection_times": "Mo-Fr 17:00; Sa 13:00", "note": "ON 12/24 AND 12/31, THIS BOX MAY BE COLLECTED AS EARLY AS 12 NOON.", "nsi_id": "unitedstatespostalservice-a77078", "operator": "United States Postal Service", "operator:short": "USPS", "operator:type": "public", "operator:wikidata": "Q668687", "ref": "1180300023"}, "type": "Feature"}
{"geometry": {"coordinates": [-73.475857, 40.790007], "type": "Point"}, "id": "hSyZI9wfihSYr5B2k7Tr2wM4008=", "properties": {"@source_uri": "https://tools.usps.com/UspsToolsRestServices/rest/POLocator/findLocations", "@spider": "usps_collection_boxes", "addr:city": "PLAINVIEW", "addr:country": "US", "addr:postcode": "11803", "addr:state": "NY", "addr:street_address": "2 MAIN PKWY", "amenity": "post_box", "brand": "United States Postal Service", "brand:wikidata": "Q668687", "collection_times": "Mo-Sa 13:00", "note": "ON 12/24 AND 12/31, THIS BOX MAY BE COLLECTED AS EARLY AS 12 NOON.", "nsi_id": "unitedstatespostalservice-a77078", "operator": "United States Postal Service", "operator:short": "USPS", "operator:type": "public", "operator:wikidata": "Q668687", "ref": "1180300025"}, "type": "Feature"}
{"geometry": {"coordinates": [-73.471725, 40.77726], "type": "Point"}, "id": "PnFLg2EE4dACDKGaK4Qv5HYBcLI=", "properties": {"@source_uri": "https://tools.usps.com/UspsToolsRestServices/rest/POLocator/findLocations", "@spider": "usps_collection_boxes", "addr:city": "PLAINVIEW", "addr:country": "US", "addr:postcode": "11803", "addr:state": "NY", "addr:street_address": "120 NEWTOWN RD", "amenity": "post_box", "brand": "United States Postal Service", "brand:wikidata": "Q668687", "collection_times": "Mo-Fr 17:00; Sa 13:00", "note": "ON 12/24 AND 12/31, THIS BOX MAY BE COLLECTED AS EARLY AS 12 NOON.", "nsi_id": "unitedstatespostalservice-a77078", "operator": "United States Postal Service", "operator:short": "USPS", "operator:type": "public", "operator:wikidata": "Q668687", "ref": "1180300026"}, "type": "Feature"}
{"geometry": {"coordinates": [-73.4875127, 40.773082], "type": "Point"}, "id": "uxlvifsofoD-ZvAucb0-NPwm_Kg=", "properties": {"@source_uri": "https://tools.usps.com/UspsToolsRestServices/rest/POLocator/findLocations", "@spider": "usps_collection_boxes", "addr:city": "PLAINVIEW", "addr:country": "US", "addr:postcode": "11803", "addr:state": "NY", "addr:street_address": "700 OLD COUNTRY RD", "amenity": "post_box", "brand": "United States Postal Service", "brand:wikidata": "Q668687", "collection_times": "Mo-Fr 17:00; Sa 13:00", "note": "ON 12/24 AND 12/31, THIS BOX MAY BE COLLECTED AS EARLY AS 12 NOON.", "nsi_id": "unitedstatespostalservice-a77078", "operator": "United States Postal Service", "operator:short": "USPS", "operator:type": "public", "operator:wikidata": "Q668687", "ref": "1180300030"}, "type": "Feature"}
{"geometry": {"coordinates": [-73.4857347, 40.772776], "type": "Point"}, "id": "_DwbFElHih4IzWE95-5ohrKL7OI=", "properties": {"@source_uri": "https://tools.usps.com/UspsToolsRestServices/rest/POLocator/findLocations", "@spider": "usps_collection_boxes", "addr:city": "PLAINVIEW", "addr:country": "US", "addr:postcode": "11803", "addr:state": "NY", "addr:street_address": "777 OLD COUNTRY RD", "amenity": "post_box", "brand": "United States Postal Service", "brand:wikidata": "Q668687", "collection_times": "Mo-Fr 17:00; Sa 13:00", "note": "ON 12/24 AND 12/31, THIS BOX MAY BE COLLECTED AS EARLY AS 12 NOON.", "nsi_id": "unitedstatespostalservice-a77078", "operator": "United States Postal Service", "operator:short": "USPS", "operator:type": "public", "operator:wikidata": "Q668687", "ref": "1180300032"}, "type": "Feature"}
{"geometry": {"coordinates": [-73.4662809, 40.775414], "type": "Point"}, "id": "DV_L0WrQ2Dmeum7cQfeAMZjndaY=", "properties": {"@source_uri": "https://tools.usps.com/UspsToolsRestServices/rest/POLocator/findLocations", "@spider": "usps_collection_boxes", "addr:city": "PLAINVIEW", "addr:country": "US", "addr:postcode": "11803", "addr:state": "NY", "addr:street_address": "1105 OLD COUNTRY RD", "amenity": "post_box", "brand": "United States Postal Service", "brand:wikidata": "Q668687", "collection_times": "Mo-Fr 17:00; Sa 13:00", "note": "ON 12/24 AND 12/31, THIS BOX MAY BE COLLECTED AS EARLY AS 12 NOON.", "nsi_id": "unitedstatespostalservice-a77078", "operator": "United States Postal Service", "operator:short": "USPS", "operator:type": "public", "operator:wikidata": "Q668687", "ref": "1180300035"}, "type": "Feature"}
{"geometry": {"coordinates": [-73.4731955237, 40.7749249929], "type": "Point"}, "id": "tV6EMMgAGMvX7eMm6hwc-XPftsc=", "properties": {"@source_uri": "https://tools.usps.com/UspsToolsRestServices/rest/POLocator/findLocations", "@spider": "usps_collection_boxes", "addr:city": "PLAINVIEW", "addr:country": "US", "addr:postcode": "11803", "addr:state": "NY", "addr:street_address": "999 OLD COUNTRY RD", "amenity": "post_box", "brand": "United States Postal Service", "brand:wikidata": "Q668687", "collection_times": "Mo-Fr 17:00; Sa 13:00", "note": "ON 12/24 AND 12/31, THIS BOX MAY BE COLLECTED AS EARLY AS 12 NOON.", "nsi_id": "unitedstatespostalservice-a77078", "operator": "United States Postal Service", "operator:short": "USPS", "operator:type": "public", "operator:wikidata": "Q668687", "ref": "1180300038"}, "type": "Feature"}
{"geometry": {"coordinates": [-73.4555152, 40.780128], "type": "Point"}, "id": "rW6jFUvpI0Kg0SKVOgl2VlnCf-Q=", "properties": {"@source_uri": "https://tools.usps.com/UspsToolsRestServices/rest/POLocator/findLocations", "@spider": "usps_collection_boxes", "addr:city": "PLAINVIEW", "addr:country": "US", "addr:postcode": "11803", "addr:state": "NY", "addr:street_address": "15 E BETHPAGE RD", "amenity": "post_box", "brand": "United States Postal Service", "brand:wikidata": "Q668687", "collection_times": "Mo-Fr 17:00; Sa 13:00", "note": "ON 12/24 AND 12/31, THIS BOX MAY BE COLLECTED AS EARLY AS 12 NOON.", "nsi_id": "unitedstatespostalservice-a77078", "operator": "United States Postal Service", "operator:short": "USPS", "operator:type": "public", "operator:wikidata": "Q668687", "ref": "1180300039"}, "type": "Feature"}
{"geometry": {"coordinates": [-73.489216521, 40.772174132], "type": "Point"}, "id": "0QOt0zePB2_JRnEtgjfR2FyTOSw=", "properties": {"@source_uri": "https://tools.usps.com/UspsToolsRestServices/rest/POLocator/findLocations", "@spider": "usps_collection_boxes", "addr:city": "PLAINVIEW", "addr:country": "US", "addr:postcode": "11803", "addr:state": "NY", "addr:street_address": "654 OLD COUNTRY RD", "amenity": "post_box", "brand": "United States Postal Service", "brand:wikidata": "Q668687", "collection_times": "Mo-Sa 13:00", "note": "ON 12/24 AND 12/31, THIS BOX MAY BE COLLECTED AS EARLY AS 12 NOON.", "nsi_id": "unitedstatespostalservice-a77078", "operator": "United States Postal Service", "operator:short": "USPS", "operator:type": "public", "operator:wikidata": "Q668687", "ref": "1180300041"}, "type": "Feature"}
{"geometry": {"coordinates": [-73.4989386953, 40.7704176664], "type": "Point"}, "id": "pIt34OLt7rdMy7fXk_PY4oSY4l8=", "properties": {"@source_uri": "https://tools.usps.com/UspsToolsRestServices/rest/POLocator/findLocations", "@spider": "usps_collection_boxes", "addr:city": "PLAINVIEW", "addr:country": "US", "addr:postcode": "11803", "addr:state": "NY", "addr:street_address": "528 OLD COUNTRY RD", "amenity": "post_box", "brand": "United States Postal Service", "brand:wikidata": "Q668687", "collection_times": "Mo-Sa 13:00", "note": "ON 12/24 AND 12/31, THIS BOX MAY BE COLLECTED AS EARLY AS 12 NOON.", "nsi_id": "unitedstatespostalservice-a77078", "operator": "United States Postal Service", "operator:short": "USPS", "operator:type": "public", "operator:wikidata": "Q668687", "ref": "1180300044"}, "type": "Feature"}
{"geometry": {"coordinates": [-73.5011613246, 40.7858839123], "type": "Point"}, "id": "WxDYBMD3rqL0gmO7bt8M8H7HBrk=", "properties": {"@source_uri": "https://tools.usps.com/UspsToolsRestServices/rest/POLocator/findLocations", "@spider": "usps_collection_boxes", "addr:city": "PLAINVIEW", "addr:country": "US", "addr:postcode": "11803", "addr:state": "NY", "addr:street_address": "444 WOODBURY RD", "amenity": "post_box", "brand": "United States Postal Service", "brand:wikidata": "Q668687", "collection_times": "Mo-Fr 17:00; Sa 13:00", "note": "ON 12/24 AND 12/31, THIS BOX MAY BE COLLECTED AS EARLY AS 12 NOON.", "nsi_id": "unitedstatespostalservice-a77078", "operator": "United States Postal Service", "operator:short": "USPS", "operator:type": "public", "operator:wikidata": "Q668687", "ref": "1180300047"}, "type": "Feature"}
{"geometry": {"coordinates": [-73.5019576, 40.775771], "type": "Point"}, "id": "H-Yhqk6Uzgswq7rArANi2HJnIIo=", "properties": {"@source_uri": "https://tools.usps.com/UspsToolsRestServices/rest/POLocator/findLocations", "@spider": "usps_collection_boxes", "addr:city": "PLAINVIEW", "addr:country": "US", "addr:postcode": "11803", "addr:state": "NY", "addr:street_address": "2 NASSAU AVE", "amenity": "post_box", "brand": "United States Postal Service", "brand:wikidata": "Q668687", "collection_times": "Mo-Sa 13:00", "note": "ON 12/24 AND 12/31, THIS BOX MAY BE COLLECTED AS EARLY AS 12 NOON.", "nsi_id": "unitedstatespostalservice-a77078", "operator": "United States Postal Service", "operator:short": "USPS", "operator:type": "public", "operator:wikidata": "Q668687", "ref": "1180300048"}, "type": "Feature"}
{"geometry": {"coordinates": [-73.5016976, 40.781157], "type": "Point"}, "id": "rkIqX443fwa50PWtqaOozqhQnxk=", "properties": {"@source_uri": "https://tools.usps.com/UspsToolsRestServices/rest/POLocator/findLocations", "@spider": "usps_collection_boxes", "addr:city": "PLAINVIEW", "addr:country": "US", "addr:postcode": "11803", "addr:state": "NY", "addr:street_address": "445 S OYSTER BAY RD", "amenity": "post_box", "brand": "United States Postal Service", "brand:wikidata": "Q668687", "collection_times": "Mo-Fr 17:00; Sa 13:00", "note": "ON 12/24 AND 12/31, THIS BOX MAY BE COLLECTED AS EARLY AS 12 NOON.", "nsi_id": "unitedstatespostalservice-a77078", "operator": "United States Postal Service", "operator:short": "USPS", "operator:type": "public", "operator:wikidata": "Q668687", "ref": "1180300049"}, "type": "Feature"}
{"geometry": {"coordinates": [-73.4893932276, 40.7807753047], "type": "Point"}, "id": "53ZQ4tiFPFjFZzuTNY_VL4QRJhM=", "properties": {"@source_uri": "https://tools.usps.com/UspsToolsRestServices/rest/POLocator/findLocations", "@spider": "usps_collection_boxes", "addr:city": "PLAINVIEW", "addr:country": "US", "addr:postcode": "11803", "addr:state": "NY", "addr:street_address": "88 PASADENA DR", "amenity": "post_box", "brand": "United States Postal Service", "brand:wikidata": "Q668687", "collection_times": "Mo-Sa 13:00", "note": "ON 12/24 AND 12/31, THIS BOX MAY BE COLLECTED AS EARLY AS 12 NOON.", "nsi_id": "unitedstatespostalservice-a77078", "operator": "United States Postal Service", "operator:short": "USPS", "operator:type": "public", "operator:wikidata": "Q668687", "ref": "1180300051"}, "type": "Feature"}
{"geometry": {"coordinates": [-73.4669099, 40.791213], "type": "Point"}, "id": "RPrrfnS0ETjML8wxbzbi1hTmnck=", "properties": {"@source_uri": "https://tools.usps.com/UspsToolsRestServices/rest/POLocator/findLocations", "@spider": "usps_collection_boxes", "addr:city": "PLAINVIEW", "addr:country": "US", "addr:postcode": "11803", "addr:state": "NY", "addr:street_address": "100 TERMINAL DR", "amenity": "post_box", "brand": "United States Postal Service", "brand:wikidata": "Q668687", "collection_times": "Mo-Fr 17:00; Sa 13:00", "note": "ON 12/24 AND 12/31, THIS BOX MAY BE COLLECTED AS EARLY AS 12 NOON.", "nsi_id": "unitedstatespostalservice-a77078", "operator": "United States Postal Service", "operator:short": "USPS", "operator:type": "public", "operator:wikidata": "Q668687", "ref": "1180300054"}, "type": "Feature"}
{"geometry": {"coordinates": [-73.4709359, 40.794016], "type": "Point"}, "id": "8xe4ic5_EmfIk_7Vy62TLsBT-L0=", "properties": {"@source_uri": "https://tools.usps.com/UspsToolsRestServices/rest/POLocator/findLocations", "@spider": "usps_collection_boxes", "addr:city": "PLAINVIEW", "addr:country": "US", "addr:postcode": "11803", "addr:state": "NY", "addr:street_address": "88 SUNNYSIDE BLVD", "amenity": "post_box", "brand": "United States Postal Service", "brand:wikidata": "Q668687", "collection_times": "Mo-Fr 17:00; Sa 13:00", "note": "ON 12/24 AND 12/31, THIS BOX MAY BE COLLECTED AS EARLY AS 12 NOON.", "nsi_id": "unitedstatespostalservice-a77078", "operator": "United States Postal Service", "operator:short": "USPS", "operator:type": "public", "operator:wikidata": "Q668687", "ref": "1180300059"}, "type": "Feature"}
{"geometry": {"coordinates": [-73.4939704, 40.790421], "type": "Point"}, "id": "oyZz4OsK2fugdozAPSQOTAsuqPo=", "properties": {"@source_uri": "https://tools.usps.com/UspsToolsRestServices/rest/POLocator/findLocations", "@spider": "usps_collection_boxes", "addr:city": "PLAINVIEW", "addr:country": "US", "addr:postcode": "11803", "addr:state": "NY", "addr:street_address": "557 WOODBURY RD", "amenity": "post_box", "brand": "United States Postal Service", "brand:wikidata": "Q668687", "collection_times": "Mo-Sa 13:00", "note": "ON 12/24 AND 12/31, THIS BOX MAY BE COLLECTED AS EARLY AS 12 NOON.", "nsi_id": "unitedstatespostalservice-a77078", "operator": "United States Postal Service", "operator:short": "USPS", "operator:type": "public", "operator:wikidata": "Q668687", "ref": "1180300061"}, "type": "Feature"}
{"geometry": {"coordinates": [-73.4626823, 40.774441], "type": "Point"}, "id": "eSg6tXVUKkE4y1a3wv3f_bBgORU=", "properties": {"@source_uri": "https://tools.usps.com/UspsToolsRestServices/rest/POLocator/findLocations", "@spider": "usps_collection_boxes", "addr:city": "PLAINVIEW", "addr:country": "US", "addr:postcode": "11803", "addr:state": "NY", "addr:street_address": "84 SANTA BARBARA DR", "amenity": "post_box", "brand": "United States Postal Service", "brand:wikidata": "Q668687", "collection_times": "Mo-Sa 13:00", "note": "ON 12/24 AND 12/31, THIS BOX MAY BE COLLECTED AS EARLY AS 12 NOON.", "nsi_id": "unitedstatespostalservice-a77078", "operator": "United States Postal Service", "operator:short": "USPS", "operator:type": "public", "operator:wikidata": "Q668687", "ref": "1180300064"}, "type": "Feature"}
{"geometry": {"coordinates": [-73.4478162, 40.781052], "type": "Point"}, "id": "uzIrEISkKJ_LnBiJ_raxWsX989k=", "properties": {"@source_uri": "https://tools.usps.com/UspsToolsRestServices/rest/POLocator/findLocations", "@spider": "usps_collection_boxes", "addr:city": "PLAINVIEW", "addr:country": "US", "addr:postcode": "11803", "addr:state": "NY", "addr:street_address": "1662 OLD COUNTRY RD", "amenity": "post_box", "brand": "United States Postal Service", "brand:wikidata": "Q668687", "collection_times": "Mo-Fr 17:00; Sa 13:00", "note": "ON 12/24 AND 12/31, THIS BOX MAY BE COLLECTED AS EARLY AS 12 NOON.", "nsi_id": "unitedstatespostalservice-a77078", "operator": "United States Postal Service", "operator:short": "USPS", "operator:type": "public", "operator:wikidata": "Q668687", "ref": "1180300069"}, "type": "Feature"}
{"geometry": {"coordinates": [-73.4741833, 40.775527], "type": "Point"}, "id": "Hbvsv8qrUQEzYtk9plQM9gfpn5Y=", "properties": {"@source_uri": "https://tools.usps.com/UspsToolsRestServices/rest/POLocator/findLocations", "@spider": "usps_collection_boxes", "addr:city": "PLAINVIEW", "addr:country": "US", "addr:postcode": "11803", "addr:state": "NY", "addr:street_address": "998 OLD COUNTRY RD", "amenity": "post_box", "brand": "United States Postal Service", "brand:wikidata": "Q668687", "collection_times": "Mo-Fr 17:00; Sa 13:00", "note": "ON 12/24 AND 12/31, THIS BOX MAY BE COLLECTED AS EARLY AS 12 NOON.", "nsi_id": "unitedstatespostalservice-a77078", "operator": "United States Postal Service", "operator:short": "USPS", "operator:type": "public", "operator:wikidata": "Q668687", "ref": "1180300074"}, "type": "Feature"}
{"geometry": {"coordinates": [-73.4731322, 40.776228], "type": "Point"}, "id": "8WFiAg_wkKIcaX-PDUiEmExObW4=", "properties": {"@source_uri": "https://tools.usps.com/UspsToolsRestServices/rest/POLocator/findLocations", "@spider": "usps_collection_boxes", "addr:city": "PLAINVIEW", "addr:country": "US", "addr:postcode": "11803", "addr:state": "NY", "addr:street_address": "1028 OLD COUNTRY RD", "amenity": "post_box", "brand": "United States Postal Service", "brand:wikidata": "Q668687", "collection_times": "Mo-Fr 17:00; Sa 13:00", "note": "ON 12/24 AND 12/31, THIS BOX MAY BE COLLECTED AS EARLY AS 12 NOON.", "nsi_id": "unitedstatespostalservice-a77078", "operator": "United States Postal Service", "operator:short": "USPS", "operator:type": "public", "operator:wikidata": "Q668687", "ref": "1180300076"}, "type": "Feature"}
{"geometry": {"coordinates": [-73.4800952, 40.765275], "type": "Point"}, "id": "MkEULqXU94j4-ED1woIP-hE-DTU=", "properties": {"@source_uri": "https://tools.usps.com/UspsToolsRestServices/rest/POLocator/findLocations", "@spider": "usps_collection_boxes", "addr:city": "PLAINVIEW", "addr:country": "US", "addr:postcode": "11803", "addr:state": "NY", "addr:street_address": "105 GROHMANS LN", "amenity": "post_box", "brand": "United States Postal Service", "brand:wikidata": "Q668687", "collection_times": "Mo-Sa 13:00", "note": "ON 12/24 AND 12/31, THIS BOX MAY BE COLLECTED AS EARLY AS 12 NOON.", "nsi_id": "unitedstatespostalservice-a77078", "operator": "United States Postal Service", "operator:short": "USPS", "operator:type": "public", "operator:wikidata": "Q668687", "ref": "1180300087"}, "type": "Feature"}
{"geometry": {"coordinates": [-73.447803, 40.781012], "type": "Point"}, "id": "fZnh8m-cJw3VZzrMX0ptikYb7-A=", "properties": {"@source_uri": "https://tools.usps.com/UspsToolsRestServices/rest/POLocator/findLocations", "@spider": "usps_collection_boxes", "addr:city": "PLAINVIEW", "addr:country": "US", "addr:postcode": "11803", "addr:state": "NY", "addr:street_address": "1662 OLD COUNTRY RD", "amenity": "post_box", "brand": "United States Postal Service", "brand:wikidata": "Q668687", "collection_times": "Mo-Fr 17:00; Sa 13:00", "name": "USPS COLLECTION BOX - APC", "note": "ON 12/24 AND 12/31, THIS BOX MAY BE COLLECTED AS EARLY AS 12 NOON.", "nsi_id": "unitedstatespostalservice-a77078", "operator": "United States Postal Service", "operator:short": "USPS", "operator:type": "public", "operator:wikidata": "Q668687", "ref": "1180300100"}, "type": "Feature"}
{"geometry": {"coordinates": [-73.4930156, 40.76759], "type": "Point"}, "id": "P27zOl70oZweDUsHM1VGXPa_S9k=", "properties": {"@source_uri": "https://tools.usps.com/UspsToolsRestServices/rest/POLocator/findLocations", "@spider": "usps_collection_boxes", "addr:city": "PLAINVIEW", "addr:country": "US", "addr:postcode": "11803", "addr:state": "NY", "addr:street_address": "205 FLORAL AVE", "amenity": "post_box", "brand": "United States Postal Service", "brand:wikidata": "Q668687", "collection_times": "Mo-Sa 13:00", "note": "ON 12/24 AND 12/31, THIS BOX MAY BE COLLECTED AS EARLY AS 12 NOON.", "nsi_id": "unitedstatespostalservice-a77078", "operator": "United States Postal Service", "operator:short": "USPS", "operator:type": "public", "operator:wikidata": "Q668687", "ref": "1180300101"}, "type": "Feature"}
{"geometry": {"coordinates": [-73.4478581, 40.78116], "type": "Point"}, "id": "sTvwsAw06ZpU3fKc4Qhpdeqha-o=", "properties": {"@source_uri": "https://tools.usps.com/UspsToolsRestServices/rest/POLocator/findLocations", "@spider": "usps_collection_boxes", "addr:city": "PLAINVIEW", "addr:country": "US", "addr:postcode": "11803", "addr:state": "NY", "addr:street_address": "1662 OLD COUNTRY RD", "amenity": "post_box", "brand": "United States Postal Service", "brand:wikidata": "Q668687", "collection_times": "Mo-Fr 17:30; Sa 16:30", "indoor": "yes", "note": "ON 12/24 AND 12/31, THIS BOX MAY BE COLLECTED AS EARLY AS 12 NOON.", "nsi_id": "unitedstatespostalservice-a77078", "operator": "United States Postal Service", "operator:short": "USPS", "operator:type": "public", "operator:wikidata": "Q668687", "ref": "1180300103"}, "type": "Feature"}
{"geometry": {"coordinates": [-73.448057063, 40.780824001], "type": "Point"}, "id": "uYRD99Jof1DxcHu9rN-Ydnbsax8=", "properties": {"@source_uri": "https://tools.usps.com/UspsToolsRestServices/rest/POLocator/findLocations", "@spider": "usps_collection_boxes", "addr:city": "PLAINVIEW", "addr:country": "US", "addr:postcode": "11803", "addr:state": "NY", "addr:street_address": "1662 OLD COUNTRY RD", "amenity": "post_box", "brand": "United States Postal Service", "brand:wikidata": "Q668687", "collection_times": "Mo-Fr 17:00; Sa 13:00", "indoor": "yes", "note": "ON 12/24 AND 12/31, THIS BOX MAY BE COLLECTED AS EARLY AS 12 NOON.", "nsi_id": "unitedstatespostalservice-a77078", "operator": "United States Postal Service", "operator:short": "USPS", "operator:type": "public", "operator:wikidata": "Q668687", "ref": "1180300109"}, "type": "Feature"}
{"geometry": {"coordinates": [-73.4479252327, 40.7808717669], "type": "Point"}, "id": "MvwgrKer8NLF2O8agWM2M229ycI=", "properties": {"@source_uri": "https://tools.usps.com/UspsToolsRestServices/rest/POLocator/findLocations", "@spider": "usps_collection_boxes", "addr:city": "PLAINVIEW", "addr:country": "US", "addr:postcode": "11803", "addr:state": "NY", "addr:street_address": "1662 OLD COUNTRY RD", "amenity": "post_box", "brand": "United States Postal Service", "brand:wikidata": "Q668687", "collection_times": "Mo-Fr 17:30; Sa 16:30", "note": "ON 12/24 AND 12/31, THIS BOX MAY BE COLLECTED AS EARLY AS 12 NOON.", "nsi_id": "unitedstatespostalservice-a77078", "operator": "United States Postal Service", "operator:short": "USPS", "operator:type": "public", "operator:wikidata": "Q668687", "ref": "1180300110"}, "type": "Feature"}
{"geometry": {"coordinates": [-73.4543489821, 40.7652585631], "type": "Point"}, "id": "ft95Fpt3y2jnAQgmbCDYJwoWPHc=", "properties": {"@source_uri": "https://tools.usps.com/UspsToolsRestServices/rest/POLocator/findLocations", "@spider": "usps_collection_boxes", "addr:city": "OLD BETHPAGE", "addr:country": "US", "addr:postcode": "11804", "addr:state": "NY", "addr:street_address": "696 OLD BETHPAGE RD", "amenity": "post_box", "brand": "United States Postal Service", "brand:wikidata": "Q668687", "collection_times": "Mo-Sa 17:00", "note": "ON 12/24 AND 12/31, THIS BOX MAY BE COLLECTED AS EARLY AS 12 NOON.", "nsi_id": "unitedstatespostalservice-a77078", "operator": "United States Postal Service", "operator:short": "USPS", "operator:type": "public", "operator:wikidata": "Q668687", "ref": "1180400010"}, "type": "Feature"}
{"geometry": {"coordinates": [-73.4543489821, 40.7652585631], "type": "Point"}, "id": "O6QygbyKpAESoQvybrKucFK3tmQ=", "properties": {"@source_uri": "https://tools.usps.com/UspsToolsRestServices/rest/POLocator/findLocations", "@spider": "usps_collection_boxes", "addr:city": "OLD BETHPAGE", "addr:country": "US", "addr:postcode": "11804", "addr:state": "NY", "addr:street_address": "696 OLD BETHPAGE RD", "amenity": "post_box", "brand": "United States Postal Service", "brand:wikidata": "Q668687", "collection_times": "Mo-Sa 17:00", "note": "ON 12/24 AND 12/31, THIS BOX MAY BE COLLECTED AS EARLY AS 12 NOON.", "nsi_id": "unitedstatespostalservice-a77078", "operator": "United States Postal Service", "operator:short": "USPS", "operator:type": "public", "operator:wikidata": "Q668687", "ref": "1180400011"}, "type": "Feature"}
{"geometry": {"coordinates": [-73.4552656145, 40.7653281406], "type": "Point"}, "id": "-xQD77u16mN_j0ogJL9sUZ7rx2g=", "properties": {"@source_uri": "https://tools.usps.com/UspsToolsRestServices/rest/POLocator/findLocations", "@spider": "usps_collection_boxes", "addr:city": "OLD BETHPAGE", "addr:country": "US", "addr:postcode": "11804", "addr:state": "NY", "addr:street_address": "696 OLD BETHPAGE RD", "amenity": "post_box", "brand": "United States Postal Service", "brand:wikidata": "Q668687", "collection_times": "Mo-Sa 17:00", "indoor": "yes", "note": "ON 12/24 AND 12/31, THIS BOX MAY BE COLLECTED AS EARLY AS 12 NOON.", "nsi_id": "unitedstatespostalservice-a77078", "operator": "United States Postal Service", "operator:short": "USPS", "operator:type": "public", "operator:wikidata": "Q668687", "ref": "1180400013"}, "type": "Feature"}
{"geometry": {"coordinates": [-73.455270079, 40.765328161], "type": "Point"}, "id": "5HRAhwgLbAH54n45oNB_pX-KmLk=", "properties": {"@source_uri": "https://tools.usps.com/UspsToolsRestServices/rest/POLocator/findLocations", "@spider": "usps_collection_boxes", "addr:city": "OLD BETHPAGE", "addr:country": "US", "addr:postcode": "11804", "addr:state": "NY", "addr:street_address": "696 OLD BETHPAGE RD", "amenity": "post_box", "brand": "United States Postal Service", "brand:wikidata": "Q668687", "collection_times": "Mo-Fr 17:00; Sa 13:00", "indoor": "yes", "note": "ON 12/24 AND 12/31, THIS BOX MAY BE COLLECTED AS EARLY AS 12 NOON.", "nsi_id": "unitedstatespostalservice-a77078", "operator": "United States Postal Service", "operator:short": "USPS", "operator:type": "public", "operator:wikidata": "Q668687", "ref": "1180400014"}, "type": "Feature"}
