{"geometry": {"coordinates": [-72.6495972, 40.929721], "type": "Point"}, "id": "mN6yKArDYQfT3p5vDb7bSgb4n-k=", "properties": {"@spider": "usps_collection_boxes", "addr:city": "RIVERHEAD", "addr:country": "US", "addr:full": "1186 E MAIN ST", "addr:postcode": "11901", "addr:state": "NY", "brand": "USPS", "collection_times": "Mo-Sa 09:00", "name": "USPS COLLECTION BOX - BLUE BOX", "ref": "1190100002"}, "type": "Feature"}
{"geometry": {"coordinates": [-72.6635638, 40.918661], "type": "Point"}, "id": "H7HonIX_rwRox2VGgkOJ7FRQA7M=", "properties": {"@spider": "usps_collection_boxes", "addr:city": "RIVERHEAD", "addr:country": "US", "addr:full": "4 W 2ND ST", "addr:postcode": "11901", "addr:state": "NY", "brand": "USPS", "collection_times": "Mo-Fr 17:00; Sa 13:00", "name": "USPS COLLECTION BOX - BLUE BOX", "note": "ON 12/24 AND 12/31, THIS BOX MAY BE COLLECTED AS EARLY AS 12 NOON.", "ref": "1190100003"}, "type": "Feature"}
{"geometry": {"coordinates": [-72.6635381, 40.918658], "type": "Point"}, "id": "rjp0T3C1Q70DlFK_p9MOAgHQHjo=", "properties": {"@spider": "usps_collection_boxes", "addr:city": "RIVERHEAD", "addr:country": "US", "addr:full": "4 W 2ND ST", "addr:postcode": "11901", "addr:state": "NY", "brand": "USPS", "collection_times": "Mo-Fr 17:00; Sa 13:00", "name": "USPS COLLECTION BOX - BLUE BOX", "note": "ON 12/24 AND 12/31, THIS BOX MAY BE COLLECTED AS EARLY AS 12 NOON.", "ref": "1190100004"}, "type": "Feature"}
{"geometry": {"coordinates": [-72.6635834, 40.918666], "type": "Point"}, "id": "feJY6O6kmTvRGacFH9Xoct4CIzc=", "properties": {"@spider": "usps_collection_boxes", "addr:city": "RIVERHEAD", "addr:country": "US", "addr:full": "4 W 2ND ST", "addr:postcode": "11901", "addr:state": "NY", "brand": "USPS", "collection_times": "Mo-Fr 17:00; Sa 13:00", "name": "USPS COLLECTION BOX - BLUE BOX", "note": "ON 12/24 AND 12/31, THIS BOX MAY BE COLLECTED AS EARLY AS 12 NOON.", "ref": "1190100007"}, "type": "Feature"}
{"geometry": {"coordinates": [-72.6660407885, 40.9191216186], "type": "Point"}, "id": "2j-wSef0DdjgjAV1Q-e9ojGVUZ0=", "properties": {"@spider": "usps_collection_boxes", "addr:city": "RIVERHEAD", "addr:country": "US", "addr:full": "1 COURT ST", "addr:postcode": "11901", "addr:state": "NY", "brand": "USPS", "collection_times": "Mo-Fr 17:00; Sa 13:00", "name": "USPS COLLECTION BOX - BLUE BOX", "note": "ON 12/24 AND 12/31, THIS BOX MAY BE COLLECTED AS EARLY AS 12 NOON.", "ref": "1190100012"}, "type": "Feature"}
{"geometry": {"coordinates": [-72.6583804, 40.918087], "type": "Point"}, "id": "jhRClsM1tYr66oYB7lnGR0tVEag=", "properties": {"@spider": "usps_collection_boxes", "addr:city": "RIVERHEAD", "addr:country": "US", "addr:full": "300 E MAIN ST", "addr:postcode": "11901", "addr:state": "NY", "brand": "USPS", "collection_times": "Mo-Sa 09:00", "name": "USPS COLLECTION BOX - BLUE BOX", "ref": "1190100013"}, "type": "Feature"}
{"geometry": {"coordinates": [-72.6601561, 40.917552], "type": "Point"}, "id": "oiMurHHRkNCo-ICqMliSFhJYhyk=", "properties": {"@spider": "usps_collection_boxes", "addr:city": "RIVERHEAD", "addr:country": "US", "addr:full": "126 E MAIN ST", "addr:postcode": "11901", "addr:state": "NY", "brand": "USPS", "collection_times": "Mo-Sa 09:00", "name": "USPS COLLECTION BOX - BLUE BOX", "ref": "1190100014"}, "type": "Feature"}
{"geometry": {"coordinates": [-72.6672605, 40.914218], "type": "Point"}, "id": "TEzytYiTZHRPKaDnzyQxg55zhEE=", "properties": {"@spider": "usps_collection_boxes", "addr:city": "RIVERHEAD", "addr:country": "US", "addr:full": "320 CENTER DR", "addr:postcode": "11901", "addr:state": "NY", "brand": "USPS", "collection_times": "Mo-Fr 16:30", "name": "USPS COLLECTION BOX - BLUE BOX", "note": "ON 12/24 AND 12/31, THIS BOX MAY BE COLLECTED AS EARLY AS 12 NOON.", "ref": "1190100015"}, "type": "Feature"}
{"geometry": {"coordinates": [-72.6672744, 40.914227], "type": "Point"}, "id": "D5bk5GGgVoM0Vg6Z7q5WtXt2CoY=", "properties": {"@spider": "usps_collection_boxes", "addr:city": "RIVERHEAD", "addr:country": "US", "addr:full": "320 CENTER DR", "addr:postcode": "11901", "addr:state": "NY", "brand": "USPS", "collection_times": "Mo-Fr 16:30", "name": "USPS COLLECTION BOX - BLUE BOX", "note": "ON 12/24 AND 12/31, THIS BOX MAY BE COLLECTED AS EARLY AS 12 NOON.", "ref": "1190100016"}, "type": "Feature"}
{"geometry": {"coordinates": [-72.6684619, 40.913344], "type": "Point"}, "id": "1WTHGN94Ix1lXhlhzbqA799KZRo=", "properties": {"@spider": "usps_collection_boxes", "addr:city": "RIVERHEAD", "addr:country": "US", "addr:full": "300 CENTER DR", "addr:postcode": "11901", "addr:state": "NY", "brand": "USPS", "collection_times": "Mo-Fr 16:30", "name": "USPS COLLECTION BOX - BLUE BOX", "note": "ON 12/24 AND 12/31, THIS BOX MAY BE COLLECTED AS EARLY AS 12 NOON.", "ref": "1190100021"}, "type": "Feature"}
{"geometry": {"coordinates": [-72.6660134, 40.932973], "type": "Point"}, "id": "28m3Xa_vOM-1acskVWtaxHGx6vc=", "properties": {"@spider": "usps_collection_boxes", "addr:city": "RIVERHEAD", "addr:country": "US", "addr:full": "755 ROUTE 58", "addr:postcode": "11901", "addr:state": "NY", "brand": "USPS", "collection_times": "Mo-Fr 09:00", "name": "USPS COLLECTION BOX - BLUE BOX", "ref": "1190100022"}, "type": "Feature"}
{"geometry": {"coordinates": [-72.6558234, 40.919936], "type": "Point"}, "id": "yVk4w8WfgCo1HmWY1OLqYOnqzg0=", "properties": {"@spider": "usps_collection_boxes", "addr:city": "RIVERHEAD", "addr:country": "US", "addr:full": "540 E MAIN ST", "addr:postcode": "11901", "addr:state": "NY", "brand": "USPS", "collection_times": "Mo-Sa 10:00", "name": "USPS COLLECTION BOX - BLUE BOX", "ref": "1190100026"}, "type": "Feature"}
{"geometry": {"coordinates": [-72.674991, 40.934087], "type": "Point"}, "id": "VJqLoljhQkqqduUkX5fPsbMR81U=", "properties": {"@spider": "usps_collection_boxes", "addr:city": "RIVERHEAD", "addr:country": "US", "addr:full": "1300 ROANOKE AVE", "addr:postcode": "11901", "addr:state": "NY", "brand": "USPS", "collection_times": "Mo-Fr 16:30; Sa 13:00", "name": "USPS COLLECTION BOX - BLUE BOX", "note": "ON 12/24 AND 12/31, THIS BOX MAY BE COLLECTED AS EARLY AS 12 NOON.", "ref": "1190100027"}, "type": "Feature"}
{"geometry": {"coordinates": [-72.6536074153, 40.9226962695], "type": "Point"}, "id": "ervsFuZKMez1sakuvTI22zN-rdA=", "properties": {"@spider": "usps_collection_boxes", "addr:city": "RIVERHEAD", "addr:country": "US", "addr:full": "200 HOWELL AVE", "addr:postcode": "11901", "addr:state": "NY", "brand": "USPS", "collection_times": "Mo-Fr 17:00; Sa 13:00", "name": "USPS COLLECTION BOX - BLUE BOX", "note": "ON 12/24 AND 12/31, THIS BOX MAY BE COLLECTED AS EARLY AS 12 NOON.", "ref": "1190100028"}, "type": "Feature"}
{"geometry": {"coordinates": [-72.6674036, 40.921447], "type": "Point"}, "id": "WuL9xuKqf81SET3CQXquJkarkoY=", "properties": {"@spider": "usps_collection_boxes", "addr:city": "RIVERHEAD", "addr:country": "US", "addr:full": "448 GRIFFING AVE", "addr:postcode": "11901", "addr:state": "NY", "brand": "USPS", "collection_times": "Mo-Sa 08:30", "name": "USPS COLLECTION BOX - BLUE BOX", "ref": "1190100029"}, "type": "Feature"}
{"geometry": {"coordinates": [-72.676948, 40.933539], "type": "Point"}, "id": "hB_W53sPHQ71L98jBlHH3NDIbTQ=", "properties": {"@spider": "usps_collection_boxes", "addr:city": "RIVERHEAD", "addr:country": "US", "addr:full": "1096 ROUTE 58", "addr:postcode": "11901", "addr:state": "NY", "brand": "USPS", "collection_times": "Mo-Sa 09:00", "name": "USPS COLLECTION BOX - BLUE BOX", "ref": "1190100033"}, "type": "Feature"}
{"geometry": {"coordinates": [-72.6707577, 40.914836], "type": "Point"}, "id": "bcx0YhEJUJ8OqnH2S9WOaXgJNDk=", "properties": {"@spider": "usps_collection_boxes", "addr:city": "RIVERHEAD", "addr:country": "US", "addr:full": "210 CENTER DR", "addr:postcode": "11901", "addr:state": "NY", "brand": "USPS", "collection_times": "Mo-Fr 16:30", "name": "USPS COLLECTION BOX - BLUE BOX", "note": "ON 12/24 AND 12/31, THIS BOX MAY BE COLLECTED AS EARLY AS 12 NOON.", "ref": "1190100035"}, "type": "Feature"}
{"geometry": {"coordinates": [-72.6526742, 40.922694], "type": "Point"}, "id": "hrYzPjLhW2uaE3zeiiPWeUo1Jb8=", "properties": {"@spider": "usps_collection_boxes", "addr:city": "RIVERHEAD", "addr:country": "US", "addr:full": "808 E MAIN ST", "addr:postcode": "11901", "addr:state": "NY", "brand": "USPS", "collection_times": "Mo-Sa 09:00", "name": "USPS COLLECTION BOX - BLUE BOX", "ref": "1190100036"}, "type": "Feature"}
{"geometry": {"coordinates": [-72.6725673, 40.920496], "type": "Point"}, "id": "YoTJRqeGPDlsJd31-KAIm3n0jw4=", "properties": {"@spider": "usps_collection_boxes", "addr:city": "RIVERHEAD", "addr:country": "US", "addr:full": "535 PULASKI ST", "addr:postcode": "11901", "addr:state": "NY", "brand": "USPS", "collection_times": "Mo-Sa 09:30", "name": "USPS COLLECTION BOX - BLUE BOX", "ref": "1190100037"}, "type": "Feature"}
{"geometry": {"coordinates": [-72.6665295, 40.923303], "type": "Point"}, "id": "NPzaLI_b5JF7lX1hgVl8764iOnQ=", "properties": {"@spider": "usps_collection_boxes", "addr:city": "RIVERHEAD", "addr:country": "US", "addr:full": "633 ROANOKE AVE", "addr:postcode": "11901", "addr:state": "NY", "brand": "USPS", "collection_times": "Mo-Sa 09:00", "name": "USPS COLLECTION BOX - BLUE BOX", "ref": "1190100038"}, "type": "Feature"}
{"geometry": {"coordinates": [-72.6505241, 40.93753], "type": "Point"}, "id": "Kq2kHAbGqxltSOOTkCckavGgxJo=", "properties": {"@spider": "usps_collection_boxes", "addr:city": "RIVERHEAD", "addr:country": "US", "addr:full": "200 ROUTE 58", "addr:postcode": "11901", "addr:state": "NY", "brand": "USPS", "collection_times": "Mo-Fr 16:30; Sa 13:00", "name": "USPS COLLECTION BOX - BLUE BOX", "note": "ON 12/24 AND 12/31, THIS BOX MAY BE COLLECTED AS EARLY AS 12 NOON.", "ref": "1190100039"}, "type": "Feature"}
{"geometry": {"coordinates": [-72.6749904, 40.934092], "type": "Point"}, "id": "lGPSEBaVitlD04_yvX8o-__3UF8=", "properties": {"@spider": "usps_collection_boxes", "addr:city": "RIVERHEAD", "addr:country": "US", "addr:full": "1300 ROANOKE AVE", "addr:postcode": "11901", "addr:state": "NY", "brand": "USPS", "collection_times": "Mo-Fr 16:30; Sa 13:00", "name": "USPS COLLECTION BOX - BLUE BOX", "note": "ON 12/24 AND 12/31, THIS BOX MAY BE COLLECTED AS EARLY AS 12 NOON.", "ref": "1190100041"}, "type": "Feature"}
{"geometry": {"coordinates": [-72.6562494, 40.918915], "type": "Point"}, "id": "ydnjUL6K6ZnBGFiQEZ_9K7dv_LM=", "properties": {"@spider": "usps_collection_boxes", "addr:city": "RIVERHEAD", "addr:country": "US", "addr:full": "506 E MAIN ST", "addr:postcode": "11901", "addr:state": "NY", "brand": "USPS", "collection_times": "Mo-Sa 10:00", "name": "USPS COLLECTION BOX - BLUE BOX", "ref": "1190100043"}, "type": "Feature"}
{"geometry": {"coordinates": [-72.6992713, 40.925002], "type": "Point"}, "id": "Me8WwTpeAiRVK8PcbjIsdfItL_8=", "properties": {"@spider": "usps_collection_boxes", "addr:city": "RIVERHEAD", "addr:country": "US", "addr:full": "1570 OLD COUNTRY RD", "addr:postcode": "11901", "addr:state": "NY", "brand": "USPS", "collection_times": "Mo-Sa 11:00", "name": "USPS COLLECTION BOX - BLUE BOX", "ref": "1190100044"}, "type": "Feature"}
{"geometry": {"coordinates": [-72.7169057, 40.921553], "type": "Point"}, "id": "_DaaIBO3458zEajR5qAhZTk_Hg4=", "properties": {"@spider": "usps_collection_boxes", "addr:city": "RIVERHEAD", "addr:country": "US", "addr:full": "200 TANGER MALL DR", "addr:postcode": "11901", "addr:state": "NY", "brand": "USPS", "collection_times": "Mo-Sa 09:00", "name": "USPS COLLECTION BOX - BLUE BOX", "ref": "1190100046"}, "type": "Feature"}
{"geometry": {"coordinates": [-72.6059712, 40.904005], "type": "Point"}, "id": "csCc5Fp_gYVh6qH_IWuKYoyD4KI=", "properties": {"@spider": "usps_collection_boxes", "addr:city": "RIVERHEAD", "addr:country": "US", "addr:full": "1446 FLANDERS RD", "addr:postcode": "11901", "addr:state": "NY", "brand": "USPS", "collection_times": "Mo-Sa 09:30", "name": "USPS COLLECTION BOX - BLUE BOX", "ref": "1190100049"}, "type": "Feature"}
{"geometry": {"coordinates": [-72.6904388, 40.916872], "type": "Point"}, "id": "t6aFTURiwvZ4qBXbCN9K0VYZQBs=", "properties": {"@spider": "usps_collection_boxes", "addr:city": "RIVERHEAD", "addr:country": "US", "addr:full": "1210 W MAIN ST", "addr:postcode": "11901", "addr:state": "NY", "brand": "USPS", "collection_times": "Mo-Fr 17:00; Sa 13:00", "name": "USPS COLLECTION BOX - BLUE BOX", "note": "ON 12/24 AND 12/31, THIS BOX MAY BE COLLECTED AS EARLY AS 12 NOON.", "ref": "1190100112"}, "type": "Feature"}
{"geometry": {"coordinates": [-72.690454, 40.916871], "type": "Point"}, "id": "tAr-oFGM1zryoDvYTkd_yk3jCxk=", "properties": {"@spider": "usps_collection_boxes", "addr:city": "RIVERHEAD", "addr:country": "US", "addr:full": "1210 W MAIN ST", "addr:postcode": "11901", "addr:state": "NY", "brand": "USPS", "collection_times": "Mo-Fr 17:00; Sa 13:00", "name": "USPS COLLECTION BOX - BLUE BOX", "note": "ON 12/24 AND 12/31, THIS BOX MAY BE COLLECTED AS EARLY AS 12 NOON.", "ref": "1190100113"}, "type": "Feature"}
{"geometry": {"coordinates": [-72.6904638, 40.916868], "type": "Point"}, "id": "T3EX2z2SVARi9YWZGMWRqHdoem8=", "properties": {"@spider": "usps_collection_boxes", "addr:city": "RIVERHEAD", "addr:country": "US", "addr:full": "1210 W MAIN ST", "addr:postcode": "11901", "addr:state": "NY", "brand": "USPS", "collection_times": "Mo-Fr 17:00; Sa 13:00", "name": "USPS COLLECTION BOX - BLUE BOX", "note": "ON 12/24 AND 12/31, THIS BOX MAY BE COLLECTED AS EARLY AS 12 NOON.", "ref": "1190100114"}, "type": "Feature"}
{"geometry": {"coordinates": [-72.690481, 40.916874], "type": "Point"}, "id": "3ntgba2uqtCB58C0kpmcLzPX_Jg=", "properties": {"@spider": "usps_collection_boxes", "addr:city": "RIVERHEAD", "addr:country": "US", "addr:full": "1210 W MAIN ST", "addr:postcode": "11901", "addr:state": "NY", "brand": "USPS", "collection_times": "Mo-Fr 17:00; Sa 13:00", "name": "USPS COLLECTION BOX - BLUE BOX", "note": "ON 12/24 AND 12/31, THIS BOX MAY BE COLLECTED AS EARLY AS 12 NOON.", "ref": "1190100115"}, "type": "Feature"}
{"geometry": {"coordinates": [-72.6903576, 40.917145], "type": "Point"}, "id": "7Nf4XwTnBbYY2lTgz5g0APVZ5Bo=", "properties": {"@spider": "usps_collection_boxes", "addr:city": "RIVERHEAD", "addr:country": "US", "addr:full": "1210 W MAIN ST", "addr:postcode": "11901", "addr:state": "NY", "brand": "USPS", "collection_times": "Mo-Fr 17:00; Sa 13:00", "name": "USPS COLLECTION BOX - PO LOBBY", "note": "ON 12/24 AND 12/31, THIS BOX MAY BE COLLECTED AS EARLY AS 12 NOON.", "ref": "1190100116"}, "type": "Feature"}
{"geometry": {"coordinates": [-72.690378733, 40.916720228], "type": "Point"}, "id": "CTfSEdXGobuF4ixOpFGmZ8Y2-fc=", "properties": {"@spider": "usps_collection_boxes", "addr:city": "RIVERHEAD", "addr:country": "US", "addr:full": "1210 W MAIN ST", "addr:postcode": "11901", "addr:state": "NY", "brand": "USPS", "collection_times": "Mo-Fr 17:00; Sa 14:00", "name": "USPS COLLECTION BOX - PO LOBBY", "note": "ON 12/24 AND 12/31, THIS BOX MAY BE COLLECTED AS EARLY AS 12 NOON.", "ref": "1190100122"}, "type": "Feature"}
{"geometry": {"coordinates": [-72.128698, 40.979258], "type": "Point"}, "id": "ayYN0CF2dHpVRY4DonMtGFt5o4E=", "properties": {"@spider": "usps_collection_boxes", "addr:city": "AMAGANSETT", "addr:country": "US", "addr:full": "501 MONTAUK HWY", "addr:postcode": "11930", "addr:state": "NY", "brand": "USPS", "collection_times": "Mo-Fr 17:00; Sa 13:00", "name": "USPS COLLECTION BOX - BLUE BOX", "note": "ON 12/24 AND 12/31, THIS BOX MAY BE COLLECTED AS EARLY AS 12 NOON.", "ref": "1193000001"}, "type": "Feature"}
{"geometry": {"coordinates": [-72.128709, 40.979233], "type": "Point"}, "id": "D7LA4OUtSbTWOLJFmma7JIYYea0=", "properties": {"@spider": "usps_collection_boxes", "addr:city": "AMAGANSETT", "addr:country": "US", "addr:full": "501 MONTAUK HWY", "addr:postcode": "11930", "addr:state": "NY", "brand": "USPS", "collection_times": "Mo-Fr 17:00; Sa 13:00", "name": "USPS COLLECTION BOX - BLUE BOX", "note": "ON 12/24 AND 12/31, THIS BOX MAY BE COLLECTED AS EARLY AS 12 NOON.", "ref": "1193000002"}, "type": "Feature"}
{"geometry": {"coordinates": [-72.128709, 40.979233], "type": "Point"}, "id": "xLHR-h23yfLlFu4QgAGoXrsIU_c=", "properties": {"@spider": "usps_collection_boxes", "addr:city": "AMAGANSETT", "addr:country": "US", "addr:full": "501 MONTAUK HWY", "addr:postcode": "11930", "addr:state": "NY", "brand": "USPS", "collection_times": "Mo-Fr 17:00; Sa 13:00", "name": "USPS COLLECTION BOX - PO LOBBY", "note": "ON 12/24 AND 12/31, THIS BOX MAY BE COLLECTED AS EARLY AS 12 NOON.", "ref": "1193000005"}, "type": "Feature"}
{"geometry": {"coordinates": [-72.128732769, 40.979264477], "type": "Point"}, "id": "EwXHmZ41Tg4K6SO5r3W1dPsqsC8=", "properties": {"@spider": "usps_collection_boxes", "addr:city": "AMAGANSETT", "addr:country": "US", "addr:full": "501 MONTAUK HWY", "addr:postcode": "11930", "addr:state": "NY", "brand": "USPS", "collection_times": "Mo-Fr 17:00; Sa 13:00", "name": "USPS COLLECTION BOX - PO LOBBY", "note": "ON 12/24 AND 12/31, THIS BOX MAY BE COLLECTED AS EARLY AS 12 NOON.", "ref": "1193000006"}, "type": "Feature"}
{"geometry": {"coordinates": [-72.638649, 40.940494], "type": "Point"}, "id": "7tSW-E0FCvpg2DQ5A23_MOx3kAI=", "properties": {"@spider": "usps_collection_boxes", "addr:city": "AQUEBOGUE", "addr:country": "US", "addr:full": "212 LINDA AVE", "addr:postcode": "11931", "addr:state": "NY", "brand": "USPS", "collection_times": "Mo-Fr 17:00; Sa 13:00", "name": "USPS COLLECTION BOX - BLUE BOX", "note": "ON 12/24 AND 12/31, THIS BOX MAY BE COLLECTED AS EARLY AS 12 NOON.", "ref": "1193100001"}, "type": "Feature"}
{"geometry": {"coordinates": [-72.63861, 40.940406], "type": "Point"}, "id": "3jP-7HwTvpXZ70qHIZpcTauRCwM=", "properties": {"@spider": "usps_collection_boxes", "addr:city": "AQUEBOGUE", "addr:country": "US", "addr:full": "212 LINDA AVE", "addr:postcode": "11931", "addr:state": "NY", "brand": "USPS", "collection_times": "Mo-Fr 17:00; Sa 13:00", "name": "USPS COLLECTION BOX - PO LOBBY", "note": "ON 12/24 AND 12/31, THIS BOX MAY BE COLLECTED AS EARLY AS 12 NOON.", "ref": "1193100004"}, "type": "Feature"}
{"geometry": {"coordinates": [-72.638618675, 40.940451429], "type": "Point"}, "id": "ldkEDDyuWuLqw2XI89z57-RU1p4=", "properties": {"@spider": "usps_collection_boxes", "addr:city": "AQUEBOGUE", "addr:country": "US", "addr:full": "212 LINDA AVE", "addr:postcode": "11931", "addr:state": "NY", "brand": "USPS", "collection_times": "Mo-Fr 17:00; Sa 13:00", "name": "USPS COLLECTION BOX - PO LOBBY", "note": "ON 12/24 AND 12/31, THIS BOX MAY BE COLLECTED AS EARLY AS 12 NOON.", "ref": "1193100005"}, "type": "Feature"}
{"geometry": {"coordinates": [-72.307462658, 40.935169635], "type": "Point"}, "id": "rEfk_83d-DVeXiGRgKE9jbZ89e4=", "properties": {"@spider": "usps_collection_boxes", "addr:city": "BRIDGEHAMPTON", "addr:country": "US", "addr:full": "2302 MONTAUK HWY", "addr:postcode": "11932", "addr:state": "NY", "brand": "USPS", "collection_times": "Mo-Fr 17:00; Sa 13:00", "name": "USPS COLLECTION BOX - BLUE BOX", "note": "ON 12/24 AND 12/31, THIS BOX MAY BE COLLECTED AS EARLY AS 12 NOON.", "ref": "1193200001"}, "type": "Feature"}
{"geometry": {"coordinates": [-72.304864787, 40.936054307], "type": "Point"}, "id": "OC2c-DJjNfxgwd3T0dbSbNTQ8Ug=", "properties": {"@spider": "usps_collection_boxes", "addr:city": "BRIDGEHAMPTON", "addr:country": "US", "addr:full": "2322 MAIN ST", "addr:postcode": "11932", "addr:state": "NY", "brand": "USPS", "collection_times": "Mo-Fr 17:00; Sa 13:00", "name": "USPS COLLECTION BOX - BLUE BOX", "note": "ON 12/24 AND 12/31, THIS BOX MAY BE COLLECTED AS EARLY AS 12 NOON.", "ref": "1193200002"}, "type": "Feature"}
{"geometry": {"coordinates": [-72.307006, 40.935265], "type": "Point"}, "id": "-696N3aI-soBW9TIW2q4vkaUqAU=", "properties": {"@spider": "usps_collection_boxes", "addr:city": "BRIDGEHAMPTON", "addr:country": "US", "addr:full": "2322 MONTAUK HWY", "addr:postcode": "11932", "addr:state": "NY", "brand": "USPS", "collection_times": "Mo-Fr 17:00; Sa 13:00", "name": "USPS COLLECTION BOX - PO LOBBY", "note": "ON 12/24 AND 12/31, THIS BOX MAY BE COLLECTED AS EARLY AS 12 NOON.", "ref": "1193200006"}, "type": "Feature"}
{"geometry": {"coordinates": [-72.306878409, 40.935290831], "type": "Point"}, "id": "F0-zoEyMukyviCk_tc0iffeofaE=", "properties": {"@spider": "usps_collection_boxes", "addr:city": "BRIDGEHAMPTON", "addr:country": "US", "addr:full": "2322 MONTAUK HWY", "addr:postcode": "11932", "addr:state": "NY", "brand": "USPS", "collection_times": "Mo-Fr 17:00; Sa 13:00", "name": "USPS COLLECTION BOX - PO LOBBY", "note": "ON 12/24 AND 12/31, THIS BOX MAY BE COLLECTED AS EARLY AS 12 NOON.", "ref": "1193200007"}, "type": "Feature"}
{"geometry": {"coordinates": [-72.744839, 40.926824], "type": "Point"}, "id": "dKqwehR_EOlRO0Yosqir3LQD1sU=", "properties": {"@spider": "usps_collection_boxes", "addr:city": "CALVERTON", "addr:country": "US", "addr:full": "3690 MIDDLE COUNTRY RD", "addr:postcode": "11933", "addr:state": "NY", "brand": "USPS", "collection_times": "Mo-Fr 17:00; Sa 13:00", "name": "USPS COLLECTION BOX - BLUE BOX", "note": "ON 12/24 AND 12/31, THIS BOX MAY BE COLLECTED AS EARLY AS 12 NOON.", "ref": "1193300002"}, "type": "Feature"}
{"geometry": {"coordinates": [-72.744839, 40.926824], "type": "Point"}, "id": "rOTohL3LtXYLBMjKyY56XJXoq4c=", "properties": {"@spider": "usps_collection_boxes", "addr:city": "CALVERTON", "addr:country": "US", "addr:full": "3690 MIDDLE COUNTRY RD", "addr:postcode": "11933", "addr:state": "NY", "brand": "USPS", "collection_times": "Mo-Fr 17:00; Sa 13:00", "name": "USPS COLLECTION BOX - PO LOBBY", "note": "ON 12/24 AND 12/31, THIS BOX MAY BE COLLECTED AS EARLY AS 12 NOON.", "ref": "1193300006"}, "type": "Feature"}
{"geometry": {"coordinates": [-72.744930226, 40.926442428], "type": "Point"}, "id": "r0-dKYZwYz9EbNjTZCpjfVtDVJg=", "properties": {"@spider": "usps_collection_boxes", "addr:city": "CALVERTON", "addr:country": "US", "addr:full": "3690 MIDDLE COUNTRY RD", "addr:postcode": "11933", "addr:state": "NY", "brand": "USPS", "collection_times": "Mo-Fr 17:00; Sa 13:00", "name": "USPS COLLECTION BOX - PO LOBBY", "note": "ON 12/24 AND 12/31, THIS BOX MAY BE COLLECTED AS EARLY AS 12 NOON.", "ref": "1193300007"}, "type": "Feature"}
{"geometry": {"coordinates": [-72.789835, 40.801513], "type": "Point"}, "id": "lsNAjUVOTqEtBYPdGBfVoZkucfk=", "properties": {"@spider": "usps_collection_boxes", "addr:city": "CENTER MORICHES", "addr:country": "US", "addr:full": "35 RAILROAD AVE", "addr:postcode": "11934", "addr:state": "NY", "brand": "USPS", "collection_times": "Mo-Fr 17:00; Sa 13:00", "name": "USPS COLLECTION BOX - BLUE BOX", "note": "ON 12/24 AND 12/31, THIS BOX MAY BE COLLECTED AS EARLY AS 12 NOON.", "ref": "1193400001"}, "type": "Feature"}
{"geometry": {"coordinates": [-72.789835, 40.801513], "type": "Point"}, "id": "obYbcqhKc-NK-Z6LGhLQ7YMcjDo=", "properties": {"@spider": "usps_collection_boxes", "addr:city": "CENTER MORICHES", "addr:country": "US", "addr:full": "35 RAILROAD AVE", "addr:postcode": "11934", "addr:state": "NY", "brand": "USPS", "collection_times": "Mo-Fr 17:00; Sa 13:00", "name": "USPS COLLECTION BOX - BLUE BOX", "note": "ON 12/24 AND 12/31, THIS BOX MAY BE COLLECTED AS EARLY AS 12 NOON.", "ref": "1193400002"}, "type": "Feature"}
{"geometry": {"coordinates": [-72.7929699, 40.800227], "type": "Point"}, "id": "SXyT2Wj3USyykLoraHkPtaBaQaM=", "properties": {"@spider": "usps_collection_boxes", "addr:city": "CENTER MORICHES", "addr:country": "US", "addr:full": "366 MAIN ST", "addr:postcode": "11934", "addr:state": "NY", "brand": "USPS", "collection_times": "Mo-Sa 12:30", "name": "USPS COLLECTION BOX - BLUE BOX", "note": "ON 12/24 AND 12/31, THIS BOX MAY BE COLLECTED AS EARLY AS 12 NOON.", "ref": "1193400003"}, "type": "Feature"}
{"geometry": {"coordinates": [-72.809118662, 40.80295333], "type": "Point"}, "id": "NSc3cHxRDgTAUTTJxF9xQsZfuKU=", "properties": {"@spider": "usps_collection_boxes", "addr:city": "CENTER MORICHES", "addr:country": "US", "addr:full": "812 MONTAUK HWY", "addr:postcode": "11934", "addr:state": "NY", "brand": "USPS", "collection_times": "Mo-Sa 11:00", "name": "USPS COLLECTION BOX - BLUE BOX", "ref": "1193400004"}, "type": "Feature"}
{"geometry": {"coordinates": [-72.7987407, 40.800348], "type": "Point"}, "id": "fS7XgBMEPhNqGrej5UGYZZXRjfw=", "properties": {"@spider": "usps_collection_boxes", "addr:city": "CENTER MORICHES", "addr:country": "US", "addr:full": "552 MAIN ST", "addr:postcode": "11934", "addr:state": "NY", "brand": "USPS", "collection_times": "Mo-Sa 11:30", "name": "USPS COLLECTION BOX - BLUE BOX", "ref": "1193400005"}, "type": "Feature"}
{"geometry": {"coordinates": [-72.789838692, 40.801549536], "type": "Point"}, "id": "vxislmDeTzxy-GkpmlcHJYXBDSU=", "properties": {"@spider": "usps_collection_boxes", "addr:city": "CENTER MORICHES", "addr:country": "US", "addr:full": "35 RAILROAD AVE", "addr:postcode": "11934", "addr:state": "NY", "brand": "USPS", "collection_times": "Mo-Fr 17:00; Sa 13:00", "name": "USPS COLLECTION BOX - BLUE BOX", "note": "ON 12/24 AND 12/31, THIS BOX MAY BE COLLECTED AS EARLY AS 12 NOON.", "ref": "1193400012"}, "type": "Feature"}
{"geometry": {"coordinates": [-72.789835, 40.801513], "type": "Point"}, "id": "HGcOjenWpXbTWNhWYknqLRc7fms=", "properties": {"@spider": "usps_collection_boxes", "addr:city": "CENTER MORICHES", "addr:country": "US", "addr:full": "35 RAILROAD AVE", "addr:postcode": "11934", "addr:state": "NY", "brand": "USPS", "collection_times": "Mo-Fr 17:00; Sa 15:00", "name": "USPS COLLECTION BOX - PO LOBBY", "note": "ON 12/24 AND 12/31, THIS BOX MAY BE COLLECTED AS EARLY AS 12 NOON.", "ref": "1193400016"}, "type": "Feature"}
{"geometry": {"coordinates": [-72.789827891, 40.801500985], "type": "Point"}, "id": "9DWesqX28YVNJWDCsgP-cBbZ-5o=", "properties": {"@spider": "usps_collection_boxes", "addr:city": "CENTER MORICHES", "addr:country": "US", "addr:full": "35 RAILROAD AVE", "addr:postcode": "11934", "addr:state": "NY", "brand": "USPS", "collection_times": "Mo-Fr 17:00; Sa 13:00", "name": "USPS COLLECTION BOX - PO LOBBY", "note": "ON 12/24 AND 12/31, THIS BOX MAY BE COLLECTED AS EARLY AS 12 NOON.", "ref": "1193400019"}, "type": "Feature"}
{"geometry": {"coordinates": [-72.486417, 41.010745], "type": "Point"}, "id": "gJyQEf-0byYJQrlZ5CD18iepwHA=", "properties": {"@spider": "usps_collection_boxes", "addr:city": "CUTCHOGUE", "addr:country": "US", "addr:full": "240 GRIFFING ST", "addr:postcode": "11935", "addr:state": "NY", "brand": "USPS", "collection_times": "Mo-Fr 17:00; Sa 13:00", "name": "USPS COLLECTION BOX - BLUE BOX", "note": "ON 12/24 AND 12/31, THIS BOX MAY BE COLLECTED AS EARLY AS 12 NOON.", "ref": "1193500001"}, "type": "Feature"}
{"geometry": {"coordinates": [-72.4816023, 41.019243], "type": "Point"}, "id": "b9lCZroLfkFMKtbxrS2tu6TseMg=", "properties": {"@spider": "usps_collection_boxes", "addr:city": "CUTCHOGUE", "addr:country": "US", "addr:full": "31525 MAIN RD", "addr:postcode": "11935", "addr:state": "NY", "brand": "USPS", "collection_times": "Mo-Sa 13:00", "name": "USPS COLLECTION BOX - BLUE BOX", "note": "ON 12/24 AND 12/31, THIS BOX MAY BE COLLECTED AS EARLY AS 12 NOON.", "ref": "1193500003"}, "type": "Feature"}
{"geometry": {"coordinates": [-72.486417, 41.010745], "type": "Point"}, "id": "h1_okEpmD0rk45k0PJ7srwIleGg=", "properties": {"@spider": "usps_collection_boxes", "addr:city": "CUTCHOGUE", "addr:country": "US", "addr:full": "240 GRIFFING ST", "addr:postcode": "11935", "addr:state": "NY", "brand": "USPS", "collection_times": "Mo-Fr 17:00; Sa 13:00", "name": "USPS COLLECTION BOX - PO LOBBY", "note": "ON 12/24 AND 12/31, THIS BOX MAY BE COLLECTED AS EARLY AS 12 NOON.", "ref": "1193500006"}, "type": "Feature"}
{"geometry": {"coordinates": [-72.486429885, 41.010744372], "type": "Point"}, "id": "VRXY2id6J8WS_M7IQaW018V1QCI=", "properties": {"@spider": "usps_collection_boxes", "addr:city": "CUTCHOGUE", "addr:country": "US", "addr:full": "240 GRIFFING ST", "addr:postcode": "11935", "addr:state": "NY", "brand": "USPS", "collection_times": "Mo-Fr 17:00; Sa 13:00", "name": "USPS COLLECTION BOX - PO LOBBY", "note": "ON 12/24 AND 12/31, THIS BOX MAY BE COLLECTED AS EARLY AS 12 NOON.", "ref": "1193500007"}, "type": "Feature"}
{"geometry": {"coordinates": [-72.1713491, 40.991789], "type": "Point"}, "id": "CvcFN2LF0PSuWElRxqU9C3PPKvs=", "properties": {"@spider": "usps_collection_boxes", "addr:city": "EAST HAMPTON", "addr:country": "US", "addr:full": "291 SPRINGSFIREPLACE RD", "addr:postcode": "11937", "addr:state": "NY", "brand": "USPS", "collection_times": "Mo-Sa 13:00", "name": "USPS COLLECTION BOX - BLUE BOX", "note": "ON 12/24 AND 12/31, THIS BOX MAY BE COLLECTED AS EARLY AS 12 NOON.", "ref": "1193700002"}, "type": "Feature"}
{"geometry": {"coordinates": [-72.1720219, 40.968478], "type": "Point"}, "id": "7rmcl_sHLYwbtNlSUI-1rKsueeo=", "properties": {"@spider": "usps_collection_boxes", "addr:city": "EAST HAMPTON", "addr:country": "US", "addr:full": "159 PANTIGO RD", "addr:postcode": "11937", "addr:state": "NY", "brand": "USPS", "collection_times": "Mo-Sa 13:00", "name": "USPS COLLECTION BOX - BLUE BOX", "note": "ON 12/24 AND 12/31, THIS BOX MAY BE COLLECTED AS EARLY AS 12 NOON.", "ref": "1193700006"}, "type": "Feature"}
{"geometry": {"coordinates": [-72.1976614, 40.959121], "type": "Point"}, "id": "8yWeBkGGPKrjd5XgdV1GfY5ZPgA=", "properties": {"@spider": "usps_collection_boxes", "addr:city": "EAST HAMPTON", "addr:country": "US", "addr:full": "58 BUELL LN", "addr:postcode": "11937", "addr:state": "NY", "brand": "USPS", "collection_times": "Mo-Sa 13:00", "name": "USPS COLLECTION BOX - BLUE BOX", "note": "ON 12/24 AND 12/31, THIS BOX MAY BE COLLECTED AS EARLY AS 12 NOON.", "ref": "1193700011"}, "type": "Feature"}
{"geometry": {"coordinates": [-72.182593994, 40.966053005], "type": "Point"}, "id": "2sSw1jnYVqUXfIjrYkmEreRjK_M=", "properties": {"@spider": "usps_collection_boxes", "addr:city": "EAST HAMPTON", "addr:country": "US", "addr:full": "35 PANTIGO RD", "addr:postcode": "11937", "addr:state": "NY", "brand": "USPS", "collection_times": "Mo-Sa 13:00", "name": "USPS COLLECTION BOX - BLUE BOX", "note": "ON 12/24 AND 12/31, THIS BOX MAY BE COLLECTED AS EARLY AS 12 NOON.", "ref": "1193700013"}, "type": "Feature"}
{"geometry": {"coordinates": [-72.1867503, 40.964298], "type": "Point"}, "id": "6747MuQy_Er3sS-vfT18ascTwHA=", "properties": {"@spider": "usps_collection_boxes", "addr:city": "EAST HAMPTON", "addr:country": "US", "addr:full": "46 NEWTOWN LN", "addr:postcode": "11937", "addr:state": "NY", "brand": "USPS", "collection_times": "Mo-Fr 16:30; Sa 13:00", "name": "USPS COLLECTION BOX - BLUE BOX", "note": "ON 12/24 AND 12/31, THIS BOX MAY BE COLLECTED AS EARLY AS 12 NOON.", "ref": "1193700014"}, "type": "Feature"}
{"geometry": {"coordinates": [-72.1706899, 40.969337], "type": "Point"}, "id": "96VXErtwjytC89pWFjs8Q4VjzAE=", "properties": {"@spider": "usps_collection_boxes", "addr:city": "EAST HAMPTON", "addr:country": "US", "addr:full": "300 PANTIGO PL", "addr:postcode": "11937", "addr:state": "NY", "brand": "USPS", "collection_times": "Mo-Sa 13:00", "name": "USPS COLLECTION BOX - BLUE BOX", "note": "ON 12/24 AND 12/31, THIS BOX MAY BE COLLECTED AS EARLY AS 12 NOON.", "ref": "1193700025"}, "type": "Feature"}
{"geometry": {"coordinates": [-72.1589227, 41.01666], "type": "Point"}, "id": "qc-QwRtla_TNSRvFsnIiPosXJpI=", "properties": {"@spider": "usps_collection_boxes", "addr:city": "EAST HAMPTON", "addr:country": "US", "addr:full": "716 SPRINGS FIREPLACE RD", "addr:postcode": "11937", "addr:state": "NY", "brand": "USPS", "collection_times": "Mo-Sa 10:00", "name": "USPS COLLECTION BOX - BLUE BOX", "ref": "1193700026"}, "type": "Feature"}
{"geometry": {"coordinates": [-72.181906007, 40.965197003], "type": "Point"}, "id": "i_94KJuKaXLpIko-DecOrb3mNK8=", "properties": {"@spider": "usps_collection_boxes", "addr:city": "EAST HAMPTON", "addr:country": "US", "addr:full": "12 GAY RD", "addr:postcode": "11937", "addr:state": "NY", "brand": "USPS", "collection_times": "Mo-Fr 16:30; Sa 13:00", "name": "USPS COLLECTION BOX - BLUE BOX", "note": "ON 12/24 AND 12/31, THIS BOX MAY BE COLLECTED AS EARLY AS 12 NOON.", "ref": "1193700028"}, "type": "Feature"}
{"geometry": {"coordinates": [-72.190854, 40.958388], "type": "Point"}, "id": "CUfn5krLqGdcnyxVIIRe-Z1uPes=", "properties": {"@spider": "usps_collection_boxes", "addr:city": "EAST HAMPTON", "addr:country": "US", "addr:full": "153 MAIN ST", "addr:postcode": "11937", "addr:state": "NY", "brand": "USPS", "collection_times": "Mo-Sa 13:00", "name": "USPS COLLECTION BOX - BLUE BOX", "note": "ON 12/24 AND 12/31, THIS BOX MAY BE COLLECTED AS EARLY AS 12 NOON.", "ref": "1193700034"}, "type": "Feature"}
{"geometry": {"coordinates": [-72.1820192, 40.965419], "type": "Point"}, "id": "_oo2_IDzTP1a5dFqLPT40-_Kd4I=", "properties": {"@spider": "usps_collection_boxes", "addr:city": "EAST HAMPTON", "addr:country": "US", "addr:full": "12 GAY RD", "addr:postcode": "11937", "addr:state": "NY", "brand": "USPS", "collection_times": "Mo-Fr 16:30; Sa 13:00", "name": "USPS COLLECTION BOX - PO LOBBY", "note": "ON 12/24 AND 12/31, THIS BOX MAY BE COLLECTED AS EARLY AS 12 NOON.", "ref": "1193700039"}, "type": "Feature"}
{"geometry": {"coordinates": [-72.181579624, 40.965413242], "type": "Point"}, "id": "tAcquXN9_-Qrp1_Oa_IxsksihJE=", "properties": {"@spider": "usps_collection_boxes", "addr:city": "EAST HAMPTON", "addr:country": "US", "addr:full": "12 GAY RD", "addr:postcode": "11937", "addr:state": "NY", "brand": "USPS", "collection_times": "Mo-Fr 17:00; Sa 15:30", "name": "USPS COLLECTION BOX - PO LOBBY", "note": "ON 12/24 AND 12/31, THIS BOX MAY BE COLLECTED AS EARLY AS 12 NOON.", "ref": "1193700043"}, "type": "Feature"}
{"geometry": {"coordinates": [-72.340812, 41.127232], "type": "Point"}, "id": "TWE7XHuA9SOqeOt0XDbrF1QejJQ=", "properties": {"@spider": "usps_collection_boxes", "addr:city": "EAST MARION", "addr:country": "US", "addr:full": "9165 MAIN RD", "addr:postcode": "11939", "addr:state": "NY", "brand": "USPS", "collection_times": "Mo-Fr 17:00; Sa 12:00", "name": "USPS COLLECTION BOX - BLUE BOX", "note": "ON 12/24 AND 12/31, THIS BOX MAY BE COLLECTED AS EARLY AS 12 NOON.", "ref": "1193900002"}, "type": "Feature"}
{"geometry": {"coordinates": [-72.340812, 41.127232], "type": "Point"}, "id": "fNjUI6yW0V06HHWLB-MkKDivIaU=", "properties": {"@spider": "usps_collection_boxes", "addr:city": "EAST MARION", "addr:country": "US", "addr:full": "9165 MAIN RD", "addr:postcode": "11939", "addr:state": "NY", "brand": "USPS", "collection_times": "Mo-Fr 17:00; Sa 12:00", "name": "USPS COLLECTION BOX - PO LOBBY", "note": "ON 12/24 AND 12/31, THIS BOX MAY BE COLLECTED AS EARLY AS 12 NOON.", "ref": "1193900004"}, "type": "Feature"}
{"geometry": {"coordinates": [-72.340865501, 41.12717599], "type": "Point"}, "id": "VLrH5tEp8J8ZveDiDNVoi655_6Q=", "properties": {"@spider": "usps_collection_boxes", "addr:city": "EAST MARION", "addr:country": "US", "addr:full": "9165 MAIN RD", "addr:postcode": "11939", "addr:state": "NY", "brand": "USPS", "collection_times": "Mo-Fr 17:00; Sa 12:00", "name": "USPS COLLECTION BOX - PO LOBBY", "note": "ON 12/24 AND 12/31, THIS BOX MAY BE COLLECTED AS EARLY AS 12 NOON.", "ref": "1193900005"}, "type": "Feature"}
{"geometry": {"coordinates": [-72.760728, 40.804732], "type": "Point"}, "id": "SAtbbfuvH_OREAqnChSUujNv8-Y=", "properties": {"@spider": "usps_collection_boxes", "addr:city": "EAST MORICHES", "addr:country": "US", "addr:full": "3 ATLANTIC AVE", "addr:postcode": "11940", "addr:state": "NY", "brand": "USPS", "collection_times": "Mo-Fr 17:00; Sa 15:00", "name": "USPS COLLECTION BOX - BLUE BOX", "note": "ON 12/24 AND 12/31, THIS BOX MAY BE COLLECTED AS EARLY AS 12 NOON.", "ref": "1194000002"}, "type": "Feature"}
{"geometry": {"coordinates": [-72.760728, 40.804732], "type": "Point"}, "id": "614mUQo-g1kBfj-1GN8iJL4qSlY=", "properties": {"@spider": "usps_collection_boxes", "addr:city": "EAST MORICHES", "addr:country": "US", "addr:full": "3 ATLANTIC AVE", "addr:postcode": "11940", "addr:state": "NY", "brand": "USPS", "collection_times": "Mo-Fr 17:00; Sa 15:00", "name": "USPS COLLECTION BOX - PO LOBBY", "note": "ON 12/24 AND 12/31, THIS BOX MAY BE COLLECTED AS EARLY AS 12 NOON.", "ref": "1194000004"}, "type": "Feature"}
{"geometry": {"coordinates": [-72.760591657, 40.804503212], "type": "Point"}, "id": "4_FVG5dSamAJEGa1BZ8EnDdRyYk=", "properties": {"@spider": "usps_collection_boxes", "addr:city": "EAST MORICHES", "addr:country": "US", "addr:full": "3 ATLANTIC AVE", "addr:postcode": "11940", "addr:state": "NY", "brand": "USPS", "collection_times": "Mo-Fr 17:00; Sa 13:00", "name": "USPS COLLECTION BOX - PO LOBBY", "note": "ON 12/24 AND 12/31, THIS BOX MAY BE COLLECTED AS EARLY AS 12 NOON.", "ref": "1194000005"}, "type": "Feature"}
{"geometry": {"coordinates": [-72.734775, 40.827775], "type": "Point"}, "id": "mT36c2AoC5_NkMuAjyF3wkj1StE=", "properties": {"@spider": "usps_collection_boxes", "addr:city": "EASTPORT", "addr:country": "US", "addr:full": "24 EASTPORT MANOR RD", "addr:postcode": "11941", "addr:state": "NY", "brand": "USPS", "collection_times": "Mo-Fr 17:00; Sa 15:00", "name": "USPS COLLECTION BOX - BLUE BOX", "note": "ON 12/24 AND 12/31, THIS BOX MAY BE COLLECTED AS EARLY AS 12 NOON.", "ref": "1194100001"}, "type": "Feature"}
{"geometry": {"coordinates": [-72.734775, 40.827775], "type": "Point"}, "id": "nxU0fu9Q_J3o3PSA2E8Qoy8dK7g=", "properties": {"@spider": "usps_collection_boxes", "addr:city": "EASTPORT", "addr:country": "US", "addr:full": "24 EASTPORT MANOR RD", "addr:postcode": "11941", "addr:state": "NY", "brand": "USPS", "collection_times": "Mo-Fr 17:00; Sa 15:00", "name": "USPS COLLECTION BOX - PO LOBBY", "note": "ON 12/24 AND 12/31, THIS BOX MAY BE COLLECTED AS EARLY AS 12 NOON.", "ref": "1194100005"}, "type": "Feature"}
{"geometry": {"coordinates": [-72.734856857, 40.827860492], "type": "Point"}, "id": "Nq6mz81jFtHgrJqUPsYm90wltLA=", "properties": {"@spider": "usps_collection_boxes", "addr:city": "EASTPORT", "addr:country": "US", "addr:full": "24 EASTPORT MANOR RD", "addr:postcode": "11941", "addr:state": "NY", "brand": "USPS", "collection_times": "Mo-Fr 17:00; Sa 13:00", "name": "USPS COLLECTION BOX - PO LOBBY", "note": "ON 12/24 AND 12/31, THIS BOX MAY BE COLLECTED AS EARLY AS 12 NOON.", "ref": "1194100006"}, "type": "Feature"}
{"geometry": {"coordinates": [-72.578282, 40.842797], "type": "Point"}, "id": "XIRNJp-Gcf36gKKBoZJ_VDxOAIE=", "properties": {"@spider": "usps_collection_boxes", "addr:city": "EAST QUOGUE", "addr:country": "US", "addr:full": "6 BAY AVE", "addr:postcode": "11942", "addr:state": "NY", "brand": "USPS", "collection_times": "Mo-Fr 17:00; Sa 13:00", "name": "USPS COLLECTION BOX - BLUE BOX", "note": "ON 12/24 AND 12/31, THIS BOX MAY BE COLLECTED AS EARLY AS 12 NOON.", "ref": "1194200002"}, "type": "Feature"}
{"geometry": {"coordinates": [-72.57833, 40.84284], "type": "Point"}, "id": "fcpSR4wABwDMhrvL74NGAgLrldQ=", "properties": {"@spider": "usps_collection_boxes", "addr:city": "EAST QUOGUE", "addr:country": "US", "addr:full": "6 BAY AVE", "addr:postcode": "11942", "addr:state": "NY", "brand": "USPS", "collection_times": "Mo-Fr 17:00; Sa 13:00", "name": "USPS COLLECTION BOX - PO LOBBY", "note": "ON 12/24 AND 12/31, THIS BOX MAY BE COLLECTED AS EARLY AS 12 NOON.", "ref": "1194200006"}, "type": "Feature"}
{"geometry": {"coordinates": [-72.578329569, 40.842800185], "type": "Point"}, "id": "-FzjF98sO7-NFusNnM7_WOEiH9E=", "properties": {"@spider": "usps_collection_boxes", "addr:city": "EAST QUOGUE", "addr:country": "US", "addr:full": "6 BAY AVE", "addr:postcode": "11942", "addr:state": "NY", "brand": "USPS", "collection_times": "Mo-Fr 17:00; Sa 13:00", "name": "USPS COLLECTION BOX - PO LOBBY", "note": "ON 12/24 AND 12/31, THIS BOX MAY BE COLLECTED AS EARLY AS 12 NOON.", "ref": "1194200008"}, "type": "Feature"}
{"geometry": {"coordinates": [-72.365592, 41.09539], "type": "Point"}, "id": "W5901IoxPXs8B_C4mFqI8iECFiY=", "properties": {"@spider": "usps_collection_boxes", "addr:city": "GREENPORT", "addr:country": "US", "addr:full": "187 CLARK ST", "addr:postcode": "11944", "addr:state": "NY", "brand": "USPS", "collection_times": "Mo-Sa 09:00", "name": "USPS COLLECTION BOX - BLUE BOX", "ref": "1194400002"}, "type": "Feature"}
{"geometry": {"coordinates": [-72.3671638, 41.097131], "type": "Point"}, "id": "gZom1OgsBfwgXHkxkcU_dtNTnfM=", "properties": {"@spider": "usps_collection_boxes", "addr:city": "GREENPORT", "addr:country": "US", "addr:full": "311 6TH ST", "addr:postcode": "11944", "addr:state": "NY", "brand": "USPS", "collection_times": "Mo-Sa 10:30", "name": "USPS COLLECTION BOX - BLUE BOX", "ref": "1194400003"}, "type": "Feature"}
{"geometry": {"coordinates": [-72.3633184, 41.103028], "type": "Point"}, "id": "lTxUWvPNSQqWCgqj6ERHtovJ9SY=", "properties": {"@spider": "usps_collection_boxes", "addr:city": "GREENPORT", "addr:country": "US", "addr:full": "224 SOUTH ST", "addr:postcode": "11944", "addr:state": "NY", "brand": "USPS", "collection_times": "Mo-Sa 10:30", "name": "USPS COLLECTION BOX - BLUE BOX", "ref": "1194400005"}, "type": "Feature"}
{"geometry": {"coordinates": [-72.3621966, 41.106277], "type": "Point"}, "id": "_RZVecoLb1ApNJ-21_FdoCZncEI=", "properties": {"@spider": "usps_collection_boxes", "addr:city": "GREENPORT", "addr:country": "US", "addr:full": "539 1ST ST", "addr:postcode": "11944", "addr:state": "NY", "brand": "USPS", "collection_times": "Mo-Sa 09:30", "name": "USPS COLLECTION BOX - BLUE BOX", "ref": "1194400006"}, "type": "Feature"}
{"geometry": {"coordinates": [-72.3651385, 41.1111], "type": "Point"}, "id": "w1DGmzrZcocnQCNawy3GhNh3m4k=", "properties": {"@spider": "usps_collection_boxes", "addr:city": "GREENPORT", "addr:country": "US", "addr:full": "912 MAIN ST", "addr:postcode": "11944", "addr:state": "NY", "brand": "USPS", "collection_times": "Mo-Sa 10:30", "name": "USPS COLLECTION BOX - BLUE BOX", "ref": "1194400007"}, "type": "Feature"}
{"geometry": {"coordinates": [-72.3620194, 41.110659], "type": "Point"}, "id": "0mzCjqGtmonnJw8jEbhZw7Wg-dA=", "properties": {"@spider": "usps_collection_boxes", "addr:city": "GREENPORT", "addr:country": "US", "addr:full": "201 MANOR PL", "addr:postcode": "11944", "addr:state": "NY", "brand": "USPS", "collection_times": "Mo-Sa 09:30", "name": "USPS COLLECTION BOX - BLUE BOX", "ref": "1194400008"}, "type": "Feature"}
{"geometry": {"coordinates": [-72.3618242, 41.108245], "type": "Point"}, "id": "DeH08TE9caxApQZr1i2HjqTonN0=", "properties": {"@spider": "usps_collection_boxes", "addr:city": "GREENPORT", "addr:country": "US", "addr:full": "8 BROAD ST", "addr:postcode": "11944", "addr:state": "NY", "brand": "USPS", "collection_times": "Mo-Sa 10:30", "name": "USPS COLLECTION BOX - BLUE BOX", "ref": "1194400009"}, "type": "Feature"}
{"geometry": {"coordinates": [-72.3592457, 41.10301], "type": "Point"}, "id": "2WL61c3P4ShDqHbHfupzMUnfcFM=", "properties": {"@spider": "usps_collection_boxes", "addr:city": "GREENPORT", "addr:country": "US", "addr:full": "230 MAIN ST", "addr:postcode": "11944", "addr:state": "NY", "brand": "USPS", "collection_times": "Mo-Sa 09:00", "name": "USPS COLLECTION BOX - BLUE BOX", "ref": "1194400010"}, "type": "Feature"}
{"geometry": {"coordinates": [-72.360816, 41.102122], "type": "Point"}, "id": "-Op-rlyXuXBicCBUrk8MTtvZ7pM=", "properties": {"@spider": "usps_collection_boxes", "addr:city": "GREENPORT", "addr:country": "US", "addr:full": "131 FRONT ST", "addr:postcode": "11944", "addr:state": "NY", "brand": "USPS", "collection_times": "Mo-Fr 17:00; Sa 13:00", "name": "USPS COLLECTION BOX - BLUE BOX", "note": "ON 12/24 AND 12/31, THIS BOX MAY BE COLLECTED AS EARLY AS 12 NOON.", "ref": "1194400012"}, "type": "Feature"}
{"geometry": {"coordinates": [-72.360816, 41.102122], "type": "Point"}, "id": "StLtoh0CC8mkOKzxoZbEWr3-Ib0=", "properties": {"@spider": "usps_collection_boxes", "addr:city": "GREENPORT", "addr:country": "US", "addr:full": "131 FRONT ST", "addr:postcode": "11944", "addr:state": "NY", "brand": "USPS", "collection_times": "Mo-Fr 17:00; Sa 13:00", "name": "USPS COLLECTION BOX - PO LOBBY", "note": "ON 12/24 AND 12/31, THIS BOX MAY BE COLLECTED AS EARLY AS 12 NOON.", "ref": "1194400026"}, "type": "Feature"}
{"geometry": {"coordinates": [-72.360962615, 41.102035714], "type": "Point"}, "id": "3sjHj4LJuWP0Eb-cq0TyqdDtgCU=", "properties": {"@spider": "usps_collection_boxes", "addr:city": "GREENPORT", "addr:country": "US", "addr:full": "131 FRONT ST", "addr:postcode": "11944", "addr:state": "NY", "brand": "USPS", "collection_times": "Mo-Fr 17:00; Sa 13:00", "name": "USPS COLLECTION BOX - PO LOBBY", "note": "ON 12/24 AND 12/31, THIS BOX MAY BE COLLECTED AS EARLY AS 12 NOON.", "ref": "1194400027"}, "type": "Feature"}
{"geometry": {"coordinates": [-72.523268989, 40.877304995], "type": "Point"}, "id": "cDsVDoSiNpbieClLl-i4lKdmJYk=", "properties": {"@spider": "usps_collection_boxes", "addr:city": "HAMPTON BAYS", "addr:country": "US", "addr:full": "16 PONQUOGUE AVE", "addr:postcode": "11946", "addr:state": "NY", "brand": "USPS", "collection_times": "Mo-Fr 17:00; Sa 13:00", "name": "USPS COLLECTION BOX - BLUE BOX", "note": "ON 12/24 AND 12/31, THIS BOX MAY BE COLLECTED AS EARLY AS 12 NOON.", "ref": "1194600001"}, "type": "Feature"}
{"geometry": {"coordinates": [-72.5345183, 40.876601], "type": "Point"}, "id": "SKp8VfL-9yIAAEzl9Tj4RilvnWU=", "properties": {"@spider": "usps_collection_boxes", "addr:city": "HAMPTON BAYS", "addr:country": "US", "addr:full": "188 MONTAUK HWY", "addr:postcode": "11946", "addr:state": "NY", "brand": "USPS", "collection_times": "Mo-Sa 09:30", "name": "USPS COLLECTION BOX - BLUE BOX", "ref": "1194600006"}, "type": "Feature"}
{"geometry": {"coordinates": [-72.5486081, 40.867683], "type": "Point"}, "id": "SNLNqbGAePF6e-1NU2Nlm_kp7-I=", "properties": {"@spider": "usps_collection_boxes", "addr:city": "HAMPTON BAYS", "addr:country": "US", "addr:full": "250 W MONTAUK HWY", "addr:postcode": "11946", "addr:state": "NY", "brand": "USPS", "collection_times": "Mo-Sa 11:00", "name": "USPS COLLECTION BOX - BLUE BOX", "ref": "1194600007"}, "type": "Feature"}
{"geometry": {"coordinates": [-72.522789, 40.877443], "type": "Point"}, "id": "9vV6zyn9xHXx2Ady2tXWfQwS8Pc=", "properties": {"@spider": "usps_collection_boxes", "addr:city": "HAMPTON BAYS", "addr:country": "US", "addr:full": "16 PONQUOGUE AVE", "addr:postcode": "11946", "addr:state": "NY", "brand": "USPS", "collection_times": "Mo-Fr 17:00; Sa 13:00", "name": "USPS COLLECTION BOX - BLUE BOX", "note": "ON 12/24 AND 12/31, THIS BOX MAY BE COLLECTED AS EARLY AS 12 NOON.", "ref": "1194600009"}, "type": "Feature"}
{"geometry": {"coordinates": [-72.522789, 40.877443], "type": "Point"}, "id": "-bIp8HER_fEcQ3zCkATsmhJ3eZY=", "properties": {"@spider": "usps_collection_boxes", "addr:city": "HAMPTON BAYS", "addr:country": "US", "addr:full": "16 PONQUOGUE AVE", "addr:postcode": "11946", "addr:state": "NY", "brand": "USPS", "collection_times": "Mo-Fr 17:00; Sa 13:00", "name": "USPS COLLECTION BOX - BLUE BOX", "note": "ON 12/24 AND 12/31, THIS BOX MAY BE COLLECTED AS EARLY AS 12 NOON.", "ref": "1194600013"}, "type": "Feature"}
{"geometry": {"coordinates": [-72.522789, 40.877443], "type": "Point"}, "id": "UO6zfqy9XcU15atDRhKXeE_xKmo=", "properties": {"@spider": "usps_collection_boxes", "addr:city": "HAMPTON BAYS", "addr:country": "US", "addr:full": "16 PONQUOGUE AVE", "addr:postcode": "11946", "addr:state": "NY", "brand": "USPS", "collection_times": "Mo-Fr 17:00; Sa 13:00", "name": "USPS COLLECTION BOX - BLUE BOX", "note": "ON 12/24 AND 12/31, THIS BOX MAY BE COLLECTED AS EARLY AS 12 NOON.", "ref": "1194600017"}, "type": "Feature"}
{"geometry": {"coordinates": [-72.522791162, 40.877440179], "type": "Point"}, "id": "RcDd1Q_EZXmbfO6r270zYDCfRCU=", "properties": {"@spider": "usps_collection_boxes", "addr:city": "HAMPTON BAYS", "addr:country": "US", "addr:full": "16 PONQUOGUE AVE", "addr:postcode": "11946", "addr:state": "NY", "brand": "USPS", "collection_times": "Mo-Fr 17:00; Sa 13:00", "name": "USPS COLLECTION BOX - PO LOBBY", "note": "ON 12/24 AND 12/31, THIS BOX MAY BE COLLECTED AS EARLY AS 12 NOON.", "ref": "1194600019"}, "type": "Feature"}
{"geometry": {"coordinates": [-72.577271, 40.952022], "type": "Point"}, "id": "lc8B8tVP2sf_rQvyd43XTyoD8JQ=", "properties": {"@spider": "usps_collection_boxes", "addr:city": "JAMESPORT", "addr:country": "US", "addr:full": "1451 ROUTE 25", "addr:postcode": "11947", "addr:state": "NY", "brand": "USPS", "collection_times": "Mo-Fr 17:00; Sa 13:00", "name": "USPS COLLECTION BOX - BLUE BOX", "note": "ON 12/24 AND 12/31, THIS BOX MAY BE COLLECTED AS EARLY AS 12 NOON.", "ref": "1194700001"}, "type": "Feature"}
{"geometry": {"coordinates": [-72.58711, 40.947587], "type": "Point"}, "id": "7UUYUyr4TtmuaGgMghpcd1c80is=", "properties": {"@spider": "usps_collection_boxes", "addr:city": "JAMESPORT", "addr:country": "US", "addr:full": "1451 ROUTE 25", "addr:postcode": "11947", "addr:state": "NY", "brand": "USPS", "collection_times": "Mo-Fr 17:00; Sa 13:00", "name": "USPS COLLECTION BOX - PO LOBBY", "note": "ON 12/24 AND 12/31, THIS BOX MAY BE COLLECTED AS EARLY AS 12 NOON.", "ref": "1194700004"}, "type": "Feature"}
{"geometry": {"coordinates": [-72.586779753, 40.947570487], "type": "Point"}, "id": "HHAoQWiktdEPcKBfOcjbC8_If9Y=", "properties": {"@spider": "usps_collection_boxes", "addr:city": "JAMESPORT", "addr:country": "US", "addr:full": "1451 ROUTE 25", "addr:postcode": "11947", "addr:state": "NY", "brand": "USPS", "collection_times": "Mo-Fr 17:00; Sa 13:00", "name": "USPS COLLECTION BOX - PO LOBBY", "note": "ON 12/24 AND 12/31, THIS BOX MAY BE COLLECTED AS EARLY AS 12 NOON.", "ref": "1194700005"}, "type": "Feature"}
{"geometry": {"coordinates": [-72.560998, 40.968944], "type": "Point"}, "id": "kIeRcUgdfYeiAygdT0sex4CTltU=", "properties": {"@spider": "usps_collection_boxes", "addr:city": "LAUREL", "addr:country": "US", "addr:full": "2168 MAIN RD", "addr:postcode": "11948", "addr:state": "NY", "brand": "USPS", "collection_times": "Mo-Fr 17:00; Sa 13:00", "name": "USPS COLLECTION BOX - BLUE BOX", "note": "ON 12/24 AND 12/31, THIS BOX MAY BE COLLECTED AS EARLY AS 12 NOON.", "ref": "1194800001"}, "type": "Feature"}
{"geometry": {"coordinates": [-72.560998, 40.968944], "type": "Point"}, "id": "ryONq4wZpvhE5uPToFBSct646M4=", "properties": {"@spider": "usps_collection_boxes", "addr:city": "LAUREL", "addr:country": "US", "addr:full": "2168 ROUTE 25", "addr:postcode": "11948", "addr:state": "NY", "brand": "USPS", "collection_times": "Mo-Fr 17:00; Sa 13:00", "name": "USPS COLLECTION BOX - PO LOBBY", "note": "ON 12/24 AND 12/31, THIS BOX MAY BE COLLECTED AS EARLY AS 12 NOON.", "ref": "1194800005"}, "type": "Feature"}
{"geometry": {"coordinates": [-72.561024154, 40.968870412], "type": "Point"}, "id": "IUnEhBLCdjelSL5O_a_dPLC8xoE=", "properties": {"@spider": "usps_collection_boxes", "addr:city": "LAUREL", "addr:country": "US", "addr:full": "2168 MAIN RD", "addr:postcode": "11948", "addr:state": "NY", "brand": "USPS", "collection_times": "Mo-Fr 17:00; Sa 13:00", "name": "USPS COLLECTION BOX - PO LOBBY", "note": "ON 12/24 AND 12/31, THIS BOX MAY BE COLLECTED AS EARLY AS 12 NOON.", "ref": "1194800006"}, "type": "Feature"}
{"geometry": {"coordinates": [-72.807682, 40.873427], "type": "Point"}, "id": "eXAHJOppa7MIm0KBGLvgFSdyHXc=", "properties": {"@spider": "usps_collection_boxes", "addr:city": "MANORVILLE", "addr:country": "US", "addr:full": "525 EASTPORT MANOR RD", "addr:postcode": "11949", "addr:state": "NY", "brand": "USPS", "collection_times": "Mo-Fr 17:00; Sa 13:00", "name": "USPS COLLECTION BOX - BLUE BOX", "note": "ON 12/24 AND 12/31, THIS BOX MAY BE COLLECTED AS EARLY AS 12 NOON.", "ref": "1194900002"}, "type": "Feature"}
{"geometry": {"coordinates": [-72.807682, 40.873427], "type": "Point"}, "id": "zBdMDHldx9eZiLJVzeN-Jw58SJo=", "properties": {"@spider": "usps_collection_boxes", "addr:city": "MANORVILLE", "addr:country": "US", "addr:full": "525 EASTPORT MANOR RD", "addr:postcode": "11949", "addr:state": "NY", "brand": "USPS", "collection_times": "Mo-Fr 17:00; Sa 15:00", "name": "USPS COLLECTION BOX - PO LOBBY", "note": "ON 12/24 AND 12/31, THIS BOX MAY BE COLLECTED AS EARLY AS 12 NOON.", "ref": "1194900006"}, "type": "Feature"}
{"geometry": {"coordinates": [-72.80768503, 40.873424424], "type": "Point"}, "id": "CX7sIYERooLISqzvBDEinussv6Q=", "properties": {"@spider": "usps_collection_boxes", "addr:city": "MANORVILLE", "addr:country": "US", "addr:full": "525 EASTPORT MANOR RD", "addr:postcode": "11949", "addr:state": "NY", "brand": "USPS", "collection_times": "Mo-Fr 17:00; Sa 13:00", "name": "USPS COLLECTION BOX - PO LOBBY", "note": "ON 12/24 AND 12/31, THIS BOX MAY BE COLLECTED AS EARLY AS 12 NOON.", "ref": "1194900008"}, "type": "Feature"}
{"geometry": {"coordinates": [-72.847455, 40.805228], "type": "Point"}, "id": "7E2ue0Bm5lF02TM7r4VP5GKMy6c=", "properties": {"@spider": "usps_collection_boxes", "addr:city": "MASTIC", "addr:country": "US", "addr:full": "1450 MONTAUK HWY", "addr:postcode": "11950", "addr:state": "NY", "brand": "USPS", "collection_times": "Mo-Fr 17:00; Sa 15:00", "name": "USPS COLLECTION BOX - BLUE BOX", "note": "ON 12/24 AND 12/31, THIS BOX MAY BE COLLECTED AS EARLY AS 12 NOON.", "ref": "1195000002"}, "type": "Feature"}
{"geometry": {"coordinates": [-72.8474666293, 40.8051755181], "type": "Point"}, "id": "kbhuI3yiZA62jp7HYVINlz9xO84=", "properties": {"@spider": "usps_collection_boxes", "addr:city": "MASTIC", "addr:country": "US", "addr:full": "1450 MONTAUK HWY", "addr:postcode": "11950", "addr:state": "NY", "brand": "USPS", "collection_times": "Mo-Fr 17:00; Sa 15:00", "name": "USPS COLLECTION BOX - BLUE BOX", "note": "ON 12/24 AND 12/31, THIS BOX MAY BE COLLECTED AS EARLY AS 12 NOON.", "ref": "1195000004"}, "type": "Feature"}
{"geometry": {"coordinates": [-72.847455, 40.805228], "type": "Point"}, "id": "yD0r69mX9IwLc197cP8hw2ZOJUM=", "properties": {"@spider": "usps_collection_boxes", "addr:city": "MASTIC", "addr:country": "US", "addr:full": "1450 MONTAUK HWY", "addr:postcode": "11950", "addr:state": "NY", "brand": "USPS", "collection_times": "Mo-Fr 17:00; Sa 15:00", "name": "USPS COLLECTION BOX - PO LOBBY", "note": "ON 12/24 AND 12/31, THIS BOX MAY BE COLLECTED AS EARLY AS 12 NOON.", "ref": "1195000006"}, "type": "Feature"}
{"geometry": {"coordinates": [-72.847468533, 40.805171074], "type": "Point"}, "id": "UaCRZdMdj3-us9yTU2b4ZGAp794=", "properties": {"@spider": "usps_collection_boxes", "addr:city": "MASTIC", "addr:country": "US", "addr:full": "1450 MONTAUK HWY", "addr:postcode": "11950", "addr:state": "NY", "brand": "USPS", "collection_times": "Mo-Fr 17:00; Sa 13:00", "name": "USPS COLLECTION BOX - PO LOBBY", "note": "ON 12/24 AND 12/31, THIS BOX MAY BE COLLECTED AS EARLY AS 12 NOON.", "ref": "1195000007"}, "type": "Feature"}
{"geometry": {"coordinates": [-72.851823, 40.768236], "type": "Point"}, "id": "wRSLF8Lkrxt5msJmzEXcBG8guRI=", "properties": {"@spider": "usps_collection_boxes", "addr:city": "MASTIC BEACH", "addr:country": "US", "addr:full": "110 MASTIC RD", "addr:postcode": "11951", "addr:state": "NY", "brand": "USPS", "collection_times": "Mo-Fr 17:00; Sa 15:30", "name": "USPS COLLECTION BOX - BLUE BOX", "note": "ON 12/24 AND 12/31, THIS BOX MAY BE COLLECTED AS EARLY AS 12 NOON.", "ref": "1195100002"}, "type": "Feature"}
{"geometry": {"coordinates": [-72.8518742867, 40.7680880504], "type": "Point"}, "id": "GmbMaq46oPHCvdjkw9Be7DEGpE4=", "properties": {"@spider": "usps_collection_boxes", "addr:city": "MASTIC BEACH", "addr:country": "US", "addr:full": "110 MASTIC RD", "addr:postcode": "11951", "addr:state": "NY", "brand": "USPS", "collection_times": "Mo-Fr 17:00; Sa 15:30", "name": "USPS COLLECTION BOX - BLUE BOX", "note": "ON 12/24 AND 12/31, THIS BOX MAY BE COLLECTED AS EARLY AS 12 NOON.", "ref": "1195100004"}, "type": "Feature"}
{"geometry": {"coordinates": [-72.851823, 40.768236], "type": "Point"}, "id": "-1pu_uSCvDzkeJ3b7IDXkkYQRww=", "properties": {"@spider": "usps_collection_boxes", "addr:city": "MASTIC BEACH", "addr:country": "US", "addr:full": "110 MASTIC RD", "addr:postcode": "11951", "addr:state": "NY", "brand": "USPS", "collection_times": "Mo-Fr 16:45; Sa 15:15", "name": "USPS COLLECTION BOX - PO LOBBY", "note": "ON 12/24 AND 12/31, THIS BOX MAY BE COLLECTED AS EARLY AS 12 NOON.", "ref": "1195100006"}, "type": "Feature"}
{"geometry": {"coordinates": [-72.851878865, 40.768079018], "type": "Point"}, "id": "XridQcf-X00K11LFqMtWey0AQWE=", "properties": {"@spider": "usps_collection_boxes", "addr:city": "MASTIC BEACH", "addr:country": "US", "addr:full": "110 MASTIC RD", "addr:postcode": "11951", "addr:state": "NY", "brand": "USPS", "collection_times": "Mo-Fr 17:00; Sa 13:00", "name": "USPS COLLECTION BOX - PO LOBBY", "note": "ON 12/24 AND 12/31, THIS BOX MAY BE COLLECTED AS EARLY AS 12 NOON.", "ref": "1195100007"}, "type": "Feature"}
{"geometry": {"coordinates": [-72.534469, 40.991649], "type": "Point"}, "id": "8meuCuk1aC09j0-5-5-iPE3PnAQ=", "properties": {"@spider": "usps_collection_boxes", "addr:city": "MATTITUCK", "addr:country": "US", "addr:full": "140 LOVE LN", "addr:postcode": "11952", "addr:state": "NY", "brand": "USPS", "collection_times": "Mo-Fr 17:00; Sa 15:00", "name": "USPS COLLECTION BOX - BLUE BOX", "note": "ON 12/24 AND 12/31, THIS BOX MAY BE COLLECTED AS EARLY AS 12 NOON.", "ref": "1195200003"}, "type": "Feature"}
{"geometry": {"coordinates": [-72.534469, 40.991649], "type": "Point"}, "id": "WkpI0JEKNWOBZQfkiyKqROBgAcs=", "properties": {"@spider": "usps_collection_boxes", "addr:city": "MATTITUCK", "addr:country": "US", "addr:full": "140 LOVE LN", "addr:postcode": "11952", "addr:state": "NY", "brand": "USPS", "collection_times": "Mo-Fr 17:00; Sa 15:00", "name": "USPS COLLECTION BOX - PO LOBBY", "note": "ON 12/24 AND 12/31, THIS BOX MAY BE COLLECTED AS EARLY AS 12 NOON.", "ref": "1195200006"}, "type": "Feature"}
{"geometry": {"coordinates": [-72.534439349, 40.991660569], "type": "Point"}, "id": "pbcHx7efXYUfZ__UJiQ2WbK9QVc=", "properties": {"@spider": "usps_collection_boxes", "addr:city": "MATTITUCK", "addr:country": "US", "addr:full": "140 LOVE LN", "addr:postcode": "11952", "addr:state": "NY", "brand": "USPS", "collection_times": "Mo-Fr 17:00; Sa 13:00", "name": "USPS COLLECTION BOX - PO LOBBY", "note": "ON 12/24 AND 12/31, THIS BOX MAY BE COLLECTED AS EARLY AS 12 NOON.", "ref": "1195200008"}, "type": "Feature"}
{"geometry": {"coordinates": [-72.9376189, 40.88045], "type": "Point"}, "id": "bWksmlLLw5NVUtrunsqwdRUTWSM=", "properties": {"@spider": "usps_collection_boxes", "addr:city": "MIDDLE ISLAND", "addr:country": "US", "addr:full": "399 ARTIST LAKE DR", "addr:postcode": "11953", "addr:state": "NY", "brand": "USPS", "collection_times": "Mo-Sa 11:00", "name": "USPS COLLECTION BOX - BLUE BOX", "ref": "1195300001"}, "type": "Feature"}
{"geometry": {"coordinates": [-72.943034, 40.882883], "type": "Point"}, "id": "NNlAy_kgYuo5aYkyDKyK7CY34wE=", "properties": {"@spider": "usps_collection_boxes", "addr:city": "MIDDLE ISLAND", "addr:country": "US", "addr:full": "780 MIDDLE COUNTRY RD", "addr:postcode": "11953", "addr:state": "NY", "brand": "USPS", "collection_times": "Mo-Fr 17:00; Sa 15:00", "name": "USPS COLLECTION BOX - BLUE BOX", "note": "ON 12/24 AND 12/31, THIS BOX MAY BE COLLECTED AS EARLY AS 12 NOON.", "ref": "1195300003"}, "type": "Feature"}
{"geometry": {"coordinates": [-72.943158, 40.882881], "type": "Point"}, "id": "i_sP5RV4Snjpv5OYUEIy7Vnudoo=", "properties": {"@spider": "usps_collection_boxes", "addr:city": "MIDDLE ISLAND", "addr:country": "US", "addr:full": "780 MIDDLE COUNTRY RD", "addr:postcode": "11953", "addr:state": "NY", "brand": "USPS", "collection_times": "Mo-Fr 17:00; Sa 15:00", "name": "USPS COLLECTION BOX - BLUE BOX", "note": "ON 12/24 AND 12/31, THIS BOX MAY BE COLLECTED AS EARLY AS 12 NOON.", "ref": "1195300004"}, "type": "Feature"}
{"geometry": {"coordinates": [-72.943158, 40.882881], "type": "Point"}, "id": "JgRs6ftN1K7J5DAnOdp1m1SGAdU=", "properties": {"@spider": "usps_collection_boxes", "addr:city": "MIDDLE ISLAND", "addr:country": "US", "addr:full": "780 MIDDLE COUNTRY RD", "addr:postcode": "11953", "addr:state": "NY", "brand": "USPS", "collection_times": "Mo-Fr 16:45; Sa 14:45", "name": "USPS COLLECTION BOX - PO LOBBY", "note": "ON 12/24 AND 12/31, THIS BOX MAY BE COLLECTED AS EARLY AS 12 NOON.", "ref": "1195300008"}, "type": "Feature"}
{"geometry": {"coordinates": [-72.942832557, 40.882893081], "type": "Point"}, "id": "qMzfJUuNmAVPuBIzqB4UQracceA=", "properties": {"@spider": "usps_collection_boxes", "addr:city": "MIDDLE ISLAND", "addr:country": "US", "addr:full": "780 MIDDLE COUNTRY RD", "addr:postcode": "11953", "addr:state": "NY", "brand": "USPS", "collection_times": "Mo-Fr 17:00; Sa 13:00", "name": "USPS COLLECTION BOX - PO LOBBY", "note": "ON 12/24 AND 12/31, THIS BOX MAY BE COLLECTED AS EARLY AS 12 NOON.", "ref": "1195300009"}, "type": "Feature"}
{"geometry": {"coordinates": [-71.938946121, 41.0756931715], "type": "Point"}, "id": "41wIraPFjqcKVvFGhhD0U2m_Fqs=", "properties": {"@spider": "usps_collection_boxes", "addr:city": "MONTAUK", "addr:country": "US", "addr:full": "500 W LAKE DR", "addr:postcode": "11954", "addr:state": "NY", "brand": "USPS", "collection_times": "Mo-Sa 10:30", "name": "USPS COLLECTION BOX - BLUE BOX", "ref": "1195400002"}, "type": "Feature"}
{"geometry": {"coordinates": [-71.9446319, 41.034281], "type": "Point"}, "id": "cFXJrcmMwYTiOlyG5s-BAxEP2-0=", "properties": {"@spider": "usps_collection_boxes", "addr:city": "MONTAUK", "addr:country": "US", "addr:full": "742 MONTAUK HWY", "addr:postcode": "11954", "addr:state": "NY", "brand": "USPS", "collection_times": "Mo-Sa 10:30", "name": "USPS COLLECTION BOX - BLUE BOX", "ref": "1195400003"}, "type": "Feature"}
{"geometry": {"coordinates": [-71.943366, 41.036335], "type": "Point"}, "id": "ceJ_OB814H_-vgjpgoprkN0m26c=", "properties": {"@spider": "usps_collection_boxes", "addr:city": "MONTAUK", "addr:country": "US", "addr:full": "73 S EUCLID AVE", "addr:postcode": "11954", "addr:state": "NY", "brand": "USPS", "collection_times": "Mo-Fr 16:45; Sa 15:00", "name": "USPS COLLECTION BOX - BLUE BOX", "note": "ON 12/24 AND 12/31, THIS BOX MAY BE COLLECTED AS EARLY AS 12 NOON.", "ref": "1195400004"}, "type": "Feature"}
{"geometry": {"coordinates": [-71.943366, 41.036335], "type": "Point"}, "id": "hD78p5CuZKqJgfXzAlkZ5x-nG6E=", "properties": {"@spider": "usps_collection_boxes", "addr:city": "MONTAUK", "addr:country": "US", "addr:full": "73 S EUCLID AVE", "addr:postcode": "11954", "addr:state": "NY", "brand": "USPS", "collection_times": "Mo-Fr 16:45; Sa 15:00", "name": "USPS COLLECTION BOX - PO LOBBY", "note": "ON 12/24 AND 12/31, THIS BOX MAY BE COLLECTED AS EARLY AS 12 NOON.", "ref": "1195400008"}, "type": "Feature"}
{"geometry": {"coordinates": [-71.943375288, 41.036323986], "type": "Point"}, "id": "sWnJ8t1AgNB64R7YLgRTValZMlQ=", "properties": {"@spider": "usps_collection_boxes", "addr:city": "MONTAUK", "addr:country": "US", "addr:full": "73 S EUCLID AVE", "addr:postcode": "11954", "addr:state": "NY", "brand": "USPS", "collection_times": "Mo-Fr 17:00; Sa 13:00", "name": "USPS COLLECTION BOX - PO LOBBY", "note": "ON 12/24 AND 12/31, THIS BOX MAY BE COLLECTED AS EARLY AS 12 NOON.", "ref": "1195400009"}, "type": "Feature"}
{"geometry": {"coordinates": [-72.827598, 40.807892], "type": "Point"}, "id": "2MNQ9dsxB8OddG8NGPXF06MwmGk=", "properties": {"@spider": "usps_collection_boxes", "addr:city": "MORICHES", "addr:country": "US", "addr:full": "290 MONTAUK HWY", "addr:postcode": "11955", "addr:state": "NY", "brand": "USPS", "collection_times": "Mo-Fr 17:00; Sa 13:00", "name": "USPS COLLECTION BOX - BLUE BOX", "note": "ON 12/24 AND 12/31, THIS BOX MAY BE COLLECTED AS EARLY AS 12 NOON.", "ref": "1195500001"}, "type": "Feature"}
{"geometry": {"coordinates": [-72.8240287, 40.808545], "type": "Point"}, "id": "sIPwt4lnY4Oon9NjUCGT7K6-wco=", "properties": {"@spider": "usps_collection_boxes", "addr:city": "MORICHES", "addr:country": "US", "addr:full": "225 MONTAUK HWY", "addr:postcode": "11955", "addr:state": "NY", "brand": "USPS", "collection_times": "Mo-Sa 11:30", "name": "USPS COLLECTION BOX - BLUE BOX", "ref": "1195500004"}, "type": "Feature"}
{"geometry": {"coordinates": [-72.8204155, 40.818405], "type": "Point"}, "id": "KyIKcG7iXJa0GtvGJB0touA6xB0=", "properties": {"@spider": "usps_collection_boxes", "addr:city": "MORICHES", "addr:country": "US", "addr:full": "50 CLUBHOUSE CT", "addr:postcode": "11955", "addr:state": "NY", "brand": "USPS", "collection_times": "Mo-Sa 11:00", "name": "USPS COLLECTION BOX - BLUE BOX", "ref": "1195500005"}, "type": "Feature"}
{"geometry": {"coordinates": [-72.82749, 40.807923], "type": "Point"}, "id": "G88YOzZcNztDPXGsAklo13X1xQA=", "properties": {"@spider": "usps_collection_boxes", "addr:city": "MORICHES", "addr:country": "US", "addr:full": "290 MONTAUK HWY", "addr:postcode": "11955", "addr:state": "NY", "brand": "USPS", "collection_times": "Mo-Fr 17:00; Sa 13:00", "name": "USPS COLLECTION BOX - PO LOBBY", "note": "ON 12/24 AND 12/31, THIS BOX MAY BE COLLECTED AS EARLY AS 12 NOON.", "ref": "1195500007"}, "type": "Feature"}
{"geometry": {"coordinates": [-72.827668918, 40.807881485], "type": "Point"}, "id": "t03IUJL_b3Y7i6v5px4-3DA9aKA=", "properties": {"@spider": "usps_collection_boxes", "addr:city": "MORICHES", "addr:country": "US", "addr:full": "290 MONTAUK HWY", "addr:postcode": "11955", "addr:state": "NY", "brand": "USPS", "collection_times": "Mo-Fr 17:00; Sa 13:00", "name": "USPS COLLECTION BOX - PO LOBBY", "note": "ON 12/24 AND 12/31, THIS BOX MAY BE COLLECTED AS EARLY AS 12 NOON.", "ref": "1195500008"}, "type": "Feature"}
{"geometry": {"coordinates": [-72.471626, 40.99077], "type": "Point"}, "id": "ASEGdBfFOHVbvb589MuiYd29_fs=", "properties": {"@spider": "usps_collection_boxes", "addr:city": "NEW SUFFOLK", "addr:country": "US", "addr:full": "375 1ST ST", "addr:postcode": "11956", "addr:state": "NY", "brand": "USPS", "collection_times": "Mo-Fr 17:00; Sa 12:00", "name": "USPS COLLECTION BOX - BLUE BOX", "note": "ON 12/24 AND 12/31, THIS BOX MAY BE COLLECTED AS EARLY AS 12 NOON.", "ref": "1195600001"}, "type": "Feature"}
{"geometry": {"coordinates": [-72.47158, 40.990682], "type": "Point"}, "id": "UrdpOdffspdwKRCkc9PR1S1SU0U=", "properties": {"@spider": "usps_collection_boxes", "addr:city": "NEW SUFFOLK", "addr:country": "US", "addr:full": "375 1ST ST", "addr:postcode": "11956", "addr:state": "NY", "brand": "USPS", "collection_times": "Mo-Fr 17:00; Sa 12:00", "name": "USPS COLLECTION BOX - PO LOBBY", "note": "ON 12/24 AND 12/31, THIS BOX MAY BE COLLECTED AS EARLY AS 12 NOON.", "ref": "1195600003"}, "type": "Feature"}
{"geometry": {"coordinates": [-72.471649247, 40.990784752], "type": "Point"}, "id": "BOweDZVNjLePNGhJzk0XXsfgA38=", "properties": {"@spider": "usps_collection_boxes", "addr:city": "NEW SUFFOLK", "addr:country": "US", "addr:full": "375 1ST ST", "addr:postcode": "11956", "addr:state": "NY", "brand": "USPS", "collection_times": "Mo-Fr 17:00; Sa 12:00", "name": "USPS COLLECTION BOX - PO LOBBY", "note": "ON 12/24 AND 12/31, THIS BOX MAY BE COLLECTED AS EARLY AS 12 NOON.", "ref": "1195600004"}, "type": "Feature"}
{"geometry": {"coordinates": [-72.303191197, 41.140076027], "type": "Point"}, "id": "9CNAdbOJz2oHSyi8tRINE4uHbmI=", "properties": {"@spider": "usps_collection_boxes", "addr:city": "ORIENT", "addr:country": "US", "addr:full": "980 VILLAGE LN", "addr:postcode": "11957", "addr:state": "NY", "brand": "USPS", "collection_times": "Mo-Fr 16:30; Sa 11:30", "name": "USPS COLLECTION BOX - BLUE BOX", "note": "ON 12/24 AND 12/31, THIS BOX MAY BE COLLECTED AS EARLY AS 12 NOON.", "ref": "1195700001"}, "type": "Feature"}
{"geometry": {"coordinates": [-72.303191197, 41.140076027], "type": "Point"}, "id": "9SK_j-sm2BnQnoS_QbBMuc9FPu4=", "properties": {"@spider": "usps_collection_boxes", "addr:city": "ORIENT", "addr:country": "US", "addr:full": "980 VILLAGE LN", "addr:postcode": "11957", "addr:state": "NY", "brand": "USPS", "collection_times": "Mo-Fr 16:30; Sa 11:30", "name": "USPS COLLECTION BOX - PO LOBBY", "note": "ON 12/24 AND 12/31, THIS BOX MAY BE COLLECTED AS EARLY AS 12 NOON.", "ref": "1195700004"}, "type": "Feature"}
{"geometry": {"coordinates": [-72.303191197, 41.140076027], "type": "Point"}, "id": "wFy0x5yFgTtbpHhfG0_zmIlqI70=", "properties": {"@spider": "usps_collection_boxes", "addr:city": "ORIENT", "addr:country": "US", "addr:full": "980 VILLAGE LN", "addr:postcode": "11957", "addr:state": "NY", "brand": "USPS", "collection_times": "Mo-Fr 17:00; Sa 12:00", "name": "USPS COLLECTION BOX - PO LOBBY", "note": "ON 12/24 AND 12/31, THIS BOX MAY BE COLLECTED AS EARLY AS 12 NOON.", "ref": "1195700005"}, "type": "Feature"}
{"geometry": {"coordinates": [-72.460908, 41.046309], "type": "Point"}, "id": "QJdA70EYgIdr9XyMY4tV02dtCxc=", "properties": {"@spider": "usps_collection_boxes", "addr:city": "PECONIC", "addr:country": "US", "addr:full": "2575 PECONIC LN", "addr:postcode": "11958", "addr:state": "NY", "brand": "USPS", "collection_times": "Mo-Fr 17:00; Sa 13:00", "name": "USPS COLLECTION BOX - BLUE BOX", "note": "ON 12/24 AND 12/31, THIS BOX MAY BE COLLECTED AS EARLY AS 12 NOON.", "ref": "1195800001"}, "type": "Feature"}
{"geometry": {"coordinates": [-72.460908, 41.046309], "type": "Point"}, "id": "WdKZLB73VrHE-H9tTd5x0EpMG3M=", "properties": {"@spider": "usps_collection_boxes", "addr:city": "PECONIC", "addr:country": "US", "addr:full": "2575 PECONIC LN", "addr:postcode": "11958", "addr:state": "NY", "brand": "USPS", "collection_times": "Mo-Fr 17:00; Sa 13:00", "name": "USPS COLLECTION BOX - PO LOBBY", "note": "ON 12/24 AND 12/31, THIS BOX MAY BE COLLECTED AS EARLY AS 12 NOON.", "ref": "1195800004"}, "type": "Feature"}
{"geometry": {"coordinates": [-72.460974147, 41.046307099], "type": "Point"}, "id": "j1S54rkfy9ZM1G7o5FFpw2gS_1I=", "properties": {"@spider": "usps_collection_boxes", "addr:city": "PECONIC", "addr:country": "US", "addr:full": "2575 PECONIC LN", "addr:postcode": "11958", "addr:state": "NY", "brand": "USPS", "collection_times": "Mo-Fr 17:00; Sa 13:00", "name": "USPS COLLECTION BOX - PO LOBBY", "note": "ON 12/24 AND 12/31, THIS BOX MAY BE COLLECTED AS EARLY AS 12 NOON.", "ref": "1195800005"}, "type": "Feature"}
{"geometry": {"coordinates": [-72.607398, 40.817869], "type": "Point"}, "id": "U9mKpra0B3NJugNl1OoevLnm9Ac=", "properties": {"@spider": "usps_collection_boxes", "addr:city": "QUOGUE", "addr:country": "US", "addr:full": "6 MIDLAND ST", "addr:postcode": "11959", "addr:state": "NY", "brand": "USPS", "collection_times": "Mo-Fr 17:00; Sa 13:00", "name": "USPS COLLECTION BOX - BLUE BOX", "note": "ON 12/24 AND 12/31, THIS BOX MAY BE COLLECTED AS EARLY AS 12 NOON.", "ref": "1195900002"}, "type": "Feature"}
{"geometry": {"coordinates": [-72.607427, 40.817893], "type": "Point"}, "id": "5NPGtoJOVEKKoxbAJlCJv7U4j4Q=", "properties": {"@spider": "usps_collection_boxes", "addr:city": "QUOGUE", "addr:country": "US", "addr:full": "6 MIDLAND ST", "addr:postcode": "11959", "addr:state": "NY", "brand": "USPS", "collection_times": "Mo-Fr 17:00; Sa 13:00", "name": "USPS COLLECTION BOX - PO LOBBY", "note": "ON 12/24 AND 12/31, THIS BOX MAY BE COLLECTED AS EARLY AS 12 NOON.", "ref": "1195900004"}, "type": "Feature"}
{"geometry": {"coordinates": [-72.607536461, 40.817845667], "type": "Point"}, "id": "ZgneuqHCM_gGwqSPPrT1rTURATg=", "properties": {"@spider": "usps_collection_boxes", "addr:city": "QUOGUE", "addr:country": "US", "addr:full": "6 MIDLAND ST", "addr:postcode": "11959", "addr:state": "NY", "brand": "USPS", "collection_times": "Mo-Fr 17:00; Sa 13:00", "name": "USPS COLLECTION BOX - PO LOBBY", "note": "ON 12/24 AND 12/31, THIS BOX MAY BE COLLECTED AS EARLY AS 12 NOON.", "ref": "1195900005"}, "type": "Feature"}
{"geometry": {"coordinates": [-72.707311, 40.807572], "type": "Point"}, "id": "yhG21clFOxA2cl2lN_7kSwtH5BI=", "properties": {"@spider": "usps_collection_boxes", "addr:city": "REMSENBURG", "addr:country": "US", "addr:full": "137 MAIN ST", "addr:postcode": "11960", "addr:state": "NY", "brand": "USPS", "collection_times": "Mo-Fr 16:30; Sa 13:00", "name": "USPS COLLECTION BOX - BLUE BOX", "note": "ON 12/24 AND 12/31, THIS BOX MAY BE COLLECTED AS EARLY AS 12 NOON.", "ref": "1196000002"}, "type": "Feature"}
{"geometry": {"coordinates": [-72.707311, 40.807572], "type": "Point"}, "id": "qOKZPET7IVj9KMGWB6oWSNZfig4=", "properties": {"@spider": "usps_collection_boxes", "addr:city": "REMSENBURG", "addr:country": "US", "addr:full": "137 MAIN ST", "addr:postcode": "11960", "addr:state": "NY", "brand": "USPS", "collection_times": "Mo-Fr 17:00; Sa 13:30", "name": "USPS COLLECTION BOX - PO LOBBY", "note": "ON 12/24 AND 12/31, THIS BOX MAY BE COLLECTED AS EARLY AS 12 NOON.", "ref": "1196000004"}, "type": "Feature"}
{"geometry": {"coordinates": [-72.707351527, 40.80756551], "type": "Point"}, "id": "7ioAv9kdm14xo5BV8HKzFe8rmSI=", "properties": {"@spider": "usps_collection_boxes", "addr:city": "REMSENBURG", "addr:country": "US", "addr:full": "137 S COUNTRY RD", "addr:postcode": "11960", "addr:state": "NY", "brand": "USPS", "collection_times": "Mo-Fr 17:00; Sa 13:30", "name": "USPS COLLECTION BOX - PO LOBBY", "note": "ON 12/24 AND 12/31, THIS BOX MAY BE COLLECTED AS EARLY AS 12 NOON.", "ref": "1196000005"}, "type": "Feature"}
{"geometry": {"coordinates": [-72.898225, 40.892817], "type": "Point"}, "id": "JJeEoN-ehboDgFv74vBeCxfidSM=", "properties": {"@spider": "usps_collection_boxes", "addr:city": "RIDGE", "addr:country": "US", "addr:full": "1700 ROUTE 25", "addr:postcode": "11961", "addr:state": "NY", "brand": "USPS", "collection_times": "Mo-Fr 17:00; Sa 15:30", "name": "USPS COLLECTION BOX - BLUE BOX", "note": "ON 12/24 AND 12/31, THIS BOX MAY BE COLLECTED AS EARLY AS 12 NOON.", "ref": "1196100001"}, "type": "Feature"}
{"geometry": {"coordinates": [-72.898225, 40.892817], "type": "Point"}, "id": "oJOrAGYOQxZfM97HIyfjBMf6xto=", "properties": {"@spider": "usps_collection_boxes", "addr:city": "RIDGE", "addr:country": "US", "addr:full": "1700 ROUTE 25", "addr:postcode": "11961", "addr:state": "NY", "brand": "USPS", "collection_times": "Mo-Fr 17:00; Sa 15:30", "name": "USPS COLLECTION BOX - BLUE BOX", "note": "ON 12/24 AND 12/31, THIS BOX MAY BE COLLECTED AS EARLY AS 12 NOON.", "ref": "1196100002"}, "type": "Feature"}
{"geometry": {"coordinates": [-72.8940488723, 40.9271186788], "type": "Point"}, "id": "gsNICnH0l6dHKalr2JBC0ojm11w=", "properties": {"@spider": "usps_collection_boxes", "addr:city": "RIDGE", "addr:country": "US", "addr:full": "2 GLEN DR", "addr:postcode": "11961", "addr:state": "NY", "brand": "USPS", "collection_times": "Mo-Sa 09:00", "name": "USPS COLLECTION BOX - BLUE BOX", "ref": "1196100005"}, "type": "Feature"}
{"geometry": {"coordinates": [-72.891364143, 40.9157739718], "type": "Point"}, "id": "cLo8KYgB4xj-vSxzFMDwzataUuw=", "properties": {"@spider": "usps_collection_boxes", "addr:city": "RIDGE", "addr:country": "US", "addr:full": "402 BRIDGEWATER DR", "addr:postcode": "11961", "addr:state": "NY", "brand": "USPS", "collection_times": "Mo-Sa 09:00", "name": "USPS COLLECTION BOX - BLUE BOX", "ref": "1196100006"}, "type": "Feature"}
{"geometry": {"coordinates": [-72.8983359, 40.892558], "type": "Point"}, "id": "nFz699cQ6Hq0nGBTfGucsb5UUdY=", "properties": {"@spider": "usps_collection_boxes", "addr:city": "RIDGE", "addr:country": "US", "addr:full": "1700 ROUTE 25", "addr:postcode": "11961", "addr:state": "NY", "brand": "USPS", "collection_times": "Mo-Fr 17:00; Sa 15:30", "name": "USPS COLLECTION BOX - PO LOBBY", "note": "ON 12/24 AND 12/31, THIS BOX MAY BE COLLECTED AS EARLY AS 12 NOON.", "ref": "1196100011"}, "type": "Feature"}
{"geometry": {"coordinates": [-72.8984707777, 40.8926883797], "type": "Point"}, "id": "uvhohdhRkjtGXWagTx19rQCgzfY=", "properties": {"@spider": "usps_collection_boxes", "addr:city": "RIDGE", "addr:country": "US", "addr:full": "1700 MIDDLE COUNTRY RD", "addr:postcode": "11961", "addr:state": "NY", "brand": "USPS", "collection_times": "Mo-Fr 17:00; Sa 13:00", "name": "USPS COLLECTION BOX - PO LOBBY", "note": "ON 12/24 AND 12/31, THIS BOX MAY BE COLLECTED AS EARLY AS 12 NOON.", "ref": "1196100012"}, "type": "Feature"}
{"geometry": {"coordinates": [-72.278227, 40.926221], "type": "Point"}, "id": "slPWE15CynfSBxy__Y4hOWYy_hY=", "properties": {"@spider": "usps_collection_boxes", "addr:city": "SAGAPONACK", "addr:country": "US", "addr:full": "542 SAGG MAIN ST", "addr:postcode": "11962", "addr:state": "NY", "brand": "USPS", "collection_times": "Mo-Fr 15:45; Sa 13:00", "name": "USPS COLLECTION BOX - BLUE BOX", "note": "ON 12/24 AND 12/31, THIS BOX MAY BE COLLECTED AS EARLY AS 12 NOON.", "ref": "1196200001"}, "type": "Feature"}
{"geometry": {"coordinates": [-72.2784926696, 40.9279762639], "type": "Point"}, "id": "pqlGiXVrdPrEetY2x4U2oLSkklE=", "properties": {"@spider": "usps_collection_boxes", "addr:city": "SAGAPONACK", "addr:country": "US", "addr:full": "542 MAIN ST", "addr:postcode": "11962", "addr:state": "NY", "brand": "USPS", "collection_times": "Mo-Fr 15:45; Sa 13:00", "name": "USPS COLLECTION BOX - PO LOBBY", "note": "ON 12/24 AND 12/31, THIS BOX MAY BE COLLECTED AS EARLY AS 12 NOON.", "ref": "1196200003"}, "type": "Feature"}
{"geometry": {"coordinates": [-72.278208281, 40.926101386], "type": "Point"}, "id": "OmJ3wGf9j6mVb5WLci35Cm8-1hU=", "properties": {"@spider": "usps_collection_boxes", "addr:city": "SAGAPONACK", "addr:country": "US", "addr:full": "542 SAGG MAIN ST", "addr:postcode": "11962", "addr:state": "NY", "brand": "USPS", "collection_times": "Mo-Fr 16:00; Sa 13:00", "name": "USPS COLLECTION BOX - PO LOBBY", "note": "ON 12/24 AND 12/31, THIS BOX MAY BE COLLECTED AS EARLY AS 12 NOON.", "ref": "1196200004"}, "type": "Feature"}
{"geometry": {"coordinates": [-72.296815, 41.001777], "type": "Point"}, "id": "XZKj3lP-2rbzvzc3lf3PlWFdMZ8=", "properties": {"@spider": "usps_collection_boxes", "addr:city": "SAG HARBOR", "addr:country": "US", "addr:full": "21 LONG ISLAND AVE", "addr:postcode": "11963", "addr:state": "NY", "brand": "USPS", "collection_times": "Mo-Fr 17:00; Sa 15:00", "name": "USPS COLLECTION BOX - BLUE BOX", "note": "ON 12/24 AND 12/31, THIS BOX MAY BE COLLECTED AS EARLY AS 12 NOON.", "ref": "1196300002"}, "type": "Feature"}
{"geometry": {"coordinates": [-72.3392968, 40.995938], "type": "Point"}, "id": "k_KBdq1564TcCTQ8DVUN0JMlMgg=", "properties": {"@spider": "usps_collection_boxes", "addr:city": "SAG HARBOR", "addr:country": "US", "addr:full": "3500 NOYAC RD", "addr:postcode": "11963", "addr:state": "NY", "brand": "USPS", "collection_times": "Mo-Sa 10:00", "name": "USPS COLLECTION BOX - BLUE BOX", "ref": "1196300005"}, "type": "Feature"}
{"geometry": {"coordinates": [-72.295536, 41.001429], "type": "Point"}, "id": "t_L9eahXMq3P2XXx_Eik7LPLCY8=", "properties": {"@spider": "usps_collection_boxes", "addr:city": "SAG HARBOR", "addr:country": "US", "addr:full": "34 MAIN ST", "addr:postcode": "11963", "addr:state": "NY", "brand": "USPS", "collection_times": "Mo-Fr 16:00; Sa 15:00", "name": "USPS COLLECTION BOX - BLUE BOX", "note": "ON 12/24 AND 12/31, THIS BOX MAY BE COLLECTED AS EARLY AS 12 NOON.", "ref": "1196300007"}, "type": "Feature"}
{"geometry": {"coordinates": [-72.296815, 41.001777], "type": "Point"}, "id": "Iwp0MMwQ__kDzhbXWH8arDE1fSs=", "properties": {"@spider": "usps_collection_boxes", "addr:city": "SAG HARBOR", "addr:country": "US", "addr:full": "21 LONG ISLAND AVE", "addr:postcode": "11963", "addr:state": "NY", "brand": "USPS", "collection_times": "Mo-Fr 17:00; Sa 15:00", "name": "USPS COLLECTION BOX - PO LOBBY", "note": "ON 12/24 AND 12/31, THIS BOX MAY BE COLLECTED AS EARLY AS 12 NOON.", "ref": "1196300009"}, "type": "Feature"}
{"geometry": {"coordinates": [-72.296776714, 41.0019779986], "type": "Point"}, "id": "nXA-6M--_rmYlZhA9K8Rjud7eLQ=", "properties": {"@spider": "usps_collection_boxes", "addr:city": "SAG HARBOR", "addr:country": "US", "addr:full": "21 LONG ISLAND AVE", "addr:postcode": "11963", "addr:state": "NY", "brand": "USPS", "collection_times": "Mo-Fr 17:00; Sa 13:00", "name": "USPS COLLECTION BOX - PO LOBBY", "note": "ON 12/24 AND 12/31, THIS BOX MAY BE COLLECTED AS EARLY AS 12 NOON.", "ref": "1196300011"}, "type": "Feature"}
{"geometry": {"coordinates": [-72.339116, 41.069784], "type": "Point"}, "id": "Sj5FwLVcBINaAtjR6N66TLudsMo=", "properties": {"@spider": "usps_collection_boxes", "addr:city": "SHELTER ISLAND", "addr:country": "US", "addr:full": "45 N FERRY RD", "addr:postcode": "11964", "addr:state": "NY", "brand": "USPS", "collection_times": "Mo-Fr 16:00; Sa 13:00", "name": "USPS COLLECTION BOX - BLUE BOX", "note": "ON 12/24 AND 12/31, THIS BOX MAY BE COLLECTED AS EARLY AS 12 NOON.", "ref": "1196400001"}, "type": "Feature"}
{"geometry": {"coordinates": [-72.339068, 41.069871], "type": "Point"}, "id": "2B-BsoPFpnflR8rrG5dUN4UH-Lg=", "properties": {"@spider": "usps_collection_boxes", "addr:city": "SHELTER ISLAND", "addr:country": "US", "addr:full": "45 N FERRY RD", "addr:postcode": "11964", "addr:state": "NY", "brand": "USPS", "collection_times": "Mo-Fr 16:00; Sa 13:00", "name": "USPS COLLECTION BOX - BLUE BOX", "note": "ON 12/24 AND 12/31, THIS BOX MAY BE COLLECTED AS EARLY AS 12 NOON.", "ref": "1196400002"}, "type": "Feature"}
{"geometry": {"coordinates": [-72.3347983796, 41.0624706148], "type": "Point"}, "id": "ME1JybucE9chsspEzaNJFVx9V6c=", "properties": {"@spider": "usps_collection_boxes", "addr:city": "SHELTER ISLAND", "addr:country": "US", "addr:full": "1000 STATE RD", "addr:postcode": "11964", "addr:state": "NY", "brand": "USPS", "collection_times": "Mo-Fr 16:00; Sa 13:00", "name": "USPS COLLECTION BOX - PO LOBBY", "note": "ON 12/24 AND 12/31, THIS BOX MAY BE COLLECTED AS EARLY AS 12 NOON.", "ref": "1196400004"}, "type": "Feature"}
{"geometry": {"coordinates": [-72.339137919, 41.069626743], "type": "Point"}, "id": "WLcYaQPBxCwfYbViYvvby5m3yfQ=", "properties": {"@spider": "usps_collection_boxes", "addr:city": "SHELTER ISLAND", "addr:country": "US", "addr:full": "45 N FERRY RD", "addr:postcode": "11964", "addr:state": "NY", "brand": "USPS", "collection_times": "Mo-Fr 16:00; Sa 13:00", "name": "USPS COLLECTION BOX - PO LOBBY", "note": "ON 12/24 AND 12/31, THIS BOX MAY BE COLLECTED AS EARLY AS 12 NOON.", "ref": "1196400005"}, "type": "Feature"}
{"geometry": {"coordinates": [-72.354859, 41.082923], "type": "Point"}, "id": "77EMMx6_mXUlaMTaWz-F3GPtGZs=", "properties": {"@spider": "usps_collection_boxes", "addr:city": "SHELTER IS HT", "addr:country": "US", "addr:full": "6 GRAND AVE", "addr:postcode": "11965", "addr:state": "NY", "brand": "USPS", "collection_times": "Mo-Fr 16:00; Sa 13:00", "name": "USPS COLLECTION BOX - BLUE BOX", "note": "ON 12/24 AND 12/31, THIS BOX MAY BE COLLECTED AS EARLY AS 12 NOON.", "ref": "1196500001"}, "type": "Feature"}
{"geometry": {"coordinates": [-72.35494, 41.082851], "type": "Point"}, "id": "OXRwmG0W7igc2GjhfEHz7DqWkXI=", "properties": {"@spider": "usps_collection_boxes", "addr:city": "SHELTER IS HT", "addr:country": "US", "addr:full": "6 GRAND AVE", "addr:postcode": "11965", "addr:state": "NY", "brand": "USPS", "collection_times": "Mo-Fr 16:00; Sa 13:00", "name": "USPS COLLECTION BOX - BLUE BOX", "note": "ON 12/24 AND 12/31, THIS BOX MAY BE COLLECTED AS EARLY AS 12 NOON.", "ref": "1196500002"}, "type": "Feature"}
{"geometry": {"coordinates": [-72.35494, 41.082851], "type": "Point"}, "id": "m4F5fWykaDc00qOoY-xTCWVtCe0=", "properties": {"@spider": "usps_collection_boxes", "addr:city": "SHELTER IS HT", "addr:country": "US", "addr:full": "6 GRAND AVE", "addr:postcode": "11965", "addr:state": "NY", "brand": "USPS", "collection_times": "Mo-Fr 16:00; Sa 13:00", "name": "USPS COLLECTION BOX - PO LOBBY", "note": "ON 12/24 AND 12/31, THIS BOX MAY BE COLLECTED AS EARLY AS 12 NOON.", "ref": "1196500005"}, "type": "Feature"}
{"geometry": {"coordinates": [-72.3548446107, 41.0829633383], "type": "Point"}, "id": "rc1L9KbnUtpyiq1wu3V_JUvsSek=", "properties": {"@spider": "usps_collection_boxes", "addr:city": "SHELTER IS HT", "addr:country": "US", "addr:full": "6 GRAND AVE", "addr:postcode": "11965", "addr:state": "NY", "brand": "USPS", "collection_times": "Mo-Fr 16:00; Sa 13:00", "name": "USPS COLLECTION BOX - PO LOBBY", "note": "ON 12/24 AND 12/31, THIS BOX MAY BE COLLECTED AS EARLY AS 12 NOON.", "ref": "1196500006"}, "type": "Feature"}
{"geometry": {"coordinates": [-72.8649086788, 40.7810030924], "type": "Point"}, "id": "pTysUprY_47aVcK1p4dr1deNHl4=", "properties": {"@spider": "usps_collection_boxes", "addr:city": "SHIRLEY", "addr:country": "US", "addr:full": "425 WILLIAM FLOYD PKW", "addr:postcode": "11967", "addr:state": "NY", "brand": "USPS", "collection_times": "Mo-Sa 09:00", "name": "USPS COLLECTION BOX - BLUE BOX", "ref": "1196700001"}, "type": "Feature"}
{"geometry": {"coordinates": [-72.8611771, 40.804653], "type": "Point"}, "id": "YU3gD3tpMHBrVs7g5E6cwtYArcA=", "properties": {"@spider": "usps_collection_boxes", "addr:city": "SHIRLEY", "addr:country": "US", "addr:full": "999 MONTAUK HWY", "addr:postcode": "11967", "addr:state": "NY", "brand": "USPS", "collection_times": "Mo-Sa 10:00", "name": "USPS COLLECTION BOX - BLUE BOX", "ref": "1196700003"}, "type": "Feature"}
{"geometry": {"coordinates": [-72.8853829, 40.836309], "type": "Point"}, "id": "iCQN2ptw65h2sQ-6QG6o_0vx8SE=", "properties": {"@spider": "usps_collection_boxes", "addr:city": "SHIRLEY", "addr:country": "US", "addr:full": "451 GLEN DR", "addr:postcode": "11967", "addr:state": "NY", "brand": "USPS", "collection_times": "Mo-Sa 11:30", "name": "USPS COLLECTION BOX - BLUE BOX", "ref": "1196700005"}, "type": "Feature"}
{"geometry": {"coordinates": [-72.8871394, 40.840614], "type": "Point"}, "id": "G38tezy59Xm18KGaZR5vYCefSJk=", "properties": {"@spider": "usps_collection_boxes", "addr:city": "SHIRLEY", "addr:country": "US", "addr:full": "1500 WM FLOYD PKWY", "addr:postcode": "11967", "addr:state": "NY", "brand": "USPS", "collection_times": "Mo-Sa 11:30", "name": "USPS COLLECTION BOX - BLUE BOX", "ref": "1196700006"}, "type": "Feature"}
{"geometry": {"coordinates": [-72.870018, 40.800823], "type": "Point"}, "id": "yXFxMIRNah24l8pWAPfGTyRZFw8=", "properties": {"@spider": "usps_collection_boxes", "addr:city": "SHIRLEY", "addr:country": "US", "addr:full": "800 MONTAUK HWY", "addr:postcode": "11967", "addr:state": "NY", "brand": "USPS", "collection_times": "Mo-Fr 17:00; Sa 15:30", "name": "USPS COLLECTION BOX - BLUE BOX", "note": "ON 12/24 AND 12/31, THIS BOX MAY BE COLLECTED AS EARLY AS 12 NOON.", "ref": "1196700009"}, "type": "Feature"}
{"geometry": {"coordinates": [-72.8688624, 40.771999], "type": "Point"}, "id": "8Zw5DbKCNh8Sy5U6uQQLVdTICLs=", "properties": {"@spider": "usps_collection_boxes", "addr:city": "SHIRLEY", "addr:country": "US", "addr:full": "2 CORACI BLVD", "addr:postcode": "11967", "addr:state": "NY", "brand": "USPS", "collection_times": "Mo-Sa 13:00", "name": "USPS COLLECTION BOX - BLUE BOX", "note": "ON 12/24 AND 12/31, THIS BOX MAY BE COLLECTED AS EARLY AS 12 NOON.", "ref": "1196700010"}, "type": "Feature"}
{"geometry": {"coordinates": [-72.870018, 40.800823], "type": "Point"}, "id": "pgfXDV7AnoIdsdmJFdatfR493eg=", "properties": {"@spider": "usps_collection_boxes", "addr:city": "SHIRLEY", "addr:country": "US", "addr:full": "800 MONTAUK HWY", "addr:postcode": "11967", "addr:state": "NY", "brand": "USPS", "collection_times": "Mo-Fr 17:00; Sa 15:30", "name": "USPS COLLECTION BOX - PO LOBBY", "note": "ON 12/24 AND 12/31, THIS BOX MAY BE COLLECTED AS EARLY AS 12 NOON.", "ref": "1196700014"}, "type": "Feature"}
{"geometry": {"coordinates": [-72.8698270448, 40.8008486949], "type": "Point"}, "id": "TApeuflwb2X5BmXXZdJCPMvzG3c=", "properties": {"@spider": "usps_collection_boxes", "addr:city": "SHIRLEY", "addr:country": "US", "addr:full": "800 MONTAUK HWY STE 1", "addr:postcode": "11967", "addr:state": "NY", "brand": "USPS", "collection_times": "Mo-Fr 17:00; Sa 13:00", "name": "USPS COLLECTION BOX - PO LOBBY", "note": "ON 12/24 AND 12/31, THIS BOX MAY BE COLLECTED AS EARLY AS 12 NOON.", "ref": "1196700019"}, "type": "Feature"}
{"geometry": {"coordinates": [-72.383688828, 40.884879355], "type": "Point"}, "id": "JxdyTngnJ8DMOWDKI5HZfjr8bgA=", "properties": {"@spider": "usps_collection_boxes", "addr:city": "SOUTHAMPTON", "addr:country": "US", "addr:full": "156 MEETINGHOUSE LANE", "addr:postcode": "11968", "addr:state": "NY", "brand": "USPS", "collection_times": "Mo-Sa 13:00", "name": "USPS COLLECTION BOX - BLUE BOX", "note": "ON 12/24 AND 12/31, THIS BOX MAY BE COLLECTED AS EARLY AS 12 NOON.", "ref": "1196800003"}, "type": "Feature"}
{"geometry": {"coordinates": [-72.395966025, 40.883922233], "type": "Point"}, "id": "oSI1HBPkeM6TSojYQTfVkQbqueU=", "properties": {"@spider": "usps_collection_boxes", "addr:city": "SOUTHAMPTON", "addr:country": "US", "addr:full": "91 HILL ST", "addr:postcode": "11968", "addr:state": "NY", "brand": "USPS", "collection_times": "Mo-Sa 13:00", "name": "USPS COLLECTION BOX - BLUE BOX", "note": "ON 12/24 AND 12/31, THIS BOX MAY BE COLLECTED AS EARLY AS 12 NOON.", "ref": "1196800004"}, "type": "Feature"}
{"geometry": {"coordinates": [-72.403629488, 40.885831907], "type": "Point"}, "id": "K8R8sZU11kGf195hZ1fI2lLSjOM=", "properties": {"@spider": "usps_collection_boxes", "addr:city": "SOUTHAMPTON", "addr:country": "US", "addr:full": "25 HALSEY ST", "addr:postcode": "11968", "addr:state": "NY", "brand": "USPS", "collection_times": "Mo-Sa 13:00", "name": "USPS COLLECTION BOX - BLUE BOX", "note": "ON 12/24 AND 12/31, THIS BOX MAY BE COLLECTED AS EARLY AS 12 NOON.", "ref": "1196800005"}, "type": "Feature"}
{"geometry": {"coordinates": [-72.4058984, 40.888844], "type": "Point"}, "id": "KRcmPVtEPUq7a-IhHmrbo3lYEp4=", "properties": {"@spider": "usps_collection_boxes", "addr:city": "SOUTHAMPTON", "addr:country": "US", "addr:full": "63 ARMANDE ST", "addr:postcode": "11968", "addr:state": "NY", "brand": "USPS", "collection_times": "Mo-Sa 09:30", "name": "USPS COLLECTION BOX - BLUE BOX", "ref": "1196800006"}, "type": "Feature"}
{"geometry": {"coordinates": [-72.3882409709, 40.8929130206], "type": "Point"}, "id": "0vSfXWjEZqVySEHCf6ExWrMMv8U=", "properties": {"@spider": "usps_collection_boxes", "addr:city": "SOUTHAMPTON", "addr:country": "US", "addr:full": "193 ELM ST", "addr:postcode": "11968", "addr:state": "NY", "brand": "USPS", "collection_times": "Mo-Sa 13:00", "name": "USPS COLLECTION BOX - BLUE BOX", "note": "ON 12/24 AND 12/31, THIS BOX MAY BE COLLECTED AS EARLY AS 12 NOON.", "ref": "1196800007"}, "type": "Feature"}
{"geometry": {"coordinates": [-72.3847639, 40.891078], "type": "Point"}, "id": "K7Urw20S7PW2tCnukZ0koRQR0ok=", "properties": {"@spider": "usps_collection_boxes", "addr:city": "SOUTHAMPTON", "addr:country": "US", "addr:full": "91 WOOLEY ST", "addr:postcode": "11968", "addr:state": "NY", "brand": "USPS", "collection_times": "Mo-Sa 12:00", "name": "USPS COLLECTION BOX - BLUE BOX", "ref": "1196800008"}, "type": "Feature"}
{"geometry": {"coordinates": [-72.3929316, 40.883461], "type": "Point"}, "id": "mIa1lWHPuOkigl6ZYJjiwRm9Zv8=", "properties": {"@spider": "usps_collection_boxes", "addr:city": "SOUTHAMPTON", "addr:country": "US", "addr:full": "101 JOBS LN", "addr:postcode": "11968", "addr:state": "NY", "brand": "USPS", "collection_times": "Mo-Fr 17:00; Sa 13:00", "name": "USPS COLLECTION BOX - BLUE BOX", "note": "ON 12/24 AND 12/31, THIS BOX MAY BE COLLECTED AS EARLY AS 12 NOON.", "ref": "1196800009"}, "type": "Feature"}
{"geometry": {"coordinates": [-72.389907, 40.884112], "type": "Point"}, "id": "49cqab5-1ALJ1c7QZje4TQSO8pc=", "properties": {"@spider": "usps_collection_boxes", "addr:city": "SOUTHAMPTON", "addr:country": "US", "addr:full": "9 JOBS LN", "addr:postcode": "11968", "addr:state": "NY", "brand": "USPS", "collection_times": "Mo-Fr 17:00; Sa 13:00", "name": "USPS COLLECTION BOX - BLUE BOX", "note": "ON 12/24 AND 12/31, THIS BOX MAY BE COLLECTED AS EARLY AS 12 NOON.", "ref": "1196800010"}, "type": "Feature"}
{"geometry": {"coordinates": [-72.3895804, 40.885292], "type": "Point"}, "id": "o85QipgpchyT65ePLzQdLksINbg=", "properties": {"@spider": "usps_collection_boxes", "addr:city": "SOUTHAMPTON", "addr:country": "US", "addr:full": "41 MAIN ST", "addr:postcode": "11968", "addr:state": "NY", "brand": "USPS", "collection_times": "Mo-Fr 17:00; Sa 13:00", "name": "USPS COLLECTION BOX - BLUE BOX", "note": "ON 12/24 AND 12/31, THIS BOX MAY BE COLLECTED AS EARLY AS 12 NOON.", "ref": "1196800011"}, "type": "Feature"}
{"geometry": {"coordinates": [-72.3893363, 40.885866], "type": "Point"}, "id": "Lzusu6eqJ6EqcWSnPp6nmesbZrs=", "properties": {"@spider": "usps_collection_boxes", "addr:city": "SOUTHAMPTON", "addr:country": "US", "addr:full": "60 MAIN ST", "addr:postcode": "11968", "addr:state": "NY", "brand": "USPS", "collection_times": "Mo-Fr 17:00; Sa 13:00", "name": "USPS COLLECTION BOX - BLUE BOX", "note": "ON 12/24 AND 12/31, THIS BOX MAY BE COLLECTED AS EARLY AS 12 NOON.", "ref": "1196800012"}, "type": "Feature"}
{"geometry": {"coordinates": [-72.389594916, 40.887156216], "type": "Point"}, "id": "OnJRkwXNKXlA1DTaofi9cyoyH68=", "properties": {"@spider": "usps_collection_boxes", "addr:city": "SOUTHAMPTON", "addr:country": "US", "addr:full": "98-100 MAIN ST", "addr:postcode": "11968", "addr:state": "NY", "brand": "USPS", "collection_times": "Mo-Fr 17:00; Sa 13:00", "name": "USPS COLLECTION BOX - BLUE BOX", "note": "ON 12/24 AND 12/31, THIS BOX MAY BE COLLECTED AS EARLY AS 12 NOON.", "ref": "1196800015"}, "type": "Feature"}
{"geometry": {"coordinates": [-72.411761862, 40.919220817], "type": "Point"}, "id": "WKjqPm0Acgpt1uWVHrXbSCqVDGQ=", "properties": {"@spider": "usps_collection_boxes", "addr:city": "SOUTHAMPTON", "addr:country": "US", "addr:full": "1282 N SEA RD", "addr:postcode": "11968", "addr:state": "NY", "brand": "USPS", "collection_times": "Mo-Sa 13:00", "name": "USPS COLLECTION BOX - BLUE BOX", "note": "ON 12/24 AND 12/31, THIS BOX MAY BE COLLECTED AS EARLY AS 12 NOON.", "ref": "1196800016"}, "type": "Feature"}
{"geometry": {"coordinates": [-72.3792079, 40.886272], "type": "Point"}, "id": "rPGUtlihv0T46hEkzaYWlAWCmJ8=", "properties": {"@spider": "usps_collection_boxes", "addr:city": "SOUTHAMPTON", "addr:country": "US", "addr:full": "138 OLD TOWN RD", "addr:postcode": "11968", "addr:state": "NY", "brand": "USPS", "collection_times": "Mo-Sa 13:00", "name": "USPS COLLECTION BOX - BLUE BOX", "note": "ON 12/24 AND 12/31, THIS BOX MAY BE COLLECTED AS EARLY AS 12 NOON.", "ref": "1196800018"}, "type": "Feature"}
{"geometry": {"coordinates": [-72.3713004, 40.897152], "type": "Point"}, "id": "A2nufFHPFXdHU8Luo6ujWVo0h5k=", "properties": {"@spider": "usps_collection_boxes", "addr:city": "SOUTHAMPTON", "addr:country": "US", "addr:full": "33 FLYING POINT RD", "addr:postcode": "11968", "addr:state": "NY", "brand": "USPS", "collection_times": "Mo-Fr 17:00; Sa 13:00", "name": "USPS COLLECTION BOX - BLUE BOX", "note": "ON 12/24 AND 12/31, THIS BOX MAY BE COLLECTED AS EARLY AS 12 NOON.", "ref": "1196800019"}, "type": "Feature"}
{"geometry": {"coordinates": [-72.384869166, 40.900776576], "type": "Point"}, "id": "lhitopGbsjfeirKfYigI1llFDUc=", "properties": {"@spider": "usps_collection_boxes", "addr:city": "SOUTHAMPTON", "addr:country": "US", "addr:full": "395 COUNTY ROAD 39A", "addr:postcode": "11968", "addr:state": "NY", "brand": "USPS", "collection_times": "Mo-Fr 17:00; Sa 13:00", "name": "USPS COLLECTION BOX - BLUE BOX", "note": "ON 12/24 AND 12/31, THIS BOX MAY BE COLLECTED AS EARLY AS 12 NOON.", "ref": "1196800020"}, "type": "Feature"}
{"geometry": {"coordinates": [-72.39484871, 40.891237649], "type": "Point"}, "id": "vyFo_7Ex-5YqgYmsmdq9l9mPn08=", "properties": {"@spider": "usps_collection_boxes", "addr:city": "SOUTHAMPTON", "addr:country": "US", "addr:full": "123 N SEA RD", "addr:postcode": "11968", "addr:state": "NY", "brand": "USPS", "collection_times": "Mo-Fr 17:00; Sa 15:00", "name": "USPS COLLECTION BOX - BLUE BOX", "note": "ON 12/24 AND 12/31, THIS BOX MAY BE COLLECTED AS EARLY AS 12 NOON.", "ref": "1196800021"}, "type": "Feature"}
{"geometry": {"coordinates": [-72.394651819, 40.891104912], "type": "Point"}, "id": "0ljmAIKoQPDNDUNceNqaO9vKH4w=", "properties": {"@spider": "usps_collection_boxes", "addr:city": "SOUTHAMPTON", "addr:country": "US", "addr:full": "123 N SEA RD", "addr:postcode": "11968", "addr:state": "NY", "brand": "USPS", "collection_times": "Mo-Fr 17:00; Sa 15:00", "name": "USPS COLLECTION BOX - BLUE BOX", "note": "ON 12/24 AND 12/31, THIS BOX MAY BE COLLECTED AS EARLY AS 12 NOON.", "ref": "1196800023"}, "type": "Feature"}
{"geometry": {"coordinates": [-72.394651819, 40.891104912], "type": "Point"}, "id": "BCwOnSL3XFrSo7YD7VMr4wcCA2I=", "properties": {"@spider": "usps_collection_boxes", "addr:city": "SOUTHAMPTON", "addr:country": "US", "addr:full": "123 N SEA RD", "addr:postcode": "11968", "addr:state": "NY", "brand": "USPS", "collection_times": "Mo-Fr 17:00; Sa 15:00", "name": "USPS COLLECTION BOX - BLUE BOX", "note": "ON 12/24 AND 12/31, THIS BOX MAY BE COLLECTED AS EARLY AS 12 NOON.", "ref": "1196800024"}, "type": "Feature"}
{"geometry": {"coordinates": [-72.3856545, 40.887805], "type": "Point"}, "id": "Q-763q2rB5bLhsHhiCV4CQ2GlEQ=", "properties": {"@spider": "usps_collection_boxes", "addr:city": "SOUTHAMPTON", "addr:country": "US", "addr:full": "116 HAMPTON RD", "addr:postcode": "11968", "addr:state": "NY", "brand": "USPS", "collection_times": "Mo-Fr 17:00; Sa 13:00", "name": "USPS COLLECTION BOX - BLUE BOX", "note": "ON 12/24 AND 12/31, THIS BOX MAY BE COLLECTED AS EARLY AS 12 NOON.", "ref": "1196800026"}, "type": "Feature"}
{"geometry": {"coordinates": [-72.3911233, 40.886294], "type": "Point"}, "id": "YmyfnS40wGuL4nnKNM_q_4NtHEw=", "properties": {"@spider": "usps_collection_boxes", "addr:city": "SOUTHAMPTON", "addr:country": "US", "addr:full": "38 NUGENT ST", "addr:postcode": "11968", "addr:state": "NY", "brand": "USPS", "collection_times": "Mo-Fr 17:00; Sa 13:00", "name": "USPS COLLECTION BOX - BLUE BOX", "note": "ON 12/24 AND 12/31, THIS BOX MAY BE COLLECTED AS EARLY AS 12 NOON.", "ref": "1196800027"}, "type": "Feature"}
{"geometry": {"coordinates": [-72.385288026, 40.887354981], "type": "Point"}, "id": "GsTcsmnCqpEQApxIU_BIrh1MtzU=", "properties": {"@spider": "usps_collection_boxes", "addr:city": "SOUTHAMPTON", "addr:country": "US", "addr:full": "116 HAMPTON RD", "addr:postcode": "11968", "addr:state": "NY", "brand": "USPS", "collection_times": "Mo-Fr 17:00; Sa 13:00", "name": "USPS COLLECTION BOX - BLUE BOX", "note": "ON 12/24 AND 12/31, THIS BOX MAY BE COLLECTED AS EARLY AS 12 NOON.", "ref": "1196800028"}, "type": "Feature"}
{"geometry": {"coordinates": [-72.371873042, 40.896381997], "type": "Point"}, "id": "Aa7JAWRRT_FDb6wEiraTT0ilU40=", "properties": {"@spider": "usps_collection_boxes", "addr:city": "SOUTHAMPTON", "addr:country": "US", "addr:full": "33 FLYING POINT RD", "addr:postcode": "11968", "addr:state": "NY", "brand": "USPS", "collection_times": "Mo-Fr 17:00; Sa 13:00", "name": "USPS COLLECTION BOX - BLUE BOX", "note": "ON 12/24 AND 12/31, THIS BOX MAY BE COLLECTED AS EARLY AS 12 NOON.", "ref": "1196800030"}, "type": "Feature"}
{"geometry": {"coordinates": [-72.411609968, 40.919163004], "type": "Point"}, "id": "7yj9QC7eqRBKLauAGsJcZNye0gM=", "properties": {"@spider": "usps_collection_boxes", "addr:city": "SOUTHAMPTON", "addr:country": "US", "addr:full": "1282 N SEA RD", "addr:postcode": "11968", "addr:state": "NY", "brand": "USPS", "collection_times": "Mo-Sa 13:00", "name": "USPS COLLECTION BOX - BLUE BOX", "note": "ON 12/24 AND 12/31, THIS BOX MAY BE COLLECTED AS EARLY AS 12 NOON.", "ref": "1196800031"}, "type": "Feature"}
{"geometry": {"coordinates": [-72.380752, 40.891384], "type": "Point"}, "id": "-g8TUymoRGl79ITnIZyz-KRzYY0=", "properties": {"@spider": "usps_collection_boxes", "addr:city": "SOUTHAMPTON", "addr:country": "US", "addr:full": "300 HAMPTON RD", "addr:postcode": "11968", "addr:state": "NY", "brand": "USPS", "collection_times": "Mo-Fr 17:00; Sa 13:00", "name": "USPS COLLECTION BOX - BLUE BOX", "note": "ON 12/24 AND 12/31, THIS BOX MAY BE COLLECTED AS EARLY AS 12 NOON.", "ref": "1196800034"}, "type": "Feature"}
{"geometry": {"coordinates": [-72.380481005, 40.891173985], "type": "Point"}, "id": "5316Rrzm-0QL_azxg4fjL7FaR98=", "properties": {"@spider": "usps_collection_boxes", "addr:city": "SOUTHAMPTON", "addr:country": "US", "addr:full": "300 HAMPTON RD", "addr:postcode": "11968", "addr:state": "NY", "brand": "USPS", "collection_times": "Mo-Fr 17:00; Sa 13:00", "name": "USPS COLLECTION BOX - BLUE BOX", "note": "ON 12/24 AND 12/31, THIS BOX MAY BE COLLECTED AS EARLY AS 12 NOON.", "ref": "1196800035"}, "type": "Feature"}
{"geometry": {"coordinates": [-72.394638, 40.891153], "type": "Point"}, "id": "0be5JnlOH5i0gPdZI0JmAo_mvhY=", "properties": {"@spider": "usps_collection_boxes", "addr:city": "SOUTHAMPTON", "addr:country": "US", "addr:full": "123 N SEA RD", "addr:postcode": "11968", "addr:state": "NY", "brand": "USPS", "collection_times": "Mo-Fr 17:00; Sa 15:00", "name": "USPS COLLECTION BOX - BLUE BOX", "note": "ON 12/24 AND 12/31, THIS BOX MAY BE COLLECTED AS EARLY AS 12 NOON.", "ref": "1196800046"}, "type": "Feature"}
{"geometry": {"coordinates": [-72.394638, 40.891153], "type": "Point"}, "id": "roBLGfEaT6FU4-BDiwxl6mZkyro=", "properties": {"@spider": "usps_collection_boxes", "addr:city": "SOUTHAMPTON", "addr:country": "US", "addr:full": "123 N SEA RD", "addr:postcode": "11968", "addr:state": "NY", "brand": "USPS", "collection_times": "Mo-Fr 17:00; Sa 15:00", "name": "USPS COLLECTION BOX - PO LOBBY", "note": "ON 12/24 AND 12/31, THIS BOX MAY BE COLLECTED AS EARLY AS 12 NOON.", "ref": "1196800048"}, "type": "Feature"}
{"geometry": {"coordinates": [-72.3946518194, 40.8911049121], "type": "Point"}, "id": "wIzjR-yx7bDlnJ5T7LbGQ0yHiqA=", "properties": {"@spider": "usps_collection_boxes", "addr:city": "SOUTHAMPTON", "addr:country": "US", "addr:full": "123 N SEA RD", "addr:postcode": "11968", "addr:state": "NY", "brand": "USPS", "collection_times": "Mo-Fr 17:00; Sa 15:00", "name": "USPS COLLECTION BOX - PO LOBBY", "note": "ON 12/24 AND 12/31, THIS BOX MAY BE COLLECTED AS EARLY AS 12 NOON.", "ref": "1196800050"}, "type": "Feature"}
{"geometry": {"coordinates": [-72.5762112513, 40.9369833854], "type": "Point"}, "id": "EeVFEPFGo-nOTTgNDP8nFzGBt4g=", "properties": {"@spider": "usps_collection_boxes", "addr:city": "SOUTH JAMESPORT", "addr:country": "US", "addr:full": "70 2ND ST", "addr:postcode": "11970", "addr:state": "NY", "brand": "USPS", "collection_times": "Mo-Fr 16:00; Sa 12:00", "name": "USPS COLLECTION BOX - BLUE BOX", "note": "ON 12/24 AND 12/31, THIS BOX MAY BE COLLECTED AS EARLY AS 12 NOON.", "ref": "1197000000"}, "type": "Feature"}
{"geometry": {"coordinates": [-72.576211251, 40.936983385], "type": "Point"}, "id": "MOqkcYBrFsGk8hz_oA4QIyz3Msk=", "properties": {"@spider": "usps_collection_boxes", "addr:city": "SOUTH JAMESPORT", "addr:country": "US", "addr:full": "70 2 ND ST", "addr:postcode": "11970", "addr:state": "NY", "brand": "USPS", "collection_times": "Mo-Fr 16:00; Sa 12:00", "name": "USPS COLLECTION BOX - PO LOBBY", "note": "ON 12/24 AND 12/31, THIS BOX MAY BE COLLECTED AS EARLY AS 12 NOON.", "ref": "1197000002"}, "type": "Feature"}
{"geometry": {"coordinates": [-72.576211251, 40.936983385], "type": "Point"}, "id": "xIbmkYTTjc3JKDESEVW2IvYoju0=", "properties": {"@spider": "usps_collection_boxes", "addr:city": "SOUTH JAMESPORT", "addr:country": "US", "addr:full": "70 2ND ST", "addr:postcode": "11970", "addr:state": "NY", "brand": "USPS", "collection_times": "Mo-Fr 17:00; Sa 12:00", "name": "USPS COLLECTION BOX - PO LOBBY", "note": "ON 12/24 AND 12/31, THIS BOX MAY BE COLLECTED AS EARLY AS 12 NOON.", "ref": "1197000003"}, "type": "Feature"}
{"geometry": {"coordinates": [-72.430131, 41.065159], "type": "Point"}, "id": "iL0SNCt7-dZoZn7Ubn27M_8IYD8=", "properties": {"@spider": "usps_collection_boxes", "addr:city": "SOUTHOLD", "addr:country": "US", "addr:full": "710 TRAVELER ST", "addr:postcode": "11971", "addr:state": "NY", "brand": "USPS", "collection_times": "Mo-Fr 17:00; Sa 15:00", "name": "USPS COLLECTION BOX - BLUE BOX", "note": "ON 12/24 AND 12/31, THIS BOX MAY BE COLLECTED AS EARLY AS 12 NOON.", "ref": "1197100002"}, "type": "Feature"}
{"geometry": {"coordinates": [-72.4284284, 41.0642], "type": "Point"}, "id": "Fs3rnq-5SHbe8CpvRE5IKiX9Mck=", "properties": {"@spider": "usps_collection_boxes", "addr:city": "SOUTHOLD", "addr:country": "US", "addr:full": "53895 ROUTE 25", "addr:postcode": "11971", "addr:state": "NY", "brand": "USPS", "collection_times": "Mo-Sa 11:00", "name": "USPS COLLECTION BOX - BLUE BOX", "ref": "1197100004"}, "type": "Feature"}
{"geometry": {"coordinates": [-72.430131, 41.065159], "type": "Point"}, "id": "oNAaAVYF94WWO1zaomKzU5vKM2o=", "properties": {"@spider": "usps_collection_boxes", "addr:city": "SOUTHOLD", "addr:country": "US", "addr:full": "710 TRAVELER ST", "addr:postcode": "11971", "addr:state": "NY", "brand": "USPS", "collection_times": "Mo-Fr 17:00; Sa 13:00", "name": "USPS COLLECTION BOX - PO LOBBY", "note": "ON 12/24 AND 12/31, THIS BOX MAY BE COLLECTED AS EARLY AS 12 NOON.", "ref": "1197100007"}, "type": "Feature"}
{"geometry": {"coordinates": [-72.43005777, 41.065107902], "type": "Point"}, "id": "BsqHq2Vw2OhXYiwsvUAQ2pfuNDQ=", "properties": {"@spider": "usps_collection_boxes", "addr:city": "SOUTHOLD", "addr:country": "US", "addr:full": "710 TRAVELER ST", "addr:postcode": "11971", "addr:state": "NY", "brand": "USPS", "collection_times": "Mo-Fr 17:00; Sa 13:00", "name": "USPS COLLECTION BOX - PO LOBBY", "note": "ON 12/24 AND 12/31, THIS BOX MAY BE COLLECTED AS EARLY AS 12 NOON.", "ref": "1197100009"}, "type": "Feature"}
{"geometry": {"coordinates": [-72.706463, 40.819504], "type": "Point"}, "id": "xtRezzshU9idjHhaQxqZbYtwoY4=", "properties": {"@spider": "usps_collection_boxes", "addr:city": "SPEONK", "addr:country": "US", "addr:full": "323 MONTAUK HWY", "addr:postcode": "11972", "addr:state": "NY", "brand": "USPS", "collection_times": "Mo-Fr 17:00; Sa 13:00", "name": "USPS COLLECTION BOX - BLUE BOX", "note": "ON 12/24 AND 12/31, THIS BOX MAY BE COLLECTED AS EARLY AS 12 NOON.", "ref": "1197200002"}, "type": "Feature"}
{"geometry": {"coordinates": [-72.706464, 40.819531], "type": "Point"}, "id": "LMGMJy_WOR2Dpt6AbP-MEXUjch0=", "properties": {"@spider": "usps_collection_boxes", "addr:city": "SPEONK", "addr:country": "US", "addr:full": "323 MONTAUK HWY", "addr:postcode": "11972", "addr:state": "NY", "brand": "USPS", "collection_times": "Mo-Fr 17:00; Sa 13:00", "name": "USPS COLLECTION BOX - PO LOBBY", "note": "ON 12/24 AND 12/31, THIS BOX MAY BE COLLECTED AS EARLY AS 12 NOON.", "ref": "1197200004"}, "type": "Feature"}
{"geometry": {"coordinates": [-72.706461862, 40.819495528], "type": "Point"}, "id": "A5qimaUwmJzPHU0gDq1oaQCbq14=", "properties": {"@spider": "usps_collection_boxes", "addr:city": "SPEONK", "addr:country": "US", "addr:full": "323 MONTAUK HWY", "addr:postcode": "11972", "addr:state": "NY", "brand": "USPS", "collection_times": "Mo-Fr 17:00; Sa 13:00", "name": "USPS COLLECTION BOX - PO LOBBY", "note": "ON 12/24 AND 12/31, THIS BOX MAY BE COLLECTED AS EARLY AS 12 NOON.", "ref": "1197200005"}, "type": "Feature"}
{"geometry": {"coordinates": [-72.247475, 40.947611], "type": "Point"}, "id": "ZXM7CE10p1TDV_5qY08kecseWDA=", "properties": {"@spider": "usps_collection_boxes", "addr:city": "WAINSCOTT", "addr:country": "US", "addr:full": "357 MONTAUK HWY", "addr:postcode": "11975", "addr:state": "NY", "brand": "USPS", "collection_times": "Mo-Fr 17:00; Sa 13:00", "name": "USPS COLLECTION BOX - BLUE BOX", "note": "ON 12/24 AND 12/31, THIS BOX MAY BE COLLECTED AS EARLY AS 12 NOON.", "ref": "1197500001"}, "type": "Feature"}
{"geometry": {"coordinates": [-72.247116443, 40.947685871], "type": "Point"}, "id": "0DQKZ1DO8JX3fioRUkm1OMN5VN4=", "properties": {"@spider": "usps_collection_boxes", "addr:city": "WAINSCOTT", "addr:country": "US", "addr:full": "357 MONTAUK HWY", "addr:postcode": "11975", "addr:state": "NY", "brand": "USPS", "collection_times": "Mo-Fr 17:00; Sa 13:00", "name": "USPS COLLECTION BOX - PO LOBBY", "note": "ON 12/24 AND 12/31, THIS BOX MAY BE COLLECTED AS EARLY AS 12 NOON.", "ref": "1197500006"}, "type": "Feature"}
{"geometry": {"coordinates": [-72.354494391, 40.909757759], "type": "Point"}, "id": "7ZB_M_T29SdVnxexmB_2sz_67vU=", "properties": {"@spider": "usps_collection_boxes", "addr:city": "WATER MILL", "addr:country": "US", "addr:full": "670 MONTAUK HWY", "addr:postcode": "11976", "addr:state": "NY", "brand": "USPS", "collection_times": "Mo-Fr 16:30; Sa 13:00", "name": "USPS COLLECTION BOX - BLUE BOX", "note": "ON 12/24 AND 12/31, THIS BOX MAY BE COLLECTED AS EARLY AS 12 NOON.", "ref": "1197600002"}, "type": "Feature"}
{"geometry": {"coordinates": [-72.3544950096, 40.9100120193], "type": "Point"}, "id": "ju76uxdFO8-VOVMLFeYMoafdYpY=", "properties": {"@spider": "usps_collection_boxes", "addr:city": "WATER MILL", "addr:country": "US", "addr:full": "670 MONTAUK HWY", "addr:postcode": "11976", "addr:state": "NY", "brand": "USPS", "collection_times": "Mo-Fr 16:30; Sa 13:00", "name": "USPS COLLECTION BOX - BLUE BOX", "note": "ON 12/24 AND 12/31, THIS BOX MAY BE COLLECTED AS EARLY AS 12 NOON.", "ref": "1197600003"}, "type": "Feature"}
{"geometry": {"coordinates": [-72.354608, 40.909673], "type": "Point"}, "id": "a7pyUlwpp7a93kIzkxHO319M7TU=", "properties": {"@spider": "usps_collection_boxes", "addr:city": "WATER MILL", "addr:country": "US", "addr:full": "670 MONTAUK HWY", "addr:postcode": "11976", "addr:state": "NY", "brand": "USPS", "collection_times": "Mo-Fr 16:30; Sa 13:00", "name": "USPS COLLECTION BOX - PO LOBBY", "note": "ON 12/24 AND 12/31, THIS BOX MAY BE COLLECTED AS EARLY AS 12 NOON.", "ref": "1197600005"}, "type": "Feature"}
{"geometry": {"coordinates": [-72.354523644, 40.909738952], "type": "Point"}, "id": "_b9-4NvxAUUwlumem8EK8z7YKh8=", "properties": {"@spider": "usps_collection_boxes", "addr:city": "WATER MILL", "addr:country": "US", "addr:full": "670 MONTAUK HWY", "addr:postcode": "11976", "addr:state": "NY", "brand": "USPS", "collection_times": "Mo-Fr 17:00; Sa 13:00", "name": "USPS COLLECTION BOX - PO LOBBY", "note": "ON 12/24 AND 12/31, THIS BOX MAY BE COLLECTED AS EARLY AS 12 NOON.", "ref": "1197600006"}, "type": "Feature"}
{"geometry": {"coordinates": [-72.657906, 40.822175], "type": "Point"}, "id": "FY4qOh0I6qCn0HgcVrgUTvhLeHI=", "properties": {"@spider": "usps_collection_boxes", "addr:city": "WESTHAMPTON", "addr:country": "US", "addr:full": "408 MILL RD", "addr:postcode": "11977", "addr:state": "NY", "brand": "USPS", "collection_times": "Mo-Fr 17:00; Sa 13:00", "name": "USPS COLLECTION BOX - BLUE BOX", "note": "ON 12/24 AND 12/31, THIS BOX MAY BE COLLECTED AS EARLY AS 12 NOON.", "ref": "1197700002"}, "type": "Feature"}
{"geometry": {"coordinates": [-72.657906, 40.822175], "type": "Point"}, "id": "RdysRq-JWXfsSJkz3R5QoLEWhX4=", "properties": {"@spider": "usps_collection_boxes", "addr:city": "WESTHAMPTON", "addr:country": "US", "addr:full": "408 MILL RD", "addr:postcode": "11977", "addr:state": "NY", "brand": "USPS", "collection_times": "Mo-Fr 17:00; Sa 13:00", "name": "USPS COLLECTION BOX - PO LOBBY", "note": "ON 12/24 AND 12/31, THIS BOX MAY BE COLLECTED AS EARLY AS 12 NOON.", "ref": "1197700004"}, "type": "Feature"}
{"geometry": {"coordinates": [-72.657905743, 40.822169321], "type": "Point"}, "id": "ZG4sMHKja0zDE-bHy4crloqelM4=", "properties": {"@spider": "usps_collection_boxes", "addr:city": "WESTHAMPTON", "addr:country": "US", "addr:full": "408 MILL RD", "addr:postcode": "11977", "addr:state": "NY", "brand": "USPS", "collection_times": "Mo-Fr 17:00; Sa 13:00", "name": "USPS COLLECTION BOX - PO LOBBY", "note": "ON 12/24 AND 12/31, THIS BOX MAY BE COLLECTED AS EARLY AS 12 NOON.", "ref": "1197700005"}, "type": "Feature"}
{"geometry": {"coordinates": [-72.6448996, 40.811617], "type": "Point"}, "id": "n3UUwrk8IlK0TUWy1Kr7quVtg3Y=", "properties": {"@spider": "usps_collection_boxes", "addr:city": "W HAMPTON BCH", "addr:country": "US", "addr:full": "70 SUNSET AVE", "addr:postcode": "11978", "addr:state": "NY", "brand": "USPS", "collection_times": "Mo-Sa 13:00", "name": "USPS COLLECTION BOX - BLUE BOX", "note": "ON 12/24 AND 12/31, THIS BOX MAY BE COLLECTED AS EARLY AS 12 NOON.", "ref": "1197800001"}, "type": "Feature"}
{"geometry": {"coordinates": [-72.6467203, 40.820544], "type": "Point"}, "id": "0ehtn0Q2Ytwdo0sBpT3lLqNgvok=", "properties": {"@spider": "usps_collection_boxes", "addr:city": "W HAMPTON BCH", "addr:country": "US", "addr:full": "87 OAK ST", "addr:postcode": "11978", "addr:state": "NY", "brand": "USPS", "collection_times": "Mo-Sa 13:00", "name": "USPS COLLECTION BOX - BLUE BOX", "note": "ON 12/24 AND 12/31, THIS BOX MAY BE COLLECTED AS EARLY AS 12 NOON.", "ref": "1197800004"}, "type": "Feature"}
{"geometry": {"coordinates": [-72.64077, 40.810314], "type": "Point"}, "id": "9a-WNiQUsK68aUD1u4bQE-e5ChA=", "properties": {"@spider": "usps_collection_boxes", "addr:city": "W HAMPTON BCH", "addr:country": "US", "addr:full": "170 MAIN ST", "addr:postcode": "11978", "addr:state": "NY", "brand": "USPS", "collection_times": "Mo-Fr 17:00; Sa 13:00", "name": "USPS COLLECTION BOX - BLUE BOX", "note": "ON 12/24 AND 12/31, THIS BOX MAY BE COLLECTED AS EARLY AS 12 NOON.", "ref": "1197800008"}, "type": "Feature"}
{"geometry": {"coordinates": [-72.6407775, 40.810329], "type": "Point"}, "id": "lnMUDmLgtd1pGl1BGBsW2EGI36Q=", "properties": {"@spider": "usps_collection_boxes", "addr:city": "W HAMPTON BCH", "addr:country": "US", "addr:full": "170 MAIN ST", "addr:postcode": "11978", "addr:state": "NY", "brand": "USPS", "collection_times": "Mo-Fr 17:00; Sa 13:00", "name": "USPS COLLECTION BOX - BLUE BOX", "note": "ON 12/24 AND 12/31, THIS BOX MAY BE COLLECTED AS EARLY AS 12 NOON.", "ref": "1197800010"}, "type": "Feature"}
{"geometry": {"coordinates": [-72.64077, 40.810314], "type": "Point"}, "id": "s874-NA6DMNCeYV3__PsdlUHNgg=", "properties": {"@spider": "usps_collection_boxes", "addr:city": "W HAMPTON BCH", "addr:country": "US", "addr:full": "170 MAIN ST", "addr:postcode": "11978", "addr:state": "NY", "brand": "USPS", "collection_times": "Mo-Fr 17:00; Sa 13:00", "name": "USPS COLLECTION BOX - PO LOBBY", "note": "ON 12/24 AND 12/31, THIS BOX MAY BE COLLECTED AS EARLY AS 12 NOON.", "ref": "1197800014"}, "type": "Feature"}
{"geometry": {"coordinates": [-72.64081053, 40.810105486], "type": "Point"}, "id": "e4BX-7JlJlpd7Ks7XzBkOfHCU3s=", "properties": {"@spider": "usps_collection_boxes", "addr:city": "W HAMPTON BCH", "addr:country": "US", "addr:full": "170 MAIN ST", "addr:postcode": "11978", "addr:state": "NY", "brand": "USPS", "collection_times": "Mo-Fr 17:00; Sa 13:00", "name": "USPS COLLECTION BOX - PO LOBBY", "note": "ON 12/24 AND 12/31, THIS BOX MAY BE COLLECTED AS EARLY AS 12 NOON.", "ref": "1197800016"}, "type": "Feature"}
{"geometry": {"coordinates": [-72.9037014483, 40.8447503276], "type": "Point"}, "id": "3zT66fVdtibRLiEi7ImuBmWW_Jw=", "properties": {"@spider": "usps_collection_boxes", "addr:city": "YAPHANK", "addr:country": "US", "addr:full": "COUNTRY POINT MEADOWS", "addr:postcode": "11980", "addr:state": "NY", "brand": "USPS", "collection_times": "Mo-Sa 13:00", "name": "USPS COLLECTION BOX - BLUE BOX", "note": "ON 12/24 AND 12/31, THIS BOX MAY BE COLLECTED AS EARLY AS 12 NOON.", "ref": "1198000001"}, "type": "Feature"}
{"geometry": {"coordinates": [-72.916398, 40.836798], "type": "Point"}, "id": "yLYFLSCfpyizxuCHqXLLMIWvZkM=", "properties": {"@spider": "usps_collection_boxes", "addr:city": "YAPHANK", "addr:country": "US", "addr:full": "5 E MAIN ST", "addr:postcode": "11980", "addr:state": "NY", "brand": "USPS", "collection_times": "Mo-Fr 17:00; Sa 13:00", "name": "USPS COLLECTION BOX - BLUE BOX", "note": "ON 12/24 AND 12/31, THIS BOX MAY BE COLLECTED AS EARLY AS 12 NOON.", "ref": "1198000003"}, "type": "Feature"}
{"geometry": {"coordinates": [-72.916509, 40.836762], "type": "Point"}, "id": "POkI51QcW52nNGfqQChbacE5vCk=", "properties": {"@spider": "usps_collection_boxes", "addr:city": "YAPHANK", "addr:country": "US", "addr:full": "5 E MAIN ST", "addr:postcode": "11980", "addr:state": "NY", "brand": "USPS", "collection_times": "Mo-Fr 17:00; Sa 13:00", "name": "USPS COLLECTION BOX - PO LOBBY", "note": "ON 12/24 AND 12/31, THIS BOX MAY BE COLLECTED AS EARLY AS 12 NOON.", "ref": "1198000006"}, "type": "Feature"}
{"geometry": {"coordinates": [-72.915656165, 40.836849483], "type": "Point"}, "id": "CVSfhg2f8vMRxMUk-xCJXt07jd0=", "properties": {"@spider": "usps_collection_boxes", "addr:city": "YAPHANK", "addr:country": "US", "addr:full": "5 E MAIN ST", "addr:postcode": "11980", "addr:state": "NY", "brand": "USPS", "collection_times": "Mo-Fr 17:00; Sa 13:00", "name": "USPS COLLECTION BOX - PO LOBBY", "note": "ON 12/24 AND 12/31, THIS BOX MAY BE COLLECTED AS EARLY AS 12 NOON.", "ref": "1198000007"}, "type": "Feature"}
