{"geometry": {"coordinates": [-73.9252698, 42.468803], "type": "Point"}, "id": "5-yNbOmH74F793vBhwhJmF2Ov0I=", "properties": {"@spider": "usps_collection_boxes", "addr:city": "ALCOVE", "addr:country": "US", "addr:full": "83 COUNTY ROUTE 111", "addr:postcode": "12007", "addr:state": "NY", "brand": "USPS", "collection_times": "Mo-Fr 14:00; Sa 11:15", "name": "USPS COLLECTION BOX - BLUE BOX", "note": "ON 12/24 AND 12/31, THIS BOX MAY BE COLLECTED AS EARLY AS 12 NOON.", "ref": "1200700001"}, "type": "Feature"}
{"geometry": {"coordinates": [-73.925574, 42.468877], "type": "Point"}, "id": "rOqZYAUD4cTY45uj6gzBfh_ZLTM=", "properties": {"@spider": "usps_collection_boxes", "addr:city": "ALCOVE", "addr:country": "US", "addr:full": "83 COUNTY ROUTE 111", "addr:postcode": "12007", "addr:state": "NY", "brand": "USPS", "collection_times": "Mo-Fr 14:00; Sa 11:15", "name": "USPS COLLECTION BOX - PO LOBBY", "note": "ON 12/24 AND 12/31, THIS BOX MAY BE COLLECTED AS EARLY AS 12 NOON.", "ref": "1200700002"}, "type": "Feature"}
{"geometry": {"coordinates": [-73.925878058, 42.468583215], "type": "Point"}, "id": "kTSMPoU_jQY0T3kNAGfUEt8Qqck=", "properties": {"@spider": "usps_collection_boxes", "addr:city": "ALCOVE", "addr:country": "US", "addr:full": "83 COUNTY ROUTE 111", "addr:postcode": "12007", "addr:state": "NY", "brand": "USPS", "collection_times": "Mo-Fr 14:00; Sa 12:00", "name": "USPS COLLECTION BOX - PO LOBBY", "note": "ON 12/24 AND 12/31, THIS BOX MAY BE COLLECTED AS EARLY AS 12 NOON.", "ref": "1200700008"}, "type": "Feature"}
{"geometry": {"coordinates": [-74.032206, 42.701411], "type": "Point"}, "id": "2iiad36qly9Kj7TmXv2Hinh4p3k=", "properties": {"@spider": "usps_collection_boxes", "addr:city": "ALTAMONT", "addr:country": "US", "addr:full": "108 PARK ST", "addr:postcode": "12009", "addr:state": "NY", "brand": "USPS", "collection_times": "Mo-Fr 16:45; Sa 12:00", "name": "USPS COLLECTION BOX - BLUE BOX", "note": "ON 12/24 AND 12/31, THIS BOX MAY BE COLLECTED AS EARLY AS 12 NOON.", "ref": "1200900001"}, "type": "Feature"}
{"geometry": {"coordinates": [-73.9331633, 42.713162], "type": "Point"}, "id": "C1XfOVqmtMMTznqNkCXvIhQZaFg=", "properties": {"@spider": "usps_collection_boxes", "addr:city": "ALTAMONT", "addr:country": "US", "addr:full": "2568 WESTERN AVE", "addr:postcode": "12009", "addr:state": "NY", "brand": "USPS", "collection_times": "Mo-Sa 09:00", "name": "USPS COLLECTION BOX - BLUE BOX", "ref": "1200900003"}, "type": "Feature"}
{"geometry": {"coordinates": [-74.032204, 42.70149], "type": "Point"}, "id": "bm7RbvmnlSFXnv7mMbt2oBwPzCM=", "properties": {"@spider": "usps_collection_boxes", "addr:city": "ALTAMONT", "addr:country": "US", "addr:full": "108 PARK ST", "addr:postcode": "12009", "addr:state": "NY", "brand": "USPS", "collection_times": "Mo-Fr 16:45; Sa 12:00", "name": "USPS COLLECTION BOX - PO LOBBY", "note": "ON 12/24 AND 12/31, THIS BOX MAY BE COLLECTED AS EARLY AS 12 NOON.", "ref": "1200900005"}, "type": "Feature"}
{"geometry": {"coordinates": [-73.9340039, 42.716434], "type": "Point"}, "id": "LbSMV7TgpnzQ_b_vUiZYi2vTUss=", "properties": {"@spider": "usps_collection_boxes", "addr:city": "ALTAMONT", "addr:country": "US", "addr:full": "5239 WESTERN TPKE", "addr:postcode": "12009", "addr:state": "NY", "brand": "USPS", "collection_times": "Mo-Sa 09:00", "name": "USPS COLLECTION BOX - BLUE BOX", "ref": "1200900006"}, "type": "Feature"}
{"geometry": {"coordinates": [-74.0245123, 42.700219], "type": "Point"}, "id": "53aYHtpcAKZr1Dsv43MltAjfnCU=", "properties": {"@spider": "usps_collection_boxes", "addr:city": "ALTAMONT", "addr:country": "US", "addr:full": "15 VAN EVERA DR", "addr:postcode": "12009", "addr:state": "NY", "brand": "USPS", "collection_times": "Mo-Sa 10:00", "name": "USPS COLLECTION BOX - BLUE BOX", "ref": "1200900007"}, "type": "Feature"}
{"geometry": {"coordinates": [-74.031913177, 42.700770346], "type": "Point"}, "id": "SXHyf2nKJszOmDRFw-ynjLe7-ng=", "properties": {"@spider": "usps_collection_boxes", "addr:city": "ALTAMONT", "addr:country": "US", "addr:full": "108 PARK ST", "addr:postcode": "12009", "addr:state": "NY", "brand": "USPS", "collection_times": "Mo-Fr 17:00; Sa 12:00", "name": "USPS COLLECTION BOX - PO LOBBY", "note": "ON 12/24 AND 12/31, THIS BOX MAY BE COLLECTED AS EARLY AS 12 NOON.", "ref": "1200900008"}, "type": "Feature"}
{"geometry": {"coordinates": [-74.1926114, 42.938225], "type": "Point"}, "id": "KX0Kv_JZVul2-FYVoz4dKQUlwuI=", "properties": {"@spider": "usps_collection_boxes", "addr:city": "AMSTERDAM", "addr:country": "US", "addr:full": "39 MARKET ST", "addr:postcode": "12010", "addr:state": "NY", "brand": "USPS", "collection_times": "Mo-Sa 09:00", "name": "USPS COLLECTION BOX - BLUE BOX", "ref": "1201000009"}, "type": "Feature"}
{"geometry": {"coordinates": [-74.1907407, 42.936077], "type": "Point"}, "id": "bL_Bf1b7TVrYnTBWExxSKa6T3n4=", "properties": {"@spider": "usps_collection_boxes", "addr:city": "AMSTERDAM", "addr:country": "US", "addr:full": "2500 RIVERFRONT CTR", "addr:postcode": "12010", "addr:state": "NY", "brand": "USPS", "collection_times": "Mo-Sa 09:00", "name": "USPS COLLECTION BOX - BLUE BOX", "ref": "1201000015"}, "type": "Feature"}
{"geometry": {"coordinates": [-74.1856531, 42.967406], "type": "Point"}, "id": "e_v9EF50B8aFR3giXf8nEMI4kCY=", "properties": {"@spider": "usps_collection_boxes", "addr:city": "AMSTERDAM", "addr:country": "US", "addr:full": "4901 STATE HIGHWAY 30", "addr:postcode": "12010", "addr:state": "NY", "brand": "USPS", "collection_times": "Mo-Sa 10:45", "name": "USPS COLLECTION BOX - BLUE BOX", "ref": "1201000019"}, "type": "Feature"}
{"geometry": {"coordinates": [-74.1735154, 42.935552], "type": "Point"}, "id": "yNs93-0pT2SH7c_h1Pk6W3cDXFU=", "properties": {"@spider": "usps_collection_boxes", "addr:city": "AMSTERDAM", "addr:country": "US", "addr:full": "401 VROOMAN AVE", "addr:postcode": "12010", "addr:state": "NY", "brand": "USPS", "collection_times": "Mo-Sa 10:00", "name": "USPS COLLECTION BOX - BLUE BOX", "ref": "1201000033"}, "type": "Feature"}
{"geometry": {"coordinates": [-74.1881192, 42.938889], "type": "Point"}, "id": "c6vpOM5Jj92MPXkxAtDQQDt9Y_4=", "properties": {"@spider": "usps_collection_boxes", "addr:city": "AMSTERDAM", "addr:country": "US", "addr:full": "61 CHURCH ST", "addr:postcode": "12010", "addr:state": "NY", "brand": "USPS", "collection_times": "Mo-Sa 09:00", "name": "USPS COLLECTION BOX - BLUE BOX", "ref": "1201000034"}, "type": "Feature"}
{"geometry": {"coordinates": [-74.191177, 42.937015], "type": "Point"}, "id": "fqoF7Z35cQlDjGWg6JPD8p7Ajro=", "properties": {"@spider": "usps_collection_boxes", "addr:city": "AMSTERDAM", "addr:country": "US", "addr:full": "10 CHURCH ST", "addr:postcode": "12010", "addr:state": "NY", "brand": "USPS", "collection_times": "Mo-Fr 17:00; Sa 16:15", "name": "USPS COLLECTION BOX - BLUE BOX", "note": "ON 12/24 AND 12/31, THIS BOX MAY BE COLLECTED AS EARLY AS 12 NOON.", "ref": "1201000037"}, "type": "Feature"}
{"geometry": {"coordinates": [-74.191173, 42.936974], "type": "Point"}, "id": "WX5iRQQtbLVHFKnLWfRcyIF0qPs=", "properties": {"@spider": "usps_collection_boxes", "addr:city": "AMSTERDAM", "addr:country": "US", "addr:full": "10 CHURCH ST", "addr:postcode": "12010", "addr:state": "NY", "brand": "USPS", "collection_times": "Mo-Fr 17:00; Sa 16:15", "name": "USPS COLLECTION BOX - BLUE BOX", "note": "ON 12/24 AND 12/31, THIS BOX MAY BE COLLECTED AS EARLY AS 12 NOON.", "ref": "1201000038"}, "type": "Feature"}
{"geometry": {"coordinates": [-74.1707768, 42.947403], "type": "Point"}, "id": "2wbhxrMKgKf3cO1lUmq_80XehPw=", "properties": {"@spider": "usps_collection_boxes", "addr:city": "AMSTERDAM", "addr:country": "US", "addr:full": "36 MCNEIR AVE", "addr:postcode": "12010", "addr:state": "NY", "brand": "USPS", "collection_times": "Mo-Sa 09:30", "name": "USPS COLLECTION BOX - BLUE BOX", "ref": "1201000042"}, "type": "Feature"}
{"geometry": {"coordinates": [-74.1930233, 42.940167], "type": "Point"}, "id": "ahGnctmzrN37vjja9Xq1zjCU7AY=", "properties": {"@spider": "usps_collection_boxes", "addr:city": "AMSTERDAM", "addr:country": "US", "addr:full": "1 KIMBALL ST", "addr:postcode": "12010", "addr:state": "NY", "brand": "USPS", "collection_times": "Mo-Sa 09:00", "name": "USPS COLLECTION BOX - BLUE BOX", "ref": "1201000043"}, "type": "Feature"}
{"geometry": {"coordinates": [-74.1792935, 42.937287], "type": "Point"}, "id": "x62rIjVsuXCokI6As6S05HuyF5A=", "properties": {"@spider": "usps_collection_boxes", "addr:city": "AMSTERDAM", "addr:country": "US", "addr:full": "161 CHURCH ST", "addr:postcode": "12010", "addr:state": "NY", "brand": "USPS", "collection_times": "Mo-Sa 09:00", "name": "USPS COLLECTION BOX - BLUE BOX", "ref": "1201000054"}, "type": "Feature"}
{"geometry": {"coordinates": [-74.2005327, 42.945971], "type": "Point"}, "id": "chTRNF6wDxiCEX2ZpCYQgxd4hc4=", "properties": {"@spider": "usps_collection_boxes", "addr:city": "AMSTERDAM", "addr:country": "US", "addr:full": "191 GUY PARK AVE", "addr:postcode": "12010", "addr:state": "NY", "brand": "USPS", "collection_times": "Mo-Sa 09:30", "name": "USPS COLLECTION BOX - BLUE BOX", "ref": "1201000057"}, "type": "Feature"}
{"geometry": {"coordinates": [-74.215896, 42.954059], "type": "Point"}, "id": "SE7_Mfi_kssj9x4QdqviUlL46ic=", "properties": {"@spider": "usps_collection_boxes", "addr:city": "AMSTERDAM", "addr:country": "US", "addr:full": "427 GUY PARK AVE", "addr:postcode": "12010", "addr:state": "NY", "brand": "USPS", "collection_times": "Mo-Sa 09:30", "name": "USPS COLLECTION BOX - BLUE BOX", "ref": "1201000060"}, "type": "Feature"}
{"geometry": {"coordinates": [-74.189051, 42.95893], "type": "Point"}, "id": "TFzAr5HysxNIoUOX2t1qpZbWtEY=", "properties": {"@spider": "usps_collection_boxes", "addr:city": "AMSTERDAM", "addr:country": "US", "addr:full": "5010 STATE HIGHWAY 30", "addr:postcode": "12010", "addr:state": "NY", "brand": "USPS", "collection_times": "Mo-Sa 11:00", "name": "USPS COLLECTION BOX - BLUE BOX", "ref": "1201000073"}, "type": "Feature"}
{"geometry": {"coordinates": [-74.1843013, 42.96282], "type": "Point"}, "id": "yce9Tx4pGpTUG8v6RF2iR0ErIuk=", "properties": {"@spider": "usps_collection_boxes", "addr:city": "AMSTERDAM", "addr:country": "US", "addr:full": "141 SANFORD FARMS SHOPPING CTR", "addr:postcode": "12010", "addr:state": "NY", "brand": "USPS", "collection_times": "Mo-Sa 09:00", "name": "USPS COLLECTION BOX - BLUE BOX", "ref": "1201000074"}, "type": "Feature"}
{"geometry": {"coordinates": [-74.191173, 42.936974], "type": "Point"}, "id": "iebwXtpA3PBgKbe4JfJKPMNLHHo=", "properties": {"@spider": "usps_collection_boxes", "addr:city": "AMSTERDAM", "addr:country": "US", "addr:full": "10 CHURCH ST", "addr:postcode": "12010", "addr:state": "NY", "brand": "USPS", "collection_times": "Mo-Fr 17:00; Sa 16:15", "name": "USPS COLLECTION BOX - PO LOBBY", "note": "ON 12/24 AND 12/31, THIS BOX MAY BE COLLECTED AS EARLY AS 12 NOON.", "ref": "1201000075"}, "type": "Feature"}
{"geometry": {"coordinates": [-74.191173, 42.936974], "type": "Point"}, "id": "crLTroguUfjqFe8fqQ4otVRGaXY=", "properties": {"@spider": "usps_collection_boxes", "addr:city": "AMSTERDAM", "addr:country": "US", "addr:full": "10 CHURCH ST", "addr:postcode": "12010", "addr:state": "NY", "brand": "USPS", "collection_times": "Mo-Fr 17:00; Sa 16:15", "name": "USPS COLLECTION BOX - BLUE BOX", "note": "ON 12/24 AND 12/31, THIS BOX MAY BE COLLECTED AS EARLY AS 12 NOON.", "ref": "1201000077"}, "type": "Feature"}
{"geometry": {"coordinates": [-74.191134349, 42.937044599], "type": "Point"}, "id": "JF4nUvGUZBDGsr6J79PtPM9yDmQ=", "properties": {"@spider": "usps_collection_boxes", "addr:city": "AMSTERDAM", "addr:country": "US", "addr:full": "10 CHURCH ST", "addr:postcode": "12010", "addr:state": "NY", "brand": "USPS", "collection_times": "Mo-Fr 17:00; Sa 12:00", "name": "USPS COLLECTION BOX - PO LOBBY", "note": "ON 12/24 AND 12/31, THIS BOX MAY BE COLLECTED AS EARLY AS 12 NOON.", "ref": "1201000081"}, "type": "Feature"}
{"geometry": {"coordinates": [-73.806437, 42.264158], "type": "Point"}, "id": "DJ5EyG42131dJi_57760zFgaPyM=", "properties": {"@spider": "usps_collection_boxes", "addr:city": "ATHENS", "addr:country": "US", "addr:full": "64 N WASHINGTON ST", "addr:postcode": "12015", "addr:state": "NY", "brand": "USPS", "collection_times": "Mo-Fr 16:30; Sa 11:00", "name": "USPS COLLECTION BOX - BLUE BOX", "note": "ON 12/24 AND 12/31, THIS BOX MAY BE COLLECTED AS EARLY AS 12 NOON.", "ref": "1201500001"}, "type": "Feature"}
{"geometry": {"coordinates": [-73.8087841, 42.260134], "type": "Point"}, "id": "yGlQF0aF1N_2Pc_GZSO4WyUinqg=", "properties": {"@spider": "usps_collection_boxes", "addr:city": "ATHENS", "addr:country": "US", "addr:full": "1 N WASHINGTON ST", "addr:postcode": "12015", "addr:state": "NY", "brand": "USPS", "collection_times": "Mo-Sa 09:00", "name": "USPS COLLECTION BOX - BLUE BOX", "ref": "1201500004"}, "type": "Feature"}
{"geometry": {"coordinates": [-73.7970067, 42.308069], "type": "Point"}, "id": "ZemtMGqzMrbgLt6bjUpeEFktOWE=", "properties": {"@spider": "usps_collection_boxes", "addr:city": "ATHENS", "addr:country": "US", "addr:full": "250 TOMMY TRL", "addr:postcode": "12015", "addr:state": "NY", "brand": "USPS", "collection_times": "Mo-Sa 08:45", "name": "USPS COLLECTION BOX - BLUE BOX", "ref": "1201500007"}, "type": "Feature"}
{"geometry": {"coordinates": [-73.8117138, 42.294659], "type": "Point"}, "id": "FtiifWBT7fafvqjoG5pBVu-EIS8=", "properties": {"@spider": "usps_collection_boxes", "addr:city": "ATHENS", "addr:country": "US", "addr:full": "1 PINE POINT RD", "addr:postcode": "12015", "addr:state": "NY", "brand": "USPS", "collection_times": "Mo-Sa 09:30", "name": "USPS COLLECTION BOX - BLUE BOX", "ref": "1201500008"}, "type": "Feature"}
{"geometry": {"coordinates": [-73.806399, 42.264159], "type": "Point"}, "id": "zd-SXiLMswapriV_jtsNrmWOJP8=", "properties": {"@spider": "usps_collection_boxes", "addr:city": "ATHENS", "addr:country": "US", "addr:full": "64 N WASHINGTON ST", "addr:postcode": "12015", "addr:state": "NY", "brand": "USPS", "collection_times": "Mo-Fr 16:30; Sa 11:00", "name": "USPS COLLECTION BOX - PO LOBBY", "note": "ON 12/24 AND 12/31, THIS BOX MAY BE COLLECTED AS EARLY AS 12 NOON.", "ref": "1201500015"}, "type": "Feature"}
{"geometry": {"coordinates": [-73.806427799, 42.264200462], "type": "Point"}, "id": "t7MvSTPPJUQTEAna8HYio0WS7AM=", "properties": {"@spider": "usps_collection_boxes", "addr:city": "ATHENS", "addr:country": "US", "addr:full": "64 N WASHINGTON ST", "addr:postcode": "12015", "addr:state": "NY", "brand": "USPS", "collection_times": "Mo-Fr 16:30; Sa 11:00", "name": "USPS COLLECTION BOX - PO LOBBY", "note": "ON 12/24 AND 12/31, THIS BOX MAY BE COLLECTED AS EARLY AS 12 NOON.", "ref": "1201500017"}, "type": "Feature"}
{"geometry": {"coordinates": [-73.473018, 42.309868], "type": "Point"}, "id": "1rXsEnxkM7cmR2lNZBsAXQKPyrw=", "properties": {"@spider": "usps_collection_boxes", "addr:city": "AUSTERLITZ", "addr:country": "US", "addr:full": "6 E HILL RD", "addr:postcode": "12017", "addr:state": "NY", "brand": "USPS", "collection_times": "Mo-Fr 12:00; Sa 11:15", "name": "USPS COLLECTION BOX - BLUE BOX", "ref": "1201700001"}, "type": "Feature"}
{"geometry": {"coordinates": [-73.473049, 42.309895], "type": "Point"}, "id": "AKp3tYB7pCWj7pVRCr7jZUGLnGE=", "properties": {"@spider": "usps_collection_boxes", "addr:city": "AUSTERLITZ", "addr:country": "US", "addr:full": "6 E HILL RD", "addr:postcode": "12017", "addr:state": "NY", "brand": "USPS", "collection_times": "Mo-Fr 11:45; Sa 11:15", "name": "USPS COLLECTION BOX - PO LOBBY", "ref": "1201700002"}, "type": "Feature"}
{"geometry": {"coordinates": [-73.473001061, 42.309810712], "type": "Point"}, "id": "TCQw58BB2MuLUGAF4Yf1AhK1-xk=", "properties": {"@spider": "usps_collection_boxes", "addr:city": "AUSTERLITZ", "addr:country": "US", "addr:full": "6 E HILL RD", "addr:postcode": "12017", "addr:state": "NY", "brand": "USPS", "collection_times": "Mo-Fr 12:00; Sa 11:30", "name": "USPS COLLECTION BOX - PO LOBBY", "ref": "1201700003"}, "type": "Feature"}
{"geometry": {"coordinates": [-73.547987, 42.635102], "type": "Point"}, "id": "Uy0KQROLKnGV6PUlZ9zLjri8GEU=", "properties": {"@spider": "usps_collection_boxes", "addr:city": "AVERILL PARK", "addr:country": "US", "addr:full": "2951 ROUTE 43", "addr:postcode": "12018", "addr:state": "NY", "brand": "USPS", "collection_times": "Mo-Fr 17:00; Sa 12:00", "name": "USPS COLLECTION BOX - BLUE BOX", "note": "ON 12/24 AND 12/31, THIS BOX MAY BE COLLECTED AS EARLY AS 12 NOON.", "ref": "1201800002"}, "type": "Feature"}
{"geometry": {"coordinates": [-73.547987, 42.635102], "type": "Point"}, "id": "cNsiERq8ntmU3pU0qX8KyrR0CAg=", "properties": {"@spider": "usps_collection_boxes", "addr:city": "AVERILL PARK", "addr:country": "US", "addr:full": "2951 NY 43", "addr:postcode": "12018", "addr:state": "NY", "brand": "USPS", "collection_times": "Mo-Fr 17:00; Sa 12:00", "name": "USPS COLLECTION BOX - PO LOBBY", "note": "ON 12/24 AND 12/31, THIS BOX MAY BE COLLECTED AS EARLY AS 12 NOON.", "ref": "1201800003"}, "type": "Feature"}
{"geometry": {"coordinates": [-73.547987, 42.635103], "type": "Point"}, "id": "Gb8LA7OfZdj8b8730bYge-h4iLQ=", "properties": {"@spider": "usps_collection_boxes", "addr:city": "AVERILL PARK", "addr:country": "US", "addr:full": "2951 NY 43", "addr:postcode": "12018", "addr:state": "NY", "brand": "USPS", "collection_times": "Mo-Fr 17:00; Sa 12:00", "name": "USPS COLLECTION BOX - PO LOBBY", "note": "ON 12/24 AND 12/31, THIS BOX MAY BE COLLECTED AS EARLY AS 12 NOON.", "ref": "1201800004"}, "type": "Feature"}
{"geometry": {"coordinates": [-73.547992049, 42.635092308], "type": "Point"}, "id": "xfF8bKAU12Itlk8p78ppnErP-zA=", "properties": {"@spider": "usps_collection_boxes", "addr:city": "AVERILL PARK", "addr:country": "US", "addr:full": "2951 NY HIGHWAY 43", "addr:postcode": "12018", "addr:state": "NY", "brand": "USPS", "collection_times": "Mo-Fr 17:00; Sa 12:00", "name": "USPS COLLECTION BOX - PO LOBBY", "note": "ON 12/24 AND 12/31, THIS BOX MAY BE COLLECTED AS EARLY AS 12 NOON.", "ref": "1201800005"}, "type": "Feature"}
{"geometry": {"coordinates": [-73.8517879, 43.002381], "type": "Point"}, "id": "qMLglz80hfPLrGmPukjoIoH18BM=", "properties": {"@spider": "usps_collection_boxes", "addr:city": "BALLSTON SPA", "addr:country": "US", "addr:full": "87 FRONT ST", "addr:postcode": "12020", "addr:state": "NY", "brand": "USPS", "collection_times": "Mo-Sa 09:00", "name": "USPS COLLECTION BOX - BLUE BOX", "ref": "1202000001"}, "type": "Feature"}
{"geometry": {"coordinates": [-73.8509476, 42.999346], "type": "Point"}, "id": "Zs500jyJCewQUM9HZ7I_poQDsls=", "properties": {"@spider": "usps_collection_boxes", "addr:city": "BALLSTON SPA", "addr:country": "US", "addr:full": "30 REMSEN ST", "addr:postcode": "12020", "addr:state": "NY", "brand": "USPS", "collection_times": "Mo-Sa 09:00", "name": "USPS COLLECTION BOX - BLUE BOX", "ref": "1202000003"}, "type": "Feature"}
{"geometry": {"coordinates": [-73.8461699, 43.014835], "type": "Point"}, "id": "VTAcouQ8Fxg4HmTbSuqINko1lAc=", "properties": {"@spider": "usps_collection_boxes", "addr:city": "BALLSTON SPA", "addr:country": "US", "addr:full": "2033 DOUBLEDAY AVE", "addr:postcode": "12020", "addr:state": "NY", "brand": "USPS", "collection_times": "Mo-Sa 09:30", "name": "USPS COLLECTION BOX - BLUE BOX", "ref": "1202000012"}, "type": "Feature"}
{"geometry": {"coordinates": [-73.849841, 43.04356], "type": "Point"}, "id": "sH1rQvLIOzEh68qx0jwo-UfX6MY=", "properties": {"@spider": "usps_collection_boxes", "addr:city": "BALLSTON SPA", "addr:country": "US", "addr:full": "344 ROWLAND ST", "addr:postcode": "12020", "addr:state": "NY", "brand": "USPS", "collection_times": "Mo-Sa 11:00", "name": "USPS COLLECTION BOX - BLUE BOX", "ref": "1202000014"}, "type": "Feature"}
{"geometry": {"coordinates": [-73.8451431, 43.048093], "type": "Point"}, "id": "u1Qs4y_WWGIw9XgkBFLfUZyIUic=", "properties": {"@spider": "usps_collection_boxes", "addr:city": "BALLSTON SPA", "addr:country": "US", "addr:full": "418 GEYSER RD", "addr:postcode": "12020", "addr:state": "NY", "brand": "USPS", "collection_times": "Mo-Sa 10:30", "name": "USPS COLLECTION BOX - BLUE BOX", "ref": "1202000015"}, "type": "Feature"}
{"geometry": {"coordinates": [-73.7973888, 42.969403], "type": "Point"}, "id": "hEG8eRsOA3czGY4INrCs-cIXxis=", "properties": {"@spider": "usps_collection_boxes", "addr:city": "BALLSTON SPA", "addr:country": "US", "addr:full": "100 SARATOGA BLVD", "addr:postcode": "12020", "addr:state": "NY", "brand": "USPS", "collection_times": "Mo-Sa 10:00", "name": "USPS COLLECTION BOX - BLUE BOX", "ref": "1202000016"}, "type": "Feature"}
{"geometry": {"coordinates": [-73.792414, 42.969327], "type": "Point"}, "id": "HimNvq7MWSogAAMqfX0y58xLhAc=", "properties": {"@spider": "usps_collection_boxes", "addr:city": "BALLSTON SPA", "addr:country": "US", "addr:full": "12 HEMPHILL PL", "addr:postcode": "12020", "addr:state": "NY", "brand": "USPS", "collection_times": "Mo-Fr 17:00; Sa 16:00", "name": "USPS COLLECTION BOX - BLUE BOX", "note": "ON 12/24 AND 12/31, THIS BOX MAY BE COLLECTED AS EARLY AS 12 NOON.", "ref": "1202000019"}, "type": "Feature"}
{"geometry": {"coordinates": [-73.792414, 42.969327], "type": "Point"}, "id": "TSD-4jFlgXHy_iU0yOUzP5XRU20=", "properties": {"@spider": "usps_collection_boxes", "addr:city": "BALLSTON SPA", "addr:country": "US", "addr:full": "12 HEMPHILL PL", "addr:postcode": "12020", "addr:state": "NY", "brand": "USPS", "collection_times": "Mo-Fr 17:00; Sa 16:00", "name": "USPS COLLECTION BOX - BLUE BOX", "note": "ON 12/24 AND 12/31, THIS BOX MAY BE COLLECTED AS EARLY AS 12 NOON.", "ref": "1202000020"}, "type": "Feature"}
{"geometry": {"coordinates": [-73.848919, 43.002575], "type": "Point"}, "id": "DvLZLX_pL-S-vCeivkoLTuisF0Y=", "properties": {"@spider": "usps_collection_boxes", "addr:city": "BALLSTON SPA", "addr:country": "US", "addr:full": "1 FRONT ST", "addr:postcode": "12020", "addr:state": "NY", "brand": "USPS", "collection_times": "Mo-Fr 17:00; Sa 16:00", "name": "USPS COLLECTION BOX - BLUE BOX", "note": "ON 12/24 AND 12/31, THIS BOX MAY BE COLLECTED AS EARLY AS 12 NOON.", "ref": "1202000021"}, "type": "Feature"}
{"geometry": {"coordinates": [-73.8488, 43.00261], "type": "Point"}, "id": "9emhBkt6rqGLOpzVPRsXnYWp_OE=", "properties": {"@spider": "usps_collection_boxes", "addr:city": "BALLSTON SPA", "addr:country": "US", "addr:full": "1 FRONT ST", "addr:postcode": "12020", "addr:state": "NY", "brand": "USPS", "collection_times": "Mo-Fr 17:00; Sa 16:00", "name": "USPS COLLECTION BOX - BLUE BOX", "note": "ON 12/24 AND 12/31, THIS BOX MAY BE COLLECTED AS EARLY AS 12 NOON.", "ref": "1202000022"}, "type": "Feature"}
{"geometry": {"coordinates": [-73.7951595, 42.973802], "type": "Point"}, "id": "zXdYrzIFHzToWbUUtM_hHlnmQzg=", "properties": {"@spider": "usps_collection_boxes", "addr:city": "BALLSTON SPA", "addr:country": "US", "addr:full": "2 KENDALL WAY", "addr:postcode": "12020", "addr:state": "NY", "brand": "USPS", "collection_times": "Mo-Sa 11:00", "name": "USPS COLLECTION BOX - BLUE BOX", "ref": "1202000027"}, "type": "Feature"}
{"geometry": {"coordinates": [-73.792414, 42.969327], "type": "Point"}, "id": "R4wWDK7l0N0kJOgOSPoWsTqcbDY=", "properties": {"@spider": "usps_collection_boxes", "addr:city": "BALLSTON SPA", "addr:country": "US", "addr:full": "12 HEMPHILL PL", "addr:postcode": "12020", "addr:state": "NY", "brand": "USPS", "collection_times": "Mo-Fr 17:00; Sa 16:00", "name": "USPS COLLECTION BOX - PO LOBBY", "note": "ON 12/24 AND 12/31, THIS BOX MAY BE COLLECTED AS EARLY AS 12 NOON.", "ref": "1202000028"}, "type": "Feature"}
{"geometry": {"coordinates": [-73.8488, 43.00261], "type": "Point"}, "id": "9rdxDjwyPC7jz9UrMSHehZZcUHI=", "properties": {"@spider": "usps_collection_boxes", "addr:city": "BALLSTON SPA", "addr:country": "US", "addr:full": "1 FRONT ST", "addr:postcode": "12020", "addr:state": "NY", "brand": "USPS", "collection_times": "Mo-Fr 17:00; Sa 16:00", "name": "USPS COLLECTION BOX - PO LOBBY", "note": "ON 12/24 AND 12/31, THIS BOX MAY BE COLLECTED AS EARLY AS 12 NOON.", "ref": "1202000029"}, "type": "Feature"}
{"geometry": {"coordinates": [-73.851237941, 43.047370719], "type": "Point"}, "id": "ed5r5M0rWbaV6eiv19EYugZhxZg=", "properties": {"@spider": "usps_collection_boxes", "addr:city": "BALLSTON SPA", "addr:country": "US", "addr:full": "11 TRIEBLE AVE", "addr:postcode": "12020", "addr:state": "NY", "brand": "USPS", "collection_times": "Mo-Sa 11:00", "name": "USPS COLLECTION BOX - BLUE BOX", "ref": "1202000032"}, "type": "Feature"}
{"geometry": {"coordinates": [-73.849151054, 43.002558547], "type": "Point"}, "id": "j49BdWZg6dKkHYAHpDPwtOyl8uw=", "properties": {"@spider": "usps_collection_boxes", "addr:city": "BALLSTON SPA", "addr:country": "US", "addr:full": "1 FRONT ST", "addr:postcode": "12020", "addr:state": "NY", "brand": "USPS", "collection_times": "Mo-Fr 17:00; Sa 13:00", "name": "USPS COLLECTION BOX - PO LOBBY", "note": "ON 12/24 AND 12/31, THIS BOX MAY BE COLLECTED AS EARLY AS 12 NOON.", "ref": "1202000037"}, "type": "Feature"}
{"geometry": {"coordinates": [-73.791863858, 42.969376443], "type": "Point"}, "id": "zCyWA8B6wmZ5u-VlwRpqzw9HEH0=", "properties": {"@spider": "usps_collection_boxes", "addr:city": "BALLSTON SPA", "addr:country": "US", "addr:full": "12 HEMPHILL PL", "addr:postcode": "12020", "addr:state": "NY", "brand": "USPS", "collection_times": "Mo-Fr 17:00; Sa 13:00", "name": "USPS COLLECTION BOX - PO LOBBY", "note": "ON 12/24 AND 12/31, THIS BOX MAY BE COLLECTED AS EARLY AS 12 NOON.", "ref": "1202000038"}, "type": "Feature"}
{"geometry": {"coordinates": [-73.371182, 42.692005], "type": "Point"}, "id": "rTUztFmZjRSSyRyLyatvDgTCX_c=", "properties": {"@spider": "usps_collection_boxes", "addr:city": "BERLIN", "addr:country": "US", "addr:full": "18246 NY 22", "addr:postcode": "12022", "addr:state": "NY", "brand": "USPS", "collection_times": "Mo-Fr 16:15; Sa 12:00", "name": "USPS COLLECTION BOX - BLUE BOX", "note": "ON 12/24 AND 12/31, THIS BOX MAY BE COLLECTED AS EARLY AS 12 NOON.", "ref": "1202200001"}, "type": "Feature"}
{"geometry": {"coordinates": [-73.371182, 42.692006], "type": "Point"}, "id": "SHuT1K-qrYKKhXbB7rVHjyRcStw=", "properties": {"@spider": "usps_collection_boxes", "addr:city": "BERLIN", "addr:country": "US", "addr:full": "18246 NY 22", "addr:postcode": "12022", "addr:state": "NY", "brand": "USPS", "collection_times": "Mo-Fr 16:00; Sa 12:00", "name": "USPS COLLECTION BOX - PO LOBBY", "note": "ON 12/24 AND 12/31, THIS BOX MAY BE COLLECTED AS EARLY AS 12 NOON.", "ref": "1202200002"}, "type": "Feature"}
{"geometry": {"coordinates": [-73.371437626, 42.692283879], "type": "Point"}, "id": "v1hUDc0WoVX3kg6_bv3QNQJ7LfI=", "properties": {"@spider": "usps_collection_boxes", "addr:city": "BERLIN", "addr:country": "US", "addr:full": "18246 STATE ROUTE 22", "addr:postcode": "12022", "addr:state": "NY", "brand": "USPS", "collection_times": "Mo-Fr 16:00; Sa 12:00", "name": "USPS COLLECTION BOX - PO LOBBY", "note": "ON 12/24 AND 12/31, THIS BOX MAY BE COLLECTED AS EARLY AS 12 NOON.", "ref": "1202200004"}, "type": "Feature"}
{"geometry": {"coordinates": [-74.135385, 42.624733], "type": "Point"}, "id": "BPfT1OnMEos_ZtBJUDP_5MGyLac=", "properties": {"@spider": "usps_collection_boxes", "addr:city": "BERNE", "addr:country": "US", "addr:full": "1654 HELDERBERG TRL", "addr:postcode": "12023", "addr:state": "NY", "brand": "USPS", "collection_times": "Mo-Fr 15:00; Sa 11:00", "name": "USPS COLLECTION BOX - PO LOBBY", "note": "ON 12/24 AND 12/31, THIS BOX MAY BE COLLECTED AS EARLY AS 12 NOON.", "ref": "1202300001"}, "type": "Feature"}
{"geometry": {"coordinates": [-74.1352213, 42.625019], "type": "Point"}, "id": "Xwx8CGPECXy8O3OwuCOLVMZjQWE=", "properties": {"@spider": "usps_collection_boxes", "addr:city": "BERNE", "addr:country": "US", "addr:full": "1654 HELDERBERG TRL", "addr:postcode": "12023", "addr:state": "NY", "brand": "USPS", "collection_times": "Mo-Fr 15:00; Sa 11:00", "name": "USPS COLLECTION BOX - BLUE BOX", "note": "ON 12/24 AND 12/31, THIS BOX MAY BE COLLECTED AS EARLY AS 12 NOON.", "ref": "1202300003"}, "type": "Feature"}
{"geometry": {"coordinates": [-74.135289028, 42.624726483], "type": "Point"}, "id": "ooL-lABTAzHFtYfphQsOg2NA-Xo=", "properties": {"@spider": "usps_collection_boxes", "addr:city": "BERNE", "addr:country": "US", "addr:full": "1654 HELDERBERG TRL", "addr:postcode": "12023", "addr:state": "NY", "brand": "USPS", "collection_times": "Mo-Fr 15:00; Sa 11:00", "name": "USPS COLLECTION BOX - PO LOBBY", "note": "ON 12/24 AND 12/31, THIS BOX MAY BE COLLECTED AS EARLY AS 12 NOON.", "ref": "1202300004"}, "type": "Feature"}
{"geometry": {"coordinates": [-73.513871, 42.495142], "type": "Point"}, "id": "02yot_AHmuPiE8JZ-uIEQV26a4o=", "properties": {"@spider": "usps_collection_boxes", "addr:city": "BRAINARD", "addr:country": "US", "addr:full": "2045 STATE ROUTE 20", "addr:postcode": "12024", "addr:state": "NY", "brand": "USPS", "collection_times": "Mo-Fr 10:00; Sa 10:45", "name": "USPS COLLECTION BOX - BLUE BOX", "ref": "1202400001"}, "type": "Feature"}
{"geometry": {"coordinates": [-73.5400559889, 42.481275053], "type": "Point"}, "id": "UUabDD9-Sr7j22AafxFJeHmm4rM=", "properties": {"@spider": "usps_collection_boxes", "addr:city": "BRAINARD", "addr:country": "US", "addr:full": "2045 STATE ROUTE 20", "addr:postcode": "12024", "addr:state": "NY", "brand": "USPS", "collection_times": "Mo-Fr 10:00; Sa 10:45", "name": "USPS COLLECTION BOX - PO LOBBY", "ref": "1202400002"}, "type": "Feature"}
{"geometry": {"coordinates": [-73.514066348, 42.495169653], "type": "Point"}, "id": "e9E8GBVmKm1kYfbKRbq14UPk740=", "properties": {"@spider": "usps_collection_boxes", "addr:city": "BRAINARD", "addr:country": "US", "addr:full": "2045 US ROUTE 20", "addr:postcode": "12024", "addr:state": "NY", "brand": "USPS", "collection_times": "Mo-Fr 10:00; Sa 11:00", "name": "USPS COLLECTION BOX - PO LOBBY", "ref": "1202400003"}, "type": "Feature"}
{"geometry": {"coordinates": [-74.197196, 43.058616], "type": "Point"}, "id": "Z4zgD6p_xYMmHODnK2kxUVXRXUo=", "properties": {"@spider": "usps_collection_boxes", "addr:city": "BROADALBIN", "addr:country": "US", "addr:full": "10 CENTER ST", "addr:postcode": "12025", "addr:state": "NY", "brand": "USPS", "collection_times": "Mo-Fr 17:00; Sa 12:00", "name": "USPS COLLECTION BOX - PO LOBBY", "note": "ON 12/24 AND 12/31, THIS BOX MAY BE COLLECTED AS EARLY AS 12 NOON.", "ref": "1202500002"}, "type": "Feature"}
{"geometry": {"coordinates": [-74.197173, 43.058538], "type": "Point"}, "id": "aKnzb3KKp33jpVRDcdlgMNtDk7Y=", "properties": {"@spider": "usps_collection_boxes", "addr:city": "BROADALBIN", "addr:country": "US", "addr:full": "10 CENTER ST", "addr:postcode": "12025", "addr:state": "NY", "brand": "USPS", "collection_times": "Mo-Fr 16:45; Sa 12:00", "name": "USPS COLLECTION BOX - BLUE BOX", "note": "ON 12/24 AND 12/31, THIS BOX MAY BE COLLECTED AS EARLY AS 12 NOON.", "ref": "1202500004"}, "type": "Feature"}
{"geometry": {"coordinates": [-74.197690944, 43.059182311], "type": "Point"}, "id": "LurhlSCd-ojZH4spn3e2ItCUTLM=", "properties": {"@spider": "usps_collection_boxes", "addr:city": "BROADALBIN", "addr:country": "US", "addr:full": "10 CENTER ST", "addr:postcode": "12025", "addr:state": "NY", "brand": "USPS", "collection_times": "Mo-Fr 17:00; Sa 12:00", "name": "USPS COLLECTION BOX - PO LOBBY", "note": "ON 12/24 AND 12/31, THIS BOX MAY BE COLLECTED AS EARLY AS 12 NOON.", "ref": "1202500005"}, "type": "Feature"}
{"geometry": {"coordinates": [-73.8127385, 42.934755], "type": "Point"}, "id": "jxXADBx5q6UrNrTCULTJ977tFb4=", "properties": {"@spider": "usps_collection_boxes", "addr:city": "BURNT HILLS", "addr:country": "US", "addr:full": "43 ROUND LAKE RD", "addr:postcode": "12027", "addr:state": "NY", "brand": "USPS", "collection_times": "Mo-Sa 09:30", "name": "USPS COLLECTION BOX - BLUE BOX", "ref": "1202700003"}, "type": "Feature"}
{"geometry": {"coordinates": [-73.890609, 42.917873], "type": "Point"}, "id": "PxJDQmqJ8QPId2MPIZpUsTKuKgE=", "properties": {"@spider": "usps_collection_boxes", "addr:city": "BURNT HILLS", "addr:country": "US", "addr:full": "845 ROUTE 50", "addr:postcode": "12027", "addr:state": "NY", "brand": "USPS", "collection_times": "Mo-Fr 16:30; Sa 12:00", "name": "USPS COLLECTION BOX - BLUE BOX", "note": "ON 12/24 AND 12/31, THIS BOX MAY BE COLLECTED AS EARLY AS 12 NOON.", "ref": "1202700004"}, "type": "Feature"}
{"geometry": {"coordinates": [-73.7964543, 42.903364], "type": "Point"}, "id": "t97ZNCVMLlph4WJ2zCxFcZ7ij_I=", "properties": {"@spider": "usps_collection_boxes", "addr:city": "BURNT HILLS", "addr:country": "US", "addr:full": "322 USHERS RD", "addr:postcode": "12027", "addr:state": "NY", "brand": "USPS", "collection_times": "Mo-Sa 09:30", "name": "USPS COLLECTION BOX - BLUE BOX", "ref": "1202700007"}, "type": "Feature"}
{"geometry": {"coordinates": [-73.890609, 42.917874], "type": "Point"}, "id": "2kLWKoXLT6hM3pIyZkmsdMf5eaI=", "properties": {"@spider": "usps_collection_boxes", "addr:city": "BURNT HILLS", "addr:country": "US", "addr:full": "845 ROUTE 50", "addr:postcode": "12027", "addr:state": "NY", "brand": "USPS", "collection_times": "Mo-Fr 16:30; Sa 13:30", "name": "USPS COLLECTION BOX - PO LOBBY", "note": "ON 12/24 AND 12/31, THIS BOX MAY BE COLLECTED AS EARLY AS 12 NOON.", "ref": "1202700008"}, "type": "Feature"}
{"geometry": {"coordinates": [-73.890147937, 42.918108504], "type": "Point"}, "id": "quEnSbrsHU8G-tQlzOLVmFIPdGs=", "properties": {"@spider": "usps_collection_boxes", "addr:city": "BURNT HILLS", "addr:country": "US", "addr:full": "845 STATE ROUTE 50", "addr:postcode": "12027", "addr:state": "NY", "brand": "USPS", "collection_times": "Mo-Fr 17:00; Sa 14:00", "name": "USPS COLLECTION BOX - PO LOBBY", "note": "ON 12/24 AND 12/31, THIS BOX MAY BE COLLECTED AS EARLY AS 12 NOON.", "ref": "1202700014"}, "type": "Feature"}
{"geometry": {"coordinates": [-73.453536, 42.415028], "type": "Point"}, "id": "mUi4SYo_qAUhnu27nqt5tvObK6c=", "properties": {"@spider": "usps_collection_boxes", "addr:city": "CANAAN", "addr:country": "US", "addr:full": "1961 RTE 295", "addr:postcode": "12029", "addr:state": "NY", "brand": "USPS", "collection_times": "Mo-Fr 15:15; Sa 11:00", "name": "USPS COLLECTION BOX - BLUE BOX", "note": "ON 12/24 AND 12/31, THIS BOX MAY BE COLLECTED AS EARLY AS 12 NOON.", "ref": "1202900001"}, "type": "Feature"}
{"geometry": {"coordinates": [-73.45522, 42.415716], "type": "Point"}, "id": "x35pnxOYUghSJLlF2XHxQjTO7kQ=", "properties": {"@spider": "usps_collection_boxes", "addr:city": "CANAAN", "addr:country": "US", "addr:full": "1961 STATE ROUTE 295", "addr:postcode": "12029", "addr:state": "NY", "brand": "USPS", "collection_times": "Mo-Fr 15:15; Sa 11:00", "name": "USPS COLLECTION BOX - PO LOBBY", "note": "ON 12/24 AND 12/31, THIS BOX MAY BE COLLECTED AS EARLY AS 12 NOON.", "ref": "1202900003"}, "type": "Feature"}
{"geometry": {"coordinates": [-73.455540132, 42.415845262], "type": "Point"}, "id": "kq53RFCmJVc-1SYmiuC3Y3lgYSw=", "properties": {"@spider": "usps_collection_boxes", "addr:city": "CANAAN", "addr:country": "US", "addr:full": "1961 STATE ROUTE 295", "addr:postcode": "12029", "addr:state": "NY", "brand": "USPS", "collection_times": "Mo-Fr 15:15; Sa 11:30", "name": "USPS COLLECTION BOX - PO LOBBY", "note": "ON 12/24 AND 12/31, THIS BOX MAY BE COLLECTED AS EARLY AS 12 NOON.", "ref": "1202900005"}, "type": "Feature"}
{"geometry": {"coordinates": [-74.443812, 42.756906], "type": "Point"}, "id": "5UA7WGm2CBtxD2JdpHIaW5Wt0Ko=", "properties": {"@spider": "usps_collection_boxes", "addr:city": "CARLISLE", "addr:country": "US", "addr:full": "2429 HIGHWAY ROUTE 20", "addr:postcode": "12031", "addr:state": "NY", "brand": "USPS", "collection_times": "Mo-Sa 12:00", "name": "USPS COLLECTION BOX - PO LOBBY", "ref": "1203100001"}, "type": "Feature"}
{"geometry": {"coordinates": [-74.444111, 42.756906], "type": "Point"}, "id": "lDdWfrvbrSQE4YedXpRElMfGHCg=", "properties": {"@spider": "usps_collection_boxes", "addr:city": "CARLISLE", "addr:country": "US", "addr:full": "2429 HIGHWAY ROUTE 20", "addr:postcode": "12031", "addr:state": "NY", "brand": "USPS", "collection_times": "Mo-Sa 12:00", "name": "USPS COLLECTION BOX - BLUE BOX", "ref": "1203100002"}, "type": "Feature"}
{"geometry": {"coordinates": [-74.444183361, 42.756900523], "type": "Point"}, "id": "PhHHka7hr3IAoc5lX3dkVZjGTbc=", "properties": {"@spider": "usps_collection_boxes", "addr:city": "CARLISLE", "addr:country": "US", "addr:full": "2429 HIGHWAY ROUTE 20", "addr:postcode": "12031", "addr:state": "NY", "brand": "USPS", "collection_times": "Mo-Sa 12:00", "name": "USPS COLLECTION BOX - PO LOBBY", "ref": "1203100004"}, "type": "Feature"}
{"geometry": {"coordinates": [-74.483978, 43.139471], "type": "Point"}, "id": "zDYtt_qcKjMRDGgoYy4sHLa5r6Y=", "properties": {"@spider": "usps_collection_boxes", "addr:city": "CAROGA LAKE", "addr:country": "US", "addr:full": "2089 STATE HIGHWAY 10", "addr:postcode": "12032", "addr:state": "NY", "brand": "USPS", "collection_times": "Mo-Fr 16:00; Sa 11:30", "name": "USPS COLLECTION BOX - BLUE BOX", "note": "ON 12/24 AND 12/31, THIS BOX MAY BE COLLECTED AS EARLY AS 12 NOON.", "ref": "1203200001"}, "type": "Feature"}
{"geometry": {"coordinates": [-74.484002, 43.13945], "type": "Point"}, "id": "xUif9mE8ZYK7NA2ovwEV4Czs0Ec=", "properties": {"@spider": "usps_collection_boxes", "addr:city": "CAROGA LAKE", "addr:country": "US", "addr:full": "2089 STATE HIGHWAY 10", "addr:postcode": "12032", "addr:state": "NY", "brand": "USPS", "collection_times": "Mo-Fr 16:00; Sa 11:30", "name": "USPS COLLECTION BOX - PO LOBBY", "note": "ON 12/24 AND 12/31, THIS BOX MAY BE COLLECTED AS EARLY AS 12 NOON.", "ref": "1203200002"}, "type": "Feature"}
{"geometry": {"coordinates": [-74.483967113, 43.139501252], "type": "Point"}, "id": "v3RAKmXQ9MJo7n16fVtsMvaX3n0=", "properties": {"@spider": "usps_collection_boxes", "addr:city": "CAROGA LAKE", "addr:country": "US", "addr:full": "2089 STATE HIGHWAY 10", "addr:postcode": "12032", "addr:state": "NY", "brand": "USPS", "collection_times": "Mo-Fr 16:00; Sa 11:30", "name": "USPS COLLECTION BOX - PO LOBBY", "note": "ON 12/24 AND 12/31, THIS BOX MAY BE COLLECTED AS EARLY AS 12 NOON.", "ref": "1203200003"}, "type": "Feature"}
{"geometry": {"coordinates": [-73.757665665, 42.5284992187], "type": "Point"}, "id": "MY6NZVXuM1sH4ngqgHCJWbWuPUI=", "properties": {"@spider": "usps_collection_boxes", "addr:city": "CASTLETON", "addr:country": "US", "addr:full": "108 S MAIN ST", "addr:postcode": "12033", "addr:state": "NY", "brand": "USPS", "collection_times": "Mo-Fr 17:00; Sa 12:00", "name": "USPS COLLECTION BOX - BLUE BOX", "note": "ON 12/24 AND 12/31, THIS BOX MAY BE COLLECTED AS EARLY AS 12 NOON.", "ref": "1203300002"}, "type": "Feature"}
{"geometry": {"coordinates": [-73.7576, 42.52858], "type": "Point"}, "id": "HAyEHfU9GP6wlp3xXR9M28fo9lY=", "properties": {"@spider": "usps_collection_boxes", "addr:city": "CASTLETON", "addr:country": "US", "addr:full": "108 S MAIN ST", "addr:postcode": "12033", "addr:state": "NY", "brand": "USPS", "collection_times": "Mo-Fr 17:00; Sa 12:00", "name": "USPS COLLECTION BOX - PO LOBBY", "note": "ON 12/24 AND 12/31, THIS BOX MAY BE COLLECTED AS EARLY AS 12 NOON.", "ref": "1203300012"}, "type": "Feature"}
{"geometry": {"coordinates": [-73.7576, 42.52858], "type": "Point"}, "id": "ZkuP0mavAlsRhvbn_VoILRx9f_o=", "properties": {"@spider": "usps_collection_boxes", "addr:city": "CASTLETON", "addr:country": "US", "addr:full": "108 S MAIN ST", "addr:postcode": "12033", "addr:state": "NY", "brand": "USPS", "collection_times": "Mo-Fr 17:00; Sa 12:00", "name": "USPS COLLECTION BOX - PO LOBBY", "note": "ON 12/24 AND 12/31, THIS BOX MAY BE COLLECTED AS EARLY AS 12 NOON.", "ref": "1203300013"}, "type": "Feature"}
{"geometry": {"coordinates": [-73.757665665, 42.528499219], "type": "Point"}, "id": "VOZtaerlyXcDHgktt5mEKuhmvIE=", "properties": {"@spider": "usps_collection_boxes", "addr:city": "CASTLETON", "addr:country": "US", "addr:full": "108 S MAIN ST", "addr:postcode": "12033", "addr:state": "NY", "brand": "USPS", "collection_times": "Mo-Fr 17:00; Sa 12:00", "name": "USPS COLLECTION BOX - PO LOBBY", "note": "ON 12/24 AND 12/31, THIS BOX MAY BE COLLECTED AS EARLY AS 12 NOON.", "ref": "1203300014"}, "type": "Feature"}
{"geometry": {"coordinates": [-74.33743, 42.711602], "type": "Point"}, "id": "BA6Ofi7ecCekezFRt-p19R0L7TA=", "properties": {"@spider": "usps_collection_boxes", "addr:city": "CENTRAL BRIDGE", "addr:country": "US", "addr:full": "126 S MAIN ST STE 1", "addr:postcode": "12035", "addr:state": "NY", "brand": "USPS", "collection_times": "Mo-Fr 15:00; Sa 10:30", "name": "USPS COLLECTION BOX - BLUE BOX", "note": "ON 12/24 AND 12/31, THIS BOX MAY BE COLLECTED AS EARLY AS 12 NOON.", "ref": "1203500001"}, "type": "Feature"}
{"geometry": {"coordinates": [-74.337496, 42.711591], "type": "Point"}, "id": "43N4wLpsofIaQMThjgQM_9gFh6Q=", "properties": {"@spider": "usps_collection_boxes", "addr:city": "CENTRAL BRIDGE", "addr:country": "US", "addr:full": "126 S MAIN ST STE 1", "addr:postcode": "12035", "addr:state": "NY", "brand": "USPS", "collection_times": "Mo-Fr 15:00; Sa 10:30", "name": "USPS COLLECTION BOX - PO LOBBY", "note": "ON 12/24 AND 12/31, THIS BOX MAY BE COLLECTED AS EARLY AS 12 NOON.", "ref": "1203500002"}, "type": "Feature"}
{"geometry": {"coordinates": [-74.337532327, 42.711522761], "type": "Point"}, "id": "4lr0h2UZRqVu9PWbdXDa_FGcJ0A=", "properties": {"@spider": "usps_collection_boxes", "addr:city": "CENTRAL BRIDGE", "addr:country": "US", "addr:full": "126 S MAIN ST STE 1", "addr:postcode": "12035", "addr:state": "NY", "brand": "USPS", "collection_times": "Mo-Fr 15:00; Sa 10:30", "name": "USPS COLLECTION BOX - PO LOBBY", "note": "ON 12/24 AND 12/31, THIS BOX MAY BE COLLECTED AS EARLY AS 12 NOON.", "ref": "1203500004"}, "type": "Feature"}
{"geometry": {"coordinates": [-74.666371, 42.545044], "type": "Point"}, "id": "jrgED_6HMMymYhUgztXJpp3Mj40=", "properties": {"@spider": "usps_collection_boxes", "addr:city": "CHARLOTTEVILLE", "addr:country": "US", "addr:full": "632 CHARLOTTE VALLEY RD", "addr:postcode": "12036", "addr:state": "NY", "brand": "USPS", "collection_times": "Mo-Fr 12:00; Sa 10:30", "name": "USPS COLLECTION BOX - BLUE BOX", "ref": "1203600001"}, "type": "Feature"}
{"geometry": {"coordinates": [-74.666299, 42.545071], "type": "Point"}, "id": "XSi8KdQdTtVe0gPTYjbgUBwNP04=", "properties": {"@spider": "usps_collection_boxes", "addr:city": "CHARLOTTEVILLE", "addr:country": "US", "addr:full": "632 CHARLOTTE VALLEY RD", "addr:postcode": "12036", "addr:state": "NY", "brand": "USPS", "collection_times": "Mo-Fr 12:00; Sa 10:30", "name": "USPS COLLECTION BOX - PO LOBBY", "ref": "1203600002"}, "type": "Feature"}
{"geometry": {"coordinates": [-74.666331, 42.545037511], "type": "Point"}, "id": "I0WIPzkaV3tjY35ieoZSJDcBV50=", "properties": {"@spider": "usps_collection_boxes", "addr:city": "CHARLOTTEVILLE", "addr:country": "US", "addr:full": "632 CHARLOTTE VALLEY RD", "addr:postcode": "12036", "addr:state": "NY", "brand": "USPS", "collection_times": "Mo-Fr 12:00; Sa 10:45", "name": "USPS COLLECTION BOX - PO LOBBY", "ref": "1203600003"}, "type": "Feature"}
{"geometry": {"coordinates": [-73.602299, 42.362564], "type": "Point"}, "id": "fCXrD56EYm-PjsmBspilJNSxuiw=", "properties": {"@spider": "usps_collection_boxes", "addr:city": "CHATHAM", "addr:country": "US", "addr:full": "76 KINDERHOOK ST", "addr:postcode": "12037", "addr:state": "NY", "brand": "USPS", "collection_times": "Mo-Sa 09:00", "name": "USPS COLLECTION BOX - BLUE BOX", "ref": "1203700002"}, "type": "Feature"}
{"geometry": {"coordinates": [-73.5949103, 42.363704], "type": "Point"}, "id": "lm928ddXxaY4y1cHwaN2xe6gPes=", "properties": {"@spider": "usps_collection_boxes", "addr:city": "CHATHAM", "addr:country": "US", "addr:full": "77 MAIN ST", "addr:postcode": "12037", "addr:state": "NY", "brand": "USPS", "collection_times": "Mo-Fr 09:00; Sa 09:30", "name": "USPS COLLECTION BOX - BLUE BOX", "ref": "1203700003"}, "type": "Feature"}
{"geometry": {"coordinates": [-73.6022072, 42.353086], "type": "Point"}, "id": "P8oHQB7BBJTy4EQXTKCM7KDH9pA=", "properties": {"@spider": "usps_collection_boxes", "addr:city": "CHATHAM", "addr:country": "US", "addr:full": "161 HUDSON AVE", "addr:postcode": "12037", "addr:state": "NY", "brand": "USPS", "collection_times": "Mo-Sa 11:00", "name": "USPS COLLECTION BOX - BLUE BOX", "ref": "1203700008"}, "type": "Feature"}
{"geometry": {"coordinates": [-73.6038645, 42.357382], "type": "Point"}, "id": "3ghwSgO2eKoZDso71G2SmKEp0jY=", "properties": {"@spider": "usps_collection_boxes", "addr:city": "CHATHAM", "addr:country": "US", "addr:full": "41 CHURCH ST", "addr:postcode": "12037", "addr:state": "NY", "brand": "USPS", "collection_times": "Mo-Sa 09:00", "name": "USPS COLLECTION BOX - BLUE BOX", "ref": "1203700011"}, "type": "Feature"}
{"geometry": {"coordinates": [-73.594684, 42.362611], "type": "Point"}, "id": "8QamWAaKfmoDESSY4L_c8iM7WHo=", "properties": {"@spider": "usps_collection_boxes", "addr:city": "CHATHAM", "addr:country": "US", "addr:full": "12 THOMAS ST", "addr:postcode": "12037", "addr:state": "NY", "brand": "USPS", "collection_times": "Mo-Fr 17:00; Sa 12:00", "name": "USPS COLLECTION BOX - BLUE BOX", "note": "ON 12/24 AND 12/31, THIS BOX MAY BE COLLECTED AS EARLY AS 12 NOON.", "ref": "1203700013"}, "type": "Feature"}
{"geometry": {"coordinates": [-73.6050245, 42.349747], "type": "Point"}, "id": "8wc3zXV8GhEQTpqRnotW-lYS3pE=", "properties": {"@spider": "usps_collection_boxes", "addr:city": "CHATHAM", "addr:country": "US", "addr:full": "15 DARDESS DR", "addr:postcode": "12037", "addr:state": "NY", "brand": "USPS", "collection_times": "Mo-Sa 10:00", "name": "USPS COLLECTION BOX - BLUE BOX", "ref": "1203700014"}, "type": "Feature"}
{"geometry": {"coordinates": [-73.5951399, 42.36253], "type": "Point"}, "id": "GxL5NPx2ltBT6V-9Xw5JUMDFD6M=", "properties": {"@spider": "usps_collection_boxes", "addr:city": "CHATHAM", "addr:country": "US", "addr:full": "35 RAILROAD AVE", "addr:postcode": "12037", "addr:state": "NY", "brand": "USPS", "collection_times": "Mo-Fr 17:15; Sa 12:00", "name": "USPS COLLECTION BOX - PO LOBBY", "note": "ON 12/24 AND 12/31, THIS BOX MAY BE COLLECTED AS EARLY AS 12 NOON.", "ref": "1203700016"}, "type": "Feature"}
{"geometry": {"coordinates": [-73.595300638, 42.362491067], "type": "Point"}, "id": "JzdOOV1r7klVFXh9rV2BjLwEtA8=", "properties": {"@spider": "usps_collection_boxes", "addr:city": "CHATHAM", "addr:country": "US", "addr:full": "35 RAILROAD AVE", "addr:postcode": "12037", "addr:state": "NY", "brand": "USPS", "collection_times": "Mo-Fr 17:00; Sa 12:00", "name": "USPS COLLECTION BOX - PO LOBBY", "note": "ON 12/24 AND 12/31, THIS BOX MAY BE COLLECTED AS EARLY AS 12 NOON.", "ref": "1203700017"}, "type": "Feature"}
{"geometry": {"coordinates": [-73.3571592194, 42.6312971163], "type": "Point"}, "id": "Yu5-hV3r2GtFxkr5giiuG0yxwAc=", "properties": {"@spider": "usps_collection_boxes", "addr:city": "CHERRY PLAIN", "addr:country": "US", "addr:full": "65 CHERRY PLAIN SQ", "addr:postcode": "12040", "addr:state": "NY", "brand": "USPS", "collection_times": "Mo-Fr 17:00; Sa 11:30", "name": "USPS COLLECTION BOX - BLUE BOX", "note": "ON 12/24 AND 12/31, THIS BOX MAY BE COLLECTED AS EARLY AS 12 NOON.", "ref": "1204000001"}, "type": "Feature"}
{"geometry": {"coordinates": [-73.357157789, 42.63130222], "type": "Point"}, "id": "7QSHpfv66a_rjvOXb2Egd_gXNWY=", "properties": {"@spider": "usps_collection_boxes", "addr:city": "CHERRY PLAIN", "addr:country": "US", "addr:full": "65 CHERRY PLAIN SQ", "addr:postcode": "12040", "addr:state": "NY", "brand": "USPS", "collection_times": "Mo-Fr 17:00; Sa 11:30", "name": "USPS COLLECTION BOX - PO LOBBY", "note": "ON 12/24 AND 12/31, THIS BOX MAY BE COLLECTED AS EARLY AS 12 NOON.", "ref": "1204000002"}, "type": "Feature"}
{"geometry": {"coordinates": [-73.357130485, 42.631282436], "type": "Point"}, "id": "6Gt3qq10BqnNLH_fC5RNPIkRlzA=", "properties": {"@spider": "usps_collection_boxes", "addr:city": "CHERRY PLAIN", "addr:country": "US", "addr:full": "65 CHERRY PLAIN SQ", "addr:postcode": "12040", "addr:state": "NY", "brand": "USPS", "collection_times": "Mo-Fr 17:00; Sa 11:45", "name": "USPS COLLECTION BOX - PO LOBBY", "note": "ON 12/24 AND 12/31, THIS BOX MAY BE COLLECTED AS EARLY AS 12 NOON.", "ref": "1204000003"}, "type": "Feature"}
{"geometry": {"coordinates": [-73.955167, 42.575025], "type": "Point"}, "id": "hBdY6S4mG4hUTkU9-1S66QQfa_Q=", "properties": {"@spider": "usps_collection_boxes", "addr:city": "CLARKSVILLE", "addr:country": "US", "addr:full": "1967 DELAWARE TPKE", "addr:postcode": "12041", "addr:state": "NY", "brand": "USPS", "collection_times": "Mo-Fr 16:45; Sa 11:15", "name": "USPS COLLECTION BOX - BLUE BOX", "note": "ON 12/24 AND 12/31, THIS BOX MAY BE COLLECTED AS EARLY AS 12 NOON.", "ref": "1204100001"}, "type": "Feature"}
{"geometry": {"coordinates": [-73.955167, 42.575025], "type": "Point"}, "id": "Mf-MzuZTne0sfAva87dhADygrD4=", "properties": {"@spider": "usps_collection_boxes", "addr:city": "CLARKSVILLE", "addr:country": "US", "addr:full": "1967 DELAWARE TNPK", "addr:postcode": "12041", "addr:state": "NY", "brand": "USPS", "collection_times": "Mo-Fr 16:45; Sa 11:15", "name": "USPS COLLECTION BOX - PO LOBBY", "note": "ON 12/24 AND 12/31, THIS BOX MAY BE COLLECTED AS EARLY AS 12 NOON.", "ref": "1204100002"}, "type": "Feature"}
{"geometry": {"coordinates": [-73.955264914, 42.575034659], "type": "Point"}, "id": "sCRncAlOoRxKl8APgZ07xUZ0fVE=", "properties": {"@spider": "usps_collection_boxes", "addr:city": "CLARKSVILLE", "addr:country": "US", "addr:full": "1967 DELAWARE TPKE", "addr:postcode": "12041", "addr:state": "NY", "brand": "USPS", "collection_times": "Mo-Fr 16:45; Sa 11:00", "name": "USPS COLLECTION BOX - PO LOBBY", "note": "ON 12/24 AND 12/31, THIS BOX MAY BE COLLECTED AS EARLY AS 12 NOON.", "ref": "1204100003"}, "type": "Feature"}
{"geometry": {"coordinates": [-74.483999, 42.678851], "type": "Point"}, "id": "Q_YnFoIBwSRMwxDu2_xluj1ZvfQ=", "properties": {"@spider": "usps_collection_boxes", "addr:city": "COBLESKILL", "addr:country": "US", "addr:full": "111 UNION ST", "addr:postcode": "12043", "addr:state": "NY", "brand": "USPS", "collection_times": "Mo-Fr 17:00; Sa 13:30", "name": "USPS COLLECTION BOX - BLUE BOX", "note": "ON 12/24 AND 12/31, THIS BOX MAY BE COLLECTED AS EARLY AS 12 NOON.", "ref": "1204300001"}, "type": "Feature"}
{"geometry": {"coordinates": [-74.483999, 42.678851], "type": "Point"}, "id": "yDZsl5sOehu0Z5Vp-unYfaIJzlE=", "properties": {"@spider": "usps_collection_boxes", "addr:city": "COBLESKILL", "addr:country": "US", "addr:full": "111 UNION ST", "addr:postcode": "12043", "addr:state": "NY", "brand": "USPS", "collection_times": "Mo-Fr 17:00; Sa 13:30", "name": "USPS COLLECTION BOX - BLUE BOX", "note": "ON 12/24 AND 12/31, THIS BOX MAY BE COLLECTED AS EARLY AS 12 NOON.", "ref": "1204300002"}, "type": "Feature"}
{"geometry": {"coordinates": [-74.4734827, 42.680699], "type": "Point"}, "id": "p_cWtvBi1KtbAQ575Nj4ClltGIY=", "properties": {"@spider": "usps_collection_boxes", "addr:city": "COBLESKILL", "addr:country": "US", "addr:full": "813 E MAIN ST", "addr:postcode": "12043", "addr:state": "NY", "brand": "USPS", "collection_times": "Mo-Sa 09:00", "name": "USPS COLLECTION BOX - BLUE BOX", "ref": "1204300012"}, "type": "Feature"}
{"geometry": {"coordinates": [-74.470797, 42.682295], "type": "Point"}, "id": "DX3im95xfB4t9caalxE-LSStmtg=", "properties": {"@spider": "usps_collection_boxes", "addr:city": "COBLESKILL", "addr:country": "US", "addr:full": "115 PLAZA LN", "addr:postcode": "12043", "addr:state": "NY", "brand": "USPS", "collection_times": "Mo-Sa 09:00", "name": "USPS COLLECTION BOX - BLUE BOX", "ref": "1204300013"}, "type": "Feature"}
{"geometry": {"coordinates": [-74.4550743, 42.681882], "type": "Point"}, "id": "W_2cYJfyi3malzcy-VHSuUzWrqQ=", "properties": {"@spider": "usps_collection_boxes", "addr:city": "COBLESKILL", "addr:country": "US", "addr:full": "123 MERCHANT PL", "addr:postcode": "12043", "addr:state": "NY", "brand": "USPS", "collection_times": "Mo-Sa 10:00", "name": "USPS COLLECTION BOX - BLUE BOX", "ref": "1204300016"}, "type": "Feature"}
{"geometry": {"coordinates": [-74.483999, 42.678851], "type": "Point"}, "id": "3Y2JQMgYY1-EBd0-yv-nJ85ZihY=", "properties": {"@spider": "usps_collection_boxes", "addr:city": "COBLESKILL", "addr:country": "US", "addr:full": "111 UNION ST", "addr:postcode": "12043", "addr:state": "NY", "brand": "USPS", "collection_times": "Mo-Fr 17:00; Sa 13:30", "name": "USPS COLLECTION BOX - PO LOBBY", "note": "ON 12/24 AND 12/31, THIS BOX MAY BE COLLECTED AS EARLY AS 12 NOON.", "ref": "1204300018"}, "type": "Feature"}
{"geometry": {"coordinates": [-74.483999, 42.678851], "type": "Point"}, "id": "xNuVM1dYbwpntIE8JFLNe9b0uz4=", "properties": {"@spider": "usps_collection_boxes", "addr:city": "COBLESKILL", "addr:country": "US", "addr:full": "111 UNION ST", "addr:postcode": "12043", "addr:state": "NY", "brand": "USPS", "collection_times": "Mo-Fr 17:00; Sa 13:30", "name": "USPS COLLECTION BOX - PO LOBBY", "note": "ON 12/24 AND 12/31, THIS BOX MAY BE COLLECTED AS EARLY AS 12 NOON.", "ref": "1204300019"}, "type": "Feature"}
{"geometry": {"coordinates": [-74.483999354, 42.678844607], "type": "Point"}, "id": "72MDbEPyPXwagBtG2Zdjg8di6nk=", "properties": {"@spider": "usps_collection_boxes", "addr:city": "COBLESKILL", "addr:country": "US", "addr:full": "111 UNION ST", "addr:postcode": "12043", "addr:state": "NY", "brand": "USPS", "collection_times": "Mo-Fr 17:00; Sa 12:00", "name": "USPS COLLECTION BOX - PO LOBBY", "note": "ON 12/24 AND 12/31, THIS BOX MAY BE COLLECTED AS EARLY AS 12 NOON.", "ref": "1204300024"}, "type": "Feature"}
{"geometry": {"coordinates": [-73.7925556, 42.474288], "type": "Point"}, "id": "Jj4eIiQLyrvwvePGprRVEar_Nik=", "properties": {"@spider": "usps_collection_boxes", "addr:city": "COEYMANS", "addr:country": "US", "addr:full": "96 MAIN ST", "addr:postcode": "12045", "addr:state": "NY", "brand": "USPS", "collection_times": "Mo-Fr 11:30; Sa 09:30", "name": "USPS COLLECTION BOX - BLUE BOX", "ref": "1204500001"}, "type": "Feature"}
{"geometry": {"coordinates": [-73.792606, 42.474328], "type": "Point"}, "id": "7MITbbKuMScJZDwkmio28KOGGZQ=", "properties": {"@spider": "usps_collection_boxes", "addr:city": "COEYMANS", "addr:country": "US", "addr:full": "96 MAIN ST", "addr:postcode": "12045", "addr:state": "NY", "brand": "USPS", "collection_times": "Mo-Fr 11:30; Sa 10:00", "name": "USPS COLLECTION BOX - PO LOBBY", "ref": "1204500003"}, "type": "Feature"}
{"geometry": {"coordinates": [-73.792568285, 42.474307872], "type": "Point"}, "id": "CuiO9-yHf45nzH-7M07bbD2K2eY=", "properties": {"@spider": "usps_collection_boxes", "addr:city": "COEYMANS", "addr:country": "US", "addr:full": "96 MAIN ST", "addr:postcode": "12045", "addr:state": "NY", "brand": "USPS", "collection_times": "Mo-Fr 11:30; Sa 10:00", "name": "USPS COLLECTION BOX - PO LOBBY", "ref": "1204500004"}, "type": "Feature"}
{"geometry": {"coordinates": [-73.894109, 42.471071], "type": "Point"}, "id": "WroyjzOIL7qmsK0Hd-dy7-Ld_84=", "properties": {"@spider": "usps_collection_boxes", "addr:city": "COEYMANS HOLLOW", "addr:country": "US", "addr:full": "1273 ROUTE 143", "addr:postcode": "12046", "addr:state": "NY", "brand": "USPS", "collection_times": "Mo-Fr 16:00; Sa 11:00", "name": "USPS COLLECTION BOX - BLUE BOX", "note": "ON 12/24 AND 12/31, THIS BOX MAY BE COLLECTED AS EARLY AS 12 NOON.", "ref": "1204600001"}, "type": "Feature"}
{"geometry": {"coordinates": [-73.89411, 42.47107], "type": "Point"}, "id": "019_tQB4XNCpfengrTJMF7jUTRo=", "properties": {"@spider": "usps_collection_boxes", "addr:city": "COEYMANS HOLLOW", "addr:country": "US", "addr:full": "1273 ROUTE 143", "addr:postcode": "12046", "addr:state": "NY", "brand": "USPS", "collection_times": "Mo-Fr 16:00; Sa 11:00", "name": "USPS COLLECTION BOX - PO LOBBY", "note": "ON 12/24 AND 12/31, THIS BOX MAY BE COLLECTED AS EARLY AS 12 NOON.", "ref": "1204600002"}, "type": "Feature"}
{"geometry": {"coordinates": [-73.893974473, 42.470986486], "type": "Point"}, "id": "8U3Y9fkbbTgArZXhB_O8lkKWsKc=", "properties": {"@spider": "usps_collection_boxes", "addr:city": "COEYMANS HOLLOW", "addr:country": "US", "addr:full": "1273 STATE ROUTE 143", "addr:postcode": "12046", "addr:state": "NY", "brand": "USPS", "collection_times": "Mo-Fr 16:15; Sa 11:15", "name": "USPS COLLECTION BOX - PO LOBBY", "note": "ON 12/24 AND 12/31, THIS BOX MAY BE COLLECTED AS EARLY AS 12 NOON.", "ref": "1204600003"}, "type": "Feature"}
{"geometry": {"coordinates": [-73.7214838, 42.772842], "type": "Point"}, "id": "fhMWQgHc35LZO-5RipCEDboqmsg=", "properties": {"@spider": "usps_collection_boxes", "addr:city": "COHOES", "addr:country": "US", "addr:full": "6 SUNSET CT", "addr:postcode": "12047", "addr:state": "NY", "brand": "USPS", "collection_times": "Mo-Sa 12:00", "name": "USPS COLLECTION BOX - BLUE BOX", "ref": "1204700024"}, "type": "Feature"}
{"geometry": {"coordinates": [-73.700055, 42.77435], "type": "Point"}, "id": "mPT0GC8hVvkeHyJxjc933VVwf_c=", "properties": {"@spider": "usps_collection_boxes", "addr:city": "COHOES", "addr:country": "US", "addr:full": "101 MOHAWK ST", "addr:postcode": "12047", "addr:state": "NY", "brand": "USPS", "collection_times": "Mo-Fr 17:00; Sa 15:00", "name": "USPS COLLECTION BOX - BLUE BOX", "note": "ON 12/24 AND 12/31, THIS BOX MAY BE COLLECTED AS EARLY AS 12 NOON.", "ref": "1204700036"}, "type": "Feature"}
{"geometry": {"coordinates": [-73.70009, 42.77444], "type": "Point"}, "id": "Mm2HPARTDNeX8uqWG0vlszY9hus=", "properties": {"@spider": "usps_collection_boxes", "addr:city": "COHOES", "addr:country": "US", "addr:full": "101 MOHAWK ST", "addr:postcode": "12047", "addr:state": "NY", "brand": "USPS", "collection_times": "Mo-Fr 17:00; Sa 15:00", "name": "USPS COLLECTION BOX - PO LOBBY", "note": "ON 12/24 AND 12/31, THIS BOX MAY BE COLLECTED AS EARLY AS 12 NOON.", "ref": "1204700060"}, "type": "Feature"}
{"geometry": {"coordinates": [-73.700063138, 42.774200801], "type": "Point"}, "id": "XLL4Px787NfRxa4C5lMvj9Nmpdk=", "properties": {"@spider": "usps_collection_boxes", "addr:city": "COHOES", "addr:country": "US", "addr:full": "101 MOHAWK ST", "addr:postcode": "12047", "addr:state": "NY", "brand": "USPS", "collection_times": "Mo-Fr 16:45; Sa 12:30", "name": "USPS COLLECTION BOX - PO LOBBY", "note": "ON 12/24 AND 12/31, THIS BOX MAY BE COLLECTED AS EARLY AS 12 NOON.", "ref": "1204700064"}, "type": "Feature"}
{"geometry": {"coordinates": [-73.7527532578, 42.3273564926], "type": "Point"}, "id": "cuPhCQhEsHj-S0ju0dVbGYx9tg8=", "properties": {"@spider": "usps_collection_boxes", "addr:city": "COLUMBIAVILLE", "addr:country": "US", "addr:full": "1227 ROUTE 9", "addr:postcode": "12050", "addr:state": "NY", "brand": "USPS", "collection_times": "Mo-Fr 16:30; Sa 11:30", "name": "USPS COLLECTION BOX - BLUE BOX", "note": "ON 12/24 AND 12/31, THIS BOX MAY BE COLLECTED AS EARLY AS 12 NOON.", "ref": "1205000001"}, "type": "Feature"}
{"geometry": {"coordinates": [-73.752753258, 42.327356493], "type": "Point"}, "id": "4zdGRKbPPEPajoBsjgnAZMg1WgI=", "properties": {"@spider": "usps_collection_boxes", "addr:city": "COLUMBIAVILLE", "addr:country": "US", "addr:full": "1227 ROUTE 9", "addr:postcode": "12050", "addr:state": "NY", "brand": "USPS", "collection_times": "Mo-Fr 16:30; Sa 11:30", "name": "USPS COLLECTION BOX - PO LOBBY", "note": "ON 12/24 AND 12/31, THIS BOX MAY BE COLLECTED AS EARLY AS 12 NOON.", "ref": "1205000003"}, "type": "Feature"}
{"geometry": {"coordinates": [-73.752753258, 42.327356493], "type": "Point"}, "id": "He6ZMXWk6TcHsvRhavT1FXNQPhs=", "properties": {"@spider": "usps_collection_boxes", "addr:city": "COLUMBIAVILLE", "addr:country": "US", "addr:full": "1227 ROUTE 9", "addr:postcode": "12050", "addr:state": "NY", "brand": "USPS", "collection_times": "Mo-Fr 17:00; Sa 11:45", "name": "USPS COLLECTION BOX - PO LOBBY", "note": "ON 12/24 AND 12/31, THIS BOX MAY BE COLLECTED AS EARLY AS 12 NOON.", "ref": "1205000004"}, "type": "Feature"}
{"geometry": {"coordinates": [-73.796263, 42.351847], "type": "Point"}, "id": "-Ncx3V7lTL6gwXcoaFILJvU74GA=", "properties": {"@spider": "usps_collection_boxes", "addr:city": "COXSACKIE", "addr:country": "US", "addr:full": "27 REED ST", "addr:postcode": "12051", "addr:state": "NY", "brand": "USPS", "collection_times": "Mo-Fr 17:00; Sa 12:00", "name": "USPS COLLECTION BOX - BLUE BOX", "note": "ON 12/24 AND 12/31, THIS BOX MAY BE COLLECTED AS EARLY AS 12 NOON.", "ref": "1205100001"}, "type": "Feature"}
{"geometry": {"coordinates": [-73.8335499, 42.362512], "type": "Point"}, "id": "IrfeD17s9WAzWhJxJCfpXLpJdKg=", "properties": {"@spider": "usps_collection_boxes", "addr:city": "COXSACKIE", "addr:country": "US", "addr:full": "44 HOPE PLZ", "addr:postcode": "12051", "addr:state": "NY", "brand": "USPS", "collection_times": "Mo-Sa 10:00", "name": "USPS COLLECTION BOX - BLUE BOX", "ref": "1205100004"}, "type": "Feature"}
{"geometry": {"coordinates": [-73.8232237, 42.360562], "type": "Point"}, "id": "_DxYr-n-szIv7PsngWxHBDaUTsQ=", "properties": {"@spider": "usps_collection_boxes", "addr:city": "COXSACKIE", "addr:country": "US", "addr:full": "100 BETHANY VLG", "addr:postcode": "12051", "addr:state": "NY", "brand": "USPS", "collection_times": "Mo-Sa 09:00", "name": "USPS COLLECTION BOX - BLUE BOX", "ref": "1205100005"}, "type": "Feature"}
{"geometry": {"coordinates": [-73.8046754, 42.353802], "type": "Point"}, "id": "KyvSSgPYhF6ywso4yyxTEKuVasc=", "properties": {"@spider": "usps_collection_boxes", "addr:city": "COXSACKIE", "addr:country": "US", "addr:full": "97 MANSION ST", "addr:postcode": "12051", "addr:state": "NY", "brand": "USPS", "collection_times": "Mo-Sa 10:00", "name": "USPS COLLECTION BOX - BLUE BOX", "ref": "1205100011"}, "type": "Feature"}
{"geometry": {"coordinates": [-73.8204205, 42.362044], "type": "Point"}, "id": "ADniAyl1o2PqngvhYsUtbxT0mow=", "properties": {"@spider": "usps_collection_boxes", "addr:city": "COXSACKIE", "addr:country": "US", "addr:full": "273 MANSION ST", "addr:postcode": "12051", "addr:state": "NY", "brand": "USPS", "collection_times": "Mo-Sa 10:00", "name": "USPS COLLECTION BOX - BLUE BOX", "ref": "1205100012"}, "type": "Feature"}
{"geometry": {"coordinates": [-73.7962, 42.351828], "type": "Point"}, "id": "P83VPXHPyqm2DFAJ2M2sUct7vJ0=", "properties": {"@spider": "usps_collection_boxes", "addr:city": "COXSACKIE", "addr:country": "US", "addr:full": "27 REED ST", "addr:postcode": "12051", "addr:state": "NY", "brand": "USPS", "collection_times": "Mo-Fr 16:45; Sa 12:00", "name": "USPS COLLECTION BOX - PO LOBBY", "note": "ON 12/24 AND 12/31, THIS BOX MAY BE COLLECTED AS EARLY AS 12 NOON.", "ref": "1205100015"}, "type": "Feature"}
{"geometry": {"coordinates": [-73.796586674, 42.351797377], "type": "Point"}, "id": "VLNl1d0xqW-JyCpz6gOcMlpKckU=", "properties": {"@spider": "usps_collection_boxes", "addr:city": "COXSACKIE", "addr:country": "US", "addr:full": "27 REED ST", "addr:postcode": "12051", "addr:state": "NY", "brand": "USPS", "collection_times": "Mo-Fr 16:45; Sa 12:00", "name": "USPS COLLECTION BOX - PO LOBBY", "note": "ON 12/24 AND 12/31, THIS BOX MAY BE COLLECTED AS EARLY AS 12 NOON.", "ref": "1205100016"}, "type": "Feature"}
{"geometry": {"coordinates": [-73.4785573096, 42.7586790643], "type": "Point"}, "id": "Vvtgfy06G21aVIvkWzlXvijr6bc=", "properties": {"@spider": "usps_collection_boxes", "addr:city": "CROPSEYVILLE", "addr:country": "US", "addr:full": "3991 NY2", "addr:postcode": "12052", "addr:state": "NY", "brand": "USPS", "collection_times": "Mo-Fr 16:30; Sa 11:30", "name": "USPS COLLECTION BOX - BLUE BOX", "note": "ON 12/24 AND 12/31, THIS BOX MAY BE COLLECTED AS EARLY AS 12 NOON.", "ref": "1205200001"}, "type": "Feature"}
{"geometry": {"coordinates": [-73.4785573096, 42.7586790643], "type": "Point"}, "id": "FjasJNc_Z0MNzirZI-zBq0OR5wo=", "properties": {"@spider": "usps_collection_boxes", "addr:city": "CROPSEYVILLE", "addr:country": "US", "addr:full": "3991 NY2", "addr:postcode": "12052", "addr:state": "NY", "brand": "USPS", "collection_times": "Mo-Fr 16:45; Sa 11:45", "name": "USPS COLLECTION BOX - PO LOBBY", "note": "ON 12/24 AND 12/31, THIS BOX MAY BE COLLECTED AS EARLY AS 12 NOON.", "ref": "1205200002"}, "type": "Feature"}
{"geometry": {"coordinates": [-73.568444932, 42.749831628], "type": "Point"}, "id": "WHsVRi6xApCWKENZ0WQl9LjkgUs=", "properties": {"@spider": "usps_collection_boxes", "addr:city": "CROPSEYVILLE", "addr:country": "US", "addr:full": "3991 STATE RTE 2", "addr:postcode": "12052", "addr:state": "NY", "brand": "USPS", "collection_times": "Mo-Fr 16:30; Sa 11:30", "name": "USPS COLLECTION BOX - PO LOBBY", "note": "ON 12/24 AND 12/31, THIS BOX MAY BE COLLECTED AS EARLY AS 12 NOON.", "ref": "1205200003"}, "type": "Feature"}
{"geometry": {"coordinates": [-74.1873166, 42.743832], "type": "Point"}, "id": "cCsGQY-vQ_CWqvBLDcrgq158fZk=", "properties": {"@spider": "usps_collection_boxes", "addr:city": "DELANSON", "addr:country": "US", "addr:full": "126 RAILROAD AVE", "addr:postcode": "12053", "addr:state": "NY", "brand": "USPS", "collection_times": "Mo-Fr 16:45; Sa 10:30", "name": "USPS COLLECTION BOX - BLUE BOX", "note": "ON 12/24 AND 12/31, THIS BOX MAY BE COLLECTED AS EARLY AS 12 NOON.", "ref": "1205300001"}, "type": "Feature"}
{"geometry": {"coordinates": [-74.1871414, 42.743838], "type": "Point"}, "id": "3S_YUcQ50stovLd9hQuT9PB9duQ=", "properties": {"@spider": "usps_collection_boxes", "addr:city": "DELANSON", "addr:country": "US", "addr:full": "126 RAILROAD AVE", "addr:postcode": "12053", "addr:state": "NY", "brand": "USPS", "collection_times": "Mo-Fr 17:00; Sa 10:45", "name": "USPS COLLECTION BOX - PO LOBBY", "note": "ON 12/24 AND 12/31, THIS BOX MAY BE COLLECTED AS EARLY AS 12 NOON.", "ref": "1205300003"}, "type": "Feature"}
{"geometry": {"coordinates": [-74.187240714, 42.744092188], "type": "Point"}, "id": "TIjhGIx03EL6tqXdlfGXUEGFQ6k=", "properties": {"@spider": "usps_collection_boxes", "addr:city": "DELANSON", "addr:country": "US", "addr:full": "126 RAILROAD AVE", "addr:postcode": "12053", "addr:state": "NY", "brand": "USPS", "collection_times": "Mo-Fr 17:00; Sa 11:00", "name": "USPS COLLECTION BOX - PO LOBBY", "note": "ON 12/24 AND 12/31, THIS BOX MAY BE COLLECTED AS EARLY AS 12 NOON.", "ref": "1205300005"}, "type": "Feature"}
{"geometry": {"coordinates": [-73.8121885, 42.622595], "type": "Point"}, "id": "NtczNUtMWYLlMNVoR08UdfCcclE=", "properties": {"@spider": "usps_collection_boxes", "addr:city": "DELMAR", "addr:country": "US", "addr:full": "209 KENWOOD AVE", "addr:postcode": "12054", "addr:state": "NY", "brand": "USPS", "collection_times": "Mo-Sa 09:00", "name": "USPS COLLECTION BOX - BLUE BOX", "ref": "1205400003"}, "type": "Feature"}
{"geometry": {"coordinates": [-73.8170164, 42.622003], "type": "Point"}, "id": "KzuNChnmb4ADiaVZ6LAdu9ezLC0=", "properties": {"@spider": "usps_collection_boxes", "addr:city": "DELMAR", "addr:country": "US", "addr:full": "261 KENWOOD AVE", "addr:postcode": "12054", "addr:state": "NY", "brand": "USPS", "collection_times": "Mo-Sa 09:00", "name": "USPS COLLECTION BOX - BLUE BOX", "ref": "1205400004"}, "type": "Feature"}
{"geometry": {"coordinates": [-73.8402249, 42.619748], "type": "Point"}, "id": "spdnpktmhv_XTCmRBJMwpUfz-jk=", "properties": {"@spider": "usps_collection_boxes", "addr:city": "DELMAR", "addr:country": "US", "addr:full": "445 DELAWARE AVE", "addr:postcode": "12054", "addr:state": "NY", "brand": "USPS", "collection_times": "Mo-Fr 14:45; Sa 14:00", "name": "USPS COLLECTION BOX - BLUE BOX", "note": "ON 12/24 AND 12/31, THIS BOX MAY BE COLLECTED AS EARLY AS 12 NOON.", "ref": "1205400011"}, "type": "Feature"}
{"geometry": {"coordinates": [-73.8024289, 42.626226], "type": "Point"}, "id": "n98cwulxTU_Lt0WiS2A9VraZ9b0=", "properties": {"@spider": "usps_collection_boxes", "addr:city": "DELMAR", "addr:country": "US", "addr:full": "125 ROCKEFELLER RD", "addr:postcode": "12054", "addr:state": "NY", "brand": "USPS", "collection_times": "Mo-Sa 10:00", "name": "USPS COLLECTION BOX - BLUE BOX", "ref": "1205400013"}, "type": "Feature"}
{"geometry": {"coordinates": [-73.8381656, 42.609859], "type": "Point"}, "id": "1ZX-VunQqg7Ke3P4t1z5Vxni0-c=", "properties": {"@spider": "usps_collection_boxes", "addr:city": "DELMAR", "addr:country": "US", "addr:full": "95 MURRAY AVE", "addr:postcode": "12054", "addr:state": "NY", "brand": "USPS", "collection_times": "Mo-Sa 12:00", "name": "USPS COLLECTION BOX - BLUE BOX", "ref": "1205400014"}, "type": "Feature"}
{"geometry": {"coordinates": [-73.8080788, 42.629588], "type": "Point"}, "id": "0mBnATPPFbJTor1F9W_VrxlutTs=", "properties": {"@spider": "usps_collection_boxes", "addr:city": "DELMAR", "addr:country": "US", "addr:full": "88 DELAWARE AVE", "addr:postcode": "12054", "addr:state": "NY", "brand": "USPS", "collection_times": "Mo-Sa 14:00", "name": "USPS COLLECTION BOX - BLUE BOX", "note": "ON 12/24 AND 12/31, THIS BOX MAY BE COLLECTED AS EARLY AS 12 NOON.", "ref": "1205400015"}, "type": "Feature"}
{"geometry": {"coordinates": [-73.8220959, 42.625907], "type": "Point"}, "id": "tL6PxHa6aeWXmvhH9_gfWwZ5ByE=", "properties": {"@spider": "usps_collection_boxes", "addr:city": "DELMAR", "addr:country": "US", "addr:full": "256 DELAWARE AVE", "addr:postcode": "12054", "addr:state": "NY", "brand": "USPS", "collection_times": "Mo-Sa 09:00", "name": "USPS COLLECTION BOX - BLUE BOX", "ref": "1205400023"}, "type": "Feature"}
{"geometry": {"coordinates": [-73.8109313, 42.627684], "type": "Point"}, "id": "zsCL1Gs6BS5kT_J92QLRc4I3fXo=", "properties": {"@spider": "usps_collection_boxes", "addr:city": "DELMAR", "addr:country": "US", "addr:full": "180 DELAWARE AVE", "addr:postcode": "12054", "addr:state": "NY", "brand": "USPS", "collection_times": "Mo-Sa 10:00", "name": "USPS COLLECTION BOX - BLUE BOX", "ref": "1205400025"}, "type": "Feature"}
{"geometry": {"coordinates": [-73.8118645, 42.629491], "type": "Point"}, "id": "OcMxZyqAVKFV9ss3paAXNe03fM8=", "properties": {"@spider": "usps_collection_boxes", "addr:city": "DELMAR", "addr:country": "US", "addr:full": "2 NORMANSKILL BLVD", "addr:postcode": "12054", "addr:state": "NY", "brand": "USPS", "collection_times": "Mo-Fr 15:00; Sa 14:00", "name": "USPS COLLECTION BOX - BLUE BOX", "note": "ON 12/24 AND 12/31, THIS BOX MAY BE COLLECTED AS EARLY AS 12 NOON.", "ref": "1205400026"}, "type": "Feature"}
{"geometry": {"coordinates": [-73.8168377, 42.631369], "type": "Point"}, "id": "qw-rjeeTMFUvG1YlbHd0qmzWdss=", "properties": {"@spider": "usps_collection_boxes", "addr:city": "DELMAR", "addr:country": "US", "addr:full": "29 BURHANS PL", "addr:postcode": "12054", "addr:state": "NY", "brand": "USPS", "collection_times": "Mo-Sa 11:00", "name": "USPS COLLECTION BOX - BLUE BOX", "ref": "1205400028"}, "type": "Feature"}
{"geometry": {"coordinates": [-73.8319905, 42.62283], "type": "Point"}, "id": "nP3uZCZ02rzjUXDgUKs10q8_r9I=", "properties": {"@spider": "usps_collection_boxes", "addr:city": "DELMAR", "addr:country": "US", "addr:full": "357 DELAWARE AVE", "addr:postcode": "12054", "addr:state": "NY", "brand": "USPS", "collection_times": "Mo-Fr 17:00; Sa 14:30", "name": "USPS COLLECTION BOX - BLUE BOX", "note": "ON 12/24 AND 12/31, THIS BOX MAY BE COLLECTED AS EARLY AS 12 NOON.", "ref": "1205400029"}, "type": "Feature"}
{"geometry": {"coordinates": [-73.831594757, 42.622668305], "type": "Point"}, "id": "sWX22NW35QsNKEj1MyR3nStSuhQ=", "properties": {"@spider": "usps_collection_boxes", "addr:city": "DELMAR", "addr:country": "US", "addr:full": "360 DELAWARE AVE", "addr:postcode": "12054", "addr:state": "NY", "brand": "USPS", "collection_times": "Mo-Fr 17:00; Sa 14:30", "name": "USPS COLLECTION BOX - BLUE BOX", "note": "ON 12/24 AND 12/31, THIS BOX MAY BE COLLECTED AS EARLY AS 12 NOON.", "ref": "1205400030"}, "type": "Feature"}
{"geometry": {"coordinates": [-73.8319905, 42.62283], "type": "Point"}, "id": "ONroKeXol9keu11aaM_Ot7ehQmw=", "properties": {"@spider": "usps_collection_boxes", "addr:city": "DELMAR", "addr:country": "US", "addr:full": "357 DELAWARE AVE", "addr:postcode": "12054", "addr:state": "NY", "brand": "USPS", "collection_times": "Mo-Fr 17:00; Sa 14:30", "name": "USPS COLLECTION BOX - BLUE BOX", "note": "ON 12/24 AND 12/31, THIS BOX MAY BE COLLECTED AS EARLY AS 12 NOON.", "ref": "1205400031"}, "type": "Feature"}
{"geometry": {"coordinates": [-73.8468549, 42.608336], "type": "Point"}, "id": "8oR7tGEnsZepiKfa56tiZFg6wJs=", "properties": {"@spider": "usps_collection_boxes", "addr:city": "DELMAR", "addr:country": "US", "addr:full": "1 JUNIPER DR", "addr:postcode": "12054", "addr:state": "NY", "brand": "USPS", "collection_times": "Mo-Sa 09:00", "name": "USPS COLLECTION BOX - BLUE BOX", "ref": "1205400032"}, "type": "Feature"}
{"geometry": {"coordinates": [-73.8277103, 42.623569], "type": "Point"}, "id": "LjIyBfBx33uTjkFHGVDZDIxFnn0=", "properties": {"@spider": "usps_collection_boxes", "addr:city": "DELMAR", "addr:country": "US", "addr:full": "318 DELAWARE AVE", "addr:postcode": "12054", "addr:state": "NY", "brand": "USPS", "collection_times": "Mo-Sa 09:00", "name": "USPS COLLECTION BOX - BLUE BOX", "ref": "1205400037"}, "type": "Feature"}
{"geometry": {"coordinates": [-73.8319508, 42.62281], "type": "Point"}, "id": "7uanIdzjPIKMy--hobaX6sB9BXU=", "properties": {"@spider": "usps_collection_boxes", "addr:city": "DELMAR", "addr:country": "US", "addr:full": "357 DELAWARE AVE", "addr:postcode": "12054", "addr:state": "NY", "brand": "USPS", "collection_times": "Mo-Fr 17:15; Sa 13:15", "name": "USPS COLLECTION BOX - PO LOBBY", "note": "ON 12/24 AND 12/31, THIS BOX MAY BE COLLECTED AS EARLY AS 12 NOON.", "ref": "1205400038"}, "type": "Feature"}
{"geometry": {"coordinates": [-73.8110099, 42.62918], "type": "Point"}, "id": "KWIMbUQfNINn7kXMRCr8DJDypdY=", "properties": {"@spider": "usps_collection_boxes", "addr:city": "DELMAR", "addr:country": "US", "addr:full": "159 DELAWARE AVE", "addr:postcode": "12054", "addr:state": "NY", "brand": "USPS", "collection_times": "Mo-Fr 15:00; Sa 14:00", "name": "USPS COLLECTION BOX - BLUE BOX", "note": "ON 12/24 AND 12/31, THIS BOX MAY BE COLLECTED AS EARLY AS 12 NOON.", "ref": "1205400040"}, "type": "Feature"}
{"geometry": {"coordinates": [-73.831840883, 42.622635404], "type": "Point"}, "id": "2EhOVmT856J155o8WO-E_ZiznLs=", "properties": {"@spider": "usps_collection_boxes", "addr:city": "DELMAR", "addr:country": "US", "addr:full": "357 DELAWARE AVE", "addr:postcode": "12054", "addr:state": "NY", "brand": "USPS", "collection_times": "Mo-Fr 17:00; Sa 13:00", "name": "USPS COLLECTION BOX - PO LOBBY", "note": "ON 12/24 AND 12/31, THIS BOX MAY BE COLLECTED AS EARLY AS 12 NOON.", "ref": "1205400044"}, "type": "Feature"}
{"geometry": {"coordinates": [-74.136279, 42.761016], "type": "Point"}, "id": "UJpbK4VCIs7OKpa39y--yKDx6KU=", "properties": {"@spider": "usps_collection_boxes", "addr:city": "DUANESBURG", "addr:country": "US", "addr:full": "7000 DUANESBURG RD", "addr:postcode": "12056", "addr:state": "NY", "brand": "USPS", "collection_times": "Mo-Fr 16:45; Sa 11:45", "name": "USPS COLLECTION BOX - BLUE BOX", "note": "ON 12/24 AND 12/31, THIS BOX MAY BE COLLECTED AS EARLY AS 12 NOON.", "ref": "1205600001"}, "type": "Feature"}
{"geometry": {"coordinates": [-74.136213, 42.761005], "type": "Point"}, "id": "hYpAvkVKkKtya7t8oXo4Tipg9JI=", "properties": {"@spider": "usps_collection_boxes", "addr:city": "DUANESBURG", "addr:country": "US", "addr:full": "7000 DUANESBURG RD", "addr:postcode": "12056", "addr:state": "NY", "brand": "USPS", "collection_times": "Mo-Fr 16:45; Sa 11:45", "name": "USPS COLLECTION BOX - PO LOBBY", "note": "ON 12/24 AND 12/31, THIS BOX MAY BE COLLECTED AS EARLY AS 12 NOON.", "ref": "1205600002"}, "type": "Feature"}
{"geometry": {"coordinates": [-74.136213, 42.761005], "type": "Point"}, "id": "A0Q2BfX_5wPw8QHN_AFxKvps7r0=", "properties": {"@spider": "usps_collection_boxes", "addr:city": "DUANESBURG", "addr:country": "US", "addr:full": "7000 DUANESBURG RD", "addr:postcode": "12056", "addr:state": "NY", "brand": "USPS", "collection_times": "Mo-Fr 16:45; Sa 11:45", "name": "USPS COLLECTION BOX - PO LOBBY", "note": "ON 12/24 AND 12/31, THIS BOX MAY BE COLLECTED AS EARLY AS 12 NOON.", "ref": "1205600003"}, "type": "Feature"}
{"geometry": {"coordinates": [-74.136309563, 42.760997034], "type": "Point"}, "id": "HLd-vIdNLpuJvt1r0OWL4yVwbqE=", "properties": {"@spider": "usps_collection_boxes", "addr:city": "DUANESBURG", "addr:country": "US", "addr:full": "7000 DUANESBURG RD", "addr:postcode": "12056", "addr:state": "NY", "brand": "USPS", "collection_times": "Mo-Fr 16:30; Sa 11:30", "name": "USPS COLLECTION BOX - PO LOBBY", "note": "ON 12/24 AND 12/31, THIS BOX MAY BE COLLECTED AS EARLY AS 12 NOON.", "ref": "1205600005"}, "type": "Feature"}
{"geometry": {"coordinates": [-73.396325, 42.949905], "type": "Point"}, "id": "QqOsPhF75PQA6A_FngU1gPgZJ-8=", "properties": {"@spider": "usps_collection_boxes", "addr:city": "EAGLE BRIDGE", "addr:country": "US", "addr:full": "3902 ROUTE 67", "addr:postcode": "12057", "addr:state": "NY", "brand": "USPS", "collection_times": "Mo-Fr 14:45; Sa 11:00", "name": "USPS COLLECTION BOX - BLUE BOX", "note": "ON 12/24 AND 12/31, THIS BOX MAY BE COLLECTED AS EARLY AS 12 NOON.", "ref": "1205700001"}, "type": "Feature"}
{"geometry": {"coordinates": [-73.396325, 42.949906], "type": "Point"}, "id": "p7kTCrC5d5jy7yh-kkgqGqhnN3o=", "properties": {"@spider": "usps_collection_boxes", "addr:city": "EAGLE BRIDGE", "addr:country": "US", "addr:full": "3902 ROUTE 67", "addr:postcode": "12057", "addr:state": "NY", "brand": "USPS", "collection_times": "Mo-Fr 14:45; Sa 11:00", "name": "USPS COLLECTION BOX - PO LOBBY", "note": "ON 12/24 AND 12/31, THIS BOX MAY BE COLLECTED AS EARLY AS 12 NOON.", "ref": "1205700003"}, "type": "Feature"}
{"geometry": {"coordinates": [-73.396564449, 42.94991454], "type": "Point"}, "id": "BpK4nOZQzS7MHWcn_U9BDRV518M=", "properties": {"@spider": "usps_collection_boxes", "addr:city": "EAGLE BRIDGE", "addr:country": "US", "addr:full": "3902 STATE ROUTE 67", "addr:postcode": "12057", "addr:state": "NY", "brand": "USPS", "collection_times": "Mo-Fr 14:45; Sa 11:00", "name": "USPS COLLECTION BOX - PO LOBBY", "note": "ON 12/24 AND 12/31, THIS BOX MAY BE COLLECTED AS EARLY AS 12 NOON.", "ref": "1205700004"}, "type": "Feature"}
{"geometry": {"coordinates": [-73.898921, 42.355624], "type": "Point"}, "id": "PnOjvFbfdc2OzT-CTkmQigPsoCA=", "properties": {"@spider": "usps_collection_boxes", "addr:city": "EARLTON", "addr:country": "US", "addr:full": "1504 ROUTE 81", "addr:postcode": "12058", "addr:state": "NY", "brand": "USPS", "collection_times": "Mo-Fr 16:30; Sa 11:00", "name": "USPS COLLECTION BOX - BLUE BOX", "note": "ON 12/24 AND 12/31, THIS BOX MAY BE COLLECTED AS EARLY AS 12 NOON.", "ref": "1205800001"}, "type": "Feature"}
{"geometry": {"coordinates": [-73.898827, 42.355598], "type": "Point"}, "id": "hSBzJWTCQqjNoE3fLcvwjOf0Gq8=", "properties": {"@spider": "usps_collection_boxes", "addr:city": "EARLTON", "addr:country": "US", "addr:full": "1504 ROUTE 81", "addr:postcode": "12058", "addr:state": "NY", "brand": "USPS", "collection_times": "Mo-Fr 16:45; Sa 11:00", "name": "USPS COLLECTION BOX - PO LOBBY", "note": "ON 12/24 AND 12/31, THIS BOX MAY BE COLLECTED AS EARLY AS 12 NOON.", "ref": "1205800002"}, "type": "Feature"}
{"geometry": {"coordinates": [-73.898743919, 42.355620533], "type": "Point"}, "id": "_9R5X4QZPtA3ZMJH2jxwnnPYm88=", "properties": {"@spider": "usps_collection_boxes", "addr:city": "EARLTON", "addr:country": "US", "addr:full": "1504 ROUTE 81", "addr:postcode": "12058", "addr:state": "NY", "brand": "USPS", "collection_times": "Mo-Fr 16:30; Sa 11:00", "name": "USPS COLLECTION BOX - PO LOBBY", "note": "ON 12/24 AND 12/31, THIS BOX MAY BE COLLECTED AS EARLY AS 12 NOON.", "ref": "1205800003"}, "type": "Feature"}
{"geometry": {"coordinates": [-74.0734665, 42.615652], "type": "Point"}, "id": "n9EWm1Cg_1fGpZ7JeXJ5RVYgzAA=", "properties": {"@spider": "usps_collection_boxes", "addr:city": "EAST BERNE", "addr:country": "US", "addr:full": "873 HELDERBERG TRL", "addr:postcode": "12059", "addr:state": "NY", "brand": "USPS", "collection_times": "Mo-Fr 15:00; Sa 11:15", "name": "USPS COLLECTION BOX - BLUE BOX", "note": "ON 12/24 AND 12/31, THIS BOX MAY BE COLLECTED AS EARLY AS 12 NOON.", "ref": "1205900001"}, "type": "Feature"}
{"geometry": {"coordinates": [-74.073441, 42.615952], "type": "Point"}, "id": "8kVexmAcJCatZABl767fvVewELY=", "properties": {"@spider": "usps_collection_boxes", "addr:city": "EAST BERNE", "addr:country": "US", "addr:full": "873 HELDERBERG TRL", "addr:postcode": "12059", "addr:state": "NY", "brand": "USPS", "collection_times": "Mo-Fr 15:00; Sa 11:15", "name": "USPS COLLECTION BOX - BLUE BOX", "note": "ON 12/24 AND 12/31, THIS BOX MAY BE COLLECTED AS EARLY AS 12 NOON.", "ref": "1205900002"}, "type": "Feature"}
{"geometry": {"coordinates": [-74.073029, 42.616142], "type": "Point"}, "id": "FdNZ_vfxQUonJdqjMi3b2TCWqF0=", "properties": {"@spider": "usps_collection_boxes", "addr:city": "EAST BERNE", "addr:country": "US", "addr:full": "873 HELDERBERG TRL", "addr:postcode": "12059", "addr:state": "NY", "brand": "USPS", "collection_times": "Mo-Fr 15:00; Sa 11:15", "name": "USPS COLLECTION BOX - PO LOBBY", "note": "ON 12/24 AND 12/31, THIS BOX MAY BE COLLECTED AS EARLY AS 12 NOON.", "ref": "1205900003"}, "type": "Feature"}
{"geometry": {"coordinates": [-74.073748908, 42.61624682], "type": "Point"}, "id": "wdwzULV6dBwnM4YWANCCJ7s6liI=", "properties": {"@spider": "usps_collection_boxes", "addr:city": "EAST BERNE", "addr:country": "US", "addr:full": "873 HELDERBERG TRL", "addr:postcode": "12059", "addr:state": "NY", "brand": "USPS", "collection_times": "Mo-Fr 15:00; Sa 11:00", "name": "USPS COLLECTION BOX - PO LOBBY", "note": "ON 12/24 AND 12/31, THIS BOX MAY BE COLLECTED AS EARLY AS 12 NOON.", "ref": "1205900004"}, "type": "Feature"}
{"geometry": {"coordinates": [-73.526357, 42.410728], "type": "Point"}, "id": "h0V71L2XyxCvAfp0QWDmIzidEoc=", "properties": {"@spider": "usps_collection_boxes", "addr:city": "EAST CHATHAM", "addr:country": "US", "addr:full": "1111 STATE ROUTE 295", "addr:postcode": "12060", "addr:state": "NY", "brand": "USPS", "collection_times": "Mo-Fr 15:15; Sa 11:00", "name": "USPS COLLECTION BOX - BLUE BOX", "note": "ON 12/24 AND 12/31, THIS BOX MAY BE COLLECTED AS EARLY AS 12 NOON.", "ref": "1206000001"}, "type": "Feature"}
{"geometry": {"coordinates": [-73.52623, 42.410721], "type": "Point"}, "id": "rrAeQb4NaPxufQMaD2dU4GHBHkU=", "properties": {"@spider": "usps_collection_boxes", "addr:city": "EAST CHATHAM", "addr:country": "US", "addr:full": "1111 STATE ROUTE 295", "addr:postcode": "12060", "addr:state": "NY", "brand": "USPS", "collection_times": "Mo-Fr 15:15; Sa 11:00", "name": "USPS COLLECTION BOX - PO LOBBY", "note": "ON 12/24 AND 12/31, THIS BOX MAY BE COLLECTED AS EARLY AS 12 NOON.", "ref": "1206000002"}, "type": "Feature"}
{"geometry": {"coordinates": [-73.52737195, 42.410508576], "type": "Point"}, "id": "6xYyZQVSGbK2I4uzXnG492EJg7o=", "properties": {"@spider": "usps_collection_boxes", "addr:city": "EAST CHATHAM", "addr:country": "US", "addr:full": "1111 STATE ROUTE 295", "addr:postcode": "12060", "addr:state": "NY", "brand": "USPS", "collection_times": "Mo-Fr 15:15; Sa 11:00", "name": "USPS COLLECTION BOX - PO LOBBY", "note": "ON 12/24 AND 12/31, THIS BOX MAY BE COLLECTED AS EARLY AS 12 NOON.", "ref": "1206000004"}, "type": "Feature"}
{"geometry": {"coordinates": [-73.698293, 42.589716], "type": "Point"}, "id": "dYDBq_y-fynrwBCl5xKNhQHIVwE=", "properties": {"@spider": "usps_collection_boxes", "addr:city": "EAST GREENBUSH", "addr:country": "US", "addr:full": "10 GREENWOOD DR", "addr:postcode": "12061", "addr:state": "NY", "brand": "USPS", "collection_times": "Mo-Fr 17:00; Sa 15:00", "name": "USPS COLLECTION BOX - BLUE BOX", "note": "ON 12/24 AND 12/31, THIS BOX MAY BE COLLECTED AS EARLY AS 12 NOON.", "ref": "1206100004"}, "type": "Feature"}
{"geometry": {"coordinates": [-73.698407, 42.589674], "type": "Point"}, "id": "eQwFfY-ulZO23VbvMtKCKME-Sao=", "properties": {"@spider": "usps_collection_boxes", "addr:city": "EAST GREENBUSH", "addr:country": "US", "addr:full": "10 GREENWOOD DR", "addr:postcode": "12061", "addr:state": "NY", "brand": "USPS", "collection_times": "Mo-Fr 17:00; Sa 15:00", "name": "USPS COLLECTION BOX - BLUE BOX", "note": "ON 12/24 AND 12/31, THIS BOX MAY BE COLLECTED AS EARLY AS 12 NOON.", "ref": "1206100005"}, "type": "Feature"}
{"geometry": {"coordinates": [-73.711366, 42.597733], "type": "Point"}, "id": "3fLwbcQXQYw-aDVXEQiDhdTjE1Q=", "properties": {"@spider": "usps_collection_boxes", "addr:city": "EAST GREENBUSH", "addr:country": "US", "addr:full": "596 COLUMBIA TPKE", "addr:postcode": "12061", "addr:state": "NY", "brand": "USPS", "collection_times": "Mo-Fr 08:30; Sa 08:00", "name": "USPS COLLECTION BOX - BLUE BOX", "ref": "1206100007"}, "type": "Feature"}
{"geometry": {"coordinates": [-73.698407, 42.589674], "type": "Point"}, "id": "cHTjF7SOE2wRV__gxIXe5CGnPVs=", "properties": {"@spider": "usps_collection_boxes", "addr:city": "EAST GREENBUSH", "addr:country": "US", "addr:full": "10 GREENWOOD DR", "addr:postcode": "12061", "addr:state": "NY", "brand": "USPS", "collection_times": "Mo-Fr 17:00; Sa 15:00", "name": "USPS COLLECTION BOX - PO LOBBY", "note": "ON 12/24 AND 12/31, THIS BOX MAY BE COLLECTED AS EARLY AS 12 NOON.", "ref": "1206100009"}, "type": "Feature"}
{"geometry": {"coordinates": [-73.698407, 42.589674], "type": "Point"}, "id": "zZEGsQksrWmaLgBem-1p9zhQMpg=", "properties": {"@spider": "usps_collection_boxes", "addr:city": "EAST GREENBUSH", "addr:country": "US", "addr:full": "10 GREENWOOD DR", "addr:postcode": "12061", "addr:state": "NY", "brand": "USPS", "collection_times": "Mo-Fr 17:00; Sa 15:00", "name": "USPS COLLECTION BOX - PO LOBBY", "note": "ON 12/24 AND 12/31, THIS BOX MAY BE COLLECTED AS EARLY AS 12 NOON.", "ref": "1206100010"}, "type": "Feature"}
{"geometry": {"coordinates": [-73.7155422, 42.608478], "type": "Point"}, "id": "zyodpbNcpzuCdaO_PTb-zn6qpRY=", "properties": {"@spider": "usps_collection_boxes", "addr:city": "EAST GREENBUSH", "addr:country": "US", "addr:full": "1 FORREST POINTE DR", "addr:postcode": "12061", "addr:state": "NY", "brand": "USPS", "collection_times": "Mo-Sa 09:00", "name": "USPS COLLECTION BOX - BLUE BOX", "ref": "1206100011"}, "type": "Feature"}
{"geometry": {"coordinates": [-73.69828593, 42.58972051], "type": "Point"}, "id": "WXgCCaRv1irACWcgEAOqxUT-mr0=", "properties": {"@spider": "usps_collection_boxes", "addr:city": "EAST GREENBUSH", "addr:country": "US", "addr:full": "10 GREENWOOD DR", "addr:postcode": "12061", "addr:state": "NY", "brand": "USPS", "collection_times": "Mo-Fr 17:00; Sa 12:00", "name": "USPS COLLECTION BOX - PO LOBBY", "note": "ON 12/24 AND 12/31, THIS BOX MAY BE COLLECTED AS EARLY AS 12 NOON.", "ref": "1206100014"}, "type": "Feature"}
{"geometry": {"coordinates": [-73.508824, 42.51195], "type": "Point"}, "id": "sx-qru14cX4N9z-oCfkqZm8fpc0=", "properties": {"@spider": "usps_collection_boxes", "addr:city": "EAST NASSAU", "addr:country": "US", "addr:full": "6466 ROUTE 66 N", "addr:postcode": "12062", "addr:state": "NY", "brand": "USPS", "collection_times": "Mo-Fr 11:30; Sa 10:30", "name": "USPS COLLECTION BOX - BLUE BOX", "ref": "1206200001"}, "type": "Feature"}
{"geometry": {"coordinates": [-73.508824, 42.51195], "type": "Point"}, "id": "091esb7N5gGfe0aOTyfKlIRY9kw=", "properties": {"@spider": "usps_collection_boxes", "addr:city": "EAST NASSAU", "addr:country": "US", "addr:full": "6466 ROUTE 66", "addr:postcode": "12062", "addr:state": "NY", "brand": "USPS", "collection_times": "Mo-Fr 11:30; Sa 10:45", "name": "USPS COLLECTION BOX - PO LOBBY", "ref": "1206200002"}, "type": "Feature"}
{"geometry": {"coordinates": [-73.508728495, 42.511597417], "type": "Point"}, "id": "_HiHZRPrp1_DS8Usjr5NavALGzA=", "properties": {"@spider": "usps_collection_boxes", "addr:city": "EAST NASSAU", "addr:country": "US", "addr:full": "6466 STATE ROUTE 66", "addr:postcode": "12062", "addr:state": "NY", "brand": "USPS", "collection_times": "Mo-Fr 11:30; Sa 11:00", "name": "USPS COLLECTION BOX - PO LOBBY", "ref": "1206200004"}, "type": "Feature"}
{"geometry": {"coordinates": [-73.682932, 42.565194], "type": "Point"}, "id": "3ZT07c0NkoriMAGJZxRK9qHYi2o=", "properties": {"@spider": "usps_collection_boxes", "addr:city": "EAST SCHODACK", "addr:country": "US", "addr:full": "1649 COLUMBIA TPKE", "addr:postcode": "12063", "addr:state": "NY", "brand": "USPS", "collection_times": "Mo-Fr 16:45; Sa 11:15", "name": "USPS COLLECTION BOX - BLUE BOX", "note": "ON 12/24 AND 12/31, THIS BOX MAY BE COLLECTED AS EARLY AS 12 NOON.", "ref": "1206300001"}, "type": "Feature"}
{"geometry": {"coordinates": [-73.682921, 42.5651], "type": "Point"}, "id": "BuxDIHfH074HAJZ9qUCbQxBMDrw=", "properties": {"@spider": "usps_collection_boxes", "addr:city": "EAST SCHODACK", "addr:country": "US", "addr:full": "1649 COLUMBIA TPKE", "addr:postcode": "12063", "addr:state": "NY", "brand": "USPS", "collection_times": "Mo-Fr 17:00; Sa 12:00", "name": "USPS COLLECTION BOX - PO LOBBY", "note": "ON 12/24 AND 12/31, THIS BOX MAY BE COLLECTED AS EARLY AS 12 NOON.", "ref": "1206300002"}, "type": "Feature"}
{"geometry": {"coordinates": [-73.683161371, 42.565618284], "type": "Point"}, "id": "WKEEnz-TKNQ2eFqkISDHccBhdQM=", "properties": {"@spider": "usps_collection_boxes", "addr:city": "EAST SCHODACK", "addr:country": "US", "addr:full": "1649 COLUMBIA TPKE", "addr:postcode": "12063", "addr:state": "NY", "brand": "USPS", "collection_times": "Mo-Fr 16:45; Sa 12:00", "name": "USPS COLLECTION BOX - PO LOBBY", "note": "ON 12/24 AND 12/31, THIS BOX MAY BE COLLECTED AS EARLY AS 12 NOON.", "ref": "1206300004"}, "type": "Feature"}
{"geometry": {"coordinates": [-74.67312, 42.622623], "type": "Point"}, "id": "ZDeGn0Z8hG6bNfHE4e2xBPDeVqw=", "properties": {"@spider": "usps_collection_boxes", "addr:city": "EAST WORCESTER", "addr:country": "US", "addr:full": "70 MAIN ST", "addr:postcode": "12064", "addr:state": "NY", "brand": "USPS", "collection_times": "Mo-Fr 12:00; Sa 11:00", "name": "USPS COLLECTION BOX - BLUE BOX", "ref": "1206400001"}, "type": "Feature"}
{"geometry": {"coordinates": [-74.673119, 42.622622], "type": "Point"}, "id": "9jTkp7b4Z8ScARvleLAg_UfCloo=", "properties": {"@spider": "usps_collection_boxes", "addr:city": "EAST WORCESTER", "addr:country": "US", "addr:full": "70 MAIN ST", "addr:postcode": "12064", "addr:state": "NY", "brand": "USPS", "collection_times": "Mo-Fr 12:00; Sa 11:15", "name": "USPS COLLECTION BOX - PO LOBBY", "ref": "1206400002"}, "type": "Feature"}
{"geometry": {"coordinates": [-74.673079601, 42.622589503], "type": "Point"}, "id": "_358XXyce_zUOKxz6RqBUJyv5ow=", "properties": {"@spider": "usps_collection_boxes", "addr:city": "EAST WORCESTER", "addr:country": "US", "addr:full": "70 MAIN ST STE 1", "addr:postcode": "12064", "addr:state": "NY", "brand": "USPS", "collection_times": "Mo-Fr 12:00; Sa 11:00", "name": "USPS COLLECTION BOX - PO LOBBY", "ref": "1206400003"}, "type": "Feature"}
{"geometry": {"coordinates": [-73.7956405, 42.811209], "type": "Point"}, "id": "L4VEdzAR6k_yeQiVTARgKZ4kLfw=", "properties": {"@spider": "usps_collection_boxes", "addr:city": "CLIFTON PARK", "addr:country": "US", "addr:full": "1 FOXWOOD DR", "addr:postcode": "12065", "addr:state": "NY", "brand": "USPS", "collection_times": "Mo-Sa 10:00", "name": "USPS COLLECTION BOX - BLUE BOX", "ref": "1206500002"}, "type": "Feature"}
{"geometry": {"coordinates": [-73.7382877, 42.834258], "type": "Point"}, "id": "KpRVjLpIWtAYfqafOpuGlPvcb6k=", "properties": {"@spider": "usps_collection_boxes", "addr:city": "CLIFTON PARK", "addr:country": "US", "addr:full": "1471 ROUTE 9", "addr:postcode": "12065", "addr:state": "NY", "brand": "USPS", "collection_times": "Mo-Sa 10:00", "name": "USPS COLLECTION BOX - BLUE BOX", "ref": "1206500004"}, "type": "Feature"}
{"geometry": {"coordinates": [-73.765528, 42.852709], "type": "Point"}, "id": "70uG1xXzQx3sx5P_jVRriNzXpeQ=", "properties": {"@spider": "usps_collection_boxes", "addr:city": "CLIFTON PARK", "addr:country": "US", "addr:full": "131A EASTWOOD DR", "addr:postcode": "12065", "addr:state": "NY", "brand": "USPS", "collection_times": "Mo-Sa 10:00", "name": "USPS COLLECTION BOX - BLUE BOX", "ref": "1206500006"}, "type": "Feature"}
{"geometry": {"coordinates": [-73.7829868, 42.859248], "type": "Point"}, "id": "uZDKr4q2TzB2_hgfPYzTk_ykPUU=", "properties": {"@spider": "usps_collection_boxes", "addr:city": "CLIFTON PARK", "addr:country": "US", "addr:full": "19 CLIFTON COUNTRY RD", "addr:postcode": "12065", "addr:state": "NY", "brand": "USPS", "collection_times": "Mo-Sa 10:00", "name": "USPS COLLECTION BOX - BLUE BOX", "ref": "1206500008"}, "type": "Feature"}
{"geometry": {"coordinates": [-73.7335071, 42.8431], "type": "Point"}, "id": "HnYCd4e5BOCKuvEFjaWs0QM-z70=", "properties": {"@spider": "usps_collection_boxes", "addr:city": "CLIFTON PARK", "addr:country": "US", "addr:full": "101 YORKTOWN DR", "addr:postcode": "12065", "addr:state": "NY", "brand": "USPS", "collection_times": "Mo-Sa 10:00", "name": "USPS COLLECTION BOX - BLUE BOX", "ref": "1206500011"}, "type": "Feature"}
{"geometry": {"coordinates": [-73.8193749, 42.869325], "type": "Point"}, "id": "fNSa9pgsh5tcvwkBpNvz8LcgFW0=", "properties": {"@spider": "usps_collection_boxes", "addr:city": "CLIFTON PARK", "addr:country": "US", "addr:full": "1026 ROUTE 146", "addr:postcode": "12065", "addr:state": "NY", "brand": "USPS", "collection_times": "Mo-Sa 10:00", "name": "USPS COLLECTION BOX - BLUE BOX", "ref": "1206500014"}, "type": "Feature"}
{"geometry": {"coordinates": [-73.7823573, 42.866262], "type": "Point"}, "id": "a0oYyEDbyBEt8tD9L6sE3YHVa1Q=", "properties": {"@spider": "usps_collection_boxes", "addr:city": "CLIFTON PARK", "addr:country": "US", "addr:full": "15 PARK AVE", "addr:postcode": "12065", "addr:state": "NY", "brand": "USPS", "collection_times": "Mo-Sa 10:00", "name": "USPS COLLECTION BOX - BLUE BOX", "ref": "1206500017"}, "type": "Feature"}
{"geometry": {"coordinates": [-73.779058669, 42.862541905], "type": "Point"}, "id": "f3VY-hVpcxt35_8wgPis955VAGg=", "properties": {"@spider": "usps_collection_boxes", "addr:city": "CLIFTON PARK", "addr:country": "US", "addr:full": "800 ROUTE 146", "addr:postcode": "12065", "addr:state": "NY", "brand": "USPS", "collection_times": "Mo-Fr 10:30; Sa 10:00", "name": "USPS COLLECTION BOX - BLUE BOX", "ref": "1206500019"}, "type": "Feature"}
{"geometry": {"coordinates": [-73.7785663, 42.858059], "type": "Point"}, "id": "nOi1UKjnDEyLu1DYiuy-2501K88=", "properties": {"@spider": "usps_collection_boxes", "addr:city": "CLIFTON PARK", "addr:country": "US", "addr:full": "22 CLIFTON COUNTRY RD", "addr:postcode": "12065", "addr:state": "NY", "brand": "USPS", "collection_times": "Mo-Sa 10:30", "name": "USPS COLLECTION BOX - BLUE BOX", "ref": "1206500023"}, "type": "Feature"}
{"geometry": {"coordinates": [-73.8076347, 42.845092], "type": "Point"}, "id": "FZ95kdpKYVsizanVPRbiCrFqWZg=", "properties": {"@spider": "usps_collection_boxes", "addr:city": "CLIFTON PARK", "addr:country": "US", "addr:full": "1 BARNEY RD", "addr:postcode": "12065", "addr:state": "NY", "brand": "USPS", "collection_times": "Mo-Sa 10:00", "name": "USPS COLLECTION BOX - BLUE BOX", "ref": "1206500025"}, "type": "Feature"}
{"geometry": {"coordinates": [-73.7777443, 42.866667], "type": "Point"}, "id": "79CG0XSdZ40JRVscsXotZscjJKA=", "properties": {"@spider": "usps_collection_boxes", "addr:city": "CLIFTON PARK", "addr:country": "US", "addr:full": "634 PLANK RD", "addr:postcode": "12065", "addr:state": "NY", "brand": "USPS", "collection_times": "Mo-Fr 16:00; Sa 10:00", "name": "USPS COLLECTION BOX - BLUE BOX", "note": "ON 12/24 AND 12/31, THIS BOX MAY BE COLLECTED AS EARLY AS 12 NOON.", "ref": "1206500027"}, "type": "Feature"}
{"geometry": {"coordinates": [-73.7332035, 42.825857], "type": "Point"}, "id": "uS6sALINaT4Ym0Rb0KhV3P3Rxd4=", "properties": {"@spider": "usps_collection_boxes", "addr:city": "CLIFTON PARK", "addr:country": "US", "addr:full": "1407 ROUTE 9", "addr:postcode": "12065", "addr:state": "NY", "brand": "USPS", "collection_times": "Mo-Sa 10:00", "name": "USPS COLLECTION BOX - BLUE BOX", "ref": "1206500028"}, "type": "Feature"}
{"geometry": {"coordinates": [-73.7708639, 42.860282], "type": "Point"}, "id": "BOrVoFJU7o_F2VMtKEvqvLpKpo4=", "properties": {"@spider": "usps_collection_boxes", "addr:city": "CLIFTON PARK", "addr:country": "US", "addr:full": "54 CROSSING BLVD", "addr:postcode": "12065", "addr:state": "NY", "brand": "USPS", "collection_times": "Mo-Sa 10:00", "name": "USPS COLLECTION BOX - BLUE BOX", "ref": "1206500030"}, "type": "Feature"}
{"geometry": {"coordinates": [-73.7992381, 42.866527], "type": "Point"}, "id": "vvhVQ8s236e_9iIiL2-wqkMn3qg=", "properties": {"@spider": "usps_collection_boxes", "addr:city": "CLIFTON PARK", "addr:country": "US", "addr:full": "100 SOLOMON AVE", "addr:postcode": "12065", "addr:state": "NY", "brand": "USPS", "collection_times": "Mo-Sa 10:30", "name": "USPS COLLECTION BOX - BLUE BOX", "ref": "1206500031"}, "type": "Feature"}
{"geometry": {"coordinates": [-73.7610669, 42.849972], "type": "Point"}, "id": "1S1P5HmUb625N6Fi3frFzG_p6LM=", "properties": {"@spider": "usps_collection_boxes", "addr:city": "CLIFTON PARK", "addr:country": "US", "addr:full": "49 PINE RDG # 2", "addr:postcode": "12065", "addr:state": "NY", "brand": "USPS", "collection_times": "Mo-Sa 10:00", "name": "USPS COLLECTION BOX - BLUE BOX", "ref": "1206500032"}, "type": "Feature"}
{"geometry": {"coordinates": [-73.786758, 42.865367], "type": "Point"}, "id": "TJ70wo4Rng830z7uf_z4CIstLtQ=", "properties": {"@spider": "usps_collection_boxes", "addr:city": "CLIFTON PARK", "addr:country": "US", "addr:full": "855 ROUTE 146", "addr:postcode": "12065", "addr:state": "NY", "brand": "USPS", "collection_times": "Mo-Fr 16:00; Sa 10:00", "name": "USPS COLLECTION BOX - BLUE BOX", "note": "ON 12/24 AND 12/31, THIS BOX MAY BE COLLECTED AS EARLY AS 12 NOON.", "ref": "1206500033"}, "type": "Feature"}
{"geometry": {"coordinates": [-73.773894, 42.874313], "type": "Point"}, "id": "H-vEK_Z_iVU3T2k6S6j0i8WxPAo=", "properties": {"@spider": "usps_collection_boxes", "addr:city": "CLIFTON PARK", "addr:country": "US", "addr:full": "1764 ROUTE 9", "addr:postcode": "12065", "addr:state": "NY", "brand": "USPS", "collection_times": "Mo-Fr 18:00; Sa 15:30", "name": "USPS COLLECTION BOX - PO LOBBY", "note": "ON 12/24 AND 12/31, THIS BOX MAY BE COLLECTED AS EARLY AS 12 NOON.", "ref": "1206500034"}, "type": "Feature"}
{"geometry": {"coordinates": [-73.7715128, 42.881971], "type": "Point"}, "id": "MNhrJ_6LblhNeEn2GZDf6-mSnoY=", "properties": {"@spider": "usps_collection_boxes", "addr:city": "CLIFTON PARK", "addr:country": "US", "addr:full": "1B OAKBROOK COMMONS", "addr:postcode": "12065", "addr:state": "NY", "brand": "USPS", "collection_times": "Mo-Sa 10:00", "name": "USPS COLLECTION BOX - BLUE BOX", "ref": "1206500036"}, "type": "Feature"}
{"geometry": {"coordinates": [-73.8005389, 42.866373], "type": "Point"}, "id": "IbuvlRnwY_cjZFnEUOt6wkkyaxM=", "properties": {"@spider": "usps_collection_boxes", "addr:city": "CLIFTON PARK", "addr:country": "US", "addr:full": "926 ROUTE 146 LOUDON SQUARE APTS", "addr:postcode": "12065", "addr:state": "NY", "brand": "USPS", "collection_times": "Mo-Sa 10:30", "name": "USPS COLLECTION BOX - BLUE BOX", "ref": "1206500037"}, "type": "Feature"}
{"geometry": {"coordinates": [-73.765141, 42.820135], "type": "Point"}, "id": "WCUwf2c8_W3FBdgurBGs06FrT-s=", "properties": {"@spider": "usps_collection_boxes", "addr:city": "CLIFTON PARK", "addr:country": "US", "addr:full": "2 PROGRESS DR", "addr:postcode": "12065", "addr:state": "NY", "brand": "USPS", "collection_times": "Mo-Fr 17:00; Sa 15:30", "name": "USPS COLLECTION BOX - PO LOBBY", "note": "ON 12/24 AND 12/31, THIS BOX MAY BE COLLECTED AS EARLY AS 12 NOON.", "ref": "1206500041"}, "type": "Feature"}
{"geometry": {"coordinates": [-73.7480083, 42.840512], "type": "Point"}, "id": "8Ut5lFsGGnQPZmYzjq9wKXwaeyI=", "properties": {"@spider": "usps_collection_boxes", "addr:city": "CLIFTON PARK", "addr:country": "US", "addr:full": "3 HALFMOON EXECUTIVE DR", "addr:postcode": "12065", "addr:state": "NY", "brand": "USPS", "collection_times": "Mo-Fr 16:00; Sa 10:00", "name": "USPS COLLECTION BOX - BLUE BOX", "note": "ON 12/24 AND 12/31, THIS BOX MAY BE COLLECTED AS EARLY AS 12 NOON.", "ref": "1206500042"}, "type": "Feature"}
{"geometry": {"coordinates": [-73.7390208, 42.838253], "type": "Point"}, "id": "glXMSyITe-2H4WCjWVAy4UDjan8=", "properties": {"@spider": "usps_collection_boxes", "addr:city": "CLIFTON PARK", "addr:country": "US", "addr:full": "215 GUIDEBOARD RD", "addr:postcode": "12065", "addr:state": "NY", "brand": "USPS", "collection_times": "Mo-Sa 10:30", "name": "USPS COLLECTION BOX - BLUE BOX", "ref": "1206500043"}, "type": "Feature"}
{"geometry": {"coordinates": [-73.7393204, 42.842224], "type": "Point"}, "id": "UMUOR_-F8VS9rxwN6S4nduVdlpI=", "properties": {"@spider": "usps_collection_boxes", "addr:city": "CLIFTON PARK", "addr:country": "US", "addr:full": "1700 LOOKOUT LN", "addr:postcode": "12065", "addr:state": "NY", "brand": "USPS", "collection_times": "Mo-Sa 09:30", "name": "USPS COLLECTION BOX - BLUE BOX", "ref": "1206500044"}, "type": "Feature"}
{"geometry": {"coordinates": [-73.7480064, 42.840488], "type": "Point"}, "id": "JjJ4Mi7PxQsL6bL47-biml3INFw=", "properties": {"@spider": "usps_collection_boxes", "addr:city": "CLIFTON PARK", "addr:country": "US", "addr:full": "3 EXECUTIVE PARK DR", "addr:postcode": "12065", "addr:state": "NY", "brand": "USPS", "collection_times": "Mo-Fr 16:00; Sa 10:00", "name": "USPS COLLECTION BOX - BLUE BOX", "note": "ON 12/24 AND 12/31, THIS BOX MAY BE COLLECTED AS EARLY AS 12 NOON.", "ref": "1206500045"}, "type": "Feature"}
{"geometry": {"coordinates": [-73.7479868, 42.840485], "type": "Point"}, "id": "KYIseNqz8hMqnRTHQBTTfeapp1c=", "properties": {"@spider": "usps_collection_boxes", "addr:city": "CLIFTON PARK", "addr:country": "US", "addr:full": "3 EXECUTIVE PARK DR", "addr:postcode": "12065", "addr:state": "NY", "brand": "USPS", "collection_times": "Mo-Fr 16:00; Sa 10:00", "name": "USPS COLLECTION BOX - BLUE BOX", "note": "ON 12/24 AND 12/31, THIS BOX MAY BE COLLECTED AS EARLY AS 12 NOON.", "ref": "1206500046"}, "type": "Feature"}
{"geometry": {"coordinates": [-73.765108, 42.820044], "type": "Point"}, "id": "CcJTBVphLGdkXBgTobaDG2WcHZI=", "properties": {"@spider": "usps_collection_boxes", "addr:city": "CLIFTON PARK", "addr:country": "US", "addr:full": "2 PROGRESS DR", "addr:postcode": "12065", "addr:state": "NY", "brand": "USPS", "collection_times": "Mo-Fr 17:00; Sa 15:30", "name": "USPS COLLECTION BOX - BLUE BOX", "note": "ON 12/24 AND 12/31, THIS BOX MAY BE COLLECTED AS EARLY AS 12 NOON.", "ref": "1206500050"}, "type": "Feature"}
{"geometry": {"coordinates": [-73.7675105, 42.860446], "type": "Point"}, "id": "yMyKcNxpm7rvq5lwEBQ5pUgMSxw=", "properties": {"@spider": "usps_collection_boxes", "addr:city": "CLIFTON PARK", "addr:country": "US", "addr:full": "1688 ROUTE 9", "addr:postcode": "12065", "addr:state": "NY", "brand": "USPS", "collection_times": "Mo-Sa 10:00", "name": "USPS COLLECTION BOX - BLUE BOX", "ref": "1206500052"}, "type": "Feature"}
{"geometry": {"coordinates": [-73.8197131, 42.858841], "type": "Point"}, "id": "nIaMsC7WBBLdAo8V7npwJXBqc0A=", "properties": {"@spider": "usps_collection_boxes", "addr:city": "CLIFTON PARK", "addr:country": "US", "addr:full": "1 TOWN HALL PLZ", "addr:postcode": "12065", "addr:state": "NY", "brand": "USPS", "collection_times": "Mo-Fr 16:00; Sa 10:00", "name": "USPS COLLECTION BOX - BLUE BOX", "note": "ON 12/24 AND 12/31, THIS BOX MAY BE COLLECTED AS EARLY AS 12 NOON.", "ref": "1206500054"}, "type": "Feature"}
{"geometry": {"coordinates": [-73.774355, 42.87447], "type": "Point"}, "id": "bS8ag-G1McLok9Qd4H7QBUQcI0g=", "properties": {"@spider": "usps_collection_boxes", "addr:city": "CLIFTON PARK", "addr:country": "US", "addr:full": "1764 ROUTE 9", "addr:postcode": "12065", "addr:state": "NY", "brand": "USPS", "collection_times": "Mo-Fr 17:30; Sa 15:30", "name": "USPS COLLECTION BOX - BLUE BOX", "note": "ON 12/24 AND 12/31, THIS BOX MAY BE COLLECTED AS EARLY AS 12 NOON.", "ref": "1206500055"}, "type": "Feature"}
{"geometry": {"coordinates": [-73.765108, 42.820044], "type": "Point"}, "id": "iAtFGE-_joes0ArLprlkIbAI9oE=", "properties": {"@spider": "usps_collection_boxes", "addr:city": "CLIFTON PARK", "addr:country": "US", "addr:full": "2 PROGRESS DR", "addr:postcode": "12065", "addr:state": "NY", "brand": "USPS", "collection_times": "Mo-Fr 17:00; Sa 15:30", "name": "USPS COLLECTION BOX - BLUE BOX", "note": "ON 12/24 AND 12/31, THIS BOX MAY BE COLLECTED AS EARLY AS 12 NOON.", "ref": "1206500056"}, "type": "Feature"}
{"geometry": {"coordinates": [-73.7776409, 42.868126], "type": "Point"}, "id": "dYEKsF_tutH350vYWD-r3LCUVaQ=", "properties": {"@spider": "usps_collection_boxes", "addr:city": "CLIFTON PARK", "addr:country": "US", "addr:full": "646 PLANK RD", "addr:postcode": "12065", "addr:state": "NY", "brand": "USPS", "collection_times": "Mo-Fr 16:00; Sa 10:00", "name": "USPS COLLECTION BOX - BLUE BOX", "note": "ON 12/24 AND 12/31, THIS BOX MAY BE COLLECTED AS EARLY AS 12 NOON.", "ref": "1206500058"}, "type": "Feature"}
{"geometry": {"coordinates": [-73.7579061, 42.849052], "type": "Point"}, "id": "bv4_JfYoYDg5CNoBaEL9Gqqvf2E=", "properties": {"@spider": "usps_collection_boxes", "addr:city": "CLIFTON PARK", "addr:country": "US", "addr:full": "21 CORPORATE DR", "addr:postcode": "12065", "addr:state": "NY", "brand": "USPS", "collection_times": "Mo-Fr 16:00; Sa 10:00", "name": "USPS COLLECTION BOX - BLUE BOX", "note": "ON 12/24 AND 12/31, THIS BOX MAY BE COLLECTED AS EARLY AS 12 NOON.", "ref": "1206500059"}, "type": "Feature"}
{"geometry": {"coordinates": [-73.7830038, 42.862146], "type": "Point"}, "id": "Cd3uek6kkXkWU9_XcCP9lnnFbJ8=", "properties": {"@spider": "usps_collection_boxes", "addr:city": "CLIFTON PARK", "addr:country": "US", "addr:full": "5 SOUTHSIDE DR", "addr:postcode": "12065", "addr:state": "NY", "brand": "USPS", "collection_times": "Mo-Sa 10:00", "name": "USPS COLLECTION BOX - BLUE BOX", "ref": "1206500061"}, "type": "Feature"}
{"geometry": {"coordinates": [-73.7857673, 42.863256], "type": "Point"}, "id": "_Vwvjfqf4nTS9JndXfbPxltQfBc=", "properties": {"@spider": "usps_collection_boxes", "addr:city": "CLIFTON PARK", "addr:country": "US", "addr:full": "5 MUNICIPAL PLZ", "addr:postcode": "12065", "addr:state": "NY", "brand": "USPS", "collection_times": "Mo-Fr 16:00; Sa 10:00", "name": "USPS COLLECTION BOX - BLUE BOX", "note": "ON 12/24 AND 12/31, THIS BOX MAY BE COLLECTED AS EARLY AS 12 NOON.", "ref": "1206500063"}, "type": "Feature"}
{"geometry": {"coordinates": [-73.7578631, 42.849051], "type": "Point"}, "id": "FmXN-qmrgaXcGHkFP4BrGcnPMwk=", "properties": {"@spider": "usps_collection_boxes", "addr:city": "CLIFTON PARK", "addr:country": "US", "addr:full": "21 CORPORATE DR", "addr:postcode": "12065", "addr:state": "NY", "brand": "USPS", "collection_times": "Mo-Fr 16:00; Sa 10:00", "name": "USPS COLLECTION BOX - BLUE BOX", "note": "ON 12/24 AND 12/31, THIS BOX MAY BE COLLECTED AS EARLY AS 12 NOON.", "ref": "1206500064"}, "type": "Feature"}
{"geometry": {"coordinates": [-73.7480023, 42.840533], "type": "Point"}, "id": "KBJqcGc4SB5J7T2mOaG2tAMUUp4=", "properties": {"@spider": "usps_collection_boxes", "addr:city": "CLIFTON PARK", "addr:country": "US", "addr:full": "3 EXECUTIVE PARK DR", "addr:postcode": "12065", "addr:state": "NY", "brand": "USPS", "collection_times": "Mo-Fr 16:00; Sa 10:00", "name": "USPS COLLECTION BOX - BLUE BOX", "note": "ON 12/24 AND 12/31, THIS BOX MAY BE COLLECTED AS EARLY AS 12 NOON.", "ref": "1206500065"}, "type": "Feature"}
{"geometry": {"coordinates": [-73.773996029, 42.878943407], "type": "Point"}, "id": "gwktCfgjFivDJzQXXGUO4kSZfbE=", "properties": {"@spider": "usps_collection_boxes", "addr:city": "CLIFTON PARK", "addr:country": "US", "addr:full": "1783 ROUTE 9", "addr:postcode": "12065", "addr:state": "NY", "brand": "USPS", "collection_times": "Mo-Sa 10:00", "name": "USPS COLLECTION BOX - BLUE BOX", "ref": "1206500066"}, "type": "Feature"}
{"geometry": {"coordinates": [-73.7862863, 42.864626], "type": "Point"}, "id": "ougexMVWNoJj5SMgBmgOSMN7tT8=", "properties": {"@spider": "usps_collection_boxes", "addr:city": "CLIFTON PARK", "addr:country": "US", "addr:full": "843 ROUTE 146", "addr:postcode": "12065", "addr:state": "NY", "brand": "USPS", "collection_times": "Mo-Sa 10:00", "name": "USPS COLLECTION BOX - BLUE BOX", "ref": "1206500067"}, "type": "Feature"}
{"geometry": {"coordinates": [-73.773888499, 42.874379581], "type": "Point"}, "id": "8wT_pWE_ImnYhPYZLW9FttadDTw=", "properties": {"@spider": "usps_collection_boxes", "addr:city": "CLIFTON PARK", "addr:country": "US", "addr:full": "1764 ROUTE 9", "addr:postcode": "12065", "addr:state": "NY", "brand": "USPS", "collection_times": "Mo-Fr 18:00; Sa 15:00", "name": "USPS COLLECTION BOX - PO LOBBY", "note": "ON 12/24 AND 12/31, THIS BOX MAY BE COLLECTED AS EARLY AS 12 NOON.", "ref": "1206500074"}, "type": "Feature"}
{"geometry": {"coordinates": [-73.76524807, 42.820824427], "type": "Point"}, "id": "1yNbkK3Qc96z49xprTLhnKYTUFk=", "properties": {"@spider": "usps_collection_boxes", "addr:city": "CLIFTON PARK", "addr:country": "US", "addr:full": "2 PROGRESS DR", "addr:postcode": "12065", "addr:state": "NY", "brand": "USPS", "collection_times": "Mo-Fr 17:00; Sa 13:00", "name": "USPS COLLECTION BOX - PO LOBBY", "note": "ON 12/24 AND 12/31, THIS BOX MAY BE COLLECTED AS EARLY AS 12 NOON.", "ref": "1206500075"}, "type": "Feature"}
{"geometry": {"coordinates": [-74.2579008, 42.760549], "type": "Point"}, "id": "fCM_dbr0eBr9Mi6srwQoaO3XNbY=", "properties": {"@spider": "usps_collection_boxes", "addr:city": "ESPERANCE", "addr:country": "US", "addr:full": "170 MAIN ST", "addr:postcode": "12066", "addr:state": "NY", "brand": "USPS", "collection_times": "Mo-Fr 14:15; Sa 11:00", "name": "USPS COLLECTION BOX - BLUE BOX", "note": "ON 12/24 AND 12/31, THIS BOX MAY BE COLLECTED AS EARLY AS 12 NOON.", "ref": "1206600002"}, "type": "Feature"}
{"geometry": {"coordinates": [-74.2578807, 42.760408], "type": "Point"}, "id": "Tgub_-VuyAuFTcKrgQjFf55xKS0=", "properties": {"@spider": "usps_collection_boxes", "addr:city": "ESPERANCE", "addr:country": "US", "addr:full": "170 MAIN ST", "addr:postcode": "12066", "addr:state": "NY", "brand": "USPS", "collection_times": "Mo-Fr 14:15; Sa 11:15", "name": "USPS COLLECTION BOX - PO LOBBY", "note": "ON 12/24 AND 12/31, THIS BOX MAY BE COLLECTED AS EARLY AS 12 NOON.", "ref": "1206600003"}, "type": "Feature"}
{"geometry": {"coordinates": [-74.257935351, 42.760595812], "type": "Point"}, "id": "6V-WGc0lil01w70IvwUqiitFMuA=", "properties": {"@spider": "usps_collection_boxes", "addr:city": "ESPERANCE", "addr:country": "US", "addr:full": "170 MAIN ST", "addr:postcode": "12066", "addr:state": "NY", "brand": "USPS", "collection_times": "Mo-Fr 14:15; Sa 11:00", "name": "USPS COLLECTION BOX - PO LOBBY", "note": "ON 12/24 AND 12/31, THIS BOX MAY BE COLLECTED AS EARLY AS 12 NOON.", "ref": "1206600005"}, "type": "Feature"}
{"geometry": {"coordinates": [-73.876626, 42.578813], "type": "Point"}, "id": "09vNMrREy8ARfDdcHh7txyh94Vg=", "properties": {"@spider": "usps_collection_boxes", "addr:city": "FEURA BUSH", "addr:country": "US", "addr:full": "1380 INDIAN FIELDS RD", "addr:postcode": "12067", "addr:state": "NY", "brand": "USPS", "collection_times": "Mo-Fr 14:30; Sa 10:45", "name": "USPS COLLECTION BOX - BLUE BOX", "note": "ON 12/24 AND 12/31, THIS BOX MAY BE COLLECTED AS EARLY AS 12 NOON.", "ref": "1206700001"}, "type": "Feature"}
{"geometry": {"coordinates": [-73.876595, 42.578795], "type": "Point"}, "id": "blFkzQExl6p2NPXwzITsNYzoK4A=", "properties": {"@spider": "usps_collection_boxes", "addr:city": "FEURA BUSH", "addr:country": "US", "addr:full": "1380 INDIAN FIELDS RD", "addr:postcode": "12067", "addr:state": "NY", "brand": "USPS", "collection_times": "Mo-Fr 14:30; Sa 11:00", "name": "USPS COLLECTION BOX - PO LOBBY", "note": "ON 12/24 AND 12/31, THIS BOX MAY BE COLLECTED AS EARLY AS 12 NOON.", "ref": "1206700002"}, "type": "Feature"}
{"geometry": {"coordinates": [-73.876634861, 42.578805339], "type": "Point"}, "id": "hRjkjNXmgs9y9uk8ljCDNKexEV0=", "properties": {"@spider": "usps_collection_boxes", "addr:city": "FEURA BUSH", "addr:country": "US", "addr:full": "1380 INDIAN FIELDS RD", "addr:postcode": "12067", "addr:state": "NY", "brand": "USPS", "collection_times": "Mo-Fr 14:30; Sa 11:00", "name": "USPS COLLECTION BOX - PO LOBBY", "note": "ON 12/24 AND 12/31, THIS BOX MAY BE COLLECTED AS EARLY AS 12 NOON.", "ref": "1206700004"}, "type": "Feature"}
{"geometry": {"coordinates": [-74.374458, 42.954531], "type": "Point"}, "id": "k6ZzR6jFB4iMpuVIQfbQZmbrdOo=", "properties": {"@spider": "usps_collection_boxes", "addr:city": "FONDA", "addr:country": "US", "addr:full": "1 W MAIN ST", "addr:postcode": "12068", "addr:state": "NY", "brand": "USPS", "collection_times": "Mo-Fr 16:45; Sa 11:30", "name": "USPS COLLECTION BOX - BLUE BOX", "note": "ON 12/24 AND 12/31, THIS BOX MAY BE COLLECTED AS EARLY AS 12 NOON.", "ref": "1206800001"}, "type": "Feature"}
{"geometry": {"coordinates": [-74.374458, 42.954531], "type": "Point"}, "id": "vmywTrm0XgvNDkoF-yQjfEI_lzc=", "properties": {"@spider": "usps_collection_boxes", "addr:city": "FONDA", "addr:country": "US", "addr:full": "1 W MAIN ST", "addr:postcode": "12068", "addr:state": "NY", "brand": "USPS", "collection_times": "Mo-Fr 17:00; Sa 11:45", "name": "USPS COLLECTION BOX - PO LOBBY", "note": "ON 12/24 AND 12/31, THIS BOX MAY BE COLLECTED AS EARLY AS 12 NOON.", "ref": "1206800003"}, "type": "Feature"}
{"geometry": {"coordinates": [-74.374939163, 42.954466507], "type": "Point"}, "id": "Ps8F0OKjoa37DEj8gkYCCKJ4Gkw=", "properties": {"@spider": "usps_collection_boxes", "addr:city": "FONDA", "addr:country": "US", "addr:full": "1 W MAIN ST", "addr:postcode": "12068", "addr:state": "NY", "brand": "USPS", "collection_times": "Mo-Fr 17:00; Sa 11:30", "name": "USPS COLLECTION BOX - PO LOBBY", "note": "ON 12/24 AND 12/31, THIS BOX MAY BE COLLECTED AS EARLY AS 12 NOON.", "ref": "1206800004"}, "type": "Feature"}
{"geometry": {"coordinates": [-74.233221, 42.956716], "type": "Point"}, "id": "XH-PbswUTTQCHV2G7kMqefQ885g=", "properties": {"@spider": "usps_collection_boxes", "addr:city": "FORT JOHNSON", "addr:country": "US", "addr:full": "5 E MAIN ST", "addr:postcode": "12070", "addr:state": "NY", "brand": "USPS", "collection_times": "Mo-Fr 16:00; Sa 10:45", "name": "USPS COLLECTION BOX - BLUE BOX", "note": "ON 12/24 AND 12/31, THIS BOX MAY BE COLLECTED AS EARLY AS 12 NOON.", "ref": "1207000001"}, "type": "Feature"}
{"geometry": {"coordinates": [-74.233221, 42.956716], "type": "Point"}, "id": "LHUebl7bgz3MzCb51U3YAmlQuaw=", "properties": {"@spider": "usps_collection_boxes", "addr:city": "FORT JOHNSON", "addr:country": "US", "addr:full": "5 E MAIN ST", "addr:postcode": "12070", "addr:state": "NY", "brand": "USPS", "collection_times": "Mo-Fr 16:00; Sa 10:45", "name": "USPS COLLECTION BOX - PO LOBBY", "note": "ON 12/24 AND 12/31, THIS BOX MAY BE COLLECTED AS EARLY AS 12 NOON.", "ref": "1207000002"}, "type": "Feature"}
{"geometry": {"coordinates": [-74.233152419, 42.956717468], "type": "Point"}, "id": "AE85lu62M4S4m6IlPpkApyTCY8Q=", "properties": {"@spider": "usps_collection_boxes", "addr:city": "FORT JOHNSON", "addr:country": "US", "addr:full": "5 E MAIN ST", "addr:postcode": "12070", "addr:state": "NY", "brand": "USPS", "collection_times": "Mo-Fr 16:00; Sa 10:45", "name": "USPS COLLECTION BOX - PO LOBBY", "note": "ON 12/24 AND 12/31, THIS BOX MAY BE COLLECTED AS EARLY AS 12 NOON.", "ref": "1207000004"}, "type": "Feature"}
{"geometry": {"coordinates": [-74.395407, 42.568205], "type": "Point"}, "id": "Ba_nipDbmoWwe39roTRRqfDPHRs=", "properties": {"@spider": "usps_collection_boxes", "addr:city": "FULTONHAM", "addr:country": "US", "addr:full": "3431 STATE ROUTE 30", "addr:postcode": "12071", "addr:state": "NY", "brand": "USPS", "collection_times": "Mo-Fr 12:00; Sa 11:45", "name": "USPS COLLECTION BOX - BLUE BOX", "ref": "1207100001"}, "type": "Feature"}
{"geometry": {"coordinates": [-74.395372, 42.568198], "type": "Point"}, "id": "zYZ-pfhQC0PHm-CeGndrgTrziMA=", "properties": {"@spider": "usps_collection_boxes", "addr:city": "FULTONHAM", "addr:country": "US", "addr:full": "3431 STATE ROUTE 30", "addr:postcode": "12071", "addr:state": "NY", "brand": "USPS", "collection_times": "Mo-Fr 12:00; Sa 11:45", "name": "USPS COLLECTION BOX - PO LOBBY", "ref": "1207100002"}, "type": "Feature"}
{"geometry": {"coordinates": [-74.395422795, 42.568162145], "type": "Point"}, "id": "fQU8u_u3C0tgXP_2bCEFFSwDg4k=", "properties": {"@spider": "usps_collection_boxes", "addr:city": "FULTONHAM", "addr:country": "US", "addr:full": "3431 STATE ROUTE 30", "addr:postcode": "12071", "addr:state": "NY", "brand": "USPS", "collection_times": "Mo-Fr 12:00; Sa 11:45", "name": "USPS COLLECTION BOX - PO LOBBY", "ref": "1207100003"}, "type": "Feature"}
{"geometry": {"coordinates": [-74.370658, 42.947558], "type": "Point"}, "id": "0K4fWUxLW4xG4QmRVltLH2nct9A=", "properties": {"@spider": "usps_collection_boxes", "addr:city": "FULTONVILLE", "addr:country": "US", "addr:full": "26 MAIN ST", "addr:postcode": "12072", "addr:state": "NY", "brand": "USPS", "collection_times": "Mo-Fr 16:45; Sa 11:00", "name": "USPS COLLECTION BOX - PO LOBBY", "note": "ON 12/24 AND 12/31, THIS BOX MAY BE COLLECTED AS EARLY AS 12 NOON.", "ref": "1207200004"}, "type": "Feature"}
{"geometry": {"coordinates": [-74.370658, 42.947558], "type": "Point"}, "id": "P3hwlNngr-YDXANc9OelFu8p6Mk=", "properties": {"@spider": "usps_collection_boxes", "addr:city": "FULTONVILLE", "addr:country": "US", "addr:full": "26 MAIN ST", "addr:postcode": "12072", "addr:state": "NY", "brand": "USPS", "collection_times": "Mo-Fr 16:45; Sa 11:00", "name": "USPS COLLECTION BOX - BLUE BOX", "note": "ON 12/24 AND 12/31, THIS BOX MAY BE COLLECTED AS EARLY AS 12 NOON.", "ref": "1207200005"}, "type": "Feature"}
{"geometry": {"coordinates": [-74.370619759, 42.947604062], "type": "Point"}, "id": "36MdiNIJ_UFYpSd8WQ39bzCeOvQ=", "properties": {"@spider": "usps_collection_boxes", "addr:city": "FULTONVILLE", "addr:country": "US", "addr:full": "26 MAIN ST STE 5", "addr:postcode": "12072", "addr:state": "NY", "brand": "USPS", "collection_times": "Mo-Fr 16:45; Sa 11:00", "name": "USPS COLLECTION BOX - PO LOBBY", "note": "ON 12/24 AND 12/31, THIS BOX MAY BE COLLECTED AS EARLY AS 12 NOON.", "ref": "1207200006"}, "type": "Feature"}
{"geometry": {"coordinates": [-74.2351736354, 42.6617431652], "type": "Point"}, "id": "7wLWZjoLJL-SZ7DFie357-mxbnk=", "properties": {"@spider": "usps_collection_boxes", "addr:city": "GALLUPVILLE", "addr:country": "US", "addr:full": "859 SUITE 2 RT 443", "addr:postcode": "12073", "addr:state": "NY", "brand": "USPS", "collection_times": "Mo-Fr 12:00; Sa 10:45", "name": "USPS COLLECTION BOX - BLUE BOX", "ref": "1207300001"}, "type": "Feature"}
{"geometry": {"coordinates": [-74.2351736354, 42.6617431652], "type": "Point"}, "id": "Ah7SsNsXu4Iy20CcFtuIUNlJ3aI=", "properties": {"@spider": "usps_collection_boxes", "addr:city": "GALLUPVILLE", "addr:country": "US", "addr:full": "859 SUITE 2 RT 443", "addr:postcode": "12073", "addr:state": "NY", "brand": "USPS", "collection_times": "Mo-Fr 12:00; Sa 10:45", "name": "USPS COLLECTION BOX - PO LOBBY", "ref": "1207300002"}, "type": "Feature"}
{"geometry": {"coordinates": [-74.234879651, 42.665866228], "type": "Point"}, "id": "XwzVlxHowDC2GdyNwUbMGIzqm90=", "properties": {"@spider": "usps_collection_boxes", "addr:city": "GALLUPVILLE", "addr:country": "US", "addr:full": "859 STATE ROUTE 443 STE 2", "addr:postcode": "12073", "addr:state": "NY", "brand": "USPS", "collection_times": "Mo-Fr 12:00; Sa 11:00", "name": "USPS COLLECTION BOX - PO LOBBY", "ref": "1207300003"}, "type": "Feature"}
{"geometry": {"coordinates": [-74.030801, 43.013139], "type": "Point"}, "id": "Ac2lSth1YGnbs3jOdtatxAzbv9w=", "properties": {"@spider": "usps_collection_boxes", "addr:city": "GALWAY", "addr:country": "US", "addr:full": "5101 SACANDAGA RD", "addr:postcode": "12074", "addr:state": "NY", "brand": "USPS", "collection_times": "Mo-Fr 16:45; Sa 12:00", "name": "USPS COLLECTION BOX - BLUE BOX", "note": "ON 12/24 AND 12/31, THIS BOX MAY BE COLLECTED AS EARLY AS 12 NOON.", "ref": "1207400002"}, "type": "Feature"}
{"geometry": {"coordinates": [-74.030751, 43.013053], "type": "Point"}, "id": "Q0GTDqVmfenaMSeJB41hIHKhiAQ=", "properties": {"@spider": "usps_collection_boxes", "addr:city": "GALWAY", "addr:country": "US", "addr:full": "5101 SACANDAGA RD", "addr:postcode": "12074", "addr:state": "NY", "brand": "USPS", "collection_times": "Mo-Fr 16:45; Sa 12:00", "name": "USPS COLLECTION BOX - PO LOBBY", "note": "ON 12/24 AND 12/31, THIS BOX MAY BE COLLECTED AS EARLY AS 12 NOON.", "ref": "1207400004"}, "type": "Feature"}
{"geometry": {"coordinates": [-74.030859232, 43.013482198], "type": "Point"}, "id": "n89RbLxW4BGRXdpgpeVblL2LKbE=", "properties": {"@spider": "usps_collection_boxes", "addr:city": "GALWAY", "addr:country": "US", "addr:full": "5101 SACANDAGA RD", "addr:postcode": "12074", "addr:state": "NY", "brand": "USPS", "collection_times": "Mo-Fr 17:00; Sa 12:00", "name": "USPS COLLECTION BOX - PO LOBBY", "note": "ON 12/24 AND 12/31, THIS BOX MAY BE COLLECTED AS EARLY AS 12 NOON.", "ref": "1207400005"}, "type": "Feature"}
{"geometry": {"coordinates": [-73.612278, 42.331445], "type": "Point"}, "id": "YkstK1-e8jCpx6HON03SZIc-oRg=", "properties": {"@spider": "usps_collection_boxes", "addr:city": "GHENT", "addr:country": "US", "addr:full": "2354 ROUTE 66", "addr:postcode": "12075", "addr:state": "NY", "brand": "USPS", "collection_times": "Mo-Fr 16:30; Sa 11:30", "name": "USPS COLLECTION BOX - BLUE BOX", "note": "ON 12/24 AND 12/31, THIS BOX MAY BE COLLECTED AS EARLY AS 12 NOON.", "ref": "1207500001"}, "type": "Feature"}
{"geometry": {"coordinates": [-73.612279, 42.331442], "type": "Point"}, "id": "xgNJMVTEGIUiezQWVRzNmX1t0J8=", "properties": {"@spider": "usps_collection_boxes", "addr:city": "GHENT", "addr:country": "US", "addr:full": "2354 ROUTE 66", "addr:postcode": "12075", "addr:state": "NY", "brand": "USPS", "collection_times": "Mo-Fr 16:30; Sa 12:00", "name": "USPS COLLECTION BOX - PO LOBBY", "note": "ON 12/24 AND 12/31, THIS BOX MAY BE COLLECTED AS EARLY AS 12 NOON.", "ref": "1207500002"}, "type": "Feature"}
{"geometry": {"coordinates": [-73.612324782, 42.331451506], "type": "Point"}, "id": "5154SE17v-TlnoiBmq3A9-IQB8U=", "properties": {"@spider": "usps_collection_boxes", "addr:city": "GHENT", "addr:country": "US", "addr:full": "2354 STATE ROUTE 66", "addr:postcode": "12075", "addr:state": "NY", "brand": "USPS", "collection_times": "Mo-Fr 17:00; Sa 12:00", "name": "USPS COLLECTION BOX - PO LOBBY", "note": "ON 12/24 AND 12/31, THIS BOX MAY BE COLLECTED AS EARLY AS 12 NOON.", "ref": "1207500004"}, "type": "Feature"}
{"geometry": {"coordinates": [-74.449029, 42.397425], "type": "Point"}, "id": "CIYGARQQT9uXulGGthKHtiddHaA=", "properties": {"@spider": "usps_collection_boxes", "addr:city": "GILBOA", "addr:country": "US", "addr:full": "373 STATE ROUTE 990V STE 2", "addr:postcode": "12076", "addr:state": "NY", "brand": "USPS", "collection_times": "Mo-Fr 15:00; Sa 11:00", "name": "USPS COLLECTION BOX - BLUE BOX", "note": "ON 12/24 AND 12/31, THIS BOX MAY BE COLLECTED AS EARLY AS 12 NOON.", "ref": "1207600001"}, "type": "Feature"}
{"geometry": {"coordinates": [-74.446393, 42.397443], "type": "Point"}, "id": "JUHhwpUyQO_G-r2JTS0cpNxyniY=", "properties": {"@spider": "usps_collection_boxes", "addr:city": "GILBOA", "addr:country": "US", "addr:full": "373 STATE ROUTE 990V STE 2", "addr:postcode": "12076", "addr:state": "NY", "brand": "USPS", "collection_times": "Mo-Fr 15:00; Sa 11:00", "name": "USPS COLLECTION BOX - PO LOBBY", "note": "ON 12/24 AND 12/31, THIS BOX MAY BE COLLECTED AS EARLY AS 12 NOON.", "ref": "1207600002"}, "type": "Feature"}
{"geometry": {"coordinates": [-74.446462238, 42.397499754], "type": "Point"}, "id": "1QPRnaI_aM9CpaxJ8HXXIfhnIzs=", "properties": {"@spider": "usps_collection_boxes", "addr:city": "GILBOA", "addr:country": "US", "addr:full": "373 STATE ROUTE 990V STE 2", "addr:postcode": "12076", "addr:state": "NY", "brand": "USPS", "collection_times": "Mo-Fr 15:00; Sa 11:00", "name": "USPS COLLECTION BOX - PO LOBBY", "note": "ON 12/24 AND 12/31, THIS BOX MAY BE COLLECTED AS EARLY AS 12 NOON.", "ref": "1207600004"}, "type": "Feature"}
{"geometry": {"coordinates": [-73.795526, 42.601711], "type": "Point"}, "id": "BAL5rozaM-3-ltk8l9wWHE5EuBI=", "properties": {"@spider": "usps_collection_boxes", "addr:city": "GLENMONT", "addr:country": "US", "addr:full": "402 FEURA BUSH RD", "addr:postcode": "12077", "addr:state": "NY", "brand": "USPS", "collection_times": "Mo-Fr 16:45; Sa 12:00", "name": "USPS COLLECTION BOX - BLUE BOX", "note": "ON 12/24 AND 12/31, THIS BOX MAY BE COLLECTED AS EARLY AS 12 NOON.", "ref": "1207700001"}, "type": "Feature"}
{"geometry": {"coordinates": [-73.7959198, 42.601413], "type": "Point"}, "id": "YPyQdbERaC5zLnEuMtFZRV6LJyc=", "properties": {"@spider": "usps_collection_boxes", "addr:city": "GLENMONT", "addr:country": "US", "addr:full": "402 FEURA BUSH RD", "addr:postcode": "12077", "addr:state": "NY", "brand": "USPS", "collection_times": "Mo-Fr 17:00; Sa 12:30", "name": "USPS COLLECTION BOX - PO LOBBY", "note": "ON 12/24 AND 12/31, THIS BOX MAY BE COLLECTED AS EARLY AS 12 NOON.", "ref": "1207700004"}, "type": "Feature"}
{"geometry": {"coordinates": [-73.7897863, 42.601796], "type": "Point"}, "id": "KQGg3NKwfh4omAkRpUBt_coO-qM=", "properties": {"@spider": "usps_collection_boxes", "addr:city": "GLENMONT", "addr:country": "US", "addr:full": "329 GLENMONT RD", "addr:postcode": "12077", "addr:state": "NY", "brand": "USPS", "collection_times": "Mo-Sa 09:00", "name": "USPS COLLECTION BOX - BLUE BOX", "ref": "1207700005"}, "type": "Feature"}
{"geometry": {"coordinates": [-73.79550727, 42.601652572], "type": "Point"}, "id": "GcgaGvro8VKyWy7UdPC4tuKLrXQ=", "properties": {"@spider": "usps_collection_boxes", "addr:city": "GLENMONT", "addr:country": "US", "addr:full": "402 FEURA BUSH RD", "addr:postcode": "12077", "addr:state": "NY", "brand": "USPS", "collection_times": "Mo-Fr 17:00; Sa 12:30", "name": "USPS COLLECTION BOX - PO LOBBY", "note": "ON 12/24 AND 12/31, THIS BOX MAY BE COLLECTED AS EARLY AS 12 NOON.", "ref": "1207700009"}, "type": "Feature"}
{"geometry": {"coordinates": [-74.343501, 43.053377], "type": "Point"}, "id": "sp9HWiOB2DV6KAGa_QAQv6fAWxw=", "properties": {"@spider": "usps_collection_boxes", "addr:city": "GLOVERSVILLE", "addr:country": "US", "addr:full": "115 N MAIN ST", "addr:postcode": "12078", "addr:state": "NY", "brand": "USPS", "collection_times": "Mo-Fr 17:00; Sa 16:00", "name": "USPS COLLECTION BOX - BLUE BOX", "note": "ON 12/24 AND 12/31, THIS BOX MAY BE COLLECTED AS EARLY AS 12 NOON.", "ref": "1207800001"}, "type": "Feature"}
{"geometry": {"coordinates": [-74.343501, 43.053377], "type": "Point"}, "id": "d6KdLDSL2EzPrRM9VWhngovqrOg=", "properties": {"@spider": "usps_collection_boxes", "addr:city": "GLOVERSVILLE", "addr:country": "US", "addr:full": "115 N MAIN ST", "addr:postcode": "12078", "addr:state": "NY", "brand": "USPS", "collection_times": "Mo-Fr 17:00; Sa 16:00", "name": "USPS COLLECTION BOX - BLUE BOX", "note": "ON 12/24 AND 12/31, THIS BOX MAY BE COLLECTED AS EARLY AS 12 NOON.", "ref": "1207800005"}, "type": "Feature"}
{"geometry": {"coordinates": [-74.343501, 43.053377], "type": "Point"}, "id": "lX2OsEiFJix7EA_181XEKkV1pyY=", "properties": {"@spider": "usps_collection_boxes", "addr:city": "GLOVERSVILLE", "addr:country": "US", "addr:full": "115 N MAIN ST", "addr:postcode": "12078", "addr:state": "NY", "brand": "USPS", "collection_times": "Mo-Fr 17:00; Sa 16:00", "name": "USPS COLLECTION BOX - PO LOBBY", "note": "ON 12/24 AND 12/31, THIS BOX MAY BE COLLECTED AS EARLY AS 12 NOON.", "ref": "1207800006"}, "type": "Feature"}
{"geometry": {"coordinates": [-74.3489784, 43.052272], "type": "Point"}, "id": "_5vDltAJMP1pvx3gatARGAMcVdc=", "properties": {"@spider": "usps_collection_boxes", "addr:city": "GLOVERSVILLE", "addr:country": "US", "addr:full": "5 FRONTAGE RD", "addr:postcode": "12078", "addr:state": "NY", "brand": "USPS", "collection_times": "Mo-Fr 15:15; Sa 15:00", "name": "USPS COLLECTION BOX - BLUE BOX", "note": "ON 12/24 AND 12/31, THIS BOX MAY BE COLLECTED AS EARLY AS 12 NOON.", "ref": "1207800008"}, "type": "Feature"}
{"geometry": {"coordinates": [-74.3249155, 43.057787], "type": "Point"}, "id": "oy86Uf4xzi9dtY62-nIRJSTdPus=", "properties": {"@spider": "usps_collection_boxes", "addr:city": "GLOVERSVILLE", "addr:country": "US", "addr:full": "31 ARTERIAL PLZ", "addr:postcode": "12078", "addr:state": "NY", "brand": "USPS", "collection_times": "Mo-Sa 12:00", "name": "USPS COLLECTION BOX - BLUE BOX", "ref": "1207800010"}, "type": "Feature"}
{"geometry": {"coordinates": [-74.322208, 43.060762], "type": "Point"}, "id": "Y8bElusaWkSOif4vQhwPAsF8tSA=", "properties": {"@spider": "usps_collection_boxes", "addr:city": "GLOVERSVILLE", "addr:country": "US", "addr:full": "233 5TH AVE EXT", "addr:postcode": "12078", "addr:state": "NY", "brand": "USPS", "collection_times": "Mo-Sa 12:00", "name": "USPS COLLECTION BOX - BLUE BOX", "ref": "1207800011"}, "type": "Feature"}
{"geometry": {"coordinates": [-74.3330429, 43.071273], "type": "Point"}, "id": "yXEEbf7rFs_8VooiZfrC_t-w22g=", "properties": {"@spider": "usps_collection_boxes", "addr:city": "GLOVERSVILLE", "addr:country": "US", "addr:full": "99 E STATE ST", "addr:postcode": "12078", "addr:state": "NY", "brand": "USPS", "collection_times": "Mo-Fr 15:30; Sa 15:00", "name": "USPS COLLECTION BOX - BLUE BOX", "note": "ON 12/24 AND 12/31, THIS BOX MAY BE COLLECTED AS EARLY AS 12 NOON.", "ref": "1207800012"}, "type": "Feature"}
{"geometry": {"coordinates": [-74.3499021, 43.044195], "type": "Point"}, "id": "teifPLkq9yUaI6xPN3C-fbW5VX0=", "properties": {"@spider": "usps_collection_boxes", "addr:city": "GLOVERSVILLE", "addr:country": "US", "addr:full": "199 S MAIN ST", "addr:postcode": "12078", "addr:state": "NY", "brand": "USPS", "collection_times": "Mo-Sa 09:30", "name": "USPS COLLECTION BOX - BLUE BOX", "ref": "1207800023"}, "type": "Feature"}
{"geometry": {"coordinates": [-74.3451647, 43.051196], "type": "Point"}, "id": "ELBdphFMyxFvJk33Edjl4wRuWWw=", "properties": {"@spider": "usps_collection_boxes", "addr:city": "GLOVERSVILLE", "addr:country": "US", "addr:full": "21 N MAIN ST", "addr:postcode": "12078", "addr:state": "NY", "brand": "USPS", "collection_times": "Mo-Fr 15:15; Sa 15:00", "name": "USPS COLLECTION BOX - BLUE BOX", "note": "ON 12/24 AND 12/31, THIS BOX MAY BE COLLECTED AS EARLY AS 12 NOON.", "ref": "1207800025"}, "type": "Feature"}
{"geometry": {"coordinates": [-74.3452404, 43.051216], "type": "Point"}, "id": "kA5UZGKmen5FS5WG0XvaRSNHj8E=", "properties": {"@spider": "usps_collection_boxes", "addr:city": "GLOVERSVILLE", "addr:country": "US", "addr:full": "21 N MAIN ST", "addr:postcode": "12078", "addr:state": "NY", "brand": "USPS", "collection_times": "Mo-Fr 15:15; Sa 15:00", "name": "USPS COLLECTION BOX - BLUE BOX", "note": "ON 12/24 AND 12/31, THIS BOX MAY BE COLLECTED AS EARLY AS 12 NOON.", "ref": "1207800026"}, "type": "Feature"}
{"geometry": {"coordinates": [-74.3454303, 43.050701], "type": "Point"}, "id": "qhWCmoG9f8Hd3W7O9Gt3Fz6mSEs=", "properties": {"@spider": "usps_collection_boxes", "addr:city": "GLOVERSVILLE", "addr:country": "US", "addr:full": "2 N MAIN ST", "addr:postcode": "12078", "addr:state": "NY", "brand": "USPS", "collection_times": "Mo-Fr 15:30; Sa 15:00", "name": "USPS COLLECTION BOX - BLUE BOX", "note": "ON 12/24 AND 12/31, THIS BOX MAY BE COLLECTED AS EARLY AS 12 NOON.", "ref": "1207800028"}, "type": "Feature"}
{"geometry": {"coordinates": [-74.3469245, 43.050482], "type": "Point"}, "id": "wEbiFRy2x242pB_3GwR7WuqGN6s=", "properties": {"@spider": "usps_collection_boxes", "addr:city": "GLOVERSVILLE", "addr:country": "US", "addr:full": "29 W FULTON ST", "addr:postcode": "12078", "addr:state": "NY", "brand": "USPS", "collection_times": "Mo-Fr 15:15; Sa 15:00", "name": "USPS COLLECTION BOX - BLUE BOX", "note": "ON 12/24 AND 12/31, THIS BOX MAY BE COLLECTED AS EARLY AS 12 NOON.", "ref": "1207800029"}, "type": "Feature"}
{"geometry": {"coordinates": [-74.3385504, 43.062628], "type": "Point"}, "id": "Z1qUligfFVPUnB8mUBrPhyivVFY=", "properties": {"@spider": "usps_collection_boxes", "addr:city": "GLOVERSVILLE", "addr:country": "US", "addr:full": "358 N MAIN ST", "addr:postcode": "12078", "addr:state": "NY", "brand": "USPS", "collection_times": "Mo-Fr 15:00; Sa 09:00", "name": "USPS COLLECTION BOX - BLUE BOX", "note": "ON 12/24 AND 12/31, THIS BOX MAY BE COLLECTED AS EARLY AS 12 NOON.", "ref": "1207800030"}, "type": "Feature"}
{"geometry": {"coordinates": [-74.343409017, 43.053585548], "type": "Point"}, "id": "biB3SW74rmtZb_8dU20QA5m4e54=", "properties": {"@spider": "usps_collection_boxes", "addr:city": "GLOVERSVILLE", "addr:country": "US", "addr:full": "115 N MAIN ST", "addr:postcode": "12078", "addr:state": "NY", "brand": "USPS", "collection_times": "Mo-Fr 17:00; Sa 12:00", "name": "USPS COLLECTION BOX - PO LOBBY", "note": "ON 12/24 AND 12/31, THIS BOX MAY BE COLLECTED AS EARLY AS 12 NOON.", "ref": "1207800032"}, "type": "Feature"}
{"geometry": {"coordinates": [-73.44955, 42.769253], "type": "Point"}, "id": "Ac4v1_NAcUEgna6I7hxy5EcYvlk=", "properties": {"@spider": "usps_collection_boxes", "addr:city": "GRAFTON", "addr:country": "US", "addr:full": "6 ROXBOROUGH RD", "addr:postcode": "12082", "addr:state": "NY", "brand": "USPS", "collection_times": "Mo-Fr 13:00; Sa 12:00", "name": "USPS COLLECTION BOX - BLUE BOX", "note": "ON 12/24 AND 12/31, THIS BOX MAY BE COLLECTED AS EARLY AS 12 NOON.", "ref": "1208200001"}, "type": "Feature"}
{"geometry": {"coordinates": [-73.449581, 42.769169], "type": "Point"}, "id": "RveyEm_mTYZXIH8B9thuyyKyJmg=", "properties": {"@spider": "usps_collection_boxes", "addr:city": "GRAFTON", "addr:country": "US", "addr:full": "6 ROXBOROUGH RD", "addr:postcode": "12082", "addr:state": "NY", "brand": "USPS", "collection_times": "Mo-Fr 13:00; Sa 12:00", "name": "USPS COLLECTION BOX - PO LOBBY", "note": "ON 12/24 AND 12/31, THIS BOX MAY BE COLLECTED AS EARLY AS 12 NOON.", "ref": "1208200002"}, "type": "Feature"}
{"geometry": {"coordinates": [-73.449565765, 42.769370127], "type": "Point"}, "id": "OeDKTppnz7YtAFiu2zwQBbGB0Io=", "properties": {"@spider": "usps_collection_boxes", "addr:city": "GRAFTON", "addr:country": "US", "addr:full": "6 ROXBOROUGH RD", "addr:postcode": "12082", "addr:state": "NY", "brand": "USPS", "collection_times": "Mo-Fr 13:00; Sa 12:00", "name": "USPS COLLECTION BOX - PO LOBBY", "note": "ON 12/24 AND 12/31, THIS BOX MAY BE COLLECTED AS EARLY AS 12 NOON.", "ref": "1208200004"}, "type": "Feature"}
{"geometry": {"coordinates": [-74.024568, 42.415531], "type": "Point"}, "id": "iEXMVvat44UQwnkwkSLWyGblhhw=", "properties": {"@spider": "usps_collection_boxes", "addr:city": "GREENVILLE", "addr:country": "US", "addr:full": "4912 ROUTE 81", "addr:postcode": "12083", "addr:state": "NY", "brand": "USPS", "collection_times": "Mo-Fr 16:25; Sa 11:45", "name": "USPS COLLECTION BOX - BLUE BOX", "note": "ON 12/24 AND 12/31, THIS BOX MAY BE COLLECTED AS EARLY AS 12 NOON.", "ref": "1208300001"}, "type": "Feature"}
{"geometry": {"coordinates": [-74.024568, 42.415531], "type": "Point"}, "id": "yvhA4JsCNB8EwM8NEjrKeNja7MA=", "properties": {"@spider": "usps_collection_boxes", "addr:city": "GREENVILLE", "addr:country": "US", "addr:full": "4912 RTE 81", "addr:postcode": "12083", "addr:state": "NY", "brand": "USPS", "collection_times": "Mo-Fr 16:25; Sa 11:45", "name": "USPS COLLECTION BOX - PO LOBBY", "note": "ON 12/24 AND 12/31, THIS BOX MAY BE COLLECTED AS EARLY AS 12 NOON.", "ref": "1208300004"}, "type": "Feature"}
{"geometry": {"coordinates": [-74.024568, 42.415531], "type": "Point"}, "id": "q6zsGgCZnp1A0F85fYeqLUClxFE=", "properties": {"@spider": "usps_collection_boxes", "addr:city": "GREENVILLE", "addr:country": "US", "addr:full": "4912 STATE ROUTE 81", "addr:postcode": "12083", "addr:state": "NY", "brand": "USPS", "collection_times": "Mo-Fr 16:25; Sa 11:45", "name": "USPS COLLECTION BOX - PO LOBBY", "note": "ON 12/24 AND 12/31, THIS BOX MAY BE COLLECTED AS EARLY AS 12 NOON.", "ref": "1208300005"}, "type": "Feature"}
{"geometry": {"coordinates": [-74.024051359, 42.415501493], "type": "Point"}, "id": "mFuZAbewUdIBZ-cLP9IlQRjfHc4=", "properties": {"@spider": "usps_collection_boxes", "addr:city": "GREENVILLE", "addr:country": "US", "addr:full": "4912 STATE ROUTE 81", "addr:postcode": "12083", "addr:state": "NY", "brand": "USPS", "collection_times": "Mo-Fr 16:30; Sa 12:00", "name": "USPS COLLECTION BOX - PO LOBBY", "note": "ON 12/24 AND 12/31, THIS BOX MAY BE COLLECTED AS EARLY AS 12 NOON.", "ref": "1208300006"}, "type": "Feature"}
{"geometry": {"coordinates": [-73.9100449, 42.693401], "type": "Point"}, "id": "2lV12lyK33X2GiPT-dibgsaNxEg=", "properties": {"@spider": "usps_collection_boxes", "addr:city": "GUILDERLAND", "addr:country": "US", "addr:full": "7 WINDING BROOK DR", "addr:postcode": "12084", "addr:state": "NY", "brand": "USPS", "collection_times": "Mo-Sa 10:00", "name": "USPS COLLECTION BOX - BLUE BOX", "ref": "1208400003"}, "type": "Feature"}
{"geometry": {"coordinates": [-73.8925278, 42.696025], "type": "Point"}, "id": "ON4EVx5boVJKhbIkfBUofIgDCl4=", "properties": {"@spider": "usps_collection_boxes", "addr:city": "GUILDERLAND", "addr:country": "US", "addr:full": "800 BRANDYWINE PKWY", "addr:postcode": "12084", "addr:state": "NY", "brand": "USPS", "collection_times": "Mo-Sa 09:30", "name": "USPS COLLECTION BOX - BLUE BOX", "ref": "1208400004"}, "type": "Feature"}
{"geometry": {"coordinates": [-73.8908977, 42.692271], "type": "Point"}, "id": "upvP9H71y2c3kjO7vsQi_XfkTiM=", "properties": {"@spider": "usps_collection_boxes", "addr:city": "GUILDERLAND", "addr:country": "US", "addr:full": "101 HERITAGE RD", "addr:postcode": "12084", "addr:state": "NY", "brand": "USPS", "collection_times": "Mo-Sa 10:30", "name": "USPS COLLECTION BOX - BLUE BOX", "ref": "1208400005"}, "type": "Feature"}
{"geometry": {"coordinates": [-73.8919107, 42.697142], "type": "Point"}, "id": "DztjkO6ELncKxvNSvAndf1Zuy4M=", "properties": {"@spider": "usps_collection_boxes", "addr:city": "GUILDERLAND", "addr:country": "US", "addr:full": "2080 WESTERN AVE", "addr:postcode": "12084", "addr:state": "NY", "brand": "USPS", "collection_times": "Mo-Sa 09:30", "name": "USPS COLLECTION BOX - BLUE BOX", "ref": "1208400006"}, "type": "Feature"}
{"geometry": {"coordinates": [-73.8899434, 42.697542], "type": "Point"}, "id": "3V-PxI7w4dDx-BUa1RkznzAq4zQ=", "properties": {"@spider": "usps_collection_boxes", "addr:city": "GUILDERLAND", "addr:country": "US", "addr:full": "2050 WESTERN AVE", "addr:postcode": "12084", "addr:state": "NY", "brand": "USPS", "collection_times": "Mo-Sa 09:30", "name": "USPS COLLECTION BOX - BLUE BOX", "ref": "1208400007"}, "type": "Feature"}
{"geometry": {"coordinates": [-73.8956429, 42.696877], "type": "Point"}, "id": "hm_w089gUmZ9bNjpQTJ6B2tNaY8=", "properties": {"@spider": "usps_collection_boxes", "addr:city": "GUILDERLAND", "addr:country": "US", "addr:full": "2120 WESTERN AVE", "addr:postcode": "12084", "addr:state": "NY", "brand": "USPS", "collection_times": "Mo-Sa 09:30", "name": "USPS COLLECTION BOX - BLUE BOX", "ref": "1208400009"}, "type": "Feature"}
{"geometry": {"coordinates": [-73.9047033, 42.700418], "type": "Point"}, "id": "JQ3aVPRuzcSqD4-rMr3UO8Q0DkA=", "properties": {"@spider": "usps_collection_boxes", "addr:city": "GUILDERLAND", "addr:country": "US", "addr:full": "2228 WESTERN AVE", "addr:postcode": "12084", "addr:state": "NY", "brand": "USPS", "collection_times": "Mo-Sa 09:30", "name": "USPS COLLECTION BOX - BLUE BOX", "ref": "1208400012"}, "type": "Feature"}
{"geometry": {"coordinates": [-73.886057705, 42.699475756], "type": "Point"}, "id": "vFISDAodKxITNLMdODydueh-vt4=", "properties": {"@spider": "usps_collection_boxes", "addr:city": "GUILDERLAND", "addr:country": "US", "addr:full": "11 NEW KARNER RD", "addr:postcode": "12084", "addr:state": "NY", "brand": "USPS", "collection_times": "Mo-Fr 17:15; Sa 13:45", "name": "USPS COLLECTION BOX - PO LOBBY", "note": "ON 12/24 AND 12/31, THIS BOX MAY BE COLLECTED AS EARLY AS 12 NOON.", "ref": "1208400014"}, "type": "Feature"}
{"geometry": {"coordinates": [-73.886057705, 42.699475756], "type": "Point"}, "id": "q75hqxV5n_mpjlZpqTr9Cj9wjis=", "properties": {"@spider": "usps_collection_boxes", "addr:city": "GUILDERLAND", "addr:country": "US", "addr:full": "11 NEW KARNER RD", "addr:postcode": "12084", "addr:state": "NY", "brand": "USPS", "collection_times": "Mo-Fr 17:15; Sa 13:45", "name": "USPS COLLECTION BOX - PO LOBBY", "note": "ON 12/24 AND 12/31, THIS BOX MAY BE COLLECTED AS EARLY AS 12 NOON.", "ref": "1208400017"}, "type": "Feature"}
{"geometry": {"coordinates": [-73.886057705, 42.699475756], "type": "Point"}, "id": "jstL66W87ZGeVNJpEm2aOLjOEYI=", "properties": {"@spider": "usps_collection_boxes", "addr:city": "GUILDERLAND", "addr:country": "US", "addr:full": "11 NEW KARNER RD", "addr:postcode": "12084", "addr:state": "NY", "brand": "USPS", "collection_times": "Mo-Fr 17:15; Sa 13:45", "name": "USPS COLLECTION BOX - BLUE BOX", "note": "ON 12/24 AND 12/31, THIS BOX MAY BE COLLECTED AS EARLY AS 12 NOON.", "ref": "1208400018"}, "type": "Feature"}
{"geometry": {"coordinates": [-73.886057705, 42.699475756], "type": "Point"}, "id": "_Hjj-0f4hpOmYe5Is3RffMw0fWI=", "properties": {"@spider": "usps_collection_boxes", "addr:city": "GUILDERLAND", "addr:country": "US", "addr:full": "11 NEW KARNER RD", "addr:postcode": "12084", "addr:state": "NY", "brand": "USPS", "collection_times": "Mo-Fr 17:15; Sa 13:45", "name": "USPS COLLECTION BOX - BLUE BOX", "note": "ON 12/24 AND 12/31, THIS BOX MAY BE COLLECTED AS EARLY AS 12 NOON.", "ref": "1208400019"}, "type": "Feature"}
{"geometry": {"coordinates": [-73.886057705, 42.699475756], "type": "Point"}, "id": "EeoE6LVnpFN2DXAf7vYDX_aiO70=", "properties": {"@spider": "usps_collection_boxes", "addr:city": "GUILDERLAND", "addr:country": "US", "addr:full": "11 NEW KARNER RD", "addr:postcode": "12084", "addr:state": "NY", "brand": "USPS", "collection_times": "Mo-Fr 17:15; Sa 13:45", "name": "USPS COLLECTION BOX - BLUE BOX", "note": "ON 12/24 AND 12/31, THIS BOX MAY BE COLLECTED AS EARLY AS 12 NOON.", "ref": "1208400020"}, "type": "Feature"}
{"geometry": {"coordinates": [-73.886057705, 42.699475756], "type": "Point"}, "id": "FapoEerxMzyVicDNrzQNTb2hLx4=", "properties": {"@spider": "usps_collection_boxes", "addr:city": "GUILDERLAND", "addr:country": "US", "addr:full": "11 NEW KARNER RD", "addr:postcode": "12084", "addr:state": "NY", "brand": "USPS", "collection_times": "Mo-Fr 17:30; Sa 14:00", "name": "USPS COLLECTION BOX - PO LOBBY", "note": "ON 12/24 AND 12/31, THIS BOX MAY BE COLLECTED AS EARLY AS 12 NOON.", "ref": "1208400021"}, "type": "Feature"}
{"geometry": {"coordinates": [-73.9655515986, 42.702789755], "type": "Point"}, "id": "KOcJpMdfZ-4eJvBF1sK6MxzFb7U=", "properties": {"@spider": "usps_collection_boxes", "addr:city": "GUILDERLAND CTR", "addr:country": "US", "addr:full": "457 STATE ROUTE 146 UNIT 2", "addr:postcode": "12085", "addr:state": "NY", "brand": "USPS", "collection_times": "Mo-Fr 16:55; Sa 11:25", "name": "USPS COLLECTION BOX - BLUE BOX", "note": "ON 12/24 AND 12/31, THIS BOX MAY BE COLLECTED AS EARLY AS 12 NOON.", "ref": "1208500001"}, "type": "Feature"}
{"geometry": {"coordinates": [-73.965539, 42.702796], "type": "Point"}, "id": "HiyLbqqGVhkvkuyr0s562l2T9Sk=", "properties": {"@spider": "usps_collection_boxes", "addr:city": "GUILDERLAND CTR", "addr:country": "US", "addr:full": "457 ROUTE 146", "addr:postcode": "12085", "addr:state": "NY", "brand": "USPS", "collection_times": "Mo-Fr 16:00; Sa 11:25", "name": "USPS COLLECTION BOX - PO LOBBY", "note": "ON 12/24 AND 12/31, THIS BOX MAY BE COLLECTED AS EARLY AS 12 NOON.", "ref": "1208500002"}, "type": "Feature"}
{"geometry": {"coordinates": [-73.965551599, 42.702789755], "type": "Point"}, "id": "ScE_ymUMklOWtH97d2hE3Pjnj8s=", "properties": {"@spider": "usps_collection_boxes", "addr:city": "GUILDERLAND CTR", "addr:country": "US", "addr:full": "457 STATE ROUTE 146 UNIT 2", "addr:postcode": "12085", "addr:state": "NY", "brand": "USPS", "collection_times": "Mo-Fr 17:00; Sa 11:30", "name": "USPS COLLECTION BOX - PO LOBBY", "note": "ON 12/24 AND 12/31, THIS BOX MAY BE COLLECTED AS EARLY AS 12 NOON.", "ref": "1208500003"}, "type": "Feature"}
{"geometry": {"coordinates": [-74.151085, 42.974398], "type": "Point"}, "id": "jdxzYGmRt-lauRY5n4XzhE5Fmy4=", "properties": {"@spider": "usps_collection_boxes", "addr:city": "HAGAMAN", "addr:country": "US", "addr:full": "127 S PAWLING ST", "addr:postcode": "12086", "addr:state": "NY", "brand": "USPS", "collection_times": "Mo-Fr 16:00; Sa 10:45", "name": "USPS COLLECTION BOX - BLUE BOX", "note": "ON 12/24 AND 12/31, THIS BOX MAY BE COLLECTED AS EARLY AS 12 NOON.", "ref": "1208600001"}, "type": "Feature"}
{"geometry": {"coordinates": [-74.151112, 42.974332], "type": "Point"}, "id": "sgzFCwB0ibPyt69Wt4R88S66EXA=", "properties": {"@spider": "usps_collection_boxes", "addr:city": "HAGAMAN", "addr:country": "US", "addr:full": "127 S PAWLING ST", "addr:postcode": "12086", "addr:state": "NY", "brand": "USPS", "collection_times": "Mo-Fr 16:15; Sa 11:00", "name": "USPS COLLECTION BOX - PO LOBBY", "note": "ON 12/24 AND 12/31, THIS BOX MAY BE COLLECTED AS EARLY AS 12 NOON.", "ref": "1208600002"}, "type": "Feature"}
{"geometry": {"coordinates": [-74.151064485, 42.974372], "type": "Point"}, "id": "bq1FzlLPf1DG14N8i5m3qstrhRk=", "properties": {"@spider": "usps_collection_boxes", "addr:city": "HAGAMAN", "addr:country": "US", "addr:full": "127 S PAWLING ST", "addr:postcode": "12086", "addr:state": "NY", "brand": "USPS", "collection_times": "Mo-Fr 16:30; Sa 12:00", "name": "USPS COLLECTION BOX - PO LOBBY", "note": "ON 12/24 AND 12/31, THIS BOX MAY BE COLLECTED AS EARLY AS 12 NOON.", "ref": "1208600004"}, "type": "Feature"}
{"geometry": {"coordinates": [-73.8178453, 42.425392], "type": "Point"}, "id": "Tri1KcdnRYNu6mRZZ3FH_Gp3Muo=", "properties": {"@spider": "usps_collection_boxes", "addr:city": "HANNACROIX", "addr:country": "US", "addr:full": "13591 US ROUTE 9W", "addr:postcode": "12087", "addr:state": "NY", "brand": "USPS", "collection_times": "Mo-Fr 16:15; Sa 10:00", "name": "USPS COLLECTION BOX - BLUE BOX", "note": "ON 12/24 AND 12/31, THIS BOX MAY BE COLLECTED AS EARLY AS 12 NOON.", "ref": "1208700001"}, "type": "Feature"}
{"geometry": {"coordinates": [-73.817943, 42.424706], "type": "Point"}, "id": "qsHxrkPuJh-eO_enEneuOasXUSY=", "properties": {"@spider": "usps_collection_boxes", "addr:city": "HANNACROIX", "addr:country": "US", "addr:full": "13591 US ROUTE 9W", "addr:postcode": "12087", "addr:state": "NY", "brand": "USPS", "collection_times": "Mo-Fr 14:30; Sa 10:30", "name": "USPS COLLECTION BOX - PO LOBBY", "note": "ON 12/24 AND 12/31, THIS BOX MAY BE COLLECTED AS EARLY AS 12 NOON.", "ref": "1208700002"}, "type": "Feature"}
{"geometry": {"coordinates": [-73.817953843, 42.424747669], "type": "Point"}, "id": "Ng09VKSJfnA2YQTCTLW84W-VEHs=", "properties": {"@spider": "usps_collection_boxes", "addr:city": "HANNACROIX", "addr:country": "US", "addr:full": "13591 US ROUTE 9W", "addr:postcode": "12087", "addr:state": "NY", "brand": "USPS", "collection_times": "Mo-Fr 14:00; Sa 10:30", "name": "USPS COLLECTION BOX - PO LOBBY", "note": "ON 12/24 AND 12/31, THIS BOX MAY BE COLLECTED AS EARLY AS 12 NOON.", "ref": "1208700004"}, "type": "Feature"}
{"geometry": {"coordinates": [-73.350608, 42.900553], "type": "Point"}, "id": "SnS7agu7brbtrDrGv4xy_OcO6JA=", "properties": {"@spider": "usps_collection_boxes", "addr:city": "HOOSICK FALLS", "addr:country": "US", "addr:full": "35 MAIN ST", "addr:postcode": "12090", "addr:state": "NY", "brand": "USPS", "collection_times": "Mo-Fr 17:00; Sa 15:30", "name": "USPS COLLECTION BOX - BLUE BOX", "note": "ON 12/24 AND 12/31, THIS BOX MAY BE COLLECTED AS EARLY AS 12 NOON.", "ref": "1209000010"}, "type": "Feature"}
{"geometry": {"coordinates": [-73.350608, 42.900553], "type": "Point"}, "id": "rAWh_5hPqY8U9JcFFwWvbsEz1-0=", "properties": {"@spider": "usps_collection_boxes", "addr:city": "HOOSICK FALLS", "addr:country": "US", "addr:full": "35 MAIN ST", "addr:postcode": "12090", "addr:state": "NY", "brand": "USPS", "collection_times": "Mo-Fr 17:00; Sa 15:30", "name": "USPS COLLECTION BOX - PO LOBBY", "note": "ON 12/24 AND 12/31, THIS BOX MAY BE COLLECTED AS EARLY AS 12 NOON.", "ref": "1209000012"}, "type": "Feature"}
{"geometry": {"coordinates": [-73.350647388, 42.900537069], "type": "Point"}, "id": "5c4LLqg_46iA7nct-HUUp2uvDNQ=", "properties": {"@spider": "usps_collection_boxes", "addr:city": "HOOSICK FALLS", "addr:country": "US", "addr:full": "35 MAIN ST", "addr:postcode": "12090", "addr:state": "NY", "brand": "USPS", "collection_times": "Mo-Fr 17:00; Sa 12:00", "name": "USPS COLLECTION BOX - PO LOBBY", "note": "ON 12/24 AND 12/31, THIS BOX MAY BE COLLECTED AS EARLY AS 12 NOON.", "ref": "1209000014"}, "type": "Feature"}
{"geometry": {"coordinates": [-74.3922611, 42.682743], "type": "Point"}, "id": "gzKcOjVQdVOQMHol0uiOKdmoeVo=", "properties": {"@spider": "usps_collection_boxes", "addr:city": "HOWES CAVE", "addr:country": "US", "addr:full": "2929 ROUTE 7", "addr:postcode": "12092", "addr:state": "NY", "brand": "USPS", "collection_times": "Mo-Fr 15:00; Sa 10:45", "name": "USPS COLLECTION BOX - BLUE BOX", "note": "ON 12/24 AND 12/31, THIS BOX MAY BE COLLECTED AS EARLY AS 12 NOON.", "ref": "1209200001"}, "type": "Feature"}
{"geometry": {"coordinates": [-74.392014, 42.682497], "type": "Point"}, "id": "xHpZDbWtdggOSo0W_ffcKSic57Q=", "properties": {"@spider": "usps_collection_boxes", "addr:city": "HOWES CAVE", "addr:country": "US", "addr:full": "2929 ROUTE 7", "addr:postcode": "12092", "addr:state": "NY", "brand": "USPS", "collection_times": "Mo-Fr 15:00; Sa 10:30", "name": "USPS COLLECTION BOX - PO LOBBY", "note": "ON 12/24 AND 12/31, THIS BOX MAY BE COLLECTED AS EARLY AS 12 NOON.", "ref": "1209200002"}, "type": "Feature"}
{"geometry": {"coordinates": [-74.392434109, 42.682455428], "type": "Point"}, "id": "H1UGy6dCEWBDgNvbB_FPrxwCatA=", "properties": {"@spider": "usps_collection_boxes", "addr:city": "HOWES CAVE", "addr:country": "US", "addr:full": "2929 STATE ROUTE 7", "addr:postcode": "12092", "addr:state": "NY", "brand": "USPS", "collection_times": "Mo-Fr 15:00; Sa 10:30", "name": "USPS COLLECTION BOX - PO LOBBY", "note": "ON 12/24 AND 12/31, THIS BOX MAY BE COLLECTED AS EARLY AS 12 NOON.", "ref": "1209200004"}, "type": "Feature"}
{"geometry": {"coordinates": [-74.613072, 42.48058], "type": "Point"}, "id": "uV4-Oyd9QvS7k9Cr1CSI-5tdgVs=", "properties": {"@spider": "usps_collection_boxes", "addr:city": "JEFFERSON", "addr:country": "US", "addr:full": "102 PARK AVE", "addr:postcode": "12093", "addr:state": "NY", "brand": "USPS", "collection_times": "Mo-Fr 16:00; Sa 10:30", "name": "USPS COLLECTION BOX - BLUE BOX", "note": "ON 12/24 AND 12/31, THIS BOX MAY BE COLLECTED AS EARLY AS 12 NOON.", "ref": "1209300001"}, "type": "Feature"}
{"geometry": {"coordinates": [-74.613193, 42.480597], "type": "Point"}, "id": "1UM48wBz4LC6RMIWg4NIVsU36V0=", "properties": {"@spider": "usps_collection_boxes", "addr:city": "JEFFERSON", "addr:country": "US", "addr:full": "102 PARK AVE", "addr:postcode": "12093", "addr:state": "NY", "brand": "USPS", "collection_times": "Mo-Fr 16:00; Sa 10:30", "name": "USPS COLLECTION BOX - PO LOBBY", "note": "ON 12/24 AND 12/31, THIS BOX MAY BE COLLECTED AS EARLY AS 12 NOON.", "ref": "1209300002"}, "type": "Feature"}
{"geometry": {"coordinates": [-74.61300194, 42.480576525], "type": "Point"}, "id": "219hdUK-0rqeV5ytb4uMrGzlxxo=", "properties": {"@spider": "usps_collection_boxes", "addr:city": "JEFFERSON", "addr:country": "US", "addr:full": "102 PARK AVE", "addr:postcode": "12093", "addr:state": "NY", "brand": "USPS", "collection_times": "Mo-Fr 16:00; Sa 11:00", "name": "USPS COLLECTION BOX - PO LOBBY", "note": "ON 12/24 AND 12/31, THIS BOX MAY BE COLLECTED AS EARLY AS 12 NOON.", "ref": "1209300004"}, "type": "Feature"}
{"geometry": {"coordinates": [-73.511714, 42.915794], "type": "Point"}, "id": "6NLXhiRpXiQNF1t0ZUzJaVq1o9g=", "properties": {"@spider": "usps_collection_boxes", "addr:city": "JOHNSONVILLE", "addr:country": "US", "addr:full": "2442 NY 67", "addr:postcode": "12094", "addr:state": "NY", "brand": "USPS", "collection_times": "Mo-Fr 11:30; Sa 10:30", "name": "USPS COLLECTION BOX - BLUE BOX", "ref": "1209400001"}, "type": "Feature"}
{"geometry": {"coordinates": [-73.510507, 42.916473], "type": "Point"}, "id": "5heEYRy3NcW_kITvwM8R9HQve_8=", "properties": {"@spider": "usps_collection_boxes", "addr:city": "JOHNSONVILLE", "addr:country": "US", "addr:full": "2442 NY 67", "addr:postcode": "12094", "addr:state": "NY", "brand": "USPS", "collection_times": "Mo-Fr 11:30; Sa 10:15", "name": "USPS COLLECTION BOX - PO LOBBY", "ref": "1209400002"}, "type": "Feature"}
{"geometry": {"coordinates": [-73.510506185, 42.916469544], "type": "Point"}, "id": "IKyzGInpAZUXveetsXmioLGOLQI=", "properties": {"@spider": "usps_collection_boxes", "addr:city": "JOHNSONVILLE", "addr:country": "US", "addr:full": "2442 STATE ROUTE 67", "addr:postcode": "12094", "addr:state": "NY", "brand": "USPS", "collection_times": "Mo-Fr 11:30; Sa 10:30", "name": "USPS COLLECTION BOX - PO LOBBY", "ref": "1209400004"}, "type": "Feature"}
{"geometry": {"coordinates": [-74.3591867, 43.015741], "type": "Point"}, "id": "6waBxG8_DKNI8ema-I74UJGkgVs=", "properties": {"@spider": "usps_collection_boxes", "addr:city": "JOHNSTOWN", "addr:country": "US", "addr:full": "240 N COMRIE AVE", "addr:postcode": "12095", "addr:state": "NY", "brand": "USPS", "collection_times": "Mo-Sa 12:00", "name": "USPS COLLECTION BOX - BLUE BOX", "ref": "1209500004"}, "type": "Feature"}
{"geometry": {"coordinates": [-74.374087977, 43.006996599], "type": "Point"}, "id": "re6iVhY8ArhyK0RFA6j1YlHCkyM=", "properties": {"@spider": "usps_collection_boxes", "addr:city": "JOHNSTOWN", "addr:country": "US", "addr:full": "5 CHURCH ST", "addr:postcode": "12095", "addr:state": "NY", "brand": "USPS", "collection_times": "Mo-Fr 17:00; Sa 15:30", "name": "USPS COLLECTION BOX - BLUE BOX", "note": "ON 12/24 AND 12/31, THIS BOX MAY BE COLLECTED AS EARLY AS 12 NOON.", "ref": "1209500006"}, "type": "Feature"}
{"geometry": {"coordinates": [-74.374087977, 43.006996599], "type": "Point"}, "id": "pZsd83URih6vYi1BMVzLAN8rwNk=", "properties": {"@spider": "usps_collection_boxes", "addr:city": "JOHNSTOWN", "addr:country": "US", "addr:full": "5 CHURCH ST", "addr:postcode": "12095", "addr:state": "NY", "brand": "USPS", "collection_times": "Mo-Fr 17:00; Sa 15:30", "name": "USPS COLLECTION BOX - BLUE BOX", "note": "ON 12/24 AND 12/31, THIS BOX MAY BE COLLECTED AS EARLY AS 12 NOON.", "ref": "1209500008"}, "type": "Feature"}
{"geometry": {"coordinates": [-74.3700517, 43.006594], "type": "Point"}, "id": "5DwynN5UBLDRaWpFBvjBVGrC8Pg=", "properties": {"@spider": "usps_collection_boxes", "addr:city": "JOHNSTOWN", "addr:country": "US", "addr:full": "41 E MAIN ST", "addr:postcode": "12095", "addr:state": "NY", "brand": "USPS", "collection_times": "Mo-Fr 15:30", "name": "USPS COLLECTION BOX - BLUE BOX", "note": "ON 12/24 AND 12/31, THIS BOX MAY BE COLLECTED AS EARLY AS 12 NOON.", "ref": "1209500012"}, "type": "Feature"}
{"geometry": {"coordinates": [-74.3726899, 43.006271], "type": "Point"}, "id": "6elu3vymF4eq6rO4cDfEXp3vhPk=", "properties": {"@spider": "usps_collection_boxes", "addr:city": "JOHNSTOWN", "addr:country": "US", "addr:full": "44 W MAIN ST", "addr:postcode": "12095", "addr:state": "NY", "brand": "USPS", "collection_times": "Mo-Fr 15:30; Sa 09:00", "name": "USPS COLLECTION BOX - BLUE BOX", "note": "ON 12/24 AND 12/31, THIS BOX MAY BE COLLECTED AS EARLY AS 12 NOON.", "ref": "1209500026"}, "type": "Feature"}
{"geometry": {"coordinates": [-74.374211, 43.007016], "type": "Point"}, "id": "yQPzPdHjR8o2C6l2bab1LWWY7b0=", "properties": {"@spider": "usps_collection_boxes", "addr:city": "JOHNSTOWN", "addr:country": "US", "addr:full": "14 N WILLIAM ST", "addr:postcode": "12095", "addr:state": "NY", "brand": "USPS", "collection_times": "Mo-Fr 17:15; Sa 15:30", "name": "USPS COLLECTION BOX - PO LOBBY", "note": "ON 12/24 AND 12/31, THIS BOX MAY BE COLLECTED AS EARLY AS 12 NOON.", "ref": "1209500027"}, "type": "Feature"}
{"geometry": {"coordinates": [-74.360701853, 43.0134176553], "type": "Point"}, "id": "wMaPaAwSg6q8zx-VIdxms5MzGcU=", "properties": {"@spider": "usps_collection_boxes", "addr:city": "JOHNSTOWN", "addr:country": "US", "addr:full": "198 N COMRIE AVE", "addr:postcode": "12095", "addr:state": "NY", "brand": "USPS", "collection_times": "Mo-Sa 11:00", "name": "USPS COLLECTION BOX - BLUE BOX", "ref": "1209500040"}, "type": "Feature"}
{"geometry": {"coordinates": [-74.374226616, 43.007130817], "type": "Point"}, "id": "gDvorpaD6HZOsy44UazsOmVf29w=", "properties": {"@spider": "usps_collection_boxes", "addr:city": "JOHNSTOWN", "addr:country": "US", "addr:full": "14 N WILLIAM ST", "addr:postcode": "12095", "addr:state": "NY", "brand": "USPS", "collection_times": "Mo-Fr 16:45; Sa 12:00", "name": "USPS COLLECTION BOX - PO LOBBY", "note": "ON 12/24 AND 12/31, THIS BOX MAY BE COLLECTED AS EARLY AS 12 NOON.", "ref": "1209500041"}, "type": "Feature"}
