{"geometry": {"coordinates": [-73.7696882495, 42.6485541894], "type": "Point"}, "id": "dvY9s53qCYLGqJp2rpogarA8tc4=", "properties": {"@source_uri": "https://tools.usps.com/UspsToolsRestServices/rest/POLocator/findLocations", "@spider": "usps_collection_boxes", "addr:city": "ALBANY", "addr:country": "US", "addr:postcode": "12202", "addr:state": "NY", "addr:street_address": "1 LEONARD PL", "amenity": "post_box", "collection_times": "Mo-Sa 10:00", "nsi_id": "unitedstatespostalservice-a77078", "operator": "United States Postal Service", "operator:short": "USPS", "operator:type": "public", "operator:wikidata": "Q668687", "ref": "1220200001"}, "type": "Feature"}
{"geometry": {"coordinates": [-73.7647854, 42.631966], "type": "Point"}, "id": "rSC9sB0tPZbH8Vmhk7_zzhGcr1s=", "properties": {"@source_uri": "https://tools.usps.com/UspsToolsRestServices/rest/POLocator/findLocations", "@spider": "usps_collection_boxes", "addr:city": "ALBANY", "addr:country": "US", "addr:postcode": "12202", "addr:state": "NY", "addr:street_address": "625 S PEARL ST", "amenity": "post_box", "collection_times": "Mo-Sa 11:00", "nsi_id": "unitedstatespostalservice-a77078", "operator": "United States Postal Service", "operator:short": "USPS", "operator:type": "public", "operator:wikidata": "Q668687", "ref": "1220200007"}, "type": "Feature"}
{"geometry": {"coordinates": [-73.7549403, 42.645618], "type": "Point"}, "id": "SyXut1DXW3UDmP9aakwFIxdZmjw=", "properties": {"@source_uri": "https://tools.usps.com/UspsToolsRestServices/rest/POLocator/findLocations", "@spider": "usps_collection_boxes", "addr:city": "ALBANY", "addr:country": "US", "addr:postcode": "12202", "addr:state": "NY", "addr:street_address": "135 S PEARL ST", "amenity": "post_box", "collection_times": "Mo-Sa 09:00", "nsi_id": "unitedstatespostalservice-a77078", "operator": "United States Postal Service", "operator:short": "USPS", "operator:type": "public", "operator:wikidata": "Q668687", "ref": "1220200015"}, "type": "Feature"}
{"geometry": {"coordinates": [-73.7544938563, 42.6417471979], "type": "Point"}, "id": "zVMTc61lT471ftHMNvFt9N_iFao=", "properties": {"@source_uri": "https://tools.usps.com/UspsToolsRestServices/rest/POLocator/findLocations", "@spider": "usps_collection_boxes", "addr:city": "ALBANY", "addr:country": "US", "addr:postcode": "12202", "addr:state": "NY", "addr:street_address": "175 GREEN ST", "amenity": "post_box", "collection_times": "Mo-Fr 13:30; Sa 10:00", "note": "ON 12/24 AND 12/31, THIS BOX MAY BE COLLECTED AS EARLY AS 12 NOON.", "nsi_id": "unitedstatespostalservice-a77078", "operator": "United States Postal Service", "operator:short": "USPS", "operator:type": "public", "operator:wikidata": "Q668687", "ref": "1220200016"}, "type": "Feature"}
{"geometry": {"coordinates": [-73.7552904, 42.63984], "type": "Point"}, "id": "aXAEBejAk4GvulMy7sB0KxhCDB4=", "properties": {"@source_uri": "https://tools.usps.com/UspsToolsRestServices/rest/POLocator/findLocations", "@spider": "usps_collection_boxes", "addr:city": "ALBANY", "addr:country": "US", "addr:postcode": "12202", "addr:state": "NY", "addr:street_address": "220 GREEN ST", "amenity": "post_box", "collection_times": "Mo-Sa 10:00", "nsi_id": "unitedstatespostalservice-a77078", "operator": "United States Postal Service", "operator:short": "USPS", "operator:type": "public", "operator:wikidata": "Q668687", "ref": "1220200017"}, "type": "Feature"}
{"geometry": {"coordinates": [-73.7746938, 42.630673], "type": "Point"}, "id": "XlfC9bkOWOhQ5iuKKWP03EVA1GY=", "properties": {"@source_uri": "https://tools.usps.com/UspsToolsRestServices/rest/POLocator/findLocations", "@spider": "usps_collection_boxes", "addr:city": "ALBANY", "addr:country": "US", "addr:postcode": "12202", "addr:state": "NY", "addr:street_address": "1 MOUNT HOPE DR", "amenity": "post_box", "collection_times": "Mo-Fr 09:45", "nsi_id": "unitedstatespostalservice-a77078", "operator": "United States Postal Service", "operator:short": "USPS", "operator:type": "public", "operator:wikidata": "Q668687", "ref": "1220200022"}, "type": "Feature"}
{"geometry": {"coordinates": [-73.7674882, 42.63902], "type": "Point"}, "id": "K-QsSWq0u2kNg89tXcF_nhWELA4=", "properties": {"@source_uri": "https://tools.usps.com/UspsToolsRestServices/rest/POLocator/findLocations", "@spider": "usps_collection_boxes", "addr:city": "ALBANY", "addr:country": "US", "addr:postcode": "12202", "addr:state": "NY", "addr:street_address": "148 2ND AVE", "amenity": "post_box", "collection_times": "Mo-Sa 11:30", "nsi_id": "unitedstatespostalservice-a77078", "operator": "United States Postal Service", "operator:short": "USPS", "operator:type": "public", "operator:wikidata": "Q668687", "ref": "1220200024"}, "type": "Feature"}
{"geometry": {"coordinates": [-73.7639043, 42.621193], "type": "Point"}, "id": "gxwEriNhVb1k4Kz5AE7y2Vxe-nA=", "properties": {"@source_uri": "https://tools.usps.com/UspsToolsRestServices/rest/POLocator/findLocations", "@spider": "usps_collection_boxes", "addr:city": "ALBANY", "addr:country": "US", "addr:postcode": "12202", "addr:state": "NY", "addr:street_address": "1 PORT OF ALBANY", "amenity": "post_box", "collection_times": "Mo-Sa 09:30", "nsi_id": "unitedstatespostalservice-a77078", "operator": "United States Postal Service", "operator:short": "USPS", "operator:type": "public", "operator:wikidata": "Q668687", "ref": "1220200028"}, "type": "Feature"}
{"geometry": {"coordinates": [-73.7574522, 42.642022], "type": "Point"}, "id": "Hp3ymaDMLnLSELxllmIFlge0HKM=", "properties": {"@source_uri": "https://tools.usps.com/UspsToolsRestServices/rest/POLocator/findLocations", "@spider": "usps_collection_boxes", "addr:city": "ALBANY", "addr:country": "US", "addr:postcode": "12202", "addr:state": "NY", "addr:street_address": "1 MORTON AVE", "amenity": "post_box", "collection_times": "Mo-Fr 15:00; Sa 09:30", "note": "ON 12/24 AND 12/31, THIS BOX MAY BE COLLECTED AS EARLY AS 12 NOON.", "nsi_id": "unitedstatespostalservice-a77078", "operator": "United States Postal Service", "operator:short": "USPS", "operator:type": "public", "operator:wikidata": "Q668687", "ref": "1220200030"}, "type": "Feature"}
{"geometry": {"coordinates": [-73.7619933, 42.639772], "type": "Point"}, "id": "kkXuEVbgiOjnAA3qlGLS8Jc5_Yc=", "properties": {"@source_uri": "https://tools.usps.com/UspsToolsRestServices/rest/POLocator/findLocations", "@spider": "usps_collection_boxes", "addr:city": "ALBANY", "addr:country": "US", "addr:postcode": "12202", "addr:state": "NY", "addr:street_address": "70 3RD AVE", "amenity": "post_box", "collection_times": "Mo-Sa 10:30", "nsi_id": "unitedstatespostalservice-a77078", "operator": "United States Postal Service", "operator:short": "USPS", "operator:type": "public", "operator:wikidata": "Q668687", "ref": "1220200031"}, "type": "Feature"}
{"geometry": {"coordinates": [-73.7679115, 42.658808], "type": "Point"}, "id": "-cx5v6CMwoMWkpWgHljik39WHOs=", "properties": {"@source_uri": "https://tools.usps.com/UspsToolsRestServices/rest/POLocator/findLocations", "@spider": "usps_collection_boxes", "addr:city": "ALBANY", "addr:country": "US", "addr:postcode": "12203", "addr:state": "NY", "addr:street_address": "1 SPRAGUE PL", "amenity": "post_box", "collection_times": "Mo-Sa 11:30", "nsi_id": "unitedstatespostalservice-a77078", "operator": "United States Postal Service", "operator:short": "USPS", "operator:type": "public", "operator:wikidata": "Q668687", "ref": "1220300002"}, "type": "Feature"}
{"geometry": {"coordinates": [-73.7773674, 42.661964], "type": "Point"}, "id": "q3mWpXlZcGMUDWea2Fh1kaYRb6g=", "properties": {"@source_uri": "https://tools.usps.com/UspsToolsRestServices/rest/POLocator/findLocations", "@spider": "usps_collection_boxes", "addr:city": "ALBANY", "addr:country": "US", "addr:postcode": "12203", "addr:state": "NY", "addr:street_address": "217 WESTERN AVE", "amenity": "post_box", "collection_times": "Mo-Sa 09:30", "nsi_id": "unitedstatespostalservice-a77078", "operator": "United States Postal Service", "operator:short": "USPS", "operator:type": "public", "operator:wikidata": "Q668687", "ref": "1220300003"}, "type": "Feature"}
{"geometry": {"coordinates": [-73.8096315, 42.672026], "type": "Point"}, "id": "dHWN9mnBQ7CpybG6MAAtAwtP_uo=", "properties": {"@source_uri": "https://tools.usps.com/UspsToolsRestServices/rest/POLocator/findLocations", "@spider": "usps_collection_boxes", "addr:city": "ALBANY", "addr:country": "US", "addr:postcode": "12203", "addr:state": "NY", "addr:street_address": "888 WESTERN AVE", "amenity": "post_box", "collection_times": "Mo-Sa 09:00", "nsi_id": "unitedstatespostalservice-a77078", "operator": "United States Postal Service", "operator:short": "USPS", "operator:type": "public", "operator:wikidata": "Q668687", "ref": "1220300005"}, "type": "Feature"}
{"geometry": {"coordinates": [-73.8003955, 42.666385], "type": "Point"}, "id": "WRwro3rA_yIy05fA3Gxq37R0vzY=", "properties": {"@source_uri": "https://tools.usps.com/UspsToolsRestServices/rest/POLocator/findLocations", "@spider": "usps_collection_boxes", "addr:city": "ALBANY", "addr:country": "US", "addr:postcode": "12203", "addr:state": "NY", "addr:street_address": "73 BROOKLINE AVE", "amenity": "post_box", "collection_times": "Mo-Sa 10:30", "nsi_id": "unitedstatespostalservice-a77078", "operator": "United States Postal Service", "operator:short": "USPS", "operator:type": "public", "operator:wikidata": "Q668687", "ref": "1220300009"}, "type": "Feature"}
{"geometry": {"coordinates": [-73.7782967, 42.660845], "type": "Point"}, "id": "hreCBQ_lv1rquABhFa1JQIg9c2U=", "properties": {"@source_uri": "https://tools.usps.com/UspsToolsRestServices/rest/POLocator/findLocations", "@spider": "usps_collection_boxes", "addr:city": "ALBANY", "addr:country": "US", "addr:postcode": "12203", "addr:state": "NY", "addr:street_address": "227 QUAIL ST", "amenity": "post_box", "collection_times": "Mo-Sa 11:30", "nsi_id": "unitedstatespostalservice-a77078", "operator": "United States Postal Service", "operator:short": "USPS", "operator:type": "public", "operator:wikidata": "Q668687", "ref": "1220300010"}, "type": "Feature"}
{"geometry": {"coordinates": [-73.7896686, 42.670649], "type": "Point"}, "id": "ZqXiKpdYiNkj_2yWX8Q6p7jRfio=", "properties": {"@source_uri": "https://tools.usps.com/UspsToolsRestServices/rest/POLocator/findLocations", "@spider": "usps_collection_boxes", "addr:city": "ALBANY", "addr:country": "US", "addr:postcode": "12203", "addr:state": "NY", "addr:street_address": "123 N PINE AVE", "amenity": "post_box", "collection_times": "Mo-Sa 11:00", "nsi_id": "unitedstatespostalservice-a77078", "operator": "United States Postal Service", "operator:short": "USPS", "operator:type": "public", "operator:wikidata": "Q668687", "ref": "1220300013"}, "type": "Feature"}
{"geometry": {"coordinates": [-73.8073454, 42.666174], "type": "Point"}, "id": "Uga-EZQduHcLH1wsiC3cEKcNN_8=", "properties": {"@source_uri": "https://tools.usps.com/UspsToolsRestServices/rest/POLocator/findLocations", "@spider": "usps_collection_boxes", "addr:city": "ALBANY", "addr:country": "US", "addr:postcode": "12203", "addr:state": "NY", "addr:street_address": "1 STONEHENGE LN", "amenity": "post_box", "collection_times": "Mo-Sa 11:30", "nsi_id": "unitedstatespostalservice-a77078", "operator": "United States Postal Service", "operator:short": "USPS", "operator:type": "public", "operator:wikidata": "Q668687", "ref": "1220300016"}, "type": "Feature"}
{"geometry": {"coordinates": [-73.7980405, 42.676715], "type": "Point"}, "id": "GMIijHOsQ-SznicqSnvVwMhI62U=", "properties": {"@source_uri": "https://tools.usps.com/UspsToolsRestServices/rest/POLocator/findLocations", "@spider": "usps_collection_boxes", "addr:city": "ALBANY", "addr:country": "US", "addr:postcode": "12203", "addr:state": "NY", "addr:street_address": "140 CLERMONT ST", "amenity": "post_box", "collection_times": "Mo-Sa 11:30", "nsi_id": "unitedstatespostalservice-a77078", "operator": "United States Postal Service", "operator:short": "USPS", "operator:type": "public", "operator:wikidata": "Q668687", "ref": "1220300018"}, "type": "Feature"}
{"geometry": {"coordinates": [-73.7931268, 42.673857], "type": "Point"}, "id": "SpJCA-UBzlkozsy-bwbXPAEaZpc=", "properties": {"@source_uri": "https://tools.usps.com/UspsToolsRestServices/rest/POLocator/findLocations", "@spider": "usps_collection_boxes", "addr:city": "ALBANY", "addr:country": "US", "addr:postcode": "12203", "addr:state": "NY", "addr:street_address": "180 HOMESTEAD AVE", "amenity": "post_box", "collection_times": "Mo-Sa 09:30", "nsi_id": "unitedstatespostalservice-a77078", "operator": "United States Postal Service", "operator:short": "USPS", "operator:type": "public", "operator:wikidata": "Q668687", "ref": "1220300019"}, "type": "Feature"}
{"geometry": {"coordinates": [-73.7990457, 42.672152], "type": "Point"}, "id": "zxAwFXr-VJzRVys4_k_KqIDQbCk=", "properties": {"@source_uri": "https://tools.usps.com/UspsToolsRestServices/rest/POLocator/findLocations", "@spider": "usps_collection_boxes", "addr:city": "ALBANY", "addr:country": "US", "addr:postcode": "12203", "addr:state": "NY", "addr:street_address": "71 MELROSE AVE", "amenity": "post_box", "collection_times": "Mo-Sa 10:00", "nsi_id": "unitedstatespostalservice-a77078", "operator": "United States Postal Service", "operator:short": "USPS", "operator:type": "public", "operator:wikidata": "Q668687", "ref": "1220300020"}, "type": "Feature"}
{"geometry": {"coordinates": [-73.8049026696, 42.6706897461], "type": "Point"}, "id": "cH9rYRIQ8uBZaBa4HGc9YkDNG-4=", "properties": {"@source_uri": "https://tools.usps.com/UspsToolsRestServices/rest/POLocator/findLocations", "@spider": "usps_collection_boxes", "addr:city": "ALBANY", "addr:country": "US", "addr:postcode": "12203", "addr:state": "NY", "addr:street_address": "777 WESTERN AVE", "amenity": "post_box", "collection_times": "Mo-Sa 10:30", "nsi_id": "unitedstatespostalservice-a77078", "operator": "United States Postal Service", "operator:short": "USPS", "operator:type": "public", "operator:wikidata": "Q668687", "ref": "1220300021"}, "type": "Feature"}
{"geometry": {"coordinates": [-73.8200259, 42.675554], "type": "Point"}, "id": "YPg-7dStTBPSPloTGcefwziUWNo=", "properties": {"@source_uri": "https://tools.usps.com/UspsToolsRestServices/rest/POLocator/findLocations", "@spider": "usps_collection_boxes", "addr:city": "ALBANY", "addr:country": "US", "addr:postcode": "12203", "addr:state": "NY", "addr:street_address": "1129 WESTERN AVE", "amenity": "post_box", "collection_times": "Mo-Sa 10:30", "nsi_id": "unitedstatespostalservice-a77078", "operator": "United States Postal Service", "operator:short": "USPS", "operator:type": "public", "operator:wikidata": "Q668687", "ref": "1220300024"}, "type": "Feature"}
{"geometry": {"coordinates": [-73.8164494, 42.674156], "type": "Point"}, "id": "v3voYTxWdD-P0w19RzQultFhmtc=", "properties": {"@source_uri": "https://tools.usps.com/UspsToolsRestServices/rest/POLocator/findLocations", "@spider": "usps_collection_boxes", "addr:city": "ALBANY", "addr:country": "US", "addr:postcode": "12203", "addr:state": "NY", "addr:street_address": "1050 WESTERN AVE", "amenity": "post_box", "collection_times": "Mo-Sa 09:30", "nsi_id": "unitedstatespostalservice-a77078", "operator": "United States Postal Service", "operator:short": "USPS", "operator:type": "public", "operator:wikidata": "Q668687", "ref": "1220300025"}, "type": "Feature"}
{"geometry": {"coordinates": [-73.8218666, 42.676605], "type": "Point"}, "id": "X290tIYtYIjCn8kpjs8_l1RIa1k=", "properties": {"@source_uri": "https://tools.usps.com/UspsToolsRestServices/rest/POLocator/findLocations", "@spider": "usps_collection_boxes", "addr:city": "ALBANY", "addr:country": "US", "addr:postcode": "12203", "addr:state": "NY", "addr:street_address": "1215 WESTERN AVE", "amenity": "post_box", "collection_times": "Mo-Fr 15:00; Sa 09:30", "note": "ON 12/24 AND 12/31, THIS BOX MAY BE COLLECTED AS EARLY AS 12 NOON.", "nsi_id": "unitedstatespostalservice-a77078", "operator": "United States Postal Service", "operator:short": "USPS", "operator:type": "public", "operator:wikidata": "Q668687", "ref": "1220300027"}, "type": "Feature"}
{"geometry": {"coordinates": [-73.8166619, 42.669832], "type": "Point"}, "id": "nq-q4zYFAPQkezbD3rK3Wp-cg9g=", "properties": {"@source_uri": "https://tools.usps.com/UspsToolsRestServices/rest/POLocator/findLocations", "@spider": "usps_collection_boxes", "addr:city": "ALBANY", "addr:country": "US", "addr:postcode": "12203", "addr:state": "NY", "addr:street_address": "174 BERKSHIRE BLVD", "amenity": "post_box", "collection_times": "Mo-Sa 09:30", "nsi_id": "unitedstatespostalservice-a77078", "operator": "United States Postal Service", "operator:short": "USPS", "operator:type": "public", "operator:wikidata": "Q668687", "ref": "1220300030"}, "type": "Feature"}
{"geometry": {"coordinates": [-73.8375399, 42.6798], "type": "Point"}, "id": "f7c_5Ow1pqY3q2msXdbD3qZw8Hc=", "properties": {"@source_uri": "https://tools.usps.com/UspsToolsRestServices/rest/POLocator/findLocations", "@spider": "usps_collection_boxes", "addr:city": "ALBANY", "addr:country": "US", "addr:postcode": "12203", "addr:state": "NY", "addr:street_address": "1450 WESTERN AVE", "amenity": "post_box", "collection_times": "Mo-Fr 09:00", "nsi_id": "unitedstatespostalservice-a77078", "operator": "United States Postal Service", "operator:short": "USPS", "operator:type": "public", "operator:wikidata": "Q668687", "ref": "1220300033"}, "type": "Feature"}
{"geometry": {"coordinates": [-73.866057002, 42.689734019], "type": "Point"}, "id": "PmN5tv54QwHt5uRTCgCLkUCWQ4I=", "properties": {"@source_uri": "https://tools.usps.com/UspsToolsRestServices/rest/POLocator/findLocations", "@spider": "usps_collection_boxes", "addr:city": "ALBANY", "addr:country": "US", "addr:postcode": "12203", "addr:state": "NY", "addr:street_address": "1800 WESTERN AVE", "amenity": "post_box", "collection_times": "Mo-Sa 10:00", "nsi_id": "unitedstatespostalservice-a77078", "operator": "United States Postal Service", "operator:short": "USPS", "operator:type": "public", "operator:wikidata": "Q668687", "ref": "1220300035"}, "type": "Feature"}
{"geometry": {"coordinates": [-73.8470047, 42.677221], "type": "Point"}, "id": "Arfc4BT6AqgW-AOV_BMtBjJLvJU=", "properties": {"@source_uri": "https://tools.usps.com/UspsToolsRestServices/rest/POLocator/findLocations", "@spider": "usps_collection_boxes", "addr:city": "ALBANY", "addr:country": "US", "addr:postcode": "12203", "addr:state": "NY", "addr:street_address": "64 WOODLAKE RD", "amenity": "post_box", "collection_times": "Mo-Sa 11:00", "nsi_id": "unitedstatespostalservice-a77078", "operator": "United States Postal Service", "operator:short": "USPS", "operator:type": "public", "operator:wikidata": "Q668687", "ref": "1220300039"}, "type": "Feature"}
{"geometry": {"coordinates": [-73.8679588, 42.685739], "type": "Point"}, "id": "d2QLT2mPlezJuRRP8el0o3wBs28=", "properties": {"@source_uri": "https://tools.usps.com/UspsToolsRestServices/rest/POLocator/findLocations", "@spider": "usps_collection_boxes", "addr:city": "ALBANY", "addr:country": "US", "addr:postcode": "12203", "addr:state": "NY", "addr:street_address": "6211 JOHNSTON RD", "amenity": "post_box", "collection_times": "Mo-Sa 10:00", "nsi_id": "unitedstatespostalservice-a77078", "operator": "United States Postal Service", "operator:short": "USPS", "operator:type": "public", "operator:wikidata": "Q668687", "ref": "1220300040"}, "type": "Feature"}
{"geometry": {"coordinates": [-73.838772, 42.684084], "type": "Point"}, "id": "_Ln-rC655fhnaxcawV4lCW4FTJw=", "properties": {"@source_uri": "https://tools.usps.com/UspsToolsRestServices/rest/POLocator/findLocations", "@spider": "usps_collection_boxes", "addr:city": "ALBANY", "addr:country": "US", "addr:postcode": "12203", "addr:state": "NY", "addr:street_address": "1475 WESTERN AVE STE 51", "amenity": "post_box", "collection_times": "Mo-Fr 17:30; Sa 17:00", "note": "ON 12/24 AND 12/31, THIS BOX MAY BE COLLECTED AS EARLY AS 12 NOON.", "nsi_id": "unitedstatespostalservice-a77078", "operator": "United States Postal Service", "operator:short": "USPS", "operator:type": "public", "operator:wikidata": "Q668687", "ref": "1220300043"}, "type": "Feature"}
{"geometry": {"coordinates": [-73.8353375, 42.6786988], "type": "Point"}, "id": "SgnNmLNCKFtaiCk7S-qPyKk494k=", "properties": {"@source_uri": "https://tools.usps.com/UspsToolsRestServices/rest/POLocator/findLocations", "@spider": "usps_collection_boxes", "addr:city": "ALBANY", "addr:country": "US", "addr:postcode": "12203", "addr:state": "NY", "addr:street_address": "1 TRI-CENTENIAL DR", "amenity": "post_box", "collection_times": "Mo-Sa 10:00", "nsi_id": "unitedstatespostalservice-a77078", "operator": "United States Postal Service", "operator:short": "USPS", "operator:type": "public", "operator:wikidata": "Q668687", "ref": "1220300046"}, "type": "Feature"}
{"geometry": {"coordinates": [-73.8390764, 42.685278], "type": "Point"}, "id": "ayNs_PuDUqUgLNlqOEHf60gAdbI=", "properties": {"@source_uri": "https://tools.usps.com/UspsToolsRestServices/rest/POLocator/findLocations", "@spider": "usps_collection_boxes", "addr:city": "ALBANY", "addr:country": "US", "addr:postcode": "12203", "addr:state": "NY", "addr:street_address": "4 EXECUTIVE PARK DR", "amenity": "post_box", "collection_times": "Mo-Fr 09:30", "nsi_id": "unitedstatespostalservice-a77078", "operator": "United States Postal Service", "operator:short": "USPS", "operator:type": "public", "operator:wikidata": "Q668687", "ref": "1220300048"}, "type": "Feature"}
{"geometry": {"coordinates": [-73.8378837, 42.684593], "type": "Point"}, "id": "abDNnFZlLeg27Bdk_r1ddI1K-kQ=", "properties": {"@source_uri": "https://tools.usps.com/UspsToolsRestServices/rest/POLocator/findLocations", "@spider": "usps_collection_boxes", "addr:city": "ALBANY", "addr:country": "US", "addr:postcode": "12203", "addr:state": "NY", "addr:street_address": "2 EXECUTIVE PARK DR", "amenity": "post_box", "collection_times": "Mo-Fr 09:30", "nsi_id": "unitedstatespostalservice-a77078", "operator": "United States Postal Service", "operator:short": "USPS", "operator:type": "public", "operator:wikidata": "Q668687", "ref": "1220300049"}, "type": "Feature"}
{"geometry": {"coordinates": [-73.8418068, 42.686314], "type": "Point"}, "id": "k3lVSHpvt9Cb_Gug5-Zy_d897ik=", "properties": {"@source_uri": "https://tools.usps.com/UspsToolsRestServices/rest/POLocator/findLocations", "@spider": "usps_collection_boxes", "addr:city": "ALBANY", "addr:country": "US", "addr:postcode": "12203", "addr:state": "NY", "addr:street_address": "2 TOWER PL", "amenity": "post_box", "collection_times": "Mo-Fr 11:30", "nsi_id": "unitedstatespostalservice-a77078", "operator": "United States Postal Service", "operator:short": "USPS", "operator:type": "public", "operator:wikidata": "Q668687", "ref": "1220300050"}, "type": "Feature"}
{"geometry": {"coordinates": [-73.846491, 42.683172], "type": "Point"}, "id": "zyMKID8YQAQn5zNlMsAHR3aGGCc=", "properties": {"@source_uri": "https://tools.usps.com/UspsToolsRestServices/rest/POLocator/findLocations", "@spider": "usps_collection_boxes", "addr:city": "ALBANY", "addr:country": "US", "addr:postcode": "12203", "addr:state": "NY", "addr:street_address": "100 GREAT OAKS BLVD", "amenity": "post_box", "collection_times": "Mo-Fr 10:00", "nsi_id": "unitedstatespostalservice-a77078", "operator": "United States Postal Service", "operator:short": "USPS", "operator:type": "public", "operator:wikidata": "Q668687", "ref": "1220300057"}, "type": "Feature"}
{"geometry": {"coordinates": [-73.8474244, 42.682001], "type": "Point"}, "id": "liWo3EF2cLWzcn3q_tH-wEHI0Vo=", "properties": {"@source_uri": "https://tools.usps.com/UspsToolsRestServices/rest/POLocator/findLocations", "@spider": "usps_collection_boxes", "addr:city": "ALBANY", "addr:country": "US", "addr:postcode": "12203", "addr:state": "NY", "addr:street_address": "200 GREAT OAKS BLVD", "amenity": "post_box", "collection_times": "Mo-Fr 10:00", "nsi_id": "unitedstatespostalservice-a77078", "operator": "United States Postal Service", "operator:short": "USPS", "operator:type": "public", "operator:wikidata": "Q668687", "ref": "1220300058"}, "type": "Feature"}
{"geometry": {"coordinates": [-73.8608914, 42.706033], "type": "Point"}, "id": "AnFayYH7lkyKRY3uF1Wi6S2HBvE=", "properties": {"@source_uri": "https://tools.usps.com/UspsToolsRestServices/rest/POLocator/findLocations", "@spider": "usps_collection_boxes", "addr:city": "ALBANY", "addr:country": "US", "addr:postcode": "12203", "addr:state": "NY", "addr:street_address": "286 WASHINGTON AVENUE EXT", "amenity": "post_box", "collection_times": "Mo-Fr 11:30", "nsi_id": "unitedstatespostalservice-a77078", "operator": "United States Postal Service", "operator:short": "USPS", "operator:type": "public", "operator:wikidata": "Q668687", "ref": "1220300060"}, "type": "Feature"}
{"geometry": {"coordinates": [-73.8565177239, 42.7034487333], "type": "Point"}, "id": "uwLxgtE-5neaIHeSHvCVCGLlYLc=", "properties": {"@source_uri": "https://tools.usps.com/UspsToolsRestServices/rest/POLocator/findLocations", "@spider": "usps_collection_boxes", "addr:city": "ALBANY", "addr:country": "US", "addr:postcode": "12203", "addr:state": "NY", "addr:street_address": "210 WASHINGTON AVENUE EXT", "amenity": "post_box", "collection_times": "Mo-Fr 11:30", "nsi_id": "unitedstatespostalservice-a77078", "operator": "United States Postal Service", "operator:short": "USPS", "operator:type": "public", "operator:wikidata": "Q668687", "ref": "1220300063"}, "type": "Feature"}
{"geometry": {"coordinates": [-73.855429, 42.702863], "type": "Point"}, "id": "ISW1JIRg3OpHOZlZhTNWPYt9QD4=", "properties": {"@source_uri": "https://tools.usps.com/UspsToolsRestServices/rest/POLocator/findLocations", "@spider": "usps_collection_boxes", "addr:city": "ALBANY", "addr:country": "US", "addr:postcode": "12203", "addr:state": "NY", "addr:street_address": "1 CROSSGATES MALL RD", "amenity": "post_box", "collection_times": "Mo-Fr 11:00", "nsi_id": "unitedstatespostalservice-a77078", "operator": "United States Postal Service", "operator:short": "USPS", "operator:type": "public", "operator:wikidata": "Q668687", "ref": "1220300065"}, "type": "Feature"}
{"geometry": {"coordinates": [-73.82286, 42.671405], "type": "Point"}, "id": "jpVNrtuHqlaavtwjlh4XI_FjSlg=", "properties": {"@source_uri": "https://tools.usps.com/UspsToolsRestServices/rest/POLocator/findLocations", "@spider": "usps_collection_boxes", "addr:city": "ALBANY", "addr:country": "US", "addr:postcode": "12203", "addr:state": "NY", "addr:street_address": "15 CORPORATE CIR", "amenity": "post_box", "collection_times": "Mo-Fr 09:30", "nsi_id": "unitedstatespostalservice-a77078", "operator": "United States Postal Service", "operator:short": "USPS", "operator:type": "public", "operator:wikidata": "Q668687", "ref": "1220300076"}, "type": "Feature"}
{"geometry": {"coordinates": [-73.8747163, 42.704099], "type": "Point"}, "id": "CmiEN8rHuAFE08NoET4dhu1J0yc=", "properties": {"@source_uri": "https://tools.usps.com/UspsToolsRestServices/rest/POLocator/findLocations", "@spider": "usps_collection_boxes", "addr:city": "ALBANY", "addr:country": "US", "addr:postcode": "12203", "addr:state": "NY", "addr:street_address": "28 CORPORATE CIR", "amenity": "post_box", "collection_times": "Mo-Fr 09:30", "nsi_id": "unitedstatespostalservice-a77078", "operator": "United States Postal Service", "operator:short": "USPS", "operator:type": "public", "operator:wikidata": "Q668687", "ref": "1220300085"}, "type": "Feature"}
{"geometry": {"coordinates": [-73.7717248792, 42.6600543778], "type": "Point"}, "id": "1jKNYmxXN26hvjcG0hYO6q0oR6A=", "properties": {"@source_uri": "https://tools.usps.com/UspsToolsRestServices/rest/POLocator/findLocations", "@spider": "usps_collection_boxes", "addr:city": "ALBANY", "addr:country": "US", "addr:postcode": "12203", "addr:state": "NY", "addr:street_address": "100 WESTERN AVE", "amenity": "post_box", "collection_times": "Mo-Sa 11:00", "nsi_id": "unitedstatespostalservice-a77078", "operator": "United States Postal Service", "operator:short": "USPS", "operator:type": "public", "operator:wikidata": "Q668687", "ref": "1220300087"}, "type": "Feature"}
{"geometry": {"coordinates": [-73.8684327, 42.691022], "type": "Point"}, "id": "6OFcmTqO0eFEnaEo-TPxZGJD9KM=", "properties": {"@source_uri": "https://tools.usps.com/UspsToolsRestServices/rest/POLocator/findLocations", "@spider": "usps_collection_boxes", "addr:city": "ALBANY", "addr:country": "US", "addr:postcode": "12203", "addr:state": "NY", "addr:street_address": "1823 WESTERN AVE", "amenity": "post_box", "collection_times": "Mo-Sa 09:30", "nsi_id": "unitedstatespostalservice-a77078", "operator": "United States Postal Service", "operator:short": "USPS", "operator:type": "public", "operator:wikidata": "Q668687", "ref": "1220300089"}, "type": "Feature"}
{"geometry": {"coordinates": [-73.8744642, 42.714228], "type": "Point"}, "id": "D1n7f1V7siPAPH6_bgLLRxpzSBE=", "properties": {"@source_uri": "https://tools.usps.com/UspsToolsRestServices/rest/POLocator/findLocations", "@spider": "usps_collection_boxes", "addr:city": "ALBANY", "addr:country": "US", "addr:postcode": "12203", "addr:state": "NY", "addr:street_address": "1 POINT OF WOODS DR", "amenity": "post_box", "collection_times": "Mo-Sa 09:00", "nsi_id": "unitedstatespostalservice-a77078", "operator": "United States Postal Service", "operator:short": "USPS", "operator:type": "public", "operator:wikidata": "Q668687", "ref": "1220300090"}, "type": "Feature"}
{"geometry": {"coordinates": [-73.8362890188, 42.6727781321], "type": "Point"}, "id": "REuQL1pXgH6FPcV9c-8XtHDyHH0=", "properties": {"@source_uri": "https://tools.usps.com/UspsToolsRestServices/rest/POLocator/findLocations", "@spider": "usps_collection_boxes", "addr:city": "ALBANY", "addr:country": "US", "addr:postcode": "12203", "addr:state": "NY", "addr:street_address": "221 WOODSCAPE DR", "amenity": "post_box", "collection_times": "Mo-Sa 10:00", "nsi_id": "unitedstatespostalservice-a77078", "operator": "United States Postal Service", "operator:short": "USPS", "operator:type": "public", "operator:wikidata": "Q668687", "ref": "1220300094"}, "type": "Feature"}
{"geometry": {"coordinates": [-73.839471, 42.683819], "type": "Point"}, "id": "wUOByfbnn3da79Klz01BlGb928w=", "properties": {"@source_uri": "https://tools.usps.com/UspsToolsRestServices/rest/POLocator/findLocations", "@spider": "usps_collection_boxes", "addr:city": "ALBANY", "addr:country": "US", "addr:postcode": "12203", "addr:state": "NY", "addr:street_address": "1475 WESTERN AVE", "amenity": "post_box", "collection_times": "Mo-Fr 17:30; Sa 17:00", "indoor": "yes", "note": "ON 12/24 AND 12/31, THIS BOX MAY BE COLLECTED AS EARLY AS 12 NOON.", "nsi_id": "unitedstatespostalservice-a77078", "operator": "United States Postal Service", "operator:short": "USPS", "operator:type": "public", "operator:wikidata": "Q668687", "ref": "1220300099"}, "type": "Feature"}
{"geometry": {"coordinates": [-73.838772, 42.684084], "type": "Point"}, "id": "p9PauFhg6X56HR_t2ogONQX3cZQ=", "properties": {"@source_uri": "https://tools.usps.com/UspsToolsRestServices/rest/POLocator/findLocations", "@spider": "usps_collection_boxes", "addr:city": "ALBANY", "addr:country": "US", "addr:postcode": "12203", "addr:state": "NY", "addr:street_address": "1475 WESTERN AVE STE 51", "amenity": "post_box", "collection_times": "Mo-Fr 17:30; Sa 17:00", "name": "USPS COLLECTION BOX - APC", "note": "ON 12/24 AND 12/31, THIS BOX MAY BE COLLECTED AS EARLY AS 12 NOON.", "nsi_id": "unitedstatespostalservice-a77078", "operator": "United States Postal Service", "operator:short": "USPS", "operator:type": "public", "operator:wikidata": "Q668687", "ref": "1220300100"}, "type": "Feature"}
{"geometry": {"coordinates": [-73.838772, 42.684084], "type": "Point"}, "id": "uTtdcAOOYpmCP0T8diEtZxTMUiU=", "properties": {"@source_uri": "https://tools.usps.com/UspsToolsRestServices/rest/POLocator/findLocations", "@spider": "usps_collection_boxes", "addr:city": "ALBANY", "addr:country": "US", "addr:postcode": "12203", "addr:state": "NY", "addr:street_address": "1475 WESTERN AVE STE 51", "amenity": "post_box", "collection_times": "Mo-Fr 17:30; Sa 17:00", "indoor": "yes", "note": "ON 12/24 AND 12/31, THIS BOX MAY BE COLLECTED AS EARLY AS 12 NOON.", "nsi_id": "unitedstatespostalservice-a77078", "operator": "United States Postal Service", "operator:short": "USPS", "operator:type": "public", "operator:wikidata": "Q668687", "ref": "1220300107"}, "type": "Feature"}
{"geometry": {"coordinates": [-73.7262906618, 42.6916592504], "type": "Point"}, "id": "LF0Pe7TJInudsf8GVU_v7ZSE5U4=", "properties": {"@source_uri": "https://tools.usps.com/UspsToolsRestServices/rest/POLocator/findLocations", "@spider": "usps_collection_boxes", "addr:city": "MENANDS", "addr:country": "US", "addr:postcode": "12204", "addr:state": "NY", "addr:street_address": "7 PARK LN E", "amenity": "post_box", "collection_times": "Mo-Sa 10:00", "nsi_id": "unitedstatespostalservice-a77078", "operator": "United States Postal Service", "operator:short": "USPS", "operator:type": "public", "operator:wikidata": "Q668687", "ref": "1220400004"}, "type": "Feature"}
{"geometry": {"coordinates": [-73.7389506, 42.686125], "type": "Point"}, "id": "HhwkMC3rv2anrAT85KjMd7XZpKw=", "properties": {"@source_uri": "https://tools.usps.com/UspsToolsRestServices/rest/POLocator/findLocations", "@spider": "usps_collection_boxes", "addr:city": "MENANDS", "addr:country": "US", "addr:postcode": "12204", "addr:state": "NY", "addr:street_address": "1 WARDS LN", "amenity": "post_box", "collection_times": "Mo-Sa 11:30", "nsi_id": "unitedstatespostalservice-a77078", "operator": "United States Postal Service", "operator:short": "USPS", "operator:type": "public", "operator:wikidata": "Q668687", "ref": "1220400005"}, "type": "Feature"}
{"geometry": {"coordinates": [-73.7513366, 42.674237], "type": "Point"}, "id": "2NcHVDfQKO1ji0pJ2hLSi09cpko=", "properties": {"@source_uri": "https://tools.usps.com/UspsToolsRestServices/rest/POLocator/findLocations", "@spider": "usps_collection_boxes", "addr:city": "MENANDS", "addr:country": "US", "addr:postcode": "12204", "addr:state": "NY", "addr:street_address": "1 OLD HICKORY DR", "amenity": "post_box", "collection_times": "Mo-Sa 09:30", "nsi_id": "unitedstatespostalservice-a77078", "operator": "United States Postal Service", "operator:short": "USPS", "operator:type": "public", "operator:wikidata": "Q668687", "ref": "1220400006"}, "type": "Feature"}
{"geometry": {"coordinates": [-73.7187199, 42.696358], "type": "Point"}, "id": "wtsxVcCEYmz8v4m7M0lshIRZz6Y=", "properties": {"@source_uri": "https://tools.usps.com/UspsToolsRestServices/rest/POLocator/findLocations", "@spider": "usps_collection_boxes", "addr:city": "MENANDS", "addr:country": "US", "addr:postcode": "12204", "addr:state": "NY", "addr:street_address": "381 BROADWAY", "amenity": "post_box", "collection_times": "Mo-Sa 09:45", "nsi_id": "unitedstatespostalservice-a77078", "operator": "United States Postal Service", "operator:short": "USPS", "operator:type": "public", "operator:wikidata": "Q668687", "ref": "1220400007"}, "type": "Feature"}
{"geometry": {"coordinates": [-73.7181664, 42.701293], "type": "Point"}, "id": "ipT7_m_BkrVkQQ5buXX6PpOSZ14=", "properties": {"@source_uri": "https://tools.usps.com/UspsToolsRestServices/rest/POLocator/findLocations", "@spider": "usps_collection_boxes", "addr:city": "MENANDS", "addr:country": "US", "addr:postcode": "12204", "addr:state": "NY", "addr:street_address": "444 BROADWAY", "amenity": "post_box", "collection_times": "Mo-Sa 10:30", "nsi_id": "unitedstatespostalservice-a77078", "operator": "United States Postal Service", "operator:short": "USPS", "operator:type": "public", "operator:wikidata": "Q668687", "ref": "1220400008"}, "type": "Feature"}
{"geometry": {"coordinates": [-73.7105121, 42.702672], "type": "Point"}, "id": "7lgRmWDUHar9WOMrP5VEZRWPoTw=", "properties": {"@source_uri": "https://tools.usps.com/UspsToolsRestServices/rest/POLocator/findLocations", "@spider": "usps_collection_boxes", "addr:city": "MENANDS", "addr:country": "US", "addr:postcode": "12204", "addr:state": "NY", "addr:street_address": "587 BROADWAY", "amenity": "post_box", "collection_times": "Mo-Sa 11:30", "nsi_id": "unitedstatespostalservice-a77078", "operator": "United States Postal Service", "operator:short": "USPS", "operator:type": "public", "operator:wikidata": "Q668687", "ref": "1220400009"}, "type": "Feature"}
{"geometry": {"coordinates": [-73.7248205, 42.691818], "type": "Point"}, "id": "CVOhTvKaSZ6I91s2j8WKP4QymU4=", "properties": {"@source_uri": "https://tools.usps.com/UspsToolsRestServices/rest/POLocator/findLocations", "@spider": "usps_collection_boxes", "addr:city": "MENANDS", "addr:country": "US", "addr:postcode": "12204", "addr:state": "NY", "addr:street_address": "242 BROADWAY", "amenity": "post_box", "collection_times": "Mo-Sa 11:30", "nsi_id": "unitedstatespostalservice-a77078", "operator": "United States Postal Service", "operator:short": "USPS", "operator:type": "public", "operator:wikidata": "Q668687", "ref": "1220400011"}, "type": "Feature"}
{"geometry": {"coordinates": [-73.7485782, 42.673116], "type": "Point"}, "id": "LmxCN57AA_NVDVcLk1O86xL0py8=", "properties": {"@source_uri": "https://tools.usps.com/UspsToolsRestServices/rest/POLocator/findLocations", "@spider": "usps_collection_boxes", "addr:city": "MENANDS", "addr:country": "US", "addr:postcode": "12204", "addr:state": "NY", "addr:street_address": "63 SHAKER RD", "amenity": "post_box", "collection_times": "Mo-Fr 10:00; Sa 09:00", "nsi_id": "unitedstatespostalservice-a77078", "operator": "United States Postal Service", "operator:short": "USPS", "operator:type": "public", "operator:wikidata": "Q668687", "ref": "1220400013"}, "type": "Feature"}
{"geometry": {"coordinates": [-73.7418240373, 42.6835720207], "type": "Point"}, "id": "KWnvd7ItgtpKWSmzz_fRjwZQ65s=", "properties": {"@source_uri": "https://tools.usps.com/UspsToolsRestServices/rest/POLocator/findLocations", "@spider": "usps_collection_boxes", "addr:city": "MENANDS", "addr:country": "US", "addr:postcode": "12204", "addr:state": "NY", "addr:street_address": "185 VAN RENSSELAER BLVD", "amenity": "post_box", "collection_times": "Mo-Sa 11:30", "nsi_id": "unitedstatespostalservice-a77078", "operator": "United States Postal Service", "operator:short": "USPS", "operator:type": "public", "operator:wikidata": "Q668687", "ref": "1220400014"}, "type": "Feature"}
{"geometry": {"coordinates": [-73.7368964, 42.677689], "type": "Point"}, "id": "6Xtv0rEdsRv6gOZRhQnA3_pa-G4=", "properties": {"@source_uri": "https://tools.usps.com/UspsToolsRestServices/rest/POLocator/findLocations", "@spider": "usps_collection_boxes", "addr:city": "MENANDS", "addr:country": "US", "addr:postcode": "12204", "addr:state": "NY", "addr:street_address": "698 N PEARL ST", "amenity": "post_box", "collection_times": "Mo-Sa 09:00", "nsi_id": "unitedstatespostalservice-a77078", "operator": "United States Postal Service", "operator:short": "USPS", "operator:type": "public", "operator:wikidata": "Q668687", "ref": "1220400016"}, "type": "Feature"}
{"geometry": {"coordinates": [-73.7487960437, 42.6748902203], "type": "Point"}, "id": "4P8cQaFva6bOe7w156rQpPZb93s=", "properties": {"@source_uri": "https://tools.usps.com/UspsToolsRestServices/rest/POLocator/findLocations", "@spider": "usps_collection_boxes", "addr:city": "MENANDS", "addr:country": "US", "addr:postcode": "12204", "addr:state": "NY", "addr:street_address": "350 NORTHERN BLVD", "amenity": "post_box", "collection_times": "Mo-Fr 15:00; Sa 10:00", "note": "ON 12/24 AND 12/31, THIS BOX MAY BE COLLECTED AS EARLY AS 12 NOON.", "nsi_id": "unitedstatespostalservice-a77078", "operator": "United States Postal Service", "operator:short": "USPS", "operator:type": "public", "operator:wikidata": "Q668687", "ref": "1220400018"}, "type": "Feature"}
{"geometry": {"coordinates": [-73.7376297361, 42.6729415804], "type": "Point"}, "id": "oVjzVAi08Q5aInp5AVatowNhtQ8=", "properties": {"@source_uri": "https://tools.usps.com/UspsToolsRestServices/rest/POLocator/findLocations", "@spider": "usps_collection_boxes", "addr:city": "MENANDS", "addr:country": "US", "addr:postcode": "12204", "addr:state": "NY", "addr:street_address": "1218 BROADWAY", "amenity": "post_box", "collection_times": "Mo-Sa 10:30", "nsi_id": "unitedstatespostalservice-a77078", "operator": "United States Postal Service", "operator:short": "USPS", "operator:type": "public", "operator:wikidata": "Q668687", "ref": "1220400020"}, "type": "Feature"}
{"geometry": {"coordinates": [-73.7321526621, 42.6832121018], "type": "Point"}, "id": "CqO44xawUFMZiUMakig19IeKDqE=", "properties": {"@source_uri": "https://tools.usps.com/UspsToolsRestServices/rest/POLocator/findLocations", "@spider": "usps_collection_boxes", "addr:city": "MENANDS", "addr:country": "US", "addr:postcode": "12204", "addr:state": "NY", "addr:street_address": "100 BROADWAY", "amenity": "post_box", "collection_times": "Mo-Sa 09:30", "nsi_id": "unitedstatespostalservice-a77078", "operator": "United States Postal Service", "operator:short": "USPS", "operator:type": "public", "operator:wikidata": "Q668687", "ref": "1220400023"}, "type": "Feature"}
{"geometry": {"coordinates": [-73.7288447, 42.686521], "type": "Point"}, "id": "9noOgKShSor30XqVcf8xfjcDv44=", "properties": {"@source_uri": "https://tools.usps.com/UspsToolsRestServices/rest/POLocator/findLocations", "@spider": "usps_collection_boxes", "addr:city": "MENANDS", "addr:country": "US", "addr:postcode": "12204", "addr:state": "NY", "addr:street_address": "150 BROADWAY", "amenity": "post_box", "collection_times": "Mo-Fr 09:30", "nsi_id": "unitedstatespostalservice-a77078", "operator": "United States Postal Service", "operator:short": "USPS", "operator:type": "public", "operator:wikidata": "Q668687", "ref": "1220400024"}, "type": "Feature"}
{"geometry": {"coordinates": [-73.7360638, 42.679896], "type": "Point"}, "id": "pLaXKi7AmtOFFVTnMA2PdoWaiT0=", "properties": {"@source_uri": "https://tools.usps.com/UspsToolsRestServices/rest/POLocator/findLocations", "@spider": "usps_collection_boxes", "addr:city": "MENANDS", "addr:country": "US", "addr:postcode": "12204", "addr:state": "NY", "addr:street_address": "800 N PEARL ST", "amenity": "post_box", "collection_times": "Mo-Fr 14:30", "note": "ON 12/24 AND 12/31, THIS BOX MAY BE COLLECTED AS EARLY AS 12 NOON.", "nsi_id": "unitedstatespostalservice-a77078", "operator": "United States Postal Service", "operator:short": "USPS", "operator:type": "public", "operator:wikidata": "Q668687", "ref": "1220400026"}, "type": "Feature"}
{"geometry": {"coordinates": [-73.7431505, 42.663965], "type": "Point"}, "id": "_gOMqY2TlhN07f1CyTcEi6eHG1Y=", "properties": {"@source_uri": "https://tools.usps.com/UspsToolsRestServices/rest/POLocator/findLocations", "@spider": "usps_collection_boxes", "addr:city": "MENANDS", "addr:country": "US", "addr:postcode": "12204", "addr:state": "NY", "addr:street_address": "991 BROADWAY", "amenity": "post_box", "collection_times": "Mo-Fr 10:30; Sa 09:30", "nsi_id": "unitedstatespostalservice-a77078", "operator": "United States Postal Service", "operator:short": "USPS", "operator:type": "public", "operator:wikidata": "Q668687", "ref": "1220400027"}, "type": "Feature"}
{"geometry": {"coordinates": [-73.8072123, 42.694887], "type": "Point"}, "id": "NhvKzhbD8KdlP_99YPBD96DvckA=", "properties": {"@source_uri": "https://tools.usps.com/UspsToolsRestServices/rest/POLocator/findLocations", "@spider": "usps_collection_boxes", "addr:city": "ALBANY", "addr:country": "US", "addr:postcode": "12205", "addr:state": "NY", "addr:street_address": "1208 CENTRAL AVE", "amenity": "post_box", "collection_times": "Mo-Sa 10:00", "nsi_id": "unitedstatespostalservice-a77078", "operator": "United States Postal Service", "operator:short": "USPS", "operator:type": "public", "operator:wikidata": "Q668687", "ref": "1220500004"}, "type": "Feature"}
{"geometry": {"coordinates": [-73.814102027, 42.701926], "type": "Point"}, "id": "Lm9T3BbwHwSzNL-oRns5fft1Cj0=", "properties": {"@source_uri": "https://tools.usps.com/UspsToolsRestServices/rest/POLocator/findLocations", "@spider": "usps_collection_boxes", "addr:city": "ALBANY", "addr:country": "US", "addr:postcode": "12205", "addr:state": "NY", "addr:street_address": "1321 CENTRAL AVE", "amenity": "post_box", "collection_times": "Mo-Sa 10:00", "nsi_id": "unitedstatespostalservice-a77078", "operator": "United States Postal Service", "operator:short": "USPS", "operator:type": "public", "operator:wikidata": "Q668687", "ref": "1220500006"}, "type": "Feature"}
{"geometry": {"coordinates": [-73.7977, 42.694735], "type": "Point"}, "id": "ZWjZ1eBfyzJuS_oyrIlHCbUM4So=", "properties": {"@source_uri": "https://tools.usps.com/UspsToolsRestServices/rest/POLocator/findLocations", "@spider": "usps_collection_boxes", "addr:city": "ALBANY", "addr:country": "US", "addr:postcode": "12205", "addr:state": "NY", "addr:street_address": "1500 CENTRAL AVE", "amenity": "post_box", "collection_times": "Mo-Fr 10:00", "nsi_id": "unitedstatespostalservice-a77078", "operator": "United States Postal Service", "operator:short": "USPS", "operator:type": "public", "operator:wikidata": "Q668687", "ref": "1220500008"}, "type": "Feature"}
{"geometry": {"coordinates": [-73.8403878, 42.724523], "type": "Point"}, "id": "UdKD-bTKSG0h4sjNZZ1oni-1NgY=", "properties": {"@source_uri": "https://tools.usps.com/UspsToolsRestServices/rest/POLocator/findLocations", "@spider": "usps_collection_boxes", "addr:city": "ALBANY", "addr:country": "US", "addr:postcode": "12205", "addr:state": "NY", "addr:street_address": "1719 CENTRAL AVE", "amenity": "post_box", "collection_times": "Mo-Sa 10:00", "nsi_id": "unitedstatespostalservice-a77078", "operator": "United States Postal Service", "operator:short": "USPS", "operator:type": "public", "operator:wikidata": "Q668687", "ref": "1220500010"}, "type": "Feature"}
{"geometry": {"coordinates": [-73.8061076, 42.716451], "type": "Point"}, "id": "zUN4QbkcTm5BlTppphegHtkWnSU=", "properties": {"@source_uri": "https://tools.usps.com/UspsToolsRestServices/rest/POLocator/findLocations", "@spider": "usps_collection_boxes", "addr:city": "ALBANY", "addr:country": "US", "addr:postcode": "12205", "addr:state": "NY", "addr:street_address": "14 COMPUTER DR E", "amenity": "post_box", "collection_times": "Mo-Fr 12:00", "nsi_id": "unitedstatespostalservice-a77078", "operator": "United States Postal Service", "operator:short": "USPS", "operator:type": "public", "operator:wikidata": "Q668687", "ref": "1220500014"}, "type": "Feature"}
{"geometry": {"coordinates": [-73.8086575, 42.718487], "type": "Point"}, "id": "LMPMGdT4mP8Ol6ul7Q6uOGm8oq4=", "properties": {"@source_uri": "https://tools.usps.com/UspsToolsRestServices/rest/POLocator/findLocations", "@spider": "usps_collection_boxes", "addr:city": "ALBANY", "addr:country": "US", "addr:postcode": "12205", "addr:state": "NY", "addr:street_address": "2 COMPUTER DR W", "amenity": "post_box", "collection_times": "Mo-Fr 09:00", "nsi_id": "unitedstatespostalservice-a77078", "operator": "United States Postal Service", "operator:short": "USPS", "operator:type": "public", "operator:wikidata": "Q668687", "ref": "1220500016"}, "type": "Feature"}
{"geometry": {"coordinates": [-73.818273029, 42.702384993], "type": "Point"}, "id": "MSMs9T3hSli3aGjR19D2LwQM5xI=", "properties": {"@source_uri": "https://tools.usps.com/UspsToolsRestServices/rest/POLocator/findLocations", "@spider": "usps_collection_boxes", "addr:city": "ALBANY", "addr:country": "US", "addr:postcode": "12205", "addr:state": "NY", "addr:street_address": "19 FULLER RD", "amenity": "post_box", "collection_times": "Mo-Sa 10:00", "nsi_id": "unitedstatespostalservice-a77078", "operator": "United States Postal Service", "operator:short": "USPS", "operator:type": "public", "operator:wikidata": "Q668687", "ref": "1220500023"}, "type": "Feature"}
{"geometry": {"coordinates": [-73.8384114, 42.719069], "type": "Point"}, "id": "0NIppTUM0gar2wg-ReFDHLWPgbg=", "properties": {"@source_uri": "https://tools.usps.com/UspsToolsRestServices/rest/POLocator/findLocations", "@spider": "usps_collection_boxes", "addr:city": "ALBANY", "addr:country": "US", "addr:postcode": "12205", "addr:state": "NY", "addr:street_address": "1 JUPITER LN", "amenity": "post_box", "collection_times": "Mo-Sa 10:00", "nsi_id": "unitedstatespostalservice-a77078", "operator": "United States Postal Service", "operator:short": "USPS", "operator:type": "public", "operator:wikidata": "Q668687", "ref": "1220500026"}, "type": "Feature"}
{"geometry": {"coordinates": [-73.7977871, 42.722193], "type": "Point"}, "id": "Y2t9DypvNs_oAmx7v342q88u644=", "properties": {"@source_uri": "https://tools.usps.com/UspsToolsRestServices/rest/POLocator/findLocations", "@spider": "usps_collection_boxes", "addr:city": "ALBANY", "addr:country": "US", "addr:postcode": "12205", "addr:state": "NY", "addr:street_address": "1 MARCUS BLVD", "amenity": "post_box", "collection_times": "Mo-Fr 09:30", "nsi_id": "unitedstatespostalservice-a77078", "operator": "United States Postal Service", "operator:short": "USPS", "operator:type": "public", "operator:wikidata": "Q668687", "ref": "1220500027"}, "type": "Feature"}
{"geometry": {"coordinates": [-73.8412306, 42.741324], "type": "Point"}, "id": "R92Wmq9lv9mOEwdxJm9V1bQWbW8=", "properties": {"@source_uri": "https://tools.usps.com/UspsToolsRestServices/rest/POLocator/findLocations", "@spider": "usps_collection_boxes", "addr:city": "ALBANY", "addr:country": "US", "addr:postcode": "12205", "addr:state": "NY", "addr:street_address": "450 NEW KARNER RD", "amenity": "post_box", "collection_times": "Mo-Fr 09:30", "nsi_id": "unitedstatespostalservice-a77078", "operator": "United States Postal Service", "operator:short": "USPS", "operator:type": "public", "operator:wikidata": "Q668687", "ref": "1220500032"}, "type": "Feature"}
{"geometry": {"coordinates": [-73.8490783, 42.728495], "type": "Point"}, "id": "e4kO4LMQV9XD3ppulzN9n8OnnvU=", "properties": {"@source_uri": "https://tools.usps.com/UspsToolsRestServices/rest/POLocator/findLocations", "@spider": "usps_collection_boxes", "addr:city": "ALBANY", "addr:country": "US", "addr:postcode": "12205", "addr:state": "NY", "addr:street_address": "30 KARNER RD", "amenity": "post_box", "collection_times": "Mo-Fr 18:30; Sa 17:00", "note": "ON 12/24 AND 12/31, THIS BOX MAY BE COLLECTED AS EARLY AS 12 NOON.", "nsi_id": "unitedstatespostalservice-a77078", "operator": "United States Postal Service", "operator:short": "USPS", "operator:type": "public", "operator:wikidata": "Q668687", "ref": "1220500034"}, "type": "Feature"}
{"geometry": {"coordinates": [-73.7977, 42.694735], "type": "Point"}, "id": "FpGN3V1aVP_0Si4pug8MIXIhSvE=", "properties": {"@source_uri": "https://tools.usps.com/UspsToolsRestServices/rest/POLocator/findLocations", "@spider": "usps_collection_boxes", "addr:city": "ALBANY", "addr:country": "US", "addr:postcode": "12205", "addr:state": "NY", "addr:street_address": "80 WOLF RD", "amenity": "post_box", "collection_times": "Mo-Fr 09:00", "nsi_id": "unitedstatespostalservice-a77078", "operator": "United States Postal Service", "operator:short": "USPS", "operator:type": "public", "operator:wikidata": "Q668687", "ref": "1220500039"}, "type": "Feature"}
{"geometry": {"coordinates": [-73.8128774, 42.717175], "type": "Point"}, "id": "mY2ZxkWx6Xo4doIV1w4SFurZCRQ=", "properties": {"@source_uri": "https://tools.usps.com/UspsToolsRestServices/rest/POLocator/findLocations", "@spider": "usps_collection_boxes", "addr:city": "ALBANY", "addr:country": "US", "addr:postcode": "12205", "addr:state": "NY", "addr:street_address": "96 WOLF RD", "amenity": "post_box", "collection_times": "Mo-Fr 09:00", "nsi_id": "unitedstatespostalservice-a77078", "operator": "United States Postal Service", "operator:short": "USPS", "operator:type": "public", "operator:wikidata": "Q668687", "ref": "1220500040"}, "type": "Feature"}
{"geometry": {"coordinates": [-73.8074749, 42.716553], "type": "Point"}, "id": "TIEVuG6i8W5WX0QjTcqTfuvynX4=", "properties": {"@source_uri": "https://tools.usps.com/UspsToolsRestServices/rest/POLocator/findLocations", "@spider": "usps_collection_boxes", "addr:city": "ALBANY", "addr:country": "US", "addr:postcode": "12205", "addr:state": "NY", "addr:street_address": "125 WOLF RD", "amenity": "post_box", "collection_times": "Mo-Fr 09:00", "nsi_id": "unitedstatespostalservice-a77078", "operator": "United States Postal Service", "operator:short": "USPS", "operator:type": "public", "operator:wikidata": "Q668687", "ref": "1220500041"}, "type": "Feature"}
{"geometry": {"coordinates": [-73.8161261, 42.709402], "type": "Point"}, "id": "CjMITHPj6u03FgpqtNeV4sbrNK4=", "properties": {"@source_uri": "https://tools.usps.com/UspsToolsRestServices/rest/POLocator/findLocations", "@spider": "usps_collection_boxes", "addr:city": "ALBANY", "addr:country": "US", "addr:postcode": "12205", "addr:state": "NY", "addr:street_address": "1425 CENTRAL AVE", "amenity": "post_box", "collection_times": "Mo-Fr 16:30", "note": "ON 12/24 AND 12/31, THIS BOX MAY BE COLLECTED AS EARLY AS 12 NOON.", "nsi_id": "unitedstatespostalservice-a77078", "operator": "United States Postal Service", "operator:short": "USPS", "operator:type": "public", "operator:wikidata": "Q668687", "ref": "1220500043"}, "type": "Feature"}
{"geometry": {"coordinates": [-73.8662559, 42.710338], "type": "Point"}, "id": "LfChJpz-CmBUP5gY9mjYnZ1tCnc=", "properties": {"@source_uri": "https://tools.usps.com/UspsToolsRestServices/rest/POLocator/findLocations", "@spider": "usps_collection_boxes", "addr:city": "ALBANY", "addr:country": "US", "addr:postcode": "12205", "addr:state": "NY", "addr:street_address": "1 UNITED WAY", "amenity": "post_box", "collection_times": "Mo-Fr 10:00", "nsi_id": "unitedstatespostalservice-a77078", "operator": "United States Postal Service", "operator:short": "USPS", "operator:type": "public", "operator:wikidata": "Q668687", "ref": "1220500055"}, "type": "Feature"}
{"geometry": {"coordinates": [-73.7977, 42.694735], "type": "Point"}, "id": "GUigftA5BuLgZwlzjkwcGihyLQs=", "properties": {"@source_uri": "https://tools.usps.com/UspsToolsRestServices/rest/POLocator/findLocations", "@spider": "usps_collection_boxes", "addr:city": "ALBANY", "addr:country": "US", "addr:postcode": "12205", "addr:state": "NY", "addr:street_address": "420 SAND CREEK RD", "amenity": "post_box", "collection_times": "Mo-Sa 10:00", "nsi_id": "unitedstatespostalservice-a77078", "operator": "United States Postal Service", "operator:short": "USPS", "operator:type": "public", "operator:wikidata": "Q668687", "ref": "1220500062"}, "type": "Feature"}
{"geometry": {"coordinates": [-73.7765652, 42.688919], "type": "Point"}, "id": "n-hsLxxyH11VW1CJGVzqScUgZc0=", "properties": {"@source_uri": "https://tools.usps.com/UspsToolsRestServices/rest/POLocator/findLocations", "@spider": "usps_collection_boxes", "addr:city": "ALBANY", "addr:country": "US", "addr:postcode": "12205", "addr:state": "NY", "addr:street_address": "3 ATRIUM DR", "amenity": "post_box", "collection_times": "Mo-Fr 13:00", "note": "ON 12/24 AND 12/31, THIS BOX MAY BE COLLECTED AS EARLY AS 12 NOON.", "nsi_id": "unitedstatespostalservice-a77078", "operator": "United States Postal Service", "operator:short": "USPS", "operator:type": "public", "operator:wikidata": "Q668687", "ref": "1220500064"}, "type": "Feature"}
{"geometry": {"coordinates": [-73.857487995, 42.704957376], "type": "Point"}, "id": "oYuCbT62TnMI1pX-6vqunIgJ_-c=", "properties": {"@source_uri": "https://tools.usps.com/UspsToolsRestServices/rest/POLocator/findLocations", "@spider": "usps_collection_boxes", "addr:city": "ALBANY", "addr:country": "US", "addr:postcode": "12205", "addr:state": "NY", "addr:street_address": "255 WASHINGTON AVENUE EXT", "amenity": "post_box", "collection_times": "Mo-Fr 12:00", "nsi_id": "unitedstatespostalservice-a77078", "operator": "United States Postal Service", "operator:short": "USPS", "operator:type": "public", "operator:wikidata": "Q668687", "ref": "1220500067"}, "type": "Feature"}
{"geometry": {"coordinates": [-73.7978557, 42.718966], "type": "Point"}, "id": "897PFqF6gyOu7qNogrdVWXDUAkQ=", "properties": {"@source_uri": "https://tools.usps.com/UspsToolsRestServices/rest/POLocator/findLocations", "@spider": "usps_collection_boxes", "addr:city": "ALBANY", "addr:country": "US", "addr:postcode": "12205", "addr:state": "NY", "addr:street_address": "2 WINNERS CIR", "amenity": "post_box", "collection_times": "Mo-Fr 12:00", "nsi_id": "unitedstatespostalservice-a77078", "operator": "United States Postal Service", "operator:short": "USPS", "operator:type": "public", "operator:wikidata": "Q668687", "ref": "1220500070"}, "type": "Feature"}
{"geometry": {"coordinates": [-73.8423463, 42.73932], "type": "Point"}, "id": "OzHJtkEqh8AbYSC0FveNEPKh42Q=", "properties": {"@source_uri": "https://tools.usps.com/UspsToolsRestServices/rest/POLocator/findLocations", "@spider": "usps_collection_boxes", "addr:city": "ALBANY", "addr:country": "US", "addr:postcode": "12205", "addr:state": "NY", "addr:street_address": "435 NEW KARNER RD", "amenity": "post_box", "collection_times": "Mo-Fr 10:00", "nsi_id": "unitedstatespostalservice-a77078", "operator": "United States Postal Service", "operator:short": "USPS", "operator:type": "public", "operator:wikidata": "Q668687", "ref": "1220500074"}, "type": "Feature"}
{"geometry": {"coordinates": [-73.8185294, 42.73722], "type": "Point"}, "id": "0QVdrwmuIfildt_I09AF3LoYYps=", "properties": {"@source_uri": "https://tools.usps.com/UspsToolsRestServices/rest/POLocator/findLocations", "@spider": "usps_collection_boxes", "addr:city": "ALBANY", "addr:country": "US", "addr:postcode": "12205", "addr:state": "NY", "addr:street_address": "6 AIRLINE DR", "amenity": "post_box", "collection_times": "Mo-Fr 10:00", "nsi_id": "unitedstatespostalservice-a77078", "operator": "United States Postal Service", "operator:short": "USPS", "operator:type": "public", "operator:wikidata": "Q668687", "ref": "1220500080"}, "type": "Feature"}
{"geometry": {"coordinates": [-73.7867344, 42.693095], "type": "Point"}, "id": "KggxI7MBZwcmOZQ8HxQurJHBzSo=", "properties": {"@source_uri": "https://tools.usps.com/UspsToolsRestServices/rest/POLocator/findLocations", "@spider": "usps_collection_boxes", "addr:city": "ALBANY", "addr:country": "US", "addr:postcode": "12205", "addr:state": "NY", "addr:street_address": "136 SAND CREEK RD", "amenity": "post_box", "collection_times": "Mo-Fr 10:00", "nsi_id": "unitedstatespostalservice-a77078", "operator": "United States Postal Service", "operator:short": "USPS", "operator:type": "public", "operator:wikidata": "Q668687", "ref": "1220500083"}, "type": "Feature"}
{"geometry": {"coordinates": [-73.8425962, 42.74012], "type": "Point"}, "id": "7vvrH7tn-dEteAvTbnImcxsbo1I=", "properties": {"@source_uri": "https://tools.usps.com/UspsToolsRestServices/rest/POLocator/findLocations", "@spider": "usps_collection_boxes", "addr:city": "ALBANY", "addr:country": "US", "addr:postcode": "12205", "addr:state": "NY", "addr:street_address": "1 WEMBLEY CT", "amenity": "post_box", "collection_times": "Mo-Fr 12:00", "nsi_id": "unitedstatespostalservice-a77078", "operator": "United States Postal Service", "operator:short": "USPS", "operator:type": "public", "operator:wikidata": "Q668687", "ref": "1220500085"}, "type": "Feature"}
{"geometry": {"coordinates": [-73.8386252, 42.742517], "type": "Point"}, "id": "UWLc8XB4bkMWV8LY6gUgf1CNjKQ=", "properties": {"@source_uri": "https://tools.usps.com/UspsToolsRestServices/rest/POLocator/findLocations", "@spider": "usps_collection_boxes", "addr:city": "ALBANY", "addr:country": "US", "addr:postcode": "12205", "addr:state": "NY", "addr:street_address": "501 NEW KARNER RD", "amenity": "post_box", "collection_times": "Mo-Fr 10:00", "nsi_id": "unitedstatespostalservice-a77078", "operator": "United States Postal Service", "operator:short": "USPS", "operator:type": "public", "operator:wikidata": "Q668687", "ref": "1220500090"}, "type": "Feature"}
{"geometry": {"coordinates": [-73.8217099, 42.729125], "type": "Point"}, "id": "ZPxTF8kp2jR7K7AVEkX5aLV_xp0=", "properties": {"@source_uri": "https://tools.usps.com/UspsToolsRestServices/rest/POLocator/findLocations", "@spider": "usps_collection_boxes", "addr:city": "ALBANY", "addr:country": "US", "addr:postcode": "12205", "addr:state": "NY", "addr:street_address": "101 SHAKER RUN", "amenity": "post_box", "collection_times": "Mo-Sa 10:00", "nsi_id": "unitedstatespostalservice-a77078", "operator": "United States Postal Service", "operator:short": "USPS", "operator:type": "public", "operator:wikidata": "Q668687", "ref": "1220500105"}, "type": "Feature"}
{"geometry": {"coordinates": [-73.8179457, 42.735668], "type": "Point"}, "id": "NiuD6C4zfa_er1M010iC-nwr-RQ=", "properties": {"@source_uri": "https://tools.usps.com/UspsToolsRestServices/rest/POLocator/findLocations", "@spider": "usps_collection_boxes", "addr:city": "ALBANY", "addr:country": "US", "addr:postcode": "12205", "addr:state": "NY", "addr:street_address": "10 AIRLINE DR", "amenity": "post_box", "collection_times": "Mo-Fr 10:00", "nsi_id": "unitedstatespostalservice-a77078", "operator": "United States Postal Service", "operator:short": "USPS", "operator:type": "public", "operator:wikidata": "Q668687", "ref": "1220500116"}, "type": "Feature"}
{"geometry": {"coordinates": [-73.8167242, 42.738082], "type": "Point"}, "id": "8Jjpq0WwRVRtweR1STEaZVnfc7Q=", "properties": {"@source_uri": "https://tools.usps.com/UspsToolsRestServices/rest/POLocator/findLocations", "@spider": "usps_collection_boxes", "addr:city": "ALBANY", "addr:country": "US", "addr:postcode": "12205", "addr:state": "NY", "addr:street_address": "4 AIRLINE DR", "amenity": "post_box", "collection_times": "Mo-Fr 10:00", "nsi_id": "unitedstatespostalservice-a77078", "operator": "United States Postal Service", "operator:short": "USPS", "operator:type": "public", "operator:wikidata": "Q668687", "ref": "1220500117"}, "type": "Feature"}
{"geometry": {"coordinates": [-73.796175, 42.718201], "type": "Point"}, "id": "WDY9yEslZH65dnT59FtWQS6QIhs=", "properties": {"@source_uri": "https://tools.usps.com/UspsToolsRestServices/rest/POLocator/findLocations", "@spider": "usps_collection_boxes", "addr:city": "ALBANY", "addr:country": "US", "addr:postcode": "12205", "addr:state": "NY", "addr:street_address": "6 WINNERS CIR", "amenity": "post_box", "collection_times": "Mo-Fr 10:30", "nsi_id": "unitedstatespostalservice-a77078", "operator": "United States Postal Service", "operator:short": "USPS", "operator:type": "public", "operator:wikidata": "Q668687", "ref": "1220500118"}, "type": "Feature"}
{"geometry": {"coordinates": [-73.8002986, 42.722353], "type": "Point"}, "id": "ipmlGc7Bo1xFltz2v9wlTYloglQ=", "properties": {"@source_uri": "https://tools.usps.com/UspsToolsRestServices/rest/POLocator/findLocations", "@spider": "usps_collection_boxes", "addr:city": "ALBANY", "addr:country": "US", "addr:postcode": "12205", "addr:state": "NY", "addr:street_address": "187 WOLF RD", "amenity": "post_box", "collection_times": "Mo-Fr 12:00", "nsi_id": "unitedstatespostalservice-a77078", "operator": "United States Postal Service", "operator:short": "USPS", "operator:type": "public", "operator:wikidata": "Q668687", "ref": "1220500121"}, "type": "Feature"}
{"geometry": {"coordinates": [-73.8237368, 42.737233], "type": "Point"}, "id": "vgzQOPDFYi4QIwZEkAigloqfBV0=", "properties": {"@source_uri": "https://tools.usps.com/UspsToolsRestServices/rest/POLocator/findLocations", "@spider": "usps_collection_boxes", "addr:city": "ALBANY", "addr:country": "US", "addr:postcode": "12205", "addr:state": "NY", "addr:street_address": "900 WATERVLIET SHAKER RD", "amenity": "post_box", "collection_times": "Mo-Fr 10:00", "nsi_id": "unitedstatespostalservice-a77078", "operator": "United States Postal Service", "operator:short": "USPS", "operator:type": "public", "operator:wikidata": "Q668687", "ref": "1220500123"}, "type": "Feature"}
{"geometry": {"coordinates": [-73.8153583, 42.713457], "type": "Point"}, "id": "tbTilxxnDhD_6nCPMwF2Um_TpzE=", "properties": {"@source_uri": "https://tools.usps.com/UspsToolsRestServices/rest/POLocator/findLocations", "@spider": "usps_collection_boxes", "addr:city": "ALBANY", "addr:country": "US", "addr:postcode": "12205", "addr:state": "NY", "addr:street_address": "50 WOLF RD", "amenity": "post_box", "collection_times": "Mo-Fr 10:00", "nsi_id": "unitedstatespostalservice-a77078", "operator": "United States Postal Service", "operator:short": "USPS", "operator:type": "public", "operator:wikidata": "Q668687", "ref": "1220500124"}, "type": "Feature"}
{"geometry": {"coordinates": [-73.8142921, 42.71561], "type": "Point"}, "id": "P3RYJf-Ub48qmPcWO_lF5Mr3PJ0=", "properties": {"@source_uri": "https://tools.usps.com/UspsToolsRestServices/rest/POLocator/findLocations", "@spider": "usps_collection_boxes", "addr:city": "ALBANY", "addr:country": "US", "addr:postcode": "12205", "addr:state": "NY", "addr:street_address": "1 PARK PL", "amenity": "post_box", "collection_times": "Mo-Fr 10:00", "nsi_id": "unitedstatespostalservice-a77078", "operator": "United States Postal Service", "operator:short": "USPS", "operator:type": "public", "operator:wikidata": "Q668687", "ref": "1220500127"}, "type": "Feature"}
{"geometry": {"coordinates": [-73.821055, 42.707318], "type": "Point"}, "id": "X1-JlJWkLfzG-4mFhAWA4rRzWy4=", "properties": {"@source_uri": "https://tools.usps.com/UspsToolsRestServices/rest/POLocator/findLocations", "@spider": "usps_collection_boxes", "addr:city": "ALBANY", "addr:country": "US", "addr:postcode": "12205", "addr:state": "NY", "addr:street_address": "1425 CENTRAL AVE", "amenity": "post_box", "collection_times": "Mo-Sa 20:00", "indoor": "yes", "note": "ON 12/24 AND 12/31, THIS BOX MAY BE COLLECTED AS EARLY AS 12 NOON.", "nsi_id": "unitedstatespostalservice-a77078", "operator": "United States Postal Service", "operator:short": "USPS", "operator:type": "public", "operator:wikidata": "Q668687", "ref": "1220500134"}, "type": "Feature"}
{"geometry": {"coordinates": [-73.850706, 42.728163], "type": "Point"}, "id": "zZ2v3b1rye3BpkkgJS7vvMe-03M=", "properties": {"@source_uri": "https://tools.usps.com/UspsToolsRestServices/rest/POLocator/findLocations", "@spider": "usps_collection_boxes", "addr:city": "ALBANY", "addr:country": "US", "addr:postcode": "12205", "addr:state": "NY", "addr:street_address": "30 KARNER RD", "amenity": "post_box", "collection_times": "Mo-Fr 18:00; Sa 14:00", "indoor": "yes", "note": "ON 12/24 AND 12/31, THIS BOX MAY BE COLLECTED AS EARLY AS 12 NOON.", "nsi_id": "unitedstatespostalservice-a77078", "operator": "United States Postal Service", "operator:short": "USPS", "operator:type": "public", "operator:wikidata": "Q668687", "ref": "1220500135"}, "type": "Feature"}
{"geometry": {"coordinates": [-73.8370999, 42.74371], "type": "Point"}, "id": "niS7VjAfNezqOC_6m8Kxlj8X40M=", "properties": {"@source_uri": "https://tools.usps.com/UspsToolsRestServices/rest/POLocator/findLocations", "@spider": "usps_collection_boxes", "addr:city": "ALBANY", "addr:country": "US", "addr:postcode": "12205", "addr:state": "NY", "addr:street_address": "1021 WATERVLIET SHAKER RD", "amenity": "post_box", "collection_times": "Mo-Fr 09:30", "nsi_id": "unitedstatespostalservice-a77078", "operator": "United States Postal Service", "operator:short": "USPS", "operator:type": "public", "operator:wikidata": "Q668687", "ref": "1220500138"}, "type": "Feature"}
{"geometry": {"coordinates": [-73.821389063, 42.707612779], "type": "Point"}, "id": "M7fvXI8cCy3lIF67GyoabJgPS_Y=", "properties": {"@source_uri": "https://tools.usps.com/UspsToolsRestServices/rest/POLocator/findLocations", "@spider": "usps_collection_boxes", "addr:city": "ALBANY", "addr:country": "US", "addr:postcode": "12205", "addr:state": "NY", "addr:street_address": "1425 CENTRAL AVE", "amenity": "post_box", "collection_times": "Mo-Sa 20:00", "indoor": "yes", "note": "ON 12/24 AND 12/31, THIS BOX MAY BE COLLECTED AS EARLY AS 12 NOON.", "nsi_id": "unitedstatespostalservice-a77078", "operator": "United States Postal Service", "operator:short": "USPS", "operator:type": "public", "operator:wikidata": "Q668687", "ref": "1220500145"}, "type": "Feature"}
{"geometry": {"coordinates": [-73.7793683, 42.673872], "type": "Point"}, "id": "l5wsH6rUkOX6LieD17gr8M3oMvA=", "properties": {"@source_uri": "https://tools.usps.com/UspsToolsRestServices/rest/POLocator/findLocations", "@spider": "usps_collection_boxes", "addr:city": "ALBANY", "addr:country": "US", "addr:postcode": "12206", "addr:state": "NY", "addr:street_address": "1 BLEEKER ST", "amenity": "post_box", "collection_times": "Mo-Sa 10:00", "nsi_id": "unitedstatespostalservice-a77078", "operator": "United States Postal Service", "operator:short": "USPS", "operator:type": "public", "operator:wikidata": "Q668687", "ref": "1220600001"}, "type": "Feature"}
{"geometry": {"coordinates": [-73.7842478, 42.674898], "type": "Point"}, "id": "2mmhrY8nqA0O06pw1y-4xAbKc9c=", "properties": {"@source_uri": "https://tools.usps.com/UspsToolsRestServices/rest/POLocator/findLocations", "@spider": "usps_collection_boxes", "addr:city": "ALBANY", "addr:country": "US", "addr:postcode": "12206", "addr:state": "NY", "addr:street_address": "670 CENTRAL AVE", "amenity": "post_box", "collection_times": "Mo-Sa 09:30", "nsi_id": "unitedstatespostalservice-a77078", "operator": "United States Postal Service", "operator:short": "USPS", "operator:type": "public", "operator:wikidata": "Q668687", "ref": "1220600002"}, "type": "Feature"}
{"geometry": {"coordinates": [-73.7916657, 42.679618], "type": "Point"}, "id": "XOL-jk4-li-0lRDBJlKLMEpHzbo=", "properties": {"@source_uri": "https://tools.usps.com/UspsToolsRestServices/rest/POLocator/findLocations", "@spider": "usps_collection_boxes", "addr:city": "ALBANY", "addr:country": "US", "addr:postcode": "12206", "addr:state": "NY", "addr:street_address": "900 CENTRAL AVE", "amenity": "post_box", "collection_times": "Mo-Fr 11:30; Sa 10:00", "nsi_id": "unitedstatespostalservice-a77078", "operator": "United States Postal Service", "operator:short": "USPS", "operator:type": "public", "operator:wikidata": "Q668687", "ref": "1220600004"}, "type": "Feature"}
{"geometry": {"coordinates": [-73.790519, 42.67906], "type": "Point"}, "id": "mAo4XZRXfsBrMcG2KktsWwmz4Jc=", "properties": {"@source_uri": "https://tools.usps.com/UspsToolsRestServices/rest/POLocator/findLocations", "@spider": "usps_collection_boxes", "addr:city": "ALBANY", "addr:country": "US", "addr:postcode": "12206", "addr:state": "NY", "addr:street_address": "818 CENTRAL AVE", "amenity": "post_box", "collection_times": "Mo-Fr 11:30; Sa 10:00", "nsi_id": "unitedstatespostalservice-a77078", "operator": "United States Postal Service", "operator:short": "USPS", "operator:type": "public", "operator:wikidata": "Q668687", "ref": "1220600005"}, "type": "Feature"}
{"geometry": {"coordinates": [-73.7895847, 42.682216], "type": "Point"}, "id": "Qw-2i9n7JemDV5YbbDIfFARGCMw=", "properties": {"@source_uri": "https://tools.usps.com/UspsToolsRestServices/rest/POLocator/findLocations", "@spider": "usps_collection_boxes", "addr:city": "ALBANY", "addr:country": "US", "addr:postcode": "12206", "addr:state": "NY", "addr:street_address": "911 CENTRAL AVE", "amenity": "post_box", "collection_times": "Mo-Fr 11:00; Sa 09:30", "nsi_id": "unitedstatespostalservice-a77078", "operator": "United States Postal Service", "operator:short": "USPS", "operator:type": "public", "operator:wikidata": "Q668687", "ref": "1220600008"}, "type": "Feature"}
{"geometry": {"coordinates": [-73.7870681, 42.68119], "type": "Point"}, "id": "RwCs2sVwZL06b9-KCQK0CA3BD2g=", "properties": {"@source_uri": "https://tools.usps.com/UspsToolsRestServices/rest/POLocator/findLocations", "@spider": "usps_collection_boxes", "addr:city": "ALBANY", "addr:country": "US", "addr:postcode": "12206", "addr:state": "NY", "addr:street_address": "845 CENTRAL AVE", "amenity": "post_box", "collection_times": "Mo-Fr 12:00; Sa 09:30", "nsi_id": "unitedstatespostalservice-a77078", "operator": "United States Postal Service", "operator:short": "USPS", "operator:type": "public", "operator:wikidata": "Q668687", "ref": "1220600009"}, "type": "Feature"}
{"geometry": {"coordinates": [-73.7883724, 42.681146], "type": "Point"}, "id": "VgBPmbZbWHSBBemyW-RRN6qUbQ0=", "properties": {"@source_uri": "https://tools.usps.com/UspsToolsRestServices/rest/POLocator/findLocations", "@spider": "usps_collection_boxes", "addr:city": "ALBANY", "addr:country": "US", "addr:postcode": "12206", "addr:state": "NY", "addr:street_address": "855 CENTRAL AVE", "amenity": "post_box", "collection_times": "Mo-Fr 12:00; Sa 09:30", "nsi_id": "unitedstatespostalservice-a77078", "operator": "United States Postal Service", "operator:short": "USPS", "operator:type": "public", "operator:wikidata": "Q668687", "ref": "1220600011"}, "type": "Feature"}
{"geometry": {"coordinates": [-73.7762951, 42.667945], "type": "Point"}, "id": "oCMnKQjXyKF7VlPyTuJmFfFHO4k=", "properties": {"@source_uri": "https://tools.usps.com/UspsToolsRestServices/rest/POLocator/findLocations", "@spider": "usps_collection_boxes", "addr:city": "ALBANY", "addr:country": "US", "addr:postcode": "12206", "addr:state": "NY", "addr:street_address": "400 CENTRAL AVE", "amenity": "post_box", "collection_times": "Mo-Sa 10:00", "nsi_id": "unitedstatespostalservice-a77078", "operator": "United States Postal Service", "operator:short": "USPS", "operator:type": "public", "operator:wikidata": "Q668687", "ref": "1220600013"}, "type": "Feature"}
{"geometry": {"coordinates": [-73.7824947, 42.673362], "type": "Point"}, "id": "6T85gf8W0wqG3GzbXGLV43-cn9Y=", "properties": {"@source_uri": "https://tools.usps.com/UspsToolsRestServices/rest/POLocator/findLocations", "@spider": "usps_collection_boxes", "addr:city": "ALBANY", "addr:country": "US", "addr:postcode": "12206", "addr:state": "NY", "addr:street_address": "622 CENTRAL AVE", "amenity": "post_box", "collection_times": "Mo-Sa 09:30", "nsi_id": "unitedstatespostalservice-a77078", "operator": "United States Postal Service", "operator:short": "USPS", "operator:type": "public", "operator:wikidata": "Q668687", "ref": "1220600015"}, "type": "Feature"}
{"geometry": {"coordinates": [-73.777184626, 42.673481035], "type": "Point"}, "id": "KqRC4vTnjh6B0FESrYdiQpMs_po=", "properties": {"@source_uri": "https://tools.usps.com/UspsToolsRestServices/rest/POLocator/findLocations", "@spider": "usps_collection_boxes", "addr:city": "ALBANY", "addr:country": "US", "addr:postcode": "12206", "addr:state": "NY", "addr:street_address": "20 N MANNING BLVD", "amenity": "post_box", "collection_times": "Mo-Sa 10:00", "nsi_id": "unitedstatespostalservice-a77078", "operator": "United States Postal Service", "operator:short": "USPS", "operator:type": "public", "operator:wikidata": "Q668687", "ref": "1220600020"}, "type": "Feature"}
{"geometry": {"coordinates": [-73.77885, 42.67152], "type": "Point"}, "id": "W4HMuc-KxrqnXQFWhiP5H-iJcLc=", "properties": {"@source_uri": "https://tools.usps.com/UspsToolsRestServices/rest/POLocator/findLocations", "@spider": "usps_collection_boxes", "addr:city": "ALBANY", "addr:country": "US", "addr:postcode": "12206", "addr:state": "NY", "addr:street_address": "40 CENTRAL AVE", "amenity": "post_box", "collection_times": "Mo-Sa 10:00", "nsi_id": "unitedstatespostalservice-a77078", "operator": "United States Postal Service", "operator:short": "USPS", "operator:type": "public", "operator:wikidata": "Q668687", "ref": "1220600023"}, "type": "Feature"}
{"geometry": {"coordinates": [-73.7674416, 42.66028], "type": "Point"}, "id": "dFTjTc9d_CfVBbp6c5Hja69dBB4=", "properties": {"@source_uri": "https://tools.usps.com/UspsToolsRestServices/rest/POLocator/findLocations", "@spider": "usps_collection_boxes", "addr:city": "ALBANY", "addr:country": "US", "addr:postcode": "12206", "addr:state": "NY", "addr:street_address": "123 CENTRAL AVE", "amenity": "post_box", "collection_times": "Mo-Sa 10:00", "nsi_id": "unitedstatespostalservice-a77078", "operator": "United States Postal Service", "operator:short": "USPS", "operator:type": "public", "operator:wikidata": "Q668687", "ref": "1220600024"}, "type": "Feature"}
{"geometry": {"coordinates": [-73.7691711, 42.661912], "type": "Point"}, "id": "XNvtQyB5hwMrp7wLCW-mhVtwC8M=", "properties": {"@source_uri": "https://tools.usps.com/UspsToolsRestServices/rest/POLocator/findLocations", "@spider": "usps_collection_boxes", "addr:city": "ALBANY", "addr:country": "US", "addr:postcode": "12206", "addr:state": "NY", "addr:street_address": "183 CENTRAL AVE", "amenity": "post_box", "collection_times": "Mo-Sa 10:00", "nsi_id": "unitedstatespostalservice-a77078", "operator": "United States Postal Service", "operator:short": "USPS", "operator:type": "public", "operator:wikidata": "Q668687", "ref": "1220600025"}, "type": "Feature"}
{"geometry": {"coordinates": [-73.7712059, 42.663592], "type": "Point"}, "id": "E7AQxMI76xNgYMQl3AlVSohPTlk=", "properties": {"@source_uri": "https://tools.usps.com/UspsToolsRestServices/rest/POLocator/findLocations", "@spider": "usps_collection_boxes", "addr:city": "ALBANY", "addr:country": "US", "addr:postcode": "12206", "addr:state": "NY", "addr:street_address": "271 CENTRAL AVE", "amenity": "post_box", "collection_times": "Mo-Sa 10:00", "nsi_id": "unitedstatespostalservice-a77078", "operator": "United States Postal Service", "operator:short": "USPS", "operator:type": "public", "operator:wikidata": "Q668687", "ref": "1220600026"}, "type": "Feature"}
{"geometry": {"coordinates": [-73.7688372, 42.665005], "type": "Point"}, "id": "Saa0X-pM1Nd0ZaSLR5_IU9RxdxE=", "properties": {"@source_uri": "https://tools.usps.com/UspsToolsRestServices/rest/POLocator/findLocations", "@spider": "usps_collection_boxes", "addr:city": "ALBANY", "addr:country": "US", "addr:postcode": "12206", "addr:state": "NY", "addr:street_address": "538 CLINTON AVE", "amenity": "post_box", "collection_times": "Mo-Sa 10:00", "nsi_id": "unitedstatespostalservice-a77078", "operator": "United States Postal Service", "operator:short": "USPS", "operator:type": "public", "operator:wikidata": "Q668687", "ref": "1220600027"}, "type": "Feature"}
{"geometry": {"coordinates": [-73.7843745, 42.669068], "type": "Point"}, "id": "o4vB8ttVCY8cvo3b0B3TtdaBh9w=", "properties": {"@source_uri": "https://tools.usps.com/UspsToolsRestServices/rest/POLocator/findLocations", "@spider": "usps_collection_boxes", "addr:city": "ALBANY", "addr:country": "US", "addr:postcode": "12206", "addr:state": "NY", "addr:street_address": "785 WASHINGTON AVE", "amenity": "post_box", "collection_times": "Mo-Sa 09:00", "nsi_id": "unitedstatespostalservice-a77078", "operator": "United States Postal Service", "operator:short": "USPS", "operator:type": "public", "operator:wikidata": "Q668687", "ref": "1220600029"}, "type": "Feature"}
{"geometry": {"coordinates": [-73.770819, 42.661194], "type": "Point"}, "id": "GilmCP8g4EQ_YmG_wKTEmJQcta8=", "properties": {"@source_uri": "https://tools.usps.com/UspsToolsRestServices/rest/POLocator/findLocations", "@spider": "usps_collection_boxes", "addr:city": "ALBANY", "addr:country": "US", "addr:postcode": "12206", "addr:state": "NY", "addr:street_address": "405 WASHINGTON AVE", "amenity": "post_box", "collection_times": "Mo-Sa 10:00", "nsi_id": "unitedstatespostalservice-a77078", "operator": "United States Postal Service", "operator:short": "USPS", "operator:type": "public", "operator:wikidata": "Q668687", "ref": "1220600030"}, "type": "Feature"}
{"geometry": {"coordinates": [-73.7754535, 42.663857], "type": "Point"}, "id": "joJ6RySu3LhbbHg3ibGb8B8IjA8=", "properties": {"@source_uri": "https://tools.usps.com/UspsToolsRestServices/rest/POLocator/findLocations", "@spider": "usps_collection_boxes", "addr:city": "ALBANY", "addr:country": "US", "addr:postcode": "12206", "addr:state": "NY", "addr:street_address": "517 WASHINGTON AVE", "amenity": "post_box", "collection_times": "Mo-Sa 10:00", "nsi_id": "unitedstatespostalservice-a77078", "operator": "United States Postal Service", "operator:short": "USPS", "operator:type": "public", "operator:wikidata": "Q668687", "ref": "1220600032"}, "type": "Feature"}
{"geometry": {"coordinates": [-73.7664562, 42.658536], "type": "Point"}, "id": "DPj1IwiHUbnSk-ay-qt5jdpvgJY=", "properties": {"@source_uri": "https://tools.usps.com/UspsToolsRestServices/rest/POLocator/findLocations", "@spider": "usps_collection_boxes", "addr:city": "ALBANY", "addr:country": "US", "addr:postcode": "12206", "addr:state": "NY", "addr:street_address": "283 WASHINGTON AVE", "amenity": "post_box", "collection_times": "Mo-Fr 16:00; Sa 09:00", "note": "ON 12/24 AND 12/31, THIS BOX MAY BE COLLECTED AS EARLY AS 12 NOON.", "nsi_id": "unitedstatespostalservice-a77078", "operator": "United States Postal Service", "operator:short": "USPS", "operator:type": "public", "operator:wikidata": "Q668687", "ref": "1220600033"}, "type": "Feature"}
{"geometry": {"coordinates": [-73.7919064, 42.676007], "type": "Point"}, "id": "0GM-5TyEVEK2iw6cgXPxWv9_554=", "properties": {"@source_uri": "https://tools.usps.com/UspsToolsRestServices/rest/POLocator/findLocations", "@spider": "usps_collection_boxes", "addr:city": "ALBANY", "addr:country": "US", "addr:postcode": "12206", "addr:state": "NY", "addr:street_address": "26 VER PLANCK ST", "amenity": "post_box", "collection_times": "Mo-Sa 10:30", "nsi_id": "unitedstatespostalservice-a77078", "operator": "United States Postal Service", "operator:short": "USPS", "operator:type": "public", "operator:wikidata": "Q668687", "ref": "1220600034"}, "type": "Feature"}
{"geometry": {"coordinates": [-73.786344, 42.674504], "type": "Point"}, "id": "Ni4DSzwwSJH6rHghKFoEtdtoSK0=", "properties": {"@source_uri": "https://tools.usps.com/UspsToolsRestServices/rest/POLocator/findLocations", "@spider": "usps_collection_boxes", "addr:city": "ALBANY", "addr:country": "US", "addr:postcode": "12206", "addr:state": "NY", "addr:street_address": "21 KING AVE", "amenity": "post_box", "collection_times": "Mo-Sa 09:30", "nsi_id": "unitedstatespostalservice-a77078", "operator": "United States Postal Service", "operator:short": "USPS", "operator:type": "public", "operator:wikidata": "Q668687", "ref": "1220600035"}, "type": "Feature"}
{"geometry": {"coordinates": [-73.796062, 42.678095], "type": "Point"}, "id": "tQ2iz7_YBpTPkoPaeWvD1WZCSaA=", "properties": {"@source_uri": "https://tools.usps.com/UspsToolsRestServices/rest/POLocator/findLocations", "@spider": "usps_collection_boxes", "addr:city": "ALBANY", "addr:country": "US", "addr:postcode": "12206", "addr:state": "NY", "addr:street_address": "24 COLVIN AVE", "amenity": "post_box", "collection_times": "Mo-Fr 15:30; Sa 10:30", "note": "ON 12/24 AND 12/31, THIS BOX MAY BE COLLECTED AS EARLY AS 12 NOON.", "nsi_id": "unitedstatespostalservice-a77078", "operator": "United States Postal Service", "operator:short": "USPS", "operator:type": "public", "operator:wikidata": "Q668687", "ref": "1220600036"}, "type": "Feature"}
{"geometry": {"coordinates": [-73.7660543, 42.668056], "type": "Point"}, "id": "EZOSTTyVBd1wEDw0y0ziVMaqPww=", "properties": {"@source_uri": "https://tools.usps.com/UspsToolsRestServices/rest/POLocator/findLocations", "@spider": "usps_collection_boxes", "addr:city": "ALBANY", "addr:country": "US", "addr:postcode": "12206", "addr:state": "NY", "addr:street_address": "467 LIVINGSTON AVE", "amenity": "post_box", "collection_times": "Mo-Sa 10:00", "nsi_id": "unitedstatespostalservice-a77078", "operator": "United States Postal Service", "operator:short": "USPS", "operator:type": "public", "operator:wikidata": "Q668687", "ref": "1220600038"}, "type": "Feature"}
{"geometry": {"coordinates": [-73.7584395, 42.665978], "type": "Point"}, "id": "aiXlQHuzNriPoderNCCjXGETAMo=", "properties": {"@source_uri": "https://tools.usps.com/UspsToolsRestServices/rest/POLocator/findLocations", "@spider": "usps_collection_boxes", "addr:city": "ALBANY", "addr:country": "US", "addr:postcode": "12206", "addr:state": "NY", "addr:street_address": "22 BEVERLY AVE", "amenity": "post_box", "collection_times": "Mo-Sa 09:30", "nsi_id": "unitedstatespostalservice-a77078", "operator": "United States Postal Service", "operator:short": "USPS", "operator:type": "public", "operator:wikidata": "Q668687", "ref": "1220600040"}, "type": "Feature"}
{"geometry": {"coordinates": [-73.7734515, 42.665411], "type": "Point"}, "id": "RtE7W0nqGTnRRfT818kpA7_unQQ=", "properties": {"@source_uri": "https://tools.usps.com/UspsToolsRestServices/rest/POLocator/findLocations", "@spider": "usps_collection_boxes", "addr:city": "ALBANY", "addr:country": "US", "addr:postcode": "12206", "addr:state": "NY", "addr:street_address": "116 QUAIL ST", "amenity": "post_box", "collection_times": "Mo-Sa 10:00", "nsi_id": "unitedstatespostalservice-a77078", "operator": "United States Postal Service", "operator:short": "USPS", "operator:type": "public", "operator:wikidata": "Q668687", "ref": "1220600041"}, "type": "Feature"}
{"geometry": {"coordinates": [-73.7811186, 42.678108], "type": "Point"}, "id": "9JL0GK4B00BASB-YDUP9Xrk1AUE=", "properties": {"@source_uri": "https://tools.usps.com/UspsToolsRestServices/rest/POLocator/findLocations", "@spider": "usps_collection_boxes", "addr:city": "ALBANY", "addr:country": "US", "addr:postcode": "12206", "addr:state": "NY", "addr:street_address": "75 WATERVLIET AVE", "amenity": "post_box", "collection_times": "Mo-Fr 13:30; Sa 10:00", "note": "ON 12/24 AND 12/31, THIS BOX MAY BE COLLECTED AS EARLY AS 12 NOON.", "nsi_id": "unitedstatespostalservice-a77078", "operator": "United States Postal Service", "operator:short": "USPS", "operator:type": "public", "operator:wikidata": "Q668687", "ref": "1220600049"}, "type": "Feature"}
{"geometry": {"coordinates": [-73.7771551, 42.668738], "type": "Point"}, "id": "fG9DeN9hub4vSXAv-u9Aexs19fo=", "properties": {"@source_uri": "https://tools.usps.com/UspsToolsRestServices/rest/POLocator/findLocations", "@spider": "usps_collection_boxes", "addr:city": "ALBANY", "addr:country": "US", "addr:postcode": "12206", "addr:state": "NY", "addr:street_address": "450 CENTRAL AVE", "amenity": "post_box", "collection_times": "Mo-Fr 17:00; Sa 14:30", "note": "ON 12/24 AND 12/31, THIS BOX MAY BE COLLECTED AS EARLY AS 12 NOON.", "nsi_id": "unitedstatespostalservice-a77078", "operator": "United States Postal Service", "operator:short": "USPS", "operator:type": "public", "operator:wikidata": "Q668687", "ref": "1220600051"}, "type": "Feature"}
{"geometry": {"coordinates": [-73.765264, 42.658504], "type": "Point"}, "id": "EFB0aitYsOm32bHigxaLPNEjUCA=", "properties": {"@source_uri": "https://tools.usps.com/UspsToolsRestServices/rest/POLocator/findLocations", "@spider": "usps_collection_boxes", "addr:city": "ALBANY", "addr:country": "US", "addr:postcode": "12206", "addr:state": "NY", "addr:street_address": "45 CENTRAL AVE", "amenity": "post_box", "collection_times": "Mo-Sa 10:00", "nsi_id": "unitedstatespostalservice-a77078", "operator": "United States Postal Service", "operator:short": "USPS", "operator:type": "public", "operator:wikidata": "Q668687", "ref": "1220600054"}, "type": "Feature"}
{"geometry": {"coordinates": [-73.7945392, 42.679539], "type": "Point"}, "id": "hsXchHQmbic5VWQ1TeaBc8rkNA0=", "properties": {"@source_uri": "https://tools.usps.com/UspsToolsRestServices/rest/POLocator/findLocations", "@spider": "usps_collection_boxes", "addr:city": "ALBANY", "addr:country": "US", "addr:postcode": "12206", "addr:state": "NY", "addr:street_address": "63 COLVIN AVE", "amenity": "post_box", "collection_times": "Mo-Fr 15:30; Sa 10:30", "note": "ON 12/24 AND 12/31, THIS BOX MAY BE COLLECTED AS EARLY AS 12 NOON.", "nsi_id": "unitedstatespostalservice-a77078", "operator": "United States Postal Service", "operator:short": "USPS", "operator:type": "public", "operator:wikidata": "Q668687", "ref": "1220600071"}, "type": "Feature"}
{"geometry": {"coordinates": [-73.777071, 42.668736], "type": "Point"}, "id": "mUOmlaDkgaHC8WpFY0UJs8ldvJU=", "properties": {"@source_uri": "https://tools.usps.com/UspsToolsRestServices/rest/POLocator/findLocations", "@spider": "usps_collection_boxes", "addr:city": "ALBANY", "addr:country": "US", "addr:postcode": "12206", "addr:state": "NY", "addr:street_address": "450 CENTRAL AVE", "amenity": "post_box", "collection_times": "Mo-Fr 17:00; Sa 12:00", "indoor": "yes", "note": "ON 12/24 AND 12/31, THIS BOX MAY BE COLLECTED AS EARLY AS 12 NOON.", "nsi_id": "unitedstatespostalservice-a77078", "operator": "United States Postal Service", "operator:short": "USPS", "operator:type": "public", "operator:wikidata": "Q668687", "ref": "1220600079"}, "type": "Feature"}
{"geometry": {"coordinates": [-73.771418, 42.674316], "type": "Point"}, "id": "9yQx6K2y-HBTEypaELWKgtbTuHc=", "properties": {"@source_uri": "https://tools.usps.com/UspsToolsRestServices/rest/POLocator/findLocations", "@spider": "usps_collection_boxes", "addr:city": "ALBANY", "addr:country": "US", "addr:postcode": "12206", "addr:state": "NY", "addr:street_address": "71 TERMINAL ST", "amenity": "post_box", "collection_times": "Mo-Fr 17:00; Sa 15:00", "indoor": "yes", "note": "ON 12/24 AND 12/31, THIS BOX MAY BE COLLECTED AS EARLY AS 12 NOON.", "nsi_id": "unitedstatespostalservice-a77078", "operator": "United States Postal Service", "operator:short": "USPS", "operator:type": "public", "operator:wikidata": "Q668687", "ref": "1220600080"}, "type": "Feature"}
{"geometry": {"coordinates": [-73.77885, 42.67152], "type": "Point"}, "id": "mKg1qA2W4L2lNESCdNPH305hay8=", "properties": {"@source_uri": "https://tools.usps.com/UspsToolsRestServices/rest/POLocator/findLocations", "@spider": "usps_collection_boxes", "addr:city": "ALBANY", "addr:country": "US", "addr:postcode": "12206", "addr:state": "NY", "addr:street_address": "7A HARRIMAN CAMPUS RD", "amenity": "post_box", "collection_times": "Mo-Fr 10:00", "nsi_id": "unitedstatespostalservice-a77078", "operator": "United States Postal Service", "operator:short": "USPS", "operator:type": "public", "operator:wikidata": "Q668687", "ref": "1220600082"}, "type": "Feature"}
{"geometry": {"coordinates": [-73.777071129, 42.668730861], "type": "Point"}, "id": "xYolQPjVczWtrlrSa6lVQaOivfA=", "properties": {"@source_uri": "https://tools.usps.com/UspsToolsRestServices/rest/POLocator/findLocations", "@spider": "usps_collection_boxes", "addr:city": "ALBANY", "addr:country": "US", "addr:postcode": "12206", "addr:state": "NY", "addr:street_address": "450 CENTRAL AVE", "amenity": "post_box", "collection_times": "Mo-Fr 17:00; Sa 12:00", "indoor": "yes", "note": "ON 12/24 AND 12/31, THIS BOX MAY BE COLLECTED AS EARLY AS 12 NOON.", "nsi_id": "unitedstatespostalservice-a77078", "operator": "United States Postal Service", "operator:short": "USPS", "operator:type": "public", "operator:wikidata": "Q668687", "ref": "1220600085"}, "type": "Feature"}
{"geometry": {"coordinates": [-73.7517417, 42.649422], "type": "Point"}, "id": "plVaLIeQO036yABGLSYg9bPW3Yo=", "properties": {"@source_uri": "https://tools.usps.com/UspsToolsRestServices/rest/POLocator/findLocations", "@spider": "usps_collection_boxes", "addr:city": "ALBANY", "addr:country": "US", "addr:postcode": "12207", "addr:state": "NY", "addr:street_address": "54 STATE ST", "amenity": "post_box", "collection_times": "Mo-Fr 16:30", "note": "ON 12/24 AND 12/31, THIS BOX MAY BE COLLECTED AS EARLY AS 12 NOON.", "nsi_id": "unitedstatespostalservice-a77078", "operator": "United States Postal Service", "operator:short": "USPS", "operator:type": "public", "operator:wikidata": "Q668687", "ref": "1220700004"}, "type": "Feature"}
{"geometry": {"coordinates": [-73.7527457, 42.650112], "type": "Point"}, "id": "aB31XvCft-CU8Rlia3CwEnvZLj4=", "properties": {"@source_uri": "https://tools.usps.com/UspsToolsRestServices/rest/POLocator/findLocations", "@spider": "usps_collection_boxes", "addr:city": "ALBANY", "addr:country": "US", "addr:postcode": "12207", "addr:state": "NY", "addr:street_address": "90 STATE ST", "amenity": "post_box", "collection_times": "Mo-Fr 15:38", "note": "ON 12/24 AND 12/31, THIS BOX MAY BE COLLECTED AS EARLY AS 12 NOON.", "nsi_id": "unitedstatespostalservice-a77078", "operator": "United States Postal Service", "operator:short": "USPS", "operator:type": "public", "operator:wikidata": "Q668687", "ref": "1220700021"}, "type": "Feature"}
{"geometry": {"coordinates": [-73.7483953, 42.656734], "type": "Point"}, "id": "yrwWUTW8C9TcLec8sgY1T5MyMMY=", "properties": {"@source_uri": "https://tools.usps.com/UspsToolsRestServices/rest/POLocator/findLocations", "@spider": "usps_collection_boxes", "addr:city": "ALBANY", "addr:country": "US", "addr:postcode": "12207", "addr:state": "NY", "addr:street_address": "747 BROADWAY", "amenity": "post_box", "collection_times": "Mo-Fr 17:15; Sa 16:30", "note": "ON 12/24 AND 12/31, THIS BOX MAY BE COLLECTED AS EARLY AS 12 NOON.", "nsi_id": "unitedstatespostalservice-a77078", "operator": "United States Postal Service", "operator:short": "USPS", "operator:type": "public", "operator:wikidata": "Q668687", "ref": "1220700030"}, "type": "Feature"}
{"geometry": {"coordinates": [-73.7524395, 42.65191], "type": "Point"}, "id": "ZpwhRXzJfu1CTnsgymLOq1Kk0fk=", "properties": {"@source_uri": "https://tools.usps.com/UspsToolsRestServices/rest/POLocator/findLocations", "@spider": "usps_collection_boxes", "addr:city": "ALBANY", "addr:country": "US", "addr:postcode": "12207", "addr:state": "NY", "addr:street_address": "74 CHAPEL ST", "amenity": "post_box", "collection_times": "Mo-Fr 16:40; Sa 09:00", "note": "ON 12/24 AND 12/31, THIS BOX MAY BE COLLECTED AS EARLY AS 12 NOON.", "nsi_id": "unitedstatespostalservice-a77078", "operator": "United States Postal Service", "operator:short": "USPS", "operator:type": "public", "operator:wikidata": "Q668687", "ref": "1220700033"}, "type": "Feature"}
{"geometry": {"coordinates": [-73.7550631, 42.65343], "type": "Point"}, "id": "aJ0JyWBBlZMJbhkLVOiwOjOLGIA=", "properties": {"@source_uri": "https://tools.usps.com/UspsToolsRestServices/rest/POLocator/findLocations", "@spider": "usps_collection_boxes", "addr:city": "ALBANY", "addr:country": "US", "addr:postcode": "12207", "addr:state": "NY", "addr:street_address": "17 ELK ST", "amenity": "post_box", "collection_times": "Mo-Fr 16:20; Sa 09:00", "note": "ON 12/24 AND 12/31, THIS BOX MAY BE COLLECTED AS EARLY AS 12 NOON.", "nsi_id": "unitedstatespostalservice-a77078", "operator": "United States Postal Service", "operator:short": "USPS", "operator:type": "public", "operator:wikidata": "Q668687", "ref": "1220700036"}, "type": "Feature"}
{"geometry": {"coordinates": [-73.7517152, 42.651078], "type": "Point"}, "id": "wwkj98gbgi6fy9ssRezsA8PnlAM=", "properties": {"@source_uri": "https://tools.usps.com/UspsToolsRestServices/rest/POLocator/findLocations", "@spider": "usps_collection_boxes", "addr:city": "ALBANY", "addr:country": "US", "addr:postcode": "12207", "addr:state": "NY", "addr:street_address": "99 PINE ST", "amenity": "post_box", "collection_times": "Mo-Fr 16:15; Sa 09:30", "note": "ON 12/24 AND 12/31, THIS BOX MAY BE COLLECTED AS EARLY AS 12 NOON.", "nsi_id": "unitedstatespostalservice-a77078", "operator": "United States Postal Service", "operator:short": "USPS", "operator:type": "public", "operator:wikidata": "Q668687", "ref": "1220700044"}, "type": "Feature"}
{"geometry": {"coordinates": [-73.7522959, 42.650734], "type": "Point"}, "id": "UV2nO0St9BHHJRx78fHJNjgp_e8=", "properties": {"@source_uri": "https://tools.usps.com/UspsToolsRestServices/rest/POLocator/findLocations", "@spider": "usps_collection_boxes", "addr:city": "ALBANY", "addr:country": "US", "addr:postcode": "12207", "addr:state": "NY", "addr:street_address": "40 N PEARL ST", "amenity": "post_box", "collection_times": "Mo-Fr 16:20; Sa 09:30", "note": "ON 12/24 AND 12/31, THIS BOX MAY BE COLLECTED AS EARLY AS 12 NOON.", "nsi_id": "unitedstatespostalservice-a77078", "operator": "United States Postal Service", "operator:short": "USPS", "operator:type": "public", "operator:wikidata": "Q668687", "ref": "1220700048"}, "type": "Feature"}
{"geometry": {"coordinates": [-73.7548734, 42.650901], "type": "Point"}, "id": "5-47_g017zZnQgiQa1JTvJhGq68=", "properties": {"@source_uri": "https://tools.usps.com/UspsToolsRestServices/rest/POLocator/findLocations", "@spider": "usps_collection_boxes", "addr:city": "ALBANY", "addr:country": "US", "addr:postcode": "12207", "addr:state": "NY", "addr:street_address": "113 STATE ST", "amenity": "post_box", "collection_times": "Mo-Fr 15:50; Sa 09:00", "note": "ON 12/24 AND 12/31, THIS BOX MAY BE COLLECTED AS EARLY AS 12 NOON.", "nsi_id": "unitedstatespostalservice-a77078", "operator": "United States Postal Service", "operator:short": "USPS", "operator:type": "public", "operator:wikidata": "Q668687", "ref": "1220700054"}, "type": "Feature"}
{"geometry": {"coordinates": [-73.7501017, 42.651149], "type": "Point"}, "id": "_fSBRQIYUolkYPx4G6cPM8gTf6w=", "properties": {"@source_uri": "https://tools.usps.com/UspsToolsRestServices/rest/POLocator/findLocations", "@spider": "usps_collection_boxes", "addr:city": "ALBANY", "addr:country": "US", "addr:postcode": "12207", "addr:state": "NY", "addr:street_address": "540 BROADWAY", "amenity": "post_box", "collection_times": "Mo-Fr 17:00; Sa 09:00", "note": "ON 12/24 AND 12/31, THIS BOX MAY BE COLLECTED AS EARLY AS 12 NOON.", "nsi_id": "unitedstatespostalservice-a77078", "operator": "United States Postal Service", "operator:short": "USPS", "operator:type": "public", "operator:wikidata": "Q668687", "ref": "1220700055"}, "type": "Feature"}
{"geometry": {"coordinates": [-73.7522931, 42.6504136], "type": "Point"}, "id": "EhzL5frWJGgfBgH5QwON9QiewbY=", "properties": {"@source_uri": "https://tools.usps.com/UspsToolsRestServices/rest/POLocator/findLocations", "@spider": "usps_collection_boxes", "addr:city": "ALBANY", "addr:country": "US", "addr:postcode": "12207", "addr:state": "NY", "addr:street_address": "41 STATE ST", "amenity": "post_box", "collection_times": "Mo-Fr 16:15", "note": "ON 12/24 AND 12/31, THIS BOX MAY BE COLLECTED AS EARLY AS 12 NOON.", "nsi_id": "unitedstatespostalservice-a77078", "operator": "United States Postal Service", "operator:short": "USPS", "operator:type": "public", "operator:wikidata": "Q668687", "ref": "1220700065"}, "type": "Feature"}
{"geometry": {"coordinates": [-73.7559563, 42.651222], "type": "Point"}, "id": "UdQN7J1xpgA_QLhJ3oPt_2zU2F8=", "properties": {"@source_uri": "https://tools.usps.com/UspsToolsRestServices/rest/POLocator/findLocations", "@spider": "usps_collection_boxes", "addr:city": "ALBANY", "addr:country": "US", "addr:postcode": "12207", "addr:state": "NY", "addr:street_address": "150 STATE ST", "amenity": "post_box", "collection_times": "Mo-Fr 15:30", "note": "ON 12/24 AND 12/31, THIS BOX MAY BE COLLECTED AS EARLY AS 12 NOON.", "nsi_id": "unitedstatespostalservice-a77078", "operator": "United States Postal Service", "operator:short": "USPS", "operator:type": "public", "operator:wikidata": "Q668687", "ref": "1220700082"}, "type": "Feature"}
{"geometry": {"coordinates": [-73.7537776, 42.650528], "type": "Point"}, "id": "FDc9VpVF8dsbWtz_2cUaEz4CvzQ=", "properties": {"@source_uri": "https://tools.usps.com/UspsToolsRestServices/rest/POLocator/findLocations", "@spider": "usps_collection_boxes", "addr:city": "ALBANY", "addr:country": "US", "addr:postcode": "12207", "addr:state": "NY", "addr:street_address": "112 STATE ST", "amenity": "post_box", "collection_times": "Mo-Fr 15:55", "note": "ON 12/24 AND 12/31, THIS BOX MAY BE COLLECTED AS EARLY AS 12 NOON.", "nsi_id": "unitedstatespostalservice-a77078", "operator": "United States Postal Service", "operator:short": "USPS", "operator:type": "public", "operator:wikidata": "Q668687", "ref": "1220700084"}, "type": "Feature"}
{"geometry": {"coordinates": [-73.7533149, 42.65012], "type": "Point"}, "id": "djmvrOH7aulZgrsUmlGVx2CNZ0U=", "properties": {"@source_uri": "https://tools.usps.com/UspsToolsRestServices/rest/POLocator/findLocations", "@spider": "usps_collection_boxes", "addr:city": "ALBANY", "addr:country": "US", "addr:postcode": "12207", "addr:state": "NY", "addr:street_address": "100 STATE ST", "amenity": "post_box", "collection_times": "Mo-Fr 15:33", "note": "ON 12/24 AND 12/31, THIS BOX MAY BE COLLECTED AS EARLY AS 12 NOON.", "nsi_id": "unitedstatespostalservice-a77078", "operator": "United States Postal Service", "operator:short": "USPS", "operator:type": "public", "operator:wikidata": "Q668687", "ref": "1220700094"}, "type": "Feature"}
{"geometry": {"coordinates": [-73.7535759, 42.653093], "type": "Point"}, "id": "waq56Xr58jNbRGGrGzrLYJ2fZ7w=", "properties": {"@source_uri": "https://tools.usps.com/UspsToolsRestServices/rest/POLocator/findLocations", "@spider": "usps_collection_boxes", "addr:city": "ALBANY", "addr:country": "US", "addr:postcode": "12207", "addr:state": "NY", "addr:street_address": "107 COLUMBIA ST", "amenity": "post_box", "collection_times": "Mo-Fr 16:10; Sa 09:00", "note": "ON 12/24 AND 12/31, THIS BOX MAY BE COLLECTED AS EARLY AS 12 NOON.", "nsi_id": "unitedstatespostalservice-a77078", "operator": "United States Postal Service", "operator:short": "USPS", "operator:type": "public", "operator:wikidata": "Q668687", "ref": "1220700096"}, "type": "Feature"}
{"geometry": {"coordinates": [-73.7524966, 42.649639], "type": "Point"}, "id": "goKMPMHHItXTB9UqLOVTjSlrWTo=", "properties": {"@source_uri": "https://tools.usps.com/UspsToolsRestServices/rest/POLocator/findLocations", "@spider": "usps_collection_boxes", "addr:city": "ALBANY", "addr:country": "US", "addr:postcode": "12207", "addr:state": "NY", "addr:street_address": "69 STATE ST", "amenity": "post_box", "collection_times": "Mo-Fr 16:22", "note": "ON 12/24 AND 12/31, THIS BOX MAY BE COLLECTED AS EARLY AS 12 NOON.", "nsi_id": "unitedstatespostalservice-a77078", "operator": "United States Postal Service", "operator:short": "USPS", "operator:type": "public", "operator:wikidata": "Q668687", "ref": "1220700110"}, "type": "Feature"}
{"geometry": {"coordinates": [-73.752489, 42.64938], "type": "Point"}, "id": "iSNWtYLCRxL-C714tQOcTXPC_Uo=", "properties": {"@source_uri": "https://tools.usps.com/UspsToolsRestServices/rest/POLocator/findLocations", "@spider": "usps_collection_boxes", "addr:city": "ALBANY", "addr:country": "US", "addr:postcode": "12207", "addr:state": "NY", "addr:street_address": "80 STATE ST", "amenity": "post_box", "collection_times": "Mo-Fr 16:35", "note": "ON 12/24 AND 12/31, THIS BOX MAY BE COLLECTED AS EARLY AS 12 NOON.", "nsi_id": "unitedstatespostalservice-a77078", "operator": "United States Postal Service", "operator:short": "USPS", "operator:type": "public", "operator:wikidata": "Q668687", "ref": "1220700121"}, "type": "Feature"}
{"geometry": {"coordinates": [-73.7493658, 42.65275], "type": "Point"}, "id": "_Ta8NrCcdavgxLqiakvbEINxzZ4=", "properties": {"@source_uri": "https://tools.usps.com/UspsToolsRestServices/rest/POLocator/findLocations", "@spider": "usps_collection_boxes", "addr:city": "ALBANY", "addr:country": "US", "addr:postcode": "12207", "addr:state": "NY", "addr:street_address": "1 BROADWAY", "amenity": "post_box", "collection_times": "Mo-Fr 15:00", "note": "ON 12/24 AND 12/31, THIS BOX MAY BE COLLECTED AS EARLY AS 12 NOON.", "nsi_id": "unitedstatespostalservice-a77078", "operator": "United States Postal Service", "operator:short": "USPS", "operator:type": "public", "operator:wikidata": "Q668687", "ref": "1220700125"}, "type": "Feature"}
{"geometry": {"coordinates": [-73.7529817, 42.647705], "type": "Point"}, "id": "Sb8h5Iwcj8rZh0XUEmNESB0-Fec=", "properties": {"@source_uri": "https://tools.usps.com/UspsToolsRestServices/rest/POLocator/findLocations", "@spider": "usps_collection_boxes", "addr:city": "ALBANY", "addr:country": "US", "addr:postcode": "12207", "addr:state": "NY", "addr:street_address": "45 HUDSON AVE", "amenity": "post_box", "collection_times": "Mo-Fr 17:10; Sa 14:00", "note": "ON 12/24 AND 12/31, THIS BOX MAY BE COLLECTED AS EARLY AS 12 NOON.", "nsi_id": "unitedstatespostalservice-a77078", "operator": "United States Postal Service", "operator:short": "USPS", "operator:type": "public", "operator:wikidata": "Q668687", "ref": "1220700144"}, "type": "Feature"}
{"geometry": {"coordinates": [-73.7504564, 42.647761], "type": "Point"}, "id": "C1xhk0km3kKLnTk1zywhgpF-s2s=", "properties": {"@source_uri": "https://tools.usps.com/UspsToolsRestServices/rest/POLocator/findLocations", "@spider": "usps_collection_boxes", "addr:city": "ALBANY", "addr:country": "US", "addr:postcode": "12207", "addr:state": "NY", "addr:street_address": "388 BROADWAY", "amenity": "post_box", "collection_times": "Mo-Fr 15:20; Sa 09:00", "note": "ON 12/24 AND 12/31, THIS BOX MAY BE COLLECTED AS EARLY AS 12 NOON.", "nsi_id": "unitedstatespostalservice-a77078", "operator": "United States Postal Service", "operator:short": "USPS", "operator:type": "public", "operator:wikidata": "Q668687", "ref": "1220700146"}, "type": "Feature"}
{"geometry": {"coordinates": [-73.750844631, 42.652492261], "type": "Point"}, "id": "RF3M35WHMUKGNODa38lqV1cftQg=", "properties": {"@source_uri": "https://tools.usps.com/UspsToolsRestServices/rest/POLocator/findLocations", "@spider": "usps_collection_boxes", "addr:city": "ALBANY", "addr:country": "US", "addr:postcode": "12207", "addr:state": "NY", "addr:street_address": "79 N PEARL ST", "amenity": "post_box", "collection_times": "Mo-Fr 16:35; Sa 09:30", "note": "ON 12/24 AND 12/31, THIS BOX MAY BE COLLECTED AS EARLY AS 12 NOON.", "nsi_id": "unitedstatespostalservice-a77078", "operator": "United States Postal Service", "operator:short": "USPS", "operator:type": "public", "operator:wikidata": "Q668687", "ref": "1220700153"}, "type": "Feature"}
{"geometry": {"coordinates": [-73.7533805, 42.650338], "type": "Point"}, "id": "SO2iFtQGvvOrEv2x1vgo0UKvyDg=", "properties": {"@source_uri": "https://tools.usps.com/UspsToolsRestServices/rest/POLocator/findLocations", "@spider": "usps_collection_boxes", "addr:city": "ALBANY", "addr:country": "US", "addr:postcode": "12207", "addr:state": "NY", "addr:street_address": "110 STATE ST", "amenity": "post_box", "collection_times": "Mo-Fr 16:00", "note": "ON 12/24 AND 12/31, THIS BOX MAY BE COLLECTED AS EARLY AS 12 NOON.", "nsi_id": "unitedstatespostalservice-a77078", "operator": "United States Postal Service", "operator:short": "USPS", "operator:type": "public", "operator:wikidata": "Q668687", "ref": "1220700157"}, "type": "Feature"}
{"geometry": {"coordinates": [-73.7565227, 42.651419], "type": "Point"}, "id": "cyAYB1qEeoPPDEbkxlCdV6Xamgo=", "properties": {"@source_uri": "https://tools.usps.com/UspsToolsRestServices/rest/POLocator/findLocations", "@spider": "usps_collection_boxes", "addr:city": "ALBANY", "addr:country": "US", "addr:postcode": "12207", "addr:state": "NY", "addr:street_address": "158 STATE ST", "amenity": "post_box", "collection_times": "Mo-Fr 15:20", "note": "ON 12/24 AND 12/31, THIS BOX MAY BE COLLECTED AS EARLY AS 12 NOON.", "nsi_id": "unitedstatespostalservice-a77078", "operator": "United States Postal Service", "operator:short": "USPS", "operator:type": "public", "operator:wikidata": "Q668687", "ref": "1220700160"}, "type": "Feature"}
{"geometry": {"coordinates": [-73.751439, 42.647677], "type": "Point"}, "id": "UCwuZnaKub8-V7TcWr7Fawhz8rs=", "properties": {"@source_uri": "https://tools.usps.com/UspsToolsRestServices/rest/POLocator/findLocations", "@spider": "usps_collection_boxes", "addr:city": "ALBANY", "addr:country": "US", "addr:postcode": "12207", "addr:state": "NY", "addr:street_address": "45 HUDSON AVE", "amenity": "post_box", "collection_times": "Mo-Fr 17:30; Sa 12:00", "indoor": "yes", "note": "ON 12/24 AND 12/31, THIS BOX MAY BE COLLECTED AS EARLY AS 12 NOON.", "nsi_id": "unitedstatespostalservice-a77078", "operator": "United States Postal Service", "operator:short": "USPS", "operator:type": "public", "operator:wikidata": "Q668687", "ref": "1220700164"}, "type": "Feature"}
{"geometry": {"coordinates": [-73.748002, 42.656649], "type": "Point"}, "id": "UxTjZNYgYG9wagvF09dwzZyNOvs=", "properties": {"@source_uri": "https://tools.usps.com/UspsToolsRestServices/rest/POLocator/findLocations", "@spider": "usps_collection_boxes", "addr:city": "ALBANY", "addr:country": "US", "addr:postcode": "12207", "addr:state": "NY", "addr:street_address": "747 BROADWAY", "amenity": "post_box", "collection_times": "Mo-Fr 17:15; Sa 13:00", "indoor": "yes", "note": "ON 12/24 AND 12/31, THIS BOX MAY BE COLLECTED AS EARLY AS 12 NOON.", "nsi_id": "unitedstatespostalservice-a77078", "operator": "United States Postal Service", "operator:short": "USPS", "operator:type": "public", "operator:wikidata": "Q668687", "ref": "1220700165"}, "type": "Feature"}
{"geometry": {"coordinates": [-73.751440183, 42.647675939], "type": "Point"}, "id": "dFHMiOUsCu7rPvfcJTzR-L1PcU8=", "properties": {"@source_uri": "https://tools.usps.com/UspsToolsRestServices/rest/POLocator/findLocations", "@spider": "usps_collection_boxes", "addr:city": "ALBANY", "addr:country": "US", "addr:postcode": "12207", "addr:state": "NY", "addr:street_address": "45 HUDSON AVE", "amenity": "post_box", "collection_times": "Mo-Fr 17:30", "indoor": "yes", "note": "ON 12/24 AND 12/31, THIS BOX MAY BE COLLECTED AS EARLY AS 12 NOON.", "nsi_id": "unitedstatespostalservice-a77078", "operator": "United States Postal Service", "operator:short": "USPS", "operator:type": "public", "operator:wikidata": "Q668687", "ref": "1220700166"}, "type": "Feature"}
{"geometry": {"coordinates": [-73.7777265, 42.65429], "type": "Point"}, "id": "lLqrSWOXVct5cnfoMuxG7jAu8AU=", "properties": {"@source_uri": "https://tools.usps.com/UspsToolsRestServices/rest/POLocator/findLocations", "@spider": "usps_collection_boxes", "addr:city": "ALBANY", "addr:country": "US", "addr:postcode": "12208", "addr:state": "NY", "addr:street_address": "47 NEW SCOTLAND AVE", "amenity": "post_box", "collection_times": "Mo-Fr 14:40", "note": "ON 12/24 AND 12/31, THIS BOX MAY BE COLLECTED AS EARLY AS 12 NOON.", "nsi_id": "unitedstatespostalservice-a77078", "operator": "United States Postal Service", "operator:short": "USPS", "operator:type": "public", "operator:wikidata": "Q668687", "ref": "1220800005"}, "type": "Feature"}
{"geometry": {"coordinates": [-73.7764619, 42.652686], "type": "Point"}, "id": "R_k1J3f2doTsQIEEh5Uw4NE7Lq0=", "properties": {"@source_uri": "https://tools.usps.com/UspsToolsRestServices/rest/POLocator/findLocations", "@spider": "usps_collection_boxes", "addr:city": "ALBANY", "addr:country": "US", "addr:postcode": "12208", "addr:state": "NY", "addr:street_address": "43 NEW SCOTLAND AVE", "amenity": "post_box", "collection_times": "Mo-Fr 13:25", "note": "ON 12/24 AND 12/31, THIS BOX MAY BE COLLECTED AS EARLY AS 12 NOON.", "nsi_id": "unitedstatespostalservice-a77078", "operator": "United States Postal Service", "operator:short": "USPS", "operator:type": "public", "operator:wikidata": "Q668687", "ref": "1220800006"}, "type": "Feature"}
{"geometry": {"coordinates": [-73.8133304, 42.660373], "type": "Point"}, "id": "Enwd9LdJ_wvTxwpFrW9Qh8KCbks=", "properties": {"@source_uri": "https://tools.usps.com/UspsToolsRestServices/rest/POLocator/findLocations", "@spider": "usps_collection_boxes", "addr:city": "ALBANY", "addr:country": "US", "addr:postcode": "12208", "addr:state": "NY", "addr:street_address": "33 BUCKINGHAM DR", "amenity": "post_box", "collection_times": "Mo-Sa 11:30", "nsi_id": "unitedstatespostalservice-a77078", "operator": "United States Postal Service", "operator:short": "USPS", "operator:type": "public", "operator:wikidata": "Q668687", "ref": "1220800008"}, "type": "Feature"}
{"geometry": {"coordinates": [-73.7797277, 42.645902], "type": "Point"}, "id": "_drJrgxgqQ-Xx82ETq4_AB-4ULU=", "properties": {"@source_uri": "https://tools.usps.com/UspsToolsRestServices/rest/POLocator/findLocations", "@spider": "usps_collection_boxes", "addr:city": "ALBANY", "addr:country": "US", "addr:postcode": "12208", "addr:state": "NY", "addr:street_address": "25 HACKETT BLVD", "amenity": "post_box", "collection_times": "Mo-Fr 14:30; Sa 09:30", "note": "ON 12/24 AND 12/31, THIS BOX MAY BE COLLECTED AS EARLY AS 12 NOON.", "nsi_id": "unitedstatespostalservice-a77078", "operator": "United States Postal Service", "operator:short": "USPS", "operator:type": "public", "operator:wikidata": "Q668687", "ref": "1220800009"}, "type": "Feature"}
{"geometry": {"coordinates": [-73.812392, 42.651997], "type": "Point"}, "id": "898VuWDyoxe2Gesphoou4-omA0I=", "properties": {"@source_uri": "https://tools.usps.com/UspsToolsRestServices/rest/POLocator/findLocations", "@spider": "usps_collection_boxes", "addr:city": "ALBANY", "addr:country": "US", "addr:postcode": "12208", "addr:state": "NY", "addr:street_address": "22 PICOTTE DR", "amenity": "post_box", "collection_times": "Mo-Sa 10:00", "nsi_id": "unitedstatespostalservice-a77078", "operator": "United States Postal Service", "operator:short": "USPS", "operator:type": "public", "operator:wikidata": "Q668687", "ref": "1220800010"}, "type": "Feature"}
{"geometry": {"coordinates": [-73.8141737, 42.654804], "type": "Point"}, "id": "-2h8eko8dPZ_OlkCvcEYeE2wl90=", "properties": {"@source_uri": "https://tools.usps.com/UspsToolsRestServices/rest/POLocator/findLocations", "@spider": "usps_collection_boxes", "addr:city": "ALBANY", "addr:country": "US", "addr:postcode": "12208", "addr:state": "NY", "addr:street_address": "428 HACKETT BLVD", "amenity": "post_box", "collection_times": "Mo-Sa 10:30", "nsi_id": "unitedstatespostalservice-a77078", "operator": "United States Postal Service", "operator:short": "USPS", "operator:type": "public", "operator:wikidata": "Q668687", "ref": "1220800012"}, "type": "Feature"}
{"geometry": {"coordinates": [-73.7912899, 42.647073], "type": "Point"}, "id": "iIRKTa_KUymkS8JPwdY26wzHypY=", "properties": {"@source_uri": "https://tools.usps.com/UspsToolsRestServices/rest/POLocator/findLocations", "@spider": "usps_collection_boxes", "addr:city": "ALBANY", "addr:country": "US", "addr:postcode": "12208", "addr:state": "NY", "addr:street_address": "131 HACKETT BLVD", "amenity": "post_box", "collection_times": "Mo-Sa 10:00", "nsi_id": "unitedstatespostalservice-a77078", "operator": "United States Postal Service", "operator:short": "USPS", "operator:type": "public", "operator:wikidata": "Q668687", "ref": "1220800014"}, "type": "Feature"}
{"geometry": {"coordinates": [-73.8021756, 42.652122], "type": "Point"}, "id": "eHzZl4Zl-H1xTwXK0JFduDRliXk=", "properties": {"@source_uri": "https://tools.usps.com/UspsToolsRestServices/rest/POLocator/findLocations", "@spider": "usps_collection_boxes", "addr:city": "ALBANY", "addr:country": "US", "addr:postcode": "12208", "addr:state": "NY", "addr:street_address": "307 S MAIN AVE", "amenity": "post_box", "collection_times": "Mo-Sa 09:00", "nsi_id": "unitedstatespostalservice-a77078", "operator": "United States Postal Service", "operator:short": "USPS", "operator:type": "public", "operator:wikidata": "Q668687", "ref": "1220800015"}, "type": "Feature"}
{"geometry": {"coordinates": [-73.8084644, 42.650948], "type": "Point"}, "id": "S5fVBOsmfOpgSrGCquCGlJ84uak=", "properties": {"@source_uri": "https://tools.usps.com/UspsToolsRestServices/rest/POLocator/findLocations", "@spider": "usps_collection_boxes", "addr:city": "ALBANY", "addr:country": "US", "addr:postcode": "12208", "addr:state": "NY", "addr:street_address": "359 S MANNING BLVD", "amenity": "post_box", "collection_times": "Mo-Sa 10:00", "nsi_id": "unitedstatespostalservice-a77078", "operator": "United States Postal Service", "operator:short": "USPS", "operator:type": "public", "operator:wikidata": "Q668687", "ref": "1220800019"}, "type": "Feature"}
{"geometry": {"coordinates": [-73.8046007, 42.655334], "type": "Point"}, "id": "GK70uZz848wC2ykQTa4gfGfRFVo=", "properties": {"@source_uri": "https://tools.usps.com/UspsToolsRestServices/rest/POLocator/findLocations", "@spider": "usps_collection_boxes", "addr:city": "ALBANY", "addr:country": "US", "addr:postcode": "12208", "addr:state": "NY", "addr:street_address": "319 S MANNING BLVD", "amenity": "post_box", "collection_times": "Mo-Sa 09:30", "nsi_id": "unitedstatespostalservice-a77078", "operator": "United States Postal Service", "operator:short": "USPS", "operator:type": "public", "operator:wikidata": "Q668687", "ref": "1220800020"}, "type": "Feature"}
{"geometry": {"coordinates": [-73.7843784, 42.661875], "type": "Point"}, "id": "D0cvZcp11RLzuc-5xTTQGyIl2F4=", "properties": {"@source_uri": "https://tools.usps.com/UspsToolsRestServices/rest/POLocator/findLocations", "@spider": "usps_collection_boxes", "addr:city": "ALBANY", "addr:country": "US", "addr:postcode": "12208", "addr:state": "NY", "addr:street_address": "908 MADISON AVE", "amenity": "post_box", "collection_times": "Mo-Sa 09:30", "nsi_id": "unitedstatespostalservice-a77078", "operator": "United States Postal Service", "operator:short": "USPS", "operator:type": "public", "operator:wikidata": "Q668687", "ref": "1220800024"}, "type": "Feature"}
{"geometry": {"coordinates": [-73.780006122, 42.6595045519], "type": "Point"}, "id": "taGbqjJeHommPpekIo7CCV_bGA4=", "properties": {"@source_uri": "https://tools.usps.com/UspsToolsRestServices/rest/POLocator/findLocations", "@spider": "usps_collection_boxes", "addr:city": "ALBANY", "addr:country": "US", "addr:postcode": "12208", "addr:state": "NY", "addr:street_address": "790 MADISON AVE", "amenity": "post_box", "collection_times": "Mo-Sa 10:00", "nsi_id": "unitedstatespostalservice-a77078", "operator": "United States Postal Service", "operator:short": "USPS", "operator:type": "public", "operator:wikidata": "Q668687", "ref": "1220800025"}, "type": "Feature"}
{"geometry": {"coordinates": [-73.7743839, 42.656138], "type": "Point"}, "id": "mphkZ2b3iAjEraQ9Yh65oNH5HMA=", "properties": {"@source_uri": "https://tools.usps.com/UspsToolsRestServices/rest/POLocator/findLocations", "@spider": "usps_collection_boxes", "addr:city": "ALBANY", "addr:country": "US", "addr:postcode": "12208", "addr:state": "NY", "addr:street_address": "628 MADISON AVE", "amenity": "post_box", "collection_times": "Mo-Sa 10:30", "nsi_id": "unitedstatespostalservice-a77078", "operator": "United States Postal Service", "operator:short": "USPS", "operator:type": "public", "operator:wikidata": "Q668687", "ref": "1220800026"}, "type": "Feature"}
{"geometry": {"coordinates": [-73.7999878, 42.662988], "type": "Point"}, "id": "mcEBxdJXY7nu9Db6MqdXBuFUmiU=", "properties": {"@source_uri": "https://tools.usps.com/UspsToolsRestServices/rest/POLocator/findLocations", "@spider": "usps_collection_boxes", "addr:city": "ALBANY", "addr:country": "US", "addr:postcode": "12208", "addr:state": "NY", "addr:street_address": "153 S MANNING BLVD", "amenity": "post_box", "collection_times": "Mo-Sa 11:30", "nsi_id": "unitedstatespostalservice-a77078", "operator": "United States Postal Service", "operator:short": "USPS", "operator:type": "public", "operator:wikidata": "Q668687", "ref": "1220800032"}, "type": "Feature"}
{"geometry": {"coordinates": [-73.7959409, 42.662724], "type": "Point"}, "id": "Yw3Yf9yr0-0M2WWUwc8mrZwUhv8=", "properties": {"@source_uri": "https://tools.usps.com/UspsToolsRestServices/rest/POLocator/findLocations", "@spider": "usps_collection_boxes", "addr:city": "ALBANY", "addr:country": "US", "addr:postcode": "12208", "addr:state": "NY", "addr:street_address": "133 S ALLEN ST", "amenity": "post_box", "collection_times": "Mo-Sa 10:30", "nsi_id": "unitedstatespostalservice-a77078", "operator": "United States Postal Service", "operator:short": "USPS", "operator:type": "public", "operator:wikidata": "Q668687", "ref": "1220800034"}, "type": "Feature"}
{"geometry": {"coordinates": [-73.7816473, 42.657821], "type": "Point"}, "id": "CjYHoMkPE3M4QK8Rgf-_I7iXiVA=", "properties": {"@source_uri": "https://tools.usps.com/UspsToolsRestServices/rest/POLocator/findLocations", "@spider": "usps_collection_boxes", "addr:city": "ALBANY", "addr:country": "US", "addr:postcode": "12208", "addr:state": "NY", "addr:street_address": "299 QUAIL ST", "amenity": "post_box", "collection_times": "Mo-Sa 10:00", "nsi_id": "unitedstatespostalservice-a77078", "operator": "United States Postal Service", "operator:short": "USPS", "operator:type": "public", "operator:wikidata": "Q668687", "ref": "1220800036"}, "type": "Feature"}
{"geometry": {"coordinates": [-73.7907112, 42.662847], "type": "Point"}, "id": "R732a2roBZXA4WSMDxsr8O1Xiz8=", "properties": {"@source_uri": "https://tools.usps.com/UspsToolsRestServices/rest/POLocator/findLocations", "@spider": "usps_collection_boxes", "addr:city": "ALBANY", "addr:country": "US", "addr:postcode": "12208", "addr:state": "NY", "addr:street_address": "40 S MAIN AVE", "amenity": "post_box", "collection_times": "Mo-Sa 09:00", "nsi_id": "unitedstatespostalservice-a77078", "operator": "United States Postal Service", "operator:short": "USPS", "operator:type": "public", "operator:wikidata": "Q668687", "ref": "1220800038"}, "type": "Feature"}
{"geometry": {"coordinates": [-73.7951364, 42.66556], "type": "Point"}, "id": "nFKA2xqDXBYnw-F8-s0opIfqduQ=", "properties": {"@source_uri": "https://tools.usps.com/UspsToolsRestServices/rest/POLocator/findLocations", "@spider": "usps_collection_boxes", "addr:city": "ALBANY", "addr:country": "US", "addr:postcode": "12208", "addr:state": "NY", "addr:street_address": "51 S PINE AVE", "amenity": "post_box", "collection_times": "Mo-Sa 11:30", "nsi_id": "unitedstatespostalservice-a77078", "operator": "United States Postal Service", "operator:short": "USPS", "operator:type": "public", "operator:wikidata": "Q668687", "ref": "1220800039"}, "type": "Feature"}
{"geometry": {"coordinates": [-73.8091834, 42.659447], "type": "Point"}, "id": "unyBB9L67BHJIAencr1BQsJ2Nvk=", "properties": {"@source_uri": "https://tools.usps.com/UspsToolsRestServices/rest/POLocator/findLocations", "@spider": "usps_collection_boxes", "addr:city": "ALBANY", "addr:country": "US", "addr:postcode": "12208", "addr:state": "NY", "addr:street_address": "713 NEW SCOTLAND AVE", "amenity": "post_box", "collection_times": "Mo-Sa 09:30", "nsi_id": "unitedstatespostalservice-a77078", "operator": "United States Postal Service", "operator:short": "USPS", "operator:type": "public", "operator:wikidata": "Q668687", "ref": "1220800046"}, "type": "Feature"}
{"geometry": {"coordinates": [-73.816209, 42.656274], "type": "Point"}, "id": "8YAUuewMmEAUvYSR1TtPG2PWd7s=", "properties": {"@source_uri": "https://tools.usps.com/UspsToolsRestServices/rest/POLocator/findLocations", "@spider": "usps_collection_boxes", "addr:city": "ALBANY", "addr:country": "US", "addr:postcode": "12208", "addr:state": "NY", "addr:street_address": "820 NEW SCOTLAND AVE", "amenity": "post_box", "collection_times": "Mo-Sa 10:00", "nsi_id": "unitedstatespostalservice-a77078", "operator": "United States Postal Service", "operator:short": "USPS", "operator:type": "public", "operator:wikidata": "Q668687", "ref": "1220800048"}, "type": "Feature"}
{"geometry": {"coordinates": [-73.8118806, 42.658908], "type": "Point"}, "id": "P6vFa5SYCOL-oxSYcjlfsX8LsdA=", "properties": {"@source_uri": "https://tools.usps.com/UspsToolsRestServices/rest/POLocator/findLocations", "@spider": "usps_collection_boxes", "addr:city": "ALBANY", "addr:country": "US", "addr:postcode": "12208", "addr:state": "NY", "addr:street_address": "764 NEW SCOTLAND AVE", "amenity": "post_box", "collection_times": "Mo-Sa 11:30", "nsi_id": "unitedstatespostalservice-a77078", "operator": "United States Postal Service", "operator:short": "USPS", "operator:type": "public", "operator:wikidata": "Q668687", "ref": "1220800049"}, "type": "Feature"}
{"geometry": {"coordinates": [-73.7905107, 42.653218], "type": "Point"}, "id": "apv38Ql74UP39nDMGzFz7YAVTMw=", "properties": {"@source_uri": "https://tools.usps.com/UspsToolsRestServices/rest/POLocator/findLocations", "@spider": "usps_collection_boxes", "addr:city": "ALBANY", "addr:country": "US", "addr:postcode": "12208", "addr:state": "NY", "addr:street_address": "350 NEW SCOTLAND AVE", "amenity": "post_box", "collection_times": "Mo-Sa 10:00", "nsi_id": "unitedstatespostalservice-a77078", "operator": "United States Postal Service", "operator:short": "USPS", "operator:type": "public", "operator:wikidata": "Q668687", "ref": "1220800050"}, "type": "Feature"}
{"geometry": {"coordinates": [-73.7946765, 42.654717], "type": "Point"}, "id": "AOnVH0kBXCDUfaJ3eZuDaqVAero=", "properties": {"@source_uri": "https://tools.usps.com/UspsToolsRestServices/rest/POLocator/findLocations", "@spider": "usps_collection_boxes", "addr:city": "ALBANY", "addr:country": "US", "addr:postcode": "12208", "addr:state": "NY", "addr:street_address": "425 NEW SCOTLAND AVE", "amenity": "post_box", "collection_times": "Mo-Sa 10:00", "nsi_id": "unitedstatespostalservice-a77078", "operator": "United States Postal Service", "operator:short": "USPS", "operator:type": "public", "operator:wikidata": "Q668687", "ref": "1220800053"}, "type": "Feature"}
{"geometry": {"coordinates": [-73.7829211, 42.65298], "type": "Point"}, "id": "yLFIm-wQ1H1EC-neJ4rA_2rry1Y=", "properties": {"@source_uri": "https://tools.usps.com/UspsToolsRestServices/rest/POLocator/findLocations", "@spider": "usps_collection_boxes", "addr:city": "ALBANY", "addr:country": "US", "addr:postcode": "12208", "addr:state": "NY", "addr:street_address": "161 S LAKE AVE", "amenity": "post_box", "collection_times": "Mo-Sa 09:30", "nsi_id": "unitedstatespostalservice-a77078", "operator": "United States Postal Service", "operator:short": "USPS", "operator:type": "public", "operator:wikidata": "Q668687", "ref": "1220800054"}, "type": "Feature"}
{"geometry": {"coordinates": [-73.8414095, 42.648741], "type": "Point"}, "id": "7Ibenjr8ikim_ZYbMG9gazTMDAo=", "properties": {"@source_uri": "https://tools.usps.com/UspsToolsRestServices/rest/POLocator/findLocations", "@spider": "usps_collection_boxes", "addr:city": "ALBANY", "addr:country": "US", "addr:postcode": "12208", "addr:state": "NY", "addr:street_address": "1146 NEW SCOTLAND RD", "amenity": "post_box", "collection_times": "Mo-Sa 11:30", "nsi_id": "unitedstatespostalservice-a77078", "operator": "United States Postal Service", "operator:short": "USPS", "operator:type": "public", "operator:wikidata": "Q668687", "ref": "1220800055"}, "type": "Feature"}
{"geometry": {"coordinates": [-73.8037504717, 42.6578233844], "type": "Point"}, "id": "ftM8BdjQzWlsntE4nMtghqAXO5U=", "properties": {"@source_uri": "https://tools.usps.com/UspsToolsRestServices/rest/POLocator/findLocations", "@spider": "usps_collection_boxes", "addr:city": "ALBANY", "addr:country": "US", "addr:postcode": "12208", "addr:state": "NY", "addr:street_address": "315 S MANNING BLVD", "amenity": "post_box", "collection_times": "Mo-Sa 14:30", "note": "ON 12/24 AND 12/31, THIS BOX MAY BE COLLECTED AS EARLY AS 12 NOON.", "nsi_id": "unitedstatespostalservice-a77078", "operator": "United States Postal Service", "operator:short": "USPS", "operator:type": "public", "operator:wikidata": "Q668687", "ref": "1220800058"}, "type": "Feature"}
{"geometry": {"coordinates": [-73.775321, 42.653708], "type": "Point"}, "id": "cTL3pAb9f5tXYRdXKzEbXRz_T30=", "properties": {"@source_uri": "https://tools.usps.com/UspsToolsRestServices/rest/POLocator/findLocations", "@spider": "usps_collection_boxes", "addr:city": "ALBANY", "addr:country": "US", "addr:postcode": "12208", "addr:state": "NY", "addr:street_address": "391 MYRTLE AVE", "amenity": "post_box", "collection_times": "Mo-Sa 10:00", "nsi_id": "unitedstatespostalservice-a77078", "operator": "United States Postal Service", "operator:short": "USPS", "operator:type": "public", "operator:wikidata": "Q668687", "ref": "1220800066"}, "type": "Feature"}
{"geometry": {"coordinates": [-73.8180768, 42.654936], "type": "Point"}, "id": "1oDyhjPHQ6dKgZ5J3fqv2XReVvg=", "properties": {"@source_uri": "https://tools.usps.com/UspsToolsRestServices/rest/POLocator/findLocations", "@spider": "usps_collection_boxes", "addr:city": "ALBANY", "addr:country": "US", "addr:postcode": "12208", "addr:state": "NY", "addr:street_address": "875 NEW SCOTLAND AVE", "amenity": "post_box", "collection_times": "Mo-Sa 10:00", "nsi_id": "unitedstatespostalservice-a77078", "operator": "United States Postal Service", "operator:short": "USPS", "operator:type": "public", "operator:wikidata": "Q668687", "ref": "1220800068"}, "type": "Feature"}
{"geometry": {"coordinates": [-73.8264811, 42.652445], "type": "Point"}, "id": "Oz2rWq1NTG4z__2KZp07neWWaQ0=", "properties": {"@source_uri": "https://tools.usps.com/UspsToolsRestServices/rest/POLocator/findLocations", "@spider": "usps_collection_boxes", "addr:city": "ALBANY", "addr:country": "US", "addr:postcode": "12208", "addr:state": "NY", "addr:street_address": "979 NEW SCOTLAND RD", "amenity": "post_box", "collection_times": "Mo-Sa 11:30", "nsi_id": "unitedstatespostalservice-a77078", "operator": "United States Postal Service", "operator:short": "USPS", "operator:type": "public", "operator:wikidata": "Q668687", "ref": "1220800072"}, "type": "Feature"}
{"geometry": {"coordinates": [-73.7727999, 42.650186], "type": "Point"}, "id": "GYlAC8uvkp6jE-fMC5xAAo2hNHA=", "properties": {"@source_uri": "https://tools.usps.com/UspsToolsRestServices/rest/POLocator/findLocations", "@spider": "usps_collection_boxes", "addr:city": "ALBANY", "addr:country": "US", "addr:postcode": "12208", "addr:state": "NY", "addr:street_address": "113 HOLLAND AVE", "amenity": "post_box", "collection_times": "Mo-Fr 14:50", "note": "ON 12/24 AND 12/31, THIS BOX MAY BE COLLECTED AS EARLY AS 12 NOON.", "nsi_id": "unitedstatespostalservice-a77078", "operator": "United States Postal Service", "operator:short": "USPS", "operator:type": "public", "operator:wikidata": "Q668687", "ref": "1220800073"}, "type": "Feature"}
{"geometry": {"coordinates": [-73.7798542, 42.654172], "type": "Point"}, "id": "SNCJQUvlHiJGvv5qvvaBONM2d-8=", "properties": {"@source_uri": "https://tools.usps.com/UspsToolsRestServices/rest/POLocator/findLocations", "@spider": "usps_collection_boxes", "addr:city": "ALBANY", "addr:country": "US", "addr:postcode": "12208", "addr:state": "NY", "addr:street_address": "75 NEW SCOTLAND AVE", "amenity": "post_box", "collection_times": "Mo-Fr 14:50", "note": "ON 12/24 AND 12/31, THIS BOX MAY BE COLLECTED AS EARLY AS 12 NOON.", "nsi_id": "unitedstatespostalservice-a77078", "operator": "United States Postal Service", "operator:short": "USPS", "operator:type": "public", "operator:wikidata": "Q668687", "ref": "1220800076"}, "type": "Feature"}
{"geometry": {"coordinates": [-73.7782018, 42.651], "type": "Point"}, "id": "do-4QsF0yfjjoGYv0meMg37dUSg=", "properties": {"@source_uri": "https://tools.usps.com/UspsToolsRestServices/rest/POLocator/findLocations", "@spider": "usps_collection_boxes", "addr:city": "ALBANY", "addr:country": "US", "addr:postcode": "12208", "addr:state": "NY", "addr:street_address": "106 NEW SCOTLAND AVE", "amenity": "post_box", "collection_times": "Mo-Fr 14:30", "note": "ON 12/24 AND 12/31, THIS BOX MAY BE COLLECTED AS EARLY AS 12 NOON.", "nsi_id": "unitedstatespostalservice-a77078", "operator": "United States Postal Service", "operator:short": "USPS", "operator:type": "public", "operator:wikidata": "Q668687", "ref": "1220800079"}, "type": "Feature"}
{"geometry": {"coordinates": [-73.794423, 42.657435], "type": "Point"}, "id": "nW4zjNBD99l5do1I6dVuChPgXag=", "properties": {"@source_uri": "https://tools.usps.com/UspsToolsRestServices/rest/POLocator/findLocations", "@spider": "usps_collection_boxes", "addr:city": "ALBANY", "addr:country": "US", "addr:postcode": "12208", "addr:state": "NY", "addr:street_address": "563 NEW SCOTLAND AVE STE 2", "amenity": "post_box", "collection_times": "Mo-Fr 17:00; Sa 15:00", "note": "ON 12/24 AND 12/31, THIS BOX MAY BE COLLECTED AS EARLY AS 12 NOON.", "nsi_id": "unitedstatespostalservice-a77078", "operator": "United States Postal Service", "operator:short": "USPS", "operator:type": "public", "operator:wikidata": "Q668687", "ref": "1220800081"}, "type": "Feature"}
{"geometry": {"coordinates": [-73.7891586, 42.664652], "type": "Point"}, "id": "bGO3GKoXUI8e1z395MBWU5EkVa0=", "properties": {"@source_uri": "https://tools.usps.com/UspsToolsRestServices/rest/POLocator/findLocations", "@spider": "usps_collection_boxes", "addr:city": "ALBANY", "addr:country": "US", "addr:postcode": "12208", "addr:state": "NY", "addr:street_address": "1026 MADISON AVE", "amenity": "post_box", "collection_times": "Mo-Sa 09:30", "nsi_id": "unitedstatespostalservice-a77078", "operator": "United States Postal Service", "operator:short": "USPS", "operator:type": "public", "operator:wikidata": "Q668687", "ref": "1220800083"}, "type": "Feature"}
{"geometry": {"coordinates": [-73.7927159, 42.665897], "type": "Point"}, "id": "NwOt6tmINUhDGjaKijxTvBvnPYk=", "properties": {"@source_uri": "https://tools.usps.com/UspsToolsRestServices/rest/POLocator/findLocations", "@spider": "usps_collection_boxes", "addr:city": "ALBANY", "addr:country": "US", "addr:postcode": "12208", "addr:state": "NY", "addr:street_address": "5 S ALLEN ST", "amenity": "post_box", "collection_times": "Mo-Sa 10:00", "nsi_id": "unitedstatespostalservice-a77078", "operator": "United States Postal Service", "operator:short": "USPS", "operator:type": "public", "operator:wikidata": "Q668687", "ref": "1220800084"}, "type": "Feature"}
{"geometry": {"coordinates": [-73.794423, 42.657435], "type": "Point"}, "id": "DMCaHzdHHnkd7TpAVb_JXFJd-0s=", "properties": {"@source_uri": "https://tools.usps.com/UspsToolsRestServices/rest/POLocator/findLocations", "@spider": "usps_collection_boxes", "addr:city": "ALBANY", "addr:country": "US", "addr:postcode": "12208", "addr:state": "NY", "addr:street_address": "563 NEW SCOTLAND AVE STE 2", "amenity": "post_box", "collection_times": "Mo-Fr 17:00; Sa 12:00", "indoor": "yes", "note": "ON 12/24 AND 12/31, THIS BOX MAY BE COLLECTED AS EARLY AS 12 NOON.", "nsi_id": "unitedstatespostalservice-a77078", "operator": "United States Postal Service", "operator:short": "USPS", "operator:type": "public", "operator:wikidata": "Q668687", "ref": "1220800086"}, "type": "Feature"}
{"geometry": {"coordinates": [-73.794423, 42.657435], "type": "Point"}, "id": "KH4tIqmMmelJUp153zb5kCwFjAg=", "properties": {"@source_uri": "https://tools.usps.com/UspsToolsRestServices/rest/POLocator/findLocations", "@spider": "usps_collection_boxes", "addr:city": "ALBANY", "addr:country": "US", "addr:postcode": "12208", "addr:state": "NY", "addr:street_address": "563 NEW SCOTLAND AVE STE 2", "amenity": "post_box", "collection_times": "Mo-Fr 17:00; Sa 12:00", "indoor": "yes", "note": "ON 12/24 AND 12/31, THIS BOX MAY BE COLLECTED AS EARLY AS 12 NOON.", "nsi_id": "unitedstatespostalservice-a77078", "operator": "United States Postal Service", "operator:short": "USPS", "operator:type": "public", "operator:wikidata": "Q668687", "ref": "1220800090"}, "type": "Feature"}
{"geometry": {"coordinates": [-73.7714068, 42.645443], "type": "Point"}, "id": "dy9q0Q1Wjz99ahrBWlFeG5aKMXI=", "properties": {"@source_uri": "https://tools.usps.com/UspsToolsRestServices/rest/POLocator/findLocations", "@spider": "usps_collection_boxes", "addr:city": "ALBANY", "addr:country": "US", "addr:postcode": "12209", "addr:state": "NY", "addr:street_address": "300 MORTON AVE", "amenity": "post_box", "collection_times": "Mo-Sa 10:30", "nsi_id": "unitedstatespostalservice-a77078", "operator": "United States Postal Service", "operator:short": "USPS", "operator:type": "public", "operator:wikidata": "Q668687", "ref": "1220900002"}, "type": "Feature"}
{"geometry": {"coordinates": [-73.7753159, 42.643771], "type": "Point"}, "id": "YSe-anZd79hEropnHYn5KqVEQhc=", "properties": {"@source_uri": "https://tools.usps.com/UspsToolsRestServices/rest/POLocator/findLocations", "@spider": "usps_collection_boxes", "addr:city": "ALBANY", "addr:country": "US", "addr:postcode": "12209", "addr:state": "NY", "addr:street_address": "249 DELAWARE AVE", "amenity": "post_box", "collection_times": "Mo-Sa 11:30", "nsi_id": "unitedstatespostalservice-a77078", "operator": "United States Postal Service", "operator:short": "USPS", "operator:type": "public", "operator:wikidata": "Q668687", "ref": "1220900003"}, "type": "Feature"}
{"geometry": {"coordinates": [-73.779056, 42.636764], "type": "Point"}, "id": "hxYED9ol88ervg6qC0saUHcV60c=", "properties": {"@source_uri": "https://tools.usps.com/UspsToolsRestServices/rest/POLocator/findLocations", "@spider": "usps_collection_boxes", "addr:city": "ALBANY", "addr:country": "US", "addr:postcode": "12209", "addr:state": "NY", "addr:street_address": "342 LEEDALE ST", "amenity": "post_box", "collection_times": "Mo-Sa 09:30", "nsi_id": "unitedstatespostalservice-a77078", "operator": "United States Postal Service", "operator:short": "USPS", "operator:type": "public", "operator:wikidata": "Q668687", "ref": "1220900005"}, "type": "Feature"}
{"geometry": {"coordinates": [-73.782577, 42.636589], "type": "Point"}, "id": "VdJ5PaW8MQqQKMRkAR8N_aekmpA=", "properties": {"@source_uri": "https://tools.usps.com/UspsToolsRestServices/rest/POLocator/findLocations", "@spider": "usps_collection_boxes", "addr:city": "ALBANY", "addr:country": "US", "addr:postcode": "12209", "addr:state": "NY", "addr:street_address": "104 SOUTHERN BLVD", "amenity": "post_box", "collection_times": "Mo-Sa 11:30", "nsi_id": "unitedstatespostalservice-a77078", "operator": "United States Postal Service", "operator:short": "USPS", "operator:type": "public", "operator:wikidata": "Q668687", "ref": "1220900006"}, "type": "Feature"}
{"geometry": {"coordinates": [-73.7776139, 42.639135], "type": "Point"}, "id": "5J_ROWeYDwo7gRHFpL1Pk6V0uqo=", "properties": {"@source_uri": "https://tools.usps.com/UspsToolsRestServices/rest/POLocator/findLocations", "@spider": "usps_collection_boxes", "addr:city": "ALBANY", "addr:country": "US", "addr:postcode": "12209", "addr:state": "NY", "addr:street_address": "327 2ND AVE", "amenity": "post_box", "collection_times": "Mo-Sa 10:15", "nsi_id": "unitedstatespostalservice-a77078", "operator": "United States Postal Service", "operator:short": "USPS", "operator:type": "public", "operator:wikidata": "Q668687", "ref": "1220900007"}, "type": "Feature"}
{"geometry": {"coordinates": [-73.7798, 42.640535], "type": "Point"}, "id": "eWNzt86pjlL5j2LTxOSQ-Fbshjs=", "properties": {"@source_uri": "https://tools.usps.com/UspsToolsRestServices/rest/POLocator/findLocations", "@spider": "usps_collection_boxes", "addr:city": "ALBANY", "addr:country": "US", "addr:postcode": "12209", "addr:state": "NY", "addr:street_address": "424 2ND AVE", "amenity": "post_box", "collection_times": "Mo-Sa 11:30", "nsi_id": "unitedstatespostalservice-a77078", "operator": "United States Postal Service", "operator:short": "USPS", "operator:type": "public", "operator:wikidata": "Q668687", "ref": "1220900008"}, "type": "Feature"}
{"geometry": {"coordinates": [-73.7798, 42.640535], "type": "Point"}, "id": "LFQp4Hw_iNBbGNMf85h0VNnGJDg=", "properties": {"@source_uri": "https://tools.usps.com/UspsToolsRestServices/rest/POLocator/findLocations", "@spider": "usps_collection_boxes", "addr:city": "ALBANY", "addr:country": "US", "addr:postcode": "12209", "addr:state": "NY", "addr:street_address": "2 MATILDA ST", "amenity": "post_box", "collection_times": "Mo-Sa 09:30", "nsi_id": "unitedstatespostalservice-a77078", "operator": "United States Postal Service", "operator:short": "USPS", "operator:type": "public", "operator:wikidata": "Q668687", "ref": "1220900009"}, "type": "Feature"}
{"geometry": {"coordinates": [-73.7976704, 42.646103], "type": "Point"}, "id": "LKFLUubC5jwfWO5_okTsnqwav9c=", "properties": {"@source_uri": "https://tools.usps.com/UspsToolsRestServices/rest/POLocator/findLocations", "@spider": "usps_collection_boxes", "addr:city": "ALBANY", "addr:country": "US", "addr:postcode": "12209", "addr:state": "NY", "addr:street_address": "230 WHITEHALL RD", "amenity": "post_box", "collection_times": "Mo-Sa 11:30", "nsi_id": "unitedstatespostalservice-a77078", "operator": "United States Postal Service", "operator:short": "USPS", "operator:type": "public", "operator:wikidata": "Q668687", "ref": "1220900010"}, "type": "Feature"}
{"geometry": {"coordinates": [-73.7923749, 42.64399], "type": "Point"}, "id": "759gGQVNSWYgYgHtvldGL6qjYsQ=", "properties": {"@source_uri": "https://tools.usps.com/UspsToolsRestServices/rest/POLocator/findLocations", "@spider": "usps_collection_boxes", "addr:city": "ALBANY", "addr:country": "US", "addr:postcode": "12209", "addr:state": "NY", "addr:street_address": "171 WHITEHALL RD", "amenity": "post_box", "collection_times": "Mo-Sa 10:30", "nsi_id": "unitedstatespostalservice-a77078", "operator": "United States Postal Service", "operator:short": "USPS", "operator:type": "public", "operator:wikidata": "Q668687", "ref": "1220900011"}, "type": "Feature"}
{"geometry": {"coordinates": [-73.804231, 42.647675], "type": "Point"}, "id": "pykdez3_be_jyrBkuHD_FODAfvc=", "properties": {"@source_uri": "https://tools.usps.com/UspsToolsRestServices/rest/POLocator/findLocations", "@spider": "usps_collection_boxes", "addr:city": "ALBANY", "addr:country": "US", "addr:postcode": "12209", "addr:state": "NY", "addr:street_address": "6 KENSINGTON PL", "amenity": "post_box", "collection_times": "Mo-Sa 09:45", "nsi_id": "unitedstatespostalservice-a77078", "operator": "United States Postal Service", "operator:short": "USPS", "operator:type": "public", "operator:wikidata": "Q668687", "ref": "1220900012"}, "type": "Feature"}
{"geometry": {"coordinates": [-73.8017455, 42.647583], "type": "Point"}, "id": "3BGxCgsVAVEo1ac1Pn20fxGfzlw=", "properties": {"@source_uri": "https://tools.usps.com/UspsToolsRestServices/rest/POLocator/findLocations", "@spider": "usps_collection_boxes", "addr:city": "ALBANY", "addr:country": "US", "addr:postcode": "12209", "addr:state": "NY", "addr:street_address": "289 WHITEHALL RD", "amenity": "post_box", "collection_times": "Mo-Sa 10:00", "nsi_id": "unitedstatespostalservice-a77078", "operator": "United States Postal Service", "operator:short": "USPS", "operator:type": "public", "operator:wikidata": "Q668687", "ref": "1220900013"}, "type": "Feature"}
{"geometry": {"coordinates": [-73.7868631, 42.639638], "type": "Point"}, "id": "kGM4VyZyP7RaJ3s-iz3RTFz0miY=", "properties": {"@source_uri": "https://tools.usps.com/UspsToolsRestServices/rest/POLocator/findLocations", "@spider": "usps_collection_boxes", "addr:city": "ALBANY", "addr:country": "US", "addr:postcode": "12209", "addr:state": "NY", "addr:street_address": "485 DELAWARE AVE", "amenity": "post_box", "collection_times": "Mo-Sa 09:30", "nsi_id": "unitedstatespostalservice-a77078", "operator": "United States Postal Service", "operator:short": "USPS", "operator:type": "public", "operator:wikidata": "Q668687", "ref": "1220900014"}, "type": "Feature"}
{"geometry": {"coordinates": [-73.77694313, 42.643046261], "type": "Point"}, "id": "h6mUTmVosawXoWNz6Nu5RTkiwKs=", "properties": {"@source_uri": "https://tools.usps.com/UspsToolsRestServices/rest/POLocator/findLocations", "@spider": "usps_collection_boxes", "addr:city": "ALBANY", "addr:country": "US", "addr:postcode": "12209", "addr:state": "NY", "addr:street_address": "295 DELAWARE AVE", "amenity": "post_box", "collection_times": "Mo-Sa 15:00", "note": "ON 12/24 AND 12/31, THIS BOX MAY BE COLLECTED AS EARLY AS 12 NOON.", "nsi_id": "unitedstatespostalservice-a77078", "operator": "United States Postal Service", "operator:short": "USPS", "operator:type": "public", "operator:wikidata": "Q668687", "ref": "1220900018"}, "type": "Feature"}
{"geometry": {"coordinates": [-73.7892778, 42.638274], "type": "Point"}, "id": "dyemAHtS4xjHVNxJehEg6yzQ9QI=", "properties": {"@source_uri": "https://tools.usps.com/UspsToolsRestServices/rest/POLocator/findLocations", "@spider": "usps_collection_boxes", "addr:city": "ALBANY", "addr:country": "US", "addr:postcode": "12209", "addr:state": "NY", "addr:street_address": "560 DELAWARE AVE", "amenity": "post_box", "collection_times": "Mo-Sa 11:30", "nsi_id": "unitedstatespostalservice-a77078", "operator": "United States Postal Service", "operator:short": "USPS", "operator:type": "public", "operator:wikidata": "Q668687", "ref": "1220900023"}, "type": "Feature"}
{"geometry": {"coordinates": [-73.7452929, 42.660817], "type": "Point"}, "id": "gaJBtn8pSpU3QMIF1V7j0qhAIV8=", "properties": {"@source_uri": "https://tools.usps.com/UspsToolsRestServices/rest/POLocator/findLocations", "@spider": "usps_collection_boxes", "addr:city": "ALBANY", "addr:country": "US", "addr:postcode": "12210", "addr:state": "NY", "addr:street_address": "900 BROADWAY", "amenity": "post_box", "collection_times": "Mo-Sa 09:30", "nsi_id": "unitedstatespostalservice-a77078", "operator": "United States Postal Service", "operator:short": "USPS", "operator:type": "public", "operator:wikidata": "Q668687", "ref": "1221000015"}, "type": "Feature"}
{"geometry": {"coordinates": [-73.757895, 42.656995], "type": "Point"}, "id": "8z1gRK0tBl1lhydO_BquSdpujsE=", "properties": {"@source_uri": "https://tools.usps.com/UspsToolsRestServices/rest/POLocator/findLocations", "@spider": "usps_collection_boxes", "addr:city": "ALBANY", "addr:country": "US", "addr:postcode": "12210", "addr:state": "NY", "addr:street_address": "289 STATE ST", "amenity": "post_box", "collection_times": "Mo-Fr 15:10; Sa 09:00", "note": "ON 12/24 AND 12/31, THIS BOX MAY BE COLLECTED AS EARLY AS 12 NOON.", "nsi_id": "unitedstatespostalservice-a77078", "operator": "United States Postal Service", "operator:short": "USPS", "operator:type": "public", "operator:wikidata": "Q668687", "ref": "1221000017"}, "type": "Feature"}
{"geometry": {"coordinates": [-73.7652465, 42.654787], "type": "Point"}, "id": "9at30d1h0jFHd-Zo6BYSjMMK22g=", "properties": {"@source_uri": "https://tools.usps.com/UspsToolsRestServices/rest/POLocator/findLocations", "@spider": "usps_collection_boxes", "addr:city": "ALBANY", "addr:country": "US", "addr:postcode": "12210", "addr:state": "NY", "addr:street_address": "242 LARK ST", "amenity": "post_box", "collection_times": "Mo-Sa 09:00", "nsi_id": "unitedstatespostalservice-a77078", "operator": "United States Postal Service", "operator:short": "USPS", "operator:type": "public", "operator:wikidata": "Q668687", "ref": "1221000019"}, "type": "Feature"}
{"geometry": {"coordinates": [-73.7661696, 42.653778], "type": "Point"}, "id": "AzQ3Gbf0EU_YqVEAjndhmLTvOWs=", "properties": {"@source_uri": "https://tools.usps.com/UspsToolsRestServices/rest/POLocator/findLocations", "@spider": "usps_collection_boxes", "addr:city": "ALBANY", "addr:country": "US", "addr:postcode": "12210", "addr:state": "NY", "addr:street_address": "351 HUDSON AVE", "amenity": "post_box", "collection_times": "Mo-Sa 09:00", "nsi_id": "unitedstatespostalservice-a77078", "operator": "United States Postal Service", "operator:short": "USPS", "operator:type": "public", "operator:wikidata": "Q668687", "ref": "1221000020"}, "type": "Feature"}
{"geometry": {"coordinates": [-73.7673486, 42.654532], "type": "Point"}, "id": "e4DVrOGyFTyueBbRwmjXcpYKMLQ=", "properties": {"@source_uri": "https://tools.usps.com/UspsToolsRestServices/rest/POLocator/findLocations", "@spider": "usps_collection_boxes", "addr:city": "ALBANY", "addr:country": "US", "addr:postcode": "12210", "addr:state": "NY", "addr:street_address": "72 WILLETT ST", "amenity": "post_box", "collection_times": "Mo-Sa 10:00", "nsi_id": "unitedstatespostalservice-a77078", "operator": "United States Postal Service", "operator:short": "USPS", "operator:type": "public", "operator:wikidata": "Q668687", "ref": "1221000021"}, "type": "Feature"}
{"geometry": {"coordinates": [-73.7643471, 42.655726], "type": "Point"}, "id": "SJNEpud2hvl3gMMKiomi_DziUok=", "properties": {"@source_uri": "https://tools.usps.com/UspsToolsRestServices/rest/POLocator/findLocations", "@spider": "usps_collection_boxes", "addr:city": "ALBANY", "addr:country": "US", "addr:postcode": "12210", "addr:state": "NY", "addr:street_address": "348 STATE ST", "amenity": "post_box", "collection_times": "Mo-Fr 14:40; Sa 09:00", "note": "ON 12/24 AND 12/31, THIS BOX MAY BE COLLECTED AS EARLY AS 12 NOON.", "nsi_id": "unitedstatespostalservice-a77078", "operator": "United States Postal Service", "operator:short": "USPS", "operator:type": "public", "operator:wikidata": "Q668687", "ref": "1221000023"}, "type": "Feature"}
{"geometry": {"coordinates": [-73.7622282, 42.651087], "type": "Point"}, "id": "j16lY5UWQRoyqTWLN5MMrMlYxIA=", "properties": {"@source_uri": "https://tools.usps.com/UspsToolsRestServices/rest/POLocator/findLocations", "@spider": "usps_collection_boxes", "addr:city": "ALBANY", "addr:country": "US", "addr:postcode": "12210", "addr:state": "NY", "addr:street_address": "1 S SWAN ST", "amenity": "post_box", "collection_times": "Mo-Fr 15:00; Sa 09:00", "note": "ON 12/24 AND 12/31, THIS BOX MAY BE COLLECTED AS EARLY AS 12 NOON.", "nsi_id": "unitedstatespostalservice-a77078", "operator": "United States Postal Service", "operator:short": "USPS", "operator:type": "public", "operator:wikidata": "Q668687", "ref": "1221000026"}, "type": "Feature"}
{"geometry": {"coordinates": [-73.7592693, 42.663164], "type": "Point"}, "id": "dpl_wkclNekohHY0OUQlIr67IY0=", "properties": {"@source_uri": "https://tools.usps.com/UspsToolsRestServices/rest/POLocator/findLocations", "@spider": "usps_collection_boxes", "addr:city": "ALBANY", "addr:country": "US", "addr:postcode": "12210", "addr:state": "NY", "addr:street_address": "200 HENRY JOHNSON BLVD", "amenity": "post_box", "collection_times": "Mo-Fr 11:00; Sa 11:30", "nsi_id": "unitedstatespostalservice-a77078", "operator": "United States Postal Service", "operator:short": "USPS", "operator:type": "public", "operator:wikidata": "Q668687", "ref": "1221000028"}, "type": "Feature"}
{"geometry": {"coordinates": [-73.7636427, 42.649893], "type": "Point"}, "id": "7-Ajb0_gjLkqDtDo_h2VUmzcYmE=", "properties": {"@source_uri": "https://tools.usps.com/UspsToolsRestServices/rest/POLocator/findLocations", "@spider": "usps_collection_boxes", "addr:city": "ALBANY", "addr:country": "US", "addr:postcode": "12210", "addr:state": "NY", "addr:street_address": "326 MADISON AVE", "amenity": "post_box", "collection_times": "Mo-Fr 10:00; Sa 09:00", "nsi_id": "unitedstatespostalservice-a77078", "operator": "United States Postal Service", "operator:short": "USPS", "operator:type": "public", "operator:wikidata": "Q668687", "ref": "1221000030"}, "type": "Feature"}
{"geometry": {"coordinates": [-73.7641733, 42.652517], "type": "Point"}, "id": "Le5VaZhuq9gfq6gwRl2FhlpYsMs=", "properties": {"@source_uri": "https://tools.usps.com/UspsToolsRestServices/rest/POLocator/findLocations", "@spider": "usps_collection_boxes", "addr:city": "ALBANY", "addr:country": "US", "addr:postcode": "12210", "addr:state": "NY", "addr:street_address": "296 HUDSON AVE", "amenity": "post_box", "collection_times": "Mo-Sa 09:00", "nsi_id": "unitedstatespostalservice-a77078", "operator": "United States Postal Service", "operator:short": "USPS", "operator:type": "public", "operator:wikidata": "Q668687", "ref": "1221000031"}, "type": "Feature"}
{"geometry": {"coordinates": [-73.7558626, 42.657498], "type": "Point"}, "id": "w3uAMDksE8vzSHFwLXKNiO88hPk=", "properties": {"@source_uri": "https://tools.usps.com/UspsToolsRestServices/rest/POLocator/findLocations", "@spider": "usps_collection_boxes", "addr:city": "ALBANY", "addr:country": "US", "addr:postcode": "12210", "addr:state": "NY", "addr:street_address": "156 CLINTON AVE", "amenity": "post_box", "collection_times": "Mo-Sa 09:00", "nsi_id": "unitedstatespostalservice-a77078", "operator": "United States Postal Service", "operator:short": "USPS", "operator:type": "public", "operator:wikidata": "Q668687", "ref": "1221000032"}, "type": "Feature"}
{"geometry": {"coordinates": [-73.7662196, 42.656974], "type": "Point"}, "id": "4-p7OOztmQcrBCoIAxdCpSsbsWU=", "properties": {"@source_uri": "https://tools.usps.com/UspsToolsRestServices/rest/POLocator/findLocations", "@spider": "usps_collection_boxes", "addr:city": "ALBANY", "addr:country": "US", "addr:postcode": "12210", "addr:state": "NY", "addr:street_address": "399 STATE ST", "amenity": "post_box", "collection_times": "Mo-Sa 09:00", "nsi_id": "unitedstatespostalservice-a77078", "operator": "United States Postal Service", "operator:short": "USPS", "operator:type": "public", "operator:wikidata": "Q668687", "ref": "1221000034"}, "type": "Feature"}
{"geometry": {"coordinates": [-73.7590527, 42.65439], "type": "Point"}, "id": "ag7Fpih_AqNZiAX4zqqMbD7uH-c=", "properties": {"@source_uri": "https://tools.usps.com/UspsToolsRestServices/rest/POLocator/findLocations", "@spider": "usps_collection_boxes", "addr:city": "ALBANY", "addr:country": "US", "addr:postcode": "12210", "addr:state": "NY", "addr:street_address": "99 WASHINGTON AVE", "amenity": "post_box", "collection_times": "Mo-Fr 16:30; Sa 09:30", "note": "ON 12/24 AND 12/31, THIS BOX MAY BE COLLECTED AS EARLY AS 12 NOON.", "nsi_id": "unitedstatespostalservice-a77078", "operator": "United States Postal Service", "operator:short": "USPS", "operator:type": "public", "operator:wikidata": "Q668687", "ref": "1221000035"}, "type": "Feature"}
{"geometry": {"coordinates": [-73.7607172139, 42.6553122962], "type": "Point"}, "id": "RJMZG-kTXIA2j4apFlAx5aiPYxo=", "properties": {"@source_uri": "https://tools.usps.com/UspsToolsRestServices/rest/POLocator/findLocations", "@spider": "usps_collection_boxes", "addr:city": "ALBANY", "addr:country": "US", "addr:postcode": "12210", "addr:state": "NY", "addr:street_address": "125 WASHINGTON AVE", "amenity": "post_box", "collection_times": "Mo-Fr 16:45; Sa 09:00", "note": "ON 12/24 AND 12/31, THIS BOX MAY BE COLLECTED AS EARLY AS 12 NOON.", "nsi_id": "unitedstatespostalservice-a77078", "operator": "United States Postal Service", "operator:short": "USPS", "operator:type": "public", "operator:wikidata": "Q668687", "ref": "1221000038"}, "type": "Feature"}
{"geometry": {"coordinates": [-73.7634254, 42.656555], "type": "Point"}, "id": "KsahfqgnjxgL6ZMzQEiCeTrfNuM=", "properties": {"@source_uri": "https://tools.usps.com/UspsToolsRestServices/rest/POLocator/findLocations", "@spider": "usps_collection_boxes", "addr:city": "ALBANY", "addr:country": "US", "addr:postcode": "12210", "addr:state": "NY", "addr:street_address": "200 WASHINGTON AVE", "amenity": "post_box", "collection_times": "Mo-Fr 14:45; Sa 09:00", "note": "ON 12/24 AND 12/31, THIS BOX MAY BE COLLECTED AS EARLY AS 12 NOON.", "nsi_id": "unitedstatespostalservice-a77078", "operator": "United States Postal Service", "operator:short": "USPS", "operator:type": "public", "operator:wikidata": "Q668687", "ref": "1221000039"}, "type": "Feature"}
{"geometry": {"coordinates": [-73.7602209, 42.654922], "type": "Point"}, "id": "IKztdzuApj9F8J1X0d5dmnwrWoM=", "properties": {"@source_uri": "https://tools.usps.com/UspsToolsRestServices/rest/POLocator/findLocations", "@spider": "usps_collection_boxes", "addr:city": "ALBANY", "addr:country": "US", "addr:postcode": "12210", "addr:state": "NY", "addr:street_address": "111 WASHINGTON AVE", "amenity": "post_box", "collection_times": "Mo-Fr 16:35", "note": "ON 12/24 AND 12/31, THIS BOX MAY BE COLLECTED AS EARLY AS 12 NOON.", "nsi_id": "unitedstatespostalservice-a77078", "operator": "United States Postal Service", "operator:short": "USPS", "operator:type": "public", "operator:wikidata": "Q668687", "ref": "1221000042"}, "type": "Feature"}
{"geometry": {"coordinates": [-73.7601057, 42.653434], "type": "Point"}, "id": "Q-xhcWeVm0kjVubfaAW9m2mG8RI=", "properties": {"@source_uri": "https://tools.usps.com/UspsToolsRestServices/rest/POLocator/findLocations", "@spider": "usps_collection_boxes", "addr:city": "ALBANY", "addr:country": "US", "addr:postcode": "12210", "addr:state": "NY", "addr:street_address": "244 STATE ST", "amenity": "post_box", "collection_times": "Mo-Fr 15:15; Sa 09:00", "note": "ON 12/24 AND 12/31, THIS BOX MAY BE COLLECTED AS EARLY AS 12 NOON.", "nsi_id": "unitedstatespostalservice-a77078", "operator": "United States Postal Service", "operator:short": "USPS", "operator:type": "public", "operator:wikidata": "Q668687", "ref": "1221000084"}, "type": "Feature"}
{"geometry": {"coordinates": [-73.759754, 42.653233], "type": "Point"}, "id": "jtZbmeITFCVqHm3V38xbg7RTt4o=", "properties": {"@source_uri": "https://tools.usps.com/UspsToolsRestServices/rest/POLocator/findLocations", "@spider": "usps_collection_boxes", "addr:city": "ALBANY", "addr:country": "US", "addr:postcode": "12210", "addr:state": "NY", "addr:street_address": "240 STATE ST", "amenity": "post_box", "collection_times": "Mo-Fr 16:45", "indoor": "yes", "note": "ON 12/24 AND 12/31, THIS BOX MAY BE COLLECTED AS EARLY AS 12 NOON.", "nsi_id": "unitedstatespostalservice-a77078", "operator": "United States Postal Service", "operator:short": "USPS", "operator:type": "public", "operator:wikidata": "Q668687", "ref": "1221000089"}, "type": "Feature"}
{"geometry": {"coordinates": [-73.767527, 42.652394], "type": "Point"}, "id": "NeqMrcSR9Pa6kG28ui7C1c8Pe0I=", "properties": {"@source_uri": "https://tools.usps.com/UspsToolsRestServices/rest/POLocator/findLocations", "@spider": "usps_collection_boxes", "addr:city": "ALBANY", "addr:country": "US", "addr:postcode": "12210", "addr:state": "NY", "addr:street_address": "425 MADISON AVE", "amenity": "post_box", "collection_times": "Mo-Sa 09:00", "nsi_id": "unitedstatespostalservice-a77078", "operator": "United States Postal Service", "operator:short": "USPS", "operator:type": "public", "operator:wikidata": "Q668687", "ref": "1221000090"}, "type": "Feature"}
{"geometry": {"coordinates": [-73.75979374, 42.653202005], "type": "Point"}, "id": "NNX9M5ToikIlNvml5OHC4IPAlkI=", "properties": {"@source_uri": "https://tools.usps.com/UspsToolsRestServices/rest/POLocator/findLocations", "@spider": "usps_collection_boxes", "addr:city": "ALBANY", "addr:country": "US", "addr:postcode": "12210", "addr:state": "NY", "addr:street_address": "240 STATE ST", "amenity": "post_box", "collection_times": "Mo-Fr 16:45", "indoor": "yes", "note": "ON 12/24 AND 12/31, THIS BOX MAY BE COLLECTED AS EARLY AS 12 NOON.", "nsi_id": "unitedstatespostalservice-a77078", "operator": "United States Postal Service", "operator:short": "USPS", "operator:type": "public", "operator:wikidata": "Q668687", "ref": "1221000091"}, "type": "Feature"}
{"geometry": {"coordinates": [-73.777893965, 42.7075869696], "type": "Point"}, "id": "3B8oQcjWfjF4DgvFZ9HTHk8V-lQ=", "properties": {"@source_uri": "https://tools.usps.com/UspsToolsRestServices/rest/POLocator/findLocations", "@spider": "usps_collection_boxes", "addr:city": "ALBANY", "addr:country": "US", "addr:postcode": "12211", "addr:state": "NY", "addr:street_address": "475 ALBANY SHAKER RD", "amenity": "post_box", "collection_times": "Mo-Fr 17:45; Sa 14:30", "note": "ON 12/24 AND 12/31, THIS BOX MAY BE COLLECTED AS EARLY AS 12 NOON.", "nsi_id": "unitedstatespostalservice-a77078", "operator": "United States Postal Service", "operator:short": "USPS", "operator:type": "public", "operator:wikidata": "Q668687", "ref": "1221100001"}, "type": "Feature"}
{"geometry": {"coordinates": [-73.7933705, 42.727177], "type": "Point"}, "id": "HgMBjJmYy5mPOB_ZRlMvJLNFC5s=", "properties": {"@source_uri": "https://tools.usps.com/UspsToolsRestServices/rest/POLocator/findLocations", "@spider": "usps_collection_boxes", "addr:city": "ALBANY", "addr:country": "US", "addr:postcode": "12211", "addr:state": "NY", "addr:street_address": "645 ALBANY SHAKER RD", "amenity": "post_box", "collection_times": "Mo-Fr 15:30", "note": "ON 12/24 AND 12/31, THIS BOX MAY BE COLLECTED AS EARLY AS 12 NOON.", "nsi_id": "unitedstatespostalservice-a77078", "operator": "United States Postal Service", "operator:short": "USPS", "operator:type": "public", "operator:wikidata": "Q668687", "ref": "1221100003"}, "type": "Feature"}
{"geometry": {"coordinates": [-73.7643758, 42.680368], "type": "Point"}, "id": "K-6Yf4O-skW2LtcANbRyATGyDLk=", "properties": {"@source_uri": "https://tools.usps.com/UspsToolsRestServices/rest/POLocator/findLocations", "@spider": "usps_collection_boxes", "addr:city": "ALBANY", "addr:country": "US", "addr:postcode": "12211", "addr:state": "NY", "addr:street_address": "20 CORPORATE WOODS BLVD", "amenity": "post_box", "collection_times": "Mo-Fr 16:30", "note": "ON 12/24 AND 12/31, THIS BOX MAY BE COLLECTED AS EARLY AS 12 NOON.", "nsi_id": "unitedstatespostalservice-a77078", "operator": "United States Postal Service", "operator:short": "USPS", "operator:type": "public", "operator:wikidata": "Q668687", "ref": "1221100005"}, "type": "Feature"}
{"geometry": {"coordinates": [-73.7652623, 42.685801], "type": "Point"}, "id": "MoBifZ2B8OWq8Sot3V74HMVHFJg=", "properties": {"@source_uri": "https://tools.usps.com/UspsToolsRestServices/rest/POLocator/findLocations", "@spider": "usps_collection_boxes", "addr:city": "ALBANY", "addr:country": "US", "addr:postcode": "12211", "addr:state": "NY", "addr:street_address": "12 CORPORATE WOODS BLVD", "amenity": "post_box", "collection_times": "Mo-Fr 16:00", "note": "ON 12/24 AND 12/31, THIS BOX MAY BE COLLECTED AS EARLY AS 12 NOON.", "nsi_id": "unitedstatespostalservice-a77078", "operator": "United States Postal Service", "operator:short": "USPS", "operator:type": "public", "operator:wikidata": "Q668687", "ref": "1221100008"}, "type": "Feature"}
{"geometry": {"coordinates": [-73.7707399, 42.683451], "type": "Point"}, "id": "slCan9vMqJg6QSEi1M690sYubBw=", "properties": {"@source_uri": "https://tools.usps.com/UspsToolsRestServices/rest/POLocator/findLocations", "@spider": "usps_collection_boxes", "addr:city": "ALBANY", "addr:country": "US", "addr:postcode": "12211", "addr:state": "NY", "addr:street_address": "7 SOUTHWOODS BLVD", "amenity": "post_box", "collection_times": "Mo-Fr 16:00", "note": "ON 12/24 AND 12/31, THIS BOX MAY BE COLLECTED AS EARLY AS 12 NOON.", "nsi_id": "unitedstatespostalservice-a77078", "operator": "United States Postal Service", "operator:short": "USPS", "operator:type": "public", "operator:wikidata": "Q668687", "ref": "1221100012"}, "type": "Feature"}
{"geometry": {"coordinates": [-73.7642935, 42.683198], "type": "Point"}, "id": "ZkenwGVzD6F4OC7ndUMXNSYylcM=", "properties": {"@source_uri": "https://tools.usps.com/UspsToolsRestServices/rest/POLocator/findLocations", "@spider": "usps_collection_boxes", "addr:city": "ALBANY", "addr:country": "US", "addr:postcode": "12211", "addr:state": "NY", "addr:street_address": "16 CORPORATE WOODS BLVD", "amenity": "post_box", "collection_times": "Mo-Fr 16:00", "note": "ON 12/24 AND 12/31, THIS BOX MAY BE COLLECTED AS EARLY AS 12 NOON.", "nsi_id": "unitedstatespostalservice-a77078", "operator": "United States Postal Service", "operator:short": "USPS", "operator:type": "public", "operator:wikidata": "Q668687", "ref": "1221100013"}, "type": "Feature"}
{"geometry": {"coordinates": [-73.7682851, 42.681402], "type": "Point"}, "id": "ZNZSpBKNi2yZFKXlcbVVWaqIcHk=", "properties": {"@source_uri": "https://tools.usps.com/UspsToolsRestServices/rest/POLocator/findLocations", "@spider": "usps_collection_boxes", "addr:city": "ALBANY", "addr:country": "US", "addr:postcode": "12211", "addr:state": "NY", "addr:street_address": "22 CORPORATE WOODS BLVD", "amenity": "post_box", "collection_times": "Mo-Fr 16:00", "note": "ON 12/24 AND 12/31, THIS BOX MAY BE COLLECTED AS EARLY AS 12 NOON.", "nsi_id": "unitedstatespostalservice-a77078", "operator": "United States Postal Service", "operator:short": "USPS", "operator:type": "public", "operator:wikidata": "Q668687", "ref": "1221100017"}, "type": "Feature"}
{"geometry": {"coordinates": [-73.776121, 42.70839], "type": "Point"}, "id": "VLHiwiLg0i8layeN96191mjlPYY=", "properties": {"@source_uri": "https://tools.usps.com/UspsToolsRestServices/rest/POLocator/findLocations", "@spider": "usps_collection_boxes", "addr:city": "ALBANY", "addr:country": "US", "addr:postcode": "12211", "addr:state": "NY", "addr:street_address": "475 ALBANY SHAKER RD", "amenity": "post_box", "collection_times": "Mo-Fr 16:30; Sa 13:00", "indoor": "yes", "note": "ON 12/24 AND 12/31, THIS BOX MAY BE COLLECTED AS EARLY AS 12 NOON.", "nsi_id": "unitedstatespostalservice-a77078", "operator": "United States Postal Service", "operator:short": "USPS", "operator:type": "public", "operator:wikidata": "Q668687", "ref": "1221100019"}, "type": "Feature"}
{"geometry": {"coordinates": [-73.7630846, 42.680676], "type": "Point"}, "id": "MePOk_wJTwAnRNKb7SfpMNWtmwM=", "properties": {"@source_uri": "https://tools.usps.com/UspsToolsRestServices/rest/POLocator/findLocations", "@spider": "usps_collection_boxes", "addr:city": "ALBANY", "addr:country": "US", "addr:postcode": "12211", "addr:state": "NY", "addr:street_address": "18 CORPORATE WOODS BLVD", "amenity": "post_box", "collection_times": "Mo-Fr 16:30", "note": "ON 12/24 AND 12/31, THIS BOX MAY BE COLLECTED AS EARLY AS 12 NOON.", "nsi_id": "unitedstatespostalservice-a77078", "operator": "United States Postal Service", "operator:short": "USPS", "operator:type": "public", "operator:wikidata": "Q668687", "ref": "1221100020"}, "type": "Feature"}
{"geometry": {"coordinates": [-73.777459411, 42.70694533], "type": "Point"}, "id": "jOiv15ZOp0J8tx9hUoBCo7AFtwE=", "properties": {"@source_uri": "https://tools.usps.com/UspsToolsRestServices/rest/POLocator/findLocations", "@spider": "usps_collection_boxes", "addr:city": "ALBANY", "addr:country": "US", "addr:postcode": "12211", "addr:state": "NY", "addr:street_address": "475 ALBANY SHAKER RD STE 9", "amenity": "post_box", "collection_times": "Mo-Fr 16:30; Sa 13:00", "indoor": "yes", "note": "ON 12/24 AND 12/31, THIS BOX MAY BE COLLECTED AS EARLY AS 12 NOON.", "nsi_id": "unitedstatespostalservice-a77078", "operator": "United States Postal Service", "operator:short": "USPS", "operator:type": "public", "operator:wikidata": "Q668687", "ref": "1221100021"}, "type": "Feature"}
{"geometry": {"coordinates": [-73.755174, 42.651546], "type": "Point"}, "id": "e-yDi211Mhj4GTuLVUEC931WffA=", "properties": {"@source_uri": "https://tools.usps.com/UspsToolsRestServices/rest/POLocator/findLocations", "@spider": "usps_collection_boxes", "addr:city": "ALBANY", "addr:country": "US", "addr:postcode": "12224", "addr:state": "NY", "addr:street_address": "25 EAGLE ST", "amenity": "post_box", "collection_times": "Mo-Fr 16:00", "indoor": "yes", "note": "ON 12/24 AND 12/31, THIS BOX MAY BE COLLECTED AS EARLY AS 12 NOON.", "nsi_id": "unitedstatespostalservice-a77078", "operator": "United States Postal Service", "operator:short": "USPS", "operator:type": "public", "operator:wikidata": "Q668687", "ref": "1222400002"}, "type": "Feature"}
{"geometry": {"coordinates": [-73.755153133, 42.651586981], "type": "Point"}, "id": "ooR_M4yh9Suzf2eWsSpRzy3RPhU=", "properties": {"@source_uri": "https://tools.usps.com/UspsToolsRestServices/rest/POLocator/findLocations", "@spider": "usps_collection_boxes", "addr:city": "ALBANY", "addr:country": "US", "addr:postcode": "12224", "addr:state": "NY", "addr:street_address": "25 EAGLE ST", "amenity": "post_box", "collection_times": "Mo-Fr 16:00", "indoor": "yes", "note": "ON 12/24 AND 12/31, THIS BOX MAY BE COLLECTED AS EARLY AS 12 NOON.", "nsi_id": "unitedstatespostalservice-a77078", "operator": "United States Postal Service", "operator:short": "USPS", "operator:type": "public", "operator:wikidata": "Q668687", "ref": "1222400003"}, "type": "Feature"}
{"geometry": {"coordinates": [-73.849441769, 42.728667641], "type": "Point"}, "id": "2iLMcwTyRcSvXrEr5Yd5G_2YcAs=", "properties": {"@source_uri": "https://tools.usps.com/UspsToolsRestServices/rest/POLocator/findLocations", "@spider": "usps_collection_boxes", "addr:city": "ALBANY", "addr:country": "US", "addr:postcode": "12288", "addr:state": "NY", "addr:street_address": "30 KARNER RD", "amenity": "post_box", "collection_times": "Mo-Fr 18:00; Sa 14:00", "indoor": "yes", "note": "ON 12/24 AND 12/31, THIS BOX MAY BE COLLECTED AS EARLY AS 12 NOON.", "nsi_id": "unitedstatespostalservice-a77078", "operator": "United States Postal Service", "operator:short": "USPS", "operator:type": "public", "operator:wikidata": "Q668687", "ref": "1228800005"}, "type": "Feature"}
