{"dataset_attributes": {"@spider": "usps_collection_boxes", "spider:collection_time": "2023-12-16T08:23:48.880691"}, "geometry": {"coordinates": [-73.9537394, 42.833947], "type": "Point"}, "id": "8IKA2eodaVbZ25jtCIFUZsLdXXg=", "properties": {"@spider": "usps_collection_boxes", "addr:city": "SCHENECTADY", "addr:country": "US", "addr:full": "301 CAMBRIDGE MANOR DR", "addr:postcode": "12302", "addr:state": "NY", "amenity": "post_box", "brand": "United States Postal Service", "brand:wikidata": "Q668687", "collection_times": "Mo-Sa 10:00", "name": "USPS COLLECTION BOX - BLUE BOX", "nsi_id": "unitedstatespostalservice-a77078", "operator": "United States Postal Service", "operator:short": "USPS", "operator:type": "public", "operator:wikidata": "Q668687", "ref": "1230200001"}, "type": "Feature"}
{"dataset_attributes": {"@spider": "usps_collection_boxes", "spider:collection_time": "2023-12-16T08:23:48.880691"}, "geometry": {"coordinates": [-73.9254266, 42.886028], "type": "Point"}, "id": "PLD_MLRv_vEXSaKjNJ7kJf5XVBs=", "properties": {"@spider": "usps_collection_boxes", "addr:city": "SCHENECTADY", "addr:country": "US", "addr:full": "443 SARATOGA RD", "addr:postcode": "12302", "addr:state": "NY", "amenity": "post_box", "brand": "United States Postal Service", "brand:wikidata": "Q668687", "collection_times": "Mo-Sa 10:30", "name": "USPS COLLECTION BOX - BLUE BOX", "nsi_id": "unitedstatespostalservice-a77078", "operator": "United States Postal Service", "operator:short": "USPS", "operator:type": "public", "operator:wikidata": "Q668687", "ref": "1230200013"}, "type": "Feature"}
{"dataset_attributes": {"@spider": "usps_collection_boxes", "spider:collection_time": "2023-12-16T08:23:48.880691"}, "geometry": {"coordinates": [-73.9279608, 42.867999], "type": "Point"}, "id": "jfTvgHQB5asNj02VGzODbAgpTg4=", "properties": {"@spider": "usps_collection_boxes", "addr:city": "SCHENECTADY", "addr:country": "US", "addr:full": "18 GLENRIDGE RD", "addr:postcode": "12302", "addr:state": "NY", "amenity": "post_box", "brand": "United States Postal Service", "brand:wikidata": "Q668687", "collection_times": "Mo-Fr 16:00; Sa 14:00", "name": "USPS COLLECTION BOX - BLUE BOX", "note": "ON 12/24 AND 12/31, THIS BOX MAY BE COLLECTED AS EARLY AS 12 NOON.", "nsi_id": "unitedstatespostalservice-a77078", "operator": "United States Postal Service", "operator:short": "USPS", "operator:type": "public", "operator:wikidata": "Q668687", "ref": "1230200015"}, "type": "Feature"}
{"dataset_attributes": {"@spider": "usps_collection_boxes", "spider:collection_time": "2023-12-16T08:23:48.880691"}, "geometry": {"coordinates": [-73.9307504, 42.870384], "type": "Point"}, "id": "T90Fph_eVkliDVI4KGGS-8nGFCo=", "properties": {"@spider": "usps_collection_boxes", "addr:city": "SCHENECTADY", "addr:country": "US", "addr:full": "262 SARATOGA RD", "addr:postcode": "12302", "addr:state": "NY", "amenity": "post_box", "brand": "United States Postal Service", "brand:wikidata": "Q668687", "collection_times": "Mo-Sa 16:00", "name": "USPS COLLECTION BOX - BLUE BOX", "note": "ON 12/24 AND 12/31, THIS BOX MAY BE COLLECTED AS EARLY AS 12 NOON.", "nsi_id": "unitedstatespostalservice-a77078", "operator": "United States Postal Service", "operator:short": "USPS", "operator:type": "public", "operator:wikidata": "Q668687", "ref": "1230200017"}, "type": "Feature"}
{"dataset_attributes": {"@spider": "usps_collection_boxes", "spider:collection_time": "2023-12-16T08:23:48.880691"}, "geometry": {"coordinates": [-73.930726, 42.868772], "type": "Point"}, "id": "nxZ9eqKSZmEOFY0ukDhkRJD4W9A=", "properties": {"@spider": "usps_collection_boxes", "addr:city": "SCHENECTADY", "addr:country": "US", "addr:full": "6 GLENRIDGE RD", "addr:postcode": "12302", "addr:state": "NY", "amenity": "post_box", "brand": "United States Postal Service", "brand:wikidata": "Q668687", "collection_times": "Mo-Fr 17:00; Sa 16:15", "name": "USPS COLLECTION BOX - BLUE BOX", "note": "ON 12/24 AND 12/31, THIS BOX MAY BE COLLECTED AS EARLY AS 12 NOON.", "nsi_id": "unitedstatespostalservice-a77078", "operator": "United States Postal Service", "operator:short": "USPS", "operator:type": "public", "operator:wikidata": "Q668687", "ref": "1230200018"}, "type": "Feature"}
{"dataset_attributes": {"@spider": "usps_collection_boxes", "spider:collection_time": "2023-12-16T08:23:48.880691"}, "geometry": {"coordinates": [-73.930726, 42.868772], "type": "Point"}, "id": "LzUCZ47tFMU05M5XonxWiDx5ezo=", "properties": {"@spider": "usps_collection_boxes", "addr:city": "SCHENECTADY", "addr:country": "US", "addr:full": "6 GLENRIDGE RD", "addr:postcode": "12302", "addr:state": "NY", "amenity": "post_box", "brand": "United States Postal Service", "brand:wikidata": "Q668687", "collection_times": "Mo-Fr 17:00; Sa 16:15", "name": "USPS COLLECTION BOX - BLUE BOX", "note": "ON 12/24 AND 12/31, THIS BOX MAY BE COLLECTED AS EARLY AS 12 NOON.", "nsi_id": "unitedstatespostalservice-a77078", "operator": "United States Postal Service", "operator:short": "USPS", "operator:type": "public", "operator:wikidata": "Q668687", "ref": "1230200019"}, "type": "Feature"}
{"dataset_attributes": {"@spider": "usps_collection_boxes", "spider:collection_time": "2023-12-16T08:23:48.880691"}, "geometry": {"coordinates": [-73.9361204, 42.860025], "type": "Point"}, "id": "rrEm-kS__OgWvyW6ISCQHDA78i4=", "properties": {"@spider": "usps_collection_boxes", "addr:city": "SCHENECTADY", "addr:country": "US", "addr:full": "123 SARATOGA RD", "addr:postcode": "12302", "addr:state": "NY", "amenity": "post_box", "brand": "United States Postal Service", "brand:wikidata": "Q668687", "collection_times": "Mo-Sa 16:00", "name": "USPS COLLECTION BOX - BLUE BOX", "note": "ON 12/24 AND 12/31, THIS BOX MAY BE COLLECTED AS EARLY AS 12 NOON.", "nsi_id": "unitedstatespostalservice-a77078", "operator": "United States Postal Service", "operator:short": "USPS", "operator:type": "public", "operator:wikidata": "Q668687", "ref": "1230200021"}, "type": "Feature"}
{"dataset_attributes": {"@spider": "usps_collection_boxes", "spider:collection_time": "2023-12-16T08:23:48.880691"}, "geometry": {"coordinates": [-73.9627122, 42.832707], "type": "Point"}, "id": "rYjZwdRK51JxW3LuJnIQBMS4zys=", "properties": {"@spider": "usps_collection_boxes", "addr:city": "SCHENECTADY", "addr:country": "US", "addr:full": "149 VLEY RD", "addr:postcode": "12302", "addr:state": "NY", "amenity": "post_box", "brand": "United States Postal Service", "brand:wikidata": "Q668687", "collection_times": "Mo-Sa 11:00", "name": "USPS COLLECTION BOX - BLUE BOX", "nsi_id": "unitedstatespostalservice-a77078", "operator": "United States Postal Service", "operator:short": "USPS", "operator:type": "public", "operator:wikidata": "Q668687", "ref": "1230200029"}, "type": "Feature"}
{"dataset_attributes": {"@spider": "usps_collection_boxes", "spider:collection_time": "2023-12-16T08:23:48.880691"}, "geometry": {"coordinates": [-73.9729379, 42.82918], "type": "Point"}, "id": "giEF0KBkpQfgXmC6JtV6GywuQ74=", "properties": {"@spider": "usps_collection_boxes", "addr:city": "SCHENECTADY", "addr:country": "US", "addr:full": "360 MOHAWK AVE", "addr:postcode": "12302", "addr:state": "NY", "amenity": "post_box", "brand": "United States Postal Service", "brand:wikidata": "Q668687", "collection_times": "Mo-Sa 10:30", "name": "USPS COLLECTION BOX - BLUE BOX", "nsi_id": "unitedstatespostalservice-a77078", "operator": "United States Postal Service", "operator:short": "USPS", "operator:type": "public", "operator:wikidata": "Q668687", "ref": "1230200031"}, "type": "Feature"}
{"dataset_attributes": {"@spider": "usps_collection_boxes", "spider:collection_time": "2023-12-16T08:23:48.880691"}, "geometry": {"coordinates": [-73.9618615, 42.830196], "type": "Point"}, "id": "DUyzsmv5vS3ZCqARvZTk7gYKw9U=", "properties": {"@spider": "usps_collection_boxes", "addr:city": "SCHENECTADY", "addr:country": "US", "addr:full": "101 1ST ST", "addr:postcode": "12302", "addr:state": "NY", "amenity": "post_box", "brand": "United States Postal Service", "brand:wikidata": "Q668687", "collection_times": "Mo-Sa 11:00", "name": "USPS COLLECTION BOX - BLUE BOX", "nsi_id": "unitedstatespostalservice-a77078", "operator": "United States Postal Service", "operator:short": "USPS", "operator:type": "public", "operator:wikidata": "Q668687", "ref": "1230200036"}, "type": "Feature"}
{"dataset_attributes": {"@spider": "usps_collection_boxes", "spider:collection_time": "2023-12-16T08:23:48.880691"}, "geometry": {"coordinates": [-73.9508895, 42.831473], "type": "Point"}, "id": "MqaCMmTrKpCYdt0oU6mgktui7Ko=", "properties": {"@spider": "usps_collection_boxes", "addr:city": "SCHENECTADY", "addr:country": "US", "addr:full": "1600 CAMBRIDGE MANOR DR", "addr:postcode": "12302", "addr:state": "NY", "amenity": "post_box", "brand": "United States Postal Service", "brand:wikidata": "Q668687", "collection_times": "Mo-Sa 10:00", "name": "USPS COLLECTION BOX - BLUE BOX", "nsi_id": "unitedstatespostalservice-a77078", "operator": "United States Postal Service", "operator:short": "USPS", "operator:type": "public", "operator:wikidata": "Q668687", "ref": "1230200038"}, "type": "Feature"}
{"dataset_attributes": {"@spider": "usps_collection_boxes", "spider:collection_time": "2023-12-16T08:23:48.880691"}, "geometry": {"coordinates": [-73.9330052, 42.8701], "type": "Point"}, "id": "_-mNTSsFKa0PKxxkxOFSV36A4yg=", "properties": {"@spider": "usps_collection_boxes", "addr:city": "SCHENECTADY", "addr:country": "US", "addr:full": "251 SARATOGA RD", "addr:postcode": "12302", "addr:state": "NY", "amenity": "post_box", "brand": "United States Postal Service", "brand:wikidata": "Q668687", "collection_times": "Mo-Fr 16:00; Sa 09:30", "name": "USPS COLLECTION BOX - BLUE BOX", "note": "ON 12/24 AND 12/31, THIS BOX MAY BE COLLECTED AS EARLY AS 12 NOON.", "nsi_id": "unitedstatespostalservice-a77078", "operator": "United States Postal Service", "operator:short": "USPS", "operator:type": "public", "operator:wikidata": "Q668687", "ref": "1230200040"}, "type": "Feature"}
{"dataset_attributes": {"@spider": "usps_collection_boxes", "spider:collection_time": "2023-12-16T08:23:48.880691"}, "geometry": {"coordinates": [-73.930726, 42.868772], "type": "Point"}, "id": "rCzMEZkpbF2ugdJGsivCkO2XmDk=", "properties": {"@spider": "usps_collection_boxes", "addr:city": "SCHENECTADY", "addr:country": "US", "addr:full": "6 GLENRIDGE RD", "addr:postcode": "12302", "addr:state": "NY", "amenity": "post_box", "brand": "United States Postal Service", "brand:wikidata": "Q668687", "collection_times": "Mo-Fr 17:15; Sa 16:30", "name": "USPS COLLECTION BOX - PO LOBBY", "note": "ON 12/24 AND 12/31, THIS BOX MAY BE COLLECTED AS EARLY AS 12 NOON.", "nsi_id": "unitedstatespostalservice-a77078", "operator": "United States Postal Service", "operator:short": "USPS", "operator:type": "public", "operator:wikidata": "Q668687", "ref": "1230200048"}, "type": "Feature"}
{"dataset_attributes": {"@spider": "usps_collection_boxes", "spider:collection_time": "2023-12-16T08:23:48.880691"}, "geometry": {"coordinates": [-73.966324, 42.827236], "type": "Point"}, "id": "IcuwaertryEX1zzRpSCQA8GOs90=", "properties": {"@spider": "usps_collection_boxes", "addr:city": "SCHENECTADY", "addr:country": "US", "addr:full": "224 MOHAWK AVE", "addr:postcode": "12302", "addr:state": "NY", "amenity": "post_box", "brand": "United States Postal Service", "brand:wikidata": "Q668687", "collection_times": "Mo-Fr 17:00; Sa 13:00", "name": "USPS COLLECTION BOX - PO LOBBY", "note": "ON 12/24 AND 12/31, THIS BOX MAY BE COLLECTED AS EARLY AS 12 NOON.", "nsi_id": "unitedstatespostalservice-a77078", "operator": "United States Postal Service", "operator:short": "USPS", "operator:type": "public", "operator:wikidata": "Q668687", "ref": "1230200049"}, "type": "Feature"}
{"dataset_attributes": {"@spider": "usps_collection_boxes", "spider:collection_time": "2023-12-16T08:23:48.880691"}, "geometry": {"coordinates": [-73.930717209, 42.868768739], "type": "Point"}, "id": "3elUbexWVtyduPdGw8r72Y6z33c=", "properties": {"@spider": "usps_collection_boxes", "addr:city": "SCHENECTADY", "addr:country": "US", "addr:full": "6 GLENRIDGE RD", "addr:postcode": "12302", "addr:state": "NY", "amenity": "post_box", "brand": "United States Postal Service", "brand:wikidata": "Q668687", "collection_times": "Mo-Fr 17:00; Sa 13:00", "name": "USPS COLLECTION BOX - PO LOBBY", "note": "ON 12/24 AND 12/31, THIS BOX MAY BE COLLECTED AS EARLY AS 12 NOON.", "nsi_id": "unitedstatespostalservice-a77078", "operator": "United States Postal Service", "operator:short": "USPS", "operator:type": "public", "operator:wikidata": "Q668687", "ref": "1230200061"}, "type": "Feature"}
{"dataset_attributes": {"@spider": "usps_collection_boxes", "spider:collection_time": "2023-12-16T08:23:48.880691"}, "geometry": {"coordinates": [-73.966376055, 42.827248852], "type": "Point"}, "id": "CuHYk_Uc1XZDCbgfCuMAAGykL80=", "properties": {"@spider": "usps_collection_boxes", "addr:city": "SCHENECTADY", "addr:country": "US", "addr:full": "224 MOHAWK AVE", "addr:postcode": "12302", "addr:state": "NY", "amenity": "post_box", "brand": "United States Postal Service", "brand:wikidata": "Q668687", "collection_times": "Mo-Fr 17:00; Sa 12:30", "name": "USPS COLLECTION BOX - PO LOBBY", "note": "ON 12/24 AND 12/31, THIS BOX MAY BE COLLECTED AS EARLY AS 12 NOON.", "nsi_id": "unitedstatespostalservice-a77078", "operator": "United States Postal Service", "operator:short": "USPS", "operator:type": "public", "operator:wikidata": "Q668687", "ref": "1230200062"}, "type": "Feature"}
{"dataset_attributes": {"@spider": "usps_collection_boxes", "spider:collection_time": "2023-12-16T08:23:48.880691"}, "geometry": {"coordinates": [-73.9555643, 42.782247], "type": "Point"}, "id": "Rax3lgEaNJB43A5_YG1HGhd905I=", "properties": {"@spider": "usps_collection_boxes", "addr:city": "SCHENECTADY", "addr:country": "US", "addr:full": "1879 ALTAMONT AVE", "addr:postcode": "12303", "addr:state": "NY", "amenity": "post_box", "brand": "United States Postal Service", "brand:wikidata": "Q668687", "collection_times": "Mo-Sa 09:30", "name": "USPS COLLECTION BOX - BLUE BOX", "nsi_id": "unitedstatespostalservice-a77078", "operator": "United States Postal Service", "operator:short": "USPS", "operator:type": "public", "operator:wikidata": "Q668687", "ref": "1230300001"}, "type": "Feature"}
{"dataset_attributes": {"@spider": "usps_collection_boxes", "spider:collection_time": "2023-12-16T08:23:48.880691"}, "geometry": {"coordinates": [-73.9412821, 42.793413], "type": "Point"}, "id": "kv8KMteeQI5OK4aHpQJ2EqC8HqA=", "properties": {"@spider": "usps_collection_boxes", "addr:city": "SCHENECTADY", "addr:country": "US", "addr:full": "1355 CHRISLER AVE", "addr:postcode": "12303", "addr:state": "NY", "amenity": "post_box", "brand": "United States Postal Service", "brand:wikidata": "Q668687", "collection_times": "Mo-Sa 12:00", "name": "USPS COLLECTION BOX - BLUE BOX", "nsi_id": "unitedstatespostalservice-a77078", "operator": "United States Postal Service", "operator:short": "USPS", "operator:type": "public", "operator:wikidata": "Q668687", "ref": "1230300003"}, "type": "Feature"}
{"dataset_attributes": {"@spider": "usps_collection_boxes", "spider:collection_time": "2023-12-16T08:23:48.880691"}, "geometry": {"coordinates": [-73.9481123, 42.772115], "type": "Point"}, "id": "5BKBIdodK5YmxQwUBjLR8mq8zfo=", "properties": {"@spider": "usps_collection_boxes", "addr:city": "SCHENECTADY", "addr:country": "US", "addr:full": "2315 CURRY RD", "addr:postcode": "12303", "addr:state": "NY", "amenity": "post_box", "brand": "United States Postal Service", "brand:wikidata": "Q668687", "collection_times": "Mo-Sa 12:00", "name": "USPS COLLECTION BOX - BLUE BOX", "nsi_id": "unitedstatespostalservice-a77078", "operator": "United States Postal Service", "operator:short": "USPS", "operator:type": "public", "operator:wikidata": "Q668687", "ref": "1230300007"}, "type": "Feature"}
{"dataset_attributes": {"@spider": "usps_collection_boxes", "spider:collection_time": "2023-12-16T08:23:48.880691"}, "geometry": {"coordinates": [-73.9362921, 42.794193], "type": "Point"}, "id": "GaviH1Cwwva_EF323Qh_DYS6HV0=", "properties": {"@spider": "usps_collection_boxes", "addr:city": "SCHENECTADY", "addr:country": "US", "addr:full": "622 MICHIGAN AVE", "addr:postcode": "12303", "addr:state": "NY", "amenity": "post_box", "brand": "United States Postal Service", "brand:wikidata": "Q668687", "collection_times": "Mo-Sa 10:00", "name": "USPS COLLECTION BOX - BLUE BOX", "nsi_id": "unitedstatespostalservice-a77078", "operator": "United States Postal Service", "operator:short": "USPS", "operator:type": "public", "operator:wikidata": "Q668687", "ref": "1230300012"}, "type": "Feature"}
{"dataset_attributes": {"@spider": "usps_collection_boxes", "spider:collection_time": "2023-12-16T08:23:48.880691"}, "geometry": {"coordinates": [-73.9317247, 42.793501], "type": "Point"}, "id": "g42lcKwJIsbASOV8O7cJOwv68yE=", "properties": {"@spider": "usps_collection_boxes", "addr:city": "SCHENECTADY", "addr:country": "US", "addr:full": "1976 SCHUYLER ST", "addr:postcode": "12303", "addr:state": "NY", "amenity": "post_box", "brand": "United States Postal Service", "brand:wikidata": "Q668687", "collection_times": "Mo-Fr 17:30; Sa 16:45", "name": "USPS COLLECTION BOX - BLUE BOX", "note": "ON 12/24 AND 12/31, THIS BOX MAY BE COLLECTED AS EARLY AS 12 NOON.", "nsi_id": "unitedstatespostalservice-a77078", "operator": "United States Postal Service", "operator:short": "USPS", "operator:type": "public", "operator:wikidata": "Q668687", "ref": "1230300016"}, "type": "Feature"}
{"dataset_attributes": {"@spider": "usps_collection_boxes", "spider:collection_time": "2023-12-16T08:23:48.880691"}, "geometry": {"coordinates": [-73.9317562, 42.716316], "type": "Point"}, "id": "9wHMWd-rHDA-V9W7PMSr2S-4M24=", "properties": {"@spider": "usps_collection_boxes", "addr:city": "SCHENECTADY", "addr:country": "US", "addr:full": "3899 CARMAN RD", "addr:postcode": "12303", "addr:state": "NY", "amenity": "post_box", "brand": "United States Postal Service", "brand:wikidata": "Q668687", "collection_times": "Mo-Sa 11:15", "name": "USPS COLLECTION BOX - BLUE BOX", "nsi_id": "unitedstatespostalservice-a77078", "operator": "United States Postal Service", "operator:short": "USPS", "operator:type": "public", "operator:wikidata": "Q668687", "ref": "1230300022"}, "type": "Feature"}
{"dataset_attributes": {"@spider": "usps_collection_boxes", "spider:collection_time": "2023-12-16T08:23:48.880691"}, "geometry": {"coordinates": [-73.9165423, 42.76897], "type": "Point"}, "id": "46Ycyxt1csEpNTyCM-7THgecQBA=", "properties": {"@spider": "usps_collection_boxes", "addr:city": "SCHENECTADY", "addr:country": "US", "addr:full": "1030 COMMUNITY RD", "addr:postcode": "12303", "addr:state": "NY", "amenity": "post_box", "brand": "United States Postal Service", "brand:wikidata": "Q668687", "collection_times": "Mo-Sa 12:00", "name": "USPS COLLECTION BOX - BLUE BOX", "nsi_id": "unitedstatespostalservice-a77078", "operator": "United States Postal Service", "operator:short": "USPS", "operator:type": "public", "operator:wikidata": "Q668687", "ref": "1230300027"}, "type": "Feature"}
{"dataset_attributes": {"@spider": "usps_collection_boxes", "spider:collection_time": "2023-12-16T08:23:48.880691"}, "geometry": {"coordinates": [-73.9392711951, 42.7639839736], "type": "Point"}, "id": "s0JueL5TENnO89uuIn0hlKOsMD4=", "properties": {"@spider": "usps_collection_boxes", "addr:city": "SCHENECTADY", "addr:country": "US", "addr:full": "3083 CARMAN RD", "addr:postcode": "12303", "addr:state": "NY", "amenity": "post_box", "brand": "United States Postal Service", "brand:wikidata": "Q668687", "collection_times": "Mo-Sa 13:00", "name": "USPS COLLECTION BOX - BLUE BOX", "note": "ON 12/24 AND 12/31, THIS BOX MAY BE COLLECTED AS EARLY AS 12 NOON.", "nsi_id": "unitedstatespostalservice-a77078", "operator": "United States Postal Service", "operator:short": "USPS", "operator:type": "public", "operator:wikidata": "Q668687", "ref": "1230300028"}, "type": "Feature"}
{"dataset_attributes": {"@spider": "usps_collection_boxes", "spider:collection_time": "2023-12-16T08:23:48.880691"}, "geometry": {"coordinates": [-73.9313457, 42.782126], "type": "Point"}, "id": "GX4t7lqqqvezm1o1Ang3C1N34v4=", "properties": {"@spider": "usps_collection_boxes", "addr:city": "SCHENECTADY", "addr:country": "US", "addr:full": "2305 HAMBURG ST", "addr:postcode": "12303", "addr:state": "NY", "amenity": "post_box", "brand": "United States Postal Service", "brand:wikidata": "Q668687", "collection_times": "Mo-Sa 13:00", "name": "USPS COLLECTION BOX - BLUE BOX", "note": "ON 12/24 AND 12/31, THIS BOX MAY BE COLLECTED AS EARLY AS 12 NOON.", "nsi_id": "unitedstatespostalservice-a77078", "operator": "United States Postal Service", "operator:short": "USPS", "operator:type": "public", "operator:wikidata": "Q668687", "ref": "1230300030"}, "type": "Feature"}
{"dataset_attributes": {"@spider": "usps_collection_boxes", "spider:collection_time": "2023-12-16T08:23:48.880691"}, "geometry": {"coordinates": [-73.9426089, 42.746283], "type": "Point"}, "id": "bTQM9AKk-oUl3uBRoTgVvShZLXM=", "properties": {"@spider": "usps_collection_boxes", "addr:city": "SCHENECTADY", "addr:country": "US", "addr:full": "3434 CARMAN RD", "addr:postcode": "12303", "addr:state": "NY", "amenity": "post_box", "brand": "United States Postal Service", "brand:wikidata": "Q668687", "collection_times": "Mo-Sa 10:00", "name": "USPS COLLECTION BOX - BLUE BOX", "nsi_id": "unitedstatespostalservice-a77078", "operator": "United States Postal Service", "operator:short": "USPS", "operator:type": "public", "operator:wikidata": "Q668687", "ref": "1230300036"}, "type": "Feature"}
{"dataset_attributes": {"@spider": "usps_collection_boxes", "spider:collection_time": "2023-12-16T08:23:48.880691"}, "geometry": {"coordinates": [-73.9358614, 42.722801], "type": "Point"}, "id": "secX0LcTXpwbU8jNz2PFgbnfniQ=", "properties": {"@spider": "usps_collection_boxes", "addr:city": "SCHENECTADY", "addr:country": "US", "addr:full": "3770 CARMAN RD", "addr:postcode": "12303", "addr:state": "NY", "amenity": "post_box", "brand": "United States Postal Service", "brand:wikidata": "Q668687", "collection_times": "Mo-Sa 11:00", "name": "USPS COLLECTION BOX - BLUE BOX", "nsi_id": "unitedstatespostalservice-a77078", "operator": "United States Postal Service", "operator:short": "USPS", "operator:type": "public", "operator:wikidata": "Q668687", "ref": "1230300039"}, "type": "Feature"}
{"dataset_attributes": {"@spider": "usps_collection_boxes", "spider:collection_time": "2023-12-16T08:23:48.880691"}, "geometry": {"coordinates": [-73.9231871, 42.771144], "type": "Point"}, "id": "gaA2kezipN0Rr0ZgZLjOTRCMMwQ=", "properties": {"@spider": "usps_collection_boxes", "addr:city": "SCHENECTADY", "addr:country": "US", "addr:full": "101 MERCER AVE", "addr:postcode": "12303", "addr:state": "NY", "amenity": "post_box", "brand": "United States Postal Service", "brand:wikidata": "Q668687", "collection_times": "Mo-Sa 10:00", "name": "USPS COLLECTION BOX - BLUE BOX", "nsi_id": "unitedstatespostalservice-a77078", "operator": "United States Postal Service", "operator:short": "USPS", "operator:type": "public", "operator:wikidata": "Q668687", "ref": "1230300040"}, "type": "Feature"}
{"dataset_attributes": {"@spider": "usps_collection_boxes", "spider:collection_time": "2023-12-16T08:23:48.880691"}, "geometry": {"coordinates": [-73.9436739, 42.783415], "type": "Point"}, "id": "HUfCrir2ZrhfOEcXD5fw8N2BwyQ=", "properties": {"@spider": "usps_collection_boxes", "addr:city": "SCHENECTADY", "addr:country": "US", "addr:full": "1450 ALTAMONT AVE", "addr:postcode": "12303", "addr:state": "NY", "amenity": "post_box", "brand": "United States Postal Service", "brand:wikidata": "Q668687", "collection_times": "Mo-Sa 12:00", "name": "USPS COLLECTION BOX - BLUE BOX", "nsi_id": "unitedstatespostalservice-a77078", "operator": "United States Postal Service", "operator:short": "USPS", "operator:type": "public", "operator:wikidata": "Q668687", "ref": "1230300041"}, "type": "Feature"}
{"dataset_attributes": {"@spider": "usps_collection_boxes", "spider:collection_time": "2023-12-16T08:23:48.880691"}, "geometry": {"coordinates": [-73.931471, 42.793769], "type": "Point"}, "id": "p8Z1vhS94k6HmeX096zWapZjO0I=", "properties": {"@spider": "usps_collection_boxes", "addr:city": "SCHENECTADY", "addr:country": "US", "addr:full": "1976 SCHUYLER ST", "addr:postcode": "12303", "addr:state": "NY", "amenity": "post_box", "brand": "United States Postal Service", "brand:wikidata": "Q668687", "collection_times": "Mo-Fr 17:30; Sa 17:00", "name": "USPS COLLECTION BOX - PO LOBBY", "note": "ON 12/24 AND 12/31, THIS BOX MAY BE COLLECTED AS EARLY AS 12 NOON.", "nsi_id": "unitedstatespostalservice-a77078", "operator": "United States Postal Service", "operator:short": "USPS", "operator:type": "public", "operator:wikidata": "Q668687", "ref": "1230300050"}, "type": "Feature"}
{"dataset_attributes": {"@spider": "usps_collection_boxes", "spider:collection_time": "2023-12-16T08:23:48.880691"}, "geometry": {"coordinates": [-73.9345428, 42.774703], "type": "Point"}, "id": "cBpWq7ON_1hpcu372hozDTPJVwE=", "properties": {"@spider": "usps_collection_boxes", "addr:city": "SCHENECTADY", "addr:country": "US", "addr:full": "2695 HAMBURG ST", "addr:postcode": "12303", "addr:state": "NY", "amenity": "post_box", "brand": "United States Postal Service", "brand:wikidata": "Q668687", "collection_times": "Mo-Sa 11:30", "name": "USPS COLLECTION BOX - BLUE BOX", "nsi_id": "unitedstatespostalservice-a77078", "operator": "United States Postal Service", "operator:short": "USPS", "operator:type": "public", "operator:wikidata": "Q668687", "ref": "1230300060"}, "type": "Feature"}
{"dataset_attributes": {"@spider": "usps_collection_boxes", "spider:collection_time": "2023-12-16T08:23:48.880691"}, "geometry": {"coordinates": [-73.9475549, 42.798808], "type": "Point"}, "id": "XHPO6Ubfud3RWiWaOTxj5M8USEA=", "properties": {"@spider": "usps_collection_boxes", "addr:city": "SCHENECTADY", "addr:country": "US", "addr:full": "959 CRANE ST", "addr:postcode": "12303", "addr:state": "NY", "amenity": "post_box", "brand": "United States Postal Service", "brand:wikidata": "Q668687", "collection_times": "Mo-Sa 12:00", "name": "USPS COLLECTION BOX - BLUE BOX", "nsi_id": "unitedstatespostalservice-a77078", "operator": "United States Postal Service", "operator:short": "USPS", "operator:type": "public", "operator:wikidata": "Q668687", "ref": "1230300062"}, "type": "Feature"}
{"dataset_attributes": {"@spider": "usps_collection_boxes", "spider:collection_time": "2023-12-16T08:23:48.880691"}, "geometry": {"coordinates": [-73.9468377, 42.793732], "type": "Point"}, "id": "nrrFj3f2dwgS4-Gn-usg-ibeKTg=", "properties": {"@spider": "usps_collection_boxes", "addr:city": "SCHENECTADY", "addr:country": "US", "addr:full": "1274 PLEASANT ST", "addr:postcode": "12303", "addr:state": "NY", "amenity": "post_box", "brand": "United States Postal Service", "brand:wikidata": "Q668687", "collection_times": "Mo-Sa 12:00", "name": "USPS COLLECTION BOX - BLUE BOX", "nsi_id": "unitedstatespostalservice-a77078", "operator": "United States Postal Service", "operator:short": "USPS", "operator:type": "public", "operator:wikidata": "Q668687", "ref": "1230300069"}, "type": "Feature"}
{"dataset_attributes": {"@spider": "usps_collection_boxes", "spider:collection_time": "2023-12-16T08:23:48.880691"}, "geometry": {"coordinates": [-73.931460416, 42.793707622], "type": "Point"}, "id": "Pkfl6WW9QoqMrX6GMeKzL4-Hk_o=", "properties": {"@spider": "usps_collection_boxes", "addr:city": "SCHENECTADY", "addr:country": "US", "addr:full": "1976 SCHUYLER ST", "addr:postcode": "12303", "addr:state": "NY", "amenity": "post_box", "brand": "United States Postal Service", "brand:wikidata": "Q668687", "collection_times": "Mo-Fr 18:00; Sa 13:00", "name": "USPS COLLECTION BOX - PO LOBBY", "note": "ON 12/24 AND 12/31, THIS BOX MAY BE COLLECTED AS EARLY AS 12 NOON.", "nsi_id": "unitedstatespostalservice-a77078", "operator": "United States Postal Service", "operator:short": "USPS", "operator:type": "public", "operator:wikidata": "Q668687", "ref": "1230300073"}, "type": "Feature"}
{"dataset_attributes": {"@spider": "usps_collection_boxes", "spider:collection_time": "2023-12-16T08:23:48.880691"}, "geometry": {"coordinates": [-73.9205824, 42.788285], "type": "Point"}, "id": "sjkn10LeVt99e5w0E6i2qrHsBN8=", "properties": {"@spider": "usps_collection_boxes", "addr:city": "SCHENECTADY", "addr:country": "US", "addr:full": "224 FRANK ST", "addr:postcode": "12304", "addr:state": "NY", "amenity": "post_box", "brand": "United States Postal Service", "brand:wikidata": "Q668687", "collection_times": "Mo-Fr 11:00; Sa 10:30", "name": "USPS COLLECTION BOX - BLUE BOX", "nsi_id": "unitedstatespostalservice-a77078", "operator": "United States Postal Service", "operator:short": "USPS", "operator:type": "public", "operator:wikidata": "Q668687", "ref": "1230400010"}, "type": "Feature"}
{"dataset_attributes": {"@spider": "usps_collection_boxes", "spider:collection_time": "2023-12-16T08:23:48.880691"}, "geometry": {"coordinates": [-73.9161918, 42.804318], "type": "Point"}, "id": "WxfIXY6bRGIGM_o8KK-wpGqxj48=", "properties": {"@spider": "usps_collection_boxes", "addr:city": "SCHENECTADY", "addr:country": "US", "addr:full": "600 MC CLELLAN ST", "addr:postcode": "12304", "addr:state": "NY", "amenity": "post_box", "brand": "United States Postal Service", "brand:wikidata": "Q668687", "collection_times": "Mo-Fr 16:00; Sa 10:00", "name": "USPS COLLECTION BOX - BLUE BOX", "note": "ON 12/24 AND 12/31, THIS BOX MAY BE COLLECTED AS EARLY AS 12 NOON.", "nsi_id": "unitedstatespostalservice-a77078", "operator": "United States Postal Service", "operator:short": "USPS", "operator:type": "public", "operator:wikidata": "Q668687", "ref": "1230400022"}, "type": "Feature"}
{"dataset_attributes": {"@spider": "usps_collection_boxes", "spider:collection_time": "2023-12-16T08:23:48.880691"}, "geometry": {"coordinates": [-73.9213883, 42.795674], "type": "Point"}, "id": "DGyWMMuyI5IsfxhtIhbFphceiT4=", "properties": {"@spider": "usps_collection_boxes", "addr:city": "SCHENECTADY", "addr:country": "US", "addr:full": "1338 STATE ST", "addr:postcode": "12304", "addr:state": "NY", "amenity": "post_box", "brand": "United States Postal Service", "brand:wikidata": "Q668687", "collection_times": "Mo-Sa 10:00", "name": "USPS COLLECTION BOX - BLUE BOX", "nsi_id": "unitedstatespostalservice-a77078", "operator": "United States Postal Service", "operator:short": "USPS", "operator:type": "public", "operator:wikidata": "Q668687", "ref": "1230400024"}, "type": "Feature"}
{"dataset_attributes": {"@spider": "usps_collection_boxes", "spider:collection_time": "2023-12-16T08:23:48.880691"}, "geometry": {"coordinates": [-73.9098399, 42.77827], "type": "Point"}, "id": "BrJqVndluAkO_uJ-Lzahx0AECoM=", "properties": {"@spider": "usps_collection_boxes", "addr:city": "SCHENECTADY", "addr:country": "US", "addr:full": "2814 HALSEY DR", "addr:postcode": "12304", "addr:state": "NY", "amenity": "post_box", "brand": "United States Postal Service", "brand:wikidata": "Q668687", "collection_times": "Mo-Fr 11:00; Sa 10:00", "name": "USPS COLLECTION BOX - BLUE BOX", "nsi_id": "unitedstatespostalservice-a77078", "operator": "United States Postal Service", "operator:short": "USPS", "operator:type": "public", "operator:wikidata": "Q668687", "ref": "1230400031"}, "type": "Feature"}
{"dataset_attributes": {"@spider": "usps_collection_boxes", "spider:collection_time": "2023-12-16T08:23:48.880691"}, "geometry": {"coordinates": [-73.891049, 42.78286], "type": "Point"}, "id": "ffizZJ7eovH615LQV2HyZ9zVeFI=", "properties": {"@spider": "usps_collection_boxes", "addr:city": "SCHENECTADY", "addr:country": "US", "addr:full": "3333 CONSAUL RD", "addr:postcode": "12304", "addr:state": "NY", "amenity": "post_box", "brand": "United States Postal Service", "brand:wikidata": "Q668687", "collection_times": "Mo-Sa 11:30", "name": "USPS COLLECTION BOX - BLUE BOX", "nsi_id": "unitedstatespostalservice-a77078", "operator": "United States Postal Service", "operator:short": "USPS", "operator:type": "public", "operator:wikidata": "Q668687", "ref": "1230400032"}, "type": "Feature"}
{"dataset_attributes": {"@spider": "usps_collection_boxes", "spider:collection_time": "2023-12-16T08:23:48.880691"}, "geometry": {"coordinates": [-73.9160686, 42.8031], "type": "Point"}, "id": "Ucm-w-hWpzuTycrhfjYaFO_W0J0=", "properties": {"@spider": "usps_collection_boxes", "addr:city": "SCHENECTADY", "addr:country": "US", "addr:full": "650 MCCLELLAN ST", "addr:postcode": "12304", "addr:state": "NY", "amenity": "post_box", "brand": "United States Postal Service", "brand:wikidata": "Q668687", "collection_times": "Mo-Fr 16:00; Sa 10:00", "name": "USPS COLLECTION BOX - BLUE BOX", "note": "ON 12/24 AND 12/31, THIS BOX MAY BE COLLECTED AS EARLY AS 12 NOON.", "nsi_id": "unitedstatespostalservice-a77078", "operator": "United States Postal Service", "operator:short": "USPS", "operator:type": "public", "operator:wikidata": "Q668687", "ref": "1230400034"}, "type": "Feature"}
{"dataset_attributes": {"@spider": "usps_collection_boxes", "spider:collection_time": "2023-12-16T08:23:48.880691"}, "geometry": {"coordinates": [-73.9148615, 42.803774], "type": "Point"}, "id": "36SJEjiruiYiQTEe51f5SpEpykI=", "properties": {"@spider": "usps_collection_boxes", "addr:city": "SCHENECTADY", "addr:country": "US", "addr:full": "700 MCCLELLAN ST", "addr:postcode": "12304", "addr:state": "NY", "amenity": "post_box", "brand": "United States Postal Service", "brand:wikidata": "Q668687", "collection_times": "Mo-Fr 16:00; Sa 10:00", "name": "USPS COLLECTION BOX - BLUE BOX", "note": "ON 12/24 AND 12/31, THIS BOX MAY BE COLLECTED AS EARLY AS 12 NOON.", "nsi_id": "unitedstatespostalservice-a77078", "operator": "United States Postal Service", "operator:short": "USPS", "operator:type": "public", "operator:wikidata": "Q668687", "ref": "1230400035"}, "type": "Feature"}
{"dataset_attributes": {"@spider": "usps_collection_boxes", "spider:collection_time": "2023-12-16T08:23:48.880691"}, "geometry": {"coordinates": [-73.8731739, 42.755156], "type": "Point"}, "id": "rUW4ifILflE8vDsHI8pGAcjOH_U=", "properties": {"@spider": "usps_collection_boxes", "addr:city": "SCHENECTADY", "addr:country": "US", "addr:full": "2115 CENTRAL AVE", "addr:postcode": "12304", "addr:state": "NY", "amenity": "post_box", "brand": "United States Postal Service", "brand:wikidata": "Q668687", "collection_times": "Mo-Sa 10:00", "name": "USPS COLLECTION BOX - BLUE BOX", "nsi_id": "unitedstatespostalservice-a77078", "operator": "United States Postal Service", "operator:short": "USPS", "operator:type": "public", "operator:wikidata": "Q668687", "ref": "1230400037"}, "type": "Feature"}
{"dataset_attributes": {"@spider": "usps_collection_boxes", "spider:collection_time": "2023-12-16T08:23:48.880691"}, "geometry": {"coordinates": [-73.9125979, 42.786532], "type": "Point"}, "id": "X6sJMu0qIDwUFkoGQj1dIp3y4tU=", "properties": {"@spider": "usps_collection_boxes", "addr:city": "SCHENECTADY", "addr:country": "US", "addr:full": "1594 STATE ST", "addr:postcode": "12304", "addr:state": "NY", "amenity": "post_box", "brand": "United States Postal Service", "brand:wikidata": "Q668687", "collection_times": "Mo-Fr 11:30", "name": "USPS COLLECTION BOX - BLUE BOX", "nsi_id": "unitedstatespostalservice-a77078", "operator": "United States Postal Service", "operator:short": "USPS", "operator:type": "public", "operator:wikidata": "Q668687", "ref": "1230400040"}, "type": "Feature"}
{"dataset_attributes": {"@spider": "usps_collection_boxes", "spider:collection_time": "2023-12-16T08:23:48.880691"}, "geometry": {"coordinates": [-73.9399485, 42.813812], "type": "Point"}, "id": "aoDxSdKgPF7hJsHLKDx8NV6ByjY=", "properties": {"@spider": "usps_collection_boxes", "addr:city": "SCHENECTADY", "addr:country": "US", "addr:full": "105 JAY ST", "addr:postcode": "12305", "addr:state": "NY", "amenity": "post_box", "brand": "United States Postal Service", "brand:wikidata": "Q668687", "collection_times": "Mo-Fr 15:15; Sa 09:30", "name": "USPS COLLECTION BOX - BLUE BOX", "note": "ON 12/24 AND 12/31, THIS BOX MAY BE COLLECTED AS EARLY AS 12 NOON.", "nsi_id": "unitedstatespostalservice-a77078", "operator": "United States Postal Service", "operator:short": "USPS", "operator:type": "public", "operator:wikidata": "Q668687", "ref": "1230500004"}, "type": "Feature"}
{"dataset_attributes": {"@spider": "usps_collection_boxes", "spider:collection_time": "2023-12-16T08:23:48.880691"}, "geometry": {"coordinates": [-73.9458104, 42.814955], "type": "Point"}, "id": "dBOY9JQzObnkFjTTAK9u-dsV8G8=", "properties": {"@spider": "usps_collection_boxes", "addr:city": "SCHENECTADY", "addr:country": "US", "addr:full": "214 STATE ST", "addr:postcode": "12305", "addr:state": "NY", "amenity": "post_box", "brand": "United States Postal Service", "brand:wikidata": "Q668687", "collection_times": "Mo-Fr 16:30", "name": "USPS COLLECTION BOX - BLUE BOX", "note": "ON 12/24 AND 12/31, THIS BOX MAY BE COLLECTED AS EARLY AS 12 NOON.", "nsi_id": "unitedstatespostalservice-a77078", "operator": "United States Postal Service", "operator:short": "USPS", "operator:type": "public", "operator:wikidata": "Q668687", "ref": "1230500012"}, "type": "Feature"}
{"dataset_attributes": {"@spider": "usps_collection_boxes", "spider:collection_time": "2023-12-16T08:23:48.880691"}, "geometry": {"coordinates": [-73.9426065, 42.816392], "type": "Point"}, "id": "LcMTSymfQq3JJCAiVkVRudHZKA8=", "properties": {"@spider": "usps_collection_boxes", "addr:city": "SCHENECTADY", "addr:country": "US", "addr:full": "243 UNION ST", "addr:postcode": "12305", "addr:state": "NY", "amenity": "post_box", "brand": "United States Postal Service", "brand:wikidata": "Q668687", "collection_times": "Mo-Sa 09:00", "name": "USPS COLLECTION BOX - BLUE BOX", "nsi_id": "unitedstatespostalservice-a77078", "operator": "United States Postal Service", "operator:short": "USPS", "operator:type": "public", "operator:wikidata": "Q668687", "ref": "1230500023"}, "type": "Feature"}
{"dataset_attributes": {"@spider": "usps_collection_boxes", "spider:collection_time": "2023-12-16T08:23:48.880691"}, "geometry": {"coordinates": [-73.9481709, 42.812077], "type": "Point"}, "id": "8Ch1R197Qth9hH7mrEKpOh6phhU=", "properties": {"@spider": "usps_collection_boxes", "addr:city": "SCHENECTADY", "addr:country": "US", "addr:full": "120 ERIE BLVD", "addr:postcode": "12305", "addr:state": "NY", "amenity": "post_box", "brand": "United States Postal Service", "brand:wikidata": "Q668687", "collection_times": "Mo-Fr 16:00; Sa 10:00", "name": "USPS COLLECTION BOX - BLUE BOX", "note": "ON 12/24 AND 12/31, THIS BOX MAY BE COLLECTED AS EARLY AS 12 NOON.", "nsi_id": "unitedstatespostalservice-a77078", "operator": "United States Postal Service", "operator:short": "USPS", "operator:type": "public", "operator:wikidata": "Q668687", "ref": "1230500024"}, "type": "Feature"}
{"dataset_attributes": {"@spider": "usps_collection_boxes", "spider:collection_time": "2023-12-16T08:23:48.880691"}, "geometry": {"coordinates": [-73.9459514, 42.818229], "type": "Point"}, "id": "QACtsFwe5YOuiZdUKC_wpKr-298=", "properties": {"@spider": "usps_collection_boxes", "addr:city": "SCHENECTADY", "addr:country": "US", "addr:full": "35 N FERRY ST", "addr:postcode": "12305", "addr:state": "NY", "amenity": "post_box", "brand": "United States Postal Service", "brand:wikidata": "Q668687", "collection_times": "Mo-Sa 11:30", "name": "USPS COLLECTION BOX - BLUE BOX", "nsi_id": "unitedstatespostalservice-a77078", "operator": "United States Postal Service", "operator:short": "USPS", "operator:type": "public", "operator:wikidata": "Q668687", "ref": "1230500027"}, "type": "Feature"}
{"dataset_attributes": {"@spider": "usps_collection_boxes", "spider:collection_time": "2023-12-16T08:23:48.880691"}, "geometry": {"coordinates": [-73.9450429, 42.809058], "type": "Point"}, "id": "gQwoHtwUSjdMS9XMurN_-tfWq4s=", "properties": {"@spider": "usps_collection_boxes", "addr:city": "SCHENECTADY", "addr:country": "US", "addr:full": "375 BROADWAY", "addr:postcode": "12305", "addr:state": "NY", "amenity": "post_box", "brand": "United States Postal Service", "brand:wikidata": "Q668687", "collection_times": "Mo-Fr 17:00; Sa 13:00", "name": "USPS COLLECTION BOX - BLUE BOX", "note": "ON 12/24 AND 12/31, THIS BOX MAY BE COLLECTED AS EARLY AS 12 NOON.", "nsi_id": "unitedstatespostalservice-a77078", "operator": "United States Postal Service", "operator:short": "USPS", "operator:type": "public", "operator:wikidata": "Q668687", "ref": "1230500035"}, "type": "Feature"}
{"dataset_attributes": {"@spider": "usps_collection_boxes", "spider:collection_time": "2023-12-16T08:23:48.880691"}, "geometry": {"coordinates": [-73.9432034, 42.811982], "type": "Point"}, "id": "RxZcRMUhlZjr9sIFaOUg_LcV6PQ=", "properties": {"@spider": "usps_collection_boxes", "addr:city": "SCHENECTADY", "addr:country": "US", "addr:full": "1 BROADWAY CTR", "addr:postcode": "12305", "addr:state": "NY", "amenity": "post_box", "brand": "United States Postal Service", "brand:wikidata": "Q668687", "collection_times": "Mo-Fr 17:00", "name": "USPS COLLECTION BOX - BLUE BOX", "note": "ON 12/24 AND 12/31, THIS BOX MAY BE COLLECTED AS EARLY AS 12 NOON.", "nsi_id": "unitedstatespostalservice-a77078", "operator": "United States Postal Service", "operator:short": "USPS", "operator:type": "public", "operator:wikidata": "Q668687", "ref": "1230500037"}, "type": "Feature"}
{"dataset_attributes": {"@spider": "usps_collection_boxes", "spider:collection_time": "2023-12-16T08:23:48.880691"}, "geometry": {"coordinates": [-73.9431776, 42.811942], "type": "Point"}, "id": "XENURdBcQGkIv8daONMkXpRK-c4=", "properties": {"@spider": "usps_collection_boxes", "addr:city": "SCHENECTADY", "addr:country": "US", "addr:full": "1 BROADWAY CTR", "addr:postcode": "12305", "addr:state": "NY", "amenity": "post_box", "brand": "United States Postal Service", "brand:wikidata": "Q668687", "collection_times": "Mo-Fr 17:00", "name": "USPS COLLECTION BOX - BLUE BOX", "note": "ON 12/24 AND 12/31, THIS BOX MAY BE COLLECTED AS EARLY AS 12 NOON.", "nsi_id": "unitedstatespostalservice-a77078", "operator": "United States Postal Service", "operator:short": "USPS", "operator:type": "public", "operator:wikidata": "Q668687", "ref": "1230500038"}, "type": "Feature"}
{"dataset_attributes": {"@spider": "usps_collection_boxes", "spider:collection_time": "2023-12-16T08:23:48.880691"}, "geometry": {"coordinates": [-73.9392895, 42.815387], "type": "Point"}, "id": "8mTYjMBPIxhMII7g6YIDwgjNj5U=", "properties": {"@spider": "usps_collection_boxes", "addr:city": "SCHENECTADY", "addr:country": "US", "addr:full": "20 JAY ST", "addr:postcode": "12305", "addr:state": "NY", "amenity": "post_box", "brand": "United States Postal Service", "brand:wikidata": "Q668687", "collection_times": "Mo-Sa 17:00", "name": "USPS COLLECTION BOX - BLUE BOX", "note": "ON 12/24 AND 12/31, THIS BOX MAY BE COLLECTED AS EARLY AS 12 NOON.", "nsi_id": "unitedstatespostalservice-a77078", "operator": "United States Postal Service", "operator:short": "USPS", "operator:type": "public", "operator:wikidata": "Q668687", "ref": "1230500047"}, "type": "Feature"}
{"dataset_attributes": {"@spider": "usps_collection_boxes", "spider:collection_time": "2023-12-16T08:23:48.880691"}, "geometry": {"coordinates": [-73.9393069, 42.815395], "type": "Point"}, "id": "Kyk1tseIpnU80Ak3AMfri0_ukJA=", "properties": {"@spider": "usps_collection_boxes", "addr:city": "SCHENECTADY", "addr:country": "US", "addr:full": "20 JAY ST", "addr:postcode": "12305", "addr:state": "NY", "amenity": "post_box", "brand": "United States Postal Service", "brand:wikidata": "Q668687", "collection_times": "Mo-Sa 17:00", "name": "USPS COLLECTION BOX - BLUE BOX", "note": "ON 12/24 AND 12/31, THIS BOX MAY BE COLLECTED AS EARLY AS 12 NOON.", "nsi_id": "unitedstatespostalservice-a77078", "operator": "United States Postal Service", "operator:short": "USPS", "operator:type": "public", "operator:wikidata": "Q668687", "ref": "1230500048"}, "type": "Feature"}
{"dataset_attributes": {"@spider": "usps_collection_boxes", "spider:collection_time": "2023-12-16T08:23:48.880691"}, "geometry": {"coordinates": [-73.9424748734, 42.8146949342], "type": "Point"}, "id": "Sznpkz1V4JCM9HFvmgiBFw04QW0=", "properties": {"@spider": "usps_collection_boxes", "addr:city": "SCHENECTADY", "addr:country": "US", "addr:full": "1 LIBERTY & CLINTON", "addr:postcode": "12305", "addr:state": "NY", "amenity": "post_box", "brand": "United States Postal Service", "brand:wikidata": "Q668687", "collection_times": "Mo-Sa 17:00", "name": "USPS COLLECTION BOX - BLUE BOX", "note": "ON 12/24 AND 12/31, THIS BOX MAY BE COLLECTED AS EARLY AS 12 NOON.", "nsi_id": "unitedstatespostalservice-a77078", "operator": "United States Postal Service", "operator:short": "USPS", "operator:type": "public", "operator:wikidata": "Q668687", "ref": "1230500049"}, "type": "Feature"}
{"dataset_attributes": {"@spider": "usps_collection_boxes", "spider:collection_time": "2023-12-16T08:23:48.880691"}, "geometry": {"coordinates": [-73.9424748734, 42.8146949342], "type": "Point"}, "id": "a9NDhP5Yv-9sycRh4zMysU6_KL4=", "properties": {"@spider": "usps_collection_boxes", "addr:city": "SCHENECTADY", "addr:country": "US", "addr:full": "1 LIBERTY & CLINTON", "addr:postcode": "12305", "addr:state": "NY", "amenity": "post_box", "brand": "United States Postal Service", "brand:wikidata": "Q668687", "collection_times": "Mo-Sa 17:00", "name": "USPS COLLECTION BOX - BLUE BOX", "note": "ON 12/24 AND 12/31, THIS BOX MAY BE COLLECTED AS EARLY AS 12 NOON.", "nsi_id": "unitedstatespostalservice-a77078", "operator": "United States Postal Service", "operator:short": "USPS", "operator:type": "public", "operator:wikidata": "Q668687", "ref": "1230500050"}, "type": "Feature"}
{"dataset_attributes": {"@spider": "usps_collection_boxes", "spider:collection_time": "2023-12-16T08:23:48.880691"}, "geometry": {"coordinates": [-73.9376126, 42.812525], "type": "Point"}, "id": "32ENKesskbbqc_qpSEF4QAPYMQM=", "properties": {"@spider": "usps_collection_boxes", "addr:city": "SCHENECTADY", "addr:country": "US", "addr:full": "600 FRANKLIN ST", "addr:postcode": "12305", "addr:state": "NY", "amenity": "post_box", "brand": "United States Postal Service", "brand:wikidata": "Q668687", "collection_times": "Mo-Fr 16:45; Sa 09:45", "name": "USPS COLLECTION BOX - BLUE BOX", "note": "ON 12/24 AND 12/31, THIS BOX MAY BE COLLECTED AS EARLY AS 12 NOON.", "nsi_id": "unitedstatespostalservice-a77078", "operator": "United States Postal Service", "operator:short": "USPS", "operator:type": "public", "operator:wikidata": "Q668687", "ref": "1230500053"}, "type": "Feature"}
{"dataset_attributes": {"@spider": "usps_collection_boxes", "spider:collection_time": "2023-12-16T08:23:48.880691"}, "geometry": {"coordinates": [-73.9420115, 42.810977], "type": "Point"}, "id": "Dhya8x7KBGn8fmMpFtDMvyp9obA=", "properties": {"@spider": "usps_collection_boxes", "addr:city": "SCHENECTADY", "addr:country": "US", "addr:full": "510 SMITH ST", "addr:postcode": "12305", "addr:state": "NY", "amenity": "post_box", "brand": "United States Postal Service", "brand:wikidata": "Q668687", "collection_times": "Mo-Sa 11:00", "name": "USPS COLLECTION BOX - BLUE BOX", "nsi_id": "unitedstatespostalservice-a77078", "operator": "United States Postal Service", "operator:short": "USPS", "operator:type": "public", "operator:wikidata": "Q668687", "ref": "1230500054"}, "type": "Feature"}
{"dataset_attributes": {"@spider": "usps_collection_boxes", "spider:collection_time": "2023-12-16T08:23:48.880691"}, "geometry": {"coordinates": [-73.93912, 42.814893], "type": "Point"}, "id": "zMsIOQtf1YIHabCwpH4lOovYNwo=", "properties": {"@spider": "usps_collection_boxes", "addr:city": "SCHENECTADY", "addr:country": "US", "addr:full": "29 JAY ST", "addr:postcode": "12305", "addr:state": "NY", "amenity": "post_box", "brand": "United States Postal Service", "brand:wikidata": "Q668687", "collection_times": "Mo-Fr 17:30; Sa 17:15", "name": "USPS COLLECTION BOX - PO LOBBY", "note": "ON 12/24 AND 12/31, THIS BOX MAY BE COLLECTED AS EARLY AS 12 NOON.", "nsi_id": "unitedstatespostalservice-a77078", "operator": "United States Postal Service", "operator:short": "USPS", "operator:type": "public", "operator:wikidata": "Q668687", "ref": "1230500087"}, "type": "Feature"}
{"dataset_attributes": {"@spider": "usps_collection_boxes", "spider:collection_time": "2023-12-16T08:23:48.880691"}, "geometry": {"coordinates": [-73.93912, 42.814893], "type": "Point"}, "id": "Mn-QX5ilQ1KU2_OzGtL2gKCSoaY=", "properties": {"@spider": "usps_collection_boxes", "addr:city": "SCHENECTADY", "addr:country": "US", "addr:full": "29 JAY ST", "addr:postcode": "12305", "addr:state": "NY", "amenity": "post_box", "brand": "United States Postal Service", "brand:wikidata": "Q668687", "collection_times": "Mo-Fr 17:30; Sa 17:15", "name": "USPS COLLECTION BOX - PO LOBBY", "note": "ON 12/24 AND 12/31, THIS BOX MAY BE COLLECTED AS EARLY AS 12 NOON.", "nsi_id": "unitedstatespostalservice-a77078", "operator": "United States Postal Service", "operator:short": "USPS", "operator:type": "public", "operator:wikidata": "Q668687", "ref": "1230500088"}, "type": "Feature"}
{"dataset_attributes": {"@spider": "usps_collection_boxes", "spider:collection_time": "2023-12-16T08:23:48.880691"}, "geometry": {"coordinates": [-73.93912, 42.814893], "type": "Point"}, "id": "opqhzI3E9UPlKR0irlPc55_-cRM=", "properties": {"@spider": "usps_collection_boxes", "addr:city": "SCHENECTADY", "addr:country": "US", "addr:full": "29 JAY ST", "addr:postcode": "12305", "addr:state": "NY", "amenity": "post_box", "brand": "United States Postal Service", "brand:wikidata": "Q668687", "collection_times": "Mo-Fr 17:30; Sa 17:15", "name": "USPS COLLECTION BOX - PO LOBBY", "note": "ON 12/24 AND 12/31, THIS BOX MAY BE COLLECTED AS EARLY AS 12 NOON.", "nsi_id": "unitedstatespostalservice-a77078", "operator": "United States Postal Service", "operator:short": "USPS", "operator:type": "public", "operator:wikidata": "Q668687", "ref": "1230500089"}, "type": "Feature"}
{"dataset_attributes": {"@spider": "usps_collection_boxes", "spider:collection_time": "2023-12-16T08:23:48.880691"}, "geometry": {"coordinates": [-73.93912, 42.814893], "type": "Point"}, "id": "84xhUhmOU9w_MqP6wfrEp9Qu7lc=", "properties": {"@spider": "usps_collection_boxes", "addr:city": "SCHENECTADY", "addr:country": "US", "addr:full": "29 JAY ST", "addr:postcode": "12305", "addr:state": "NY", "amenity": "post_box", "brand": "United States Postal Service", "brand:wikidata": "Q668687", "collection_times": "Mo-Fr 17:30", "name": "USPS COLLECTION BOX - PO LOBBY", "note": "ON 12/24 AND 12/31, THIS BOX MAY BE COLLECTED AS EARLY AS 12 NOON.", "nsi_id": "unitedstatespostalservice-a77078", "operator": "United States Postal Service", "operator:short": "USPS", "operator:type": "public", "operator:wikidata": "Q668687", "ref": "1230500090"}, "type": "Feature"}
{"dataset_attributes": {"@spider": "usps_collection_boxes", "spider:collection_time": "2023-12-16T08:23:48.880691"}, "geometry": {"coordinates": [-73.9376063, 42.812522], "type": "Point"}, "id": "fF74XbUYQPw1bPTG80qVJKG08i4=", "properties": {"@spider": "usps_collection_boxes", "addr:city": "SCHENECTADY", "addr:country": "US", "addr:full": "600 FRANKLIN ST", "addr:postcode": "12305", "addr:state": "NY", "amenity": "post_box", "brand": "United States Postal Service", "brand:wikidata": "Q668687", "collection_times": "Mo-Fr 16:45; Sa 09:45", "name": "USPS COLLECTION BOX - BLUE BOX", "note": "ON 12/24 AND 12/31, THIS BOX MAY BE COLLECTED AS EARLY AS 12 NOON.", "nsi_id": "unitedstatespostalservice-a77078", "operator": "United States Postal Service", "operator:short": "USPS", "operator:type": "public", "operator:wikidata": "Q668687", "ref": "1230500098"}, "type": "Feature"}
{"dataset_attributes": {"@spider": "usps_collection_boxes", "spider:collection_time": "2023-12-16T08:23:48.880691"}, "geometry": {"coordinates": [-73.9383728, 42.812989], "type": "Point"}, "id": "i38Bt-C5-Tj_mJFwxNmLmYs9u9s=", "properties": {"@spider": "usps_collection_boxes", "addr:city": "SCHENECTADY", "addr:country": "US", "addr:full": "530 FRANKLIN ST", "addr:postcode": "12305", "addr:state": "NY", "amenity": "post_box", "brand": "United States Postal Service", "brand:wikidata": "Q668687", "collection_times": "Mo-Fr 16:45; Sa 09:45", "name": "USPS COLLECTION BOX - BLUE BOX", "note": "ON 12/24 AND 12/31, THIS BOX MAY BE COLLECTED AS EARLY AS 12 NOON.", "nsi_id": "unitedstatespostalservice-a77078", "operator": "United States Postal Service", "operator:short": "USPS", "operator:type": "public", "operator:wikidata": "Q668687", "ref": "1230500099"}, "type": "Feature"}
{"dataset_attributes": {"@spider": "usps_collection_boxes", "spider:collection_time": "2023-12-16T08:23:48.880691"}, "geometry": {"coordinates": [-73.9411149, 42.812367], "type": "Point"}, "id": "OY3ljPvuX48N2WcgRofvDTPi34k=", "properties": {"@spider": "usps_collection_boxes", "addr:city": "SCHENECTADY", "addr:country": "US", "addr:full": "445 STATE ST", "addr:postcode": "12305", "addr:state": "NY", "amenity": "post_box", "brand": "United States Postal Service", "brand:wikidata": "Q668687", "collection_times": "Mo-Fr 16:30", "name": "USPS COLLECTION BOX - BLUE BOX", "note": "ON 12/24 AND 12/31, THIS BOX MAY BE COLLECTED AS EARLY AS 12 NOON.", "nsi_id": "unitedstatespostalservice-a77078", "operator": "United States Postal Service", "operator:short": "USPS", "operator:type": "public", "operator:wikidata": "Q668687", "ref": "1230500101"}, "type": "Feature"}
{"dataset_attributes": {"@spider": "usps_collection_boxes", "spider:collection_time": "2023-12-16T08:23:48.880691"}, "geometry": {"coordinates": [-73.9360595, 42.815947], "type": "Point"}, "id": "Eer5XuNAKs8TNLISTMnKIiV4Moo=", "properties": {"@spider": "usps_collection_boxes", "addr:city": "SCHENECTADY", "addr:country": "US", "addr:full": "621 UNION ST", "addr:postcode": "12305", "addr:state": "NY", "amenity": "post_box", "brand": "United States Postal Service", "brand:wikidata": "Q668687", "collection_times": "Mo-Fr 16:30", "name": "USPS COLLECTION BOX - BLUE BOX", "note": "ON 12/24 AND 12/31, THIS BOX MAY BE COLLECTED AS EARLY AS 12 NOON.", "nsi_id": "unitedstatespostalservice-a77078", "operator": "United States Postal Service", "operator:short": "USPS", "operator:type": "public", "operator:wikidata": "Q668687", "ref": "1230500104"}, "type": "Feature"}
{"dataset_attributes": {"@spider": "usps_collection_boxes", "spider:collection_time": "2023-12-16T08:23:48.880691"}, "geometry": {"coordinates": [-73.939254534, 42.815180864], "type": "Point"}, "id": "s4dRLpRNbC19WF3tRYhmRE4yfyE=", "properties": {"@spider": "usps_collection_boxes", "addr:city": "SCHENECTADY", "addr:country": "US", "addr:full": "29 JAY ST", "addr:postcode": "12305", "addr:state": "NY", "amenity": "post_box", "brand": "United States Postal Service", "brand:wikidata": "Q668687", "collection_times": "Mo-Fr 17:00; Sa 12:00", "name": "USPS COLLECTION BOX - PO LOBBY", "note": "ON 12/24 AND 12/31, THIS BOX MAY BE COLLECTED AS EARLY AS 12 NOON.", "nsi_id": "unitedstatespostalservice-a77078", "operator": "United States Postal Service", "operator:short": "USPS", "operator:type": "public", "operator:wikidata": "Q668687", "ref": "1230500113"}, "type": "Feature"}
{"dataset_attributes": {"@spider": "usps_collection_boxes", "spider:collection_time": "2023-12-16T08:23:48.880691"}, "geometry": {"coordinates": [-73.9634352, 42.777381], "type": "Point"}, "id": "RK4i2_u4yMCMJdI9Pwehh682-Lk=", "properties": {"@spider": "usps_collection_boxes", "addr:city": "SCHENECTADY", "addr:country": "US", "addr:full": "21 PURITAN DR", "addr:postcode": "12306", "addr:state": "NY", "amenity": "post_box", "brand": "United States Postal Service", "brand:wikidata": "Q668687", "collection_times": "Mo-Sa 11:30", "name": "USPS COLLECTION BOX - BLUE BOX", "nsi_id": "unitedstatespostalservice-a77078", "operator": "United States Postal Service", "operator:short": "USPS", "operator:type": "public", "operator:wikidata": "Q668687", "ref": "1230600003"}, "type": "Feature"}
{"dataset_attributes": {"@spider": "usps_collection_boxes", "spider:collection_time": "2023-12-16T08:23:48.880691"}, "geometry": {"coordinates": [-73.9748495, 42.785633], "type": "Point"}, "id": "nRyJml2q_k7B_RScWSColwdvfT4=", "properties": {"@spider": "usps_collection_boxes", "addr:city": "SCHENECTADY", "addr:country": "US", "addr:full": "1100 VINEWOOD AVE", "addr:postcode": "12306", "addr:state": "NY", "amenity": "post_box", "brand": "United States Postal Service", "brand:wikidata": "Q668687", "collection_times": "Mo-Fr 15:30; Sa 12:00", "name": "USPS COLLECTION BOX - BLUE BOX", "note": "ON 12/24 AND 12/31, THIS BOX MAY BE COLLECTED AS EARLY AS 12 NOON.", "nsi_id": "unitedstatespostalservice-a77078", "operator": "United States Postal Service", "operator:short": "USPS", "operator:type": "public", "operator:wikidata": "Q668687", "ref": "1230600005"}, "type": "Feature"}
{"dataset_attributes": {"@spider": "usps_collection_boxes", "spider:collection_time": "2023-12-16T08:23:48.880691"}, "geometry": {"coordinates": [-73.9725621957, 42.7948722176], "type": "Point"}, "id": "ALt54fgA9EU1xj73Xd9jp8ne9O4=", "properties": {"@spider": "usps_collection_boxes", "addr:city": "SCHENECTADY", "addr:country": "US", "addr:full": "2525 BROADWAY", "addr:postcode": "12306", "addr:state": "NY", "amenity": "post_box", "brand": "United States Postal Service", "brand:wikidata": "Q668687", "collection_times": "Mo-Sa 15:30", "name": "USPS COLLECTION BOX - BLUE BOX", "note": "ON 12/24 AND 12/31, THIS BOX MAY BE COLLECTED AS EARLY AS 12 NOON.", "nsi_id": "unitedstatespostalservice-a77078", "operator": "United States Postal Service", "operator:short": "USPS", "operator:type": "public", "operator:wikidata": "Q668687", "ref": "1230600011"}, "type": "Feature"}
{"dataset_attributes": {"@spider": "usps_collection_boxes", "spider:collection_time": "2023-12-16T08:23:48.880691"}, "geometry": {"coordinates": [-73.9711799, 42.781325], "type": "Point"}, "id": "q8kZeBhmAUIvVyJPMz2zZufF-HE=", "properties": {"@spider": "usps_collection_boxes", "addr:city": "SCHENECTADY", "addr:country": "US", "addr:full": "2996 GUILDERLAND AVE", "addr:postcode": "12306", "addr:state": "NY", "amenity": "post_box", "brand": "United States Postal Service", "brand:wikidata": "Q668687", "collection_times": "Mo-Sa 10:00", "name": "USPS COLLECTION BOX - BLUE BOX", "nsi_id": "unitedstatespostalservice-a77078", "operator": "United States Postal Service", "operator:short": "USPS", "operator:type": "public", "operator:wikidata": "Q668687", "ref": "1230600012"}, "type": "Feature"}
{"dataset_attributes": {"@spider": "usps_collection_boxes", "spider:collection_time": "2023-12-16T08:23:48.880691"}, "geometry": {"coordinates": [-73.9815034, 42.790487], "type": "Point"}, "id": "WmHCMMB3Ok2tGDen7JsUR1z2OFY=", "properties": {"@spider": "usps_collection_boxes", "addr:city": "SCHENECTADY", "addr:country": "US", "addr:full": "345 PRINCETOWN RD", "addr:postcode": "12306", "addr:state": "NY", "amenity": "post_box", "brand": "United States Postal Service", "brand:wikidata": "Q668687", "collection_times": "Mo-Fr 15:30; Sa 11:30", "name": "USPS COLLECTION BOX - BLUE BOX", "note": "ON 12/24 AND 12/31, THIS BOX MAY BE COLLECTED AS EARLY AS 12 NOON.", "nsi_id": "unitedstatespostalservice-a77078", "operator": "United States Postal Service", "operator:short": "USPS", "operator:type": "public", "operator:wikidata": "Q668687", "ref": "1230600015"}, "type": "Feature"}
{"dataset_attributes": {"@spider": "usps_collection_boxes", "spider:collection_time": "2023-12-16T08:23:48.880691"}, "geometry": {"coordinates": [-73.9607933, 42.79953], "type": "Point"}, "id": "VbNPU9T6lASWs07a2VJ7kHtu-l0=", "properties": {"@spider": "usps_collection_boxes", "addr:city": "SCHENECTADY", "addr:country": "US", "addr:full": "1675 BROADWAY", "addr:postcode": "12306", "addr:state": "NY", "amenity": "post_box", "brand": "United States Postal Service", "brand:wikidata": "Q668687", "collection_times": "Mo-Sa 15:30", "name": "USPS COLLECTION BOX - BLUE BOX", "note": "ON 12/24 AND 12/31, THIS BOX MAY BE COLLECTED AS EARLY AS 12 NOON.", "nsi_id": "unitedstatespostalservice-a77078", "operator": "United States Postal Service", "operator:short": "USPS", "operator:type": "public", "operator:wikidata": "Q668687", "ref": "1230600017"}, "type": "Feature"}
{"dataset_attributes": {"@spider": "usps_collection_boxes", "spider:collection_time": "2023-12-16T08:23:48.880691"}, "geometry": {"coordinates": [-73.9653821, 42.797834], "type": "Point"}, "id": "I5mbao_yIRDiN8lF9mDuvzmtW-w=", "properties": {"@spider": "usps_collection_boxes", "addr:city": "SCHENECTADY", "addr:country": "US", "addr:full": "2009 BROADWAY", "addr:postcode": "12306", "addr:state": "NY", "amenity": "post_box", "brand": "United States Postal Service", "brand:wikidata": "Q668687", "collection_times": "Mo-Sa 10:00", "name": "USPS COLLECTION BOX - BLUE BOX", "nsi_id": "unitedstatespostalservice-a77078", "operator": "United States Postal Service", "operator:short": "USPS", "operator:type": "public", "operator:wikidata": "Q668687", "ref": "1230600018"}, "type": "Feature"}
{"dataset_attributes": {"@spider": "usps_collection_boxes", "spider:collection_time": "2023-12-16T08:23:48.880691"}, "geometry": {"coordinates": [-73.9764266, 42.786504], "type": "Point"}, "id": "FKKqV1f-9SwFp508cwfXayUVZf4=", "properties": {"@spider": "usps_collection_boxes", "addr:city": "SCHENECTADY", "addr:country": "US", "addr:full": "1029 PAUL AVE", "addr:postcode": "12306", "addr:state": "NY", "amenity": "post_box", "brand": "United States Postal Service", "brand:wikidata": "Q668687", "collection_times": "Mo-Sa 10:30", "name": "USPS COLLECTION BOX - BLUE BOX", "nsi_id": "unitedstatespostalservice-a77078", "operator": "United States Postal Service", "operator:short": "USPS", "operator:type": "public", "operator:wikidata": "Q668687", "ref": "1230600026"}, "type": "Feature"}
{"dataset_attributes": {"@spider": "usps_collection_boxes", "spider:collection_time": "2023-12-16T08:23:48.880691"}, "geometry": {"coordinates": [-74.0056133, 42.794654], "type": "Point"}, "id": "NHyZOjLUM-DNbF0C8RGv5Ss8mAs=", "properties": {"@spider": "usps_collection_boxes", "addr:city": "SCHENECTADY", "addr:country": "US", "addr:full": "672 MARIAVILLE RD", "addr:postcode": "12306", "addr:state": "NY", "amenity": "post_box", "brand": "United States Postal Service", "brand:wikidata": "Q668687", "collection_times": "Mo-Fr 11:45; Sa 11:00", "name": "USPS COLLECTION BOX - BLUE BOX", "nsi_id": "unitedstatespostalservice-a77078", "operator": "United States Postal Service", "operator:short": "USPS", "operator:type": "public", "operator:wikidata": "Q668687", "ref": "1230600030"}, "type": "Feature"}
{"dataset_attributes": {"@spider": "usps_collection_boxes", "spider:collection_time": "2023-12-16T08:23:48.880691"}, "geometry": {"coordinates": [-73.9878589632, 42.8088539805], "type": "Point"}, "id": "qp9qrV94_TeqRtdnSiNSV5zAWDw=", "properties": {"@spider": "usps_collection_boxes", "addr:city": "SCHENECTADY", "addr:country": "US", "addr:full": "93 W CAMPBELL RD", "addr:postcode": "12306", "addr:state": "NY", "amenity": "post_box", "brand": "United States Postal Service", "brand:wikidata": "Q668687", "collection_times": "Mo-Fr 16:30; Sa 17:00", "name": "USPS COLLECTION BOX - PO LOBBY", "note": "ON 12/24 AND 12/31, THIS BOX MAY BE COLLECTED AS EARLY AS 12 NOON.", "nsi_id": "unitedstatespostalservice-a77078", "operator": "United States Postal Service", "operator:short": "USPS", "operator:type": "public", "operator:wikidata": "Q668687", "ref": "1230600031"}, "type": "Feature"}
{"dataset_attributes": {"@spider": "usps_collection_boxes", "spider:collection_time": "2023-12-16T08:23:48.880691"}, "geometry": {"coordinates": [-73.987858963, 42.808853981], "type": "Point"}, "id": "sS87hwFFjM9OHozxIhYjidytQiM=", "properties": {"@spider": "usps_collection_boxes", "addr:city": "SCHENECTADY", "addr:country": "US", "addr:full": "93 W CAMPBELL RD", "addr:postcode": "12306", "addr:state": "NY", "amenity": "post_box", "brand": "United States Postal Service", "brand:wikidata": "Q668687", "collection_times": "Mo-Fr 16:30; Sa 17:00", "name": "USPS COLLECTION BOX - BLUE BOX", "note": "ON 12/24 AND 12/31, THIS BOX MAY BE COLLECTED AS EARLY AS 12 NOON.", "nsi_id": "unitedstatespostalservice-a77078", "operator": "United States Postal Service", "operator:short": "USPS", "operator:type": "public", "operator:wikidata": "Q668687", "ref": "1230600032"}, "type": "Feature"}
{"dataset_attributes": {"@spider": "usps_collection_boxes", "spider:collection_time": "2023-12-16T08:23:48.880691"}, "geometry": {"coordinates": [-74.0019813, 42.796291], "type": "Point"}, "id": "--DIi0c7AZ3Fr6J8zTGWrthtnUM=", "properties": {"@spider": "usps_collection_boxes", "addr:city": "SCHENECTADY", "addr:country": "US", "addr:full": "1 LENT CT", "addr:postcode": "12306", "addr:state": "NY", "amenity": "post_box", "brand": "United States Postal Service", "brand:wikidata": "Q668687", "collection_times": "Mo-Sa 10:30", "name": "USPS COLLECTION BOX - BLUE BOX", "nsi_id": "unitedstatespostalservice-a77078", "operator": "United States Postal Service", "operator:short": "USPS", "operator:type": "public", "operator:wikidata": "Q668687", "ref": "1230600033"}, "type": "Feature"}
{"dataset_attributes": {"@spider": "usps_collection_boxes", "spider:collection_time": "2023-12-16T08:23:48.880691"}, "geometry": {"coordinates": [-73.9878589632, 42.8088539805], "type": "Point"}, "id": "fRrNu7Kh51YtuaTsWU5AcRaWgss=", "properties": {"@spider": "usps_collection_boxes", "addr:city": "SCHENECTADY", "addr:country": "US", "addr:full": "93 W CAMPBELL RD", "addr:postcode": "12306", "addr:state": "NY", "amenity": "post_box", "brand": "United States Postal Service", "brand:wikidata": "Q668687", "collection_times": "Mo-Fr 18:00; Sa 17:00", "name": "USPS COLLECTION BOX - PO LOBBY", "note": "ON 12/24 AND 12/31, THIS BOX MAY BE COLLECTED AS EARLY AS 12 NOON.", "nsi_id": "unitedstatespostalservice-a77078", "operator": "United States Postal Service", "operator:short": "USPS", "operator:type": "public", "operator:wikidata": "Q668687", "ref": "1230600039"}, "type": "Feature"}
{"dataset_attributes": {"@spider": "usps_collection_boxes", "spider:collection_time": "2023-12-16T08:23:48.880691"}, "geometry": {"coordinates": [-73.9392099, 42.808849], "type": "Point"}, "id": "siJyUbk3fhipbdxCF9ScgZYNUSQ=", "properties": {"@spider": "usps_collection_boxes", "addr:city": "SCHENECTADY", "addr:country": "US", "addr:full": "720 ALBANY ST", "addr:postcode": "12307", "addr:state": "NY", "amenity": "post_box", "brand": "United States Postal Service", "brand:wikidata": "Q668687", "collection_times": "Mo-Sa 10:30", "name": "USPS COLLECTION BOX - BLUE BOX", "nsi_id": "unitedstatespostalservice-a77078", "operator": "United States Postal Service", "operator:short": "USPS", "operator:type": "public", "operator:wikidata": "Q668687", "ref": "1230700003"}, "type": "Feature"}
{"dataset_attributes": {"@spider": "usps_collection_boxes", "spider:collection_time": "2023-12-16T08:23:48.880691"}, "geometry": {"coordinates": [-73.9170268, 42.812401], "type": "Point"}, "id": "8aVkPDdXpQzaczyhaB7BGa_4JwQ=", "properties": {"@spider": "usps_collection_boxes", "addr:city": "SCHENECTADY", "addr:country": "US", "addr:full": "1098 PARKWOOD BLVD", "addr:postcode": "12308", "addr:state": "NY", "amenity": "post_box", "brand": "United States Postal Service", "brand:wikidata": "Q668687", "collection_times": "Mo-Sa 11:00", "name": "USPS COLLECTION BOX - BLUE BOX", "nsi_id": "unitedstatespostalservice-a77078", "operator": "United States Postal Service", "operator:short": "USPS", "operator:type": "public", "operator:wikidata": "Q668687", "ref": "1230800004"}, "type": "Feature"}
{"dataset_attributes": {"@spider": "usps_collection_boxes", "spider:collection_time": "2023-12-16T08:23:48.880691"}, "geometry": {"coordinates": [-73.9230378, 42.823563], "type": "Point"}, "id": "71Z6W60fS6sggDHbxO4zVTLd4F0=", "properties": {"@spider": "usps_collection_boxes", "addr:city": "SCHENECTADY", "addr:country": "US", "addr:full": "1689 AVENUE A", "addr:postcode": "12308", "addr:state": "NY", "amenity": "post_box", "brand": "United States Postal Service", "brand:wikidata": "Q668687", "collection_times": "Mo-Sa 09:30", "name": "USPS COLLECTION BOX - BLUE BOX", "nsi_id": "unitedstatespostalservice-a77078", "operator": "United States Postal Service", "operator:short": "USPS", "operator:type": "public", "operator:wikidata": "Q668687", "ref": "1230800009"}, "type": "Feature"}
{"dataset_attributes": {"@spider": "usps_collection_boxes", "spider:collection_time": "2023-12-16T08:23:48.880691"}, "geometry": {"coordinates": [-73.9053657, 42.823947], "type": "Point"}, "id": "7ZqTR1ntfE4UnH9Tk9dqx-zTg7Q=", "properties": {"@spider": "usps_collection_boxes", "addr:city": "SCHENECTADY", "addr:country": "US", "addr:full": "1455 DORWALDT BLVD", "addr:postcode": "12308", "addr:state": "NY", "amenity": "post_box", "brand": "United States Postal Service", "brand:wikidata": "Q668687", "collection_times": "Mo-Sa 11:30", "name": "USPS COLLECTION BOX - BLUE BOX", "nsi_id": "unitedstatespostalservice-a77078", "operator": "United States Postal Service", "operator:short": "USPS", "operator:type": "public", "operator:wikidata": "Q668687", "ref": "1230800012"}, "type": "Feature"}
{"dataset_attributes": {"@spider": "usps_collection_boxes", "spider:collection_time": "2023-12-16T08:23:48.880691"}, "geometry": {"coordinates": [-73.9104372, 42.82354], "type": "Point"}, "id": "7Ep4HwC2T-XH3wWRmRPPekWm6Zw=", "properties": {"@spider": "usps_collection_boxes", "addr:city": "SCHENECTADY", "addr:country": "US", "addr:full": "1350 GERLING ST", "addr:postcode": "12308", "addr:state": "NY", "amenity": "post_box", "brand": "United States Postal Service", "brand:wikidata": "Q668687", "collection_times": "Mo-Sa 12:00", "name": "USPS COLLECTION BOX - BLUE BOX", "nsi_id": "unitedstatespostalservice-a77078", "operator": "United States Postal Service", "operator:short": "USPS", "operator:type": "public", "operator:wikidata": "Q668687", "ref": "1230800013"}, "type": "Feature"}
{"dataset_attributes": {"@spider": "usps_collection_boxes", "spider:collection_time": "2023-12-16T08:23:48.880691"}, "geometry": {"coordinates": [-73.9146038, 42.821335], "type": "Point"}, "id": "DlFUBYUTWb3O8Z8MG9NT3Q6t_d0=", "properties": {"@spider": "usps_collection_boxes", "addr:city": "SCHENECTADY", "addr:country": "US", "addr:full": "1270 BELMONT AVE", "addr:postcode": "12308", "addr:state": "NY", "amenity": "post_box", "brand": "United States Postal Service", "brand:wikidata": "Q668687", "collection_times": "Mo-Fr 15:30; Sa 12:00", "name": "USPS COLLECTION BOX - BLUE BOX", "note": "ON 12/24 AND 12/31, THIS BOX MAY BE COLLECTED AS EARLY AS 12 NOON.", "nsi_id": "unitedstatespostalservice-a77078", "operator": "United States Postal Service", "operator:short": "USPS", "operator:type": "public", "operator:wikidata": "Q668687", "ref": "1230800014"}, "type": "Feature"}
{"dataset_attributes": {"@spider": "usps_collection_boxes", "spider:collection_time": "2023-12-16T08:23:48.880691"}, "geometry": {"coordinates": [-73.9216015, 42.811152], "type": "Point"}, "id": "AXxt7_s26Qagq-oUN_DyorfN9t4=", "properties": {"@spider": "usps_collection_boxes", "addr:city": "SCHENECTADY", "addr:country": "US", "addr:full": "1225 UNION ST", "addr:postcode": "12308", "addr:state": "NY", "amenity": "post_box", "brand": "United States Postal Service", "brand:wikidata": "Q668687", "collection_times": "Mo-Sa 10:00", "name": "USPS COLLECTION BOX - BLUE BOX", "nsi_id": "unitedstatespostalservice-a77078", "operator": "United States Postal Service", "operator:short": "USPS", "operator:type": "public", "operator:wikidata": "Q668687", "ref": "1230800020"}, "type": "Feature"}
{"dataset_attributes": {"@spider": "usps_collection_boxes", "spider:collection_time": "2023-12-16T08:23:48.880691"}, "geometry": {"coordinates": [-73.9192274, 42.810094], "type": "Point"}, "id": "ITP2KYCA_LTfHPbfZvzxnNzRBYE=", "properties": {"@spider": "usps_collection_boxes", "addr:city": "SCHENECTADY", "addr:country": "US", "addr:full": "1328 UNION ST", "addr:postcode": "12308", "addr:state": "NY", "amenity": "post_box", "brand": "United States Postal Service", "brand:wikidata": "Q668687", "collection_times": "Mo-Sa 09:30", "name": "USPS COLLECTION BOX - BLUE BOX", "nsi_id": "unitedstatespostalservice-a77078", "operator": "United States Postal Service", "operator:short": "USPS", "operator:type": "public", "operator:wikidata": "Q668687", "ref": "1230800021"}, "type": "Feature"}
{"dataset_attributes": {"@spider": "usps_collection_boxes", "spider:collection_time": "2023-12-16T08:23:48.880691"}, "geometry": {"coordinates": [-73.9161031, 42.809294], "type": "Point"}, "id": "8GRujMACjvhy2nf4f8754W-GQ84=", "properties": {"@spider": "usps_collection_boxes", "addr:city": "SCHENECTADY", "addr:country": "US", "addr:full": "1355 UNION ST", "addr:postcode": "12308", "addr:state": "NY", "amenity": "post_box", "brand": "United States Postal Service", "brand:wikidata": "Q668687", "collection_times": "Mo-Sa 09:30", "name": "USPS COLLECTION BOX - BLUE BOX", "nsi_id": "unitedstatespostalservice-a77078", "operator": "United States Postal Service", "operator:short": "USPS", "operator:type": "public", "operator:wikidata": "Q668687", "ref": "1230800022"}, "type": "Feature"}
{"dataset_attributes": {"@spider": "usps_collection_boxes", "spider:collection_time": "2023-12-16T08:23:48.880691"}, "geometry": {"coordinates": [-73.9265922, 42.820648], "type": "Point"}, "id": "ZzkGiFijN7p-nwkBefe9piARLmE=", "properties": {"@spider": "usps_collection_boxes", "addr:city": "SCHENECTADY", "addr:country": "US", "addr:full": "1531 VAN VRANKEN AVE", "addr:postcode": "12308", "addr:state": "NY", "amenity": "post_box", "brand": "United States Postal Service", "brand:wikidata": "Q668687", "collection_times": "Mo-Sa 09:00", "name": "USPS COLLECTION BOX - BLUE BOX", "nsi_id": "unitedstatespostalservice-a77078", "operator": "United States Postal Service", "operator:short": "USPS", "operator:type": "public", "operator:wikidata": "Q668687", "ref": "1230800030"}, "type": "Feature"}
{"dataset_attributes": {"@spider": "usps_collection_boxes", "spider:collection_time": "2023-12-16T08:23:48.880691"}, "geometry": {"coordinates": [-73.9153935, 42.818967], "type": "Point"}, "id": "0j3jDstSj5T_8ZtH-YZ8CnUhwMc=", "properties": {"@spider": "usps_collection_boxes", "addr:city": "SCHENECTADY", "addr:country": "US", "addr:full": "1229 NOTT ST", "addr:postcode": "12308", "addr:state": "NY", "amenity": "post_box", "brand": "United States Postal Service", "brand:wikidata": "Q668687", "collection_times": "Mo-Sa 09:30", "name": "USPS COLLECTION BOX - BLUE BOX", "nsi_id": "unitedstatespostalservice-a77078", "operator": "United States Postal Service", "operator:short": "USPS", "operator:type": "public", "operator:wikidata": "Q668687", "ref": "1230800040"}, "type": "Feature"}
{"dataset_attributes": {"@spider": "usps_collection_boxes", "spider:collection_time": "2023-12-16T08:23:48.880691"}, "geometry": {"coordinates": [-73.9332372, 42.813539], "type": "Point"}, "id": "fhxSDSSeznhHvo4mV_Z7cLXJW8Q=", "properties": {"@spider": "usps_collection_boxes", "addr:city": "SCHENECTADY", "addr:country": "US", "addr:full": "107 NOTT TER", "addr:postcode": "12308", "addr:state": "NY", "amenity": "post_box", "brand": "United States Postal Service", "brand:wikidata": "Q668687", "collection_times": "Mo-Sa 10:00", "name": "USPS COLLECTION BOX - BLUE BOX", "nsi_id": "unitedstatespostalservice-a77078", "operator": "United States Postal Service", "operator:short": "USPS", "operator:type": "public", "operator:wikidata": "Q668687", "ref": "1230800041"}, "type": "Feature"}
{"dataset_attributes": {"@spider": "usps_collection_boxes", "spider:collection_time": "2023-12-16T08:23:48.880691"}, "geometry": {"coordinates": [-73.9012206, 42.829555], "type": "Point"}, "id": "1ZSq-GQWWAU0vnkR6ThAlOcC9No=", "properties": {"@spider": "usps_collection_boxes", "addr:city": "SCHENECTADY", "addr:country": "US", "addr:full": "2316 DEAN ST", "addr:postcode": "12309", "addr:state": "NY", "amenity": "post_box", "brand": "United States Postal Service", "brand:wikidata": "Q668687", "collection_times": "Mo-Sa 11:00", "name": "USPS COLLECTION BOX - BLUE BOX", "nsi_id": "unitedstatespostalservice-a77078", "operator": "United States Postal Service", "operator:short": "USPS", "operator:type": "public", "operator:wikidata": "Q668687", "ref": "1230900001"}, "type": "Feature"}
{"dataset_attributes": {"@spider": "usps_collection_boxes", "spider:collection_time": "2023-12-16T08:23:48.880691"}, "geometry": {"coordinates": [-73.8991857, 42.810297], "type": "Point"}, "id": "x_Zh506-y-bQCznsdv9hgff-xlU=", "properties": {"@spider": "usps_collection_boxes", "addr:city": "SCHENECTADY", "addr:country": "US", "addr:full": "2131 GRAND BLVD", "addr:postcode": "12309", "addr:state": "NY", "amenity": "post_box", "brand": "United States Postal Service", "brand:wikidata": "Q668687", "collection_times": "Mo-Sa 14:00", "name": "USPS COLLECTION BOX - BLUE BOX", "note": "ON 12/24 AND 12/31, THIS BOX MAY BE COLLECTED AS EARLY AS 12 NOON.", "nsi_id": "unitedstatespostalservice-a77078", "operator": "United States Postal Service", "operator:short": "USPS", "operator:type": "public", "operator:wikidata": "Q668687", "ref": "1230900003"}, "type": "Feature"}
{"dataset_attributes": {"@spider": "usps_collection_boxes", "spider:collection_time": "2023-12-16T08:23:48.880691"}, "geometry": {"coordinates": [-73.8997595, 42.801366], "type": "Point"}, "id": "eCMG8TNiRu2v1oKpCXpQtMOQEoo=", "properties": {"@spider": "usps_collection_boxes", "addr:city": "SCHENECTADY", "addr:country": "US", "addr:full": "2152 EASTERN PKWY", "addr:postcode": "12309", "addr:state": "NY", "amenity": "post_box", "brand": "United States Postal Service", "brand:wikidata": "Q668687", "collection_times": "Mo-Sa 09:30", "name": "USPS COLLECTION BOX - BLUE BOX", "nsi_id": "unitedstatespostalservice-a77078", "operator": "United States Postal Service", "operator:short": "USPS", "operator:type": "public", "operator:wikidata": "Q668687", "ref": "1230900004"}, "type": "Feature"}
{"dataset_attributes": {"@spider": "usps_collection_boxes", "spider:collection_time": "2023-12-16T08:23:48.880691"}, "geometry": {"coordinates": [-73.8986565, 42.801718], "type": "Point"}, "id": "OfUXFHYGqrOfCWwW0gyACRLS-TU=", "properties": {"@spider": "usps_collection_boxes", "addr:city": "SCHENECTADY", "addr:country": "US", "addr:full": "1776 UNION ST", "addr:postcode": "12309", "addr:state": "NY", "amenity": "post_box", "brand": "United States Postal Service", "brand:wikidata": "Q668687", "collection_times": "Mo-Fr 16:30; Sa 10:00", "name": "USPS COLLECTION BOX - BLUE BOX", "note": "ON 12/24 AND 12/31, THIS BOX MAY BE COLLECTED AS EARLY AS 12 NOON.", "nsi_id": "unitedstatespostalservice-a77078", "operator": "United States Postal Service", "operator:short": "USPS", "operator:type": "public", "operator:wikidata": "Q668687", "ref": "1230900005"}, "type": "Feature"}
{"dataset_attributes": {"@spider": "usps_collection_boxes", "spider:collection_time": "2023-12-16T08:23:48.880691"}, "geometry": {"coordinates": [-73.8985754, 42.799729], "type": "Point"}, "id": "pndz0FzhQa3Az2zGRYuPQTO52Rk=", "properties": {"@spider": "usps_collection_boxes", "addr:city": "SCHENECTADY", "addr:country": "US", "addr:full": "2177 DAISY LN", "addr:postcode": "12309", "addr:state": "NY", "amenity": "post_box", "brand": "United States Postal Service", "brand:wikidata": "Q668687", "collection_times": "Mo-Sa 10:00", "name": "USPS COLLECTION BOX - BLUE BOX", "nsi_id": "unitedstatespostalservice-a77078", "operator": "United States Postal Service", "operator:short": "USPS", "operator:type": "public", "operator:wikidata": "Q668687", "ref": "1230900006"}, "type": "Feature"}
{"dataset_attributes": {"@spider": "usps_collection_boxes", "spider:collection_time": "2023-12-16T08:23:48.880691"}, "geometry": {"coordinates": [-73.9032999, 42.800791], "type": "Point"}, "id": "yWmC4xcPWPckovc3WaBAQei9-V8=", "properties": {"@spider": "usps_collection_boxes", "addr:city": "SCHENECTADY", "addr:country": "US", "addr:full": "809 PARKSIDE AVE", "addr:postcode": "12309", "addr:state": "NY", "amenity": "post_box", "brand": "United States Postal Service", "brand:wikidata": "Q668687", "collection_times": "Mo-Sa 13:30", "name": "USPS COLLECTION BOX - BLUE BOX", "note": "ON 12/24 AND 12/31, THIS BOX MAY BE COLLECTED AS EARLY AS 12 NOON.", "nsi_id": "unitedstatespostalservice-a77078", "operator": "United States Postal Service", "operator:short": "USPS", "operator:type": "public", "operator:wikidata": "Q668687", "ref": "1230900007"}, "type": "Feature"}
{"dataset_attributes": {"@spider": "usps_collection_boxes", "spider:collection_time": "2023-12-16T08:23:48.880691"}, "geometry": {"coordinates": [-73.8898963, 42.813035], "type": "Point"}, "id": "y7CreYnVg1ddrnaYQjui2WBU7os=", "properties": {"@spider": "usps_collection_boxes", "addr:city": "SCHENECTADY", "addr:country": "US", "addr:full": "1365 VAN ANTWERP RD", "addr:postcode": "12309", "addr:state": "NY", "amenity": "post_box", "brand": "United States Postal Service", "brand:wikidata": "Q668687", "collection_times": "Mo-Sa 14:30", "name": "USPS COLLECTION BOX - BLUE BOX", "note": "ON 12/24 AND 12/31, THIS BOX MAY BE COLLECTED AS EARLY AS 12 NOON.", "nsi_id": "unitedstatespostalservice-a77078", "operator": "United States Postal Service", "operator:short": "USPS", "operator:type": "public", "operator:wikidata": "Q668687", "ref": "1230900016"}, "type": "Feature"}
{"dataset_attributes": {"@spider": "usps_collection_boxes", "spider:collection_time": "2023-12-16T08:23:48.880691"}, "geometry": {"coordinates": [-73.8935624504, 42.8157605639], "type": "Point"}, "id": "9exuPp9YkmjRN_fwLtSZaesK-OU=", "properties": {"@spider": "usps_collection_boxes", "addr:city": "SCHENECTADY", "addr:country": "US", "addr:full": "2229 NOTT ST", "addr:postcode": "12309", "addr:state": "NY", "amenity": "post_box", "brand": "United States Postal Service", "brand:wikidata": "Q668687", "collection_times": "Mo-Sa 13:00", "name": "USPS COLLECTION BOX - BLUE BOX", "note": "ON 12/24 AND 12/31, THIS BOX MAY BE COLLECTED AS EARLY AS 12 NOON.", "nsi_id": "unitedstatespostalservice-a77078", "operator": "United States Postal Service", "operator:short": "USPS", "operator:type": "public", "operator:wikidata": "Q668687", "ref": "1230900017"}, "type": "Feature"}
{"dataset_attributes": {"@spider": "usps_collection_boxes", "spider:collection_time": "2023-12-16T08:23:48.880691"}, "geometry": {"coordinates": [-73.8904905, 42.814845], "type": "Point"}, "id": "7D1-ZDjaG3wpGSMUKg21IRQFZjA=", "properties": {"@spider": "usps_collection_boxes", "addr:city": "SCHENECTADY", "addr:country": "US", "addr:full": "2320 NOTT ST E", "addr:postcode": "12309", "addr:state": "NY", "amenity": "post_box", "brand": "United States Postal Service", "brand:wikidata": "Q668687", "collection_times": "Mo-Fr 17:00; Sa 16:30", "name": "USPS COLLECTION BOX - BLUE BOX", "note": "ON 12/24 AND 12/31, THIS BOX MAY BE COLLECTED AS EARLY AS 12 NOON.", "nsi_id": "unitedstatespostalservice-a77078", "operator": "United States Postal Service", "operator:short": "USPS", "operator:type": "public", "operator:wikidata": "Q668687", "ref": "1230900018"}, "type": "Feature"}
{"dataset_attributes": {"@spider": "usps_collection_boxes", "spider:collection_time": "2023-12-16T08:23:48.880691"}, "geometry": {"coordinates": [-73.8984468, 42.821853], "type": "Point"}, "id": "07kqW9OctHu2IJGxle9KqhgdIjA=", "properties": {"@spider": "usps_collection_boxes", "addr:city": "SCHENECTADY", "addr:country": "US", "addr:full": "2004 DEAN ST", "addr:postcode": "12309", "addr:state": "NY", "amenity": "post_box", "brand": "United States Postal Service", "brand:wikidata": "Q668687", "collection_times": "Mo-Sa 11:00", "name": "USPS COLLECTION BOX - BLUE BOX", "nsi_id": "unitedstatespostalservice-a77078", "operator": "United States Postal Service", "operator:short": "USPS", "operator:type": "public", "operator:wikidata": "Q668687", "ref": "1230900021"}, "type": "Feature"}
{"dataset_attributes": {"@spider": "usps_collection_boxes", "spider:collection_time": "2023-12-16T08:23:48.880691"}, "geometry": {"coordinates": [-73.9052263, 42.805091], "type": "Point"}, "id": "HbauKUeO7yZY3GrbroNFAA69v3Q=", "properties": {"@spider": "usps_collection_boxes", "addr:city": "SCHENECTADY", "addr:country": "US", "addr:full": "1609 UNION ST", "addr:postcode": "12309", "addr:state": "NY", "amenity": "post_box", "brand": "United States Postal Service", "brand:wikidata": "Q668687", "collection_times": "Mo-Fr 17:00; Sa 12:00", "name": "USPS COLLECTION BOX - BLUE BOX", "note": "ON 12/24 AND 12/31, THIS BOX MAY BE COLLECTED AS EARLY AS 12 NOON.", "nsi_id": "unitedstatespostalservice-a77078", "operator": "United States Postal Service", "operator:short": "USPS", "operator:type": "public", "operator:wikidata": "Q668687", "ref": "1230900028"}, "type": "Feature"}
{"dataset_attributes": {"@spider": "usps_collection_boxes", "spider:collection_time": "2023-12-16T08:23:48.880691"}, "geometry": {"coordinates": [-73.909521, 42.80715], "type": "Point"}, "id": "q62ZpuxF8zBaTfHHw-ZnDeWXl-o=", "properties": {"@spider": "usps_collection_boxes", "addr:city": "SCHENECTADY", "addr:country": "US", "addr:full": "1541 UNION ST", "addr:postcode": "12309", "addr:state": "NY", "amenity": "post_box", "brand": "United States Postal Service", "brand:wikidata": "Q668687", "collection_times": "Mo-Fr 17:00; Sa 12:00", "name": "USPS COLLECTION BOX - BLUE BOX", "note": "ON 12/24 AND 12/31, THIS BOX MAY BE COLLECTED AS EARLY AS 12 NOON.", "nsi_id": "unitedstatespostalservice-a77078", "operator": "United States Postal Service", "operator:short": "USPS", "operator:type": "public", "operator:wikidata": "Q668687", "ref": "1230900029"}, "type": "Feature"}
{"dataset_attributes": {"@spider": "usps_collection_boxes", "spider:collection_time": "2023-12-16T08:23:48.880691"}, "geometry": {"coordinates": [-73.9130338, 42.80586], "type": "Point"}, "id": "BgCv2YDd9N5fjTruQ50yojer21Y=", "properties": {"@spider": "usps_collection_boxes", "addr:city": "SCHENECTADY", "addr:country": "US", "addr:full": "1620 EASTERN PKWY", "addr:postcode": "12309", "addr:state": "NY", "amenity": "post_box", "brand": "United States Postal Service", "brand:wikidata": "Q668687", "collection_times": "Mo-Sa 16:00", "name": "USPS COLLECTION BOX - BLUE BOX", "note": "ON 12/24 AND 12/31, THIS BOX MAY BE COLLECTED AS EARLY AS 12 NOON.", "nsi_id": "unitedstatespostalservice-a77078", "operator": "United States Postal Service", "operator:short": "USPS", "operator:type": "public", "operator:wikidata": "Q668687", "ref": "1230900032"}, "type": "Feature"}
{"dataset_attributes": {"@spider": "usps_collection_boxes", "spider:collection_time": "2023-12-16T08:23:48.880691"}, "geometry": {"coordinates": [-73.8857369, 42.818981], "type": "Point"}, "id": "4Be1oGP3FsruBxMUixaSiN4JyBo=", "properties": {"@spider": "usps_collection_boxes", "addr:city": "SCHENECTADY", "addr:country": "US", "addr:full": "1 NISKAYUNA CIR", "addr:postcode": "12309", "addr:state": "NY", "amenity": "post_box", "brand": "United States Postal Service", "brand:wikidata": "Q668687", "collection_times": "Mo-Fr 16:15; Sa 10:00", "name": "USPS COLLECTION BOX - BLUE BOX", "note": "ON 12/24 AND 12/31, THIS BOX MAY BE COLLECTED AS EARLY AS 12 NOON.", "nsi_id": "unitedstatespostalservice-a77078", "operator": "United States Postal Service", "operator:short": "USPS", "operator:type": "public", "operator:wikidata": "Q668687", "ref": "1230900033"}, "type": "Feature"}
{"dataset_attributes": {"@spider": "usps_collection_boxes", "spider:collection_time": "2023-12-16T08:23:48.880691"}, "geometry": {"coordinates": [-73.8908688, 42.830565], "type": "Point"}, "id": "QjdEappfkvXgs4-cVMME2WRL_NY=", "properties": {"@spider": "usps_collection_boxes", "addr:city": "SCHENECTADY", "addr:country": "US", "addr:full": "2546 BALLTOWN RD", "addr:postcode": "12309", "addr:state": "NY", "amenity": "post_box", "brand": "United States Postal Service", "brand:wikidata": "Q668687", "collection_times": "Mo-Fr 15:00; Sa 10:00", "name": "USPS COLLECTION BOX - BLUE BOX", "note": "ON 12/24 AND 12/31, THIS BOX MAY BE COLLECTED AS EARLY AS 12 NOON.", "nsi_id": "unitedstatespostalservice-a77078", "operator": "United States Postal Service", "operator:short": "USPS", "operator:type": "public", "operator:wikidata": "Q668687", "ref": "1230900034"}, "type": "Feature"}
{"dataset_attributes": {"@spider": "usps_collection_boxes", "spider:collection_time": "2023-12-16T08:23:48.880691"}, "geometry": {"coordinates": [-73.8904905, 42.814845], "type": "Point"}, "id": "Hrx6SzcsFtlZR4nAJ9Z6hOX9CTo=", "properties": {"@spider": "usps_collection_boxes", "addr:city": "SCHENECTADY", "addr:country": "US", "addr:full": "2320 NOTT ST E", "addr:postcode": "12309", "addr:state": "NY", "amenity": "post_box", "brand": "United States Postal Service", "brand:wikidata": "Q668687", "collection_times": "Mo-Fr 17:15; Sa 16:00", "name": "USPS COLLECTION BOX - BLUE BOX", "note": "ON 12/24 AND 12/31, THIS BOX MAY BE COLLECTED AS EARLY AS 12 NOON.", "nsi_id": "unitedstatespostalservice-a77078", "operator": "United States Postal Service", "operator:short": "USPS", "operator:type": "public", "operator:wikidata": "Q668687", "ref": "1230900047"}, "type": "Feature"}
{"dataset_attributes": {"@spider": "usps_collection_boxes", "spider:collection_time": "2023-12-16T08:23:48.880691"}, "geometry": {"coordinates": [-73.8904905, 42.814845], "type": "Point"}, "id": "5kfB83qXzD0TV0RdVV_t3XV0Ho0=", "properties": {"@spider": "usps_collection_boxes", "addr:city": "SCHENECTADY", "addr:country": "US", "addr:full": "2320 NOTT ST E", "addr:postcode": "12309", "addr:state": "NY", "amenity": "post_box", "brand": "United States Postal Service", "brand:wikidata": "Q668687", "collection_times": "Mo-Fr 18:00", "name": "USPS COLLECTION BOX - PO LOBBY", "note": "ON 12/24 AND 12/31, THIS BOX MAY BE COLLECTED AS EARLY AS 12 NOON.", "nsi_id": "unitedstatespostalservice-a77078", "operator": "United States Postal Service", "operator:short": "USPS", "operator:type": "public", "operator:wikidata": "Q668687", "ref": "1230900049"}, "type": "Feature"}
{"dataset_attributes": {"@spider": "usps_collection_boxes", "spider:collection_time": "2023-12-16T08:23:48.880691"}, "geometry": {"coordinates": [-73.8904905, 42.814845], "type": "Point"}, "id": "gtwQQJgrPmbk5VlZheVayGOH7Tw=", "properties": {"@spider": "usps_collection_boxes", "addr:city": "SCHENECTADY", "addr:country": "US", "addr:full": "2320 NOTT ST E", "addr:postcode": "12309", "addr:state": "NY", "amenity": "post_box", "brand": "United States Postal Service", "brand:wikidata": "Q668687", "collection_times": "Mo-Fr 18:00; Sa 13:00", "name": "USPS COLLECTION BOX - PO LOBBY", "note": "ON 12/24 AND 12/31, THIS BOX MAY BE COLLECTED AS EARLY AS 12 NOON.", "nsi_id": "unitedstatespostalservice-a77078", "operator": "United States Postal Service", "operator:short": "USPS", "operator:type": "public", "operator:wikidata": "Q668687", "ref": "1230900051"}, "type": "Feature"}
