{"dataset_attributes": {"@spider": "usps_collection_boxes", "spider:collection_time": "2023-10-13T08:25:25.513886"}, "geometry": {"coordinates": [-73.9293237, 41.702916], "type": "Point"}, "id": "zV67R42yvfgi76setDzMsNAsfn4=", "properties": {"@spider": "usps_collection_boxes", "addr:city": "POUGHKEEPSIE", "addr:country": "US", "addr:full": "43 MARKET ST", "addr:postcode": "12601", "addr:state": "NY", "amenity": "post_box", "brand": "United States Postal Service", "brand:wikidata": "Q668687", "collection_times": "Mo-Fr 17:00; Sa 14:00", "name": "USPS COLLECTION BOX - BLUE BOX", "note": "ON 12/24 AND 12/31, THIS BOX MAY BE COLLECTED AS EARLY AS 12 NOON.", "nsi_id": "unitedstatespostalservice-a77078", "operator": "United States Postal Service", "operator:short": "USPS", "operator:type": "public", "operator:wikidata": "Q668687", "ref": "1260100001"}, "type": "Feature"}
{"dataset_attributes": {"@spider": "usps_collection_boxes", "spider:collection_time": "2023-10-13T08:25:25.513886"}, "geometry": {"coordinates": [-73.9289462, 41.703907], "type": "Point"}, "id": "__EJIF3ou0rwxlKV-fHIMz-vm7M=", "properties": {"@spider": "usps_collection_boxes", "addr:city": "POUGHKEEPSIE", "addr:country": "US", "addr:full": "3 MARKET ST", "addr:postcode": "12601", "addr:state": "NY", "amenity": "post_box", "brand": "United States Postal Service", "brand:wikidata": "Q668687", "collection_times": "Mo-Fr 15:00; Sa 14:00", "name": "USPS COLLECTION BOX - BLUE BOX", "note": "ON 12/24 AND 12/31, THIS BOX MAY BE COLLECTED AS EARLY AS 12 NOON.", "nsi_id": "unitedstatespostalservice-a77078", "operator": "United States Postal Service", "operator:short": "USPS", "operator:type": "public", "operator:wikidata": "Q668687", "ref": "1260100002"}, "type": "Feature"}
{"dataset_attributes": {"@spider": "usps_collection_boxes", "spider:collection_time": "2023-10-13T08:25:25.513886"}, "geometry": {"coordinates": [-73.9273874, 41.703612], "type": "Point"}, "id": "zH5rV2ZVpr3eoiBUNJlznOju060=", "properties": {"@spider": "usps_collection_boxes", "addr:city": "POUGHKEEPSIE", "addr:country": "US", "addr:full": "289 MAIN ST", "addr:postcode": "12601", "addr:state": "NY", "amenity": "post_box", "brand": "United States Postal Service", "brand:wikidata": "Q668687", "collection_times": "Mo-Fr 16:00; Sa 14:00", "name": "USPS COLLECTION BOX - BLUE BOX", "note": "ON 12/24 AND 12/31, THIS BOX MAY BE COLLECTED AS EARLY AS 12 NOON.", "nsi_id": "unitedstatespostalservice-a77078", "operator": "United States Postal Service", "operator:short": "USPS", "operator:type": "public", "operator:wikidata": "Q668687", "ref": "1260100003"}, "type": "Feature"}
{"dataset_attributes": {"@spider": "usps_collection_boxes", "spider:collection_time": "2023-10-13T08:25:25.513886"}, "geometry": {"coordinates": [-73.9347863, 41.705145], "type": "Point"}, "id": "kVFvY0Zx7ybXg8LzRGJPqdEpaTQ=", "properties": {"@spider": "usps_collection_boxes", "addr:city": "POUGHKEEPSIE", "addr:country": "US", "addr:full": "110 MAIN ST", "addr:postcode": "12601", "addr:state": "NY", "amenity": "post_box", "brand": "United States Postal Service", "brand:wikidata": "Q668687", "collection_times": "Mo-Sa 14:00", "name": "USPS COLLECTION BOX - BLUE BOX", "note": "ON 12/24 AND 12/31, THIS BOX MAY BE COLLECTED AS EARLY AS 12 NOON.", "nsi_id": "unitedstatespostalservice-a77078", "operator": "United States Postal Service", "operator:short": "USPS", "operator:type": "public", "operator:wikidata": "Q668687", "ref": "1260100004"}, "type": "Feature"}
{"dataset_attributes": {"@spider": "usps_collection_boxes", "spider:collection_time": "2023-10-13T08:25:25.513886"}, "geometry": {"coordinates": [-73.9263019, 41.701716], "type": "Point"}, "id": "teO1hNaVUXAiDPu-LtXmfM63kys=", "properties": {"@spider": "usps_collection_boxes", "addr:city": "POUGHKEEPSIE", "addr:country": "US", "addr:full": "27 ACADEMY ST", "addr:postcode": "12601", "addr:state": "NY", "amenity": "post_box", "brand": "United States Postal Service", "brand:wikidata": "Q668687", "collection_times": "Mo-Sa 13:30", "name": "USPS COLLECTION BOX - BLUE BOX", "note": "ON 12/24 AND 12/31, THIS BOX MAY BE COLLECTED AS EARLY AS 12 NOON.", "nsi_id": "unitedstatespostalservice-a77078", "operator": "United States Postal Service", "operator:short": "USPS", "operator:type": "public", "operator:wikidata": "Q668687", "ref": "1260100005"}, "type": "Feature"}
{"dataset_attributes": {"@spider": "usps_collection_boxes", "spider:collection_time": "2023-10-13T08:25:25.513886"}, "geometry": {"coordinates": [-73.9306422, 41.700935], "type": "Point"}, "id": "PzzgbJN-HYPN8z2-q2v73knXNH0=", "properties": {"@spider": "usps_collection_boxes", "addr:city": "POUGHKEEPSIE", "addr:country": "US", "addr:full": "94 MARKET ST", "addr:postcode": "12601", "addr:state": "NY", "amenity": "post_box", "brand": "United States Postal Service", "brand:wikidata": "Q668687", "collection_times": "Mo-Fr 15:00; Sa 14:00", "name": "USPS COLLECTION BOX - BLUE BOX", "note": "ON 12/24 AND 12/31, THIS BOX MAY BE COLLECTED AS EARLY AS 12 NOON.", "nsi_id": "unitedstatespostalservice-a77078", "operator": "United States Postal Service", "operator:short": "USPS", "operator:type": "public", "operator:wikidata": "Q668687", "ref": "1260100006"}, "type": "Feature"}
{"dataset_attributes": {"@spider": "usps_collection_boxes", "spider:collection_time": "2023-10-13T08:25:25.513886"}, "geometry": {"coordinates": [-73.9290859, 41.70835], "type": "Point"}, "id": "cCJosKWurUEzAiLt9eweZJZIwKU=", "properties": {"@spider": "usps_collection_boxes", "addr:city": "POUGHKEEPSIE", "addr:country": "US", "addr:full": "82 WASHINGTON ST", "addr:postcode": "12601", "addr:state": "NY", "amenity": "post_box", "brand": "United States Postal Service", "brand:wikidata": "Q668687", "collection_times": "Mo-Fr 16:00; Sa 14:00", "name": "USPS COLLECTION BOX - BLUE BOX", "note": "ON 12/24 AND 12/31, THIS BOX MAY BE COLLECTED AS EARLY AS 12 NOON.", "nsi_id": "unitedstatespostalservice-a77078", "operator": "United States Postal Service", "operator:short": "USPS", "operator:type": "public", "operator:wikidata": "Q668687", "ref": "1260100008"}, "type": "Feature"}
{"dataset_attributes": {"@spider": "usps_collection_boxes", "spider:collection_time": "2023-10-13T08:25:25.513886"}, "geometry": {"coordinates": [-73.9261221, 41.704906], "type": "Point"}, "id": "FV2Lj7VtYdcLc8FfTIe_7Q2foTw=", "properties": {"@spider": "usps_collection_boxes", "addr:city": "POUGHKEEPSIE", "addr:country": "US", "addr:full": "291 MILL ST", "addr:postcode": "12601", "addr:state": "NY", "amenity": "post_box", "brand": "United States Postal Service", "brand:wikidata": "Q668687", "collection_times": "Mo-Fr 14:30; Sa 11:30", "name": "USPS COLLECTION BOX - BLUE BOX", "note": "ON 12/24 AND 12/31, THIS BOX MAY BE COLLECTED AS EARLY AS 12 NOON.", "nsi_id": "unitedstatespostalservice-a77078", "operator": "United States Postal Service", "operator:short": "USPS", "operator:type": "public", "operator:wikidata": "Q668687", "ref": "1260100010"}, "type": "Feature"}
{"dataset_attributes": {"@spider": "usps_collection_boxes", "spider:collection_time": "2023-10-13T08:25:25.513886"}, "geometry": {"coordinates": [-73.9348673, 41.701912], "type": "Point"}, "id": "W22cZuEdXgFnFIic9z5bwhaqhCw=", "properties": {"@spider": "usps_collection_boxes", "addr:city": "POUGHKEEPSIE", "addr:country": "US", "addr:full": "2 JEFFERSON PLZ", "addr:postcode": "12601", "addr:state": "NY", "amenity": "post_box", "brand": "United States Postal Service", "brand:wikidata": "Q668687", "collection_times": "Mo-Sa 14:00", "name": "USPS COLLECTION BOX - BLUE BOX", "note": "ON 12/24 AND 12/31, THIS BOX MAY BE COLLECTED AS EARLY AS 12 NOON.", "nsi_id": "unitedstatespostalservice-a77078", "operator": "United States Postal Service", "operator:short": "USPS", "operator:type": "public", "operator:wikidata": "Q668687", "ref": "1260100016"}, "type": "Feature"}
{"dataset_attributes": {"@spider": "usps_collection_boxes", "spider:collection_time": "2023-10-13T08:25:25.513886"}, "geometry": {"coordinates": [-73.9280654, 41.667455], "type": "Point"}, "id": "Fvmg619cx6QF7pl7lEnG7TSu0dU=", "properties": {"@spider": "usps_collection_boxes", "addr:city": "POUGHKEEPSIE", "addr:country": "US", "addr:full": "2600 SOUTH RD", "addr:postcode": "12601", "addr:state": "NY", "amenity": "post_box", "brand": "United States Postal Service", "brand:wikidata": "Q668687", "collection_times": "Sa 15:00", "name": "USPS COLLECTION BOX - BLUE BOX", "note": "ON 12/24 AND 12/31, THIS BOX MAY BE COLLECTED AS EARLY AS 12 NOON.", "nsi_id": "unitedstatespostalservice-a77078", "operator": "United States Postal Service", "operator:short": "USPS", "operator:type": "public", "operator:wikidata": "Q668687", "ref": "1260100017"}, "type": "Feature"}
{"dataset_attributes": {"@spider": "usps_collection_boxes", "spider:collection_time": "2023-10-13T08:25:25.513886"}, "geometry": {"coordinates": [-73.9265523, 41.714731], "type": "Point"}, "id": "szqbu_xKpnW8WqWhBOxUWqNHG-E=", "properties": {"@spider": "usps_collection_boxes", "addr:city": "POUGHKEEPSIE", "addr:country": "US", "addr:full": "29 CLARK ST", "addr:postcode": "12601", "addr:state": "NY", "amenity": "post_box", "brand": "United States Postal Service", "brand:wikidata": "Q668687", "collection_times": "Mo-Fr 13:30; Sa 14:00", "name": "USPS COLLECTION BOX - BLUE BOX", "note": "ON 12/24 AND 12/31, THIS BOX MAY BE COLLECTED AS EARLY AS 12 NOON.", "nsi_id": "unitedstatespostalservice-a77078", "operator": "United States Postal Service", "operator:short": "USPS", "operator:type": "public", "operator:wikidata": "Q668687", "ref": "1260100021"}, "type": "Feature"}
{"dataset_attributes": {"@spider": "usps_collection_boxes", "spider:collection_time": "2023-10-13T08:25:25.513886"}, "geometry": {"coordinates": [-73.9219078, 41.720746], "type": "Point"}, "id": "w-MzbnZd14Vq3ySbtNjAqFOc1AY=", "properties": {"@spider": "usps_collection_boxes", "addr:city": "POUGHKEEPSIE", "addr:country": "US", "addr:full": "99 FAIRVIEW AVE", "addr:postcode": "12601", "addr:state": "NY", "amenity": "post_box", "brand": "United States Postal Service", "brand:wikidata": "Q668687", "collection_times": "Mo-Sa 13:15", "name": "USPS COLLECTION BOX - BLUE BOX", "note": "ON 12/24 AND 12/31, THIS BOX MAY BE COLLECTED AS EARLY AS 12 NOON.", "nsi_id": "unitedstatespostalservice-a77078", "operator": "United States Postal Service", "operator:short": "USPS", "operator:type": "public", "operator:wikidata": "Q668687", "ref": "1260100023"}, "type": "Feature"}
{"dataset_attributes": {"@spider": "usps_collection_boxes", "spider:collection_time": "2023-10-13T08:25:25.513886"}, "geometry": {"coordinates": [-73.9107645, 41.697992], "type": "Point"}, "id": "SHpQrqQDcikU7UsJXpu4oXqEkfY=", "properties": {"@spider": "usps_collection_boxes", "addr:city": "POUGHKEEPSIE", "addr:country": "US", "addr:full": "643 MAIN ST", "addr:postcode": "12601", "addr:state": "NY", "amenity": "post_box", "brand": "United States Postal Service", "brand:wikidata": "Q668687", "collection_times": "Mo-Fr 10:00; Sa 09:00", "name": "USPS COLLECTION BOX - BLUE BOX", "nsi_id": "unitedstatespostalservice-a77078", "operator": "United States Postal Service", "operator:short": "USPS", "operator:type": "public", "operator:wikidata": "Q668687", "ref": "1260100032"}, "type": "Feature"}
{"dataset_attributes": {"@spider": "usps_collection_boxes", "spider:collection_time": "2023-10-13T08:25:25.513886"}, "geometry": {"coordinates": [-73.9254415, 41.702798], "type": "Point"}, "id": "MvYEpo6zQL6mIy7Ha8SRMKnM5Bc=", "properties": {"@spider": "usps_collection_boxes", "addr:city": "POUGHKEEPSIE", "addr:country": "US", "addr:full": "345 MAIN ST", "addr:postcode": "12601", "addr:state": "NY", "amenity": "post_box", "brand": "United States Postal Service", "brand:wikidata": "Q668687", "collection_times": "Mo-Fr 14:30; Sa 14:00", "name": "USPS COLLECTION BOX - BLUE BOX", "note": "ON 12/24 AND 12/31, THIS BOX MAY BE COLLECTED AS EARLY AS 12 NOON.", "nsi_id": "unitedstatespostalservice-a77078", "operator": "United States Postal Service", "operator:short": "USPS", "operator:type": "public", "operator:wikidata": "Q668687", "ref": "1260100036"}, "type": "Feature"}
{"dataset_attributes": {"@spider": "usps_collection_boxes", "spider:collection_time": "2023-10-13T08:25:25.513886"}, "geometry": {"coordinates": [-73.9278045, 41.70684], "type": "Point"}, "id": "VelQxL2olVIsH1COzzaOJJQCgjk=", "properties": {"@spider": "usps_collection_boxes", "addr:city": "POUGHKEEPSIE", "addr:country": "US", "addr:full": "51 CIVIC CENTER PLZ", "addr:postcode": "12601", "addr:state": "NY", "amenity": "post_box", "brand": "United States Postal Service", "brand:wikidata": "Q668687", "collection_times": "Mo-Fr 17:00; Sa 14:00", "name": "USPS COLLECTION BOX - BLUE BOX", "note": "ON 12/24 AND 12/31, THIS BOX MAY BE COLLECTED AS EARLY AS 12 NOON.", "nsi_id": "unitedstatespostalservice-a77078", "operator": "United States Postal Service", "operator:short": "USPS", "operator:type": "public", "operator:wikidata": "Q668687", "ref": "1260100038"}, "type": "Feature"}
{"dataset_attributes": {"@spider": "usps_collection_boxes", "spider:collection_time": "2023-10-13T08:25:25.513886"}, "geometry": {"coordinates": [-73.9276956, 41.707103], "type": "Point"}, "id": "CYDqsfk3gFORK_liR1ljaASJNlY=", "properties": {"@spider": "usps_collection_boxes", "addr:city": "POUGHKEEPSIE", "addr:country": "US", "addr:full": "55 MANSION ST", "addr:postcode": "12601", "addr:state": "NY", "amenity": "post_box", "brand": "United States Postal Service", "brand:wikidata": "Q668687", "collection_times": "Mo-Fr 17:00; Sa 14:00", "name": "USPS COLLECTION BOX - BLUE BOX", "note": "ON 12/24 AND 12/31, THIS BOX MAY BE COLLECTED AS EARLY AS 12 NOON.", "nsi_id": "unitedstatespostalservice-a77078", "operator": "United States Postal Service", "operator:short": "USPS", "operator:type": "public", "operator:wikidata": "Q668687", "ref": "1260100039"}, "type": "Feature"}
{"dataset_attributes": {"@spider": "usps_collection_boxes", "spider:collection_time": "2023-10-13T08:25:25.513886"}, "geometry": {"coordinates": [-73.9352134, 41.650201], "type": "Point"}, "id": "zuzc_Uhi1z7b1JGMxrIlswm7ywY=", "properties": {"@spider": "usps_collection_boxes", "addr:city": "POUGHKEEPSIE", "addr:country": "US", "addr:full": "159 BARNEGAT RD", "addr:postcode": "12601", "addr:state": "NY", "amenity": "post_box", "brand": "United States Postal Service", "brand:wikidata": "Q668687", "collection_times": "Mo-Fr 12:30; Sa 11:30", "name": "USPS COLLECTION BOX - BLUE BOX", "note": "ON 12/24 AND 12/31, THIS BOX MAY BE COLLECTED AS EARLY AS 12 NOON.", "nsi_id": "unitedstatespostalservice-a77078", "operator": "United States Postal Service", "operator:short": "USPS", "operator:type": "public", "operator:wikidata": "Q668687", "ref": "1260100042"}, "type": "Feature"}
{"dataset_attributes": {"@spider": "usps_collection_boxes", "spider:collection_time": "2023-10-13T08:25:25.513886"}, "geometry": {"coordinates": [-73.9358957, 41.694666], "type": "Point"}, "id": "y4FD_2i06GMhtMSRh6fMtKvDHjQ=", "properties": {"@spider": "usps_collection_boxes", "addr:city": "POUGHKEEPSIE", "addr:country": "US", "addr:full": "1 COLUMBIA ST", "addr:postcode": "12601", "addr:state": "NY", "amenity": "post_box", "brand": "United States Postal Service", "brand:wikidata": "Q668687", "collection_times": "Mo-Sa 12:00", "name": "USPS COLLECTION BOX - BLUE BOX", "nsi_id": "unitedstatespostalservice-a77078", "operator": "United States Postal Service", "operator:short": "USPS", "operator:type": "public", "operator:wikidata": "Q668687", "ref": "1260100044"}, "type": "Feature"}
{"dataset_attributes": {"@spider": "usps_collection_boxes", "spider:collection_time": "2023-10-13T08:25:25.513886"}, "geometry": {"coordinates": [-73.9300329, 41.670573], "type": "Point"}, "id": "Fi1rydlbbDlhnc0Z8fYLvY__cs0=", "properties": {"@spider": "usps_collection_boxes", "addr:city": "POUGHKEEPSIE", "addr:country": "US", "addr:full": "2649 SOUTH RD", "addr:postcode": "12601", "addr:state": "NY", "amenity": "post_box", "brand": "United States Postal Service", "brand:wikidata": "Q668687", "collection_times": "Mo-Fr 15:00; Sa 11:30", "name": "USPS COLLECTION BOX - BLUE BOX", "note": "ON 12/24 AND 12/31, THIS BOX MAY BE COLLECTED AS EARLY AS 12 NOON.", "nsi_id": "unitedstatespostalservice-a77078", "operator": "United States Postal Service", "operator:short": "USPS", "operator:type": "public", "operator:wikidata": "Q668687", "ref": "1260100048"}, "type": "Feature"}
{"dataset_attributes": {"@spider": "usps_collection_boxes", "spider:collection_time": "2023-10-13T08:25:25.513886"}, "geometry": {"coordinates": [-73.9305356, 41.666353], "type": "Point"}, "id": "gfjr8vTNpBol0J3V61SdlS2PNbY=", "properties": {"@spider": "usps_collection_boxes", "addr:city": "POUGHKEEPSIE", "addr:country": "US", "addr:full": "2585 SOUTH RD", "addr:postcode": "12601", "addr:state": "NY", "amenity": "post_box", "brand": "United States Postal Service", "brand:wikidata": "Q668687", "collection_times": "Mo-Fr 12:00; Sa 11:30", "name": "USPS COLLECTION BOX - BLUE BOX", "nsi_id": "unitedstatespostalservice-a77078", "operator": "United States Postal Service", "operator:short": "USPS", "operator:type": "public", "operator:wikidata": "Q668687", "ref": "1260100049"}, "type": "Feature"}
{"dataset_attributes": {"@spider": "usps_collection_boxes", "spider:collection_time": "2023-10-13T08:25:25.513886"}, "geometry": {"coordinates": [-73.9210052, 41.625309], "type": "Point"}, "id": "VpzgDPhAv2jczsWlFpL1qb30uPM=", "properties": {"@spider": "usps_collection_boxes", "addr:city": "POUGHKEEPSIE", "addr:country": "US", "addr:full": "2001 SOUTH RD", "addr:postcode": "12601", "addr:state": "NY", "amenity": "post_box", "brand": "United States Postal Service", "brand:wikidata": "Q668687", "collection_times": "Mo-Sa 11:00", "name": "USPS COLLECTION BOX - BLUE BOX", "nsi_id": "unitedstatespostalservice-a77078", "operator": "United States Postal Service", "operator:short": "USPS", "operator:type": "public", "operator:wikidata": "Q668687", "ref": "1260100050"}, "type": "Feature"}
{"dataset_attributes": {"@spider": "usps_collection_boxes", "spider:collection_time": "2023-10-13T08:25:25.513886"}, "geometry": {"coordinates": [-73.9294686, 41.664678], "type": "Point"}, "id": "H0C23zREOEajjjUtq0NMMveyn48=", "properties": {"@spider": "usps_collection_boxes", "addr:city": "POUGHKEEPSIE", "addr:country": "US", "addr:full": "2572 SOUTH RD", "addr:postcode": "12601", "addr:state": "NY", "amenity": "post_box", "brand": "United States Postal Service", "brand:wikidata": "Q668687", "collection_times": "Mo-Fr 17:00; Sa 11:30", "name": "USPS COLLECTION BOX - BLUE BOX", "note": "ON 12/24 AND 12/31, THIS BOX MAY BE COLLECTED AS EARLY AS 12 NOON.", "nsi_id": "unitedstatespostalservice-a77078", "operator": "United States Postal Service", "operator:short": "USPS", "operator:type": "public", "operator:wikidata": "Q668687", "ref": "1260100052"}, "type": "Feature"}
{"dataset_attributes": {"@spider": "usps_collection_boxes", "spider:collection_time": "2023-10-13T08:25:25.513886"}, "geometry": {"coordinates": [-73.9276619, 41.671762], "type": "Point"}, "id": "IOy_FB0yczPGzQh0Rm5imYz-dUY=", "properties": {"@spider": "usps_collection_boxes", "addr:city": "POUGHKEEPSIE", "addr:country": "US", "addr:full": "2678 SOUTH RD", "addr:postcode": "12601", "addr:state": "NY", "amenity": "post_box", "brand": "United States Postal Service", "brand:wikidata": "Q668687", "collection_times": "Mo-Fr 16:00; Sa 11:30", "name": "USPS COLLECTION BOX - BLUE BOX", "note": "ON 12/24 AND 12/31, THIS BOX MAY BE COLLECTED AS EARLY AS 12 NOON.", "nsi_id": "unitedstatespostalservice-a77078", "operator": "United States Postal Service", "operator:short": "USPS", "operator:type": "public", "operator:wikidata": "Q668687", "ref": "1260100053"}, "type": "Feature"}
{"dataset_attributes": {"@spider": "usps_collection_boxes", "spider:collection_time": "2023-10-13T08:25:25.513886"}, "geometry": {"coordinates": [-73.9201159, 41.627297], "type": "Point"}, "id": "672AgD9rhwBQrzic3N--wYxCflk=", "properties": {"@spider": "usps_collection_boxes", "addr:city": "POUGHKEEPSIE", "addr:country": "US", "addr:full": "2001 SOUTH RD", "addr:postcode": "12601", "addr:state": "NY", "amenity": "post_box", "brand": "United States Postal Service", "brand:wikidata": "Q668687", "collection_times": "Mo-Sa 11:00", "name": "USPS COLLECTION BOX - BLUE BOX", "nsi_id": "unitedstatespostalservice-a77078", "operator": "United States Postal Service", "operator:short": "USPS", "operator:type": "public", "operator:wikidata": "Q668687", "ref": "1260100074"}, "type": "Feature"}
{"dataset_attributes": {"@spider": "usps_collection_boxes", "spider:collection_time": "2023-10-13T08:25:25.513886"}, "geometry": {"coordinates": [-73.9208539, 41.711134], "type": "Point"}, "id": "0oIY-IjqJoEtrice-0pKfILT0X0=", "properties": {"@spider": "usps_collection_boxes", "addr:city": "POUGHKEEPSIE", "addr:country": "US", "addr:full": "150 N HAMILTON ST", "addr:postcode": "12601", "addr:state": "NY", "amenity": "post_box", "brand": "United States Postal Service", "brand:wikidata": "Q668687", "collection_times": "Mo-Sa 09:00", "name": "USPS COLLECTION BOX - BLUE BOX", "nsi_id": "unitedstatespostalservice-a77078", "operator": "United States Postal Service", "operator:short": "USPS", "operator:type": "public", "operator:wikidata": "Q668687", "ref": "1260100076"}, "type": "Feature"}
{"dataset_attributes": {"@spider": "usps_collection_boxes", "spider:collection_time": "2023-10-13T08:25:25.513886"}, "geometry": {"coordinates": [-73.9285936, 41.647417], "type": "Point"}, "id": "58PA-o_7mXz3xZd7tJc0ThU-U18=", "properties": {"@spider": "usps_collection_boxes", "addr:city": "POUGHKEEPSIE", "addr:country": "US", "addr:full": "18 ANTHONY DR", "addr:postcode": "12601", "addr:state": "NY", "amenity": "post_box", "brand": "United States Postal Service", "brand:wikidata": "Q668687", "collection_times": "Mo-Sa 14:00", "name": "USPS COLLECTION BOX - BLUE BOX", "note": "ON 12/24 AND 12/31, THIS BOX MAY BE COLLECTED AS EARLY AS 12 NOON.", "nsi_id": "unitedstatespostalservice-a77078", "operator": "United States Postal Service", "operator:short": "USPS", "operator:type": "public", "operator:wikidata": "Q668687", "ref": "1260100080"}, "type": "Feature"}
{"dataset_attributes": {"@spider": "usps_collection_boxes", "spider:collection_time": "2023-10-13T08:25:25.513886"}, "geometry": {"coordinates": [-73.939481, 41.699753], "type": "Point"}, "id": "mN1HgWQpxXb0G55tRsJ2pZTjE6k=", "properties": {"@spider": "usps_collection_boxes", "addr:city": "POUGHKEEPSIE", "addr:country": "US", "addr:full": "14 STOUT CT", "addr:postcode": "12601", "addr:state": "NY", "amenity": "post_box", "brand": "United States Postal Service", "brand:wikidata": "Q668687", "collection_times": "Mo-Sa 14:00", "name": "USPS COLLECTION BOX - BLUE BOX", "note": "ON 12/24 AND 12/31, THIS BOX MAY BE COLLECTED AS EARLY AS 12 NOON.", "nsi_id": "unitedstatespostalservice-a77078", "operator": "United States Postal Service", "operator:short": "USPS", "operator:type": "public", "operator:wikidata": "Q668687", "ref": "1260100084"}, "type": "Feature"}
{"dataset_attributes": {"@spider": "usps_collection_boxes", "spider:collection_time": "2023-10-13T08:25:25.513886"}, "geometry": {"coordinates": [-73.9223488, 41.681412], "type": "Point"}, "id": "gg5bwFoMDA_ot_t1LYCDHYp3seA=", "properties": {"@spider": "usps_collection_boxes", "addr:city": "POUGHKEEPSIE", "addr:country": "US", "addr:full": "700 SECOND MILE DR", "addr:postcode": "12601", "addr:state": "NY", "amenity": "post_box", "brand": "United States Postal Service", "brand:wikidata": "Q668687", "collection_times": "Mo-Fr 09:30; Sa 10:00", "name": "USPS COLLECTION BOX - BLUE BOX", "nsi_id": "unitedstatespostalservice-a77078", "operator": "United States Postal Service", "operator:short": "USPS", "operator:type": "public", "operator:wikidata": "Q668687", "ref": "1260100085"}, "type": "Feature"}
{"dataset_attributes": {"@spider": "usps_collection_boxes", "spider:collection_time": "2023-10-13T08:25:25.513886"}, "geometry": {"coordinates": [-73.9076739, 41.726491], "type": "Point"}, "id": "pdB5PUCcdMQqjYost1hnbqUU_c8=", "properties": {"@spider": "usps_collection_boxes", "addr:city": "POUGHKEEPSIE", "addr:country": "US", "addr:full": "34 VAN WYCK DR", "addr:postcode": "12601", "addr:state": "NY", "amenity": "post_box", "brand": "United States Postal Service", "brand:wikidata": "Q668687", "collection_times": "Mo-Sa 11:00", "name": "USPS COLLECTION BOX - BLUE BOX", "nsi_id": "unitedstatespostalservice-a77078", "operator": "United States Postal Service", "operator:short": "USPS", "operator:type": "public", "operator:wikidata": "Q668687", "ref": "1260100086"}, "type": "Feature"}
{"dataset_attributes": {"@spider": "usps_collection_boxes", "spider:collection_time": "2023-10-13T08:25:25.513886"}, "geometry": {"coordinates": [-73.9336905, 41.706722], "type": "Point"}, "id": "T3Ysna5hbGXRr7E1vL6FD8cZaBQ=", "properties": {"@spider": "usps_collection_boxes", "addr:city": "POUGHKEEPSIE", "addr:country": "US", "addr:full": "20 N PERRY ST", "addr:postcode": "12601", "addr:state": "NY", "amenity": "post_box", "brand": "United States Postal Service", "brand:wikidata": "Q668687", "collection_times": "Mo-Sa 13:45", "name": "USPS COLLECTION BOX - BLUE BOX", "note": "ON 12/24 AND 12/31, THIS BOX MAY BE COLLECTED AS EARLY AS 12 NOON.", "nsi_id": "unitedstatespostalservice-a77078", "operator": "United States Postal Service", "operator:short": "USPS", "operator:type": "public", "operator:wikidata": "Q668687", "ref": "1260100088"}, "type": "Feature"}
{"dataset_attributes": {"@spider": "usps_collection_boxes", "spider:collection_time": "2023-10-13T08:25:25.513886"}, "geometry": {"coordinates": [-73.9349005, 41.707748], "type": "Point"}, "id": "nl1Hibz5eJgBO_GDgIHnfiZ6f1s=", "properties": {"@spider": "usps_collection_boxes", "addr:city": "POUGHKEEPSIE", "addr:country": "US", "addr:full": "44 N CLOVER ST", "addr:postcode": "12601", "addr:state": "NY", "amenity": "post_box", "brand": "United States Postal Service", "brand:wikidata": "Q668687", "collection_times": "Mo-Sa 14:00", "name": "USPS COLLECTION BOX - BLUE BOX", "note": "ON 12/24 AND 12/31, THIS BOX MAY BE COLLECTED AS EARLY AS 12 NOON.", "nsi_id": "unitedstatespostalservice-a77078", "operator": "United States Postal Service", "operator:short": "USPS", "operator:type": "public", "operator:wikidata": "Q668687", "ref": "1260100090"}, "type": "Feature"}
{"dataset_attributes": {"@spider": "usps_collection_boxes", "spider:collection_time": "2023-10-13T08:25:25.513886"}, "geometry": {"coordinates": [-73.9103826, 41.70311], "type": "Point"}, "id": "h0O1jCdiAbox2UnYerlOfRgMho4=", "properties": {"@spider": "usps_collection_boxes", "addr:city": "POUGHKEEPSIE", "addr:country": "US", "addr:full": "378 MANSION ST", "addr:postcode": "12601", "addr:state": "NY", "amenity": "post_box", "brand": "United States Postal Service", "brand:wikidata": "Q668687", "collection_times": "Mo-Fr 11:00; Sa 09:00", "name": "USPS COLLECTION BOX - BLUE BOX", "nsi_id": "unitedstatespostalservice-a77078", "operator": "United States Postal Service", "operator:short": "USPS", "operator:type": "public", "operator:wikidata": "Q668687", "ref": "1260100092"}, "type": "Feature"}
{"dataset_attributes": {"@spider": "usps_collection_boxes", "spider:collection_time": "2023-10-13T08:25:25.513886"}, "geometry": {"coordinates": [-73.9233339, 41.643179], "type": "Point"}, "id": "CuFp_WUDZ20A9L2VlH0WEDhsymk=", "properties": {"@spider": "usps_collection_boxes", "addr:city": "POUGHKEEPSIE", "addr:country": "US", "addr:full": "3 NEPTUNE RD", "addr:postcode": "12601", "addr:state": "NY", "amenity": "post_box", "brand": "United States Postal Service", "brand:wikidata": "Q668687", "collection_times": "Mo-Fr 16:00; Sa 11:30", "name": "USPS COLLECTION BOX - BLUE BOX", "note": "ON 12/24 AND 12/31, THIS BOX MAY BE COLLECTED AS EARLY AS 12 NOON.", "nsi_id": "unitedstatespostalservice-a77078", "operator": "United States Postal Service", "operator:short": "USPS", "operator:type": "public", "operator:wikidata": "Q668687", "ref": "1260100093"}, "type": "Feature"}
{"dataset_attributes": {"@spider": "usps_collection_boxes", "spider:collection_time": "2023-10-13T08:25:25.513886"}, "geometry": {"coordinates": [-73.9194076, 41.619113], "type": "Point"}, "id": "If9hPgl-fllnymurdelrBDWf7kQ=", "properties": {"@spider": "usps_collection_boxes", "addr:city": "POUGHKEEPSIE", "addr:country": "US", "addr:full": "1895 SOUTH RD", "addr:postcode": "12601", "addr:state": "NY", "amenity": "post_box", "brand": "United States Postal Service", "brand:wikidata": "Q668687", "collection_times": "Mo-Sa 11:30", "name": "USPS COLLECTION BOX - BLUE BOX", "nsi_id": "unitedstatespostalservice-a77078", "operator": "United States Postal Service", "operator:short": "USPS", "operator:type": "public", "operator:wikidata": "Q668687", "ref": "1260100099"}, "type": "Feature"}
{"dataset_attributes": {"@spider": "usps_collection_boxes", "spider:collection_time": "2023-10-13T08:25:25.513886"}, "geometry": {"coordinates": [-73.929379, 41.704363], "type": "Point"}, "id": "Ea-S_JUDIJAaFJ3ygKnoXDQ-yFs=", "properties": {"@spider": "usps_collection_boxes", "addr:city": "POUGHKEEPSIE", "addr:country": "US", "addr:full": "235 MAIN ST", "addr:postcode": "12601", "addr:state": "NY", "amenity": "post_box", "brand": "United States Postal Service", "brand:wikidata": "Q668687", "collection_times": "Mo-Fr 16:00; Sa 14:00", "name": "USPS COLLECTION BOX - BLUE BOX", "note": "ON 12/24 AND 12/31, THIS BOX MAY BE COLLECTED AS EARLY AS 12 NOON.", "nsi_id": "unitedstatespostalservice-a77078", "operator": "United States Postal Service", "operator:short": "USPS", "operator:type": "public", "operator:wikidata": "Q668687", "ref": "1260100100"}, "type": "Feature"}
{"dataset_attributes": {"@spider": "usps_collection_boxes", "spider:collection_time": "2023-10-13T08:25:25.513886"}, "geometry": {"coordinates": [-73.9284847, 41.694167], "type": "Point"}, "id": "ac-x3eN2FJ51nicLE3_LIbJXJ4o=", "properties": {"@spider": "usps_collection_boxes", "addr:city": "POUGHKEEPSIE", "addr:country": "US", "addr:full": "153 ACADEMY ST", "addr:postcode": "12601", "addr:state": "NY", "amenity": "post_box", "brand": "United States Postal Service", "brand:wikidata": "Q668687", "collection_times": "Mo-Sa 13:30", "name": "USPS COLLECTION BOX - BLUE BOX", "note": "ON 12/24 AND 12/31, THIS BOX MAY BE COLLECTED AS EARLY AS 12 NOON.", "nsi_id": "unitedstatespostalservice-a77078", "operator": "United States Postal Service", "operator:short": "USPS", "operator:type": "public", "operator:wikidata": "Q668687", "ref": "1260100101"}, "type": "Feature"}
{"dataset_attributes": {"@spider": "usps_collection_boxes", "spider:collection_time": "2023-10-13T08:25:25.513886"}, "geometry": {"coordinates": [-73.9233744, 41.681488], "type": "Point"}, "id": "yjIlXom7dKG_-IjNGvC-Z7Huuk4=", "properties": {"@spider": "usps_collection_boxes", "addr:city": "POUGHKEEPSIE", "addr:country": "US", "addr:full": "9 HILLTOP CT", "addr:postcode": "12601", "addr:state": "NY", "amenity": "post_box", "brand": "United States Postal Service", "brand:wikidata": "Q668687", "collection_times": "Mo-Sa 14:00", "name": "USPS COLLECTION BOX - BLUE BOX", "note": "ON 12/24 AND 12/31, THIS BOX MAY BE COLLECTED AS EARLY AS 12 NOON.", "nsi_id": "unitedstatespostalservice-a77078", "operator": "United States Postal Service", "operator:short": "USPS", "operator:type": "public", "operator:wikidata": "Q668687", "ref": "1260100104"}, "type": "Feature"}
{"dataset_attributes": {"@spider": "usps_collection_boxes", "spider:collection_time": "2023-10-13T08:25:25.513886"}, "geometry": {"coordinates": [-73.9341574, 41.693469], "type": "Point"}, "id": "SeXBoD3Qa-kt8WbbOAex6ogfcg0=", "properties": {"@spider": "usps_collection_boxes", "addr:city": "POUGHKEEPSIE", "addr:country": "US", "addr:full": "60 LIVINGSTON ST", "addr:postcode": "12601", "addr:state": "NY", "amenity": "post_box", "brand": "United States Postal Service", "brand:wikidata": "Q668687", "collection_times": "Mo-Sa 10:00", "name": "USPS COLLECTION BOX - BLUE BOX", "nsi_id": "unitedstatespostalservice-a77078", "operator": "United States Postal Service", "operator:short": "USPS", "operator:type": "public", "operator:wikidata": "Q668687", "ref": "1260100105"}, "type": "Feature"}
{"dataset_attributes": {"@spider": "usps_collection_boxes", "spider:collection_time": "2023-10-13T08:25:25.513886"}, "geometry": {"coordinates": [-73.9331295, 41.650694], "type": "Point"}, "id": "pdeY1mxjR2GFKrJPXR2DEywihJQ=", "properties": {"@spider": "usps_collection_boxes", "addr:city": "POUGHKEEPSIE", "addr:country": "US", "addr:full": "22 IBM RD", "addr:postcode": "12601", "addr:state": "NY", "amenity": "post_box", "brand": "United States Postal Service", "brand:wikidata": "Q668687", "collection_times": "Mo-Fr 13:00; Sa 11:30", "name": "USPS COLLECTION BOX - BLUE BOX", "note": "ON 12/24 AND 12/31, THIS BOX MAY BE COLLECTED AS EARLY AS 12 NOON.", "nsi_id": "unitedstatespostalservice-a77078", "operator": "United States Postal Service", "operator:short": "USPS", "operator:type": "public", "operator:wikidata": "Q668687", "ref": "1260100106"}, "type": "Feature"}
{"dataset_attributes": {"@spider": "usps_collection_boxes", "spider:collection_time": "2023-10-13T08:25:25.513886"}, "geometry": {"coordinates": [-73.9035112, 41.725137], "type": "Point"}, "id": "uI9aIxJVc6yOJB9BLmjcM5I2rrM=", "properties": {"@spider": "usps_collection_boxes", "addr:city": "POUGHKEEPSIE", "addr:country": "US", "addr:full": "53 PENDELL RD", "addr:postcode": "12601", "addr:state": "NY", "amenity": "post_box", "brand": "United States Postal Service", "brand:wikidata": "Q668687", "collection_times": "Mo-Fr 14:00", "name": "USPS COLLECTION BOX - BLUE BOX", "note": "ON 12/24 AND 12/31, THIS BOX MAY BE COLLECTED AS EARLY AS 12 NOON.", "nsi_id": "unitedstatespostalservice-a77078", "operator": "United States Postal Service", "operator:short": "USPS", "operator:type": "public", "operator:wikidata": "Q668687", "ref": "1260100109"}, "type": "Feature"}
{"dataset_attributes": {"@spider": "usps_collection_boxes", "spider:collection_time": "2023-10-13T08:25:25.513886"}, "geometry": {"coordinates": [-73.9292016, 41.718529], "type": "Point"}, "id": "s_Xm2pXhoRx5IuFLEwtvBUS1Tp4=", "properties": {"@spider": "usps_collection_boxes", "addr:city": "POUGHKEEPSIE", "addr:country": "US", "addr:full": "243 NORTH RD", "addr:postcode": "12601", "addr:state": "NY", "amenity": "post_box", "brand": "United States Postal Service", "brand:wikidata": "Q668687", "collection_times": "Mo-Sa 10:00", "name": "USPS COLLECTION BOX - BLUE BOX", "nsi_id": "unitedstatespostalservice-a77078", "operator": "United States Postal Service", "operator:short": "USPS", "operator:type": "public", "operator:wikidata": "Q668687", "ref": "1260100110"}, "type": "Feature"}
{"dataset_attributes": {"@spider": "usps_collection_boxes", "spider:collection_time": "2023-10-13T08:25:25.513886"}, "geometry": {"coordinates": [-73.9207733, 41.692317], "type": "Point"}, "id": "a1nqPFltZ9z15_p8G5IJrxD9Qz4=", "properties": {"@spider": "usps_collection_boxes", "addr:city": "POUGHKEEPSIE", "addr:country": "US", "addr:full": "99 HOOKER AVE", "addr:postcode": "12601", "addr:state": "NY", "amenity": "post_box", "brand": "United States Postal Service", "brand:wikidata": "Q668687", "collection_times": "Mo-Sa 09:30", "name": "USPS COLLECTION BOX - BLUE BOX", "nsi_id": "unitedstatespostalservice-a77078", "operator": "United States Postal Service", "operator:short": "USPS", "operator:type": "public", "operator:wikidata": "Q668687", "ref": "1260100111"}, "type": "Feature"}
{"dataset_attributes": {"@spider": "usps_collection_boxes", "spider:collection_time": "2023-10-13T08:25:25.513886"}, "geometry": {"coordinates": [-73.9318107, 41.706994], "type": "Point"}, "id": "wZhxwLQ5FXVYikmRoFQvqPkrcYw=", "properties": {"@spider": "usps_collection_boxes", "addr:city": "POUGHKEEPSIE", "addr:country": "US", "addr:full": "195 MILL ST", "addr:postcode": "12601", "addr:state": "NY", "amenity": "post_box", "brand": "United States Postal Service", "brand:wikidata": "Q668687", "collection_times": "Mo-Sa 09:00", "name": "USPS COLLECTION BOX - BLUE BOX", "nsi_id": "unitedstatespostalservice-a77078", "operator": "United States Postal Service", "operator:short": "USPS", "operator:type": "public", "operator:wikidata": "Q668687", "ref": "1260100112"}, "type": "Feature"}
{"dataset_attributes": {"@spider": "usps_collection_boxes", "spider:collection_time": "2023-10-13T08:25:25.513886"}, "geometry": {"coordinates": [-73.9246703935, 41.7045213057], "type": "Point"}, "id": "zZqKSTkli0RRLD5NRrEz1O0hAPQ=", "properties": {"@spider": "usps_collection_boxes", "addr:city": "POUGHKEEPSIE", "addr:country": "US", "addr:full": "319 MILL ST", "addr:postcode": "12601", "addr:state": "NY", "amenity": "post_box", "brand": "United States Postal Service", "brand:wikidata": "Q668687", "collection_times": "Mo-Fr 14:30; Sa 11:30", "name": "USPS COLLECTION BOX - BLUE BOX", "note": "ON 12/24 AND 12/31, THIS BOX MAY BE COLLECTED AS EARLY AS 12 NOON.", "nsi_id": "unitedstatespostalservice-a77078", "operator": "United States Postal Service", "operator:short": "USPS", "operator:type": "public", "operator:wikidata": "Q668687", "ref": "1260100113"}, "type": "Feature"}
{"dataset_attributes": {"@spider": "usps_collection_boxes", "spider:collection_time": "2023-10-13T08:25:25.513886"}, "geometry": {"coordinates": [-73.9001886, 41.703635], "type": "Point"}, "id": "UFoSINtwjuo7HXub3GDtcWJAwaM=", "properties": {"@spider": "usps_collection_boxes", "addr:city": "POUGHKEEPSIE", "addr:country": "US", "addr:full": "1 CRESTWOOD BLVD", "addr:postcode": "12601", "addr:state": "NY", "amenity": "post_box", "brand": "United States Postal Service", "brand:wikidata": "Q668687", "collection_times": "Mo-Sa 08:30", "name": "USPS COLLECTION BOX - BLUE BOX", "nsi_id": "unitedstatespostalservice-a77078", "operator": "United States Postal Service", "operator:short": "USPS", "operator:type": "public", "operator:wikidata": "Q668687", "ref": "1260100114"}, "type": "Feature"}
{"dataset_attributes": {"@spider": "usps_collection_boxes", "spider:collection_time": "2023-10-13T08:25:25.513886"}, "geometry": {"coordinates": [-73.928088, 41.707068], "type": "Point"}, "id": "6uAhWZJMMFKq2OOXA97o3pmxITI=", "properties": {"@spider": "usps_collection_boxes", "addr:city": "POUGHKEEPSIE", "addr:country": "US", "addr:full": "55 MANSION ST LBBY SLOT", "addr:postcode": "12601", "addr:state": "NY", "amenity": "post_box", "brand": "United States Postal Service", "brand:wikidata": "Q668687", "collection_times": "Mo-Fr 17:00; Sa 14:00", "name": "USPS COLLECTION BOX - PO LOBBY", "note": "ON 12/24 AND 12/31, THIS BOX MAY BE COLLECTED AS EARLY AS 12 NOON.", "nsi_id": "unitedstatespostalservice-a77078", "operator": "United States Postal Service", "operator:short": "USPS", "operator:type": "public", "operator:wikidata": "Q668687", "ref": "1260100115"}, "type": "Feature"}
{"dataset_attributes": {"@spider": "usps_collection_boxes", "spider:collection_time": "2023-10-13T08:25:25.513886"}, "geometry": {"coordinates": [-73.9291994, 41.664726], "type": "Point"}, "id": "2GJ_1pmeZdqFF4seNRJ2qhxPMEw=", "properties": {"@spider": "usps_collection_boxes", "addr:city": "POUGHKEEPSIE", "addr:country": "US", "addr:full": "2572 SOUTH RD LBBY SLOT", "addr:postcode": "12601", "addr:state": "NY", "amenity": "post_box", "brand": "United States Postal Service", "brand:wikidata": "Q668687", "collection_times": "Mo-Fr 17:00; Sa 11:30", "name": "USPS COLLECTION BOX - PO LOBBY", "note": "ON 12/24 AND 12/31, THIS BOX MAY BE COLLECTED AS EARLY AS 12 NOON.", "nsi_id": "unitedstatespostalservice-a77078", "operator": "United States Postal Service", "operator:short": "USPS", "operator:type": "public", "operator:wikidata": "Q668687", "ref": "1260100116"}, "type": "Feature"}
{"dataset_attributes": {"@spider": "usps_collection_boxes", "spider:collection_time": "2023-10-13T08:25:25.513886"}, "geometry": {"coordinates": [-73.927816031, 41.707020308], "type": "Point"}, "id": "tv8xIxZZdf1OPqa9OtJ5GQOhyhM=", "properties": {"@spider": "usps_collection_boxes", "addr:city": "POUGHKEEPSIE", "addr:country": "US", "addr:full": "55 MANSION ST", "addr:postcode": "12601", "addr:state": "NY", "amenity": "post_box", "brand": "United States Postal Service", "brand:wikidata": "Q668687", "collection_times": "Mo-Fr 17:30; Sa 14:30", "name": "USPS COLLECTION BOX - PO LOBBY", "note": "ON 12/24 AND 12/31, THIS BOX MAY BE COLLECTED AS EARLY AS 12 NOON.", "nsi_id": "unitedstatespostalservice-a77078", "operator": "United States Postal Service", "operator:short": "USPS", "operator:type": "public", "operator:wikidata": "Q668687", "ref": "1260100127"}, "type": "Feature"}
{"dataset_attributes": {"@spider": "usps_collection_boxes", "spider:collection_time": "2023-10-13T08:25:25.513886"}, "geometry": {"coordinates": [-73.929756958, 41.664543957], "type": "Point"}, "id": "NMo9ArNN-4PgJ64m7jVyyU9iNQ0=", "properties": {"@spider": "usps_collection_boxes", "addr:city": "POUGHKEEPSIE", "addr:country": "US", "addr:full": "2572 SOUTH RD", "addr:postcode": "12601", "addr:state": "NY", "amenity": "post_box", "brand": "United States Postal Service", "brand:wikidata": "Q668687", "collection_times": "Mo-Fr 17:00; Sa 13:00", "name": "USPS COLLECTION BOX - PO LOBBY", "note": "ON 12/24 AND 12/31, THIS BOX MAY BE COLLECTED AS EARLY AS 12 NOON.", "nsi_id": "unitedstatespostalservice-a77078", "operator": "United States Postal Service", "operator:short": "USPS", "operator:type": "public", "operator:wikidata": "Q668687", "ref": "1260100128"}, "type": "Feature"}
{"dataset_attributes": {"@spider": "usps_collection_boxes", "spider:collection_time": "2023-10-13T08:25:25.513886"}, "geometry": {"coordinates": [-73.9018395, 41.696166], "type": "Point"}, "id": "Cc_GuFjyxrDEJh1L1hGfro98FG4=", "properties": {"@spider": "usps_collection_boxes", "addr:city": "POUGHKEEPSIE", "addr:country": "US", "addr:full": "782 MAIN ST", "addr:postcode": "12603", "addr:state": "NY", "amenity": "post_box", "brand": "United States Postal Service", "brand:wikidata": "Q668687", "collection_times": "Mo-Sa 12:00", "name": "USPS COLLECTION BOX - BLUE BOX", "nsi_id": "unitedstatespostalservice-a77078", "operator": "United States Postal Service", "operator:short": "USPS", "operator:type": "public", "operator:wikidata": "Q668687", "ref": "1260300007"}, "type": "Feature"}
{"dataset_attributes": {"@spider": "usps_collection_boxes", "spider:collection_time": "2023-10-13T08:25:25.513886"}, "geometry": {"coordinates": [-73.8989268, 41.69477], "type": "Point"}, "id": "DIdR9w0Pvm35YP38_cnYruwIEgE=", "properties": {"@spider": "usps_collection_boxes", "addr:city": "POUGHKEEPSIE", "addr:country": "US", "addr:full": "46 HAIGHT AVE", "addr:postcode": "12603", "addr:state": "NY", "amenity": "post_box", "brand": "United States Postal Service", "brand:wikidata": "Q668687", "collection_times": "Mo-Fr 12:00; Sa 09:00", "name": "USPS COLLECTION BOX - BLUE BOX", "nsi_id": "unitedstatespostalservice-a77078", "operator": "United States Postal Service", "operator:short": "USPS", "operator:type": "public", "operator:wikidata": "Q668687", "ref": "1260300008"}, "type": "Feature"}
{"dataset_attributes": {"@spider": "usps_collection_boxes", "spider:collection_time": "2023-10-13T08:25:25.513886"}, "geometry": {"coordinates": [-73.8975804, 41.695674], "type": "Point"}, "id": "AC7qlTwWrI3mEcUMgc-5zOso-G4=", "properties": {"@spider": "usps_collection_boxes", "addr:city": "POUGHKEEPSIE", "addr:country": "US", "addr:full": "836 MAIN ST", "addr:postcode": "12603", "addr:state": "NY", "amenity": "post_box", "brand": "United States Postal Service", "brand:wikidata": "Q668687", "collection_times": "Mo-Fr 11:30; Sa 09:00", "name": "USPS COLLECTION BOX - BLUE BOX", "nsi_id": "unitedstatespostalservice-a77078", "operator": "United States Postal Service", "operator:short": "USPS", "operator:type": "public", "operator:wikidata": "Q668687", "ref": "1260300009"}, "type": "Feature"}
{"dataset_attributes": {"@spider": "usps_collection_boxes", "spider:collection_time": "2023-10-13T08:25:25.513886"}, "geometry": {"coordinates": [-73.8899327, 41.693842], "type": "Point"}, "id": "7nuLCl5nsm-R5DGCNtludWGKSjA=", "properties": {"@spider": "usps_collection_boxes", "addr:city": "POUGHKEEPSIE", "addr:country": "US", "addr:full": "4 BURNETT BLVD", "addr:postcode": "12603", "addr:state": "NY", "amenity": "post_box", "brand": "United States Postal Service", "brand:wikidata": "Q668687", "collection_times": "Mo-Fr 15:30; Sa 10:00", "name": "USPS COLLECTION BOX - BLUE BOX", "note": "ON 12/24 AND 12/31, THIS BOX MAY BE COLLECTED AS EARLY AS 12 NOON.", "nsi_id": "unitedstatespostalservice-a77078", "operator": "United States Postal Service", "operator:short": "USPS", "operator:type": "public", "operator:wikidata": "Q668687", "ref": "1260300012"}, "type": "Feature"}
{"dataset_attributes": {"@spider": "usps_collection_boxes", "spider:collection_time": "2023-10-13T08:25:25.513886"}, "geometry": {"coordinates": [-73.9084336, 41.693176], "type": "Point"}, "id": "ACtVWnRAU2h2D8RqVU21eM6NzyY=", "properties": {"@spider": "usps_collection_boxes", "addr:city": "POUGHKEEPSIE", "addr:country": "US", "addr:full": "9 FULTON AVE", "addr:postcode": "12603", "addr:state": "NY", "amenity": "post_box", "brand": "United States Postal Service", "brand:wikidata": "Q668687", "collection_times": "Mo-Sa 10:00", "name": "USPS COLLECTION BOX - BLUE BOX", "nsi_id": "unitedstatespostalservice-a77078", "operator": "United States Postal Service", "operator:short": "USPS", "operator:type": "public", "operator:wikidata": "Q668687", "ref": "1260300015"}, "type": "Feature"}
{"dataset_attributes": {"@spider": "usps_collection_boxes", "spider:collection_time": "2023-10-13T08:25:25.513886"}, "geometry": {"coordinates": [-73.8750814, 41.65264], "type": "Point"}, "id": "yX61K-3VwDqgj3ur02uiq6lnCCo=", "properties": {"@spider": "usps_collection_boxes", "addr:city": "POUGHKEEPSIE", "addr:country": "US", "addr:full": "16 VASSAR RD", "addr:postcode": "12603", "addr:state": "NY", "amenity": "post_box", "brand": "United States Postal Service", "brand:wikidata": "Q668687", "collection_times": "Mo-Fr 12:00; Sa 10:00", "name": "USPS COLLECTION BOX - BLUE BOX", "nsi_id": "unitedstatespostalservice-a77078", "operator": "United States Postal Service", "operator:short": "USPS", "operator:type": "public", "operator:wikidata": "Q668687", "ref": "1260300021"}, "type": "Feature"}
{"dataset_attributes": {"@spider": "usps_collection_boxes", "spider:collection_time": "2023-10-13T08:25:25.513886"}, "geometry": {"coordinates": [-73.874924804, 41.640643501], "type": "Point"}, "id": "aPe_JN64FS3nkWbqya_5Tj0vhnM=", "properties": {"@spider": "usps_collection_boxes", "addr:city": "POUGHKEEPSIE", "addr:country": "US", "addr:full": "1820 ROUTE 376", "addr:postcode": "12603", "addr:state": "NY", "amenity": "post_box", "brand": "United States Postal Service", "brand:wikidata": "Q668687", "collection_times": "Mo-Sa 09:00", "name": "USPS COLLECTION BOX - BLUE BOX", "nsi_id": "unitedstatespostalservice-a77078", "operator": "United States Postal Service", "operator:short": "USPS", "operator:type": "public", "operator:wikidata": "Q668687", "ref": "1260300022"}, "type": "Feature"}
{"dataset_attributes": {"@spider": "usps_collection_boxes", "spider:collection_time": "2023-10-13T08:25:25.513886"}, "geometry": {"coordinates": [-73.894703, 41.703541], "type": "Point"}, "id": "KcjMvYBhD-OXuyiPOk2Wv4CjDNY=", "properties": {"@spider": "usps_collection_boxes", "addr:city": "POUGHKEEPSIE", "addr:country": "US", "addr:full": "106 VAN WAGNER RD", "addr:postcode": "12603", "addr:state": "NY", "amenity": "post_box", "brand": "United States Postal Service", "brand:wikidata": "Q668687", "collection_times": "Mo-Sa 11:00", "name": "USPS COLLECTION BOX - BLUE BOX", "nsi_id": "unitedstatespostalservice-a77078", "operator": "United States Postal Service", "operator:short": "USPS", "operator:type": "public", "operator:wikidata": "Q668687", "ref": "1260300029"}, "type": "Feature"}
{"dataset_attributes": {"@spider": "usps_collection_boxes", "spider:collection_time": "2023-10-13T08:25:25.513886"}, "geometry": {"coordinates": [-73.9111673, 41.686401], "type": "Point"}, "id": "TCR5TXgZGTixawYXMV5G7JXv1Do=", "properties": {"@spider": "usps_collection_boxes", "addr:city": "POUGHKEEPSIE", "addr:country": "US", "addr:full": "258 HOOKER AVE", "addr:postcode": "12603", "addr:state": "NY", "amenity": "post_box", "brand": "United States Postal Service", "brand:wikidata": "Q668687", "collection_times": "Mo-Sa 10:00", "name": "USPS COLLECTION BOX - BLUE BOX", "nsi_id": "unitedstatespostalservice-a77078", "operator": "United States Postal Service", "operator:short": "USPS", "operator:type": "public", "operator:wikidata": "Q668687", "ref": "1260300032"}, "type": "Feature"}
{"dataset_attributes": {"@spider": "usps_collection_boxes", "spider:collection_time": "2023-10-13T08:25:25.513886"}, "geometry": {"coordinates": [-73.8809776, 41.696778], "type": "Point"}, "id": "7ZTZAZSaUFvVeA1tHXOaEvpJj7g=", "properties": {"@spider": "usps_collection_boxes", "addr:city": "POUGHKEEPSIE", "addr:country": "US", "addr:full": "7 JANET DR", "addr:postcode": "12603", "addr:state": "NY", "amenity": "post_box", "brand": "United States Postal Service", "brand:wikidata": "Q668687", "collection_times": "Mo-Sa 14:00", "name": "USPS COLLECTION BOX - BLUE BOX", "note": "ON 12/24 AND 12/31, THIS BOX MAY BE COLLECTED AS EARLY AS 12 NOON.", "nsi_id": "unitedstatespostalservice-a77078", "operator": "United States Postal Service", "operator:short": "USPS", "operator:type": "public", "operator:wikidata": "Q668687", "ref": "1260300034"}, "type": "Feature"}
{"dataset_attributes": {"@spider": "usps_collection_boxes", "spider:collection_time": "2023-10-13T08:25:25.513886"}, "geometry": {"coordinates": [-73.8547605, 41.679639], "type": "Point"}, "id": "nc2aWUeQIBFSkTXw540CUDCqC24=", "properties": {"@spider": "usps_collection_boxes", "addr:city": "POUGHKEEPSIE", "addr:country": "US", "addr:full": "488 FREEDOM PLAINS RD", "addr:postcode": "12603", "addr:state": "NY", "amenity": "post_box", "brand": "United States Postal Service", "brand:wikidata": "Q668687", "collection_times": "Mo-Fr 11:30; Sa 10:00", "name": "USPS COLLECTION BOX - BLUE BOX", "nsi_id": "unitedstatespostalservice-a77078", "operator": "United States Postal Service", "operator:short": "USPS", "operator:type": "public", "operator:wikidata": "Q668687", "ref": "1260300036"}, "type": "Feature"}
{"dataset_attributes": {"@spider": "usps_collection_boxes", "spider:collection_time": "2023-10-13T08:25:25.513886"}, "geometry": {"coordinates": [-73.888181, 41.693884], "type": "Point"}, "id": "kuVktmZvkEITagQdPO4Ra4SziDw=", "properties": {"@spider": "usps_collection_boxes", "addr:city": "POUGHKEEPSIE", "addr:country": "US", "addr:full": "1 OVEROCKER RD", "addr:postcode": "12603", "addr:state": "NY", "amenity": "post_box", "brand": "United States Postal Service", "brand:wikidata": "Q668687", "collection_times": "Mo-Fr 15:30; Sa 10:00", "name": "USPS COLLECTION BOX - BLUE BOX", "note": "ON 12/24 AND 12/31, THIS BOX MAY BE COLLECTED AS EARLY AS 12 NOON.", "nsi_id": "unitedstatespostalservice-a77078", "operator": "United States Postal Service", "operator:short": "USPS", "operator:type": "public", "operator:wikidata": "Q668687", "ref": "1260300037"}, "type": "Feature"}
{"dataset_attributes": {"@spider": "usps_collection_boxes", "spider:collection_time": "2023-10-13T08:25:25.513886"}, "geometry": {"coordinates": [-73.8787795, 41.70189], "type": "Point"}, "id": "uDi3_XVDBxliY4Ytu-3WzQiKXIg=", "properties": {"@spider": "usps_collection_boxes", "addr:city": "POUGHKEEPSIE", "addr:country": "US", "addr:full": "101 CHERRY HILL DR", "addr:postcode": "12603", "addr:state": "NY", "amenity": "post_box", "brand": "United States Postal Service", "brand:wikidata": "Q668687", "collection_times": "Mo-Fr 12:00; Sa 09:00", "name": "USPS COLLECTION BOX - BLUE BOX", "nsi_id": "unitedstatespostalservice-a77078", "operator": "United States Postal Service", "operator:short": "USPS", "operator:type": "public", "operator:wikidata": "Q668687", "ref": "1260300039"}, "type": "Feature"}
{"dataset_attributes": {"@spider": "usps_collection_boxes", "spider:collection_time": "2023-10-13T08:25:25.513886"}, "geometry": {"coordinates": [-73.8887777, 41.701813], "type": "Point"}, "id": "Pzsb0YAoefQH1DcfIR3oiMC_3IU=", "properties": {"@spider": "usps_collection_boxes", "addr:city": "POUGHKEEPSIE", "addr:country": "US", "addr:full": "2 TUCKER DR", "addr:postcode": "12603", "addr:state": "NY", "amenity": "post_box", "brand": "United States Postal Service", "brand:wikidata": "Q668687", "collection_times": "Mo-Fr 12:00; Sa 09:00", "name": "USPS COLLECTION BOX - BLUE BOX", "nsi_id": "unitedstatespostalservice-a77078", "operator": "United States Postal Service", "operator:short": "USPS", "operator:type": "public", "operator:wikidata": "Q668687", "ref": "1260300040"}, "type": "Feature"}
{"dataset_attributes": {"@spider": "usps_collection_boxes", "spider:collection_time": "2023-10-13T08:25:25.513886"}, "geometry": {"coordinates": [-73.839461089, 41.669848012], "type": "Point"}, "id": "fqO8l2Mz4i0DN9LDK9g2qzlVn7s=", "properties": {"@spider": "usps_collection_boxes", "addr:city": "POUGHKEEPSIE", "addr:country": "US", "addr:full": "702 FREEDOM PLAINS RD", "addr:postcode": "12603", "addr:state": "NY", "amenity": "post_box", "brand": "United States Postal Service", "brand:wikidata": "Q668687", "collection_times": "Mo-Fr 11:30; Sa 10:00", "name": "USPS COLLECTION BOX - BLUE BOX", "nsi_id": "unitedstatespostalservice-a77078", "operator": "United States Postal Service", "operator:short": "USPS", "operator:type": "public", "operator:wikidata": "Q668687", "ref": "1260300042"}, "type": "Feature"}
{"dataset_attributes": {"@spider": "usps_collection_boxes", "spider:collection_time": "2023-10-13T08:25:25.513886"}, "geometry": {"coordinates": [-73.90227, 41.69627], "type": "Point"}, "id": "5A8fbTjLysErFLRtxV-lKVowNbw=", "properties": {"@spider": "usps_collection_boxes", "addr:city": "POUGHKEEPSIE", "addr:country": "US", "addr:full": "41 RAYMOND AVE", "addr:postcode": "12603", "addr:state": "NY", "amenity": "post_box", "brand": "United States Postal Service", "brand:wikidata": "Q668687", "collection_times": "Mo-Fr 17:00; Sa 10:30", "name": "USPS COLLECTION BOX - BLUE BOX", "note": "ON 12/24 AND 12/31, THIS BOX MAY BE COLLECTED AS EARLY AS 12 NOON.", "nsi_id": "unitedstatespostalservice-a77078", "operator": "United States Postal Service", "operator:short": "USPS", "operator:type": "public", "operator:wikidata": "Q668687", "ref": "1260300043"}, "type": "Feature"}
{"dataset_attributes": {"@spider": "usps_collection_boxes", "spider:collection_time": "2023-10-13T08:25:25.513886"}, "geometry": {"coordinates": [-73.900884, 41.69292], "type": "Point"}, "id": "1cCWGmq9JOWpwpqZLmJ3RWk7OuU=", "properties": {"@spider": "usps_collection_boxes", "addr:city": "POUGHKEEPSIE", "addr:country": "US", "addr:full": "41 RAYMOND AVE LBBY SLOT", "addr:postcode": "12603", "addr:state": "NY", "amenity": "post_box", "brand": "United States Postal Service", "brand:wikidata": "Q668687", "collection_times": "Mo-Fr 16:00; Sa 10:30", "name": "USPS COLLECTION BOX - PO LOBBY", "note": "ON 12/24 AND 12/31, THIS BOX MAY BE COLLECTED AS EARLY AS 12 NOON.", "nsi_id": "unitedstatespostalservice-a77078", "operator": "United States Postal Service", "operator:short": "USPS", "operator:type": "public", "operator:wikidata": "Q668687", "ref": "1260300044"}, "type": "Feature"}
{"dataset_attributes": {"@spider": "usps_collection_boxes", "spider:collection_time": "2023-10-13T08:25:25.513886"}, "geometry": {"coordinates": [-73.900753872, 41.692548364], "type": "Point"}, "id": "6mx9UlAoOfTe1i-hSyKEqj6BHgU=", "properties": {"@spider": "usps_collection_boxes", "addr:city": "POUGHKEEPSIE", "addr:country": "US", "addr:full": "41 RAYMOND AVE", "addr:postcode": "12603", "addr:state": "NY", "amenity": "post_box", "brand": "United States Postal Service", "brand:wikidata": "Q668687", "collection_times": "Mo-Fr 17:00; Sa 12:30", "name": "USPS COLLECTION BOX - PO LOBBY", "note": "ON 12/24 AND 12/31, THIS BOX MAY BE COLLECTED AS EARLY AS 12 NOON.", "nsi_id": "unitedstatespostalservice-a77078", "operator": "United States Postal Service", "operator:short": "USPS", "operator:type": "public", "operator:wikidata": "Q668687", "ref": "1260300047"}, "type": "Feature"}
