{"dataset_attributes": {"@spider": "usps_collection_boxes", "spider:collection_time": "2023-10-31T08:25:14.480804"}, "geometry": {"coordinates": [-74.6729719, 41.6515], "type": "Point"}, "id": "XQY3hFL10Mhz-8wIQpJUtIElg6I=", "properties": {"@spider": "usps_collection_boxes", "addr:city": "MONTICELLO", "addr:country": "US", "addr:full": "274 E BROADWAY", "addr:postcode": "12701", "addr:state": "NY", "amenity": "post_box", "brand": "United States Postal Service", "brand:wikidata": "Q668687", "collection_times": "Mo-Fr 16:00; Sa 14:30", "name": "USPS COLLECTION BOX - BLUE BOX", "note": "ON 12/24 AND 12/31, THIS BOX MAY BE COLLECTED AS EARLY AS 12 NOON.", "nsi_id": "unitedstatespostalservice-a77078", "operator": "United States Postal Service", "operator:short": "USPS", "operator:type": "public", "operator:wikidata": "Q668687", "ref": "1270100007"}, "type": "Feature"}
{"dataset_attributes": {"@spider": "usps_collection_boxes", "spider:collection_time": "2023-10-31T08:25:14.480804"}, "geometry": {"coordinates": [-74.6848892, 41.655332], "type": "Point"}, "id": "XW-m0RPYjJtXajcgMor_LWlQ4-M=", "properties": {"@spider": "usps_collection_boxes", "addr:city": "MONTICELLO", "addr:country": "US", "addr:full": "414 BROADWAY", "addr:postcode": "12701", "addr:state": "NY", "amenity": "post_box", "brand": "United States Postal Service", "brand:wikidata": "Q668687", "collection_times": "Mo-Fr 16:30; Sa 15:00", "name": "USPS COLLECTION BOX - BLUE BOX", "note": "ON 12/24 AND 12/31, THIS BOX MAY BE COLLECTED AS EARLY AS 12 NOON.", "nsi_id": "unitedstatespostalservice-a77078", "operator": "United States Postal Service", "operator:short": "USPS", "operator:type": "public", "operator:wikidata": "Q668687", "ref": "1270100011"}, "type": "Feature"}
{"dataset_attributes": {"@spider": "usps_collection_boxes", "spider:collection_time": "2023-10-31T08:25:14.480804"}, "geometry": {"coordinates": [-74.6899731, 41.655922], "type": "Point"}, "id": "WD9rYkGwpK0HxaqvDZQeOWdh1OM=", "properties": {"@spider": "usps_collection_boxes", "addr:city": "MONTICELLO", "addr:country": "US", "addr:full": "486 BROADWAY", "addr:postcode": "12701", "addr:state": "NY", "amenity": "post_box", "brand": "United States Postal Service", "brand:wikidata": "Q668687", "collection_times": "Mo-Fr 17:00; Sa 16:00", "name": "USPS COLLECTION BOX - BLUE BOX", "note": "ON 12/24 AND 12/31, THIS BOX MAY BE COLLECTED AS EARLY AS 12 NOON.", "nsi_id": "unitedstatespostalservice-a77078", "operator": "United States Postal Service", "operator:short": "USPS", "operator:type": "public", "operator:wikidata": "Q668687", "ref": "1270100019"}, "type": "Feature"}
{"dataset_attributes": {"@spider": "usps_collection_boxes", "spider:collection_time": "2023-10-31T08:25:14.480804"}, "geometry": {"coordinates": [-74.6896717, 41.656372], "type": "Point"}, "id": "lLb7FTYQ7Myp1LWELWjT2KNZlCU=", "properties": {"@spider": "usps_collection_boxes", "addr:city": "MONTICELLO", "addr:country": "US", "addr:full": "1 LIBERTY ST", "addr:postcode": "12701", "addr:state": "NY", "amenity": "post_box", "brand": "United States Postal Service", "brand:wikidata": "Q668687", "collection_times": "Mo-Fr 17:00; Sa 16:00", "name": "USPS COLLECTION BOX - BLUE BOX", "note": "ON 12/24 AND 12/31, THIS BOX MAY BE COLLECTED AS EARLY AS 12 NOON.", "nsi_id": "unitedstatespostalservice-a77078", "operator": "United States Postal Service", "operator:short": "USPS", "operator:type": "public", "operator:wikidata": "Q668687", "ref": "1270100021"}, "type": "Feature"}
{"dataset_attributes": {"@spider": "usps_collection_boxes", "spider:collection_time": "2023-10-31T08:25:14.480804"}, "geometry": {"coordinates": [-74.6917905, 41.658555], "type": "Point"}, "id": "O85YEx0hmVqK89aafDX-1xDvTYo=", "properties": {"@spider": "usps_collection_boxes", "addr:city": "MONTICELLO", "addr:country": "US", "addr:full": "100 NORTH ST", "addr:postcode": "12701", "addr:state": "NY", "amenity": "post_box", "brand": "United States Postal Service", "brand:wikidata": "Q668687", "collection_times": "Mo-Fr 16:30", "name": "USPS COLLECTION BOX - BLUE BOX", "note": "ON 12/24 AND 12/31, THIS BOX MAY BE COLLECTED AS EARLY AS 12 NOON.", "nsi_id": "unitedstatespostalservice-a77078", "operator": "United States Postal Service", "operator:short": "USPS", "operator:type": "public", "operator:wikidata": "Q668687", "ref": "1270100022"}, "type": "Feature"}
{"dataset_attributes": {"@spider": "usps_collection_boxes", "spider:collection_time": "2023-10-31T08:25:14.480804"}, "geometry": {"coordinates": [-74.6872711, 41.649856], "type": "Point"}, "id": "sJUdXzicxo2YC-a5BZIgVYLZ9iU=", "properties": {"@spider": "usps_collection_boxes", "addr:city": "MONTICELLO", "addr:country": "US", "addr:full": "83 SAINT JOHN ST", "addr:postcode": "12701", "addr:state": "NY", "amenity": "post_box", "brand": "United States Postal Service", "brand:wikidata": "Q668687", "collection_times": "Mo-Fr 16:00; Sa 14:30", "name": "USPS COLLECTION BOX - BLUE BOX", "note": "ON 12/24 AND 12/31, THIS BOX MAY BE COLLECTED AS EARLY AS 12 NOON.", "nsi_id": "unitedstatespostalservice-a77078", "operator": "United States Postal Service", "operator:short": "USPS", "operator:type": "public", "operator:wikidata": "Q668687", "ref": "1270100023"}, "type": "Feature"}
{"dataset_attributes": {"@spider": "usps_collection_boxes", "spider:collection_time": "2023-10-31T08:25:14.480804"}, "geometry": {"coordinates": [-74.6549878, 41.646233], "type": "Point"}, "id": "oj2z_ipuVrl--0Sr9clmk0XK-Hk=", "properties": {"@spider": "usps_collection_boxes", "addr:city": "MONTICELLO", "addr:country": "US", "addr:full": "99 E BROADWAY", "addr:postcode": "12701", "addr:state": "NY", "amenity": "post_box", "brand": "United States Postal Service", "brand:wikidata": "Q668687", "collection_times": "Mo-Fr 16:00; Sa 14:30", "name": "USPS COLLECTION BOX - BLUE BOX", "note": "ON 12/24 AND 12/31, THIS BOX MAY BE COLLECTED AS EARLY AS 12 NOON.", "nsi_id": "unitedstatespostalservice-a77078", "operator": "United States Postal Service", "operator:short": "USPS", "operator:type": "public", "operator:wikidata": "Q668687", "ref": "1270100024"}, "type": "Feature"}
{"dataset_attributes": {"@spider": "usps_collection_boxes", "spider:collection_time": "2023-10-31T08:25:14.480804"}, "geometry": {"coordinates": [-74.672616, 41.668395], "type": "Point"}, "id": "mhkRk6oc0XpUMeczpo8A_0m0uTY=", "properties": {"@spider": "usps_collection_boxes", "addr:city": "MONTICELLO", "addr:country": "US", "addr:full": "4050 STATE ROUTE 42", "addr:postcode": "12701", "addr:state": "NY", "amenity": "post_box", "brand": "United States Postal Service", "brand:wikidata": "Q668687", "collection_times": "Mo-Fr 16:30; Sa 14:30", "name": "USPS COLLECTION BOX - BLUE BOX", "note": "ON 12/24 AND 12/31, THIS BOX MAY BE COLLECTED AS EARLY AS 12 NOON.", "nsi_id": "unitedstatespostalservice-a77078", "operator": "United States Postal Service", "operator:short": "USPS", "operator:type": "public", "operator:wikidata": "Q668687", "ref": "1270100026"}, "type": "Feature"}
{"dataset_attributes": {"@spider": "usps_collection_boxes", "spider:collection_time": "2023-10-31T08:25:14.480804"}, "geometry": {"coordinates": [-74.6853027, 41.6548], "type": "Point"}, "id": "VGl5M75BvdsvCSIP19iZICA1ios=", "properties": {"@spider": "usps_collection_boxes", "addr:city": "MONTICELLO", "addr:country": "US", "addr:full": "417 BROADWAY", "addr:postcode": "12701", "addr:state": "NY", "amenity": "post_box", "brand": "United States Postal Service", "brand:wikidata": "Q668687", "collection_times": "Mo-Fr 16:00; Sa 15:00", "name": "USPS COLLECTION BOX - BLUE BOX", "note": "ON 12/24 AND 12/31, THIS BOX MAY BE COLLECTED AS EARLY AS 12 NOON.", "nsi_id": "unitedstatespostalservice-a77078", "operator": "United States Postal Service", "operator:short": "USPS", "operator:type": "public", "operator:wikidata": "Q668687", "ref": "1270100027"}, "type": "Feature"}
{"dataset_attributes": {"@spider": "usps_collection_boxes", "spider:collection_time": "2023-10-31T08:25:14.480804"}, "geometry": {"coordinates": [-74.680242, 41.657899], "type": "Point"}, "id": "UZTNCz533yUtGuaKOWgDVw0DUCQ=", "properties": {"@spider": "usps_collection_boxes", "addr:city": "MONTICELLO", "addr:country": "US", "addr:full": "58 PLEASANT ST", "addr:postcode": "12701", "addr:state": "NY", "amenity": "post_box", "brand": "United States Postal Service", "brand:wikidata": "Q668687", "collection_times": "Mo-Fr 16:00; Sa 14:30", "name": "USPS COLLECTION BOX - BLUE BOX", "note": "ON 12/24 AND 12/31, THIS BOX MAY BE COLLECTED AS EARLY AS 12 NOON.", "nsi_id": "unitedstatespostalservice-a77078", "operator": "United States Postal Service", "operator:short": "USPS", "operator:type": "public", "operator:wikidata": "Q668687", "ref": "1270100031"}, "type": "Feature"}
{"dataset_attributes": {"@spider": "usps_collection_boxes", "spider:collection_time": "2023-10-31T08:25:14.480804"}, "geometry": {"coordinates": [-74.6865509, 41.656194], "type": "Point"}, "id": "1PDiefeH-9jSr1a2Bufiid6BOcQ=", "properties": {"@spider": "usps_collection_boxes", "addr:city": "MONTICELLO", "addr:country": "US", "addr:full": "30 NORTH ST", "addr:postcode": "12701", "addr:state": "NY", "amenity": "post_box", "brand": "United States Postal Service", "brand:wikidata": "Q668687", "collection_times": "Mo-Fr 16:30; Sa 14:30", "name": "USPS COLLECTION BOX - BLUE BOX", "note": "ON 12/24 AND 12/31, THIS BOX MAY BE COLLECTED AS EARLY AS 12 NOON.", "nsi_id": "unitedstatespostalservice-a77078", "operator": "United States Postal Service", "operator:short": "USPS", "operator:type": "public", "operator:wikidata": "Q668687", "ref": "1270100032"}, "type": "Feature"}
{"dataset_attributes": {"@spider": "usps_collection_boxes", "spider:collection_time": "2023-10-31T08:25:14.480804"}, "geometry": {"coordinates": [-74.689695, 41.655757], "type": "Point"}, "id": "QAzfOtDcx6oMphnyx-FeLN5-x5Y=", "properties": {"@spider": "usps_collection_boxes", "addr:city": "MONTICELLO", "addr:country": "US", "addr:full": "486 BROADWAY LBBY SLOT", "addr:postcode": "12701", "addr:state": "NY", "amenity": "post_box", "brand": "United States Postal Service", "brand:wikidata": "Q668687", "collection_times": "Mo-Fr 17:00; Sa 16:00", "name": "USPS COLLECTION BOX - PO LOBBY", "note": "ON 12/24 AND 12/31, THIS BOX MAY BE COLLECTED AS EARLY AS 12 NOON.", "nsi_id": "unitedstatespostalservice-a77078", "operator": "United States Postal Service", "operator:short": "USPS", "operator:type": "public", "operator:wikidata": "Q668687", "ref": "1270100035"}, "type": "Feature"}
{"dataset_attributes": {"@spider": "usps_collection_boxes", "spider:collection_time": "2023-10-31T08:25:14.480804"}, "geometry": {"coordinates": [-74.690026021, 41.655830027], "type": "Point"}, "id": "40Q1L7U7XMYRCglj5REcca6qQEg=", "properties": {"@spider": "usps_collection_boxes", "addr:city": "MONTICELLO", "addr:country": "US", "addr:full": "486 BROADWAY", "addr:postcode": "12701", "addr:state": "NY", "amenity": "post_box", "brand": "United States Postal Service", "brand:wikidata": "Q668687", "collection_times": "Mo-Fr 17:00; Sa 16:00", "name": "USPS COLLECTION BOX - PO LOBBY", "note": "ON 12/24 AND 12/31, THIS BOX MAY BE COLLECTED AS EARLY AS 12 NOON.", "nsi_id": "unitedstatespostalservice-a77078", "operator": "United States Postal Service", "operator:short": "USPS", "operator:type": "public", "operator:wikidata": "Q668687", "ref": "1270100037"}, "type": "Feature"}
{"dataset_attributes": {"@spider": "usps_collection_boxes", "spider:collection_time": "2023-10-31T08:25:14.480804"}, "geometry": {"coordinates": [-74.912981, 41.478331], "type": "Point"}, "id": "bDX_s1OUUngTaoyiIBNKpII3oI4=", "properties": {"@spider": "usps_collection_boxes", "addr:city": "BARRYVILLE", "addr:country": "US", "addr:full": "6 YULAN BARRYVILLE RD", "addr:postcode": "12719", "addr:state": "NY", "amenity": "post_box", "brand": "United States Postal Service", "brand:wikidata": "Q668687", "collection_times": "Mo-Fr 17:00; Sa 11:00", "name": "USPS COLLECTION BOX - BLUE BOX", "note": "ON 12/24 AND 12/31, THIS BOX MAY BE COLLECTED AS EARLY AS 12 NOON.", "nsi_id": "unitedstatespostalservice-a77078", "operator": "United States Postal Service", "operator:short": "USPS", "operator:type": "public", "operator:wikidata": "Q668687", "ref": "1271900001"}, "type": "Feature"}
{"dataset_attributes": {"@spider": "usps_collection_boxes", "spider:collection_time": "2023-10-31T08:25:14.480804"}, "geometry": {"coordinates": [-74.9129803696, 41.4783320592], "type": "Point"}, "id": "QOxoEOawiniMnGLxZhuN1jYxOy4=", "properties": {"@spider": "usps_collection_boxes", "addr:city": "BARRYVILLE", "addr:country": "US", "addr:full": "6 YULAN BARRYVILLE RD", "addr:postcode": "12719", "addr:state": "NY", "amenity": "post_box", "brand": "United States Postal Service", "brand:wikidata": "Q668687", "collection_times": "Mo-Fr 17:00; Sa 11:00", "name": "USPS COLLECTION BOX - PO LOBBY", "note": "ON 12/24 AND 12/31, THIS BOX MAY BE COLLECTED AS EARLY AS 12 NOON.", "nsi_id": "unitedstatespostalservice-a77078", "operator": "United States Postal Service", "operator:short": "USPS", "operator:type": "public", "operator:wikidata": "Q668687", "ref": "1271900002"}, "type": "Feature"}
{"dataset_attributes": {"@spider": "usps_collection_boxes", "spider:collection_time": "2023-10-31T08:25:14.480804"}, "geometry": {"coordinates": [-74.913006611, 41.478374484], "type": "Point"}, "id": "jHEUvmXEZttIyXhY0sTTZfs1Pjo=", "properties": {"@spider": "usps_collection_boxes", "addr:city": "BARRYVILLE", "addr:country": "US", "addr:full": "6 COUNTY ROAD 21", "addr:postcode": "12719", "addr:state": "NY", "amenity": "post_box", "brand": "United States Postal Service", "brand:wikidata": "Q668687", "collection_times": "Mo-Fr 17:00; Sa 11:00", "name": "USPS COLLECTION BOX - PO LOBBY", "note": "ON 12/24 AND 12/31, THIS BOX MAY BE COLLECTED AS EARLY AS 12 NOON.", "nsi_id": "unitedstatespostalservice-a77078", "operator": "United States Postal Service", "operator:short": "USPS", "operator:type": "public", "operator:wikidata": "Q668687", "ref": "1271900003"}, "type": "Feature"}
{"dataset_attributes": {"@spider": "usps_collection_boxes", "spider:collection_time": "2023-10-31T08:25:14.480804"}, "geometry": {"coordinates": [-74.887145, 41.687807], "type": "Point"}, "id": "b4SJvbTNAoJXLTHleZIFGjUtCSY=", "properties": {"@spider": "usps_collection_boxes", "addr:city": "BETHEL", "addr:country": "US", "addr:full": "2166 STATE ROUTE 17B", "addr:postcode": "12720", "addr:state": "NY", "amenity": "post_box", "brand": "United States Postal Service", "brand:wikidata": "Q668687", "collection_times": "Mo-Fr 17:00; Sa 12:00", "name": "USPS COLLECTION BOX - BLUE BOX", "note": "ON 12/24 AND 12/31, THIS BOX MAY BE COLLECTED AS EARLY AS 12 NOON.", "nsi_id": "unitedstatespostalservice-a77078", "operator": "United States Postal Service", "operator:short": "USPS", "operator:type": "public", "operator:wikidata": "Q668687", "ref": "1272000001"}, "type": "Feature"}
{"dataset_attributes": {"@spider": "usps_collection_boxes", "spider:collection_time": "2023-10-31T08:25:14.480804"}, "geometry": {"coordinates": [-74.885402, 41.687409], "type": "Point"}, "id": "oiES27uIsahTpFg1PGYmj8vGigU=", "properties": {"@spider": "usps_collection_boxes", "addr:city": "BETHEL", "addr:country": "US", "addr:full": "2166 ROUTE 17B ( LOBBY SLOT )", "addr:postcode": "12720", "addr:state": "NY", "amenity": "post_box", "brand": "United States Postal Service", "brand:wikidata": "Q668687", "collection_times": "Mo-Fr 17:00; Sa 12:00", "name": "USPS COLLECTION BOX - PO LOBBY", "note": "ON 12/24 AND 12/31, THIS BOX MAY BE COLLECTED AS EARLY AS 12 NOON.", "nsi_id": "unitedstatespostalservice-a77078", "operator": "United States Postal Service", "operator:short": "USPS", "operator:type": "public", "operator:wikidata": "Q668687", "ref": "1272000002"}, "type": "Feature"}
{"dataset_attributes": {"@spider": "usps_collection_boxes", "spider:collection_time": "2023-10-31T08:25:14.480804"}, "geometry": {"coordinates": [-74.887145607, 41.687803107], "type": "Point"}, "id": "BN4ZvmTSIa1J38Z5JME0aPrg_6U=", "properties": {"@spider": "usps_collection_boxes", "addr:city": "BETHEL", "addr:country": "US", "addr:full": "2166 STATE ROUTE 17B", "addr:postcode": "12720", "addr:state": "NY", "amenity": "post_box", "brand": "United States Postal Service", "brand:wikidata": "Q668687", "collection_times": "Mo-Fr 17:00; Sa 12:00", "name": "USPS COLLECTION BOX - PO LOBBY", "note": "ON 12/24 AND 12/31, THIS BOX MAY BE COLLECTED AS EARLY AS 12 NOON.", "nsi_id": "unitedstatespostalservice-a77078", "operator": "United States Postal Service", "operator:short": "USPS", "operator:type": "public", "operator:wikidata": "Q668687", "ref": "1272000003"}, "type": "Feature"}
{"dataset_attributes": {"@spider": "usps_collection_boxes", "spider:collection_time": "2023-10-31T08:25:14.480804"}, "geometry": {"coordinates": [-74.440585, 41.553041], "type": "Point"}, "id": "o_ERF9JfHHsIk6G9u6xRP1W3AzA=", "properties": {"@spider": "usps_collection_boxes", "addr:city": "BLOOMINGBURG", "addr:country": "US", "addr:full": "21 WINTERTON RD", "addr:postcode": "12721", "addr:state": "NY", "amenity": "post_box", "brand": "United States Postal Service", "brand:wikidata": "Q668687", "collection_times": "Mo-Fr 17:00; Sa 12:00", "name": "USPS COLLECTION BOX - BLUE BOX", "note": "ON 12/24 AND 12/31, THIS BOX MAY BE COLLECTED AS EARLY AS 12 NOON.", "nsi_id": "unitedstatespostalservice-a77078", "operator": "United States Postal Service", "operator:short": "USPS", "operator:type": "public", "operator:wikidata": "Q668687", "ref": "1272100001"}, "type": "Feature"}
{"dataset_attributes": {"@spider": "usps_collection_boxes", "spider:collection_time": "2023-10-31T08:25:14.480804"}, "geometry": {"coordinates": [-74.440585, 41.553041], "type": "Point"}, "id": "uIVrL-ybp9sTuABKzJ5b77JN6dI=", "properties": {"@spider": "usps_collection_boxes", "addr:city": "BLOOMINGBURG", "addr:country": "US", "addr:full": "21 WINTERTON RD LBBY SLOT", "addr:postcode": "12721", "addr:state": "NY", "amenity": "post_box", "brand": "United States Postal Service", "brand:wikidata": "Q668687", "collection_times": "Mo-Fr 17:00; Sa 12:00", "name": "USPS COLLECTION BOX - PO LOBBY", "note": "ON 12/24 AND 12/31, THIS BOX MAY BE COLLECTED AS EARLY AS 12 NOON.", "nsi_id": "unitedstatespostalservice-a77078", "operator": "United States Postal Service", "operator:short": "USPS", "operator:type": "public", "operator:wikidata": "Q668687", "ref": "1272100006"}, "type": "Feature"}
{"dataset_attributes": {"@spider": "usps_collection_boxes", "spider:collection_time": "2023-10-31T08:25:14.480804"}, "geometry": {"coordinates": [-74.440525424, 41.553119222], "type": "Point"}, "id": "5zlcc5xka24K3Fjoslmt320zXsU=", "properties": {"@spider": "usps_collection_boxes", "addr:city": "BLOOMINGBURG", "addr:country": "US", "addr:full": "21 WINTERTON RD", "addr:postcode": "12721", "addr:state": "NY", "amenity": "post_box", "brand": "United States Postal Service", "brand:wikidata": "Q668687", "collection_times": "Mo-Fr 17:00; Sa 12:00", "name": "USPS COLLECTION BOX - PO LOBBY", "note": "ON 12/24 AND 12/31, THIS BOX MAY BE COLLECTED AS EARLY AS 12 NOON.", "nsi_id": "unitedstatespostalservice-a77078", "operator": "United States Postal Service", "operator:short": "USPS", "operator:type": "public", "operator:wikidata": "Q668687", "ref": "1272100007"}, "type": "Feature"}
{"dataset_attributes": {"@spider": "usps_collection_boxes", "spider:collection_time": "2023-10-31T08:25:14.480804"}, "geometry": {"coordinates": [-74.383708, 41.589595], "type": "Point"}, "id": "UtJVHqutsTo0kSXJyoW68ZfAed4=", "properties": {"@spider": "usps_collection_boxes", "addr:city": "BURLINGHAM", "addr:country": "US", "addr:full": "709 BURLINGHAM RD", "addr:postcode": "12722", "addr:state": "NY", "amenity": "post_box", "brand": "United States Postal Service", "brand:wikidata": "Q668687", "collection_times": "Mo-Fr 17:00; Sa 12:00", "name": "USPS COLLECTION BOX - BLUE BOX", "note": "ON 12/24 AND 12/31, THIS BOX MAY BE COLLECTED AS EARLY AS 12 NOON.", "nsi_id": "unitedstatespostalservice-a77078", "operator": "United States Postal Service", "operator:short": "USPS", "operator:type": "public", "operator:wikidata": "Q668687", "ref": "1272200001"}, "type": "Feature"}
{"dataset_attributes": {"@spider": "usps_collection_boxes", "spider:collection_time": "2023-10-31T08:25:14.480804"}, "geometry": {"coordinates": [-74.383708, 41.589595], "type": "Point"}, "id": "XnTFqDblN_7ERf4tqDzw9oFicw8=", "properties": {"@spider": "usps_collection_boxes", "addr:city": "BURLINGHAM", "addr:country": "US", "addr:full": "709 BURLINGHAM RD LBBY SLOT", "addr:postcode": "12722", "addr:state": "NY", "amenity": "post_box", "brand": "United States Postal Service", "brand:wikidata": "Q668687", "collection_times": "Mo-Fr 17:00; Sa 12:00", "name": "USPS COLLECTION BOX - PO LOBBY", "note": "ON 12/24 AND 12/31, THIS BOX MAY BE COLLECTED AS EARLY AS 12 NOON.", "nsi_id": "unitedstatespostalservice-a77078", "operator": "United States Postal Service", "operator:short": "USPS", "operator:type": "public", "operator:wikidata": "Q668687", "ref": "1272200002"}, "type": "Feature"}
{"dataset_attributes": {"@spider": "usps_collection_boxes", "spider:collection_time": "2023-10-31T08:25:14.480804"}, "geometry": {"coordinates": [-74.382945605, 41.589958704], "type": "Point"}, "id": "bAJ7iqq0frA-q0l4DnMesUDP-X8=", "properties": {"@spider": "usps_collection_boxes", "addr:city": "BURLINGHAM", "addr:country": "US", "addr:full": "709 BURLINGHAM RD", "addr:postcode": "12722", "addr:state": "NY", "amenity": "post_box", "brand": "United States Postal Service", "brand:wikidata": "Q668687", "collection_times": "Mo-Fr 17:00; Sa 12:00", "name": "USPS COLLECTION BOX - PO LOBBY", "note": "ON 12/24 AND 12/31, THIS BOX MAY BE COLLECTED AS EARLY AS 12 NOON.", "nsi_id": "unitedstatespostalservice-a77078", "operator": "United States Postal Service", "operator:short": "USPS", "operator:type": "public", "operator:wikidata": "Q668687", "ref": "1272200003"}, "type": "Feature"}
{"dataset_attributes": {"@spider": "usps_collection_boxes", "spider:collection_time": "2023-10-31T08:25:14.480804"}, "geometry": {"coordinates": [-75.06044, 41.767324], "type": "Point"}, "id": "T9XV3JK-vVe2voABLp_D4ogELUo=", "properties": {"@spider": "usps_collection_boxes", "addr:city": "CALLICOON", "addr:country": "US", "addr:full": "13 RIVER RD", "addr:postcode": "12723", "addr:state": "NY", "amenity": "post_box", "brand": "United States Postal Service", "brand:wikidata": "Q668687", "collection_times": "Mo-Fr 17:00; Sa 12:00", "name": "USPS COLLECTION BOX - BLUE BOX", "note": "ON 12/24 AND 12/31, THIS BOX MAY BE COLLECTED AS EARLY AS 12 NOON.", "nsi_id": "unitedstatespostalservice-a77078", "operator": "United States Postal Service", "operator:short": "USPS", "operator:type": "public", "operator:wikidata": "Q668687", "ref": "1272300001"}, "type": "Feature"}
{"dataset_attributes": {"@spider": "usps_collection_boxes", "spider:collection_time": "2023-10-31T08:25:14.480804"}, "geometry": {"coordinates": [-75.06044, 41.767324], "type": "Point"}, "id": "NOJPWcWTawLVAW8uvmgNzBx9BUk=", "properties": {"@spider": "usps_collection_boxes", "addr:city": "CALLICOON", "addr:country": "US", "addr:full": "13 RIVER RD LBBY SLOT", "addr:postcode": "12723", "addr:state": "NY", "amenity": "post_box", "brand": "United States Postal Service", "brand:wikidata": "Q668687", "collection_times": "Mo-Fr 17:00; Sa 12:00", "name": "USPS COLLECTION BOX - PO LOBBY", "note": "ON 12/24 AND 12/31, THIS BOX MAY BE COLLECTED AS EARLY AS 12 NOON.", "nsi_id": "unitedstatespostalservice-a77078", "operator": "United States Postal Service", "operator:short": "USPS", "operator:type": "public", "operator:wikidata": "Q668687", "ref": "1272300002"}, "type": "Feature"}
{"dataset_attributes": {"@spider": "usps_collection_boxes", "spider:collection_time": "2023-10-31T08:25:14.480804"}, "geometry": {"coordinates": [-75.060046069, 41.76716662], "type": "Point"}, "id": "HgQcihTg6s3QubVt36D2PQ8KVcI=", "properties": {"@spider": "usps_collection_boxes", "addr:city": "CALLICOON", "addr:country": "US", "addr:full": "13 RIVER RD", "addr:postcode": "12723", "addr:state": "NY", "amenity": "post_box", "brand": "United States Postal Service", "brand:wikidata": "Q668687", "collection_times": "Mo-Fr 17:00; Sa 12:00", "name": "USPS COLLECTION BOX - PO LOBBY", "note": "ON 12/24 AND 12/31, THIS BOX MAY BE COLLECTED AS EARLY AS 12 NOON.", "nsi_id": "unitedstatespostalservice-a77078", "operator": "United States Postal Service", "operator:short": "USPS", "operator:type": "public", "operator:wikidata": "Q668687", "ref": "1272300003"}, "type": "Feature"}
{"dataset_attributes": {"@spider": "usps_collection_boxes", "spider:collection_time": "2023-10-31T08:25:14.480804"}, "geometry": {"coordinates": [-74.94651, 41.838147], "type": "Point"}, "id": "d5kvyCtA2U_e3mjrq99GX7rLceU=", "properties": {"@spider": "usps_collection_boxes", "addr:city": "CALLICOON CENTER", "addr:country": "US", "addr:full": "1675 GULF RD", "addr:postcode": "12724", "addr:state": "NY", "amenity": "post_box", "brand": "United States Postal Service", "brand:wikidata": "Q668687", "collection_times": "Mo-Fr 17:00; Sa 12:00", "name": "USPS COLLECTION BOX - BLUE BOX", "note": "ON 12/24 AND 12/31, THIS BOX MAY BE COLLECTED AS EARLY AS 12 NOON.", "nsi_id": "unitedstatespostalservice-a77078", "operator": "United States Postal Service", "operator:short": "USPS", "operator:type": "public", "operator:wikidata": "Q668687", "ref": "1272400001"}, "type": "Feature"}
{"dataset_attributes": {"@spider": "usps_collection_boxes", "spider:collection_time": "2023-10-31T08:25:14.480804"}, "geometry": {"coordinates": [-74.94651, 41.838147], "type": "Point"}, "id": "1s8uiYQwF6KioRMxywNKxlFDx-M=", "properties": {"@spider": "usps_collection_boxes", "addr:city": "CALLICOON CENTER", "addr:country": "US", "addr:full": "1675 GULF ROAD ( LOBBY SLOT )", "addr:postcode": "12724", "addr:state": "NY", "amenity": "post_box", "brand": "United States Postal Service", "brand:wikidata": "Q668687", "collection_times": "Mo-Fr 17:00; Sa 12:00", "name": "USPS COLLECTION BOX - PO LOBBY", "note": "ON 12/24 AND 12/31, THIS BOX MAY BE COLLECTED AS EARLY AS 12 NOON.", "nsi_id": "unitedstatespostalservice-a77078", "operator": "United States Postal Service", "operator:short": "USPS", "operator:type": "public", "operator:wikidata": "Q668687", "ref": "1272400002"}, "type": "Feature"}
{"dataset_attributes": {"@spider": "usps_collection_boxes", "spider:collection_time": "2023-10-31T08:25:14.480804"}, "geometry": {"coordinates": [-74.946503697, 41.838179051], "type": "Point"}, "id": "Q-_Z_QtFhSwSLDkCTAJ5_YIAN0s=", "properties": {"@spider": "usps_collection_boxes", "addr:city": "CALLICOON CENTER", "addr:country": "US", "addr:full": "1675 GULF RD", "addr:postcode": "12724", "addr:state": "NY", "amenity": "post_box", "brand": "United States Postal Service", "brand:wikidata": "Q668687", "collection_times": "Mo-Fr 17:00; Sa 12:00", "name": "USPS COLLECTION BOX - PO LOBBY", "note": "ON 12/24 AND 12/31, THIS BOX MAY BE COLLECTED AS EARLY AS 12 NOON.", "nsi_id": "unitedstatespostalservice-a77078", "operator": "United States Postal Service", "operator:short": "USPS", "operator:type": "public", "operator:wikidata": "Q668687", "ref": "1272400003"}, "type": "Feature"}
{"dataset_attributes": {"@spider": "usps_collection_boxes", "spider:collection_time": "2023-10-31T08:25:14.480804"}, "geometry": {"coordinates": [-74.5583833629, 41.9241290957], "type": "Point"}, "id": "zA_us0E6BB4voYiyjmAJjJSs15c=", "properties": {"@spider": "usps_collection_boxes", "addr:city": "GRAHAMSVILLE", "addr:country": "US", "addr:full": "1471 DENNING RD", "addr:postcode": "12725", "addr:state": "NY", "amenity": "post_box", "brand": "United States Postal Service", "brand:wikidata": "Q668687", "collection_times": "Mo-Sa 12:00", "name": "USPS COLLECTION BOX - PO LOBBY", "nsi_id": "unitedstatespostalservice-a77078", "operator": "United States Postal Service", "operator:short": "USPS", "operator:type": "public", "operator:wikidata": "Q668687", "ref": "1272500005"}, "type": "Feature"}
{"dataset_attributes": {"@spider": "usps_collection_boxes", "spider:collection_time": "2023-10-31T08:25:14.480804"}, "geometry": {"coordinates": [-74.5583833629, 41.9241290957], "type": "Point"}, "id": "pZDEEl4ohnBkg6m2sXyxkyzruf0=", "properties": {"@spider": "usps_collection_boxes", "addr:city": "GRAHAMSVILLE", "addr:country": "US", "addr:full": "1471 DENNING RD", "addr:postcode": "12725", "addr:state": "NY", "amenity": "post_box", "brand": "United States Postal Service", "brand:wikidata": "Q668687", "collection_times": "Mo-Sa 12:00", "name": "USPS COLLECTION BOX - PO LOBBY", "nsi_id": "unitedstatespostalservice-a77078", "operator": "United States Postal Service", "operator:short": "USPS", "operator:type": "public", "operator:wikidata": "Q668687", "ref": "1272500006"}, "type": "Feature"}
{"dataset_attributes": {"@spider": "usps_collection_boxes", "spider:collection_time": "2023-10-31T08:25:14.480804"}, "geometry": {"coordinates": [-75.064352, 41.706811], "type": "Point"}, "id": "keEuDYlig4nffgbi4zqqemYnzKM=", "properties": {"@spider": "usps_collection_boxes", "addr:city": "COCHECTON", "addr:country": "US", "addr:full": "45 COUNTY ROAD 114", "addr:postcode": "12726", "addr:state": "NY", "amenity": "post_box", "brand": "United States Postal Service", "brand:wikidata": "Q668687", "collection_times": "Mo-Fr 17:00; Sa 11:00", "name": "USPS COLLECTION BOX - BLUE BOX", "note": "ON 12/24 AND 12/31, THIS BOX MAY BE COLLECTED AS EARLY AS 12 NOON.", "nsi_id": "unitedstatespostalservice-a77078", "operator": "United States Postal Service", "operator:short": "USPS", "operator:type": "public", "operator:wikidata": "Q668687", "ref": "1272600001"}, "type": "Feature"}
{"dataset_attributes": {"@spider": "usps_collection_boxes", "spider:collection_time": "2023-10-31T08:25:14.480804"}, "geometry": {"coordinates": [-75.064352, 41.706811], "type": "Point"}, "id": "O763SqTaTPMFkPtrKvgeBGc_lGU=", "properties": {"@spider": "usps_collection_boxes", "addr:city": "COCHECTON", "addr:country": "US", "addr:full": "45 COUNTY ROAD 114 LBBY SLOT", "addr:postcode": "12726", "addr:state": "NY", "amenity": "post_box", "brand": "United States Postal Service", "brand:wikidata": "Q668687", "collection_times": "Mo-Fr 17:00; Sa 11:00", "name": "USPS COLLECTION BOX - PO LOBBY", "note": "ON 12/24 AND 12/31, THIS BOX MAY BE COLLECTED AS EARLY AS 12 NOON.", "nsi_id": "unitedstatespostalservice-a77078", "operator": "United States Postal Service", "operator:short": "USPS", "operator:type": "public", "operator:wikidata": "Q668687", "ref": "1272600002"}, "type": "Feature"}
{"dataset_attributes": {"@spider": "usps_collection_boxes", "spider:collection_time": "2023-10-31T08:25:14.480804"}, "geometry": {"coordinates": [-75.064338923, 41.706857408], "type": "Point"}, "id": "M_ygXbGmW7ALrV6qmtOftZTjQB8=", "properties": {"@spider": "usps_collection_boxes", "addr:city": "COCHECTON", "addr:country": "US", "addr:full": "45 COUNTY ROAD 114", "addr:postcode": "12726", "addr:state": "NY", "amenity": "post_box", "brand": "United States Postal Service", "brand:wikidata": "Q668687", "collection_times": "Mo-Fr 17:00; Sa 11:00", "name": "USPS COLLECTION BOX - PO LOBBY", "note": "ON 12/24 AND 12/31, THIS BOX MAY BE COLLECTED AS EARLY AS 12 NOON.", "nsi_id": "unitedstatespostalservice-a77078", "operator": "United States Postal Service", "operator:short": "USPS", "operator:type": "public", "operator:wikidata": "Q668687", "ref": "1272600003"}, "type": "Feature"}
{"dataset_attributes": {"@spider": "usps_collection_boxes", "spider:collection_time": "2023-10-31T08:25:14.480804"}, "geometry": {"coordinates": [-74.591194, 41.463847], "type": "Point"}, "id": "08ElyLEf56mObu12M5SxRGVxVSM=", "properties": {"@spider": "usps_collection_boxes", "addr:city": "CUDDEBACKVILLE", "addr:country": "US", "addr:full": "19 STATE ROUTE 211", "addr:postcode": "12729", "addr:state": "NY", "amenity": "post_box", "brand": "United States Postal Service", "brand:wikidata": "Q668687", "collection_times": "Mo-Fr 17:00; Sa 12:00", "name": "USPS COLLECTION BOX - BLUE BOX", "note": "ON 12/24 AND 12/31, THIS BOX MAY BE COLLECTED AS EARLY AS 12 NOON.", "nsi_id": "unitedstatespostalservice-a77078", "operator": "United States Postal Service", "operator:short": "USPS", "operator:type": "public", "operator:wikidata": "Q668687", "ref": "1272900002"}, "type": "Feature"}
{"dataset_attributes": {"@spider": "usps_collection_boxes", "spider:collection_time": "2023-10-31T08:25:14.480804"}, "geometry": {"coordinates": [-74.591194, 41.463847], "type": "Point"}, "id": "vuG-VDWlDFV2eWfpL02W0GZUNp8=", "properties": {"@spider": "usps_collection_boxes", "addr:city": "CUDDEBACKVILLE", "addr:country": "US", "addr:full": "19 STATE ROUTE 211 LBBY SLOT", "addr:postcode": "12729", "addr:state": "NY", "amenity": "post_box", "brand": "United States Postal Service", "brand:wikidata": "Q668687", "collection_times": "Mo-Fr 17:00; Sa 12:00", "name": "USPS COLLECTION BOX - PO LOBBY", "note": "ON 12/24 AND 12/31, THIS BOX MAY BE COLLECTED AS EARLY AS 12 NOON.", "nsi_id": "unitedstatespostalservice-a77078", "operator": "United States Postal Service", "operator:short": "USPS", "operator:type": "public", "operator:wikidata": "Q668687", "ref": "1272900003"}, "type": "Feature"}
{"dataset_attributes": {"@spider": "usps_collection_boxes", "spider:collection_time": "2023-10-31T08:25:14.480804"}, "geometry": {"coordinates": [-74.591084567, 41.463812964], "type": "Point"}, "id": "jto83vI7cIo1n5ttf_NAux9-sAU=", "properties": {"@spider": "usps_collection_boxes", "addr:city": "CUDDEBACKVILLE", "addr:country": "US", "addr:full": "19 STATE ROUTE 211", "addr:postcode": "12729", "addr:state": "NY", "amenity": "post_box", "brand": "United States Postal Service", "brand:wikidata": "Q668687", "collection_times": "Mo-Fr 17:00; Sa 12:00", "name": "USPS COLLECTION BOX - PO LOBBY", "note": "ON 12/24 AND 12/31, THIS BOX MAY BE COLLECTED AS EARLY AS 12 NOON.", "nsi_id": "unitedstatespostalservice-a77078", "operator": "United States Postal Service", "operator:short": "USPS", "operator:type": "public", "operator:wikidata": "Q668687", "ref": "1272900004"}, "type": "Feature"}
{"dataset_attributes": {"@spider": "usps_collection_boxes", "spider:collection_time": "2023-10-31T08:25:14.480804"}, "geometry": {"coordinates": [-74.883763, 41.526665], "type": "Point"}, "id": "Ah1Fyve-6yf6M2SUytYL0bYGT8s=", "properties": {"@spider": "usps_collection_boxes", "addr:city": "ELDRED", "addr:country": "US", "addr:full": "12 PROCTOR RD", "addr:postcode": "12732", "addr:state": "NY", "amenity": "post_box", "brand": "United States Postal Service", "brand:wikidata": "Q668687", "collection_times": "Mo-Fr 17:00; Sa 12:00", "name": "USPS COLLECTION BOX - BLUE BOX", "note": "ON 12/24 AND 12/31, THIS BOX MAY BE COLLECTED AS EARLY AS 12 NOON.", "nsi_id": "unitedstatespostalservice-a77078", "operator": "United States Postal Service", "operator:short": "USPS", "operator:type": "public", "operator:wikidata": "Q668687", "ref": "1273200001"}, "type": "Feature"}
{"dataset_attributes": {"@spider": "usps_collection_boxes", "spider:collection_time": "2023-10-31T08:25:14.480804"}, "geometry": {"coordinates": [-74.883763, 41.526665], "type": "Point"}, "id": "FrcM-9EoxAMpCaMmt4K0BYf4GsY=", "properties": {"@spider": "usps_collection_boxes", "addr:city": "ELDRED", "addr:country": "US", "addr:full": "12 PROCTOR RD", "addr:postcode": "12732", "addr:state": "NY", "amenity": "post_box", "brand": "United States Postal Service", "brand:wikidata": "Q668687", "collection_times": "Mo-Fr 17:00; Sa 12:00", "name": "USPS COLLECTION BOX - PO LOBBY", "note": "ON 12/24 AND 12/31, THIS BOX MAY BE COLLECTED AS EARLY AS 12 NOON.", "nsi_id": "unitedstatespostalservice-a77078", "operator": "United States Postal Service", "operator:short": "USPS", "operator:type": "public", "operator:wikidata": "Q668687", "ref": "1273200002"}, "type": "Feature"}
{"dataset_attributes": {"@spider": "usps_collection_boxes", "spider:collection_time": "2023-10-31T08:25:14.480804"}, "geometry": {"coordinates": [-74.883272792, 41.526408198], "type": "Point"}, "id": "r-bVlz_es2wOlS0zhdXNPhCHkhA=", "properties": {"@spider": "usps_collection_boxes", "addr:city": "ELDRED", "addr:country": "US", "addr:full": "12 PROCTOR RD", "addr:postcode": "12732", "addr:state": "NY", "amenity": "post_box", "brand": "United States Postal Service", "brand:wikidata": "Q668687", "collection_times": "Mo-Fr 17:00; Sa 12:00", "name": "USPS COLLECTION BOX - PO LOBBY", "note": "ON 12/24 AND 12/31, THIS BOX MAY BE COLLECTED AS EARLY AS 12 NOON.", "nsi_id": "unitedstatespostalservice-a77078", "operator": "United States Postal Service", "operator:short": "USPS", "operator:type": "public", "operator:wikidata": "Q668687", "ref": "1273200003"}, "type": "Feature"}
{"dataset_attributes": {"@spider": "usps_collection_boxes", "spider:collection_time": "2023-10-31T08:25:14.480804"}, "geometry": {"coordinates": [-74.604984, 41.730825], "type": "Point"}, "id": "N1LJ4nS06bwSAw2VsaFY0IqDa20=", "properties": {"@spider": "usps_collection_boxes", "addr:city": "FALLSBURG", "addr:country": "US", "addr:full": "5672 STATE ROUTE 42", "addr:postcode": "12733", "addr:state": "NY", "amenity": "post_box", "brand": "United States Postal Service", "brand:wikidata": "Q668687", "collection_times": "Mo-Fr 17:00; Sa 12:00", "name": "USPS COLLECTION BOX - BLUE BOX", "note": "ON 12/24 AND 12/31, THIS BOX MAY BE COLLECTED AS EARLY AS 12 NOON.", "nsi_id": "unitedstatespostalservice-a77078", "operator": "United States Postal Service", "operator:short": "USPS", "operator:type": "public", "operator:wikidata": "Q668687", "ref": "1273300001"}, "type": "Feature"}
{"dataset_attributes": {"@spider": "usps_collection_boxes", "spider:collection_time": "2023-10-31T08:25:14.480804"}, "geometry": {"coordinates": [-74.604984, 41.730825], "type": "Point"}, "id": "HybpS-9bog2Ods7GeZN3rEiwrfY=", "properties": {"@spider": "usps_collection_boxes", "addr:city": "FALLSBURG", "addr:country": "US", "addr:full": "5672 STATE ROUTE 42 LBBY SLOT", "addr:postcode": "12733", "addr:state": "NY", "amenity": "post_box", "brand": "United States Postal Service", "brand:wikidata": "Q668687", "collection_times": "Mo-Fr 17:00; Sa 12:00", "name": "USPS COLLECTION BOX - PO LOBBY", "note": "ON 12/24 AND 12/31, THIS BOX MAY BE COLLECTED AS EARLY AS 12 NOON.", "nsi_id": "unitedstatespostalservice-a77078", "operator": "United States Postal Service", "operator:short": "USPS", "operator:type": "public", "operator:wikidata": "Q668687", "ref": "1273300002"}, "type": "Feature"}
{"dataset_attributes": {"@spider": "usps_collection_boxes", "spider:collection_time": "2023-10-31T08:25:14.480804"}, "geometry": {"coordinates": [-74.60498652, 41.730769571], "type": "Point"}, "id": "MS-KVkDkK32KODwD34_FrNb0vXc=", "properties": {"@spider": "usps_collection_boxes", "addr:city": "FALLSBURG", "addr:country": "US", "addr:full": "5672 STATE ROUTE 42", "addr:postcode": "12733", "addr:state": "NY", "amenity": "post_box", "brand": "United States Postal Service", "brand:wikidata": "Q668687", "collection_times": "Mo-Fr 17:00; Sa 12:00", "name": "USPS COLLECTION BOX - PO LOBBY", "note": "ON 12/24 AND 12/31, THIS BOX MAY BE COLLECTED AS EARLY AS 12 NOON.", "nsi_id": "unitedstatespostalservice-a77078", "operator": "United States Postal Service", "operator:short": "USPS", "operator:type": "public", "operator:wikidata": "Q668687", "ref": "1273300003"}, "type": "Feature"}
{"dataset_attributes": {"@spider": "usps_collection_boxes", "spider:collection_time": "2023-10-31T08:25:14.480804"}, "geometry": {"coordinates": [-74.729324, 41.780365], "type": "Point"}, "id": "DM1nEzK-ZDuK-R-q41fx0n9VgkA=", "properties": {"@spider": "usps_collection_boxes", "addr:city": "FERNDALE", "addr:country": "US", "addr:full": "108 SULLIVAN AVE", "addr:postcode": "12734", "addr:state": "NY", "amenity": "post_box", "brand": "United States Postal Service", "brand:wikidata": "Q668687", "collection_times": "Mo-Fr 17:00; Sa 12:00", "name": "USPS COLLECTION BOX - BLUE BOX", "note": "ON 12/24 AND 12/31, THIS BOX MAY BE COLLECTED AS EARLY AS 12 NOON.", "nsi_id": "unitedstatespostalservice-a77078", "operator": "United States Postal Service", "operator:short": "USPS", "operator:type": "public", "operator:wikidata": "Q668687", "ref": "1273400001"}, "type": "Feature"}
{"dataset_attributes": {"@spider": "usps_collection_boxes", "spider:collection_time": "2023-10-31T08:25:14.480804"}, "geometry": {"coordinates": [-74.729324, 41.780365], "type": "Point"}, "id": "c-OE5q5ft3ZAmUeYngcfdNNNq9c=", "properties": {"@spider": "usps_collection_boxes", "addr:city": "FERNDALE", "addr:country": "US", "addr:full": "108 SULLIVAN AVE LBBY SLOT", "addr:postcode": "12734", "addr:state": "NY", "amenity": "post_box", "brand": "United States Postal Service", "brand:wikidata": "Q668687", "collection_times": "Mo-Fr 17:00; Sa 12:00", "name": "USPS COLLECTION BOX - PO LOBBY", "note": "ON 12/24 AND 12/31, THIS BOX MAY BE COLLECTED AS EARLY AS 12 NOON.", "nsi_id": "unitedstatespostalservice-a77078", "operator": "United States Postal Service", "operator:short": "USPS", "operator:type": "public", "operator:wikidata": "Q668687", "ref": "1273400003"}, "type": "Feature"}
{"dataset_attributes": {"@spider": "usps_collection_boxes", "spider:collection_time": "2023-10-31T08:25:14.480804"}, "geometry": {"coordinates": [-74.729772553, 41.779489483], "type": "Point"}, "id": "LbM-CdrFMCaN3a0f9xAIddxzi2w=", "properties": {"@spider": "usps_collection_boxes", "addr:city": "FERNDALE", "addr:country": "US", "addr:full": "108 SULLIVAN AVE", "addr:postcode": "12734", "addr:state": "NY", "amenity": "post_box", "brand": "United States Postal Service", "brand:wikidata": "Q668687", "collection_times": "Mo-Fr 17:00; Sa 12:00", "name": "USPS COLLECTION BOX - PO LOBBY", "note": "ON 12/24 AND 12/31, THIS BOX MAY BE COLLECTED AS EARLY AS 12 NOON.", "nsi_id": "unitedstatespostalservice-a77078", "operator": "United States Postal Service", "operator:short": "USPS", "operator:type": "public", "operator:wikidata": "Q668687", "ref": "1273400004"}, "type": "Feature"}
{"dataset_attributes": {"@spider": "usps_collection_boxes", "spider:collection_time": "2023-10-31T08:25:14.480804"}, "geometry": {"coordinates": [-75.036034, 41.850704], "type": "Point"}, "id": "CSOEuL1J3oMKJaavqXzxX2D1P-Q=", "properties": {"@spider": "usps_collection_boxes", "addr:city": "FREMONT CENTER", "addr:country": "US", "addr:full": "37 COUNTY ROAD 93", "addr:postcode": "12736", "addr:state": "NY", "amenity": "post_box", "brand": "United States Postal Service", "brand:wikidata": "Q668687", "collection_times": "Mo-Fr 17:00; Sa 12:00", "name": "USPS COLLECTION BOX - BLUE BOX", "note": "ON 12/24 AND 12/31, THIS BOX MAY BE COLLECTED AS EARLY AS 12 NOON.", "nsi_id": "unitedstatespostalservice-a77078", "operator": "United States Postal Service", "operator:short": "USPS", "operator:type": "public", "operator:wikidata": "Q668687", "ref": "1273600001"}, "type": "Feature"}
{"dataset_attributes": {"@spider": "usps_collection_boxes", "spider:collection_time": "2023-10-31T08:25:14.480804"}, "geometry": {"coordinates": [-75.0527260097, 41.8527595454], "type": "Point"}, "id": "jyOIbfIZ0AKsD2pkOSkotm7ipoc=", "properties": {"@spider": "usps_collection_boxes", "addr:city": "FREMONT CENTER", "addr:country": "US", "addr:full": "37 COUNTY ROAD ( LOBBY SLOT )", "addr:postcode": "12736", "addr:state": "NY", "amenity": "post_box", "brand": "United States Postal Service", "brand:wikidata": "Q668687", "collection_times": "Mo-Fr 17:00; Sa 12:00", "name": "USPS COLLECTION BOX - PO LOBBY", "note": "ON 12/24 AND 12/31, THIS BOX MAY BE COLLECTED AS EARLY AS 12 NOON.", "nsi_id": "unitedstatespostalservice-a77078", "operator": "United States Postal Service", "operator:short": "USPS", "operator:type": "public", "operator:wikidata": "Q668687", "ref": "1273600002"}, "type": "Feature"}
{"dataset_attributes": {"@spider": "usps_collection_boxes", "spider:collection_time": "2023-10-31T08:25:14.480804"}, "geometry": {"coordinates": [-75.039052503, 41.845452464], "type": "Point"}, "id": "E5dg8Cm2LXuWsn6UeCyZ3T-2vLY=", "properties": {"@spider": "usps_collection_boxes", "addr:city": "FREMONT CENTER", "addr:country": "US", "addr:full": "37 COUNTY ROAD 93", "addr:postcode": "12736", "addr:state": "NY", "amenity": "post_box", "brand": "United States Postal Service", "brand:wikidata": "Q668687", "collection_times": "Mo-Fr 17:00; Sa 12:00", "name": "USPS COLLECTION BOX - PO LOBBY", "note": "ON 12/24 AND 12/31, THIS BOX MAY BE COLLECTED AS EARLY AS 12 NOON.", "nsi_id": "unitedstatespostalservice-a77078", "operator": "United States Postal Service", "operator:short": "USPS", "operator:type": "public", "operator:wikidata": "Q668687", "ref": "1273600003"}, "type": "Feature"}
{"dataset_attributes": {"@spider": "usps_collection_boxes", "spider:collection_time": "2023-10-31T08:25:14.480804"}, "geometry": {"coordinates": [-74.810209, 41.484161], "type": "Point"}, "id": "PshauGP5oRuQec65cpYTxrT8MRw=", "properties": {"@spider": "usps_collection_boxes", "addr:city": "GLEN SPEY", "addr:country": "US", "addr:full": "1677 FORESTBURGH RD", "addr:postcode": "12737", "addr:state": "NY", "amenity": "post_box", "brand": "United States Postal Service", "brand:wikidata": "Q668687", "collection_times": "Mo-Fr 17:00; Sa 12:00", "name": "USPS COLLECTION BOX - BLUE BOX", "note": "ON 12/24 AND 12/31, THIS BOX MAY BE COLLECTED AS EARLY AS 12 NOON.", "nsi_id": "unitedstatespostalservice-a77078", "operator": "United States Postal Service", "operator:short": "USPS", "operator:type": "public", "operator:wikidata": "Q668687", "ref": "1273700001"}, "type": "Feature"}
{"dataset_attributes": {"@spider": "usps_collection_boxes", "spider:collection_time": "2023-10-31T08:25:14.480804"}, "geometry": {"coordinates": [-74.810209, 41.484161], "type": "Point"}, "id": "TkdG8nJ15qiXa0LW09cXyMzQFBo=", "properties": {"@spider": "usps_collection_boxes", "addr:city": "GLEN SPEY", "addr:country": "US", "addr:full": "1677 FORESTBURGH RD LBBY SLOT", "addr:postcode": "12737", "addr:state": "NY", "amenity": "post_box", "brand": "United States Postal Service", "brand:wikidata": "Q668687", "collection_times": "Mo-Fr 17:00; Sa 12:00", "name": "USPS COLLECTION BOX - PO LOBBY", "note": "ON 12/24 AND 12/31, THIS BOX MAY BE COLLECTED AS EARLY AS 12 NOON.", "nsi_id": "unitedstatespostalservice-a77078", "operator": "United States Postal Service", "operator:short": "USPS", "operator:type": "public", "operator:wikidata": "Q668687", "ref": "1273700002"}, "type": "Feature"}
{"dataset_attributes": {"@spider": "usps_collection_boxes", "spider:collection_time": "2023-10-31T08:25:14.480804"}, "geometry": {"coordinates": [-74.810140178, 41.484232886], "type": "Point"}, "id": "zOaJk4s0QY0AGjFNVY2xs8eC44U=", "properties": {"@spider": "usps_collection_boxes", "addr:city": "GLEN SPEY", "addr:country": "US", "addr:full": "1677 FORESTBURGH RD", "addr:postcode": "12737", "addr:state": "NY", "amenity": "post_box", "brand": "United States Postal Service", "brand:wikidata": "Q668687", "collection_times": "Mo-Fr 17:00; Sa 12:00", "name": "USPS COLLECTION BOX - PO LOBBY", "note": "ON 12/24 AND 12/31, THIS BOX MAY BE COLLECTED AS EARLY AS 12 NOON.", "nsi_id": "unitedstatespostalservice-a77078", "operator": "United States Postal Service", "operator:short": "USPS", "operator:type": "public", "operator:wikidata": "Q668687", "ref": "1273700003"}, "type": "Feature"}
{"dataset_attributes": {"@spider": "usps_collection_boxes", "spider:collection_time": "2023-10-31T08:25:14.480804"}, "geometry": {"coordinates": [-74.587449, 41.653108], "type": "Point"}, "id": "GtobdIi_I3E9pZr576mkokl43-8=", "properties": {"@spider": "usps_collection_boxes", "addr:city": "GLEN WILD", "addr:country": "US", "addr:full": "424 GLEN WILD RD", "addr:postcode": "12738", "addr:state": "NY", "amenity": "post_box", "brand": "United States Postal Service", "brand:wikidata": "Q668687", "collection_times": "Mo-Fr 17:00; Sa 12:00", "name": "USPS COLLECTION BOX - BLUE BOX", "note": "ON 12/24 AND 12/31, THIS BOX MAY BE COLLECTED AS EARLY AS 12 NOON.", "nsi_id": "unitedstatespostalservice-a77078", "operator": "United States Postal Service", "operator:short": "USPS", "operator:type": "public", "operator:wikidata": "Q668687", "ref": "1273800001"}, "type": "Feature"}
{"dataset_attributes": {"@spider": "usps_collection_boxes", "spider:collection_time": "2023-10-31T08:25:14.480804"}, "geometry": {"coordinates": [-74.587449, 41.653108], "type": "Point"}, "id": "VhJvr5FrP9qqh3V03ahY8R0ZJJM=", "properties": {"@spider": "usps_collection_boxes", "addr:city": "GLEN WILD", "addr:country": "US", "addr:full": "424 GLEN WILD RD LBBY SLOT", "addr:postcode": "12738", "addr:state": "NY", "amenity": "post_box", "brand": "United States Postal Service", "brand:wikidata": "Q668687", "collection_times": "Mo-Fr 17:00; Sa 12:00", "name": "USPS COLLECTION BOX - PO LOBBY", "note": "ON 12/24 AND 12/31, THIS BOX MAY BE COLLECTED AS EARLY AS 12 NOON.", "nsi_id": "unitedstatespostalservice-a77078", "operator": "United States Postal Service", "operator:short": "USPS", "operator:type": "public", "operator:wikidata": "Q668687", "ref": "1273800002"}, "type": "Feature"}
{"dataset_attributes": {"@spider": "usps_collection_boxes", "spider:collection_time": "2023-10-31T08:25:14.480804"}, "geometry": {"coordinates": [-74.587489441, 41.652992106], "type": "Point"}, "id": "Tc06kDjbxbB3qQKCucDHwGpPDwk=", "properties": {"@spider": "usps_collection_boxes", "addr:city": "GLEN WILD", "addr:country": "US", "addr:full": "424 GLEN WILD RD", "addr:postcode": "12738", "addr:state": "NY", "amenity": "post_box", "brand": "United States Postal Service", "brand:wikidata": "Q668687", "collection_times": "Mo-Fr 17:00; Sa 12:00", "name": "USPS COLLECTION BOX - PO LOBBY", "note": "ON 12/24 AND 12/31, THIS BOX MAY BE COLLECTED AS EARLY AS 12 NOON.", "nsi_id": "unitedstatespostalservice-a77078", "operator": "United States Postal Service", "operator:short": "USPS", "operator:type": "public", "operator:wikidata": "Q668687", "ref": "1273800003"}, "type": "Feature"}
{"dataset_attributes": {"@spider": "usps_collection_boxes", "spider:collection_time": "2023-10-31T08:25:14.480804"}, "geometry": {"coordinates": [-74.546629, 41.846513], "type": "Point"}, "id": "3Q-SVWbduaIMhDGXmEcXKPn9veM=", "properties": {"@spider": "usps_collection_boxes", "addr:city": "GRAHAMSVILLE", "addr:country": "US", "addr:full": "215 MAIN ST", "addr:postcode": "12740", "addr:state": "NY", "amenity": "post_box", "brand": "United States Postal Service", "brand:wikidata": "Q668687", "collection_times": "Mo-Fr 17:00; Sa 12:00", "name": "USPS COLLECTION BOX - BLUE BOX", "note": "ON 12/24 AND 12/31, THIS BOX MAY BE COLLECTED AS EARLY AS 12 NOON.", "nsi_id": "unitedstatespostalservice-a77078", "operator": "United States Postal Service", "operator:short": "USPS", "operator:type": "public", "operator:wikidata": "Q668687", "ref": "1274000001"}, "type": "Feature"}
{"dataset_attributes": {"@spider": "usps_collection_boxes", "spider:collection_time": "2023-10-31T08:25:14.480804"}, "geometry": {"coordinates": [-74.546629, 41.846513], "type": "Point"}, "id": "9jF-SV7DPWLD_Iu9mTH1NBoJhBI=", "properties": {"@spider": "usps_collection_boxes", "addr:city": "GRAHAMSVILLE", "addr:country": "US", "addr:full": "215 MAIN ST LBBY SLOT", "addr:postcode": "12740", "addr:state": "NY", "amenity": "post_box", "brand": "United States Postal Service", "brand:wikidata": "Q668687", "collection_times": "Mo-Fr 17:00; Sa 12:00", "name": "USPS COLLECTION BOX - PO LOBBY", "note": "ON 12/24 AND 12/31, THIS BOX MAY BE COLLECTED AS EARLY AS 12 NOON.", "nsi_id": "unitedstatespostalservice-a77078", "operator": "United States Postal Service", "operator:short": "USPS", "operator:type": "public", "operator:wikidata": "Q668687", "ref": "1274000002"}, "type": "Feature"}
{"dataset_attributes": {"@spider": "usps_collection_boxes", "spider:collection_time": "2023-10-31T08:25:14.480804"}, "geometry": {"coordinates": [-74.546548134, 41.846480163], "type": "Point"}, "id": "hBHYpTMyxorfkOzdiRujNSzlzG0=", "properties": {"@spider": "usps_collection_boxes", "addr:city": "GRAHAMSVILLE", "addr:country": "US", "addr:full": "215 MAIN ST", "addr:postcode": "12740", "addr:state": "NY", "amenity": "post_box", "brand": "United States Postal Service", "brand:wikidata": "Q668687", "collection_times": "Mo-Fr 17:00; Sa 12:00", "name": "USPS COLLECTION BOX - PO LOBBY", "note": "ON 12/24 AND 12/31, THIS BOX MAY BE COLLECTED AS EARLY AS 12 NOON.", "nsi_id": "unitedstatespostalservice-a77078", "operator": "United States Postal Service", "operator:short": "USPS", "operator:type": "public", "operator:wikidata": "Q668687", "ref": "1274000003"}, "type": "Feature"}
{"dataset_attributes": {"@spider": "usps_collection_boxes", "spider:collection_time": "2023-10-31T08:25:14.480804"}, "geometry": {"coordinates": [-75.0887512, 41.814493], "type": "Point"}, "id": "EOmDIPMSf9KBUp4hRVrFSSETd1E=", "properties": {"@spider": "usps_collection_boxes", "addr:city": "HANKINS", "addr:country": "US", "addr:full": "10816 STATE ROUTE 97", "addr:postcode": "12741", "addr:state": "NY", "amenity": "post_box", "brand": "United States Postal Service", "brand:wikidata": "Q668687", "collection_times": "Mo-Fr 12:00; Sa 11:30", "name": "USPS COLLECTION BOX - BLUE BOX", "nsi_id": "unitedstatespostalservice-a77078", "operator": "United States Postal Service", "operator:short": "USPS", "operator:type": "public", "operator:wikidata": "Q668687", "ref": "1274100001"}, "type": "Feature"}
{"dataset_attributes": {"@spider": "usps_collection_boxes", "spider:collection_time": "2023-10-31T08:25:14.480804"}, "geometry": {"coordinates": [-75.090237, 41.814289], "type": "Point"}, "id": "Ys5mf95s4ZIY11cH7m5lcQn0GD4=", "properties": {"@spider": "usps_collection_boxes", "addr:city": "HANKINS", "addr:country": "US", "addr:full": "10816 STATE ROUTE 97 LBBY SLOT", "addr:postcode": "12741", "addr:state": "NY", "amenity": "post_box", "brand": "United States Postal Service", "brand:wikidata": "Q668687", "collection_times": "Mo-Sa 12:00", "name": "USPS COLLECTION BOX - PO LOBBY", "nsi_id": "unitedstatespostalservice-a77078", "operator": "United States Postal Service", "operator:short": "USPS", "operator:type": "public", "operator:wikidata": "Q668687", "ref": "1274100002"}, "type": "Feature"}
{"dataset_attributes": {"@spider": "usps_collection_boxes", "spider:collection_time": "2023-10-31T08:25:14.480804"}, "geometry": {"coordinates": [-75.090417969, 41.814188932], "type": "Point"}, "id": "Hgfcpog1bb9zb4eBCNNeqj82Q3E=", "properties": {"@spider": "usps_collection_boxes", "addr:city": "HANKINS", "addr:country": "US", "addr:full": "10819 STATE ROUTE 97", "addr:postcode": "12741", "addr:state": "NY", "amenity": "post_box", "brand": "United States Postal Service", "brand:wikidata": "Q668687", "collection_times": "Mo-Fr 12:00; Sa 11:00", "name": "USPS COLLECTION BOX - PO LOBBY", "nsi_id": "unitedstatespostalservice-a77078", "operator": "United States Postal Service", "operator:short": "USPS", "operator:type": "public", "operator:wikidata": "Q668687", "ref": "1274100003"}, "type": "Feature"}
{"dataset_attributes": {"@spider": "usps_collection_boxes", "spider:collection_time": "2023-10-31T08:25:14.480804"}, "geometry": {"coordinates": [-74.731059, 41.707703], "type": "Point"}, "id": "0btRYEbwfoIxf7HZH0uQ6alGKyM=", "properties": {"@spider": "usps_collection_boxes", "addr:city": "HARRIS", "addr:country": "US", "addr:full": "798 OLD ROUTE 17", "addr:postcode": "12742", "addr:state": "NY", "amenity": "post_box", "brand": "United States Postal Service", "brand:wikidata": "Q668687", "collection_times": "Mo-Fr 17:00; Sa 12:00", "name": "USPS COLLECTION BOX - BLUE BOX", "note": "ON 12/24 AND 12/31, THIS BOX MAY BE COLLECTED AS EARLY AS 12 NOON.", "nsi_id": "unitedstatespostalservice-a77078", "operator": "United States Postal Service", "operator:short": "USPS", "operator:type": "public", "operator:wikidata": "Q668687", "ref": "1274200001"}, "type": "Feature"}
{"dataset_attributes": {"@spider": "usps_collection_boxes", "spider:collection_time": "2023-10-31T08:25:14.480804"}, "geometry": {"coordinates": [-74.731059, 41.707703], "type": "Point"}, "id": "j3HJNnaorKZf_8IvgxHGdtIZW5o=", "properties": {"@spider": "usps_collection_boxes", "addr:city": "HARRIS", "addr:country": "US", "addr:full": "798 OLD ROUTE 17 LBBY SLOT", "addr:postcode": "12742", "addr:state": "NY", "amenity": "post_box", "brand": "United States Postal Service", "brand:wikidata": "Q668687", "collection_times": "Mo-Fr 17:00; Sa 12:00", "name": "USPS COLLECTION BOX - PO LOBBY", "note": "ON 12/24 AND 12/31, THIS BOX MAY BE COLLECTED AS EARLY AS 12 NOON.", "nsi_id": "unitedstatespostalservice-a77078", "operator": "United States Postal Service", "operator:short": "USPS", "operator:type": "public", "operator:wikidata": "Q668687", "ref": "1274200002"}, "type": "Feature"}
{"dataset_attributes": {"@spider": "usps_collection_boxes", "spider:collection_time": "2023-10-31T08:25:14.480804"}, "geometry": {"coordinates": [-74.73104107, 41.707671162], "type": "Point"}, "id": "8nJYmnr8C3s5acVQkF5T8Ms9TDM=", "properties": {"@spider": "usps_collection_boxes", "addr:city": "HARRIS", "addr:country": "US", "addr:full": "798 OLD ROUTE 17", "addr:postcode": "12742", "addr:state": "NY", "amenity": "post_box", "brand": "United States Postal Service", "brand:wikidata": "Q668687", "collection_times": "Mo-Fr 17:00; Sa 12:00", "name": "USPS COLLECTION BOX - PO LOBBY", "note": "ON 12/24 AND 12/31, THIS BOX MAY BE COLLECTED AS EARLY AS 12 NOON.", "nsi_id": "unitedstatespostalservice-a77078", "operator": "United States Postal Service", "operator:short": "USPS", "operator:type": "public", "operator:wikidata": "Q668687", "ref": "1274200003"}, "type": "Feature"}
{"dataset_attributes": {"@spider": "usps_collection_boxes", "spider:collection_time": "2023-10-31T08:25:14.480804"}, "geometry": {"coordinates": [-74.854011, 41.525405], "type": "Point"}, "id": "g1orhfePWDmDfMOY3kjMCYVH1L4=", "properties": {"@spider": "usps_collection_boxes", "addr:city": "HIGHLAND LAKE", "addr:country": "US", "addr:full": "112 HIGHLAND LAKE RD", "addr:postcode": "12743", "addr:state": "NY", "amenity": "post_box", "brand": "United States Postal Service", "brand:wikidata": "Q668687", "collection_times": "Mo-Fr 17:00; Sa 12:00", "name": "USPS COLLECTION BOX - BLUE BOX", "note": "ON 12/24 AND 12/31, THIS BOX MAY BE COLLECTED AS EARLY AS 12 NOON.", "nsi_id": "unitedstatespostalservice-a77078", "operator": "United States Postal Service", "operator:short": "USPS", "operator:type": "public", "operator:wikidata": "Q668687", "ref": "1274300001"}, "type": "Feature"}
{"dataset_attributes": {"@spider": "usps_collection_boxes", "spider:collection_time": "2023-10-31T08:25:14.480804"}, "geometry": {"coordinates": [-74.854011, 41.525405], "type": "Point"}, "id": "bMXWKznt7TDXuWdk4FWkA2fy5iw=", "properties": {"@spider": "usps_collection_boxes", "addr:city": "HIGHLAND LAKE", "addr:country": "US", "addr:full": "112 HIGHLAND LAKE RD LBBY SLOT", "addr:postcode": "12743", "addr:state": "NY", "amenity": "post_box", "brand": "United States Postal Service", "brand:wikidata": "Q668687", "collection_times": "Mo-Fr 17:00; Sa 12:00", "name": "USPS COLLECTION BOX - PO LOBBY", "note": "ON 12/24 AND 12/31, THIS BOX MAY BE COLLECTED AS EARLY AS 12 NOON.", "nsi_id": "unitedstatespostalservice-a77078", "operator": "United States Postal Service", "operator:short": "USPS", "operator:type": "public", "operator:wikidata": "Q668687", "ref": "1274300002"}, "type": "Feature"}
{"dataset_attributes": {"@spider": "usps_collection_boxes", "spider:collection_time": "2023-10-31T08:25:14.480804"}, "geometry": {"coordinates": [-74.854408353, 41.52549182], "type": "Point"}, "id": "RJbFSjd59c0mWNjxJhoussYCW80=", "properties": {"@spider": "usps_collection_boxes", "addr:city": "HIGHLAND LAKE", "addr:country": "US", "addr:full": "112 HIGHLAND LAKE RD", "addr:postcode": "12743", "addr:state": "NY", "amenity": "post_box", "brand": "United States Postal Service", "brand:wikidata": "Q668687", "collection_times": "Mo-Fr 17:00; Sa 12:00", "name": "USPS COLLECTION BOX - PO LOBBY", "note": "ON 12/24 AND 12/31, THIS BOX MAY BE COLLECTED AS EARLY AS 12 NOON.", "nsi_id": "unitedstatespostalservice-a77078", "operator": "United States Postal Service", "operator:short": "USPS", "operator:type": "public", "operator:wikidata": "Q668687", "ref": "1274300003"}, "type": "Feature"}
{"dataset_attributes": {"@spider": "usps_collection_boxes", "spider:collection_time": "2023-10-31T08:25:14.480804"}, "geometry": {"coordinates": [-75.0307216, 41.76474], "type": "Point"}, "id": "tdDNqlGPdZtUN0AuP4wYwbPXX8Q=", "properties": {"@spider": "usps_collection_boxes", "addr:city": "HORTONVILLE", "addr:country": "US", "addr:full": "82 MAIN ST", "addr:postcode": "12745", "addr:state": "NY", "amenity": "post_box", "brand": "United States Postal Service", "brand:wikidata": "Q668687", "collection_times": "Mo-Sa 12:00", "name": "USPS COLLECTION BOX - BLUE BOX", "nsi_id": "unitedstatespostalservice-a77078", "operator": "United States Postal Service", "operator:short": "USPS", "operator:type": "public", "operator:wikidata": "Q668687", "ref": "1274500001"}, "type": "Feature"}
{"dataset_attributes": {"@spider": "usps_collection_boxes", "spider:collection_time": "2023-10-31T08:25:14.480804"}, "geometry": {"coordinates": [-75.030586, 41.764892], "type": "Point"}, "id": "6M1EvLR1ZxTkmHDOklCnkjaoC9o=", "properties": {"@spider": "usps_collection_boxes", "addr:city": "HORTONVILLE", "addr:country": "US", "addr:full": "82 MAIN ST LBBY SLOT", "addr:postcode": "12745", "addr:state": "NY", "amenity": "post_box", "brand": "United States Postal Service", "brand:wikidata": "Q668687", "collection_times": "Mo-Sa 12:00", "name": "USPS COLLECTION BOX - PO LOBBY", "nsi_id": "unitedstatespostalservice-a77078", "operator": "United States Postal Service", "operator:short": "USPS", "operator:type": "public", "operator:wikidata": "Q668687", "ref": "1274500002"}, "type": "Feature"}
{"dataset_attributes": {"@spider": "usps_collection_boxes", "spider:collection_time": "2023-10-31T08:25:14.480804"}, "geometry": {"coordinates": [-75.030616578, 41.764782939], "type": "Point"}, "id": "tHY4qv3TT14BwdH792u2AsV6OEI=", "properties": {"@spider": "usps_collection_boxes", "addr:city": "HORTONVILLE", "addr:country": "US", "addr:full": "82 MAIN ST", "addr:postcode": "12745", "addr:state": "NY", "amenity": "post_box", "brand": "United States Postal Service", "brand:wikidata": "Q668687", "collection_times": "Mo-Sa 12:00", "name": "USPS COLLECTION BOX - PO LOBBY", "nsi_id": "unitedstatespostalservice-a77078", "operator": "United States Postal Service", "operator:short": "USPS", "operator:type": "public", "operator:wikidata": "Q668687", "ref": "1274500003"}, "type": "Feature"}
{"dataset_attributes": {"@spider": "usps_collection_boxes", "spider:collection_time": "2023-10-31T08:25:14.480804"}, "geometry": {"coordinates": [-74.630039, 41.420692], "type": "Point"}, "id": "Td-JCGE-M4eN7BSPbL0Y6KnxHcI=", "properties": {"@spider": "usps_collection_boxes", "addr:city": "HUGUENOT", "addr:country": "US", "addr:full": "435 ROUTE 209", "addr:postcode": "12746", "addr:state": "NY", "amenity": "post_box", "brand": "United States Postal Service", "brand:wikidata": "Q668687", "collection_times": "Mo-Fr 17:00; Sa 12:00", "name": "USPS COLLECTION BOX - BLUE BOX", "note": "ON 12/24 AND 12/31, THIS BOX MAY BE COLLECTED AS EARLY AS 12 NOON.", "nsi_id": "unitedstatespostalservice-a77078", "operator": "United States Postal Service", "operator:short": "USPS", "operator:type": "public", "operator:wikidata": "Q668687", "ref": "1274600001"}, "type": "Feature"}
{"dataset_attributes": {"@spider": "usps_collection_boxes", "spider:collection_time": "2023-10-31T08:25:14.480804"}, "geometry": {"coordinates": [-74.630039, 41.420692], "type": "Point"}, "id": "y-TvPqZ0LFyvLv2ckWzEE6BIWeU=", "properties": {"@spider": "usps_collection_boxes", "addr:city": "HUGUENOT", "addr:country": "US", "addr:full": "435 ROUTE 209 LBBY SLOT", "addr:postcode": "12746", "addr:state": "NY", "amenity": "post_box", "brand": "United States Postal Service", "brand:wikidata": "Q668687", "collection_times": "Mo-Fr 17:00; Sa 12:00", "name": "USPS COLLECTION BOX - PO LOBBY", "note": "ON 12/24 AND 12/31, THIS BOX MAY BE COLLECTED AS EARLY AS 12 NOON.", "nsi_id": "unitedstatespostalservice-a77078", "operator": "United States Postal Service", "operator:short": "USPS", "operator:type": "public", "operator:wikidata": "Q668687", "ref": "1274600002"}, "type": "Feature"}
{"dataset_attributes": {"@spider": "usps_collection_boxes", "spider:collection_time": "2023-10-31T08:25:14.480804"}, "geometry": {"coordinates": [-74.630072592, 41.420657446], "type": "Point"}, "id": "-ZfH6dzVgsL8jcjX_DJBud2Qvmw=", "properties": {"@spider": "usps_collection_boxes", "addr:city": "HUGUENOT", "addr:country": "US", "addr:full": "435 ROUTE 209", "addr:postcode": "12746", "addr:state": "NY", "amenity": "post_box", "brand": "United States Postal Service", "brand:wikidata": "Q668687", "collection_times": "Mo-Fr 17:00; Sa 12:00", "name": "USPS COLLECTION BOX - PO LOBBY", "note": "ON 12/24 AND 12/31, THIS BOX MAY BE COLLECTED AS EARLY AS 12 NOON.", "nsi_id": "unitedstatespostalservice-a77078", "operator": "United States Postal Service", "operator:short": "USPS", "operator:type": "public", "operator:wikidata": "Q668687", "ref": "1274600003"}, "type": "Feature"}
{"dataset_attributes": {"@spider": "usps_collection_boxes", "spider:collection_time": "2023-10-31T08:25:14.480804"}, "geometry": {"coordinates": [-74.6746874, 41.735735], "type": "Point"}, "id": "y8m_tX3vId1vRX-0QV_pgHg9qWU=", "properties": {"@spider": "usps_collection_boxes", "addr:city": "HURLEYVILLE", "addr:country": "US", "addr:full": "6 MONGAUP RD", "addr:postcode": "12747", "addr:state": "NY", "amenity": "post_box", "brand": "United States Postal Service", "brand:wikidata": "Q668687", "collection_times": "Mo-Fr 16:00; Sa 12:00", "name": "USPS COLLECTION BOX - BLUE BOX", "note": "ON 12/24 AND 12/31, THIS BOX MAY BE COLLECTED AS EARLY AS 12 NOON.", "nsi_id": "unitedstatespostalservice-a77078", "operator": "United States Postal Service", "operator:short": "USPS", "operator:type": "public", "operator:wikidata": "Q668687", "ref": "1274700001"}, "type": "Feature"}
{"dataset_attributes": {"@spider": "usps_collection_boxes", "spider:collection_time": "2023-10-31T08:25:14.480804"}, "geometry": {"coordinates": [-74.675025, 41.735644], "type": "Point"}, "id": "nm5ldNH-Va5D9DLurFJjSMiR4n4=", "properties": {"@spider": "usps_collection_boxes", "addr:city": "HURLEYVILLE", "addr:country": "US", "addr:full": "6 MONGAUP RD LBBY SLOT", "addr:postcode": "12747", "addr:state": "NY", "amenity": "post_box", "brand": "United States Postal Service", "brand:wikidata": "Q668687", "collection_times": "Mo-Fr 16:00; Sa 12:00", "name": "USPS COLLECTION BOX - PO LOBBY", "note": "ON 12/24 AND 12/31, THIS BOX MAY BE COLLECTED AS EARLY AS 12 NOON.", "nsi_id": "unitedstatespostalservice-a77078", "operator": "United States Postal Service", "operator:short": "USPS", "operator:type": "public", "operator:wikidata": "Q668687", "ref": "1274700003"}, "type": "Feature"}
{"dataset_attributes": {"@spider": "usps_collection_boxes", "spider:collection_time": "2023-10-31T08:25:14.480804"}, "geometry": {"coordinates": [-74.674991764, 41.735688268], "type": "Point"}, "id": "0tXRnqjj1_NM0tj-EkXnTFpu7Cg=", "properties": {"@spider": "usps_collection_boxes", "addr:city": "HURLEYVILLE", "addr:country": "US", "addr:full": "6 MONGAUP RD", "addr:postcode": "12747", "addr:state": "NY", "amenity": "post_box", "brand": "United States Postal Service", "brand:wikidata": "Q668687", "collection_times": "Mo-Fr 16:00; Sa 12:00", "name": "USPS COLLECTION BOX - PO LOBBY", "note": "ON 12/24 AND 12/31, THIS BOX MAY BE COLLECTED AS EARLY AS 12 NOON.", "nsi_id": "unitedstatespostalservice-a77078", "operator": "United States Postal Service", "operator:short": "USPS", "operator:type": "public", "operator:wikidata": "Q668687", "ref": "1274700004"}, "type": "Feature"}
{"dataset_attributes": {"@spider": "usps_collection_boxes", "spider:collection_time": "2023-10-31T08:25:14.480804"}, "geometry": {"coordinates": [-74.936306, 41.778573], "type": "Point"}, "id": "qXYtBRseQQPtYLt7SKv0uNpdvfw=", "properties": {"@spider": "usps_collection_boxes", "addr:city": "JEFFERSONVILLE", "addr:country": "US", "addr:full": "4915 STATE ROUTE 52", "addr:postcode": "12748", "addr:state": "NY", "amenity": "post_box", "brand": "United States Postal Service", "brand:wikidata": "Q668687", "collection_times": "Mo-Fr 17:00; Sa 12:00", "name": "USPS COLLECTION BOX - BLUE BOX", "note": "ON 12/24 AND 12/31, THIS BOX MAY BE COLLECTED AS EARLY AS 12 NOON.", "nsi_id": "unitedstatespostalservice-a77078", "operator": "United States Postal Service", "operator:short": "USPS", "operator:type": "public", "operator:wikidata": "Q668687", "ref": "1274800001"}, "type": "Feature"}
{"dataset_attributes": {"@spider": "usps_collection_boxes", "spider:collection_time": "2023-10-31T08:25:14.480804"}, "geometry": {"coordinates": [-74.936306, 41.778573], "type": "Point"}, "id": "r0EdwfSd1v99dz-1m6zDN3Mdww4=", "properties": {"@spider": "usps_collection_boxes", "addr:city": "JEFFERSONVILLE", "addr:country": "US", "addr:full": "4915 STATE ROUTE 52 LBBY SLOT", "addr:postcode": "12748", "addr:state": "NY", "amenity": "post_box", "brand": "United States Postal Service", "brand:wikidata": "Q668687", "collection_times": "Mo-Fr 17:00; Sa 12:00", "name": "USPS COLLECTION BOX - PO LOBBY", "note": "ON 12/24 AND 12/31, THIS BOX MAY BE COLLECTED AS EARLY AS 12 NOON.", "nsi_id": "unitedstatespostalservice-a77078", "operator": "United States Postal Service", "operator:short": "USPS", "operator:type": "public", "operator:wikidata": "Q668687", "ref": "1274800002"}, "type": "Feature"}
{"dataset_attributes": {"@spider": "usps_collection_boxes", "spider:collection_time": "2023-10-31T08:25:14.480804"}, "geometry": {"coordinates": [-74.936407743, 41.778454643], "type": "Point"}, "id": "yhWw6IpLUYyZFrQ9tnDNvTTQTFQ=", "properties": {"@spider": "usps_collection_boxes", "addr:city": "JEFFERSONVILLE", "addr:country": "US", "addr:full": "4915 STATE ROUTE 52", "addr:postcode": "12748", "addr:state": "NY", "amenity": "post_box", "brand": "United States Postal Service", "brand:wikidata": "Q668687", "collection_times": "Mo-Fr 17:00; Sa 12:00", "name": "USPS COLLECTION BOX - PO LOBBY", "note": "ON 12/24 AND 12/31, THIS BOX MAY BE COLLECTED AS EARLY AS 12 NOON.", "nsi_id": "unitedstatespostalservice-a77078", "operator": "United States Postal Service", "operator:short": "USPS", "operator:type": "public", "operator:wikidata": "Q668687", "ref": "1274800003"}, "type": "Feature"}
{"dataset_attributes": {"@spider": "usps_collection_boxes", "spider:collection_time": "2023-10-31T08:25:14.480804"}, "geometry": {"coordinates": [-74.831384, 41.685698], "type": "Point"}, "id": "jJHZ_jD4VA7uktTrCvHEtc5Vr0w=", "properties": {"@spider": "usps_collection_boxes", "addr:city": "KAUNEONGA LAKE", "addr:country": "US", "addr:full": "3584 STATE ROUTE 55", "addr:postcode": "12749", "addr:state": "NY", "amenity": "post_box", "brand": "United States Postal Service", "brand:wikidata": "Q668687", "collection_times": "Mo-Fr 17:00; Sa 12:00", "name": "USPS COLLECTION BOX - BLUE BOX", "note": "ON 12/24 AND 12/31, THIS BOX MAY BE COLLECTED AS EARLY AS 12 NOON.", "nsi_id": "unitedstatespostalservice-a77078", "operator": "United States Postal Service", "operator:short": "USPS", "operator:type": "public", "operator:wikidata": "Q668687", "ref": "1274900001"}, "type": "Feature"}
{"dataset_attributes": {"@spider": "usps_collection_boxes", "spider:collection_time": "2023-10-31T08:25:14.480804"}, "geometry": {"coordinates": [-74.831384, 41.685698], "type": "Point"}, "id": "5ZVMuAm-HQDiaWPk86VlA4jk6aU=", "properties": {"@spider": "usps_collection_boxes", "addr:city": "KAUNEONGA LAKE", "addr:country": "US", "addr:full": "3584 STATE ROUTE 55 LBBY SLOT", "addr:postcode": "12749", "addr:state": "NY", "amenity": "post_box", "brand": "United States Postal Service", "brand:wikidata": "Q668687", "collection_times": "Mo-Fr 17:00; Sa 12:00", "name": "USPS COLLECTION BOX - PO LOBBY", "note": "ON 12/24 AND 12/31, THIS BOX MAY BE COLLECTED AS EARLY AS 12 NOON.", "nsi_id": "unitedstatespostalservice-a77078", "operator": "United States Postal Service", "operator:short": "USPS", "operator:type": "public", "operator:wikidata": "Q668687", "ref": "1274900002"}, "type": "Feature"}
{"dataset_attributes": {"@spider": "usps_collection_boxes", "spider:collection_time": "2023-10-31T08:25:14.480804"}, "geometry": {"coordinates": [-74.83135744, 41.685818574], "type": "Point"}, "id": "ps_YXgMjKSf-nUu19E_S3Zf1p_w=", "properties": {"@spider": "usps_collection_boxes", "addr:city": "KAUNEONGA LAKE", "addr:country": "US", "addr:full": "3584 STATE ROUTE 55", "addr:postcode": "12749", "addr:state": "NY", "amenity": "post_box", "brand": "United States Postal Service", "brand:wikidata": "Q668687", "collection_times": "Mo-Fr 17:00; Sa 12:00", "name": "USPS COLLECTION BOX - PO LOBBY", "note": "ON 12/24 AND 12/31, THIS BOX MAY BE COLLECTED AS EARLY AS 12 NOON.", "nsi_id": "unitedstatespostalservice-a77078", "operator": "United States Postal Service", "operator:short": "USPS", "operator:type": "public", "operator:wikidata": "Q668687", "ref": "1274900003"}, "type": "Feature"}
{"dataset_attributes": {"@spider": "usps_collection_boxes", "spider:collection_time": "2023-10-31T08:25:14.480804"}, "geometry": {"coordinates": [-74.9491278, 41.732472], "type": "Point"}, "id": "g9hLcq4XeWh7lGHcEu6tklluQ74=", "properties": {"@spider": "usps_collection_boxes", "addr:city": "KENOZA LAKE", "addr:country": "US", "addr:full": "5691 STATE ROUTE 52", "addr:postcode": "12750", "addr:state": "NY", "amenity": "post_box", "brand": "United States Postal Service", "brand:wikidata": "Q668687", "collection_times": "Mo-Sa 12:00", "name": "USPS COLLECTION BOX - BLUE BOX", "nsi_id": "unitedstatespostalservice-a77078", "operator": "United States Postal Service", "operator:short": "USPS", "operator:type": "public", "operator:wikidata": "Q668687", "ref": "1275000001"}, "type": "Feature"}
{"dataset_attributes": {"@spider": "usps_collection_boxes", "spider:collection_time": "2023-10-31T08:25:14.480804"}, "geometry": {"coordinates": [-74.949201, 41.732945], "type": "Point"}, "id": "mxh4gahcF_KSMsXFxkRUXMVgELA=", "properties": {"@spider": "usps_collection_boxes", "addr:city": "KENOZA LAKE", "addr:country": "US", "addr:full": "5691 STATE ROUTE 52 LBBY SLOT", "addr:postcode": "12750", "addr:state": "NY", "amenity": "post_box", "brand": "United States Postal Service", "brand:wikidata": "Q668687", "collection_times": "Mo-Sa 12:00", "name": "USPS COLLECTION BOX - PO LOBBY", "nsi_id": "unitedstatespostalservice-a77078", "operator": "United States Postal Service", "operator:short": "USPS", "operator:type": "public", "operator:wikidata": "Q668687", "ref": "1275000002"}, "type": "Feature"}
{"dataset_attributes": {"@spider": "usps_collection_boxes", "spider:collection_time": "2023-10-31T08:25:14.480804"}, "geometry": {"coordinates": [-74.949201909, 41.732937672], "type": "Point"}, "id": "rJe0xhk3WR7OOTrprMFtR4Zubp4=", "properties": {"@spider": "usps_collection_boxes", "addr:city": "KENOZA LAKE", "addr:country": "US", "addr:full": "5691 STATE ROUTE 52", "addr:postcode": "12750", "addr:state": "NY", "amenity": "post_box", "brand": "United States Postal Service", "brand:wikidata": "Q668687", "collection_times": "Mo-Sa 12:00", "name": "USPS COLLECTION BOX - PO LOBBY", "nsi_id": "unitedstatespostalservice-a77078", "operator": "United States Postal Service", "operator:short": "USPS", "operator:type": "public", "operator:wikidata": "Q668687", "ref": "1275000003"}, "type": "Feature"}
{"dataset_attributes": {"@spider": "usps_collection_boxes", "spider:collection_time": "2023-10-31T08:25:14.480804"}, "geometry": {"coordinates": [-74.661665, 41.682699], "type": "Point"}, "id": "weN3bM9Z38VhffwTF5MqpoGpoIc=", "properties": {"@spider": "usps_collection_boxes", "addr:city": "KIAMESHA LAKE", "addr:country": "US", "addr:full": "4668 STATE ROUTE 42", "addr:postcode": "12751", "addr:state": "NY", "amenity": "post_box", "brand": "United States Postal Service", "brand:wikidata": "Q668687", "collection_times": "Mo-Fr 17:00; Sa 12:00", "name": "USPS COLLECTION BOX - BLUE BOX", "note": "ON 12/24 AND 12/31, THIS BOX MAY BE COLLECTED AS EARLY AS 12 NOON.", "nsi_id": "unitedstatespostalservice-a77078", "operator": "United States Postal Service", "operator:short": "USPS", "operator:type": "public", "operator:wikidata": "Q668687", "ref": "1275100001"}, "type": "Feature"}
{"dataset_attributes": {"@spider": "usps_collection_boxes", "spider:collection_time": "2023-10-31T08:25:14.480804"}, "geometry": {"coordinates": [-74.661665, 41.682699], "type": "Point"}, "id": "YY3jB1_Rt-ict6XRqf8pdVlGOcs=", "properties": {"@spider": "usps_collection_boxes", "addr:city": "KIAMESHA LAKE", "addr:country": "US", "addr:full": "4668 STATE ROUTE 42 LBBY SLOT", "addr:postcode": "12751", "addr:state": "NY", "amenity": "post_box", "brand": "United States Postal Service", "brand:wikidata": "Q668687", "collection_times": "Mo-Fr 17:00; Sa 12:00", "name": "USPS COLLECTION BOX - PO LOBBY", "note": "ON 12/24 AND 12/31, THIS BOX MAY BE COLLECTED AS EARLY AS 12 NOON.", "nsi_id": "unitedstatespostalservice-a77078", "operator": "United States Postal Service", "operator:short": "USPS", "operator:type": "public", "operator:wikidata": "Q668687", "ref": "1275100002"}, "type": "Feature"}
{"dataset_attributes": {"@spider": "usps_collection_boxes", "spider:collection_time": "2023-10-31T08:25:14.480804"}, "geometry": {"coordinates": [-74.662374731, 41.682469203], "type": "Point"}, "id": "EBRqLt1giJ2JV3X9DJmStqOh4Rc=", "properties": {"@spider": "usps_collection_boxes", "addr:city": "KIAMESHA LAKE", "addr:country": "US", "addr:full": "4668 STATE ROUTE 42", "addr:postcode": "12751", "addr:state": "NY", "amenity": "post_box", "brand": "United States Postal Service", "brand:wikidata": "Q668687", "collection_times": "Mo-Fr 17:00; Sa 12:00", "name": "USPS COLLECTION BOX - PO LOBBY", "note": "ON 12/24 AND 12/31, THIS BOX MAY BE COLLECTED AS EARLY AS 12 NOON.", "nsi_id": "unitedstatespostalservice-a77078", "operator": "United States Postal Service", "operator:short": "USPS", "operator:type": "public", "operator:wikidata": "Q668687", "ref": "1275100003"}, "type": "Feature"}
{"dataset_attributes": {"@spider": "usps_collection_boxes", "spider:collection_time": "2023-10-31T08:25:14.480804"}, "geometry": {"coordinates": [-74.9931446, 41.68022], "type": "Point"}, "id": "G7noTEe8jzb2ELG6_W5DlzR9TkU=", "properties": {"@spider": "usps_collection_boxes", "addr:city": "LAKE HUNTINGTON", "addr:country": "US", "addr:full": "6736 STATE ROUTE 52", "addr:postcode": "12752", "addr:state": "NY", "amenity": "post_box", "brand": "United States Postal Service", "brand:wikidata": "Q668687", "collection_times": "Mo-Sa 12:00", "name": "USPS COLLECTION BOX - BLUE BOX", "nsi_id": "unitedstatespostalservice-a77078", "operator": "United States Postal Service", "operator:short": "USPS", "operator:type": "public", "operator:wikidata": "Q668687", "ref": "1275200001"}, "type": "Feature"}
{"dataset_attributes": {"@spider": "usps_collection_boxes", "spider:collection_time": "2023-10-31T08:25:14.480804"}, "geometry": {"coordinates": [-74.993136, 41.680512], "type": "Point"}, "id": "dPvp7x4bv3m_pwK8u3pcUcgoMOY=", "properties": {"@spider": "usps_collection_boxes", "addr:city": "LAKE HUNTINGTON", "addr:country": "US", "addr:full": "6736 STATE ROUTE 52 LBBY SLOT", "addr:postcode": "12752", "addr:state": "NY", "amenity": "post_box", "brand": "United States Postal Service", "brand:wikidata": "Q668687", "collection_times": "Mo-Sa 12:00", "name": "USPS COLLECTION BOX - PO LOBBY", "nsi_id": "unitedstatespostalservice-a77078", "operator": "United States Postal Service", "operator:short": "USPS", "operator:type": "public", "operator:wikidata": "Q668687", "ref": "1275200002"}, "type": "Feature"}
{"dataset_attributes": {"@spider": "usps_collection_boxes", "spider:collection_time": "2023-10-31T08:25:14.480804"}, "geometry": {"coordinates": [-74.993034493, 41.680226777], "type": "Point"}, "id": "GkGFVdaCCGAu7mNBBwx7SKnV8iE=", "properties": {"@spider": "usps_collection_boxes", "addr:city": "LAKE HUNTINGTON", "addr:country": "US", "addr:full": "6736 STATE ROUTE 52", "addr:postcode": "12752", "addr:state": "NY", "amenity": "post_box", "brand": "United States Postal Service", "brand:wikidata": "Q668687", "collection_times": "Mo-Sa 12:00", "name": "USPS COLLECTION BOX - PO LOBBY", "nsi_id": "unitedstatespostalservice-a77078", "operator": "United States Postal Service", "operator:short": "USPS", "operator:type": "public", "operator:wikidata": "Q668687", "ref": "1275200004"}, "type": "Feature"}
{"dataset_attributes": {"@spider": "usps_collection_boxes", "spider:collection_time": "2023-10-31T08:25:14.480804"}, "geometry": {"coordinates": [-74.7224853, 41.783433], "type": "Point"}, "id": "-XhuHLcVvlK3Sf_sE_0VUInSGf0=", "properties": {"@spider": "usps_collection_boxes", "addr:city": "LIBERTY", "addr:country": "US", "addr:full": "56 GOLDEN PARK LN", "addr:postcode": "12754", "addr:state": "NY", "amenity": "post_box", "brand": "United States Postal Service", "brand:wikidata": "Q668687", "collection_times": "Mo-Sa 10:00", "name": "USPS COLLECTION BOX - BLUE BOX", "nsi_id": "unitedstatespostalservice-a77078", "operator": "United States Postal Service", "operator:short": "USPS", "operator:type": "public", "operator:wikidata": "Q668687", "ref": "1275400002"}, "type": "Feature"}
{"dataset_attributes": {"@spider": "usps_collection_boxes", "spider:collection_time": "2023-10-31T08:25:14.480804"}, "geometry": {"coordinates": [-74.7466431, 41.799376], "type": "Point"}, "id": "GS9f4buXrO4rKZ1e_lOjLYjPfIA=", "properties": {"@spider": "usps_collection_boxes", "addr:city": "LIBERTY", "addr:country": "US", "addr:full": "14 CHESTNUT ST", "addr:postcode": "12754", "addr:state": "NY", "amenity": "post_box", "brand": "United States Postal Service", "brand:wikidata": "Q668687", "collection_times": "Mo-Fr 17:00; Sa 14:00", "name": "USPS COLLECTION BOX - BLUE BOX", "note": "ON 12/24 AND 12/31, THIS BOX MAY BE COLLECTED AS EARLY AS 12 NOON.", "nsi_id": "unitedstatespostalservice-a77078", "operator": "United States Postal Service", "operator:short": "USPS", "operator:type": "public", "operator:wikidata": "Q668687", "ref": "1275400015"}, "type": "Feature"}
{"dataset_attributes": {"@spider": "usps_collection_boxes", "spider:collection_time": "2023-10-31T08:25:14.480804"}, "geometry": {"coordinates": [-74.7472584, 41.805251], "type": "Point"}, "id": "ceHVhzAYVebkOMz6I06LSimUTTw=", "properties": {"@spider": "usps_collection_boxes", "addr:city": "LIBERTY", "addr:country": "US", "addr:full": "311 N MAIN ST", "addr:postcode": "12754", "addr:state": "NY", "amenity": "post_box", "brand": "United States Postal Service", "brand:wikidata": "Q668687", "collection_times": "Mo-Sa 12:00", "name": "USPS COLLECTION BOX - BLUE BOX", "nsi_id": "unitedstatespostalservice-a77078", "operator": "United States Postal Service", "operator:short": "USPS", "operator:type": "public", "operator:wikidata": "Q668687", "ref": "1275400016"}, "type": "Feature"}
{"dataset_attributes": {"@spider": "usps_collection_boxes", "spider:collection_time": "2023-10-31T08:25:14.480804"}, "geometry": {"coordinates": [-74.7470271, 41.802098], "type": "Point"}, "id": "opLFQOLGcYzQ9lMOlOsSCVezvTA=", "properties": {"@spider": "usps_collection_boxes", "addr:city": "LIBERTY", "addr:country": "US", "addr:full": "167 N MAIN ST", "addr:postcode": "12754", "addr:state": "NY", "amenity": "post_box", "brand": "United States Postal Service", "brand:wikidata": "Q668687", "collection_times": "Mo-Sa 13:00", "name": "USPS COLLECTION BOX - BLUE BOX", "note": "ON 12/24 AND 12/31, THIS BOX MAY BE COLLECTED AS EARLY AS 12 NOON.", "nsi_id": "unitedstatespostalservice-a77078", "operator": "United States Postal Service", "operator:short": "USPS", "operator:type": "public", "operator:wikidata": "Q668687", "ref": "1275400017"}, "type": "Feature"}
{"dataset_attributes": {"@spider": "usps_collection_boxes", "spider:collection_time": "2023-10-31T08:25:14.480804"}, "geometry": {"coordinates": [-74.7410868, 41.796135], "type": "Point"}, "id": "hIg1bABRU9hcNCD7uGKtImFkvBs=", "properties": {"@spider": "usps_collection_boxes", "addr:city": "LIBERTY", "addr:country": "US", "addr:full": "248 S MAIN ST", "addr:postcode": "12754", "addr:state": "NY", "amenity": "post_box", "brand": "United States Postal Service", "brand:wikidata": "Q668687", "collection_times": "Mo-Sa 09:30", "name": "USPS COLLECTION BOX - BLUE BOX", "nsi_id": "unitedstatespostalservice-a77078", "operator": "United States Postal Service", "operator:short": "USPS", "operator:type": "public", "operator:wikidata": "Q668687", "ref": "1275400019"}, "type": "Feature"}
{"dataset_attributes": {"@spider": "usps_collection_boxes", "spider:collection_time": "2023-10-31T08:25:14.480804"}, "geometry": {"coordinates": [-74.7473275, 41.803446], "type": "Point"}, "id": "WF1mBeRIU8Zq8EXLb4WvKE29sDQ=", "properties": {"@spider": "usps_collection_boxes", "addr:city": "LIBERTY", "addr:country": "US", "addr:full": "261 N MAIN ST", "addr:postcode": "12754", "addr:state": "NY", "amenity": "post_box", "brand": "United States Postal Service", "brand:wikidata": "Q668687", "collection_times": "Mo-Sa 13:15", "name": "USPS COLLECTION BOX - BLUE BOX", "note": "ON 12/24 AND 12/31, THIS BOX MAY BE COLLECTED AS EARLY AS 12 NOON.", "nsi_id": "unitedstatespostalservice-a77078", "operator": "United States Postal Service", "operator:short": "USPS", "operator:type": "public", "operator:wikidata": "Q668687", "ref": "1275400024"}, "type": "Feature"}
{"dataset_attributes": {"@spider": "usps_collection_boxes", "spider:collection_time": "2023-10-31T08:25:14.480804"}, "geometry": {"coordinates": [-74.7443641, 41.799451], "type": "Point"}, "id": "uCyG5YF3R1nxR9JTseW_jIiY3rU=", "properties": {"@spider": "usps_collection_boxes", "addr:city": "LIBERTY", "addr:country": "US", "addr:full": "19 JOHN ST", "addr:postcode": "12754", "addr:state": "NY", "amenity": "post_box", "brand": "United States Postal Service", "brand:wikidata": "Q668687", "collection_times": "Mo-Sa 09:00", "name": "USPS COLLECTION BOX - BLUE BOX", "nsi_id": "unitedstatespostalservice-a77078", "operator": "United States Postal Service", "operator:short": "USPS", "operator:type": "public", "operator:wikidata": "Q668687", "ref": "1275400025"}, "type": "Feature"}
{"dataset_attributes": {"@spider": "usps_collection_boxes", "spider:collection_time": "2023-10-31T08:25:14.480804"}, "geometry": {"coordinates": [-74.7199986, 41.783175], "type": "Point"}, "id": "mmZB-d2xoiQvkSfIXr8et57iFl0=", "properties": {"@spider": "usps_collection_boxes", "addr:city": "LIBERTY", "addr:country": "US", "addr:full": "1945 STATE ROUTE 52", "addr:postcode": "12754", "addr:state": "NY", "amenity": "post_box", "brand": "United States Postal Service", "brand:wikidata": "Q668687", "collection_times": "Mo-Sa 13:00", "name": "USPS COLLECTION BOX - BLUE BOX", "note": "ON 12/24 AND 12/31, THIS BOX MAY BE COLLECTED AS EARLY AS 12 NOON.", "nsi_id": "unitedstatespostalservice-a77078", "operator": "United States Postal Service", "operator:short": "USPS", "operator:type": "public", "operator:wikidata": "Q668687", "ref": "1275400030"}, "type": "Feature"}
{"dataset_attributes": {"@spider": "usps_collection_boxes", "spider:collection_time": "2023-10-31T08:25:14.480804"}, "geometry": {"coordinates": [-74.7467419, 41.799354], "type": "Point"}, "id": "QFaku834Xv-iM1_RapKHTDzWCPM=", "properties": {"@spider": "usps_collection_boxes", "addr:city": "LIBERTY", "addr:country": "US", "addr:full": "14 CHESNUT ST ( LOBBY SLOT )", "addr:postcode": "12754", "addr:state": "NY", "amenity": "post_box", "brand": "United States Postal Service", "brand:wikidata": "Q668687", "collection_times": "Mo-Fr 17:00; Sa 14:00", "name": "USPS COLLECTION BOX - PO LOBBY", "note": "ON 12/24 AND 12/31, THIS BOX MAY BE COLLECTED AS EARLY AS 12 NOON.", "nsi_id": "unitedstatespostalservice-a77078", "operator": "United States Postal Service", "operator:short": "USPS", "operator:type": "public", "operator:wikidata": "Q668687", "ref": "1275400032"}, "type": "Feature"}
{"dataset_attributes": {"@spider": "usps_collection_boxes", "spider:collection_time": "2023-10-31T08:25:14.480804"}, "geometry": {"coordinates": [-74.74632749, 41.799370569], "type": "Point"}, "id": "UwN59sfNWdyGdRI-8yzQ7aTxDFE=", "properties": {"@spider": "usps_collection_boxes", "addr:city": "LIBERTY", "addr:country": "US", "addr:full": "14 CHESTNUT ST", "addr:postcode": "12754", "addr:state": "NY", "amenity": "post_box", "brand": "United States Postal Service", "brand:wikidata": "Q668687", "collection_times": "Mo-Fr 17:00; Sa 12:00", "name": "USPS COLLECTION BOX - PO LOBBY", "note": "ON 12/24 AND 12/31, THIS BOX MAY BE COLLECTED AS EARLY AS 12 NOON.", "nsi_id": "unitedstatespostalservice-a77078", "operator": "United States Postal Service", "operator:short": "USPS", "operator:type": "public", "operator:wikidata": "Q668687", "ref": "1275400033"}, "type": "Feature"}
{"dataset_attributes": {"@spider": "usps_collection_boxes", "spider:collection_time": "2023-10-31T08:25:14.480804"}, "geometry": {"coordinates": [-74.8260079, 41.901808], "type": "Point"}, "id": "7x9_PvC5ZskbUTaKcSiVIy_OL-Q=", "properties": {"@spider": "usps_collection_boxes", "addr:city": "LIVINGSTN MNR", "addr:country": "US", "addr:full": "23 MAIN ST", "addr:postcode": "12758", "addr:state": "NY", "amenity": "post_box", "brand": "United States Postal Service", "brand:wikidata": "Q668687", "collection_times": "Mo-Fr 17:00; Sa 12:30", "name": "USPS COLLECTION BOX - BLUE BOX", "note": "ON 12/24 AND 12/31, THIS BOX MAY BE COLLECTED AS EARLY AS 12 NOON.", "nsi_id": "unitedstatespostalservice-a77078", "operator": "United States Postal Service", "operator:short": "USPS", "operator:type": "public", "operator:wikidata": "Q668687", "ref": "1275800001"}, "type": "Feature"}
{"dataset_attributes": {"@spider": "usps_collection_boxes", "spider:collection_time": "2023-10-31T08:25:14.480804"}, "geometry": {"coordinates": [-74.825899, 41.901851], "type": "Point"}, "id": "LsMnzi50syN_LnbJ3UsSf5jJzIE=", "properties": {"@spider": "usps_collection_boxes", "addr:city": "LIVINGSTN MNR", "addr:country": "US", "addr:full": "23 MAIN ST LBBY SLOT", "addr:postcode": "12758", "addr:state": "NY", "amenity": "post_box", "brand": "United States Postal Service", "brand:wikidata": "Q668687", "collection_times": "Mo-Fr 17:00; Sa 12:30", "name": "USPS COLLECTION BOX - PO LOBBY", "note": "ON 12/24 AND 12/31, THIS BOX MAY BE COLLECTED AS EARLY AS 12 NOON.", "nsi_id": "unitedstatespostalservice-a77078", "operator": "United States Postal Service", "operator:short": "USPS", "operator:type": "public", "operator:wikidata": "Q668687", "ref": "1275800003"}, "type": "Feature"}
{"dataset_attributes": {"@spider": "usps_collection_boxes", "spider:collection_time": "2023-10-31T08:25:14.480804"}, "geometry": {"coordinates": [-74.826006136, 41.901894306], "type": "Point"}, "id": "WNO2flqqJ1ttze-vu_9v-ZauRdE=", "properties": {"@spider": "usps_collection_boxes", "addr:city": "LIVINGSTN MNR", "addr:country": "US", "addr:full": "23 MAIN ST", "addr:postcode": "12758", "addr:state": "NY", "amenity": "post_box", "brand": "United States Postal Service", "brand:wikidata": "Q668687", "collection_times": "Mo-Fr 17:00; Sa 12:00", "name": "USPS COLLECTION BOX - PO LOBBY", "note": "ON 12/24 AND 12/31, THIS BOX MAY BE COLLECTED AS EARLY AS 12 NOON.", "nsi_id": "unitedstatespostalservice-a77078", "operator": "United States Postal Service", "operator:short": "USPS", "operator:type": "public", "operator:wikidata": "Q668687", "ref": "1275800004"}, "type": "Feature"}
{"dataset_attributes": {"@spider": "usps_collection_boxes", "spider:collection_time": "2023-10-31T08:25:14.480804"}, "geometry": {"coordinates": [-74.658619, 41.76858], "type": "Point"}, "id": "b7nJWZ67M5iHz7y8R9i2rMsU9nM=", "properties": {"@spider": "usps_collection_boxes", "addr:city": "LOCH SHELDRAKE", "addr:country": "US", "addr:full": "739 LOCH SHELDRAKE HURLEYVILLE RD", "addr:postcode": "12759", "addr:state": "NY", "amenity": "post_box", "brand": "United States Postal Service", "brand:wikidata": "Q668687", "collection_times": "Mo-Fr 17:00; Sa 12:00", "name": "USPS COLLECTION BOX - BLUE BOX", "note": "ON 12/24 AND 12/31, THIS BOX MAY BE COLLECTED AS EARLY AS 12 NOON.", "nsi_id": "unitedstatespostalservice-a77078", "operator": "United States Postal Service", "operator:short": "USPS", "operator:type": "public", "operator:wikidata": "Q668687", "ref": "1275900001"}, "type": "Feature"}
{"dataset_attributes": {"@spider": "usps_collection_boxes", "spider:collection_time": "2023-10-31T08:25:14.480804"}, "geometry": {"coordinates": [-74.658619, 41.76858], "type": "Point"}, "id": "4k_BwSioIOfFKLPBD1DSrXNeAPo=", "properties": {"@spider": "usps_collection_boxes", "addr:city": "LOCH SHELDRAKE", "addr:country": "US", "addr:full": "739 LOCH SHELDRAKE HURLEYVL RD LBBY SLOT", "addr:postcode": "12759", "addr:state": "NY", "amenity": "post_box", "brand": "United States Postal Service", "brand:wikidata": "Q668687", "collection_times": "Mo-Fr 17:00; Sa 12:00", "name": "USPS COLLECTION BOX - PO LOBBY", "note": "ON 12/24 AND 12/31, THIS BOX MAY BE COLLECTED AS EARLY AS 12 NOON.", "nsi_id": "unitedstatespostalservice-a77078", "operator": "United States Postal Service", "operator:short": "USPS", "operator:type": "public", "operator:wikidata": "Q668687", "ref": "1275900004"}, "type": "Feature"}
{"dataset_attributes": {"@spider": "usps_collection_boxes", "spider:collection_time": "2023-10-31T08:25:14.480804"}, "geometry": {"coordinates": [-74.658430487, 41.768920498], "type": "Point"}, "id": "Df-lIf-xP64GoRnTItvL93arij0=", "properties": {"@spider": "usps_collection_boxes", "addr:city": "LOCH SHELDRAKE", "addr:country": "US", "addr:full": "739 LOCH SHELDRAKE HURLEYVILLE RD", "addr:postcode": "12759", "addr:state": "NY", "amenity": "post_box", "brand": "United States Postal Service", "brand:wikidata": "Q668687", "collection_times": "Mo-Fr 17:00; Sa 12:00", "name": "USPS COLLECTION BOX - PO LOBBY", "note": "ON 12/24 AND 12/31, THIS BOX MAY BE COLLECTED AS EARLY AS 12 NOON.", "nsi_id": "unitedstatespostalservice-a77078", "operator": "United States Postal Service", "operator:short": "USPS", "operator:type": "public", "operator:wikidata": "Q668687", "ref": "1275900005"}, "type": "Feature"}
{"dataset_attributes": {"@spider": "usps_collection_boxes", "spider:collection_time": "2023-10-31T08:25:14.480804"}, "geometry": {"coordinates": [-75.13227, 41.851165], "type": "Point"}, "id": "XLKQzfzjC7XqN7Fnz2362ursVm8=", "properties": {"@spider": "usps_collection_boxes", "addr:city": "LONG EDDY", "addr:country": "US", "addr:full": "13 CHESTNUT ST", "addr:postcode": "12760", "addr:state": "NY", "amenity": "post_box", "brand": "United States Postal Service", "brand:wikidata": "Q668687", "collection_times": "Mo-Fr 17:00; Sa 11:00", "name": "USPS COLLECTION BOX - BLUE BOX", "note": "ON 12/24 AND 12/31, THIS BOX MAY BE COLLECTED AS EARLY AS 12 NOON.", "nsi_id": "unitedstatespostalservice-a77078", "operator": "United States Postal Service", "operator:short": "USPS", "operator:type": "public", "operator:wikidata": "Q668687", "ref": "1276000001"}, "type": "Feature"}
{"dataset_attributes": {"@spider": "usps_collection_boxes", "spider:collection_time": "2023-10-31T08:25:14.480804"}, "geometry": {"coordinates": [-75.132521, 41.851334], "type": "Point"}, "id": "e668j9IMfkiLPkEynYTjWVPK3tM=", "properties": {"@spider": "usps_collection_boxes", "addr:city": "LONG EDDY", "addr:country": "US", "addr:full": "13 CHESNUT ST ( LOBBY SLOT )", "addr:postcode": "12760", "addr:state": "NY", "amenity": "post_box", "brand": "United States Postal Service", "brand:wikidata": "Q668687", "collection_times": "Mo-Fr 17:00; Sa 11:00", "name": "USPS COLLECTION BOX - PO LOBBY", "note": "ON 12/24 AND 12/31, THIS BOX MAY BE COLLECTED AS EARLY AS 12 NOON.", "nsi_id": "unitedstatespostalservice-a77078", "operator": "United States Postal Service", "operator:short": "USPS", "operator:type": "public", "operator:wikidata": "Q668687", "ref": "1276000002"}, "type": "Feature"}
{"dataset_attributes": {"@spider": "usps_collection_boxes", "spider:collection_time": "2023-10-31T08:25:14.480804"}, "geometry": {"coordinates": [-75.132554972, 41.851344143], "type": "Point"}, "id": "InnDnIUjYnuDn4WO5ilnN3CspF4=", "properties": {"@spider": "usps_collection_boxes", "addr:city": "LONG EDDY", "addr:country": "US", "addr:full": "13 CHESTNUT ST", "addr:postcode": "12760", "addr:state": "NY", "amenity": "post_box", "brand": "United States Postal Service", "brand:wikidata": "Q668687", "collection_times": "Mo-Fr 17:00; Sa 11:30", "name": "USPS COLLECTION BOX - PO LOBBY", "note": "ON 12/24 AND 12/31, THIS BOX MAY BE COLLECTED AS EARLY AS 12 NOON.", "nsi_id": "unitedstatespostalservice-a77078", "operator": "United States Postal Service", "operator:short": "USPS", "operator:type": "public", "operator:wikidata": "Q668687", "ref": "1276000003"}, "type": "Feature"}
{"dataset_attributes": {"@spider": "usps_collection_boxes", "spider:collection_time": "2023-10-31T08:25:14.480804"}, "geometry": {"coordinates": [-74.783095, 41.667326], "type": "Point"}, "id": "aTHtF3_fpXNYAVH2tyJrQehI-qY=", "properties": {"@spider": "usps_collection_boxes", "addr:city": "MONGAUP VALLEY", "addr:country": "US", "addr:full": "933 STATE ROUTE 17B", "addr:postcode": "12762", "addr:state": "NY", "amenity": "post_box", "brand": "United States Postal Service", "brand:wikidata": "Q668687", "collection_times": "Mo-Fr 17:00; Sa 12:00", "name": "USPS COLLECTION BOX - BLUE BOX", "note": "ON 12/24 AND 12/31, THIS BOX MAY BE COLLECTED AS EARLY AS 12 NOON.", "nsi_id": "unitedstatespostalservice-a77078", "operator": "United States Postal Service", "operator:short": "USPS", "operator:type": "public", "operator:wikidata": "Q668687", "ref": "1276200001"}, "type": "Feature"}
{"dataset_attributes": {"@spider": "usps_collection_boxes", "spider:collection_time": "2023-10-31T08:25:14.480804"}, "geometry": {"coordinates": [-74.783095, 41.667326], "type": "Point"}, "id": "IKazt1UGiu__c9eN_90ciK4OABs=", "properties": {"@spider": "usps_collection_boxes", "addr:city": "MONGAUP VALLEY", "addr:country": "US", "addr:full": "933 STATE ROUTE 17B LBBY SLOT", "addr:postcode": "12762", "addr:state": "NY", "amenity": "post_box", "brand": "United States Postal Service", "brand:wikidata": "Q668687", "collection_times": "Mo-Fr 17:00; Sa 12:00", "name": "USPS COLLECTION BOX - PO LOBBY", "note": "ON 12/24 AND 12/31, THIS BOX MAY BE COLLECTED AS EARLY AS 12 NOON.", "nsi_id": "unitedstatespostalservice-a77078", "operator": "United States Postal Service", "operator:short": "USPS", "operator:type": "public", "operator:wikidata": "Q668687", "ref": "1276200002"}, "type": "Feature"}
{"dataset_attributes": {"@spider": "usps_collection_boxes", "spider:collection_time": "2023-10-31T08:25:14.480804"}, "geometry": {"coordinates": [-74.783087819, 41.667263839], "type": "Point"}, "id": "jWzJom3zdhNkzVi0HXEOCA__LCo=", "properties": {"@spider": "usps_collection_boxes", "addr:city": "MONGAUP VALLEY", "addr:country": "US", "addr:full": "933 STATE ROUTE 17B", "addr:postcode": "12762", "addr:state": "NY", "amenity": "post_box", "brand": "United States Postal Service", "brand:wikidata": "Q668687", "collection_times": "Mo-Fr 17:00; Sa 12:00", "name": "USPS COLLECTION BOX - PO LOBBY", "note": "ON 12/24 AND 12/31, THIS BOX MAY BE COLLECTED AS EARLY AS 12 NOON.", "nsi_id": "unitedstatespostalservice-a77078", "operator": "United States Postal Service", "operator:short": "USPS", "operator:type": "public", "operator:wikidata": "Q668687", "ref": "1276200003"}, "type": "Feature"}
{"dataset_attributes": {"@spider": "usps_collection_boxes", "spider:collection_time": "2023-10-31T08:25:14.480804"}, "geometry": {"coordinates": [-74.530655, 41.690016], "type": "Point"}, "id": "8eWMh8otZYBqhT7O4rKstXU9VpY=", "properties": {"@spider": "usps_collection_boxes", "addr:city": "MOUNTAIN DALE", "addr:country": "US", "addr:full": "12 POST HILL RD", "addr:postcode": "12763", "addr:state": "NY", "amenity": "post_box", "brand": "United States Postal Service", "brand:wikidata": "Q668687", "collection_times": "Mo-Fr 17:00; Sa 11:00", "name": "USPS COLLECTION BOX - BLUE BOX", "note": "ON 12/24 AND 12/31, THIS BOX MAY BE COLLECTED AS EARLY AS 12 NOON.", "nsi_id": "unitedstatespostalservice-a77078", "operator": "United States Postal Service", "operator:short": "USPS", "operator:type": "public", "operator:wikidata": "Q668687", "ref": "1276300001"}, "type": "Feature"}
{"dataset_attributes": {"@spider": "usps_collection_boxes", "spider:collection_time": "2023-10-31T08:25:14.480804"}, "geometry": {"coordinates": [-74.530655, 41.690016], "type": "Point"}, "id": "x_Hmtaci-DqSuT9BhqVL7BQ5AOw=", "properties": {"@spider": "usps_collection_boxes", "addr:city": "MOUNTAIN DALE", "addr:country": "US", "addr:full": "12 POST HILL RD LBBY SLOT", "addr:postcode": "12763", "addr:state": "NY", "amenity": "post_box", "brand": "United States Postal Service", "brand:wikidata": "Q668687", "collection_times": "Mo-Fr 17:00; Sa 11:00", "name": "USPS COLLECTION BOX - PO LOBBY", "note": "ON 12/24 AND 12/31, THIS BOX MAY BE COLLECTED AS EARLY AS 12 NOON.", "nsi_id": "unitedstatespostalservice-a77078", "operator": "United States Postal Service", "operator:short": "USPS", "operator:type": "public", "operator:wikidata": "Q668687", "ref": "1276300002"}, "type": "Feature"}
{"dataset_attributes": {"@spider": "usps_collection_boxes", "spider:collection_time": "2023-10-31T08:25:14.480804"}, "geometry": {"coordinates": [-74.530802709, 41.689873299], "type": "Point"}, "id": "_vQUGclv9_pr-YbHemkX3jBX9ME=", "properties": {"@spider": "usps_collection_boxes", "addr:city": "MOUNTAIN DALE", "addr:country": "US", "addr:full": "12 POST HILL RD", "addr:postcode": "12763", "addr:state": "NY", "amenity": "post_box", "brand": "United States Postal Service", "brand:wikidata": "Q668687", "collection_times": "Mo-Fr 17:00; Sa 11:00", "name": "USPS COLLECTION BOX - PO LOBBY", "note": "ON 12/24 AND 12/31, THIS BOX MAY BE COLLECTED AS EARLY AS 12 NOON.", "nsi_id": "unitedstatespostalservice-a77078", "operator": "United States Postal Service", "operator:short": "USPS", "operator:type": "public", "operator:wikidata": "Q668687", "ref": "1276300003"}, "type": "Feature"}
{"dataset_attributes": {"@spider": "usps_collection_boxes", "spider:collection_time": "2023-10-31T08:25:14.480804"}, "geometry": {"coordinates": [-75.061374, 41.607844], "type": "Point"}, "id": "81FmGyTZP_HcPZbWieZcveiVW1U=", "properties": {"@spider": "usps_collection_boxes", "addr:city": "NARROWSBURG", "addr:country": "US", "addr:full": "75 MAIN ST", "addr:postcode": "12764", "addr:state": "NY", "amenity": "post_box", "brand": "United States Postal Service", "brand:wikidata": "Q668687", "collection_times": "Mo-Fr 17:00; Sa 12:00", "name": "USPS COLLECTION BOX - BLUE BOX", "note": "ON 12/24 AND 12/31, THIS BOX MAY BE COLLECTED AS EARLY AS 12 NOON.", "nsi_id": "unitedstatespostalservice-a77078", "operator": "United States Postal Service", "operator:short": "USPS", "operator:type": "public", "operator:wikidata": "Q668687", "ref": "1276400001"}, "type": "Feature"}
{"dataset_attributes": {"@spider": "usps_collection_boxes", "spider:collection_time": "2023-10-31T08:25:14.480804"}, "geometry": {"coordinates": [-75.061374, 41.607844], "type": "Point"}, "id": "wSUgQzqE_9xV0BMGzHjikYlTi0w=", "properties": {"@spider": "usps_collection_boxes", "addr:city": "NARROWSBURG", "addr:country": "US", "addr:full": "75 MAIN ST LBBY SLOT", "addr:postcode": "12764", "addr:state": "NY", "amenity": "post_box", "brand": "United States Postal Service", "brand:wikidata": "Q668687", "collection_times": "Mo-Fr 17:00; Sa 12:00", "name": "USPS COLLECTION BOX - PO LOBBY", "note": "ON 12/24 AND 12/31, THIS BOX MAY BE COLLECTED AS EARLY AS 12 NOON.", "nsi_id": "unitedstatespostalservice-a77078", "operator": "United States Postal Service", "operator:short": "USPS", "operator:type": "public", "operator:wikidata": "Q668687", "ref": "1276400005"}, "type": "Feature"}
{"dataset_attributes": {"@spider": "usps_collection_boxes", "spider:collection_time": "2023-10-31T08:25:14.480804"}, "geometry": {"coordinates": [-75.061289469, 41.608125639], "type": "Point"}, "id": "QK5ai7rACP-ys98BMm_mj7gS1Iw=", "properties": {"@spider": "usps_collection_boxes", "addr:city": "NARROWSBURG", "addr:country": "US", "addr:full": "75 MAIN ST", "addr:postcode": "12764", "addr:state": "NY", "amenity": "post_box", "brand": "United States Postal Service", "brand:wikidata": "Q668687", "collection_times": "Mo-Fr 17:00; Sa 12:00", "name": "USPS COLLECTION BOX - PO LOBBY", "note": "ON 12/24 AND 12/31, THIS BOX MAY BE COLLECTED AS EARLY AS 12 NOON.", "nsi_id": "unitedstatespostalservice-a77078", "operator": "United States Postal Service", "operator:short": "USPS", "operator:type": "public", "operator:wikidata": "Q668687", "ref": "1276400006"}, "type": "Feature"}
{"dataset_attributes": {"@spider": "usps_collection_boxes", "spider:collection_time": "2023-10-31T08:25:14.480804"}, "geometry": {"coordinates": [-74.6229183, 41.845386], "type": "Point"}, "id": "1GMLfDd4LFY-fy4yUObro7nb29E=", "properties": {"@spider": "usps_collection_boxes", "addr:city": "NEVERSINK", "addr:country": "US", "addr:full": "7420 STATE ROUTE 55", "addr:postcode": "12765", "addr:state": "NY", "amenity": "post_box", "brand": "United States Postal Service", "brand:wikidata": "Q668687", "collection_times": "Mo-Fr 15:30; Sa 12:00", "name": "USPS COLLECTION BOX - BLUE BOX", "note": "ON 12/24 AND 12/31, THIS BOX MAY BE COLLECTED AS EARLY AS 12 NOON.", "nsi_id": "unitedstatespostalservice-a77078", "operator": "United States Postal Service", "operator:short": "USPS", "operator:type": "public", "operator:wikidata": "Q668687", "ref": "1276500001"}, "type": "Feature"}
{"dataset_attributes": {"@spider": "usps_collection_boxes", "spider:collection_time": "2023-10-31T08:25:14.480804"}, "geometry": {"coordinates": [-74.62321, 41.845455], "type": "Point"}, "id": "J4qZriLM-t6mTaBbbFLUGS85D9w=", "properties": {"@spider": "usps_collection_boxes", "addr:city": "NEVERSINK", "addr:country": "US", "addr:full": "7420 STATE ROUTE 55 LBBY SLOT", "addr:postcode": "12765", "addr:state": "NY", "amenity": "post_box", "brand": "United States Postal Service", "brand:wikidata": "Q668687", "collection_times": "Mo-Fr 15:30; Sa 12:00", "name": "USPS COLLECTION BOX - PO LOBBY", "note": "ON 12/24 AND 12/31, THIS BOX MAY BE COLLECTED AS EARLY AS 12 NOON.", "nsi_id": "unitedstatespostalservice-a77078", "operator": "United States Postal Service", "operator:short": "USPS", "operator:type": "public", "operator:wikidata": "Q668687", "ref": "1276500002"}, "type": "Feature"}
{"dataset_attributes": {"@spider": "usps_collection_boxes", "spider:collection_time": "2023-10-31T08:25:14.480804"}, "geometry": {"coordinates": [-74.62320911, 41.845445709], "type": "Point"}, "id": "zBdIQl4AlAnIjDadoKl-XBgqvhI=", "properties": {"@spider": "usps_collection_boxes", "addr:city": "NEVERSINK", "addr:country": "US", "addr:full": "7420 STATE ROUTE 55", "addr:postcode": "12765", "addr:state": "NY", "amenity": "post_box", "brand": "United States Postal Service", "brand:wikidata": "Q668687", "collection_times": "Mo-Fr 15:30; Sa 12:00", "name": "USPS COLLECTION BOX - PO LOBBY", "note": "ON 12/24 AND 12/31, THIS BOX MAY BE COLLECTED AS EARLY AS 12 NOON.", "nsi_id": "unitedstatespostalservice-a77078", "operator": "United States Postal Service", "operator:short": "USPS", "operator:type": "public", "operator:wikidata": "Q668687", "ref": "1276500003"}, "type": "Feature"}
{"dataset_attributes": {"@spider": "usps_collection_boxes", "spider:collection_time": "2023-10-31T08:25:14.480804"}, "geometry": {"coordinates": [-74.961015964, 41.812441039], "type": "Point"}, "id": "sS8psIeUZ1iWHgcWTYDje5Ou-is=", "properties": {"@spider": "usps_collection_boxes", "addr:city": "NORTH BRANCH", "addr:country": "US", "addr:full": "60 NORTH BRANCH CALLICOON CENTER ROAD N", "addr:postcode": "12766", "addr:state": "NY", "amenity": "post_box", "brand": "United States Postal Service", "brand:wikidata": "Q668687", "collection_times": "Mo-Sa 12:00", "name": "USPS COLLECTION BOX - BLUE BOX", "nsi_id": "unitedstatespostalservice-a77078", "operator": "United States Postal Service", "operator:short": "USPS", "operator:type": "public", "operator:wikidata": "Q668687", "ref": "1276600001"}, "type": "Feature"}
{"dataset_attributes": {"@spider": "usps_collection_boxes", "spider:collection_time": "2023-10-31T08:25:14.480804"}, "geometry": {"coordinates": [-74.986593572, 41.8049764874], "type": "Point"}, "id": "T9hqxAiPSBHhzjuf4jBgT-6QTwc=", "properties": {"@spider": "usps_collection_boxes", "addr:city": "NORTH BRANCH", "addr:country": "US", "addr:full": "60 N BRANCH CALLICOON CTR RD", "addr:postcode": "12766", "addr:state": "NY", "amenity": "post_box", "brand": "United States Postal Service", "brand:wikidata": "Q668687", "collection_times": "Mo-Sa 12:00", "name": "USPS COLLECTION BOX - PO LOBBY", "nsi_id": "unitedstatespostalservice-a77078", "operator": "United States Postal Service", "operator:short": "USPS", "operator:type": "public", "operator:wikidata": "Q668687", "ref": "1276600003"}, "type": "Feature"}
{"dataset_attributes": {"@spider": "usps_collection_boxes", "spider:collection_time": "2023-10-31T08:25:14.480804"}, "geometry": {"coordinates": [-74.986593572, 41.8049764874], "type": "Point"}, "id": "OBi72KPYg1NzuhDsLGwVDhKG-7Y=", "properties": {"@spider": "usps_collection_boxes", "addr:city": "NORTH BRANCH", "addr:country": "US", "addr:full": "60 N BRANCH CALLICOON CTR RD", "addr:postcode": "12766", "addr:state": "NY", "amenity": "post_box", "brand": "United States Postal Service", "brand:wikidata": "Q668687", "collection_times": "Mo-Sa 12:00", "name": "USPS COLLECTION BOX - PO LOBBY", "nsi_id": "unitedstatespostalservice-a77078", "operator": "United States Postal Service", "operator:short": "USPS", "operator:type": "public", "operator:wikidata": "Q668687", "ref": "1276600004"}, "type": "Feature"}
{"dataset_attributes": {"@spider": "usps_collection_boxes", "spider:collection_time": "2023-10-31T08:25:14.480804"}, "geometry": {"coordinates": [-75.008506, 41.845079], "type": "Point"}, "id": "-2cqdKMfvMSBtnNnl8t-wINj_Kg=", "properties": {"@spider": "usps_collection_boxes", "addr:city": "OBERNBURG", "addr:country": "US", "addr:full": "361 COUNTY ROAD 95 LBBY SLOT", "addr:postcode": "12767", "addr:state": "NY", "amenity": "post_box", "brand": "United States Postal Service", "brand:wikidata": "Q668687", "collection_times": "Mo-Sa 12:00", "name": "USPS COLLECTION BOX - PO LOBBY", "nsi_id": "unitedstatespostalservice-a77078", "operator": "United States Postal Service", "operator:short": "USPS", "operator:type": "public", "operator:wikidata": "Q668687", "ref": "1276700002"}, "type": "Feature"}
{"dataset_attributes": {"@spider": "usps_collection_boxes", "spider:collection_time": "2023-10-31T08:25:14.480804"}, "geometry": {"coordinates": [-75.008781182, 41.845143952], "type": "Point"}, "id": "vnK9jPj1BmIGPiVOlHrI9jWcrCA=", "properties": {"@spider": "usps_collection_boxes", "addr:city": "OBERNBURG", "addr:country": "US", "addr:full": "361 COUNTY ROAD 95", "addr:postcode": "12767", "addr:state": "NY", "amenity": "post_box", "brand": "United States Postal Service", "brand:wikidata": "Q668687", "collection_times": "Mo-Fr 12:30; Sa 12:00", "name": "USPS COLLECTION BOX - PO LOBBY", "note": "ON 12/24 AND 12/31, THIS BOX MAY BE COLLECTED AS EARLY AS 12 NOON.", "nsi_id": "unitedstatespostalservice-a77078", "operator": "United States Postal Service", "operator:short": "USPS", "operator:type": "public", "operator:wikidata": "Q668687", "ref": "1276700003"}, "type": "Feature"}
{"dataset_attributes": {"@spider": "usps_collection_boxes", "spider:collection_time": "2023-10-31T08:25:14.480804"}, "geometry": {"coordinates": [-75.008779611, 41.845161858], "type": "Point"}, "id": "LlrdagF_UPI5xm4CpJ3VVrlDc2U=", "properties": {"@spider": "usps_collection_boxes", "addr:city": "OBERNBURG", "addr:country": "US", "addr:full": "361 COUNTY ROAD 95", "addr:postcode": "12767", "addr:state": "NY", "amenity": "post_box", "brand": "United States Postal Service", "brand:wikidata": "Q668687", "collection_times": "Mo-Fr 12:30; Sa 12:00", "name": "USPS COLLECTION BOX - BLUE BOX", "note": "ON 12/24 AND 12/31, THIS BOX MAY BE COLLECTED AS EARLY AS 12 NOON.", "nsi_id": "unitedstatespostalservice-a77078", "operator": "United States Postal Service", "operator:short": "USPS", "operator:type": "public", "operator:wikidata": "Q668687", "ref": "1276700004"}, "type": "Feature"}
{"dataset_attributes": {"@spider": "usps_collection_boxes", "spider:collection_time": "2023-10-31T08:25:14.480804"}, "geometry": {"coordinates": [-74.757374, 41.85703], "type": "Point"}, "id": "0MBzqI9N-UXvN6qSESjp2afUSGs=", "properties": {"@spider": "usps_collection_boxes", "addr:city": "PARKSVILLE", "addr:country": "US", "addr:full": "12 COOLEY RD", "addr:postcode": "12768", "addr:state": "NY", "amenity": "post_box", "brand": "United States Postal Service", "brand:wikidata": "Q668687", "collection_times": "Mo-Fr 17:00; Sa 12:00", "name": "USPS COLLECTION BOX - BLUE BOX", "note": "ON 12/24 AND 12/31, THIS BOX MAY BE COLLECTED AS EARLY AS 12 NOON.", "nsi_id": "unitedstatespostalservice-a77078", "operator": "United States Postal Service", "operator:short": "USPS", "operator:type": "public", "operator:wikidata": "Q668687", "ref": "1276800001"}, "type": "Feature"}
{"dataset_attributes": {"@spider": "usps_collection_boxes", "spider:collection_time": "2023-10-31T08:25:14.480804"}, "geometry": {"coordinates": [-74.757374, 41.85703], "type": "Point"}, "id": "t-lMEp-iTr8Z1RqCN60j6YPUunE=", "properties": {"@spider": "usps_collection_boxes", "addr:city": "PARKSVILLE", "addr:country": "US", "addr:full": "12 COOLEY RD LBBY SLOT", "addr:postcode": "12768", "addr:state": "NY", "amenity": "post_box", "brand": "United States Postal Service", "brand:wikidata": "Q668687", "collection_times": "Mo-Fr 17:00; Sa 12:00", "name": "USPS COLLECTION BOX - PO LOBBY", "note": "ON 12/24 AND 12/31, THIS BOX MAY BE COLLECTED AS EARLY AS 12 NOON.", "nsi_id": "unitedstatespostalservice-a77078", "operator": "United States Postal Service", "operator:short": "USPS", "operator:type": "public", "operator:wikidata": "Q668687", "ref": "1276800005"}, "type": "Feature"}
{"dataset_attributes": {"@spider": "usps_collection_boxes", "spider:collection_time": "2023-10-31T08:25:14.480804"}, "geometry": {"coordinates": [-74.757374526, 41.857025481], "type": "Point"}, "id": "7s6nl7lLS7nwg9pf0aiMUxndV8s=", "properties": {"@spider": "usps_collection_boxes", "addr:city": "PARKSVILLE", "addr:country": "US", "addr:full": "12 COOLEY RD", "addr:postcode": "12768", "addr:state": "NY", "amenity": "post_box", "brand": "United States Postal Service", "brand:wikidata": "Q668687", "collection_times": "Mo-Fr 17:00; Sa 13:00", "name": "USPS COLLECTION BOX - PO LOBBY", "note": "ON 12/24 AND 12/31, THIS BOX MAY BE COLLECTED AS EARLY AS 12 NOON.", "nsi_id": "unitedstatespostalservice-a77078", "operator": "United States Postal Service", "operator:short": "USPS", "operator:type": "public", "operator:wikidata": "Q668687", "ref": "1276800006"}, "type": "Feature"}
{"dataset_attributes": {"@spider": "usps_collection_boxes", "spider:collection_time": "2023-10-31T08:25:14.480804"}, "geometry": {"coordinates": [-74.447331, 41.63958], "type": "Point"}, "id": "shZ5MfayjpaZZFHsZFBQDwPwEug=", "properties": {"@spider": "usps_collection_boxes", "addr:city": "PHILLIPSPORT", "addr:country": "US", "addr:full": "17 PHILLIPSPORT RD", "addr:postcode": "12769", "addr:state": "NY", "amenity": "post_box", "brand": "United States Postal Service", "brand:wikidata": "Q668687", "collection_times": "Mo-Sa 12:00", "name": "USPS COLLECTION BOX - BLUE BOX", "nsi_id": "unitedstatespostalservice-a77078", "operator": "United States Postal Service", "operator:short": "USPS", "operator:type": "public", "operator:wikidata": "Q668687", "ref": "1276900001"}, "type": "Feature"}
{"dataset_attributes": {"@spider": "usps_collection_boxes", "spider:collection_time": "2023-10-31T08:25:14.480804"}, "geometry": {"coordinates": [-74.447331, 41.63958], "type": "Point"}, "id": "XYVwiMppBOK5rQFKnOiw_vFCJm0=", "properties": {"@spider": "usps_collection_boxes", "addr:city": "PHILLIPSPORT", "addr:country": "US", "addr:full": "17 PHILLIPSPORT RD LBBY SLOT", "addr:postcode": "12769", "addr:state": "NY", "amenity": "post_box", "brand": "United States Postal Service", "brand:wikidata": "Q668687", "collection_times": "Mo-Sa 12:00", "name": "USPS COLLECTION BOX - PO LOBBY", "nsi_id": "unitedstatespostalservice-a77078", "operator": "United States Postal Service", "operator:short": "USPS", "operator:type": "public", "operator:wikidata": "Q668687", "ref": "1276900002"}, "type": "Feature"}
{"dataset_attributes": {"@spider": "usps_collection_boxes", "spider:collection_time": "2023-10-31T08:25:14.480804"}, "geometry": {"coordinates": [-74.447140121, 41.63986933], "type": "Point"}, "id": "WkdlG7BoA7vVIQ5A2EV9oL7vEq0=", "properties": {"@spider": "usps_collection_boxes", "addr:city": "PHILLIPSPORT", "addr:country": "US", "addr:full": "17 PHILLIPSPORT RD", "addr:postcode": "12769", "addr:state": "NY", "amenity": "post_box", "brand": "United States Postal Service", "brand:wikidata": "Q668687", "collection_times": "Mo-Sa 12:00", "name": "USPS COLLECTION BOX - PO LOBBY", "nsi_id": "unitedstatespostalservice-a77078", "operator": "United States Postal Service", "operator:short": "USPS", "operator:type": "public", "operator:wikidata": "Q668687", "ref": "1276900003"}, "type": "Feature"}
{"dataset_attributes": {"@spider": "usps_collection_boxes", "spider:collection_time": "2023-10-31T08:25:14.480804"}, "geometry": {"coordinates": [-74.822281, 41.443348], "type": "Point"}, "id": "zdQn-H3ecMyf6Ex4k6T6fX50-K8=", "properties": {"@spider": "usps_collection_boxes", "addr:city": "POND EDDY", "addr:country": "US", "addr:full": "43 HOLLOW RD", "addr:postcode": "12770", "addr:state": "NY", "amenity": "post_box", "brand": "United States Postal Service", "brand:wikidata": "Q668687", "collection_times": "Mo-Sa 12:00", "name": "USPS COLLECTION BOX - BLUE BOX", "nsi_id": "unitedstatespostalservice-a77078", "operator": "United States Postal Service", "operator:short": "USPS", "operator:type": "public", "operator:wikidata": "Q668687", "ref": "1277000001"}, "type": "Feature"}
{"dataset_attributes": {"@spider": "usps_collection_boxes", "spider:collection_time": "2023-10-31T08:25:14.480804"}, "geometry": {"coordinates": [-74.822007499, 41.442434801], "type": "Point"}, "id": "GnhVsQJbGuM9NrysbWeH6hOWpyU=", "properties": {"@spider": "usps_collection_boxes", "addr:city": "POND EDDY", "addr:country": "US", "addr:full": "43 HOLLOW RD LBBY SLOT", "addr:postcode": "12770", "addr:state": "NY", "amenity": "post_box", "brand": "United States Postal Service", "brand:wikidata": "Q668687", "collection_times": "Mo-Fr 12:00; Sa 13:00", "name": "USPS COLLECTION BOX - PO LOBBY", "note": "ON 12/24 AND 12/31, THIS BOX MAY BE COLLECTED AS EARLY AS 12 NOON.", "nsi_id": "unitedstatespostalservice-a77078", "operator": "United States Postal Service", "operator:short": "USPS", "operator:type": "public", "operator:wikidata": "Q668687", "ref": "1277000002"}, "type": "Feature"}
{"dataset_attributes": {"@spider": "usps_collection_boxes", "spider:collection_time": "2023-10-31T08:25:14.480804"}, "geometry": {"coordinates": [-74.822007499, 41.442434801], "type": "Point"}, "id": "CjquP3sAELKtakH4sFUohYNsRjc=", "properties": {"@spider": "usps_collection_boxes", "addr:city": "POND EDDY", "addr:country": "US", "addr:full": "43 HOLLOW RD", "addr:postcode": "12770", "addr:state": "NY", "amenity": "post_box", "brand": "United States Postal Service", "brand:wikidata": "Q668687", "collection_times": "Mo-Fr 12:00; Sa 13:00", "name": "USPS COLLECTION BOX - PO LOBBY", "note": "ON 12/24 AND 12/31, THIS BOX MAY BE COLLECTED AS EARLY AS 12 NOON.", "nsi_id": "unitedstatespostalservice-a77078", "operator": "United States Postal Service", "operator:short": "USPS", "operator:type": "public", "operator:wikidata": "Q668687", "ref": "1277000003"}, "type": "Feature"}
{"dataset_attributes": {"@spider": "usps_collection_boxes", "spider:collection_time": "2023-10-31T08:25:14.480804"}, "geometry": {"coordinates": [-74.6918566, 41.37494], "type": "Point"}, "id": "dlZXbfBsE1B34mS5FUF8eUCUiPA=", "properties": {"@spider": "usps_collection_boxes", "addr:city": "PORT JERVIS", "addr:country": "US", "addr:full": "20 SUSSEX ST", "addr:postcode": "12771", "addr:state": "NY", "amenity": "post_box", "brand": "United States Postal Service", "brand:wikidata": "Q668687", "collection_times": "Mo-Fr 17:00; Sa 15:30", "name": "USPS COLLECTION BOX - BLUE BOX", "note": "ON 12/24 AND 12/31, THIS BOX MAY BE COLLECTED AS EARLY AS 12 NOON.", "nsi_id": "unitedstatespostalservice-a77078", "operator": "United States Postal Service", "operator:short": "USPS", "operator:type": "public", "operator:wikidata": "Q668687", "ref": "1277100001"}, "type": "Feature"}
{"dataset_attributes": {"@spider": "usps_collection_boxes", "spider:collection_time": "2023-10-31T08:25:14.480804"}, "geometry": {"coordinates": [-74.6914433, 41.372965], "type": "Point"}, "id": "rKAa6_AL_F5qOskQ-GUVA9pJY8I=", "properties": {"@spider": "usps_collection_boxes", "addr:city": "PORT JERVIS", "addr:country": "US", "addr:full": "5 S BROOME ST", "addr:postcode": "12771", "addr:state": "NY", "amenity": "post_box", "brand": "United States Postal Service", "brand:wikidata": "Q668687", "collection_times": "Mo-Fr 09:30; Sa 10:00", "name": "USPS COLLECTION BOX - BLUE BOX", "nsi_id": "unitedstatespostalservice-a77078", "operator": "United States Postal Service", "operator:short": "USPS", "operator:type": "public", "operator:wikidata": "Q668687", "ref": "1277100005"}, "type": "Feature"}
{"dataset_attributes": {"@spider": "usps_collection_boxes", "spider:collection_time": "2023-10-31T08:25:14.480804"}, "geometry": {"coordinates": [-74.7050095, 41.380608], "type": "Point"}, "id": "a3mhHtXsHt061yIsRSXrka95Q6w=", "properties": {"@spider": "usps_collection_boxes", "addr:city": "PORT JERVIS", "addr:country": "US", "addr:full": "184 W MAIN ST", "addr:postcode": "12771", "addr:state": "NY", "amenity": "post_box", "brand": "United States Postal Service", "brand:wikidata": "Q668687", "collection_times": "Mo-Fr 09:00; Sa 09:30", "name": "USPS COLLECTION BOX - BLUE BOX", "nsi_id": "unitedstatespostalservice-a77078", "operator": "United States Postal Service", "operator:short": "USPS", "operator:type": "public", "operator:wikidata": "Q668687", "ref": "1277100009"}, "type": "Feature"}
{"dataset_attributes": {"@spider": "usps_collection_boxes", "spider:collection_time": "2023-10-31T08:25:14.480804"}, "geometry": {"coordinates": [-74.6894434, 41.378192], "type": "Point"}, "id": "qfA5zeI9RP4S0JqCKsxlWl1um2k=", "properties": {"@spider": "usps_collection_boxes", "addr:city": "PORT JERVIS", "addr:country": "US", "addr:full": "9 W MAIN ST", "addr:postcode": "12771", "addr:state": "NY", "amenity": "post_box", "brand": "United States Postal Service", "brand:wikidata": "Q668687", "collection_times": "Mo-Fr 09:00; Sa 09:30", "name": "USPS COLLECTION BOX - BLUE BOX", "nsi_id": "unitedstatespostalservice-a77078", "operator": "United States Postal Service", "operator:short": "USPS", "operator:type": "public", "operator:wikidata": "Q668687", "ref": "1277100010"}, "type": "Feature"}
{"dataset_attributes": {"@spider": "usps_collection_boxes", "spider:collection_time": "2023-10-31T08:25:14.480804"}, "geometry": {"coordinates": [-74.6866444, 41.384257], "type": "Point"}, "id": "Iw_eLljJpKCMyf5BHi6ZFLWYNvs=", "properties": {"@spider": "usps_collection_boxes", "addr:city": "PORT JERVIS", "addr:country": "US", "addr:full": "4 RESERVOIR AVE", "addr:postcode": "12771", "addr:state": "NY", "amenity": "post_box", "brand": "United States Postal Service", "brand:wikidata": "Q668687", "collection_times": "Mo-Fr 09:30; Sa 10:00", "name": "USPS COLLECTION BOX - BLUE BOX", "nsi_id": "unitedstatespostalservice-a77078", "operator": "United States Postal Service", "operator:short": "USPS", "operator:type": "public", "operator:wikidata": "Q668687", "ref": "1277100013"}, "type": "Feature"}
{"dataset_attributes": {"@spider": "usps_collection_boxes", "spider:collection_time": "2023-10-31T08:25:14.480804"}, "geometry": {"coordinates": [-74.6776109, 41.38251], "type": "Point"}, "id": "Tkj4qaTKhdjkeU1Fl0c3Dr2M5Fk=", "properties": {"@spider": "usps_collection_boxes", "addr:city": "PORT JERVIS", "addr:country": "US", "addr:full": "113 MOHAWK ST", "addr:postcode": "12771", "addr:state": "NY", "amenity": "post_box", "brand": "United States Postal Service", "brand:wikidata": "Q668687", "collection_times": "Mo-Fr 09:30; Sa 10:00", "name": "USPS COLLECTION BOX - BLUE BOX", "nsi_id": "unitedstatespostalservice-a77078", "operator": "United States Postal Service", "operator:short": "USPS", "operator:type": "public", "operator:wikidata": "Q668687", "ref": "1277100015"}, "type": "Feature"}
{"dataset_attributes": {"@spider": "usps_collection_boxes", "spider:collection_time": "2023-10-31T08:25:14.480804"}, "geometry": {"coordinates": [-74.6829083, 41.377776], "type": "Point"}, "id": "1P_uElaBExBNk7-dj8p-zhIaYY0=", "properties": {"@spider": "usps_collection_boxes", "addr:city": "PORT JERVIS", "addr:country": "US", "addr:full": "36 KINGSTON AVE", "addr:postcode": "12771", "addr:state": "NY", "amenity": "post_box", "brand": "United States Postal Service", "brand:wikidata": "Q668687", "collection_times": "Mo-Fr 09:30; Sa 10:00", "name": "USPS COLLECTION BOX - BLUE BOX", "nsi_id": "unitedstatespostalservice-a77078", "operator": "United States Postal Service", "operator:short": "USPS", "operator:type": "public", "operator:wikidata": "Q668687", "ref": "1277100016"}, "type": "Feature"}
{"dataset_attributes": {"@spider": "usps_collection_boxes", "spider:collection_time": "2023-10-31T08:25:14.480804"}, "geometry": {"coordinates": [-74.6850976, 41.368411], "type": "Point"}, "id": "u4nWtjIsEWgeSP_uEzqRfTRtQMM=", "properties": {"@spider": "usps_collection_boxes", "addr:city": "PORT JERVIS", "addr:country": "US", "addr:full": "164 BALL ST", "addr:postcode": "12771", "addr:state": "NY", "amenity": "post_box", "brand": "United States Postal Service", "brand:wikidata": "Q668687", "collection_times": "Mo-Fr 09:00; Sa 09:30", "name": "USPS COLLECTION BOX - BLUE BOX", "nsi_id": "unitedstatespostalservice-a77078", "operator": "United States Postal Service", "operator:short": "USPS", "operator:type": "public", "operator:wikidata": "Q668687", "ref": "1277100020"}, "type": "Feature"}
{"dataset_attributes": {"@spider": "usps_collection_boxes", "spider:collection_time": "2023-10-31T08:25:14.480804"}, "geometry": {"coordinates": [-74.6812279, 41.367381], "type": "Point"}, "id": "AgKLhli3lc9LFigVvlod06jhIok=", "properties": {"@spider": "usps_collection_boxes", "addr:city": "PORT JERVIS", "addr:country": "US", "addr:full": "160 E MAIN ST", "addr:postcode": "12771", "addr:state": "NY", "amenity": "post_box", "brand": "United States Postal Service", "brand:wikidata": "Q668687", "collection_times": "Mo-Fr 09:30; Sa 10:00", "name": "USPS COLLECTION BOX - BLUE BOX", "nsi_id": "unitedstatespostalservice-a77078", "operator": "United States Postal Service", "operator:short": "USPS", "operator:type": "public", "operator:wikidata": "Q668687", "ref": "1277100023"}, "type": "Feature"}
{"dataset_attributes": {"@spider": "usps_collection_boxes", "spider:collection_time": "2023-10-31T08:25:14.480804"}, "geometry": {"coordinates": [-74.5585405, 41.376346], "type": "Point"}, "id": "H20w7KlSd8bSd2uda-g620xrAQU=", "properties": {"@spider": "usps_collection_boxes", "addr:city": "PORT JERVIS", "addr:country": "US", "addr:full": "1537 ROUTE 6", "addr:postcode": "12771", "addr:state": "NY", "amenity": "post_box", "brand": "United States Postal Service", "brand:wikidata": "Q668687", "collection_times": "Mo-Sa 09:00", "name": "USPS COLLECTION BOX - BLUE BOX", "nsi_id": "unitedstatespostalservice-a77078", "operator": "United States Postal Service", "operator:short": "USPS", "operator:type": "public", "operator:wikidata": "Q668687", "ref": "1277100028"}, "type": "Feature"}
{"dataset_attributes": {"@spider": "usps_collection_boxes", "spider:collection_time": "2023-10-31T08:25:14.480804"}, "geometry": {"coordinates": [-74.69207, 41.374738], "type": "Point"}, "id": "0KZ5PzStuFl2dW-ueOx29SLTJnU=", "properties": {"@spider": "usps_collection_boxes", "addr:city": "PORT JERVIS", "addr:country": "US", "addr:full": "20 SUSSEX ST", "addr:postcode": "12771", "addr:state": "NY", "amenity": "post_box", "brand": "United States Postal Service", "brand:wikidata": "Q668687", "collection_times": "Mo-Fr 17:00; Sa 15:30", "name": "USPS COLLECTION BOX - PO LOBBY", "note": "ON 12/24 AND 12/31, THIS BOX MAY BE COLLECTED AS EARLY AS 12 NOON.", "nsi_id": "unitedstatespostalservice-a77078", "operator": "United States Postal Service", "operator:short": "USPS", "operator:type": "public", "operator:wikidata": "Q668687", "ref": "1277100029"}, "type": "Feature"}
{"dataset_attributes": {"@spider": "usps_collection_boxes", "spider:collection_time": "2023-10-31T08:25:14.480804"}, "geometry": {"coordinates": [-74.692099069, 41.37476373], "type": "Point"}, "id": "jwfW7kXMbTq_RpgwaM8fDDpmJG8=", "properties": {"@spider": "usps_collection_boxes", "addr:city": "PORT JERVIS", "addr:country": "US", "addr:full": "20 SUSSEX ST", "addr:postcode": "12771", "addr:state": "NY", "amenity": "post_box", "brand": "United States Postal Service", "brand:wikidata": "Q668687", "collection_times": "Mo-Fr 17:00; Sa 13:00", "name": "USPS COLLECTION BOX - PO LOBBY", "note": "ON 12/24 AND 12/31, THIS BOX MAY BE COLLECTED AS EARLY AS 12 NOON.", "nsi_id": "unitedstatespostalservice-a77078", "operator": "United States Postal Service", "operator:short": "USPS", "operator:type": "public", "operator:wikidata": "Q668687", "ref": "1277100030"}, "type": "Feature"}
{"dataset_attributes": {"@spider": "usps_collection_boxes", "spider:collection_time": "2023-10-31T08:25:14.480804"}, "geometry": {"coordinates": [-74.6466371628, 41.4030038119], "type": "Point"}, "id": "f5azcR3VKLFZQXzm0uX1Grwy6Bs=", "properties": {"@spider": "usps_collection_boxes", "addr:city": "PORT JERVIS", "addr:country": "US", "addr:full": "209 ROUTE 209", "addr:postcode": "12771", "addr:state": "NY", "amenity": "post_box", "brand": "United States Postal Service", "brand:wikidata": "Q668687", "collection_times": "Mo-Sa 10:00", "name": "USPS COLLECTION BOX - BLUE BOX", "nsi_id": "unitedstatespostalservice-a77078", "operator": "United States Postal Service", "operator:short": "USPS", "operator:type": "public", "operator:wikidata": "Q668687", "ref": "1277100031"}, "type": "Feature"}
{"dataset_attributes": {"@spider": "usps_collection_boxes", "spider:collection_time": "2023-10-31T08:25:14.480804"}, "geometry": {"coordinates": [-74.594161, 41.62417], "type": "Point"}, "id": "BRS-wzZufW61mBust9EJox30OAc=", "properties": {"@spider": "usps_collection_boxes", "addr:city": "ROCK HILL", "addr:country": "US", "addr:full": "240 ROCK HILL DR", "addr:postcode": "12775", "addr:state": "NY", "amenity": "post_box", "brand": "United States Postal Service", "brand:wikidata": "Q668687", "collection_times": "Mo-Fr 17:00; Sa 12:00", "name": "USPS COLLECTION BOX - BLUE BOX", "note": "ON 12/24 AND 12/31, THIS BOX MAY BE COLLECTED AS EARLY AS 12 NOON.", "nsi_id": "unitedstatespostalservice-a77078", "operator": "United States Postal Service", "operator:short": "USPS", "operator:type": "public", "operator:wikidata": "Q668687", "ref": "1277500001"}, "type": "Feature"}
{"dataset_attributes": {"@spider": "usps_collection_boxes", "spider:collection_time": "2023-10-31T08:25:14.480804"}, "geometry": {"coordinates": [-74.594161, 41.62417], "type": "Point"}, "id": "yiVo7kBJin0_-Hh7Y2ug_7lrm5I=", "properties": {"@spider": "usps_collection_boxes", "addr:city": "ROCK HILL", "addr:country": "US", "addr:full": "240 ROCK HILL DR LBBY SLOT", "addr:postcode": "12775", "addr:state": "NY", "amenity": "post_box", "brand": "United States Postal Service", "brand:wikidata": "Q668687", "collection_times": "Mo-Fr 17:00; Sa 12:00", "name": "USPS COLLECTION BOX - PO LOBBY", "note": "ON 12/24 AND 12/31, THIS BOX MAY BE COLLECTED AS EARLY AS 12 NOON.", "nsi_id": "unitedstatespostalservice-a77078", "operator": "United States Postal Service", "operator:short": "USPS", "operator:type": "public", "operator:wikidata": "Q668687", "ref": "1277500003"}, "type": "Feature"}
{"dataset_attributes": {"@spider": "usps_collection_boxes", "spider:collection_time": "2023-10-31T08:25:14.480804"}, "geometry": {"coordinates": [-74.594178684, 41.624115802], "type": "Point"}, "id": "zKegr5K3nL7U01YaseD0Cg7sMVE=", "properties": {"@spider": "usps_collection_boxes", "addr:city": "ROCK HILL", "addr:country": "US", "addr:full": "240 ROCK HILL DR", "addr:postcode": "12775", "addr:state": "NY", "amenity": "post_box", "brand": "United States Postal Service", "brand:wikidata": "Q668687", "collection_times": "Mo-Fr 17:00; Sa 12:00", "name": "USPS COLLECTION BOX - PO LOBBY", "note": "ON 12/24 AND 12/31, THIS BOX MAY BE COLLECTED AS EARLY AS 12 NOON.", "nsi_id": "unitedstatespostalservice-a77078", "operator": "United States Postal Service", "operator:short": "USPS", "operator:type": "public", "operator:wikidata": "Q668687", "ref": "1277500004"}, "type": "Feature"}
{"dataset_attributes": {"@spider": "usps_collection_boxes", "spider:collection_time": "2023-10-31T08:25:14.480804"}, "geometry": {"coordinates": [-74.914769, 41.933076], "type": "Point"}, "id": "YHMEQaRC0sKrttToSRyb87WoxY0=", "properties": {"@spider": "usps_collection_boxes", "addr:city": "ROSCOE", "addr:country": "US", "addr:full": "2 MAPLE ST", "addr:postcode": "12776", "addr:state": "NY", "amenity": "post_box", "brand": "United States Postal Service", "brand:wikidata": "Q668687", "collection_times": "Mo-Fr 17:00; Sa 11:30", "name": "USPS COLLECTION BOX - BLUE BOX", "note": "ON 12/24 AND 12/31, THIS BOX MAY BE COLLECTED AS EARLY AS 12 NOON.", "nsi_id": "unitedstatespostalservice-a77078", "operator": "United States Postal Service", "operator:short": "USPS", "operator:type": "public", "operator:wikidata": "Q668687", "ref": "1277600001"}, "type": "Feature"}
{"dataset_attributes": {"@spider": "usps_collection_boxes", "spider:collection_time": "2023-10-31T08:25:14.480804"}, "geometry": {"coordinates": [-74.914769, 41.933076], "type": "Point"}, "id": "EJnC-A2WlQloeA7FKTfkI9k90xI=", "properties": {"@spider": "usps_collection_boxes", "addr:city": "ROSCOE", "addr:country": "US", "addr:full": "2 MAPLE ST LBBY SLOT", "addr:postcode": "12776", "addr:state": "NY", "amenity": "post_box", "brand": "United States Postal Service", "brand:wikidata": "Q668687", "collection_times": "Mo-Fr 17:00; Sa 11:30", "name": "USPS COLLECTION BOX - PO LOBBY", "note": "ON 12/24 AND 12/31, THIS BOX MAY BE COLLECTED AS EARLY AS 12 NOON.", "nsi_id": "unitedstatespostalservice-a77078", "operator": "United States Postal Service", "operator:short": "USPS", "operator:type": "public", "operator:wikidata": "Q668687", "ref": "1277600003"}, "type": "Feature"}
{"dataset_attributes": {"@spider": "usps_collection_boxes", "spider:collection_time": "2023-10-31T08:25:14.480804"}, "geometry": {"coordinates": [-74.914328702, 41.933749012], "type": "Point"}, "id": "bDyRaIj5CR-wil_PjA7nRXgVeLw=", "properties": {"@spider": "usps_collection_boxes", "addr:city": "ROSCOE", "addr:country": "US", "addr:full": "2 MAPLE ST", "addr:postcode": "12776", "addr:state": "NY", "amenity": "post_box", "brand": "United States Postal Service", "brand:wikidata": "Q668687", "collection_times": "Mo-Fr 17:00; Sa 11:30", "name": "USPS COLLECTION BOX - PO LOBBY", "note": "ON 12/24 AND 12/31, THIS BOX MAY BE COLLECTED AS EARLY AS 12 NOON.", "nsi_id": "unitedstatespostalservice-a77078", "operator": "United States Postal Service", "operator:short": "USPS", "operator:type": "public", "operator:wikidata": "Q668687", "ref": "1277600004"}, "type": "Feature"}
{"dataset_attributes": {"@spider": "usps_collection_boxes", "spider:collection_time": "2023-10-31T08:25:14.480804"}, "geometry": {"coordinates": [-74.7270728, 41.58562], "type": "Point"}, "id": "s99nmL51O4BJKevKeBiSq5vQsnc=", "properties": {"@spider": "usps_collection_boxes", "addr:city": "FORESTBURGH", "addr:country": "US", "addr:full": "2841 STATE ROUTE 42", "addr:postcode": "12777", "addr:state": "NY", "amenity": "post_box", "brand": "United States Postal Service", "brand:wikidata": "Q668687", "collection_times": "Mo-Fr 10:00", "name": "USPS COLLECTION BOX - BLUE BOX", "nsi_id": "unitedstatespostalservice-a77078", "operator": "United States Postal Service", "operator:short": "USPS", "operator:type": "public", "operator:wikidata": "Q668687", "ref": "1277700000"}, "type": "Feature"}
{"dataset_attributes": {"@spider": "usps_collection_boxes", "spider:collection_time": "2023-10-31T08:25:14.480804"}, "geometry": {"coordinates": [-74.811671, 41.660206], "type": "Point"}, "id": "xSes8WvQHseL5TeaFz5dyVXNS4g=", "properties": {"@spider": "usps_collection_boxes", "addr:city": "SMALLWOOD", "addr:country": "US", "addr:full": "220 PINE GROVE RD", "addr:postcode": "12778", "addr:state": "NY", "amenity": "post_box", "brand": "United States Postal Service", "brand:wikidata": "Q668687", "collection_times": "Mo-Fr 17:00; Sa 12:00", "name": "USPS COLLECTION BOX - BLUE BOX", "note": "ON 12/24 AND 12/31, THIS BOX MAY BE COLLECTED AS EARLY AS 12 NOON.", "nsi_id": "unitedstatespostalservice-a77078", "operator": "United States Postal Service", "operator:short": "USPS", "operator:type": "public", "operator:wikidata": "Q668687", "ref": "1277800002"}, "type": "Feature"}
{"dataset_attributes": {"@spider": "usps_collection_boxes", "spider:collection_time": "2023-10-31T08:25:14.480804"}, "geometry": {"coordinates": [-74.811671, 41.660206], "type": "Point"}, "id": "GelljvVBvdlpIPrzWVzADoEO3N0=", "properties": {"@spider": "usps_collection_boxes", "addr:city": "SMALLWOOD", "addr:country": "US", "addr:full": "220 PINE GROVE RD LBBY SLOT", "addr:postcode": "12778", "addr:state": "NY", "amenity": "post_box", "brand": "United States Postal Service", "brand:wikidata": "Q668687", "collection_times": "Mo-Fr 17:00; Sa 12:00", "name": "USPS COLLECTION BOX - PO LOBBY", "note": "ON 12/24 AND 12/31, THIS BOX MAY BE COLLECTED AS EARLY AS 12 NOON.", "nsi_id": "unitedstatespostalservice-a77078", "operator": "United States Postal Service", "operator:short": "USPS", "operator:type": "public", "operator:wikidata": "Q668687", "ref": "1277800003"}, "type": "Feature"}
{"dataset_attributes": {"@spider": "usps_collection_boxes", "spider:collection_time": "2023-10-31T08:25:14.480804"}, "geometry": {"coordinates": [-74.811477181, 41.659807475], "type": "Point"}, "id": "XeuGTmyRFA30YUdreNwobi2Ghjg=", "properties": {"@spider": "usps_collection_boxes", "addr:city": "SMALLWOOD", "addr:country": "US", "addr:full": "220 PINE GROVE RD", "addr:postcode": "12778", "addr:state": "NY", "amenity": "post_box", "brand": "United States Postal Service", "brand:wikidata": "Q668687", "collection_times": "Mo-Fr 17:00; Sa 12:00", "name": "USPS COLLECTION BOX - PO LOBBY", "note": "ON 12/24 AND 12/31, THIS BOX MAY BE COLLECTED AS EARLY AS 12 NOON.", "nsi_id": "unitedstatespostalservice-a77078", "operator": "United States Postal Service", "operator:short": "USPS", "operator:type": "public", "operator:wikidata": "Q668687", "ref": "1277800005"}, "type": "Feature"}
{"dataset_attributes": {"@spider": "usps_collection_boxes", "spider:collection_time": "2023-10-31T08:25:14.480804"}, "geometry": {"coordinates": [-74.629064, 41.707313], "type": "Point"}, "id": "q277NdHJxKC9nq8vWsTCdX6x418=", "properties": {"@spider": "usps_collection_boxes", "addr:city": "SOUTH FALLSBURG", "addr:country": "US", "addr:full": "25 RAILROAD PLZ", "addr:postcode": "12779", "addr:state": "NY", "amenity": "post_box", "brand": "United States Postal Service", "brand:wikidata": "Q668687", "collection_times": "Mo-Fr 17:00; Sa 12:00", "name": "USPS COLLECTION BOX - BLUE BOX", "note": "ON 12/24 AND 12/31, THIS BOX MAY BE COLLECTED AS EARLY AS 12 NOON.", "nsi_id": "unitedstatespostalservice-a77078", "operator": "United States Postal Service", "operator:short": "USPS", "operator:type": "public", "operator:wikidata": "Q668687", "ref": "1277900002"}, "type": "Feature"}
{"dataset_attributes": {"@spider": "usps_collection_boxes", "spider:collection_time": "2023-10-31T08:25:14.480804"}, "geometry": {"coordinates": [-74.629064, 41.707313], "type": "Point"}, "id": "UIgNXwOs7zaT3MXVsD-Sb1Z8Ves=", "properties": {"@spider": "usps_collection_boxes", "addr:city": "SOUTH FALLSBURG", "addr:country": "US", "addr:full": "25 RAILROAD PLZ LBBY SLOT", "addr:postcode": "12779", "addr:state": "NY", "amenity": "post_box", "brand": "United States Postal Service", "brand:wikidata": "Q668687", "collection_times": "Mo-Fr 17:00; Sa 12:00", "name": "USPS COLLECTION BOX - PO LOBBY", "note": "ON 12/24 AND 12/31, THIS BOX MAY BE COLLECTED AS EARLY AS 12 NOON.", "nsi_id": "unitedstatespostalservice-a77078", "operator": "United States Postal Service", "operator:short": "USPS", "operator:type": "public", "operator:wikidata": "Q668687", "ref": "1277900005"}, "type": "Feature"}
{"dataset_attributes": {"@spider": "usps_collection_boxes", "spider:collection_time": "2023-10-31T08:25:14.480804"}, "geometry": {"coordinates": [-74.628737231, 41.706892341], "type": "Point"}, "id": "VBBtHfwYqJu6f_CTGzP06l9zhws=", "properties": {"@spider": "usps_collection_boxes", "addr:city": "SOUTH FALLSBURG", "addr:country": "US", "addr:full": "25 RAILROAD PLZ", "addr:postcode": "12779", "addr:state": "NY", "amenity": "post_box", "brand": "United States Postal Service", "brand:wikidata": "Q668687", "collection_times": "Mo-Fr 17:00; Sa 12:00", "name": "USPS COLLECTION BOX - PO LOBBY", "note": "ON 12/24 AND 12/31, THIS BOX MAY BE COLLECTED AS EARLY AS 12 NOON.", "nsi_id": "unitedstatespostalservice-a77078", "operator": "United States Postal Service", "operator:short": "USPS", "operator:type": "public", "operator:wikidata": "Q668687", "ref": "1277900006"}, "type": "Feature"}
{"dataset_attributes": {"@spider": "usps_collection_boxes", "spider:collection_time": "2023-10-31T08:25:14.480804"}, "geometry": {"coordinates": [-74.731465, 41.40502], "type": "Point"}, "id": "ztrKLTzLANuF_tSFFGtWvaGHxbE=", "properties": {"@spider": "usps_collection_boxes", "addr:city": "SPARROW BUSH", "addr:country": "US", "addr:full": "505 STATE ROUTE 42", "addr:postcode": "12780", "addr:state": "NY", "amenity": "post_box", "brand": "United States Postal Service", "brand:wikidata": "Q668687", "collection_times": "Mo-Fr 17:00; Sa 12:00", "name": "USPS COLLECTION BOX - BLUE BOX", "note": "ON 12/24 AND 12/31, THIS BOX MAY BE COLLECTED AS EARLY AS 12 NOON.", "nsi_id": "unitedstatespostalservice-a77078", "operator": "United States Postal Service", "operator:short": "USPS", "operator:type": "public", "operator:wikidata": "Q668687", "ref": "1278000001"}, "type": "Feature"}
{"dataset_attributes": {"@spider": "usps_collection_boxes", "spider:collection_time": "2023-10-31T08:25:14.480804"}, "geometry": {"coordinates": [-74.731465, 41.40502], "type": "Point"}, "id": "6a7TsSVzr5JmcuAmEHSQ2Qe7ewQ=", "properties": {"@spider": "usps_collection_boxes", "addr:city": "SPARROW BUSH", "addr:country": "US", "addr:full": "505 STATE ROUTE 42 LBBY SLOT", "addr:postcode": "12780", "addr:state": "NY", "amenity": "post_box", "brand": "United States Postal Service", "brand:wikidata": "Q668687", "collection_times": "Mo-Fr 17:00; Sa 12:00", "name": "USPS COLLECTION BOX - PO LOBBY", "note": "ON 12/24 AND 12/31, THIS BOX MAY BE COLLECTED AS EARLY AS 12 NOON.", "nsi_id": "unitedstatespostalservice-a77078", "operator": "United States Postal Service", "operator:short": "USPS", "operator:type": "public", "operator:wikidata": "Q668687", "ref": "1278000002"}, "type": "Feature"}
{"dataset_attributes": {"@spider": "usps_collection_boxes", "spider:collection_time": "2023-10-31T08:25:14.480804"}, "geometry": {"coordinates": [-74.731466487, 41.405004807], "type": "Point"}, "id": "qvqkJ2e_aISUbW2vLax9OFA6bt4=", "properties": {"@spider": "usps_collection_boxes", "addr:city": "SPARROW BUSH", "addr:country": "US", "addr:full": "505 STATE ROUTE 42", "addr:postcode": "12780", "addr:state": "NY", "amenity": "post_box", "brand": "United States Postal Service", "brand:wikidata": "Q668687", "collection_times": "Mo-Fr 17:00; Sa 12:00", "name": "USPS COLLECTION BOX - PO LOBBY", "note": "ON 12/24 AND 12/31, THIS BOX MAY BE COLLECTED AS EARLY AS 12 NOON.", "nsi_id": "unitedstatespostalservice-a77078", "operator": "United States Postal Service", "operator:short": "USPS", "operator:type": "public", "operator:wikidata": "Q668687", "ref": "1278000003"}, "type": "Feature"}
{"dataset_attributes": {"@spider": "usps_collection_boxes", "spider:collection_time": "2023-10-31T08:25:14.480804"}, "geometry": {"coordinates": [-74.451096909, 41.6213023484], "type": "Point"}, "id": "YOPA0nua9rzCblzYvJ76G1Xntqg=", "properties": {"@spider": "usps_collection_boxes", "addr:city": "SUMMITVILLE", "addr:country": "US", "addr:full": "3868 ROUTE 209", "addr:postcode": "12781", "addr:state": "NY", "amenity": "post_box", "brand": "United States Postal Service", "brand:wikidata": "Q668687", "collection_times": "Mo-Fr 17:00; Sa 12:00", "name": "USPS COLLECTION BOX - BLUE BOX", "note": "ON 12/24 AND 12/31, THIS BOX MAY BE COLLECTED AS EARLY AS 12 NOON.", "nsi_id": "unitedstatespostalservice-a77078", "operator": "United States Postal Service", "operator:short": "USPS", "operator:type": "public", "operator:wikidata": "Q668687", "ref": "1278100001"}, "type": "Feature"}
{"dataset_attributes": {"@spider": "usps_collection_boxes", "spider:collection_time": "2023-10-31T08:25:14.480804"}, "geometry": {"coordinates": [-74.451096909, 41.6213023484], "type": "Point"}, "id": "C8ec6vu23Pghg_lxPOs26c6nPTs=", "properties": {"@spider": "usps_collection_boxes", "addr:city": "SUMMITVILLE", "addr:country": "US", "addr:full": "3868 ROUTE 209 LBBY SLOT", "addr:postcode": "12781", "addr:state": "NY", "amenity": "post_box", "brand": "United States Postal Service", "brand:wikidata": "Q668687", "collection_times": "Mo-Fr 17:00; Sa 12:00", "name": "USPS COLLECTION BOX - PO LOBBY", "note": "ON 12/24 AND 12/31, THIS BOX MAY BE COLLECTED AS EARLY AS 12 NOON.", "nsi_id": "unitedstatespostalservice-a77078", "operator": "United States Postal Service", "operator:short": "USPS", "operator:type": "public", "operator:wikidata": "Q668687", "ref": "1278100002"}, "type": "Feature"}
{"dataset_attributes": {"@spider": "usps_collection_boxes", "spider:collection_time": "2023-10-31T08:25:14.480804"}, "geometry": {"coordinates": [-74.453314923, 41.616273218], "type": "Point"}, "id": "_qKKO5KvYpyBk51Mn9_pcA_qEEQ=", "properties": {"@spider": "usps_collection_boxes", "addr:city": "SUMMITVILLE", "addr:country": "US", "addr:full": "3868 ROUTE 209", "addr:postcode": "12781", "addr:state": "NY", "amenity": "post_box", "brand": "United States Postal Service", "brand:wikidata": "Q668687", "collection_times": "Mo-Fr 17:00; Sa 12:00", "name": "USPS COLLECTION BOX - PO LOBBY", "note": "ON 12/24 AND 12/31, THIS BOX MAY BE COLLECTED AS EARLY AS 12 NOON.", "nsi_id": "unitedstatespostalservice-a77078", "operator": "United States Postal Service", "operator:short": "USPS", "operator:type": "public", "operator:wikidata": "Q668687", "ref": "1278100003"}, "type": "Feature"}
{"dataset_attributes": {"@spider": "usps_collection_boxes", "spider:collection_time": "2023-10-31T08:25:14.480804"}, "geometry": {"coordinates": [-74.778878, 41.750577], "type": "Point"}, "id": "dX7XojARW0VBRdxmksWmjSRrhF8=", "properties": {"@spider": "usps_collection_boxes", "addr:city": "SWAN LAKE", "addr:country": "US", "addr:full": "35 STANTON CORNERS RD", "addr:postcode": "12783", "addr:state": "NY", "amenity": "post_box", "brand": "United States Postal Service", "brand:wikidata": "Q668687", "collection_times": "Mo-Fr 17:00; Sa 12:00", "name": "USPS COLLECTION BOX - BLUE BOX", "note": "ON 12/24 AND 12/31, THIS BOX MAY BE COLLECTED AS EARLY AS 12 NOON.", "nsi_id": "unitedstatespostalservice-a77078", "operator": "United States Postal Service", "operator:short": "USPS", "operator:type": "public", "operator:wikidata": "Q668687", "ref": "1278300001"}, "type": "Feature"}
{"dataset_attributes": {"@spider": "usps_collection_boxes", "spider:collection_time": "2023-10-31T08:25:14.480804"}, "geometry": {"coordinates": [-74.778878, 41.750577], "type": "Point"}, "id": "junvPtnnKUZt9E9QW6qRATZ2orY=", "properties": {"@spider": "usps_collection_boxes", "addr:city": "SWAN LAKE", "addr:country": "US", "addr:full": "35 STANTON CORNER RD LBBY SLOT", "addr:postcode": "12783", "addr:state": "NY", "amenity": "post_box", "brand": "United States Postal Service", "brand:wikidata": "Q668687", "collection_times": "Mo-Fr 17:00; Sa 12:00", "name": "USPS COLLECTION BOX - PO LOBBY", "note": "ON 12/24 AND 12/31, THIS BOX MAY BE COLLECTED AS EARLY AS 12 NOON.", "nsi_id": "unitedstatespostalservice-a77078", "operator": "United States Postal Service", "operator:short": "USPS", "operator:type": "public", "operator:wikidata": "Q668687", "ref": "1278300002"}, "type": "Feature"}
{"dataset_attributes": {"@spider": "usps_collection_boxes", "spider:collection_time": "2023-10-31T08:25:14.480804"}, "geometry": {"coordinates": [-74.77866, 41.750570523], "type": "Point"}, "id": "0n3Tug3MUYtpaVIAX-sNSsm8Nj0=", "properties": {"@spider": "usps_collection_boxes", "addr:city": "SWAN LAKE", "addr:country": "US", "addr:full": "35 STANTON CORNER RD", "addr:postcode": "12783", "addr:state": "NY", "amenity": "post_box", "brand": "United States Postal Service", "brand:wikidata": "Q668687", "collection_times": "Mo-Fr 17:00; Sa 12:00", "name": "USPS COLLECTION BOX - PO LOBBY", "note": "ON 12/24 AND 12/31, THIS BOX MAY BE COLLECTED AS EARLY AS 12 NOON.", "nsi_id": "unitedstatespostalservice-a77078", "operator": "United States Postal Service", "operator:short": "USPS", "operator:type": "public", "operator:wikidata": "Q668687", "ref": "1278300003"}, "type": "Feature"}
{"dataset_attributes": {"@spider": "usps_collection_boxes", "spider:collection_time": "2023-10-31T08:25:14.480804"}, "geometry": {"coordinates": [-74.628771, 41.665628], "type": "Point"}, "id": "8gOfo9Xke6EAH5XJ8bClsl0Lmms=", "properties": {"@spider": "usps_collection_boxes", "addr:city": "THOMPSONVILLE", "addr:country": "US", "addr:full": "558 THOMPSON RD", "addr:postcode": "12784", "addr:state": "NY", "amenity": "post_box", "brand": "United States Postal Service", "brand:wikidata": "Q668687", "collection_times": "Mo-Fr 17:00; Sa 12:00", "name": "USPS COLLECTION BOX - BLUE BOX", "note": "ON 12/24 AND 12/31, THIS BOX MAY BE COLLECTED AS EARLY AS 12 NOON.", "nsi_id": "unitedstatespostalservice-a77078", "operator": "United States Postal Service", "operator:short": "USPS", "operator:type": "public", "operator:wikidata": "Q668687", "ref": "1278400001"}, "type": "Feature"}
{"dataset_attributes": {"@spider": "usps_collection_boxes", "spider:collection_time": "2023-10-31T08:25:14.480804"}, "geometry": {"coordinates": [-74.628771, 41.665628], "type": "Point"}, "id": "qKIcO303CQIucIaiLpkARqwxXic=", "properties": {"@spider": "usps_collection_boxes", "addr:city": "THOMPSONVILLE", "addr:country": "US", "addr:full": "558 THOMPSON RD LBBY SLOT", "addr:postcode": "12784", "addr:state": "NY", "amenity": "post_box", "brand": "United States Postal Service", "brand:wikidata": "Q668687", "collection_times": "Mo-Fr 17:00; Sa 12:00", "name": "USPS COLLECTION BOX - PO LOBBY", "note": "ON 12/24 AND 12/31, THIS BOX MAY BE COLLECTED AS EARLY AS 12 NOON.", "nsi_id": "unitedstatespostalservice-a77078", "operator": "United States Postal Service", "operator:short": "USPS", "operator:type": "public", "operator:wikidata": "Q668687", "ref": "1278400002"}, "type": "Feature"}
{"dataset_attributes": {"@spider": "usps_collection_boxes", "spider:collection_time": "2023-10-31T08:25:14.480804"}, "geometry": {"coordinates": [-74.625557224, 41.668055309], "type": "Point"}, "id": "GAr2OjjUE84MsWBnM2l1r0GCLTo=", "properties": {"@spider": "usps_collection_boxes", "addr:city": "THOMPSONVILLE", "addr:country": "US", "addr:full": "558 THOMPSON RD", "addr:postcode": "12784", "addr:state": "NY", "amenity": "post_box", "brand": "United States Postal Service", "brand:wikidata": "Q668687", "collection_times": "Mo-Fr 17:00; Sa 12:00", "name": "USPS COLLECTION BOX - PO LOBBY", "note": "ON 12/24 AND 12/31, THIS BOX MAY BE COLLECTED AS EARLY AS 12 NOON.", "nsi_id": "unitedstatespostalservice-a77078", "operator": "United States Postal Service", "operator:short": "USPS", "operator:type": "public", "operator:wikidata": "Q668687", "ref": "1278400003"}, "type": "Feature"}
{"dataset_attributes": {"@spider": "usps_collection_boxes", "spider:collection_time": "2023-10-31T08:25:14.480804"}, "geometry": {"coordinates": [-74.844814, 41.674937], "type": "Point"}, "id": "mpVoYyILE4ixxTpkPmL9wyBhNAw=", "properties": {"@spider": "usps_collection_boxes", "addr:city": "WHITE LAKE", "addr:country": "US", "addr:full": "1447 STATE ROUTE 17B", "addr:postcode": "12786", "addr:state": "NY", "amenity": "post_box", "brand": "United States Postal Service", "brand:wikidata": "Q668687", "collection_times": "Mo-Fr 17:00; Sa 11:00", "name": "USPS COLLECTION BOX - BLUE BOX", "note": "ON 12/24 AND 12/31, THIS BOX MAY BE COLLECTED AS EARLY AS 12 NOON.", "nsi_id": "unitedstatespostalservice-a77078", "operator": "United States Postal Service", "operator:short": "USPS", "operator:type": "public", "operator:wikidata": "Q668687", "ref": "1278600001"}, "type": "Feature"}
{"dataset_attributes": {"@spider": "usps_collection_boxes", "spider:collection_time": "2023-10-31T08:25:14.480804"}, "geometry": {"coordinates": [-74.844814, 41.674937], "type": "Point"}, "id": "RjrWgpUe8UNefvKssCskwDvoVLA=", "properties": {"@spider": "usps_collection_boxes", "addr:city": "WHITE LAKE", "addr:country": "US", "addr:full": "1447 STATE ROUTE 17B LBBY SLOT", "addr:postcode": "12786", "addr:state": "NY", "amenity": "post_box", "brand": "United States Postal Service", "brand:wikidata": "Q668687", "collection_times": "Mo-Fr 17:00; Sa 11:00", "name": "USPS COLLECTION BOX - PO LOBBY", "note": "ON 12/24 AND 12/31, THIS BOX MAY BE COLLECTED AS EARLY AS 12 NOON.", "nsi_id": "unitedstatespostalservice-a77078", "operator": "United States Postal Service", "operator:short": "USPS", "operator:type": "public", "operator:wikidata": "Q668687", "ref": "1278600002"}, "type": "Feature"}
{"dataset_attributes": {"@spider": "usps_collection_boxes", "spider:collection_time": "2023-10-31T08:25:14.480804"}, "geometry": {"coordinates": [-74.828435268, 41.673945726], "type": "Point"}, "id": "X-ob3KMUl9D3iGK8fMddtw_ytd8=", "properties": {"@spider": "usps_collection_boxes", "addr:city": "WHITE LAKE", "addr:country": "US", "addr:full": "1447 STATE ROUTE 17B", "addr:postcode": "12786", "addr:state": "NY", "amenity": "post_box", "brand": "United States Postal Service", "brand:wikidata": "Q668687", "collection_times": "Mo-Fr 17:00; Sa 11:00", "name": "USPS COLLECTION BOX - PO LOBBY", "note": "ON 12/24 AND 12/31, THIS BOX MAY BE COLLECTED AS EARLY AS 12 NOON.", "nsi_id": "unitedstatespostalservice-a77078", "operator": "United States Postal Service", "operator:short": "USPS", "operator:type": "public", "operator:wikidata": "Q668687", "ref": "1278600004"}, "type": "Feature"}
{"dataset_attributes": {"@spider": "usps_collection_boxes", "spider:collection_time": "2023-10-31T08:25:14.480804"}, "geometry": {"coordinates": [-74.826167, 41.796996], "type": "Point"}, "id": "h2NUbIJvZ8VeQGRcQuRJHbirooU=", "properties": {"@spider": "usps_collection_boxes", "addr:city": "WHITE SULPHUR SP", "addr:country": "US", "addr:full": "3300 STATE ROUTE 52", "addr:postcode": "12787", "addr:state": "NY", "amenity": "post_box", "brand": "United States Postal Service", "brand:wikidata": "Q668687", "collection_times": "Mo-Fr 17:00; Sa 12:00", "name": "USPS COLLECTION BOX - BLUE BOX", "note": "ON 12/24 AND 12/31, THIS BOX MAY BE COLLECTED AS EARLY AS 12 NOON.", "nsi_id": "unitedstatespostalservice-a77078", "operator": "United States Postal Service", "operator:short": "USPS", "operator:type": "public", "operator:wikidata": "Q668687", "ref": "1278700001"}, "type": "Feature"}
{"dataset_attributes": {"@spider": "usps_collection_boxes", "spider:collection_time": "2023-10-31T08:25:14.480804"}, "geometry": {"coordinates": [-74.826169863, 41.796990511], "type": "Point"}, "id": "WzOMyvvatSupW9dapesZ3-StQYQ=", "properties": {"@spider": "usps_collection_boxes", "addr:city": "WHITE SULPHUR SP", "addr:country": "US", "addr:full": "3300 STATE ROUTE 52 LBBY SLOT", "addr:postcode": "12787", "addr:state": "NY", "amenity": "post_box", "brand": "United States Postal Service", "brand:wikidata": "Q668687", "collection_times": "Mo-Fr 17:00; Sa 12:00", "name": "USPS COLLECTION BOX - PO LOBBY", "note": "ON 12/24 AND 12/31, THIS BOX MAY BE COLLECTED AS EARLY AS 12 NOON.", "nsi_id": "unitedstatespostalservice-a77078", "operator": "United States Postal Service", "operator:short": "USPS", "operator:type": "public", "operator:wikidata": "Q668687", "ref": "1278700002"}, "type": "Feature"}
{"dataset_attributes": {"@spider": "usps_collection_boxes", "spider:collection_time": "2023-10-31T08:25:14.480804"}, "geometry": {"coordinates": [-74.826169863, 41.796990511], "type": "Point"}, "id": "Qx-KD-RasCIn8Wzhx9TL4ktBnRA=", "properties": {"@spider": "usps_collection_boxes", "addr:city": "WHITE SULPHUR SP", "addr:country": "US", "addr:full": "3300 STATE ROUTE 52", "addr:postcode": "12787", "addr:state": "NY", "amenity": "post_box", "brand": "United States Postal Service", "brand:wikidata": "Q668687", "collection_times": "Mo-Fr 17:00; Sa 12:00", "name": "USPS COLLECTION BOX - PO LOBBY", "note": "ON 12/24 AND 12/31, THIS BOX MAY BE COLLECTED AS EARLY AS 12 NOON.", "nsi_id": "unitedstatespostalservice-a77078", "operator": "United States Postal Service", "operator:short": "USPS", "operator:type": "public", "operator:wikidata": "Q668687", "ref": "1278700003"}, "type": "Feature"}
{"dataset_attributes": {"@spider": "usps_collection_boxes", "spider:collection_time": "2023-10-31T08:25:14.480804"}, "geometry": {"coordinates": [-74.599423, 41.760716], "type": "Point"}, "id": "mTfEfAZZqu6_ZQp0bo7vv-G2Opw=", "properties": {"@spider": "usps_collection_boxes", "addr:city": "WOODBOURNE", "addr:country": "US", "addr:full": "6169 STATE ROUTE 42", "addr:postcode": "12788", "addr:state": "NY", "amenity": "post_box", "brand": "United States Postal Service", "brand:wikidata": "Q668687", "collection_times": "Mo-Fr 17:00; Sa 12:00", "name": "USPS COLLECTION BOX - BLUE BOX", "note": "ON 12/24 AND 12/31, THIS BOX MAY BE COLLECTED AS EARLY AS 12 NOON.", "nsi_id": "unitedstatespostalservice-a77078", "operator": "United States Postal Service", "operator:short": "USPS", "operator:type": "public", "operator:wikidata": "Q668687", "ref": "1278800001"}, "type": "Feature"}
{"dataset_attributes": {"@spider": "usps_collection_boxes", "spider:collection_time": "2023-10-31T08:25:14.480804"}, "geometry": {"coordinates": [-74.599504, 41.760885], "type": "Point"}, "id": "lrLB-5xS5GIRKhQ2IpTfiDbfTwU=", "properties": {"@spider": "usps_collection_boxes", "addr:city": "WOODBOURNE", "addr:country": "US", "addr:full": "6169 ROUTE 42 ( LOBBY DROP SLOT )", "addr:postcode": "12788", "addr:state": "NY", "amenity": "post_box", "brand": "United States Postal Service", "brand:wikidata": "Q668687", "collection_times": "Mo-Fr 17:00; Sa 12:00", "name": "USPS COLLECTION BOX - PO LOBBY", "note": "ON 12/24 AND 12/31, THIS BOX MAY BE COLLECTED AS EARLY AS 12 NOON.", "nsi_id": "unitedstatespostalservice-a77078", "operator": "United States Postal Service", "operator:short": "USPS", "operator:type": "public", "operator:wikidata": "Q668687", "ref": "1278800002"}, "type": "Feature"}
{"dataset_attributes": {"@spider": "usps_collection_boxes", "spider:collection_time": "2023-10-31T08:25:14.480804"}, "geometry": {"coordinates": [-74.599424097, 41.760711262], "type": "Point"}, "id": "32eIuDWs8_fH4GNgsxny0ywHAa0=", "properties": {"@spider": "usps_collection_boxes", "addr:city": "WOODBOURNE", "addr:country": "US", "addr:full": "6169 STATE ROUTE 42", "addr:postcode": "12788", "addr:state": "NY", "amenity": "post_box", "brand": "United States Postal Service", "brand:wikidata": "Q668687", "collection_times": "Mo-Fr 17:00; Sa 12:00", "name": "USPS COLLECTION BOX - PO LOBBY", "note": "ON 12/24 AND 12/31, THIS BOX MAY BE COLLECTED AS EARLY AS 12 NOON.", "nsi_id": "unitedstatespostalservice-a77078", "operator": "United States Postal Service", "operator:short": "USPS", "operator:type": "public", "operator:wikidata": "Q668687", "ref": "1278800003"}, "type": "Feature"}
{"dataset_attributes": {"@spider": "usps_collection_boxes", "spider:collection_time": "2023-10-31T08:25:14.480804"}, "geometry": {"coordinates": [-74.570819, 41.707777], "type": "Point"}, "id": "CjzU5BMRf11Q3sGJAzORCeEk3M0=", "properties": {"@spider": "usps_collection_boxes", "addr:city": "WOODRIDGE", "addr:country": "US", "addr:full": "47 BROADWAY", "addr:postcode": "12789", "addr:state": "NY", "amenity": "post_box", "brand": "United States Postal Service", "brand:wikidata": "Q668687", "collection_times": "Mo-Fr 17:00; Sa 12:00", "name": "USPS COLLECTION BOX - BLUE BOX", "note": "ON 12/24 AND 12/31, THIS BOX MAY BE COLLECTED AS EARLY AS 12 NOON.", "nsi_id": "unitedstatespostalservice-a77078", "operator": "United States Postal Service", "operator:short": "USPS", "operator:type": "public", "operator:wikidata": "Q668687", "ref": "1278900001"}, "type": "Feature"}
{"dataset_attributes": {"@spider": "usps_collection_boxes", "spider:collection_time": "2023-10-31T08:25:14.480804"}, "geometry": {"coordinates": [-74.570819, 41.707777], "type": "Point"}, "id": "zEEBbsNiNjZzElzJYkNXcDVOgsI=", "properties": {"@spider": "usps_collection_boxes", "addr:city": "WOODRIDGE", "addr:country": "US", "addr:full": "47 BROADWAY LBBY SLOT", "addr:postcode": "12789", "addr:state": "NY", "amenity": "post_box", "brand": "United States Postal Service", "brand:wikidata": "Q668687", "collection_times": "Mo-Fr 17:00; Sa 12:00", "name": "USPS COLLECTION BOX - PO LOBBY", "note": "ON 12/24 AND 12/31, THIS BOX MAY BE COLLECTED AS EARLY AS 12 NOON.", "nsi_id": "unitedstatespostalservice-a77078", "operator": "United States Postal Service", "operator:short": "USPS", "operator:type": "public", "operator:wikidata": "Q668687", "ref": "1278900003"}, "type": "Feature"}
{"dataset_attributes": {"@spider": "usps_collection_boxes", "spider:collection_time": "2023-10-31T08:25:14.480804"}, "geometry": {"coordinates": [-74.570992643, 41.707883305], "type": "Point"}, "id": "0ElA0ayLnt7GfQpgOz1SPqt-0dM=", "properties": {"@spider": "usps_collection_boxes", "addr:city": "WOODRIDGE", "addr:country": "US", "addr:full": "47 BROADWAY", "addr:postcode": "12789", "addr:state": "NY", "amenity": "post_box", "brand": "United States Postal Service", "brand:wikidata": "Q668687", "collection_times": "Mo-Fr 17:00; Sa 12:00", "name": "USPS COLLECTION BOX - PO LOBBY", "note": "ON 12/24 AND 12/31, THIS BOX MAY BE COLLECTED AS EARLY AS 12 NOON.", "nsi_id": "unitedstatespostalservice-a77078", "operator": "United States Postal Service", "operator:short": "USPS", "operator:type": "public", "operator:wikidata": "Q668687", "ref": "1278900005"}, "type": "Feature"}
{"dataset_attributes": {"@spider": "usps_collection_boxes", "spider:collection_time": "2023-10-31T08:25:14.480804"}, "geometry": {"coordinates": [-74.477673, 41.572513], "type": "Point"}, "id": "fWz976QFUgBDSHkyAWp2nMXfppE=", "properties": {"@spider": "usps_collection_boxes", "addr:city": "WURTSBORO", "addr:country": "US", "addr:full": "39 SULLIVAN ST", "addr:postcode": "12790", "addr:state": "NY", "amenity": "post_box", "brand": "United States Postal Service", "brand:wikidata": "Q668687", "collection_times": "Mo-Fr 17:00; Sa 12:00", "name": "USPS COLLECTION BOX - BLUE BOX", "note": "ON 12/24 AND 12/31, THIS BOX MAY BE COLLECTED AS EARLY AS 12 NOON.", "nsi_id": "unitedstatespostalservice-a77078", "operator": "United States Postal Service", "operator:short": "USPS", "operator:type": "public", "operator:wikidata": "Q668687", "ref": "1279000002"}, "type": "Feature"}
{"dataset_attributes": {"@spider": "usps_collection_boxes", "spider:collection_time": "2023-10-31T08:25:14.480804"}, "geometry": {"coordinates": [-74.477673, 41.572513], "type": "Point"}, "id": "vx5vQFZmDYF0P8UxT3TAL_GS8zE=", "properties": {"@spider": "usps_collection_boxes", "addr:city": "WURTSBORO", "addr:country": "US", "addr:full": "39 SULLIVAN ST LBBY SLOT", "addr:postcode": "12790", "addr:state": "NY", "amenity": "post_box", "brand": "United States Postal Service", "brand:wikidata": "Q668687", "collection_times": "Mo-Fr 17:00; Sa 12:00", "name": "USPS COLLECTION BOX - PO LOBBY", "note": "ON 12/24 AND 12/31, THIS BOX MAY BE COLLECTED AS EARLY AS 12 NOON.", "nsi_id": "unitedstatespostalservice-a77078", "operator": "United States Postal Service", "operator:short": "USPS", "operator:type": "public", "operator:wikidata": "Q668687", "ref": "1279000003"}, "type": "Feature"}
{"dataset_attributes": {"@spider": "usps_collection_boxes", "spider:collection_time": "2023-10-31T08:25:14.480804"}, "geometry": {"coordinates": [-74.477665906, 41.572505987], "type": "Point"}, "id": "HoWmtVP3YIMMnO88WczUIqJeHsQ=", "properties": {"@spider": "usps_collection_boxes", "addr:city": "WURTSBORO", "addr:country": "US", "addr:full": "39 SULLIVAN ST", "addr:postcode": "12790", "addr:state": "NY", "amenity": "post_box", "brand": "United States Postal Service", "brand:wikidata": "Q668687", "collection_times": "Mo-Fr 17:00; Sa 12:00", "name": "USPS COLLECTION BOX - PO LOBBY", "note": "ON 12/24 AND 12/31, THIS BOX MAY BE COLLECTED AS EARLY AS 12 NOON.", "nsi_id": "unitedstatespostalservice-a77078", "operator": "United States Postal Service", "operator:short": "USPS", "operator:type": "public", "operator:wikidata": "Q668687", "ref": "1279000004"}, "type": "Feature"}
{"dataset_attributes": {"@spider": "usps_collection_boxes", "spider:collection_time": "2023-10-31T08:25:14.480804"}, "geometry": {"coordinates": [-74.890782, 41.804817], "type": "Point"}, "id": "9KHXF8RttBKAWvrrFylp7VLiDZ8=", "properties": {"@spider": "usps_collection_boxes", "addr:city": "YOUNGSVILLE", "addr:country": "US", "addr:full": "4068 STATE ROUTE 52", "addr:postcode": "12791", "addr:state": "NY", "amenity": "post_box", "brand": "United States Postal Service", "brand:wikidata": "Q668687", "collection_times": "Mo-Fr 17:00; Sa 12:00", "name": "USPS COLLECTION BOX - BLUE BOX", "note": "ON 12/24 AND 12/31, THIS BOX MAY BE COLLECTED AS EARLY AS 12 NOON.", "nsi_id": "unitedstatespostalservice-a77078", "operator": "United States Postal Service", "operator:short": "USPS", "operator:type": "public", "operator:wikidata": "Q668687", "ref": "1279100001"}, "type": "Feature"}
{"dataset_attributes": {"@spider": "usps_collection_boxes", "spider:collection_time": "2023-10-31T08:25:14.480804"}, "geometry": {"coordinates": [-74.890782, 41.804817], "type": "Point"}, "id": "Aseu2_cZwSbYjq74VrVRZJuZs2U=", "properties": {"@spider": "usps_collection_boxes", "addr:city": "YOUNGSVILLE", "addr:country": "US", "addr:full": "4068 STATE ROUTE 52 LBBY SLOT", "addr:postcode": "12791", "addr:state": "NY", "amenity": "post_box", "brand": "United States Postal Service", "brand:wikidata": "Q668687", "collection_times": "Mo-Fr 17:00; Sa 12:00", "name": "USPS COLLECTION BOX - PO LOBBY", "note": "ON 12/24 AND 12/31, THIS BOX MAY BE COLLECTED AS EARLY AS 12 NOON.", "nsi_id": "unitedstatespostalservice-a77078", "operator": "United States Postal Service", "operator:short": "USPS", "operator:type": "public", "operator:wikidata": "Q668687", "ref": "1279100002"}, "type": "Feature"}
{"dataset_attributes": {"@spider": "usps_collection_boxes", "spider:collection_time": "2023-10-31T08:25:14.480804"}, "geometry": {"coordinates": [-74.8908932676, 41.8048120385], "type": "Point"}, "id": "K3yHC1th7asQorq7T05owkEXp_4=", "properties": {"@spider": "usps_collection_boxes", "addr:city": "YOUNGSVILLE", "addr:country": "US", "addr:full": "4068 STATE ROUTE 52", "addr:postcode": "12791", "addr:state": "NY", "amenity": "post_box", "brand": "United States Postal Service", "brand:wikidata": "Q668687", "collection_times": "Mo-Fr 17:00; Sa 12:00", "name": "USPS COLLECTION BOX - PO LOBBY", "note": "ON 12/24 AND 12/31, THIS BOX MAY BE COLLECTED AS EARLY AS 12 NOON.", "nsi_id": "unitedstatespostalservice-a77078", "operator": "United States Postal Service", "operator:short": "USPS", "operator:type": "public", "operator:wikidata": "Q668687", "ref": "1279100003"}, "type": "Feature"}
{"dataset_attributes": {"@spider": "usps_collection_boxes", "spider:collection_time": "2023-10-31T08:25:14.480804"}, "geometry": {"coordinates": [-74.9327926, 41.522787], "type": "Point"}, "id": "pSnZBXbkKCyLmNxE_w3wNs9rTks=", "properties": {"@spider": "usps_collection_boxes", "addr:city": "YULAN", "addr:country": "US", "addr:full": "219 AIRPORT RD", "addr:postcode": "12792", "addr:state": "NY", "amenity": "post_box", "brand": "United States Postal Service", "brand:wikidata": "Q668687", "collection_times": "Mo-Sa 12:00", "name": "USPS COLLECTION BOX - BLUE BOX", "nsi_id": "unitedstatespostalservice-a77078", "operator": "United States Postal Service", "operator:short": "USPS", "operator:type": "public", "operator:wikidata": "Q668687", "ref": "1279200001"}, "type": "Feature"}
{"dataset_attributes": {"@spider": "usps_collection_boxes", "spider:collection_time": "2023-10-31T08:25:14.480804"}, "geometry": {"coordinates": [-74.932924, 41.522638], "type": "Point"}, "id": "ruJRxU1BMRXR8-PREOJqK9qCBm8=", "properties": {"@spider": "usps_collection_boxes", "addr:city": "YULAN", "addr:country": "US", "addr:full": "219 AIRPORT RD LBBY SLOT", "addr:postcode": "12792", "addr:state": "NY", "amenity": "post_box", "brand": "United States Postal Service", "brand:wikidata": "Q668687", "collection_times": "Mo-Sa 12:00", "name": "USPS COLLECTION BOX - PO LOBBY", "nsi_id": "unitedstatespostalservice-a77078", "operator": "United States Postal Service", "operator:short": "USPS", "operator:type": "public", "operator:wikidata": "Q668687", "ref": "1279200002"}, "type": "Feature"}
{"dataset_attributes": {"@spider": "usps_collection_boxes", "spider:collection_time": "2023-10-31T08:25:14.480804"}, "geometry": {"coordinates": [-74.932914418, 41.522839544], "type": "Point"}, "id": "Np4FQHe0fcqI-xzYNvGZluvXjag=", "properties": {"@spider": "usps_collection_boxes", "addr:city": "YULAN", "addr:country": "US", "addr:full": "219 AIRPORT RD", "addr:postcode": "12792", "addr:state": "NY", "amenity": "post_box", "brand": "United States Postal Service", "brand:wikidata": "Q668687", "collection_times": "Mo-Sa 12:00", "name": "USPS COLLECTION BOX - PO LOBBY", "nsi_id": "unitedstatespostalservice-a77078", "operator": "United States Postal Service", "operator:short": "USPS", "operator:type": "public", "operator:wikidata": "Q668687", "ref": "1279200003"}, "type": "Feature"}
