{"geometry": {"coordinates": [-76.094375, 42.595815], "type": "Point"}, "id": "ag-V1EjTJhehwn1QCL3DTbxSaMw=", "properties": {"@source_uri": "https://tools.usps.com/UspsToolsRestServices/rest/POLocator/findLocations", "@spider": "usps_collection_boxes", "addr:city": "MCGRAW", "addr:country": "US", "addr:postcode": "13101", "addr:state": "NY", "addr:street_address": "16 MAIN ST", "amenity": "post_box", "collection_times": "Mo-Fr 16:45; Sa 11:30", "note": "ON 12/24 AND 12/31, THIS BOX MAY BE COLLECTED AS EARLY AS 12 NOON.", "nsi_id": "unitedstatespostalservice-a77078", "operator": "United States Postal Service", "operator:short": "USPS", "operator:type": "public", "operator:wikidata": "Q668687", "ref": "1310100001"}, "type": "Feature"}
{"geometry": {"coordinates": [-76.094375, 42.595815], "type": "Point"}, "id": "giBnHPgYr5O0fBKWduo98r2l-0I=", "properties": {"@source_uri": "https://tools.usps.com/UspsToolsRestServices/rest/POLocator/findLocations", "@spider": "usps_collection_boxes", "addr:city": "MCGRAW", "addr:country": "US", "addr:postcode": "13101", "addr:state": "NY", "addr:street_address": "16 MAIN ST", "amenity": "post_box", "collection_times": "Mo-Fr 16:45; Sa 11:30", "indoor": "yes", "note": "ON 12/24 AND 12/31, THIS BOX MAY BE COLLECTED AS EARLY AS 12 NOON.", "nsi_id": "unitedstatespostalservice-a77078", "operator": "United States Postal Service", "operator:short": "USPS", "operator:type": "public", "operator:wikidata": "Q668687", "ref": "1310100002"}, "type": "Feature"}
{"geometry": {"coordinates": [-76.096356184, 42.595160473], "type": "Point"}, "id": "_9QbqkYHyS9-sKYvGZQxIjVpx70=", "properties": {"@source_uri": "https://tools.usps.com/UspsToolsRestServices/rest/POLocator/findLocations", "@spider": "usps_collection_boxes", "addr:city": "MCGRAW", "addr:country": "US", "addr:postcode": "13101", "addr:state": "NY", "addr:street_address": "16 MAIN ST", "amenity": "post_box", "collection_times": "Mo-Fr 16:45; Sa 11:30", "indoor": "yes", "note": "ON 12/24 AND 12/31, THIS BOX MAY BE COLLECTED AS EARLY AS 12 NOON.", "nsi_id": "unitedstatespostalservice-a77078", "operator": "United States Postal Service", "operator:short": "USPS", "operator:type": "public", "operator:wikidata": "Q668687", "ref": "1310100004"}, "type": "Feature"}
{"geometry": {"coordinates": [-76.291266, 42.552033], "type": "Point"}, "id": "epmelyQweoUp4gXU9lXlNQhscF0=", "properties": {"@source_uri": "https://tools.usps.com/UspsToolsRestServices/rest/POLocator/findLocations", "@spider": "usps_collection_boxes", "addr:city": "MC LEAN", "addr:country": "US", "addr:postcode": "13102", "addr:state": "NY", "addr:street_address": "1 SCHOOL ST", "amenity": "post_box", "collection_times": "Mo-Fr 16:00; Sa 11:45", "note": "ON 12/24 AND 12/31, THIS BOX MAY BE COLLECTED AS EARLY AS 12 NOON.", "nsi_id": "unitedstatespostalservice-a77078", "operator": "United States Postal Service", "operator:short": "USPS", "operator:type": "public", "operator:wikidata": "Q668687", "ref": "1310200001"}, "type": "Feature"}
{"geometry": {"coordinates": [-76.29123561, 42.552053101], "type": "Point"}, "id": "o4ZnhcmKJ_ucSZASBrJj7AuitbI=", "properties": {"@source_uri": "https://tools.usps.com/UspsToolsRestServices/rest/POLocator/findLocations", "@spider": "usps_collection_boxes", "addr:city": "MC LEAN", "addr:country": "US", "addr:postcode": "13102", "addr:state": "NY", "addr:street_address": "1 SCHOOL ST", "amenity": "post_box", "collection_times": "Mo-Fr 16:15; Sa 11:45", "indoor": "yes", "note": "ON 12/24 AND 12/31, THIS BOX MAY BE COLLECTED AS EARLY AS 12 NOON.", "nsi_id": "unitedstatespostalservice-a77078", "operator": "United States Postal Service", "operator:short": "USPS", "operator:type": "public", "operator:wikidata": "Q668687", "ref": "1310200003"}, "type": "Feature"}
{"geometry": {"coordinates": [-76.115438, 43.323251], "type": "Point"}, "id": "73hQIdZ0NS3POuTXfApmB5-dibo=", "properties": {"@source_uri": "https://tools.usps.com/UspsToolsRestServices/rest/POLocator/findLocations", "@spider": "usps_collection_boxes", "addr:city": "MALLORY", "addr:country": "US", "addr:postcode": "13103", "addr:state": "NY", "addr:street_address": "77 COUNTY ROUTE 32", "amenity": "post_box", "collection_times": "Mo-Fr 12:00; Sa 11:45", "nsi_id": "unitedstatespostalservice-a77078", "operator": "United States Postal Service", "operator:short": "USPS", "operator:type": "public", "operator:wikidata": "Q668687", "ref": "1310300001"}, "type": "Feature"}
{"geometry": {"coordinates": [-76.115515, 43.323299], "type": "Point"}, "id": "TyZc-F50SxS_FxgRWsQXp5nuEek=", "properties": {"@source_uri": "https://tools.usps.com/UspsToolsRestServices/rest/POLocator/findLocations", "@spider": "usps_collection_boxes", "addr:city": "MALLORY", "addr:country": "US", "addr:postcode": "13103", "addr:state": "NY", "addr:street_address": "77 COUNTY ROUTE 32", "amenity": "post_box", "collection_times": "Mo-Fr 12:00; Sa 11:45", "indoor": "yes", "nsi_id": "unitedstatespostalservice-a77078", "operator": "United States Postal Service", "operator:short": "USPS", "operator:type": "public", "operator:wikidata": "Q668687", "ref": "1310300002"}, "type": "Feature"}
{"geometry": {"coordinates": [-76.115157721, 43.323165839], "type": "Point"}, "id": "-YEwywBvSiJkkC3cu2Q_3QOrSAw=", "properties": {"@source_uri": "https://tools.usps.com/UspsToolsRestServices/rest/POLocator/findLocations", "@spider": "usps_collection_boxes", "addr:city": "MALLORY", "addr:country": "US", "addr:postcode": "13103", "addr:state": "NY", "addr:street_address": "77 COUNTY ROUTE 32", "amenity": "post_box", "collection_times": "Mo-Fr 12:00; Sa 11:45", "indoor": "yes", "nsi_id": "unitedstatespostalservice-a77078", "operator": "United States Postal Service", "operator:short": "USPS", "operator:type": "public", "operator:wikidata": "Q668687", "ref": "1310300003"}, "type": "Feature"}
{"geometry": {"coordinates": [-75.9647046577, 43.0003221649], "type": "Point"}, "id": "6q3GoPMd5eNO2jo8x9kRm8vVc7A=", "properties": {"@source_uri": "https://tools.usps.com/UspsToolsRestServices/rest/POLocator/findLocations", "@spider": "usps_collection_boxes", "addr:city": "MANLIUS", "addr:country": "US", "addr:postcode": "13104", "addr:state": "NY", "addr:street_address": "4721 KEHOE LN", "amenity": "post_box", "collection_times": "Mo-Sa 10:00", "nsi_id": "unitedstatespostalservice-a77078", "operator": "United States Postal Service", "operator:short": "USPS", "operator:type": "public", "operator:wikidata": "Q668687", "ref": "1310400003"}, "type": "Feature"}
{"geometry": {"coordinates": [-75.9833566, 43.004746], "type": "Point"}, "id": "HsmAyygM1RhIGXbMMeuDMEJRM2A=", "properties": {"@source_uri": "https://tools.usps.com/UspsToolsRestServices/rest/POLocator/findLocations", "@spider": "usps_collection_boxes", "addr:city": "MANLIUS", "addr:country": "US", "addr:postcode": "13104", "addr:state": "NY", "addr:street_address": "315 FAYETTE ST", "amenity": "post_box", "collection_times": "Mo-Fr 16:15; Sa 09:30", "note": "ON 12/24 AND 12/31, THIS BOX MAY BE COLLECTED AS EARLY AS 12 NOON.", "nsi_id": "unitedstatespostalservice-a77078", "operator": "United States Postal Service", "operator:short": "USPS", "operator:type": "public", "operator:wikidata": "Q668687", "ref": "1310400004"}, "type": "Feature"}
{"geometry": {"coordinates": [-75.9903762, 42.996873], "type": "Point"}, "id": "Cz-6ubj_iTscX12FtWfQ3P6qkWA=", "properties": {"@source_uri": "https://tools.usps.com/UspsToolsRestServices/rest/POLocator/findLocations", "@spider": "usps_collection_boxes", "addr:city": "MANLIUS", "addr:country": "US", "addr:postcode": "13104", "addr:state": "NY", "addr:street_address": "311 W SENECA ST", "amenity": "post_box", "collection_times": "Mo-Sa 10:00", "nsi_id": "unitedstatespostalservice-a77078", "operator": "United States Postal Service", "operator:short": "USPS", "operator:type": "public", "operator:wikidata": "Q668687", "ref": "1310400006"}, "type": "Feature"}
{"geometry": {"coordinates": [-75.9860637, 42.996951], "type": "Point"}, "id": "FSnQGdVWPXCP5vFrgXlbHlk-2fo=", "properties": {"@source_uri": "https://tools.usps.com/UspsToolsRestServices/rest/POLocator/findLocations", "@spider": "usps_collection_boxes", "addr:city": "MANLIUS", "addr:country": "US", "addr:postcode": "13104", "addr:state": "NY", "addr:street_address": "240 W SENECA ST", "amenity": "post_box", "collection_times": "Mo-Fr 11:00; Sa 10:00", "nsi_id": "unitedstatespostalservice-a77078", "operator": "United States Postal Service", "operator:short": "USPS", "operator:type": "public", "operator:wikidata": "Q668687", "ref": "1310400007"}, "type": "Feature"}
{"geometry": {"coordinates": [-75.9564954, 42.99295], "type": "Point"}, "id": "vCKyc4GLGK_ARTAqMofacFLKy2k=", "properties": {"@source_uri": "https://tools.usps.com/UspsToolsRestServices/rest/POLocator/findLocations", "@spider": "usps_collection_boxes", "addr:city": "MANLIUS", "addr:country": "US", "addr:postcode": "13104", "addr:state": "NY", "addr:street_address": "6 MARKET PL", "amenity": "post_box", "collection_times": "Mo-Fr 16:45; Sa 10:00", "note": "ON 12/24 AND 12/31, THIS BOX MAY BE COLLECTED AS EARLY AS 12 NOON.", "nsi_id": "unitedstatespostalservice-a77078", "operator": "United States Postal Service", "operator:short": "USPS", "operator:type": "public", "operator:wikidata": "Q668687", "ref": "1310400008"}, "type": "Feature"}
{"geometry": {"coordinates": [-75.9665559865, 42.9974952913], "type": "Point"}, "id": "vtPCAJySKP0zTquVY1KLctxe6qY=", "properties": {"@source_uri": "https://tools.usps.com/UspsToolsRestServices/rest/POLocator/findLocations", "@spider": "usps_collection_boxes", "addr:city": "MANLIUS", "addr:country": "US", "addr:postcode": "13104", "addr:state": "NY", "addr:street_address": "8108 CAZENOVIA RD", "amenity": "post_box", "collection_times": "Mo-Fr 16:45; Sa 09:00", "note": "ON 12/24 AND 12/31, THIS BOX MAY BE COLLECTED AS EARLY AS 12 NOON.", "nsi_id": "unitedstatespostalservice-a77078", "operator": "United States Postal Service", "operator:short": "USPS", "operator:type": "public", "operator:wikidata": "Q668687", "ref": "1310400010"}, "type": "Feature"}
{"geometry": {"coordinates": [-75.9781422, 43.001396], "type": "Point"}, "id": "Otw5yMbGRL5Mj4Os5TRYt0NLbpg=", "properties": {"@source_uri": "https://tools.usps.com/UspsToolsRestServices/rest/POLocator/findLocations", "@spider": "usps_collection_boxes", "addr:city": "MANLIUS", "addr:country": "US", "addr:postcode": "13104", "addr:state": "NY", "addr:street_address": "116 E SENECA ST", "amenity": "post_box", "collection_times": "Mo-Fr 16:45; Sa 10:00", "note": "ON 12/24 AND 12/31, THIS BOX MAY BE COLLECTED AS EARLY AS 12 NOON.", "nsi_id": "unitedstatespostalservice-a77078", "operator": "United States Postal Service", "operator:short": "USPS", "operator:type": "public", "operator:wikidata": "Q668687", "ref": "1310400022"}, "type": "Feature"}
{"geometry": {"coordinates": [-75.9811962, 43.001017], "type": "Point"}, "id": "BPr6-h7fxYAUM7zmh7cMlvXTg5U=", "properties": {"@source_uri": "https://tools.usps.com/UspsToolsRestServices/rest/POLocator/findLocations", "@spider": "usps_collection_boxes", "addr:city": "MANLIUS", "addr:country": "US", "addr:postcode": "13104", "addr:state": "NY", "addr:street_address": "119 W SENECA ST", "amenity": "post_box", "collection_times": "Mo-Fr 16:30; Sa 09:30", "note": "ON 12/24 AND 12/31, THIS BOX MAY BE COLLECTED AS EARLY AS 12 NOON.", "nsi_id": "unitedstatespostalservice-a77078", "operator": "United States Postal Service", "operator:short": "USPS", "operator:type": "public", "operator:wikidata": "Q668687", "ref": "1310400024"}, "type": "Feature"}
{"geometry": {"coordinates": [-75.977994, 43.002435], "type": "Point"}, "id": "Bilyr_W6aZpa8cAka26AGcmdRd0=", "properties": {"@source_uri": "https://tools.usps.com/UspsToolsRestServices/rest/POLocator/findLocations", "@spider": "usps_collection_boxes", "addr:city": "MANLIUS", "addr:country": "US", "addr:postcode": "13104", "addr:state": "NY", "addr:street_address": "110 WESLEY ST", "amenity": "post_box", "collection_times": "Mo-Fr 17:00; Sa 15:30", "indoor": "yes", "note": "ON 12/24 AND 12/31, THIS BOX MAY BE COLLECTED AS EARLY AS 12 NOON.", "nsi_id": "unitedstatespostalservice-a77078", "operator": "United States Postal Service", "operator:short": "USPS", "operator:type": "public", "operator:wikidata": "Q668687", "ref": "1310400025"}, "type": "Feature"}
{"geometry": {"coordinates": [-75.9779129624, 43.0025569969], "type": "Point"}, "id": "idvPQ1nwx51V-vMhJEp_d6hBzjk=", "properties": {"@source_uri": "https://tools.usps.com/UspsToolsRestServices/rest/POLocator/findLocations", "@spider": "usps_collection_boxes", "addr:city": "MANLIUS", "addr:country": "US", "addr:postcode": "13104", "addr:state": "NY", "addr:street_address": "110 WESLEY ST", "amenity": "post_box", "collection_times": "Mo-Fr 17:00; Sa 15:30", "note": "ON 12/24 AND 12/31, THIS BOX MAY BE COLLECTED AS EARLY AS 12 NOON.", "nsi_id": "unitedstatespostalservice-a77078", "operator": "United States Postal Service", "operator:short": "USPS", "operator:type": "public", "operator:wikidata": "Q668687", "ref": "1310400027"}, "type": "Feature"}
{"geometry": {"coordinates": [-75.977987598, 43.002419951], "type": "Point"}, "id": "ObgYL-J1-dp5PJULagu_wNw7BM0=", "properties": {"@source_uri": "https://tools.usps.com/UspsToolsRestServices/rest/POLocator/findLocations", "@spider": "usps_collection_boxes", "addr:city": "MANLIUS", "addr:country": "US", "addr:postcode": "13104", "addr:state": "NY", "addr:street_address": "110 WESLEY ST", "amenity": "post_box", "collection_times": "Mo-Fr 17:00; Sa 12:00", "indoor": "yes", "note": "ON 12/24 AND 12/31, THIS BOX MAY BE COLLECTED AS EARLY AS 12 NOON.", "nsi_id": "unitedstatespostalservice-a77078", "operator": "United States Postal Service", "operator:short": "USPS", "operator:type": "public", "operator:wikidata": "Q668687", "ref": "1310400031"}, "type": "Feature"}
{"geometry": {"coordinates": [-76.338411192, 42.982543505], "type": "Point"}, "id": "atM5XFYvTrdBodzCXYeQWrg1ag0=", "properties": {"@source_uri": "https://tools.usps.com/UspsToolsRestServices/rest/POLocator/findLocations", "@spider": "usps_collection_boxes", "addr:city": "MARCELLUS", "addr:country": "US", "addr:postcode": "13108", "addr:state": "NY", "addr:street_address": "9 E MAIN ST", "amenity": "post_box", "collection_times": "Mo-Fr 17:00; Sa 13:00", "indoor": "yes", "note": "ON 12/24 AND 12/31, THIS BOX MAY BE COLLECTED AS EARLY AS 12 NOON.", "nsi_id": "unitedstatespostalservice-a77078", "operator": "United States Postal Service", "operator:short": "USPS", "operator:type": "public", "operator:wikidata": "Q668687", "ref": "1310800001"}, "type": "Feature"}
{"geometry": {"coordinates": [-76.338411192, 42.982543505], "type": "Point"}, "id": "MV0dWtq_3hIWcGrw6-2fL-_tRf4=", "properties": {"@source_uri": "https://tools.usps.com/UspsToolsRestServices/rest/POLocator/findLocations", "@spider": "usps_collection_boxes", "addr:city": "MARCELLUS", "addr:country": "US", "addr:postcode": "13108", "addr:state": "NY", "addr:street_address": "9 E MAIN ST", "amenity": "post_box", "collection_times": "Mo-Fr 17:00; Sa 13:00", "note": "ON 12/24 AND 12/31, THIS BOX MAY BE COLLECTED AS EARLY AS 12 NOON.", "nsi_id": "unitedstatespostalservice-a77078", "operator": "United States Postal Service", "operator:short": "USPS", "operator:type": "public", "operator:wikidata": "Q668687", "ref": "1310800002"}, "type": "Feature"}
{"geometry": {"coordinates": [-76.336482976, 42.984811481], "type": "Point"}, "id": "PwmUKEu0xJdMkJ34eEEDYIxePFw=", "properties": {"@source_uri": "https://tools.usps.com/UspsToolsRestServices/rest/POLocator/findLocations", "@spider": "usps_collection_boxes", "addr:city": "MARCELLUS", "addr:country": "US", "addr:postcode": "13108", "addr:state": "NY", "addr:street_address": "32 MAPLE ST", "amenity": "post_box", "collection_times": "Mo-Sa 10:30", "nsi_id": "unitedstatespostalservice-a77078", "operator": "United States Postal Service", "operator:short": "USPS", "operator:type": "public", "operator:wikidata": "Q668687", "ref": "1310800004"}, "type": "Feature"}
{"geometry": {"coordinates": [-76.3420539, 42.982379], "type": "Point"}, "id": "85FPJpSzKe0V3GJzUVMOq59IAPk=", "properties": {"@source_uri": "https://tools.usps.com/UspsToolsRestServices/rest/POLocator/findLocations", "@spider": "usps_collection_boxes", "addr:city": "MARCELLUS", "addr:country": "US", "addr:postcode": "13108", "addr:state": "NY", "addr:street_address": "1 SLOCOMBE AVE", "amenity": "post_box", "collection_times": "Mo-Sa 10:00", "nsi_id": "unitedstatespostalservice-a77078", "operator": "United States Postal Service", "operator:short": "USPS", "operator:type": "public", "operator:wikidata": "Q668687", "ref": "1310800005"}, "type": "Feature"}
{"geometry": {"coordinates": [-76.3443233, 42.986501], "type": "Point"}, "id": "ZajIyuqmrp_zdixl_9Pt4x4A1ts=", "properties": {"@source_uri": "https://tools.usps.com/UspsToolsRestServices/rest/POLocator/findLocations", "@spider": "usps_collection_boxes", "addr:city": "MARCELLUS", "addr:country": "US", "addr:postcode": "13108", "addr:state": "NY", "addr:street_address": "19 REED PKWY", "amenity": "post_box", "collection_times": "Mo-Sa 10:00", "nsi_id": "unitedstatespostalservice-a77078", "operator": "United States Postal Service", "operator:short": "USPS", "operator:type": "public", "operator:wikidata": "Q668687", "ref": "1310800006"}, "type": "Feature"}
{"geometry": {"coordinates": [-76.3404354, 42.979675], "type": "Point"}, "id": "0-j5cqKydyPbg0ce66E74N2HejQ=", "properties": {"@source_uri": "https://tools.usps.com/UspsToolsRestServices/rest/POLocator/findLocations", "@spider": "usps_collection_boxes", "addr:city": "MARCELLUS", "addr:country": "US", "addr:postcode": "13108", "addr:state": "NY", "addr:street_address": "18 SOUTH ST", "amenity": "post_box", "collection_times": "Mo-Sa 12:00", "nsi_id": "unitedstatespostalservice-a77078", "operator": "United States Postal Service", "operator:short": "USPS", "operator:type": "public", "operator:wikidata": "Q668687", "ref": "1310800007"}, "type": "Feature"}
{"geometry": {"coordinates": [-76.3324538, 42.980727], "type": "Point"}, "id": "WQ96fS4h2gO1dtBBCRNRfW8vYzI=", "properties": {"@source_uri": "https://tools.usps.com/UspsToolsRestServices/rest/POLocator/findLocations", "@spider": "usps_collection_boxes", "addr:city": "MARCELLUS", "addr:country": "US", "addr:postcode": "13108", "addr:state": "NY", "addr:street_address": "2545 PLEASANT VALLEY RD", "amenity": "post_box", "collection_times": "Mo-Sa 11:30", "nsi_id": "unitedstatespostalservice-a77078", "operator": "United States Postal Service", "operator:short": "USPS", "operator:type": "public", "operator:wikidata": "Q668687", "ref": "1310800008"}, "type": "Feature"}
{"geometry": {"coordinates": [-76.338411192, 42.982543505], "type": "Point"}, "id": "M9yPWa1VtpQwwYE9jfzWhsfY5TM=", "properties": {"@source_uri": "https://tools.usps.com/UspsToolsRestServices/rest/POLocator/findLocations", "@spider": "usps_collection_boxes", "addr:city": "MARCELLUS", "addr:country": "US", "addr:postcode": "13108", "addr:state": "NY", "addr:street_address": "9 E MAIN ST", "amenity": "post_box", "collection_times": "Mo-Fr 17:00; Sa 12:00", "indoor": "yes", "note": "ON 12/24 AND 12/31, THIS BOX MAY BE COLLECTED AS EARLY AS 12 NOON.", "nsi_id": "unitedstatespostalservice-a77078", "operator": "United States Postal Service", "operator:short": "USPS", "operator:type": "public", "operator:wikidata": "Q668687", "ref": "1310800009"}, "type": "Feature"}
{"geometry": {"coordinates": [-76.317279, 42.906605], "type": "Point"}, "id": "q3nqYmLba__CkWLrEKnXCrG6wI0=", "properties": {"@source_uri": "https://tools.usps.com/UspsToolsRestServices/rest/POLocator/findLocations", "@spider": "usps_collection_boxes", "addr:city": "MARIETTA", "addr:country": "US", "addr:postcode": "13110", "addr:state": "NY", "addr:street_address": "2796 STATE ROUTE 174", "amenity": "post_box", "collection_times": "Mo-Fr 16:30; Sa 12:00", "note": "ON 12/24 AND 12/31, THIS BOX MAY BE COLLECTED AS EARLY AS 12 NOON.", "nsi_id": "unitedstatespostalservice-a77078", "operator": "United States Postal Service", "operator:short": "USPS", "operator:type": "public", "operator:wikidata": "Q668687", "ref": "1311000001"}, "type": "Feature"}
{"geometry": {"coordinates": [-76.317249, 42.906562], "type": "Point"}, "id": "rwaaZfBRuZmEi-dPW4FK5sGbRbA=", "properties": {"@source_uri": "https://tools.usps.com/UspsToolsRestServices/rest/POLocator/findLocations", "@spider": "usps_collection_boxes", "addr:city": "MARIETTA", "addr:country": "US", "addr:postcode": "13110", "addr:state": "NY", "addr:street_address": "2796 STATE ROUTE 174", "amenity": "post_box", "collection_times": "Mo-Fr 16:30; Sa 12:00", "indoor": "yes", "note": "ON 12/24 AND 12/31, THIS BOX MAY BE COLLECTED AS EARLY AS 12 NOON.", "nsi_id": "unitedstatespostalservice-a77078", "operator": "United States Postal Service", "operator:short": "USPS", "operator:type": "public", "operator:wikidata": "Q668687", "ref": "1311000002"}, "type": "Feature"}
{"geometry": {"coordinates": [-76.317251738, 42.906580364], "type": "Point"}, "id": "Q1svxWtRBtRuHJBbYqc0Wf1jzXY=", "properties": {"@source_uri": "https://tools.usps.com/UspsToolsRestServices/rest/POLocator/findLocations", "@spider": "usps_collection_boxes", "addr:city": "MARIETTA", "addr:country": "US", "addr:postcode": "13110", "addr:state": "NY", "addr:street_address": "2796 STATE ROUTE 174", "amenity": "post_box", "collection_times": "Mo-Fr 16:30; Sa 12:00", "indoor": "yes", "note": "ON 12/24 AND 12/31, THIS BOX MAY BE COLLECTED AS EARLY AS 12 NOON.", "nsi_id": "unitedstatespostalservice-a77078", "operator": "United States Postal Service", "operator:short": "USPS", "operator:type": "public", "operator:wikidata": "Q668687", "ref": "1311000003"}, "type": "Feature"}
{"geometry": {"coordinates": [-76.627999, 43.279569], "type": "Point"}, "id": "3LdK9lBxrMBus17hZyFxRe6Mn-Y=", "properties": {"@source_uri": "https://tools.usps.com/UspsToolsRestServices/rest/POLocator/findLocations", "@spider": "usps_collection_boxes", "addr:city": "MARTVILLE", "addr:country": "US", "addr:postcode": "13111", "addr:state": "NY", "addr:street_address": "15422 STATE ROUTE 104", "amenity": "post_box", "collection_times": "Mo-Fr 15:00; Sa 11:30", "note": "ON 12/24 AND 12/31, THIS BOX MAY BE COLLECTED AS EARLY AS 12 NOON.", "nsi_id": "unitedstatespostalservice-a77078", "operator": "United States Postal Service", "operator:short": "USPS", "operator:type": "public", "operator:wikidata": "Q668687", "ref": "1311100001"}, "type": "Feature"}
{"geometry": {"coordinates": [-76.628046, 43.279572], "type": "Point"}, "id": "DDUEd5eooUGNBnQaNp6dphRzzwU=", "properties": {"@source_uri": "https://tools.usps.com/UspsToolsRestServices/rest/POLocator/findLocations", "@spider": "usps_collection_boxes", "addr:city": "MARTVILLE", "addr:country": "US", "addr:postcode": "13111", "addr:state": "NY", "addr:street_address": "15422 STATE ROUTE 104", "amenity": "post_box", "collection_times": "Mo-Fr 15:00; Sa 11:45", "indoor": "yes", "note": "ON 12/24 AND 12/31, THIS BOX MAY BE COLLECTED AS EARLY AS 12 NOON.", "nsi_id": "unitedstatespostalservice-a77078", "operator": "United States Postal Service", "operator:short": "USPS", "operator:type": "public", "operator:wikidata": "Q668687", "ref": "1311100002"}, "type": "Feature"}
{"geometry": {"coordinates": [-76.628452363, 43.279196504], "type": "Point"}, "id": "9aLl6tjolXuiujoI2epoOPXH9W4=", "properties": {"@source_uri": "https://tools.usps.com/UspsToolsRestServices/rest/POLocator/findLocations", "@spider": "usps_collection_boxes", "addr:city": "MARTVILLE", "addr:country": "US", "addr:postcode": "13111", "addr:state": "NY", "addr:street_address": "15422 STATE ROUTE 104", "amenity": "post_box", "collection_times": "Mo-Fr 15:00; Sa 11:30", "indoor": "yes", "note": "ON 12/24 AND 12/31, THIS BOX MAY BE COLLECTED AS EARLY AS 12 NOON.", "nsi_id": "unitedstatespostalservice-a77078", "operator": "United States Postal Service", "operator:short": "USPS", "operator:type": "public", "operator:wikidata": "Q668687", "ref": "1311100003"}, "type": "Feature"}
{"geometry": {"coordinates": [-76.383413, 43.09656], "type": "Point"}, "id": "LVl9b06-hCRV8Z72iZ_EoNhxu1Y=", "properties": {"@source_uri": "https://tools.usps.com/UspsToolsRestServices/rest/POLocator/findLocations", "@spider": "usps_collection_boxes", "addr:city": "MEMPHIS", "addr:country": "US", "addr:postcode": "13112", "addr:state": "NY", "addr:street_address": "1749 STATE ROUTE 173", "amenity": "post_box", "collection_times": "Mo-Fr 15:00; Sa 11:00", "note": "ON 12/24 AND 12/31, THIS BOX MAY BE COLLECTED AS EARLY AS 12 NOON.", "nsi_id": "unitedstatespostalservice-a77078", "operator": "United States Postal Service", "operator:short": "USPS", "operator:type": "public", "operator:wikidata": "Q668687", "ref": "1311200001"}, "type": "Feature"}
{"geometry": {"coordinates": [-76.383413, 43.09656], "type": "Point"}, "id": "XO1p8qkz4UnsUNQNe8i27AejwvE=", "properties": {"@source_uri": "https://tools.usps.com/UspsToolsRestServices/rest/POLocator/findLocations", "@spider": "usps_collection_boxes", "addr:city": "MEMPHIS", "addr:country": "US", "addr:postcode": "13112", "addr:state": "NY", "addr:street_address": "1749 STATE ROUTE 173", "amenity": "post_box", "collection_times": "Mo-Fr 15:00; Sa 11:00", "indoor": "yes", "note": "ON 12/24 AND 12/31, THIS BOX MAY BE COLLECTED AS EARLY AS 12 NOON.", "nsi_id": "unitedstatespostalservice-a77078", "operator": "United States Postal Service", "operator:short": "USPS", "operator:type": "public", "operator:wikidata": "Q668687", "ref": "1311200003"}, "type": "Feature"}
{"geometry": {"coordinates": [-76.384671999, 43.096515483], "type": "Point"}, "id": "FDxjxmsM05dMl2LHILdGrkten5A=", "properties": {"@source_uri": "https://tools.usps.com/UspsToolsRestServices/rest/POLocator/findLocations", "@spider": "usps_collection_boxes", "addr:city": "MEMPHIS", "addr:country": "US", "addr:postcode": "13112", "addr:state": "NY", "addr:street_address": "1749 STATE ROUTE 173", "amenity": "post_box", "collection_times": "Mo-Fr 15:00; Sa 11:00", "indoor": "yes", "note": "ON 12/24 AND 12/31, THIS BOX MAY BE COLLECTED AS EARLY AS 12 NOON.", "nsi_id": "unitedstatespostalservice-a77078", "operator": "United States Postal Service", "operator:short": "USPS", "operator:type": "public", "operator:wikidata": "Q668687", "ref": "1311200004"}, "type": "Feature"}
{"geometry": {"coordinates": [-76.5368142429, 43.1655207664], "type": "Point"}, "id": "Qt0WX1N8PEQRpkbCtXaFNt57qCM=", "properties": {"@source_uri": "https://tools.usps.com/UspsToolsRestServices/rest/POLocator/findLocations", "@spider": "usps_collection_boxes", "addr:city": "MERIDAN", "addr:country": "US", "addr:postcode": "13113", "addr:state": "NY", "addr:street_address": "3078 ST RT 370", "amenity": "post_box", "collection_times": "Mo-Fr 16:30; Sa 11:30", "note": "ON 12/24 AND 12/31, THIS BOX MAY BE COLLECTED AS EARLY AS 12 NOON.", "nsi_id": "unitedstatespostalservice-a77078", "operator": "United States Postal Service", "operator:short": "USPS", "operator:type": "public", "operator:wikidata": "Q668687", "ref": "1311300001"}, "type": "Feature"}
{"geometry": {"coordinates": [-76.536615, 43.165634], "type": "Point"}, "id": "1bF2832I1EcLoElmx2YeKkIlZkQ=", "properties": {"@source_uri": "https://tools.usps.com/UspsToolsRestServices/rest/POLocator/findLocations", "@spider": "usps_collection_boxes", "addr:city": "MERIDAN", "addr:country": "US", "addr:postcode": "13113", "addr:state": "NY", "addr:street_address": "3078 ST RT 370", "amenity": "post_box", "collection_times": "Mo-Fr 17:00; Sa 12:00", "indoor": "yes", "note": "ON 12/24 AND 12/31, THIS BOX MAY BE COLLECTED AS EARLY AS 12 NOON.", "nsi_id": "unitedstatespostalservice-a77078", "operator": "United States Postal Service", "operator:short": "USPS", "operator:type": "public", "operator:wikidata": "Q668687", "ref": "1311300002"}, "type": "Feature"}
{"geometry": {"coordinates": [-76.536736239, 43.165644853], "type": "Point"}, "id": "POGm9-4sbBMSGmRAmosQ9DqOdtQ=", "properties": {"@source_uri": "https://tools.usps.com/UspsToolsRestServices/rest/POLocator/findLocations", "@spider": "usps_collection_boxes", "addr:city": "MERIDAN", "addr:country": "US", "addr:postcode": "13113", "addr:state": "NY", "addr:street_address": "3078 STATE ROUTE 370", "amenity": "post_box", "collection_times": "Mo-Fr 17:00; Sa 12:00", "indoor": "yes", "note": "ON 12/24 AND 12/31, THIS BOX MAY BE COLLECTED AS EARLY AS 12 NOON.", "nsi_id": "unitedstatespostalservice-a77078", "operator": "United States Postal Service", "operator:short": "USPS", "operator:type": "public", "operator:wikidata": "Q668687", "ref": "1311300003"}, "type": "Feature"}
{"geometry": {"coordinates": [-76.236696, 43.458432], "type": "Point"}, "id": "oELyAo3KNKUP-D38UE2Bj5LQVfM=", "properties": {"@source_uri": "https://tools.usps.com/UspsToolsRestServices/rest/POLocator/findLocations", "@spider": "usps_collection_boxes", "addr:city": "MEXICO", "addr:country": "US", "addr:postcode": "13114", "addr:state": "NY", "addr:street_address": "5640 NORMAN AVE", "amenity": "post_box", "collection_times": "Mo-Fr 16:45; Sa 12:00", "note": "ON 12/24 AND 12/31, THIS BOX MAY BE COLLECTED AS EARLY AS 12 NOON.", "nsi_id": "unitedstatespostalservice-a77078", "operator": "United States Postal Service", "operator:short": "USPS", "operator:type": "public", "operator:wikidata": "Q668687", "ref": "1311400002"}, "type": "Feature"}
{"geometry": {"coordinates": [-76.236731, 43.458414], "type": "Point"}, "id": "7qMBaR41uGTxsxZ_neNLhjFxWBY=", "properties": {"@source_uri": "https://tools.usps.com/UspsToolsRestServices/rest/POLocator/findLocations", "@spider": "usps_collection_boxes", "addr:city": "MEXICO", "addr:country": "US", "addr:postcode": "13114", "addr:state": "NY", "addr:street_address": "5640 NORMAN AVE", "amenity": "post_box", "collection_times": "Mo-Fr 17:00; Sa 12:00", "indoor": "yes", "note": "ON 12/24 AND 12/31, THIS BOX MAY BE COLLECTED AS EARLY AS 12 NOON.", "nsi_id": "unitedstatespostalservice-a77078", "operator": "United States Postal Service", "operator:short": "USPS", "operator:type": "public", "operator:wikidata": "Q668687", "ref": "1311400003"}, "type": "Feature"}
{"geometry": {"coordinates": [-76.236782189, 43.459659031], "type": "Point"}, "id": "xMTMDaAssdy85Kkg153lf7KIOLk=", "properties": {"@source_uri": "https://tools.usps.com/UspsToolsRestServices/rest/POLocator/findLocations", "@spider": "usps_collection_boxes", "addr:city": "MEXICO", "addr:country": "US", "addr:postcode": "13114", "addr:state": "NY", "addr:street_address": "5640 NORMAN AVE", "amenity": "post_box", "collection_times": "Mo-Fr 17:00; Sa 12:00", "indoor": "yes", "note": "ON 12/24 AND 12/31, THIS BOX MAY BE COLLECTED AS EARLY AS 12 NOON.", "nsi_id": "unitedstatespostalservice-a77078", "operator": "United States Postal Service", "operator:short": "USPS", "operator:type": "public", "operator:wikidata": "Q668687", "ref": "1311400004"}, "type": "Feature"}
{"geometry": {"coordinates": [-76.474208, 43.398285], "type": "Point"}, "id": "X7K2KnKnQpjCH9U1QexkU4gttqU=", "properties": {"@source_uri": "https://tools.usps.com/UspsToolsRestServices/rest/POLocator/findLocations", "@spider": "usps_collection_boxes", "addr:city": "MINETTO", "addr:country": "US", "addr:postcode": "13115", "addr:state": "NY", "addr:street_address": "10 COUNTY ROUTE 24", "amenity": "post_box", "collection_times": "Mo-Fr 17:00; Sa 12:00", "note": "ON 12/24 AND 12/31, THIS BOX MAY BE COLLECTED AS EARLY AS 12 NOON.", "nsi_id": "unitedstatespostalservice-a77078", "operator": "United States Postal Service", "operator:short": "USPS", "operator:type": "public", "operator:wikidata": "Q668687", "ref": "1311500001"}, "type": "Feature"}
{"geometry": {"coordinates": [-76.47433, 43.398254], "type": "Point"}, "id": "CAcHywiKsG3yRXNZydz0FvHQzao=", "properties": {"@source_uri": "https://tools.usps.com/UspsToolsRestServices/rest/POLocator/findLocations", "@spider": "usps_collection_boxes", "addr:city": "MINETTO", "addr:country": "US", "addr:postcode": "13115", "addr:state": "NY", "addr:street_address": "10 COUNTY ROUTE 24", "amenity": "post_box", "collection_times": "Mo-Fr 17:15; Sa 12:15", "indoor": "yes", "note": "ON 12/24 AND 12/31, THIS BOX MAY BE COLLECTED AS EARLY AS 12 NOON.", "nsi_id": "unitedstatespostalservice-a77078", "operator": "United States Postal Service", "operator:short": "USPS", "operator:type": "public", "operator:wikidata": "Q668687", "ref": "1311500003"}, "type": "Feature"}
{"geometry": {"coordinates": [-76.474151057, 43.398282457], "type": "Point"}, "id": "UcNBNDImbot6Gv_loTQ16ILNlgo=", "properties": {"@source_uri": "https://tools.usps.com/UspsToolsRestServices/rest/POLocator/findLocations", "@spider": "usps_collection_boxes", "addr:city": "MINETTO", "addr:country": "US", "addr:postcode": "13115", "addr:state": "NY", "addr:street_address": "10 COUNTY ROUTE 24", "amenity": "post_box", "collection_times": "Mo-Fr 17:00; Sa 12:00", "indoor": "yes", "note": "ON 12/24 AND 12/31, THIS BOX MAY BE COLLECTED AS EARLY AS 12 NOON.", "nsi_id": "unitedstatespostalservice-a77078", "operator": "United States Postal Service", "operator:short": "USPS", "operator:type": "public", "operator:wikidata": "Q668687", "ref": "1311500004"}, "type": "Feature"}
{"geometry": {"coordinates": [-76.001523, 43.074862], "type": "Point"}, "id": "6EvCXQjpL63SmLTRXyndrYr3dss=", "properties": {"@source_uri": "https://tools.usps.com/UspsToolsRestServices/rest/POLocator/findLocations", "@spider": "usps_collection_boxes", "addr:city": "MINOA", "addr:country": "US", "addr:postcode": "13116", "addr:state": "NY", "addr:street_address": "115 N MAIN ST", "amenity": "post_box", "collection_times": "Mo-Fr 17:00; Sa 11:00", "note": "ON 12/24 AND 12/31, THIS BOX MAY BE COLLECTED AS EARLY AS 12 NOON.", "nsi_id": "unitedstatespostalservice-a77078", "operator": "United States Postal Service", "operator:short": "USPS", "operator:type": "public", "operator:wikidata": "Q668687", "ref": "1311600001"}, "type": "Feature"}
{"geometry": {"coordinates": [-76.001523, 43.074862], "type": "Point"}, "id": "pljKVwUe9QnkR9cHJvPrn-FBt9s=", "properties": {"@source_uri": "https://tools.usps.com/UspsToolsRestServices/rest/POLocator/findLocations", "@spider": "usps_collection_boxes", "addr:city": "MINOA", "addr:country": "US", "addr:postcode": "13116", "addr:state": "NY", "addr:street_address": "115 N MAIN ST", "amenity": "post_box", "collection_times": "Mo-Fr 17:00; Sa 11:00", "indoor": "yes", "note": "ON 12/24 AND 12/31, THIS BOX MAY BE COLLECTED AS EARLY AS 12 NOON.", "nsi_id": "unitedstatespostalservice-a77078", "operator": "United States Postal Service", "operator:short": "USPS", "operator:type": "public", "operator:wikidata": "Q668687", "ref": "1311600017"}, "type": "Feature"}
{"geometry": {"coordinates": [-76.001422541, 43.075108582], "type": "Point"}, "id": "-1dCner3JBnxqU2o0ts03GfoggQ=", "properties": {"@source_uri": "https://tools.usps.com/UspsToolsRestServices/rest/POLocator/findLocations", "@spider": "usps_collection_boxes", "addr:city": "MINOA", "addr:country": "US", "addr:postcode": "13116", "addr:state": "NY", "addr:street_address": "115 N MAIN ST", "amenity": "post_box", "collection_times": "Mo-Fr 17:00; Sa 11:00", "indoor": "yes", "note": "ON 12/24 AND 12/31, THIS BOX MAY BE COLLECTED AS EARLY AS 12 NOON.", "nsi_id": "unitedstatespostalservice-a77078", "operator": "United States Postal Service", "operator:short": "USPS", "operator:type": "public", "operator:wikidata": "Q668687", "ref": "1311600019"}, "type": "Feature"}
{"geometry": {"coordinates": [-76.702557281, 43.009875124], "type": "Point"}, "id": "I1BLQI99ehOPhfqdgshWIg4-z8s=", "properties": {"@source_uri": "https://tools.usps.com/UspsToolsRestServices/rest/POLocator/findLocations", "@spider": "usps_collection_boxes", "addr:city": "MONTEZUMA", "addr:country": "US", "addr:postcode": "13117", "addr:state": "NY", "addr:street_address": "8109 STATE ROUTE 90", "amenity": "post_box", "collection_times": "Mo-Fr 16:30; Sa 11:00", "note": "ON 12/24 AND 12/31, THIS BOX MAY BE COLLECTED AS EARLY AS 12 NOON.", "nsi_id": "unitedstatespostalservice-a77078", "operator": "United States Postal Service", "operator:short": "USPS", "operator:type": "public", "operator:wikidata": "Q668687", "ref": "1311700001"}, "type": "Feature"}
{"geometry": {"coordinates": [-76.702527, 43.009884], "type": "Point"}, "id": "Fwo2r53kGHhUiipYfx7-Nr04zeE=", "properties": {"@source_uri": "https://tools.usps.com/UspsToolsRestServices/rest/POLocator/findLocations", "@spider": "usps_collection_boxes", "addr:city": "MONTEZUMA", "addr:country": "US", "addr:postcode": "13117", "addr:state": "NY", "addr:street_address": "8109 ROUTE 90", "amenity": "post_box", "collection_times": "Mo-Fr 16:30; Sa 11:15", "indoor": "yes", "note": "ON 12/24 AND 12/31, THIS BOX MAY BE COLLECTED AS EARLY AS 12 NOON.", "nsi_id": "unitedstatespostalservice-a77078", "operator": "United States Postal Service", "operator:short": "USPS", "operator:type": "public", "operator:wikidata": "Q668687", "ref": "1311700002"}, "type": "Feature"}
{"geometry": {"coordinates": [-76.702557281, 43.009875124], "type": "Point"}, "id": "Se59aGbrG1lmiQVM9yy-qcLufMM=", "properties": {"@source_uri": "https://tools.usps.com/UspsToolsRestServices/rest/POLocator/findLocations", "@spider": "usps_collection_boxes", "addr:city": "MONTEZUMA", "addr:country": "US", "addr:postcode": "13117", "addr:state": "NY", "addr:street_address": "8109 STATE ROUTE 90", "amenity": "post_box", "collection_times": "Mo-Fr 16:30; Sa 11:15", "indoor": "yes", "note": "ON 12/24 AND 12/31, THIS BOX MAY BE COLLECTED AS EARLY AS 12 NOON.", "nsi_id": "unitedstatespostalservice-a77078", "operator": "United States Postal Service", "operator:short": "USPS", "operator:type": "public", "operator:wikidata": "Q668687", "ref": "1311700003"}, "type": "Feature"}
{"geometry": {"coordinates": [-76.421308, 42.710662], "type": "Point"}, "id": "vuKrxtFFvFrvfPUNmFRUl7WWW4k=", "properties": {"@source_uri": "https://tools.usps.com/UspsToolsRestServices/rest/POLocator/findLocations", "@spider": "usps_collection_boxes", "addr:city": "MORAVIA", "addr:country": "US", "addr:postcode": "13118", "addr:state": "NY", "addr:street_address": "100 S MAIN ST", "amenity": "post_box", "collection_times": "Mo-Fr 16:20; Sa 11:50", "note": "ON 12/24 AND 12/31, THIS BOX MAY BE COLLECTED AS EARLY AS 12 NOON.", "nsi_id": "unitedstatespostalservice-a77078", "operator": "United States Postal Service", "operator:short": "USPS", "operator:type": "public", "operator:wikidata": "Q668687", "ref": "1311800001"}, "type": "Feature"}
{"geometry": {"coordinates": [-76.421308, 42.710662], "type": "Point"}, "id": "Jyv6wBpTWoWQCgRjLwKcrXuX9vk=", "properties": {"@source_uri": "https://tools.usps.com/UspsToolsRestServices/rest/POLocator/findLocations", "@spider": "usps_collection_boxes", "addr:city": "MORAVIA", "addr:country": "US", "addr:postcode": "13118", "addr:state": "NY", "addr:street_address": "100 S MAIN ST", "amenity": "post_box", "collection_times": "Mo-Fr 16:30; Sa 12:00", "indoor": "yes", "note": "ON 12/24 AND 12/31, THIS BOX MAY BE COLLECTED AS EARLY AS 12 NOON.", "nsi_id": "unitedstatespostalservice-a77078", "operator": "United States Postal Service", "operator:short": "USPS", "operator:type": "public", "operator:wikidata": "Q668687", "ref": "1311800003"}, "type": "Feature"}
{"geometry": {"coordinates": [-76.421237221, 42.710410047], "type": "Point"}, "id": "nXX-6qxj209pgPqL_A0qnY-LIuI=", "properties": {"@source_uri": "https://tools.usps.com/UspsToolsRestServices/rest/POLocator/findLocations", "@spider": "usps_collection_boxes", "addr:city": "MORAVIA", "addr:country": "US", "addr:postcode": "13118", "addr:state": "NY", "addr:street_address": "100 S MAIN ST", "amenity": "post_box", "collection_times": "Mo-Fr 16:45; Sa 12:00", "indoor": "yes", "note": "ON 12/24 AND 12/31, THIS BOX MAY BE COLLECTED AS EARLY AS 12 NOON.", "nsi_id": "unitedstatespostalservice-a77078", "operator": "United States Postal Service", "operator:short": "USPS", "operator:type": "public", "operator:wikidata": "Q668687", "ref": "1311800005"}, "type": "Feature"}
{"geometry": {"coordinates": [-76.141364, 42.975377], "type": "Point"}, "id": "LeYOXcT-cMqPriCxSOvgjgM3x3Y=", "properties": {"@source_uri": "https://tools.usps.com/UspsToolsRestServices/rest/POLocator/findLocations", "@spider": "usps_collection_boxes", "addr:city": "NEDROW", "addr:country": "US", "addr:postcode": "13120", "addr:state": "NY", "addr:street_address": "6709 S SALINA ST", "amenity": "post_box", "collection_times": "Mo-Fr 17:00; Sa 11:30", "note": "ON 12/24 AND 12/31, THIS BOX MAY BE COLLECTED AS EARLY AS 12 NOON.", "nsi_id": "unitedstatespostalservice-a77078", "operator": "United States Postal Service", "operator:short": "USPS", "operator:type": "public", "operator:wikidata": "Q668687", "ref": "1312000001"}, "type": "Feature"}
{"geometry": {"coordinates": [-76.1417631, 42.97765], "type": "Point"}, "id": "D1iQMIwMDjQ4VaJInRMEMQffL6I=", "properties": {"@source_uri": "https://tools.usps.com/UspsToolsRestServices/rest/POLocator/findLocations", "@spider": "usps_collection_boxes", "addr:city": "NEDROW", "addr:country": "US", "addr:postcode": "13120", "addr:state": "NY", "addr:street_address": "6408 S SALINA ST", "amenity": "post_box", "collection_times": "Mo-Sa 09:00", "nsi_id": "unitedstatespostalservice-a77078", "operator": "United States Postal Service", "operator:short": "USPS", "operator:type": "public", "operator:wikidata": "Q668687", "ref": "1312000003"}, "type": "Feature"}
{"geometry": {"coordinates": [-76.14141, 42.975464], "type": "Point"}, "id": "nAP8XBbfye49YLVaBwImsMK4JWE=", "properties": {"@source_uri": "https://tools.usps.com/UspsToolsRestServices/rest/POLocator/findLocations", "@spider": "usps_collection_boxes", "addr:city": "NEDROW", "addr:country": "US", "addr:postcode": "13120", "addr:state": "NY", "addr:street_address": "6709 S SALINA ST", "amenity": "post_box", "collection_times": "Mo-Fr 17:00; Sa 11:30", "indoor": "yes", "note": "ON 12/24 AND 12/31, THIS BOX MAY BE COLLECTED AS EARLY AS 12 NOON.", "nsi_id": "unitedstatespostalservice-a77078", "operator": "United States Postal Service", "operator:short": "USPS", "operator:type": "public", "operator:wikidata": "Q668687", "ref": "1312000008"}, "type": "Feature"}
{"geometry": {"coordinates": [-76.14141, 42.975464], "type": "Point"}, "id": "FBiyia-18rc6PWTyTWF_CqIDmw0=", "properties": {"@source_uri": "https://tools.usps.com/UspsToolsRestServices/rest/POLocator/findLocations", "@spider": "usps_collection_boxes", "addr:city": "NEDROW", "addr:country": "US", "addr:postcode": "13120", "addr:state": "NY", "addr:street_address": "6709 S SALINA ST", "amenity": "post_box", "collection_times": "Mo-Fr 17:00; Sa 11:30", "note": "ON 12/24 AND 12/31, THIS BOX MAY BE COLLECTED AS EARLY AS 12 NOON.", "nsi_id": "unitedstatespostalservice-a77078", "operator": "United States Postal Service", "operator:short": "USPS", "operator:type": "public", "operator:wikidata": "Q668687", "ref": "1312000009"}, "type": "Feature"}
{"geometry": {"coordinates": [-76.141362849, 42.975334016], "type": "Point"}, "id": "WXjpbEDq9QGZzSMANU78Jm9ojKo=", "properties": {"@source_uri": "https://tools.usps.com/UspsToolsRestServices/rest/POLocator/findLocations", "@spider": "usps_collection_boxes", "addr:city": "NEDROW", "addr:country": "US", "addr:postcode": "13120", "addr:state": "NY", "addr:street_address": "6709 S SALINA ST", "amenity": "post_box", "collection_times": "Mo-Fr 17:00; Sa 11:30", "indoor": "yes", "note": "ON 12/24 AND 12/31, THIS BOX MAY BE COLLECTED AS EARLY AS 12 NOON.", "nsi_id": "unitedstatespostalservice-a77078", "operator": "United States Postal Service", "operator:short": "USPS", "operator:type": "public", "operator:wikidata": "Q668687", "ref": "1312000010"}, "type": "Feature"}
{"geometry": {"coordinates": [-76.3145605364, 43.4797192986], "type": "Point"}, "id": "_nSUMuHb4ui38JV-f86QVCGsbgI=", "properties": {"@source_uri": "https://tools.usps.com/UspsToolsRestServices/rest/POLocator/findLocations", "@spider": "usps_collection_boxes", "addr:city": "NEW HAVEN", "addr:country": "US", "addr:postcode": "13121", "addr:state": "NY", "addr:street_address": "4250 STATE ROUTE 104", "amenity": "post_box", "collection_times": "Mo-Fr 16:30; Sa 11:10", "note": "ON 12/24 AND 12/31, THIS BOX MAY BE COLLECTED AS EARLY AS 12 NOON.", "nsi_id": "unitedstatespostalservice-a77078", "operator": "United States Postal Service", "operator:short": "USPS", "operator:type": "public", "operator:wikidata": "Q668687", "ref": "1312100001"}, "type": "Feature"}
{"geometry": {"coordinates": [-76.314484, 43.479547], "type": "Point"}, "id": "Ju5YVmWJvpCOrkLBhDeQeI86qDk=", "properties": {"@source_uri": "https://tools.usps.com/UspsToolsRestServices/rest/POLocator/findLocations", "@spider": "usps_collection_boxes", "addr:city": "NEW HAVEN", "addr:country": "US", "addr:postcode": "13121", "addr:state": "NY", "addr:street_address": "4250 STATE ROUTE 104", "amenity": "post_box", "collection_times": "Mo-Fr 16:30; Sa 11:10", "indoor": "yes", "note": "ON 12/24 AND 12/31, THIS BOX MAY BE COLLECTED AS EARLY AS 12 NOON.", "nsi_id": "unitedstatespostalservice-a77078", "operator": "United States Postal Service", "operator:short": "USPS", "operator:type": "public", "operator:wikidata": "Q668687", "ref": "1312100002"}, "type": "Feature"}
{"geometry": {"coordinates": [-76.314416653, 43.479549282], "type": "Point"}, "id": "rYljnV4NiBYBDmt1BlD_KxICFDo=", "properties": {"@source_uri": "https://tools.usps.com/UspsToolsRestServices/rest/POLocator/findLocations", "@spider": "usps_collection_boxes", "addr:city": "NEW HAVEN", "addr:country": "US", "addr:postcode": "13121", "addr:state": "NY", "addr:street_address": "4250 STATE ROUTE 104", "amenity": "post_box", "collection_times": "Mo-Fr 16:30; Sa 11:30", "indoor": "yes", "note": "ON 12/24 AND 12/31, THIS BOX MAY BE COLLECTED AS EARLY AS 12 NOON.", "nsi_id": "unitedstatespostalservice-a77078", "operator": "United States Postal Service", "operator:short": "USPS", "operator:type": "public", "operator:wikidata": "Q668687", "ref": "1312100003"}, "type": "Feature"}
{"geometry": {"coordinates": [-75.8542456, 42.847134], "type": "Point"}, "id": "hYa2D4mOGauNAI8yUEck_F_DATg=", "properties": {"@source_uri": "https://tools.usps.com/UspsToolsRestServices/rest/POLocator/findLocations", "@spider": "usps_collection_boxes", "addr:city": "NEW WOODSTOCK", "addr:country": "US", "addr:postcode": "13122", "addr:state": "NY", "addr:street_address": "2607 SCHOOL ST", "amenity": "post_box", "collection_times": "Mo-Fr 11:30; Sa 11:00", "nsi_id": "unitedstatespostalservice-a77078", "operator": "United States Postal Service", "operator:short": "USPS", "operator:type": "public", "operator:wikidata": "Q668687", "ref": "1312200001"}, "type": "Feature"}
{"geometry": {"coordinates": [-75.852564, 42.845158], "type": "Point"}, "id": "LA3ZDyewoQivpmy3_6PuczPfy9g=", "properties": {"@source_uri": "https://tools.usps.com/UspsToolsRestServices/rest/POLocator/findLocations", "@spider": "usps_collection_boxes", "addr:city": "NEW WOODSTOCK", "addr:country": "US", "addr:postcode": "13122", "addr:state": "NY", "addr:street_address": "2607 SCHOOL ST", "amenity": "post_box", "collection_times": "Mo-Fr 11:30; Sa 11:00", "indoor": "yes", "nsi_id": "unitedstatespostalservice-a77078", "operator": "United States Postal Service", "operator:short": "USPS", "operator:type": "public", "operator:wikidata": "Q668687", "ref": "1312200003"}, "type": "Feature"}
{"geometry": {"coordinates": [-75.853993879, 42.847637439], "type": "Point"}, "id": "g7hxE-TcSMcaKqIC4sW1LpWU7jk=", "properties": {"@source_uri": "https://tools.usps.com/UspsToolsRestServices/rest/POLocator/findLocations", "@spider": "usps_collection_boxes", "addr:city": "NEW WOODSTOCK", "addr:country": "US", "addr:postcode": "13122", "addr:state": "NY", "addr:street_address": "2607 SCHOOL ST", "amenity": "post_box", "collection_times": "Mo-Fr 11:30; Sa 11:00", "indoor": "yes", "nsi_id": "unitedstatespostalservice-a77078", "operator": "United States Postal Service", "operator:short": "USPS", "operator:type": "public", "operator:wikidata": "Q668687", "ref": "1312200004"}, "type": "Feature"}
{"geometry": {"coordinates": [-75.753477, 43.227862], "type": "Point"}, "id": "zSBfOEjhRlksCzG5mhEcXjharyE=", "properties": {"@source_uri": "https://tools.usps.com/UspsToolsRestServices/rest/POLocator/findLocations", "@spider": "usps_collection_boxes", "addr:city": "NORTH BAY", "addr:country": "US", "addr:postcode": "13123", "addr:state": "NY", "addr:street_address": "2079 STATE ROUTE 49", "amenity": "post_box", "collection_times": "Mo-Fr 12:00; Sa 11:45", "nsi_id": "unitedstatespostalservice-a77078", "operator": "United States Postal Service", "operator:short": "USPS", "operator:type": "public", "operator:wikidata": "Q668687", "ref": "1312300001"}, "type": "Feature"}
{"geometry": {"coordinates": [-75.753587, 43.227813], "type": "Point"}, "id": "rsnRg8_a_S1mCSHROi4Cx1wQ5LA=", "properties": {"@source_uri": "https://tools.usps.com/UspsToolsRestServices/rest/POLocator/findLocations", "@spider": "usps_collection_boxes", "addr:city": "NORTH BAY", "addr:country": "US", "addr:postcode": "13123", "addr:state": "NY", "addr:street_address": "2079 STATE ROUTE 49", "amenity": "post_box", "collection_times": "Mo-Fr 12:00; Sa 11:45", "indoor": "yes", "nsi_id": "unitedstatespostalservice-a77078", "operator": "United States Postal Service", "operator:short": "USPS", "operator:type": "public", "operator:wikidata": "Q668687", "ref": "1312300003"}, "type": "Feature"}
{"geometry": {"coordinates": [-75.749337477, 43.229574029], "type": "Point"}, "id": "j1UXwMu9nS7AVBrvK3jXfR2qizU=", "properties": {"@source_uri": "https://tools.usps.com/UspsToolsRestServices/rest/POLocator/findLocations", "@spider": "usps_collection_boxes", "addr:city": "NORTH BAY", "addr:country": "US", "addr:postcode": "13123", "addr:state": "NY", "addr:street_address": "2079 STATE ROUTE 49", "amenity": "post_box", "collection_times": "Mo-Fr 12:00; Sa 11:45", "indoor": "yes", "nsi_id": "unitedstatespostalservice-a77078", "operator": "United States Postal Service", "operator:short": "USPS", "operator:type": "public", "operator:wikidata": "Q668687", "ref": "1312300006"}, "type": "Feature"}
{"geometry": {"coordinates": [-75.820635, 42.62225], "type": "Point"}, "id": "rREdOb8rOhnWcpNmh2s2GFb8uUs=", "properties": {"@source_uri": "https://tools.usps.com/UspsToolsRestServices/rest/POLocator/findLocations", "@spider": "usps_collection_boxes", "addr:city": "NORTH PITCHER", "addr:country": "US", "addr:postcode": "13124", "addr:state": "NY", "addr:street_address": "1027 ST RT 26", "amenity": "post_box", "collection_times": "Mo-Fr 10:30; Sa 11:45", "indoor": "yes", "nsi_id": "unitedstatespostalservice-a77078", "operator": "United States Postal Service", "operator:short": "USPS", "operator:type": "public", "operator:wikidata": "Q668687", "ref": "1312400002"}, "type": "Feature"}
{"geometry": {"coordinates": [-75.8198872, 42.622763], "type": "Point"}, "id": "4xz2rtMaD4mVbU2LdiSWe6b9wsA=", "properties": {"@source_uri": "https://tools.usps.com/UspsToolsRestServices/rest/POLocator/findLocations", "@spider": "usps_collection_boxes", "addr:city": "NORTH PITCHER", "addr:country": "US", "addr:postcode": "13124", "addr:state": "NY", "addr:street_address": "1027 ST RT 26", "amenity": "post_box", "collection_times": "Mo-Fr 16:15; Sa 11:50", "note": "ON 12/24 AND 12/31, THIS BOX MAY BE COLLECTED AS EARLY AS 12 NOON.", "nsi_id": "unitedstatespostalservice-a77078", "operator": "United States Postal Service", "operator:short": "USPS", "operator:type": "public", "operator:wikidata": "Q668687", "ref": "1312400003"}, "type": "Feature"}
{"geometry": {"coordinates": [-75.819548753, 42.622925099], "type": "Point"}, "id": "uFPlcoWMTS61HRxKQqssSafEuso=", "properties": {"@source_uri": "https://tools.usps.com/UspsToolsRestServices/rest/POLocator/findLocations", "@spider": "usps_collection_boxes", "addr:city": "NORTH PITCHER", "addr:country": "US", "addr:postcode": "13124", "addr:state": "NY", "addr:street_address": "1027 STATE HIGHWAY 26", "amenity": "post_box", "collection_times": "Mo-Fr 10:30; Sa 11:45", "indoor": "yes", "nsi_id": "unitedstatespostalservice-a77078", "operator": "United States Postal Service", "operator:short": "USPS", "operator:type": "public", "operator:wikidata": "Q668687", "ref": "1312400004"}, "type": "Feature"}
{"geometry": {"coordinates": [-76.5167119, 43.457772], "type": "Point"}, "id": "ABxSMvH0ddiw5Xu6HM869CRpzps=", "properties": {"@source_uri": "https://tools.usps.com/UspsToolsRestServices/rest/POLocator/findLocations", "@spider": "usps_collection_boxes", "addr:city": "OSWEGO", "addr:country": "US", "addr:postcode": "13126", "addr:state": "NY", "addr:street_address": "81 W 5TH ST", "amenity": "post_box", "collection_times": "Mo-Sa 10:00", "nsi_id": "unitedstatespostalservice-a77078", "operator": "United States Postal Service", "operator:short": "USPS", "operator:type": "public", "operator:wikidata": "Q668687", "ref": "1312600004"}, "type": "Feature"}
{"geometry": {"coordinates": [-76.5129278, 43.453188], "type": "Point"}, "id": "ca5XVJ9uKRPCL_7TKTfxrpZXVkU=", "properties": {"@source_uri": "https://tools.usps.com/UspsToolsRestServices/rest/POLocator/findLocations", "@spider": "usps_collection_boxes", "addr:city": "OSWEGO", "addr:country": "US", "addr:postcode": "13126", "addr:state": "NY", "addr:street_address": "47 W MOHAWK ST", "amenity": "post_box", "collection_times": "Mo-Fr 12:00; Sa 11:00", "nsi_id": "unitedstatespostalservice-a77078", "operator": "United States Postal Service", "operator:short": "USPS", "operator:type": "public", "operator:wikidata": "Q668687", "ref": "1312600006"}, "type": "Feature"}
{"geometry": {"coordinates": [-76.4732023, 43.454367], "type": "Point"}, "id": "gJlhgtXJ9JqwcupB8o2-0NrThcs=", "properties": {"@source_uri": "https://tools.usps.com/UspsToolsRestServices/rest/POLocator/findLocations", "@spider": "usps_collection_boxes", "addr:city": "OSWEGO", "addr:country": "US", "addr:postcode": "13126", "addr:state": "NY", "addr:street_address": "24 BIRCH LN", "amenity": "post_box", "collection_times": "Mo-Sa 12:00", "nsi_id": "unitedstatespostalservice-a77078", "operator": "United States Postal Service", "operator:short": "USPS", "operator:type": "public", "operator:wikidata": "Q668687", "ref": "1312600014"}, "type": "Feature"}
{"geometry": {"coordinates": [-76.5166147, 43.4507], "type": "Point"}, "id": "djEnwjl-k3eIGnus4G1ek189Z34=", "properties": {"@source_uri": "https://tools.usps.com/UspsToolsRestServices/rest/POLocator/findLocations", "@spider": "usps_collection_boxes", "addr:city": "OSWEGO", "addr:country": "US", "addr:postcode": "13126", "addr:state": "NY", "addr:street_address": "101 W UTICA ST", "amenity": "post_box", "collection_times": "Mo-Sa 10:00", "nsi_id": "unitedstatespostalservice-a77078", "operator": "United States Postal Service", "operator:short": "USPS", "operator:type": "public", "operator:wikidata": "Q668687", "ref": "1312600015"}, "type": "Feature"}
{"geometry": {"coordinates": [-76.5102788, 43.454934], "type": "Point"}, "id": "UTA-YH-KPhbsrkiLXMha8DnisGc=", "properties": {"@source_uri": "https://tools.usps.com/UspsToolsRestServices/rest/POLocator/findLocations", "@spider": "usps_collection_boxes", "addr:city": "OSWEGO", "addr:country": "US", "addr:postcode": "13126", "addr:state": "NY", "addr:street_address": "225 W 1ST ST", "amenity": "post_box", "collection_times": "Mo-Sa 10:00", "nsi_id": "unitedstatespostalservice-a77078", "operator": "United States Postal Service", "operator:short": "USPS", "operator:type": "public", "operator:wikidata": "Q668687", "ref": "1312600016"}, "type": "Feature"}
{"geometry": {"coordinates": [-76.4962404, 43.459251], "type": "Point"}, "id": "GjaTgkDKOpnx4YK2VO714eHbYco=", "properties": {"@source_uri": "https://tools.usps.com/UspsToolsRestServices/rest/POLocator/findLocations", "@spider": "usps_collection_boxes", "addr:city": "OSWEGO", "addr:country": "US", "addr:postcode": "13126", "addr:state": "NY", "addr:street_address": "126 E ONEIDA ST", "amenity": "post_box", "collection_times": "Mo-Sa 10:00", "nsi_id": "unitedstatespostalservice-a77078", "operator": "United States Postal Service", "operator:short": "USPS", "operator:type": "public", "operator:wikidata": "Q668687", "ref": "1312600020"}, "type": "Feature"}
{"geometry": {"coordinates": [-76.5034699, 43.454535], "type": "Point"}, "id": "fBPJA_V-Aykcyw8dvapS6EuNfJw=", "properties": {"@source_uri": "https://tools.usps.com/UspsToolsRestServices/rest/POLocator/findLocations", "@spider": "usps_collection_boxes", "addr:city": "OSWEGO", "addr:country": "US", "addr:postcode": "13126", "addr:state": "NY", "addr:street_address": "43 E UTICA ST", "amenity": "post_box", "collection_times": "Mo-Sa 12:00", "nsi_id": "unitedstatespostalservice-a77078", "operator": "United States Postal Service", "operator:short": "USPS", "operator:type": "public", "operator:wikidata": "Q668687", "ref": "1312600021"}, "type": "Feature"}
{"geometry": {"coordinates": [-76.4863874, 43.462212], "type": "Point"}, "id": "o4Do5DoGxCFDXbSvBHVgzoG6imk=", "properties": {"@source_uri": "https://tools.usps.com/UspsToolsRestServices/rest/POLocator/findLocations", "@spider": "usps_collection_boxes", "addr:city": "OSWEGO", "addr:country": "US", "addr:postcode": "13126", "addr:state": "NY", "addr:street_address": "137 STATE ROUTE 104 STE 3", "amenity": "post_box", "collection_times": "Mo-Sa 10:00", "nsi_id": "unitedstatespostalservice-a77078", "operator": "United States Postal Service", "operator:short": "USPS", "operator:type": "public", "operator:wikidata": "Q668687", "ref": "1312600032"}, "type": "Feature"}
{"geometry": {"coordinates": [-76.4861918, 43.457448], "type": "Point"}, "id": "ZZh1_fDlTN3wByM27WGx5l3chvc=", "properties": {"@source_uri": "https://tools.usps.com/UspsToolsRestServices/rest/POLocator/findLocations", "@spider": "usps_collection_boxes", "addr:city": "OSWEGO", "addr:country": "US", "addr:postcode": "13126", "addr:state": "NY", "addr:street_address": "198 E ALBANY ST", "amenity": "post_box", "collection_times": "Mo-Sa 10:00", "nsi_id": "unitedstatespostalservice-a77078", "operator": "United States Postal Service", "operator:short": "USPS", "operator:type": "public", "operator:wikidata": "Q668687", "ref": "1312600035"}, "type": "Feature"}
{"geometry": {"coordinates": [-76.4921579, 43.456251], "type": "Point"}, "id": "A74293I-IRHQCqZZZ9VcjCkb7HU=", "properties": {"@source_uri": "https://tools.usps.com/UspsToolsRestServices/rest/POLocator/findLocations", "@spider": "usps_collection_boxes", "addr:city": "OSWEGO", "addr:country": "US", "addr:postcode": "13126", "addr:state": "NY", "addr:street_address": "281 WALNUT ST", "amenity": "post_box", "collection_times": "Mo-Sa 10:30", "nsi_id": "unitedstatespostalservice-a77078", "operator": "United States Postal Service", "operator:short": "USPS", "operator:type": "public", "operator:wikidata": "Q668687", "ref": "1312600038"}, "type": "Feature"}
{"geometry": {"coordinates": [-76.5434877, 43.451486], "type": "Point"}, "id": "MC2E7In04B1D3ld0nryDmFIcD58=", "properties": {"@source_uri": "https://tools.usps.com/UspsToolsRestServices/rest/POLocator/findLocations", "@spider": "usps_collection_boxes", "addr:city": "OSWEGO", "addr:country": "US", "addr:postcode": "13126", "addr:state": "NY", "addr:street_address": "8 SWEET RD", "amenity": "post_box", "collection_times": "Mo-Sa 10:00", "nsi_id": "unitedstatespostalservice-a77078", "operator": "United States Postal Service", "operator:short": "USPS", "operator:type": "public", "operator:wikidata": "Q668687", "ref": "1312600043"}, "type": "Feature"}
{"geometry": {"coordinates": [-76.5066973, 43.449859], "type": "Point"}, "id": "JK2qpA0bdvPnNwZI3vXkcTg8c-c=", "properties": {"@source_uri": "https://tools.usps.com/UspsToolsRestServices/rest/POLocator/findLocations", "@spider": "usps_collection_boxes", "addr:city": "OSWEGO", "addr:country": "US", "addr:postcode": "13126", "addr:state": "NY", "addr:street_address": "391 W 1ST ST", "amenity": "post_box", "collection_times": "Mo-Fr 17:30; Sa 16:00", "indoor": "yes", "note": "ON 12/24 AND 12/31, THIS BOX MAY BE COLLECTED AS EARLY AS 12 NOON.", "nsi_id": "unitedstatespostalservice-a77078", "operator": "United States Postal Service", "operator:short": "USPS", "operator:type": "public", "operator:wikidata": "Q668687", "ref": "1312600101"}, "type": "Feature"}
{"geometry": {"coordinates": [-76.5065076, 43.449899], "type": "Point"}, "id": "sb0hXE4PUj5y5H63fThNDFzdLmI=", "properties": {"@source_uri": "https://tools.usps.com/UspsToolsRestServices/rest/POLocator/findLocations", "@spider": "usps_collection_boxes", "addr:city": "OSWEGO", "addr:country": "US", "addr:postcode": "13126", "addr:state": "NY", "addr:street_address": "391 W 1ST ST", "amenity": "post_box", "collection_times": "Mo-Fr 17:30; Sa 16:00", "indoor": "yes", "note": "ON 12/24 AND 12/31, THIS BOX MAY BE COLLECTED AS EARLY AS 12 NOON.", "nsi_id": "unitedstatespostalservice-a77078", "operator": "United States Postal Service", "operator:short": "USPS", "operator:type": "public", "operator:wikidata": "Q668687", "ref": "1312600102"}, "type": "Feature"}
{"geometry": {"coordinates": [-76.4786968, 43.463928], "type": "Point"}, "id": "Vdykidtvd1HiJWoZHqvzZ2JyNc0=", "properties": {"@source_uri": "https://tools.usps.com/UspsToolsRestServices/rest/POLocator/findLocations", "@spider": "usps_collection_boxes", "addr:city": "OSWEGO", "addr:country": "US", "addr:postcode": "13126", "addr:state": "NY", "addr:street_address": "341 STATE ROUTE 104", "amenity": "post_box", "collection_times": "Mo-Sa 10:30", "nsi_id": "unitedstatespostalservice-a77078", "operator": "United States Postal Service", "operator:short": "USPS", "operator:type": "public", "operator:wikidata": "Q668687", "ref": "1312600103"}, "type": "Feature"}
{"geometry": {"coordinates": [-76.4462363, 43.476502], "type": "Point"}, "id": "AxykgNexDCE9gYlEg5DUJ-vlRvw=", "properties": {"@source_uri": "https://tools.usps.com/UspsToolsRestServices/rest/POLocator/findLocations", "@spider": "usps_collection_boxes", "addr:city": "OSWEGO", "addr:country": "US", "addr:postcode": "13126", "addr:state": "NY", "addr:street_address": "956 MIDDLE RD", "amenity": "post_box", "collection_times": "Mo-Sa 10:30", "nsi_id": "unitedstatespostalservice-a77078", "operator": "United States Postal Service", "operator:short": "USPS", "operator:type": "public", "operator:wikidata": "Q668687", "ref": "1312600107"}, "type": "Feature"}
{"geometry": {"coordinates": [-76.480567, 43.431998], "type": "Point"}, "id": "SlhQYSoVUbkdQ2xsuuBeQslzK_M=", "properties": {"@source_uri": "https://tools.usps.com/UspsToolsRestServices/rest/POLocator/findLocations", "@spider": "usps_collection_boxes", "addr:city": "OSWEGO", "addr:country": "US", "addr:postcode": "13126", "addr:state": "NY", "addr:street_address": "39 CHURCHILL RD", "amenity": "post_box", "collection_times": "Mo-Sa 10:00", "nsi_id": "unitedstatespostalservice-a77078", "operator": "United States Postal Service", "operator:short": "USPS", "operator:type": "public", "operator:wikidata": "Q668687", "ref": "1312600109"}, "type": "Feature"}
{"geometry": {"coordinates": [-76.5065955, 43.457777], "type": "Point"}, "id": "60SJ1heR81zzRu_5CMJOxzTu5ck=", "properties": {"@source_uri": "https://tools.usps.com/UspsToolsRestServices/rest/POLocator/findLocations", "@spider": "usps_collection_boxes", "addr:city": "OSWEGO", "addr:country": "US", "addr:postcode": "13126", "addr:state": "NY", "addr:street_address": "46 E BRIDGE ST", "amenity": "post_box", "collection_times": "Mo-Sa 11:00", "nsi_id": "unitedstatespostalservice-a77078", "operator": "United States Postal Service", "operator:short": "USPS", "operator:type": "public", "operator:wikidata": "Q668687", "ref": "1312600112"}, "type": "Feature"}
{"geometry": {"coordinates": [-76.5074611, 43.456876], "type": "Point"}, "id": "Ywl9cYIVDGXnNBICi3suOG26v9I=", "properties": {"@source_uri": "https://tools.usps.com/UspsToolsRestServices/rest/POLocator/findLocations", "@spider": "usps_collection_boxes", "addr:city": "OSWEGO", "addr:country": "US", "addr:postcode": "13126", "addr:state": "NY", "addr:street_address": "120 E 1ST ST", "amenity": "post_box", "collection_times": "Mo-Sa 11:00", "nsi_id": "unitedstatespostalservice-a77078", "operator": "United States Postal Service", "operator:short": "USPS", "operator:type": "public", "operator:wikidata": "Q668687", "ref": "1312600114"}, "type": "Feature"}
{"geometry": {"coordinates": [-76.5123565, 43.458185], "type": "Point"}, "id": "xspTWfzDUsfL12AkpbC6-ILq6jY=", "properties": {"@source_uri": "https://tools.usps.com/UspsToolsRestServices/rest/POLocator/findLocations", "@spider": "usps_collection_boxes", "addr:city": "OSWEGO", "addr:country": "US", "addr:postcode": "13126", "addr:state": "NY", "addr:street_address": "140 W 1ST ST", "amenity": "post_box", "collection_times": "Mo-Sa 09:00", "nsi_id": "unitedstatespostalservice-a77078", "operator": "United States Postal Service", "operator:short": "USPS", "operator:type": "public", "operator:wikidata": "Q668687", "ref": "1312600117"}, "type": "Feature"}
{"geometry": {"coordinates": [-76.4892578, 43.452548], "type": "Point"}, "id": "XonoyYeR7ZPiztNOlFDYG9384NE=", "properties": {"@source_uri": "https://tools.usps.com/UspsToolsRestServices/rest/POLocator/findLocations", "@spider": "usps_collection_boxes", "addr:city": "OSWEGO", "addr:country": "US", "addr:postcode": "13126", "addr:state": "NY", "addr:street_address": "343 EAST AVE", "amenity": "post_box", "collection_times": "Mo-Sa 12:30", "note": "ON 12/24 AND 12/31, THIS BOX MAY BE COLLECTED AS EARLY AS 12 NOON.", "nsi_id": "unitedstatespostalservice-a77078", "operator": "United States Postal Service", "operator:short": "USPS", "operator:type": "public", "operator:wikidata": "Q668687", "ref": "1312600119"}, "type": "Feature"}
{"geometry": {"coordinates": [-76.5068428, 43.449657], "type": "Point"}, "id": "Tj8nqatcC_Lh-zzU6IH8YslTAVE=", "properties": {"@source_uri": "https://tools.usps.com/UspsToolsRestServices/rest/POLocator/findLocations", "@spider": "usps_collection_boxes", "addr:city": "OSWEGO", "addr:country": "US", "addr:postcode": "13126", "addr:state": "NY", "addr:street_address": "391 W 1ST ST", "amenity": "post_box", "collection_times": "Mo-Fr 17:15; Sa 16:00", "note": "ON 12/24 AND 12/31, THIS BOX MAY BE COLLECTED AS EARLY AS 12 NOON.", "nsi_id": "unitedstatespostalservice-a77078", "operator": "United States Postal Service", "operator:short": "USPS", "operator:type": "public", "operator:wikidata": "Q668687", "ref": "1312600120"}, "type": "Feature"}
{"geometry": {"coordinates": [-76.506831418, 43.449365366], "type": "Point"}, "id": "Zeh_HTBLlWlieZmXyzfbV9qatvI=", "properties": {"@source_uri": "https://tools.usps.com/UspsToolsRestServices/rest/POLocator/findLocations", "@spider": "usps_collection_boxes", "addr:city": "OSWEGO", "addr:country": "US", "addr:postcode": "13126", "addr:state": "NY", "addr:street_address": "391 W 1ST ST", "amenity": "post_box", "collection_times": "Mo-Fr 17:00; Sa 12:30", "indoor": "yes", "note": "ON 12/24 AND 12/31, THIS BOX MAY BE COLLECTED AS EARLY AS 12 NOON.", "nsi_id": "unitedstatespostalservice-a77078", "operator": "United States Postal Service", "operator:short": "USPS", "operator:type": "public", "operator:wikidata": "Q668687", "ref": "1312600121"}, "type": "Feature"}
{"geometry": {"coordinates": [-76.126549, 43.406704], "type": "Point"}, "id": "GkTeHiKSkNnqKDpHIeIXE22osE8=", "properties": {"@source_uri": "https://tools.usps.com/UspsToolsRestServices/rest/POLocator/findLocations", "@spider": "usps_collection_boxes", "addr:city": "PARISH", "addr:country": "US", "addr:postcode": "13131", "addr:state": "NY", "addr:street_address": "2963 E MAIN ST", "amenity": "post_box", "collection_times": "Mo-Fr 16:15; Sa 11:00", "note": "ON 12/24 AND 12/31, THIS BOX MAY BE COLLECTED AS EARLY AS 12 NOON.", "nsi_id": "unitedstatespostalservice-a77078", "operator": "United States Postal Service", "operator:short": "USPS", "operator:type": "public", "operator:wikidata": "Q668687", "ref": "1313100002"}, "type": "Feature"}
{"geometry": {"coordinates": [-76.126619, 43.406783], "type": "Point"}, "id": "0RdMlmuWU7zdOk9Zzzc0RWUO42g=", "properties": {"@source_uri": "https://tools.usps.com/UspsToolsRestServices/rest/POLocator/findLocations", "@spider": "usps_collection_boxes", "addr:city": "PARISH", "addr:country": "US", "addr:postcode": "13131", "addr:state": "NY", "addr:street_address": "2963 E MAIN ST", "amenity": "post_box", "collection_times": "Mo-Fr 16:45; Sa 11:15", "indoor": "yes", "note": "ON 12/24 AND 12/31, THIS BOX MAY BE COLLECTED AS EARLY AS 12 NOON.", "nsi_id": "unitedstatespostalservice-a77078", "operator": "United States Postal Service", "operator:short": "USPS", "operator:type": "public", "operator:wikidata": "Q668687", "ref": "1313100003"}, "type": "Feature"}
{"geometry": {"coordinates": [-76.126576409, 43.406711886], "type": "Point"}, "id": "07dtL6tBZvhmMLIb-GM4l2GLJis=", "properties": {"@source_uri": "https://tools.usps.com/UspsToolsRestServices/rest/POLocator/findLocations", "@spider": "usps_collection_boxes", "addr:city": "PARISH", "addr:country": "US", "addr:postcode": "13131", "addr:state": "NY", "addr:street_address": "2963 E MAIN ST", "amenity": "post_box", "collection_times": "Mo-Fr 16:45; Sa 11:30", "indoor": "yes", "note": "ON 12/24 AND 12/31, THIS BOX MAY BE COLLECTED AS EARLY AS 12 NOON.", "nsi_id": "unitedstatespostalservice-a77078", "operator": "United States Postal Service", "operator:short": "USPS", "operator:type": "public", "operator:wikidata": "Q668687", "ref": "1313100005"}, "type": "Feature"}
{"geometry": {"coordinates": [-76.271388, 43.280026], "type": "Point"}, "id": "tiAtXh37jfHl5Ia-YbyuppBpFUk=", "properties": {"@source_uri": "https://tools.usps.com/UspsToolsRestServices/rest/POLocator/findLocations", "@spider": "usps_collection_boxes", "addr:city": "PENNELLVILLE", "addr:country": "US", "addr:postcode": "13132", "addr:state": "NY", "addr:street_address": "374 CNTY RT 54", "amenity": "post_box", "collection_times": "Mo-Fr 15:00; Sa 10:45", "note": "ON 12/24 AND 12/31, THIS BOX MAY BE COLLECTED AS EARLY AS 12 NOON.", "nsi_id": "unitedstatespostalservice-a77078", "operator": "United States Postal Service", "operator:short": "USPS", "operator:type": "public", "operator:wikidata": "Q668687", "ref": "1313200001"}, "type": "Feature"}
{"geometry": {"coordinates": [-76.271388, 43.280027], "type": "Point"}, "id": "Oo47Ii2xlUVaEkwOpls8vjWzQmc=", "properties": {"@source_uri": "https://tools.usps.com/UspsToolsRestServices/rest/POLocator/findLocations", "@spider": "usps_collection_boxes", "addr:city": "PENNELLVILLE", "addr:country": "US", "addr:postcode": "13132", "addr:state": "NY", "addr:street_address": "374 CNTY RT 54", "amenity": "post_box", "collection_times": "Mo-Fr 15:00; Sa 10:45", "indoor": "yes", "note": "ON 12/24 AND 12/31, THIS BOX MAY BE COLLECTED AS EARLY AS 12 NOON.", "nsi_id": "unitedstatespostalservice-a77078", "operator": "United States Postal Service", "operator:short": "USPS", "operator:type": "public", "operator:wikidata": "Q668687", "ref": "1313200002"}, "type": "Feature"}
{"geometry": {"coordinates": [-76.271619897, 43.279479064], "type": "Point"}, "id": "8TwUSdI4pyn_wGodYMosLlb5iuI=", "properties": {"@source_uri": "https://tools.usps.com/UspsToolsRestServices/rest/POLocator/findLocations", "@spider": "usps_collection_boxes", "addr:city": "PENNELLVILLE", "addr:country": "US", "addr:postcode": "13132", "addr:state": "NY", "addr:street_address": "374 COUNTY ROUTE 54", "amenity": "post_box", "collection_times": "Mo-Fr 15:00; Sa 11:00", "indoor": "yes", "note": "ON 12/24 AND 12/31, THIS BOX MAY BE COLLECTED AS EARLY AS 12 NOON.", "nsi_id": "unitedstatespostalservice-a77078", "operator": "United States Postal Service", "operator:short": "USPS", "operator:type": "public", "operator:wikidata": "Q668687", "ref": "1313200004"}, "type": "Feature"}
{"geometry": {"coordinates": [-75.682694, 42.967995], "type": "Point"}, "id": "Qf_mzvJ5sIDWDf6tSNfWvOUa5zo=", "properties": {"@source_uri": "https://tools.usps.com/UspsToolsRestServices/rest/POLocator/findLocations", "@spider": "usps_collection_boxes", "addr:city": "PETERBORO", "addr:country": "US", "addr:postcode": "13134", "addr:state": "NY", "addr:street_address": "4667 PETERBORO RD", "amenity": "post_box", "collection_times": "Mo-Fr 15:30; Sa 10:30", "note": "ON 12/24 AND 12/31, THIS BOX MAY BE COLLECTED AS EARLY AS 12 NOON.", "nsi_id": "unitedstatespostalservice-a77078", "operator": "United States Postal Service", "operator:short": "USPS", "operator:type": "public", "operator:wikidata": "Q668687", "ref": "1313400001"}, "type": "Feature"}
{"geometry": {"coordinates": [-75.682658, 42.967991], "type": "Point"}, "id": "NUwSs_eBkhDQy6fztBr6vEzwPJQ=", "properties": {"@source_uri": "https://tools.usps.com/UspsToolsRestServices/rest/POLocator/findLocations", "@spider": "usps_collection_boxes", "addr:city": "PETERBORO", "addr:country": "US", "addr:postcode": "13134", "addr:state": "NY", "addr:street_address": "4667 PETERBORO RD", "amenity": "post_box", "collection_times": "Mo-Fr 16:00; Sa 13:00", "indoor": "yes", "note": "ON 12/24 AND 12/31, THIS BOX MAY BE COLLECTED AS EARLY AS 12 NOON.", "nsi_id": "unitedstatespostalservice-a77078", "operator": "United States Postal Service", "operator:short": "USPS", "operator:type": "public", "operator:wikidata": "Q668687", "ref": "1313400003"}, "type": "Feature"}
{"geometry": {"coordinates": [-75.720488353, 42.981439444], "type": "Point"}, "id": "GfNG1xvCxwvquEDMKMUGsGK-tik=", "properties": {"@source_uri": "https://tools.usps.com/UspsToolsRestServices/rest/POLocator/findLocations", "@spider": "usps_collection_boxes", "addr:city": "PETERBORO", "addr:country": "US", "addr:postcode": "13134", "addr:state": "NY", "addr:street_address": "4667 PETERBORO RD", "amenity": "post_box", "collection_times": "Mo-Fr 16:00; Sa 13:00", "indoor": "yes", "note": "ON 12/24 AND 12/31, THIS BOX MAY BE COLLECTED AS EARLY AS 12 NOON.", "nsi_id": "unitedstatespostalservice-a77078", "operator": "United States Postal Service", "operator:short": "USPS", "operator:type": "public", "operator:wikidata": "Q668687", "ref": "1313400005"}, "type": "Feature"}
{"geometry": {"coordinates": [-76.298935, 43.231613], "type": "Point"}, "id": "9_TsPjF1AT5RH0dlw-6p8gR8UcM=", "properties": {"@source_uri": "https://tools.usps.com/UspsToolsRestServices/rest/POLocator/findLocations", "@spider": "usps_collection_boxes", "addr:city": "PHOENIX", "addr:country": "US", "addr:postcode": "13135", "addr:state": "NY", "addr:street_address": "99 JEFFERSON ST", "amenity": "post_box", "collection_times": "Mo-Fr 17:00; Sa 11:45", "note": "ON 12/24 AND 12/31, THIS BOX MAY BE COLLECTED AS EARLY AS 12 NOON.", "nsi_id": "unitedstatespostalservice-a77078", "operator": "United States Postal Service", "operator:short": "USPS", "operator:type": "public", "operator:wikidata": "Q668687", "ref": "1313500001"}, "type": "Feature"}
{"geometry": {"coordinates": [-76.2854119, 43.217335], "type": "Point"}, "id": "EkKyfZCpWLNtmRhmmhYTrQ7FOg0=", "properties": {"@source_uri": "https://tools.usps.com/UspsToolsRestServices/rest/POLocator/findLocations", "@spider": "usps_collection_boxes", "addr:city": "PHOENIX", "addr:country": "US", "addr:postcode": "13135", "addr:state": "NY", "addr:street_address": "219 CO RT 57 PLZ", "amenity": "post_box", "collection_times": "Mo-Sa 09:30", "nsi_id": "unitedstatespostalservice-a77078", "operator": "United States Postal Service", "operator:short": "USPS", "operator:type": "public", "operator:wikidata": "Q668687", "ref": "1313500005"}, "type": "Feature"}
{"geometry": {"coordinates": [-76.298834, 43.231557], "type": "Point"}, "id": "W5zG0aksUsheRms43qm2IisuOIU=", "properties": {"@source_uri": "https://tools.usps.com/UspsToolsRestServices/rest/POLocator/findLocations", "@spider": "usps_collection_boxes", "addr:city": "PHOENIX", "addr:country": "US", "addr:postcode": "13135", "addr:state": "NY", "addr:street_address": "99 JEFFERSON ST", "amenity": "post_box", "collection_times": "Mo-Fr 16:45; Sa 11:45", "indoor": "yes", "note": "ON 12/24 AND 12/31, THIS BOX MAY BE COLLECTED AS EARLY AS 12 NOON.", "nsi_id": "unitedstatespostalservice-a77078", "operator": "United States Postal Service", "operator:short": "USPS", "operator:type": "public", "operator:wikidata": "Q668687", "ref": "1313500008"}, "type": "Feature"}
{"geometry": {"coordinates": [-76.29541, 43.23209], "type": "Point"}, "id": "yMeqc3CvxareRikHvuFH8rGLcPA=", "properties": {"@source_uri": "https://tools.usps.com/UspsToolsRestServices/rest/POLocator/findLocations", "@spider": "usps_collection_boxes", "addr:city": "PHOENIX", "addr:country": "US", "addr:postcode": "13135", "addr:state": "NY", "addr:street_address": "99 JEFFERSON ST", "amenity": "post_box", "collection_times": "Mo-Fr 17:00; Sa 11:45", "note": "ON 12/24 AND 12/31, THIS BOX MAY BE COLLECTED AS EARLY AS 12 NOON.", "nsi_id": "unitedstatespostalservice-a77078", "operator": "United States Postal Service", "operator:short": "USPS", "operator:type": "public", "operator:wikidata": "Q668687", "ref": "1313500009"}, "type": "Feature"}
{"geometry": {"coordinates": [-76.29922433, 43.231906846], "type": "Point"}, "id": "2udF_5FJ2dTb5tL9SgdPDuVrfEU=", "properties": {"@source_uri": "https://tools.usps.com/UspsToolsRestServices/rest/POLocator/findLocations", "@spider": "usps_collection_boxes", "addr:city": "PHOENIX", "addr:country": "US", "addr:postcode": "13135", "addr:state": "NY", "addr:street_address": "99 JEFFERSON ST", "amenity": "post_box", "collection_times": "Mo-Fr 17:00; Sa 12:00", "indoor": "yes", "note": "ON 12/24 AND 12/31, THIS BOX MAY BE COLLECTED AS EARLY AS 12 NOON.", "nsi_id": "unitedstatespostalservice-a77078", "operator": "United States Postal Service", "operator:short": "USPS", "operator:type": "public", "operator:wikidata": "Q668687", "ref": "1313500010"}, "type": "Feature"}
{"geometry": {"coordinates": [-75.8646593, 42.581187], "type": "Point"}, "id": "4UQZrZ8SXNWhOpo1Ofvlt2P8Up0=", "properties": {"@source_uri": "https://tools.usps.com/UspsToolsRestServices/rest/POLocator/findLocations", "@spider": "usps_collection_boxes", "addr:city": "PITCHER", "addr:country": "US", "addr:postcode": "13136", "addr:state": "NY", "addr:street_address": "253 STATE HIGHWAY 26", "amenity": "post_box", "collection_times": "Mo-Fr 12:00; Sa 12:30", "note": "ON 12/24 AND 12/31, THIS BOX MAY BE COLLECTED AS EARLY AS 12 NOON.", "nsi_id": "unitedstatespostalservice-a77078", "operator": "United States Postal Service", "operator:short": "USPS", "operator:type": "public", "operator:wikidata": "Q668687", "ref": "1313600001"}, "type": "Feature"}
{"geometry": {"coordinates": [-75.864603, 42.581058], "type": "Point"}, "id": "VaByl32GSyXcjXafPDjs5-u5n64=", "properties": {"@source_uri": "https://tools.usps.com/UspsToolsRestServices/rest/POLocator/findLocations", "@spider": "usps_collection_boxes", "addr:city": "PITCHER", "addr:country": "US", "addr:postcode": "13136", "addr:state": "NY", "addr:street_address": "253 STATE HIGHWAY 26", "amenity": "post_box", "collection_times": "Mo-Fr 12:00; Sa 12:30", "indoor": "yes", "note": "ON 12/24 AND 12/31, THIS BOX MAY BE COLLECTED AS EARLY AS 12 NOON.", "nsi_id": "unitedstatespostalservice-a77078", "operator": "United States Postal Service", "operator:short": "USPS", "operator:type": "public", "operator:wikidata": "Q668687", "ref": "1313600002"}, "type": "Feature"}
{"geometry": {"coordinates": [-75.864626371, 42.581070366], "type": "Point"}, "id": "S4tSH5UgPxF0PYDTg_2NP7lijdU=", "properties": {"@source_uri": "https://tools.usps.com/UspsToolsRestServices/rest/POLocator/findLocations", "@spider": "usps_collection_boxes", "addr:city": "PITCHER", "addr:country": "US", "addr:postcode": "13136", "addr:state": "NY", "addr:street_address": "253 STATE HIGHWAY 26", "amenity": "post_box", "collection_times": "Mo-Fr 12:00; Sa 12:45", "indoor": "yes", "note": "ON 12/24 AND 12/31, THIS BOX MAY BE COLLECTED AS EARLY AS 12 NOON.", "nsi_id": "unitedstatespostalservice-a77078", "operator": "United States Postal Service", "operator:short": "USPS", "operator:type": "public", "operator:wikidata": "Q668687", "ref": "1313600003"}, "type": "Feature"}
{"geometry": {"coordinates": [-76.446758, 43.156764], "type": "Point"}, "id": "viC8rnxdb6TsIJEpKFCOqy1-VPA=", "properties": {"@source_uri": "https://tools.usps.com/UspsToolsRestServices/rest/POLocator/findLocations", "@spider": "usps_collection_boxes", "addr:city": "PLAINVILLE", "addr:country": "US", "addr:postcode": "13137", "addr:state": "NY", "addr:street_address": "8000 PLAINVILLE RD", "amenity": "post_box", "collection_times": "Mo-Fr 12:00; Sa 10:30", "nsi_id": "unitedstatespostalservice-a77078", "operator": "United States Postal Service", "operator:short": "USPS", "operator:type": "public", "operator:wikidata": "Q668687", "ref": "1313700001"}, "type": "Feature"}
{"geometry": {"coordinates": [-76.446767, 43.156671], "type": "Point"}, "id": "4ar2BbUEXTu5cEoyT8yR5PnLp6c=", "properties": {"@source_uri": "https://tools.usps.com/UspsToolsRestServices/rest/POLocator/findLocations", "@spider": "usps_collection_boxes", "addr:city": "PLAINVILLE", "addr:country": "US", "addr:postcode": "13137", "addr:state": "NY", "addr:street_address": "8000 PLAINVILLE RD", "amenity": "post_box", "collection_times": "Mo-Fr 12:00; Sa 10:45", "indoor": "yes", "nsi_id": "unitedstatespostalservice-a77078", "operator": "United States Postal Service", "operator:short": "USPS", "operator:type": "public", "operator:wikidata": "Q668687", "ref": "1313700002"}, "type": "Feature"}
{"geometry": {"coordinates": [-76.446829196, 43.156980419], "type": "Point"}, "id": "RtOVwFA4YGOyDsPBF8hm9IHjCTE=", "properties": {"@source_uri": "https://tools.usps.com/UspsToolsRestServices/rest/POLocator/findLocations", "@spider": "usps_collection_boxes", "addr:city": "PLAINVILLE", "addr:country": "US", "addr:postcode": "13137", "addr:state": "NY", "addr:street_address": "8000 PLAINVILLE RD", "amenity": "post_box", "collection_times": "Mo-Fr 12:00; Sa 11:00", "indoor": "yes", "nsi_id": "unitedstatespostalservice-a77078", "operator": "United States Postal Service", "operator:short": "USPS", "operator:type": "public", "operator:wikidata": "Q668687", "ref": "1313700003"}, "type": "Feature"}
{"geometry": {"coordinates": [-76.015521, 42.900589], "type": "Point"}, "id": "wSx_ZX3h-M9VEyhbUBUQcYIJN40=", "properties": {"@source_uri": "https://tools.usps.com/UspsToolsRestServices/rest/POLocator/findLocations", "@spider": "usps_collection_boxes", "addr:city": "POMPEY", "addr:country": "US", "addr:postcode": "13138", "addr:state": "NY", "addr:street_address": "7360 ACADEMY ST", "amenity": "post_box", "collection_times": "Mo-Fr 16:30; Sa 11:30", "note": "ON 12/24 AND 12/31, THIS BOX MAY BE COLLECTED AS EARLY AS 12 NOON.", "nsi_id": "unitedstatespostalservice-a77078", "operator": "United States Postal Service", "operator:short": "USPS", "operator:type": "public", "operator:wikidata": "Q668687", "ref": "1313800001"}, "type": "Feature"}
{"geometry": {"coordinates": [-76.015621, 42.900614], "type": "Point"}, "id": "wIm8JKX7qCgW1q9EiYtOj1vYS2U=", "properties": {"@source_uri": "https://tools.usps.com/UspsToolsRestServices/rest/POLocator/findLocations", "@spider": "usps_collection_boxes", "addr:city": "POMPEY", "addr:country": "US", "addr:postcode": "13138", "addr:state": "NY", "addr:street_address": "7360 ACADEMY ST", "amenity": "post_box", "collection_times": "Mo-Fr 17:00; Sa 11:45", "indoor": "yes", "note": "ON 12/24 AND 12/31, THIS BOX MAY BE COLLECTED AS EARLY AS 12 NOON.", "nsi_id": "unitedstatespostalservice-a77078", "operator": "United States Postal Service", "operator:short": "USPS", "operator:type": "public", "operator:wikidata": "Q668687", "ref": "1313800002"}, "type": "Feature"}
{"geometry": {"coordinates": [-76.01556425, 42.900532399], "type": "Point"}, "id": "qRXHR-qEUt3K6uKME1Oy2kezjHg=", "properties": {"@source_uri": "https://tools.usps.com/UspsToolsRestServices/rest/POLocator/findLocations", "@spider": "usps_collection_boxes", "addr:city": "POMPEY", "addr:country": "US", "addr:postcode": "13138", "addr:state": "NY", "addr:street_address": "7360 ACADEMY ST", "amenity": "post_box", "collection_times": "Mo-Fr 17:00; Sa 11:30", "indoor": "yes", "note": "ON 12/24 AND 12/31, THIS BOX MAY BE COLLECTED AS EARLY AS 12 NOON.", "nsi_id": "unitedstatespostalservice-a77078", "operator": "United States Postal Service", "operator:short": "USPS", "operator:type": "public", "operator:wikidata": "Q668687", "ref": "1313800003"}, "type": "Feature"}
{"geometry": {"coordinates": [-76.617882, 42.738441], "type": "Point"}, "id": "qzZ6z0_fmYDtzXQE-MStTZ6qSw4=", "properties": {"@source_uri": "https://tools.usps.com/UspsToolsRestServices/rest/POLocator/findLocations", "@spider": "usps_collection_boxes", "addr:city": "POPLAR RIDGE", "addr:country": "US", "addr:postcode": "13139", "addr:state": "NY", "addr:street_address": "2485 ST RD 34B", "amenity": "post_box", "collection_times": "Mo-Fr 16:30; Sa 12:00", "note": "ON 12/24 AND 12/31, THIS BOX MAY BE COLLECTED AS EARLY AS 12 NOON.", "nsi_id": "unitedstatespostalservice-a77078", "operator": "United States Postal Service", "operator:short": "USPS", "operator:type": "public", "operator:wikidata": "Q668687", "ref": "1313900001"}, "type": "Feature"}
{"geometry": {"coordinates": [-76.617902371, 42.73839871], "type": "Point"}, "id": "Gudm6H4vUR4_Vh6GuqHxA7J7ttc=", "properties": {"@source_uri": "https://tools.usps.com/UspsToolsRestServices/rest/POLocator/findLocations", "@spider": "usps_collection_boxes", "addr:city": "POPLAR RIDGE", "addr:country": "US", "addr:postcode": "13139", "addr:state": "NY", "addr:street_address": "2485 STATE ROUTE 34B", "amenity": "post_box", "collection_times": "Mo-Fr 16:30; Sa 12:00", "indoor": "yes", "note": "ON 12/24 AND 12/31, THIS BOX MAY BE COLLECTED AS EARLY AS 12 NOON.", "nsi_id": "unitedstatespostalservice-a77078", "operator": "United States Postal Service", "operator:short": "USPS", "operator:type": "public", "operator:wikidata": "Q668687", "ref": "1313900002"}, "type": "Feature"}
{"geometry": {"coordinates": [-76.6261736, 43.0355882], "type": "Point"}, "id": "VJjTNLaqwqbIOcTZHWlaBagOG84=", "properties": {"@source_uri": "https://tools.usps.com/UspsToolsRestServices/rest/POLocator/findLocations", "@spider": "usps_collection_boxes", "addr:city": "PORT BYRON", "addr:country": "US", "addr:postcode": "13140", "addr:state": "NY", "addr:street_address": "130 MAIN ST", "amenity": "post_box", "collection_times": "Mo-Fr 16:30; Sa 11:30", "note": "ON 12/24 AND 12/31, THIS BOX MAY BE COLLECTED AS EARLY AS 12 NOON.", "nsi_id": "unitedstatespostalservice-a77078", "operator": "United States Postal Service", "operator:short": "USPS", "operator:type": "public", "operator:wikidata": "Q668687", "ref": "1314000001"}, "type": "Feature"}
{"geometry": {"coordinates": [-76.6261736, 43.0355882], "type": "Point"}, "id": "9P6yx7DeAqzythmlYPvG1rFG7lk=", "properties": {"@source_uri": "https://tools.usps.com/UspsToolsRestServices/rest/POLocator/findLocations", "@spider": "usps_collection_boxes", "addr:city": "PORT BYRON", "addr:country": "US", "addr:postcode": "13140", "addr:state": "NY", "addr:street_address": "130 MAIN ST", "amenity": "post_box", "collection_times": "Mo-Fr 16:45; Sa 10:45", "indoor": "yes", "note": "ON 12/24 AND 12/31, THIS BOX MAY BE COLLECTED AS EARLY AS 12 NOON.", "nsi_id": "unitedstatespostalservice-a77078", "operator": "United States Postal Service", "operator:short": "USPS", "operator:type": "public", "operator:wikidata": "Q668687", "ref": "1314000003"}, "type": "Feature"}
{"geometry": {"coordinates": [-76.6261736, 43.0355882], "type": "Point"}, "id": "NYdjV403VRpgwf7H2H9ovgsuMNU=", "properties": {"@source_uri": "https://tools.usps.com/UspsToolsRestServices/rest/POLocator/findLocations", "@spider": "usps_collection_boxes", "addr:city": "PORT BYRON", "addr:country": "US", "addr:postcode": "13140", "addr:state": "NY", "addr:street_address": "130 MAIN ST", "amenity": "post_box", "collection_times": "Mo-Fr 16:30; Sa 11:30", "indoor": "yes", "note": "ON 12/24 AND 12/31, THIS BOX MAY BE COLLECTED AS EARLY AS 12 NOON.", "nsi_id": "unitedstatespostalservice-a77078", "operator": "United States Postal Service", "operator:short": "USPS", "operator:type": "public", "operator:wikidata": "Q668687", "ref": "1314000004"}, "type": "Feature"}
{"geometry": {"coordinates": [-76.1452641134, 42.734526113], "type": "Point"}, "id": "wRs3zi2lmFTPJTqExoVVZkLY_5E=", "properties": {"@source_uri": "https://tools.usps.com/UspsToolsRestServices/rest/POLocator/findLocations", "@spider": "usps_collection_boxes", "addr:city": "PREBLE", "addr:country": "US", "addr:postcode": "13141", "addr:state": "NY", "addr:street_address": "1968 PREBLE RD", "amenity": "post_box", "collection_times": "Mo-Fr 11:30; Sa 11:45", "nsi_id": "unitedstatespostalservice-a77078", "operator": "United States Postal Service", "operator:short": "USPS", "operator:type": "public", "operator:wikidata": "Q668687", "ref": "1314100001"}, "type": "Feature"}
{"geometry": {"coordinates": [-76.145303, 42.734742], "type": "Point"}, "id": "OgpAnbXYUWQZn03u7MLc21FNRlU=", "properties": {"@source_uri": "https://tools.usps.com/UspsToolsRestServices/rest/POLocator/findLocations", "@spider": "usps_collection_boxes", "addr:city": "PREBLE", "addr:country": "US", "addr:postcode": "13141", "addr:state": "NY", "addr:street_address": "1968 PREBLE RD", "amenity": "post_box", "collection_times": "Mo-Fr 11:30; Sa 11:45", "indoor": "yes", "nsi_id": "unitedstatespostalservice-a77078", "operator": "United States Postal Service", "operator:short": "USPS", "operator:type": "public", "operator:wikidata": "Q668687", "ref": "1314100002"}, "type": "Feature"}
{"geometry": {"coordinates": [-76.145215766, 42.734685849], "type": "Point"}, "id": "xZP5Dl1ez3CQ-g1NncuPJpGIXGs=", "properties": {"@source_uri": "https://tools.usps.com/UspsToolsRestServices/rest/POLocator/findLocations", "@spider": "usps_collection_boxes", "addr:city": "PREBLE", "addr:country": "US", "addr:postcode": "13141", "addr:state": "NY", "addr:street_address": "1968 PREBLE RD", "amenity": "post_box", "collection_times": "Mo-Fr 11:30; Sa 11:45", "indoor": "yes", "nsi_id": "unitedstatespostalservice-a77078", "operator": "United States Postal Service", "operator:short": "USPS", "operator:type": "public", "operator:wikidata": "Q668687", "ref": "1314100005"}, "type": "Feature"}
{"geometry": {"coordinates": [-76.1278, 43.567035], "type": "Point"}, "id": "msQCwc0hXZYfJfgRlZUZICz9ThI=", "properties": {"@source_uri": "https://tools.usps.com/UspsToolsRestServices/rest/POLocator/findLocations", "@spider": "usps_collection_boxes", "addr:city": "PULASKI", "addr:country": "US", "addr:postcode": "13142", "addr:state": "NY", "addr:street_address": "4909 N JEFFERSON ST", "amenity": "post_box", "collection_times": "Mo-Fr 17:00; Sa 12:00", "note": "ON 12/24 AND 12/31, THIS BOX MAY BE COLLECTED AS EARLY AS 12 NOON.", "nsi_id": "unitedstatespostalservice-a77078", "operator": "United States Postal Service", "operator:short": "USPS", "operator:type": "public", "operator:wikidata": "Q668687", "ref": "1314200001"}, "type": "Feature"}
{"geometry": {"coordinates": [-76.125833, 43.569391], "type": "Point"}, "id": "rbQluOhXPsTzhLBor1FKWIlCpIA=", "properties": {"@source_uri": "https://tools.usps.com/UspsToolsRestServices/rest/POLocator/findLocations", "@spider": "usps_collection_boxes", "addr:city": "PULASKI", "addr:country": "US", "addr:postcode": "13142", "addr:state": "NY", "addr:street_address": "4909 N JEFFERSON ST", "amenity": "post_box", "collection_times": "Mo-Fr 17:00; Sa 12:00", "indoor": "yes", "note": "ON 12/24 AND 12/31, THIS BOX MAY BE COLLECTED AS EARLY AS 12 NOON.", "nsi_id": "unitedstatespostalservice-a77078", "operator": "United States Postal Service", "operator:short": "USPS", "operator:type": "public", "operator:wikidata": "Q668687", "ref": "1314200013"}, "type": "Feature"}
{"geometry": {"coordinates": [-76.1268768, 43.567676], "type": "Point"}, "id": "swETBiactSkKNfzsi977Bfjokos=", "properties": {"@source_uri": "https://tools.usps.com/UspsToolsRestServices/rest/POLocator/findLocations", "@spider": "usps_collection_boxes", "addr:city": "PULASKI", "addr:country": "US", "addr:postcode": "13142", "addr:state": "NY", "addr:street_address": "4882 N JEFFERSON ST", "amenity": "post_box", "collection_times": "Mo-Sa 14:00", "note": "ON 12/24 AND 12/31, THIS BOX MAY BE COLLECTED AS EARLY AS 12 NOON.", "nsi_id": "unitedstatespostalservice-a77078", "operator": "United States Postal Service", "operator:short": "USPS", "operator:type": "public", "operator:wikidata": "Q668687", "ref": "1314200015"}, "type": "Feature"}
{"geometry": {"coordinates": [-76.125918522, 43.569307539], "type": "Point"}, "id": "2Vvis9aFfF14qznO3m1lsJcPD7Y=", "properties": {"@source_uri": "https://tools.usps.com/UspsToolsRestServices/rest/POLocator/findLocations", "@spider": "usps_collection_boxes", "addr:city": "PULASKI", "addr:country": "US", "addr:postcode": "13142", "addr:state": "NY", "addr:street_address": "4909 N JEFFERSON ST", "amenity": "post_box", "collection_times": "Mo-Fr 17:00; Sa 12:00", "indoor": "yes", "note": "ON 12/24 AND 12/31, THIS BOX MAY BE COLLECTED AS EARLY AS 12 NOON.", "nsi_id": "unitedstatespostalservice-a77078", "operator": "United States Postal Service", "operator:short": "USPS", "operator:type": "public", "operator:wikidata": "Q668687", "ref": "1314200016"}, "type": "Feature"}
{"geometry": {"coordinates": [-76.725997, 43.244861], "type": "Point"}, "id": "jtJkZkEuNOJ3TFjCIkS_SRCG5wY=", "properties": {"@source_uri": "https://tools.usps.com/UspsToolsRestServices/rest/POLocator/findLocations", "@spider": "usps_collection_boxes", "addr:city": "RED CREEK", "addr:country": "US", "addr:postcode": "13143", "addr:state": "NY", "addr:street_address": "6755 WOLCOTT ST", "amenity": "post_box", "collection_times": "Mo-Fr 16:30; Sa 11:30", "indoor": "yes", "note": "ON 12/24 AND 12/31, THIS BOX MAY BE COLLECTED AS EARLY AS 12 NOON.", "nsi_id": "unitedstatespostalservice-a77078", "operator": "United States Postal Service", "operator:short": "USPS", "operator:type": "public", "operator:wikidata": "Q668687", "ref": "1314300001"}, "type": "Feature"}
{"geometry": {"coordinates": [-76.725996, 43.244818], "type": "Point"}, "id": "uYXEx3BBrgmkI9eFR3TbimaANlA=", "properties": {"@source_uri": "https://tools.usps.com/UspsToolsRestServices/rest/POLocator/findLocations", "@spider": "usps_collection_boxes", "addr:city": "RED CREEK", "addr:country": "US", "addr:postcode": "13143", "addr:state": "NY", "addr:street_address": "6755 WOLCOTT ST", "amenity": "post_box", "collection_times": "Mo-Fr 16:30; Sa 11:30", "note": "ON 12/24 AND 12/31, THIS BOX MAY BE COLLECTED AS EARLY AS 12 NOON.", "nsi_id": "unitedstatespostalservice-a77078", "operator": "United States Postal Service", "operator:short": "USPS", "operator:type": "public", "operator:wikidata": "Q668687", "ref": "1314300002"}, "type": "Feature"}
{"geometry": {"coordinates": [-76.725624324, 43.245201949], "type": "Point"}, "id": "J3Mb2lBvxuQo6zvhT-ggEqQ74mM=", "properties": {"@source_uri": "https://tools.usps.com/UspsToolsRestServices/rest/POLocator/findLocations", "@spider": "usps_collection_boxes", "addr:city": "RED CREEK", "addr:country": "US", "addr:postcode": "13143", "addr:state": "NY", "addr:street_address": "6755 WOLCOTT ST", "amenity": "post_box", "collection_times": "Mo-Fr 16:30; Sa 11:30", "indoor": "yes", "note": "ON 12/24 AND 12/31, THIS BOX MAY BE COLLECTED AS EARLY AS 12 NOON.", "nsi_id": "unitedstatespostalservice-a77078", "operator": "United States Postal Service", "operator:short": "USPS", "operator:type": "public", "operator:wikidata": "Q668687", "ref": "1314300003"}, "type": "Feature"}
{"geometry": {"coordinates": [-76.050861, 43.571422], "type": "Point"}, "id": "02S3wO_xG2Z0wpi3CpXsqx2_17U=", "properties": {"@source_uri": "https://tools.usps.com/UspsToolsRestServices/rest/POLocator/findLocations", "@spider": "usps_collection_boxes", "addr:city": "RICHLAND", "addr:country": "US", "addr:postcode": "13144", "addr:state": "NY", "addr:street_address": "1110 COUNTY ROUTE 48", "amenity": "post_box", "collection_times": "Mo-Fr 12:00; Sa 11:45", "nsi_id": "unitedstatespostalservice-a77078", "operator": "United States Postal Service", "operator:short": "USPS", "operator:type": "public", "operator:wikidata": "Q668687", "ref": "1314400002"}, "type": "Feature"}
{"geometry": {"coordinates": [-76.050908, 43.571448], "type": "Point"}, "id": "hkOA6JpO-80p3kLSln9k-cQ1ALM=", "properties": {"@source_uri": "https://tools.usps.com/UspsToolsRestServices/rest/POLocator/findLocations", "@spider": "usps_collection_boxes", "addr:city": "RICHLAND", "addr:country": "US", "addr:postcode": "13144", "addr:state": "NY", "addr:street_address": "1110 COUNTY ROUTE 48", "amenity": "post_box", "collection_times": "Mo-Fr 12:00; Sa 11:45", "indoor": "yes", "nsi_id": "unitedstatespostalservice-a77078", "operator": "United States Postal Service", "operator:short": "USPS", "operator:type": "public", "operator:wikidata": "Q668687", "ref": "1314400003"}, "type": "Feature"}
{"geometry": {"coordinates": [-76.050806538, 43.571256505], "type": "Point"}, "id": "fZzmKdCjE44Lxk5WD9h7EN6CXXI=", "properties": {"@source_uri": "https://tools.usps.com/UspsToolsRestServices/rest/POLocator/findLocations", "@spider": "usps_collection_boxes", "addr:city": "RICHLAND", "addr:country": "US", "addr:postcode": "13144", "addr:state": "NY", "addr:street_address": "1110 COUNTY ROUTE 48", "amenity": "post_box", "collection_times": "Mo-Fr 12:00; Sa 11:45", "indoor": "yes", "nsi_id": "unitedstatespostalservice-a77078", "operator": "United States Postal Service", "operator:short": "USPS", "operator:type": "public", "operator:wikidata": "Q668687", "ref": "1314400004"}, "type": "Feature"}
{"geometry": {"coordinates": [-76.086487, 43.643865], "type": "Point"}, "id": "O5Jrrqv8amQQePF7SrptmozD-ns=", "properties": {"@source_uri": "https://tools.usps.com/UspsToolsRestServices/rest/POLocator/findLocations", "@spider": "usps_collection_boxes", "addr:city": "SANDY CREEK", "addr:country": "US", "addr:postcode": "13145", "addr:state": "NY", "addr:street_address": "6067 S MAIN ST", "amenity": "post_box", "collection_times": "Mo-Fr 16:30; Sa 11:30", "note": "ON 12/24 AND 12/31, THIS BOX MAY BE COLLECTED AS EARLY AS 12 NOON.", "nsi_id": "unitedstatespostalservice-a77078", "operator": "United States Postal Service", "operator:short": "USPS", "operator:type": "public", "operator:wikidata": "Q668687", "ref": "1314500001"}, "type": "Feature"}
{"geometry": {"coordinates": [-76.086438, 43.643935], "type": "Point"}, "id": "JSdbvzvLCqy7HnZj9jxzp9c8wTI=", "properties": {"@source_uri": "https://tools.usps.com/UspsToolsRestServices/rest/POLocator/findLocations", "@spider": "usps_collection_boxes", "addr:city": "SANDY CREEK", "addr:country": "US", "addr:postcode": "13145", "addr:state": "NY", "addr:street_address": "6067 S MAIN ST", "amenity": "post_box", "collection_times": "Mo-Fr 16:30; Sa 11:30", "indoor": "yes", "note": "ON 12/24 AND 12/31, THIS BOX MAY BE COLLECTED AS EARLY AS 12 NOON.", "nsi_id": "unitedstatespostalservice-a77078", "operator": "United States Postal Service", "operator:short": "USPS", "operator:type": "public", "operator:wikidata": "Q668687", "ref": "1314500002"}, "type": "Feature"}
{"geometry": {"coordinates": [-76.086457165, 43.644018751], "type": "Point"}, "id": "Evgmo0Uv0dJ_zMp24tHjcJFfGoQ=", "properties": {"@source_uri": "https://tools.usps.com/UspsToolsRestServices/rest/POLocator/findLocations", "@spider": "usps_collection_boxes", "addr:city": "SANDY CREEK", "addr:country": "US", "addr:postcode": "13145", "addr:state": "NY", "addr:street_address": "6067 S MAIN ST", "amenity": "post_box", "collection_times": "Mo-Fr 16:30; Sa 11:30", "indoor": "yes", "note": "ON 12/24 AND 12/31, THIS BOX MAY BE COLLECTED AS EARLY AS 12 NOON.", "nsi_id": "unitedstatespostalservice-a77078", "operator": "United States Postal Service", "operator:short": "USPS", "operator:type": "public", "operator:wikidata": "Q668687", "ref": "1314500003"}, "type": "Feature"}
{"geometry": {"coordinates": [-76.7472337, 43.1003784], "type": "Point"}, "id": "2GQJSQs56kfTPlwzIp2gCzVLPt8=", "properties": {"@source_uri": "https://tools.usps.com/UspsToolsRestServices/rest/POLocator/findLocations", "@spider": "usps_collection_boxes", "addr:city": "SAVANNAH", "addr:country": "US", "addr:postcode": "13146", "addr:state": "NY", "addr:street_address": "1542 N MAIN ST", "amenity": "post_box", "collection_times": "Mo-Fr 15:00; Sa 11:30", "note": "ON 12/24 AND 12/31, THIS BOX MAY BE COLLECTED AS EARLY AS 12 NOON.", "nsi_id": "unitedstatespostalservice-a77078", "operator": "United States Postal Service", "operator:short": "USPS", "operator:type": "public", "operator:wikidata": "Q668687", "ref": "1314600001"}, "type": "Feature"}
{"geometry": {"coordinates": [-76.7472337, 43.1003784], "type": "Point"}, "id": "yVZxYuTyjcaHVcKUPoYFh37GDkc=", "properties": {"@source_uri": "https://tools.usps.com/UspsToolsRestServices/rest/POLocator/findLocations", "@spider": "usps_collection_boxes", "addr:city": "SAVANNAH", "addr:country": "US", "addr:postcode": "13146", "addr:state": "NY", "addr:street_address": "1542 N MAIN ST", "amenity": "post_box", "collection_times": "Mo-Fr 15:00; Sa 11:30", "indoor": "yes", "note": "ON 12/24 AND 12/31, THIS BOX MAY BE COLLECTED AS EARLY AS 12 NOON.", "nsi_id": "unitedstatespostalservice-a77078", "operator": "United States Postal Service", "operator:short": "USPS", "operator:type": "public", "operator:wikidata": "Q668687", "ref": "1314600002"}, "type": "Feature"}
{"geometry": {"coordinates": [-76.7472337, 43.1003784], "type": "Point"}, "id": "rOPvonoXil8plBrJwlHoKWx5ehs=", "properties": {"@source_uri": "https://tools.usps.com/UspsToolsRestServices/rest/POLocator/findLocations", "@spider": "usps_collection_boxes", "addr:city": "SAVANNAH", "addr:country": "US", "addr:postcode": "13146", "addr:state": "NY", "addr:street_address": "1542 N MAIN ST", "amenity": "post_box", "collection_times": "Mo-Fr 15:00; Sa 11:30", "indoor": "yes", "note": "ON 12/24 AND 12/31, THIS BOX MAY BE COLLECTED AS EARLY AS 12 NOON.", "nsi_id": "unitedstatespostalservice-a77078", "operator": "United States Postal Service", "operator:short": "USPS", "operator:type": "public", "operator:wikidata": "Q668687", "ref": "1314600003"}, "type": "Feature"}
{"geometry": {"coordinates": [-76.558613, 42.78049], "type": "Point"}, "id": "ADpkQdiOmTq-gtuzMpVcvXukj60=", "properties": {"@source_uri": "https://tools.usps.com/UspsToolsRestServices/rest/POLocator/findLocations", "@spider": "usps_collection_boxes", "addr:city": "SCIPIO CENTER", "addr:country": "US", "addr:postcode": "13147", "addr:state": "NY", "addr:street_address": "3354 STATE ROUTE 34", "amenity": "post_box", "collection_times": "Mo-Fr 15:00; Sa 11:45", "note": "ON 12/24 AND 12/31, THIS BOX MAY BE COLLECTED AS EARLY AS 12 NOON.", "nsi_id": "unitedstatespostalservice-a77078", "operator": "United States Postal Service", "operator:short": "USPS", "operator:type": "public", "operator:wikidata": "Q668687", "ref": "1314700001"}, "type": "Feature"}
{"geometry": {"coordinates": [-76.558613, 42.780491], "type": "Point"}, "id": "JXGFO0h4HzSN8HL_n4xW5mtq7_c=", "properties": {"@source_uri": "https://tools.usps.com/UspsToolsRestServices/rest/POLocator/findLocations", "@spider": "usps_collection_boxes", "addr:city": "SCIPIO CENTER", "addr:country": "US", "addr:postcode": "13147", "addr:state": "NY", "addr:street_address": "3354 RT 34", "amenity": "post_box", "collection_times": "Mo-Fr 15:00; Sa 11:45", "indoor": "yes", "note": "ON 12/24 AND 12/31, THIS BOX MAY BE COLLECTED AS EARLY AS 12 NOON.", "nsi_id": "unitedstatespostalservice-a77078", "operator": "United States Postal Service", "operator:short": "USPS", "operator:type": "public", "operator:wikidata": "Q668687", "ref": "1314700002"}, "type": "Feature"}
{"geometry": {"coordinates": [-76.558593309, 42.780213429], "type": "Point"}, "id": "FMPZWlobmzXFIGebgq78YYyhxgQ=", "properties": {"@source_uri": "https://tools.usps.com/UspsToolsRestServices/rest/POLocator/findLocations", "@spider": "usps_collection_boxes", "addr:city": "SCIPIO CENTER", "addr:country": "US", "addr:postcode": "13147", "addr:state": "NY", "addr:street_address": "3354 STATE ROUTE 34", "amenity": "post_box", "collection_times": "Mo-Fr 15:00; Sa 11:30", "indoor": "yes", "note": "ON 12/24 AND 12/31, THIS BOX MAY BE COLLECTED AS EARLY AS 12 NOON.", "nsi_id": "unitedstatespostalservice-a77078", "operator": "United States Postal Service", "operator:short": "USPS", "operator:type": "public", "operator:wikidata": "Q668687", "ref": "1314700003"}, "type": "Feature"}
{"geometry": {"coordinates": [-76.798151, 42.911964], "type": "Point"}, "id": "HdEbzQEFFzJYR71tPsiKtUOSqGs=", "properties": {"@source_uri": "https://tools.usps.com/UspsToolsRestServices/rest/POLocator/findLocations", "@spider": "usps_collection_boxes", "addr:city": "SENECA FALLS", "addr:country": "US", "addr:postcode": "13148", "addr:state": "NY", "addr:street_address": "38 STATE ST", "amenity": "post_box", "collection_times": "Mo-Fr 17:00; Sa 15:00", "indoor": "yes", "note": "ON 12/24 AND 12/31, THIS BOX MAY BE COLLECTED AS EARLY AS 12 NOON.", "nsi_id": "unitedstatespostalservice-a77078", "operator": "United States Postal Service", "operator:short": "USPS", "operator:type": "public", "operator:wikidata": "Q668687", "ref": "1314800001"}, "type": "Feature"}
{"geometry": {"coordinates": [-76.798174, 42.911998], "type": "Point"}, "id": "oIC0ecA5kPoSc0f7cqxNe5kNZ00=", "properties": {"@source_uri": "https://tools.usps.com/UspsToolsRestServices/rest/POLocator/findLocations", "@spider": "usps_collection_boxes", "addr:city": "SENECA FALLS", "addr:country": "US", "addr:postcode": "13148", "addr:state": "NY", "addr:street_address": "38 STATE ST", "amenity": "post_box", "collection_times": "Mo-Fr 17:00; Sa 15:00", "note": "ON 12/24 AND 12/31, THIS BOX MAY BE COLLECTED AS EARLY AS 12 NOON.", "nsi_id": "unitedstatespostalservice-a77078", "operator": "United States Postal Service", "operator:short": "USPS", "operator:type": "public", "operator:wikidata": "Q668687", "ref": "1314800002"}, "type": "Feature"}
{"geometry": {"coordinates": [-76.826531, 42.906488], "type": "Point"}, "id": "Na48vILdlsuszhNQ7zHBLFTmcsk=", "properties": {"@source_uri": "https://tools.usps.com/UspsToolsRestServices/rest/POLocator/findLocations", "@spider": "usps_collection_boxes", "addr:city": "SENECA FALLS", "addr:country": "US", "addr:postcode": "13148", "addr:state": "NY", "addr:street_address": "2109 US ROUTE 20", "amenity": "post_box", "collection_times": "Mo-Sa 09:00", "nsi_id": "unitedstatespostalservice-a77078", "operator": "United States Postal Service", "operator:short": "USPS", "operator:type": "public", "operator:wikidata": "Q668687", "ref": "1314800005"}, "type": "Feature"}
{"geometry": {"coordinates": [-76.7966548, 42.910414], "type": "Point"}, "id": "bWbfao1Edrl3OYuL_u3Ln2offxw=", "properties": {"@source_uri": "https://tools.usps.com/UspsToolsRestServices/rest/POLocator/findLocations", "@spider": "usps_collection_boxes", "addr:city": "SENECA FALLS", "addr:country": "US", "addr:postcode": "13148", "addr:state": "NY", "addr:street_address": "59 FALL ST", "amenity": "post_box", "collection_times": "Mo-Sa 09:00", "nsi_id": "unitedstatespostalservice-a77078", "operator": "United States Postal Service", "operator:short": "USPS", "operator:type": "public", "operator:wikidata": "Q668687", "ref": "1314800010"}, "type": "Feature"}
{"geometry": {"coordinates": [-76.7942882, 42.908314], "type": "Point"}, "id": "6mvo2NHHYsCnehRH-7cvfVfNl9s=", "properties": {"@source_uri": "https://tools.usps.com/UspsToolsRestServices/rest/POLocator/findLocations", "@spider": "usps_collection_boxes", "addr:city": "SENECA FALLS", "addr:country": "US", "addr:postcode": "13148", "addr:state": "NY", "addr:street_address": "20 E BAYARD ST", "amenity": "post_box", "collection_times": "Mo-Fr 15:00; Sa 12:00", "note": "ON 12/24 AND 12/31, THIS BOX MAY BE COLLECTED AS EARLY AS 12 NOON.", "nsi_id": "unitedstatespostalservice-a77078", "operator": "United States Postal Service", "operator:short": "USPS", "operator:type": "public", "operator:wikidata": "Q668687", "ref": "1314800016"}, "type": "Feature"}
{"geometry": {"coordinates": [-76.7995439, 42.911002], "type": "Point"}, "id": "SkJOk-E45pA_jGv0UBZWYHHCsLs=", "properties": {"@source_uri": "https://tools.usps.com/UspsToolsRestServices/rest/POLocator/findLocations", "@spider": "usps_collection_boxes", "addr:city": "SENECA FALLS", "addr:country": "US", "addr:postcode": "13148", "addr:state": "NY", "addr:street_address": "9 MYNDERSE ST", "amenity": "post_box", "collection_times": "Mo-Sa 12:00", "nsi_id": "unitedstatespostalservice-a77078", "operator": "United States Postal Service", "operator:short": "USPS", "operator:type": "public", "operator:wikidata": "Q668687", "ref": "1314800023"}, "type": "Feature"}
{"geometry": {"coordinates": [-76.79827057, 42.911727413], "type": "Point"}, "id": "eS6_lK6m3SZMtIcbZ1u5dAgMlhU=", "properties": {"@source_uri": "https://tools.usps.com/UspsToolsRestServices/rest/POLocator/findLocations", "@spider": "usps_collection_boxes", "addr:city": "SENECA FALLS", "addr:country": "US", "addr:postcode": "13148", "addr:state": "NY", "addr:street_address": "38 STATE ST", "amenity": "post_box", "collection_times": "Mo-Fr 17:00; Sa 12:00", "indoor": "yes", "note": "ON 12/24 AND 12/31, THIS BOX MAY BE COLLECTED AS EARLY AS 12 NOON.", "nsi_id": "unitedstatespostalservice-a77078", "operator": "United States Postal Service", "operator:short": "USPS", "operator:type": "public", "operator:wikidata": "Q668687", "ref": "1314800024"}, "type": "Feature"}
{"geometry": {"coordinates": [-76.431335, 42.947351], "type": "Point"}, "id": "Xr_5510goB8MmV-py3z_zIoXKZ8=", "properties": {"@source_uri": "https://tools.usps.com/UspsToolsRestServices/rest/POLocator/findLocations", "@spider": "usps_collection_boxes", "addr:city": "SKANEATELES", "addr:country": "US", "addr:postcode": "13152", "addr:state": "NY", "addr:street_address": "20 FENNELL ST", "amenity": "post_box", "collection_times": "Mo-Fr 17:00; Sa 14:00", "note": "ON 12/24 AND 12/31, THIS BOX MAY BE COLLECTED AS EARLY AS 12 NOON.", "nsi_id": "unitedstatespostalservice-a77078", "operator": "United States Postal Service", "operator:short": "USPS", "operator:type": "public", "operator:wikidata": "Q668687", "ref": "1315200002"}, "type": "Feature"}
{"geometry": {"coordinates": [-76.4277431, 42.945636], "type": "Point"}, "id": "wSmwW_YJnVcL4UCQGpT_6BEYhso=", "properties": {"@source_uri": "https://tools.usps.com/UspsToolsRestServices/rest/POLocator/findLocations", "@spider": "usps_collection_boxes", "addr:city": "SKANEATELES", "addr:country": "US", "addr:postcode": "13152", "addr:state": "NY", "addr:street_address": "46 E GENESEE ST", "amenity": "post_box", "collection_times": "Mo-Sa 10:00", "nsi_id": "unitedstatespostalservice-a77078", "operator": "United States Postal Service", "operator:short": "USPS", "operator:type": "public", "operator:wikidata": "Q668687", "ref": "1315200004"}, "type": "Feature"}
{"geometry": {"coordinates": [-76.4292299, 42.946824], "type": "Point"}, "id": "b7bvi10SaZ2rfEQCPKqUHfwpIRE=", "properties": {"@source_uri": "https://tools.usps.com/UspsToolsRestServices/rest/POLocator/findLocations", "@spider": "usps_collection_boxes", "addr:city": "SKANEATELES", "addr:country": "US", "addr:postcode": "13152", "addr:state": "NY", "addr:street_address": "24 JORDAN ST", "amenity": "post_box", "collection_times": "Mo-Sa 13:00", "note": "ON 12/24 AND 12/31, THIS BOX MAY BE COLLECTED AS EARLY AS 12 NOON.", "nsi_id": "unitedstatespostalservice-a77078", "operator": "United States Postal Service", "operator:short": "USPS", "operator:type": "public", "operator:wikidata": "Q668687", "ref": "1315200006"}, "type": "Feature"}
{"geometry": {"coordinates": [-76.431374, 42.947335], "type": "Point"}, "id": "h9OIOrlJuZ9j77btCpqTIcZlpMw=", "properties": {"@source_uri": "https://tools.usps.com/UspsToolsRestServices/rest/POLocator/findLocations", "@spider": "usps_collection_boxes", "addr:city": "SKANEATELES", "addr:country": "US", "addr:postcode": "13152", "addr:state": "NY", "addr:street_address": "20 FENNELL ST", "amenity": "post_box", "collection_times": "Mo-Fr 17:00; Sa 14:00", "indoor": "yes", "note": "ON 12/24 AND 12/31, THIS BOX MAY BE COLLECTED AS EARLY AS 12 NOON.", "nsi_id": "unitedstatespostalservice-a77078", "operator": "United States Postal Service", "operator:short": "USPS", "operator:type": "public", "operator:wikidata": "Q668687", "ref": "1315200008"}, "type": "Feature"}
{"geometry": {"coordinates": [-76.431374, 42.947335], "type": "Point"}, "id": "9JaQi8QnAy_S2gWlx43Q01yCRnM=", "properties": {"@source_uri": "https://tools.usps.com/UspsToolsRestServices/rest/POLocator/findLocations", "@spider": "usps_collection_boxes", "addr:city": "SKANEATELES", "addr:country": "US", "addr:postcode": "13152", "addr:state": "NY", "addr:street_address": "20 FENNELL ST", "amenity": "post_box", "collection_times": "Mo-Fr 17:00; Sa 14:00", "indoor": "yes", "note": "ON 12/24 AND 12/31, THIS BOX MAY BE COLLECTED AS EARLY AS 12 NOON.", "nsi_id": "unitedstatespostalservice-a77078", "operator": "United States Postal Service", "operator:short": "USPS", "operator:type": "public", "operator:wikidata": "Q668687", "ref": "1315200009"}, "type": "Feature"}
{"geometry": {"coordinates": [-76.4293127, 42.947725], "type": "Point"}, "id": "5jcfAnygVBTxcsDppYaRD-d4xx0=", "properties": {"@source_uri": "https://tools.usps.com/UspsToolsRestServices/rest/POLocator/findLocations", "@spider": "usps_collection_boxes", "addr:city": "SKANEATELES", "addr:country": "US", "addr:postcode": "13152", "addr:state": "NY", "addr:street_address": "32 JORDAN ST", "amenity": "post_box", "collection_times": "Mo-Sa 13:00", "note": "ON 12/24 AND 12/31, THIS BOX MAY BE COLLECTED AS EARLY AS 12 NOON.", "nsi_id": "unitedstatespostalservice-a77078", "operator": "United States Postal Service", "operator:short": "USPS", "operator:type": "public", "operator:wikidata": "Q668687", "ref": "1315200011"}, "type": "Feature"}
{"geometry": {"coordinates": [-76.43123285, 42.9473046], "type": "Point"}, "id": "y9oLma4sC91S6QeX_a1PYE2oWng=", "properties": {"@source_uri": "https://tools.usps.com/UspsToolsRestServices/rest/POLocator/findLocations", "@spider": "usps_collection_boxes", "addr:city": "SKANEATELES", "addr:country": "US", "addr:postcode": "13152", "addr:state": "NY", "addr:street_address": "20 FENNELL ST", "amenity": "post_box", "collection_times": "Mo-Fr 17:00; Sa 12:00", "indoor": "yes", "note": "ON 12/24 AND 12/31, THIS BOX MAY BE COLLECTED AS EARLY AS 12 NOON.", "nsi_id": "unitedstatespostalservice-a77078", "operator": "United States Postal Service", "operator:short": "USPS", "operator:type": "public", "operator:wikidata": "Q668687", "ref": "1315200013"}, "type": "Feature"}
{"geometry": {"coordinates": [-76.454825, 42.991798], "type": "Point"}, "id": "a6rkThDjuNjptuXajWYXSVJRZhM=", "properties": {"@source_uri": "https://tools.usps.com/UspsToolsRestServices/rest/POLocator/findLocations", "@spider": "usps_collection_boxes", "addr:city": "SKAN FALLS", "addr:country": "US", "addr:postcode": "13153", "addr:state": "NY", "addr:street_address": "4564 JORDAN RD", "amenity": "post_box", "collection_times": "Mo-Fr 16:45; Sa 11:15", "note": "ON 12/24 AND 12/31, THIS BOX MAY BE COLLECTED AS EARLY AS 12 NOON.", "nsi_id": "unitedstatespostalservice-a77078", "operator": "United States Postal Service", "operator:short": "USPS", "operator:type": "public", "operator:wikidata": "Q668687", "ref": "1315300001"}, "type": "Feature"}
{"geometry": {"coordinates": [-76.454835, 42.991767], "type": "Point"}, "id": "l2J7fE2QYCwtcs5MnSm3m9fAFIA=", "properties": {"@source_uri": "https://tools.usps.com/UspsToolsRestServices/rest/POLocator/findLocations", "@spider": "usps_collection_boxes", "addr:city": "SKAN FALLS", "addr:country": "US", "addr:postcode": "13153", "addr:state": "NY", "addr:street_address": "4564 JORDAN RD", "amenity": "post_box", "collection_times": "Mo-Fr 16:45; Sa 11:15", "indoor": "yes", "note": "ON 12/24 AND 12/31, THIS BOX MAY BE COLLECTED AS EARLY AS 12 NOON.", "nsi_id": "unitedstatespostalservice-a77078", "operator": "United States Postal Service", "operator:short": "USPS", "operator:type": "public", "operator:wikidata": "Q668687", "ref": "1315300002"}, "type": "Feature"}
{"geometry": {"coordinates": [-76.455343552, 42.992181911], "type": "Point"}, "id": "-rMQ8dLIqOgiBhd5Ics1m5Mw1eM=", "properties": {"@source_uri": "https://tools.usps.com/UspsToolsRestServices/rest/POLocator/findLocations", "@spider": "usps_collection_boxes", "addr:city": "SKAN FALLS", "addr:country": "US", "addr:postcode": "13153", "addr:state": "NY", "addr:street_address": "4564 JORDAN RD", "amenity": "post_box", "collection_times": "Mo-Fr 16:45; Sa 11:00", "indoor": "yes", "note": "ON 12/24 AND 12/31, THIS BOX MAY BE COLLECTED AS EARLY AS 12 NOON.", "nsi_id": "unitedstatespostalservice-a77078", "operator": "United States Postal Service", "operator:short": "USPS", "operator:type": "public", "operator:wikidata": "Q668687", "ref": "1315300004"}, "type": "Feature"}
{"geometry": {"coordinates": [-76.766181, 43.132018], "type": "Point"}, "id": "sK_-FC3tDtYnexYcd2uF5HXa4xw=", "properties": {"@source_uri": "https://tools.usps.com/UspsToolsRestServices/rest/POLocator/findLocations", "@spider": "usps_collection_boxes", "addr:city": "SOUTH BUTLER", "addr:country": "US", "addr:postcode": "13154", "addr:state": "NY", "addr:street_address": "3453 RT 89", "amenity": "post_box", "collection_times": "Mo-Fr 16:15; Sa 11:45", "note": "ON 12/24 AND 12/31, THIS BOX MAY BE COLLECTED AS EARLY AS 12 NOON.", "nsi_id": "unitedstatespostalservice-a77078", "operator": "United States Postal Service", "operator:short": "USPS", "operator:type": "public", "operator:wikidata": "Q668687", "ref": "1315400001"}, "type": "Feature"}
{"geometry": {"coordinates": [-76.766181, 43.132019], "type": "Point"}, "id": "oyx-nVOLuMxIxlgm24xs6LPUFZQ=", "properties": {"@source_uri": "https://tools.usps.com/UspsToolsRestServices/rest/POLocator/findLocations", "@spider": "usps_collection_boxes", "addr:city": "SOUTH BUTLER", "addr:country": "US", "addr:postcode": "13154", "addr:state": "NY", "addr:street_address": "3453 RT 89", "amenity": "post_box", "collection_times": "Mo-Fr 16:30; Sa 11:45", "indoor": "yes", "note": "ON 12/24 AND 12/31, THIS BOX MAY BE COLLECTED AS EARLY AS 12 NOON.", "nsi_id": "unitedstatespostalservice-a77078", "operator": "United States Postal Service", "operator:short": "USPS", "operator:type": "public", "operator:wikidata": "Q668687", "ref": "1315400002"}, "type": "Feature"}
{"geometry": {"coordinates": [-76.766179744, 43.131990374], "type": "Point"}, "id": "VDPiMjd-OJ-Ei3PVpgq3DCtPRNE=", "properties": {"@source_uri": "https://tools.usps.com/UspsToolsRestServices/rest/POLocator/findLocations", "@spider": "usps_collection_boxes", "addr:city": "SOUTH BUTLER", "addr:country": "US", "addr:postcode": "13154", "addr:state": "NY", "addr:street_address": "3453 STATE ROUTE 89", "amenity": "post_box", "collection_times": "Mo-Fr 16:30; Sa 11:45", "indoor": "yes", "note": "ON 12/24 AND 12/31, THIS BOX MAY BE COLLECTED AS EARLY AS 12 NOON.", "nsi_id": "unitedstatespostalservice-a77078", "operator": "United States Postal Service", "operator:short": "USPS", "operator:type": "public", "operator:wikidata": "Q668687", "ref": "1315400003"}, "type": "Feature"}
{"geometry": {"coordinates": [-75.78133, 42.646773], "type": "Point"}, "id": "VIdoKf5N3UvhvmlvTXHFFJVWBDo=", "properties": {"@source_uri": "https://tools.usps.com/UspsToolsRestServices/rest/POLocator/findLocations", "@spider": "usps_collection_boxes", "addr:city": "SOUTH OTSELIC", "addr:country": "US", "addr:postcode": "13155", "addr:state": "NY", "addr:street_address": "1605 STATE HIGHWAY 26", "amenity": "post_box", "collection_times": "Mo-Fr 16:30; Sa 11:45", "note": "ON 12/24 AND 12/31, THIS BOX MAY BE COLLECTED AS EARLY AS 12 NOON.", "nsi_id": "unitedstatespostalservice-a77078", "operator": "United States Postal Service", "operator:short": "USPS", "operator:type": "public", "operator:wikidata": "Q668687", "ref": "1315500001"}, "type": "Feature"}
{"geometry": {"coordinates": [-75.781207, 42.6468], "type": "Point"}, "id": "KsrKlkNbw_9JxDwta927U2ZxLto=", "properties": {"@source_uri": "https://tools.usps.com/UspsToolsRestServices/rest/POLocator/findLocations", "@spider": "usps_collection_boxes", "addr:city": "SOUTH OTSELIC", "addr:country": "US", "addr:postcode": "13155", "addr:state": "NY", "addr:street_address": "1605 STATE HIGHWAY 26", "amenity": "post_box", "collection_times": "Mo-Fr 16:30; Sa 11:45", "indoor": "yes", "note": "ON 12/24 AND 12/31, THIS BOX MAY BE COLLECTED AS EARLY AS 12 NOON.", "nsi_id": "unitedstatespostalservice-a77078", "operator": "United States Postal Service", "operator:short": "USPS", "operator:type": "public", "operator:wikidata": "Q668687", "ref": "1315500002"}, "type": "Feature"}
{"geometry": {"coordinates": [-75.781225419, 42.64681877], "type": "Point"}, "id": "Cgb1UQjrmmkwbt0NfMRApYouA18=", "properties": {"@source_uri": "https://tools.usps.com/UspsToolsRestServices/rest/POLocator/findLocations", "@spider": "usps_collection_boxes", "addr:city": "SOUTH OTSELIC", "addr:country": "US", "addr:postcode": "13155", "addr:state": "NY", "addr:street_address": "1605 STATE HIGHWAY 26", "amenity": "post_box", "collection_times": "Mo-Fr 16:30; Sa 11:45", "indoor": "yes", "note": "ON 12/24 AND 12/31, THIS BOX MAY BE COLLECTED AS EARLY AS 12 NOON.", "nsi_id": "unitedstatespostalservice-a77078", "operator": "United States Postal Service", "operator:short": "USPS", "operator:type": "public", "operator:wikidata": "Q668687", "ref": "1315500004"}, "type": "Feature"}
{"geometry": {"coordinates": [-76.646362, 43.325656], "type": "Point"}, "id": "tgVdU4cEhYSDnIxZwPUhclyGE24=", "properties": {"@source_uri": "https://tools.usps.com/UspsToolsRestServices/rest/POLocator/findLocations", "@spider": "usps_collection_boxes", "addr:city": "STERLING", "addr:country": "US", "addr:postcode": "13156", "addr:state": "NY", "addr:street_address": "1325 STATE ROUTE 104A", "amenity": "post_box", "collection_times": "Mo-Fr 15:00; Sa 11:30", "note": "ON 12/24 AND 12/31, THIS BOX MAY BE COLLECTED AS EARLY AS 12 NOON.", "nsi_id": "unitedstatespostalservice-a77078", "operator": "United States Postal Service", "operator:short": "USPS", "operator:type": "public", "operator:wikidata": "Q668687", "ref": "1315600001"}, "type": "Feature"}
{"geometry": {"coordinates": [-76.646348, 43.325656], "type": "Point"}, "id": "4hb7A4WZBVVOUFc7I36rKbA2gpw=", "properties": {"@source_uri": "https://tools.usps.com/UspsToolsRestServices/rest/POLocator/findLocations", "@spider": "usps_collection_boxes", "addr:city": "STERLING", "addr:country": "US", "addr:postcode": "13156", "addr:state": "NY", "addr:street_address": "1325 STATE ROUTE 104A", "amenity": "post_box", "collection_times": "Mo-Fr 15:00; Sa 11:30", "indoor": "yes", "note": "ON 12/24 AND 12/31, THIS BOX MAY BE COLLECTED AS EARLY AS 12 NOON.", "nsi_id": "unitedstatespostalservice-a77078", "operator": "United States Postal Service", "operator:short": "USPS", "operator:type": "public", "operator:wikidata": "Q668687", "ref": "1315600002"}, "type": "Feature"}
{"geometry": {"coordinates": [-76.646336542, 43.325655107], "type": "Point"}, "id": "I1YcqpF5ZKgcsDoVjP1jw_vuMeo=", "properties": {"@source_uri": "https://tools.usps.com/UspsToolsRestServices/rest/POLocator/findLocations", "@spider": "usps_collection_boxes", "addr:city": "STERLING", "addr:country": "US", "addr:postcode": "13156", "addr:state": "NY", "addr:street_address": "1325 STATE ROUTE 104A", "amenity": "post_box", "collection_times": "Mo-Fr 15:00; Sa 11:30", "indoor": "yes", "note": "ON 12/24 AND 12/31, THIS BOX MAY BE COLLECTED AS EARLY AS 12 NOON.", "nsi_id": "unitedstatespostalservice-a77078", "operator": "United States Postal Service", "operator:short": "USPS", "operator:type": "public", "operator:wikidata": "Q668687", "ref": "1315600003"}, "type": "Feature"}
{"geometry": {"coordinates": [-75.728154, 43.20261], "type": "Point"}, "id": "9jjGYQBXxeJwpOD_Xc51FzpeMoo=", "properties": {"@source_uri": "https://tools.usps.com/UspsToolsRestServices/rest/POLocator/findLocations", "@spider": "usps_collection_boxes", "addr:city": "SYLVAN BEACH", "addr:country": "US", "addr:postcode": "13157", "addr:state": "NY", "addr:street_address": "1404 MAIN ST", "amenity": "post_box", "collection_times": "Mo-Fr 16:00; Sa 11:45", "indoor": "yes", "note": "ON 12/24 AND 12/31, THIS BOX MAY BE COLLECTED AS EARLY AS 12 NOON.", "nsi_id": "unitedstatespostalservice-a77078", "operator": "United States Postal Service", "operator:short": "USPS", "operator:type": "public", "operator:wikidata": "Q668687", "ref": "1315700001"}, "type": "Feature"}
{"geometry": {"coordinates": [-75.728154, 43.20261], "type": "Point"}, "id": "yh105TiXYXGQcHdZJetUeVhQ8eU=", "properties": {"@source_uri": "https://tools.usps.com/UspsToolsRestServices/rest/POLocator/findLocations", "@spider": "usps_collection_boxes", "addr:city": "SYLVAN BEACH", "addr:country": "US", "addr:postcode": "13157", "addr:state": "NY", "addr:street_address": "1404 MAIN ST & 14TH AVE", "amenity": "post_box", "collection_times": "Mo-Fr 16:00; Sa 11:45", "note": "ON 12/24 AND 12/31, THIS BOX MAY BE COLLECTED AS EARLY AS 12 NOON.", "nsi_id": "unitedstatespostalservice-a77078", "operator": "United States Postal Service", "operator:short": "USPS", "operator:type": "public", "operator:wikidata": "Q668687", "ref": "1315700002"}, "type": "Feature"}
{"geometry": {"coordinates": [-75.728154448, 43.202626292], "type": "Point"}, "id": "UY-24rLRVh9aTfagP9o0codbC6Q=", "properties": {"@source_uri": "https://tools.usps.com/UspsToolsRestServices/rest/POLocator/findLocations", "@spider": "usps_collection_boxes", "addr:city": "SYLVAN BEACH", "addr:country": "US", "addr:postcode": "13157", "addr:state": "NY", "addr:street_address": "1404 MAIN ST", "amenity": "post_box", "collection_times": "Mo-Fr 16:00; Sa 11:30", "indoor": "yes", "note": "ON 12/24 AND 12/31, THIS BOX MAY BE COLLECTED AS EARLY AS 12 NOON.", "nsi_id": "unitedstatespostalservice-a77078", "operator": "United States Postal Service", "operator:short": "USPS", "operator:type": "public", "operator:wikidata": "Q668687", "ref": "1315700004"}, "type": "Feature"}
{"geometry": {"coordinates": [-76.030724, 42.711924], "type": "Point"}, "id": "sdUle0Xr10-wxjQDBDYjDf1NN7c=", "properties": {"@source_uri": "https://tools.usps.com/UspsToolsRestServices/rest/POLocator/findLocations", "@spider": "usps_collection_boxes", "addr:city": "TRUXTON", "addr:country": "US", "addr:postcode": "13158", "addr:state": "NY", "addr:street_address": "3706 ROUTE 13", "amenity": "post_box", "collection_times": "Mo-Fr 12:00; Sa 10:45", "nsi_id": "unitedstatespostalservice-a77078", "operator": "United States Postal Service", "operator:short": "USPS", "operator:type": "public", "operator:wikidata": "Q668687", "ref": "1315800001"}, "type": "Feature"}
{"geometry": {"coordinates": [-76.030724, 42.711925], "type": "Point"}, "id": "TLc1uDw-QOwfRUyupRZ_vZSUtX4=", "properties": {"@source_uri": "https://tools.usps.com/UspsToolsRestServices/rest/POLocator/findLocations", "@spider": "usps_collection_boxes", "addr:city": "TRUXTON", "addr:country": "US", "addr:postcode": "13158", "addr:state": "NY", "addr:street_address": "3706 ROUTE 13", "amenity": "post_box", "collection_times": "Mo-Fr 12:00; Sa 10:45", "indoor": "yes", "nsi_id": "unitedstatespostalservice-a77078", "operator": "United States Postal Service", "operator:short": "USPS", "operator:type": "public", "operator:wikidata": "Q668687", "ref": "1315800003"}, "type": "Feature"}
{"geometry": {"coordinates": [-76.030830526, 42.711921496], "type": "Point"}, "id": "qwIZz3LGjWx0CMI2LrdoCJA3T0w=", "properties": {"@source_uri": "https://tools.usps.com/UspsToolsRestServices/rest/POLocator/findLocations", "@spider": "usps_collection_boxes", "addr:city": "TRUXTON", "addr:country": "US", "addr:postcode": "13158", "addr:state": "NY", "addr:street_address": "3706 STATE ROUTE 13", "amenity": "post_box", "collection_times": "Mo-Fr 12:00; Sa 10:30", "indoor": "yes", "nsi_id": "unitedstatespostalservice-a77078", "operator": "United States Postal Service", "operator:short": "USPS", "operator:type": "public", "operator:wikidata": "Q668687", "ref": "1315800004"}, "type": "Feature"}
{"geometry": {"coordinates": [-76.11168, 42.797874], "type": "Point"}, "id": "N8HGYLbBFtOjnM6I2x62ogRXXXQ=", "properties": {"@source_uri": "https://tools.usps.com/UspsToolsRestServices/rest/POLocator/findLocations", "@spider": "usps_collection_boxes", "addr:city": "TULLY", "addr:country": "US", "addr:postcode": "13159", "addr:state": "NY", "addr:street_address": "24 ELM ST", "amenity": "post_box", "collection_times": "Mo-Fr 17:00; Sa 12:00", "note": "ON 12/24 AND 12/31, THIS BOX MAY BE COLLECTED AS EARLY AS 12 NOON.", "nsi_id": "unitedstatespostalservice-a77078", "operator": "United States Postal Service", "operator:short": "USPS", "operator:type": "public", "operator:wikidata": "Q668687", "ref": "1315900001"}, "type": "Feature"}
{"geometry": {"coordinates": [-76.111685, 42.797845], "type": "Point"}, "id": "OHX1GhO1Q3_2asLt-iVytJLzTTY=", "properties": {"@source_uri": "https://tools.usps.com/UspsToolsRestServices/rest/POLocator/findLocations", "@spider": "usps_collection_boxes", "addr:city": "TULLY", "addr:country": "US", "addr:postcode": "13159", "addr:state": "NY", "addr:street_address": "24 ELM ST", "amenity": "post_box", "collection_times": "Mo-Fr 17:00; Sa 12:00", "indoor": "yes", "note": "ON 12/24 AND 12/31, THIS BOX MAY BE COLLECTED AS EARLY AS 12 NOON.", "nsi_id": "unitedstatespostalservice-a77078", "operator": "United States Postal Service", "operator:short": "USPS", "operator:type": "public", "operator:wikidata": "Q668687", "ref": "1315900002"}, "type": "Feature"}
{"geometry": {"coordinates": [-76.110827228, 42.797987286], "type": "Point"}, "id": "1H2nCv7XGep9Wy6NPpLsXUIzGos=", "properties": {"@source_uri": "https://tools.usps.com/UspsToolsRestServices/rest/POLocator/findLocations", "@spider": "usps_collection_boxes", "addr:city": "TULLY", "addr:country": "US", "addr:postcode": "13159", "addr:state": "NY", "addr:street_address": "24 ELM ST", "amenity": "post_box", "collection_times": "Mo-Fr 17:00; Sa 12:00", "indoor": "yes", "note": "ON 12/24 AND 12/31, THIS BOX MAY BE COLLECTED AS EARLY AS 12 NOON.", "nsi_id": "unitedstatespostalservice-a77078", "operator": "United States Postal Service", "operator:short": "USPS", "operator:type": "public", "operator:wikidata": "Q668687", "ref": "1315900003"}, "type": "Feature"}
{"geometry": {"coordinates": [-76.692821, 42.839843], "type": "Point"}, "id": "Vnf4e76ZA7Ump-mPM8asiksj35Y=", "properties": {"@source_uri": "https://tools.usps.com/UspsToolsRestServices/rest/POLocator/findLocations", "@spider": "usps_collection_boxes", "addr:city": "UNION SPRINGS", "addr:country": "US", "addr:postcode": "13160", "addr:state": "NY", "addr:street_address": "116 CAYUGA ST", "amenity": "post_box", "collection_times": "Mo-Fr 16:30; Sa 12:00", "note": "ON 12/24 AND 12/31, THIS BOX MAY BE COLLECTED AS EARLY AS 12 NOON.", "nsi_id": "unitedstatespostalservice-a77078", "operator": "United States Postal Service", "operator:short": "USPS", "operator:type": "public", "operator:wikidata": "Q668687", "ref": "1316000001"}, "type": "Feature"}
{"geometry": {"coordinates": [-76.69289, 42.839764], "type": "Point"}, "id": "rCr8gvQc7YPAoxQSyr-CULMJ9UQ=", "properties": {"@source_uri": "https://tools.usps.com/UspsToolsRestServices/rest/POLocator/findLocations", "@spider": "usps_collection_boxes", "addr:city": "UNION SPRINGS", "addr:country": "US", "addr:postcode": "13160", "addr:state": "NY", "addr:street_address": "116 CAYUGA ST", "amenity": "post_box", "collection_times": "Mo-Fr 16:45; Sa 12:00", "indoor": "yes", "note": "ON 12/24 AND 12/31, THIS BOX MAY BE COLLECTED AS EARLY AS 12 NOON.", "nsi_id": "unitedstatespostalservice-a77078", "operator": "United States Postal Service", "operator:short": "USPS", "operator:type": "public", "operator:wikidata": "Q668687", "ref": "1316000002"}, "type": "Feature"}
{"geometry": {"coordinates": [-76.692809103, 42.839885442], "type": "Point"}, "id": "l5k0i_bdX--G4uIpbWioRJiyDCc=", "properties": {"@source_uri": "https://tools.usps.com/UspsToolsRestServices/rest/POLocator/findLocations", "@spider": "usps_collection_boxes", "addr:city": "UNION SPRINGS", "addr:country": "US", "addr:postcode": "13160", "addr:state": "NY", "addr:street_address": "116 CAYUGA ST", "amenity": "post_box", "collection_times": "Mo-Fr 16:30; Sa 12:00", "indoor": "yes", "note": "ON 12/24 AND 12/31, THIS BOX MAY BE COLLECTED AS EARLY AS 12 NOON.", "nsi_id": "unitedstatespostalservice-a77078", "operator": "United States Postal Service", "operator:short": "USPS", "operator:type": "public", "operator:wikidata": "Q668687", "ref": "1316000003"}, "type": "Feature"}
{"geometry": {"coordinates": [-75.728912, 43.190998], "type": "Point"}, "id": "aloaq34ne--L7PEg0NMCcm8HlHM=", "properties": {"@source_uri": "https://tools.usps.com/UspsToolsRestServices/rest/POLocator/findLocations", "@spider": "usps_collection_boxes", "addr:city": "VERONA BEACH", "addr:country": "US", "addr:postcode": "13162", "addr:state": "NY", "addr:street_address": "6783 LAKE SHORE RD N", "amenity": "post_box", "collection_times": "Mo-Fr 16:30; Sa 11:30", "note": "ON 12/24 AND 12/31, THIS BOX MAY BE COLLECTED AS EARLY AS 12 NOON.", "nsi_id": "unitedstatespostalservice-a77078", "operator": "United States Postal Service", "operator:short": "USPS", "operator:type": "public", "operator:wikidata": "Q668687", "ref": "1316200001"}, "type": "Feature"}
{"geometry": {"coordinates": [-75.728889, 43.19094], "type": "Point"}, "id": "nMPw4e8y4SnefptZPwD-mYSF330=", "properties": {"@source_uri": "https://tools.usps.com/UspsToolsRestServices/rest/POLocator/findLocations", "@spider": "usps_collection_boxes", "addr:city": "VERONA BEACH", "addr:country": "US", "addr:postcode": "13162", "addr:state": "NY", "addr:street_address": "6783 LAKE SHORE RD N", "amenity": "post_box", "collection_times": "Mo-Fr 16:30; Sa 11:45", "indoor": "yes", "note": "ON 12/24 AND 12/31, THIS BOX MAY BE COLLECTED AS EARLY AS 12 NOON.", "nsi_id": "unitedstatespostalservice-a77078", "operator": "United States Postal Service", "operator:short": "USPS", "operator:type": "public", "operator:wikidata": "Q668687", "ref": "1316200002"}, "type": "Feature"}
{"geometry": {"coordinates": [-75.728940071, 43.190978344], "type": "Point"}, "id": "VefEHEsEq77we0qyNnUbWcZpq94=", "properties": {"@source_uri": "https://tools.usps.com/UspsToolsRestServices/rest/POLocator/findLocations", "@spider": "usps_collection_boxes", "addr:city": "VERONA BEACH", "addr:country": "US", "addr:postcode": "13162", "addr:state": "NY", "addr:street_address": "6783 LAKE SHORE RD N", "amenity": "post_box", "collection_times": "Mo-Fr 16:45; Sa 11:45", "indoor": "yes", "note": "ON 12/24 AND 12/31, THIS BOX MAY BE COLLECTED AS EARLY AS 12 NOON.", "nsi_id": "unitedstatespostalservice-a77078", "operator": "United States Postal Service", "operator:short": "USPS", "operator:type": "public", "operator:wikidata": "Q668687", "ref": "1316200003"}, "type": "Feature"}
{"geometry": {"coordinates": [-75.707552, 43.080981], "type": "Point"}, "id": "he7qDh9yDr_WTVJiIrDHeBN5IOg=", "properties": {"@source_uri": "https://tools.usps.com/UspsToolsRestServices/rest/POLocator/findLocations", "@spider": "usps_collection_boxes", "addr:city": "WAMPSVILLE", "addr:country": "US", "addr:postcode": "13163", "addr:state": "NY", "addr:street_address": "137 N COURT ST", "amenity": "post_box", "collection_times": "Mo-Fr 16:45; Sa 11:45", "indoor": "yes", "note": "ON 12/24 AND 12/31, THIS BOX MAY BE COLLECTED AS EARLY AS 12 NOON.", "nsi_id": "unitedstatespostalservice-a77078", "operator": "United States Postal Service", "operator:short": "USPS", "operator:type": "public", "operator:wikidata": "Q668687", "ref": "1316300001"}, "type": "Feature"}
{"geometry": {"coordinates": [-75.707527, 43.081073], "type": "Point"}, "id": "-Xcc8I-ik9u49Mh1M7hjkJ4c6XQ=", "properties": {"@source_uri": "https://tools.usps.com/UspsToolsRestServices/rest/POLocator/findLocations", "@spider": "usps_collection_boxes", "addr:city": "WAMPSVILLE", "addr:country": "US", "addr:postcode": "13163", "addr:state": "NY", "addr:street_address": "137 N COURT ST", "amenity": "post_box", "collection_times": "Mo-Fr 16:45; Sa 11:45", "note": "ON 12/24 AND 12/31, THIS BOX MAY BE COLLECTED AS EARLY AS 12 NOON.", "nsi_id": "unitedstatespostalservice-a77078", "operator": "United States Postal Service", "operator:short": "USPS", "operator:type": "public", "operator:wikidata": "Q668687", "ref": "1316300002"}, "type": "Feature"}
{"geometry": {"coordinates": [-75.70754891, 43.080943694], "type": "Point"}, "id": "6QSmfeEDHwBEg2Xz4TtfHNLVC7E=", "properties": {"@source_uri": "https://tools.usps.com/UspsToolsRestServices/rest/POLocator/findLocations", "@spider": "usps_collection_boxes", "addr:city": "WAMPSVILLE", "addr:country": "US", "addr:postcode": "13163", "addr:state": "NY", "addr:street_address": "137 N COURT ST", "amenity": "post_box", "collection_times": "Mo-Fr 17:00; Sa 12:00", "indoor": "yes", "note": "ON 12/24 AND 12/31, THIS BOX MAY BE COLLECTED AS EARLY AS 12 NOON.", "nsi_id": "unitedstatespostalservice-a77078", "operator": "United States Postal Service", "operator:short": "USPS", "operator:type": "public", "operator:wikidata": "Q668687", "ref": "1316300003"}, "type": "Feature"}
{"geometry": {"coordinates": [-76.328851, 43.083483], "type": "Point"}, "id": "-cy2VlT6Ep8DDcnUGNPUx8cjNvk=", "properties": {"@source_uri": "https://tools.usps.com/UspsToolsRestServices/rest/POLocator/findLocations", "@spider": "usps_collection_boxes", "addr:city": "WARNERS", "addr:country": "US", "addr:postcode": "13164", "addr:state": "NY", "addr:street_address": "6454 NEWPORT RD", "amenity": "post_box", "collection_times": "Mo-Fr 15:00; Sa 11:00", "note": "ON 12/24 AND 12/31, THIS BOX MAY BE COLLECTED AS EARLY AS 12 NOON.", "nsi_id": "unitedstatespostalservice-a77078", "operator": "United States Postal Service", "operator:short": "USPS", "operator:type": "public", "operator:wikidata": "Q668687", "ref": "1316400001"}, "type": "Feature"}
{"geometry": {"coordinates": [-76.328897, 43.083544], "type": "Point"}, "id": "Qg_S8q5e9o88eXtptyQWQ1k-7V8=", "properties": {"@source_uri": "https://tools.usps.com/UspsToolsRestServices/rest/POLocator/findLocations", "@spider": "usps_collection_boxes", "addr:city": "WARNERS", "addr:country": "US", "addr:postcode": "13164", "addr:state": "NY", "addr:street_address": "6454 NEWPORT RD", "amenity": "post_box", "collection_times": "Mo-Fr 15:00; Sa 11:00", "indoor": "yes", "note": "ON 12/24 AND 12/31, THIS BOX MAY BE COLLECTED AS EARLY AS 12 NOON.", "nsi_id": "unitedstatespostalservice-a77078", "operator": "United States Postal Service", "operator:short": "USPS", "operator:type": "public", "operator:wikidata": "Q668687", "ref": "1316400002"}, "type": "Feature"}
{"geometry": {"coordinates": [-76.328815563, 43.083357586], "type": "Point"}, "id": "QlsKVtYqFU56EKddkv0I-uXc1lY=", "properties": {"@source_uri": "https://tools.usps.com/UspsToolsRestServices/rest/POLocator/findLocations", "@spider": "usps_collection_boxes", "addr:city": "WARNERS", "addr:country": "US", "addr:postcode": "13164", "addr:state": "NY", "addr:street_address": "6454 NEWPORT RD", "amenity": "post_box", "collection_times": "Mo-Fr 15:00; Sa 11:00", "indoor": "yes", "note": "ON 12/24 AND 12/31, THIS BOX MAY BE COLLECTED AS EARLY AS 12 NOON.", "nsi_id": "unitedstatespostalservice-a77078", "operator": "United States Postal Service", "operator:short": "USPS", "operator:type": "public", "operator:wikidata": "Q668687", "ref": "1316400003"}, "type": "Feature"}
{"geometry": {"coordinates": [-76.862857, 42.904671], "type": "Point"}, "id": "KfC02Bbpyu0pnMn1KOnRVDj7JV0=", "properties": {"@source_uri": "https://tools.usps.com/UspsToolsRestServices/rest/POLocator/findLocations", "@spider": "usps_collection_boxes", "addr:city": "WATERLOO", "addr:country": "US", "addr:postcode": "13165", "addr:state": "NY", "addr:street_address": "2 E MAIN ST", "amenity": "post_box", "collection_times": "Mo-Fr 17:00; Sa 15:30", "note": "ON 12/24 AND 12/31, THIS BOX MAY BE COLLECTED AS EARLY AS 12 NOON.", "nsi_id": "unitedstatespostalservice-a77078", "operator": "United States Postal Service", "operator:short": "USPS", "operator:type": "public", "operator:wikidata": "Q668687", "ref": "1316500002"}, "type": "Feature"}
{"geometry": {"coordinates": [-76.8669295, 42.905441], "type": "Point"}, "id": "NGDHu-oebkRen_9kzu3euCW3NRM=", "properties": {"@source_uri": "https://tools.usps.com/UspsToolsRestServices/rest/POLocator/findLocations", "@spider": "usps_collection_boxes", "addr:city": "WATERLOO", "addr:country": "US", "addr:postcode": "13165", "addr:state": "NY", "addr:street_address": "46 W WILLIAMS ST", "amenity": "post_box", "collection_times": "Mo-Sa 09:00", "nsi_id": "unitedstatespostalservice-a77078", "operator": "United States Postal Service", "operator:short": "USPS", "operator:type": "public", "operator:wikidata": "Q668687", "ref": "1316500006"}, "type": "Feature"}
{"geometry": {"coordinates": [-76.8464081, 42.904261], "type": "Point"}, "id": "Jxcxd6ti_fGxcyJOhOisJYi5-tY=", "properties": {"@source_uri": "https://tools.usps.com/UspsToolsRestServices/rest/POLocator/findLocations", "@spider": "usps_collection_boxes", "addr:city": "WATERLOO", "addr:country": "US", "addr:postcode": "13165", "addr:state": "NY", "addr:street_address": "369 E MAIN ST", "amenity": "post_box", "collection_times": "Mo-Fr 10:00", "nsi_id": "unitedstatespostalservice-a77078", "operator": "United States Postal Service", "operator:short": "USPS", "operator:type": "public", "operator:wikidata": "Q668687", "ref": "1316500008"}, "type": "Feature"}
{"geometry": {"coordinates": [-76.9214000166, 42.9561000052], "type": "Point"}, "id": "xTdW2ncscZxQW1CZkdqMuNS09fA=", "properties": {"@source_uri": "https://tools.usps.com/UspsToolsRestServices/rest/POLocator/findLocations", "@spider": "usps_collection_boxes", "addr:city": "WATERLOO", "addr:country": "US", "addr:postcode": "13165", "addr:state": "NY", "addr:street_address": "655 STATE ROUTE 318 #1", "amenity": "post_box", "collection_times": "Mo-Sa 11:00", "nsi_id": "unitedstatespostalservice-a77078", "operator": "United States Postal Service", "operator:short": "USPS", "operator:type": "public", "operator:wikidata": "Q668687", "ref": "1316500018"}, "type": "Feature"}
{"geometry": {"coordinates": [-76.862857, 42.904671], "type": "Point"}, "id": "ZbpG3J19j0L9QRO_fJXKHqYdb_0=", "properties": {"@source_uri": "https://tools.usps.com/UspsToolsRestServices/rest/POLocator/findLocations", "@spider": "usps_collection_boxes", "addr:city": "WATERLOO", "addr:country": "US", "addr:postcode": "13165", "addr:state": "NY", "addr:street_address": "2 E MAIN ST", "amenity": "post_box", "collection_times": "Mo-Fr 17:00; Sa 15:30", "indoor": "yes", "note": "ON 12/24 AND 12/31, THIS BOX MAY BE COLLECTED AS EARLY AS 12 NOON.", "nsi_id": "unitedstatespostalservice-a77078", "operator": "United States Postal Service", "operator:short": "USPS", "operator:type": "public", "operator:wikidata": "Q668687", "ref": "1316500022"}, "type": "Feature"}
{"geometry": {"coordinates": [-76.8448849, 42.965399], "type": "Point"}, "id": "WsdTFt8VD4DjKGg4crQPiX1Mbjc=", "properties": {"@source_uri": "https://tools.usps.com/UspsToolsRestServices/rest/POLocator/findLocations", "@spider": "usps_collection_boxes", "addr:city": "WATERLOO", "addr:country": "US", "addr:postcode": "13165", "addr:state": "NY", "addr:street_address": "1255 STATE ROUTE 414", "amenity": "post_box", "collection_times": "Mo-Sa 10:30", "nsi_id": "unitedstatespostalservice-a77078", "operator": "United States Postal Service", "operator:short": "USPS", "operator:type": "public", "operator:wikidata": "Q668687", "ref": "1316500024"}, "type": "Feature"}
{"geometry": {"coordinates": [-76.862467063, 42.90456574], "type": "Point"}, "id": "_Nu5RMBNJ68MgFzmvfXupuKBCAY=", "properties": {"@source_uri": "https://tools.usps.com/UspsToolsRestServices/rest/POLocator/findLocations", "@spider": "usps_collection_boxes", "addr:city": "WATERLOO", "addr:country": "US", "addr:postcode": "13165", "addr:state": "NY", "addr:street_address": "2 E MAIN ST", "amenity": "post_box", "collection_times": "Mo-Fr 17:00; Sa 12:00", "indoor": "yes", "note": "ON 12/24 AND 12/31, THIS BOX MAY BE COLLECTED AS EARLY AS 12 NOON.", "nsi_id": "unitedstatespostalservice-a77078", "operator": "United States Postal Service", "operator:short": "USPS", "operator:type": "public", "operator:wikidata": "Q668687", "ref": "1316500027"}, "type": "Feature"}
{"geometry": {"coordinates": [-76.562062, 43.050218], "type": "Point"}, "id": "w8Xiz9ipHFpCzWL18ASzuOAKVQk=", "properties": {"@source_uri": "https://tools.usps.com/UspsToolsRestServices/rest/POLocator/findLocations", "@spider": "usps_collection_boxes", "addr:city": "WEEDSPORT", "addr:country": "US", "addr:postcode": "13166", "addr:state": "NY", "addr:street_address": "8942 N SENECA ST", "amenity": "post_box", "collection_times": "Mo-Fr 17:00; Sa 12:00", "note": "ON 12/24 AND 12/31, THIS BOX MAY BE COLLECTED AS EARLY AS 12 NOON.", "nsi_id": "unitedstatespostalservice-a77078", "operator": "United States Postal Service", "operator:short": "USPS", "operator:type": "public", "operator:wikidata": "Q668687", "ref": "1316600001"}, "type": "Feature"}
{"geometry": {"coordinates": [-76.562046, 43.05029], "type": "Point"}, "id": "wTxGWIbT8zSzNy3S24P6HoanjJQ=", "properties": {"@source_uri": "https://tools.usps.com/UspsToolsRestServices/rest/POLocator/findLocations", "@spider": "usps_collection_boxes", "addr:city": "WEEDSPORT", "addr:country": "US", "addr:postcode": "13166", "addr:state": "NY", "addr:street_address": "8942 N SENECA ST", "amenity": "post_box", "collection_times": "Mo-Fr 17:00; Sa 12:00", "indoor": "yes", "note": "ON 12/24 AND 12/31, THIS BOX MAY BE COLLECTED AS EARLY AS 12 NOON.", "nsi_id": "unitedstatespostalservice-a77078", "operator": "United States Postal Service", "operator:short": "USPS", "operator:type": "public", "operator:wikidata": "Q668687", "ref": "1316600003"}, "type": "Feature"}
{"geometry": {"coordinates": [-76.562066345, 43.050207866], "type": "Point"}, "id": "mhvF6iZCIiXZs9QXBTQecI6pLdY=", "properties": {"@source_uri": "https://tools.usps.com/UspsToolsRestServices/rest/POLocator/findLocations", "@spider": "usps_collection_boxes", "addr:city": "WEEDSPORT", "addr:country": "US", "addr:postcode": "13166", "addr:state": "NY", "addr:street_address": "8942 N SENECA ST", "amenity": "post_box", "collection_times": "Mo-Fr 17:00; Sa 12:00", "indoor": "yes", "note": "ON 12/24 AND 12/31, THIS BOX MAY BE COLLECTED AS EARLY AS 12 NOON.", "nsi_id": "unitedstatespostalservice-a77078", "operator": "United States Postal Service", "operator:short": "USPS", "operator:type": "public", "operator:wikidata": "Q668687", "ref": "1316600004"}, "type": "Feature"}
{"geometry": {"coordinates": [-76.063983, 43.28], "type": "Point"}, "id": "wCBiRkUHjKFABhDCq88IdlIESv0=", "properties": {"@source_uri": "https://tools.usps.com/UspsToolsRestServices/rest/POLocator/findLocations", "@spider": "usps_collection_boxes", "addr:city": "WEST MONROE", "addr:country": "US", "addr:postcode": "13167", "addr:state": "NY", "addr:street_address": "2301 STATE ROUTE 49", "amenity": "post_box", "collection_times": "Mo-Fr 14:15; Sa 11:30", "note": "ON 12/24 AND 12/31, THIS BOX MAY BE COLLECTED AS EARLY AS 12 NOON.", "nsi_id": "unitedstatespostalservice-a77078", "operator": "United States Postal Service", "operator:short": "USPS", "operator:type": "public", "operator:wikidata": "Q668687", "ref": "1316700001"}, "type": "Feature"}
{"geometry": {"coordinates": [-76.063942, 43.280017], "type": "Point"}, "id": "fhXXgVnFFyy3_a1RVWbxthqulyM=", "properties": {"@source_uri": "https://tools.usps.com/UspsToolsRestServices/rest/POLocator/findLocations", "@spider": "usps_collection_boxes", "addr:city": "WEST MONROE", "addr:country": "US", "addr:postcode": "13167", "addr:state": "NY", "addr:street_address": "2301 STATE ROUTE 49", "amenity": "post_box", "collection_times": "Mo-Fr 14:15; Sa 11:30", "indoor": "yes", "note": "ON 12/24 AND 12/31, THIS BOX MAY BE COLLECTED AS EARLY AS 12 NOON.", "nsi_id": "unitedstatespostalservice-a77078", "operator": "United States Postal Service", "operator:short": "USPS", "operator:type": "public", "operator:wikidata": "Q668687", "ref": "1316700006"}, "type": "Feature"}
{"geometry": {"coordinates": [-76.063949894, 43.279976108], "type": "Point"}, "id": "8WFzuTYo_efsvFJFnUJ-nkeLmd0=", "properties": {"@source_uri": "https://tools.usps.com/UspsToolsRestServices/rest/POLocator/findLocations", "@spider": "usps_collection_boxes", "addr:city": "WEST MONROE", "addr:country": "US", "addr:postcode": "13167", "addr:state": "NY", "addr:street_address": "2301 STATE ROUTE 49", "amenity": "post_box", "collection_times": "Mo-Fr 14:15; Sa 11:30", "indoor": "yes", "note": "ON 12/24 AND 12/31, THIS BOX MAY BE COLLECTED AS EARLY AS 12 NOON.", "nsi_id": "unitedstatespostalservice-a77078", "operator": "United States Postal Service", "operator:short": "USPS", "operator:type": "public", "operator:wikidata": "Q668687", "ref": "1316700007"}, "type": "Feature"}
