{"geometry": {"coordinates": [-76.152308611, 43.045838141], "type": "Point"}, "id": "fo5lzQiWOeOQ6kd5OZtMysJMngw=", "properties": {"@source_uri": "https://tools.usps.com/UspsToolsRestServices/rest/POLocator/findLocations", "@spider": "usps_collection_boxes", "addr:city": "SYRACUSE", "addr:country": "US", "addr:postcode": "13201", "addr:state": "NY", "addr:street_address": "444 S SALINA ST", "amenity": "post_box", "collection_times": "Mo-Fr 17:00", "indoor": "yes", "note": "ON 12/24 AND 12/31, THIS BOX MAY BE COLLECTED AS EARLY AS 12 NOON.", "nsi_id": "unitedstatespostalservice-a77078", "operator": "United States Postal Service", "operator:short": "USPS", "operator:type": "public", "operator:wikidata": "Q668687", "ref": "1320100001"}, "type": "Feature"}
{"geometry": {"coordinates": [-76.1494569, 43.050056], "type": "Point"}, "id": "bMlzxWg0tYq_XYYWtq1gthAKwbE=", "properties": {"@source_uri": "https://tools.usps.com/UspsToolsRestServices/rest/POLocator/findLocations", "@spider": "usps_collection_boxes", "addr:city": "SYRACUSE", "addr:country": "US", "addr:postcode": "13202", "addr:state": "NY", "addr:street_address": "109 MONTGOMERY ST", "amenity": "post_box", "collection_times": "Mo-Fr 16:00; Sa 09:00", "note": "ON 12/24 AND 12/31, THIS BOX MAY BE COLLECTED AS EARLY AS 12 NOON.", "nsi_id": "unitedstatespostalservice-a77078", "operator": "United States Postal Service", "operator:short": "USPS", "operator:type": "public", "operator:wikidata": "Q668687", "ref": "1320200006"}, "type": "Feature"}
{"geometry": {"coordinates": [-76.1523044, 43.051563], "type": "Point"}, "id": "GRlRcXYj8huGPOCbuLriLTRNeZU=", "properties": {"@source_uri": "https://tools.usps.com/UspsToolsRestServices/rest/POLocator/findLocations", "@spider": "usps_collection_boxes", "addr:city": "SYRACUSE", "addr:country": "US", "addr:postcode": "13202", "addr:state": "NY", "addr:street_address": "110 N SALINA ST", "amenity": "post_box", "collection_times": "Mo-Sa 10:00", "nsi_id": "unitedstatespostalservice-a77078", "operator": "United States Postal Service", "operator:short": "USPS", "operator:type": "public", "operator:wikidata": "Q668687", "ref": "1320200009"}, "type": "Feature"}
{"geometry": {"coordinates": [-76.156189, 43.052483], "type": "Point"}, "id": "PDc8bXzj2h_Y11LHGNK3MedK9I0=", "properties": {"@source_uri": "https://tools.usps.com/UspsToolsRestServices/rest/POLocator/findLocations", "@spider": "usps_collection_boxes", "addr:city": "SYRACUSE", "addr:country": "US", "addr:postcode": "13202", "addr:state": "NY", "addr:street_address": "344 W GENESEE ST", "amenity": "post_box", "collection_times": "Mo-Sa 09:00", "nsi_id": "unitedstatespostalservice-a77078", "operator": "United States Postal Service", "operator:short": "USPS", "operator:type": "public", "operator:wikidata": "Q668687", "ref": "1320200012"}, "type": "Feature"}
{"geometry": {"coordinates": [-76.191895, 43.052185], "type": "Point"}, "id": "0thKsW74LVlXjPZxp2QuDsf24nI=", "properties": {"@source_uri": "https://tools.usps.com/UspsToolsRestServices/rest/POLocator/findLocations", "@spider": "usps_collection_boxes", "addr:city": "SYRACUSE", "addr:country": "US", "addr:postcode": "13202", "addr:state": "NY", "addr:street_address": "298 ERIE ST", "amenity": "post_box", "collection_times": "Mo-Sa 09:00", "nsi_id": "unitedstatespostalservice-a77078", "operator": "United States Postal Service", "operator:short": "USPS", "operator:type": "public", "operator:wikidata": "Q668687", "ref": "1320200013"}, "type": "Feature"}
{"geometry": {"coordinates": [-76.1433323, 43.043508], "type": "Point"}, "id": "QNXQdZ-xdaKEHn8diXnnZxqvrIQ=", "properties": {"@source_uri": "https://tools.usps.com/UspsToolsRestServices/rest/POLocator/findLocations", "@spider": "usps_collection_boxes", "addr:city": "SYRACUSE", "addr:country": "US", "addr:postcode": "13202", "addr:state": "NY", "addr:street_address": "550 HARRISON ST", "amenity": "post_box", "collection_times": "Mo-Sa 09:30", "nsi_id": "unitedstatespostalservice-a77078", "operator": "United States Postal Service", "operator:short": "USPS", "operator:type": "public", "operator:wikidata": "Q668687", "ref": "1320200015"}, "type": "Feature"}
{"geometry": {"coordinates": [-76.150776367, 43.050204], "type": "Point"}, "id": "4xba73Vte7C5EOprGX_7znuuJrA=", "properties": {"@source_uri": "https://tools.usps.com/UspsToolsRestServices/rest/POLocator/findLocations", "@spider": "usps_collection_boxes", "addr:city": "SYRACUSE", "addr:country": "US", "addr:postcode": "13202", "addr:state": "NY", "addr:street_address": "109 S WARREN ST", "amenity": "post_box", "collection_times": "Mo-Fr 16:30; Sa 10:00", "note": "ON 12/24 AND 12/31, THIS BOX MAY BE COLLECTED AS EARLY AS 12 NOON.", "nsi_id": "unitedstatespostalservice-a77078", "operator": "United States Postal Service", "operator:short": "USPS", "operator:type": "public", "operator:wikidata": "Q668687", "ref": "1320200016"}, "type": "Feature"}
{"geometry": {"coordinates": [-76.1508671, 43.04408], "type": "Point"}, "id": "d9Ym1KGMIdIFPoIRopZuZ3ftokU=", "properties": {"@source_uri": "https://tools.usps.com/UspsToolsRestServices/rest/POLocator/findLocations", "@spider": "usps_collection_boxes", "addr:city": "SYRACUSE", "addr:country": "US", "addr:postcode": "13202", "addr:state": "NY", "addr:street_address": "90 PRESIDENTIAL PLZ", "amenity": "post_box", "collection_times": "Mo-Sa 09:00", "nsi_id": "unitedstatespostalservice-a77078", "operator": "United States Postal Service", "operator:short": "USPS", "operator:type": "public", "operator:wikidata": "Q668687", "ref": "1320200020"}, "type": "Feature"}
{"geometry": {"coordinates": [-76.1508239, 43.048732], "type": "Point"}, "id": "Gm3qWNhtTIXHSi3CcUGwJZRIyQE=", "properties": {"@source_uri": "https://tools.usps.com/UspsToolsRestServices/rest/POLocator/findLocations", "@spider": "usps_collection_boxes", "addr:city": "SYRACUSE", "addr:country": "US", "addr:postcode": "13202", "addr:state": "NY", "addr:street_address": "223 S WARREN ST", "amenity": "post_box", "collection_times": "Mo-Fr 16:30; Sa 10:00", "note": "ON 12/24 AND 12/31, THIS BOX MAY BE COLLECTED AS EARLY AS 12 NOON.", "nsi_id": "unitedstatespostalservice-a77078", "operator": "United States Postal Service", "operator:short": "USPS", "operator:type": "public", "operator:wikidata": "Q668687", "ref": "1320200028"}, "type": "Feature"}
{"geometry": {"coordinates": [-76.1453734716, 43.0495554749], "type": "Point"}, "id": "PV4oIyqabqhjduS_nhIxnJ3RyNI=", "properties": {"@source_uri": "https://tools.usps.com/UspsToolsRestServices/rest/POLocator/findLocations", "@spider": "usps_collection_boxes", "addr:city": "SYRACUSE", "addr:country": "US", "addr:postcode": "13202", "addr:state": "NY", "addr:street_address": "501 E WASHINGTON ST", "amenity": "post_box", "collection_times": "Mo-Fr 17:00; Sa 09:00", "note": "ON 12/24 AND 12/31, THIS BOX MAY BE COLLECTED AS EARLY AS 12 NOON.", "nsi_id": "unitedstatespostalservice-a77078", "operator": "United States Postal Service", "operator:short": "USPS", "operator:type": "public", "operator:wikidata": "Q668687", "ref": "1320200031"}, "type": "Feature"}
{"geometry": {"coordinates": [-76.1503352, 43.039818], "type": "Point"}, "id": "4FHPJPwldw7X4iZqMFCyrrb9RtU=", "properties": {"@source_uri": "https://tools.usps.com/UspsToolsRestServices/rest/POLocator/findLocations", "@spider": "usps_collection_boxes", "addr:city": "SYRACUSE", "addr:country": "US", "addr:postcode": "13202", "addr:state": "NY", "addr:street_address": "819 S SALINA ST", "amenity": "post_box", "collection_times": "Mo-Sa 09:00", "nsi_id": "unitedstatespostalservice-a77078", "operator": "United States Postal Service", "operator:short": "USPS", "operator:type": "public", "operator:wikidata": "Q668687", "ref": "1320200034"}, "type": "Feature"}
{"geometry": {"coordinates": [-76.1507586, 43.040644], "type": "Point"}, "id": "KFoI65PHZClMnGLVI3wIzYV-tsE=", "properties": {"@source_uri": "https://tools.usps.com/UspsToolsRestServices/rest/POLocator/findLocations", "@spider": "usps_collection_boxes", "addr:city": "SYRACUSE", "addr:country": "US", "addr:postcode": "13202", "addr:state": "NY", "addr:street_address": "677 S SALINA ST", "amenity": "post_box", "collection_times": "Mo-Sa 09:00", "nsi_id": "unitedstatespostalservice-a77078", "operator": "United States Postal Service", "operator:short": "USPS", "operator:type": "public", "operator:wikidata": "Q668687", "ref": "1320200035"}, "type": "Feature"}
{"geometry": {"coordinates": [-76.1508711538, 43.0463876289], "type": "Point"}, "id": "hPo_bcTzNm7RM6exI-oMz8yPc1k=", "properties": {"@source_uri": "https://tools.usps.com/UspsToolsRestServices/rest/POLocator/findLocations", "@spider": "usps_collection_boxes", "addr:city": "SYRACUSE", "addr:country": "US", "addr:postcode": "13202", "addr:state": "NY", "addr:street_address": "440 S WARREN ST", "amenity": "post_box", "collection_times": "Mo-Fr 16:30; Sa 10:00", "note": "ON 12/24 AND 12/31, THIS BOX MAY BE COLLECTED AS EARLY AS 12 NOON.", "nsi_id": "unitedstatespostalservice-a77078", "operator": "United States Postal Service", "operator:short": "USPS", "operator:type": "public", "operator:wikidata": "Q668687", "ref": "1320200043"}, "type": "Feature"}
{"geometry": {"coordinates": [-76.150702387, 43.0478338851], "type": "Point"}, "id": "gJTPC3XZcRo181b6wiuT8_LqGqo=", "properties": {"@source_uri": "https://tools.usps.com/UspsToolsRestServices/rest/POLocator/findLocations", "@spider": "usps_collection_boxes", "addr:city": "SYRACUSE", "addr:country": "US", "addr:postcode": "13202", "addr:state": "NY", "addr:street_address": "351 S WARREN ST", "amenity": "post_box", "collection_times": "Mo-Fr 16:30; Sa 10:00", "note": "ON 12/24 AND 12/31, THIS BOX MAY BE COLLECTED AS EARLY AS 12 NOON.", "nsi_id": "unitedstatespostalservice-a77078", "operator": "United States Postal Service", "operator:short": "USPS", "operator:type": "public", "operator:wikidata": "Q668687", "ref": "1320200044"}, "type": "Feature"}
{"geometry": {"coordinates": [-76.1433825, 43.047347], "type": "Point"}, "id": "AYiOkWKYtJQc4HKNjnuCD5MPweA=", "properties": {"@source_uri": "https://tools.usps.com/UspsToolsRestServices/rest/POLocator/findLocations", "@spider": "usps_collection_boxes", "addr:city": "SYRACUSE", "addr:country": "US", "addr:postcode": "13202", "addr:state": "NY", "addr:street_address": "600 E GENESEE ST", "amenity": "post_box", "collection_times": "Mo-Sa 09:00", "nsi_id": "unitedstatespostalservice-a77078", "operator": "United States Postal Service", "operator:short": "USPS", "operator:type": "public", "operator:wikidata": "Q668687", "ref": "1320200052"}, "type": "Feature"}
{"geometry": {"coordinates": [-76.14648724, 43.048051471], "type": "Point"}, "id": "6vZobPMhZ1KKMlBL7lIMJQiIV14=", "properties": {"@source_uri": "https://tools.usps.com/UspsToolsRestServices/rest/POLocator/findLocations", "@spider": "usps_collection_boxes", "addr:city": "SYRACUSE", "addr:country": "US", "addr:postcode": "13202", "addr:state": "NY", "addr:street_address": "420 E GENESEE ST", "amenity": "post_box", "collection_times": "Mo-Sa 10:00", "nsi_id": "unitedstatespostalservice-a77078", "operator": "United States Postal Service", "operator:short": "USPS", "operator:type": "public", "operator:wikidata": "Q668687", "ref": "1320200053"}, "type": "Feature"}
{"geometry": {"coordinates": [-76.1544894566, 43.0486426998], "type": "Point"}, "id": "Y4s2O71e-F6iUwO1Lha4RwNofX8=", "properties": {"@source_uri": "https://tools.usps.com/UspsToolsRestServices/rest/POLocator/findLocations", "@spider": "usps_collection_boxes", "addr:city": "SYRACUSE", "addr:country": "US", "addr:postcode": "13202", "addr:state": "NY", "addr:street_address": "247 W FAYETTE ST", "amenity": "post_box", "collection_times": "Mo-Sa 09:00", "nsi_id": "unitedstatespostalservice-a77078", "operator": "United States Postal Service", "operator:short": "USPS", "operator:type": "public", "operator:wikidata": "Q668687", "ref": "1320200054"}, "type": "Feature"}
{"geometry": {"coordinates": [-76.1482392, 43.047367], "type": "Point"}, "id": "0N77t4sbVwvyNI8i9xCw3wggAcE=", "properties": {"@source_uri": "https://tools.usps.com/UspsToolsRestServices/rest/POLocator/findLocations", "@spider": "usps_collection_boxes", "addr:city": "SYRACUSE", "addr:country": "US", "addr:postcode": "13202", "addr:state": "NY", "addr:street_address": "333 E ONONDAGA ST", "amenity": "post_box", "collection_times": "Mo-Sa 10:00", "nsi_id": "unitedstatespostalservice-a77078", "operator": "United States Postal Service", "operator:short": "USPS", "operator:type": "public", "operator:wikidata": "Q668687", "ref": "1320200056"}, "type": "Feature"}
{"geometry": {"coordinates": [-76.1521503, 43.048423], "type": "Point"}, "id": "g3ZqyOYYYtc36eIsArYj2yGDtHw=", "properties": {"@source_uri": "https://tools.usps.com/UspsToolsRestServices/rest/POLocator/findLocations", "@spider": "usps_collection_boxes", "addr:city": "SYRACUSE", "addr:country": "US", "addr:postcode": "13202", "addr:state": "NY", "addr:street_address": "306 S SALINA ST", "amenity": "post_box", "collection_times": "Mo-Sa 09:00", "nsi_id": "unitedstatespostalservice-a77078", "operator": "United States Postal Service", "operator:short": "USPS", "operator:type": "public", "operator:wikidata": "Q668687", "ref": "1320200060"}, "type": "Feature"}
{"geometry": {"coordinates": [-76.1525324, 43.046986], "type": "Point"}, "id": "Kt9OfMQnRnIxMFTP70jBFg9TBiU=", "properties": {"@source_uri": "https://tools.usps.com/UspsToolsRestServices/rest/POLocator/findLocations", "@spider": "usps_collection_boxes", "addr:city": "SYRACUSE", "addr:country": "US", "addr:postcode": "13202", "addr:state": "NY", "addr:street_address": "108 W JEFFERSON ST", "amenity": "post_box", "collection_times": "Mo-Sa 09:00", "nsi_id": "unitedstatespostalservice-a77078", "operator": "United States Postal Service", "operator:short": "USPS", "operator:type": "public", "operator:wikidata": "Q668687", "ref": "1320200061"}, "type": "Feature"}
{"geometry": {"coordinates": [-76.1522617, 43.047036], "type": "Point"}, "id": "0s_9PHuc35XZwKXr3YlmZGGMiB4=", "properties": {"@source_uri": "https://tools.usps.com/UspsToolsRestServices/rest/POLocator/findLocations", "@spider": "usps_collection_boxes", "addr:city": "SYRACUSE", "addr:country": "US", "addr:postcode": "13202", "addr:state": "NY", "addr:street_address": "399 S SALINA ST", "amenity": "post_box", "collection_times": "Mo-Sa 10:00", "nsi_id": "unitedstatespostalservice-a77078", "operator": "United States Postal Service", "operator:short": "USPS", "operator:type": "public", "operator:wikidata": "Q668687", "ref": "1320200064"}, "type": "Feature"}
{"geometry": {"coordinates": [-76.149967, 43.044294], "type": "Point"}, "id": "vxrKdANAMatlSZ0igQNObqU9c4s=", "properties": {"@source_uri": "https://tools.usps.com/UspsToolsRestServices/rest/POLocator/findLocations", "@spider": "usps_collection_boxes", "addr:city": "SYRACUSE", "addr:country": "US", "addr:postcode": "13202", "addr:state": "NY", "addr:street_address": "224 HARRISON ST", "amenity": "post_box", "collection_times": "Mo-Fr 10:00; Sa 09:00", "nsi_id": "unitedstatespostalservice-a77078", "operator": "United States Postal Service", "operator:short": "USPS", "operator:type": "public", "operator:wikidata": "Q668687", "ref": "1320200066"}, "type": "Feature"}
{"geometry": {"coordinates": [-76.1525439, 43.048764], "type": "Point"}, "id": "hwLYSG78Fe8PqOm7y9XOorUEuf4=", "properties": {"@source_uri": "https://tools.usps.com/UspsToolsRestServices/rest/POLocator/findLocations", "@spider": "usps_collection_boxes", "addr:city": "SYRACUSE", "addr:country": "US", "addr:postcode": "13202", "addr:state": "NY", "addr:street_address": "299 S SALINA ST", "amenity": "post_box", "collection_times": "Mo-Fr 17:00; Sa 10:00", "note": "ON 12/24 AND 12/31, THIS BOX MAY BE COLLECTED AS EARLY AS 12 NOON.", "nsi_id": "unitedstatespostalservice-a77078", "operator": "United States Postal Service", "operator:short": "USPS", "operator:type": "public", "operator:wikidata": "Q668687", "ref": "1320200070"}, "type": "Feature"}
{"geometry": {"coordinates": [-76.1518321, 43.042765], "type": "Point"}, "id": "fByOj4-nf9SoDkL3Mvsdp9yULuo=", "properties": {"@source_uri": "https://tools.usps.com/UspsToolsRestServices/rest/POLocator/findLocations", "@spider": "usps_collection_boxes", "addr:city": "SYRACUSE", "addr:country": "US", "addr:postcode": "13202", "addr:state": "NY", "addr:street_address": "398 W ADAMS ST", "amenity": "post_box", "collection_times": "Mo-Sa 09:00", "nsi_id": "unitedstatespostalservice-a77078", "operator": "United States Postal Service", "operator:short": "USPS", "operator:type": "public", "operator:wikidata": "Q668687", "ref": "1320200073"}, "type": "Feature"}
{"geometry": {"coordinates": [-76.152275, 43.045824], "type": "Point"}, "id": "9elV3rYXdF3cCkgn4fcayJrc-fY=", "properties": {"@source_uri": "https://tools.usps.com/UspsToolsRestServices/rest/POLocator/findLocations", "@spider": "usps_collection_boxes", "addr:city": "SYRACUSE", "addr:country": "US", "addr:postcode": "13202", "addr:state": "NY", "addr:street_address": "444 S SALINA ST", "amenity": "post_box", "collection_times": "Mo-Fr 17:00", "note": "ON 12/24 AND 12/31, THIS BOX MAY BE COLLECTED AS EARLY AS 12 NOON.", "nsi_id": "unitedstatespostalservice-a77078", "operator": "United States Postal Service", "operator:short": "USPS", "operator:type": "public", "operator:wikidata": "Q668687", "ref": "1320200079"}, "type": "Feature"}
{"geometry": {"coordinates": [-76.1493467, 43.048411], "type": "Point"}, "id": "Z3aBgdHdz8SklhqbqJ-FJDrL1Zs=", "properties": {"@source_uri": "https://tools.usps.com/UspsToolsRestServices/rest/POLocator/findLocations", "@spider": "usps_collection_boxes", "addr:city": "SYRACUSE", "addr:country": "US", "addr:postcode": "13202", "addr:state": "NY", "addr:street_address": "310 MONTGOMERY ST", "amenity": "post_box", "collection_times": "Mo-Sa 10:00", "nsi_id": "unitedstatespostalservice-a77078", "operator": "United States Postal Service", "operator:short": "USPS", "operator:type": "public", "operator:wikidata": "Q668687", "ref": "1320200095"}, "type": "Feature"}
{"geometry": {"coordinates": [-76.1557367, 43.048019], "type": "Point"}, "id": "SOVhiFQbwttEh6SteoUCE-3HoU0=", "properties": {"@source_uri": "https://tools.usps.com/UspsToolsRestServices/rest/POLocator/findLocations", "@spider": "usps_collection_boxes", "addr:city": "SYRACUSE", "addr:country": "US", "addr:postcode": "13202", "addr:state": "NY", "addr:street_address": "200 WALTON ST", "amenity": "post_box", "collection_times": "Mo-Sa 10:00", "nsi_id": "unitedstatespostalservice-a77078", "operator": "United States Postal Service", "operator:short": "USPS", "operator:type": "public", "operator:wikidata": "Q668687", "ref": "1320200096"}, "type": "Feature"}
{"geometry": {"coordinates": [-76.1508671, 43.04408], "type": "Point"}, "id": "2mMGEEnj2cyhnrKFgwFggotbYew=", "properties": {"@source_uri": "https://tools.usps.com/UspsToolsRestServices/rest/POLocator/findLocations", "@spider": "usps_collection_boxes", "addr:city": "SYRACUSE", "addr:country": "US", "addr:postcode": "13202", "addr:state": "NY", "addr:street_address": "100 S CLINTON ST", "amenity": "post_box", "collection_times": "Mo-Fr 16:30", "note": "ON 12/24 AND 12/31, THIS BOX MAY BE COLLECTED AS EARLY AS 12 NOON.", "nsi_id": "unitedstatespostalservice-a77078", "operator": "United States Postal Service", "operator:short": "USPS", "operator:type": "public", "operator:wikidata": "Q668687", "ref": "1320200127"}, "type": "Feature"}
{"geometry": {"coordinates": [-76.152275, 43.045824], "type": "Point"}, "id": "8WVG3sYZ6aqOCCTlPJuFfJMTy4Y=", "properties": {"@source_uri": "https://tools.usps.com/UspsToolsRestServices/rest/POLocator/findLocations", "@spider": "usps_collection_boxes", "addr:city": "SYRACUSE", "addr:country": "US", "addr:postcode": "13202", "addr:state": "NY", "addr:street_address": "444 S SALINA ST", "amenity": "post_box", "collection_times": "Mo-Fr 17:00; Sa 12:00", "indoor": "yes", "note": "ON 12/24 AND 12/31, THIS BOX MAY BE COLLECTED AS EARLY AS 12 NOON.", "nsi_id": "unitedstatespostalservice-a77078", "operator": "United States Postal Service", "operator:short": "USPS", "operator:type": "public", "operator:wikidata": "Q668687", "ref": "1320200128"}, "type": "Feature"}
{"geometry": {"coordinates": [-76.1487154, 43.045121], "type": "Point"}, "id": "OJqY2jFaLxoE2opbtJTCHPVYD7A=", "properties": {"@source_uri": "https://tools.usps.com/UspsToolsRestServices/rest/POLocator/findLocations", "@spider": "usps_collection_boxes", "addr:city": "SYRACUSE", "addr:country": "US", "addr:postcode": "13202", "addr:state": "NY", "addr:street_address": "421 MONTGOMERY ST", "amenity": "post_box", "collection_times": "Mo-Sa 10:00", "nsi_id": "unitedstatespostalservice-a77078", "operator": "United States Postal Service", "operator:short": "USPS", "operator:type": "public", "operator:wikidata": "Q668687", "ref": "1320200134"}, "type": "Feature"}
{"geometry": {"coordinates": [-76.1508671, 43.04408], "type": "Point"}, "id": "UXeqpQ5zrv3wlOFxEua3Ewncgxc=", "properties": {"@source_uri": "https://tools.usps.com/UspsToolsRestServices/rest/POLocator/findLocations", "@spider": "usps_collection_boxes", "addr:city": "SYRACUSE", "addr:country": "US", "addr:postcode": "13202", "addr:state": "NY", "addr:street_address": "501 E FAYETTE ST", "amenity": "post_box", "collection_times": "Mo-Fr 17:00; Sa 09:00", "note": "ON 12/24 AND 12/31, THIS BOX MAY BE COLLECTED AS EARLY AS 12 NOON.", "nsi_id": "unitedstatespostalservice-a77078", "operator": "United States Postal Service", "operator:short": "USPS", "operator:type": "public", "operator:wikidata": "Q668687", "ref": "1320200137"}, "type": "Feature"}
{"geometry": {"coordinates": [-76.1535888, 43.045834], "type": "Point"}, "id": "bEWflyg7nOzIMt2HAuwcnWFRIT4=", "properties": {"@source_uri": "https://tools.usps.com/UspsToolsRestServices/rest/POLocator/findLocations", "@spider": "usps_collection_boxes", "addr:city": "SYRACUSE", "addr:country": "US", "addr:postcode": "13202", "addr:state": "NY", "addr:street_address": "551 S CLINTON ST", "amenity": "post_box", "collection_times": "Mo-Sa 18:30", "note": "ON 12/24 AND 12/31, THIS BOX MAY BE COLLECTED AS EARLY AS 12 NOON.", "nsi_id": "unitedstatespostalservice-a77078", "operator": "United States Postal Service", "operator:short": "USPS", "operator:type": "public", "operator:wikidata": "Q668687", "ref": "1320200138"}, "type": "Feature"}
{"geometry": {"coordinates": [-76.152275, 43.045824], "type": "Point"}, "id": "d4YLeQln8BU3CJRNpjDmsgWdZu4=", "properties": {"@source_uri": "https://tools.usps.com/UspsToolsRestServices/rest/POLocator/findLocations", "@spider": "usps_collection_boxes", "addr:city": "SYRACUSE", "addr:country": "US", "addr:postcode": "13202", "addr:state": "NY", "addr:street_address": "444 S SALINA ST", "amenity": "post_box", "collection_times": "Mo-Fr 17:00; Sa 12:00", "indoor": "yes", "note": "ON 12/24 AND 12/31, THIS BOX MAY BE COLLECTED AS EARLY AS 12 NOON.", "nsi_id": "unitedstatespostalservice-a77078", "operator": "United States Postal Service", "operator:short": "USPS", "operator:type": "public", "operator:wikidata": "Q668687", "ref": "1320200139"}, "type": "Feature"}
{"geometry": {"coordinates": [-76.151578, 43.05044], "type": "Point"}, "id": "f8b6fOpFrwgdc4qu2VU2DXf34go=", "properties": {"@source_uri": "https://tools.usps.com/UspsToolsRestServices/rest/POLocator/findLocations", "@spider": "usps_collection_boxes", "addr:city": "SYRACUSE", "addr:country": "US", "addr:postcode": "13202", "addr:state": "NY", "addr:street_address": "100 E GENESEE ST", "amenity": "post_box", "collection_times": "Mo-Fr 10:00", "nsi_id": "unitedstatespostalservice-a77078", "operator": "United States Postal Service", "operator:short": "USPS", "operator:type": "public", "operator:wikidata": "Q668687", "ref": "1320200141"}, "type": "Feature"}
{"geometry": {"coordinates": [-76.1511496, 43.049684], "type": "Point"}, "id": "5Bo34E26Q61mU0BkYJXHfaTEWcE=", "properties": {"@source_uri": "https://tools.usps.com/UspsToolsRestServices/rest/POLocator/findLocations", "@spider": "usps_collection_boxes", "addr:city": "SYRACUSE", "addr:country": "US", "addr:postcode": "13202", "addr:state": "NY", "addr:street_address": "120 E WASHINGTON ST", "amenity": "post_box", "collection_times": "Mo-Fr 17:00", "note": "ON 12/24 AND 12/31, THIS BOX MAY BE COLLECTED AS EARLY AS 12 NOON.", "nsi_id": "unitedstatespostalservice-a77078", "operator": "United States Postal Service", "operator:short": "USPS", "operator:type": "public", "operator:wikidata": "Q668687", "ref": "1320200142"}, "type": "Feature"}
{"geometry": {"coordinates": [-76.1364087, 43.058427], "type": "Point"}, "id": "p_vE1wpG4OO1nwBcreq-Cwg1Nf4=", "properties": {"@source_uri": "https://tools.usps.com/UspsToolsRestServices/rest/POLocator/findLocations", "@spider": "usps_collection_boxes", "addr:city": "SYRACUSE", "addr:country": "US", "addr:postcode": "13203", "addr:state": "NY", "addr:street_address": "953 JAMES ST", "amenity": "post_box", "collection_times": "Mo-Sa 10:00", "nsi_id": "unitedstatespostalservice-a77078", "operator": "United States Postal Service", "operator:short": "USPS", "operator:type": "public", "operator:wikidata": "Q668687", "ref": "1320300005"}, "type": "Feature"}
{"geometry": {"coordinates": [-76.1274049, 43.052717], "type": "Point"}, "id": "hDPw1YQjYLaFoWB6fKq02HmQXjs=", "properties": {"@source_uri": "https://tools.usps.com/UspsToolsRestServices/rest/POLocator/findLocations", "@spider": "usps_collection_boxes", "addr:city": "SYRACUSE", "addr:country": "US", "addr:postcode": "13203", "addr:state": "NY", "addr:street_address": "900 BURNET AVE", "amenity": "post_box", "collection_times": "Mo-Sa 09:00", "nsi_id": "unitedstatespostalservice-a77078", "operator": "United States Postal Service", "operator:short": "USPS", "operator:type": "public", "operator:wikidata": "Q668687", "ref": "1320300011"}, "type": "Feature"}
{"geometry": {"coordinates": [-76.1521336, 43.056147], "type": "Point"}, "id": "uxizfBVpWzLkqtU7cvWONYnFujU=", "properties": {"@source_uri": "https://tools.usps.com/UspsToolsRestServices/rest/POLocator/findLocations", "@spider": "usps_collection_boxes", "addr:city": "SYRACUSE", "addr:country": "US", "addr:postcode": "13203", "addr:state": "NY", "addr:street_address": "401 N SALINA ST", "amenity": "post_box", "collection_times": "Mo-Sa 10:00", "nsi_id": "unitedstatespostalservice-a77078", "operator": "United States Postal Service", "operator:short": "USPS", "operator:type": "public", "operator:wikidata": "Q668687", "ref": "1320300012"}, "type": "Feature"}
{"geometry": {"coordinates": [-76.1417199, 43.055537], "type": "Point"}, "id": "jQ4r5zFTlN5W332RFoXFAXFR8WU=", "properties": {"@source_uri": "https://tools.usps.com/UspsToolsRestServices/rest/POLocator/findLocations", "@spider": "usps_collection_boxes", "addr:city": "SYRACUSE", "addr:country": "US", "addr:postcode": "13203", "addr:state": "NY", "addr:street_address": "742 JAMES ST", "amenity": "post_box", "collection_times": "Mo-Sa 10:00", "nsi_id": "unitedstatespostalservice-a77078", "operator": "United States Postal Service", "operator:short": "USPS", "operator:type": "public", "operator:wikidata": "Q668687", "ref": "1320300023"}, "type": "Feature"}
{"geometry": {"coordinates": [-76.1447252, 43.054329], "type": "Point"}, "id": "CcC5xp4HbYYQ3L6i7TEeyJ5CV4A=", "properties": {"@source_uri": "https://tools.usps.com/UspsToolsRestServices/rest/POLocator/findLocations", "@spider": "usps_collection_boxes", "addr:city": "SYRACUSE", "addr:country": "US", "addr:postcode": "13203", "addr:state": "NY", "addr:street_address": "537 JAMES ST", "amenity": "post_box", "collection_times": "Mo-Sa 10:00", "nsi_id": "unitedstatespostalservice-a77078", "operator": "United States Postal Service", "operator:short": "USPS", "operator:type": "public", "operator:wikidata": "Q668687", "ref": "1320300029"}, "type": "Feature"}
{"geometry": {"coordinates": [-76.1491493, 43.05561], "type": "Point"}, "id": "PlVImChhAQawG_jtuDZGzlRFXqA=", "properties": {"@source_uri": "https://tools.usps.com/UspsToolsRestServices/rest/POLocator/findLocations", "@spider": "usps_collection_boxes", "addr:city": "SYRACUSE", "addr:country": "US", "addr:postcode": "13203", "addr:state": "NY", "addr:street_address": "301 PROSPECT AVE", "amenity": "post_box", "collection_times": "Mo-Sa 10:00", "nsi_id": "unitedstatespostalservice-a77078", "operator": "United States Postal Service", "operator:short": "USPS", "operator:type": "public", "operator:wikidata": "Q668687", "ref": "1320300034"}, "type": "Feature"}
{"geometry": {"coordinates": [-76.1232059, 43.071445], "type": "Point"}, "id": "BgCktqHOQmoy9s8ovI4vzJd7wsY=", "properties": {"@source_uri": "https://tools.usps.com/UspsToolsRestServices/rest/POLocator/findLocations", "@spider": "usps_collection_boxes", "addr:city": "SYRACUSE", "addr:country": "US", "addr:postcode": "13203", "addr:state": "NY", "addr:street_address": "100 FORDHAM RD", "amenity": "post_box", "collection_times": "Mo-Sa 10:00", "nsi_id": "unitedstatespostalservice-a77078", "operator": "United States Postal Service", "operator:short": "USPS", "operator:type": "public", "operator:wikidata": "Q668687", "ref": "1320300037"}, "type": "Feature"}
{"geometry": {"coordinates": [-76.1402, 43.056265], "type": "Point"}, "id": "1uo1mm8yqm8Q9yhD6_aQBqdIm5U=", "properties": {"@source_uri": "https://tools.usps.com/UspsToolsRestServices/rest/POLocator/findLocations", "@spider": "usps_collection_boxes", "addr:city": "SYRACUSE", "addr:country": "US", "addr:postcode": "13203", "addr:state": "NY", "addr:street_address": "430 ELM ST", "amenity": "post_box", "collection_times": "Mo-Sa 10:00", "nsi_id": "unitedstatespostalservice-a77078", "operator": "United States Postal Service", "operator:short": "USPS", "operator:type": "public", "operator:wikidata": "Q668687", "ref": "1320300043"}, "type": "Feature"}
{"geometry": {"coordinates": [-76.1432188, 43.054845], "type": "Point"}, "id": "EXbZ1KpFf9P4xgX00PV_1LE-s9A=", "properties": {"@source_uri": "https://tools.usps.com/UspsToolsRestServices/rest/POLocator/findLocations", "@spider": "usps_collection_boxes", "addr:city": "SYRACUSE", "addr:country": "US", "addr:postcode": "13203", "addr:state": "NY", "addr:street_address": "650 JAMES ST", "amenity": "post_box", "collection_times": "Mo-Sa 10:00", "nsi_id": "unitedstatespostalservice-a77078", "operator": "United States Postal Service", "operator:short": "USPS", "operator:type": "public", "operator:wikidata": "Q668687", "ref": "1320300049"}, "type": "Feature"}
{"geometry": {"coordinates": [-76.1358319, 43.058452], "type": "Point"}, "id": "8P9uxyfX_B2BSRzASAXOKcV21YI=", "properties": {"@source_uri": "https://tools.usps.com/UspsToolsRestServices/rest/POLocator/findLocations", "@spider": "usps_collection_boxes", "addr:city": "SYRACUSE", "addr:country": "US", "addr:postcode": "13203", "addr:state": "NY", "addr:street_address": "968 JAMES ST", "amenity": "post_box", "collection_times": "Mo-Fr 16:30; Sa 10:00", "note": "ON 12/24 AND 12/31, THIS BOX MAY BE COLLECTED AS EARLY AS 12 NOON.", "nsi_id": "unitedstatespostalservice-a77078", "operator": "United States Postal Service", "operator:short": "USPS", "operator:type": "public", "operator:wikidata": "Q668687", "ref": "1320300050"}, "type": "Feature"}
{"geometry": {"coordinates": [-76.1416033, 43.053417], "type": "Point"}, "id": "D_Wh21eKXpZIel9bLkdEyXvQ7ac=", "properties": {"@source_uri": "https://tools.usps.com/UspsToolsRestServices/rest/POLocator/findLocations", "@spider": "usps_collection_boxes", "addr:city": "SYRACUSE", "addr:country": "US", "addr:postcode": "13203", "addr:state": "NY", "addr:street_address": "307 HAWLEY AVE", "amenity": "post_box", "collection_times": "Mo-Sa 10:00", "nsi_id": "unitedstatespostalservice-a77078", "operator": "United States Postal Service", "operator:short": "USPS", "operator:type": "public", "operator:wikidata": "Q668687", "ref": "1320300051"}, "type": "Feature"}
{"geometry": {"coordinates": [-76.1420553, 43.055629], "type": "Point"}, "id": "Hg0GoT7ShXxml3za3O-neMaEw9w=", "properties": {"@source_uri": "https://tools.usps.com/UspsToolsRestServices/rest/POLocator/findLocations", "@spider": "usps_collection_boxes", "addr:city": "SYRACUSE", "addr:country": "US", "addr:postcode": "13203", "addr:state": "NY", "addr:street_address": "731 JAMES ST", "amenity": "post_box", "collection_times": "Mo-Sa 10:00", "nsi_id": "unitedstatespostalservice-a77078", "operator": "United States Postal Service", "operator:short": "USPS", "operator:type": "public", "operator:wikidata": "Q668687", "ref": "1320300055"}, "type": "Feature"}
{"geometry": {"coordinates": [-76.1371761, 43.058072], "type": "Point"}, "id": "wPrNav__Pl7n7YMKG1f_UyNoTSI=", "properties": {"@source_uri": "https://tools.usps.com/UspsToolsRestServices/rest/POLocator/findLocations", "@spider": "usps_collection_boxes", "addr:city": "SYRACUSE", "addr:country": "US", "addr:postcode": "13203", "addr:state": "NY", "addr:street_address": "935 JAMES ST", "amenity": "post_box", "collection_times": "Mo-Sa 10:00", "nsi_id": "unitedstatespostalservice-a77078", "operator": "United States Postal Service", "operator:short": "USPS", "operator:type": "public", "operator:wikidata": "Q668687", "ref": "1320300057"}, "type": "Feature"}
{"geometry": {"coordinates": [-76.1502521, 43.05342], "type": "Point"}, "id": "egp58Y-n-z5SZwZOvAUSMQoSsuo=", "properties": {"@source_uri": "https://tools.usps.com/UspsToolsRestServices/rest/POLocator/findLocations", "@spider": "usps_collection_boxes", "addr:city": "SYRACUSE", "addr:country": "US", "addr:postcode": "13203", "addr:state": "NY", "addr:street_address": "313 E WILLOW ST", "amenity": "post_box", "collection_times": "Mo-Sa 10:00", "nsi_id": "unitedstatespostalservice-a77078", "operator": "United States Postal Service", "operator:short": "USPS", "operator:type": "public", "operator:wikidata": "Q668687", "ref": "1320300058"}, "type": "Feature"}
{"geometry": {"coordinates": [-76.187615, 43.049495], "type": "Point"}, "id": "r8G9oAwdTmuo51dP3qKN8YajQDU=", "properties": {"@source_uri": "https://tools.usps.com/UspsToolsRestServices/rest/POLocator/findLocations", "@spider": "usps_collection_boxes", "addr:city": "SYRACUSE", "addr:country": "US", "addr:postcode": "13204", "addr:state": "NY", "addr:street_address": "601 W GENESEE ST", "amenity": "post_box", "collection_times": "Mo-Sa 09:00", "nsi_id": "unitedstatespostalservice-a77078", "operator": "United States Postal Service", "operator:short": "USPS", "operator:type": "public", "operator:wikidata": "Q668687", "ref": "1320400003"}, "type": "Feature"}
{"geometry": {"coordinates": [-76.1708421, 43.052039], "type": "Point"}, "id": "kFSguKhBL4Ae2fZn7qA7bF6nX-I=", "properties": {"@source_uri": "https://tools.usps.com/UspsToolsRestServices/rest/POLocator/findLocations", "@spider": "usps_collection_boxes", "addr:city": "SYRACUSE", "addr:country": "US", "addr:postcode": "13204", "addr:state": "NY", "addr:street_address": "700 PARK AVE", "amenity": "post_box", "collection_times": "Mo-Sa 10:00", "nsi_id": "unitedstatespostalservice-a77078", "operator": "United States Postal Service", "operator:short": "USPS", "operator:type": "public", "operator:wikidata": "Q668687", "ref": "1320400019"}, "type": "Feature"}
{"geometry": {"coordinates": [-76.1793742, 43.052333], "type": "Point"}, "id": "bOWyRtuwNE5ci9uTLNNj_Rg-OZU=", "properties": {"@source_uri": "https://tools.usps.com/UspsToolsRestServices/rest/POLocator/findLocations", "@spider": "usps_collection_boxes", "addr:city": "SYRACUSE", "addr:country": "US", "addr:postcode": "13204", "addr:state": "NY", "addr:street_address": "1001 PARK AVE", "amenity": "post_box", "collection_times": "Mo-Sa 10:00", "nsi_id": "unitedstatespostalservice-a77078", "operator": "United States Postal Service", "operator:short": "USPS", "operator:type": "public", "operator:wikidata": "Q668687", "ref": "1320400020"}, "type": "Feature"}
{"geometry": {"coordinates": [-76.1838279, 43.05229], "type": "Point"}, "id": "3V5GIpcjhYOvLQrto1XJ7_gcVOo=", "properties": {"@source_uri": "https://tools.usps.com/UspsToolsRestServices/rest/POLocator/findLocations", "@spider": "usps_collection_boxes", "addr:city": "SYRACUSE", "addr:country": "US", "addr:postcode": "13204", "addr:state": "NY", "addr:street_address": "1510 W GENESEE ST", "amenity": "post_box", "collection_times": "Mo-Sa 09:00", "nsi_id": "unitedstatespostalservice-a77078", "operator": "United States Postal Service", "operator:short": "USPS", "operator:type": "public", "operator:wikidata": "Q668687", "ref": "1320400028"}, "type": "Feature"}
{"geometry": {"coordinates": [-76.1835719, 43.050216], "type": "Point"}, "id": "BDoVLWn4p6EzTlgj8UpvqdSURZA=", "properties": {"@source_uri": "https://tools.usps.com/UspsToolsRestServices/rest/POLocator/findLocations", "@spider": "usps_collection_boxes", "addr:city": "SYRACUSE", "addr:country": "US", "addr:postcode": "13204", "addr:state": "NY", "addr:street_address": "216 N LOWELL AVE", "amenity": "post_box", "collection_times": "Mo-Sa 09:30", "nsi_id": "unitedstatespostalservice-a77078", "operator": "United States Postal Service", "operator:short": "USPS", "operator:type": "public", "operator:wikidata": "Q668687", "ref": "1320400029"}, "type": "Feature"}
{"geometry": {"coordinates": [-76.1902686, 43.046216], "type": "Point"}, "id": "S6Aey8aWTjPVHH0fhNW6yV4hheA=", "properties": {"@source_uri": "https://tools.usps.com/UspsToolsRestServices/rest/POLocator/findLocations", "@spider": "usps_collection_boxes", "addr:city": "SYRACUSE", "addr:country": "US", "addr:postcode": "13204", "addr:state": "NY", "addr:street_address": "619 ULSTER ST", "amenity": "post_box", "collection_times": "Mo-Sa 12:00", "nsi_id": "unitedstatespostalservice-a77078", "operator": "United States Postal Service", "operator:short": "USPS", "operator:type": "public", "operator:wikidata": "Q668687", "ref": "1320400030"}, "type": "Feature"}
{"geometry": {"coordinates": [-76.1894706, 43.043423], "type": "Point"}, "id": "Ov5Vm0BZqoFnLJj2wguiLf1jydk=", "properties": {"@source_uri": "https://tools.usps.com/UspsToolsRestServices/rest/POLocator/findLocations", "@spider": "usps_collection_boxes", "addr:city": "SYRACUSE", "addr:country": "US", "addr:postcode": "13204", "addr:state": "NY", "addr:street_address": "207 S AVERY AVE", "amenity": "post_box", "collection_times": "Mo-Sa 09:00", "nsi_id": "unitedstatespostalservice-a77078", "operator": "United States Postal Service", "operator:short": "USPS", "operator:type": "public", "operator:wikidata": "Q668687", "ref": "1320400031"}, "type": "Feature"}
{"geometry": {"coordinates": [-76.187615, 43.049495], "type": "Point"}, "id": "eB-Z7yDTn7qEH-iZdTgIsqCFdpg=", "properties": {"@source_uri": "https://tools.usps.com/UspsToolsRestServices/rest/POLocator/findLocations", "@spider": "usps_collection_boxes", "addr:city": "SYRACUSE", "addr:country": "US", "addr:postcode": "13204", "addr:state": "NY", "addr:street_address": "512 STATE FAIR BLVD", "amenity": "post_box", "collection_times": "Mo-Sa 10:00", "nsi_id": "unitedstatespostalservice-a77078", "operator": "United States Postal Service", "operator:short": "USPS", "operator:type": "public", "operator:wikidata": "Q668687", "ref": "1320400034"}, "type": "Feature"}
{"geometry": {"coordinates": [-76.1595754405, 43.0557267718], "type": "Point"}, "id": "UD4PgIGRARUElYWY7VR7UBToa2M=", "properties": {"@source_uri": "https://tools.usps.com/UspsToolsRestServices/rest/POLocator/findLocations", "@spider": "usps_collection_boxes", "addr:city": "SYRACUSE", "addr:country": "US", "addr:postcode": "13204", "addr:state": "NY", "addr:street_address": "507 PLUM ST", "amenity": "post_box", "collection_times": "Mo-Sa 09:00", "nsi_id": "unitedstatespostalservice-a77078", "operator": "United States Postal Service", "operator:short": "USPS", "operator:type": "public", "operator:wikidata": "Q668687", "ref": "1320400035"}, "type": "Feature"}
{"geometry": {"coordinates": [-76.1647039, 43.03332], "type": "Point"}, "id": "Cfj8xbKyM4ph2eTWAVjmh-UOSX4=", "properties": {"@source_uri": "https://tools.usps.com/UspsToolsRestServices/rest/POLocator/findLocations", "@spider": "usps_collection_boxes", "addr:city": "SYRACUSE", "addr:country": "US", "addr:postcode": "13204", "addr:state": "NY", "addr:street_address": "125 ONONDAGA AVE", "amenity": "post_box", "collection_times": "Mo-Sa 09:00", "nsi_id": "unitedstatespostalservice-a77078", "operator": "United States Postal Service", "operator:short": "USPS", "operator:type": "public", "operator:wikidata": "Q668687", "ref": "1320400037"}, "type": "Feature"}
{"geometry": {"coordinates": [-76.1596111, 43.043446], "type": "Point"}, "id": "v8KkwkXc6q4_UzWXjxp4MuftW68=", "properties": {"@source_uri": "https://tools.usps.com/UspsToolsRestServices/rest/POLocator/findLocations", "@spider": "usps_collection_boxes", "addr:city": "SYRACUSE", "addr:country": "US", "addr:postcode": "13204", "addr:state": "NY", "addr:street_address": "312 GIFFORD ST", "amenity": "post_box", "collection_times": "Mo-Sa 08:30", "nsi_id": "unitedstatespostalservice-a77078", "operator": "United States Postal Service", "operator:short": "USPS", "operator:type": "public", "operator:wikidata": "Q668687", "ref": "1320400044"}, "type": "Feature"}
{"geometry": {"coordinates": [-76.169329, 43.045818], "type": "Point"}, "id": "01epyBgkOoK3iTb8NkUBUVczxpk=", "properties": {"@source_uri": "https://tools.usps.com/UspsToolsRestServices/rest/POLocator/findLocations", "@spider": "usps_collection_boxes", "addr:city": "SYRACUSE", "addr:country": "US", "addr:postcode": "13204", "addr:state": "NY", "addr:street_address": "1005 W FAYETTE ST", "amenity": "post_box", "collection_times": "Mo-Fr 09:00", "nsi_id": "unitedstatespostalservice-a77078", "operator": "United States Postal Service", "operator:short": "USPS", "operator:type": "public", "operator:wikidata": "Q668687", "ref": "1320400056"}, "type": "Feature"}
{"geometry": {"coordinates": [-76.1806021, 43.046622], "type": "Point"}, "id": "aWOvXlQPHuJtixOh51OfqcvuzHM=", "properties": {"@source_uri": "https://tools.usps.com/UspsToolsRestServices/rest/POLocator/findLocations", "@spider": "usps_collection_boxes", "addr:city": "SYRACUSE", "addr:country": "US", "addr:postcode": "13204", "addr:state": "NY", "addr:street_address": "301 S LOWELL AVE", "amenity": "post_box", "collection_times": "Mo-Sa 09:00", "nsi_id": "unitedstatespostalservice-a77078", "operator": "United States Postal Service", "operator:short": "USPS", "operator:type": "public", "operator:wikidata": "Q668687", "ref": "1320400057"}, "type": "Feature"}
{"geometry": {"coordinates": [-76.1649583, 43.048871], "type": "Point"}, "id": "MDwFrlDLKqMGVxQZfpaHYKxihtU=", "properties": {"@source_uri": "https://tools.usps.com/UspsToolsRestServices/rest/POLocator/findLocations", "@spider": "usps_collection_boxes", "addr:city": "SYRACUSE", "addr:country": "US", "addr:postcode": "13204", "addr:state": "NY", "addr:street_address": "615 ERIE BLVD W", "amenity": "post_box", "collection_times": "Mo-Fr 16:00", "note": "ON 12/24 AND 12/31, THIS BOX MAY BE COLLECTED AS EARLY AS 12 NOON.", "nsi_id": "unitedstatespostalservice-a77078", "operator": "United States Postal Service", "operator:short": "USPS", "operator:type": "public", "operator:wikidata": "Q668687", "ref": "1320400059"}, "type": "Feature"}
{"geometry": {"coordinates": [-76.1580151, 43.056378], "type": "Point"}, "id": "1t5b_FVteAEKBH6kb5Dy4U1MZeM=", "properties": {"@source_uri": "https://tools.usps.com/UspsToolsRestServices/rest/POLocator/findLocations", "@spider": "usps_collection_boxes", "addr:city": "SYRACUSE", "addr:country": "US", "addr:postcode": "13204", "addr:state": "NY", "addr:street_address": "528 PLUM ST", "amenity": "post_box", "collection_times": "Mo-Sa 09:00", "nsi_id": "unitedstatespostalservice-a77078", "operator": "United States Postal Service", "operator:short": "USPS", "operator:type": "public", "operator:wikidata": "Q668687", "ref": "1320400061"}, "type": "Feature"}
{"geometry": {"coordinates": [-76.159833, 43.058213], "type": "Point"}, "id": "MQ4uRc8qY3V1sBRfDT7lMPyVisg=", "properties": {"@source_uri": "https://tools.usps.com/UspsToolsRestServices/rest/POLocator/findLocations", "@spider": "usps_collection_boxes", "addr:city": "SYRACUSE", "addr:country": "US", "addr:postcode": "13204", "addr:state": "NY", "addr:street_address": "401 W DIVISION ST", "amenity": "post_box", "collection_times": "Mo-Fr 17:00; Sa 14:00", "note": "ON 12/24 AND 12/31, THIS BOX MAY BE COLLECTED AS EARLY AS 12 NOON.", "nsi_id": "unitedstatespostalservice-a77078", "operator": "United States Postal Service", "operator:short": "USPS", "operator:type": "public", "operator:wikidata": "Q668687", "ref": "1320400062"}, "type": "Feature"}
{"geometry": {"coordinates": [-76.159833, 43.058213], "type": "Point"}, "id": "umKOIFpXDNv-480S1tlE5Xo9KVo=", "properties": {"@source_uri": "https://tools.usps.com/UspsToolsRestServices/rest/POLocator/findLocations", "@spider": "usps_collection_boxes", "addr:city": "SYRACUSE", "addr:country": "US", "addr:postcode": "13204", "addr:state": "NY", "addr:street_address": "401 W DIVISION ST", "amenity": "post_box", "collection_times": "Mo-Fr 16:30; Sa 13:00", "indoor": "yes", "note": "ON 12/24 AND 12/31, THIS BOX MAY BE COLLECTED AS EARLY AS 12 NOON.", "nsi_id": "unitedstatespostalservice-a77078", "operator": "United States Postal Service", "operator:short": "USPS", "operator:type": "public", "operator:wikidata": "Q668687", "ref": "1320400063"}, "type": "Feature"}
{"geometry": {"coordinates": [-76.159833, 43.058213], "type": "Point"}, "id": "Jfz9v7nsUwIPTcOdfus38qGOz14=", "properties": {"@source_uri": "https://tools.usps.com/UspsToolsRestServices/rest/POLocator/findLocations", "@spider": "usps_collection_boxes", "addr:city": "SYRACUSE", "addr:country": "US", "addr:postcode": "13204", "addr:state": "NY", "addr:street_address": "401 W DIVISION ST", "amenity": "post_box", "collection_times": "Mo-Fr 16:30; Sa 13:00", "indoor": "yes", "note": "ON 12/24 AND 12/31, THIS BOX MAY BE COLLECTED AS EARLY AS 12 NOON.", "nsi_id": "unitedstatespostalservice-a77078", "operator": "United States Postal Service", "operator:short": "USPS", "operator:type": "public", "operator:wikidata": "Q668687", "ref": "1320400064"}, "type": "Feature"}
{"geometry": {"coordinates": [-76.1607556, 43.050121], "type": "Point"}, "id": "k7tjvjQp4b8ZbtezKw0UmXvhYy0=", "properties": {"@source_uri": "https://tools.usps.com/UspsToolsRestServices/rest/POLocator/findLocations", "@spider": "usps_collection_boxes", "addr:city": "SYRACUSE", "addr:country": "US", "addr:postcode": "13204", "addr:state": "NY", "addr:street_address": "500 ERIE BLVD W", "amenity": "post_box", "collection_times": "Mo-Sa 09:00", "nsi_id": "unitedstatespostalservice-a77078", "operator": "United States Postal Service", "operator:short": "USPS", "operator:type": "public", "operator:wikidata": "Q668687", "ref": "1320400065"}, "type": "Feature"}
{"geometry": {"coordinates": [-76.169101, 43.04627], "type": "Point"}, "id": "OBtTTKpQlBCzoh2h2c6C_OOL2YI=", "properties": {"@source_uri": "https://tools.usps.com/UspsToolsRestServices/rest/POLocator/findLocations", "@spider": "usps_collection_boxes", "addr:city": "SYRACUSE", "addr:country": "US", "addr:postcode": "13204", "addr:state": "NY", "addr:street_address": "1001 W FAYETTE ST", "amenity": "post_box", "collection_times": "Mo-Fr 09:00", "nsi_id": "unitedstatespostalservice-a77078", "operator": "United States Postal Service", "operator:short": "USPS", "operator:type": "public", "operator:wikidata": "Q668687", "ref": "1320400066"}, "type": "Feature"}
{"geometry": {"coordinates": [-76.1728019, 43.03931], "type": "Point"}, "id": "LS33Utgjze1cxhb-VH8uYtwXPbM=", "properties": {"@source_uri": "https://tools.usps.com/UspsToolsRestServices/rest/POLocator/findLocations", "@spider": "usps_collection_boxes", "addr:city": "SYRACUSE", "addr:country": "US", "addr:postcode": "13204", "addr:state": "NY", "addr:street_address": "814 S GEDDES ST", "amenity": "post_box", "collection_times": "Mo-Sa 09:30", "nsi_id": "unitedstatespostalservice-a77078", "operator": "United States Postal Service", "operator:short": "USPS", "operator:type": "public", "operator:wikidata": "Q668687", "ref": "1320400067"}, "type": "Feature"}
{"geometry": {"coordinates": [-76.170868554, 43.067557042], "type": "Point"}, "id": "P5-Tf_ER2jK9n61dQ7OHcrFokl8=", "properties": {"@source_uri": "https://tools.usps.com/UspsToolsRestServices/rest/POLocator/findLocations", "@spider": "usps_collection_boxes", "addr:city": "SYRACUSE", "addr:country": "US", "addr:postcode": "13204", "addr:state": "NY", "addr:street_address": "9711 DESTINY USA DR", "amenity": "post_box", "collection_times": "Mo-Sa 10:00", "nsi_id": "unitedstatespostalservice-a77078", "operator": "United States Postal Service", "operator:short": "USPS", "operator:type": "public", "operator:wikidata": "Q668687", "ref": "1320400069"}, "type": "Feature"}
{"geometry": {"coordinates": [-76.1415029, 43.008231], "type": "Point"}, "id": "8BMKVdZjF9CSNFOyQrjUZJMlfP0=", "properties": {"@source_uri": "https://tools.usps.com/UspsToolsRestServices/rest/POLocator/findLocations", "@spider": "usps_collection_boxes", "addr:city": "SYRACUSE", "addr:country": "US", "addr:postcode": "13205", "addr:state": "NY", "addr:street_address": "4141 S SALINA ST", "amenity": "post_box", "collection_times": "Mo-Fr 17:00; Sa 09:00", "note": "ON 12/24 AND 12/31, THIS BOX MAY BE COLLECTED AS EARLY AS 12 NOON.", "nsi_id": "unitedstatespostalservice-a77078", "operator": "United States Postal Service", "operator:short": "USPS", "operator:type": "public", "operator:wikidata": "Q668687", "ref": "1320500002"}, "type": "Feature"}
{"geometry": {"coordinates": [-76.1455182527, 43.0251438371], "type": "Point"}, "id": "IT9wSxgfIPsgn3DTFqrETjx4eog=", "properties": {"@source_uri": "https://tools.usps.com/UspsToolsRestServices/rest/POLocator/findLocations", "@spider": "usps_collection_boxes", "addr:city": "SYRACUSE", "addr:country": "US", "addr:postcode": "13205", "addr:state": "NY", "addr:street_address": "2200 S SALINA ST", "amenity": "post_box", "collection_times": "Mo-Fr 17:00; Sa 13:00", "note": "ON 12/24 AND 12/31, THIS BOX MAY BE COLLECTED AS EARLY AS 12 NOON.", "nsi_id": "unitedstatespostalservice-a77078", "operator": "United States Postal Service", "operator:short": "USPS", "operator:type": "public", "operator:wikidata": "Q668687", "ref": "1320500004"}, "type": "Feature"}
{"geometry": {"coordinates": [-76.1297386, 43.003523], "type": "Point"}, "id": "4m4nKjJgVQtiGBup1t9fOnldnZc=", "properties": {"@source_uri": "https://tools.usps.com/UspsToolsRestServices/rest/POLocator/findLocations", "@spider": "usps_collection_boxes", "addr:city": "SYRACUSE", "addr:country": "US", "addr:postcode": "13205", "addr:state": "NY", "addr:street_address": "101 INTREPID LN", "amenity": "post_box", "collection_times": "Mo-Fr 14:45; Sa 09:00", "note": "ON 12/24 AND 12/31, THIS BOX MAY BE COLLECTED AS EARLY AS 12 NOON.", "nsi_id": "unitedstatespostalservice-a77078", "operator": "United States Postal Service", "operator:short": "USPS", "operator:type": "public", "operator:wikidata": "Q668687", "ref": "1320500006"}, "type": "Feature"}
{"geometry": {"coordinates": [-76.1319186, 43.00488], "type": "Point"}, "id": "buQg_c7vdnORyZgnJ1cKatQyEnk=", "properties": {"@source_uri": "https://tools.usps.com/UspsToolsRestServices/rest/POLocator/findLocations", "@spider": "usps_collection_boxes", "addr:city": "SYRACUSE", "addr:country": "US", "addr:postcode": "13205", "addr:state": "NY", "addr:street_address": "892 E BRIGHTON AVE", "amenity": "post_box", "collection_times": "Mo-Fr 14:45; Sa 09:00", "note": "ON 12/24 AND 12/31, THIS BOX MAY BE COLLECTED AS EARLY AS 12 NOON.", "nsi_id": "unitedstatespostalservice-a77078", "operator": "United States Postal Service", "operator:short": "USPS", "operator:type": "public", "operator:wikidata": "Q668687", "ref": "1320500007"}, "type": "Feature"}
{"geometry": {"coordinates": [-76.1436411, 42.984465], "type": "Point"}, "id": "4JWrZ6QBgQlQIWvOesobSmlu9pA=", "properties": {"@source_uri": "https://tools.usps.com/UspsToolsRestServices/rest/POLocator/findLocations", "@spider": "usps_collection_boxes", "addr:city": "SYRACUSE", "addr:country": "US", "addr:postcode": "13205", "addr:state": "NY", "addr:street_address": "5942 S SALINA ST", "amenity": "post_box", "collection_times": "Mo-Sa 09:00", "nsi_id": "unitedstatespostalservice-a77078", "operator": "United States Postal Service", "operator:short": "USPS", "operator:type": "public", "operator:wikidata": "Q668687", "ref": "1320500012"}, "type": "Feature"}
{"geometry": {"coordinates": [-76.1445622, 43.001106], "type": "Point"}, "id": "88YwIZXg2790xSWtu1UqJZAvNNQ=", "properties": {"@source_uri": "https://tools.usps.com/UspsToolsRestServices/rest/POLocator/findLocations", "@spider": "usps_collection_boxes", "addr:city": "SYRACUSE", "addr:country": "US", "addr:postcode": "13205", "addr:state": "NY", "addr:street_address": "122 W SENECA TPKE", "amenity": "post_box", "collection_times": "Mo-Sa 10:00", "nsi_id": "unitedstatespostalservice-a77078", "operator": "United States Postal Service", "operator:short": "USPS", "operator:type": "public", "operator:wikidata": "Q668687", "ref": "1320500013"}, "type": "Feature"}
{"geometry": {"coordinates": [-76.1438688, 42.991381], "type": "Point"}, "id": "_DeeYzx9E7noP6pzz7PfuCbX930=", "properties": {"@source_uri": "https://tools.usps.com/UspsToolsRestServices/rest/POLocator/findLocations", "@spider": "usps_collection_boxes", "addr:city": "SYRACUSE", "addr:country": "US", "addr:postcode": "13205", "addr:state": "NY", "addr:street_address": "5503 S SALINA ST", "amenity": "post_box", "collection_times": "Mo-Sa 12:00", "nsi_id": "unitedstatespostalservice-a77078", "operator": "United States Postal Service", "operator:short": "USPS", "operator:type": "public", "operator:wikidata": "Q668687", "ref": "1320500015"}, "type": "Feature"}
{"geometry": {"coordinates": [-76.1395214302, 43.0088457624], "type": "Point"}, "id": "e1ozEpDT_uMwB6-bWzdplqsBvow=", "properties": {"@source_uri": "https://tools.usps.com/UspsToolsRestServices/rest/POLocator/findLocations", "@spider": "usps_collection_boxes", "addr:city": "SYRACUSE", "addr:country": "US", "addr:postcode": "13205", "addr:state": "NY", "addr:street_address": "417 CHURCHILL AVE", "amenity": "post_box", "collection_times": "Mo-Sa 10:00", "nsi_id": "unitedstatespostalservice-a77078", "operator": "United States Postal Service", "operator:short": "USPS", "operator:type": "public", "operator:wikidata": "Q668687", "ref": "1320500020"}, "type": "Feature"}
{"geometry": {"coordinates": [-76.141429, 43.01443], "type": "Point"}, "id": "POquiZ2SHNld7Lx4tq1WF57S9_I=", "properties": {"@source_uri": "https://tools.usps.com/UspsToolsRestServices/rest/POLocator/findLocations", "@spider": "usps_collection_boxes", "addr:city": "SYRACUSE", "addr:country": "US", "addr:postcode": "13205", "addr:state": "NY", "addr:street_address": "3430 S SALINA ST", "amenity": "post_box", "collection_times": "Mo-Sa 09:00", "nsi_id": "unitedstatespostalservice-a77078", "operator": "United States Postal Service", "operator:short": "USPS", "operator:type": "public", "operator:wikidata": "Q668687", "ref": "1320500028"}, "type": "Feature"}
{"geometry": {"coordinates": [-76.1491412, 43.01997], "type": "Point"}, "id": "zfDsNb2tG-RqiZnH8bq6-fduTDg=", "properties": {"@source_uri": "https://tools.usps.com/UspsToolsRestServices/rest/POLocator/findLocations", "@spider": "usps_collection_boxes", "addr:city": "SYRACUSE", "addr:country": "US", "addr:postcode": "13205", "addr:state": "NY", "addr:street_address": "269 W BRIGHTON AVE", "amenity": "post_box", "collection_times": "Mo-Sa 12:00", "nsi_id": "unitedstatespostalservice-a77078", "operator": "United States Postal Service", "operator:short": "USPS", "operator:type": "public", "operator:wikidata": "Q668687", "ref": "1320500034"}, "type": "Feature"}
{"geometry": {"coordinates": [-76.1427044, 43.001629], "type": "Point"}, "id": "_R55fcBey0thpFCtPTQnKB7mtK8=", "properties": {"@source_uri": "https://tools.usps.com/UspsToolsRestServices/rest/POLocator/findLocations", "@spider": "usps_collection_boxes", "addr:city": "SYRACUSE", "addr:country": "US", "addr:postcode": "13205", "addr:state": "NY", "addr:street_address": "4711 S SALINA ST", "amenity": "post_box", "collection_times": "Mo-Sa 12:00", "nsi_id": "unitedstatespostalservice-a77078", "operator": "United States Postal Service", "operator:short": "USPS", "operator:type": "public", "operator:wikidata": "Q668687", "ref": "1320500035"}, "type": "Feature"}
{"geometry": {"coordinates": [-76.1412789, 42.98378], "type": "Point"}, "id": "MVEFq2RjjfL3KUAmvQR-M28LrUA=", "properties": {"@source_uri": "https://tools.usps.com/UspsToolsRestServices/rest/POLocator/findLocations", "@spider": "usps_collection_boxes", "addr:city": "SYRACUSE", "addr:country": "US", "addr:postcode": "13205", "addr:state": "NY", "addr:street_address": "6003 S SALINA ST", "amenity": "post_box", "collection_times": "Mo-Sa 09:00", "nsi_id": "unitedstatespostalservice-a77078", "operator": "United States Postal Service", "operator:short": "USPS", "operator:type": "public", "operator:wikidata": "Q668687", "ref": "1320500036"}, "type": "Feature"}
{"geometry": {"coordinates": [-76.1427822, 42.981301], "type": "Point"}, "id": "KLfweGwJUgpklvWKgCORIPy7yas=", "properties": {"@source_uri": "https://tools.usps.com/UspsToolsRestServices/rest/POLocator/findLocations", "@spider": "usps_collection_boxes", "addr:city": "SYRACUSE", "addr:country": "US", "addr:postcode": "13205", "addr:state": "NY", "addr:street_address": "6136 S SALINA ST", "amenity": "post_box", "collection_times": "Mo-Sa 12:00", "nsi_id": "unitedstatespostalservice-a77078", "operator": "United States Postal Service", "operator:short": "USPS", "operator:type": "public", "operator:wikidata": "Q668687", "ref": "1320500037"}, "type": "Feature"}
{"geometry": {"coordinates": [-76.1453822, 43.025213], "type": "Point"}, "id": "FgRnfrpIqsnCPvr5hzm6pTj1YkY=", "properties": {"@source_uri": "https://tools.usps.com/UspsToolsRestServices/rest/POLocator/findLocations", "@spider": "usps_collection_boxes", "addr:city": "SYRACUSE", "addr:country": "US", "addr:postcode": "13205", "addr:state": "NY", "addr:street_address": "2200 S SALINA ST", "amenity": "post_box", "collection_times": "Mo-Fr 17:00; Sa 13:00", "indoor": "yes", "note": "ON 12/24 AND 12/31, THIS BOX MAY BE COLLECTED AS EARLY AS 12 NOON.", "nsi_id": "unitedstatespostalservice-a77078", "operator": "United States Postal Service", "operator:short": "USPS", "operator:type": "public", "operator:wikidata": "Q668687", "ref": "1320500061"}, "type": "Feature"}
{"geometry": {"coordinates": [-76.145175824, 43.025192309], "type": "Point"}, "id": "Y4OcHGzDwdt__LFKQMYv2yApUjc=", "properties": {"@source_uri": "https://tools.usps.com/UspsToolsRestServices/rest/POLocator/findLocations", "@spider": "usps_collection_boxes", "addr:city": "SYRACUSE", "addr:country": "US", "addr:postcode": "13205", "addr:state": "NY", "addr:street_address": "2200 S SALINA ST", "amenity": "post_box", "collection_times": "Mo-Fr 17:00; Sa 13:00", "indoor": "yes", "note": "ON 12/24 AND 12/31, THIS BOX MAY BE COLLECTED AS EARLY AS 12 NOON.", "nsi_id": "unitedstatespostalservice-a77078", "operator": "United States Postal Service", "operator:short": "USPS", "operator:type": "public", "operator:wikidata": "Q668687", "ref": "1320500062"}, "type": "Feature"}
{"geometry": {"coordinates": [-76.1208911, 43.079231], "type": "Point"}, "id": "lhX2DxG5RJMLfkLePOyS5z9If1Y=", "properties": {"@source_uri": "https://tools.usps.com/UspsToolsRestServices/rest/POLocator/findLocations", "@spider": "usps_collection_boxes", "addr:city": "SYRACUSE", "addr:country": "US", "addr:postcode": "13206", "addr:state": "NY", "addr:street_address": "400 SCHAFFER AVE", "amenity": "post_box", "collection_times": "Mo-Sa 10:00", "nsi_id": "unitedstatespostalservice-a77078", "operator": "United States Postal Service", "operator:short": "USPS", "operator:type": "public", "operator:wikidata": "Q668687", "ref": "1320600007"}, "type": "Feature"}
{"geometry": {"coordinates": [-76.122468, 43.059258], "type": "Point"}, "id": "SJSPHpr5j8O1d_icvj4C0i7ZedA=", "properties": {"@source_uri": "https://tools.usps.com/UspsToolsRestServices/rest/POLocator/findLocations", "@spider": "usps_collection_boxes", "addr:city": "SYRACUSE", "addr:country": "US", "addr:postcode": "13206", "addr:state": "NY", "addr:street_address": "901 TEALL AVE", "amenity": "post_box", "collection_times": "Mo-Sa 10:00", "nsi_id": "unitedstatespostalservice-a77078", "operator": "United States Postal Service", "operator:short": "USPS", "operator:type": "public", "operator:wikidata": "Q668687", "ref": "1320600009"}, "type": "Feature"}
{"geometry": {"coordinates": [-76.0974449, 43.066444], "type": "Point"}, "id": "QdtBqs57STTmeI_9DAhEie6IuiY=", "properties": {"@source_uri": "https://tools.usps.com/UspsToolsRestServices/rest/POLocator/findLocations", "@spider": "usps_collection_boxes", "addr:city": "SYRACUSE", "addr:country": "US", "addr:postcode": "13206", "addr:state": "NY", "addr:street_address": "158 ROXBURY RD", "amenity": "post_box", "collection_times": "Mo-Sa 10:00", "nsi_id": "unitedstatespostalservice-a77078", "operator": "United States Postal Service", "operator:short": "USPS", "operator:type": "public", "operator:wikidata": "Q668687", "ref": "1320600011"}, "type": "Feature"}
{"geometry": {"coordinates": [-76.0993831, 43.064603], "type": "Point"}, "id": "O7bmiVGn511fej4o33jidHIj6Ek=", "properties": {"@source_uri": "https://tools.usps.com/UspsToolsRestServices/rest/POLocator/findLocations", "@spider": "usps_collection_boxes", "addr:city": "SYRACUSE", "addr:country": "US", "addr:postcode": "13206", "addr:state": "NY", "addr:street_address": "330 PLYMOUTH DR", "amenity": "post_box", "collection_times": "Mo-Sa 10:00", "nsi_id": "unitedstatespostalservice-a77078", "operator": "United States Postal Service", "operator:short": "USPS", "operator:type": "public", "operator:wikidata": "Q668687", "ref": "1320600012"}, "type": "Feature"}
{"geometry": {"coordinates": [-76.1253134, 43.082263], "type": "Point"}, "id": "v0AQ8UR3V1eEOgeIotdUVzh4IQs=", "properties": {"@source_uri": "https://tools.usps.com/UspsToolsRestServices/rest/POLocator/findLocations", "@spider": "usps_collection_boxes", "addr:city": "SYRACUSE", "addr:country": "US", "addr:postcode": "13206", "addr:state": "NY", "addr:street_address": "2301 TEALL AVE", "amenity": "post_box", "collection_times": "Mo-Fr 15:30; Sa 10:00", "note": "ON 12/24 AND 12/31, THIS BOX MAY BE COLLECTED AS EARLY AS 12 NOON.", "nsi_id": "unitedstatespostalservice-a77078", "operator": "United States Postal Service", "operator:short": "USPS", "operator:type": "public", "operator:wikidata": "Q668687", "ref": "1320600015"}, "type": "Feature"}
{"geometry": {"coordinates": [-76.1027245, 43.081682], "type": "Point"}, "id": "k9U-9UinFsYY2C4_PvjnRO1GNH8=", "properties": {"@source_uri": "https://tools.usps.com/UspsToolsRestServices/rest/POLocator/findLocations", "@spider": "usps_collection_boxes", "addr:city": "SYRACUSE", "addr:country": "US", "addr:postcode": "13206", "addr:state": "NY", "addr:street_address": "6000 COURT STREET RD", "amenity": "post_box", "collection_times": "Mo-Sa 10:00", "nsi_id": "unitedstatespostalservice-a77078", "operator": "United States Postal Service", "operator:short": "USPS", "operator:type": "public", "operator:wikidata": "Q668687", "ref": "1320600018"}, "type": "Feature"}
{"geometry": {"coordinates": [-76.1006882, 43.059491], "type": "Point"}, "id": "_pn6BebbbXYnfirbkCSyAmPTWrw=", "properties": {"@source_uri": "https://tools.usps.com/UspsToolsRestServices/rest/POLocator/findLocations", "@spider": "usps_collection_boxes", "addr:city": "SYRACUSE", "addr:country": "US", "addr:postcode": "13206", "addr:state": "NY", "addr:street_address": "2599 BURNET AVE", "amenity": "post_box", "collection_times": "Mo-Sa 10:00", "nsi_id": "unitedstatespostalservice-a77078", "operator": "United States Postal Service", "operator:short": "USPS", "operator:type": "public", "operator:wikidata": "Q668687", "ref": "1320600021"}, "type": "Feature"}
{"geometry": {"coordinates": [-76.0913029, 43.061225], "type": "Point"}, "id": "Qeshd0iFaDLmX_dc3BRVDiH2rjI=", "properties": {"@source_uri": "https://tools.usps.com/UspsToolsRestServices/rest/POLocator/findLocations", "@spider": "usps_collection_boxes", "addr:city": "SYRACUSE", "addr:country": "US", "addr:postcode": "13206", "addr:state": "NY", "addr:street_address": "3401 BURNET AVE", "amenity": "post_box", "collection_times": "Mo-Sa 09:30", "nsi_id": "unitedstatespostalservice-a77078", "operator": "United States Postal Service", "operator:short": "USPS", "operator:type": "public", "operator:wikidata": "Q668687", "ref": "1320600022"}, "type": "Feature"}
{"geometry": {"coordinates": [-76.1022763, 43.069103], "type": "Point"}, "id": "Y-kHvvkFQhBrL8tFEyJNFVqwBKQ=", "properties": {"@source_uri": "https://tools.usps.com/UspsToolsRestServices/rest/POLocator/findLocations", "@spider": "usps_collection_boxes", "addr:city": "SYRACUSE", "addr:country": "US", "addr:postcode": "13206", "addr:state": "NY", "addr:street_address": "3215 JAMES ST", "amenity": "post_box", "collection_times": "Mo-Sa 10:00", "nsi_id": "unitedstatespostalservice-a77078", "operator": "United States Postal Service", "operator:short": "USPS", "operator:type": "public", "operator:wikidata": "Q668687", "ref": "1320600025"}, "type": "Feature"}
{"geometry": {"coordinates": [-76.0941189, 43.069333], "type": "Point"}, "id": "VFRqBhB4frZTR_hGsiKfDOWEJeY=", "properties": {"@source_uri": "https://tools.usps.com/UspsToolsRestServices/rest/POLocator/findLocations", "@spider": "usps_collection_boxes", "addr:city": "SYRACUSE", "addr:country": "US", "addr:postcode": "13206", "addr:state": "NY", "addr:street_address": "3650 JAMES ST", "amenity": "post_box", "collection_times": "Mo-Sa 09:00", "nsi_id": "unitedstatespostalservice-a77078", "operator": "United States Postal Service", "operator:short": "USPS", "operator:type": "public", "operator:wikidata": "Q668687", "ref": "1320600028"}, "type": "Feature"}
{"geometry": {"coordinates": [-76.0977504, 43.069788], "type": "Point"}, "id": "fdXkCzm4-FKabrGLkvhuna649wg=", "properties": {"@source_uri": "https://tools.usps.com/UspsToolsRestServices/rest/POLocator/findLocations", "@spider": "usps_collection_boxes", "addr:city": "SYRACUSE", "addr:country": "US", "addr:postcode": "13206", "addr:state": "NY", "addr:street_address": "3535 JAMES ST", "amenity": "post_box", "collection_times": "Mo-Sa 10:00", "nsi_id": "unitedstatespostalservice-a77078", "operator": "United States Postal Service", "operator:short": "USPS", "operator:type": "public", "operator:wikidata": "Q668687", "ref": "1320600029"}, "type": "Feature"}
{"geometry": {"coordinates": [-76.0970277, 43.069227], "type": "Point"}, "id": "QtlRQA_Ojsjzjkg_WeE6paslaTk=", "properties": {"@source_uri": "https://tools.usps.com/UspsToolsRestServices/rest/POLocator/findLocations", "@spider": "usps_collection_boxes", "addr:city": "SYRACUSE", "addr:country": "US", "addr:postcode": "13206", "addr:state": "NY", "addr:street_address": "3522 JAMES ST", "amenity": "post_box", "collection_times": "Mo-Sa 10:00", "nsi_id": "unitedstatespostalservice-a77078", "operator": "United States Postal Service", "operator:short": "USPS", "operator:type": "public", "operator:wikidata": "Q668687", "ref": "1320600030"}, "type": "Feature"}
{"geometry": {"coordinates": [-76.0930128, 43.064794], "type": "Point"}, "id": "VLTs75pn3Ljn7FJ5M2mTIznZUII=", "properties": {"@source_uri": "https://tools.usps.com/UspsToolsRestServices/rest/POLocator/findLocations", "@spider": "usps_collection_boxes", "addr:city": "SYRACUSE", "addr:country": "US", "addr:postcode": "13206", "addr:state": "NY", "addr:street_address": "272 CLOVER RIDGE DR", "amenity": "post_box", "collection_times": "Mo-Sa 10:00", "nsi_id": "unitedstatespostalservice-a77078", "operator": "United States Postal Service", "operator:short": "USPS", "operator:type": "public", "operator:wikidata": "Q668687", "ref": "1320600031"}, "type": "Feature"}
{"geometry": {"coordinates": [-76.1117257, 43.068684], "type": "Point"}, "id": "QytGrE5e4hGDjgl_xgC6b9fZvO4=", "properties": {"@source_uri": "https://tools.usps.com/UspsToolsRestServices/rest/POLocator/findLocations", "@spider": "usps_collection_boxes", "addr:city": "SYRACUSE", "addr:country": "US", "addr:postcode": "13206", "addr:state": "NY", "addr:street_address": "2509 JAMES ST", "amenity": "post_box", "collection_times": "Mo-Fr 17:00; Sa 14:00", "note": "ON 12/24 AND 12/31, THIS BOX MAY BE COLLECTED AS EARLY AS 12 NOON.", "nsi_id": "unitedstatespostalservice-a77078", "operator": "United States Postal Service", "operator:short": "USPS", "operator:type": "public", "operator:wikidata": "Q668687", "ref": "1320600034"}, "type": "Feature"}
{"geometry": {"coordinates": [-76.1194503, 43.07366], "type": "Point"}, "id": "O9k5BWZ1q1rafF7LsmkSRgv8uTk=", "properties": {"@source_uri": "https://tools.usps.com/UspsToolsRestServices/rest/POLocator/findLocations", "@spider": "usps_collection_boxes", "addr:city": "SYRACUSE", "addr:country": "US", "addr:postcode": "13206", "addr:state": "NY", "addr:street_address": "1802 TEALL AVE", "amenity": "post_box", "collection_times": "Mo-Sa 10:00", "nsi_id": "unitedstatespostalservice-a77078", "operator": "United States Postal Service", "operator:short": "USPS", "operator:type": "public", "operator:wikidata": "Q668687", "ref": "1320600036"}, "type": "Feature"}
{"geometry": {"coordinates": [-76.1091199, 43.088467], "type": "Point"}, "id": "mt_2fT4pwxlO-4CeGMJ9aj996vc=", "properties": {"@source_uri": "https://tools.usps.com/UspsToolsRestServices/rest/POLocator/findLocations", "@spider": "usps_collection_boxes", "addr:city": "SYRACUSE", "addr:country": "US", "addr:postcode": "13206", "addr:state": "NY", "addr:street_address": "100 TWIN OAKS DR", "amenity": "post_box", "collection_times": "Mo-Fr 16:00; Sa 10:00", "note": "ON 12/24 AND 12/31, THIS BOX MAY BE COLLECTED AS EARLY AS 12 NOON.", "nsi_id": "unitedstatespostalservice-a77078", "operator": "United States Postal Service", "operator:short": "USPS", "operator:type": "public", "operator:wikidata": "Q668687", "ref": "1320600043"}, "type": "Feature"}
{"geometry": {"coordinates": [-76.1063957, 43.076867], "type": "Point"}, "id": "zz-F0qPnpKx91SOlc_ML8sjS3-4=", "properties": {"@source_uri": "https://tools.usps.com/UspsToolsRestServices/rest/POLocator/findLocations", "@spider": "usps_collection_boxes", "addr:city": "SYRACUSE", "addr:country": "US", "addr:postcode": "13206", "addr:state": "NY", "addr:street_address": "4106 NEW COURT AVE", "amenity": "post_box", "collection_times": "Mo-Sa 10:00", "nsi_id": "unitedstatespostalservice-a77078", "operator": "United States Postal Service", "operator:short": "USPS", "operator:type": "public", "operator:wikidata": "Q668687", "ref": "1320600050"}, "type": "Feature"}
{"geometry": {"coordinates": [-76.108596, 43.084474], "type": "Point"}, "id": "pnOqVzV9w1drm4uFhgYgk5vNK1Q=", "properties": {"@source_uri": "https://tools.usps.com/UspsToolsRestServices/rest/POLocator/findLocations", "@spider": "usps_collection_boxes", "addr:city": "SYRACUSE", "addr:country": "US", "addr:postcode": "13206", "addr:state": "NY", "addr:street_address": "6481 RIDINGS RD", "amenity": "post_box", "collection_times": "Mo-Sa 10:00", "nsi_id": "unitedstatespostalservice-a77078", "operator": "United States Postal Service", "operator:short": "USPS", "operator:type": "public", "operator:wikidata": "Q668687", "ref": "1320600055"}, "type": "Feature"}
{"geometry": {"coordinates": [-76.1008004, 43.08523], "type": "Point"}, "id": "gWS5TpZvdwcevxOTsPOsiX1WbZA=", "properties": {"@source_uri": "https://tools.usps.com/UspsToolsRestServices/rest/POLocator/findLocations", "@spider": "usps_collection_boxes", "addr:city": "SYRACUSE", "addr:country": "US", "addr:postcode": "13206", "addr:state": "NY", "addr:street_address": "6402 DEERE RD", "amenity": "post_box", "collection_times": "Mo-Fr 16:30; Sa 10:00", "note": "ON 12/24 AND 12/31, THIS BOX MAY BE COLLECTED AS EARLY AS 12 NOON.", "nsi_id": "unitedstatespostalservice-a77078", "operator": "United States Postal Service", "operator:short": "USPS", "operator:type": "public", "operator:wikidata": "Q668687", "ref": "1320600056"}, "type": "Feature"}
{"geometry": {"coordinates": [-76.111743, 43.068616], "type": "Point"}, "id": "_4UzHZ0BczYx_Q0Ws9MAzhlUW7E=", "properties": {"@source_uri": "https://tools.usps.com/UspsToolsRestServices/rest/POLocator/findLocations", "@spider": "usps_collection_boxes", "addr:city": "SYRACUSE", "addr:country": "US", "addr:postcode": "13206", "addr:state": "NY", "addr:street_address": "2509 JAMES ST", "amenity": "post_box", "collection_times": "Mo-Fr 17:00; Sa 13:30", "indoor": "yes", "note": "ON 12/24 AND 12/31, THIS BOX MAY BE COLLECTED AS EARLY AS 12 NOON.", "nsi_id": "unitedstatespostalservice-a77078", "operator": "United States Postal Service", "operator:short": "USPS", "operator:type": "public", "operator:wikidata": "Q668687", "ref": "1320600063"}, "type": "Feature"}
{"geometry": {"coordinates": [-76.111681867, 43.068643438], "type": "Point"}, "id": "W5wTb2T8oNpHL9NAoNn9iLvyHSc=", "properties": {"@source_uri": "https://tools.usps.com/UspsToolsRestServices/rest/POLocator/findLocations", "@spider": "usps_collection_boxes", "addr:city": "SYRACUSE", "addr:country": "US", "addr:postcode": "13206", "addr:state": "NY", "addr:street_address": "2509 JAMES ST", "amenity": "post_box", "collection_times": "Mo-Fr 17:00; Sa 14:00", "indoor": "yes", "note": "ON 12/24 AND 12/31, THIS BOX MAY BE COLLECTED AS EARLY AS 12 NOON.", "nsi_id": "unitedstatespostalservice-a77078", "operator": "United States Postal Service", "operator:short": "USPS", "operator:type": "public", "operator:wikidata": "Q668687", "ref": "1320600065"}, "type": "Feature"}
{"geometry": {"coordinates": [-76.1661586, 43.030297], "type": "Point"}, "id": "24Was1DoqvC91lysOt9zfr62-zs=", "properties": {"@source_uri": "https://tools.usps.com/UspsToolsRestServices/rest/POLocator/findLocations", "@spider": "usps_collection_boxes", "addr:city": "SYRACUSE", "addr:country": "US", "addr:postcode": "13207", "addr:state": "NY", "addr:street_address": "300 SUMMIT AVE", "amenity": "post_box", "collection_times": "Mo-Sa 10:00", "nsi_id": "unitedstatespostalservice-a77078", "operator": "United States Postal Service", "operator:short": "USPS", "operator:type": "public", "operator:wikidata": "Q668687", "ref": "1320700001"}, "type": "Feature"}
{"geometry": {"coordinates": [-76.182769, 43.02993], "type": "Point"}, "id": "UyIya1RItACjYwItllOZ2v1Bksk=", "properties": {"@source_uri": "https://tools.usps.com/UspsToolsRestServices/rest/POLocator/findLocations", "@spider": "usps_collection_boxes", "addr:city": "SYRACUSE", "addr:country": "US", "addr:postcode": "13207", "addr:state": "NY", "addr:street_address": "219 WOLCOTT AVE", "amenity": "post_box", "collection_times": "Mo-Sa 10:00", "nsi_id": "unitedstatespostalservice-a77078", "operator": "United States Postal Service", "operator:short": "USPS", "operator:type": "public", "operator:wikidata": "Q668687", "ref": "1320700003"}, "type": "Feature"}
{"geometry": {"coordinates": [-76.1753178, 43.030009], "type": "Point"}, "id": "0FBEkwCGBnp73jpDmND9lVdfS-Q=", "properties": {"@source_uri": "https://tools.usps.com/UspsToolsRestServices/rest/POLocator/findLocations", "@spider": "usps_collection_boxes", "addr:city": "SYRACUSE", "addr:country": "US", "addr:postcode": "13207", "addr:state": "NY", "addr:street_address": "1710 S GEDDES ST", "amenity": "post_box", "collection_times": "Mo-Sa 10:00", "nsi_id": "unitedstatespostalservice-a77078", "operator": "United States Postal Service", "operator:short": "USPS", "operator:type": "public", "operator:wikidata": "Q668687", "ref": "1320700004"}, "type": "Feature"}
{"geometry": {"coordinates": [-76.1559166, 43.008004], "type": "Point"}, "id": "BZIYBOFRdiIod3R2POv_IQNYBlU=", "properties": {"@source_uri": "https://tools.usps.com/UspsToolsRestServices/rest/POLocator/findLocations", "@spider": "usps_collection_boxes", "addr:city": "SYRACUSE", "addr:country": "US", "addr:postcode": "13207", "addr:state": "NY", "addr:street_address": "101 CAMP AVE", "amenity": "post_box", "collection_times": "Mo-Sa 09:00", "nsi_id": "unitedstatespostalservice-a77078", "operator": "United States Postal Service", "operator:short": "USPS", "operator:type": "public", "operator:wikidata": "Q668687", "ref": "1320700005"}, "type": "Feature"}
{"geometry": {"coordinates": [-76.1524336, 42.993951], "type": "Point"}, "id": "8lEOQl7jtrrvlnJ0Orw7QL-_2Jw=", "properties": {"@source_uri": "https://tools.usps.com/UspsToolsRestServices/rest/POLocator/findLocations", "@spider": "usps_collection_boxes", "addr:city": "SYRACUSE", "addr:country": "US", "addr:postcode": "13207", "addr:state": "NY", "addr:street_address": "2109 VALLEY DR", "amenity": "post_box", "collection_times": "Mo-Sa 12:00", "nsi_id": "unitedstatespostalservice-a77078", "operator": "United States Postal Service", "operator:short": "USPS", "operator:type": "public", "operator:wikidata": "Q668687", "ref": "1320700008"}, "type": "Feature"}
{"geometry": {"coordinates": [-76.1606399, 43.019455], "type": "Point"}, "id": "M43SosE7a0domqXbRTwEQSUGV4A=", "properties": {"@source_uri": "https://tools.usps.com/UspsToolsRestServices/rest/POLocator/findLocations", "@spider": "usps_collection_boxes", "addr:city": "SYRACUSE", "addr:country": "US", "addr:postcode": "13207", "addr:state": "NY", "addr:street_address": "1828 SOUTH AVE", "amenity": "post_box", "collection_times": "Mo-Sa 09:00", "nsi_id": "unitedstatespostalservice-a77078", "operator": "United States Postal Service", "operator:short": "USPS", "operator:type": "public", "operator:wikidata": "Q668687", "ref": "1320700010"}, "type": "Feature"}
{"geometry": {"coordinates": [-76.1694447, 43.022699], "type": "Point"}, "id": "Jxw6XM6N05weXyVAqOGWJFC_3oc=", "properties": {"@source_uri": "https://tools.usps.com/UspsToolsRestServices/rest/POLocator/findLocations", "@spider": "usps_collection_boxes", "addr:city": "SYRACUSE", "addr:country": "US", "addr:postcode": "13207", "addr:state": "NY", "addr:street_address": "104 STRATHMORE DR", "amenity": "post_box", "collection_times": "Mo-Sa 12:00", "nsi_id": "unitedstatespostalservice-a77078", "operator": "United States Postal Service", "operator:short": "USPS", "operator:type": "public", "operator:wikidata": "Q668687", "ref": "1320700011"}, "type": "Feature"}
{"geometry": {"coordinates": [-76.1742133, 43.021466], "type": "Point"}, "id": "TQ_776sVCzGXzhbk2NtVBrhHhlk=", "properties": {"@source_uri": "https://tools.usps.com/UspsToolsRestServices/rest/POLocator/findLocations", "@spider": "usps_collection_boxes", "addr:city": "SYRACUSE", "addr:country": "US", "addr:postcode": "13207", "addr:state": "NY", "addr:street_address": "107 ARDEN DR", "amenity": "post_box", "collection_times": "Mo-Sa 12:00", "nsi_id": "unitedstatespostalservice-a77078", "operator": "United States Postal Service", "operator:short": "USPS", "operator:type": "public", "operator:wikidata": "Q668687", "ref": "1320700012"}, "type": "Feature"}
{"geometry": {"coordinates": [-76.1539568, 43.00233], "type": "Point"}, "id": "VjjcEyDuoIZpluaMPWVqeUnvDlA=", "properties": {"@source_uri": "https://tools.usps.com/UspsToolsRestServices/rest/POLocator/findLocations", "@spider": "usps_collection_boxes", "addr:city": "SYRACUSE", "addr:country": "US", "addr:postcode": "13207", "addr:state": "NY", "addr:street_address": "410 W SENECA TPKE", "amenity": "post_box", "collection_times": "Mo-Sa 09:00", "nsi_id": "unitedstatespostalservice-a77078", "operator": "United States Postal Service", "operator:short": "USPS", "operator:type": "public", "operator:wikidata": "Q668687", "ref": "1320700013"}, "type": "Feature"}
{"geometry": {"coordinates": [-76.1584231, 43.012841], "type": "Point"}, "id": "QfGR4SCvb_e-8wHzSUV-OLQzgb8=", "properties": {"@source_uri": "https://tools.usps.com/UspsToolsRestServices/rest/POLocator/findLocations", "@spider": "usps_collection_boxes", "addr:city": "SYRACUSE", "addr:country": "US", "addr:postcode": "13207", "addr:state": "NY", "addr:street_address": "444 VALLEY DR", "amenity": "post_box", "collection_times": "Mo-Sa 10:00", "nsi_id": "unitedstatespostalservice-a77078", "operator": "United States Postal Service", "operator:short": "USPS", "operator:type": "public", "operator:wikidata": "Q668687", "ref": "1320700014"}, "type": "Feature"}
{"geometry": {"coordinates": [-76.1591988073, 43.0248275529], "type": "Point"}, "id": "INUK8i3FcAXK7aeA0H0fd9ettvk=", "properties": {"@source_uri": "https://tools.usps.com/UspsToolsRestServices/rest/POLocator/findLocations", "@spider": "usps_collection_boxes", "addr:city": "SYRACUSE", "addr:country": "US", "addr:postcode": "13207", "addr:state": "NY", "addr:street_address": "1223 SOUTH AVE", "amenity": "post_box", "collection_times": "Mo-Sa 09:00", "nsi_id": "unitedstatespostalservice-a77078", "operator": "United States Postal Service", "operator:short": "USPS", "operator:type": "public", "operator:wikidata": "Q668687", "ref": "1320700015"}, "type": "Feature"}
{"geometry": {"coordinates": [-76.1537766, 43.071378], "type": "Point"}, "id": "CqlvaJsG4EODBsDx_haHrMbw40A=", "properties": {"@source_uri": "https://tools.usps.com/UspsToolsRestServices/rest/POLocator/findLocations", "@spider": "usps_collection_boxes", "addr:city": "SYRACUSE", "addr:country": "US", "addr:postcode": "13208", "addr:state": "NY", "addr:street_address": "1020 1ST NORTH ST", "amenity": "post_box", "collection_times": "Mo-Fr 09:30; Sa 09:00", "nsi_id": "unitedstatespostalservice-a77078", "operator": "United States Postal Service", "operator:short": "USPS", "operator:type": "public", "operator:wikidata": "Q668687", "ref": "1320800000"}, "type": "Feature"}
{"geometry": {"coordinates": [-76.1605799, 43.075987], "type": "Point"}, "id": "YLFcBzxxK7EFn3L2_VSJE0DwZwk=", "properties": {"@source_uri": "https://tools.usps.com/UspsToolsRestServices/rest/POLocator/findLocations", "@spider": "usps_collection_boxes", "addr:city": "SYRACUSE", "addr:country": "US", "addr:postcode": "13208", "addr:state": "NY", "addr:street_address": "618 2ND NORTH ST", "amenity": "post_box", "collection_times": "Mo-Fr 09:30; Sa 09:00", "nsi_id": "unitedstatespostalservice-a77078", "operator": "United States Postal Service", "operator:short": "USPS", "operator:type": "public", "operator:wikidata": "Q668687", "ref": "1320800001"}, "type": "Feature"}
{"geometry": {"coordinates": [-76.1479018, 43.059149], "type": "Point"}, "id": "TTMuyZRdSkswaGxmDUkvDfPY-B4=", "properties": {"@source_uri": "https://tools.usps.com/UspsToolsRestServices/rest/POLocator/findLocations", "@spider": "usps_collection_boxes", "addr:city": "SYRACUSE", "addr:country": "US", "addr:postcode": "13208", "addr:state": "NY", "addr:street_address": "500 BUTTERNUT ST", "amenity": "post_box", "collection_times": "Mo-Sa 09:00", "nsi_id": "unitedstatespostalservice-a77078", "operator": "United States Postal Service", "operator:short": "USPS", "operator:type": "public", "operator:wikidata": "Q668687", "ref": "1320800003"}, "type": "Feature"}
{"geometry": {"coordinates": [-76.142758027, 43.072165853], "type": "Point"}, "id": "dTJ3m_m1qQ7deGLvoSEPlunOvLs=", "properties": {"@source_uri": "https://tools.usps.com/UspsToolsRestServices/rest/POLocator/findLocations", "@spider": "usps_collection_boxes", "addr:city": "SYRACUSE", "addr:country": "US", "addr:postcode": "13208", "addr:state": "NY", "addr:street_address": "1427 BUTTERNUT ST", "amenity": "post_box", "collection_times": "Mo-Fr 10:00; Sa 09:00", "nsi_id": "unitedstatespostalservice-a77078", "operator": "United States Postal Service", "operator:short": "USPS", "operator:type": "public", "operator:wikidata": "Q668687", "ref": "1320800006"}, "type": "Feature"}
{"geometry": {"coordinates": [-76.1566104, 43.07071], "type": "Point"}, "id": "a4MHDFgf9VQzzlw7Z8iOnqqjtVw=", "properties": {"@source_uri": "https://tools.usps.com/UspsToolsRestServices/rest/POLocator/findLocations", "@spider": "usps_collection_boxes", "addr:city": "SYRACUSE", "addr:country": "US", "addr:postcode": "13208", "addr:state": "NY", "addr:street_address": "537 COURT ST", "amenity": "post_box", "collection_times": "Mo-Sa 09:00", "nsi_id": "unitedstatespostalservice-a77078", "operator": "United States Postal Service", "operator:short": "USPS", "operator:type": "public", "operator:wikidata": "Q668687", "ref": "1320800008"}, "type": "Feature"}
{"geometry": {"coordinates": [-76.1535268, 43.074589], "type": "Point"}, "id": "LmkcH0KPoumN0X4n-CwzPtibIBg=", "properties": {"@source_uri": "https://tools.usps.com/UspsToolsRestServices/rest/POLocator/findLocations", "@spider": "usps_collection_boxes", "addr:city": "SYRACUSE", "addr:country": "US", "addr:postcode": "13208", "addr:state": "NY", "addr:street_address": "824 COURT ST", "amenity": "post_box", "collection_times": "Mo-Sa 09:00", "nsi_id": "unitedstatespostalservice-a77078", "operator": "United States Postal Service", "operator:short": "USPS", "operator:type": "public", "operator:wikidata": "Q668687", "ref": "1320800009"}, "type": "Feature"}
{"geometry": {"coordinates": [-76.1505776, 43.076152], "type": "Point"}, "id": "DOyU0UbPkZWrv44Wi9xEhpw7qWI=", "properties": {"@source_uri": "https://tools.usps.com/UspsToolsRestServices/rest/POLocator/findLocations", "@spider": "usps_collection_boxes", "addr:city": "SYRACUSE", "addr:country": "US", "addr:postcode": "13208", "addr:state": "NY", "addr:street_address": "1126 COURT ST", "amenity": "post_box", "collection_times": "Mo-Fr 09:30; Sa 09:00", "nsi_id": "unitedstatespostalservice-a77078", "operator": "United States Postal Service", "operator:short": "USPS", "operator:type": "public", "operator:wikidata": "Q668687", "ref": "1320800010"}, "type": "Feature"}
{"geometry": {"coordinates": [-76.1364264, 43.083934], "type": "Point"}, "id": "s3SXwdItmaTlEsTUbnnvtn7jk9E=", "properties": {"@source_uri": "https://tools.usps.com/UspsToolsRestServices/rest/POLocator/findLocations", "@spider": "usps_collection_boxes", "addr:city": "SYRACUSE", "addr:country": "US", "addr:postcode": "13208", "addr:state": "NY", "addr:street_address": "2415 COURT ST", "amenity": "post_box", "collection_times": "Mo-Sa 09:00", "nsi_id": "unitedstatespostalservice-a77078", "operator": "United States Postal Service", "operator:short": "USPS", "operator:type": "public", "operator:wikidata": "Q668687", "ref": "1320800012"}, "type": "Feature"}
{"geometry": {"coordinates": [-76.1310574, 43.083558], "type": "Point"}, "id": "EWSJOvzEB-9-Tssg9vPSxbTMhbk=", "properties": {"@source_uri": "https://tools.usps.com/UspsToolsRestServices/rest/POLocator/findLocations", "@spider": "usps_collection_boxes", "addr:city": "SYRACUSE", "addr:country": "US", "addr:postcode": "13208", "addr:state": "NY", "addr:street_address": "2716 COURT ST", "amenity": "post_box", "collection_times": "Mo-Sa 09:00", "nsi_id": "unitedstatespostalservice-a77078", "operator": "United States Postal Service", "operator:short": "USPS", "operator:type": "public", "operator:wikidata": "Q668687", "ref": "1320800013"}, "type": "Feature"}
{"geometry": {"coordinates": [-76.1504291, 43.061613], "type": "Point"}, "id": "OT4s7PR51q-3x_Vjt4oh2sB3QGM=", "properties": {"@source_uri": "https://tools.usps.com/UspsToolsRestServices/rest/POLocator/findLocations", "@spider": "usps_collection_boxes", "addr:city": "SYRACUSE", "addr:country": "US", "addr:postcode": "13208", "addr:state": "NY", "addr:street_address": "502 E DIVISION ST", "amenity": "post_box", "collection_times": "Mo-Sa 09:00", "nsi_id": "unitedstatespostalservice-a77078", "operator": "United States Postal Service", "operator:short": "USPS", "operator:type": "public", "operator:wikidata": "Q668687", "ref": "1320800014"}, "type": "Feature"}
{"geometry": {"coordinates": [-76.1372887, 43.072429], "type": "Point"}, "id": "KO0Myf2iN14usz0HR9qgrF47N-Q=", "properties": {"@source_uri": "https://tools.usps.com/UspsToolsRestServices/rest/POLocator/findLocations", "@spider": "usps_collection_boxes", "addr:city": "SYRACUSE", "addr:country": "US", "addr:postcode": "13208", "addr:state": "NY", "addr:street_address": "1500 GRANT BLVD", "amenity": "post_box", "collection_times": "Mo-Fr 09:30; Sa 09:00", "nsi_id": "unitedstatespostalservice-a77078", "operator": "United States Postal Service", "operator:short": "USPS", "operator:type": "public", "operator:wikidata": "Q668687", "ref": "1320800015"}, "type": "Feature"}
{"geometry": {"coordinates": [-76.1514866, 43.08134], "type": "Point"}, "id": "avJwHXq6u26z5MNAUgs3AdgKOb0=", "properties": {"@source_uri": "https://tools.usps.com/UspsToolsRestServices/rest/POLocator/findLocations", "@spider": "usps_collection_boxes", "addr:city": "SYRACUSE", "addr:country": "US", "addr:postcode": "13208", "addr:state": "NY", "addr:street_address": "1334 LEMOYNE AVE", "amenity": "post_box", "collection_times": "Mo-Fr 09:30; Sa 09:00", "nsi_id": "unitedstatespostalservice-a77078", "operator": "United States Postal Service", "operator:short": "USPS", "operator:type": "public", "operator:wikidata": "Q668687", "ref": "1320800016"}, "type": "Feature"}
{"geometry": {"coordinates": [-76.1564874, 43.067969], "type": "Point"}, "id": "6QiIUYtP8WxzufS1cFFFk74Cwt0=", "properties": {"@source_uri": "https://tools.usps.com/UspsToolsRestServices/rest/POLocator/findLocations", "@spider": "usps_collection_boxes", "addr:city": "SYRACUSE", "addr:country": "US", "addr:postcode": "13208", "addr:state": "NY", "addr:street_address": "1406 PARK ST", "amenity": "post_box", "collection_times": "Mo-Fr 09:30; Sa 09:00", "nsi_id": "unitedstatespostalservice-a77078", "operator": "United States Postal Service", "operator:short": "USPS", "operator:type": "public", "operator:wikidata": "Q668687", "ref": "1320800018"}, "type": "Feature"}
{"geometry": {"coordinates": [-76.1691581, 43.0739], "type": "Point"}, "id": "S_1xi7NAnbYYnPKLMpaqLV1xk38=", "properties": {"@source_uri": "https://tools.usps.com/UspsToolsRestServices/rest/POLocator/findLocations", "@spider": "usps_collection_boxes", "addr:city": "SYRACUSE", "addr:country": "US", "addr:postcode": "13208", "addr:state": "NY", "addr:street_address": "2100 PARK ST", "amenity": "post_box", "collection_times": "Mo-Sa 09:00", "nsi_id": "unitedstatespostalservice-a77078", "operator": "United States Postal Service", "operator:short": "USPS", "operator:type": "public", "operator:wikidata": "Q668687", "ref": "1320800019"}, "type": "Feature"}
{"geometry": {"coordinates": [-76.1347466, 43.0805], "type": "Point"}, "id": "DGkwwHrvSNKYd7GYzxpkxwLfwsA=", "properties": {"@source_uri": "https://tools.usps.com/UspsToolsRestServices/rest/POLocator/findLocations", "@spider": "usps_collection_boxes", "addr:city": "SYRACUSE", "addr:country": "US", "addr:postcode": "13208", "addr:state": "NY", "addr:street_address": "501 PLEASANTVIEW AVE", "amenity": "post_box", "collection_times": "Mo-Fr 09:30; Sa 09:00", "nsi_id": "unitedstatespostalservice-a77078", "operator": "United States Postal Service", "operator:short": "USPS", "operator:type": "public", "operator:wikidata": "Q668687", "ref": "1320800020"}, "type": "Feature"}
{"geometry": {"coordinates": [-76.1490993, 43.069326], "type": "Point"}, "id": "EHZmgSTpr_7j6TpUTHrgRgBC3Gs=", "properties": {"@source_uri": "https://tools.usps.com/UspsToolsRestServices/rest/POLocator/findLocations", "@spider": "usps_collection_boxes", "addr:city": "SYRACUSE", "addr:country": "US", "addr:postcode": "13208", "addr:state": "NY", "addr:street_address": "741 POND ST", "amenity": "post_box", "collection_times": "Mo-Fr 09:30; Sa 09:00", "nsi_id": "unitedstatespostalservice-a77078", "operator": "United States Postal Service", "operator:short": "USPS", "operator:type": "public", "operator:wikidata": "Q668687", "ref": "1320800021"}, "type": "Feature"}
{"geometry": {"coordinates": [-76.1517168377, 43.0581046655], "type": "Point"}, "id": "e6Q0XWqOZEck0LmT2nSA92VGP_4=", "properties": {"@source_uri": "https://tools.usps.com/UspsToolsRestServices/rest/POLocator/findLocations", "@spider": "usps_collection_boxes", "addr:city": "SYRACUSE", "addr:country": "US", "addr:postcode": "13208", "addr:state": "NY", "addr:street_address": "500 N SALINA ST", "amenity": "post_box", "collection_times": "Mo-Sa 10:00", "nsi_id": "unitedstatespostalservice-a77078", "operator": "United States Postal Service", "operator:short": "USPS", "operator:type": "public", "operator:wikidata": "Q668687", "ref": "1320800022"}, "type": "Feature"}
{"geometry": {"coordinates": [-76.1541247, 43.061833], "type": "Point"}, "id": "RRUSinXz-qn_JypIhvPQSxn4I7U=", "properties": {"@source_uri": "https://tools.usps.com/UspsToolsRestServices/rest/POLocator/findLocations", "@spider": "usps_collection_boxes", "addr:city": "SYRACUSE", "addr:country": "US", "addr:postcode": "13208", "addr:state": "NY", "addr:street_address": "801 N SALINA ST", "amenity": "post_box", "collection_times": "Mo-Sa 09:00", "nsi_id": "unitedstatespostalservice-a77078", "operator": "United States Postal Service", "operator:short": "USPS", "operator:type": "public", "operator:wikidata": "Q668687", "ref": "1320800024"}, "type": "Feature"}
{"geometry": {"coordinates": [-76.1550249, 43.063135], "type": "Point"}, "id": "l8Tp1z7fGtww6Je-xXrZSb-1-fA=", "properties": {"@source_uri": "https://tools.usps.com/UspsToolsRestServices/rest/POLocator/findLocations", "@spider": "usps_collection_boxes", "addr:city": "SYRACUSE", "addr:country": "US", "addr:postcode": "13208", "addr:state": "NY", "addr:street_address": "900 N SALINA ST", "amenity": "post_box", "collection_times": "Mo-Fr 10:00; Sa 09:00", "nsi_id": "unitedstatespostalservice-a77078", "operator": "United States Postal Service", "operator:short": "USPS", "operator:type": "public", "operator:wikidata": "Q668687", "ref": "1320800025"}, "type": "Feature"}
{"geometry": {"coordinates": [-76.157418, 43.065743], "type": "Point"}, "id": "3NnwPCg5OGgTrOt32vqETI_zRf0=", "properties": {"@source_uri": "https://tools.usps.com/UspsToolsRestServices/rest/POLocator/findLocations", "@spider": "usps_collection_boxes", "addr:city": "SYRACUSE", "addr:country": "US", "addr:postcode": "13208", "addr:state": "NY", "addr:street_address": "1130 N SALINA ST", "amenity": "post_box", "collection_times": "Mo-Fr 09:30; Sa 09:00", "nsi_id": "unitedstatespostalservice-a77078", "operator": "United States Postal Service", "operator:short": "USPS", "operator:type": "public", "operator:wikidata": "Q668687", "ref": "1320800026"}, "type": "Feature"}
{"geometry": {"coordinates": [-76.1385562, 43.08015], "type": "Point"}, "id": "7Fv8pusLTlYE93TZI_XwsLzuHP0=", "properties": {"@source_uri": "https://tools.usps.com/UspsToolsRestServices/rest/POLocator/findLocations", "@spider": "usps_collection_boxes", "addr:city": "SYRACUSE", "addr:country": "US", "addr:postcode": "13208", "addr:state": "NY", "addr:street_address": "721 DARLINGTON RD", "amenity": "post_box", "collection_times": "Mo-Sa 09:00", "nsi_id": "unitedstatespostalservice-a77078", "operator": "United States Postal Service", "operator:short": "USPS", "operator:type": "public", "operator:wikidata": "Q668687", "ref": "1320800029"}, "type": "Feature"}
{"geometry": {"coordinates": [-76.1529919, 43.060482], "type": "Point"}, "id": "GF3GlzKPG69fpkpQaUidb3tW5UE=", "properties": {"@source_uri": "https://tools.usps.com/UspsToolsRestServices/rest/POLocator/findLocations", "@spider": "usps_collection_boxes", "addr:city": "SYRACUSE", "addr:country": "US", "addr:postcode": "13208", "addr:state": "NY", "addr:street_address": "660 N SALINA ST", "amenity": "post_box", "collection_times": "Mo-Sa 09:00", "nsi_id": "unitedstatespostalservice-a77078", "operator": "United States Postal Service", "operator:short": "USPS", "operator:type": "public", "operator:wikidata": "Q668687", "ref": "1320800030"}, "type": "Feature"}
{"geometry": {"coordinates": [-76.1435689, 43.06428], "type": "Point"}, "id": "0K-zkDOhnZ72b3Hy-zQw1LsCfkM=", "properties": {"@source_uri": "https://tools.usps.com/UspsToolsRestServices/rest/POLocator/findLocations", "@spider": "usps_collection_boxes", "addr:city": "SYRACUSE", "addr:country": "US", "addr:postcode": "13208", "addr:state": "NY", "addr:street_address": "1001 BUTTERNUT ST", "amenity": "post_box", "collection_times": "Mo-Sa 09:00", "nsi_id": "unitedstatespostalservice-a77078", "operator": "United States Postal Service", "operator:short": "USPS", "operator:type": "public", "operator:wikidata": "Q668687", "ref": "1320800032"}, "type": "Feature"}
{"geometry": {"coordinates": [-76.2028608, 43.060374], "type": "Point"}, "id": "MnUZFUxYzXJk9VuOIDk7GiOz0BM=", "properties": {"@source_uri": "https://tools.usps.com/UspsToolsRestServices/rest/POLocator/findLocations", "@spider": "usps_collection_boxes", "addr:city": "SYRACUSE", "addr:country": "US", "addr:postcode": "13209", "addr:state": "NY", "addr:street_address": "1537 MILTON AVE", "amenity": "post_box", "collection_times": "Mo-Sa 09:00", "nsi_id": "unitedstatespostalservice-a77078", "operator": "United States Postal Service", "operator:short": "USPS", "operator:type": "public", "operator:wikidata": "Q668687", "ref": "1320900001"}, "type": "Feature"}
{"geometry": {"coordinates": [-76.2129274, 43.061056], "type": "Point"}, "id": "SxWQ5FSo9rxeIi0ZXIDoDpeKbv4=", "properties": {"@source_uri": "https://tools.usps.com/UspsToolsRestServices/rest/POLocator/findLocations", "@spider": "usps_collection_boxes", "addr:city": "SYRACUSE", "addr:country": "US", "addr:postcode": "13209", "addr:state": "NY", "addr:street_address": "1100 WOODS RD", "amenity": "post_box", "collection_times": "Mo-Sa 09:00", "nsi_id": "unitedstatespostalservice-a77078", "operator": "United States Postal Service", "operator:short": "USPS", "operator:type": "public", "operator:wikidata": "Q668687", "ref": "1320900005"}, "type": "Feature"}
{"geometry": {"coordinates": [-76.2259651, 43.06046], "type": "Point"}, "id": "nrSvpX4LDQMLc1MwbcqFBv-S22A=", "properties": {"@source_uri": "https://tools.usps.com/UspsToolsRestServices/rest/POLocator/findLocations", "@spider": "usps_collection_boxes", "addr:city": "SYRACUSE", "addr:country": "US", "addr:postcode": "13209", "addr:state": "NY", "addr:street_address": "2851 MILTON AVE", "amenity": "post_box", "collection_times": "Mo-Sa 09:45", "nsi_id": "unitedstatespostalservice-a77078", "operator": "United States Postal Service", "operator:short": "USPS", "operator:type": "public", "operator:wikidata": "Q668687", "ref": "1320900009"}, "type": "Feature"}
{"geometry": {"coordinates": [-76.1975776, 43.04948], "type": "Point"}, "id": "y4PGDc5ArSWyTH4fBXEp5vTmeMk=", "properties": {"@source_uri": "https://tools.usps.com/UspsToolsRestServices/rest/POLocator/findLocations", "@spider": "usps_collection_boxes", "addr:city": "SYRACUSE", "addr:country": "US", "addr:postcode": "13209", "addr:state": "NY", "addr:street_address": "527 CHARLES AVE", "amenity": "post_box", "collection_times": "Mo-Sa 10:00", "nsi_id": "unitedstatespostalservice-a77078", "operator": "United States Postal Service", "operator:short": "USPS", "operator:type": "public", "operator:wikidata": "Q668687", "ref": "1320900011"}, "type": "Feature"}
{"geometry": {"coordinates": [-76.2864955, 43.121862], "type": "Point"}, "id": "JIGyGDCq8SIyI-UTI40FX7NmLiI=", "properties": {"@source_uri": "https://tools.usps.com/UspsToolsRestServices/rest/POLocator/findLocations", "@spider": "usps_collection_boxes", "addr:city": "SYRACUSE", "addr:country": "US", "addr:postcode": "13209", "addr:state": "NY", "addr:street_address": "7252 STATE FAIR BLVD", "amenity": "post_box", "collection_times": "Mo-Sa 10:00", "nsi_id": "unitedstatespostalservice-a77078", "operator": "United States Postal Service", "operator:short": "USPS", "operator:type": "public", "operator:wikidata": "Q668687", "ref": "1320900012"}, "type": "Feature"}
{"geometry": {"coordinates": [-76.2181581, 43.054915], "type": "Point"}, "id": "yusBhPH1YhXrLcK-fVIpBIrMnzU=", "properties": {"@source_uri": "https://tools.usps.com/UspsToolsRestServices/rest/POLocator/findLocations", "@spider": "usps_collection_boxes", "addr:city": "SYRACUSE", "addr:country": "US", "addr:postcode": "13209", "addr:state": "NY", "addr:street_address": "1007 COGSWELL AVE", "amenity": "post_box", "collection_times": "Mo-Sa 10:00", "nsi_id": "unitedstatespostalservice-a77078", "operator": "United States Postal Service", "operator:short": "USPS", "operator:type": "public", "operator:wikidata": "Q668687", "ref": "1320900014"}, "type": "Feature"}
{"geometry": {"coordinates": [-76.2539780681, 43.1111298423], "type": "Point"}, "id": "0C1P5ANRGd9avSHbpXsLknulu2s=", "properties": {"@source_uri": "https://tools.usps.com/UspsToolsRestServices/rest/POLocator/findLocations", "@spider": "usps_collection_boxes", "addr:city": "SYRACUSE", "addr:country": "US", "addr:postcode": "13209", "addr:state": "NY", "addr:street_address": "1 DWIGHT PARK DR", "amenity": "post_box", "collection_times": "Mo-Sa 10:00", "nsi_id": "unitedstatespostalservice-a77078", "operator": "United States Postal Service", "operator:short": "USPS", "operator:type": "public", "operator:wikidata": "Q668687", "ref": "1320900018"}, "type": "Feature"}
{"geometry": {"coordinates": [-76.2059326, 43.060407], "type": "Point"}, "id": "bm2chqjf2_oe0UGxKgwsSWRQ3XY=", "properties": {"@source_uri": "https://tools.usps.com/UspsToolsRestServices/rest/POLocator/findLocations", "@spider": "usps_collection_boxes", "addr:city": "SYRACUSE", "addr:country": "US", "addr:postcode": "13209", "addr:state": "NY", "addr:street_address": "1801 MILTON AVE", "amenity": "post_box", "collection_times": "Mo-Fr 16:45; Sa 13:00", "indoor": "yes", "note": "ON 12/24 AND 12/31, THIS BOX MAY BE COLLECTED AS EARLY AS 12 NOON.", "nsi_id": "unitedstatespostalservice-a77078", "operator": "United States Postal Service", "operator:short": "USPS", "operator:type": "public", "operator:wikidata": "Q668687", "ref": "1320900021"}, "type": "Feature"}
{"geometry": {"coordinates": [-76.206708673, 43.061476972], "type": "Point"}, "id": "zu1uswQavh_LWFjTm1EU18u5_kA=", "properties": {"@source_uri": "https://tools.usps.com/UspsToolsRestServices/rest/POLocator/findLocations", "@spider": "usps_collection_boxes", "addr:city": "SYRACUSE", "addr:country": "US", "addr:postcode": "13209", "addr:state": "NY", "addr:street_address": "1801 MILTON AVE", "amenity": "post_box", "collection_times": "Mo-Fr 17:00; Sa 13:00", "indoor": "yes", "note": "ON 12/24 AND 12/31, THIS BOX MAY BE COLLECTED AS EARLY AS 12 NOON.", "nsi_id": "unitedstatespostalservice-a77078", "operator": "United States Postal Service", "operator:short": "USPS", "operator:type": "public", "operator:wikidata": "Q668687", "ref": "1320900024"}, "type": "Feature"}
{"geometry": {"coordinates": [-76.219605, 43.057215], "type": "Point"}, "id": "tU6ZHQj6SOUnQIaPhYiOUUD4-yM=", "properties": {"@source_uri": "https://tools.usps.com/UspsToolsRestServices/rest/POLocator/findLocations", "@spider": "usps_collection_boxes", "addr:city": "SYRACUSE", "addr:country": "US", "addr:postcode": "13209", "addr:state": "NY", "addr:street_address": "1801 MILTON AVE", "amenity": "post_box", "collection_times": "Mo-Fr 18:30; Sa 12:00", "note": "ON 12/24 AND 12/31, THIS BOX MAY BE COLLECTED AS EARLY AS 12 NOON.", "nsi_id": "unitedstatespostalservice-a77078", "operator": "United States Postal Service", "operator:short": "USPS", "operator:type": "public", "operator:wikidata": "Q668687", "ref": "1320900025"}, "type": "Feature"}
{"geometry": {"coordinates": [-76.1162158, 43.01837], "type": "Point"}, "id": "FEvQAXobyJzWDYBxtGINdjHy3is=", "properties": {"@source_uri": "https://tools.usps.com/UspsToolsRestServices/rest/POLocator/findLocations", "@spider": "usps_collection_boxes", "addr:city": "SYRACUSE", "addr:country": "US", "addr:postcode": "13210", "addr:state": "NY", "addr:street_address": "331 SLOCUM HTS", "amenity": "post_box", "collection_times": "Mo-Sa 10:00", "nsi_id": "unitedstatespostalservice-a77078", "operator": "United States Postal Service", "operator:short": "USPS", "operator:type": "public", "operator:wikidata": "Q668687", "ref": "1321000010"}, "type": "Feature"}
{"geometry": {"coordinates": [-76.1191633, 43.016529], "type": "Point"}, "id": "PumnOvl6zMix-OfnNlsTvsBLjyw=", "properties": {"@source_uri": "https://tools.usps.com/UspsToolsRestServices/rest/POLocator/findLocations", "@spider": "usps_collection_boxes", "addr:city": "SYRACUSE", "addr:country": "US", "addr:postcode": "13210", "addr:state": "NY", "addr:street_address": "300 SKYTOP RD", "amenity": "post_box", "collection_times": "Mo-Sa 10:00", "nsi_id": "unitedstatespostalservice-a77078", "operator": "United States Postal Service", "operator:short": "USPS", "operator:type": "public", "operator:wikidata": "Q668687", "ref": "1321000011"}, "type": "Feature"}
{"geometry": {"coordinates": [-76.1330749, 43.01679], "type": "Point"}, "id": "UHjXDROIbWYsJ_cpNoHAe5mKkuY=", "properties": {"@source_uri": "https://tools.usps.com/UspsToolsRestServices/rest/POLocator/findLocations", "@spider": "usps_collection_boxes", "addr:city": "SYRACUSE", "addr:country": "US", "addr:postcode": "13210", "addr:state": "NY", "addr:street_address": "122 REMINGTON AVE", "amenity": "post_box", "collection_times": "Mo-Sa 10:00", "nsi_id": "unitedstatespostalservice-a77078", "operator": "United States Postal Service", "operator:short": "USPS", "operator:type": "public", "operator:wikidata": "Q668687", "ref": "1321000015"}, "type": "Feature"}
{"geometry": {"coordinates": [-76.1250405, 43.030635], "type": "Point"}, "id": "u6mh0qteetKy3jhCsxhMRMa8fk0=", "properties": {"@source_uri": "https://tools.usps.com/UspsToolsRestServices/rest/POLocator/findLocations", "@spider": "usps_collection_boxes", "addr:city": "SYRACUSE", "addr:country": "US", "addr:postcode": "13210", "addr:state": "NY", "addr:street_address": "123 WINDSOR PL", "amenity": "post_box", "collection_times": "Mo-Sa 10:00", "nsi_id": "unitedstatespostalservice-a77078", "operator": "United States Postal Service", "operator:short": "USPS", "operator:type": "public", "operator:wikidata": "Q668687", "ref": "1321000016"}, "type": "Feature"}
{"geometry": {"coordinates": [-76.1281005, 43.019127], "type": "Point"}, "id": "NF_V5B5c8f1HOosqJ3zYTJSATa0=", "properties": {"@source_uri": "https://tools.usps.com/UspsToolsRestServices/rest/POLocator/findLocations", "@spider": "usps_collection_boxes", "addr:city": "SYRACUSE", "addr:country": "US", "addr:postcode": "13210", "addr:state": "NY", "addr:street_address": "502 THURBER ST", "amenity": "post_box", "collection_times": "Mo-Sa 10:00", "nsi_id": "unitedstatespostalservice-a77078", "operator": "United States Postal Service", "operator:short": "USPS", "operator:type": "public", "operator:wikidata": "Q668687", "ref": "1321000017"}, "type": "Feature"}
{"geometry": {"coordinates": [-76.1345281, 43.041959], "type": "Point"}, "id": "TbF638jsvm4dg5cXynzBmsc1jds=", "properties": {"@source_uri": "https://tools.usps.com/UspsToolsRestServices/rest/POLocator/findLocations", "@spider": "usps_collection_boxes", "addr:city": "SYRACUSE", "addr:country": "US", "addr:postcode": "13210", "addr:state": "NY", "addr:street_address": "720 UNIVERSITY AVE", "amenity": "post_box", "collection_times": "Mo-Fr 17:00; Sa 14:00", "note": "ON 12/24 AND 12/31, THIS BOX MAY BE COLLECTED AS EARLY AS 12 NOON.", "nsi_id": "unitedstatespostalservice-a77078", "operator": "United States Postal Service", "operator:short": "USPS", "operator:type": "public", "operator:wikidata": "Q668687", "ref": "1321000020"}, "type": "Feature"}
{"geometry": {"coordinates": [-76.1108094, 43.028618], "type": "Point"}, "id": "pfVIaGln8WYJXWFtViQjUtPJsmM=", "properties": {"@source_uri": "https://tools.usps.com/UspsToolsRestServices/rest/POLocator/findLocations", "@spider": "usps_collection_boxes", "addr:city": "SYRACUSE", "addr:country": "US", "addr:postcode": "13210", "addr:state": "NY", "addr:street_address": "315 NOTTINGHAM RD", "amenity": "post_box", "collection_times": "Mo-Sa 10:00", "nsi_id": "unitedstatespostalservice-a77078", "operator": "United States Postal Service", "operator:short": "USPS", "operator:type": "public", "operator:wikidata": "Q668687", "ref": "1321000022"}, "type": "Feature"}
{"geometry": {"coordinates": [-76.1135022, 43.026975], "type": "Point"}, "id": "DE22sDQMVJnAmOgulWEdADRdY8A=", "properties": {"@source_uri": "https://tools.usps.com/UspsToolsRestServices/rest/POLocator/findLocations", "@spider": "usps_collection_boxes", "addr:city": "SYRACUSE", "addr:country": "US", "addr:postcode": "13210", "addr:state": "NY", "addr:street_address": "1400 WESTMORELAND AVE", "amenity": "post_box", "collection_times": "Mo-Sa 10:00", "nsi_id": "unitedstatespostalservice-a77078", "operator": "United States Postal Service", "operator:short": "USPS", "operator:type": "public", "operator:wikidata": "Q668687", "ref": "1321000023"}, "type": "Feature"}
{"geometry": {"coordinates": [-76.1192383, 43.041467], "type": "Point"}, "id": "36_ubrG5zPEuuCbrL8DT9DDP3P0=", "properties": {"@source_uri": "https://tools.usps.com/UspsToolsRestServices/rest/POLocator/findLocations", "@spider": "usps_collection_boxes", "addr:city": "SYRACUSE", "addr:country": "US", "addr:postcode": "13210", "addr:state": "NY", "addr:street_address": "512 WESTCOTT ST", "amenity": "post_box", "collection_times": "Mo-Sa 10:00", "nsi_id": "unitedstatespostalservice-a77078", "operator": "United States Postal Service", "operator:short": "USPS", "operator:type": "public", "operator:wikidata": "Q668687", "ref": "1321000028"}, "type": "Feature"}
{"geometry": {"coordinates": [-76.1211496, 43.038536], "type": "Point"}, "id": "y--eqg5qSW3LslwalaMi_v-7fhA=", "properties": {"@source_uri": "https://tools.usps.com/UspsToolsRestServices/rest/POLocator/findLocations", "@spider": "usps_collection_boxes", "addr:city": "SYRACUSE", "addr:country": "US", "addr:postcode": "13210", "addr:state": "NY", "addr:street_address": "601 CLARENDON ST", "amenity": "post_box", "collection_times": "Mo-Sa 10:00", "nsi_id": "unitedstatespostalservice-a77078", "operator": "United States Postal Service", "operator:short": "USPS", "operator:type": "public", "operator:wikidata": "Q668687", "ref": "1321000029"}, "type": "Feature"}
{"geometry": {"coordinates": [-76.134254, 43.045366], "type": "Point"}, "id": "4pn_NMBEnXyj6oBL_IqEn5FJm0c=", "properties": {"@source_uri": "https://tools.usps.com/UspsToolsRestServices/rest/POLocator/findLocations", "@spider": "usps_collection_boxes", "addr:city": "SYRACUSE", "addr:country": "US", "addr:postcode": "13210", "addr:state": "NY", "addr:street_address": "901 MADISON ST", "amenity": "post_box", "collection_times": "Mo-Sa 10:00", "nsi_id": "unitedstatespostalservice-a77078", "operator": "United States Postal Service", "operator:short": "USPS", "operator:type": "public", "operator:wikidata": "Q668687", "ref": "1321000034"}, "type": "Feature"}
{"geometry": {"coordinates": [-76.1379383, 43.047035], "type": "Point"}, "id": "UNm-FUlTK4G5_A99ZSWXEWbwAw0=", "properties": {"@source_uri": "https://tools.usps.com/UspsToolsRestServices/rest/POLocator/findLocations", "@spider": "usps_collection_boxes", "addr:city": "SYRACUSE", "addr:country": "US", "addr:postcode": "13210", "addr:state": "NY", "addr:street_address": "833 E GENESEE ST", "amenity": "post_box", "collection_times": "Mo-Sa 10:00", "nsi_id": "unitedstatespostalservice-a77078", "operator": "United States Postal Service", "operator:short": "USPS", "operator:type": "public", "operator:wikidata": "Q668687", "ref": "1321000035"}, "type": "Feature"}
{"geometry": {"coordinates": [-76.1320199, 43.047048], "type": "Point"}, "id": "DWEXvzefMYL70YYOXhopc6N7OHE=", "properties": {"@source_uri": "https://tools.usps.com/UspsToolsRestServices/rest/POLocator/findLocations", "@spider": "usps_collection_boxes", "addr:city": "SYRACUSE", "addr:country": "US", "addr:postcode": "13210", "addr:state": "NY", "addr:street_address": "1201 E GENESEE ST", "amenity": "post_box", "collection_times": "Mo-Sa 10:00", "nsi_id": "unitedstatespostalservice-a77078", "operator": "United States Postal Service", "operator:short": "USPS", "operator:type": "public", "operator:wikidata": "Q668687", "ref": "1321000039"}, "type": "Feature"}
{"geometry": {"coordinates": [-76.1380179, 43.041393], "type": "Point"}, "id": "-O0q-SFvzt2lCyQkOXfYnLpsSWE=", "properties": {"@source_uri": "https://tools.usps.com/UspsToolsRestServices/rest/POLocator/findLocations", "@spider": "usps_collection_boxes", "addr:city": "SYRACUSE", "addr:country": "US", "addr:postcode": "13210", "addr:state": "NY", "addr:street_address": "725 IRVING AVE", "amenity": "post_box", "collection_times": "Mo-Fr 16:00; Sa 10:00", "note": "ON 12/24 AND 12/31, THIS BOX MAY BE COLLECTED AS EARLY AS 12 NOON.", "nsi_id": "unitedstatespostalservice-a77078", "operator": "United States Postal Service", "operator:short": "USPS", "operator:type": "public", "operator:wikidata": "Q668687", "ref": "1321000043"}, "type": "Feature"}
{"geometry": {"coordinates": [-76.1379635, 43.041008], "type": "Point"}, "id": "1yzmQaTGcKhgvb1PNGrrKnWQBlk=", "properties": {"@source_uri": "https://tools.usps.com/UspsToolsRestServices/rest/POLocator/findLocations", "@spider": "usps_collection_boxes", "addr:city": "SYRACUSE", "addr:country": "US", "addr:postcode": "13210", "addr:state": "NY", "addr:street_address": "739 IRVING AVE", "amenity": "post_box", "collection_times": "Mo-Sa 10:00", "nsi_id": "unitedstatespostalservice-a77078", "operator": "United States Postal Service", "operator:short": "USPS", "operator:type": "public", "operator:wikidata": "Q668687", "ref": "1321000044"}, "type": "Feature"}
{"geometry": {"coordinates": [-76.1376037, 43.045544], "type": "Point"}, "id": "lLFssdDx0L-jlG6toLxpM1AGASs=", "properties": {"@source_uri": "https://tools.usps.com/UspsToolsRestServices/rest/POLocator/findLocations", "@spider": "usps_collection_boxes", "addr:city": "SYRACUSE", "addr:country": "US", "addr:postcode": "13210", "addr:state": "NY", "addr:street_address": "475 IRVING AVE", "amenity": "post_box", "collection_times": "Mo-Fr 16:00", "note": "ON 12/24 AND 12/31, THIS BOX MAY BE COLLECTED AS EARLY AS 12 NOON.", "nsi_id": "unitedstatespostalservice-a77078", "operator": "United States Postal Service", "operator:short": "USPS", "operator:type": "public", "operator:wikidata": "Q668687", "ref": "1321000045"}, "type": "Feature"}
{"geometry": {"coordinates": [-76.12316, 43.043355], "type": "Point"}, "id": "EdVBCU_dJ5LrhQV-1mZraT3yN1A=", "properties": {"@source_uri": "https://tools.usps.com/UspsToolsRestServices/rest/POLocator/findLocations", "@spider": "usps_collection_boxes", "addr:city": "SYRACUSE", "addr:country": "US", "addr:postcode": "13210", "addr:state": "NY", "addr:street_address": "750 E ADAMS ST", "amenity": "post_box", "collection_times": "Mo-Fr 16:00; Sa 10:00", "note": "ON 12/24 AND 12/31, THIS BOX MAY BE COLLECTED AS EARLY AS 12 NOON.", "nsi_id": "unitedstatespostalservice-a77078", "operator": "United States Postal Service", "operator:short": "USPS", "operator:type": "public", "operator:wikidata": "Q668687", "ref": "1321000050"}, "type": "Feature"}
{"geometry": {"coordinates": [-76.12316, 43.043355], "type": "Point"}, "id": "amN0Xo9CRQssREIPGHYfjnqRDGY=", "properties": {"@source_uri": "https://tools.usps.com/UspsToolsRestServices/rest/POLocator/findLocations", "@spider": "usps_collection_boxes", "addr:city": "SYRACUSE", "addr:country": "US", "addr:postcode": "13210", "addr:state": "NY", "addr:street_address": "2121 E GENESEE ST", "amenity": "post_box", "collection_times": "Mo-Sa 10:00", "nsi_id": "unitedstatespostalservice-a77078", "operator": "United States Postal Service", "operator:short": "USPS", "operator:type": "public", "operator:wikidata": "Q668687", "ref": "1321000052"}, "type": "Feature"}
{"geometry": {"coordinates": [-76.1382356, 43.038631], "type": "Point"}, "id": "47ci94C8iZb1cb-siYWlnDw4fRM=", "properties": {"@source_uri": "https://tools.usps.com/UspsToolsRestServices/rest/POLocator/findLocations", "@spider": "usps_collection_boxes", "addr:city": "SYRACUSE", "addr:country": "US", "addr:postcode": "13210", "addr:state": "NY", "addr:street_address": "800 IRVING AVE", "amenity": "post_box", "collection_times": "Mo-Fr 16:00", "note": "ON 12/24 AND 12/31, THIS BOX MAY BE COLLECTED AS EARLY AS 12 NOON.", "nsi_id": "unitedstatespostalservice-a77078", "operator": "United States Postal Service", "operator:short": "USPS", "operator:type": "public", "operator:wikidata": "Q668687", "ref": "1321000058"}, "type": "Feature"}
{"geometry": {"coordinates": [-76.134462, 43.0424], "type": "Point"}, "id": "MfxQFx8XZBh3RY18Bydd_lXlaIw=", "properties": {"@source_uri": "https://tools.usps.com/UspsToolsRestServices/rest/POLocator/findLocations", "@spider": "usps_collection_boxes", "addr:city": "SYRACUSE", "addr:country": "US", "addr:postcode": "13210", "addr:state": "NY", "addr:street_address": "720 UNIVERSITY AVE", "amenity": "post_box", "collection_times": "Mo-Fr 17:00; Sa 13:00", "indoor": "yes", "note": "ON 12/24 AND 12/31, THIS BOX MAY BE COLLECTED AS EARLY AS 12 NOON.", "nsi_id": "unitedstatespostalservice-a77078", "operator": "United States Postal Service", "operator:short": "USPS", "operator:type": "public", "operator:wikidata": "Q668687", "ref": "1321000073"}, "type": "Feature"}
{"geometry": {"coordinates": [-76.1364922, 43.046569], "type": "Point"}, "id": "BPSi0gSJjjNkKogHcrDlm4xs7x4=", "properties": {"@source_uri": "https://tools.usps.com/UspsToolsRestServices/rest/POLocator/findLocations", "@spider": "usps_collection_boxes", "addr:city": "SYRACUSE", "addr:country": "US", "addr:postcode": "13210", "addr:state": "NY", "addr:street_address": "1000 E GENESEE ST", "amenity": "post_box", "collection_times": "Mo-Sa 10:00", "nsi_id": "unitedstatespostalservice-a77078", "operator": "United States Postal Service", "operator:short": "USPS", "operator:type": "public", "operator:wikidata": "Q668687", "ref": "1321000074"}, "type": "Feature"}
{"geometry": {"coordinates": [-76.1311434, 43.048846], "type": "Point"}, "id": "JEdqUVms_dU3-3BxK_Uj4kg7WOE=", "properties": {"@source_uri": "https://tools.usps.com/UspsToolsRestServices/rest/POLocator/findLocations", "@spider": "usps_collection_boxes", "addr:city": "SYRACUSE", "addr:country": "US", "addr:postcode": "13210", "addr:state": "NY", "addr:street_address": "1201 E FAYETTE ST", "amenity": "post_box", "collection_times": "Mo-Sa 10:00", "nsi_id": "unitedstatespostalservice-a77078", "operator": "United States Postal Service", "operator:short": "USPS", "operator:type": "public", "operator:wikidata": "Q668687", "ref": "1321000076"}, "type": "Feature"}
{"geometry": {"coordinates": [-76.139625, 43.0993], "type": "Point"}, "id": "js7_Z_Lj5iJaR1z0tsP_Ve8Q-0o=", "properties": {"@source_uri": "https://tools.usps.com/UspsToolsRestServices/rest/POLocator/findLocations", "@spider": "usps_collection_boxes", "addr:city": "SYRACUSE", "addr:country": "US", "addr:postcode": "13211", "addr:state": "NY", "addr:street_address": "1900 BREWERTON RD", "amenity": "post_box", "collection_times": "Mo-Fr 17:00; Sa 12:30", "note": "ON 12/24 AND 12/31, THIS BOX MAY BE COLLECTED AS EARLY AS 12 NOON.", "nsi_id": "unitedstatespostalservice-a77078", "operator": "United States Postal Service", "operator:short": "USPS", "operator:type": "public", "operator:wikidata": "Q668687", "ref": "1321100002"}, "type": "Feature"}
{"geometry": {"coordinates": [-76.1477063, 43.106389], "type": "Point"}, "id": "7Qjjsh-AXG_yDBhX977ozd9J_fk=", "properties": {"@source_uri": "https://tools.usps.com/UspsToolsRestServices/rest/POLocator/findLocations", "@spider": "usps_collection_boxes", "addr:city": "SYRACUSE", "addr:country": "US", "addr:postcode": "13211", "addr:state": "NY", "addr:street_address": "2803 BREWERTON RD", "amenity": "post_box", "collection_times": "Mo-Sa 09:00", "nsi_id": "unitedstatespostalservice-a77078", "operator": "United States Postal Service", "operator:short": "USPS", "operator:type": "public", "operator:wikidata": "Q668687", "ref": "1321100004"}, "type": "Feature"}
{"geometry": {"coordinates": [-76.113499969, 43.098244007], "type": "Point"}, "id": "9iunLQs5BSI2LyvOuWbBoR5THkA=", "properties": {"@source_uri": "https://tools.usps.com/UspsToolsRestServices/rest/POLocator/findLocations", "@spider": "usps_collection_boxes", "addr:city": "SYRACUSE", "addr:country": "US", "addr:postcode": "13211", "addr:state": "NY", "addr:street_address": "5858 E MOLLOY RD", "amenity": "post_box", "collection_times": "Mo-Fr 10:00; Sa 12:00", "nsi_id": "unitedstatespostalservice-a77078", "operator": "United States Postal Service", "operator:short": "USPS", "operator:type": "public", "operator:wikidata": "Q668687", "ref": "1321100007"}, "type": "Feature"}
{"geometry": {"coordinates": [-76.0955862, 43.095632], "type": "Point"}, "id": "iNQdtKWKXJ31GNK0TTdsU37bYtM=", "properties": {"@source_uri": "https://tools.usps.com/UspsToolsRestServices/rest/POLocator/findLocations", "@spider": "usps_collection_boxes", "addr:city": "SYRACUSE", "addr:country": "US", "addr:postcode": "13211", "addr:state": "NY", "addr:street_address": "6700 THOMPSON RD", "amenity": "post_box", "collection_times": "Mo-Sa 12:00", "nsi_id": "unitedstatespostalservice-a77078", "operator": "United States Postal Service", "operator:short": "USPS", "operator:type": "public", "operator:wikidata": "Q668687", "ref": "1321100009"}, "type": "Feature"}
{"geometry": {"coordinates": [-76.0972183, 43.09421], "type": "Point"}, "id": "6Iy1eMhSNPwm2jzLv58mpSZx_gY=", "properties": {"@source_uri": "https://tools.usps.com/UspsToolsRestServices/rest/POLocator/findLocations", "@spider": "usps_collection_boxes", "addr:city": "SYRACUSE", "addr:country": "US", "addr:postcode": "13211", "addr:state": "NY", "addr:street_address": "6712 BROOKLAWN PKWY", "amenity": "post_box", "collection_times": "Mo-Sa 12:00", "nsi_id": "unitedstatespostalservice-a77078", "operator": "United States Postal Service", "operator:short": "USPS", "operator:type": "public", "operator:wikidata": "Q668687", "ref": "1321100016"}, "type": "Feature"}
{"geometry": {"coordinates": [-76.146761, 43.094764], "type": "Point"}, "id": "NH6uf7fVCVZplxZY2Jua6xzqPiQ=", "properties": {"@source_uri": "https://tools.usps.com/UspsToolsRestServices/rest/POLocator/findLocations", "@spider": "usps_collection_boxes", "addr:city": "SYRACUSE", "addr:country": "US", "addr:postcode": "13211", "addr:state": "NY", "addr:street_address": "1900 BREWERTON RD", "amenity": "post_box", "collection_times": "Mo-Fr 17:00; Sa 12:30", "indoor": "yes", "note": "ON 12/24 AND 12/31, THIS BOX MAY BE COLLECTED AS EARLY AS 12 NOON.", "nsi_id": "unitedstatespostalservice-a77078", "operator": "United States Postal Service", "operator:short": "USPS", "operator:type": "public", "operator:wikidata": "Q668687", "ref": "1321100019"}, "type": "Feature"}
{"geometry": {"coordinates": [-76.0978863, 43.100754], "type": "Point"}, "id": "4azJ_COKblE6mSHfszCPsajyvQg=", "properties": {"@source_uri": "https://tools.usps.com/UspsToolsRestServices/rest/POLocator/findLocations", "@spider": "usps_collection_boxes", "addr:city": "SYRACUSE", "addr:country": "US", "addr:postcode": "13211", "addr:state": "NY", "addr:street_address": "6075 E MOLLOY RD", "amenity": "post_box", "collection_times": "Mo-Fr 15:00; Sa 12:00", "note": "ON 12/24 AND 12/31, THIS BOX MAY BE COLLECTED AS EARLY AS 12 NOON.", "nsi_id": "unitedstatespostalservice-a77078", "operator": "United States Postal Service", "operator:short": "USPS", "operator:type": "public", "operator:wikidata": "Q668687", "ref": "1321100020"}, "type": "Feature"}
{"geometry": {"coordinates": [-76.146732952, 43.094806859], "type": "Point"}, "id": "35hOVVqsZPl9pOeTi-VJhZ88HZo=", "properties": {"@source_uri": "https://tools.usps.com/UspsToolsRestServices/rest/POLocator/findLocations", "@spider": "usps_collection_boxes", "addr:city": "SYRACUSE", "addr:country": "US", "addr:postcode": "13211", "addr:state": "NY", "addr:street_address": "1900 BREWERTON RD", "amenity": "post_box", "collection_times": "Mo-Fr 17:00; Sa 12:30", "indoor": "yes", "note": "ON 12/24 AND 12/31, THIS BOX MAY BE COLLECTED AS EARLY AS 12 NOON.", "nsi_id": "unitedstatespostalservice-a77078", "operator": "United States Postal Service", "operator:short": "USPS", "operator:type": "public", "operator:wikidata": "Q668687", "ref": "1321100021"}, "type": "Feature"}
{"geometry": {"coordinates": [-76.1300217, 43.134578], "type": "Point"}, "id": "pItkEDMfJ-byazcZMQ3w5A2ybLs=", "properties": {"@source_uri": "https://tools.usps.com/UspsToolsRestServices/rest/POLocator/findLocations", "@spider": "usps_collection_boxes", "addr:city": "SYRACUSE", "addr:country": "US", "addr:postcode": "13212", "addr:state": "NY", "addr:street_address": "201 S MAIN ST", "amenity": "post_box", "collection_times": "Mo-Sa 09:30", "nsi_id": "unitedstatespostalservice-a77078", "operator": "United States Postal Service", "operator:short": "USPS", "operator:type": "public", "operator:wikidata": "Q668687", "ref": "1321200002"}, "type": "Feature"}
{"geometry": {"coordinates": [-76.1276613, 43.144046], "type": "Point"}, "id": "4By8OmV7118uJMRBmoQZCmPP9yU=", "properties": {"@source_uri": "https://tools.usps.com/UspsToolsRestServices/rest/POLocator/findLocations", "@spider": "usps_collection_boxes", "addr:city": "SYRACUSE", "addr:country": "US", "addr:postcode": "13212", "addr:state": "NY", "addr:street_address": "709 N MAIN ST", "amenity": "post_box", "collection_times": "Mo-Sa 10:00", "nsi_id": "unitedstatespostalservice-a77078", "operator": "United States Postal Service", "operator:short": "USPS", "operator:type": "public", "operator:wikidata": "Q668687", "ref": "1321200004"}, "type": "Feature"}
{"geometry": {"coordinates": [-76.1284559, 43.132239], "type": "Point"}, "id": "ZGk8fxUaqdlT8jbZx1TtHR19bFc=", "properties": {"@source_uri": "https://tools.usps.com/UspsToolsRestServices/rest/POLocator/findLocations", "@spider": "usps_collection_boxes", "addr:city": "SYRACUSE", "addr:country": "US", "addr:postcode": "13212", "addr:state": "NY", "addr:street_address": "600 S BAY RD", "amenity": "post_box", "collection_times": "Mo-Sa 10:00", "nsi_id": "unitedstatespostalservice-a77078", "operator": "United States Postal Service", "operator:short": "USPS", "operator:type": "public", "operator:wikidata": "Q668687", "ref": "1321200005"}, "type": "Feature"}
{"geometry": {"coordinates": [-76.144818, 43.11567], "type": "Point"}, "id": "3r7K0Dn-TYHP_bbZebDOMq3a-nc=", "properties": {"@source_uri": "https://tools.usps.com/UspsToolsRestServices/rest/POLocator/findLocations", "@spider": "usps_collection_boxes", "addr:city": "SYRACUSE", "addr:country": "US", "addr:postcode": "13212", "addr:state": "NY", "addr:street_address": "3600 BREWERTON RD", "amenity": "post_box", "collection_times": "Mo-Sa 09:30", "nsi_id": "unitedstatespostalservice-a77078", "operator": "United States Postal Service", "operator:short": "USPS", "operator:type": "public", "operator:wikidata": "Q668687", "ref": "1321200007"}, "type": "Feature"}
{"geometry": {"coordinates": [-76.1505694, 43.110021], "type": "Point"}, "id": "Qa5e_dyWlHl2mMlLwmyrIDgXmoA=", "properties": {"@source_uri": "https://tools.usps.com/UspsToolsRestServices/rest/POLocator/findLocations", "@spider": "usps_collection_boxes", "addr:city": "SYRACUSE", "addr:country": "US", "addr:postcode": "13212", "addr:state": "NY", "addr:street_address": "100 NORTHERN CONCOURSE", "amenity": "post_box", "collection_times": "Mo-Fr 10:00; Sa 09:00", "nsi_id": "unitedstatespostalservice-a77078", "operator": "United States Postal Service", "operator:short": "USPS", "operator:type": "public", "operator:wikidata": "Q668687", "ref": "1321200012"}, "type": "Feature"}
{"geometry": {"coordinates": [-76.1283966595, 43.1262872953], "type": "Point"}, "id": "kvgyZKv86cb_DSyJ3BGxDLro9os=", "properties": {"@source_uri": "https://tools.usps.com/UspsToolsRestServices/rest/POLocator/findLocations", "@spider": "usps_collection_boxes", "addr:city": "SYRACUSE", "addr:country": "US", "addr:postcode": "13212", "addr:state": "NY", "addr:street_address": "100 ELWOOD DAVIS RD", "amenity": "post_box", "collection_times": "Mo-Sa 09:00", "nsi_id": "unitedstatespostalservice-a77078", "operator": "United States Postal Service", "operator:short": "USPS", "operator:type": "public", "operator:wikidata": "Q668687", "ref": "1321200013"}, "type": "Feature"}
{"geometry": {"coordinates": [-76.1428645, 43.110627], "type": "Point"}, "id": "z6ghh168AZD1MKP14zpQrrh4uRk=", "properties": {"@source_uri": "https://tools.usps.com/UspsToolsRestServices/rest/POLocator/findLocations", "@spider": "usps_collection_boxes", "addr:city": "SYRACUSE", "addr:country": "US", "addr:postcode": "13212", "addr:state": "NY", "addr:street_address": "321 NORTHERN LIGHTS PLZ", "amenity": "post_box", "collection_times": "Mo-Fr 13:00; Sa 10:00", "note": "ON 12/24 AND 12/31, THIS BOX MAY BE COLLECTED AS EARLY AS 12 NOON.", "nsi_id": "unitedstatespostalservice-a77078", "operator": "United States Postal Service", "operator:short": "USPS", "operator:type": "public", "operator:wikidata": "Q668687", "ref": "1321200014"}, "type": "Feature"}
{"geometry": {"coordinates": [-76.1156224, 43.125743], "type": "Point"}, "id": "NjQa5u1XKB5Q3stf6PHiKioejW4=", "properties": {"@source_uri": "https://tools.usps.com/UspsToolsRestServices/rest/POLocator/findLocations", "@spider": "usps_collection_boxes", "addr:city": "SYRACUSE", "addr:country": "US", "addr:postcode": "13212", "addr:state": "NY", "addr:street_address": "124 KREISCHER RD", "amenity": "post_box", "collection_times": "Mo-Sa 10:00", "nsi_id": "unitedstatespostalservice-a77078", "operator": "United States Postal Service", "operator:short": "USPS", "operator:type": "public", "operator:wikidata": "Q668687", "ref": "1321200016"}, "type": "Feature"}
{"geometry": {"coordinates": [-76.1403599, 43.129841], "type": "Point"}, "id": "7KwbKIrjsR1uW37bEhty6A4CKZM=", "properties": {"@source_uri": "https://tools.usps.com/UspsToolsRestServices/rest/POLocator/findLocations", "@spider": "usps_collection_boxes", "addr:city": "SYRACUSE", "addr:country": "US", "addr:postcode": "13212", "addr:state": "NY", "addr:street_address": "400 SANDRA LN", "amenity": "post_box", "collection_times": "Mo-Sa 13:00", "note": "ON 12/24 AND 12/31, THIS BOX MAY BE COLLECTED AS EARLY AS 12 NOON.", "nsi_id": "unitedstatespostalservice-a77078", "operator": "United States Postal Service", "operator:short": "USPS", "operator:type": "public", "operator:wikidata": "Q668687", "ref": "1321200017"}, "type": "Feature"}
{"geometry": {"coordinates": [-76.1338772, 43.129598], "type": "Point"}, "id": "nrYuGnCEf82VR2t7COt_LYzsNx0=", "properties": {"@source_uri": "https://tools.usps.com/UspsToolsRestServices/rest/POLocator/findLocations", "@spider": "usps_collection_boxes", "addr:city": "SYRACUSE", "addr:country": "US", "addr:postcode": "13212", "addr:state": "NY", "addr:street_address": "428 S MAIN ST", "amenity": "post_box", "collection_times": "Mo-Sa 10:00", "nsi_id": "unitedstatespostalservice-a77078", "operator": "United States Postal Service", "operator:short": "USPS", "operator:type": "public", "operator:wikidata": "Q668687", "ref": "1321200018"}, "type": "Feature"}
{"geometry": {"coordinates": [-76.1458187, 43.118928], "type": "Point"}, "id": "cB0IhxwPeNm3ay3mMYmCMSMUmfM=", "properties": {"@source_uri": "https://tools.usps.com/UspsToolsRestServices/rest/POLocator/findLocations", "@spider": "usps_collection_boxes", "addr:city": "SYRACUSE", "addr:country": "US", "addr:postcode": "13212", "addr:state": "NY", "addr:street_address": "3803 BREWERTON RD", "amenity": "post_box", "collection_times": "Mo-Sa 10:30", "nsi_id": "unitedstatespostalservice-a77078", "operator": "United States Postal Service", "operator:short": "USPS", "operator:type": "public", "operator:wikidata": "Q668687", "ref": "1321200026"}, "type": "Feature"}
{"geometry": {"coordinates": [-76.1704877, 43.135779], "type": "Point"}, "id": "295kU9NdaHGIdTAGinuSgQGIuVk=", "properties": {"@source_uri": "https://tools.usps.com/UspsToolsRestServices/rest/POLocator/findLocations", "@spider": "usps_collection_boxes", "addr:city": "SYRACUSE", "addr:country": "US", "addr:postcode": "13212", "addr:state": "NY", "addr:street_address": "7575 BUCKLEY RD", "amenity": "post_box", "collection_times": "Mo-Sa 11:30", "nsi_id": "unitedstatespostalservice-a77078", "operator": "United States Postal Service", "operator:short": "USPS", "operator:type": "public", "operator:wikidata": "Q668687", "ref": "1321200029"}, "type": "Feature"}
{"geometry": {"coordinates": [-76.1413904, 43.124796], "type": "Point"}, "id": "hSbQonEqWMU3-PwKwPnPCa6v92A=", "properties": {"@source_uri": "https://tools.usps.com/UspsToolsRestServices/rest/POLocator/findLocations", "@spider": "usps_collection_boxes", "addr:city": "SYRACUSE", "addr:country": "US", "addr:postcode": "13212", "addr:state": "NY", "addr:street_address": "628 S MAIN ST", "amenity": "post_box", "collection_times": "Mo-Sa 10:00", "nsi_id": "unitedstatespostalservice-a77078", "operator": "United States Postal Service", "operator:short": "USPS", "operator:type": "public", "operator:wikidata": "Q668687", "ref": "1321200033"}, "type": "Feature"}
{"geometry": {"coordinates": [-76.1252322, 43.143965], "type": "Point"}, "id": "NJ9K54RVQpYyfMPnmLVNM289R7k=", "properties": {"@source_uri": "https://tools.usps.com/UspsToolsRestServices/rest/POLocator/findLocations", "@spider": "usps_collection_boxes", "addr:city": "SYRACUSE", "addr:country": "US", "addr:postcode": "13212", "addr:state": "NY", "addr:street_address": "792 N MAIN ST", "amenity": "post_box", "collection_times": "Mo-Sa 10:00", "nsi_id": "unitedstatespostalservice-a77078", "operator": "United States Postal Service", "operator:short": "USPS", "operator:type": "public", "operator:wikidata": "Q668687", "ref": "1321200037"}, "type": "Feature"}
{"geometry": {"coordinates": [-76.1287399, 43.13928], "type": "Point"}, "id": "-1vfKZGGZiDvm3qBzIoxGi90sbI=", "properties": {"@source_uri": "https://tools.usps.com/UspsToolsRestServices/rest/POLocator/findLocations", "@spider": "usps_collection_boxes", "addr:city": "SYRACUSE", "addr:country": "US", "addr:postcode": "13212", "addr:state": "NY", "addr:street_address": "100 AIRPORT BLVD", "amenity": "post_box", "collection_times": "Mo-Sa 11:00", "nsi_id": "unitedstatespostalservice-a77078", "operator": "United States Postal Service", "operator:short": "USPS", "operator:type": "public", "operator:wikidata": "Q668687", "ref": "1321200038"}, "type": "Feature"}
{"geometry": {"coordinates": [-76.0901396, 43.047476], "type": "Point"}, "id": "mAE1V16Ml0uKe6UyYqBZJ2VGlSM=", "properties": {"@source_uri": "https://tools.usps.com/UspsToolsRestServices/rest/POLocator/findLocations", "@spider": "usps_collection_boxes", "addr:city": "SYRACUSE", "addr:country": "US", "addr:postcode": "13214", "addr:state": "NY", "addr:street_address": "1320 SALT SPRINGS RD", "amenity": "post_box", "collection_times": "Mo-Sa 10:00", "nsi_id": "unitedstatespostalservice-a77078", "operator": "United States Postal Service", "operator:short": "USPS", "operator:type": "public", "operator:wikidata": "Q668687", "ref": "1321400005"}, "type": "Feature"}
{"geometry": {"coordinates": [-76.069299, 43.037447], "type": "Point"}, "id": "mOILxPu6CHynSD24jJdU3me-9SE=", "properties": {"@source_uri": "https://tools.usps.com/UspsToolsRestServices/rest/POLocator/findLocations", "@spider": "usps_collection_boxes", "addr:city": "SYRACUSE", "addr:country": "US", "addr:postcode": "13214", "addr:state": "NY", "addr:street_address": "201 ORVILTON DR", "amenity": "post_box", "collection_times": "Mo-Sa 10:00", "nsi_id": "unitedstatespostalservice-a77078", "operator": "United States Postal Service", "operator:short": "USPS", "operator:type": "public", "operator:wikidata": "Q668687", "ref": "1321400011"}, "type": "Feature"}
{"geometry": {"coordinates": [-76.0604794, 43.050051], "type": "Point"}, "id": "0zpFqoPhjQSpW-hlq0jrQl5DQ_8=", "properties": {"@source_uri": "https://tools.usps.com/UspsToolsRestServices/rest/POLocator/findLocations", "@spider": "usps_collection_boxes", "addr:city": "SYRACUSE", "addr:country": "US", "addr:postcode": "13214", "addr:state": "NY", "addr:street_address": "5795 WIDEWATERS PKWY", "amenity": "post_box", "collection_times": "Mo-Fr 09:00", "nsi_id": "unitedstatespostalservice-a77078", "operator": "United States Postal Service", "operator:short": "USPS", "operator:type": "public", "operator:wikidata": "Q668687", "ref": "1321400014"}, "type": "Feature"}
{"geometry": {"coordinates": [-76.0882979, 43.051401], "type": "Point"}, "id": "OtPhwvMzFW0kiKO66Jhxdv9RrTM=", "properties": {"@source_uri": "https://tools.usps.com/UspsToolsRestServices/rest/POLocator/findLocations", "@spider": "usps_collection_boxes", "addr:city": "SYRACUSE", "addr:country": "US", "addr:postcode": "13214", "addr:state": "NY", "addr:street_address": "76 CATON DR", "amenity": "post_box", "collection_times": "Mo-Sa 13:00", "note": "ON 12/24 AND 12/31, THIS BOX MAY BE COLLECTED AS EARLY AS 12 NOON.", "nsi_id": "unitedstatespostalservice-a77078", "operator": "United States Postal Service", "operator:short": "USPS", "operator:type": "public", "operator:wikidata": "Q668687", "ref": "1321400016"}, "type": "Feature"}
{"geometry": {"coordinates": [-76.0799412, 43.052573], "type": "Point"}, "id": "rLFdtpD_vVVWXso2g_iSHWcOVQ4=", "properties": {"@source_uri": "https://tools.usps.com/UspsToolsRestServices/rest/POLocator/findLocations", "@spider": "usps_collection_boxes", "addr:city": "SYRACUSE", "addr:country": "US", "addr:postcode": "13214", "addr:state": "NY", "addr:street_address": "101 ALPINE DR", "amenity": "post_box", "collection_times": "Mo-Sa 10:00", "nsi_id": "unitedstatespostalservice-a77078", "operator": "United States Postal Service", "operator:short": "USPS", "operator:type": "public", "operator:wikidata": "Q668687", "ref": "1321400018"}, "type": "Feature"}
{"geometry": {"coordinates": [-76.0618547, 43.046997], "type": "Point"}, "id": "np36ViIO-ZEe83wJl_lvuRf0ig4=", "properties": {"@source_uri": "https://tools.usps.com/UspsToolsRestServices/rest/POLocator/findLocations", "@spider": "usps_collection_boxes", "addr:city": "SYRACUSE", "addr:country": "US", "addr:postcode": "13214", "addr:state": "NY", "addr:street_address": "5784 WIDEWATERS PKWY", "amenity": "post_box", "collection_times": "Mo-Fr 09:00", "nsi_id": "unitedstatespostalservice-a77078", "operator": "United States Postal Service", "operator:short": "USPS", "operator:type": "public", "operator:wikidata": "Q668687", "ref": "1321400025"}, "type": "Feature"}
{"geometry": {"coordinates": [-76.0605911, 43.049278], "type": "Point"}, "id": "HfB6xcKmbVkQtKhqwfq-c-GDDB0=", "properties": {"@source_uri": "https://tools.usps.com/UspsToolsRestServices/rest/POLocator/findLocations", "@spider": "usps_collection_boxes", "addr:city": "SYRACUSE", "addr:country": "US", "addr:postcode": "13214", "addr:state": "NY", "addr:street_address": "5793 WIDEWATERS PKWY", "amenity": "post_box", "collection_times": "Mo-Fr 18:30", "note": "ON 12/24 AND 12/31, THIS BOX MAY BE COLLECTED AS EARLY AS 12 NOON.", "nsi_id": "unitedstatespostalservice-a77078", "operator": "United States Postal Service", "operator:short": "USPS", "operator:type": "public", "operator:wikidata": "Q668687", "ref": "1321400027"}, "type": "Feature"}
{"geometry": {"coordinates": [-76.0633183, 43.048245], "type": "Point"}, "id": "vRjHjV33DrZHr2rGLOVoa_e7rZM=", "properties": {"@source_uri": "https://tools.usps.com/UspsToolsRestServices/rest/POLocator/findLocations", "@spider": "usps_collection_boxes", "addr:city": "SYRACUSE", "addr:country": "US", "addr:postcode": "13214", "addr:state": "NY", "addr:street_address": "5789 WIDEWATERS PKWY", "amenity": "post_box", "collection_times": "Mo-Fr 09:00", "nsi_id": "unitedstatespostalservice-a77078", "operator": "United States Postal Service", "operator:short": "USPS", "operator:type": "public", "operator:wikidata": "Q668687", "ref": "1321400029"}, "type": "Feature"}
{"geometry": {"coordinates": [-76.065814, 43.042772], "type": "Point"}, "id": "eaBNZZSDo_DSd0ai5x4A2UVPoBA=", "properties": {"@source_uri": "https://tools.usps.com/UspsToolsRestServices/rest/POLocator/findLocations", "@spider": "usps_collection_boxes", "addr:city": "SYRACUSE", "addr:country": "US", "addr:postcode": "13214", "addr:state": "NY", "addr:street_address": "6581 KINNE RD", "amenity": "post_box", "collection_times": "Mo-Fr 16:45; Sa 15:00", "indoor": "yes", "note": "ON 12/24 AND 12/31, THIS BOX MAY BE COLLECTED AS EARLY AS 12 NOON.", "nsi_id": "unitedstatespostalservice-a77078", "operator": "United States Postal Service", "operator:short": "USPS", "operator:type": "public", "operator:wikidata": "Q668687", "ref": "1321400030"}, "type": "Feature"}
{"geometry": {"coordinates": [-76.0584624, 43.048201], "type": "Point"}, "id": "bVoaQqQ7IHv9wbKufB9CskgYXYQ=", "properties": {"@source_uri": "https://tools.usps.com/UspsToolsRestServices/rest/POLocator/findLocations", "@spider": "usps_collection_boxes", "addr:city": "SYRACUSE", "addr:country": "US", "addr:postcode": "13214", "addr:state": "NY", "addr:street_address": "5790 WIDEWATERS PKWY", "amenity": "post_box", "collection_times": "Mo-Fr 09:00", "nsi_id": "unitedstatespostalservice-a77078", "operator": "United States Postal Service", "operator:short": "USPS", "operator:type": "public", "operator:wikidata": "Q668687", "ref": "1321400032"}, "type": "Feature"}
{"geometry": {"coordinates": [-76.0591904, 43.047089], "type": "Point"}, "id": "jP03-mX71DzKE1fz1rAcQ414Vl4=", "properties": {"@source_uri": "https://tools.usps.com/UspsToolsRestServices/rest/POLocator/findLocations", "@spider": "usps_collection_boxes", "addr:city": "SYRACUSE", "addr:country": "US", "addr:postcode": "13214", "addr:state": "NY", "addr:street_address": "5788 WIDEWATERS PKWY", "amenity": "post_box", "collection_times": "Mo-Fr 09:00", "nsi_id": "unitedstatespostalservice-a77078", "operator": "United States Postal Service", "operator:short": "USPS", "operator:type": "public", "operator:wikidata": "Q668687", "ref": "1321400034"}, "type": "Feature"}
{"geometry": {"coordinates": [-76.07028, 43.04078], "type": "Point"}, "id": "OChm6k_73GRKigJnJTjSMpiZMPw=", "properties": {"@source_uri": "https://tools.usps.com/UspsToolsRestServices/rest/POLocator/findLocations", "@spider": "usps_collection_boxes", "addr:city": "SYRACUSE", "addr:country": "US", "addr:postcode": "13214", "addr:state": "NY", "addr:street_address": "108 WELLINGTON RD", "amenity": "post_box", "collection_times": "Mo-Sa 13:00", "note": "ON 12/24 AND 12/31, THIS BOX MAY BE COLLECTED AS EARLY AS 12 NOON.", "nsi_id": "unitedstatespostalservice-a77078", "operator": "United States Postal Service", "operator:short": "USPS", "operator:type": "public", "operator:wikidata": "Q668687", "ref": "1321400035"}, "type": "Feature"}
{"geometry": {"coordinates": [-76.066054464, 43.042782432], "type": "Point"}, "id": "s5k5o0QVVy0Dydgs9PLfgXYNHR4=", "properties": {"@source_uri": "https://tools.usps.com/UspsToolsRestServices/rest/POLocator/findLocations", "@spider": "usps_collection_boxes", "addr:city": "SYRACUSE", "addr:country": "US", "addr:postcode": "13214", "addr:state": "NY", "addr:street_address": "6581 KINNE RD", "amenity": "post_box", "collection_times": "Mo-Fr 17:30; Sa 13:00", "indoor": "yes", "note": "ON 12/24 AND 12/31, THIS BOX MAY BE COLLECTED AS EARLY AS 12 NOON.", "nsi_id": "unitedstatespostalservice-a77078", "operator": "United States Postal Service", "operator:short": "USPS", "operator:type": "public", "operator:wikidata": "Q668687", "ref": "1321400043"}, "type": "Feature"}
{"geometry": {"coordinates": [-76.075316, 43.0428], "type": "Point"}, "id": "zCM0i52rLhVx0fNbaBJKaWF2cWc=", "properties": {"@source_uri": "https://tools.usps.com/UspsToolsRestServices/rest/POLocator/findLocations", "@spider": "usps_collection_boxes", "addr:city": "SYRACUSE", "addr:country": "US", "addr:postcode": "13214", "addr:state": "NY", "addr:street_address": "6581 KINNE RD", "amenity": "post_box", "collection_times": "Mo-Fr 17:00; Sa 13:00", "note": "ON 12/24 AND 12/31, THIS BOX MAY BE COLLECTED AS EARLY AS 12 NOON.", "nsi_id": "unitedstatespostalservice-a77078", "operator": "United States Postal Service", "operator:short": "USPS", "operator:type": "public", "operator:wikidata": "Q668687", "ref": "1321400044"}, "type": "Feature"}
{"geometry": {"coordinates": [-76.176191, 43.005513], "type": "Point"}, "id": "4q1aMnyOlDUpxnJ809xOVPZXd58=", "properties": {"@source_uri": "https://tools.usps.com/UspsToolsRestServices/rest/POLocator/findLocations", "@spider": "usps_collection_boxes", "addr:city": "SYRACUSE", "addr:country": "US", "addr:postcode": "13215", "addr:state": "NY", "addr:street_address": "4912 W SENECA TPKE", "amenity": "post_box", "collection_times": "Mo-Fr 17:00; Sa 14:00", "note": "ON 12/24 AND 12/31, THIS BOX MAY BE COLLECTED AS EARLY AS 12 NOON.", "nsi_id": "unitedstatespostalservice-a77078", "operator": "United States Postal Service", "operator:short": "USPS", "operator:type": "public", "operator:wikidata": "Q668687", "ref": "1321500001"}, "type": "Feature"}
{"geometry": {"coordinates": [-76.1959257, 43.024909], "type": "Point"}, "id": "hvcWSnq3PgsaPmZfKAQFgICBZ-A=", "properties": {"@source_uri": "https://tools.usps.com/UspsToolsRestServices/rest/POLocator/findLocations", "@spider": "usps_collection_boxes", "addr:city": "SYRACUSE", "addr:country": "US", "addr:postcode": "13215", "addr:state": "NY", "addr:street_address": "310 WINKWORTH PKWY", "amenity": "post_box", "collection_times": "Mo-Sa 10:00", "nsi_id": "unitedstatespostalservice-a77078", "operator": "United States Postal Service", "operator:short": "USPS", "operator:type": "public", "operator:wikidata": "Q668687", "ref": "1321500003"}, "type": "Feature"}
{"geometry": {"coordinates": [-76.1672804, 43.007632], "type": "Point"}, "id": "JcUcI2DwGT4qrfCAsWOuG0xaJpo=", "properties": {"@source_uri": "https://tools.usps.com/UspsToolsRestServices/rest/POLocator/findLocations", "@spider": "usps_collection_boxes", "addr:city": "SYRACUSE", "addr:country": "US", "addr:postcode": "13215", "addr:state": "NY", "addr:street_address": "4900 BROAD RD", "amenity": "post_box", "collection_times": "Mo-Sa 10:00", "nsi_id": "unitedstatespostalservice-a77078", "operator": "United States Postal Service", "operator:short": "USPS", "operator:type": "public", "operator:wikidata": "Q668687", "ref": "1321500004"}, "type": "Feature"}
{"geometry": {"coordinates": [-76.1953694, 43.020962], "type": "Point"}, "id": "yBLv07RgX_gtJY6VFzAkEWU7DFY=", "properties": {"@source_uri": "https://tools.usps.com/UspsToolsRestServices/rest/POLocator/findLocations", "@spider": "usps_collection_boxes", "addr:city": "SYRACUSE", "addr:country": "US", "addr:postcode": "13215", "addr:state": "NY", "addr:street_address": "17 PONDEROSA DR", "amenity": "post_box", "collection_times": "Mo-Sa 10:00", "nsi_id": "unitedstatespostalservice-a77078", "operator": "United States Postal Service", "operator:short": "USPS", "operator:type": "public", "operator:wikidata": "Q668687", "ref": "1321500005"}, "type": "Feature"}
{"geometry": {"coordinates": [-76.1959236, 43.011017], "type": "Point"}, "id": "KNf-0LuiYVVC8jpP5FK-Ge6BIsU=", "properties": {"@source_uri": "https://tools.usps.com/UspsToolsRestServices/rest/POLocator/findLocations", "@spider": "usps_collection_boxes", "addr:city": "SYRACUSE", "addr:country": "US", "addr:postcode": "13215", "addr:state": "NY", "addr:street_address": "4950 ONONDAGA RD", "amenity": "post_box", "collection_times": "Mo-Sa 10:00", "nsi_id": "unitedstatespostalservice-a77078", "operator": "United States Postal Service", "operator:short": "USPS", "operator:type": "public", "operator:wikidata": "Q668687", "ref": "1321500007"}, "type": "Feature"}
{"geometry": {"coordinates": [-76.184202, 43.016556], "type": "Point"}, "id": "s2qnxYR4FjgdKG6DMyNwGBOcV4Y=", "properties": {"@source_uri": "https://tools.usps.com/UspsToolsRestServices/rest/POLocator/findLocations", "@spider": "usps_collection_boxes", "addr:city": "SYRACUSE", "addr:country": "US", "addr:postcode": "13215", "addr:state": "NY", "addr:street_address": "5084 VELASKO RD", "amenity": "post_box", "collection_times": "Mo-Sa 10:00", "nsi_id": "unitedstatespostalservice-a77078", "operator": "United States Postal Service", "operator:short": "USPS", "operator:type": "public", "operator:wikidata": "Q668687", "ref": "1321500009"}, "type": "Feature"}
{"geometry": {"coordinates": [-76.176217, 43.005542], "type": "Point"}, "id": "gtAg_OvG039U_AF0yY_L9TQVRyQ=", "properties": {"@source_uri": "https://tools.usps.com/UspsToolsRestServices/rest/POLocator/findLocations", "@spider": "usps_collection_boxes", "addr:city": "SYRACUSE", "addr:country": "US", "addr:postcode": "13215", "addr:state": "NY", "addr:street_address": "4912 W SENECA TPKE", "amenity": "post_box", "collection_times": "Mo-Fr 16:15; Sa 14:00", "indoor": "yes", "note": "ON 12/24 AND 12/31, THIS BOX MAY BE COLLECTED AS EARLY AS 12 NOON.", "nsi_id": "unitedstatespostalservice-a77078", "operator": "United States Postal Service", "operator:short": "USPS", "operator:type": "public", "operator:wikidata": "Q668687", "ref": "1321500010"}, "type": "Feature"}
{"geometry": {"coordinates": [-76.176692187, 43.005529502], "type": "Point"}, "id": "3pwQ7YSAVDD5-X4UE89oOocU7dI=", "properties": {"@source_uri": "https://tools.usps.com/UspsToolsRestServices/rest/POLocator/findLocations", "@spider": "usps_collection_boxes", "addr:city": "SYRACUSE", "addr:country": "US", "addr:postcode": "13215", "addr:state": "NY", "addr:street_address": "4912 W SENECA TPKE", "amenity": "post_box", "collection_times": "Mo-Fr 17:00; Sa 13:00", "indoor": "yes", "note": "ON 12/24 AND 12/31, THIS BOX MAY BE COLLECTED AS EARLY AS 12 NOON.", "nsi_id": "unitedstatespostalservice-a77078", "operator": "United States Postal Service", "operator:short": "USPS", "operator:type": "public", "operator:wikidata": "Q668687", "ref": "1321500011"}, "type": "Feature"}
{"geometry": {"coordinates": [-76.12177, 43.05158], "type": "Point"}, "id": "0n9Ny2S4v1ZBRJZnkeF5PKTn1vw=", "properties": {"@source_uri": "https://tools.usps.com/UspsToolsRestServices/rest/POLocator/findLocations", "@spider": "usps_collection_boxes", "addr:city": "SYRACUSE", "addr:country": "US", "addr:postcode": "13217", "addr:state": "NY", "addr:street_address": "226 TEALL AVE", "amenity": "post_box", "collection_times": "Mo-Fr 17:30; Sa 13:00", "note": "ON 12/24 AND 12/31, THIS BOX MAY BE COLLECTED AS EARLY AS 12 NOON.", "nsi_id": "unitedstatespostalservice-a77078", "operator": "United States Postal Service", "operator:short": "USPS", "operator:type": "public", "operator:wikidata": "Q668687", "ref": "1321700003"}, "type": "Feature"}
{"geometry": {"coordinates": [-76.1218543, 43.051975], "type": "Point"}, "id": "vQ8qdUpexjUcTmPVvAdBXOItZyo=", "properties": {"@source_uri": "https://tools.usps.com/UspsToolsRestServices/rest/POLocator/findLocations", "@spider": "usps_collection_boxes", "addr:city": "SYRACUSE", "addr:country": "US", "addr:postcode": "13217", "addr:state": "NY", "addr:street_address": "226 TEALL AVE", "amenity": "post_box", "collection_times": "Mo-Fr 17:00; Sa 15:00", "indoor": "yes", "note": "ON 12/24 AND 12/31, THIS BOX MAY BE COLLECTED AS EARLY AS 12 NOON.", "nsi_id": "unitedstatespostalservice-a77078", "operator": "United States Postal Service", "operator:short": "USPS", "operator:type": "public", "operator:wikidata": "Q668687", "ref": "1321700008"}, "type": "Feature"}
{"geometry": {"coordinates": [-76.121795582, 43.052372675], "type": "Point"}, "id": "fr1-wQVK3Z65jAG_tk9aKjpcBnI=", "properties": {"@source_uri": "https://tools.usps.com/UspsToolsRestServices/rest/POLocator/findLocations", "@spider": "usps_collection_boxes", "addr:city": "SYRACUSE", "addr:country": "US", "addr:postcode": "13217", "addr:state": "NY", "addr:street_address": "226 TEALL AVE", "amenity": "post_box", "collection_times": "Mo-Fr 17:30; Sa 13:00", "indoor": "yes", "note": "ON 12/24 AND 12/31, THIS BOX MAY BE COLLECTED AS EARLY AS 12 NOON.", "nsi_id": "unitedstatespostalservice-a77078", "operator": "United States Postal Service", "operator:short": "USPS", "operator:type": "public", "operator:wikidata": "Q668687", "ref": "1321700011"}, "type": "Feature"}
{"geometry": {"coordinates": [-76.160372021, 43.057840476], "type": "Point"}, "id": "fekNKzEWdklnhbk6sEWU5wmx6oI=", "properties": {"@source_uri": "https://tools.usps.com/UspsToolsRestServices/rest/POLocator/findLocations", "@spider": "usps_collection_boxes", "addr:city": "SYRACUSE", "addr:country": "US", "addr:postcode": "13218", "addr:state": "NY", "addr:street_address": "401 W DIVISION ST", "amenity": "post_box", "collection_times": "Mo-Fr 17:00; Sa 13:00", "indoor": "yes", "note": "ON 12/24 AND 12/31, THIS BOX MAY BE COLLECTED AS EARLY AS 12 NOON.", "nsi_id": "unitedstatespostalservice-a77078", "operator": "United States Postal Service", "operator:short": "USPS", "operator:type": "public", "operator:wikidata": "Q668687", "ref": "1321800002"}, "type": "Feature"}
{"geometry": {"coordinates": [-76.1977289153, 43.0477548498], "type": "Point"}, "id": "qrhHhCosGZExIO4Cn6vAUstFKGU=", "properties": {"@source_uri": "https://tools.usps.com/UspsToolsRestServices/rest/POLocator/findLocations", "@spider": "usps_collection_boxes", "addr:city": "SYRACUSE", "addr:country": "US", "addr:postcode": "13219", "addr:state": "NY", "addr:street_address": "2105 W GENESEE ST", "amenity": "post_box", "collection_times": "Mo-Fr 10:00; Sa 09:30", "nsi_id": "unitedstatespostalservice-a77078", "operator": "United States Postal Service", "operator:short": "USPS", "operator:type": "public", "operator:wikidata": "Q668687", "ref": "1321900002"}, "type": "Feature"}
{"geometry": {"coordinates": [-76.1988366, 43.047973], "type": "Point"}, "id": "f-h2RNC4dV_NdD31gOAg8rTmWT8=", "properties": {"@source_uri": "https://tools.usps.com/UspsToolsRestServices/rest/POLocator/findLocations", "@spider": "usps_collection_boxes", "addr:city": "SYRACUSE", "addr:country": "US", "addr:postcode": "13219", "addr:state": "NY", "addr:street_address": "2200 W GENESEE ST", "amenity": "post_box", "collection_times": "Mo-Sa 09:30", "nsi_id": "unitedstatespostalservice-a77078", "operator": "United States Postal Service", "operator:short": "USPS", "operator:type": "public", "operator:wikidata": "Q668687", "ref": "1321900003"}, "type": "Feature"}
{"geometry": {"coordinates": [-76.2113047, 43.041442], "type": "Point"}, "id": "yvag3-eZ2Iz7s8JDCC-8d-O3G2o=", "properties": {"@source_uri": "https://tools.usps.com/UspsToolsRestServices/rest/POLocator/findLocations", "@spider": "usps_collection_boxes", "addr:city": "SYRACUSE", "addr:country": "US", "addr:postcode": "13219", "addr:state": "NY", "addr:street_address": "311 CHERRY RD", "amenity": "post_box", "collection_times": "Mo-Sa 09:30", "nsi_id": "unitedstatespostalservice-a77078", "operator": "United States Postal Service", "operator:short": "USPS", "operator:type": "public", "operator:wikidata": "Q668687", "ref": "1321900004"}, "type": "Feature"}
{"geometry": {"coordinates": [-76.2184413, 43.044313], "type": "Point"}, "id": "AXmDQ9EPDwt3eFBGT43sIpZ7oR8=", "properties": {"@source_uri": "https://tools.usps.com/UspsToolsRestServices/rest/POLocator/findLocations", "@spider": "usps_collection_boxes", "addr:city": "SYRACUSE", "addr:country": "US", "addr:postcode": "13219", "addr:state": "NY", "addr:street_address": "201 BRONSON RD", "amenity": "post_box", "collection_times": "Mo-Sa 09:30", "nsi_id": "unitedstatespostalservice-a77078", "operator": "United States Postal Service", "operator:short": "USPS", "operator:type": "public", "operator:wikidata": "Q668687", "ref": "1321900005"}, "type": "Feature"}
{"geometry": {"coordinates": [-76.2162533, 43.038823], "type": "Point"}, "id": "wopszwosK0N_NnW7l-SKOnlyP34=", "properties": {"@source_uri": "https://tools.usps.com/UspsToolsRestServices/rest/POLocator/findLocations", "@spider": "usps_collection_boxes", "addr:city": "SYRACUSE", "addr:country": "US", "addr:postcode": "13219", "addr:state": "NY", "addr:street_address": "420 MEADOW RD", "amenity": "post_box", "collection_times": "Mo-Sa 10:30", "nsi_id": "unitedstatespostalservice-a77078", "operator": "United States Postal Service", "operator:short": "USPS", "operator:type": "public", "operator:wikidata": "Q668687", "ref": "1321900006"}, "type": "Feature"}
{"geometry": {"coordinates": [-76.2018943, 43.039338], "type": "Point"}, "id": "OlIzgByLTFuIfFaXAyhHUY68NCY=", "properties": {"@source_uri": "https://tools.usps.com/UspsToolsRestServices/rest/POLocator/findLocations", "@spider": "usps_collection_boxes", "addr:city": "SYRACUSE", "addr:country": "US", "addr:postcode": "13219", "addr:state": "NY", "addr:street_address": "429 FAY RD", "amenity": "post_box", "collection_times": "Mo-Sa 11:00", "nsi_id": "unitedstatespostalservice-a77078", "operator": "United States Postal Service", "operator:short": "USPS", "operator:type": "public", "operator:wikidata": "Q668687", "ref": "1321900008"}, "type": "Feature"}
{"geometry": {"coordinates": [-76.2276465, 43.046738], "type": "Point"}, "id": "aBCSGXzUNuIhZVkoLV0phBaYbJU=", "properties": {"@source_uri": "https://tools.usps.com/UspsToolsRestServices/rest/POLocator/findLocations", "@spider": "usps_collection_boxes", "addr:city": "SYRACUSE", "addr:country": "US", "addr:postcode": "13219", "addr:state": "NY", "addr:street_address": "3325 W GENESEE ST", "amenity": "post_box", "collection_times": "Mo-Sa 12:00", "nsi_id": "unitedstatespostalservice-a77078", "operator": "United States Postal Service", "operator:short": "USPS", "operator:type": "public", "operator:wikidata": "Q668687", "ref": "1321900010"}, "type": "Feature"}
{"geometry": {"coordinates": [-76.2325578, 43.048702], "type": "Point"}, "id": "Vqkk7J5TYme6-_RwgSmq1UL5X1k=", "properties": {"@source_uri": "https://tools.usps.com/UspsToolsRestServices/rest/POLocator/findLocations", "@spider": "usps_collection_boxes", "addr:city": "SYRACUSE", "addr:country": "US", "addr:postcode": "13219", "addr:state": "NY", "addr:street_address": "3508 W GENESEE ST", "amenity": "post_box", "collection_times": "Mo-Sa 10:00", "nsi_id": "unitedstatespostalservice-a77078", "operator": "United States Postal Service", "operator:short": "USPS", "operator:type": "public", "operator:wikidata": "Q668687", "ref": "1321900011"}, "type": "Feature"}
{"geometry": {"coordinates": [-76.2445955, 43.045224], "type": "Point"}, "id": "BmBEMzsO_fmv4svW0Tx6GlaRePo=", "properties": {"@source_uri": "https://tools.usps.com/UspsToolsRestServices/rest/POLocator/findLocations", "@spider": "usps_collection_boxes", "addr:city": "SYRACUSE", "addr:country": "US", "addr:postcode": "13219", "addr:state": "NY", "addr:street_address": "4111 W GENESEE ST", "amenity": "post_box", "collection_times": "Mo-Sa 10:00", "nsi_id": "unitedstatespostalservice-a77078", "operator": "United States Postal Service", "operator:short": "USPS", "operator:type": "public", "operator:wikidata": "Q668687", "ref": "1321900014"}, "type": "Feature"}
{"geometry": {"coordinates": [-76.2454447, 43.04557], "type": "Point"}, "id": "phC1Pe4RVjpW2yObQKsdgzLe0os=", "properties": {"@source_uri": "https://tools.usps.com/UspsToolsRestServices/rest/POLocator/findLocations", "@spider": "usps_collection_boxes", "addr:city": "SYRACUSE", "addr:country": "US", "addr:postcode": "13219", "addr:state": "NY", "addr:street_address": "4312 W GENESEE ST", "amenity": "post_box", "collection_times": "Mo-Sa 09:00", "nsi_id": "unitedstatespostalservice-a77078", "operator": "United States Postal Service", "operator:short": "USPS", "operator:type": "public", "operator:wikidata": "Q668687", "ref": "1321900015"}, "type": "Feature"}
{"geometry": {"coordinates": [-76.1919034, 43.034816], "type": "Point"}, "id": "mOzq7SOZZ3Oe9gKus6Rjx1_d7_w=", "properties": {"@source_uri": "https://tools.usps.com/UspsToolsRestServices/rest/POLocator/findLocations", "@spider": "usps_collection_boxes", "addr:city": "SYRACUSE", "addr:country": "US", "addr:postcode": "13219", "addr:state": "NY", "addr:street_address": "4713 ONONDAGA BLVD", "amenity": "post_box", "collection_times": "Mo-Sa 09:00", "nsi_id": "unitedstatespostalservice-a77078", "operator": "United States Postal Service", "operator:short": "USPS", "operator:type": "public", "operator:wikidata": "Q668687", "ref": "1321900017"}, "type": "Feature"}
{"geometry": {"coordinates": [-76.1919608, 43.031532], "type": "Point"}, "id": "z5I_ZkTkLBumqHPIi0XdIafWRVE=", "properties": {"@source_uri": "https://tools.usps.com/UspsToolsRestServices/rest/POLocator/findLocations", "@spider": "usps_collection_boxes", "addr:city": "SYRACUSE", "addr:country": "US", "addr:postcode": "13219", "addr:state": "NY", "addr:street_address": "4722 ONONDAGA BLVD", "amenity": "post_box", "collection_times": "Mo-Sa 10:00", "nsi_id": "unitedstatespostalservice-a77078", "operator": "United States Postal Service", "operator:short": "USPS", "operator:type": "public", "operator:wikidata": "Q668687", "ref": "1321900019"}, "type": "Feature"}
{"geometry": {"coordinates": [-76.2010861, 43.047399], "type": "Point"}, "id": "O2zqqevFuA2EGlgkheWkIXBwZps=", "properties": {"@source_uri": "https://tools.usps.com/UspsToolsRestServices/rest/POLocator/findLocations", "@spider": "usps_collection_boxes", "addr:city": "SYRACUSE", "addr:country": "US", "addr:postcode": "13219", "addr:state": "NY", "addr:street_address": "2318 W GENESEE ST", "amenity": "post_box", "collection_times": "Mo-Sa 09:30", "nsi_id": "unitedstatespostalservice-a77078", "operator": "United States Postal Service", "operator:short": "USPS", "operator:type": "public", "operator:wikidata": "Q668687", "ref": "1321900021"}, "type": "Feature"}
{"geometry": {"coordinates": [-76.2486965, 43.045119], "type": "Point"}, "id": "Op2RfkGNYxo_tS0l3K2MZViyIZM=", "properties": {"@source_uri": "https://tools.usps.com/UspsToolsRestServices/rest/POLocator/findLocations", "@spider": "usps_collection_boxes", "addr:city": "SYRACUSE", "addr:country": "US", "addr:postcode": "13219", "addr:state": "NY", "addr:street_address": "4600 W GENESEE ST", "amenity": "post_box", "collection_times": "Mo-Sa 10:00", "nsi_id": "unitedstatespostalservice-a77078", "operator": "United States Postal Service", "operator:short": "USPS", "operator:type": "public", "operator:wikidata": "Q668687", "ref": "1321900024"}, "type": "Feature"}
{"geometry": {"coordinates": [-76.129644, 43.12323], "type": "Point"}, "id": "1-dd_2hMnN5xjHUtelltkgQqxYo=", "properties": {"@source_uri": "https://tools.usps.com/UspsToolsRestServices/rest/POLocator/findLocations", "@spider": "usps_collection_boxes", "addr:city": "SYRACUSE", "addr:country": "US", "addr:postcode": "13220", "addr:state": "NY", "addr:street_address": "5640 E TAFT RD", "amenity": "post_box", "collection_times": "Mo-Sa 18:30", "note": "ON 12/24 AND 12/31, THIS BOX MAY BE COLLECTED AS EARLY AS 12 NOON.", "nsi_id": "unitedstatespostalservice-a77078", "operator": "United States Postal Service", "operator:short": "USPS", "operator:type": "public", "operator:wikidata": "Q668687", "ref": "1322000003"}, "type": "Feature"}
{"geometry": {"coordinates": [-76.129564, 43.12326], "type": "Point"}, "id": "UwdthdCWGmMgsjWp6XAlCz7-4JQ=", "properties": {"@source_uri": "https://tools.usps.com/UspsToolsRestServices/rest/POLocator/findLocations", "@spider": "usps_collection_boxes", "addr:city": "SYRACUSE", "addr:country": "US", "addr:postcode": "13220", "addr:state": "NY", "addr:street_address": "5640 E TAFT RD", "amenity": "post_box", "collection_times": "Mo-Sa 19:00", "indoor": "yes", "note": "ON 12/24 AND 12/31, THIS BOX MAY BE COLLECTED AS EARLY AS 12 NOON.", "nsi_id": "unitedstatespostalservice-a77078", "operator": "United States Postal Service", "operator:short": "USPS", "operator:type": "public", "operator:wikidata": "Q668687", "ref": "1322000006"}, "type": "Feature"}
{"geometry": {"coordinates": [-76.129564, 43.12326], "type": "Point"}, "id": "JH3CmVHdwdsPXTBCYiaQRO14jpg=", "properties": {"@source_uri": "https://tools.usps.com/UspsToolsRestServices/rest/POLocator/findLocations", "@spider": "usps_collection_boxes", "addr:city": "SYRACUSE", "addr:country": "US", "addr:postcode": "13220", "addr:state": "NY", "addr:street_address": "5640 E TAFT RD", "amenity": "post_box", "collection_times": "Mo-Sa 19:00", "name": "USPS COLLECTION BOX - APC", "note": "ON 12/24 AND 12/31, THIS BOX MAY BE COLLECTED AS EARLY AS 12 NOON.", "nsi_id": "unitedstatespostalservice-a77078", "operator": "United States Postal Service", "operator:short": "USPS", "operator:type": "public", "operator:wikidata": "Q668687", "ref": "1322000011"}, "type": "Feature"}
{"geometry": {"coordinates": [-76.131027, 43.121353], "type": "Point"}, "id": "xYNXDeq6qDuNK788bGCvcB4ZM48=", "properties": {"@source_uri": "https://tools.usps.com/UspsToolsRestServices/rest/POLocator/findLocations", "@spider": "usps_collection_boxes", "addr:city": "SYRACUSE", "addr:country": "US", "addr:postcode": "13220", "addr:state": "NY", "addr:street_address": "5640 E TAFT RD", "amenity": "post_box", "collection_times": "Mo-Sa 19:00", "indoor": "yes", "note": "ON 12/24 AND 12/31, THIS BOX MAY BE COLLECTED AS EARLY AS 12 NOON.", "nsi_id": "unitedstatespostalservice-a77078", "operator": "United States Postal Service", "operator:short": "USPS", "operator:type": "public", "operator:wikidata": "Q668687", "ref": "1322000012"}, "type": "Feature"}
{"geometry": {"coordinates": [-76.131379315, 43.123161538], "type": "Point"}, "id": "eh5FQQEzX8pEfaLnwVYo0oZ_6Zg=", "properties": {"@source_uri": "https://tools.usps.com/UspsToolsRestServices/rest/POLocator/findLocations", "@spider": "usps_collection_boxes", "addr:city": "SYRACUSE", "addr:country": "US", "addr:postcode": "13220", "addr:state": "NY", "addr:street_address": "5640 E TAFT RD", "amenity": "post_box", "collection_times": "Mo-Fr 19:00; Sa 14:00", "indoor": "yes", "note": "ON 12/24 AND 12/31, THIS BOX MAY BE COLLECTED AS EARLY AS 12 NOON.", "nsi_id": "unitedstatespostalservice-a77078", "operator": "United States Postal Service", "operator:short": "USPS", "operator:type": "public", "operator:wikidata": "Q668687", "ref": "1322000013"}, "type": "Feature"}
{"geometry": {"coordinates": [-76.1100861, 43.021814], "type": "Point"}, "id": "Xfd0xSicbHmWuyt26Lkgxjnpzw4=", "properties": {"@source_uri": "https://tools.usps.com/UspsToolsRestServices/rest/POLocator/findLocations", "@spider": "usps_collection_boxes", "addr:city": "SYRACUSE", "addr:country": "US", "addr:postcode": "13224", "addr:state": "NY", "addr:street_address": "620 NOTTINGHAM RD", "amenity": "post_box", "collection_times": "Mo-Sa 10:00", "nsi_id": "unitedstatespostalservice-a77078", "operator": "United States Postal Service", "operator:short": "USPS", "operator:type": "public", "operator:wikidata": "Q668687", "ref": "1322400003"}, "type": "Feature"}
{"geometry": {"coordinates": [-76.1073904, 43.043383], "type": "Point"}, "id": "XFQ00Qx8eACYBgMwbQqELRuII2U=", "properties": {"@source_uri": "https://tools.usps.com/UspsToolsRestServices/rest/POLocator/findLocations", "@spider": "usps_collection_boxes", "addr:city": "SYRACUSE", "addr:country": "US", "addr:postcode": "13224", "addr:state": "NY", "addr:street_address": "2727 E GENESEE ST", "amenity": "post_box", "collection_times": "Mo-Sa 10:00", "nsi_id": "unitedstatespostalservice-a77078", "operator": "United States Postal Service", "operator:short": "USPS", "operator:type": "public", "operator:wikidata": "Q668687", "ref": "1322400005"}, "type": "Feature"}
{"geometry": {"coordinates": [-76.1089264, 43.038363], "type": "Point"}, "id": "oYe-2lRYHj-SqsRRnDjzY8G6x1g=", "properties": {"@source_uri": "https://tools.usps.com/UspsToolsRestServices/rest/POLocator/findLocations", "@spider": "usps_collection_boxes", "addr:city": "SYRACUSE", "addr:country": "US", "addr:postcode": "13224", "addr:state": "NY", "addr:street_address": "312 CRAWFORD AVE", "amenity": "post_box", "collection_times": "Mo-Sa 10:00", "nsi_id": "unitedstatespostalservice-a77078", "operator": "United States Postal Service", "operator:short": "USPS", "operator:type": "public", "operator:wikidata": "Q668687", "ref": "1322400006"}, "type": "Feature"}
{"geometry": {"coordinates": [-76.1094057, 43.042395], "type": "Point"}, "id": "_GhfVg8a8LWYyy_wx2Ij2wKteV4=", "properties": {"@source_uri": "https://tools.usps.com/UspsToolsRestServices/rest/POLocator/findLocations", "@spider": "usps_collection_boxes", "addr:city": "SYRACUSE", "addr:country": "US", "addr:postcode": "13224", "addr:state": "NY", "addr:street_address": "102 SCOTT AVE", "amenity": "post_box", "collection_times": "Mo-Sa 10:00", "nsi_id": "unitedstatespostalservice-a77078", "operator": "United States Postal Service", "operator:short": "USPS", "operator:type": "public", "operator:wikidata": "Q668687", "ref": "1322400007"}, "type": "Feature"}
{"geometry": {"coordinates": [-76.1069027, 43.034873], "type": "Point"}, "id": "S0MCL5U8IqrMstDRFrClSnHdrYg=", "properties": {"@source_uri": "https://tools.usps.com/UspsToolsRestServices/rest/POLocator/findLocations", "@spider": "usps_collection_boxes", "addr:city": "SYRACUSE", "addr:country": "US", "addr:postcode": "13224", "addr:state": "NY", "addr:street_address": "410 SCOTT AVE", "amenity": "post_box", "collection_times": "Mo-Sa 10:00", "nsi_id": "unitedstatespostalservice-a77078", "operator": "United States Postal Service", "operator:short": "USPS", "operator:type": "public", "operator:wikidata": "Q668687", "ref": "1322400010"}, "type": "Feature"}
{"geometry": {"coordinates": [-76.103182, 43.046252], "type": "Point"}, "id": "PoR5-cS8rU_IYpS0VAdiKCvNE54=", "properties": {"@source_uri": "https://tools.usps.com/UspsToolsRestServices/rest/POLocator/findLocations", "@spider": "usps_collection_boxes", "addr:city": "SYRACUSE", "addr:country": "US", "addr:postcode": "13224", "addr:state": "NY", "addr:street_address": "818 SALT SPRINGS RD", "amenity": "post_box", "collection_times": "Mo-Sa 10:00", "nsi_id": "unitedstatespostalservice-a77078", "operator": "United States Postal Service", "operator:short": "USPS", "operator:type": "public", "operator:wikidata": "Q668687", "ref": "1322400012"}, "type": "Feature"}
{"geometry": {"coordinates": [-76.1035372, 43.048897], "type": "Point"}, "id": "nHQlmO6eIgzYv_GGj9IMeYktngw=", "properties": {"@source_uri": "https://tools.usps.com/UspsToolsRestServices/rest/POLocator/findLocations", "@spider": "usps_collection_boxes", "addr:city": "SYRACUSE", "addr:country": "US", "addr:postcode": "13224", "addr:state": "NY", "addr:street_address": "100 FAYETTE BLVD", "amenity": "post_box", "collection_times": "Mo-Sa 10:00", "nsi_id": "unitedstatespostalservice-a77078", "operator": "United States Postal Service", "operator:short": "USPS", "operator:type": "public", "operator:wikidata": "Q668687", "ref": "1322400014"}, "type": "Feature"}
{"geometry": {"coordinates": [-76.134488211, 43.042412788], "type": "Point"}, "id": "2UQD3gn9jacSthC49115hbn5TX4=", "properties": {"@source_uri": "https://tools.usps.com/UspsToolsRestServices/rest/POLocator/findLocations", "@spider": "usps_collection_boxes", "addr:city": "SYRACUSE", "addr:country": "US", "addr:postcode": "13235", "addr:state": "NY", "addr:street_address": "720 UNIVERSITY AVE", "amenity": "post_box", "collection_times": "Mo-Fr 17:00; Sa 13:00", "indoor": "yes", "note": "ON 12/24 AND 12/31, THIS BOX MAY BE COLLECTED AS EARLY AS 12 NOON.", "nsi_id": "unitedstatespostalservice-a77078", "operator": "United States Postal Service", "operator:short": "USPS", "operator:type": "public", "operator:wikidata": "Q668687", "ref": "1323500001"}, "type": "Feature"}
{"geometry": {"coordinates": [-76.154052036, 43.05012698], "type": "Point"}, "id": "dsvkI4VXBbmBzZI5IYkIQSIpOnQ=", "properties": {"@source_uri": "https://tools.usps.com/UspsToolsRestServices/rest/POLocator/findLocations", "@spider": "usps_collection_boxes", "addr:city": "SYRACUSE", "addr:country": "US", "addr:postcode": "13261", "addr:state": "NY", "addr:street_address": "100 S CLINTON ST", "amenity": "post_box", "collection_times": "Mo-Fr 16:30", "indoor": "yes", "note": "ON 12/24 AND 12/31, THIS BOX MAY BE COLLECTED AS EARLY AS 12 NOON.", "nsi_id": "unitedstatespostalservice-a77078", "operator": "United States Postal Service", "operator:short": "USPS", "operator:type": "public", "operator:wikidata": "Q668687", "ref": "1326100001"}, "type": "Feature"}
