{"dataset_attributes": {"@spider": "usps_collection_boxes", "spider:collection_time": "2024-01-01T08:25:44.650502"}, "geometry": {"coordinates": [-75.224702, 43.416507], "type": "Point"}, "id": "Lbe_CzbiH_fLnGjCUcjjIBX0S9c=", "properties": {"@spider": "usps_collection_boxes", "addr:city": "ALDER CREEK", "addr:country": "US", "addr:full": "11440 STATE ROUTE 12", "addr:postcode": "13301", "addr:state": "NY", "amenity": "post_box", "brand": "United States Postal Service", "brand:wikidata": "Q668687", "collection_times": "Mo-Fr 13:00; Sa 11:15", "name": "USPS COLLECTION BOX - BLUE BOX", "note": "ON 12/24 AND 12/31, THIS BOX MAY BE COLLECTED AS EARLY AS 12 NOON.", "nsi_id": "unitedstatespostalservice-a77078", "operator": "United States Postal Service", "operator:short": "USPS", "operator:type": "public", "operator:wikidata": "Q668687", "ref": "1330100001"}, "type": "Feature"}
{"dataset_attributes": {"@spider": "usps_collection_boxes", "spider:collection_time": "2024-01-01T08:25:44.650502"}, "geometry": {"coordinates": [-75.224714, 43.416441], "type": "Point"}, "id": "ze08AaoWl_noIkRVZeCLsdavm5U=", "properties": {"@spider": "usps_collection_boxes", "addr:city": "ALDER CREEK", "addr:country": "US", "addr:full": "11440 STATE ROUTE 12", "addr:postcode": "13301", "addr:state": "NY", "amenity": "post_box", "brand": "United States Postal Service", "brand:wikidata": "Q668687", "collection_times": "Mo-Fr 13:00; Sa 11:15", "name": "USPS COLLECTION BOX - PO LOBBY", "note": "ON 12/24 AND 12/31, THIS BOX MAY BE COLLECTED AS EARLY AS 12 NOON.", "nsi_id": "unitedstatespostalservice-a77078", "operator": "United States Postal Service", "operator:short": "USPS", "operator:type": "public", "operator:wikidata": "Q668687", "ref": "1330100002"}, "type": "Feature"}
{"dataset_attributes": {"@spider": "usps_collection_boxes", "spider:collection_time": "2024-01-01T08:25:44.650502"}, "geometry": {"coordinates": [-75.22430817, 43.415584323], "type": "Point"}, "id": "euPPCLL4KaMADumTRcCdLazz51g=", "properties": {"@spider": "usps_collection_boxes", "addr:city": "ALDER CREEK", "addr:country": "US", "addr:full": "11440 STATE ROUTE 12", "addr:postcode": "13301", "addr:state": "NY", "amenity": "post_box", "brand": "United States Postal Service", "brand:wikidata": "Q668687", "collection_times": "Mo-Fr 13:00; Sa 11:15", "name": "USPS COLLECTION BOX - PO LOBBY", "note": "ON 12/24 AND 12/31, THIS BOX MAY BE COLLECTED AS EARLY AS 12 NOON.", "nsi_id": "unitedstatespostalservice-a77078", "operator": "United States Postal Service", "operator:short": "USPS", "operator:type": "public", "operator:wikidata": "Q668687", "ref": "1330100003"}, "type": "Feature"}
{"dataset_attributes": {"@spider": "usps_collection_boxes", "spider:collection_time": "2024-01-01T08:25:44.650502"}, "geometry": {"coordinates": [-76.005664, 43.509914], "type": "Point"}, "id": "eBi3quI9b-7L8GuYdiNwn92IyEg=", "properties": {"@spider": "usps_collection_boxes", "addr:city": "ALTMAR", "addr:country": "US", "addr:full": "1964 MEXICO ST", "addr:postcode": "13302", "addr:state": "NY", "amenity": "post_box", "brand": "United States Postal Service", "brand:wikidata": "Q668687", "collection_times": "Mo-Fr 15:00; Sa 11:30", "name": "USPS COLLECTION BOX - BLUE BOX", "note": "ON 12/24 AND 12/31, THIS BOX MAY BE COLLECTED AS EARLY AS 12 NOON.", "nsi_id": "unitedstatespostalservice-a77078", "operator": "United States Postal Service", "operator:short": "USPS", "operator:type": "public", "operator:wikidata": "Q668687", "ref": "1330200001"}, "type": "Feature"}
{"dataset_attributes": {"@spider": "usps_collection_boxes", "spider:collection_time": "2024-01-01T08:25:44.650502"}, "geometry": {"coordinates": [-76.005733, 43.509941], "type": "Point"}, "id": "-v5pE4XEup_7BetPwyi9cZ9oQDs=", "properties": {"@spider": "usps_collection_boxes", "addr:city": "ALTMAR", "addr:country": "US", "addr:full": "1964 MEXICO ST", "addr:postcode": "13302", "addr:state": "NY", "amenity": "post_box", "brand": "United States Postal Service", "brand:wikidata": "Q668687", "collection_times": "Mo-Fr 15:00; Sa 11:30", "name": "USPS COLLECTION BOX - PO LOBBY", "note": "ON 12/24 AND 12/31, THIS BOX MAY BE COLLECTED AS EARLY AS 12 NOON.", "nsi_id": "unitedstatespostalservice-a77078", "operator": "United States Postal Service", "operator:short": "USPS", "operator:type": "public", "operator:wikidata": "Q668687", "ref": "1330200002"}, "type": "Feature"}
{"dataset_attributes": {"@spider": "usps_collection_boxes", "spider:collection_time": "2024-01-01T08:25:44.650502"}, "geometry": {"coordinates": [-76.005379865, 43.5099674], "type": "Point"}, "id": "7AnqKMR6fKF3BacsTUQcPiLHywQ=", "properties": {"@spider": "usps_collection_boxes", "addr:city": "ALTMAR", "addr:country": "US", "addr:full": "1964 MEXICO ST", "addr:postcode": "13302", "addr:state": "NY", "amenity": "post_box", "brand": "United States Postal Service", "brand:wikidata": "Q668687", "collection_times": "Mo-Fr 15:00; Sa 12:00", "name": "USPS COLLECTION BOX - PO LOBBY", "note": "ON 12/24 AND 12/31, THIS BOX MAY BE COLLECTED AS EARLY AS 12 NOON.", "nsi_id": "unitedstatespostalservice-a77078", "operator": "United States Postal Service", "operator:short": "USPS", "operator:type": "public", "operator:wikidata": "Q668687", "ref": "1330200004"}, "type": "Feature"}
{"dataset_attributes": {"@spider": "usps_collection_boxes", "spider:collection_time": "2024-01-01T08:25:44.650502"}, "geometry": {"coordinates": [-75.4794395, 43.418394], "type": "Point"}, "id": "WlSckp6iYaaJlhu-uViLm2Jmvn4=", "properties": {"@spider": "usps_collection_boxes", "addr:city": "AVA", "addr:country": "US", "addr:full": "11510 STATE ROUTE 26", "addr:postcode": "13303", "addr:state": "NY", "amenity": "post_box", "brand": "United States Postal Service", "brand:wikidata": "Q668687", "collection_times": "Mo-Fr 12:00; Sa 11:00", "name": "USPS COLLECTION BOX - BLUE BOX", "nsi_id": "unitedstatespostalservice-a77078", "operator": "United States Postal Service", "operator:short": "USPS", "operator:type": "public", "operator:wikidata": "Q668687", "ref": "1330300001"}, "type": "Feature"}
{"dataset_attributes": {"@spider": "usps_collection_boxes", "spider:collection_time": "2024-01-01T08:25:44.650502"}, "geometry": {"coordinates": [-75.479596, 43.418662], "type": "Point"}, "id": "IveqggBAaCXgLr6kRih70QuTwlM=", "properties": {"@spider": "usps_collection_boxes", "addr:city": "AVA", "addr:country": "US", "addr:full": "11510 STATE ROUTE 26", "addr:postcode": "13303", "addr:state": "NY", "amenity": "post_box", "brand": "United States Postal Service", "brand:wikidata": "Q668687", "collection_times": "Mo-Fr 12:00; Sa 11:00", "name": "USPS COLLECTION BOX - PO LOBBY", "nsi_id": "unitedstatespostalservice-a77078", "operator": "United States Postal Service", "operator:short": "USPS", "operator:type": "public", "operator:wikidata": "Q668687", "ref": "1330300002"}, "type": "Feature"}
{"dataset_attributes": {"@spider": "usps_collection_boxes", "spider:collection_time": "2024-01-01T08:25:44.650502"}, "geometry": {"coordinates": [-75.479559079, 43.418665237], "type": "Point"}, "id": "srQzPDr9JZnS7fnrjX4gkeYZlJA=", "properties": {"@spider": "usps_collection_boxes", "addr:city": "AVA", "addr:country": "US", "addr:full": "11510 STATE ROUTE 26", "addr:postcode": "13303", "addr:state": "NY", "amenity": "post_box", "brand": "United States Postal Service", "brand:wikidata": "Q668687", "collection_times": "Mo-Fr 12:00; Sa 11:00", "name": "USPS COLLECTION BOX - PO LOBBY", "nsi_id": "unitedstatespostalservice-a77078", "operator": "United States Postal Service", "operator:short": "USPS", "operator:type": "public", "operator:wikidata": "Q668687", "ref": "1330300003"}, "type": "Feature"}
{"dataset_attributes": {"@spider": "usps_collection_boxes", "spider:collection_time": "2024-01-01T08:25:44.650502"}, "geometry": {"coordinates": [-75.1845079, 43.26055], "type": "Point"}, "id": "A0ZMoIYX6RzRu5CffThR_CBXaY0=", "properties": {"@spider": "usps_collection_boxes", "addr:city": "BARNEVELD", "addr:country": "US", "addr:full": "8196 STATE ROUTE 12", "addr:postcode": "13304", "addr:state": "NY", "amenity": "post_box", "brand": "United States Postal Service", "brand:wikidata": "Q668687", "collection_times": "Mo-Sa 12:00", "name": "USPS COLLECTION BOX - BLUE BOX", "nsi_id": "unitedstatespostalservice-a77078", "operator": "United States Postal Service", "operator:short": "USPS", "operator:type": "public", "operator:wikidata": "Q668687", "ref": "1330400001"}, "type": "Feature"}
{"dataset_attributes": {"@spider": "usps_collection_boxes", "spider:collection_time": "2024-01-01T08:25:44.650502"}, "geometry": {"coordinates": [-75.18913, 43.277196], "type": "Point"}, "id": "bEj8G-172UvDe8hPnwL0tsrE4ek=", "properties": {"@spider": "usps_collection_boxes", "addr:city": "BARNEVELD", "addr:country": "US", "addr:full": "117 REMSEN RD", "addr:postcode": "13304", "addr:state": "NY", "amenity": "post_box", "brand": "United States Postal Service", "brand:wikidata": "Q668687", "collection_times": "Mo-Fr 16:30; Sa 10:30", "name": "USPS COLLECTION BOX - BLUE BOX", "note": "ON 12/24 AND 12/31, THIS BOX MAY BE COLLECTED AS EARLY AS 12 NOON.", "nsi_id": "unitedstatespostalservice-a77078", "operator": "United States Postal Service", "operator:short": "USPS", "operator:type": "public", "operator:wikidata": "Q668687", "ref": "1330400002"}, "type": "Feature"}
{"dataset_attributes": {"@spider": "usps_collection_boxes", "spider:collection_time": "2024-01-01T08:25:44.650502"}, "geometry": {"coordinates": [-75.1885818, 43.277545], "type": "Point"}, "id": "O0rH5ldY3Gk1lHkdpxvaic9JtHo=", "properties": {"@spider": "usps_collection_boxes", "addr:city": "BARNEVELD", "addr:country": "US", "addr:full": "117 REMSEN RD", "addr:postcode": "13304", "addr:state": "NY", "amenity": "post_box", "brand": "United States Postal Service", "brand:wikidata": "Q668687", "collection_times": "Mo-Fr 17:00; Sa 11:00", "name": "USPS COLLECTION BOX - PO LOBBY", "note": "ON 12/24 AND 12/31, THIS BOX MAY BE COLLECTED AS EARLY AS 12 NOON.", "nsi_id": "unitedstatespostalservice-a77078", "operator": "United States Postal Service", "operator:short": "USPS", "operator:type": "public", "operator:wikidata": "Q668687", "ref": "1330400003"}, "type": "Feature"}
{"dataset_attributes": {"@spider": "usps_collection_boxes", "spider:collection_time": "2024-01-01T08:25:44.650502"}, "geometry": {"coordinates": [-75.189176625, 43.277424988], "type": "Point"}, "id": "49KhvIycfn5eNgrxp969pb0Ov6k=", "properties": {"@spider": "usps_collection_boxes", "addr:city": "BARNEVELD", "addr:country": "US", "addr:full": "117 REMSEN RD", "addr:postcode": "13304", "addr:state": "NY", "amenity": "post_box", "brand": "United States Postal Service", "brand:wikidata": "Q668687", "collection_times": "Mo-Fr 17:00; Sa 11:00", "name": "USPS COLLECTION BOX - PO LOBBY", "note": "ON 12/24 AND 12/31, THIS BOX MAY BE COLLECTED AS EARLY AS 12 NOON.", "nsi_id": "unitedstatespostalservice-a77078", "operator": "United States Postal Service", "operator:short": "USPS", "operator:type": "public", "operator:wikidata": "Q668687", "ref": "1330400005"}, "type": "Feature"}
{"dataset_attributes": {"@spider": "usps_collection_boxes", "spider:collection_time": "2024-01-01T08:25:44.650502"}, "geometry": {"coordinates": [-75.430249, 43.885836], "type": "Point"}, "id": "q0E2Fi5547VGNY13L99V-Vg2YzE=", "properties": {"@spider": "usps_collection_boxes", "addr:city": "BEAVER FALLS", "addr:country": "US", "addr:full": "9572 MAIN ST", "addr:postcode": "13305", "addr:state": "NY", "amenity": "post_box", "brand": "United States Postal Service", "brand:wikidata": "Q668687", "collection_times": "Mo-Fr 13:00; Sa 11:30", "name": "USPS COLLECTION BOX - BLUE BOX", "note": "ON 12/24 AND 12/31, THIS BOX MAY BE COLLECTED AS EARLY AS 12 NOON.", "nsi_id": "unitedstatespostalservice-a77078", "operator": "United States Postal Service", "operator:short": "USPS", "operator:type": "public", "operator:wikidata": "Q668687", "ref": "1330500001"}, "type": "Feature"}
{"dataset_attributes": {"@spider": "usps_collection_boxes", "spider:collection_time": "2024-01-01T08:25:44.650502"}, "geometry": {"coordinates": [-75.430249, 43.885808], "type": "Point"}, "id": "vmD7nFwS0nFB1dg1wDAD3TUHJTE=", "properties": {"@spider": "usps_collection_boxes", "addr:city": "BEAVER FALLS", "addr:country": "US", "addr:full": "9572 MAIN ST", "addr:postcode": "13305", "addr:state": "NY", "amenity": "post_box", "brand": "United States Postal Service", "brand:wikidata": "Q668687", "collection_times": "Mo-Fr 13:00; Sa 11:30", "name": "USPS COLLECTION BOX - PO LOBBY", "note": "ON 12/24 AND 12/31, THIS BOX MAY BE COLLECTED AS EARLY AS 12 NOON.", "nsi_id": "unitedstatespostalservice-a77078", "operator": "United States Postal Service", "operator:short": "USPS", "operator:type": "public", "operator:wikidata": "Q668687", "ref": "1330500002"}, "type": "Feature"}
{"dataset_attributes": {"@spider": "usps_collection_boxes", "spider:collection_time": "2024-01-01T08:25:44.650502"}, "geometry": {"coordinates": [-75.430105471, 43.885803162], "type": "Point"}, "id": "IMk5oa69Ez0XU1ULHfQMkl_j5aU=", "properties": {"@spider": "usps_collection_boxes", "addr:city": "BEAVER FALLS", "addr:country": "US", "addr:full": "9572 MAIN ST", "addr:postcode": "13305", "addr:state": "NY", "amenity": "post_box", "brand": "United States Postal Service", "brand:wikidata": "Q668687", "collection_times": "Mo-Fr 13:00; Sa 11:15", "name": "USPS COLLECTION BOX - PO LOBBY", "note": "ON 12/24 AND 12/31, THIS BOX MAY BE COLLECTED AS EARLY AS 12 NOON.", "nsi_id": "unitedstatespostalservice-a77078", "operator": "United States Postal Service", "operator:short": "USPS", "operator:type": "public", "operator:wikidata": "Q668687", "ref": "1330500003"}, "type": "Feature"}
{"dataset_attributes": {"@spider": "usps_collection_boxes", "spider:collection_time": "2024-01-01T08:25:44.650502"}, "geometry": {"coordinates": [-75.694293, 43.272366], "type": "Point"}, "id": "G7ttpYSNeIDbHpGbUCT8to5HAkM=", "properties": {"@spider": "usps_collection_boxes", "addr:city": "BLOSSVALE", "addr:country": "US", "addr:full": "8461 MILL POND WAY", "addr:postcode": "13308", "addr:state": "NY", "amenity": "post_box", "brand": "United States Postal Service", "brand:wikidata": "Q668687", "collection_times": "Mo-Fr 14:15; Sa 11:00", "name": "USPS COLLECTION BOX - BLUE BOX", "note": "ON 12/24 AND 12/31, THIS BOX MAY BE COLLECTED AS EARLY AS 12 NOON.", "nsi_id": "unitedstatespostalservice-a77078", "operator": "United States Postal Service", "operator:short": "USPS", "operator:type": "public", "operator:wikidata": "Q668687", "ref": "1330800001"}, "type": "Feature"}
{"dataset_attributes": {"@spider": "usps_collection_boxes", "spider:collection_time": "2024-01-01T08:25:44.650502"}, "geometry": {"coordinates": [-75.694255, 43.272366], "type": "Point"}, "id": "V2TbCLUEM8qWX-rlw8fx-L3mdeg=", "properties": {"@spider": "usps_collection_boxes", "addr:city": "BLOSSVALE", "addr:country": "US", "addr:full": "8461 MILL POND WAY", "addr:postcode": "13308", "addr:state": "NY", "amenity": "post_box", "brand": "United States Postal Service", "brand:wikidata": "Q668687", "collection_times": "Mo-Fr 14:15; Sa 11:00", "name": "USPS COLLECTION BOX - PO LOBBY", "note": "ON 12/24 AND 12/31, THIS BOX MAY BE COLLECTED AS EARLY AS 12 NOON.", "nsi_id": "unitedstatespostalservice-a77078", "operator": "United States Postal Service", "operator:short": "USPS", "operator:type": "public", "operator:wikidata": "Q668687", "ref": "1330800003"}, "type": "Feature"}
{"dataset_attributes": {"@spider": "usps_collection_boxes", "spider:collection_time": "2024-01-01T08:25:44.650502"}, "geometry": {"coordinates": [-75.694472933, 43.271929706], "type": "Point"}, "id": "FGoIT_7x1XZrOVl8b3Aggzmqu_4=", "properties": {"@spider": "usps_collection_boxes", "addr:city": "BLOSSVALE", "addr:country": "US", "addr:full": "8461 MILL POND WAY", "addr:postcode": "13308", "addr:state": "NY", "amenity": "post_box", "brand": "United States Postal Service", "brand:wikidata": "Q668687", "collection_times": "Mo-Fr 14:15; Sa 11:30", "name": "USPS COLLECTION BOX - PO LOBBY", "note": "ON 12/24 AND 12/31, THIS BOX MAY BE COLLECTED AS EARLY AS 12 NOON.", "nsi_id": "unitedstatespostalservice-a77078", "operator": "United States Postal Service", "operator:short": "USPS", "operator:type": "public", "operator:wikidata": "Q668687", "ref": "1330800004"}, "type": "Feature"}
{"dataset_attributes": {"@spider": "usps_collection_boxes", "spider:collection_time": "2024-01-01T08:25:44.650502"}, "geometry": {"coordinates": [-75.334787, 43.484041], "type": "Point"}, "id": "i2n5KuDDN1suW4Blb18ScrFxGic=", "properties": {"@spider": "usps_collection_boxes", "addr:city": "BOONVILLE", "addr:country": "US", "addr:full": "100 MAIN ST", "addr:postcode": "13309", "addr:state": "NY", "amenity": "post_box", "brand": "United States Postal Service", "brand:wikidata": "Q668687", "collection_times": "Mo-Fr 17:00; Sa 15:00", "name": "USPS COLLECTION BOX - BLUE BOX", "note": "ON 12/24 AND 12/31, THIS BOX MAY BE COLLECTED AS EARLY AS 12 NOON.", "nsi_id": "unitedstatespostalservice-a77078", "operator": "United States Postal Service", "operator:short": "USPS", "operator:type": "public", "operator:wikidata": "Q668687", "ref": "1330900001"}, "type": "Feature"}
{"dataset_attributes": {"@spider": "usps_collection_boxes", "spider:collection_time": "2024-01-01T08:25:44.650502"}, "geometry": {"coordinates": [-75.334787, 43.484041], "type": "Point"}, "id": "QYVFMMjkKht5QaGeS898tfeUtgc=", "properties": {"@spider": "usps_collection_boxes", "addr:city": "BOONVILLE", "addr:country": "US", "addr:full": "100 MAIN ST", "addr:postcode": "13309", "addr:state": "NY", "amenity": "post_box", "brand": "United States Postal Service", "brand:wikidata": "Q668687", "collection_times": "Mo-Fr 17:00; Sa 15:00", "name": "USPS COLLECTION BOX - BLUE BOX", "note": "ON 12/24 AND 12/31, THIS BOX MAY BE COLLECTED AS EARLY AS 12 NOON.", "nsi_id": "unitedstatespostalservice-a77078", "operator": "United States Postal Service", "operator:short": "USPS", "operator:type": "public", "operator:wikidata": "Q668687", "ref": "1330900003"}, "type": "Feature"}
{"dataset_attributes": {"@spider": "usps_collection_boxes", "spider:collection_time": "2024-01-01T08:25:44.650502"}, "geometry": {"coordinates": [-75.3355894, 43.481572], "type": "Point"}, "id": "QQOGLMh0j_KoonbNZ734XhYA0lA=", "properties": {"@spider": "usps_collection_boxes", "addr:city": "BOONVILLE", "addr:country": "US", "addr:full": "436 POST ST", "addr:postcode": "13309", "addr:state": "NY", "amenity": "post_box", "brand": "United States Postal Service", "brand:wikidata": "Q668687", "collection_times": "Mo-Sa 09:30", "name": "USPS COLLECTION BOX - BLUE BOX", "nsi_id": "unitedstatespostalservice-a77078", "operator": "United States Postal Service", "operator:short": "USPS", "operator:type": "public", "operator:wikidata": "Q668687", "ref": "1330900005"}, "type": "Feature"}
{"dataset_attributes": {"@spider": "usps_collection_boxes", "spider:collection_time": "2024-01-01T08:25:44.650502"}, "geometry": {"coordinates": [-75.3422447, 43.483415], "type": "Point"}, "id": "BKH3FOorgsmUopOiRlxTQ3yojiU=", "properties": {"@spider": "usps_collection_boxes", "addr:city": "BOONVILLE", "addr:country": "US", "addr:full": "159 SCHUYLER ST", "addr:postcode": "13309", "addr:state": "NY", "amenity": "post_box", "brand": "United States Postal Service", "brand:wikidata": "Q668687", "collection_times": "Mo-Sa 11:00", "name": "USPS COLLECTION BOX - BLUE BOX", "nsi_id": "unitedstatespostalservice-a77078", "operator": "United States Postal Service", "operator:short": "USPS", "operator:type": "public", "operator:wikidata": "Q668687", "ref": "1330900007"}, "type": "Feature"}
{"dataset_attributes": {"@spider": "usps_collection_boxes", "spider:collection_time": "2024-01-01T08:25:44.650502"}, "geometry": {"coordinates": [-75.3190042, 43.476185], "type": "Point"}, "id": "xF4cCQtfJQK21IdxMG0ta9D1cz4=", "properties": {"@spider": "usps_collection_boxes", "addr:city": "BOONVILLE", "addr:country": "US", "addr:full": "1 HEADWATERS PLZ", "addr:postcode": "13309", "addr:state": "NY", "amenity": "post_box", "brand": "United States Postal Service", "brand:wikidata": "Q668687", "collection_times": "Mo-Sa 10:00", "name": "USPS COLLECTION BOX - BLUE BOX", "nsi_id": "unitedstatespostalservice-a77078", "operator": "United States Postal Service", "operator:short": "USPS", "operator:type": "public", "operator:wikidata": "Q668687", "ref": "1330900012"}, "type": "Feature"}
{"dataset_attributes": {"@spider": "usps_collection_boxes", "spider:collection_time": "2024-01-01T08:25:44.650502"}, "geometry": {"coordinates": [-75.334787, 43.484041], "type": "Point"}, "id": "3hiBvmeRMc-LqZbYKNNq5LPAlYA=", "properties": {"@spider": "usps_collection_boxes", "addr:city": "BOONVILLE", "addr:country": "US", "addr:full": "100 MAIN ST", "addr:postcode": "13309", "addr:state": "NY", "amenity": "post_box", "brand": "United States Postal Service", "brand:wikidata": "Q668687", "collection_times": "Mo-Fr 17:00; Sa 15:00", "name": "USPS COLLECTION BOX - PO LOBBY", "note": "ON 12/24 AND 12/31, THIS BOX MAY BE COLLECTED AS EARLY AS 12 NOON.", "nsi_id": "unitedstatespostalservice-a77078", "operator": "United States Postal Service", "operator:short": "USPS", "operator:type": "public", "operator:wikidata": "Q668687", "ref": "1330900019"}, "type": "Feature"}
{"dataset_attributes": {"@spider": "usps_collection_boxes", "spider:collection_time": "2024-01-01T08:25:44.650502"}, "geometry": {"coordinates": [-75.334701263, 43.484026513], "type": "Point"}, "id": "skL2IbOY9xlTdIZAPmriyDdr-tA=", "properties": {"@spider": "usps_collection_boxes", "addr:city": "BOONVILLE", "addr:country": "US", "addr:full": "100 MAIN ST", "addr:postcode": "13309", "addr:state": "NY", "amenity": "post_box", "brand": "United States Postal Service", "brand:wikidata": "Q668687", "collection_times": "Mo-Fr 17:00; Sa 12:00", "name": "USPS COLLECTION BOX - PO LOBBY", "note": "ON 12/24 AND 12/31, THIS BOX MAY BE COLLECTED AS EARLY AS 12 NOON.", "nsi_id": "unitedstatespostalservice-a77078", "operator": "United States Postal Service", "operator:short": "USPS", "operator:type": "public", "operator:wikidata": "Q668687", "ref": "1330900023"}, "type": "Feature"}
{"dataset_attributes": {"@spider": "usps_collection_boxes", "spider:collection_time": "2024-01-01T08:25:44.650502"}, "geometry": {"coordinates": [-75.251602, 42.878249], "type": "Point"}, "id": "f1unexQWr1CWcCCQPl48DME0nbM=", "properties": {"@spider": "usps_collection_boxes", "addr:city": "BRIDGEWATER", "addr:country": "US", "addr:full": "320 STATE ROUTE 8", "addr:postcode": "13313", "addr:state": "NY", "amenity": "post_box", "brand": "United States Postal Service", "brand:wikidata": "Q668687", "collection_times": "Mo-Fr 16:30; Sa 10:15", "name": "USPS COLLECTION BOX - BLUE BOX", "note": "ON 12/24 AND 12/31, THIS BOX MAY BE COLLECTED AS EARLY AS 12 NOON.", "nsi_id": "unitedstatespostalservice-a77078", "operator": "United States Postal Service", "operator:short": "USPS", "operator:type": "public", "operator:wikidata": "Q668687", "ref": "1331300001"}, "type": "Feature"}
{"dataset_attributes": {"@spider": "usps_collection_boxes", "spider:collection_time": "2024-01-01T08:25:44.650502"}, "geometry": {"coordinates": [-75.251609, 42.878313], "type": "Point"}, "id": "G0ublPcL9aLj4MNNksmjRG4-YW0=", "properties": {"@spider": "usps_collection_boxes", "addr:city": "BRIDGEWATER", "addr:country": "US", "addr:full": "320 STATE ROUTE 8", "addr:postcode": "13313", "addr:state": "NY", "amenity": "post_box", "brand": "United States Postal Service", "brand:wikidata": "Q668687", "collection_times": "Mo-Fr 17:00; Sa 11:00", "name": "USPS COLLECTION BOX - PO LOBBY", "note": "ON 12/24 AND 12/31, THIS BOX MAY BE COLLECTED AS EARLY AS 12 NOON.", "nsi_id": "unitedstatespostalservice-a77078", "operator": "United States Postal Service", "operator:short": "USPS", "operator:type": "public", "operator:wikidata": "Q668687", "ref": "1331300002"}, "type": "Feature"}
{"dataset_attributes": {"@spider": "usps_collection_boxes", "spider:collection_time": "2024-01-01T08:25:44.650502"}, "geometry": {"coordinates": [-75.251552964, 42.878343573], "type": "Point"}, "id": "Yq4lBkAMyog3SrbReg_XaEzC0x8=", "properties": {"@spider": "usps_collection_boxes", "addr:city": "BRIDGEWATER", "addr:country": "US", "addr:full": "320 STATE ROUTE 8", "addr:postcode": "13313", "addr:state": "NY", "amenity": "post_box", "brand": "United States Postal Service", "brand:wikidata": "Q668687", "collection_times": "Mo-Fr 17:00; Sa 11:00", "name": "USPS COLLECTION BOX - PO LOBBY", "note": "ON 12/24 AND 12/31, THIS BOX MAY BE COLLECTED AS EARLY AS 12 NOON.", "nsi_id": "unitedstatespostalservice-a77078", "operator": "United States Postal Service", "operator:short": "USPS", "operator:type": "public", "operator:wikidata": "Q668687", "ref": "1331300003"}, "type": "Feature"}
{"dataset_attributes": {"@spider": "usps_collection_boxes", "spider:collection_time": "2024-01-01T08:25:44.650502"}, "geometry": {"coordinates": [-75.318665, 42.812942], "type": "Point"}, "id": "LWyIEr8H2KyVdRuY89cTAOvWxeM=", "properties": {"@spider": "usps_collection_boxes", "addr:city": "BROOKFIELD", "addr:country": "US", "addr:full": "10511 MAIN ST", "addr:postcode": "13314", "addr:state": "NY", "amenity": "post_box", "brand": "United States Postal Service", "brand:wikidata": "Q668687", "collection_times": "Mo-Fr 12:00; Sa 10:30", "name": "USPS COLLECTION BOX - BLUE BOX", "nsi_id": "unitedstatespostalservice-a77078", "operator": "United States Postal Service", "operator:short": "USPS", "operator:type": "public", "operator:wikidata": "Q668687", "ref": "1331400001"}, "type": "Feature"}
{"dataset_attributes": {"@spider": "usps_collection_boxes", "spider:collection_time": "2024-01-01T08:25:44.650502"}, "geometry": {"coordinates": [-75.318579, 42.812919], "type": "Point"}, "id": "f5ojHNyxGUZtiaozmeHva_r5MCI=", "properties": {"@spider": "usps_collection_boxes", "addr:city": "BROOKFIELD", "addr:country": "US", "addr:full": "10511 MAIN ST", "addr:postcode": "13314", "addr:state": "NY", "amenity": "post_box", "brand": "United States Postal Service", "brand:wikidata": "Q668687", "collection_times": "Mo-Fr 12:00; Sa 10:30", "name": "USPS COLLECTION BOX - PO LOBBY", "nsi_id": "unitedstatespostalservice-a77078", "operator": "United States Postal Service", "operator:short": "USPS", "operator:type": "public", "operator:wikidata": "Q668687", "ref": "1331400002"}, "type": "Feature"}
{"dataset_attributes": {"@spider": "usps_collection_boxes", "spider:collection_time": "2024-01-01T08:25:44.650502"}, "geometry": {"coordinates": [-75.318753473, 42.812935479], "type": "Point"}, "id": "Qcylfq4utN1dWAMvsn21a_4vIg0=", "properties": {"@spider": "usps_collection_boxes", "addr:city": "BROOKFIELD", "addr:country": "US", "addr:full": "10511 MAIN ST", "addr:postcode": "13314", "addr:state": "NY", "amenity": "post_box", "brand": "United States Postal Service", "brand:wikidata": "Q668687", "collection_times": "Mo-Fr 12:00; Sa 10:30", "name": "USPS COLLECTION BOX - PO LOBBY", "nsi_id": "unitedstatespostalservice-a77078", "operator": "United States Postal Service", "operator:short": "USPS", "operator:type": "public", "operator:wikidata": "Q668687", "ref": "1331400003"}, "type": "Feature"}
{"dataset_attributes": {"@spider": "usps_collection_boxes", "spider:collection_time": "2024-01-01T08:25:44.650502"}, "geometry": {"coordinates": [-75.183058, 42.745663], "type": "Point"}, "id": "gnpySm_UqxyVHqXWYGKGgma9y0Y=", "properties": {"@spider": "usps_collection_boxes", "addr:city": "BURLNGTN FLT", "addr:country": "US", "addr:full": "6047 STATE HIGHWAY 51", "addr:postcode": "13315", "addr:state": "NY", "amenity": "post_box", "brand": "United States Postal Service", "brand:wikidata": "Q668687", "collection_times": "Mo-Fr 12:00; Sa 10:45", "name": "USPS COLLECTION BOX - BLUE BOX", "nsi_id": "unitedstatespostalservice-a77078", "operator": "United States Postal Service", "operator:short": "USPS", "operator:type": "public", "operator:wikidata": "Q668687", "ref": "1331500001"}, "type": "Feature"}
{"dataset_attributes": {"@spider": "usps_collection_boxes", "spider:collection_time": "2024-01-01T08:25:44.650502"}, "geometry": {"coordinates": [-75.183058, 42.745663], "type": "Point"}, "id": "2APYiWr4ZRCx8W2rbkd9_OW2IBk=", "properties": {"@spider": "usps_collection_boxes", "addr:city": "BURLNGTN FLT", "addr:country": "US", "addr:full": "6047 STATE HIGHWAY 51", "addr:postcode": "13315", "addr:state": "NY", "amenity": "post_box", "brand": "United States Postal Service", "brand:wikidata": "Q668687", "collection_times": "Mo-Fr 12:00; Sa 10:45", "name": "USPS COLLECTION BOX - PO LOBBY", "nsi_id": "unitedstatespostalservice-a77078", "operator": "United States Postal Service", "operator:short": "USPS", "operator:type": "public", "operator:wikidata": "Q668687", "ref": "1331500004"}, "type": "Feature"}
{"dataset_attributes": {"@spider": "usps_collection_boxes", "spider:collection_time": "2024-01-01T08:25:44.650502"}, "geometry": {"coordinates": [-75.183137924, 42.745936149], "type": "Point"}, "id": "xFd3VWCs4MaOzG210rzXs9F_sUM=", "properties": {"@spider": "usps_collection_boxes", "addr:city": "BURLNGTN FLT", "addr:country": "US", "addr:full": "6047 STATE HIGHWAY 51", "addr:postcode": "13315", "addr:state": "NY", "amenity": "post_box", "brand": "United States Postal Service", "brand:wikidata": "Q668687", "collection_times": "Mo-Fr 12:00; Sa 11:00", "name": "USPS COLLECTION BOX - PO LOBBY", "nsi_id": "unitedstatespostalservice-a77078", "operator": "United States Postal Service", "operator:short": "USPS", "operator:type": "public", "operator:wikidata": "Q668687", "ref": "1331500007"}, "type": "Feature"}
{"dataset_attributes": {"@spider": "usps_collection_boxes", "spider:collection_time": "2024-01-01T08:25:44.650502"}, "geometry": {"coordinates": [-75.7484408, 43.336105], "type": "Point"}, "id": "hr1RDyGnZ31zHTjyC6wa90aev-E=", "properties": {"@spider": "usps_collection_boxes", "addr:city": "CAMDEN", "addr:country": "US", "addr:full": "100 MAIN ST", "addr:postcode": "13316", "addr:state": "NY", "amenity": "post_box", "brand": "United States Postal Service", "brand:wikidata": "Q668687", "collection_times": "Mo-Fr 17:00; Sa 11:45", "name": "USPS COLLECTION BOX - BLUE BOX", "note": "ON 12/24 AND 12/31, THIS BOX MAY BE COLLECTED AS EARLY AS 12 NOON.", "nsi_id": "unitedstatespostalservice-a77078", "operator": "United States Postal Service", "operator:short": "USPS", "operator:type": "public", "operator:wikidata": "Q668687", "ref": "1331600001"}, "type": "Feature"}
{"dataset_attributes": {"@spider": "usps_collection_boxes", "spider:collection_time": "2024-01-01T08:25:44.650502"}, "geometry": {"coordinates": [-75.7504249, 43.333827], "type": "Point"}, "id": "KXy7MOV-TUxTU1oCmpKEh-mUIVY=", "properties": {"@spider": "usps_collection_boxes", "addr:city": "CAMDEN", "addr:country": "US", "addr:full": "2 PRESTON HILL ST", "addr:postcode": "13316", "addr:state": "NY", "amenity": "post_box", "brand": "United States Postal Service", "brand:wikidata": "Q668687", "collection_times": "Mo-Sa 10:00", "name": "USPS COLLECTION BOX - BLUE BOX", "nsi_id": "unitedstatespostalservice-a77078", "operator": "United States Postal Service", "operator:short": "USPS", "operator:type": "public", "operator:wikidata": "Q668687", "ref": "1331600003"}, "type": "Feature"}
{"dataset_attributes": {"@spider": "usps_collection_boxes", "spider:collection_time": "2024-01-01T08:25:44.650502"}, "geometry": {"coordinates": [-75.7478369, 43.334023], "type": "Point"}, "id": "tdI3Nx9J6TcxcBhgrpoVYJZdg9Q=", "properties": {"@spider": "usps_collection_boxes", "addr:city": "CAMDEN", "addr:country": "US", "addr:full": "35 MAIN ST", "addr:postcode": "13316", "addr:state": "NY", "amenity": "post_box", "brand": "United States Postal Service", "brand:wikidata": "Q668687", "collection_times": "Mo-Sa 09:00", "name": "USPS COLLECTION BOX - BLUE BOX", "nsi_id": "unitedstatespostalservice-a77078", "operator": "United States Postal Service", "operator:short": "USPS", "operator:type": "public", "operator:wikidata": "Q668687", "ref": "1331600004"}, "type": "Feature"}
{"dataset_attributes": {"@spider": "usps_collection_boxes", "spider:collection_time": "2024-01-01T08:25:44.650502"}, "geometry": {"coordinates": [-75.7471552, 43.338645], "type": "Point"}, "id": "YxobmzBV6th3Yt34ILnF57qgTyk=", "properties": {"@spider": "usps_collection_boxes", "addr:city": "CAMDEN", "addr:country": "US", "addr:full": "57 2ND ST", "addr:postcode": "13316", "addr:state": "NY", "amenity": "post_box", "brand": "United States Postal Service", "brand:wikidata": "Q668687", "collection_times": "Mo-Sa 10:00", "name": "USPS COLLECTION BOX - BLUE BOX", "nsi_id": "unitedstatespostalservice-a77078", "operator": "United States Postal Service", "operator:short": "USPS", "operator:type": "public", "operator:wikidata": "Q668687", "ref": "1331600006"}, "type": "Feature"}
{"dataset_attributes": {"@spider": "usps_collection_boxes", "spider:collection_time": "2024-01-01T08:25:44.650502"}, "geometry": {"coordinates": [-75.7485123, 43.336247], "type": "Point"}, "id": "EHBe4IgF9Jupg1Q5MRdkDWyPclI=", "properties": {"@spider": "usps_collection_boxes", "addr:city": "CAMDEN", "addr:country": "US", "addr:full": "100 MAIN ST", "addr:postcode": "13316", "addr:state": "NY", "amenity": "post_box", "brand": "United States Postal Service", "brand:wikidata": "Q668687", "collection_times": "Mo-Fr 16:45; Sa 11:45", "name": "USPS COLLECTION BOX - PO LOBBY", "note": "ON 12/24 AND 12/31, THIS BOX MAY BE COLLECTED AS EARLY AS 12 NOON.", "nsi_id": "unitedstatespostalservice-a77078", "operator": "United States Postal Service", "operator:short": "USPS", "operator:type": "public", "operator:wikidata": "Q668687", "ref": "1331600007"}, "type": "Feature"}
{"dataset_attributes": {"@spider": "usps_collection_boxes", "spider:collection_time": "2024-01-01T08:25:44.650502"}, "geometry": {"coordinates": [-75.7484079, 43.3376676], "type": "Point"}, "id": "LXM2PeHA9Xm8Ox5FB2ByVZYqVcA=", "properties": {"@spider": "usps_collection_boxes", "addr:city": "CAMDEN", "addr:country": "US", "addr:full": "15 OSWEGO ST", "addr:postcode": "13316", "addr:state": "NY", "amenity": "post_box", "brand": "United States Postal Service", "brand:wikidata": "Q668687", "collection_times": "Mo-Sa 09:00", "name": "USPS COLLECTION BOX - BLUE BOX", "nsi_id": "unitedstatespostalservice-a77078", "operator": "United States Postal Service", "operator:short": "USPS", "operator:type": "public", "operator:wikidata": "Q668687", "ref": "1331600008"}, "type": "Feature"}
{"dataset_attributes": {"@spider": "usps_collection_boxes", "spider:collection_time": "2024-01-01T08:25:44.650502"}, "geometry": {"coordinates": [-75.7389709, 43.325133], "type": "Point"}, "id": "qeUx9Yn3sKSyP-o4h4E7L-khjY4=", "properties": {"@spider": "usps_collection_boxes", "addr:city": "CAMDEN", "addr:country": "US", "addr:full": "9554 STATE ROUTE 13", "addr:postcode": "13316", "addr:state": "NY", "amenity": "post_box", "brand": "United States Postal Service", "brand:wikidata": "Q668687", "collection_times": "Mo-Sa 09:00", "name": "USPS COLLECTION BOX - BLUE BOX", "nsi_id": "unitedstatespostalservice-a77078", "operator": "United States Postal Service", "operator:short": "USPS", "operator:type": "public", "operator:wikidata": "Q668687", "ref": "1331600009"}, "type": "Feature"}
{"dataset_attributes": {"@spider": "usps_collection_boxes", "spider:collection_time": "2024-01-01T08:25:44.650502"}, "geometry": {"coordinates": [-75.748246748, 43.33607542], "type": "Point"}, "id": "IGuZe3SvoqH4qk8Bnncw2ISAQ1Y=", "properties": {"@spider": "usps_collection_boxes", "addr:city": "CAMDEN", "addr:country": "US", "addr:full": "100 MAIN ST", "addr:postcode": "13316", "addr:state": "NY", "amenity": "post_box", "brand": "United States Postal Service", "brand:wikidata": "Q668687", "collection_times": "Mo-Fr 17:00; Sa 12:00", "name": "USPS COLLECTION BOX - PO LOBBY", "note": "ON 12/24 AND 12/31, THIS BOX MAY BE COLLECTED AS EARLY AS 12 NOON.", "nsi_id": "unitedstatespostalservice-a77078", "operator": "United States Postal Service", "operator:short": "USPS", "operator:type": "public", "operator:wikidata": "Q668687", "ref": "1331600010"}, "type": "Feature"}
{"dataset_attributes": {"@spider": "usps_collection_boxes", "spider:collection_time": "2024-01-01T08:25:44.650502"}, "geometry": {"coordinates": [-74.576091, 42.902615], "type": "Point"}, "id": "8Gg6jEaRGW-UK5HRF5ZtE1lTCdc=", "properties": {"@spider": "usps_collection_boxes", "addr:city": "CANAJOHARIE", "addr:country": "US", "addr:full": "82 OTSEGO ST", "addr:postcode": "13317", "addr:state": "NY", "amenity": "post_box", "brand": "United States Postal Service", "brand:wikidata": "Q668687", "collection_times": "Mo-Sa 09:15", "name": "USPS COLLECTION BOX - BLUE BOX", "nsi_id": "unitedstatespostalservice-a77078", "operator": "United States Postal Service", "operator:short": "USPS", "operator:type": "public", "operator:wikidata": "Q668687", "ref": "1331700007"}, "type": "Feature"}
{"dataset_attributes": {"@spider": "usps_collection_boxes", "spider:collection_time": "2024-01-01T08:25:44.650502"}, "geometry": {"coordinates": [-74.5680967, 42.904145], "type": "Point"}, "id": "ax7S_zeEYyyz9MBpnfdDDbjzSTg=", "properties": {"@spider": "usps_collection_boxes", "addr:city": "CANAJOHARIE", "addr:country": "US", "addr:full": "75 MONTGOMERY ST", "addr:postcode": "13317", "addr:state": "NY", "amenity": "post_box", "brand": "United States Postal Service", "brand:wikidata": "Q668687", "collection_times": "Mo-Sa 09:15", "name": "USPS COLLECTION BOX - BLUE BOX", "nsi_id": "unitedstatespostalservice-a77078", "operator": "United States Postal Service", "operator:short": "USPS", "operator:type": "public", "operator:wikidata": "Q668687", "ref": "1331700010"}, "type": "Feature"}
{"dataset_attributes": {"@spider": "usps_collection_boxes", "spider:collection_time": "2024-01-01T08:25:44.650502"}, "geometry": {"coordinates": [-74.5718224, 42.906876], "type": "Point"}, "id": "zTNbHZyNAQ3esFfLAnDoYZDKBUo=", "properties": {"@spider": "usps_collection_boxes", "addr:city": "CANAJOHARIE", "addr:country": "US", "addr:full": "1 ERIE BLVD", "addr:postcode": "13317", "addr:state": "NY", "amenity": "post_box", "brand": "United States Postal Service", "brand:wikidata": "Q668687", "collection_times": "Mo-Fr 15:00; Sa 12:00", "name": "USPS COLLECTION BOX - BLUE BOX", "note": "ON 12/24 AND 12/31, THIS BOX MAY BE COLLECTED AS EARLY AS 12 NOON.", "nsi_id": "unitedstatespostalservice-a77078", "operator": "United States Postal Service", "operator:short": "USPS", "operator:type": "public", "operator:wikidata": "Q668687", "ref": "1331700015"}, "type": "Feature"}
{"dataset_attributes": {"@spider": "usps_collection_boxes", "spider:collection_time": "2024-01-01T08:25:44.650502"}, "geometry": {"coordinates": [-74.5723622, 42.90521], "type": "Point"}, "id": "xSHw2CrcZxij7VvcwtdG0-loO9s=", "properties": {"@spider": "usps_collection_boxes", "addr:city": "CANAJOHARIE", "addr:country": "US", "addr:full": "13 CHURCH ST", "addr:postcode": "13317", "addr:state": "NY", "amenity": "post_box", "brand": "United States Postal Service", "brand:wikidata": "Q668687", "collection_times": "Mo-Fr 15:00; Sa 12:00", "name": "USPS COLLECTION BOX - BLUE BOX", "note": "ON 12/24 AND 12/31, THIS BOX MAY BE COLLECTED AS EARLY AS 12 NOON.", "nsi_id": "unitedstatespostalservice-a77078", "operator": "United States Postal Service", "operator:short": "USPS", "operator:type": "public", "operator:wikidata": "Q668687", "ref": "1331700017"}, "type": "Feature"}
{"dataset_attributes": {"@spider": "usps_collection_boxes", "spider:collection_time": "2024-01-01T08:25:44.650502"}, "geometry": {"coordinates": [-74.572616, 42.906206], "type": "Point"}, "id": "5L0p1XROzBFP9ZmsHZ9GoGjAVlw=", "properties": {"@spider": "usps_collection_boxes", "addr:city": "CANAJOHARIE", "addr:country": "US", "addr:full": "50 W MAIN ST", "addr:postcode": "13317", "addr:state": "NY", "amenity": "post_box", "brand": "United States Postal Service", "brand:wikidata": "Q668687", "collection_times": "Mo-Fr 17:00; Sa 14:00", "name": "USPS COLLECTION BOX - BLUE BOX", "note": "ON 12/24 AND 12/31, THIS BOX MAY BE COLLECTED AS EARLY AS 12 NOON.", "nsi_id": "unitedstatespostalservice-a77078", "operator": "United States Postal Service", "operator:short": "USPS", "operator:type": "public", "operator:wikidata": "Q668687", "ref": "1331700024"}, "type": "Feature"}
{"dataset_attributes": {"@spider": "usps_collection_boxes", "spider:collection_time": "2024-01-01T08:25:44.650502"}, "geometry": {"coordinates": [-74.572563, 42.906169], "type": "Point"}, "id": "UGel73trxe_HWiWBGKJi44kswng=", "properties": {"@spider": "usps_collection_boxes", "addr:city": "CANAJOHARIE", "addr:country": "US", "addr:full": "50 W MAIN ST", "addr:postcode": "13317", "addr:state": "NY", "amenity": "post_box", "brand": "United States Postal Service", "brand:wikidata": "Q668687", "collection_times": "Mo-Fr 17:00; Sa 14:00", "name": "USPS COLLECTION BOX - PO LOBBY", "note": "ON 12/24 AND 12/31, THIS BOX MAY BE COLLECTED AS EARLY AS 12 NOON.", "nsi_id": "unitedstatespostalservice-a77078", "operator": "United States Postal Service", "operator:short": "USPS", "operator:type": "public", "operator:wikidata": "Q668687", "ref": "1331700025"}, "type": "Feature"}
{"dataset_attributes": {"@spider": "usps_collection_boxes", "spider:collection_time": "2024-01-01T08:25:44.650502"}, "geometry": {"coordinates": [-74.573056693, 42.906269271], "type": "Point"}, "id": "jYwsDIzQ2hBp9U4INruBX1v2QLM=", "properties": {"@spider": "usps_collection_boxes", "addr:city": "CANAJOHARIE", "addr:country": "US", "addr:full": "50 W MAIN ST", "addr:postcode": "13317", "addr:state": "NY", "amenity": "post_box", "brand": "United States Postal Service", "brand:wikidata": "Q668687", "collection_times": "Mo-Fr 17:00; Sa 12:00", "name": "USPS COLLECTION BOX - PO LOBBY", "note": "ON 12/24 AND 12/31, THIS BOX MAY BE COLLECTED AS EARLY AS 12 NOON.", "nsi_id": "unitedstatespostalservice-a77078", "operator": "United States Postal Service", "operator:short": "USPS", "operator:type": "public", "operator:wikidata": "Q668687", "ref": "1331700036"}, "type": "Feature"}
{"dataset_attributes": {"@spider": "usps_collection_boxes", "spider:collection_time": "2024-01-01T08:25:44.650502"}, "geometry": {"coordinates": [-75.253335, 42.94285], "type": "Point"}, "id": "THUQMxN2x4ouKmZuj0JWUUQPos4=", "properties": {"@spider": "usps_collection_boxes", "addr:city": "CASSVILLE", "addr:country": "US", "addr:full": "1685 MAIN ST", "addr:postcode": "13318", "addr:state": "NY", "amenity": "post_box", "brand": "United States Postal Service", "brand:wikidata": "Q668687", "collection_times": "Mo-Fr 12:00; Sa 11:00", "name": "USPS COLLECTION BOX - BLUE BOX", "nsi_id": "unitedstatespostalservice-a77078", "operator": "United States Postal Service", "operator:short": "USPS", "operator:type": "public", "operator:wikidata": "Q668687", "ref": "1331800001"}, "type": "Feature"}
{"dataset_attributes": {"@spider": "usps_collection_boxes", "spider:collection_time": "2024-01-01T08:25:44.650502"}, "geometry": {"coordinates": [-75.253269, 42.942793], "type": "Point"}, "id": "ezD_i5C9fHyvIaxr05gfaZNJRug=", "properties": {"@spider": "usps_collection_boxes", "addr:city": "CASSVILLE", "addr:country": "US", "addr:full": "1685 MAIN ST", "addr:postcode": "13318", "addr:state": "NY", "amenity": "post_box", "brand": "United States Postal Service", "brand:wikidata": "Q668687", "collection_times": "Mo-Fr 12:00; Sa 11:00", "name": "USPS COLLECTION BOX - PO LOBBY", "nsi_id": "unitedstatespostalservice-a77078", "operator": "United States Postal Service", "operator:short": "USPS", "operator:type": "public", "operator:wikidata": "Q668687", "ref": "1331800002"}, "type": "Feature"}
{"dataset_attributes": {"@spider": "usps_collection_boxes", "spider:collection_time": "2024-01-01T08:25:44.650502"}, "geometry": {"coordinates": [-75.25389674, 42.94425401], "type": "Point"}, "id": "n7H9KkrgPHaRhzPxO3EPOL4fy8o=", "properties": {"@spider": "usps_collection_boxes", "addr:city": "CASSVILLE", "addr:country": "US", "addr:full": "1685 MAIN ST", "addr:postcode": "13318", "addr:state": "NY", "amenity": "post_box", "brand": "United States Postal Service", "brand:wikidata": "Q668687", "collection_times": "Mo-Fr 12:00; Sa 11:00", "name": "USPS COLLECTION BOX - PO LOBBY", "nsi_id": "unitedstatespostalservice-a77078", "operator": "United States Postal Service", "operator:short": "USPS", "operator:type": "public", "operator:wikidata": "Q668687", "ref": "1331800003"}, "type": "Feature"}
{"dataset_attributes": {"@spider": "usps_collection_boxes", "spider:collection_time": "2024-01-01T08:25:44.650502"}, "geometry": {"coordinates": [-75.270367, 43.025978], "type": "Point"}, "id": "UV2KlfBVWY2TFztm2eQk0vv_31Y=", "properties": {"@spider": "usps_collection_boxes", "addr:city": "CHADWICKS", "addr:country": "US", "addr:full": "3367 ONEIDA ST", "addr:postcode": "13319", "addr:state": "NY", "amenity": "post_box", "brand": "United States Postal Service", "brand:wikidata": "Q668687", "collection_times": "Mo-Fr 12:00; Sa 10:45", "name": "USPS COLLECTION BOX - BLUE BOX", "nsi_id": "unitedstatespostalservice-a77078", "operator": "United States Postal Service", "operator:short": "USPS", "operator:type": "public", "operator:wikidata": "Q668687", "ref": "1331900001"}, "type": "Feature"}
{"dataset_attributes": {"@spider": "usps_collection_boxes", "spider:collection_time": "2024-01-01T08:25:44.650502"}, "geometry": {"coordinates": [-75.270317, 43.025961], "type": "Point"}, "id": "kkCHyiEeFie7FNrs9_VXA_kzkHQ=", "properties": {"@spider": "usps_collection_boxes", "addr:city": "CHADWICKS", "addr:country": "US", "addr:full": "3367 ONEIDA ST", "addr:postcode": "13319", "addr:state": "NY", "amenity": "post_box", "brand": "United States Postal Service", "brand:wikidata": "Q668687", "collection_times": "Mo-Fr 12:00; Sa 10:45", "name": "USPS COLLECTION BOX - PO LOBBY", "nsi_id": "unitedstatespostalservice-a77078", "operator": "United States Postal Service", "operator:short": "USPS", "operator:type": "public", "operator:wikidata": "Q668687", "ref": "1331900002"}, "type": "Feature"}
{"dataset_attributes": {"@spider": "usps_collection_boxes", "spider:collection_time": "2024-01-01T08:25:44.650502"}, "geometry": {"coordinates": [-75.270489666, 43.02617662], "type": "Point"}, "id": "QWkPq7sO0WKCUNIdcBvz7TUpSs0=", "properties": {"@spider": "usps_collection_boxes", "addr:city": "CHADWICKS", "addr:country": "US", "addr:full": "3367 ONEIDA ST", "addr:postcode": "13319", "addr:state": "NY", "amenity": "post_box", "brand": "United States Postal Service", "brand:wikidata": "Q668687", "collection_times": "Mo-Fr 12:00; Sa 10:45", "name": "USPS COLLECTION BOX - PO LOBBY", "nsi_id": "unitedstatespostalservice-a77078", "operator": "United States Postal Service", "operator:short": "USPS", "operator:type": "public", "operator:wikidata": "Q668687", "ref": "1331900003"}, "type": "Feature"}
{"dataset_attributes": {"@spider": "usps_collection_boxes", "spider:collection_time": "2024-01-01T08:25:44.650502"}, "geometry": {"coordinates": [-74.757672, 42.798463], "type": "Point"}, "id": "g1wY2LSXyVnLworkzEft47Rbf0c=", "properties": {"@spider": "usps_collection_boxes", "addr:city": "CHERRY VALLEY", "addr:country": "US", "addr:full": "2 GENESEE ST", "addr:postcode": "13320", "addr:state": "NY", "amenity": "post_box", "brand": "United States Postal Service", "brand:wikidata": "Q668687", "collection_times": "Mo-Fr 16:00; Sa 11:30", "name": "USPS COLLECTION BOX - BLUE BOX", "note": "ON 12/24 AND 12/31, THIS BOX MAY BE COLLECTED AS EARLY AS 12 NOON.", "nsi_id": "unitedstatespostalservice-a77078", "operator": "United States Postal Service", "operator:short": "USPS", "operator:type": "public", "operator:wikidata": "Q668687", "ref": "1332000001"}, "type": "Feature"}
{"dataset_attributes": {"@spider": "usps_collection_boxes", "spider:collection_time": "2024-01-01T08:25:44.650502"}, "geometry": {"coordinates": [-74.75776, 42.798531], "type": "Point"}, "id": "e84FxrhwogDh0wf6SABfJgjRvSw=", "properties": {"@spider": "usps_collection_boxes", "addr:city": "CHERRY VALLEY", "addr:country": "US", "addr:full": "2 GENESEE ST", "addr:postcode": "13320", "addr:state": "NY", "amenity": "post_box", "brand": "United States Postal Service", "brand:wikidata": "Q668687", "collection_times": "Mo-Fr 16:15; Sa 11:40", "name": "USPS COLLECTION BOX - PO LOBBY", "note": "ON 12/24 AND 12/31, THIS BOX MAY BE COLLECTED AS EARLY AS 12 NOON.", "nsi_id": "unitedstatespostalservice-a77078", "operator": "United States Postal Service", "operator:short": "USPS", "operator:type": "public", "operator:wikidata": "Q668687", "ref": "1332000002"}, "type": "Feature"}
{"dataset_attributes": {"@spider": "usps_collection_boxes", "spider:collection_time": "2024-01-01T08:25:44.650502"}, "geometry": {"coordinates": [-74.757564845, 42.798409929], "type": "Point"}, "id": "9qaQarJkHLpfhYK3WNnGFYhoRKc=", "properties": {"@spider": "usps_collection_boxes", "addr:city": "CHERRY VALLEY", "addr:country": "US", "addr:full": "2 GENESEE ST", "addr:postcode": "13320", "addr:state": "NY", "amenity": "post_box", "brand": "United States Postal Service", "brand:wikidata": "Q668687", "collection_times": "Mo-Fr 16:30; Sa 11:30", "name": "USPS COLLECTION BOX - PO LOBBY", "note": "ON 12/24 AND 12/31, THIS BOX MAY BE COLLECTED AS EARLY AS 12 NOON.", "nsi_id": "unitedstatespostalservice-a77078", "operator": "United States Postal Service", "operator:short": "USPS", "operator:type": "public", "operator:wikidata": "Q668687", "ref": "1332000003"}, "type": "Feature"}
{"dataset_attributes": {"@spider": "usps_collection_boxes", "spider:collection_time": "2024-01-01T08:25:44.650502"}, "geometry": {"coordinates": [-75.374621, 43.089776], "type": "Point"}, "id": "esO72MYP72kTksh7vxYRAtErdnw=", "properties": {"@spider": "usps_collection_boxes", "addr:city": "CLARK MILLS", "addr:country": "US", "addr:full": "4814 CLINTON ST", "addr:postcode": "13321", "addr:state": "NY", "amenity": "post_box", "brand": "United States Postal Service", "brand:wikidata": "Q668687", "collection_times": "Mo-Fr 16:30; Sa 11:30", "name": "USPS COLLECTION BOX - BLUE BOX", "note": "ON 12/24 AND 12/31, THIS BOX MAY BE COLLECTED AS EARLY AS 12 NOON.", "nsi_id": "unitedstatespostalservice-a77078", "operator": "United States Postal Service", "operator:short": "USPS", "operator:type": "public", "operator:wikidata": "Q668687", "ref": "1332100002"}, "type": "Feature"}
{"dataset_attributes": {"@spider": "usps_collection_boxes", "spider:collection_time": "2024-01-01T08:25:44.650502"}, "geometry": {"coordinates": [-75.374653, 43.089725], "type": "Point"}, "id": "htK-b1H2VajEq-PlMnjQTqFyxL8=", "properties": {"@spider": "usps_collection_boxes", "addr:city": "CLARK MILLS", "addr:country": "US", "addr:full": "4814 CLINTON ST", "addr:postcode": "13321", "addr:state": "NY", "amenity": "post_box", "brand": "United States Postal Service", "brand:wikidata": "Q668687", "collection_times": "Mo-Fr 17:00; Sa 12:00", "name": "USPS COLLECTION BOX - PO LOBBY", "note": "ON 12/24 AND 12/31, THIS BOX MAY BE COLLECTED AS EARLY AS 12 NOON.", "nsi_id": "unitedstatespostalservice-a77078", "operator": "United States Postal Service", "operator:short": "USPS", "operator:type": "public", "operator:wikidata": "Q668687", "ref": "1332100004"}, "type": "Feature"}
{"dataset_attributes": {"@spider": "usps_collection_boxes", "spider:collection_time": "2024-01-01T08:25:44.650502"}, "geometry": {"coordinates": [-75.374623689, 43.089761797], "type": "Point"}, "id": "ikXyvVyxIWsMxYUl7FYOx_VWdZM=", "properties": {"@spider": "usps_collection_boxes", "addr:city": "CLARK MILLS", "addr:country": "US", "addr:full": "4814 CLINTON ST", "addr:postcode": "13321", "addr:state": "NY", "amenity": "post_box", "brand": "United States Postal Service", "brand:wikidata": "Q668687", "collection_times": "Mo-Fr 17:00; Sa 12:00", "name": "USPS COLLECTION BOX - PO LOBBY", "note": "ON 12/24 AND 12/31, THIS BOX MAY BE COLLECTED AS EARLY AS 12 NOON.", "nsi_id": "unitedstatespostalservice-a77078", "operator": "United States Postal Service", "operator:short": "USPS", "operator:type": "public", "operator:wikidata": "Q668687", "ref": "1332100005"}, "type": "Feature"}
{"dataset_attributes": {"@spider": "usps_collection_boxes", "spider:collection_time": "2024-01-01T08:25:44.650502"}, "geometry": {"coordinates": [-75.248405, 42.976822], "type": "Point"}, "id": "Rf-gVOs6BC5I4TzhVnzApRFkE2c=", "properties": {"@spider": "usps_collection_boxes", "addr:city": "CLAYVILLE", "addr:country": "US", "addr:full": "2370 MAIN ST", "addr:postcode": "13322", "addr:state": "NY", "amenity": "post_box", "brand": "United States Postal Service", "brand:wikidata": "Q668687", "collection_times": "Mo-Fr 12:00; Sa 11:45", "name": "USPS COLLECTION BOX - BLUE BOX", "nsi_id": "unitedstatespostalservice-a77078", "operator": "United States Postal Service", "operator:short": "USPS", "operator:type": "public", "operator:wikidata": "Q668687", "ref": "1332200001"}, "type": "Feature"}
{"dataset_attributes": {"@spider": "usps_collection_boxes", "spider:collection_time": "2024-01-01T08:25:44.650502"}, "geometry": {"coordinates": [-75.248487678, 42.977129448], "type": "Point"}, "id": "ilIoWthUZavHhVO7y72fbf-D1Oo=", "properties": {"@spider": "usps_collection_boxes", "addr:city": "CLAYVILLE", "addr:country": "US", "addr:full": "2370 MAIN ST", "addr:postcode": "13322", "addr:state": "NY", "amenity": "post_box", "brand": "United States Postal Service", "brand:wikidata": "Q668687", "collection_times": "Mo-Fr 12:00; Sa 11:45", "name": "USPS COLLECTION BOX - PO LOBBY", "nsi_id": "unitedstatespostalservice-a77078", "operator": "United States Postal Service", "operator:short": "USPS", "operator:type": "public", "operator:wikidata": "Q668687", "ref": "1332200004"}, "type": "Feature"}
{"dataset_attributes": {"@spider": "usps_collection_boxes", "spider:collection_time": "2024-01-01T08:25:44.650502"}, "geometry": {"coordinates": [-75.248487678, 42.977129448], "type": "Point"}, "id": "nNrsgEuRna9aSaTqZ-_9pziwvN8=", "properties": {"@spider": "usps_collection_boxes", "addr:city": "CLAYVILLE", "addr:country": "US", "addr:full": "2370 MAIN ST", "addr:postcode": "13322", "addr:state": "NY", "amenity": "post_box", "brand": "United States Postal Service", "brand:wikidata": "Q668687", "collection_times": "Mo-Fr 12:00; Sa 11:45", "name": "USPS COLLECTION BOX - PO LOBBY", "nsi_id": "unitedstatespostalservice-a77078", "operator": "United States Postal Service", "operator:short": "USPS", "operator:type": "public", "operator:wikidata": "Q668687", "ref": "1332200005"}, "type": "Feature"}
{"dataset_attributes": {"@spider": "usps_collection_boxes", "spider:collection_time": "2024-01-01T08:25:44.650502"}, "geometry": {"coordinates": [-75.3784399, 43.049537], "type": "Point"}, "id": "HwiyEh-bsWRQRoJzn1IkH6lr-Eg=", "properties": {"@spider": "usps_collection_boxes", "addr:city": "CLINTON", "addr:country": "US", "addr:full": "1 A N PARK ROW", "addr:postcode": "13323", "addr:state": "NY", "amenity": "post_box", "brand": "United States Postal Service", "brand:wikidata": "Q668687", "collection_times": "Mo-Fr 14:45; Sa 14:00", "name": "USPS COLLECTION BOX - BLUE BOX", "note": "ON 12/24 AND 12/31, THIS BOX MAY BE COLLECTED AS EARLY AS 12 NOON.", "nsi_id": "unitedstatespostalservice-a77078", "operator": "United States Postal Service", "operator:short": "USPS", "operator:type": "public", "operator:wikidata": "Q668687", "ref": "1332300004"}, "type": "Feature"}
{"dataset_attributes": {"@spider": "usps_collection_boxes", "spider:collection_time": "2024-01-01T08:25:44.650502"}, "geometry": {"coordinates": [-75.3784273, 43.049532], "type": "Point"}, "id": "Y4fR9TSmy5cSDwlR1caxSmvhl6w=", "properties": {"@spider": "usps_collection_boxes", "addr:city": "CLINTON", "addr:country": "US", "addr:full": "1 A N PARK ROW", "addr:postcode": "13323", "addr:state": "NY", "amenity": "post_box", "brand": "United States Postal Service", "brand:wikidata": "Q668687", "collection_times": "Mo-Fr 14:45; Sa 14:00", "name": "USPS COLLECTION BOX - BLUE BOX", "note": "ON 12/24 AND 12/31, THIS BOX MAY BE COLLECTED AS EARLY AS 12 NOON.", "nsi_id": "unitedstatespostalservice-a77078", "operator": "United States Postal Service", "operator:short": "USPS", "operator:type": "public", "operator:wikidata": "Q668687", "ref": "1332300005"}, "type": "Feature"}
{"dataset_attributes": {"@spider": "usps_collection_boxes", "spider:collection_time": "2024-01-01T08:25:44.650502"}, "geometry": {"coordinates": [-75.38267, 43.048221], "type": "Point"}, "id": "bdYB_GmqcvkW0thKtuQER8654K4=", "properties": {"@spider": "usps_collection_boxes", "addr:city": "CLINTON", "addr:country": "US", "addr:full": "40 COLLEGE ST", "addr:postcode": "13323", "addr:state": "NY", "amenity": "post_box", "brand": "United States Postal Service", "brand:wikidata": "Q668687", "collection_times": "Mo-Fr 17:15; Sa 15:30", "name": "USPS COLLECTION BOX - BLUE BOX", "note": "ON 12/24 AND 12/31, THIS BOX MAY BE COLLECTED AS EARLY AS 12 NOON.", "nsi_id": "unitedstatespostalservice-a77078", "operator": "United States Postal Service", "operator:short": "USPS", "operator:type": "public", "operator:wikidata": "Q668687", "ref": "1332300006"}, "type": "Feature"}
{"dataset_attributes": {"@spider": "usps_collection_boxes", "spider:collection_time": "2024-01-01T08:25:44.650502"}, "geometry": {"coordinates": [-75.382548, 43.048192], "type": "Point"}, "id": "Rnw9VEuC3uCu_xn_eNhXADBuzJg=", "properties": {"@spider": "usps_collection_boxes", "addr:city": "CLINTON", "addr:country": "US", "addr:full": "40 COLLEGE ST", "addr:postcode": "13323", "addr:state": "NY", "amenity": "post_box", "brand": "United States Postal Service", "brand:wikidata": "Q668687", "collection_times": "Mo-Fr 17:15; Sa 15:30", "name": "USPS COLLECTION BOX - BLUE BOX", "note": "ON 12/24 AND 12/31, THIS BOX MAY BE COLLECTED AS EARLY AS 12 NOON.", "nsi_id": "unitedstatespostalservice-a77078", "operator": "United States Postal Service", "operator:short": "USPS", "operator:type": "public", "operator:wikidata": "Q668687", "ref": "1332300007"}, "type": "Feature"}
{"dataset_attributes": {"@spider": "usps_collection_boxes", "spider:collection_time": "2024-01-01T08:25:44.650502"}, "geometry": {"coordinates": [-75.3786095, 43.04995], "type": "Point"}, "id": "h1JGHV_SedQE0ubsbJ_hnKyK_3E=", "properties": {"@spider": "usps_collection_boxes", "addr:city": "CLINTON", "addr:country": "US", "addr:full": "1 W PARK ROW", "addr:postcode": "13323", "addr:state": "NY", "amenity": "post_box", "brand": "United States Postal Service", "brand:wikidata": "Q668687", "collection_times": "Mo-Fr 14:45; Sa 14:00", "name": "USPS COLLECTION BOX - BLUE BOX", "note": "ON 12/24 AND 12/31, THIS BOX MAY BE COLLECTED AS EARLY AS 12 NOON.", "nsi_id": "unitedstatespostalservice-a77078", "operator": "United States Postal Service", "operator:short": "USPS", "operator:type": "public", "operator:wikidata": "Q668687", "ref": "1332300008"}, "type": "Feature"}
{"dataset_attributes": {"@spider": "usps_collection_boxes", "spider:collection_time": "2024-01-01T08:25:44.650502"}, "geometry": {"coordinates": [-75.3788234, 43.048106], "type": "Point"}, "id": "SKzkZTchMikW1KkK4EDQRf1yhpA=", "properties": {"@spider": "usps_collection_boxes", "addr:city": "CLINTON", "addr:country": "US", "addr:full": "1 COLLEGE ST", "addr:postcode": "13323", "addr:state": "NY", "amenity": "post_box", "brand": "United States Postal Service", "brand:wikidata": "Q668687", "collection_times": "Mo-Fr 14:45; Sa 14:00", "name": "USPS COLLECTION BOX - BLUE BOX", "note": "ON 12/24 AND 12/31, THIS BOX MAY BE COLLECTED AS EARLY AS 12 NOON.", "nsi_id": "unitedstatespostalservice-a77078", "operator": "United States Postal Service", "operator:short": "USPS", "operator:type": "public", "operator:wikidata": "Q668687", "ref": "1332300009"}, "type": "Feature"}
{"dataset_attributes": {"@spider": "usps_collection_boxes", "spider:collection_time": "2024-01-01T08:25:44.650502"}, "geometry": {"coordinates": [-75.3751514, 43.048571], "type": "Point"}, "id": "xdSqXeFFw1lK5D4u6B0w8UIIQXA=", "properties": {"@spider": "usps_collection_boxes", "addr:city": "CLINTON", "addr:country": "US", "addr:full": "28 MULBERRY ST", "addr:postcode": "13323", "addr:state": "NY", "amenity": "post_box", "brand": "United States Postal Service", "brand:wikidata": "Q668687", "collection_times": "Mo-Sa 11:15", "name": "USPS COLLECTION BOX - BLUE BOX", "nsi_id": "unitedstatespostalservice-a77078", "operator": "United States Postal Service", "operator:short": "USPS", "operator:type": "public", "operator:wikidata": "Q668687", "ref": "1332300012"}, "type": "Feature"}
{"dataset_attributes": {"@spider": "usps_collection_boxes", "spider:collection_time": "2024-01-01T08:25:44.650502"}, "geometry": {"coordinates": [-75.382548, 43.048192], "type": "Point"}, "id": "fX7tLHJLMwLkFflE5rsf7RaCh6s=", "properties": {"@spider": "usps_collection_boxes", "addr:city": "CLINTON", "addr:country": "US", "addr:full": "40 COLLEGE ST", "addr:postcode": "13323", "addr:state": "NY", "amenity": "post_box", "brand": "United States Postal Service", "brand:wikidata": "Q668687", "collection_times": "Mo-Fr 17:30; Sa 15:30", "name": "USPS COLLECTION BOX - PO LOBBY", "note": "ON 12/24 AND 12/31, THIS BOX MAY BE COLLECTED AS EARLY AS 12 NOON.", "nsi_id": "unitedstatespostalservice-a77078", "operator": "United States Postal Service", "operator:short": "USPS", "operator:type": "public", "operator:wikidata": "Q668687", "ref": "1332300023"}, "type": "Feature"}
{"dataset_attributes": {"@spider": "usps_collection_boxes", "spider:collection_time": "2024-01-01T08:25:44.650502"}, "geometry": {"coordinates": [-75.382633694, 43.048266194], "type": "Point"}, "id": "_TQcSAdQrzmVsoIR9OMr0JFnGe4=", "properties": {"@spider": "usps_collection_boxes", "addr:city": "CLINTON", "addr:country": "US", "addr:full": "40 COLLEGE ST", "addr:postcode": "13323", "addr:state": "NY", "amenity": "post_box", "brand": "United States Postal Service", "brand:wikidata": "Q668687", "collection_times": "Mo-Fr 17:00; Sa 12:00", "name": "USPS COLLECTION BOX - PO LOBBY", "note": "ON 12/24 AND 12/31, THIS BOX MAY BE COLLECTED AS EARLY AS 12 NOON.", "nsi_id": "unitedstatespostalservice-a77078", "operator": "United States Postal Service", "operator:short": "USPS", "operator:type": "public", "operator:wikidata": "Q668687", "ref": "1332300028"}, "type": "Feature"}
{"dataset_attributes": {"@spider": "usps_collection_boxes", "spider:collection_time": "2024-01-01T08:25:44.650502"}, "geometry": {"coordinates": [-75.037743, 43.242798], "type": "Point"}, "id": "hyDGgVR2F_zV2wtsAWhzVXckFuc=", "properties": {"@spider": "usps_collection_boxes", "addr:city": "COLD BROOK", "addr:country": "US", "addr:full": "475 MAIN ST", "addr:postcode": "13324", "addr:state": "NY", "amenity": "post_box", "brand": "United States Postal Service", "brand:wikidata": "Q668687", "collection_times": "Mo-Fr 16:15; Sa 11:15", "name": "USPS COLLECTION BOX - BLUE BOX", "note": "ON 12/24 AND 12/31, THIS BOX MAY BE COLLECTED AS EARLY AS 12 NOON.", "nsi_id": "unitedstatespostalservice-a77078", "operator": "United States Postal Service", "operator:short": "USPS", "operator:type": "public", "operator:wikidata": "Q668687", "ref": "1332400001"}, "type": "Feature"}
{"dataset_attributes": {"@spider": "usps_collection_boxes", "spider:collection_time": "2024-01-01T08:25:44.650502"}, "geometry": {"coordinates": [-75.037743, 43.242798], "type": "Point"}, "id": "gGO_WcFUMAKLGfW0bNZigRbw9aM=", "properties": {"@spider": "usps_collection_boxes", "addr:city": "COLD BROOK", "addr:country": "US", "addr:full": "475 MAIN ST", "addr:postcode": "13324", "addr:state": "NY", "amenity": "post_box", "brand": "United States Postal Service", "brand:wikidata": "Q668687", "collection_times": "Mo-Fr 16:15; Sa 11:15", "name": "USPS COLLECTION BOX - PO LOBBY", "note": "ON 12/24 AND 12/31, THIS BOX MAY BE COLLECTED AS EARLY AS 12 NOON.", "nsi_id": "unitedstatespostalservice-a77078", "operator": "United States Postal Service", "operator:short": "USPS", "operator:type": "public", "operator:wikidata": "Q668687", "ref": "1332400002"}, "type": "Feature"}
{"dataset_attributes": {"@spider": "usps_collection_boxes", "spider:collection_time": "2024-01-01T08:25:44.650502"}, "geometry": {"coordinates": [-75.037625579, 43.242967487], "type": "Point"}, "id": "C0BjTWN0La6sdvjJm0LnvH0xjpI=", "properties": {"@spider": "usps_collection_boxes", "addr:city": "COLD BROOK", "addr:country": "US", "addr:full": "475 MAIN ST", "addr:postcode": "13324", "addr:state": "NY", "amenity": "post_box", "brand": "United States Postal Service", "brand:wikidata": "Q668687", "collection_times": "Mo-Fr 16:15; Sa 10:30", "name": "USPS COLLECTION BOX - PO LOBBY", "note": "ON 12/24 AND 12/31, THIS BOX MAY BE COLLECTED AS EARLY AS 12 NOON.", "nsi_id": "unitedstatespostalservice-a77078", "operator": "United States Postal Service", "operator:short": "USPS", "operator:type": "public", "operator:wikidata": "Q668687", "ref": "1332400003"}, "type": "Feature"}
{"dataset_attributes": {"@spider": "usps_collection_boxes", "spider:collection_time": "2024-01-01T08:25:44.650502"}, "geometry": {"coordinates": [-75.42904, 43.564389], "type": "Point"}, "id": "-wbOV064-4E4wx2iAWlDj6t1zlA=", "properties": {"@spider": "usps_collection_boxes", "addr:city": "CONSTABLEVILLE", "addr:country": "US", "addr:full": "3109 MAIN ST", "addr:postcode": "13325", "addr:state": "NY", "amenity": "post_box", "brand": "United States Postal Service", "brand:wikidata": "Q668687", "collection_times": "Mo-Fr 12:00; Sa 10:30", "name": "USPS COLLECTION BOX - BLUE BOX", "nsi_id": "unitedstatespostalservice-a77078", "operator": "United States Postal Service", "operator:short": "USPS", "operator:type": "public", "operator:wikidata": "Q668687", "ref": "1332500001"}, "type": "Feature"}
{"dataset_attributes": {"@spider": "usps_collection_boxes", "spider:collection_time": "2024-01-01T08:25:44.650502"}, "geometry": {"coordinates": [-75.429001, 43.564392], "type": "Point"}, "id": "PAKzJCIgG96CB1D9yL8OX117jv0=", "properties": {"@spider": "usps_collection_boxes", "addr:city": "CONSTABLEVILLE", "addr:country": "US", "addr:full": "3109 MAIN ST", "addr:postcode": "13325", "addr:state": "NY", "amenity": "post_box", "brand": "United States Postal Service", "brand:wikidata": "Q668687", "collection_times": "Mo-Fr 12:00; Sa 10:30", "name": "USPS COLLECTION BOX - PO LOBBY", "nsi_id": "unitedstatespostalservice-a77078", "operator": "United States Postal Service", "operator:short": "USPS", "operator:type": "public", "operator:wikidata": "Q668687", "ref": "1332500002"}, "type": "Feature"}
{"dataset_attributes": {"@spider": "usps_collection_boxes", "spider:collection_time": "2024-01-01T08:25:44.650502"}, "geometry": {"coordinates": [-75.429156717, 43.563972782], "type": "Point"}, "id": "_zdmi82fn5xiTB_NGPVa9SFtNgI=", "properties": {"@spider": "usps_collection_boxes", "addr:city": "CONSTABLEVILLE", "addr:country": "US", "addr:full": "3109 MAIN ST", "addr:postcode": "13325", "addr:state": "NY", "amenity": "post_box", "brand": "United States Postal Service", "brand:wikidata": "Q668687", "collection_times": "Mo-Fr 12:00; Sa 10:30", "name": "USPS COLLECTION BOX - PO LOBBY", "nsi_id": "unitedstatespostalservice-a77078", "operator": "United States Postal Service", "operator:short": "USPS", "operator:type": "public", "operator:wikidata": "Q668687", "ref": "1332500004"}, "type": "Feature"}
{"dataset_attributes": {"@spider": "usps_collection_boxes", "spider:collection_time": "2024-01-01T08:25:44.650502"}, "geometry": {"coordinates": [-74.923084, 42.70026], "type": "Point"}, "id": "oe1eDMUhPEWIwQG2w_FSQm_OpdY=", "properties": {"@spider": "usps_collection_boxes", "addr:city": "COOPERSTOWN", "addr:country": "US", "addr:full": "40 MAIN ST", "addr:postcode": "13326", "addr:state": "NY", "amenity": "post_box", "brand": "United States Postal Service", "brand:wikidata": "Q668687", "collection_times": "Mo-Fr 17:00; Sa 15:30", "name": "USPS COLLECTION BOX - BLUE BOX", "note": "ON 12/24 AND 12/31, THIS BOX MAY BE COLLECTED AS EARLY AS 12 NOON.", "nsi_id": "unitedstatespostalservice-a77078", "operator": "United States Postal Service", "operator:short": "USPS", "operator:type": "public", "operator:wikidata": "Q668687", "ref": "1332600002"}, "type": "Feature"}
{"dataset_attributes": {"@spider": "usps_collection_boxes", "spider:collection_time": "2024-01-01T08:25:44.650502"}, "geometry": {"coordinates": [-74.9251426, 42.700604], "type": "Point"}, "id": "wvsPdlnrrQWmM3xny1-0t0zhxrc=", "properties": {"@spider": "usps_collection_boxes", "addr:city": "COOPERSTOWN", "addr:country": "US", "addr:full": "99 MAIN ST", "addr:postcode": "13326", "addr:state": "NY", "amenity": "post_box", "brand": "United States Postal Service", "brand:wikidata": "Q668687", "collection_times": "Mo-Fr 15:00; Sa 14:00", "name": "USPS COLLECTION BOX - BLUE BOX", "note": "ON 12/24 AND 12/31, THIS BOX MAY BE COLLECTED AS EARLY AS 12 NOON.", "nsi_id": "unitedstatespostalservice-a77078", "operator": "United States Postal Service", "operator:short": "USPS", "operator:type": "public", "operator:wikidata": "Q668687", "ref": "1332600003"}, "type": "Feature"}
{"dataset_attributes": {"@spider": "usps_collection_boxes", "spider:collection_time": "2024-01-01T08:25:44.650502"}, "geometry": {"coordinates": [-74.927235955, 42.701116842], "type": "Point"}, "id": "nC1h9QgfgnfpsWCHrGCez4Mp8qc=", "properties": {"@spider": "usps_collection_boxes", "addr:city": "COOPERSTOWN", "addr:country": "US", "addr:full": "161 MAIN ST", "addr:postcode": "13326", "addr:state": "NY", "amenity": "post_box", "brand": "United States Postal Service", "brand:wikidata": "Q668687", "collection_times": "Mo-Fr 15:00; Sa 13:00", "name": "USPS COLLECTION BOX - BLUE BOX", "note": "ON 12/24 AND 12/31, THIS BOX MAY BE COLLECTED AS EARLY AS 12 NOON.", "nsi_id": "unitedstatespostalservice-a77078", "operator": "United States Postal Service", "operator:short": "USPS", "operator:type": "public", "operator:wikidata": "Q668687", "ref": "1332600004"}, "type": "Feature"}
{"dataset_attributes": {"@spider": "usps_collection_boxes", "spider:collection_time": "2024-01-01T08:25:44.650502"}, "geometry": {"coordinates": [-74.9325699, 42.698485], "type": "Point"}, "id": "IJQiNnEQYHYthykdcwLB_JQc8BQ=", "properties": {"@spider": "usps_collection_boxes", "addr:city": "COOPERSTOWN", "addr:country": "US", "addr:full": "16 GLEN AVE", "addr:postcode": "13326", "addr:state": "NY", "amenity": "post_box", "brand": "United States Postal Service", "brand:wikidata": "Q668687", "collection_times": "Mo-Sa 10:00", "name": "USPS COLLECTION BOX - BLUE BOX", "nsi_id": "unitedstatespostalservice-a77078", "operator": "United States Postal Service", "operator:short": "USPS", "operator:type": "public", "operator:wikidata": "Q668687", "ref": "1332600005"}, "type": "Feature"}
{"dataset_attributes": {"@spider": "usps_collection_boxes", "spider:collection_time": "2024-01-01T08:25:44.650502"}, "geometry": {"coordinates": [-74.9334799, 42.694781], "type": "Point"}, "id": "j0WXTxH5jHTrqNPUzOCOg5pyJ_U=", "properties": {"@spider": "usps_collection_boxes", "addr:city": "COOPERSTOWN", "addr:country": "US", "addr:full": "99 CHESTNUT ST", "addr:postcode": "13326", "addr:state": "NY", "amenity": "post_box", "brand": "United States Postal Service", "brand:wikidata": "Q668687", "collection_times": "Mo-Sa 12:00", "name": "USPS COLLECTION BOX - BLUE BOX", "nsi_id": "unitedstatespostalservice-a77078", "operator": "United States Postal Service", "operator:short": "USPS", "operator:type": "public", "operator:wikidata": "Q668687", "ref": "1332600006"}, "type": "Feature"}
{"dataset_attributes": {"@spider": "usps_collection_boxes", "spider:collection_time": "2024-01-01T08:25:44.650502"}, "geometry": {"coordinates": [-74.927797, 42.694787], "type": "Point"}, "id": "zAyuJtI2ef8eZVpB8wAsFGad0PA=", "properties": {"@spider": "usps_collection_boxes", "addr:city": "COOPERSTOWN", "addr:country": "US", "addr:full": "61 SUSQUEHANNA AVE", "addr:postcode": "13326", "addr:state": "NY", "amenity": "post_box", "brand": "United States Postal Service", "brand:wikidata": "Q668687", "collection_times": "Mo-Sa 12:00", "name": "USPS COLLECTION BOX - BLUE BOX", "nsi_id": "unitedstatespostalservice-a77078", "operator": "United States Postal Service", "operator:short": "USPS", "operator:type": "public", "operator:wikidata": "Q668687", "ref": "1332600007"}, "type": "Feature"}
{"dataset_attributes": {"@spider": "usps_collection_boxes", "spider:collection_time": "2024-01-01T08:25:44.650502"}, "geometry": {"coordinates": [-74.9278685, 42.697636], "type": "Point"}, "id": "G3gm3W5yr_0yXBkAx-GyYc-4YFI=", "properties": {"@spider": "usps_collection_boxes", "addr:city": "COOPERSTOWN", "addr:country": "US", "addr:full": "35 ELM ST", "addr:postcode": "13326", "addr:state": "NY", "amenity": "post_box", "brand": "United States Postal Service", "brand:wikidata": "Q668687", "collection_times": "Mo-Sa 11:00", "name": "USPS COLLECTION BOX - BLUE BOX", "nsi_id": "unitedstatespostalservice-a77078", "operator": "United States Postal Service", "operator:short": "USPS", "operator:type": "public", "operator:wikidata": "Q668687", "ref": "1332600008"}, "type": "Feature"}
{"dataset_attributes": {"@spider": "usps_collection_boxes", "spider:collection_time": "2024-01-01T08:25:44.650502"}, "geometry": {"coordinates": [-74.9311974, 42.692814], "type": "Point"}, "id": "1IKPa5Yc2fvjHV0Cy5b9fVF7W2g=", "properties": {"@spider": "usps_collection_boxes", "addr:city": "COOPERSTOWN", "addr:country": "US", "addr:full": "14 WALNUT ST", "addr:postcode": "13326", "addr:state": "NY", "amenity": "post_box", "brand": "United States Postal Service", "brand:wikidata": "Q668687", "collection_times": "Mo-Sa 12:00", "name": "USPS COLLECTION BOX - BLUE BOX", "nsi_id": "unitedstatespostalservice-a77078", "operator": "United States Postal Service", "operator:short": "USPS", "operator:type": "public", "operator:wikidata": "Q668687", "ref": "1332600009"}, "type": "Feature"}
{"dataset_attributes": {"@spider": "usps_collection_boxes", "spider:collection_time": "2024-01-01T08:25:44.650502"}, "geometry": {"coordinates": [-74.9630599, 42.649808], "type": "Point"}, "id": "pcIlgYNrYnAyj8Mj4DoenseJC3E=", "properties": {"@spider": "usps_collection_boxes", "addr:city": "COOPERSTOWN", "addr:country": "US", "addr:full": "9 COMMONS DR", "addr:postcode": "13326", "addr:state": "NY", "amenity": "post_box", "brand": "United States Postal Service", "brand:wikidata": "Q668687", "collection_times": "Mo-Sa 10:30", "name": "USPS COLLECTION BOX - BLUE BOX", "nsi_id": "unitedstatespostalservice-a77078", "operator": "United States Postal Service", "operator:short": "USPS", "operator:type": "public", "operator:wikidata": "Q668687", "ref": "1332600011"}, "type": "Feature"}
{"dataset_attributes": {"@spider": "usps_collection_boxes", "spider:collection_time": "2024-01-01T08:25:44.650502"}, "geometry": {"coordinates": [-74.923128, 42.700242], "type": "Point"}, "id": "98Xwg28z-s-qELdu3hWQ50eP1O0=", "properties": {"@spider": "usps_collection_boxes", "addr:city": "COOPERSTOWN", "addr:country": "US", "addr:full": "40 MAIN ST", "addr:postcode": "13326", "addr:state": "NY", "amenity": "post_box", "brand": "United States Postal Service", "brand:wikidata": "Q668687", "collection_times": "Mo-Fr 17:00; Sa 15:30", "name": "USPS COLLECTION BOX - PO LOBBY", "note": "ON 12/24 AND 12/31, THIS BOX MAY BE COLLECTED AS EARLY AS 12 NOON.", "nsi_id": "unitedstatespostalservice-a77078", "operator": "United States Postal Service", "operator:short": "USPS", "operator:type": "public", "operator:wikidata": "Q668687", "ref": "1332600013"}, "type": "Feature"}
{"dataset_attributes": {"@spider": "usps_collection_boxes", "spider:collection_time": "2024-01-01T08:25:44.650502"}, "geometry": {"coordinates": [-74.923128, 42.700242], "type": "Point"}, "id": "q44b_IlB-SnWH3XJa6CC0opbs4Y=", "properties": {"@spider": "usps_collection_boxes", "addr:city": "COOPERSTOWN", "addr:country": "US", "addr:full": "40 MAIN ST", "addr:postcode": "13326", "addr:state": "NY", "amenity": "post_box", "brand": "United States Postal Service", "brand:wikidata": "Q668687", "collection_times": "Mo-Fr 17:00; Sa 15:30", "name": "USPS COLLECTION BOX - PO LOBBY", "note": "ON 12/24 AND 12/31, THIS BOX MAY BE COLLECTED AS EARLY AS 12 NOON.", "nsi_id": "unitedstatespostalservice-a77078", "operator": "United States Postal Service", "operator:short": "USPS", "operator:type": "public", "operator:wikidata": "Q668687", "ref": "1332600014"}, "type": "Feature"}
{"dataset_attributes": {"@spider": "usps_collection_boxes", "spider:collection_time": "2024-01-01T08:25:44.650502"}, "geometry": {"coordinates": [-74.923186479, 42.7002691], "type": "Point"}, "id": "cw-1RqbeEOv1Wz8j7MK34BLcsmc=", "properties": {"@spider": "usps_collection_boxes", "addr:city": "COOPERSTOWN", "addr:country": "US", "addr:full": "40 MAIN ST", "addr:postcode": "13326", "addr:state": "NY", "amenity": "post_box", "brand": "United States Postal Service", "brand:wikidata": "Q668687", "collection_times": "Mo-Fr 17:00; Sa 12:30", "name": "USPS COLLECTION BOX - PO LOBBY", "note": "ON 12/24 AND 12/31, THIS BOX MAY BE COLLECTED AS EARLY AS 12 NOON.", "nsi_id": "unitedstatespostalservice-a77078", "operator": "United States Postal Service", "operator:short": "USPS", "operator:type": "public", "operator:wikidata": "Q668687", "ref": "1332600016"}, "type": "Feature"}
{"dataset_attributes": {"@spider": "usps_collection_boxes", "spider:collection_time": "2024-01-01T08:25:44.650502"}, "geometry": {"coordinates": [-75.393044, 43.892955], "type": "Point"}, "id": "TcgVLO4xvtKhxEw892QrEQFcwPI=", "properties": {"@spider": "usps_collection_boxes", "addr:city": "CROGHAN", "addr:country": "US", "addr:full": "6915 BANK ST", "addr:postcode": "13327", "addr:state": "NY", "amenity": "post_box", "brand": "United States Postal Service", "brand:wikidata": "Q668687", "collection_times": "Mo-Fr 16:00; Sa 11:45", "name": "USPS COLLECTION BOX - BLUE BOX", "note": "ON 12/24 AND 12/31, THIS BOX MAY BE COLLECTED AS EARLY AS 12 NOON.", "nsi_id": "unitedstatespostalservice-a77078", "operator": "United States Postal Service", "operator:short": "USPS", "operator:type": "public", "operator:wikidata": "Q668687", "ref": "1332700001"}, "type": "Feature"}
{"dataset_attributes": {"@spider": "usps_collection_boxes", "spider:collection_time": "2024-01-01T08:25:44.650502"}, "geometry": {"coordinates": [-75.393018, 43.892931], "type": "Point"}, "id": "lSm819iKKeGVtT6cBZdugFsBR9s=", "properties": {"@spider": "usps_collection_boxes", "addr:city": "CROGHAN", "addr:country": "US", "addr:full": "6915 BANK ST", "addr:postcode": "13327", "addr:state": "NY", "amenity": "post_box", "brand": "United States Postal Service", "brand:wikidata": "Q668687", "collection_times": "Mo-Fr 16:15; Sa 11:45", "name": "USPS COLLECTION BOX - PO LOBBY", "note": "ON 12/24 AND 12/31, THIS BOX MAY BE COLLECTED AS EARLY AS 12 NOON.", "nsi_id": "unitedstatespostalservice-a77078", "operator": "United States Postal Service", "operator:short": "USPS", "operator:type": "public", "operator:wikidata": "Q668687", "ref": "1332700002"}, "type": "Feature"}
{"dataset_attributes": {"@spider": "usps_collection_boxes", "spider:collection_time": "2024-01-01T08:25:44.650502"}, "geometry": {"coordinates": [-75.393094206, 43.89294734], "type": "Point"}, "id": "nomM2OXIOF7wC9gNi5eS3c4w7fk=", "properties": {"@spider": "usps_collection_boxes", "addr:city": "CROGHAN", "addr:country": "US", "addr:full": "6915 BANK ST", "addr:postcode": "13327", "addr:state": "NY", "amenity": "post_box", "brand": "United States Postal Service", "brand:wikidata": "Q668687", "collection_times": "Mo-Fr 17:00; Sa 11:30", "name": "USPS COLLECTION BOX - PO LOBBY", "note": "ON 12/24 AND 12/31, THIS BOX MAY BE COLLECTED AS EARLY AS 12 NOON.", "nsi_id": "unitedstatespostalservice-a77078", "operator": "United States Postal Service", "operator:short": "USPS", "operator:type": "public", "operator:wikidata": "Q668687", "ref": "1332700004"}, "type": "Feature"}
{"dataset_attributes": {"@spider": "usps_collection_boxes", "spider:collection_time": "2024-01-01T08:25:44.650502"}, "geometry": {"coordinates": [-75.428195, 42.995235], "type": "Point"}, "id": "rOPoygBzHyDBVLwkkHy8DC00Ql8=", "properties": {"@spider": "usps_collection_boxes", "addr:city": "DEANSBORO", "addr:country": "US", "addr:full": "2715 STATE ROUTE 12B", "addr:postcode": "13328", "addr:state": "NY", "amenity": "post_box", "brand": "United States Postal Service", "brand:wikidata": "Q668687", "collection_times": "Mo-Fr 12:00; Sa 11:00", "name": "USPS COLLECTION BOX - BLUE BOX", "nsi_id": "unitedstatespostalservice-a77078", "operator": "United States Postal Service", "operator:short": "USPS", "operator:type": "public", "operator:wikidata": "Q668687", "ref": "1332800001"}, "type": "Feature"}
{"dataset_attributes": {"@spider": "usps_collection_boxes", "spider:collection_time": "2024-01-01T08:25:44.650502"}, "geometry": {"coordinates": [-75.428187, 42.995156], "type": "Point"}, "id": "xHjcrX6oo6CObM7NbRltkdZ5f58=", "properties": {"@spider": "usps_collection_boxes", "addr:city": "DEANSBORO", "addr:country": "US", "addr:full": "2715 STATE ROUTE 12B", "addr:postcode": "13328", "addr:state": "NY", "amenity": "post_box", "brand": "United States Postal Service", "brand:wikidata": "Q668687", "collection_times": "Mo-Fr 12:00; Sa 11:00", "name": "USPS COLLECTION BOX - PO LOBBY", "nsi_id": "unitedstatespostalservice-a77078", "operator": "United States Postal Service", "operator:short": "USPS", "operator:type": "public", "operator:wikidata": "Q668687", "ref": "1332800002"}, "type": "Feature"}
{"dataset_attributes": {"@spider": "usps_collection_boxes", "spider:collection_time": "2024-01-01T08:25:44.650502"}, "geometry": {"coordinates": [-75.428226876, 42.995215757], "type": "Point"}, "id": "Pyrf-MALeosV3DU2pE1VNVfQbdM=", "properties": {"@spider": "usps_collection_boxes", "addr:city": "DEANSBORO", "addr:country": "US", "addr:full": "2715 STATE ROUTE 12B", "addr:postcode": "13328", "addr:state": "NY", "amenity": "post_box", "brand": "United States Postal Service", "brand:wikidata": "Q668687", "collection_times": "Mo-Fr 12:00; Sa 11:00", "name": "USPS COLLECTION BOX - PO LOBBY", "nsi_id": "unitedstatespostalservice-a77078", "operator": "United States Postal Service", "operator:short": "USPS", "operator:type": "public", "operator:wikidata": "Q668687", "ref": "1332800004"}, "type": "Feature"}
{"dataset_attributes": {"@spider": "usps_collection_boxes", "spider:collection_time": "2024-01-01T08:25:44.650502"}, "geometry": {"coordinates": [-74.7700531, 43.102966], "type": "Point"}, "id": "vQaY7eKGkw_4YbaytDnFeGwSZu4=", "properties": {"@spider": "usps_collection_boxes", "addr:city": "DOLGEVILLE", "addr:country": "US", "addr:full": "24 N MAIN ST", "addr:postcode": "13329", "addr:state": "NY", "amenity": "post_box", "brand": "United States Postal Service", "brand:wikidata": "Q668687", "collection_times": "Mo-Fr 14:30; Sa 12:00", "name": "USPS COLLECTION BOX - BLUE BOX", "note": "ON 12/24 AND 12/31, THIS BOX MAY BE COLLECTED AS EARLY AS 12 NOON.", "nsi_id": "unitedstatespostalservice-a77078", "operator": "United States Postal Service", "operator:short": "USPS", "operator:type": "public", "operator:wikidata": "Q668687", "ref": "1332900002"}, "type": "Feature"}
{"dataset_attributes": {"@spider": "usps_collection_boxes", "spider:collection_time": "2024-01-01T08:25:44.650502"}, "geometry": {"coordinates": [-74.7702203, 43.104058], "type": "Point"}, "id": "lNr93cMjDeVI7136HLeJgcYURwE=", "properties": {"@spider": "usps_collection_boxes", "addr:city": "DOLGEVILLE", "addr:country": "US", "addr:full": "71 N MAIN ST", "addr:postcode": "13329", "addr:state": "NY", "amenity": "post_box", "brand": "United States Postal Service", "brand:wikidata": "Q668687", "collection_times": "Mo-Fr 14:30; Sa 12:00", "name": "USPS COLLECTION BOX - BLUE BOX", "note": "ON 12/24 AND 12/31, THIS BOX MAY BE COLLECTED AS EARLY AS 12 NOON.", "nsi_id": "unitedstatespostalservice-a77078", "operator": "United States Postal Service", "operator:short": "USPS", "operator:type": "public", "operator:wikidata": "Q668687", "ref": "1332900003"}, "type": "Feature"}
{"dataset_attributes": {"@spider": "usps_collection_boxes", "spider:collection_time": "2024-01-01T08:25:44.650502"}, "geometry": {"coordinates": [-74.7734161, 43.1023986], "type": "Point"}, "id": "HeZp2QbyjZ9uipKZIqkjhIvuz84=", "properties": {"@spider": "usps_collection_boxes", "addr:city": "DOLGEVILLE", "addr:country": "US", "addr:full": "1 CRAMER LN", "addr:postcode": "13329", "addr:state": "NY", "amenity": "post_box", "brand": "United States Postal Service", "brand:wikidata": "Q668687", "collection_times": "Mo-Fr 16:30; Sa 12:00", "name": "USPS COLLECTION BOX - BLUE BOX", "note": "ON 12/24 AND 12/31, THIS BOX MAY BE COLLECTED AS EARLY AS 12 NOON.", "nsi_id": "unitedstatespostalservice-a77078", "operator": "United States Postal Service", "operator:short": "USPS", "operator:type": "public", "operator:wikidata": "Q668687", "ref": "1332900011"}, "type": "Feature"}
{"dataset_attributes": {"@spider": "usps_collection_boxes", "spider:collection_time": "2024-01-01T08:25:44.650502"}, "geometry": {"coordinates": [-74.77254, 43.100769], "type": "Point"}, "id": "SonPxS0hfwwUpCb3rtCGlxMf5Mw=", "properties": {"@spider": "usps_collection_boxes", "addr:city": "DOLGEVILLE", "addr:country": "US", "addr:full": "41 S MAIN ST", "addr:postcode": "13329", "addr:state": "NY", "amenity": "post_box", "brand": "United States Postal Service", "brand:wikidata": "Q668687", "collection_times": "Mo-Fr 17:00; Sa 12:00", "name": "USPS COLLECTION BOX - BLUE BOX", "note": "ON 12/24 AND 12/31, THIS BOX MAY BE COLLECTED AS EARLY AS 12 NOON.", "nsi_id": "unitedstatespostalservice-a77078", "operator": "United States Postal Service", "operator:short": "USPS", "operator:type": "public", "operator:wikidata": "Q668687", "ref": "1332900016"}, "type": "Feature"}
{"dataset_attributes": {"@spider": "usps_collection_boxes", "spider:collection_time": "2024-01-01T08:25:44.650502"}, "geometry": {"coordinates": [-74.772507, 43.100822], "type": "Point"}, "id": "XcKUxf4BmSoJQlPYRD3Ghdt2mSQ=", "properties": {"@spider": "usps_collection_boxes", "addr:city": "DOLGEVILLE", "addr:country": "US", "addr:full": "41 S MAIN ST", "addr:postcode": "13329", "addr:state": "NY", "amenity": "post_box", "brand": "United States Postal Service", "brand:wikidata": "Q668687", "collection_times": "Mo-Fr 17:00; Sa 12:00", "name": "USPS COLLECTION BOX - PO LOBBY", "note": "ON 12/24 AND 12/31, THIS BOX MAY BE COLLECTED AS EARLY AS 12 NOON.", "nsi_id": "unitedstatespostalservice-a77078", "operator": "United States Postal Service", "operator:short": "USPS", "operator:type": "public", "operator:wikidata": "Q668687", "ref": "1332900017"}, "type": "Feature"}
{"dataset_attributes": {"@spider": "usps_collection_boxes", "spider:collection_time": "2024-01-01T08:25:44.650502"}, "geometry": {"coordinates": [-74.772736294, 43.100634375], "type": "Point"}, "id": "ohLzWden2syjU1UHXsqsRzGHXHw=", "properties": {"@spider": "usps_collection_boxes", "addr:city": "DOLGEVILLE", "addr:country": "US", "addr:full": "41 S MAIN ST", "addr:postcode": "13329", "addr:state": "NY", "amenity": "post_box", "brand": "United States Postal Service", "brand:wikidata": "Q668687", "collection_times": "Mo-Fr 16:30; Sa 11:30", "name": "USPS COLLECTION BOX - PO LOBBY", "note": "ON 12/24 AND 12/31, THIS BOX MAY BE COLLECTED AS EARLY AS 12 NOON.", "nsi_id": "unitedstatespostalservice-a77078", "operator": "United States Postal Service", "operator:short": "USPS", "operator:type": "public", "operator:wikidata": "Q668687", "ref": "1332900019"}, "type": "Feature"}
{"dataset_attributes": {"@spider": "usps_collection_boxes", "spider:collection_time": "2024-01-01T08:25:44.650502"}, "geometry": {"coordinates": [-74.815308, 43.768675], "type": "Point"}, "id": "7d4zPqnP4M-TXG8HssTJ8PIzCeI=", "properties": {"@spider": "usps_collection_boxes", "addr:city": "EAGLE BAY", "addr:country": "US", "addr:full": "102 EAST AVE", "addr:postcode": "13331", "addr:state": "NY", "amenity": "post_box", "brand": "United States Postal Service", "brand:wikidata": "Q668687", "collection_times": "Mo-Fr 14:00; Sa 11:00", "name": "USPS COLLECTION BOX - BLUE BOX", "note": "ON 12/24 AND 12/31, THIS BOX MAY BE COLLECTED AS EARLY AS 12 NOON.", "nsi_id": "unitedstatespostalservice-a77078", "operator": "United States Postal Service", "operator:short": "USPS", "operator:type": "public", "operator:wikidata": "Q668687", "ref": "1333100001"}, "type": "Feature"}
{"dataset_attributes": {"@spider": "usps_collection_boxes", "spider:collection_time": "2024-01-01T08:25:44.650502"}, "geometry": {"coordinates": [-74.815251, 43.768755], "type": "Point"}, "id": "9OTvpr2N9gFKBbzCYur6y1zH4FQ=", "properties": {"@spider": "usps_collection_boxes", "addr:city": "EAGLE BAY", "addr:country": "US", "addr:full": "102 EAST AVE", "addr:postcode": "13331", "addr:state": "NY", "amenity": "post_box", "brand": "United States Postal Service", "brand:wikidata": "Q668687", "collection_times": "Mo-Fr 14:00; Sa 11:00", "name": "USPS COLLECTION BOX - PO LOBBY", "note": "ON 12/24 AND 12/31, THIS BOX MAY BE COLLECTED AS EARLY AS 12 NOON.", "nsi_id": "unitedstatespostalservice-a77078", "operator": "United States Postal Service", "operator:short": "USPS", "operator:type": "public", "operator:wikidata": "Q668687", "ref": "1333100002"}, "type": "Feature"}
{"dataset_attributes": {"@spider": "usps_collection_boxes", "spider:collection_time": "2024-01-01T08:25:44.650502"}, "geometry": {"coordinates": [-74.815338258, 43.768563433], "type": "Point"}, "id": "-eWdN9h6Au2NBpEjlN1A9_Fc0i8=", "properties": {"@spider": "usps_collection_boxes", "addr:city": "EAGLE BAY", "addr:country": "US", "addr:full": "102 EAST AVE", "addr:postcode": "13331", "addr:state": "NY", "amenity": "post_box", "brand": "United States Postal Service", "brand:wikidata": "Q668687", "collection_times": "Mo-Fr 14:00; Sa 11:15", "name": "USPS COLLECTION BOX - PO LOBBY", "note": "ON 12/24 AND 12/31, THIS BOX MAY BE COLLECTED AS EARLY AS 12 NOON.", "nsi_id": "unitedstatespostalservice-a77078", "operator": "United States Postal Service", "operator:short": "USPS", "operator:type": "public", "operator:wikidata": "Q668687", "ref": "1333100003"}, "type": "Feature"}
{"dataset_attributes": {"@spider": "usps_collection_boxes", "spider:collection_time": "2024-01-01T08:25:44.650502"}, "geometry": {"coordinates": [-75.544779, 42.738891], "type": "Point"}, "id": "F-ri-JOAHqa6ICd--WZ9qUuqB4s=", "properties": {"@spider": "usps_collection_boxes", "addr:city": "EARLVILLE", "addr:country": "US", "addr:full": "11 S MAIN ST", "addr:postcode": "13332", "addr:state": "NY", "amenity": "post_box", "brand": "United States Postal Service", "brand:wikidata": "Q668687", "collection_times": "Mo-Fr 16:00; Sa 10:30", "name": "USPS COLLECTION BOX - BLUE BOX", "note": "ON 12/24 AND 12/31, THIS BOX MAY BE COLLECTED AS EARLY AS 12 NOON.", "nsi_id": "unitedstatespostalservice-a77078", "operator": "United States Postal Service", "operator:short": "USPS", "operator:type": "public", "operator:wikidata": "Q668687", "ref": "1333200001"}, "type": "Feature"}
{"dataset_attributes": {"@spider": "usps_collection_boxes", "spider:collection_time": "2024-01-01T08:25:44.650502"}, "geometry": {"coordinates": [-75.544779, 42.738891], "type": "Point"}, "id": "nTS7rwq0gtVBKBSVOqhhqwrB2VE=", "properties": {"@spider": "usps_collection_boxes", "addr:city": "EARLVILLE", "addr:country": "US", "addr:full": "11 S MAIN ST", "addr:postcode": "13332", "addr:state": "NY", "amenity": "post_box", "brand": "United States Postal Service", "brand:wikidata": "Q668687", "collection_times": "Mo-Fr 16:15; Sa 10:45", "name": "USPS COLLECTION BOX - PO LOBBY", "note": "ON 12/24 AND 12/31, THIS BOX MAY BE COLLECTED AS EARLY AS 12 NOON.", "nsi_id": "unitedstatespostalservice-a77078", "operator": "United States Postal Service", "operator:short": "USPS", "operator:type": "public", "operator:wikidata": "Q668687", "ref": "1333200002"}, "type": "Feature"}
{"dataset_attributes": {"@spider": "usps_collection_boxes", "spider:collection_time": "2024-01-01T08:25:44.650502"}, "geometry": {"coordinates": [-75.544719464, 42.738889548], "type": "Point"}, "id": "AJYy8c0OsFqK57QDkKCcDymY52I=", "properties": {"@spider": "usps_collection_boxes", "addr:city": "EARLVILLE", "addr:country": "US", "addr:full": "11 S MAIN ST", "addr:postcode": "13332", "addr:state": "NY", "amenity": "post_box", "brand": "United States Postal Service", "brand:wikidata": "Q668687", "collection_times": "Mo-Fr 16:30; Sa 11:00", "name": "USPS COLLECTION BOX - PO LOBBY", "note": "ON 12/24 AND 12/31, THIS BOX MAY BE COLLECTED AS EARLY AS 12 NOON.", "nsi_id": "unitedstatespostalservice-a77078", "operator": "United States Postal Service", "operator:short": "USPS", "operator:type": "public", "operator:wikidata": "Q668687", "ref": "1333200003"}, "type": "Feature"}
{"dataset_attributes": {"@spider": "usps_collection_boxes", "spider:collection_time": "2024-01-01T08:25:44.650502"}, "geometry": {"coordinates": [-75.609702, 42.85007], "type": "Point"}, "id": "TpxVOvdXbTriKJLc6c1XYmCaPO0=", "properties": {"@spider": "usps_collection_boxes", "addr:city": "EATON", "addr:country": "US", "addr:full": "4084 STATE ROUTE 26", "addr:postcode": "13334", "addr:state": "NY", "amenity": "post_box", "brand": "United States Postal Service", "brand:wikidata": "Q668687", "collection_times": "Mo-Fr 12:00; Sa 10:45", "name": "USPS COLLECTION BOX - BLUE BOX", "nsi_id": "unitedstatespostalservice-a77078", "operator": "United States Postal Service", "operator:short": "USPS", "operator:type": "public", "operator:wikidata": "Q668687", "ref": "1333400001"}, "type": "Feature"}
{"dataset_attributes": {"@spider": "usps_collection_boxes", "spider:collection_time": "2024-01-01T08:25:44.650502"}, "geometry": {"coordinates": [-75.609588, 42.850113], "type": "Point"}, "id": "_t3GteMf4nb7P2nRegDWfmLpki8=", "properties": {"@spider": "usps_collection_boxes", "addr:city": "EATON", "addr:country": "US", "addr:full": "4084 STATE ROUTE 26", "addr:postcode": "13334", "addr:state": "NY", "amenity": "post_box", "brand": "United States Postal Service", "brand:wikidata": "Q668687", "collection_times": "Mo-Fr 12:00; Sa 10:45", "name": "USPS COLLECTION BOX - PO LOBBY", "nsi_id": "unitedstatespostalservice-a77078", "operator": "United States Postal Service", "operator:short": "USPS", "operator:type": "public", "operator:wikidata": "Q668687", "ref": "1333400002"}, "type": "Feature"}
{"dataset_attributes": {"@spider": "usps_collection_boxes", "spider:collection_time": "2024-01-01T08:25:44.650502"}, "geometry": {"coordinates": [-75.609739724, 42.850058671], "type": "Point"}, "id": "L7HPK5mWOumDrVh1JJOvwY1jCKo=", "properties": {"@spider": "usps_collection_boxes", "addr:city": "EATON", "addr:country": "US", "addr:full": "4084 STATE ROUTE 26", "addr:postcode": "13334", "addr:state": "NY", "amenity": "post_box", "brand": "United States Postal Service", "brand:wikidata": "Q668687", "collection_times": "Mo-Fr 12:00; Sa 10:45", "name": "USPS COLLECTION BOX - PO LOBBY", "nsi_id": "unitedstatespostalservice-a77078", "operator": "United States Postal Service", "operator:short": "USPS", "operator:type": "public", "operator:wikidata": "Q668687", "ref": "1333400003"}, "type": "Feature"}
{"dataset_attributes": {"@spider": "usps_collection_boxes", "spider:collection_time": "2024-01-01T08:25:44.650502"}, "geometry": {"coordinates": [-75.24433, 42.697689], "type": "Point"}, "id": "ziY2bRuJU6wQlVRyiGEqV7IQ40M=", "properties": {"@spider": "usps_collection_boxes", "addr:city": "EDMESTON", "addr:country": "US", "addr:full": "3 WEST ST", "addr:postcode": "13335", "addr:state": "NY", "amenity": "post_box", "brand": "United States Postal Service", "brand:wikidata": "Q668687", "collection_times": "Mo-Fr 15:30; Sa 11:30", "name": "USPS COLLECTION BOX - BLUE BOX", "note": "ON 12/24 AND 12/31, THIS BOX MAY BE COLLECTED AS EARLY AS 12 NOON.", "nsi_id": "unitedstatespostalservice-a77078", "operator": "United States Postal Service", "operator:short": "USPS", "operator:type": "public", "operator:wikidata": "Q668687", "ref": "1333500001"}, "type": "Feature"}
{"dataset_attributes": {"@spider": "usps_collection_boxes", "spider:collection_time": "2024-01-01T08:25:44.650502"}, "geometry": {"coordinates": [-75.244273, 42.69772], "type": "Point"}, "id": "k0jNvGvRPT8GB37O0dCl_9j91qc=", "properties": {"@spider": "usps_collection_boxes", "addr:city": "EDMESTON", "addr:country": "US", "addr:full": "3 WEST ST", "addr:postcode": "13335", "addr:state": "NY", "amenity": "post_box", "brand": "United States Postal Service", "brand:wikidata": "Q668687", "collection_times": "Mo-Fr 16:00; Sa 11:30", "name": "USPS COLLECTION BOX - PO LOBBY", "note": "ON 12/24 AND 12/31, THIS BOX MAY BE COLLECTED AS EARLY AS 12 NOON.", "nsi_id": "unitedstatespostalservice-a77078", "operator": "United States Postal Service", "operator:short": "USPS", "operator:type": "public", "operator:wikidata": "Q668687", "ref": "1333500004"}, "type": "Feature"}
{"dataset_attributes": {"@spider": "usps_collection_boxes", "spider:collection_time": "2024-01-01T08:25:44.650502"}, "geometry": {"coordinates": [-75.24444248, 42.697688503], "type": "Point"}, "id": "oro2gkQO0gUG6qn2A4XyeoID7Gk=", "properties": {"@spider": "usps_collection_boxes", "addr:city": "EDMESTON", "addr:country": "US", "addr:full": "3 WEST ST", "addr:postcode": "13335", "addr:state": "NY", "amenity": "post_box", "brand": "United States Postal Service", "brand:wikidata": "Q668687", "collection_times": "Mo-Fr 16:00; Sa 11:30", "name": "USPS COLLECTION BOX - PO LOBBY", "note": "ON 12/24 AND 12/31, THIS BOX MAY BE COLLECTED AS EARLY AS 12 NOON.", "nsi_id": "unitedstatespostalservice-a77078", "operator": "United States Postal Service", "operator:short": "USPS", "operator:type": "public", "operator:wikidata": "Q668687", "ref": "1333500005"}, "type": "Feature"}
{"dataset_attributes": {"@spider": "usps_collection_boxes", "spider:collection_time": "2024-01-01T08:25:44.650502"}, "geometry": {"coordinates": [-74.98325, 42.718632], "type": "Point"}, "id": "As1fmti5Tk_iX-uGQ7WVv5omGrM=", "properties": {"@spider": "usps_collection_boxes", "addr:city": "FLY CREEK", "addr:country": "US", "addr:full": "845 COUNTY HIGHWAY 26", "addr:postcode": "13337", "addr:state": "NY", "amenity": "post_box", "brand": "United States Postal Service", "brand:wikidata": "Q668687", "collection_times": "Mo-Fr 16:15; Sa 11:30", "name": "USPS COLLECTION BOX - BLUE BOX", "note": "ON 12/24 AND 12/31, THIS BOX MAY BE COLLECTED AS EARLY AS 12 NOON.", "nsi_id": "unitedstatespostalservice-a77078", "operator": "United States Postal Service", "operator:short": "USPS", "operator:type": "public", "operator:wikidata": "Q668687", "ref": "1333700001"}, "type": "Feature"}
{"dataset_attributes": {"@spider": "usps_collection_boxes", "spider:collection_time": "2024-01-01T08:25:44.650502"}, "geometry": {"coordinates": [-74.983219, 42.718541], "type": "Point"}, "id": "QbCm6D_is4-fpJFcYlUP8mlMZKA=", "properties": {"@spider": "usps_collection_boxes", "addr:city": "FLY CREEK", "addr:country": "US", "addr:full": "845 COUNTY HIGHWAY 26", "addr:postcode": "13337", "addr:state": "NY", "amenity": "post_box", "brand": "United States Postal Service", "brand:wikidata": "Q668687", "collection_times": "Mo-Fr 17:00; Sa 11:30", "name": "USPS COLLECTION BOX - PO LOBBY", "note": "ON 12/24 AND 12/31, THIS BOX MAY BE COLLECTED AS EARLY AS 12 NOON.", "nsi_id": "unitedstatespostalservice-a77078", "operator": "United States Postal Service", "operator:short": "USPS", "operator:type": "public", "operator:wikidata": "Q668687", "ref": "1333700002"}, "type": "Feature"}
{"dataset_attributes": {"@spider": "usps_collection_boxes", "spider:collection_time": "2024-01-01T08:25:44.650502"}, "geometry": {"coordinates": [-74.983237767, 42.718888289], "type": "Point"}, "id": "pymHi0b63fx3nAX-2-CoDla2e3w=", "properties": {"@spider": "usps_collection_boxes", "addr:city": "FLY CREEK", "addr:country": "US", "addr:full": "845 COUNTY HIGHWAY 26", "addr:postcode": "13337", "addr:state": "NY", "amenity": "post_box", "brand": "United States Postal Service", "brand:wikidata": "Q668687", "collection_times": "Mo-Fr 17:00; Sa 11:30", "name": "USPS COLLECTION BOX - PO LOBBY", "note": "ON 12/24 AND 12/31, THIS BOX MAY BE COLLECTED AS EARLY AS 12 NOON.", "nsi_id": "unitedstatespostalservice-a77078", "operator": "United States Postal Service", "operator:short": "USPS", "operator:type": "public", "operator:wikidata": "Q668687", "ref": "1333700003"}, "type": "Feature"}
{"dataset_attributes": {"@spider": "usps_collection_boxes", "spider:collection_time": "2024-01-01T08:25:44.650502"}, "geometry": {"coordinates": [-75.204965, 43.441144], "type": "Point"}, "id": "rAgh_HU6RCfo75O6bE5GwRLRuHA=", "properties": {"@spider": "usps_collection_boxes", "addr:city": "FORESTPORT", "addr:country": "US", "addr:full": "12180 WOODHULL RD", "addr:postcode": "13338", "addr:state": "NY", "amenity": "post_box", "brand": "United States Postal Service", "brand:wikidata": "Q668687", "collection_times": "Mo-Fr 14:15; Sa 11:00", "name": "USPS COLLECTION BOX - BLUE BOX", "note": "ON 12/24 AND 12/31, THIS BOX MAY BE COLLECTED AS EARLY AS 12 NOON.", "nsi_id": "unitedstatespostalservice-a77078", "operator": "United States Postal Service", "operator:short": "USPS", "operator:type": "public", "operator:wikidata": "Q668687", "ref": "1333800003"}, "type": "Feature"}
{"dataset_attributes": {"@spider": "usps_collection_boxes", "spider:collection_time": "2024-01-01T08:25:44.650502"}, "geometry": {"coordinates": [-75.205041, 43.441149], "type": "Point"}, "id": "lTU4sUzynAzJxBrlSo_bB3ezVko=", "properties": {"@spider": "usps_collection_boxes", "addr:city": "FORESTPORT", "addr:country": "US", "addr:full": "12180 WOODHULL RD", "addr:postcode": "13338", "addr:state": "NY", "amenity": "post_box", "brand": "United States Postal Service", "brand:wikidata": "Q668687", "collection_times": "Mo-Fr 14:30; Sa 11:00", "name": "USPS COLLECTION BOX - PO LOBBY", "note": "ON 12/24 AND 12/31, THIS BOX MAY BE COLLECTED AS EARLY AS 12 NOON.", "nsi_id": "unitedstatespostalservice-a77078", "operator": "United States Postal Service", "operator:short": "USPS", "operator:type": "public", "operator:wikidata": "Q668687", "ref": "1333800005"}, "type": "Feature"}
{"dataset_attributes": {"@spider": "usps_collection_boxes", "spider:collection_time": "2024-01-01T08:25:44.650502"}, "geometry": {"coordinates": [-75.204221534, 43.440729987], "type": "Point"}, "id": "iR4gpMIE4zx-bGk0RrzHbmoW36k=", "properties": {"@spider": "usps_collection_boxes", "addr:city": "FORESTPORT", "addr:country": "US", "addr:full": "12180 WOODHULL RD", "addr:postcode": "13338", "addr:state": "NY", "amenity": "post_box", "brand": "United States Postal Service", "brand:wikidata": "Q668687", "collection_times": "Mo-Fr 14:30", "name": "USPS COLLECTION BOX - PO LOBBY", "note": "ON 12/24 AND 12/31, THIS BOX MAY BE COLLECTED AS EARLY AS 12 NOON.", "nsi_id": "unitedstatespostalservice-a77078", "operator": "United States Postal Service", "operator:short": "USPS", "operator:type": "public", "operator:wikidata": "Q668687", "ref": "1333800006"}, "type": "Feature"}
{"dataset_attributes": {"@spider": "usps_collection_boxes", "spider:collection_time": "2024-01-01T08:25:44.650502"}, "geometry": {"coordinates": [-74.622958, 42.931873], "type": "Point"}, "id": "_p_DmUZEcNdiPpQyAWSzJkM8LZ4=", "properties": {"@spider": "usps_collection_boxes", "addr:city": "FORT PLAIN", "addr:country": "US", "addr:full": "41 RIVER ST", "addr:postcode": "13339", "addr:state": "NY", "amenity": "post_box", "brand": "United States Postal Service", "brand:wikidata": "Q668687", "collection_times": "Mo-Fr 17:00; Sa 12:00", "name": "USPS COLLECTION BOX - BLUE BOX", "note": "ON 12/24 AND 12/31, THIS BOX MAY BE COLLECTED AS EARLY AS 12 NOON.", "nsi_id": "unitedstatespostalservice-a77078", "operator": "United States Postal Service", "operator:short": "USPS", "operator:type": "public", "operator:wikidata": "Q668687", "ref": "1333900001"}, "type": "Feature"}
{"dataset_attributes": {"@spider": "usps_collection_boxes", "spider:collection_time": "2024-01-01T08:25:44.650502"}, "geometry": {"coordinates": [-74.622979, 42.931804], "type": "Point"}, "id": "X71mSLYg7BWy5wP2dn1omGM8X2o=", "properties": {"@spider": "usps_collection_boxes", "addr:city": "FORT PLAIN", "addr:country": "US", "addr:full": "98 LEGION ST", "addr:postcode": "13339", "addr:state": "NY", "amenity": "post_box", "brand": "United States Postal Service", "brand:wikidata": "Q668687", "collection_times": "Mo-Fr 17:00; Sa 12:00", "name": "USPS COLLECTION BOX - BLUE BOX", "note": "ON 12/24 AND 12/31, THIS BOX MAY BE COLLECTED AS EARLY AS 12 NOON.", "nsi_id": "unitedstatespostalservice-a77078", "operator": "United States Postal Service", "operator:short": "USPS", "operator:type": "public", "operator:wikidata": "Q668687", "ref": "1333900002"}, "type": "Feature"}
{"dataset_attributes": {"@spider": "usps_collection_boxes", "spider:collection_time": "2024-01-01T08:25:44.650502"}, "geometry": {"coordinates": [-74.62287, 42.931924], "type": "Point"}, "id": "buHpEU6zgQqkegZcC-AO8diqEhA=", "properties": {"@spider": "usps_collection_boxes", "addr:city": "FORT PLAIN", "addr:country": "US", "addr:full": "41 RIVER ST", "addr:postcode": "13339", "addr:state": "NY", "amenity": "post_box", "brand": "United States Postal Service", "brand:wikidata": "Q668687", "collection_times": "Mo-Fr 17:00; Sa 12:00", "name": "USPS COLLECTION BOX - PO LOBBY", "note": "ON 12/24 AND 12/31, THIS BOX MAY BE COLLECTED AS EARLY AS 12 NOON.", "nsi_id": "unitedstatespostalservice-a77078", "operator": "United States Postal Service", "operator:short": "USPS", "operator:type": "public", "operator:wikidata": "Q668687", "ref": "1333900011"}, "type": "Feature"}
{"dataset_attributes": {"@spider": "usps_collection_boxes", "spider:collection_time": "2024-01-01T08:25:44.650502"}, "geometry": {"coordinates": [-74.622932604, 42.931816694], "type": "Point"}, "id": "o3cgY8KFm8MVClHH41jYq3De5Cw=", "properties": {"@spider": "usps_collection_boxes", "addr:city": "FORT PLAIN", "addr:country": "US", "addr:full": "41 RIVER ST", "addr:postcode": "13339", "addr:state": "NY", "amenity": "post_box", "brand": "United States Postal Service", "brand:wikidata": "Q668687", "collection_times": "Mo-Fr 16:45; Sa 12:00", "name": "USPS COLLECTION BOX - PO LOBBY", "note": "ON 12/24 AND 12/31, THIS BOX MAY BE COLLECTED AS EARLY AS 12 NOON.", "nsi_id": "unitedstatespostalservice-a77078", "operator": "United States Postal Service", "operator:short": "USPS", "operator:type": "public", "operator:wikidata": "Q668687", "ref": "1333900012"}, "type": "Feature"}
{"dataset_attributes": {"@spider": "usps_collection_boxes", "spider:collection_time": "2024-01-01T08:25:44.650502"}, "geometry": {"coordinates": [-75.070419, 43.038764], "type": "Point"}, "id": "1Zl6JI4_s7TAdIfbZWfdP52Gg0o=", "properties": {"@spider": "usps_collection_boxes", "addr:city": "FRANKFORT", "addr:country": "US", "addr:full": "130 E MAIN ST", "addr:postcode": "13340", "addr:state": "NY", "amenity": "post_box", "brand": "United States Postal Service", "brand:wikidata": "Q668687", "collection_times": "Mo-Fr 17:00; Sa 12:00", "name": "USPS COLLECTION BOX - BLUE BOX", "note": "ON 12/24 AND 12/31, THIS BOX MAY BE COLLECTED AS EARLY AS 12 NOON.", "nsi_id": "unitedstatespostalservice-a77078", "operator": "United States Postal Service", "operator:short": "USPS", "operator:type": "public", "operator:wikidata": "Q668687", "ref": "1334000001"}, "type": "Feature"}
{"dataset_attributes": {"@spider": "usps_collection_boxes", "spider:collection_time": "2024-01-01T08:25:44.650502"}, "geometry": {"coordinates": [-75.071708, 43.038131], "type": "Point"}, "id": "XXuKiJpXB636Oaee5hynG9uTllE=", "properties": {"@spider": "usps_collection_boxes", "addr:city": "FRANKFORT", "addr:country": "US", "addr:full": "1 SKIFF AVE", "addr:postcode": "13340", "addr:state": "NY", "amenity": "post_box", "brand": "United States Postal Service", "brand:wikidata": "Q668687", "collection_times": "Mo-Fr 17:00; Sa 12:00", "name": "USPS COLLECTION BOX - BLUE BOX", "note": "ON 12/24 AND 12/31, THIS BOX MAY BE COLLECTED AS EARLY AS 12 NOON.", "nsi_id": "unitedstatespostalservice-a77078", "operator": "United States Postal Service", "operator:short": "USPS", "operator:type": "public", "operator:wikidata": "Q668687", "ref": "1334000002"}, "type": "Feature"}
{"dataset_attributes": {"@spider": "usps_collection_boxes", "spider:collection_time": "2024-01-01T08:25:44.650502"}, "geometry": {"coordinates": [-75.0706786, 43.038548], "type": "Point"}, "id": "lJjA6Dkqq1g1znkwBR_nyFEa96c=", "properties": {"@spider": "usps_collection_boxes", "addr:city": "FRANKFORT", "addr:country": "US", "addr:full": "130 E MAIN ST", "addr:postcode": "13340", "addr:state": "NY", "amenity": "post_box", "brand": "United States Postal Service", "brand:wikidata": "Q668687", "collection_times": "Mo-Fr 17:00; Sa 12:00", "name": "USPS COLLECTION BOX - PO LOBBY", "note": "ON 12/24 AND 12/31, THIS BOX MAY BE COLLECTED AS EARLY AS 12 NOON.", "nsi_id": "unitedstatespostalservice-a77078", "operator": "United States Postal Service", "operator:short": "USPS", "operator:type": "public", "operator:wikidata": "Q668687", "ref": "1334000015"}, "type": "Feature"}
{"dataset_attributes": {"@spider": "usps_collection_boxes", "spider:collection_time": "2024-01-01T08:25:44.650502"}, "geometry": {"coordinates": [-75.070375735, 43.03866378], "type": "Point"}, "id": "3FikUzkSIvWNXnyp0BuLivvvdAs=", "properties": {"@spider": "usps_collection_boxes", "addr:city": "FRANKFORT", "addr:country": "US", "addr:full": "130 E MAIN ST", "addr:postcode": "13340", "addr:state": "NY", "amenity": "post_box", "brand": "United States Postal Service", "brand:wikidata": "Q668687", "collection_times": "Mo-Fr 17:00; Sa 12:00", "name": "USPS COLLECTION BOX - PO LOBBY", "note": "ON 12/24 AND 12/31, THIS BOX MAY BE COLLECTED AS EARLY AS 12 NOON.", "nsi_id": "unitedstatespostalservice-a77078", "operator": "United States Postal Service", "operator:short": "USPS", "operator:type": "public", "operator:wikidata": "Q668687", "ref": "1334000016"}, "type": "Feature"}
{"dataset_attributes": {"@spider": "usps_collection_boxes", "spider:collection_time": "2024-01-01T08:25:44.650502"}, "geometry": {"coordinates": [-75.401981, 43.7105], "type": "Point"}, "id": "i6cydEPyHF8gcNITrK5uQPeJH0k=", "properties": {"@spider": "usps_collection_boxes", "addr:city": "GLENFIELD", "addr:country": "US", "addr:full": "6036 MAIN ST", "addr:postcode": "13343", "addr:state": "NY", "amenity": "post_box", "brand": "United States Postal Service", "brand:wikidata": "Q668687", "collection_times": "Mo-Fr 16:30; Sa 12:00", "name": "USPS COLLECTION BOX - BLUE BOX", "note": "ON 12/24 AND 12/31, THIS BOX MAY BE COLLECTED AS EARLY AS 12 NOON.", "nsi_id": "unitedstatespostalservice-a77078", "operator": "United States Postal Service", "operator:short": "USPS", "operator:type": "public", "operator:wikidata": "Q668687", "ref": "1334300001"}, "type": "Feature"}
{"dataset_attributes": {"@spider": "usps_collection_boxes", "spider:collection_time": "2024-01-01T08:25:44.650502"}, "geometry": {"coordinates": [-75.401918, 43.710582], "type": "Point"}, "id": "Cwe_hrLlWxhZjps8SUVRTRZ83n4=", "properties": {"@spider": "usps_collection_boxes", "addr:city": "GLENFIELD", "addr:country": "US", "addr:full": "6036 MAIN ST", "addr:postcode": "13343", "addr:state": "NY", "amenity": "post_box", "brand": "United States Postal Service", "brand:wikidata": "Q668687", "collection_times": "Mo-Fr 16:45; Sa 12:00", "name": "USPS COLLECTION BOX - PO LOBBY", "note": "ON 12/24 AND 12/31, THIS BOX MAY BE COLLECTED AS EARLY AS 12 NOON.", "nsi_id": "unitedstatespostalservice-a77078", "operator": "United States Postal Service", "operator:short": "USPS", "operator:type": "public", "operator:wikidata": "Q668687", "ref": "1334300003"}, "type": "Feature"}
{"dataset_attributes": {"@spider": "usps_collection_boxes", "spider:collection_time": "2024-01-01T08:25:44.650502"}, "geometry": {"coordinates": [-75.401946091, 43.710473159], "type": "Point"}, "id": "2BtN-7HFoIvZEPN2iQdb_OaxlE4=", "properties": {"@spider": "usps_collection_boxes", "addr:city": "GLENFIELD", "addr:country": "US", "addr:full": "6036 MAIN ST", "addr:postcode": "13343", "addr:state": "NY", "amenity": "post_box", "brand": "United States Postal Service", "brand:wikidata": "Q668687", "collection_times": "Mo-Fr 16:45; Sa 12:00", "name": "USPS COLLECTION BOX - PO LOBBY", "note": "ON 12/24 AND 12/31, THIS BOX MAY BE COLLECTED AS EARLY AS 12 NOON.", "nsi_id": "unitedstatespostalservice-a77078", "operator": "United States Postal Service", "operator:short": "USPS", "operator:type": "public", "operator:wikidata": "Q668687", "ref": "1334300005"}, "type": "Feature"}
{"dataset_attributes": {"@spider": "usps_collection_boxes", "spider:collection_time": "2024-01-01T08:25:44.650502"}, "geometry": {"coordinates": [-75.543563, 42.825556], "type": "Point"}, "id": "q7Aq_CWGrrlGGNXuB1ji5NgDRKQ=", "properties": {"@spider": "usps_collection_boxes", "addr:city": "HAMILTON", "addr:country": "US", "addr:full": "32 BROAD ST", "addr:postcode": "13346", "addr:state": "NY", "amenity": "post_box", "brand": "United States Postal Service", "brand:wikidata": "Q668687", "collection_times": "Mo-Fr 16:45; Sa 12:00", "name": "USPS COLLECTION BOX - PO LOBBY", "note": "ON 12/24 AND 12/31, THIS BOX MAY BE COLLECTED AS EARLY AS 12 NOON.", "nsi_id": "unitedstatespostalservice-a77078", "operator": "United States Postal Service", "operator:short": "USPS", "operator:type": "public", "operator:wikidata": "Q668687", "ref": "1334600001"}, "type": "Feature"}
{"dataset_attributes": {"@spider": "usps_collection_boxes", "spider:collection_time": "2024-01-01T08:25:44.650502"}, "geometry": {"coordinates": [-75.543497, 42.825512], "type": "Point"}, "id": "O-d9OJnYv2HHWVfL2excIlRQwWw=", "properties": {"@spider": "usps_collection_boxes", "addr:city": "HAMILTON", "addr:country": "US", "addr:full": "32 BROAD ST", "addr:postcode": "13346", "addr:state": "NY", "amenity": "post_box", "brand": "United States Postal Service", "brand:wikidata": "Q668687", "collection_times": "Mo-Fr 17:00; Sa 12:00", "name": "USPS COLLECTION BOX - BLUE BOX", "note": "ON 12/24 AND 12/31, THIS BOX MAY BE COLLECTED AS EARLY AS 12 NOON.", "nsi_id": "unitedstatespostalservice-a77078", "operator": "United States Postal Service", "operator:short": "USPS", "operator:type": "public", "operator:wikidata": "Q668687", "ref": "1334600002"}, "type": "Feature"}
{"dataset_attributes": {"@spider": "usps_collection_boxes", "spider:collection_time": "2024-01-01T08:25:44.650502"}, "geometry": {"coordinates": [-75.543799965, 42.825915503], "type": "Point"}, "id": "XM8MJ6yuhE4McWCZVv1z_0LtZPM=", "properties": {"@spider": "usps_collection_boxes", "addr:city": "HAMILTON", "addr:country": "US", "addr:full": "32 BROAD ST", "addr:postcode": "13346", "addr:state": "NY", "amenity": "post_box", "brand": "United States Postal Service", "brand:wikidata": "Q668687", "collection_times": "Mo-Fr 16:45; Sa 11:30", "name": "USPS COLLECTION BOX - PO LOBBY", "note": "ON 12/24 AND 12/31, THIS BOX MAY BE COLLECTED AS EARLY AS 12 NOON.", "nsi_id": "unitedstatespostalservice-a77078", "operator": "United States Postal Service", "operator:short": "USPS", "operator:type": "public", "operator:wikidata": "Q668687", "ref": "1334600022"}, "type": "Feature"}
{"dataset_attributes": {"@spider": "usps_collection_boxes", "spider:collection_time": "2024-01-01T08:25:44.650502"}, "geometry": {"coordinates": [-75.5434360326, 42.8268057902], "type": "Point"}, "id": "9yHkvHtFp7eDYltE7YlLf9gZRXQ=", "properties": {"@spider": "usps_collection_boxes", "addr:city": "HAMILTON", "addr:country": "US", "addr:full": "3 BROAD ST", "addr:postcode": "13346", "addr:state": "NY", "amenity": "post_box", "brand": "United States Postal Service", "brand:wikidata": "Q668687", "collection_times": "Mo-Fr 15:45; Sa 12:00", "name": "USPS COLLECTION BOX - BLUE BOX", "note": "ON 12/24 AND 12/31, THIS BOX MAY BE COLLECTED AS EARLY AS 12 NOON.", "nsi_id": "unitedstatespostalservice-a77078", "operator": "United States Postal Service", "operator:short": "USPS", "operator:type": "public", "operator:wikidata": "Q668687", "ref": "1334600023"}, "type": "Feature"}
{"dataset_attributes": {"@spider": "usps_collection_boxes", "spider:collection_time": "2024-01-01T08:25:44.650502"}, "geometry": {"coordinates": [-75.049858, 42.659857], "type": "Point"}, "id": "l-w4l55kKxSb7JOX3ESu7rdz6xk=", "properties": {"@spider": "usps_collection_boxes", "addr:city": "HARTWICK", "addr:country": "US", "addr:full": "3095 COUNTY HIGHWAY 11", "addr:postcode": "13348", "addr:state": "NY", "amenity": "post_box", "brand": "United States Postal Service", "brand:wikidata": "Q668687", "collection_times": "Mo-Fr 12:00; Sa 11:00", "name": "USPS COLLECTION BOX - BLUE BOX", "nsi_id": "unitedstatespostalservice-a77078", "operator": "United States Postal Service", "operator:short": "USPS", "operator:type": "public", "operator:wikidata": "Q668687", "ref": "1334800001"}, "type": "Feature"}
{"dataset_attributes": {"@spider": "usps_collection_boxes", "spider:collection_time": "2024-01-01T08:25:44.650502"}, "geometry": {"coordinates": [-75.049854, 42.65983], "type": "Point"}, "id": "105hQZSniRHu4I_MrRLYkgJl3DI=", "properties": {"@spider": "usps_collection_boxes", "addr:city": "HARTWICK", "addr:country": "US", "addr:full": "3095 COUNTY HIGHWAY 11", "addr:postcode": "13348", "addr:state": "NY", "amenity": "post_box", "brand": "United States Postal Service", "brand:wikidata": "Q668687", "collection_times": "Mo-Fr 12:00; Sa 11:00", "name": "USPS COLLECTION BOX - PO LOBBY", "nsi_id": "unitedstatespostalservice-a77078", "operator": "United States Postal Service", "operator:short": "USPS", "operator:type": "public", "operator:wikidata": "Q668687", "ref": "1334800002"}, "type": "Feature"}
{"dataset_attributes": {"@spider": "usps_collection_boxes", "spider:collection_time": "2024-01-01T08:25:44.650502"}, "geometry": {"coordinates": [-75.049975289, 42.659843406], "type": "Point"}, "id": "5R8PV4kvLuB5mIyLrxorEjv2uFs=", "properties": {"@spider": "usps_collection_boxes", "addr:city": "HARTWICK", "addr:country": "US", "addr:full": "3095 COUNTY HIGHWAY 11", "addr:postcode": "13348", "addr:state": "NY", "amenity": "post_box", "brand": "United States Postal Service", "brand:wikidata": "Q668687", "collection_times": "Mo-Fr 12:00; Sa 11:00", "name": "USPS COLLECTION BOX - PO LOBBY", "nsi_id": "unitedstatespostalservice-a77078", "operator": "United States Postal Service", "operator:short": "USPS", "operator:type": "public", "operator:wikidata": "Q668687", "ref": "1334800004"}, "type": "Feature"}
{"dataset_attributes": {"@spider": "usps_collection_boxes", "spider:collection_time": "2024-01-01T08:25:44.650502"}, "geometry": {"coordinates": [-74.987605, 43.026324], "type": "Point"}, "id": "lvUyvCq-4xfSygnfyYywk_Ba3Zo=", "properties": {"@spider": "usps_collection_boxes", "addr:city": "HERKIMER", "addr:country": "US", "addr:full": "135 PARK AVE", "addr:postcode": "13350", "addr:state": "NY", "amenity": "post_box", "brand": "United States Postal Service", "brand:wikidata": "Q668687", "collection_times": "Mo-Fr 17:00; Sa 14:30", "name": "USPS COLLECTION BOX - BLUE BOX", "note": "ON 12/24 AND 12/31, THIS BOX MAY BE COLLECTED AS EARLY AS 12 NOON.", "nsi_id": "unitedstatespostalservice-a77078", "operator": "United States Postal Service", "operator:short": "USPS", "operator:type": "public", "operator:wikidata": "Q668687", "ref": "1335000001"}, "type": "Feature"}
{"dataset_attributes": {"@spider": "usps_collection_boxes", "spider:collection_time": "2024-01-01T08:25:44.650502"}, "geometry": {"coordinates": [-74.9880801863, 43.0258218493], "type": "Point"}, "id": "Zn_mrfaxSre5q8SJk1Jces8Wyzo=", "properties": {"@spider": "usps_collection_boxes", "addr:city": "HERKIMER", "addr:country": "US", "addr:full": "135 PARK AVE", "addr:postcode": "13350", "addr:state": "NY", "amenity": "post_box", "brand": "United States Postal Service", "brand:wikidata": "Q668687", "collection_times": "Mo-Fr 17:00; Sa 14:30", "name": "USPS COLLECTION BOX - BLUE BOX", "note": "ON 12/24 AND 12/31, THIS BOX MAY BE COLLECTED AS EARLY AS 12 NOON.", "nsi_id": "unitedstatespostalservice-a77078", "operator": "United States Postal Service", "operator:short": "USPS", "operator:type": "public", "operator:wikidata": "Q668687", "ref": "1335000002"}, "type": "Feature"}
{"dataset_attributes": {"@spider": "usps_collection_boxes", "spider:collection_time": "2024-01-01T08:25:44.650502"}, "geometry": {"coordinates": [-74.9880801863, 43.0258218493], "type": "Point"}, "id": "BGId9-5xVy7tpJfd7P4_XimTBJQ=", "properties": {"@spider": "usps_collection_boxes", "addr:city": "HERKIMER", "addr:country": "US", "addr:full": "135 PARK AVE", "addr:postcode": "13350", "addr:state": "NY", "amenity": "post_box", "brand": "United States Postal Service", "brand:wikidata": "Q668687", "collection_times": "Mo-Fr 17:00; Sa 14:30", "name": "USPS COLLECTION BOX - BLUE BOX", "note": "ON 12/24 AND 12/31, THIS BOX MAY BE COLLECTED AS EARLY AS 12 NOON.", "nsi_id": "unitedstatespostalservice-a77078", "operator": "United States Postal Service", "operator:short": "USPS", "operator:type": "public", "operator:wikidata": "Q668687", "ref": "1335000003"}, "type": "Feature"}
{"dataset_attributes": {"@spider": "usps_collection_boxes", "spider:collection_time": "2024-01-01T08:25:44.650502"}, "geometry": {"coordinates": [-74.945235886, 43.026613945], "type": "Point"}, "id": "HY6RinEW3IBdnUjm7yg3Qps203U=", "properties": {"@spider": "usps_collection_boxes", "addr:city": "HERKIMER", "addr:country": "US", "addr:full": "5651 STATE ROUTE 5", "addr:postcode": "13350", "addr:state": "NY", "amenity": "post_box", "brand": "United States Postal Service", "brand:wikidata": "Q668687", "collection_times": "Mo-Fr 12:30", "name": "USPS COLLECTION BOX - BLUE BOX", "note": "ON 12/24 AND 12/31, THIS BOX MAY BE COLLECTED AS EARLY AS 12 NOON.", "nsi_id": "unitedstatespostalservice-a77078", "operator": "United States Postal Service", "operator:short": "USPS", "operator:type": "public", "operator:wikidata": "Q668687", "ref": "1335000025"}, "type": "Feature"}
{"dataset_attributes": {"@spider": "usps_collection_boxes", "spider:collection_time": "2024-01-01T08:25:44.650502"}, "geometry": {"coordinates": [-74.987594, 43.026362], "type": "Point"}, "id": "_RwC5C3sqFaRxOgk9WLfJJZe-xk=", "properties": {"@spider": "usps_collection_boxes", "addr:city": "HERKIMER", "addr:country": "US", "addr:full": "135 PARK AVE", "addr:postcode": "13350", "addr:state": "NY", "amenity": "post_box", "brand": "United States Postal Service", "brand:wikidata": "Q668687", "collection_times": "Mo-Fr 17:00; Sa 15:30", "name": "USPS COLLECTION BOX - PO LOBBY", "note": "ON 12/24 AND 12/31, THIS BOX MAY BE COLLECTED AS EARLY AS 12 NOON.", "nsi_id": "unitedstatespostalservice-a77078", "operator": "United States Postal Service", "operator:short": "USPS", "operator:type": "public", "operator:wikidata": "Q668687", "ref": "1335000031"}, "type": "Feature"}
{"dataset_attributes": {"@spider": "usps_collection_boxes", "spider:collection_time": "2024-01-01T08:25:44.650502"}, "geometry": {"coordinates": [-74.9814315, 43.029354], "type": "Point"}, "id": "dnokPPdUO-LyEtPuYfO6edO9iSc=", "properties": {"@spider": "usps_collection_boxes", "addr:city": "HERKIMER", "addr:country": "US", "addr:full": "401 E ALBANY ST", "addr:postcode": "13350", "addr:state": "NY", "amenity": "post_box", "brand": "United States Postal Service", "brand:wikidata": "Q668687", "collection_times": "Mo-Sa 09:45", "name": "USPS COLLECTION BOX - BLUE BOX", "nsi_id": "unitedstatespostalservice-a77078", "operator": "United States Postal Service", "operator:short": "USPS", "operator:type": "public", "operator:wikidata": "Q668687", "ref": "1335000032"}, "type": "Feature"}
{"dataset_attributes": {"@spider": "usps_collection_boxes", "spider:collection_time": "2024-01-01T08:25:44.650502"}, "geometry": {"coordinates": [-74.987367, 43.029063], "type": "Point"}, "id": "D7lxmartjMKfEXaS5yw33yBwlUg=", "properties": {"@spider": "usps_collection_boxes", "addr:city": "HERKIMER", "addr:country": "US", "addr:full": "301 N WASHINGTON ST", "addr:postcode": "13350", "addr:state": "NY", "amenity": "post_box", "brand": "United States Postal Service", "brand:wikidata": "Q668687", "collection_times": "Mo-Fr 15:00; Sa 09:00", "name": "USPS COLLECTION BOX - BLUE BOX", "note": "ON 12/24 AND 12/31, THIS BOX MAY BE COLLECTED AS EARLY AS 12 NOON.", "nsi_id": "unitedstatespostalservice-a77078", "operator": "United States Postal Service", "operator:short": "USPS", "operator:type": "public", "operator:wikidata": "Q668687", "ref": "1335000033"}, "type": "Feature"}
{"dataset_attributes": {"@spider": "usps_collection_boxes", "spider:collection_time": "2024-01-01T08:25:44.650502"}, "geometry": {"coordinates": [-74.988258985, 43.026004081], "type": "Point"}, "id": "H-G3duZqa50Wr9sknUPIbUhwpKs=", "properties": {"@spider": "usps_collection_boxes", "addr:city": "HERKIMER", "addr:country": "US", "addr:full": "135 PARK AVE", "addr:postcode": "13350", "addr:state": "NY", "amenity": "post_box", "brand": "United States Postal Service", "brand:wikidata": "Q668687", "collection_times": "Mo-Fr 17:00; Sa 12:00", "name": "USPS COLLECTION BOX - PO LOBBY", "note": "ON 12/24 AND 12/31, THIS BOX MAY BE COLLECTED AS EARLY AS 12 NOON.", "nsi_id": "unitedstatespostalservice-a77078", "operator": "United States Postal Service", "operator:short": "USPS", "operator:type": "public", "operator:wikidata": "Q668687", "ref": "1335000037"}, "type": "Feature"}
{"dataset_attributes": {"@spider": "usps_collection_boxes", "spider:collection_time": "2024-01-01T08:25:44.650502"}, "geometry": {"coordinates": [-75.113333, 43.312321], "type": "Point"}, "id": "cMuZHHvLCZ8bhHRLyrvHiD0axPc=", "properties": {"@spider": "usps_collection_boxes", "addr:city": "HINCKLEY", "addr:country": "US", "addr:full": "7201 MAIN ST", "addr:postcode": "13352", "addr:state": "NY", "amenity": "post_box", "brand": "United States Postal Service", "brand:wikidata": "Q668687", "collection_times": "Mo-Fr 12:00; Sa 11:30", "name": "USPS COLLECTION BOX - BLUE BOX", "nsi_id": "unitedstatespostalservice-a77078", "operator": "United States Postal Service", "operator:short": "USPS", "operator:type": "public", "operator:wikidata": "Q668687", "ref": "1335200001"}, "type": "Feature"}
{"dataset_attributes": {"@spider": "usps_collection_boxes", "spider:collection_time": "2024-01-01T08:25:44.650502"}, "geometry": {"coordinates": [-75.113459, 43.312303], "type": "Point"}, "id": "cxNmKkAhb58-akiZQ5gRSpFJvFE=", "properties": {"@spider": "usps_collection_boxes", "addr:city": "HINCKLEY", "addr:country": "US", "addr:full": "7201 MAIN ST", "addr:postcode": "13352", "addr:state": "NY", "amenity": "post_box", "brand": "United States Postal Service", "brand:wikidata": "Q668687", "collection_times": "Mo-Fr 12:00; Sa 11:30", "name": "USPS COLLECTION BOX - PO LOBBY", "nsi_id": "unitedstatespostalservice-a77078", "operator": "United States Postal Service", "operator:short": "USPS", "operator:type": "public", "operator:wikidata": "Q668687", "ref": "1335200003"}, "type": "Feature"}
{"dataset_attributes": {"@spider": "usps_collection_boxes", "spider:collection_time": "2024-01-01T08:25:44.650502"}, "geometry": {"coordinates": [-75.113419437, 43.312320449], "type": "Point"}, "id": "VSXMiQBIwbb5OKfO-ZHGpKTMMek=", "properties": {"@spider": "usps_collection_boxes", "addr:city": "HINCKLEY", "addr:country": "US", "addr:full": "7201 MAIN ST", "addr:postcode": "13352", "addr:state": "NY", "amenity": "post_box", "brand": "United States Postal Service", "brand:wikidata": "Q668687", "collection_times": "Mo-Fr 12:00; Sa 11:30", "name": "USPS COLLECTION BOX - PO LOBBY", "nsi_id": "unitedstatespostalservice-a77078", "operator": "United States Postal Service", "operator:short": "USPS", "operator:type": "public", "operator:wikidata": "Q668687", "ref": "1335200004"}, "type": "Feature"}
{"dataset_attributes": {"@spider": "usps_collection_boxes", "spider:collection_time": "2024-01-01T08:25:44.650502"}, "geometry": {"coordinates": [-74.727140337, 43.4712084312], "type": "Point"}, "id": "Z7gqjJs88QVz45WCEvvwAVNqmlA=", "properties": {"@spider": "usps_collection_boxes", "addr:city": "HOFFMEISTER", "addr:country": "US", "addr:full": "1 ROUTE 8", "addr:postcode": "13353", "addr:state": "NY", "amenity": "post_box", "brand": "United States Postal Service", "brand:wikidata": "Q668687", "collection_times": "Mo-Sa 13:00", "name": "USPS COLLECTION BOX - BLUE BOX", "note": "ON 12/24 AND 12/31, THIS BOX MAY BE COLLECTED AS EARLY AS 12 NOON.", "nsi_id": "unitedstatespostalservice-a77078", "operator": "United States Postal Service", "operator:short": "USPS", "operator:type": "public", "operator:wikidata": "Q668687", "ref": "1335300001"}, "type": "Feature"}
{"dataset_attributes": {"@spider": "usps_collection_boxes", "spider:collection_time": "2024-01-01T08:25:44.650502"}, "geometry": {"coordinates": [-74.727140337, 43.4712084312], "type": "Point"}, "id": "5I-2LiwcBtRFm-fxR2E268zRulc=", "properties": {"@spider": "usps_collection_boxes", "addr:city": "HOFFMEISTER", "addr:country": "US", "addr:full": "1 ROUTE 8", "addr:postcode": "13353", "addr:state": "NY", "amenity": "post_box", "brand": "United States Postal Service", "brand:wikidata": "Q668687", "collection_times": "Mo-Sa 13:00", "name": "USPS COLLECTION BOX - PO LOBBY", "note": "ON 12/24 AND 12/31, THIS BOX MAY BE COLLECTED AS EARLY AS 12 NOON.", "nsi_id": "unitedstatespostalservice-a77078", "operator": "United States Postal Service", "operator:short": "USPS", "operator:type": "public", "operator:wikidata": "Q668687", "ref": "1335300002"}, "type": "Feature"}
{"dataset_attributes": {"@spider": "usps_collection_boxes", "spider:collection_time": "2024-01-01T08:25:44.650502"}, "geometry": {"coordinates": [-74.739528776, 43.393492987], "type": "Point"}, "id": "P28TFC3g5jd4F3umVsPCaWaMCn0=", "properties": {"@spider": "usps_collection_boxes", "addr:city": "HOFFMEISTER", "addr:country": "US", "addr:full": "0 STATE ROUTE 8", "addr:postcode": "13353", "addr:state": "NY", "amenity": "post_box", "brand": "United States Postal Service", "brand:wikidata": "Q668687", "collection_times": "Mo-Sa 13:00", "name": "USPS COLLECTION BOX - PO LOBBY", "note": "ON 12/24 AND 12/31, THIS BOX MAY BE COLLECTED AS EARLY AS 12 NOON.", "nsi_id": "unitedstatespostalservice-a77078", "operator": "United States Postal Service", "operator:short": "USPS", "operator:type": "public", "operator:wikidata": "Q668687", "ref": "1335300003"}, "type": "Feature"}
{"dataset_attributes": {"@spider": "usps_collection_boxes", "spider:collection_time": "2024-01-01T08:25:44.650502"}, "geometry": {"coordinates": [-75.255275, 43.242712], "type": "Point"}, "id": "hq712m5oir0K_qXOhQMMRDTcLIA=", "properties": {"@spider": "usps_collection_boxes", "addr:city": "HOLLAND PATENT", "addr:country": "US", "addr:full": "9565 MAIN ST", "addr:postcode": "13354", "addr:state": "NY", "amenity": "post_box", "brand": "United States Postal Service", "brand:wikidata": "Q668687", "collection_times": "Mo-Fr 16:15; Sa 11:15", "name": "USPS COLLECTION BOX - BLUE BOX", "note": "ON 12/24 AND 12/31, THIS BOX MAY BE COLLECTED AS EARLY AS 12 NOON.", "nsi_id": "unitedstatespostalservice-a77078", "operator": "United States Postal Service", "operator:short": "USPS", "operator:type": "public", "operator:wikidata": "Q668687", "ref": "1335400001"}, "type": "Feature"}
{"dataset_attributes": {"@spider": "usps_collection_boxes", "spider:collection_time": "2024-01-01T08:25:44.650502"}, "geometry": {"coordinates": [-75.255261, 43.242686], "type": "Point"}, "id": "hyZRoqf1W1lkfDzEIWddKqnl2u8=", "properties": {"@spider": "usps_collection_boxes", "addr:city": "HOLLAND PATENT", "addr:country": "US", "addr:full": "9565 MAIN ST", "addr:postcode": "13354", "addr:state": "NY", "amenity": "post_box", "brand": "United States Postal Service", "brand:wikidata": "Q668687", "collection_times": "Mo-Fr 16:30; Sa 11:15", "name": "USPS COLLECTION BOX - PO LOBBY", "note": "ON 12/24 AND 12/31, THIS BOX MAY BE COLLECTED AS EARLY AS 12 NOON.", "nsi_id": "unitedstatespostalservice-a77078", "operator": "United States Postal Service", "operator:short": "USPS", "operator:type": "public", "operator:wikidata": "Q668687", "ref": "1335400002"}, "type": "Feature"}
{"dataset_attributes": {"@spider": "usps_collection_boxes", "spider:collection_time": "2024-01-01T08:25:44.650502"}, "geometry": {"coordinates": [-75.255291201, 43.242744605], "type": "Point"}, "id": "h_LGBW9j5KgJB3iV4fIyL9jGBZA=", "properties": {"@spider": "usps_collection_boxes", "addr:city": "HOLLAND PATENT", "addr:country": "US", "addr:full": "9565 MAIN ST", "addr:postcode": "13354", "addr:state": "NY", "amenity": "post_box", "brand": "United States Postal Service", "brand:wikidata": "Q668687", "collection_times": "Mo-Fr 16:30; Sa 11:00", "name": "USPS COLLECTION BOX - PO LOBBY", "note": "ON 12/24 AND 12/31, THIS BOX MAY BE COLLECTED AS EARLY AS 12 NOON.", "nsi_id": "unitedstatespostalservice-a77078", "operator": "United States Postal Service", "operator:short": "USPS", "operator:type": "public", "operator:wikidata": "Q668687", "ref": "1335400004"}, "type": "Feature"}
{"dataset_attributes": {"@spider": "usps_collection_boxes", "spider:collection_time": "2024-01-01T08:25:44.650502"}, "geometry": {"coordinates": [-75.463472, 42.817699], "type": "Point"}, "id": "_LukDv8wZJprYP4mcbFicWgCYmU=", "properties": {"@spider": "usps_collection_boxes", "addr:city": "HUBBARDSVILLE", "addr:country": "US", "addr:full": "2434 POOLVILLE RD", "addr:postcode": "13355", "addr:state": "NY", "amenity": "post_box", "brand": "United States Postal Service", "brand:wikidata": "Q668687", "collection_times": "Mo-Fr 12:00; Sa 10:45", "name": "USPS COLLECTION BOX - BLUE BOX", "nsi_id": "unitedstatespostalservice-a77078", "operator": "United States Postal Service", "operator:short": "USPS", "operator:type": "public", "operator:wikidata": "Q668687", "ref": "1335500001"}, "type": "Feature"}
{"dataset_attributes": {"@spider": "usps_collection_boxes", "spider:collection_time": "2024-01-01T08:25:44.650502"}, "geometry": {"coordinates": [-75.463411, 42.817781], "type": "Point"}, "id": "8NS5NkN6WGNWz0FBGV_RDEiepJs=", "properties": {"@spider": "usps_collection_boxes", "addr:city": "HUBBARDSVILLE", "addr:country": "US", "addr:full": "2434 POOLVILLE RD", "addr:postcode": "13355", "addr:state": "NY", "amenity": "post_box", "brand": "United States Postal Service", "brand:wikidata": "Q668687", "collection_times": "Mo-Fr 12:00; Sa 11:00", "name": "USPS COLLECTION BOX - PO LOBBY", "nsi_id": "unitedstatespostalservice-a77078", "operator": "United States Postal Service", "operator:short": "USPS", "operator:type": "public", "operator:wikidata": "Q668687", "ref": "1335500002"}, "type": "Feature"}
{"dataset_attributes": {"@spider": "usps_collection_boxes", "spider:collection_time": "2024-01-01T08:25:44.650502"}, "geometry": {"coordinates": [-75.463866317, 42.817412757], "type": "Point"}, "id": "DQZAuNnH8nXlxQwdvWG6_AZB4Jw=", "properties": {"@spider": "usps_collection_boxes", "addr:city": "HUBBARDSVILLE", "addr:country": "US", "addr:full": "2434 POOLVILLE RD", "addr:postcode": "13355", "addr:state": "NY", "amenity": "post_box", "brand": "United States Postal Service", "brand:wikidata": "Q668687", "collection_times": "Mo-Fr 12:00; Sa 11:00", "name": "USPS COLLECTION BOX - PO LOBBY", "nsi_id": "unitedstatespostalservice-a77078", "operator": "United States Postal Service", "operator:short": "USPS", "operator:type": "public", "operator:wikidata": "Q668687", "ref": "1335500004"}, "type": "Feature"}
{"dataset_attributes": {"@spider": "usps_collection_boxes", "spider:collection_time": "2024-01-01T08:25:44.650502"}, "geometry": {"coordinates": [-75.037396, 43.014596], "type": "Point"}, "id": "Xw6rjZlCg3ASu4yVJ4ae95rjS2w=", "properties": {"@spider": "usps_collection_boxes", "addr:city": "ILION", "addr:country": "US", "addr:full": "48 1ST ST", "addr:postcode": "13357", "addr:state": "NY", "amenity": "post_box", "brand": "United States Postal Service", "brand:wikidata": "Q668687", "collection_times": "Mo-Fr 16:30; Sa 12:00", "name": "USPS COLLECTION BOX - BLUE BOX", "note": "ON 12/24 AND 12/31, THIS BOX MAY BE COLLECTED AS EARLY AS 12 NOON.", "nsi_id": "unitedstatespostalservice-a77078", "operator": "United States Postal Service", "operator:short": "USPS", "operator:type": "public", "operator:wikidata": "Q668687", "ref": "1335700026"}, "type": "Feature"}
{"dataset_attributes": {"@spider": "usps_collection_boxes", "spider:collection_time": "2024-01-01T08:25:44.650502"}, "geometry": {"coordinates": [-75.037482, 43.014608], "type": "Point"}, "id": "crKBOhcP2nuN7RdaMyCvRsRAeCc=", "properties": {"@spider": "usps_collection_boxes", "addr:city": "ILION", "addr:country": "US", "addr:full": "48 1ST ST", "addr:postcode": "13357", "addr:state": "NY", "amenity": "post_box", "brand": "United States Postal Service", "brand:wikidata": "Q668687", "collection_times": "Mo-Fr 16:45; Sa 12:00", "name": "USPS COLLECTION BOX - PO LOBBY", "note": "ON 12/24 AND 12/31, THIS BOX MAY BE COLLECTED AS EARLY AS 12 NOON.", "nsi_id": "unitedstatespostalservice-a77078", "operator": "United States Postal Service", "operator:short": "USPS", "operator:type": "public", "operator:wikidata": "Q668687", "ref": "1335700028"}, "type": "Feature"}
{"dataset_attributes": {"@spider": "usps_collection_boxes", "spider:collection_time": "2024-01-01T08:25:44.650502"}, "geometry": {"coordinates": [-75.037569665, 43.01467774], "type": "Point"}, "id": "ONPdZ73D8BOFXJ5qesXd8o4ZRh8=", "properties": {"@spider": "usps_collection_boxes", "addr:city": "ILION", "addr:country": "US", "addr:full": "48 1ST ST", "addr:postcode": "13357", "addr:state": "NY", "amenity": "post_box", "brand": "United States Postal Service", "brand:wikidata": "Q668687", "collection_times": "Mo-Fr 16:45; Sa 12:00", "name": "USPS COLLECTION BOX - PO LOBBY", "note": "ON 12/24 AND 12/31, THIS BOX MAY BE COLLECTED AS EARLY AS 12 NOON.", "nsi_id": "unitedstatespostalservice-a77078", "operator": "United States Postal Service", "operator:short": "USPS", "operator:type": "public", "operator:wikidata": "Q668687", "ref": "1335700029"}, "type": "Feature"}
{"dataset_attributes": {"@spider": "usps_collection_boxes", "spider:collection_time": "2024-01-01T08:25:44.650502"}, "geometry": {"coordinates": [-74.650371, 43.80972], "type": "Point"}, "id": "6lTjsqVrpvyhk6pdiMez4_sFDmI=", "properties": {"@spider": "usps_collection_boxes", "addr:city": "INLET", "addr:country": "US", "addr:full": "166 N ROUTE 28", "addr:postcode": "13360", "addr:state": "NY", "amenity": "post_box", "brand": "United States Postal Service", "brand:wikidata": "Q668687", "collection_times": "Mo-Fr 16:00; Sa 11:00", "name": "USPS COLLECTION BOX - BLUE BOX", "note": "ON 12/24 AND 12/31, THIS BOX MAY BE COLLECTED AS EARLY AS 12 NOON.", "nsi_id": "unitedstatespostalservice-a77078", "operator": "United States Postal Service", "operator:short": "USPS", "operator:type": "public", "operator:wikidata": "Q668687", "ref": "1336000001"}, "type": "Feature"}
{"dataset_attributes": {"@spider": "usps_collection_boxes", "spider:collection_time": "2024-01-01T08:25:44.650502"}, "geometry": {"coordinates": [-74.650391, 43.809745], "type": "Point"}, "id": "NwZfeZYtiGemFvSySJtj6md7WKE=", "properties": {"@spider": "usps_collection_boxes", "addr:city": "INLET", "addr:country": "US", "addr:full": "166 N ROUTE 28", "addr:postcode": "13360", "addr:state": "NY", "amenity": "post_box", "brand": "United States Postal Service", "brand:wikidata": "Q668687", "collection_times": "Mo-Fr 16:15; Sa 11:00", "name": "USPS COLLECTION BOX - PO LOBBY", "note": "ON 12/24 AND 12/31, THIS BOX MAY BE COLLECTED AS EARLY AS 12 NOON.", "nsi_id": "unitedstatespostalservice-a77078", "operator": "United States Postal Service", "operator:short": "USPS", "operator:type": "public", "operator:wikidata": "Q668687", "ref": "1336000002"}, "type": "Feature"}
{"dataset_attributes": {"@spider": "usps_collection_boxes", "spider:collection_time": "2024-01-01T08:25:44.650502"}, "geometry": {"coordinates": [-74.794510952, 43.751293691], "type": "Point"}, "id": "akDaZKpjUfV3y3kldDyDfOcRRXg=", "properties": {"@spider": "usps_collection_boxes", "addr:city": "INLET", "addr:country": "US", "addr:full": "166 N ROUTE 28", "addr:postcode": "13360", "addr:state": "NY", "amenity": "post_box", "brand": "United States Postal Service", "brand:wikidata": "Q668687", "collection_times": "Mo-Fr 16:15; Sa 11:00", "name": "USPS COLLECTION BOX - PO LOBBY", "note": "ON 12/24 AND 12/31, THIS BOX MAY BE COLLECTED AS EARLY AS 12 NOON.", "nsi_id": "unitedstatespostalservice-a77078", "operator": "United States Postal Service", "operator:short": "USPS", "operator:type": "public", "operator:wikidata": "Q668687", "ref": "1336000004"}, "type": "Feature"}
{"dataset_attributes": {"@spider": "usps_collection_boxes", "spider:collection_time": "2024-01-01T08:25:44.650502"}, "geometry": {"coordinates": [-74.951297811, 42.914963513], "type": "Point"}, "id": "LXGq7CI8b3R2Dya6wXzTXqg1d8M=", "properties": {"@spider": "usps_collection_boxes", "addr:city": "JORDANVILLE", "addr:country": "US", "addr:full": "137 MAIN ST", "addr:postcode": "13361", "addr:state": "NY", "amenity": "post_box", "brand": "United States Postal Service", "brand:wikidata": "Q668687", "collection_times": "Mo-Fr 16:30; Sa 11:30", "name": "USPS COLLECTION BOX - BLUE BOX", "note": "ON 12/24 AND 12/31, THIS BOX MAY BE COLLECTED AS EARLY AS 12 NOON.", "nsi_id": "unitedstatespostalservice-a77078", "operator": "United States Postal Service", "operator:short": "USPS", "operator:type": "public", "operator:wikidata": "Q668687", "ref": "1336100001"}, "type": "Feature"}
{"dataset_attributes": {"@spider": "usps_collection_boxes", "spider:collection_time": "2024-01-01T08:25:44.650502"}, "geometry": {"coordinates": [-74.95137, 42.914883], "type": "Point"}, "id": "SpIq_AGM-QBdlHvXzZhzwoYvuSA=", "properties": {"@spider": "usps_collection_boxes", "addr:city": "JORDANVILLE", "addr:country": "US", "addr:full": "137 MAIN ST", "addr:postcode": "13361", "addr:state": "NY", "amenity": "post_box", "brand": "United States Postal Service", "brand:wikidata": "Q668687", "collection_times": "Mo-Fr 16:30; Sa 11:30", "name": "USPS COLLECTION BOX - PO LOBBY", "note": "ON 12/24 AND 12/31, THIS BOX MAY BE COLLECTED AS EARLY AS 12 NOON.", "nsi_id": "unitedstatespostalservice-a77078", "operator": "United States Postal Service", "operator:short": "USPS", "operator:type": "public", "operator:wikidata": "Q668687", "ref": "1336100002"}, "type": "Feature"}
{"dataset_attributes": {"@spider": "usps_collection_boxes", "spider:collection_time": "2024-01-01T08:25:44.650502"}, "geometry": {"coordinates": [-74.951297606, 42.914962989], "type": "Point"}, "id": "S_VrivBdXEVtninPciT-yffctn8=", "properties": {"@spider": "usps_collection_boxes", "addr:city": "JORDANVILLE", "addr:country": "US", "addr:full": "137 MAIN ST", "addr:postcode": "13361", "addr:state": "NY", "amenity": "post_box", "brand": "United States Postal Service", "brand:wikidata": "Q668687", "collection_times": "Mo-Fr 17:00; Sa 11:45", "name": "USPS COLLECTION BOX - PO LOBBY", "note": "ON 12/24 AND 12/31, THIS BOX MAY BE COLLECTED AS EARLY AS 12 NOON.", "nsi_id": "unitedstatespostalservice-a77078", "operator": "United States Postal Service", "operator:short": "USPS", "operator:type": "public", "operator:wikidata": "Q668687", "ref": "1336100003"}, "type": "Feature"}
{"dataset_attributes": {"@spider": "usps_collection_boxes", "spider:collection_time": "2024-01-01T08:25:44.650502"}, "geometry": {"coordinates": [-75.520331, 43.302393], "type": "Point"}, "id": "sgFLEdBTlYL-Qqh3yLPxPv3CgY4=", "properties": {"@spider": "usps_collection_boxes", "addr:city": "LEE CENTER", "addr:country": "US", "addr:full": "5555 SCHOOL ST", "addr:postcode": "13363", "addr:state": "NY", "amenity": "post_box", "brand": "United States Postal Service", "brand:wikidata": "Q668687", "collection_times": "Mo-Fr 15:30; Sa 11:00", "name": "USPS COLLECTION BOX - BLUE BOX", "note": "ON 12/24 AND 12/31, THIS BOX MAY BE COLLECTED AS EARLY AS 12 NOON.", "nsi_id": "unitedstatespostalservice-a77078", "operator": "United States Postal Service", "operator:short": "USPS", "operator:type": "public", "operator:wikidata": "Q668687", "ref": "1336300001"}, "type": "Feature"}
{"dataset_attributes": {"@spider": "usps_collection_boxes", "spider:collection_time": "2024-01-01T08:25:44.650502"}, "geometry": {"coordinates": [-75.520361, 43.302367], "type": "Point"}, "id": "Hz_9DwEyDpbrlhfboaCQx7-YB6o=", "properties": {"@spider": "usps_collection_boxes", "addr:city": "LEE CENTER", "addr:country": "US", "addr:full": "5555 SCHOOL ST", "addr:postcode": "13363", "addr:state": "NY", "amenity": "post_box", "brand": "United States Postal Service", "brand:wikidata": "Q668687", "collection_times": "Mo-Fr 16:20; Sa 11:00", "name": "USPS COLLECTION BOX - PO LOBBY", "note": "ON 12/24 AND 12/31, THIS BOX MAY BE COLLECTED AS EARLY AS 12 NOON.", "nsi_id": "unitedstatespostalservice-a77078", "operator": "United States Postal Service", "operator:short": "USPS", "operator:type": "public", "operator:wikidata": "Q668687", "ref": "1336300004"}, "type": "Feature"}
{"dataset_attributes": {"@spider": "usps_collection_boxes", "spider:collection_time": "2024-01-01T08:25:44.650502"}, "geometry": {"coordinates": [-75.52034356, 43.302441062], "type": "Point"}, "id": "nCVaNezpTiLvoWBa7WxgppV6nDI=", "properties": {"@spider": "usps_collection_boxes", "addr:city": "LEE CENTER", "addr:country": "US", "addr:full": "5555 SCHOOL ST", "addr:postcode": "13363", "addr:state": "NY", "amenity": "post_box", "brand": "United States Postal Service", "brand:wikidata": "Q668687", "collection_times": "Mo-Fr 16:45; Sa 11:00", "name": "USPS COLLECTION BOX - PO LOBBY", "note": "ON 12/24 AND 12/31, THIS BOX MAY BE COLLECTED AS EARLY AS 12 NOON.", "nsi_id": "unitedstatespostalservice-a77078", "operator": "United States Postal Service", "operator:short": "USPS", "operator:type": "public", "operator:wikidata": "Q668687", "ref": "1336300005"}, "type": "Feature"}
{"dataset_attributes": {"@spider": "usps_collection_boxes", "spider:collection_time": "2024-01-01T08:25:44.650502"}, "geometry": {"coordinates": [-75.252697, 42.809566], "type": "Point"}, "id": "BocNAZt0TkO4eYqhzR6NjiK9fdg=", "properties": {"@spider": "usps_collection_boxes", "addr:city": "LEONARDSVILLE", "addr:country": "US", "addr:full": "2008 STATE ROUTE 8", "addr:postcode": "13364", "addr:state": "NY", "amenity": "post_box", "brand": "United States Postal Service", "brand:wikidata": "Q668687", "collection_times": "Mo-Fr 16:30; Sa 10:00", "name": "USPS COLLECTION BOX - BLUE BOX", "note": "ON 12/24 AND 12/31, THIS BOX MAY BE COLLECTED AS EARLY AS 12 NOON.", "nsi_id": "unitedstatespostalservice-a77078", "operator": "United States Postal Service", "operator:short": "USPS", "operator:type": "public", "operator:wikidata": "Q668687", "ref": "1336400001"}, "type": "Feature"}
{"dataset_attributes": {"@spider": "usps_collection_boxes", "spider:collection_time": "2024-01-01T08:25:44.650502"}, "geometry": {"coordinates": [-75.25273, 42.809501], "type": "Point"}, "id": "6TrVPKbugdpJHGke4D65iPPvZuo=", "properties": {"@spider": "usps_collection_boxes", "addr:city": "LEONARDSVILLE", "addr:country": "US", "addr:full": "2008 STATE ROUTE 8", "addr:postcode": "13364", "addr:state": "NY", "amenity": "post_box", "brand": "United States Postal Service", "brand:wikidata": "Q668687", "collection_times": "Mo-Fr 16:45; Sa 10:15", "name": "USPS COLLECTION BOX - PO LOBBY", "note": "ON 12/24 AND 12/31, THIS BOX MAY BE COLLECTED AS EARLY AS 12 NOON.", "nsi_id": "unitedstatespostalservice-a77078", "operator": "United States Postal Service", "operator:short": "USPS", "operator:type": "public", "operator:wikidata": "Q668687", "ref": "1336400002"}, "type": "Feature"}
{"dataset_attributes": {"@spider": "usps_collection_boxes", "spider:collection_time": "2024-01-01T08:25:44.650502"}, "geometry": {"coordinates": [-75.252695152, 42.809519179], "type": "Point"}, "id": "E7pOpGUl9jnmynacCJuKqXXO4-s=", "properties": {"@spider": "usps_collection_boxes", "addr:city": "LEONARDSVILLE", "addr:country": "US", "addr:full": "2008 STATE ROUTE 8", "addr:postcode": "13364", "addr:state": "NY", "amenity": "post_box", "brand": "United States Postal Service", "brand:wikidata": "Q668687", "collection_times": "Mo-Fr 16:45; Sa 10:15", "name": "USPS COLLECTION BOX - PO LOBBY", "note": "ON 12/24 AND 12/31, THIS BOX MAY BE COLLECTED AS EARLY AS 12 NOON.", "nsi_id": "unitedstatespostalservice-a77078", "operator": "United States Postal Service", "operator:short": "USPS", "operator:type": "public", "operator:wikidata": "Q668687", "ref": "1336400003"}, "type": "Feature"}
{"dataset_attributes": {"@spider": "usps_collection_boxes", "spider:collection_time": "2024-01-01T08:25:44.650502"}, "geometry": {"coordinates": [-74.860601, 43.04282], "type": "Point"}, "id": "0Di2QkP7mDMp6wuuUOPD5t3pcys=", "properties": {"@spider": "usps_collection_boxes", "addr:city": "LITTLE FALLS", "addr:country": "US", "addr:full": "25 W MAIN ST", "addr:postcode": "13365", "addr:state": "NY", "amenity": "post_box", "brand": "United States Postal Service", "brand:wikidata": "Q668687", "collection_times": "Mo-Fr 17:00; Sa 15:00", "name": "USPS COLLECTION BOX - BLUE BOX", "note": "ON 12/24 AND 12/31, THIS BOX MAY BE COLLECTED AS EARLY AS 12 NOON.", "nsi_id": "unitedstatespostalservice-a77078", "operator": "United States Postal Service", "operator:short": "USPS", "operator:type": "public", "operator:wikidata": "Q668687", "ref": "1336500002"}, "type": "Feature"}
{"dataset_attributes": {"@spider": "usps_collection_boxes", "spider:collection_time": "2024-01-01T08:25:44.650502"}, "geometry": {"coordinates": [-74.8557939, 43.044651], "type": "Point"}, "id": "PJHO_5yQYNETzfyECZN2JvFoBhk=", "properties": {"@spider": "usps_collection_boxes", "addr:city": "LITTLE FALLS", "addr:country": "US", "addr:full": "659 E MAIN ST", "addr:postcode": "13365", "addr:state": "NY", "amenity": "post_box", "brand": "United States Postal Service", "brand:wikidata": "Q668687", "collection_times": "Mo-Sa 09:00", "name": "USPS COLLECTION BOX - BLUE BOX", "nsi_id": "unitedstatespostalservice-a77078", "operator": "United States Postal Service", "operator:short": "USPS", "operator:type": "public", "operator:wikidata": "Q668687", "ref": "1336500011"}, "type": "Feature"}
{"dataset_attributes": {"@spider": "usps_collection_boxes", "spider:collection_time": "2024-01-01T08:25:44.650502"}, "geometry": {"coordinates": [-74.860601, 43.04282], "type": "Point"}, "id": "Tb25o_QA46CyfxE3kTXETRMa6mQ=", "properties": {"@spider": "usps_collection_boxes", "addr:city": "LITTLE FALLS", "addr:country": "US", "addr:full": "25 W MAIN ST", "addr:postcode": "13365", "addr:state": "NY", "amenity": "post_box", "brand": "United States Postal Service", "brand:wikidata": "Q668687", "collection_times": "Mo-Fr 16:30; Sa 15:00", "name": "USPS COLLECTION BOX - PO LOBBY", "note": "ON 12/24 AND 12/31, THIS BOX MAY BE COLLECTED AS EARLY AS 12 NOON.", "nsi_id": "unitedstatespostalservice-a77078", "operator": "United States Postal Service", "operator:short": "USPS", "operator:type": "public", "operator:wikidata": "Q668687", "ref": "1336500039"}, "type": "Feature"}
{"dataset_attributes": {"@spider": "usps_collection_boxes", "spider:collection_time": "2024-01-01T08:25:44.650502"}, "geometry": {"coordinates": [-74.860601, 43.04282], "type": "Point"}, "id": "AsieejdxFSv1RsfRSc8wnn90JXM=", "properties": {"@spider": "usps_collection_boxes", "addr:city": "LITTLE FALLS", "addr:country": "US", "addr:full": "25 W MAIN ST", "addr:postcode": "13365", "addr:state": "NY", "amenity": "post_box", "brand": "United States Postal Service", "brand:wikidata": "Q668687", "collection_times": "Mo-Fr 16:30; Sa 15:00", "name": "USPS COLLECTION BOX - PO LOBBY", "note": "ON 12/24 AND 12/31, THIS BOX MAY BE COLLECTED AS EARLY AS 12 NOON.", "nsi_id": "unitedstatespostalservice-a77078", "operator": "United States Postal Service", "operator:short": "USPS", "operator:type": "public", "operator:wikidata": "Q668687", "ref": "1336500043"}, "type": "Feature"}
{"dataset_attributes": {"@spider": "usps_collection_boxes", "spider:collection_time": "2024-01-01T08:25:44.650502"}, "geometry": {"coordinates": [-74.860779301, 43.042689399], "type": "Point"}, "id": "VHH76l09F7_zP-uDUyejXasDLkE=", "properties": {"@spider": "usps_collection_boxes", "addr:city": "LITTLE FALLS", "addr:country": "US", "addr:full": "25 W MAIN ST", "addr:postcode": "13365", "addr:state": "NY", "amenity": "post_box", "brand": "United States Postal Service", "brand:wikidata": "Q668687", "collection_times": "Mo-Fr 16:30; Sa 12:00", "name": "USPS COLLECTION BOX - PO LOBBY", "note": "ON 12/24 AND 12/31, THIS BOX MAY BE COLLECTED AS EARLY AS 12 NOON.", "nsi_id": "unitedstatespostalservice-a77078", "operator": "United States Postal Service", "operator:short": "USPS", "operator:type": "public", "operator:wikidata": "Q668687", "ref": "1336500046"}, "type": "Feature"}
{"dataset_attributes": {"@spider": "usps_collection_boxes", "spider:collection_time": "2024-01-01T08:25:44.650502"}, "geometry": {"coordinates": [-75.4935576, 43.78812], "type": "Point"}, "id": "QMKfhEBsp_tcYPap-yBzcqDHCgo=", "properties": {"@spider": "usps_collection_boxes", "addr:city": "LOWVILLE", "addr:country": "US", "addr:full": "7651 N STATE ST", "addr:postcode": "13367", "addr:state": "NY", "amenity": "post_box", "brand": "United States Postal Service", "brand:wikidata": "Q668687", "collection_times": "Mo-Fr 17:00; Sa 15:15", "name": "USPS COLLECTION BOX - BLUE BOX", "note": "ON 12/24 AND 12/31, THIS BOX MAY BE COLLECTED AS EARLY AS 12 NOON.", "nsi_id": "unitedstatespostalservice-a77078", "operator": "United States Postal Service", "operator:short": "USPS", "operator:type": "public", "operator:wikidata": "Q668687", "ref": "1336700001"}, "type": "Feature"}
{"dataset_attributes": {"@spider": "usps_collection_boxes", "spider:collection_time": "2024-01-01T08:25:44.650502"}, "geometry": {"coordinates": [-75.4923489, 43.786705], "type": "Point"}, "id": "RFn7oCRjbMUXI_9FmDlznfoJLW8=", "properties": {"@spider": "usps_collection_boxes", "addr:city": "LOWVILLE", "addr:country": "US", "addr:full": "7605 N STATE ST", "addr:postcode": "13367", "addr:state": "NY", "amenity": "post_box", "brand": "United States Postal Service", "brand:wikidata": "Q668687", "collection_times": "Mo-Fr 16:00; Sa 10:00", "name": "USPS COLLECTION BOX - BLUE BOX", "note": "ON 12/24 AND 12/31, THIS BOX MAY BE COLLECTED AS EARLY AS 12 NOON.", "nsi_id": "unitedstatespostalservice-a77078", "operator": "United States Postal Service", "operator:short": "USPS", "operator:type": "public", "operator:wikidata": "Q668687", "ref": "1336700002"}, "type": "Feature"}
{"dataset_attributes": {"@spider": "usps_collection_boxes", "spider:collection_time": "2024-01-01T08:25:44.650502"}, "geometry": {"coordinates": [-75.4872674, 43.778303], "type": "Point"}, "id": "HmtbQ8UbwD1J9Va65J2pqlTMldA=", "properties": {"@spider": "usps_collection_boxes", "addr:city": "LOWVILLE", "addr:country": "US", "addr:full": "7395 TURIN RD", "addr:postcode": "13367", "addr:state": "NY", "amenity": "post_box", "brand": "United States Postal Service", "brand:wikidata": "Q668687", "collection_times": "Mo-Sa 09:45", "name": "USPS COLLECTION BOX - BLUE BOX", "nsi_id": "unitedstatespostalservice-a77078", "operator": "United States Postal Service", "operator:short": "USPS", "operator:type": "public", "operator:wikidata": "Q668687", "ref": "1336700003"}, "type": "Feature"}
{"dataset_attributes": {"@spider": "usps_collection_boxes", "spider:collection_time": "2024-01-01T08:25:44.650502"}, "geometry": {"coordinates": [-75.4990516, 43.79571], "type": "Point"}, "id": "OEwdYR7C1xe_m2TRwWmaIqOUlvU=", "properties": {"@spider": "usps_collection_boxes", "addr:city": "LOWVILLE", "addr:country": "US", "addr:full": "7785 N STATE ST", "addr:postcode": "13367", "addr:state": "NY", "amenity": "post_box", "brand": "United States Postal Service", "brand:wikidata": "Q668687", "collection_times": "Mo-Fr 15:30; Sa 08:30", "name": "USPS COLLECTION BOX - BLUE BOX", "note": "ON 12/24 AND 12/31, THIS BOX MAY BE COLLECTED AS EARLY AS 12 NOON.", "nsi_id": "unitedstatespostalservice-a77078", "operator": "United States Postal Service", "operator:short": "USPS", "operator:type": "public", "operator:wikidata": "Q668687", "ref": "1336700008"}, "type": "Feature"}
{"dataset_attributes": {"@spider": "usps_collection_boxes", "spider:collection_time": "2024-01-01T08:25:44.650502"}, "geometry": {"coordinates": [-75.4813542, 43.781576], "type": "Point"}, "id": "CffGZ4IOddiQySJfJ-iVrYpiB4w=", "properties": {"@spider": "usps_collection_boxes", "addr:city": "LOWVILLE", "addr:country": "US", "addr:full": "5590 VALLEYVIEW CT", "addr:postcode": "13367", "addr:state": "NY", "amenity": "post_box", "brand": "United States Postal Service", "brand:wikidata": "Q668687", "collection_times": "Mo-Sa 10:00", "name": "USPS COLLECTION BOX - BLUE BOX", "nsi_id": "unitedstatespostalservice-a77078", "operator": "United States Postal Service", "operator:short": "USPS", "operator:type": "public", "operator:wikidata": "Q668687", "ref": "1336700010"}, "type": "Feature"}
{"dataset_attributes": {"@spider": "usps_collection_boxes", "spider:collection_time": "2024-01-01T08:25:44.650502"}, "geometry": {"coordinates": [-75.4935584, 43.788696], "type": "Point"}, "id": "4yYTxcm0NyOUlKhS0VnQRk85JlA=", "properties": {"@spider": "usps_collection_boxes", "addr:city": "LOWVILLE", "addr:country": "US", "addr:full": "7660 N STATE ST", "addr:postcode": "13367", "addr:state": "NY", "amenity": "post_box", "brand": "United States Postal Service", "brand:wikidata": "Q668687", "collection_times": "Mo-Fr 15:30", "name": "USPS COLLECTION BOX - BLUE BOX", "note": "ON 12/24 AND 12/31, THIS BOX MAY BE COLLECTED AS EARLY AS 12 NOON.", "nsi_id": "unitedstatespostalservice-a77078", "operator": "United States Postal Service", "operator:short": "USPS", "operator:type": "public", "operator:wikidata": "Q668687", "ref": "1336700016"}, "type": "Feature"}
{"dataset_attributes": {"@spider": "usps_collection_boxes", "spider:collection_time": "2024-01-01T08:25:44.650502"}, "geometry": {"coordinates": [-75.4937408, 43.78807], "type": "Point"}, "id": "2oZT4FRzh6_nhlYd0kAuLUx_NOE=", "properties": {"@spider": "usps_collection_boxes", "addr:city": "LOWVILLE", "addr:country": "US", "addr:full": "7651 N STATE ST", "addr:postcode": "13367", "addr:state": "NY", "amenity": "post_box", "brand": "United States Postal Service", "brand:wikidata": "Q668687", "collection_times": "Mo-Fr 16:30; Sa 15:15", "name": "USPS COLLECTION BOX - PO LOBBY", "note": "ON 12/24 AND 12/31, THIS BOX MAY BE COLLECTED AS EARLY AS 12 NOON.", "nsi_id": "unitedstatespostalservice-a77078", "operator": "United States Postal Service", "operator:short": "USPS", "operator:type": "public", "operator:wikidata": "Q668687", "ref": "1336700020"}, "type": "Feature"}
{"dataset_attributes": {"@spider": "usps_collection_boxes", "spider:collection_time": "2024-01-01T08:25:44.650502"}, "geometry": {"coordinates": [-75.494067, 43.788135], "type": "Point"}, "id": "Uq0f8WHhBv2-HhG2vWAQRjIicFw=", "properties": {"@spider": "usps_collection_boxes", "addr:city": "LOWVILLE", "addr:country": "US", "addr:full": "5304 PARKWAY DR", "addr:postcode": "13367", "addr:state": "NY", "amenity": "post_box", "brand": "United States Postal Service", "brand:wikidata": "Q668687", "collection_times": "Mo-Fr 17:00; Sa 15:15", "name": "USPS COLLECTION BOX - BLUE BOX", "note": "ON 12/24 AND 12/31, THIS BOX MAY BE COLLECTED AS EARLY AS 12 NOON.", "nsi_id": "unitedstatespostalservice-a77078", "operator": "United States Postal Service", "operator:short": "USPS", "operator:type": "public", "operator:wikidata": "Q668687", "ref": "1336700025"}, "type": "Feature"}
{"dataset_attributes": {"@spider": "usps_collection_boxes", "spider:collection_time": "2024-01-01T08:25:44.650502"}, "geometry": {"coordinates": [-75.4990572, 43.795696], "type": "Point"}, "id": "m5i_6VcrggGCChsdUX5qJfrU7nw=", "properties": {"@spider": "usps_collection_boxes", "addr:city": "LOWVILLE", "addr:country": "US", "addr:full": "7785 N STATE ST", "addr:postcode": "13367", "addr:state": "NY", "amenity": "post_box", "brand": "United States Postal Service", "brand:wikidata": "Q668687", "collection_times": "Mo-Fr 15:30; Sa 08:30", "name": "USPS COLLECTION BOX - BLUE BOX", "note": "ON 12/24 AND 12/31, THIS BOX MAY BE COLLECTED AS EARLY AS 12 NOON.", "nsi_id": "unitedstatespostalservice-a77078", "operator": "United States Postal Service", "operator:short": "USPS", "operator:type": "public", "operator:wikidata": "Q668687", "ref": "1336700026"}, "type": "Feature"}
{"dataset_attributes": {"@spider": "usps_collection_boxes", "spider:collection_time": "2024-01-01T08:25:44.650502"}, "geometry": {"coordinates": [-75.493515916, 43.78825885], "type": "Point"}, "id": "LCUqO8VkJOLfwNrFVpviURBDyaI=", "properties": {"@spider": "usps_collection_boxes", "addr:city": "LOWVILLE", "addr:country": "US", "addr:full": "7651 N STATE ST", "addr:postcode": "13367", "addr:state": "NY", "amenity": "post_box", "brand": "United States Postal Service", "brand:wikidata": "Q668687", "collection_times": "Mo-Fr 16:30; Sa 12:30", "name": "USPS COLLECTION BOX - PO LOBBY", "note": "ON 12/24 AND 12/31, THIS BOX MAY BE COLLECTED AS EARLY AS 12 NOON.", "nsi_id": "unitedstatespostalservice-a77078", "operator": "United States Postal Service", "operator:short": "USPS", "operator:type": "public", "operator:wikidata": "Q668687", "ref": "1336700027"}, "type": "Feature"}
{"dataset_attributes": {"@spider": "usps_collection_boxes", "spider:collection_time": "2024-01-01T08:25:44.650502"}, "geometry": {"coordinates": [-75.362784, 43.618654], "type": "Point"}, "id": "T7iFx147FyZ_vgQ9Oh6ygPUHlAU=", "properties": {"@spider": "usps_collection_boxes", "addr:city": "LYONS FALLS", "addr:country": "US", "addr:full": "3864 FULTON ST", "addr:postcode": "13368", "addr:state": "NY", "amenity": "post_box", "brand": "United States Postal Service", "brand:wikidata": "Q668687", "collection_times": "Mo-Fr 16:00; Sa 11:00", "name": "USPS COLLECTION BOX - BLUE BOX", "note": "ON 12/24 AND 12/31, THIS BOX MAY BE COLLECTED AS EARLY AS 12 NOON.", "nsi_id": "unitedstatespostalservice-a77078", "operator": "United States Postal Service", "operator:short": "USPS", "operator:type": "public", "operator:wikidata": "Q668687", "ref": "1336800001"}, "type": "Feature"}
{"dataset_attributes": {"@spider": "usps_collection_boxes", "spider:collection_time": "2024-01-01T08:25:44.650502"}, "geometry": {"coordinates": [-75.362793, 43.618692], "type": "Point"}, "id": "BRR0ampiZBA1_3qXV-mjeDey7rY=", "properties": {"@spider": "usps_collection_boxes", "addr:city": "LYONS FALLS", "addr:country": "US", "addr:full": "3864 FULTON ST", "addr:postcode": "13368", "addr:state": "NY", "amenity": "post_box", "brand": "United States Postal Service", "brand:wikidata": "Q668687", "collection_times": "Mo-Fr 16:00; Sa 11:00", "name": "USPS COLLECTION BOX - PO LOBBY", "note": "ON 12/24 AND 12/31, THIS BOX MAY BE COLLECTED AS EARLY AS 12 NOON.", "nsi_id": "unitedstatespostalservice-a77078", "operator": "United States Postal Service", "operator:short": "USPS", "operator:type": "public", "operator:wikidata": "Q668687", "ref": "1336800002"}, "type": "Feature"}
{"dataset_attributes": {"@spider": "usps_collection_boxes", "spider:collection_time": "2024-01-01T08:25:44.650502"}, "geometry": {"coordinates": [-75.36276719, 43.618663992], "type": "Point"}, "id": "kMd0WRFwjS4cjZmY-BO4fRe6FO4=", "properties": {"@spider": "usps_collection_boxes", "addr:city": "LYONS FALLS", "addr:country": "US", "addr:full": "3864 FULTON ST", "addr:postcode": "13368", "addr:state": "NY", "amenity": "post_box", "brand": "United States Postal Service", "brand:wikidata": "Q668687", "collection_times": "Mo-Fr 16:00; Sa 11:00", "name": "USPS COLLECTION BOX - PO LOBBY", "note": "ON 12/24 AND 12/31, THIS BOX MAY BE COLLECTED AS EARLY AS 12 NOON.", "nsi_id": "unitedstatespostalservice-a77078", "operator": "United States Postal Service", "operator:short": "USPS", "operator:type": "public", "operator:wikidata": "Q668687", "ref": "1336800003"}, "type": "Feature"}
