{"dataset_attributes": {"@spider": "usps_collection_boxes", "spider:collection_time": "2023-12-31T08:23:44.423400"}, "geometry": {"coordinates": [-75.2090779, 43.084315], "type": "Point"}, "id": "b9rPSa9KMqnGmLw6CHqAsZrTfl8=", "properties": {"@spider": "usps_collection_boxes", "addr:city": "UTICA", "addr:country": "US", "addr:full": "1172 ALBANY ST", "addr:postcode": "13501", "addr:state": "NY", "amenity": "post_box", "brand": "United States Postal Service", "brand:wikidata": "Q668687", "collection_times": "Mo-Sa 10:00", "name": "USPS COLLECTION BOX - BLUE BOX", "nsi_id": "unitedstatespostalservice-a77078", "operator": "United States Postal Service", "operator:short": "USPS", "operator:type": "public", "operator:wikidata": "Q668687", "ref": "1350100003"}, "type": "Feature"}
{"dataset_attributes": {"@spider": "usps_collection_boxes", "spider:collection_time": "2023-12-31T08:23:44.423400"}, "geometry": {"coordinates": [-75.2068567, 43.080445], "type": "Point"}, "id": "jP_f7KUX0G1TBXBuC4qJxkayNrE=", "properties": {"@spider": "usps_collection_boxes", "addr:city": "UTICA", "addr:country": "US", "addr:full": "1256 ALBANY ST", "addr:postcode": "13501", "addr:state": "NY", "amenity": "post_box", "brand": "United States Postal Service", "brand:wikidata": "Q668687", "collection_times": "Mo-Fr 17:00; Sa 15:00", "name": "USPS COLLECTION BOX - BLUE BOX", "note": "ON 12/24 AND 12/31, THIS BOX MAY BE COLLECTED AS EARLY AS 12 NOON.", "nsi_id": "unitedstatespostalservice-a77078", "operator": "United States Postal Service", "operator:short": "USPS", "operator:type": "public", "operator:wikidata": "Q668687", "ref": "1350100004"}, "type": "Feature"}
{"dataset_attributes": {"@spider": "usps_collection_boxes", "spider:collection_time": "2023-12-31T08:23:44.423400"}, "geometry": {"coordinates": [-75.2101785, 43.078758], "type": "Point"}, "id": "essHdtzYBMOGeymhriozmfbqhkY=", "properties": {"@spider": "usps_collection_boxes", "addr:city": "UTICA", "addr:country": "US", "addr:full": "1742 ARMORY DR", "addr:postcode": "13501", "addr:state": "NY", "amenity": "post_box", "brand": "United States Postal Service", "brand:wikidata": "Q668687", "collection_times": "Mo-Sa 11:00", "name": "USPS COLLECTION BOX - BLUE BOX", "nsi_id": "unitedstatespostalservice-a77078", "operator": "United States Postal Service", "operator:short": "USPS", "operator:type": "public", "operator:wikidata": "Q668687", "ref": "1350100005"}, "type": "Feature"}
{"dataset_attributes": {"@spider": "usps_collection_boxes", "spider:collection_time": "2023-12-31T08:23:44.423400"}, "geometry": {"coordinates": [-75.2225799441, 43.099737214], "type": "Point"}, "id": "Tr4ZRV6RrVeyfWa4kgnCg2V-zUY=", "properties": {"@spider": "usps_collection_boxes", "addr:city": "UTICA", "addr:country": "US", "addr:full": "506 BLEECKER ST", "addr:postcode": "13501", "addr:state": "NY", "amenity": "post_box", "brand": "United States Postal Service", "brand:wikidata": "Q668687", "collection_times": "Mo-Fr 17:00; Sa 15:00", "name": "USPS COLLECTION BOX - BLUE BOX", "note": "ON 12/24 AND 12/31, THIS BOX MAY BE COLLECTED AS EARLY AS 12 NOON.", "nsi_id": "unitedstatespostalservice-a77078", "operator": "United States Postal Service", "operator:short": "USPS", "operator:type": "public", "operator:wikidata": "Q668687", "ref": "1350100014"}, "type": "Feature"}
{"dataset_attributes": {"@spider": "usps_collection_boxes", "spider:collection_time": "2023-12-31T08:23:44.423400"}, "geometry": {"coordinates": [-75.2170581, 43.098135], "type": "Point"}, "id": "LdFujmYOwsgalSTxR-5DY08qY_g=", "properties": {"@spider": "usps_collection_boxes", "addr:city": "UTICA", "addr:country": "US", "addr:full": "717 BLEECKER ST", "addr:postcode": "13501", "addr:state": "NY", "amenity": "post_box", "brand": "United States Postal Service", "brand:wikidata": "Q668687", "collection_times": "Mo-Fr 09:00", "name": "USPS COLLECTION BOX - BLUE BOX", "nsi_id": "unitedstatespostalservice-a77078", "operator": "United States Postal Service", "operator:short": "USPS", "operator:type": "public", "operator:wikidata": "Q668687", "ref": "1350100016"}, "type": "Feature"}
{"dataset_attributes": {"@spider": "usps_collection_boxes", "spider:collection_time": "2023-12-31T08:23:44.423400"}, "geometry": {"coordinates": [-75.2013899, 43.093421], "type": "Point"}, "id": "fBwIrMICuxLIwlEvsPbWyB8zIpI=", "properties": {"@spider": "usps_collection_boxes", "addr:city": "UTICA", "addr:country": "US", "addr:full": "1501 BLEECKER ST", "addr:postcode": "13501", "addr:state": "NY", "amenity": "post_box", "brand": "United States Postal Service", "brand:wikidata": "Q668687", "collection_times": "Mo-Sa 11:30", "name": "USPS COLLECTION BOX - BLUE BOX", "nsi_id": "unitedstatespostalservice-a77078", "operator": "United States Postal Service", "operator:short": "USPS", "operator:type": "public", "operator:wikidata": "Q668687", "ref": "1350100020"}, "type": "Feature"}
{"dataset_attributes": {"@spider": "usps_collection_boxes", "spider:collection_time": "2023-12-31T08:23:44.423400"}, "geometry": {"coordinates": [-75.2215874359, 43.1025583824], "type": "Point"}, "id": "5OJIiv_VCwJdmOb2Rg_AzemvJZs=", "properties": {"@spider": "usps_collection_boxes", "addr:city": "UTICA", "addr:country": "US", "addr:full": "421 BROAD ST", "addr:postcode": "13501", "addr:state": "NY", "amenity": "post_box", "brand": "United States Postal Service", "brand:wikidata": "Q668687", "collection_times": "Mo-Fr 17:00; Sa 15:00", "name": "USPS COLLECTION BOX - BLUE BOX", "note": "ON 12/24 AND 12/31, THIS BOX MAY BE COLLECTED AS EARLY AS 12 NOON.", "nsi_id": "unitedstatespostalservice-a77078", "operator": "United States Postal Service", "operator:short": "USPS", "operator:type": "public", "operator:wikidata": "Q668687", "ref": "1350100031"}, "type": "Feature"}
{"dataset_attributes": {"@spider": "usps_collection_boxes", "spider:collection_time": "2023-12-31T08:23:44.423400"}, "geometry": {"coordinates": [-75.229414, 43.100695], "type": "Point"}, "id": "b6TNXQ9pjMsMcHdQjnIhAFgKozI=", "properties": {"@spider": "usps_collection_boxes", "addr:city": "UTICA", "addr:country": "US", "addr:full": "209 ELIZABETH ST", "addr:postcode": "13501", "addr:state": "NY", "amenity": "post_box", "brand": "United States Postal Service", "brand:wikidata": "Q668687", "collection_times": "Mo-Fr 16:30; Sa 14:30", "name": "USPS COLLECTION BOX - BLUE BOX", "note": "ON 12/24 AND 12/31, THIS BOX MAY BE COLLECTED AS EARLY AS 12 NOON.", "nsi_id": "unitedstatespostalservice-a77078", "operator": "United States Postal Service", "operator:short": "USPS", "operator:type": "public", "operator:wikidata": "Q668687", "ref": "1350100042"}, "type": "Feature"}
{"dataset_attributes": {"@spider": "usps_collection_boxes", "spider:collection_time": "2023-12-31T08:23:44.423400"}, "geometry": {"coordinates": [-75.233084138, 43.100252982], "type": "Point"}, "id": "uz2XoTQapGz6tWMX2uf4p7dDNp4=", "properties": {"@spider": "usps_collection_boxes", "addr:city": "UTICA", "addr:country": "US", "addr:full": "233 GENESEE ST", "addr:postcode": "13501", "addr:state": "NY", "amenity": "post_box", "brand": "United States Postal Service", "brand:wikidata": "Q668687", "collection_times": "Mo-Fr 17:00; Sa 14:30", "name": "USPS COLLECTION BOX - BLUE BOX", "note": "ON 12/24 AND 12/31, THIS BOX MAY BE COLLECTED AS EARLY AS 12 NOON.", "nsi_id": "unitedstatespostalservice-a77078", "operator": "United States Postal Service", "operator:short": "USPS", "operator:type": "public", "operator:wikidata": "Q668687", "ref": "1350100056"}, "type": "Feature"}
{"dataset_attributes": {"@spider": "usps_collection_boxes", "spider:collection_time": "2023-12-31T08:23:44.423400"}, "geometry": {"coordinates": [-75.2351183496, 43.0994489939], "type": "Point"}, "id": "R4xhcJnH_gXeFSUDs5I3tEKU-mo=", "properties": {"@spider": "usps_collection_boxes", "addr:city": "UTICA", "addr:country": "US", "addr:full": "255 GENESEE ST", "addr:postcode": "13501", "addr:state": "NY", "amenity": "post_box", "brand": "United States Postal Service", "brand:wikidata": "Q668687", "collection_times": "Mo-Fr 17:00; Sa 14:30", "name": "USPS COLLECTION BOX - BLUE BOX", "note": "ON 12/24 AND 12/31, THIS BOX MAY BE COLLECTED AS EARLY AS 12 NOON.", "nsi_id": "unitedstatespostalservice-a77078", "operator": "United States Postal Service", "operator:short": "USPS", "operator:type": "public", "operator:wikidata": "Q668687", "ref": "1350100058"}, "type": "Feature"}
{"dataset_attributes": {"@spider": "usps_collection_boxes", "spider:collection_time": "2023-12-31T08:23:44.423400"}, "geometry": {"coordinates": [-75.2447553, 43.094699], "type": "Point"}, "id": "c4kxdiw5GUA2nBDsEJ28bM21HdA=", "properties": {"@spider": "usps_collection_boxes", "addr:city": "UTICA", "addr:country": "US", "addr:full": "1411 GENESEE ST", "addr:postcode": "13501", "addr:state": "NY", "amenity": "post_box", "brand": "United States Postal Service", "brand:wikidata": "Q668687", "collection_times": "Mo-Fr 17:00; Sa 14:30", "name": "USPS COLLECTION BOX - BLUE BOX", "note": "ON 12/24 AND 12/31, THIS BOX MAY BE COLLECTED AS EARLY AS 12 NOON.", "nsi_id": "unitedstatespostalservice-a77078", "operator": "United States Postal Service", "operator:short": "USPS", "operator:type": "public", "operator:wikidata": "Q668687", "ref": "1350100062"}, "type": "Feature"}
{"dataset_attributes": {"@spider": "usps_collection_boxes", "spider:collection_time": "2023-12-31T08:23:44.423400"}, "geometry": {"coordinates": [-75.2695311, 43.082339], "type": "Point"}, "id": "3YLhWCcN8TkozHw8K741uRQzdC0=", "properties": {"@spider": "usps_collection_boxes", "addr:city": "UTICA", "addr:country": "US", "addr:full": "2223 GENESEE ST", "addr:postcode": "13501", "addr:state": "NY", "amenity": "post_box", "brand": "United States Postal Service", "brand:wikidata": "Q668687", "collection_times": "Mo-Sa 09:00", "name": "USPS COLLECTION BOX - BLUE BOX", "nsi_id": "unitedstatespostalservice-a77078", "operator": "United States Postal Service", "operator:short": "USPS", "operator:type": "public", "operator:wikidata": "Q668687", "ref": "1350100070"}, "type": "Feature"}
{"dataset_attributes": {"@spider": "usps_collection_boxes", "spider:collection_time": "2023-12-31T08:23:44.423400"}, "geometry": {"coordinates": [-75.2824095, 43.075862], "type": "Point"}, "id": "aKgOoeS2pSOBcfcdqfTxIDYhjxE=", "properties": {"@spider": "usps_collection_boxes", "addr:city": "UTICA", "addr:country": "US", "addr:full": "2713 GENESEE ST", "addr:postcode": "13501", "addr:state": "NY", "amenity": "post_box", "brand": "United States Postal Service", "brand:wikidata": "Q668687", "collection_times": "Mo-Fr 17:00; Sa 14:30", "name": "USPS COLLECTION BOX - BLUE BOX", "note": "ON 12/24 AND 12/31, THIS BOX MAY BE COLLECTED AS EARLY AS 12 NOON.", "nsi_id": "unitedstatespostalservice-a77078", "operator": "United States Postal Service", "operator:short": "USPS", "operator:type": "public", "operator:wikidata": "Q668687", "ref": "1350100071"}, "type": "Feature"}
{"dataset_attributes": {"@spider": "usps_collection_boxes", "spider:collection_time": "2023-12-31T08:23:44.423400"}, "geometry": {"coordinates": [-75.2142804, 43.084837], "type": "Point"}, "id": "rmZif5QEdQ96-AzrX5TvXny7XyY=", "properties": {"@spider": "usps_collection_boxes", "addr:city": "UTICA", "addr:country": "US", "addr:full": "1156 HILTON AVE", "addr:postcode": "13501", "addr:state": "NY", "amenity": "post_box", "brand": "United States Postal Service", "brand:wikidata": "Q668687", "collection_times": "Mo-Sa 09:00", "name": "USPS COLLECTION BOX - BLUE BOX", "nsi_id": "unitedstatespostalservice-a77078", "operator": "United States Postal Service", "operator:short": "USPS", "operator:type": "public", "operator:wikidata": "Q668687", "ref": "1350100073"}, "type": "Feature"}
{"dataset_attributes": {"@spider": "usps_collection_boxes", "spider:collection_time": "2023-12-31T08:23:44.423400"}, "geometry": {"coordinates": [-75.2207935, 43.10022], "type": "Point"}, "id": "b5tDO5L34_MZ9vq_SPWDaJ1IGak=", "properties": {"@spider": "usps_collection_boxes", "addr:city": "UTICA", "addr:country": "US", "addr:full": "609 JAY ST", "addr:postcode": "13501", "addr:state": "NY", "amenity": "post_box", "brand": "United States Postal Service", "brand:wikidata": "Q668687", "collection_times": "Mo-Sa 11:00", "name": "USPS COLLECTION BOX - BLUE BOX", "nsi_id": "unitedstatespostalservice-a77078", "operator": "United States Postal Service", "operator:short": "USPS", "operator:type": "public", "operator:wikidata": "Q668687", "ref": "1350100079"}, "type": "Feature"}
{"dataset_attributes": {"@spider": "usps_collection_boxes", "spider:collection_time": "2023-12-31T08:23:44.423400"}, "geometry": {"coordinates": [-75.2244784, 43.10402], "type": "Point"}, "id": "walt642rdNhxgNQeZqbwds2UIR0=", "properties": {"@spider": "usps_collection_boxes", "addr:city": "UTICA", "addr:country": "US", "addr:full": "310 MAIN ST", "addr:postcode": "13501", "addr:state": "NY", "amenity": "post_box", "brand": "United States Postal Service", "brand:wikidata": "Q668687", "collection_times": "Mo-Fr 13:00; Sa 10:00", "name": "USPS COLLECTION BOX - BLUE BOX", "note": "ON 12/24 AND 12/31, THIS BOX MAY BE COLLECTED AS EARLY AS 12 NOON.", "nsi_id": "unitedstatespostalservice-a77078", "operator": "United States Postal Service", "operator:short": "USPS", "operator:type": "public", "operator:wikidata": "Q668687", "ref": "1350100084"}, "type": "Feature"}
{"dataset_attributes": {"@spider": "usps_collection_boxes", "spider:collection_time": "2023-12-31T08:23:44.423400"}, "geometry": {"coordinates": [-75.2289095, 43.081856], "type": "Point"}, "id": "gO8vLHYJ-pl5Zgu35WshbNCrNI0=", "properties": {"@spider": "usps_collection_boxes", "addr:city": "UTICA", "addr:country": "US", "addr:full": "1556 MOHAWK ST", "addr:postcode": "13501", "addr:state": "NY", "amenity": "post_box", "brand": "United States Postal Service", "brand:wikidata": "Q668687", "collection_times": "Mo-Sa 10:30", "name": "USPS COLLECTION BOX - BLUE BOX", "nsi_id": "unitedstatespostalservice-a77078", "operator": "United States Postal Service", "operator:short": "USPS", "operator:type": "public", "operator:wikidata": "Q668687", "ref": "1350100089"}, "type": "Feature"}
{"dataset_attributes": {"@spider": "usps_collection_boxes", "spider:collection_time": "2023-12-31T08:23:44.423400"}, "geometry": {"coordinates": [-75.2631186, 43.077427], "type": "Point"}, "id": "SlVqBcKnbNUVOy_8WYza5o1lQcM=", "properties": {"@spider": "usps_collection_boxes", "addr:city": "UTICA", "addr:country": "US", "addr:full": "2303 ONEIDA ST", "addr:postcode": "13501", "addr:state": "NY", "amenity": "post_box", "brand": "United States Postal Service", "brand:wikidata": "Q668687", "collection_times": "Mo-Sa 13:00", "name": "USPS COLLECTION BOX - BLUE BOX", "note": "ON 12/24 AND 12/31, THIS BOX MAY BE COLLECTED AS EARLY AS 12 NOON.", "nsi_id": "unitedstatespostalservice-a77078", "operator": "United States Postal Service", "operator:short": "USPS", "operator:type": "public", "operator:wikidata": "Q668687", "ref": "1350100095"}, "type": "Feature"}
{"dataset_attributes": {"@spider": "usps_collection_boxes", "spider:collection_time": "2023-12-31T08:23:44.423400"}, "geometry": {"coordinates": [-75.267586, 43.074253], "type": "Point"}, "id": "y9zez3JVKRDOKxABkHVk5Flp6dM=", "properties": {"@spider": "usps_collection_boxes", "addr:city": "UTICA", "addr:country": "US", "addr:full": "2518 ONEIDA ST", "addr:postcode": "13501", "addr:state": "NY", "amenity": "post_box", "brand": "United States Postal Service", "brand:wikidata": "Q668687", "collection_times": "Mo-Fr 16:00; Sa 14:30", "name": "USPS COLLECTION BOX - BLUE BOX", "note": "ON 12/24 AND 12/31, THIS BOX MAY BE COLLECTED AS EARLY AS 12 NOON.", "nsi_id": "unitedstatespostalservice-a77078", "operator": "United States Postal Service", "operator:short": "USPS", "operator:type": "public", "operator:wikidata": "Q668687", "ref": "1350100097"}, "type": "Feature"}
{"dataset_attributes": {"@spider": "usps_collection_boxes", "spider:collection_time": "2023-12-31T08:23:44.423400"}, "geometry": {"coordinates": [-75.2573626, 43.086504], "type": "Point"}, "id": "lRZZULHz3TrbsJsp5vEWrzjbt28=", "properties": {"@spider": "usps_collection_boxes", "addr:city": "UTICA", "addr:country": "US", "addr:full": "3 PARKSIDE CT", "addr:postcode": "13501", "addr:state": "NY", "amenity": "post_box", "brand": "United States Postal Service", "brand:wikidata": "Q668687", "collection_times": "Mo-Fr 16:00; Sa 13:30", "name": "USPS COLLECTION BOX - BLUE BOX", "note": "ON 12/24 AND 12/31, THIS BOX MAY BE COLLECTED AS EARLY AS 12 NOON.", "nsi_id": "unitedstatespostalservice-a77078", "operator": "United States Postal Service", "operator:short": "USPS", "operator:type": "public", "operator:wikidata": "Q668687", "ref": "1350100103"}, "type": "Feature"}
{"dataset_attributes": {"@spider": "usps_collection_boxes", "spider:collection_time": "2023-12-31T08:23:44.423400"}, "geometry": {"coordinates": [-75.2329224, 43.097475], "type": "Point"}, "id": "p456z_F6Dhqv2njKmW16ZnZAkFs=", "properties": {"@spider": "usps_collection_boxes", "addr:city": "UTICA", "addr:country": "US", "addr:full": "100 RUTGER ST", "addr:postcode": "13501", "addr:state": "NY", "amenity": "post_box", "brand": "United States Postal Service", "brand:wikidata": "Q668687", "collection_times": "Mo-Sa 11:00", "name": "USPS COLLECTION BOX - BLUE BOX", "nsi_id": "unitedstatespostalservice-a77078", "operator": "United States Postal Service", "operator:short": "USPS", "operator:type": "public", "operator:wikidata": "Q668687", "ref": "1350100108"}, "type": "Feature"}
{"dataset_attributes": {"@spider": "usps_collection_boxes", "spider:collection_time": "2023-12-31T08:23:44.423400"}, "geometry": {"coordinates": [-75.215839, 43.090735], "type": "Point"}, "id": "0z_TF_NmLu1ssgg7afEygKlEL0I=", "properties": {"@spider": "usps_collection_boxes", "addr:city": "UTICA", "addr:country": "US", "addr:full": "901 SOUTH ST", "addr:postcode": "13501", "addr:state": "NY", "amenity": "post_box", "brand": "United States Postal Service", "brand:wikidata": "Q668687", "collection_times": "Mo-Sa 09:00", "name": "USPS COLLECTION BOX - BLUE BOX", "nsi_id": "unitedstatespostalservice-a77078", "operator": "United States Postal Service", "operator:short": "USPS", "operator:type": "public", "operator:wikidata": "Q668687", "ref": "1350100116"}, "type": "Feature"}
{"dataset_attributes": {"@spider": "usps_collection_boxes", "spider:collection_time": "2023-12-31T08:23:44.423400"}, "geometry": {"coordinates": [-75.1847785, 43.094536], "type": "Point"}, "id": "CZFeoZs_ZTDLTBTw1EJr06HBZyw=", "properties": {"@spider": "usps_collection_boxes", "addr:city": "UTICA", "addr:country": "US", "addr:full": "100 PITCHER ST", "addr:postcode": "13501", "addr:state": "NY", "amenity": "post_box", "brand": "United States Postal Service", "brand:wikidata": "Q668687", "collection_times": "Mo-Sa 18:00", "name": "USPS COLLECTION BOX - PO LOBBY", "note": "ON 12/24 AND 12/31, THIS BOX MAY BE COLLECTED AS EARLY AS 12 NOON.", "nsi_id": "unitedstatespostalservice-a77078", "operator": "United States Postal Service", "operator:short": "USPS", "operator:type": "public", "operator:wikidata": "Q668687", "ref": "1350100132"}, "type": "Feature"}
{"dataset_attributes": {"@spider": "usps_collection_boxes", "spider:collection_time": "2023-12-31T08:23:44.423400"}, "geometry": {"coordinates": [-75.1840224217, 43.0936466033], "type": "Point"}, "id": "rczpZ1KBMfKmcdXwUE_N4FGNe1U=", "properties": {"@spider": "usps_collection_boxes", "addr:city": "UTICA", "addr:country": "US", "addr:full": "100 PITCHER ST", "addr:postcode": "13501", "addr:state": "NY", "amenity": "post_box", "brand": "United States Postal Service", "brand:wikidata": "Q668687", "collection_times": "Mo-Sa 18:00", "name": "USPS COLLECTION BOX - BLUE BOX", "note": "ON 12/24 AND 12/31, THIS BOX MAY BE COLLECTED AS EARLY AS 12 NOON.", "nsi_id": "unitedstatespostalservice-a77078", "operator": "United States Postal Service", "operator:short": "USPS", "operator:type": "public", "operator:wikidata": "Q668687", "ref": "1350100133"}, "type": "Feature"}
{"dataset_attributes": {"@spider": "usps_collection_boxes", "spider:collection_time": "2023-12-31T08:23:44.423400"}, "geometry": {"coordinates": [-75.231659969, 43.098790004], "type": "Point"}, "id": "S5FyvF0qHUN2HpCLTVRGGU9vRR8=", "properties": {"@spider": "usps_collection_boxes", "addr:city": "UTICA", "addr:country": "US", "addr:full": "2 STEUBEN PARK", "addr:postcode": "13501", "addr:state": "NY", "amenity": "post_box", "brand": "United States Postal Service", "brand:wikidata": "Q668687", "collection_times": "Mo-Fr 17:00; Sa 14:30", "name": "USPS COLLECTION BOX - BLUE BOX", "note": "ON 12/24 AND 12/31, THIS BOX MAY BE COLLECTED AS EARLY AS 12 NOON.", "nsi_id": "unitedstatespostalservice-a77078", "operator": "United States Postal Service", "operator:short": "USPS", "operator:type": "public", "operator:wikidata": "Q668687", "ref": "1350100142"}, "type": "Feature"}
{"dataset_attributes": {"@spider": "usps_collection_boxes", "spider:collection_time": "2023-12-31T08:23:44.423400"}, "geometry": {"coordinates": [-75.1847093, 43.094468], "type": "Point"}, "id": "sDkBhPUURMy2MQQ6_VpiGraWJj8=", "properties": {"@spider": "usps_collection_boxes", "addr:city": "UTICA", "addr:country": "US", "addr:full": "100 PITCHER ST", "addr:postcode": "13501", "addr:state": "NY", "amenity": "post_box", "brand": "United States Postal Service", "brand:wikidata": "Q668687", "collection_times": "Mo-Sa 18:00", "name": "USPS COLLECTION BOX - PO LOBBY", "note": "ON 12/24 AND 12/31, THIS BOX MAY BE COLLECTED AS EARLY AS 12 NOON.", "nsi_id": "unitedstatespostalservice-a77078", "operator": "United States Postal Service", "operator:short": "USPS", "operator:type": "public", "operator:wikidata": "Q668687", "ref": "1350100143"}, "type": "Feature"}
{"dataset_attributes": {"@spider": "usps_collection_boxes", "spider:collection_time": "2023-12-31T08:23:44.423400"}, "geometry": {"coordinates": [-75.2420373, 43.093322], "type": "Point"}, "id": "Kz21ATyHBP2-TVBB79tG-3HuQQ4=", "properties": {"@spider": "usps_collection_boxes", "addr:city": "UTICA", "addr:country": "US", "addr:full": "1445 KEMBLE ST", "addr:postcode": "13501", "addr:state": "NY", "amenity": "post_box", "brand": "United States Postal Service", "brand:wikidata": "Q668687", "collection_times": "Mo-Sa 10:30", "name": "USPS COLLECTION BOX - BLUE BOX", "nsi_id": "unitedstatespostalservice-a77078", "operator": "United States Postal Service", "operator:short": "USPS", "operator:type": "public", "operator:wikidata": "Q668687", "ref": "1350100145"}, "type": "Feature"}
{"dataset_attributes": {"@spider": "usps_collection_boxes", "spider:collection_time": "2023-12-31T08:23:44.423400"}, "geometry": {"coordinates": [-75.2228391, 43.104451], "type": "Point"}, "id": "FzqT9zp5BI6LBmFpKDYEjfU63hQ=", "properties": {"@spider": "usps_collection_boxes", "addr:city": "UTICA", "addr:country": "US", "addr:full": "321 MAIN ST", "addr:postcode": "13501", "addr:state": "NY", "amenity": "post_box", "brand": "United States Postal Service", "brand:wikidata": "Q668687", "collection_times": "Mo-Fr 13:00; Sa 10:00", "name": "USPS COLLECTION BOX - BLUE BOX", "note": "ON 12/24 AND 12/31, THIS BOX MAY BE COLLECTED AS EARLY AS 12 NOON.", "nsi_id": "unitedstatespostalservice-a77078", "operator": "United States Postal Service", "operator:short": "USPS", "operator:type": "public", "operator:wikidata": "Q668687", "ref": "1350100148"}, "type": "Feature"}
{"dataset_attributes": {"@spider": "usps_collection_boxes", "spider:collection_time": "2023-12-31T08:23:44.423400"}, "geometry": {"coordinates": [-75.2570911, 43.087863], "type": "Point"}, "id": "__0n8Bd96RAB0oOXdK-pKzekw_o=", "properties": {"@spider": "usps_collection_boxes", "addr:city": "UTICA", "addr:country": "US", "addr:full": "1709 GENESEE ST", "addr:postcode": "13501", "addr:state": "NY", "amenity": "post_box", "brand": "United States Postal Service", "brand:wikidata": "Q668687", "collection_times": "Mo-Fr 17:30; Sa 14:30", "name": "USPS COLLECTION BOX - BLUE BOX", "note": "ON 12/24 AND 12/31, THIS BOX MAY BE COLLECTED AS EARLY AS 12 NOON.", "nsi_id": "unitedstatespostalservice-a77078", "operator": "United States Postal Service", "operator:short": "USPS", "operator:type": "public", "operator:wikidata": "Q668687", "ref": "1350100149"}, "type": "Feature"}
{"dataset_attributes": {"@spider": "usps_collection_boxes", "spider:collection_time": "2023-12-31T08:23:44.423400"}, "geometry": {"coordinates": [-75.2567692, 43.087995], "type": "Point"}, "id": "YvqUXjm8-B-XIQlG07heCcUrl6o=", "properties": {"@spider": "usps_collection_boxes", "addr:city": "UTICA", "addr:country": "US", "addr:full": "1709 GENESEE ST", "addr:postcode": "13501", "addr:state": "NY", "amenity": "post_box", "brand": "United States Postal Service", "brand:wikidata": "Q668687", "collection_times": "Mo-Fr 17:30; Sa 14:30", "name": "USPS COLLECTION BOX - PO LOBBY", "note": "ON 12/24 AND 12/31, THIS BOX MAY BE COLLECTED AS EARLY AS 12 NOON.", "nsi_id": "unitedstatespostalservice-a77078", "operator": "United States Postal Service", "operator:short": "USPS", "operator:type": "public", "operator:wikidata": "Q668687", "ref": "1350100151"}, "type": "Feature"}
{"dataset_attributes": {"@spider": "usps_collection_boxes", "spider:collection_time": "2023-12-31T08:23:44.423400"}, "geometry": {"coordinates": [-75.2191647306, 43.0775842504], "type": "Point"}, "id": "dkUJeyH4diB0kxiAd7Pb463DBlc=", "properties": {"@spider": "usps_collection_boxes", "addr:city": "UTICA", "addr:country": "US", "addr:full": "1101 SHERMAN DR", "addr:postcode": "13501", "addr:state": "NY", "amenity": "post_box", "brand": "United States Postal Service", "brand:wikidata": "Q668687", "collection_times": "Mo-Fr 17:00; Sa 13:30", "name": "USPS COLLECTION BOX - BLUE BOX", "note": "ON 12/24 AND 12/31, THIS BOX MAY BE COLLECTED AS EARLY AS 12 NOON.", "nsi_id": "unitedstatespostalservice-a77078", "operator": "United States Postal Service", "operator:short": "USPS", "operator:type": "public", "operator:wikidata": "Q668687", "ref": "1350100154"}, "type": "Feature"}
{"dataset_attributes": {"@spider": "usps_collection_boxes", "spider:collection_time": "2023-12-31T08:23:44.423400"}, "geometry": {"coordinates": [-75.2295213, 43.099674], "type": "Point"}, "id": "EwnCtIAzkU9rC5Q3v5yucdIyt8A=", "properties": {"@spider": "usps_collection_boxes", "addr:city": "UTICA", "addr:country": "US", "addr:full": "200 ELIZABETH ST", "addr:postcode": "13501", "addr:state": "NY", "amenity": "post_box", "brand": "United States Postal Service", "brand:wikidata": "Q668687", "collection_times": "Mo-Fr 13:00; Sa 09:30", "name": "USPS COLLECTION BOX - BLUE BOX", "note": "ON 12/24 AND 12/31, THIS BOX MAY BE COLLECTED AS EARLY AS 12 NOON.", "nsi_id": "unitedstatespostalservice-a77078", "operator": "United States Postal Service", "operator:short": "USPS", "operator:type": "public", "operator:wikidata": "Q668687", "ref": "1350100158"}, "type": "Feature"}
{"dataset_attributes": {"@spider": "usps_collection_boxes", "spider:collection_time": "2023-12-31T08:23:44.423400"}, "geometry": {"coordinates": [-75.2306792, 43.101758], "type": "Point"}, "id": "YMrNkavus_BM6OJJgUwT632SElg=", "properties": {"@spider": "usps_collection_boxes", "addr:city": "UTICA", "addr:country": "US", "addr:full": "181 GENESEE ST", "addr:postcode": "13501", "addr:state": "NY", "amenity": "post_box", "brand": "United States Postal Service", "brand:wikidata": "Q668687", "collection_times": "Mo-Fr 17:00; Sa 14:30", "name": "USPS COLLECTION BOX - BLUE BOX", "note": "ON 12/24 AND 12/31, THIS BOX MAY BE COLLECTED AS EARLY AS 12 NOON.", "nsi_id": "unitedstatespostalservice-a77078", "operator": "United States Postal Service", "operator:short": "USPS", "operator:type": "public", "operator:wikidata": "Q668687", "ref": "1350100159"}, "type": "Feature"}
{"dataset_attributes": {"@spider": "usps_collection_boxes", "spider:collection_time": "2023-12-31T08:23:44.423400"}, "geometry": {"coordinates": [-75.1840395297, 43.0936275609], "type": "Point"}, "id": "AHDVWQYxL4Oeyhx9iiiVDpPRjc8=", "properties": {"@spider": "usps_collection_boxes", "addr:city": "UTICA", "addr:country": "US", "addr:full": "100 PITCHER ST", "addr:postcode": "13501", "addr:state": "NY", "amenity": "post_box", "brand": "United States Postal Service", "brand:wikidata": "Q668687", "collection_times": "Mo-Sa 18:00", "name": "USPS COLLECTION BOX - BLUE BOX", "note": "ON 12/24 AND 12/31, THIS BOX MAY BE COLLECTED AS EARLY AS 12 NOON.", "nsi_id": "unitedstatespostalservice-a77078", "operator": "United States Postal Service", "operator:short": "USPS", "operator:type": "public", "operator:wikidata": "Q668687", "ref": "1350100160"}, "type": "Feature"}
{"dataset_attributes": {"@spider": "usps_collection_boxes", "spider:collection_time": "2023-12-31T08:23:44.423400"}, "geometry": {"coordinates": [-75.2570859, 43.087846], "type": "Point"}, "id": "l4-MmsSXxBJtYD7RHUvizAp2C4A=", "properties": {"@spider": "usps_collection_boxes", "addr:city": "UTICA", "addr:country": "US", "addr:full": "1709 GENESEE ST", "addr:postcode": "13501", "addr:state": "NY", "amenity": "post_box", "brand": "United States Postal Service", "brand:wikidata": "Q668687", "collection_times": "Mo-Fr 17:30; Sa 14:30", "name": "USPS COLLECTION BOX - BLUE BOX", "note": "ON 12/24 AND 12/31, THIS BOX MAY BE COLLECTED AS EARLY AS 12 NOON.", "nsi_id": "unitedstatespostalservice-a77078", "operator": "United States Postal Service", "operator:short": "USPS", "operator:type": "public", "operator:wikidata": "Q668687", "ref": "1350100161"}, "type": "Feature"}
{"dataset_attributes": {"@spider": "usps_collection_boxes", "spider:collection_time": "2023-12-31T08:23:44.423400"}, "geometry": {"coordinates": [-75.25699739, 43.088673176], "type": "Point"}, "id": "H6KAzt4a4K1izw_jqltHRuELetQ=", "properties": {"@spider": "usps_collection_boxes", "addr:city": "UTICA", "addr:country": "US", "addr:full": "1709 GENESEE ST STE 1", "addr:postcode": "13501", "addr:state": "NY", "amenity": "post_box", "brand": "United States Postal Service", "brand:wikidata": "Q668687", "collection_times": "Mo-Fr 17:30; Sa 14:30", "name": "USPS COLLECTION BOX - PO LOBBY", "note": "ON 12/24 AND 12/31, THIS BOX MAY BE COLLECTED AS EARLY AS 12 NOON.", "nsi_id": "unitedstatespostalservice-a77078", "operator": "United States Postal Service", "operator:short": "USPS", "operator:type": "public", "operator:wikidata": "Q668687", "ref": "1350100162"}, "type": "Feature"}
{"dataset_attributes": {"@spider": "usps_collection_boxes", "spider:collection_time": "2023-12-31T08:23:44.423400"}, "geometry": {"coordinates": [-75.2358099, 43.101131], "type": "Point"}, "id": "oFD0S7lMLAxrashpInT-9BL8UI8=", "properties": {"@spider": "usps_collection_boxes", "addr:city": "UTICA", "addr:country": "US", "addr:full": "1 KENNEDY PLZ", "addr:postcode": "13502", "addr:state": "NY", "amenity": "post_box", "brand": "United States Postal Service", "brand:wikidata": "Q668687", "collection_times": "Mo-Fr 16:30; Sa 14:30", "name": "USPS COLLECTION BOX - BLUE BOX", "note": "ON 12/24 AND 12/31, THIS BOX MAY BE COLLECTED AS EARLY AS 12 NOON.", "nsi_id": "unitedstatespostalservice-a77078", "operator": "United States Postal Service", "operator:short": "USPS", "operator:type": "public", "operator:wikidata": "Q668687", "ref": "1350200002"}, "type": "Feature"}
{"dataset_attributes": {"@spider": "usps_collection_boxes", "spider:collection_time": "2023-12-31T08:23:44.423400"}, "geometry": {"coordinates": [-75.2095932, 43.114652], "type": "Point"}, "id": "doS_B-YWXU_K91dNdR_4NGor7ic=", "properties": {"@spider": "usps_collection_boxes", "addr:city": "UTICA", "addr:country": "US", "addr:full": "50 AUERT AVE", "addr:postcode": "13502", "addr:state": "NY", "amenity": "post_box", "brand": "United States Postal Service", "brand:wikidata": "Q668687", "collection_times": "Mo-Fr 17:00; Sa 13:30", "name": "USPS COLLECTION BOX - BLUE BOX", "note": "ON 12/24 AND 12/31, THIS BOX MAY BE COLLECTED AS EARLY AS 12 NOON.", "nsi_id": "unitedstatespostalservice-a77078", "operator": "United States Postal Service", "operator:short": "USPS", "operator:type": "public", "operator:wikidata": "Q668687", "ref": "1350200007"}, "type": "Feature"}
{"dataset_attributes": {"@spider": "usps_collection_boxes", "spider:collection_time": "2023-12-31T08:23:44.423400"}, "geometry": {"coordinates": [-75.1692613, 43.108335], "type": "Point"}, "id": "K3feB9XxOAhFmuDZPIuPl0hfI38=", "properties": {"@spider": "usps_collection_boxes", "addr:city": "UTICA", "addr:country": "US", "addr:full": "401 BRIARCLIFF AVE", "addr:postcode": "13502", "addr:state": "NY", "amenity": "post_box", "brand": "United States Postal Service", "brand:wikidata": "Q668687", "collection_times": "Mo-Sa 09:00", "name": "USPS COLLECTION BOX - BLUE BOX", "nsi_id": "unitedstatespostalservice-a77078", "operator": "United States Postal Service", "operator:short": "USPS", "operator:type": "public", "operator:wikidata": "Q668687", "ref": "1350200008"}, "type": "Feature"}
{"dataset_attributes": {"@spider": "usps_collection_boxes", "spider:collection_time": "2023-12-31T08:23:44.423400"}, "geometry": {"coordinates": [-75.2722589, 43.096896], "type": "Point"}, "id": "bzAEFp9MW_DciJl8xSMa2vsVv7M=", "properties": {"@spider": "usps_collection_boxes", "addr:city": "UTICA", "addr:country": "US", "addr:full": "1600 BURRSTONE RD", "addr:postcode": "13502", "addr:state": "NY", "amenity": "post_box", "brand": "United States Postal Service", "brand:wikidata": "Q668687", "collection_times": "Mo-Fr 16:30; Sa 15:00", "name": "USPS COLLECTION BOX - BLUE BOX", "note": "ON 12/24 AND 12/31, THIS BOX MAY BE COLLECTED AS EARLY AS 12 NOON.", "nsi_id": "unitedstatespostalservice-a77078", "operator": "United States Postal Service", "operator:short": "USPS", "operator:type": "public", "operator:wikidata": "Q668687", "ref": "1350200009"}, "type": "Feature"}
{"dataset_attributes": {"@spider": "usps_collection_boxes", "spider:collection_time": "2023-12-31T08:23:44.423400"}, "geometry": {"coordinates": [-75.2721099, 43.095224], "type": "Point"}, "id": "CelXysqBcib-rnm6LK_guteqai0=", "properties": {"@spider": "usps_collection_boxes", "addr:city": "UTICA", "addr:country": "US", "addr:full": "1600 BURRSTONE RD", "addr:postcode": "13502", "addr:state": "NY", "amenity": "post_box", "brand": "United States Postal Service", "brand:wikidata": "Q668687", "collection_times": "Mo-Fr 16:30; Sa 15:00", "name": "USPS COLLECTION BOX - BLUE BOX", "note": "ON 12/24 AND 12/31, THIS BOX MAY BE COLLECTED AS EARLY AS 12 NOON.", "nsi_id": "unitedstatespostalservice-a77078", "operator": "United States Postal Service", "operator:short": "USPS", "operator:type": "public", "operator:wikidata": "Q668687", "ref": "1350200010"}, "type": "Feature"}
{"dataset_attributes": {"@spider": "usps_collection_boxes", "spider:collection_time": "2023-12-31T08:23:44.423400"}, "geometry": {"coordinates": [-75.200763, 43.112428], "type": "Point"}, "id": "-AKb6_6GFN7yoEVIOEIABZs6LDU=", "properties": {"@spider": "usps_collection_boxes", "addr:city": "UTICA", "addr:country": "US", "addr:full": "7 CANDLEWYCK LN", "addr:postcode": "13502", "addr:state": "NY", "amenity": "post_box", "brand": "United States Postal Service", "brand:wikidata": "Q668687", "collection_times": "Mo-Sa 09:00", "name": "USPS COLLECTION BOX - BLUE BOX", "nsi_id": "unitedstatespostalservice-a77078", "operator": "United States Postal Service", "operator:short": "USPS", "operator:type": "public", "operator:wikidata": "Q668687", "ref": "1350200013"}, "type": "Feature"}
{"dataset_attributes": {"@spider": "usps_collection_boxes", "spider:collection_time": "2023-12-31T08:23:44.423400"}, "geometry": {"coordinates": [-75.2677378, 43.108746], "type": "Point"}, "id": "F_LKYg2IAPT423uRzxqUdF8lfoY=", "properties": {"@spider": "usps_collection_boxes", "addr:city": "UTICA", "addr:country": "US", "addr:full": "2219 CAROLINE ST", "addr:postcode": "13502", "addr:state": "NY", "amenity": "post_box", "brand": "United States Postal Service", "brand:wikidata": "Q668687", "collection_times": "Mo-Sa 10:00", "name": "USPS COLLECTION BOX - BLUE BOX", "nsi_id": "unitedstatespostalservice-a77078", "operator": "United States Postal Service", "operator:short": "USPS", "operator:type": "public", "operator:wikidata": "Q668687", "ref": "1350200015"}, "type": "Feature"}
{"dataset_attributes": {"@spider": "usps_collection_boxes", "spider:collection_time": "2023-12-31T08:23:44.423400"}, "geometry": {"coordinates": [-75.2757464, 43.09713], "type": "Point"}, "id": "tJgacHFN4qlufOlPVqcZB9glhbM=", "properties": {"@spider": "usps_collection_boxes", "addr:city": "UTICA", "addr:country": "US", "addr:full": "1656 CHAMPLIN AVE", "addr:postcode": "13502", "addr:state": "NY", "amenity": "post_box", "brand": "United States Postal Service", "brand:wikidata": "Q668687", "collection_times": "Mo-Fr 16:45; Sa 15:00", "name": "USPS COLLECTION BOX - BLUE BOX", "note": "ON 12/24 AND 12/31, THIS BOX MAY BE COLLECTED AS EARLY AS 12 NOON.", "nsi_id": "unitedstatespostalservice-a77078", "operator": "United States Postal Service", "operator:short": "USPS", "operator:type": "public", "operator:wikidata": "Q668687", "ref": "1350200016"}, "type": "Feature"}
{"dataset_attributes": {"@spider": "usps_collection_boxes", "spider:collection_time": "2023-12-31T08:23:44.423400"}, "geometry": {"coordinates": [-75.2371077, 43.100229], "type": "Point"}, "id": "c8mPz9VQi4-R-YWRJOd346pYSlM=", "properties": {"@spider": "usps_collection_boxes", "addr:city": "UTICA", "addr:country": "US", "addr:full": "904 CORNELIA ST", "addr:postcode": "13502", "addr:state": "NY", "amenity": "post_box", "brand": "United States Postal Service", "brand:wikidata": "Q668687", "collection_times": "Mo-Fr 17:00; Sa 15:00", "name": "USPS COLLECTION BOX - BLUE BOX", "note": "ON 12/24 AND 12/31, THIS BOX MAY BE COLLECTED AS EARLY AS 12 NOON.", "nsi_id": "unitedstatespostalservice-a77078", "operator": "United States Postal Service", "operator:short": "USPS", "operator:type": "public", "operator:wikidata": "Q668687", "ref": "1350200020"}, "type": "Feature"}
{"dataset_attributes": {"@spider": "usps_collection_boxes", "spider:collection_time": "2023-12-31T08:23:44.423400"}, "geometry": {"coordinates": [-75.2277124, 43.127475], "type": "Point"}, "id": "W0_S4UmiVO7-8lcmCS6lBy8aWh4=", "properties": {"@spider": "usps_collection_boxes", "addr:city": "UTICA", "addr:country": "US", "addr:full": "407 CYPRESS ST", "addr:postcode": "13502", "addr:state": "NY", "amenity": "post_box", "brand": "United States Postal Service", "brand:wikidata": "Q668687", "collection_times": "Mo-Sa 12:00", "name": "USPS COLLECTION BOX - BLUE BOX", "nsi_id": "unitedstatespostalservice-a77078", "operator": "United States Postal Service", "operator:short": "USPS", "operator:type": "public", "operator:wikidata": "Q668687", "ref": "1350200022"}, "type": "Feature"}
{"dataset_attributes": {"@spider": "usps_collection_boxes", "spider:collection_time": "2023-12-31T08:23:44.423400"}, "geometry": {"coordinates": [-75.2818742, 43.08504], "type": "Point"}, "id": "vKw6JhIzeC4Ts8778vtJFkCYlbA=", "properties": {"@spider": "usps_collection_boxes", "addr:city": "UTICA", "addr:country": "US", "addr:full": "485 FRENCH RD", "addr:postcode": "13502", "addr:state": "NY", "amenity": "post_box", "brand": "United States Postal Service", "brand:wikidata": "Q668687", "collection_times": "Mo-Fr 17:00; Sa 14:00", "name": "USPS COLLECTION BOX - BLUE BOX", "note": "ON 12/24 AND 12/31, THIS BOX MAY BE COLLECTED AS EARLY AS 12 NOON.", "nsi_id": "unitedstatespostalservice-a77078", "operator": "United States Postal Service", "operator:short": "USPS", "operator:type": "public", "operator:wikidata": "Q668687", "ref": "1350200025"}, "type": "Feature"}
{"dataset_attributes": {"@spider": "usps_collection_boxes", "spider:collection_time": "2023-12-31T08:23:44.423400"}, "geometry": {"coordinates": [-75.2672526, 43.087486], "type": "Point"}, "id": "yvgUwXha_vvj6o3n-bS9u7a-E6M=", "properties": {"@spider": "usps_collection_boxes", "addr:city": "UTICA", "addr:country": "US", "addr:full": "901 HILLCREST AVE", "addr:postcode": "13502", "addr:state": "NY", "amenity": "post_box", "brand": "United States Postal Service", "brand:wikidata": "Q668687", "collection_times": "Mo-Sa 12:30", "name": "USPS COLLECTION BOX - BLUE BOX", "note": "ON 12/24 AND 12/31, THIS BOX MAY BE COLLECTED AS EARLY AS 12 NOON.", "nsi_id": "unitedstatespostalservice-a77078", "operator": "United States Postal Service", "operator:short": "USPS", "operator:type": "public", "operator:wikidata": "Q668687", "ref": "1350200027"}, "type": "Feature"}
{"dataset_attributes": {"@spider": "usps_collection_boxes", "spider:collection_time": "2023-12-31T08:23:44.423400"}, "geometry": {"coordinates": [-75.2669233, 43.095041], "type": "Point"}, "id": "hF0vEw7CG0aEQUw6T9uE7-okR9w=", "properties": {"@spider": "usps_collection_boxes", "addr:city": "UTICA", "addr:country": "US", "addr:full": "1649 GRANDVIEW AVE", "addr:postcode": "13502", "addr:state": "NY", "amenity": "post_box", "brand": "United States Postal Service", "brand:wikidata": "Q668687", "collection_times": "Mo-Sa 11:30", "name": "USPS COLLECTION BOX - BLUE BOX", "nsi_id": "unitedstatespostalservice-a77078", "operator": "United States Postal Service", "operator:short": "USPS", "operator:type": "public", "operator:wikidata": "Q668687", "ref": "1350200028"}, "type": "Feature"}
{"dataset_attributes": {"@spider": "usps_collection_boxes", "spider:collection_time": "2023-12-31T08:23:44.423400"}, "geometry": {"coordinates": [-75.2528949, 43.101862], "type": "Point"}, "id": "3mL1xNPz-tmIFbHZHsEVSF76sy0=", "properties": {"@spider": "usps_collection_boxes", "addr:city": "UTICA", "addr:country": "US", "addr:full": "1204 GRAY AVE", "addr:postcode": "13502", "addr:state": "NY", "amenity": "post_box", "brand": "United States Postal Service", "brand:wikidata": "Q668687", "collection_times": "Mo-Sa 14:00", "name": "USPS COLLECTION BOX - BLUE BOX", "note": "ON 12/24 AND 12/31, THIS BOX MAY BE COLLECTED AS EARLY AS 12 NOON.", "nsi_id": "unitedstatespostalservice-a77078", "operator": "United States Postal Service", "operator:short": "USPS", "operator:type": "public", "operator:wikidata": "Q668687", "ref": "1350200029"}, "type": "Feature"}
{"dataset_attributes": {"@spider": "usps_collection_boxes", "spider:collection_time": "2023-12-31T08:23:44.423400"}, "geometry": {"coordinates": [-75.2336651, 43.100311], "type": "Point"}, "id": "7obvWsXcGRpfHnlXHVHSv6hLaKc=", "properties": {"@spider": "usps_collection_boxes", "addr:city": "UTICA", "addr:country": "US", "addr:full": "244 GENESEE ST", "addr:postcode": "13502", "addr:state": "NY", "amenity": "post_box", "brand": "United States Postal Service", "brand:wikidata": "Q668687", "collection_times": "Mo-Fr 16:30; Sa 14:30", "name": "USPS COLLECTION BOX - BLUE BOX", "note": "ON 12/24 AND 12/31, THIS BOX MAY BE COLLECTED AS EARLY AS 12 NOON.", "nsi_id": "unitedstatespostalservice-a77078", "operator": "United States Postal Service", "operator:short": "USPS", "operator:type": "public", "operator:wikidata": "Q668687", "ref": "1350200033"}, "type": "Feature"}
{"dataset_attributes": {"@spider": "usps_collection_boxes", "spider:collection_time": "2023-12-31T08:23:44.423400"}, "geometry": {"coordinates": [-75.2351531, 43.09957], "type": "Point"}, "id": "NnsURwzyPvlVxyy2yGhc_WlBoZU=", "properties": {"@spider": "usps_collection_boxes", "addr:city": "UTICA", "addr:country": "US", "addr:full": "258 GENESEE ST", "addr:postcode": "13502", "addr:state": "NY", "amenity": "post_box", "brand": "United States Postal Service", "brand:wikidata": "Q668687", "collection_times": "Mo-Fr 17:00; Sa 15:00", "name": "USPS COLLECTION BOX - BLUE BOX", "note": "ON 12/24 AND 12/31, THIS BOX MAY BE COLLECTED AS EARLY AS 12 NOON.", "nsi_id": "unitedstatespostalservice-a77078", "operator": "United States Postal Service", "operator:short": "USPS", "operator:type": "public", "operator:wikidata": "Q668687", "ref": "1350200035"}, "type": "Feature"}
{"dataset_attributes": {"@spider": "usps_collection_boxes", "spider:collection_time": "2023-12-31T08:23:44.423400"}, "geometry": {"coordinates": [-75.247935, 43.10094], "type": "Point"}, "id": "yQLTg4dkd9Ujawhk7mphdbNSOQ4=", "properties": {"@spider": "usps_collection_boxes", "addr:city": "UTICA", "addr:country": "US", "addr:full": "276 GENESEE ST", "addr:postcode": "13502", "addr:state": "NY", "amenity": "post_box", "brand": "United States Postal Service", "brand:wikidata": "Q668687", "collection_times": "Mo-Fr 17:00; Sa 15:00", "name": "USPS COLLECTION BOX - BLUE BOX", "note": "ON 12/24 AND 12/31, THIS BOX MAY BE COLLECTED AS EARLY AS 12 NOON.", "nsi_id": "unitedstatespostalservice-a77078", "operator": "United States Postal Service", "operator:short": "USPS", "operator:type": "public", "operator:wikidata": "Q668687", "ref": "1350200038"}, "type": "Feature"}
{"dataset_attributes": {"@spider": "usps_collection_boxes", "spider:collection_time": "2023-12-31T08:23:44.423400"}, "geometry": {"coordinates": [-75.2376692, 43.098408], "type": "Point"}, "id": "7k7fS3FLljT2izcqapTh2Q9UIoo=", "properties": {"@spider": "usps_collection_boxes", "addr:city": "UTICA", "addr:country": "US", "addr:full": "284 GENESEE ST", "addr:postcode": "13502", "addr:state": "NY", "amenity": "post_box", "brand": "United States Postal Service", "brand:wikidata": "Q668687", "collection_times": "Mo-Fr 17:00; Sa 15:00", "name": "USPS COLLECTION BOX - BLUE BOX", "note": "ON 12/24 AND 12/31, THIS BOX MAY BE COLLECTED AS EARLY AS 12 NOON.", "nsi_id": "unitedstatespostalservice-a77078", "operator": "United States Postal Service", "operator:short": "USPS", "operator:type": "public", "operator:wikidata": "Q668687", "ref": "1350200039"}, "type": "Feature"}
{"dataset_attributes": {"@spider": "usps_collection_boxes", "spider:collection_time": "2023-12-31T08:23:44.423400"}, "geometry": {"coordinates": [-75.2490938, 43.092783], "type": "Point"}, "id": "9FQmqpZN2_4P5aLOzTEuKLAMvQo=", "properties": {"@spider": "usps_collection_boxes", "addr:city": "UTICA", "addr:country": "US", "addr:full": "1508 GENESEE ST", "addr:postcode": "13502", "addr:state": "NY", "amenity": "post_box", "brand": "United States Postal Service", "brand:wikidata": "Q668687", "collection_times": "Mo-Fr 17:00; Sa 15:00", "name": "USPS COLLECTION BOX - BLUE BOX", "note": "ON 12/24 AND 12/31, THIS BOX MAY BE COLLECTED AS EARLY AS 12 NOON.", "nsi_id": "unitedstatespostalservice-a77078", "operator": "United States Postal Service", "operator:short": "USPS", "operator:type": "public", "operator:wikidata": "Q668687", "ref": "1350200041"}, "type": "Feature"}
{"dataset_attributes": {"@spider": "usps_collection_boxes", "spider:collection_time": "2023-12-31T08:23:44.423400"}, "geometry": {"coordinates": [-75.2454242, 43.094603], "type": "Point"}, "id": "fZcPfJfzQt0VRaJdzkNRKqdoV0o=", "properties": {"@spider": "usps_collection_boxes", "addr:city": "UTICA", "addr:country": "US", "addr:full": "1416 GENESEE ST", "addr:postcode": "13502", "addr:state": "NY", "amenity": "post_box", "brand": "United States Postal Service", "brand:wikidata": "Q668687", "collection_times": "Mo-Fr 17:00; Sa 15:00", "name": "USPS COLLECTION BOX - BLUE BOX", "note": "ON 12/24 AND 12/31, THIS BOX MAY BE COLLECTED AS EARLY AS 12 NOON.", "nsi_id": "unitedstatespostalservice-a77078", "operator": "United States Postal Service", "operator:short": "USPS", "operator:type": "public", "operator:wikidata": "Q668687", "ref": "1350200042"}, "type": "Feature"}
{"dataset_attributes": {"@spider": "usps_collection_boxes", "spider:collection_time": "2023-12-31T08:23:44.423400"}, "geometry": {"coordinates": [-75.2673264, 43.084664], "type": "Point"}, "id": "G3XOoPaIvGF2qUkuP5xZCemZHQM=", "properties": {"@spider": "usps_collection_boxes", "addr:city": "UTICA", "addr:country": "US", "addr:full": "2206 GENESEE ST", "addr:postcode": "13502", "addr:state": "NY", "amenity": "post_box", "brand": "United States Postal Service", "brand:wikidata": "Q668687", "collection_times": "Mo-Fr 16:00; Sa 14:00", "name": "USPS COLLECTION BOX - BLUE BOX", "note": "ON 12/24 AND 12/31, THIS BOX MAY BE COLLECTED AS EARLY AS 12 NOON.", "nsi_id": "unitedstatespostalservice-a77078", "operator": "United States Postal Service", "operator:short": "USPS", "operator:type": "public", "operator:wikidata": "Q668687", "ref": "1350200051"}, "type": "Feature"}
{"dataset_attributes": {"@spider": "usps_collection_boxes", "spider:collection_time": "2023-12-31T08:23:44.423400"}, "geometry": {"coordinates": [-75.2757458, 43.079526], "type": "Point"}, "id": "x9hMrBFhVYFz0wsxJ1qWdS4jUiM=", "properties": {"@spider": "usps_collection_boxes", "addr:city": "UTICA", "addr:country": "US", "addr:full": "2600 GENESEE ST", "addr:postcode": "13502", "addr:state": "NY", "amenity": "post_box", "brand": "United States Postal Service", "brand:wikidata": "Q668687", "collection_times": "Mo-Sa 09:00", "name": "USPS COLLECTION BOX - BLUE BOX", "nsi_id": "unitedstatespostalservice-a77078", "operator": "United States Postal Service", "operator:short": "USPS", "operator:type": "public", "operator:wikidata": "Q668687", "ref": "1350200052"}, "type": "Feature"}
{"dataset_attributes": {"@spider": "usps_collection_boxes", "spider:collection_time": "2023-12-31T08:23:44.423400"}, "geometry": {"coordinates": [-75.2807895, 43.077008], "type": "Point"}, "id": "GoxLgCO2zRXz2EN-dWPME7NG_jc=", "properties": {"@spider": "usps_collection_boxes", "addr:city": "UTICA", "addr:country": "US", "addr:full": "2644 GENESEE ST", "addr:postcode": "13502", "addr:state": "NY", "amenity": "post_box", "brand": "United States Postal Service", "brand:wikidata": "Q668687", "collection_times": "Mo-Sa 09:00", "name": "USPS COLLECTION BOX - BLUE BOX", "nsi_id": "unitedstatespostalservice-a77078", "operator": "United States Postal Service", "operator:short": "USPS", "operator:type": "public", "operator:wikidata": "Q668687", "ref": "1350200053"}, "type": "Feature"}
{"dataset_attributes": {"@spider": "usps_collection_boxes", "spider:collection_time": "2023-12-31T08:23:44.423400"}, "geometry": {"coordinates": [-75.1806759, 43.110253], "type": "Point"}, "id": "Mumz7-rKuSsIMDIIge0Cj1ugp4Q=", "properties": {"@spider": "usps_collection_boxes", "addr:city": "UTICA", "addr:country": "US", "addr:full": "1301 HERKIMER RD", "addr:postcode": "13502", "addr:state": "NY", "amenity": "post_box", "brand": "United States Postal Service", "brand:wikidata": "Q668687", "collection_times": "Mo-Sa 14:00", "name": "USPS COLLECTION BOX - BLUE BOX", "note": "ON 12/24 AND 12/31, THIS BOX MAY BE COLLECTED AS EARLY AS 12 NOON.", "nsi_id": "unitedstatespostalservice-a77078", "operator": "United States Postal Service", "operator:short": "USPS", "operator:type": "public", "operator:wikidata": "Q668687", "ref": "1350200058"}, "type": "Feature"}
{"dataset_attributes": {"@spider": "usps_collection_boxes", "spider:collection_time": "2023-12-31T08:23:44.423400"}, "geometry": {"coordinates": [-75.2371684, 43.102136], "type": "Point"}, "id": "Zr6bPKJDa7KCap_8Rq_zYmVvnl0=", "properties": {"@spider": "usps_collection_boxes", "addr:city": "UTICA", "addr:country": "US", "addr:full": "2 KENNEDY PLZ", "addr:postcode": "13502", "addr:state": "NY", "amenity": "post_box", "brand": "United States Postal Service", "brand:wikidata": "Q668687", "collection_times": "Mo-Fr 16:30; Sa 14:30", "name": "USPS COLLECTION BOX - BLUE BOX", "note": "ON 12/24 AND 12/31, THIS BOX MAY BE COLLECTED AS EARLY AS 12 NOON.", "nsi_id": "unitedstatespostalservice-a77078", "operator": "United States Postal Service", "operator:short": "USPS", "operator:type": "public", "operator:wikidata": "Q668687", "ref": "1350200060"}, "type": "Feature"}
{"dataset_attributes": {"@spider": "usps_collection_boxes", "spider:collection_time": "2023-12-31T08:23:44.423400"}, "geometry": {"coordinates": [-75.2571542, 43.094022], "type": "Point"}, "id": "UPIFpm8p76ri-TzBG5ioehW6y1s=", "properties": {"@spider": "usps_collection_boxes", "addr:city": "UTICA", "addr:country": "US", "addr:full": "1613 LINCOLN AVE", "addr:postcode": "13502", "addr:state": "NY", "amenity": "post_box", "brand": "United States Postal Service", "brand:wikidata": "Q668687", "collection_times": "Mo-Sa 10:30", "name": "USPS COLLECTION BOX - BLUE BOX", "nsi_id": "unitedstatespostalservice-a77078", "operator": "United States Postal Service", "operator:short": "USPS", "operator:type": "public", "operator:wikidata": "Q668687", "ref": "1350200068"}, "type": "Feature"}
{"dataset_attributes": {"@spider": "usps_collection_boxes", "spider:collection_time": "2023-12-31T08:23:44.423400"}, "geometry": {"coordinates": [-75.2101138, 43.124905], "type": "Point"}, "id": "nY8TaNkF3gx8kgaJQRl7m3_4VGQ=", "properties": {"@spider": "usps_collection_boxes", "addr:city": "UTICA", "addr:country": "US", "addr:full": "503 MEADOW DR", "addr:postcode": "13502", "addr:state": "NY", "amenity": "post_box", "brand": "United States Postal Service", "brand:wikidata": "Q668687", "collection_times": "Mo-Sa 09:00", "name": "USPS COLLECTION BOX - BLUE BOX", "nsi_id": "unitedstatespostalservice-a77078", "operator": "United States Postal Service", "operator:short": "USPS", "operator:type": "public", "operator:wikidata": "Q668687", "ref": "1350200074"}, "type": "Feature"}
{"dataset_attributes": {"@spider": "usps_collection_boxes", "spider:collection_time": "2023-12-31T08:23:44.423400"}, "geometry": {"coordinates": [-75.247935, 43.10094], "type": "Point"}, "id": "VhNE6t97fCtY4Neg02xysqkAqqE=", "properties": {"@spider": "usps_collection_boxes", "addr:city": "UTICA", "addr:country": "US", "addr:full": "926 ORISKANY ST W", "addr:postcode": "13502", "addr:state": "NY", "amenity": "post_box", "brand": "United States Postal Service", "brand:wikidata": "Q668687", "collection_times": "Mo-Sa 09:00", "name": "USPS COLLECTION BOX - BLUE BOX", "nsi_id": "unitedstatespostalservice-a77078", "operator": "United States Postal Service", "operator:short": "USPS", "operator:type": "public", "operator:wikidata": "Q668687", "ref": "1350200077"}, "type": "Feature"}
{"dataset_attributes": {"@spider": "usps_collection_boxes", "spider:collection_time": "2023-12-31T08:23:44.423400"}, "geometry": {"coordinates": [-75.2554393, 43.097423], "type": "Point"}, "id": "ZJ3wE7yI3IH7FXRwe5h2_uz_yCY=", "properties": {"@spider": "usps_collection_boxes", "addr:city": "UTICA", "addr:country": "US", "addr:full": "1107 OSWEGO ST", "addr:postcode": "13502", "addr:state": "NY", "amenity": "post_box", "brand": "United States Postal Service", "brand:wikidata": "Q668687", "collection_times": "Mo-Sa 10:00", "name": "USPS COLLECTION BOX - BLUE BOX", "nsi_id": "unitedstatespostalservice-a77078", "operator": "United States Postal Service", "operator:short": "USPS", "operator:type": "public", "operator:wikidata": "Q668687", "ref": "1350200078"}, "type": "Feature"}
{"dataset_attributes": {"@spider": "usps_collection_boxes", "spider:collection_time": "2023-12-31T08:23:44.423400"}, "geometry": {"coordinates": [-75.2336172, 43.13805], "type": "Point"}, "id": "tYSmqkvrUMMCrIF9P89cZ2wSULs=", "properties": {"@spider": "usps_collection_boxes", "addr:city": "UTICA", "addr:country": "US", "addr:full": "625 RESIDENTIAL DR", "addr:postcode": "13502", "addr:state": "NY", "amenity": "post_box", "brand": "United States Postal Service", "brand:wikidata": "Q668687", "collection_times": "Mo-Sa 10:00", "name": "USPS COLLECTION BOX - BLUE BOX", "nsi_id": "unitedstatespostalservice-a77078", "operator": "United States Postal Service", "operator:short": "USPS", "operator:type": "public", "operator:wikidata": "Q668687", "ref": "1350200080"}, "type": "Feature"}
{"dataset_attributes": {"@spider": "usps_collection_boxes", "spider:collection_time": "2023-12-31T08:23:44.423400"}, "geometry": {"coordinates": [-75.2865719, 43.076782], "type": "Point"}, "id": "z4CtnMPFDybRuIDob3pgMqhHPFw=", "properties": {"@spider": "usps_collection_boxes", "addr:city": "UTICA", "addr:country": "US", "addr:full": "30 RICHARDSON AVE", "addr:postcode": "13502", "addr:state": "NY", "amenity": "post_box", "brand": "United States Postal Service", "brand:wikidata": "Q668687", "collection_times": "Mo-Sa 14:30", "name": "USPS COLLECTION BOX - BLUE BOX", "note": "ON 12/24 AND 12/31, THIS BOX MAY BE COLLECTED AS EARLY AS 12 NOON.", "nsi_id": "unitedstatespostalservice-a77078", "operator": "United States Postal Service", "operator:short": "USPS", "operator:type": "public", "operator:wikidata": "Q668687", "ref": "1350200081"}, "type": "Feature"}
{"dataset_attributes": {"@spider": "usps_collection_boxes", "spider:collection_time": "2023-12-31T08:23:44.423400"}, "geometry": {"coordinates": [-75.2145514671, 43.1179090599], "type": "Point"}, "id": "zvU5x00N79WS4CmO6VwryLb5JcU=", "properties": {"@spider": "usps_collection_boxes", "addr:city": "UTICA", "addr:country": "US", "addr:full": "74 RIVERSIDE DR", "addr:postcode": "13502", "addr:state": "NY", "amenity": "post_box", "brand": "United States Postal Service", "brand:wikidata": "Q668687", "collection_times": "Mo-Sa 11:30", "name": "USPS COLLECTION BOX - BLUE BOX", "nsi_id": "unitedstatespostalservice-a77078", "operator": "United States Postal Service", "operator:short": "USPS", "operator:type": "public", "operator:wikidata": "Q668687", "ref": "1350200082"}, "type": "Feature"}
{"dataset_attributes": {"@spider": "usps_collection_boxes", "spider:collection_time": "2023-12-31T08:23:44.423400"}, "geometry": {"coordinates": [-75.226019, 43.12412], "type": "Point"}, "id": "l5t5Oih5fPxqlr5E3Lm6lDMr5yo=", "properties": {"@spider": "usps_collection_boxes", "addr:city": "UTICA", "addr:country": "US", "addr:full": "710 HORATIO ST", "addr:postcode": "13502", "addr:state": "NY", "amenity": "post_box", "brand": "United States Postal Service", "brand:wikidata": "Q668687", "collection_times": "Mo-Sa 10:00", "name": "USPS COLLECTION BOX - BLUE BOX", "nsi_id": "unitedstatespostalservice-a77078", "operator": "United States Postal Service", "operator:short": "USPS", "operator:type": "public", "operator:wikidata": "Q668687", "ref": "1350200085"}, "type": "Feature"}
{"dataset_attributes": {"@spider": "usps_collection_boxes", "spider:collection_time": "2023-12-31T08:23:44.423400"}, "geometry": {"coordinates": [-75.2775646, 43.083185], "type": "Point"}, "id": "ERNwWVfXQnzDQpu_sC4fa83xhAE=", "properties": {"@spider": "usps_collection_boxes", "addr:city": "UTICA", "addr:country": "US", "addr:full": "244 ROOSEVELT DR", "addr:postcode": "13502", "addr:state": "NY", "amenity": "post_box", "brand": "United States Postal Service", "brand:wikidata": "Q668687", "collection_times": "Mo-Sa 14:30", "name": "USPS COLLECTION BOX - BLUE BOX", "note": "ON 12/24 AND 12/31, THIS BOX MAY BE COLLECTED AS EARLY AS 12 NOON.", "nsi_id": "unitedstatespostalservice-a77078", "operator": "United States Postal Service", "operator:short": "USPS", "operator:type": "public", "operator:wikidata": "Q668687", "ref": "1350200086"}, "type": "Feature"}
{"dataset_attributes": {"@spider": "usps_collection_boxes", "spider:collection_time": "2023-12-31T08:23:44.423400"}, "geometry": {"coordinates": [-75.23113, 43.10213], "type": "Point"}, "id": "wsMyShtvG_j7mR2Upkz7hK_RCO0=", "properties": {"@spider": "usps_collection_boxes", "addr:city": "UTICA", "addr:country": "US", "addr:full": "500 SENECA ST", "addr:postcode": "13502", "addr:state": "NY", "amenity": "post_box", "brand": "United States Postal Service", "brand:wikidata": "Q668687", "collection_times": "Mo-Fr 16:30; Sa 13:00", "name": "USPS COLLECTION BOX - PO LOBBY", "note": "ON 12/24 AND 12/31, THIS BOX MAY BE COLLECTED AS EARLY AS 12 NOON.", "nsi_id": "unitedstatespostalservice-a77078", "operator": "United States Postal Service", "operator:short": "USPS", "operator:type": "public", "operator:wikidata": "Q668687", "ref": "1350200089"}, "type": "Feature"}
{"dataset_attributes": {"@spider": "usps_collection_boxes", "spider:collection_time": "2023-12-31T08:23:44.423400"}, "geometry": {"coordinates": [-75.2307313, 43.102258], "type": "Point"}, "id": "hk2GkdYq296gwPWdHEUYS6-IvwM=", "properties": {"@spider": "usps_collection_boxes", "addr:city": "UTICA", "addr:country": "US", "addr:full": "500 SENECA ST", "addr:postcode": "13502", "addr:state": "NY", "amenity": "post_box", "brand": "United States Postal Service", "brand:wikidata": "Q668687", "collection_times": "Mo-Fr 16:30; Sa 13:00", "name": "USPS COLLECTION BOX - BLUE BOX", "note": "ON 12/24 AND 12/31, THIS BOX MAY BE COLLECTED AS EARLY AS 12 NOON.", "nsi_id": "unitedstatespostalservice-a77078", "operator": "United States Postal Service", "operator:short": "USPS", "operator:type": "public", "operator:wikidata": "Q668687", "ref": "1350200090"}, "type": "Feature"}
{"dataset_attributes": {"@spider": "usps_collection_boxes", "spider:collection_time": "2023-12-31T08:23:44.423400"}, "geometry": {"coordinates": [-75.2583213, 43.091671], "type": "Point"}, "id": "XRGd5M5oy5clNopRI1WoIoYPAmk=", "properties": {"@spider": "usps_collection_boxes", "addr:city": "UTICA", "addr:country": "US", "addr:full": "1675 BENNETT ST", "addr:postcode": "13502", "addr:state": "NY", "amenity": "post_box", "brand": "United States Postal Service", "brand:wikidata": "Q668687", "collection_times": "Mo-Fr 16:30; Sa 15:00", "name": "USPS COLLECTION BOX - BLUE BOX", "note": "ON 12/24 AND 12/31, THIS BOX MAY BE COLLECTED AS EARLY AS 12 NOON.", "nsi_id": "unitedstatespostalservice-a77078", "operator": "United States Postal Service", "operator:short": "USPS", "operator:type": "public", "operator:wikidata": "Q668687", "ref": "1350200097"}, "type": "Feature"}
{"dataset_attributes": {"@spider": "usps_collection_boxes", "spider:collection_time": "2023-12-31T08:23:44.423400"}, "geometry": {"coordinates": [-75.2636049, 43.087847], "type": "Point"}, "id": "Jh7TBwEENJ4UAOdFkzZ91oCdo74=", "properties": {"@spider": "usps_collection_boxes", "addr:city": "UTICA", "addr:country": "US", "addr:full": "1938 SUNSET AVE", "addr:postcode": "13502", "addr:state": "NY", "amenity": "post_box", "brand": "United States Postal Service", "brand:wikidata": "Q668687", "collection_times": "Mo-Sa 10:00", "name": "USPS COLLECTION BOX - BLUE BOX", "nsi_id": "unitedstatespostalservice-a77078", "operator": "United States Postal Service", "operator:short": "USPS", "operator:type": "public", "operator:wikidata": "Q668687", "ref": "1350200098"}, "type": "Feature"}
{"dataset_attributes": {"@spider": "usps_collection_boxes", "spider:collection_time": "2023-12-31T08:23:44.423400"}, "geometry": {"coordinates": [-75.2707473, 43.084255], "type": "Point"}, "id": "ifO_aIPW2JmR0DUxmX_Hv5mBpnw=", "properties": {"@spider": "usps_collection_boxes", "addr:city": "UTICA", "addr:country": "US", "addr:full": "2300 SUNSET AVE", "addr:postcode": "13502", "addr:state": "NY", "amenity": "post_box", "brand": "United States Postal Service", "brand:wikidata": "Q668687", "collection_times": "Mo-Sa 10:30", "name": "USPS COLLECTION BOX - BLUE BOX", "nsi_id": "unitedstatespostalservice-a77078", "operator": "United States Postal Service", "operator:short": "USPS", "operator:type": "public", "operator:wikidata": "Q668687", "ref": "1350200099"}, "type": "Feature"}
{"dataset_attributes": {"@spider": "usps_collection_boxes", "spider:collection_time": "2023-12-31T08:23:44.423400"}, "geometry": {"coordinates": [-75.2097179905, 43.1179852752], "type": "Point"}, "id": "vVOF0Pb6Ox4MXcg1EJX8dpTyBH0=", "properties": {"@spider": "usps_collection_boxes", "addr:city": "UTICA", "addr:country": "US", "addr:full": "433 COVENTRY AVE", "addr:postcode": "13502", "addr:state": "NY", "amenity": "post_box", "brand": "United States Postal Service", "brand:wikidata": "Q668687", "collection_times": "Mo-Fr 17:30; Sa 16:30", "name": "USPS COLLECTION BOX - BLUE BOX", "note": "ON 12/24 AND 12/31, THIS BOX MAY BE COLLECTED AS EARLY AS 12 NOON.", "nsi_id": "unitedstatespostalservice-a77078", "operator": "United States Postal Service", "operator:short": "USPS", "operator:type": "public", "operator:wikidata": "Q668687", "ref": "1350200103"}, "type": "Feature"}
{"dataset_attributes": {"@spider": "usps_collection_boxes", "spider:collection_time": "2023-12-31T08:23:44.423400"}, "geometry": {"coordinates": [-75.2407062, 43.104435], "type": "Point"}, "id": "8a6KSG1Sa0tFKx2ceNP9VzfJwj4=", "properties": {"@spider": "usps_collection_boxes", "addr:city": "UTICA", "addr:country": "US", "addr:full": "624 COLUMBIA ST", "addr:postcode": "13502", "addr:state": "NY", "amenity": "post_box", "brand": "United States Postal Service", "brand:wikidata": "Q668687", "collection_times": "Mo-Sa 09:00", "name": "USPS COLLECTION BOX - BLUE BOX", "nsi_id": "unitedstatespostalservice-a77078", "operator": "United States Postal Service", "operator:short": "USPS", "operator:type": "public", "operator:wikidata": "Q668687", "ref": "1350200105"}, "type": "Feature"}
{"dataset_attributes": {"@spider": "usps_collection_boxes", "spider:collection_time": "2023-12-31T08:23:44.423400"}, "geometry": {"coordinates": [-75.2635005, 43.111046], "type": "Point"}, "id": "KTavK_koogNUHN6vMl8aTgaBZ18=", "properties": {"@spider": "usps_collection_boxes", "addr:city": "UTICA", "addr:country": "US", "addr:full": "2214 WHITESBORO ST", "addr:postcode": "13502", "addr:state": "NY", "amenity": "post_box", "brand": "United States Postal Service", "brand:wikidata": "Q668687", "collection_times": "Mo-Sa 15:00", "name": "USPS COLLECTION BOX - BLUE BOX", "note": "ON 12/24 AND 12/31, THIS BOX MAY BE COLLECTED AS EARLY AS 12 NOON.", "nsi_id": "unitedstatespostalservice-a77078", "operator": "United States Postal Service", "operator:short": "USPS", "operator:type": "public", "operator:wikidata": "Q668687", "ref": "1350200113"}, "type": "Feature"}
{"dataset_attributes": {"@spider": "usps_collection_boxes", "spider:collection_time": "2023-12-31T08:23:44.423400"}, "geometry": {"coordinates": [-75.2617724, 43.096438], "type": "Point"}, "id": "41oHeSp5nwvsYe2CpdwfOvuRXw0=", "properties": {"@spider": "usps_collection_boxes", "addr:city": "UTICA", "addr:country": "US", "addr:full": "1617 YORK ST", "addr:postcode": "13502", "addr:state": "NY", "amenity": "post_box", "brand": "United States Postal Service", "brand:wikidata": "Q668687", "collection_times": "Mo-Sa 12:00", "name": "USPS COLLECTION BOX - BLUE BOX", "nsi_id": "unitedstatespostalservice-a77078", "operator": "United States Postal Service", "operator:short": "USPS", "operator:type": "public", "operator:wikidata": "Q668687", "ref": "1350200116"}, "type": "Feature"}
{"dataset_attributes": {"@spider": "usps_collection_boxes", "spider:collection_time": "2023-12-31T08:23:44.423400"}, "geometry": {"coordinates": [-75.288573, 43.081687], "type": "Point"}, "id": "cdoxorkTDYd-DqSmPTZVRKSTSi0=", "properties": {"@spider": "usps_collection_boxes", "addr:city": "UTICA", "addr:country": "US", "addr:full": "100 LOMOND CT", "addr:postcode": "13502", "addr:state": "NY", "amenity": "post_box", "brand": "United States Postal Service", "brand:wikidata": "Q668687", "collection_times": "Mo-Fr 17:00; Sa 14:00", "name": "USPS COLLECTION BOX - BLUE BOX", "note": "ON 12/24 AND 12/31, THIS BOX MAY BE COLLECTED AS EARLY AS 12 NOON.", "nsi_id": "unitedstatespostalservice-a77078", "operator": "United States Postal Service", "operator:short": "USPS", "operator:type": "public", "operator:wikidata": "Q668687", "ref": "1350200121"}, "type": "Feature"}
{"dataset_attributes": {"@spider": "usps_collection_boxes", "spider:collection_time": "2023-12-31T08:23:44.423400"}, "geometry": {"coordinates": [-75.2885791, 43.081694], "type": "Point"}, "id": "TDtQNch8LV2njkkLgjl3OkTyBZI=", "properties": {"@spider": "usps_collection_boxes", "addr:city": "UTICA", "addr:country": "US", "addr:full": "100 LOMOND CT", "addr:postcode": "13502", "addr:state": "NY", "amenity": "post_box", "brand": "United States Postal Service", "brand:wikidata": "Q668687", "collection_times": "Mo-Fr 17:00; Sa 14:00", "name": "USPS COLLECTION BOX - BLUE BOX", "note": "ON 12/24 AND 12/31, THIS BOX MAY BE COLLECTED AS EARLY AS 12 NOON.", "nsi_id": "unitedstatespostalservice-a77078", "operator": "United States Postal Service", "operator:short": "USPS", "operator:type": "public", "operator:wikidata": "Q668687", "ref": "1350200122"}, "type": "Feature"}
{"dataset_attributes": {"@spider": "usps_collection_boxes", "spider:collection_time": "2023-12-31T08:23:44.423400"}, "geometry": {"coordinates": [-75.2270859, 43.103627], "type": "Point"}, "id": "X9lljPjetUn5SjjRyM1lyOBp3qI=", "properties": {"@spider": "usps_collection_boxes", "addr:city": "UTICA", "addr:country": "US", "addr:full": "70 GENESEE ST", "addr:postcode": "13502", "addr:state": "NY", "amenity": "post_box", "brand": "United States Postal Service", "brand:wikidata": "Q668687", "collection_times": "Mo-Fr 16:30; Sa 15:00", "name": "USPS COLLECTION BOX - BLUE BOX", "note": "ON 12/24 AND 12/31, THIS BOX MAY BE COLLECTED AS EARLY AS 12 NOON.", "nsi_id": "unitedstatespostalservice-a77078", "operator": "United States Postal Service", "operator:short": "USPS", "operator:type": "public", "operator:wikidata": "Q668687", "ref": "1350200127"}, "type": "Feature"}
{"dataset_attributes": {"@spider": "usps_collection_boxes", "spider:collection_time": "2023-12-31T08:23:44.423400"}, "geometry": {"coordinates": [-75.2235734, 43.139902], "type": "Point"}, "id": "SSslSmjqePV_cpGaV_5SIry48dE=", "properties": {"@spider": "usps_collection_boxes", "addr:city": "UTICA", "addr:country": "US", "addr:full": "440 HILLTOP DR", "addr:postcode": "13502", "addr:state": "NY", "amenity": "post_box", "brand": "United States Postal Service", "brand:wikidata": "Q668687", "collection_times": "Mo-Sa 10:00", "name": "USPS COLLECTION BOX - BLUE BOX", "nsi_id": "unitedstatespostalservice-a77078", "operator": "United States Postal Service", "operator:short": "USPS", "operator:type": "public", "operator:wikidata": "Q668687", "ref": "1350200128"}, "type": "Feature"}
{"dataset_attributes": {"@spider": "usps_collection_boxes", "spider:collection_time": "2023-12-31T08:23:44.423400"}, "geometry": {"coordinates": [-75.2510433715, 43.0920217014], "type": "Point"}, "id": "9iiNO-KGpE5E3TD9TynU65aBwNo=", "properties": {"@spider": "usps_collection_boxes", "addr:city": "UTICA", "addr:country": "US", "addr:full": "1600 GENESEE ST", "addr:postcode": "13502", "addr:state": "NY", "amenity": "post_box", "brand": "United States Postal Service", "brand:wikidata": "Q668687", "collection_times": "Mo-Fr 17:00; Sa 15:00", "name": "USPS COLLECTION BOX - BLUE BOX", "note": "ON 12/24 AND 12/31, THIS BOX MAY BE COLLECTED AS EARLY AS 12 NOON.", "nsi_id": "unitedstatespostalservice-a77078", "operator": "United States Postal Service", "operator:short": "USPS", "operator:type": "public", "operator:wikidata": "Q668687", "ref": "1350200130"}, "type": "Feature"}
{"dataset_attributes": {"@spider": "usps_collection_boxes", "spider:collection_time": "2023-12-31T08:23:44.423400"}, "geometry": {"coordinates": [-75.252806539, 43.099395209], "type": "Point"}, "id": "5Ur8nw_eJLEU2AeXssWUdIhWHME=", "properties": {"@spider": "usps_collection_boxes", "addr:city": "UTICA", "addr:country": "US", "addr:full": "1312 LENOX AVE", "addr:postcode": "13502", "addr:state": "NY", "amenity": "post_box", "brand": "United States Postal Service", "brand:wikidata": "Q668687", "collection_times": "Mo-Sa 12:00", "name": "USPS COLLECTION BOX - BLUE BOX", "nsi_id": "unitedstatespostalservice-a77078", "operator": "United States Postal Service", "operator:short": "USPS", "operator:type": "public", "operator:wikidata": "Q668687", "ref": "1350200132"}, "type": "Feature"}
{"dataset_attributes": {"@spider": "usps_collection_boxes", "spider:collection_time": "2023-12-31T08:23:44.423400"}, "geometry": {"coordinates": [-75.2630624, 43.106732], "type": "Point"}, "id": "ofuHRd-_8MzsT4zZvUTBh45hcCw=", "properties": {"@spider": "usps_collection_boxes", "addr:city": "UTICA", "addr:country": "US", "addr:full": "1101 KELLOGG AVE", "addr:postcode": "13502", "addr:state": "NY", "amenity": "post_box", "brand": "United States Postal Service", "brand:wikidata": "Q668687", "collection_times": "Mo-Sa 11:00", "name": "USPS COLLECTION BOX - BLUE BOX", "nsi_id": "unitedstatespostalservice-a77078", "operator": "United States Postal Service", "operator:short": "USPS", "operator:type": "public", "operator:wikidata": "Q668687", "ref": "1350200133"}, "type": "Feature"}
{"dataset_attributes": {"@spider": "usps_collection_boxes", "spider:collection_time": "2023-12-31T08:23:44.423400"}, "geometry": {"coordinates": [-75.247935, 43.10094], "type": "Point"}, "id": "EMx8YBt6yeEob4V15vW0n0rLlTc=", "properties": {"@spider": "usps_collection_boxes", "addr:city": "UTICA", "addr:country": "US", "addr:full": "1634 GENESEE ST", "addr:postcode": "13502", "addr:state": "NY", "amenity": "post_box", "brand": "United States Postal Service", "brand:wikidata": "Q668687", "collection_times": "Mo-Sa 09:00", "name": "USPS COLLECTION BOX - BLUE BOX", "nsi_id": "unitedstatespostalservice-a77078", "operator": "United States Postal Service", "operator:short": "USPS", "operator:type": "public", "operator:wikidata": "Q668687", "ref": "1350200134"}, "type": "Feature"}
{"dataset_attributes": {"@spider": "usps_collection_boxes", "spider:collection_time": "2023-12-31T08:23:44.423400"}, "geometry": {"coordinates": [-75.2847118, 43.086415], "type": "Point"}, "id": "_AiKJ75Y7S2XXss8gDlzUGak66g=", "properties": {"@spider": "usps_collection_boxes", "addr:city": "UTICA", "addr:country": "US", "addr:full": "525 FRENCH RD", "addr:postcode": "13502", "addr:state": "NY", "amenity": "post_box", "brand": "United States Postal Service", "brand:wikidata": "Q668687", "collection_times": "Mo-Fr 16:30; Sa 14:00", "name": "USPS COLLECTION BOX - BLUE BOX", "note": "ON 12/24 AND 12/31, THIS BOX MAY BE COLLECTED AS EARLY AS 12 NOON.", "nsi_id": "unitedstatespostalservice-a77078", "operator": "United States Postal Service", "operator:short": "USPS", "operator:type": "public", "operator:wikidata": "Q668687", "ref": "1350200135"}, "type": "Feature"}
{"dataset_attributes": {"@spider": "usps_collection_boxes", "spider:collection_time": "2023-12-31T08:23:44.423400"}, "geometry": {"coordinates": [-75.16294892, 43.104501057], "type": "Point"}, "id": "f2nqwQKbuBunXg9rsrTm0Zafvwk=", "properties": {"@spider": "usps_collection_boxes", "addr:city": "UTICA", "addr:country": "US", "addr:full": "2090 STATE ROUTE 5", "addr:postcode": "13502", "addr:state": "NY", "amenity": "post_box", "brand": "United States Postal Service", "brand:wikidata": "Q668687", "collection_times": "Mo-Sa 15:00", "name": "USPS COLLECTION BOX - BLUE BOX", "note": "ON 12/24 AND 12/31, THIS BOX MAY BE COLLECTED AS EARLY AS 12 NOON.", "nsi_id": "unitedstatespostalservice-a77078", "operator": "United States Postal Service", "operator:short": "USPS", "operator:type": "public", "operator:wikidata": "Q668687", "ref": "1350200136"}, "type": "Feature"}
{"dataset_attributes": {"@spider": "usps_collection_boxes", "spider:collection_time": "2023-12-31T08:23:44.423400"}, "geometry": {"coordinates": [-75.247935, 43.10094], "type": "Point"}, "id": "gQNJ3dMbr40xB77KE-Dw5EkK5Sc=", "properties": {"@spider": "usps_collection_boxes", "addr:city": "UTICA", "addr:country": "US", "addr:full": "1021 COLUMBIA ST", "addr:postcode": "13502", "addr:state": "NY", "amenity": "post_box", "brand": "United States Postal Service", "brand:wikidata": "Q668687", "collection_times": "Mo-Sa 11:00", "name": "USPS COLLECTION BOX - BLUE BOX", "nsi_id": "unitedstatespostalservice-a77078", "operator": "United States Postal Service", "operator:short": "USPS", "operator:type": "public", "operator:wikidata": "Q668687", "ref": "1350200137"}, "type": "Feature"}
{"dataset_attributes": {"@spider": "usps_collection_boxes", "spider:collection_time": "2023-12-31T08:23:44.423400"}, "geometry": {"coordinates": [-75.2098669, 43.117563], "type": "Point"}, "id": "gKlguShvfCrVtgyLufheb_vibpA=", "properties": {"@spider": "usps_collection_boxes", "addr:city": "UTICA", "addr:country": "US", "addr:full": "433 COVENTRY AVE", "addr:postcode": "13502", "addr:state": "NY", "amenity": "post_box", "brand": "United States Postal Service", "brand:wikidata": "Q668687", "collection_times": "Mo-Fr 17:30; Sa 16:30", "name": "USPS COLLECTION BOX - BLUE BOX", "note": "ON 12/24 AND 12/31, THIS BOX MAY BE COLLECTED AS EARLY AS 12 NOON.", "nsi_id": "unitedstatespostalservice-a77078", "operator": "United States Postal Service", "operator:short": "USPS", "operator:type": "public", "operator:wikidata": "Q668687", "ref": "1350200140"}, "type": "Feature"}
{"dataset_attributes": {"@spider": "usps_collection_boxes", "spider:collection_time": "2023-12-31T08:23:44.423400"}, "geometry": {"coordinates": [-75.285191, 43.092266], "type": "Point"}, "id": "dvacwb_Uecfj2ugcoTpIqcCpzMA=", "properties": {"@spider": "usps_collection_boxes", "addr:city": "UTICA", "addr:country": "US", "addr:full": "122 BUSINESS PARK DR", "addr:postcode": "13502", "addr:state": "NY", "amenity": "post_box", "brand": "United States Postal Service", "brand:wikidata": "Q668687", "collection_times": "Mo-Fr 17:00; Sa 14:00", "name": "USPS COLLECTION BOX - BLUE BOX", "note": "ON 12/24 AND 12/31, THIS BOX MAY BE COLLECTED AS EARLY AS 12 NOON.", "nsi_id": "unitedstatespostalservice-a77078", "operator": "United States Postal Service", "operator:short": "USPS", "operator:type": "public", "operator:wikidata": "Q668687", "ref": "1350200141"}, "type": "Feature"}
{"dataset_attributes": {"@spider": "usps_collection_boxes", "spider:collection_time": "2023-12-31T08:23:44.423400"}, "geometry": {"coordinates": [-75.2832766, 43.089806], "type": "Point"}, "id": "jYZJyqnwXZ3Azrsw41EaoLFQAKQ=", "properties": {"@spider": "usps_collection_boxes", "addr:city": "UTICA", "addr:country": "US", "addr:full": "114 BUSINESS PARK DR", "addr:postcode": "13502", "addr:state": "NY", "amenity": "post_box", "brand": "United States Postal Service", "brand:wikidata": "Q668687", "collection_times": "Mo-Fr 17:00; Sa 14:00", "name": "USPS COLLECTION BOX - BLUE BOX", "note": "ON 12/24 AND 12/31, THIS BOX MAY BE COLLECTED AS EARLY AS 12 NOON.", "nsi_id": "unitedstatespostalservice-a77078", "operator": "United States Postal Service", "operator:short": "USPS", "operator:type": "public", "operator:wikidata": "Q668687", "ref": "1350200143"}, "type": "Feature"}
{"dataset_attributes": {"@spider": "usps_collection_boxes", "spider:collection_time": "2023-12-31T08:23:44.423400"}, "geometry": {"coordinates": [-75.23087488, 43.102245982], "type": "Point"}, "id": "UZOZxfmWaw5es1QiN8XanG4mWmA=", "properties": {"@spider": "usps_collection_boxes", "addr:city": "UTICA", "addr:country": "US", "addr:full": "500 SENECA ST", "addr:postcode": "13502", "addr:state": "NY", "amenity": "post_box", "brand": "United States Postal Service", "brand:wikidata": "Q668687", "collection_times": "Mo-Fr 16:30; Sa 13:00", "name": "USPS COLLECTION BOX - PO LOBBY", "note": "ON 12/24 AND 12/31, THIS BOX MAY BE COLLECTED AS EARLY AS 12 NOON.", "nsi_id": "unitedstatespostalservice-a77078", "operator": "United States Postal Service", "operator:short": "USPS", "operator:type": "public", "operator:wikidata": "Q668687", "ref": "1350200144"}, "type": "Feature"}
{"dataset_attributes": {"@spider": "usps_collection_boxes", "spider:collection_time": "2023-12-31T08:23:44.423400"}, "geometry": {"coordinates": [-75.184026951, 43.0936288], "type": "Point"}, "id": "dd_umPWo_Kp6Tmi_p63beJnFGlE=", "properties": {"@spider": "usps_collection_boxes", "addr:city": "UTICA", "addr:country": "US", "addr:full": "100 PITCHER ST", "addr:postcode": "13504", "addr:state": "NY", "amenity": "post_box", "brand": "United States Postal Service", "brand:wikidata": "Q668687", "collection_times": "Mo-Fr 17:30; Sa 14:00", "name": "USPS COLLECTION BOX - PO LOBBY", "note": "ON 12/24 AND 12/31, THIS BOX MAY BE COLLECTED AS EARLY AS 12 NOON.", "nsi_id": "unitedstatespostalservice-a77078", "operator": "United States Postal Service", "operator:short": "USPS", "operator:type": "public", "operator:wikidata": "Q668687", "ref": "1350400002"}, "type": "Feature"}
