{"dataset_attributes": {"@spider": "usps_collection_boxes"}, "geometry": {"coordinates": [-75.7001135, 44.057117], "type": "Point"}, "id": "s9KuWlXQ4sYXpmZfoygVm_k8w-k=", "properties": {"@spider": "usps_collection_boxes", "addr:city": "WATERTOWN", "addr:country": "US", "addr:full": "2502 GARRISON DR", "addr:postcode": "13603", "addr:state": "NY", "amenity": "post_box", "brand": "United States Postal Service", "brand:wikidata": "Q668687", "collection_times": "Mo-Sa 08:30", "name": "USPS COLLECTION BOX - BLUE BOX", "nsi_id": "unitedstatespostalservice-a77078", "operator": "United States Postal Service", "operator:short": "USPS", "operator:type": "public", "operator:wikidata": "Q668687", "ref": "1360300001"}, "type": "Feature"}
{"dataset_attributes": {"@spider": "usps_collection_boxes"}, "geometry": {"coordinates": [-75.608049, 44.199822], "type": "Point"}, "id": "GeeuwSJoZMCT-CwyFkYHz-P14FQ=", "properties": {"@spider": "usps_collection_boxes", "addr:city": "ANTWERP", "addr:country": "US", "addr:full": "50 MAIN ST", "addr:postcode": "13608", "addr:state": "NY", "amenity": "post_box", "brand": "United States Postal Service", "brand:wikidata": "Q668687", "collection_times": "Mo-Fr 12:00; Sa 11:30", "name": "USPS COLLECTION BOX - BLUE BOX", "nsi_id": "unitedstatespostalservice-a77078", "operator": "United States Postal Service", "operator:short": "USPS", "operator:type": "public", "operator:wikidata": "Q668687", "ref": "1360800001"}, "type": "Feature"}
{"dataset_attributes": {"@spider": "usps_collection_boxes"}, "geometry": {"coordinates": [-75.608049, 44.199822], "type": "Point"}, "id": "_jiZ18fRsqEEPactoOndUohbP5k=", "properties": {"@spider": "usps_collection_boxes", "addr:city": "ANTWERP", "addr:country": "US", "addr:full": "50 MAIN ST", "addr:postcode": "13608", "addr:state": "NY", "amenity": "post_box", "brand": "United States Postal Service", "brand:wikidata": "Q668687", "collection_times": "Mo-Fr 12:00; Sa 11:30", "name": "USPS COLLECTION BOX - PO LOBBY", "nsi_id": "unitedstatespostalservice-a77078", "operator": "United States Postal Service", "operator:short": "USPS", "operator:type": "public", "operator:wikidata": "Q668687", "ref": "1360800002"}, "type": "Feature"}
{"dataset_attributes": {"@spider": "usps_collection_boxes"}, "geometry": {"coordinates": [-75.607870835, 44.199725156], "type": "Point"}, "id": "2Qv7Vzo3wCM2QPbCq9Rn3qQB6l8=", "properties": {"@spider": "usps_collection_boxes", "addr:city": "ANTWERP", "addr:country": "US", "addr:full": "50 MAIN ST", "addr:postcode": "13608", "addr:state": "NY", "amenity": "post_box", "brand": "United States Postal Service", "brand:wikidata": "Q668687", "collection_times": "Mo-Fr 12:00; Sa 11:30", "name": "USPS COLLECTION BOX - PO LOBBY", "nsi_id": "unitedstatespostalservice-a77078", "operator": "United States Postal Service", "operator:short": "USPS", "operator:type": "public", "operator:wikidata": "Q668687", "ref": "1360800003"}, "type": "Feature"}
{"dataset_attributes": {"@spider": "usps_collection_boxes"}, "geometry": {"coordinates": [-74.9846805, 44.669407], "type": "Point"}, "id": "1bjZtSc8JL44eFOcK3SJj3if3p0=", "properties": {"@spider": "usps_collection_boxes", "addr:city": "BRASHER FALLS", "addr:country": "US", "addr:full": "905 STATE HIGHWAY 11C", "addr:postcode": "13613", "addr:state": "NY", "amenity": "post_box", "brand": "United States Postal Service", "brand:wikidata": "Q668687", "collection_times": "Mo-Fr 15:30; Sa 11:45", "name": "USPS COLLECTION BOX - BLUE BOX", "note": "ON 12/24 AND 12/31, THIS BOX MAY BE COLLECTED AS EARLY AS 12 NOON.", "nsi_id": "unitedstatespostalservice-a77078", "operator": "United States Postal Service", "operator:short": "USPS", "operator:type": "public", "operator:wikidata": "Q668687", "ref": "1361300001"}, "type": "Feature"}
{"dataset_attributes": {"@spider": "usps_collection_boxes"}, "geometry": {"coordinates": [-74.773377, 44.807799], "type": "Point"}, "id": "ga9JldjjycqXvvuyXUmoHHwa0GI=", "properties": {"@spider": "usps_collection_boxes", "addr:city": "BRASHER FALLS", "addr:country": "US", "addr:full": "905 STATE HIGHWAY 11C", "addr:postcode": "13613", "addr:state": "NY", "amenity": "post_box", "brand": "United States Postal Service", "brand:wikidata": "Q668687", "collection_times": "Mo-Fr 15:30; Sa 11:45", "name": "USPS COLLECTION BOX - PO LOBBY", "note": "ON 12/24 AND 12/31, THIS BOX MAY BE COLLECTED AS EARLY AS 12 NOON.", "nsi_id": "unitedstatespostalservice-a77078", "operator": "United States Postal Service", "operator:short": "USPS", "operator:type": "public", "operator:wikidata": "Q668687", "ref": "1361300002"}, "type": "Feature"}
{"dataset_attributes": {"@spider": "usps_collection_boxes"}, "geometry": {"coordinates": [-74.773444678, 44.807763373], "type": "Point"}, "id": "qmvnsRhA9Oa1-cV7hRi7RSGSxsU=", "properties": {"@spider": "usps_collection_boxes", "addr:city": "BRASHER FALLS", "addr:country": "US", "addr:full": "905 STATE HIGHWAY 11C", "addr:postcode": "13613", "addr:state": "NY", "amenity": "post_box", "brand": "United States Postal Service", "brand:wikidata": "Q668687", "collection_times": "Mo-Fr 15:30; Sa 11:30", "name": "USPS COLLECTION BOX - PO LOBBY", "note": "ON 12/24 AND 12/31, THIS BOX MAY BE COLLECTED AS EARLY AS 12 NOON.", "nsi_id": "unitedstatespostalservice-a77078", "operator": "United States Postal Service", "operator:short": "USPS", "operator:type": "public", "operator:wikidata": "Q668687", "ref": "1361300003"}, "type": "Feature"}
{"dataset_attributes": {"@spider": "usps_collection_boxes"}, "geometry": {"coordinates": [-75.658947, 44.534249], "type": "Point"}, "id": "fxV8ku1_6ZDny9gacw3umhmlb5E=", "properties": {"@spider": "usps_collection_boxes", "addr:city": "BRIER HILL", "addr:country": "US", "addr:full": "39 COUNTY ROUTE 2", "addr:postcode": "13614", "addr:state": "NY", "amenity": "post_box", "brand": "United States Postal Service", "brand:wikidata": "Q668687", "collection_times": "Mo-Fr 12:00; Sa 11:45", "name": "USPS COLLECTION BOX - BLUE BOX", "nsi_id": "unitedstatespostalservice-a77078", "operator": "United States Postal Service", "operator:short": "USPS", "operator:type": "public", "operator:wikidata": "Q668687", "ref": "1361400001"}, "type": "Feature"}
{"dataset_attributes": {"@spider": "usps_collection_boxes"}, "geometry": {"coordinates": [-75.658848, 44.534217], "type": "Point"}, "id": "wqSYeF5UrA3VrkIEtilSvjUBqf8=", "properties": {"@spider": "usps_collection_boxes", "addr:city": "BRIER HILL", "addr:country": "US", "addr:full": "39 COUNTY ROUTE 2", "addr:postcode": "13614", "addr:state": "NY", "amenity": "post_box", "brand": "United States Postal Service", "brand:wikidata": "Q668687", "collection_times": "Mo-Fr 12:00; Sa 11:45", "name": "USPS COLLECTION BOX - PO LOBBY", "nsi_id": "unitedstatespostalservice-a77078", "operator": "United States Postal Service", "operator:short": "USPS", "operator:type": "public", "operator:wikidata": "Q668687", "ref": "1361400002"}, "type": "Feature"}
{"dataset_attributes": {"@spider": "usps_collection_boxes"}, "geometry": {"coordinates": [-75.659081108, 44.534255468], "type": "Point"}, "id": "9MJoj7v1BSHmO825nWHF2DhRuYQ=", "properties": {"@spider": "usps_collection_boxes", "addr:city": "BRIER HILL", "addr:country": "US", "addr:full": "39 COUNTY ROUTE 2", "addr:postcode": "13614", "addr:state": "NY", "amenity": "post_box", "brand": "United States Postal Service", "brand:wikidata": "Q668687", "collection_times": "Mo-Fr 12:00; Sa 11:45", "name": "USPS COLLECTION BOX - PO LOBBY", "nsi_id": "unitedstatespostalservice-a77078", "operator": "United States Postal Service", "operator:short": "USPS", "operator:type": "public", "operator:wikidata": "Q668687", "ref": "1361400003"}, "type": "Feature"}
{"dataset_attributes": {"@spider": "usps_collection_boxes"}, "geometry": {"coordinates": [-75.16924, 44.59565], "type": "Point"}, "id": "Rl7OraPD9HN7i2QuUY_B_BJ7EgE=", "properties": {"@spider": "usps_collection_boxes", "addr:city": "CANTON", "addr:country": "US", "addr:full": "100 MAIN ST", "addr:postcode": "13617", "addr:state": "NY", "amenity": "post_box", "brand": "United States Postal Service", "brand:wikidata": "Q668687", "collection_times": "Mo-Fr 17:00; Sa 12:00", "name": "USPS COLLECTION BOX - BLUE BOX", "note": "ON 12/24 AND 12/31, THIS BOX MAY BE COLLECTED AS EARLY AS 12 NOON.", "nsi_id": "unitedstatespostalservice-a77078", "operator": "United States Postal Service", "operator:short": "USPS", "operator:type": "public", "operator:wikidata": "Q668687", "ref": "1361700005"}, "type": "Feature"}
{"dataset_attributes": {"@spider": "usps_collection_boxes"}, "geometry": {"coordinates": [-75.1638216, 44.595857], "type": "Point"}, "id": "ZL4fGzir27IUhd9IfO0NugRPXOw=", "properties": {"@spider": "usps_collection_boxes", "addr:city": "CANTON", "addr:country": "US", "addr:full": "1 COLLEGE ST", "addr:postcode": "13617", "addr:state": "NY", "amenity": "post_box", "brand": "United States Postal Service", "brand:wikidata": "Q668687", "collection_times": "Mo-Fr 09:45; Sa 09:00", "name": "USPS COLLECTION BOX - BLUE BOX", "nsi_id": "unitedstatespostalservice-a77078", "operator": "United States Postal Service", "operator:short": "USPS", "operator:type": "public", "operator:wikidata": "Q668687", "ref": "1361700006"}, "type": "Feature"}
{"dataset_attributes": {"@spider": "usps_collection_boxes"}, "geometry": {"coordinates": [-75.1631314, 44.598416], "type": "Point"}, "id": "RKDr8GxxCit7h-SIRd5RsWxVX-4=", "properties": {"@spider": "usps_collection_boxes", "addr:city": "CANTON", "addr:country": "US", "addr:full": "40 JUDSON ST", "addr:postcode": "13617", "addr:state": "NY", "amenity": "post_box", "brand": "United States Postal Service", "brand:wikidata": "Q668687", "collection_times": "Mo-Fr 12:00; Sa 11:00", "name": "USPS COLLECTION BOX - BLUE BOX", "nsi_id": "unitedstatespostalservice-a77078", "operator": "United States Postal Service", "operator:short": "USPS", "operator:type": "public", "operator:wikidata": "Q668687", "ref": "1361700008"}, "type": "Feature"}
{"dataset_attributes": {"@spider": "usps_collection_boxes"}, "geometry": {"coordinates": [-75.1489975, 44.599775], "type": "Point"}, "id": "iuuBluMZfqLsf_CI8HPXIJmIIuM=", "properties": {"@spider": "usps_collection_boxes", "addr:city": "CANTON", "addr:country": "US", "addr:full": "40 STATE ROUTE 310", "addr:postcode": "13617", "addr:state": "NY", "amenity": "post_box", "brand": "United States Postal Service", "brand:wikidata": "Q668687", "collection_times": "Mo-Sa 09:00", "name": "USPS COLLECTION BOX - BLUE BOX", "nsi_id": "unitedstatespostalservice-a77078", "operator": "United States Postal Service", "operator:short": "USPS", "operator:type": "public", "operator:wikidata": "Q668687", "ref": "1361700009"}, "type": "Feature"}
{"dataset_attributes": {"@spider": "usps_collection_boxes"}, "geometry": {"coordinates": [-75.1716519, 44.59951], "type": "Point"}, "id": "93skWfPR79aZRiYozsyfo3d88E4=", "properties": {"@spider": "usps_collection_boxes", "addr:city": "CANTON", "addr:country": "US", "addr:full": "27 STATE ST", "addr:postcode": "13617", "addr:state": "NY", "amenity": "post_box", "brand": "United States Postal Service", "brand:wikidata": "Q668687", "collection_times": "Mo-Sa 10:00", "name": "USPS COLLECTION BOX - BLUE BOX", "nsi_id": "unitedstatespostalservice-a77078", "operator": "United States Postal Service", "operator:short": "USPS", "operator:type": "public", "operator:wikidata": "Q668687", "ref": "1361700011"}, "type": "Feature"}
{"dataset_attributes": {"@spider": "usps_collection_boxes"}, "geometry": {"coordinates": [-75.1710649, 44.595634], "type": "Point"}, "id": "5LTv2Bq8l6M-fiNR7ubaLqR0xgs=", "properties": {"@spider": "usps_collection_boxes", "addr:city": "CANTON", "addr:country": "US", "addr:full": "43 MAIN ST", "addr:postcode": "13617", "addr:state": "NY", "amenity": "post_box", "brand": "United States Postal Service", "brand:wikidata": "Q668687", "collection_times": "Mo-Sa 08:30", "name": "USPS COLLECTION BOX - BLUE BOX", "nsi_id": "unitedstatespostalservice-a77078", "operator": "United States Postal Service", "operator:short": "USPS", "operator:type": "public", "operator:wikidata": "Q668687", "ref": "1361700012"}, "type": "Feature"}
{"dataset_attributes": {"@spider": "usps_collection_boxes"}, "geometry": {"coordinates": [-75.1759069, 44.595156], "type": "Point"}, "id": "1gq8PsGT4rY4tD25pS101XqmFzs=", "properties": {"@spider": "usps_collection_boxes", "addr:city": "CANTON", "addr:country": "US", "addr:full": "4 W MAIN ST", "addr:postcode": "13617", "addr:state": "NY", "amenity": "post_box", "brand": "United States Postal Service", "brand:wikidata": "Q668687", "collection_times": "Mo-Sa 10:00", "name": "USPS COLLECTION BOX - BLUE BOX", "nsi_id": "unitedstatespostalservice-a77078", "operator": "United States Postal Service", "operator:short": "USPS", "operator:type": "public", "operator:wikidata": "Q668687", "ref": "1361700014"}, "type": "Feature"}
{"dataset_attributes": {"@spider": "usps_collection_boxes"}, "geometry": {"coordinates": [-75.1691756468, 44.5958251947], "type": "Point"}, "id": "WGAFeVXwo_kw6xxLMd5v3KjVJeM=", "properties": {"@spider": "usps_collection_boxes", "addr:city": "CANTON", "addr:country": "US", "addr:full": "103 MAIN ST", "addr:postcode": "13617", "addr:state": "NY", "amenity": "post_box", "brand": "United States Postal Service", "brand:wikidata": "Q668687", "collection_times": "Mo-Fr 16:30; Sa 12:00", "name": "USPS COLLECTION BOX - BLUE BOX", "note": "ON 12/24 AND 12/31, THIS BOX MAY BE COLLECTED AS EARLY AS 12 NOON.", "nsi_id": "unitedstatespostalservice-a77078", "operator": "United States Postal Service", "operator:short": "USPS", "operator:type": "public", "operator:wikidata": "Q668687", "ref": "1361700015"}, "type": "Feature"}
{"dataset_attributes": {"@spider": "usps_collection_boxes"}, "geometry": {"coordinates": [-75.1671274886, 44.5955339362], "type": "Point"}, "id": "VrzdhVLfLWtzKLfFCfvZ6vuPICY=", "properties": {"@spider": "usps_collection_boxes", "addr:city": "CANTON", "addr:country": "US", "addr:full": "1 PARK PL", "addr:postcode": "13617", "addr:state": "NY", "amenity": "post_box", "brand": "United States Postal Service", "brand:wikidata": "Q668687", "collection_times": "Mo-Fr 17:00; Sa 12:00", "name": "USPS COLLECTION BOX - BLUE BOX", "note": "ON 12/24 AND 12/31, THIS BOX MAY BE COLLECTED AS EARLY AS 12 NOON.", "nsi_id": "unitedstatespostalservice-a77078", "operator": "United States Postal Service", "operator:short": "USPS", "operator:type": "public", "operator:wikidata": "Q668687", "ref": "1361700016"}, "type": "Feature"}
{"dataset_attributes": {"@spider": "usps_collection_boxes"}, "geometry": {"coordinates": [-75.1491695, 44.598139], "type": "Point"}, "id": "daXJ8lJFDWUQasRc2KIZ-RmmFZM=", "properties": {"@spider": "usps_collection_boxes", "addr:city": "CANTON", "addr:country": "US", "addr:full": "111 E MAIN ST", "addr:postcode": "13617", "addr:state": "NY", "amenity": "post_box", "brand": "United States Postal Service", "brand:wikidata": "Q668687", "collection_times": "Mo-Sa 09:00", "name": "USPS COLLECTION BOX - BLUE BOX", "nsi_id": "unitedstatespostalservice-a77078", "operator": "United States Postal Service", "operator:short": "USPS", "operator:type": "public", "operator:wikidata": "Q668687", "ref": "1361700017"}, "type": "Feature"}
{"dataset_attributes": {"@spider": "usps_collection_boxes"}, "geometry": {"coordinates": [-75.1694699, 44.598135], "type": "Point"}, "id": "mIiaMyhnuFwD7onbrAhilsIlftA=", "properties": {"@spider": "usps_collection_boxes", "addr:city": "CANTON", "addr:country": "US", "addr:full": "48 COURT ST", "addr:postcode": "13617", "addr:state": "NY", "amenity": "post_box", "brand": "United States Postal Service", "brand:wikidata": "Q668687", "collection_times": "Mo-Fr 13:00; Sa 10:30", "name": "USPS COLLECTION BOX - BLUE BOX", "note": "ON 12/24 AND 12/31, THIS BOX MAY BE COLLECTED AS EARLY AS 12 NOON.", "nsi_id": "unitedstatespostalservice-a77078", "operator": "United States Postal Service", "operator:short": "USPS", "operator:type": "public", "operator:wikidata": "Q668687", "ref": "1361700018"}, "type": "Feature"}
{"dataset_attributes": {"@spider": "usps_collection_boxes"}, "geometry": {"coordinates": [-75.16924, 44.59565], "type": "Point"}, "id": "Vdc1QY4iydc9uUmOE-8pPrGGHMM=", "properties": {"@spider": "usps_collection_boxes", "addr:city": "CANTON", "addr:country": "US", "addr:full": "100 MAIN ST", "addr:postcode": "13617", "addr:state": "NY", "amenity": "post_box", "brand": "United States Postal Service", "brand:wikidata": "Q668687", "collection_times": "Mo-Fr 17:00; Sa 12:00", "name": "USPS COLLECTION BOX - PO LOBBY", "note": "ON 12/24 AND 12/31, THIS BOX MAY BE COLLECTED AS EARLY AS 12 NOON.", "nsi_id": "unitedstatespostalservice-a77078", "operator": "United States Postal Service", "operator:short": "USPS", "operator:type": "public", "operator:wikidata": "Q668687", "ref": "1361700020"}, "type": "Feature"}
{"dataset_attributes": {"@spider": "usps_collection_boxes"}, "geometry": {"coordinates": [-75.16924, 44.59565], "type": "Point"}, "id": "9oeXFIG0RAdNPy1LaWPBlDquUWU=", "properties": {"@spider": "usps_collection_boxes", "addr:city": "CANTON", "addr:country": "US", "addr:full": "100 MAIN ST", "addr:postcode": "13617", "addr:state": "NY", "amenity": "post_box", "brand": "United States Postal Service", "brand:wikidata": "Q668687", "collection_times": "Mo-Fr 17:00; Sa 12:00", "name": "USPS COLLECTION BOX - BLUE BOX", "note": "ON 12/24 AND 12/31, THIS BOX MAY BE COLLECTED AS EARLY AS 12 NOON.", "nsi_id": "unitedstatespostalservice-a77078", "operator": "United States Postal Service", "operator:short": "USPS", "operator:type": "public", "operator:wikidata": "Q668687", "ref": "1361700025"}, "type": "Feature"}
{"dataset_attributes": {"@spider": "usps_collection_boxes"}, "geometry": {"coordinates": [-75.169759689, 44.595581543], "type": "Point"}, "id": "S89GwATwFsLdquhGwVcy8k4DY8g=", "properties": {"@spider": "usps_collection_boxes", "addr:city": "CANTON", "addr:country": "US", "addr:full": "100 MAIN ST", "addr:postcode": "13617", "addr:state": "NY", "amenity": "post_box", "brand": "United States Postal Service", "brand:wikidata": "Q668687", "collection_times": "Mo-Fr 17:00; Sa 12:00", "name": "USPS COLLECTION BOX - PO LOBBY", "note": "ON 12/24 AND 12/31, THIS BOX MAY BE COLLECTED AS EARLY AS 12 NOON.", "nsi_id": "unitedstatespostalservice-a77078", "operator": "United States Postal Service", "operator:short": "USPS", "operator:type": "public", "operator:wikidata": "Q668687", "ref": "1361700026"}, "type": "Feature"}
{"dataset_attributes": {"@spider": "usps_collection_boxes"}, "geometry": {"coordinates": [-75.6071362903, 43.9804233489], "type": "Point"}, "id": "K3udRfVTRC006e3s7xpWbESx89E=", "properties": {"@spider": "usps_collection_boxes", "addr:city": "CARTHAGE", "addr:country": "US", "addr:full": "521 STATE ST", "addr:postcode": "13619", "addr:state": "NY", "amenity": "post_box", "brand": "United States Postal Service", "brand:wikidata": "Q668687", "collection_times": "Mo-Fr 17:00; Sa 15:00", "name": "USPS COLLECTION BOX - BLUE BOX", "note": "ON 12/24 AND 12/31, THIS BOX MAY BE COLLECTED AS EARLY AS 12 NOON.", "nsi_id": "unitedstatespostalservice-a77078", "operator": "United States Postal Service", "operator:short": "USPS", "operator:type": "public", "operator:wikidata": "Q668687", "ref": "1361900001"}, "type": "Feature"}
{"dataset_attributes": {"@spider": "usps_collection_boxes"}, "geometry": {"coordinates": [-75.6068499645, 43.9797600051], "type": "Point"}, "id": "L_wuaQQFMkPXfi7CuUQzQB88KiY=", "properties": {"@spider": "usps_collection_boxes", "addr:city": "CARTHAGE", "addr:country": "US", "addr:full": "514 STATE ST", "addr:postcode": "13619", "addr:state": "NY", "amenity": "post_box", "brand": "United States Postal Service", "brand:wikidata": "Q668687", "collection_times": "Mo-Fr 17:00; Sa 15:00", "name": "USPS COLLECTION BOX - BLUE BOX", "note": "ON 12/24 AND 12/31, THIS BOX MAY BE COLLECTED AS EARLY AS 12 NOON.", "nsi_id": "unitedstatespostalservice-a77078", "operator": "United States Postal Service", "operator:short": "USPS", "operator:type": "public", "operator:wikidata": "Q668687", "ref": "1361900003"}, "type": "Feature"}
{"dataset_attributes": {"@spider": "usps_collection_boxes"}, "geometry": {"coordinates": [-75.6086544, 43.982797], "type": "Point"}, "id": "y2gy6CyRmUeRZIgu84J42DpKj18=", "properties": {"@spider": "usps_collection_boxes", "addr:city": "CARTHAGE", "addr:country": "US", "addr:full": "703 FULTON ST", "addr:postcode": "13619", "addr:state": "NY", "amenity": "post_box", "brand": "United States Postal Service", "brand:wikidata": "Q668687", "collection_times": "Mo-Sa 11:00", "name": "USPS COLLECTION BOX - BLUE BOX", "nsi_id": "unitedstatespostalservice-a77078", "operator": "United States Postal Service", "operator:short": "USPS", "operator:type": "public", "operator:wikidata": "Q668687", "ref": "1361900004"}, "type": "Feature"}
{"dataset_attributes": {"@spider": "usps_collection_boxes"}, "geometry": {"coordinates": [-75.6123938, 43.982205], "type": "Point"}, "id": "hshcfqdho3o61YK7CtP5avY8CPw=", "properties": {"@spider": "usps_collection_boxes", "addr:city": "CARTHAGE", "addr:country": "US", "addr:full": "505 ALEXANDRIA ST", "addr:postcode": "13619", "addr:state": "NY", "amenity": "post_box", "brand": "United States Postal Service", "brand:wikidata": "Q668687", "collection_times": "Mo-Sa 10:30", "name": "USPS COLLECTION BOX - BLUE BOX", "nsi_id": "unitedstatespostalservice-a77078", "operator": "United States Postal Service", "operator:short": "USPS", "operator:type": "public", "operator:wikidata": "Q668687", "ref": "1361900005"}, "type": "Feature"}
{"dataset_attributes": {"@spider": "usps_collection_boxes"}, "geometry": {"coordinates": [-75.6143478, 43.974162], "type": "Point"}, "id": "IArK6Cxa9eEv0RAIjdq9QWn1CHU=", "properties": {"@spider": "usps_collection_boxes", "addr:city": "CARTHAGE", "addr:country": "US", "addr:full": "3 BRIDGE ST", "addr:postcode": "13619", "addr:state": "NY", "amenity": "post_box", "brand": "United States Postal Service", "brand:wikidata": "Q668687", "collection_times": "Mo-Sa 14:30", "name": "USPS COLLECTION BOX - BLUE BOX", "note": "ON 12/24 AND 12/31, THIS BOX MAY BE COLLECTED AS EARLY AS 12 NOON.", "nsi_id": "unitedstatespostalservice-a77078", "operator": "United States Postal Service", "operator:short": "USPS", "operator:type": "public", "operator:wikidata": "Q668687", "ref": "1361900007"}, "type": "Feature"}
{"dataset_attributes": {"@spider": "usps_collection_boxes"}, "geometry": {"coordinates": [-75.6087276, 43.977415], "type": "Point"}, "id": "Mk9Jt2rh9mHgmUmFXeRX1JPPhAg=", "properties": {"@spider": "usps_collection_boxes", "addr:city": "CARTHAGE", "addr:country": "US", "addr:full": "120 S MECHANIC ST", "addr:postcode": "13619", "addr:state": "NY", "amenity": "post_box", "brand": "United States Postal Service", "brand:wikidata": "Q668687", "collection_times": "Mo-Sa 14:00", "name": "USPS COLLECTION BOX - BLUE BOX", "note": "ON 12/24 AND 12/31, THIS BOX MAY BE COLLECTED AS EARLY AS 12 NOON.", "nsi_id": "unitedstatespostalservice-a77078", "operator": "United States Postal Service", "operator:short": "USPS", "operator:type": "public", "operator:wikidata": "Q668687", "ref": "1361900009"}, "type": "Feature"}
{"dataset_attributes": {"@spider": "usps_collection_boxes"}, "geometry": {"coordinates": [-75.6091866, 43.978356], "type": "Point"}, "id": "zkdy1giDZC9SSWHAkDr2MUtf2IA=", "properties": {"@spider": "usps_collection_boxes", "addr:city": "CARTHAGE", "addr:country": "US", "addr:full": "313 STATE ST", "addr:postcode": "13619", "addr:state": "NY", "amenity": "post_box", "brand": "United States Postal Service", "brand:wikidata": "Q668687", "collection_times": "Mo-Sa 14:00", "name": "USPS COLLECTION BOX - BLUE BOX", "note": "ON 12/24 AND 12/31, THIS BOX MAY BE COLLECTED AS EARLY AS 12 NOON.", "nsi_id": "unitedstatespostalservice-a77078", "operator": "United States Postal Service", "operator:short": "USPS", "operator:type": "public", "operator:wikidata": "Q668687", "ref": "1361900010"}, "type": "Feature"}
{"dataset_attributes": {"@spider": "usps_collection_boxes"}, "geometry": {"coordinates": [-75.6234107, 43.969785], "type": "Point"}, "id": "HdMo3iggVZ8Ax9ELYrbfHHQjhko=", "properties": {"@spider": "usps_collection_boxes", "addr:city": "CARTHAGE", "addr:country": "US", "addr:full": "61 HIGH ST", "addr:postcode": "13619", "addr:state": "NY", "amenity": "post_box", "brand": "United States Postal Service", "brand:wikidata": "Q668687", "collection_times": "Mo-Sa 14:30", "name": "USPS COLLECTION BOX - BLUE BOX", "note": "ON 12/24 AND 12/31, THIS BOX MAY BE COLLECTED AS EARLY AS 12 NOON.", "nsi_id": "unitedstatespostalservice-a77078", "operator": "United States Postal Service", "operator:short": "USPS", "operator:type": "public", "operator:wikidata": "Q668687", "ref": "1361900011"}, "type": "Feature"}
{"dataset_attributes": {"@spider": "usps_collection_boxes"}, "geometry": {"coordinates": [-75.6249257, 43.965298], "type": "Point"}, "id": "SG_rV0P6WjRDXw7Njt1mjuf09BI=", "properties": {"@spider": "usps_collection_boxes", "addr:city": "CARTHAGE", "addr:country": "US", "addr:full": "836 TAMARAC DR", "addr:postcode": "13619", "addr:state": "NY", "amenity": "post_box", "brand": "United States Postal Service", "brand:wikidata": "Q668687", "collection_times": "Mo-Sa 10:00", "name": "USPS COLLECTION BOX - BLUE BOX", "nsi_id": "unitedstatespostalservice-a77078", "operator": "United States Postal Service", "operator:short": "USPS", "operator:type": "public", "operator:wikidata": "Q668687", "ref": "1361900013"}, "type": "Feature"}
{"dataset_attributes": {"@spider": "usps_collection_boxes"}, "geometry": {"coordinates": [-75.6046207, 43.982522], "type": "Point"}, "id": "AVEdgii6zlLY9ntYBrggsAvAEJM=", "properties": {"@spider": "usps_collection_boxes", "addr:city": "CARTHAGE", "addr:country": "US", "addr:full": "821 STATE ST", "addr:postcode": "13619", "addr:state": "NY", "amenity": "post_box", "brand": "United States Postal Service", "brand:wikidata": "Q668687", "collection_times": "Mo-Sa 09:00", "name": "USPS COLLECTION BOX - BLUE BOX", "nsi_id": "unitedstatespostalservice-a77078", "operator": "United States Postal Service", "operator:short": "USPS", "operator:type": "public", "operator:wikidata": "Q668687", "ref": "1361900015"}, "type": "Feature"}
{"dataset_attributes": {"@spider": "usps_collection_boxes"}, "geometry": {"coordinates": [-75.6071362903, 43.9804233489], "type": "Point"}, "id": "7-z29A_-Q4cw3vxlnqxqzUjhuBY=", "properties": {"@spider": "usps_collection_boxes", "addr:city": "CARTHAGE", "addr:country": "US", "addr:full": "521 STATE ST", "addr:postcode": "13619", "addr:state": "NY", "amenity": "post_box", "brand": "United States Postal Service", "brand:wikidata": "Q668687", "collection_times": "Mo-Fr 17:00; Sa 15:00", "name": "USPS COLLECTION BOX - PO LOBBY", "note": "ON 12/24 AND 12/31, THIS BOX MAY BE COLLECTED AS EARLY AS 12 NOON.", "nsi_id": "unitedstatespostalservice-a77078", "operator": "United States Postal Service", "operator:short": "USPS", "operator:type": "public", "operator:wikidata": "Q668687", "ref": "1361900016"}, "type": "Feature"}
{"dataset_attributes": {"@spider": "usps_collection_boxes"}, "geometry": {"coordinates": [-75.6071362903, 43.9804233489], "type": "Point"}, "id": "QuWIHTRaCCwNoxuzzFof3G_3QoQ=", "properties": {"@spider": "usps_collection_boxes", "addr:city": "CARTHAGE", "addr:country": "US", "addr:full": "521 STATE ST", "addr:postcode": "13619", "addr:state": "NY", "amenity": "post_box", "brand": "United States Postal Service", "brand:wikidata": "Q668687", "collection_times": "Mo-Fr 16:30; Sa 11:30", "name": "USPS COLLECTION BOX - PO LOBBY", "note": "ON 12/24 AND 12/31, THIS BOX MAY BE COLLECTED AS EARLY AS 12 NOON.", "nsi_id": "unitedstatespostalservice-a77078", "operator": "United States Postal Service", "operator:short": "USPS", "operator:type": "public", "operator:wikidata": "Q668687", "ref": "1361900019"}, "type": "Feature"}
{"dataset_attributes": {"@spider": "usps_collection_boxes"}, "geometry": {"coordinates": [-75.5121357, 43.889168], "type": "Point"}, "id": "KYDuQnMX6rMHL1XqJG4bOmc2gdM=", "properties": {"@spider": "usps_collection_boxes", "addr:city": "CASTORLAND", "addr:country": "US", "addr:full": "5154 STATE ROUTE 410", "addr:postcode": "13620", "addr:state": "NY", "amenity": "post_box", "brand": "United States Postal Service", "brand:wikidata": "Q668687", "collection_times": "Mo-Fr 15:00; Sa 11:15", "name": "USPS COLLECTION BOX - BLUE BOX", "note": "ON 12/24 AND 12/31, THIS BOX MAY BE COLLECTED AS EARLY AS 12 NOON.", "nsi_id": "unitedstatespostalservice-a77078", "operator": "United States Postal Service", "operator:short": "USPS", "operator:type": "public", "operator:wikidata": "Q668687", "ref": "1362000001"}, "type": "Feature"}
{"dataset_attributes": {"@spider": "usps_collection_boxes"}, "geometry": {"coordinates": [-75.5122146, 43.88914], "type": "Point"}, "id": "dw33n6Y-s3O_PSa3Eo-ohd-Xmcg=", "properties": {"@spider": "usps_collection_boxes", "addr:city": "CASTORLAND", "addr:country": "US", "addr:full": "5154 STATE ROUTE 410", "addr:postcode": "13620", "addr:state": "NY", "amenity": "post_box", "brand": "United States Postal Service", "brand:wikidata": "Q668687", "collection_times": "Mo-Fr 15:00; Sa 11:15", "name": "USPS COLLECTION BOX - PO LOBBY", "note": "ON 12/24 AND 12/31, THIS BOX MAY BE COLLECTED AS EARLY AS 12 NOON.", "nsi_id": "unitedstatespostalservice-a77078", "operator": "United States Postal Service", "operator:short": "USPS", "operator:type": "public", "operator:wikidata": "Q668687", "ref": "1362000002"}, "type": "Feature"}
{"dataset_attributes": {"@spider": "usps_collection_boxes"}, "geometry": {"coordinates": [-75.512438095, 43.889156865], "type": "Point"}, "id": "u3gHxcFZMUEe9KZXVH-8A9xzZJM=", "properties": {"@spider": "usps_collection_boxes", "addr:city": "CASTORLAND", "addr:country": "US", "addr:full": "5158 STATE ROUTE 410", "addr:postcode": "13620", "addr:state": "NY", "amenity": "post_box", "brand": "United States Postal Service", "brand:wikidata": "Q668687", "collection_times": "Mo-Fr 15:00; Sa 11:15", "name": "USPS COLLECTION BOX - PO LOBBY", "note": "ON 12/24 AND 12/31, THIS BOX MAY BE COLLECTED AS EARLY AS 12 NOON.", "nsi_id": "unitedstatespostalservice-a77078", "operator": "United States Postal Service", "operator:short": "USPS", "operator:type": "public", "operator:wikidata": "Q668687", "ref": "1362000004"}, "type": "Feature"}
{"dataset_attributes": {"@spider": "usps_collection_boxes"}, "geometry": {"coordinates": [-75.080071, 44.849605], "type": "Point"}, "id": "zzNb2GeI3Z62KybFxLFihIX1yX0=", "properties": {"@spider": "usps_collection_boxes", "addr:city": "CHASE MILLS", "addr:country": "US", "addr:full": "5275 COUNTY ROUTE 14", "addr:postcode": "13621", "addr:state": "NY", "amenity": "post_box", "brand": "United States Postal Service", "brand:wikidata": "Q668687", "collection_times": "Mo-Fr 13:00; Sa 11:30", "name": "USPS COLLECTION BOX - BLUE BOX", "note": "ON 12/24 AND 12/31, THIS BOX MAY BE COLLECTED AS EARLY AS 12 NOON.", "nsi_id": "unitedstatespostalservice-a77078", "operator": "United States Postal Service", "operator:short": "USPS", "operator:type": "public", "operator:wikidata": "Q668687", "ref": "1362100001"}, "type": "Feature"}
{"dataset_attributes": {"@spider": "usps_collection_boxes"}, "geometry": {"coordinates": [-75.080115, 44.849522], "type": "Point"}, "id": "zsSK6H4cXfmRU_EkrX27FsHrUHA=", "properties": {"@spider": "usps_collection_boxes", "addr:city": "CHASE MILLS", "addr:country": "US", "addr:full": "5275 COUNTY ROUTE 14", "addr:postcode": "13621", "addr:state": "NY", "amenity": "post_box", "brand": "United States Postal Service", "brand:wikidata": "Q668687", "collection_times": "Mo-Fr 13:00; Sa 12:00", "name": "USPS COLLECTION BOX - PO LOBBY", "note": "ON 12/24 AND 12/31, THIS BOX MAY BE COLLECTED AS EARLY AS 12 NOON.", "nsi_id": "unitedstatespostalservice-a77078", "operator": "United States Postal Service", "operator:short": "USPS", "operator:type": "public", "operator:wikidata": "Q668687", "ref": "1362100002"}, "type": "Feature"}
{"dataset_attributes": {"@spider": "usps_collection_boxes"}, "geometry": {"coordinates": [-75.080453897, 44.849255175], "type": "Point"}, "id": "diJXtf54k4KTwCkSKbpy0eISlmc=", "properties": {"@spider": "usps_collection_boxes", "addr:city": "CHASE MILLS", "addr:country": "US", "addr:full": "5275 COUNTY ROUTE 14", "addr:postcode": "13621", "addr:state": "NY", "amenity": "post_box", "brand": "United States Postal Service", "brand:wikidata": "Q668687", "collection_times": "Mo-Fr 13:00; Sa 12:00", "name": "USPS COLLECTION BOX - PO LOBBY", "note": "ON 12/24 AND 12/31, THIS BOX MAY BE COLLECTED AS EARLY AS 12 NOON.", "nsi_id": "unitedstatespostalservice-a77078", "operator": "United States Postal Service", "operator:short": "USPS", "operator:type": "public", "operator:wikidata": "Q668687", "ref": "1362100003"}, "type": "Feature"}
{"dataset_attributes": {"@spider": "usps_collection_boxes"}, "geometry": {"coordinates": [-75.7568043, 44.441835], "type": "Point"}, "id": "qjXrtWgkJNn1QNMJZFvn-x004i0=", "properties": {"@spider": "usps_collection_boxes", "addr:city": "CHIPPEWA BAY", "addr:country": "US", "addr:full": "1176 COUNTY ROUTE 6", "addr:postcode": "13623", "addr:state": "NY", "amenity": "post_box", "brand": "United States Postal Service", "brand:wikidata": "Q668687", "collection_times": "Mo-Fr 11:00; Sa 10:50", "name": "USPS COLLECTION BOX - BLUE BOX", "nsi_id": "unitedstatespostalservice-a77078", "operator": "United States Postal Service", "operator:short": "USPS", "operator:type": "public", "operator:wikidata": "Q668687", "ref": "1362300001"}, "type": "Feature"}
{"dataset_attributes": {"@spider": "usps_collection_boxes"}, "geometry": {"coordinates": [-75.757024, 44.441926], "type": "Point"}, "id": "4rxer2iSnLt3zOBGpjtFXObkfAU=", "properties": {"@spider": "usps_collection_boxes", "addr:city": "CHIPPEWA BAY", "addr:country": "US", "addr:full": "1176 COUNTY ROUTE 6", "addr:postcode": "13623", "addr:state": "NY", "amenity": "post_box", "brand": "United States Postal Service", "brand:wikidata": "Q668687", "collection_times": "Mo-Fr 11:00; Sa 11:30", "name": "USPS COLLECTION BOX - PO LOBBY", "nsi_id": "unitedstatespostalservice-a77078", "operator": "United States Postal Service", "operator:short": "USPS", "operator:type": "public", "operator:wikidata": "Q668687", "ref": "1362300002"}, "type": "Feature"}
{"dataset_attributes": {"@spider": "usps_collection_boxes"}, "geometry": {"coordinates": [-75.756842969, 44.441897543], "type": "Point"}, "id": "3NFMnrTcbEN_86XAucsM75eaPHQ=", "properties": {"@spider": "usps_collection_boxes", "addr:city": "CHIPPEWA BAY", "addr:country": "US", "addr:full": "1176 COUNTY ROUTE 6", "addr:postcode": "13623", "addr:state": "NY", "amenity": "post_box", "brand": "United States Postal Service", "brand:wikidata": "Q668687", "collection_times": "Mo-Fr 11:00; Sa 11:30", "name": "USPS COLLECTION BOX - PO LOBBY", "nsi_id": "unitedstatespostalservice-a77078", "operator": "United States Postal Service", "operator:short": "USPS", "operator:type": "public", "operator:wikidata": "Q668687", "ref": "1362300004"}, "type": "Feature"}
{"dataset_attributes": {"@spider": "usps_collection_boxes"}, "geometry": {"coordinates": [-74.9408846, 44.553702], "type": "Point"}, "id": "OuKPzm-8cCXymfAOs3XmBqT3boA=", "properties": {"@spider": "usps_collection_boxes", "addr:city": "COLTON", "addr:country": "US", "addr:full": "4841 NYS RT 56", "addr:postcode": "13625", "addr:state": "NY", "amenity": "post_box", "brand": "United States Postal Service", "brand:wikidata": "Q668687", "collection_times": "Mo-Fr 15:30; Sa 11:45", "name": "USPS COLLECTION BOX - BLUE BOX", "note": "ON 12/24 AND 12/31, THIS BOX MAY BE COLLECTED AS EARLY AS 12 NOON.", "nsi_id": "unitedstatespostalservice-a77078", "operator": "United States Postal Service", "operator:short": "USPS", "operator:type": "public", "operator:wikidata": "Q668687", "ref": "1362500001"}, "type": "Feature"}
{"dataset_attributes": {"@spider": "usps_collection_boxes"}, "geometry": {"coordinates": [-74.940586, 44.553768], "type": "Point"}, "id": "idjjWibDFissuyjc4GVxKfTqqYI=", "properties": {"@spider": "usps_collection_boxes", "addr:city": "COLTON", "addr:country": "US", "addr:full": "4841 NYS RT 56", "addr:postcode": "13625", "addr:state": "NY", "amenity": "post_box", "brand": "United States Postal Service", "brand:wikidata": "Q668687", "collection_times": "Mo-Fr 15:30; Sa 11:45", "name": "USPS COLLECTION BOX - PO LOBBY", "note": "ON 12/24 AND 12/31, THIS BOX MAY BE COLLECTED AS EARLY AS 12 NOON.", "nsi_id": "unitedstatespostalservice-a77078", "operator": "United States Postal Service", "operator:short": "USPS", "operator:type": "public", "operator:wikidata": "Q668687", "ref": "1362500002"}, "type": "Feature"}
{"dataset_attributes": {"@spider": "usps_collection_boxes"}, "geometry": {"coordinates": [-74.94059749, 44.553771473], "type": "Point"}, "id": "Nxqs1-K1fhxj5msPMBlwyRO8VFg=", "properties": {"@spider": "usps_collection_boxes", "addr:city": "COLTON", "addr:country": "US", "addr:full": "4841 STATE HIGHWAY 56", "addr:postcode": "13625", "addr:state": "NY", "amenity": "post_box", "brand": "United States Postal Service", "brand:wikidata": "Q668687", "collection_times": "Mo-Fr 15:30; Sa 11:45", "name": "USPS COLLECTION BOX - PO LOBBY", "note": "ON 12/24 AND 12/31, THIS BOX MAY BE COLLECTED AS EARLY AS 12 NOON.", "nsi_id": "unitedstatespostalservice-a77078", "operator": "United States Postal Service", "operator:short": "USPS", "operator:type": "public", "operator:wikidata": "Q668687", "ref": "1362500003"}, "type": "Feature"}
{"dataset_attributes": {"@spider": "usps_collection_boxes"}, "geometry": {"coordinates": [-75.6742486, 43.894015], "type": "Point"}, "id": "ZUcyIK4cvINiJOJDOyW5pGYpLaM=", "properties": {"@spider": "usps_collection_boxes", "addr:city": "COPENHAGEN", "addr:country": "US", "addr:full": "9886 STATE ROUTE 12", "addr:postcode": "13626", "addr:state": "NY", "amenity": "post_box", "brand": "United States Postal Service", "brand:wikidata": "Q668687", "collection_times": "Mo-Fr 16:30; Sa 10:30", "name": "USPS COLLECTION BOX - BLUE BOX", "note": "ON 12/24 AND 12/31, THIS BOX MAY BE COLLECTED AS EARLY AS 12 NOON.", "nsi_id": "unitedstatespostalservice-a77078", "operator": "United States Postal Service", "operator:short": "USPS", "operator:type": "public", "operator:wikidata": "Q668687", "ref": "1362600001"}, "type": "Feature"}
{"dataset_attributes": {"@spider": "usps_collection_boxes"}, "geometry": {"coordinates": [-75.6741347, 43.893969], "type": "Point"}, "id": "nO4P_1xr9CnM_4D0vHI1SqnUkqA=", "properties": {"@spider": "usps_collection_boxes", "addr:city": "COPENHAGEN", "addr:country": "US", "addr:full": "100 MAIN ST", "addr:postcode": "13626", "addr:state": "NY", "amenity": "post_box", "brand": "United States Postal Service", "brand:wikidata": "Q668687", "collection_times": "Mo-Fr 16:30; Sa 10:30", "name": "USPS COLLECTION BOX - PO LOBBY", "note": "ON 12/24 AND 12/31, THIS BOX MAY BE COLLECTED AS EARLY AS 12 NOON.", "nsi_id": "unitedstatespostalservice-a77078", "operator": "United States Postal Service", "operator:short": "USPS", "operator:type": "public", "operator:wikidata": "Q668687", "ref": "1362600002"}, "type": "Feature"}
{"dataset_attributes": {"@spider": "usps_collection_boxes"}, "geometry": {"coordinates": [-75.6670599, 43.898333], "type": "Point"}, "id": "PUrRasEaRGX2Ss0e3P3fDfHP0d0=", "properties": {"@spider": "usps_collection_boxes", "addr:city": "COPENHAGEN", "addr:country": "US", "addr:full": "100 PHALEN DR", "addr:postcode": "13626", "addr:state": "NY", "amenity": "post_box", "brand": "United States Postal Service", "brand:wikidata": "Q668687", "collection_times": "Mo-Sa 08:45", "name": "USPS COLLECTION BOX - BLUE BOX", "nsi_id": "unitedstatespostalservice-a77078", "operator": "United States Postal Service", "operator:short": "USPS", "operator:type": "public", "operator:wikidata": "Q668687", "ref": "1362600003"}, "type": "Feature"}
{"dataset_attributes": {"@spider": "usps_collection_boxes"}, "geometry": {"coordinates": [-75.674103893, 43.893839836], "type": "Point"}, "id": "JSNyxMny6PIGD0vqSB8RkmZy1OY=", "properties": {"@spider": "usps_collection_boxes", "addr:city": "COPENHAGEN", "addr:country": "US", "addr:full": "9886 STATE ROUTE 12", "addr:postcode": "13626", "addr:state": "NY", "amenity": "post_box", "brand": "United States Postal Service", "brand:wikidata": "Q668687", "collection_times": "Mo-Fr 16:45; Sa 10:30", "name": "USPS COLLECTION BOX - PO LOBBY", "note": "ON 12/24 AND 12/31, THIS BOX MAY BE COLLECTED AS EARLY AS 12 NOON.", "nsi_id": "unitedstatespostalservice-a77078", "operator": "United States Postal Service", "operator:short": "USPS", "operator:type": "public", "operator:wikidata": "Q668687", "ref": "1362600006"}, "type": "Feature"}
{"dataset_attributes": {"@spider": "usps_collection_boxes"}, "geometry": {"coordinates": [-75.6858264, 44.039241], "type": "Point"}, "id": "xFtdxg4mejD2g66F_WRffRoyj5o=", "properties": {"@spider": "usps_collection_boxes", "addr:city": "DEFERIET", "addr:country": "US", "addr:full": "43 ANDERSON AVE", "addr:postcode": "13628", "addr:state": "NY", "amenity": "post_box", "brand": "United States Postal Service", "brand:wikidata": "Q668687", "collection_times": "Mo-Sa 10:00", "name": "USPS COLLECTION BOX - BLUE BOX", "nsi_id": "unitedstatespostalservice-a77078", "operator": "United States Postal Service", "operator:short": "USPS", "operator:type": "public", "operator:wikidata": "Q668687", "ref": "1362800001"}, "type": "Feature"}
{"dataset_attributes": {"@spider": "usps_collection_boxes"}, "geometry": {"coordinates": [-75.274352, 44.504641], "type": "Point"}, "id": "E7lKLTBIvMn7riNK-Q-6m4heJjg=", "properties": {"@spider": "usps_collection_boxes", "addr:city": "DE KALB JUNCTION", "addr:country": "US", "addr:full": "4329 RT 11", "addr:postcode": "13630", "addr:state": "NY", "amenity": "post_box", "brand": "United States Postal Service", "brand:wikidata": "Q668687", "collection_times": "Mo-Fr 12:00; Sa 11:00", "name": "USPS COLLECTION BOX - BLUE BOX", "nsi_id": "unitedstatespostalservice-a77078", "operator": "United States Postal Service", "operator:short": "USPS", "operator:type": "public", "operator:wikidata": "Q668687", "ref": "1363000001"}, "type": "Feature"}
{"dataset_attributes": {"@spider": "usps_collection_boxes"}, "geometry": {"coordinates": [-75.274352, 44.504642], "type": "Point"}, "id": "7n9-Pz_MIk9ou1_OhsDRky0DiwA=", "properties": {"@spider": "usps_collection_boxes", "addr:city": "DE KALB JUNCTION", "addr:country": "US", "addr:full": "4329 RT 11", "addr:postcode": "13630", "addr:state": "NY", "amenity": "post_box", "brand": "United States Postal Service", "brand:wikidata": "Q668687", "collection_times": "Mo-Fr 12:00; Sa 11:00", "name": "USPS COLLECTION BOX - PO LOBBY", "nsi_id": "unitedstatespostalservice-a77078", "operator": "United States Postal Service", "operator:short": "USPS", "operator:type": "public", "operator:wikidata": "Q668687", "ref": "1363000003"}, "type": "Feature"}
{"dataset_attributes": {"@spider": "usps_collection_boxes"}, "geometry": {"coordinates": [-75.27429375, 44.504698693], "type": "Point"}, "id": "AYFEO6CFuFhIBMJ5ioKh6Oqob5E=", "properties": {"@spider": "usps_collection_boxes", "addr:city": "DE KALB JUNCTION", "addr:country": "US", "addr:full": "4329 US HIGHWAY 11", "addr:postcode": "13630", "addr:state": "NY", "amenity": "post_box", "brand": "United States Postal Service", "brand:wikidata": "Q668687", "collection_times": "Mo-Fr 12:00; Sa 11:00", "name": "USPS COLLECTION BOX - PO LOBBY", "nsi_id": "unitedstatespostalservice-a77078", "operator": "United States Postal Service", "operator:short": "USPS", "operator:type": "public", "operator:wikidata": "Q668687", "ref": "1363000004"}, "type": "Feature"}
{"dataset_attributes": {"@spider": "usps_collection_boxes"}, "geometry": {"coordinates": [-75.4350199, 44.553306], "type": "Point"}, "id": "I9FsncZt44R_r5dx1IqGN1_LCFo=", "properties": {"@spider": "usps_collection_boxes", "addr:city": "DE PEYSTER", "addr:country": "US", "addr:full": "4386 COUNTY ROUTE 10", "addr:postcode": "13633", "addr:state": "NY", "amenity": "post_box", "brand": "United States Postal Service", "brand:wikidata": "Q668687", "collection_times": "Mo-Sa 11:00", "name": "USPS COLLECTION BOX - BLUE BOX", "nsi_id": "unitedstatespostalservice-a77078", "operator": "United States Postal Service", "operator:short": "USPS", "operator:type": "public", "operator:wikidata": "Q668687", "ref": "1363300001"}, "type": "Feature"}
{"dataset_attributes": {"@spider": "usps_collection_boxes"}, "geometry": {"coordinates": [-75.249491, 44.326637], "type": "Point"}, "id": "quaUcuKkcvgiuA9MNop7siuRUpU=", "properties": {"@spider": "usps_collection_boxes", "addr:city": "EDWARDS", "addr:country": "US", "addr:full": "196 MAIN ST", "addr:postcode": "13635", "addr:state": "NY", "amenity": "post_box", "brand": "United States Postal Service", "brand:wikidata": "Q668687", "collection_times": "Mo-Fr 15:50; Sa 11:30", "name": "USPS COLLECTION BOX - BLUE BOX", "note": "ON 12/24 AND 12/31, THIS BOX MAY BE COLLECTED AS EARLY AS 12 NOON.", "nsi_id": "unitedstatespostalservice-a77078", "operator": "United States Postal Service", "operator:short": "USPS", "operator:type": "public", "operator:wikidata": "Q668687", "ref": "1363500001"}, "type": "Feature"}
{"dataset_attributes": {"@spider": "usps_collection_boxes"}, "geometry": {"coordinates": [-75.249488, 44.32669], "type": "Point"}, "id": "FG2NSiRPtpfJ40Iv7MADmSoqgpo=", "properties": {"@spider": "usps_collection_boxes", "addr:city": "EDWARDS", "addr:country": "US", "addr:full": "196 MAIN ST", "addr:postcode": "13635", "addr:state": "NY", "amenity": "post_box", "brand": "United States Postal Service", "brand:wikidata": "Q668687", "collection_times": "Mo-Fr 16:00; Sa 11:30", "name": "USPS COLLECTION BOX - PO LOBBY", "note": "ON 12/24 AND 12/31, THIS BOX MAY BE COLLECTED AS EARLY AS 12 NOON.", "nsi_id": "unitedstatespostalservice-a77078", "operator": "United States Postal Service", "operator:short": "USPS", "operator:type": "public", "operator:wikidata": "Q668687", "ref": "1363500002"}, "type": "Feature"}
{"dataset_attributes": {"@spider": "usps_collection_boxes"}, "geometry": {"coordinates": [-75.249496165, 44.326632385], "type": "Point"}, "id": "uk797QkIfNLvkQ1JygXQUP0FWjM=", "properties": {"@spider": "usps_collection_boxes", "addr:city": "EDWARDS", "addr:country": "US", "addr:full": "196 MAIN ST", "addr:postcode": "13635", "addr:state": "NY", "amenity": "post_box", "brand": "United States Postal Service", "brand:wikidata": "Q668687", "collection_times": "Mo-Fr 16:00; Sa 11:30", "name": "USPS COLLECTION BOX - PO LOBBY", "note": "ON 12/24 AND 12/31, THIS BOX MAY BE COLLECTED AS EARLY AS 12 NOON.", "nsi_id": "unitedstatespostalservice-a77078", "operator": "United States Postal Service", "operator:short": "USPS", "operator:type": "public", "operator:wikidata": "Q668687", "ref": "1363500003"}, "type": "Feature"}
{"dataset_attributes": {"@spider": "usps_collection_boxes"}, "geometry": {"coordinates": [-75.138749, 44.248409], "type": "Point"}, "id": "TIWkaOjLZFpAk2AabhAKTfXpTJs=", "properties": {"@spider": "usps_collection_boxes", "addr:city": "FINE", "addr:country": "US", "addr:full": "8 SPRING ST", "addr:postcode": "13639", "addr:state": "NY", "amenity": "post_box", "brand": "United States Postal Service", "brand:wikidata": "Q668687", "collection_times": "Mo-Fr 12:00; Sa 11:30", "name": "USPS COLLECTION BOX - BLUE BOX", "nsi_id": "unitedstatespostalservice-a77078", "operator": "United States Postal Service", "operator:short": "USPS", "operator:type": "public", "operator:wikidata": "Q668687", "ref": "1363900001"}, "type": "Feature"}
{"dataset_attributes": {"@spider": "usps_collection_boxes"}, "geometry": {"coordinates": [-75.138787, 44.248407], "type": "Point"}, "id": "Rq31zKcbnQAk0Q1kDfSF1Fez0-4=", "properties": {"@spider": "usps_collection_boxes", "addr:city": "FINE", "addr:country": "US", "addr:full": "8 SPRING ST", "addr:postcode": "13639", "addr:state": "NY", "amenity": "post_box", "brand": "United States Postal Service", "brand:wikidata": "Q668687", "collection_times": "Mo-Fr 12:00; Sa 11:30", "name": "USPS COLLECTION BOX - PO LOBBY", "nsi_id": "unitedstatespostalservice-a77078", "operator": "United States Postal Service", "operator:short": "USPS", "operator:type": "public", "operator:wikidata": "Q668687", "ref": "1363900002"}, "type": "Feature"}
{"dataset_attributes": {"@spider": "usps_collection_boxes"}, "geometry": {"coordinates": [-75.138745376, 44.248321875], "type": "Point"}, "id": "9YrafRXWA-3egh0u1bwiONdipQk=", "properties": {"@spider": "usps_collection_boxes", "addr:city": "FINE", "addr:country": "US", "addr:full": "8 SPRING ST", "addr:postcode": "13639", "addr:state": "NY", "amenity": "post_box", "brand": "United States Postal Service", "brand:wikidata": "Q668687", "collection_times": "Mo-Fr 12:00; Sa 11:45", "name": "USPS COLLECTION BOX - PO LOBBY", "nsi_id": "unitedstatespostalservice-a77078", "operator": "United States Postal Service", "operator:short": "USPS", "operator:type": "public", "operator:wikidata": "Q668687", "ref": "1363900003"}, "type": "Feature"}
{"dataset_attributes": {"@spider": "usps_collection_boxes"}, "geometry": {"coordinates": [-75.466049, 44.334878], "type": "Point"}, "id": "myU-Nx1YPTR5BWiizLb7Vcpjyv0=", "properties": {"@spider": "usps_collection_boxes", "addr:city": "GOUVERNEUR", "addr:country": "US", "addr:full": "35 GROVE ST", "addr:postcode": "13642", "addr:state": "NY", "amenity": "post_box", "brand": "United States Postal Service", "brand:wikidata": "Q668687", "collection_times": "Mo-Fr 17:00; Sa 15:30", "name": "USPS COLLECTION BOX - BLUE BOX", "note": "ON 12/24 AND 12/31, THIS BOX MAY BE COLLECTED AS EARLY AS 12 NOON.", "nsi_id": "unitedstatespostalservice-a77078", "operator": "United States Postal Service", "operator:short": "USPS", "operator:type": "public", "operator:wikidata": "Q668687", "ref": "1364200002"}, "type": "Feature"}
{"dataset_attributes": {"@spider": "usps_collection_boxes"}, "geometry": {"coordinates": [-75.4677384, 44.335165], "type": "Point"}, "id": "_aTrk4TIa0POJqZB2wcqt2WZXIQ=", "properties": {"@spider": "usps_collection_boxes", "addr:city": "GOUVERNEUR", "addr:country": "US", "addr:full": "42 CHURCH ST", "addr:postcode": "13642", "addr:state": "NY", "amenity": "post_box", "brand": "United States Postal Service", "brand:wikidata": "Q668687", "collection_times": "Mo-Fr 15:00; Sa 08:00", "name": "USPS COLLECTION BOX - BLUE BOX", "note": "ON 12/24 AND 12/31, THIS BOX MAY BE COLLECTED AS EARLY AS 12 NOON.", "nsi_id": "unitedstatespostalservice-a77078", "operator": "United States Postal Service", "operator:short": "USPS", "operator:type": "public", "operator:wikidata": "Q668687", "ref": "1364200005"}, "type": "Feature"}
{"dataset_attributes": {"@spider": "usps_collection_boxes"}, "geometry": {"coordinates": [-75.4689204, 44.335369], "type": "Point"}, "id": "el7weIKXg37p7KQXOVuUiRm2KXg=", "properties": {"@spider": "usps_collection_boxes", "addr:city": "GOUVERNEUR", "addr:country": "US", "addr:full": "15 E MAIN ST", "addr:postcode": "13642", "addr:state": "NY", "amenity": "post_box", "brand": "United States Postal Service", "brand:wikidata": "Q668687", "collection_times": "Mo-Fr 15:00; Sa 14:00", "name": "USPS COLLECTION BOX - BLUE BOX", "note": "ON 12/24 AND 12/31, THIS BOX MAY BE COLLECTED AS EARLY AS 12 NOON.", "nsi_id": "unitedstatespostalservice-a77078", "operator": "United States Postal Service", "operator:short": "USPS", "operator:type": "public", "operator:wikidata": "Q668687", "ref": "1364200006"}, "type": "Feature"}
{"dataset_attributes": {"@spider": "usps_collection_boxes"}, "geometry": {"coordinates": [-75.4550604, 44.340705], "type": "Point"}, "id": "ahtcFKlaVyyo5ilo_EGEHsbQB6A=", "properties": {"@spider": "usps_collection_boxes", "addr:city": "GOUVERNEUR", "addr:country": "US", "addr:full": "389 E MAIN ST", "addr:postcode": "13642", "addr:state": "NY", "amenity": "post_box", "brand": "United States Postal Service", "brand:wikidata": "Q668687", "collection_times": "Mo-Sa 11:00", "name": "USPS COLLECTION BOX - BLUE BOX", "nsi_id": "unitedstatespostalservice-a77078", "operator": "United States Postal Service", "operator:short": "USPS", "operator:type": "public", "operator:wikidata": "Q668687", "ref": "1364200007"}, "type": "Feature"}
{"dataset_attributes": {"@spider": "usps_collection_boxes"}, "geometry": {"coordinates": [-75.4593333, 44.339722], "type": "Point"}, "id": "49kaPRrqop1TEeRJ9rRrYrDpYRY=", "properties": {"@spider": "usps_collection_boxes", "addr:city": "GOUVERNEUR", "addr:country": "US", "addr:full": "136 ROWLEY ST", "addr:postcode": "13642", "addr:state": "NY", "amenity": "post_box", "brand": "United States Postal Service", "brand:wikidata": "Q668687", "collection_times": "Mo-Sa 09:00", "name": "USPS COLLECTION BOX - BLUE BOX", "nsi_id": "unitedstatespostalservice-a77078", "operator": "United States Postal Service", "operator:short": "USPS", "operator:type": "public", "operator:wikidata": "Q668687", "ref": "1364200008"}, "type": "Feature"}
{"dataset_attributes": {"@spider": "usps_collection_boxes"}, "geometry": {"coordinates": [-75.4710519, 44.339183], "type": "Point"}, "id": "N9267em0sQtK5MxzboKOc5DNbUY=", "properties": {"@spider": "usps_collection_boxes", "addr:city": "GOUVERNEUR", "addr:country": "US", "addr:full": "123 CLINTON ST", "addr:postcode": "13642", "addr:state": "NY", "amenity": "post_box", "brand": "United States Postal Service", "brand:wikidata": "Q668687", "collection_times": "Mo-Sa 10:00", "name": "USPS COLLECTION BOX - BLUE BOX", "nsi_id": "unitedstatespostalservice-a77078", "operator": "United States Postal Service", "operator:short": "USPS", "operator:type": "public", "operator:wikidata": "Q668687", "ref": "1364200013"}, "type": "Feature"}
{"dataset_attributes": {"@spider": "usps_collection_boxes"}, "geometry": {"coordinates": [-75.4500488, 44.339253], "type": "Point"}, "id": "sMHcyxj4wytTPLYEc-JoTp1vvoQ=", "properties": {"@spider": "usps_collection_boxes", "addr:city": "GOUVERNEUR", "addr:country": "US", "addr:full": "1100 LARCH CIR", "addr:postcode": "13642", "addr:state": "NY", "amenity": "post_box", "brand": "United States Postal Service", "brand:wikidata": "Q668687", "collection_times": "Mo-Sa 09:00", "name": "USPS COLLECTION BOX - BLUE BOX", "nsi_id": "unitedstatespostalservice-a77078", "operator": "United States Postal Service", "operator:short": "USPS", "operator:type": "public", "operator:wikidata": "Q668687", "ref": "1364200016"}, "type": "Feature"}
{"dataset_attributes": {"@spider": "usps_collection_boxes"}, "geometry": {"coordinates": [-75.4742064, 44.337756], "type": "Point"}, "id": "VmlzRSzNWB-OtN8c4fvaFJ4t5vU=", "properties": {"@spider": "usps_collection_boxes", "addr:city": "GOUVERNEUR", "addr:country": "US", "addr:full": "77 W BARNEY ST", "addr:postcode": "13642", "addr:state": "NY", "amenity": "post_box", "brand": "United States Postal Service", "brand:wikidata": "Q668687", "collection_times": "Mo-Sa 11:00", "name": "USPS COLLECTION BOX - BLUE BOX", "nsi_id": "unitedstatespostalservice-a77078", "operator": "United States Postal Service", "operator:short": "USPS", "operator:type": "public", "operator:wikidata": "Q668687", "ref": "1364200017"}, "type": "Feature"}
{"dataset_attributes": {"@spider": "usps_collection_boxes"}, "geometry": {"coordinates": [-75.4783505, 44.332239], "type": "Point"}, "id": "bvGFwEljIeZdKad_0sD4j1PJRB0=", "properties": {"@spider": "usps_collection_boxes", "addr:city": "GOUVERNEUR", "addr:country": "US", "addr:full": "90 JOHNSTOWN ST", "addr:postcode": "13642", "addr:state": "NY", "amenity": "post_box", "brand": "United States Postal Service", "brand:wikidata": "Q668687", "collection_times": "Mo-Sa 10:00", "name": "USPS COLLECTION BOX - BLUE BOX", "nsi_id": "unitedstatespostalservice-a77078", "operator": "United States Postal Service", "operator:short": "USPS", "operator:type": "public", "operator:wikidata": "Q668687", "ref": "1364200018"}, "type": "Feature"}
{"dataset_attributes": {"@spider": "usps_collection_boxes"}, "geometry": {"coordinates": [-75.4760395, 44.33093], "type": "Point"}, "id": "yazndeWHBa--DXwufqBmdJtejXA=", "properties": {"@spider": "usps_collection_boxes", "addr:city": "GOUVERNEUR", "addr:country": "US", "addr:full": "210 W MAIN ST", "addr:postcode": "13642", "addr:state": "NY", "amenity": "post_box", "brand": "United States Postal Service", "brand:wikidata": "Q668687", "collection_times": "Mo-Sa 10:00", "name": "USPS COLLECTION BOX - BLUE BOX", "nsi_id": "unitedstatespostalservice-a77078", "operator": "United States Postal Service", "operator:short": "USPS", "operator:type": "public", "operator:wikidata": "Q668687", "ref": "1364200022"}, "type": "Feature"}
{"dataset_attributes": {"@spider": "usps_collection_boxes"}, "geometry": {"coordinates": [-75.4602652, 44.337241], "type": "Point"}, "id": "YAqJNo078bnj4Ri4lu4pUmkAk1U=", "properties": {"@spider": "usps_collection_boxes", "addr:city": "GOUVERNEUR", "addr:country": "US", "addr:full": "242 E MAIN ST", "addr:postcode": "13642", "addr:state": "NY", "amenity": "post_box", "brand": "United States Postal Service", "brand:wikidata": "Q668687", "collection_times": "Mo-Sa 10:00", "name": "USPS COLLECTION BOX - BLUE BOX", "nsi_id": "unitedstatespostalservice-a77078", "operator": "United States Postal Service", "operator:short": "USPS", "operator:type": "public", "operator:wikidata": "Q668687", "ref": "1364200024"}, "type": "Feature"}
{"dataset_attributes": {"@spider": "usps_collection_boxes"}, "geometry": {"coordinates": [-75.466041, 44.334818], "type": "Point"}, "id": "1INqx9jg7TlOckHXWHAha2xUQPg=", "properties": {"@spider": "usps_collection_boxes", "addr:city": "GOUVERNEUR", "addr:country": "US", "addr:full": "35 GROVE ST", "addr:postcode": "13642", "addr:state": "NY", "amenity": "post_box", "brand": "United States Postal Service", "brand:wikidata": "Q668687", "collection_times": "Mo-Fr 17:00; Sa 15:30", "name": "USPS COLLECTION BOX - PO LOBBY", "note": "ON 12/24 AND 12/31, THIS BOX MAY BE COLLECTED AS EARLY AS 12 NOON.", "nsi_id": "unitedstatespostalservice-a77078", "operator": "United States Postal Service", "operator:short": "USPS", "operator:type": "public", "operator:wikidata": "Q668687", "ref": "1364200025"}, "type": "Feature"}
{"dataset_attributes": {"@spider": "usps_collection_boxes"}, "geometry": {"coordinates": [-75.466036904, 44.334844145], "type": "Point"}, "id": "HPNwki0WjomerCeO2xNkUhz0ER8=", "properties": {"@spider": "usps_collection_boxes", "addr:city": "GOUVERNEUR", "addr:country": "US", "addr:full": "35 GROVE ST", "addr:postcode": "13642", "addr:state": "NY", "amenity": "post_box", "brand": "United States Postal Service", "brand:wikidata": "Q668687", "collection_times": "Mo-Fr 17:00; Sa 12:00", "name": "USPS COLLECTION BOX - PO LOBBY", "note": "ON 12/24 AND 12/31, THIS BOX MAY BE COLLECTED AS EARLY AS 12 NOON.", "nsi_id": "unitedstatespostalservice-a77078", "operator": "United States Postal Service", "operator:short": "USPS", "operator:type": "public", "operator:wikidata": "Q668687", "ref": "1364200027"}, "type": "Feature"}
{"dataset_attributes": {"@spider": "usps_collection_boxes"}, "geometry": {"coordinates": [-75.716579, 44.033111], "type": "Point"}, "id": "3zI0gAhNm_LE4ZrKlCaqfzBtkew=", "properties": {"@spider": "usps_collection_boxes", "addr:city": "GREAT BEND", "addr:country": "US", "addr:full": "32675 NYS RT 26", "addr:postcode": "13643", "addr:state": "NY", "amenity": "post_box", "brand": "United States Postal Service", "brand:wikidata": "Q668687", "collection_times": "Mo-Fr 16:30; Sa 11:30", "name": "USPS COLLECTION BOX - BLUE BOX", "note": "ON 12/24 AND 12/31, THIS BOX MAY BE COLLECTED AS EARLY AS 12 NOON.", "nsi_id": "unitedstatespostalservice-a77078", "operator": "United States Postal Service", "operator:short": "USPS", "operator:type": "public", "operator:wikidata": "Q668687", "ref": "1364300001"}, "type": "Feature"}
{"dataset_attributes": {"@spider": "usps_collection_boxes"}, "geometry": {"coordinates": [-75.716581, 44.033113], "type": "Point"}, "id": "sOLXrx5cPhU6kBf530c2CYXpzaQ=", "properties": {"@spider": "usps_collection_boxes", "addr:city": "GREAT BEND", "addr:country": "US", "addr:full": "32675 NYS RT 26", "addr:postcode": "13643", "addr:state": "NY", "amenity": "post_box", "brand": "United States Postal Service", "brand:wikidata": "Q668687", "collection_times": "Mo-Fr 16:30; Sa 11:45", "name": "USPS COLLECTION BOX - PO LOBBY", "note": "ON 12/24 AND 12/31, THIS BOX MAY BE COLLECTED AS EARLY AS 12 NOON.", "nsi_id": "unitedstatespostalservice-a77078", "operator": "United States Postal Service", "operator:short": "USPS", "operator:type": "public", "operator:wikidata": "Q668687", "ref": "1364300003"}, "type": "Feature"}
{"dataset_attributes": {"@spider": "usps_collection_boxes"}, "geometry": {"coordinates": [-75.716982589, 44.033272258], "type": "Point"}, "id": "iqgkE2WpxBs0c5e6u93rNy-b8Io=", "properties": {"@spider": "usps_collection_boxes", "addr:city": "GREAT BEND", "addr:country": "US", "addr:full": "32675 STATE ROUTE 26", "addr:postcode": "13643", "addr:state": "NY", "amenity": "post_box", "brand": "United States Postal Service", "brand:wikidata": "Q668687", "collection_times": "Mo-Fr 16:45; Sa 11:45", "name": "USPS COLLECTION BOX - PO LOBBY", "note": "ON 12/24 AND 12/31, THIS BOX MAY BE COLLECTED AS EARLY AS 12 NOON.", "nsi_id": "unitedstatespostalservice-a77078", "operator": "United States Postal Service", "operator:short": "USPS", "operator:type": "public", "operator:wikidata": "Q668687", "ref": "1364300004"}, "type": "Feature"}
{"dataset_attributes": {"@spider": "usps_collection_boxes"}, "geometry": {"coordinates": [-75.446498, 44.310101], "type": "Point"}, "id": "MuAp3jjRcZnuvLxHJAfEPkTaacw=", "properties": {"@spider": "usps_collection_boxes", "addr:city": "HAILESBORO", "addr:country": "US", "addr:full": "97 MAIN ST", "addr:postcode": "13645", "addr:state": "NY", "amenity": "post_box", "brand": "United States Postal Service", "brand:wikidata": "Q668687", "collection_times": "Mo-Fr 12:00; Sa 11:30", "name": "USPS COLLECTION BOX - BLUE BOX", "nsi_id": "unitedstatespostalservice-a77078", "operator": "United States Postal Service", "operator:short": "USPS", "operator:type": "public", "operator:wikidata": "Q668687", "ref": "1364500001"}, "type": "Feature"}
{"dataset_attributes": {"@spider": "usps_collection_boxes"}, "geometry": {"coordinates": [-75.446498, 44.310101], "type": "Point"}, "id": "0NKfOnlRUgB04qOhcqPdTEYMIdQ=", "properties": {"@spider": "usps_collection_boxes", "addr:city": "HAILESBORO", "addr:country": "US", "addr:full": "97 MAIN ST", "addr:postcode": "13645", "addr:state": "NY", "amenity": "post_box", "brand": "United States Postal Service", "brand:wikidata": "Q668687", "collection_times": "Mo-Fr 12:00; Sa 11:30", "name": "USPS COLLECTION BOX - PO LOBBY", "nsi_id": "unitedstatespostalservice-a77078", "operator": "United States Postal Service", "operator:short": "USPS", "operator:type": "public", "operator:wikidata": "Q668687", "ref": "1364500002"}, "type": "Feature"}
{"dataset_attributes": {"@spider": "usps_collection_boxes"}, "geometry": {"coordinates": [-75.44618503, 44.309673096], "type": "Point"}, "id": "FADbSOI_TyDjmef43I_lwr_o2cY=", "properties": {"@spider": "usps_collection_boxes", "addr:city": "HAILESBORO", "addr:country": "US", "addr:full": "97 MAIN ST", "addr:postcode": "13645", "addr:state": "NY", "amenity": "post_box", "brand": "United States Postal Service", "brand:wikidata": "Q668687", "collection_times": "Mo-Fr 12:00; Sa 11:45", "name": "USPS COLLECTION BOX - PO LOBBY", "nsi_id": "unitedstatespostalservice-a77078", "operator": "United States Postal Service", "operator:short": "USPS", "operator:type": "public", "operator:wikidata": "Q668687", "ref": "1364500004"}, "type": "Feature"}
{"dataset_attributes": {"@spider": "usps_collection_boxes"}, "geometry": {"coordinates": [-75.696239, 44.445314], "type": "Point"}, "id": "ng4vsVntIQGYfRzbp3Vxkj2nKoE=", "properties": {"@spider": "usps_collection_boxes", "addr:city": "HAMMOND", "addr:country": "US", "addr:full": "50 S MAIN ST", "addr:postcode": "13646", "addr:state": "NY", "amenity": "post_box", "brand": "United States Postal Service", "brand:wikidata": "Q668687", "collection_times": "Mo-Fr 15:00; Sa 10:45", "name": "USPS COLLECTION BOX - BLUE BOX", "note": "ON 12/24 AND 12/31, THIS BOX MAY BE COLLECTED AS EARLY AS 12 NOON.", "nsi_id": "unitedstatespostalservice-a77078", "operator": "United States Postal Service", "operator:short": "USPS", "operator:type": "public", "operator:wikidata": "Q668687", "ref": "1364600001"}, "type": "Feature"}
{"dataset_attributes": {"@spider": "usps_collection_boxes"}, "geometry": {"coordinates": [-75.696239, 44.445314], "type": "Point"}, "id": "GuPzGNKanU5GcNHcZb3iVd36RWY=", "properties": {"@spider": "usps_collection_boxes", "addr:city": "HAMMOND", "addr:country": "US", "addr:full": "50 S MAIN ST", "addr:postcode": "13646", "addr:state": "NY", "amenity": "post_box", "brand": "United States Postal Service", "brand:wikidata": "Q668687", "collection_times": "Mo-Fr 15:00; Sa 11:00", "name": "USPS COLLECTION BOX - PO LOBBY", "note": "ON 12/24 AND 12/31, THIS BOX MAY BE COLLECTED AS EARLY AS 12 NOON.", "nsi_id": "unitedstatespostalservice-a77078", "operator": "United States Postal Service", "operator:short": "USPS", "operator:type": "public", "operator:wikidata": "Q668687", "ref": "1364600002"}, "type": "Feature"}
{"dataset_attributes": {"@spider": "usps_collection_boxes"}, "geometry": {"coordinates": [-75.696262097, 44.445182606], "type": "Point"}, "id": "yvOXz2aRze9hFVvpLdHMURIVPdg=", "properties": {"@spider": "usps_collection_boxes", "addr:city": "HAMMOND", "addr:country": "US", "addr:full": "50 S MAIN ST", "addr:postcode": "13646", "addr:state": "NY", "amenity": "post_box", "brand": "United States Postal Service", "brand:wikidata": "Q668687", "collection_times": "Mo-Fr 15:00; Sa 11:00", "name": "USPS COLLECTION BOX - PO LOBBY", "note": "ON 12/24 AND 12/31, THIS BOX MAY BE COLLECTED AS EARLY AS 12 NOON.", "nsi_id": "unitedstatespostalservice-a77078", "operator": "United States Postal Service", "operator:short": "USPS", "operator:type": "public", "operator:wikidata": "Q668687", "ref": "1364600003"}, "type": "Feature"}
{"dataset_attributes": {"@spider": "usps_collection_boxes"}, "geometry": {"coordinates": [-74.968386, 44.612982], "type": "Point"}, "id": "0Ar4YesH8LRq3haxch0i91yDcwU=", "properties": {"@spider": "usps_collection_boxes", "addr:city": "HANNAWA FALLS", "addr:country": "US", "addr:full": "5890 STATE HIGHWAY 56", "addr:postcode": "13647", "addr:state": "NY", "amenity": "post_box", "brand": "United States Postal Service", "brand:wikidata": "Q668687", "collection_times": "Mo-Fr 15:45; Sa 11:30", "name": "USPS COLLECTION BOX - BLUE BOX", "note": "ON 12/24 AND 12/31, THIS BOX MAY BE COLLECTED AS EARLY AS 12 NOON.", "nsi_id": "unitedstatespostalservice-a77078", "operator": "United States Postal Service", "operator:short": "USPS", "operator:type": "public", "operator:wikidata": "Q668687", "ref": "1364700001"}, "type": "Feature"}
{"dataset_attributes": {"@spider": "usps_collection_boxes"}, "geometry": {"coordinates": [-74.96869, 44.613253], "type": "Point"}, "id": "oaej216LBQU8Vn-qAvHpSQ5dIhA=", "properties": {"@spider": "usps_collection_boxes", "addr:city": "HANNAWA FALLS", "addr:country": "US", "addr:full": "5890 STATE HIGHWAY 56", "addr:postcode": "13647", "addr:state": "NY", "amenity": "post_box", "brand": "United States Postal Service", "brand:wikidata": "Q668687", "collection_times": "Mo-Fr 15:45; Sa 11:45", "name": "USPS COLLECTION BOX - PO LOBBY", "note": "ON 12/24 AND 12/31, THIS BOX MAY BE COLLECTED AS EARLY AS 12 NOON.", "nsi_id": "unitedstatespostalservice-a77078", "operator": "United States Postal Service", "operator:short": "USPS", "operator:type": "public", "operator:wikidata": "Q668687", "ref": "1364700002"}, "type": "Feature"}
{"dataset_attributes": {"@spider": "usps_collection_boxes"}, "geometry": {"coordinates": [-74.96918123, 44.613010737], "type": "Point"}, "id": "hWHHh9pZNkheCeK04LT4AlhKsNc=", "properties": {"@spider": "usps_collection_boxes", "addr:city": "HANNAWA FALLS", "addr:country": "US", "addr:full": "5890 STATE HIGHWAY 56", "addr:postcode": "13647", "addr:state": "NY", "amenity": "post_box", "brand": "United States Postal Service", "brand:wikidata": "Q668687", "collection_times": "Mo-Fr 15:45; Sa 11:30", "name": "USPS COLLECTION BOX - PO LOBBY", "note": "ON 12/24 AND 12/31, THIS BOX MAY BE COLLECTED AS EARLY AS 12 NOON.", "nsi_id": "unitedstatespostalservice-a77078", "operator": "United States Postal Service", "operator:short": "USPS", "operator:type": "public", "operator:wikidata": "Q668687", "ref": "1364700004"}, "type": "Feature"}
{"dataset_attributes": {"@spider": "usps_collection_boxes"}, "geometry": {"coordinates": [-75.315257, 44.14886], "type": "Point"}, "id": "bx3VTjMrFuBZ2futcEeTenxcyFE=", "properties": {"@spider": "usps_collection_boxes", "addr:city": "HARRISVILLE", "addr:country": "US", "addr:full": "14220 STATE ST", "addr:postcode": "13648", "addr:state": "NY", "amenity": "post_box", "brand": "United States Postal Service", "brand:wikidata": "Q668687", "collection_times": "Mo-Fr 16:30; Sa 12:00", "name": "USPS COLLECTION BOX - BLUE BOX", "note": "ON 12/24 AND 12/31, THIS BOX MAY BE COLLECTED AS EARLY AS 12 NOON.", "nsi_id": "unitedstatespostalservice-a77078", "operator": "United States Postal Service", "operator:short": "USPS", "operator:type": "public", "operator:wikidata": "Q668687", "ref": "1364800001"}, "type": "Feature"}
{"dataset_attributes": {"@spider": "usps_collection_boxes"}, "geometry": {"coordinates": [-75.315277, 44.148886], "type": "Point"}, "id": "XvVT_17UEMjHHQ_lpOWVXjhXpGs=", "properties": {"@spider": "usps_collection_boxes", "addr:city": "HARRISVILLE", "addr:country": "US", "addr:full": "14220 STATE ST", "addr:postcode": "13648", "addr:state": "NY", "amenity": "post_box", "brand": "United States Postal Service", "brand:wikidata": "Q668687", "collection_times": "Mo-Fr 17:00; Sa 12:00", "name": "USPS COLLECTION BOX - PO LOBBY", "note": "ON 12/24 AND 12/31, THIS BOX MAY BE COLLECTED AS EARLY AS 12 NOON.", "nsi_id": "unitedstatespostalservice-a77078", "operator": "United States Postal Service", "operator:short": "USPS", "operator:type": "public", "operator:wikidata": "Q668687", "ref": "1364800002"}, "type": "Feature"}
{"dataset_attributes": {"@spider": "usps_collection_boxes"}, "geometry": {"coordinates": [-75.315298784, 44.148814901], "type": "Point"}, "id": "o3nr0BOOKC3IiE6gSbgm26LvWwg=", "properties": {"@spider": "usps_collection_boxes", "addr:city": "HARRISVILLE", "addr:country": "US", "addr:full": "14220 STATE ST", "addr:postcode": "13648", "addr:state": "NY", "amenity": "post_box", "brand": "United States Postal Service", "brand:wikidata": "Q668687", "collection_times": "Mo-Fr 16:45; Sa 12:00", "name": "USPS COLLECTION BOX - PO LOBBY", "note": "ON 12/24 AND 12/31, THIS BOX MAY BE COLLECTED AS EARLY AS 12 NOON.", "nsi_id": "unitedstatespostalservice-a77078", "operator": "United States Postal Service", "operator:short": "USPS", "operator:type": "public", "operator:wikidata": "Q668687", "ref": "1364800003"}, "type": "Feature"}
{"dataset_attributes": {"@spider": "usps_collection_boxes"}, "geometry": {"coordinates": [-74.726596328, 44.921597311], "type": "Point"}, "id": "SyrZvdnaswMBy0RwPxwI7BojZ-U=", "properties": {"@spider": "usps_collection_boxes", "addr:city": "HELENA", "addr:country": "US", "addr:full": "589 QUINELL RD", "addr:postcode": "13649", "addr:state": "NY", "amenity": "post_box", "brand": "United States Postal Service", "brand:wikidata": "Q668687", "collection_times": "Mo-Fr 12:00; Sa 11:30", "name": "USPS COLLECTION BOX - PO LOBBY", "nsi_id": "unitedstatespostalservice-a77078", "operator": "United States Postal Service", "operator:short": "USPS", "operator:type": "public", "operator:wikidata": "Q668687", "ref": "1364900002"}, "type": "Feature"}
{"dataset_attributes": {"@spider": "usps_collection_boxes"}, "geometry": {"coordinates": [-74.7266061218, 44.9230816406], "type": "Point"}, "id": "VqjQV1v7LN7E5R390RV6xELlcrs=", "properties": {"@spider": "usps_collection_boxes", "addr:city": "HELENA", "addr:country": "US", "addr:full": "589 QUINELL RD", "addr:postcode": "13649", "addr:state": "NY", "amenity": "post_box", "brand": "United States Postal Service", "brand:wikidata": "Q668687", "collection_times": "Mo-Fr 12:00; Sa 11:30", "name": "USPS COLLECTION BOX - BLUE BOX", "nsi_id": "unitedstatespostalservice-a77078", "operator": "United States Postal Service", "operator:short": "USPS", "operator:type": "public", "operator:wikidata": "Q668687", "ref": "1364900003"}, "type": "Feature"}
{"dataset_attributes": {"@spider": "usps_collection_boxes"}, "geometry": {"coordinates": [-74.721696746, 44.919466848], "type": "Point"}, "id": "XIi2EVfaaabHtA7_p2Q3nxlWu5o=", "properties": {"@spider": "usps_collection_boxes", "addr:city": "HELENA", "addr:country": "US", "addr:full": "589 QUINELL RD", "addr:postcode": "13649", "addr:state": "NY", "amenity": "post_box", "brand": "United States Postal Service", "brand:wikidata": "Q668687", "collection_times": "Mo-Fr 12:00; Sa 11:30", "name": "USPS COLLECTION BOX - PO LOBBY", "nsi_id": "unitedstatespostalservice-a77078", "operator": "United States Postal Service", "operator:short": "USPS", "operator:type": "public", "operator:wikidata": "Q668687", "ref": "1364900004"}, "type": "Feature"}
{"dataset_attributes": {"@spider": "usps_collection_boxes"}, "geometry": {"coordinates": [-75.232761, 44.466681], "type": "Point"}, "id": "wa6ea0BRDJX_eJCYH5ru-ITWp4Q=", "properties": {"@spider": "usps_collection_boxes", "addr:city": "HERMON", "addr:country": "US", "addr:full": "88 MAIN ST", "addr:postcode": "13652", "addr:state": "NY", "amenity": "post_box", "brand": "United States Postal Service", "brand:wikidata": "Q668687", "collection_times": "Mo-Fr 16:00; Sa 11:30", "name": "USPS COLLECTION BOX - BLUE BOX", "note": "ON 12/24 AND 12/31, THIS BOX MAY BE COLLECTED AS EARLY AS 12 NOON.", "nsi_id": "unitedstatespostalservice-a77078", "operator": "United States Postal Service", "operator:short": "USPS", "operator:type": "public", "operator:wikidata": "Q668687", "ref": "1365200002"}, "type": "Feature"}
{"dataset_attributes": {"@spider": "usps_collection_boxes"}, "geometry": {"coordinates": [-75.232761, 44.466681], "type": "Point"}, "id": "_cSif30aq5JHSanj1l-ljOXf_mk=", "properties": {"@spider": "usps_collection_boxes", "addr:city": "HERMON", "addr:country": "US", "addr:full": "88 MAIN ST", "addr:postcode": "13652", "addr:state": "NY", "amenity": "post_box", "brand": "United States Postal Service", "brand:wikidata": "Q668687", "collection_times": "Mo-Fr 16:00; Sa 11:30", "name": "USPS COLLECTION BOX - PO LOBBY", "note": "ON 12/24 AND 12/31, THIS BOX MAY BE COLLECTED AS EARLY AS 12 NOON.", "nsi_id": "unitedstatespostalservice-a77078", "operator": "United States Postal Service", "operator:short": "USPS", "operator:type": "public", "operator:wikidata": "Q668687", "ref": "1365200003"}, "type": "Feature"}
{"dataset_attributes": {"@spider": "usps_collection_boxes"}, "geometry": {"coordinates": [-75.233016746, 44.466589838], "type": "Point"}, "id": "L9UWwUWWU811qOC2KG7gC8TxIFE=", "properties": {"@spider": "usps_collection_boxes", "addr:city": "HERMON", "addr:country": "US", "addr:full": "88 MAIN ST", "addr:postcode": "13652", "addr:state": "NY", "amenity": "post_box", "brand": "United States Postal Service", "brand:wikidata": "Q668687", "collection_times": "Mo-Fr 16:00; Sa 11:30", "name": "USPS COLLECTION BOX - PO LOBBY", "note": "ON 12/24 AND 12/31, THIS BOX MAY BE COLLECTED AS EARLY AS 12 NOON.", "nsi_id": "unitedstatespostalservice-a77078", "operator": "United States Postal Service", "operator:short": "USPS", "operator:type": "public", "operator:wikidata": "Q668687", "ref": "1365200004"}, "type": "Feature"}
{"dataset_attributes": {"@spider": "usps_collection_boxes"}, "geometry": {"coordinates": [-75.403769, 44.615955], "type": "Point"}, "id": "ZF2POXc-leNm40-bvDSOCcK2JAM=", "properties": {"@spider": "usps_collection_boxes", "addr:city": "HEUVELTON", "addr:country": "US", "addr:full": "107B STATE ST", "addr:postcode": "13654", "addr:state": "NY", "amenity": "post_box", "brand": "United States Postal Service", "brand:wikidata": "Q668687", "collection_times": "Mo-Fr 15:45; Sa 11:00", "name": "USPS COLLECTION BOX - BLUE BOX", "note": "ON 12/24 AND 12/31, THIS BOX MAY BE COLLECTED AS EARLY AS 12 NOON.", "nsi_id": "unitedstatespostalservice-a77078", "operator": "United States Postal Service", "operator:short": "USPS", "operator:type": "public", "operator:wikidata": "Q668687", "ref": "1365400001"}, "type": "Feature"}
{"dataset_attributes": {"@spider": "usps_collection_boxes"}, "geometry": {"coordinates": [-75.403857, 44.615976], "type": "Point"}, "id": "sqRhUGpWdgUjfOWhVXlOX7m8kQA=", "properties": {"@spider": "usps_collection_boxes", "addr:city": "HEUVELTON", "addr:country": "US", "addr:full": "107B STATE ST", "addr:postcode": "13654", "addr:state": "NY", "amenity": "post_box", "brand": "United States Postal Service", "brand:wikidata": "Q668687", "collection_times": "Mo-Fr 15:45; Sa 11:00", "name": "USPS COLLECTION BOX - PO LOBBY", "note": "ON 12/24 AND 12/31, THIS BOX MAY BE COLLECTED AS EARLY AS 12 NOON.", "nsi_id": "unitedstatespostalservice-a77078", "operator": "United States Postal Service", "operator:short": "USPS", "operator:type": "public", "operator:wikidata": "Q668687", "ref": "1365400002"}, "type": "Feature"}
{"dataset_attributes": {"@spider": "usps_collection_boxes"}, "geometry": {"coordinates": [-75.403844939, 44.616045511], "type": "Point"}, "id": "dwVunq3cRrZHU9LNlqWrSaRxriI=", "properties": {"@spider": "usps_collection_boxes", "addr:city": "HEUVELTON", "addr:country": "US", "addr:full": "107B STATE ST", "addr:postcode": "13654", "addr:state": "NY", "amenity": "post_box", "brand": "United States Postal Service", "brand:wikidata": "Q668687", "collection_times": "Mo-Fr 15:45; Sa 11:00", "name": "USPS COLLECTION BOX - PO LOBBY", "note": "ON 12/24 AND 12/31, THIS BOX MAY BE COLLECTED AS EARLY AS 12 NOON.", "nsi_id": "unitedstatespostalservice-a77078", "operator": "United States Postal Service", "operator:short": "USPS", "operator:type": "public", "operator:wikidata": "Q668687", "ref": "1365400003"}, "type": "Feature"}
{"dataset_attributes": {"@spider": "usps_collection_boxes"}, "geometry": {"coordinates": [-74.6669683, 44.974643], "type": "Point"}, "id": "KP3WyjBqPJwP5D0vxjdP5q0MibE=", "properties": {"@spider": "usps_collection_boxes", "addr:city": "HOGANSBURG", "addr:country": "US", "addr:full": "11 SAINT REGIS ST", "addr:postcode": "13655", "addr:state": "NY", "amenity": "post_box", "brand": "United States Postal Service", "brand:wikidata": "Q668687", "collection_times": "Mo-Fr 16:00; Sa 11:30", "name": "USPS COLLECTION BOX - BLUE BOX", "note": "ON 12/24 AND 12/31, THIS BOX MAY BE COLLECTED AS EARLY AS 12 NOON.", "nsi_id": "unitedstatespostalservice-a77078", "operator": "United States Postal Service", "operator:short": "USPS", "operator:type": "public", "operator:wikidata": "Q668687", "ref": "1365500001"}, "type": "Feature"}
{"dataset_attributes": {"@spider": "usps_collection_boxes"}, "geometry": {"coordinates": [-74.6668875, 44.974605], "type": "Point"}, "id": "voNNOZnabamVBVzVF9i8xR9G_d4=", "properties": {"@spider": "usps_collection_boxes", "addr:city": "HOGANSBURG", "addr:country": "US", "addr:full": "11 SAINT REGIS ST", "addr:postcode": "13655", "addr:state": "NY", "amenity": "post_box", "brand": "United States Postal Service", "brand:wikidata": "Q668687", "collection_times": "Mo-Fr 16:00; Sa 11:30", "name": "USPS COLLECTION BOX - PO LOBBY", "note": "ON 12/24 AND 12/31, THIS BOX MAY BE COLLECTED AS EARLY AS 12 NOON.", "nsi_id": "unitedstatespostalservice-a77078", "operator": "United States Postal Service", "operator:short": "USPS", "operator:type": "public", "operator:wikidata": "Q668687", "ref": "1365500002"}, "type": "Feature"}
{"dataset_attributes": {"@spider": "usps_collection_boxes"}, "geometry": {"coordinates": [-74.640902008, 44.966010021], "type": "Point"}, "id": "8pfAbAhfttYQvR1bZMYOxJdB3Co=", "properties": {"@spider": "usps_collection_boxes", "addr:city": "HOGANSBURG", "addr:country": "US", "addr:full": "908 STATE ROUTE 37", "addr:postcode": "13655", "addr:state": "NY", "amenity": "post_box", "brand": "United States Postal Service", "brand:wikidata": "Q668687", "collection_times": "Mo-Sa 10:00", "name": "USPS COLLECTION BOX - BLUE BOX", "nsi_id": "unitedstatespostalservice-a77078", "operator": "United States Postal Service", "operator:short": "USPS", "operator:type": "public", "operator:wikidata": "Q668687", "ref": "1365500003"}, "type": "Feature"}
{"dataset_attributes": {"@spider": "usps_collection_boxes"}, "geometry": {"coordinates": [-74.666948028, 44.974733425], "type": "Point"}, "id": "WoXp_oRSdqUP6U_tep_2oAduPCw=", "properties": {"@spider": "usps_collection_boxes", "addr:city": "HOGANSBURG", "addr:country": "US", "addr:full": "11 SAINT REGIS ST", "addr:postcode": "13655", "addr:state": "NY", "amenity": "post_box", "brand": "United States Postal Service", "brand:wikidata": "Q668687", "collection_times": "Mo-Fr 16:00; Sa 11:30", "name": "USPS COLLECTION BOX - PO LOBBY", "note": "ON 12/24 AND 12/31, THIS BOX MAY BE COLLECTED AS EARLY AS 12 NOON.", "nsi_id": "unitedstatespostalservice-a77078", "operator": "United States Postal Service", "operator:short": "USPS", "operator:type": "public", "operator:wikidata": "Q668687", "ref": "1365500005"}, "type": "Feature"}
{"dataset_attributes": {"@spider": "usps_collection_boxes"}, "geometry": {"coordinates": [-75.320524, 44.731874], "type": "Point"}, "id": "-LE7BGIAOWXTrLxLrUKGt4JR1og=", "properties": {"@spider": "usps_collection_boxes", "addr:city": "LISBON", "addr:country": "US", "addr:full": "7007 COUNTY ROUTE 10", "addr:postcode": "13658", "addr:state": "NY", "amenity": "post_box", "brand": "United States Postal Service", "brand:wikidata": "Q668687", "collection_times": "Mo-Fr 15:30; Sa 11:30", "name": "USPS COLLECTION BOX - BLUE BOX", "note": "ON 12/24 AND 12/31, THIS BOX MAY BE COLLECTED AS EARLY AS 12 NOON.", "nsi_id": "unitedstatespostalservice-a77078", "operator": "United States Postal Service", "operator:short": "USPS", "operator:type": "public", "operator:wikidata": "Q668687", "ref": "1365800001"}, "type": "Feature"}
{"dataset_attributes": {"@spider": "usps_collection_boxes"}, "geometry": {"coordinates": [-75.320503, 44.731807], "type": "Point"}, "id": "Ruuuxa8tSgo_C5UQ_guQxiEQZ2g=", "properties": {"@spider": "usps_collection_boxes", "addr:city": "LISBON", "addr:country": "US", "addr:full": "7007 COUNTY ROUTE 10", "addr:postcode": "13658", "addr:state": "NY", "amenity": "post_box", "brand": "United States Postal Service", "brand:wikidata": "Q668687", "collection_times": "Mo-Fr 15:30; Sa 11:30", "name": "USPS COLLECTION BOX - PO LOBBY", "note": "ON 12/24 AND 12/31, THIS BOX MAY BE COLLECTED AS EARLY AS 12 NOON.", "nsi_id": "unitedstatespostalservice-a77078", "operator": "United States Postal Service", "operator:short": "USPS", "operator:type": "public", "operator:wikidata": "Q668687", "ref": "1365800002"}, "type": "Feature"}
{"dataset_attributes": {"@spider": "usps_collection_boxes"}, "geometry": {"coordinates": [-75.32047957, 44.732042792], "type": "Point"}, "id": "AowJF5Mo4gok3gLXuhs3UHAicVc=", "properties": {"@spider": "usps_collection_boxes", "addr:city": "LISBON", "addr:country": "US", "addr:full": "7007 COUNTY ROUTE 10", "addr:postcode": "13658", "addr:state": "NY", "amenity": "post_box", "brand": "United States Postal Service", "brand:wikidata": "Q668687", "collection_times": "Mo-Fr 15:30; Sa 11:45", "name": "USPS COLLECTION BOX - PO LOBBY", "note": "ON 12/24 AND 12/31, THIS BOX MAY BE COLLECTED AS EARLY AS 12 NOON.", "nsi_id": "unitedstatespostalservice-a77078", "operator": "United States Postal Service", "operator:short": "USPS", "operator:type": "public", "operator:wikidata": "Q668687", "ref": "1365800003"}, "type": "Feature"}
{"dataset_attributes": {"@spider": "usps_collection_boxes"}, "geometry": {"coordinates": [-75.132718, 44.748329], "type": "Point"}, "id": "Az68YJ3MVfE66L_HKFUT1e2SY_4=", "properties": {"@spider": "usps_collection_boxes", "addr:city": "MADRID", "addr:country": "US", "addr:full": "3 CHURCH ST", "addr:postcode": "13660", "addr:state": "NY", "amenity": "post_box", "brand": "United States Postal Service", "brand:wikidata": "Q668687", "collection_times": "Mo-Fr 15:00; Sa 11:15", "name": "USPS COLLECTION BOX - PO LOBBY", "note": "ON 12/24 AND 12/31, THIS BOX MAY BE COLLECTED AS EARLY AS 12 NOON.", "nsi_id": "unitedstatespostalservice-a77078", "operator": "United States Postal Service", "operator:short": "USPS", "operator:type": "public", "operator:wikidata": "Q668687", "ref": "1366000001"}, "type": "Feature"}
{"dataset_attributes": {"@spider": "usps_collection_boxes"}, "geometry": {"coordinates": [-75.132594, 44.748307], "type": "Point"}, "id": "W6Lo9l9xBvDFIVifejT96QUhVas=", "properties": {"@spider": "usps_collection_boxes", "addr:city": "MADRID", "addr:country": "US", "addr:full": "3 CHURCH ST", "addr:postcode": "13660", "addr:state": "NY", "amenity": "post_box", "brand": "United States Postal Service", "brand:wikidata": "Q668687", "collection_times": "Mo-Fr 15:00; Sa 11:45", "name": "USPS COLLECTION BOX - BLUE BOX", "note": "ON 12/24 AND 12/31, THIS BOX MAY BE COLLECTED AS EARLY AS 12 NOON.", "nsi_id": "unitedstatespostalservice-a77078", "operator": "United States Postal Service", "operator:short": "USPS", "operator:type": "public", "operator:wikidata": "Q668687", "ref": "1366000002"}, "type": "Feature"}
{"dataset_attributes": {"@spider": "usps_collection_boxes"}, "geometry": {"coordinates": [-75.1331033633, 44.7484867241], "type": "Point"}, "id": "2UFsjmbLYhIN_p169hCONC9wzgY=", "properties": {"@spider": "usps_collection_boxes", "addr:city": "MADRID", "addr:country": "US", "addr:full": "3 CHURCH ST", "addr:postcode": "13660", "addr:state": "NY", "amenity": "post_box", "brand": "United States Postal Service", "brand:wikidata": "Q668687", "collection_times": "Mo-Fr 15:00; Sa 11:30", "name": "USPS COLLECTION BOX - PO LOBBY", "note": "ON 12/24 AND 12/31, THIS BOX MAY BE COLLECTED AS EARLY AS 12 NOON.", "nsi_id": "unitedstatespostalservice-a77078", "operator": "United States Postal Service", "operator:short": "USPS", "operator:type": "public", "operator:wikidata": "Q668687", "ref": "1366000003"}, "type": "Feature"}
{"dataset_attributes": {"@spider": "usps_collection_boxes"}, "geometry": {"coordinates": [-74.892376, 44.929648], "type": "Point"}, "id": "suNSjyyklzParJATKEcGWuzqERU=", "properties": {"@spider": "usps_collection_boxes", "addr:city": "MASSENA", "addr:country": "US", "addr:full": "96 MAIN ST", "addr:postcode": "13662", "addr:state": "NY", "amenity": "post_box", "brand": "United States Postal Service", "brand:wikidata": "Q668687", "collection_times": "Mo-Fr 17:00; Sa 16:00", "name": "USPS COLLECTION BOX - BLUE BOX", "note": "ON 12/24 AND 12/31, THIS BOX MAY BE COLLECTED AS EARLY AS 12 NOON.", "nsi_id": "unitedstatespostalservice-a77078", "operator": "United States Postal Service", "operator:short": "USPS", "operator:type": "public", "operator:wikidata": "Q668687", "ref": "1366200004"}, "type": "Feature"}
{"dataset_attributes": {"@spider": "usps_collection_boxes"}, "geometry": {"coordinates": [-74.892376, 44.929648], "type": "Point"}, "id": "74-ta4O-OwDFwZ3XcxqhrT5cmk8=", "properties": {"@spider": "usps_collection_boxes", "addr:city": "MASSENA", "addr:country": "US", "addr:full": "96 MAIN ST", "addr:postcode": "13662", "addr:state": "NY", "amenity": "post_box", "brand": "United States Postal Service", "brand:wikidata": "Q668687", "collection_times": "Mo-Fr 17:00; Sa 16:00", "name": "USPS COLLECTION BOX - BLUE BOX", "note": "ON 12/24 AND 12/31, THIS BOX MAY BE COLLECTED AS EARLY AS 12 NOON.", "nsi_id": "unitedstatespostalservice-a77078", "operator": "United States Postal Service", "operator:short": "USPS", "operator:type": "public", "operator:wikidata": "Q668687", "ref": "1366200005"}, "type": "Feature"}
{"dataset_attributes": {"@spider": "usps_collection_boxes"}, "geometry": {"coordinates": [-74.8928234, 44.934487], "type": "Point"}, "id": "3h1C4auZcVqxo__gkBGFae2cudY=", "properties": {"@spider": "usps_collection_boxes", "addr:city": "MASSENA", "addr:country": "US", "addr:full": "4 CENTER ST", "addr:postcode": "13662", "addr:state": "NY", "amenity": "post_box", "brand": "United States Postal Service", "brand:wikidata": "Q668687", "collection_times": "Mo-Sa 08:30", "name": "USPS COLLECTION BOX - BLUE BOX", "nsi_id": "unitedstatespostalservice-a77078", "operator": "United States Postal Service", "operator:short": "USPS", "operator:type": "public", "operator:wikidata": "Q668687", "ref": "1366200010"}, "type": "Feature"}
{"dataset_attributes": {"@spider": "usps_collection_boxes"}, "geometry": {"coordinates": [-74.8911633, 44.932168], "type": "Point"}, "id": "DtcRfWLOLX1xaBzuSFyTboaY0oM=", "properties": {"@spider": "usps_collection_boxes", "addr:city": "MASSENA", "addr:country": "US", "addr:full": "31 GLENN ST", "addr:postcode": "13662", "addr:state": "NY", "amenity": "post_box", "brand": "United States Postal Service", "brand:wikidata": "Q668687", "collection_times": "Mo-Sa 10:00", "name": "USPS COLLECTION BOX - BLUE BOX", "nsi_id": "unitedstatespostalservice-a77078", "operator": "United States Postal Service", "operator:short": "USPS", "operator:type": "public", "operator:wikidata": "Q668687", "ref": "1366200011"}, "type": "Feature"}
{"dataset_attributes": {"@spider": "usps_collection_boxes"}, "geometry": {"coordinates": [-74.8899863, 44.929629], "type": "Point"}, "id": "qzpo6lhFQjnJJW4lXjtN6yP0UWg=", "properties": {"@spider": "usps_collection_boxes", "addr:city": "MASSENA", "addr:country": "US", "addr:full": "53 E ORVIS ST", "addr:postcode": "13662", "addr:state": "NY", "amenity": "post_box", "brand": "United States Postal Service", "brand:wikidata": "Q668687", "collection_times": "Mo-Sa 09:00", "name": "USPS COLLECTION BOX - BLUE BOX", "nsi_id": "unitedstatespostalservice-a77078", "operator": "United States Postal Service", "operator:short": "USPS", "operator:type": "public", "operator:wikidata": "Q668687", "ref": "1366200022"}, "type": "Feature"}
{"dataset_attributes": {"@spider": "usps_collection_boxes"}, "geometry": {"coordinates": [-74.8829718, 44.92747], "type": "Point"}, "id": "7NdaCbY1L2siFIweEN7idGM08EI=", "properties": {"@spider": "usps_collection_boxes", "addr:city": "MASSENA", "addr:country": "US", "addr:full": "50 PARKER AVE", "addr:postcode": "13662", "addr:state": "NY", "amenity": "post_box", "brand": "United States Postal Service", "brand:wikidata": "Q668687", "collection_times": "Mo-Sa 10:00", "name": "USPS COLLECTION BOX - BLUE BOX", "nsi_id": "unitedstatespostalservice-a77078", "operator": "United States Postal Service", "operator:short": "USPS", "operator:type": "public", "operator:wikidata": "Q668687", "ref": "1366200025"}, "type": "Feature"}
{"dataset_attributes": {"@spider": "usps_collection_boxes"}, "geometry": {"coordinates": [-74.8909151, 44.922555], "type": "Point"}, "id": "W4rFp4l2BkCW5Ar7xNLNivjf_kA=", "properties": {"@spider": "usps_collection_boxes", "addr:city": "MASSENA", "addr:country": "US", "addr:full": "300 MAIN ST", "addr:postcode": "13662", "addr:state": "NY", "amenity": "post_box", "brand": "United States Postal Service", "brand:wikidata": "Q668687", "collection_times": "Mo-Sa 09:00", "name": "USPS COLLECTION BOX - BLUE BOX", "nsi_id": "unitedstatespostalservice-a77078", "operator": "United States Postal Service", "operator:short": "USPS", "operator:type": "public", "operator:wikidata": "Q668687", "ref": "1366200026"}, "type": "Feature"}
{"dataset_attributes": {"@spider": "usps_collection_boxes"}, "geometry": {"coordinates": [-74.8851877, 44.923825], "type": "Point"}, "id": "E0k7Dq3YNhckFn5OHsqHeIaW7HE=", "properties": {"@spider": "usps_collection_boxes", "addr:city": "MASSENA", "addr:country": "US", "addr:full": "89 GROVE ST", "addr:postcode": "13662", "addr:state": "NY", "amenity": "post_box", "brand": "United States Postal Service", "brand:wikidata": "Q668687", "collection_times": "Mo-Sa 08:30", "name": "USPS COLLECTION BOX - BLUE BOX", "nsi_id": "unitedstatespostalservice-a77078", "operator": "United States Postal Service", "operator:short": "USPS", "operator:type": "public", "operator:wikidata": "Q668687", "ref": "1366200027"}, "type": "Feature"}
{"dataset_attributes": {"@spider": "usps_collection_boxes"}, "geometry": {"coordinates": [-74.8734529, 44.92838], "type": "Point"}, "id": "evJDHlwDotuuHDuG0BWuqxM0mEU=", "properties": {"@spider": "usps_collection_boxes", "addr:city": "MASSENA", "addr:country": "US", "addr:full": "30 STEARNS ST", "addr:postcode": "13662", "addr:state": "NY", "amenity": "post_box", "brand": "United States Postal Service", "brand:wikidata": "Q668687", "collection_times": "Mo-Sa 10:00", "name": "USPS COLLECTION BOX - BLUE BOX", "nsi_id": "unitedstatespostalservice-a77078", "operator": "United States Postal Service", "operator:short": "USPS", "operator:type": "public", "operator:wikidata": "Q668687", "ref": "1366200034"}, "type": "Feature"}
{"dataset_attributes": {"@spider": "usps_collection_boxes"}, "geometry": {"coordinates": [-74.8782643, 44.922722], "type": "Point"}, "id": "aFrDERPbdo0VJV1icWJMdP1K-MI=", "properties": {"@spider": "usps_collection_boxes", "addr:city": "MASSENA", "addr:country": "US", "addr:full": "49 STEPHENVILLE ST", "addr:postcode": "13662", "addr:state": "NY", "amenity": "post_box", "brand": "United States Postal Service", "brand:wikidata": "Q668687", "collection_times": "Mo-Sa 09:30", "name": "USPS COLLECTION BOX - BLUE BOX", "nsi_id": "unitedstatespostalservice-a77078", "operator": "United States Postal Service", "operator:short": "USPS", "operator:type": "public", "operator:wikidata": "Q668687", "ref": "1366200036"}, "type": "Feature"}
{"dataset_attributes": {"@spider": "usps_collection_boxes"}, "geometry": {"coordinates": [-74.899392, 44.941761], "type": "Point"}, "id": "JNpGq2jUe0ROHIWSb9IDPAaL-nA=", "properties": {"@spider": "usps_collection_boxes", "addr:city": "MASSENA", "addr:country": "US", "addr:full": "200 N MAIN ST", "addr:postcode": "13662", "addr:state": "NY", "amenity": "post_box", "brand": "United States Postal Service", "brand:wikidata": "Q668687", "collection_times": "Mo-Sa 10:00", "name": "USPS COLLECTION BOX - BLUE BOX", "nsi_id": "unitedstatespostalservice-a77078", "operator": "United States Postal Service", "operator:short": "USPS", "operator:type": "public", "operator:wikidata": "Q668687", "ref": "1366200038"}, "type": "Feature"}
{"dataset_attributes": {"@spider": "usps_collection_boxes"}, "geometry": {"coordinates": [-74.8929016, 44.931218], "type": "Point"}, "id": "sIfuWKcICyJ0c2Mhd70YB6OrDAU=", "properties": {"@spider": "usps_collection_boxes", "addr:city": "MASSENA", "addr:country": "US", "addr:full": "60 MAIN ST", "addr:postcode": "13662", "addr:state": "NY", "amenity": "post_box", "brand": "United States Postal Service", "brand:wikidata": "Q668687", "collection_times": "Mo-Sa 14:00", "name": "USPS COLLECTION BOX - BLUE BOX", "note": "ON 12/24 AND 12/31, THIS BOX MAY BE COLLECTED AS EARLY AS 12 NOON.", "nsi_id": "unitedstatespostalservice-a77078", "operator": "United States Postal Service", "operator:short": "USPS", "operator:type": "public", "operator:wikidata": "Q668687", "ref": "1366200039"}, "type": "Feature"}
{"dataset_attributes": {"@spider": "usps_collection_boxes"}, "geometry": {"coordinates": [-74.89237, 44.929766], "type": "Point"}, "id": "Q3oRPrmIy_b18eBbsftSStdBpXU=", "properties": {"@spider": "usps_collection_boxes", "addr:city": "MASSENA", "addr:country": "US", "addr:full": "100 MAIN ST", "addr:postcode": "13662", "addr:state": "NY", "amenity": "post_box", "brand": "United States Postal Service", "brand:wikidata": "Q668687", "collection_times": "Mo-Fr 17:00; Sa 16:00", "name": "USPS COLLECTION BOX - PO LOBBY", "note": "ON 12/24 AND 12/31, THIS BOX MAY BE COLLECTED AS EARLY AS 12 NOON.", "nsi_id": "unitedstatespostalservice-a77078", "operator": "United States Postal Service", "operator:short": "USPS", "operator:type": "public", "operator:wikidata": "Q668687", "ref": "1366200040"}, "type": "Feature"}
{"dataset_attributes": {"@spider": "usps_collection_boxes"}, "geometry": {"coordinates": [-74.8930003, 44.93217], "type": "Point"}, "id": "JPog4r1TNBFKrm3B_6ajgQykJ8s=", "properties": {"@spider": "usps_collection_boxes", "addr:city": "MASSENA", "addr:country": "US", "addr:full": "41 MAIN ST", "addr:postcode": "13662", "addr:state": "NY", "amenity": "post_box", "brand": "United States Postal Service", "brand:wikidata": "Q668687", "collection_times": "Mo-Sa 08:30", "name": "USPS COLLECTION BOX - BLUE BOX", "nsi_id": "unitedstatespostalservice-a77078", "operator": "United States Postal Service", "operator:short": "USPS", "operator:type": "public", "operator:wikidata": "Q668687", "ref": "1366200042"}, "type": "Feature"}
{"dataset_attributes": {"@spider": "usps_collection_boxes"}, "geometry": {"coordinates": [-74.870564, 44.927481], "type": "Point"}, "id": "S03ErGx1oyRjoQaDCJk5IgW3NZQ=", "properties": {"@spider": "usps_collection_boxes", "addr:city": "MASSENA", "addr:country": "US", "addr:full": "55 VICTORY RD", "addr:postcode": "13662", "addr:state": "NY", "amenity": "post_box", "brand": "United States Postal Service", "brand:wikidata": "Q668687", "collection_times": "Mo-Sa 09:30", "name": "USPS COLLECTION BOX - BLUE BOX", "nsi_id": "unitedstatespostalservice-a77078", "operator": "United States Postal Service", "operator:short": "USPS", "operator:type": "public", "operator:wikidata": "Q668687", "ref": "1366200043"}, "type": "Feature"}
{"dataset_attributes": {"@spider": "usps_collection_boxes"}, "geometry": {"coordinates": [-74.885926, 44.918498], "type": "Point"}, "id": "2AYfRucfxLS7DMdQYVYaoPVNkGc=", "properties": {"@spider": "usps_collection_boxes", "addr:city": "MASSENA", "addr:country": "US", "addr:full": "71 E HATFIELD ST", "addr:postcode": "13662", "addr:state": "NY", "amenity": "post_box", "brand": "United States Postal Service", "brand:wikidata": "Q668687", "collection_times": "Mo-Sa 09:00", "name": "USPS COLLECTION BOX - BLUE BOX", "nsi_id": "unitedstatespostalservice-a77078", "operator": "United States Postal Service", "operator:short": "USPS", "operator:type": "public", "operator:wikidata": "Q668687", "ref": "1366200045"}, "type": "Feature"}
{"dataset_attributes": {"@spider": "usps_collection_boxes"}, "geometry": {"coordinates": [-74.892222, 44.929406], "type": "Point"}, "id": "w71tJ-szyAIpq-imH07TDiSGpN4=", "properties": {"@spider": "usps_collection_boxes", "addr:city": "MASSENA", "addr:country": "US", "addr:full": "113 MAIN ST", "addr:postcode": "13662", "addr:state": "NY", "amenity": "post_box", "brand": "United States Postal Service", "brand:wikidata": "Q668687", "collection_times": "Mo-Fr 16:30; Sa 16:00", "name": "USPS COLLECTION BOX - BLUE BOX", "note": "ON 12/24 AND 12/31, THIS BOX MAY BE COLLECTED AS EARLY AS 12 NOON.", "nsi_id": "unitedstatespostalservice-a77078", "operator": "United States Postal Service", "operator:short": "USPS", "operator:type": "public", "operator:wikidata": "Q668687", "ref": "1366200046"}, "type": "Feature"}
{"dataset_attributes": {"@spider": "usps_collection_boxes"}, "geometry": {"coordinates": [-74.892299157, 44.929381118], "type": "Point"}, "id": "qY7J-D9vW9c5ac8VwLuv30GmTYY=", "properties": {"@spider": "usps_collection_boxes", "addr:city": "MASSENA", "addr:country": "US", "addr:full": "100 MAIN ST", "addr:postcode": "13662", "addr:state": "NY", "amenity": "post_box", "brand": "United States Postal Service", "brand:wikidata": "Q668687", "collection_times": "Mo-Fr 17:00; Sa 12:00", "name": "USPS COLLECTION BOX - PO LOBBY", "note": "ON 12/24 AND 12/31, THIS BOX MAY BE COLLECTED AS EARLY AS 12 NOON.", "nsi_id": "unitedstatespostalservice-a77078", "operator": "United States Postal Service", "operator:short": "USPS", "operator:type": "public", "operator:wikidata": "Q668687", "ref": "1366200047"}, "type": "Feature"}
{"dataset_attributes": {"@spider": "usps_collection_boxes"}, "geometry": {"coordinates": [-75.649734, 44.587834], "type": "Point"}, "id": "0s4K1oALG6eCJ8_TY7tshtAxIeg=", "properties": {"@spider": "usps_collection_boxes", "addr:city": "MORRISTOWN", "addr:country": "US", "addr:full": "306 MAIN ST", "addr:postcode": "13664", "addr:state": "NY", "amenity": "post_box", "brand": "United States Postal Service", "brand:wikidata": "Q668687", "collection_times": "Mo-Fr 15:00; Sa 11:15", "name": "USPS COLLECTION BOX - BLUE BOX", "note": "ON 12/24 AND 12/31, THIS BOX MAY BE COLLECTED AS EARLY AS 12 NOON.", "nsi_id": "unitedstatespostalservice-a77078", "operator": "United States Postal Service", "operator:short": "USPS", "operator:type": "public", "operator:wikidata": "Q668687", "ref": "1366400001"}, "type": "Feature"}
{"dataset_attributes": {"@spider": "usps_collection_boxes"}, "geometry": {"coordinates": [-75.649734, 44.587834], "type": "Point"}, "id": "eji6Td8-7HMzDnKVK1QPIZ7dpJU=", "properties": {"@spider": "usps_collection_boxes", "addr:city": "MORRISTOWN", "addr:country": "US", "addr:full": "306 MAIN ST", "addr:postcode": "13664", "addr:state": "NY", "amenity": "post_box", "brand": "United States Postal Service", "brand:wikidata": "Q668687", "collection_times": "Mo-Fr 15:00; Sa 11:30", "name": "USPS COLLECTION BOX - PO LOBBY", "note": "ON 12/24 AND 12/31, THIS BOX MAY BE COLLECTED AS EARLY AS 12 NOON.", "nsi_id": "unitedstatespostalservice-a77078", "operator": "United States Postal Service", "operator:short": "USPS", "operator:type": "public", "operator:wikidata": "Q668687", "ref": "1366400002"}, "type": "Feature"}
{"dataset_attributes": {"@spider": "usps_collection_boxes"}, "geometry": {"coordinates": [-75.649006851, 44.587087731], "type": "Point"}, "id": "3UTqfDSY3sJwitrd7pM4yUbwrA0=", "properties": {"@spider": "usps_collection_boxes", "addr:city": "MORRISTOWN", "addr:country": "US", "addr:full": "306 MAIN ST", "addr:postcode": "13664", "addr:state": "NY", "amenity": "post_box", "brand": "United States Postal Service", "brand:wikidata": "Q668687", "collection_times": "Mo-Fr 15:00", "name": "USPS COLLECTION BOX - PO LOBBY", "note": "ON 12/24 AND 12/31, THIS BOX MAY BE COLLECTED AS EARLY AS 12 NOON.", "nsi_id": "unitedstatespostalservice-a77078", "operator": "United States Postal Service", "operator:short": "USPS", "operator:type": "public", "operator:wikidata": "Q668687", "ref": "1366400003"}, "type": "Feature"}
{"dataset_attributes": {"@spider": "usps_collection_boxes"}, "geometry": {"coordinates": [-75.496507, 44.069181], "type": "Point"}, "id": "iyGIUXgaqhsVmVkbk6jt7DXXcEQ=", "properties": {"@spider": "usps_collection_boxes", "addr:city": "NATURAL BRIDGE", "addr:country": "US", "addr:full": "43889 STATE ROUTE 3", "addr:postcode": "13665", "addr:state": "NY", "amenity": "post_box", "brand": "United States Postal Service", "brand:wikidata": "Q668687", "collection_times": "Mo-Fr 12:00; Sa 11:30", "name": "USPS COLLECTION BOX - BLUE BOX", "nsi_id": "unitedstatespostalservice-a77078", "operator": "United States Postal Service", "operator:short": "USPS", "operator:type": "public", "operator:wikidata": "Q668687", "ref": "1366500001"}, "type": "Feature"}
{"dataset_attributes": {"@spider": "usps_collection_boxes"}, "geometry": {"coordinates": [-75.496458, 44.06915], "type": "Point"}, "id": "jxU0jqCfDyaq-D8HP_fDMf56ZaI=", "properties": {"@spider": "usps_collection_boxes", "addr:city": "NATURAL BRIDGE", "addr:country": "US", "addr:full": "43889 STATE ROUTE 3", "addr:postcode": "13665", "addr:state": "NY", "amenity": "post_box", "brand": "United States Postal Service", "brand:wikidata": "Q668687", "collection_times": "Mo-Fr 12:00; Sa 11:45", "name": "USPS COLLECTION BOX - PO LOBBY", "nsi_id": "unitedstatespostalservice-a77078", "operator": "United States Postal Service", "operator:short": "USPS", "operator:type": "public", "operator:wikidata": "Q668687", "ref": "1366500002"}, "type": "Feature"}
{"dataset_attributes": {"@spider": "usps_collection_boxes"}, "geometry": {"coordinates": [-75.496331138, 44.069161472], "type": "Point"}, "id": "AQY0fTVKAblXF7cOv1dRdiTNAu8=", "properties": {"@spider": "usps_collection_boxes", "addr:city": "NATURAL BRIDGE", "addr:country": "US", "addr:full": "43889 STATE ROUTE 3", "addr:postcode": "13665", "addr:state": "NY", "amenity": "post_box", "brand": "United States Postal Service", "brand:wikidata": "Q668687", "collection_times": "Mo-Fr 12:00; Sa 11:45", "name": "USPS COLLECTION BOX - PO LOBBY", "nsi_id": "unitedstatespostalservice-a77078", "operator": "United States Postal Service", "operator:short": "USPS", "operator:type": "public", "operator:wikidata": "Q668687", "ref": "1366500003"}, "type": "Feature"}
{"dataset_attributes": {"@spider": "usps_collection_boxes"}, "geometry": {"coordinates": [-74.989831, 44.211151], "type": "Point"}, "id": "jnnK_XI8AhwrolqvwmIuEmPlohc=", "properties": {"@spider": "usps_collection_boxes", "addr:city": "NEWTON FALLS", "addr:country": "US", "addr:full": "926 COUNTY ROUTE 60", "addr:postcode": "13666", "addr:state": "NY", "amenity": "post_box", "brand": "United States Postal Service", "brand:wikidata": "Q668687", "collection_times": "Mo-Fr 12:00; Sa 11:45", "name": "USPS COLLECTION BOX - BLUE BOX", "nsi_id": "unitedstatespostalservice-a77078", "operator": "United States Postal Service", "operator:short": "USPS", "operator:type": "public", "operator:wikidata": "Q668687", "ref": "1366600001"}, "type": "Feature"}
{"dataset_attributes": {"@spider": "usps_collection_boxes"}, "geometry": {"coordinates": [-74.989789, 44.211172], "type": "Point"}, "id": "dLj8WYJZkSC5tFo_Rvef5ghMXRc=", "properties": {"@spider": "usps_collection_boxes", "addr:city": "NEWTON FALLS", "addr:country": "US", "addr:full": "926 COUNTY ROUTE 60", "addr:postcode": "13666", "addr:state": "NY", "amenity": "post_box", "brand": "United States Postal Service", "brand:wikidata": "Q668687", "collection_times": "Mo-Fr 12:00; Sa 11:45", "name": "USPS COLLECTION BOX - PO LOBBY", "nsi_id": "unitedstatespostalservice-a77078", "operator": "United States Postal Service", "operator:short": "USPS", "operator:type": "public", "operator:wikidata": "Q668687", "ref": "1366600002"}, "type": "Feature"}
{"dataset_attributes": {"@spider": "usps_collection_boxes"}, "geometry": {"coordinates": [-74.989852687, 44.211158068], "type": "Point"}, "id": "xvDFUmRL3tugSj5kVBIWfEbZltw=", "properties": {"@spider": "usps_collection_boxes", "addr:city": "NEWTON FALLS", "addr:country": "US", "addr:full": "926 COUNTY ROUTE 60", "addr:postcode": "13666", "addr:state": "NY", "amenity": "post_box", "brand": "United States Postal Service", "brand:wikidata": "Q668687", "collection_times": "Mo-Fr 12:00; Sa 11:45", "name": "USPS COLLECTION BOX - PO LOBBY", "nsi_id": "unitedstatespostalservice-a77078", "operator": "United States Postal Service", "operator:short": "USPS", "operator:type": "public", "operator:wikidata": "Q668687", "ref": "1366600003"}, "type": "Feature"}
{"dataset_attributes": {"@spider": "usps_collection_boxes"}, "geometry": {"coordinates": [-74.982498, 44.800517], "type": "Point"}, "id": "jLpm7sSXnuhZb56eb0cQzRSFmSY=", "properties": {"@spider": "usps_collection_boxes", "addr:city": "NORFOLK", "addr:country": "US", "addr:full": "2 E HIGH ST", "addr:postcode": "13667", "addr:state": "NY", "amenity": "post_box", "brand": "United States Postal Service", "brand:wikidata": "Q668687", "collection_times": "Mo-Fr 16:30; Sa 11:45", "name": "USPS COLLECTION BOX - BLUE BOX", "note": "ON 12/24 AND 12/31, THIS BOX MAY BE COLLECTED AS EARLY AS 12 NOON.", "nsi_id": "unitedstatespostalservice-a77078", "operator": "United States Postal Service", "operator:short": "USPS", "operator:type": "public", "operator:wikidata": "Q668687", "ref": "1366700002"}, "type": "Feature"}
{"dataset_attributes": {"@spider": "usps_collection_boxes"}, "geometry": {"coordinates": [-74.982498, 44.800517], "type": "Point"}, "id": "X20F7yf-OFtBpDk-50T2CdntzKI=", "properties": {"@spider": "usps_collection_boxes", "addr:city": "NORFOLK", "addr:country": "US", "addr:full": "2 E HIGH ST", "addr:postcode": "13667", "addr:state": "NY", "amenity": "post_box", "brand": "United States Postal Service", "brand:wikidata": "Q668687", "collection_times": "Mo-Fr 16:45; Sa 11:45", "name": "USPS COLLECTION BOX - PO LOBBY", "note": "ON 12/24 AND 12/31, THIS BOX MAY BE COLLECTED AS EARLY AS 12 NOON.", "nsi_id": "unitedstatespostalservice-a77078", "operator": "United States Postal Service", "operator:short": "USPS", "operator:type": "public", "operator:wikidata": "Q668687", "ref": "1366700003"}, "type": "Feature"}
{"dataset_attributes": {"@spider": "usps_collection_boxes"}, "geometry": {"coordinates": [-74.983090292, 44.800704564], "type": "Point"}, "id": "eOSU-YFhaTR79F5FcWYuWTikkyg=", "properties": {"@spider": "usps_collection_boxes", "addr:city": "NORFOLK", "addr:country": "US", "addr:full": "2 E HIGH ST", "addr:postcode": "13667", "addr:state": "NY", "amenity": "post_box", "brand": "United States Postal Service", "brand:wikidata": "Q668687", "collection_times": "Mo-Fr 16:45; Sa 12:00", "name": "USPS COLLECTION BOX - PO LOBBY", "note": "ON 12/24 AND 12/31, THIS BOX MAY BE COLLECTED AS EARLY AS 12 NOON.", "nsi_id": "unitedstatespostalservice-a77078", "operator": "United States Postal Service", "operator:short": "USPS", "operator:type": "public", "operator:wikidata": "Q668687", "ref": "1366700004"}, "type": "Feature"}
{"dataset_attributes": {"@spider": "usps_collection_boxes"}, "geometry": {"coordinates": [-74.9932076, 44.749458], "type": "Point"}, "id": "vX39C438bQ4al84oN_TCBvh50AA=", "properties": {"@spider": "usps_collection_boxes", "addr:city": "NORWOOD", "addr:country": "US", "addr:full": "34 S MAIN ST", "addr:postcode": "13668", "addr:state": "NY", "amenity": "post_box", "brand": "United States Postal Service", "brand:wikidata": "Q668687", "collection_times": "Mo-Fr 16:30; Sa 12:00", "name": "USPS COLLECTION BOX - BLUE BOX", "note": "ON 12/24 AND 12/31, THIS BOX MAY BE COLLECTED AS EARLY AS 12 NOON.", "nsi_id": "unitedstatespostalservice-a77078", "operator": "United States Postal Service", "operator:short": "USPS", "operator:type": "public", "operator:wikidata": "Q668687", "ref": "1366800001"}, "type": "Feature"}
{"dataset_attributes": {"@spider": "usps_collection_boxes"}, "geometry": {"coordinates": [-74.9930096, 44.749549], "type": "Point"}, "id": "WyhrJ7K0dx4x1SHJ-Sf7yWmOB_E=", "properties": {"@spider": "usps_collection_boxes", "addr:city": "NORWOOD", "addr:country": "US", "addr:full": "34 S MAIN ST", "addr:postcode": "13668", "addr:state": "NY", "amenity": "post_box", "brand": "United States Postal Service", "brand:wikidata": "Q668687", "collection_times": "Mo-Fr 16:30; Sa 12:00", "name": "USPS COLLECTION BOX - PO LOBBY", "note": "ON 12/24 AND 12/31, THIS BOX MAY BE COLLECTED AS EARLY AS 12 NOON.", "nsi_id": "unitedstatespostalservice-a77078", "operator": "United States Postal Service", "operator:short": "USPS", "operator:type": "public", "operator:wikidata": "Q668687", "ref": "1366800003"}, "type": "Feature"}
{"dataset_attributes": {"@spider": "usps_collection_boxes"}, "geometry": {"coordinates": [-74.99363612, 44.749504288], "type": "Point"}, "id": "G0m_KvlATu83CG5ixtj6yIViIh4=", "properties": {"@spider": "usps_collection_boxes", "addr:city": "NORWOOD", "addr:country": "US", "addr:full": "34 S MAIN ST", "addr:postcode": "13668", "addr:state": "NY", "amenity": "post_box", "brand": "United States Postal Service", "brand:wikidata": "Q668687", "collection_times": "Mo-Fr 16:30; Sa 12:00", "name": "USPS COLLECTION BOX - PO LOBBY", "note": "ON 12/24 AND 12/31, THIS BOX MAY BE COLLECTED AS EARLY AS 12 NOON.", "nsi_id": "unitedstatespostalservice-a77078", "operator": "United States Postal Service", "operator:short": "USPS", "operator:type": "public", "operator:wikidata": "Q668687", "ref": "1366800004"}, "type": "Feature"}
{"dataset_attributes": {"@spider": "usps_collection_boxes"}, "geometry": {"coordinates": [-75.491268, 44.695756], "type": "Point"}, "id": "Rt19up1YZ1vM1KMGMIB8KwJnthU=", "properties": {"@spider": "usps_collection_boxes", "addr:city": "OGDENSBURG", "addr:country": "US", "addr:full": "431 STATE ST", "addr:postcode": "13669", "addr:state": "NY", "amenity": "post_box", "brand": "United States Postal Service", "brand:wikidata": "Q668687", "collection_times": "Mo-Fr 17:00; Sa 15:30", "name": "USPS COLLECTION BOX - PO LOBBY", "note": "ON 12/24 AND 12/31, THIS BOX MAY BE COLLECTED AS EARLY AS 12 NOON.", "nsi_id": "unitedstatespostalservice-a77078", "operator": "United States Postal Service", "operator:short": "USPS", "operator:type": "public", "operator:wikidata": "Q668687", "ref": "1366900001"}, "type": "Feature"}
{"dataset_attributes": {"@spider": "usps_collection_boxes"}, "geometry": {"coordinates": [-75.491301, 44.695847], "type": "Point"}, "id": "H3kNz7Yss5Tolh2E3vLgaah-EzM=", "properties": {"@spider": "usps_collection_boxes", "addr:city": "OGDENSBURG", "addr:country": "US", "addr:full": "431 STATE ST", "addr:postcode": "13669", "addr:state": "NY", "amenity": "post_box", "brand": "United States Postal Service", "brand:wikidata": "Q668687", "collection_times": "Mo-Fr 17:00; Sa 15:30", "name": "USPS COLLECTION BOX - PO LOBBY", "note": "ON 12/24 AND 12/31, THIS BOX MAY BE COLLECTED AS EARLY AS 12 NOON.", "nsi_id": "unitedstatespostalservice-a77078", "operator": "United States Postal Service", "operator:short": "USPS", "operator:type": "public", "operator:wikidata": "Q668687", "ref": "1366900002"}, "type": "Feature"}
{"dataset_attributes": {"@spider": "usps_collection_boxes"}, "geometry": {"coordinates": [-75.491301, 44.695847], "type": "Point"}, "id": "szB9xa9ai-z2adCoD4BZfjI2DAE=", "properties": {"@spider": "usps_collection_boxes", "addr:city": "OGDENSBURG", "addr:country": "US", "addr:full": "431 STATE ST", "addr:postcode": "13669", "addr:state": "NY", "amenity": "post_box", "brand": "United States Postal Service", "brand:wikidata": "Q668687", "collection_times": "Mo-Fr 17:00; Sa 15:30", "name": "USPS COLLECTION BOX - BLUE BOX", "note": "ON 12/24 AND 12/31, THIS BOX MAY BE COLLECTED AS EARLY AS 12 NOON.", "nsi_id": "unitedstatespostalservice-a77078", "operator": "United States Postal Service", "operator:short": "USPS", "operator:type": "public", "operator:wikidata": "Q668687", "ref": "1366900004"}, "type": "Feature"}
{"dataset_attributes": {"@spider": "usps_collection_boxes"}, "geometry": {"coordinates": [-75.491301, 44.695847], "type": "Point"}, "id": "EK59q0PF7ZaycvC7HWlHSYUIW8s=", "properties": {"@spider": "usps_collection_boxes", "addr:city": "OGDENSBURG", "addr:country": "US", "addr:full": "431 STATE ST", "addr:postcode": "13669", "addr:state": "NY", "amenity": "post_box", "brand": "United States Postal Service", "brand:wikidata": "Q668687", "collection_times": "Mo-Fr 17:00; Sa 15:30", "name": "USPS COLLECTION BOX - BLUE BOX", "note": "ON 12/24 AND 12/31, THIS BOX MAY BE COLLECTED AS EARLY AS 12 NOON.", "nsi_id": "unitedstatespostalservice-a77078", "operator": "United States Postal Service", "operator:short": "USPS", "operator:type": "public", "operator:wikidata": "Q668687", "ref": "1366900006"}, "type": "Feature"}
{"dataset_attributes": {"@spider": "usps_collection_boxes"}, "geometry": {"coordinates": [-75.4803052333, 44.6903025617], "type": "Point"}, "id": "SPRJVJAsSiBxB1U9WEBj-9lVeEc=", "properties": {"@spider": "usps_collection_boxes", "addr:city": "OGDENSBURG", "addr:country": "US", "addr:full": "701 CANTON ST", "addr:postcode": "13669", "addr:state": "NY", "amenity": "post_box", "brand": "United States Postal Service", "brand:wikidata": "Q668687", "collection_times": "Mo-Sa 09:30", "name": "USPS COLLECTION BOX - BLUE BOX", "nsi_id": "unitedstatespostalservice-a77078", "operator": "United States Postal Service", "operator:short": "USPS", "operator:type": "public", "operator:wikidata": "Q668687", "ref": "1366900009"}, "type": "Feature"}
{"dataset_attributes": {"@spider": "usps_collection_boxes"}, "geometry": {"coordinates": [-75.4914366, 44.698241], "type": "Point"}, "id": "iLtlYXRnxdfSLYCxPnqs6paJx7k=", "properties": {"@spider": "usps_collection_boxes", "addr:city": "OGDENSBURG", "addr:country": "US", "addr:full": "402 FORD ST", "addr:postcode": "13669", "addr:state": "NY", "amenity": "post_box", "brand": "United States Postal Service", "brand:wikidata": "Q668687", "collection_times": "Mo-Fr 15:30; Sa 09:00", "name": "USPS COLLECTION BOX - BLUE BOX", "note": "ON 12/24 AND 12/31, THIS BOX MAY BE COLLECTED AS EARLY AS 12 NOON.", "nsi_id": "unitedstatespostalservice-a77078", "operator": "United States Postal Service", "operator:short": "USPS", "operator:type": "public", "operator:wikidata": "Q668687", "ref": "1366900015"}, "type": "Feature"}
{"dataset_attributes": {"@spider": "usps_collection_boxes"}, "geometry": {"coordinates": [-75.479029, 44.703676], "type": "Point"}, "id": "uV5U6eGSzIMwC_dxu7sq2UvylCc=", "properties": {"@spider": "usps_collection_boxes", "addr:city": "OGDENSBURG", "addr:country": "US", "addr:full": "1336 FORD ST", "addr:postcode": "13669", "addr:state": "NY", "amenity": "post_box", "brand": "United States Postal Service", "brand:wikidata": "Q668687", "collection_times": "Mo-Sa 10:30", "name": "USPS COLLECTION BOX - BLUE BOX", "nsi_id": "unitedstatespostalservice-a77078", "operator": "United States Postal Service", "operator:short": "USPS", "operator:type": "public", "operator:wikidata": "Q668687", "ref": "1366900017"}, "type": "Feature"}
{"dataset_attributes": {"@spider": "usps_collection_boxes"}, "geometry": {"coordinates": [-75.458294, 44.705362], "type": "Point"}, "id": "8_EO4crQv9vn3ZG2QravPZk3USA=", "properties": {"@spider": "usps_collection_boxes", "addr:city": "OGDENSBURG", "addr:country": "US", "addr:full": "2981 FORD STREET EXT", "addr:postcode": "13669", "addr:state": "NY", "amenity": "post_box", "brand": "United States Postal Service", "brand:wikidata": "Q668687", "collection_times": "Mo-Sa 10:00", "name": "USPS COLLECTION BOX - BLUE BOX", "nsi_id": "unitedstatespostalservice-a77078", "operator": "United States Postal Service", "operator:short": "USPS", "operator:type": "public", "operator:wikidata": "Q668687", "ref": "1366900019"}, "type": "Feature"}
{"dataset_attributes": {"@spider": "usps_collection_boxes"}, "geometry": {"coordinates": [-75.4778388, 44.699035], "type": "Point"}, "id": "N8gJPrb0QAyDiheZFLKfDIyJeNE=", "properties": {"@spider": "usps_collection_boxes", "addr:city": "OGDENSBURG", "addr:country": "US", "addr:full": "1111 JAY ST", "addr:postcode": "13669", "addr:state": "NY", "amenity": "post_box", "brand": "United States Postal Service", "brand:wikidata": "Q668687", "collection_times": "Mo-Sa 11:00", "name": "USPS COLLECTION BOX - BLUE BOX", "nsi_id": "unitedstatespostalservice-a77078", "operator": "United States Postal Service", "operator:short": "USPS", "operator:type": "public", "operator:wikidata": "Q668687", "ref": "1366900023"}, "type": "Feature"}
{"dataset_attributes": {"@spider": "usps_collection_boxes"}, "geometry": {"coordinates": [-75.4944327, 44.68562], "type": "Point"}, "id": "Jm0_QQaOA2naHIYWLqIVIvMwD4M=", "properties": {"@spider": "usps_collection_boxes", "addr:city": "OGDENSBURG", "addr:country": "US", "addr:full": "825 NEW YORK AVE", "addr:postcode": "13669", "addr:state": "NY", "amenity": "post_box", "brand": "United States Postal Service", "brand:wikidata": "Q668687", "collection_times": "Mo-Sa 10:45", "name": "USPS COLLECTION BOX - BLUE BOX", "nsi_id": "unitedstatespostalservice-a77078", "operator": "United States Postal Service", "operator:short": "USPS", "operator:type": "public", "operator:wikidata": "Q668687", "ref": "1366900035"}, "type": "Feature"}
{"dataset_attributes": {"@spider": "usps_collection_boxes"}, "geometry": {"coordinates": [-75.4994232124, 44.6894260225], "type": "Point"}, "id": "qWuIVtAHxHXfJFjGT31zoSE5kE4=", "properties": {"@spider": "usps_collection_boxes", "addr:city": "OGDENSBURG", "addr:country": "US", "addr:full": "3 LYON PL", "addr:postcode": "13669", "addr:state": "NY", "amenity": "post_box", "brand": "United States Postal Service", "brand:wikidata": "Q668687", "collection_times": "Mo-Sa 14:30", "name": "USPS COLLECTION BOX - BLUE BOX", "note": "ON 12/24 AND 12/31, THIS BOX MAY BE COLLECTED AS EARLY AS 12 NOON.", "nsi_id": "unitedstatespostalservice-a77078", "operator": "United States Postal Service", "operator:short": "USPS", "operator:type": "public", "operator:wikidata": "Q668687", "ref": "1366900042"}, "type": "Feature"}
{"dataset_attributes": {"@spider": "usps_collection_boxes"}, "geometry": {"coordinates": [-75.4947942, 44.698615], "type": "Point"}, "id": "WwahLxk-xrpgzajjIWn372H1zJQ=", "properties": {"@spider": "usps_collection_boxes", "addr:city": "OGDENSBURG", "addr:country": "US", "addr:full": "202 WASHINGTON ST", "addr:postcode": "13669", "addr:state": "NY", "amenity": "post_box", "brand": "United States Postal Service", "brand:wikidata": "Q668687", "collection_times": "Mo-Sa 09:00", "name": "USPS COLLECTION BOX - BLUE BOX", "nsi_id": "unitedstatespostalservice-a77078", "operator": "United States Postal Service", "operator:short": "USPS", "operator:type": "public", "operator:wikidata": "Q668687", "ref": "1366900048"}, "type": "Feature"}
{"dataset_attributes": {"@spider": "usps_collection_boxes"}, "geometry": {"coordinates": [-75.4944724475, 44.6984240481], "type": "Point"}, "id": "BFNp7GuFja-59cNNwXmjDXlpERo=", "properties": {"@spider": "usps_collection_boxes", "addr:city": "OGDENSBURG", "addr:country": "US", "addr:full": "232 WASHINGTON ST", "addr:postcode": "13669", "addr:state": "NY", "amenity": "post_box", "brand": "United States Postal Service", "brand:wikidata": "Q668687", "collection_times": "Mo-Sa 09:00", "name": "USPS COLLECTION BOX - BLUE BOX", "nsi_id": "unitedstatespostalservice-a77078", "operator": "United States Postal Service", "operator:short": "USPS", "operator:type": "public", "operator:wikidata": "Q668687", "ref": "1366900049"}, "type": "Feature"}
{"dataset_attributes": {"@spider": "usps_collection_boxes"}, "geometry": {"coordinates": [-75.4506821, 44.716208], "type": "Point"}, "id": "LR2NXZ7s0rjdpZbNJM5uSsoxAHQ=", "properties": {"@spider": "usps_collection_boxes", "addr:city": "OGDENSBURG", "addr:country": "US", "addr:full": "800 PROCTOR AVE", "addr:postcode": "13669", "addr:state": "NY", "amenity": "post_box", "brand": "United States Postal Service", "brand:wikidata": "Q668687", "collection_times": "Mo-Fr 14:30", "name": "USPS COLLECTION BOX - BLUE BOX", "note": "ON 12/24 AND 12/31, THIS BOX MAY BE COLLECTED AS EARLY AS 12 NOON.", "nsi_id": "unitedstatespostalservice-a77078", "operator": "United States Postal Service", "operator:short": "USPS", "operator:type": "public", "operator:wikidata": "Q668687", "ref": "1366900052"}, "type": "Feature"}
{"dataset_attributes": {"@spider": "usps_collection_boxes"}, "geometry": {"coordinates": [-75.502454031, 44.6900830067], "type": "Point"}, "id": "1K-t0G_VkkslczoiqHG8CTwJ0UU=", "properties": {"@spider": "usps_collection_boxes", "addr:city": "OGDENSBURG", "addr:country": "US", "addr:full": "424 RENSSELAER AVE", "addr:postcode": "13669", "addr:state": "NY", "amenity": "post_box", "brand": "United States Postal Service", "brand:wikidata": "Q668687", "collection_times": "Mo-Sa 13:00", "name": "USPS COLLECTION BOX - BLUE BOX", "note": "ON 12/24 AND 12/31, THIS BOX MAY BE COLLECTED AS EARLY AS 12 NOON.", "nsi_id": "unitedstatespostalservice-a77078", "operator": "United States Postal Service", "operator:short": "USPS", "operator:type": "public", "operator:wikidata": "Q668687", "ref": "1366900053"}, "type": "Feature"}
{"dataset_attributes": {"@spider": "usps_collection_boxes"}, "geometry": {"coordinates": [-75.491177877, 44.695642925], "type": "Point"}, "id": "IF473GzkkJovmzH6Qde3t4TIz68=", "properties": {"@spider": "usps_collection_boxes", "addr:city": "OGDENSBURG", "addr:country": "US", "addr:full": "431 STATE ST", "addr:postcode": "13669", "addr:state": "NY", "amenity": "post_box", "brand": "United States Postal Service", "brand:wikidata": "Q668687", "collection_times": "Mo-Fr 17:00; Sa 12:30", "name": "USPS COLLECTION BOX - PO LOBBY", "note": "ON 12/24 AND 12/31, THIS BOX MAY BE COLLECTED AS EARLY AS 12 NOON.", "nsi_id": "unitedstatespostalservice-a77078", "operator": "United States Postal Service", "operator:short": "USPS", "operator:type": "public", "operator:wikidata": "Q668687", "ref": "1366900055"}, "type": "Feature"}
{"dataset_attributes": {"@spider": "usps_collection_boxes"}, "geometry": {"coordinates": [-74.8145116, 44.628541], "type": "Point"}, "id": "3vpN2Qv_xc1eJZmqKMA1gLfuyHk=", "properties": {"@spider": "usps_collection_boxes", "addr:city": "PARISHVILLE", "addr:country": "US", "addr:full": "1763 STATE HIGHWAY 72", "addr:postcode": "13672", "addr:state": "NY", "amenity": "post_box", "brand": "United States Postal Service", "brand:wikidata": "Q668687", "collection_times": "Mo-Fr 12:30; Sa 11:45", "name": "USPS COLLECTION BOX - BLUE BOX", "note": "ON 12/24 AND 12/31, THIS BOX MAY BE COLLECTED AS EARLY AS 12 NOON.", "nsi_id": "unitedstatespostalservice-a77078", "operator": "United States Postal Service", "operator:short": "USPS", "operator:type": "public", "operator:wikidata": "Q668687", "ref": "1367200001"}, "type": "Feature"}
{"dataset_attributes": {"@spider": "usps_collection_boxes"}, "geometry": {"coordinates": [-74.81439, 44.628358], "type": "Point"}, "id": "Y-sRrSKeb6wXMuPAO4lnNS82fAM=", "properties": {"@spider": "usps_collection_boxes", "addr:city": "PARISHVILLE", "addr:country": "US", "addr:full": "1763 STATE HIGHWAY 72", "addr:postcode": "13672", "addr:state": "NY", "amenity": "post_box", "brand": "United States Postal Service", "brand:wikidata": "Q668687", "collection_times": "Mo-Fr 12:30; Sa 11:45", "name": "USPS COLLECTION BOX - PO LOBBY", "note": "ON 12/24 AND 12/31, THIS BOX MAY BE COLLECTED AS EARLY AS 12 NOON.", "nsi_id": "unitedstatespostalservice-a77078", "operator": "United States Postal Service", "operator:short": "USPS", "operator:type": "public", "operator:wikidata": "Q668687", "ref": "1367200002"}, "type": "Feature"}
{"dataset_attributes": {"@spider": "usps_collection_boxes"}, "geometry": {"coordinates": [-74.814300695, 44.628471827], "type": "Point"}, "id": "x0a817DpsGebvc32iIuHdL8iBeY=", "properties": {"@spider": "usps_collection_boxes", "addr:city": "PARISHVILLE", "addr:country": "US", "addr:full": "1763 STATE HIGHWAY 72", "addr:postcode": "13672", "addr:state": "NY", "amenity": "post_box", "brand": "United States Postal Service", "brand:wikidata": "Q668687", "collection_times": "Mo-Fr 12:30; Sa 11:45", "name": "USPS COLLECTION BOX - PO LOBBY", "note": "ON 12/24 AND 12/31, THIS BOX MAY BE COLLECTED AS EARLY AS 12 NOON.", "nsi_id": "unitedstatespostalservice-a77078", "operator": "United States Postal Service", "operator:short": "USPS", "operator:type": "public", "operator:wikidata": "Q668687", "ref": "1367200003"}, "type": "Feature"}
{"dataset_attributes": {"@spider": "usps_collection_boxes"}, "geometry": {"coordinates": [-75.7063357, 44.157199], "type": "Point"}, "id": "rlK9d8rHLfbCsoFL4pTEhwlf-oo=", "properties": {"@spider": "usps_collection_boxes", "addr:city": "PHILADELPHIA", "addr:country": "US", "addr:full": "56 MAIN ST", "addr:postcode": "13673", "addr:state": "NY", "amenity": "post_box", "brand": "United States Postal Service", "brand:wikidata": "Q668687", "collection_times": "Mo-Sa 10:00", "name": "USPS COLLECTION BOX - BLUE BOX", "nsi_id": "unitedstatespostalservice-a77078", "operator": "United States Postal Service", "operator:short": "USPS", "operator:type": "public", "operator:wikidata": "Q668687", "ref": "1367300008"}, "type": "Feature"}
{"dataset_attributes": {"@spider": "usps_collection_boxes"}, "geometry": {"coordinates": [-74.9846655, 44.669592], "type": "Point"}, "id": "7urDS6KgjIpLHJD3GEJhDfr-aRE=", "properties": {"@spider": "usps_collection_boxes", "addr:city": "POTSDAM", "addr:country": "US", "addr:full": "21 ELM ST", "addr:postcode": "13676", "addr:state": "NY", "amenity": "post_box", "brand": "United States Postal Service", "brand:wikidata": "Q668687", "collection_times": "Mo-Fr 17:00; Sa 15:30", "name": "USPS COLLECTION BOX - BLUE BOX", "note": "ON 12/24 AND 12/31, THIS BOX MAY BE COLLECTED AS EARLY AS 12 NOON.", "nsi_id": "unitedstatespostalservice-a77078", "operator": "United States Postal Service", "operator:short": "USPS", "operator:type": "public", "operator:wikidata": "Q668687", "ref": "1367600002"}, "type": "Feature"}
{"dataset_attributes": {"@spider": "usps_collection_boxes"}, "geometry": {"coordinates": [-74.985191277, 44.6698325395], "type": "Point"}, "id": "fZd3iLhZCNiS5fsTCL88DakxguE=", "properties": {"@spider": "usps_collection_boxes", "addr:city": "POTSDAM", "addr:country": "US", "addr:full": "17 ELM ST", "addr:postcode": "13676", "addr:state": "NY", "amenity": "post_box", "brand": "United States Postal Service", "brand:wikidata": "Q668687", "collection_times": "Mo-Fr 17:00; Sa 15:30", "name": "USPS COLLECTION BOX - BLUE BOX", "note": "ON 12/24 AND 12/31, THIS BOX MAY BE COLLECTED AS EARLY AS 12 NOON.", "nsi_id": "unitedstatespostalservice-a77078", "operator": "United States Postal Service", "operator:short": "USPS", "operator:type": "public", "operator:wikidata": "Q668687", "ref": "1367600004"}, "type": "Feature"}
{"dataset_attributes": {"@spider": "usps_collection_boxes"}, "geometry": {"coordinates": [-74.9866147, 44.671654], "type": "Point"}, "id": "-9WkdZNRT5nY5NQ-wCWCTh9sa0k=", "properties": {"@spider": "usps_collection_boxes", "addr:city": "POTSDAM", "addr:country": "US", "addr:full": "70 MARKET ST", "addr:postcode": "13676", "addr:state": "NY", "amenity": "post_box", "brand": "United States Postal Service", "brand:wikidata": "Q668687", "collection_times": "Mo-Sa 10:30", "name": "USPS COLLECTION BOX - BLUE BOX", "nsi_id": "unitedstatespostalservice-a77078", "operator": "United States Postal Service", "operator:short": "USPS", "operator:type": "public", "operator:wikidata": "Q668687", "ref": "1367600006"}, "type": "Feature"}
{"dataset_attributes": {"@spider": "usps_collection_boxes"}, "geometry": {"coordinates": [-74.9816291, 44.676167], "type": "Point"}, "id": "FkAvMZwDERo5OhKt6NdjjNZAB_Y=", "properties": {"@spider": "usps_collection_boxes", "addr:city": "POTSDAM", "addr:country": "US", "addr:full": "50 LEROY ST", "addr:postcode": "13676", "addr:state": "NY", "amenity": "post_box", "brand": "United States Postal Service", "brand:wikidata": "Q668687", "collection_times": "Mo-Sa 13:00", "name": "USPS COLLECTION BOX - BLUE BOX", "note": "ON 12/24 AND 12/31, THIS BOX MAY BE COLLECTED AS EARLY AS 12 NOON.", "nsi_id": "unitedstatespostalservice-a77078", "operator": "United States Postal Service", "operator:short": "USPS", "operator:type": "public", "operator:wikidata": "Q668687", "ref": "1367600007"}, "type": "Feature"}
{"dataset_attributes": {"@spider": "usps_collection_boxes"}, "geometry": {"coordinates": [-74.9847017, 44.678019], "type": "Point"}, "id": "dONaMD3TuRwdYoEwtfn-UVrME8c=", "properties": {"@spider": "usps_collection_boxes", "addr:city": "POTSDAM", "addr:country": "US", "addr:full": "56 WAVERLY ST", "addr:postcode": "13676", "addr:state": "NY", "amenity": "post_box", "brand": "United States Postal Service", "brand:wikidata": "Q668687", "collection_times": "Mo-Sa 09:30", "name": "USPS COLLECTION BOX - BLUE BOX", "nsi_id": "unitedstatespostalservice-a77078", "operator": "United States Postal Service", "operator:short": "USPS", "operator:type": "public", "operator:wikidata": "Q668687", "ref": "1367600008"}, "type": "Feature"}
{"dataset_attributes": {"@spider": "usps_collection_boxes"}, "geometry": {"coordinates": [-74.9848204, 44.685517], "type": "Point"}, "id": "LzHrefebgUFGH4D8oUyIGkiSgyw=", "properties": {"@spider": "usps_collection_boxes", "addr:city": "POTSDAM", "addr:country": "US", "addr:full": "200 MARKET ST", "addr:postcode": "13676", "addr:state": "NY", "amenity": "post_box", "brand": "United States Postal Service", "brand:wikidata": "Q668687", "collection_times": "Mo-Sa 11:00", "name": "USPS COLLECTION BOX - BLUE BOX", "nsi_id": "unitedstatespostalservice-a77078", "operator": "United States Postal Service", "operator:short": "USPS", "operator:type": "public", "operator:wikidata": "Q668687", "ref": "1367600009"}, "type": "Feature"}
{"dataset_attributes": {"@spider": "usps_collection_boxes"}, "geometry": {"coordinates": [-74.9888143, 44.68589], "type": "Point"}, "id": "hcolqbpCyP8OXOCBETpDfPCTDtM=", "properties": {"@spider": "usps_collection_boxes", "addr:city": "POTSDAM", "addr:country": "US", "addr:full": "201 MARKET ST", "addr:postcode": "13676", "addr:state": "NY", "amenity": "post_box", "brand": "United States Postal Service", "brand:wikidata": "Q668687", "collection_times": "Mo-Sa 11:15", "name": "USPS COLLECTION BOX - BLUE BOX", "nsi_id": "unitedstatespostalservice-a77078", "operator": "United States Postal Service", "operator:short": "USPS", "operator:type": "public", "operator:wikidata": "Q668687", "ref": "1367600010"}, "type": "Feature"}
{"dataset_attributes": {"@spider": "usps_collection_boxes"}, "geometry": {"coordinates": [-74.9890349, 44.680217], "type": "Point"}, "id": "X388qnYMpE-r6yr8vdoDndcxhHE=", "properties": {"@spider": "usps_collection_boxes", "addr:city": "POTSDAM", "addr:country": "US", "addr:full": "145 MARKET ST", "addr:postcode": "13676", "addr:state": "NY", "amenity": "post_box", "brand": "United States Postal Service", "brand:wikidata": "Q668687", "collection_times": "Mo-Sa 11:45", "name": "USPS COLLECTION BOX - BLUE BOX", "nsi_id": "unitedstatespostalservice-a77078", "operator": "United States Postal Service", "operator:short": "USPS", "operator:type": "public", "operator:wikidata": "Q668687", "ref": "1367600012"}, "type": "Feature"}
{"dataset_attributes": {"@spider": "usps_collection_boxes"}, "geometry": {"coordinates": [-74.9870417, 44.671135], "type": "Point"}, "id": "xav3QZOcOul3tzvmZZFhmTs2A0U=", "properties": {"@spider": "usps_collection_boxes", "addr:city": "POTSDAM", "addr:country": "US", "addr:full": "63 MARKET ST", "addr:postcode": "13676", "addr:state": "NY", "amenity": "post_box", "brand": "United States Postal Service", "brand:wikidata": "Q668687", "collection_times": "Mo-Fr 15:00; Sa 10:30", "name": "USPS COLLECTION BOX - BLUE BOX", "note": "ON 12/24 AND 12/31, THIS BOX MAY BE COLLECTED AS EARLY AS 12 NOON.", "nsi_id": "unitedstatespostalservice-a77078", "operator": "United States Postal Service", "operator:short": "USPS", "operator:type": "public", "operator:wikidata": "Q668687", "ref": "1367600013"}, "type": "Feature"}
{"dataset_attributes": {"@spider": "usps_collection_boxes"}, "geometry": {"coordinates": [-74.9869117, 44.669629], "type": "Point"}, "id": "vuc6BLqF1gmuVDNCfOvfyY1vVbI=", "properties": {"@spider": "usps_collection_boxes", "addr:city": "POTSDAM", "addr:country": "US", "addr:full": "35 MARKET ST", "addr:postcode": "13676", "addr:state": "NY", "amenity": "post_box", "brand": "United States Postal Service", "brand:wikidata": "Q668687", "collection_times": "Mo-Fr 15:00; Sa 10:00", "name": "USPS COLLECTION BOX - BLUE BOX", "note": "ON 12/24 AND 12/31, THIS BOX MAY BE COLLECTED AS EARLY AS 12 NOON.", "nsi_id": "unitedstatespostalservice-a77078", "operator": "United States Postal Service", "operator:short": "USPS", "operator:type": "public", "operator:wikidata": "Q668687", "ref": "1367600014"}, "type": "Feature"}
{"dataset_attributes": {"@spider": "usps_collection_boxes"}, "geometry": {"coordinates": [-74.9767654339, 44.6613788495], "type": "Point"}, "id": "g2ARaFQIGHL1m5pyUS5YUfUtJx8=", "properties": {"@spider": "usps_collection_boxes", "addr:city": "POTSDAM", "addr:country": "US", "addr:full": "1 BARRINGTON DR", "addr:postcode": "13676", "addr:state": "NY", "amenity": "post_box", "brand": "United States Postal Service", "brand:wikidata": "Q668687", "collection_times": "Mo-Sa 10:00", "name": "USPS COLLECTION BOX - BLUE BOX", "nsi_id": "unitedstatespostalservice-a77078", "operator": "United States Postal Service", "operator:short": "USPS", "operator:type": "public", "operator:wikidata": "Q668687", "ref": "1367600016"}, "type": "Feature"}
{"dataset_attributes": {"@spider": "usps_collection_boxes"}, "geometry": {"coordinates": [-74.9832722, 44.686669], "type": "Point"}, "id": "UJu9Zw5PaoiOm9f6GJxz1ZlyDrA=", "properties": {"@spider": "usps_collection_boxes", "addr:city": "POTSDAM", "addr:country": "US", "addr:full": "4 MAYFIELD DR", "addr:postcode": "13676", "addr:state": "NY", "amenity": "post_box", "brand": "United States Postal Service", "brand:wikidata": "Q668687", "collection_times": "Mo-Sa 09:30", "name": "USPS COLLECTION BOX - BLUE BOX", "nsi_id": "unitedstatespostalservice-a77078", "operator": "United States Postal Service", "operator:short": "USPS", "operator:type": "public", "operator:wikidata": "Q668687", "ref": "1367600020"}, "type": "Feature"}
{"dataset_attributes": {"@spider": "usps_collection_boxes"}, "geometry": {"coordinates": [-74.984667, 44.669857], "type": "Point"}, "id": "uKNSeO2mxomUrhBqJaWr1kaww68=", "properties": {"@spider": "usps_collection_boxes", "addr:city": "POTSDAM", "addr:country": "US", "addr:full": "21 ELM ST", "addr:postcode": "13676", "addr:state": "NY", "amenity": "post_box", "brand": "United States Postal Service", "brand:wikidata": "Q668687", "collection_times": "Mo-Fr 17:45; Sa 15:45", "name": "USPS COLLECTION BOX - PO LOBBY", "note": "ON 12/24 AND 12/31, THIS BOX MAY BE COLLECTED AS EARLY AS 12 NOON.", "nsi_id": "unitedstatespostalservice-a77078", "operator": "United States Postal Service", "operator:short": "USPS", "operator:type": "public", "operator:wikidata": "Q668687", "ref": "1367600021"}, "type": "Feature"}
{"dataset_attributes": {"@spider": "usps_collection_boxes"}, "geometry": {"coordinates": [-74.9935112, 44.666981], "type": "Point"}, "id": "Vq8zYF3RxdAGzvPHxkyENK1O9ak=", "properties": {"@spider": "usps_collection_boxes", "addr:city": "POTSDAM", "addr:country": "US", "addr:full": "48 MAPLE ST", "addr:postcode": "13676", "addr:state": "NY", "amenity": "post_box", "brand": "United States Postal Service", "brand:wikidata": "Q668687", "collection_times": "Mo-Sa 14:00", "name": "USPS COLLECTION BOX - BLUE BOX", "note": "ON 12/24 AND 12/31, THIS BOX MAY BE COLLECTED AS EARLY AS 12 NOON.", "nsi_id": "unitedstatespostalservice-a77078", "operator": "United States Postal Service", "operator:short": "USPS", "operator:type": "public", "operator:wikidata": "Q668687", "ref": "1367600022"}, "type": "Feature"}
{"dataset_attributes": {"@spider": "usps_collection_boxes"}, "geometry": {"coordinates": [-75.0258579, 44.662366], "type": "Point"}, "id": "NIKay6OGJLIAcHSz9UNJ-d7lI8E=", "properties": {"@spider": "usps_collection_boxes", "addr:city": "POTSDAM", "addr:country": "US", "addr:full": "7494 US RT 11", "addr:postcode": "13676", "addr:state": "NY", "amenity": "post_box", "brand": "United States Postal Service", "brand:wikidata": "Q668687", "collection_times": "Mo-Sa 12:00", "name": "USPS COLLECTION BOX - BLUE BOX", "nsi_id": "unitedstatespostalservice-a77078", "operator": "United States Postal Service", "operator:short": "USPS", "operator:type": "public", "operator:wikidata": "Q668687", "ref": "1367600023"}, "type": "Feature"}
{"dataset_attributes": {"@spider": "usps_collection_boxes"}, "geometry": {"coordinates": [-74.9838376, 44.671038], "type": "Point"}, "id": "bfWQWpFoHFyCj8pdFNUZCg4K5O0=", "properties": {"@spider": "usps_collection_boxes", "addr:city": "POTSDAM", "addr:country": "US", "addr:full": "28 MUNSON ST", "addr:postcode": "13676", "addr:state": "NY", "amenity": "post_box", "brand": "United States Postal Service", "brand:wikidata": "Q668687", "collection_times": "Mo-Sa 09:00", "name": "USPS COLLECTION BOX - BLUE BOX", "nsi_id": "unitedstatespostalservice-a77078", "operator": "United States Postal Service", "operator:short": "USPS", "operator:type": "public", "operator:wikidata": "Q668687", "ref": "1367600024"}, "type": "Feature"}
{"dataset_attributes": {"@spider": "usps_collection_boxes"}, "geometry": {"coordinates": [-74.9679939612, 44.6800100127], "type": "Point"}, "id": "XlnUwL-g91gKO7MXx6nmhelocxc=", "properties": {"@spider": "usps_collection_boxes", "addr:city": "POTSDAM", "addr:country": "US", "addr:full": "3 DEBRA DR", "addr:postcode": "13676", "addr:state": "NY", "amenity": "post_box", "brand": "United States Postal Service", "brand:wikidata": "Q668687", "collection_times": "Mo-Sa 10:30", "name": "USPS COLLECTION BOX - BLUE BOX", "nsi_id": "unitedstatespostalservice-a77078", "operator": "United States Postal Service", "operator:short": "USPS", "operator:type": "public", "operator:wikidata": "Q668687", "ref": "1367600025"}, "type": "Feature"}
{"dataset_attributes": {"@spider": "usps_collection_boxes"}, "geometry": {"coordinates": [-74.9816952, 44.683275], "type": "Point"}, "id": "wbvpSE9F0Luh83_IEet6_aStMUw=", "properties": {"@spider": "usps_collection_boxes", "addr:city": "POTSDAM", "addr:country": "US", "addr:full": "118 LEROY ST", "addr:postcode": "13676", "addr:state": "NY", "amenity": "post_box", "brand": "United States Postal Service", "brand:wikidata": "Q668687", "collection_times": "Mo-Sa 11:00", "name": "USPS COLLECTION BOX - BLUE BOX", "nsi_id": "unitedstatespostalservice-a77078", "operator": "United States Postal Service", "operator:short": "USPS", "operator:type": "public", "operator:wikidata": "Q668687", "ref": "1367600027"}, "type": "Feature"}
{"dataset_attributes": {"@spider": "usps_collection_boxes"}, "geometry": {"coordinates": [-74.98467, 44.669824514], "type": "Point"}, "id": "AOUvq4ePOqRc99ADkIUCDLUiBYc=", "properties": {"@spider": "usps_collection_boxes", "addr:city": "POTSDAM", "addr:country": "US", "addr:full": "21 ELM ST", "addr:postcode": "13676", "addr:state": "NY", "amenity": "post_box", "brand": "United States Postal Service", "brand:wikidata": "Q668687", "collection_times": "Mo-Fr 17:00; Sa 12:30", "name": "USPS COLLECTION BOX - PO LOBBY", "note": "ON 12/24 AND 12/31, THIS BOX MAY BE COLLECTED AS EARLY AS 12 NOON.", "nsi_id": "unitedstatespostalservice-a77078", "operator": "United States Postal Service", "operator:short": "USPS", "operator:type": "public", "operator:wikidata": "Q668687", "ref": "1367600029"}, "type": "Feature"}
{"dataset_attributes": {"@spider": "usps_collection_boxes"}, "geometry": {"coordinates": [-75.1860322, 44.514906], "type": "Point"}, "id": "e77zoNPQhItbzld_v-p6VV9SlPM=", "properties": {"@spider": "usps_collection_boxes", "addr:city": "PYRITES", "addr:country": "US", "addr:full": "169 COUNTY ROUTE 21 EXT", "addr:postcode": "13677", "addr:state": "NY", "amenity": "post_box", "brand": "United States Postal Service", "brand:wikidata": "Q668687", "collection_times": "Mo-Sa 11:00", "name": "USPS COLLECTION BOX - BLUE BOX", "nsi_id": "unitedstatespostalservice-a77078", "operator": "United States Postal Service", "operator:short": "USPS", "operator:type": "public", "operator:wikidata": "Q668687", "ref": "1367700001"}, "type": "Feature"}
{"dataset_attributes": {"@spider": "usps_collection_boxes"}, "geometry": {"coordinates": [-74.9776616751, 44.837700986], "type": "Point"}, "id": "7y017hd-4DUaq-nPIjN0RhT4lrg=", "properties": {"@spider": "usps_collection_boxes", "addr:city": "RAYMONDVILLE", "addr:country": "US", "addr:full": "8766 STATE HIGHWAY 56", "addr:postcode": "13678", "addr:state": "NY", "amenity": "post_box", "brand": "United States Postal Service", "brand:wikidata": "Q668687", "collection_times": "Mo-Fr 12:30; Sa 11:30", "name": "USPS COLLECTION BOX - BLUE BOX", "note": "ON 12/24 AND 12/31, THIS BOX MAY BE COLLECTED AS EARLY AS 12 NOON.", "nsi_id": "unitedstatespostalservice-a77078", "operator": "United States Postal Service", "operator:short": "USPS", "operator:type": "public", "operator:wikidata": "Q668687", "ref": "1367800001"}, "type": "Feature"}
{"dataset_attributes": {"@spider": "usps_collection_boxes"}, "geometry": {"coordinates": [-74.9776616751, 44.837700986], "type": "Point"}, "id": "WrPbRvtLpj8WHuujgz1c2kSZ4Sw=", "properties": {"@spider": "usps_collection_boxes", "addr:city": "RAYMONDVILLE", "addr:country": "US", "addr:full": "8766 STATE HIGHWAY 56", "addr:postcode": "13678", "addr:state": "NY", "amenity": "post_box", "brand": "United States Postal Service", "brand:wikidata": "Q668687", "collection_times": "Mo-Fr 12:30; Sa 11:45", "name": "USPS COLLECTION BOX - PO LOBBY", "note": "ON 12/24 AND 12/31, THIS BOX MAY BE COLLECTED AS EARLY AS 12 NOON.", "nsi_id": "unitedstatespostalservice-a77078", "operator": "United States Postal Service", "operator:short": "USPS", "operator:type": "public", "operator:wikidata": "Q668687", "ref": "1367800002"}, "type": "Feature"}
{"dataset_attributes": {"@spider": "usps_collection_boxes"}, "geometry": {"coordinates": [-74.97758469, 44.837935031], "type": "Point"}, "id": "hpPJPdOIjwH1CSC1_J4jl840GZg=", "properties": {"@spider": "usps_collection_boxes", "addr:city": "RAYMONDVILLE", "addr:country": "US", "addr:full": "8766 STATE HIGHWAY 56", "addr:postcode": "13678", "addr:state": "NY", "amenity": "post_box", "brand": "United States Postal Service", "brand:wikidata": "Q668687", "collection_times": "Mo-Fr 12:30; Sa 11:45", "name": "USPS COLLECTION BOX - PO LOBBY", "note": "ON 12/24 AND 12/31, THIS BOX MAY BE COLLECTED AS EARLY AS 12 NOON.", "nsi_id": "unitedstatespostalservice-a77078", "operator": "United States Postal Service", "operator:short": "USPS", "operator:type": "public", "operator:wikidata": "Q668687", "ref": "1367800003"}, "type": "Feature"}
{"dataset_attributes": {"@spider": "usps_collection_boxes"}, "geometry": {"coordinates": [-75.319699, 44.590037], "type": "Point"}, "id": "q6bgWnWTBot7k8k3fMoj5vXHg7g=", "properties": {"@spider": "usps_collection_boxes", "addr:city": "RENSSLAER FLS", "addr:country": "US", "addr:full": "217 RENSSELAER ST", "addr:postcode": "13680", "addr:state": "NY", "amenity": "post_box", "brand": "United States Postal Service", "brand:wikidata": "Q668687", "collection_times": "Mo-Fr 12:00; Sa 11:30", "name": "USPS COLLECTION BOX - BLUE BOX", "nsi_id": "unitedstatespostalservice-a77078", "operator": "United States Postal Service", "operator:short": "USPS", "operator:type": "public", "operator:wikidata": "Q668687", "ref": "1368000001"}, "type": "Feature"}
{"dataset_attributes": {"@spider": "usps_collection_boxes"}, "geometry": {"coordinates": [-75.319748, 44.589979], "type": "Point"}, "id": "DXFoxK8ggm8gAVdNXdWwTm0CvXU=", "properties": {"@spider": "usps_collection_boxes", "addr:city": "RENSSLAER FLS", "addr:country": "US", "addr:full": "217 RENSSELAER ST", "addr:postcode": "13680", "addr:state": "NY", "amenity": "post_box", "brand": "United States Postal Service", "brand:wikidata": "Q668687", "collection_times": "Mo-Fr 12:00; Sa 11:30", "name": "USPS COLLECTION BOX - PO LOBBY", "nsi_id": "unitedstatespostalservice-a77078", "operator": "United States Postal Service", "operator:short": "USPS", "operator:type": "public", "operator:wikidata": "Q668687", "ref": "1368000002"}, "type": "Feature"}
{"dataset_attributes": {"@spider": "usps_collection_boxes"}, "geometry": {"coordinates": [-75.31894253, 44.59040805], "type": "Point"}, "id": "tlZ04UdvY9usT6ljsBTm4PaZcYQ=", "properties": {"@spider": "usps_collection_boxes", "addr:city": "RENSSLAER FLS", "addr:country": "US", "addr:full": "217 RENSSELAER ST", "addr:postcode": "13680", "addr:state": "NY", "amenity": "post_box", "brand": "United States Postal Service", "brand:wikidata": "Q668687", "collection_times": "Mo-Fr 12:00; Sa 11:30", "name": "USPS COLLECTION BOX - PO LOBBY", "nsi_id": "unitedstatespostalservice-a77078", "operator": "United States Postal Service", "operator:short": "USPS", "operator:type": "public", "operator:wikidata": "Q668687", "ref": "1368000003"}, "type": "Feature"}
{"dataset_attributes": {"@spider": "usps_collection_boxes"}, "geometry": {"coordinates": [-75.391593, 44.417352], "type": "Point"}, "id": "e8I_8inj5T2ZKLV_fftx_2Yxp-w=", "properties": {"@spider": "usps_collection_boxes", "addr:city": "RICHVILLE", "addr:country": "US", "addr:full": "160 MAIN ST", "addr:postcode": "13681", "addr:state": "NY", "amenity": "post_box", "brand": "United States Postal Service", "brand:wikidata": "Q668687", "collection_times": "Mo-Fr 12:00; Sa 11:30", "name": "USPS COLLECTION BOX - BLUE BOX", "nsi_id": "unitedstatespostalservice-a77078", "operator": "United States Postal Service", "operator:short": "USPS", "operator:type": "public", "operator:wikidata": "Q668687", "ref": "1368100001"}, "type": "Feature"}
{"dataset_attributes": {"@spider": "usps_collection_boxes"}, "geometry": {"coordinates": [-75.391593, 44.417352], "type": "Point"}, "id": "5kF3Wcl_4smLIBEJ2w219pO0FdI=", "properties": {"@spider": "usps_collection_boxes", "addr:city": "RICHVILLE", "addr:country": "US", "addr:full": "160 MAIN ST", "addr:postcode": "13681", "addr:state": "NY", "amenity": "post_box", "brand": "United States Postal Service", "brand:wikidata": "Q668687", "collection_times": "Mo-Fr 12:00; Sa 11:45", "name": "USPS COLLECTION BOX - PO LOBBY", "nsi_id": "unitedstatespostalservice-a77078", "operator": "United States Postal Service", "operator:short": "USPS", "operator:type": "public", "operator:wikidata": "Q668687", "ref": "1368100002"}, "type": "Feature"}
{"dataset_attributes": {"@spider": "usps_collection_boxes"}, "geometry": {"coordinates": [-75.391376608, 44.417578674], "type": "Point"}, "id": "EBgexGcvj3iQUQv2M0Te_awqumE=", "properties": {"@spider": "usps_collection_boxes", "addr:city": "RICHVILLE", "addr:country": "US", "addr:full": "160 MAIN ST", "addr:postcode": "13681", "addr:state": "NY", "amenity": "post_box", "brand": "United States Postal Service", "brand:wikidata": "Q668687", "collection_times": "Mo-Fr 12:00; Sa 11:45", "name": "USPS COLLECTION BOX - PO LOBBY", "nsi_id": "unitedstatespostalservice-a77078", "operator": "United States Postal Service", "operator:short": "USPS", "operator:type": "public", "operator:wikidata": "Q668687", "ref": "1368100003"}, "type": "Feature"}
{"dataset_attributes": {"@spider": "usps_collection_boxes"}, "geometry": {"coordinates": [-74.730944, 44.973151], "type": "Point"}, "id": "nv49wT6h-E3n8AE5J-gBUq8AIGo=", "properties": {"@spider": "usps_collection_boxes", "addr:city": "ROOSEVELTOWN", "addr:country": "US", "addr:full": "3 COUNTY ROUTE 45", "addr:postcode": "13683", "addr:state": "NY", "amenity": "post_box", "brand": "United States Postal Service", "brand:wikidata": "Q668687", "collection_times": "Mo-Fr 16:00; Sa 11:30", "name": "USPS COLLECTION BOX - BLUE BOX", "note": "ON 12/24 AND 12/31, THIS BOX MAY BE COLLECTED AS EARLY AS 12 NOON.", "nsi_id": "unitedstatespostalservice-a77078", "operator": "United States Postal Service", "operator:short": "USPS", "operator:type": "public", "operator:wikidata": "Q668687", "ref": "1368300001"}, "type": "Feature"}
{"dataset_attributes": {"@spider": "usps_collection_boxes"}, "geometry": {"coordinates": [-74.730895, 44.973035], "type": "Point"}, "id": "Z58lbsHAlU9faS3YxQJ4z7L8P9Y=", "properties": {"@spider": "usps_collection_boxes", "addr:city": "ROOSEVELTOWN", "addr:country": "US", "addr:full": "3 COUNTY ROUTE 45", "addr:postcode": "13683", "addr:state": "NY", "amenity": "post_box", "brand": "United States Postal Service", "brand:wikidata": "Q668687", "collection_times": "Mo-Fr 16:00; Sa 11:30", "name": "USPS COLLECTION BOX - PO LOBBY", "note": "ON 12/24 AND 12/31, THIS BOX MAY BE COLLECTED AS EARLY AS 12 NOON.", "nsi_id": "unitedstatespostalservice-a77078", "operator": "United States Postal Service", "operator:short": "USPS", "operator:type": "public", "operator:wikidata": "Q668687", "ref": "1368300002"}, "type": "Feature"}
{"dataset_attributes": {"@spider": "usps_collection_boxes"}, "geometry": {"coordinates": [-74.730896015, 44.973035049], "type": "Point"}, "id": "Hj07cIPFHgXeJx-E5r4ZdEWVZIA=", "properties": {"@spider": "usps_collection_boxes", "addr:city": "ROOSEVELTOWN", "addr:country": "US", "addr:full": "3 COUNTY ROUTE 45", "addr:postcode": "13683", "addr:state": "NY", "amenity": "post_box", "brand": "United States Postal Service", "brand:wikidata": "Q668687", "collection_times": "Mo-Fr 16:00; Sa 11:30", "name": "USPS COLLECTION BOX - PO LOBBY", "note": "ON 12/24 AND 12/31, THIS BOX MAY BE COLLECTED AS EARLY AS 12 NOON.", "nsi_id": "unitedstatespostalservice-a77078", "operator": "United States Postal Service", "operator:short": "USPS", "operator:type": "public", "operator:wikidata": "Q668687", "ref": "1368300003"}, "type": "Feature"}
{"dataset_attributes": {"@spider": "usps_collection_boxes"}, "geometry": {"coordinates": [-75.150029, 44.429238], "type": "Point"}, "id": "F5MiKZ3t0gzweucp_YKIwmkZNHA=", "properties": {"@spider": "usps_collection_boxes", "addr:city": "RUSSELL", "addr:country": "US", "addr:full": "4 PESTLE ST", "addr:postcode": "13684", "addr:state": "NY", "amenity": "post_box", "brand": "United States Postal Service", "brand:wikidata": "Q668687", "collection_times": "Mo-Fr 12:00; Sa 11:30", "name": "USPS COLLECTION BOX - BLUE BOX", "nsi_id": "unitedstatespostalservice-a77078", "operator": "United States Postal Service", "operator:short": "USPS", "operator:type": "public", "operator:wikidata": "Q668687", "ref": "1368400001"}, "type": "Feature"}
{"dataset_attributes": {"@spider": "usps_collection_boxes"}, "geometry": {"coordinates": [-75.149921, 44.429219], "type": "Point"}, "id": "NBMy4Nx-_p2buL8KiRzfgzgrRWg=", "properties": {"@spider": "usps_collection_boxes", "addr:city": "RUSSELL", "addr:country": "US", "addr:full": "4 PESTLE ST", "addr:postcode": "13684", "addr:state": "NY", "amenity": "post_box", "brand": "United States Postal Service", "brand:wikidata": "Q668687", "collection_times": "Mo-Fr 12:00; Sa 11:30", "name": "USPS COLLECTION BOX - PO LOBBY", "nsi_id": "unitedstatespostalservice-a77078", "operator": "United States Postal Service", "operator:short": "USPS", "operator:type": "public", "operator:wikidata": "Q668687", "ref": "1368400002"}, "type": "Feature"}
{"dataset_attributes": {"@spider": "usps_collection_boxes"}, "geometry": {"coordinates": [-75.150133114, 44.42922246], "type": "Point"}, "id": "earqCrLCbazcjzVj7Ub2iIfzecs=", "properties": {"@spider": "usps_collection_boxes", "addr:city": "RUSSELL", "addr:country": "US", "addr:full": "4 PESTLE ST", "addr:postcode": "13684", "addr:state": "NY", "amenity": "post_box", "brand": "United States Postal Service", "brand:wikidata": "Q668687", "collection_times": "Mo-Fr 12:00; Sa 11:45", "name": "USPS COLLECTION BOX - PO LOBBY", "nsi_id": "unitedstatespostalservice-a77078", "operator": "United States Postal Service", "operator:short": "USPS", "operator:type": "public", "operator:wikidata": "Q668687", "ref": "1368400003"}, "type": "Feature"}
{"dataset_attributes": {"@spider": "usps_collection_boxes"}, "geometry": {"coordinates": [-74.8887385, 44.509458], "type": "Point"}, "id": "sSld7SC_cLiHHRqihGp3Wh7Ndvo=", "properties": {"@spider": "usps_collection_boxes", "addr:city": "SOUTH COLTON", "addr:country": "US", "addr:full": "3935 STATE HIGHWAY 56", "addr:postcode": "13687", "addr:state": "NY", "amenity": "post_box", "brand": "United States Postal Service", "brand:wikidata": "Q668687", "collection_times": "Mo-Fr 12:00; Sa 11:45", "name": "USPS COLLECTION BOX - BLUE BOX", "nsi_id": "unitedstatespostalservice-a77078", "operator": "United States Postal Service", "operator:short": "USPS", "operator:type": "public", "operator:wikidata": "Q668687", "ref": "1368700001"}, "type": "Feature"}
{"dataset_attributes": {"@spider": "usps_collection_boxes"}, "geometry": {"coordinates": [-74.888583, 44.509686], "type": "Point"}, "id": "95IuQIrazuAIQTD2o2Y8_RRBQzc=", "properties": {"@spider": "usps_collection_boxes", "addr:city": "SOUTH COLTON", "addr:country": "US", "addr:full": "3935 STATE HIGHWAY 56", "addr:postcode": "13687", "addr:state": "NY", "amenity": "post_box", "brand": "United States Postal Service", "brand:wikidata": "Q668687", "collection_times": "Mo-Fr 12:00; Sa 11:30", "name": "USPS COLLECTION BOX - PO LOBBY", "nsi_id": "unitedstatespostalservice-a77078", "operator": "United States Postal Service", "operator:short": "USPS", "operator:type": "public", "operator:wikidata": "Q668687", "ref": "1368700002"}, "type": "Feature"}
{"dataset_attributes": {"@spider": "usps_collection_boxes"}, "geometry": {"coordinates": [-74.888673527, 44.50966151], "type": "Point"}, "id": "_WnaHdovWPQuW8XukBIsLNEigH4=", "properties": {"@spider": "usps_collection_boxes", "addr:city": "SOUTH COLTON", "addr:country": "US", "addr:full": "3935 STATE HIGHWAY 56", "addr:postcode": "13687", "addr:state": "NY", "amenity": "post_box", "brand": "United States Postal Service", "brand:wikidata": "Q668687", "collection_times": "Mo-Fr 12:00; Sa 11:30", "name": "USPS COLLECTION BOX - PO LOBBY", "nsi_id": "unitedstatespostalservice-a77078", "operator": "United States Postal Service", "operator:short": "USPS", "operator:type": "public", "operator:wikidata": "Q668687", "ref": "1368700003"}, "type": "Feature"}
{"dataset_attributes": {"@spider": "usps_collection_boxes"}, "geometry": {"coordinates": [-75.047317, 44.166627], "type": "Point"}, "id": "GV7haGdt6d8QomZaXkOCmAfCUek=", "properties": {"@spider": "usps_collection_boxes", "addr:city": "STAR LAKE", "addr:country": "US", "addr:full": "4052 STATE HIGHWAY 3", "addr:postcode": "13690", "addr:state": "NY", "amenity": "post_box", "brand": "United States Postal Service", "brand:wikidata": "Q668687", "collection_times": "Mo-Fr 15:30; Sa 11:45", "name": "USPS COLLECTION BOX - BLUE BOX", "note": "ON 12/24 AND 12/31, THIS BOX MAY BE COLLECTED AS EARLY AS 12 NOON.", "nsi_id": "unitedstatespostalservice-a77078", "operator": "United States Postal Service", "operator:short": "USPS", "operator:type": "public", "operator:wikidata": "Q668687", "ref": "1369000001"}, "type": "Feature"}
{"dataset_attributes": {"@spider": "usps_collection_boxes"}, "geometry": {"coordinates": [-75.047347, 44.166705], "type": "Point"}, "id": "84RwtRh6sNQRYeEA8snsGBE3cJA=", "properties": {"@spider": "usps_collection_boxes", "addr:city": "STAR LAKE", "addr:country": "US", "addr:full": "4052 STATE HIGHWAY 3", "addr:postcode": "13690", "addr:state": "NY", "amenity": "post_box", "brand": "United States Postal Service", "brand:wikidata": "Q668687", "collection_times": "Mo-Fr 15:30; Sa 11:45", "name": "USPS COLLECTION BOX - PO LOBBY", "note": "ON 12/24 AND 12/31, THIS BOX MAY BE COLLECTED AS EARLY AS 12 NOON.", "nsi_id": "unitedstatespostalservice-a77078", "operator": "United States Postal Service", "operator:short": "USPS", "operator:type": "public", "operator:wikidata": "Q668687", "ref": "1369000002"}, "type": "Feature"}
{"dataset_attributes": {"@spider": "usps_collection_boxes"}, "geometry": {"coordinates": [-75.046986647, 44.166272806], "type": "Point"}, "id": "ZfcMo8tFrWut_MO-VE7QlBnIOOw=", "properties": {"@spider": "usps_collection_boxes", "addr:city": "STAR LAKE", "addr:country": "US", "addr:full": "4052 STATE HIGHWAY 3", "addr:postcode": "13690", "addr:state": "NY", "amenity": "post_box", "brand": "United States Postal Service", "brand:wikidata": "Q668687", "collection_times": "Mo-Fr 15:30; Sa 11:30", "name": "USPS COLLECTION BOX - PO LOBBY", "note": "ON 12/24 AND 12/31, THIS BOX MAY BE COLLECTED AS EARLY AS 12 NOON.", "nsi_id": "unitedstatespostalservice-a77078", "operator": "United States Postal Service", "operator:short": "USPS", "operator:type": "public", "operator:wikidata": "Q668687", "ref": "1369000004"}, "type": "Feature"}
{"dataset_attributes": {"@spider": "usps_collection_boxes"}, "geometry": {"coordinates": [-75.203808, 44.864477], "type": "Point"}, "id": "2OsvQUD5kazpep3k1h_KMebF-pg=", "properties": {"@spider": "usps_collection_boxes", "addr:city": "WADDINGTON", "addr:country": "US", "addr:full": "23 MAIN ST", "addr:postcode": "13694", "addr:state": "NY", "amenity": "post_box", "brand": "United States Postal Service", "brand:wikidata": "Q668687", "collection_times": "Mo-Fr 16:15; Sa 12:00", "name": "USPS COLLECTION BOX - BLUE BOX", "note": "ON 12/24 AND 12/31, THIS BOX MAY BE COLLECTED AS EARLY AS 12 NOON.", "nsi_id": "unitedstatespostalservice-a77078", "operator": "United States Postal Service", "operator:short": "USPS", "operator:type": "public", "operator:wikidata": "Q668687", "ref": "1369400001"}, "type": "Feature"}
{"dataset_attributes": {"@spider": "usps_collection_boxes"}, "geometry": {"coordinates": [-75.203808, 44.864477], "type": "Point"}, "id": "ZRSEfaf38QZdtemlAN2xWi-I2-4=", "properties": {"@spider": "usps_collection_boxes", "addr:city": "WADDINGTON", "addr:country": "US", "addr:full": "23 MAIN ST", "addr:postcode": "13694", "addr:state": "NY", "amenity": "post_box", "brand": "United States Postal Service", "brand:wikidata": "Q668687", "collection_times": "Mo-Fr 16:15; Sa 12:00", "name": "USPS COLLECTION BOX - PO LOBBY", "note": "ON 12/24 AND 12/31, THIS BOX MAY BE COLLECTED AS EARLY AS 12 NOON.", "nsi_id": "unitedstatespostalservice-a77078", "operator": "United States Postal Service", "operator:short": "USPS", "operator:type": "public", "operator:wikidata": "Q668687", "ref": "1369400002"}, "type": "Feature"}
{"dataset_attributes": {"@spider": "usps_collection_boxes"}, "geometry": {"coordinates": [-75.203664248, 44.864329242], "type": "Point"}, "id": "1wuJ1yl6XnrTqUJMAnTUT15kDTE=", "properties": {"@spider": "usps_collection_boxes", "addr:city": "WADDINGTON", "addr:country": "US", "addr:full": "23 MAIN ST", "addr:postcode": "13694", "addr:state": "NY", "amenity": "post_box", "brand": "United States Postal Service", "brand:wikidata": "Q668687", "collection_times": "Mo-Fr 16:45; Sa 12:00", "name": "USPS COLLECTION BOX - PO LOBBY", "note": "ON 12/24 AND 12/31, THIS BOX MAY BE COLLECTED AS EARLY AS 12 NOON.", "nsi_id": "unitedstatespostalservice-a77078", "operator": "United States Postal Service", "operator:short": "USPS", "operator:type": "public", "operator:wikidata": "Q668687", "ref": "1369400003"}, "type": "Feature"}
{"dataset_attributes": {"@spider": "usps_collection_boxes"}, "geometry": {"coordinates": [-74.921838, 44.133654], "type": "Point"}, "id": "U-lLCCHsZojq0ky23-Bhl2ILcKo=", "properties": {"@spider": "usps_collection_boxes", "addr:city": "WANAKENA", "addr:country": "US", "addr:full": "6 HAMELE ST", "addr:postcode": "13695", "addr:state": "NY", "amenity": "post_box", "brand": "United States Postal Service", "brand:wikidata": "Q668687", "collection_times": "Mo-Fr 12:00; Sa 11:30", "name": "USPS COLLECTION BOX - BLUE BOX", "nsi_id": "unitedstatespostalservice-a77078", "operator": "United States Postal Service", "operator:short": "USPS", "operator:type": "public", "operator:wikidata": "Q668687", "ref": "1369500001"}, "type": "Feature"}
{"dataset_attributes": {"@spider": "usps_collection_boxes"}, "geometry": {"coordinates": [-74.921863, 44.133618], "type": "Point"}, "id": "frhPUaUYIwc72yqqMKD9WSkaPLk=", "properties": {"@spider": "usps_collection_boxes", "addr:city": "WANAKENA", "addr:country": "US", "addr:full": "6 HAMELE ST", "addr:postcode": "13695", "addr:state": "NY", "amenity": "post_box", "brand": "United States Postal Service", "brand:wikidata": "Q668687", "collection_times": "Mo-Fr 12:00; Sa 11:30", "name": "USPS COLLECTION BOX - PO LOBBY", "nsi_id": "unitedstatespostalservice-a77078", "operator": "United States Postal Service", "operator:short": "USPS", "operator:type": "public", "operator:wikidata": "Q668687", "ref": "1369500002"}, "type": "Feature"}
{"dataset_attributes": {"@spider": "usps_collection_boxes"}, "geometry": {"coordinates": [-74.921890416, 44.133636928], "type": "Point"}, "id": "uvEhM2EfPNOQkG8GA7iSCdXdR1M=", "properties": {"@spider": "usps_collection_boxes", "addr:city": "WANAKENA", "addr:country": "US", "addr:full": "6 HAMELE ST", "addr:postcode": "13695", "addr:state": "NY", "amenity": "post_box", "brand": "United States Postal Service", "brand:wikidata": "Q668687", "collection_times": "Mo-Fr 12:00; Sa 11:45", "name": "USPS COLLECTION BOX - PO LOBBY", "nsi_id": "unitedstatespostalservice-a77078", "operator": "United States Postal Service", "operator:short": "USPS", "operator:type": "public", "operator:wikidata": "Q668687", "ref": "1369500003"}, "type": "Feature"}
{"dataset_attributes": {"@spider": "usps_collection_boxes"}, "geometry": {"coordinates": [-74.899271, 44.7135], "type": "Point"}, "id": "rM9PEUlzuA3lbuySacolPUXOEdM=", "properties": {"@spider": "usps_collection_boxes", "addr:city": "WEST STOCKHOLM", "addr:country": "US", "addr:full": "9 LIVINGSTON RD", "addr:postcode": "13696", "addr:state": "NY", "amenity": "post_box", "brand": "United States Postal Service", "brand:wikidata": "Q668687", "collection_times": "Mo-Fr 13:30; Sa 11:45", "name": "USPS COLLECTION BOX - PO LOBBY", "note": "ON 12/24 AND 12/31, THIS BOX MAY BE COLLECTED AS EARLY AS 12 NOON.", "nsi_id": "unitedstatespostalservice-a77078", "operator": "United States Postal Service", "operator:short": "USPS", "operator:type": "public", "operator:wikidata": "Q668687", "ref": "1369600001"}, "type": "Feature"}
{"dataset_attributes": {"@spider": "usps_collection_boxes"}, "geometry": {"coordinates": [-74.899302, 44.71345], "type": "Point"}, "id": "tLv3fGrfzjlDHg5t6gF6yoIfMvA=", "properties": {"@spider": "usps_collection_boxes", "addr:city": "WEST STOCKHOLM", "addr:country": "US", "addr:full": "9 LIVINGSTON RD", "addr:postcode": "13696", "addr:state": "NY", "amenity": "post_box", "brand": "United States Postal Service", "brand:wikidata": "Q668687", "collection_times": "Mo-Fr 13:30; Sa 11:30", "name": "USPS COLLECTION BOX - BLUE BOX", "note": "ON 12/24 AND 12/31, THIS BOX MAY BE COLLECTED AS EARLY AS 12 NOON.", "nsi_id": "unitedstatespostalservice-a77078", "operator": "United States Postal Service", "operator:short": "USPS", "operator:type": "public", "operator:wikidata": "Q668687", "ref": "1369600002"}, "type": "Feature"}
{"dataset_attributes": {"@spider": "usps_collection_boxes"}, "geometry": {"coordinates": [-74.899476318, 44.713385412], "type": "Point"}, "id": "Y60nic09GRrayqTjf2j-XsLgU7E=", "properties": {"@spider": "usps_collection_boxes", "addr:city": "WEST STOCKHOLM", "addr:country": "US", "addr:full": "9 LIVINGSTON RD", "addr:postcode": "13696", "addr:state": "NY", "amenity": "post_box", "brand": "United States Postal Service", "brand:wikidata": "Q668687", "collection_times": "Mo-Fr 13:30; Sa 11:45", "name": "USPS COLLECTION BOX - PO LOBBY", "note": "ON 12/24 AND 12/31, THIS BOX MAY BE COLLECTED AS EARLY AS 12 NOON.", "nsi_id": "unitedstatespostalservice-a77078", "operator": "United States Postal Service", "operator:short": "USPS", "operator:type": "public", "operator:wikidata": "Q668687", "ref": "1369600005"}, "type": "Feature"}
{"dataset_attributes": {"@spider": "usps_collection_boxes"}, "geometry": {"coordinates": [-74.9846891, 44.66945], "type": "Point"}, "id": "nFUnHjJOv-QMQUwrZkkBNDkSwkc=", "properties": {"@spider": "usps_collection_boxes", "addr:city": "WINTHROP", "addr:country": "US", "addr:full": "656 STATE HIGHWAY 11C", "addr:postcode": "13697", "addr:state": "NY", "amenity": "post_box", "brand": "United States Postal Service", "brand:wikidata": "Q668687", "collection_times": "Mo-Fr 16:00; Sa 11:30", "name": "USPS COLLECTION BOX - BLUE BOX", "note": "ON 12/24 AND 12/31, THIS BOX MAY BE COLLECTED AS EARLY AS 12 NOON.", "nsi_id": "unitedstatespostalservice-a77078", "operator": "United States Postal Service", "operator:short": "USPS", "operator:type": "public", "operator:wikidata": "Q668687", "ref": "1369700001"}, "type": "Feature"}
{"dataset_attributes": {"@spider": "usps_collection_boxes"}, "geometry": {"coordinates": [-74.78712, 44.794557], "type": "Point"}, "id": "p82KaKKswvirp8YO4cjwdJLs4Io=", "properties": {"@spider": "usps_collection_boxes", "addr:city": "WINTHROP", "addr:country": "US", "addr:full": "656 STATE HIGHWAY 11C", "addr:postcode": "13697", "addr:state": "NY", "amenity": "post_box", "brand": "United States Postal Service", "brand:wikidata": "Q668687", "collection_times": "Mo-Fr 16:00; Sa 11:30", "name": "USPS COLLECTION BOX - PO LOBBY", "note": "ON 12/24 AND 12/31, THIS BOX MAY BE COLLECTED AS EARLY AS 12 NOON.", "nsi_id": "unitedstatespostalservice-a77078", "operator": "United States Postal Service", "operator:short": "USPS", "operator:type": "public", "operator:wikidata": "Q668687", "ref": "1369700002"}, "type": "Feature"}
{"dataset_attributes": {"@spider": "usps_collection_boxes"}, "geometry": {"coordinates": [-74.786918426, 44.794725886], "type": "Point"}, "id": "wNFQpBNLQPrLryAE6DswxwbZBYo=", "properties": {"@spider": "usps_collection_boxes", "addr:city": "WINTHROP", "addr:country": "US", "addr:full": "656 STATE HIGHWAY 11C", "addr:postcode": "13697", "addr:state": "NY", "amenity": "post_box", "brand": "United States Postal Service", "brand:wikidata": "Q668687", "collection_times": "Mo-Fr 16:00; Sa 11:30", "name": "USPS COLLECTION BOX - PO LOBBY", "note": "ON 12/24 AND 12/31, THIS BOX MAY BE COLLECTED AS EARLY AS 12 NOON.", "nsi_id": "unitedstatespostalservice-a77078", "operator": "United States Postal Service", "operator:short": "USPS", "operator:type": "public", "operator:wikidata": "Q668687", "ref": "1369700004"}, "type": "Feature"}
