{"geometry": {"coordinates": [-75.528685947, 42.223743192], "type": "Point"}, "id": "m8c4kO6jImxGm7dCjVdJuYwRcVo=", "properties": {"@spider": "usps_collection_boxes", "addr:city": "AFTON", "addr:country": "US", "addr:full": "89 MAIN ST", "addr:postcode": "13730", "addr:state": "NY", "brand": "USPS", "brand:wikidata": "Q668687", "collection_times": "Mo-Fr 16:15; Sa 12:00", "name": "USPS COLLECTION BOX - BLUE BOX", "note": "ON 12/24 AND 12/31, THIS BOX MAY BE COLLECTED AS EARLY AS 12 NOON.", "ref": "1373000001"}, "type": "Feature"}
{"geometry": {"coordinates": [-75.525988, 42.228191], "type": "Point"}, "id": "sBf6UjKpZeut3lezJCg4ae5e8WM=", "properties": {"@spider": "usps_collection_boxes", "addr:city": "AFTON", "addr:country": "US", "addr:full": "182 MAIN ST", "addr:postcode": "13730", "addr:state": "NY", "brand": "USPS", "brand:wikidata": "Q668687", "collection_times": "Mo-Fr 13:15; Sa 12:00", "name": "USPS COLLECTION BOX - BLUE BOX", "note": "ON 12/24 AND 12/31, THIS BOX MAY BE COLLECTED AS EARLY AS 12 NOON.", "ref": "1373000002"}, "type": "Feature"}
{"geometry": {"coordinates": [-75.528613, 42.22377], "type": "Point"}, "id": "74XcnXAoU8DYP0j1koz5pelUmqw=", "properties": {"@spider": "usps_collection_boxes", "addr:city": "AFTON", "addr:country": "US", "addr:full": "89 MAIN ST", "addr:postcode": "13730", "addr:state": "NY", "brand": "USPS", "brand:wikidata": "Q668687", "collection_times": "Mo-Fr 16:15; Sa 12:00", "name": "USPS COLLECTION BOX - PO LOBBY", "note": "ON 12/24 AND 12/31, THIS BOX MAY BE COLLECTED AS EARLY AS 12 NOON.", "ref": "1373000003"}, "type": "Feature"}
{"geometry": {"coordinates": [-75.528613, 42.22377], "type": "Point"}, "id": "shp2dUOWDIYDea5AN__Hzit_0Xg=", "properties": {"@spider": "usps_collection_boxes", "addr:city": "AFTON", "addr:country": "US", "addr:full": "89 MAIN ST", "addr:postcode": "13730", "addr:state": "NY", "brand": "USPS", "brand:wikidata": "Q668687", "collection_times": "Mo-Fr 16:15; Sa 12:00", "name": "USPS COLLECTION BOX - PO LOBBY", "note": "ON 12/24 AND 12/31, THIS BOX MAY BE COLLECTED AS EARLY AS 12 NOON.", "ref": "1373000004"}, "type": "Feature"}
{"geometry": {"coordinates": [-75.528685947, 42.223743192], "type": "Point"}, "id": "pAt7CuCnUBqGR9Qwzv6Fj6zGlTk=", "properties": {"@spider": "usps_collection_boxes", "addr:city": "AFTON", "addr:country": "US", "addr:full": "89 MAIN ST", "addr:postcode": "13730", "addr:state": "NY", "brand": "USPS", "brand:wikidata": "Q668687", "collection_times": "Mo-Fr 16:30; Sa 12:00", "name": "USPS COLLECTION BOX - PO LOBBY", "note": "ON 12/24 AND 12/31, THIS BOX MAY BE COLLECTED AS EARLY AS 12 NOON.", "ref": "1373000005"}, "type": "Feature"}
{"geometry": {"coordinates": [-74.787922, 42.18575], "type": "Point"}, "id": "aBhSbXHuOeicSRLAP5Lxil29QKE=", "properties": {"@spider": "usps_collection_boxes", "addr:city": "ANDES", "addr:country": "US", "addr:full": "204 LOWER MAIN ST", "addr:postcode": "13731", "addr:state": "NY", "brand": "USPS", "brand:wikidata": "Q668687", "collection_times": "Mo-Fr 16:15; Sa 10:45", "name": "USPS COLLECTION BOX - BLUE BOX", "note": "ON 12/24 AND 12/31, THIS BOX MAY BE COLLECTED AS EARLY AS 12 NOON.", "ref": "1373100001"}, "type": "Feature"}
{"geometry": {"coordinates": [-74.78801, 42.185682], "type": "Point"}, "id": "Ju1lZhIq1iBO1VI-Ul95zJUIG1U=", "properties": {"@spider": "usps_collection_boxes", "addr:city": "ANDES", "addr:country": "US", "addr:full": "204 LOWER MAIN ST", "addr:postcode": "13731", "addr:state": "NY", "brand": "USPS", "brand:wikidata": "Q668687", "collection_times": "Mo-Fr 16:45; Sa 11:00", "name": "USPS COLLECTION BOX - PO LOBBY", "note": "ON 12/24 AND 12/31, THIS BOX MAY BE COLLECTED AS EARLY AS 12 NOON.", "ref": "1373100002"}, "type": "Feature"}
{"geometry": {"coordinates": [-74.787873986, 42.18584046], "type": "Point"}, "id": "d6vwiFoFNVj3Z0-jOx9Qx4KY4gI=", "properties": {"@spider": "usps_collection_boxes", "addr:city": "ANDES", "addr:country": "US", "addr:full": "204 LOWER MAIN ST", "addr:postcode": "13731", "addr:state": "NY", "brand": "USPS", "brand:wikidata": "Q668687", "collection_times": "Mo-Fr 16:45; Sa 11:00", "name": "USPS COLLECTION BOX - PO LOBBY", "note": "ON 12/24 AND 12/31, THIS BOX MAY BE COLLECTED AS EARLY AS 12 NOON.", "ref": "1373100004"}, "type": "Feature"}
{"geometry": {"coordinates": [-76.158752, 42.079635], "type": "Point"}, "id": "bs53ZO4xCHeEjGRPqJOVbO9T5zM=", "properties": {"@spider": "usps_collection_boxes", "addr:city": "APALACHIN", "addr:country": "US", "addr:full": "6100 STATE ROUTE 434", "addr:postcode": "13732", "addr:state": "NY", "brand": "USPS", "brand:wikidata": "Q668687", "collection_times": "Mo-Fr 17:00; Sa 12:00", "name": "USPS COLLECTION BOX - BLUE BOX", "note": "ON 12/24 AND 12/31, THIS BOX MAY BE COLLECTED AS EARLY AS 12 NOON.", "ref": "1373200001"}, "type": "Feature"}
{"geometry": {"coordinates": [-76.1215659, 42.061849], "type": "Point"}, "id": "mU87f0NnRfoQA9V0wxXNdMoNfA0=", "properties": {"@spider": "usps_collection_boxes", "addr:city": "APALACHIN", "addr:country": "US", "addr:full": "8806 STATE ROUTE 434", "addr:postcode": "13732", "addr:state": "NY", "brand": "USPS", "brand:wikidata": "Q668687", "collection_times": "Mo-Sa 10:30", "name": "USPS COLLECTION BOX - BLUE BOX", "ref": "1373200005"}, "type": "Feature"}
{"geometry": {"coordinates": [-76.158678, 42.079573], "type": "Point"}, "id": "PmEHKVGnQi6SVYRaLXGFNOpI2F4=", "properties": {"@spider": "usps_collection_boxes", "addr:city": "APALACHIN", "addr:country": "US", "addr:full": "6100 STATE ROUTE 434", "addr:postcode": "13732", "addr:state": "NY", "brand": "USPS", "brand:wikidata": "Q668687", "collection_times": "Mo-Fr 17:00; Sa 12:00", "name": "USPS COLLECTION BOX - PO LOBBY", "note": "ON 12/24 AND 12/31, THIS BOX MAY BE COLLECTED AS EARLY AS 12 NOON.", "ref": "1373200006"}, "type": "Feature"}
{"geometry": {"coordinates": [-76.158840929, 42.079783287], "type": "Point"}, "id": "TO5ZqcLLVXflWN_gb16nykTffRQ=", "properties": {"@spider": "usps_collection_boxes", "addr:city": "APALACHIN", "addr:country": "US", "addr:full": "6100 STATE ROUTE 434", "addr:postcode": "13732", "addr:state": "NY", "brand": "USPS", "brand:wikidata": "Q668687", "collection_times": "Mo-Fr 17:00; Sa 12:00", "name": "USPS COLLECTION BOX - PO LOBBY", "note": "ON 12/24 AND 12/31, THIS BOX MAY BE COLLECTED AS EARLY AS 12 NOON.", "ref": "1373200007"}, "type": "Feature"}
{"geometry": {"coordinates": [-75.477409, 42.292332], "type": "Point"}, "id": "izXjRsld1w2WozmZZWwtGTB6l1I=", "properties": {"@spider": "usps_collection_boxes", "addr:city": "BAINBRIDGE", "addr:country": "US", "addr:full": "17 E MAIN ST", "addr:postcode": "13733", "addr:state": "NY", "brand": "USPS", "brand:wikidata": "Q668687", "collection_times": "Mo-Fr 16:30; Sa 11:45", "name": "USPS COLLECTION BOX - BLUE BOX", "note": "ON 12/24 AND 12/31, THIS BOX MAY BE COLLECTED AS EARLY AS 12 NOON.", "ref": "1373300001"}, "type": "Feature"}
{"geometry": {"coordinates": [-75.477409, 42.292332], "type": "Point"}, "id": "P7iBQTVmYCKfRw1GXBwlrWp2xcM=", "properties": {"@spider": "usps_collection_boxes", "addr:city": "BAINBRIDGE", "addr:country": "US", "addr:full": "17 E MAIN ST", "addr:postcode": "13733", "addr:state": "NY", "brand": "USPS", "brand:wikidata": "Q668687", "collection_times": "Mo-Fr 16:30; Sa 11:45", "name": "USPS COLLECTION BOX - PO LOBBY", "note": "ON 12/24 AND 12/31, THIS BOX MAY BE COLLECTED AS EARLY AS 12 NOON.", "ref": "1373300003"}, "type": "Feature"}
{"geometry": {"coordinates": [-75.4821072, 42.291481], "type": "Point"}, "id": "LXhxZ4Mg7m8-GASSCWikoy9I-9o=", "properties": {"@spider": "usps_collection_boxes", "addr:city": "BAINBRIDGE", "addr:country": "US", "addr:full": "40 S MAIN ST", "addr:postcode": "13733", "addr:state": "NY", "brand": "USPS", "brand:wikidata": "Q668687", "collection_times": "Mo-Fr 15:00; Sa 13:00", "name": "USPS COLLECTION BOX - BLUE BOX", "note": "ON 12/24 AND 12/31, THIS BOX MAY BE COLLECTED AS EARLY AS 12 NOON.", "ref": "1373300008"}, "type": "Feature"}
{"geometry": {"coordinates": [-75.4786994, 42.294006], "type": "Point"}, "id": "hqDPtHz_fm8Fg6jQ5jFzhOC-LIQ=", "properties": {"@spider": "usps_collection_boxes", "addr:city": "BAINBRIDGE", "addr:country": "US", "addr:full": "19 N MAIN ST", "addr:postcode": "13733", "addr:state": "NY", "brand": "USPS", "brand:wikidata": "Q668687", "collection_times": "Mo-Fr 15:00; Sa 13:00", "name": "USPS COLLECTION BOX - BLUE BOX", "note": "ON 12/24 AND 12/31, THIS BOX MAY BE COLLECTED AS EARLY AS 12 NOON.", "ref": "1373300009"}, "type": "Feature"}
{"geometry": {"coordinates": [-75.477686696, 42.292522256], "type": "Point"}, "id": "u4D_8skVkA_6eGwJVbtnMmlpzTg=", "properties": {"@spider": "usps_collection_boxes", "addr:city": "BAINBRIDGE", "addr:country": "US", "addr:full": "17 E MAIN ST", "addr:postcode": "13733", "addr:state": "NY", "brand": "USPS", "brand:wikidata": "Q668687", "collection_times": "Mo-Fr 16:30; Sa 12:00", "name": "USPS COLLECTION BOX - PO LOBBY", "note": "ON 12/24 AND 12/31, THIS BOX MAY BE COLLECTED AS EARLY AS 12 NOON.", "ref": "1373300015"}, "type": "Feature"}
{"geometry": {"coordinates": [-76.185789, 42.293888], "type": "Point"}, "id": "mUYHqpHg9_T-A5W71jK3Mu5vPjA=", "properties": {"@spider": "usps_collection_boxes", "addr:city": "BERKSHIRE", "addr:country": "US", "addr:full": "12324 STATE ROUTE 38", "addr:postcode": "13736", "addr:state": "NY", "brand": "USPS", "brand:wikidata": "Q668687", "collection_times": "Mo-Fr 15:00; Sa 11:00", "name": "USPS COLLECTION BOX - BLUE BOX", "note": "ON 12/24 AND 12/31, THIS BOX MAY BE COLLECTED AS EARLY AS 12 NOON.", "ref": "1373600001"}, "type": "Feature"}
{"geometry": {"coordinates": [-76.185817, 42.293857], "type": "Point"}, "id": "j6L3MY-3neZHCJoV1TgFPBlWzQk=", "properties": {"@spider": "usps_collection_boxes", "addr:city": "BERKSHIRE", "addr:country": "US", "addr:full": "12324 STATE ROUTE 38", "addr:postcode": "13736", "addr:state": "NY", "brand": "USPS", "brand:wikidata": "Q668687", "collection_times": "Mo-Fr 15:00; Sa 11:00", "name": "USPS COLLECTION BOX - PO LOBBY", "note": "ON 12/24 AND 12/31, THIS BOX MAY BE COLLECTED AS EARLY AS 12 NOON.", "ref": "1373600003"}, "type": "Feature"}
{"geometry": {"coordinates": [-76.185769999, 42.293884009], "type": "Point"}, "id": "rsuv7ojBLi56FTaM77YEbB0ZQ6k=", "properties": {"@spider": "usps_collection_boxes", "addr:city": "BERKSHIRE", "addr:country": "US", "addr:full": "12324 STATE ROUTE 38", "addr:postcode": "13736", "addr:state": "NY", "brand": "USPS", "brand:wikidata": "Q668687", "collection_times": "Mo-Fr 15:00; Sa 11:00", "name": "USPS COLLECTION BOX - PO LOBBY", "note": "ON 12/24 AND 12/31, THIS BOX MAY BE COLLECTED AS EARLY AS 12 NOON.", "ref": "1373600005"}, "type": "Feature"}
{"geometry": {"coordinates": [-76.0238666646, 42.1087551682], "type": "Point"}, "id": "k3ZHg5xaWnBwWknR2r2slFDFDkk=", "properties": {"@spider": "usps_collection_boxes", "addr:city": "BIBLE SCH PK", "addr:country": "US", "addr:full": "400 RIVERSIDE DR", "addr:postcode": "13737", "addr:state": "NY", "brand": "USPS", "brand:wikidata": "Q668687", "collection_times": "Mo-Fr 16:30; Sa 11:45", "name": "USPS COLLECTION BOX - BLUE BOX", "note": "ON 12/24 AND 12/31, THIS BOX MAY BE COLLECTED AS EARLY AS 12 NOON.", "ref": "1373700001"}, "type": "Feature"}
{"geometry": {"coordinates": [-75.9614382011, 42.1019668214], "type": "Point"}, "id": "aIvs46-f3Wk42wl_k2kcCmEuTO8=", "properties": {"@spider": "usps_collection_boxes", "addr:city": "BIBLE SCH PK", "addr:country": "US", "addr:full": "400 RIVERSIDE DR", "addr:postcode": "13737", "addr:state": "NY", "brand": "USPS", "brand:wikidata": "Q668687", "collection_times": "Mo-Fr 16:30; Sa 12:00", "name": "USPS COLLECTION BOX - PO LOBBY", "note": "ON 12/24 AND 12/31, THIS BOX MAY BE COLLECTED AS EARLY AS 12 NOON.", "ref": "1373700002"}, "type": "Feature"}
{"geometry": {"coordinates": [-75.960998258, 42.101905669], "type": "Point"}, "id": "s4j4tolg1rfZSIe4fHFCjqUGozw=", "properties": {"@spider": "usps_collection_boxes", "addr:city": "BIBLE SCH PK", "addr:country": "US", "addr:full": "400 RIVERSIDE DR", "addr:postcode": "13737", "addr:state": "NY", "brand": "USPS", "brand:wikidata": "Q668687", "collection_times": "Mo-Fr 16:30; Sa 12:00", "name": "USPS COLLECTION BOX - PO LOBBY", "note": "ON 12/24 AND 12/31, THIS BOX MAY BE COLLECTED AS EARLY AS 12 NOON.", "ref": "1373700004"}, "type": "Feature"}
{"geometry": {"coordinates": [-76.12275, 42.568059], "type": "Point"}, "id": "PT4nzgIgQV0Ev3JG2L9WoELidGI=", "properties": {"@spider": "usps_collection_boxes", "addr:city": "BLODGETT MILLS", "addr:country": "US", "addr:full": "2320 BLODGETT MILLS RD", "addr:postcode": "13738", "addr:state": "NY", "brand": "USPS", "brand:wikidata": "Q668687", "collection_times": "Mo-Fr 16:30; Sa 11:45", "name": "USPS COLLECTION BOX - BLUE BOX", "note": "ON 12/24 AND 12/31, THIS BOX MAY BE COLLECTED AS EARLY AS 12 NOON.", "ref": "1373800001"}, "type": "Feature"}
{"geometry": {"coordinates": [-76.122869, 42.568094], "type": "Point"}, "id": "IYNJF6j9bi0_mdb3GpKEoYUhT38=", "properties": {"@spider": "usps_collection_boxes", "addr:city": "BLODGETT MILLS", "addr:country": "US", "addr:full": "2320 BLODGETT MILLS RD", "addr:postcode": "13738", "addr:state": "NY", "brand": "USPS", "brand:wikidata": "Q668687", "collection_times": "Mo-Fr 16:30; Sa 11:45", "name": "USPS COLLECTION BOX - PO LOBBY", "note": "ON 12/24 AND 12/31, THIS BOX MAY BE COLLECTED AS EARLY AS 12 NOON.", "ref": "1373800002"}, "type": "Feature"}
{"geometry": {"coordinates": [-76.122602644, 42.568042507], "type": "Point"}, "id": "HkRlGfK5CRuPtRJFm4OXIAUZJ6U=", "properties": {"@spider": "usps_collection_boxes", "addr:city": "BLODGETT MILLS", "addr:country": "US", "addr:full": "2320 BLODGETT MILLS RD", "addr:postcode": "13738", "addr:state": "NY", "brand": "USPS", "brand:wikidata": "Q668687", "collection_times": "Mo-Fr 16:30; Sa 11:45", "name": "USPS COLLECTION BOX - PO LOBBY", "note": "ON 12/24 AND 12/31, THIS BOX MAY BE COLLECTED AS EARLY AS 12 NOON.", "ref": "1373800003"}, "type": "Feature"}
{"geometry": {"coordinates": [-74.806590022, 42.332800018], "type": "Point"}, "id": "PzDissS1a0PdAyyfRkdPMKOCI-Y=", "properties": {"@spider": "usps_collection_boxes", "addr:city": "BLOOMVILLE", "addr:country": "US", "addr:full": "51996 STATE HIGHWAY 10", "addr:postcode": "13739", "addr:state": "NY", "brand": "USPS", "brand:wikidata": "Q668687", "collection_times": "Mo-Fr 12:00; Sa 11:45", "name": "USPS COLLECTION BOX - BLUE BOX", "ref": "1373900004"}, "type": "Feature"}
{"geometry": {"coordinates": [-76.337702, 42.227567], "type": "Point"}, "id": "xEnCkjXxouLZGixL7XXZjCI7ukQ=", "properties": {"@spider": "usps_collection_boxes", "addr:city": "CANDOR", "addr:country": "US", "addr:full": "62 MAIN ST", "addr:postcode": "13743", "addr:state": "NY", "brand": "USPS", "brand:wikidata": "Q668687", "collection_times": "Mo-Fr 16:45; Sa 12:00", "name": "USPS COLLECTION BOX - BLUE BOX", "note": "ON 12/24 AND 12/31, THIS BOX MAY BE COLLECTED AS EARLY AS 12 NOON.", "ref": "1374300001"}, "type": "Feature"}
{"geometry": {"coordinates": [-76.337733, 42.227553], "type": "Point"}, "id": "LbADJhwLuNhwQUVLu-wz5_oiP1o=", "properties": {"@spider": "usps_collection_boxes", "addr:city": "CANDOR", "addr:country": "US", "addr:full": "62 MAIN ST", "addr:postcode": "13743", "addr:state": "NY", "brand": "USPS", "brand:wikidata": "Q668687", "collection_times": "Mo-Fr 17:00; Sa 12:00", "name": "USPS COLLECTION BOX - PO LOBBY", "note": "ON 12/24 AND 12/31, THIS BOX MAY BE COLLECTED AS EARLY AS 12 NOON.", "ref": "1374300002"}, "type": "Feature"}
{"geometry": {"coordinates": [-76.337733, 42.227553], "type": "Point"}, "id": "v1C1vK5TrqNPlgyN6jRCpvp5tD4=", "properties": {"@spider": "usps_collection_boxes", "addr:city": "CANDOR", "addr:country": "US", "addr:full": "62 MAIN ST", "addr:postcode": "13743", "addr:state": "NY", "brand": "USPS", "brand:wikidata": "Q668687", "collection_times": "Mo-Fr 17:00; Sa 12:00", "name": "USPS COLLECTION BOX - PO LOBBY", "note": "ON 12/24 AND 12/31, THIS BOX MAY BE COLLECTED AS EARLY AS 12 NOON.", "ref": "1374300007"}, "type": "Feature"}
{"geometry": {"coordinates": [-76.337951523, 42.227862453], "type": "Point"}, "id": "6LmhjrAlhvrA_9G7GDrUkYWnYRg=", "properties": {"@spider": "usps_collection_boxes", "addr:city": "CANDOR", "addr:country": "US", "addr:full": "62 MAIN ST", "addr:postcode": "13743", "addr:state": "NY", "brand": "USPS", "brand:wikidata": "Q668687", "collection_times": "Mo-Fr 16:45; Sa 11:45", "name": "USPS COLLECTION BOX - PO LOBBY", "note": "ON 12/24 AND 12/31, THIS BOX MAY BE COLLECTED AS EARLY AS 12 NOON.", "ref": "1374300008"}, "type": "Feature"}
{"geometry": {"coordinates": [-75.874704, 42.168901], "type": "Point"}, "id": "GvfLCrWQxPsHpOhn5XtN6MXfVc0=", "properties": {"@spider": "usps_collection_boxes", "addr:city": "CHENANGO BRIDGE", "addr:country": "US", "addr:full": "511 MAIN ST", "addr:postcode": "13745", "addr:state": "NY", "brand": "USPS", "brand:wikidata": "Q668687", "collection_times": "Mo-Fr 16:00; Sa 12:00", "name": "USPS COLLECTION BOX - PO LOBBY", "note": "ON 12/24 AND 12/31, THIS BOX MAY BE COLLECTED AS EARLY AS 12 NOON.", "ref": "1374500001"}, "type": "Feature"}
{"geometry": {"coordinates": [-75.874704, 42.168901], "type": "Point"}, "id": "VPesLJqTpsW3UsarJjTNhLzz_qc=", "properties": {"@spider": "usps_collection_boxes", "addr:city": "CHENANGO BRIDGE", "addr:country": "US", "addr:full": "511 MAIN ST", "addr:postcode": "13745", "addr:state": "NY", "brand": "USPS", "brand:wikidata": "Q668687", "collection_times": "Mo-Fr 16:00; Sa 12:00", "name": "USPS COLLECTION BOX - BLUE BOX", "note": "ON 12/24 AND 12/31, THIS BOX MAY BE COLLECTED AS EARLY AS 12 NOON.", "ref": "1374500002"}, "type": "Feature"}
{"geometry": {"coordinates": [-75.874704, 42.168901], "type": "Point"}, "id": "0xL-87WxjPBf2yiaVZmdvNkpS4Q=", "properties": {"@spider": "usps_collection_boxes", "addr:city": "CHENANGO BRIDGE", "addr:country": "US", "addr:full": "511 MAIN ST", "addr:postcode": "13745", "addr:state": "NY", "brand": "USPS", "brand:wikidata": "Q668687", "collection_times": "Mo-Fr 16:00; Sa 12:00", "name": "USPS COLLECTION BOX - BLUE BOX", "note": "ON 12/24 AND 12/31, THIS BOX MAY BE COLLECTED AS EARLY AS 12 NOON.", "ref": "1374500003"}, "type": "Feature"}
{"geometry": {"coordinates": [-75.875062286, 42.168936454], "type": "Point"}, "id": "f4dv3iTwONIlJCL0tCTfzOhXQVc=", "properties": {"@spider": "usps_collection_boxes", "addr:city": "CHENANGO BRIDGE", "addr:country": "US", "addr:full": "511 MAIN ST", "addr:postcode": "13745", "addr:state": "NY", "brand": "USPS", "brand:wikidata": "Q668687", "collection_times": "Mo-Fr 16:00; Sa 12:00", "name": "USPS COLLECTION BOX - PO LOBBY", "note": "ON 12/24 AND 12/31, THIS BOX MAY BE COLLECTED AS EARLY AS 12 NOON.", "ref": "1374500005"}, "type": "Feature"}
{"geometry": {"coordinates": [-75.846092483, 42.240074373], "type": "Point"}, "id": "9X-zRtIW0O2MK_9qQxSTIEMJSqQ=", "properties": {"@spider": "usps_collection_boxes", "addr:city": "CHENANGO FORKS", "addr:country": "US", "addr:full": "6554 STATE ROUTE 79", "addr:postcode": "13746", "addr:state": "NY", "brand": "USPS", "brand:wikidata": "Q668687", "collection_times": "Mo-Fr 15:00; Sa 10:30", "name": "USPS COLLECTION BOX - BLUE BOX", "note": "ON 12/24 AND 12/31, THIS BOX MAY BE COLLECTED AS EARLY AS 12 NOON.", "ref": "1374600001"}, "type": "Feature"}
{"geometry": {"coordinates": [-75.816659, 42.216552], "type": "Point"}, "id": "m5Qfpu41eoyv67MeZZSY7lZbYqQ=", "properties": {"@spider": "usps_collection_boxes", "addr:city": "CHENANGO FORKS", "addr:country": "US", "addr:full": "895 STATE ROUTE 369", "addr:postcode": "13746", "addr:state": "NY", "brand": "USPS", "brand:wikidata": "Q668687", "collection_times": "Mo-Sa 11:30", "name": "USPS COLLECTION BOX - BLUE BOX", "ref": "1374600002"}, "type": "Feature"}
{"geometry": {"coordinates": [-75.846092483, 42.240074373], "type": "Point"}, "id": "IACB4FEY3y7nk6rhlf3dOMQ8Dlw=", "properties": {"@spider": "usps_collection_boxes", "addr:city": "CHENANGO FORKS", "addr:country": "US", "addr:full": "6554 STATE ROUTE 79", "addr:postcode": "13746", "addr:state": "NY", "brand": "USPS", "brand:wikidata": "Q668687", "collection_times": "Mo-Fr 15:00; Sa 10:30", "name": "USPS COLLECTION BOX - PO LOBBY", "note": "ON 12/24 AND 12/31, THIS BOX MAY BE COLLECTED AS EARLY AS 12 NOON.", "ref": "1374600003"}, "type": "Feature"}
{"geometry": {"coordinates": [-75.846092483, 42.240074373], "type": "Point"}, "id": "CwCg-0k1h5_CVO1HQZTm3cQHBhc=", "properties": {"@spider": "usps_collection_boxes", "addr:city": "CHENANGO FORKS", "addr:country": "US", "addr:full": "6554 STATE ROUTE 79", "addr:postcode": "13746", "addr:state": "NY", "brand": "USPS", "brand:wikidata": "Q668687", "collection_times": "Mo-Fr 15:00; Sa 11:00", "name": "USPS COLLECTION BOX - PO LOBBY", "note": "ON 12/24 AND 12/31, THIS BOX MAY BE COLLECTED AS EARLY AS 12 NOON.", "ref": "1374600005"}, "type": "Feature"}
{"geometry": {"coordinates": [-74.983209, 42.490569], "type": "Point"}, "id": "ua-ppBCNlbzLcB9Aqp4v2kUrhYc=", "properties": {"@spider": "usps_collection_boxes", "addr:city": "COLLIERSVILLE", "addr:country": "US", "addr:full": "6173 STATE HIGHWAY 7", "addr:postcode": "13747", "addr:state": "NY", "brand": "USPS", "brand:wikidata": "Q668687", "collection_times": "Mo-Fr 13:00; Sa 11:15", "name": "USPS COLLECTION BOX - BLUE BOX", "note": "ON 12/24 AND 12/31, THIS BOX MAY BE COLLECTED AS EARLY AS 12 NOON.", "ref": "1374700001"}, "type": "Feature"}
{"geometry": {"coordinates": [-74.983113, 42.49057], "type": "Point"}, "id": "CK4_DbfSFM9sXj8UOfynrWYQqg8=", "properties": {"@spider": "usps_collection_boxes", "addr:city": "COLLIERSVILLE", "addr:country": "US", "addr:full": "6173 STATE HIGHWAY 7", "addr:postcode": "13747", "addr:state": "NY", "brand": "USPS", "brand:wikidata": "Q668687", "collection_times": "Mo-Fr 13:00; Sa 11:30", "name": "USPS COLLECTION BOX - PO LOBBY", "note": "ON 12/24 AND 12/31, THIS BOX MAY BE COLLECTED AS EARLY AS 12 NOON.", "ref": "1374700002"}, "type": "Feature"}
{"geometry": {"coordinates": [-74.982792283, 42.490694743], "type": "Point"}, "id": "r955DDo7Od8O0JaYACrjOWAItiM=", "properties": {"@spider": "usps_collection_boxes", "addr:city": "COLLIERSVILLE", "addr:country": "US", "addr:full": "6173 STATE HIGHWAY 7", "addr:postcode": "13747", "addr:state": "NY", "brand": "USPS", "brand:wikidata": "Q668687", "collection_times": "Mo-Fr 13:00; Sa 11:30", "name": "USPS COLLECTION BOX - PO LOBBY", "note": "ON 12/24 AND 12/31, THIS BOX MAY BE COLLECTED AS EARLY AS 12 NOON.", "ref": "1374700004"}, "type": "Feature"}
{"geometry": {"coordinates": [-75.8154335, 42.071798], "type": "Point"}, "id": "Vf4JnBLC0GoISWUZZaIM3uq20Ac=", "properties": {"@spider": "usps_collection_boxes", "addr:city": "CONKLIN", "addr:country": "US", "addr:full": "1101 CONKLIN RD", "addr:postcode": "13748", "addr:state": "NY", "brand": "USPS", "brand:wikidata": "Q668687", "collection_times": "Mo-Fr 16:30; Sa 12:00", "name": "USPS COLLECTION BOX - BLUE BOX", "note": "ON 12/24 AND 12/31, THIS BOX MAY BE COLLECTED AS EARLY AS 12 NOON.", "ref": "1374800001"}, "type": "Feature"}
{"geometry": {"coordinates": [-75.8153708, 42.071785], "type": "Point"}, "id": "f9r8M11DEy1-etPrhjPFmi7b0LY=", "properties": {"@spider": "usps_collection_boxes", "addr:city": "CONKLIN", "addr:country": "US", "addr:full": "1101 CONKLIN RD", "addr:postcode": "13748", "addr:state": "NY", "brand": "USPS", "brand:wikidata": "Q668687", "collection_times": "Mo-Fr 16:30; Sa 12:00", "name": "USPS COLLECTION BOX - PO LOBBY", "note": "ON 12/24 AND 12/31, THIS BOX MAY BE COLLECTED AS EARLY AS 12 NOON.", "ref": "1374800002"}, "type": "Feature"}
{"geometry": {"coordinates": [-75.798667578, 42.023946574], "type": "Point"}, "id": "Go7Km4t48GM-liOM1nfJYwzgANw=", "properties": {"@spider": "usps_collection_boxes", "addr:city": "CONKLIN", "addr:country": "US", "addr:full": "1101 CONKLIN RD", "addr:postcode": "13748", "addr:state": "NY", "brand": "USPS", "brand:wikidata": "Q668687", "collection_times": "Mo-Fr 16:30; Sa 12:00", "name": "USPS COLLECTION BOX - PO LOBBY", "note": "ON 12/24 AND 12/31, THIS BOX MAY BE COLLECTED AS EARLY AS 12 NOON.", "ref": "1374800004"}, "type": "Feature"}
{"geometry": {"coordinates": [-75.789617, 42.014922], "type": "Point"}, "id": "6Fi1SUKxpbDxu7jbX4x4N4XhWM8=", "properties": {"@spider": "usps_collection_boxes", "addr:city": "CORBETTSVILLE", "addr:country": "US", "addr:full": "10 CORBETTSVILLE RD", "addr:postcode": "13749", "addr:state": "NY", "brand": "USPS", "brand:wikidata": "Q668687", "collection_times": "Mo-Fr 16:45; Sa 11:30", "name": "USPS COLLECTION BOX - BLUE BOX", "note": "ON 12/24 AND 12/31, THIS BOX MAY BE COLLECTED AS EARLY AS 12 NOON.", "ref": "1374900001"}, "type": "Feature"}
{"geometry": {"coordinates": [-75.789617, 42.014922], "type": "Point"}, "id": "bKFt8yPVa1dlATedZGriAhQusmQ=", "properties": {"@spider": "usps_collection_boxes", "addr:city": "CORBETTSVILLE", "addr:country": "US", "addr:full": "10 CORBETTSVILLE RD", "addr:postcode": "13749", "addr:state": "NY", "brand": "USPS", "brand:wikidata": "Q668687", "collection_times": "Mo-Fr 17:00; Sa 11:30", "name": "USPS COLLECTION BOX - PO LOBBY", "note": "ON 12/24 AND 12/31, THIS BOX MAY BE COLLECTED AS EARLY AS 12 NOON.", "ref": "1374900002"}, "type": "Feature"}
{"geometry": {"coordinates": [-75.790699694, 42.015549412], "type": "Point"}, "id": "O5lZ5LIuA080Pcu4_N10cToSl7o=", "properties": {"@spider": "usps_collection_boxes", "addr:city": "CORBETTSVILLE", "addr:country": "US", "addr:full": "10 CORBETTSVILLE RD", "addr:postcode": "13749", "addr:state": "NY", "brand": "USPS", "brand:wikidata": "Q668687", "collection_times": "Mo-Fr 17:00; Sa 11:15", "name": "USPS COLLECTION BOX - PO LOBBY", "note": "ON 12/24 AND 12/31, THIS BOX MAY BE COLLECTED AS EARLY AS 12 NOON.", "ref": "1374900003"}, "type": "Feature"}
{"geometry": {"coordinates": [-74.84786, 42.469878], "type": "Point"}, "id": "6LTgUXRLoJ_QozM4_dagm5QfK4A=", "properties": {"@spider": "usps_collection_boxes", "addr:city": "DAVENPORT", "addr:country": "US", "addr:full": "15682 STATE ROUTE 23", "addr:postcode": "13750", "addr:state": "NY", "brand": "USPS", "brand:wikidata": "Q668687", "collection_times": "Mo-Fr 15:30; Sa 11:45", "name": "USPS COLLECTION BOX - BLUE BOX", "note": "ON 12/24 AND 12/31, THIS BOX MAY BE COLLECTED AS EARLY AS 12 NOON.", "ref": "1375000001"}, "type": "Feature"}
{"geometry": {"coordinates": [-74.84851, 42.469554], "type": "Point"}, "id": "Z7eX2xXXysvsoUT-DYZeq9lHaTs=", "properties": {"@spider": "usps_collection_boxes", "addr:city": "DAVENPORT", "addr:country": "US", "addr:full": "15682 STATE HIGHWAY 23", "addr:postcode": "13750", "addr:state": "NY", "brand": "USPS", "brand:wikidata": "Q668687", "collection_times": "Mo-Fr 15:30; Sa 11:45", "name": "USPS COLLECTION BOX - PO LOBBY", "note": "ON 12/24 AND 12/31, THIS BOX MAY BE COLLECTED AS EARLY AS 12 NOON.", "ref": "1375000002"}, "type": "Feature"}
{"geometry": {"coordinates": [-74.848420473, 42.469600957], "type": "Point"}, "id": "hWP2W_qxQVNGltYO0Tcaa92TlfY=", "properties": {"@spider": "usps_collection_boxes", "addr:city": "DAVENPORT", "addr:country": "US", "addr:full": "15682 STATE HIGHWAY 23", "addr:postcode": "13750", "addr:state": "NY", "brand": "USPS", "brand:wikidata": "Q668687", "collection_times": "Mo-Fr 15:30; Sa 11:30", "name": "USPS COLLECTION BOX - PO LOBBY", "note": "ON 12/24 AND 12/31, THIS BOX MAY BE COLLECTED AS EARLY AS 12 NOON.", "ref": "1375000004"}, "type": "Feature"}
{"geometry": {"coordinates": [-74.913009099, 42.449548623], "type": "Point"}, "id": "LlCjAcw4SV6BrWnquevMuY-8Vhg=", "properties": {"@spider": "usps_collection_boxes", "addr:city": "DAVENPORT CENTER", "addr:country": "US", "addr:full": "11892 STATE HIGHWAY 23", "addr:postcode": "13751", "addr:state": "NY", "brand": "USPS", "brand:wikidata": "Q668687", "collection_times": "Mo-Fr 16:15; Sa 10:45", "name": "USPS COLLECTION BOX - BLUE BOX", "note": "ON 12/24 AND 12/31, THIS BOX MAY BE COLLECTED AS EARLY AS 12 NOON.", "ref": "1375100001"}, "type": "Feature"}
{"geometry": {"coordinates": [-74.913009099, 42.449548623], "type": "Point"}, "id": "6eQU0-_eAeEP_HVw1qWjQtCVuFY=", "properties": {"@spider": "usps_collection_boxes", "addr:city": "DAVENPORT CENTER", "addr:country": "US", "addr:full": "11892 STATE HIGHWAY 23", "addr:postcode": "13751", "addr:state": "NY", "brand": "USPS", "brand:wikidata": "Q668687", "collection_times": "Mo-Fr 11:30; Sa 10:45", "name": "USPS COLLECTION BOX - PO LOBBY", "ref": "1375100004"}, "type": "Feature"}
{"geometry": {"coordinates": [-74.917492, 42.278], "type": "Point"}, "id": "3lJiQXLRKioJQyODKk16cTLs_3Y=", "properties": {"@spider": "usps_collection_boxes", "addr:city": "DELHI", "addr:country": "US", "addr:full": "8 COURT ST", "addr:postcode": "13753", "addr:state": "NY", "brand": "USPS", "brand:wikidata": "Q668687", "collection_times": "Mo-Fr 17:00; Sa 12:00", "name": "USPS COLLECTION BOX - BLUE BOX", "note": "ON 12/24 AND 12/31, THIS BOX MAY BE COLLECTED AS EARLY AS 12 NOON.", "ref": "1375300001"}, "type": "Feature"}
{"geometry": {"coordinates": [-74.917507, 42.278051], "type": "Point"}, "id": "p7mp3zsn-T4wmCcgr_-izlfLhwc=", "properties": {"@spider": "usps_collection_boxes", "addr:city": "DELHI", "addr:country": "US", "addr:full": "8 COURT ST", "addr:postcode": "13753", "addr:state": "NY", "brand": "USPS", "brand:wikidata": "Q668687", "collection_times": "Mo-Fr 17:00; Sa 12:00", "name": "USPS COLLECTION BOX - BLUE BOX", "note": "ON 12/24 AND 12/31, THIS BOX MAY BE COLLECTED AS EARLY AS 12 NOON.", "ref": "1375300002"}, "type": "Feature"}
{"geometry": {"coordinates": [-74.917507, 42.278051], "type": "Point"}, "id": "KwZoYv3wKArjprcTqvmICmRIikQ=", "properties": {"@spider": "usps_collection_boxes", "addr:city": "DELHI", "addr:country": "US", "addr:full": "8 COURT ST", "addr:postcode": "13753", "addr:state": "NY", "brand": "USPS", "brand:wikidata": "Q668687", "collection_times": "Mo-Fr 17:00; Sa 12:00", "name": "USPS COLLECTION BOX - PO LOBBY", "note": "ON 12/24 AND 12/31, THIS BOX MAY BE COLLECTED AS EARLY AS 12 NOON.", "ref": "1375300003"}, "type": "Feature"}
{"geometry": {"coordinates": [-74.9178526, 42.276731], "type": "Point"}, "id": "-y7sjJgwUJNhv5NdekS_IJFJLFE=", "properties": {"@spider": "usps_collection_boxes", "addr:city": "DELHI", "addr:country": "US", "addr:full": "90 MAIN ST", "addr:postcode": "13753", "addr:state": "NY", "brand": "USPS", "brand:wikidata": "Q668687", "collection_times": "Mo-Sa 14:30", "name": "USPS COLLECTION BOX - BLUE BOX", "note": "ON 12/24 AND 12/31, THIS BOX MAY BE COLLECTED AS EARLY AS 12 NOON.", "ref": "1375300004"}, "type": "Feature"}
{"geometry": {"coordinates": [-74.9156750556, 42.2781519282], "type": "Point"}, "id": "lrtJ19mwiIubQPGsOq6pvTto2ag=", "properties": {"@spider": "usps_collection_boxes", "addr:city": "DELHI", "addr:country": "US", "addr:full": "121 MAIN ST", "addr:postcode": "13753", "addr:state": "NY", "brand": "USPS", "brand:wikidata": "Q668687", "collection_times": "Mo-Fr 13:30; Sa 10:00", "name": "USPS COLLECTION BOX - BLUE BOX", "note": "ON 12/24 AND 12/31, THIS BOX MAY BE COLLECTED AS EARLY AS 12 NOON.", "ref": "1375300005"}, "type": "Feature"}
{"geometry": {"coordinates": [-74.9196882, 42.275166], "type": "Point"}, "id": "kgX9o1udLJPUGySrBa2DbYncQds=", "properties": {"@spider": "usps_collection_boxes", "addr:city": "DELHI", "addr:country": "US", "addr:full": "47 MAIN ST", "addr:postcode": "13753", "addr:state": "NY", "brand": "USPS", "brand:wikidata": "Q668687", "collection_times": "Mo-Fr 14:30; Sa 10:00", "name": "USPS COLLECTION BOX - BLUE BOX", "note": "ON 12/24 AND 12/31, THIS BOX MAY BE COLLECTED AS EARLY AS 12 NOON.", "ref": "1375300006"}, "type": "Feature"}
{"geometry": {"coordinates": [-74.9222685, 42.2664000058], "type": "Point"}, "id": "N-8ZS-OanqYzXeTo9pgwEGUJDM8=", "properties": {"@spider": "usps_collection_boxes", "addr:city": "DELHI", "addr:country": "US", "addr:full": "1 MAIN ST", "addr:postcode": "13753", "addr:state": "NY", "brand": "USPS", "brand:wikidata": "Q668687", "collection_times": "Mo-Sa 10:00", "name": "USPS COLLECTION BOX - BLUE BOX", "ref": "1375300007"}, "type": "Feature"}
{"geometry": {"coordinates": [-74.9249169, 42.270014], "type": "Point"}, "id": "2QSA9w91YdVsvLbB7WgPcceIioA=", "properties": {"@spider": "usps_collection_boxes", "addr:city": "DELHI", "addr:country": "US", "addr:full": "649 BRONCO DR", "addr:postcode": "13753", "addr:state": "NY", "brand": "USPS", "brand:wikidata": "Q668687", "collection_times": "Mo-Fr 10:00", "name": "USPS COLLECTION BOX - BLUE BOX", "ref": "1375300009"}, "type": "Feature"}
{"geometry": {"coordinates": [-74.917507, 42.278051], "type": "Point"}, "id": "a_cq9jNknP_s4w_r4deqneznMbU=", "properties": {"@spider": "usps_collection_boxes", "addr:city": "DELHI", "addr:country": "US", "addr:full": "8 COURT ST", "addr:postcode": "13753", "addr:state": "NY", "brand": "USPS", "brand:wikidata": "Q668687", "collection_times": "Mo-Fr 17:00; Sa 12:00", "name": "USPS COLLECTION BOX - PO LOBBY", "note": "ON 12/24 AND 12/31, THIS BOX MAY BE COLLECTED AS EARLY AS 12 NOON.", "ref": "1375300015"}, "type": "Feature"}
{"geometry": {"coordinates": [-74.917390587, 42.277912137], "type": "Point"}, "id": "qeM0UW7sKgepv3j4NhheYNPudXY=", "properties": {"@spider": "usps_collection_boxes", "addr:city": "DELHI", "addr:country": "US", "addr:full": "8 COURT ST", "addr:postcode": "13753", "addr:state": "NY", "brand": "USPS", "brand:wikidata": "Q668687", "collection_times": "Mo-Fr 17:00; Sa 12:00", "name": "USPS COLLECTION BOX - PO LOBBY", "note": "ON 12/24 AND 12/31, THIS BOX MAY BE COLLECTED AS EARLY AS 12 NOON.", "ref": "1375300016"}, "type": "Feature"}
{"geometry": {"coordinates": [-75.4246251, 42.061656], "type": "Point"}, "id": "uScaYLbzMaECFDt4RD73Jcve7RY=", "properties": {"@spider": "usps_collection_boxes", "addr:city": "DEPOSIT", "addr:country": "US", "addr:full": "8 DEAN ST", "addr:postcode": "13754", "addr:state": "NY", "brand": "USPS", "brand:wikidata": "Q668687", "collection_times": "Mo-Fr 17:00; Sa 14:30", "name": "USPS COLLECTION BOX - BLUE BOX", "note": "ON 12/24 AND 12/31, THIS BOX MAY BE COLLECTED AS EARLY AS 12 NOON.", "ref": "1375400001"}, "type": "Feature"}
{"geometry": {"coordinates": [-75.4245681, 42.06182], "type": "Point"}, "id": "xTCN_MdxeB1moUGc4J3jrwdjH9s=", "properties": {"@spider": "usps_collection_boxes", "addr:city": "DEPOSIT", "addr:country": "US", "addr:full": "8 DEAN ST", "addr:postcode": "13754", "addr:state": "NY", "brand": "USPS", "brand:wikidata": "Q668687", "collection_times": "Mo-Fr 17:00; Sa 14:30", "name": "USPS COLLECTION BOX - PO LOBBY", "note": "ON 12/24 AND 12/31, THIS BOX MAY BE COLLECTED AS EARLY AS 12 NOON.", "ref": "1375400002"}, "type": "Feature"}
{"geometry": {"coordinates": [-75.4146084, 42.068142], "type": "Point"}, "id": "4v3WQ0QZtYeQyQg3APKyzSuUHhE=", "properties": {"@spider": "usps_collection_boxes", "addr:city": "DEPOSIT", "addr:country": "US", "addr:full": "85 FAIR ST", "addr:postcode": "13754", "addr:state": "NY", "brand": "USPS", "brand:wikidata": "Q668687", "collection_times": "Mo-Sa 09:00", "name": "USPS COLLECTION BOX - BLUE BOX", "ref": "1375400005"}, "type": "Feature"}
{"geometry": {"coordinates": [-75.4257826841, 42.0607169076], "type": "Point"}, "id": "to3Y_ZuhK1Mv1NWzomLG-EET72g=", "properties": {"@spider": "usps_collection_boxes", "addr:city": "DEPOSIT", "addr:country": "US", "addr:full": "146 FRONT ST", "addr:postcode": "13754", "addr:state": "NY", "brand": "USPS", "brand:wikidata": "Q668687", "collection_times": "Mo-Sa 13:15", "name": "USPS COLLECTION BOX - BLUE BOX", "note": "ON 12/24 AND 12/31, THIS BOX MAY BE COLLECTED AS EARLY AS 12 NOON.", "ref": "1375400009"}, "type": "Feature"}
{"geometry": {"coordinates": [-75.424327095, 42.061701782], "type": "Point"}, "id": "gkoVBONSUUuwm8k0sR-EI42-ecw=", "properties": {"@spider": "usps_collection_boxes", "addr:city": "DEPOSIT", "addr:country": "US", "addr:full": "8 DEAN ST", "addr:postcode": "13754", "addr:state": "NY", "brand": "USPS", "brand:wikidata": "Q668687", "collection_times": "Mo-Fr 17:00; Sa 12:00", "name": "USPS COLLECTION BOX - PO LOBBY", "note": "ON 12/24 AND 12/31, THIS BOX MAY BE COLLECTED AS EARLY AS 12 NOON.", "ref": "1375400011"}, "type": "Feature"}
{"geometry": {"coordinates": [-74.994749, 42.079943], "type": "Point"}, "id": "bSvIiC16kMpt6xvPGgWWLDTmaBU=", "properties": {"@spider": "usps_collection_boxes", "addr:city": "DOWNSVILLE", "addr:country": "US", "addr:full": "15126 STATE HIGHWAY 30", "addr:postcode": "13755", "addr:state": "NY", "brand": "USPS", "brand:wikidata": "Q668687", "collection_times": "Mo-Fr 16:30; Sa 11:30", "name": "USPS COLLECTION BOX - BLUE BOX", "note": "ON 12/24 AND 12/31, THIS BOX MAY BE COLLECTED AS EARLY AS 12 NOON.", "ref": "1375500001"}, "type": "Feature"}
{"geometry": {"coordinates": [-74.994685, 42.07992], "type": "Point"}, "id": "-eYPbqm1eLtr8dMnlQNdQtJsFcw=", "properties": {"@spider": "usps_collection_boxes", "addr:city": "DOWNSVILLE", "addr:country": "US", "addr:full": "15126 STATE HIGHWAY 30", "addr:postcode": "13755", "addr:state": "NY", "brand": "USPS", "brand:wikidata": "Q668687", "collection_times": "Mo-Fr 16:45; Sa 11:45", "name": "USPS COLLECTION BOX - PO LOBBY", "note": "ON 12/24 AND 12/31, THIS BOX MAY BE COLLECTED AS EARLY AS 12 NOON.", "ref": "1375500002"}, "type": "Feature"}
{"geometry": {"coordinates": [-74.994837469, 42.080024976], "type": "Point"}, "id": "X_cVDYcM7m3SbvFINYUED5ILIXs=", "properties": {"@spider": "usps_collection_boxes", "addr:city": "DOWNSVILLE", "addr:country": "US", "addr:full": "15126 STATE HIGHWAY 30", "addr:postcode": "13755", "addr:state": "NY", "brand": "USPS", "brand:wikidata": "Q668687", "collection_times": "Mo-Fr 16:45; Sa 11:30", "name": "USPS COLLECTION BOX - PO LOBBY", "note": "ON 12/24 AND 12/31, THIS BOX MAY BE COLLECTED AS EARLY AS 12 NOON.", "ref": "1375500004"}, "type": "Feature"}
{"geometry": {"coordinates": [-75.135995, 41.988975], "type": "Point"}, "id": "CN96GP3qwFu-hvDg1TjYKGNXr7k=", "properties": {"@spider": "usps_collection_boxes", "addr:city": "EAST BRANCH", "addr:country": "US", "addr:full": "3979 O AND W RD", "addr:postcode": "13756", "addr:state": "NY", "brand": "USPS", "brand:wikidata": "Q668687", "collection_times": "Mo-Fr 12:00; Sa 11:45", "name": "USPS COLLECTION BOX - BLUE BOX", "ref": "1375600001"}, "type": "Feature"}
{"geometry": {"coordinates": [-75.135994, 41.988971], "type": "Point"}, "id": "ZXjkg7q9pzhVNJg7Aa3upFTsgj8=", "properties": {"@spider": "usps_collection_boxes", "addr:city": "EAST BRANCH", "addr:country": "US", "addr:full": "3979 O & W RD", "addr:postcode": "13756", "addr:state": "NY", "brand": "USPS", "brand:wikidata": "Q668687", "collection_times": "Mo-Fr 12:00; Sa 11:45", "name": "USPS COLLECTION BOX - PO LOBBY", "ref": "1375600002"}, "type": "Feature"}
{"geometry": {"coordinates": [-75.135097342, 41.98874403], "type": "Point"}, "id": "fnS8jrB0tPBb1c4tVSxSJhOnxVM=", "properties": {"@spider": "usps_collection_boxes", "addr:city": "EAST BRANCH", "addr:country": "US", "addr:full": "3979 O AND W RD", "addr:postcode": "13756", "addr:state": "NY", "brand": "USPS", "brand:wikidata": "Q668687", "collection_times": "Mo-Fr 12:00; Sa 11:45", "name": "USPS COLLECTION BOX - PO LOBBY", "ref": "1375600003"}, "type": "Feature"}
{"geometry": {"coordinates": [-74.886307, 42.422557], "type": "Point"}, "id": "7JVqHgQjVpJSXv_DpNuyAldta_w=", "properties": {"@spider": "usps_collection_boxes", "addr:city": "EAST MEREDITH", "addr:country": "US", "addr:full": "51 N COUNTY RT 12", "addr:postcode": "13757", "addr:state": "NY", "brand": "USPS", "brand:wikidata": "Q668687", "collection_times": "Mo-Fr 12:00; Sa 11:30", "name": "USPS COLLECTION BOX - BLUE BOX", "ref": "1375700001"}, "type": "Feature"}
{"geometry": {"coordinates": [-74.886307, 42.422558], "type": "Point"}, "id": "DmMCpj0LjZs8UVrBeNe_-x28Ndc=", "properties": {"@spider": "usps_collection_boxes", "addr:city": "EAST MEREDITH", "addr:country": "US", "addr:full": "51 N COUNTY RT 12", "addr:postcode": "13757", "addr:state": "NY", "brand": "USPS", "brand:wikidata": "Q668687", "collection_times": "Mo-Fr 12:00; Sa 11:45", "name": "USPS COLLECTION BOX - PO LOBBY", "ref": "1375700002"}, "type": "Feature"}
{"geometry": {"coordinates": [-74.886344425, 42.422569243], "type": "Point"}, "id": "DvsqIh1Lj3xr9D0i5-ntFyFJanQ=", "properties": {"@spider": "usps_collection_boxes", "addr:city": "EAST MEREDITH", "addr:country": "US", "addr:full": "51 COUNTY HIGHWAY 12", "addr:postcode": "13757", "addr:state": "NY", "brand": "USPS", "brand:wikidata": "Q668687", "collection_times": "Mo-Fr 12:00; Sa 11:45", "name": "USPS COLLECTION BOX - PO LOBBY", "ref": "1375700003"}, "type": "Feature"}
{"geometry": {"coordinates": [-76.04804, 42.100623], "type": "Point"}, "id": "w1chfed3qj-VxZhmz0WlgDCcnv0=", "properties": {"@spider": "usps_collection_boxes", "addr:city": "ENDICOTT", "addr:country": "US", "addr:full": "200 WASHINGTON AVE", "addr:postcode": "13760", "addr:state": "NY", "brand": "USPS", "brand:wikidata": "Q668687", "collection_times": "Mo-Fr 17:30; Sa 16:00", "name": "USPS COLLECTION BOX - PO LOBBY", "note": "ON 12/24 AND 12/31, THIS BOX MAY BE COLLECTED AS EARLY AS 12 NOON.", "ref": "1376000002"}, "type": "Feature"}
{"geometry": {"coordinates": [-76.049051, 42.100705], "type": "Point"}, "id": "D25KIBfrn8Ym7ELmaFG8uwOCDB8=", "properties": {"@spider": "usps_collection_boxes", "addr:city": "ENDICOTT", "addr:country": "US", "addr:full": "1201 BROAD ST", "addr:postcode": "13760", "addr:state": "NY", "brand": "USPS", "brand:wikidata": "Q668687", "collection_times": "Mo-Fr 17:45; Sa 16:00", "name": "USPS COLLECTION BOX - BLUE BOX", "note": "ON 12/24 AND 12/31, THIS BOX MAY BE COLLECTED AS EARLY AS 12 NOON.", "ref": "1376000003"}, "type": "Feature"}
{"geometry": {"coordinates": [-76.0652749, 42.09462], "type": "Point"}, "id": "a8zogigI9q6E2_1h-n0ozwzeM8E=", "properties": {"@spider": "usps_collection_boxes", "addr:city": "ENDICOTT", "addr:country": "US", "addr:full": "311 EXCHANGE AVE", "addr:postcode": "13760", "addr:state": "NY", "brand": "USPS", "brand:wikidata": "Q668687", "collection_times": "Mo-Fr 17:00; Sa 14:30", "name": "USPS COLLECTION BOX - BLUE BOX", "note": "ON 12/24 AND 12/31, THIS BOX MAY BE COLLECTED AS EARLY AS 12 NOON.", "ref": "1376000005"}, "type": "Feature"}
{"geometry": {"coordinates": [-76.0652519, 42.094616], "type": "Point"}, "id": "cLqCcD0tdg3vHxLFkLkPYJIZUX8=", "properties": {"@spider": "usps_collection_boxes", "addr:city": "ENDICOTT", "addr:country": "US", "addr:full": "311 EXCHANGE AVE", "addr:postcode": "13760", "addr:state": "NY", "brand": "USPS", "brand:wikidata": "Q668687", "collection_times": "Mo-Fr 17:00; Sa 14:30", "name": "USPS COLLECTION BOX - BLUE BOX", "note": "ON 12/24 AND 12/31, THIS BOX MAY BE COLLECTED AS EARLY AS 12 NOON.", "ref": "1376000006"}, "type": "Feature"}
{"geometry": {"coordinates": [-76.0243076806, 42.1200603702], "type": "Point"}, "id": "v98oG8h5JBBrw7vC0lKRlTtzvFw=", "properties": {"@spider": "usps_collection_boxes", "addr:city": "ENDICOTT", "addr:country": "US", "addr:full": "801 LYNCOURT DR", "addr:postcode": "13760", "addr:state": "NY", "brand": "USPS", "brand:wikidata": "Q668687", "collection_times": "Mo-Sa 11:30", "name": "USPS COLLECTION BOX - BLUE BOX", "ref": "1376000021"}, "type": "Feature"}
{"geometry": {"coordinates": [-76.0382059, 42.115276], "type": "Point"}, "id": "u6dq8o4IsMk16ro5JjqBjw1VIqs=", "properties": {"@spider": "usps_collection_boxes", "addr:city": "ENDICOTT", "addr:country": "US", "addr:full": "2202 COUNTRY CLUB RD", "addr:postcode": "13760", "addr:state": "NY", "brand": "USPS", "brand:wikidata": "Q668687", "collection_times": "Mo-Sa 09:30", "name": "USPS COLLECTION BOX - BLUE BOX", "ref": "1376000024"}, "type": "Feature"}
{"geometry": {"coordinates": [-76.0717415, 42.111733], "type": "Point"}, "id": "sD_bkmEjO9gIHfrhUO0ATXI576c=", "properties": {"@spider": "usps_collection_boxes", "addr:city": "ENDICOTT", "addr:country": "US", "addr:full": "412 DAY HOLLOW RD", "addr:postcode": "13760", "addr:state": "NY", "brand": "USPS", "brand:wikidata": "Q668687", "collection_times": "Mo-Sa 10:00", "name": "USPS COLLECTION BOX - BLUE BOX", "ref": "1376000025"}, "type": "Feature"}
{"geometry": {"coordinates": [-76.0192949, 42.116314], "type": "Point"}, "id": "dA-l6vWCQguzjytGH2-qHZfOEcA=", "properties": {"@spider": "usps_collection_boxes", "addr:city": "ENDICOTT", "addr:country": "US", "addr:full": "3521 COUNTRY CLUB RD", "addr:postcode": "13760", "addr:state": "NY", "brand": "USPS", "brand:wikidata": "Q668687", "collection_times": "Mo-Fr 16:30; Sa 09:30", "name": "USPS COLLECTION BOX - BLUE BOX", "note": "ON 12/24 AND 12/31, THIS BOX MAY BE COLLECTED AS EARLY AS 12 NOON.", "ref": "1376000028"}, "type": "Feature"}
{"geometry": {"coordinates": [-76.039806, 42.102266], "type": "Point"}, "id": "MOos1qCbLfuyRxnVpP1lwxdkHEA=", "properties": {"@spider": "usps_collection_boxes", "addr:city": "ENDICOTT", "addr:country": "US", "addr:full": "1910 E MAIN ST", "addr:postcode": "13760", "addr:state": "NY", "brand": "USPS", "brand:wikidata": "Q668687", "collection_times": "Mo-Fr 16:30; Sa 14:00", "name": "USPS COLLECTION BOX - BLUE BOX", "note": "ON 12/24 AND 12/31, THIS BOX MAY BE COLLECTED AS EARLY AS 12 NOON.", "ref": "1376000040"}, "type": "Feature"}
{"geometry": {"coordinates": [-76.0856004, 42.102766], "type": "Point"}, "id": "4p0k4sAyOmDPJSr1lLlSE7-PK-g=", "properties": {"@spider": "usps_collection_boxes", "addr:city": "ENDICOTT", "addr:country": "US", "addr:full": "401 GLENDALE DR", "addr:postcode": "13760", "addr:state": "NY", "brand": "USPS", "brand:wikidata": "Q668687", "collection_times": "Mo-Sa 13:00", "name": "USPS COLLECTION BOX - BLUE BOX", "note": "ON 12/24 AND 12/31, THIS BOX MAY BE COLLECTED AS EARLY AS 12 NOON.", "ref": "1376000041"}, "type": "Feature"}
{"geometry": {"coordinates": [-76.0736599, 42.099139], "type": "Point"}, "id": "MVea0oXcmdDeT7TQ6r7oPlAXlVM=", "properties": {"@spider": "usps_collection_boxes", "addr:city": "ENDICOTT", "addr:country": "US", "addr:full": "113 N PAGE AVE", "addr:postcode": "13760", "addr:state": "NY", "brand": "USPS", "brand:wikidata": "Q668687", "collection_times": "Mo-Sa 12:00", "name": "USPS COLLECTION BOX - BLUE BOX", "ref": "1376000044"}, "type": "Feature"}
{"geometry": {"coordinates": [-76.0133039, 42.116815], "type": "Point"}, "id": "vlLLqMgpqsFbwaKSmtoG6p0eTOs=", "properties": {"@spider": "usps_collection_boxes", "addr:city": "ENDICOTT", "addr:country": "US", "addr:full": "3639 COUNTRY CLUB RD", "addr:postcode": "13760", "addr:state": "NY", "brand": "USPS", "brand:wikidata": "Q668687", "collection_times": "Mo-Sa 10:00", "name": "USPS COLLECTION BOX - BLUE BOX", "ref": "1376000048"}, "type": "Feature"}
{"geometry": {"coordinates": [-76.0218814, 42.106641], "type": "Point"}, "id": "J3doPobT3-q7fpHjhrTMy4jA2CQ=", "properties": {"@spider": "usps_collection_boxes", "addr:city": "ENDICOTT", "addr:country": "US", "addr:full": "3225 E MAIN ST", "addr:postcode": "13760", "addr:state": "NY", "brand": "USPS", "brand:wikidata": "Q668687", "collection_times": "Mo-Fr 16:30; Sa 14:00", "name": "USPS COLLECTION BOX - BLUE BOX", "note": "ON 12/24 AND 12/31, THIS BOX MAY BE COLLECTED AS EARLY AS 12 NOON.", "ref": "1376000053"}, "type": "Feature"}
{"geometry": {"coordinates": [-76.0661761, 42.09557], "type": "Point"}, "id": "CfIA7Oi4QG0ZP02Q1xr1QQPZsaM=", "properties": {"@spider": "usps_collection_boxes", "addr:city": "ENDICOTT", "addr:country": "US", "addr:full": "117 W MAIN ST", "addr:postcode": "13760", "addr:state": "NY", "brand": "USPS", "brand:wikidata": "Q668687", "collection_times": "Mo-Fr 17:00; Sa 12:00", "name": "USPS COLLECTION BOX - BLUE BOX", "note": "ON 12/24 AND 12/31, THIS BOX MAY BE COLLECTED AS EARLY AS 12 NOON.", "ref": "1376000058"}, "type": "Feature"}
{"geometry": {"coordinates": [-76.0539257, 42.096165], "type": "Point"}, "id": "TJyWHxMa2CXBpdQrWAHEvkHg_sk=", "properties": {"@spider": "usps_collection_boxes", "addr:city": "ENDICOTT", "addr:country": "US", "addr:full": "609 E MAIN ST", "addr:postcode": "13760", "addr:state": "NY", "brand": "USPS", "brand:wikidata": "Q668687", "collection_times": "Mo-Fr 09:00; Sa 08:30", "name": "USPS COLLECTION BOX - BLUE BOX", "ref": "1376000060"}, "type": "Feature"}
{"geometry": {"coordinates": [-76.0690677, 42.103172], "type": "Point"}, "id": "blJ0ZRvuTBEOujrhQjnH6-FxuZg=", "properties": {"@spider": "usps_collection_boxes", "addr:city": "ENDICOTT", "addr:country": "US", "addr:full": "300 JUNE ST", "addr:postcode": "13760", "addr:state": "NY", "brand": "USPS", "brand:wikidata": "Q668687", "collection_times": "Mo-Sa 09:30", "name": "USPS COLLECTION BOX - BLUE BOX", "ref": "1376000065"}, "type": "Feature"}
{"geometry": {"coordinates": [-76.0350752, 42.10667], "type": "Point"}, "id": "VkHbCOPd8IvC-oq0cNMQp0dOQcQ=", "properties": {"@spider": "usps_collection_boxes", "addr:city": "ENDICOTT", "addr:country": "US", "addr:full": "2310 NORTH ST", "addr:postcode": "13760", "addr:state": "NY", "brand": "USPS", "brand:wikidata": "Q668687", "collection_times": "Mo-Fr 16:45; Sa 11:00", "name": "USPS COLLECTION BOX - BLUE BOX", "note": "ON 12/24 AND 12/31, THIS BOX MAY BE COLLECTED AS EARLY AS 12 NOON.", "ref": "1376000069"}, "type": "Feature"}
{"geometry": {"coordinates": [-76.02909, 42.128366], "type": "Point"}, "id": "aEiNkbx3wQ2HnYYy38f_W3redg0=", "properties": {"@spider": "usps_collection_boxes", "addr:city": "ENDICOTT", "addr:country": "US", "addr:full": "800 HOOPER RD", "addr:postcode": "13760", "addr:state": "NY", "brand": "USPS", "brand:wikidata": "Q668687", "collection_times": "Mo-Sa 13:00", "name": "USPS COLLECTION BOX - BLUE BOX", "note": "ON 12/24 AND 12/31, THIS BOX MAY BE COLLECTED AS EARLY AS 12 NOON.", "ref": "1376000074"}, "type": "Feature"}
{"geometry": {"coordinates": [-76.0495017, 42.114764], "type": "Point"}, "id": "Sc6CrW7sI9BAKsxZEWwqmBPHGE4=", "properties": {"@spider": "usps_collection_boxes", "addr:city": "ENDICOTT", "addr:country": "US", "addr:full": "333 ODELL AVE", "addr:postcode": "13760", "addr:state": "NY", "brand": "USPS", "brand:wikidata": "Q668687", "collection_times": "Mo-Sa 09:30", "name": "USPS COLLECTION BOX - BLUE BOX", "ref": "1376000075"}, "type": "Feature"}
{"geometry": {"coordinates": [-76.0174505, 42.119338], "type": "Point"}, "id": "R0HRzOJkV6MuF1yjVqY-yYDDchY=", "properties": {"@spider": "usps_collection_boxes", "addr:city": "ENDICOTT", "addr:country": "US", "addr:full": "500 WINSTON DR", "addr:postcode": "13760", "addr:state": "NY", "brand": "USPS", "brand:wikidata": "Q668687", "collection_times": "Mo-Sa 12:00", "name": "USPS COLLECTION BOX - BLUE BOX", "ref": "1376000076"}, "type": "Feature"}
{"geometry": {"coordinates": [-76.0259808, 42.106464], "type": "Point"}, "id": "cc3P6r8HxuaQqzrg8J8wDUrtzYo=", "properties": {"@spider": "usps_collection_boxes", "addr:city": "ENDICOTT", "addr:country": "US", "addr:full": "3111 E MAIN ST", "addr:postcode": "13760", "addr:state": "NY", "brand": "USPS", "brand:wikidata": "Q668687", "collection_times": "Mo-Fr 16:45; Sa 14:00", "name": "USPS COLLECTION BOX - BLUE BOX", "note": "ON 12/24 AND 12/31, THIS BOX MAY BE COLLECTED AS EARLY AS 12 NOON.", "ref": "1376000079"}, "type": "Feature"}
{"geometry": {"coordinates": [-76.0482395, 42.102528], "type": "Point"}, "id": "79M-Hb9whj9cbD6-v787Y5mQpQw=", "properties": {"@spider": "usps_collection_boxes", "addr:city": "ENDICOTT", "addr:country": "US", "addr:full": "60 WASHINGTON AVE", "addr:postcode": "13760", "addr:state": "NY", "brand": "USPS", "brand:wikidata": "Q668687", "collection_times": "Mo-Fr 17:00; Sa 13:30", "name": "USPS COLLECTION BOX - BLUE BOX", "note": "ON 12/24 AND 12/31, THIS BOX MAY BE COLLECTED AS EARLY AS 12 NOON.", "ref": "1376000080"}, "type": "Feature"}
{"geometry": {"coordinates": [-76.0484103, 42.104536], "type": "Point"}, "id": "g1GEhmMFfSUFgzFmMmqGWtHYNZ0=", "properties": {"@spider": "usps_collection_boxes", "addr:city": "ENDICOTT", "addr:country": "US", "addr:full": "2 WASHINGTON AVE", "addr:postcode": "13760", "addr:state": "NY", "brand": "USPS", "brand:wikidata": "Q668687", "collection_times": "Mo-Fr 17:00; Sa 13:30", "name": "USPS COLLECTION BOX - BLUE BOX", "note": "ON 12/24 AND 12/31, THIS BOX MAY BE COLLECTED AS EARLY AS 12 NOON.", "ref": "1376000081"}, "type": "Feature"}
{"geometry": {"coordinates": [-76.0240359, 42.116109], "type": "Point"}, "id": "Te_bdYu7k5ARyWe5_fy0ut8Wzr8=", "properties": {"@spider": "usps_collection_boxes", "addr:city": "ENDICOTT", "addr:country": "US", "addr:full": "3301 COUNTRY CLUB RD", "addr:postcode": "13760", "addr:state": "NY", "brand": "USPS", "brand:wikidata": "Q668687", "collection_times": "Mo-Fr 16:30; Sa 10:00", "name": "USPS COLLECTION BOX - BLUE BOX", "note": "ON 12/24 AND 12/31, THIS BOX MAY BE COLLECTED AS EARLY AS 12 NOON.", "ref": "1376000113"}, "type": "Feature"}
{"geometry": {"coordinates": [-76.0924594, 42.095825], "type": "Point"}, "id": "f0AAVgCggy0fFjivDxGAxppAO2Y=", "properties": {"@spider": "usps_collection_boxes", "addr:city": "ENDICOTT", "addr:country": "US", "addr:full": "201 GLENDALE DR", "addr:postcode": "13760", "addr:state": "NY", "brand": "USPS", "brand:wikidata": "Q668687", "collection_times": "Mo-Fr 15:00", "name": "USPS COLLECTION BOX - BLUE BOX", "note": "ON 12/24 AND 12/31, THIS BOX MAY BE COLLECTED AS EARLY AS 12 NOON.", "ref": "1376000114"}, "type": "Feature"}
{"geometry": {"coordinates": [-76.0520593, 42.104968], "type": "Point"}, "id": "DyLaE6UZ6gCChNYNK9DpFN4k1Yc=", "properties": {"@spider": "usps_collection_boxes", "addr:city": "ENDICOTT", "addr:country": "US", "addr:full": "911 NORTH ST", "addr:postcode": "13760", "addr:state": "NY", "brand": "USPS", "brand:wikidata": "Q668687", "collection_times": "Mo-Fr 16:45; Sa 14:00", "name": "USPS COLLECTION BOX - BLUE BOX", "note": "ON 12/24 AND 12/31, THIS BOX MAY BE COLLECTED AS EARLY AS 12 NOON.", "ref": "1376000116"}, "type": "Feature"}
{"geometry": {"coordinates": [-76.049051, 42.100702], "type": "Point"}, "id": "nm0bkN9idwOZt01yxOM01FjOGCo=", "properties": {"@spider": "usps_collection_boxes", "addr:city": "ENDICOTT", "addr:country": "US", "addr:full": "1201 BROAD ST", "addr:postcode": "13760", "addr:state": "NY", "brand": "USPS", "brand:wikidata": "Q668687", "collection_times": "Mo-Fr 17:45; Sa 16:00", "name": "USPS COLLECTION BOX - BLUE BOX", "note": "ON 12/24 AND 12/31, THIS BOX MAY BE COLLECTED AS EARLY AS 12 NOON.", "ref": "1376000126"}, "type": "Feature"}
{"geometry": {"coordinates": [-76.0437458, 42.109526], "type": "Point"}, "id": "wJQ1Bcka9VOYY2sNfRCJ8OFzyso=", "properties": {"@spider": "usps_collection_boxes", "addr:city": "ENDICOTT", "addr:country": "US", "addr:full": "1701 WATSON BLVD", "addr:postcode": "13760", "addr:state": "NY", "brand": "USPS", "brand:wikidata": "Q668687", "collection_times": "Mo-Sa 15:00", "name": "USPS COLLECTION BOX - BLUE BOX", "note": "ON 12/24 AND 12/31, THIS BOX MAY BE COLLECTED AS EARLY AS 12 NOON.", "ref": "1376000127"}, "type": "Feature"}
{"geometry": {"coordinates": [-76.065271, 42.094674], "type": "Point"}, "id": "uGwHle0gYYzn0sJXRrrhQtrahNg=", "properties": {"@spider": "usps_collection_boxes", "addr:city": "ENDICOTT", "addr:country": "US", "addr:full": "311 EXCHANGE AVE", "addr:postcode": "13760", "addr:state": "NY", "brand": "USPS", "brand:wikidata": "Q668687", "collection_times": "Mo-Fr 17:00; Sa 13:00", "name": "USPS COLLECTION BOX - PO LOBBY", "note": "ON 12/24 AND 12/31, THIS BOX MAY BE COLLECTED AS EARLY AS 12 NOON.", "ref": "1376000128"}, "type": "Feature"}
{"geometry": {"coordinates": [-76.044979, 42.101215], "type": "Point"}, "id": "r0hXzPYrFGC1FlOcx5vZ5vMEKpk=", "properties": {"@spider": "usps_collection_boxes", "addr:city": "ENDICOTT", "addr:country": "US", "addr:full": "111 GRANT AVE", "addr:postcode": "13760", "addr:state": "NY", "brand": "USPS", "brand:wikidata": "Q668687", "collection_times": "Mo-Fr 15:00; Sa 14:00", "name": "USPS COLLECTION BOX - BLUE BOX", "note": "ON 12/24 AND 12/31, THIS BOX MAY BE COLLECTED AS EARLY AS 12 NOON.", "ref": "1376000129"}, "type": "Feature"}
{"geometry": {"coordinates": [-76.065256142, 42.094469373], "type": "Point"}, "id": "rDww9GPgAKdAraQiL9U0TIfw2PA=", "properties": {"@spider": "usps_collection_boxes", "addr:city": "ENDICOTT", "addr:country": "US", "addr:full": "311 EXCHANGE AVE", "addr:postcode": "13760", "addr:state": "NY", "brand": "USPS", "brand:wikidata": "Q668687", "collection_times": "Mo-Fr 17:00; Sa 13:00", "name": "USPS COLLECTION BOX - PO LOBBY", "note": "ON 12/24 AND 12/31, THIS BOX MAY BE COLLECTED AS EARLY AS 12 NOON.", "ref": "1376000134"}, "type": "Feature"}
{"geometry": {"coordinates": [-76.048019363, 42.100352099], "type": "Point"}, "id": "quGW518bms0d2XTymz1f7YZ2aO4=", "properties": {"@spider": "usps_collection_boxes", "addr:city": "ENDICOTT", "addr:country": "US", "addr:full": "200 WASHINGTON AVE", "addr:postcode": "13760", "addr:state": "NY", "brand": "USPS", "brand:wikidata": "Q668687", "collection_times": "Mo-Fr 17:00", "name": "USPS COLLECTION BOX - PO LOBBY", "note": "ON 12/24 AND 12/31, THIS BOX MAY BE COLLECTED AS EARLY AS 12 NOON.", "ref": "1376000135"}, "type": "Feature"}
{"geometry": {"coordinates": [-75.173754315, 41.966087823], "type": "Point"}, "id": "SkgW7cI2HJ2zjvgPUUG3LECYr4o=", "properties": {"@spider": "usps_collection_boxes", "addr:city": "FISHS EDDY", "addr:country": "US", "addr:full": "252 POST OFFICE ST", "addr:postcode": "13774", "addr:state": "NY", "brand": "USPS", "brand:wikidata": "Q668687", "collection_times": "Mo-Fr 12:00; Sa 11:30", "name": "USPS COLLECTION BOX - BLUE BOX", "ref": "1377400001"}, "type": "Feature"}
{"geometry": {"coordinates": [-75.165055, 42.340495], "type": "Point"}, "id": "TS1p_yD8BNh7m9xaFvqYguMkVis=", "properties": {"@spider": "usps_collection_boxes", "addr:city": "FRANKLIN", "addr:country": "US", "addr:full": "450 MAIN ST", "addr:postcode": "13775", "addr:state": "NY", "brand": "USPS", "brand:wikidata": "Q668687", "collection_times": "Mo-Fr 16:30; Sa 11:30", "name": "USPS COLLECTION BOX - BLUE BOX", "note": "ON 12/24 AND 12/31, THIS BOX MAY BE COLLECTED AS EARLY AS 12 NOON.", "ref": "1377500001"}, "type": "Feature"}
{"geometry": {"coordinates": [-75.165047, 42.340565], "type": "Point"}, "id": "yvqq05HIqlEwDIDB0oKQVDF6TYw=", "properties": {"@spider": "usps_collection_boxes", "addr:city": "FRANKLIN", "addr:country": "US", "addr:full": "450 MAIN ST", "addr:postcode": "13775", "addr:state": "NY", "brand": "USPS", "brand:wikidata": "Q668687", "collection_times": "Mo-Fr 16:30; Sa 11:30", "name": "USPS COLLECTION BOX - PO LOBBY", "note": "ON 12/24 AND 12/31, THIS BOX MAY BE COLLECTED AS EARLY AS 12 NOON.", "ref": "1377500002"}, "type": "Feature"}
{"geometry": {"coordinates": [-75.165175652, 42.340328969], "type": "Point"}, "id": "9kuHR9gR7du0ssDgdfaqYNdCfDA=", "properties": {"@spider": "usps_collection_boxes", "addr:city": "FRANKLIN", "addr:country": "US", "addr:full": "450 MAIN ST", "addr:postcode": "13775", "addr:state": "NY", "brand": "USPS", "brand:wikidata": "Q668687", "collection_times": "Mo-Fr 16:30; Sa 11:30", "name": "USPS COLLECTION BOX - PO LOBBY", "note": "ON 12/24 AND 12/31, THIS BOX MAY BE COLLECTED AS EARLY AS 12 NOON.", "ref": "1377500003"}, "type": "Feature"}
{"geometry": {"coordinates": [-75.327211, 42.471673], "type": "Point"}, "id": "cFWqkwwdOQ7SIM4r4AtsMrheXxA=", "properties": {"@spider": "usps_collection_boxes", "addr:city": "GILBERTSVILLE", "addr:country": "US", "addr:full": "1 COMMERCIAL ST", "addr:postcode": "13776", "addr:state": "NY", "brand": "USPS", "brand:wikidata": "Q668687", "collection_times": "Mo-Fr 15:15; Sa 11:30", "name": "USPS COLLECTION BOX - BLUE BOX", "note": "ON 12/24 AND 12/31, THIS BOX MAY BE COLLECTED AS EARLY AS 12 NOON.", "ref": "1377600001"}, "type": "Feature"}
{"geometry": {"coordinates": [-75.327211, 42.47167], "type": "Point"}, "id": "LVXTy00toM_JcNnDBXBHIAVNiVo=", "properties": {"@spider": "usps_collection_boxes", "addr:city": "GILBERTSVILLE", "addr:country": "US", "addr:full": "1 COMMERCIAL ST", "addr:postcode": "13776", "addr:state": "NY", "brand": "USPS", "brand:wikidata": "Q668687", "collection_times": "Mo-Fr 15:15; Sa 11:30", "name": "USPS COLLECTION BOX - PO LOBBY", "note": "ON 12/24 AND 12/31, THIS BOX MAY BE COLLECTED AS EARLY AS 12 NOON.", "ref": "1377600002"}, "type": "Feature"}
{"geometry": {"coordinates": [-75.326777728, 42.471562096], "type": "Point"}, "id": "P6pfv7N1Icf4bWf5hwoS7hkwXfw=", "properties": {"@spider": "usps_collection_boxes", "addr:city": "GILBERTSVILLE", "addr:country": "US", "addr:full": "3 COMMERCIAL ST", "addr:postcode": "13776", "addr:state": "NY", "brand": "USPS", "brand:wikidata": "Q668687", "collection_times": "Mo-Fr 15:15; Sa 11:30", "name": "USPS COLLECTION BOX - PO LOBBY", "note": "ON 12/24 AND 12/31, THIS BOX MAY BE COLLECTED AS EARLY AS 12 NOON.", "ref": "1377600003"}, "type": "Feature"}
{"geometry": {"coordinates": [-76.0124401378, 42.2562102103], "type": "Point"}, "id": "pfVl2AnZ_z31cE4FO59sN86z2wY=", "properties": {"@spider": "usps_collection_boxes", "addr:city": "GLEN AUBREY", "addr:country": "US", "addr:full": "10 OCTAGON ST", "addr:postcode": "13777", "addr:state": "NY", "brand": "USPS", "brand:wikidata": "Q668687", "collection_times": "Mo-Fr 12:00; Sa 11:30", "name": "USPS COLLECTION BOX - BLUE BOX", "ref": "1377700001"}, "type": "Feature"}
{"geometry": {"coordinates": [-76.0124401378, 42.2562102103], "type": "Point"}, "id": "38qDHjcF3BOEfu9khIhuXX26bEc=", "properties": {"@spider": "usps_collection_boxes", "addr:city": "GLEN AUBREY", "addr:country": "US", "addr:full": "10 OCTAGON ST", "addr:postcode": "13777", "addr:state": "NY", "brand": "USPS", "brand:wikidata": "Q668687", "collection_times": "Mo-Fr 12:00; Sa 11:30", "name": "USPS COLLECTION BOX - PO LOBBY", "ref": "1377700002"}, "type": "Feature"}
{"geometry": {"coordinates": [-76.0124401378, 42.2562102103], "type": "Point"}, "id": "asoNvL9iq_Uwas0eJwffcmggSQM=", "properties": {"@spider": "usps_collection_boxes", "addr:city": "GLEN AUBREY", "addr:country": "US", "addr:full": "10 OCTAGON ST", "addr:postcode": "13777", "addr:state": "NY", "brand": "USPS", "brand:wikidata": "Q668687", "collection_times": "Mo-Fr 12:00; Sa 11:45", "name": "USPS COLLECTION BOX - PO LOBBY", "ref": "1377700003"}, "type": "Feature"}
{"geometry": {"coordinates": [-75.77264, 42.328498], "type": "Point"}, "id": "Om-HBnwScZZ9Yl_y6LANYqVoOuY=", "properties": {"@spider": "usps_collection_boxes", "addr:city": "GREENE", "addr:country": "US", "addr:full": "11 S CANAL ST", "addr:postcode": "13778", "addr:state": "NY", "brand": "USPS", "brand:wikidata": "Q668687", "collection_times": "Mo-Fr 17:00; Sa 15:15", "name": "USPS COLLECTION BOX - BLUE BOX", "note": "ON 12/24 AND 12/31, THIS BOX MAY BE COLLECTED AS EARLY AS 12 NOON.", "ref": "1377800001"}, "type": "Feature"}
{"geometry": {"coordinates": [-75.7706554, 42.329602], "type": "Point"}, "id": "3FhazjRgFthXP8Jg019z3nzgbE4=", "properties": {"@spider": "usps_collection_boxes", "addr:city": "GREENE", "addr:country": "US", "addr:full": "41 GENESEE ST", "addr:postcode": "13778", "addr:state": "NY", "brand": "USPS", "brand:wikidata": "Q668687", "collection_times": "Mo-Fr 15:00; Sa 10:00", "name": "USPS COLLECTION BOX - BLUE BOX", "note": "ON 12/24 AND 12/31, THIS BOX MAY BE COLLECTED AS EARLY AS 12 NOON.", "ref": "1377800005"}, "type": "Feature"}
{"geometry": {"coordinates": [-75.77267, 42.328513], "type": "Point"}, "id": "80QgdyHuaFLAVWKMj3llrsviB7Y=", "properties": {"@spider": "usps_collection_boxes", "addr:city": "GREENE", "addr:country": "US", "addr:full": "11 S CANAL ST", "addr:postcode": "13778", "addr:state": "NY", "brand": "USPS", "brand:wikidata": "Q668687", "collection_times": "Mo-Fr 17:00; Sa 15:15", "name": "USPS COLLECTION BOX - PO LOBBY", "note": "ON 12/24 AND 12/31, THIS BOX MAY BE COLLECTED AS EARLY AS 12 NOON.", "ref": "1377800007"}, "type": "Feature"}
{"geometry": {"coordinates": [-75.772630582, 42.328465305], "type": "Point"}, "id": "C7Td4wadBJHgBcw23JxGirZ2JXo=", "properties": {"@spider": "usps_collection_boxes", "addr:city": "GREENE", "addr:country": "US", "addr:full": "11 S CANAL ST", "addr:postcode": "13778", "addr:state": "NY", "brand": "USPS", "brand:wikidata": "Q668687", "collection_times": "Mo-Fr 17:00; Sa 12:00", "name": "USPS COLLECTION BOX - PO LOBBY", "note": "ON 12/24 AND 12/31, THIS BOX MAY BE COLLECTED AS EARLY AS 12 NOON.", "ref": "1377800008"}, "type": "Feature"}
{"geometry": {"coordinates": [-75.491222, 42.405553], "type": "Point"}, "id": "hHj9Kwzrag5qSoXY9fV9qXlHv4Y=", "properties": {"@spider": "usps_collection_boxes", "addr:city": "GUILFORD", "addr:country": "US", "addr:full": "1261 COUNTY ROAD 35", "addr:postcode": "13780", "addr:state": "NY", "brand": "USPS", "brand:wikidata": "Q668687", "collection_times": "Mo-Fr 15:30; Sa 11:45", "name": "USPS COLLECTION BOX - BLUE BOX", "note": "ON 12/24 AND 12/31, THIS BOX MAY BE COLLECTED AS EARLY AS 12 NOON.", "ref": "1378000001"}, "type": "Feature"}
{"geometry": {"coordinates": [-75.491209, 42.405507], "type": "Point"}, "id": "ZjwWyp0t8UIqZtOikvvDCId94rw=", "properties": {"@spider": "usps_collection_boxes", "addr:city": "GUILFORD", "addr:country": "US", "addr:full": "1261 COUNTY ROAD 35", "addr:postcode": "13780", "addr:state": "NY", "brand": "USPS", "brand:wikidata": "Q668687", "collection_times": "Mo-Fr 15:30; Sa 11:45", "name": "USPS COLLECTION BOX - PO LOBBY", "note": "ON 12/24 AND 12/31, THIS BOX MAY BE COLLECTED AS EARLY AS 12 NOON.", "ref": "1378000002"}, "type": "Feature"}
{"geometry": {"coordinates": [-75.491144433, 42.40549344], "type": "Point"}, "id": "iAlGZ6uCMTtGiIk_NfXweqR9vFk=", "properties": {"@spider": "usps_collection_boxes", "addr:city": "GUILFORD", "addr:country": "US", "addr:full": "1261 COUNTY ROAD 35", "addr:postcode": "13780", "addr:state": "NY", "brand": "USPS", "brand:wikidata": "Q668687", "collection_times": "Mo-Fr 15:30; Sa 11:45", "name": "USPS COLLECTION BOX - PO LOBBY", "note": "ON 12/24 AND 12/31, THIS BOX MAY BE COLLECTED AS EARLY AS 12 NOON.", "ref": "1378000003"}, "type": "Feature"}
{"geometry": {"coordinates": [-74.992667, 42.192618], "type": "Point"}, "id": "OL_OGaXutKACerVb18HaKrr7agc=", "properties": {"@spider": "usps_collection_boxes", "addr:city": "HAMDEN", "addr:country": "US", "addr:full": "35866 STATE HIGHWAY 10", "addr:postcode": "13782", "addr:state": "NY", "brand": "USPS", "brand:wikidata": "Q668687", "collection_times": "Mo-Fr 15:30; Sa 11:15", "name": "USPS COLLECTION BOX - BLUE BOX", "note": "ON 12/24 AND 12/31, THIS BOX MAY BE COLLECTED AS EARLY AS 12 NOON.", "ref": "1378200001"}, "type": "Feature"}
{"geometry": {"coordinates": [-74.99273, 42.192604], "type": "Point"}, "id": "eINndCWLy4ysjeSMZ9Xw627kZOQ=", "properties": {"@spider": "usps_collection_boxes", "addr:city": "HAMDEN", "addr:country": "US", "addr:full": "35866 STATE HIGHWAY 10", "addr:postcode": "13782", "addr:state": "NY", "brand": "USPS", "brand:wikidata": "Q668687", "collection_times": "Mo-Fr 15:30; Sa 11:15", "name": "USPS COLLECTION BOX - PO LOBBY", "note": "ON 12/24 AND 12/31, THIS BOX MAY BE COLLECTED AS EARLY AS 12 NOON.", "ref": "1378200002"}, "type": "Feature"}
{"geometry": {"coordinates": [-74.992666, 42.192619], "type": "Point"}, "id": "UPNKYqxOv7DZVOlKFWJ1xlU0RyU=", "properties": {"@spider": "usps_collection_boxes", "addr:city": "HAMDEN", "addr:country": "US", "addr:full": "35866 STATE HIGHWAY 10", "addr:postcode": "13782", "addr:state": "NY", "brand": "USPS", "brand:wikidata": "Q668687", "collection_times": "Mo-Fr 15:30; Sa 11:15", "name": "USPS COLLECTION BOX - BLUE BOX", "note": "ON 12/24 AND 12/31, THIS BOX MAY BE COLLECTED AS EARLY AS 12 NOON.", "ref": "1378200004"}, "type": "Feature"}
{"geometry": {"coordinates": [-74.992666937, 42.192567797], "type": "Point"}, "id": "8LQ2GUl1KfouCXBPGYTL_lUpi-w=", "properties": {"@spider": "usps_collection_boxes", "addr:city": "HAMDEN", "addr:country": "US", "addr:full": "35866 STATE HIGHWAY 10", "addr:postcode": "13782", "addr:state": "NY", "brand": "USPS", "brand:wikidata": "Q668687", "collection_times": "Mo-Fr 15:30; Sa 11:15", "name": "USPS COLLECTION BOX - PO LOBBY", "note": "ON 12/24 AND 12/31, THIS BOX MAY BE COLLECTED AS EARLY AS 12 NOON.", "ref": "1378200005"}, "type": "Feature"}
{"geometry": {"coordinates": [-75.2820556, 41.955781], "type": "Point"}, "id": "trKSSvJO7ZMdjgmmYuXqerrrEWY=", "properties": {"@spider": "usps_collection_boxes", "addr:city": "HANCOCK", "addr:country": "US", "addr:full": "206 WHEELER ST", "addr:postcode": "13783", "addr:state": "NY", "brand": "USPS", "brand:wikidata": "Q668687", "collection_times": "Mo-Fr 17:00; Sa 12:00", "name": "USPS COLLECTION BOX - BLUE BOX", "note": "ON 12/24 AND 12/31, THIS BOX MAY BE COLLECTED AS EARLY AS 12 NOON.", "ref": "1378300001"}, "type": "Feature"}
{"geometry": {"coordinates": [-75.281989, 41.955148], "type": "Point"}, "id": "-fUg_0U5AhZRxCPc0PIYy2sc69U=", "properties": {"@spider": "usps_collection_boxes", "addr:city": "HANCOCK", "addr:country": "US", "addr:full": "204 WHEELER ST", "addr:postcode": "13783", "addr:state": "NY", "brand": "USPS", "brand:wikidata": "Q668687", "collection_times": "Mo-Fr 16:00; Sa 12:00", "name": "USPS COLLECTION BOX - PO LOBBY", "note": "ON 12/24 AND 12/31, THIS BOX MAY BE COLLECTED AS EARLY AS 12 NOON.", "ref": "1378300008"}, "type": "Feature"}
{"geometry": {"coordinates": [-75.282066144, 41.955689106], "type": "Point"}, "id": "Aj65oa_bQDlsXYLBuUujanQHKL8=", "properties": {"@spider": "usps_collection_boxes", "addr:city": "HANCOCK", "addr:country": "US", "addr:full": "204 WHEELER ST", "addr:postcode": "13783", "addr:state": "NY", "brand": "USPS", "brand:wikidata": "Q668687", "collection_times": "Mo-Fr 16:00; Sa 12:00", "name": "USPS COLLECTION BOX - PO LOBBY", "note": "ON 12/24 AND 12/31, THIS BOX MAY BE COLLECTED AS EARLY AS 12 NOON.", "ref": "1378300011"}, "type": "Feature"}
{"geometry": {"coordinates": [-74.680734, 42.43727], "type": "Point"}, "id": "WYpl2jM5YQCgGiikCZtqmhUVoJw=", "properties": {"@spider": "usps_collection_boxes", "addr:city": "HARPERSFIELD", "addr:country": "US", "addr:full": "798 COLONEL HARPER DR", "addr:postcode": "13786", "addr:state": "NY", "brand": "USPS", "brand:wikidata": "Q668687", "collection_times": "Mo-Fr 12:00; Sa 12:15", "name": "USPS COLLECTION BOX - PO LOBBY", "note": "ON 12/24 AND 12/31, THIS BOX MAY BE COLLECTED AS EARLY AS 12 NOON.", "ref": "1378600001"}, "type": "Feature"}
{"geometry": {"coordinates": [-74.680617, 42.437234], "type": "Point"}, "id": "M8md0QUdVGNiR7iH5krQV1Y_OEU=", "properties": {"@spider": "usps_collection_boxes", "addr:city": "HARPERSFIELD", "addr:country": "US", "addr:full": "798 COLONEL HARPER DR", "addr:postcode": "13786", "addr:state": "NY", "brand": "USPS", "brand:wikidata": "Q668687", "collection_times": "Mo-Fr 12:00; Sa 12:15", "name": "USPS COLLECTION BOX - BLUE BOX", "note": "ON 12/24 AND 12/31, THIS BOX MAY BE COLLECTED AS EARLY AS 12 NOON.", "ref": "1378600002"}, "type": "Feature"}
{"geometry": {"coordinates": [-74.680719316, 42.437197654], "type": "Point"}, "id": "ViAJxXVkX8wp5O3M3ndVv1BCa8Q=", "properties": {"@spider": "usps_collection_boxes", "addr:city": "HARPERSFIELD", "addr:country": "US", "addr:full": "798 COLONEL HARPER DR", "addr:postcode": "13786", "addr:state": "NY", "brand": "USPS", "brand:wikidata": "Q668687", "collection_times": "Mo-Fr 12:00; Sa 12:15", "name": "USPS COLLECTION BOX - PO LOBBY", "note": "ON 12/24 AND 12/31, THIS BOX MAY BE COLLECTED AS EARLY AS 12 NOON.", "ref": "1378600003"}, "type": "Feature"}
{"geometry": {"coordinates": [-75.633608, 42.183424], "type": "Point"}, "id": "4ydOPfUNNMG6hmUybYQsnbOngDI=", "properties": {"@spider": "usps_collection_boxes", "addr:city": "HARPURSVILLE", "addr:country": "US", "addr:full": "3619 STATE ROUTE 79", "addr:postcode": "13787", "addr:state": "NY", "brand": "USPS", "brand:wikidata": "Q668687", "collection_times": "Mo-Fr 16:30; Sa 11:45", "name": "USPS COLLECTION BOX - BLUE BOX", "note": "ON 12/24 AND 12/31, THIS BOX MAY BE COLLECTED AS EARLY AS 12 NOON.", "ref": "1378700001"}, "type": "Feature"}
{"geometry": {"coordinates": [-75.633488, 42.183393], "type": "Point"}, "id": "_zxiqR2ixsciTdytnaCvoGcYD1Q=", "properties": {"@spider": "usps_collection_boxes", "addr:city": "HARPURSVILLE", "addr:country": "US", "addr:full": "3619 STATE ROUTE 79", "addr:postcode": "13787", "addr:state": "NY", "brand": "USPS", "brand:wikidata": "Q668687", "collection_times": "Mo-Fr 16:45; Sa 12:00", "name": "USPS COLLECTION BOX - PO LOBBY", "note": "ON 12/24 AND 12/31, THIS BOX MAY BE COLLECTED AS EARLY AS 12 NOON.", "ref": "1378700002"}, "type": "Feature"}
{"geometry": {"coordinates": [-75.633784357, 42.183512448], "type": "Point"}, "id": "PX6ISF83pd4qaDm7gGgp2A-pvoQ=", "properties": {"@spider": "usps_collection_boxes", "addr:city": "HARPURSVILLE", "addr:country": "US", "addr:full": "3619 STATE ROUTE 79", "addr:postcode": "13787", "addr:state": "NY", "brand": "USPS", "brand:wikidata": "Q668687", "collection_times": "Mo-Fr 16:45; Sa 12:00", "name": "USPS COLLECTION BOX - PO LOBBY", "note": "ON 12/24 AND 12/31, THIS BOX MAY BE COLLECTED AS EARLY AS 12 NOON.", "ref": "1378700006"}, "type": "Feature"}
{"geometry": {"coordinates": [-74.676703, 42.372421], "type": "Point"}, "id": "jZmg5Rpx7I5Gqo3Pu8Jdclf2FnA=", "properties": {"@spider": "usps_collection_boxes", "addr:city": "HOBART", "addr:country": "US", "addr:full": "698 MAIN ST STE 1", "addr:postcode": "13788", "addr:state": "NY", "brand": "USPS", "brand:wikidata": "Q668687", "collection_times": "Mo-Fr 15:15; Sa 11:30", "name": "USPS COLLECTION BOX - BLUE BOX", "note": "ON 12/24 AND 12/31, THIS BOX MAY BE COLLECTED AS EARLY AS 12 NOON.", "ref": "1378800001"}, "type": "Feature"}
{"geometry": {"coordinates": [-74.6680488971, 42.3728137148], "type": "Point"}, "id": "Ap-gwzaJ9LqUoN_WMmaMAg9NQh4=", "properties": {"@spider": "usps_collection_boxes", "addr:city": "HOBART", "addr:country": "US", "addr:full": "698 MAIN ST STE 1", "addr:postcode": "13788", "addr:state": "NY", "brand": "USPS", "brand:wikidata": "Q668687", "collection_times": "Mo-Fr 15:15; Sa 11:30", "name": "USPS COLLECTION BOX - PO LOBBY", "note": "ON 12/24 AND 12/31, THIS BOX MAY BE COLLECTED AS EARLY AS 12 NOON.", "ref": "1378800003"}, "type": "Feature"}
{"geometry": {"coordinates": [-74.6680488971, 42.3728137148], "type": "Point"}, "id": "lS5xffjuf4W0x6ZHzdE46KU0IDk=", "properties": {"@spider": "usps_collection_boxes", "addr:city": "HOBART", "addr:country": "US", "addr:full": "698 MAIN ST STE 1", "addr:postcode": "13788", "addr:state": "NY", "brand": "USPS", "brand:wikidata": "Q668687", "collection_times": "Mo-Fr 15:15; Sa 11:15", "name": "USPS COLLECTION BOX - PO LOBBY", "note": "ON 12/24 AND 12/31, THIS BOX MAY BE COLLECTED AS EARLY AS 12 NOON.", "ref": "1378800004"}, "type": "Feature"}
{"geometry": {"coordinates": [-75.957496, 42.115904], "type": "Point"}, "id": "fQAmOu7akoxbLAN0B9w4LbZtmJE=", "properties": {"@spider": "usps_collection_boxes", "addr:city": "JOHNSON CITY", "addr:country": "US", "addr:full": "307 MAIN ST", "addr:postcode": "13790", "addr:state": "NY", "brand": "USPS", "brand:wikidata": "Q668687", "collection_times": "Mo-Fr 17:15; Sa 12:15", "name": "USPS COLLECTION BOX - BLUE BOX", "note": "ON 12/24 AND 12/31, THIS BOX MAY BE COLLECTED AS EARLY AS 12 NOON.", "ref": "1379000003"}, "type": "Feature"}
{"geometry": {"coordinates": [-75.9587035, 42.099437], "type": "Point"}, "id": "y0zHxF-Ay0_KGQDIVupvriKsD4M=", "properties": {"@spider": "usps_collection_boxes", "addr:city": "JOHNSON CITY", "addr:country": "US", "addr:full": "270 RIVERSIDE DR", "addr:postcode": "13790", "addr:state": "NY", "brand": "USPS", "brand:wikidata": "Q668687", "collection_times": "Mo-Sa 09:00", "name": "USPS COLLECTION BOX - BLUE BOX", "ref": "1379000008"}, "type": "Feature"}
{"geometry": {"coordinates": [-75.9740816, 42.123231], "type": "Point"}, "id": "kMHxv_4naIUkFekE6lOMg0oNqkc=", "properties": {"@spider": "usps_collection_boxes", "addr:city": "JOHNSON CITY", "addr:country": "US", "addr:full": "650 HARRY L DR", "addr:postcode": "13790", "addr:state": "NY", "brand": "USPS", "brand:wikidata": "Q668687", "collection_times": "Mo-Fr 15:00; Sa 09:00", "name": "USPS COLLECTION BOX - BLUE BOX", "note": "ON 12/24 AND 12/31, THIS BOX MAY BE COLLECTED AS EARLY AS 12 NOON.", "ref": "1379000009"}, "type": "Feature"}
{"geometry": {"coordinates": [-75.9504831, 42.113245], "type": "Point"}, "id": "78F7maXvlp9UyBmWCuYKc4Pgbyg=", "properties": {"@spider": "usps_collection_boxes", "addr:city": "JOHNSON CITY", "addr:country": "US", "addr:full": "130 MAIN ST", "addr:postcode": "13790", "addr:state": "NY", "brand": "USPS", "brand:wikidata": "Q668687", "collection_times": "Mo-Sa 11:00", "name": "USPS COLLECTION BOX - BLUE BOX", "ref": "1379000013"}, "type": "Feature"}
{"geometry": {"coordinates": [-75.9549423, 42.115108], "type": "Point"}, "id": "BeyFOwU0yboKNpLYd8Yesxp2vpM=", "properties": {"@spider": "usps_collection_boxes", "addr:city": "JOHNSON CITY", "addr:country": "US", "addr:full": "233 MAIN ST", "addr:postcode": "13790", "addr:state": "NY", "brand": "USPS", "brand:wikidata": "Q668687", "collection_times": "Mo-Fr 15:00; Sa 09:00", "name": "USPS COLLECTION BOX - BLUE BOX", "note": "ON 12/24 AND 12/31, THIS BOX MAY BE COLLECTED AS EARLY AS 12 NOON.", "ref": "1379000015"}, "type": "Feature"}
{"geometry": {"coordinates": [-75.9520087, 42.103808], "type": "Point"}, "id": "vmqHFzklKKJuRX87HEv2u-ubFIo=", "properties": {"@spider": "usps_collection_boxes", "addr:city": "JOHNSON CITY", "addr:country": "US", "addr:full": "217 BURBANK AVE", "addr:postcode": "13790", "addr:state": "NY", "brand": "USPS", "brand:wikidata": "Q668687", "collection_times": "Mo-Sa 11:00", "name": "USPS COLLECTION BOX - BLUE BOX", "ref": "1379000029"}, "type": "Feature"}
{"geometry": {"coordinates": [-75.9582864, 42.122961], "type": "Point"}, "id": "OFO2KEHSzaLnoDEVQoCdC5NgGQo=", "properties": {"@spider": "usps_collection_boxes", "addr:city": "JOHNSON CITY", "addr:country": "US", "addr:full": "269 HARRY L DR", "addr:postcode": "13790", "addr:state": "NY", "brand": "USPS", "brand:wikidata": "Q668687", "collection_times": "Mo-Sa 09:30", "name": "USPS COLLECTION BOX - BLUE BOX", "ref": "1379000038"}, "type": "Feature"}
{"geometry": {"coordinates": [-75.9613174, 42.130638], "type": "Point"}, "id": "jfOqKcYHSb0ZN5mLXbBrKDbx4OU=", "properties": {"@spider": "usps_collection_boxes", "addr:city": "JOHNSON CITY", "addr:country": "US", "addr:full": "520 COLUMBIA DR", "addr:postcode": "13790", "addr:state": "NY", "brand": "USPS", "brand:wikidata": "Q668687", "collection_times": "Mo-Sa 11:00", "name": "USPS COLLECTION BOX - BLUE BOX", "ref": "1379000040"}, "type": "Feature"}
{"geometry": {"coordinates": [-75.9634786, 42.123146], "type": "Point"}, "id": "c-ZpJeF-KPBebs6Bmn19PQOKGf8=", "properties": {"@spider": "usps_collection_boxes", "addr:city": "JOHNSON CITY", "addr:country": "US", "addr:full": "365 HARRY L DR", "addr:postcode": "13790", "addr:state": "NY", "brand": "USPS", "brand:wikidata": "Q668687", "collection_times": "Mo-Sa 09:30", "name": "USPS COLLECTION BOX - BLUE BOX", "ref": "1379000041"}, "type": "Feature"}
{"geometry": {"coordinates": [-75.9691972, 42.141131], "type": "Point"}, "id": "FnvNlIliaQk_J40ReFLIMPLIVag=", "properties": {"@spider": "usps_collection_boxes", "addr:city": "JOHNSON CITY", "addr:country": "US", "addr:full": "1025 REYNOLDS RD", "addr:postcode": "13790", "addr:state": "NY", "brand": "USPS", "brand:wikidata": "Q668687", "collection_times": "Mo-Sa 12:00", "name": "USPS COLLECTION BOX - BLUE BOX", "ref": "1379000042"}, "type": "Feature"}
{"geometry": {"coordinates": [-75.9505327, 42.099079], "type": "Point"}, "id": "dTcDRit68g_1VeUGHEZI52nhFeY=", "properties": {"@spider": "usps_collection_boxes", "addr:city": "JOHNSON CITY", "addr:country": "US", "addr:full": "47 RIVERSIDE DR", "addr:postcode": "13790", "addr:state": "NY", "brand": "USPS", "brand:wikidata": "Q668687", "collection_times": "Mo-Sa 09:00", "name": "USPS COLLECTION BOX - BLUE BOX", "ref": "1379000043"}, "type": "Feature"}
{"geometry": {"coordinates": [-75.9598127454, 42.1148689427], "type": "Point"}, "id": "emxohOt9lVbXig_8FAVc37aSPlw=", "properties": {"@spider": "usps_collection_boxes", "addr:city": "JOHNSON CITY", "addr:country": "US", "addr:full": "46 HARRISON ST", "addr:postcode": "13790", "addr:state": "NY", "brand": "USPS", "brand:wikidata": "Q668687", "collection_times": "Mo-Fr 15:00; Sa 09:00", "name": "USPS COLLECTION BOX - BLUE BOX", "note": "ON 12/24 AND 12/31, THIS BOX MAY BE COLLECTED AS EARLY AS 12 NOON.", "ref": "1379000045"}, "type": "Feature"}
{"geometry": {"coordinates": [-75.9636244, 42.116082], "type": "Point"}, "id": "I1q8WsV84qAnaUhIclTiiaR59Jc=", "properties": {"@spider": "usps_collection_boxes", "addr:city": "JOHNSON CITY", "addr:country": "US", "addr:full": "435 MAIN ST", "addr:postcode": "13790", "addr:state": "NY", "brand": "USPS", "brand:wikidata": "Q668687", "collection_times": "Mo-Sa 08:30", "name": "USPS COLLECTION BOX - BLUE BOX", "ref": "1379000046"}, "type": "Feature"}
{"geometry": {"coordinates": [-75.9731999, 42.126973], "type": "Point"}, "id": "fRqRHevGPzRXyubryXm80XN1hUg=", "properties": {"@spider": "usps_collection_boxes", "addr:city": "JOHNSON CITY", "addr:country": "US", "addr:full": "601-635 HARRY L DR", "addr:postcode": "13790", "addr:state": "NY", "brand": "USPS", "brand:wikidata": "Q668687", "collection_times": "Mo-Fr 14:00; Sa 10:00", "name": "USPS COLLECTION BOX - BLUE BOX", "note": "ON 12/24 AND 12/31, THIS BOX MAY BE COLLECTED AS EARLY AS 12 NOON.", "ref": "1379000051"}, "type": "Feature"}
{"geometry": {"coordinates": [-75.9824035, 42.208198], "type": "Point"}, "id": "e80bokI-lURqqXSWOZ3LuwT4GTk=", "properties": {"@spider": "usps_collection_boxes", "addr:city": "JOHNSON CITY", "addr:country": "US", "addr:full": "2534 AIRPORT RD", "addr:postcode": "13790", "addr:state": "NY", "brand": "USPS", "brand:wikidata": "Q668687", "collection_times": "Mo-Sa 09:00", "name": "USPS COLLECTION BOX - BLUE BOX", "ref": "1379000060"}, "type": "Feature"}
{"geometry": {"coordinates": [-75.957496, 42.115904], "type": "Point"}, "id": "nNphrOu7jJD2l8ldFS50ddMNXSU=", "properties": {"@spider": "usps_collection_boxes", "addr:city": "JOHNSON CITY", "addr:country": "US", "addr:full": "307 MAIN ST", "addr:postcode": "13790", "addr:state": "NY", "brand": "USPS", "brand:wikidata": "Q668687", "collection_times": "Mo-Fr 17:00; Sa 12:15", "name": "USPS COLLECTION BOX - PO LOBBY", "note": "ON 12/24 AND 12/31, THIS BOX MAY BE COLLECTED AS EARLY AS 12 NOON.", "ref": "1379000061"}, "type": "Feature"}
{"geometry": {"coordinates": [-75.971909088, 42.124487403], "type": "Point"}, "id": "udBt1LOKTMp08RZB0wntkFA-F3g=", "properties": {"@spider": "usps_collection_boxes", "addr:city": "JOHNSON CITY", "addr:country": "US", "addr:full": "601-635 HARRY L DR", "addr:postcode": "13790", "addr:state": "NY", "brand": "USPS", "brand:wikidata": "Q668687", "collection_times": "Mo-Fr 11:00; Sa 10:00", "name": "USPS COLLECTION BOX - BLUE BOX", "ref": "1379000062"}, "type": "Feature"}
{"geometry": {"coordinates": [-75.957972192, 42.11589145], "type": "Point"}, "id": "qjqUcZ5tnXbj_Im8VX2vcM7CHiM=", "properties": {"@spider": "usps_collection_boxes", "addr:city": "JOHNSON CITY", "addr:country": "US", "addr:full": "307 MAIN ST", "addr:postcode": "13790", "addr:state": "NY", "brand": "USPS", "brand:wikidata": "Q668687", "collection_times": "Mo-Fr 17:00; Sa 12:00", "name": "USPS COLLECTION BOX - PO LOBBY", "note": "ON 12/24 AND 12/31, THIS BOX MAY BE COLLECTED AS EARLY AS 12 NOON.", "ref": "1379000066"}, "type": "Feature"}
{"geometry": {"coordinates": [-76.017213, 42.401082], "type": "Point"}, "id": "lJmbnQ9ZcdvBphOua2DqijSgD8E=", "properties": {"@spider": "usps_collection_boxes", "addr:city": "KILLAWOG", "addr:country": "US", "addr:full": "614 JENNINGS CREEK RD", "addr:postcode": "13794", "addr:state": "NY", "brand": "USPS", "brand:wikidata": "Q668687", "collection_times": "Mo-Fr 10:00; Sa 10:45", "name": "USPS COLLECTION BOX - PO LOBBY", "ref": "1379400001"}, "type": "Feature"}
{"geometry": {"coordinates": [-76.017339, 42.401094], "type": "Point"}, "id": "AKLJkVFKLL71oyFgP8DJrTxXotc=", "properties": {"@spider": "usps_collection_boxes", "addr:city": "KILLAWOG", "addr:country": "US", "addr:full": "614 JENNINGS CREEK RD", "addr:postcode": "13794", "addr:state": "NY", "brand": "USPS", "brand:wikidata": "Q668687", "collection_times": "Mo-Fr 10:00; Sa 10:45", "name": "USPS COLLECTION BOX - BLUE BOX", "ref": "1379400002"}, "type": "Feature"}
{"geometry": {"coordinates": [-76.017160436, 42.401080667], "type": "Point"}, "id": "zNbMXHRZymYu1BpcoL__HcuLNPI=", "properties": {"@spider": "usps_collection_boxes", "addr:city": "KILLAWOG", "addr:country": "US", "addr:full": "614 JENNINGS CREEK RD", "addr:postcode": "13794", "addr:state": "NY", "brand": "USPS", "brand:wikidata": "Q668687", "collection_times": "Mo-Fr 10:00; Sa 10:45", "name": "USPS COLLECTION BOX - PO LOBBY", "ref": "1379400003"}, "type": "Feature"}
{"geometry": {"coordinates": [-75.821718, 42.095537], "type": "Point"}, "id": "rrM2UScn0yYyIJ57ZWBOcxtv6_8=", "properties": {"@spider": "usps_collection_boxes", "addr:city": "KIRKWOOD", "addr:country": "US", "addr:full": "78 CRESENT DR", "addr:postcode": "13795", "addr:state": "NY", "brand": "USPS", "brand:wikidata": "Q668687", "collection_times": "Mo-Fr 15:30; Sa 11:30", "name": "USPS COLLECTION BOX - BLUE BOX", "note": "ON 12/24 AND 12/31, THIS BOX MAY BE COLLECTED AS EARLY AS 12 NOON.", "ref": "1379500001"}, "type": "Feature"}
{"geometry": {"coordinates": [-75.821731, 42.095501], "type": "Point"}, "id": "uWZPUx-OE5AMCTH-UQZdXymJPC8=", "properties": {"@spider": "usps_collection_boxes", "addr:city": "KIRKWOOD", "addr:country": "US", "addr:full": "78 CRESENT DR", "addr:postcode": "13795", "addr:state": "NY", "brand": "USPS", "brand:wikidata": "Q668687", "collection_times": "Mo-Fr 16:00; Sa 12:00", "name": "USPS COLLECTION BOX - PO LOBBY", "note": "ON 12/24 AND 12/31, THIS BOX MAY BE COLLECTED AS EARLY AS 12 NOON.", "ref": "1379500002"}, "type": "Feature"}
{"geometry": {"coordinates": [-75.8201574, 42.090141], "type": "Point"}, "id": "sDP8r95CAZ5yjWDbV9wsESNXaZQ=", "properties": {"@spider": "usps_collection_boxes", "addr:city": "KIRKWOOD", "addr:country": "US", "addr:full": "915 US ROUTE 11", "addr:postcode": "13795", "addr:state": "NY", "brand": "USPS", "brand:wikidata": "Q668687", "collection_times": "Mo-Sa 11:00", "name": "USPS COLLECTION BOX - BLUE BOX", "ref": "1379500005"}, "type": "Feature"}
{"geometry": {"coordinates": [-75.8213661, 42.094641], "type": "Point"}, "id": "GbimnfsweN5WZhw8O8_h5wgsQXo=", "properties": {"@spider": "usps_collection_boxes", "addr:city": "KIRKWOOD", "addr:country": "US", "addr:full": "70 CRESCENT DR", "addr:postcode": "13795", "addr:state": "NY", "brand": "USPS", "brand:wikidata": "Q668687", "collection_times": "Mo-Fr 13:00; Sa 11:00", "name": "USPS COLLECTION BOX - BLUE BOX", "note": "ON 12/24 AND 12/31, THIS BOX MAY BE COLLECTED AS EARLY AS 12 NOON.", "ref": "1379500006"}, "type": "Feature"}
{"geometry": {"coordinates": [-75.821722213, 42.095463121], "type": "Point"}, "id": "dSoH5n5WPtzu4mj_s6OFSbHqZIA=", "properties": {"@spider": "usps_collection_boxes", "addr:city": "KIRKWOOD", "addr:country": "US", "addr:full": "78 CRESCENT DR", "addr:postcode": "13795", "addr:state": "NY", "brand": "USPS", "brand:wikidata": "Q668687", "collection_times": "Mo-Fr 16:30; Sa 12:00", "name": "USPS COLLECTION BOX - PO LOBBY", "note": "ON 12/24 AND 12/31, THIS BOX MAY BE COLLECTED AS EARLY AS 12 NOON.", "ref": "1379500007"}, "type": "Feature"}
{"geometry": {"coordinates": [-75.087722, 42.53356], "type": "Point"}, "id": "6294_g_wtzIOK9qamAYcjCEFcbs=", "properties": {"@spider": "usps_collection_boxes", "addr:city": "LAURENS", "addr:country": "US", "addr:full": "55 BROOK ST", "addr:postcode": "13796", "addr:state": "NY", "brand": "USPS", "brand:wikidata": "Q668687", "collection_times": "Mo-Fr 12:00; Sa 11:00", "name": "USPS COLLECTION BOX - BLUE BOX", "ref": "1379600002"}, "type": "Feature"}
{"geometry": {"coordinates": [-75.087833, 42.533531], "type": "Point"}, "id": "s6jkRU3_tWr2HpRz5u2P9AN_-Wk=", "properties": {"@spider": "usps_collection_boxes", "addr:city": "LAURENS", "addr:country": "US", "addr:full": "55 BROOK ST", "addr:postcode": "13796", "addr:state": "NY", "brand": "USPS", "brand:wikidata": "Q668687", "collection_times": "Mo-Fr 12:00; Sa 11:00", "name": "USPS COLLECTION BOX - PO LOBBY", "ref": "1379600003"}, "type": "Feature"}
{"geometry": {"coordinates": [-75.087684335, 42.533554472], "type": "Point"}, "id": "KA3m2lADEztIkTDoVFn5fvcEiPs=", "properties": {"@spider": "usps_collection_boxes", "addr:city": "LAURENS", "addr:country": "US", "addr:full": "55 BROOK ST", "addr:postcode": "13796", "addr:state": "NY", "brand": "USPS", "brand:wikidata": "Q668687", "collection_times": "Mo-Fr 12:00; Sa 11:00", "name": "USPS COLLECTION BOX - PO LOBBY", "ref": "1379600005"}, "type": "Feature"}
{"geometry": {"coordinates": [-76.002104, 42.350506], "type": "Point"}, "id": "OndmzjEB7CMQ7DTf-Xp2x5BKB_k=", "properties": {"@spider": "usps_collection_boxes", "addr:city": "LISLE", "addr:country": "US", "addr:full": "8988 MAIN ST", "addr:postcode": "13797", "addr:state": "NY", "brand": "USPS", "brand:wikidata": "Q668687", "collection_times": "Mo-Fr 15:00; Sa 11:00", "name": "USPS COLLECTION BOX - PO LOBBY", "note": "ON 12/24 AND 12/31, THIS BOX MAY BE COLLECTED AS EARLY AS 12 NOON.", "ref": "1379700001"}, "type": "Feature"}
{"geometry": {"coordinates": [-76.002104, 42.350506], "type": "Point"}, "id": "2voSN65rHRrKYRe8fFhHxZZbc4M=", "properties": {"@spider": "usps_collection_boxes", "addr:city": "LISLE", "addr:country": "US", "addr:full": "8988 MAIN ST", "addr:postcode": "13797", "addr:state": "NY", "brand": "USPS", "brand:wikidata": "Q668687", "collection_times": "Mo-Fr 15:00; Sa 11:00", "name": "USPS COLLECTION BOX - BLUE BOX", "note": "ON 12/24 AND 12/31, THIS BOX MAY BE COLLECTED AS EARLY AS 12 NOON.", "ref": "1379700002"}, "type": "Feature"}
{"geometry": {"coordinates": [-75.9744713, 42.336691], "type": "Point"}, "id": "hJBVIVi2XdNV1qdHlq5QjgNgMRg=", "properties": {"@spider": "usps_collection_boxes", "addr:city": "LISLE", "addr:country": "US", "addr:full": "2950 US ROUTE 11", "addr:postcode": "13797", "addr:state": "NY", "brand": "USPS", "brand:wikidata": "Q668687", "collection_times": "Mo-Sa 10:00", "name": "USPS COLLECTION BOX - BLUE BOX", "ref": "1379700003"}, "type": "Feature"}
{"geometry": {"coordinates": [-76.002104, 42.350506], "type": "Point"}, "id": "fjn8DE14eGg185dpOLFrHsOh9ZY=", "properties": {"@spider": "usps_collection_boxes", "addr:city": "LISLE", "addr:country": "US", "addr:full": "8988 MAIN ST", "addr:postcode": "13797", "addr:state": "NY", "brand": "USPS", "brand:wikidata": "Q668687", "collection_times": "Mo-Fr 15:00; Sa 11:00", "name": "USPS COLLECTION BOX - PO LOBBY", "note": "ON 12/24 AND 12/31, THIS BOX MAY BE COLLECTED AS EARLY AS 12 NOON.", "ref": "1379700004"}, "type": "Feature"}
{"geometry": {"coordinates": [-76.00199911, 42.350474628], "type": "Point"}, "id": "QdKykkODpbDkmxln1MWrsB8eR2g=", "properties": {"@spider": "usps_collection_boxes", "addr:city": "LISLE", "addr:country": "US", "addr:full": "8988 MAIN ST", "addr:postcode": "13797", "addr:state": "NY", "brand": "USPS", "brand:wikidata": "Q668687", "collection_times": "Mo-Fr 15:00; Sa 11:00", "name": "USPS COLLECTION BOX - PO LOBBY", "note": "ON 12/24 AND 12/31, THIS BOX MAY BE COLLECTED AS EARLY AS 12 NOON.", "ref": "1379700005"}, "type": "Feature"}
