{"geometry": {"coordinates": [-75.767994, 42.495966], "type": "Point"}, "id": "nUCzYSCytHZMZefmz6_6Dnx6mIs=", "properties": {"@source_uri": "https://tools.usps.com/UspsToolsRestServices/rest/POLocator/findLocations", "@spider": "usps_collection_boxes", "addr:city": "MC DONOUGH", "addr:country": "US", "addr:postcode": "13801", "addr:state": "NY", "addr:street_address": "1600 STATE HIGHWAY 220", "amenity": "post_box", "brand": "United States Postal Service", "brand:wikidata": "Q668687", "collection_times": "Mo-Fr 12:00; Sa 11:45", "nsi_id": "unitedstatespostalservice-a77078", "operator": "United States Postal Service", "operator:short": "USPS", "operator:type": "public", "operator:wikidata": "Q668687", "ref": "1380100001"}, "type": "Feature"}
{"geometry": {"coordinates": [-75.76845, 42.496378], "type": "Point"}, "id": "kFY02jpEoTWzhPCtQNJ4wlyNyGw=", "properties": {"@source_uri": "https://tools.usps.com/UspsToolsRestServices/rest/POLocator/findLocations", "@spider": "usps_collection_boxes", "addr:city": "MC DONOUGH", "addr:country": "US", "addr:postcode": "13801", "addr:state": "NY", "addr:street_address": "1600 STATE HIGHWAY 220", "amenity": "post_box", "brand": "United States Postal Service", "brand:wikidata": "Q668687", "collection_times": "Mo-Fr 12:00; Sa 11:45", "indoor": "yes", "nsi_id": "unitedstatespostalservice-a77078", "operator": "United States Postal Service", "operator:short": "USPS", "operator:type": "public", "operator:wikidata": "Q668687", "ref": "1380100002"}, "type": "Feature"}
{"geometry": {"coordinates": [-75.768379417, 42.495460354], "type": "Point"}, "id": "VhCiPLGoqur58Jx05xpxE5PZDw0=", "properties": {"@source_uri": "https://tools.usps.com/UspsToolsRestServices/rest/POLocator/findLocations", "@spider": "usps_collection_boxes", "addr:city": "MC DONOUGH", "addr:country": "US", "addr:postcode": "13801", "addr:state": "NY", "addr:street_address": "1600 STATE HIGHWAY 220", "amenity": "post_box", "brand": "United States Postal Service", "brand:wikidata": "Q668687", "collection_times": "Mo-Fr 12:00; Sa 11:45", "indoor": "yes", "nsi_id": "unitedstatespostalservice-a77078", "operator": "United States Postal Service", "operator:short": "USPS", "operator:type": "public", "operator:wikidata": "Q668687", "ref": "1380100003"}, "type": "Feature"}
{"geometry": {"coordinates": [-76.060508, 42.194788], "type": "Point"}, "id": "_Cacn6P5CC_vztiL_vFrVPv5IIs=", "properties": {"@source_uri": "https://tools.usps.com/UspsToolsRestServices/rest/POLocator/findLocations", "@spider": "usps_collection_boxes", "addr:city": "MAINE", "addr:country": "US", "addr:postcode": "13802", "addr:state": "NY", "addr:street_address": "2597 MAIN ST", "amenity": "post_box", "brand": "United States Postal Service", "brand:wikidata": "Q668687", "collection_times": "Mo-Fr 16:00; Sa 12:00", "indoor": "yes", "note": "ON 12/24 AND 12/31, THIS BOX MAY BE COLLECTED AS EARLY AS 12 NOON.", "nsi_id": "unitedstatespostalservice-a77078", "operator": "United States Postal Service", "operator:short": "USPS", "operator:type": "public", "operator:wikidata": "Q668687", "ref": "1380200001"}, "type": "Feature"}
{"geometry": {"coordinates": [-76.060499, 42.194694], "type": "Point"}, "id": "2MOFxSGaKIaXzXglZLgvq6EjkOM=", "properties": {"@source_uri": "https://tools.usps.com/UspsToolsRestServices/rest/POLocator/findLocations", "@spider": "usps_collection_boxes", "addr:city": "MAINE", "addr:country": "US", "addr:postcode": "13802", "addr:state": "NY", "addr:street_address": "2597 MAIN ST", "amenity": "post_box", "brand": "United States Postal Service", "brand:wikidata": "Q668687", "collection_times": "Mo-Fr 15:45; Sa 11:45", "note": "ON 12/24 AND 12/31, THIS BOX MAY BE COLLECTED AS EARLY AS 12 NOON.", "nsi_id": "unitedstatespostalservice-a77078", "operator": "United States Postal Service", "operator:short": "USPS", "operator:type": "public", "operator:wikidata": "Q668687", "ref": "1380200002"}, "type": "Feature"}
{"geometry": {"coordinates": [-76.060479877, 42.194970277], "type": "Point"}, "id": "7XbETyTMqSQA-zX81G2RE44Mdus=", "properties": {"@source_uri": "https://tools.usps.com/UspsToolsRestServices/rest/POLocator/findLocations", "@spider": "usps_collection_boxes", "addr:city": "MAINE", "addr:country": "US", "addr:postcode": "13802", "addr:state": "NY", "addr:street_address": "2597 MAIN ST", "amenity": "post_box", "brand": "United States Postal Service", "brand:wikidata": "Q668687", "collection_times": "Mo-Fr 16:00; Sa 12:00", "indoor": "yes", "note": "ON 12/24 AND 12/31, THIS BOX MAY BE COLLECTED AS EARLY AS 12 NOON.", "nsi_id": "unitedstatespostalservice-a77078", "operator": "United States Postal Service", "operator:short": "USPS", "operator:type": "public", "operator:wikidata": "Q668687", "ref": "1380200004"}, "type": "Feature"}
{"geometry": {"coordinates": [-76.034351, 42.440686], "type": "Point"}, "id": "9ioK9oxwWnLGZAMFz1POR6y5WcM=", "properties": {"@source_uri": "https://tools.usps.com/UspsToolsRestServices/rest/POLocator/findLocations", "@spider": "usps_collection_boxes", "addr:city": "MARATHON", "addr:country": "US", "addr:postcode": "13803", "addr:state": "NY", "addr:street_address": "12 MAIN ST", "amenity": "post_box", "brand": "United States Postal Service", "brand:wikidata": "Q668687", "collection_times": "Mo-Fr 16:30; Sa 12:00", "note": "ON 12/24 AND 12/31, THIS BOX MAY BE COLLECTED AS EARLY AS 12 NOON.", "nsi_id": "unitedstatespostalservice-a77078", "operator": "United States Postal Service", "operator:short": "USPS", "operator:type": "public", "operator:wikidata": "Q668687", "ref": "1380300001"}, "type": "Feature"}
{"geometry": {"coordinates": [-76.034351, 42.440686], "type": "Point"}, "id": "de-XI90crUHO2EBMrGvf2HeeVRo=", "properties": {"@source_uri": "https://tools.usps.com/UspsToolsRestServices/rest/POLocator/findLocations", "@spider": "usps_collection_boxes", "addr:city": "MARATHON", "addr:country": "US", "addr:postcode": "13803", "addr:state": "NY", "addr:street_address": "12 MAIN ST", "amenity": "post_box", "brand": "United States Postal Service", "brand:wikidata": "Q668687", "collection_times": "Mo-Fr 16:45; Sa 12:00", "indoor": "yes", "note": "ON 12/24 AND 12/31, THIS BOX MAY BE COLLECTED AS EARLY AS 12 NOON.", "nsi_id": "unitedstatespostalservice-a77078", "operator": "United States Postal Service", "operator:short": "USPS", "operator:type": "public", "operator:wikidata": "Q668687", "ref": "1380300002"}, "type": "Feature"}
{"geometry": {"coordinates": [-76.034417492, 42.440610679], "type": "Point"}, "id": "RRP4xwfCi4WF9DnQxXmT-tgtFk0=", "properties": {"@source_uri": "https://tools.usps.com/UspsToolsRestServices/rest/POLocator/findLocations", "@spider": "usps_collection_boxes", "addr:city": "MARATHON", "addr:country": "US", "addr:postcode": "13803", "addr:state": "NY", "addr:street_address": "12 MAIN ST", "amenity": "post_box", "brand": "United States Postal Service", "brand:wikidata": "Q668687", "collection_times": "Mo-Fr 16:30; Sa 12:00", "indoor": "yes", "note": "ON 12/24 AND 12/31, THIS BOX MAY BE COLLECTED AS EARLY AS 12 NOON.", "nsi_id": "unitedstatespostalservice-a77078", "operator": "United States Postal Service", "operator:short": "USPS", "operator:type": "public", "operator:wikidata": "Q668687", "ref": "1380300003"}, "type": "Feature"}
{"geometry": {"coordinates": [-75.377711, 42.242551], "type": "Point"}, "id": "clzP8SOwD6Y39lK5DXH9ia0yCIE=", "properties": {"@source_uri": "https://tools.usps.com/UspsToolsRestServices/rest/POLocator/findLocations", "@spider": "usps_collection_boxes", "addr:city": "MASONVILLE", "addr:country": "US", "addr:postcode": "13804", "addr:state": "NY", "addr:street_address": "15505 STATE HIGHWAY 8", "amenity": "post_box", "brand": "United States Postal Service", "brand:wikidata": "Q668687", "collection_times": "Mo-Fr 12:00; Sa 11:30", "nsi_id": "unitedstatespostalservice-a77078", "operator": "United States Postal Service", "operator:short": "USPS", "operator:type": "public", "operator:wikidata": "Q668687", "ref": "1380400001"}, "type": "Feature"}
{"geometry": {"coordinates": [-75.377657, 42.242501], "type": "Point"}, "id": "aqvPor6V1eFnoiLgMjYeIYNY5pI=", "properties": {"@source_uri": "https://tools.usps.com/UspsToolsRestServices/rest/POLocator/findLocations", "@spider": "usps_collection_boxes", "addr:city": "MASONVILLE", "addr:country": "US", "addr:postcode": "13804", "addr:state": "NY", "addr:street_address": "15505 STATE HIGHWAY 8", "amenity": "post_box", "brand": "United States Postal Service", "brand:wikidata": "Q668687", "collection_times": "Mo-Fr 12:00; Sa 11:45", "indoor": "yes", "nsi_id": "unitedstatespostalservice-a77078", "operator": "United States Postal Service", "operator:short": "USPS", "operator:type": "public", "operator:wikidata": "Q668687", "ref": "1380400002"}, "type": "Feature"}
{"geometry": {"coordinates": [-75.377725123, 42.242510824], "type": "Point"}, "id": "1hQNPhJOZjTcsFF59EWQhDuzrSo=", "properties": {"@source_uri": "https://tools.usps.com/UspsToolsRestServices/rest/POLocator/findLocations", "@spider": "usps_collection_boxes", "addr:city": "MASONVILLE", "addr:country": "US", "addr:postcode": "13804", "addr:state": "NY", "addr:street_address": "15505 STATE HIGHWAY 8", "amenity": "post_box", "brand": "United States Postal Service", "brand:wikidata": "Q668687", "collection_times": "Mo-Fr 12:00; Sa 11:30", "indoor": "yes", "nsi_id": "unitedstatespostalservice-a77078", "operator": "United States Postal Service", "operator:short": "USPS", "operator:type": "public", "operator:wikidata": "Q668687", "ref": "1380400003"}, "type": "Feature"}
{"geometry": {"coordinates": [-74.952802, 42.367092], "type": "Point"}, "id": "fzCJrce8saJMwTxiQQVC1VomrTo=", "properties": {"@source_uri": "https://tools.usps.com/UspsToolsRestServices/rest/POLocator/findLocations", "@spider": "usps_collection_boxes", "addr:city": "MERIDALE", "addr:country": "US", "addr:postcode": "13806", "addr:state": "NY", "addr:street_address": "30 COUNTY HIGHWAY 10", "amenity": "post_box", "brand": "United States Postal Service", "brand:wikidata": "Q668687", "collection_times": "Mo-Fr 12:00; Sa 10:45", "nsi_id": "unitedstatespostalservice-a77078", "operator": "United States Postal Service", "operator:short": "USPS", "operator:type": "public", "operator:wikidata": "Q668687", "ref": "1380600001"}, "type": "Feature"}
{"geometry": {"coordinates": [-74.952851, 42.367128], "type": "Point"}, "id": "pjp4QmXyu14ykeX7ZeC0TciQYoA=", "properties": {"@source_uri": "https://tools.usps.com/UspsToolsRestServices/rest/POLocator/findLocations", "@spider": "usps_collection_boxes", "addr:city": "MERIDALE", "addr:country": "US", "addr:postcode": "13806", "addr:state": "NY", "addr:street_address": "30 COUNTY HIGHWAY 10", "amenity": "post_box", "brand": "United States Postal Service", "brand:wikidata": "Q668687", "collection_times": "Mo-Fr 12:00; Sa 10:45", "indoor": "yes", "nsi_id": "unitedstatespostalservice-a77078", "operator": "United States Postal Service", "operator:short": "USPS", "operator:type": "public", "operator:wikidata": "Q668687", "ref": "1380600002"}, "type": "Feature"}
{"geometry": {"coordinates": [-74.952472448, 42.367068525], "type": "Point"}, "id": "ZQcseczKcAhgYyjKZAvtgRWvneE=", "properties": {"@source_uri": "https://tools.usps.com/UspsToolsRestServices/rest/POLocator/findLocations", "@spider": "usps_collection_boxes", "addr:city": "MERIDALE", "addr:country": "US", "addr:postcode": "13806", "addr:state": "NY", "addr:street_address": "30 COUNTY HIGHWAY 10", "amenity": "post_box", "brand": "United States Postal Service", "brand:wikidata": "Q668687", "collection_times": "Mo-Fr 12:00; Sa 10:45", "indoor": "yes", "nsi_id": "unitedstatespostalservice-a77078", "operator": "United States Postal Service", "operator:short": "USPS", "operator:type": "public", "operator:wikidata": "Q668687", "ref": "1380600004"}, "type": "Feature"}
{"geometry": {"coordinates": [-74.946484, 42.588915], "type": "Point"}, "id": "0MGUQI9UEE6MlYXFjEiCkhkxvAU=", "properties": {"@source_uri": "https://tools.usps.com/UspsToolsRestServices/rest/POLocator/findLocations", "@spider": "usps_collection_boxes", "addr:city": "MILFORD", "addr:country": "US", "addr:postcode": "13807", "addr:state": "NY", "addr:street_address": "43 S MAIN ST", "amenity": "post_box", "brand": "United States Postal Service", "brand:wikidata": "Q668687", "collection_times": "Mo-Fr 16:30; Sa 11:30", "note": "ON 12/24 AND 12/31, THIS BOX MAY BE COLLECTED AS EARLY AS 12 NOON.", "nsi_id": "unitedstatespostalservice-a77078", "operator": "United States Postal Service", "operator:short": "USPS", "operator:type": "public", "operator:wikidata": "Q668687", "ref": "1380700001"}, "type": "Feature"}
{"geometry": {"coordinates": [-74.94641, 42.588992], "type": "Point"}, "id": "NMUOT-zaLJoUbP36INiTVu9F66I=", "properties": {"@source_uri": "https://tools.usps.com/UspsToolsRestServices/rest/POLocator/findLocations", "@spider": "usps_collection_boxes", "addr:city": "MILFORD", "addr:country": "US", "addr:postcode": "13807", "addr:state": "NY", "addr:street_address": "43 S MAIN ST", "amenity": "post_box", "brand": "United States Postal Service", "brand:wikidata": "Q668687", "collection_times": "Mo-Fr 16:30; Sa 11:30", "indoor": "yes", "note": "ON 12/24 AND 12/31, THIS BOX MAY BE COLLECTED AS EARLY AS 12 NOON.", "nsi_id": "unitedstatespostalservice-a77078", "operator": "United States Postal Service", "operator:short": "USPS", "operator:type": "public", "operator:wikidata": "Q668687", "ref": "1380700002"}, "type": "Feature"}
{"geometry": {"coordinates": [-74.946535856, 42.588788395], "type": "Point"}, "id": "ALgsT8M9XZVzTsUMgr_N4ZJZ2XA=", "properties": {"@source_uri": "https://tools.usps.com/UspsToolsRestServices/rest/POLocator/findLocations", "@spider": "usps_collection_boxes", "addr:city": "MILFORD", "addr:country": "US", "addr:postcode": "13807", "addr:state": "NY", "addr:street_address": "43 S MAIN ST", "amenity": "post_box", "brand": "United States Postal Service", "brand:wikidata": "Q668687", "collection_times": "Mo-Fr 16:45; Sa 11:30", "indoor": "yes", "note": "ON 12/24 AND 12/31, THIS BOX MAY BE COLLECTED AS EARLY AS 12 NOON.", "nsi_id": "unitedstatespostalservice-a77078", "operator": "United States Postal Service", "operator:short": "USPS", "operator:type": "public", "operator:wikidata": "Q668687", "ref": "1380700004"}, "type": "Feature"}
{"geometry": {"coordinates": [-75.246539, 42.548263], "type": "Point"}, "id": "bPomOQd8mRurZ0rSjjSpatCctAE=", "properties": {"@source_uri": "https://tools.usps.com/UspsToolsRestServices/rest/POLocator/findLocations", "@spider": "usps_collection_boxes", "addr:city": "MORRIS", "addr:country": "US", "addr:postcode": "13808", "addr:state": "NY", "addr:street_address": "127 MAIN ST", "amenity": "post_box", "brand": "United States Postal Service", "brand:wikidata": "Q668687", "collection_times": "Mo-Fr 16:30; Sa 11:45", "note": "ON 12/24 AND 12/31, THIS BOX MAY BE COLLECTED AS EARLY AS 12 NOON.", "nsi_id": "unitedstatespostalservice-a77078", "operator": "United States Postal Service", "operator:short": "USPS", "operator:type": "public", "operator:wikidata": "Q668687", "ref": "1380800001"}, "type": "Feature"}
{"geometry": {"coordinates": [-75.246604, 42.548214], "type": "Point"}, "id": "Bl6ZCV9cgDbcONW3n9MWXjg3oaU=", "properties": {"@source_uri": "https://tools.usps.com/UspsToolsRestServices/rest/POLocator/findLocations", "@spider": "usps_collection_boxes", "addr:city": "MORRIS", "addr:country": "US", "addr:postcode": "13808", "addr:state": "NY", "addr:street_address": "127 MAIN ST", "amenity": "post_box", "brand": "United States Postal Service", "brand:wikidata": "Q668687", "collection_times": "Mo-Fr 16:45; Sa 11:45", "indoor": "yes", "note": "ON 12/24 AND 12/31, THIS BOX MAY BE COLLECTED AS EARLY AS 12 NOON.", "nsi_id": "unitedstatespostalservice-a77078", "operator": "United States Postal Service", "operator:short": "USPS", "operator:type": "public", "operator:wikidata": "Q668687", "ref": "1380800002"}, "type": "Feature"}
{"geometry": {"coordinates": [-75.384411, 42.429115], "type": "Point"}, "id": "z-34aXbkEhJ4iNjbLhvsJtEgejs=", "properties": {"@source_uri": "https://tools.usps.com/UspsToolsRestServices/rest/POLocator/findLocations", "@spider": "usps_collection_boxes", "addr:city": "MOUNT UPTON", "addr:country": "US", "addr:postcode": "13809", "addr:state": "NY", "addr:street_address": "1753 STATE HIGHWAY 8", "amenity": "post_box", "brand": "United States Postal Service", "brand:wikidata": "Q668687", "collection_times": "Mo-Fr 12:00; Sa 11:15", "nsi_id": "unitedstatespostalservice-a77078", "operator": "United States Postal Service", "operator:short": "USPS", "operator:type": "public", "operator:wikidata": "Q668687", "ref": "1380900001"}, "type": "Feature"}
{"geometry": {"coordinates": [-75.384343, 42.429051], "type": "Point"}, "id": "EbllBvrhxdKm93zp46kIBmkVfXs=", "properties": {"@source_uri": "https://tools.usps.com/UspsToolsRestServices/rest/POLocator/findLocations", "@spider": "usps_collection_boxes", "addr:city": "MOUNT UPTON", "addr:country": "US", "addr:postcode": "13809", "addr:state": "NY", "addr:street_address": "1753 STATE HIGHWAY 8", "amenity": "post_box", "brand": "United States Postal Service", "brand:wikidata": "Q668687", "collection_times": "Mo-Fr 12:00; Sa 11:15", "indoor": "yes", "nsi_id": "unitedstatespostalservice-a77078", "operator": "United States Postal Service", "operator:short": "USPS", "operator:type": "public", "operator:wikidata": "Q668687", "ref": "1380900002"}, "type": "Feature"}
{"geometry": {"coordinates": [-75.384351615, 42.428982437], "type": "Point"}, "id": "iAgNDMp8P3CsuoQH8QKKMQ59yW0=", "properties": {"@source_uri": "https://tools.usps.com/UspsToolsRestServices/rest/POLocator/findLocations", "@spider": "usps_collection_boxes", "addr:city": "MOUNT UPTON", "addr:country": "US", "addr:postcode": "13809", "addr:state": "NY", "addr:street_address": "1753 STATE HIGHWAY 8", "amenity": "post_box", "brand": "United States Postal Service", "brand:wikidata": "Q668687", "collection_times": "Mo-Fr 12:00; Sa 11:15", "indoor": "yes", "nsi_id": "unitedstatespostalservice-a77078", "operator": "United States Postal Service", "operator:short": "USPS", "operator:type": "public", "operator:wikidata": "Q668687", "ref": "1380900003"}, "type": "Feature"}
{"geometry": {"coordinates": [-75.058051, 42.578676], "type": "Point"}, "id": "eb1bsT2CpUIbaKW9hMM5LhRKSkE=", "properties": {"@source_uri": "https://tools.usps.com/UspsToolsRestServices/rest/POLocator/findLocations", "@spider": "usps_collection_boxes", "addr:city": "MOUNT VISION", "addr:country": "US", "addr:postcode": "13810", "addr:state": "NY", "addr:street_address": "2363 STATE HIGHWAY 205", "amenity": "post_box", "brand": "United States Postal Service", "brand:wikidata": "Q668687", "collection_times": "Mo-Fr 12:00; Sa 11:30", "nsi_id": "unitedstatespostalservice-a77078", "operator": "United States Postal Service", "operator:short": "USPS", "operator:type": "public", "operator:wikidata": "Q668687", "ref": "1381000001"}, "type": "Feature"}
{"geometry": {"coordinates": [-76.184231, 42.222919], "type": "Point"}, "id": "3XwFY-HlOmw69khi7c7dnWYL5ZM=", "properties": {"@source_uri": "https://tools.usps.com/UspsToolsRestServices/rest/POLocator/findLocations", "@spider": "usps_collection_boxes", "addr:city": "NEWARK VALLEY", "addr:country": "US", "addr:postcode": "13811", "addr:state": "NY", "addr:street_address": "9 PARK ST", "amenity": "post_box", "brand": "United States Postal Service", "brand:wikidata": "Q668687", "collection_times": "Mo-Fr 16:45; Sa 11:15", "note": "ON 12/24 AND 12/31, THIS BOX MAY BE COLLECTED AS EARLY AS 12 NOON.", "nsi_id": "unitedstatespostalservice-a77078", "operator": "United States Postal Service", "operator:short": "USPS", "operator:type": "public", "operator:wikidata": "Q668687", "ref": "1381100001"}, "type": "Feature"}
{"geometry": {"coordinates": [-76.18429, 42.222986], "type": "Point"}, "id": "XJtnvnMfcC0cTFsGR7h_iLYQ6vk=", "properties": {"@source_uri": "https://tools.usps.com/UspsToolsRestServices/rest/POLocator/findLocations", "@spider": "usps_collection_boxes", "addr:city": "NEWARK VALLEY", "addr:country": "US", "addr:postcode": "13811", "addr:state": "NY", "addr:street_address": "9 PARK ST", "amenity": "post_box", "brand": "United States Postal Service", "brand:wikidata": "Q668687", "collection_times": "Mo-Fr 16:45; Sa 11:15", "note": "ON 12/24 AND 12/31, THIS BOX MAY BE COLLECTED AS EARLY AS 12 NOON.", "nsi_id": "unitedstatespostalservice-a77078", "operator": "United States Postal Service", "operator:short": "USPS", "operator:type": "public", "operator:wikidata": "Q668687", "ref": "1381100002"}, "type": "Feature"}
{"geometry": {"coordinates": [-76.18429, 42.222986], "type": "Point"}, "id": "hJe1Kr5_ryfFpovp7BjG85lxWq0=", "properties": {"@source_uri": "https://tools.usps.com/UspsToolsRestServices/rest/POLocator/findLocations", "@spider": "usps_collection_boxes", "addr:city": "NEWARK VALLEY", "addr:country": "US", "addr:postcode": "13811", "addr:state": "NY", "addr:street_address": "9 PARK ST", "amenity": "post_box", "brand": "United States Postal Service", "brand:wikidata": "Q668687", "collection_times": "Mo-Fr 17:00; Sa 11:30", "indoor": "yes", "note": "ON 12/24 AND 12/31, THIS BOX MAY BE COLLECTED AS EARLY AS 12 NOON.", "nsi_id": "unitedstatespostalservice-a77078", "operator": "United States Postal Service", "operator:short": "USPS", "operator:type": "public", "operator:wikidata": "Q668687", "ref": "1381100003"}, "type": "Feature"}
{"geometry": {"coordinates": [-76.18359813, 42.22318454], "type": "Point"}, "id": "Otv5cR1_kgnupke8jCtwSKY1FuQ=", "properties": {"@source_uri": "https://tools.usps.com/UspsToolsRestServices/rest/POLocator/findLocations", "@spider": "usps_collection_boxes", "addr:city": "NEWARK VALLEY", "addr:country": "US", "addr:postcode": "13811", "addr:state": "NY", "addr:street_address": "9 PARK ST", "amenity": "post_box", "brand": "United States Postal Service", "brand:wikidata": "Q668687", "collection_times": "Mo-Fr 17:00; Sa 11:30", "indoor": "yes", "note": "ON 12/24 AND 12/31, THIS BOX MAY BE COLLECTED AS EARLY AS 12 NOON.", "nsi_id": "unitedstatespostalservice-a77078", "operator": "United States Postal Service", "operator:short": "USPS", "operator:type": "public", "operator:wikidata": "Q668687", "ref": "1381100004"}, "type": "Feature"}
{"geometry": {"coordinates": [-76.375765, 42.023657], "type": "Point"}, "id": "0Bwztz9iYxrOaZG_Laq9e_eYoxo=", "properties": {"@source_uri": "https://tools.usps.com/UspsToolsRestServices/rest/POLocator/findLocations", "@spider": "usps_collection_boxes", "addr:city": "NICHOLS", "addr:country": "US", "addr:postcode": "13812", "addr:state": "NY", "addr:street_address": "491 W RIVER RD", "amenity": "post_box", "brand": "United States Postal Service", "brand:wikidata": "Q668687", "collection_times": "Mo-Fr 16:30; Sa 11:00", "note": "ON 12/24 AND 12/31, THIS BOX MAY BE COLLECTED AS EARLY AS 12 NOON.", "nsi_id": "unitedstatespostalservice-a77078", "operator": "United States Postal Service", "operator:short": "USPS", "operator:type": "public", "operator:wikidata": "Q668687", "ref": "1381200002"}, "type": "Feature"}
{"geometry": {"coordinates": [-76.375691, 42.02361], "type": "Point"}, "id": "D3a0Ljp4O3Or5NDRW4BkEvDrXjM=", "properties": {"@source_uri": "https://tools.usps.com/UspsToolsRestServices/rest/POLocator/findLocations", "@spider": "usps_collection_boxes", "addr:city": "NICHOLS", "addr:country": "US", "addr:postcode": "13812", "addr:state": "NY", "addr:street_address": "491 W RIVER RD", "amenity": "post_box", "brand": "United States Postal Service", "brand:wikidata": "Q668687", "collection_times": "Mo-Fr 16:30; Sa 11:00", "indoor": "yes", "note": "ON 12/24 AND 12/31, THIS BOX MAY BE COLLECTED AS EARLY AS 12 NOON.", "nsi_id": "unitedstatespostalservice-a77078", "operator": "United States Postal Service", "operator:short": "USPS", "operator:type": "public", "operator:wikidata": "Q668687", "ref": "1381200004"}, "type": "Feature"}
{"geometry": {"coordinates": [-76.376197174, 42.023762034], "type": "Point"}, "id": "RbCNGjW7tJZgTs80lSt-Y_NJpxI=", "properties": {"@source_uri": "https://tools.usps.com/UspsToolsRestServices/rest/POLocator/findLocations", "@spider": "usps_collection_boxes", "addr:city": "NICHOLS", "addr:country": "US", "addr:postcode": "13812", "addr:state": "NY", "addr:street_address": "491 W RIVER RD", "amenity": "post_box", "brand": "United States Postal Service", "brand:wikidata": "Q668687", "collection_times": "Mo-Fr 16:30; Sa 11:00", "indoor": "yes", "note": "ON 12/24 AND 12/31, THIS BOX MAY BE COLLECTED AS EARLY AS 12 NOON.", "nsi_id": "unitedstatespostalservice-a77078", "operator": "United States Postal Service", "operator:short": "USPS", "operator:type": "public", "operator:wikidata": "Q668687", "ref": "1381200007"}, "type": "Feature"}
{"geometry": {"coordinates": [-75.602302, 42.193969], "type": "Point"}, "id": "hfrhTmfwsTmaO7apX29OlHBQeII=", "properties": {"@source_uri": "https://tools.usps.com/UspsToolsRestServices/rest/POLocator/findLocations", "@spider": "usps_collection_boxes", "addr:city": "NINEVEH", "addr:country": "US", "addr:postcode": "13813", "addr:state": "NY", "addr:street_address": "3033 STATE ROUTE 7", "amenity": "post_box", "brand": "United States Postal Service", "brand:wikidata": "Q668687", "collection_times": "Mo-Fr 12:00; Sa 11:30", "nsi_id": "unitedstatespostalservice-a77078", "operator": "United States Postal Service", "operator:short": "USPS", "operator:type": "public", "operator:wikidata": "Q668687", "ref": "1381300001"}, "type": "Feature"}
{"geometry": {"coordinates": [-75.602197, 42.194021], "type": "Point"}, "id": "WMwOkJ-U6CuGtvMq-_2K5uf7Lt4=", "properties": {"@source_uri": "https://tools.usps.com/UspsToolsRestServices/rest/POLocator/findLocations", "@spider": "usps_collection_boxes", "addr:city": "NINEVEH", "addr:country": "US", "addr:postcode": "13813", "addr:state": "NY", "addr:street_address": "3033 STATE ROUTE 7", "amenity": "post_box", "brand": "United States Postal Service", "brand:wikidata": "Q668687", "collection_times": "Mo-Fr 12:00; Sa 11:30", "indoor": "yes", "nsi_id": "unitedstatespostalservice-a77078", "operator": "United States Postal Service", "operator:short": "USPS", "operator:type": "public", "operator:wikidata": "Q668687", "ref": "1381300002"}, "type": "Feature"}
{"geometry": {"coordinates": [-75.602301394, 42.193956759], "type": "Point"}, "id": "BWzyPA56UzOysUurSirykktZz4s=", "properties": {"@source_uri": "https://tools.usps.com/UspsToolsRestServices/rest/POLocator/findLocations", "@spider": "usps_collection_boxes", "addr:city": "NINEVEH", "addr:country": "US", "addr:postcode": "13813", "addr:state": "NY", "addr:street_address": "3033 STATE ROUTE 7", "amenity": "post_box", "brand": "United States Postal Service", "brand:wikidata": "Q668687", "collection_times": "Mo-Fr 12:00; Sa 11:45", "indoor": "yes", "nsi_id": "unitedstatespostalservice-a77078", "operator": "United States Postal Service", "operator:short": "USPS", "operator:type": "public", "operator:wikidata": "Q668687", "ref": "1381300003"}, "type": "Feature"}
{"geometry": {"coordinates": [-75.527192, 42.616528], "type": "Point"}, "id": "YWYm_mSPdfqXnV_BeEU6a-PQlPE=", "properties": {"@source_uri": "https://tools.usps.com/UspsToolsRestServices/rest/POLocator/findLocations", "@spider": "usps_collection_boxes", "addr:city": "NORTH NORWICH", "addr:country": "US", "addr:postcode": "13814", "addr:state": "NY", "addr:street_address": "168 COUNTY ROAD 23", "amenity": "post_box", "brand": "United States Postal Service", "brand:wikidata": "Q668687", "collection_times": "Mo-Fr 16:50; Sa 11:50", "note": "ON 12/24 AND 12/31, THIS BOX MAY BE COLLECTED AS EARLY AS 12 NOON.", "nsi_id": "unitedstatespostalservice-a77078", "operator": "United States Postal Service", "operator:short": "USPS", "operator:type": "public", "operator:wikidata": "Q668687", "ref": "1381400001"}, "type": "Feature"}
{"geometry": {"coordinates": [-75.527251, 42.616612], "type": "Point"}, "id": "9ThC_VNRJV-xxR5C4Cdz0m62guc=", "properties": {"@source_uri": "https://tools.usps.com/UspsToolsRestServices/rest/POLocator/findLocations", "@spider": "usps_collection_boxes", "addr:city": "NORTH NORWICH", "addr:country": "US", "addr:postcode": "13814", "addr:state": "NY", "addr:street_address": "168 COUNTY ROAD 23", "amenity": "post_box", "brand": "United States Postal Service", "brand:wikidata": "Q668687", "collection_times": "Mo-Fr 17:00; Sa 11:45", "indoor": "yes", "note": "ON 12/24 AND 12/31, THIS BOX MAY BE COLLECTED AS EARLY AS 12 NOON.", "nsi_id": "unitedstatespostalservice-a77078", "operator": "United States Postal Service", "operator:short": "USPS", "operator:type": "public", "operator:wikidata": "Q668687", "ref": "1381400002"}, "type": "Feature"}
{"geometry": {"coordinates": [-75.527215729, 42.616617905], "type": "Point"}, "id": "VzhVAOWdxM7fFdu6PfujWZhXvqU=", "properties": {"@source_uri": "https://tools.usps.com/UspsToolsRestServices/rest/POLocator/findLocations", "@spider": "usps_collection_boxes", "addr:city": "NORTH NORWICH", "addr:country": "US", "addr:postcode": "13814", "addr:state": "NY", "addr:street_address": "168 COUNTY ROAD 23", "amenity": "post_box", "brand": "United States Postal Service", "brand:wikidata": "Q668687", "collection_times": "Mo-Fr 17:00; Sa 11:45", "indoor": "yes", "note": "ON 12/24 AND 12/31, THIS BOX MAY BE COLLECTED AS EARLY AS 12 NOON.", "nsi_id": "unitedstatespostalservice-a77078", "operator": "United States Postal Service", "operator:short": "USPS", "operator:type": "public", "operator:wikidata": "Q668687", "ref": "1381400004"}, "type": "Feature"}
{"geometry": {"coordinates": [-75.521937, 42.531358], "type": "Point"}, "id": "WSe7nJVhwuVjUKbSRqSQIc_bbtU=", "properties": {"@source_uri": "https://tools.usps.com/UspsToolsRestServices/rest/POLocator/findLocations", "@spider": "usps_collection_boxes", "addr:city": "NORWICH", "addr:country": "US", "addr:postcode": "13815", "addr:state": "NY", "addr:street_address": "20-22 E MAIN ST", "amenity": "post_box", "brand": "United States Postal Service", "brand:wikidata": "Q668687", "collection_times": "Mo-Fr 17:00; Sa 15:00", "note": "ON 12/24 AND 12/31, THIS BOX MAY BE COLLECTED AS EARLY AS 12 NOON.", "nsi_id": "unitedstatespostalservice-a77078", "operator": "United States Postal Service", "operator:short": "USPS", "operator:type": "public", "operator:wikidata": "Q668687", "ref": "1381500001"}, "type": "Feature"}
{"geometry": {"coordinates": [-75.521982, 42.531381], "type": "Point"}, "id": "pbWFoxBq6e5Pl5cHUtp7qeNH_cU=", "properties": {"@source_uri": "https://tools.usps.com/UspsToolsRestServices/rest/POLocator/findLocations", "@spider": "usps_collection_boxes", "addr:city": "NORWICH", "addr:country": "US", "addr:postcode": "13815", "addr:state": "NY", "addr:street_address": "20-22 E MAIN ST", "amenity": "post_box", "brand": "United States Postal Service", "brand:wikidata": "Q668687", "collection_times": "Mo-Fr 17:00; Sa 15:00", "note": "ON 12/24 AND 12/31, THIS BOX MAY BE COLLECTED AS EARLY AS 12 NOON.", "nsi_id": "unitedstatespostalservice-a77078", "operator": "United States Postal Service", "operator:short": "USPS", "operator:type": "public", "operator:wikidata": "Q668687", "ref": "1381500003"}, "type": "Feature"}
{"geometry": {"coordinates": [-75.5272952, 42.530917], "type": "Point"}, "id": "JMjHuJ0Owil2EvXkrD2KEU-bCWs=", "properties": {"@source_uri": "https://tools.usps.com/UspsToolsRestServices/rest/POLocator/findLocations", "@spider": "usps_collection_boxes", "addr:city": "NORWICH", "addr:country": "US", "addr:postcode": "13815", "addr:state": "NY", "addr:street_address": "42 W MAIN ST", "amenity": "post_box", "brand": "United States Postal Service", "brand:wikidata": "Q668687", "collection_times": "Mo-Sa 11:00", "nsi_id": "unitedstatespostalservice-a77078", "operator": "United States Postal Service", "operator:short": "USPS", "operator:type": "public", "operator:wikidata": "Q668687", "ref": "1381500007"}, "type": "Feature"}
{"geometry": {"coordinates": [-75.5348359, 42.54156], "type": "Point"}, "id": "JEXnLluu2c5KYnTsL2sOh-wK6-Y=", "properties": {"@source_uri": "https://tools.usps.com/UspsToolsRestServices/rest/POLocator/findLocations", "@spider": "usps_collection_boxes", "addr:city": "NORWICH", "addr:country": "US", "addr:postcode": "13815", "addr:state": "NY", "addr:street_address": "95 PLYMOUTH ST", "amenity": "post_box", "brand": "United States Postal Service", "brand:wikidata": "Q668687", "collection_times": "Mo-Sa 08:30", "nsi_id": "unitedstatespostalservice-a77078", "operator": "United States Postal Service", "operator:short": "USPS", "operator:type": "public", "operator:wikidata": "Q668687", "ref": "1381500012"}, "type": "Feature"}
{"geometry": {"coordinates": [-75.5308184, 42.532033], "type": "Point"}, "id": "4PLM2u1HktYd2wcQpMxj7XgaSu4=", "properties": {"@source_uri": "https://tools.usps.com/UspsToolsRestServices/rest/POLocator/findLocations", "@spider": "usps_collection_boxes", "addr:city": "NORWICH", "addr:country": "US", "addr:postcode": "13815", "addr:state": "NY", "addr:street_address": "24 CANASAWACTA ST", "amenity": "post_box", "brand": "United States Postal Service", "brand:wikidata": "Q668687", "collection_times": "Mo-Sa 11:00", "nsi_id": "unitedstatespostalservice-a77078", "operator": "United States Postal Service", "operator:short": "USPS", "operator:type": "public", "operator:wikidata": "Q668687", "ref": "1381500015"}, "type": "Feature"}
{"geometry": {"coordinates": [-75.5237409, 42.528876], "type": "Point"}, "id": "xC6oTxOE0KTOhblJYxCA8jsetgw=", "properties": {"@source_uri": "https://tools.usps.com/UspsToolsRestServices/rest/POLocator/findLocations", "@spider": "usps_collection_boxes", "addr:city": "NORWICH", "addr:country": "US", "addr:postcode": "13815", "addr:state": "NY", "addr:street_address": "52 S BROAD ST", "amenity": "post_box", "brand": "United States Postal Service", "brand:wikidata": "Q668687", "collection_times": "Mo-Fr 14:45; Sa 13:30", "note": "ON 12/24 AND 12/31, THIS BOX MAY BE COLLECTED AS EARLY AS 12 NOON.", "nsi_id": "unitedstatespostalservice-a77078", "operator": "United States Postal Service", "operator:short": "USPS", "operator:type": "public", "operator:wikidata": "Q668687", "ref": "1381500019"}, "type": "Feature"}
{"geometry": {"coordinates": [-75.524142457, 42.5319136784], "type": "Point"}, "id": "sadKsfLiYg0d7RxV6K9Rsso4pUE=", "properties": {"@source_uri": "https://tools.usps.com/UspsToolsRestServices/rest/POLocator/findLocations", "@spider": "usps_collection_boxes", "addr:city": "NORWICH", "addr:country": "US", "addr:postcode": "13815", "addr:state": "NY", "addr:street_address": "23 N BROAD ST", "amenity": "post_box", "brand": "United States Postal Service", "brand:wikidata": "Q668687", "collection_times": "Mo-Fr 14:45; Sa 13:30", "note": "ON 12/24 AND 12/31, THIS BOX MAY BE COLLECTED AS EARLY AS 12 NOON.", "nsi_id": "unitedstatespostalservice-a77078", "operator": "United States Postal Service", "operator:short": "USPS", "operator:type": "public", "operator:wikidata": "Q668687", "ref": "1381500023"}, "type": "Feature"}
{"geometry": {"coordinates": [-75.5230373, 42.539331], "type": "Point"}, "id": "R-A3db1BK6lesCDK1U0Phu7ZCws=", "properties": {"@source_uri": "https://tools.usps.com/UspsToolsRestServices/rest/POLocator/findLocations", "@spider": "usps_collection_boxes", "addr:city": "NORWICH", "addr:country": "US", "addr:postcode": "13815", "addr:state": "NY", "addr:street_address": "54 BORDEN AVE", "amenity": "post_box", "brand": "United States Postal Service", "brand:wikidata": "Q668687", "collection_times": "Mo-Sa 11:00", "nsi_id": "unitedstatespostalservice-a77078", "operator": "United States Postal Service", "operator:short": "USPS", "operator:type": "public", "operator:wikidata": "Q668687", "ref": "1381500024"}, "type": "Feature"}
{"geometry": {"coordinates": [-75.5243322, 42.551268], "type": "Point"}, "id": "r3absFbRO2_iPi9B_mGPiXaMFiU=", "properties": {"@source_uri": "https://tools.usps.com/UspsToolsRestServices/rest/POLocator/findLocations", "@spider": "usps_collection_boxes", "addr:city": "NORWICH", "addr:country": "US", "addr:postcode": "13815", "addr:state": "NY", "addr:street_address": "6142 STATE HIGHWAY 12", "amenity": "post_box", "brand": "United States Postal Service", "brand:wikidata": "Q668687", "collection_times": "Mo-Fr 09:00; Sa 08:30", "nsi_id": "unitedstatespostalservice-a77078", "operator": "United States Postal Service", "operator:short": "USPS", "operator:type": "public", "operator:wikidata": "Q668687", "ref": "1381500028"}, "type": "Feature"}
{"geometry": {"coordinates": [-75.521982, 42.531381], "type": "Point"}, "id": "xIoSuDkt4_6p-3ZmHv2PPOvMrVo=", "properties": {"@source_uri": "https://tools.usps.com/UspsToolsRestServices/rest/POLocator/findLocations", "@spider": "usps_collection_boxes", "addr:city": "NORWICH", "addr:country": "US", "addr:postcode": "13815", "addr:state": "NY", "addr:street_address": "20-22 E MAIN ST", "amenity": "post_box", "brand": "United States Postal Service", "brand:wikidata": "Q668687", "collection_times": "Mo-Fr 17:00; Sa 15:00", "indoor": "yes", "note": "ON 12/24 AND 12/31, THIS BOX MAY BE COLLECTED AS EARLY AS 12 NOON.", "nsi_id": "unitedstatespostalservice-a77078", "operator": "United States Postal Service", "operator:short": "USPS", "operator:type": "public", "operator:wikidata": "Q668687", "ref": "1381500032"}, "type": "Feature"}
{"geometry": {"coordinates": [-75.5198508, 42.530743], "type": "Point"}, "id": "dJjVO5TF0YqGEKOePeEWIlMrsRI=", "properties": {"@source_uri": "https://tools.usps.com/UspsToolsRestServices/rest/POLocator/findLocations", "@spider": "usps_collection_boxes", "addr:city": "NORWICH", "addr:country": "US", "addr:postcode": "13815", "addr:state": "NY", "addr:street_address": "54 E MAIN ST", "amenity": "post_box", "brand": "United States Postal Service", "brand:wikidata": "Q668687", "collection_times": "Mo-Fr 14:45; Sa 13:30", "note": "ON 12/24 AND 12/31, THIS BOX MAY BE COLLECTED AS EARLY AS 12 NOON.", "nsi_id": "unitedstatespostalservice-a77078", "operator": "United States Postal Service", "operator:short": "USPS", "operator:type": "public", "operator:wikidata": "Q668687", "ref": "1381500034"}, "type": "Feature"}
{"geometry": {"coordinates": [-75.521982, 42.531381], "type": "Point"}, "id": "dYnj2YNN-EOkE4QhZ4r5Dfm_Zkk=", "properties": {"@source_uri": "https://tools.usps.com/UspsToolsRestServices/rest/POLocator/findLocations", "@spider": "usps_collection_boxes", "addr:city": "NORWICH", "addr:country": "US", "addr:postcode": "13815", "addr:state": "NY", "addr:street_address": "20-22 E MAIN ST", "amenity": "post_box", "brand": "United States Postal Service", "brand:wikidata": "Q668687", "collection_times": "Mo-Fr 17:00; Sa 15:00", "indoor": "yes", "note": "ON 12/24 AND 12/31, THIS BOX MAY BE COLLECTED AS EARLY AS 12 NOON.", "nsi_id": "unitedstatespostalservice-a77078", "operator": "United States Postal Service", "operator:short": "USPS", "operator:type": "public", "operator:wikidata": "Q668687", "ref": "1381500035"}, "type": "Feature"}
{"geometry": {"coordinates": [-75.521982, 42.531381], "type": "Point"}, "id": "MM7tHWiUale66gZl5ABQ1a2Y5qw=", "properties": {"@source_uri": "https://tools.usps.com/UspsToolsRestServices/rest/POLocator/findLocations", "@spider": "usps_collection_boxes", "addr:city": "NORWICH", "addr:country": "US", "addr:postcode": "13815", "addr:state": "NY", "addr:street_address": "20-22 E MAIN ST", "amenity": "post_box", "brand": "United States Postal Service", "brand:wikidata": "Q668687", "collection_times": "Mo-Fr 17:00; Sa 15:00", "indoor": "yes", "note": "ON 12/24 AND 12/31, THIS BOX MAY BE COLLECTED AS EARLY AS 12 NOON.", "nsi_id": "unitedstatespostalservice-a77078", "operator": "United States Postal Service", "operator:short": "USPS", "operator:type": "public", "operator:wikidata": "Q668687", "ref": "1381500036"}, "type": "Feature"}
{"geometry": {"coordinates": [-75.525379, 42.527888], "type": "Point"}, "id": "quoYSnP78Ik1QAx1gxXpayHZGLg=", "properties": {"@source_uri": "https://tools.usps.com/UspsToolsRestServices/rest/POLocator/findLocations", "@spider": "usps_collection_boxes", "addr:city": "NORWICH", "addr:country": "US", "addr:postcode": "13815", "addr:state": "NY", "addr:street_address": "17 EATON AVE", "amenity": "post_box", "brand": "United States Postal Service", "brand:wikidata": "Q668687", "collection_times": "Mo-Fr 14:45; Sa 13:30", "note": "ON 12/24 AND 12/31, THIS BOX MAY BE COLLECTED AS EARLY AS 12 NOON.", "nsi_id": "unitedstatespostalservice-a77078", "operator": "United States Postal Service", "operator:short": "USPS", "operator:type": "public", "operator:wikidata": "Q668687", "ref": "1381500038"}, "type": "Feature"}
{"geometry": {"coordinates": [-75.5275849, 42.49724], "type": "Point"}, "id": "1z-608Spl3T5H1r--lgDgxPe-pI=", "properties": {"@source_uri": "https://tools.usps.com/UspsToolsRestServices/rest/POLocator/findLocations", "@spider": "usps_collection_boxes", "addr:city": "NORWICH", "addr:country": "US", "addr:postcode": "13815", "addr:state": "NY", "addr:street_address": "5396 STATE HIGHWAY 12", "amenity": "post_box", "brand": "United States Postal Service", "brand:wikidata": "Q668687", "collection_times": "Mo-Sa 08:30", "nsi_id": "unitedstatespostalservice-a77078", "operator": "United States Postal Service", "operator:short": "USPS", "operator:type": "public", "operator:wikidata": "Q668687", "ref": "1381500041"}, "type": "Feature"}
{"geometry": {"coordinates": [-75.521859172, 42.531360586], "type": "Point"}, "id": "t-o7MruqFEUyWZrj7KnCwXEdf_o=", "properties": {"@source_uri": "https://tools.usps.com/UspsToolsRestServices/rest/POLocator/findLocations", "@spider": "usps_collection_boxes", "addr:city": "NORWICH", "addr:country": "US", "addr:postcode": "13815", "addr:state": "NY", "addr:street_address": "20-22 E MAIN ST", "amenity": "post_box", "brand": "United States Postal Service", "brand:wikidata": "Q668687", "collection_times": "Mo-Fr 17:15; Sa 13:00", "indoor": "yes", "note": "ON 12/24 AND 12/31, THIS BOX MAY BE COLLECTED AS EARLY AS 12 NOON.", "nsi_id": "unitedstatespostalservice-a77078", "operator": "United States Postal Service", "operator:short": "USPS", "operator:type": "public", "operator:wikidata": "Q668687", "ref": "1381500042"}, "type": "Feature"}
{"geometry": {"coordinates": [-75.057423809, 42.457113933], "type": "Point"}, "id": "37Xa1BWvcClQRp0rxtE5pVLjf2I=", "properties": {"@source_uri": "https://tools.usps.com/UspsToolsRestServices/rest/POLocator/findLocations", "@spider": "usps_collection_boxes", "addr:city": "ONEONTA", "addr:country": "US", "addr:postcode": "13820", "addr:state": "NY", "addr:street_address": "352 MAIN ST", "amenity": "post_box", "brand": "United States Postal Service", "brand:wikidata": "Q668687", "collection_times": "Mo-Fr 17:00; Sa 16:00", "note": "ON 12/24 AND 12/31, THIS BOX MAY BE COLLECTED AS EARLY AS 12 NOON.", "nsi_id": "unitedstatespostalservice-a77078", "operator": "United States Postal Service", "operator:short": "USPS", "operator:type": "public", "operator:wikidata": "Q668687", "ref": "1382000002"}, "type": "Feature"}
{"geometry": {"coordinates": [-75.057288, 42.457256], "type": "Point"}, "id": "vQTkmDeUpNaDoo1E9qhwElB7p5w=", "properties": {"@source_uri": "https://tools.usps.com/UspsToolsRestServices/rest/POLocator/findLocations", "@spider": "usps_collection_boxes", "addr:city": "ONEONTA", "addr:country": "US", "addr:postcode": "13820", "addr:state": "NY", "addr:street_address": "353 MAIN ST", "amenity": "post_box", "brand": "United States Postal Service", "brand:wikidata": "Q668687", "collection_times": "Mo-Fr 17:00; Sa 16:00", "note": "ON 12/24 AND 12/31, THIS BOX MAY BE COLLECTED AS EARLY AS 12 NOON.", "nsi_id": "unitedstatespostalservice-a77078", "operator": "United States Postal Service", "operator:short": "USPS", "operator:type": "public", "operator:wikidata": "Q668687", "ref": "1382000004"}, "type": "Feature"}
{"geometry": {"coordinates": [-75.0136584, 42.461121], "type": "Point"}, "id": "mdBeuiXzONfNwNkk0hQUl815BHo=", "properties": {"@source_uri": "https://tools.usps.com/UspsToolsRestServices/rest/POLocator/findLocations", "@spider": "usps_collection_boxes", "addr:city": "ONEONTA", "addr:country": "US", "addr:postcode": "13820", "addr:state": "NY", "addr:street_address": "5626 STATE HIGHWAY 7", "amenity": "post_box", "brand": "United States Postal Service", "brand:wikidata": "Q668687", "collection_times": "Mo-Sa 11:00", "nsi_id": "unitedstatespostalservice-a77078", "operator": "United States Postal Service", "operator:short": "USPS", "operator:type": "public", "operator:wikidata": "Q668687", "ref": "1382000007"}, "type": "Feature"}
{"geometry": {"coordinates": [-75.0605359, 42.455025], "type": "Point"}, "id": "wIx9TESucsymDsqk3i4mRywGWfo=", "properties": {"@source_uri": "https://tools.usps.com/UspsToolsRestServices/rest/POLocator/findLocations", "@spider": "usps_collection_boxes", "addr:city": "ONEONTA", "addr:country": "US", "addr:postcode": "13820", "addr:state": "NY", "addr:street_address": "258 MAIN ST", "amenity": "post_box", "brand": "United States Postal Service", "brand:wikidata": "Q668687", "collection_times": "Mo-Fr 16:00; Sa 15:00", "note": "ON 12/24 AND 12/31, THIS BOX MAY BE COLLECTED AS EARLY AS 12 NOON.", "nsi_id": "unitedstatespostalservice-a77078", "operator": "United States Postal Service", "operator:short": "USPS", "operator:type": "public", "operator:wikidata": "Q668687", "ref": "1382000013"}, "type": "Feature"}
{"geometry": {"coordinates": [-75.0607805, 42.455012], "type": "Point"}, "id": "AXvmmqhZjw1nWNm11xXTKB70Bfk=", "properties": {"@source_uri": "https://tools.usps.com/UspsToolsRestServices/rest/POLocator/findLocations", "@spider": "usps_collection_boxes", "addr:city": "ONEONTA", "addr:country": "US", "addr:postcode": "13820", "addr:state": "NY", "addr:street_address": "245 MAIN ST", "amenity": "post_box", "brand": "United States Postal Service", "brand:wikidata": "Q668687", "collection_times": "Mo-Fr 16:00; Sa 15:00", "note": "ON 12/24 AND 12/31, THIS BOX MAY BE COLLECTED AS EARLY AS 12 NOON.", "nsi_id": "unitedstatespostalservice-a77078", "operator": "United States Postal Service", "operator:short": "USPS", "operator:type": "public", "operator:wikidata": "Q668687", "ref": "1382000014"}, "type": "Feature"}
{"geometry": {"coordinates": [-75.0621144, 42.453835], "type": "Point"}, "id": "hEXJLPsm5askNKaF1LN2caNxsF4=", "properties": {"@source_uri": "https://tools.usps.com/UspsToolsRestServices/rest/POLocator/findLocations", "@spider": "usps_collection_boxes", "addr:city": "ONEONTA", "addr:country": "US", "addr:postcode": "13820", "addr:state": "NY", "addr:street_address": "189 MAIN ST", "amenity": "post_box", "brand": "United States Postal Service", "brand:wikidata": "Q668687", "collection_times": "Mo-Fr 16:00; Sa 15:00", "note": "ON 12/24 AND 12/31, THIS BOX MAY BE COLLECTED AS EARLY AS 12 NOON.", "nsi_id": "unitedstatespostalservice-a77078", "operator": "United States Postal Service", "operator:short": "USPS", "operator:type": "public", "operator:wikidata": "Q668687", "ref": "1382000015"}, "type": "Feature"}
{"geometry": {"coordinates": [-75.0629937, 42.453089], "type": "Point"}, "id": "jR3gYvXb55wc18kDVeEEZ9-8aO8=", "properties": {"@source_uri": "https://tools.usps.com/UspsToolsRestServices/rest/POLocator/findLocations", "@spider": "usps_collection_boxes", "addr:city": "ONEONTA", "addr:country": "US", "addr:postcode": "13820", "addr:state": "NY", "addr:street_address": "139 MAIN ST", "amenity": "post_box", "brand": "United States Postal Service", "brand:wikidata": "Q668687", "collection_times": "Mo-Fr 16:00; Sa 15:00", "note": "ON 12/24 AND 12/31, THIS BOX MAY BE COLLECTED AS EARLY AS 12 NOON.", "nsi_id": "unitedstatespostalservice-a77078", "operator": "United States Postal Service", "operator:short": "USPS", "operator:type": "public", "operator:wikidata": "Q668687", "ref": "1382000017"}, "type": "Feature"}
{"geometry": {"coordinates": [-75.0293406, 42.456614], "type": "Point"}, "id": "XlKrkTWtiIrL_jM6KVHi32-pwyA=", "properties": {"@source_uri": "https://tools.usps.com/UspsToolsRestServices/rest/POLocator/findLocations", "@spider": "usps_collection_boxes", "addr:city": "ONEONTA", "addr:country": "US", "addr:postcode": "13820", "addr:state": "NY", "addr:street_address": "1 FOX CARE DR", "amenity": "post_box", "brand": "United States Postal Service", "brand:wikidata": "Q668687", "collection_times": "Mo-Sa 11:00", "nsi_id": "unitedstatespostalservice-a77078", "operator": "United States Postal Service", "operator:short": "USPS", "operator:type": "public", "operator:wikidata": "Q668687", "ref": "1382000021"}, "type": "Feature"}
{"geometry": {"coordinates": [-75.1044174, 42.448572], "type": "Point"}, "id": "BuYyZEswGiD_HxN0o6RnnHRP8qU=", "properties": {"@source_uri": "https://tools.usps.com/UspsToolsRestServices/rest/POLocator/findLocations", "@spider": "usps_collection_boxes", "addr:city": "ONEONTA", "addr:country": "US", "addr:postcode": "13820", "addr:state": "NY", "addr:street_address": "124 ONEIDA ST", "amenity": "post_box", "brand": "United States Postal Service", "brand:wikidata": "Q668687", "collection_times": "Mo-Sa 13:45", "note": "ON 12/24 AND 12/31, THIS BOX MAY BE COLLECTED AS EARLY AS 12 NOON.", "nsi_id": "unitedstatespostalservice-a77078", "operator": "United States Postal Service", "operator:short": "USPS", "operator:type": "public", "operator:wikidata": "Q668687", "ref": "1382000031"}, "type": "Feature"}
{"geometry": {"coordinates": [-75.0461699, 42.447379], "type": "Point"}, "id": "QCA1Eytdc8tcvIorVKgtFlKdDUA=", "properties": {"@source_uri": "https://tools.usps.com/UspsToolsRestServices/rest/POLocator/findLocations", "@spider": "usps_collection_boxes", "addr:city": "ONEONTA", "addr:country": "US", "addr:postcode": "13820", "addr:state": "NY", "addr:street_address": "5006 STATE HIGHWAY 23", "amenity": "post_box", "brand": "United States Postal Service", "brand:wikidata": "Q668687", "collection_times": "Mo-Sa 09:00", "nsi_id": "unitedstatespostalservice-a77078", "operator": "United States Postal Service", "operator:short": "USPS", "operator:type": "public", "operator:wikidata": "Q668687", "ref": "1382000038"}, "type": "Feature"}
{"geometry": {"coordinates": [-75.088567, 42.443417], "type": "Point"}, "id": "Mv7XcCt_3_SGYoGZxnYzgbR2nHA=", "properties": {"@source_uri": "https://tools.usps.com/UspsToolsRestServices/rest/POLocator/findLocations", "@spider": "usps_collection_boxes", "addr:city": "ONEONTA", "addr:country": "US", "addr:postcode": "13820", "addr:state": "NY", "addr:street_address": "297 RIVER ST SERVICE RD", "amenity": "post_box", "brand": "United States Postal Service", "brand:wikidata": "Q668687", "collection_times": "Mo-Sa 11:00", "nsi_id": "unitedstatespostalservice-a77078", "operator": "United States Postal Service", "operator:short": "USPS", "operator:type": "public", "operator:wikidata": "Q668687", "ref": "1382000042"}, "type": "Feature"}
{"geometry": {"coordinates": [-75.057487, 42.45718], "type": "Point"}, "id": "0VGurV0_AbASQxkdnpOTtHoo05A=", "properties": {"@source_uri": "https://tools.usps.com/UspsToolsRestServices/rest/POLocator/findLocations", "@spider": "usps_collection_boxes", "addr:city": "ONEONTA", "addr:country": "US", "addr:postcode": "13820", "addr:state": "NY", "addr:street_address": "352 MAIN ST", "amenity": "post_box", "brand": "United States Postal Service", "brand:wikidata": "Q668687", "collection_times": "Mo-Fr 17:30; Sa 16:00", "indoor": "yes", "note": "ON 12/24 AND 12/31, THIS BOX MAY BE COLLECTED AS EARLY AS 12 NOON.", "nsi_id": "unitedstatespostalservice-a77078", "operator": "United States Postal Service", "operator:short": "USPS", "operator:type": "public", "operator:wikidata": "Q668687", "ref": "1382000046"}, "type": "Feature"}
{"geometry": {"coordinates": [-75.0398946, 42.447244], "type": "Point"}, "id": "hh5KJBJKcC-gFPd8rSE1Q7FSZko=", "properties": {"@source_uri": "https://tools.usps.com/UspsToolsRestServices/rest/POLocator/findLocations", "@spider": "usps_collection_boxes", "addr:city": "ONEONTA", "addr:country": "US", "addr:postcode": "13820", "addr:state": "NY", "addr:street_address": "5054 STATE HIGHWAY 23", "amenity": "post_box", "brand": "United States Postal Service", "brand:wikidata": "Q668687", "collection_times": "Mo-Sa 09:00", "nsi_id": "unitedstatespostalservice-a77078", "operator": "United States Postal Service", "operator:short": "USPS", "operator:type": "public", "operator:wikidata": "Q668687", "ref": "1382000048"}, "type": "Feature"}
{"geometry": {"coordinates": [-75.0517555, 42.458012], "type": "Point"}, "id": "u2RLWPzdWeL0-iNvBigRRfazOSk=", "properties": {"@source_uri": "https://tools.usps.com/UspsToolsRestServices/rest/POLocator/findLocations", "@spider": "usps_collection_boxes", "addr:city": "ONEONTA", "addr:country": "US", "addr:postcode": "13820", "addr:state": "NY", "addr:street_address": "1 NORTON AVE", "amenity": "post_box", "brand": "United States Postal Service", "brand:wikidata": "Q668687", "collection_times": "Mo-Sa 09:00", "nsi_id": "unitedstatespostalservice-a77078", "operator": "United States Postal Service", "operator:short": "USPS", "operator:type": "public", "operator:wikidata": "Q668687", "ref": "1382000055"}, "type": "Feature"}
{"geometry": {"coordinates": [-75.057270031, 42.446549988], "type": "Point"}, "id": "Rh4gRjX8DgW1v8lMHIpDy43zBPs=", "properties": {"@source_uri": "https://tools.usps.com/UspsToolsRestServices/rest/POLocator/findLocations", "@spider": "usps_collection_boxes", "addr:city": "ONEONTA", "addr:country": "US", "addr:postcode": "13820", "addr:state": "NY", "addr:street_address": "705 ST HWY 28", "amenity": "post_box", "brand": "United States Postal Service", "brand:wikidata": "Q668687", "collection_times": "Mo-Sa 10:30", "nsi_id": "unitedstatespostalservice-a77078", "operator": "United States Postal Service", "operator:short": "USPS", "operator:type": "public", "operator:wikidata": "Q668687", "ref": "1382000056"}, "type": "Feature"}
{"geometry": {"coordinates": [-75.0599294, 42.452804], "type": "Point"}, "id": "v47ZiFkb3b-NTy6EfcM7ch4nbU0=", "properties": {"@source_uri": "https://tools.usps.com/UspsToolsRestServices/rest/POLocator/findLocations", "@spider": "usps_collection_boxes", "addr:city": "ONEONTA", "addr:country": "US", "addr:postcode": "13820", "addr:state": "NY", "addr:street_address": "60 MARKET ST", "amenity": "post_box", "brand": "United States Postal Service", "brand:wikidata": "Q668687", "collection_times": "Mo-Fr 14:30; Sa 14:00", "note": "ON 12/24 AND 12/31, THIS BOX MAY BE COLLECTED AS EARLY AS 12 NOON.", "nsi_id": "unitedstatespostalservice-a77078", "operator": "United States Postal Service", "operator:short": "USPS", "operator:type": "public", "operator:wikidata": "Q668687", "ref": "1382000058"}, "type": "Feature"}
{"geometry": {"coordinates": [-74.9848681, 42.440542], "type": "Point"}, "id": "7Nseu_mg8xP6BT_4Fl1JeZbCnv4=", "properties": {"@source_uri": "https://tools.usps.com/UspsToolsRestServices/rest/POLocator/findLocations", "@spider": "usps_collection_boxes", "addr:city": "ONEONTA", "addr:country": "US", "addr:postcode": "13820", "addr:state": "NY", "addr:street_address": "122 MOUNTAIN VISTA DR", "amenity": "post_box", "brand": "United States Postal Service", "brand:wikidata": "Q668687", "collection_times": "Mo-Sa 11:00", "nsi_id": "unitedstatespostalservice-a77078", "operator": "United States Postal Service", "operator:short": "USPS", "operator:type": "public", "operator:wikidata": "Q668687", "ref": "1382000061"}, "type": "Feature"}
{"geometry": {"coordinates": [-75.0823954, 42.451722], "type": "Point"}, "id": "WLuW4SdhPBkH_dnmbc6X1eeEty0=", "properties": {"@source_uri": "https://tools.usps.com/UspsToolsRestServices/rest/POLocator/findLocations", "@spider": "usps_collection_boxes", "addr:city": "ONEONTA", "addr:country": "US", "addr:postcode": "13820", "addr:state": "NY", "addr:street_address": "291 CHESTNUT ST", "amenity": "post_box", "brand": "United States Postal Service", "brand:wikidata": "Q668687", "collection_times": "Mo-Sa 14:00", "note": "ON 12/24 AND 12/31, THIS BOX MAY BE COLLECTED AS EARLY AS 12 NOON.", "nsi_id": "unitedstatespostalservice-a77078", "operator": "United States Postal Service", "operator:short": "USPS", "operator:type": "public", "operator:wikidata": "Q668687", "ref": "1382000065"}, "type": "Feature"}
{"geometry": {"coordinates": [-75.057423809, 42.457113933], "type": "Point"}, "id": "S-kNgW_SCA5P9tfYSgAAruveKB0=", "properties": {"@source_uri": "https://tools.usps.com/UspsToolsRestServices/rest/POLocator/findLocations", "@spider": "usps_collection_boxes", "addr:city": "ONEONTA", "addr:country": "US", "addr:postcode": "13820", "addr:state": "NY", "addr:street_address": "352 MAIN ST", "amenity": "post_box", "brand": "United States Postal Service", "brand:wikidata": "Q668687", "collection_times": "Mo-Fr 17:00; Sa 12:00", "indoor": "yes", "note": "ON 12/24 AND 12/31, THIS BOX MAY BE COLLECTED AS EARLY AS 12 NOON.", "nsi_id": "unitedstatespostalservice-a77078", "operator": "United States Postal Service", "operator:short": "USPS", "operator:type": "public", "operator:wikidata": "Q668687", "ref": "1382000074"}, "type": "Feature"}
{"geometry": {"coordinates": [-75.172879, 42.39697], "type": "Point"}, "id": "jE_d7KX5KMOS0zOyOmPQ2zBKYWE=", "properties": {"@source_uri": "https://tools.usps.com/UspsToolsRestServices/rest/POLocator/findLocations", "@spider": "usps_collection_boxes", "addr:city": "OTEGO", "addr:country": "US", "addr:postcode": "13825", "addr:state": "NY", "addr:street_address": "7 RIVER ST", "amenity": "post_box", "brand": "United States Postal Service", "brand:wikidata": "Q668687", "collection_times": "Mo-Fr 16:45; Sa 11:45", "note": "ON 12/24 AND 12/31, THIS BOX MAY BE COLLECTED AS EARLY AS 12 NOON.", "nsi_id": "unitedstatespostalservice-a77078", "operator": "United States Postal Service", "operator:short": "USPS", "operator:type": "public", "operator:wikidata": "Q668687", "ref": "1382500001"}, "type": "Feature"}
{"geometry": {"coordinates": [-75.172949, 42.396995], "type": "Point"}, "id": "6z0TPeCWNWIU8SwHxSn63XOz46w=", "properties": {"@source_uri": "https://tools.usps.com/UspsToolsRestServices/rest/POLocator/findLocations", "@spider": "usps_collection_boxes", "addr:city": "OTEGO", "addr:country": "US", "addr:postcode": "13825", "addr:state": "NY", "addr:street_address": "7 RIVER ST", "amenity": "post_box", "brand": "United States Postal Service", "brand:wikidata": "Q668687", "collection_times": "Mo-Fr 16:45; Sa 11:45", "indoor": "yes", "note": "ON 12/24 AND 12/31, THIS BOX MAY BE COLLECTED AS EARLY AS 12 NOON.", "nsi_id": "unitedstatespostalservice-a77078", "operator": "United States Postal Service", "operator:short": "USPS", "operator:type": "public", "operator:wikidata": "Q668687", "ref": "1382500002"}, "type": "Feature"}
{"geometry": {"coordinates": [-75.172711418, 42.39679811], "type": "Point"}, "id": "DS3GIdgRpkA6pLuS4b7OAClxIWc=", "properties": {"@source_uri": "https://tools.usps.com/UspsToolsRestServices/rest/POLocator/findLocations", "@spider": "usps_collection_boxes", "addr:city": "OTEGO", "addr:country": "US", "addr:postcode": "13825", "addr:state": "NY", "addr:street_address": "7 RIVER ST", "amenity": "post_box", "brand": "United States Postal Service", "brand:wikidata": "Q668687", "collection_times": "Mo-Fr 16:45; Sa 12:00", "indoor": "yes", "note": "ON 12/24 AND 12/31, THIS BOX MAY BE COLLECTED AS EARLY AS 12 NOON.", "nsi_id": "unitedstatespostalservice-a77078", "operator": "United States Postal Service", "operator:short": "USPS", "operator:type": "public", "operator:wikidata": "Q668687", "ref": "1382500004"}, "type": "Feature"}
{"geometry": {"coordinates": [-76.2607877777, 42.1029619463], "type": "Point"}, "id": "6eKhDeASB_ALXqTk_81FkH4OtvE=", "properties": {"@source_uri": "https://tools.usps.com/UspsToolsRestServices/rest/POLocator/findLocations", "@spider": "usps_collection_boxes", "addr:city": "OWEGO", "addr:country": "US", "addr:postcode": "13827", "addr:state": "NY", "addr:street_address": "6 LAKE ST", "amenity": "post_box", "brand": "United States Postal Service", "brand:wikidata": "Q668687", "collection_times": "Mo-Fr 17:00; Sa 15:00", "note": "ON 12/24 AND 12/31, THIS BOX MAY BE COLLECTED AS EARLY AS 12 NOON.", "nsi_id": "unitedstatespostalservice-a77078", "operator": "United States Postal Service", "operator:short": "USPS", "operator:type": "public", "operator:wikidata": "Q668687", "ref": "1382700001"}, "type": "Feature"}
{"geometry": {"coordinates": [-76.260663, 42.102539], "type": "Point"}, "id": "cs_3VLLJ2FOx2fg2s9kwGSDKX3c=", "properties": {"@source_uri": "https://tools.usps.com/UspsToolsRestServices/rest/POLocator/findLocations", "@spider": "usps_collection_boxes", "addr:city": "OWEGO", "addr:country": "US", "addr:postcode": "13827", "addr:state": "NY", "addr:street_address": "6 LAKE ST", "amenity": "post_box", "brand": "United States Postal Service", "brand:wikidata": "Q668687", "collection_times": "Mo-Fr 17:00; Sa 15:00", "note": "ON 12/24 AND 12/31, THIS BOX MAY BE COLLECTED AS EARLY AS 12 NOON.", "nsi_id": "unitedstatespostalservice-a77078", "operator": "United States Postal Service", "operator:short": "USPS", "operator:type": "public", "operator:wikidata": "Q668687", "ref": "1382700002"}, "type": "Feature"}
{"geometry": {"coordinates": [-76.260663, 42.102539], "type": "Point"}, "id": "mthw2ZJ2dpMrEcp7clr13wICxVw=", "properties": {"@source_uri": "https://tools.usps.com/UspsToolsRestServices/rest/POLocator/findLocations", "@spider": "usps_collection_boxes", "addr:city": "OWEGO", "addr:country": "US", "addr:postcode": "13827", "addr:state": "NY", "addr:street_address": "6 LAKE ST", "amenity": "post_box", "brand": "United States Postal Service", "brand:wikidata": "Q668687", "collection_times": "Mo-Fr 17:00; Sa 15:00", "note": "ON 12/24 AND 12/31, THIS BOX MAY BE COLLECTED AS EARLY AS 12 NOON.", "nsi_id": "unitedstatespostalservice-a77078", "operator": "United States Postal Service", "operator:short": "USPS", "operator:type": "public", "operator:wikidata": "Q668687", "ref": "1382700003"}, "type": "Feature"}
{"geometry": {"coordinates": [-76.2633076, 42.103288], "type": "Point"}, "id": "EQNbI-H2pliHBWq5hwT2gGjOrU4=", "properties": {"@source_uri": "https://tools.usps.com/UspsToolsRestServices/rest/POLocator/findLocations", "@spider": "usps_collection_boxes", "addr:city": "OWEGO", "addr:country": "US", "addr:postcode": "13827", "addr:state": "NY", "addr:street_address": "153 MAIN ST", "amenity": "post_box", "brand": "United States Postal Service", "brand:wikidata": "Q668687", "collection_times": "Mo-Sa 14:00", "note": "ON 12/24 AND 12/31, THIS BOX MAY BE COLLECTED AS EARLY AS 12 NOON.", "nsi_id": "unitedstatespostalservice-a77078", "operator": "United States Postal Service", "operator:short": "USPS", "operator:type": "public", "operator:wikidata": "Q668687", "ref": "1382700025"}, "type": "Feature"}
{"geometry": {"coordinates": [-76.260663, 42.102539], "type": "Point"}, "id": "XPvfngtkE_hrqaoeYp8VYEmvkDM=", "properties": {"@source_uri": "https://tools.usps.com/UspsToolsRestServices/rest/POLocator/findLocations", "@spider": "usps_collection_boxes", "addr:city": "OWEGO", "addr:country": "US", "addr:postcode": "13827", "addr:state": "NY", "addr:street_address": "6 LAKE ST", "amenity": "post_box", "brand": "United States Postal Service", "brand:wikidata": "Q668687", "collection_times": "Mo-Fr 17:00; Sa 15:30", "indoor": "yes", "note": "ON 12/24 AND 12/31, THIS BOX MAY BE COLLECTED AS EARLY AS 12 NOON.", "nsi_id": "unitedstatespostalservice-a77078", "operator": "United States Postal Service", "operator:short": "USPS", "operator:type": "public", "operator:wikidata": "Q668687", "ref": "1382700046"}, "type": "Feature"}
{"geometry": {"coordinates": [-76.2703103, 42.098437], "type": "Point"}, "id": "3eRiUoBhEvd-NjkHVsxhEmtO_6g=", "properties": {"@source_uri": "https://tools.usps.com/UspsToolsRestServices/rest/POLocator/findLocations", "@spider": "usps_collection_boxes", "addr:city": "OWEGO", "addr:country": "US", "addr:postcode": "13827", "addr:state": "NY", "addr:street_address": "42 W MAIN ST", "amenity": "post_box", "brand": "United States Postal Service", "brand:wikidata": "Q668687", "collection_times": "Mo-Sa 09:00", "nsi_id": "unitedstatespostalservice-a77078", "operator": "United States Postal Service", "operator:short": "USPS", "operator:type": "public", "operator:wikidata": "Q668687", "ref": "1382700047"}, "type": "Feature"}
{"geometry": {"coordinates": [-76.260929858, 42.102866462], "type": "Point"}, "id": "0Pj1kSMYQAAoWXepDCFsn0lHcOw=", "properties": {"@source_uri": "https://tools.usps.com/UspsToolsRestServices/rest/POLocator/findLocations", "@spider": "usps_collection_boxes", "addr:city": "OWEGO", "addr:country": "US", "addr:postcode": "13827", "addr:state": "NY", "addr:street_address": "6 LAKE ST", "amenity": "post_box", "brand": "United States Postal Service", "brand:wikidata": "Q668687", "collection_times": "Mo-Fr 17:00; Sa 12:00", "indoor": "yes", "note": "ON 12/24 AND 12/31, THIS BOX MAY BE COLLECTED AS EARLY AS 12 NOON.", "nsi_id": "unitedstatespostalservice-a77078", "operator": "United States Postal Service", "operator:short": "USPS", "operator:type": "public", "operator:wikidata": "Q668687", "ref": "1382700049"}, "type": "Feature"}
{"geometry": {"coordinates": [-75.608687, 42.436815], "type": "Point"}, "id": "cThRRcG1NlcghNXB8UCPjx4Y4Cc=", "properties": {"@source_uri": "https://tools.usps.com/UspsToolsRestServices/rest/POLocator/findLocations", "@spider": "usps_collection_boxes", "addr:city": "OXFORD", "addr:country": "US", "addr:postcode": "13830", "addr:state": "NY", "addr:street_address": "2 S WASHINGTON RD", "amenity": "post_box", "brand": "United States Postal Service", "brand:wikidata": "Q668687", "collection_times": "Mo-Fr 16:00; Sa 12:00", "indoor": "yes", "note": "ON 12/24 AND 12/31, THIS BOX MAY BE COLLECTED AS EARLY AS 12 NOON.", "nsi_id": "unitedstatespostalservice-a77078", "operator": "United States Postal Service", "operator:short": "USPS", "operator:type": "public", "operator:wikidata": "Q668687", "ref": "1383000001"}, "type": "Feature"}
{"geometry": {"coordinates": [-75.608641, 42.436902], "type": "Point"}, "id": "zvKWQ9vU0CjFE9dXqWqNikmaBHM=", "properties": {"@source_uri": "https://tools.usps.com/UspsToolsRestServices/rest/POLocator/findLocations", "@spider": "usps_collection_boxes", "addr:city": "OXFORD", "addr:country": "US", "addr:postcode": "13830", "addr:state": "NY", "addr:street_address": "2 S WASHINGTON RD", "amenity": "post_box", "brand": "United States Postal Service", "brand:wikidata": "Q668687", "collection_times": "Mo-Fr 16:00; Sa 12:00", "note": "ON 12/24 AND 12/31, THIS BOX MAY BE COLLECTED AS EARLY AS 12 NOON.", "nsi_id": "unitedstatespostalservice-a77078", "operator": "United States Postal Service", "operator:short": "USPS", "operator:type": "public", "operator:wikidata": "Q668687", "ref": "1383000002"}, "type": "Feature"}
{"geometry": {"coordinates": [-75.5764423, 42.447753], "type": "Point"}, "id": "ONHHOB_-5tgTdMTVUl0iaOUn2FQ=", "properties": {"@source_uri": "https://tools.usps.com/UspsToolsRestServices/rest/POLocator/findLocations", "@spider": "usps_collection_boxes", "addr:city": "OXFORD", "addr:country": "US", "addr:postcode": "13830", "addr:state": "NY", "addr:street_address": "4207 STATE HIGHWAY 220", "amenity": "post_box", "brand": "United States Postal Service", "brand:wikidata": "Q668687", "collection_times": "Mo-Sa 09:00", "nsi_id": "unitedstatespostalservice-a77078", "operator": "United States Postal Service", "operator:short": "USPS", "operator:type": "public", "operator:wikidata": "Q668687", "ref": "1383000005"}, "type": "Feature"}
{"geometry": {"coordinates": [-75.608647601, 42.436796969], "type": "Point"}, "id": "oNBioGFelX6ZnSvECR6G2h1yBlU=", "properties": {"@source_uri": "https://tools.usps.com/UspsToolsRestServices/rest/POLocator/findLocations", "@spider": "usps_collection_boxes", "addr:city": "OXFORD", "addr:country": "US", "addr:postcode": "13830", "addr:state": "NY", "addr:street_address": "2 S WASHINGTON RD", "amenity": "post_box", "brand": "United States Postal Service", "brand:wikidata": "Q668687", "collection_times": "Mo-Fr 16:00; Sa 12:00", "indoor": "yes", "note": "ON 12/24 AND 12/31, THIS BOX MAY BE COLLECTED AS EARLY AS 12 NOON.", "nsi_id": "unitedstatespostalservice-a77078", "operator": "United States Postal Service", "operator:short": "USPS", "operator:type": "public", "operator:wikidata": "Q668687", "ref": "1383000006"}, "type": "Feature"}
{"geometry": {"coordinates": [-75.6027699893, 42.6178700117], "type": "Point"}, "id": "Lc47lr2BccQYnmNaKv99P2Hj6NI=", "properties": {"@source_uri": "https://tools.usps.com/UspsToolsRestServices/rest/POLocator/findLocations", "@spider": "usps_collection_boxes", "addr:city": "PLYMOUTH", "addr:country": "US", "addr:postcode": "13832", "addr:state": "NY", "addr:street_address": "107 COUNTY ROUTE 21", "amenity": "post_box", "brand": "United States Postal Service", "brand:wikidata": "Q668687", "collection_times": "Mo-Fr 12:30; Sa 11:15", "note": "ON 12/24 AND 12/31, THIS BOX MAY BE COLLECTED AS EARLY AS 12 NOON.", "nsi_id": "unitedstatespostalservice-a77078", "operator": "United States Postal Service", "operator:short": "USPS", "operator:type": "public", "operator:wikidata": "Q668687", "ref": "1383200001"}, "type": "Feature"}
{"geometry": {"coordinates": [-75.6595233975, 42.6457465468], "type": "Point"}, "id": "ZYbmwjyx4nwuHW-OnEMOrV2NUFY=", "properties": {"@source_uri": "https://tools.usps.com/UspsToolsRestServices/rest/POLocator/findLocations", "@spider": "usps_collection_boxes", "addr:city": "PLYMOUTH", "addr:country": "US", "addr:postcode": "13832", "addr:state": "NY", "addr:street_address": "107 C0UNTY RT 21", "amenity": "post_box", "brand": "United States Postal Service", "brand:wikidata": "Q668687", "collection_times": "Mo-Fr 12:30; Sa 11:30", "indoor": "yes", "note": "ON 12/24 AND 12/31, THIS BOX MAY BE COLLECTED AS EARLY AS 12 NOON.", "nsi_id": "unitedstatespostalservice-a77078", "operator": "United States Postal Service", "operator:short": "USPS", "operator:type": "public", "operator:wikidata": "Q668687", "ref": "1383200002"}, "type": "Feature"}
{"geometry": {"coordinates": [-75.602644344, 42.617845739], "type": "Point"}, "id": "TICrpajP6qE8ubeM9t5kXWG897I=", "properties": {"@source_uri": "https://tools.usps.com/UspsToolsRestServices/rest/POLocator/findLocations", "@spider": "usps_collection_boxes", "addr:city": "PLYMOUTH", "addr:country": "US", "addr:postcode": "13832", "addr:state": "NY", "addr:street_address": "107 COUNTY ROAD 21", "amenity": "post_box", "brand": "United States Postal Service", "brand:wikidata": "Q668687", "collection_times": "Mo-Fr 12:30; Sa 11:30", "indoor": "yes", "note": "ON 12/24 AND 12/31, THIS BOX MAY BE COLLECTED AS EARLY AS 12 NOON.", "nsi_id": "unitedstatespostalservice-a77078", "operator": "United States Postal Service", "operator:short": "USPS", "operator:type": "public", "operator:wikidata": "Q668687", "ref": "1383200003"}, "type": "Feature"}
{"geometry": {"coordinates": [-75.835309, 42.164261], "type": "Point"}, "id": "qi_wD7tZFrNTFohFzRslSAlSwas=", "properties": {"@source_uri": "https://tools.usps.com/UspsToolsRestServices/rest/POLocator/findLocations", "@spider": "usps_collection_boxes", "addr:city": "PORT CRANE", "addr:country": "US", "addr:postcode": "13833", "addr:state": "NY", "addr:street_address": "12 CANAL ST", "amenity": "post_box", "brand": "United States Postal Service", "brand:wikidata": "Q668687", "collection_times": "Mo-Fr 16:00; Sa 11:30", "note": "ON 12/24 AND 12/31, THIS BOX MAY BE COLLECTED AS EARLY AS 12 NOON.", "nsi_id": "unitedstatespostalservice-a77078", "operator": "United States Postal Service", "operator:short": "USPS", "operator:type": "public", "operator:wikidata": "Q668687", "ref": "1383300001"}, "type": "Feature"}
{"geometry": {"coordinates": [-75.83529, 42.164325], "type": "Point"}, "id": "pChPa0xooXKrNjTF0GcwjDLSQ0I=", "properties": {"@source_uri": "https://tools.usps.com/UspsToolsRestServices/rest/POLocator/findLocations", "@spider": "usps_collection_boxes", "addr:city": "PORT CRANE", "addr:country": "US", "addr:postcode": "13833", "addr:state": "NY", "addr:street_address": "12 CANAL ST", "amenity": "post_box", "brand": "United States Postal Service", "brand:wikidata": "Q668687", "collection_times": "Mo-Fr 16:00; Sa 11:30", "indoor": "yes", "note": "ON 12/24 AND 12/31, THIS BOX MAY BE COLLECTED AS EARLY AS 12 NOON.", "nsi_id": "unitedstatespostalservice-a77078", "operator": "United States Postal Service", "operator:short": "USPS", "operator:type": "public", "operator:wikidata": "Q668687", "ref": "1383300002"}, "type": "Feature"}
{"geometry": {"coordinates": [-75.835301225, 42.164261959], "type": "Point"}, "id": "T91_7lSp7TtVYbwbJYXM6fZZaag=", "properties": {"@source_uri": "https://tools.usps.com/UspsToolsRestServices/rest/POLocator/findLocations", "@spider": "usps_collection_boxes", "addr:city": "PORT CRANE", "addr:country": "US", "addr:postcode": "13833", "addr:state": "NY", "addr:street_address": "12 CANAL ST", "amenity": "post_box", "brand": "United States Postal Service", "brand:wikidata": "Q668687", "collection_times": "Mo-Fr 16:30; Sa 12:00", "indoor": "yes", "note": "ON 12/24 AND 12/31, THIS BOX MAY BE COLLECTED AS EARLY AS 12 NOON.", "nsi_id": "unitedstatespostalservice-a77078", "operator": "United States Postal Service", "operator:short": "USPS", "operator:type": "public", "operator:wikidata": "Q668687", "ref": "1383300004"}, "type": "Feature"}
{"geometry": {"coordinates": [-74.968125, 42.529375], "type": "Point"}, "id": "U7PVDorAawlMLLfeQ-abSb9p9h0=", "properties": {"@source_uri": "https://tools.usps.com/UspsToolsRestServices/rest/POLocator/findLocations", "@spider": "usps_collection_boxes", "addr:city": "PORTLANDVILLE", "addr:country": "US", "addr:postcode": "13834", "addr:state": "NY", "addr:street_address": "2846 STATE HIGHWAY 28", "amenity": "post_box", "brand": "United States Postal Service", "brand:wikidata": "Q668687", "collection_times": "Mo-Fr 13:00; Sa 11:45", "note": "ON 12/24 AND 12/31, THIS BOX MAY BE COLLECTED AS EARLY AS 12 NOON.", "nsi_id": "unitedstatespostalservice-a77078", "operator": "United States Postal Service", "operator:short": "USPS", "operator:type": "public", "operator:wikidata": "Q668687", "ref": "1383400001"}, "type": "Feature"}
{"geometry": {"coordinates": [-74.968224, 42.529326], "type": "Point"}, "id": "RkeMeREYzOGYX2zt0YBQisZWHwM=", "properties": {"@source_uri": "https://tools.usps.com/UspsToolsRestServices/rest/POLocator/findLocations", "@spider": "usps_collection_boxes", "addr:city": "PORTLANDVILLE", "addr:country": "US", "addr:postcode": "13834", "addr:state": "NY", "addr:street_address": "2846 STATE HIGHWAY 28", "amenity": "post_box", "brand": "United States Postal Service", "brand:wikidata": "Q668687", "collection_times": "Mo-Fr 13:00; Sa 11:45", "indoor": "yes", "note": "ON 12/24 AND 12/31, THIS BOX MAY BE COLLECTED AS EARLY AS 12 NOON.", "nsi_id": "unitedstatespostalservice-a77078", "operator": "United States Postal Service", "operator:short": "USPS", "operator:type": "public", "operator:wikidata": "Q668687", "ref": "1383400002"}, "type": "Feature"}
{"geometry": {"coordinates": [-74.968049103, 42.529444503], "type": "Point"}, "id": "-W9GfW7vVE0dZbHpVwJszhzpeiA=", "properties": {"@source_uri": "https://tools.usps.com/UspsToolsRestServices/rest/POLocator/findLocations", "@spider": "usps_collection_boxes", "addr:city": "PORTLANDVILLE", "addr:country": "US", "addr:postcode": "13834", "addr:state": "NY", "addr:street_address": "2846 STATE HIGHWAY 28", "amenity": "post_box", "brand": "United States Postal Service", "brand:wikidata": "Q668687", "collection_times": "Mo-Fr 13:00; Sa 11:45", "indoor": "yes", "note": "ON 12/24 AND 12/31, THIS BOX MAY BE COLLECTED AS EARLY AS 12 NOON.", "nsi_id": "unitedstatespostalservice-a77078", "operator": "United States Postal Service", "operator:short": "USPS", "operator:type": "public", "operator:wikidata": "Q668687", "ref": "1383400003"}, "type": "Feature"}
{"geometry": {"coordinates": [-76.200095404, 42.3565161324], "type": "Point"}, "id": "R72YmWw6JM9l0WsG9LwBpihbHlM=", "properties": {"@source_uri": "https://tools.usps.com/UspsToolsRestServices/rest/POLocator/findLocations", "@spider": "usps_collection_boxes", "addr:city": "RICHFORD", "addr:country": "US", "addr:postcode": "13835", "addr:state": "NY", "addr:street_address": "1007 STATE ROUTE 79", "amenity": "post_box", "brand": "United States Postal Service", "brand:wikidata": "Q668687", "collection_times": "Mo-Sa 11:00", "nsi_id": "unitedstatespostalservice-a77078", "operator": "United States Postal Service", "operator:short": "USPS", "operator:type": "public", "operator:wikidata": "Q668687", "ref": "1383500001"}, "type": "Feature"}
{"geometry": {"coordinates": [-76.200095404, 42.3565161324], "type": "Point"}, "id": "eh6WLVhyFSIts7e2mGVZHa353oU=", "properties": {"@source_uri": "https://tools.usps.com/UspsToolsRestServices/rest/POLocator/findLocations", "@spider": "usps_collection_boxes", "addr:city": "RICHFORD", "addr:country": "US", "addr:postcode": "13835", "addr:state": "NY", "addr:street_address": "1007 STATE ROUTE 79", "amenity": "post_box", "brand": "United States Postal Service", "brand:wikidata": "Q668687", "collection_times": "Mo-Sa 11:00", "indoor": "yes", "nsi_id": "unitedstatespostalservice-a77078", "operator": "United States Postal Service", "operator:short": "USPS", "operator:type": "public", "operator:wikidata": "Q668687", "ref": "1383500008"}, "type": "Feature"}
{"geometry": {"coordinates": [-75.409918, 42.299667], "type": "Point"}, "id": "2yE6-E3pXE5goDBx6EtxxPxd4Pc=", "properties": {"@source_uri": "https://tools.usps.com/UspsToolsRestServices/rest/POLocator/findLocations", "@spider": "usps_collection_boxes", "addr:city": "SIDNEY", "addr:country": "US", "addr:postcode": "13838", "addr:state": "NY", "addr:street_address": "6 MANG DR", "amenity": "post_box", "brand": "United States Postal Service", "brand:wikidata": "Q668687", "collection_times": "Mo-Fr 17:00; Sa 15:00", "note": "ON 12/24 AND 12/31, THIS BOX MAY BE COLLECTED AS EARLY AS 12 NOON.", "nsi_id": "unitedstatespostalservice-a77078", "operator": "United States Postal Service", "operator:short": "USPS", "operator:type": "public", "operator:wikidata": "Q668687", "ref": "1383800001"}, "type": "Feature"}
{"geometry": {"coordinates": [-75.389688, 42.317353], "type": "Point"}, "id": "X3gjhAaO4LFDbRYr0fJkjGozghI=", "properties": {"@source_uri": "https://tools.usps.com/UspsToolsRestServices/rest/POLocator/findLocations", "@spider": "usps_collection_boxes", "addr:city": "SIDNEY", "addr:country": "US", "addr:postcode": "13838", "addr:state": "NY", "addr:street_address": "15 PLEASANT ST", "amenity": "post_box", "brand": "United States Postal Service", "brand:wikidata": "Q668687", "collection_times": "Mo-Fr 13:00; Sa 13:30", "note": "ON 12/24 AND 12/31, THIS BOX MAY BE COLLECTED AS EARLY AS 12 NOON.", "nsi_id": "unitedstatespostalservice-a77078", "operator": "United States Postal Service", "operator:short": "USPS", "operator:type": "public", "operator:wikidata": "Q668687", "ref": "1383800016"}, "type": "Feature"}
{"geometry": {"coordinates": [-75.409964, 42.299747], "type": "Point"}, "id": "CjkDp3tsC-xfTvsyZZq3zLNnj8M=", "properties": {"@source_uri": "https://tools.usps.com/UspsToolsRestServices/rest/POLocator/findLocations", "@spider": "usps_collection_boxes", "addr:city": "SIDNEY", "addr:country": "US", "addr:postcode": "13838", "addr:state": "NY", "addr:street_address": "6 MANG DR", "amenity": "post_box", "brand": "United States Postal Service", "brand:wikidata": "Q668687", "collection_times": "Mo-Fr 16:45; Sa 15:00", "indoor": "yes", "note": "ON 12/24 AND 12/31, THIS BOX MAY BE COLLECTED AS EARLY AS 12 NOON.", "nsi_id": "unitedstatespostalservice-a77078", "operator": "United States Postal Service", "operator:short": "USPS", "operator:type": "public", "operator:wikidata": "Q668687", "ref": "1383800021"}, "type": "Feature"}
{"geometry": {"coordinates": [-75.391149932, 42.314476548], "type": "Point"}, "id": "6kjuoqbFarVTvNNaSTY6H9A5Mk4=", "properties": {"@source_uri": "https://tools.usps.com/UspsToolsRestServices/rest/POLocator/findLocations", "@spider": "usps_collection_boxes", "addr:city": "SIDNEY", "addr:country": "US", "addr:postcode": "13838", "addr:state": "NY", "addr:street_address": "72 MAIN ST", "amenity": "post_box", "brand": "United States Postal Service", "brand:wikidata": "Q668687", "collection_times": "Mo-Sa 13:00", "note": "ON 12/24 AND 12/31, THIS BOX MAY BE COLLECTED AS EARLY AS 12 NOON.", "nsi_id": "unitedstatespostalservice-a77078", "operator": "United States Postal Service", "operator:short": "USPS", "operator:type": "public", "operator:wikidata": "Q668687", "ref": "1383800028"}, "type": "Feature"}
{"geometry": {"coordinates": [-75.391589914, 42.314926609], "type": "Point"}, "id": "g6c817-96DvmHMavngb79Wx1bjc=", "properties": {"@source_uri": "https://tools.usps.com/UspsToolsRestServices/rest/POLocator/findLocations", "@spider": "usps_collection_boxes", "addr:city": "SIDNEY", "addr:country": "US", "addr:postcode": "13838", "addr:state": "NY", "addr:street_address": "61 MAIN ST", "amenity": "post_box", "brand": "United States Postal Service", "brand:wikidata": "Q668687", "collection_times": "Mo-Sa 13:30", "note": "ON 12/24 AND 12/31, THIS BOX MAY BE COLLECTED AS EARLY AS 12 NOON.", "nsi_id": "unitedstatespostalservice-a77078", "operator": "United States Postal Service", "operator:short": "USPS", "operator:type": "public", "operator:wikidata": "Q668687", "ref": "1383800029"}, "type": "Feature"}
{"geometry": {"coordinates": [-75.408557619, 42.298573078], "type": "Point"}, "id": "ndy7jF1LjWX3fsYphvHbSQ7fqSU=", "properties": {"@source_uri": "https://tools.usps.com/UspsToolsRestServices/rest/POLocator/findLocations", "@spider": "usps_collection_boxes", "addr:city": "SIDNEY", "addr:country": "US", "addr:postcode": "13838", "addr:state": "NY", "addr:street_address": "6 MANG DR", "amenity": "post_box", "brand": "United States Postal Service", "brand:wikidata": "Q668687", "collection_times": "Mo-Fr 16:45; Sa 13:00", "indoor": "yes", "note": "ON 12/24 AND 12/31, THIS BOX MAY BE COLLECTED AS EARLY AS 12 NOON.", "nsi_id": "unitedstatespostalservice-a77078", "operator": "United States Postal Service", "operator:short": "USPS", "operator:type": "public", "operator:wikidata": "Q668687", "ref": "1383800030"}, "type": "Feature"}
{"geometry": {"coordinates": [-75.256486, 42.291019], "type": "Point"}, "id": "LmWU6OxVLOahl8A9rx3pbuzfKeg=", "properties": {"@source_uri": "https://tools.usps.com/UspsToolsRestServices/rest/POLocator/findLocations", "@spider": "usps_collection_boxes", "addr:city": "SIDNEY CENTER", "addr:country": "US", "addr:postcode": "13839", "addr:state": "NY", "addr:street_address": "10445 COUNTY HIGHWAY 23", "amenity": "post_box", "brand": "United States Postal Service", "brand:wikidata": "Q668687", "collection_times": "Mo-Fr 15:00; Sa 11:15", "note": "ON 12/24 AND 12/31, THIS BOX MAY BE COLLECTED AS EARLY AS 12 NOON.", "nsi_id": "unitedstatespostalservice-a77078", "operator": "United States Postal Service", "operator:short": "USPS", "operator:type": "public", "operator:wikidata": "Q668687", "ref": "1383900002"}, "type": "Feature"}
{"geometry": {"coordinates": [-75.256424, 42.29099], "type": "Point"}, "id": "aTSecriqcMFa9Es2yrsI-FIeK6A=", "properties": {"@source_uri": "https://tools.usps.com/UspsToolsRestServices/rest/POLocator/findLocations", "@spider": "usps_collection_boxes", "addr:city": "SIDNEY CENTER", "addr:country": "US", "addr:postcode": "13839", "addr:state": "NY", "addr:street_address": "10445 COUNTY HIGHWAY 23", "amenity": "post_box", "brand": "United States Postal Service", "brand:wikidata": "Q668687", "collection_times": "Mo-Fr 15:00; Sa 11:15", "indoor": "yes", "note": "ON 12/24 AND 12/31, THIS BOX MAY BE COLLECTED AS EARLY AS 12 NOON.", "nsi_id": "unitedstatespostalservice-a77078", "operator": "United States Postal Service", "operator:short": "USPS", "operator:type": "public", "operator:wikidata": "Q668687", "ref": "1383900003"}, "type": "Feature"}
{"geometry": {"coordinates": [-75.256450181, 42.290954885], "type": "Point"}, "id": "rBsHneiFKPAOvZChrw_Rm52JeTw=", "properties": {"@source_uri": "https://tools.usps.com/UspsToolsRestServices/rest/POLocator/findLocations", "@spider": "usps_collection_boxes", "addr:city": "SIDNEY CENTER", "addr:country": "US", "addr:postcode": "13839", "addr:state": "NY", "addr:street_address": "10445 COUNTY HIGHWAY 23", "amenity": "post_box", "brand": "United States Postal Service", "brand:wikidata": "Q668687", "collection_times": "Mo-Fr 15:00; Sa 11:15", "indoor": "yes", "note": "ON 12/24 AND 12/31, THIS BOX MAY BE COLLECTED AS EARLY AS 12 NOON.", "nsi_id": "unitedstatespostalservice-a77078", "operator": "United States Postal Service", "operator:short": "USPS", "operator:type": "public", "operator:wikidata": "Q668687", "ref": "1383900004"}, "type": "Feature"}
{"geometry": {"coordinates": [-75.808547, 42.399452], "type": "Point"}, "id": "VKUR43zusomC1lCmPDem8lFObnY=", "properties": {"@source_uri": "https://tools.usps.com/UspsToolsRestServices/rest/POLocator/findLocations", "@spider": "usps_collection_boxes", "addr:city": "SMITHVILLE FLATS", "addr:country": "US", "addr:postcode": "13841", "addr:state": "NY", "addr:street_address": "5299 STATE HIGHWAY 41", "amenity": "post_box", "brand": "United States Postal Service", "brand:wikidata": "Q668687", "collection_times": "Mo-Fr 12:00; Sa 11:30", "nsi_id": "unitedstatespostalservice-a77078", "operator": "United States Postal Service", "operator:short": "USPS", "operator:type": "public", "operator:wikidata": "Q668687", "ref": "1384100001"}, "type": "Feature"}
{"geometry": {"coordinates": [-75.80842, 42.398074], "type": "Point"}, "id": "7cO7-AxEMTIj0LbVU8nt_tISpTA=", "properties": {"@source_uri": "https://tools.usps.com/UspsToolsRestServices/rest/POLocator/findLocations", "@spider": "usps_collection_boxes", "addr:city": "SMITHVILLE FLATS", "addr:country": "US", "addr:postcode": "13841", "addr:state": "NY", "addr:street_address": "5299 STATE HIGHWAY 41", "amenity": "post_box", "brand": "United States Postal Service", "brand:wikidata": "Q668687", "collection_times": "Mo-Fr 12:00; Sa 11:30", "indoor": "yes", "nsi_id": "unitedstatespostalservice-a77078", "operator": "United States Postal Service", "operator:short": "USPS", "operator:type": "public", "operator:wikidata": "Q668687", "ref": "1384100002"}, "type": "Feature"}
{"geometry": {"coordinates": [-75.808558374, 42.399629319], "type": "Point"}, "id": "uLDw0WFfl9oB65wG_ZjCFs-_3ec=", "properties": {"@source_uri": "https://tools.usps.com/UspsToolsRestServices/rest/POLocator/findLocations", "@spider": "usps_collection_boxes", "addr:city": "SMITHVILLE FLATS", "addr:country": "US", "addr:postcode": "13841", "addr:state": "NY", "addr:street_address": "5299 STATE HIGHWAY 41", "amenity": "post_box", "brand": "United States Postal Service", "brand:wikidata": "Q668687", "collection_times": "Mo-Fr 12:00; Sa 11:30", "indoor": "yes", "nsi_id": "unitedstatespostalservice-a77078", "operator": "United States Postal Service", "operator:short": "USPS", "operator:type": "public", "operator:wikidata": "Q668687", "ref": "1384100003"}, "type": "Feature"}
{"geometry": {"coordinates": [-75.385842, 42.529912], "type": "Point"}, "id": "ojrqHK6lrs-Y710vtksiHuufNHo=", "properties": {"@source_uri": "https://tools.usps.com/UspsToolsRestServices/rest/POLocator/findLocations", "@spider": "usps_collection_boxes", "addr:city": "SOUTH NEW BERLIN", "addr:country": "US", "addr:postcode": "13843", "addr:state": "NY", "addr:street_address": "6338 STATE HWY 23", "amenity": "post_box", "brand": "United States Postal Service", "brand:wikidata": "Q668687", "collection_times": "Mo-Fr 15:15; Sa 11:30", "note": "ON 12/24 AND 12/31, THIS BOX MAY BE COLLECTED AS EARLY AS 12 NOON.", "nsi_id": "unitedstatespostalservice-a77078", "operator": "United States Postal Service", "operator:short": "USPS", "operator:type": "public", "operator:wikidata": "Q668687", "ref": "1384300001"}, "type": "Feature"}
{"geometry": {"coordinates": [-75.385631, 42.529833], "type": "Point"}, "id": "PsiDYtb-Js8Ie5cW6-ryCPmGhhc=", "properties": {"@source_uri": "https://tools.usps.com/UspsToolsRestServices/rest/POLocator/findLocations", "@spider": "usps_collection_boxes", "addr:city": "SOUTH NEW BERLIN", "addr:country": "US", "addr:postcode": "13843", "addr:state": "NY", "addr:street_address": "6338 STATE HWY 23", "amenity": "post_box", "brand": "United States Postal Service", "brand:wikidata": "Q668687", "collection_times": "Mo-Fr 15:15; Sa 11:45", "indoor": "yes", "note": "ON 12/24 AND 12/31, THIS BOX MAY BE COLLECTED AS EARLY AS 12 NOON.", "nsi_id": "unitedstatespostalservice-a77078", "operator": "United States Postal Service", "operator:short": "USPS", "operator:type": "public", "operator:wikidata": "Q668687", "ref": "1384300002"}, "type": "Feature"}
{"geometry": {"coordinates": [-75.385631132, 42.529833451], "type": "Point"}, "id": "QC1sFFroEtVWeIS4f2Zl1vYrIC0=", "properties": {"@source_uri": "https://tools.usps.com/UspsToolsRestServices/rest/POLocator/findLocations", "@spider": "usps_collection_boxes", "addr:city": "SOUTH NEW BERLIN", "addr:country": "US", "addr:postcode": "13843", "addr:state": "NY", "addr:street_address": "6338 STATE HIGHWAY 23", "amenity": "post_box", "brand": "United States Postal Service", "brand:wikidata": "Q668687", "collection_times": "Mo-Fr 15:15; Sa 11:30", "indoor": "yes", "note": "ON 12/24 AND 12/31, THIS BOX MAY BE COLLECTED AS EARLY AS 12 NOON.", "nsi_id": "unitedstatespostalservice-a77078", "operator": "United States Postal Service", "operator:short": "USPS", "operator:type": "public", "operator:wikidata": "Q668687", "ref": "1384300003"}, "type": "Feature"}
{"geometry": {"coordinates": [-75.567931, 42.582634], "type": "Point"}, "id": "z5MFl9OpC64_t7bJ2MxDBhguHeA=", "properties": {"@source_uri": "https://tools.usps.com/UspsToolsRestServices/rest/POLocator/findLocations", "@spider": "usps_collection_boxes", "addr:city": "SOUTH PLYMOUTH", "addr:country": "US", "addr:postcode": "13844", "addr:state": "NY", "addr:street_address": "3799 STATE HIGHWAY 23", "amenity": "post_box", "brand": "United States Postal Service", "brand:wikidata": "Q668687", "collection_times": "Mo-Fr 17:00; Sa 10:45", "note": "ON 12/24 AND 12/31, THIS BOX MAY BE COLLECTED AS EARLY AS 12 NOON.", "nsi_id": "unitedstatespostalservice-a77078", "operator": "United States Postal Service", "operator:short": "USPS", "operator:type": "public", "operator:wikidata": "Q668687", "ref": "1384400001"}, "type": "Feature"}
{"geometry": {"coordinates": [-75.567963, 42.582618], "type": "Point"}, "id": "1MdYGs-JEOnz88EBusZlmx5bVJk=", "properties": {"@source_uri": "https://tools.usps.com/UspsToolsRestServices/rest/POLocator/findLocations", "@spider": "usps_collection_boxes", "addr:city": "SOUTH PLYMOUTH", "addr:country": "US", "addr:postcode": "13844", "addr:state": "NY", "addr:street_address": "3799 STATE HIGHWAY 23", "amenity": "post_box", "brand": "United States Postal Service", "brand:wikidata": "Q668687", "collection_times": "Mo-Fr 17:00; Sa 11:00", "indoor": "yes", "note": "ON 12/24 AND 12/31, THIS BOX MAY BE COLLECTED AS EARLY AS 12 NOON.", "nsi_id": "unitedstatespostalservice-a77078", "operator": "United States Postal Service", "operator:short": "USPS", "operator:type": "public", "operator:wikidata": "Q668687", "ref": "1384400002"}, "type": "Feature"}
{"geometry": {"coordinates": [-75.567920375, 42.582669866], "type": "Point"}, "id": "KhnKs-VDucgCQLK1SXb8mxUJQ54=", "properties": {"@source_uri": "https://tools.usps.com/UspsToolsRestServices/rest/POLocator/findLocations", "@spider": "usps_collection_boxes", "addr:city": "SOUTH PLYMOUTH", "addr:country": "US", "addr:postcode": "13844", "addr:state": "NY", "addr:street_address": "3799 STATE HIGHWAY 23", "amenity": "post_box", "brand": "United States Postal Service", "brand:wikidata": "Q668687", "collection_times": "Mo-Fr 17:00; Sa 11:00", "indoor": "yes", "note": "ON 12/24 AND 12/31, THIS BOX MAY BE COLLECTED AS EARLY AS 12 NOON.", "nsi_id": "unitedstatespostalservice-a77078", "operator": "United States Postal Service", "operator:short": "USPS", "operator:type": "public", "operator:wikidata": "Q668687", "ref": "1384400003"}, "type": "Feature"}
{"geometry": {"coordinates": [-75.279496, 42.205288], "type": "Point"}, "id": "rasWm9BoKPrEvGBZF7UKpLyzRCU=", "properties": {"@source_uri": "https://tools.usps.com/UspsToolsRestServices/rest/POLocator/findLocations", "@spider": "usps_collection_boxes", "addr:city": "TROUT CREEK", "addr:country": "US", "addr:postcode": "13847", "addr:state": "NY", "addr:street_address": "8650 COUNTY HIGHWAY 27", "amenity": "post_box", "brand": "United States Postal Service", "brand:wikidata": "Q668687", "collection_times": "Mo-Fr 12:00; Sa 11:00", "nsi_id": "unitedstatespostalservice-a77078", "operator": "United States Postal Service", "operator:short": "USPS", "operator:type": "public", "operator:wikidata": "Q668687", "ref": "1384700001"}, "type": "Feature"}
{"geometry": {"coordinates": [-75.279543, 42.205328], "type": "Point"}, "id": "lP256eV3jB9sahLUYrVexZMhP_g=", "properties": {"@source_uri": "https://tools.usps.com/UspsToolsRestServices/rest/POLocator/findLocations", "@spider": "usps_collection_boxes", "addr:city": "TROUT CREEK", "addr:country": "US", "addr:postcode": "13847", "addr:state": "NY", "addr:street_address": "8650 COUNTY HIGHWAY 27", "amenity": "post_box", "brand": "United States Postal Service", "brand:wikidata": "Q668687", "collection_times": "Mo-Fr 12:00; Sa 11:15", "indoor": "yes", "nsi_id": "unitedstatespostalservice-a77078", "operator": "United States Postal Service", "operator:short": "USPS", "operator:type": "public", "operator:wikidata": "Q668687", "ref": "1384700002"}, "type": "Feature"}
{"geometry": {"coordinates": [-75.279586737, 42.205622542], "type": "Point"}, "id": "_HPHKi0RIDobrLpZcderu9uniBk=", "properties": {"@source_uri": "https://tools.usps.com/UspsToolsRestServices/rest/POLocator/findLocations", "@spider": "usps_collection_boxes", "addr:city": "TROUT CREEK", "addr:country": "US", "addr:postcode": "13847", "addr:state": "NY", "addr:street_address": "8650 COUNTY HIGHWAY 27", "amenity": "post_box", "brand": "United States Postal Service", "brand:wikidata": "Q668687", "collection_times": "Mo-Fr 12:00; Sa 11:15", "indoor": "yes", "nsi_id": "unitedstatespostalservice-a77078", "operator": "United States Postal Service", "operator:short": "USPS", "operator:type": "public", "operator:wikidata": "Q668687", "ref": "1384700003"}, "type": "Feature"}
{"geometry": {"coordinates": [-75.725367, 42.217142], "type": "Point"}, "id": "i59EHRDiSeTucBdV5-BzTSB0tXM=", "properties": {"@source_uri": "https://tools.usps.com/UspsToolsRestServices/rest/POLocator/findLocations", "@spider": "usps_collection_boxes", "addr:city": "TUNNEL", "addr:country": "US", "addr:postcode": "13848", "addr:state": "NY", "addr:street_address": "688 TUNNEL RD", "amenity": "post_box", "brand": "United States Postal Service", "brand:wikidata": "Q668687", "collection_times": "Mo-Fr 10:00; Sa 11:30", "nsi_id": "unitedstatespostalservice-a77078", "operator": "United States Postal Service", "operator:short": "USPS", "operator:type": "public", "operator:wikidata": "Q668687", "ref": "1384800001"}, "type": "Feature"}
{"geometry": {"coordinates": [-75.725467, 42.217084], "type": "Point"}, "id": "YSLpqI5aBq94i2JfVeQHlyiLoos=", "properties": {"@source_uri": "https://tools.usps.com/UspsToolsRestServices/rest/POLocator/findLocations", "@spider": "usps_collection_boxes", "addr:city": "TUNNEL", "addr:country": "US", "addr:postcode": "13848", "addr:state": "NY", "addr:street_address": "688 TUNNEL RD", "amenity": "post_box", "brand": "United States Postal Service", "brand:wikidata": "Q668687", "collection_times": "Mo-Fr 10:00; Sa 12:00", "indoor": "yes", "nsi_id": "unitedstatespostalservice-a77078", "operator": "United States Postal Service", "operator:short": "USPS", "operator:type": "public", "operator:wikidata": "Q668687", "ref": "1384800002"}, "type": "Feature"}
{"geometry": {"coordinates": [-75.725041434, 42.217481159], "type": "Point"}, "id": "AESOv0KC8Zf-Wv6AygFjbiZgpVM=", "properties": {"@source_uri": "https://tools.usps.com/UspsToolsRestServices/rest/POLocator/findLocations", "@spider": "usps_collection_boxes", "addr:city": "TUNNEL", "addr:country": "US", "addr:postcode": "13848", "addr:state": "NY", "addr:street_address": "688 TUNNEL RD", "amenity": "post_box", "brand": "United States Postal Service", "brand:wikidata": "Q668687", "collection_times": "Mo-Fr 10:00; Sa 12:00", "indoor": "yes", "nsi_id": "unitedstatespostalservice-a77078", "operator": "United States Postal Service", "operator:short": "USPS", "operator:type": "public", "operator:wikidata": "Q668687", "ref": "1384800003"}, "type": "Feature"}
{"geometry": {"coordinates": [-75.316623, 42.324451], "type": "Point"}, "id": "KeJl3fi1Vll68fBbqKh1j4wk82o=", "properties": {"@source_uri": "https://tools.usps.com/UspsToolsRestServices/rest/POLocator/findLocations", "@spider": "usps_collection_boxes", "addr:city": "UNADILLA", "addr:country": "US", "addr:postcode": "13849", "addr:state": "NY", "addr:street_address": "4 BRIDGE ST", "amenity": "post_box", "brand": "United States Postal Service", "brand:wikidata": "Q668687", "collection_times": "Mo-Fr 16:45; Sa 11:45", "note": "ON 12/24 AND 12/31, THIS BOX MAY BE COLLECTED AS EARLY AS 12 NOON.", "nsi_id": "unitedstatespostalservice-a77078", "operator": "United States Postal Service", "operator:short": "USPS", "operator:type": "public", "operator:wikidata": "Q668687", "ref": "1384900001"}, "type": "Feature"}
{"geometry": {"coordinates": [-75.316591, 42.324498], "type": "Point"}, "id": "NnFKzB-3Q1AgjgK59CQc3Eahc2M=", "properties": {"@source_uri": "https://tools.usps.com/UspsToolsRestServices/rest/POLocator/findLocations", "@spider": "usps_collection_boxes", "addr:city": "UNADILLA", "addr:country": "US", "addr:postcode": "13849", "addr:state": "NY", "addr:street_address": "4 BRIDGE ST", "amenity": "post_box", "brand": "United States Postal Service", "brand:wikidata": "Q668687", "collection_times": "Mo-Fr 17:00; Sa 12:00", "indoor": "yes", "note": "ON 12/24 AND 12/31, THIS BOX MAY BE COLLECTED AS EARLY AS 12 NOON.", "nsi_id": "unitedstatespostalservice-a77078", "operator": "United States Postal Service", "operator:short": "USPS", "operator:type": "public", "operator:wikidata": "Q668687", "ref": "1384900002"}, "type": "Feature"}
{"geometry": {"coordinates": [-75.316591, 42.324498], "type": "Point"}, "id": "XKHpwPT1i9S3TN3DMmBEJ-49wH4=", "properties": {"@source_uri": "https://tools.usps.com/UspsToolsRestServices/rest/POLocator/findLocations", "@spider": "usps_collection_boxes", "addr:city": "UNADILLA", "addr:country": "US", "addr:postcode": "13849", "addr:state": "NY", "addr:street_address": "4 BRIDGE ST", "amenity": "post_box", "brand": "United States Postal Service", "brand:wikidata": "Q668687", "collection_times": "Mo-Fr 17:00; Sa 12:00", "indoor": "yes", "note": "ON 12/24 AND 12/31, THIS BOX MAY BE COLLECTED AS EARLY AS 12 NOON.", "nsi_id": "unitedstatespostalservice-a77078", "operator": "United States Postal Service", "operator:short": "USPS", "operator:type": "public", "operator:wikidata": "Q668687", "ref": "1384900003"}, "type": "Feature"}
{"geometry": {"coordinates": [-75.316618396, 42.32434588], "type": "Point"}, "id": "EeyHMxpMPOVTCkBv372U4brCbvM=", "properties": {"@source_uri": "https://tools.usps.com/UspsToolsRestServices/rest/POLocator/findLocations", "@spider": "usps_collection_boxes", "addr:city": "UNADILLA", "addr:country": "US", "addr:postcode": "13849", "addr:state": "NY", "addr:street_address": "4 BRIDGE ST", "amenity": "post_box", "brand": "United States Postal Service", "brand:wikidata": "Q668687", "collection_times": "Mo-Fr 17:00; Sa 12:00", "indoor": "yes", "note": "ON 12/24 AND 12/31, THIS BOX MAY BE COLLECTED AS EARLY AS 12 NOON.", "nsi_id": "unitedstatespostalservice-a77078", "operator": "United States Postal Service", "operator:short": "USPS", "operator:type": "public", "operator:wikidata": "Q668687", "ref": "1384900004"}, "type": "Feature"}
{"geometry": {"coordinates": [-76.0032999, 42.093866], "type": "Point"}, "id": "VmfIUmg2OYbcTr5oip5dP4vb9JY=", "properties": {"@source_uri": "https://tools.usps.com/UspsToolsRestServices/rest/POLocator/findLocations", "@spider": "usps_collection_boxes", "addr:city": "VESTAL", "addr:country": "US", "addr:postcode": "13850", "addr:state": "NY", "addr:street_address": "117 RANO BLVD", "amenity": "post_box", "brand": "United States Postal Service", "brand:wikidata": "Q668687", "collection_times": "Mo-Fr 17:30; Sa 15:00", "note": "ON 12/24 AND 12/31, THIS BOX MAY BE COLLECTED AS EARLY AS 12 NOON.", "nsi_id": "unitedstatespostalservice-a77078", "operator": "United States Postal Service", "operator:short": "USPS", "operator:type": "public", "operator:wikidata": "Q668687", "ref": "1385000001"}, "type": "Feature"}
{"geometry": {"coordinates": [-76.003333, 42.093761], "type": "Point"}, "id": "pzeNj4MD8lOca-SFwsg2JtAY8XM=", "properties": {"@source_uri": "https://tools.usps.com/UspsToolsRestServices/rest/POLocator/findLocations", "@spider": "usps_collection_boxes", "addr:city": "VESTAL", "addr:country": "US", "addr:postcode": "13850", "addr:state": "NY", "addr:street_address": "117 RANO BLVD", "amenity": "post_box", "brand": "United States Postal Service", "brand:wikidata": "Q668687", "collection_times": "Mo-Fr 17:30; Sa 12:00", "indoor": "yes", "note": "ON 12/24 AND 12/31, THIS BOX MAY BE COLLECTED AS EARLY AS 12 NOON.", "nsi_id": "unitedstatespostalservice-a77078", "operator": "United States Postal Service", "operator:short": "USPS", "operator:type": "public", "operator:wikidata": "Q668687", "ref": "1385000004"}, "type": "Feature"}
{"geometry": {"coordinates": [-75.9908073, 42.103443], "type": "Point"}, "id": "ODDzUyTVN-c3N7ryjvLDs3bC2BU=", "properties": {"@source_uri": "https://tools.usps.com/UspsToolsRestServices/rest/POLocator/findLocations", "@spider": "usps_collection_boxes", "addr:city": "VESTAL", "addr:country": "US", "addr:postcode": "13850", "addr:state": "NY", "addr:street_address": "408 COMMERCE RD", "amenity": "post_box", "brand": "United States Postal Service", "brand:wikidata": "Q668687", "collection_times": "Mo-Fr 17:00", "note": "ON 12/24 AND 12/31, THIS BOX MAY BE COLLECTED AS EARLY AS 12 NOON.", "nsi_id": "unitedstatespostalservice-a77078", "operator": "United States Postal Service", "operator:short": "USPS", "operator:type": "public", "operator:wikidata": "Q668687", "ref": "1385000008"}, "type": "Feature"}
{"geometry": {"coordinates": [-75.9833369, 42.098089], "type": "Point"}, "id": "sv9fovtJ8USkDZimsHtyAaM7H8o=", "properties": {"@source_uri": "https://tools.usps.com/UspsToolsRestServices/rest/POLocator/findLocations", "@spider": "usps_collection_boxes", "addr:city": "VESTAL", "addr:country": "US", "addr:postcode": "13850", "addr:state": "NY", "addr:street_address": "3701 VESTAL PKWY E", "amenity": "post_box", "brand": "United States Postal Service", "brand:wikidata": "Q668687", "collection_times": "Mo-Fr 16:45; Sa 10:00", "note": "ON 12/24 AND 12/31, THIS BOX MAY BE COLLECTED AS EARLY AS 12 NOON.", "nsi_id": "unitedstatespostalservice-a77078", "operator": "United States Postal Service", "operator:short": "USPS", "operator:type": "public", "operator:wikidata": "Q668687", "ref": "1385000011"}, "type": "Feature"}
{"geometry": {"coordinates": [-75.9722926, 42.097114], "type": "Point"}, "id": "xKLOd8qP8mU6hyZoc94uyZsEbhM=", "properties": {"@source_uri": "https://tools.usps.com/UspsToolsRestServices/rest/POLocator/findLocations", "@spider": "usps_collection_boxes", "addr:city": "VESTAL", "addr:country": "US", "addr:postcode": "13850", "addr:state": "NY", "addr:street_address": "4104 VESTAL RD", "amenity": "post_box", "brand": "United States Postal Service", "brand:wikidata": "Q668687", "collection_times": "Mo-Fr 16:45; Sa 10:15", "note": "ON 12/24 AND 12/31, THIS BOX MAY BE COLLECTED AS EARLY AS 12 NOON.", "nsi_id": "unitedstatespostalservice-a77078", "operator": "United States Postal Service", "operator:short": "USPS", "operator:type": "public", "operator:wikidata": "Q668687", "ref": "1385000012"}, "type": "Feature"}
{"geometry": {"coordinates": [-76.0044523, 42.094012], "type": "Point"}, "id": "TErTO01gESpTHnHkhmvnGawRMCI=", "properties": {"@source_uri": "https://tools.usps.com/UspsToolsRestServices/rest/POLocator/findLocations", "@spider": "usps_collection_boxes", "addr:city": "VESTAL", "addr:country": "US", "addr:postcode": "13850", "addr:state": "NY", "addr:street_address": "100 RANO BLVD", "amenity": "post_box", "brand": "United States Postal Service", "brand:wikidata": "Q668687", "collection_times": "Mo-Sa 09:00", "nsi_id": "unitedstatespostalservice-a77078", "operator": "United States Postal Service", "operator:short": "USPS", "operator:type": "public", "operator:wikidata": "Q668687", "ref": "1385000014"}, "type": "Feature"}
{"geometry": {"coordinates": [-76.0554688, 42.086335], "type": "Point"}, "id": "YjL5QrpyJ8utlCWWw33h2LG1YqY=", "properties": {"@source_uri": "https://tools.usps.com/UspsToolsRestServices/rest/POLocator/findLocations", "@spider": "usps_collection_boxes", "addr:city": "VESTAL", "addr:country": "US", "addr:postcode": "13850", "addr:state": "NY", "addr:street_address": "146 VESTAL PKWY W", "amenity": "post_box", "brand": "United States Postal Service", "brand:wikidata": "Q668687", "collection_times": "Mo-Fr 16:45; Sa 09:00", "note": "ON 12/24 AND 12/31, THIS BOX MAY BE COLLECTED AS EARLY AS 12 NOON.", "nsi_id": "unitedstatespostalservice-a77078", "operator": "United States Postal Service", "operator:short": "USPS", "operator:type": "public", "operator:wikidata": "Q668687", "ref": "1385000020"}, "type": "Feature"}
{"geometry": {"coordinates": [-76.055441, 42.084954], "type": "Point"}, "id": "kgicGe0GQfiUJHccxCiIdl-mz9U=", "properties": {"@source_uri": "https://tools.usps.com/UspsToolsRestServices/rest/POLocator/findLocations", "@spider": "usps_collection_boxes", "addr:city": "VESTAL", "addr:country": "US", "addr:postcode": "13850", "addr:state": "NY", "addr:street_address": "155 FRONT ST", "amenity": "post_box", "brand": "United States Postal Service", "brand:wikidata": "Q668687", "collection_times": "Mo-Fr 15:00; Sa 09:00", "note": "ON 12/24 AND 12/31, THIS BOX MAY BE COLLECTED AS EARLY AS 12 NOON.", "nsi_id": "unitedstatespostalservice-a77078", "operator": "United States Postal Service", "operator:short": "USPS", "operator:type": "public", "operator:wikidata": "Q668687", "ref": "1385000025"}, "type": "Feature"}
{"geometry": {"coordinates": [-76.0534061, 42.083654], "type": "Point"}, "id": "4ZTfPyYPgNql3MpCs3iNQX7dHRY=", "properties": {"@source_uri": "https://tools.usps.com/UspsToolsRestServices/rest/POLocator/findLocations", "@spider": "usps_collection_boxes", "addr:city": "VESTAL", "addr:country": "US", "addr:postcode": "13850", "addr:state": "NY", "addr:street_address": "300 MAIN ST", "amenity": "post_box", "brand": "United States Postal Service", "brand:wikidata": "Q668687", "collection_times": "Mo-Fr 17:00; Sa 09:00", "note": "ON 12/24 AND 12/31, THIS BOX MAY BE COLLECTED AS EARLY AS 12 NOON.", "nsi_id": "unitedstatespostalservice-a77078", "operator": "United States Postal Service", "operator:short": "USPS", "operator:type": "public", "operator:wikidata": "Q668687", "ref": "1385000027"}, "type": "Feature"}
{"geometry": {"coordinates": [-76.0526576, 42.078604], "type": "Point"}, "id": "ouH103aecC3ounwGeDJDXk51a6E=", "properties": {"@source_uri": "https://tools.usps.com/UspsToolsRestServices/rest/POLocator/findLocations", "@spider": "usps_collection_boxes", "addr:city": "VESTAL", "addr:country": "US", "addr:postcode": "13850", "addr:state": "NY", "addr:street_address": "101 HAZEL DR", "amenity": "post_box", "brand": "United States Postal Service", "brand:wikidata": "Q668687", "collection_times": "Mo-Sa 12:30", "note": "ON 12/24 AND 12/31, THIS BOX MAY BE COLLECTED AS EARLY AS 12 NOON.", "nsi_id": "unitedstatespostalservice-a77078", "operator": "United States Postal Service", "operator:short": "USPS", "operator:type": "public", "operator:wikidata": "Q668687", "ref": "1385000030"}, "type": "Feature"}
{"geometry": {"coordinates": [-76.048717, 42.081961], "type": "Point"}, "id": "D2zJxR0A4byh92udSSOmRF44ihM=", "properties": {"@source_uri": "https://tools.usps.com/UspsToolsRestServices/rest/POLocator/findLocations", "@spider": "usps_collection_boxes", "addr:city": "VESTAL", "addr:country": "US", "addr:postcode": "13850", "addr:state": "NY", "addr:street_address": "333 CLAYTON AVE", "amenity": "post_box", "brand": "United States Postal Service", "brand:wikidata": "Q668687", "collection_times": "Mo-Sa 14:00", "note": "ON 12/24 AND 12/31, THIS BOX MAY BE COLLECTED AS EARLY AS 12 NOON.", "nsi_id": "unitedstatespostalservice-a77078", "operator": "United States Postal Service", "operator:short": "USPS", "operator:type": "public", "operator:wikidata": "Q668687", "ref": "1385000032"}, "type": "Feature"}
{"geometry": {"coordinates": [-76.0459288, 42.087426], "type": "Point"}, "id": "WAXvOHDbip8m8tdKNAq0br2rsic=", "properties": {"@source_uri": "https://tools.usps.com/UspsToolsRestServices/rest/POLocator/findLocations", "@spider": "usps_collection_boxes", "addr:city": "VESTAL", "addr:country": "US", "addr:postcode": "13850", "addr:state": "NY", "addr:street_address": "320 VESTAL PKWY E", "amenity": "post_box", "brand": "United States Postal Service", "brand:wikidata": "Q668687", "collection_times": "Mo-Sa 09:45", "nsi_id": "unitedstatespostalservice-a77078", "operator": "United States Postal Service", "operator:short": "USPS", "operator:type": "public", "operator:wikidata": "Q668687", "ref": "1385000034"}, "type": "Feature"}
{"geometry": {"coordinates": [-76.064949, 42.083193], "type": "Point"}, "id": "hTCE83_onq-87z-YRYc38n7uFfQ=", "properties": {"@source_uri": "https://tools.usps.com/UspsToolsRestServices/rest/POLocator/findLocations", "@spider": "usps_collection_boxes", "addr:city": "VESTAL", "addr:country": "US", "addr:postcode": "13850", "addr:state": "NY", "addr:street_address": "605 VESTAL PKWY W", "amenity": "post_box", "brand": "United States Postal Service", "brand:wikidata": "Q668687", "collection_times": "Mo-Fr 16:45; Sa 14:30", "note": "ON 12/24 AND 12/31, THIS BOX MAY BE COLLECTED AS EARLY AS 12 NOON.", "nsi_id": "unitedstatespostalservice-a77078", "operator": "United States Postal Service", "operator:short": "USPS", "operator:type": "public", "operator:wikidata": "Q668687", "ref": "1385000037"}, "type": "Feature"}
{"geometry": {"coordinates": [-76.0125388, 42.095847], "type": "Point"}, "id": "bsUpF-rWqXMrrvIgDweR5d2JBMM=", "properties": {"@source_uri": "https://tools.usps.com/UspsToolsRestServices/rest/POLocator/findLocations", "@spider": "usps_collection_boxes", "addr:city": "VESTAL", "addr:country": "US", "addr:postcode": "13850", "addr:state": "NY", "addr:street_address": "2405 VESTAL PKWY E", "amenity": "post_box", "brand": "United States Postal Service", "brand:wikidata": "Q668687", "collection_times": "Mo-Sa 09:00", "nsi_id": "unitedstatespostalservice-a77078", "operator": "United States Postal Service", "operator:short": "USPS", "operator:type": "public", "operator:wikidata": "Q668687", "ref": "1385000039"}, "type": "Feature"}
{"geometry": {"coordinates": [-75.9671754, 42.08706], "type": "Point"}, "id": "JuA-Ol9rTmOiGhPTXj16mJfce74=", "properties": {"@source_uri": "https://tools.usps.com/UspsToolsRestServices/rest/POLocator/findLocations", "@spider": "usps_collection_boxes", "addr:city": "VESTAL", "addr:country": "US", "addr:postcode": "13850", "addr:state": "NY", "addr:street_address": "4400 VESTAL PKWY E", "amenity": "post_box", "brand": "United States Postal Service", "brand:wikidata": "Q668687", "collection_times": "Mo-Fr 15:00; Sa 11:00", "name": "USPS COLLECTION BOX - EXPRESS", "note": "ON 12/24 AND 12/31, THIS BOX MAY BE COLLECTED AS EARLY AS 12 NOON.", "nsi_id": "unitedstatespostalservice-a77078", "operator": "United States Postal Service", "operator:short": "USPS", "operator:type": "public", "operator:wikidata": "Q668687", "ref": "1385000040"}, "type": "Feature"}
{"geometry": {"coordinates": [-75.9557846, 42.090124], "type": "Point"}, "id": "MHGj3dwhwL7MGz_APbAe0MlEIWE=", "properties": {"@source_uri": "https://tools.usps.com/UspsToolsRestServices/rest/POLocator/findLocations", "@spider": "usps_collection_boxes", "addr:city": "VESTAL", "addr:country": "US", "addr:postcode": "13850", "addr:state": "NY", "addr:street_address": "400 PLAZA DR", "amenity": "post_box", "brand": "United States Postal Service", "brand:wikidata": "Q668687", "collection_times": "Mo-Fr 16:00; Sa 11:00", "note": "ON 12/24 AND 12/31, THIS BOX MAY BE COLLECTED AS EARLY AS 12 NOON.", "nsi_id": "unitedstatespostalservice-a77078", "operator": "United States Postal Service", "operator:short": "USPS", "operator:type": "public", "operator:wikidata": "Q668687", "ref": "1385000046"}, "type": "Feature"}
{"geometry": {"coordinates": [-75.974887, 42.0967], "type": "Point"}, "id": "SeBZ5G25rlLgx7Svx9ZvMyU_LbI=", "properties": {"@source_uri": "https://tools.usps.com/UspsToolsRestServices/rest/POLocator/findLocations", "@spider": "usps_collection_boxes", "addr:city": "VESTAL", "addr:country": "US", "addr:postcode": "13850", "addr:state": "NY", "addr:street_address": "4100 VESTAL RD", "amenity": "post_box", "brand": "United States Postal Service", "brand:wikidata": "Q668687", "collection_times": "Mo-Fr 16:45; Sa 10:15", "note": "ON 12/24 AND 12/31, THIS BOX MAY BE COLLECTED AS EARLY AS 12 NOON.", "nsi_id": "unitedstatespostalservice-a77078", "operator": "United States Postal Service", "operator:short": "USPS", "operator:type": "public", "operator:wikidata": "Q668687", "ref": "1385000048"}, "type": "Feature"}
{"geometry": {"coordinates": [-75.9671703, 42.086982], "type": "Point"}, "id": "EAcfwqSfLoSfR2MsiG3R92fYaUY=", "properties": {"@source_uri": "https://tools.usps.com/UspsToolsRestServices/rest/POLocator/findLocations", "@spider": "usps_collection_boxes", "addr:city": "VESTAL", "addr:country": "US", "addr:postcode": "13850", "addr:state": "NY", "addr:street_address": "4400 VESTAL PKWY E", "amenity": "post_box", "brand": "United States Postal Service", "brand:wikidata": "Q668687", "collection_times": "Mo-Fr 15:00; Sa 11:00", "note": "ON 12/24 AND 12/31, THIS BOX MAY BE COLLECTED AS EARLY AS 12 NOON.", "nsi_id": "unitedstatespostalservice-a77078", "operator": "United States Postal Service", "operator:short": "USPS", "operator:type": "public", "operator:wikidata": "Q668687", "ref": "1385000049"}, "type": "Feature"}
{"geometry": {"coordinates": [-76.003212, 42.093596], "type": "Point"}, "id": "vWsCKS-Rdd8HeYOrsMSWlOL9Bxw=", "properties": {"@source_uri": "https://tools.usps.com/UspsToolsRestServices/rest/POLocator/findLocations", "@spider": "usps_collection_boxes", "addr:city": "VESTAL", "addr:country": "US", "addr:postcode": "13850", "addr:state": "NY", "addr:street_address": "117 RANO BLVD", "amenity": "post_box", "brand": "United States Postal Service", "brand:wikidata": "Q668687", "collection_times": "Mo-Fr 17:30; Sa 12:00", "name": "USPS COLLECTION BOX - APC", "note": "ON 12/24 AND 12/31, THIS BOX MAY BE COLLECTED AS EARLY AS 12 NOON.", "nsi_id": "unitedstatespostalservice-a77078", "operator": "United States Postal Service", "operator:short": "USPS", "operator:type": "public", "operator:wikidata": "Q668687", "ref": "1385000050"}, "type": "Feature"}
{"geometry": {"coordinates": [-76.003371543, 42.093903174], "type": "Point"}, "id": "pHPvS_dnrY6Z1S4PyA7iKby83SU=", "properties": {"@source_uri": "https://tools.usps.com/UspsToolsRestServices/rest/POLocator/findLocations", "@spider": "usps_collection_boxes", "addr:city": "VESTAL", "addr:country": "US", "addr:postcode": "13850", "addr:state": "NY", "addr:street_address": "117 RANO BLVD", "amenity": "post_box", "brand": "United States Postal Service", "brand:wikidata": "Q668687", "collection_times": "Mo-Fr 17:30; Sa 12:00", "indoor": "yes", "note": "ON 12/24 AND 12/31, THIS BOX MAY BE COLLECTED AS EARLY AS 12 NOON.", "nsi_id": "unitedstatespostalservice-a77078", "operator": "United States Postal Service", "operator:short": "USPS", "operator:type": "public", "operator:wikidata": "Q668687", "ref": "1385000056"}, "type": "Feature"}
{"geometry": {"coordinates": [-75.128651, 42.169037], "type": "Point"}, "id": "zGti-SjuADv6XpXv2pTu3Nzb_Po=", "properties": {"@source_uri": "https://tools.usps.com/UspsToolsRestServices/rest/POLocator/findLocations", "@spider": "usps_collection_boxes", "addr:city": "WALTON", "addr:country": "US", "addr:postcode": "13856", "addr:state": "NY", "addr:street_address": "34 GARDINER PL", "amenity": "post_box", "brand": "United States Postal Service", "brand:wikidata": "Q668687", "collection_times": "Mo-Fr 17:00; Sa 12:30", "indoor": "yes", "note": "ON 12/24 AND 12/31, THIS BOX MAY BE COLLECTED AS EARLY AS 12 NOON.", "nsi_id": "unitedstatespostalservice-a77078", "operator": "United States Postal Service", "operator:short": "USPS", "operator:type": "public", "operator:wikidata": "Q668687", "ref": "1385600002"}, "type": "Feature"}
{"geometry": {"coordinates": [-75.128752, 42.169004], "type": "Point"}, "id": "6mQd56PZeq6Qeqv1BanUwM0tJJM=", "properties": {"@source_uri": "https://tools.usps.com/UspsToolsRestServices/rest/POLocator/findLocations", "@spider": "usps_collection_boxes", "addr:city": "WALTON", "addr:country": "US", "addr:postcode": "13856", "addr:state": "NY", "addr:street_address": "29 GARDINER PL", "amenity": "post_box", "brand": "United States Postal Service", "brand:wikidata": "Q668687", "collection_times": "Mo-Fr 17:00; Sa 12:30", "note": "ON 12/24 AND 12/31, THIS BOX MAY BE COLLECTED AS EARLY AS 12 NOON.", "nsi_id": "unitedstatespostalservice-a77078", "operator": "United States Postal Service", "operator:short": "USPS", "operator:type": "public", "operator:wikidata": "Q668687", "ref": "1385600004"}, "type": "Feature"}
{"geometry": {"coordinates": [-75.1296559761, 42.1660006888], "type": "Point"}, "id": "eC_L-ClyKNMo18Q-8xBTp62JJp4=", "properties": {"@source_uri": "https://tools.usps.com/UspsToolsRestServices/rest/POLocator/findLocations", "@spider": "usps_collection_boxes", "addr:city": "WALTON", "addr:country": "US", "addr:postcode": "13856", "addr:state": "NY", "addr:street_address": "131 STOCKTON AVENUE", "amenity": "post_box", "brand": "United States Postal Service", "brand:wikidata": "Q668687", "collection_times": "Mo-Sa 11:00", "nsi_id": "unitedstatespostalservice-a77078", "operator": "United States Postal Service", "operator:short": "USPS", "operator:type": "public", "operator:wikidata": "Q668687", "ref": "1385600011"}, "type": "Feature"}
{"geometry": {"coordinates": [-75.1317527, 42.16876], "type": "Point"}, "id": "JH-WvNVF1dk9odx7DzSQM8hfbhk=", "properties": {"@source_uri": "https://tools.usps.com/UspsToolsRestServices/rest/POLocator/findLocations", "@spider": "usps_collection_boxes", "addr:city": "WALTON", "addr:country": "US", "addr:postcode": "13856", "addr:state": "NY", "addr:street_address": "1 LIBERTY ST", "amenity": "post_box", "brand": "United States Postal Service", "brand:wikidata": "Q668687", "collection_times": "Mo-Sa 08:30", "nsi_id": "unitedstatespostalservice-a77078", "operator": "United States Postal Service", "operator:short": "USPS", "operator:type": "public", "operator:wikidata": "Q668687", "ref": "1385600013"}, "type": "Feature"}
{"geometry": {"coordinates": [-75.1299788, 42.168108], "type": "Point"}, "id": "rlUC-p8sx_gVqtEAGpp0d0rJDOQ=", "properties": {"@source_uri": "https://tools.usps.com/UspsToolsRestServices/rest/POLocator/findLocations", "@spider": "usps_collection_boxes", "addr:city": "WALTON", "addr:country": "US", "addr:postcode": "13856", "addr:state": "NY", "addr:street_address": "133 DELAWARE ST", "amenity": "post_box", "brand": "United States Postal Service", "brand:wikidata": "Q668687", "collection_times": "Mo-Fr 14:30; Sa 08:30", "note": "ON 12/24 AND 12/31, THIS BOX MAY BE COLLECTED AS EARLY AS 12 NOON.", "nsi_id": "unitedstatespostalservice-a77078", "operator": "United States Postal Service", "operator:short": "USPS", "operator:type": "public", "operator:wikidata": "Q668687", "ref": "1385600015"}, "type": "Feature"}
{"geometry": {"coordinates": [-75.128717, 42.168986], "type": "Point"}, "id": "TKyGjUSM5ZbWGhdvILJi_ic4gp0=", "properties": {"@source_uri": "https://tools.usps.com/UspsToolsRestServices/rest/POLocator/findLocations", "@spider": "usps_collection_boxes", "addr:city": "WALTON", "addr:country": "US", "addr:postcode": "13856", "addr:state": "NY", "addr:street_address": "34 GARDINER PL", "amenity": "post_box", "brand": "United States Postal Service", "brand:wikidata": "Q668687", "collection_times": "Mo-Fr 17:00; Sa 12:30", "note": "ON 12/24 AND 12/31, THIS BOX MAY BE COLLECTED AS EARLY AS 12 NOON.", "nsi_id": "unitedstatespostalservice-a77078", "operator": "United States Postal Service", "operator:short": "USPS", "operator:type": "public", "operator:wikidata": "Q668687", "ref": "1385600018"}, "type": "Feature"}
{"geometry": {"coordinates": [-75.128524054, 42.169278793], "type": "Point"}, "id": "uegyFeprbNN-8ETA0lBbO69zj7k=", "properties": {"@source_uri": "https://tools.usps.com/UspsToolsRestServices/rest/POLocator/findLocations", "@spider": "usps_collection_boxes", "addr:city": "WALTON", "addr:country": "US", "addr:postcode": "13856", "addr:state": "NY", "addr:street_address": "34 GARDINER PL", "amenity": "post_box", "brand": "United States Postal Service", "brand:wikidata": "Q668687", "collection_times": "Mo-Fr 17:00; Sa 12:00", "indoor": "yes", "note": "ON 12/24 AND 12/31, THIS BOX MAY BE COLLECTED AS EARLY AS 12 NOON.", "nsi_id": "unitedstatespostalservice-a77078", "operator": "United States Postal Service", "operator:short": "USPS", "operator:type": "public", "operator:wikidata": "Q668687", "ref": "1385600020"}, "type": "Feature"}
{"geometry": {"coordinates": [-75.246473, 42.36938], "type": "Point"}, "id": "Y0COmsDxVxDG5qSHIoPHUA5bFZw=", "properties": {"@source_uri": "https://tools.usps.com/UspsToolsRestServices/rest/POLocator/findLocations", "@spider": "usps_collection_boxes", "addr:city": "WELLS BRIDGE", "addr:country": "US", "addr:postcode": "13859", "addr:state": "NY", "addr:street_address": "116 CNTY RT 4", "amenity": "post_box", "brand": "United States Postal Service", "brand:wikidata": "Q668687", "collection_times": "Mo-Fr 12:00; Sa 11:30", "nsi_id": "unitedstatespostalservice-a77078", "operator": "United States Postal Service", "operator:short": "USPS", "operator:type": "public", "operator:wikidata": "Q668687", "ref": "1385900001"}, "type": "Feature"}
{"geometry": {"coordinates": [-75.246473, 42.369381], "type": "Point"}, "id": "vBfdujc-4An7Q188MKiQxHXzeHM=", "properties": {"@source_uri": "https://tools.usps.com/UspsToolsRestServices/rest/POLocator/findLocations", "@spider": "usps_collection_boxes", "addr:city": "WELLS BRIDGE", "addr:country": "US", "addr:postcode": "13859", "addr:state": "NY", "addr:street_address": "116 CNTY RT 4", "amenity": "post_box", "brand": "United States Postal Service", "brand:wikidata": "Q668687", "collection_times": "Mo-Fr 12:00; Sa 11:45", "indoor": "yes", "nsi_id": "unitedstatespostalservice-a77078", "operator": "United States Postal Service", "operator:short": "USPS", "operator:type": "public", "operator:wikidata": "Q668687", "ref": "1385900002"}, "type": "Feature"}
{"geometry": {"coordinates": [-75.246461072, 42.369408568], "type": "Point"}, "id": "VYDPdX959JrtHv6v4-GjgjIklk4=", "properties": {"@source_uri": "https://tools.usps.com/UspsToolsRestServices/rest/POLocator/findLocations", "@spider": "usps_collection_boxes", "addr:city": "WELLS BRIDGE", "addr:country": "US", "addr:postcode": "13859", "addr:state": "NY", "addr:street_address": "116 COUNTY HIGHWAY 4", "amenity": "post_box", "brand": "United States Postal Service", "brand:wikidata": "Q668687", "collection_times": "Mo-Fr 12:00; Sa 11:45", "indoor": "yes", "nsi_id": "unitedstatespostalservice-a77078", "operator": "United States Postal Service", "operator:short": "USPS", "operator:type": "public", "operator:wikidata": "Q668687", "ref": "1385900003"}, "type": "Feature"}
{"geometry": {"coordinates": [-74.920422, 42.454102], "type": "Point"}, "id": "hsB0NaIvSYNnGi2X2eYVuYPvrhE=", "properties": {"@source_uri": "https://tools.usps.com/UspsToolsRestServices/rest/POLocator/findLocations", "@spider": "usps_collection_boxes", "addr:city": "WEST DAVENPORT", "addr:country": "US", "addr:postcode": "13860", "addr:state": "NY", "addr:street_address": "37 CHARLOTTE CREEK RD", "amenity": "post_box", "brand": "United States Postal Service", "brand:wikidata": "Q668687", "collection_times": "Mo-Fr 12:00; Sa 10:30", "nsi_id": "unitedstatespostalservice-a77078", "operator": "United States Postal Service", "operator:short": "USPS", "operator:type": "public", "operator:wikidata": "Q668687", "ref": "1386000001"}, "type": "Feature"}
{"geometry": {"coordinates": [-74.920354, 42.454162], "type": "Point"}, "id": "hKJlu9-QFOjGfG_M-hoarywThVM=", "properties": {"@source_uri": "https://tools.usps.com/UspsToolsRestServices/rest/POLocator/findLocations", "@spider": "usps_collection_boxes", "addr:city": "WEST DAVENPORT", "addr:country": "US", "addr:postcode": "13860", "addr:state": "NY", "addr:street_address": "37 CHARLOTTE CREEK RD", "amenity": "post_box", "brand": "United States Postal Service", "brand:wikidata": "Q668687", "collection_times": "Mo-Fr 12:00; Sa 10:30", "indoor": "yes", "nsi_id": "unitedstatespostalservice-a77078", "operator": "United States Postal Service", "operator:short": "USPS", "operator:type": "public", "operator:wikidata": "Q668687", "ref": "1386000002"}, "type": "Feature"}
{"geometry": {"coordinates": [-74.963089169, 42.445975366], "type": "Point"}, "id": "8GfNw9DYd2NekW8K1ZB3UHgzmUM=", "properties": {"@source_uri": "https://tools.usps.com/UspsToolsRestServices/rest/POLocator/findLocations", "@spider": "usps_collection_boxes", "addr:city": "WEST DAVENPORT", "addr:country": "US", "addr:postcode": "13860", "addr:state": "NY", "addr:street_address": "37 CHARLOTTE CREEK RD", "amenity": "post_box", "brand": "United States Postal Service", "brand:wikidata": "Q668687", "collection_times": "Mo-Fr 12:00; Sa 10:45", "indoor": "yes", "nsi_id": "unitedstatespostalservice-a77078", "operator": "United States Postal Service", "operator:short": "USPS", "operator:type": "public", "operator:wikidata": "Q668687", "ref": "1386000003"}, "type": "Feature"}
{"geometry": {"coordinates": [-75.117665, 42.472533], "type": "Point"}, "id": "8Kw4AcUcC2tg73wbu89zmkfalAo=", "properties": {"@source_uri": "https://tools.usps.com/UspsToolsRestServices/rest/POLocator/findLocations", "@spider": "usps_collection_boxes", "addr:city": "WEST ONEONTA", "addr:country": "US", "addr:postcode": "13861", "addr:state": "NY", "addr:street_address": "3912 STATE HIGHWAY 23", "amenity": "post_box", "brand": "United States Postal Service", "brand:wikidata": "Q668687", "collection_times": "Mo-Fr 16:30; Sa 11:30", "note": "ON 12/24 AND 12/31, THIS BOX MAY BE COLLECTED AS EARLY AS 12 NOON.", "nsi_id": "unitedstatespostalservice-a77078", "operator": "United States Postal Service", "operator:short": "USPS", "operator:type": "public", "operator:wikidata": "Q668687", "ref": "1386100001"}, "type": "Feature"}
{"geometry": {"coordinates": [-75.117578, 42.472471], "type": "Point"}, "id": "IopgEk80OlZomUXeaq3hNCYzbXM=", "properties": {"@source_uri": "https://tools.usps.com/UspsToolsRestServices/rest/POLocator/findLocations", "@spider": "usps_collection_boxes", "addr:city": "WEST ONEONTA", "addr:country": "US", "addr:postcode": "13861", "addr:state": "NY", "addr:street_address": "3912 STATE HIGHWAY 23", "amenity": "post_box", "brand": "United States Postal Service", "brand:wikidata": "Q668687", "collection_times": "Mo-Fr 16:45; Sa 11:30", "indoor": "yes", "note": "ON 12/24 AND 12/31, THIS BOX MAY BE COLLECTED AS EARLY AS 12 NOON.", "nsi_id": "unitedstatespostalservice-a77078", "operator": "United States Postal Service", "operator:short": "USPS", "operator:type": "public", "operator:wikidata": "Q668687", "ref": "1386100002"}, "type": "Feature"}
{"geometry": {"coordinates": [-75.117666425, 42.472534568], "type": "Point"}, "id": "q0MCY3PSTv38JcndItiiq9XpA5w=", "properties": {"@source_uri": "https://tools.usps.com/UspsToolsRestServices/rest/POLocator/findLocations", "@spider": "usps_collection_boxes", "addr:city": "WEST ONEONTA", "addr:country": "US", "addr:postcode": "13861", "addr:state": "NY", "addr:street_address": "3912 STATE HIGHWAY 23", "amenity": "post_box", "brand": "United States Postal Service", "brand:wikidata": "Q668687", "collection_times": "Mo-Fr 17:00; Sa 11:30", "indoor": "yes", "note": "ON 12/24 AND 12/31, THIS BOX MAY BE COLLECTED AS EARLY AS 12 NOON.", "nsi_id": "unitedstatespostalservice-a77078", "operator": "United States Postal Service", "operator:short": "USPS", "operator:type": "public", "operator:wikidata": "Q668687", "ref": "1386100003"}, "type": "Feature"}
{"geometry": {"coordinates": [-75.968794, 42.327936], "type": "Point"}, "id": "3glFiq25vrHI-KCDPZRuA_x2cyM=", "properties": {"@source_uri": "https://tools.usps.com/UspsToolsRestServices/rest/POLocator/findLocations", "@spider": "usps_collection_boxes", "addr:city": "WHITNEY POINT", "addr:country": "US", "addr:postcode": "13862", "addr:state": "NY", "addr:street_address": "7321 ACADEMY ST", "amenity": "post_box", "brand": "United States Postal Service", "brand:wikidata": "Q668687", "collection_times": "Mo-Fr 16:30; Sa 12:00", "note": "ON 12/24 AND 12/31, THIS BOX MAY BE COLLECTED AS EARLY AS 12 NOON.", "nsi_id": "unitedstatespostalservice-a77078", "operator": "United States Postal Service", "operator:short": "USPS", "operator:type": "public", "operator:wikidata": "Q668687", "ref": "1386200007"}, "type": "Feature"}
{"geometry": {"coordinates": [-75.968996, 42.328998], "type": "Point"}, "id": "ns10vUuYb_P5X3dZM6rkj3sIQZA=", "properties": {"@source_uri": "https://tools.usps.com/UspsToolsRestServices/rest/POLocator/findLocations", "@spider": "usps_collection_boxes", "addr:city": "WHITNEY POINT", "addr:country": "US", "addr:postcode": "13862", "addr:state": "NY", "addr:street_address": "2641 MAIN ST", "amenity": "post_box", "brand": "United States Postal Service", "brand:wikidata": "Q668687", "collection_times": "Mo-Fr 16:30; Sa 12:00", "indoor": "yes", "note": "ON 12/24 AND 12/31, THIS BOX MAY BE COLLECTED AS EARLY AS 12 NOON.", "nsi_id": "unitedstatespostalservice-a77078", "operator": "United States Postal Service", "operator:short": "USPS", "operator:type": "public", "operator:wikidata": "Q668687", "ref": "1386200008"}, "type": "Feature"}
{"geometry": {"coordinates": [-75.968753474, 42.32904546], "type": "Point"}, "id": "JISFdgxL2bOdWmyt2ZvJEYyDwvw=", "properties": {"@source_uri": "https://tools.usps.com/UspsToolsRestServices/rest/POLocator/findLocations", "@spider": "usps_collection_boxes", "addr:city": "WHITNEY POINT", "addr:country": "US", "addr:postcode": "13862", "addr:state": "NY", "addr:street_address": "2641 MAIN ST", "amenity": "post_box", "brand": "United States Postal Service", "brand:wikidata": "Q668687", "collection_times": "Mo-Fr 16:30; Sa 12:00", "indoor": "yes", "note": "ON 12/24 AND 12/31, THIS BOX MAY BE COLLECTED AS EARLY AS 12 NOON.", "nsi_id": "unitedstatespostalservice-a77078", "operator": "United States Postal Service", "operator:short": "USPS", "operator:type": "public", "operator:wikidata": "Q668687", "ref": "1386200009"}, "type": "Feature"}
{"geometry": {"coordinates": [-75.912132, 42.470593], "type": "Point"}, "id": "fuKzVAAIR9opTE6cuECwxGn5NnE=", "properties": {"@source_uri": "https://tools.usps.com/UspsToolsRestServices/rest/POLocator/findLocations", "@spider": "usps_collection_boxes", "addr:city": "WILLET", "addr:country": "US", "addr:postcode": "13863", "addr:state": "NY", "addr:street_address": "1300 LOWER CINCINNATUS RD", "amenity": "post_box", "brand": "United States Postal Service", "brand:wikidata": "Q668687", "collection_times": "Mo-Fr 15:00; Sa 11:30", "note": "ON 12/24 AND 12/31, THIS BOX MAY BE COLLECTED AS EARLY AS 12 NOON.", "nsi_id": "unitedstatespostalservice-a77078", "operator": "United States Postal Service", "operator:short": "USPS", "operator:type": "public", "operator:wikidata": "Q668687", "ref": "1386300001"}, "type": "Feature"}
{"geometry": {"coordinates": [-75.912169, 42.470591], "type": "Point"}, "id": "4-s4V6OSgc1iv9FVmMzLMtzIrOc=", "properties": {"@source_uri": "https://tools.usps.com/UspsToolsRestServices/rest/POLocator/findLocations", "@spider": "usps_collection_boxes", "addr:city": "WILLET", "addr:country": "US", "addr:postcode": "13863", "addr:state": "NY", "addr:street_address": "1300 LOWER CINCINNATUS RD", "amenity": "post_box", "brand": "United States Postal Service", "brand:wikidata": "Q668687", "collection_times": "Mo-Fr 15:00; Sa 11:30", "indoor": "yes", "note": "ON 12/24 AND 12/31, THIS BOX MAY BE COLLECTED AS EARLY AS 12 NOON.", "nsi_id": "unitedstatespostalservice-a77078", "operator": "United States Postal Service", "operator:short": "USPS", "operator:type": "public", "operator:wikidata": "Q668687", "ref": "1386300002"}, "type": "Feature"}
{"geometry": {"coordinates": [-75.912144692, 42.470651158], "type": "Point"}, "id": "As_U3I1jwQz5daN9Xsu5asEfC7w=", "properties": {"@source_uri": "https://tools.usps.com/UspsToolsRestServices/rest/POLocator/findLocations", "@spider": "usps_collection_boxes", "addr:city": "WILLET", "addr:country": "US", "addr:postcode": "13863", "addr:state": "NY", "addr:street_address": "1300 LOWER CINCINNATUS RD", "amenity": "post_box", "brand": "United States Postal Service", "brand:wikidata": "Q668687", "collection_times": "Mo-Fr 15:00; Sa 11:45", "indoor": "yes", "note": "ON 12/24 AND 12/31, THIS BOX MAY BE COLLECTED AS EARLY AS 12 NOON.", "nsi_id": "unitedstatespostalservice-a77078", "operator": "United States Postal Service", "operator:short": "USPS", "operator:type": "public", "operator:wikidata": "Q668687", "ref": "1386300003"}, "type": "Feature"}
{"geometry": {"coordinates": [-76.378648, 42.287676], "type": "Point"}, "id": "CbDSnlIfLGDk2D2-R4f0IZ4-cKo=", "properties": {"@source_uri": "https://tools.usps.com/UspsToolsRestServices/rest/POLocator/findLocations", "@spider": "usps_collection_boxes", "addr:city": "WILLSEYVILLE", "addr:country": "US", "addr:postcode": "13864", "addr:state": "NY", "addr:street_address": "24 WILLSEYVILLE RD", "amenity": "post_box", "brand": "United States Postal Service", "brand:wikidata": "Q668687", "collection_times": "Mo-Fr 12:00; Sa 11:00", "nsi_id": "unitedstatespostalservice-a77078", "operator": "United States Postal Service", "operator:short": "USPS", "operator:type": "public", "operator:wikidata": "Q668687", "ref": "1386400001"}, "type": "Feature"}
{"geometry": {"coordinates": [-76.378614, 42.287739], "type": "Point"}, "id": "Nut6ni5ENkYgjNoAZfW-gS9qqM0=", "properties": {"@source_uri": "https://tools.usps.com/UspsToolsRestServices/rest/POLocator/findLocations", "@spider": "usps_collection_boxes", "addr:city": "WILLSEYVILLE", "addr:country": "US", "addr:postcode": "13864", "addr:state": "NY", "addr:street_address": "24 WILLSEYVILLE RD", "amenity": "post_box", "brand": "United States Postal Service", "brand:wikidata": "Q668687", "collection_times": "Mo-Fr 12:00; Sa 11:00", "indoor": "yes", "nsi_id": "unitedstatespostalservice-a77078", "operator": "United States Postal Service", "operator:short": "USPS", "operator:type": "public", "operator:wikidata": "Q668687", "ref": "1386400002"}, "type": "Feature"}
{"geometry": {"coordinates": [-76.378657571, 42.287858214], "type": "Point"}, "id": "OA0COTmc9v5i1usnKQ4b1v5ozcA=", "properties": {"@source_uri": "https://tools.usps.com/UspsToolsRestServices/rest/POLocator/findLocations", "@spider": "usps_collection_boxes", "addr:city": "WILLSEYVILLE", "addr:country": "US", "addr:postcode": "13864", "addr:state": "NY", "addr:street_address": "24 WILLSEYVILLE RD", "amenity": "post_box", "brand": "United States Postal Service", "brand:wikidata": "Q668687", "collection_times": "Mo-Fr 12:00; Sa 11:00", "indoor": "yes", "nsi_id": "unitedstatespostalservice-a77078", "operator": "United States Postal Service", "operator:short": "USPS", "operator:type": "public", "operator:wikidata": "Q668687", "ref": "1386400004"}, "type": "Feature"}
{"geometry": {"coordinates": [-75.64973, 42.07635], "type": "Point"}, "id": "fGXSnQE4KlhTnUVyuDHGkC0sBAw=", "properties": {"@source_uri": "https://tools.usps.com/UspsToolsRestServices/rest/POLocator/findLocations", "@spider": "usps_collection_boxes", "addr:city": "WINDSOR", "addr:country": "US", "addr:postcode": "13865", "addr:state": "NY", "addr:street_address": "652 OLD ROUTE 17", "amenity": "post_box", "brand": "United States Postal Service", "brand:wikidata": "Q668687", "collection_times": "Mo-Fr 16:30; Sa 12:00", "note": "ON 12/24 AND 12/31, THIS BOX MAY BE COLLECTED AS EARLY AS 12 NOON.", "nsi_id": "unitedstatespostalservice-a77078", "operator": "United States Postal Service", "operator:short": "USPS", "operator:type": "public", "operator:wikidata": "Q668687", "ref": "1386500001"}, "type": "Feature"}
{"geometry": {"coordinates": [-75.64978, 42.076374], "type": "Point"}, "id": "jZBymt2cFWZsk4EjwQEYUq8fb9A=", "properties": {"@source_uri": "https://tools.usps.com/UspsToolsRestServices/rest/POLocator/findLocations", "@spider": "usps_collection_boxes", "addr:city": "WINDSOR", "addr:country": "US", "addr:postcode": "13865", "addr:state": "NY", "addr:street_address": "652 OLD ROUTE 17", "amenity": "post_box", "brand": "United States Postal Service", "brand:wikidata": "Q668687", "collection_times": "Mo-Fr 16:30; Sa 12:00", "indoor": "yes", "note": "ON 12/24 AND 12/31, THIS BOX MAY BE COLLECTED AS EARLY AS 12 NOON.", "nsi_id": "unitedstatespostalservice-a77078", "operator": "United States Postal Service", "operator:short": "USPS", "operator:type": "public", "operator:wikidata": "Q668687", "ref": "1386500003"}, "type": "Feature"}
{"geometry": {"coordinates": [-75.64886109, 42.076391506], "type": "Point"}, "id": "ITZRlGAdFaJrfNuWe7NGKHYmu1o=", "properties": {"@source_uri": "https://tools.usps.com/UspsToolsRestServices/rest/POLocator/findLocations", "@spider": "usps_collection_boxes", "addr:city": "WINDSOR", "addr:country": "US", "addr:postcode": "13865", "addr:state": "NY", "addr:street_address": "652 OLD ROUTE 17", "amenity": "post_box", "brand": "United States Postal Service", "brand:wikidata": "Q668687", "collection_times": "Mo-Fr 16:30; Sa 12:00", "indoor": "yes", "note": "ON 12/24 AND 12/31, THIS BOX MAY BE COLLECTED AS EARLY AS 12 NOON.", "nsi_id": "unitedstatespostalservice-a77078", "operator": "United States Postal Service", "operator:short": "USPS", "operator:type": "public", "operator:wikidata": "Q668687", "ref": "1386500004"}, "type": "Feature"}
