{"dataset_attributes": {"@spider": "usps_collection_boxes", "spider:collection_time": "2023-09-13T08:25:17.985642"}, "geometry": {"coordinates": [-75.8876347, 42.148542], "type": "Point"}, "id": "Ejl0hyipe7GC_kDiWWRXV6kLino=", "properties": {"@spider": "usps_collection_boxes", "addr:city": "BINGHAMTON", "addr:country": "US", "addr:full": "1110 CHENANGO ST", "addr:postcode": "13901", "addr:state": "NY", "amenity": "post_box", "brand": "United States Postal Service", "brand:wikidata": "Q668687", "collection_times": "Mo-Sa 15:00", "name": "USPS COLLECTION BOX - BLUE BOX", "note": "ON 12/24 AND 12/31, THIS BOX MAY BE COLLECTED AS EARLY AS 12 NOON.", "nsi_id": "unitedstatespostalservice-a77078", "operator": "United States Postal Service", "operator:short": "USPS", "operator:type": "public", "operator:wikidata": "Q668687", "ref": "1390100009"}, "type": "Feature"}
{"dataset_attributes": {"@spider": "usps_collection_boxes", "spider:collection_time": "2023-09-13T08:25:17.985642"}, "geometry": {"coordinates": [-75.8993312, 42.121618], "type": "Point"}, "id": "uvfQalMisHCD2lEyOc2nCZHR2CI=", "properties": {"@spider": "usps_collection_boxes", "addr:city": "BINGHAMTON", "addr:country": "US", "addr:full": "568 CHENANGO ST", "addr:postcode": "13901", "addr:state": "NY", "amenity": "post_box", "brand": "United States Postal Service", "brand:wikidata": "Q668687", "collection_times": "Mo-Sa 10:00", "name": "USPS COLLECTION BOX - BLUE BOX", "nsi_id": "unitedstatespostalservice-a77078", "operator": "United States Postal Service", "operator:short": "USPS", "operator:type": "public", "operator:wikidata": "Q668687", "ref": "1390100013"}, "type": "Feature"}
{"dataset_attributes": {"@spider": "usps_collection_boxes", "spider:collection_time": "2023-09-13T08:25:17.985642"}, "geometry": {"coordinates": [-75.8961255, 42.133468], "type": "Point"}, "id": "n4tlv0r5WhX5VMoPR4Qw_ExBQh8=", "properties": {"@spider": "usps_collection_boxes", "addr:city": "BINGHAMTON", "addr:country": "US", "addr:full": "730 CHENANGO ST", "addr:postcode": "13901", "addr:state": "NY", "amenity": "post_box", "brand": "United States Postal Service", "brand:wikidata": "Q668687", "collection_times": "Mo-Sa 10:30", "name": "USPS COLLECTION BOX - BLUE BOX", "nsi_id": "unitedstatespostalservice-a77078", "operator": "United States Postal Service", "operator:short": "USPS", "operator:type": "public", "operator:wikidata": "Q668687", "ref": "1390100015"}, "type": "Feature"}
{"dataset_attributes": {"@spider": "usps_collection_boxes", "spider:collection_time": "2023-09-13T08:25:17.985642"}, "geometry": {"coordinates": [-75.9105424, 42.100631], "type": "Point"}, "id": "v7QXVz2hM1lDh4ehTJSfJvUu0A0=", "properties": {"@spider": "usps_collection_boxes", "addr:city": "BINGHAMTON", "addr:country": "US", "addr:full": "53 CHENANGO ST", "addr:postcode": "13901", "addr:state": "NY", "amenity": "post_box", "brand": "United States Postal Service", "brand:wikidata": "Q668687", "collection_times": "Mo-Fr 16:00; Sa 13:00", "name": "USPS COLLECTION BOX - BLUE BOX", "note": "ON 12/24 AND 12/31, THIS BOX MAY BE COLLECTED AS EARLY AS 12 NOON.", "nsi_id": "unitedstatespostalservice-a77078", "operator": "United States Postal Service", "operator:short": "USPS", "operator:type": "public", "operator:wikidata": "Q668687", "ref": "1390100023"}, "type": "Feature"}
{"dataset_attributes": {"@spider": "usps_collection_boxes", "spider:collection_time": "2023-09-13T08:25:17.985642"}, "geometry": {"coordinates": [-75.9078053, 42.099492], "type": "Point"}, "id": "UrTQ5bdznhiFRJfDzuGkxYIFsQM=", "properties": {"@spider": "usps_collection_boxes", "addr:city": "BINGHAMTON", "addr:country": "US", "addr:full": "164 COURT ST", "addr:postcode": "13901", "addr:state": "NY", "amenity": "post_box", "brand": "United States Postal Service", "brand:wikidata": "Q668687", "collection_times": "Mo-Sa 11:00", "name": "USPS COLLECTION BOX - BLUE BOX", "nsi_id": "unitedstatespostalservice-a77078", "operator": "United States Postal Service", "operator:short": "USPS", "operator:type": "public", "operator:wikidata": "Q668687", "ref": "1390100024"}, "type": "Feature"}
{"dataset_attributes": {"@spider": "usps_collection_boxes", "spider:collection_time": "2023-09-13T08:25:17.985642"}, "geometry": {"coordinates": [-75.9046876, 42.100471], "type": "Point"}, "id": "_OUwfEnKwka2cEyImmC6C5gumfA=", "properties": {"@spider": "usps_collection_boxes", "addr:city": "BINGHAMTON", "addr:country": "US", "addr:full": "198 COURT ST", "addr:postcode": "13901", "addr:state": "NY", "amenity": "post_box", "brand": "United States Postal Service", "brand:wikidata": "Q668687", "collection_times": "Mo-Sa 11:00", "name": "USPS COLLECTION BOX - BLUE BOX", "nsi_id": "unitedstatespostalservice-a77078", "operator": "United States Postal Service", "operator:short": "USPS", "operator:type": "public", "operator:wikidata": "Q668687", "ref": "1390100025"}, "type": "Feature"}
{"dataset_attributes": {"@spider": "usps_collection_boxes", "spider:collection_time": "2023-09-13T08:25:17.985642"}, "geometry": {"coordinates": [-75.9083125, 42.1013048], "type": "Point"}, "id": "R0BnsPGSWFU6YzyGsFcb6YyCn_M=", "properties": {"@spider": "usps_collection_boxes", "addr:city": "BINGHAMTON", "addr:country": "US", "addr:full": "25 COURT ST", "addr:postcode": "13901", "addr:state": "NY", "amenity": "post_box", "brand": "United States Postal Service", "brand:wikidata": "Q668687", "collection_times": "Mo-Fr 16:00; Sa 13:00", "name": "USPS COLLECTION BOX - BLUE BOX", "note": "ON 12/24 AND 12/31, THIS BOX MAY BE COLLECTED AS EARLY AS 12 NOON.", "nsi_id": "unitedstatespostalservice-a77078", "operator": "United States Postal Service", "operator:short": "USPS", "operator:type": "public", "operator:wikidata": "Q668687", "ref": "1390100028"}, "type": "Feature"}
{"dataset_attributes": {"@spider": "usps_collection_boxes", "spider:collection_time": "2023-09-13T08:25:17.985642"}, "geometry": {"coordinates": [-75.9105964, 42.098538], "type": "Point"}, "id": "m9f86WUVjlWCCR8WxRFtYUqF1gs=", "properties": {"@spider": "usps_collection_boxes", "addr:city": "BINGHAMTON", "addr:country": "US", "addr:full": "80 EXCHANGE ST", "addr:postcode": "13901", "addr:state": "NY", "amenity": "post_box", "brand": "United States Postal Service", "brand:wikidata": "Q668687", "collection_times": "Mo-Fr 17:00; Sa 13:00", "name": "USPS COLLECTION BOX - BLUE BOX", "note": "ON 12/24 AND 12/31, THIS BOX MAY BE COLLECTED AS EARLY AS 12 NOON.", "nsi_id": "unitedstatespostalservice-a77078", "operator": "United States Postal Service", "operator:short": "USPS", "operator:type": "public", "operator:wikidata": "Q668687", "ref": "1390100031"}, "type": "Feature"}
{"dataset_attributes": {"@spider": "usps_collection_boxes", "spider:collection_time": "2023-09-13T08:25:17.985642"}, "geometry": {"coordinates": [-75.894114, 42.155753], "type": "Point"}, "id": "G5molQeo8lTByrLK7Uu4LiAojKQ=", "properties": {"@spider": "usps_collection_boxes", "addr:city": "BINGHAMTON", "addr:country": "US", "addr:full": "1250 FRONT ST", "addr:postcode": "13901", "addr:state": "NY", "amenity": "post_box", "brand": "United States Postal Service", "brand:wikidata": "Q668687", "collection_times": "Mo-Fr 16:15; Sa 13:00", "name": "USPS COLLECTION BOX - BLUE BOX", "note": "ON 12/24 AND 12/31, THIS BOX MAY BE COLLECTED AS EARLY AS 12 NOON.", "nsi_id": "unitedstatespostalservice-a77078", "operator": "United States Postal Service", "operator:short": "USPS", "operator:type": "public", "operator:wikidata": "Q668687", "ref": "1390100033"}, "type": "Feature"}
{"dataset_attributes": {"@spider": "usps_collection_boxes", "spider:collection_time": "2023-09-13T08:25:17.985642"}, "geometry": {"coordinates": [-75.8937124, 42.160105], "type": "Point"}, "id": "VuCo3z0IBffeC1IwoWjaHvl57b0=", "properties": {"@spider": "usps_collection_boxes", "addr:city": "BINGHAMTON", "addr:country": "US", "addr:full": "1290 FRONT ST", "addr:postcode": "13901", "addr:state": "NY", "amenity": "post_box", "brand": "United States Postal Service", "brand:wikidata": "Q668687", "collection_times": "Mo-Fr 16:15; Sa 13:00", "name": "USPS COLLECTION BOX - BLUE BOX", "note": "ON 12/24 AND 12/31, THIS BOX MAY BE COLLECTED AS EARLY AS 12 NOON.", "nsi_id": "unitedstatespostalservice-a77078", "operator": "United States Postal Service", "operator:short": "USPS", "operator:type": "public", "operator:wikidata": "Q668687", "ref": "1390100034"}, "type": "Feature"}
{"dataset_attributes": {"@spider": "usps_collection_boxes", "spider:collection_time": "2023-09-13T08:25:17.985642"}, "geometry": {"coordinates": [-75.9149774, 42.097661], "type": "Point"}, "id": "-5V6AwcjijMHTKL3z6Avv65Zelw=", "properties": {"@spider": "usps_collection_boxes", "addr:city": "BINGHAMTON", "addr:country": "US", "addr:full": "2-8 HAWLEY ST", "addr:postcode": "13901", "addr:state": "NY", "amenity": "post_box", "brand": "United States Postal Service", "brand:wikidata": "Q668687", "collection_times": "Mo-Fr 16:30; Sa 13:00", "name": "USPS COLLECTION BOX - BLUE BOX", "note": "ON 12/24 AND 12/31, THIS BOX MAY BE COLLECTED AS EARLY AS 12 NOON.", "nsi_id": "unitedstatespostalservice-a77078", "operator": "United States Postal Service", "operator:short": "USPS", "operator:type": "public", "operator:wikidata": "Q668687", "ref": "1390100037"}, "type": "Feature"}
{"dataset_attributes": {"@spider": "usps_collection_boxes", "spider:collection_time": "2023-09-13T08:25:17.985642"}, "geometry": {"coordinates": [-75.9114813, 42.096856], "type": "Point"}, "id": "XWHg8W0n0EL11yHYrzJmg4FFa10=", "properties": {"@spider": "usps_collection_boxes", "addr:city": "BINGHAMTON", "addr:country": "US", "addr:full": "44 HAWLEY ST", "addr:postcode": "13901", "addr:state": "NY", "amenity": "post_box", "brand": "United States Postal Service", "brand:wikidata": "Q668687", "collection_times": "Mo-Fr 17:00; Sa 13:00", "name": "USPS COLLECTION BOX - BLUE BOX", "note": "ON 12/24 AND 12/31, THIS BOX MAY BE COLLECTED AS EARLY AS 12 NOON.", "nsi_id": "unitedstatespostalservice-a77078", "operator": "United States Postal Service", "operator:short": "USPS", "operator:type": "public", "operator:wikidata": "Q668687", "ref": "1390100038"}, "type": "Feature"}
{"dataset_attributes": {"@spider": "usps_collection_boxes", "spider:collection_time": "2023-09-13T08:25:17.985642"}, "geometry": {"coordinates": [-75.9072874, 42.098086], "type": "Point"}, "id": "GJ6ma7nRzW7qlFn3HQkdaWlun3Y=", "properties": {"@spider": "usps_collection_boxes", "addr:city": "BINGHAMTON", "addr:country": "US", "addr:full": "117 HAWLEY ST", "addr:postcode": "13901", "addr:state": "NY", "amenity": "post_box", "brand": "United States Postal Service", "brand:wikidata": "Q668687", "collection_times": "Mo-Sa 13:00", "name": "USPS COLLECTION BOX - BLUE BOX", "note": "ON 12/24 AND 12/31, THIS BOX MAY BE COLLECTED AS EARLY AS 12 NOON.", "nsi_id": "unitedstatespostalservice-a77078", "operator": "United States Postal Service", "operator:short": "USPS", "operator:type": "public", "operator:wikidata": "Q668687", "ref": "1390100039"}, "type": "Feature"}
{"dataset_attributes": {"@spider": "usps_collection_boxes", "spider:collection_time": "2023-09-13T08:25:17.985642"}, "geometry": {"coordinates": [-75.9097914, 42.097296], "type": "Point"}, "id": "-bjiQcv5BdJzxfQNqJnelQ-_1Sw=", "properties": {"@spider": "usps_collection_boxes", "addr:city": "BINGHAMTON", "addr:country": "US", "addr:full": "80 HAWLEY ST", "addr:postcode": "13901", "addr:state": "NY", "amenity": "post_box", "brand": "United States Postal Service", "brand:wikidata": "Q668687", "collection_times": "Mo-Fr 17:00; Sa 13:00", "name": "USPS COLLECTION BOX - BLUE BOX", "note": "ON 12/24 AND 12/31, THIS BOX MAY BE COLLECTED AS EARLY AS 12 NOON.", "nsi_id": "unitedstatespostalservice-a77078", "operator": "United States Postal Service", "operator:short": "USPS", "operator:type": "public", "operator:wikidata": "Q668687", "ref": "1390100040"}, "type": "Feature"}
{"dataset_attributes": {"@spider": "usps_collection_boxes", "spider:collection_time": "2023-09-13T08:25:17.985642"}, "geometry": {"coordinates": [-75.9125776, 42.097232], "type": "Point"}, "id": "vJFMLFkFVH8_cl0jH81x3RfcXRc=", "properties": {"@spider": "usps_collection_boxes", "addr:city": "BINGHAMTON", "addr:country": "US", "addr:full": "71 STATE ST", "addr:postcode": "13901", "addr:state": "NY", "amenity": "post_box", "brand": "United States Postal Service", "brand:wikidata": "Q668687", "collection_times": "Mo-Fr 16:30; Sa 13:00", "name": "USPS COLLECTION BOX - BLUE BOX", "note": "ON 12/24 AND 12/31, THIS BOX MAY BE COLLECTED AS EARLY AS 12 NOON.", "nsi_id": "unitedstatespostalservice-a77078", "operator": "United States Postal Service", "operator:short": "USPS", "operator:type": "public", "operator:wikidata": "Q668687", "ref": "1390100042"}, "type": "Feature"}
{"dataset_attributes": {"@spider": "usps_collection_boxes", "spider:collection_time": "2023-09-13T08:25:17.985642"}, "geometry": {"coordinates": [-75.9048356, 42.109064], "type": "Point"}, "id": "h6ScxPGqbEmahiGUbCqMScMQtgc=", "properties": {"@spider": "usps_collection_boxes", "addr:city": "BINGHAMTON", "addr:country": "US", "addr:full": "30 W STATE ST", "addr:postcode": "13901", "addr:state": "NY", "amenity": "post_box", "brand": "United States Postal Service", "brand:wikidata": "Q668687", "collection_times": "Mo-Fr 16:00; Sa 13:00", "name": "USPS COLLECTION BOX - BLUE BOX", "note": "ON 12/24 AND 12/31, THIS BOX MAY BE COLLECTED AS EARLY AS 12 NOON.", "nsi_id": "unitedstatespostalservice-a77078", "operator": "United States Postal Service", "operator:short": "USPS", "operator:type": "public", "operator:wikidata": "Q668687", "ref": "1390100044"}, "type": "Feature"}
{"dataset_attributes": {"@spider": "usps_collection_boxes", "spider:collection_time": "2023-09-13T08:25:17.985642"}, "geometry": {"coordinates": [-75.9058914, 42.110748], "type": "Point"}, "id": "WFRo8gXkrSBNKq-5IPg-9KBi43w=", "properties": {"@spider": "usps_collection_boxes", "addr:city": "BINGHAMTON", "addr:country": "US", "addr:full": "33 W STATE ST", "addr:postcode": "13901", "addr:state": "NY", "amenity": "post_box", "brand": "United States Postal Service", "brand:wikidata": "Q668687", "collection_times": "Mo-Fr 16:00; Sa 13:00", "name": "USPS COLLECTION BOX - BLUE BOX", "note": "ON 12/24 AND 12/31, THIS BOX MAY BE COLLECTED AS EARLY AS 12 NOON.", "nsi_id": "unitedstatespostalservice-a77078", "operator": "United States Postal Service", "operator:short": "USPS", "operator:type": "public", "operator:wikidata": "Q668687", "ref": "1390100047"}, "type": "Feature"}
{"dataset_attributes": {"@spider": "usps_collection_boxes", "spider:collection_time": "2023-09-13T08:25:17.985642"}, "geometry": {"coordinates": [-75.9133423, 42.098813], "type": "Point"}, "id": "r8WhDzxq-ZSZtanwDq-NEb0EA-Y=", "properties": {"@spider": "usps_collection_boxes", "addr:city": "BINGHAMTON", "addr:country": "US", "addr:full": "55 COURT ST", "addr:postcode": "13901", "addr:state": "NY", "amenity": "post_box", "brand": "United States Postal Service", "brand:wikidata": "Q668687", "collection_times": "Mo-Fr 16:00; Sa 13:00", "name": "USPS COLLECTION BOX - BLUE BOX", "note": "ON 12/24 AND 12/31, THIS BOX MAY BE COLLECTED AS EARLY AS 12 NOON.", "nsi_id": "unitedstatespostalservice-a77078", "operator": "United States Postal Service", "operator:short": "USPS", "operator:type": "public", "operator:wikidata": "Q668687", "ref": "1390100056"}, "type": "Feature"}
{"dataset_attributes": {"@spider": "usps_collection_boxes", "spider:collection_time": "2023-09-13T08:25:17.985642"}, "geometry": {"coordinates": [-75.9111739, 42.102862], "type": "Point"}, "id": "kNXqepHzr37GGazUNJ3kPhGefkE=", "properties": {"@spider": "usps_collection_boxes", "addr:city": "BINGHAMTON", "addr:country": "US", "addr:full": "229 STATE ST", "addr:postcode": "13901", "addr:state": "NY", "amenity": "post_box", "brand": "United States Postal Service", "brand:wikidata": "Q668687", "collection_times": "Mo-Fr 16:00; Sa 13:00", "name": "USPS COLLECTION BOX - BLUE BOX", "note": "ON 12/24 AND 12/31, THIS BOX MAY BE COLLECTED AS EARLY AS 12 NOON.", "nsi_id": "unitedstatespostalservice-a77078", "operator": "United States Postal Service", "operator:short": "USPS", "operator:type": "public", "operator:wikidata": "Q668687", "ref": "1390100073"}, "type": "Feature"}
{"dataset_attributes": {"@spider": "usps_collection_boxes", "spider:collection_time": "2023-09-13T08:25:17.985642"}, "geometry": {"coordinates": [-75.9115018, 42.098481], "type": "Point"}, "id": "7e9G7uUYqerC458LH5lRO6HHBrU=", "properties": {"@spider": "usps_collection_boxes", "addr:city": "BINGHAMTON", "addr:country": "US", "addr:full": "84 COURT ST", "addr:postcode": "13901", "addr:state": "NY", "amenity": "post_box", "brand": "United States Postal Service", "brand:wikidata": "Q668687", "collection_times": "Mo-Fr 16:30; Sa 13:00", "name": "USPS COLLECTION BOX - BLUE BOX", "note": "ON 12/24 AND 12/31, THIS BOX MAY BE COLLECTED AS EARLY AS 12 NOON.", "nsi_id": "unitedstatespostalservice-a77078", "operator": "United States Postal Service", "operator:short": "USPS", "operator:type": "public", "operator:wikidata": "Q668687", "ref": "1390100076"}, "type": "Feature"}
{"dataset_attributes": {"@spider": "usps_collection_boxes", "spider:collection_time": "2023-09-13T08:25:17.985642"}, "geometry": {"coordinates": [-75.9114303, 42.096954], "type": "Point"}, "id": "0vTWEZvaYBdDgGB8mS92xkkY7yo=", "properties": {"@spider": "usps_collection_boxes", "addr:city": "BINGHAMTON", "addr:country": "US", "addr:full": "44 HAWLEY ST", "addr:postcode": "13901", "addr:state": "NY", "amenity": "post_box", "brand": "United States Postal Service", "brand:wikidata": "Q668687", "collection_times": "Mo-Fr 17:00; Sa 10:00", "name": "USPS COLLECTION BOX - EXPRESS", "note": "ON 12/24 AND 12/31, THIS BOX MAY BE COLLECTED AS EARLY AS 12 NOON.", "nsi_id": "unitedstatespostalservice-a77078", "operator": "United States Postal Service", "operator:short": "USPS", "operator:type": "public", "operator:wikidata": "Q668687", "ref": "1390100081"}, "type": "Feature"}
{"dataset_attributes": {"@spider": "usps_collection_boxes", "spider:collection_time": "2023-09-13T08:25:17.985642"}, "geometry": {"coordinates": [-75.9129963, 42.09975], "type": "Point"}, "id": "08LgVLKQqN1JNBfeJwQIEdoF64g=", "properties": {"@spider": "usps_collection_boxes", "addr:city": "BINGHAMTON", "addr:country": "US", "addr:full": "49 COURT ST", "addr:postcode": "13901", "addr:state": "NY", "amenity": "post_box", "brand": "United States Postal Service", "brand:wikidata": "Q668687", "collection_times": "Mo-Fr 16:30; Sa 13:00", "name": "USPS COLLECTION BOX - BLUE BOX", "note": "ON 12/24 AND 12/31, THIS BOX MAY BE COLLECTED AS EARLY AS 12 NOON.", "nsi_id": "unitedstatespostalservice-a77078", "operator": "United States Postal Service", "operator:short": "USPS", "operator:type": "public", "operator:wikidata": "Q668687", "ref": "1390100106"}, "type": "Feature"}
{"dataset_attributes": {"@spider": "usps_collection_boxes", "spider:collection_time": "2023-09-13T08:25:17.985642"}, "geometry": {"coordinates": [-75.8909494, 42.144586], "type": "Point"}, "id": "jESlF-DsXOwDXFFe0lJEBQSjMAo=", "properties": {"@spider": "usps_collection_boxes", "addr:city": "BINGHAMTON", "addr:country": "US", "addr:full": "1021 CHENANGO ST", "addr:postcode": "13901", "addr:state": "NY", "amenity": "post_box", "brand": "United States Postal Service", "brand:wikidata": "Q668687", "collection_times": "Mo-Sa 12:00", "name": "USPS COLLECTION BOX - BLUE BOX", "nsi_id": "unitedstatespostalservice-a77078", "operator": "United States Postal Service", "operator:short": "USPS", "operator:type": "public", "operator:wikidata": "Q668687", "ref": "1390100107"}, "type": "Feature"}
{"dataset_attributes": {"@spider": "usps_collection_boxes", "spider:collection_time": "2023-09-13T08:25:17.985642"}, "geometry": {"coordinates": [-75.9124957, 42.097302], "type": "Point"}, "id": "fI7OOKDjfi-etxm8oko01hR3hJE=", "properties": {"@spider": "usps_collection_boxes", "addr:city": "BINGHAMTON", "addr:country": "US", "addr:full": "71 STATE ST", "addr:postcode": "13901", "addr:state": "NY", "amenity": "post_box", "brand": "United States Postal Service", "brand:wikidata": "Q668687", "collection_times": "Mo-Fr 16:30; Sa 13:00", "name": "USPS COLLECTION BOX - BLUE BOX", "note": "ON 12/24 AND 12/31, THIS BOX MAY BE COLLECTED AS EARLY AS 12 NOON.", "nsi_id": "unitedstatespostalservice-a77078", "operator": "United States Postal Service", "operator:short": "USPS", "operator:type": "public", "operator:wikidata": "Q668687", "ref": "1390100110"}, "type": "Feature"}
{"dataset_attributes": {"@spider": "usps_collection_boxes", "spider:collection_time": "2023-09-13T08:25:17.985642"}, "geometry": {"coordinates": [-75.9127523, 42.100695], "type": "Point"}, "id": "XCn25AzaRqWRBvgsrSBVfMMhMEQ=", "properties": {"@spider": "usps_collection_boxes", "addr:city": "BINGHAMTON", "addr:country": "US", "addr:full": "15 HENRY ST", "addr:postcode": "13901", "addr:state": "NY", "amenity": "post_box", "brand": "United States Postal Service", "brand:wikidata": "Q668687", "collection_times": "Mo-Fr 16:30; Sa 13:00", "name": "USPS COLLECTION BOX - BLUE BOX", "note": "ON 12/24 AND 12/31, THIS BOX MAY BE COLLECTED AS EARLY AS 12 NOON.", "nsi_id": "unitedstatespostalservice-a77078", "operator": "United States Postal Service", "operator:short": "USPS", "operator:type": "public", "operator:wikidata": "Q668687", "ref": "1390100114"}, "type": "Feature"}
{"dataset_attributes": {"@spider": "usps_collection_boxes", "spider:collection_time": "2023-09-13T08:25:17.985642"}, "geometry": {"coordinates": [-75.9133352, 42.098798], "type": "Point"}, "id": "UWUqfIrhmL4JN4l_KnJrjXMW4gw=", "properties": {"@spider": "usps_collection_boxes", "addr:city": "BINGHAMTON", "addr:country": "US", "addr:full": "55 COURT ST", "addr:postcode": "13901", "addr:state": "NY", "amenity": "post_box", "brand": "United States Postal Service", "brand:wikidata": "Q668687", "collection_times": "Mo-Fr 16:00; Sa 13:00", "name": "USPS COLLECTION BOX - BLUE BOX", "note": "ON 12/24 AND 12/31, THIS BOX MAY BE COLLECTED AS EARLY AS 12 NOON.", "nsi_id": "unitedstatespostalservice-a77078", "operator": "United States Postal Service", "operator:short": "USPS", "operator:type": "public", "operator:wikidata": "Q668687", "ref": "1390100116"}, "type": "Feature"}
{"dataset_attributes": {"@spider": "usps_collection_boxes", "spider:collection_time": "2023-09-13T08:25:17.985642"}, "geometry": {"coordinates": [-75.906521, 42.102046], "type": "Point"}, "id": "rUlFZPMxOE7oYdh5oVLmH_LbFtI=", "properties": {"@spider": "usps_collection_boxes", "addr:city": "BINGHAMTON", "addr:country": "US", "addr:full": "115 HENRY ST", "addr:postcode": "13902", "addr:state": "NY", "amenity": "post_box", "brand": "United States Postal Service", "brand:wikidata": "Q668687", "collection_times": "Mo-Fr 18:30; Sa 17:00", "name": "USPS COLLECTION BOX - PO LOBBY", "note": "ON 12/24 AND 12/31, THIS BOX MAY BE COLLECTED AS EARLY AS 12 NOON.", "nsi_id": "unitedstatespostalservice-a77078", "operator": "United States Postal Service", "operator:short": "USPS", "operator:type": "public", "operator:wikidata": "Q668687", "ref": "1390200001"}, "type": "Feature"}
{"dataset_attributes": {"@spider": "usps_collection_boxes", "spider:collection_time": "2023-09-13T08:25:17.985642"}, "geometry": {"coordinates": [-75.9080575, 42.101618], "type": "Point"}, "id": "z760OiKPSwOx6tBJT1Ov_A2MpQE=", "properties": {"@spider": "usps_collection_boxes", "addr:city": "BINGHAMTON", "addr:country": "US", "addr:full": "115 HENRY ST", "addr:postcode": "13902", "addr:state": "NY", "amenity": "post_box", "brand": "United States Postal Service", "brand:wikidata": "Q668687", "collection_times": "Mo-Fr 18:30; Sa 17:00", "name": "USPS COLLECTION BOX - BLUE BOX", "note": "ON 12/24 AND 12/31, THIS BOX MAY BE COLLECTED AS EARLY AS 12 NOON.", "nsi_id": "unitedstatespostalservice-a77078", "operator": "United States Postal Service", "operator:short": "USPS", "operator:type": "public", "operator:wikidata": "Q668687", "ref": "1390200003"}, "type": "Feature"}
{"dataset_attributes": {"@spider": "usps_collection_boxes", "spider:collection_time": "2023-09-13T08:25:17.985642"}, "geometry": {"coordinates": [-75.9068745, 42.101738], "type": "Point"}, "id": "evmlS2MzBUjdld67UvZ-K_JH5Sc=", "properties": {"@spider": "usps_collection_boxes", "addr:city": "BINGHAMTON", "addr:country": "US", "addr:full": "115 HENRY ST", "addr:postcode": "13902", "addr:state": "NY", "amenity": "post_box", "brand": "United States Postal Service", "brand:wikidata": "Q668687", "collection_times": "Mo-Fr 18:30; Sa 17:00", "name": "USPS COLLECTION BOX - BLUE BOX", "note": "ON 12/24 AND 12/31, THIS BOX MAY BE COLLECTED AS EARLY AS 12 NOON.", "nsi_id": "unitedstatespostalservice-a77078", "operator": "United States Postal Service", "operator:short": "USPS", "operator:type": "public", "operator:wikidata": "Q668687", "ref": "1390200004"}, "type": "Feature"}
{"dataset_attributes": {"@spider": "usps_collection_boxes", "spider:collection_time": "2023-09-13T08:25:17.985642"}, "geometry": {"coordinates": [-75.90635095, 42.101857582], "type": "Point"}, "id": "YpHU2YPIH3LUJ4aMj7puZzz4BSc=", "properties": {"@spider": "usps_collection_boxes", "addr:city": "BINGHAMTON", "addr:country": "US", "addr:full": "115 HENRY ST", "addr:postcode": "13902", "addr:state": "NY", "amenity": "post_box", "brand": "United States Postal Service", "brand:wikidata": "Q668687", "collection_times": "Mo-Fr 17:00; Sa 13:00", "name": "USPS COLLECTION BOX - PO LOBBY", "note": "ON 12/24 AND 12/31, THIS BOX MAY BE COLLECTED AS EARLY AS 12 NOON.", "nsi_id": "unitedstatespostalservice-a77078", "operator": "United States Postal Service", "operator:short": "USPS", "operator:type": "public", "operator:wikidata": "Q668687", "ref": "1390200007"}, "type": "Feature"}
{"dataset_attributes": {"@spider": "usps_collection_boxes", "spider:collection_time": "2023-09-13T08:25:17.985642"}, "geometry": {"coordinates": [-75.9122695, 42.089662], "type": "Point"}, "id": "mAVc7aybslaufUrxcAkz2UosrPY=", "properties": {"@spider": "usps_collection_boxes", "addr:city": "BINGHAMTON", "addr:country": "US", "addr:full": "1215 VESTAL AVE", "addr:postcode": "13903", "addr:state": "NY", "amenity": "post_box", "brand": "United States Postal Service", "brand:wikidata": "Q668687", "collection_times": "Mo-Fr 17:00; Sa 13:00", "name": "USPS COLLECTION BOX - BLUE BOX", "note": "ON 12/24 AND 12/31, THIS BOX MAY BE COLLECTED AS EARLY AS 12 NOON.", "nsi_id": "unitedstatespostalservice-a77078", "operator": "United States Postal Service", "operator:short": "USPS", "operator:type": "public", "operator:wikidata": "Q668687", "ref": "1390300001"}, "type": "Feature"}
{"dataset_attributes": {"@spider": "usps_collection_boxes", "spider:collection_time": "2023-09-13T08:25:17.985642"}, "geometry": {"coordinates": [-75.9141282, 42.08635], "type": "Point"}, "id": "3fssH6ExDsfgS6MILWDZnM_XW_c=", "properties": {"@spider": "usps_collection_boxes", "addr:city": "BINGHAMTON", "addr:country": "US", "addr:full": "40 MITCHELL AVE", "addr:postcode": "13903", "addr:state": "NY", "amenity": "post_box", "brand": "United States Postal Service", "brand:wikidata": "Q668687", "collection_times": "Mo-Sa 15:00", "name": "USPS COLLECTION BOX - BLUE BOX", "note": "ON 12/24 AND 12/31, THIS BOX MAY BE COLLECTED AS EARLY AS 12 NOON.", "nsi_id": "unitedstatespostalservice-a77078", "operator": "United States Postal Service", "operator:short": "USPS", "operator:type": "public", "operator:wikidata": "Q668687", "ref": "1390300006"}, "type": "Feature"}
{"dataset_attributes": {"@spider": "usps_collection_boxes", "spider:collection_time": "2023-09-13T08:25:17.985642"}, "geometry": {"coordinates": [-75.9153185, 42.086571], "type": "Point"}, "id": "vfLYdBQZw53vbDxrJPx7hJ0cDQ4=", "properties": {"@spider": "usps_collection_boxes", "addr:city": "BINGHAMTON", "addr:country": "US", "addr:full": "27 PARK AVE", "addr:postcode": "13903", "addr:state": "NY", "amenity": "post_box", "brand": "United States Postal Service", "brand:wikidata": "Q668687", "collection_times": "Mo-Sa 15:00", "name": "USPS COLLECTION BOX - BLUE BOX", "note": "ON 12/24 AND 12/31, THIS BOX MAY BE COLLECTED AS EARLY AS 12 NOON.", "nsi_id": "unitedstatespostalservice-a77078", "operator": "United States Postal Service", "operator:short": "USPS", "operator:type": "public", "operator:wikidata": "Q668687", "ref": "1390300009"}, "type": "Feature"}
{"dataset_attributes": {"@spider": "usps_collection_boxes", "spider:collection_time": "2023-09-13T08:25:17.985642"}, "geometry": {"coordinates": [-75.9212136, 42.085935], "type": "Point"}, "id": "bGoMAyIw783vfBLAOBzqqVhx92M=", "properties": {"@spider": "usps_collection_boxes", "addr:city": "BINGHAMTON", "addr:country": "US", "addr:full": "1108 VESTAL AVE", "addr:postcode": "13903", "addr:state": "NY", "amenity": "post_box", "brand": "United States Postal Service", "brand:wikidata": "Q668687", "collection_times": "Mo-Sa 10:00", "name": "USPS COLLECTION BOX - BLUE BOX", "nsi_id": "unitedstatespostalservice-a77078", "operator": "United States Postal Service", "operator:short": "USPS", "operator:type": "public", "operator:wikidata": "Q668687", "ref": "1390300018"}, "type": "Feature"}
{"dataset_attributes": {"@spider": "usps_collection_boxes", "spider:collection_time": "2023-09-13T08:25:17.985642"}, "geometry": {"coordinates": [-75.912143, 42.089669], "type": "Point"}, "id": "enfgX7ZzPDKCnpORbd-qjCsqu80=", "properties": {"@spider": "usps_collection_boxes", "addr:city": "BINGHAMTON", "addr:country": "US", "addr:full": "1215 VESTAL AVE", "addr:postcode": "13903", "addr:state": "NY", "amenity": "post_box", "brand": "United States Postal Service", "brand:wikidata": "Q668687", "collection_times": "Mo-Fr 17:00; Sa 13:00", "name": "USPS COLLECTION BOX - PO LOBBY", "note": "ON 12/24 AND 12/31, THIS BOX MAY BE COLLECTED AS EARLY AS 12 NOON.", "nsi_id": "unitedstatespostalservice-a77078", "operator": "United States Postal Service", "operator:short": "USPS", "operator:type": "public", "operator:wikidata": "Q668687", "ref": "1390300024"}, "type": "Feature"}
{"dataset_attributes": {"@spider": "usps_collection_boxes", "spider:collection_time": "2023-09-13T08:25:17.985642"}, "geometry": {"coordinates": [-75.9168083, 42.08665], "type": "Point"}, "id": "ecvqqFIkexx-hqw3UagiE1S1SpM=", "properties": {"@spider": "usps_collection_boxes", "addr:city": "BINGHAMTON", "addr:country": "US", "addr:full": "50 PENNSYLVANIA AVE", "addr:postcode": "13903", "addr:state": "NY", "amenity": "post_box", "brand": "United States Postal Service", "brand:wikidata": "Q668687", "collection_times": "Mo-Sa 14:00", "name": "USPS COLLECTION BOX - BLUE BOX", "note": "ON 12/24 AND 12/31, THIS BOX MAY BE COLLECTED AS EARLY AS 12 NOON.", "nsi_id": "unitedstatespostalservice-a77078", "operator": "United States Postal Service", "operator:short": "USPS", "operator:type": "public", "operator:wikidata": "Q668687", "ref": "1390300028"}, "type": "Feature"}
{"dataset_attributes": {"@spider": "usps_collection_boxes", "spider:collection_time": "2023-09-13T08:25:17.985642"}, "geometry": {"coordinates": [-75.8877554, 42.097677], "type": "Point"}, "id": "qKiZxq9AsKRFMrDL9Oh0tQPRcIY=", "properties": {"@spider": "usps_collection_boxes", "addr:city": "BINGHAMTON", "addr:country": "US", "addr:full": "83 BELDEN ST", "addr:postcode": "13903", "addr:state": "NY", "amenity": "post_box", "brand": "United States Postal Service", "brand:wikidata": "Q668687", "collection_times": "Mo-Sa 13:00", "name": "USPS COLLECTION BOX - BLUE BOX", "note": "ON 12/24 AND 12/31, THIS BOX MAY BE COLLECTED AS EARLY AS 12 NOON.", "nsi_id": "unitedstatespostalservice-a77078", "operator": "United States Postal Service", "operator:short": "USPS", "operator:type": "public", "operator:wikidata": "Q668687", "ref": "1390300030"}, "type": "Feature"}
{"dataset_attributes": {"@spider": "usps_collection_boxes", "spider:collection_time": "2023-09-13T08:25:17.985642"}, "geometry": {"coordinates": [-75.912334862, 42.089635297], "type": "Point"}, "id": "AYmT2FmQ_ZQQ3pya4Eso2s453fs=", "properties": {"@spider": "usps_collection_boxes", "addr:city": "BINGHAMTON", "addr:country": "US", "addr:full": "1213 VESTAL AVE", "addr:postcode": "13903", "addr:state": "NY", "amenity": "post_box", "brand": "United States Postal Service", "brand:wikidata": "Q668687", "collection_times": "Mo-Fr 17:00; Sa 13:00", "name": "USPS COLLECTION BOX - PO LOBBY", "note": "ON 12/24 AND 12/31, THIS BOX MAY BE COLLECTED AS EARLY AS 12 NOON.", "nsi_id": "unitedstatespostalservice-a77078", "operator": "United States Postal Service", "operator:short": "USPS", "operator:type": "public", "operator:wikidata": "Q668687", "ref": "1390300033"}, "type": "Feature"}
{"dataset_attributes": {"@spider": "usps_collection_boxes", "spider:collection_time": "2023-09-13T08:25:17.985642"}, "geometry": {"coordinates": [-75.8887991, 42.10685], "type": "Point"}, "id": "tbqszAtTKMVUP7SW9nfZzctHM44=", "properties": {"@spider": "usps_collection_boxes", "addr:city": "BINGHAMTON", "addr:country": "US", "addr:full": "160 ROBINSON ST", "addr:postcode": "13904", "addr:state": "NY", "amenity": "post_box", "brand": "United States Postal Service", "brand:wikidata": "Q668687", "collection_times": "Mo-Sa 14:00", "name": "USPS COLLECTION BOX - BLUE BOX", "note": "ON 12/24 AND 12/31, THIS BOX MAY BE COLLECTED AS EARLY AS 12 NOON.", "nsi_id": "unitedstatespostalservice-a77078", "operator": "United States Postal Service", "operator:short": "USPS", "operator:type": "public", "operator:wikidata": "Q668687", "ref": "1390400005"}, "type": "Feature"}
{"dataset_attributes": {"@spider": "usps_collection_boxes", "spider:collection_time": "2023-09-13T08:25:17.985642"}, "geometry": {"coordinates": [-75.8813999, 42.108226], "type": "Point"}, "id": "JcWFU57tXLZWyhTbHa0RdSL7JME=", "properties": {"@spider": "usps_collection_boxes", "addr:city": "BINGHAMTON", "addr:country": "US", "addr:full": "245 ROBINSON ST", "addr:postcode": "13904", "addr:state": "NY", "amenity": "post_box", "brand": "United States Postal Service", "brand:wikidata": "Q668687", "collection_times": "Mo-Sa 14:00", "name": "USPS COLLECTION BOX - BLUE BOX", "note": "ON 12/24 AND 12/31, THIS BOX MAY BE COLLECTED AS EARLY AS 12 NOON.", "nsi_id": "unitedstatespostalservice-a77078", "operator": "United States Postal Service", "operator:short": "USPS", "operator:type": "public", "operator:wikidata": "Q668687", "ref": "1390400012"}, "type": "Feature"}
{"dataset_attributes": {"@spider": "usps_collection_boxes", "spider:collection_time": "2023-09-13T08:25:17.985642"}, "geometry": {"coordinates": [-75.8356094, 42.101537], "type": "Point"}, "id": "tw0GVdVb8WdrPhtxbI9zMKlX3Vk=", "properties": {"@spider": "usps_collection_boxes", "addr:city": "BINGHAMTON", "addr:country": "US", "addr:full": "2 INDUSTRIAL PARK", "addr:postcode": "13904", "addr:state": "NY", "amenity": "post_box", "brand": "United States Postal Service", "brand:wikidata": "Q668687", "collection_times": "Mo-Sa 09:00", "name": "USPS COLLECTION BOX - BLUE BOX", "nsi_id": "unitedstatespostalservice-a77078", "operator": "United States Postal Service", "operator:short": "USPS", "operator:type": "public", "operator:wikidata": "Q668687", "ref": "1390400018"}, "type": "Feature"}
{"dataset_attributes": {"@spider": "usps_collection_boxes", "spider:collection_time": "2023-09-13T08:25:17.985642"}, "geometry": {"coordinates": [-75.9289196, 42.102583], "type": "Point"}, "id": "-JZFz20Xygtc3oT54sJxewjyETM=", "properties": {"@spider": "usps_collection_boxes", "addr:city": "BINGHAMTON", "addr:country": "US", "addr:full": "146 MAIN ST", "addr:postcode": "13905", "addr:state": "NY", "amenity": "post_box", "brand": "United States Postal Service", "brand:wikidata": "Q668687", "collection_times": "Mo-Sa 10:30", "name": "USPS COLLECTION BOX - BLUE BOX", "nsi_id": "unitedstatespostalservice-a77078", "operator": "United States Postal Service", "operator:short": "USPS", "operator:type": "public", "operator:wikidata": "Q668687", "ref": "1390500001"}, "type": "Feature"}
{"dataset_attributes": {"@spider": "usps_collection_boxes", "spider:collection_time": "2023-09-13T08:25:17.985642"}, "geometry": {"coordinates": [-75.9347457, 42.096849], "type": "Point"}, "id": "Vqg4xD8KmlTyid-aWjCK1nUF0mo=", "properties": {"@spider": "usps_collection_boxes", "addr:city": "BINGHAMTON", "addr:country": "US", "addr:full": "48 BEETHOVEN ST", "addr:postcode": "13905", "addr:state": "NY", "amenity": "post_box", "brand": "United States Postal Service", "brand:wikidata": "Q668687", "collection_times": "Mo-Sa 14:30", "name": "USPS COLLECTION BOX - BLUE BOX", "note": "ON 12/24 AND 12/31, THIS BOX MAY BE COLLECTED AS EARLY AS 12 NOON.", "nsi_id": "unitedstatespostalservice-a77078", "operator": "United States Postal Service", "operator:short": "USPS", "operator:type": "public", "operator:wikidata": "Q668687", "ref": "1390500002"}, "type": "Feature"}
{"dataset_attributes": {"@spider": "usps_collection_boxes", "spider:collection_time": "2023-09-13T08:25:17.985642"}, "geometry": {"coordinates": [-75.9269845, 42.106089], "type": "Point"}, "id": "g5R6neGtmyd--cqN4rw4aB3RdNE=", "properties": {"@spider": "usps_collection_boxes", "addr:city": "BINGHAMTON", "addr:country": "US", "addr:full": "178 CLINTON ST", "addr:postcode": "13905", "addr:state": "NY", "amenity": "post_box", "brand": "United States Postal Service", "brand:wikidata": "Q668687", "collection_times": "Mo-Sa 10:00", "name": "USPS COLLECTION BOX - BLUE BOX", "nsi_id": "unitedstatespostalservice-a77078", "operator": "United States Postal Service", "operator:short": "USPS", "operator:type": "public", "operator:wikidata": "Q668687", "ref": "1390500008"}, "type": "Feature"}
{"dataset_attributes": {"@spider": "usps_collection_boxes", "spider:collection_time": "2023-09-13T08:25:17.985642"}, "geometry": {"coordinates": [-75.9486015, 42.109015], "type": "Point"}, "id": "67sveOBsSuxHUn9qrMnOHhO2VOg=", "properties": {"@spider": "usps_collection_boxes", "addr:city": "BINGHAMTON", "addr:country": "US", "addr:full": "41 FLORAL AVE", "addr:postcode": "13905", "addr:state": "NY", "amenity": "post_box", "brand": "United States Postal Service", "brand:wikidata": "Q668687", "collection_times": "Mo-Sa 11:00", "name": "USPS COLLECTION BOX - BLUE BOX", "nsi_id": "unitedstatespostalservice-a77078", "operator": "United States Postal Service", "operator:short": "USPS", "operator:type": "public", "operator:wikidata": "Q668687", "ref": "1390500016"}, "type": "Feature"}
{"dataset_attributes": {"@spider": "usps_collection_boxes", "spider:collection_time": "2023-09-13T08:25:17.985642"}, "geometry": {"coordinates": [-75.9188488, 42.09453], "type": "Point"}, "id": "u7Q7lOqdvwKXm7kCCWXFRsGLPF4=", "properties": {"@spider": "usps_collection_boxes", "addr:city": "BINGHAMTON", "addr:country": "US", "addr:full": "38 FRONT ST", "addr:postcode": "13905", "addr:state": "NY", "amenity": "post_box", "brand": "United States Postal Service", "brand:wikidata": "Q668687", "collection_times": "Mo-Sa 11:30", "name": "USPS COLLECTION BOX - BLUE BOX", "nsi_id": "unitedstatespostalservice-a77078", "operator": "United States Postal Service", "operator:short": "USPS", "operator:type": "public", "operator:wikidata": "Q668687", "ref": "1390500017"}, "type": "Feature"}
{"dataset_attributes": {"@spider": "usps_collection_boxes", "spider:collection_time": "2023-09-13T08:25:17.985642"}, "geometry": {"coordinates": [-75.9058682, 42.129193], "type": "Point"}, "id": "jp1XmDTEHmJLPsa4HX-XHlcZNVo=", "properties": {"@spider": "usps_collection_boxes", "addr:city": "BINGHAMTON", "addr:country": "US", "addr:full": "840 FRONT ST", "addr:postcode": "13905", "addr:state": "NY", "amenity": "post_box", "brand": "United States Postal Service", "brand:wikidata": "Q668687", "collection_times": "Mo-Fr 16:00; Sa 13:00", "name": "USPS COLLECTION BOX - BLUE BOX", "note": "ON 12/24 AND 12/31, THIS BOX MAY BE COLLECTED AS EARLY AS 12 NOON.", "nsi_id": "unitedstatespostalservice-a77078", "operator": "United States Postal Service", "operator:short": "USPS", "operator:type": "public", "operator:wikidata": "Q668687", "ref": "1390500021"}, "type": "Feature"}
{"dataset_attributes": {"@spider": "usps_collection_boxes", "spider:collection_time": "2023-09-13T08:25:17.985642"}, "geometry": {"coordinates": [-75.9371232105, 42.1076767158], "type": "Point"}, "id": "UJy4k9WLhzzZiwV4svftpxP705A=", "properties": {"@spider": "usps_collection_boxes", "addr:city": "BINGHAMTON", "addr:country": "US", "addr:full": "10 GLENWOOD AVE", "addr:postcode": "13905", "addr:state": "NY", "amenity": "post_box", "brand": "United States Postal Service", "brand:wikidata": "Q668687", "collection_times": "Mo-Sa 10:00", "name": "USPS COLLECTION BOX - BLUE BOX", "nsi_id": "unitedstatespostalservice-a77078", "operator": "United States Postal Service", "operator:short": "USPS", "operator:type": "public", "operator:wikidata": "Q668687", "ref": "1390500024"}, "type": "Feature"}
{"dataset_attributes": {"@spider": "usps_collection_boxes", "spider:collection_time": "2023-09-13T08:25:17.985642"}, "geometry": {"coordinates": [-75.9424057, 42.109833], "type": "Point"}, "id": "wisxzbsonoI3FvPfUitjDSRTJ6c=", "properties": {"@spider": "usps_collection_boxes", "addr:city": "BINGHAMTON", "addr:country": "US", "addr:full": "303 MAIN ST", "addr:postcode": "13905", "addr:state": "NY", "amenity": "post_box", "brand": "United States Postal Service", "brand:wikidata": "Q668687", "collection_times": "Mo-Sa 11:00", "name": "USPS COLLECTION BOX - BLUE BOX", "nsi_id": "unitedstatespostalservice-a77078", "operator": "United States Postal Service", "operator:short": "USPS", "operator:type": "public", "operator:wikidata": "Q668687", "ref": "1390500031"}, "type": "Feature"}
{"dataset_attributes": {"@spider": "usps_collection_boxes", "spider:collection_time": "2023-09-13T08:25:17.985642"}, "geometry": {"coordinates": [-75.9176842, 42.098721], "type": "Point"}, "id": "QLN9Vglhrc647GLu1KsrtU0D57Q=", "properties": {"@spider": "usps_collection_boxes", "addr:city": "BINGHAMTON", "addr:country": "US", "addr:full": "13 MAIN ST", "addr:postcode": "13905", "addr:state": "NY", "amenity": "post_box", "brand": "United States Postal Service", "brand:wikidata": "Q668687", "collection_times": "Mo-Sa 14:00", "name": "USPS COLLECTION BOX - BLUE BOX", "note": "ON 12/24 AND 12/31, THIS BOX MAY BE COLLECTED AS EARLY AS 12 NOON.", "nsi_id": "unitedstatespostalservice-a77078", "operator": "United States Postal Service", "operator:short": "USPS", "operator:type": "public", "operator:wikidata": "Q668687", "ref": "1390500034"}, "type": "Feature"}
{"dataset_attributes": {"@spider": "usps_collection_boxes", "spider:collection_time": "2023-09-13T08:25:17.985642"}, "geometry": {"coordinates": [-75.9347163, 42.091789], "type": "Point"}, "id": "8xUbhou4uQilmlLbWzlzuPpP2uc=", "properties": {"@spider": "usps_collection_boxes", "addr:city": "BINGHAMTON", "addr:country": "US", "addr:full": "161 RIVERSIDE DR", "addr:postcode": "13905", "addr:state": "NY", "amenity": "post_box", "brand": "United States Postal Service", "brand:wikidata": "Q668687", "collection_times": "Mo-Sa 12:00", "name": "USPS COLLECTION BOX - BLUE BOX", "nsi_id": "unitedstatespostalservice-a77078", "operator": "United States Postal Service", "operator:short": "USPS", "operator:type": "public", "operator:wikidata": "Q668687", "ref": "1390500043"}, "type": "Feature"}
{"dataset_attributes": {"@spider": "usps_collection_boxes", "spider:collection_time": "2023-09-13T08:25:17.985642"}, "geometry": {"coordinates": [-75.9221633, 42.092718], "type": "Point"}, "id": "qoYzLcBgZ_9upvQSW-SUEXmcgLY=", "properties": {"@spider": "usps_collection_boxes", "addr:city": "BINGHAMTON", "addr:country": "US", "addr:full": "28 RIVERSIDE DR", "addr:postcode": "13905", "addr:state": "NY", "amenity": "post_box", "brand": "United States Postal Service", "brand:wikidata": "Q668687", "collection_times": "Mo-Sa 14:00", "name": "USPS COLLECTION BOX - BLUE BOX", "note": "ON 12/24 AND 12/31, THIS BOX MAY BE COLLECTED AS EARLY AS 12 NOON.", "nsi_id": "unitedstatespostalservice-a77078", "operator": "United States Postal Service", "operator:short": "USPS", "operator:type": "public", "operator:wikidata": "Q668687", "ref": "1390500044"}, "type": "Feature"}
{"dataset_attributes": {"@spider": "usps_collection_boxes", "spider:collection_time": "2023-09-13T08:25:17.985642"}, "geometry": {"coordinates": [-75.9454899, 42.099863], "type": "Point"}, "id": "w5wSW8nT8UofUXf2IixGF04caQ4=", "properties": {"@spider": "usps_collection_boxes", "addr:city": "BINGHAMTON", "addr:country": "US", "addr:full": "66 W END AVE", "addr:postcode": "13905", "addr:state": "NY", "amenity": "post_box", "brand": "United States Postal Service", "brand:wikidata": "Q668687", "collection_times": "Mo-Sa 12:30", "name": "USPS COLLECTION BOX - BLUE BOX", "note": "ON 12/24 AND 12/31, THIS BOX MAY BE COLLECTED AS EARLY AS 12 NOON.", "nsi_id": "unitedstatespostalservice-a77078", "operator": "United States Postal Service", "operator:short": "USPS", "operator:type": "public", "operator:wikidata": "Q668687", "ref": "1390500047"}, "type": "Feature"}
{"dataset_attributes": {"@spider": "usps_collection_boxes", "spider:collection_time": "2023-09-13T08:25:17.985642"}, "geometry": {"coordinates": [-75.9162485, 42.131965], "type": "Point"}, "id": "CDuYmevhArjG2jSCX00YSf74nVY=", "properties": {"@spider": "usps_collection_boxes", "addr:city": "BINGHAMTON", "addr:country": "US", "addr:full": "897 FRONT ST", "addr:postcode": "13905", "addr:state": "NY", "amenity": "post_box", "brand": "United States Postal Service", "brand:wikidata": "Q668687", "collection_times": "Mo-Fr 16:00; Sa 13:00", "name": "USPS COLLECTION BOX - BLUE BOX", "note": "ON 12/24 AND 12/31, THIS BOX MAY BE COLLECTED AS EARLY AS 12 NOON.", "nsi_id": "unitedstatespostalservice-a77078", "operator": "United States Postal Service", "operator:short": "USPS", "operator:type": "public", "operator:wikidata": "Q668687", "ref": "1390500055"}, "type": "Feature"}
{"dataset_attributes": {"@spider": "usps_collection_boxes", "spider:collection_time": "2023-09-13T08:25:17.985642"}, "geometry": {"coordinates": [-75.9075664, 42.136118], "type": "Point"}, "id": "2AecA75YOPPtFAIWuOvBWb4g_eA=", "properties": {"@spider": "usps_collection_boxes", "addr:city": "BINGHAMTON", "addr:country": "US", "addr:full": "907 FRONT ST", "addr:postcode": "13905", "addr:state": "NY", "amenity": "post_box", "brand": "United States Postal Service", "brand:wikidata": "Q668687", "collection_times": "Mo-Fr 16:00; Sa 13:00", "name": "USPS COLLECTION BOX - BLUE BOX", "note": "ON 12/24 AND 12/31, THIS BOX MAY BE COLLECTED AS EARLY AS 12 NOON.", "nsi_id": "unitedstatespostalservice-a77078", "operator": "United States Postal Service", "operator:short": "USPS", "operator:type": "public", "operator:wikidata": "Q668687", "ref": "1390500057"}, "type": "Feature"}
{"dataset_attributes": {"@spider": "usps_collection_boxes", "spider:collection_time": "2023-09-13T08:25:17.985642"}, "geometry": {"coordinates": [-75.9391596, 42.112534], "type": "Point"}, "id": "v2Xr3-ezD4PQHvdodfLkGx-9nOI=", "properties": {"@spider": "usps_collection_boxes", "addr:city": "BINGHAMTON", "addr:country": "US", "addr:full": "65 GLENWOOD AVE", "addr:postcode": "13905", "addr:state": "NY", "amenity": "post_box", "brand": "United States Postal Service", "brand:wikidata": "Q668687", "collection_times": "Mo-Sa 10:00", "name": "USPS COLLECTION BOX - BLUE BOX", "nsi_id": "unitedstatespostalservice-a77078", "operator": "United States Postal Service", "operator:short": "USPS", "operator:type": "public", "operator:wikidata": "Q668687", "ref": "1390500063"}, "type": "Feature"}
{"dataset_attributes": {"@spider": "usps_collection_boxes", "spider:collection_time": "2023-09-13T08:25:17.985642"}, "geometry": {"coordinates": [-75.934718, 42.091776], "type": "Point"}, "id": "A-XBZa1skHecSlCwz7_2OPoOaZI=", "properties": {"@spider": "usps_collection_boxes", "addr:city": "BINGHAMTON", "addr:country": "US", "addr:full": "161 RIVERSIDE DR", "addr:postcode": "13905", "addr:state": "NY", "amenity": "post_box", "brand": "United States Postal Service", "brand:wikidata": "Q668687", "collection_times": "Mo-Sa 12:00", "name": "USPS COLLECTION BOX - BLUE BOX", "nsi_id": "unitedstatespostalservice-a77078", "operator": "United States Postal Service", "operator:short": "USPS", "operator:type": "public", "operator:wikidata": "Q668687", "ref": "1390500066"}, "type": "Feature"}
