{"geometry": {"coordinates": [-78.484634318, 42.998310504], "type": "Point"}, "id": "mzeDa9OQ1-PBrNf_oo-ggpVS-Ac=", "properties": {"@source_uri": "https://tools.usps.com/UspsToolsRestServices/rest/POLocator/findLocations", "@spider": "usps_collection_boxes", "addr:city": "AKRON", "addr:country": "US", "addr:postcode": "14001", "addr:state": "NY", "addr:street_address": "13415 MAIN RD", "amenity": "post_box", "collection_times": "Mo-Fr 12:00", "nsi_id": "unitedstatespostalservice-a77078", "operator": "United States Postal Service", "operator:short": "USPS", "operator:type": "public", "operator:wikidata": "Q668687", "ref": "1400100002"}, "type": "Feature"}
{"geometry": {"coordinates": [-78.502565036, 43.01350459], "type": "Point"}, "id": "sHUSdrE3pEpUIuH57pblBwRd53o=", "properties": {"@source_uri": "https://tools.usps.com/UspsToolsRestServices/rest/POLocator/findLocations", "@spider": "usps_collection_boxes", "addr:city": "AKRON", "addr:country": "US", "addr:postcode": "14001", "addr:state": "NY", "addr:street_address": "81 BUELL ST", "amenity": "post_box", "collection_times": "Mo-Sa 12:30", "note": "ON 12/24 AND 12/31, THIS BOX MAY BE COLLECTED AS EARLY AS 12 NOON.", "nsi_id": "unitedstatespostalservice-a77078", "operator": "United States Postal Service", "operator:short": "USPS", "operator:type": "public", "operator:wikidata": "Q668687", "ref": "1400100003"}, "type": "Feature"}
{"geometry": {"coordinates": [-78.547144293, 42.992808441], "type": "Point"}, "id": "UHgoE1ZNPQ2hYvnyc36KNnfYZKM=", "properties": {"@source_uri": "https://tools.usps.com/UspsToolsRestServices/rest/POLocator/findLocations", "@spider": "usps_collection_boxes", "addr:city": "AKRON", "addr:country": "US", "addr:postcode": "14001", "addr:state": "NY", "addr:street_address": "11789 MAIN RD", "amenity": "post_box", "collection_times": "Mo-Fr 11:00", "nsi_id": "unitedstatespostalservice-a77078", "operator": "United States Postal Service", "operator:short": "USPS", "operator:type": "public", "operator:wikidata": "Q668687", "ref": "1400100004"}, "type": "Feature"}
{"geometry": {"coordinates": [-78.50132045, 43.020197513], "type": "Point"}, "id": "HkoIV7tPq-VrbvnITpYJXPayAzA=", "properties": {"@source_uri": "https://tools.usps.com/UspsToolsRestServices/rest/POLocator/findLocations", "@spider": "usps_collection_boxes", "addr:city": "AKRON", "addr:country": "US", "addr:postcode": "14001", "addr:state": "NY", "addr:street_address": "46 MAIN ST", "amenity": "post_box", "collection_times": "Mo-Sa 11:00", "nsi_id": "unitedstatespostalservice-a77078", "operator": "United States Postal Service", "operator:short": "USPS", "operator:type": "public", "operator:wikidata": "Q668687", "ref": "1400100005"}, "type": "Feature"}
{"geometry": {"coordinates": [-78.49795972, 43.020082486], "type": "Point"}, "id": "e5UrFrlOOXP18mxFzsOzVTG8he8=", "properties": {"@source_uri": "https://tools.usps.com/UspsToolsRestServices/rest/POLocator/findLocations", "@spider": "usps_collection_boxes", "addr:city": "AKRON", "addr:country": "US", "addr:postcode": "14001", "addr:state": "NY", "addr:street_address": "118 MAIN ST", "amenity": "post_box", "collection_times": "Mo-Fr 17:00; Sa 15:00", "note": "ON 12/24 AND 12/31, THIS BOX MAY BE COLLECTED AS EARLY AS 12 NOON.", "nsi_id": "unitedstatespostalservice-a77078", "operator": "United States Postal Service", "operator:short": "USPS", "operator:type": "public", "operator:wikidata": "Q668687", "ref": "1400100006"}, "type": "Feature"}
{"geometry": {"coordinates": [-78.49795972, 43.020082486], "type": "Point"}, "id": "JZlMsdvPsubdT8K9GZNGz64yUh8=", "properties": {"@source_uri": "https://tools.usps.com/UspsToolsRestServices/rest/POLocator/findLocations", "@spider": "usps_collection_boxes", "addr:city": "AKRON", "addr:country": "US", "addr:postcode": "14001", "addr:state": "NY", "addr:street_address": "118 MAIN ST", "amenity": "post_box", "collection_times": "Mo-Fr 17:00; Sa 15:00", "indoor": "yes", "note": "ON 12/24 AND 12/31, THIS BOX MAY BE COLLECTED AS EARLY AS 12 NOON.", "nsi_id": "unitedstatespostalservice-a77078", "operator": "United States Postal Service", "operator:short": "USPS", "operator:type": "public", "operator:wikidata": "Q668687", "ref": "1400100007"}, "type": "Feature"}
{"geometry": {"coordinates": [-78.49795972, 43.020082486], "type": "Point"}, "id": "NQMT8qvjiYBchisUkVsB-IInuzo=", "properties": {"@source_uri": "https://tools.usps.com/UspsToolsRestServices/rest/POLocator/findLocations", "@spider": "usps_collection_boxes", "addr:city": "AKRON", "addr:country": "US", "addr:postcode": "14001", "addr:state": "NY", "addr:street_address": "118 MAIN ST", "amenity": "post_box", "collection_times": "Mo-Fr 17:00; Sa 12:00", "indoor": "yes", "note": "ON 12/24 AND 12/31, THIS BOX MAY BE COLLECTED AS EARLY AS 12 NOON.", "nsi_id": "unitedstatespostalservice-a77078", "operator": "United States Postal Service", "operator:short": "USPS", "operator:type": "public", "operator:wikidata": "Q668687", "ref": "1400100012"}, "type": "Feature"}
{"geometry": {"coordinates": [-78.495992528, 42.900174547], "type": "Point"}, "id": "5Z9rLh4fFehjjhwZFgY5yX-mIps=", "properties": {"@source_uri": "https://tools.usps.com/UspsToolsRestServices/rest/POLocator/findLocations", "@spider": "usps_collection_boxes", "addr:city": "ALDEN", "addr:country": "US", "addr:postcode": "14004", "addr:state": "NY", "addr:street_address": "13203 BROADWAY ST", "amenity": "post_box", "collection_times": "Mo-Sa 10:00", "nsi_id": "unitedstatespostalservice-a77078", "operator": "United States Postal Service", "operator:short": "USPS", "operator:type": "public", "operator:wikidata": "Q668687", "ref": "1400400003"}, "type": "Feature"}
{"geometry": {"coordinates": [-78.499481836, 42.898925846], "type": "Point"}, "id": "8bi-fwNTNTZiS6LUiR8DSg0qukg=", "properties": {"@source_uri": "https://tools.usps.com/UspsToolsRestServices/rest/POLocator/findLocations", "@spider": "usps_collection_boxes", "addr:city": "ALDEN", "addr:country": "US", "addr:postcode": "14004", "addr:state": "NY", "addr:street_address": "13127 BROADWAY ST", "amenity": "post_box", "collection_times": "Mo-Fr 16:30; Sa 15:30", "note": "ON 12/24 AND 12/31, THIS BOX MAY BE COLLECTED AS EARLY AS 12 NOON.", "nsi_id": "unitedstatespostalservice-a77078", "operator": "United States Postal Service", "operator:short": "USPS", "operator:type": "public", "operator:wikidata": "Q668687", "ref": "1400400007"}, "type": "Feature"}
{"geometry": {"coordinates": [-78.511575644, 42.894755975], "type": "Point"}, "id": "FONMaoBQ-yyIEuvBl7tk-tSsLh0=", "properties": {"@source_uri": "https://tools.usps.com/UspsToolsRestServices/rest/POLocator/findLocations", "@spider": "usps_collection_boxes", "addr:city": "ALDEN", "addr:country": "US", "addr:postcode": "14004", "addr:state": "NY", "addr:street_address": "12775 BROADWAY ST", "amenity": "post_box", "collection_times": "Mo-Fr 12:00", "nsi_id": "unitedstatespostalservice-a77078", "operator": "United States Postal Service", "operator:short": "USPS", "operator:type": "public", "operator:wikidata": "Q668687", "ref": "1400400008"}, "type": "Feature"}
{"geometry": {"coordinates": [-78.495461581, 42.900227497], "type": "Point"}, "id": "CmELZos2AxDCGqpZleSaPAwWdyo=", "properties": {"@source_uri": "https://tools.usps.com/UspsToolsRestServices/rest/POLocator/findLocations", "@spider": "usps_collection_boxes", "addr:city": "ALDEN", "addr:country": "US", "addr:postcode": "14004", "addr:state": "NY", "addr:street_address": "13216 BROADWAY ST", "amenity": "post_box", "collection_times": "Mo-Fr 15:00; Sa 14:00", "note": "ON 12/24 AND 12/31, THIS BOX MAY BE COLLECTED AS EARLY AS 12 NOON.", "nsi_id": "unitedstatespostalservice-a77078", "operator": "United States Postal Service", "operator:short": "USPS", "operator:type": "public", "operator:wikidata": "Q668687", "ref": "1400400009"}, "type": "Feature"}
{"geometry": {"coordinates": [-78.499481836, 42.898925846], "type": "Point"}, "id": "Id2JmfJjHEmj5utHAXiP49iR9Sk=", "properties": {"@source_uri": "https://tools.usps.com/UspsToolsRestServices/rest/POLocator/findLocations", "@spider": "usps_collection_boxes", "addr:city": "ALDEN", "addr:country": "US", "addr:postcode": "14004", "addr:state": "NY", "addr:street_address": "13127 BROADWAY ST", "amenity": "post_box", "collection_times": "Mo-Fr 16:30; Sa 15:30", "indoor": "yes", "note": "ON 12/24 AND 12/31, THIS BOX MAY BE COLLECTED AS EARLY AS 12 NOON.", "nsi_id": "unitedstatespostalservice-a77078", "operator": "United States Postal Service", "operator:short": "USPS", "operator:type": "public", "operator:wikidata": "Q668687", "ref": "1400400010"}, "type": "Feature"}
{"geometry": {"coordinates": [-78.499481836, 42.898925846], "type": "Point"}, "id": "sFqAYWE_Abn06ru6N82ZiQn5oiY=", "properties": {"@source_uri": "https://tools.usps.com/UspsToolsRestServices/rest/POLocator/findLocations", "@spider": "usps_collection_boxes", "addr:city": "ALDEN", "addr:country": "US", "addr:postcode": "14004", "addr:state": "NY", "addr:street_address": "13127 BROADWAY ST", "amenity": "post_box", "collection_times": "Mo-Fr 16:30; Sa 12:00", "indoor": "yes", "note": "ON 12/24 AND 12/31, THIS BOX MAY BE COLLECTED AS EARLY AS 12 NOON.", "nsi_id": "unitedstatespostalservice-a77078", "operator": "United States Postal Service", "operator:short": "USPS", "operator:type": "public", "operator:wikidata": "Q668687", "ref": "1400400012"}, "type": "Feature"}
{"geometry": {"coordinates": [-78.253634339, 42.90452124], "type": "Point"}, "id": "7z8HkNmDHE5VwZ2GpFPq2z1sXo0=", "properties": {"@source_uri": "https://tools.usps.com/UspsToolsRestServices/rest/POLocator/findLocations", "@spider": "usps_collection_boxes", "addr:city": "ALEXANDER", "addr:country": "US", "addr:postcode": "14005", "addr:state": "NY", "addr:street_address": "10506 MAIN ST", "amenity": "post_box", "collection_times": "Mo-Fr 16:15; Sa 11:45", "note": "ON 12/24 AND 12/31, THIS BOX MAY BE COLLECTED AS EARLY AS 12 NOON.", "nsi_id": "unitedstatespostalservice-a77078", "operator": "United States Postal Service", "operator:short": "USPS", "operator:type": "public", "operator:wikidata": "Q668687", "ref": "1400500001"}, "type": "Feature"}
{"geometry": {"coordinates": [-78.253634339, 42.90452124], "type": "Point"}, "id": "eFeO21ukPPWXcPELNyR43ydwt0A=", "properties": {"@source_uri": "https://tools.usps.com/UspsToolsRestServices/rest/POLocator/findLocations", "@spider": "usps_collection_boxes", "addr:city": "ALEXANDER", "addr:country": "US", "addr:postcode": "14005", "addr:state": "NY", "addr:street_address": "10506 MAIN ST", "amenity": "post_box", "collection_times": "Mo-Fr 16:45; Sa 12:00", "indoor": "yes", "note": "ON 12/24 AND 12/31, THIS BOX MAY BE COLLECTED AS EARLY AS 12 NOON.", "nsi_id": "unitedstatespostalservice-a77078", "operator": "United States Postal Service", "operator:short": "USPS", "operator:type": "public", "operator:wikidata": "Q668687", "ref": "1400500002"}, "type": "Feature"}
{"geometry": {"coordinates": [-78.253634339, 42.90452124], "type": "Point"}, "id": "cZWhuJvdN4HUy6AqMCNUaclNuWE=", "properties": {"@source_uri": "https://tools.usps.com/UspsToolsRestServices/rest/POLocator/findLocations", "@spider": "usps_collection_boxes", "addr:city": "ALEXANDER", "addr:country": "US", "addr:postcode": "14005", "addr:state": "NY", "addr:street_address": "10506 MAIN ST", "amenity": "post_box", "collection_times": "Mo-Fr 16:30; Sa 12:00", "indoor": "yes", "note": "ON 12/24 AND 12/31, THIS BOX MAY BE COLLECTED AS EARLY AS 12 NOON.", "nsi_id": "unitedstatespostalservice-a77078", "operator": "United States Postal Service", "operator:short": "USPS", "operator:type": "public", "operator:wikidata": "Q668687", "ref": "1400500004"}, "type": "Feature"}
{"geometry": {"coordinates": [-79.028463861, 42.640104519], "type": "Point"}, "id": "GZ9jS2QJT0VWWwUBR1Qjj5xx-uI=", "properties": {"@source_uri": "https://tools.usps.com/UspsToolsRestServices/rest/POLocator/findLocations", "@spider": "usps_collection_boxes", "addr:city": "ANGOLA", "addr:country": "US", "addr:postcode": "14006", "addr:state": "NY", "addr:street_address": "53 CENTER ST", "amenity": "post_box", "collection_times": "Mo-Fr 16:45; Sa 12:00", "note": "ON 12/24 AND 12/31, THIS BOX MAY BE COLLECTED AS EARLY AS 12 NOON.", "nsi_id": "unitedstatespostalservice-a77078", "operator": "United States Postal Service", "operator:short": "USPS", "operator:type": "public", "operator:wikidata": "Q668687", "ref": "1400600002"}, "type": "Feature"}
{"geometry": {"coordinates": [-79.072481085, 42.638469695], "type": "Point"}, "id": "Gj2o35CaJdIwJJwk6dS5yZyWQAw=", "properties": {"@source_uri": "https://tools.usps.com/UspsToolsRestServices/rest/POLocator/findLocations", "@spider": "usps_collection_boxes", "addr:city": "ANGOLA", "addr:country": "US", "addr:postcode": "14006", "addr:state": "NY", "addr:street_address": "9155 LAKE SHORE RD", "amenity": "post_box", "collection_times": "Mo-Fr 12:00", "nsi_id": "unitedstatespostalservice-a77078", "operator": "United States Postal Service", "operator:short": "USPS", "operator:type": "public", "operator:wikidata": "Q668687", "ref": "1400600006"}, "type": "Feature"}
{"geometry": {"coordinates": [-79.047860656, 42.642418596], "type": "Point"}, "id": "15q4W_Y2MoVg5V0kKh0eCZil93E=", "properties": {"@source_uri": "https://tools.usps.com/UspsToolsRestServices/rest/POLocator/findLocations", "@spider": "usps_collection_boxes", "addr:city": "ANGOLA", "addr:country": "US", "addr:postcode": "14006", "addr:state": "NY", "addr:street_address": "8922 DEANA LN", "amenity": "post_box", "collection_times": "Mo-Fr 11:00", "nsi_id": "unitedstatespostalservice-a77078", "operator": "United States Postal Service", "operator:short": "USPS", "operator:type": "public", "operator:wikidata": "Q668687", "ref": "1400600007"}, "type": "Feature"}
{"geometry": {"coordinates": [-79.027731322, 42.639812528], "type": "Point"}, "id": "NgkkgVKlbtd92566-D2ma3lSDWQ=", "properties": {"@source_uri": "https://tools.usps.com/UspsToolsRestServices/rest/POLocator/findLocations", "@spider": "usps_collection_boxes", "addr:city": "ANGOLA", "addr:country": "US", "addr:postcode": "14006", "addr:state": "NY", "addr:street_address": "80 N MAIN ST", "amenity": "post_box", "collection_times": "Mo-Fr 16:45; Sa 12:00", "note": "ON 12/24 AND 12/31, THIS BOX MAY BE COLLECTED AS EARLY AS 12 NOON.", "nsi_id": "unitedstatespostalservice-a77078", "operator": "United States Postal Service", "operator:short": "USPS", "operator:type": "public", "operator:wikidata": "Q668687", "ref": "1400600009"}, "type": "Feature"}
{"geometry": {"coordinates": [-79.027731322, 42.639812528], "type": "Point"}, "id": "ODnFyRxEA891XhPt243a_agECvI=", "properties": {"@source_uri": "https://tools.usps.com/UspsToolsRestServices/rest/POLocator/findLocations", "@spider": "usps_collection_boxes", "addr:city": "ANGOLA", "addr:country": "US", "addr:postcode": "14006", "addr:state": "NY", "addr:street_address": "80 N MAIN ST", "amenity": "post_box", "collection_times": "Mo-Fr 17:00; Sa 12:00", "indoor": "yes", "note": "ON 12/24 AND 12/31, THIS BOX MAY BE COLLECTED AS EARLY AS 12 NOON.", "nsi_id": "unitedstatespostalservice-a77078", "operator": "United States Postal Service", "operator:short": "USPS", "operator:type": "public", "operator:wikidata": "Q668687", "ref": "1400600011"}, "type": "Feature"}
{"geometry": {"coordinates": [-79.040420972, 42.650691686], "type": "Point"}, "id": "c-YtzQbJn0LiLJBcAZXRQky7YFk=", "properties": {"@source_uri": "https://tools.usps.com/UspsToolsRestServices/rest/POLocator/findLocations", "@spider": "usps_collection_boxes", "addr:city": "ANGOLA", "addr:country": "US", "addr:postcode": "14006", "addr:state": "NY", "addr:street_address": "8599 ERIE RD", "amenity": "post_box", "collection_times": "Mo-Fr 09:45", "nsi_id": "unitedstatespostalservice-a77078", "operator": "United States Postal Service", "operator:short": "USPS", "operator:type": "public", "operator:wikidata": "Q668687", "ref": "1400600013"}, "type": "Feature"}
{"geometry": {"coordinates": [-79.047954022, 42.638576742], "type": "Point"}, "id": "wqAi9amQyfyxBfdlGO3uGCdmdNc=", "properties": {"@source_uri": "https://tools.usps.com/UspsToolsRestServices/rest/POLocator/findLocations", "@spider": "usps_collection_boxes", "addr:city": "ANGOLA", "addr:country": "US", "addr:postcode": "14006", "addr:state": "NY", "addr:street_address": "9049 ERIE RD", "amenity": "post_box", "collection_times": "Mo-Fr 11:00", "nsi_id": "unitedstatespostalservice-a77078", "operator": "United States Postal Service", "operator:short": "USPS", "operator:type": "public", "operator:wikidata": "Q668687", "ref": "1400600014"}, "type": "Feature"}
{"geometry": {"coordinates": [-79.027731322, 42.639812528], "type": "Point"}, "id": "0TJdR4tFgg89_wDp3MV-JiXgB9s=", "properties": {"@source_uri": "https://tools.usps.com/UspsToolsRestServices/rest/POLocator/findLocations", "@spider": "usps_collection_boxes", "addr:city": "ANGOLA", "addr:country": "US", "addr:postcode": "14006", "addr:state": "NY", "addr:street_address": "80 N MAIN ST", "amenity": "post_box", "collection_times": "Mo-Fr 17:00; Sa 12:00", "indoor": "yes", "note": "ON 12/24 AND 12/31, THIS BOX MAY BE COLLECTED AS EARLY AS 12 NOON.", "nsi_id": "unitedstatespostalservice-a77078", "operator": "United States Postal Service", "operator:short": "USPS", "operator:type": "public", "operator:wikidata": "Q668687", "ref": "1400600016"}, "type": "Feature"}
{"geometry": {"coordinates": [-78.649198709, 43.325217115], "type": "Point"}, "id": "soX4Lm-fzz6CC7qh_gyCDhYcV8Y=", "properties": {"@source_uri": "https://tools.usps.com/UspsToolsRestServices/rest/POLocator/findLocations", "@spider": "usps_collection_boxes", "addr:city": "APPLETON", "addr:country": "US", "addr:postcode": "14008", "addr:state": "NY", "addr:street_address": "1924 HESS RD", "amenity": "post_box", "collection_times": "Mo-Fr 16:30; Sa 11:45", "note": "ON 12/24 AND 12/31, THIS BOX MAY BE COLLECTED AS EARLY AS 12 NOON.", "nsi_id": "unitedstatespostalservice-a77078", "operator": "United States Postal Service", "operator:short": "USPS", "operator:type": "public", "operator:wikidata": "Q668687", "ref": "1400800001"}, "type": "Feature"}
{"geometry": {"coordinates": [-78.649198709, 43.325217115], "type": "Point"}, "id": "Dyfcm8TIIOJodt80CcQhwYfVnoA=", "properties": {"@source_uri": "https://tools.usps.com/UspsToolsRestServices/rest/POLocator/findLocations", "@spider": "usps_collection_boxes", "addr:city": "APPLETON", "addr:country": "US", "addr:postcode": "14008", "addr:state": "NY", "addr:street_address": "1924 HESS RD", "amenity": "post_box", "collection_times": "Mo-Fr 16:45; Sa 12:00", "indoor": "yes", "note": "ON 12/24 AND 12/31, THIS BOX MAY BE COLLECTED AS EARLY AS 12 NOON.", "nsi_id": "unitedstatespostalservice-a77078", "operator": "United States Postal Service", "operator:short": "USPS", "operator:type": "public", "operator:wikidata": "Q668687", "ref": "1400800002"}, "type": "Feature"}
{"geometry": {"coordinates": [-78.649198709, 43.325217115], "type": "Point"}, "id": "vh_-pSL5fCsEoO90MFJA3Dl6nyU=", "properties": {"@source_uri": "https://tools.usps.com/UspsToolsRestServices/rest/POLocator/findLocations", "@spider": "usps_collection_boxes", "addr:city": "APPLETON", "addr:country": "US", "addr:postcode": "14008", "addr:state": "NY", "addr:street_address": "1924 HESS RD", "amenity": "post_box", "collection_times": "Mo-Fr 17:00; Sa 12:15", "indoor": "yes", "note": "ON 12/24 AND 12/31, THIS BOX MAY BE COLLECTED AS EARLY AS 12 NOON.", "nsi_id": "unitedstatespostalservice-a77078", "operator": "United States Postal Service", "operator:short": "USPS", "operator:type": "public", "operator:wikidata": "Q668687", "ref": "1400800004"}, "type": "Feature"}
{"geometry": {"coordinates": [-78.460487384, 42.531127517], "type": "Point"}, "id": "XGrdOcNtDUuApYBYQ0IN2asMDbU=", "properties": {"@source_uri": "https://tools.usps.com/UspsToolsRestServices/rest/POLocator/findLocations", "@spider": "usps_collection_boxes", "addr:city": "ARCADE", "addr:country": "US", "addr:postcode": "14009", "addr:state": "NY", "addr:street_address": "354 ROUTE 39 W", "amenity": "post_box", "collection_times": "Mo-Fr 09:00", "nsi_id": "unitedstatespostalservice-a77078", "operator": "United States Postal Service", "operator:short": "USPS", "operator:type": "public", "operator:wikidata": "Q668687", "ref": "1400900007"}, "type": "Feature"}
{"geometry": {"coordinates": [-78.440341804, 42.533501525], "type": "Point"}, "id": "itzKLNh-pKe6pOr7WTTh5l8giF8=", "properties": {"@source_uri": "https://tools.usps.com/UspsToolsRestServices/rest/POLocator/findLocations", "@spider": "usps_collection_boxes", "addr:city": "ARCADE", "addr:country": "US", "addr:postcode": "14009", "addr:state": "NY", "addr:street_address": "590 MAIN ST", "amenity": "post_box", "collection_times": "Mo-Sa 09:00", "nsi_id": "unitedstatespostalservice-a77078", "operator": "United States Postal Service", "operator:short": "USPS", "operator:type": "public", "operator:wikidata": "Q668687", "ref": "1400900009"}, "type": "Feature"}
{"geometry": {"coordinates": [-78.450288898, 42.531186677], "type": "Point"}, "id": "GspZPxTSnKSXBFH0UD20uv6Edgc=", "properties": {"@source_uri": "https://tools.usps.com/UspsToolsRestServices/rest/POLocator/findLocations", "@spider": "usps_collection_boxes", "addr:city": "ARCADE", "addr:country": "US", "addr:postcode": "14009", "addr:state": "NY", "addr:street_address": "23 EDWARD ST", "amenity": "post_box", "collection_times": "Mo-Fr 17:00; Sa 12:00", "note": "ON 12/24 AND 12/31, THIS BOX MAY BE COLLECTED AS EARLY AS 12 NOON.", "nsi_id": "unitedstatespostalservice-a77078", "operator": "United States Postal Service", "operator:short": "USPS", "operator:type": "public", "operator:wikidata": "Q668687", "ref": "1400900010"}, "type": "Feature"}
{"geometry": {"coordinates": [-78.447298629, 42.532877631], "type": "Point"}, "id": "kpsWCMhXKhybFS6VEJ2MYStbC0c=", "properties": {"@source_uri": "https://tools.usps.com/UspsToolsRestServices/rest/POLocator/findLocations", "@spider": "usps_collection_boxes", "addr:city": "ARCADE", "addr:country": "US", "addr:postcode": "14009", "addr:state": "NY", "addr:street_address": "658 MAIN ST", "amenity": "post_box", "collection_times": "Mo-Sa 08:45", "nsi_id": "unitedstatespostalservice-a77078", "operator": "United States Postal Service", "operator:short": "USPS", "operator:type": "public", "operator:wikidata": "Q668687", "ref": "1400900011"}, "type": "Feature"}
{"geometry": {"coordinates": [-78.450288898, 42.531186677], "type": "Point"}, "id": "1d9-Wo_nB-IscB9_bb4L-0ZNNs8=", "properties": {"@source_uri": "https://tools.usps.com/UspsToolsRestServices/rest/POLocator/findLocations", "@spider": "usps_collection_boxes", "addr:city": "ARCADE", "addr:country": "US", "addr:postcode": "14009", "addr:state": "NY", "addr:street_address": "23 EDWARD ST", "amenity": "post_box", "collection_times": "Mo-Fr 17:00; Sa 12:00", "indoor": "yes", "note": "ON 12/24 AND 12/31, THIS BOX MAY BE COLLECTED AS EARLY AS 12 NOON.", "nsi_id": "unitedstatespostalservice-a77078", "operator": "United States Postal Service", "operator:short": "USPS", "operator:type": "public", "operator:wikidata": "Q668687", "ref": "1400900015"}, "type": "Feature"}
{"geometry": {"coordinates": [-78.424533503, 42.533954453], "type": "Point"}, "id": "G0mDsa3WYEypShkTd1mtihdgzEk=", "properties": {"@source_uri": "https://tools.usps.com/UspsToolsRestServices/rest/POLocator/findLocations", "@spider": "usps_collection_boxes", "addr:city": "ARCADE", "addr:country": "US", "addr:postcode": "14009", "addr:state": "NY", "addr:street_address": "289 MAIN ST", "amenity": "post_box", "collection_times": "Mo-Sa 15:00", "note": "ON 12/24 AND 12/31, THIS BOX MAY BE COLLECTED AS EARLY AS 12 NOON.", "nsi_id": "unitedstatespostalservice-a77078", "operator": "United States Postal Service", "operator:short": "USPS", "operator:type": "public", "operator:wikidata": "Q668687", "ref": "1400900017"}, "type": "Feature"}
{"geometry": {"coordinates": [-78.450288898, 42.531186677], "type": "Point"}, "id": "gj9-GE349A79gZa7SPUI8wmD4BM=", "properties": {"@source_uri": "https://tools.usps.com/UspsToolsRestServices/rest/POLocator/findLocations", "@spider": "usps_collection_boxes", "addr:city": "ARCADE", "addr:country": "US", "addr:postcode": "14009", "addr:state": "NY", "addr:street_address": "23 EDWARD ST", "amenity": "post_box", "collection_times": "Mo-Fr 17:00; Sa 12:00", "indoor": "yes", "note": "ON 12/24 AND 12/31, THIS BOX MAY BE COLLECTED AS EARLY AS 12 NOON.", "nsi_id": "unitedstatespostalservice-a77078", "operator": "United States Postal Service", "operator:short": "USPS", "operator:type": "public", "operator:wikidata": "Q668687", "ref": "1400900020"}, "type": "Feature"}
{"geometry": {"coordinates": [-78.863751506, 42.76343062], "type": "Point"}, "id": "r8sYEL6PZQcscEBJF2S-5XJatls=", "properties": {"@source_uri": "https://tools.usps.com/UspsToolsRestServices/rest/POLocator/findLocations", "@spider": "usps_collection_boxes", "addr:city": "ATHOL SPRINGS", "addr:country": "US", "addr:postcode": "14010", "addr:state": "NY", "addr:street_address": "4480 OLD CAMP RD", "amenity": "post_box", "collection_times": "Mo-Fr 17:00; Sa 12:00", "note": "ON 12/24 AND 12/31, THIS BOX MAY BE COLLECTED AS EARLY AS 12 NOON.", "nsi_id": "unitedstatespostalservice-a77078", "operator": "United States Postal Service", "operator:short": "USPS", "operator:type": "public", "operator:wikidata": "Q668687", "ref": "1401000001"}, "type": "Feature"}
{"geometry": {"coordinates": [-78.863751506, 42.76343062], "type": "Point"}, "id": "wLTV8FcyXvn9xJ1LM3fgfcdvb_I=", "properties": {"@source_uri": "https://tools.usps.com/UspsToolsRestServices/rest/POLocator/findLocations", "@spider": "usps_collection_boxes", "addr:city": "ATHOL SPRINGS", "addr:country": "US", "addr:postcode": "14010", "addr:state": "NY", "addr:street_address": "4480 OLD CAMP RD", "amenity": "post_box", "collection_times": "Mo-Fr 17:00; Sa 12:00", "indoor": "yes", "note": "ON 12/24 AND 12/31, THIS BOX MAY BE COLLECTED AS EARLY AS 12 NOON.", "nsi_id": "unitedstatespostalservice-a77078", "operator": "United States Postal Service", "operator:short": "USPS", "operator:type": "public", "operator:wikidata": "Q668687", "ref": "1401000002"}, "type": "Feature"}
{"geometry": {"coordinates": [-78.863751506, 42.76343062], "type": "Point"}, "id": "SAgvEou03jpt9N9fO1oCd_pktFg=", "properties": {"@source_uri": "https://tools.usps.com/UspsToolsRestServices/rest/POLocator/findLocations", "@spider": "usps_collection_boxes", "addr:city": "ATHOL SPRINGS", "addr:country": "US", "addr:postcode": "14010", "addr:state": "NY", "addr:street_address": "4480 OLD CAMP RD", "amenity": "post_box", "collection_times": "Mo-Fr 17:00; Sa 12:00", "indoor": "yes", "note": "ON 12/24 AND 12/31, THIS BOX MAY BE COLLECTED AS EARLY AS 12 NOON.", "nsi_id": "unitedstatespostalservice-a77078", "operator": "United States Postal Service", "operator:short": "USPS", "operator:type": "public", "operator:wikidata": "Q668687", "ref": "1401000004"}, "type": "Feature"}
{"geometry": {"coordinates": [-78.284301634, 42.864612925], "type": "Point"}, "id": "uXTMJu0a8oocqUwvUs9bBJe4_MM=", "properties": {"@source_uri": "https://tools.usps.com/UspsToolsRestServices/rest/POLocator/findLocations", "@spider": "usps_collection_boxes", "addr:city": "ATTICA", "addr:country": "US", "addr:postcode": "14011", "addr:state": "NY", "addr:street_address": "18 MARKET ST", "amenity": "post_box", "collection_times": "Mo-Fr 14:00; Sa 09:00", "note": "ON 12/24 AND 12/31, THIS BOX MAY BE COLLECTED AS EARLY AS 12 NOON.", "nsi_id": "unitedstatespostalservice-a77078", "operator": "United States Postal Service", "operator:short": "USPS", "operator:type": "public", "operator:wikidata": "Q668687", "ref": "1401100001"}, "type": "Feature"}
{"geometry": {"coordinates": [-78.28278146, 42.864181438], "type": "Point"}, "id": "bWz9mOr2O5XnnEJda-MGkyii4Lc=", "properties": {"@source_uri": "https://tools.usps.com/UspsToolsRestServices/rest/POLocator/findLocations", "@spider": "usps_collection_boxes", "addr:city": "ATTICA", "addr:country": "US", "addr:postcode": "14011", "addr:state": "NY", "addr:street_address": "35 MAIN ST", "amenity": "post_box", "collection_times": "Mo-Fr 14:00; Sa 09:15", "note": "ON 12/24 AND 12/31, THIS BOX MAY BE COLLECTED AS EARLY AS 12 NOON.", "nsi_id": "unitedstatespostalservice-a77078", "operator": "United States Postal Service", "operator:short": "USPS", "operator:type": "public", "operator:wikidata": "Q668687", "ref": "1401100004"}, "type": "Feature"}
{"geometry": {"coordinates": [-78.27631985, 42.872227838], "type": "Point"}, "id": "d0TLGbLZggvVpXA1mFl8IQ_cdyA=", "properties": {"@source_uri": "https://tools.usps.com/UspsToolsRestServices/rest/POLocator/findLocations", "@spider": "usps_collection_boxes", "addr:city": "ATTICA", "addr:country": "US", "addr:postcode": "14011", "addr:state": "NY", "addr:street_address": "150 PROSPECT ST", "amenity": "post_box", "collection_times": "Mo-Sa 09:00", "nsi_id": "unitedstatespostalservice-a77078", "operator": "United States Postal Service", "operator:short": "USPS", "operator:type": "public", "operator:wikidata": "Q668687", "ref": "1401100009"}, "type": "Feature"}
{"geometry": {"coordinates": [-78.280821, 42.863991518], "type": "Point"}, "id": "pdWJS3-Ju8lpIwZn0cWBEr8dXdc=", "properties": {"@source_uri": "https://tools.usps.com/UspsToolsRestServices/rest/POLocator/findLocations", "@spider": "usps_collection_boxes", "addr:city": "ATTICA", "addr:country": "US", "addr:postcode": "14011", "addr:state": "NY", "addr:street_address": "76 MAIN ST", "amenity": "post_box", "collection_times": "Mo-Fr 17:00; Sa 11:45", "note": "ON 12/24 AND 12/31, THIS BOX MAY BE COLLECTED AS EARLY AS 12 NOON.", "nsi_id": "unitedstatespostalservice-a77078", "operator": "United States Postal Service", "operator:short": "USPS", "operator:type": "public", "operator:wikidata": "Q668687", "ref": "1401100014"}, "type": "Feature"}
{"geometry": {"coordinates": [-78.280821, 42.863991518], "type": "Point"}, "id": "0gSt1rZCoODzMXQfIYj-GEq3lKk=", "properties": {"@source_uri": "https://tools.usps.com/UspsToolsRestServices/rest/POLocator/findLocations", "@spider": "usps_collection_boxes", "addr:city": "ATTICA", "addr:country": "US", "addr:postcode": "14011", "addr:state": "NY", "addr:street_address": "76 MAIN ST", "amenity": "post_box", "collection_times": "Mo-Fr 16:30; Sa 14:00", "indoor": "yes", "note": "ON 12/24 AND 12/31, THIS BOX MAY BE COLLECTED AS EARLY AS 12 NOON.", "nsi_id": "unitedstatespostalservice-a77078", "operator": "United States Postal Service", "operator:short": "USPS", "operator:type": "public", "operator:wikidata": "Q668687", "ref": "1401100016"}, "type": "Feature"}
{"geometry": {"coordinates": [-78.273260528, 42.864140482], "type": "Point"}, "id": "gTgZs3PzkqhIUlio1TliV7O-h3s=", "properties": {"@source_uri": "https://tools.usps.com/UspsToolsRestServices/rest/POLocator/findLocations", "@spider": "usps_collection_boxes", "addr:city": "ATTICA", "addr:country": "US", "addr:postcode": "14011", "addr:state": "NY", "addr:street_address": "221 MAIN ST", "amenity": "post_box", "collection_times": "Mo-Sa 11:00", "nsi_id": "unitedstatespostalservice-a77078", "operator": "United States Postal Service", "operator:short": "USPS", "operator:type": "public", "operator:wikidata": "Q668687", "ref": "1401100018"}, "type": "Feature"}
{"geometry": {"coordinates": [-78.280821, 42.863991518], "type": "Point"}, "id": "2dpbth0jmyYQqdfEeCajGgfmJtM=", "properties": {"@source_uri": "https://tools.usps.com/UspsToolsRestServices/rest/POLocator/findLocations", "@spider": "usps_collection_boxes", "addr:city": "ATTICA", "addr:country": "US", "addr:postcode": "14011", "addr:state": "NY", "addr:street_address": "76 MAIN ST", "amenity": "post_box", "collection_times": "Mo-Fr 16:30; Sa 12:00", "indoor": "yes", "note": "ON 12/24 AND 12/31, THIS BOX MAY BE COLLECTED AS EARLY AS 12 NOON.", "nsi_id": "unitedstatespostalservice-a77078", "operator": "United States Postal Service", "operator:short": "USPS", "operator:type": "public", "operator:wikidata": "Q668687", "ref": "1401100022"}, "type": "Feature"}
{"geometry": {"coordinates": [-78.552083234, 43.330004605], "type": "Point"}, "id": "adfvkjrra15I-hDLtqZoCKNcKu8=", "properties": {"@source_uri": "https://tools.usps.com/UspsToolsRestServices/rest/POLocator/findLocations", "@spider": "usps_collection_boxes", "addr:city": "BARKER", "addr:country": "US", "addr:postcode": "14012", "addr:state": "NY", "addr:street_address": "8720 MAIN ST", "amenity": "post_box", "collection_times": "Mo-Fr 15:00; Sa 12:00", "note": "ON 12/24 AND 12/31, THIS BOX MAY BE COLLECTED AS EARLY AS 12 NOON.", "nsi_id": "unitedstatespostalservice-a77078", "operator": "United States Postal Service", "operator:short": "USPS", "operator:type": "public", "operator:wikidata": "Q668687", "ref": "1401200001"}, "type": "Feature"}
{"geometry": {"coordinates": [-78.552083234, 43.330004605], "type": "Point"}, "id": "r306aMWtsSntSprw06XiCyZSOn0=", "properties": {"@source_uri": "https://tools.usps.com/UspsToolsRestServices/rest/POLocator/findLocations", "@spider": "usps_collection_boxes", "addr:city": "BARKER", "addr:country": "US", "addr:postcode": "14012", "addr:state": "NY", "addr:street_address": "8720 MAIN ST", "amenity": "post_box", "collection_times": "Mo-Fr 15:00; Sa 12:00", "indoor": "yes", "note": "ON 12/24 AND 12/31, THIS BOX MAY BE COLLECTED AS EARLY AS 12 NOON.", "nsi_id": "unitedstatespostalservice-a77078", "operator": "United States Postal Service", "operator:short": "USPS", "operator:type": "public", "operator:wikidata": "Q668687", "ref": "1401200004"}, "type": "Feature"}
{"geometry": {"coordinates": [-78.39184914, 43.066899754], "type": "Point"}, "id": "UA0AzAtGKPTq2HYgsEVrFO9UR4w=", "properties": {"@source_uri": "https://tools.usps.com/UspsToolsRestServices/rest/POLocator/findLocations", "@spider": "usps_collection_boxes", "addr:city": "BASOM", "addr:country": "US", "addr:postcode": "14013", "addr:state": "NY", "addr:street_address": "7156 ALLEGHANY RD", "amenity": "post_box", "collection_times": "Mo-Fr 15:00; Sa 12:00", "note": "ON 12/24 AND 12/31, THIS BOX MAY BE COLLECTED AS EARLY AS 12 NOON.", "nsi_id": "unitedstatespostalservice-a77078", "operator": "United States Postal Service", "operator:short": "USPS", "operator:type": "public", "operator:wikidata": "Q668687", "ref": "1401300001"}, "type": "Feature"}
{"geometry": {"coordinates": [-78.39184914, 43.066899754], "type": "Point"}, "id": "mTPSp6i-AfsCpapxHDuqldUdpwI=", "properties": {"@source_uri": "https://tools.usps.com/UspsToolsRestServices/rest/POLocator/findLocations", "@spider": "usps_collection_boxes", "addr:city": "BASOM", "addr:country": "US", "addr:postcode": "14013", "addr:state": "NY", "addr:street_address": "7156 ALLEGHANY RD", "amenity": "post_box", "collection_times": "Mo-Fr 15:00; Sa 12:00", "indoor": "yes", "note": "ON 12/24 AND 12/31, THIS BOX MAY BE COLLECTED AS EARLY AS 12 NOON.", "nsi_id": "unitedstatespostalservice-a77078", "operator": "United States Postal Service", "operator:short": "USPS", "operator:type": "public", "operator:wikidata": "Q668687", "ref": "1401300004"}, "type": "Feature"}
{"geometry": {"coordinates": [-78.18157517, 42.99867855], "type": "Point"}, "id": "QnAkScEmyBCxVr7LpASj6Ez7q_w=", "properties": {"@source_uri": "https://tools.usps.com/UspsToolsRestServices/rest/POLocator/findLocations", "@spider": "usps_collection_boxes", "addr:city": "BATAVIA", "addr:country": "US", "addr:postcode": "14020", "addr:state": "NY", "addr:street_address": "16 BANK ST", "amenity": "post_box", "collection_times": "Mo-Sa 09:00", "nsi_id": "unitedstatespostalservice-a77078", "operator": "United States Postal Service", "operator:short": "USPS", "operator:type": "public", "operator:wikidata": "Q668687", "ref": "1402000005"}, "type": "Feature"}
{"geometry": {"coordinates": [-78.179948036, 42.994447995], "type": "Point"}, "id": "VvWso9ZUwScwZNDZpgx6Ju9bga8=", "properties": {"@source_uri": "https://tools.usps.com/UspsToolsRestServices/rest/POLocator/findLocations", "@spider": "usps_collection_boxes", "addr:city": "BATAVIA", "addr:country": "US", "addr:postcode": "14020", "addr:state": "NY", "addr:street_address": "29 LIBERTY ST", "amenity": "post_box", "collection_times": "Mo-Sa 09:00", "nsi_id": "unitedstatespostalservice-a77078", "operator": "United States Postal Service", "operator:short": "USPS", "operator:type": "public", "operator:wikidata": "Q668687", "ref": "1402000012"}, "type": "Feature"}
{"geometry": {"coordinates": [-78.172297872, 42.993537381], "type": "Point"}, "id": "tUwbUvgNHNCyT-tcX-IqoDkUBNQ=", "properties": {"@source_uri": "https://tools.usps.com/UspsToolsRestServices/rest/POLocator/findLocations", "@spider": "usps_collection_boxes", "addr:city": "BATAVIA", "addr:country": "US", "addr:postcode": "14020", "addr:state": "NY", "addr:street_address": "56 HARVESTER AVE", "amenity": "post_box", "collection_times": "Mo-Fr 17:00; Sa 13:30", "note": "ON 12/24 AND 12/31, THIS BOX MAY BE COLLECTED AS EARLY AS 12 NOON.", "nsi_id": "unitedstatespostalservice-a77078", "operator": "United States Postal Service", "operator:short": "USPS", "operator:type": "public", "operator:wikidata": "Q668687", "ref": "1402000016"}, "type": "Feature"}
{"geometry": {"coordinates": [-78.164579658, 42.995025317], "type": "Point"}, "id": "D8vYFQWdoZtuxl3k0Es0VKYT8kw=", "properties": {"@source_uri": "https://tools.usps.com/UspsToolsRestServices/rest/POLocator/findLocations", "@spider": "usps_collection_boxes", "addr:city": "BATAVIA", "addr:country": "US", "addr:postcode": "14020", "addr:state": "NY", "addr:street_address": "565 E MAIN ST", "amenity": "post_box", "collection_times": "Mo-Fr 17:00; Sa 13:30", "note": "ON 12/24 AND 12/31, THIS BOX MAY BE COLLECTED AS EARLY AS 12 NOON.", "nsi_id": "unitedstatespostalservice-a77078", "operator": "United States Postal Service", "operator:short": "USPS", "operator:type": "public", "operator:wikidata": "Q668687", "ref": "1402000018"}, "type": "Feature"}
{"geometry": {"coordinates": [-78.204454387, 43.005392898], "type": "Point"}, "id": "KfWm4S7RprtC_TK92Ly21nsIeNE=", "properties": {"@source_uri": "https://tools.usps.com/UspsToolsRestServices/rest/POLocator/findLocations", "@spider": "usps_collection_boxes", "addr:city": "BATAVIA", "addr:country": "US", "addr:postcode": "14020", "addr:state": "NY", "addr:street_address": "390 W MAIN ST", "amenity": "post_box", "collection_times": "Mo-Sa 09:15", "nsi_id": "unitedstatespostalservice-a77078", "operator": "United States Postal Service", "operator:short": "USPS", "operator:type": "public", "operator:wikidata": "Q668687", "ref": "1402000023"}, "type": "Feature"}
{"geometry": {"coordinates": [-78.177345358, 43.004939406], "type": "Point"}, "id": "Rf9GFyAukhDjRc2l73DBM3Oz5Ts=", "properties": {"@source_uri": "https://tools.usps.com/UspsToolsRestServices/rest/POLocator/findLocations", "@spider": "usps_collection_boxes", "addr:city": "BATAVIA", "addr:country": "US", "addr:postcode": "14020", "addr:state": "NY", "addr:street_address": "207 SUMMIT ST", "amenity": "post_box", "collection_times": "Mo-Sa 09:00", "nsi_id": "unitedstatespostalservice-a77078", "operator": "United States Postal Service", "operator:short": "USPS", "operator:type": "public", "operator:wikidata": "Q668687", "ref": "1402000024"}, "type": "Feature"}
{"geometry": {"coordinates": [-78.183854724, 42.999472949], "type": "Point"}, "id": "er7FpOvqPiAKt_noOLp8Kd68gv4=", "properties": {"@source_uri": "https://tools.usps.com/UspsToolsRestServices/rest/POLocator/findLocations", "@spider": "usps_collection_boxes", "addr:city": "BATAVIA", "addr:country": "US", "addr:postcode": "14020", "addr:state": "NY", "addr:street_address": "15 BATAVIA CITY CTR", "amenity": "post_box", "collection_times": "Mo-Sa 09:00", "nsi_id": "unitedstatespostalservice-a77078", "operator": "United States Postal Service", "operator:short": "USPS", "operator:type": "public", "operator:wikidata": "Q668687", "ref": "1402000043"}, "type": "Feature"}
{"geometry": {"coordinates": [-78.199651717, 43.003471873], "type": "Point"}, "id": "exOwNVqp6Q8udPeRhNm1v2X9Xu0=", "properties": {"@source_uri": "https://tools.usps.com/UspsToolsRestServices/rest/POLocator/findLocations", "@spider": "usps_collection_boxes", "addr:city": "BATAVIA", "addr:country": "US", "addr:postcode": "14020", "addr:state": "NY", "addr:street_address": "353 W MAIN ST", "amenity": "post_box", "collection_times": "Mo-Sa 09:15", "nsi_id": "unitedstatespostalservice-a77078", "operator": "United States Postal Service", "operator:short": "USPS", "operator:type": "public", "operator:wikidata": "Q668687", "ref": "1402000046"}, "type": "Feature"}
{"geometry": {"coordinates": [-78.206799843, 43.005792819], "type": "Point"}, "id": "JKLohCXyKwpwa2Rk7WPJZVSVvH0=", "properties": {"@source_uri": "https://tools.usps.com/UspsToolsRestServices/rest/POLocator/findLocations", "@spider": "usps_collection_boxes", "addr:city": "BATAVIA", "addr:country": "US", "addr:postcode": "14020", "addr:state": "NY", "addr:street_address": "4152 W MAIN ST", "amenity": "post_box", "collection_times": "Mo-Sa 09:15", "nsi_id": "unitedstatespostalservice-a77078", "operator": "United States Postal Service", "operator:short": "USPS", "operator:type": "public", "operator:wikidata": "Q668687", "ref": "1402000048"}, "type": "Feature"}
{"geometry": {"coordinates": [-78.166655428, 43.00510325], "type": "Point"}, "id": "ANjZBfan2vMI0ngguvZ_0Z49Sck=", "properties": {"@source_uri": "https://tools.usps.com/UspsToolsRestServices/rest/POLocator/findLocations", "@spider": "usps_collection_boxes", "addr:city": "BATAVIA", "addr:country": "US", "addr:postcode": "14020", "addr:state": "NY", "addr:street_address": "219 N SPRUCE ST", "amenity": "post_box", "collection_times": "Mo-Sa 13:30", "note": "ON 12/24 AND 12/31, THIS BOX MAY BE COLLECTED AS EARLY AS 12 NOON.", "nsi_id": "unitedstatespostalservice-a77078", "operator": "United States Postal Service", "operator:short": "USPS", "operator:type": "public", "operator:wikidata": "Q668687", "ref": "1402000049"}, "type": "Feature"}
{"geometry": {"coordinates": [-78.185043597, 42.997746594], "type": "Point"}, "id": "_FhQEcTZ99izlDARqQjfkELUelU=", "properties": {"@source_uri": "https://tools.usps.com/UspsToolsRestServices/rest/POLocator/findLocations", "@spider": "usps_collection_boxes", "addr:city": "BATAVIA", "addr:country": "US", "addr:postcode": "14020", "addr:state": "NY", "addr:street_address": "59 MAIN ST", "amenity": "post_box", "collection_times": "Mo-Fr 17:00; Sa 13:30", "note": "ON 12/24 AND 12/31, THIS BOX MAY BE COLLECTED AS EARLY AS 12 NOON.", "nsi_id": "unitedstatespostalservice-a77078", "operator": "United States Postal Service", "operator:short": "USPS", "operator:type": "public", "operator:wikidata": "Q668687", "ref": "1402000055"}, "type": "Feature"}
{"geometry": {"coordinates": [-78.205376969, 42.996878842], "type": "Point"}, "id": "6hYq1prdk1NqJMkIUHJtJNckfeo=", "properties": {"@source_uri": "https://tools.usps.com/UspsToolsRestServices/rest/POLocator/findLocations", "@spider": "usps_collection_boxes", "addr:city": "BATAVIA", "addr:country": "US", "addr:postcode": "14020", "addr:state": "NY", "addr:street_address": "88 DEWEY AVE", "amenity": "post_box", "collection_times": "Mo-Sa 13:30", "note": "ON 12/24 AND 12/31, THIS BOX MAY BE COLLECTED AS EARLY AS 12 NOON.", "nsi_id": "unitedstatespostalservice-a77078", "operator": "United States Postal Service", "operator:short": "USPS", "operator:type": "public", "operator:wikidata": "Q668687", "ref": "1402000061"}, "type": "Feature"}
{"geometry": {"coordinates": [-78.175055776, 42.996421629], "type": "Point"}, "id": "UMOuzVCIXfXZHLNzD2JO4TiCZ4Q=", "properties": {"@source_uri": "https://tools.usps.com/UspsToolsRestServices/rest/POLocator/findLocations", "@spider": "usps_collection_boxes", "addr:city": "BATAVIA", "addr:country": "US", "addr:postcode": "14020", "addr:state": "NY", "addr:street_address": "412 E MAIN ST", "amenity": "post_box", "collection_times": "Mo-Fr 17:00; Sa 13:30", "note": "ON 12/24 AND 12/31, THIS BOX MAY BE COLLECTED AS EARLY AS 12 NOON.", "nsi_id": "unitedstatespostalservice-a77078", "operator": "United States Postal Service", "operator:short": "USPS", "operator:type": "public", "operator:wikidata": "Q668687", "ref": "1402000066"}, "type": "Feature"}
{"geometry": {"coordinates": [-78.179017641, 42.996947671], "type": "Point"}, "id": "GX03GtxfE4iEkiJJdQjutbKX-Dc=", "properties": {"@source_uri": "https://tools.usps.com/UspsToolsRestServices/rest/POLocator/findLocations", "@spider": "usps_collection_boxes", "addr:city": "BATAVIA", "addr:country": "US", "addr:postcode": "14020", "addr:state": "NY", "addr:street_address": "300 E MAIN ST", "amenity": "post_box", "collection_times": "Mo-Sa 09:00", "nsi_id": "unitedstatespostalservice-a77078", "operator": "United States Postal Service", "operator:short": "USPS", "operator:type": "public", "operator:wikidata": "Q668687", "ref": "1402000067"}, "type": "Feature"}
{"geometry": {"coordinates": [-78.187462138, 42.998116859], "type": "Point"}, "id": "Zs9Ewp8K_Miqrhi2TqsdPhGwQBY=", "properties": {"@source_uri": "https://tools.usps.com/UspsToolsRestServices/rest/POLocator/findLocations", "@spider": "usps_collection_boxes", "addr:city": "BATAVIA", "addr:country": "US", "addr:postcode": "14020", "addr:state": "NY", "addr:street_address": "2 W MAIN ST", "amenity": "post_box", "collection_times": "Mo-Fr 17:00; Sa 16:30", "note": "ON 12/24 AND 12/31, THIS BOX MAY BE COLLECTED AS EARLY AS 12 NOON.", "nsi_id": "unitedstatespostalservice-a77078", "operator": "United States Postal Service", "operator:short": "USPS", "operator:type": "public", "operator:wikidata": "Q668687", "ref": "1402000070"}, "type": "Feature"}
{"geometry": {"coordinates": [-78.187462138, 42.998116859], "type": "Point"}, "id": "gFQYCpdYNHYn2KUNqDLVtjt8w68=", "properties": {"@source_uri": "https://tools.usps.com/UspsToolsRestServices/rest/POLocator/findLocations", "@spider": "usps_collection_boxes", "addr:city": "BATAVIA", "addr:country": "US", "addr:postcode": "14020", "addr:state": "NY", "addr:street_address": "2 W MAIN ST", "amenity": "post_box", "collection_times": "Mo-Fr 17:00; Sa 12:00", "indoor": "yes", "note": "ON 12/24 AND 12/31, THIS BOX MAY BE COLLECTED AS EARLY AS 12 NOON.", "nsi_id": "unitedstatespostalservice-a77078", "operator": "United States Postal Service", "operator:short": "USPS", "operator:type": "public", "operator:wikidata": "Q668687", "ref": "1402000076"}, "type": "Feature"}
{"geometry": {"coordinates": [-78.253687638, 42.579322167], "type": "Point"}, "id": "fmbdOhvJpZV1z2ibRFFZOA-k-_8=", "properties": {"@source_uri": "https://tools.usps.com/UspsToolsRestServices/rest/POLocator/findLocations", "@spider": "usps_collection_boxes", "addr:city": "BLISS", "addr:country": "US", "addr:postcode": "14024", "addr:state": "NY", "addr:street_address": "6664 ROUTE 362", "amenity": "post_box", "collection_times": "Mo-Fr 15:30; Sa 11:45", "note": "ON 12/24 AND 12/31, THIS BOX MAY BE COLLECTED AS EARLY AS 12 NOON.", "nsi_id": "unitedstatespostalservice-a77078", "operator": "United States Postal Service", "operator:short": "USPS", "operator:type": "public", "operator:wikidata": "Q668687", "ref": "1402400001"}, "type": "Feature"}
{"geometry": {"coordinates": [-78.253687638, 42.579322167], "type": "Point"}, "id": "XQZ-2cgMX72uDmQRxiuW1XY8o30=", "properties": {"@source_uri": "https://tools.usps.com/UspsToolsRestServices/rest/POLocator/findLocations", "@spider": "usps_collection_boxes", "addr:city": "BLISS", "addr:country": "US", "addr:postcode": "14024", "addr:state": "NY", "addr:street_address": "6664 ROUTE 362", "amenity": "post_box", "collection_times": "Mo-Fr 15:30; Sa 12:00", "indoor": "yes", "note": "ON 12/24 AND 12/31, THIS BOX MAY BE COLLECTED AS EARLY AS 12 NOON.", "nsi_id": "unitedstatespostalservice-a77078", "operator": "United States Postal Service", "operator:short": "USPS", "operator:type": "public", "operator:wikidata": "Q668687", "ref": "1402400004"}, "type": "Feature"}
{"geometry": {"coordinates": [-78.739174093, 42.638329351], "type": "Point"}, "id": "mZ66uWAX6xb3xeGORaV19dA0Fdo=", "properties": {"@source_uri": "https://tools.usps.com/UspsToolsRestServices/rest/POLocator/findLocations", "@spider": "usps_collection_boxes", "addr:city": "BOSTON", "addr:country": "US", "addr:postcode": "14025", "addr:state": "NY", "addr:street_address": "9025 BOSTON STATE RD", "amenity": "post_box", "collection_times": "Mo-Fr 16:15; Sa 12:00", "note": "ON 12/24 AND 12/31, THIS BOX MAY BE COLLECTED AS EARLY AS 12 NOON.", "nsi_id": "unitedstatespostalservice-a77078", "operator": "United States Postal Service", "operator:short": "USPS", "operator:type": "public", "operator:wikidata": "Q668687", "ref": "1402500001"}, "type": "Feature"}
{"geometry": {"coordinates": [-78.739174093, 42.638329351], "type": "Point"}, "id": "eJ7Aklse9uo1m3U6AuiYpcLajgY=", "properties": {"@source_uri": "https://tools.usps.com/UspsToolsRestServices/rest/POLocator/findLocations", "@spider": "usps_collection_boxes", "addr:city": "BOSTON", "addr:country": "US", "addr:postcode": "14025", "addr:state": "NY", "addr:street_address": "9025 BOSTON STATE RD", "amenity": "post_box", "collection_times": "Mo-Fr 16:30; Sa 12:00", "indoor": "yes", "note": "ON 12/24 AND 12/31, THIS BOX MAY BE COLLECTED AS EARLY AS 12 NOON.", "nsi_id": "unitedstatespostalservice-a77078", "operator": "United States Postal Service", "operator:short": "USPS", "operator:type": "public", "operator:wikidata": "Q668687", "ref": "1402500005"}, "type": "Feature"}
{"geometry": {"coordinates": [-78.677198016, 42.943521941], "type": "Point"}, "id": "zX_gCcDa0EnZHbVBS7qIh-ivuic=", "properties": {"@source_uri": "https://tools.usps.com/UspsToolsRestServices/rest/POLocator/findLocations", "@spider": "usps_collection_boxes", "addr:city": "BOWMANSVILLE", "addr:country": "US", "addr:postcode": "14026", "addr:state": "NY", "addr:street_address": "515 HARRIS HILL RD", "amenity": "post_box", "collection_times": "Mo-Fr 17:00; Sa 12:00", "note": "ON 12/24 AND 12/31, THIS BOX MAY BE COLLECTED AS EARLY AS 12 NOON.", "nsi_id": "unitedstatespostalservice-a77078", "operator": "United States Postal Service", "operator:short": "USPS", "operator:type": "public", "operator:wikidata": "Q668687", "ref": "1402600002"}, "type": "Feature"}
{"geometry": {"coordinates": [-78.677198016, 42.943521941], "type": "Point"}, "id": "-qZqyo199k9Mm35WnXthPerbr7w=", "properties": {"@source_uri": "https://tools.usps.com/UspsToolsRestServices/rest/POLocator/findLocations", "@spider": "usps_collection_boxes", "addr:city": "BOWMANSVILLE", "addr:country": "US", "addr:postcode": "14026", "addr:state": "NY", "addr:street_address": "515 HARRIS HILL RD", "amenity": "post_box", "collection_times": "Mo-Fr 17:00; Sa 12:00", "indoor": "yes", "note": "ON 12/24 AND 12/31, THIS BOX MAY BE COLLECTED AS EARLY AS 12 NOON.", "nsi_id": "unitedstatespostalservice-a77078", "operator": "United States Postal Service", "operator:short": "USPS", "operator:type": "public", "operator:wikidata": "Q668687", "ref": "1402600006"}, "type": "Feature"}
{"geometry": {"coordinates": [-79.017627308, 42.588756115], "type": "Point"}, "id": "sjtXWNYCir8YY24ERDeEqrfe62g=", "properties": {"@source_uri": "https://tools.usps.com/UspsToolsRestServices/rest/POLocator/findLocations", "@spider": "usps_collection_boxes", "addr:city": "BRANT", "addr:country": "US", "addr:postcode": "14027", "addr:state": "NY", "addr:street_address": "10778 BRANT ANGOLA RD", "amenity": "post_box", "collection_times": "Mo-Fr 16:45; Sa 12:00", "note": "ON 12/24 AND 12/31, THIS BOX MAY BE COLLECTED AS EARLY AS 12 NOON.", "nsi_id": "unitedstatespostalservice-a77078", "operator": "United States Postal Service", "operator:short": "USPS", "operator:type": "public", "operator:wikidata": "Q668687", "ref": "1402700001"}, "type": "Feature"}
{"geometry": {"coordinates": [-79.017627308, 42.588756115], "type": "Point"}, "id": "WmvvAxz_b1kR696Gnx8724as0VY=", "properties": {"@source_uri": "https://tools.usps.com/UspsToolsRestServices/rest/POLocator/findLocations", "@spider": "usps_collection_boxes", "addr:city": "BRANT", "addr:country": "US", "addr:postcode": "14027", "addr:state": "NY", "addr:street_address": "10778 BRANT ANGOLA RD", "amenity": "post_box", "collection_times": "Mo-Fr 17:00; Sa 12:00", "indoor": "yes", "note": "ON 12/24 AND 12/31, THIS BOX MAY BE COLLECTED AS EARLY AS 12 NOON.", "nsi_id": "unitedstatespostalservice-a77078", "operator": "United States Postal Service", "operator:short": "USPS", "operator:type": "public", "operator:wikidata": "Q668687", "ref": "1402700004"}, "type": "Feature"}
{"geometry": {"coordinates": [-78.249541722, 42.479846095], "type": "Point"}, "id": "br5ULMoneKsdmm1xJNdaTgMijE4=", "properties": {"@source_uri": "https://tools.usps.com/UspsToolsRestServices/rest/POLocator/findLocations", "@spider": "usps_collection_boxes", "addr:city": "CENTERVILLE", "addr:country": "US", "addr:postcode": "14029", "addr:state": "NY", "addr:street_address": "10985B RUSHFORD RD", "amenity": "post_box", "collection_times": "Mo-Fr 16:45; Sa 11:45", "note": "ON 12/24 AND 12/31, THIS BOX MAY BE COLLECTED AS EARLY AS 12 NOON.", "nsi_id": "unitedstatespostalservice-a77078", "operator": "United States Postal Service", "operator:short": "USPS", "operator:type": "public", "operator:wikidata": "Q668687", "ref": "1402900001"}, "type": "Feature"}
{"geometry": {"coordinates": [-78.2496761057, 42.4797815096], "type": "Point"}, "id": "hJlieRftwODU4b9vMVyQkpTYbU4=", "properties": {"@source_uri": "https://tools.usps.com/UspsToolsRestServices/rest/POLocator/findLocations", "@spider": "usps_collection_boxes", "addr:city": "CENTERVILLE", "addr:country": "US", "addr:postcode": "14029", "addr:state": "NY", "addr:street_address": "10985B RUSHFORD RD", "amenity": "post_box", "collection_times": "Mo-Fr 17:00; Sa 12:00", "indoor": "yes", "note": "ON 12/24 AND 12/31, THIS BOX MAY BE COLLECTED AS EARLY AS 12 NOON.", "nsi_id": "unitedstatespostalservice-a77078", "operator": "United States Postal Service", "operator:short": "USPS", "operator:type": "public", "operator:wikidata": "Q668687", "ref": "1402900004"}, "type": "Feature"}
{"geometry": {"coordinates": [-78.477465563, 42.567408126], "type": "Point"}, "id": "uHVJ71REDtavuJqAd9sBLBiD51g=", "properties": {"@source_uri": "https://tools.usps.com/UspsToolsRestServices/rest/POLocator/findLocations", "@spider": "usps_collection_boxes", "addr:city": "CHAFFEE", "addr:country": "US", "addr:postcode": "14030", "addr:state": "NY", "addr:street_address": "11439 OLEAN RD", "amenity": "post_box", "collection_times": "Mo-Fr 12:00; Sa 11:45", "nsi_id": "unitedstatespostalservice-a77078", "operator": "United States Postal Service", "operator:short": "USPS", "operator:type": "public", "operator:wikidata": "Q668687", "ref": "1403000001"}, "type": "Feature"}
{"geometry": {"coordinates": [-78.477465563, 42.567408126], "type": "Point"}, "id": "f8Kl7bgKNgtJeX454P_hCW5aatk=", "properties": {"@source_uri": "https://tools.usps.com/UspsToolsRestServices/rest/POLocator/findLocations", "@spider": "usps_collection_boxes", "addr:city": "CHAFFEE", "addr:country": "US", "addr:postcode": "14030", "addr:state": "NY", "addr:street_address": "11439 OLEAN RD", "amenity": "post_box", "collection_times": "Mo-Fr 12:00; Sa 11:45", "indoor": "yes", "nsi_id": "unitedstatespostalservice-a77078", "operator": "United States Postal Service", "operator:short": "USPS", "operator:type": "public", "operator:wikidata": "Q668687", "ref": "1403000005"}, "type": "Feature"}
{"geometry": {"coordinates": [-78.622844063, 42.974980874], "type": "Point"}, "id": "6zBhhSu6niAxSKHIBNAlzBlAET0=", "properties": {"@source_uri": "https://tools.usps.com/UspsToolsRestServices/rest/POLocator/findLocations", "@spider": "usps_collection_boxes", "addr:city": "CLARENCE", "addr:country": "US", "addr:postcode": "14031", "addr:state": "NY", "addr:street_address": "9845 MAIN ST", "amenity": "post_box", "collection_times": "Mo-Fr 17:00; Sa 13:30", "note": "ON 12/24 AND 12/31, THIS BOX MAY BE COLLECTED AS EARLY AS 12 NOON.", "nsi_id": "unitedstatespostalservice-a77078", "operator": "United States Postal Service", "operator:short": "USPS", "operator:type": "public", "operator:wikidata": "Q668687", "ref": "1403100005"}, "type": "Feature"}
{"geometry": {"coordinates": [-78.622844063, 42.974980874], "type": "Point"}, "id": "DUHPRAShNgC1CXd4McNbyYI4eyU=", "properties": {"@source_uri": "https://tools.usps.com/UspsToolsRestServices/rest/POLocator/findLocations", "@spider": "usps_collection_boxes", "addr:city": "CLARENCE", "addr:country": "US", "addr:postcode": "14031", "addr:state": "NY", "addr:street_address": "9845 MAIN ST", "amenity": "post_box", "collection_times": "Mo-Fr 17:00; Sa 13:00", "indoor": "yes", "note": "ON 12/24 AND 12/31, THIS BOX MAY BE COLLECTED AS EARLY AS 12 NOON.", "nsi_id": "unitedstatespostalservice-a77078", "operator": "United States Postal Service", "operator:short": "USPS", "operator:type": "public", "operator:wikidata": "Q668687", "ref": "1403100009"}, "type": "Feature"}
{"geometry": {"coordinates": [-78.635923452, 43.011837419], "type": "Point"}, "id": "kKXT3PK1xktrJ7tIapjaMsWL_iY=", "properties": {"@source_uri": "https://tools.usps.com/UspsToolsRestServices/rest/POLocator/findLocations", "@spider": "usps_collection_boxes", "addr:city": "CLARENCE CENTER", "addr:country": "US", "addr:postcode": "14032", "addr:state": "NY", "addr:street_address": "6045 RAILROAD ST", "amenity": "post_box", "collection_times": "Mo-Fr 16:30; Sa 12:00", "note": "ON 12/24 AND 12/31, THIS BOX MAY BE COLLECTED AS EARLY AS 12 NOON.", "nsi_id": "unitedstatespostalservice-a77078", "operator": "United States Postal Service", "operator:short": "USPS", "operator:type": "public", "operator:wikidata": "Q668687", "ref": "1403200001"}, "type": "Feature"}
{"geometry": {"coordinates": [-78.6356220109, 43.0118229813], "type": "Point"}, "id": "ocpi1i_uowW0ss0z2TPOgfmw_vU=", "properties": {"@source_uri": "https://tools.usps.com/UspsToolsRestServices/rest/POLocator/findLocations", "@spider": "usps_collection_boxes", "addr:city": "CLARENCE CENTER", "addr:country": "US", "addr:postcode": "14032", "addr:state": "NY", "addr:street_address": "6045 RAILROAD ST", "amenity": "post_box", "collection_times": "Mo-Fr 16:30; Sa 12:00", "indoor": "yes", "note": "ON 12/24 AND 12/31, THIS BOX MAY BE COLLECTED AS EARLY AS 12 NOON.", "nsi_id": "unitedstatespostalservice-a77078", "operator": "United States Postal Service", "operator:short": "USPS", "operator:type": "public", "operator:wikidata": "Q668687", "ref": "1403200005"}, "type": "Feature"}
{"geometry": {"coordinates": [-78.686920852, 42.647708786], "type": "Point"}, "id": "0lKHlbLgbW6tiqX_xm6MjgKflgA=", "properties": {"@source_uri": "https://tools.usps.com/UspsToolsRestServices/rest/POLocator/findLocations", "@spider": "usps_collection_boxes", "addr:city": "COLDEN", "addr:country": "US", "addr:postcode": "14033", "addr:state": "NY", "addr:street_address": "8665 STATE RD", "amenity": "post_box", "collection_times": "Mo-Fr 15:00; Sa 12:00", "note": "ON 12/24 AND 12/31, THIS BOX MAY BE COLLECTED AS EARLY AS 12 NOON.", "nsi_id": "unitedstatespostalservice-a77078", "operator": "United States Postal Service", "operator:short": "USPS", "operator:type": "public", "operator:wikidata": "Q668687", "ref": "1403300003"}, "type": "Feature"}
{"geometry": {"coordinates": [-78.686920852, 42.647708786], "type": "Point"}, "id": "kmFxUIcK37yeALdcBp0hgkwX7hc=", "properties": {"@source_uri": "https://tools.usps.com/UspsToolsRestServices/rest/POLocator/findLocations", "@spider": "usps_collection_boxes", "addr:city": "COLDEN", "addr:country": "US", "addr:postcode": "14033", "addr:state": "NY", "addr:street_address": "8665 STATE RD", "amenity": "post_box", "collection_times": "Mo-Fr 15:00; Sa 12:00", "indoor": "yes", "note": "ON 12/24 AND 12/31, THIS BOX MAY BE COLLECTED AS EARLY AS 12 NOON.", "nsi_id": "unitedstatespostalservice-a77078", "operator": "United States Postal Service", "operator:short": "USPS", "operator:type": "public", "operator:wikidata": "Q668687", "ref": "1403300006"}, "type": "Feature"}
{"geometry": {"coordinates": [-78.923154054, 42.496590513], "type": "Point"}, "id": "2HikiOK3aOANRxGawqL1xiMmZ8o=", "properties": {"@source_uri": "https://tools.usps.com/UspsToolsRestServices/rest/POLocator/findLocations", "@spider": "usps_collection_boxes", "addr:city": "COLLINS", "addr:country": "US", "addr:postcode": "14034", "addr:state": "NY", "addr:street_address": "2275 MAIN ST", "amenity": "post_box", "collection_times": "Mo-Fr 17:00; Sa 12:00", "note": "ON 12/24 AND 12/31, THIS BOX MAY BE COLLECTED AS EARLY AS 12 NOON.", "nsi_id": "unitedstatespostalservice-a77078", "operator": "United States Postal Service", "operator:short": "USPS", "operator:type": "public", "operator:wikidata": "Q668687", "ref": "1403400001"}, "type": "Feature"}
{"geometry": {"coordinates": [-78.923154054, 42.496590513], "type": "Point"}, "id": "xLyx4xDnpfUVKdC4SAmB9DWVSVM=", "properties": {"@source_uri": "https://tools.usps.com/UspsToolsRestServices/rest/POLocator/findLocations", "@spider": "usps_collection_boxes", "addr:city": "COLLINS", "addr:country": "US", "addr:postcode": "14034", "addr:state": "NY", "addr:street_address": "2275 MAIN ST", "amenity": "post_box", "collection_times": "Mo-Fr 17:00; Sa 12:00", "indoor": "yes", "note": "ON 12/24 AND 12/31, THIS BOX MAY BE COLLECTED AS EARLY AS 12 NOON.", "nsi_id": "unitedstatespostalservice-a77078", "operator": "United States Postal Service", "operator:short": "USPS", "operator:type": "public", "operator:wikidata": "Q668687", "ref": "1403400005"}, "type": "Feature"}
{"geometry": {"coordinates": [-78.913978214, 42.496523704], "type": "Point"}, "id": "leTt8bwLctbHB57lpScmmEn0cF4=", "properties": {"@source_uri": "https://tools.usps.com/UspsToolsRestServices/rest/POLocator/findLocations", "@spider": "usps_collection_boxes", "addr:city": "COLLINS CENTER", "addr:country": "US", "addr:postcode": "14035", "addr:state": "NY", "addr:street_address": "3592 MAIN ST", "amenity": "post_box", "collection_times": "Mo-Fr 17:00; Sa 12:00", "note": "ON 12/24 AND 12/31, THIS BOX MAY BE COLLECTED AS EARLY AS 12 NOON.", "nsi_id": "unitedstatespostalservice-a77078", "operator": "United States Postal Service", "operator:short": "USPS", "operator:type": "public", "operator:wikidata": "Q668687", "ref": "1403500001"}, "type": "Feature"}
{"geometry": {"coordinates": [-78.913978214, 42.496523704], "type": "Point"}, "id": "ogjlP6N7We-ZzyDLUtXv81YQze4=", "properties": {"@source_uri": "https://tools.usps.com/UspsToolsRestServices/rest/POLocator/findLocations", "@spider": "usps_collection_boxes", "addr:city": "COLLINS CENTER", "addr:country": "US", "addr:postcode": "14035", "addr:state": "NY", "addr:street_address": "3592 MAIN ST", "amenity": "post_box", "collection_times": "Mo-Fr 17:00; Sa 12:00", "indoor": "yes", "note": "ON 12/24 AND 12/31, THIS BOX MAY BE COLLECTED AS EARLY AS 12 NOON.", "nsi_id": "unitedstatespostalservice-a77078", "operator": "United States Postal Service", "operator:short": "USPS", "operator:type": "public", "operator:wikidata": "Q668687", "ref": "1403500004"}, "type": "Feature"}
{"geometry": {"coordinates": [-78.406448489, 42.959964202], "type": "Point"}, "id": "xaszpNE2TkwdbTlcUuBbxmBZEB4=", "properties": {"@source_uri": "https://tools.usps.com/UspsToolsRestServices/rest/POLocator/findLocations", "@spider": "usps_collection_boxes", "addr:city": "CORFU", "addr:country": "US", "addr:postcode": "14036", "addr:state": "NY", "addr:street_address": "7 W MAIN ST", "amenity": "post_box", "collection_times": "Mo-Fr 17:00; Sa 12:00", "note": "ON 12/24 AND 12/31, THIS BOX MAY BE COLLECTED AS EARLY AS 12 NOON.", "nsi_id": "unitedstatespostalservice-a77078", "operator": "United States Postal Service", "operator:short": "USPS", "operator:type": "public", "operator:wikidata": "Q668687", "ref": "1403600001"}, "type": "Feature"}
{"geometry": {"coordinates": [-78.406448489, 42.959964202], "type": "Point"}, "id": "tmsehWczdcAPr16IgvNVXA6qtIk=", "properties": {"@source_uri": "https://tools.usps.com/UspsToolsRestServices/rest/POLocator/findLocations", "@spider": "usps_collection_boxes", "addr:city": "CORFU", "addr:country": "US", "addr:postcode": "14036", "addr:state": "NY", "addr:street_address": "7 W MAIN ST", "amenity": "post_box", "collection_times": "Mo-Fr 17:00; Sa 12:00", "indoor": "yes", "note": "ON 12/24 AND 12/31, THIS BOX MAY BE COLLECTED AS EARLY AS 12 NOON.", "nsi_id": "unitedstatespostalservice-a77078", "operator": "United States Postal Service", "operator:short": "USPS", "operator:type": "public", "operator:wikidata": "Q668687", "ref": "1403600011"}, "type": "Feature"}
{"geometry": {"coordinates": [-78.46820411, 42.842883813], "type": "Point"}, "id": "GjBpwBxoLPyrzccsbqZBEdtokOU=", "properties": {"@source_uri": "https://tools.usps.com/UspsToolsRestServices/rest/POLocator/findLocations", "@spider": "usps_collection_boxes", "addr:city": "COWLESVILLE", "addr:country": "US", "addr:postcode": "14037", "addr:state": "NY", "addr:street_address": "244 CLINTON ST", "amenity": "post_box", "collection_times": "Mo-Sa 09:00", "nsi_id": "unitedstatespostalservice-a77078", "operator": "United States Postal Service", "operator:short": "USPS", "operator:type": "public", "operator:wikidata": "Q668687", "ref": "1403700001"}, "type": "Feature"}
{"geometry": {"coordinates": [-78.173025369, 42.819213919], "type": "Point"}, "id": "cwfGjz5KOY6aBUB2fLICsTZ8nmQ=", "properties": {"@source_uri": "https://tools.usps.com/UspsToolsRestServices/rest/POLocator/findLocations", "@spider": "usps_collection_boxes", "addr:city": "DALE", "addr:country": "US", "addr:postcode": "14039", "addr:state": "NY", "addr:street_address": "1302 DALE RD", "amenity": "post_box", "collection_times": "Mo-Fr 16:45; Sa 11:30", "note": "ON 12/24 AND 12/31, THIS BOX MAY BE COLLECTED AS EARLY AS 12 NOON.", "nsi_id": "unitedstatespostalservice-a77078", "operator": "United States Postal Service", "operator:short": "USPS", "operator:type": "public", "operator:wikidata": "Q668687", "ref": "1403900002"}, "type": "Feature"}
{"geometry": {"coordinates": [-78.173025369, 42.819213919], "type": "Point"}, "id": "5zgKPKDJ-5Dhi9bPT_9qkTx5AZU=", "properties": {"@source_uri": "https://tools.usps.com/UspsToolsRestServices/rest/POLocator/findLocations", "@spider": "usps_collection_boxes", "addr:city": "DALE", "addr:country": "US", "addr:postcode": "14039", "addr:state": "NY", "addr:street_address": "1302 DALE RD", "amenity": "post_box", "collection_times": "Mo-Fr 17:00; Sa 12:00", "indoor": "yes", "note": "ON 12/24 AND 12/31, THIS BOX MAY BE COLLECTED AS EARLY AS 12 NOON.", "nsi_id": "unitedstatespostalservice-a77078", "operator": "United States Postal Service", "operator:short": "USPS", "operator:type": "public", "operator:wikidata": "Q668687", "ref": "1403900005"}, "type": "Feature"}
{"geometry": {"coordinates": [-78.387200832, 42.901196503], "type": "Point"}, "id": "qLihscbjcln937FdxA4jQ8x8dko=", "properties": {"@source_uri": "https://tools.usps.com/UspsToolsRestServices/rest/POLocator/findLocations", "@spider": "usps_collection_boxes", "addr:city": "DARIEN CENTER", "addr:country": "US", "addr:postcode": "14040", "addr:state": "NY", "addr:street_address": "1402 BROADWAY", "amenity": "post_box", "collection_times": "Mo-Fr 16:45; Sa 11:45", "note": "ON 12/24 AND 12/31, THIS BOX MAY BE COLLECTED AS EARLY AS 12 NOON.", "nsi_id": "unitedstatespostalservice-a77078", "operator": "United States Postal Service", "operator:short": "USPS", "operator:type": "public", "operator:wikidata": "Q668687", "ref": "1404000001"}, "type": "Feature"}
{"geometry": {"coordinates": [-78.387200832, 42.901196503], "type": "Point"}, "id": "gqYWrBm-G1SSga_6gYi48PBCcmM=", "properties": {"@source_uri": "https://tools.usps.com/UspsToolsRestServices/rest/POLocator/findLocations", "@spider": "usps_collection_boxes", "addr:city": "DARIEN CENTER", "addr:country": "US", "addr:postcode": "14040", "addr:state": "NY", "addr:street_address": "1402 BROADWAY", "amenity": "post_box", "collection_times": "Mo-Fr 16:45; Sa 12:00", "indoor": "yes", "note": "ON 12/24 AND 12/31, THIS BOX MAY BE COLLECTED AS EARLY AS 12 NOON.", "nsi_id": "unitedstatespostalservice-a77078", "operator": "United States Postal Service", "operator:short": "USPS", "operator:type": "public", "operator:wikidata": "Q668687", "ref": "1404000005"}, "type": "Feature"}
{"geometry": {"coordinates": [-78.976382321, 42.417822532], "type": "Point"}, "id": "3ddm0v_NgQiBAVJQeAuEzyVe3o0=", "properties": {"@source_uri": "https://tools.usps.com/UspsToolsRestServices/rest/POLocator/findLocations", "@spider": "usps_collection_boxes", "addr:city": "DAYTON", "addr:country": "US", "addr:postcode": "14041", "addr:state": "NY", "addr:street_address": "9593 ROUTE 62", "amenity": "post_box", "collection_times": "Mo-Sa 12:00", "nsi_id": "unitedstatespostalservice-a77078", "operator": "United States Postal Service", "operator:short": "USPS", "operator:type": "public", "operator:wikidata": "Q668687", "ref": "1404100001"}, "type": "Feature"}
{"geometry": {"coordinates": [-78.976382321, 42.417822532], "type": "Point"}, "id": "egb_sxIFMLdOjc9Qp6ngwpo-wcg=", "properties": {"@source_uri": "https://tools.usps.com/UspsToolsRestServices/rest/POLocator/findLocations", "@spider": "usps_collection_boxes", "addr:city": "DAYTON", "addr:country": "US", "addr:postcode": "14041", "addr:state": "NY", "addr:street_address": "9593 ROUTE 62", "amenity": "post_box", "collection_times": "Mo-Sa 12:00", "indoor": "yes", "nsi_id": "unitedstatespostalservice-a77078", "operator": "United States Postal Service", "operator:short": "USPS", "operator:type": "public", "operator:wikidata": "Q668687", "ref": "1404100004"}, "type": "Feature"}
{"geometry": {"coordinates": [-78.480205908, 42.491250825], "type": "Point"}, "id": "14ESlQymM0RZwqJmwECbVAoV6wE=", "properties": {"@source_uri": "https://tools.usps.com/UspsToolsRestServices/rest/POLocator/findLocations", "@spider": "usps_collection_boxes", "addr:city": "DELEVAN", "addr:country": "US", "addr:postcode": "14042", "addr:state": "NY", "addr:street_address": "40 N MAIN ST", "amenity": "post_box", "collection_times": "Mo-Fr 16:30; Sa 12:00", "note": "ON 12/24 AND 12/31, THIS BOX MAY BE COLLECTED AS EARLY AS 12 NOON.", "nsi_id": "unitedstatespostalservice-a77078", "operator": "United States Postal Service", "operator:short": "USPS", "operator:type": "public", "operator:wikidata": "Q668687", "ref": "1404200001"}, "type": "Feature"}
{"geometry": {"coordinates": [-78.480205908, 42.491250825], "type": "Point"}, "id": "6ZtwPYeDECpovAj5oDPLCugdQ_U=", "properties": {"@source_uri": "https://tools.usps.com/UspsToolsRestServices/rest/POLocator/findLocations", "@spider": "usps_collection_boxes", "addr:city": "DELEVAN", "addr:country": "US", "addr:postcode": "14042", "addr:state": "NY", "addr:street_address": "40 N MAIN ST", "amenity": "post_box", "collection_times": "Mo-Fr 16:30", "indoor": "yes", "note": "ON 12/24 AND 12/31, THIS BOX MAY BE COLLECTED AS EARLY AS 12 NOON.", "nsi_id": "unitedstatespostalservice-a77078", "operator": "United States Postal Service", "operator:short": "USPS", "operator:type": "public", "operator:wikidata": "Q668687", "ref": "1404200007"}, "type": "Feature"}
{"geometry": {"coordinates": [-78.683140026, 42.900651997], "type": "Point"}, "id": "hdi3DPX0QkdXNuUcD9uhsbrdWPM=", "properties": {"@source_uri": "https://tools.usps.com/UspsToolsRestServices/rest/POLocator/findLocations", "@spider": "usps_collection_boxes", "addr:city": "DEPEW", "addr:country": "US", "addr:postcode": "14043", "addr:state": "NY", "addr:street_address": "5165 BROADWAY", "amenity": "post_box", "collection_times": "Mo-Sa 09:00", "nsi_id": "unitedstatespostalservice-a77078", "operator": "United States Postal Service", "operator:short": "USPS", "operator:type": "public", "operator:wikidata": "Q668687", "ref": "1404300002"}, "type": "Feature"}
{"geometry": {"coordinates": [-78.683356451, 42.90130162], "type": "Point"}, "id": "dOGN2za1qAT88jBWCg53a3CdCWE=", "properties": {"@source_uri": "https://tools.usps.com/UspsToolsRestServices/rest/POLocator/findLocations", "@spider": "usps_collection_boxes", "addr:city": "DEPEW", "addr:country": "US", "addr:postcode": "14043", "addr:state": "NY", "addr:street_address": "5175 BROADWAY", "amenity": "post_box", "collection_times": "Mo-Sa 09:00", "nsi_id": "unitedstatespostalservice-a77078", "operator": "United States Postal Service", "operator:short": "USPS", "operator:type": "public", "operator:wikidata": "Q668687", "ref": "1404300003"}, "type": "Feature"}
{"geometry": {"coordinates": [-78.738696927, 42.920182123], "type": "Point"}, "id": "hjxwt7EktBZmIn4naztMEd15ZB4=", "properties": {"@source_uri": "https://tools.usps.com/UspsToolsRestServices/rest/POLocator/findLocations", "@spider": "usps_collection_boxes", "addr:city": "DEPEW", "addr:country": "US", "addr:postcode": "14043", "addr:state": "NY", "addr:street_address": "620 DICK RD", "amenity": "post_box", "collection_times": "Mo-Fr 14:00; Sa 12:00", "note": "ON 12/24 AND 12/31, THIS BOX MAY BE COLLECTED AS EARLY AS 12 NOON.", "nsi_id": "unitedstatespostalservice-a77078", "operator": "United States Postal Service", "operator:short": "USPS", "operator:type": "public", "operator:wikidata": "Q668687", "ref": "1404300006"}, "type": "Feature"}
{"geometry": {"coordinates": [-78.706624189, 42.867763536], "type": "Point"}, "id": "QvZl-Pz6mOmj2lEEkb0CIf0ljIg=", "properties": {"@source_uri": "https://tools.usps.com/UspsToolsRestServices/rest/POLocator/findLocations", "@spider": "usps_collection_boxes", "addr:city": "DEPEW", "addr:country": "US", "addr:postcode": "14043", "addr:state": "NY", "addr:street_address": "1235 FRENCH RD", "amenity": "post_box", "collection_times": "Mo-Sa 09:30", "nsi_id": "unitedstatespostalservice-a77078", "operator": "United States Postal Service", "operator:short": "USPS", "operator:type": "public", "operator:wikidata": "Q668687", "ref": "1404300007"}, "type": "Feature"}
{"geometry": {"coordinates": [-78.7340115, 42.918804503], "type": "Point"}, "id": "cVqIzDlD_i9Lz4cOi83LNW5Qqmw=", "properties": {"@source_uri": "https://tools.usps.com/UspsToolsRestServices/rest/POLocator/findLocations", "@spider": "usps_collection_boxes", "addr:city": "DEPEW", "addr:country": "US", "addr:postcode": "14043", "addr:state": "NY", "addr:street_address": "2090 GEORGE URBAN BLVD", "amenity": "post_box", "collection_times": "Mo-Sa 09:00", "nsi_id": "unitedstatespostalservice-a77078", "operator": "United States Postal Service", "operator:short": "USPS", "operator:type": "public", "operator:wikidata": "Q668687", "ref": "1404300009"}, "type": "Feature"}
{"geometry": {"coordinates": [-78.730892193, 42.918750485], "type": "Point"}, "id": "YtdBujGShDKQK_EY_H8X8qiYdyo=", "properties": {"@source_uri": "https://tools.usps.com/UspsToolsRestServices/rest/POLocator/findLocations", "@spider": "usps_collection_boxes", "addr:city": "DEPEW", "addr:country": "US", "addr:postcode": "14043", "addr:state": "NY", "addr:street_address": "2191 GEORGE URBAN BLVD", "amenity": "post_box", "collection_times": "Mo-Sa 09:00", "nsi_id": "unitedstatespostalservice-a77078", "operator": "United States Postal Service", "operator:short": "USPS", "operator:type": "public", "operator:wikidata": "Q668687", "ref": "1404300010"}, "type": "Feature"}
{"geometry": {"coordinates": [-78.686333335, 42.90470079], "type": "Point"}, "id": "IY3V5IB7RWH6ogufGbl4SgWDV48=", "properties": {"@source_uri": "https://tools.usps.com/UspsToolsRestServices/rest/POLocator/findLocations", "@spider": "usps_collection_boxes", "addr:city": "DEPEW", "addr:country": "US", "addr:postcode": "14043", "addr:state": "NY", "addr:street_address": "85 MANITOU ST", "amenity": "post_box", "collection_times": "Mo-Fr 08:30", "nsi_id": "unitedstatespostalservice-a77078", "operator": "United States Postal Service", "operator:short": "USPS", "operator:type": "public", "operator:wikidata": "Q668687", "ref": "1404300015"}, "type": "Feature"}
{"geometry": {"coordinates": [-78.69692549, 42.868494], "type": "Point"}, "id": "p-EuxcZq3IY5gb3yY5CFk0IUrCM=", "properties": {"@source_uri": "https://tools.usps.com/UspsToolsRestServices/rest/POLocator/findLocations", "@spider": "usps_collection_boxes", "addr:city": "DEPEW", "addr:country": "US", "addr:postcode": "14043", "addr:state": "NY", "addr:street_address": "4777 TRANSIT RD", "amenity": "post_box", "collection_times": "Mo-Sa 10:00", "nsi_id": "unitedstatespostalservice-a77078", "operator": "United States Postal Service", "operator:short": "USPS", "operator:type": "public", "operator:wikidata": "Q668687", "ref": "1404300020"}, "type": "Feature"}
{"geometry": {"coordinates": [-78.696948063, 42.918318], "type": "Point"}, "id": "GwQcSPpoNtsFCQqvEZErhLgXj6A=", "properties": {"@source_uri": "https://tools.usps.com/UspsToolsRestServices/rest/POLocator/findLocations", "@spider": "usps_collection_boxes", "addr:city": "DEPEW", "addr:country": "US", "addr:postcode": "14043", "addr:state": "NY", "addr:street_address": "5990 TRANSIT RD", "amenity": "post_box", "collection_times": "Mo-Fr 14:00; Sa 12:00", "note": "ON 12/24 AND 12/31, THIS BOX MAY BE COLLECTED AS EARLY AS 12 NOON.", "nsi_id": "unitedstatespostalservice-a77078", "operator": "United States Postal Service", "operator:short": "USPS", "operator:type": "public", "operator:wikidata": "Q668687", "ref": "1404300023"}, "type": "Feature"}
{"geometry": {"coordinates": [-78.696883151, 42.93008033], "type": "Point"}, "id": "vUhha4xenPLb7Ub77qh-5eenSn8=", "properties": {"@source_uri": "https://tools.usps.com/UspsToolsRestServices/rest/POLocator/findLocations", "@spider": "usps_collection_boxes", "addr:city": "DEPEW", "addr:country": "US", "addr:postcode": "14043", "addr:state": "NY", "addr:street_address": "6363 TRANSIT RD", "amenity": "post_box", "collection_times": "Mo-Sa 09:00", "nsi_id": "unitedstatespostalservice-a77078", "operator": "United States Postal Service", "operator:short": "USPS", "operator:type": "public", "operator:wikidata": "Q668687", "ref": "1404300025"}, "type": "Feature"}
{"geometry": {"coordinates": [-78.69697085, 42.88295365], "type": "Point"}, "id": "NS4LBgmJdPNxwGMQ5GdYLU1Gt2o=", "properties": {"@source_uri": "https://tools.usps.com/UspsToolsRestServices/rest/POLocator/findLocations", "@spider": "usps_collection_boxes", "addr:city": "DEPEW", "addr:country": "US", "addr:postcode": "14043", "addr:state": "NY", "addr:street_address": "4960 TRANSIT RD", "amenity": "post_box", "collection_times": "Mo-Sa 09:00", "nsi_id": "unitedstatespostalservice-a77078", "operator": "United States Postal Service", "operator:short": "USPS", "operator:type": "public", "operator:wikidata": "Q668687", "ref": "1404300026"}, "type": "Feature"}
{"geometry": {"coordinates": [-78.690436011, 42.904392007], "type": "Point"}, "id": "4KX1kV99bEJglgLELnOWbAqD9Mo=", "properties": {"@source_uri": "https://tools.usps.com/UspsToolsRestServices/rest/POLocator/findLocations", "@spider": "usps_collection_boxes", "addr:city": "DEPEW", "addr:country": "US", "addr:postcode": "14043", "addr:state": "NY", "addr:street_address": "165 WARSAW ST", "amenity": "post_box", "collection_times": "Mo-Fr 17:00; Sa 12:00", "note": "ON 12/24 AND 12/31, THIS BOX MAY BE COLLECTED AS EARLY AS 12 NOON.", "nsi_id": "unitedstatespostalservice-a77078", "operator": "United States Postal Service", "operator:short": "USPS", "operator:type": "public", "operator:wikidata": "Q668687", "ref": "1404300033"}, "type": "Feature"}
{"geometry": {"coordinates": [-78.689782436, 42.892485504], "type": "Point"}, "id": "0nblCXULeeL7WJdYOTqBE3qtZX0=", "properties": {"@source_uri": "https://tools.usps.com/UspsToolsRestServices/rest/POLocator/findLocations", "@spider": "usps_collection_boxes", "addr:city": "DEPEW", "addr:country": "US", "addr:postcode": "14043", "addr:state": "NY", "addr:street_address": "1763 COMO PARK BLVD", "amenity": "post_box", "collection_times": "Mo-Fr 15:30; Sa 12:00", "note": "ON 12/24 AND 12/31, THIS BOX MAY BE COLLECTED AS EARLY AS 12 NOON.", "nsi_id": "unitedstatespostalservice-a77078", "operator": "United States Postal Service", "operator:short": "USPS", "operator:type": "public", "operator:wikidata": "Q668687", "ref": "1404300034"}, "type": "Feature"}
{"geometry": {"coordinates": [-78.690976881, 42.912882274], "type": "Point"}, "id": "orHRbVuYjd_8e3qtnuz4Is9VqAM=", "properties": {"@source_uri": "https://tools.usps.com/UspsToolsRestServices/rest/POLocator/findLocations", "@spider": "usps_collection_boxes", "addr:city": "DEPEW", "addr:country": "US", "addr:postcode": "14043", "addr:state": "NY", "addr:street_address": "3332 WALDEN AVE", "amenity": "post_box", "collection_times": "Mo-Fr 09:00", "nsi_id": "unitedstatespostalservice-a77078", "operator": "United States Postal Service", "operator:short": "USPS", "operator:type": "public", "operator:wikidata": "Q668687", "ref": "1404300035"}, "type": "Feature"}
{"geometry": {"coordinates": [-78.738567564, 42.920107896], "type": "Point"}, "id": "1DHKaWUezEuv8BnII43wqGBxrjI=", "properties": {"@source_uri": "https://tools.usps.com/UspsToolsRestServices/rest/POLocator/findLocations", "@spider": "usps_collection_boxes", "addr:city": "DEPEW", "addr:country": "US", "addr:postcode": "14043", "addr:state": "NY", "addr:street_address": "651 DICK RD", "amenity": "post_box", "collection_times": "Mo-Fr 14:00; Sa 12:00", "note": "ON 12/24 AND 12/31, THIS BOX MAY BE COLLECTED AS EARLY AS 12 NOON.", "nsi_id": "unitedstatespostalservice-a77078", "operator": "United States Postal Service", "operator:short": "USPS", "operator:type": "public", "operator:wikidata": "Q668687", "ref": "1404300037"}, "type": "Feature"}
{"geometry": {"coordinates": [-78.679795337, 42.914654286], "type": "Point"}, "id": "mr49S6zDJyk1hbGT3kML1XsJac0=", "properties": {"@source_uri": "https://tools.usps.com/UspsToolsRestServices/rest/POLocator/findLocations", "@spider": "usps_collection_boxes", "addr:city": "DEPEW", "addr:country": "US", "addr:postcode": "14043", "addr:state": "NY", "addr:street_address": "3470 WALDEN AVE", "amenity": "post_box", "collection_times": "Mo-Sa 09:00", "nsi_id": "unitedstatespostalservice-a77078", "operator": "United States Postal Service", "operator:short": "USPS", "operator:type": "public", "operator:wikidata": "Q668687", "ref": "1404300039"}, "type": "Feature"}
{"geometry": {"coordinates": [-78.690436011, 42.904392007], "type": "Point"}, "id": "-vGgLaJouh0qpOeiQsEQh40Vw5o=", "properties": {"@source_uri": "https://tools.usps.com/UspsToolsRestServices/rest/POLocator/findLocations", "@spider": "usps_collection_boxes", "addr:city": "DEPEW", "addr:country": "US", "addr:postcode": "14043", "addr:state": "NY", "addr:street_address": "165 WARSAW ST", "amenity": "post_box", "collection_times": "Mo-Fr 17:00; Sa 12:00", "indoor": "yes", "note": "ON 12/24 AND 12/31, THIS BOX MAY BE COLLECTED AS EARLY AS 12 NOON.", "nsi_id": "unitedstatespostalservice-a77078", "operator": "United States Postal Service", "operator:short": "USPS", "operator:type": "public", "operator:wikidata": "Q668687", "ref": "1404300044"}, "type": "Feature"}
{"geometry": {"coordinates": [-79.011807206, 42.686014567], "type": "Point"}, "id": "mnKFLRkOyEo8sAckI1il8jq7YEw=", "properties": {"@source_uri": "https://tools.usps.com/UspsToolsRestServices/rest/POLocator/findLocations", "@spider": "usps_collection_boxes", "addr:city": "DERBY", "addr:country": "US", "addr:postcode": "14047", "addr:state": "NY", "addr:street_address": "7350 ERIE RD", "amenity": "post_box", "collection_times": "Mo-Fr 16:15; Sa 11:30", "note": "ON 12/24 AND 12/31, THIS BOX MAY BE COLLECTED AS EARLY AS 12 NOON.", "nsi_id": "unitedstatespostalservice-a77078", "operator": "United States Postal Service", "operator:short": "USPS", "operator:type": "public", "operator:wikidata": "Q668687", "ref": "1404700001"}, "type": "Feature"}
{"geometry": {"coordinates": [-78.98199, 42.699875], "type": "Point"}, "id": "mu5G531XyL-HMa6T1T7x60wTs54=", "properties": {"@source_uri": "https://tools.usps.com/UspsToolsRestServices/rest/POLocator/findLocations", "@spider": "usps_collection_boxes", "addr:city": "DERBY", "addr:country": "US", "addr:postcode": "14047", "addr:state": "NY", "addr:street_address": "6766 ERIE RD", "amenity": "post_box", "collection_times": "Mo-Fr 10:00", "nsi_id": "unitedstatespostalservice-a77078", "operator": "United States Postal Service", "operator:short": "USPS", "operator:type": "public", "operator:wikidata": "Q668687", "ref": "1404700003"}, "type": "Feature"}
{"geometry": {"coordinates": [-78.987533112, 42.697799769], "type": "Point"}, "id": "3eVJifB1xYEEcRMC0PBdIbzWISA=", "properties": {"@source_uri": "https://tools.usps.com/UspsToolsRestServices/rest/POLocator/findLocations", "@spider": "usps_collection_boxes", "addr:city": "DERBY", "addr:country": "US", "addr:postcode": "14047", "addr:state": "NY", "addr:street_address": "6914 ERIE RD", "amenity": "post_box", "collection_times": "Mo-Fr 10:00", "nsi_id": "unitedstatespostalservice-a77078", "operator": "United States Postal Service", "operator:short": "USPS", "operator:type": "public", "operator:wikidata": "Q668687", "ref": "1404700004"}, "type": "Feature"}
{"geometry": {"coordinates": [-79.011807206, 42.686014567], "type": "Point"}, "id": "jafqWjxnkaJ9TXJX-MdwVS2s4gk=", "properties": {"@source_uri": "https://tools.usps.com/UspsToolsRestServices/rest/POLocator/findLocations", "@spider": "usps_collection_boxes", "addr:city": "DERBY", "addr:country": "US", "addr:postcode": "14047", "addr:state": "NY", "addr:street_address": "7350 ERIE RD", "amenity": "post_box", "collection_times": "Mo-Fr 16:30; Sa 12:00", "indoor": "yes", "note": "ON 12/24 AND 12/31, THIS BOX MAY BE COLLECTED AS EARLY AS 12 NOON.", "nsi_id": "unitedstatespostalservice-a77078", "operator": "United States Postal Service", "operator:short": "USPS", "operator:type": "public", "operator:wikidata": "Q668687", "ref": "1404700011"}, "type": "Feature"}
{"geometry": {"coordinates": [-79.319084143, 42.458564433], "type": "Point"}, "id": "tMXDgwTvvGmtdRwUAoxiNhmK7rU=", "properties": {"@source_uri": "https://tools.usps.com/UspsToolsRestServices/rest/POLocator/findLocations", "@spider": "usps_collection_boxes", "addr:city": "DUNKIRK", "addr:country": "US", "addr:postcode": "14048", "addr:state": "NY", "addr:street_address": "3972 VINEYARD DR", "amenity": "post_box", "collection_times": "Mo-Fr 15:45; Sa 15:00", "note": "ON 12/24 AND 12/31, THIS BOX MAY BE COLLECTED AS EARLY AS 12 NOON.", "nsi_id": "unitedstatespostalservice-a77078", "operator": "United States Postal Service", "operator:short": "USPS", "operator:type": "public", "operator:wikidata": "Q668687", "ref": "1404800006"}, "type": "Feature"}
{"geometry": {"coordinates": [-79.32270471, 42.490324613], "type": "Point"}, "id": "r046fM_uX1wOLnc4xNWwsKjizCU=", "properties": {"@source_uri": "https://tools.usps.com/UspsToolsRestServices/rest/POLocator/findLocations", "@spider": "usps_collection_boxes", "addr:city": "DUNKIRK", "addr:country": "US", "addr:postcode": "14048", "addr:state": "NY", "addr:street_address": "234 LAKE SHORE DR E", "amenity": "post_box", "collection_times": "Mo-Sa 14:30", "note": "ON 12/24 AND 12/31, THIS BOX MAY BE COLLECTED AS EARLY AS 12 NOON.", "nsi_id": "unitedstatespostalservice-a77078", "operator": "United States Postal Service", "operator:short": "USPS", "operator:type": "public", "operator:wikidata": "Q668687", "ref": "1404800025"}, "type": "Feature"}
{"geometry": {"coordinates": [-79.330216421, 42.483787311], "type": "Point"}, "id": "CvCoDPo6Ngbk6fWZG8B4WlDFWRY=", "properties": {"@source_uri": "https://tools.usps.com/UspsToolsRestServices/rest/POLocator/findLocations", "@spider": "usps_collection_boxes", "addr:city": "DUNKIRK", "addr:country": "US", "addr:postcode": "14048", "addr:state": "NY", "addr:street_address": "128 E 4TH ST", "amenity": "post_box", "collection_times": "Mo-Fr 16:15; Sa 15:00", "note": "ON 12/24 AND 12/31, THIS BOX MAY BE COLLECTED AS EARLY AS 12 NOON.", "nsi_id": "unitedstatespostalservice-a77078", "operator": "United States Postal Service", "operator:short": "USPS", "operator:type": "public", "operator:wikidata": "Q668687", "ref": "1404800031"}, "type": "Feature"}
{"geometry": {"coordinates": [-79.33469812, 42.484163741], "type": "Point"}, "id": "2NgopxUKxPtXa65xfKRKdltYnX4=", "properties": {"@source_uri": "https://tools.usps.com/UspsToolsRestServices/rest/POLocator/findLocations", "@spider": "usps_collection_boxes", "addr:city": "DUNKIRK", "addr:country": "US", "addr:postcode": "14048", "addr:state": "NY", "addr:street_address": "318 CENTRAL AVE", "amenity": "post_box", "collection_times": "Mo-Fr 16:30; Sa 15:00", "note": "ON 12/24 AND 12/31, THIS BOX MAY BE COLLECTED AS EARLY AS 12 NOON.", "nsi_id": "unitedstatespostalservice-a77078", "operator": "United States Postal Service", "operator:short": "USPS", "operator:type": "public", "operator:wikidata": "Q668687", "ref": "1404800037"}, "type": "Feature"}
{"geometry": {"coordinates": [-79.334238663, 42.482534741], "type": "Point"}, "id": "2zIczpUmZ2vdhRP4QXQG70oAqXs=", "properties": {"@source_uri": "https://tools.usps.com/UspsToolsRestServices/rest/POLocator/findLocations", "@spider": "usps_collection_boxes", "addr:city": "DUNKIRK", "addr:country": "US", "addr:postcode": "14048", "addr:state": "NY", "addr:street_address": "410 CENTRAL AVE", "amenity": "post_box", "collection_times": "Mo-Fr 17:15; Sa 15:45", "note": "ON 12/24 AND 12/31, THIS BOX MAY BE COLLECTED AS EARLY AS 12 NOON.", "nsi_id": "unitedstatespostalservice-a77078", "operator": "United States Postal Service", "operator:short": "USPS", "operator:type": "public", "operator:wikidata": "Q668687", "ref": "1404800038"}, "type": "Feature"}
{"geometry": {"coordinates": [-79.318060838, 42.458586548], "type": "Point"}, "id": "wE-tqH8WkTM3bqKwAdhXiyWd8SQ=", "properties": {"@source_uri": "https://tools.usps.com/UspsToolsRestServices/rest/POLocator/findLocations", "@spider": "usps_collection_boxes", "addr:city": "DUNKIRK", "addr:country": "US", "addr:postcode": "14048", "addr:state": "NY", "addr:street_address": "3955 VINEYARD DR", "amenity": "post_box", "collection_times": "Mo-Fr 15:30; Sa 15:00", "note": "ON 12/24 AND 12/31, THIS BOX MAY BE COLLECTED AS EARLY AS 12 NOON.", "nsi_id": "unitedstatespostalservice-a77078", "operator": "United States Postal Service", "operator:short": "USPS", "operator:type": "public", "operator:wikidata": "Q668687", "ref": "1404800041"}, "type": "Feature"}
{"geometry": {"coordinates": [-79.317721053, 42.468020526], "type": "Point"}, "id": "BYigzs92CEkNXOnGM0R15lHtT4o=", "properties": {"@source_uri": "https://tools.usps.com/UspsToolsRestServices/rest/POLocator/findLocations", "@spider": "usps_collection_boxes", "addr:city": "DUNKIRK", "addr:country": "US", "addr:postcode": "14048", "addr:state": "NY", "addr:street_address": "10807 BENNETT RD", "amenity": "post_box", "collection_times": "Mo-Sa 14:00", "note": "ON 12/24 AND 12/31, THIS BOX MAY BE COLLECTED AS EARLY AS 12 NOON.", "nsi_id": "unitedstatespostalservice-a77078", "operator": "United States Postal Service", "operator:short": "USPS", "operator:type": "public", "operator:wikidata": "Q668687", "ref": "1404800043"}, "type": "Feature"}
{"geometry": {"coordinates": [-79.33562883, 42.484221211], "type": "Point"}, "id": "XaoZ1jXMrFODW915tYqglRVQ7I8=", "properties": {"@source_uri": "https://tools.usps.com/UspsToolsRestServices/rest/POLocator/findLocations", "@spider": "usps_collection_boxes", "addr:city": "DUNKIRK", "addr:country": "US", "addr:postcode": "14048", "addr:state": "NY", "addr:street_address": "325 LARK ST", "amenity": "post_box", "collection_times": "Mo-Fr 16:30; Sa 15:00", "note": "ON 12/24 AND 12/31, THIS BOX MAY BE COLLECTED AS EARLY AS 12 NOON.", "nsi_id": "unitedstatespostalservice-a77078", "operator": "United States Postal Service", "operator:short": "USPS", "operator:type": "public", "operator:wikidata": "Q668687", "ref": "1404800044"}, "type": "Feature"}
{"geometry": {"coordinates": [-79.333896731, 42.484454854], "type": "Point"}, "id": "xMQCcSOzXfFHkPbryfGIzuAApYc=", "properties": {"@source_uri": "https://tools.usps.com/UspsToolsRestServices/rest/POLocator/findLocations", "@spider": "usps_collection_boxes", "addr:city": "DUNKIRK", "addr:country": "US", "addr:postcode": "14048", "addr:state": "NY", "addr:street_address": "326 LYNX ST", "amenity": "post_box", "collection_times": "Mo-Fr 16:45; Sa 15:00", "note": "ON 12/24 AND 12/31, THIS BOX MAY BE COLLECTED AS EARLY AS 12 NOON.", "nsi_id": "unitedstatespostalservice-a77078", "operator": "United States Postal Service", "operator:short": "USPS", "operator:type": "public", "operator:wikidata": "Q668687", "ref": "1404800045"}, "type": "Feature"}
{"geometry": {"coordinates": [-79.334238663, 42.482534741], "type": "Point"}, "id": "Yg8XLaTWTchQNltK7YM3XZixDlk=", "properties": {"@source_uri": "https://tools.usps.com/UspsToolsRestServices/rest/POLocator/findLocations", "@spider": "usps_collection_boxes", "addr:city": "DUNKIRK", "addr:country": "US", "addr:postcode": "14048", "addr:state": "NY", "addr:street_address": "410 CENTRAL AVE", "amenity": "post_box", "collection_times": "Mo-Fr 17:00; Sa 12:30", "indoor": "yes", "note": "ON 12/24 AND 12/31, THIS BOX MAY BE COLLECTED AS EARLY AS 12 NOON.", "nsi_id": "unitedstatespostalservice-a77078", "operator": "United States Postal Service", "operator:short": "USPS", "operator:type": "public", "operator:wikidata": "Q668687", "ref": "1404800048"}, "type": "Feature"}
{"geometry": {"coordinates": [-78.696997848, 43.036967627], "type": "Point"}, "id": "15UGxCn__DHWo089LIHvsdWYxw0=", "properties": {"@source_uri": "https://tools.usps.com/UspsToolsRestServices/rest/POLocator/findLocations", "@spider": "usps_collection_boxes", "addr:city": "EAST AMHERST", "addr:country": "US", "addr:postcode": "14051", "addr:state": "NY", "addr:street_address": "9830 TRANSIT RD", "amenity": "post_box", "collection_times": "Mo-Sa 13:00", "note": "ON 12/24 AND 12/31, THIS BOX MAY BE COLLECTED AS EARLY AS 12 NOON.", "nsi_id": "unitedstatespostalservice-a77078", "operator": "United States Postal Service", "operator:short": "USPS", "operator:type": "public", "operator:wikidata": "Q668687", "ref": "1405100002"}, "type": "Feature"}
{"geometry": {"coordinates": [-78.6969010062, 43.007868], "type": "Point"}, "id": "qr7RGBaFj82N9WUN7kGjoooSPDc=", "properties": {"@source_uri": "https://tools.usps.com/UspsToolsRestServices/rest/POLocator/findLocations", "@spider": "usps_collection_boxes", "addr:city": "EAST AMHERST", "addr:country": "US", "addr:postcode": "14051", "addr:state": "NY", "addr:street_address": "5841 TRANSIT RD", "amenity": "post_box", "collection_times": "Mo-Sa 11:00", "nsi_id": "unitedstatespostalservice-a77078", "operator": "United States Postal Service", "operator:short": "USPS", "operator:type": "public", "operator:wikidata": "Q668687", "ref": "1405100003"}, "type": "Feature"}
{"geometry": {"coordinates": [-78.696990069, 43.023672], "type": "Point"}, "id": "3cTOtZgq3zGdka5-loHFBfUdOWk=", "properties": {"@source_uri": "https://tools.usps.com/UspsToolsRestServices/rest/POLocator/findLocations", "@spider": "usps_collection_boxes", "addr:city": "EAST AMHERST", "addr:country": "US", "addr:postcode": "14051", "addr:state": "NY", "addr:street_address": "9350 TRANSIT RD", "amenity": "post_box", "collection_times": "Mo-Sa 10:00", "nsi_id": "unitedstatespostalservice-a77078", "operator": "United States Postal Service", "operator:short": "USPS", "operator:type": "public", "operator:wikidata": "Q668687", "ref": "1405100004"}, "type": "Feature"}
{"geometry": {"coordinates": [-78.696971089, 43.032825649], "type": "Point"}, "id": "bgmSkmotnurl19W3TnZuAG6gWFM=", "properties": {"@source_uri": "https://tools.usps.com/UspsToolsRestServices/rest/POLocator/findLocations", "@spider": "usps_collection_boxes", "addr:city": "EAST AMHERST", "addr:country": "US", "addr:postcode": "14051", "addr:state": "NY", "addr:street_address": "9660 TRANSIT RD", "amenity": "post_box", "collection_times": "Mo-Sa 10:00", "nsi_id": "unitedstatespostalservice-a77078", "operator": "United States Postal Service", "operator:short": "USPS", "operator:type": "public", "operator:wikidata": "Q668687", "ref": "1405100005"}, "type": "Feature"}
{"geometry": {"coordinates": [-78.696968573, 43.030998], "type": "Point"}, "id": "jZu5d3PnhseNMFgRUodg7eJCaow=", "properties": {"@source_uri": "https://tools.usps.com/UspsToolsRestServices/rest/POLocator/findLocations", "@spider": "usps_collection_boxes", "addr:city": "EAST AMHERST", "addr:country": "US", "addr:postcode": "14051", "addr:state": "NY", "addr:street_address": "9630 TRANSIT RD STE 1000", "amenity": "post_box", "collection_times": "Mo-Fr 17:00; Sa 13:00", "name": "USPS COLLECTION BOX - APC", "note": "ON 12/24 AND 12/31, THIS BOX MAY BE COLLECTED AS EARLY AS 12 NOON.", "nsi_id": "unitedstatespostalservice-a77078", "operator": "United States Postal Service", "operator:short": "USPS", "operator:type": "public", "operator:wikidata": "Q668687", "ref": "1405100007"}, "type": "Feature"}
{"geometry": {"coordinates": [-78.696968573, 43.030998], "type": "Point"}, "id": "svCNp6aHmmPsh5_9d8Ti0FGjoKk=", "properties": {"@source_uri": "https://tools.usps.com/UspsToolsRestServices/rest/POLocator/findLocations", "@spider": "usps_collection_boxes", "addr:city": "EAST AMHERST", "addr:country": "US", "addr:postcode": "14051", "addr:state": "NY", "addr:street_address": "9630 TRANSIT RD STE 1000", "amenity": "post_box", "collection_times": "Mo-Fr 17:00; Sa 13:00", "indoor": "yes", "note": "ON 12/24 AND 12/31, THIS BOX MAY BE COLLECTED AS EARLY AS 12 NOON.", "nsi_id": "unitedstatespostalservice-a77078", "operator": "United States Postal Service", "operator:short": "USPS", "operator:type": "public", "operator:wikidata": "Q668687", "ref": "1405100010"}, "type": "Feature"}
{"geometry": {"coordinates": [-78.6125205, 42.765574485], "type": "Point"}, "id": "SAAj3cEzQv_bAL4prqUIbwqMM9c=", "properties": {"@source_uri": "https://tools.usps.com/UspsToolsRestServices/rest/POLocator/findLocations", "@spider": "usps_collection_boxes", "addr:city": "EAST AURORA", "addr:country": "US", "addr:postcode": "14052", "addr:state": "NY", "addr:street_address": "597 OAKWOOD AVE", "amenity": "post_box", "collection_times": "Mo-Sa 09:00", "nsi_id": "unitedstatespostalservice-a77078", "operator": "United States Postal Service", "operator:short": "USPS", "operator:type": "public", "operator:wikidata": "Q668687", "ref": "1405200002"}, "type": "Feature"}
{"geometry": {"coordinates": [-78.633006271, 42.765168222], "type": "Point"}, "id": "_zKjJ94V07NcJ1PLBT_I92EZVaw=", "properties": {"@source_uri": "https://tools.usps.com/UspsToolsRestServices/rest/POLocator/findLocations", "@spider": "usps_collection_boxes", "addr:city": "EAST AURORA", "addr:country": "US", "addr:postcode": "14052", "addr:state": "NY", "addr:street_address": "123 GREY ST", "amenity": "post_box", "collection_times": "Mo-Sa 09:00", "nsi_id": "unitedstatespostalservice-a77078", "operator": "United States Postal Service", "operator:short": "USPS", "operator:type": "public", "operator:wikidata": "Q668687", "ref": "1405200013"}, "type": "Feature"}
{"geometry": {"coordinates": [-78.628085644, 42.767807489], "type": "Point"}, "id": "zi_L7ZsHXAJEcXxV9AoKueqG60k=", "properties": {"@source_uri": "https://tools.usps.com/UspsToolsRestServices/rest/POLocator/findLocations", "@spider": "usps_collection_boxes", "addr:city": "EAST AURORA", "addr:country": "US", "addr:postcode": "14052", "addr:state": "NY", "addr:street_address": "190 MAIN ST", "amenity": "post_box", "collection_times": "Mo-Sa 09:00", "nsi_id": "unitedstatespostalservice-a77078", "operator": "United States Postal Service", "operator:short": "USPS", "operator:type": "public", "operator:wikidata": "Q668687", "ref": "1405200014"}, "type": "Feature"}
{"geometry": {"coordinates": [-78.613361361, 42.767898477], "type": "Point"}, "id": "RMEJeWTFrsBqE9LImZaNJBzgfPM=", "properties": {"@source_uri": "https://tools.usps.com/UspsToolsRestServices/rest/POLocator/findLocations", "@spider": "usps_collection_boxes", "addr:city": "EAST AURORA", "addr:country": "US", "addr:postcode": "14052", "addr:state": "NY", "addr:street_address": "571 MAIN ST", "amenity": "post_box", "collection_times": "Mo-Sa 09:00", "nsi_id": "unitedstatespostalservice-a77078", "operator": "United States Postal Service", "operator:short": "USPS", "operator:type": "public", "operator:wikidata": "Q668687", "ref": "1405200018"}, "type": "Feature"}
{"geometry": {"coordinates": [-78.60901072, 42.767869472], "type": "Point"}, "id": "yoEYtBZCs_ADhn-KxidrKSXuPMg=", "properties": {"@source_uri": "https://tools.usps.com/UspsToolsRestServices/rest/POLocator/findLocations", "@spider": "usps_collection_boxes", "addr:city": "EAST AURORA", "addr:country": "US", "addr:postcode": "14052", "addr:state": "NY", "addr:street_address": "690 MAIN ST", "amenity": "post_box", "collection_times": "Mo-Sa 09:00", "nsi_id": "unitedstatespostalservice-a77078", "operator": "United States Postal Service", "operator:short": "USPS", "operator:type": "public", "operator:wikidata": "Q668687", "ref": "1405200019"}, "type": "Feature"}
{"geometry": {"coordinates": [-78.611464233, 42.769051208], "type": "Point"}, "id": "B_FZYnWW9veY3gLc6zaLPIaz-5Y=", "properties": {"@source_uri": "https://tools.usps.com/UspsToolsRestServices/rest/POLocator/findLocations", "@spider": "usps_collection_boxes", "addr:city": "EAST AURORA", "addr:country": "US", "addr:postcode": "14052", "addr:state": "NY", "addr:street_address": "42 RILEY ST", "amenity": "post_box", "collection_times": "Mo-Sa 09:00", "nsi_id": "unitedstatespostalservice-a77078", "operator": "United States Postal Service", "operator:short": "USPS", "operator:type": "public", "operator:wikidata": "Q668687", "ref": "1405200020"}, "type": "Feature"}
{"geometry": {"coordinates": [-78.639937335, 42.762365284], "type": "Point"}, "id": "kEsYpi280Gkzxb8_pUFKZ9j-3vw=", "properties": {"@source_uri": "https://tools.usps.com/UspsToolsRestServices/rest/POLocator/findLocations", "@spider": "usps_collection_boxes", "addr:city": "EAST AURORA", "addr:country": "US", "addr:postcode": "14052", "addr:state": "NY", "addr:street_address": "408 QUAKER RD", "amenity": "post_box", "collection_times": "Mo-Fr 17:00; Sa 15:00", "note": "ON 12/24 AND 12/31, THIS BOX MAY BE COLLECTED AS EARLY AS 12 NOON.", "nsi_id": "unitedstatespostalservice-a77078", "operator": "United States Postal Service", "operator:short": "USPS", "operator:type": "public", "operator:wikidata": "Q668687", "ref": "1405200021"}, "type": "Feature"}
{"geometry": {"coordinates": [-78.610592331, 42.767861525], "type": "Point"}, "id": "UEL1VeWmOt5y2uKDaJthCNBp3C0=", "properties": {"@source_uri": "https://tools.usps.com/UspsToolsRestServices/rest/POLocator/findLocations", "@spider": "usps_collection_boxes", "addr:city": "EAST AURORA", "addr:country": "US", "addr:postcode": "14052", "addr:state": "NY", "addr:street_address": "649 MAIN ST", "amenity": "post_box", "collection_times": "Mo-Sa 09:00", "nsi_id": "unitedstatespostalservice-a77078", "operator": "United States Postal Service", "operator:short": "USPS", "operator:type": "public", "operator:wikidata": "Q668687", "ref": "1405200022"}, "type": "Feature"}
{"geometry": {"coordinates": [-78.617871425, 42.767388031], "type": "Point"}, "id": "ElP7ZioHIpi3mHep_GBqs49ZZQw=", "properties": {"@source_uri": "https://tools.usps.com/UspsToolsRestServices/rest/POLocator/findLocations", "@spider": "usps_collection_boxes", "addr:city": "EAST AURORA", "addr:country": "US", "addr:postcode": "14052", "addr:state": "NY", "addr:street_address": "21 S GROVE GRV", "amenity": "post_box", "collection_times": "Mo-Sa 09:00", "nsi_id": "unitedstatespostalservice-a77078", "operator": "United States Postal Service", "operator:short": "USPS", "operator:type": "public", "operator:wikidata": "Q668687", "ref": "1405200023"}, "type": "Feature"}
{"geometry": {"coordinates": [-78.133170551, 42.904989388], "type": "Point"}, "id": "HTf8O_vRjqG21tbaR6uOsh_KEs8=", "properties": {"@source_uri": "https://tools.usps.com/UspsToolsRestServices/rest/POLocator/findLocations", "@spider": "usps_collection_boxes", "addr:city": "EAST BETHANY", "addr:country": "US", "addr:postcode": "14054", "addr:state": "NY", "addr:street_address": "10510 BETHANY CENTER RD", "amenity": "post_box", "collection_times": "Mo-Fr 09:00", "nsi_id": "unitedstatespostalservice-a77078", "operator": "United States Postal Service", "operator:short": "USPS", "operator:type": "public", "operator:wikidata": "Q668687", "ref": "1405400004"}, "type": "Feature"}
{"geometry": {"coordinates": [-78.640483245, 42.549636122], "type": "Point"}, "id": "IYnNEUnsYYiJahG2mX6qiFBcdyI=", "properties": {"@source_uri": "https://tools.usps.com/UspsToolsRestServices/rest/POLocator/findLocations", "@spider": "usps_collection_boxes", "addr:city": "EAST CONCORD", "addr:country": "US", "addr:postcode": "14055", "addr:state": "NY", "addr:street_address": "12085 VAUGHN ST", "amenity": "post_box", "collection_times": "Mo-Fr 16:45; Sa 12:00", "note": "ON 12/24 AND 12/31, THIS BOX MAY BE COLLECTED AS EARLY AS 12 NOON.", "nsi_id": "unitedstatespostalservice-a77078", "operator": "United States Postal Service", "operator:short": "USPS", "operator:type": "public", "operator:wikidata": "Q668687", "ref": "1405500001"}, "type": "Feature"}
{"geometry": {"coordinates": [-78.640483245, 42.549636122], "type": "Point"}, "id": "Dhr3iluo_A2pTunJzvAkvi8ewZk=", "properties": {"@source_uri": "https://tools.usps.com/UspsToolsRestServices/rest/POLocator/findLocations", "@spider": "usps_collection_boxes", "addr:city": "EAST CONCORD", "addr:country": "US", "addr:postcode": "14055", "addr:state": "NY", "addr:street_address": "12085 VAUGHN ST", "amenity": "post_box", "collection_times": "Mo-Fr 17:00; Sa 12:00", "indoor": "yes", "note": "ON 12/24 AND 12/31, THIS BOX MAY BE COLLECTED AS EARLY AS 12 NOON.", "nsi_id": "unitedstatespostalservice-a77078", "operator": "United States Postal Service", "operator:short": "USPS", "operator:type": "public", "operator:wikidata": "Q668687", "ref": "1405500004"}, "type": "Feature"}
{"geometry": {"coordinates": [-78.309804448, 42.995070534], "type": "Point"}, "id": "pflxIpv-1YYr-Ge6M99pM5FqLD0=", "properties": {"@source_uri": "https://tools.usps.com/UspsToolsRestServices/rest/POLocator/findLocations", "@spider": "usps_collection_boxes", "addr:city": "EAST PEMBROKE", "addr:country": "US", "addr:postcode": "14056", "addr:state": "NY", "addr:street_address": "8643 READ RD", "amenity": "post_box", "collection_times": "Mo-Fr 16:45; Sa 11:45", "note": "ON 12/24 AND 12/31, THIS BOX MAY BE COLLECTED AS EARLY AS 12 NOON.", "nsi_id": "unitedstatespostalservice-a77078", "operator": "United States Postal Service", "operator:short": "USPS", "operator:type": "public", "operator:wikidata": "Q668687", "ref": "1405600001"}, "type": "Feature"}
{"geometry": {"coordinates": [-78.309804448, 42.995070534], "type": "Point"}, "id": "cAmhIX1po_Ol2jyOutOOFkihf4Y=", "properties": {"@source_uri": "https://tools.usps.com/UspsToolsRestServices/rest/POLocator/findLocations", "@spider": "usps_collection_boxes", "addr:city": "EAST PEMBROKE", "addr:country": "US", "addr:postcode": "14056", "addr:state": "NY", "addr:street_address": "8643 READ RD", "amenity": "post_box", "collection_times": "Mo-Fr 17:00; Sa 12:00", "indoor": "yes", "note": "ON 12/24 AND 12/31, THIS BOX MAY BE COLLECTED AS EARLY AS 12 NOON.", "nsi_id": "unitedstatespostalservice-a77078", "operator": "United States Postal Service", "operator:short": "USPS", "operator:type": "public", "operator:wikidata": "Q668687", "ref": "1405600004"}, "type": "Feature"}
{"geometry": {"coordinates": [-78.891130076, 42.662692738], "type": "Point"}, "id": "aZC3-_B9xszWKBI_1eCcbX9UDrM=", "properties": {"@source_uri": "https://tools.usps.com/UspsToolsRestServices/rest/POLocator/findLocations", "@spider": "usps_collection_boxes", "addr:city": "EDEN", "addr:country": "US", "addr:postcode": "14057", "addr:state": "NY", "addr:street_address": "8230 N MAIN ST", "amenity": "post_box", "collection_times": "Mo-Fr 17:00; Sa 15:30", "note": "ON 12/24 AND 12/31, THIS BOX MAY BE COLLECTED AS EARLY AS 12 NOON.", "nsi_id": "unitedstatespostalservice-a77078", "operator": "United States Postal Service", "operator:short": "USPS", "operator:type": "public", "operator:wikidata": "Q668687", "ref": "1405700002"}, "type": "Feature"}
{"geometry": {"coordinates": [-78.895100963, 42.656083136], "type": "Point"}, "id": "UN46CscJlFXgiS5i9o5Fg81ZYg8=", "properties": {"@source_uri": "https://tools.usps.com/UspsToolsRestServices/rest/POLocator/findLocations", "@spider": "usps_collection_boxes", "addr:city": "EDEN", "addr:country": "US", "addr:postcode": "14057", "addr:state": "NY", "addr:street_address": "8463 N MAIN ST", "amenity": "post_box", "collection_times": "Mo-Sa 13:30", "note": "ON 12/24 AND 12/31, THIS BOX MAY BE COLLECTED AS EARLY AS 12 NOON.", "nsi_id": "unitedstatespostalservice-a77078", "operator": "United States Postal Service", "operator:short": "USPS", "operator:type": "public", "operator:wikidata": "Q668687", "ref": "1405700003"}, "type": "Feature"}
{"geometry": {"coordinates": [-78.897102018, 42.652162886], "type": "Point"}, "id": "0m6oalCdBJj3ZFOxwCT6OqHXQ5Q=", "properties": {"@source_uri": "https://tools.usps.com/UspsToolsRestServices/rest/POLocator/findLocations", "@spider": "usps_collection_boxes", "addr:city": "EDEN", "addr:country": "US", "addr:postcode": "14057", "addr:state": "NY", "addr:street_address": "8584 S MAIN ST", "amenity": "post_box", "collection_times": "Mo-Sa 13:30", "note": "ON 12/24 AND 12/31, THIS BOX MAY BE COLLECTED AS EARLY AS 12 NOON.", "nsi_id": "unitedstatespostalservice-a77078", "operator": "United States Postal Service", "operator:short": "USPS", "operator:type": "public", "operator:wikidata": "Q668687", "ref": "1405700004"}, "type": "Feature"}
{"geometry": {"coordinates": [-78.889732804, 42.652380304], "type": "Point"}, "id": "7mvheRuNNu8kjWM7A6ePhWvk5Bk=", "properties": {"@source_uri": "https://tools.usps.com/UspsToolsRestServices/rest/POLocator/findLocations", "@spider": "usps_collection_boxes", "addr:city": "EDEN", "addr:country": "US", "addr:postcode": "14057", "addr:state": "NY", "addr:street_address": "2901 E CHURCH ST", "amenity": "post_box", "collection_times": "Mo-Sa 10:30", "nsi_id": "unitedstatespostalservice-a77078", "operator": "United States Postal Service", "operator:short": "USPS", "operator:type": "public", "operator:wikidata": "Q668687", "ref": "1405700006"}, "type": "Feature"}
{"geometry": {"coordinates": [-78.891130076, 42.662692738], "type": "Point"}, "id": "GnA-eogAzG9CDerPwBNuqXSnlek=", "properties": {"@source_uri": "https://tools.usps.com/UspsToolsRestServices/rest/POLocator/findLocations", "@spider": "usps_collection_boxes", "addr:city": "EDEN", "addr:country": "US", "addr:postcode": "14057", "addr:state": "NY", "addr:street_address": "8230 N MAIN ST", "amenity": "post_box", "collection_times": "Mo-Fr 17:00; Sa 12:00", "indoor": "yes", "note": "ON 12/24 AND 12/31, THIS BOX MAY BE COLLECTED AS EARLY AS 12 NOON.", "nsi_id": "unitedstatespostalservice-a77078", "operator": "United States Postal Service", "operator:short": "USPS", "operator:type": "public", "operator:wikidata": "Q668687", "ref": "1405700008"}, "type": "Feature"}
{"geometry": {"coordinates": [-78.186459022, 43.081575045], "type": "Point"}, "id": "Ulcjv9wUUFumpmIQuC045no-ssw=", "properties": {"@source_uri": "https://tools.usps.com/UspsToolsRestServices/rest/POLocator/findLocations", "@spider": "usps_collection_boxes", "addr:city": "ELBA", "addr:country": "US", "addr:postcode": "14058", "addr:state": "NY", "addr:street_address": "7 N MAIN ST", "amenity": "post_box", "collection_times": "Mo-Fr 16:30; Sa 11:45", "note": "ON 12/24 AND 12/31, THIS BOX MAY BE COLLECTED AS EARLY AS 12 NOON.", "nsi_id": "unitedstatespostalservice-a77078", "operator": "United States Postal Service", "operator:short": "USPS", "operator:type": "public", "operator:wikidata": "Q668687", "ref": "1405800001"}, "type": "Feature"}
{"geometry": {"coordinates": [-78.186459022, 43.081575045], "type": "Point"}, "id": "uJ8518m8saWACAbPco7yhYyrmkM=", "properties": {"@source_uri": "https://tools.usps.com/UspsToolsRestServices/rest/POLocator/findLocations", "@spider": "usps_collection_boxes", "addr:city": "ELBA", "addr:country": "US", "addr:postcode": "14058", "addr:state": "NY", "addr:street_address": "7 N MAIN ST", "amenity": "post_box", "collection_times": "Mo-Fr 16:45; Sa 12:00", "indoor": "yes", "note": "ON 12/24 AND 12/31, THIS BOX MAY BE COLLECTED AS EARLY AS 12 NOON.", "nsi_id": "unitedstatespostalservice-a77078", "operator": "United States Postal Service", "operator:short": "USPS", "operator:type": "public", "operator:wikidata": "Q668687", "ref": "1405800004"}, "type": "Feature"}
{"geometry": {"coordinates": [-78.636910759, 42.834192745], "type": "Point"}, "id": "73AYz8kBhCCA-zZiz1wE8nqMpy0=", "properties": {"@source_uri": "https://tools.usps.com/UspsToolsRestServices/rest/POLocator/findLocations", "@spider": "usps_collection_boxes", "addr:city": "ELMA", "addr:country": "US", "addr:postcode": "14059", "addr:state": "NY", "addr:street_address": "2300 BOWEN RD", "amenity": "post_box", "collection_times": "Mo-Fr 16:30; Sa 12:00", "note": "ON 12/24 AND 12/31, THIS BOX MAY BE COLLECTED AS EARLY AS 12 NOON.", "nsi_id": "unitedstatespostalservice-a77078", "operator": "United States Postal Service", "operator:short": "USPS", "operator:type": "public", "operator:wikidata": "Q668687", "ref": "1405900004"}, "type": "Feature"}
{"geometry": {"coordinates": [-78.636910759, 42.834192745], "type": "Point"}, "id": "i1KbIS8DjGO69xI1Qx0BT9t2d3E=", "properties": {"@source_uri": "https://tools.usps.com/UspsToolsRestServices/rest/POLocator/findLocations", "@spider": "usps_collection_boxes", "addr:city": "ELMA", "addr:country": "US", "addr:postcode": "14059", "addr:state": "NY", "addr:street_address": "2300 BOWEN RD", "amenity": "post_box", "collection_times": "Mo-Fr 16:30; Sa 12:00", "indoor": "yes", "note": "ON 12/24 AND 12/31, THIS BOX MAY BE COLLECTED AS EARLY AS 12 NOON.", "nsi_id": "unitedstatespostalservice-a77078", "operator": "United States Postal Service", "operator:short": "USPS", "operator:type": "public", "operator:wikidata": "Q668687", "ref": "1405900007"}, "type": "Feature"}
{"geometry": {"coordinates": [-78.360421717, 42.427929454], "type": "Point"}, "id": "LkYOVdIlsGVnKvUWTIeMgx8CRgo=", "properties": {"@source_uri": "https://tools.usps.com/UspsToolsRestServices/rest/POLocator/findLocations", "@spider": "usps_collection_boxes", "addr:city": "FARMERSVL STA", "addr:country": "US", "addr:postcode": "14060", "addr:state": "NY", "addr:street_address": "994 ELTON RD", "amenity": "post_box", "collection_times": "Mo-Fr 16:45; Sa 11:45", "note": "ON 12/24 AND 12/31, THIS BOX MAY BE COLLECTED AS EARLY AS 12 NOON.", "nsi_id": "unitedstatespostalservice-a77078", "operator": "United States Postal Service", "operator:short": "USPS", "operator:type": "public", "operator:wikidata": "Q668687", "ref": "1406000001"}, "type": "Feature"}
{"geometry": {"coordinates": [-78.360421717, 42.427929454], "type": "Point"}, "id": "r4a3r_WiIE4VsrDvvXqJj8p-nqo=", "properties": {"@source_uri": "https://tools.usps.com/UspsToolsRestServices/rest/POLocator/findLocations", "@spider": "usps_collection_boxes", "addr:city": "FARMERSVL STA", "addr:country": "US", "addr:postcode": "14060", "addr:state": "NY", "addr:street_address": "994 ELTON RD", "amenity": "post_box", "collection_times": "Mo-Fr 17:00; Sa 12:00", "indoor": "yes", "note": "ON 12/24 AND 12/31, THIS BOX MAY BE COLLECTED AS EARLY AS 12 NOON.", "nsi_id": "unitedstatespostalservice-a77078", "operator": "United States Postal Service", "operator:short": "USPS", "operator:type": "public", "operator:wikidata": "Q668687", "ref": "1406000004"}, "type": "Feature"}
{"geometry": {"coordinates": [-79.176823784, 42.468573435], "type": "Point"}, "id": "NXHHYiJTgSF8tLedi-LBtig_mZk=", "properties": {"@source_uri": "https://tools.usps.com/UspsToolsRestServices/rest/POLocator/findLocations", "@spider": "usps_collection_boxes", "addr:city": "FORESTVILLE", "addr:country": "US", "addr:postcode": "14062", "addr:state": "NY", "addr:street_address": "17 MAIN ST", "amenity": "post_box", "collection_times": "Mo-Fr 16:30; Sa 12:00", "note": "ON 12/24 AND 12/31, THIS BOX MAY BE COLLECTED AS EARLY AS 12 NOON.", "nsi_id": "unitedstatespostalservice-a77078", "operator": "United States Postal Service", "operator:short": "USPS", "operator:type": "public", "operator:wikidata": "Q668687", "ref": "1406200001"}, "type": "Feature"}
{"geometry": {"coordinates": [-79.176823784, 42.468573435], "type": "Point"}, "id": "bmqFIhsVn-qnEKMGRB7XDZSWbH0=", "properties": {"@source_uri": "https://tools.usps.com/UspsToolsRestServices/rest/POLocator/findLocations", "@spider": "usps_collection_boxes", "addr:city": "FORESTVILLE", "addr:country": "US", "addr:postcode": "14062", "addr:state": "NY", "addr:street_address": "17 MAIN ST", "amenity": "post_box", "collection_times": "Mo-Fr 16:30; Sa 12:00", "indoor": "yes", "note": "ON 12/24 AND 12/31, THIS BOX MAY BE COLLECTED AS EARLY AS 12 NOON.", "nsi_id": "unitedstatespostalservice-a77078", "operator": "United States Postal Service", "operator:short": "USPS", "operator:type": "public", "operator:wikidata": "Q668687", "ref": "1406200004"}, "type": "Feature"}
{"geometry": {"coordinates": [-79.33254468, 42.43983253], "type": "Point"}, "id": "su6r5XWykVgn3Bhoc9TAeNOJ9II=", "properties": {"@source_uri": "https://tools.usps.com/UspsToolsRestServices/rest/POLocator/findLocations", "@spider": "usps_collection_boxes", "addr:city": "FREDONIA", "addr:country": "US", "addr:postcode": "14063", "addr:state": "NY", "addr:street_address": "1 PARK PL", "amenity": "post_box", "collection_times": "Mo-Fr 15:30; Sa 15:00", "note": "ON 12/24 AND 12/31, THIS BOX MAY BE COLLECTED AS EARLY AS 12 NOON.", "nsi_id": "unitedstatespostalservice-a77078", "operator": "United States Postal Service", "operator:short": "USPS", "operator:type": "public", "operator:wikidata": "Q668687", "ref": "1406300003"}, "type": "Feature"}
{"geometry": {"coordinates": [-79.331975803, 42.439648905], "type": "Point"}, "id": "SnXSJlaHnmWu6-oxAFFf81if27k=", "properties": {"@source_uri": "https://tools.usps.com/UspsToolsRestServices/rest/POLocator/findLocations", "@spider": "usps_collection_boxes", "addr:city": "FREDONIA", "addr:country": "US", "addr:postcode": "14063", "addr:state": "NY", "addr:street_address": "16 W MAIN ST", "amenity": "post_box", "collection_times": "Mo-Fr 15:30; Sa 15:00", "note": "ON 12/24 AND 12/31, THIS BOX MAY BE COLLECTED AS EARLY AS 12 NOON.", "nsi_id": "unitedstatespostalservice-a77078", "operator": "United States Postal Service", "operator:short": "USPS", "operator:type": "public", "operator:wikidata": "Q668687", "ref": "1406300005"}, "type": "Feature"}
{"geometry": {"coordinates": [-79.330248284, 42.440660697], "type": "Point"}, "id": "5slr4CG1GX2iqmqML2XRZUYX3Js=", "properties": {"@source_uri": "https://tools.usps.com/UspsToolsRestServices/rest/POLocator/findLocations", "@spider": "usps_collection_boxes", "addr:city": "FREDONIA", "addr:country": "US", "addr:postcode": "14063", "addr:state": "NY", "addr:street_address": "35 E MAIN ST", "amenity": "post_box", "collection_times": "Mo-Fr 15:30; Sa 15:00", "note": "ON 12/24 AND 12/31, THIS BOX MAY BE COLLECTED AS EARLY AS 12 NOON.", "nsi_id": "unitedstatespostalservice-a77078", "operator": "United States Postal Service", "operator:short": "USPS", "operator:type": "public", "operator:wikidata": "Q668687", "ref": "1406300007"}, "type": "Feature"}
{"geometry": {"coordinates": [-79.334059614, 42.453767347], "type": "Point"}, "id": "cVw-afrs8lYVKiTiTre3ZWbxPBo=", "properties": {"@source_uri": "https://tools.usps.com/UspsToolsRestServices/rest/POLocator/findLocations", "@spider": "usps_collection_boxes", "addr:city": "FREDONIA", "addr:country": "US", "addr:postcode": "14063", "addr:state": "NY", "addr:street_address": "280 CENTRAL AVE", "amenity": "post_box", "collection_times": "Mo-Sa 10:00", "nsi_id": "unitedstatespostalservice-a77078", "operator": "United States Postal Service", "operator:short": "USPS", "operator:type": "public", "operator:wikidata": "Q668687", "ref": "1406300018"}, "type": "Feature"}
{"geometry": {"coordinates": [-79.34636722, 42.456078031], "type": "Point"}, "id": "OnEasQLYxY2AvuoVH4JfYmcul6s=", "properties": {"@source_uri": "https://tools.usps.com/UspsToolsRestServices/rest/POLocator/findLocations", "@spider": "usps_collection_boxes", "addr:city": "FREDONIA", "addr:country": "US", "addr:postcode": "14063", "addr:state": "NY", "addr:street_address": "100 BRIGHAM RD", "amenity": "post_box", "collection_times": "Mo-Sa 10:00", "nsi_id": "unitedstatespostalservice-a77078", "operator": "United States Postal Service", "operator:short": "USPS", "operator:type": "public", "operator:wikidata": "Q668687", "ref": "1406300019"}, "type": "Feature"}
{"geometry": {"coordinates": [-79.3074149542, 42.4513174465], "type": "Point"}, "id": "Df4ufStaqdDY1b50yMEw0yRNZkY=", "properties": {"@source_uri": "https://tools.usps.com/UspsToolsRestServices/rest/POLocator/findLocations", "@spider": "usps_collection_boxes", "addr:city": "FREDONIA", "addr:country": "US", "addr:postcode": "14063", "addr:state": "NY", "addr:street_address": "10358 BENNETT RD", "amenity": "post_box", "collection_times": "Mo-Sa 12:30", "note": "ON 12/24 AND 12/31, THIS BOX MAY BE COLLECTED AS EARLY AS 12 NOON.", "nsi_id": "unitedstatespostalservice-a77078", "operator": "United States Postal Service", "operator:short": "USPS", "operator:type": "public", "operator:wikidata": "Q668687", "ref": "1406300036"}, "type": "Feature"}
{"geometry": {"coordinates": [-79.313255632, 42.4538693588], "type": "Point"}, "id": "87XOiJb14ZDv_-CukuCNiGrH6OI=", "properties": {"@source_uri": "https://tools.usps.com/UspsToolsRestServices/rest/POLocator/findLocations", "@spider": "usps_collection_boxes", "addr:city": "FREDONIA", "addr:country": "US", "addr:postcode": "14063", "addr:state": "NY", "addr:street_address": "10401 BENNETT RD", "amenity": "post_box", "collection_times": "Mo-Sa 11:00", "nsi_id": "unitedstatespostalservice-a77078", "operator": "United States Postal Service", "operator:short": "USPS", "operator:type": "public", "operator:wikidata": "Q668687", "ref": "1406300040"}, "type": "Feature"}
{"geometry": {"coordinates": [-79.331779672, 42.441042803], "type": "Point"}, "id": "-YtYl1MV-KtMNh7Ksx8IxYSVkl0=", "properties": {"@source_uri": "https://tools.usps.com/UspsToolsRestServices/rest/POLocator/findLocations", "@spider": "usps_collection_boxes", "addr:city": "FREDONIA", "addr:country": "US", "addr:postcode": "14063", "addr:state": "NY", "addr:street_address": "21 DAY ST", "amenity": "post_box", "collection_times": "Mo-Fr 17:00; Sa 15:00", "note": "ON 12/24 AND 12/31, THIS BOX MAY BE COLLECTED AS EARLY AS 12 NOON.", "nsi_id": "unitedstatespostalservice-a77078", "operator": "United States Postal Service", "operator:short": "USPS", "operator:type": "public", "operator:wikidata": "Q668687", "ref": "1406300050"}, "type": "Feature"}
{"geometry": {"coordinates": [-79.331779672, 42.441042803], "type": "Point"}, "id": "3sX-T5gDzmBnCuZmMrt_yFqT3ug=", "properties": {"@source_uri": "https://tools.usps.com/UspsToolsRestServices/rest/POLocator/findLocations", "@spider": "usps_collection_boxes", "addr:city": "FREDONIA", "addr:country": "US", "addr:postcode": "14063", "addr:state": "NY", "addr:street_address": "21 DAY ST", "amenity": "post_box", "collection_times": "Mo-Fr 17:00; Sa 12:00", "indoor": "yes", "note": "ON 12/24 AND 12/31, THIS BOX MAY BE COLLECTED AS EARLY AS 12 NOON.", "nsi_id": "unitedstatespostalservice-a77078", "operator": "United States Postal Service", "operator:short": "USPS", "operator:type": "public", "operator:wikidata": "Q668687", "ref": "1406300053"}, "type": "Feature"}
{"geometry": {"coordinates": [-78.384982209, 42.497108833], "type": "Point"}, "id": "s6BuMY04nCKyTBdCtfyTZNGVWVc=", "properties": {"@source_uri": "https://tools.usps.com/UspsToolsRestServices/rest/POLocator/findLocations", "@spider": "usps_collection_boxes", "addr:city": "FREEDOM", "addr:country": "US", "addr:postcode": "14065", "addr:state": "NY", "addr:street_address": "11481 ROUTE 98", "amenity": "post_box", "collection_times": "Mo-Fr 15:30; Sa 11:30", "note": "ON 12/24 AND 12/31, THIS BOX MAY BE COLLECTED AS EARLY AS 12 NOON.", "nsi_id": "unitedstatespostalservice-a77078", "operator": "United States Postal Service", "operator:short": "USPS", "operator:type": "public", "operator:wikidata": "Q668687", "ref": "1406500001"}, "type": "Feature"}
{"geometry": {"coordinates": [-78.384982209, 42.497108833], "type": "Point"}, "id": "ED_2E2qfUGYZ_LkkYnqFs8FVroo=", "properties": {"@source_uri": "https://tools.usps.com/UspsToolsRestServices/rest/POLocator/findLocations", "@spider": "usps_collection_boxes", "addr:city": "FREEDOM", "addr:country": "US", "addr:postcode": "14065", "addr:state": "NY", "addr:street_address": "11481 ROUTE 98", "amenity": "post_box", "collection_times": "Mo-Fr 15:30; Sa 12:00", "indoor": "yes", "note": "ON 12/24 AND 12/31, THIS BOX MAY BE COLLECTED AS EARLY AS 12 NOON.", "nsi_id": "unitedstatespostalservice-a77078", "operator": "United States Postal Service", "operator:short": "USPS", "operator:type": "public", "operator:wikidata": "Q668687", "ref": "1406500004"}, "type": "Feature"}
{"geometry": {"coordinates": [-78.134167837, 42.640875283], "type": "Point"}, "id": "Ms2Y8dvaFiyDewufgeAxvJuV3tM=", "properties": {"@source_uri": "https://tools.usps.com/UspsToolsRestServices/rest/POLocator/findLocations", "@spider": "usps_collection_boxes", "addr:city": "GAINESVILLE", "addr:country": "US", "addr:postcode": "14066", "addr:state": "NY", "addr:street_address": "2 S MAIN ST", "amenity": "post_box", "collection_times": "Sa 12:00", "nsi_id": "unitedstatespostalservice-a77078", "operator": "United States Postal Service", "operator:short": "USPS", "operator:type": "public", "operator:wikidata": "Q668687", "ref": "1406600001"}, "type": "Feature"}
{"geometry": {"coordinates": [-78.1587123, 42.625837], "type": "Point"}, "id": "1xoTd7CwISvtMYIoDlAchhuGhiY=", "properties": {"@source_uri": "https://tools.usps.com/UspsToolsRestServices/rest/POLocator/findLocations", "@spider": "usps_collection_boxes", "addr:city": "GAINESVILLE", "addr:country": "US", "addr:postcode": "14066", "addr:state": "NY", "addr:street_address": "2 S MAIN ST", "amenity": "post_box", "collection_times": "Mo-Fr 13:00; Sa 12:00", "indoor": "yes", "note": "ON 12/24 AND 12/31, THIS BOX MAY BE COLLECTED AS EARLY AS 12 NOON.", "nsi_id": "unitedstatespostalservice-a77078", "operator": "United States Postal Service", "operator:short": "USPS", "operator:type": "public", "operator:wikidata": "Q668687", "ref": "1406600004"}, "type": "Feature"}
{"geometry": {"coordinates": [-78.574378645, 43.195020808], "type": "Point"}, "id": "SRfbdnWyFmgIJXYtSgxflH0871U=", "properties": {"@source_uri": "https://tools.usps.com/UspsToolsRestServices/rest/POLocator/findLocations", "@spider": "usps_collection_boxes", "addr:city": "GASPORT", "addr:country": "US", "addr:postcode": "14067", "addr:state": "NY", "addr:street_address": "8391 ROCHESTER RD", "amenity": "post_box", "collection_times": "Mo-Fr 16:45; Sa 12:00", "note": "ON 12/24 AND 12/31, THIS BOX MAY BE COLLECTED AS EARLY AS 12 NOON.", "nsi_id": "unitedstatespostalservice-a77078", "operator": "United States Postal Service", "operator:short": "USPS", "operator:type": "public", "operator:wikidata": "Q668687", "ref": "1406700003"}, "type": "Feature"}
{"geometry": {"coordinates": [-78.574378645, 43.195020808], "type": "Point"}, "id": "nnuoPiM8QkQB5_pyoF1WD20p0Tc=", "properties": {"@source_uri": "https://tools.usps.com/UspsToolsRestServices/rest/POLocator/findLocations", "@spider": "usps_collection_boxes", "addr:city": "GASPORT", "addr:country": "US", "addr:postcode": "14067", "addr:state": "NY", "addr:street_address": "8391 ROCHESTER RD", "amenity": "post_box", "collection_times": "Mo-Fr 17:00; Sa 12:00", "indoor": "yes", "note": "ON 12/24 AND 12/31, THIS BOX MAY BE COLLECTED AS EARLY AS 12 NOON.", "nsi_id": "unitedstatespostalservice-a77078", "operator": "United States Postal Service", "operator:short": "USPS", "operator:type": "public", "operator:wikidata": "Q668687", "ref": "1406700005"}, "type": "Feature"}
{"geometry": {"coordinates": [-78.775668187, 43.009018435], "type": "Point"}, "id": "MzYZ_RNAGxEoRfm37VhnqcLWC8c=", "properties": {"@source_uri": "https://tools.usps.com/UspsToolsRestServices/rest/POLocator/findLocations", "@spider": "usps_collection_boxes", "addr:city": "GETZVILLE", "addr:country": "US", "addr:postcode": "14068", "addr:state": "NY", "addr:street_address": "2351 N FOREST RD", "amenity": "post_box", "collection_times": "Mo-Fr 15:30; Sa 15:00", "note": "ON 12/24 AND 12/31, THIS BOX MAY BE COLLECTED AS EARLY AS 12 NOON.", "nsi_id": "unitedstatespostalservice-a77078", "operator": "United States Postal Service", "operator:short": "USPS", "operator:type": "public", "operator:wikidata": "Q668687", "ref": "1406800003"}, "type": "Feature"}
{"geometry": {"coordinates": [-78.769137256, 43.014064179], "type": "Point"}, "id": "3as1H8PwNen0Uubfc2-VROuN2qg=", "properties": {"@source_uri": "https://tools.usps.com/UspsToolsRestServices/rest/POLocator/findLocations", "@spider": "usps_collection_boxes", "addr:city": "GETZVILLE", "addr:country": "US", "addr:postcode": "14068", "addr:state": "NY", "addr:street_address": "2325 MILLERSPORT HWY", "amenity": "post_box", "collection_times": "Mo-Sa 15:00", "note": "ON 12/24 AND 12/31, THIS BOX MAY BE COLLECTED AS EARLY AS 12 NOON.", "nsi_id": "unitedstatespostalservice-a77078", "operator": "United States Postal Service", "operator:short": "USPS", "operator:type": "public", "operator:wikidata": "Q668687", "ref": "1406800007"}, "type": "Feature"}
{"geometry": {"coordinates": [-78.764441868, 43.019429032], "type": "Point"}, "id": "KAuFP6GRzi9fAZ0FHPr6n5VUDpQ=", "properties": {"@source_uri": "https://tools.usps.com/UspsToolsRestServices/rest/POLocator/findLocations", "@spider": "usps_collection_boxes", "addr:city": "GETZVILLE", "addr:country": "US", "addr:postcode": "14068", "addr:state": "NY", "addr:street_address": "2655 MILLERSPORT HWY", "amenity": "post_box", "collection_times": "Mo-Fr 17:00; Sa 13:00", "note": "ON 12/24 AND 12/31, THIS BOX MAY BE COLLECTED AS EARLY AS 12 NOON.", "nsi_id": "unitedstatespostalservice-a77078", "operator": "United States Postal Service", "operator:short": "USPS", "operator:type": "public", "operator:wikidata": "Q668687", "ref": "1406800009"}, "type": "Feature"}
{"geometry": {"coordinates": [-78.767262, 43.034754513], "type": "Point"}, "id": "zU_MLqbC5XLQEjehfVZMrzPttvw=", "properties": {"@source_uri": "https://tools.usps.com/UspsToolsRestServices/rest/POLocator/findLocations", "@spider": "usps_collection_boxes", "addr:city": "GETZVILLE", "addr:country": "US", "addr:postcode": "14068", "addr:state": "NY", "addr:street_address": "1555 N FRENCH RD", "amenity": "post_box", "collection_times": "Mo-Fr 10:00", "nsi_id": "unitedstatespostalservice-a77078", "operator": "United States Postal Service", "operator:short": "USPS", "operator:type": "public", "operator:wikidata": "Q668687", "ref": "1406800010"}, "type": "Feature"}
{"geometry": {"coordinates": [-78.764441868, 43.019429032], "type": "Point"}, "id": "50w3uFQHZCYdM1ePM2vmNSe3h8I=", "properties": {"@source_uri": "https://tools.usps.com/UspsToolsRestServices/rest/POLocator/findLocations", "@spider": "usps_collection_boxes", "addr:city": "GETZVILLE", "addr:country": "US", "addr:postcode": "14068", "addr:state": "NY", "addr:street_address": "2655 MILLERSPORT HWY", "amenity": "post_box", "collection_times": "Mo-Fr 17:00; Sa 13:00", "name": "USPS COLLECTION BOX - APC", "note": "ON 12/24 AND 12/31, THIS BOX MAY BE COLLECTED AS EARLY AS 12 NOON.", "nsi_id": "unitedstatespostalservice-a77078", "operator": "United States Postal Service", "operator:short": "USPS", "operator:type": "public", "operator:wikidata": "Q668687", "ref": "1406800011"}, "type": "Feature"}
{"geometry": {"coordinates": [-78.764441868, 43.019429032], "type": "Point"}, "id": "fIW_DOEGT0-En-Shf9-Wh8-AGiM=", "properties": {"@source_uri": "https://tools.usps.com/UspsToolsRestServices/rest/POLocator/findLocations", "@spider": "usps_collection_boxes", "addr:city": "GETZVILLE", "addr:country": "US", "addr:postcode": "14068", "addr:state": "NY", "addr:street_address": "2655 MILLERSPORT HWY", "amenity": "post_box", "collection_times": "Mo-Fr 17:00; Sa 12:00", "indoor": "yes", "note": "ON 12/24 AND 12/31, THIS BOX MAY BE COLLECTED AS EARLY AS 12 NOON.", "nsi_id": "unitedstatespostalservice-a77078", "operator": "United States Postal Service", "operator:short": "USPS", "operator:type": "public", "operator:wikidata": "Q668687", "ref": "1406800013"}, "type": "Feature"}
{"geometry": {"coordinates": [-78.654620134, 42.616671757], "type": "Point"}, "id": "c77PfQe2zF2n1f9UPUY--PxvPag=", "properties": {"@source_uri": "https://tools.usps.com/UspsToolsRestServices/rest/POLocator/findLocations", "@spider": "usps_collection_boxes", "addr:city": "GLENWOOD", "addr:country": "US", "addr:postcode": "14069", "addr:state": "NY", "addr:street_address": "9645 STATE RD", "amenity": "post_box", "collection_times": "Mo-Fr 16:45; Sa 11:45", "note": "ON 12/24 AND 12/31, THIS BOX MAY BE COLLECTED AS EARLY AS 12 NOON.", "nsi_id": "unitedstatespostalservice-a77078", "operator": "United States Postal Service", "operator:short": "USPS", "operator:type": "public", "operator:wikidata": "Q668687", "ref": "1406900003"}, "type": "Feature"}
{"geometry": {"coordinates": [-78.654620134, 42.616671757], "type": "Point"}, "id": "vFQFZbjzjKC9avG5HrIZLS2AemQ=", "properties": {"@source_uri": "https://tools.usps.com/UspsToolsRestServices/rest/POLocator/findLocations", "@spider": "usps_collection_boxes", "addr:city": "GLENWOOD", "addr:country": "US", "addr:postcode": "14069", "addr:state": "NY", "addr:street_address": "9645 STATE RD", "amenity": "post_box", "collection_times": "Mo-Fr 17:00; Sa 12:00", "indoor": "yes", "note": "ON 12/24 AND 12/31, THIS BOX MAY BE COLLECTED AS EARLY AS 12 NOON.", "nsi_id": "unitedstatespostalservice-a77078", "operator": "United States Postal Service", "operator:short": "USPS", "operator:type": "public", "operator:wikidata": "Q668687", "ref": "1406900006"}, "type": "Feature"}
{"geometry": {"coordinates": [-78.937269488, 42.46284721], "type": "Point"}, "id": "pchqnXAXNr_MGVANO_hEL0zgUYc=", "properties": {"@source_uri": "https://tools.usps.com/UspsToolsRestServices/rest/POLocator/findLocations", "@spider": "usps_collection_boxes", "addr:city": "GOWANDA", "addr:country": "US", "addr:postcode": "14070", "addr:state": "NY", "addr:street_address": "63 W MAIN ST", "amenity": "post_box", "collection_times": "Mo-Fr 16:30; Sa 15:30", "note": "ON 12/24 AND 12/31, THIS BOX MAY BE COLLECTED AS EARLY AS 12 NOON.", "nsi_id": "unitedstatespostalservice-a77078", "operator": "United States Postal Service", "operator:short": "USPS", "operator:type": "public", "operator:wikidata": "Q668687", "ref": "1407000001"}, "type": "Feature"}
{"geometry": {"coordinates": [-78.935617616, 42.47198736], "type": "Point"}, "id": "qVomqHW1vosp7KkWPUm8HGvWKuw=", "properties": {"@source_uri": "https://tools.usps.com/UspsToolsRestServices/rest/POLocator/findLocations", "@spider": "usps_collection_boxes", "addr:city": "GOWANDA", "addr:country": "US", "addr:postcode": "14070", "addr:state": "NY", "addr:street_address": "290 BUFFALO ST", "amenity": "post_box", "collection_times": "Mo-Sa 13:15", "note": "ON 12/24 AND 12/31, THIS BOX MAY BE COLLECTED AS EARLY AS 12 NOON.", "nsi_id": "unitedstatespostalservice-a77078", "operator": "United States Postal Service", "operator:short": "USPS", "operator:type": "public", "operator:wikidata": "Q668687", "ref": "1407000009"}, "type": "Feature"}
{"geometry": {"coordinates": [-78.93717978, 42.462758728], "type": "Point"}, "id": "OQovHxn79mxX4y1L6F0kwVVTWLI=", "properties": {"@source_uri": "https://tools.usps.com/UspsToolsRestServices/rest/POLocator/findLocations", "@spider": "usps_collection_boxes", "addr:city": "GOWANDA", "addr:country": "US", "addr:postcode": "14070", "addr:state": "NY", "addr:street_address": "62 W MAIN ST", "amenity": "post_box", "collection_times": "Mo-Fr 16:30; Sa 15:30", "note": "ON 12/24 AND 12/31, THIS BOX MAY BE COLLECTED AS EARLY AS 12 NOON.", "nsi_id": "unitedstatespostalservice-a77078", "operator": "United States Postal Service", "operator:short": "USPS", "operator:type": "public", "operator:wikidata": "Q668687", "ref": "1407000012"}, "type": "Feature"}
{"geometry": {"coordinates": [-78.9369847276, 42.4628422784], "type": "Point"}, "id": "zHbDKRn0E678UoH5NH_re_ieGdI=", "properties": {"@source_uri": "https://tools.usps.com/UspsToolsRestServices/rest/POLocator/findLocations", "@spider": "usps_collection_boxes", "addr:city": "GOWANDA", "addr:country": "US", "addr:postcode": "14070", "addr:state": "NY", "addr:street_address": "53 W MAIN ST", "amenity": "post_box", "collection_times": "Mo-Sa 15:15", "note": "ON 12/24 AND 12/31, THIS BOX MAY BE COLLECTED AS EARLY AS 12 NOON.", "nsi_id": "unitedstatespostalservice-a77078", "operator": "United States Postal Service", "operator:short": "USPS", "operator:type": "public", "operator:wikidata": "Q668687", "ref": "1407000017"}, "type": "Feature"}
{"geometry": {"coordinates": [-78.937269488, 42.46284721], "type": "Point"}, "id": "GVy4cXZ94OQ5JZdSdNQQVNWAGr4=", "properties": {"@source_uri": "https://tools.usps.com/UspsToolsRestServices/rest/POLocator/findLocations", "@spider": "usps_collection_boxes", "addr:city": "GOWANDA", "addr:country": "US", "addr:postcode": "14070", "addr:state": "NY", "addr:street_address": "63 W MAIN ST", "amenity": "post_box", "collection_times": "Mo-Fr 16:30; Sa 12:00", "indoor": "yes", "note": "ON 12/24 AND 12/31, THIS BOX MAY BE COLLECTED AS EARLY AS 12 NOON.", "nsi_id": "unitedstatespostalservice-a77078", "operator": "United States Postal Service", "operator:short": "USPS", "operator:type": "public", "operator:wikidata": "Q668687", "ref": "1407000019"}, "type": "Feature"}
{"geometry": {"coordinates": [-78.96581545, 43.027576973], "type": "Point"}, "id": "2ctrf7546sxpYn1p9rKyRdpG4Ig=", "properties": {"@source_uri": "https://tools.usps.com/UspsToolsRestServices/rest/POLocator/findLocations", "@spider": "usps_collection_boxes", "addr:city": "GRAND ISLAND", "addr:country": "US", "addr:postcode": "14072", "addr:state": "NY", "addr:street_address": "2391 BASELINE RD", "amenity": "post_box", "collection_times": "Mo-Fr 17:00; Sa 15:00", "note": "ON 12/24 AND 12/31, THIS BOX MAY BE COLLECTED AS EARLY AS 12 NOON.", "nsi_id": "unitedstatespostalservice-a77078", "operator": "United States Postal Service", "operator:short": "USPS", "operator:type": "public", "operator:wikidata": "Q668687", "ref": "1407200001"}, "type": "Feature"}
{"geometry": {"coordinates": [-78.967595601, 43.026932772], "type": "Point"}, "id": "9JZWefwxWQoHpcMoSsnDVHJgSrM=", "properties": {"@source_uri": "https://tools.usps.com/UspsToolsRestServices/rest/POLocator/findLocations", "@spider": "usps_collection_boxes", "addr:city": "GRAND ISLAND", "addr:country": "US", "addr:postcode": "14072", "addr:state": "NY", "addr:street_address": "2391 GRAND ISLAND BLVD", "amenity": "post_box", "collection_times": "Mo-Sa 10:00", "nsi_id": "unitedstatespostalservice-a77078", "operator": "United States Postal Service", "operator:short": "USPS", "operator:type": "public", "operator:wikidata": "Q668687", "ref": "1407200019"}, "type": "Feature"}
{"geometry": {"coordinates": [-78.962246943, 43.021130442], "type": "Point"}, "id": "bbFegAVQnVVtPaV6ahanGVbDe88=", "properties": {"@source_uri": "https://tools.usps.com/UspsToolsRestServices/rest/POLocator/findLocations", "@spider": "usps_collection_boxes", "addr:city": "GRAND ISLAND", "addr:country": "US", "addr:postcode": "14072", "addr:state": "NY", "addr:street_address": "2160 GRAND ISLAND BLVD", "amenity": "post_box", "collection_times": "Mo-Sa 14:00", "note": "ON 12/24 AND 12/31, THIS BOX MAY BE COLLECTED AS EARLY AS 12 NOON.", "nsi_id": "unitedstatespostalservice-a77078", "operator": "United States Postal Service", "operator:short": "USPS", "operator:type": "public", "operator:wikidata": "Q668687", "ref": "1407200021"}, "type": "Feature"}
{"geometry": {"coordinates": [-78.957364028, 42.996162497], "type": "Point"}, "id": "0tjierT1sqlhASSylas12TlIkAg=", "properties": {"@source_uri": "https://tools.usps.com/UspsToolsRestServices/rest/POLocator/findLocations", "@spider": "usps_collection_boxes", "addr:city": "GRAND ISLAND", "addr:country": "US", "addr:postcode": "14072", "addr:state": "NY", "addr:street_address": "1787 LOVE RD", "amenity": "post_box", "collection_times": "Mo-Sa 14:00", "note": "ON 12/24 AND 12/31, THIS BOX MAY BE COLLECTED AS EARLY AS 12 NOON.", "nsi_id": "unitedstatespostalservice-a77078", "operator": "United States Postal Service", "operator:short": "USPS", "operator:type": "public", "operator:wikidata": "Q668687", "ref": "1407200022"}, "type": "Feature"}
{"geometry": {"coordinates": [-78.9657134, 43.022642018], "type": "Point"}, "id": "tstS4KgUgJhBSz3cH87Go9T9m4o=", "properties": {"@source_uri": "https://tools.usps.com/UspsToolsRestServices/rest/POLocator/findLocations", "@spider": "usps_collection_boxes", "addr:city": "GRAND ISLAND", "addr:country": "US", "addr:postcode": "14072", "addr:state": "NY", "addr:street_address": "2255 BASELINE RD", "amenity": "post_box", "collection_times": "Mo-Sa 14:00", "note": "ON 12/24 AND 12/31, THIS BOX MAY BE COLLECTED AS EARLY AS 12 NOON.", "nsi_id": "unitedstatespostalservice-a77078", "operator": "United States Postal Service", "operator:short": "USPS", "operator:type": "public", "operator:wikidata": "Q668687", "ref": "1407200024"}, "type": "Feature"}
{"geometry": {"coordinates": [-78.96581545, 43.027576973], "type": "Point"}, "id": "7Vz16ejyn_zQFaRwprI6TeCDJDU=", "properties": {"@source_uri": "https://tools.usps.com/UspsToolsRestServices/rest/POLocator/findLocations", "@spider": "usps_collection_boxes", "addr:city": "GRAND ISLAND", "addr:country": "US", "addr:postcode": "14072", "addr:state": "NY", "addr:street_address": "2391 BASELINE RD", "amenity": "post_box", "collection_times": "Mo-Fr 17:00; Sa 15:00", "name": "USPS COLLECTION BOX - APC", "note": "ON 12/24 AND 12/31, THIS BOX MAY BE COLLECTED AS EARLY AS 12 NOON.", "nsi_id": "unitedstatespostalservice-a77078", "operator": "United States Postal Service", "operator:short": "USPS", "operator:type": "public", "operator:wikidata": "Q668687", "ref": "1407200030"}, "type": "Feature"}
{"geometry": {"coordinates": [-78.96581545, 43.027576973], "type": "Point"}, "id": "fOQ9R7a3ww5JExPwuR8tL07jHX4=", "properties": {"@source_uri": "https://tools.usps.com/UspsToolsRestServices/rest/POLocator/findLocations", "@spider": "usps_collection_boxes", "addr:city": "GRAND ISLAND", "addr:country": "US", "addr:postcode": "14072", "addr:state": "NY", "addr:street_address": "2391 BASELINE RD", "amenity": "post_box", "collection_times": "Mo-Fr 17:00; Sa 12:00", "indoor": "yes", "note": "ON 12/24 AND 12/31, THIS BOX MAY BE COLLECTED AS EARLY AS 12 NOON.", "nsi_id": "unitedstatespostalservice-a77078", "operator": "United States Postal Service", "operator:short": "USPS", "operator:type": "public", "operator:wikidata": "Q668687", "ref": "1407200034"}, "type": "Feature"}
{"geometry": {"coordinates": [-78.903376657, 42.74592909], "type": "Point"}, "id": "aVx8ktlW2SuOf4FpVaPY1kH1eAU=", "properties": {"@source_uri": "https://tools.usps.com/UspsToolsRestServices/rest/POLocator/findLocations", "@spider": "usps_collection_boxes", "addr:city": "HAMBURG", "addr:country": "US", "addr:postcode": "14075", "addr:state": "NY", "addr:street_address": "5017 LAKE SHORE RD", "amenity": "post_box", "collection_times": "Mo-Sa 09:00", "nsi_id": "unitedstatespostalservice-a77078", "operator": "United States Postal Service", "operator:short": "USPS", "operator:type": "public", "operator:wikidata": "Q668687", "ref": "1407500004"}, "type": "Feature"}
{"geometry": {"coordinates": [-78.825633135, 42.727779136], "type": "Point"}, "id": "SLjOcIfSk9_W-RxUPghq_6ayJxc=", "properties": {"@source_uri": "https://tools.usps.com/UspsToolsRestServices/rest/POLocator/findLocations", "@spider": "usps_collection_boxes", "addr:city": "HAMBURG", "addr:country": "US", "addr:postcode": "14075", "addr:state": "NY", "addr:street_address": "6150 S PARK AVE", "amenity": "post_box", "collection_times": "Mo-Fr 09:00; Sa 12:00", "nsi_id": "unitedstatespostalservice-a77078", "operator": "United States Postal Service", "operator:short": "USPS", "operator:type": "public", "operator:wikidata": "Q668687", "ref": "1407500008"}, "type": "Feature"}
{"geometry": {"coordinates": [-78.828265088, 42.719449188], "type": "Point"}, "id": "NeAYKJxWW-DIndADBATMhf1Rjc0=", "properties": {"@source_uri": "https://tools.usps.com/UspsToolsRestServices/rest/POLocator/findLocations", "@spider": "usps_collection_boxes", "addr:city": "HAMBURG", "addr:country": "US", "addr:postcode": "14075", "addr:state": "NY", "addr:street_address": "141 BUFFALO ST", "amenity": "post_box", "collection_times": "Mo-Fr 09:00; Sa 12:00", "nsi_id": "unitedstatespostalservice-a77078", "operator": "United States Postal Service", "operator:short": "USPS", "operator:type": "public", "operator:wikidata": "Q668687", "ref": "1407500012"}, "type": "Feature"}
{"geometry": {"coordinates": [-78.844769581, 42.72902754], "type": "Point"}, "id": "E2BN_WEacRhPHyVHJ_N88w84xc8=", "properties": {"@source_uri": "https://tools.usps.com/UspsToolsRestServices/rest/POLocator/findLocations", "@spider": "usps_collection_boxes", "addr:city": "HAMBURG", "addr:country": "US", "addr:postcode": "14075", "addr:state": "NY", "addr:street_address": "8 BYRD DR", "amenity": "post_box", "collection_times": "Mo-Sa 09:00", "nsi_id": "unitedstatespostalservice-a77078", "operator": "United States Postal Service", "operator:short": "USPS", "operator:type": "public", "operator:wikidata": "Q668687", "ref": "1407500013"}, "type": "Feature"}
{"geometry": {"coordinates": [-78.844309851, 42.737230012], "type": "Point"}, "id": "uMzvcj3vpVriNP2gQNS4q8QIDls=", "properties": {"@source_uri": "https://tools.usps.com/UspsToolsRestServices/rest/POLocator/findLocations", "@spider": "usps_collection_boxes", "addr:city": "HAMBURG", "addr:country": "US", "addr:postcode": "14075", "addr:state": "NY", "addr:street_address": "513 SUNSET DR", "amenity": "post_box", "collection_times": "Mo-Sa 09:00", "nsi_id": "unitedstatespostalservice-a77078", "operator": "United States Postal Service", "operator:short": "USPS", "operator:type": "public", "operator:wikidata": "Q668687", "ref": "1407500014"}, "type": "Feature"}
{"geometry": {"coordinates": [-78.849732155, 42.771999155], "type": "Point"}, "id": "LGxzOoYdOMH_6MU4R_ZzvuTtEfo=", "properties": {"@source_uri": "https://tools.usps.com/UspsToolsRestServices/rest/POLocator/findLocations", "@spider": "usps_collection_boxes", "addr:city": "HAMBURG", "addr:country": "US", "addr:postcode": "14075", "addr:state": "NY", "addr:street_address": "3641 BIG TREE RD", "amenity": "post_box", "collection_times": "Mo-Sa 09:00", "nsi_id": "unitedstatespostalservice-a77078", "operator": "United States Postal Service", "operator:short": "USPS", "operator:type": "public", "operator:wikidata": "Q668687", "ref": "1407500023"}, "type": "Feature"}
{"geometry": {"coordinates": [-78.820023222, 42.721841496], "type": "Point"}, "id": "x71rvZnIIvEna_iP4nVxa7MEIlw=", "properties": {"@source_uri": "https://tools.usps.com/UspsToolsRestServices/rest/POLocator/findLocations", "@spider": "usps_collection_boxes", "addr:city": "HAMBURG", "addr:country": "US", "addr:postcode": "14075", "addr:state": "NY", "addr:street_address": "155 E PROSPECT AVE", "amenity": "post_box", "collection_times": "Mo-Sa 09:00", "nsi_id": "unitedstatespostalservice-a77078", "operator": "United States Postal Service", "operator:short": "USPS", "operator:type": "public", "operator:wikidata": "Q668687", "ref": "1407500026"}, "type": "Feature"}
{"geometry": {"coordinates": [-78.839067367, 42.722896978], "type": "Point"}, "id": "DEq_9DrURHB6wsJdRniCHYIvxiU=", "properties": {"@source_uri": "https://tools.usps.com/UspsToolsRestServices/rest/POLocator/findLocations", "@spider": "usps_collection_boxes", "addr:city": "HAMBURG", "addr:country": "US", "addr:postcode": "14075", "addr:state": "NY", "addr:street_address": "206 LAKE ST", "amenity": "post_box", "collection_times": "Mo-Fr 09:00; Sa 12:00", "nsi_id": "unitedstatespostalservice-a77078", "operator": "United States Postal Service", "operator:short": "USPS", "operator:type": "public", "operator:wikidata": "Q668687", "ref": "1407500032"}, "type": "Feature"}
{"geometry": {"coordinates": [-78.879323459, 42.762252459], "type": "Point"}, "id": "Rf7o4_60Fpiy0hbJwpejQA2jPwI=", "properties": {"@source_uri": "https://tools.usps.com/UspsToolsRestServices/rest/POLocator/findLocations", "@spider": "usps_collection_boxes", "addr:city": "HAMBURG", "addr:country": "US", "addr:postcode": "14075", "addr:state": "NY", "addr:street_address": "4481 LAKE SHORE RD", "amenity": "post_box", "collection_times": "Mo-Fr 09:00; Sa 12:00", "nsi_id": "unitedstatespostalservice-a77078", "operator": "United States Postal Service", "operator:short": "USPS", "operator:type": "public", "operator:wikidata": "Q668687", "ref": "1407500034"}, "type": "Feature"}
{"geometry": {"coordinates": [-78.899054686, 42.748772094], "type": "Point"}, "id": "eqBcA70jXFXtuvm4xjZ9kb58T8Y=", "properties": {"@source_uri": "https://tools.usps.com/UspsToolsRestServices/rest/POLocator/findLocations", "@spider": "usps_collection_boxes", "addr:city": "HAMBURG", "addr:country": "US", "addr:postcode": "14075", "addr:state": "NY", "addr:street_address": "4931 LAKE SHORE RD", "amenity": "post_box", "collection_times": "Mo-Sa 09:00", "nsi_id": "unitedstatespostalservice-a77078", "operator": "United States Postal Service", "operator:short": "USPS", "operator:type": "public", "operator:wikidata": "Q668687", "ref": "1407500035"}, "type": "Feature"}
{"geometry": {"coordinates": [-78.829794, 42.715906479], "type": "Point"}, "id": "oxIeI1gqqRwKnG7MOirfAcdD-Fo=", "properties": {"@source_uri": "https://tools.usps.com/UspsToolsRestServices/rest/POLocator/findLocations", "@spider": "usps_collection_boxes", "addr:city": "HAMBURG", "addr:country": "US", "addr:postcode": "14075", "addr:state": "NY", "addr:street_address": "11 MAIN ST", "amenity": "post_box", "collection_times": "Mo-Fr 09:00; Sa 12:00", "nsi_id": "unitedstatespostalservice-a77078", "operator": "United States Postal Service", "operator:short": "USPS", "operator:type": "public", "operator:wikidata": "Q668687", "ref": "1407500036"}, "type": "Feature"}
{"geometry": {"coordinates": [-78.81164789, 42.768188141], "type": "Point"}, "id": "uVDk-NO-X1jJMTJ1b5QlRkHarx0=", "properties": {"@source_uri": "https://tools.usps.com/UspsToolsRestServices/rest/POLocator/findLocations", "@spider": "usps_collection_boxes", "addr:city": "HAMBURG", "addr:country": "US", "addr:postcode": "14075", "addr:state": "NY", "addr:street_address": "4250 MCKINLEY PKWY", "amenity": "post_box", "collection_times": "Mo-Sa 09:00", "nsi_id": "unitedstatespostalservice-a77078", "operator": "United States Postal Service", "operator:short": "USPS", "operator:type": "public", "operator:wikidata": "Q668687", "ref": "1407500039"}, "type": "Feature"}
{"geometry": {"coordinates": [-78.825577366, 42.731163534], "type": "Point"}, "id": "_7ol5ZofdcMf95Qb0H9oD5CCE3w=", "properties": {"@source_uri": "https://tools.usps.com/UspsToolsRestServices/rest/POLocator/findLocations", "@spider": "usps_collection_boxes", "addr:city": "HAMBURG", "addr:country": "US", "addr:postcode": "14075", "addr:state": "NY", "addr:street_address": "5999 S PARK AVE", "amenity": "post_box", "collection_times": "Mo-Fr 09:00; Sa 12:00", "nsi_id": "unitedstatespostalservice-a77078", "operator": "United States Postal Service", "operator:short": "USPS", "operator:type": "public", "operator:wikidata": "Q668687", "ref": "1407500046"}, "type": "Feature"}
{"geometry": {"coordinates": [-78.868165812, 42.742335434], "type": "Point"}, "id": "mbI8leh4OLluGx_z4MhVDP1Vr2w=", "properties": {"@source_uri": "https://tools.usps.com/UspsToolsRestServices/rest/POLocator/findLocations", "@spider": "usps_collection_boxes", "addr:city": "HAMBURG", "addr:country": "US", "addr:postcode": "14075", "addr:state": "NY", "addr:street_address": "5334 SOUTHWESTERN BLVD", "amenity": "post_box", "collection_times": "Mo-Sa 09:00", "nsi_id": "unitedstatespostalservice-a77078", "operator": "United States Postal Service", "operator:short": "USPS", "operator:type": "public", "operator:wikidata": "Q668687", "ref": "1407500051"}, "type": "Feature"}
{"geometry": {"coordinates": [-78.825573161, 42.729138273], "type": "Point"}, "id": "H4S1ZzsnwqfUNLbA-qCT3zFG-qg=", "properties": {"@source_uri": "https://tools.usps.com/UspsToolsRestServices/rest/POLocator/findLocations", "@spider": "usps_collection_boxes", "addr:city": "HAMBURG", "addr:country": "US", "addr:postcode": "14075", "addr:state": "NY", "addr:street_address": "6100 S PARK AVE", "amenity": "post_box", "collection_times": "Mo-Fr 15:00; Sa 12:00", "note": "ON 12/24 AND 12/31, THIS BOX MAY BE COLLECTED AS EARLY AS 12 NOON.", "nsi_id": "unitedstatespostalservice-a77078", "operator": "United States Postal Service", "operator:short": "USPS", "operator:type": "public", "operator:wikidata": "Q668687", "ref": "1407500057"}, "type": "Feature"}
{"geometry": {"coordinates": [-78.826330996, 42.751461473], "type": "Point"}, "id": "pFswN0w58KB37uBRIFWjdUo5kYI=", "properties": {"@source_uri": "https://tools.usps.com/UspsToolsRestServices/rest/POLocator/findLocations", "@spider": "usps_collection_boxes", "addr:city": "HAMBURG", "addr:country": "US", "addr:postcode": "14075", "addr:state": "NY", "addr:street_address": "4150 SOWLES RD", "amenity": "post_box", "collection_times": "Mo-Sa 09:00", "nsi_id": "unitedstatespostalservice-a77078", "operator": "United States Postal Service", "operator:short": "USPS", "operator:type": "public", "operator:wikidata": "Q668687", "ref": "1407500059"}, "type": "Feature"}
{"geometry": {"coordinates": [-78.83020053, 42.714527487], "type": "Point"}, "id": "ogizWb4z9c2EGOaDn4c-Mgpi5wc=", "properties": {"@source_uri": "https://tools.usps.com/UspsToolsRestServices/rest/POLocator/findLocations", "@spider": "usps_collection_boxes", "addr:city": "HAMBURG", "addr:country": "US", "addr:postcode": "14075", "addr:state": "NY", "addr:street_address": "17 LONG AVE", "amenity": "post_box", "collection_times": "Mo-Fr 09:00; Sa 12:00", "nsi_id": "unitedstatespostalservice-a77078", "operator": "United States Postal Service", "operator:short": "USPS", "operator:type": "public", "operator:wikidata": "Q668687", "ref": "1407500064"}, "type": "Feature"}
{"geometry": {"coordinates": [-78.830661255, 42.760635576], "type": "Point"}, "id": "xu_KFRgS29oRzRv74Yu1Mn0gPBU=", "properties": {"@source_uri": "https://tools.usps.com/UspsToolsRestServices/rest/POLocator/findLocations", "@spider": "usps_collection_boxes", "addr:city": "HAMBURG", "addr:country": "US", "addr:postcode": "14075", "addr:state": "NY", "addr:street_address": "4591 SOUTHWESTERN BLVD", "amenity": "post_box", "collection_times": "Mo-Sa 09:00", "nsi_id": "unitedstatespostalservice-a77078", "operator": "United States Postal Service", "operator:short": "USPS", "operator:type": "public", "operator:wikidata": "Q668687", "ref": "1407500067"}, "type": "Feature"}
{"geometry": {"coordinates": [-78.869498133, 42.741597488], "type": "Point"}, "id": "wdZ09qEtSLHT3qtUwCXd8_mcvFE=", "properties": {"@source_uri": "https://tools.usps.com/UspsToolsRestServices/rest/POLocator/findLocations", "@spider": "usps_collection_boxes", "addr:city": "HAMBURG", "addr:country": "US", "addr:postcode": "14075", "addr:state": "NY", "addr:street_address": "5360 SOUTHWESTERN BLVD", "amenity": "post_box", "collection_times": "Mo-Sa 09:00", "nsi_id": "unitedstatespostalservice-a77078", "operator": "United States Postal Service", "operator:short": "USPS", "operator:type": "public", "operator:wikidata": "Q668687", "ref": "1407500069"}, "type": "Feature"}
{"geometry": {"coordinates": [-78.831238642, 42.716014436], "type": "Point"}, "id": "TpF69zj7CqNf8NMyfI2KkK1ZwWI=", "properties": {"@source_uri": "https://tools.usps.com/UspsToolsRestServices/rest/POLocator/findLocations", "@spider": "usps_collection_boxes", "addr:city": "HAMBURG", "addr:country": "US", "addr:postcode": "14075", "addr:state": "NY", "addr:street_address": "43 MAIN ST", "amenity": "post_box", "collection_times": "Mo-Fr 09:00; Sa 12:00", "nsi_id": "unitedstatespostalservice-a77078", "operator": "United States Postal Service", "operator:short": "USPS", "operator:type": "public", "operator:wikidata": "Q668687", "ref": "1407500070"}, "type": "Feature"}
{"geometry": {"coordinates": [-78.850618975, 42.751733209], "type": "Point"}, "id": "vC4sI8M_5OHdeCOgnKENb3cKSHo=", "properties": {"@source_uri": "https://tools.usps.com/UspsToolsRestServices/rest/POLocator/findLocations", "@spider": "usps_collection_boxes", "addr:city": "HAMBURG", "addr:country": "US", "addr:postcode": "14075", "addr:state": "NY", "addr:street_address": "4981 SOUTHWESTERN BLVD", "amenity": "post_box", "collection_times": "Mo-Sa 09:00", "nsi_id": "unitedstatespostalservice-a77078", "operator": "United States Postal Service", "operator:short": "USPS", "operator:type": "public", "operator:wikidata": "Q668687", "ref": "1407500072"}, "type": "Feature"}
{"geometry": {"coordinates": [-78.837412558, 42.727311631], "type": "Point"}, "id": "OqQ7R3pQRlSmsKyRsglxahLUyxw=", "properties": {"@source_uri": "https://tools.usps.com/UspsToolsRestServices/rest/POLocator/findLocations", "@spider": "usps_collection_boxes", "addr:city": "HAMBURG", "addr:country": "US", "addr:postcode": "14075", "addr:state": "NY", "addr:street_address": "5893 CAMP RD", "amenity": "post_box", "collection_times": "Mo-Fr 09:00; Sa 12:00", "nsi_id": "unitedstatespostalservice-a77078", "operator": "United States Postal Service", "operator:short": "USPS", "operator:type": "public", "operator:wikidata": "Q668687", "ref": "1407500076"}, "type": "Feature"}
{"geometry": {"coordinates": [-78.765849472, 42.684000461], "type": "Point"}, "id": "F00qQI468x1KOWnYEXHKEYq-Ifk=", "properties": {"@source_uri": "https://tools.usps.com/UspsToolsRestServices/rest/POLocator/findLocations", "@spider": "usps_collection_boxes", "addr:city": "HAMBURG", "addr:country": "US", "addr:postcode": "14075", "addr:state": "NY", "addr:street_address": "7375 BOSTON STATE RD", "amenity": "post_box", "collection_times": "Mo-Sa 09:00", "nsi_id": "unitedstatespostalservice-a77078", "operator": "United States Postal Service", "operator:short": "USPS", "operator:type": "public", "operator:wikidata": "Q668687", "ref": "1407500080"}, "type": "Feature"}
{"geometry": {"coordinates": [-78.843305408, 42.737427843], "type": "Point"}, "id": "Vnn-kALMNuFPx6cnJyHnWHzryMw=", "properties": {"@source_uri": "https://tools.usps.com/UspsToolsRestServices/rest/POLocator/findLocations", "@spider": "usps_collection_boxes", "addr:city": "HAMBURG", "addr:country": "US", "addr:postcode": "14075", "addr:state": "NY", "addr:street_address": "5501 CAMP RD", "amenity": "post_box", "collection_times": "Mo-Fr 17:00; Sa 16:00", "name": "USPS COLLECTION BOX - APC", "note": "ON 12/24 AND 12/31, THIS BOX MAY BE COLLECTED AS EARLY AS 12 NOON.", "nsi_id": "unitedstatespostalservice-a77078", "operator": "United States Postal Service", "operator:short": "USPS", "operator:type": "public", "operator:wikidata": "Q668687", "ref": "1407500081"}, "type": "Feature"}
{"geometry": {"coordinates": [-78.876379375, 42.744108681], "type": "Point"}, "id": "GNMCMvhfIXsvsJgf74ldudms0wc=", "properties": {"@source_uri": "https://tools.usps.com/UspsToolsRestServices/rest/POLocator/findLocations", "@spider": "usps_collection_boxes", "addr:city": "HAMBURG", "addr:country": "US", "addr:postcode": "14075", "addr:state": "NY", "addr:street_address": "5260 ROGERS RD", "amenity": "post_box", "collection_times": "Mo-Sa 09:00", "nsi_id": "unitedstatespostalservice-a77078", "operator": "United States Postal Service", "operator:short": "USPS", "operator:type": "public", "operator:wikidata": "Q668687", "ref": "1407500082"}, "type": "Feature"}
{"geometry": {"coordinates": [-78.825678323, 42.765551879], "type": "Point"}, "id": "Ghs89EV3h2W_DXsG7fwjjVLdznM=", "properties": {"@source_uri": "https://tools.usps.com/UspsToolsRestServices/rest/POLocator/findLocations", "@spider": "usps_collection_boxes", "addr:city": "HAMBURG", "addr:country": "US", "addr:postcode": "14075", "addr:state": "NY", "addr:street_address": "4551 BAY VIEW RD", "amenity": "post_box", "collection_times": "Mo-Fr 15:00; Sa 12:00", "note": "ON 12/24 AND 12/31, THIS BOX MAY BE COLLECTED AS EARLY AS 12 NOON.", "nsi_id": "unitedstatespostalservice-a77078", "operator": "United States Postal Service", "operator:short": "USPS", "operator:type": "public", "operator:wikidata": "Q668687", "ref": "1407500083"}, "type": "Feature"}
{"geometry": {"coordinates": [-78.843305408, 42.737427843], "type": "Point"}, "id": "p37eyfmH_BcedAeERFMQ_f0P648=", "properties": {"@source_uri": "https://tools.usps.com/UspsToolsRestServices/rest/POLocator/findLocations", "@spider": "usps_collection_boxes", "addr:city": "HAMBURG", "addr:country": "US", "addr:postcode": "14075", "addr:state": "NY", "addr:street_address": "5501 CAMP RD", "amenity": "post_box", "collection_times": "Mo-Fr 17:00; Sa 16:00", "indoor": "yes", "note": "ON 12/24 AND 12/31, THIS BOX MAY BE COLLECTED AS EARLY AS 12 NOON.", "nsi_id": "unitedstatespostalservice-a77078", "operator": "United States Postal Service", "operator:short": "USPS", "operator:type": "public", "operator:wikidata": "Q668687", "ref": "1407500086"}, "type": "Feature"}
{"geometry": {"coordinates": [-78.843305408, 42.737427843], "type": "Point"}, "id": "CeLN1upxYmFXLs0tYhzTRkl1qOw=", "properties": {"@source_uri": "https://tools.usps.com/UspsToolsRestServices/rest/POLocator/findLocations", "@spider": "usps_collection_boxes", "addr:city": "HAMBURG", "addr:country": "US", "addr:postcode": "14075", "addr:state": "NY", "addr:street_address": "5501 CAMP RD", "amenity": "post_box", "collection_times": "Mo-Fr 17:00; Sa 16:00", "note": "ON 12/24 AND 12/31, THIS BOX MAY BE COLLECTED AS EARLY AS 12 NOON.", "nsi_id": "unitedstatespostalservice-a77078", "operator": "United States Postal Service", "operator:short": "USPS", "operator:type": "public", "operator:wikidata": "Q668687", "ref": "1407500087"}, "type": "Feature"}
{"geometry": {"coordinates": [-78.851317948, 42.772017155], "type": "Point"}, "id": "u7qkG0jZCS0A9b8kxLf7ZII1q90=", "properties": {"@source_uri": "https://tools.usps.com/UspsToolsRestServices/rest/POLocator/findLocations", "@spider": "usps_collection_boxes", "addr:city": "HAMBURG", "addr:country": "US", "addr:postcode": "14075", "addr:state": "NY", "addr:street_address": "3611 BIG TREE RD", "amenity": "post_box", "collection_times": "Mo-Sa 09:00", "nsi_id": "unitedstatespostalservice-a77078", "operator": "United States Postal Service", "operator:short": "USPS", "operator:type": "public", "operator:wikidata": "Q668687", "ref": "1407500089"}, "type": "Feature"}
{"geometry": {"coordinates": [-78.843305408, 42.737427843], "type": "Point"}, "id": "p7g-QA6oIwumAD99cBMPoF019w0=", "properties": {"@source_uri": "https://tools.usps.com/UspsToolsRestServices/rest/POLocator/findLocations", "@spider": "usps_collection_boxes", "addr:city": "HAMBURG", "addr:country": "US", "addr:postcode": "14075", "addr:state": "NY", "addr:street_address": "5501 CAMP RD", "amenity": "post_box", "collection_times": "Mo-Fr 17:00; Sa 13:00", "indoor": "yes", "note": "ON 12/24 AND 12/31, THIS BOX MAY BE COLLECTED AS EARLY AS 12 NOON.", "nsi_id": "unitedstatespostalservice-a77078", "operator": "United States Postal Service", "operator:short": "USPS", "operator:type": "public", "operator:wikidata": "Q668687", "ref": "1407500094"}, "type": "Feature"}
{"geometry": {"coordinates": [-78.551752506, 42.651307524], "type": "Point"}, "id": "DsN-Ih1h8VvbZ25BVXYaxhAdoo0=", "properties": {"@source_uri": "https://tools.usps.com/UspsToolsRestServices/rest/POLocator/findLocations", "@spider": "usps_collection_boxes", "addr:city": "HOLLAND", "addr:country": "US", "addr:postcode": "14080", "addr:state": "NY", "addr:street_address": "11765 PARTRIDGE RD", "amenity": "post_box", "collection_times": "Mo-Fr 17:00; Sa 12:00", "note": "ON 12/24 AND 12/31, THIS BOX MAY BE COLLECTED AS EARLY AS 12 NOON.", "nsi_id": "unitedstatespostalservice-a77078", "operator": "United States Postal Service", "operator:short": "USPS", "operator:type": "public", "operator:wikidata": "Q668687", "ref": "1408000003"}, "type": "Feature"}
{"geometry": {"coordinates": [-78.551752506, 42.651307524], "type": "Point"}, "id": "cM5sP884D5dml9X3Y0xV2IES1MY=", "properties": {"@source_uri": "https://tools.usps.com/UspsToolsRestServices/rest/POLocator/findLocations", "@spider": "usps_collection_boxes", "addr:city": "HOLLAND", "addr:country": "US", "addr:postcode": "14080", "addr:state": "NY", "addr:street_address": "11765 PARTRIDGE RD", "amenity": "post_box", "collection_times": "Mo-Fr 17:00; Sa 12:00", "indoor": "yes", "note": "ON 12/24 AND 12/31, THIS BOX MAY BE COLLECTED AS EARLY AS 12 NOON.", "nsi_id": "unitedstatespostalservice-a77078", "operator": "United States Postal Service", "operator:short": "USPS", "operator:type": "public", "operator:wikidata": "Q668687", "ref": "1408000004"}, "type": "Feature"}
{"geometry": {"coordinates": [-78.551752506, 42.651307524], "type": "Point"}, "id": "qDv01-R2sREJjw3FJvTbcWHM4QI=", "properties": {"@source_uri": "https://tools.usps.com/UspsToolsRestServices/rest/POLocator/findLocations", "@spider": "usps_collection_boxes", "addr:city": "HOLLAND", "addr:country": "US", "addr:postcode": "14080", "addr:state": "NY", "addr:street_address": "11765 PARTRIDGE RD", "amenity": "post_box", "collection_times": "Mo-Fr 17:00; Sa 12:00", "indoor": "yes", "note": "ON 12/24 AND 12/31, THIS BOX MAY BE COLLECTED AS EARLY AS 12 NOON.", "nsi_id": "unitedstatespostalservice-a77078", "operator": "United States Postal Service", "operator:short": "USPS", "operator:type": "public", "operator:wikidata": "Q668687", "ref": "1408000006"}, "type": "Feature"}
{"geometry": {"coordinates": [-79.111221408, 42.564879272], "type": "Point"}, "id": "q6kF4p1Kei2dI_gjsNc08Awhecg=", "properties": {"@source_uri": "https://tools.usps.com/UspsToolsRestServices/rest/POLocator/findLocations", "@spider": "usps_collection_boxes", "addr:city": "IRVING", "addr:country": "US", "addr:postcode": "14081", "addr:state": "NY", "addr:street_address": "12746 ERIE ST", "amenity": "post_box", "collection_times": "Mo-Fr 16:30; Sa 12:00", "note": "ON 12/24 AND 12/31, THIS BOX MAY BE COLLECTED AS EARLY AS 12 NOON.", "nsi_id": "unitedstatespostalservice-a77078", "operator": "United States Postal Service", "operator:short": "USPS", "operator:type": "public", "operator:wikidata": "Q668687", "ref": "1408100001"}, "type": "Feature"}
{"geometry": {"coordinates": [-79.111221408, 42.564879272], "type": "Point"}, "id": "JpfacubHJ0JEeDx8L2K9oFwAUbI=", "properties": {"@source_uri": "https://tools.usps.com/UspsToolsRestServices/rest/POLocator/findLocations", "@spider": "usps_collection_boxes", "addr:city": "IRVING", "addr:country": "US", "addr:postcode": "14081", "addr:state": "NY", "addr:street_address": "12746 ERIE ST", "amenity": "post_box", "collection_times": "Mo-Fr 17:00; Sa 12:00", "indoor": "yes", "note": "ON 12/24 AND 12/31, THIS BOX MAY BE COLLECTED AS EARLY AS 12 NOON.", "nsi_id": "unitedstatespostalservice-a77078", "operator": "United States Postal Service", "operator:short": "USPS", "operator:type": "public", "operator:wikidata": "Q668687", "ref": "1408100004"}, "type": "Feature"}
{"geometry": {"coordinates": [-79.0875306, 42.5972569], "type": "Point"}, "id": "Y0lI_lrKMndhLgf0UCSo3pC5Cno=", "properties": {"@source_uri": "https://tools.usps.com/UspsToolsRestServices/rest/POLocator/findLocations", "@spider": "usps_collection_boxes", "addr:city": "IRVING", "addr:country": "US", "addr:postcode": "14081", "addr:state": "NY", "addr:street_address": "526 COMMERCIAL ST", "amenity": "post_box", "collection_times": "Mo-Sa 10:00", "nsi_id": "unitedstatespostalservice-a77078", "operator": "United States Postal Service", "operator:short": "USPS", "operator:type": "public", "operator:wikidata": "Q668687", "ref": "1408100005"}, "type": "Feature"}
{"geometry": {"coordinates": [-78.387133584, 42.650100512], "type": "Point"}, "id": "lUloIWZ76UtcESN-l2JeELPWmtU=", "properties": {"@source_uri": "https://tools.usps.com/UspsToolsRestServices/rest/POLocator/findLocations", "@spider": "usps_collection_boxes", "addr:city": "JAVA CENTER", "addr:country": "US", "addr:postcode": "14082", "addr:state": "NY", "addr:street_address": "1423 ROUTE 78", "amenity": "post_box", "collection_times": "Mo-Fr 12:00; Sa 11:45", "nsi_id": "unitedstatespostalservice-a77078", "operator": "United States Postal Service", "operator:short": "USPS", "operator:type": "public", "operator:wikidata": "Q668687", "ref": "1408200001"}, "type": "Feature"}
{"geometry": {"coordinates": [-78.387133584, 42.650100512], "type": "Point"}, "id": "slsJAPFW2cM5ySoJSJvvk_Wb_Ho=", "properties": {"@source_uri": "https://tools.usps.com/UspsToolsRestServices/rest/POLocator/findLocations", "@spider": "usps_collection_boxes", "addr:city": "JAVA CENTER", "addr:country": "US", "addr:postcode": "14082", "addr:state": "NY", "addr:street_address": "1423 ROUTE 78", "amenity": "post_box", "collection_times": "Mo-Sa 12:00", "indoor": "yes", "nsi_id": "unitedstatespostalservice-a77078", "operator": "United States Postal Service", "operator:short": "USPS", "operator:type": "public", "operator:wikidata": "Q668687", "ref": "1408200006"}, "type": "Feature"}
{"geometry": {"coordinates": [-78.445740264, 42.690870546], "type": "Point"}, "id": "Eov4ZF7LrGNV_QjtHJLfz4ybU98=", "properties": {"@source_uri": "https://tools.usps.com/UspsToolsRestServices/rest/POLocator/findLocations", "@spider": "usps_collection_boxes", "addr:city": "JAVA VILLAGE", "addr:country": "US", "addr:postcode": "14083", "addr:state": "NY", "addr:street_address": "4530 MAIN ST", "amenity": "post_box", "collection_times": "Mo-Fr 12:00; Sa 11:30", "nsi_id": "unitedstatespostalservice-a77078", "operator": "United States Postal Service", "operator:short": "USPS", "operator:type": "public", "operator:wikidata": "Q668687", "ref": "1408300001"}, "type": "Feature"}
{"geometry": {"coordinates": [-78.445740264, 42.690870546], "type": "Point"}, "id": "euyGXGB3TzK3pnBLgugTbVmEYFU=", "properties": {"@source_uri": "https://tools.usps.com/UspsToolsRestServices/rest/POLocator/findLocations", "@spider": "usps_collection_boxes", "addr:city": "JAVA VILLAGE", "addr:country": "US", "addr:postcode": "14083", "addr:state": "NY", "addr:street_address": "4530 MAIN ST", "amenity": "post_box", "collection_times": "Mo-Sa 12:00", "indoor": "yes", "nsi_id": "unitedstatespostalservice-a77078", "operator": "United States Postal Service", "operator:short": "USPS", "operator:type": "public", "operator:wikidata": "Q668687", "ref": "1408300004"}, "type": "Feature"}
{"geometry": {"coordinates": [-78.9180961712, 42.7089518368], "type": "Point"}, "id": "bkKbPbhVE4Kb5gQ51Hg0BSeVEVA=", "properties": {"@source_uri": "https://tools.usps.com/UspsToolsRestServices/rest/POLocator/findLocations", "@spider": "usps_collection_boxes", "addr:city": "LAKEVIEW", "addr:country": "US", "addr:postcode": "14085", "addr:state": "NY", "addr:street_address": "6550 SOUTHWESTERN BLVD", "amenity": "post_box", "collection_times": "Mo-Sa 10:00", "nsi_id": "unitedstatespostalservice-a77078", "operator": "United States Postal Service", "operator:short": "USPS", "operator:type": "public", "operator:wikidata": "Q668687", "ref": "1408500006"}, "type": "Feature"}
{"geometry": {"coordinates": [-78.914263501, 42.71102185], "type": "Point"}, "id": "EY2jJeuyeuCGH26RcZ9I3pYohyU=", "properties": {"@source_uri": "https://tools.usps.com/UspsToolsRestServices/rest/POLocator/findLocations", "@spider": "usps_collection_boxes", "addr:city": "LAKEVIEW", "addr:country": "US", "addr:postcode": "14085", "addr:state": "NY", "addr:street_address": "6472 SOUTHWESTERN BLVD", "amenity": "post_box", "collection_times": "Mo-Fr 17:00; Sa 12:00", "note": "ON 12/24 AND 12/31, THIS BOX MAY BE COLLECTED AS EARLY AS 12 NOON.", "nsi_id": "unitedstatespostalservice-a77078", "operator": "United States Postal Service", "operator:short": "USPS", "operator:type": "public", "operator:wikidata": "Q668687", "ref": "1408500008"}, "type": "Feature"}
{"geometry": {"coordinates": [-78.914263501, 42.71102185], "type": "Point"}, "id": "cEYgx3Rk88ZrqkCLhG_-LbxX0gM=", "properties": {"@source_uri": "https://tools.usps.com/UspsToolsRestServices/rest/POLocator/findLocations", "@spider": "usps_collection_boxes", "addr:city": "LAKEVIEW", "addr:country": "US", "addr:postcode": "14085", "addr:state": "NY", "addr:street_address": "6472 SOUTHWESTERN BLVD", "amenity": "post_box", "collection_times": "Mo-Fr 17:00; Sa 12:00", "indoor": "yes", "note": "ON 12/24 AND 12/31, THIS BOX MAY BE COLLECTED AS EARLY AS 12 NOON.", "nsi_id": "unitedstatespostalservice-a77078", "operator": "United States Postal Service", "operator:short": "USPS", "operator:type": "public", "operator:wikidata": "Q668687", "ref": "1408500009"}, "type": "Feature"}
{"geometry": {"coordinates": [-78.670414977, 42.901182], "type": "Point"}, "id": "GN8XanHCSKsMKPKTJMFHLMPAVXk=", "properties": {"@source_uri": "https://tools.usps.com/UspsToolsRestServices/rest/POLocator/findLocations", "@spider": "usps_collection_boxes", "addr:city": "LANCASTER", "addr:country": "US", "addr:postcode": "14086", "addr:state": "NY", "addr:street_address": "21 CENTRAL AVE", "amenity": "post_box", "collection_times": "Mo-Fr 14:00", "note": "ON 12/24 AND 12/31, THIS BOX MAY BE COLLECTED AS EARLY AS 12 NOON.", "nsi_id": "unitedstatespostalservice-a77078", "operator": "United States Postal Service", "operator:short": "USPS", "operator:type": "public", "operator:wikidata": "Q668687", "ref": "1408600009"}, "type": "Feature"}
{"geometry": {"coordinates": [-78.684158861, 42.892794568], "type": "Point"}, "id": "S2R1GiMyMTW8Lkin3ESFl60lwDE=", "properties": {"@source_uri": "https://tools.usps.com/UspsToolsRestServices/rest/POLocator/findLocations", "@spider": "usps_collection_boxes", "addr:city": "LANCASTER", "addr:country": "US", "addr:postcode": "14086", "addr:state": "NY", "addr:street_address": "1821 COMO PARK BLVD", "amenity": "post_box", "collection_times": "Mo-Fr 14:00; Sa 12:00", "note": "ON 12/24 AND 12/31, THIS BOX MAY BE COLLECTED AS EARLY AS 12 NOON.", "nsi_id": "unitedstatespostalservice-a77078", "operator": "United States Postal Service", "operator:short": "USPS", "operator:type": "public", "operator:wikidata": "Q668687", "ref": "1408600013"}, "type": "Feature"}
{"geometry": {"coordinates": [-78.676134914, 42.880627199], "type": "Point"}, "id": "K2jgPTNMfN05LcemiQqmZCJzWeA=", "properties": {"@source_uri": "https://tools.usps.com/UspsToolsRestServices/rest/POLocator/findLocations", "@spider": "usps_collection_boxes", "addr:city": "LANCASTER", "addr:country": "US", "addr:postcode": "14086", "addr:state": "NY", "addr:street_address": "4935 WILLIAM ST", "amenity": "post_box", "collection_times": "Mo-Fr 14:00; Sa 12:00", "note": "ON 12/24 AND 12/31, THIS BOX MAY BE COLLECTED AS EARLY AS 12 NOON.", "nsi_id": "unitedstatespostalservice-a77078", "operator": "United States Postal Service", "operator:short": "USPS", "operator:type": "public", "operator:wikidata": "Q668687", "ref": "1408600021"}, "type": "Feature"}
{"geometry": {"coordinates": [-78.676714586, 42.881229618], "type": "Point"}, "id": "9Kk_24Z_VT4LHmYEHU5_qODrTYY=", "properties": {"@source_uri": "https://tools.usps.com/UspsToolsRestServices/rest/POLocator/findLocations", "@spider": "usps_collection_boxes", "addr:city": "LANCASTER", "addr:country": "US", "addr:postcode": "14086", "addr:state": "NY", "addr:street_address": "470 AURORA ST", "amenity": "post_box", "collection_times": "Mo-Fr 14:00; Sa 12:00", "note": "ON 12/24 AND 12/31, THIS BOX MAY BE COLLECTED AS EARLY AS 12 NOON.", "nsi_id": "unitedstatespostalservice-a77078", "operator": "United States Postal Service", "operator:short": "USPS", "operator:type": "public", "operator:wikidata": "Q668687", "ref": "1408600023"}, "type": "Feature"}
{"geometry": {"coordinates": [-78.67102614, 42.900221072], "type": "Point"}, "id": "ttDEQ0dO1Na95qYVJIdEXQKYM6o=", "properties": {"@source_uri": "https://tools.usps.com/UspsToolsRestServices/rest/POLocator/findLocations", "@spider": "usps_collection_boxes", "addr:city": "LANCASTER", "addr:country": "US", "addr:postcode": "14086", "addr:state": "NY", "addr:street_address": "5406 BROADWAY ST", "amenity": "post_box", "collection_times": "Mo-Fr 17:00; Sa 12:00", "indoor": "yes", "note": "ON 12/24 AND 12/31, THIS BOX MAY BE COLLECTED AS EARLY AS 12 NOON.", "nsi_id": "unitedstatespostalservice-a77078", "operator": "United States Postal Service", "operator:short": "USPS", "operator:type": "public", "operator:wikidata": "Q668687", "ref": "1408600026"}, "type": "Feature"}
{"geometry": {"coordinates": [-78.930735667, 42.537194749], "type": "Point"}, "id": "5HF6Sn0ARdbdvlTGgBZMIV2pJiY=", "properties": {"@source_uri": "https://tools.usps.com/UspsToolsRestServices/rest/POLocator/findLocations", "@spider": "usps_collection_boxes", "addr:city": "LAWTONS", "addr:country": "US", "addr:postcode": "14091", "addr:state": "NY", "addr:street_address": "12525 GOWANDA STATE RD", "amenity": "post_box", "collection_times": "Mo-Fr 16:45; Sa 11:45", "note": "ON 12/24 AND 12/31, THIS BOX MAY BE COLLECTED AS EARLY AS 12 NOON.", "nsi_id": "unitedstatespostalservice-a77078", "operator": "United States Postal Service", "operator:short": "USPS", "operator:type": "public", "operator:wikidata": "Q668687", "ref": "1409100001"}, "type": "Feature"}
{"geometry": {"coordinates": [-78.930735667, 42.537194749], "type": "Point"}, "id": "zE6yJmDMJnKhjxYBdmzuL-Nxc48=", "properties": {"@source_uri": "https://tools.usps.com/UspsToolsRestServices/rest/POLocator/findLocations", "@spider": "usps_collection_boxes", "addr:city": "LAWTONS", "addr:country": "US", "addr:postcode": "14091", "addr:state": "NY", "addr:street_address": "12525 GOWANDA STATE RD", "amenity": "post_box", "collection_times": "Mo-Fr 17:00; Sa 12:00", "indoor": "yes", "note": "ON 12/24 AND 12/31, THIS BOX MAY BE COLLECTED AS EARLY AS 12 NOON.", "nsi_id": "unitedstatespostalservice-a77078", "operator": "United States Postal Service", "operator:short": "USPS", "operator:type": "public", "operator:wikidata": "Q668687", "ref": "1409100004"}, "type": "Feature"}
{"geometry": {"coordinates": [-79.035846316, 43.171432649], "type": "Point"}, "id": "HlA1vQRzzG6-wiqAv7GAMm2L32U=", "properties": {"@source_uri": "https://tools.usps.com/UspsToolsRestServices/rest/POLocator/findLocations", "@spider": "usps_collection_boxes", "addr:city": "LEWISTON", "addr:country": "US", "addr:postcode": "14092", "addr:state": "NY", "addr:street_address": "150 S 8TH ST", "amenity": "post_box", "collection_times": "Mo-Fr 17:00; Sa 15:30", "note": "ON 12/24 AND 12/31, THIS BOX MAY BE COLLECTED AS EARLY AS 12 NOON.", "nsi_id": "unitedstatespostalservice-a77078", "operator": "United States Postal Service", "operator:short": "USPS", "operator:type": "public", "operator:wikidata": "Q668687", "ref": "1409200002"}, "type": "Feature"}
{"geometry": {"coordinates": [-79.037862239, 43.172500553], "type": "Point"}, "id": "AsvCzIDAnehxSJ57dEhfwIqeOBA=", "properties": {"@source_uri": "https://tools.usps.com/UspsToolsRestServices/rest/POLocator/findLocations", "@spider": "usps_collection_boxes", "addr:city": "LEWISTON", "addr:country": "US", "addr:postcode": "14092", "addr:state": "NY", "addr:street_address": "721 CENTER ST", "amenity": "post_box", "collection_times": "Mo-Sa 10:00", "nsi_id": "unitedstatespostalservice-a77078", "operator": "United States Postal Service", "operator:short": "USPS", "operator:type": "public", "operator:wikidata": "Q668687", "ref": "1409200010"}, "type": "Feature"}
{"geometry": {"coordinates": [-79.031242148, 43.172636527], "type": "Point"}, "id": "-ujPNUilfxdsbRyMnauTkZuLk-Q=", "properties": {"@source_uri": "https://tools.usps.com/UspsToolsRestServices/rest/POLocator/findLocations", "@spider": "usps_collection_boxes", "addr:city": "LEWISTON", "addr:country": "US", "addr:postcode": "14092", "addr:state": "NY", "addr:street_address": "906 CENTER ST", "amenity": "post_box", "collection_times": "Mo-Sa 14:30", "note": "ON 12/24 AND 12/31, THIS BOX MAY BE COLLECTED AS EARLY AS 12 NOON.", "nsi_id": "unitedstatespostalservice-a77078", "operator": "United States Postal Service", "operator:short": "USPS", "operator:type": "public", "operator:wikidata": "Q668687", "ref": "1409200011"}, "type": "Feature"}
{"geometry": {"coordinates": [-79.02965365, 43.153755309], "type": "Point"}, "id": "xf3Bx8YcodbywTlyP-hmiDX4k4g=", "properties": {"@source_uri": "https://tools.usps.com/UspsToolsRestServices/rest/POLocator/findLocations", "@spider": "usps_collection_boxes", "addr:city": "LEWISTON", "addr:country": "US", "addr:postcode": "14092", "addr:state": "NY", "addr:street_address": "5320 MILITARY RD", "amenity": "post_box", "collection_times": "Mo-Sa 09:00", "nsi_id": "unitedstatespostalservice-a77078", "operator": "United States Postal Service", "operator:short": "USPS", "operator:type": "public", "operator:wikidata": "Q668687", "ref": "1409200013"}, "type": "Feature"}
{"geometry": {"coordinates": [-79.044458702, 43.174136388], "type": "Point"}, "id": "1-uROv9Fv8iGHHJ9GOMUonniekI=", "properties": {"@source_uri": "https://tools.usps.com/UspsToolsRestServices/rest/POLocator/findLocations", "@spider": "usps_collection_boxes", "addr:city": "LEWISTON", "addr:country": "US", "addr:postcode": "14092", "addr:state": "NY", "addr:street_address": "145 N 4TH ST", "amenity": "post_box", "collection_times": "Mo-Sa 10:00", "nsi_id": "unitedstatespostalservice-a77078", "operator": "United States Postal Service", "operator:short": "USPS", "operator:type": "public", "operator:wikidata": "Q668687", "ref": "1409200018"}, "type": "Feature"}
{"geometry": {"coordinates": [-79.035846316, 43.171432649], "type": "Point"}, "id": "_Jpqy-Lwj-WLNLyrFyW4rELxh3M=", "properties": {"@source_uri": "https://tools.usps.com/UspsToolsRestServices/rest/POLocator/findLocations", "@spider": "usps_collection_boxes", "addr:city": "LEWISTON", "addr:country": "US", "addr:postcode": "14092", "addr:state": "NY", "addr:street_address": "150 S 8TH ST", "amenity": "post_box", "collection_times": "Mo-Fr 17:00; Sa 12:00", "indoor": "yes", "note": "ON 12/24 AND 12/31, THIS BOX MAY BE COLLECTED AS EARLY AS 12 NOON.", "nsi_id": "unitedstatespostalservice-a77078", "operator": "United States Postal Service", "operator:short": "USPS", "operator:type": "public", "operator:wikidata": "Q668687", "ref": "1409200023"}, "type": "Feature"}
{"geometry": {"coordinates": [-78.643020479, 43.180717109], "type": "Point"}, "id": "eiyqKVfE9MHTZrND6OyldXsbtkg=", "properties": {"@source_uri": "https://tools.usps.com/UspsToolsRestServices/rest/POLocator/findLocations", "@spider": "usps_collection_boxes", "addr:city": "LOCKPORT", "addr:country": "US", "addr:postcode": "14094", "addr:state": "NY", "addr:street_address": "7134 CHESTNUT RIDGE RD", "amenity": "post_box", "collection_times": "Mo-Sa 09:00", "nsi_id": "unitedstatespostalservice-a77078", "operator": "United States Postal Service", "operator:short": "USPS", "operator:type": "public", "operator:wikidata": "Q668687", "ref": "1409400009"}, "type": "Feature"}
{"geometry": {"coordinates": [-78.696852874, 43.149896445], "type": "Point"}, "id": "VuC1PQBZEMy9TUcbcUUdomDKHXs=", "properties": {"@source_uri": "https://tools.usps.com/UspsToolsRestServices/rest/POLocator/findLocations", "@spider": "usps_collection_boxes", "addr:city": "LOCKPORT", "addr:country": "US", "addr:postcode": "14094", "addr:state": "NY", "addr:street_address": "5679 S TRANSIT RD", "amenity": "post_box", "collection_times": "Mo-Sa 09:00", "nsi_id": "unitedstatespostalservice-a77078", "operator": "United States Postal Service", "operator:short": "USPS", "operator:type": "public", "operator:wikidata": "Q668687", "ref": "1409400015"}, "type": "Feature"}
{"geometry": {"coordinates": [-78.665590133, 43.154018696], "type": "Point"}, "id": "ElER3QENfFfKZ1fzl_FixwTLrDk=", "properties": {"@source_uri": "https://tools.usps.com/UspsToolsRestServices/rest/POLocator/findLocations", "@spider": "usps_collection_boxes", "addr:city": "LOCKPORT", "addr:country": "US", "addr:postcode": "14094", "addr:state": "NY", "addr:street_address": "859 DAVISON RD", "amenity": "post_box", "collection_times": "Mo-Sa 09:00", "nsi_id": "unitedstatespostalservice-a77078", "operator": "United States Postal Service", "operator:short": "USPS", "operator:type": "public", "operator:wikidata": "Q668687", "ref": "1409400016"}, "type": "Feature"}
{"geometry": {"coordinates": [-78.672551718, 43.175521113], "type": "Point"}, "id": "XCeSjnfH37VLZO1OtvhFItfGs18=", "properties": {"@source_uri": "https://tools.usps.com/UspsToolsRestServices/rest/POLocator/findLocations", "@spider": "usps_collection_boxes", "addr:city": "LOCKPORT", "addr:country": "US", "addr:postcode": "14094", "addr:state": "NY", "addr:street_address": "54 LEVAN AVE", "amenity": "post_box", "collection_times": "Mo-Sa 09:00", "nsi_id": "unitedstatespostalservice-a77078", "operator": "United States Postal Service", "operator:short": "USPS", "operator:type": "public", "operator:wikidata": "Q668687", "ref": "1409400021"}, "type": "Feature"}
{"geometry": {"coordinates": [-78.696804302, 43.159824335], "type": "Point"}, "id": "LdSeVjgj2GiESUxpkBSW3_FfBJY=", "properties": {"@source_uri": "https://tools.usps.com/UspsToolsRestServices/rest/POLocator/findLocations", "@spider": "usps_collection_boxes", "addr:city": "LOCKPORT", "addr:country": "US", "addr:postcode": "14094", "addr:state": "NY", "addr:street_address": "280 S TRANSIT ST", "amenity": "post_box", "collection_times": "Mo-Sa 09:00", "nsi_id": "unitedstatespostalservice-a77078", "operator": "United States Postal Service", "operator:short": "USPS", "operator:type": "public", "operator:wikidata": "Q668687", "ref": "1409400026"}, "type": "Feature"}
{"geometry": {"coordinates": [-78.696543389, 43.154218543], "type": "Point"}, "id": "Ms4jgJHaAjsLT2S0Jqld-gPeHh0=", "properties": {"@source_uri": "https://tools.usps.com/UspsToolsRestServices/rest/POLocator/findLocations", "@spider": "usps_collection_boxes", "addr:city": "LOCKPORT", "addr:country": "US", "addr:postcode": "14094", "addr:state": "NY", "addr:street_address": "6 LINCOLN AVE", "amenity": "post_box", "collection_times": "Mo-Sa 09:00", "nsi_id": "unitedstatespostalservice-a77078", "operator": "United States Postal Service", "operator:short": "USPS", "operator:type": "public", "operator:wikidata": "Q668687", "ref": "1409400027"}, "type": "Feature"}
{"geometry": {"coordinates": [-78.6989835, 43.168871501], "type": "Point"}, "id": "xZwCf3hSscdNzDuauOMgjCe6U04=", "properties": {"@source_uri": "https://tools.usps.com/UspsToolsRestServices/rest/POLocator/findLocations", "@spider": "usps_collection_boxes", "addr:city": "LOCKPORT", "addr:country": "US", "addr:postcode": "14094", "addr:state": "NY", "addr:street_address": "59 PARK AVE", "amenity": "post_box", "collection_times": "Mo-Sa 09:00", "nsi_id": "unitedstatespostalservice-a77078", "operator": "United States Postal Service", "operator:short": "USPS", "operator:type": "public", "operator:wikidata": "Q668687", "ref": "1409400032"}, "type": "Feature"}
{"geometry": {"coordinates": [-78.676915168, 43.22164013], "type": "Point"}, "id": "gZuwf7IxE7hKvCSPj-xWZg-2Wa4=", "properties": {"@source_uri": "https://tools.usps.com/UspsToolsRestServices/rest/POLocator/findLocations", "@spider": "usps_collection_boxes", "addr:city": "LOCKPORT", "addr:country": "US", "addr:postcode": "14094", "addr:state": "NY", "addr:street_address": "3949 LOCKPORT OLCOTT RD", "amenity": "post_box", "collection_times": "Mo-Sa 09:30", "nsi_id": "unitedstatespostalservice-a77078", "operator": "United States Postal Service", "operator:short": "USPS", "operator:type": "public", "operator:wikidata": "Q668687", "ref": "1409400033"}, "type": "Feature"}
{"geometry": {"coordinates": [-78.690044709, 43.170918167], "type": "Point"}, "id": "pAZ6p5MmpXkZtWW5mdQ-kXjAhQE=", "properties": {"@source_uri": "https://tools.usps.com/UspsToolsRestServices/rest/POLocator/findLocations", "@spider": "usps_collection_boxes", "addr:city": "LOCKPORT", "addr:country": "US", "addr:postcode": "14094", "addr:state": "NY", "addr:street_address": "12 MARKET ST", "amenity": "post_box", "collection_times": "Mo-Sa 09:00", "nsi_id": "unitedstatespostalservice-a77078", "operator": "United States Postal Service", "operator:short": "USPS", "operator:type": "public", "operator:wikidata": "Q668687", "ref": "1409400038"}, "type": "Feature"}
{"geometry": {"coordinates": [-78.687754082, 43.132075495], "type": "Point"}, "id": "4K3IxKzI5TQQ7hQTJllg-YHCQAk=", "properties": {"@source_uri": "https://tools.usps.com/UspsToolsRestServices/rest/POLocator/findLocations", "@spider": "usps_collection_boxes", "addr:city": "LOCKPORT", "addr:country": "US", "addr:postcode": "14094", "addr:state": "NY", "addr:street_address": "6310 ROBINSON RD", "amenity": "post_box", "collection_times": "Mo-Sa 09:00", "nsi_id": "unitedstatespostalservice-a77078", "operator": "United States Postal Service", "operator:short": "USPS", "operator:type": "public", "operator:wikidata": "Q668687", "ref": "1409400048"}, "type": "Feature"}
{"geometry": {"coordinates": [-78.696854874, 43.141482], "type": "Point"}, "id": "XorW7KRaTgmx_2I3QXD-7PD61cY=", "properties": {"@source_uri": "https://tools.usps.com/UspsToolsRestServices/rest/POLocator/findLocations", "@spider": "usps_collection_boxes", "addr:city": "LOCKPORT", "addr:country": "US", "addr:postcode": "14094", "addr:state": "NY", "addr:street_address": "5827 S TRANSIT RD", "amenity": "post_box", "collection_times": "Mo-Sa 09:00", "nsi_id": "unitedstatespostalservice-a77078", "operator": "United States Postal Service", "operator:short": "USPS", "operator:type": "public", "operator:wikidata": "Q668687", "ref": "1409400050"}, "type": "Feature"}
{"geometry": {"coordinates": [-78.684223336, 43.172071172], "type": "Point"}, "id": "FlNLrF7uKXFamm_YU-cQPiczEd8=", "properties": {"@source_uri": "https://tools.usps.com/UspsToolsRestServices/rest/POLocator/findLocations", "@spider": "usps_collection_boxes", "addr:city": "LOCKPORT", "addr:country": "US", "addr:postcode": "14094", "addr:state": "NY", "addr:street_address": "138 EAST AVE", "amenity": "post_box", "collection_times": "Mo-Fr 17:00; Sa 14:00", "note": "ON 12/24 AND 12/31, THIS BOX MAY BE COLLECTED AS EARLY AS 12 NOON.", "nsi_id": "unitedstatespostalservice-a77078", "operator": "United States Postal Service", "operator:short": "USPS", "operator:type": "public", "operator:wikidata": "Q668687", "ref": "1409400051"}, "type": "Feature"}
{"geometry": {"coordinates": [-78.684223336, 43.172071172], "type": "Point"}, "id": "58m_FMdtDKL5-IZWNgWjf0qs09w=", "properties": {"@source_uri": "https://tools.usps.com/UspsToolsRestServices/rest/POLocator/findLocations", "@spider": "usps_collection_boxes", "addr:city": "LOCKPORT", "addr:country": "US", "addr:postcode": "14094", "addr:state": "NY", "addr:street_address": "138 EAST AVE", "amenity": "post_box", "collection_times": "Mo-Fr 17:00; Sa 14:00", "name": "USPS COLLECTION BOX - APC", "note": "ON 12/24 AND 12/31, THIS BOX MAY BE COLLECTED AS EARLY AS 12 NOON.", "nsi_id": "unitedstatespostalservice-a77078", "operator": "United States Postal Service", "operator:short": "USPS", "operator:type": "public", "operator:wikidata": "Q668687", "ref": "1409400060"}, "type": "Feature"}
{"geometry": {"coordinates": [-78.684223336, 43.172071172], "type": "Point"}, "id": "X5_Iz8FA-Z6H0m0sgpDBodTW_Is=", "properties": {"@source_uri": "https://tools.usps.com/UspsToolsRestServices/rest/POLocator/findLocations", "@spider": "usps_collection_boxes", "addr:city": "LOCKPORT", "addr:country": "US", "addr:postcode": "14094", "addr:state": "NY", "addr:street_address": "138 EAST AVE", "amenity": "post_box", "collection_times": "Mo-Fr 17:00; Sa 12:00", "indoor": "yes", "note": "ON 12/24 AND 12/31, THIS BOX MAY BE COLLECTED AS EARLY AS 12 NOON.", "nsi_id": "unitedstatespostalservice-a77078", "operator": "United States Postal Service", "operator:short": "USPS", "operator:type": "public", "operator:wikidata": "Q668687", "ref": "1409400065"}, "type": "Feature"}
{"geometry": {"coordinates": [-78.388800734, 43.320807838], "type": "Point"}, "id": "7YPqrz96wmsKg9YBWLpBSjN-L6I=", "properties": {"@source_uri": "https://tools.usps.com/UspsToolsRestServices/rest/POLocator/findLocations", "@spider": "usps_collection_boxes", "addr:city": "LYNDONVILLE", "addr:country": "US", "addr:postcode": "14098", "addr:state": "NY", "addr:street_address": "18 S MAIN ST", "amenity": "post_box", "collection_times": "Mo-Fr 16:30; Sa 12:00", "note": "ON 12/24 AND 12/31, THIS BOX MAY BE COLLECTED AS EARLY AS 12 NOON.", "nsi_id": "unitedstatespostalservice-a77078", "operator": "United States Postal Service", "operator:short": "USPS", "operator:type": "public", "operator:wikidata": "Q668687", "ref": "1409800001"}, "type": "Feature"}
{"geometry": {"coordinates": [-78.388800734, 43.320807838], "type": "Point"}, "id": "19JEwA4W-r3RC1nmjCkA1Qc6NSM=", "properties": {"@source_uri": "https://tools.usps.com/UspsToolsRestServices/rest/POLocator/findLocations", "@spider": "usps_collection_boxes", "addr:city": "LYNDONVILLE", "addr:country": "US", "addr:postcode": "14098", "addr:state": "NY", "addr:street_address": "18 S MAIN ST", "amenity": "post_box", "collection_times": "Mo-Fr 16:30; Sa 12:00", "indoor": "yes", "note": "ON 12/24 AND 12/31, THIS BOX MAY BE COLLECTED AS EARLY AS 12 NOON.", "nsi_id": "unitedstatespostalservice-a77078", "operator": "United States Postal Service", "operator:short": "USPS", "operator:type": "public", "operator:wikidata": "Q668687", "ref": "1409800004"}, "type": "Feature"}
