{"dataset_attributes": {"@spider": "usps_collection_boxes", "spider:collection_time": "2023-10-25T08:26:15.836184"}, "geometry": {"coordinates": [-78.493017366, 42.421073753], "type": "Point"}, "id": "H7xFQLeilj4LOqm9anUQFWZy6u4=", "properties": {"@spider": "usps_collection_boxes", "addr:city": "MACHIAS", "addr:country": "US", "addr:full": "9742 ROUTE 16", "addr:postcode": "14101", "addr:state": "NY", "amenity": "post_box", "brand": "United States Postal Service", "brand:wikidata": "Q668687", "collection_times": "Mo-Fr 17:00; Sa 12:00", "name": "USPS COLLECTION BOX - BLUE BOX", "note": "ON 12/24 AND 12/31, THIS BOX MAY BE COLLECTED AS EARLY AS 12 NOON.", "nsi_id": "unitedstatespostalservice-a77078", "operator": "United States Postal Service", "operator:short": "USPS", "operator:type": "public", "operator:wikidata": "Q668687", "ref": "1410100001"}, "type": "Feature"}
{"dataset_attributes": {"@spider": "usps_collection_boxes", "spider:collection_time": "2023-10-25T08:26:15.836184"}, "geometry": {"coordinates": [-78.493017366, 42.421073753], "type": "Point"}, "id": "8tmnQ4ihQ7vYE1-lN76edcer4hY=", "properties": {"@spider": "usps_collection_boxes", "addr:city": "MACHIAS", "addr:country": "US", "addr:full": "9742 ROUTE 16", "addr:postcode": "14101", "addr:state": "NY", "amenity": "post_box", "brand": "United States Postal Service", "brand:wikidata": "Q668687", "collection_times": "Mo-Fr 17:00; Sa 12:00", "name": "USPS COLLECTION BOX - PO LOBBY", "note": "ON 12/24 AND 12/31, THIS BOX MAY BE COLLECTED AS EARLY AS 12 NOON.", "nsi_id": "unitedstatespostalservice-a77078", "operator": "United States Postal Service", "operator:short": "USPS", "operator:type": "public", "operator:wikidata": "Q668687", "ref": "1410100004"}, "type": "Feature"}
{"dataset_attributes": {"@spider": "usps_collection_boxes", "spider:collection_time": "2023-10-25T08:26:15.836184"}, "geometry": {"coordinates": [-78.555263702, 42.83825068], "type": "Point"}, "id": "cW7XyVT9iKHxri6gNjiGi1Egf74=", "properties": {"@spider": "usps_collection_boxes", "addr:city": "MARILLA", "addr:country": "US", "addr:full": "1800 TWO ROD RD", "addr:postcode": "14102", "addr:state": "NY", "amenity": "post_box", "brand": "United States Postal Service", "brand:wikidata": "Q668687", "collection_times": "Mo-Fr 16:45; Sa 11:45", "name": "USPS COLLECTION BOX - BLUE BOX", "note": "ON 12/24 AND 12/31, THIS BOX MAY BE COLLECTED AS EARLY AS 12 NOON.", "nsi_id": "unitedstatespostalservice-a77078", "operator": "United States Postal Service", "operator:short": "USPS", "operator:type": "public", "operator:wikidata": "Q668687", "ref": "1410200001"}, "type": "Feature"}
{"dataset_attributes": {"@spider": "usps_collection_boxes", "spider:collection_time": "2023-10-25T08:26:15.836184"}, "geometry": {"coordinates": [-78.555263702, 42.83825068], "type": "Point"}, "id": "BxlDXo75WwQK8lw74ZFB8AdYI-E=", "properties": {"@spider": "usps_collection_boxes", "addr:city": "MARILLA", "addr:country": "US", "addr:full": "1800 TWO ROD RD", "addr:postcode": "14102", "addr:state": "NY", "amenity": "post_box", "brand": "United States Postal Service", "brand:wikidata": "Q668687", "collection_times": "Mo-Fr 16:45; Sa 12:00", "name": "USPS COLLECTION BOX - PO LOBBY", "note": "ON 12/24 AND 12/31, THIS BOX MAY BE COLLECTED AS EARLY AS 12 NOON.", "nsi_id": "unitedstatespostalservice-a77078", "operator": "United States Postal Service", "operator:short": "USPS", "operator:type": "public", "operator:wikidata": "Q668687", "ref": "1410200004"}, "type": "Feature"}
{"dataset_attributes": {"@spider": "usps_collection_boxes", "spider:collection_time": "2023-10-25T08:26:15.836184"}, "geometry": {"coordinates": [-78.388483112, 43.220404486], "type": "Point"}, "id": "i2l-mGdRkg5LbHZBuaZya6KqTXY=", "properties": {"@spider": "usps_collection_boxes", "addr:city": "MEDINA", "addr:country": "US", "addr:full": "128 W CENTER ST", "addr:postcode": "14103", "addr:state": "NY", "amenity": "post_box", "brand": "United States Postal Service", "brand:wikidata": "Q668687", "collection_times": "Mo-Fr 16:30; Sa 14:00", "name": "USPS COLLECTION BOX - BLUE BOX", "note": "ON 12/24 AND 12/31, THIS BOX MAY BE COLLECTED AS EARLY AS 12 NOON.", "nsi_id": "unitedstatespostalservice-a77078", "operator": "United States Postal Service", "operator:short": "USPS", "operator:type": "public", "operator:wikidata": "Q668687", "ref": "1410300001"}, "type": "Feature"}
{"dataset_attributes": {"@spider": "usps_collection_boxes", "spider:collection_time": "2023-10-25T08:26:15.836184"}, "geometry": {"coordinates": [-78.386979103, 43.221059602], "type": "Point"}, "id": "n5H1oCqxg98XVj9boKOfymsgNyM=", "properties": {"@spider": "usps_collection_boxes", "addr:city": "MEDINA", "addr:country": "US", "addr:full": "426 MAIN ST", "addr:postcode": "14103", "addr:state": "NY", "amenity": "post_box", "brand": "United States Postal Service", "brand:wikidata": "Q668687", "collection_times": "Mo-Sa 14:00", "name": "USPS COLLECTION BOX - BLUE BOX", "note": "ON 12/24 AND 12/31, THIS BOX MAY BE COLLECTED AS EARLY AS 12 NOON.", "nsi_id": "unitedstatespostalservice-a77078", "operator": "United States Postal Service", "operator:short": "USPS", "operator:type": "public", "operator:wikidata": "Q668687", "ref": "1410300011"}, "type": "Feature"}
{"dataset_attributes": {"@spider": "usps_collection_boxes", "spider:collection_time": "2023-10-25T08:26:15.836184"}, "geometry": {"coordinates": [-78.386864314, 43.219296367], "type": "Point"}, "id": "3EaHTX6JpSJUO2PZICy0_i-JZrs=", "properties": {"@spider": "usps_collection_boxes", "addr:city": "MEDINA", "addr:country": "US", "addr:full": "543 MAIN ST", "addr:postcode": "14103", "addr:state": "NY", "amenity": "post_box", "brand": "United States Postal Service", "brand:wikidata": "Q668687", "collection_times": "Mo-Sa 14:00", "name": "USPS COLLECTION BOX - BLUE BOX", "note": "ON 12/24 AND 12/31, THIS BOX MAY BE COLLECTED AS EARLY AS 12 NOON.", "nsi_id": "unitedstatespostalservice-a77078", "operator": "United States Postal Service", "operator:short": "USPS", "operator:type": "public", "operator:wikidata": "Q668687", "ref": "1410300012"}, "type": "Feature"}
{"dataset_attributes": {"@spider": "usps_collection_boxes", "spider:collection_time": "2023-10-25T08:26:15.836184"}, "geometry": {"coordinates": [-78.387976606, 43.220677979], "type": "Point"}, "id": "uto9i7ldrUmlswhWu9L_gjghwks=", "properties": {"@spider": "usps_collection_boxes", "addr:city": "MEDINA", "addr:country": "US", "addr:full": "412 PROCTOR PL", "addr:postcode": "14103", "addr:state": "NY", "amenity": "post_box", "brand": "United States Postal Service", "brand:wikidata": "Q668687", "collection_times": "Mo-Sa 14:00", "name": "USPS COLLECTION BOX - BLUE BOX", "note": "ON 12/24 AND 12/31, THIS BOX MAY BE COLLECTED AS EARLY AS 12 NOON.", "nsi_id": "unitedstatespostalservice-a77078", "operator": "United States Postal Service", "operator:short": "USPS", "operator:type": "public", "operator:wikidata": "Q668687", "ref": "1410300018"}, "type": "Feature"}
{"dataset_attributes": {"@spider": "usps_collection_boxes", "spider:collection_time": "2023-10-25T08:26:15.836184"}, "geometry": {"coordinates": [-78.398942899, 43.206854543], "type": "Point"}, "id": "TxNu84_v_3V6quKcZnBBQGtyRGA=", "properties": {"@spider": "usps_collection_boxes", "addr:city": "MEDINA", "addr:country": "US", "addr:full": "11200 MAPLE RIDGE RD", "addr:postcode": "14103", "addr:state": "NY", "amenity": "post_box", "brand": "United States Postal Service", "brand:wikidata": "Q668687", "collection_times": "Mo-Sa 10:00", "name": "USPS COLLECTION BOX - BLUE BOX", "nsi_id": "unitedstatespostalservice-a77078", "operator": "United States Postal Service", "operator:short": "USPS", "operator:type": "public", "operator:wikidata": "Q668687", "ref": "1410300022"}, "type": "Feature"}
{"dataset_attributes": {"@spider": "usps_collection_boxes", "spider:collection_time": "2023-10-25T08:26:15.836184"}, "geometry": {"coordinates": [-78.387976606, 43.220677979], "type": "Point"}, "id": "24X2FLz9QHik-VFU-CYvlvuMS5g=", "properties": {"@spider": "usps_collection_boxes", "addr:city": "MEDINA", "addr:country": "US", "addr:full": "412 PROCTOR PL", "addr:postcode": "14103", "addr:state": "NY", "amenity": "post_box", "brand": "United States Postal Service", "brand:wikidata": "Q668687", "collection_times": "Mo-Sa 14:00", "name": "USPS COLLECTION BOX - BLUE BOX", "note": "ON 12/24 AND 12/31, THIS BOX MAY BE COLLECTED AS EARLY AS 12 NOON.", "nsi_id": "unitedstatespostalservice-a77078", "operator": "United States Postal Service", "operator:short": "USPS", "operator:type": "public", "operator:wikidata": "Q668687", "ref": "1410300025"}, "type": "Feature"}
{"dataset_attributes": {"@spider": "usps_collection_boxes", "spider:collection_time": "2023-10-25T08:26:15.836184"}, "geometry": {"coordinates": [-78.388483112, 43.220404486], "type": "Point"}, "id": "jAQ6mTp12m_6tQivC-GtuMS1cnk=", "properties": {"@spider": "usps_collection_boxes", "addr:city": "MEDINA", "addr:country": "US", "addr:full": "128 W CENTER ST", "addr:postcode": "14103", "addr:state": "NY", "amenity": "post_box", "brand": "United States Postal Service", "brand:wikidata": "Q668687", "collection_times": "Mo-Fr 16:30; Sa 12:00", "name": "USPS COLLECTION BOX - PO LOBBY", "note": "ON 12/24 AND 12/31, THIS BOX MAY BE COLLECTED AS EARLY AS 12 NOON.", "nsi_id": "unitedstatespostalservice-a77078", "operator": "United States Postal Service", "operator:short": "USPS", "operator:type": "public", "operator:wikidata": "Q668687", "ref": "1410300027"}, "type": "Feature"}
{"dataset_attributes": {"@spider": "usps_collection_boxes", "spider:collection_time": "2023-10-25T08:26:15.836184"}, "geometry": {"coordinates": [-78.483773247, 43.205256506], "type": "Point"}, "id": "VYzPtmsEeNwkPblrB7b2rnZ6oG0=", "properties": {"@spider": "usps_collection_boxes", "addr:city": "MIDDLEPORT", "addr:country": "US", "addr:full": "79 TELEGRAPH RD", "addr:postcode": "14105", "addr:state": "NY", "amenity": "post_box", "brand": "United States Postal Service", "brand:wikidata": "Q668687", "collection_times": "Mo-Sa 09:30", "name": "USPS COLLECTION BOX - BLUE BOX", "nsi_id": "unitedstatespostalservice-a77078", "operator": "United States Postal Service", "operator:short": "USPS", "operator:type": "public", "operator:wikidata": "Q668687", "ref": "1410500002"}, "type": "Feature"}
{"dataset_attributes": {"@spider": "usps_collection_boxes", "spider:collection_time": "2023-10-25T08:26:15.836184"}, "geometry": {"coordinates": [-78.476530205, 43.21119578], "type": "Point"}, "id": "ooiZOGwy550boAiaiisMxiolyZg=", "properties": {"@spider": "usps_collection_boxes", "addr:city": "MIDDLEPORT", "addr:country": "US", "addr:full": "42 MAIN ST", "addr:postcode": "14105", "addr:state": "NY", "amenity": "post_box", "brand": "United States Postal Service", "brand:wikidata": "Q668687", "collection_times": "Mo-Fr 16:30; Sa 12:00", "name": "USPS COLLECTION BOX - BLUE BOX", "note": "ON 12/24 AND 12/31, THIS BOX MAY BE COLLECTED AS EARLY AS 12 NOON.", "nsi_id": "unitedstatespostalservice-a77078", "operator": "United States Postal Service", "operator:short": "USPS", "operator:type": "public", "operator:wikidata": "Q668687", "ref": "1410500006"}, "type": "Feature"}
{"dataset_attributes": {"@spider": "usps_collection_boxes", "spider:collection_time": "2023-10-25T08:26:15.836184"}, "geometry": {"coordinates": [-78.476530205, 43.21119578], "type": "Point"}, "id": "4bsjafW5meUP90wiqefURoYDpmM=", "properties": {"@spider": "usps_collection_boxes", "addr:city": "MIDDLEPORT", "addr:country": "US", "addr:full": "42 MAIN ST", "addr:postcode": "14105", "addr:state": "NY", "amenity": "post_box", "brand": "United States Postal Service", "brand:wikidata": "Q668687", "collection_times": "Mo-Fr 16:30; Sa 12:00", "name": "USPS COLLECTION BOX - PO LOBBY", "note": "ON 12/24 AND 12/31, THIS BOX MAY BE COLLECTED AS EARLY AS 12 NOON.", "nsi_id": "unitedstatespostalservice-a77078", "operator": "United States Postal Service", "operator:short": "USPS", "operator:type": "public", "operator:wikidata": "Q668687", "ref": "1410500009"}, "type": "Feature"}
{"dataset_attributes": {"@spider": "usps_collection_boxes", "spider:collection_time": "2023-10-25T08:26:15.836184"}, "geometry": {"coordinates": [-78.98354122, 43.182539665], "type": "Point"}, "id": "OCqsT-A6uiDQ0uudNQC4VUkBy6Y=", "properties": {"@spider": "usps_collection_boxes", "addr:city": "MODEL CITY", "addr:country": "US", "addr:full": "4746 MODEL CITY RD", "addr:postcode": "14107", "addr:state": "NY", "amenity": "post_box", "brand": "United States Postal Service", "brand:wikidata": "Q668687", "collection_times": "Mo-Fr 16:45; Sa 11:45", "name": "USPS COLLECTION BOX - BLUE BOX", "note": "ON 12/24 AND 12/31, THIS BOX MAY BE COLLECTED AS EARLY AS 12 NOON.", "nsi_id": "unitedstatespostalservice-a77078", "operator": "United States Postal Service", "operator:short": "USPS", "operator:type": "public", "operator:wikidata": "Q668687", "ref": "1410700001"}, "type": "Feature"}
{"dataset_attributes": {"@spider": "usps_collection_boxes", "spider:collection_time": "2023-10-25T08:26:15.836184"}, "geometry": {"coordinates": [-78.98354122, 43.182539665], "type": "Point"}, "id": "9CufAtq04td2tT4hQZo5rSgtHeM=", "properties": {"@spider": "usps_collection_boxes", "addr:city": "MODEL CITY", "addr:country": "US", "addr:full": "4746 MODEL CITY RD", "addr:postcode": "14107", "addr:state": "NY", "amenity": "post_box", "brand": "United States Postal Service", "brand:wikidata": "Q668687", "collection_times": "Mo-Fr 17:00; Sa 12:00", "name": "USPS COLLECTION BOX - PO LOBBY", "note": "ON 12/24 AND 12/31, THIS BOX MAY BE COLLECTED AS EARLY AS 12 NOON.", "nsi_id": "unitedstatespostalservice-a77078", "operator": "United States Postal Service", "operator:short": "USPS", "operator:type": "public", "operator:wikidata": "Q668687", "ref": "1410700004"}, "type": "Feature"}
{"dataset_attributes": {"@spider": "usps_collection_boxes", "spider:collection_time": "2023-10-25T08:26:15.836184"}, "geometry": {"coordinates": [-78.700715144, 43.275485053], "type": "Point"}, "id": "28tYmo0zwSx640Bn-H5ru46ETV8=", "properties": {"@spider": "usps_collection_boxes", "addr:city": "NEWFANE", "addr:country": "US", "addr:full": "2897 LOCKPORT OLCOTT RD", "addr:postcode": "14108", "addr:state": "NY", "amenity": "post_box", "brand": "United States Postal Service", "brand:wikidata": "Q668687", "collection_times": "Mo-Fr 11:15", "name": "USPS COLLECTION BOX - BLUE BOX", "nsi_id": "unitedstatespostalservice-a77078", "operator": "United States Postal Service", "operator:short": "USPS", "operator:type": "public", "operator:wikidata": "Q668687", "ref": "1410800002"}, "type": "Feature"}
{"dataset_attributes": {"@spider": "usps_collection_boxes", "spider:collection_time": "2023-10-25T08:26:15.836184"}, "geometry": {"coordinates": [-78.708172879, 43.28257107], "type": "Point"}, "id": "T7NfykQk_BgW9dkN4xViumQaJds=", "properties": {"@spider": "usps_collection_boxes", "addr:city": "NEWFANE", "addr:country": "US", "addr:full": "2733 MAIN ST", "addr:postcode": "14108", "addr:state": "NY", "amenity": "post_box", "brand": "United States Postal Service", "brand:wikidata": "Q668687", "collection_times": "Mo-Sa 14:00", "name": "USPS COLLECTION BOX - BLUE BOX", "note": "ON 12/24 AND 12/31, THIS BOX MAY BE COLLECTED AS EARLY AS 12 NOON.", "nsi_id": "unitedstatespostalservice-a77078", "operator": "United States Postal Service", "operator:short": "USPS", "operator:type": "public", "operator:wikidata": "Q668687", "ref": "1410800005"}, "type": "Feature"}
{"dataset_attributes": {"@spider": "usps_collection_boxes", "spider:collection_time": "2023-10-25T08:26:15.836184"}, "geometry": {"coordinates": [-78.7097115, 43.290446503], "type": "Point"}, "id": "ay4lxqb04029pGW27N7qeh5DFRI=", "properties": {"@spider": "usps_collection_boxes", "addr:city": "NEWFANE", "addr:country": "US", "addr:full": "6000 EDWARD AVE", "addr:postcode": "14108", "addr:state": "NY", "amenity": "post_box", "brand": "United States Postal Service", "brand:wikidata": "Q668687", "collection_times": "Mo-Fr 17:00; Sa 15:30", "name": "USPS COLLECTION BOX - BLUE BOX", "note": "ON 12/24 AND 12/31, THIS BOX MAY BE COLLECTED AS EARLY AS 12 NOON.", "nsi_id": "unitedstatespostalservice-a77078", "operator": "United States Postal Service", "operator:short": "USPS", "operator:type": "public", "operator:wikidata": "Q668687", "ref": "1410800006"}, "type": "Feature"}
{"dataset_attributes": {"@spider": "usps_collection_boxes", "spider:collection_time": "2023-10-25T08:26:15.836184"}, "geometry": {"coordinates": [-78.696785784, 43.267005], "type": "Point"}, "id": "M3rwUNiaGpuVWRW0iF3nT2houtk=", "properties": {"@spider": "usps_collection_boxes", "addr:city": "NEWFANE", "addr:country": "US", "addr:full": "3051 BIXLER RD", "addr:postcode": "14108", "addr:state": "NY", "amenity": "post_box", "brand": "United States Postal Service", "brand:wikidata": "Q668687", "collection_times": "Mo-Fr 10:30", "name": "USPS COLLECTION BOX - BLUE BOX", "nsi_id": "unitedstatespostalservice-a77078", "operator": "United States Postal Service", "operator:short": "USPS", "operator:type": "public", "operator:wikidata": "Q668687", "ref": "1410800009"}, "type": "Feature"}
{"dataset_attributes": {"@spider": "usps_collection_boxes", "spider:collection_time": "2023-10-25T08:26:15.836184"}, "geometry": {"coordinates": [-78.7097115, 43.290446503], "type": "Point"}, "id": "qrDAuAIzW7GgbySmcHNriYwK9LE=", "properties": {"@spider": "usps_collection_boxes", "addr:city": "NEWFANE", "addr:country": "US", "addr:full": "6000 EDWARD AVE", "addr:postcode": "14108", "addr:state": "NY", "amenity": "post_box", "brand": "United States Postal Service", "brand:wikidata": "Q668687", "collection_times": "Mo-Fr 17:00; Sa 12:00", "name": "USPS COLLECTION BOX - PO LOBBY", "note": "ON 12/24 AND 12/31, THIS BOX MAY BE COLLECTED AS EARLY AS 12 NOON.", "nsi_id": "unitedstatespostalservice-a77078", "operator": "United States Postal Service", "operator:short": "USPS", "operator:type": "public", "operator:wikidata": "Q668687", "ref": "1410800013"}, "type": "Feature"}
{"dataset_attributes": {"@spider": "usps_collection_boxes", "spider:collection_time": "2023-10-25T08:26:15.836184"}, "geometry": {"coordinates": [-79.040427448, 43.136295442], "type": "Point"}, "id": "FGDQkS4626mnhGD79LnhmsIcGYk=", "properties": {"@spider": "usps_collection_boxes", "addr:city": "NIAGARA UNIVERSI", "addr:country": "US", "addr:full": "11 VINCENTIAN DR", "addr:postcode": "14109", "addr:state": "NY", "amenity": "post_box", "brand": "United States Postal Service", "brand:wikidata": "Q668687", "collection_times": "Mo-Fr 15:45; Sa 10:45", "name": "USPS COLLECTION BOX - BLUE BOX", "note": "ON 12/24 AND 12/31, THIS BOX MAY BE COLLECTED AS EARLY AS 12 NOON.", "nsi_id": "unitedstatespostalservice-a77078", "operator": "United States Postal Service", "operator:short": "USPS", "operator:type": "public", "operator:wikidata": "Q668687", "ref": "1410900001"}, "type": "Feature"}
{"dataset_attributes": {"@spider": "usps_collection_boxes", "spider:collection_time": "2023-10-25T08:26:15.836184"}, "geometry": {"coordinates": [-79.040427448, 43.136295442], "type": "Point"}, "id": "mx5z91yMk5Hv-MbKoukGBXrQTHY=", "properties": {"@spider": "usps_collection_boxes", "addr:city": "NIAGARA UNIVERSI", "addr:country": "US", "addr:full": "11 VINCENTIAN DR", "addr:postcode": "14109", "addr:state": "NY", "amenity": "post_box", "brand": "United States Postal Service", "brand:wikidata": "Q668687", "collection_times": "Mo-Fr 16:00; Sa 11:00", "name": "USPS COLLECTION BOX - PO LOBBY", "note": "ON 12/24 AND 12/31, THIS BOX MAY BE COLLECTED AS EARLY AS 12 NOON.", "nsi_id": "unitedstatespostalservice-a77078", "operator": "United States Postal Service", "operator:short": "USPS", "operator:type": "public", "operator:wikidata": "Q668687", "ref": "1410900004"}, "type": "Feature"}
{"dataset_attributes": {"@spider": "usps_collection_boxes", "spider:collection_time": "2023-10-25T08:26:15.836184"}, "geometry": {"coordinates": [-78.77831986, 42.686785152], "type": "Point"}, "id": "Yer_9TRhf4wHo4VwLlIxIe8ez18=", "properties": {"@spider": "usps_collection_boxes", "addr:city": "NORTH BOSTON", "addr:country": "US", "addr:full": "7170 BOSTON STATE RD", "addr:postcode": "14110", "addr:state": "NY", "amenity": "post_box", "brand": "United States Postal Service", "brand:wikidata": "Q668687", "collection_times": "Mo-Fr 16:30; Sa 12:00", "name": "USPS COLLECTION BOX - BLUE BOX", "note": "ON 12/24 AND 12/31, THIS BOX MAY BE COLLECTED AS EARLY AS 12 NOON.", "nsi_id": "unitedstatespostalservice-a77078", "operator": "United States Postal Service", "operator:short": "USPS", "operator:type": "public", "operator:wikidata": "Q668687", "ref": "1411000003"}, "type": "Feature"}
{"dataset_attributes": {"@spider": "usps_collection_boxes", "spider:collection_time": "2023-10-25T08:26:15.836184"}, "geometry": {"coordinates": [-78.77831986, 42.686785152], "type": "Point"}, "id": "YpfYvR11eSexvi14Nfb06rvKDyM=", "properties": {"@spider": "usps_collection_boxes", "addr:city": "NORTH BOSTON", "addr:country": "US", "addr:full": "7170 BOSTON STATE RD", "addr:postcode": "14110", "addr:state": "NY", "amenity": "post_box", "brand": "United States Postal Service", "brand:wikidata": "Q668687", "collection_times": "Mo-Fr 17:00; Sa 12:00", "name": "USPS COLLECTION BOX - PO LOBBY", "note": "ON 12/24 AND 12/31, THIS BOX MAY BE COLLECTED AS EARLY AS 12 NOON.", "nsi_id": "unitedstatespostalservice-a77078", "operator": "United States Postal Service", "operator:short": "USPS", "operator:type": "public", "operator:wikidata": "Q668687", "ref": "1411000005"}, "type": "Feature"}
{"dataset_attributes": {"@spider": "usps_collection_boxes", "spider:collection_time": "2023-10-25T08:26:15.836184"}, "geometry": {"coordinates": [-78.77831986, 42.686785152], "type": "Point"}, "id": "jYo-kkWaHsR2VBwPnnI0vxWCx70=", "properties": {"@spider": "usps_collection_boxes", "addr:city": "NORTH BOSTON", "addr:country": "US", "addr:full": "7170 BOSTON STATE RD", "addr:postcode": "14110", "addr:state": "NY", "amenity": "post_box", "brand": "United States Postal Service", "brand:wikidata": "Q668687", "collection_times": "Mo-Fr 17:00; Sa 12:00", "name": "USPS COLLECTION BOX - PO LOBBY", "note": "ON 12/24 AND 12/31, THIS BOX MAY BE COLLECTED AS EARLY AS 12 NOON.", "nsi_id": "unitedstatespostalservice-a77078", "operator": "United States Postal Service", "operator:short": "USPS", "operator:type": "public", "operator:wikidata": "Q668687", "ref": "1411000007"}, "type": "Feature"}
{"dataset_attributes": {"@spider": "usps_collection_boxes", "spider:collection_time": "2023-10-25T08:26:15.836184"}, "geometry": {"coordinates": [-78.940924703, 42.593013639], "type": "Point"}, "id": "8ebMsY213gP2pRJPm9ho9cJOxiA=", "properties": {"@spider": "usps_collection_boxes", "addr:city": "NORTH COLLINS", "addr:country": "US", "addr:full": "10607 MAIN ST", "addr:postcode": "14111", "addr:state": "NY", "amenity": "post_box", "brand": "United States Postal Service", "brand:wikidata": "Q668687", "collection_times": "Mo-Fr 16:30; Sa 12:00", "name": "USPS COLLECTION BOX - BLUE BOX", "note": "ON 12/24 AND 12/31, THIS BOX MAY BE COLLECTED AS EARLY AS 12 NOON.", "nsi_id": "unitedstatespostalservice-a77078", "operator": "United States Postal Service", "operator:short": "USPS", "operator:type": "public", "operator:wikidata": "Q668687", "ref": "1411100001"}, "type": "Feature"}
{"dataset_attributes": {"@spider": "usps_collection_boxes", "spider:collection_time": "2023-10-25T08:26:15.836184"}, "geometry": {"coordinates": [-78.940924703, 42.593013639], "type": "Point"}, "id": "mhlCfhJ3wGBH6tfrGXBScnUg28E=", "properties": {"@spider": "usps_collection_boxes", "addr:city": "NORTH COLLINS", "addr:country": "US", "addr:full": "10607 MAIN ST", "addr:postcode": "14111", "addr:state": "NY", "amenity": "post_box", "brand": "United States Postal Service", "brand:wikidata": "Q668687", "collection_times": "Mo-Fr 17:00; Sa 12:00", "name": "USPS COLLECTION BOX - PO LOBBY", "note": "ON 12/24 AND 12/31, THIS BOX MAY BE COLLECTED AS EARLY AS 12 NOON.", "nsi_id": "unitedstatespostalservice-a77078", "operator": "United States Postal Service", "operator:short": "USPS", "operator:type": "public", "operator:wikidata": "Q668687", "ref": "1411100003"}, "type": "Feature"}
{"dataset_attributes": {"@spider": "usps_collection_boxes", "spider:collection_time": "2023-10-25T08:26:15.836184"}, "geometry": {"coordinates": [-78.941453419, 42.696943461], "type": "Point"}, "id": "4f1WtJiDQBQNvihpu4xtXXUjiLY=", "properties": {"@spider": "usps_collection_boxes", "addr:city": "NORTH EVANS", "addr:country": "US", "addr:full": "6971 VERSAILLES RD", "addr:postcode": "14112", "addr:state": "NY", "amenity": "post_box", "brand": "United States Postal Service", "brand:wikidata": "Q668687", "collection_times": "Mo-Fr 16:30; Sa 11:30", "name": "USPS COLLECTION BOX - BLUE BOX", "note": "ON 12/24 AND 12/31, THIS BOX MAY BE COLLECTED AS EARLY AS 12 NOON.", "nsi_id": "unitedstatespostalservice-a77078", "operator": "United States Postal Service", "operator:short": "USPS", "operator:type": "public", "operator:wikidata": "Q668687", "ref": "1411200001"}, "type": "Feature"}
{"dataset_attributes": {"@spider": "usps_collection_boxes", "spider:collection_time": "2023-10-25T08:26:15.836184"}, "geometry": {"coordinates": [-78.941453419, 42.696943461], "type": "Point"}, "id": "BvfjHnPyrf-R8VKk1mjjGum0ldk=", "properties": {"@spider": "usps_collection_boxes", "addr:city": "NORTH EVANS", "addr:country": "US", "addr:full": "6971 VERSAILLES RD", "addr:postcode": "14112", "addr:state": "NY", "amenity": "post_box", "brand": "United States Postal Service", "brand:wikidata": "Q668687", "collection_times": "Mo-Fr 17:00; Sa 12:00", "name": "USPS COLLECTION BOX - PO LOBBY", "note": "ON 12/24 AND 12/31, THIS BOX MAY BE COLLECTED AS EARLY AS 12 NOON.", "nsi_id": "unitedstatespostalservice-a77078", "operator": "United States Postal Service", "operator:short": "USPS", "operator:type": "public", "operator:wikidata": "Q668687", "ref": "1411200004"}, "type": "Feature"}
{"dataset_attributes": {"@spider": "usps_collection_boxes", "spider:collection_time": "2023-10-25T08:26:15.836184"}, "geometry": {"coordinates": [-78.337584503, 42.6839565], "type": "Point"}, "id": "2PTNJ3EEeAKeuqhyDJ9S7lnuCF0=", "properties": {"@spider": "usps_collection_boxes", "addr:city": "NORTH JAVA", "addr:country": "US", "addr:full": "2143 WETHERSFIELD RD", "addr:postcode": "14113", "addr:state": "NY", "amenity": "post_box", "brand": "United States Postal Service", "brand:wikidata": "Q668687", "collection_times": "Mo-Fr 16:30; Sa 12:00", "name": "USPS COLLECTION BOX - BLUE BOX", "note": "ON 12/24 AND 12/31, THIS BOX MAY BE COLLECTED AS EARLY AS 12 NOON.", "nsi_id": "unitedstatespostalservice-a77078", "operator": "United States Postal Service", "operator:short": "USPS", "operator:type": "public", "operator:wikidata": "Q668687", "ref": "1411300001"}, "type": "Feature"}
{"dataset_attributes": {"@spider": "usps_collection_boxes", "spider:collection_time": "2023-10-25T08:26:15.836184"}, "geometry": {"coordinates": [-78.337584503, 42.6839565], "type": "Point"}, "id": "lzU6faLWx5vylTTXhU36JJs_5II=", "properties": {"@spider": "usps_collection_boxes", "addr:city": "NORTH JAVA", "addr:country": "US", "addr:full": "2143 WETHERSFIELD RD", "addr:postcode": "14113", "addr:state": "NY", "amenity": "post_box", "brand": "United States Postal Service", "brand:wikidata": "Q668687", "collection_times": "Mo-Fr 17:00; Sa 12:00", "name": "USPS COLLECTION BOX - PO LOBBY", "note": "ON 12/24 AND 12/31, THIS BOX MAY BE COLLECTED AS EARLY AS 12 NOON.", "nsi_id": "unitedstatespostalservice-a77078", "operator": "United States Postal Service", "operator:short": "USPS", "operator:type": "public", "operator:wikidata": "Q668687", "ref": "1411300004"}, "type": "Feature"}
{"dataset_attributes": {"@spider": "usps_collection_boxes", "spider:collection_time": "2023-10-25T08:26:15.836184"}, "geometry": {"coordinates": [-78.873134858, 43.025249747], "type": "Point"}, "id": "WPKDM_C3w1IkXTujtraCEF0UyjU=", "properties": {"@spider": "usps_collection_boxes", "addr:city": "NORTH TONAWANDA", "addr:country": "US", "addr:full": "141 GOUNDRY ST", "addr:postcode": "14120", "addr:state": "NY", "amenity": "post_box", "brand": "United States Postal Service", "brand:wikidata": "Q668687", "collection_times": "Mo-Fr 17:15; Sa 16:30", "name": "USPS COLLECTION BOX - BLUE BOX", "note": "ON 12/24 AND 12/31, THIS BOX MAY BE COLLECTED AS EARLY AS 12 NOON.", "nsi_id": "unitedstatespostalservice-a77078", "operator": "United States Postal Service", "operator:short": "USPS", "operator:type": "public", "operator:wikidata": "Q668687", "ref": "1412000001"}, "type": "Feature"}
{"dataset_attributes": {"@spider": "usps_collection_boxes", "spider:collection_time": "2023-10-25T08:26:15.836184"}, "geometry": {"coordinates": [-78.876982151, 43.025334719], "type": "Point"}, "id": "DhI4-AthN9gCFUSVULBnA_9YDJI=", "properties": {"@spider": "usps_collection_boxes", "addr:city": "NORTH TONAWANDA", "addr:country": "US", "addr:full": "107 MAIN ST", "addr:postcode": "14120", "addr:state": "NY", "amenity": "post_box", "brand": "United States Postal Service", "brand:wikidata": "Q668687", "collection_times": "Mo-Sa 09:00", "name": "USPS COLLECTION BOX - BLUE BOX", "nsi_id": "unitedstatespostalservice-a77078", "operator": "United States Postal Service", "operator:short": "USPS", "operator:type": "public", "operator:wikidata": "Q668687", "ref": "1412000006"}, "type": "Feature"}
{"dataset_attributes": {"@spider": "usps_collection_boxes", "spider:collection_time": "2023-10-25T08:26:15.836184"}, "geometry": {"coordinates": [-78.865467482, 43.038480197], "type": "Point"}, "id": "uDFgHkVjCzNBuYjtFMNzPKgUvCA=", "properties": {"@spider": "usps_collection_boxes", "addr:city": "NORTH TONAWANDA", "addr:country": "US", "addr:full": "500 WHEATFIELD ST", "addr:postcode": "14120", "addr:state": "NY", "amenity": "post_box", "brand": "United States Postal Service", "brand:wikidata": "Q668687", "collection_times": "Mo-Fr 09:00", "name": "USPS COLLECTION BOX - BLUE BOX", "nsi_id": "unitedstatespostalservice-a77078", "operator": "United States Postal Service", "operator:short": "USPS", "operator:type": "public", "operator:wikidata": "Q668687", "ref": "1412000009"}, "type": "Feature"}
{"dataset_attributes": {"@spider": "usps_collection_boxes", "spider:collection_time": "2023-10-25T08:26:15.836184"}, "geometry": {"coordinates": [-78.86171978, 43.034800169], "type": "Point"}, "id": "cDUs6Ceh_yNxxKzCJsZZ8c4WIRI=", "properties": {"@spider": "usps_collection_boxes", "addr:city": "NORTH TONAWANDA", "addr:country": "US", "addr:full": "419 DIVISION ST", "addr:postcode": "14120", "addr:state": "NY", "amenity": "post_box", "brand": "United States Postal Service", "brand:wikidata": "Q668687", "collection_times": "Mo-Sa 09:00", "name": "USPS COLLECTION BOX - BLUE BOX", "nsi_id": "unitedstatespostalservice-a77078", "operator": "United States Postal Service", "operator:short": "USPS", "operator:type": "public", "operator:wikidata": "Q668687", "ref": "1412000016"}, "type": "Feature"}
{"dataset_attributes": {"@spider": "usps_collection_boxes", "spider:collection_time": "2023-10-25T08:26:15.836184"}, "geometry": {"coordinates": [-78.879732825, 43.044137255], "type": "Point"}, "id": "QEZfwHHaWwh_Nc6MY2nMNFGNH-0=", "properties": {"@spider": "usps_collection_boxes", "addr:city": "NORTH TONAWANDA", "addr:country": "US", "addr:full": "789 GILMORE AVE", "addr:postcode": "14120", "addr:state": "NY", "amenity": "post_box", "brand": "United States Postal Service", "brand:wikidata": "Q668687", "collection_times": "Mo-Sa 09:00", "name": "USPS COLLECTION BOX - BLUE BOX", "nsi_id": "unitedstatespostalservice-a77078", "operator": "United States Postal Service", "operator:short": "USPS", "operator:type": "public", "operator:wikidata": "Q668687", "ref": "1412000018"}, "type": "Feature"}
{"dataset_attributes": {"@spider": "usps_collection_boxes", "spider:collection_time": "2023-10-25T08:26:15.836184"}, "geometry": {"coordinates": [-78.869525963, 43.029561503], "type": "Point"}, "id": "ZGg6IHPMWoEHv0GOAx5pKsm5BWE=", "properties": {"@spider": "usps_collection_boxes", "addr:city": "NORTH TONAWANDA", "addr:country": "US", "addr:full": "216 PAYNE AVE", "addr:postcode": "14120", "addr:state": "NY", "amenity": "post_box", "brand": "United States Postal Service", "brand:wikidata": "Q668687", "collection_times": "Mo-Fr 09:00", "name": "USPS COLLECTION BOX - BLUE BOX", "nsi_id": "unitedstatespostalservice-a77078", "operator": "United States Postal Service", "operator:short": "USPS", "operator:type": "public", "operator:wikidata": "Q668687", "ref": "1412000020"}, "type": "Feature"}
{"dataset_attributes": {"@spider": "usps_collection_boxes", "spider:collection_time": "2023-10-25T08:26:15.836184"}, "geometry": {"coordinates": [-78.88722417, 43.051517245], "type": "Point"}, "id": "-Vatp4dlMpsx9sMPceiJT_N4PdE=", "properties": {"@spider": "usps_collection_boxes", "addr:city": "NORTH TONAWANDA", "addr:country": "US", "addr:full": "1115 OLIVER ST", "addr:postcode": "14120", "addr:state": "NY", "amenity": "post_box", "brand": "United States Postal Service", "brand:wikidata": "Q668687", "collection_times": "Mo-Sa 09:00", "name": "USPS COLLECTION BOX - BLUE BOX", "nsi_id": "unitedstatespostalservice-a77078", "operator": "United States Postal Service", "operator:short": "USPS", "operator:type": "public", "operator:wikidata": "Q668687", "ref": "1412000025"}, "type": "Feature"}
{"dataset_attributes": {"@spider": "usps_collection_boxes", "spider:collection_time": "2023-10-25T08:26:15.836184"}, "geometry": {"coordinates": [-78.836310807, 43.0557945], "type": "Point"}, "id": "wtTyjORQUIEiKkAJ757hD6WSZss=", "properties": {"@spider": "usps_collection_boxes", "addr:city": "NORTH TONAWANDA", "addr:country": "US", "addr:full": "1781 LINDEN AVE", "addr:postcode": "14120", "addr:state": "NY", "amenity": "post_box", "brand": "United States Postal Service", "brand:wikidata": "Q668687", "collection_times": "Mo-Sa 09:00", "name": "USPS COLLECTION BOX - BLUE BOX", "nsi_id": "unitedstatespostalservice-a77078", "operator": "United States Postal Service", "operator:short": "USPS", "operator:type": "public", "operator:wikidata": "Q668687", "ref": "1412000027"}, "type": "Feature"}
{"dataset_attributes": {"@spider": "usps_collection_boxes", "spider:collection_time": "2023-10-25T08:26:15.836184"}, "geometry": {"coordinates": [-78.894500059, 43.085930533], "type": "Point"}, "id": "1AgAQJUbgREOR-Jo4Cwko0cXiGQ=", "properties": {"@spider": "usps_collection_boxes", "addr:city": "NORTH TONAWANDA", "addr:country": "US", "addr:full": "2800 CHURCH RD", "addr:postcode": "14120", "addr:state": "NY", "amenity": "post_box", "brand": "United States Postal Service", "brand:wikidata": "Q668687", "collection_times": "Mo-Sa 09:00", "name": "USPS COLLECTION BOX - BLUE BOX", "nsi_id": "unitedstatespostalservice-a77078", "operator": "United States Postal Service", "operator:short": "USPS", "operator:type": "public", "operator:wikidata": "Q668687", "ref": "1412000030"}, "type": "Feature"}
{"dataset_attributes": {"@spider": "usps_collection_boxes", "spider:collection_time": "2023-10-25T08:26:15.836184"}, "geometry": {"coordinates": [-78.862944459, 43.037139035], "type": "Point"}, "id": "oNESvaLDkrmkVo7gilSEI8H3aD4=", "properties": {"@spider": "usps_collection_boxes", "addr:city": "NORTH TONAWANDA", "addr:country": "US", "addr:full": "535 DIVISION ST", "addr:postcode": "14120", "addr:state": "NY", "amenity": "post_box", "brand": "United States Postal Service", "brand:wikidata": "Q668687", "collection_times": "Mo-Sa 09:00", "name": "USPS COLLECTION BOX - BLUE BOX", "nsi_id": "unitedstatespostalservice-a77078", "operator": "United States Postal Service", "operator:short": "USPS", "operator:type": "public", "operator:wikidata": "Q668687", "ref": "1412000032"}, "type": "Feature"}
{"dataset_attributes": {"@spider": "usps_collection_boxes", "spider:collection_time": "2023-10-25T08:26:15.836184"}, "geometry": {"coordinates": [-78.881686726, 43.056713285], "type": "Point"}, "id": "KY3_TeOk2MC7--dEoYT2BI0RSoc=", "properties": {"@spider": "usps_collection_boxes", "addr:city": "NORTH TONAWANDA", "addr:country": "US", "addr:full": "1266 PAYNE AVE", "addr:postcode": "14120", "addr:state": "NY", "amenity": "post_box", "brand": "United States Postal Service", "brand:wikidata": "Q668687", "collection_times": "Mo-Sa 09:00", "name": "USPS COLLECTION BOX - BLUE BOX", "nsi_id": "unitedstatespostalservice-a77078", "operator": "United States Postal Service", "operator:short": "USPS", "operator:type": "public", "operator:wikidata": "Q668687", "ref": "1412000034"}, "type": "Feature"}
{"dataset_attributes": {"@spider": "usps_collection_boxes", "spider:collection_time": "2023-10-25T08:26:15.836184"}, "geometry": {"coordinates": [-78.877651425, 43.065207327], "type": "Point"}, "id": "p4sFomiFoiSUFIdWJrJpnuHA2Mw=", "properties": {"@spider": "usps_collection_boxes", "addr:city": "NORTH TONAWANDA", "addr:country": "US", "addr:full": "944 RUIE RD", "addr:postcode": "14120", "addr:state": "NY", "amenity": "post_box", "brand": "United States Postal Service", "brand:wikidata": "Q668687", "collection_times": "Mo-Sa 09:00", "name": "USPS COLLECTION BOX - BLUE BOX", "nsi_id": "unitedstatespostalservice-a77078", "operator": "United States Postal Service", "operator:short": "USPS", "operator:type": "public", "operator:wikidata": "Q668687", "ref": "1412000035"}, "type": "Feature"}
{"dataset_attributes": {"@spider": "usps_collection_boxes", "spider:collection_time": "2023-10-25T08:26:15.836184"}, "geometry": {"coordinates": [-78.883563234, 43.045605083], "type": "Point"}, "id": "ehrCDG_FeHFVQryDJZAoFRQbcHU=", "properties": {"@spider": "usps_collection_boxes", "addr:city": "NORTH TONAWANDA", "addr:country": "US", "addr:full": "881 OLIVER ST", "addr:postcode": "14120", "addr:state": "NY", "amenity": "post_box", "brand": "United States Postal Service", "brand:wikidata": "Q668687", "collection_times": "Mo-Sa 09:00", "name": "USPS COLLECTION BOX - BLUE BOX", "nsi_id": "unitedstatespostalservice-a77078", "operator": "United States Postal Service", "operator:short": "USPS", "operator:type": "public", "operator:wikidata": "Q668687", "ref": "1412000037"}, "type": "Feature"}
{"dataset_attributes": {"@spider": "usps_collection_boxes", "spider:collection_time": "2023-10-25T08:26:15.836184"}, "geometry": {"coordinates": [-78.877891688, 43.050701273], "type": "Point"}, "id": "798XJVPOcLiFfsaIvzjPCT2qpDg=", "properties": {"@spider": "usps_collection_boxes", "addr:city": "NORTH TONAWANDA", "addr:country": "US", "addr:full": "1013 PAYNE AVE", "addr:postcode": "14120", "addr:state": "NY", "amenity": "post_box", "brand": "United States Postal Service", "brand:wikidata": "Q668687", "collection_times": "Mo-Sa 09:00", "name": "USPS COLLECTION BOX - BLUE BOX", "nsi_id": "unitedstatespostalservice-a77078", "operator": "United States Postal Service", "operator:short": "USPS", "operator:type": "public", "operator:wikidata": "Q668687", "ref": "1412000040"}, "type": "Feature"}
{"dataset_attributes": {"@spider": "usps_collection_boxes", "spider:collection_time": "2023-10-25T08:26:15.836184"}, "geometry": {"coordinates": [-78.857304051, 43.023564095], "type": "Point"}, "id": "NFJS9d8AgsLWolVDk8o8TegcGA8=", "properties": {"@spider": "usps_collection_boxes", "addr:city": "NORTH TONAWANDA", "addr:country": "US", "addr:full": "33 SPRUCE ST", "addr:postcode": "14120", "addr:state": "NY", "amenity": "post_box", "brand": "United States Postal Service", "brand:wikidata": "Q668687", "collection_times": "Mo-Sa 09:00", "name": "USPS COLLECTION BOX - BLUE BOX", "nsi_id": "unitedstatespostalservice-a77078", "operator": "United States Postal Service", "operator:short": "USPS", "operator:type": "public", "operator:wikidata": "Q668687", "ref": "1412000043"}, "type": "Feature"}
{"dataset_attributes": {"@spider": "usps_collection_boxes", "spider:collection_time": "2023-10-25T08:26:15.836184"}, "geometry": {"coordinates": [-78.87412343, 43.041325391], "type": "Point"}, "id": "sWtfyXmAlQqZTK-0QJ33DFcyHB4=", "properties": {"@spider": "usps_collection_boxes", "addr:city": "NORTH TONAWANDA", "addr:country": "US", "addr:full": "664 PAYNE AVE", "addr:postcode": "14120", "addr:state": "NY", "amenity": "post_box", "brand": "United States Postal Service", "brand:wikidata": "Q668687", "collection_times": "Mo-Sa 09:00", "name": "USPS COLLECTION BOX - BLUE BOX", "nsi_id": "unitedstatespostalservice-a77078", "operator": "United States Postal Service", "operator:short": "USPS", "operator:type": "public", "operator:wikidata": "Q668687", "ref": "1412000045"}, "type": "Feature"}
{"dataset_attributes": {"@spider": "usps_collection_boxes", "spider:collection_time": "2023-10-25T08:26:15.836184"}, "geometry": {"coordinates": [-78.879435508, 43.038926916], "type": "Point"}, "id": "K7_9l2LkUUULUthL0A6ZoFTj5ZE=", "properties": {"@spider": "usps_collection_boxes", "addr:city": "NORTH TONAWANDA", "addr:country": "US", "addr:full": "615 OLIVER ST", "addr:postcode": "14120", "addr:state": "NY", "amenity": "post_box", "brand": "United States Postal Service", "brand:wikidata": "Q668687", "collection_times": "Mo-Sa 09:00", "name": "USPS COLLECTION BOX - BLUE BOX", "nsi_id": "unitedstatespostalservice-a77078", "operator": "United States Postal Service", "operator:short": "USPS", "operator:type": "public", "operator:wikidata": "Q668687", "ref": "1412000048"}, "type": "Feature"}
{"dataset_attributes": {"@spider": "usps_collection_boxes", "spider:collection_time": "2023-10-25T08:26:15.836184"}, "geometry": {"coordinates": [-78.846134937, 43.022709199], "type": "Point"}, "id": "1X9m7F3z_Opoo6MuFvBOubWrA4o=", "properties": {"@spider": "usps_collection_boxes", "addr:city": "NORTH TONAWANDA", "addr:country": "US", "addr:full": "115 S MEADOW DR", "addr:postcode": "14120", "addr:state": "NY", "amenity": "post_box", "brand": "United States Postal Service", "brand:wikidata": "Q668687", "collection_times": "Mo-Sa 09:00", "name": "USPS COLLECTION BOX - BLUE BOX", "nsi_id": "unitedstatespostalservice-a77078", "operator": "United States Postal Service", "operator:short": "USPS", "operator:type": "public", "operator:wikidata": "Q668687", "ref": "1412000051"}, "type": "Feature"}
{"dataset_attributes": {"@spider": "usps_collection_boxes", "spider:collection_time": "2023-10-25T08:26:15.836184"}, "geometry": {"coordinates": [-78.844676471, 43.064920102], "type": "Point"}, "id": "UZOgjD_U7I28EeC9lxNk0nq3T5Y=", "properties": {"@spider": "usps_collection_boxes", "addr:city": "NORTH TONAWANDA", "addr:country": "US", "addr:full": "1060 NIAGARA FALLS BLVD", "addr:postcode": "14120", "addr:state": "NY", "amenity": "post_box", "brand": "United States Postal Service", "brand:wikidata": "Q668687", "collection_times": "Mo-Sa 09:00", "name": "USPS COLLECTION BOX - BLUE BOX", "nsi_id": "unitedstatespostalservice-a77078", "operator": "United States Postal Service", "operator:short": "USPS", "operator:type": "public", "operator:wikidata": "Q668687", "ref": "1412000054"}, "type": "Feature"}
{"dataset_attributes": {"@spider": "usps_collection_boxes", "spider:collection_time": "2023-10-25T08:26:15.836184"}, "geometry": {"coordinates": [-78.853125926, 43.064703], "type": "Point"}, "id": "YQiph93l-gczX_1GbJsCDxngGLQ=", "properties": {"@spider": "usps_collection_boxes", "addr:city": "NORTH TONAWANDA", "addr:country": "US", "addr:full": "1527 ABINGTON PL", "addr:postcode": "14120", "addr:state": "NY", "amenity": "post_box", "brand": "United States Postal Service", "brand:wikidata": "Q668687", "collection_times": "Mo-Sa 09:00", "name": "USPS COLLECTION BOX - BLUE BOX", "nsi_id": "unitedstatespostalservice-a77078", "operator": "United States Postal Service", "operator:short": "USPS", "operator:type": "public", "operator:wikidata": "Q668687", "ref": "1412000058"}, "type": "Feature"}
{"dataset_attributes": {"@spider": "usps_collection_boxes", "spider:collection_time": "2023-10-25T08:26:15.836184"}, "geometry": {"coordinates": [-78.856471021, 43.03079346], "type": "Point"}, "id": "Iz8rIRCbZUfKCCOh8vN8MtOaH1E=", "properties": {"@spider": "usps_collection_boxes", "addr:city": "NORTH TONAWANDA", "addr:country": "US", "addr:full": "624 WRIGHT AVE", "addr:postcode": "14120", "addr:state": "NY", "amenity": "post_box", "brand": "United States Postal Service", "brand:wikidata": "Q668687", "collection_times": "Mo-Sa 09:00", "name": "USPS COLLECTION BOX - BLUE BOX", "nsi_id": "unitedstatespostalservice-a77078", "operator": "United States Postal Service", "operator:short": "USPS", "operator:type": "public", "operator:wikidata": "Q668687", "ref": "1412000059"}, "type": "Feature"}
{"dataset_attributes": {"@spider": "usps_collection_boxes", "spider:collection_time": "2023-10-25T08:26:15.836184"}, "geometry": {"coordinates": [-78.865654382, 43.055712587], "type": "Point"}, "id": "BI-JWkiiapFqgRtvdlsVMlKCfxI=", "properties": {"@spider": "usps_collection_boxes", "addr:city": "NORTH TONAWANDA", "addr:country": "US", "addr:full": "1199 NASH RD", "addr:postcode": "14120", "addr:state": "NY", "amenity": "post_box", "brand": "United States Postal Service", "brand:wikidata": "Q668687", "collection_times": "Mo-Sa 09:00", "name": "USPS COLLECTION BOX - BLUE BOX", "nsi_id": "unitedstatespostalservice-a77078", "operator": "United States Postal Service", "operator:short": "USPS", "operator:type": "public", "operator:wikidata": "Q668687", "ref": "1412000060"}, "type": "Feature"}
{"dataset_attributes": {"@spider": "usps_collection_boxes", "spider:collection_time": "2023-10-25T08:26:15.836184"}, "geometry": {"coordinates": [-78.868083054, 43.052118499], "type": "Point"}, "id": "NNz1i7SO-54S5_Vt_vvp9uvT43o=", "properties": {"@spider": "usps_collection_boxes", "addr:city": "NORTH TONAWANDA", "addr:country": "US", "addr:full": "505 MEADOW MDW", "addr:postcode": "14120", "addr:state": "NY", "amenity": "post_box", "brand": "United States Postal Service", "brand:wikidata": "Q668687", "collection_times": "Mo-Sa 09:00", "name": "USPS COLLECTION BOX - BLUE BOX", "nsi_id": "unitedstatespostalservice-a77078", "operator": "United States Postal Service", "operator:short": "USPS", "operator:type": "public", "operator:wikidata": "Q668687", "ref": "1412000061"}, "type": "Feature"}
{"dataset_attributes": {"@spider": "usps_collection_boxes", "spider:collection_time": "2023-10-25T08:26:15.836184"}, "geometry": {"coordinates": [-78.84068377, 43.060786395], "type": "Point"}, "id": "U0dC6VKSmrhKTyy9bJEdYt1LTtc=", "properties": {"@spider": "usps_collection_boxes", "addr:city": "NORTH TONAWANDA", "addr:country": "US", "addr:full": "908 NIAGARA FALLS BLVD", "addr:postcode": "14120", "addr:state": "NY", "amenity": "post_box", "brand": "United States Postal Service", "brand:wikidata": "Q668687", "collection_times": "Mo-Sa 09:00", "name": "USPS COLLECTION BOX - BLUE BOX", "nsi_id": "unitedstatespostalservice-a77078", "operator": "United States Postal Service", "operator:short": "USPS", "operator:type": "public", "operator:wikidata": "Q668687", "ref": "1412000063"}, "type": "Feature"}
{"dataset_attributes": {"@spider": "usps_collection_boxes", "spider:collection_time": "2023-10-25T08:26:15.836184"}, "geometry": {"coordinates": [-78.847731626, 43.050829023], "type": "Point"}, "id": "mVCcNjp22Qvc6u_i52OPLKHRjZ4=", "properties": {"@spider": "usps_collection_boxes", "addr:city": "NORTH TONAWANDA", "addr:country": "US", "addr:full": "1174 ERIE AVE", "addr:postcode": "14120", "addr:state": "NY", "amenity": "post_box", "brand": "United States Postal Service", "brand:wikidata": "Q668687", "collection_times": "Mo-Sa 09:00", "name": "USPS COLLECTION BOX - BLUE BOX", "nsi_id": "unitedstatespostalservice-a77078", "operator": "United States Postal Service", "operator:short": "USPS", "operator:type": "public", "operator:wikidata": "Q668687", "ref": "1412000065"}, "type": "Feature"}
{"dataset_attributes": {"@spider": "usps_collection_boxes", "spider:collection_time": "2023-10-25T08:26:15.836184"}, "geometry": {"coordinates": [-78.862568209, 43.026165804], "type": "Point"}, "id": "ADwI5g2L4BOpm2vIzur0j5UkxG8=", "properties": {"@spider": "usps_collection_boxes", "addr:city": "NORTH TONAWANDA", "addr:country": "US", "addr:full": "445 TREMONT ST", "addr:postcode": "14120", "addr:state": "NY", "amenity": "post_box", "brand": "United States Postal Service", "brand:wikidata": "Q668687", "collection_times": "Mo-Sa 09:00", "name": "USPS COLLECTION BOX - BLUE BOX", "nsi_id": "unitedstatespostalservice-a77078", "operator": "United States Postal Service", "operator:short": "USPS", "operator:type": "public", "operator:wikidata": "Q668687", "ref": "1412000066"}, "type": "Feature"}
{"dataset_attributes": {"@spider": "usps_collection_boxes", "spider:collection_time": "2023-10-25T08:26:15.836184"}, "geometry": {"coordinates": [-78.873134858, 43.025249747], "type": "Point"}, "id": "yfRZiRp1FpqsdP38XP_KJ-skPHQ=", "properties": {"@spider": "usps_collection_boxes", "addr:city": "NORTH TONAWANDA", "addr:country": "US", "addr:full": "141 GOUNDRY ST", "addr:postcode": "14120", "addr:state": "NY", "amenity": "post_box", "brand": "United States Postal Service", "brand:wikidata": "Q668687", "collection_times": "Mo-Fr 17:15; Sa 16:30", "name": "USPS COLLECTION BOX - BLUE BOX", "note": "ON 12/24 AND 12/31, THIS BOX MAY BE COLLECTED AS EARLY AS 12 NOON.", "nsi_id": "unitedstatespostalservice-a77078", "operator": "United States Postal Service", "operator:short": "USPS", "operator:type": "public", "operator:wikidata": "Q668687", "ref": "1412000067"}, "type": "Feature"}
{"dataset_attributes": {"@spider": "usps_collection_boxes", "spider:collection_time": "2023-10-25T08:26:15.836184"}, "geometry": {"coordinates": [-78.840819, 43.060014], "type": "Point"}, "id": "cxwv7Bdve-KZLbb05uLEDTliK7w=", "properties": {"@spider": "usps_collection_boxes", "addr:city": "NORTH TONAWANDA", "addr:country": "US", "addr:full": "886 NIAGARA FALLS BOULEVARD", "addr:postcode": "14120", "addr:state": "NY", "amenity": "post_box", "brand": "United States Postal Service", "brand:wikidata": "Q668687", "collection_times": "Mo-Sa 09:00", "name": "USPS COLLECTION BOX - BLUE BOX", "nsi_id": "unitedstatespostalservice-a77078", "operator": "United States Postal Service", "operator:short": "USPS", "operator:type": "public", "operator:wikidata": "Q668687", "ref": "1412000070"}, "type": "Feature"}
{"dataset_attributes": {"@spider": "usps_collection_boxes", "spider:collection_time": "2023-10-25T08:26:15.836184"}, "geometry": {"coordinates": [-78.875199, 43.024464], "type": "Point"}, "id": "hOnoDwAgfjZKxTPfY7hQ8B-xa3Q=", "properties": {"@spider": "usps_collection_boxes", "addr:city": "NORTH TONAWANDA", "addr:country": "US", "addr:full": "85 COLUMBIA", "addr:postcode": "14120", "addr:state": "NY", "amenity": "post_box", "brand": "United States Postal Service", "brand:wikidata": "Q668687", "collection_times": "Mo-Sa 09:00", "name": "USPS COLLECTION BOX - BLUE BOX", "nsi_id": "unitedstatespostalservice-a77078", "operator": "United States Postal Service", "operator:short": "USPS", "operator:type": "public", "operator:wikidata": "Q668687", "ref": "1412000071"}, "type": "Feature"}
{"dataset_attributes": {"@spider": "usps_collection_boxes", "spider:collection_time": "2023-10-25T08:26:15.836184"}, "geometry": {"coordinates": [-78.877210782, 43.049268378], "type": "Point"}, "id": "cfI1ywaW0XFQgtkc1TlubRRZjrM=", "properties": {"@spider": "usps_collection_boxes", "addr:city": "NORTH TONAWANDA", "addr:country": "US", "addr:full": "953 PAYNE AVE", "addr:postcode": "14120", "addr:state": "NY", "amenity": "post_box", "brand": "United States Postal Service", "brand:wikidata": "Q668687", "collection_times": "Mo-Sa 09:00", "name": "USPS COLLECTION BOX - BLUE BOX", "nsi_id": "unitedstatespostalservice-a77078", "operator": "United States Postal Service", "operator:short": "USPS", "operator:type": "public", "operator:wikidata": "Q668687", "ref": "1412000072"}, "type": "Feature"}
{"dataset_attributes": {"@spider": "usps_collection_boxes", "spider:collection_time": "2023-10-25T08:26:15.836184"}, "geometry": {"coordinates": [-78.865749922, 43.060515127], "type": "Point"}, "id": "Ie3vcfo_QXu5t6Lygl_mE51LqL0=", "properties": {"@spider": "usps_collection_boxes", "addr:city": "NORTH TONAWANDA", "addr:country": "US", "addr:full": "1381 NASH RD", "addr:postcode": "14120", "addr:state": "NY", "amenity": "post_box", "brand": "United States Postal Service", "brand:wikidata": "Q668687", "collection_times": "Mo-Sa 09:00", "name": "USPS COLLECTION BOX - BLUE BOX", "nsi_id": "unitedstatespostalservice-a77078", "operator": "United States Postal Service", "operator:short": "USPS", "operator:type": "public", "operator:wikidata": "Q668687", "ref": "1412000073"}, "type": "Feature"}
{"dataset_attributes": {"@spider": "usps_collection_boxes", "spider:collection_time": "2023-10-25T08:26:15.836184"}, "geometry": {"coordinates": [-78.889492894, 43.086042838], "type": "Point"}, "id": "MWX9viat7rvZLkElOCn-fmJKfs8=", "properties": {"@spider": "usps_collection_boxes", "addr:city": "NORTH TONAWANDA", "addr:country": "US", "addr:full": "6955 WARD RD", "addr:postcode": "14120", "addr:state": "NY", "amenity": "post_box", "brand": "United States Postal Service", "brand:wikidata": "Q668687", "collection_times": "Mo-Sa 09:00", "name": "USPS COLLECTION BOX - BLUE BOX", "nsi_id": "unitedstatespostalservice-a77078", "operator": "United States Postal Service", "operator:short": "USPS", "operator:type": "public", "operator:wikidata": "Q668687", "ref": "1412000075"}, "type": "Feature"}
{"dataset_attributes": {"@spider": "usps_collection_boxes", "spider:collection_time": "2023-10-25T08:26:15.836184"}, "geometry": {"coordinates": [-78.87793538, 43.022226237], "type": "Point"}, "id": "rRvF5RbtznTE0wqWLo9_PJ74-IM=", "properties": {"@spider": "usps_collection_boxes", "addr:city": "NORTH TONAWANDA", "addr:country": "US", "addr:full": "14 WEBSTER ST", "addr:postcode": "14120", "addr:state": "NY", "amenity": "post_box", "brand": "United States Postal Service", "brand:wikidata": "Q668687", "collection_times": "Mo-Sa 09:00", "name": "USPS COLLECTION BOX - BLUE BOX", "nsi_id": "unitedstatespostalservice-a77078", "operator": "United States Postal Service", "operator:short": "USPS", "operator:type": "public", "operator:wikidata": "Q668687", "ref": "1412000078"}, "type": "Feature"}
{"dataset_attributes": {"@spider": "usps_collection_boxes", "spider:collection_time": "2023-10-25T08:26:15.836184"}, "geometry": {"coordinates": [-78.874940765, 43.0522415], "type": "Point"}, "id": "JJrm5v04rv7wJdEcGtDo9pgxK5Y=", "properties": {"@spider": "usps_collection_boxes", "addr:city": "NORTH TONAWANDA", "addr:country": "US", "addr:full": "301 MEADOW DR", "addr:postcode": "14120", "addr:state": "NY", "amenity": "post_box", "brand": "United States Postal Service", "brand:wikidata": "Q668687", "collection_times": "Mo-Sa 09:00", "name": "USPS COLLECTION BOX - BLUE BOX", "nsi_id": "unitedstatespostalservice-a77078", "operator": "United States Postal Service", "operator:short": "USPS", "operator:type": "public", "operator:wikidata": "Q668687", "ref": "1412000081"}, "type": "Feature"}
{"dataset_attributes": {"@spider": "usps_collection_boxes", "spider:collection_time": "2023-10-25T08:26:15.836184"}, "geometry": {"coordinates": [-78.873134858, 43.025249747], "type": "Point"}, "id": "l2HEa4OhFyjtHSh50v_AVmIVezo=", "properties": {"@spider": "usps_collection_boxes", "addr:city": "NORTH TONAWANDA", "addr:country": "US", "addr:full": "141 GOUNDRY ST", "addr:postcode": "14120", "addr:state": "NY", "amenity": "post_box", "brand": "United States Postal Service", "brand:wikidata": "Q668687", "collection_times": "Mo-Fr 17:00; Sa 12:00", "name": "USPS COLLECTION BOX - PO LOBBY", "note": "ON 12/24 AND 12/31, THIS BOX MAY BE COLLECTED AS EARLY AS 12 NOON.", "nsi_id": "unitedstatespostalservice-a77078", "operator": "United States Postal Service", "operator:short": "USPS", "operator:type": "public", "operator:wikidata": "Q668687", "ref": "1412000084"}, "type": "Feature"}
{"dataset_attributes": {"@spider": "usps_collection_boxes", "spider:collection_time": "2023-10-25T08:26:15.836184"}, "geometry": {"coordinates": [-78.271704735, 43.066910586], "type": "Point"}, "id": "JJxG4Hapco4XRZROGAbP9PgkoxA=", "properties": {"@spider": "usps_collection_boxes", "addr:city": "OAKFIELD", "addr:country": "US", "addr:full": "28 MAIN ST", "addr:postcode": "14125", "addr:state": "NY", "amenity": "post_box", "brand": "United States Postal Service", "brand:wikidata": "Q668687", "collection_times": "Mo-Fr 17:00; Sa 12:00", "name": "USPS COLLECTION BOX - BLUE BOX", "note": "ON 12/24 AND 12/31, THIS BOX MAY BE COLLECTED AS EARLY AS 12 NOON.", "nsi_id": "unitedstatespostalservice-a77078", "operator": "United States Postal Service", "operator:short": "USPS", "operator:type": "public", "operator:wikidata": "Q668687", "ref": "1412500004"}, "type": "Feature"}
{"dataset_attributes": {"@spider": "usps_collection_boxes", "spider:collection_time": "2023-10-25T08:26:15.836184"}, "geometry": {"coordinates": [-78.271704735, 43.066910586], "type": "Point"}, "id": "GFfM4ja5AdjvtMy_qbYcc9tmM9w=", "properties": {"@spider": "usps_collection_boxes", "addr:city": "OAKFIELD", "addr:country": "US", "addr:full": "28 MAIN ST", "addr:postcode": "14125", "addr:state": "NY", "amenity": "post_box", "brand": "United States Postal Service", "brand:wikidata": "Q668687", "collection_times": "Mo-Fr 17:00; Sa 12:00", "name": "USPS COLLECTION BOX - PO LOBBY", "note": "ON 12/24 AND 12/31, THIS BOX MAY BE COLLECTED AS EARLY AS 12 NOON.", "nsi_id": "unitedstatespostalservice-a77078", "operator": "United States Postal Service", "operator:short": "USPS", "operator:type": "public", "operator:wikidata": "Q668687", "ref": "1412500005"}, "type": "Feature"}
{"dataset_attributes": {"@spider": "usps_collection_boxes", "spider:collection_time": "2023-10-25T08:26:15.836184"}, "geometry": {"coordinates": [-78.714036056, 43.334757827], "type": "Point"}, "id": "t-88UuGD7s1u3BC9IhF0-y8GJqM=", "properties": {"@spider": "usps_collection_boxes", "addr:city": "OLCOTT", "addr:country": "US", "addr:full": "1617 LOCKPORT OLCOTT RD", "addr:postcode": "14126", "addr:state": "NY", "amenity": "post_box", "brand": "United States Postal Service", "brand:wikidata": "Q668687", "collection_times": "Mo-Fr 16:45; Sa 12:00", "name": "USPS COLLECTION BOX - BLUE BOX", "note": "ON 12/24 AND 12/31, THIS BOX MAY BE COLLECTED AS EARLY AS 12 NOON.", "nsi_id": "unitedstatespostalservice-a77078", "operator": "United States Postal Service", "operator:short": "USPS", "operator:type": "public", "operator:wikidata": "Q668687", "ref": "1412600001"}, "type": "Feature"}
{"dataset_attributes": {"@spider": "usps_collection_boxes", "spider:collection_time": "2023-10-25T08:26:15.836184"}, "geometry": {"coordinates": [-78.714036056, 43.334757827], "type": "Point"}, "id": "xN4M3JNA0G6Df-ZzG2vgf0FNMio=", "properties": {"@spider": "usps_collection_boxes", "addr:city": "OLCOTT", "addr:country": "US", "addr:full": "1617 LOCKPORT OLCOTT RD", "addr:postcode": "14126", "addr:state": "NY", "amenity": "post_box", "brand": "United States Postal Service", "brand:wikidata": "Q668687", "collection_times": "Mo-Fr 17:00; Sa 12:00", "name": "USPS COLLECTION BOX - PO LOBBY", "note": "ON 12/24 AND 12/31, THIS BOX MAY BE COLLECTED AS EARLY AS 12 NOON.", "nsi_id": "unitedstatespostalservice-a77078", "operator": "United States Postal Service", "operator:short": "USPS", "operator:type": "public", "operator:wikidata": "Q668687", "ref": "1412600004"}, "type": "Feature"}
{"dataset_attributes": {"@spider": "usps_collection_boxes", "spider:collection_time": "2023-10-25T08:26:15.836184"}, "geometry": {"coordinates": [-78.745952803, 42.764984513], "type": "Point"}, "id": "oVJudCgjDmeTJpBbWtttjOJfu70=", "properties": {"@spider": "usps_collection_boxes", "addr:city": "ORCHARD PARK", "addr:country": "US", "addr:full": "60 SCHOOL ST", "addr:postcode": "14127", "addr:state": "NY", "amenity": "post_box", "brand": "United States Postal Service", "brand:wikidata": "Q668687", "collection_times": "Mo-Fr 17:15; Sa 15:15", "name": "USPS COLLECTION BOX - BLUE BOX", "note": "ON 12/24 AND 12/31, THIS BOX MAY BE COLLECTED AS EARLY AS 12 NOON.", "nsi_id": "unitedstatespostalservice-a77078", "operator": "United States Postal Service", "operator:short": "USPS", "operator:type": "public", "operator:wikidata": "Q668687", "ref": "1412700001"}, "type": "Feature"}
{"dataset_attributes": {"@spider": "usps_collection_boxes", "spider:collection_time": "2023-10-25T08:26:15.836184"}, "geometry": {"coordinates": [-78.745952803, 42.764984513], "type": "Point"}, "id": "lbiP0KUc2RIYM0iJNzK3WoH2G84=", "properties": {"@spider": "usps_collection_boxes", "addr:city": "ORCHARD PARK", "addr:country": "US", "addr:full": "60 SCHOOL ST", "addr:postcode": "14127", "addr:state": "NY", "amenity": "post_box", "brand": "United States Postal Service", "brand:wikidata": "Q668687", "collection_times": "Mo-Fr 17:15; Sa 15:15", "name": "USPS COLLECTION BOX - BLUE BOX", "note": "ON 12/24 AND 12/31, THIS BOX MAY BE COLLECTED AS EARLY AS 12 NOON.", "nsi_id": "unitedstatespostalservice-a77078", "operator": "United States Postal Service", "operator:short": "USPS", "operator:type": "public", "operator:wikidata": "Q668687", "ref": "1412700002"}, "type": "Feature"}
{"dataset_attributes": {"@spider": "usps_collection_boxes", "spider:collection_time": "2023-10-25T08:26:15.836184"}, "geometry": {"coordinates": [-78.747967538, 42.750794944], "type": "Point"}, "id": "ZDA7D-j2plrClGKbT1TALxWFMyA=", "properties": {"@spider": "usps_collection_boxes", "addr:city": "ORCHARD PARK", "addr:country": "US", "addr:full": "4906 S BUFFALO ST", "addr:postcode": "14127", "addr:state": "NY", "amenity": "post_box", "brand": "United States Postal Service", "brand:wikidata": "Q668687", "collection_times": "Mo-Sa 14:30", "name": "USPS COLLECTION BOX - BLUE BOX", "note": "ON 12/24 AND 12/31, THIS BOX MAY BE COLLECTED AS EARLY AS 12 NOON.", "nsi_id": "unitedstatespostalservice-a77078", "operator": "United States Postal Service", "operator:short": "USPS", "operator:type": "public", "operator:wikidata": "Q668687", "ref": "1412700004"}, "type": "Feature"}
{"dataset_attributes": {"@spider": "usps_collection_boxes", "spider:collection_time": "2023-10-25T08:26:15.836184"}, "geometry": {"coordinates": [-78.745108976, 42.772637297], "type": "Point"}, "id": "lq8ZiIabGDvBxBBX8DDnPsUExnw=", "properties": {"@spider": "usps_collection_boxes", "addr:city": "ORCHARD PARK", "addr:country": "US", "addr:full": "4060 N BUFFALO ST", "addr:postcode": "14127", "addr:state": "NY", "amenity": "post_box", "brand": "United States Postal Service", "brand:wikidata": "Q668687", "collection_times": "Mo-Fr 17:00; Sa 15:00", "name": "USPS COLLECTION BOX - BLUE BOX", "note": "ON 12/24 AND 12/31, THIS BOX MAY BE COLLECTED AS EARLY AS 12 NOON.", "nsi_id": "unitedstatespostalservice-a77078", "operator": "United States Postal Service", "operator:short": "USPS", "operator:type": "public", "operator:wikidata": "Q668687", "ref": "1412700012"}, "type": "Feature"}
{"dataset_attributes": {"@spider": "usps_collection_boxes", "spider:collection_time": "2023-10-25T08:26:15.836184"}, "geometry": {"coordinates": [-78.743045233, 42.767587732], "type": "Point"}, "id": "CbUX7GdSlfYWMv82o82nj56i2m8=", "properties": {"@spider": "usps_collection_boxes", "addr:city": "ORCHARD PARK", "addr:country": "US", "addr:full": "6529 E QUAKER ST", "addr:postcode": "14127", "addr:state": "NY", "amenity": "post_box", "brand": "United States Postal Service", "brand:wikidata": "Q668687", "collection_times": "Mo-Fr 17:00; Sa 15:00", "name": "USPS COLLECTION BOX - BLUE BOX", "note": "ON 12/24 AND 12/31, THIS BOX MAY BE COLLECTED AS EARLY AS 12 NOON.", "nsi_id": "unitedstatespostalservice-a77078", "operator": "United States Postal Service", "operator:short": "USPS", "operator:type": "public", "operator:wikidata": "Q668687", "ref": "1412700024"}, "type": "Feature"}
{"dataset_attributes": {"@spider": "usps_collection_boxes", "spider:collection_time": "2023-10-25T08:26:15.836184"}, "geometry": {"coordinates": [-78.752858787, 42.801431205], "type": "Point"}, "id": "deLUa7_Ea77pk1qfgV3RhRql9v4=", "properties": {"@spider": "usps_collection_boxes", "addr:city": "ORCHARD PARK", "addr:country": "US", "addr:full": "3049 ORCHARD PARK RD", "addr:postcode": "14127", "addr:state": "NY", "amenity": "post_box", "brand": "United States Postal Service", "brand:wikidata": "Q668687", "collection_times": "Mo-Fr 17:00; Sa 15:00", "name": "USPS COLLECTION BOX - BLUE BOX", "note": "ON 12/24 AND 12/31, THIS BOX MAY BE COLLECTED AS EARLY AS 12 NOON.", "nsi_id": "unitedstatespostalservice-a77078", "operator": "United States Postal Service", "operator:short": "USPS", "operator:type": "public", "operator:wikidata": "Q668687", "ref": "1412700032"}, "type": "Feature"}
{"dataset_attributes": {"@spider": "usps_collection_boxes", "spider:collection_time": "2023-10-25T08:26:15.836184"}, "geometry": {"coordinates": [-78.738407837, 42.803671572], "type": "Point"}, "id": "0sK5PU0rD9dNNf_BkfH-oWyRzHk=", "properties": {"@spider": "usps_collection_boxes", "addr:city": "ORCHARD PARK", "addr:country": "US", "addr:full": "3085 SOUTHWESTERN BLVD", "addr:postcode": "14127", "addr:state": "NY", "amenity": "post_box", "brand": "United States Postal Service", "brand:wikidata": "Q668687", "collection_times": "Mo-Fr 17:00; Sa 15:00", "name": "USPS COLLECTION BOX - BLUE BOX", "note": "ON 12/24 AND 12/31, THIS BOX MAY BE COLLECTED AS EARLY AS 12 NOON.", "nsi_id": "unitedstatespostalservice-a77078", "operator": "United States Postal Service", "operator:short": "USPS", "operator:type": "public", "operator:wikidata": "Q668687", "ref": "1412700035"}, "type": "Feature"}
{"dataset_attributes": {"@spider": "usps_collection_boxes", "spider:collection_time": "2023-10-25T08:26:15.836184"}, "geometry": {"coordinates": [-78.755373479, 42.793664789], "type": "Point"}, "id": "4JVrSp6c_R7hKsNz2x9u472IMsI=", "properties": {"@spider": "usps_collection_boxes", "addr:city": "ORCHARD PARK", "addr:country": "US", "addr:full": "3364 SOUTHWESTERN BLVD", "addr:postcode": "14127", "addr:state": "NY", "amenity": "post_box", "brand": "United States Postal Service", "brand:wikidata": "Q668687", "collection_times": "Mo-Fr 17:00; Sa 15:15", "name": "USPS COLLECTION BOX - BLUE BOX", "note": "ON 12/24 AND 12/31, THIS BOX MAY BE COLLECTED AS EARLY AS 12 NOON.", "nsi_id": "unitedstatespostalservice-a77078", "operator": "United States Postal Service", "operator:short": "USPS", "operator:type": "public", "operator:wikidata": "Q668687", "ref": "1412700041"}, "type": "Feature"}
{"dataset_attributes": {"@spider": "usps_collection_boxes", "spider:collection_time": "2023-10-25T08:26:15.836184"}, "geometry": {"coordinates": [-78.744386212, 42.769483691], "type": "Point"}, "id": "1OBFe8cvOJyXIte_5oRbv9K0JOE=", "properties": {"@spider": "usps_collection_boxes", "addr:city": "ORCHARD PARK", "addr:country": "US", "addr:full": "4190 N BUFFALO RD", "addr:postcode": "14127", "addr:state": "NY", "amenity": "post_box", "brand": "United States Postal Service", "brand:wikidata": "Q668687", "collection_times": "Mo-Fr 17:00; Sa 15:00", "name": "USPS COLLECTION BOX - BLUE BOX", "note": "ON 12/24 AND 12/31, THIS BOX MAY BE COLLECTED AS EARLY AS 12 NOON.", "nsi_id": "unitedstatespostalservice-a77078", "operator": "United States Postal Service", "operator:short": "USPS", "operator:type": "public", "operator:wikidata": "Q668687", "ref": "1412700044"}, "type": "Feature"}
{"dataset_attributes": {"@spider": "usps_collection_boxes", "spider:collection_time": "2023-10-25T08:26:15.836184"}, "geometry": {"coordinates": [-78.749377055, 42.797597514], "type": "Point"}, "id": "_E78a_ddqk6ebwa7EK_dOcY9XNs=", "properties": {"@spider": "usps_collection_boxes", "addr:city": "ORCHARD PARK", "addr:country": "US", "addr:full": "3201 SOUTHWESTERN BLVD", "addr:postcode": "14127", "addr:state": "NY", "amenity": "post_box", "brand": "United States Postal Service", "brand:wikidata": "Q668687", "collection_times": "Mo-Fr 17:00; Sa 15:00", "name": "USPS COLLECTION BOX - BLUE BOX", "note": "ON 12/24 AND 12/31, THIS BOX MAY BE COLLECTED AS EARLY AS 12 NOON.", "nsi_id": "unitedstatespostalservice-a77078", "operator": "United States Postal Service", "operator:short": "USPS", "operator:type": "public", "operator:wikidata": "Q668687", "ref": "1412700046"}, "type": "Feature"}
{"dataset_attributes": {"@spider": "usps_collection_boxes", "spider:collection_time": "2023-10-25T08:26:15.836184"}, "geometry": {"coordinates": [-78.749377055, 42.797597514], "type": "Point"}, "id": "6zUwPXbuorYqJQQ4c3fcq5N8ciI=", "properties": {"@spider": "usps_collection_boxes", "addr:city": "ORCHARD PARK", "addr:country": "US", "addr:full": "3201 SOUTHWESTERN BLVD", "addr:postcode": "14127", "addr:state": "NY", "amenity": "post_box", "brand": "United States Postal Service", "brand:wikidata": "Q668687", "collection_times": "Mo-Fr 17:00; Sa 15:00", "name": "USPS COLLECTION BOX - BLUE BOX", "note": "ON 12/24 AND 12/31, THIS BOX MAY BE COLLECTED AS EARLY AS 12 NOON.", "nsi_id": "unitedstatespostalservice-a77078", "operator": "United States Postal Service", "operator:short": "USPS", "operator:type": "public", "operator:wikidata": "Q668687", "ref": "1412700047"}, "type": "Feature"}
{"dataset_attributes": {"@spider": "usps_collection_boxes", "spider:collection_time": "2023-10-25T08:26:15.836184"}, "geometry": {"coordinates": [-78.745952803, 42.764984513], "type": "Point"}, "id": "AKPtvzAaUgcUzuOmri_dGtvdGEU=", "properties": {"@spider": "usps_collection_boxes", "addr:city": "ORCHARD PARK", "addr:country": "US", "addr:full": "60 SCHOOL ST", "addr:postcode": "14127", "addr:state": "NY", "amenity": "post_box", "brand": "United States Postal Service", "brand:wikidata": "Q668687", "collection_times": "Mo-Fr 17:15; Sa 15:15", "name": "USPS COLLECTION BOX - APC", "note": "ON 12/24 AND 12/31, THIS BOX MAY BE COLLECTED AS EARLY AS 12 NOON.", "nsi_id": "unitedstatespostalservice-a77078", "operator": "United States Postal Service", "operator:short": "USPS", "operator:type": "public", "operator:wikidata": "Q668687", "ref": "1412700048"}, "type": "Feature"}
{"dataset_attributes": {"@spider": "usps_collection_boxes", "spider:collection_time": "2023-10-25T08:26:15.836184"}, "geometry": {"coordinates": [-78.745952803, 42.764984513], "type": "Point"}, "id": "ZP9G9zyvKXFnNqDdWKADfyPMRSY=", "properties": {"@spider": "usps_collection_boxes", "addr:city": "ORCHARD PARK", "addr:country": "US", "addr:full": "60 SCHOOL ST", "addr:postcode": "14127", "addr:state": "NY", "amenity": "post_box", "brand": "United States Postal Service", "brand:wikidata": "Q668687", "collection_times": "Mo-Fr 17:15; Sa 15:15", "name": "USPS COLLECTION BOX - PO LOBBY", "note": "ON 12/24 AND 12/31, THIS BOX MAY BE COLLECTED AS EARLY AS 12 NOON.", "nsi_id": "unitedstatespostalservice-a77078", "operator": "United States Postal Service", "operator:short": "USPS", "operator:type": "public", "operator:wikidata": "Q668687", "ref": "1412700049"}, "type": "Feature"}
{"dataset_attributes": {"@spider": "usps_collection_boxes", "spider:collection_time": "2023-10-25T08:26:15.836184"}, "geometry": {"coordinates": [-78.745952803, 42.764984513], "type": "Point"}, "id": "y1_ajnFDR3ZcOU-VDFcE3THNmB4=", "properties": {"@spider": "usps_collection_boxes", "addr:city": "ORCHARD PARK", "addr:country": "US", "addr:full": "60 SCHOOL ST", "addr:postcode": "14127", "addr:state": "NY", "amenity": "post_box", "brand": "United States Postal Service", "brand:wikidata": "Q668687", "collection_times": "Mo-Fr 17:00; Sa 13:00", "name": "USPS COLLECTION BOX - PO LOBBY", "note": "ON 12/24 AND 12/31, THIS BOX MAY BE COLLECTED AS EARLY AS 12 NOON.", "nsi_id": "unitedstatespostalservice-a77078", "operator": "United States Postal Service", "operator:short": "USPS", "operator:type": "public", "operator:wikidata": "Q668687", "ref": "1412700052"}, "type": "Feature"}
{"dataset_attributes": {"@spider": "usps_collection_boxes", "spider:collection_time": "2023-10-25T08:26:15.836184"}, "geometry": {"coordinates": [-79.001801932, 42.456465512], "type": "Point"}, "id": "DDlluSlmkD8UGGdHi5dA1_HQyms=", "properties": {"@spider": "usps_collection_boxes", "addr:city": "PERRYSBURG", "addr:country": "US", "addr:full": "11980 MAIN ST", "addr:postcode": "14129", "addr:state": "NY", "amenity": "post_box", "brand": "United States Postal Service", "brand:wikidata": "Q668687", "collection_times": "Mo-Fr 15:00; Sa 11:45", "name": "USPS COLLECTION BOX - BLUE BOX", "note": "ON 12/24 AND 12/31, THIS BOX MAY BE COLLECTED AS EARLY AS 12 NOON.", "nsi_id": "unitedstatespostalservice-a77078", "operator": "United States Postal Service", "operator:short": "USPS", "operator:type": "public", "operator:wikidata": "Q668687", "ref": "1412900003"}, "type": "Feature"}
{"dataset_attributes": {"@spider": "usps_collection_boxes", "spider:collection_time": "2023-10-25T08:26:15.836184"}, "geometry": {"coordinates": [-79.001801932, 42.456465512], "type": "Point"}, "id": "XxycLY_bIGo5M-QT30XhPJwWIhA=", "properties": {"@spider": "usps_collection_boxes", "addr:city": "PERRYSBURG", "addr:country": "US", "addr:full": "11980 MAIN ST", "addr:postcode": "14129", "addr:state": "NY", "amenity": "post_box", "brand": "United States Postal Service", "brand:wikidata": "Q668687", "collection_times": "Mo-Fr 15:00; Sa 12:00", "name": "USPS COLLECTION BOX - PO LOBBY", "note": "ON 12/24 AND 12/31, THIS BOX MAY BE COLLECTED AS EARLY AS 12 NOON.", "nsi_id": "unitedstatespostalservice-a77078", "operator": "United States Postal Service", "operator:short": "USPS", "operator:type": "public", "operator:wikidata": "Q668687", "ref": "1412900005"}, "type": "Feature"}
{"dataset_attributes": {"@spider": "usps_collection_boxes", "spider:collection_time": "2023-10-25T08:26:15.836184"}, "geometry": {"coordinates": [-78.140939005, 42.565392648], "type": "Point"}, "id": "NiElLWnnw62LBIb1A300a8DyLPM=", "properties": {"@spider": "usps_collection_boxes", "addr:city": "PIKE", "addr:country": "US", "addr:full": "59 E MAIN ST", "addr:postcode": "14130", "addr:state": "NY", "amenity": "post_box", "brand": "United States Postal Service", "brand:wikidata": "Q668687", "collection_times": "Mo-Fr 16:45; Sa 11:45", "name": "USPS COLLECTION BOX - BLUE BOX", "note": "ON 12/24 AND 12/31, THIS BOX MAY BE COLLECTED AS EARLY AS 12 NOON.", "nsi_id": "unitedstatespostalservice-a77078", "operator": "United States Postal Service", "operator:short": "USPS", "operator:type": "public", "operator:wikidata": "Q668687", "ref": "1413000001"}, "type": "Feature"}
{"dataset_attributes": {"@spider": "usps_collection_boxes", "spider:collection_time": "2023-10-25T08:26:15.836184"}, "geometry": {"coordinates": [-78.140939005, 42.565392648], "type": "Point"}, "id": "CKiqE0GUYhD7iKmmmOO1anxL3DM=", "properties": {"@spider": "usps_collection_boxes", "addr:city": "PIKE", "addr:country": "US", "addr:full": "59 E MAIN ST", "addr:postcode": "14130", "addr:state": "NY", "amenity": "post_box", "brand": "United States Postal Service", "brand:wikidata": "Q668687", "collection_times": "Mo-Fr 17:00; Sa 12:00", "name": "USPS COLLECTION BOX - PO LOBBY", "note": "ON 12/24 AND 12/31, THIS BOX MAY BE COLLECTED AS EARLY AS 12 NOON.", "nsi_id": "unitedstatespostalservice-a77078", "operator": "United States Postal Service", "operator:short": "USPS", "operator:type": "public", "operator:wikidata": "Q668687", "ref": "1413000005"}, "type": "Feature"}
{"dataset_attributes": {"@spider": "usps_collection_boxes", "spider:collection_time": "2023-10-25T08:26:15.836184"}, "geometry": {"coordinates": [-78.846383341, 43.242324038], "type": "Point"}, "id": "vUz0FjumTQsMGYBZs2lVrq2XRBE=", "properties": {"@spider": "usps_collection_boxes", "addr:city": "RANSOMVILLE", "addr:country": "US", "addr:full": "3635 NEW RD", "addr:postcode": "14131", "addr:state": "NY", "amenity": "post_box", "brand": "United States Postal Service", "brand:wikidata": "Q668687", "collection_times": "Mo-Fr 09:00", "name": "USPS COLLECTION BOX - BLUE BOX", "nsi_id": "unitedstatespostalservice-a77078", "operator": "United States Postal Service", "operator:short": "USPS", "operator:type": "public", "operator:wikidata": "Q668687", "ref": "1413100002"}, "type": "Feature"}
{"dataset_attributes": {"@spider": "usps_collection_boxes", "spider:collection_time": "2023-10-25T08:26:15.836184"}, "geometry": {"coordinates": [-78.908154816, 43.238193023], "type": "Point"}, "id": "XNG0Z3yV-ch7FL6hUN-W5gaEaZA=", "properties": {"@spider": "usps_collection_boxes", "addr:city": "RANSOMVILLE", "addr:country": "US", "addr:full": "2567 YOUNGSTOWN LOCKPORT RD", "addr:postcode": "14131", "addr:state": "NY", "amenity": "post_box", "brand": "United States Postal Service", "brand:wikidata": "Q668687", "collection_times": "Mo-Fr 16:30; Sa 12:00", "name": "USPS COLLECTION BOX - BLUE BOX", "note": "ON 12/24 AND 12/31, THIS BOX MAY BE COLLECTED AS EARLY AS 12 NOON.", "nsi_id": "unitedstatespostalservice-a77078", "operator": "United States Postal Service", "operator:short": "USPS", "operator:type": "public", "operator:wikidata": "Q668687", "ref": "1413100004"}, "type": "Feature"}
{"dataset_attributes": {"@spider": "usps_collection_boxes", "spider:collection_time": "2023-10-25T08:26:15.836184"}, "geometry": {"coordinates": [-78.908154816, 43.238193023], "type": "Point"}, "id": "5qu_IemigtUINd3j_IL8BIo6s-c=", "properties": {"@spider": "usps_collection_boxes", "addr:city": "RANSOMVILLE", "addr:country": "US", "addr:full": "2567 YOUNGSTOWN LOCKPORT RD", "addr:postcode": "14131", "addr:state": "NY", "amenity": "post_box", "brand": "United States Postal Service", "brand:wikidata": "Q668687", "collection_times": "Mo-Fr 16:30; Sa 12:00", "name": "USPS COLLECTION BOX - PO LOBBY", "note": "ON 12/24 AND 12/31, THIS BOX MAY BE COLLECTED AS EARLY AS 12 NOON.", "nsi_id": "unitedstatespostalservice-a77078", "operator": "United States Postal Service", "operator:short": "USPS", "operator:type": "public", "operator:wikidata": "Q668687", "ref": "1413100008"}, "type": "Feature"}
{"dataset_attributes": {"@spider": "usps_collection_boxes", "spider:collection_time": "2023-10-25T08:26:15.836184"}, "geometry": {"coordinates": [-78.88704861, 43.136817231], "type": "Point"}, "id": "c-NcoNR4lnKHr4CPVBnoM6mlmy8=", "properties": {"@spider": "usps_collection_boxes", "addr:city": "SANBORN", "addr:country": "US", "addr:full": "2901 NIAGARA ST", "addr:postcode": "14132", "addr:state": "NY", "amenity": "post_box", "brand": "United States Postal Service", "brand:wikidata": "Q668687", "collection_times": "Mo-Fr 17:00; Sa 12:00", "name": "USPS COLLECTION BOX - BLUE BOX", "note": "ON 12/24 AND 12/31, THIS BOX MAY BE COLLECTED AS EARLY AS 12 NOON.", "nsi_id": "unitedstatespostalservice-a77078", "operator": "United States Postal Service", "operator:short": "USPS", "operator:type": "public", "operator:wikidata": "Q668687", "ref": "1413200001"}, "type": "Feature"}
{"dataset_attributes": {"@spider": "usps_collection_boxes", "spider:collection_time": "2023-10-25T08:26:15.836184"}, "geometry": {"coordinates": [-78.88392, 43.143237509], "type": "Point"}, "id": "RhQo9WuQiAWMg5JL7GcBX5-s2Qs=", "properties": {"@spider": "usps_collection_boxes", "addr:city": "SANBORN", "addr:country": "US", "addr:full": "2956 SAUNDERS SETTLEMENT RD", "addr:postcode": "14132", "addr:state": "NY", "amenity": "post_box", "brand": "United States Postal Service", "brand:wikidata": "Q668687", "collection_times": "Mo-Fr 09:00", "name": "USPS COLLECTION BOX - BLUE BOX", "nsi_id": "unitedstatespostalservice-a77078", "operator": "United States Postal Service", "operator:short": "USPS", "operator:type": "public", "operator:wikidata": "Q668687", "ref": "1413200003"}, "type": "Feature"}
{"dataset_attributes": {"@spider": "usps_collection_boxes", "spider:collection_time": "2023-10-25T08:26:15.836184"}, "geometry": {"coordinates": [-78.88704861, 43.136817231], "type": "Point"}, "id": "ooapaO6xrpipAdXNmseAbHCR6UQ=", "properties": {"@spider": "usps_collection_boxes", "addr:city": "SANBORN", "addr:country": "US", "addr:full": "2901 NIAGARA ST", "addr:postcode": "14132", "addr:state": "NY", "amenity": "post_box", "brand": "United States Postal Service", "brand:wikidata": "Q668687", "collection_times": "Mo-Fr 17:00; Sa 12:00", "name": "USPS COLLECTION BOX - PO LOBBY", "note": "ON 12/24 AND 12/31, THIS BOX MAY BE COLLECTED AS EARLY AS 12 NOON.", "nsi_id": "unitedstatespostalservice-a77078", "operator": "United States Postal Service", "operator:short": "USPS", "operator:type": "public", "operator:wikidata": "Q668687", "ref": "1413200006"}, "type": "Feature"}
{"dataset_attributes": {"@spider": "usps_collection_boxes", "spider:collection_time": "2023-10-25T08:26:15.836184"}, "geometry": {"coordinates": [-78.508167728, 42.543387283], "type": "Point"}, "id": "w-XckW-KV_D3NXfIQxHeAS_8F9A=", "properties": {"@spider": "usps_collection_boxes", "addr:city": "SARDINIA", "addr:country": "US", "addr:full": "12310 SAVAGE RD", "addr:postcode": "14134", "addr:state": "NY", "amenity": "post_box", "brand": "United States Postal Service", "brand:wikidata": "Q668687", "collection_times": "Mo-Fr 16:30; Sa 12:00", "name": "USPS COLLECTION BOX - BLUE BOX", "note": "ON 12/24 AND 12/31, THIS BOX MAY BE COLLECTED AS EARLY AS 12 NOON.", "nsi_id": "unitedstatespostalservice-a77078", "operator": "United States Postal Service", "operator:short": "USPS", "operator:type": "public", "operator:wikidata": "Q668687", "ref": "1413400001"}, "type": "Feature"}
{"dataset_attributes": {"@spider": "usps_collection_boxes", "spider:collection_time": "2023-10-25T08:26:15.836184"}, "geometry": {"coordinates": [-78.508167728, 42.543387283], "type": "Point"}, "id": "WXWr6DIi8i-DRGmyexUhD4het2M=", "properties": {"@spider": "usps_collection_boxes", "addr:city": "SARDINIA", "addr:country": "US", "addr:full": "12310 SAVAGE RD", "addr:postcode": "14134", "addr:state": "NY", "amenity": "post_box", "brand": "United States Postal Service", "brand:wikidata": "Q668687", "collection_times": "Mo-Fr 16:30; Sa 12:00", "name": "USPS COLLECTION BOX - PO LOBBY", "note": "ON 12/24 AND 12/31, THIS BOX MAY BE COLLECTED AS EARLY AS 12 NOON.", "nsi_id": "unitedstatespostalservice-a77078", "operator": "United States Postal Service", "operator:short": "USPS", "operator:type": "public", "operator:wikidata": "Q668687", "ref": "1413400004"}, "type": "Feature"}
{"dataset_attributes": {"@spider": "usps_collection_boxes", "spider:collection_time": "2023-10-25T08:26:15.836184"}, "geometry": {"coordinates": [-79.243548078, 42.484781689], "type": "Point"}, "id": "1a9paVD1UTeTI4KmbnsNtL9hH1I=", "properties": {"@spider": "usps_collection_boxes", "addr:city": "SHERIDAN", "addr:country": "US", "addr:full": "2707 MAIN RD", "addr:postcode": "14135", "addr:state": "NY", "amenity": "post_box", "brand": "United States Postal Service", "brand:wikidata": "Q668687", "collection_times": "Mo-Fr 16:45; Sa 12:00", "name": "USPS COLLECTION BOX - BLUE BOX", "note": "ON 12/24 AND 12/31, THIS BOX MAY BE COLLECTED AS EARLY AS 12 NOON.", "nsi_id": "unitedstatespostalservice-a77078", "operator": "United States Postal Service", "operator:short": "USPS", "operator:type": "public", "operator:wikidata": "Q668687", "ref": "1413500001"}, "type": "Feature"}
{"dataset_attributes": {"@spider": "usps_collection_boxes", "spider:collection_time": "2023-10-25T08:26:15.836184"}, "geometry": {"coordinates": [-79.243548078, 42.484781689], "type": "Point"}, "id": "jU3d41sLDEav0zPMoAi8pq8Cat8=", "properties": {"@spider": "usps_collection_boxes", "addr:city": "SHERIDAN", "addr:country": "US", "addr:full": "2707 MAIN RD", "addr:postcode": "14135", "addr:state": "NY", "amenity": "post_box", "brand": "United States Postal Service", "brand:wikidata": "Q668687", "collection_times": "Mo-Fr 17:00; Sa 12:00", "name": "USPS COLLECTION BOX - PO LOBBY", "note": "ON 12/24 AND 12/31, THIS BOX MAY BE COLLECTED AS EARLY AS 12 NOON.", "nsi_id": "unitedstatespostalservice-a77078", "operator": "United States Postal Service", "operator:short": "USPS", "operator:type": "public", "operator:wikidata": "Q668687", "ref": "1413500004"}, "type": "Feature"}
{"dataset_attributes": {"@spider": "usps_collection_boxes", "spider:collection_time": "2023-10-25T08:26:15.836184"}, "geometry": {"coordinates": [-79.167195526, 42.543056828], "type": "Point"}, "id": "lJ7lAWu7YQ7Tk4JXtZtEAIJ4tmk=", "properties": {"@spider": "usps_collection_boxes", "addr:city": "SILVER CREEK", "addr:country": "US", "addr:full": "37 MAIN ST", "addr:postcode": "14136", "addr:state": "NY", "amenity": "post_box", "brand": "United States Postal Service", "brand:wikidata": "Q668687", "collection_times": "Mo-Fr 16:30; Sa 14:00", "name": "USPS COLLECTION BOX - BLUE BOX", "note": "ON 12/24 AND 12/31, THIS BOX MAY BE COLLECTED AS EARLY AS 12 NOON.", "nsi_id": "unitedstatespostalservice-a77078", "operator": "United States Postal Service", "operator:short": "USPS", "operator:type": "public", "operator:wikidata": "Q668687", "ref": "1413600001"}, "type": "Feature"}
{"dataset_attributes": {"@spider": "usps_collection_boxes", "spider:collection_time": "2023-10-25T08:26:15.836184"}, "geometry": {"coordinates": [-79.167403671, 42.544512572], "type": "Point"}, "id": "C9hKJwaFX-IFebsbvlwuMb8GtMY=", "properties": {"@spider": "usps_collection_boxes", "addr:city": "SILVER CREEK", "addr:country": "US", "addr:full": "214 CENTRAL AVE", "addr:postcode": "14136", "addr:state": "NY", "amenity": "post_box", "brand": "United States Postal Service", "brand:wikidata": "Q668687", "collection_times": "Mo-Sa 12:00", "name": "USPS COLLECTION BOX - BLUE BOX", "nsi_id": "unitedstatespostalservice-a77078", "operator": "United States Postal Service", "operator:short": "USPS", "operator:type": "public", "operator:wikidata": "Q668687", "ref": "1413600015"}, "type": "Feature"}
{"dataset_attributes": {"@spider": "usps_collection_boxes", "spider:collection_time": "2023-10-25T08:26:15.836184"}, "geometry": {"coordinates": [-79.173076144, 42.54569607], "type": "Point"}, "id": "7EAB135hLsp9rT8rW5_Nn1f1jKI=", "properties": {"@spider": "usps_collection_boxes", "addr:city": "SILVER CREEK", "addr:country": "US", "addr:full": "140 CENTRAL AVE", "addr:postcode": "14136", "addr:state": "NY", "amenity": "post_box", "brand": "United States Postal Service", "brand:wikidata": "Q668687", "collection_times": "Mo-Sa 09:00", "name": "USPS COLLECTION BOX - BLUE BOX", "nsi_id": "unitedstatespostalservice-a77078", "operator": "United States Postal Service", "operator:short": "USPS", "operator:type": "public", "operator:wikidata": "Q668687", "ref": "1413600016"}, "type": "Feature"}
{"dataset_attributes": {"@spider": "usps_collection_boxes", "spider:collection_time": "2023-10-25T08:26:15.836184"}, "geometry": {"coordinates": [-79.167195526, 42.543056828], "type": "Point"}, "id": "Nb_zX0nHqaheGkXdrC98-hcTLcA=", "properties": {"@spider": "usps_collection_boxes", "addr:city": "SILVER CREEK", "addr:country": "US", "addr:full": "37 MAIN ST", "addr:postcode": "14136", "addr:state": "NY", "amenity": "post_box", "brand": "United States Postal Service", "brand:wikidata": "Q668687", "collection_times": "Mo-Fr 16:30; Sa 12:00", "name": "USPS COLLECTION BOX - PO LOBBY", "note": "ON 12/24 AND 12/31, THIS BOX MAY BE COLLECTED AS EARLY AS 12 NOON.", "nsi_id": "unitedstatespostalservice-a77078", "operator": "United States Postal Service", "operator:short": "USPS", "operator:type": "public", "operator:wikidata": "Q668687", "ref": "1413600018"}, "type": "Feature"}
{"dataset_attributes": {"@spider": "usps_collection_boxes", "spider:collection_time": "2023-10-25T08:26:15.836184"}, "geometry": {"coordinates": [-79.049493764, 42.361102351], "type": "Point"}, "id": "jvoOLjwX1jlLHS1kHpi5rZGZbvc=", "properties": {"@spider": "usps_collection_boxes", "addr:city": "SOUTH DAYTON", "addr:country": "US", "addr:full": "5 PARK ST", "addr:postcode": "14138", "addr:state": "NY", "amenity": "post_box", "brand": "United States Postal Service", "brand:wikidata": "Q668687", "collection_times": "Mo-Fr 16:25; Sa 12:00", "name": "USPS COLLECTION BOX - BLUE BOX", "note": "ON 12/24 AND 12/31, THIS BOX MAY BE COLLECTED AS EARLY AS 12 NOON.", "nsi_id": "unitedstatespostalservice-a77078", "operator": "United States Postal Service", "operator:short": "USPS", "operator:type": "public", "operator:wikidata": "Q668687", "ref": "1413800003"}, "type": "Feature"}
{"dataset_attributes": {"@spider": "usps_collection_boxes", "spider:collection_time": "2023-10-25T08:26:15.836184"}, "geometry": {"coordinates": [-79.049493764, 42.361102351], "type": "Point"}, "id": "Vyzp1QBrg3s96II2K4n7MKXFTmo=", "properties": {"@spider": "usps_collection_boxes", "addr:city": "SOUTH DAYTON", "addr:country": "US", "addr:full": "5 PARK ST", "addr:postcode": "14138", "addr:state": "NY", "amenity": "post_box", "brand": "United States Postal Service", "brand:wikidata": "Q668687", "collection_times": "Mo-Fr 16:30; Sa 12:00", "name": "USPS COLLECTION BOX - PO LOBBY", "note": "ON 12/24 AND 12/31, THIS BOX MAY BE COLLECTED AS EARLY AS 12 NOON.", "nsi_id": "unitedstatespostalservice-a77078", "operator": "United States Postal Service", "operator:short": "USPS", "operator:type": "public", "operator:wikidata": "Q668687", "ref": "1413800005"}, "type": "Feature"}
{"dataset_attributes": {"@spider": "usps_collection_boxes", "spider:collection_time": "2023-10-25T08:26:15.836184"}, "geometry": {"coordinates": [-78.576175139, 42.707300908], "type": "Point"}, "id": "K_Bp0m0kTzfk-cfkd_IlRN5-olE=", "properties": {"@spider": "usps_collection_boxes", "addr:city": "SOUTH WALES", "addr:country": "US", "addr:full": "6483 OLEAN RD", "addr:postcode": "14139", "addr:state": "NY", "amenity": "post_box", "brand": "United States Postal Service", "brand:wikidata": "Q668687", "collection_times": "Mo-Fr 15:00; Sa 12:00", "name": "USPS COLLECTION BOX - BLUE BOX", "note": "ON 12/24 AND 12/31, THIS BOX MAY BE COLLECTED AS EARLY AS 12 NOON.", "nsi_id": "unitedstatespostalservice-a77078", "operator": "United States Postal Service", "operator:short": "USPS", "operator:type": "public", "operator:wikidata": "Q668687", "ref": "1413900001"}, "type": "Feature"}
{"dataset_attributes": {"@spider": "usps_collection_boxes", "spider:collection_time": "2023-10-25T08:26:15.836184"}, "geometry": {"coordinates": [-78.576175139, 42.707300908], "type": "Point"}, "id": "mBeXvU6mm4CuScVF-lPn9SwY2AM=", "properties": {"@spider": "usps_collection_boxes", "addr:city": "SOUTH WALES", "addr:country": "US", "addr:full": "6483 OLEAN RD", "addr:postcode": "14139", "addr:state": "NY", "amenity": "post_box", "brand": "United States Postal Service", "brand:wikidata": "Q668687", "collection_times": "Mo-Fr 15:00; Sa 12:00", "name": "USPS COLLECTION BOX - PO LOBBY", "note": "ON 12/24 AND 12/31, THIS BOX MAY BE COLLECTED AS EARLY AS 12 NOON.", "nsi_id": "unitedstatespostalservice-a77078", "operator": "United States Postal Service", "operator:short": "USPS", "operator:type": "public", "operator:wikidata": "Q668687", "ref": "1413900004"}, "type": "Feature"}
{"dataset_attributes": {"@spider": "usps_collection_boxes", "spider:collection_time": "2023-10-25T08:26:15.836184"}, "geometry": {"coordinates": [-78.681840023, 42.821963477], "type": "Point"}, "id": "04cZZ7YtSSIZyRWchRXks8B8eJ0=", "properties": {"@spider": "usps_collection_boxes", "addr:city": "SPRINGBROOK", "addr:country": "US", "addr:full": "6150 SENECA ST", "addr:postcode": "14140", "addr:state": "NY", "amenity": "post_box", "brand": "United States Postal Service", "brand:wikidata": "Q668687", "collection_times": "Mo-Fr 17:00; Sa 12:00", "name": "USPS COLLECTION BOX - BLUE BOX", "note": "ON 12/24 AND 12/31, THIS BOX MAY BE COLLECTED AS EARLY AS 12 NOON.", "nsi_id": "unitedstatespostalservice-a77078", "operator": "United States Postal Service", "operator:short": "USPS", "operator:type": "public", "operator:wikidata": "Q668687", "ref": "1414000001"}, "type": "Feature"}
{"dataset_attributes": {"@spider": "usps_collection_boxes", "spider:collection_time": "2023-10-25T08:26:15.836184"}, "geometry": {"coordinates": [-78.681840023, 42.821963477], "type": "Point"}, "id": "VLVFQdmKaVo0Kxh7r4alHnQy9bY=", "properties": {"@spider": "usps_collection_boxes", "addr:city": "SPRINGBROOK", "addr:country": "US", "addr:full": "6150 SENECA ST", "addr:postcode": "14140", "addr:state": "NY", "amenity": "post_box", "brand": "United States Postal Service", "brand:wikidata": "Q668687", "collection_times": "Mo-Fr 17:00; Sa 12:00", "name": "USPS COLLECTION BOX - PO LOBBY", "note": "ON 12/24 AND 12/31, THIS BOX MAY BE COLLECTED AS EARLY AS 12 NOON.", "nsi_id": "unitedstatespostalservice-a77078", "operator": "United States Postal Service", "operator:short": "USPS", "operator:type": "public", "operator:wikidata": "Q668687", "ref": "1414000004"}, "type": "Feature"}
{"dataset_attributes": {"@spider": "usps_collection_boxes", "spider:collection_time": "2023-10-25T08:26:15.836184"}, "geometry": {"coordinates": [-78.66588602, 42.509815228], "type": "Point"}, "id": "yeZlrO7A4b76VYIAN5zfL2vAUTU=", "properties": {"@spider": "usps_collection_boxes", "addr:city": "SPRINGVILLE", "addr:country": "US", "addr:full": "75 FRANKLIN ST", "addr:postcode": "14141", "addr:state": "NY", "amenity": "post_box", "brand": "United States Postal Service", "brand:wikidata": "Q668687", "collection_times": "Mo-Fr 17:00; Sa 12:00", "name": "USPS COLLECTION BOX - BLUE BOX", "note": "ON 12/24 AND 12/31, THIS BOX MAY BE COLLECTED AS EARLY AS 12 NOON.", "nsi_id": "unitedstatespostalservice-a77078", "operator": "United States Postal Service", "operator:short": "USPS", "operator:type": "public", "operator:wikidata": "Q668687", "ref": "1414100002"}, "type": "Feature"}
{"dataset_attributes": {"@spider": "usps_collection_boxes", "spider:collection_time": "2023-10-25T08:26:15.836184"}, "geometry": {"coordinates": [-78.666471956, 42.508568055], "type": "Point"}, "id": "nZ3S81NAQgoojWnGYMdv1EPvQNw=", "properties": {"@spider": "usps_collection_boxes", "addr:city": "SPRINGVILLE", "addr:country": "US", "addr:full": "25 E MAIN ST", "addr:postcode": "14141", "addr:state": "NY", "amenity": "post_box", "brand": "United States Postal Service", "brand:wikidata": "Q668687", "collection_times": "Mo-Sa 09:00", "name": "USPS COLLECTION BOX - BLUE BOX", "nsi_id": "unitedstatespostalservice-a77078", "operator": "United States Postal Service", "operator:short": "USPS", "operator:type": "public", "operator:wikidata": "Q668687", "ref": "1414100008"}, "type": "Feature"}
{"dataset_attributes": {"@spider": "usps_collection_boxes", "spider:collection_time": "2023-10-25T08:26:15.836184"}, "geometry": {"coordinates": [-78.689525463, 42.502043299], "type": "Point"}, "id": "FxxDi5FuPdWvQCYyjs-zjCYui0g=", "properties": {"@spider": "usps_collection_boxes", "addr:city": "SPRINGVILLE", "addr:country": "US", "addr:full": "250 S CASCADE DR", "addr:postcode": "14141", "addr:state": "NY", "amenity": "post_box", "brand": "United States Postal Service", "brand:wikidata": "Q668687", "collection_times": "Mo-Fr 11:00", "name": "USPS COLLECTION BOX - BLUE BOX", "nsi_id": "unitedstatespostalservice-a77078", "operator": "United States Postal Service", "operator:short": "USPS", "operator:type": "public", "operator:wikidata": "Q668687", "ref": "1414100011"}, "type": "Feature"}
{"dataset_attributes": {"@spider": "usps_collection_boxes", "spider:collection_time": "2023-10-25T08:26:15.836184"}, "geometry": {"coordinates": [-78.668593805, 42.50867855], "type": "Point"}, "id": "yISpA4rYljIrJ3qnhaH8Z3Oz7EI=", "properties": {"@spider": "usps_collection_boxes", "addr:city": "SPRINGVILLE", "addr:country": "US", "addr:full": "40 W MAIN ST", "addr:postcode": "14141", "addr:state": "NY", "amenity": "post_box", "brand": "United States Postal Service", "brand:wikidata": "Q668687", "collection_times": "Mo-Sa 09:00", "name": "USPS COLLECTION BOX - BLUE BOX", "nsi_id": "unitedstatespostalservice-a77078", "operator": "United States Postal Service", "operator:short": "USPS", "operator:type": "public", "operator:wikidata": "Q668687", "ref": "1414100013"}, "type": "Feature"}
{"dataset_attributes": {"@spider": "usps_collection_boxes", "spider:collection_time": "2023-10-25T08:26:15.836184"}, "geometry": {"coordinates": [-78.66588602, 42.509815228], "type": "Point"}, "id": "-kcjx12OcObZRCbHSV3_SqQOYaY=", "properties": {"@spider": "usps_collection_boxes", "addr:city": "SPRINGVILLE", "addr:country": "US", "addr:full": "75 FRANKLIN ST", "addr:postcode": "14141", "addr:state": "NY", "amenity": "post_box", "brand": "United States Postal Service", "brand:wikidata": "Q668687", "collection_times": "Mo-Fr 17:00; Sa 12:00", "name": "USPS COLLECTION BOX - BLUE BOX", "note": "ON 12/24 AND 12/31, THIS BOX MAY BE COLLECTED AS EARLY AS 12 NOON.", "nsi_id": "unitedstatespostalservice-a77078", "operator": "United States Postal Service", "operator:short": "USPS", "operator:type": "public", "operator:wikidata": "Q668687", "ref": "1414100016"}, "type": "Feature"}
{"dataset_attributes": {"@spider": "usps_collection_boxes", "spider:collection_time": "2023-10-25T08:26:15.836184"}, "geometry": {"coordinates": [-78.689726024, 42.501296975], "type": "Point"}, "id": "Ag8KS9xwuQpemz4S1lrE4f12yTA=", "properties": {"@spider": "usps_collection_boxes", "addr:city": "SPRINGVILLE", "addr:country": "US", "addr:full": "317 S CASCADE DR", "addr:postcode": "14141", "addr:state": "NY", "amenity": "post_box", "brand": "United States Postal Service", "brand:wikidata": "Q668687", "collection_times": "Mo-Fr 11:00", "name": "USPS COLLECTION BOX - BLUE BOX", "nsi_id": "unitedstatespostalservice-a77078", "operator": "United States Postal Service", "operator:short": "USPS", "operator:type": "public", "operator:wikidata": "Q668687", "ref": "1414100018"}, "type": "Feature"}
{"dataset_attributes": {"@spider": "usps_collection_boxes", "spider:collection_time": "2023-10-25T08:26:15.836184"}, "geometry": {"coordinates": [-78.66588602, 42.509815228], "type": "Point"}, "id": "_nzLMK1Z0j5o1FuN6pbBnkAVuUI=", "properties": {"@spider": "usps_collection_boxes", "addr:city": "SPRINGVILLE", "addr:country": "US", "addr:full": "75 FRANKLIN ST", "addr:postcode": "14141", "addr:state": "NY", "amenity": "post_box", "brand": "United States Postal Service", "brand:wikidata": "Q668687", "collection_times": "Mo-Fr 17:00; Sa 12:00", "name": "USPS COLLECTION BOX - PO LOBBY", "note": "ON 12/24 AND 12/31, THIS BOX MAY BE COLLECTED AS EARLY AS 12 NOON.", "nsi_id": "unitedstatespostalservice-a77078", "operator": "United States Postal Service", "operator:short": "USPS", "operator:type": "public", "operator:wikidata": "Q668687", "ref": "1414100021"}, "type": "Feature"}
{"dataset_attributes": {"@spider": "usps_collection_boxes", "spider:collection_time": "2023-10-25T08:26:15.836184"}, "geometry": {"coordinates": [-78.073443509, 42.983134585], "type": "Point"}, "id": "lRSqtAhOP4UDagWT9r8YRXPU5jQ=", "properties": {"@spider": "usps_collection_boxes", "addr:city": "STAFFORD", "addr:country": "US", "addr:full": "8899 ROUTE 237", "addr:postcode": "14143", "addr:state": "NY", "amenity": "post_box", "brand": "United States Postal Service", "brand:wikidata": "Q668687", "collection_times": "Mo-Fr 16:45; Sa 11:45", "name": "USPS COLLECTION BOX - BLUE BOX", "note": "ON 12/24 AND 12/31, THIS BOX MAY BE COLLECTED AS EARLY AS 12 NOON.", "nsi_id": "unitedstatespostalservice-a77078", "operator": "United States Postal Service", "operator:short": "USPS", "operator:type": "public", "operator:wikidata": "Q668687", "ref": "1414300001"}, "type": "Feature"}
{"dataset_attributes": {"@spider": "usps_collection_boxes", "spider:collection_time": "2023-10-25T08:26:15.836184"}, "geometry": {"coordinates": [-78.073443509, 42.983134585], "type": "Point"}, "id": "bAZkBx7PEw1QAwDxqVUY1fsgwMQ=", "properties": {"@spider": "usps_collection_boxes", "addr:city": "STAFFORD", "addr:country": "US", "addr:full": "8899 ROUTE 237", "addr:postcode": "14143", "addr:state": "NY", "amenity": "post_box", "brand": "United States Postal Service", "brand:wikidata": "Q668687", "collection_times": "Mo-Fr 16:45; Sa 12:00", "name": "USPS COLLECTION BOX - PO LOBBY", "note": "ON 12/24 AND 12/31, THIS BOX MAY BE COLLECTED AS EARLY AS 12 NOON.", "nsi_id": "unitedstatespostalservice-a77078", "operator": "United States Postal Service", "operator:short": "USPS", "operator:type": "public", "operator:wikidata": "Q668687", "ref": "1414300004"}, "type": "Feature"}
{"dataset_attributes": {"@spider": "usps_collection_boxes", "spider:collection_time": "2023-10-25T08:26:15.836184"}, "geometry": {"coordinates": [-78.448050406, 42.70302], "type": "Point"}, "id": "8uB2IEJL92x-uDG4SkKCrAzmip4=", "properties": {"@spider": "usps_collection_boxes", "addr:city": "STRYKERSVILLE", "addr:country": "US", "addr:full": "3778 MAIN ST", "addr:postcode": "14145", "addr:state": "NY", "amenity": "post_box", "brand": "United States Postal Service", "brand:wikidata": "Q668687", "collection_times": "Mo-Fr 14:45; Sa 11:45", "name": "USPS COLLECTION BOX - BLUE BOX", "note": "ON 12/24 AND 12/31, THIS BOX MAY BE COLLECTED AS EARLY AS 12 NOON.", "nsi_id": "unitedstatespostalservice-a77078", "operator": "United States Postal Service", "operator:short": "USPS", "operator:type": "public", "operator:wikidata": "Q668687", "ref": "1414500001"}, "type": "Feature"}
{"dataset_attributes": {"@spider": "usps_collection_boxes", "spider:collection_time": "2023-10-25T08:26:15.836184"}, "geometry": {"coordinates": [-78.448050406, 42.70302], "type": "Point"}, "id": "261eK7P0ewrm6_NWePVGfMuQSS8=", "properties": {"@spider": "usps_collection_boxes", "addr:city": "STRYKERSVILLE", "addr:country": "US", "addr:full": "3778 MAIN ST", "addr:postcode": "14145", "addr:state": "NY", "amenity": "post_box", "brand": "United States Postal Service", "brand:wikidata": "Q668687", "collection_times": "Mo-Fr 14:45; Sa 12:00", "name": "USPS COLLECTION BOX - PO LOBBY", "note": "ON 12/24 AND 12/31, THIS BOX MAY BE COLLECTED AS EARLY AS 12 NOON.", "nsi_id": "unitedstatespostalservice-a77078", "operator": "United States Postal Service", "operator:short": "USPS", "operator:type": "public", "operator:wikidata": "Q668687", "ref": "1414500004"}, "type": "Feature"}
{"dataset_attributes": {"@spider": "usps_collection_boxes", "spider:collection_time": "2023-10-25T08:26:15.836184"}, "geometry": {"coordinates": [-78.879334088, 43.017052359], "type": "Point"}, "id": "WCqwZH2P5vFNEzuWvDTwZAbVx2Q=", "properties": {"@spider": "usps_collection_boxes", "addr:city": "TONAWANDA", "addr:country": "US", "addr:full": "96 SEYMOUR ST", "addr:postcode": "14150", "addr:state": "NY", "amenity": "post_box", "brand": "United States Postal Service", "brand:wikidata": "Q668687", "collection_times": "Mo-Fr 17:00; Sa 13:00", "name": "USPS COLLECTION BOX - BLUE BOX", "note": "ON 12/24 AND 12/31, THIS BOX MAY BE COLLECTED AS EARLY AS 12 NOON.", "nsi_id": "unitedstatespostalservice-a77078", "operator": "United States Postal Service", "operator:short": "USPS", "operator:type": "public", "operator:wikidata": "Q668687", "ref": "1415000001"}, "type": "Feature"}
{"dataset_attributes": {"@spider": "usps_collection_boxes", "spider:collection_time": "2023-10-25T08:26:15.836184"}, "geometry": {"coordinates": [-78.838312668, 42.99103751], "type": "Point"}, "id": "q-gGTGaFlxr1QH2FDHQhVMZeL-k=", "properties": {"@spider": "usps_collection_boxes", "addr:city": "TONAWANDA", "addr:country": "US", "addr:full": "935 BRIGHTON RD", "addr:postcode": "14150", "addr:state": "NY", "amenity": "post_box", "brand": "United States Postal Service", "brand:wikidata": "Q668687", "collection_times": "Mo-Fr 15:00; Sa 09:00", "name": "USPS COLLECTION BOX - BLUE BOX", "note": "ON 12/24 AND 12/31, THIS BOX MAY BE COLLECTED AS EARLY AS 12 NOON.", "nsi_id": "unitedstatespostalservice-a77078", "operator": "United States Postal Service", "operator:short": "USPS", "operator:type": "public", "operator:wikidata": "Q668687", "ref": "1415000008"}, "type": "Feature"}
{"dataset_attributes": {"@spider": "usps_collection_boxes", "spider:collection_time": "2023-10-25T08:26:15.836184"}, "geometry": {"coordinates": [-78.824999088, 43.015113251], "type": "Point"}, "id": "lvC4d5nIPHCaYcNUeXeomkFbj9Y=", "properties": {"@spider": "usps_collection_boxes", "addr:city": "TONAWANDA", "addr:country": "US", "addr:full": "231 CALVERT BLVD", "addr:postcode": "14150", "addr:state": "NY", "amenity": "post_box", "brand": "United States Postal Service", "brand:wikidata": "Q668687", "collection_times": "Mo-Sa 09:30", "name": "USPS COLLECTION BOX - BLUE BOX", "nsi_id": "unitedstatespostalservice-a77078", "operator": "United States Postal Service", "operator:short": "USPS", "operator:type": "public", "operator:wikidata": "Q668687", "ref": "1415000013"}, "type": "Feature"}
{"dataset_attributes": {"@spider": "usps_collection_boxes", "spider:collection_time": "2023-10-25T08:26:15.836184"}, "geometry": {"coordinates": [-78.852744984, 42.990911633], "type": "Point"}, "id": "No-nanKIMyVtQ7bzZD4kKf0mwBE=", "properties": {"@spider": "usps_collection_boxes", "addr:city": "TONAWANDA", "addr:country": "US", "addr:full": "1949 COLVIN BLVD", "addr:postcode": "14150", "addr:state": "NY", "amenity": "post_box", "brand": "United States Postal Service", "brand:wikidata": "Q668687", "collection_times": "Mo-Sa 09:00", "name": "USPS COLLECTION BOX - BLUE BOX", "nsi_id": "unitedstatespostalservice-a77078", "operator": "United States Postal Service", "operator:short": "USPS", "operator:type": "public", "operator:wikidata": "Q668687", "ref": "1415000014"}, "type": "Feature"}
{"dataset_attributes": {"@spider": "usps_collection_boxes", "spider:collection_time": "2023-10-25T08:26:15.836184"}, "geometry": {"coordinates": [-78.874948686, 42.998611466], "type": "Point"}, "id": "SXNA9XoyPHHc6V-5nWd0jX0d3_w=", "properties": {"@spider": "usps_collection_boxes", "addr:city": "TONAWANDA", "addr:country": "US", "addr:full": "4200 DELAWARE AVE", "addr:postcode": "14150", "addr:state": "NY", "amenity": "post_box", "brand": "United States Postal Service", "brand:wikidata": "Q668687", "collection_times": "Mo-Sa 09:00", "name": "USPS COLLECTION BOX - BLUE BOX", "nsi_id": "unitedstatespostalservice-a77078", "operator": "United States Postal Service", "operator:short": "USPS", "operator:type": "public", "operator:wikidata": "Q668687", "ref": "1415000018"}, "type": "Feature"}
{"dataset_attributes": {"@spider": "usps_collection_boxes", "spider:collection_time": "2023-10-25T08:26:15.836184"}, "geometry": {"coordinates": [-78.873386246, 43.008484327], "type": "Point"}, "id": "z6vYk8lWyRPhLEvQe1OtZz3OzmM=", "properties": {"@spider": "usps_collection_boxes", "addr:city": "TONAWANDA", "addr:country": "US", "addr:full": "402 DELAWARE ST", "addr:postcode": "14150", "addr:state": "NY", "amenity": "post_box", "brand": "United States Postal Service", "brand:wikidata": "Q668687", "collection_times": "Mo-Sa 09:30", "name": "USPS COLLECTION BOX - BLUE BOX", "nsi_id": "unitedstatespostalservice-a77078", "operator": "United States Postal Service", "operator:short": "USPS", "operator:type": "public", "operator:wikidata": "Q668687", "ref": "1415000022"}, "type": "Feature"}
{"dataset_attributes": {"@spider": "usps_collection_boxes", "spider:collection_time": "2023-10-25T08:26:15.836184"}, "geometry": {"coordinates": [-78.845839128, 42.994348226], "type": "Point"}, "id": "ei-a-dQPChXGcJw3CGAvO08c454=", "properties": {"@spider": "usps_collection_boxes", "addr:city": "TONAWANDA", "addr:country": "US", "addr:full": "2999 EGGERT RD", "addr:postcode": "14150", "addr:state": "NY", "amenity": "post_box", "brand": "United States Postal Service", "brand:wikidata": "Q668687", "collection_times": "Mo-Sa 09:00", "name": "USPS COLLECTION BOX - BLUE BOX", "nsi_id": "unitedstatespostalservice-a77078", "operator": "United States Postal Service", "operator:short": "USPS", "operator:type": "public", "operator:wikidata": "Q668687", "ref": "1415000024"}, "type": "Feature"}
{"dataset_attributes": {"@spider": "usps_collection_boxes", "spider:collection_time": "2023-10-25T08:26:15.836184"}, "geometry": {"coordinates": [-78.834489314, 43.01569423], "type": "Point"}, "id": "saP-AOJb3sA_OvNWLw4AfWMU2Wo=", "properties": {"@spider": "usps_collection_boxes", "addr:city": "TONAWANDA", "addr:country": "US", "addr:full": "1000 ELLICOTT CREEK RD", "addr:postcode": "14150", "addr:state": "NY", "amenity": "post_box", "brand": "United States Postal Service", "brand:wikidata": "Q668687", "collection_times": "Mo-Sa 08:30", "name": "USPS COLLECTION BOX - BLUE BOX", "nsi_id": "unitedstatespostalservice-a77078", "operator": "United States Postal Service", "operator:short": "USPS", "operator:type": "public", "operator:wikidata": "Q668687", "ref": "1415000028"}, "type": "Feature"}
{"dataset_attributes": {"@spider": "usps_collection_boxes", "spider:collection_time": "2023-10-25T08:26:15.836184"}, "geometry": {"coordinates": [-78.89441094, 42.987973469], "type": "Point"}, "id": "B7Swc5u_SanRtmxdMF2bfOKvo14=", "properties": {"@spider": "usps_collection_boxes", "addr:city": "TONAWANDA", "addr:country": "US", "addr:full": "291 ENSMINGER RD", "addr:postcode": "14150", "addr:state": "NY", "amenity": "post_box", "brand": "United States Postal Service", "brand:wikidata": "Q668687", "collection_times": "Mo-Sa 09:00", "name": "USPS COLLECTION BOX - BLUE BOX", "nsi_id": "unitedstatespostalservice-a77078", "operator": "United States Postal Service", "operator:short": "USPS", "operator:type": "public", "operator:wikidata": "Q668687", "ref": "1415000029"}, "type": "Feature"}
{"dataset_attributes": {"@spider": "usps_collection_boxes", "spider:collection_time": "2023-10-25T08:26:15.836184"}, "geometry": {"coordinates": [-78.909341055, 42.987691481], "type": "Point"}, "id": "aa6TJLb4ySrse68nyJmAx-pRp6E=", "properties": {"@spider": "usps_collection_boxes", "addr:city": "TONAWANDA", "addr:country": "US", "addr:full": "750 ENSMINGER RD", "addr:postcode": "14150", "addr:state": "NY", "amenity": "post_box", "brand": "United States Postal Service", "brand:wikidata": "Q668687", "collection_times": "Mo-Fr 15:00; Sa 09:00", "name": "USPS COLLECTION BOX - BLUE BOX", "note": "ON 12/24 AND 12/31, THIS BOX MAY BE COLLECTED AS EARLY AS 12 NOON.", "nsi_id": "unitedstatespostalservice-a77078", "operator": "United States Postal Service", "operator:short": "USPS", "operator:type": "public", "operator:wikidata": "Q668687", "ref": "1415000030"}, "type": "Feature"}
{"dataset_attributes": {"@spider": "usps_collection_boxes", "spider:collection_time": "2023-10-25T08:26:15.836184"}, "geometry": {"coordinates": [-78.90915941, 42.984220694], "type": "Point"}, "id": "pS_5MY39tW_0OUQjDbQcSQGdGPs=", "properties": {"@spider": "usps_collection_boxes", "addr:city": "TONAWANDA", "addr:country": "US", "addr:full": "170 COOPER AVE", "addr:postcode": "14150", "addr:state": "NY", "amenity": "post_box", "brand": "United States Postal Service", "brand:wikidata": "Q668687", "collection_times": "Mo-Fr 15:00; Sa 09:00", "name": "USPS COLLECTION BOX - BLUE BOX", "note": "ON 12/24 AND 12/31, THIS BOX MAY BE COLLECTED AS EARLY AS 12 NOON.", "nsi_id": "unitedstatespostalservice-a77078", "operator": "United States Postal Service", "operator:short": "USPS", "operator:type": "public", "operator:wikidata": "Q668687", "ref": "1415000031"}, "type": "Feature"}
{"dataset_attributes": {"@spider": "usps_collection_boxes", "spider:collection_time": "2023-10-25T08:26:15.836184"}, "geometry": {"coordinates": [-78.8223006, 43.017543], "type": "Point"}, "id": "vC6f5-hWSa-ENLxEE3dSthM7YFw=", "properties": {"@spider": "usps_collection_boxes", "addr:city": "TONAWANDA", "addr:country": "US", "addr:full": "2330 NIAGARA FALLS BLVD", "addr:postcode": "14150", "addr:state": "NY", "amenity": "post_box", "brand": "United States Postal Service", "brand:wikidata": "Q668687", "collection_times": "Mo-Fr 15:00; Sa 09:00", "name": "USPS COLLECTION BOX - BLUE BOX", "note": "ON 12/24 AND 12/31, THIS BOX MAY BE COLLECTED AS EARLY AS 12 NOON.", "nsi_id": "unitedstatespostalservice-a77078", "operator": "United States Postal Service", "operator:short": "USPS", "operator:type": "public", "operator:wikidata": "Q668687", "ref": "1415000033"}, "type": "Feature"}
{"dataset_attributes": {"@spider": "usps_collection_boxes", "spider:collection_time": "2023-10-25T08:26:15.836184"}, "geometry": {"coordinates": [-78.839803856, 42.998145674], "type": "Point"}, "id": "jQASF5rqg7wRXC2lbTY1GKSt8ts=", "properties": {"@spider": "usps_collection_boxes", "addr:city": "TONAWANDA", "addr:country": "US", "addr:full": "205 FAIRLANE AVE", "addr:postcode": "14150", "addr:state": "NY", "amenity": "post_box", "brand": "United States Postal Service", "brand:wikidata": "Q668687", "collection_times": "Mo-Sa 09:30", "name": "USPS COLLECTION BOX - BLUE BOX", "nsi_id": "unitedstatespostalservice-a77078", "operator": "United States Postal Service", "operator:short": "USPS", "operator:type": "public", "operator:wikidata": "Q668687", "ref": "1415000041"}, "type": "Feature"}
{"dataset_attributes": {"@spider": "usps_collection_boxes", "spider:collection_time": "2023-10-25T08:26:15.836184"}, "geometry": {"coordinates": [-78.912171329, 42.981601544], "type": "Point"}, "id": "joUQIjYZ0Mg42u-un93LCpMnENY=", "properties": {"@spider": "usps_collection_boxes", "addr:city": "TONAWANDA", "addr:country": "US", "addr:full": "265 GRAND ISLAND BLVD", "addr:postcode": "14150", "addr:state": "NY", "amenity": "post_box", "brand": "United States Postal Service", "brand:wikidata": "Q668687", "collection_times": "Mo-Sa 09:00", "name": "USPS COLLECTION BOX - BLUE BOX", "nsi_id": "unitedstatespostalservice-a77078", "operator": "United States Postal Service", "operator:short": "USPS", "operator:type": "public", "operator:wikidata": "Q668687", "ref": "1415000043"}, "type": "Feature"}
{"dataset_attributes": {"@spider": "usps_collection_boxes", "spider:collection_time": "2023-10-25T08:26:15.836184"}, "geometry": {"coordinates": [-78.822379605, 43.00686], "type": "Point"}, "id": "uQgUPohVEP8PQws5gt9se2fmQUk=", "properties": {"@spider": "usps_collection_boxes", "addr:city": "TONAWANDA", "addr:country": "US", "addr:full": "1930 NIAGARA FALLS BLVD", "addr:postcode": "14150", "addr:state": "NY", "amenity": "post_box", "brand": "United States Postal Service", "brand:wikidata": "Q668687", "collection_times": "Mo-Sa 09:30", "name": "USPS COLLECTION BOX - BLUE BOX", "nsi_id": "unitedstatespostalservice-a77078", "operator": "United States Postal Service", "operator:short": "USPS", "operator:type": "public", "operator:wikidata": "Q668687", "ref": "1415000044"}, "type": "Feature"}
{"dataset_attributes": {"@spider": "usps_collection_boxes", "spider:collection_time": "2023-10-25T08:26:15.836184"}, "geometry": {"coordinates": [-78.849143923, 43.005582136], "type": "Point"}, "id": "7mfUcyxGn_YoPBCfg9hlPiY00Dk=", "properties": {"@spider": "usps_collection_boxes", "addr:city": "TONAWANDA", "addr:country": "US", "addr:full": "7 GREENFIELD DR", "addr:postcode": "14150", "addr:state": "NY", "amenity": "post_box", "brand": "United States Postal Service", "brand:wikidata": "Q668687", "collection_times": "Mo-Sa 09:30", "name": "USPS COLLECTION BOX - BLUE BOX", "nsi_id": "unitedstatespostalservice-a77078", "operator": "United States Postal Service", "operator:short": "USPS", "operator:type": "public", "operator:wikidata": "Q668687", "ref": "1415000045"}, "type": "Feature"}
{"dataset_attributes": {"@spider": "usps_collection_boxes", "spider:collection_time": "2023-10-25T08:26:15.836184"}, "geometry": {"coordinates": [-78.890880857, 43.004975436], "type": "Point"}, "id": "pnX1nJUu8B0AcK9ENwJuZxvdz4c=", "properties": {"@spider": "usps_collection_boxes", "addr:city": "TONAWANDA", "addr:country": "US", "addr:full": "380 HINDS ST", "addr:postcode": "14150", "addr:state": "NY", "amenity": "post_box", "brand": "United States Postal Service", "brand:wikidata": "Q668687", "collection_times": "Mo-Sa 09:30", "name": "USPS COLLECTION BOX - BLUE BOX", "nsi_id": "unitedstatespostalservice-a77078", "operator": "United States Postal Service", "operator:short": "USPS", "operator:type": "public", "operator:wikidata": "Q668687", "ref": "1415000047"}, "type": "Feature"}
{"dataset_attributes": {"@spider": "usps_collection_boxes", "spider:collection_time": "2023-10-25T08:26:15.836184"}, "geometry": {"coordinates": [-78.843011456, 42.980782466], "type": "Point"}, "id": "7-kdVm8hZGYSHDMaPD5vjdM1zic=", "properties": {"@spider": "usps_collection_boxes", "addr:city": "TONAWANDA", "addr:country": "US", "addr:full": "2465 SHERIDAN DR", "addr:postcode": "14150", "addr:state": "NY", "amenity": "post_box", "brand": "United States Postal Service", "brand:wikidata": "Q668687", "collection_times": "Mo-Sa 09:00", "name": "USPS COLLECTION BOX - BLUE BOX", "nsi_id": "unitedstatespostalservice-a77078", "operator": "United States Postal Service", "operator:short": "USPS", "operator:type": "public", "operator:wikidata": "Q668687", "ref": "1415000051"}, "type": "Feature"}
{"dataset_attributes": {"@spider": "usps_collection_boxes", "spider:collection_time": "2023-10-25T08:26:15.836184"}, "geometry": {"coordinates": [-78.902690136, 42.992896103], "type": "Point"}, "id": "elUnGsbQg0OdtRxPUBuyF_t3ddk=", "properties": {"@spider": "usps_collection_boxes", "addr:city": "TONAWANDA", "addr:country": "US", "addr:full": "50 FIRE TOWER DR", "addr:postcode": "14150", "addr:state": "NY", "amenity": "post_box", "brand": "United States Postal Service", "brand:wikidata": "Q668687", "collection_times": "Mo-Sa 09:00", "name": "USPS COLLECTION BOX - BLUE BOX", "nsi_id": "unitedstatespostalservice-a77078", "operator": "United States Postal Service", "operator:short": "USPS", "operator:type": "public", "operator:wikidata": "Q668687", "ref": "1415000052"}, "type": "Feature"}
{"dataset_attributes": {"@spider": "usps_collection_boxes", "spider:collection_time": "2023-10-25T08:26:15.836184"}, "geometry": {"coordinates": [-78.886751127, 43.018759747], "type": "Point"}, "id": "z8cOUNczPDOKin6OLcN03vF3djU=", "properties": {"@spider": "usps_collection_boxes", "addr:city": "TONAWANDA", "addr:country": "US", "addr:full": "200 NIAGARA ST", "addr:postcode": "14150", "addr:state": "NY", "amenity": "post_box", "brand": "United States Postal Service", "brand:wikidata": "Q668687", "collection_times": "Mo-Sa 09:30", "name": "USPS COLLECTION BOX - BLUE BOX", "nsi_id": "unitedstatespostalservice-a77078", "operator": "United States Postal Service", "operator:short": "USPS", "operator:type": "public", "operator:wikidata": "Q668687", "ref": "1415000060"}, "type": "Feature"}
{"dataset_attributes": {"@spider": "usps_collection_boxes", "spider:collection_time": "2023-10-25T08:26:15.836184"}, "geometry": {"coordinates": [-78.822798523, 42.987843199], "type": "Point"}, "id": "XjU8hfIAnKIYM311bgARwiRlaOQ=", "properties": {"@spider": "usps_collection_boxes", "addr:city": "TONAWANDA", "addr:country": "US", "addr:full": "1234 NIAGARA FALLS BLVD", "addr:postcode": "14150", "addr:state": "NY", "amenity": "post_box", "brand": "United States Postal Service", "brand:wikidata": "Q668687", "collection_times": "Mo-Sa 09:30", "name": "USPS COLLECTION BOX - BLUE BOX", "nsi_id": "unitedstatespostalservice-a77078", "operator": "United States Postal Service", "operator:short": "USPS", "operator:type": "public", "operator:wikidata": "Q668687", "ref": "1415000062"}, "type": "Feature"}
{"dataset_attributes": {"@spider": "usps_collection_boxes", "spider:collection_time": "2023-10-25T08:26:15.836184"}, "geometry": {"coordinates": [-78.8223006, 43.017543], "type": "Point"}, "id": "3WjJcpisr3a5xk3bryvG4Xo8L7A=", "properties": {"@spider": "usps_collection_boxes", "addr:city": "TONAWANDA", "addr:country": "US", "addr:full": "2330 NIAGARA FALLS BLVD", "addr:postcode": "14150", "addr:state": "NY", "amenity": "post_box", "brand": "United States Postal Service", "brand:wikidata": "Q668687", "collection_times": "Mo-Fr 15:00; Sa 09:00", "name": "USPS COLLECTION BOX - BLUE BOX", "note": "ON 12/24 AND 12/31, THIS BOX MAY BE COLLECTED AS EARLY AS 12 NOON.", "nsi_id": "unitedstatespostalservice-a77078", "operator": "United States Postal Service", "operator:short": "USPS", "operator:type": "public", "operator:wikidata": "Q668687", "ref": "1415000065"}, "type": "Feature"}
{"dataset_attributes": {"@spider": "usps_collection_boxes", "spider:collection_time": "2023-10-25T08:26:15.836184"}, "geometry": {"coordinates": [-78.83738501, 42.985286633], "type": "Point"}, "id": "0IgfCjY6C1g1FwJefgiFnwHg2Zo=", "properties": {"@spider": "usps_collection_boxes", "addr:city": "TONAWANDA", "addr:country": "US", "addr:full": "1675 PARKER BLVD", "addr:postcode": "14150", "addr:state": "NY", "amenity": "post_box", "brand": "United States Postal Service", "brand:wikidata": "Q668687", "collection_times": "Mo-Sa 09:30", "name": "USPS COLLECTION BOX - BLUE BOX", "nsi_id": "unitedstatespostalservice-a77078", "operator": "United States Postal Service", "operator:short": "USPS", "operator:type": "public", "operator:wikidata": "Q668687", "ref": "1415000068"}, "type": "Feature"}
{"dataset_attributes": {"@spider": "usps_collection_boxes", "spider:collection_time": "2023-10-25T08:26:15.836184"}, "geometry": {"coordinates": [-78.835893933, 43.010530659], "type": "Point"}, "id": "Z9xPgtfRPypArX7AXTHllh-UdHg=", "properties": {"@spider": "usps_collection_boxes", "addr:city": "TONAWANDA", "addr:country": "US", "addr:full": "2609 PARKER BLVD", "addr:postcode": "14150", "addr:state": "NY", "amenity": "post_box", "brand": "United States Postal Service", "brand:wikidata": "Q668687", "collection_times": "Mo-Sa 09:30", "name": "USPS COLLECTION BOX - BLUE BOX", "nsi_id": "unitedstatespostalservice-a77078", "operator": "United States Postal Service", "operator:short": "USPS", "operator:type": "public", "operator:wikidata": "Q668687", "ref": "1415000069"}, "type": "Feature"}
{"dataset_attributes": {"@spider": "usps_collection_boxes", "spider:collection_time": "2023-10-25T08:26:15.836184"}, "geometry": {"coordinates": [-78.858938469, 43.007559285], "type": "Point"}, "id": "BAwvsZlqBK_kvQ55NEEc-vnl-yo=", "properties": {"@spider": "usps_collection_boxes", "addr:city": "TONAWANDA", "addr:country": "US", "addr:full": "33 PENARROW DR", "addr:postcode": "14150", "addr:state": "NY", "amenity": "post_box", "brand": "United States Postal Service", "brand:wikidata": "Q668687", "collection_times": "Mo-Sa 09:30", "name": "USPS COLLECTION BOX - BLUE BOX", "nsi_id": "unitedstatespostalservice-a77078", "operator": "United States Postal Service", "operator:short": "USPS", "operator:type": "public", "operator:wikidata": "Q668687", "ref": "1415000071"}, "type": "Feature"}
{"dataset_attributes": {"@spider": "usps_collection_boxes", "spider:collection_time": "2023-10-25T08:26:15.836184"}, "geometry": {"coordinates": [-78.846958333, 43.014748307], "type": "Point"}, "id": "2IFTRTZHpxTQ3P-x_7Qc8IoyDKc=", "properties": {"@spider": "usps_collection_boxes", "addr:city": "TONAWANDA", "addr:country": "US", "addr:full": "2960 COLVIN BLVD", "addr:postcode": "14150", "addr:state": "NY", "amenity": "post_box", "brand": "United States Postal Service", "brand:wikidata": "Q668687", "collection_times": "Mo-Sa 09:00", "name": "USPS COLLECTION BOX - BLUE BOX", "nsi_id": "unitedstatespostalservice-a77078", "operator": "United States Postal Service", "operator:short": "USPS", "operator:type": "public", "operator:wikidata": "Q668687", "ref": "1415000074"}, "type": "Feature"}
{"dataset_attributes": {"@spider": "usps_collection_boxes", "spider:collection_time": "2023-10-25T08:26:15.836184"}, "geometry": {"coordinates": [-78.899342778, 42.975425496], "type": "Point"}, "id": "a4wSkPqa1WmD7GlJgyQL3CLYxsM=", "properties": {"@spider": "usps_collection_boxes", "addr:city": "TONAWANDA", "addr:country": "US", "addr:full": "273 DUNLOP AVE", "addr:postcode": "14150", "addr:state": "NY", "amenity": "post_box", "brand": "United States Postal Service", "brand:wikidata": "Q668687", "collection_times": "Mo-Sa 09:30", "name": "USPS COLLECTION BOX - BLUE BOX", "nsi_id": "unitedstatespostalservice-a77078", "operator": "United States Postal Service", "operator:short": "USPS", "operator:type": "public", "operator:wikidata": "Q668687", "ref": "1415000075"}, "type": "Feature"}
{"dataset_attributes": {"@spider": "usps_collection_boxes", "spider:collection_time": "2023-10-25T08:26:15.836184"}, "geometry": {"coordinates": [-78.906014656, 42.977829626], "type": "Point"}, "id": "MDlce0kkFPgEhh-yGmbbq-hJWjM=", "properties": {"@spider": "usps_collection_boxes", "addr:city": "TONAWANDA", "addr:country": "US", "addr:full": "723 SHERIDAN DR", "addr:postcode": "14150", "addr:state": "NY", "amenity": "post_box", "brand": "United States Postal Service", "brand:wikidata": "Q668687", "collection_times": "Mo-Sa 09:00", "name": "USPS COLLECTION BOX - BLUE BOX", "nsi_id": "unitedstatespostalservice-a77078", "operator": "United States Postal Service", "operator:short": "USPS", "operator:type": "public", "operator:wikidata": "Q668687", "ref": "1415000081"}, "type": "Feature"}
{"dataset_attributes": {"@spider": "usps_collection_boxes", "spider:collection_time": "2023-10-25T08:26:15.836184"}, "geometry": {"coordinates": [-78.844120469, 42.980842527], "type": "Point"}, "id": "CJgIFoTHWod4v7HoUyAX0N39Eiw=", "properties": {"@spider": "usps_collection_boxes", "addr:city": "TONAWANDA", "addr:country": "US", "addr:full": "2440 SHERIDAN DR", "addr:postcode": "14150", "addr:state": "NY", "amenity": "post_box", "brand": "United States Postal Service", "brand:wikidata": "Q668687", "collection_times": "Mo-Sa 09:00", "name": "USPS COLLECTION BOX - BLUE BOX", "nsi_id": "unitedstatespostalservice-a77078", "operator": "United States Postal Service", "operator:short": "USPS", "operator:type": "public", "operator:wikidata": "Q668687", "ref": "1415000082"}, "type": "Feature"}
{"dataset_attributes": {"@spider": "usps_collection_boxes", "spider:collection_time": "2023-10-25T08:26:15.836184"}, "geometry": {"coordinates": [-78.865495589, 43.01106474], "type": "Point"}, "id": "Y_SH1A9-4Rf_beYYev3RscLn2z8=", "properties": {"@spider": "usps_collection_boxes", "addr:city": "TONAWANDA", "addr:country": "US", "addr:full": "412 YOUNG ST", "addr:postcode": "14150", "addr:state": "NY", "amenity": "post_box", "brand": "United States Postal Service", "brand:wikidata": "Q668687", "collection_times": "Mo-Sa 09:00", "name": "USPS COLLECTION BOX - BLUE BOX", "nsi_id": "unitedstatespostalservice-a77078", "operator": "United States Postal Service", "operator:short": "USPS", "operator:type": "public", "operator:wikidata": "Q668687", "ref": "1415000093"}, "type": "Feature"}
{"dataset_attributes": {"@spider": "usps_collection_boxes", "spider:collection_time": "2023-10-25T08:26:15.836184"}, "geometry": {"coordinates": [-78.855977314, 43.001796365], "type": "Point"}, "id": "mRXIXXKMw07i46gAC44ra8FzmJE=", "properties": {"@spider": "usps_collection_boxes", "addr:city": "TONAWANDA", "addr:country": "US", "addr:full": "890 YOUNG ST", "addr:postcode": "14150", "addr:state": "NY", "amenity": "post_box", "brand": "United States Postal Service", "brand:wikidata": "Q668687", "collection_times": "Mo-Sa 09:00", "name": "USPS COLLECTION BOX - BLUE BOX", "nsi_id": "unitedstatespostalservice-a77078", "operator": "United States Postal Service", "operator:short": "USPS", "operator:type": "public", "operator:wikidata": "Q668687", "ref": "1415000095"}, "type": "Feature"}
{"dataset_attributes": {"@spider": "usps_collection_boxes", "spider:collection_time": "2023-10-25T08:26:15.836184"}, "geometry": {"coordinates": [-78.897979107, 43.013536818], "type": "Point"}, "id": "1lJWokCctlUr5MMSixmVuAyUPDU=", "properties": {"@spider": "usps_collection_boxes", "addr:city": "TONAWANDA", "addr:country": "US", "addr:full": "533 NIAGARA ST", "addr:postcode": "14150", "addr:state": "NY", "amenity": "post_box", "brand": "United States Postal Service", "brand:wikidata": "Q668687", "collection_times": "Mo-Sa 09:30", "name": "USPS COLLECTION BOX - BLUE BOX", "nsi_id": "unitedstatespostalservice-a77078", "operator": "United States Postal Service", "operator:short": "USPS", "operator:type": "public", "operator:wikidata": "Q668687", "ref": "1415000100"}, "type": "Feature"}
{"dataset_attributes": {"@spider": "usps_collection_boxes", "spider:collection_time": "2023-10-25T08:26:15.836184"}, "geometry": {"coordinates": [-78.879334088, 43.017052359], "type": "Point"}, "id": "fLTggom4rB6aU8DMFxn-aZTRz9c=", "properties": {"@spider": "usps_collection_boxes", "addr:city": "TONAWANDA", "addr:country": "US", "addr:full": "96 SEYMOUR ST", "addr:postcode": "14150", "addr:state": "NY", "amenity": "post_box", "brand": "United States Postal Service", "brand:wikidata": "Q668687", "collection_times": "Mo-Fr 17:00; Sa 13:00", "name": "USPS COLLECTION BOX - BLUE BOX", "note": "ON 12/24 AND 12/31, THIS BOX MAY BE COLLECTED AS EARLY AS 12 NOON.", "nsi_id": "unitedstatespostalservice-a77078", "operator": "United States Postal Service", "operator:short": "USPS", "operator:type": "public", "operator:wikidata": "Q668687", "ref": "1415000102"}, "type": "Feature"}
{"dataset_attributes": {"@spider": "usps_collection_boxes", "spider:collection_time": "2023-10-25T08:26:15.836184"}, "geometry": {"coordinates": [-78.838312668, 42.99103751], "type": "Point"}, "id": "e1DTe5aa06tDfl5xY9RnLiaqcxI=", "properties": {"@spider": "usps_collection_boxes", "addr:city": "TONAWANDA", "addr:country": "US", "addr:full": "935 BRIGHTON RD", "addr:postcode": "14150", "addr:state": "NY", "amenity": "post_box", "brand": "United States Postal Service", "brand:wikidata": "Q668687", "collection_times": "Mo-Fr 15:00; Sa 09:00", "name": "USPS COLLECTION BOX - BLUE BOX", "note": "ON 12/24 AND 12/31, THIS BOX MAY BE COLLECTED AS EARLY AS 12 NOON.", "nsi_id": "unitedstatespostalservice-a77078", "operator": "United States Postal Service", "operator:short": "USPS", "operator:type": "public", "operator:wikidata": "Q668687", "ref": "1415000103"}, "type": "Feature"}
{"dataset_attributes": {"@spider": "usps_collection_boxes", "spider:collection_time": "2023-10-25T08:26:15.836184"}, "geometry": {"coordinates": [-78.860379317, 43.014825403], "type": "Point"}, "id": "LklKQdKXJdTylLDs9MvJm6gXuIA=", "properties": {"@spider": "usps_collection_boxes", "addr:city": "TONAWANDA", "addr:country": "US", "addr:full": "425 FILLMORE AVE", "addr:postcode": "14150", "addr:state": "NY", "amenity": "post_box", "brand": "United States Postal Service", "brand:wikidata": "Q668687", "collection_times": "Mo-Fr 15:00; Sa 09:00", "name": "USPS COLLECTION BOX - BLUE BOX", "note": "ON 12/24 AND 12/31, THIS BOX MAY BE COLLECTED AS EARLY AS 12 NOON.", "nsi_id": "unitedstatespostalservice-a77078", "operator": "United States Postal Service", "operator:short": "USPS", "operator:type": "public", "operator:wikidata": "Q668687", "ref": "1415000104"}, "type": "Feature"}
{"dataset_attributes": {"@spider": "usps_collection_boxes", "spider:collection_time": "2023-10-25T08:26:15.836184"}, "geometry": {"coordinates": [-78.860379317, 43.014825403], "type": "Point"}, "id": "ZIfXw27lc4N7sujNrmdnlukSW3g=", "properties": {"@spider": "usps_collection_boxes", "addr:city": "TONAWANDA", "addr:country": "US", "addr:full": "425 FILLMORE AVE", "addr:postcode": "14150", "addr:state": "NY", "amenity": "post_box", "brand": "United States Postal Service", "brand:wikidata": "Q668687", "collection_times": "Mo-Fr 15:00; Sa 09:00", "name": "USPS COLLECTION BOX - BLUE BOX", "note": "ON 12/24 AND 12/31, THIS BOX MAY BE COLLECTED AS EARLY AS 12 NOON.", "nsi_id": "unitedstatespostalservice-a77078", "operator": "United States Postal Service", "operator:short": "USPS", "operator:type": "public", "operator:wikidata": "Q668687", "ref": "1415000106"}, "type": "Feature"}
{"dataset_attributes": {"@spider": "usps_collection_boxes", "spider:collection_time": "2023-10-25T08:26:15.836184"}, "geometry": {"coordinates": [-78.883982656, 43.019648273], "type": "Point"}, "id": "ttCy4RgqATJ4tcM-Fb73ahFHBAM=", "properties": {"@spider": "usps_collection_boxes", "addr:city": "TONAWANDA", "addr:country": "US", "addr:full": "150 NIAGARA ST", "addr:postcode": "14150", "addr:state": "NY", "amenity": "post_box", "brand": "United States Postal Service", "brand:wikidata": "Q668687", "collection_times": "Mo-Sa 09:00", "name": "USPS COLLECTION BOX - BLUE BOX", "nsi_id": "unitedstatespostalservice-a77078", "operator": "United States Postal Service", "operator:short": "USPS", "operator:type": "public", "operator:wikidata": "Q668687", "ref": "1415000112"}, "type": "Feature"}
{"dataset_attributes": {"@spider": "usps_collection_boxes", "spider:collection_time": "2023-10-25T08:26:15.836184"}, "geometry": {"coordinates": [-78.879334088, 43.017052359], "type": "Point"}, "id": "SV6ctC9rCPHY3n4vppD_j0X_R5Y=", "properties": {"@spider": "usps_collection_boxes", "addr:city": "TONAWANDA", "addr:country": "US", "addr:full": "96 SEYMOUR ST", "addr:postcode": "14150", "addr:state": "NY", "amenity": "post_box", "brand": "United States Postal Service", "brand:wikidata": "Q668687", "collection_times": "Mo-Fr 17:00; Sa 13:00", "name": "USPS COLLECTION BOX - BLUE BOX", "note": "ON 12/24 AND 12/31, THIS BOX MAY BE COLLECTED AS EARLY AS 12 NOON.", "nsi_id": "unitedstatespostalservice-a77078", "operator": "United States Postal Service", "operator:short": "USPS", "operator:type": "public", "operator:wikidata": "Q668687", "ref": "1415000114"}, "type": "Feature"}
{"dataset_attributes": {"@spider": "usps_collection_boxes", "spider:collection_time": "2023-10-25T08:26:15.836184"}, "geometry": {"coordinates": [-78.879334088, 43.017052359], "type": "Point"}, "id": "QMBHoSiCt-4R9FbrHH5Fw_Z0m2A=", "properties": {"@spider": "usps_collection_boxes", "addr:city": "TONAWANDA", "addr:country": "US", "addr:full": "96 SEYMOUR ST", "addr:postcode": "14150", "addr:state": "NY", "amenity": "post_box", "brand": "United States Postal Service", "brand:wikidata": "Q668687", "collection_times": "Mo-Fr 17:00; Sa 13:00", "name": "USPS COLLECTION BOX - EXPRESS", "note": "ON 12/24 AND 12/31, THIS BOX MAY BE COLLECTED AS EARLY AS 12 NOON.", "nsi_id": "unitedstatespostalservice-a77078", "operator": "United States Postal Service", "operator:short": "USPS", "operator:type": "public", "operator:wikidata": "Q668687", "ref": "1415000117"}, "type": "Feature"}
{"dataset_attributes": {"@spider": "usps_collection_boxes", "spider:collection_time": "2023-10-25T08:26:15.836184"}, "geometry": {"coordinates": [-78.836882139, 42.980717517], "type": "Point"}, "id": "TXtqj11Ky7hH2SZ2HBA7lh4ChRs=", "properties": {"@spider": "usps_collection_boxes", "addr:city": "TONAWANDA", "addr:country": "US", "addr:full": "2601 SHERIDAN DR", "addr:postcode": "14150", "addr:state": "NY", "amenity": "post_box", "brand": "United States Postal Service", "brand:wikidata": "Q668687", "collection_times": "Mo-Sa 09:30", "name": "USPS COLLECTION BOX - BLUE BOX", "nsi_id": "unitedstatespostalservice-a77078", "operator": "United States Postal Service", "operator:short": "USPS", "operator:type": "public", "operator:wikidata": "Q668687", "ref": "1415000123"}, "type": "Feature"}
{"dataset_attributes": {"@spider": "usps_collection_boxes", "spider:collection_time": "2023-10-25T08:26:15.836184"}, "geometry": {"coordinates": [-78.851440073, 42.99797184], "type": "Point"}, "id": "wRB7OH-YLGxJs5WMzShCHRKc2DI=", "properties": {"@spider": "usps_collection_boxes", "addr:city": "TONAWANDA", "addr:country": "US", "addr:full": "3163 EGGERT RD", "addr:postcode": "14150", "addr:state": "NY", "amenity": "post_box", "brand": "United States Postal Service", "brand:wikidata": "Q668687", "collection_times": "Mo-Sa 08:30", "name": "USPS COLLECTION BOX - BLUE BOX", "nsi_id": "unitedstatespostalservice-a77078", "operator": "United States Postal Service", "operator:short": "USPS", "operator:type": "public", "operator:wikidata": "Q668687", "ref": "1415000124"}, "type": "Feature"}
{"dataset_attributes": {"@spider": "usps_collection_boxes", "spider:collection_time": "2023-10-25T08:26:15.836184"}, "geometry": {"coordinates": [-78.90915941, 42.984220694], "type": "Point"}, "id": "Fr4beTIcHy2ubiCtokQCWdt-sXY=", "properties": {"@spider": "usps_collection_boxes", "addr:city": "TONAWANDA", "addr:country": "US", "addr:full": "170 COOPER AVE", "addr:postcode": "14150", "addr:state": "NY", "amenity": "post_box", "brand": "United States Postal Service", "brand:wikidata": "Q668687", "collection_times": "Mo-Fr 15:00; Sa 09:00", "name": "USPS COLLECTION BOX - BLUE BOX", "note": "ON 12/24 AND 12/31, THIS BOX MAY BE COLLECTED AS EARLY AS 12 NOON.", "nsi_id": "unitedstatespostalservice-a77078", "operator": "United States Postal Service", "operator:short": "USPS", "operator:type": "public", "operator:wikidata": "Q668687", "ref": "1415000125"}, "type": "Feature"}
{"dataset_attributes": {"@spider": "usps_collection_boxes", "spider:collection_time": "2023-10-25T08:26:15.836184"}, "geometry": {"coordinates": [-78.90915941, 42.984220694], "type": "Point"}, "id": "xOSaruv8OCInHWYXhuwgiQ_UxyM=", "properties": {"@spider": "usps_collection_boxes", "addr:city": "TONAWANDA", "addr:country": "US", "addr:full": "170 COOPER AVE", "addr:postcode": "14150", "addr:state": "NY", "amenity": "post_box", "brand": "United States Postal Service", "brand:wikidata": "Q668687", "collection_times": "Mo-Fr 15:00; Sa 09:00", "name": "USPS COLLECTION BOX - BLUE BOX", "note": "ON 12/24 AND 12/31, THIS BOX MAY BE COLLECTED AS EARLY AS 12 NOON.", "nsi_id": "unitedstatespostalservice-a77078", "operator": "United States Postal Service", "operator:short": "USPS", "operator:type": "public", "operator:wikidata": "Q668687", "ref": "1415000126"}, "type": "Feature"}
{"dataset_attributes": {"@spider": "usps_collection_boxes", "spider:collection_time": "2023-10-25T08:26:15.836184"}, "geometry": {"coordinates": [-78.879334088, 43.017052359], "type": "Point"}, "id": "dGuOlVNwjRc-0VGYGIt9WdReWRM=", "properties": {"@spider": "usps_collection_boxes", "addr:city": "TONAWANDA", "addr:country": "US", "addr:full": "96 SEYMOUR ST", "addr:postcode": "14150", "addr:state": "NY", "amenity": "post_box", "brand": "United States Postal Service", "brand:wikidata": "Q668687", "collection_times": "Mo-Fr 17:00; Sa 13:00", "name": "USPS COLLECTION BOX - BLUE BOX", "note": "ON 12/24 AND 12/31, THIS BOX MAY BE COLLECTED AS EARLY AS 12 NOON.", "nsi_id": "unitedstatespostalservice-a77078", "operator": "United States Postal Service", "operator:short": "USPS", "operator:type": "public", "operator:wikidata": "Q668687", "ref": "1415000127"}, "type": "Feature"}
{"dataset_attributes": {"@spider": "usps_collection_boxes", "spider:collection_time": "2023-10-25T08:26:15.836184"}, "geometry": {"coordinates": [-78.879334088, 43.017052359], "type": "Point"}, "id": "-2fj5HhIUJ2Bab_qowjjjaCqh0w=", "properties": {"@spider": "usps_collection_boxes", "addr:city": "TONAWANDA", "addr:country": "US", "addr:full": "96 SEYMOUR ST", "addr:postcode": "14150", "addr:state": "NY", "amenity": "post_box", "brand": "United States Postal Service", "brand:wikidata": "Q668687", "collection_times": "Mo-Fr 17:00; Sa 13:00", "name": "USPS COLLECTION BOX - PO LOBBY", "note": "ON 12/24 AND 12/31, THIS BOX MAY BE COLLECTED AS EARLY AS 12 NOON.", "nsi_id": "unitedstatespostalservice-a77078", "operator": "United States Postal Service", "operator:short": "USPS", "operator:type": "public", "operator:wikidata": "Q668687", "ref": "1415000131"}, "type": "Feature"}
{"dataset_attributes": {"@spider": "usps_collection_boxes", "spider:collection_time": "2023-10-25T08:26:15.836184"}, "geometry": {"coordinates": [-78.838312668, 42.99103751], "type": "Point"}, "id": "bwFfydX5Sb40VR7sjPo4FKmpSJI=", "properties": {"@spider": "usps_collection_boxes", "addr:city": "TONAWANDA", "addr:country": "US", "addr:full": "935 BRIGHTON RD", "addr:postcode": "14150", "addr:state": "NY", "amenity": "post_box", "brand": "United States Postal Service", "brand:wikidata": "Q668687", "collection_times": "Mo-Fr 16:00; Sa 09:00", "name": "USPS COLLECTION BOX - PO LOBBY", "note": "ON 12/24 AND 12/31, THIS BOX MAY BE COLLECTED AS EARLY AS 12 NOON.", "nsi_id": "unitedstatespostalservice-a77078", "operator": "United States Postal Service", "operator:short": "USPS", "operator:type": "public", "operator:wikidata": "Q668687", "ref": "1415000132"}, "type": "Feature"}
{"dataset_attributes": {"@spider": "usps_collection_boxes", "spider:collection_time": "2023-10-25T08:26:15.836184"}, "geometry": {"coordinates": [-78.30843, 42.75727], "type": "Point"}, "id": "zaOL98MVc43nWjN6ugHrznCLYOI=", "properties": {"@spider": "usps_collection_boxes", "addr:city": "VARYSBURG", "addr:country": "US", "addr:full": "2489 MAIN ST", "addr:postcode": "14167", "addr:state": "NY", "amenity": "post_box", "brand": "United States Postal Service", "brand:wikidata": "Q668687", "collection_times": "Mo-Fr 15:00; Sa 12:00", "name": "USPS COLLECTION BOX - BLUE BOX", "note": "ON 12/24 AND 12/31, THIS BOX MAY BE COLLECTED AS EARLY AS 12 NOON.", "nsi_id": "unitedstatespostalservice-a77078", "operator": "United States Postal Service", "operator:short": "USPS", "operator:type": "public", "operator:wikidata": "Q668687", "ref": "1416700001"}, "type": "Feature"}
{"dataset_attributes": {"@spider": "usps_collection_boxes", "spider:collection_time": "2023-10-25T08:26:15.836184"}, "geometry": {"coordinates": [-78.30843, 42.75727], "type": "Point"}, "id": "w96KAuxcte42X76VViDLujrMfDk=", "properties": {"@spider": "usps_collection_boxes", "addr:city": "VARYSBURG", "addr:country": "US", "addr:full": "2489 MAIN ST", "addr:postcode": "14167", "addr:state": "NY", "amenity": "post_box", "brand": "United States Postal Service", "brand:wikidata": "Q668687", "collection_times": "Mo-Fr 15:00; Sa 12:00", "name": "USPS COLLECTION BOX - PO LOBBY", "note": "ON 12/24 AND 12/31, THIS BOX MAY BE COLLECTED AS EARLY AS 12 NOON.", "nsi_id": "unitedstatespostalservice-a77078", "operator": "United States Postal Service", "operator:short": "USPS", "operator:type": "public", "operator:wikidata": "Q668687", "ref": "1416700004"}, "type": "Feature"}
{"dataset_attributes": {"@spider": "usps_collection_boxes", "spider:collection_time": "2023-10-25T08:26:15.836184"}, "geometry": {"coordinates": [-78.992926269, 42.52050945], "type": "Point"}, "id": "JauiTvcfEpk2WY1VTmeS6ilrdp4=", "properties": {"@spider": "usps_collection_boxes", "addr:city": "VERSAILLES", "addr:country": "US", "addr:full": "11980 DIVISION ST", "addr:postcode": "14168", "addr:state": "NY", "amenity": "post_box", "brand": "United States Postal Service", "brand:wikidata": "Q668687", "collection_times": "Mo-Fr 17:00; Sa 12:00", "name": "USPS COLLECTION BOX - BLUE BOX", "note": "ON 12/24 AND 12/31, THIS BOX MAY BE COLLECTED AS EARLY AS 12 NOON.", "nsi_id": "unitedstatespostalservice-a77078", "operator": "United States Postal Service", "operator:short": "USPS", "operator:type": "public", "operator:wikidata": "Q668687", "ref": "1416800001"}, "type": "Feature"}
{"dataset_attributes": {"@spider": "usps_collection_boxes", "spider:collection_time": "2023-10-25T08:26:15.836184"}, "geometry": {"coordinates": [-78.992926269, 42.52050945], "type": "Point"}, "id": "NyN6L0mDUHqVIbWLq5QbLMyUXhA=", "properties": {"@spider": "usps_collection_boxes", "addr:city": "VERSAILLES", "addr:country": "US", "addr:full": "11980 DIVISION ST", "addr:postcode": "14168", "addr:state": "NY", "amenity": "post_box", "brand": "United States Postal Service", "brand:wikidata": "Q668687", "collection_times": "Mo-Fr 17:00; Sa 12:00", "name": "USPS COLLECTION BOX - PO LOBBY", "note": "ON 12/24 AND 12/31, THIS BOX MAY BE COLLECTED AS EARLY AS 12 NOON.", "nsi_id": "unitedstatespostalservice-a77078", "operator": "United States Postal Service", "operator:short": "USPS", "operator:type": "public", "operator:wikidata": "Q668687", "ref": "1416800004"}, "type": "Feature"}
{"dataset_attributes": {"@spider": "usps_collection_boxes", "spider:collection_time": "2023-10-25T08:26:15.836184"}, "geometry": {"coordinates": [-78.530524805, 42.76815251], "type": "Point"}, "id": "GdjrbgoPWfDWc5KxptlheFj1n0w=", "properties": {"@spider": "usps_collection_boxes", "addr:city": "WALES CENTER", "addr:country": "US", "addr:full": "12273 BIG TREE RD", "addr:postcode": "14169", "addr:state": "NY", "amenity": "post_box", "brand": "United States Postal Service", "brand:wikidata": "Q668687", "collection_times": "Mo-Fr 16:30; Sa 11:30", "name": "USPS COLLECTION BOX - BLUE BOX", "note": "ON 12/24 AND 12/31, THIS BOX MAY BE COLLECTED AS EARLY AS 12 NOON.", "nsi_id": "unitedstatespostalservice-a77078", "operator": "United States Postal Service", "operator:short": "USPS", "operator:type": "public", "operator:wikidata": "Q668687", "ref": "1416900001"}, "type": "Feature"}
{"dataset_attributes": {"@spider": "usps_collection_boxes", "spider:collection_time": "2023-10-25T08:26:15.836184"}, "geometry": {"coordinates": [-78.530524805, 42.76815251], "type": "Point"}, "id": "IizAXzDoWWlczi-BcIjO111m8JU=", "properties": {"@spider": "usps_collection_boxes", "addr:city": "WALES CENTER", "addr:country": "US", "addr:full": "12273 BIG TREE RD", "addr:postcode": "14169", "addr:state": "NY", "amenity": "post_box", "brand": "United States Postal Service", "brand:wikidata": "Q668687", "collection_times": "Mo-Fr 17:00; Sa 12:00", "name": "USPS COLLECTION BOX - PO LOBBY", "note": "ON 12/24 AND 12/31, THIS BOX MAY BE COLLECTED AS EARLY AS 12 NOON.", "nsi_id": "unitedstatespostalservice-a77078", "operator": "United States Postal Service", "operator:short": "USPS", "operator:type": "public", "operator:wikidata": "Q668687", "ref": "1416900004"}, "type": "Feature"}
{"dataset_attributes": {"@spider": "usps_collection_boxes", "spider:collection_time": "2023-10-25T08:26:15.836184"}, "geometry": {"coordinates": [-78.68304, 42.733457467], "type": "Point"}, "id": "J31ltR56Srnm18aeXA23cOjmZdk=", "properties": {"@spider": "usps_collection_boxes", "addr:city": "WEST FALLS", "addr:country": "US", "addr:full": "17 ELLICOTT RD", "addr:postcode": "14170", "addr:state": "NY", "amenity": "post_box", "brand": "United States Postal Service", "brand:wikidata": "Q668687", "collection_times": "Mo-Fr 16:30; Sa 11:45", "name": "USPS COLLECTION BOX - BLUE BOX", "note": "ON 12/24 AND 12/31, THIS BOX MAY BE COLLECTED AS EARLY AS 12 NOON.", "nsi_id": "unitedstatespostalservice-a77078", "operator": "United States Postal Service", "operator:short": "USPS", "operator:type": "public", "operator:wikidata": "Q668687", "ref": "1417000001"}, "type": "Feature"}
{"dataset_attributes": {"@spider": "usps_collection_boxes", "spider:collection_time": "2023-10-25T08:26:15.836184"}, "geometry": {"coordinates": [-78.68304, 42.733457467], "type": "Point"}, "id": "CwZReKG25nHLVTg5KxBZJ3uBloY=", "properties": {"@spider": "usps_collection_boxes", "addr:city": "WEST FALLS", "addr:country": "US", "addr:full": "17 ELLICOTT RD", "addr:postcode": "14170", "addr:state": "NY", "amenity": "post_box", "brand": "United States Postal Service", "brand:wikidata": "Q668687", "collection_times": "Mo-Fr 16:30; Sa 12:00", "name": "USPS COLLECTION BOX - PO LOBBY", "note": "ON 12/24 AND 12/31, THIS BOX MAY BE COLLECTED AS EARLY AS 12 NOON.", "nsi_id": "unitedstatespostalservice-a77078", "operator": "United States Postal Service", "operator:short": "USPS", "operator:type": "public", "operator:wikidata": "Q668687", "ref": "1417000004"}, "type": "Feature"}
{"dataset_attributes": {"@spider": "usps_collection_boxes", "spider:collection_time": "2023-10-25T08:26:15.836184"}, "geometry": {"coordinates": [-78.612256146, 42.407105646], "type": "Point"}, "id": "JiVH6hzzeJOUwxbPknq-rvhagYU=", "properties": {"@spider": "usps_collection_boxes", "addr:city": "WEST VALLEY", "addr:country": "US", "addr:full": "9386 ROUTE 240", "addr:postcode": "14171", "addr:state": "NY", "amenity": "post_box", "brand": "United States Postal Service", "brand:wikidata": "Q668687", "collection_times": "Mo-Fr 15:00; Sa 12:00", "name": "USPS COLLECTION BOX - BLUE BOX", "note": "ON 12/24 AND 12/31, THIS BOX MAY BE COLLECTED AS EARLY AS 12 NOON.", "nsi_id": "unitedstatespostalservice-a77078", "operator": "United States Postal Service", "operator:short": "USPS", "operator:type": "public", "operator:wikidata": "Q668687", "ref": "1417100001"}, "type": "Feature"}
{"dataset_attributes": {"@spider": "usps_collection_boxes", "spider:collection_time": "2023-10-25T08:26:15.836184"}, "geometry": {"coordinates": [-78.612256146, 42.407105646], "type": "Point"}, "id": "K-VUqofnTHudfJREHpGysn9NTEk=", "properties": {"@spider": "usps_collection_boxes", "addr:city": "WEST VALLEY", "addr:country": "US", "addr:full": "9386 ROUTE 240", "addr:postcode": "14171", "addr:state": "NY", "amenity": "post_box", "brand": "United States Postal Service", "brand:wikidata": "Q668687", "collection_times": "Mo-Fr 15:00; Sa 12:00", "name": "USPS COLLECTION BOX - PO LOBBY", "note": "ON 12/24 AND 12/31, THIS BOX MAY BE COLLECTED AS EARLY AS 12 NOON.", "nsi_id": "unitedstatespostalservice-a77078", "operator": "United States Postal Service", "operator:short": "USPS", "operator:type": "public", "operator:wikidata": "Q668687", "ref": "1417100005"}, "type": "Feature"}
{"dataset_attributes": {"@spider": "usps_collection_boxes", "spider:collection_time": "2023-10-25T08:26:15.836184"}, "geometry": {"coordinates": [-78.82822169, 43.30775787], "type": "Point"}, "id": "rnc8R82Mmtiuka5NNX0s37iG718=", "properties": {"@spider": "usps_collection_boxes", "addr:city": "WILSON", "addr:country": "US", "addr:full": "367 MCCHESNEY ST", "addr:postcode": "14172", "addr:state": "NY", "amenity": "post_box", "brand": "United States Postal Service", "brand:wikidata": "Q668687", "collection_times": "Mo-Fr 16:45; Sa 11:45", "name": "USPS COLLECTION BOX - BLUE BOX", "note": "ON 12/24 AND 12/31, THIS BOX MAY BE COLLECTED AS EARLY AS 12 NOON.", "nsi_id": "unitedstatespostalservice-a77078", "operator": "United States Postal Service", "operator:short": "USPS", "operator:type": "public", "operator:wikidata": "Q668687", "ref": "1417200002"}, "type": "Feature"}
{"dataset_attributes": {"@spider": "usps_collection_boxes", "spider:collection_time": "2023-10-25T08:26:15.836184"}, "geometry": {"coordinates": [-78.82822169, 43.30775787], "type": "Point"}, "id": "3t_Iu8NbqwzamcXxAcbPxm83OJ0=", "properties": {"@spider": "usps_collection_boxes", "addr:city": "WILSON", "addr:country": "US", "addr:full": "367 MCCHESNEY ST", "addr:postcode": "14172", "addr:state": "NY", "amenity": "post_box", "brand": "United States Postal Service", "brand:wikidata": "Q668687", "collection_times": "Mo-Fr 17:00; Sa 12:00", "name": "USPS COLLECTION BOX - PO LOBBY", "note": "ON 12/24 AND 12/31, THIS BOX MAY BE COLLECTED AS EARLY AS 12 NOON.", "nsi_id": "unitedstatespostalservice-a77078", "operator": "United States Postal Service", "operator:short": "USPS", "operator:type": "public", "operator:wikidata": "Q668687", "ref": "1417200005"}, "type": "Feature"}
{"dataset_attributes": {"@spider": "usps_collection_boxes", "spider:collection_time": "2023-10-25T08:26:15.836184"}, "geometry": {"coordinates": [-78.47580563, 42.530292399], "type": "Point"}, "id": "ttGi8poxc5FVKkxWZzqedMDdHOo=", "properties": {"@spider": "usps_collection_boxes", "addr:city": "YORKSHIRE", "addr:country": "US", "addr:full": "3230 MAIN ST", "addr:postcode": "14173", "addr:state": "NY", "amenity": "post_box", "brand": "United States Postal Service", "brand:wikidata": "Q668687", "collection_times": "Mo-Fr 17:00; Sa 12:00", "name": "USPS COLLECTION BOX - BLUE BOX", "note": "ON 12/24 AND 12/31, THIS BOX MAY BE COLLECTED AS EARLY AS 12 NOON.", "nsi_id": "unitedstatespostalservice-a77078", "operator": "United States Postal Service", "operator:short": "USPS", "operator:type": "public", "operator:wikidata": "Q668687", "ref": "1417300001"}, "type": "Feature"}
{"dataset_attributes": {"@spider": "usps_collection_boxes", "spider:collection_time": "2023-10-25T08:26:15.836184"}, "geometry": {"coordinates": [-78.47580563, 42.530292399], "type": "Point"}, "id": "Odpox5_aNuJucfohhEYkySGmidY=", "properties": {"@spider": "usps_collection_boxes", "addr:city": "YORKSHIRE", "addr:country": "US", "addr:full": "3230 MAIN ST", "addr:postcode": "14173", "addr:state": "NY", "amenity": "post_box", "brand": "United States Postal Service", "brand:wikidata": "Q668687", "collection_times": "Mo-Fr 17:00; Sa 12:00", "name": "USPS COLLECTION BOX - PO LOBBY", "note": "ON 12/24 AND 12/31, THIS BOX MAY BE COLLECTED AS EARLY AS 12 NOON.", "nsi_id": "unitedstatespostalservice-a77078", "operator": "United States Postal Service", "operator:short": "USPS", "operator:type": "public", "operator:wikidata": "Q668687", "ref": "1417300004"}, "type": "Feature"}
{"dataset_attributes": {"@spider": "usps_collection_boxes", "spider:collection_time": "2023-10-25T08:26:15.836184"}, "geometry": {"coordinates": [-79.048456114, 43.25040654], "type": "Point"}, "id": "5TqauTey2kuwFnGhBDV_FBt91eg=", "properties": {"@spider": "usps_collection_boxes", "addr:city": "YOUNGSTOWN", "addr:country": "US", "addr:full": "135 LOCKPORT ST", "addr:postcode": "14174", "addr:state": "NY", "amenity": "post_box", "brand": "United States Postal Service", "brand:wikidata": "Q668687", "collection_times": "Mo-Fr 16:45; Sa 12:00", "name": "USPS COLLECTION BOX - BLUE BOX", "note": "ON 12/24 AND 12/31, THIS BOX MAY BE COLLECTED AS EARLY AS 12 NOON.", "nsi_id": "unitedstatespostalservice-a77078", "operator": "United States Postal Service", "operator:short": "USPS", "operator:type": "public", "operator:wikidata": "Q668687", "ref": "1417400001"}, "type": "Feature"}
{"dataset_attributes": {"@spider": "usps_collection_boxes", "spider:collection_time": "2023-10-25T08:26:15.836184"}, "geometry": {"coordinates": [-79.048456114, 43.25040654], "type": "Point"}, "id": "-ZzwThrCKgbcDhSja6ml8Cjq3cA=", "properties": {"@spider": "usps_collection_boxes", "addr:city": "YOUNGSTOWN", "addr:country": "US", "addr:full": "135 LOCKPORT ST", "addr:postcode": "14174", "addr:state": "NY", "amenity": "post_box", "brand": "United States Postal Service", "brand:wikidata": "Q668687", "collection_times": "Mo-Fr 16:45; Sa 12:00", "name": "USPS COLLECTION BOX - PO LOBBY", "note": "ON 12/24 AND 12/31, THIS BOX MAY BE COLLECTED AS EARLY AS 12 NOON.", "nsi_id": "unitedstatespostalservice-a77078", "operator": "United States Postal Service", "operator:short": "USPS", "operator:type": "public", "operator:wikidata": "Q668687", "ref": "1417400008"}, "type": "Feature"}
