{"geometry": {"coordinates": [-79.036821, 43.09533], "type": "Point"}, "id": "VmlOTxNW6Wdlbg6y4zJzHXBQCs0=", "properties": {"@source_uri": "https://tools.usps.com/UspsToolsRestServices/rest/POLocator/findLocations", "@spider": "usps_collection_boxes", "addr:city": "NIAGARA FALLS", "addr:country": "US", "addr:postcode": "14301", "addr:state": "NY", "addr:street_address": "2020 PINE AVE", "amenity": "post_box", "collection_times": "Mo-Fr 16:30; Sa 12:00", "note": "ON 12/24 AND 12/31, THIS BOX MAY BE COLLECTED AS EARLY AS 12 NOON.", "nsi_id": "unitedstatespostalservice-a77078", "operator": "United States Postal Service", "operator:short": "USPS", "operator:type": "public", "operator:wikidata": "Q668687", "ref": "1430100000"}, "type": "Feature"}
{"geometry": {"coordinates": [-79.042107515, 43.091364608], "type": "Point"}, "id": "iAhAGdReGLZKVagvwtF7x5T6NEE=", "properties": {"@source_uri": "https://tools.usps.com/UspsToolsRestServices/rest/POLocator/findLocations", "@spider": "usps_collection_boxes", "addr:city": "NIAGARA FALLS", "addr:country": "US", "addr:postcode": "14301", "addr:state": "NY", "addr:street_address": "1605 FERRY AVE", "amenity": "post_box", "collection_times": "Mo-Sa 10:00", "nsi_id": "unitedstatespostalservice-a77078", "operator": "United States Postal Service", "operator:short": "USPS", "operator:type": "public", "operator:wikidata": "Q668687", "ref": "1430100003"}, "type": "Feature"}
{"geometry": {"coordinates": [-79.055433217, 43.096074078], "type": "Point"}, "id": "YgHGglt_mUzkqDng9Jwmm53bUWc=", "properties": {"@source_uri": "https://tools.usps.com/UspsToolsRestServices/rest/POLocator/findLocations", "@spider": "usps_collection_boxes", "addr:city": "NIAGARA FALLS", "addr:country": "US", "addr:postcode": "14301", "addr:state": "NY", "addr:street_address": "745 MAIN ST", "amenity": "post_box", "collection_times": "Mo-Fr 16:00; Sa 12:00", "note": "ON 12/24 AND 12/31, THIS BOX MAY BE COLLECTED AS EARLY AS 12 NOON.", "nsi_id": "unitedstatespostalservice-a77078", "operator": "United States Postal Service", "operator:short": "USPS", "operator:type": "public", "operator:wikidata": "Q668687", "ref": "1430100007"}, "type": "Feature"}
{"geometry": {"coordinates": [-79.055487, 43.096752], "type": "Point"}, "id": "DAI8LCu-ZG7VgL-pJHwzYA2sppQ=", "properties": {"@source_uri": "https://tools.usps.com/UspsToolsRestServices/rest/POLocator/findLocations", "@spider": "usps_collection_boxes", "addr:city": "NIAGARA FALLS", "addr:country": "US", "addr:postcode": "14301", "addr:state": "NY", "addr:street_address": "800 MAIN ST", "amenity": "post_box", "collection_times": "Mo-Fr 17:00; Sa 12:00", "note": "ON 12/24 AND 12/31, THIS BOX MAY BE COLLECTED AS EARLY AS 12 NOON.", "nsi_id": "unitedstatespostalservice-a77078", "operator": "United States Postal Service", "operator:short": "USPS", "operator:type": "public", "operator:wikidata": "Q668687", "ref": "1430100008"}, "type": "Feature"}
{"geometry": {"coordinates": [-79.025750361, 43.095159512], "type": "Point"}, "id": "3n5uVZsxZj5BotVG8hykOeAo_qQ=", "properties": {"@source_uri": "https://tools.usps.com/UspsToolsRestServices/rest/POLocator/findLocations", "@spider": "usps_collection_boxes", "addr:city": "NIAGARA FALLS", "addr:country": "US", "addr:postcode": "14301", "addr:state": "NY", "addr:street_address": "2930 PINE AVE", "amenity": "post_box", "collection_times": "Mo-Sa 10:00", "nsi_id": "unitedstatespostalservice-a77078", "operator": "United States Postal Service", "operator:short": "USPS", "operator:type": "public", "operator:wikidata": "Q668687", "ref": "1430100018"}, "type": "Feature"}
{"geometry": {"coordinates": [-79.050673884, 43.098463238], "type": "Point"}, "id": "jQORt7_OX2aj_ukId5aArrFxkss=", "properties": {"@source_uri": "https://tools.usps.com/UspsToolsRestServices/rest/POLocator/findLocations", "@spider": "usps_collection_boxes", "addr:city": "NIAGARA FALLS", "addr:country": "US", "addr:postcode": "14301", "addr:state": "NY", "addr:street_address": "1001 PORTAGE RD", "amenity": "post_box", "collection_times": "Mo-Sa 09:00", "nsi_id": "unitedstatespostalservice-a77078", "operator": "United States Postal Service", "operator:short": "USPS", "operator:type": "public", "operator:wikidata": "Q668687", "ref": "1430100020"}, "type": "Feature"}
{"geometry": {"coordinates": [-79.045540889, 43.094944486], "type": "Point"}, "id": "xMROpOqJBZRVjFgnGDUMPvxwi2A=", "properties": {"@source_uri": "https://tools.usps.com/UspsToolsRestServices/rest/POLocator/findLocations", "@spider": "usps_collection_boxes", "addr:city": "NIAGARA FALLS", "addr:country": "US", "addr:postcode": "14301", "addr:state": "NY", "addr:street_address": "1402 PINE AVE", "amenity": "post_box", "collection_times": "Mo-Sa 09:00", "nsi_id": "unitedstatespostalservice-a77078", "operator": "United States Postal Service", "operator:short": "USPS", "operator:type": "public", "operator:wikidata": "Q668687", "ref": "1430100023"}, "type": "Feature"}
{"geometry": {"coordinates": [-79.059368914, 43.089281822], "type": "Point"}, "id": "l9e1Rgcq0kNEdV2eElQ9Um28us4=", "properties": {"@source_uri": "https://tools.usps.com/UspsToolsRestServices/rest/POLocator/findLocations", "@spider": "usps_collection_boxes", "addr:city": "NIAGARA FALLS", "addr:country": "US", "addr:postcode": "14301", "addr:state": "NY", "addr:street_address": "418 3RD ST", "amenity": "post_box", "collection_times": "Mo-Sa 09:00", "nsi_id": "unitedstatespostalservice-a77078", "operator": "United States Postal Service", "operator:short": "USPS", "operator:type": "public", "operator:wikidata": "Q668687", "ref": "1430100028"}, "type": "Feature"}
{"geometry": {"coordinates": [-79.059643452, 43.095799341], "type": "Point"}, "id": "HUjdXfKi-SpfaDjIqupbpbqymrA=", "properties": {"@source_uri": "https://tools.usps.com/UspsToolsRestServices/rest/POLocator/findLocations", "@spider": "usps_collection_boxes", "addr:city": "NIAGARA FALLS", "addr:country": "US", "addr:postcode": "14301", "addr:state": "NY", "addr:street_address": "775 3RD ST", "amenity": "post_box", "collection_times": "Mo-Fr 14:30", "note": "ON 12/24 AND 12/31, THIS BOX MAY BE COLLECTED AS EARLY AS 12 NOON.", "nsi_id": "unitedstatespostalservice-a77078", "operator": "United States Postal Service", "operator:short": "USPS", "operator:type": "public", "operator:wikidata": "Q668687", "ref": "1430100030"}, "type": "Feature"}
{"geometry": {"coordinates": [-79.050608931, 43.095093402], "type": "Point"}, "id": "Fpak1sjYbQmTwnpaO3-3APywpn8=", "properties": {"@source_uri": "https://tools.usps.com/UspsToolsRestServices/rest/POLocator/findLocations", "@spider": "usps_collection_boxes", "addr:city": "NIAGARA FALLS", "addr:country": "US", "addr:postcode": "14301", "addr:state": "NY", "addr:street_address": "720 10TH ST", "amenity": "post_box", "collection_times": "Mo-Sa 10:00", "nsi_id": "unitedstatespostalservice-a77078", "operator": "United States Postal Service", "operator:short": "USPS", "operator:type": "public", "operator:wikidata": "Q668687", "ref": "1430100032"}, "type": "Feature"}
{"geometry": {"coordinates": [-79.050960545, 43.099126282], "type": "Point"}, "id": "xnKUKXrwdloenkqpkoEEPj_Yf7s=", "properties": {"@source_uri": "https://tools.usps.com/UspsToolsRestServices/rest/POLocator/findLocations", "@spider": "usps_collection_boxes", "addr:city": "NIAGARA FALLS", "addr:country": "US", "addr:postcode": "14301", "addr:state": "NY", "addr:street_address": "1001 11TH ST", "amenity": "post_box", "collection_times": "Mo-Sa 14:30", "note": "ON 12/24 AND 12/31, THIS BOX MAY BE COLLECTED AS EARLY AS 12 NOON.", "nsi_id": "unitedstatespostalservice-a77078", "operator": "United States Postal Service", "operator:short": "USPS", "operator:type": "public", "operator:wikidata": "Q668687", "ref": "1430100038"}, "type": "Feature"}
{"geometry": {"coordinates": [-79.036821, 43.09533], "type": "Point"}, "id": "5qw2JeisIWtDh7_naAn4MsI6P28=", "properties": {"@source_uri": "https://tools.usps.com/UspsToolsRestServices/rest/POLocator/findLocations", "@spider": "usps_collection_boxes", "addr:city": "NIAGARA FALLS", "addr:country": "US", "addr:postcode": "14301", "addr:state": "NY", "addr:street_address": "2020 PINE AVE", "amenity": "post_box", "collection_times": "Mo-Fr 16:30", "indoor": "yes", "note": "ON 12/24 AND 12/31, THIS BOX MAY BE COLLECTED AS EARLY AS 12 NOON.", "nsi_id": "unitedstatespostalservice-a77078", "operator": "United States Postal Service", "operator:short": "USPS", "operator:type": "public", "operator:wikidata": "Q668687", "ref": "1430100041"}, "type": "Feature"}
{"geometry": {"coordinates": [-79.0569405, 43.093107], "type": "Point"}, "id": "Sy9Ct8lRD04vGYRSQbwiqpqb1EA=", "properties": {"@source_uri": "https://tools.usps.com/UspsToolsRestServices/rest/POLocator/findLocations", "@spider": "usps_collection_boxes", "addr:city": "NIAGARA FALLS", "addr:country": "US", "addr:postcode": "14302", "addr:state": "NY", "addr:street_address": "615 MAIN ST", "amenity": "post_box", "collection_times": "Mo-Fr 17:00; Sa 16:00", "note": "ON 12/24 AND 12/31, THIS BOX MAY BE COLLECTED AS EARLY AS 12 NOON.", "nsi_id": "unitedstatespostalservice-a77078", "operator": "United States Postal Service", "operator:short": "USPS", "operator:type": "public", "operator:wikidata": "Q668687", "ref": "1430200022"}, "type": "Feature"}
{"geometry": {"coordinates": [-79.0569405, 43.093107], "type": "Point"}, "id": "5C3oXVe4NZOg8-xp3GL9ExdnYvE=", "properties": {"@source_uri": "https://tools.usps.com/UspsToolsRestServices/rest/POLocator/findLocations", "@spider": "usps_collection_boxes", "addr:city": "NIAGARA FALLS", "addr:country": "US", "addr:postcode": "14302", "addr:state": "NY", "addr:street_address": "615 MAIN ST", "amenity": "post_box", "collection_times": "Mo-Fr 17:00; Sa 14:00", "indoor": "yes", "note": "ON 12/24 AND 12/31, THIS BOX MAY BE COLLECTED AS EARLY AS 12 NOON.", "nsi_id": "unitedstatespostalservice-a77078", "operator": "United States Postal Service", "operator:short": "USPS", "operator:type": "public", "operator:wikidata": "Q668687", "ref": "1430200028"}, "type": "Feature"}
{"geometry": {"coordinates": [-79.060371846, 43.082885589], "type": "Point"}, "id": "c5BAI-Y49nG8RKAcNmyTSmBaV6g=", "properties": {"@source_uri": "https://tools.usps.com/UspsToolsRestServices/rest/POLocator/findLocations", "@spider": "usps_collection_boxes", "addr:city": "NIAGARA FALLS", "addr:country": "US", "addr:postcode": "14303", "addr:state": "NY", "addr:street_address": "151 BUFFALO AVE", "amenity": "post_box", "collection_times": "Mo-Sa 09:00", "nsi_id": "unitedstatespostalservice-a77078", "operator": "United States Postal Service", "operator:short": "USPS", "operator:type": "public", "operator:wikidata": "Q668687", "ref": "1430300002"}, "type": "Feature"}
{"geometry": {"coordinates": [-79.0208865, 43.086672], "type": "Point"}, "id": "quE8TPo0uqr5Vhz_aqh7EBbCUmk=", "properties": {"@source_uri": "https://tools.usps.com/UspsToolsRestServices/rest/POLocator/findLocations", "@spider": "usps_collection_boxes", "addr:city": "NIAGARA FALLS", "addr:country": "US", "addr:postcode": "14303", "addr:state": "NY", "addr:street_address": "300 HYDE PARK BLVD", "amenity": "post_box", "collection_times": "Mo-Sa 11:00", "nsi_id": "unitedstatespostalservice-a77078", "operator": "United States Postal Service", "operator:short": "USPS", "operator:type": "public", "operator:wikidata": "Q668687", "ref": "1430300005"}, "type": "Feature"}
{"geometry": {"coordinates": [-79.059062377, 43.085319842], "type": "Point"}, "id": "XQE7S7gfDnCRQerbWfTf-aXbqhY=", "properties": {"@source_uri": "https://tools.usps.com/UspsToolsRestServices/rest/POLocator/findLocations", "@spider": "usps_collection_boxes", "addr:city": "NIAGARA FALLS", "addr:country": "US", "addr:postcode": "14303", "addr:state": "NY", "addr:street_address": "256 3RD ST", "amenity": "post_box", "collection_times": "Mo-Fr 16:00; Sa 12:00", "note": "ON 12/24 AND 12/31, THIS BOX MAY BE COLLECTED AS EARLY AS 12 NOON.", "nsi_id": "unitedstatespostalservice-a77078", "operator": "United States Postal Service", "operator:short": "USPS", "operator:type": "public", "operator:wikidata": "Q668687", "ref": "1430300020"}, "type": "Feature"}
{"geometry": {"coordinates": [-79.050006249, 43.087105519], "type": "Point"}, "id": "CfYNkTI_Xd5prwHIKX7LDEhunbU=", "properties": {"@source_uri": "https://tools.usps.com/UspsToolsRestServices/rest/POLocator/findLocations", "@spider": "usps_collection_boxes", "addr:city": "NIAGARA FALLS", "addr:country": "US", "addr:postcode": "14303", "addr:state": "NY", "addr:street_address": "301 10TH ST", "amenity": "post_box", "collection_times": "Mo-Fr 16:00; Sa 12:00", "note": "ON 12/24 AND 12/31, THIS BOX MAY BE COLLECTED AS EARLY AS 12 NOON.", "nsi_id": "unitedstatespostalservice-a77078", "operator": "United States Postal Service", "operator:short": "USPS", "operator:type": "public", "operator:wikidata": "Q668687", "ref": "1430300025"}, "type": "Feature"}
{"geometry": {"coordinates": [-79.029859888, 43.088386493], "type": "Point"}, "id": "s6257wYfoQ3gLCXqelcjgDvIJrw=", "properties": {"@source_uri": "https://tools.usps.com/UspsToolsRestServices/rest/POLocator/findLocations", "@spider": "usps_collection_boxes", "addr:city": "NIAGARA FALLS", "addr:country": "US", "addr:postcode": "14303", "addr:state": "NY", "addr:street_address": "2620 NIAGARA ST", "amenity": "post_box", "collection_times": "Mo-Sa 12:00", "nsi_id": "unitedstatespostalservice-a77078", "operator": "United States Postal Service", "operator:short": "USPS", "operator:type": "public", "operator:wikidata": "Q668687", "ref": "1430300029"}, "type": "Feature"}
{"geometry": {"coordinates": [-79.059168104, 43.086326563], "type": "Point"}, "id": "7IAHSJFituJdgNFJpD7BYSq9lI0=", "properties": {"@source_uri": "https://tools.usps.com/UspsToolsRestServices/rest/POLocator/findLocations", "@spider": "usps_collection_boxes", "addr:city": "NIAGARA FALLS", "addr:country": "US", "addr:postcode": "14303", "addr:state": "NY", "addr:street_address": "304 3RD ST", "amenity": "post_box", "collection_times": "Mo-Fr 16:00; Sa 12:00", "note": "ON 12/24 AND 12/31, THIS BOX MAY BE COLLECTED AS EARLY AS 12 NOON.", "nsi_id": "unitedstatespostalservice-a77078", "operator": "United States Postal Service", "operator:short": "USPS", "operator:type": "public", "operator:wikidata": "Q668687", "ref": "1430300039"}, "type": "Feature"}
{"geometry": {"coordinates": [-78.985525412, 43.07502626], "type": "Point"}, "id": "AWdToq1RTmPYQBS4fswku0Te2gg=", "properties": {"@source_uri": "https://tools.usps.com/UspsToolsRestServices/rest/POLocator/findLocations", "@spider": "usps_collection_boxes", "addr:city": "NIAGARA FALLS", "addr:country": "US", "addr:postcode": "14304", "addr:state": "NY", "addr:street_address": "6802 BUFFALO AVE", "amenity": "post_box", "collection_times": "Mo-Sa 09:30", "nsi_id": "unitedstatespostalservice-a77078", "operator": "United States Postal Service", "operator:short": "USPS", "operator:type": "public", "operator:wikidata": "Q668687", "ref": "1430400046"}, "type": "Feature"}
{"geometry": {"coordinates": [-78.963244008, 43.077340057], "type": "Point"}, "id": "rK13SxbiCEVD8YdaFTd7lrsD99U=", "properties": {"@source_uri": "https://tools.usps.com/UspsToolsRestServices/rest/POLocator/findLocations", "@spider": "usps_collection_boxes", "addr:city": "NIAGARA FALLS", "addr:country": "US", "addr:postcode": "14304", "addr:state": "NY", "addr:street_address": "8676 BUFFALO AVE", "amenity": "post_box", "collection_times": "Mo-Sa 09:00", "nsi_id": "unitedstatespostalservice-a77078", "operator": "United States Postal Service", "operator:short": "USPS", "operator:type": "public", "operator:wikidata": "Q668687", "ref": "1430400052"}, "type": "Feature"}
{"geometry": {"coordinates": [-78.963265539, 43.073604255], "type": "Point"}, "id": "DaBiA2rEejZJ5pblBfLKPiSRrik=", "properties": {"@source_uri": "https://tools.usps.com/UspsToolsRestServices/rest/POLocator/findLocations", "@spider": "usps_collection_boxes", "addr:city": "NIAGARA FALLS", "addr:country": "US", "addr:postcode": "14304", "addr:state": "NY", "addr:street_address": "8600 HENNEPIN AVE", "amenity": "post_box", "collection_times": "Mo-Sa 09:00", "nsi_id": "unitedstatespostalservice-a77078", "operator": "United States Postal Service", "operator:short": "USPS", "operator:type": "public", "operator:wikidata": "Q668687", "ref": "1430400059"}, "type": "Feature"}
{"geometry": {"coordinates": [-78.940350381, 43.071268124], "type": "Point"}, "id": "QWaKJF2DCYuH-QiZ8QtvVxHjxcw=", "properties": {"@source_uri": "https://tools.usps.com/UspsToolsRestServices/rest/POLocator/findLocations", "@spider": "usps_collection_boxes", "addr:city": "NIAGARA FALLS", "addr:country": "US", "addr:postcode": "14304", "addr:state": "NY", "addr:street_address": "2065 RIVER RD", "amenity": "post_box", "collection_times": "Mo-Sa 10:00", "nsi_id": "unitedstatespostalservice-a77078", "operator": "United States Postal Service", "operator:short": "USPS", "operator:type": "public", "operator:wikidata": "Q668687", "ref": "1430400060"}, "type": "Feature"}
{"geometry": {"coordinates": [-78.967000694, 43.089567872], "type": "Point"}, "id": "rQ20jciBnla7Q6Mn-O11PPp5Z5Q=", "properties": {"@source_uri": "https://tools.usps.com/UspsToolsRestServices/rest/POLocator/findLocations", "@spider": "usps_collection_boxes", "addr:city": "NIAGARA FALLS", "addr:country": "US", "addr:postcode": "14304", "addr:state": "NY", "addr:street_address": "1263 N MILITARY RD", "amenity": "post_box", "collection_times": "Mo-Sa 10:00", "nsi_id": "unitedstatespostalservice-a77078", "operator": "United States Postal Service", "operator:short": "USPS", "operator:type": "public", "operator:wikidata": "Q668687", "ref": "1430400063"}, "type": "Feature"}
{"geometry": {"coordinates": [-78.972319931, 43.094586002], "type": "Point"}, "id": "XlO7KXaAO_KUitCFtYBwfB-V6gc=", "properties": {"@source_uri": "https://tools.usps.com/UspsToolsRestServices/rest/POLocator/findLocations", "@spider": "usps_collection_boxes", "addr:city": "NIAGARA FALLS", "addr:country": "US", "addr:postcode": "14304", "addr:state": "NY", "addr:street_address": "1575 MILITARY RD", "amenity": "post_box", "collection_times": "Mo-Sa 10:00", "nsi_id": "unitedstatespostalservice-a77078", "operator": "United States Postal Service", "operator:short": "USPS", "operator:type": "public", "operator:wikidata": "Q668687", "ref": "1430400064"}, "type": "Feature"}
{"geometry": {"coordinates": [-78.98088734, 43.103329588], "type": "Point"}, "id": "kuHlJb3tE1cdKm20pBZJJF7ORww=", "properties": {"@source_uri": "https://tools.usps.com/UspsToolsRestServices/rest/POLocator/findLocations", "@spider": "usps_collection_boxes", "addr:city": "NIAGARA FALLS", "addr:country": "US", "addr:postcode": "14304", "addr:state": "NY", "addr:street_address": "2429 MILITARY RD", "amenity": "post_box", "collection_times": "Mo-Sa 09:30", "nsi_id": "unitedstatespostalservice-a77078", "operator": "United States Postal Service", "operator:short": "USPS", "operator:type": "public", "operator:wikidata": "Q668687", "ref": "1430400066"}, "type": "Feature"}
{"geometry": {"coordinates": [-78.98166032, 43.088192277], "type": "Point"}, "id": "F_srxlUWHaEmiaTFXpm56SG1BJI=", "properties": {"@source_uri": "https://tools.usps.com/UspsToolsRestServices/rest/POLocator/findLocations", "@spider": "usps_collection_boxes", "addr:city": "NIAGARA FALLS", "addr:country": "US", "addr:postcode": "14304", "addr:state": "NY", "addr:street_address": "7200 NIAGARA FALLS BLVD", "amenity": "post_box", "collection_times": "Mo-Sa 10:00", "nsi_id": "unitedstatespostalservice-a77078", "operator": "United States Postal Service", "operator:short": "USPS", "operator:type": "public", "operator:wikidata": "Q668687", "ref": "1430400069"}, "type": "Feature"}
{"geometry": {"coordinates": [-78.978291187, 43.111930857], "type": "Point"}, "id": "_5llUOBKqEuqi-3OtfEPNfRmpPU=", "properties": {"@source_uri": "https://tools.usps.com/UspsToolsRestServices/rest/POLocator/findLocations", "@spider": "usps_collection_boxes", "addr:city": "NIAGARA FALLS", "addr:country": "US", "addr:postcode": "14304", "addr:state": "NY", "addr:street_address": "7535 PACKARD RD", "amenity": "post_box", "collection_times": "Mo-Sa 09:00", "nsi_id": "unitedstatespostalservice-a77078", "operator": "United States Postal Service", "operator:short": "USPS", "operator:type": "public", "operator:wikidata": "Q668687", "ref": "1430400077"}, "type": "Feature"}
{"geometry": {"coordinates": [-78.966987455, 43.103435053], "type": "Point"}, "id": "l5rWIY6SrnjvQ_ojSrOphzTfgnc=", "properties": {"@source_uri": "https://tools.usps.com/UspsToolsRestServices/rest/POLocator/findLocations", "@spider": "usps_collection_boxes", "addr:city": "NIAGARA FALLS", "addr:country": "US", "addr:postcode": "14304", "addr:state": "NY", "addr:street_address": "8521 PORTER RD", "amenity": "post_box", "collection_times": "Mo-Sa 09:30", "nsi_id": "unitedstatespostalservice-a77078", "operator": "United States Postal Service", "operator:short": "USPS", "operator:type": "public", "operator:wikidata": "Q668687", "ref": "1430400079"}, "type": "Feature"}
{"geometry": {"coordinates": [-78.981725412, 43.083306587], "type": "Point"}, "id": "3whuv2e4pvJJXiS--H9jxWb5msA=", "properties": {"@source_uri": "https://tools.usps.com/UspsToolsRestServices/rest/POLocator/findLocations", "@spider": "usps_collection_boxes", "addr:city": "NIAGARA FALLS", "addr:country": "US", "addr:postcode": "14304", "addr:state": "NY", "addr:street_address": "501 72ND ST", "amenity": "post_box", "collection_times": "Mo-Sa 10:00", "nsi_id": "unitedstatespostalservice-a77078", "operator": "United States Postal Service", "operator:short": "USPS", "operator:type": "public", "operator:wikidata": "Q668687", "ref": "1430400086"}, "type": "Feature"}
{"geometry": {"coordinates": [-78.957993926, 43.08491745], "type": "Point"}, "id": "HSqA4EOcaMiRznHzqzfnxFB9TTA=", "properties": {"@source_uri": "https://tools.usps.com/UspsToolsRestServices/rest/POLocator/findLocations", "@spider": "usps_collection_boxes", "addr:city": "NIAGARA FALLS", "addr:country": "US", "addr:postcode": "14304", "addr:state": "NY", "addr:street_address": "935 91ST ST", "amenity": "post_box", "collection_times": "Mo-Sa 10:00", "nsi_id": "unitedstatespostalservice-a77078", "operator": "United States Postal Service", "operator:short": "USPS", "operator:type": "public", "operator:wikidata": "Q668687", "ref": "1430400087"}, "type": "Feature"}
{"geometry": {"coordinates": [-78.976486046, 43.098721993], "type": "Point"}, "id": "X5b6Vc2a6YY9SlbPqbf2Cmf7KCU=", "properties": {"@source_uri": "https://tools.usps.com/UspsToolsRestServices/rest/POLocator/findLocations", "@spider": "usps_collection_boxes", "addr:city": "NIAGARA FALLS", "addr:country": "US", "addr:postcode": "14304", "addr:state": "NY", "addr:street_address": "1900 MILITARY RD", "amenity": "post_box", "collection_times": "Mo-Sa 10:00", "nsi_id": "unitedstatespostalservice-a77078", "operator": "United States Postal Service", "operator:short": "USPS", "operator:type": "public", "operator:wikidata": "Q668687", "ref": "1430400092"}, "type": "Feature"}
{"geometry": {"coordinates": [-78.969233706, 43.089794616], "type": "Point"}, "id": "GtfUPdq1E-9XJHMcUO7C9hm6tsk=", "properties": {"@source_uri": "https://tools.usps.com/UspsToolsRestServices/rest/POLocator/findLocations", "@spider": "usps_collection_boxes", "addr:city": "NIAGARA FALLS", "addr:country": "US", "addr:postcode": "14304", "addr:state": "NY", "addr:street_address": "8297 NIAGARA FALLS BLVD", "amenity": "post_box", "collection_times": "Mo-Sa 10:00", "nsi_id": "unitedstatespostalservice-a77078", "operator": "United States Postal Service", "operator:short": "USPS", "operator:type": "public", "operator:wikidata": "Q668687", "ref": "1430400094"}, "type": "Feature"}
{"geometry": {"coordinates": [-78.934940749, 43.099613497], "type": "Point"}, "id": "lcNyRZwILYxRNkWFP2H4_a2QHbo=", "properties": {"@source_uri": "https://tools.usps.com/UspsToolsRestServices/rest/POLocator/findLocations", "@spider": "usps_collection_boxes", "addr:city": "NIAGARA FALLS", "addr:country": "US", "addr:postcode": "14304", "addr:state": "NY", "addr:street_address": "2221 NIAGARA FALLS BLVD", "amenity": "post_box", "collection_times": "Mo-Sa 10:00", "nsi_id": "unitedstatespostalservice-a77078", "operator": "United States Postal Service", "operator:short": "USPS", "operator:type": "public", "operator:wikidata": "Q668687", "ref": "1430400095"}, "type": "Feature"}
{"geometry": {"coordinates": [-78.933941121, 43.091910587], "type": "Point"}, "id": "yIpT9qTqU5NPhe9wCgMwZc11Hwg=", "properties": {"@source_uri": "https://tools.usps.com/UspsToolsRestServices/rest/POLocator/findLocations", "@spider": "usps_collection_boxes", "addr:city": "NIAGARA FALLS", "addr:country": "US", "addr:postcode": "14304", "addr:state": "NY", "addr:street_address": "6880 PLAZA DR", "amenity": "post_box", "collection_times": "Mo-Sa 10:00", "nsi_id": "unitedstatespostalservice-a77078", "operator": "United States Postal Service", "operator:short": "USPS", "operator:type": "public", "operator:wikidata": "Q668687", "ref": "1430400101"}, "type": "Feature"}
{"geometry": {"coordinates": [-78.947301296, 43.097724456], "type": "Point"}, "id": "fD5FbBBpOmqddQvoxV0BqWg7MuU=", "properties": {"@source_uri": "https://tools.usps.com/UspsToolsRestServices/rest/POLocator/findLocations", "@spider": "usps_collection_boxes", "addr:city": "NIAGARA FALLS", "addr:country": "US", "addr:postcode": "14304", "addr:state": "NY", "addr:street_address": "9860 NIAGARA FALLS BLVD", "amenity": "post_box", "collection_times": "Mo-Fr 17:00; Sa 16:00", "note": "ON 12/24 AND 12/31, THIS BOX MAY BE COLLECTED AS EARLY AS 12 NOON.", "nsi_id": "unitedstatespostalservice-a77078", "operator": "United States Postal Service", "operator:short": "USPS", "operator:type": "public", "operator:wikidata": "Q668687", "ref": "1430400106"}, "type": "Feature"}
{"geometry": {"coordinates": [-78.940690066, 43.086212801], "type": "Point"}, "id": "VudzlzC6u5RzZASuf0jzPKf5nYY=", "properties": {"@source_uri": "https://tools.usps.com/UspsToolsRestServices/rest/POLocator/findLocations", "@spider": "usps_collection_boxes", "addr:city": "NIAGARA FALLS", "addr:country": "US", "addr:postcode": "14304", "addr:state": "NY", "addr:street_address": "6934 WILLIAMS RD", "amenity": "post_box", "collection_times": "Mo-Sa 10:00", "nsi_id": "unitedstatespostalservice-a77078", "operator": "United States Postal Service", "operator:short": "USPS", "operator:type": "public", "operator:wikidata": "Q668687", "ref": "1430400109"}, "type": "Feature"}
{"geometry": {"coordinates": [-78.947301296, 43.097724456], "type": "Point"}, "id": "TmsvIWo9uylEn5_v8Q6ARx5vC8U=", "properties": {"@source_uri": "https://tools.usps.com/UspsToolsRestServices/rest/POLocator/findLocations", "@spider": "usps_collection_boxes", "addr:city": "NIAGARA FALLS", "addr:country": "US", "addr:postcode": "14304", "addr:state": "NY", "addr:street_address": "9860 NIAGARA FALLS BLVD", "amenity": "post_box", "collection_times": "Mo-Fr 17:00; Sa 16:00", "name": "USPS COLLECTION BOX - APC", "note": "ON 12/24 AND 12/31, THIS BOX MAY BE COLLECTED AS EARLY AS 12 NOON.", "nsi_id": "unitedstatespostalservice-a77078", "operator": "United States Postal Service", "operator:short": "USPS", "operator:type": "public", "operator:wikidata": "Q668687", "ref": "1430400114"}, "type": "Feature"}
{"geometry": {"coordinates": [-78.947301296, 43.097724456], "type": "Point"}, "id": "62d2OJZuh5oNx0_bXRleu8VGdVQ=", "properties": {"@source_uri": "https://tools.usps.com/UspsToolsRestServices/rest/POLocator/findLocations", "@spider": "usps_collection_boxes", "addr:city": "NIAGARA FALLS", "addr:country": "US", "addr:postcode": "14304", "addr:state": "NY", "addr:street_address": "9860 NIAGARA FALLS BLVD", "amenity": "post_box", "collection_times": "Mo-Fr 17:30; Sa 14:00", "indoor": "yes", "note": "ON 12/24 AND 12/31, THIS BOX MAY BE COLLECTED AS EARLY AS 12 NOON.", "nsi_id": "unitedstatespostalservice-a77078", "operator": "United States Postal Service", "operator:short": "USPS", "operator:type": "public", "operator:wikidata": "Q668687", "ref": "1430400117"}, "type": "Feature"}
{"geometry": {"coordinates": [-79.051221, 43.105356], "type": "Point"}, "id": "8dCW45u2qwZN9Zd0RJQPSVN8f2I=", "properties": {"@source_uri": "https://tools.usps.com/UspsToolsRestServices/rest/POLocator/findLocations", "@spider": "usps_collection_boxes", "addr:city": "NIAGARA FALLS", "addr:country": "US", "addr:postcode": "14305", "addr:state": "NY", "addr:street_address": "1001 SOUTH AVE", "amenity": "post_box", "collection_times": "Mo-Fr 16:00; Sa 12:00", "note": "ON 12/24 AND 12/31, THIS BOX MAY BE COLLECTED AS EARLY AS 12 NOON.", "nsi_id": "unitedstatespostalservice-a77078", "operator": "United States Postal Service", "operator:short": "USPS", "operator:type": "public", "operator:wikidata": "Q668687", "ref": "1430500002"}, "type": "Feature"}
{"geometry": {"coordinates": [-79.031041495, 43.110070503], "type": "Point"}, "id": "RUToXcxeBWW8m387wM4LIKvFGrk=", "properties": {"@source_uri": "https://tools.usps.com/UspsToolsRestServices/rest/POLocator/findLocations", "@spider": "usps_collection_boxes", "addr:city": "NIAGARA FALLS", "addr:country": "US", "addr:postcode": "14305", "addr:state": "NY", "addr:street_address": "2310 HYDE PARK BLVD", "amenity": "post_box", "collection_times": "Mo-Sa 10:00", "nsi_id": "unitedstatespostalservice-a77078", "operator": "United States Postal Service", "operator:short": "USPS", "operator:type": "public", "operator:wikidata": "Q668687", "ref": "1430500009"}, "type": "Feature"}
{"geometry": {"coordinates": [-79.049015, 43.109115], "type": "Point"}, "id": "lXq2V177u8Uet7JLkgEweO809H4=", "properties": {"@source_uri": "https://tools.usps.com/UspsToolsRestServices/rest/POLocator/findLocations", "@spider": "usps_collection_boxes", "addr:city": "NIAGARA FALLS", "addr:country": "US", "addr:postcode": "14305", "addr:state": "NY", "addr:street_address": "4708 HYDE PARK BLVD", "amenity": "post_box", "collection_times": "Mo-Sa 11:00", "nsi_id": "unitedstatespostalservice-a77078", "operator": "United States Postal Service", "operator:short": "USPS", "operator:type": "public", "operator:wikidata": "Q668687", "ref": "1430500011"}, "type": "Feature"}
{"geometry": {"coordinates": [-79.052581574, 43.10365761], "type": "Point"}, "id": "ZPqoTZeJVPtzQ5rKrgltw-7YrCg=", "properties": {"@source_uri": "https://tools.usps.com/UspsToolsRestServices/rest/POLocator/findLocations", "@spider": "usps_collection_boxes", "addr:city": "NIAGARA FALLS", "addr:country": "US", "addr:postcode": "14305", "addr:state": "NY", "addr:street_address": "1602 MAIN ST", "amenity": "post_box", "collection_times": "Mo-Sa 14:00", "note": "ON 12/24 AND 12/31, THIS BOX MAY BE COLLECTED AS EARLY AS 12 NOON.", "nsi_id": "unitedstatespostalservice-a77078", "operator": "United States Postal Service", "operator:short": "USPS", "operator:type": "public", "operator:wikidata": "Q668687", "ref": "1430500015"}, "type": "Feature"}
{"geometry": {"coordinates": [-79.050401124, 43.121610031], "type": "Point"}, "id": "8UMxtt7n1RhxycjCsal4FA96QS4=", "properties": {"@source_uri": "https://tools.usps.com/UspsToolsRestServices/rest/POLocator/findLocations", "@spider": "usps_collection_boxes", "addr:city": "NIAGARA FALLS", "addr:country": "US", "addr:postcode": "14305", "addr:state": "NY", "addr:street_address": "3790 MCKOON AVE", "amenity": "post_box", "collection_times": "Mo-Sa 11:00", "nsi_id": "unitedstatespostalservice-a77078", "operator": "United States Postal Service", "operator:short": "USPS", "operator:type": "public", "operator:wikidata": "Q668687", "ref": "1430500021"}, "type": "Feature"}
{"geometry": {"coordinates": [-79.001610499, 43.124578065], "type": "Point"}, "id": "whanTC6TSg-Z-Kep2dYgVQ3NiJk=", "properties": {"@source_uri": "https://tools.usps.com/UspsToolsRestServices/rest/POLocator/findLocations", "@spider": "usps_collection_boxes", "addr:city": "NIAGARA FALLS", "addr:country": "US", "addr:postcode": "14305", "addr:state": "NY", "addr:street_address": "4235 MILITARY RD", "amenity": "post_box", "collection_times": "Mo-Sa 12:00", "nsi_id": "unitedstatespostalservice-a77078", "operator": "United States Postal Service", "operator:short": "USPS", "operator:type": "public", "operator:wikidata": "Q668687", "ref": "1430500023"}, "type": "Feature"}
{"geometry": {"coordinates": [-79.003121312, 43.126104235], "type": "Point"}, "id": "0VFqLuUrJGkWVCJNMLu-KTT7NTo=", "properties": {"@source_uri": "https://tools.usps.com/UspsToolsRestServices/rest/POLocator/findLocations", "@spider": "usps_collection_boxes", "addr:city": "NIAGARA FALLS", "addr:country": "US", "addr:postcode": "14305", "addr:state": "NY", "addr:street_address": "4407 MILITARY RD", "amenity": "post_box", "collection_times": "Mo-Sa 12:00", "nsi_id": "unitedstatespostalservice-a77078", "operator": "United States Postal Service", "operator:short": "USPS", "operator:type": "public", "operator:wikidata": "Q668687", "ref": "1430500024"}, "type": "Feature"}
{"geometry": {"coordinates": [-79.054903533, 43.10772546], "type": "Point"}, "id": "GYxwLufbGp8Z4rGh1wPpOPSfpqE=", "properties": {"@source_uri": "https://tools.usps.com/UspsToolsRestServices/rest/POLocator/findLocations", "@spider": "usps_collection_boxes", "addr:city": "NIAGARA FALLS", "addr:country": "US", "addr:postcode": "14305", "addr:state": "NY", "addr:street_address": "800 NIAGARA AVE", "amenity": "post_box", "collection_times": "Mo-Sa 10:30", "nsi_id": "unitedstatespostalservice-a77078", "operator": "United States Postal Service", "operator:short": "USPS", "operator:type": "public", "operator:wikidata": "Q668687", "ref": "1430500025"}, "type": "Feature"}
{"geometry": {"coordinates": [-79.026943668, 43.109291474], "type": "Point"}, "id": "_VB1bdVHzzq5FA21XMVWkEJgH9k=", "properties": {"@source_uri": "https://tools.usps.com/UspsToolsRestServices/rest/POLocator/findLocations", "@spider": "usps_collection_boxes", "addr:city": "NIAGARA FALLS", "addr:country": "US", "addr:postcode": "14305", "addr:state": "NY", "addr:street_address": "2903 NORTH AVE", "amenity": "post_box", "collection_times": "Mo-Sa 09:30", "nsi_id": "unitedstatespostalservice-a77078", "operator": "United States Postal Service", "operator:short": "USPS", "operator:type": "public", "operator:wikidata": "Q668687", "ref": "1430500029"}, "type": "Feature"}
{"geometry": {"coordinates": [-79.056066281, 43.110535736], "type": "Point"}, "id": "-IadzMX2RlUE9Om4ERx5pLLdCDE=", "properties": {"@source_uri": "https://tools.usps.com/UspsToolsRestServices/rest/POLocator/findLocations", "@spider": "usps_collection_boxes", "addr:city": "NIAGARA FALLS", "addr:country": "US", "addr:postcode": "14305", "addr:state": "NY", "addr:street_address": "2315 WHIRLPOOL ST", "amenity": "post_box", "collection_times": "Mo-Fr 13:00; Sa 12:00", "note": "ON 12/24 AND 12/31, THIS BOX MAY BE COLLECTED AS EARLY AS 12 NOON.", "nsi_id": "unitedstatespostalservice-a77078", "operator": "United States Postal Service", "operator:short": "USPS", "operator:type": "public", "operator:wikidata": "Q668687", "ref": "1430500032"}, "type": "Feature"}
{"geometry": {"coordinates": [-78.98457751, 43.121765707], "type": "Point"}, "id": "_7VniUigaIfBeXmTZp45cL2oWys=", "properties": {"@source_uri": "https://tools.usps.com/UspsToolsRestServices/rest/POLocator/findLocations", "@spider": "usps_collection_boxes", "addr:city": "NIAGARA FALLS", "addr:country": "US", "addr:postcode": "14305", "addr:state": "NY", "addr:street_address": "7105 LOCKPORT RD", "amenity": "post_box", "collection_times": "Mo-Sa 09:00", "nsi_id": "unitedstatespostalservice-a77078", "operator": "United States Postal Service", "operator:short": "USPS", "operator:type": "public", "operator:wikidata": "Q668687", "ref": "1430500038"}, "type": "Feature"}
{"geometry": {"coordinates": [-79.029219998, 43.127384015], "type": "Point"}, "id": "IRFHAwIq6_mkS_RhdByapVoGBpw=", "properties": {"@source_uri": "https://tools.usps.com/UspsToolsRestServices/rest/POLocator/findLocations", "@spider": "usps_collection_boxes", "addr:city": "NIAGARA FALLS", "addr:country": "US", "addr:postcode": "14305", "addr:state": "NY", "addr:street_address": "4500 WITMER RD", "amenity": "post_box", "collection_times": "Mo-Sa 11:00", "nsi_id": "unitedstatespostalservice-a77078", "operator": "United States Postal Service", "operator:short": "USPS", "operator:type": "public", "operator:wikidata": "Q668687", "ref": "1430500040"}, "type": "Feature"}
{"geometry": {"coordinates": [-79.053264368, 43.106101722], "type": "Point"}, "id": "nMhUi18D_5JEWV0P865GXb8x7qo=", "properties": {"@source_uri": "https://tools.usps.com/UspsToolsRestServices/rest/POLocator/findLocations", "@spider": "usps_collection_boxes", "addr:city": "NIAGARA FALLS", "addr:country": "US", "addr:postcode": "14305", "addr:state": "NY", "addr:street_address": "1925 MAIN ST", "amenity": "post_box", "collection_times": "Mo-Fr 16:00; Sa 12:00", "note": "ON 12/24 AND 12/31, THIS BOX MAY BE COLLECTED AS EARLY AS 12 NOON.", "nsi_id": "unitedstatespostalservice-a77078", "operator": "United States Postal Service", "operator:short": "USPS", "operator:type": "public", "operator:wikidata": "Q668687", "ref": "1430500041"}, "type": "Feature"}
{"geometry": {"coordinates": [-79.051221, 43.105356], "type": "Point"}, "id": "SabTFV7tTkED3_C8Xqhm_dh2B4I=", "properties": {"@source_uri": "https://tools.usps.com/UspsToolsRestServices/rest/POLocator/findLocations", "@spider": "usps_collection_boxes", "addr:city": "NIAGARA FALLS", "addr:country": "US", "addr:postcode": "14305", "addr:state": "NY", "addr:street_address": "1001 SOUTH AVE", "amenity": "post_box", "collection_times": "Mo-Fr 16:00; Sa 12:00", "indoor": "yes", "note": "ON 12/24 AND 12/31, THIS BOX MAY BE COLLECTED AS EARLY AS 12 NOON.", "nsi_id": "unitedstatespostalservice-a77078", "operator": "United States Postal Service", "operator:short": "USPS", "operator:type": "public", "operator:wikidata": "Q668687", "ref": "1430500042"}, "type": "Feature"}
