{"dataset_attributes": {"@spider": "usps_collection_boxes"}, "geometry": {"coordinates": [-76.870184, 43.083704], "type": "Point"}, "id": "6ahGeWyWyzdWYV1dmAaTmP2u-Tw=", "properties": {"@spider": "usps_collection_boxes", "addr:city": "CLYDE", "addr:country": "US", "addr:full": "20 S PARK ST", "addr:postcode": "14433", "addr:state": "NY", "amenity": "post_box", "brand": "United States Postal Service", "brand:wikidata": "Q668687", "collection_times": "Mo-Fr 16:30; Sa 11:45", "name": "USPS COLLECTION BOX - BLUE BOX", "note": "ON 12/24 AND 12/31, THIS BOX MAY BE COLLECTED AS EARLY AS 12 NOON.", "nsi_id": "unitedstatespostalservice-a77078", "operator": "United States Postal Service", "operator:short": "USPS", "operator:type": "public", "operator:wikidata": "Q668687", "ref": "1443300001"}, "type": "Feature"}
{"dataset_attributes": {"@spider": "usps_collection_boxes"}, "geometry": {"coordinates": [-76.870099, 43.083705], "type": "Point"}, "id": "EhzVKppUFvVzqqlpSQz1CognV9k=", "properties": {"@spider": "usps_collection_boxes", "addr:city": "CLYDE", "addr:country": "US", "addr:full": "20 S PARK ST", "addr:postcode": "14433", "addr:state": "NY", "amenity": "post_box", "brand": "United States Postal Service", "brand:wikidata": "Q668687", "collection_times": "Mo-Fr 16:30; Sa 11:45", "name": "USPS COLLECTION BOX - BLUE BOX", "note": "ON 12/24 AND 12/31, THIS BOX MAY BE COLLECTED AS EARLY AS 12 NOON.", "nsi_id": "unitedstatespostalservice-a77078", "operator": "United States Postal Service", "operator:short": "USPS", "operator:type": "public", "operator:wikidata": "Q668687", "ref": "1443300010"}, "type": "Feature"}
{"dataset_attributes": {"@spider": "usps_collection_boxes"}, "geometry": {"coordinates": [-76.870099, 43.083705], "type": "Point"}, "id": "VMxGJK1p3Aa9_oSjSUj5g0ZJ_7U=", "properties": {"@spider": "usps_collection_boxes", "addr:city": "CLYDE", "addr:country": "US", "addr:full": "20 S PARK ST", "addr:postcode": "14433", "addr:state": "NY", "amenity": "post_box", "brand": "United States Postal Service", "brand:wikidata": "Q668687", "collection_times": "Mo-Fr 16:30; Sa 12:00", "name": "USPS COLLECTION BOX - PO LOBBY", "note": "ON 12/24 AND 12/31, THIS BOX MAY BE COLLECTED AS EARLY AS 12 NOON.", "nsi_id": "unitedstatespostalservice-a77078", "operator": "United States Postal Service", "operator:short": "USPS", "operator:type": "public", "operator:wikidata": "Q668687", "ref": "1443300011"}, "type": "Feature"}
{"dataset_attributes": {"@spider": "usps_collection_boxes"}, "geometry": {"coordinates": [-76.870512428, 43.083820385], "type": "Point"}, "id": "sIhAOltbJ0pxoNm0SqouZ0FmBxo=", "properties": {"@spider": "usps_collection_boxes", "addr:city": "CLYDE", "addr:country": "US", "addr:full": "20 S PARK ST", "addr:postcode": "14433", "addr:state": "NY", "amenity": "post_box", "brand": "United States Postal Service", "brand:wikidata": "Q668687", "collection_times": "Mo-Fr 16:30; Sa 12:00", "name": "USPS COLLECTION BOX - PO LOBBY", "note": "ON 12/24 AND 12/31, THIS BOX MAY BE COLLECTED AS EARLY AS 12 NOON.", "nsi_id": "unitedstatespostalservice-a77078", "operator": "United States Postal Service", "operator:short": "USPS", "operator:type": "public", "operator:wikidata": "Q668687", "ref": "1443300014"}, "type": "Feature"}
