{"dataset_attributes": {"@spider": "usps_collection_boxes"}, "geometry": {"coordinates": [-76.892287, 43.185345], "type": "Point"}, "id": "K5ERtXr-olpXYV-wWIpl6oAEUxc=", "properties": {"@spider": "usps_collection_boxes", "addr:city": "N ROSE", "addr:country": "US", "addr:full": "10374 E RAILROAD AVE", "addr:postcode": "14516", "addr:state": "NY", "amenity": "post_box", "brand": "United States Postal Service", "brand:wikidata": "Q668687", "collection_times": "Mo-Fr 16:15; Sa 11:45", "name": "USPS COLLECTION BOX - BLUE BOX", "note": "ON 12/24 AND 12/31, THIS BOX MAY BE COLLECTED AS EARLY AS 12 NOON.", "nsi_id": "unitedstatespostalservice-a77078", "operator": "United States Postal Service", "operator:short": "USPS", "operator:type": "public", "operator:wikidata": "Q668687", "ref": "1451600001"}, "type": "Feature"}
{"dataset_attributes": {"@spider": "usps_collection_boxes"}, "geometry": {"coordinates": [-76.89235, 43.18537], "type": "Point"}, "id": "kH2jJaP81EQEoYkc6Hk5bxGIG-4=", "properties": {"@spider": "usps_collection_boxes", "addr:city": "N ROSE", "addr:country": "US", "addr:full": "10374 E RAILROAD AVE", "addr:postcode": "14516", "addr:state": "NY", "amenity": "post_box", "brand": "United States Postal Service", "brand:wikidata": "Q668687", "collection_times": "Mo-Fr 16:30; Sa 12:00", "name": "USPS COLLECTION BOX - PO LOBBY", "note": "ON 12/24 AND 12/31, THIS BOX MAY BE COLLECTED AS EARLY AS 12 NOON.", "nsi_id": "unitedstatespostalservice-a77078", "operator": "United States Postal Service", "operator:short": "USPS", "operator:type": "public", "operator:wikidata": "Q668687", "ref": "1451600002"}, "type": "Feature"}
{"dataset_attributes": {"@spider": "usps_collection_boxes"}, "geometry": {"coordinates": [-76.891541778, 43.185358543], "type": "Point"}, "id": "iTGmcPhMhhOx71biEwbeq87uzU8=", "properties": {"@spider": "usps_collection_boxes", "addr:city": "N ROSE", "addr:country": "US", "addr:full": "10374 E RAILROAD AVE", "addr:postcode": "14516", "addr:state": "NY", "amenity": "post_box", "brand": "United States Postal Service", "brand:wikidata": "Q668687", "collection_times": "Mo-Fr 16:30; Sa 12:00", "name": "USPS COLLECTION BOX - PO LOBBY", "note": "ON 12/24 AND 12/31, THIS BOX MAY BE COLLECTED AS EARLY AS 12 NOON.", "nsi_id": "unitedstatespostalservice-a77078", "operator": "United States Postal Service", "operator:short": "USPS", "operator:type": "public", "operator:wikidata": "Q668687", "ref": "1451600004"}, "type": "Feature"}
{"dataset_attributes": {"@spider": "usps_collection_boxes"}, "geometry": {"coordinates": [-76.822593, 42.677784], "type": "Point"}, "id": "9omaM_dr8irfRmqqYPEGyV53EsM=", "properties": {"@spider": "usps_collection_boxes", "addr:city": "OVID", "addr:country": "US", "addr:full": "7161 MAIN ST", "addr:postcode": "14521", "addr:state": "NY", "amenity": "post_box", "brand": "United States Postal Service", "brand:wikidata": "Q668687", "collection_times": "Mo-Fr 16:15; Sa 11:45", "name": "USPS COLLECTION BOX - BLUE BOX", "note": "ON 12/24 AND 12/31, THIS BOX MAY BE COLLECTED AS EARLY AS 12 NOON.", "nsi_id": "unitedstatespostalservice-a77078", "operator": "United States Postal Service", "operator:short": "USPS", "operator:type": "public", "operator:wikidata": "Q668687", "ref": "1452100001"}, "type": "Feature"}
{"dataset_attributes": {"@spider": "usps_collection_boxes"}, "geometry": {"coordinates": [-76.822618, 42.677816], "type": "Point"}, "id": "zp57SIgxlrEVSlyiSCgwzo7rGpo=", "properties": {"@spider": "usps_collection_boxes", "addr:city": "OVID", "addr:country": "US", "addr:full": "7161 MAIN ST", "addr:postcode": "14521", "addr:state": "NY", "amenity": "post_box", "brand": "United States Postal Service", "brand:wikidata": "Q668687", "collection_times": "Mo-Fr 16:30; Sa 12:00", "name": "USPS COLLECTION BOX - PO LOBBY", "note": "ON 12/24 AND 12/31, THIS BOX MAY BE COLLECTED AS EARLY AS 12 NOON.", "nsi_id": "unitedstatespostalservice-a77078", "operator": "United States Postal Service", "operator:short": "USPS", "operator:type": "public", "operator:wikidata": "Q668687", "ref": "1452100002"}, "type": "Feature"}
{"dataset_attributes": {"@spider": "usps_collection_boxes"}, "geometry": {"coordinates": [-76.822613159, 42.677593659], "type": "Point"}, "id": "dt9C7fmPSY6YLEls1D_ALMqXKIo=", "properties": {"@spider": "usps_collection_boxes", "addr:city": "OVID", "addr:country": "US", "addr:full": "7161 MAIN ST", "addr:postcode": "14521", "addr:state": "NY", "amenity": "post_box", "brand": "United States Postal Service", "brand:wikidata": "Q668687", "collection_times": "Mo-Fr 16:30; Sa 12:00", "name": "USPS COLLECTION BOX - PO LOBBY", "note": "ON 12/24 AND 12/31, THIS BOX MAY BE COLLECTED AS EARLY AS 12 NOON.", "nsi_id": "unitedstatespostalservice-a77078", "operator": "United States Postal Service", "operator:short": "USPS", "operator:type": "public", "operator:wikidata": "Q668687", "ref": "1452100004"}, "type": "Feature"}
{"dataset_attributes": {"@spider": "usps_collection_boxes"}, "geometry": {"coordinates": [-76.9178538, 42.958905], "type": "Point"}, "id": "4Rv0wFz_baMZrbmizjqZ-anu2b8=", "properties": {"@spider": "usps_collection_boxes", "addr:city": "PHELPS", "addr:country": "US", "addr:full": "1399 NINE FOOT RD", "addr:postcode": "14532", "addr:state": "NY", "amenity": "post_box", "brand": "United States Postal Service", "brand:wikidata": "Q668687", "collection_times": "Mo-Sa 10:00", "name": "USPS COLLECTION BOX - BLUE BOX", "nsi_id": "unitedstatespostalservice-a77078", "operator": "United States Postal Service", "operator:short": "USPS", "operator:type": "public", "operator:wikidata": "Q668687", "ref": "1453200003"}, "type": "Feature"}
{"dataset_attributes": {"@spider": "usps_collection_boxes"}, "geometry": {"coordinates": [-76.834901, 42.751701], "type": "Point"}, "id": "2cO9Xd6f1jgL-MmXJ2mdDbffKug=", "properties": {"@spider": "usps_collection_boxes", "addr:city": "ROMULUS", "addr:country": "US", "addr:full": "1969 SENECA ST", "addr:postcode": "14541", "addr:state": "NY", "amenity": "post_box", "brand": "United States Postal Service", "brand:wikidata": "Q668687", "collection_times": "Mo-Fr 16:30; Sa 12:00", "name": "USPS COLLECTION BOX - PO LOBBY", "note": "ON 12/24 AND 12/31, THIS BOX MAY BE COLLECTED AS EARLY AS 12 NOON.", "nsi_id": "unitedstatespostalservice-a77078", "operator": "United States Postal Service", "operator:short": "USPS", "operator:type": "public", "operator:wikidata": "Q668687", "ref": "1454100001"}, "type": "Feature"}
{"dataset_attributes": {"@spider": "usps_collection_boxes"}, "geometry": {"coordinates": [-76.834994, 42.751674], "type": "Point"}, "id": "vD1Vxj5JkRXMb_bhW_HPCzoAJNE=", "properties": {"@spider": "usps_collection_boxes", "addr:city": "ROMULUS", "addr:country": "US", "addr:full": "1969 SENECA ST", "addr:postcode": "14541", "addr:state": "NY", "amenity": "post_box", "brand": "United States Postal Service", "brand:wikidata": "Q668687", "collection_times": "Mo-Fr 16:15; Sa 11:45", "name": "USPS COLLECTION BOX - BLUE BOX", "note": "ON 12/24 AND 12/31, THIS BOX MAY BE COLLECTED AS EARLY AS 12 NOON.", "nsi_id": "unitedstatespostalservice-a77078", "operator": "United States Postal Service", "operator:short": "USPS", "operator:type": "public", "operator:wikidata": "Q668687", "ref": "1454100003"}, "type": "Feature"}
{"dataset_attributes": {"@spider": "usps_collection_boxes"}, "geometry": {"coordinates": [-76.834970026, 42.75169446], "type": "Point"}, "id": "AJD7BTcnLmBph2cRYKUbawjwqv8=", "properties": {"@spider": "usps_collection_boxes", "addr:city": "ROMULUS", "addr:country": "US", "addr:full": "1969 SENECA ST", "addr:postcode": "14541", "addr:state": "NY", "amenity": "post_box", "brand": "United States Postal Service", "brand:wikidata": "Q668687", "collection_times": "Mo-Fr 16:30; Sa 12:00", "name": "USPS COLLECTION BOX - PO LOBBY", "note": "ON 12/24 AND 12/31, THIS BOX MAY BE COLLECTED AS EARLY AS 12 NOON.", "nsi_id": "unitedstatespostalservice-a77078", "operator": "United States Postal Service", "operator:short": "USPS", "operator:type": "public", "operator:wikidata": "Q668687", "ref": "1454100005"}, "type": "Feature"}
{"dataset_attributes": {"@spider": "usps_collection_boxes"}, "geometry": {"coordinates": [-76.877965, 43.153853], "type": "Point"}, "id": "7LcXnH6z2dSIsIzfzY6qIj-jAzk=", "properties": {"@spider": "usps_collection_boxes", "addr:city": "ROSE", "addr:country": "US", "addr:full": "10660 WOLCOTT ST", "addr:postcode": "14542", "addr:state": "NY", "amenity": "post_box", "brand": "United States Postal Service", "brand:wikidata": "Q668687", "collection_times": "Mo-Fr 16:45; Sa 11:45", "name": "USPS COLLECTION BOX - BLUE BOX", "note": "ON 12/24 AND 12/31, THIS BOX MAY BE COLLECTED AS EARLY AS 12 NOON.", "nsi_id": "unitedstatespostalservice-a77078", "operator": "United States Postal Service", "operator:short": "USPS", "operator:type": "public", "operator:wikidata": "Q668687", "ref": "1454200000"}, "type": "Feature"}
{"dataset_attributes": {"@spider": "usps_collection_boxes"}, "geometry": {"coordinates": [-76.877927, 43.153943], "type": "Point"}, "id": "J5-iU2G2ZyGVwkZeQm9EhyfZrS8=", "properties": {"@spider": "usps_collection_boxes", "addr:city": "ROSE", "addr:country": "US", "addr:full": "10660 WOLCOTT ST", "addr:postcode": "14542", "addr:state": "NY", "amenity": "post_box", "brand": "United States Postal Service", "brand:wikidata": "Q668687", "collection_times": "Mo-Fr 16:45; Sa 12:00", "name": "USPS COLLECTION BOX - PO LOBBY", "note": "ON 12/24 AND 12/31, THIS BOX MAY BE COLLECTED AS EARLY AS 12 NOON.", "nsi_id": "unitedstatespostalservice-a77078", "operator": "United States Postal Service", "operator:short": "USPS", "operator:type": "public", "operator:wikidata": "Q668687", "ref": "1454200001"}, "type": "Feature"}
{"dataset_attributes": {"@spider": "usps_collection_boxes"}, "geometry": {"coordinates": [-76.878237301, 43.153543666], "type": "Point"}, "id": "DL1hfpckXbugqKxg-g8DfK7QAt0=", "properties": {"@spider": "usps_collection_boxes", "addr:city": "ROSE", "addr:country": "US", "addr:full": "10660 WOLCOTT ST", "addr:postcode": "14542", "addr:state": "NY", "amenity": "post_box", "brand": "United States Postal Service", "brand:wikidata": "Q668687", "collection_times": "Mo-Fr 17:00; Sa 12:00", "name": "USPS COLLECTION BOX - PO LOBBY", "note": "ON 12/24 AND 12/31, THIS BOX MAY BE COLLECTED AS EARLY AS 12 NOON.", "nsi_id": "unitedstatespostalservice-a77078", "operator": "United States Postal Service", "operator:short": "USPS", "operator:type": "public", "operator:wikidata": "Q668687", "ref": "1454200003"}, "type": "Feature"}
{"dataset_attributes": {"@spider": "usps_collection_boxes"}, "geometry": {"coordinates": [-76.869632, 42.683302], "type": "Point"}, "id": "xWvxiARMkwQppk8933dDiug4JhE=", "properties": {"@spider": "usps_collection_boxes", "addr:city": "WILLARD", "addr:country": "US", "addr:full": "1435 PROSPECT ST", "addr:postcode": "14588", "addr:state": "NY", "amenity": "post_box", "brand": "United States Postal Service", "brand:wikidata": "Q668687", "collection_times": "Mo-Fr 16:30; Sa 11:45", "name": "USPS COLLECTION BOX - BLUE BOX", "note": "ON 12/24 AND 12/31, THIS BOX MAY BE COLLECTED AS EARLY AS 12 NOON.", "nsi_id": "unitedstatespostalservice-a77078", "operator": "United States Postal Service", "operator:short": "USPS", "operator:type": "public", "operator:wikidata": "Q668687", "ref": "1458800001"}, "type": "Feature"}
{"dataset_attributes": {"@spider": "usps_collection_boxes"}, "geometry": {"coordinates": [-76.869708, 42.683272], "type": "Point"}, "id": "jvKUuMCk8ADelxA1EmochYmKUYE=", "properties": {"@spider": "usps_collection_boxes", "addr:city": "WILLARD", "addr:country": "US", "addr:full": "1435 PROSPECT ST", "addr:postcode": "14588", "addr:state": "NY", "amenity": "post_box", "brand": "United States Postal Service", "brand:wikidata": "Q668687", "collection_times": "Mo-Fr 16:45; Sa 12:00", "name": "USPS COLLECTION BOX - PO LOBBY", "note": "ON 12/24 AND 12/31, THIS BOX MAY BE COLLECTED AS EARLY AS 12 NOON.", "nsi_id": "unitedstatespostalservice-a77078", "operator": "United States Postal Service", "operator:short": "USPS", "operator:type": "public", "operator:wikidata": "Q668687", "ref": "1458800002"}, "type": "Feature"}
{"dataset_attributes": {"@spider": "usps_collection_boxes"}, "geometry": {"coordinates": [-76.870314, 42.683274533], "type": "Point"}, "id": "vKUIZka13O2t2IgvepdHPtw20gk=", "properties": {"@spider": "usps_collection_boxes", "addr:city": "WILLARD", "addr:country": "US", "addr:full": "1435 PROSPECT ST", "addr:postcode": "14588", "addr:state": "NY", "amenity": "post_box", "brand": "United States Postal Service", "brand:wikidata": "Q668687", "collection_times": "Mo-Fr 17:00; Sa 12:00", "name": "USPS COLLECTION BOX - PO LOBBY", "note": "ON 12/24 AND 12/31, THIS BOX MAY BE COLLECTED AS EARLY AS 12 NOON.", "nsi_id": "unitedstatespostalservice-a77078", "operator": "United States Postal Service", "operator:short": "USPS", "operator:type": "public", "operator:wikidata": "Q668687", "ref": "1458800004"}, "type": "Feature"}
{"dataset_attributes": {"@spider": "usps_collection_boxes"}, "geometry": {"coordinates": [-76.815091, 43.220877], "type": "Point"}, "id": "08eBm3fhnJduLUfX3QREafNxiSw=", "properties": {"@spider": "usps_collection_boxes", "addr:city": "WOLCOTT", "addr:country": "US", "addr:full": "6048 LAKE AVE", "addr:postcode": "14590", "addr:state": "NY", "amenity": "post_box", "brand": "United States Postal Service", "brand:wikidata": "Q668687", "collection_times": "Mo-Fr 16:45; Sa 12:00", "name": "USPS COLLECTION BOX - BLUE BOX", "note": "ON 12/24 AND 12/31, THIS BOX MAY BE COLLECTED AS EARLY AS 12 NOON.", "nsi_id": "unitedstatespostalservice-a77078", "operator": "United States Postal Service", "operator:short": "USPS", "operator:type": "public", "operator:wikidata": "Q668687", "ref": "1459000001"}, "type": "Feature"}
{"dataset_attributes": {"@spider": "usps_collection_boxes"}, "geometry": {"coordinates": [-76.8149169, 43.2201], "type": "Point"}, "id": "Ua2JFfDcU-qvp3cZzDGY200_nf8=", "properties": {"@spider": "usps_collection_boxes", "addr:city": "WOLCOTT", "addr:country": "US", "addr:full": "6010 NEW HARTFORD ST", "addr:postcode": "14590", "addr:state": "NY", "amenity": "post_box", "brand": "United States Postal Service", "brand:wikidata": "Q668687", "collection_times": "Mo-Sa 09:00", "name": "USPS COLLECTION BOX - BLUE BOX", "nsi_id": "unitedstatespostalservice-a77078", "operator": "United States Postal Service", "operator:short": "USPS", "operator:type": "public", "operator:wikidata": "Q668687", "ref": "1459000006"}, "type": "Feature"}
{"dataset_attributes": {"@spider": "usps_collection_boxes"}, "geometry": {"coordinates": [-76.815128, 43.22096], "type": "Point"}, "id": "B7XtyAnGAq5rJshZXVuXFzDEwWE=", "properties": {"@spider": "usps_collection_boxes", "addr:city": "WOLCOTT", "addr:country": "US", "addr:full": "6048 LAKE AVE", "addr:postcode": "14590", "addr:state": "NY", "amenity": "post_box", "brand": "United States Postal Service", "brand:wikidata": "Q668687", "collection_times": "Mo-Fr 17:00; Sa 12:00", "name": "USPS COLLECTION BOX - PO LOBBY", "note": "ON 12/24 AND 12/31, THIS BOX MAY BE COLLECTED AS EARLY AS 12 NOON.", "nsi_id": "unitedstatespostalservice-a77078", "operator": "United States Postal Service", "operator:short": "USPS", "operator:type": "public", "operator:wikidata": "Q668687", "ref": "1459000008"}, "type": "Feature"}
{"dataset_attributes": {"@spider": "usps_collection_boxes"}, "geometry": {"coordinates": [-76.815093321, 43.220907], "type": "Point"}, "id": "ecfPly-fxHCC1OnZZUriI1aZJms=", "properties": {"@spider": "usps_collection_boxes", "addr:city": "WOLCOTT", "addr:country": "US", "addr:full": "6048 LAKE AVE", "addr:postcode": "14590", "addr:state": "NY", "amenity": "post_box", "brand": "United States Postal Service", "brand:wikidata": "Q668687", "collection_times": "Mo-Fr 17:00; Sa 12:00", "name": "USPS COLLECTION BOX - PO LOBBY", "note": "ON 12/24 AND 12/31, THIS BOX MAY BE COLLECTED AS EARLY AS 12 NOON.", "nsi_id": "unitedstatespostalservice-a77078", "operator": "United States Postal Service", "operator:short": "USPS", "operator:type": "public", "operator:wikidata": "Q668687", "ref": "1459000010"}, "type": "Feature"}
