{"geometry": {"coordinates": [-79.243077437, 42.095151714], "type": "Point"}, "id": "oSPP0LxOGDJF31-Ig8jnpznp-NQ=", "properties": {"@spider": "usps_collection_boxes", "addr:city": "JAMESTOWN", "addr:country": "US", "addr:full": "111 W 2ND ST", "addr:postcode": "14701", "addr:state": "NY", "brand": "USPS", "collection_times": "Mo-Sa 14:00", "name": "USPS COLLECTION BOX - BLUE BOX", "note": "ON 12/24 AND 12/31, THIS BOX MAY BE COLLECTED AS EARLY AS 12 NOON.", "ref": "1470100031"}, "type": "Feature"}
{"geometry": {"coordinates": [-79.249090965, 42.09670988], "type": "Point"}, "id": "aUW7JPuwL2SNQoUCqb5ZjgalRxc=", "properties": {"@spider": "usps_collection_boxes", "addr:city": "JAMESTOWN", "addr:country": "US", "addr:full": "100 MURRAY AVE", "addr:postcode": "14701", "addr:state": "NY", "brand": "USPS", "collection_times": "Mo-Sa 14:00", "name": "USPS COLLECTION BOX - BLUE BOX", "note": "ON 12/24 AND 12/31, THIS BOX MAY BE COLLECTED AS EARLY AS 12 NOON.", "ref": "1470100039"}, "type": "Feature"}
{"geometry": {"coordinates": [-79.250435443, 42.094871326], "type": "Point"}, "id": "VdP6Rubz6-X7MOcDaoW3tJ-6Vqg=", "properties": {"@spider": "usps_collection_boxes", "addr:city": "JAMESTOWN", "addr:country": "US", "addr:full": "560 W 3RD ST", "addr:postcode": "14701", "addr:state": "NY", "brand": "USPS", "collection_times": "Mo-Sa 14:00", "name": "USPS COLLECTION BOX - BLUE BOX", "note": "ON 12/24 AND 12/31, THIS BOX MAY BE COLLECTED AS EARLY AS 12 NOON.", "ref": "1470100040"}, "type": "Feature"}
{"geometry": {"coordinates": [-79.241644914, 42.097358296], "type": "Point"}, "id": "WTuNpwfDi2q3PtLEljZoHcYUcZU=", "properties": {"@spider": "usps_collection_boxes", "addr:city": "JAMESTOWN", "addr:country": "US", "addr:full": "415 N MAIN ST", "addr:postcode": "14701", "addr:state": "NY", "brand": "USPS", "collection_times": "Mo-Sa 14:00", "name": "USPS COLLECTION BOX - BLUE BOX", "note": "ON 12/24 AND 12/31, THIS BOX MAY BE COLLECTED AS EARLY AS 12 NOON.", "ref": "1470100041"}, "type": "Feature"}
{"geometry": {"coordinates": [-79.240581007, 42.098390824], "type": "Point"}, "id": "ZOlNjwhmwYIQNsXV8m4di9tEZ84=", "properties": {"@spider": "usps_collection_boxes", "addr:city": "JAMESTOWN", "addr:country": "US", "addr:full": "500 PINE ST", "addr:postcode": "14701", "addr:state": "NY", "brand": "USPS", "collection_times": "Mo-Sa 14:00", "name": "USPS COLLECTION BOX - BLUE BOX", "note": "ON 12/24 AND 12/31, THIS BOX MAY BE COLLECTED AS EARLY AS 12 NOON.", "ref": "1470100042"}, "type": "Feature"}
{"geometry": {"coordinates": [-79.239565648, 42.099301644], "type": "Point"}, "id": "WamKLyGAAXz3dsqtrGHySBsvnCg=", "properties": {"@spider": "usps_collection_boxes", "addr:city": "JAMESTOWN", "addr:country": "US", "addr:full": "200 E 6TH ST", "addr:postcode": "14701", "addr:state": "NY", "brand": "USPS", "collection_times": "Mo-Sa 14:00", "name": "USPS COLLECTION BOX - BLUE BOX", "note": "ON 12/24 AND 12/31, THIS BOX MAY BE COLLECTED AS EARLY AS 12 NOON.", "ref": "1470100043"}, "type": "Feature"}
{"geometry": {"coordinates": [-79.240517791, 42.09734566], "type": "Point"}, "id": "u-gEx3wSYmNlkHYk1U829ax44AY=", "properties": {"@spider": "usps_collection_boxes", "addr:city": "JAMESTOWN", "addr:country": "US", "addr:full": "18 E 4TH ST", "addr:postcode": "14701", "addr:state": "NY", "brand": "USPS", "collection_times": "Mo-Sa 14:00", "name": "USPS COLLECTION BOX - BLUE BOX", "note": "ON 12/24 AND 12/31, THIS BOX MAY BE COLLECTED AS EARLY AS 12 NOON.", "ref": "1470100045"}, "type": "Feature"}
{"geometry": {"coordinates": [-79.242896838, 42.096956649], "type": "Point"}, "id": "FIdVm8YUV6_hRGnhpZi_ppl5Kus=", "properties": {"@spider": "usps_collection_boxes", "addr:city": "JAMESTOWN", "addr:country": "US", "addr:full": "101 W 4TH ST", "addr:postcode": "14701", "addr:state": "NY", "brand": "USPS", "collection_times": "Mo-Sa 14:00", "name": "USPS COLLECTION BOX - BLUE BOX", "note": "ON 12/24 AND 12/31, THIS BOX MAY BE COLLECTED AS EARLY AS 12 NOON.", "ref": "1470100046"}, "type": "Feature"}
{"geometry": {"coordinates": [-79.242928512, 42.096094333], "type": "Point"}, "id": "YpSQqvgEV30w4rpC48aY_yXpRys=", "properties": {"@spider": "usps_collection_boxes", "addr:city": "JAMESTOWN", "addr:country": "US", "addr:full": "110 W 3RD ST", "addr:postcode": "14701", "addr:state": "NY", "brand": "USPS", "collection_times": "Mo-Sa 14:00", "name": "USPS COLLECTION BOX - BLUE BOX", "note": "ON 12/24 AND 12/31, THIS BOX MAY BE COLLECTED AS EARLY AS 12 NOON.", "ref": "1470100047"}, "type": "Feature"}
{"geometry": {"coordinates": [-79.2414471969, 42.0961692939], "type": "Point"}, "id": "8bzjQLP314-MJyHPL-vyHMMwt5I=", "properties": {"@spider": "usps_collection_boxes", "addr:city": "JAMESTOWN", "addr:country": "US", "addr:full": "1 W 3RD ST", "addr:postcode": "14701", "addr:state": "NY", "brand": "USPS", "collection_times": "Mo-Sa 14:00", "name": "USPS COLLECTION BOX - BLUE BOX", "note": "ON 12/24 AND 12/31, THIS BOX MAY BE COLLECTED AS EARLY AS 12 NOON.", "ref": "1470100048"}, "type": "Feature"}
{"geometry": {"coordinates": [-79.23947846, 42.096704108], "type": "Point"}, "id": "Ih94KjRs0nZ9xxplnHjuov94iGs=", "properties": {"@spider": "usps_collection_boxes", "addr:city": "JAMESTOWN", "addr:country": "US", "addr:full": "121 E 3RD ST", "addr:postcode": "14701", "addr:state": "NY", "brand": "USPS", "collection_times": "Mo-Sa 14:00", "name": "USPS COLLECTION BOX - BLUE BOX", "note": "ON 12/24 AND 12/31, THIS BOX MAY BE COLLECTED AS EARLY AS 12 NOON.", "ref": "1470100049"}, "type": "Feature"}
{"geometry": {"coordinates": [-79.237644386, 42.096844189], "type": "Point"}, "id": "omI5wtvKxPYXoAeYK_P-76V3VyI=", "properties": {"@spider": "usps_collection_boxes", "addr:city": "JAMESTOWN", "addr:country": "US", "addr:full": "300 E 3RD ST", "addr:postcode": "14701", "addr:state": "NY", "brand": "USPS", "collection_times": "Mo-Sa 17:00", "name": "USPS COLLECTION BOX - BLUE BOX", "note": "ON 12/24 AND 12/31, THIS BOX MAY BE COLLECTED AS EARLY AS 12 NOON.", "ref": "1470100053"}, "type": "Feature"}
{"geometry": {"coordinates": [-79.237644386, 42.096844189], "type": "Point"}, "id": "MZjjMHUpNayBfFJy_nvEPWA_NFs=", "properties": {"@spider": "usps_collection_boxes", "addr:city": "JAMESTOWN", "addr:country": "US", "addr:full": "300 E 3RD ST", "addr:postcode": "14701", "addr:state": "NY", "brand": "USPS", "collection_times": "Mo-Sa 17:00", "name": "USPS COLLECTION BOX - BLUE BOX", "note": "ON 12/24 AND 12/31, THIS BOX MAY BE COLLECTED AS EARLY AS 12 NOON.", "ref": "1470100057"}, "type": "Feature"}
{"geometry": {"coordinates": [-79.291242031, 42.097387485], "type": "Point"}, "id": "YP65ghaExibf96AkhAyLMwv2yas=", "properties": {"@spider": "usps_collection_boxes", "addr:city": "JAMESTOWN", "addr:country": "US", "addr:full": "945 FAIRMOUNT AVE", "addr:postcode": "14701", "addr:state": "NY", "brand": "USPS", "collection_times": "Mo-Sa 09:00", "name": "USPS COLLECTION BOX - BLUE BOX", "ref": "1470100065"}, "type": "Feature"}
{"geometry": {"coordinates": [-79.254285036, 42.094142041], "type": "Point"}, "id": "-00i0vXqnHuUab25QpQYK-CSqBg=", "properties": {"@spider": "usps_collection_boxes", "addr:city": "JAMESTOWN", "addr:country": "US", "addr:full": "607 W 3RD ST", "addr:postcode": "14701", "addr:state": "NY", "brand": "USPS", "collection_times": "Mo-Sa 14:00", "name": "USPS COLLECTION BOX - BLUE BOX", "note": "ON 12/24 AND 12/31, THIS BOX MAY BE COLLECTED AS EARLY AS 12 NOON.", "ref": "1470100069"}, "type": "Feature"}
{"geometry": {"coordinates": [-79.245426547, 42.109674611], "type": "Point"}, "id": "UWILrcMlev0aHFL1qxuNCCtLkmY=", "properties": {"@spider": "usps_collection_boxes", "addr:city": "JAMESTOWN", "addr:country": "US", "addr:full": "2000 WASHINGTON ST", "addr:postcode": "14701", "addr:state": "NY", "brand": "USPS", "collection_times": "Mo-Sa 10:00", "name": "USPS COLLECTION BOX - BLUE BOX", "ref": "1470100072"}, "type": "Feature"}
{"geometry": {"coordinates": [-79.240281766, 42.095560993], "type": "Point"}, "id": "HRal_LhYU3XAI6mCPQny0Ph1rkM=", "properties": {"@spider": "usps_collection_boxes", "addr:city": "JAMESTOWN", "addr:country": "US", "addr:full": "26 E 2ND ST", "addr:postcode": "14701", "addr:state": "NY", "brand": "USPS", "collection_times": "Mo-Sa 14:00", "name": "USPS COLLECTION BOX - BLUE BOX", "note": "ON 12/24 AND 12/31, THIS BOX MAY BE COLLECTED AS EARLY AS 12 NOON.", "ref": "1470100075"}, "type": "Feature"}
{"geometry": {"coordinates": [-79.22854746, 42.079981537], "type": "Point"}, "id": "WZEZVRzffn3n6HO9nngHloYXRf8=", "properties": {"@spider": "usps_collection_boxes", "addr:city": "JAMESTOWN", "addr:country": "US", "addr:full": "752 FOOTE AVE", "addr:postcode": "14701", "addr:state": "NY", "brand": "USPS", "collection_times": "Mo-Fr 17:00; Sa 14:00", "name": "USPS COLLECTION BOX - BLUE BOX", "note": "ON 12/24 AND 12/31, THIS BOX MAY BE COLLECTED AS EARLY AS 12 NOON.", "ref": "1470100084"}, "type": "Feature"}
{"geometry": {"coordinates": [-79.239618204, 42.093514914], "type": "Point"}, "id": "0KD_Fo2OZIfn85rjI7bCnWyDzS8=", "properties": {"@spider": "usps_collection_boxes", "addr:city": "JAMESTOWN", "addr:country": "US", "addr:full": "15 S MAIN ST", "addr:postcode": "14701", "addr:state": "NY", "brand": "USPS", "collection_times": "Mo-Sa 14:00", "name": "USPS COLLECTION BOX - BLUE BOX", "note": "ON 12/24 AND 12/31, THIS BOX MAY BE COLLECTED AS EARLY AS 12 NOON.", "ref": "1470100089"}, "type": "Feature"}
{"geometry": {"coordinates": [-79.234400221, 42.090345568], "type": "Point"}, "id": "vZfk3OqTYPy3KEHNGiENy5i7CPg=", "properties": {"@spider": "usps_collection_boxes", "addr:city": "JAMESTOWN", "addr:country": "US", "addr:full": "320 PRATHER AVE", "addr:postcode": "14701", "addr:state": "NY", "brand": "USPS", "collection_times": "Mo-Fr 14:00", "name": "USPS COLLECTION BOX - BLUE BOX", "note": "ON 12/24 AND 12/31, THIS BOX MAY BE COLLECTED AS EARLY AS 12 NOON.", "ref": "1470100090"}, "type": "Feature"}
{"geometry": {"coordinates": [-79.237644386, 42.096844189], "type": "Point"}, "id": "JR7iIB_xPYzhT_-5PUWefxTSAg0=", "properties": {"@spider": "usps_collection_boxes", "addr:city": "JAMESTOWN", "addr:country": "US", "addr:full": "300 E 3RD ST", "addr:postcode": "14701", "addr:state": "NY", "brand": "USPS", "collection_times": "Mo-Fr 17:00; Sa 12:00", "name": "USPS COLLECTION BOX - PO LOBBY", "note": "ON 12/24 AND 12/31, THIS BOX MAY BE COLLECTED AS EARLY AS 12 NOON.", "ref": "1470100095"}, "type": "Feature"}
{"geometry": {"coordinates": [-79.22854746, 42.079981537], "type": "Point"}, "id": "t4_LZbHW8mHkDtqQgUyTQNeLOIg=", "properties": {"@spider": "usps_collection_boxes", "addr:city": "JAMESTOWN", "addr:country": "US", "addr:full": "752 FOOTE AVE", "addr:postcode": "14701", "addr:state": "NY", "brand": "USPS", "collection_times": "Mo-Fr 17:00; Sa 12:00", "name": "USPS COLLECTION BOX - PO LOBBY", "note": "ON 12/24 AND 12/31, THIS BOX MAY BE COLLECTED AS EARLY AS 12 NOON.", "ref": "1470100096"}, "type": "Feature"}
{"geometry": {"coordinates": [-78.493879921, 42.090578433], "type": "Point"}, "id": "QA26pHDazig0WpoC-QfDJeDW4dI=", "properties": {"@spider": "usps_collection_boxes", "addr:city": "ALLEGANY", "addr:country": "US", "addr:full": "21 N 5TH ST", "addr:postcode": "14706", "addr:state": "NY", "brand": "USPS", "collection_times": "Mo-Fr 16:45; Sa 12:00", "name": "USPS COLLECTION BOX - BLUE BOX", "note": "ON 12/24 AND 12/31, THIS BOX MAY BE COLLECTED AS EARLY AS 12 NOON.", "ref": "1470600004"}, "type": "Feature"}
{"geometry": {"coordinates": [-78.493879921, 42.090578433], "type": "Point"}, "id": "0qAs3Wmjx9MiqN1VUHmNbVV6oso=", "properties": {"@spider": "usps_collection_boxes", "addr:city": "ALLEGANY", "addr:country": "US", "addr:full": "21 N 5TH ST", "addr:postcode": "14706", "addr:state": "NY", "brand": "USPS", "collection_times": "Mo-Fr 16:45; Sa 12:00", "name": "USPS COLLECTION BOX - PO LOBBY", "note": "ON 12/24 AND 12/31, THIS BOX MAY BE COLLECTED AS EARLY AS 12 NOON.", "ref": "1470600006"}, "type": "Feature"}
{"geometry": {"coordinates": [-78.0624049, 42.0835518], "type": "Point"}, "id": "mYx5Prl7hH-8nUhw7O8Zzev2NsY=", "properties": {"@spider": "usps_collection_boxes", "addr:city": "ALLENTOWN", "addr:country": "US", "addr:full": "5840 MAIN ST", "addr:postcode": "14707", "addr:state": "NY", "brand": "USPS", "collection_times": "Mo-Fr 16:30; Sa 11:45", "name": "USPS COLLECTION BOX - BLUE BOX", "note": "ON 12/24 AND 12/31, THIS BOX MAY BE COLLECTED AS EARLY AS 12 NOON.", "ref": "1470700001"}, "type": "Feature"}
{"geometry": {"coordinates": [-78.0624049, 42.0835518], "type": "Point"}, "id": "gkV_oWv-bciv3Klo9UIwn51ZCio=", "properties": {"@spider": "usps_collection_boxes", "addr:city": "ALLENTOWN", "addr:country": "US", "addr:full": "5840 MAIN ST", "addr:postcode": "14707", "addr:state": "NY", "brand": "USPS", "collection_times": "Mo-Fr 16:45; Sa 12:00", "name": "USPS COLLECTION BOX - PO LOBBY", "note": "ON 12/24 AND 12/31, THIS BOX MAY BE COLLECTED AS EARLY AS 12 NOON.", "ref": "1470700004"}, "type": "Feature"}
{"geometry": {"coordinates": [-78.016763766, 42.306203653], "type": "Point"}, "id": "SlXArlb_4EpkbDy1VTl4txE5YYY=", "properties": {"@spider": "usps_collection_boxes", "addr:city": "ANGELICA", "addr:country": "US", "addr:full": "1 W MAIN ST", "addr:postcode": "14709", "addr:state": "NY", "brand": "USPS", "collection_times": "Mo-Fr 15:30; Sa 12:00", "name": "USPS COLLECTION BOX - BLUE BOX", "note": "ON 12/24 AND 12/31, THIS BOX MAY BE COLLECTED AS EARLY AS 12 NOON.", "ref": "1470900001"}, "type": "Feature"}
{"geometry": {"coordinates": [-78.016763766, 42.306203653], "type": "Point"}, "id": "Pdherh0jU21TBwYegcytskVNoGw=", "properties": {"@spider": "usps_collection_boxes", "addr:city": "ANGELICA", "addr:country": "US", "addr:full": "1 W MAIN ST", "addr:postcode": "14709", "addr:state": "NY", "brand": "USPS", "collection_times": "Mo-Fr 15:30; Sa 12:00", "name": "USPS COLLECTION BOX - PO LOBBY", "note": "ON 12/24 AND 12/31, THIS BOX MAY BE COLLECTED AS EARLY AS 12 NOON.", "ref": "1470900005"}, "type": "Feature"}
{"geometry": {"coordinates": [-79.375174615, 42.094859124], "type": "Point"}, "id": "Ed7MUy3Xdi8jk1R5fjaC2yL2Uw4=", "properties": {"@spider": "usps_collection_boxes", "addr:city": "ASHVILLE", "addr:country": "US", "addr:full": "2181 N MAPLE AVE", "addr:postcode": "14710", "addr:state": "NY", "brand": "USPS", "collection_times": "Mo-Fr 16:45; Sa 11:45", "name": "USPS COLLECTION BOX - BLUE BOX", "note": "ON 12/24 AND 12/31, THIS BOX MAY BE COLLECTED AS EARLY AS 12 NOON.", "ref": "1471000001"}, "type": "Feature"}
{"geometry": {"coordinates": [-79.375174615, 42.094859124], "type": "Point"}, "id": "ueQzW6Xymxq__1kyD4NeJJEkz9A=", "properties": {"@spider": "usps_collection_boxes", "addr:city": "ASHVILLE", "addr:country": "US", "addr:full": "2181 N MAPLE AVE", "addr:postcode": "14710", "addr:state": "NY", "brand": "USPS", "collection_times": "Mo-Fr 17:00; Sa 12:00", "name": "USPS COLLECTION BOX - PO LOBBY", "note": "ON 12/24 AND 12/31, THIS BOX MAY BE COLLECTED AS EARLY AS 12 NOON.", "ref": "1471000003"}, "type": "Feature"}
{"geometry": {"coordinates": [-78.111968651, 42.342219335], "type": "Point"}, "id": "FwFSFu__XAUyMLBzS_CKEv4iktg=", "properties": {"@spider": "usps_collection_boxes", "addr:city": "BELFAST", "addr:country": "US", "addr:full": "53 S MAIN ST", "addr:postcode": "14711", "addr:state": "NY", "brand": "USPS", "collection_times": "Mo-Fr 16:45; Sa 12:00", "name": "USPS COLLECTION BOX - BLUE BOX", "note": "ON 12/24 AND 12/31, THIS BOX MAY BE COLLECTED AS EARLY AS 12 NOON.", "ref": "1471100001"}, "type": "Feature"}
{"geometry": {"coordinates": [-78.111968651, 42.342219335], "type": "Point"}, "id": "gEAPwMHD46s3Vdu-cFQACXkox0s=", "properties": {"@spider": "usps_collection_boxes", "addr:city": "BELFAST", "addr:country": "US", "addr:full": "53 S MAIN ST", "addr:postcode": "14711", "addr:state": "NY", "brand": "USPS", "collection_times": "Mo-Fr 17:00; Sa 12:00", "name": "USPS COLLECTION BOX - PO LOBBY", "note": "ON 12/24 AND 12/31, THIS BOX MAY BE COLLECTED AS EARLY AS 12 NOON.", "ref": "1471100004"}, "type": "Feature"}
{"geometry": {"coordinates": [-79.391346665, 42.158684957], "type": "Point"}, "id": "aV0vtmAau-oyL1LcgiblTtqJVug=", "properties": {"@spider": "usps_collection_boxes", "addr:city": "BEMUS POINT", "addr:country": "US", "addr:full": "29 MAIN ST", "addr:postcode": "14712", "addr:state": "NY", "brand": "USPS", "collection_times": "Mo-Fr 16:00; Sa 12:00", "name": "USPS COLLECTION BOX - BLUE BOX", "note": "ON 12/24 AND 12/31, THIS BOX MAY BE COLLECTED AS EARLY AS 12 NOON.", "ref": "1471200001"}, "type": "Feature"}
{"geometry": {"coordinates": [-79.391346665, 42.158684957], "type": "Point"}, "id": "C1f5Z8JtTZ0tAeIKgvABr2ZowdM=", "properties": {"@spider": "usps_collection_boxes", "addr:city": "BEMUS POINT", "addr:country": "US", "addr:full": "29 MAIN ST", "addr:postcode": "14712", "addr:state": "NY", "brand": "USPS", "collection_times": "Mo-Fr 16:00; Sa 12:00", "name": "USPS COLLECTION BOX - PO LOBBY", "note": "ON 12/24 AND 12/31, THIS BOX MAY BE COLLECTED AS EARLY AS 12 NOON.", "ref": "1471200005"}, "type": "Feature"}
{"geometry": {"coordinates": [-78.226687208, 42.27529592], "type": "Point"}, "id": "c3Piakb2Qg6j_rNpXgbn8IYA-5I=", "properties": {"@spider": "usps_collection_boxes", "addr:city": "BLACK CREEK", "addr:country": "US", "addr:full": "6391 ROUTE 305", "addr:postcode": "14714", "addr:state": "NY", "brand": "USPS", "collection_times": "Mo-Fr 12:00; Sa 11:55", "name": "USPS COLLECTION BOX - BLUE BOX", "ref": "1471400001"}, "type": "Feature"}
{"geometry": {"coordinates": [-78.226687208, 42.27529592], "type": "Point"}, "id": "amZ1XSwrpDwqUT0JwZcvfFCxqPQ=", "properties": {"@spider": "usps_collection_boxes", "addr:city": "BLACK CREEK", "addr:country": "US", "addr:full": "6391 ROUTE 305", "addr:postcode": "14714", "addr:state": "NY", "brand": "USPS", "collection_times": "Mo-Fr 12:00; Sa 12:15", "name": "USPS COLLECTION BOX - PO LOBBY", "note": "ON 12/24 AND 12/31, THIS BOX MAY BE COLLECTED AS EARLY AS 12 NOON.", "ref": "1471400004"}, "type": "Feature"}
{"geometry": {"coordinates": [-78.167547098, 42.06739962], "type": "Point"}, "id": "myQOomQhiUXRJojYiOsjEThsoHw=", "properties": {"@spider": "usps_collection_boxes", "addr:city": "BOLIVAR", "addr:country": "US", "addr:full": "273 MAIN ST", "addr:postcode": "14715", "addr:state": "NY", "brand": "USPS", "collection_times": "Mo-Fr 16:30; Sa 12:00", "name": "USPS COLLECTION BOX - BLUE BOX", "note": "ON 12/24 AND 12/31, THIS BOX MAY BE COLLECTED AS EARLY AS 12 NOON.", "ref": "1471500001"}, "type": "Feature"}
{"geometry": {"coordinates": [-78.168976107, 42.062870528], "type": "Point"}, "id": "fUbpIPgHDBWIO8_u0FbENdWEhsw=", "properties": {"@spider": "usps_collection_boxes", "addr:city": "BOLIVAR", "addr:country": "US", "addr:full": "500 S MAIN ST", "addr:postcode": "14715", "addr:state": "NY", "brand": "USPS", "collection_times": "Mo-Sa 13:00", "name": "USPS COLLECTION BOX - BLUE BOX", "note": "ON 12/24 AND 12/31, THIS BOX MAY BE COLLECTED AS EARLY AS 12 NOON.", "ref": "1471500005"}, "type": "Feature"}
{"geometry": {"coordinates": [-78.167567565, 42.06730062], "type": "Point"}, "id": "duOCweWZ2M3oyiSTlH734UVs6eA=", "properties": {"@spider": "usps_collection_boxes", "addr:city": "BOLIVAR", "addr:country": "US", "addr:full": "279 MAIN ST", "addr:postcode": "14715", "addr:state": "NY", "brand": "USPS", "collection_times": "Mo-Fr 17:00; Sa 12:00", "name": "USPS COLLECTION BOX - PO LOBBY", "note": "ON 12/24 AND 12/31, THIS BOX MAY BE COLLECTED AS EARLY AS 12 NOON.", "ref": "1471500009"}, "type": "Feature"}
{"geometry": {"coordinates": [-79.439521121, 42.389238925], "type": "Point"}, "id": "9swDx64AIUbymCx729KiW3VBVIo=", "properties": {"@spider": "usps_collection_boxes", "addr:city": "BROCTON", "addr:country": "US", "addr:full": "42 E MAIN ST", "addr:postcode": "14716", "addr:state": "NY", "brand": "USPS", "collection_times": "Mo-Fr 16:30; Sa 11:30", "name": "USPS COLLECTION BOX - BLUE BOX", "note": "ON 12/24 AND 12/31, THIS BOX MAY BE COLLECTED AS EARLY AS 12 NOON.", "ref": "1471600001"}, "type": "Feature"}
{"geometry": {"coordinates": [-79.439521121, 42.389238925], "type": "Point"}, "id": "QlrTu77K_hCFwng3WOFrtlZ7Hl4=", "properties": {"@spider": "usps_collection_boxes", "addr:city": "BROCTON", "addr:country": "US", "addr:full": "42 E MAIN ST", "addr:postcode": "14716", "addr:state": "NY", "brand": "USPS", "collection_times": "Mo-Fr 17:00; Sa 12:00", "name": "USPS COLLECTION BOX - PO LOBBY", "note": "ON 12/24 AND 12/31, THIS BOX MAY BE COLLECTED AS EARLY AS 12 NOON.", "ref": "1471600004"}, "type": "Feature"}
{"geometry": {"coordinates": [-78.153158092, 42.388107092], "type": "Point"}, "id": "uNIMPULp7g0igsvRpEMQsw3EtnU=", "properties": {"@spider": "usps_collection_boxes", "addr:city": "CANEADEA", "addr:country": "US", "addr:full": "8915 ROUTE 19", "addr:postcode": "14717", "addr:state": "NY", "brand": "USPS", "collection_times": "Mo-Fr 14:00; Sa 12:00", "name": "USPS COLLECTION BOX - BLUE BOX", "note": "ON 12/24 AND 12/31, THIS BOX MAY BE COLLECTED AS EARLY AS 12 NOON.", "ref": "1471700001"}, "type": "Feature"}
{"geometry": {"coordinates": [-78.1531580917, 42.3881070921], "type": "Point"}, "id": "FWhinkGG74kJu4FGinMsPdj6AC8=", "properties": {"@spider": "usps_collection_boxes", "addr:city": "CANEADEA", "addr:country": "US", "addr:full": "8915 STATE ROUTE 19", "addr:postcode": "14717", "addr:state": "NY", "brand": "USPS", "collection_times": "Mo-Fr 14:00; Sa 12:00", "name": "USPS COLLECTION BOX - PO LOBBY", "note": "ON 12/24 AND 12/31, THIS BOX MAY BE COLLECTED AS EARLY AS 12 NOON.", "ref": "1471700005"}, "type": "Feature"}
{"geometry": {"coordinates": [-79.310240273, 42.344183034], "type": "Point"}, "id": "sKaEbt0k37iLFZHT9kamk44Lp6k=", "properties": {"@spider": "usps_collection_boxes", "addr:city": "CASSADAGA", "addr:country": "US", "addr:full": "15 MAPLE AVE", "addr:postcode": "14718", "addr:state": "NY", "brand": "USPS", "collection_times": "Mo-Fr 16:45; Sa 12:00", "name": "USPS COLLECTION BOX - BLUE BOX", "note": "ON 12/24 AND 12/31, THIS BOX MAY BE COLLECTED AS EARLY AS 12 NOON.", "ref": "1471800001"}, "type": "Feature"}
{"geometry": {"coordinates": [-79.310240273, 42.344183034], "type": "Point"}, "id": "Y2TksPniz3xNMYCDZW86DvRAJpQ=", "properties": {"@spider": "usps_collection_boxes", "addr:city": "CASSADAGA", "addr:country": "US", "addr:full": "15 MAPLE AVE", "addr:postcode": "14718", "addr:state": "NY", "brand": "USPS", "collection_times": "Mo-Fr 16:45; Sa 12:00", "name": "USPS COLLECTION BOX - PO LOBBY", "note": "ON 12/24 AND 12/31, THIS BOX MAY BE COLLECTED AS EARLY AS 12 NOON.", "ref": "1471800004"}, "type": "Feature"}
{"geometry": {"coordinates": [-78.868707063, 42.329915371], "type": "Point"}, "id": "U-TW_7sUHL88c97aOzRWfEujhOg=", "properties": {"@spider": "usps_collection_boxes", "addr:city": "CATTARAUGUS", "addr:country": "US", "addr:full": "18 MAIN ST", "addr:postcode": "14719", "addr:state": "NY", "brand": "USPS", "collection_times": "Mo-Sa 14:45", "name": "USPS COLLECTION BOX - BLUE BOX", "note": "ON 12/24 AND 12/31, THIS BOX MAY BE COLLECTED AS EARLY AS 12 NOON.", "ref": "1471900001"}, "type": "Feature"}
{"geometry": {"coordinates": [-78.868052916, 42.319705534], "type": "Point"}, "id": "dflv7VqM0FiJ9vcPTX-RtReXrzM=", "properties": {"@spider": "usps_collection_boxes", "addr:city": "CATTARAUGUS", "addr:country": "US", "addr:full": "8 MEMORIAL DR", "addr:postcode": "14719", "addr:state": "NY", "brand": "USPS", "collection_times": "Mo-Fr 17:00; Sa 15:00", "name": "USPS COLLECTION BOX - BLUE BOX", "note": "ON 12/24 AND 12/31, THIS BOX MAY BE COLLECTED AS EARLY AS 12 NOON.", "ref": "1471900004"}, "type": "Feature"}
{"geometry": {"coordinates": [-78.868052916, 42.319705534], "type": "Point"}, "id": "kQJU9rXNPdGpwUHpiK1KeKguUUk=", "properties": {"@spider": "usps_collection_boxes", "addr:city": "CATTARAUGUS", "addr:country": "US", "addr:full": "8 MEMORIAL DR", "addr:postcode": "14719", "addr:state": "NY", "brand": "USPS", "collection_times": "Mo-Fr 17:00; Sa 12:00", "name": "USPS COLLECTION BOX - PO LOBBY", "note": "ON 12/24 AND 12/31, THIS BOX MAY BE COLLECTED AS EARLY AS 12 NOON.", "ref": "1471900007"}, "type": "Feature"}
{"geometry": {"coordinates": [-79.281993945, 42.109946488], "type": "Point"}, "id": "2IO-gSXgeDH3G-iF7vT5Ycwl_OM=", "properties": {"@spider": "usps_collection_boxes", "addr:city": "CELORON", "addr:country": "US", "addr:full": "17 BOULEVARD", "addr:postcode": "14720", "addr:state": "NY", "brand": "USPS", "collection_times": "Mo-Fr 17:00; Sa 12:00", "name": "USPS COLLECTION BOX - BLUE BOX", "note": "ON 12/24 AND 12/31, THIS BOX MAY BE COLLECTED AS EARLY AS 12 NOON.", "ref": "1472000001"}, "type": "Feature"}
{"geometry": {"coordinates": [-79.281993945, 42.109946488], "type": "Point"}, "id": "64soElpvGKn4U7kYalk_95KpP4s=", "properties": {"@spider": "usps_collection_boxes", "addr:city": "CELORON", "addr:country": "US", "addr:full": "17 BOULEVARD AVE", "addr:postcode": "14720", "addr:state": "NY", "brand": "USPS", "collection_times": "Mo-Fr 17:00; Sa 12:00", "name": "USPS COLLECTION BOX - PO LOBBY", "note": "ON 12/24 AND 12/31, THIS BOX MAY BE COLLECTED AS EARLY AS 12 NOON.", "ref": "1472000005"}, "type": "Feature"}
{"geometry": {"coordinates": [-78.26814867, 41.999686617], "type": "Point"}, "id": "vkNJiF_-iX3RserdQ7qleeLv68E=", "properties": {"@spider": "usps_collection_boxes", "addr:city": "CERES", "addr:country": "US", "addr:full": "227 MAIN ST", "addr:postcode": "14721", "addr:state": "NY", "brand": "USPS", "collection_times": "Mo-Fr 16:45; Sa 11:45", "name": "USPS COLLECTION BOX - BLUE BOX", "note": "ON 12/24 AND 12/31, THIS BOX MAY BE COLLECTED AS EARLY AS 12 NOON.", "ref": "1472100001"}, "type": "Feature"}
{"geometry": {"coordinates": [-78.26814867, 41.999686617], "type": "Point"}, "id": "LMjpLtFkhfWJH3MzP2mTZKhkSWs=", "properties": {"@spider": "usps_collection_boxes", "addr:city": "CERES", "addr:country": "US", "addr:full": "227 MAIN ST", "addr:postcode": "14721", "addr:state": "NY", "brand": "USPS", "collection_times": "Mo-Fr 17:00; Sa 12:00", "name": "USPS COLLECTION BOX - PO LOBBY", "note": "ON 12/24 AND 12/31, THIS BOX MAY BE COLLECTED AS EARLY AS 12 NOON.", "ref": "1472100004"}, "type": "Feature"}
{"geometry": {"coordinates": [-79.46516802, 42.209278743], "type": "Point"}, "id": "rr4na4NSkDnF1gDt9_huVSeLF_Q=", "properties": {"@spider": "usps_collection_boxes", "addr:city": "CHAUTAUQUA", "addr:country": "US", "addr:full": "10-12 ROBERTS ST", "addr:postcode": "14722", "addr:state": "NY", "brand": "USPS", "collection_times": "Mo-Fr 16:45; Sa 12:00", "name": "USPS COLLECTION BOX - BLUE BOX", "note": "ON 12/24 AND 12/31, THIS BOX MAY BE COLLECTED AS EARLY AS 12 NOON.", "ref": "1472200003"}, "type": "Feature"}
{"geometry": {"coordinates": [-79.46516802, 42.209278743], "type": "Point"}, "id": "YU30YYjX_UKH04XjvgBewsb5Hic=", "properties": {"@spider": "usps_collection_boxes", "addr:city": "CHAUTAUQUA", "addr:country": "US", "addr:full": "10-12 ROBERTS ST", "addr:postcode": "14722", "addr:state": "NY", "brand": "USPS", "collection_times": "Mo-Fr 17:00; Sa 12:15", "name": "USPS COLLECTION BOX - PO LOBBY", "note": "ON 12/24 AND 12/31, THIS BOX MAY BE COLLECTED AS EARLY AS 12 NOON.", "ref": "1472200007"}, "type": "Feature"}
{"geometry": {"coordinates": [-79.099737639, 42.293209883], "type": "Point"}, "id": "Cr_G28Qp_9661SHZJLb69-NEYPc=", "properties": {"@spider": "usps_collection_boxes", "addr:city": "CHERRY CREEK", "addr:country": "US", "addr:full": "6746 MAIN ST", "addr:postcode": "14723", "addr:state": "NY", "brand": "USPS", "collection_times": "Mo-Fr 15:15; Sa 11:45", "name": "USPS COLLECTION BOX - BLUE BOX", "note": "ON 12/24 AND 12/31, THIS BOX MAY BE COLLECTED AS EARLY AS 12 NOON.", "ref": "1472300003"}, "type": "Feature"}
{"geometry": {"coordinates": [-79.099737639, 42.293209883], "type": "Point"}, "id": "mP6M_Q1DqUqMzyig1BOq9DNDz1k=", "properties": {"@spider": "usps_collection_boxes", "addr:city": "CHERRY CREEK", "addr:country": "US", "addr:full": "6746 MAIN ST", "addr:postcode": "14723", "addr:state": "NY", "brand": "USPS", "collection_times": "Mo-Fr 15:15; Sa 12:00", "name": "USPS COLLECTION BOX - PO LOBBY", "note": "ON 12/24 AND 12/31, THIS BOX MAY BE COLLECTED AS EARLY AS 12 NOON.", "ref": "1472300005"}, "type": "Feature"}
{"geometry": {"coordinates": [-79.62921, 42.020800492], "type": "Point"}, "id": "DC7WegqamQ8L_9nQdXx2N9s2hAw=", "properties": {"@spider": "usps_collection_boxes", "addr:city": "CLYMER", "addr:country": "US", "addr:full": "8727 E MAIN ST", "addr:postcode": "14724", "addr:state": "NY", "brand": "USPS", "collection_times": "Mo-Fr 16:30; Sa 12:00", "name": "USPS COLLECTION BOX - BLUE BOX", "note": "ON 12/24 AND 12/31, THIS BOX MAY BE COLLECTED AS EARLY AS 12 NOON.", "ref": "1472400001"}, "type": "Feature"}
{"geometry": {"coordinates": [-79.62921, 42.020800492], "type": "Point"}, "id": "mr4aiVuhh0FvpjbweG9i6b0nMCE=", "properties": {"@spider": "usps_collection_boxes", "addr:city": "CLYMER", "addr:country": "US", "addr:full": "8727 E MAIN ST", "addr:postcode": "14724", "addr:state": "NY", "brand": "USPS", "collection_times": "Mo-Fr 16:30; Sa 12:00", "name": "USPS COLLECTION BOX - PO LOBBY", "note": "ON 12/24 AND 12/31, THIS BOX MAY BE COLLECTED AS EARLY AS 12 NOON.", "ref": "1472400004"}, "type": "Feature"}
{"geometry": {"coordinates": [-79.05995312, 42.239045738], "type": "Point"}, "id": "CTOlST6-qdbct2GARBcN6aYCGgU=", "properties": {"@spider": "usps_collection_boxes", "addr:city": "CONEWANGO VLY", "addr:country": "US", "addr:full": "5496 ROUTE 62", "addr:postcode": "14726", "addr:state": "NY", "brand": "USPS", "collection_times": "Mo-Fr 16:45; Sa 11:00", "name": "USPS COLLECTION BOX - BLUE BOX", "note": "ON 12/24 AND 12/31, THIS BOX MAY BE COLLECTED AS EARLY AS 12 NOON.", "ref": "1472600001"}, "type": "Feature"}
{"geometry": {"coordinates": [-79.05995312, 42.239045738], "type": "Point"}, "id": "GmruE49Hc53AZBG2oK-ZIckGiPk=", "properties": {"@spider": "usps_collection_boxes", "addr:city": "CONEWANGO VLY", "addr:country": "US", "addr:full": "5496 ROUTE 62", "addr:postcode": "14726", "addr:state": "NY", "brand": "USPS", "collection_times": "Mo-Fr 16:45; Sa 11:00", "name": "USPS COLLECTION BOX - PO LOBBY", "note": "ON 12/24 AND 12/31, THIS BOX MAY BE COLLECTED AS EARLY AS 12 NOON.", "ref": "1472600005"}, "type": "Feature"}
{"geometry": {"coordinates": [-78.276432469, 42.217066046], "type": "Point"}, "id": "Wu45Nta9KD_FlPpGdfYMUSYhoZQ=", "properties": {"@spider": "usps_collection_boxes", "addr:city": "CUBA", "addr:country": "US", "addr:full": "27 W MAIN ST", "addr:postcode": "14727", "addr:state": "NY", "brand": "USPS", "collection_times": "Mo-Sa 12:00", "name": "USPS COLLECTION BOX - BLUE BOX", "ref": "1472700003"}, "type": "Feature"}
{"geometry": {"coordinates": [-78.286555804, 42.218098649], "type": "Point"}, "id": "LOGbdE1YYVcx2NS9zyehxXk4Tt0=", "properties": {"@spider": "usps_collection_boxes", "addr:city": "CUBA", "addr:country": "US", "addr:full": "40 WATER ST", "addr:postcode": "14727", "addr:state": "NY", "brand": "USPS", "collection_times": "Mo-Fr 17:00; Sa 15:30", "name": "USPS COLLECTION BOX - BLUE BOX", "note": "ON 12/24 AND 12/31, THIS BOX MAY BE COLLECTED AS EARLY AS 12 NOON.", "ref": "1472700005"}, "type": "Feature"}
{"geometry": {"coordinates": [-78.277790863, 42.22123575], "type": "Point"}, "id": "zZrKZEyw87myFE8ePhMxR_y4Ud8=", "properties": {"@spider": "usps_collection_boxes", "addr:city": "CUBA", "addr:country": "US", "addr:full": "72 GENESEE ST", "addr:postcode": "14727", "addr:state": "NY", "brand": "USPS", "collection_times": "Mo-Sa 12:00", "name": "USPS COLLECTION BOX - BLUE BOX", "ref": "1472700007"}, "type": "Feature"}
{"geometry": {"coordinates": [-78.286555804, 42.218098649], "type": "Point"}, "id": "sf9u7cHjezk4B38V1KAwKYx6f3g=", "properties": {"@spider": "usps_collection_boxes", "addr:city": "CUBA", "addr:country": "US", "addr:full": "40 WATER ST", "addr:postcode": "14727", "addr:state": "NY", "brand": "USPS", "collection_times": "Mo-Fr 17:00; Sa 12:00", "name": "USPS COLLECTION BOX - PO LOBBY", "note": "ON 12/24 AND 12/31, THIS BOX MAY BE COLLECTED AS EARLY AS 12 NOON.", "ref": "1472700010"}, "type": "Feature"}
{"geometry": {"coordinates": [-79.44503335, 42.237625779], "type": "Point"}, "id": "gfnnM_LjzHXY98vykEU601q4iY8=", "properties": {"@spider": "usps_collection_boxes", "addr:city": "DEWITTVILLE", "addr:country": "US", "addr:full": "5452 E LAKE RD", "addr:postcode": "14728", "addr:state": "NY", "brand": "USPS", "collection_times": "Mo-Fr 16:30; Sa 12:00", "name": "USPS COLLECTION BOX - BLUE BOX", "note": "ON 12/24 AND 12/31, THIS BOX MAY BE COLLECTED AS EARLY AS 12 NOON.", "ref": "1472800001"}, "type": "Feature"}
{"geometry": {"coordinates": [-79.44503335, 42.237625779], "type": "Point"}, "id": "6Yp8uGG7I1sB4x_6zmcb0w3U1ag=", "properties": {"@spider": "usps_collection_boxes", "addr:city": "DEWITTVILLE", "addr:country": "US", "addr:full": "5452 E LAKE RD", "addr:postcode": "14728", "addr:state": "NY", "brand": "USPS", "collection_times": "Mo-Fr 16:30; Sa 12:00", "name": "USPS COLLECTION BOX - PO LOBBY", "note": "ON 12/24 AND 12/31, THIS BOX MAY BE COLLECTED AS EARLY AS 12 NOON.", "ref": "1472800004"}, "type": "Feature"}
{"geometry": {"coordinates": [-78.755070702, 42.389694419], "type": "Point"}, "id": "gc_Vg5hsxQppUaa_HccisCtNG64=", "properties": {"@spider": "usps_collection_boxes", "addr:city": "EAST OTTO", "addr:country": "US", "addr:full": "8991 REED HILL RD", "addr:postcode": "14729", "addr:state": "NY", "brand": "USPS", "collection_times": "Mo-Fr 12:30; Sa 11:45", "name": "USPS COLLECTION BOX - BLUE BOX", "note": "ON 12/24 AND 12/31, THIS BOX MAY BE COLLECTED AS EARLY AS 12 NOON.", "ref": "1472900001"}, "type": "Feature"}
{"geometry": {"coordinates": [-78.755070702, 42.389694419], "type": "Point"}, "id": "FsrmjNwhZ4izhT580OH53oyjPKk=", "properties": {"@spider": "usps_collection_boxes", "addr:city": "EAST OTTO", "addr:country": "US", "addr:full": "8991 REED HILL RD", "addr:postcode": "14729", "addr:state": "NY", "brand": "USPS", "collection_times": "Mo-Fr 12:30; Sa 11:45", "name": "USPS COLLECTION BOX - PO LOBBY", "note": "ON 12/24 AND 12/31, THIS BOX MAY BE COLLECTED AS EARLY AS 12 NOON.", "ref": "1472900004"}, "type": "Feature"}
{"geometry": {"coordinates": [-78.672544265, 42.27521929], "type": "Point"}, "id": "4fgAUnbtsSlHRoOUXxp_mZYlPg0=", "properties": {"@spider": "usps_collection_boxes", "addr:city": "ELLICOTTVILLE", "addr:country": "US", "addr:full": "4 WASHINGTON ST", "addr:postcode": "14731", "addr:state": "NY", "brand": "USPS", "collection_times": "Mo-Fr 17:00; Sa 12:00", "name": "USPS COLLECTION BOX - BLUE BOX", "note": "ON 12/24 AND 12/31, THIS BOX MAY BE COLLECTED AS EARLY AS 12 NOON.", "ref": "1473100005"}, "type": "Feature"}
{"geometry": {"coordinates": [-78.672544265, 42.27521929], "type": "Point"}, "id": "-GqPhh4FBClgFLprnG-VzEOWWR4=", "properties": {"@spider": "usps_collection_boxes", "addr:city": "ELLICOTTVILLE", "addr:country": "US", "addr:full": "4 WASHINGTON ST", "addr:postcode": "14731", "addr:state": "NY", "brand": "USPS", "collection_times": "Mo-Fr 17:00; Sa 12:00", "name": "USPS COLLECTION BOX - PO LOBBY", "note": "ON 12/24 AND 12/31, THIS BOX MAY BE COLLECTED AS EARLY AS 12 NOON.", "ref": "1473100007"}, "type": "Feature"}
{"geometry": {"coordinates": [-79.108015122, 42.217061181], "type": "Point"}, "id": "6YUVHo_IxVLhoyn6BdEthW94qBs=", "properties": {"@spider": "usps_collection_boxes", "addr:city": "ELLINGTON", "addr:country": "US", "addr:full": "5006 MILL ST", "addr:postcode": "14732", "addr:state": "NY", "brand": "USPS", "collection_times": "Mo-Fr 16:45; Sa 11:45", "name": "USPS COLLECTION BOX - BLUE BOX", "note": "ON 12/24 AND 12/31, THIS BOX MAY BE COLLECTED AS EARLY AS 12 NOON.", "ref": "1473200000"}, "type": "Feature"}
{"geometry": {"coordinates": [-79.108015122, 42.217061181], "type": "Point"}, "id": "EustAILl1PXGoqw57nFD6-mMADs=", "properties": {"@spider": "usps_collection_boxes", "addr:city": "ELLINGTON", "addr:country": "US", "addr:full": "5006 MILL ST", "addr:postcode": "14732", "addr:state": "NY", "brand": "USPS", "collection_times": "Mo-Fr 17:00; Sa 12:00", "name": "USPS COLLECTION BOX - PO LOBBY", "note": "ON 12/24 AND 12/31, THIS BOX MAY BE COLLECTED AS EARLY AS 12 NOON.", "ref": "1473200003"}, "type": "Feature"}
{"geometry": {"coordinates": [-79.197440533, 42.118115114], "type": "Point"}, "id": "5rcTHsvHfdbbiC5IP-nT1I5YDvg=", "properties": {"@spider": "usps_collection_boxes", "addr:city": "FALCONER", "addr:country": "US", "addr:full": "5 W EVERETT ST", "addr:postcode": "14733", "addr:state": "NY", "brand": "USPS", "collection_times": "Mo-Fr 17:00; Sa 13:00", "name": "USPS COLLECTION BOX - BLUE BOX", "note": "ON 12/24 AND 12/31, THIS BOX MAY BE COLLECTED AS EARLY AS 12 NOON.", "ref": "1473300006"}, "type": "Feature"}
{"geometry": {"coordinates": [-79.197440533, 42.118115114], "type": "Point"}, "id": "ytaZzYxySSWRFiuYImEaRBO1HGM=", "properties": {"@spider": "usps_collection_boxes", "addr:city": "FALCONER", "addr:country": "US", "addr:full": "5 W EVERETT ST", "addr:postcode": "14733", "addr:state": "NY", "brand": "USPS", "collection_times": "Mo-Fr 17:00; Sa 12:00", "name": "USPS COLLECTION BOX - PO LOBBY", "note": "ON 12/24 AND 12/31, THIS BOX MAY BE COLLECTED AS EARLY AS 12 NOON.", "ref": "1473300009"}, "type": "Feature"}
{"geometry": {"coordinates": [-78.114285119, 42.4660289], "type": "Point"}, "id": "aG43y_Kkin7t8_hkG0boz0Qvtqw=", "properties": {"@spider": "usps_collection_boxes", "addr:city": "FILLMORE", "addr:country": "US", "addr:full": "54 W MAIN ST", "addr:postcode": "14735", "addr:state": "NY", "brand": "USPS", "collection_times": "Mo-Fr 16:45; Sa 12:00", "name": "USPS COLLECTION BOX - BLUE BOX", "note": "ON 12/24 AND 12/31, THIS BOX MAY BE COLLECTED AS EARLY AS 12 NOON.", "ref": "1473500003"}, "type": "Feature"}
{"geometry": {"coordinates": [-78.114285119, 42.4660289], "type": "Point"}, "id": "ktiv3NJykiT1MZQrDhGXdbqwcQQ=", "properties": {"@spider": "usps_collection_boxes", "addr:city": "FILLMORE", "addr:country": "US", "addr:full": "54 W MAIN ST", "addr:postcode": "14735", "addr:state": "NY", "brand": "USPS", "collection_times": "Mo-Fr 17:00; Sa 12:00", "name": "USPS COLLECTION BOX - PO LOBBY", "note": "ON 12/24 AND 12/31, THIS BOX MAY BE COLLECTED AS EARLY AS 12 NOON.", "ref": "1473500005"}, "type": "Feature"}
{"geometry": {"coordinates": [-79.734724051, 42.119550533], "type": "Point"}, "id": "vGbJUO5xrGDq7PPw_obr5xP01sQ=", "properties": {"@spider": "usps_collection_boxes", "addr:city": "FINDLEY LAKE", "addr:country": "US", "addr:full": "10404 MAIN ST", "addr:postcode": "14736", "addr:state": "NY", "brand": "USPS", "collection_times": "Mo-Fr 16:30; Sa 11:45", "name": "USPS COLLECTION BOX - BLUE BOX", "note": "ON 12/24 AND 12/31, THIS BOX MAY BE COLLECTED AS EARLY AS 12 NOON.", "ref": "1473600001"}, "type": "Feature"}
{"geometry": {"coordinates": [-79.734724051, 42.119550533], "type": "Point"}, "id": "66V8S0HTBvIrzHy8Rj7T6-tpNio=", "properties": {"@spider": "usps_collection_boxes", "addr:city": "FINDLEY LAKE", "addr:country": "US", "addr:full": "10404 MAIN ST", "addr:postcode": "14736", "addr:state": "NY", "brand": "USPS", "collection_times": "Mo-Fr 16:30; Sa 11:45", "name": "USPS COLLECTION BOX - PO LOBBY", "note": "ON 12/24 AND 12/31, THIS BOX MAY BE COLLECTED AS EARLY AS 12 NOON.", "ref": "1473600004"}, "type": "Feature"}
{"geometry": {"coordinates": [-78.458208089, 42.336081133], "type": "Point"}, "id": "0dLDpp_c4rWO-qJzCunJpJffTBM=", "properties": {"@spider": "usps_collection_boxes", "addr:city": "FRANKLINVILLE", "addr:country": "US", "addr:full": "14 S MAIN ST", "addr:postcode": "14737", "addr:state": "NY", "brand": "USPS", "collection_times": "Mo-Fr 17:00; Sa 16:00", "name": "USPS COLLECTION BOX - BLUE BOX", "note": "ON 12/24 AND 12/31, THIS BOX MAY BE COLLECTED AS EARLY AS 12 NOON.", "ref": "1473700001"}, "type": "Feature"}
{"geometry": {"coordinates": [-78.460177228, 42.337211835], "type": "Point"}, "id": "TwxTFWcFTu4ay6MnBLyyZDwGnsY=", "properties": {"@spider": "usps_collection_boxes", "addr:city": "FRANKLINVILLE", "addr:country": "US", "addr:full": "17 ELM ST", "addr:postcode": "14737", "addr:state": "NY", "brand": "USPS", "collection_times": "Mo-Sa 09:00", "name": "USPS COLLECTION BOX - BLUE BOX", "ref": "1473700002"}, "type": "Feature"}
{"geometry": {"coordinates": [-78.453117616, 42.340179928], "type": "Point"}, "id": "oObbntJINJ0ZX7i5n5WTSMS3nH0=", "properties": {"@spider": "usps_collection_boxes", "addr:city": "FRANKLINVILLE", "addr:country": "US", "addr:full": "46 PINE ST", "addr:postcode": "14737", "addr:state": "NY", "brand": "USPS", "collection_times": "Mo-Sa 11:00", "name": "USPS COLLECTION BOX - BLUE BOX", "ref": "1473700003"}, "type": "Feature"}
{"geometry": {"coordinates": [-78.451284586, 42.336214598], "type": "Point"}, "id": "5btgRVR53LbfG292vW0Un6SxNVk=", "properties": {"@spider": "usps_collection_boxes", "addr:city": "FRANKLINVILLE", "addr:country": "US", "addr:full": "9 MAPLE AVE", "addr:postcode": "14737", "addr:state": "NY", "brand": "USPS", "collection_times": "Mo-Sa 10:00", "name": "USPS COLLECTION BOX - BLUE BOX", "ref": "1473700004"}, "type": "Feature"}
{"geometry": {"coordinates": [-78.459076134, 42.33390872], "type": "Point"}, "id": "z4NkrP0usDzohCVWQYYLaHT9hzA=", "properties": {"@spider": "usps_collection_boxes", "addr:city": "FRANKLINVILLE", "addr:country": "US", "addr:full": "37 S MAIN ST", "addr:postcode": "14737", "addr:state": "NY", "brand": "USPS", "collection_times": "Mo-Sa 10:00", "name": "USPS COLLECTION BOX - BLUE BOX", "ref": "1473700005"}, "type": "Feature"}
{"geometry": {"coordinates": [-78.457572858, 42.337618678], "type": "Point"}, "id": "rhleGqvSs9TiKSCUw5024yAnItk=", "properties": {"@spider": "usps_collection_boxes", "addr:city": "FRANKLINVILLE", "addr:country": "US", "addr:full": "13 PARK SQ", "addr:postcode": "14737", "addr:state": "NY", "brand": "USPS", "collection_times": "Mo-Sa 13:30", "name": "USPS COLLECTION BOX - BLUE BOX", "note": "ON 12/24 AND 12/31, THIS BOX MAY BE COLLECTED AS EARLY AS 12 NOON.", "ref": "1473700006"}, "type": "Feature"}
{"geometry": {"coordinates": [-78.4582080894, 42.3360811333], "type": "Point"}, "id": "ZcKUTMqh4BEbIrDkFQOTX9atoqw=", "properties": {"@spider": "usps_collection_boxes", "addr:city": "FRANKLINVILLE", "addr:country": "US", "addr:full": "14 S MAIN ST", "addr:postcode": "14737", "addr:state": "NY", "brand": "USPS", "collection_times": "Mo-Fr 17:00; Sa 12:00", "name": "USPS COLLECTION BOX - PO LOBBY", "note": "ON 12/24 AND 12/31, THIS BOX MAY BE COLLECTED AS EARLY AS 12 NOON.", "ref": "1473700009"}, "type": "Feature"}
{"geometry": {"coordinates": [-79.1588864691, 42.0538236067], "type": "Point"}, "id": "qnxXY0pfuVcfhE0dyjLwSI0zIXo=", "properties": {"@spider": "usps_collection_boxes", "addr:city": "FREWSBURG", "addr:country": "US", "addr:full": "21 E MAIN ST", "addr:postcode": "14738", "addr:state": "NY", "brand": "USPS", "collection_times": "Mo-Fr 17:00; Sa 12:00", "name": "USPS COLLECTION BOX - BLUE BOX", "note": "ON 12/24 AND 12/31, THIS BOX MAY BE COLLECTED AS EARLY AS 12 NOON.", "ref": "1473800002"}, "type": "Feature"}
{"geometry": {"coordinates": [-79.158886469, 42.053823607], "type": "Point"}, "id": "j-Oj2KvWMWeKb8CFulGXhKvtAK4=", "properties": {"@spider": "usps_collection_boxes", "addr:city": "FREWSBURG", "addr:country": "US", "addr:full": "21 E MAIN ST", "addr:postcode": "14738", "addr:state": "NY", "brand": "USPS", "collection_times": "Mo-Fr 17:00; Sa 12:00", "name": "USPS COLLECTION BOX - PO LOBBY", "note": "ON 12/24 AND 12/31, THIS BOX MAY BE COLLECTED AS EARLY AS 12 NOON.", "ref": "1473800006"}, "type": "Feature"}
{"geometry": {"coordinates": [-78.133348411, 42.207577092], "type": "Point"}, "id": "ZNpjl5Of6_fc_Rrwlu0lvksTVq4=", "properties": {"@spider": "usps_collection_boxes", "addr:city": "FRIENDSHIP", "addr:country": "US", "addr:full": "4 W WATER ST", "addr:postcode": "14739", "addr:state": "NY", "brand": "USPS", "collection_times": "Mo-Fr 16:45; Sa 12:00", "name": "USPS COLLECTION BOX - BLUE BOX", "note": "ON 12/24 AND 12/31, THIS BOX MAY BE COLLECTED AS EARLY AS 12 NOON.", "ref": "1473900001"}, "type": "Feature"}
{"geometry": {"coordinates": [-78.133348411, 42.207577092], "type": "Point"}, "id": "uNLbN5Ai0qav4bwvVWZM41a4748=", "properties": {"@spider": "usps_collection_boxes", "addr:city": "FRIENDSHIP", "addr:country": "US", "addr:full": "4 W WATER ST", "addr:postcode": "14739", "addr:state": "NY", "brand": "USPS", "collection_times": "Mo-Fr 16:45; Sa 12:00", "name": "USPS COLLECTION BOX - PO LOBBY", "note": "ON 12/24 AND 12/31, THIS BOX MAY BE COLLECTED AS EARLY AS 12 NOON.", "ref": "1473900004"}, "type": "Feature"}
{"geometry": {"coordinates": [-79.248957662, 42.192986583], "type": "Point"}, "id": "yY3SnRutwsBbFScUwHtFsVOpiGY=", "properties": {"@spider": "usps_collection_boxes", "addr:city": "GERRY", "addr:country": "US", "addr:full": "4465 ROUTE 60", "addr:postcode": "14740", "addr:state": "NY", "brand": "USPS", "collection_times": "Mo-Fr 17:00; Sa 12:00", "name": "USPS COLLECTION BOX - BLUE BOX", "note": "ON 12/24 AND 12/31, THIS BOX MAY BE COLLECTED AS EARLY AS 12 NOON.", "ref": "1474000001"}, "type": "Feature"}
{"geometry": {"coordinates": [-79.248957662, 42.192986583], "type": "Point"}, "id": "Q-FqRwArZyD2zdX_hrIoIP9Efb4=", "properties": {"@spider": "usps_collection_boxes", "addr:city": "GERRY", "addr:country": "US", "addr:full": "4465 ROUTE 60", "addr:postcode": "14740", "addr:state": "NY", "brand": "USPS", "collection_times": "Mo-Fr 17:00; Sa 12:00", "name": "USPS COLLECTION BOX - PO LOBBY", "note": "ON 12/24 AND 12/31, THIS BOX MAY BE COLLECTED AS EARLY AS 12 NOON.", "ref": "1474000004"}, "type": "Feature"}
{"geometry": {"coordinates": [-78.6386052537, 42.2167718155], "type": "Point"}, "id": "1GLnmupJR0JlTYS6HdQpyky0DT8=", "properties": {"@spider": "usps_collection_boxes", "addr:city": "GREAT VALLEY", "addr:country": "US", "addr:full": "6027 DEPOT ST", "addr:postcode": "14741", "addr:state": "NY", "brand": "USPS", "collection_times": "Mo-Fr 16:45; Sa 12:00", "name": "USPS COLLECTION BOX - BLUE BOX", "note": "ON 12/24 AND 12/31, THIS BOX MAY BE COLLECTED AS EARLY AS 12 NOON.", "ref": "1474100001"}, "type": "Feature"}
{"geometry": {"coordinates": [-78.638606421, 42.216772018], "type": "Point"}, "id": "ExFiV51E1j7vjl_fA6K4Ej2Pca0=", "properties": {"@spider": "usps_collection_boxes", "addr:city": "GREAT VALLEY", "addr:country": "US", "addr:full": "6027 DEPOT ST", "addr:postcode": "14741", "addr:state": "NY", "brand": "USPS", "collection_times": "Mo-Fr 16:45; Sa 12:00", "name": "USPS COLLECTION BOX - PO LOBBY", "note": "ON 12/24 AND 12/31, THIS BOX MAY BE COLLECTED AS EARLY AS 12 NOON.", "ref": "1474100005"}, "type": "Feature"}
{"geometry": {"coordinates": [-79.309875237, 42.11998112], "type": "Point"}, "id": "c2358UfBPZ59sVGwumbCumyyIkA=", "properties": {"@spider": "usps_collection_boxes", "addr:city": "GREENHURST", "addr:country": "US", "addr:full": "2871 GREENHURST AVE", "addr:postcode": "14742", "addr:state": "NY", "brand": "USPS", "collection_times": "Mo-Fr 17:00; Sa 11:45", "name": "USPS COLLECTION BOX - BLUE BOX", "note": "ON 12/24 AND 12/31, THIS BOX MAY BE COLLECTED AS EARLY AS 12 NOON.", "ref": "1474200001"}, "type": "Feature"}
{"geometry": {"coordinates": [-79.309875237, 42.11998112], "type": "Point"}, "id": "NMxNYO0bVHa3eRm2RO0tHCcYOMk=", "properties": {"@spider": "usps_collection_boxes", "addr:city": "GREENHURST", "addr:country": "US", "addr:full": "2871 GREENHURST AVE", "addr:postcode": "14742", "addr:state": "NY", "brand": "USPS", "collection_times": "Mo-Fr 17:00; Sa 11:45", "name": "USPS COLLECTION BOX - PO LOBBY", "note": "ON 12/24 AND 12/31, THIS BOX MAY BE COLLECTED AS EARLY AS 12 NOON.", "ref": "1474200003"}, "type": "Feature"}
{"geometry": {"coordinates": [-79.309875237, 42.11998112], "type": "Point"}, "id": "R6sYb0jZCoX07RZ3q8FeKoSCZ_I=", "properties": {"@spider": "usps_collection_boxes", "addr:city": "GREENHURST", "addr:country": "US", "addr:full": "2871 GREENHURST AVE", "addr:postcode": "14742", "addr:state": "NY", "brand": "USPS", "collection_times": "Mo-Fr 17:00; Sa 12:15", "name": "USPS COLLECTION BOX - PO LOBBY", "note": "ON 12/24 AND 12/31, THIS BOX MAY BE COLLECTED AS EARLY AS 12 NOON.", "ref": "1474200005"}, "type": "Feature"}
{"geometry": {"coordinates": [-78.393889842, 42.162630895], "type": "Point"}, "id": "jSSY7lBKkmmDQI1tFumwc9bpRhs=", "properties": {"@spider": "usps_collection_boxes", "addr:city": "HINSDALE", "addr:country": "US", "addr:full": "3722 MAIN ST", "addr:postcode": "14743", "addr:state": "NY", "brand": "USPS", "collection_times": "Mo-Fr 15:00; Sa 11:45", "name": "USPS COLLECTION BOX - BLUE BOX", "note": "ON 12/24 AND 12/31, THIS BOX MAY BE COLLECTED AS EARLY AS 12 NOON.", "ref": "1474300002"}, "type": "Feature"}
{"geometry": {"coordinates": [-78.393889842, 42.162630895], "type": "Point"}, "id": "7GkzI9ZcLcb2pgHP2O2SN1cAZa4=", "properties": {"@spider": "usps_collection_boxes", "addr:city": "HINSDALE", "addr:country": "US", "addr:full": "3722 MAIN ST", "addr:postcode": "14743", "addr:state": "NY", "brand": "USPS", "collection_times": "Mo-Fr 15:00; Sa 12:00", "name": "USPS COLLECTION BOX - PO LOBBY", "note": "ON 12/24 AND 12/31, THIS BOX MAY BE COLLECTED AS EARLY AS 12 NOON.", "ref": "1474300005"}, "type": "Feature"}
{"geometry": {"coordinates": [-78.159228938, 42.420891385], "type": "Point"}, "id": "UfCQ1TGSKMnyb6-LSp5WktaeMS0=", "properties": {"@spider": "usps_collection_boxes", "addr:city": "HOUGHTON", "addr:country": "US", "addr:full": "9672 ROUTE 19", "addr:postcode": "14744", "addr:state": "NY", "brand": "USPS", "collection_times": "Mo-Fr 15:45; Sa 11:45", "name": "USPS COLLECTION BOX - BLUE BOX", "note": "ON 12/24 AND 12/31, THIS BOX MAY BE COLLECTED AS EARLY AS 12 NOON.", "ref": "1474400001"}, "type": "Feature"}
{"geometry": {"coordinates": [-78.159228938, 42.420891385], "type": "Point"}, "id": "_TO_PEtIM7DlbqNoGbNgr4GhVN8=", "properties": {"@spider": "usps_collection_boxes", "addr:city": "HOUGHTON", "addr:country": "US", "addr:full": "9672 ROUTE 19", "addr:postcode": "14744", "addr:state": "NY", "brand": "USPS", "collection_times": "Mo-Fr 15:45; Sa 12:00", "name": "USPS COLLECTION BOX - PO LOBBY", "note": "ON 12/24 AND 12/31, THIS BOX MAY BE COLLECTED AS EARLY AS 12 NOON.", "ref": "1474400004"}, "type": "Feature"}
{"geometry": {"coordinates": [-78.136043555, 42.473829259], "type": "Point"}, "id": "jH-q9UYxYeOaqq1H2TqN_OhvJGw=", "properties": {"@spider": "usps_collection_boxes", "addr:city": "HUME", "addr:country": "US", "addr:full": "10912 COUNTY ROAD 23", "addr:postcode": "14745", "addr:state": "NY", "brand": "USPS", "collection_times": "Mo-Fr 11:00; Sa 11:15", "name": "USPS COLLECTION BOX - BLUE BOX", "ref": "1474500003"}, "type": "Feature"}
{"geometry": {"coordinates": [-78.136043555, 42.473829259], "type": "Point"}, "id": "AwKFofk2dyLezImYm74hglitYP0=", "properties": {"@spider": "usps_collection_boxes", "addr:city": "HUME", "addr:country": "US", "addr:full": "10912 COUNTY ROAD 23", "addr:postcode": "14745", "addr:state": "NY", "brand": "USPS", "collection_times": "Mo-Fr 10:55; Sa 11:15", "name": "USPS COLLECTION BOX - PO LOBBY", "ref": "1474500004"}, "type": "Feature"}
{"geometry": {"coordinates": [-78.136043555, 42.473829259], "type": "Point"}, "id": "jtQ1Lyf8ZEYIFMQadNdPVeawhKM=", "properties": {"@spider": "usps_collection_boxes", "addr:city": "HUME", "addr:country": "US", "addr:full": "10912 COUNTY ROAD 23", "addr:postcode": "14745", "addr:state": "NY", "brand": "USPS", "collection_times": "Mo-Fr 11:00; Sa 11:45", "name": "USPS COLLECTION BOX - PO LOBBY", "ref": "1474500006"}, "type": "Feature"}
{"geometry": {"coordinates": [-79.101239036, 42.158653229], "type": "Point"}, "id": "8WoeVaQAmt7LyhtvsVF_Ny_AWEg=", "properties": {"@spider": "usps_collection_boxes", "addr:city": "KENNEDY", "addr:country": "US", "addr:full": "3600 CHURCH ST", "addr:postcode": "14747", "addr:state": "NY", "brand": "USPS", "collection_times": "Mo-Fr 17:00; Sa 12:00", "name": "USPS COLLECTION BOX - BLUE BOX", "note": "ON 12/24 AND 12/31, THIS BOX MAY BE COLLECTED AS EARLY AS 12 NOON.", "ref": "1474700001"}, "type": "Feature"}
{"geometry": {"coordinates": [-79.1012390359, 42.158653229], "type": "Point"}, "id": "o8b3u3ew55iWt77RGiKdmWZUCYE=", "properties": {"@spider": "usps_collection_boxes", "addr:city": "KENNEDY", "addr:country": "US", "addr:full": "3600 CHURCH ST", "addr:postcode": "14747", "addr:state": "NY", "brand": "USPS", "collection_times": "Mo-Fr 17:00; Sa 12:00", "name": "USPS COLLECTION BOX - PO LOBBY", "note": "ON 12/24 AND 12/31, THIS BOX MAY BE COLLECTED AS EARLY AS 12 NOON.", "ref": "1474700005"}, "type": "Feature"}
{"geometry": {"coordinates": [-78.678839454, 42.158646358], "type": "Point"}, "id": "Tr0bO6v30oTwt_-rb4-hHYyIDZg=", "properties": {"@spider": "usps_collection_boxes", "addr:city": "KILLBUCK", "addr:country": "US", "addr:full": "3753 OAKWOOD ST", "addr:postcode": "14748", "addr:state": "NY", "brand": "USPS", "collection_times": "Mo-Fr 13:00; Sa 11:45", "name": "USPS COLLECTION BOX - BLUE BOX", "note": "ON 12/24 AND 12/31, THIS BOX MAY BE COLLECTED AS EARLY AS 12 NOON.", "ref": "1474800001"}, "type": "Feature"}
{"geometry": {"coordinates": [-78.678839454, 42.158646358], "type": "Point"}, "id": "ZK7m0jrYp4AhUh21qWS0qsw7LKY=", "properties": {"@spider": "usps_collection_boxes", "addr:city": "KILLBUCK", "addr:country": "US", "addr:full": "3753 OAKWOOD ST", "addr:postcode": "14748", "addr:state": "NY", "brand": "USPS", "collection_times": "Mo-Fr 13:00; Sa 12:15", "name": "USPS COLLECTION BOX - PO LOBBY", "note": "ON 12/24 AND 12/31, THIS BOX MAY BE COLLECTED AS EARLY AS 12 NOON.", "ref": "1474800004"}, "type": "Feature"}
{"geometry": {"coordinates": [-79.302545707, 42.099134711], "type": "Point"}, "id": "czdHcRSPx5pSzBnYX8XhA9_h_Go=", "properties": {"@spider": "usps_collection_boxes", "addr:city": "LAKEWOOD", "addr:country": "US", "addr:full": "318 E FAIRMOUNT AVE", "addr:postcode": "14750", "addr:state": "NY", "brand": "USPS", "collection_times": "Mo-Sa 13:30", "name": "USPS COLLECTION BOX - BLUE BOX", "note": "ON 12/24 AND 12/31, THIS BOX MAY BE COLLECTED AS EARLY AS 12 NOON.", "ref": "1475000002"}, "type": "Feature"}
{"geometry": {"coordinates": [-79.3265235242, 42.0978845016], "type": "Point"}, "id": "qUhNsds8KOj_wowUek5Xi0l9fKs=", "properties": {"@spider": "usps_collection_boxes", "addr:city": "LAKEWOOD", "addr:country": "US", "addr:full": "2 W FAIRMOUNT AVE", "addr:postcode": "14750", "addr:state": "NY", "brand": "USPS", "collection_times": "Mo-Fr 17:00; Sa 13:00", "name": "USPS COLLECTION BOX - BLUE BOX", "note": "ON 12/24 AND 12/31, THIS BOX MAY BE COLLECTED AS EARLY AS 12 NOON.", "ref": "1475000004"}, "type": "Feature"}
{"geometry": {"coordinates": [-79.3262929692, 42.1032442717], "type": "Point"}, "id": "0xc5tEssWoDt_upVLTcYLP6cOMQ=", "properties": {"@spider": "usps_collection_boxes", "addr:city": "LAKEWOOD", "addr:country": "US", "addr:full": "102 CHAUTAUQUA AVE", "addr:postcode": "14750", "addr:state": "NY", "brand": "USPS", "collection_times": "Mo-Sa 11:00", "name": "USPS COLLECTION BOX - BLUE BOX", "ref": "1475000009"}, "type": "Feature"}
{"geometry": {"coordinates": [-79.3265235242, 42.0978845016], "type": "Point"}, "id": "TPbCAujurVGUBh28CrDS3zFyj54=", "properties": {"@spider": "usps_collection_boxes", "addr:city": "LAKEWOOD", "addr:country": "US", "addr:full": "2 W FAIRMOUNT AVE", "addr:postcode": "14750", "addr:state": "NY", "brand": "USPS", "collection_times": "Mo-Fr 17:00; Sa 12:00", "name": "USPS COLLECTION BOX - PO LOBBY", "note": "ON 12/24 AND 12/31, THIS BOX MAY BE COLLECTED AS EARLY AS 12 NOON.", "ref": "1475000010"}, "type": "Feature"}
{"geometry": {"coordinates": [-79.324436567, 42.35060891], "type": "Point"}, "id": "4onpNoPAmS0GEHKRTubATvqCMDE=", "properties": {"@spider": "usps_collection_boxes", "addr:city": "LILYDALE", "addr:country": "US", "addr:full": "30 SOUTH ST", "addr:postcode": "14752", "addr:state": "NY", "brand": "USPS", "collection_times": "Mo-Fr 16:45; Sa 12:00", "name": "USPS COLLECTION BOX - BLUE BOX", "note": "ON 12/24 AND 12/31, THIS BOX MAY BE COLLECTED AS EARLY AS 12 NOON.", "ref": "1475200001"}, "type": "Feature"}
{"geometry": {"coordinates": [-79.324436567, 42.35060891], "type": "Point"}, "id": "TBzEzur1h32RrgcgEtjYz15VzzI=", "properties": {"@spider": "usps_collection_boxes", "addr:city": "LILYDALE", "addr:country": "US", "addr:full": "30 SOUTH ST", "addr:postcode": "14752", "addr:state": "NY", "brand": "USPS", "collection_times": "Mo-Fr 17:00; Sa 12:00", "name": "USPS COLLECTION BOX - PO LOBBY", "note": "ON 12/24 AND 12/31, THIS BOX MAY BE COLLECTED AS EARLY AS 12 NOON.", "ref": "1475200004"}, "type": "Feature"}
{"geometry": {"coordinates": [-78.629408542, 42.0267450694], "type": "Point"}, "id": "S38s2iMakFkfpYovguY3WZk_ye4=", "properties": {"@spider": "usps_collection_boxes", "addr:city": "LIMESTONE", "addr:country": "US", "addr:full": "610 MAIN ST", "addr:postcode": "14753", "addr:state": "NY", "brand": "USPS", "collection_times": "Mo-Fr 15:00; Sa 11:45", "name": "USPS COLLECTION BOX - BLUE BOX", "note": "ON 12/24 AND 12/31, THIS BOX MAY BE COLLECTED AS EARLY AS 12 NOON.", "ref": "1475300001"}, "type": "Feature"}
{"geometry": {"coordinates": [-78.629408542, 42.026745069], "type": "Point"}, "id": "m5RoSz5rQDjRVxbP8tMmzRx1hy0=", "properties": {"@spider": "usps_collection_boxes", "addr:city": "LIMESTONE", "addr:country": "US", "addr:full": "610 MAIN ST", "addr:postcode": "14753", "addr:state": "NY", "brand": "USPS", "collection_times": "Mo-Fr 15:00; Sa 12:00", "name": "USPS COLLECTION BOX - PO LOBBY", "note": "ON 12/24 AND 12/31, THIS BOX MAY BE COLLECTED AS EARLY AS 12 NOON.", "ref": "1475300005"}, "type": "Feature"}
{"geometry": {"coordinates": [-78.2063187082, 42.0266736483], "type": "Point"}, "id": "rUGrnmnCIEAtdOJJvqvmXHov8Fs=", "properties": {"@spider": "usps_collection_boxes", "addr:city": "LITTLE GENESEE", "addr:country": "US", "addr:full": "8258 STATE ROUTE 417", "addr:postcode": "14754", "addr:state": "NY", "brand": "USPS", "collection_times": "Mo-Fr 12:30; Sa 11:45", "name": "USPS COLLECTION BOX - BLUE BOX", "note": "ON 12/24 AND 12/31, THIS BOX MAY BE COLLECTED AS EARLY AS 12 NOON.", "ref": "1475400001"}, "type": "Feature"}
{"geometry": {"coordinates": [-78.206318708, 42.026673648], "type": "Point"}, "id": "Bzn2TfYYgIXJiNrWpY54nPgsUNM=", "properties": {"@spider": "usps_collection_boxes", "addr:city": "LITTLE GENESEE", "addr:country": "US", "addr:full": "8258 STATE ROUTE 417", "addr:postcode": "14754", "addr:state": "NY", "brand": "USPS", "collection_times": "Mo-Sa 12:00", "name": "USPS COLLECTION BOX - PO LOBBY", "ref": "1475400004"}, "type": "Feature"}
{"geometry": {"coordinates": [-78.798108847, 42.249664898], "type": "Point"}, "id": "h7f4h7kB9mSxAE86DPYenmmfZ7o=", "properties": {"@spider": "usps_collection_boxes", "addr:city": "LITTLE VALLEY", "addr:country": "US", "addr:full": "115 MAIN ST", "addr:postcode": "14755", "addr:state": "NY", "brand": "USPS", "collection_times": "Mo-Fr 17:00; Sa 12:00", "name": "USPS COLLECTION BOX - BLUE BOX", "note": "ON 12/24 AND 12/31, THIS BOX MAY BE COLLECTED AS EARLY AS 12 NOON.", "ref": "1475500001"}, "type": "Feature"}
{"geometry": {"coordinates": [-78.803647251, 42.253032724], "type": "Point"}, "id": "HsbY4ZjwHr3zkYZHCp7XTINhBvE=", "properties": {"@spider": "usps_collection_boxes", "addr:city": "LITTLE VALLEY", "addr:country": "US", "addr:full": "415 COURT CT", "addr:postcode": "14755", "addr:state": "NY", "brand": "USPS", "collection_times": "Mo-Sa 10:00", "name": "USPS COLLECTION BOX - BLUE BOX", "ref": "1475500007"}, "type": "Feature"}
{"geometry": {"coordinates": [-78.787214623, 42.248169366], "type": "Point"}, "id": "P3F8e9ojs4ryfzd9-jzJnZhAou0=", "properties": {"@spider": "usps_collection_boxes", "addr:city": "LITTLE VALLEY", "addr:country": "US", "addr:full": "114 1ST ST", "addr:postcode": "14755", "addr:state": "NY", "brand": "USPS", "collection_times": "Mo-Sa 09:15", "name": "USPS COLLECTION BOX - BLUE BOX", "ref": "1475500009"}, "type": "Feature"}
{"geometry": {"coordinates": [-78.798108847, 42.249664898], "type": "Point"}, "id": "yDzi_dL7B_k9toMtwzxUGDu8Kr4=", "properties": {"@spider": "usps_collection_boxes", "addr:city": "LITTLE VALLEY", "addr:country": "US", "addr:full": "115 MAIN ST", "addr:postcode": "14755", "addr:state": "NY", "brand": "USPS", "collection_times": "Mo-Fr 17:00; Sa 12:00", "name": "USPS COLLECTION BOX - PO LOBBY", "note": "ON 12/24 AND 12/31, THIS BOX MAY BE COLLECTED AS EARLY AS 12 NOON.", "ref": "1475500011"}, "type": "Feature"}
{"geometry": {"coordinates": [-79.503573088, 42.255172144], "type": "Point"}, "id": "GzlWkwxRVU7EhWEt-hKYnwu4djk=", "properties": {"@spider": "usps_collection_boxes", "addr:city": "MAYVILLE", "addr:country": "US", "addr:full": "19 E CHAUTAUQUA ST", "addr:postcode": "14757", "addr:state": "NY", "brand": "USPS", "collection_times": "Mo-Fr 17:00; Sa 12:30", "name": "USPS COLLECTION BOX - BLUE BOX", "note": "ON 12/24 AND 12/31, THIS BOX MAY BE COLLECTED AS EARLY AS 12 NOON.", "ref": "1475700001"}, "type": "Feature"}
{"geometry": {"coordinates": [-79.503573088, 42.255172144], "type": "Point"}, "id": "UwtntnYwxwfgrBERPDmNdpLBfFE=", "properties": {"@spider": "usps_collection_boxes", "addr:city": "MAYVILLE", "addr:country": "US", "addr:full": "19 E CHAUTAUQUA ST", "addr:postcode": "14757", "addr:state": "NY", "brand": "USPS", "collection_times": "Mo-Fr 17:00; Sa 12:30", "name": "USPS COLLECTION BOX - BLUE BOX", "note": "ON 12/24 AND 12/31, THIS BOX MAY BE COLLECTED AS EARLY AS 12 NOON.", "ref": "1475700002"}, "type": "Feature"}
{"geometry": {"coordinates": [-79.5031137653, 42.2528191993], "type": "Point"}, "id": "zvYcL-F8eAqg9lNbnjPsmaxqPhQ=", "properties": {"@spider": "usps_collection_boxes", "addr:city": "MAYVILLE", "addr:country": "US", "addr:full": "64 S ERIE ST", "addr:postcode": "14757", "addr:state": "NY", "brand": "USPS", "collection_times": "Mo-Sa 09:00", "name": "USPS COLLECTION BOX - BLUE BOX", "ref": "1475700005"}, "type": "Feature"}
{"geometry": {"coordinates": [-79.503573088, 42.255172144], "type": "Point"}, "id": "SHWvYCN22wxFz93IJYWDxa69kA4=", "properties": {"@spider": "usps_collection_boxes", "addr:city": "MAYVILLE", "addr:country": "US", "addr:full": "19 E CHAUTAUQUA ST", "addr:postcode": "14757", "addr:state": "NY", "brand": "USPS", "collection_times": "Mo-Fr 17:00; Sa 12:00", "name": "USPS COLLECTION BOX - PO LOBBY", "note": "ON 12/24 AND 12/31, THIS BOX MAY BE COLLECTED AS EARLY AS 12 NOON.", "ref": "1475700010"}, "type": "Feature"}
{"geometry": {"coordinates": [-79.449345833, 42.012001176], "type": "Point"}, "id": "ag6nB-UIM87vbe7YFKG7eleG7QM=", "properties": {"@spider": "usps_collection_boxes", "addr:city": "NIOBE", "addr:country": "US", "addr:full": "5967 PANAMA NIOBE RD", "addr:postcode": "14758", "addr:state": "NY", "brand": "USPS", "collection_times": "Mo-Sa 11:45", "name": "USPS COLLECTION BOX - BLUE BOX", "ref": "1475800001"}, "type": "Feature"}
{"geometry": {"coordinates": [-79.449345833, 42.012001176], "type": "Point"}, "id": "t8SSsPGJXu0jsmFF0W3Z9IbKc_I=", "properties": {"@spider": "usps_collection_boxes", "addr:city": "NIOBE", "addr:country": "US", "addr:full": "5967 PANAMA NIOBE RD", "addr:postcode": "14758", "addr:state": "NY", "brand": "USPS", "collection_times": "Mo-Sa 12:00", "name": "USPS COLLECTION BOX - PO LOBBY", "ref": "1475800003"}, "type": "Feature"}
{"geometry": {"coordinates": [-78.43815, 42.077460497], "type": "Point"}, "id": "f-j_6obK6oEgX6_VMwpy6H4R8n0=", "properties": {"@spider": "usps_collection_boxes", "addr:city": "OLEAN", "addr:country": "US", "addr:full": "700 W STATE ST", "addr:postcode": "14760", "addr:state": "NY", "brand": "USPS", "collection_times": "Mo-Sa 13:00", "name": "USPS COLLECTION BOX - BLUE BOX", "note": "ON 12/24 AND 12/31, THIS BOX MAY BE COLLECTED AS EARLY AS 12 NOON.", "ref": "1476000008"}, "type": "Feature"}
{"geometry": {"coordinates": [-78.45681906, 42.077129484], "type": "Point"}, "id": "896VLYg87MyBxFN__18OhFW66MY=", "properties": {"@spider": "usps_collection_boxes", "addr:city": "OLEAN", "addr:country": "US", "addr:full": "2223 W STATE ST", "addr:postcode": "14760", "addr:state": "NY", "brand": "USPS", "collection_times": "Mo-Sa 13:00", "name": "USPS COLLECTION BOX - BLUE BOX", "note": "ON 12/24 AND 12/31, THIS BOX MAY BE COLLECTED AS EARLY AS 12 NOON.", "ref": "1476000019"}, "type": "Feature"}
{"geometry": {"coordinates": [-78.458331181, 42.077072523], "type": "Point"}, "id": "vj6HqQYVNPaZGnw1hbXVOfyDxr8=", "properties": {"@spider": "usps_collection_boxes", "addr:city": "OLEAN", "addr:country": "US", "addr:full": "2501 W STATE ST", "addr:postcode": "14760", "addr:state": "NY", "brand": "USPS", "collection_times": "Mo-Sa 11:00", "name": "USPS COLLECTION BOX - BLUE BOX", "ref": "1476000020"}, "type": "Feature"}
{"geometry": {"coordinates": [-78.429845499, 42.083220851], "type": "Point"}, "id": "oiXJaXiKghqwIpbLhzCcRYvwphk=", "properties": {"@spider": "usps_collection_boxes", "addr:city": "OLEAN", "addr:country": "US", "addr:full": "400 N UNION ST", "addr:postcode": "14760", "addr:state": "NY", "brand": "USPS", "collection_times": "Mo-Sa 10:00", "name": "USPS COLLECTION BOX - BLUE BOX", "ref": "1476000032"}, "type": "Feature"}
{"geometry": {"coordinates": [-78.426811438, 42.089824535], "type": "Point"}, "id": "wxML3LM00vRqK3QY3TIYs1aSeqs=", "properties": {"@spider": "usps_collection_boxes", "addr:city": "OLEAN", "addr:country": "US", "addr:full": "515 MAIN ST", "addr:postcode": "14760", "addr:state": "NY", "brand": "USPS", "collection_times": "Mo-Sa 13:00", "name": "USPS COLLECTION BOX - BLUE BOX", "note": "ON 12/24 AND 12/31, THIS BOX MAY BE COLLECTED AS EARLY AS 12 NOON.", "ref": "1476000033"}, "type": "Feature"}
{"geometry": {"coordinates": [-78.428864698, 42.077584402], "type": "Point"}, "id": "6IphDx0xIlqEjO_ijc80SlDkObw=", "properties": {"@spider": "usps_collection_boxes", "addr:city": "OLEAN", "addr:country": "US", "addr:full": "101 E STATE ST", "addr:postcode": "14760", "addr:state": "NY", "brand": "USPS", "collection_times": "Mo-Fr 16:00; Sa 13:00", "name": "USPS COLLECTION BOX - BLUE BOX", "note": "ON 12/24 AND 12/31, THIS BOX MAY BE COLLECTED AS EARLY AS 12 NOON.", "ref": "1476000035"}, "type": "Feature"}
{"geometry": {"coordinates": [-78.445422, 42.077420515], "type": "Point"}, "id": "G_qJnRa_lLH0VcN9ZbeJCSkAJEA=", "properties": {"@spider": "usps_collection_boxes", "addr:city": "OLEAN", "addr:country": "US", "addr:full": "1322 W STATE ST", "addr:postcode": "14760", "addr:state": "NY", "brand": "USPS", "collection_times": "Mo-Sa 13:00", "name": "USPS COLLECTION BOX - BLUE BOX", "note": "ON 12/24 AND 12/31, THIS BOX MAY BE COLLECTED AS EARLY AS 12 NOON.", "ref": "1476000038"}, "type": "Feature"}
{"geometry": {"coordinates": [-78.4302374016, 42.0775608922], "type": "Point"}, "id": "F3uKJOKr8Woaj6592LDyqvyL5rQ=", "properties": {"@spider": "usps_collection_boxes", "addr:city": "OLEAN", "addr:country": "US", "addr:full": "102 W STATE ST", "addr:postcode": "14760", "addr:state": "NY", "brand": "USPS", "collection_times": "Mo-Fr 17:30; Sa 13:00", "name": "USPS COLLECTION BOX - BLUE BOX", "note": "ON 12/24 AND 12/31, THIS BOX MAY BE COLLECTED AS EARLY AS 12 NOON.", "ref": "1476000043"}, "type": "Feature"}
{"geometry": {"coordinates": [-78.460139209, 42.077100577], "type": "Point"}, "id": "21wxUwyWy16jXGuNu6QdLNmxPp0=", "properties": {"@spider": "usps_collection_boxes", "addr:city": "OLEAN", "addr:country": "US", "addr:full": "2636 W STATE ST", "addr:postcode": "14760", "addr:state": "NY", "brand": "USPS", "collection_times": "Mo-Sa 12:00", "name": "USPS COLLECTION BOX - BLUE BOX", "ref": "1476000044"}, "type": "Feature"}
{"geometry": {"coordinates": [-78.429879546, 42.079715329], "type": "Point"}, "id": "I9Wacc-GMZM2D2N_a4XWxOGiVXU=", "properties": {"@spider": "usps_collection_boxes", "addr:city": "OLEAN", "addr:country": "US", "addr:full": "201 N UNION ST", "addr:postcode": "14760", "addr:state": "NY", "brand": "USPS", "collection_times": "Mo-Fr 16:00; Sa 13:00", "name": "USPS COLLECTION BOX - BLUE BOX", "note": "ON 12/24 AND 12/31, THIS BOX MAY BE COLLECTED AS EARLY AS 12 NOON.", "ref": "1476000048"}, "type": "Feature"}
{"geometry": {"coordinates": [-78.429031774, 42.073395523], "type": "Point"}, "id": "HayhcWr8E4vSSh1IwlfWLCeHtIc=", "properties": {"@spider": "usps_collection_boxes", "addr:city": "OLEAN", "addr:country": "US", "addr:full": "111 E GREEN ST", "addr:postcode": "14760", "addr:state": "NY", "brand": "USPS", "collection_times": "Mo-Sa 13:00", "name": "USPS COLLECTION BOX - BLUE BOX", "note": "ON 12/24 AND 12/31, THIS BOX MAY BE COLLECTED AS EARLY AS 12 NOON.", "ref": "1476000049"}, "type": "Feature"}
{"geometry": {"coordinates": [-78.4504886109, 42.0860659792], "type": "Point"}, "id": "w6SX02adhtq6zPn0jql9nAo5AEc=", "properties": {"@spider": "usps_collection_boxes", "addr:city": "OLEAN", "addr:country": "US", "addr:full": "1701 LEO MOSS DR", "addr:postcode": "14760", "addr:state": "NY", "brand": "USPS", "collection_times": "Mo-Fr 13:00", "name": "USPS COLLECTION BOX - BLUE BOX", "note": "ON 12/24 AND 12/31, THIS BOX MAY BE COLLECTED AS EARLY AS 12 NOON.", "ref": "1476000051"}, "type": "Feature"}
{"geometry": {"coordinates": [-78.4266431759, 42.09026374], "type": "Point"}, "id": "c8Y1EXsm6Y8Fu5qpRZXsBteBIbs=", "properties": {"@spider": "usps_collection_boxes", "addr:city": "OLEAN", "addr:country": "US", "addr:full": "535 MAIN ST", "addr:postcode": "14760", "addr:state": "NY", "brand": "USPS", "collection_times": "Mo-Sa 13:00", "name": "USPS COLLECTION BOX - BLUE BOX", "note": "ON 12/24 AND 12/31, THIS BOX MAY BE COLLECTED AS EARLY AS 12 NOON.", "ref": "1476000056"}, "type": "Feature"}
{"geometry": {"coordinates": [-78.4438515, 42.085118539], "type": "Point"}, "id": "nXtJESi8cTBrlX5281UegM8IUXA=", "properties": {"@spider": "usps_collection_boxes", "addr:city": "OLEAN", "addr:country": "US", "addr:full": "1201 WAYNE ST", "addr:postcode": "14760", "addr:state": "NY", "brand": "USPS", "collection_times": "Mo-Sa 13:00", "name": "USPS COLLECTION BOX - BLUE BOX", "note": "ON 12/24 AND 12/31, THIS BOX MAY BE COLLECTED AS EARLY AS 12 NOON.", "ref": "1476000059"}, "type": "Feature"}
{"geometry": {"coordinates": [-78.429898518, 42.076916938], "type": "Point"}, "id": "-nxYXxisKT_pZh1jQ6n1BCZdqB0=", "properties": {"@spider": "usps_collection_boxes", "addr:city": "OLEAN", "addr:country": "US", "addr:full": "102 S UNION ST", "addr:postcode": "14760", "addr:state": "NY", "brand": "USPS", "collection_times": "Mo-Fr 17:00; Sa 12:00", "name": "USPS COLLECTION BOX - PO LOBBY", "note": "ON 12/24 AND 12/31, THIS BOX MAY BE COLLECTED AS EARLY AS 12 NOON.", "ref": "1476000064"}, "type": "Feature"}
{"geometry": {"coordinates": [-78.831652835, 42.355897492], "type": "Point"}, "id": "YZoIGQDxb39IFKO6eZHrzf5wsyA=", "properties": {"@spider": "usps_collection_boxes", "addr:city": "OTTO", "addr:country": "US", "addr:full": "9120 OTTO EAST OTTO RD", "addr:postcode": "14766", "addr:state": "NY", "brand": "USPS", "collection_times": "Mo-Fr 16:45; Sa 11:45", "name": "USPS COLLECTION BOX - BLUE BOX", "note": "ON 12/24 AND 12/31, THIS BOX MAY BE COLLECTED AS EARLY AS 12 NOON.", "ref": "1476600001"}, "type": "Feature"}
{"geometry": {"coordinates": [-78.8316528353, 42.3558974924], "type": "Point"}, "id": "OyGLKpFV5VhEkJ35weWz0IrpKoI=", "properties": {"@spider": "usps_collection_boxes", "addr:city": "OTTO", "addr:country": "US", "addr:full": "9120 OTTO EAST OTTO RD", "addr:postcode": "14766", "addr:state": "NY", "brand": "USPS", "collection_times": "Mo-Fr 16:45; Sa 11:45", "name": "USPS COLLECTION BOX - PO LOBBY", "note": "ON 12/24 AND 12/31, THIS BOX MAY BE COLLECTED AS EARLY AS 12 NOON.", "ref": "1476600004"}, "type": "Feature"}
{"geometry": {"coordinates": [-79.482442584, 42.074926492], "type": "Point"}, "id": "rHk6MyUnkbMv60twdWHD2WsFTpA=", "properties": {"@spider": "usps_collection_boxes", "addr:city": "PANAMA", "addr:country": "US", "addr:full": "6 E MAIN ST", "addr:postcode": "14767", "addr:state": "NY", "brand": "USPS", "collection_times": "Mo-Fr 17:00; Sa 12:00", "name": "USPS COLLECTION BOX - BLUE BOX", "note": "ON 12/24 AND 12/31, THIS BOX MAY BE COLLECTED AS EARLY AS 12 NOON.", "ref": "1476700001"}, "type": "Feature"}
{"geometry": {"coordinates": [-79.4824425838, 42.0749264924], "type": "Point"}, "id": "KGdY29mCThUOpue1884O-qSVwk0=", "properties": {"@spider": "usps_collection_boxes", "addr:city": "PANAMA", "addr:country": "US", "addr:full": "6 E MAIN ST", "addr:postcode": "14767", "addr:state": "NY", "brand": "USPS", "collection_times": "Mo-Fr 17:00; Sa 12:00", "name": "USPS COLLECTION BOX - PO LOBBY", "note": "ON 12/24 AND 12/31, THIS BOX MAY BE COLLECTED AS EARLY AS 12 NOON.", "ref": "1476700004"}, "type": "Feature"}
{"geometry": {"coordinates": [-79.470172555, 42.378775469], "type": "Point"}, "id": "fyClRrpEMXj4TFQZlbx8iTTylQg=", "properties": {"@spider": "usps_collection_boxes", "addr:city": "PORTLAND", "addr:country": "US", "addr:full": "6372 W MAIN RD", "addr:postcode": "14769", "addr:state": "NY", "brand": "USPS", "collection_times": "Mo-Fr 12:00; Sa 11:45", "name": "USPS COLLECTION BOX - BLUE BOX", "ref": "1476900001"}, "type": "Feature"}
{"geometry": {"coordinates": [-79.470172555, 42.378775469], "type": "Point"}, "id": "K6TSeTl4gPEAD7Z-8JR3FfUn3j8=", "properties": {"@spider": "usps_collection_boxes", "addr:city": "PORTLAND", "addr:country": "US", "addr:full": "6372 W MAIN RD", "addr:postcode": "14769", "addr:state": "NY", "brand": "USPS", "collection_times": "Mo-Sa 12:00", "name": "USPS COLLECTION BOX - PO LOBBY", "ref": "1476900002"}, "type": "Feature"}
{"geometry": {"coordinates": [-79.470172555, 42.3787754691], "type": "Point"}, "id": "QKQmVWVOjkKqL-g0YhlbKsovQL8=", "properties": {"@spider": "usps_collection_boxes", "addr:city": "PORTLAND", "addr:country": "US", "addr:full": "6372 W MAIN RD", "addr:postcode": "14769", "addr:state": "NY", "brand": "USPS", "collection_times": "Mo-Fr 12:00; Sa 12:15", "name": "USPS COLLECTION BOX - PO LOBBY", "note": "ON 12/24 AND 12/31, THIS BOX MAY BE COLLECTED AS EARLY AS 12 NOON.", "ref": "1476900004"}, "type": "Feature"}
{"geometry": {"coordinates": [-78.340365908, 42.03844354], "type": "Point"}, "id": "In5LiVJWtogfGgH1Y9PSixDyeNc=", "properties": {"@spider": "usps_collection_boxes", "addr:city": "PORTVILLE", "addr:country": "US", "addr:full": "1 S MAIN ST", "addr:postcode": "14770", "addr:state": "NY", "brand": "USPS", "collection_times": "Mo-Fr 16:45; Sa 11:45", "name": "USPS COLLECTION BOX - BLUE BOX", "note": "ON 12/24 AND 12/31, THIS BOX MAY BE COLLECTED AS EARLY AS 12 NOON.", "ref": "1477000001"}, "type": "Feature"}
{"geometry": {"coordinates": [-78.3403659077, 42.0384435396], "type": "Point"}, "id": "xOxW5TsBcfRi6-P0jYV58LG1bn8=", "properties": {"@spider": "usps_collection_boxes", "addr:city": "PORTVILLE", "addr:country": "US", "addr:full": "1 S MAIN ST", "addr:postcode": "14770", "addr:state": "NY", "brand": "USPS", "collection_times": "Mo-Fr 17:00; Sa 12:00", "name": "USPS COLLECTION BOX - PO LOBBY", "note": "ON 12/24 AND 12/31, THIS BOX MAY BE COLLECTED AS EARLY AS 12 NOON.", "ref": "1477000006"}, "type": "Feature"}
{"geometry": {"coordinates": [-78.974944026, 42.162320529], "type": "Point"}, "id": "DZ1asXDTb2S4SiLZYqeUfFcYBIQ=", "properties": {"@spider": "usps_collection_boxes", "addr:city": "RANDOLPH", "addr:country": "US", "addr:full": "90 MAIN ST", "addr:postcode": "14772", "addr:state": "NY", "brand": "USPS", "collection_times": "Mo-Sa 15:30", "name": "USPS COLLECTION BOX - BLUE BOX", "note": "ON 12/24 AND 12/31, THIS BOX MAY BE COLLECTED AS EARLY AS 12 NOON.", "ref": "1477200007"}, "type": "Feature"}
{"geometry": {"coordinates": [-78.976124896, 42.161937853], "type": "Point"}, "id": "9po4uTKoQRNIfz8-90MoCrQ_1YI=", "properties": {"@spider": "usps_collection_boxes", "addr:city": "RANDOLPH", "addr:country": "US", "addr:full": "117 MAIN ST", "addr:postcode": "14772", "addr:state": "NY", "brand": "USPS", "collection_times": "Mo-Sa 15:30", "name": "USPS COLLECTION BOX - BLUE BOX", "note": "ON 12/24 AND 12/31, THIS BOX MAY BE COLLECTED AS EARLY AS 12 NOON.", "ref": "1477200008"}, "type": "Feature"}
{"geometry": {"coordinates": [-78.974944026, 42.162320529], "type": "Point"}, "id": "6I7fInw6anpJGkaKR7tpZff9aOs=", "properties": {"@spider": "usps_collection_boxes", "addr:city": "RANDOLPH", "addr:country": "US", "addr:full": "90 MAIN ST", "addr:postcode": "14772", "addr:state": "NY", "brand": "USPS", "collection_times": "Mo-Fr 17:00; Sa 12:00", "name": "USPS COLLECTION BOX - PO LOBBY", "note": "ON 12/24 AND 12/31, THIS BOX MAY BE COLLECTED AS EARLY AS 12 NOON.", "ref": "1477200010"}, "type": "Feature"}
{"geometry": {"coordinates": [-78.1530101, 42.088599514], "type": "Point"}, "id": "Bt9QWXk19rhHO_BWlKqQR2p-qEg=", "properties": {"@spider": "usps_collection_boxes", "addr:city": "RICHBURG", "addr:country": "US", "addr:full": "210 MAIN ST", "addr:postcode": "14774", "addr:state": "NY", "brand": "USPS", "collection_times": "Mo-Fr 11:00; Sa 11:45", "name": "USPS COLLECTION BOX - BLUE BOX", "ref": "1477400001"}, "type": "Feature"}
{"geometry": {"coordinates": [-78.1530101, 42.088599514], "type": "Point"}, "id": "K0U0a2h-snOj57pncAl_FiJ1ZJ8=", "properties": {"@spider": "usps_collection_boxes", "addr:city": "RICHBURG", "addr:country": "US", "addr:full": "210 MAIN ST", "addr:postcode": "14774", "addr:state": "NY", "brand": "USPS", "collection_times": "Mo-Fr 11:00; Sa 12:00", "name": "USPS COLLECTION BOX - APC", "ref": "1477400004"}, "type": "Feature"}
{"geometry": {"coordinates": [-79.711192518, 42.266619396], "type": "Point"}, "id": "i5vf9UWZyW7_pLd6BdzSavn2644=", "properties": {"@spider": "usps_collection_boxes", "addr:city": "RIPLEY", "addr:country": "US", "addr:full": "13 W MAIN ST", "addr:postcode": "14775", "addr:state": "NY", "brand": "USPS", "collection_times": "Mo-Fr 16:00; Sa 11:45", "name": "USPS COLLECTION BOX - BLUE BOX", "note": "ON 12/24 AND 12/31, THIS BOX MAY BE COLLECTED AS EARLY AS 12 NOON.", "ref": "1477500001"}, "type": "Feature"}
{"geometry": {"coordinates": [-79.710944043, 42.266726338], "type": "Point"}, "id": "C3P5hJTFyLB_Kk3a8caMkR0D5TI=", "properties": {"@spider": "usps_collection_boxes", "addr:city": "RIPLEY", "addr:country": "US", "addr:full": "7 W MAIN ST", "addr:postcode": "14775", "addr:state": "NY", "brand": "USPS", "collection_times": "Mo-Fr 16:00; Sa 12:00", "name": "USPS COLLECTION BOX - PO LOBBY", "note": "ON 12/24 AND 12/31, THIS BOX MAY BE COLLECTED AS EARLY AS 12 NOON.", "ref": "1477500004"}, "type": "Feature"}
{"geometry": {"coordinates": [-78.252201639, 42.392310499], "type": "Point"}, "id": "DvdoaJI9TUEXDJFn32_YESFoa5A=", "properties": {"@spider": "usps_collection_boxes", "addr:city": "RUSHFORD", "addr:country": "US", "addr:full": "9019 MAIN ST", "addr:postcode": "14777", "addr:state": "NY", "brand": "USPS", "collection_times": "Mo-Fr 16:45; Sa 11:45", "name": "USPS COLLECTION BOX - BLUE BOX", "note": "ON 12/24 AND 12/31, THIS BOX MAY BE COLLECTED AS EARLY AS 12 NOON.", "ref": "1477700001"}, "type": "Feature"}
{"geometry": {"coordinates": [-78.252201639, 42.392310499], "type": "Point"}, "id": "uAJN79uXEwWo5-aZKZMP6T4vJNs=", "properties": {"@spider": "usps_collection_boxes", "addr:city": "RUSHFORD", "addr:country": "US", "addr:full": "9019 MAIN ST", "addr:postcode": "14777", "addr:state": "NY", "brand": "USPS", "collection_times": "Mo-Fr 16:45; Sa 12:00", "name": "USPS COLLECTION BOX - PO LOBBY", "note": "ON 12/24 AND 12/31, THIS BOX MAY BE COLLECTED AS EARLY AS 12 NOON.", "ref": "1477700004"}, "type": "Feature"}
{"geometry": {"coordinates": [-78.478681696, 42.080349506], "type": "Point"}, "id": "5Fu9LL37QAD2q5mwNA1CmY74LP4=", "properties": {"@spider": "usps_collection_boxes", "addr:city": "ST BONAS", "addr:country": "US", "addr:full": "3261 W STATE RD", "addr:postcode": "14778", "addr:state": "NY", "brand": "USPS", "collection_times": "Mo-Fr 16:15; Sa 12:00", "name": "USPS COLLECTION BOX - BLUE BOX", "note": "ON 12/24 AND 12/31, THIS BOX MAY BE COLLECTED AS EARLY AS 12 NOON.", "ref": "1477800002"}, "type": "Feature"}
{"geometry": {"coordinates": [-78.478681696, 42.080349506], "type": "Point"}, "id": "W6ahW-BpJv-Lp6APrMJX2_c1-Vc=", "properties": {"@spider": "usps_collection_boxes", "addr:city": "ST BONAS", "addr:country": "US", "addr:full": "3261 W STATE RD", "addr:postcode": "14778", "addr:state": "NY", "brand": "USPS", "collection_times": "Mo-Fr 16:30; Sa 12:00", "name": "USPS COLLECTION BOX - PO LOBBY", "note": "ON 12/24 AND 12/31, THIS BOX MAY BE COLLECTED AS EARLY AS 12 NOON.", "ref": "1477800005"}, "type": "Feature"}
{"geometry": {"coordinates": [-78.716871931, 42.159004504], "type": "Point"}, "id": "G8y4CLFCm448K6kKX5pso1DLD_w=", "properties": {"@spider": "usps_collection_boxes", "addr:city": "SALAMANCA", "addr:country": "US", "addr:full": "35 CHESTNUT ST", "addr:postcode": "14779", "addr:state": "NY", "brand": "USPS", "collection_times": "Mo-Sa 17:00", "name": "USPS COLLECTION BOX - BLUE BOX", "note": "ON 12/24 AND 12/31, THIS BOX MAY BE COLLECTED AS EARLY AS 12 NOON.", "ref": "1477900001"}, "type": "Feature"}
{"geometry": {"coordinates": [-78.707767955, 42.156809302], "type": "Point"}, "id": "csXbJgHl_x03E1w6MS2-WvEa_MU=", "properties": {"@spider": "usps_collection_boxes", "addr:city": "SALAMANCA", "addr:country": "US", "addr:full": "225 WILDWOOD AVE", "addr:postcode": "14779", "addr:state": "NY", "brand": "USPS", "collection_times": "Mo-Sa 12:00", "name": "USPS COLLECTION BOX - BLUE BOX", "ref": "1477900006"}, "type": "Feature"}
{"geometry": {"coordinates": [-78.714896422, 42.158546224], "type": "Point"}, "id": "jDtkMeH5Ir49RzcDvxFSLlT_VYQ=", "properties": {"@spider": "usps_collection_boxes", "addr:city": "SALAMANCA", "addr:country": "US", "addr:full": "100 MAIN ST", "addr:postcode": "14779", "addr:state": "NY", "brand": "USPS", "collection_times": "Mo-Sa 12:00", "name": "USPS COLLECTION BOX - BLUE BOX", "ref": "1477900008"}, "type": "Feature"}
{"geometry": {"coordinates": [-78.7157567951, 42.1561571066], "type": "Point"}, "id": "8ec1kMFq-lyt0dEpYW7hBP4n_Zo=", "properties": {"@spider": "usps_collection_boxes", "addr:city": "SALAMANCA", "addr:country": "US", "addr:full": "41 MAIN ST", "addr:postcode": "14779", "addr:state": "NY", "brand": "USPS", "collection_times": "Mo-Sa 12:00", "name": "USPS COLLECTION BOX - BLUE BOX", "ref": "1477900014"}, "type": "Feature"}
{"geometry": {"coordinates": [-78.723746811, 42.156349605], "type": "Point"}, "id": "wlP5Itzt8iiaLD9WC0DmGc3A2pg=", "properties": {"@spider": "usps_collection_boxes", "addr:city": "SALAMANCA", "addr:country": "US", "addr:full": "218 BROAD ST", "addr:postcode": "14779", "addr:state": "NY", "brand": "USPS", "collection_times": "Mo-Sa 12:00", "name": "USPS COLLECTION BOX - BLUE BOX", "ref": "1477900019"}, "type": "Feature"}
{"geometry": {"coordinates": [-78.736734698, 42.161272793], "type": "Point"}, "id": "SkP1N2C9k2BNRL9Q8BmR-dAZJdU=", "properties": {"@spider": "usps_collection_boxes", "addr:city": "SALAMANCA", "addr:country": "US", "addr:full": "50 IROQUOIS DR", "addr:postcode": "14779", "addr:state": "NY", "brand": "USPS", "collection_times": "Mo-Sa 12:00", "name": "USPS COLLECTION BOX - BLUE BOX", "ref": "1477900022"}, "type": "Feature"}
{"geometry": {"coordinates": [-78.716742935, 42.158987397], "type": "Point"}, "id": "9Tj6Kw9MbeZlAGRxMjcYK8AscKI=", "properties": {"@spider": "usps_collection_boxes", "addr:city": "SALAMANCA", "addr:country": "US", "addr:full": "40 CHESTNUT ST", "addr:postcode": "14779", "addr:state": "NY", "brand": "USPS", "collection_times": "Mo-Sa 17:00", "name": "USPS COLLECTION BOX - BLUE BOX", "note": "ON 12/24 AND 12/31, THIS BOX MAY BE COLLECTED AS EARLY AS 12 NOON.", "ref": "1477900028"}, "type": "Feature"}
{"geometry": {"coordinates": [-78.735527443, 42.1581656949], "type": "Point"}, "id": "nGe7Ph8uy9b6i5kZX95IYJH-pQQ=", "properties": {"@spider": "usps_collection_boxes", "addr:city": "SALAMANCA", "addr:country": "US", "addr:full": "545 BROAD ST", "addr:postcode": "14779", "addr:state": "NY", "brand": "USPS", "collection_times": "Mo-Sa 12:00", "name": "USPS COLLECTION BOX - BLUE BOX", "ref": "1477900029"}, "type": "Feature"}
{"geometry": {"coordinates": [-78.767754517, 42.151464467], "type": "Point"}, "id": "iNVN8yY6_0GfJEtuy-lth16Ug98=", "properties": {"@spider": "usps_collection_boxes", "addr:city": "SALAMANCA", "addr:country": "US", "addr:full": "3582 CENTER RD", "addr:postcode": "14779", "addr:state": "NY", "brand": "USPS", "collection_times": "Mo-Sa 12:00", "name": "USPS COLLECTION BOX - BLUE BOX", "ref": "1477900031"}, "type": "Feature"}
{"geometry": {"coordinates": [-78.716871931, 42.159004504], "type": "Point"}, "id": "cgFMfY99tH3B82IUnDWmuuVRza8=", "properties": {"@spider": "usps_collection_boxes", "addr:city": "SALAMANCA", "addr:country": "US", "addr:full": "35 CHESTNUT ST", "addr:postcode": "14779", "addr:state": "NY", "brand": "USPS", "collection_times": "Mo-Fr 17:00; Sa 12:00", "name": "USPS COLLECTION BOX - PO LOBBY", "note": "ON 12/24 AND 12/31, THIS BOX MAY BE COLLECTED AS EARLY AS 12 NOON.", "ref": "1477900033"}, "type": "Feature"}
{"geometry": {"coordinates": [-79.595209045, 42.159869864], "type": "Point"}, "id": "YGM7GQMXUmi5tIBQkKctx0H2tfg=", "properties": {"@spider": "usps_collection_boxes", "addr:city": "SHERMAN", "addr:country": "US", "addr:full": "109 MILLER ST", "addr:postcode": "14781", "addr:state": "NY", "brand": "USPS", "collection_times": "Mo-Fr 16:45; Sa 12:00", "name": "USPS COLLECTION BOX - BLUE BOX", "note": "ON 12/24 AND 12/31, THIS BOX MAY BE COLLECTED AS EARLY AS 12 NOON.", "ref": "1478100001"}, "type": "Feature"}
{"geometry": {"coordinates": [-79.595209045, 42.159869864], "type": "Point"}, "id": "A0dx297ebKeop0WuPs9HrdZvSDE=", "properties": {"@spider": "usps_collection_boxes", "addr:city": "SHERMAN", "addr:country": "US", "addr:full": "109 MILLER ST", "addr:postcode": "14781", "addr:state": "NY", "brand": "USPS", "collection_times": "Mo-Fr 17:00; Sa 12:00", "name": "USPS COLLECTION BOX - PO LOBBY", "note": "ON 12/24 AND 12/31, THIS BOX MAY BE COLLECTED AS EARLY AS 12 NOON.", "ref": "1478100005"}, "type": "Feature"}
{"geometry": {"coordinates": [-79.26074861, 42.264044729], "type": "Point"}, "id": "GI3JaKazE92ft32M5A60dJPTcCA=", "properties": {"@spider": "usps_collection_boxes", "addr:city": "SINCLAIRVILLE", "addr:country": "US", "addr:full": "11 MAIN ST", "addr:postcode": "14782", "addr:state": "NY", "brand": "USPS", "collection_times": "Mo-Fr 15:15; Sa 12:00", "name": "USPS COLLECTION BOX - BLUE BOX", "note": "ON 12/24 AND 12/31, THIS BOX MAY BE COLLECTED AS EARLY AS 12 NOON.", "ref": "1478200001"}, "type": "Feature"}
{"geometry": {"coordinates": [-79.26074861, 42.264044729], "type": "Point"}, "id": "3VW2IZrLNuao5TiBapxUck47wGI=", "properties": {"@spider": "usps_collection_boxes", "addr:city": "SINCLAIRVILLE", "addr:country": "US", "addr:full": "11 MAIN ST", "addr:postcode": "14782", "addr:state": "NY", "brand": "USPS", "collection_times": "Mo-Fr 15:15; Sa 12:00", "name": "USPS COLLECTION BOX - PO LOBBY", "note": "ON 12/24 AND 12/31, THIS BOX MAY BE COLLECTED AS EARLY AS 12 NOON.", "ref": "1478200003"}, "type": "Feature"}
{"geometry": {"coordinates": [-79.26074861, 42.264044729], "type": "Point"}, "id": "ekqbipBRzoAhRQOy4hWoOdBd2G4=", "properties": {"@spider": "usps_collection_boxes", "addr:city": "SINCLAIRVILLE", "addr:country": "US", "addr:full": "11 MAIN ST", "addr:postcode": "14782", "addr:state": "NY", "brand": "USPS", "collection_times": "Mo-Fr 15:15; Sa 12:00", "name": "USPS COLLECTION BOX - PO LOBBY", "note": "ON 12/24 AND 12/31, THIS BOX MAY BE COLLECTED AS EARLY AS 12 NOON.", "ref": "1478200005"}, "type": "Feature"}
{"geometry": {"coordinates": [-78.903656105, 42.108235725], "type": "Point"}, "id": "jPmz7-oVgx_FiDOuoh2Prv4tPNI=", "properties": {"@spider": "usps_collection_boxes", "addr:city": "STEAMBURG", "addr:country": "US", "addr:full": "2560 ROUTE 394", "addr:postcode": "14783", "addr:state": "NY", "brand": "USPS", "collection_times": "Mo-Fr 16:45; Sa 11:45", "name": "USPS COLLECTION BOX - BLUE BOX", "note": "ON 12/24 AND 12/31, THIS BOX MAY BE COLLECTED AS EARLY AS 12 NOON.", "ref": "1478300001"}, "type": "Feature"}
{"geometry": {"coordinates": [-78.9036561049, 42.1082357251], "type": "Point"}, "id": "Pz5ZPIry9wF23Ru_ZyDzT92jmJ4=", "properties": {"@spider": "usps_collection_boxes", "addr:city": "STEAMBURG", "addr:country": "US", "addr:full": "2560 ROUTE 394", "addr:postcode": "14783", "addr:state": "NY", "brand": "USPS", "collection_times": "Mo-Fr 16:45; Sa 11:45", "name": "USPS COLLECTION BOX - PO LOBBY", "note": "ON 12/24 AND 12/31, THIS BOX MAY BE COLLECTED AS EARLY AS 12 NOON.", "ref": "1478300004"}, "type": "Feature"}
{"geometry": {"coordinates": [-79.355446279, 42.3161407399], "type": "Point"}, "id": "quAwS5on5_w4_aNFxMg-A1QhWK4=", "properties": {"@spider": "usps_collection_boxes", "addr:city": "STOCKTON", "addr:country": "US", "addr:full": "7254 ROUTE 380", "addr:postcode": "14784", "addr:state": "NY", "brand": "USPS", "collection_times": "Mo-Fr 12:00; Sa 11:30", "name": "USPS COLLECTION BOX - BLUE BOX", "ref": "1478400001"}, "type": "Feature"}
{"geometry": {"coordinates": [-79.355446279, 42.3161407399], "type": "Point"}, "id": "WHuTRXSik_zWDrCncAGxKP1aitM=", "properties": {"@spider": "usps_collection_boxes", "addr:city": "STOCKTON", "addr:country": "US", "addr:full": "7254 ROUTE 380", "addr:postcode": "14784", "addr:state": "NY", "brand": "USPS", "collection_times": "Mo-Sa 12:00", "name": "USPS COLLECTION BOX - PO LOBBY", "ref": "1478400004"}, "type": "Feature"}
{"geometry": {"coordinates": [-79.406339694, 42.155248014], "type": "Point"}, "id": "AqQOClpwkCbmg0PpFpvh4OuLeTM=", "properties": {"@spider": "usps_collection_boxes", "addr:city": "STOW", "addr:country": "US", "addr:full": "3479 OLD BRIDGE RD", "addr:postcode": "14785", "addr:state": "NY", "brand": "USPS", "collection_times": "Mo-Fr 12:45; Sa 12:00", "name": "USPS COLLECTION BOX - BLUE BOX", "note": "ON 12/24 AND 12/31, THIS BOX MAY BE COLLECTED AS EARLY AS 12 NOON.", "ref": "1478500001"}, "type": "Feature"}
{"geometry": {"coordinates": [-79.406339694, 42.155248014], "type": "Point"}, "id": "L4dhziAUarzH94ECyzRBFqsAQAM=", "properties": {"@spider": "usps_collection_boxes", "addr:city": "STOW", "addr:country": "US", "addr:full": "3479 OLD BRIDGE RD", "addr:postcode": "14785", "addr:state": "NY", "brand": "USPS", "collection_times": "Mo-Fr 13:00; Sa 12:00", "name": "USPS COLLECTION BOX - PO LOBBY", "note": "ON 12/24 AND 12/31, THIS BOX MAY BE COLLECTED AS EARLY AS 12 NOON.", "ref": "1478500004"}, "type": "Feature"}
{"geometry": {"coordinates": [-78.2427276648, 42.1276613375], "type": "Point"}, "id": "nRDiJSttIh2cGj5-uyB_SNVRyGE=", "properties": {"@spider": "usps_collection_boxes", "addr:city": "W CLARKSVILLE", "addr:country": "US", "addr:full": "2941 ROUTE 305", "addr:postcode": "14786", "addr:state": "NY", "brand": "USPS", "collection_times": "Mo-Fr 14:00; Sa 11:45", "name": "USPS COLLECTION BOX - BLUE BOX", "note": "ON 12/24 AND 12/31, THIS BOX MAY BE COLLECTED AS EARLY AS 12 NOON.", "ref": "1478600001"}, "type": "Feature"}
{"geometry": {"coordinates": [-78.242727665, 42.127661338], "type": "Point"}, "id": "Z_g6Zd-N7cn1Ps_kfft2MaY5vD8=", "properties": {"@spider": "usps_collection_boxes", "addr:city": "W CLARKSVILLE", "addr:country": "US", "addr:full": "2941 ROUTE 305", "addr:postcode": "14786", "addr:state": "NY", "brand": "USPS", "collection_times": "Mo-Fr 14:00; Sa 12:15", "name": "USPS COLLECTION BOX - PO LOBBY", "note": "ON 12/24 AND 12/31, THIS BOX MAY BE COLLECTED AS EARLY AS 12 NOON.", "ref": "1478600004"}, "type": "Feature"}
{"geometry": {"coordinates": [-79.572883224, 42.32445171], "type": "Point"}, "id": "PPEeRlb0kkOKQzuCc-OEvMYwxcg=", "properties": {"@spider": "usps_collection_boxes", "addr:city": "WESTFIELD", "addr:country": "US", "addr:full": "7 ACADEMY ST", "addr:postcode": "14787", "addr:state": "NY", "brand": "USPS", "collection_times": "Mo-Fr 17:00; Sa 12:30", "name": "USPS COLLECTION BOX - BLUE BOX", "note": "ON 12/24 AND 12/31, THIS BOX MAY BE COLLECTED AS EARLY AS 12 NOON.", "ref": "1478700001"}, "type": "Feature"}
{"geometry": {"coordinates": [-79.572883224, 42.32445171], "type": "Point"}, "id": "lgCUHgKOyybDodCabRTrqwyx-fQ=", "properties": {"@spider": "usps_collection_boxes", "addr:city": "WESTFIELD", "addr:country": "US", "addr:full": "7 ACADEMY ST", "addr:postcode": "14787", "addr:state": "NY", "brand": "USPS", "collection_times": "Mo-Fr 17:00; Sa 12:30", "name": "USPS COLLECTION BOX - PO LOBBY", "note": "ON 12/24 AND 12/31, THIS BOX MAY BE COLLECTED AS EARLY AS 12 NOON.", "ref": "1478700002"}, "type": "Feature"}
{"geometry": {"coordinates": [-79.5763497127, 42.3219378804], "type": "Point"}, "id": "eCISGa5UCBKDQ7gEqQ4jf_mKP-k=", "properties": {"@spider": "usps_collection_boxes", "addr:city": "WESTFIELD", "addr:country": "US", "addr:full": "23 ELM ST", "addr:postcode": "14787", "addr:state": "NY", "brand": "USPS", "collection_times": "Mo-Fr 14:30; Sa 13:30", "name": "USPS COLLECTION BOX - BLUE BOX", "note": "ON 12/24 AND 12/31, THIS BOX MAY BE COLLECTED AS EARLY AS 12 NOON.", "ref": "1478700003"}, "type": "Feature"}
{"geometry": {"coordinates": [-79.5779483299, 42.3221045229], "type": "Point"}, "id": "QMDyzHaouJTPU38Hb2PfcBIl7_4=", "properties": {"@spider": "usps_collection_boxes", "addr:city": "WESTFIELD", "addr:country": "US", "addr:full": "1 E MAIN ST", "addr:postcode": "14787", "addr:state": "NY", "brand": "USPS", "collection_times": "Mo-Fr 14:30; Sa 13:30", "name": "USPS COLLECTION BOX - BLUE BOX", "note": "ON 12/24 AND 12/31, THIS BOX MAY BE COLLECTED AS EARLY AS 12 NOON.", "ref": "1478700004"}, "type": "Feature"}
{"geometry": {"coordinates": [-79.5735704104, 42.3251005268], "type": "Point"}, "id": "wqAMTKCKZ78a7LyIFuYh10wIU18=", "properties": {"@spider": "usps_collection_boxes", "addr:city": "WESTFIELD", "addr:country": "US", "addr:full": "121 E MAIN ST", "addr:postcode": "14787", "addr:state": "NY", "brand": "USPS", "collection_times": "Mo-Fr 14:30; Sa 13:30", "name": "USPS COLLECTION BOX - BLUE BOX", "note": "ON 12/24 AND 12/31, THIS BOX MAY BE COLLECTED AS EARLY AS 12 NOON.", "ref": "1478700006"}, "type": "Feature"}
{"geometry": {"coordinates": [-79.572883224, 42.32445171], "type": "Point"}, "id": "Z1x2Q5evjbkgZjIbMQ6IJXVj_iU=", "properties": {"@spider": "usps_collection_boxes", "addr:city": "WESTFIELD", "addr:country": "US", "addr:full": "7 ACADEMY ST", "addr:postcode": "14787", "addr:state": "NY", "brand": "USPS", "collection_times": "Mo-Fr 17:00; Sa 12:00", "name": "USPS COLLECTION BOX - PO LOBBY", "note": "ON 12/24 AND 12/31, THIS BOX MAY BE COLLECTED AS EARLY AS 12 NOON.", "ref": "1478700009"}, "type": "Feature"}
{"geometry": {"coordinates": [-78.374773717, 42.060623439], "type": "Point"}, "id": "YlLVrDrN80cOBPl-44s_5LH09wQ=", "properties": {"@spider": "usps_collection_boxes", "addr:city": "WESTONS MILLS", "addr:country": "US", "addr:full": "1319 OLEAN PORTVILLE RD", "addr:postcode": "14788", "addr:state": "NY", "brand": "USPS", "collection_times": "Mo-Fr 17:00; Sa 11:45", "name": "USPS COLLECTION BOX - BLUE BOX", "note": "ON 12/24 AND 12/31, THIS BOX MAY BE COLLECTED AS EARLY AS 12 NOON.", "ref": "1478800001"}, "type": "Feature"}
{"geometry": {"coordinates": [-78.374773717, 42.060623439], "type": "Point"}, "id": "SZk0i_LIvHa9EvNAU2IvsH8OvNM=", "properties": {"@spider": "usps_collection_boxes", "addr:city": "WESTONS MILLS", "addr:country": "US", "addr:full": "1319 OLEAN PORTVILLE RD", "addr:postcode": "14788", "addr:state": "NY", "brand": "USPS", "collection_times": "Mo-Fr 17:00; Sa 12:00", "name": "USPS COLLECTION BOX - PO LOBBY", "note": "ON 12/24 AND 12/31, THIS BOX MAY BE COLLECTED AS EARLY AS 12 NOON.", "ref": "1478800005"}, "type": "Feature"}
