{"dataset_attributes": {"@spider": "usps_collection_boxes"}, "geometry": {"coordinates": [-76.725158, 42.313362], "type": "Point"}, "id": "OigjYTzCxdrgnY-kxnve9WDRT-k=", "properties": {"@spider": "usps_collection_boxes", "addr:city": "ALPINE", "addr:country": "US", "addr:full": "5908 COUNTY ROAD 11", "addr:postcode": "14805", "addr:state": "NY", "amenity": "post_box", "brand": "United States Postal Service", "brand:wikidata": "Q668687", "collection_times": "Mo-Fr 12:30; Sa 11:45", "name": "USPS COLLECTION BOX - BLUE BOX", "note": "ON 12/24 AND 12/31, THIS BOX MAY BE COLLECTED AS EARLY AS 12 NOON.", "nsi_id": "unitedstatespostalservice-a77078", "operator": "United States Postal Service", "operator:short": "USPS", "operator:type": "public", "operator:wikidata": "Q668687", "ref": "1480500001"}, "type": "Feature"}
{"dataset_attributes": {"@spider": "usps_collection_boxes"}, "geometry": {"coordinates": [-76.721657225, 42.310276147], "type": "Point"}, "id": "9hlS4MF5DQkSlAIv18NkveG4D6o=", "properties": {"@spider": "usps_collection_boxes", "addr:city": "ALPINE", "addr:country": "US", "addr:full": "5908 COUNTY ROAD 11", "addr:postcode": "14805", "addr:state": "NY", "amenity": "post_box", "brand": "United States Postal Service", "brand:wikidata": "Q668687", "collection_times": "Mo-Fr 12:30; Sa 12:00", "name": "USPS COLLECTION BOX - PO LOBBY", "note": "ON 12/24 AND 12/31, THIS BOX MAY BE COLLECTED AS EARLY AS 12 NOON.", "nsi_id": "unitedstatespostalservice-a77078", "operator": "United States Postal Service", "operator:short": "USPS", "operator:type": "public", "operator:wikidata": "Q668687", "ref": "1480500004"}, "type": "Feature"}
{"dataset_attributes": {"@spider": "usps_collection_boxes"}, "geometry": {"coordinates": [-76.934687, 42.141135], "type": "Point"}, "id": "jA3j3BjPZsoteCzPbAbASXiCaWQ=", "properties": {"@spider": "usps_collection_boxes", "addr:city": "BIG FLATS", "addr:country": "US", "addr:full": "471 MAPLE ST", "addr:postcode": "14814", "addr:state": "NY", "amenity": "post_box", "brand": "United States Postal Service", "brand:wikidata": "Q668687", "collection_times": "Mo-Fr 17:00; Sa 12:00", "name": "USPS COLLECTION BOX - BLUE BOX", "note": "ON 12/24 AND 12/31, THIS BOX MAY BE COLLECTED AS EARLY AS 12 NOON.", "nsi_id": "unitedstatespostalservice-a77078", "operator": "United States Postal Service", "operator:short": "USPS", "operator:type": "public", "operator:wikidata": "Q668687", "ref": "1481400001"}, "type": "Feature"}
{"dataset_attributes": {"@spider": "usps_collection_boxes"}, "geometry": {"coordinates": [-76.93481, 42.14111], "type": "Point"}, "id": "YnHck1C-sfonoVLoTvIH5yYThDM=", "properties": {"@spider": "usps_collection_boxes", "addr:city": "BIG FLATS", "addr:country": "US", "addr:full": "471 MAPLE ST", "addr:postcode": "14814", "addr:state": "NY", "amenity": "post_box", "brand": "United States Postal Service", "brand:wikidata": "Q668687", "collection_times": "Mo-Fr 17:00; Sa 12:00", "name": "USPS COLLECTION BOX - PO LOBBY", "note": "ON 12/24 AND 12/31, THIS BOX MAY BE COLLECTED AS EARLY AS 12 NOON.", "nsi_id": "unitedstatespostalservice-a77078", "operator": "United States Postal Service", "operator:short": "USPS", "operator:type": "public", "operator:wikidata": "Q668687", "ref": "1481400002"}, "type": "Feature"}
{"dataset_attributes": {"@spider": "usps_collection_boxes"}, "geometry": {"coordinates": [-76.93481, 42.14111], "type": "Point"}, "id": "eci5VDlOB6nnD95TNEJWJZm7Ngc=", "properties": {"@spider": "usps_collection_boxes", "addr:city": "BIG FLATS", "addr:country": "US", "addr:full": "471 MAPLE ST", "addr:postcode": "14814", "addr:state": "NY", "amenity": "post_box", "brand": "United States Postal Service", "brand:wikidata": "Q668687", "collection_times": "Mo-Fr 17:00; Sa 12:00", "name": "USPS COLLECTION BOX - BLUE BOX", "note": "ON 12/24 AND 12/31, THIS BOX MAY BE COLLECTED AS EARLY AS 12 NOON.", "nsi_id": "unitedstatespostalservice-a77078", "operator": "United States Postal Service", "operator:short": "USPS", "operator:type": "public", "operator:wikidata": "Q668687", "ref": "1481400003"}, "type": "Feature"}
{"dataset_attributes": {"@spider": "usps_collection_boxes"}, "geometry": {"coordinates": [-76.934570192, 42.141123512], "type": "Point"}, "id": "P4OFSZiu2rD6HMcwvmYofCN-2X4=", "properties": {"@spider": "usps_collection_boxes", "addr:city": "BIG FLATS", "addr:country": "US", "addr:full": "471 MAPLE ST", "addr:postcode": "14814", "addr:state": "NY", "amenity": "post_box", "brand": "United States Postal Service", "brand:wikidata": "Q668687", "collection_times": "Mo-Fr 17:00; Sa 12:00", "name": "USPS COLLECTION BOX - PO LOBBY", "note": "ON 12/24 AND 12/31, THIS BOX MAY BE COLLECTED AS EARLY AS 12 NOON.", "nsi_id": "unitedstatespostalservice-a77078", "operator": "United States Postal Service", "operator:short": "USPS", "operator:type": "public", "operator:wikidata": "Q668687", "ref": "1481400005"}, "type": "Feature"}
{"dataset_attributes": {"@spider": "usps_collection_boxes"}, "geometry": {"coordinates": [-76.735274, 42.173579], "type": "Point"}, "id": "lZsCchS4HkS9BXE5hhnxLqRdyb8=", "properties": {"@spider": "usps_collection_boxes", "addr:city": "BREESPORT", "addr:country": "US", "addr:full": "657 MAIN ST", "addr:postcode": "14816", "addr:state": "NY", "amenity": "post_box", "brand": "United States Postal Service", "brand:wikidata": "Q668687", "collection_times": "Mo-Fr 16:45; Sa 11:45", "name": "USPS COLLECTION BOX - BLUE BOX", "note": "ON 12/24 AND 12/31, THIS BOX MAY BE COLLECTED AS EARLY AS 12 NOON.", "nsi_id": "unitedstatespostalservice-a77078", "operator": "United States Postal Service", "operator:short": "USPS", "operator:type": "public", "operator:wikidata": "Q668687", "ref": "1481600001"}, "type": "Feature"}
{"dataset_attributes": {"@spider": "usps_collection_boxes"}, "geometry": {"coordinates": [-76.735388, 42.173564], "type": "Point"}, "id": "RwX8qfsvX98PICvuU2K3dmSti5Q=", "properties": {"@spider": "usps_collection_boxes", "addr:city": "BREESPORT", "addr:country": "US", "addr:full": "657 MAIN ST", "addr:postcode": "14816", "addr:state": "NY", "amenity": "post_box", "brand": "United States Postal Service", "brand:wikidata": "Q668687", "collection_times": "Mo-Fr 16:45; Sa 11:45", "name": "USPS COLLECTION BOX - PO LOBBY", "note": "ON 12/24 AND 12/31, THIS BOX MAY BE COLLECTED AS EARLY AS 12 NOON.", "nsi_id": "unitedstatespostalservice-a77078", "operator": "United States Postal Service", "operator:short": "USPS", "operator:type": "public", "operator:wikidata": "Q668687", "ref": "1481600002"}, "type": "Feature"}
{"dataset_attributes": {"@spider": "usps_collection_boxes"}, "geometry": {"coordinates": [-76.73525099, 42.173573406], "type": "Point"}, "id": "nZycY6TOpPythAttGsODftEVnG4=", "properties": {"@spider": "usps_collection_boxes", "addr:city": "BREESPORT", "addr:country": "US", "addr:full": "657 MAIN ST", "addr:postcode": "14816", "addr:state": "NY", "amenity": "post_box", "brand": "United States Postal Service", "brand:wikidata": "Q668687", "collection_times": "Mo-Fr 17:00; Sa 12:00", "name": "USPS COLLECTION BOX - PO LOBBY", "note": "ON 12/24 AND 12/31, THIS BOX MAY BE COLLECTED AS EARLY AS 12 NOON.", "nsi_id": "unitedstatespostalservice-a77078", "operator": "United States Postal Service", "operator:short": "USPS", "operator:type": "public", "operator:wikidata": "Q668687", "ref": "1481600004"}, "type": "Feature"}
{"dataset_attributes": {"@spider": "usps_collection_boxes"}, "geometry": {"coordinates": [-76.399519, 42.382459], "type": "Point"}, "id": "624xxvq7sTDBDrMJXRdnAmbBotA=", "properties": {"@spider": "usps_collection_boxes", "addr:city": "BROOKTONDALE", "addr:country": "US", "addr:full": "456 BROOKTONDALE RD", "addr:postcode": "14817", "addr:state": "NY", "amenity": "post_box", "brand": "United States Postal Service", "brand:wikidata": "Q668687", "collection_times": "Mo-Fr 16:45; Sa 11:45", "name": "USPS COLLECTION BOX - BLUE BOX", "note": "ON 12/24 AND 12/31, THIS BOX MAY BE COLLECTED AS EARLY AS 12 NOON.", "nsi_id": "unitedstatespostalservice-a77078", "operator": "United States Postal Service", "operator:short": "USPS", "operator:type": "public", "operator:wikidata": "Q668687", "ref": "1481700003"}, "type": "Feature"}
{"dataset_attributes": {"@spider": "usps_collection_boxes"}, "geometry": {"coordinates": [-76.399518, 42.382489], "type": "Point"}, "id": "J3ZKHY5WKTA6iwU___ENwU_gsZM=", "properties": {"@spider": "usps_collection_boxes", "addr:city": "BROOKTONDALE", "addr:country": "US", "addr:full": "456 BROOKTONDALE RD", "addr:postcode": "14817", "addr:state": "NY", "amenity": "post_box", "brand": "United States Postal Service", "brand:wikidata": "Q668687", "collection_times": "Mo-Fr 16:45; Sa 11:45", "name": "USPS COLLECTION BOX - PO LOBBY", "note": "ON 12/24 AND 12/31, THIS BOX MAY BE COLLECTED AS EARLY AS 12 NOON.", "nsi_id": "unitedstatespostalservice-a77078", "operator": "United States Postal Service", "operator:short": "USPS", "operator:type": "public", "operator:wikidata": "Q668687", "ref": "1481700004"}, "type": "Feature"}
{"dataset_attributes": {"@spider": "usps_collection_boxes"}, "geometry": {"coordinates": [-76.399491911, 42.382443399], "type": "Point"}, "id": "kwfaf5Ad84Hm4s5g0kyN3N73SC4=", "properties": {"@spider": "usps_collection_boxes", "addr:city": "BROOKTONDALE", "addr:country": "US", "addr:full": "456 BROOKTONDALE RD", "addr:postcode": "14817", "addr:state": "NY", "amenity": "post_box", "brand": "United States Postal Service", "brand:wikidata": "Q668687", "collection_times": "Mo-Fr 17:00; Sa 12:00", "name": "USPS COLLECTION BOX - PO LOBBY", "note": "ON 12/24 AND 12/31, THIS BOX MAY BE COLLECTED AS EARLY AS 12 NOON.", "nsi_id": "unitedstatespostalservice-a77078", "operator": "United States Postal Service", "operator:short": "USPS", "operator:type": "public", "operator:wikidata": "Q668687", "ref": "1481700006"}, "type": "Feature"}
{"dataset_attributes": {"@spider": "usps_collection_boxes"}, "geometry": {"coordinates": [-76.847906, 42.420243], "type": "Point"}, "id": "UdNQMcPpEfTi9XXDIuB09k5gAFc=", "properties": {"@spider": "usps_collection_boxes", "addr:city": "BURDETT", "addr:country": "US", "addr:full": "3986 LAKE AVE", "addr:postcode": "14818", "addr:state": "NY", "amenity": "post_box", "brand": "United States Postal Service", "brand:wikidata": "Q668687", "collection_times": "Mo-Fr 15:30; Sa 11:30", "name": "USPS COLLECTION BOX - BLUE BOX", "note": "ON 12/24 AND 12/31, THIS BOX MAY BE COLLECTED AS EARLY AS 12 NOON.", "nsi_id": "unitedstatespostalservice-a77078", "operator": "United States Postal Service", "operator:short": "USPS", "operator:type": "public", "operator:wikidata": "Q668687", "ref": "1481800001"}, "type": "Feature"}
{"dataset_attributes": {"@spider": "usps_collection_boxes"}, "geometry": {"coordinates": [-76.848011, 42.420268], "type": "Point"}, "id": "MxTDZIMCLQhVNzSrHpLWaXENp9Q=", "properties": {"@spider": "usps_collection_boxes", "addr:city": "BURDETT", "addr:country": "US", "addr:full": "3986 LAKE AVE", "addr:postcode": "14818", "addr:state": "NY", "amenity": "post_box", "brand": "United States Postal Service", "brand:wikidata": "Q668687", "collection_times": "Mo-Fr 15:30; Sa 12:00", "name": "USPS COLLECTION BOX - PO LOBBY", "note": "ON 12/24 AND 12/31, THIS BOX MAY BE COLLECTED AS EARLY AS 12 NOON.", "nsi_id": "unitedstatespostalservice-a77078", "operator": "United States Postal Service", "operator:short": "USPS", "operator:type": "public", "operator:wikidata": "Q668687", "ref": "1481800002"}, "type": "Feature"}
{"dataset_attributes": {"@spider": "usps_collection_boxes"}, "geometry": {"coordinates": [-76.847913472, 42.420238473], "type": "Point"}, "id": "axMBGqhGW6L_oWuOL89eusFSZhk=", "properties": {"@spider": "usps_collection_boxes", "addr:city": "BURDETT", "addr:country": "US", "addr:full": "3986 LAKE AVE", "addr:postcode": "14818", "addr:state": "NY", "amenity": "post_box", "brand": "United States Postal Service", "brand:wikidata": "Q668687", "collection_times": "Mo-Fr 15:30; Sa 12:00", "name": "USPS COLLECTION BOX - PO LOBBY", "note": "ON 12/24 AND 12/31, THIS BOX MAY BE COLLECTED AS EARLY AS 12 NOON.", "nsi_id": "unitedstatespostalservice-a77078", "operator": "United States Postal Service", "operator:short": "USPS", "operator:type": "public", "operator:wikidata": "Q668687", "ref": "1481800004"}, "type": "Feature"}
{"dataset_attributes": {"@spider": "usps_collection_boxes"}, "geometry": {"coordinates": [-76.694911, 42.279895], "type": "Point"}, "id": "iY4k8gVYTzP7GQ736Wa-xDQw3vU=", "properties": {"@spider": "usps_collection_boxes", "addr:city": "CAYUTA", "addr:country": "US", "addr:full": "6338 ROUTE 224", "addr:postcode": "14824", "addr:state": "NY", "amenity": "post_box", "brand": "United States Postal Service", "brand:wikidata": "Q668687", "collection_times": "Mo-Fr 12:30; Sa 11:45", "name": "USPS COLLECTION BOX - BLUE BOX", "note": "ON 12/24 AND 12/31, THIS BOX MAY BE COLLECTED AS EARLY AS 12 NOON.", "nsi_id": "unitedstatespostalservice-a77078", "operator": "United States Postal Service", "operator:short": "USPS", "operator:type": "public", "operator:wikidata": "Q668687", "ref": "1482400001"}, "type": "Feature"}
{"dataset_attributes": {"@spider": "usps_collection_boxes"}, "geometry": {"coordinates": [-76.623536, 42.008296], "type": "Point"}, "id": "OQyu7Jp79zJXQusr5xQY6bujNwM=", "properties": {"@spider": "usps_collection_boxes", "addr:city": "CHEMUNG", "addr:country": "US", "addr:full": "733 MAIN ST", "addr:postcode": "14825", "addr:state": "NY", "amenity": "post_box", "brand": "United States Postal Service", "brand:wikidata": "Q668687", "collection_times": "Mo-Fr 16:45; Sa 11:45", "name": "USPS COLLECTION BOX - BLUE BOX", "note": "ON 12/24 AND 12/31, THIS BOX MAY BE COLLECTED AS EARLY AS 12 NOON.", "nsi_id": "unitedstatespostalservice-a77078", "operator": "United States Postal Service", "operator:short": "USPS", "operator:type": "public", "operator:wikidata": "Q668687", "ref": "1482500001"}, "type": "Feature"}
{"dataset_attributes": {"@spider": "usps_collection_boxes"}, "geometry": {"coordinates": [-76.623638, 42.008351], "type": "Point"}, "id": "dOeKCik4psCCxoR2ZsnHq49BZZE=", "properties": {"@spider": "usps_collection_boxes", "addr:city": "CHEMUNG", "addr:country": "US", "addr:full": "733 MAIN ST", "addr:postcode": "14825", "addr:state": "NY", "amenity": "post_box", "brand": "United States Postal Service", "brand:wikidata": "Q668687", "collection_times": "Mo-Fr 16:45; Sa 11:45", "name": "USPS COLLECTION BOX - PO LOBBY", "note": "ON 12/24 AND 12/31, THIS BOX MAY BE COLLECTED AS EARLY AS 12 NOON.", "nsi_id": "unitedstatespostalservice-a77078", "operator": "United States Postal Service", "operator:short": "USPS", "operator:type": "public", "operator:wikidata": "Q668687", "ref": "1482500002"}, "type": "Feature"}
{"dataset_attributes": {"@spider": "usps_collection_boxes"}, "geometry": {"coordinates": [-76.62311683, 42.008211736], "type": "Point"}, "id": "k4akKa7uLzh0oQ2umo1fT-A5GTo=", "properties": {"@spider": "usps_collection_boxes", "addr:city": "CHEMUNG", "addr:country": "US", "addr:full": "733 MAIN ST", "addr:postcode": "14825", "addr:state": "NY", "amenity": "post_box", "brand": "United States Postal Service", "brand:wikidata": "Q668687", "collection_times": "Mo-Fr 16:45; Sa 12:00", "name": "USPS COLLECTION BOX - PO LOBBY", "note": "ON 12/24 AND 12/31, THIS BOX MAY BE COLLECTED AS EARLY AS 12 NOON.", "nsi_id": "unitedstatespostalservice-a77078", "operator": "United States Postal Service", "operator:short": "USPS", "operator:type": "public", "operator:wikidata": "Q668687", "ref": "1482500004"}, "type": "Feature"}
{"dataset_attributes": {"@spider": "usps_collection_boxes"}, "geometry": {"coordinates": [-77.052378, 42.142898], "type": "Point"}, "id": "-PPeNgJtkKbNGLNEWp4DiZEpz1U=", "properties": {"@spider": "usps_collection_boxes", "addr:city": "CORNING", "addr:country": "US", "addr:full": "48 E MARKET ST", "addr:postcode": "14830", "addr:state": "NY", "amenity": "post_box", "brand": "United States Postal Service", "brand:wikidata": "Q668687", "collection_times": "Mo-Sa 10:00", "name": "USPS COLLECTION BOX - BLUE BOX", "nsi_id": "unitedstatespostalservice-a77078", "operator": "United States Postal Service", "operator:short": "USPS", "operator:type": "public", "operator:wikidata": "Q668687", "ref": "1483000005"}, "type": "Feature"}
{"dataset_attributes": {"@spider": "usps_collection_boxes"}, "geometry": {"coordinates": [-77.0650805, 42.151263], "type": "Point"}, "id": "hxPL-xpIofpNooNo9zW-rhymxX4=", "properties": {"@spider": "usps_collection_boxes", "addr:city": "CORNING", "addr:country": "US", "addr:full": "98 W PULTENEY ST", "addr:postcode": "14830", "addr:state": "NY", "amenity": "post_box", "brand": "United States Postal Service", "brand:wikidata": "Q668687", "collection_times": "Mo-Fr 09:30; Sa 09:00", "name": "USPS COLLECTION BOX - BLUE BOX", "nsi_id": "unitedstatespostalservice-a77078", "operator": "United States Postal Service", "operator:short": "USPS", "operator:type": "public", "operator:wikidata": "Q668687", "ref": "1483000023"}, "type": "Feature"}
{"dataset_attributes": {"@spider": "usps_collection_boxes"}, "geometry": {"coordinates": [-77.0607658391, 42.1450951656], "type": "Point"}, "id": "1CEEY25c6ERXnyUc2vPjCDdTqKI=", "properties": {"@spider": "usps_collection_boxes", "addr:city": "CORNING", "addr:country": "US", "addr:full": "24 S BRIDGE ST", "addr:postcode": "14830", "addr:state": "NY", "amenity": "post_box", "brand": "United States Postal Service", "brand:wikidata": "Q668687", "collection_times": "Mo-Sa 10:00", "name": "USPS COLLECTION BOX - BLUE BOX", "nsi_id": "unitedstatespostalservice-a77078", "operator": "United States Postal Service", "operator:short": "USPS", "operator:type": "public", "operator:wikidata": "Q668687", "ref": "1483000042"}, "type": "Feature"}
{"dataset_attributes": {"@spider": "usps_collection_boxes"}, "geometry": {"coordinates": [-77.047846, 42.141441], "type": "Point"}, "id": "5kBBLsK-3uuhBGK4Ibe_axQq3VQ=", "properties": {"@spider": "usps_collection_boxes", "addr:city": "CORNING", "addr:country": "US", "addr:full": "1 NASSER CIVIC CENTER PLZ STE 1", "addr:postcode": "14830", "addr:state": "NY", "amenity": "post_box", "brand": "United States Postal Service", "brand:wikidata": "Q668687", "collection_times": "Mo-Sa 10:00", "name": "USPS COLLECTION BOX - BLUE BOX", "nsi_id": "unitedstatespostalservice-a77078", "operator": "United States Postal Service", "operator:short": "USPS", "operator:type": "public", "operator:wikidata": "Q668687", "ref": "1483000046"}, "type": "Feature"}
{"dataset_attributes": {"@spider": "usps_collection_boxes"}, "geometry": {"coordinates": [-77.0541375, 42.143261], "type": "Point"}, "id": "-xdVcx4-5udEQS4VULnKvhiEhEI=", "properties": {"@spider": "usps_collection_boxes", "addr:city": "CORNING", "addr:country": "US", "addr:full": "5 E MARKET ST", "addr:postcode": "14830", "addr:state": "NY", "amenity": "post_box", "brand": "United States Postal Service", "brand:wikidata": "Q668687", "collection_times": "Mo-Sa 10:00", "name": "USPS COLLECTION BOX - BLUE BOX", "nsi_id": "unitedstatespostalservice-a77078", "operator": "United States Postal Service", "operator:short": "USPS", "operator:type": "public", "operator:wikidata": "Q668687", "ref": "1483000050"}, "type": "Feature"}
{"dataset_attributes": {"@spider": "usps_collection_boxes"}, "geometry": {"coordinates": [-77.0569182268, 42.1428006772], "type": "Point"}, "id": "KDer9RGcdd9vf2c4dNIOYRDUCQw=", "properties": {"@spider": "usps_collection_boxes", "addr:city": "CORNING", "addr:country": "US", "addr:full": "129 WALNUT ST", "addr:postcode": "14830", "addr:state": "NY", "amenity": "post_box", "brand": "United States Postal Service", "brand:wikidata": "Q668687", "collection_times": "Mo-Fr 17:00; Sa 11:30", "name": "USPS COLLECTION BOX - BLUE BOX", "note": "ON 12/24 AND 12/31, THIS BOX MAY BE COLLECTED AS EARLY AS 12 NOON.", "nsi_id": "unitedstatespostalservice-a77078", "operator": "United States Postal Service", "operator:short": "USPS", "operator:type": "public", "operator:wikidata": "Q668687", "ref": "1483000051"}, "type": "Feature"}
{"dataset_attributes": {"@spider": "usps_collection_boxes"}, "geometry": {"coordinates": [-77.05671, 42.155621], "type": "Point"}, "id": "tcx6lgIb7TMkExgyigaCT0hB-Yo=", "properties": {"@spider": "usps_collection_boxes", "addr:city": "CORNING", "addr:country": "US", "addr:full": "198 BAKER ST", "addr:postcode": "14830", "addr:state": "NY", "amenity": "post_box", "brand": "United States Postal Service", "brand:wikidata": "Q668687", "collection_times": "Mo-Sa 17:30", "name": "USPS COLLECTION BOX - BLUE BOX", "note": "ON 12/24 AND 12/31, THIS BOX MAY BE COLLECTED AS EARLY AS 12 NOON.", "nsi_id": "unitedstatespostalservice-a77078", "operator": "United States Postal Service", "operator:short": "USPS", "operator:type": "public", "operator:wikidata": "Q668687", "ref": "1483000054"}, "type": "Feature"}
{"dataset_attributes": {"@spider": "usps_collection_boxes"}, "geometry": {"coordinates": [-77.056747, 42.155711], "type": "Point"}, "id": "KAx8JqgsRfbXHhQYxWLyAunQloY=", "properties": {"@spider": "usps_collection_boxes", "addr:city": "CORNING", "addr:country": "US", "addr:full": "198 BAKER ST", "addr:postcode": "14830", "addr:state": "NY", "amenity": "post_box", "brand": "United States Postal Service", "brand:wikidata": "Q668687", "collection_times": "Mo-Sa 17:30", "name": "USPS COLLECTION BOX - PO LOBBY", "note": "ON 12/24 AND 12/31, THIS BOX MAY BE COLLECTED AS EARLY AS 12 NOON.", "nsi_id": "unitedstatespostalservice-a77078", "operator": "United States Postal Service", "operator:short": "USPS", "operator:type": "public", "operator:wikidata": "Q668687", "ref": "1483000055"}, "type": "Feature"}
{"dataset_attributes": {"@spider": "usps_collection_boxes"}, "geometry": {"coordinates": [-77.0571599, 42.142757], "type": "Point"}, "id": "o7TU88BIr8RLp8Njn8YKkVIdZb0=", "properties": {"@spider": "usps_collection_boxes", "addr:city": "CORNING", "addr:country": "US", "addr:full": "129 WALNUT ST", "addr:postcode": "14830", "addr:state": "NY", "amenity": "post_box", "brand": "United States Postal Service", "brand:wikidata": "Q668687", "collection_times": "Mo-Fr 16:45; Sa 11:15", "name": "USPS COLLECTION BOX - PO LOBBY", "note": "ON 12/24 AND 12/31, THIS BOX MAY BE COLLECTED AS EARLY AS 12 NOON.", "nsi_id": "unitedstatespostalservice-a77078", "operator": "United States Postal Service", "operator:short": "USPS", "operator:type": "public", "operator:wikidata": "Q668687", "ref": "1483000056"}, "type": "Feature"}
{"dataset_attributes": {"@spider": "usps_collection_boxes"}, "geometry": {"coordinates": [-77.0593691, 42.150472], "type": "Point"}, "id": "DZe7OiTi9S1QtwIn9sDPi4mknzU=", "properties": {"@spider": "usps_collection_boxes", "addr:city": "CORNING", "addr:country": "US", "addr:full": "1 CREDIT UNION PLZ", "addr:postcode": "14830", "addr:state": "NY", "amenity": "post_box", "brand": "United States Postal Service", "brand:wikidata": "Q668687", "collection_times": "Mo-Sa 10:00", "name": "USPS COLLECTION BOX - BLUE BOX", "nsi_id": "unitedstatespostalservice-a77078", "operator": "United States Postal Service", "operator:short": "USPS", "operator:type": "public", "operator:wikidata": "Q668687", "ref": "1483000058"}, "type": "Feature"}
{"dataset_attributes": {"@spider": "usps_collection_boxes"}, "geometry": {"coordinates": [-77.0513787, 42.151743], "type": "Point"}, "id": "IlUsHStnhhxvv-g0YZQ1kJl3w6o=", "properties": {"@spider": "usps_collection_boxes", "addr:city": "CORNING", "addr:country": "US", "addr:full": "207 E PULTENEY ST", "addr:postcode": "14830", "addr:state": "NY", "amenity": "post_box", "brand": "United States Postal Service", "brand:wikidata": "Q668687", "collection_times": "Mo-Sa 10:00", "name": "USPS COLLECTION BOX - BLUE BOX", "nsi_id": "unitedstatespostalservice-a77078", "operator": "United States Postal Service", "operator:short": "USPS", "operator:type": "public", "operator:wikidata": "Q668687", "ref": "1483000062"}, "type": "Feature"}
{"dataset_attributes": {"@spider": "usps_collection_boxes"}, "geometry": {"coordinates": [-77.056747, 42.155711], "type": "Point"}, "id": "eCTUXrkC65u3-TusfNmZ0yKG1cc=", "properties": {"@spider": "usps_collection_boxes", "addr:city": "CORNING", "addr:country": "US", "addr:full": "198 BAKER ST", "addr:postcode": "14830", "addr:state": "NY", "amenity": "post_box", "brand": "United States Postal Service", "brand:wikidata": "Q668687", "collection_times": "Mo-Sa 17:30", "name": "USPS COLLECTION BOX - BLUE BOX", "note": "ON 12/24 AND 12/31, THIS BOX MAY BE COLLECTED AS EARLY AS 12 NOON.", "nsi_id": "unitedstatespostalservice-a77078", "operator": "United States Postal Service", "operator:short": "USPS", "operator:type": "public", "operator:wikidata": "Q668687", "ref": "1483000063"}, "type": "Feature"}
{"dataset_attributes": {"@spider": "usps_collection_boxes"}, "geometry": {"coordinates": [-77.056696143, 42.155645643], "type": "Point"}, "id": "FSLv1WRXHUpMKJsupZx4NCA3t-c=", "properties": {"@spider": "usps_collection_boxes", "addr:city": "CORNING", "addr:country": "US", "addr:full": "198 BAKER ST", "addr:postcode": "14830", "addr:state": "NY", "amenity": "post_box", "brand": "United States Postal Service", "brand:wikidata": "Q668687", "collection_times": "Mo-Fr 17:00; Sa 13:30", "name": "USPS COLLECTION BOX - PO LOBBY", "note": "ON 12/24 AND 12/31, THIS BOX MAY BE COLLECTED AS EARLY AS 12 NOON.", "nsi_id": "unitedstatespostalservice-a77078", "operator": "United States Postal Service", "operator:short": "USPS", "operator:type": "public", "operator:wikidata": "Q668687", "ref": "1483000065"}, "type": "Feature"}
{"dataset_attributes": {"@spider": "usps_collection_boxes"}, "geometry": {"coordinates": [-77.056918227, 42.142800677], "type": "Point"}, "id": "FfKkmfpsq1-uDb1PXUCcpqhMU60=", "properties": {"@spider": "usps_collection_boxes", "addr:city": "CORNING", "addr:country": "US", "addr:full": "129 WALNUT ST", "addr:postcode": "14830", "addr:state": "NY", "amenity": "post_box", "brand": "United States Postal Service", "brand:wikidata": "Q668687", "collection_times": "Mo-Fr 17:00", "name": "USPS COLLECTION BOX - PO LOBBY", "note": "ON 12/24 AND 12/31, THIS BOX MAY BE COLLECTED AS EARLY AS 12 NOON.", "nsi_id": "unitedstatespostalservice-a77078", "operator": "United States Postal Service", "operator:short": "USPS", "operator:type": "public", "operator:wikidata": "Q668687", "ref": "1483000066"}, "type": "Feature"}
{"dataset_attributes": {"@spider": "usps_collection_boxes"}, "geometry": {"coordinates": [-76.673225, 42.182522], "type": "Point"}, "id": "E9CpzKzSTbQvqEQ0bUzLXkm0p2Q=", "properties": {"@spider": "usps_collection_boxes", "addr:city": "ERIN", "addr:country": "US", "addr:full": "336 WHEATON RD", "addr:postcode": "14838", "addr:state": "NY", "amenity": "post_box", "brand": "United States Postal Service", "brand:wikidata": "Q668687", "collection_times": "Mo-Fr 12:00; Sa 11:45", "name": "USPS COLLECTION BOX - BLUE BOX", "nsi_id": "unitedstatespostalservice-a77078", "operator": "United States Postal Service", "operator:short": "USPS", "operator:type": "public", "operator:wikidata": "Q668687", "ref": "1483800002"}, "type": "Feature"}
{"dataset_attributes": {"@spider": "usps_collection_boxes"}, "geometry": {"coordinates": [-76.673262, 42.182531], "type": "Point"}, "id": "4YVvQPur2fTpeK7dkOZDJhS91zY=", "properties": {"@spider": "usps_collection_boxes", "addr:city": "ERIN", "addr:country": "US", "addr:full": "336 WHEATON RD", "addr:postcode": "14838", "addr:state": "NY", "amenity": "post_box", "brand": "United States Postal Service", "brand:wikidata": "Q668687", "collection_times": "Mo-Fr 12:00; Sa 11:45", "name": "USPS COLLECTION BOX - PO LOBBY", "nsi_id": "unitedstatespostalservice-a77078", "operator": "United States Postal Service", "operator:short": "USPS", "operator:type": "public", "operator:wikidata": "Q668687", "ref": "1483800003"}, "type": "Feature"}
{"dataset_attributes": {"@spider": "usps_collection_boxes"}, "geometry": {"coordinates": [-76.673236885, 42.184683723], "type": "Point"}, "id": "76TMSkdFSVkEd3278xhgPX-lt6M=", "properties": {"@spider": "usps_collection_boxes", "addr:city": "ERIN", "addr:country": "US", "addr:full": "336 WHEATON RD", "addr:postcode": "14838", "addr:state": "NY", "amenity": "post_box", "brand": "United States Postal Service", "brand:wikidata": "Q668687", "collection_times": "Mo-Sa 12:00", "name": "USPS COLLECTION BOX - PO LOBBY", "nsi_id": "unitedstatespostalservice-a77078", "operator": "United States Postal Service", "operator:short": "USPS", "operator:type": "public", "operator:wikidata": "Q668687", "ref": "1483800005"}, "type": "Feature"}
{"dataset_attributes": {"@spider": "usps_collection_boxes"}, "geometry": {"coordinates": [-76.87643, 42.508017], "type": "Point"}, "id": "6DsccMDBVTQTY9HamkODwPGyZD4=", "properties": {"@spider": "usps_collection_boxes", "addr:city": "HECTOR", "addr:country": "US", "addr:full": "5640 STATE ROUTE 414", "addr:postcode": "14841", "addr:state": "NY", "amenity": "post_box", "brand": "United States Postal Service", "brand:wikidata": "Q668687", "collection_times": "Mo-Fr 15:30; Sa 11:30", "name": "USPS COLLECTION BOX - BLUE BOX", "note": "ON 12/24 AND 12/31, THIS BOX MAY BE COLLECTED AS EARLY AS 12 NOON.", "nsi_id": "unitedstatespostalservice-a77078", "operator": "United States Postal Service", "operator:short": "USPS", "operator:type": "public", "operator:wikidata": "Q668687", "ref": "1484100001"}, "type": "Feature"}
{"dataset_attributes": {"@spider": "usps_collection_boxes"}, "geometry": {"coordinates": [-76.87646, 42.507952], "type": "Point"}, "id": "37dySBtgkWSGmy9u30xckeHaj7k=", "properties": {"@spider": "usps_collection_boxes", "addr:city": "HECTOR", "addr:country": "US", "addr:full": "5640 STATE ROUTE 414", "addr:postcode": "14841", "addr:state": "NY", "amenity": "post_box", "brand": "United States Postal Service", "brand:wikidata": "Q668687", "collection_times": "Mo-Fr 15:30; Sa 11:30", "name": "USPS COLLECTION BOX - PO LOBBY", "note": "ON 12/24 AND 12/31, THIS BOX MAY BE COLLECTED AS EARLY AS 12 NOON.", "nsi_id": "unitedstatespostalservice-a77078", "operator": "United States Postal Service", "operator:short": "USPS", "operator:type": "public", "operator:wikidata": "Q668687", "ref": "1484100002"}, "type": "Feature"}
{"dataset_attributes": {"@spider": "usps_collection_boxes"}, "geometry": {"coordinates": [-76.876410561, 42.507990717], "type": "Point"}, "id": "hWhuhartOMBlN-pR3fkF09Dys28=", "properties": {"@spider": "usps_collection_boxes", "addr:city": "HECTOR", "addr:country": "US", "addr:full": "5640 STATE ROUTE 414", "addr:postcode": "14841", "addr:state": "NY", "amenity": "post_box", "brand": "United States Postal Service", "brand:wikidata": "Q668687", "collection_times": "Mo-Fr 15:30; Sa 12:00", "name": "USPS COLLECTION BOX - PO LOBBY", "note": "ON 12/24 AND 12/31, THIS BOX MAY BE COLLECTED AS EARLY AS 12 NOON.", "nsi_id": "unitedstatespostalservice-a77078", "operator": "United States Postal Service", "operator:short": "USPS", "operator:type": "public", "operator:wikidata": "Q668687", "ref": "1484100004"}, "type": "Feature"}
{"dataset_attributes": {"@spider": "usps_collection_boxes"}, "geometry": {"coordinates": [-76.815908, 42.163095], "type": "Point"}, "id": "UH9nIO3r1N3o75EGm5CIir6G0gQ=", "properties": {"@spider": "usps_collection_boxes", "addr:city": "HORSEHEADS", "addr:country": "US", "addr:full": "624 TUTTLE AVE", "addr:postcode": "14845", "addr:state": "NY", "amenity": "post_box", "brand": "United States Postal Service", "brand:wikidata": "Q668687", "collection_times": "Mo-Fr 17:00; Sa 12:45", "name": "USPS COLLECTION BOX - BLUE BOX", "note": "ON 12/24 AND 12/31, THIS BOX MAY BE COLLECTED AS EARLY AS 12 NOON.", "nsi_id": "unitedstatespostalservice-a77078", "operator": "United States Postal Service", "operator:short": "USPS", "operator:type": "public", "operator:wikidata": "Q668687", "ref": "1484500002"}, "type": "Feature"}
{"dataset_attributes": {"@spider": "usps_collection_boxes"}, "geometry": {"coordinates": [-76.8368907, 42.176456], "type": "Point"}, "id": "tMmBgd-pWXJbCGtljpNOUp0gZaM=", "properties": {"@spider": "usps_collection_boxes", "addr:city": "HORSEHEADS", "addr:country": "US", "addr:full": "2898 WESTINGHOUSE RD", "addr:postcode": "14845", "addr:state": "NY", "amenity": "post_box", "brand": "United States Postal Service", "brand:wikidata": "Q668687", "collection_times": "Mo-Fr 14:30; Sa 09:00", "name": "USPS COLLECTION BOX - BLUE BOX", "note": "ON 12/24 AND 12/31, THIS BOX MAY BE COLLECTED AS EARLY AS 12 NOON.", "nsi_id": "unitedstatespostalservice-a77078", "operator": "United States Postal Service", "operator:short": "USPS", "operator:type": "public", "operator:wikidata": "Q668687", "ref": "1484500004"}, "type": "Feature"}
{"dataset_attributes": {"@spider": "usps_collection_boxes"}, "geometry": {"coordinates": [-76.8741113, 42.162375], "type": "Point"}, "id": "f8ExLU2YokbbYP_NSOJ-QFjxM8U=", "properties": {"@spider": "usps_collection_boxes", "addr:city": "HORSEHEADS", "addr:country": "US", "addr:full": "35 ARNOT RD", "addr:postcode": "14845", "addr:state": "NY", "amenity": "post_box", "brand": "United States Postal Service", "brand:wikidata": "Q668687", "collection_times": "Mo-Sa 09:30", "name": "USPS COLLECTION BOX - BLUE BOX", "nsi_id": "unitedstatespostalservice-a77078", "operator": "United States Postal Service", "operator:short": "USPS", "operator:type": "public", "operator:wikidata": "Q668687", "ref": "1484500015"}, "type": "Feature"}
{"dataset_attributes": {"@spider": "usps_collection_boxes"}, "geometry": {"coordinates": [-76.8330472, 42.1816], "type": "Point"}, "id": "rAA1LPk4TFaBFuKgKm3HlgtpZoU=", "properties": {"@spider": "usps_collection_boxes", "addr:city": "HORSEHEADS", "addr:country": "US", "addr:full": "2977 WESTINGHOUSE RD", "addr:postcode": "14845", "addr:state": "NY", "amenity": "post_box", "brand": "United States Postal Service", "brand:wikidata": "Q668687", "collection_times": "Mo-Sa 09:30", "name": "USPS COLLECTION BOX - BLUE BOX", "nsi_id": "unitedstatespostalservice-a77078", "operator": "United States Postal Service", "operator:short": "USPS", "operator:type": "public", "operator:wikidata": "Q668687", "ref": "1484500016"}, "type": "Feature"}
{"dataset_attributes": {"@spider": "usps_collection_boxes"}, "geometry": {"coordinates": [-76.8960135, 42.162966], "type": "Point"}, "id": "xaz_cF_6e9PSj9WsWwrgAi-a80s=", "properties": {"@spider": "usps_collection_boxes", "addr:city": "HORSEHEADS", "addr:country": "US", "addr:full": "276 SING SING RD", "addr:postcode": "14845", "addr:state": "NY", "amenity": "post_box", "brand": "United States Postal Service", "brand:wikidata": "Q668687", "collection_times": "Mo-Fr 09:00", "name": "USPS COLLECTION BOX - BLUE BOX", "nsi_id": "unitedstatespostalservice-a77078", "operator": "United States Postal Service", "operator:short": "USPS", "operator:type": "public", "operator:wikidata": "Q668687", "ref": "1484500017"}, "type": "Feature"}
{"dataset_attributes": {"@spider": "usps_collection_boxes"}, "geometry": {"coordinates": [-76.8250321, 42.157399], "type": "Point"}, "id": "JO0znwjBeTKnNWLIvLjLCDlxOsI=", "properties": {"@spider": "usps_collection_boxes", "addr:city": "HORSEHEADS", "addr:country": "US", "addr:full": "1020 CENTER ST", "addr:postcode": "14845", "addr:state": "NY", "amenity": "post_box", "brand": "United States Postal Service", "brand:wikidata": "Q668687", "collection_times": "Mo-Sa 09:00", "name": "USPS COLLECTION BOX - BLUE BOX", "nsi_id": "unitedstatespostalservice-a77078", "operator": "United States Postal Service", "operator:short": "USPS", "operator:type": "public", "operator:wikidata": "Q668687", "ref": "1484500022"}, "type": "Feature"}
{"dataset_attributes": {"@spider": "usps_collection_boxes"}, "geometry": {"coordinates": [-76.8565149, 42.162476], "type": "Point"}, "id": "hHKv2A_ZfjLh2B1VCpH--2aHNBY=", "properties": {"@spider": "usps_collection_boxes", "addr:city": "HORSEHEADS", "addr:country": "US", "addr:full": "100 JOHN ROEMMELT DR", "addr:postcode": "14845", "addr:state": "NY", "amenity": "post_box", "brand": "United States Postal Service", "brand:wikidata": "Q668687", "collection_times": "Mo-Fr 09:30; Sa 09:00", "name": "USPS COLLECTION BOX - BLUE BOX", "nsi_id": "unitedstatespostalservice-a77078", "operator": "United States Postal Service", "operator:short": "USPS", "operator:type": "public", "operator:wikidata": "Q668687", "ref": "1484500028"}, "type": "Feature"}
{"dataset_attributes": {"@spider": "usps_collection_boxes"}, "geometry": {"coordinates": [-76.815884, 42.163145], "type": "Point"}, "id": "Mq1P-o1D6T1xzY-sS80M6VFDugg=", "properties": {"@spider": "usps_collection_boxes", "addr:city": "HORSEHEADS", "addr:country": "US", "addr:full": "624 TUTTLE AVE", "addr:postcode": "14845", "addr:state": "NY", "amenity": "post_box", "brand": "United States Postal Service", "brand:wikidata": "Q668687", "collection_times": "Mo-Fr 17:00; Sa 12:45", "name": "USPS COLLECTION BOX - BLUE BOX", "note": "ON 12/24 AND 12/31, THIS BOX MAY BE COLLECTED AS EARLY AS 12 NOON.", "nsi_id": "unitedstatespostalservice-a77078", "operator": "United States Postal Service", "operator:short": "USPS", "operator:type": "public", "operator:wikidata": "Q668687", "ref": "1484500029"}, "type": "Feature"}
{"dataset_attributes": {"@spider": "usps_collection_boxes"}, "geometry": {"coordinates": [-76.8739704, 42.160661], "type": "Point"}, "id": "dn1ziGkD2fs13VfkY2bTRR7m8ZM=", "properties": {"@spider": "usps_collection_boxes", "addr:city": "HORSEHEADS", "addr:country": "US", "addr:full": "3300 CHAMBERS RD", "addr:postcode": "14845", "addr:state": "NY", "amenity": "post_box", "brand": "United States Postal Service", "brand:wikidata": "Q668687", "collection_times": "Mo-Sa 09:30", "name": "USPS COLLECTION BOX - BLUE BOX", "nsi_id": "unitedstatespostalservice-a77078", "operator": "United States Postal Service", "operator:short": "USPS", "operator:type": "public", "operator:wikidata": "Q668687", "ref": "1484500030"}, "type": "Feature"}
{"dataset_attributes": {"@spider": "usps_collection_boxes"}, "geometry": {"coordinates": [-76.815884, 42.163145], "type": "Point"}, "id": "tlVK5V911Jx1Jj1tpB9BQE66GJk=", "properties": {"@spider": "usps_collection_boxes", "addr:city": "HORSEHEADS", "addr:country": "US", "addr:full": "624 TUTTLE AVE", "addr:postcode": "14845", "addr:state": "NY", "amenity": "post_box", "brand": "United States Postal Service", "brand:wikidata": "Q668687", "collection_times": "Mo-Fr 17:00; Sa 12:45", "name": "USPS COLLECTION BOX - PO LOBBY", "note": "ON 12/24 AND 12/31, THIS BOX MAY BE COLLECTED AS EARLY AS 12 NOON.", "nsi_id": "unitedstatespostalservice-a77078", "operator": "United States Postal Service", "operator:short": "USPS", "operator:type": "public", "operator:wikidata": "Q668687", "ref": "1484500031"}, "type": "Feature"}
{"dataset_attributes": {"@spider": "usps_collection_boxes"}, "geometry": {"coordinates": [-76.816112667, 42.161902761], "type": "Point"}, "id": "ZAWMmDUvc70TvUWw2nnBixAwVO4=", "properties": {"@spider": "usps_collection_boxes", "addr:city": "HORSEHEADS", "addr:country": "US", "addr:full": "624 TUTTLE AVE", "addr:postcode": "14845", "addr:state": "NY", "amenity": "post_box", "brand": "United States Postal Service", "brand:wikidata": "Q668687", "collection_times": "Mo-Fr 17:00; Sa 12:30", "name": "USPS COLLECTION BOX - PO LOBBY", "note": "ON 12/24 AND 12/31, THIS BOX MAY BE COLLECTED AS EARLY AS 12 NOON.", "nsi_id": "unitedstatespostalservice-a77078", "operator": "United States Postal Service", "operator:short": "USPS", "operator:type": "public", "operator:wikidata": "Q668687", "ref": "1484500035"}, "type": "Feature"}
{"dataset_attributes": {"@spider": "usps_collection_boxes"}, "geometry": {"coordinates": [-76.72476, 42.616874], "type": "Point"}, "id": "Mz7Y1Mq5S2ABjGbYJ0541KkNHIw=", "properties": {"@spider": "usps_collection_boxes", "addr:city": "INTERLAKEN", "addr:country": "US", "addr:full": "8409 MAIN ST", "addr:postcode": "14847", "addr:state": "NY", "amenity": "post_box", "brand": "United States Postal Service", "brand:wikidata": "Q668687", "collection_times": "Mo-Fr 16:30; Sa 12:00", "name": "USPS COLLECTION BOX - PO LOBBY", "note": "ON 12/24 AND 12/31, THIS BOX MAY BE COLLECTED AS EARLY AS 12 NOON.", "nsi_id": "unitedstatespostalservice-a77078", "operator": "United States Postal Service", "operator:short": "USPS", "operator:type": "public", "operator:wikidata": "Q668687", "ref": "1484700003"}, "type": "Feature"}
{"dataset_attributes": {"@spider": "usps_collection_boxes"}, "geometry": {"coordinates": [-76.7247641633, 42.616782], "type": "Point"}, "id": "rNxAK2uyeFwbdNsn-FGbgagDBHY=", "properties": {"@spider": "usps_collection_boxes", "addr:city": "INTERLAKEN", "addr:country": "US", "addr:full": "8409 MAIN ST", "addr:postcode": "14847", "addr:state": "NY", "amenity": "post_box", "brand": "United States Postal Service", "brand:wikidata": "Q668687", "collection_times": "Mo-Fr 16:30; Sa 11:45", "name": "USPS COLLECTION BOX - BLUE BOX", "note": "ON 12/24 AND 12/31, THIS BOX MAY BE COLLECTED AS EARLY AS 12 NOON.", "nsi_id": "unitedstatespostalservice-a77078", "operator": "United States Postal Service", "operator:short": "USPS", "operator:type": "public", "operator:wikidata": "Q668687", "ref": "1484700004"}, "type": "Feature"}
{"dataset_attributes": {"@spider": "usps_collection_boxes"}, "geometry": {"coordinates": [-76.724754189, 42.616782], "type": "Point"}, "id": "80l9dXnpn5VMJAnnNoNDLFaiv5A=", "properties": {"@spider": "usps_collection_boxes", "addr:city": "INTERLAKEN", "addr:country": "US", "addr:full": "8409 MAIN ST", "addr:postcode": "14847", "addr:state": "NY", "amenity": "post_box", "brand": "United States Postal Service", "brand:wikidata": "Q668687", "collection_times": "Mo-Fr 16:45; Sa 12:00", "name": "USPS COLLECTION BOX - PO LOBBY", "note": "ON 12/24 AND 12/31, THIS BOX MAY BE COLLECTED AS EARLY AS 12 NOON.", "nsi_id": "unitedstatespostalservice-a77078", "operator": "United States Postal Service", "operator:short": "USPS", "operator:type": "public", "operator:wikidata": "Q668687", "ref": "1484700006"}, "type": "Feature"}
{"dataset_attributes": {"@spider": "usps_collection_boxes"}, "geometry": {"coordinates": [-76.4809771, 42.452779], "type": "Point"}, "id": "I76d3KgZAufx4glRqMmCkMWtOvE=", "properties": {"@spider": "usps_collection_boxes", "addr:city": "ITHACA", "addr:country": "US", "addr:full": "600 THURSTON AVE", "addr:postcode": "14850", "addr:state": "NY", "amenity": "post_box", "brand": "United States Postal Service", "brand:wikidata": "Q668687", "collection_times": "Mo-Sa 11:00", "name": "USPS COLLECTION BOX - BLUE BOX", "nsi_id": "unitedstatespostalservice-a77078", "operator": "United States Postal Service", "operator:short": "USPS", "operator:type": "public", "operator:wikidata": "Q668687", "ref": "1485000004"}, "type": "Feature"}
{"dataset_attributes": {"@spider": "usps_collection_boxes"}, "geometry": {"coordinates": [-76.4668431, 42.48987], "type": "Point"}, "id": "8OAWBMCT8eTAWDEHFf2xFVextps=", "properties": {"@spider": "usps_collection_boxes", "addr:city": "ITHACA", "addr:country": "US", "addr:full": "757 WARREN RD", "addr:postcode": "14850", "addr:state": "NY", "amenity": "post_box", "brand": "United States Postal Service", "brand:wikidata": "Q668687", "collection_times": "Mo-Fr 17:30; Sa 16:15", "name": "USPS COLLECTION BOX - BLUE BOX", "note": "ON 12/24 AND 12/31, THIS BOX MAY BE COLLECTED AS EARLY AS 12 NOON.", "nsi_id": "unitedstatespostalservice-a77078", "operator": "United States Postal Service", "operator:short": "USPS", "operator:type": "public", "operator:wikidata": "Q668687", "ref": "1485000011"}, "type": "Feature"}
{"dataset_attributes": {"@spider": "usps_collection_boxes"}, "geometry": {"coordinates": [-76.5068849, 42.429764], "type": "Point"}, "id": "VLbmn5dhaDu6-KHMBboboh-nZUE=", "properties": {"@spider": "usps_collection_boxes", "addr:city": "ITHACA", "addr:country": "US", "addr:full": "222 ELMIRA RD", "addr:postcode": "14850", "addr:state": "NY", "amenity": "post_box", "brand": "United States Postal Service", "brand:wikidata": "Q668687", "collection_times": "Mo-Sa 11:00", "name": "USPS COLLECTION BOX - BLUE BOX", "nsi_id": "unitedstatespostalservice-a77078", "operator": "United States Postal Service", "operator:short": "USPS", "operator:type": "public", "operator:wikidata": "Q668687", "ref": "1485000039"}, "type": "Feature"}
{"dataset_attributes": {"@spider": "usps_collection_boxes"}, "geometry": {"coordinates": [-76.4638691, 42.437621], "type": "Point"}, "id": "TsG3LbY7YrEq0alnTxQCvJHPTys=", "properties": {"@spider": "usps_collection_boxes", "addr:city": "ITHACA", "addr:country": "US", "addr:full": "331 PINE TREE RD", "addr:postcode": "14850", "addr:state": "NY", "amenity": "post_box", "brand": "United States Postal Service", "brand:wikidata": "Q668687", "collection_times": "Mo-Sa 15:00", "name": "USPS COLLECTION BOX - BLUE BOX", "note": "ON 12/24 AND 12/31, THIS BOX MAY BE COLLECTED AS EARLY AS 12 NOON.", "nsi_id": "unitedstatespostalservice-a77078", "operator": "United States Postal Service", "operator:short": "USPS", "operator:type": "public", "operator:wikidata": "Q668687", "ref": "1485000040"}, "type": "Feature"}
{"dataset_attributes": {"@spider": "usps_collection_boxes"}, "geometry": {"coordinates": [-76.5019759, 42.439387], "type": "Point"}, "id": "zy8G4hQcrtHjEtsvZ2HQ0i5LGJA=", "properties": {"@spider": "usps_collection_boxes", "addr:city": "ITHACA", "addr:country": "US", "addr:full": "301 W STATE ST", "addr:postcode": "14850", "addr:state": "NY", "amenity": "post_box", "brand": "United States Postal Service", "brand:wikidata": "Q668687", "collection_times": "Mo-Fr 15:00; Sa 10:00", "name": "USPS COLLECTION BOX - BLUE BOX", "note": "ON 12/24 AND 12/31, THIS BOX MAY BE COLLECTED AS EARLY AS 12 NOON.", "nsi_id": "unitedstatespostalservice-a77078", "operator": "United States Postal Service", "operator:short": "USPS", "operator:type": "public", "operator:wikidata": "Q668687", "ref": "1485000042"}, "type": "Feature"}
{"dataset_attributes": {"@spider": "usps_collection_boxes"}, "geometry": {"coordinates": [-76.5132074, 42.440614], "type": "Point"}, "id": "TwsZdMzOPrfzhTo9Rcszr9jGjos=", "properties": {"@spider": "usps_collection_boxes", "addr:city": "ITHACA", "addr:country": "US", "addr:full": "805 W BUFFALO ST", "addr:postcode": "14850", "addr:state": "NY", "amenity": "post_box", "brand": "United States Postal Service", "brand:wikidata": "Q668687", "collection_times": "Mo-Sa 10:00", "name": "USPS COLLECTION BOX - BLUE BOX", "nsi_id": "unitedstatespostalservice-a77078", "operator": "United States Postal Service", "operator:short": "USPS", "operator:type": "public", "operator:wikidata": "Q668687", "ref": "1485000047"}, "type": "Feature"}
{"dataset_attributes": {"@spider": "usps_collection_boxes"}, "geometry": {"coordinates": [-76.4990423, 42.439427], "type": "Point"}, "id": "UcfZu04whM9mBtFwDdFNQEPfKPU=", "properties": {"@spider": "usps_collection_boxes", "addr:city": "ITHACA", "addr:country": "US", "addr:full": "100 S CAYUGA ST", "addr:postcode": "14850", "addr:state": "NY", "amenity": "post_box", "brand": "United States Postal Service", "brand:wikidata": "Q668687", "collection_times": "Mo-Fr 16:00; Sa 12:00", "name": "USPS COLLECTION BOX - BLUE BOX", "note": "ON 12/24 AND 12/31, THIS BOX MAY BE COLLECTED AS EARLY AS 12 NOON.", "nsi_id": "unitedstatespostalservice-a77078", "operator": "United States Postal Service", "operator:short": "USPS", "operator:type": "public", "operator:wikidata": "Q668687", "ref": "1485000049"}, "type": "Feature"}
{"dataset_attributes": {"@spider": "usps_collection_boxes"}, "geometry": {"coordinates": [-76.4970467, 42.442012], "type": "Point"}, "id": "2zOPaXQf7BVEPLvB38TzS4IiwBs=", "properties": {"@spider": "usps_collection_boxes", "addr:city": "ITHACA", "addr:country": "US", "addr:full": "318 N TIOGA ST", "addr:postcode": "14850", "addr:state": "NY", "amenity": "post_box", "brand": "United States Postal Service", "brand:wikidata": "Q668687", "collection_times": "Mo-Fr 17:00; Sa 11:30", "name": "USPS COLLECTION BOX - BLUE BOX", "note": "ON 12/24 AND 12/31, THIS BOX MAY BE COLLECTED AS EARLY AS 12 NOON.", "nsi_id": "unitedstatespostalservice-a77078", "operator": "United States Postal Service", "operator:short": "USPS", "operator:type": "public", "operator:wikidata": "Q668687", "ref": "1485000057"}, "type": "Feature"}
{"dataset_attributes": {"@spider": "usps_collection_boxes"}, "geometry": {"coordinates": [-76.4838369, 42.478609], "type": "Point"}, "id": "FyNqL-JMnISgJbnlDHfV1_9FNUw=", "properties": {"@spider": "usps_collection_boxes", "addr:city": "ITHACA", "addr:country": "US", "addr:full": "2250 N TRIPHAMMER RD", "addr:postcode": "14850", "addr:state": "NY", "amenity": "post_box", "brand": "United States Postal Service", "brand:wikidata": "Q668687", "collection_times": "Mo-Sa 12:00", "name": "USPS COLLECTION BOX - BLUE BOX", "nsi_id": "unitedstatespostalservice-a77078", "operator": "United States Postal Service", "operator:short": "USPS", "operator:type": "public", "operator:wikidata": "Q668687", "ref": "1485000059"}, "type": "Feature"}
{"dataset_attributes": {"@spider": "usps_collection_boxes"}, "geometry": {"coordinates": [-76.5003659, 42.528765], "type": "Point"}, "id": "cVjeTsM9y4ADJ86r7_-W73tJbMM=", "properties": {"@spider": "usps_collection_boxes", "addr:city": "ITHACA", "addr:country": "US", "addr:full": "1939 E SHORE DR", "addr:postcode": "14850", "addr:state": "NY", "amenity": "post_box", "brand": "United States Postal Service", "brand:wikidata": "Q668687", "collection_times": "Mo-Fr 16:30; Sa 12:00", "name": "USPS COLLECTION BOX - BLUE BOX", "note": "ON 12/24 AND 12/31, THIS BOX MAY BE COLLECTED AS EARLY AS 12 NOON.", "nsi_id": "unitedstatespostalservice-a77078", "operator": "United States Postal Service", "operator:short": "USPS", "operator:type": "public", "operator:wikidata": "Q668687", "ref": "1485000060"}, "type": "Feature"}
{"dataset_attributes": {"@spider": "usps_collection_boxes"}, "geometry": {"coordinates": [-76.4991809, 42.445479], "type": "Point"}, "id": "7zQBpoY4Vz5UwP5zEPhscgMNFLk=", "properties": {"@spider": "usps_collection_boxes", "addr:city": "ITHACA", "addr:country": "US", "addr:full": "500 N CAYUGA ST", "addr:postcode": "14850", "addr:state": "NY", "amenity": "post_box", "brand": "United States Postal Service", "brand:wikidata": "Q668687", "collection_times": "Mo-Fr 17:00; Sa 15:45", "name": "USPS COLLECTION BOX - BLUE BOX", "note": "ON 12/24 AND 12/31, THIS BOX MAY BE COLLECTED AS EARLY AS 12 NOON.", "nsi_id": "unitedstatespostalservice-a77078", "operator": "United States Postal Service", "operator:short": "USPS", "operator:type": "public", "operator:wikidata": "Q668687", "ref": "1485000061"}, "type": "Feature"}
{"dataset_attributes": {"@spider": "usps_collection_boxes"}, "geometry": {"coordinates": [-76.4821159, 42.479478], "type": "Point"}, "id": "0ZV9JByj5mb5UV2s8-EvpGwVlUw=", "properties": {"@spider": "usps_collection_boxes", "addr:city": "ITHACA", "addr:country": "US", "addr:full": "2255 N TRIPHAMMER RD", "addr:postcode": "14850", "addr:state": "NY", "amenity": "post_box", "brand": "United States Postal Service", "brand:wikidata": "Q668687", "collection_times": "Mo-Sa 09:30", "name": "USPS COLLECTION BOX - BLUE BOX", "nsi_id": "unitedstatespostalservice-a77078", "operator": "United States Postal Service", "operator:short": "USPS", "operator:type": "public", "operator:wikidata": "Q668687", "ref": "1485000068"}, "type": "Feature"}
{"dataset_attributes": {"@spider": "usps_collection_boxes"}, "geometry": {"coordinates": [-76.4869149, 42.481555], "type": "Point"}, "id": "uTiltuCahyZaP4-XpN9J_0u5RYA=", "properties": {"@spider": "usps_collection_boxes", "addr:city": "ITHACA", "addr:country": "US", "addr:full": "2300 N TRIPHAMMER RD", "addr:postcode": "14850", "addr:state": "NY", "amenity": "post_box", "brand": "United States Postal Service", "brand:wikidata": "Q668687", "collection_times": "Mo-Sa 10:30", "name": "USPS COLLECTION BOX - BLUE BOX", "nsi_id": "unitedstatespostalservice-a77078", "operator": "United States Postal Service", "operator:short": "USPS", "operator:type": "public", "operator:wikidata": "Q668687", "ref": "1485000069"}, "type": "Feature"}
{"dataset_attributes": {"@spider": "usps_collection_boxes"}, "geometry": {"coordinates": [-76.5101206, 42.435208], "type": "Point"}, "id": "d1a6PcnMdt-Qbd9hdvqKNZygnBA=", "properties": {"@spider": "usps_collection_boxes", "addr:city": "ITHACA", "addr:country": "US", "addr:full": "500 S MEADOW ST", "addr:postcode": "14850", "addr:state": "NY", "amenity": "post_box", "brand": "United States Postal Service", "brand:wikidata": "Q668687", "collection_times": "Mo-Sa 09:30", "name": "USPS COLLECTION BOX - BLUE BOX", "nsi_id": "unitedstatespostalservice-a77078", "operator": "United States Postal Service", "operator:short": "USPS", "operator:type": "public", "operator:wikidata": "Q668687", "ref": "1485000070"}, "type": "Feature"}
{"dataset_attributes": {"@spider": "usps_collection_boxes"}, "geometry": {"coordinates": [-76.4786272, 42.469326], "type": "Point"}, "id": "fO24pPO0l2YxUPvMn2qxFjLRbRs=", "properties": {"@spider": "usps_collection_boxes", "addr:city": "ITHACA", "addr:country": "US", "addr:full": "840 HANSHAW RD", "addr:postcode": "14850", "addr:state": "NY", "amenity": "post_box", "brand": "United States Postal Service", "brand:wikidata": "Q668687", "collection_times": "Mo-Fr 15:45; Sa 11:00", "name": "USPS COLLECTION BOX - BLUE BOX", "note": "ON 12/24 AND 12/31, THIS BOX MAY BE COLLECTED AS EARLY AS 12 NOON.", "nsi_id": "unitedstatespostalservice-a77078", "operator": "United States Postal Service", "operator:short": "USPS", "operator:type": "public", "operator:wikidata": "Q668687", "ref": "1485000071"}, "type": "Feature"}
{"dataset_attributes": {"@spider": "usps_collection_boxes"}, "geometry": {"coordinates": [-76.4831634, 42.483083], "type": "Point"}, "id": "-Z8-RY9ZevUb8Uuz3209MwJhwZg=", "properties": {"@spider": "usps_collection_boxes", "addr:city": "ITHACA", "addr:country": "US", "addr:full": "2309 N TRIPHAMMER RD", "addr:postcode": "14850", "addr:state": "NY", "amenity": "post_box", "brand": "United States Postal Service", "brand:wikidata": "Q668687", "collection_times": "Mo-Sa 10:00", "name": "USPS COLLECTION BOX - BLUE BOX", "nsi_id": "unitedstatespostalservice-a77078", "operator": "United States Postal Service", "operator:short": "USPS", "operator:type": "public", "operator:wikidata": "Q668687", "ref": "1485000072"}, "type": "Feature"}
{"dataset_attributes": {"@spider": "usps_collection_boxes"}, "geometry": {"coordinates": [-76.4793699, 42.46911], "type": "Point"}, "id": "nRoF5XgobwKCEvBI08qpdWR76C4=", "properties": {"@spider": "usps_collection_boxes", "addr:city": "ITHACA", "addr:country": "US", "addr:full": "1 COMMUNITY CORS", "addr:postcode": "14850", "addr:state": "NY", "amenity": "post_box", "brand": "United States Postal Service", "brand:wikidata": "Q668687", "collection_times": "Mo-Fr 16:00; Sa 11:00", "name": "USPS COLLECTION BOX - BLUE BOX", "note": "ON 12/24 AND 12/31, THIS BOX MAY BE COLLECTED AS EARLY AS 12 NOON.", "nsi_id": "unitedstatespostalservice-a77078", "operator": "United States Postal Service", "operator:short": "USPS", "operator:type": "public", "operator:wikidata": "Q668687", "ref": "1485000073"}, "type": "Feature"}
{"dataset_attributes": {"@spider": "usps_collection_boxes"}, "geometry": {"coordinates": [-76.4900652, 42.483819], "type": "Point"}, "id": "WgY4b4v7rXR6NB-Kp1eHGEfZliE=", "properties": {"@spider": "usps_collection_boxes", "addr:city": "ITHACA", "addr:country": "US", "addr:full": "40 CATHERWOOD RD", "addr:postcode": "14850", "addr:state": "NY", "amenity": "post_box", "brand": "United States Postal Service", "brand:wikidata": "Q668687", "collection_times": "Mo-Sa 12:00", "name": "USPS COLLECTION BOX - BLUE BOX", "nsi_id": "unitedstatespostalservice-a77078", "operator": "United States Postal Service", "operator:short": "USPS", "operator:type": "public", "operator:wikidata": "Q668687", "ref": "1485000074"}, "type": "Feature"}
{"dataset_attributes": {"@spider": "usps_collection_boxes"}, "geometry": {"coordinates": [-76.4771674, 42.447642], "type": "Point"}, "id": "fPyUXGwRXyu5rxuIi90_y8R4bGs=", "properties": {"@spider": "usps_collection_boxes", "addr:city": "ITHACA", "addr:country": "US", "addr:full": "1 BRADFIELD EMERSON HALL", "addr:postcode": "14850", "addr:state": "NY", "amenity": "post_box", "brand": "United States Postal Service", "brand:wikidata": "Q668687", "collection_times": "Mo-Sa 12:00", "name": "USPS COLLECTION BOX - BLUE BOX", "nsi_id": "unitedstatespostalservice-a77078", "operator": "United States Postal Service", "operator:short": "USPS", "operator:type": "public", "operator:wikidata": "Q668687", "ref": "1485000083"}, "type": "Feature"}
{"dataset_attributes": {"@spider": "usps_collection_boxes"}, "geometry": {"coordinates": [-76.4673899, 42.447576], "type": "Point"}, "id": "KzwZx-g2dTnV66ALx9KRbSHLd0g=", "properties": {"@spider": "usps_collection_boxes", "addr:city": "ITHACA", "addr:country": "US", "addr:full": "1 TOWER RD", "addr:postcode": "14850", "addr:state": "NY", "amenity": "post_box", "brand": "United States Postal Service", "brand:wikidata": "Q668687", "collection_times": "Mo-Sa 12:00", "name": "USPS COLLECTION BOX - BLUE BOX", "nsi_id": "unitedstatespostalservice-a77078", "operator": "United States Postal Service", "operator:short": "USPS", "operator:type": "public", "operator:wikidata": "Q668687", "ref": "1485000084"}, "type": "Feature"}
{"dataset_attributes": {"@spider": "usps_collection_boxes"}, "geometry": {"coordinates": [-76.4946521, 42.42262], "type": "Point"}, "id": "hnufPWPZgAfxCgYIgQvGXuiyTDs=", "properties": {"@spider": "usps_collection_boxes", "addr:city": "ITHACA", "addr:country": "US", "addr:full": "1 PHILLIPS HALL", "addr:postcode": "14850", "addr:state": "NY", "amenity": "post_box", "brand": "United States Postal Service", "brand:wikidata": "Q668687", "collection_times": "Mo-Fr 15:00; Sa 09:30", "name": "USPS COLLECTION BOX - BLUE BOX", "note": "ON 12/24 AND 12/31, THIS BOX MAY BE COLLECTED AS EARLY AS 12 NOON.", "nsi_id": "unitedstatespostalservice-a77078", "operator": "United States Postal Service", "operator:short": "USPS", "operator:type": "public", "operator:wikidata": "Q668687", "ref": "1485000090"}, "type": "Feature"}
{"dataset_attributes": {"@spider": "usps_collection_boxes"}, "geometry": {"coordinates": [-76.485158, 42.444846], "type": "Point"}, "id": "KuGb6klfj3JqLPaqc-Y97Pw1Q-U=", "properties": {"@spider": "usps_collection_boxes", "addr:city": "ITHACA", "addr:country": "US", "addr:full": "1 ANABEL TAYLOR HALL", "addr:postcode": "14850", "addr:state": "NY", "amenity": "post_box", "brand": "United States Postal Service", "brand:wikidata": "Q668687", "collection_times": "Mo-Sa 14:00", "name": "USPS COLLECTION BOX - BLUE BOX", "note": "ON 12/24 AND 12/31, THIS BOX MAY BE COLLECTED AS EARLY AS 12 NOON.", "nsi_id": "unitedstatespostalservice-a77078", "operator": "United States Postal Service", "operator:short": "USPS", "operator:type": "public", "operator:wikidata": "Q668687", "ref": "1485000092"}, "type": "Feature"}
{"dataset_attributes": {"@spider": "usps_collection_boxes"}, "geometry": {"coordinates": [-76.5093216, 42.439148], "type": "Point"}, "id": "hxUIDCUDSO3BSXqY10w2PE21964=", "properties": {"@spider": "usps_collection_boxes", "addr:city": "ITHACA", "addr:country": "US", "addr:full": "615 W STATE ST", "addr:postcode": "14850", "addr:state": "NY", "amenity": "post_box", "brand": "United States Postal Service", "brand:wikidata": "Q668687", "collection_times": "Mo-Fr 16:30; Sa 09:30", "name": "USPS COLLECTION BOX - BLUE BOX", "note": "ON 12/24 AND 12/31, THIS BOX MAY BE COLLECTED AS EARLY AS 12 NOON.", "nsi_id": "unitedstatespostalservice-a77078", "operator": "United States Postal Service", "operator:short": "USPS", "operator:type": "public", "operator:wikidata": "Q668687", "ref": "1485000099"}, "type": "Feature"}
{"dataset_attributes": {"@spider": "usps_collection_boxes"}, "geometry": {"coordinates": [-76.496674699, 42.4396324638], "type": "Point"}, "id": "7E5L3axrRbHWMK7hkmpp0ntkvGw=", "properties": {"@spider": "usps_collection_boxes", "addr:city": "ITHACA", "addr:country": "US", "addr:full": "202 E STATE ST", "addr:postcode": "14850", "addr:state": "NY", "amenity": "post_box", "brand": "United States Postal Service", "brand:wikidata": "Q668687", "collection_times": "Mo-Fr 17:00; Sa 12:00", "name": "USPS COLLECTION BOX - BLUE BOX", "note": "ON 12/24 AND 12/31, THIS BOX MAY BE COLLECTED AS EARLY AS 12 NOON.", "nsi_id": "unitedstatespostalservice-a77078", "operator": "United States Postal Service", "operator:short": "USPS", "operator:type": "public", "operator:wikidata": "Q668687", "ref": "1485000103"}, "type": "Feature"}
{"dataset_attributes": {"@spider": "usps_collection_boxes"}, "geometry": {"coordinates": [-76.467631, 42.489928], "type": "Point"}, "id": "T1mze_niJ6aT2JBWp4PFjRQ4GKg=", "properties": {"@spider": "usps_collection_boxes", "addr:city": "ITHACA", "addr:country": "US", "addr:full": "757 WARREN RD", "addr:postcode": "14850", "addr:state": "NY", "amenity": "post_box", "brand": "United States Postal Service", "brand:wikidata": "Q668687", "collection_times": "Mo-Fr 17:30; Sa 16:15", "name": "USPS COLLECTION BOX - PO LOBBY", "note": "ON 12/24 AND 12/31, THIS BOX MAY BE COLLECTED AS EARLY AS 12 NOON.", "nsi_id": "unitedstatespostalservice-a77078", "operator": "United States Postal Service", "operator:short": "USPS", "operator:type": "public", "operator:wikidata": "Q668687", "ref": "1485000110"}, "type": "Feature"}
{"dataset_attributes": {"@spider": "usps_collection_boxes"}, "geometry": {"coordinates": [-76.467631, 42.489928], "type": "Point"}, "id": "t42-0vHQuY-yHB7rHeO2w8tTCoY=", "properties": {"@spider": "usps_collection_boxes", "addr:city": "ITHACA", "addr:country": "US", "addr:full": "757 WARREN RD", "addr:postcode": "14850", "addr:state": "NY", "amenity": "post_box", "brand": "United States Postal Service", "brand:wikidata": "Q668687", "collection_times": "Mo-Fr 17:30; Sa 16:15", "name": "USPS COLLECTION BOX - PO LOBBY", "note": "ON 12/24 AND 12/31, THIS BOX MAY BE COLLECTED AS EARLY AS 12 NOON.", "nsi_id": "unitedstatespostalservice-a77078", "operator": "United States Postal Service", "operator:short": "USPS", "operator:type": "public", "operator:wikidata": "Q668687", "ref": "1485000111"}, "type": "Feature"}
{"dataset_attributes": {"@spider": "usps_collection_boxes"}, "geometry": {"coordinates": [-76.496814, 42.440623], "type": "Point"}, "id": "2RGpeRmh2_MQtASuUcK24K2Xw20=", "properties": {"@spider": "usps_collection_boxes", "addr:city": "ITHACA", "addr:country": "US", "addr:full": "213 N TIOGA ST", "addr:postcode": "14850", "addr:state": "NY", "amenity": "post_box", "brand": "United States Postal Service", "brand:wikidata": "Q668687", "collection_times": "Mo-Fr 17:30; Sa 12:00", "name": "USPS COLLECTION BOX - PO LOBBY", "note": "ON 12/24 AND 12/31, THIS BOX MAY BE COLLECTED AS EARLY AS 12 NOON.", "nsi_id": "unitedstatespostalservice-a77078", "operator": "United States Postal Service", "operator:short": "USPS", "operator:type": "public", "operator:wikidata": "Q668687", "ref": "1485000115"}, "type": "Feature"}
{"dataset_attributes": {"@spider": "usps_collection_boxes"}, "geometry": {"coordinates": [-76.4999779, 42.528815], "type": "Point"}, "id": "xlmRZekMpoL-rNrCTOk4Wvfp2V8=", "properties": {"@spider": "usps_collection_boxes", "addr:city": "ITHACA", "addr:country": "US", "addr:full": "1939 E SHORE DR STE 2", "addr:postcode": "14850", "addr:state": "NY", "amenity": "post_box", "brand": "United States Postal Service", "brand:wikidata": "Q668687", "collection_times": "Mo-Fr 16:30; Sa 12:00", "name": "USPS COLLECTION BOX - PO LOBBY", "note": "ON 12/24 AND 12/31, THIS BOX MAY BE COLLECTED AS EARLY AS 12 NOON.", "nsi_id": "unitedstatespostalservice-a77078", "operator": "United States Postal Service", "operator:short": "USPS", "operator:type": "public", "operator:wikidata": "Q668687", "ref": "1485000116"}, "type": "Feature"}
{"dataset_attributes": {"@spider": "usps_collection_boxes"}, "geometry": {"coordinates": [-76.4936659, 42.450741], "type": "Point"}, "id": "2MA9sL4kSKxzh3FM_MzRwVSpFHw=", "properties": {"@spider": "usps_collection_boxes", "addr:city": "ITHACA", "addr:country": "US", "addr:full": "210 LAKE ST", "addr:postcode": "14850", "addr:state": "NY", "amenity": "post_box", "brand": "United States Postal Service", "brand:wikidata": "Q668687", "collection_times": "Mo-Sa 09:00", "name": "USPS COLLECTION BOX - BLUE BOX", "nsi_id": "unitedstatespostalservice-a77078", "operator": "United States Postal Service", "operator:short": "USPS", "operator:type": "public", "operator:wikidata": "Q668687", "ref": "1485000117"}, "type": "Feature"}
{"dataset_attributes": {"@spider": "usps_collection_boxes"}, "geometry": {"coordinates": [-76.4710366, 42.486152], "type": "Point"}, "id": "HGRGkO9ydTqzhed42x-ZXh7Tp9E=", "properties": {"@spider": "usps_collection_boxes", "addr:city": "ITHACA", "addr:country": "US", "addr:full": "700 WARREN RD", "addr:postcode": "14850", "addr:state": "NY", "amenity": "post_box", "brand": "United States Postal Service", "brand:wikidata": "Q668687", "collection_times": "Mo-Sa 09:00", "name": "USPS COLLECTION BOX - BLUE BOX", "nsi_id": "unitedstatespostalservice-a77078", "operator": "United States Postal Service", "operator:short": "USPS", "operator:type": "public", "operator:wikidata": "Q668687", "ref": "1485000122"}, "type": "Feature"}
{"dataset_attributes": {"@spider": "usps_collection_boxes"}, "geometry": {"coordinates": [-76.5048422, 42.447006], "type": "Point"}, "id": "S3bE905cJg4eNgKH9hMmtt4m7Wc=", "properties": {"@spider": "usps_collection_boxes", "addr:city": "ITHACA", "addr:country": "US", "addr:full": "301 3RD ST", "addr:postcode": "14850", "addr:state": "NY", "amenity": "post_box", "brand": "United States Postal Service", "brand:wikidata": "Q668687", "collection_times": "Mo-Sa 09:00", "name": "USPS COLLECTION BOX - BLUE BOX", "nsi_id": "unitedstatespostalservice-a77078", "operator": "United States Postal Service", "operator:short": "USPS", "operator:type": "public", "operator:wikidata": "Q668687", "ref": "1485000124"}, "type": "Feature"}
{"dataset_attributes": {"@spider": "usps_collection_boxes"}, "geometry": {"coordinates": [-76.5074616, 42.438435], "type": "Point"}, "id": "diWblC6_3_t9vL1WOzp_SZ5AHrU=", "properties": {"@spider": "usps_collection_boxes", "addr:city": "ITHACA", "addr:country": "US", "addr:full": "600 W GREEN ST", "addr:postcode": "14850", "addr:state": "NY", "amenity": "post_box", "brand": "United States Postal Service", "brand:wikidata": "Q668687", "collection_times": "Mo-Sa 15:00", "name": "USPS COLLECTION BOX - BLUE BOX", "note": "ON 12/24 AND 12/31, THIS BOX MAY BE COLLECTED AS EARLY AS 12 NOON.", "nsi_id": "unitedstatespostalservice-a77078", "operator": "United States Postal Service", "operator:short": "USPS", "operator:type": "public", "operator:wikidata": "Q668687", "ref": "1485000129"}, "type": "Feature"}
{"dataset_attributes": {"@spider": "usps_collection_boxes"}, "geometry": {"coordinates": [-76.4985937, 42.438674], "type": "Point"}, "id": "wYyJAQgxCx_w1gXXlXaa-Tpq0YA=", "properties": {"@spider": "usps_collection_boxes", "addr:city": "ITHACA", "addr:country": "US", "addr:full": "108 E GREEN ST", "addr:postcode": "14850", "addr:state": "NY", "amenity": "post_box", "brand": "United States Postal Service", "brand:wikidata": "Q668687", "collection_times": "Mo-Fr 16:30; Sa 10:30", "name": "USPS COLLECTION BOX - BLUE BOX", "note": "ON 12/24 AND 12/31, THIS BOX MAY BE COLLECTED AS EARLY AS 12 NOON.", "nsi_id": "unitedstatespostalservice-a77078", "operator": "United States Postal Service", "operator:short": "USPS", "operator:type": "public", "operator:wikidata": "Q668687", "ref": "1485000134"}, "type": "Feature"}
{"dataset_attributes": {"@spider": "usps_collection_boxes"}, "geometry": {"coordinates": [-76.4962914, 42.441385], "type": "Point"}, "id": "QPaXoiacAvuGKQmnoOj-_1XvKDg=", "properties": {"@spider": "usps_collection_boxes", "addr:city": "ITHACA", "addr:country": "US", "addr:full": "209 E BUFFALO ST", "addr:postcode": "14850", "addr:state": "NY", "amenity": "post_box", "brand": "United States Postal Service", "brand:wikidata": "Q668687", "collection_times": "Mo-Fr 17:00; Sa 10:00", "name": "USPS COLLECTION BOX - BLUE BOX", "note": "ON 12/24 AND 12/31, THIS BOX MAY BE COLLECTED AS EARLY AS 12 NOON.", "nsi_id": "unitedstatespostalservice-a77078", "operator": "United States Postal Service", "operator:short": "USPS", "operator:type": "public", "operator:wikidata": "Q668687", "ref": "1485000138"}, "type": "Feature"}
{"dataset_attributes": {"@spider": "usps_collection_boxes"}, "geometry": {"coordinates": [-76.496814, 42.440624], "type": "Point"}, "id": "07_ZggcmM5OvPpcGjKQ_7CAl71o=", "properties": {"@spider": "usps_collection_boxes", "addr:city": "ITHACA", "addr:country": "US", "addr:full": "213 N TIOGA ST", "addr:postcode": "14850", "addr:state": "NY", "amenity": "post_box", "brand": "United States Postal Service", "brand:wikidata": "Q668687", "collection_times": "Mo-Fr 17:15; Sa 12:00", "name": "USPS COLLECTION BOX - APC", "note": "ON 12/24 AND 12/31, THIS BOX MAY BE COLLECTED AS EARLY AS 12 NOON.", "nsi_id": "unitedstatespostalservice-a77078", "operator": "United States Postal Service", "operator:short": "USPS", "operator:type": "public", "operator:wikidata": "Q668687", "ref": "1485000139"}, "type": "Feature"}
{"dataset_attributes": {"@spider": "usps_collection_boxes"}, "geometry": {"coordinates": [-76.467631, 42.489928], "type": "Point"}, "id": "yYlQ9MrRjNE23GezyDx2f4SnN3o=", "properties": {"@spider": "usps_collection_boxes", "addr:city": "ITHACA", "addr:country": "US", "addr:full": "757 WARREN RD", "addr:postcode": "14850", "addr:state": "NY", "amenity": "post_box", "brand": "United States Postal Service", "brand:wikidata": "Q668687", "collection_times": "Mo-Fr 17:30; Sa 16:15", "name": "USPS COLLECTION BOX - APC", "note": "ON 12/24 AND 12/31, THIS BOX MAY BE COLLECTED AS EARLY AS 12 NOON.", "nsi_id": "unitedstatespostalservice-a77078", "operator": "United States Postal Service", "operator:short": "USPS", "operator:type": "public", "operator:wikidata": "Q668687", "ref": "1485000140"}, "type": "Feature"}
{"dataset_attributes": {"@spider": "usps_collection_boxes"}, "geometry": {"coordinates": [-76.5098263, 42.432368], "type": "Point"}, "id": "OWs_nOLbMJaaJGXDh2dxRroSWlM=", "properties": {"@spider": "usps_collection_boxes", "addr:city": "ITHACA", "addr:country": "US", "addr:full": "614 S MEADOW ST", "addr:postcode": "14850", "addr:state": "NY", "amenity": "post_box", "brand": "United States Postal Service", "brand:wikidata": "Q668687", "collection_times": "Mo-Sa 09:30", "name": "USPS COLLECTION BOX - BLUE BOX", "nsi_id": "unitedstatespostalservice-a77078", "operator": "United States Postal Service", "operator:short": "USPS", "operator:type": "public", "operator:wikidata": "Q668687", "ref": "1485000141"}, "type": "Feature"}
{"dataset_attributes": {"@spider": "usps_collection_boxes"}, "geometry": {"coordinates": [-76.4628904, 42.490027], "type": "Point"}, "id": "Qz5E2C3UDAoKNjVj4LoBt-Gu8OI=", "properties": {"@spider": "usps_collection_boxes", "addr:city": "ITHACA", "addr:country": "US", "addr:full": "1 CULLIGAN DR", "addr:postcode": "14850", "addr:state": "NY", "amenity": "post_box", "brand": "United States Postal Service", "brand:wikidata": "Q668687", "collection_times": "Mo-Sa 10:00", "name": "USPS COLLECTION BOX - BLUE BOX", "nsi_id": "unitedstatespostalservice-a77078", "operator": "United States Postal Service", "operator:short": "USPS", "operator:type": "public", "operator:wikidata": "Q668687", "ref": "1485000142"}, "type": "Feature"}
{"dataset_attributes": {"@spider": "usps_collection_boxes"}, "geometry": {"coordinates": [-76.4803157, 42.4465], "type": "Point"}, "id": "rGEWV0FSs_dBwXm1lbSuu_WFo1g=", "properties": {"@spider": "usps_collection_boxes", "addr:city": "ITHACA", "addr:country": "US", "addr:full": "245 GARDEN AVE", "addr:postcode": "14850", "addr:state": "NY", "amenity": "post_box", "brand": "United States Postal Service", "brand:wikidata": "Q668687", "collection_times": "Mo-Sa 12:00", "name": "USPS COLLECTION BOX - BLUE BOX", "nsi_id": "unitedstatespostalservice-a77078", "operator": "United States Postal Service", "operator:short": "USPS", "operator:type": "public", "operator:wikidata": "Q668687", "ref": "1485000143"}, "type": "Feature"}
{"dataset_attributes": {"@spider": "usps_collection_boxes"}, "geometry": {"coordinates": [-76.4929377, 42.43918], "type": "Point"}, "id": "Xu_4B-N8LQEa9bilufMKOCdeD0g=", "properties": {"@spider": "usps_collection_boxes", "addr:city": "ITHACA", "addr:country": "US", "addr:full": "401 E STATE ST", "addr:postcode": "14850", "addr:state": "NY", "amenity": "post_box", "brand": "United States Postal Service", "brand:wikidata": "Q668687", "collection_times": "Mo-Sa 09:30", "name": "USPS COLLECTION BOX - BLUE BOX", "nsi_id": "unitedstatespostalservice-a77078", "operator": "United States Postal Service", "operator:short": "USPS", "operator:type": "public", "operator:wikidata": "Q668687", "ref": "1485000144"}, "type": "Feature"}
{"dataset_attributes": {"@spider": "usps_collection_boxes"}, "geometry": {"coordinates": [-76.4827745, 42.447087], "type": "Point"}, "id": "6TAaM81XDrMK2FM8cnyV3WOiYBE=", "properties": {"@spider": "usps_collection_boxes", "addr:city": "ITHACA", "addr:country": "US", "addr:full": "1 DAY HILL RD", "addr:postcode": "14850", "addr:state": "NY", "amenity": "post_box", "brand": "United States Postal Service", "brand:wikidata": "Q668687", "collection_times": "Mo-Sa 12:00", "name": "USPS COLLECTION BOX - BLUE BOX", "nsi_id": "unitedstatespostalservice-a77078", "operator": "United States Postal Service", "operator:short": "USPS", "operator:type": "public", "operator:wikidata": "Q668687", "ref": "1485000147"}, "type": "Feature"}
{"dataset_attributes": {"@spider": "usps_collection_boxes"}, "geometry": {"coordinates": [-76.496814, 42.440624], "type": "Point"}, "id": "MNmPwCz4Tc13Juf4TC2IMS_pCBo=", "properties": {"@spider": "usps_collection_boxes", "addr:city": "ITHACA", "addr:country": "US", "addr:full": "213 N TIOGA ST", "addr:postcode": "14850", "addr:state": "NY", "amenity": "post_box", "brand": "United States Postal Service", "brand:wikidata": "Q668687", "collection_times": "Mo-Fr 17:00; Sa 12:00", "name": "USPS COLLECTION BOX - BLUE BOX", "note": "ON 12/24 AND 12/31, THIS BOX MAY BE COLLECTED AS EARLY AS 12 NOON.", "nsi_id": "unitedstatespostalservice-a77078", "operator": "United States Postal Service", "operator:short": "USPS", "operator:type": "public", "operator:wikidata": "Q668687", "ref": "1485000148"}, "type": "Feature"}
{"dataset_attributes": {"@spider": "usps_collection_boxes"}, "geometry": {"coordinates": [-76.467595356, 42.490048997], "type": "Point"}, "id": "S1wiVTze0uNgmP9nUOaE0x06GQQ=", "properties": {"@spider": "usps_collection_boxes", "addr:city": "ITHACA", "addr:country": "US", "addr:full": "757 WARREN RD", "addr:postcode": "14850", "addr:state": "NY", "amenity": "post_box", "brand": "United States Postal Service", "brand:wikidata": "Q668687", "collection_times": "Mo-Fr 17:30; Sa 12:00", "name": "USPS COLLECTION BOX - PO LOBBY", "note": "ON 12/24 AND 12/31, THIS BOX MAY BE COLLECTED AS EARLY AS 12 NOON.", "nsi_id": "unitedstatespostalservice-a77078", "operator": "United States Postal Service", "operator:short": "USPS", "operator:type": "public", "operator:wikidata": "Q668687", "ref": "1485000157"}, "type": "Feature"}
{"dataset_attributes": {"@spider": "usps_collection_boxes"}, "geometry": {"coordinates": [-76.4968429, 42.441049456], "type": "Point"}, "id": "I4diW8d-nqEu8suAdO9al9ynI6U=", "properties": {"@spider": "usps_collection_boxes", "addr:city": "ITHACA", "addr:country": "US", "addr:full": "213 N TIOGA ST", "addr:postcode": "14850", "addr:state": "NY", "amenity": "post_box", "brand": "United States Postal Service", "brand:wikidata": "Q668687", "collection_times": "Mo-Fr 17:00; Sa 12:00", "name": "USPS COLLECTION BOX - PO LOBBY", "note": "ON 12/24 AND 12/31, THIS BOX MAY BE COLLECTED AS EARLY AS 12 NOON.", "nsi_id": "unitedstatespostalservice-a77078", "operator": "United States Postal Service", "operator:short": "USPS", "operator:type": "public", "operator:wikidata": "Q668687", "ref": "1485000158"}, "type": "Feature"}
{"dataset_attributes": {"@spider": "usps_collection_boxes"}, "geometry": {"coordinates": [-76.614681, 42.508306], "type": "Point"}, "id": "m3dWCHSGdGY95cWxpO9uIN-Oca4=", "properties": {"@spider": "usps_collection_boxes", "addr:city": "JACKSONVILLE", "addr:country": "US", "addr:full": "1852 TRUMANSBURG RD", "addr:postcode": "14854", "addr:state": "NY", "amenity": "post_box", "brand": "United States Postal Service", "brand:wikidata": "Q668687", "collection_times": "Mo-Fr 16:30; Sa 11:30", "name": "USPS COLLECTION BOX - BLUE BOX", "note": "ON 12/24 AND 12/31, THIS BOX MAY BE COLLECTED AS EARLY AS 12 NOON.", "nsi_id": "unitedstatespostalservice-a77078", "operator": "United States Postal Service", "operator:short": "USPS", "operator:type": "public", "operator:wikidata": "Q668687", "ref": "1485400001"}, "type": "Feature"}
{"dataset_attributes": {"@spider": "usps_collection_boxes"}, "geometry": {"coordinates": [-76.614735, 42.508391], "type": "Point"}, "id": "7FWfyxF5S6-2m9afGhRU78jw3rs=", "properties": {"@spider": "usps_collection_boxes", "addr:city": "JACKSONVILLE", "addr:country": "US", "addr:full": "1852 TRUMANSBURG RD", "addr:postcode": "14854", "addr:state": "NY", "amenity": "post_box", "brand": "United States Postal Service", "brand:wikidata": "Q668687", "collection_times": "Mo-Fr 17:00; Sa 12:00", "name": "USPS COLLECTION BOX - PO LOBBY", "note": "ON 12/24 AND 12/31, THIS BOX MAY BE COLLECTED AS EARLY AS 12 NOON.", "nsi_id": "unitedstatespostalservice-a77078", "operator": "United States Postal Service", "operator:short": "USPS", "operator:type": "public", "operator:wikidata": "Q668687", "ref": "1485400002"}, "type": "Feature"}
{"dataset_attributes": {"@spider": "usps_collection_boxes"}, "geometry": {"coordinates": [-76.613917608, 42.507678766], "type": "Point"}, "id": "toGEya0yDdARRHaaV06weJ7PVKg=", "properties": {"@spider": "usps_collection_boxes", "addr:city": "JACKSONVILLE", "addr:country": "US", "addr:full": "1852 TRUMANSBURG RD", "addr:postcode": "14854", "addr:state": "NY", "amenity": "post_box", "brand": "United States Postal Service", "brand:wikidata": "Q668687", "collection_times": "Mo-Fr 17:00; Sa 12:00", "name": "USPS COLLECTION BOX - PO LOBBY", "note": "ON 12/24 AND 12/31, THIS BOX MAY BE COLLECTED AS EARLY AS 12 NOON.", "nsi_id": "unitedstatespostalservice-a77078", "operator": "United States Postal Service", "operator:short": "USPS", "operator:type": "public", "operator:wikidata": "Q668687", "ref": "1485400004"}, "type": "Feature"}
{"dataset_attributes": {"@spider": "usps_collection_boxes"}, "geometry": {"coordinates": [-77.139295, 42.02759], "type": "Point"}, "id": "fNRbQzv0HFbcJiFN-Z2FIPEDh5s=", "properties": {"@spider": "usps_collection_boxes", "addr:city": "LINDLEY", "addr:country": "US", "addr:full": "637 COUNTY ROUTE 115", "addr:postcode": "14858", "addr:state": "NY", "amenity": "post_box", "brand": "United States Postal Service", "brand:wikidata": "Q668687", "collection_times": "Mo-Fr 12:00; Sa 11:30", "name": "USPS COLLECTION BOX - BLUE BOX", "nsi_id": "unitedstatespostalservice-a77078", "operator": "United States Postal Service", "operator:short": "USPS", "operator:type": "public", "operator:wikidata": "Q668687", "ref": "1485800001"}, "type": "Feature"}
{"dataset_attributes": {"@spider": "usps_collection_boxes"}, "geometry": {"coordinates": [-77.1396912, 42.027377], "type": "Point"}, "id": "J2A3uq7LWhbsWM2nUxu5Je3bbFE=", "properties": {"@spider": "usps_collection_boxes", "addr:city": "LINDLEY", "addr:country": "US", "addr:full": "637 COUNTY ROUTE 115", "addr:postcode": "14858", "addr:state": "NY", "amenity": "post_box", "brand": "United States Postal Service", "brand:wikidata": "Q668687", "collection_times": "Mo-Sa 12:00", "name": "USPS COLLECTION BOX - PO LOBBY", "nsi_id": "unitedstatespostalservice-a77078", "operator": "United States Postal Service", "operator:short": "USPS", "operator:type": "public", "operator:wikidata": "Q668687", "ref": "1485800002"}, "type": "Feature"}
{"dataset_attributes": {"@spider": "usps_collection_boxes"}, "geometry": {"coordinates": [-77.139341013, 42.027443246], "type": "Point"}, "id": "W2fOSR5xde8qFOdol1shmmpBzmk=", "properties": {"@spider": "usps_collection_boxes", "addr:city": "LINDLEY", "addr:country": "US", "addr:full": "637 COUNTY ROUTE 115", "addr:postcode": "14858", "addr:state": "NY", "amenity": "post_box", "brand": "United States Postal Service", "brand:wikidata": "Q668687", "collection_times": "Mo-Sa 12:00", "name": "USPS COLLECTION BOX - PO LOBBY", "nsi_id": "unitedstatespostalservice-a77078", "operator": "United States Postal Service", "operator:short": "USPS", "operator:type": "public", "operator:wikidata": "Q668687", "ref": "1485800005"}, "type": "Feature"}
{"dataset_attributes": {"@spider": "usps_collection_boxes"}, "geometry": {"coordinates": [-76.54574, 42.102683], "type": "Point"}, "id": "OaBrH1WWJzKGSNkf-qm2rgkLiPQ=", "properties": {"@spider": "usps_collection_boxes", "addr:city": "LOCKWOOD", "addr:country": "US", "addr:full": "1557 STATE ROUTE 34", "addr:postcode": "14859", "addr:state": "NY", "amenity": "post_box", "brand": "United States Postal Service", "brand:wikidata": "Q668687", "collection_times": "Mo-Fr 12:30; Sa 11:45", "name": "USPS COLLECTION BOX - PO LOBBY", "note": "ON 12/24 AND 12/31, THIS BOX MAY BE COLLECTED AS EARLY AS 12 NOON.", "nsi_id": "unitedstatespostalservice-a77078", "operator": "United States Postal Service", "operator:short": "USPS", "operator:type": "public", "operator:wikidata": "Q668687", "ref": "1485900000"}, "type": "Feature"}
{"dataset_attributes": {"@spider": "usps_collection_boxes"}, "geometry": {"coordinates": [-76.54571, 42.102758], "type": "Point"}, "id": "wEa9PwzHuhBKNM4QfoPCBhoh8WU=", "properties": {"@spider": "usps_collection_boxes", "addr:city": "LOCKWOOD", "addr:country": "US", "addr:full": "1557 STATE ROUTE 34", "addr:postcode": "14859", "addr:state": "NY", "amenity": "post_box", "brand": "United States Postal Service", "brand:wikidata": "Q668687", "collection_times": "Mo-Fr 12:30; Sa 11:45", "name": "USPS COLLECTION BOX - BLUE BOX", "note": "ON 12/24 AND 12/31, THIS BOX MAY BE COLLECTED AS EARLY AS 12 NOON.", "nsi_id": "unitedstatespostalservice-a77078", "operator": "United States Postal Service", "operator:short": "USPS", "operator:type": "public", "operator:wikidata": "Q668687", "ref": "1485900001"}, "type": "Feature"}
{"dataset_attributes": {"@spider": "usps_collection_boxes"}, "geometry": {"coordinates": [-76.545798681, 42.103248286], "type": "Point"}, "id": "zhMkeVAyIekBX3GMMiRUlh6ziMQ=", "properties": {"@spider": "usps_collection_boxes", "addr:city": "LOCKWOOD", "addr:country": "US", "addr:full": "1557 STATE ROUTE 34", "addr:postcode": "14859", "addr:state": "NY", "amenity": "post_box", "brand": "United States Postal Service", "brand:wikidata": "Q668687", "collection_times": "Mo-Fr 12:30; Sa 12:00", "name": "USPS COLLECTION BOX - PO LOBBY", "note": "ON 12/24 AND 12/31, THIS BOX MAY BE COLLECTED AS EARLY AS 12 NOON.", "nsi_id": "unitedstatespostalservice-a77078", "operator": "United States Postal Service", "operator:short": "USPS", "operator:type": "public", "operator:wikidata": "Q668687", "ref": "1485900003"}, "type": "Feature"}
{"dataset_attributes": {"@spider": "usps_collection_boxes"}, "geometry": {"coordinates": [-76.822936, 42.614944], "type": "Point"}, "id": "Bze-qMzsvblNnxsjZ32g6YOu5co=", "properties": {"@spider": "usps_collection_boxes", "addr:city": "LODI", "addr:country": "US", "addr:full": "8455 N MAIN ST", "addr:postcode": "14860", "addr:state": "NY", "amenity": "post_box", "brand": "United States Postal Service", "brand:wikidata": "Q668687", "collection_times": "Mo-Fr 12:30; Sa 11:30", "name": "USPS COLLECTION BOX - BLUE BOX", "note": "ON 12/24 AND 12/31, THIS BOX MAY BE COLLECTED AS EARLY AS 12 NOON.", "nsi_id": "unitedstatespostalservice-a77078", "operator": "United States Postal Service", "operator:short": "USPS", "operator:type": "public", "operator:wikidata": "Q668687", "ref": "1486000001"}, "type": "Feature"}
{"dataset_attributes": {"@spider": "usps_collection_boxes"}, "geometry": {"coordinates": [-76.822971, 42.615022], "type": "Point"}, "id": "FmGrbPV8WH3ihIiP8g0BaGKQuNk=", "properties": {"@spider": "usps_collection_boxes", "addr:city": "LODI", "addr:country": "US", "addr:full": "8455 N MAIN ST", "addr:postcode": "14860", "addr:state": "NY", "amenity": "post_box", "brand": "United States Postal Service", "brand:wikidata": "Q668687", "collection_times": "Mo-Fr 12:30; Sa 11:30", "name": "USPS COLLECTION BOX - PO LOBBY", "note": "ON 12/24 AND 12/31, THIS BOX MAY BE COLLECTED AS EARLY AS 12 NOON.", "nsi_id": "unitedstatespostalservice-a77078", "operator": "United States Postal Service", "operator:short": "USPS", "operator:type": "public", "operator:wikidata": "Q668687", "ref": "1486000002"}, "type": "Feature"}
{"dataset_attributes": {"@spider": "usps_collection_boxes"}, "geometry": {"coordinates": [-76.8229462, 42.614434425], "type": "Point"}, "id": "cogA4UtSavGsNtOeoztZ3avyRHg=", "properties": {"@spider": "usps_collection_boxes", "addr:city": "LODI", "addr:country": "US", "addr:full": "8455 N MAIN ST", "addr:postcode": "14860", "addr:state": "NY", "amenity": "post_box", "brand": "United States Postal Service", "brand:wikidata": "Q668687", "collection_times": "Mo-Fr 12:30; Sa 12:00", "name": "USPS COLLECTION BOX - PO LOBBY", "note": "ON 12/24 AND 12/31, THIS BOX MAY BE COLLECTED AS EARLY AS 12 NOON.", "nsi_id": "unitedstatespostalservice-a77078", "operator": "United States Postal Service", "operator:short": "USPS", "operator:type": "public", "operator:wikidata": "Q668687", "ref": "1486000006"}, "type": "Feature"}
{"dataset_attributes": {"@spider": "usps_collection_boxes"}, "geometry": {"coordinates": [-76.7103530422, 42.4563360136], "type": "Point"}, "id": "3k9TrcoUzN1lAAF-_pRczINshAM=", "properties": {"@spider": "usps_collection_boxes", "addr:city": "MECKLENBURG", "addr:country": "US", "addr:full": "6123 MECKLENBURG RD", "addr:postcode": "14863", "addr:state": "NY", "amenity": "post_box", "brand": "United States Postal Service", "brand:wikidata": "Q668687", "collection_times": "Mo-Fr 12:00; Sa 11:30", "name": "USPS COLLECTION BOX - BLUE BOX", "nsi_id": "unitedstatespostalservice-a77078", "operator": "United States Postal Service", "operator:short": "USPS", "operator:type": "public", "operator:wikidata": "Q668687", "ref": "1486300001"}, "type": "Feature"}
{"dataset_attributes": {"@spider": "usps_collection_boxes"}, "geometry": {"coordinates": [-76.7103530422, 42.4563360136], "type": "Point"}, "id": "1n_i1f_ENlyDP0hlvrIp7F6pXTQ=", "properties": {"@spider": "usps_collection_boxes", "addr:city": "MECKLENBURG", "addr:country": "US", "addr:full": "6123 MECKLENBURG RD", "addr:postcode": "14863", "addr:state": "NY", "amenity": "post_box", "brand": "United States Postal Service", "brand:wikidata": "Q668687", "collection_times": "Mo-Fr 12:00; Sa 11:45", "name": "USPS COLLECTION BOX - PO LOBBY", "nsi_id": "unitedstatespostalservice-a77078", "operator": "United States Postal Service", "operator:short": "USPS", "operator:type": "public", "operator:wikidata": "Q668687", "ref": "1486300002"}, "type": "Feature"}
{"dataset_attributes": {"@spider": "usps_collection_boxes"}, "geometry": {"coordinates": [-76.779610411, 42.339828023], "type": "Point"}, "id": "Ok6xB7rCJxLtTuJic17EXY9PAeY=", "properties": {"@spider": "usps_collection_boxes", "addr:city": "MECKLENBURG", "addr:country": "US", "addr:full": "6123 MECKLENBURG RD", "addr:postcode": "14863", "addr:state": "NY", "amenity": "post_box", "brand": "United States Postal Service", "brand:wikidata": "Q668687", "collection_times": "Mo-Sa 12:00", "name": "USPS COLLECTION BOX - PO LOBBY", "nsi_id": "unitedstatespostalservice-a77078", "operator": "United States Postal Service", "operator:short": "USPS", "operator:type": "public", "operator:wikidata": "Q668687", "ref": "1486300004"}, "type": "Feature"}
{"dataset_attributes": {"@spider": "usps_collection_boxes"}, "geometry": {"coordinates": [-76.837077, 42.251281], "type": "Point"}, "id": "wPOGPmk9XDGEpljFYKn8gIqgYDI=", "properties": {"@spider": "usps_collection_boxes", "addr:city": "MILLPORT", "addr:country": "US", "addr:full": "3 BURCH HILL RD", "addr:postcode": "14864", "addr:state": "NY", "amenity": "post_box", "brand": "United States Postal Service", "brand:wikidata": "Q668687", "collection_times": "Mo-Fr 12:00; Sa 11:45", "name": "USPS COLLECTION BOX - BLUE BOX", "nsi_id": "unitedstatespostalservice-a77078", "operator": "United States Postal Service", "operator:short": "USPS", "operator:type": "public", "operator:wikidata": "Q668687", "ref": "1486400001"}, "type": "Feature"}
{"dataset_attributes": {"@spider": "usps_collection_boxes"}, "geometry": {"coordinates": [-76.83719, 42.251254], "type": "Point"}, "id": "sITkilmBQ7Ab65SN2MeBDoPm2Ps=", "properties": {"@spider": "usps_collection_boxes", "addr:city": "MILLPORT", "addr:country": "US", "addr:full": "3 BURCH HILL RD", "addr:postcode": "14864", "addr:state": "NY", "amenity": "post_box", "brand": "United States Postal Service", "brand:wikidata": "Q668687", "collection_times": "Mo-Fr 12:00; Sa 11:45", "name": "USPS COLLECTION BOX - PO LOBBY", "nsi_id": "unitedstatespostalservice-a77078", "operator": "United States Postal Service", "operator:short": "USPS", "operator:type": "public", "operator:wikidata": "Q668687", "ref": "1486400002"}, "type": "Feature"}
{"dataset_attributes": {"@spider": "usps_collection_boxes"}, "geometry": {"coordinates": [-76.837220026, 42.251275508], "type": "Point"}, "id": "p-y1ACoSBxO9OMn6zabIY5cONgw=", "properties": {"@spider": "usps_collection_boxes", "addr:city": "MILLPORT", "addr:country": "US", "addr:full": "3 BURCH HILL RD", "addr:postcode": "14864", "addr:state": "NY", "amenity": "post_box", "brand": "United States Postal Service", "brand:wikidata": "Q668687", "collection_times": "Mo-Sa 12:00", "name": "USPS COLLECTION BOX - PO LOBBY", "nsi_id": "unitedstatespostalservice-a77078", "operator": "United States Postal Service", "operator:short": "USPS", "operator:type": "public", "operator:wikidata": "Q668687", "ref": "1486400004"}, "type": "Feature"}
{"dataset_attributes": {"@spider": "usps_collection_boxes"}, "geometry": {"coordinates": [-76.847933, 42.34622], "type": "Point"}, "id": "qNlheYEyIkhFpinxpVF0n3PAXlg=", "properties": {"@spider": "usps_collection_boxes", "addr:city": "MONTOUR FALLS", "addr:country": "US", "addr:full": "309 W MAIN ST", "addr:postcode": "14865", "addr:state": "NY", "amenity": "post_box", "brand": "United States Postal Service", "brand:wikidata": "Q668687", "collection_times": "Mo-Fr 16:30; Sa 12:00", "name": "USPS COLLECTION BOX - BLUE BOX", "note": "ON 12/24 AND 12/31, THIS BOX MAY BE COLLECTED AS EARLY AS 12 NOON.", "nsi_id": "unitedstatespostalservice-a77078", "operator": "United States Postal Service", "operator:short": "USPS", "operator:type": "public", "operator:wikidata": "Q668687", "ref": "1486500002"}, "type": "Feature"}
{"dataset_attributes": {"@spider": "usps_collection_boxes"}, "geometry": {"coordinates": [-76.847933, 42.34622], "type": "Point"}, "id": "na44eqJyzDFrF8aL-UPx-Rc8siE=", "properties": {"@spider": "usps_collection_boxes", "addr:city": "MONTOUR FALLS", "addr:country": "US", "addr:full": "309 W MAIN ST", "addr:postcode": "14865", "addr:state": "NY", "amenity": "post_box", "brand": "United States Postal Service", "brand:wikidata": "Q668687", "collection_times": "Mo-Fr 17:00; Sa 12:00", "name": "USPS COLLECTION BOX - PO LOBBY", "note": "ON 12/24 AND 12/31, THIS BOX MAY BE COLLECTED AS EARLY AS 12 NOON.", "nsi_id": "unitedstatespostalservice-a77078", "operator": "United States Postal Service", "operator:short": "USPS", "operator:type": "public", "operator:wikidata": "Q668687", "ref": "1486500003"}, "type": "Feature"}
{"dataset_attributes": {"@spider": "usps_collection_boxes"}, "geometry": {"coordinates": [-76.847951693, 42.34612238], "type": "Point"}, "id": "jhp1GZstf2sZAtsU4p5iQEy19Jw=", "properties": {"@spider": "usps_collection_boxes", "addr:city": "MONTOUR FALLS", "addr:country": "US", "addr:full": "309 W MAIN ST", "addr:postcode": "14865", "addr:state": "NY", "amenity": "post_box", "brand": "United States Postal Service", "brand:wikidata": "Q668687", "collection_times": "Mo-Fr 17:00; Sa 12:00", "name": "USPS COLLECTION BOX - PO LOBBY", "note": "ON 12/24 AND 12/31, THIS BOX MAY BE COLLECTED AS EARLY AS 12 NOON.", "nsi_id": "unitedstatespostalservice-a77078", "operator": "United States Postal Service", "operator:short": "USPS", "operator:type": "public", "operator:wikidata": "Q668687", "ref": "1486500004"}, "type": "Feature"}
{"dataset_attributes": {"@spider": "usps_collection_boxes"}, "geometry": {"coordinates": [-76.599862, 42.358986], "type": "Point"}, "id": "AOhjI4UdsbIo4bHwBqQCsQodN5Y=", "properties": {"@spider": "usps_collection_boxes", "addr:city": "NEWFIELD", "addr:country": "US", "addr:full": "298 MAIN ST", "addr:postcode": "14867", "addr:state": "NY", "amenity": "post_box", "brand": "United States Postal Service", "brand:wikidata": "Q668687", "collection_times": "Mo-Fr 16:30; Sa 12:00", "name": "USPS COLLECTION BOX - BLUE BOX", "note": "ON 12/24 AND 12/31, THIS BOX MAY BE COLLECTED AS EARLY AS 12 NOON.", "nsi_id": "unitedstatespostalservice-a77078", "operator": "United States Postal Service", "operator:short": "USPS", "operator:type": "public", "operator:wikidata": "Q668687", "ref": "1486700001"}, "type": "Feature"}
{"dataset_attributes": {"@spider": "usps_collection_boxes"}, "geometry": {"coordinates": [-76.599814, 42.35899], "type": "Point"}, "id": "DOyVBI_ntfZTu8VOKpy3DyOAhZg=", "properties": {"@spider": "usps_collection_boxes", "addr:city": "NEWFIELD", "addr:country": "US", "addr:full": "298 MAIN ST", "addr:postcode": "14867", "addr:state": "NY", "amenity": "post_box", "brand": "United States Postal Service", "brand:wikidata": "Q668687", "collection_times": "Mo-Fr 16:45; Sa 12:00", "name": "USPS COLLECTION BOX - PO LOBBY", "note": "ON 12/24 AND 12/31, THIS BOX MAY BE COLLECTED AS EARLY AS 12 NOON.", "nsi_id": "unitedstatespostalservice-a77078", "operator": "United States Postal Service", "operator:short": "USPS", "operator:type": "public", "operator:wikidata": "Q668687", "ref": "1486700004"}, "type": "Feature"}
{"dataset_attributes": {"@spider": "usps_collection_boxes"}, "geometry": {"coordinates": [-76.599878522, 42.359017532], "type": "Point"}, "id": "yfSd6JBavF-bCks3l2btSQOKNUc=", "properties": {"@spider": "usps_collection_boxes", "addr:city": "NEWFIELD", "addr:country": "US", "addr:full": "298 MAIN ST", "addr:postcode": "14867", "addr:state": "NY", "amenity": "post_box", "brand": "United States Postal Service", "brand:wikidata": "Q668687", "collection_times": "Mo-Fr 16:45; Sa 12:00", "name": "USPS COLLECTION BOX - PO LOBBY", "note": "ON 12/24 AND 12/31, THIS BOX MAY BE COLLECTED AS EARLY AS 12 NOON.", "nsi_id": "unitedstatespostalservice-a77078", "operator": "United States Postal Service", "operator:short": "USPS", "operator:type": "public", "operator:wikidata": "Q668687", "ref": "1486700006"}, "type": "Feature"}
{"dataset_attributes": {"@spider": "usps_collection_boxes"}, "geometry": {"coordinates": [-76.786494, 42.336244], "type": "Point"}, "id": "50tLad9U38Z5UunqfbBWZn7TNCo=", "properties": {"@spider": "usps_collection_boxes", "addr:city": "ODESSA", "addr:country": "US", "addr:full": "223 MAIN ST", "addr:postcode": "14869", "addr:state": "NY", "amenity": "post_box", "brand": "United States Postal Service", "brand:wikidata": "Q668687", "collection_times": "Mo-Fr 15:30; Sa 11:45", "name": "USPS COLLECTION BOX - BLUE BOX", "note": "ON 12/24 AND 12/31, THIS BOX MAY BE COLLECTED AS EARLY AS 12 NOON.", "nsi_id": "unitedstatespostalservice-a77078", "operator": "United States Postal Service", "operator:short": "USPS", "operator:type": "public", "operator:wikidata": "Q668687", "ref": "1486900002"}, "type": "Feature"}
{"dataset_attributes": {"@spider": "usps_collection_boxes"}, "geometry": {"coordinates": [-76.786494, 42.336244], "type": "Point"}, "id": "0WyndKQHUYoFnYOp8tfwitSFo2A=", "properties": {"@spider": "usps_collection_boxes", "addr:city": "ODESSA", "addr:country": "US", "addr:full": "223 MAIN ST", "addr:postcode": "14869", "addr:state": "NY", "amenity": "post_box", "brand": "United States Postal Service", "brand:wikidata": "Q668687", "collection_times": "Mo-Fr 15:30; Sa 12:00", "name": "USPS COLLECTION BOX - PO LOBBY", "note": "ON 12/24 AND 12/31, THIS BOX MAY BE COLLECTED AS EARLY AS 12 NOON.", "nsi_id": "unitedstatespostalservice-a77078", "operator": "United States Postal Service", "operator:short": "USPS", "operator:type": "public", "operator:wikidata": "Q668687", "ref": "1486900003"}, "type": "Feature"}
{"dataset_attributes": {"@spider": "usps_collection_boxes"}, "geometry": {"coordinates": [-76.786429701, 42.336259436], "type": "Point"}, "id": "KXzLq0dbfRpfBgO9bpLLoIS9PUM=", "properties": {"@spider": "usps_collection_boxes", "addr:city": "ODESSA", "addr:country": "US", "addr:full": "223 MAIN ST", "addr:postcode": "14869", "addr:state": "NY", "amenity": "post_box", "brand": "United States Postal Service", "brand:wikidata": "Q668687", "collection_times": "Mo-Fr 15:30; Sa 12:00", "name": "USPS COLLECTION BOX - PO LOBBY", "note": "ON 12/24 AND 12/31, THIS BOX MAY BE COLLECTED AS EARLY AS 12 NOON.", "nsi_id": "unitedstatespostalservice-a77078", "operator": "United States Postal Service", "operator:short": "USPS", "operator:type": "public", "operator:wikidata": "Q668687", "ref": "1486900006"}, "type": "Feature"}
{"dataset_attributes": {"@spider": "usps_collection_boxes"}, "geometry": {"coordinates": [-76.873615, 42.035582], "type": "Point"}, "id": "1tAHKa48zCvBtygcpoXTmEyxZ-I=", "properties": {"@spider": "usps_collection_boxes", "addr:city": "PINE CITY", "addr:country": "US", "addr:full": "1565 PENNSYLVANIA AVE", "addr:postcode": "14871", "addr:state": "NY", "amenity": "post_box", "brand": "United States Postal Service", "brand:wikidata": "Q668687", "collection_times": "Mo-Fr 17:00; Sa 12:00", "name": "USPS COLLECTION BOX - BLUE BOX", "note": "ON 12/24 AND 12/31, THIS BOX MAY BE COLLECTED AS EARLY AS 12 NOON.", "nsi_id": "unitedstatespostalservice-a77078", "operator": "United States Postal Service", "operator:short": "USPS", "operator:type": "public", "operator:wikidata": "Q668687", "ref": "1487100001"}, "type": "Feature"}
{"dataset_attributes": {"@spider": "usps_collection_boxes"}, "geometry": {"coordinates": [-76.873556, 42.035631], "type": "Point"}, "id": "jnkAf6WVJzjfU5sl1Y78TYrB_VM=", "properties": {"@spider": "usps_collection_boxes", "addr:city": "PINE CITY", "addr:country": "US", "addr:full": "1565 PENNSYLVANIA AVE", "addr:postcode": "14871", "addr:state": "NY", "amenity": "post_box", "brand": "United States Postal Service", "brand:wikidata": "Q668687", "collection_times": "Mo-Fr 17:00; Sa 12:00", "name": "USPS COLLECTION BOX - PO LOBBY", "note": "ON 12/24 AND 12/31, THIS BOX MAY BE COLLECTED AS EARLY AS 12 NOON.", "nsi_id": "unitedstatespostalservice-a77078", "operator": "United States Postal Service", "operator:short": "USPS", "operator:type": "public", "operator:wikidata": "Q668687", "ref": "1487100002"}, "type": "Feature"}
{"dataset_attributes": {"@spider": "usps_collection_boxes"}, "geometry": {"coordinates": [-76.874021981, 42.03544253], "type": "Point"}, "id": "K82BpY8vGaROfleewfWAO-E-iyg=", "properties": {"@spider": "usps_collection_boxes", "addr:city": "PINE CITY", "addr:country": "US", "addr:full": "1565 PENNSYLVANIA AVE", "addr:postcode": "14871", "addr:state": "NY", "amenity": "post_box", "brand": "United States Postal Service", "brand:wikidata": "Q668687", "collection_times": "Mo-Fr 17:00; Sa 12:00", "name": "USPS COLLECTION BOX - PO LOBBY", "note": "ON 12/24 AND 12/31, THIS BOX MAY BE COLLECTED AS EARLY AS 12 NOON.", "nsi_id": "unitedstatespostalservice-a77078", "operator": "United States Postal Service", "operator:short": "USPS", "operator:type": "public", "operator:wikidata": "Q668687", "ref": "1487100004"}, "type": "Feature"}
{"dataset_attributes": {"@spider": "usps_collection_boxes"}, "geometry": {"coordinates": [-76.844356, 42.227814], "type": "Point"}, "id": "ksoaDH1CgsYTtyr-1w5tSafH2ZM=", "properties": {"@spider": "usps_collection_boxes", "addr:city": "PINE VALLEY", "addr:country": "US", "addr:full": "3703 WATKINS RD", "addr:postcode": "14872", "addr:state": "NY", "amenity": "post_box", "brand": "United States Postal Service", "brand:wikidata": "Q668687", "collection_times": "Mo-Fr 16:45; Sa 11:45", "name": "USPS COLLECTION BOX - BLUE BOX", "note": "ON 12/24 AND 12/31, THIS BOX MAY BE COLLECTED AS EARLY AS 12 NOON.", "nsi_id": "unitedstatespostalservice-a77078", "operator": "United States Postal Service", "operator:short": "USPS", "operator:type": "public", "operator:wikidata": "Q668687", "ref": "1487200001"}, "type": "Feature"}
{"dataset_attributes": {"@spider": "usps_collection_boxes"}, "geometry": {"coordinates": [-76.844267, 42.227881], "type": "Point"}, "id": "yLWl49OctKEea7tuFGKVtKH9nQc=", "properties": {"@spider": "usps_collection_boxes", "addr:city": "PINE VALLEY", "addr:country": "US", "addr:full": "3703 WATKINS RD", "addr:postcode": "14872", "addr:state": "NY", "amenity": "post_box", "brand": "United States Postal Service", "brand:wikidata": "Q668687", "collection_times": "Mo-Fr 16:45; Sa 11:45", "name": "USPS COLLECTION BOX - PO LOBBY", "note": "ON 12/24 AND 12/31, THIS BOX MAY BE COLLECTED AS EARLY AS 12 NOON.", "nsi_id": "unitedstatespostalservice-a77078", "operator": "United States Postal Service", "operator:short": "USPS", "operator:type": "public", "operator:wikidata": "Q668687", "ref": "1487200002"}, "type": "Feature"}
{"dataset_attributes": {"@spider": "usps_collection_boxes"}, "geometry": {"coordinates": [-76.844363611, 42.227858987], "type": "Point"}, "id": "YfjOkCXCeyUyYYXlhCKk-qcaVGs=", "properties": {"@spider": "usps_collection_boxes", "addr:city": "PINE VALLEY", "addr:country": "US", "addr:full": "3703 WATKINS RD", "addr:postcode": "14872", "addr:state": "NY", "amenity": "post_box", "brand": "United States Postal Service", "brand:wikidata": "Q668687", "collection_times": "Mo-Fr 16:30; Sa 12:00", "name": "USPS COLLECTION BOX - PO LOBBY", "note": "ON 12/24 AND 12/31, THIS BOX MAY BE COLLECTED AS EARLY AS 12 NOON.", "nsi_id": "unitedstatespostalservice-a77078", "operator": "United States Postal Service", "operator:short": "USPS", "operator:type": "public", "operator:wikidata": "Q668687", "ref": "1487200004"}, "type": "Feature"}
{"dataset_attributes": {"@spider": "usps_collection_boxes"}, "geometry": {"coordinates": [-76.927391612, 42.471040493], "type": "Point"}, "id": "2gnF-u5XWqQW6PPWBqsJEGzhgN4=", "properties": {"@spider": "usps_collection_boxes", "addr:city": "ROCK STREAM", "addr:country": "US", "addr:full": "278 ROCK STREAM RD", "addr:postcode": "14878", "addr:state": "NY", "amenity": "post_box", "brand": "United States Postal Service", "brand:wikidata": "Q668687", "collection_times": "Mo-Sa 12:00", "name": "USPS COLLECTION BOX - PO LOBBY", "nsi_id": "unitedstatespostalservice-a77078", "operator": "United States Postal Service", "operator:short": "USPS", "operator:type": "public", "operator:wikidata": "Q668687", "ref": "1487800004"}, "type": "Feature"}
{"dataset_attributes": {"@spider": "usps_collection_boxes"}, "geometry": {"coordinates": [-76.346562, 42.394037], "type": "Point"}, "id": "ZYFyVKaWcJ_X-umg2gNn_5Qd79w=", "properties": {"@spider": "usps_collection_boxes", "addr:city": "SLATERVLE SPG", "addr:country": "US", "addr:full": "2706 SLATERVILLE RD", "addr:postcode": "14881", "addr:state": "NY", "amenity": "post_box", "brand": "United States Postal Service", "brand:wikidata": "Q668687", "collection_times": "Mo-Fr 12:30; Sa 11:45", "name": "USPS COLLECTION BOX - BLUE BOX", "note": "ON 12/24 AND 12/31, THIS BOX MAY BE COLLECTED AS EARLY AS 12 NOON.", "nsi_id": "unitedstatespostalservice-a77078", "operator": "United States Postal Service", "operator:short": "USPS", "operator:type": "public", "operator:wikidata": "Q668687", "ref": "1488100001"}, "type": "Feature"}
{"dataset_attributes": {"@spider": "usps_collection_boxes"}, "geometry": {"coordinates": [-76.346622, 42.394009], "type": "Point"}, "id": "kSryOG_G9tbx0yvAiwIwlUQRvv0=", "properties": {"@spider": "usps_collection_boxes", "addr:city": "SLATERVLE SPG", "addr:country": "US", "addr:full": "2706 SLATERVILLE RD", "addr:postcode": "14881", "addr:state": "NY", "amenity": "post_box", "brand": "United States Postal Service", "brand:wikidata": "Q668687", "collection_times": "Mo-Fr 12:30; Sa 11:45", "name": "USPS COLLECTION BOX - PO LOBBY", "note": "ON 12/24 AND 12/31, THIS BOX MAY BE COLLECTED AS EARLY AS 12 NOON.", "nsi_id": "unitedstatespostalservice-a77078", "operator": "United States Postal Service", "operator:short": "USPS", "operator:type": "public", "operator:wikidata": "Q668687", "ref": "1488100002"}, "type": "Feature"}
{"dataset_attributes": {"@spider": "usps_collection_boxes"}, "geometry": {"coordinates": [-76.346720528, 42.394026497], "type": "Point"}, "id": "MEKdGME84dCEhANtKzfWCYhUQqw=", "properties": {"@spider": "usps_collection_boxes", "addr:city": "SLATERVLE SPG", "addr:country": "US", "addr:full": "2706 SLATERVILLE RD", "addr:postcode": "14881", "addr:state": "NY", "amenity": "post_box", "brand": "United States Postal Service", "brand:wikidata": "Q668687", "collection_times": "Mo-Fr 12:30; Sa 11:45", "name": "USPS COLLECTION BOX - PO LOBBY", "note": "ON 12/24 AND 12/31, THIS BOX MAY BE COLLECTED AS EARLY AS 12 NOON.", "nsi_id": "unitedstatespostalservice-a77078", "operator": "United States Postal Service", "operator:short": "USPS", "operator:type": "public", "operator:wikidata": "Q668687", "ref": "1488100004"}, "type": "Feature"}
{"dataset_attributes": {"@spider": "usps_collection_boxes"}, "geometry": {"coordinates": [-76.493775, 42.221514], "type": "Point"}, "id": "qNmHrHfARvEDxozNpDGGbmbsb3Q=", "properties": {"@spider": "usps_collection_boxes", "addr:city": "SPENCER", "addr:country": "US", "addr:full": "196 N MAIN ST", "addr:postcode": "14883", "addr:state": "NY", "amenity": "post_box", "brand": "United States Postal Service", "brand:wikidata": "Q668687", "collection_times": "Mo-Fr 16:45; Sa 11:45", "name": "USPS COLLECTION BOX - BLUE BOX", "note": "ON 12/24 AND 12/31, THIS BOX MAY BE COLLECTED AS EARLY AS 12 NOON.", "nsi_id": "unitedstatespostalservice-a77078", "operator": "United States Postal Service", "operator:short": "USPS", "operator:type": "public", "operator:wikidata": "Q668687", "ref": "1488300001"}, "type": "Feature"}
{"dataset_attributes": {"@spider": "usps_collection_boxes"}, "geometry": {"coordinates": [-76.493729, 42.221464], "type": "Point"}, "id": "K-UM41KXH8-uWo8HLp6CoZkZ-k4=", "properties": {"@spider": "usps_collection_boxes", "addr:city": "SPENCER", "addr:country": "US", "addr:full": "196 N MAIN ST", "addr:postcode": "14883", "addr:state": "NY", "amenity": "post_box", "brand": "United States Postal Service", "brand:wikidata": "Q668687", "collection_times": "Mo-Fr 17:00; Sa 12:00", "name": "USPS COLLECTION BOX - PO LOBBY", "note": "ON 12/24 AND 12/31, THIS BOX MAY BE COLLECTED AS EARLY AS 12 NOON.", "nsi_id": "unitedstatespostalservice-a77078", "operator": "United States Postal Service", "operator:short": "USPS", "operator:type": "public", "operator:wikidata": "Q668687", "ref": "1488300004"}, "type": "Feature"}
{"dataset_attributes": {"@spider": "usps_collection_boxes"}, "geometry": {"coordinates": [-76.4929022, 42.210011], "type": "Point"}, "id": "pYgUeDfoyJ2hce-ObuT-CoJI9AI=", "properties": {"@spider": "usps_collection_boxes", "addr:city": "SPENCER", "addr:country": "US", "addr:full": "1 N MAIN ST", "addr:postcode": "14883", "addr:state": "NY", "amenity": "post_box", "brand": "United States Postal Service", "brand:wikidata": "Q668687", "collection_times": "Mo-Fr 11:00", "name": "USPS COLLECTION BOX - BLUE BOX", "nsi_id": "unitedstatespostalservice-a77078", "operator": "United States Postal Service", "operator:short": "USPS", "operator:type": "public", "operator:wikidata": "Q668687", "ref": "1488300005"}, "type": "Feature"}
{"dataset_attributes": {"@spider": "usps_collection_boxes"}, "geometry": {"coordinates": [-76.4928999, 42.209311], "type": "Point"}, "id": "2gH0fR1g---SNPL7Jxfum7rDAAs=", "properties": {"@spider": "usps_collection_boxes", "addr:city": "SPENCER", "addr:country": "US", "addr:full": "3 S MAIN ST", "addr:postcode": "14883", "addr:state": "NY", "amenity": "post_box", "brand": "United States Postal Service", "brand:wikidata": "Q668687", "collection_times": "Mo-Fr 09:00", "name": "USPS COLLECTION BOX - BLUE BOX", "nsi_id": "unitedstatespostalservice-a77078", "operator": "United States Postal Service", "operator:short": "USPS", "operator:type": "public", "operator:wikidata": "Q668687", "ref": "1488300007"}, "type": "Feature"}
{"dataset_attributes": {"@spider": "usps_collection_boxes"}, "geometry": {"coordinates": [-76.493989277, 42.222656483], "type": "Point"}, "id": "YNpPhqvrAjQKzWVrSMKiA75ocvo=", "properties": {"@spider": "usps_collection_boxes", "addr:city": "SPENCER", "addr:country": "US", "addr:full": "196 N MAIN ST", "addr:postcode": "14883", "addr:state": "NY", "amenity": "post_box", "brand": "United States Postal Service", "brand:wikidata": "Q668687", "collection_times": "Mo-Fr 17:00; Sa 12:00", "name": "USPS COLLECTION BOX - PO LOBBY", "note": "ON 12/24 AND 12/31, THIS BOX MAY BE COLLECTED AS EARLY AS 12 NOON.", "nsi_id": "unitedstatespostalservice-a77078", "operator": "United States Postal Service", "operator:short": "USPS", "operator:type": "public", "operator:wikidata": "Q668687", "ref": "1488300009"}, "type": "Feature"}
{"dataset_attributes": {"@spider": "usps_collection_boxes"}, "geometry": {"coordinates": [-76.665708, 42.542167], "type": "Point"}, "id": "lNjdhvY5-rviWqoyW3yHcMKzsQc=", "properties": {"@spider": "usps_collection_boxes", "addr:city": "TRUMANSBURG", "addr:country": "US", "addr:full": "67 W MAIN ST", "addr:postcode": "14886", "addr:state": "NY", "amenity": "post_box", "brand": "United States Postal Service", "brand:wikidata": "Q668687", "collection_times": "Mo-Fr 16:30; Sa 12:00", "name": "USPS COLLECTION BOX - BLUE BOX", "note": "ON 12/24 AND 12/31, THIS BOX MAY BE COLLECTED AS EARLY AS 12 NOON.", "nsi_id": "unitedstatespostalservice-a77078", "operator": "United States Postal Service", "operator:short": "USPS", "operator:type": "public", "operator:wikidata": "Q668687", "ref": "1488600001"}, "type": "Feature"}
{"dataset_attributes": {"@spider": "usps_collection_boxes"}, "geometry": {"coordinates": [-76.6415499, 42.534309], "type": "Point"}, "id": "ezlc_e51VsjOOSTxZAEO9hIldm0=", "properties": {"@spider": "usps_collection_boxes", "addr:city": "TRUMANSBURG", "addr:country": "US", "addr:full": "2085 STATE ROUTE 96", "addr:postcode": "14886", "addr:state": "NY", "amenity": "post_box", "brand": "United States Postal Service", "brand:wikidata": "Q668687", "collection_times": "Mo-Fr 09:00", "name": "USPS COLLECTION BOX - BLUE BOX", "nsi_id": "unitedstatespostalservice-a77078", "operator": "United States Postal Service", "operator:short": "USPS", "operator:type": "public", "operator:wikidata": "Q668687", "ref": "1488600003"}, "type": "Feature"}
{"dataset_attributes": {"@spider": "usps_collection_boxes"}, "geometry": {"coordinates": [-76.66581, 42.542223], "type": "Point"}, "id": "Q-92TOJqY1UD41x7pbUSQTZ3Za4=", "properties": {"@spider": "usps_collection_boxes", "addr:city": "TRUMANSBURG", "addr:country": "US", "addr:full": "67 W MAIN ST", "addr:postcode": "14886", "addr:state": "NY", "amenity": "post_box", "brand": "United States Postal Service", "brand:wikidata": "Q668687", "collection_times": "Mo-Fr 17:00; Sa 12:00", "name": "USPS COLLECTION BOX - PO LOBBY", "note": "ON 12/24 AND 12/31, THIS BOX MAY BE COLLECTED AS EARLY AS 12 NOON.", "nsi_id": "unitedstatespostalservice-a77078", "operator": "United States Postal Service", "operator:short": "USPS", "operator:type": "public", "operator:wikidata": "Q668687", "ref": "1488600004"}, "type": "Feature"}
{"dataset_attributes": {"@spider": "usps_collection_boxes"}, "geometry": {"coordinates": [-76.665374936, 42.542102685], "type": "Point"}, "id": "nKpmWl7-LTNlZa2IATvGoBTiKO4=", "properties": {"@spider": "usps_collection_boxes", "addr:city": "TRUMANSBURG", "addr:country": "US", "addr:full": "67 W MAIN ST", "addr:postcode": "14886", "addr:state": "NY", "amenity": "post_box", "brand": "United States Postal Service", "brand:wikidata": "Q668687", "collection_times": "Mo-Fr 17:00; Sa 12:00", "name": "USPS COLLECTION BOX - PO LOBBY", "note": "ON 12/24 AND 12/31, THIS BOX MAY BE COLLECTED AS EARLY AS 12 NOON.", "nsi_id": "unitedstatespostalservice-a77078", "operator": "United States Postal Service", "operator:short": "USPS", "operator:type": "public", "operator:wikidata": "Q668687", "ref": "1488600006"}, "type": "Feature"}
{"dataset_attributes": {"@spider": "usps_collection_boxes"}, "geometry": {"coordinates": [-76.552483, 42.198865], "type": "Point"}, "id": "Fl_H8ddDlnxalwrJmXDb_spTgFU=", "properties": {"@spider": "usps_collection_boxes", "addr:city": "VAN ETTEN", "addr:country": "US", "addr:full": "3 MAIN ST", "addr:postcode": "14889", "addr:state": "NY", "amenity": "post_box", "brand": "United States Postal Service", "brand:wikidata": "Q668687", "collection_times": "Mo-Fr 12:30; Sa 11:45", "name": "USPS COLLECTION BOX - BLUE BOX", "note": "ON 12/24 AND 12/31, THIS BOX MAY BE COLLECTED AS EARLY AS 12 NOON.", "nsi_id": "unitedstatespostalservice-a77078", "operator": "United States Postal Service", "operator:short": "USPS", "operator:type": "public", "operator:wikidata": "Q668687", "ref": "1488900001"}, "type": "Feature"}
{"dataset_attributes": {"@spider": "usps_collection_boxes"}, "geometry": {"coordinates": [-76.552443, 42.198892], "type": "Point"}, "id": "DTyiTK9BlSsyg5kbXsbi1A-6Z2A=", "properties": {"@spider": "usps_collection_boxes", "addr:city": "VAN ETTEN", "addr:country": "US", "addr:full": "3 MAIN ST", "addr:postcode": "14889", "addr:state": "NY", "amenity": "post_box", "brand": "United States Postal Service", "brand:wikidata": "Q668687", "collection_times": "Mo-Fr 12:30; Sa 12:00", "name": "USPS COLLECTION BOX - PO LOBBY", "note": "ON 12/24 AND 12/31, THIS BOX MAY BE COLLECTED AS EARLY AS 12 NOON.", "nsi_id": "unitedstatespostalservice-a77078", "operator": "United States Postal Service", "operator:short": "USPS", "operator:type": "public", "operator:wikidata": "Q668687", "ref": "1488900002"}, "type": "Feature"}
{"dataset_attributes": {"@spider": "usps_collection_boxes"}, "geometry": {"coordinates": [-76.552849949, 42.198862507], "type": "Point"}, "id": "fJbCnVLSus1CjoKPDH6onCS8F40=", "properties": {"@spider": "usps_collection_boxes", "addr:city": "VAN ETTEN", "addr:country": "US", "addr:full": "3 MAIN ST", "addr:postcode": "14889", "addr:state": "NY", "amenity": "post_box", "brand": "United States Postal Service", "brand:wikidata": "Q668687", "collection_times": "Mo-Fr 12:30; Sa 12:00", "name": "USPS COLLECTION BOX - PO LOBBY", "note": "ON 12/24 AND 12/31, THIS BOX MAY BE COLLECTED AS EARLY AS 12 NOON.", "nsi_id": "unitedstatespostalservice-a77078", "operator": "United States Postal Service", "operator:short": "USPS", "operator:type": "public", "operator:wikidata": "Q668687", "ref": "1488900005"}, "type": "Feature"}
{"dataset_attributes": {"@spider": "usps_collection_boxes"}, "geometry": {"coordinates": [-76.8723709, 42.379187], "type": "Point"}, "id": "4pHNwkLvT2NJtuZcz9LVqQJknj8=", "properties": {"@spider": "usps_collection_boxes", "addr:city": "WATKINS GLEN", "addr:country": "US", "addr:full": "600 N FRANKLIN ST", "addr:postcode": "14891", "addr:state": "NY", "amenity": "post_box", "brand": "United States Postal Service", "brand:wikidata": "Q668687", "collection_times": "Mo-Fr 17:00; Sa 12:00", "name": "USPS COLLECTION BOX - PO LOBBY", "note": "ON 12/24 AND 12/31, THIS BOX MAY BE COLLECTED AS EARLY AS 12 NOON.", "nsi_id": "unitedstatespostalservice-a77078", "operator": "United States Postal Service", "operator:short": "USPS", "operator:type": "public", "operator:wikidata": "Q668687", "ref": "1489100009"}, "type": "Feature"}
{"dataset_attributes": {"@spider": "usps_collection_boxes"}, "geometry": {"coordinates": [-76.8723594, 42.379308], "type": "Point"}, "id": "1DpuZBBhjskrDVCsgDyj5xtbS7w=", "properties": {"@spider": "usps_collection_boxes", "addr:city": "WATKINS GLEN", "addr:country": "US", "addr:full": "600 N FRANKLIN ST", "addr:postcode": "14891", "addr:state": "NY", "amenity": "post_box", "brand": "United States Postal Service", "brand:wikidata": "Q668687", "collection_times": "Mo-Fr 17:00; Sa 12:00", "name": "USPS COLLECTION BOX - BLUE BOX", "note": "ON 12/24 AND 12/31, THIS BOX MAY BE COLLECTED AS EARLY AS 12 NOON.", "nsi_id": "unitedstatespostalservice-a77078", "operator": "United States Postal Service", "operator:short": "USPS", "operator:type": "public", "operator:wikidata": "Q668687", "ref": "1489100010"}, "type": "Feature"}
{"dataset_attributes": {"@spider": "usps_collection_boxes"}, "geometry": {"coordinates": [-76.8642273, 42.381055], "type": "Point"}, "id": "sDI_YD_x8MtDhsKGWwl368ZOdJo=", "properties": {"@spider": "usps_collection_boxes", "addr:city": "WATKINS GLEN", "addr:country": "US", "addr:full": "515 E 4TH ST", "addr:postcode": "14891", "addr:state": "NY", "amenity": "post_box", "brand": "United States Postal Service", "brand:wikidata": "Q668687", "collection_times": "Mo-Sa 11:00", "name": "USPS COLLECTION BOX - BLUE BOX", "nsi_id": "unitedstatespostalservice-a77078", "operator": "United States Postal Service", "operator:short": "USPS", "operator:type": "public", "operator:wikidata": "Q668687", "ref": "1489100013"}, "type": "Feature"}
{"dataset_attributes": {"@spider": "usps_collection_boxes"}, "geometry": {"coordinates": [-76.8736287, 42.381282], "type": "Point"}, "id": "SVmMTLDYaGDNDyqPdCRrMte15oI=", "properties": {"@spider": "usps_collection_boxes", "addr:city": "WATKINS GLEN", "addr:country": "US", "addr:full": "300 N FRANKLIN ST", "addr:postcode": "14891", "addr:state": "NY", "amenity": "post_box", "brand": "United States Postal Service", "brand:wikidata": "Q668687", "collection_times": "Mo-Fr 14:30; Sa 12:00", "name": "USPS COLLECTION BOX - BLUE BOX", "note": "ON 12/24 AND 12/31, THIS BOX MAY BE COLLECTED AS EARLY AS 12 NOON.", "nsi_id": "unitedstatespostalservice-a77078", "operator": "United States Postal Service", "operator:short": "USPS", "operator:type": "public", "operator:wikidata": "Q668687", "ref": "1489100014"}, "type": "Feature"}
{"dataset_attributes": {"@spider": "usps_collection_boxes"}, "geometry": {"coordinates": [-76.8725107, 42.378999], "type": "Point"}, "id": "khHsjLNFHFvC-jy5k4dxcfXIQb4=", "properties": {"@spider": "usps_collection_boxes", "addr:city": "WATKINS GLEN", "addr:country": "US", "addr:full": "600 N FRANKLIN ST", "addr:postcode": "14891", "addr:state": "NY", "amenity": "post_box", "brand": "United States Postal Service", "brand:wikidata": "Q668687", "collection_times": "Mo-Fr 17:00; Sa 12:00", "name": "USPS COLLECTION BOX - BLUE BOX", "note": "ON 12/24 AND 12/31, THIS BOX MAY BE COLLECTED AS EARLY AS 12 NOON.", "nsi_id": "unitedstatespostalservice-a77078", "operator": "United States Postal Service", "operator:short": "USPS", "operator:type": "public", "operator:wikidata": "Q668687", "ref": "1489100015"}, "type": "Feature"}
{"dataset_attributes": {"@spider": "usps_collection_boxes"}, "geometry": {"coordinates": [-76.872593312, 42.379019077], "type": "Point"}, "id": "Y5CLVsXD_VkYMU8kKyvNi6JFUMA=", "properties": {"@spider": "usps_collection_boxes", "addr:city": "WATKINS GLEN", "addr:country": "US", "addr:full": "600 N FRANKLIN ST", "addr:postcode": "14891", "addr:state": "NY", "amenity": "post_box", "brand": "United States Postal Service", "brand:wikidata": "Q668687", "collection_times": "Mo-Fr 17:00; Sa 12:00", "name": "USPS COLLECTION BOX - PO LOBBY", "note": "ON 12/24 AND 12/31, THIS BOX MAY BE COLLECTED AS EARLY AS 12 NOON.", "nsi_id": "unitedstatespostalservice-a77078", "operator": "United States Postal Service", "operator:short": "USPS", "operator:type": "public", "operator:wikidata": "Q668687", "ref": "1489100018"}, "type": "Feature"}
{"dataset_attributes": {"@spider": "usps_collection_boxes"}, "geometry": {"coordinates": [-76.540465, 42.002195], "type": "Point"}, "id": "RtqTLICJ-uSHbsHO0F9Cpp-LC-c=", "properties": {"@spider": "usps_collection_boxes", "addr:city": "WAVERLY", "addr:country": "US", "addr:full": "434 WAVERLY ST", "addr:postcode": "14892", "addr:state": "NY", "amenity": "post_box", "brand": "United States Postal Service", "brand:wikidata": "Q668687", "collection_times": "Mo-Fr 17:00; Sa 15:45", "name": "USPS COLLECTION BOX - BLUE BOX", "note": "ON 12/24 AND 12/31, THIS BOX MAY BE COLLECTED AS EARLY AS 12 NOON.", "nsi_id": "unitedstatespostalservice-a77078", "operator": "United States Postal Service", "operator:short": "USPS", "operator:type": "public", "operator:wikidata": "Q668687", "ref": "1489200001"}, "type": "Feature"}
{"dataset_attributes": {"@spider": "usps_collection_boxes"}, "geometry": {"coordinates": [-76.5468926, 42.001849], "type": "Point"}, "id": "iyxWc7VLft1epkqELSRzJKn9Ldw=", "properties": {"@spider": "usps_collection_boxes", "addr:city": "WAVERLY", "addr:country": "US", "addr:full": "16 PINE ST", "addr:postcode": "14892", "addr:state": "NY", "amenity": "post_box", "brand": "United States Postal Service", "brand:wikidata": "Q668687", "collection_times": "Mo-Sa 09:00", "name": "USPS COLLECTION BOX - BLUE BOX", "nsi_id": "unitedstatespostalservice-a77078", "operator": "United States Postal Service", "operator:short": "USPS", "operator:type": "public", "operator:wikidata": "Q668687", "ref": "1489200002"}, "type": "Feature"}
{"dataset_attributes": {"@spider": "usps_collection_boxes"}, "geometry": {"coordinates": [-76.5424804, 42.003694], "type": "Point"}, "id": "pQNksiE8nhk3IMcUgy9K6h8kJ0I=", "properties": {"@spider": "usps_collection_boxes", "addr:city": "WAVERLY", "addr:country": "US", "addr:full": "152 CHEMUNG ST", "addr:postcode": "14892", "addr:state": "NY", "amenity": "post_box", "brand": "United States Postal Service", "brand:wikidata": "Q668687", "collection_times": "Mo-Sa 09:00", "name": "USPS COLLECTION BOX - BLUE BOX", "nsi_id": "unitedstatespostalservice-a77078", "operator": "United States Postal Service", "operator:short": "USPS", "operator:type": "public", "operator:wikidata": "Q668687", "ref": "1489200003"}, "type": "Feature"}
{"dataset_attributes": {"@spider": "usps_collection_boxes"}, "geometry": {"coordinates": [-76.5391033, 42.007385], "type": "Point"}, "id": "220wzACuUNJMc1ypX3piJZbEU8Q=", "properties": {"@spider": "usps_collection_boxes", "addr:city": "WAVERLY", "addr:country": "US", "addr:full": "30 LINCOLN ST", "addr:postcode": "14892", "addr:state": "NY", "amenity": "post_box", "brand": "United States Postal Service", "brand:wikidata": "Q668687", "collection_times": "Mo-Sa 09:00", "name": "USPS COLLECTION BOX - BLUE BOX", "nsi_id": "unitedstatespostalservice-a77078", "operator": "United States Postal Service", "operator:short": "USPS", "operator:type": "public", "operator:wikidata": "Q668687", "ref": "1489200005"}, "type": "Feature"}
{"dataset_attributes": {"@spider": "usps_collection_boxes"}, "geometry": {"coordinates": [-76.5430807, 42.007023], "type": "Point"}, "id": "WMnUGGtUZO0DBm3AIQbQjL05kmM=", "properties": {"@spider": "usps_collection_boxes", "addr:city": "WAVERLY", "addr:country": "US", "addr:full": "201 CLINTON AVE", "addr:postcode": "14892", "addr:state": "NY", "amenity": "post_box", "brand": "United States Postal Service", "brand:wikidata": "Q668687", "collection_times": "Mo-Sa 09:00", "name": "USPS COLLECTION BOX - BLUE BOX", "nsi_id": "unitedstatespostalservice-a77078", "operator": "United States Postal Service", "operator:short": "USPS", "operator:type": "public", "operator:wikidata": "Q668687", "ref": "1489200006"}, "type": "Feature"}
{"dataset_attributes": {"@spider": "usps_collection_boxes"}, "geometry": {"coordinates": [-76.5377611, 42.011346], "type": "Point"}, "id": "fKYSqNKV_zv29M7M_UJJ1aQZjrU=", "properties": {"@spider": "usps_collection_boxes", "addr:city": "WAVERLY", "addr:country": "US", "addr:full": "77 LINCOLN ST", "addr:postcode": "14892", "addr:state": "NY", "amenity": "post_box", "brand": "United States Postal Service", "brand:wikidata": "Q668687", "collection_times": "Mo-Sa 09:00", "name": "USPS COLLECTION BOX - BLUE BOX", "nsi_id": "unitedstatespostalservice-a77078", "operator": "United States Postal Service", "operator:short": "USPS", "operator:type": "public", "operator:wikidata": "Q668687", "ref": "1489200007"}, "type": "Feature"}
{"dataset_attributes": {"@spider": "usps_collection_boxes"}, "geometry": {"coordinates": [-76.5371853, 42.009304], "type": "Point"}, "id": "u1_sEt26KauIXkYj6z1zxum4FHk=", "properties": {"@spider": "usps_collection_boxes", "addr:city": "WAVERLY", "addr:country": "US", "addr:full": "128 CENTER ST", "addr:postcode": "14892", "addr:state": "NY", "amenity": "post_box", "brand": "United States Postal Service", "brand:wikidata": "Q668687", "collection_times": "Mo-Sa 09:00", "name": "USPS COLLECTION BOX - BLUE BOX", "nsi_id": "unitedstatespostalservice-a77078", "operator": "United States Postal Service", "operator:short": "USPS", "operator:type": "public", "operator:wikidata": "Q668687", "ref": "1489200009"}, "type": "Feature"}
{"dataset_attributes": {"@spider": "usps_collection_boxes"}, "geometry": {"coordinates": [-76.5351661, 42.007244], "type": "Point"}, "id": "JI0Dx8Pw6Bn9_aSyRoNdHyN2YyU=", "properties": {"@spider": "usps_collection_boxes", "addr:city": "WAVERLY", "addr:country": "US", "addr:full": "405 CHEMUNG ST", "addr:postcode": "14892", "addr:state": "NY", "amenity": "post_box", "brand": "United States Postal Service", "brand:wikidata": "Q668687", "collection_times": "Mo-Sa 09:00", "name": "USPS COLLECTION BOX - BLUE BOX", "nsi_id": "unitedstatespostalservice-a77078", "operator": "United States Postal Service", "operator:short": "USPS", "operator:type": "public", "operator:wikidata": "Q668687", "ref": "1489200010"}, "type": "Feature"}
{"dataset_attributes": {"@spider": "usps_collection_boxes"}, "geometry": {"coordinates": [-76.5268661, 42.00647], "type": "Point"}, "id": "os2eYX8VvU3hBhDiULwPhl4ujHU=", "properties": {"@spider": "usps_collection_boxes", "addr:city": "WAVERLY", "addr:country": "US", "addr:full": "483 CAYUTA AVE", "addr:postcode": "14892", "addr:state": "NY", "amenity": "post_box", "brand": "United States Postal Service", "brand:wikidata": "Q668687", "collection_times": "Mo-Sa 09:00", "name": "USPS COLLECTION BOX - BLUE BOX", "nsi_id": "unitedstatespostalservice-a77078", "operator": "United States Postal Service", "operator:short": "USPS", "operator:type": "public", "operator:wikidata": "Q668687", "ref": "1489200011"}, "type": "Feature"}
{"dataset_attributes": {"@spider": "usps_collection_boxes"}, "geometry": {"coordinates": [-76.5416648, 42.001382], "type": "Point"}, "id": "lZixh8NhgJ4r9y6BhDb6REB8VQQ=", "properties": {"@spider": "usps_collection_boxes", "addr:city": "WAVERLY", "addr:country": "US", "addr:full": "245 BROAD ST", "addr:postcode": "14892", "addr:state": "NY", "amenity": "post_box", "brand": "United States Postal Service", "brand:wikidata": "Q668687", "collection_times": "Mo-Sa 09:00", "name": "USPS COLLECTION BOX - BLUE BOX", "nsi_id": "unitedstatespostalservice-a77078", "operator": "United States Postal Service", "operator:short": "USPS", "operator:type": "public", "operator:wikidata": "Q668687", "ref": "1489200012"}, "type": "Feature"}
{"dataset_attributes": {"@spider": "usps_collection_boxes"}, "geometry": {"coordinates": [-76.5392229, 42.001151], "type": "Point"}, "id": "fe8uOqjm9oz4CQu3fs3fW23L1No=", "properties": {"@spider": "usps_collection_boxes", "addr:city": "WAVERLY", "addr:country": "US", "addr:full": "359 BROAD ST", "addr:postcode": "14892", "addr:state": "NY", "amenity": "post_box", "brand": "United States Postal Service", "brand:wikidata": "Q668687", "collection_times": "Mo-Sa 09:00", "name": "USPS COLLECTION BOX - BLUE BOX", "nsi_id": "unitedstatespostalservice-a77078", "operator": "United States Postal Service", "operator:short": "USPS", "operator:type": "public", "operator:wikidata": "Q668687", "ref": "1489200013"}, "type": "Feature"}
{"dataset_attributes": {"@spider": "usps_collection_boxes"}, "geometry": {"coordinates": [-76.54047, 42.002117], "type": "Point"}, "id": "zMDTnqtSuw99rkRUNObpailckKo=", "properties": {"@spider": "usps_collection_boxes", "addr:city": "WAVERLY", "addr:country": "US", "addr:full": "434 WAVERLY ST", "addr:postcode": "14892", "addr:state": "NY", "amenity": "post_box", "brand": "United States Postal Service", "brand:wikidata": "Q668687", "collection_times": "Mo-Fr 17:00; Sa 15:45", "name": "USPS COLLECTION BOX - BLUE BOX", "note": "ON 12/24 AND 12/31, THIS BOX MAY BE COLLECTED AS EARLY AS 12 NOON.", "nsi_id": "unitedstatespostalservice-a77078", "operator": "United States Postal Service", "operator:short": "USPS", "operator:type": "public", "operator:wikidata": "Q668687", "ref": "1489200014"}, "type": "Feature"}
{"dataset_attributes": {"@spider": "usps_collection_boxes"}, "geometry": {"coordinates": [-76.54047, 42.002117], "type": "Point"}, "id": "Zk3LzRaGu2ee7YRf-3MFJs5Y-EA=", "properties": {"@spider": "usps_collection_boxes", "addr:city": "WAVERLY", "addr:country": "US", "addr:full": "434 WAVERLY ST", "addr:postcode": "14892", "addr:state": "NY", "amenity": "post_box", "brand": "United States Postal Service", "brand:wikidata": "Q668687", "collection_times": "Mo-Fr 17:00; Sa 15:45", "name": "USPS COLLECTION BOX - BLUE BOX", "note": "ON 12/24 AND 12/31, THIS BOX MAY BE COLLECTED AS EARLY AS 12 NOON.", "nsi_id": "unitedstatespostalservice-a77078", "operator": "United States Postal Service", "operator:short": "USPS", "operator:type": "public", "operator:wikidata": "Q668687", "ref": "1489200015"}, "type": "Feature"}
{"dataset_attributes": {"@spider": "usps_collection_boxes"}, "geometry": {"coordinates": [-76.5371154, 42.003216], "type": "Point"}, "id": "P_Mvra4vZGWL8xG2VYwWHqMaUTo=", "properties": {"@spider": "usps_collection_boxes", "addr:city": "WAVERLY", "addr:country": "US", "addr:full": "436 PENNSYLVANIA AVE", "addr:postcode": "14892", "addr:state": "NY", "amenity": "post_box", "brand": "United States Postal Service", "brand:wikidata": "Q668687", "collection_times": "Mo-Sa 09:00", "name": "USPS COLLECTION BOX - BLUE BOX", "nsi_id": "unitedstatespostalservice-a77078", "operator": "United States Postal Service", "operator:short": "USPS", "operator:type": "public", "operator:wikidata": "Q668687", "ref": "1489200016"}, "type": "Feature"}
{"dataset_attributes": {"@spider": "usps_collection_boxes"}, "geometry": {"coordinates": [-76.5403828, 42.002068], "type": "Point"}, "id": "qkoMgSfVdBJGlDHzHGvgHpYzHEM=", "properties": {"@spider": "usps_collection_boxes", "addr:city": "WAVERLY", "addr:country": "US", "addr:full": "434 WAVERLY ST", "addr:postcode": "14892", "addr:state": "NY", "amenity": "post_box", "brand": "United States Postal Service", "brand:wikidata": "Q668687", "collection_times": "Mo-Fr 16:45; Sa 15:45", "name": "USPS COLLECTION BOX - PO LOBBY", "note": "ON 12/24 AND 12/31, THIS BOX MAY BE COLLECTED AS EARLY AS 12 NOON.", "nsi_id": "unitedstatespostalservice-a77078", "operator": "United States Postal Service", "operator:short": "USPS", "operator:type": "public", "operator:wikidata": "Q668687", "ref": "1489200017"}, "type": "Feature"}
{"dataset_attributes": {"@spider": "usps_collection_boxes"}, "geometry": {"coordinates": [-76.5468523, 42.006548], "type": "Point"}, "id": "HcgkwKo0iTsDqOo1ZYu0ZXLIPHc=", "properties": {"@spider": "usps_collection_boxes", "addr:city": "WAVERLY", "addr:country": "US", "addr:full": "67 CLINTON AVE", "addr:postcode": "14892", "addr:state": "NY", "amenity": "post_box", "brand": "United States Postal Service", "brand:wikidata": "Q668687", "collection_times": "Mo-Sa 09:00", "name": "USPS COLLECTION BOX - BLUE BOX", "nsi_id": "unitedstatespostalservice-a77078", "operator": "United States Postal Service", "operator:short": "USPS", "operator:type": "public", "operator:wikidata": "Q668687", "ref": "1489200018"}, "type": "Feature"}
{"dataset_attributes": {"@spider": "usps_collection_boxes"}, "geometry": {"coordinates": [-76.540437985, 42.002176338], "type": "Point"}, "id": "RcCMrlu2oospOHrqVhlyW-l9z3g=", "properties": {"@spider": "usps_collection_boxes", "addr:city": "WAVERLY", "addr:country": "US", "addr:full": "434 WAVERLY ST", "addr:postcode": "14892", "addr:state": "NY", "amenity": "post_box", "brand": "United States Postal Service", "brand:wikidata": "Q668687", "collection_times": "Mo-Fr 17:00; Sa 12:00", "name": "USPS COLLECTION BOX - PO LOBBY", "note": "ON 12/24 AND 12/31, THIS BOX MAY BE COLLECTED AS EARLY AS 12 NOON.", "nsi_id": "unitedstatespostalservice-a77078", "operator": "United States Postal Service", "operator:short": "USPS", "operator:type": "public", "operator:wikidata": "Q668687", "ref": "1489200021"}, "type": "Feature"}
{"dataset_attributes": {"@spider": "usps_collection_boxes"}, "geometry": {"coordinates": [-76.727025, 42.016286], "type": "Point"}, "id": "FUudHn9ahxhPMcH2q_G_BDggrek=", "properties": {"@spider": "usps_collection_boxes", "addr:city": "WELLSBURG", "addr:country": "US", "addr:full": "3685 FRONT ST", "addr:postcode": "14894", "addr:state": "NY", "amenity": "post_box", "brand": "United States Postal Service", "brand:wikidata": "Q668687", "collection_times": "Mo-Fr 16:30; Sa 12:00", "name": "USPS COLLECTION BOX - BLUE BOX", "note": "ON 12/24 AND 12/31, THIS BOX MAY BE COLLECTED AS EARLY AS 12 NOON.", "nsi_id": "unitedstatespostalservice-a77078", "operator": "United States Postal Service", "operator:short": "USPS", "operator:type": "public", "operator:wikidata": "Q668687", "ref": "1489400000"}, "type": "Feature"}
{"dataset_attributes": {"@spider": "usps_collection_boxes"}, "geometry": {"coordinates": [-76.727143, 42.016281], "type": "Point"}, "id": "jb0LEf1Y2-dJH2kcNvTHsmc55SI=", "properties": {"@spider": "usps_collection_boxes", "addr:city": "WELLSBURG", "addr:country": "US", "addr:full": "3685 FRONT ST", "addr:postcode": "14894", "addr:state": "NY", "amenity": "post_box", "brand": "United States Postal Service", "brand:wikidata": "Q668687", "collection_times": "Mo-Fr 16:30; Sa 12:00", "name": "USPS COLLECTION BOX - PO LOBBY", "note": "ON 12/24 AND 12/31, THIS BOX MAY BE COLLECTED AS EARLY AS 12 NOON.", "nsi_id": "unitedstatespostalservice-a77078", "operator": "United States Postal Service", "operator:short": "USPS", "operator:type": "public", "operator:wikidata": "Q668687", "ref": "1489400003"}, "type": "Feature"}
{"dataset_attributes": {"@spider": "usps_collection_boxes"}, "geometry": {"coordinates": [-76.726638058, 42.016217446], "type": "Point"}, "id": "ttgEuh9OjgEJUE8eZQnkbVa8Uqk=", "properties": {"@spider": "usps_collection_boxes", "addr:city": "WELLSBURG", "addr:country": "US", "addr:full": "3685 FRONT ST", "addr:postcode": "14894", "addr:state": "NY", "amenity": "post_box", "brand": "United States Postal Service", "brand:wikidata": "Q668687", "collection_times": "Mo-Fr 16:30; Sa 12:00", "name": "USPS COLLECTION BOX - PO LOBBY", "note": "ON 12/24 AND 12/31, THIS BOX MAY BE COLLECTED AS EARLY AS 12 NOON.", "nsi_id": "unitedstatespostalservice-a77078", "operator": "United States Postal Service", "operator:short": "USPS", "operator:type": "public", "operator:wikidata": "Q668687", "ref": "1489400005"}, "type": "Feature"}
