{"dataset_attributes": {"@spider": "usps_collection_boxes"}, "geometry": {"coordinates": [-76.7977836, 42.091192], "type": "Point"}, "id": "bfo6-3O38Sq0louY9RhYQ0__a2Q=", "properties": {"@spider": "usps_collection_boxes", "addr:city": "ELMIRA", "addr:country": "US", "addr:full": "555 SAINT JOSEPHS BLVD", "addr:postcode": "14901", "addr:state": "NY", "amenity": "post_box", "brand": "United States Postal Service", "brand:wikidata": "Q668687", "collection_times": "Mo-Fr 12:00", "name": "USPS COLLECTION BOX - BLUE BOX", "nsi_id": "unitedstatespostalservice-a77078", "operator": "United States Postal Service", "operator:short": "USPS", "operator:type": "public", "operator:wikidata": "Q668687", "ref": "1490100005"}, "type": "Feature"}
{"dataset_attributes": {"@spider": "usps_collection_boxes"}, "geometry": {"coordinates": [-76.7974288, 42.0897], "type": "Point"}, "id": "5EhP2M5kIwYWJG3f-qHJbvzCKvA=", "properties": {"@spider": "usps_collection_boxes", "addr:city": "ELMIRA", "addr:country": "US", "addr:full": "115 DEWITT AVE", "addr:postcode": "14901", "addr:state": "NY", "amenity": "post_box", "brand": "United States Postal Service", "brand:wikidata": "Q668687", "collection_times": "Mo-Sa 10:00", "name": "USPS COLLECTION BOX - BLUE BOX", "nsi_id": "unitedstatespostalservice-a77078", "operator": "United States Postal Service", "operator:short": "USPS", "operator:type": "public", "operator:wikidata": "Q668687", "ref": "1490100064"}, "type": "Feature"}
{"dataset_attributes": {"@spider": "usps_collection_boxes"}, "geometry": {"coordinates": [-76.8055087, 42.089824], "type": "Point"}, "id": "dnKI7FOuBkf1w16HyyBQrdcRd7M=", "properties": {"@spider": "usps_collection_boxes", "addr:city": "ELMIRA", "addr:country": "US", "addr:full": "255 CLEMENS CENTER PKWY", "addr:postcode": "14901", "addr:state": "NY", "amenity": "post_box", "brand": "United States Postal Service", "brand:wikidata": "Q668687", "collection_times": "Mo-Fr 17:00; Sa 12:00", "name": "USPS COLLECTION BOX - BLUE BOX", "note": "ON 12/24 AND 12/31, THIS BOX MAY BE COLLECTED AS EARLY AS 12 NOON.", "nsi_id": "unitedstatespostalservice-a77078", "operator": "United States Postal Service", "operator:short": "USPS", "operator:type": "public", "operator:wikidata": "Q668687", "ref": "1490100073"}, "type": "Feature"}
{"dataset_attributes": {"@spider": "usps_collection_boxes"}, "geometry": {"coordinates": [-76.8091272, 42.087231], "type": "Point"}, "id": "k6Glvyg83sBSwsBmqZ8jYjzlz08=", "properties": {"@spider": "usps_collection_boxes", "addr:city": "ELMIRA", "addr:country": "US", "addr:full": "252 W WATER ST", "addr:postcode": "14901", "addr:state": "NY", "amenity": "post_box", "brand": "United States Postal Service", "brand:wikidata": "Q668687", "collection_times": "Mo-Sa 10:00", "name": "USPS COLLECTION BOX - BLUE BOX", "nsi_id": "unitedstatespostalservice-a77078", "operator": "United States Postal Service", "operator:short": "USPS", "operator:type": "public", "operator:wikidata": "Q668687", "ref": "1490100074"}, "type": "Feature"}
{"dataset_attributes": {"@spider": "usps_collection_boxes"}, "geometry": {"coordinates": [-76.8055067, 42.08981], "type": "Point"}, "id": "S1cw24peNB-Ph67QR8GlH54aOaM=", "properties": {"@spider": "usps_collection_boxes", "addr:city": "ELMIRA", "addr:country": "US", "addr:full": "255 CLEMENS CENTER PKWY", "addr:postcode": "14901", "addr:state": "NY", "amenity": "post_box", "brand": "United States Postal Service", "brand:wikidata": "Q668687", "collection_times": "Mo-Fr 17:00; Sa 12:00", "name": "USPS COLLECTION BOX - BLUE BOX", "note": "ON 12/24 AND 12/31, THIS BOX MAY BE COLLECTED AS EARLY AS 12 NOON.", "nsi_id": "unitedstatespostalservice-a77078", "operator": "United States Postal Service", "operator:short": "USPS", "operator:type": "public", "operator:wikidata": "Q668687", "ref": "1490100087"}, "type": "Feature"}
{"dataset_attributes": {"@spider": "usps_collection_boxes"}, "geometry": {"coordinates": [-76.8013716, 42.088407], "type": "Point"}, "id": "_7bajK1odu2syFwb91Id54doavM=", "properties": {"@spider": "usps_collection_boxes", "addr:city": "ELMIRA", "addr:country": "US", "addr:full": "333 E WATER ST", "addr:postcode": "14901", "addr:state": "NY", "amenity": "post_box", "brand": "United States Postal Service", "brand:wikidata": "Q668687", "collection_times": "Mo-Sa 10:00", "name": "USPS COLLECTION BOX - BLUE BOX", "nsi_id": "unitedstatespostalservice-a77078", "operator": "United States Postal Service", "operator:short": "USPS", "operator:type": "public", "operator:wikidata": "Q668687", "ref": "1490100093"}, "type": "Feature"}
{"dataset_attributes": {"@spider": "usps_collection_boxes"}, "geometry": {"coordinates": [-76.8195444, 42.097241], "type": "Point"}, "id": "ijnxPvwfMin2LZ_CPAvcxaD0J-0=", "properties": {"@spider": "usps_collection_boxes", "addr:city": "ELMIRA", "addr:country": "US", "addr:full": "865 DAVIS ST", "addr:postcode": "14901", "addr:state": "NY", "amenity": "post_box", "brand": "United States Postal Service", "brand:wikidata": "Q668687", "collection_times": "Mo-Sa 10:00", "name": "USPS COLLECTION BOX - BLUE BOX", "nsi_id": "unitedstatespostalservice-a77078", "operator": "United States Postal Service", "operator:short": "USPS", "operator:type": "public", "operator:wikidata": "Q668687", "ref": "1490100095"}, "type": "Feature"}
{"dataset_attributes": {"@spider": "usps_collection_boxes"}, "geometry": {"coordinates": [-76.8069884, 42.090379], "type": "Point"}, "id": "512pZb_UhiHIY8aC06YXIQigoqM=", "properties": {"@spider": "usps_collection_boxes", "addr:city": "ELMIRA", "addr:country": "US", "addr:full": "100 W CHURCH ST", "addr:postcode": "14901", "addr:state": "NY", "amenity": "post_box", "brand": "United States Postal Service", "brand:wikidata": "Q668687", "collection_times": "Mo-Fr 12:00; Sa 10:00", "name": "USPS COLLECTION BOX - BLUE BOX", "nsi_id": "unitedstatespostalservice-a77078", "operator": "United States Postal Service", "operator:short": "USPS", "operator:type": "public", "operator:wikidata": "Q668687", "ref": "1490100097"}, "type": "Feature"}
{"dataset_attributes": {"@spider": "usps_collection_boxes"}, "geometry": {"coordinates": [-76.8029773, 42.088632], "type": "Point"}, "id": "mzHgIj_m9MS28kgGbQtdIBrt_Io=", "properties": {"@spider": "usps_collection_boxes", "addr:city": "ELMIRA", "addr:country": "US", "addr:full": "1 CHEMUNG CANAL PLZ", "addr:postcode": "14901", "addr:state": "NY", "amenity": "post_box", "brand": "United States Postal Service", "brand:wikidata": "Q668687", "collection_times": "Mo-Fr 12:00", "name": "USPS COLLECTION BOX - BLUE BOX", "nsi_id": "unitedstatespostalservice-a77078", "operator": "United States Postal Service", "operator:short": "USPS", "operator:type": "public", "operator:wikidata": "Q668687", "ref": "1490100098"}, "type": "Feature"}
{"dataset_attributes": {"@spider": "usps_collection_boxes"}, "geometry": {"coordinates": [-76.8263126, 42.129982], "type": "Point"}, "id": "xCywvxI-fwoKD6_n-td_yM2IJpI=", "properties": {"@spider": "usps_collection_boxes", "addr:city": "ELMIRA", "addr:country": "US", "addr:full": "252 OAKWOOD AVE", "addr:postcode": "14901", "addr:state": "NY", "amenity": "post_box", "brand": "United States Postal Service", "brand:wikidata": "Q668687", "collection_times": "Mo-Sa 10:00", "name": "USPS COLLECTION BOX - BLUE BOX", "nsi_id": "unitedstatespostalservice-a77078", "operator": "United States Postal Service", "operator:short": "USPS", "operator:type": "public", "operator:wikidata": "Q668687", "ref": "1490100099"}, "type": "Feature"}
{"dataset_attributes": {"@spider": "usps_collection_boxes"}, "geometry": {"coordinates": [-76.822656156, 42.129074725], "type": "Point"}, "id": "r6SxXjmO3gWJB5fJb-u7PrnsA6o=", "properties": {"@spider": "usps_collection_boxes", "addr:city": "ELMIRA", "addr:country": "US", "addr:full": "209 E 14TH ST", "addr:postcode": "14901", "addr:state": "NY", "amenity": "post_box", "brand": "United States Postal Service", "brand:wikidata": "Q668687", "collection_times": "Mo-Fr 17:00; Sa 12:00", "name": "USPS COLLECTION BOX - BLUE BOX", "note": "ON 12/24 AND 12/31, THIS BOX MAY BE COLLECTED AS EARLY AS 12 NOON.", "nsi_id": "unitedstatespostalservice-a77078", "operator": "United States Postal Service", "operator:short": "USPS", "operator:type": "public", "operator:wikidata": "Q668687", "ref": "1490100101"}, "type": "Feature"}
{"dataset_attributes": {"@spider": "usps_collection_boxes"}, "geometry": {"coordinates": [-76.8000469, 42.085588], "type": "Point"}, "id": "HqCXym8diJBDRPHpXtEwbnxNPgM=", "properties": {"@spider": "usps_collection_boxes", "addr:city": "ELMIRA", "addr:country": "US", "addr:full": "75 PENNSYLVANIA AVE", "addr:postcode": "14901", "addr:state": "NY", "amenity": "post_box", "brand": "United States Postal Service", "brand:wikidata": "Q668687", "collection_times": "Mo-Fr 15:00; Sa 10:00", "name": "USPS COLLECTION BOX - BLUE BOX", "note": "ON 12/24 AND 12/31, THIS BOX MAY BE COLLECTED AS EARLY AS 12 NOON.", "nsi_id": "unitedstatespostalservice-a77078", "operator": "United States Postal Service", "operator:short": "USPS", "operator:type": "public", "operator:wikidata": "Q668687", "ref": "1490100113"}, "type": "Feature"}
{"dataset_attributes": {"@spider": "usps_collection_boxes"}, "geometry": {"coordinates": [-76.8052323686, 42.0900662309], "type": "Point"}, "id": "sH3_kj9mFlk1RfqS81LMPZogo7k=", "properties": {"@spider": "usps_collection_boxes", "addr:city": "ELMIRA", "addr:country": "US", "addr:full": "255 CLEMENS CENTER PKWY", "addr:postcode": "14901", "addr:state": "NY", "amenity": "post_box", "brand": "United States Postal Service", "brand:wikidata": "Q668687", "collection_times": "Mo-Fr 17:00; Sa 12:00", "name": "USPS COLLECTION BOX - PO LOBBY", "note": "ON 12/24 AND 12/31, THIS BOX MAY BE COLLECTED AS EARLY AS 12 NOON.", "nsi_id": "unitedstatespostalservice-a77078", "operator": "United States Postal Service", "operator:short": "USPS", "operator:type": "public", "operator:wikidata": "Q668687", "ref": "1490100117"}, "type": "Feature"}
{"dataset_attributes": {"@spider": "usps_collection_boxes"}, "geometry": {"coordinates": [-76.822656156, 42.129074725], "type": "Point"}, "id": "dLK21hDbkgUWU3HYecyD9VGu70k=", "properties": {"@spider": "usps_collection_boxes", "addr:city": "ELMIRA", "addr:country": "US", "addr:full": "209 E 14TH ST", "addr:postcode": "14901", "addr:state": "NY", "amenity": "post_box", "brand": "United States Postal Service", "brand:wikidata": "Q668687", "collection_times": "Mo-Fr 17:00; Sa 12:00", "name": "USPS COLLECTION BOX - PO LOBBY", "note": "ON 12/24 AND 12/31, THIS BOX MAY BE COLLECTED AS EARLY AS 12 NOON.", "nsi_id": "unitedstatespostalservice-a77078", "operator": "United States Postal Service", "operator:short": "USPS", "operator:type": "public", "operator:wikidata": "Q668687", "ref": "1490100122"}, "type": "Feature"}
{"dataset_attributes": {"@spider": "usps_collection_boxes"}, "geometry": {"coordinates": [-76.8272821, 42.099889], "type": "Point"}, "id": "RorfTiVjA7TYyXjbWhRfqQavB5g=", "properties": {"@spider": "usps_collection_boxes", "addr:city": "ELMIRA", "addr:country": "US", "addr:full": "600 ROE AVE", "addr:postcode": "14901", "addr:state": "NY", "amenity": "post_box", "brand": "United States Postal Service", "brand:wikidata": "Q668687", "collection_times": "Mo-Fr 12:00; Sa 10:00", "name": "USPS COLLECTION BOX - BLUE BOX", "nsi_id": "unitedstatespostalservice-a77078", "operator": "United States Postal Service", "operator:short": "USPS", "operator:type": "public", "operator:wikidata": "Q668687", "ref": "1490100128"}, "type": "Feature"}
{"dataset_attributes": {"@spider": "usps_collection_boxes"}, "geometry": {"coordinates": [-76.8036141, 42.078464], "type": "Point"}, "id": "_-BmEh8um5lGqdp_8GRlzqYrgUE=", "properties": {"@spider": "usps_collection_boxes", "addr:city": "ELMIRA", "addr:country": "US", "addr:full": "418 S MAIN ST", "addr:postcode": "14901", "addr:state": "NY", "amenity": "post_box", "brand": "United States Postal Service", "brand:wikidata": "Q668687", "collection_times": "Mo-Fr 17:00; Sa 12:00", "name": "USPS COLLECTION BOX - BLUE BOX", "note": "ON 12/24 AND 12/31, THIS BOX MAY BE COLLECTED AS EARLY AS 12 NOON.", "nsi_id": "unitedstatespostalservice-a77078", "operator": "United States Postal Service", "operator:short": "USPS", "operator:type": "public", "operator:wikidata": "Q668687", "ref": "1490100129"}, "type": "Feature"}
{"dataset_attributes": {"@spider": "usps_collection_boxes"}, "geometry": {"coordinates": [-76.8556539, 42.080764], "type": "Point"}, "id": "g7g9LX908gRKyzXY2Cwj9T4W_zM=", "properties": {"@spider": "usps_collection_boxes", "addr:city": "ELMIRA", "addr:country": "US", "addr:full": "1727 W CHURCH ST", "addr:postcode": "14901", "addr:state": "NY", "amenity": "post_box", "brand": "United States Postal Service", "brand:wikidata": "Q668687", "collection_times": "Mo-Sa 10:00", "name": "USPS COLLECTION BOX - BLUE BOX", "nsi_id": "unitedstatespostalservice-a77078", "operator": "United States Postal Service", "operator:short": "USPS", "operator:type": "public", "operator:wikidata": "Q668687", "ref": "1490100131"}, "type": "Feature"}
{"dataset_attributes": {"@spider": "usps_collection_boxes"}, "geometry": {"coordinates": [-76.7951531, 42.091848], "type": "Point"}, "id": "z2E31a1_If823gOoHMNVuEP4p_w=", "properties": {"@spider": "usps_collection_boxes", "addr:city": "ELMIRA", "addr:country": "US", "addr:full": "100 WASHINGTON ST", "addr:postcode": "14901", "addr:state": "NY", "amenity": "post_box", "brand": "United States Postal Service", "brand:wikidata": "Q668687", "collection_times": "Mo-Fr 12:00; Sa 10:00", "name": "USPS COLLECTION BOX - BLUE BOX", "nsi_id": "unitedstatespostalservice-a77078", "operator": "United States Postal Service", "operator:short": "USPS", "operator:type": "public", "operator:wikidata": "Q668687", "ref": "1490100133"}, "type": "Feature"}
{"dataset_attributes": {"@spider": "usps_collection_boxes"}, "geometry": {"coordinates": [-76.8091031, 42.105245], "type": "Point"}, "id": "A-InLOsftFudRrOhk4hHK7EYswk=", "properties": {"@spider": "usps_collection_boxes", "addr:city": "ELMIRA", "addr:country": "US", "addr:full": "1100 CLEMENS CENTER PKWY", "addr:postcode": "14901", "addr:state": "NY", "amenity": "post_box", "brand": "United States Postal Service", "brand:wikidata": "Q668687", "collection_times": "Mo-Sa 10:00", "name": "USPS COLLECTION BOX - BLUE BOX", "nsi_id": "unitedstatespostalservice-a77078", "operator": "United States Postal Service", "operator:short": "USPS", "operator:type": "public", "operator:wikidata": "Q668687", "ref": "1490100134"}, "type": "Feature"}
{"dataset_attributes": {"@spider": "usps_collection_boxes"}, "geometry": {"coordinates": [-76.8074749, 42.089245], "type": "Point"}, "id": "UWCEvmz4T3abofvZ8CL3aVTXZuw=", "properties": {"@spider": "usps_collection_boxes", "addr:city": "ELMIRA", "addr:country": "US", "addr:full": "147 W GRAY ST", "addr:postcode": "14901", "addr:state": "NY", "amenity": "post_box", "brand": "United States Postal Service", "brand:wikidata": "Q668687", "collection_times": "Mo-Sa 10:00", "name": "USPS COLLECTION BOX - BLUE BOX", "nsi_id": "unitedstatespostalservice-a77078", "operator": "United States Postal Service", "operator:short": "USPS", "operator:type": "public", "operator:wikidata": "Q668687", "ref": "1490100138"}, "type": "Feature"}
{"dataset_attributes": {"@spider": "usps_collection_boxes"}, "geometry": {"coordinates": [-76.8060399, 42.11726], "type": "Point"}, "id": "5qzCjhbKGjUel6NSAYyCaZLu3uU=", "properties": {"@spider": "usps_collection_boxes", "addr:city": "ELMIRA", "addr:country": "US", "addr:full": "1580 SULLIVAN ST", "addr:postcode": "14901", "addr:state": "NY", "amenity": "post_box", "brand": "United States Postal Service", "brand:wikidata": "Q668687", "collection_times": "Mo-Sa 17:00", "name": "USPS COLLECTION BOX - BLUE BOX", "note": "ON 12/24 AND 12/31, THIS BOX MAY BE COLLECTED AS EARLY AS 12 NOON.", "nsi_id": "unitedstatespostalservice-a77078", "operator": "United States Postal Service", "operator:short": "USPS", "operator:type": "public", "operator:wikidata": "Q668687", "ref": "1490100140"}, "type": "Feature"}
{"dataset_attributes": {"@spider": "usps_collection_boxes"}, "geometry": {"coordinates": [-76.8060304, 42.117263], "type": "Point"}, "id": "q10riQEvi5T2dDsUyFyXStOPNfI=", "properties": {"@spider": "usps_collection_boxes", "addr:city": "ELMIRA", "addr:country": "US", "addr:full": "1580 SULLIVAN ST", "addr:postcode": "14901", "addr:state": "NY", "amenity": "post_box", "brand": "United States Postal Service", "brand:wikidata": "Q668687", "collection_times": "Mo-Sa 17:00", "name": "USPS COLLECTION BOX - BLUE BOX", "note": "ON 12/24 AND 12/31, THIS BOX MAY BE COLLECTED AS EARLY AS 12 NOON.", "nsi_id": "unitedstatespostalservice-a77078", "operator": "United States Postal Service", "operator:short": "USPS", "operator:type": "public", "operator:wikidata": "Q668687", "ref": "1490100142"}, "type": "Feature"}
{"dataset_attributes": {"@spider": "usps_collection_boxes"}, "geometry": {"coordinates": [-76.8060449, 42.117241], "type": "Point"}, "id": "_BkeAanXnoqYCYwmYLItjvoL5FU=", "properties": {"@spider": "usps_collection_boxes", "addr:city": "ELMIRA", "addr:country": "US", "addr:full": "1580 SULLIVAN ST", "addr:postcode": "14901", "addr:state": "NY", "amenity": "post_box", "brand": "United States Postal Service", "brand:wikidata": "Q668687", "collection_times": "Mo-Sa 17:00", "name": "USPS COLLECTION BOX - EXPRESS", "note": "ON 12/24 AND 12/31, THIS BOX MAY BE COLLECTED AS EARLY AS 12 NOON.", "nsi_id": "unitedstatespostalservice-a77078", "operator": "United States Postal Service", "operator:short": "USPS", "operator:type": "public", "operator:wikidata": "Q668687", "ref": "1490100143"}, "type": "Feature"}
{"dataset_attributes": {"@spider": "usps_collection_boxes"}, "geometry": {"coordinates": [-76.8819703, 42.152873], "type": "Point"}, "id": "G6rZj1f0Eau93C-u_9NaHBdMIOE=", "properties": {"@spider": "usps_collection_boxes", "addr:city": "ELMIRA", "addr:country": "US", "addr:full": "830 COUNTY ROAD 64", "addr:postcode": "14901", "addr:state": "NY", "amenity": "post_box", "brand": "United States Postal Service", "brand:wikidata": "Q668687", "collection_times": "Mo-Sa 09:00", "name": "USPS COLLECTION BOX - BLUE BOX", "nsi_id": "unitedstatespostalservice-a77078", "operator": "United States Postal Service", "operator:short": "USPS", "operator:type": "public", "operator:wikidata": "Q668687", "ref": "1490100144"}, "type": "Feature"}
{"dataset_attributes": {"@spider": "usps_collection_boxes"}, "geometry": {"coordinates": [-76.8055258, 42.08981], "type": "Point"}, "id": "JxFhCfW9QrMnm3HFQi74ESXq0io=", "properties": {"@spider": "usps_collection_boxes", "addr:city": "ELMIRA", "addr:country": "US", "addr:full": "255 CLEMENS CENTER PKWY", "addr:postcode": "14901", "addr:state": "NY", "amenity": "post_box", "brand": "United States Postal Service", "brand:wikidata": "Q668687", "collection_times": "Mo-Fr 17:00; Sa 12:00", "name": "USPS COLLECTION BOX - BLUE BOX", "note": "ON 12/24 AND 12/31, THIS BOX MAY BE COLLECTED AS EARLY AS 12 NOON.", "nsi_id": "unitedstatespostalservice-a77078", "operator": "United States Postal Service", "operator:short": "USPS", "operator:type": "public", "operator:wikidata": "Q668687", "ref": "1490100145"}, "type": "Feature"}
{"dataset_attributes": {"@spider": "usps_collection_boxes"}, "geometry": {"coordinates": [-76.8060507, 42.117266], "type": "Point"}, "id": "Fy9Yq9UOMcM32T0FDGj79yg7A68=", "properties": {"@spider": "usps_collection_boxes", "addr:city": "ELMIRA", "addr:country": "US", "addr:full": "1580 SULLIVAN ST", "addr:postcode": "14901", "addr:state": "NY", "amenity": "post_box", "brand": "United States Postal Service", "brand:wikidata": "Q668687", "collection_times": "Mo-Sa 17:00", "name": "USPS COLLECTION BOX - BLUE BOX", "note": "ON 12/24 AND 12/31, THIS BOX MAY BE COLLECTED AS EARLY AS 12 NOON.", "nsi_id": "unitedstatespostalservice-a77078", "operator": "United States Postal Service", "operator:short": "USPS", "operator:type": "public", "operator:wikidata": "Q668687", "ref": "1490100147"}, "type": "Feature"}
{"dataset_attributes": {"@spider": "usps_collection_boxes"}, "geometry": {"coordinates": [-76.80365, 42.078511], "type": "Point"}, "id": "fXswcN4a-fVHeyDFy0t_izLBmec=", "properties": {"@spider": "usps_collection_boxes", "addr:city": "ELMIRA", "addr:country": "US", "addr:full": "418 S MAIN ST", "addr:postcode": "14901", "addr:state": "NY", "amenity": "post_box", "brand": "United States Postal Service", "brand:wikidata": "Q668687", "collection_times": "Mo-Fr 17:00; Sa 12:00", "name": "USPS COLLECTION BOX - PO LOBBY", "note": "ON 12/24 AND 12/31, THIS BOX MAY BE COLLECTED AS EARLY AS 12 NOON.", "nsi_id": "unitedstatespostalservice-a77078", "operator": "United States Postal Service", "operator:short": "USPS", "operator:type": "public", "operator:wikidata": "Q668687", "ref": "1490100148"}, "type": "Feature"}
{"dataset_attributes": {"@spider": "usps_collection_boxes"}, "geometry": {"coordinates": [-76.8055062, 42.089797], "type": "Point"}, "id": "oKzt8dlweZzbtDH7kWKg6kyKOEk=", "properties": {"@spider": "usps_collection_boxes", "addr:city": "ELMIRA", "addr:country": "US", "addr:full": "255 CLEMENS CENTER PKWY", "addr:postcode": "14901", "addr:state": "NY", "amenity": "post_box", "brand": "United States Postal Service", "brand:wikidata": "Q668687", "collection_times": "Mo-Fr 17:00; Sa 12:00", "name": "USPS COLLECTION BOX - BLUE BOX", "note": "ON 12/24 AND 12/31, THIS BOX MAY BE COLLECTED AS EARLY AS 12 NOON.", "nsi_id": "unitedstatespostalservice-a77078", "operator": "United States Postal Service", "operator:short": "USPS", "operator:type": "public", "operator:wikidata": "Q668687", "ref": "1490100150"}, "type": "Feature"}
{"dataset_attributes": {"@spider": "usps_collection_boxes"}, "geometry": {"coordinates": [-76.805232369, 42.090057231], "type": "Point"}, "id": "Mu7GnZWGcOTTwx7qDYnKa_6PjhM=", "properties": {"@spider": "usps_collection_boxes", "addr:city": "ELMIRA", "addr:country": "US", "addr:full": "255 CLEMENS CENTER PKWY", "addr:postcode": "14901", "addr:state": "NY", "amenity": "post_box", "brand": "United States Postal Service", "brand:wikidata": "Q668687", "collection_times": "Mo-Fr 17:00; Sa 12:00", "name": "USPS COLLECTION BOX - PO LOBBY", "note": "ON 12/24 AND 12/31, THIS BOX MAY BE COLLECTED AS EARLY AS 12 NOON.", "nsi_id": "unitedstatespostalservice-a77078", "operator": "United States Postal Service", "operator:short": "USPS", "operator:type": "public", "operator:wikidata": "Q668687", "ref": "1490100151"}, "type": "Feature"}
{"dataset_attributes": {"@spider": "usps_collection_boxes"}, "geometry": {"coordinates": [-76.8226561558, 42.1290747255], "type": "Point"}, "id": "lYw3qnq5cj9-kFUCp4csVXIsT0A=", "properties": {"@spider": "usps_collection_boxes", "addr:city": "ELMIRA", "addr:country": "US", "addr:full": "209 E 14TH ST", "addr:postcode": "14901", "addr:state": "NY", "amenity": "post_box", "brand": "United States Postal Service", "brand:wikidata": "Q668687", "collection_times": "Mo-Fr 17:00; Sa 12:00", "name": "USPS COLLECTION BOX - PO LOBBY", "note": "ON 12/24 AND 12/31, THIS BOX MAY BE COLLECTED AS EARLY AS 12 NOON.", "nsi_id": "unitedstatespostalservice-a77078", "operator": "United States Postal Service", "operator:short": "USPS", "operator:type": "public", "operator:wikidata": "Q668687", "ref": "1490100152"}, "type": "Feature"}
{"dataset_attributes": {"@spider": "usps_collection_boxes"}, "geometry": {"coordinates": [-76.803214188, 42.078569334], "type": "Point"}, "id": "hq-BsAB_hQlOxcyYRFUdc8Ou4vY=", "properties": {"@spider": "usps_collection_boxes", "addr:city": "ELMIRA", "addr:country": "US", "addr:full": "418 S MAIN ST", "addr:postcode": "14901", "addr:state": "NY", "amenity": "post_box", "brand": "United States Postal Service", "brand:wikidata": "Q668687", "collection_times": "Mo-Fr 17:00; Sa 12:00", "name": "USPS COLLECTION BOX - PO LOBBY", "note": "ON 12/24 AND 12/31, THIS BOX MAY BE COLLECTED AS EARLY AS 12 NOON.", "nsi_id": "unitedstatespostalservice-a77078", "operator": "United States Postal Service", "operator:short": "USPS", "operator:type": "public", "operator:wikidata": "Q668687", "ref": "1490100153"}, "type": "Feature"}
