{"geometry": {"coordinates": [-80.252379, 40.172324], "type": "Point"}, "id": "yDWA_pmbWM_jEPSxHShNtqNsAbA=", "properties": {"@spider": "usps_collection_boxes", "addr:city": "WASHINGTON", "addr:country": "US", "addr:full": "153 JEFFERSON AVE", "addr:postcode": "15301", "addr:state": "PA", "brand": "USPS", "collection_times": "Mo-Sa 17:30", "name": "USPS COLLECTION BOX - BLUE BOX", "note": "ON 12/24 AND 12/31, THIS BOX MAY BE COLLECTED AS EARLY AS 12 NOON.", "ref": "1530100001"}, "type": "Feature"}
{"geometry": {"coordinates": [-80.2405654, 40.182106], "type": "Point"}, "id": "2T6X9SyTObqGf_Pua2oWiNIUyh4=", "properties": {"@spider": "usps_collection_boxes", "addr:city": "WASHINGTON", "addr:country": "US", "addr:full": "95 LEONARD AVE", "addr:postcode": "15301", "addr:state": "PA", "brand": "USPS", "collection_times": "Mo-Sa 10:00", "name": "USPS COLLECTION BOX - BLUE BOX", "ref": "1530100004"}, "type": "Feature"}
{"geometry": {"coordinates": [-80.2433949, 40.169635], "type": "Point"}, "id": "7DclKuRKF0iDYvIllprW8tLTon8=", "properties": {"@spider": "usps_collection_boxes", "addr:city": "WASHINGTON", "addr:country": "US", "addr:full": "61 E WHEELING ST", "addr:postcode": "15301", "addr:state": "PA", "brand": "USPS", "collection_times": "Mo-Sa 09:00", "name": "USPS COLLECTION BOX - BLUE BOX", "ref": "1530100010"}, "type": "Feature"}
{"geometry": {"coordinates": [-80.2370111, 40.159958], "type": "Point"}, "id": "nDs8Kf69Wb8DV24EratFNF01gtw=", "properties": {"@spider": "usps_collection_boxes", "addr:city": "WASHINGTON", "addr:country": "US", "addr:full": "815 S MAIN ST", "addr:postcode": "15301", "addr:state": "PA", "brand": "USPS", "collection_times": "Mo-Sa 09:00", "name": "USPS COLLECTION BOX - BLUE BOX", "ref": "1530100014"}, "type": "Feature"}
{"geometry": {"coordinates": [-80.242638, 40.168042], "type": "Point"}, "id": "uQt7KXxl-Erldkjl_Czoi7LHhZI=", "properties": {"@spider": "usps_collection_boxes", "addr:city": "WASHINGTON", "addr:country": "US", "addr:full": "84 E MAIDEN ST", "addr:postcode": "15301", "addr:state": "PA", "brand": "USPS", "collection_times": "Mo-Sa 12:30", "name": "USPS COLLECTION BOX - BLUE BOX", "note": "ON 12/24 AND 12/31, THIS BOX MAY BE COLLECTED AS EARLY AS 12 NOON.", "ref": "1530100024"}, "type": "Feature"}
{"geometry": {"coordinates": [-80.2463252, 40.167581], "type": "Point"}, "id": "l6X0CQjTsFNNpbPaQ9Ev1IS9F1Y=", "properties": {"@spider": "usps_collection_boxes", "addr:city": "WASHINGTON", "addr:country": "US", "addr:full": "69 W MAIDEN ST", "addr:postcode": "15301", "addr:state": "PA", "brand": "USPS", "collection_times": "Mo-Sa 15:00", "name": "USPS COLLECTION BOX - BLUE BOX", "note": "ON 12/24 AND 12/31, THIS BOX MAY BE COLLECTED AS EARLY AS 12 NOON.", "ref": "1530100025"}, "type": "Feature"}
{"geometry": {"coordinates": [-80.2504292, 40.18267], "type": "Point"}, "id": "kmuXxKXYSVov1BCrDAenJHm2z6U=", "properties": {"@spider": "usps_collection_boxes", "addr:city": "WASHINGTON", "addr:country": "US", "addr:full": "850 BEECH ST", "addr:postcode": "15301", "addr:state": "PA", "brand": "USPS", "collection_times": "Mo-Sa 15:00", "name": "USPS COLLECTION BOX - BLUE BOX", "note": "ON 12/24 AND 12/31, THIS BOX MAY BE COLLECTED AS EARLY AS 12 NOON.", "ref": "1530100026"}, "type": "Feature"}
{"geometry": {"coordinates": [-80.2436899, 40.173562], "type": "Point"}, "id": "DAWJMf_jXFF0kUS3yI3OX4W4LKg=", "properties": {"@spider": "usps_collection_boxes", "addr:city": "WASHINGTON", "addr:country": "US", "addr:full": "154 N COLLEGE ST", "addr:postcode": "15301", "addr:state": "PA", "brand": "USPS", "collection_times": "Mo-Sa 15:00", "name": "USPS COLLECTION BOX - BLUE BOX", "note": "ON 12/24 AND 12/31, THIS BOX MAY BE COLLECTED AS EARLY AS 12 NOON.", "ref": "1530100028"}, "type": "Feature"}
{"geometry": {"coordinates": [-80.2761184, 40.160348], "type": "Point"}, "id": "i6VgXJAN5AKJiAxF3wJAWDlZAgQ=", "properties": {"@spider": "usps_collection_boxes", "addr:city": "WASHINGTON", "addr:country": "US", "addr:full": "1500 W CHESTNUT ST", "addr:postcode": "15301", "addr:state": "PA", "brand": "USPS", "collection_times": "Mo-Fr 17:15; Sa 12:30", "name": "USPS COLLECTION BOX - BLUE BOX", "note": "ON 12/24 AND 12/31, THIS BOX MAY BE COLLECTED AS EARLY AS 12 NOON.", "ref": "1530100031"}, "type": "Feature"}
{"geometry": {"coordinates": [-80.2460174, 40.170043], "type": "Point"}, "id": "SJ58ZdR1SND01qJla02mqXHv5tA=", "properties": {"@spider": "usps_collection_boxes", "addr:city": "WASHINGTON", "addr:country": "US", "addr:full": "29 W CHERRY AVE", "addr:postcode": "15301", "addr:state": "PA", "brand": "USPS", "collection_times": "Mo-Fr 16:00; Sa 12:00", "name": "USPS COLLECTION BOX - BLUE BOX", "note": "ON 12/24 AND 12/31, THIS BOX MAY BE COLLECTED AS EARLY AS 12 NOON.", "ref": "1530100033"}, "type": "Feature"}
{"geometry": {"coordinates": [-80.2564104, 40.186037], "type": "Point"}, "id": "f42-uqQvj--0Y1w5ufBYr8WormA=", "properties": {"@spider": "usps_collection_boxes", "addr:city": "WASHINGTON", "addr:country": "US", "addr:full": "1296 DONNAN AVE", "addr:postcode": "15301", "addr:state": "PA", "brand": "USPS", "collection_times": "Mo-Sa 09:00", "name": "USPS COLLECTION BOX - BLUE BOX", "ref": "1530100035"}, "type": "Feature"}
{"geometry": {"coordinates": [-80.2445563, 40.170997], "type": "Point"}, "id": "6ODvF2j8uS8NMJ94jYK1qM2btvo=", "properties": {"@spider": "usps_collection_boxes", "addr:city": "WASHINGTON", "addr:country": "US", "addr:full": "26 E BEAU ST", "addr:postcode": "15301", "addr:state": "PA", "brand": "USPS", "collection_times": "Mo-Fr 17:00; Sa 13:30", "name": "USPS COLLECTION BOX - BLUE BOX", "note": "ON 12/24 AND 12/31, THIS BOX MAY BE COLLECTED AS EARLY AS 12 NOON.", "ref": "1530100038"}, "type": "Feature"}
{"geometry": {"coordinates": [-80.2455109, 40.170644], "type": "Point"}, "id": "LVSKM9Y1ZgqX67FbGrA1kvvXzCQ=", "properties": {"@spider": "usps_collection_boxes", "addr:city": "WASHINGTON", "addr:country": "US", "addr:full": "1 S MAIN ST", "addr:postcode": "15301", "addr:state": "PA", "brand": "USPS", "collection_times": "Mo-Sa 09:30", "name": "USPS COLLECTION BOX - BLUE BOX", "ref": "1530100040"}, "type": "Feature"}
{"geometry": {"coordinates": [-80.2477111, 40.170086], "type": "Point"}, "id": "eNy_GDE2LRk-yRdHmpfLt9rYULI=", "properties": {"@spider": "usps_collection_boxes", "addr:city": "WASHINGTON", "addr:country": "US", "addr:full": "100 W BEAU ST", "addr:postcode": "15301", "addr:state": "PA", "brand": "USPS", "collection_times": "Mo-Sa 10:00", "name": "USPS COLLECTION BOX - BLUE BOX", "ref": "1530100041"}, "type": "Feature"}
{"geometry": {"coordinates": [-80.2451556, 40.169437], "type": "Point"}, "id": "BnIYD2wC31_6yqFuX_g6RCPQTwc=", "properties": {"@spider": "usps_collection_boxes", "addr:city": "WASHINGTON", "addr:country": "US", "addr:full": "99 S MAIN ST", "addr:postcode": "15301", "addr:state": "PA", "brand": "USPS", "collection_times": "Mo-Sa 09:45", "name": "USPS COLLECTION BOX - BLUE BOX", "ref": "1530100047"}, "type": "Feature"}
{"geometry": {"coordinates": [-80.244266483, 40.166312838], "type": "Point"}, "id": "cGV-BNIYsGUL58F7wNjXFTIfFJA=", "properties": {"@spider": "usps_collection_boxes", "addr:city": "WASHINGTON", "addr:country": "US", "addr:full": "331 S MAIN ST", "addr:postcode": "15301", "addr:state": "PA", "brand": "USPS", "collection_times": "Mo-Fr 12:30; Sa 15:00", "name": "USPS COLLECTION BOX - BLUE BOX", "note": "ON 12/24 AND 12/31, THIS BOX MAY BE COLLECTED AS EARLY AS 12 NOON.", "ref": "1530100055"}, "type": "Feature"}
{"geometry": {"coordinates": [-80.2409808, 40.170662], "type": "Point"}, "id": "AAD4BMqTfWr09y8cadj0fyz4EPI=", "properties": {"@spider": "usps_collection_boxes", "addr:city": "WASHINGTON", "addr:country": "US", "addr:full": "50 S LINCOLN ST", "addr:postcode": "15301", "addr:state": "PA", "brand": "USPS", "collection_times": "Mo-Sa 08:30", "name": "USPS COLLECTION BOX - BLUE BOX", "ref": "1530100060"}, "type": "Feature"}
{"geometry": {"coordinates": [-80.2219226, 40.183304], "type": "Point"}, "id": "sFzJ_-EWCsKLnIojuacEcmr1iPg=", "properties": {"@spider": "usps_collection_boxes", "addr:city": "WASHINGTON", "addr:country": "US", "addr:full": "30 TRINITY POINT DR", "addr:postcode": "15301", "addr:state": "PA", "brand": "USPS", "collection_times": "Mo-Sa 12:00", "name": "USPS COLLECTION BOX - BLUE BOX", "ref": "1530100064"}, "type": "Feature"}
{"geometry": {"coordinates": [-80.2533262, 40.170758], "type": "Point"}, "id": "jJ426k8RB2A5Og4SFyr9UEvNGeE=", "properties": {"@spider": "usps_collection_boxes", "addr:city": "WASHINGTON", "addr:country": "US", "addr:full": "380 W CHESTNUT ST SIDE", "addr:postcode": "15301", "addr:state": "PA", "brand": "USPS", "collection_times": "Mo-Sa 09:00", "name": "USPS COLLECTION BOX - BLUE BOX", "ref": "1530100066"}, "type": "Feature"}
{"geometry": {"coordinates": [-80.2285486, 40.186733], "type": "Point"}, "id": "Spvl8FOlDb57GD_TMShEdGGVrb0=", "properties": {"@spider": "usps_collection_boxes", "addr:city": "WASHINGTON", "addr:country": "US", "addr:full": "331 WASHINGTON RD", "addr:postcode": "15301", "addr:state": "PA", "brand": "USPS", "collection_times": "Mo-Sa 12:45", "name": "USPS COLLECTION BOX - BLUE BOX", "note": "ON 12/24 AND 12/31, THIS BOX MAY BE COLLECTED AS EARLY AS 12 NOON.", "ref": "1530100067"}, "type": "Feature"}
{"geometry": {"coordinates": [-80.2477626, 40.170076], "type": "Point"}, "id": "_bSJ5CjjumHeD3RWYf93NrGnk9w=", "properties": {"@spider": "usps_collection_boxes", "addr:city": "WASHINGTON", "addr:country": "US", "addr:full": "100 W BEAU ST", "addr:postcode": "15301", "addr:state": "PA", "brand": "USPS", "collection_times": "Mo-Sa 10:00", "name": "USPS COLLECTION BOX - BLUE BOX", "ref": "1530100075"}, "type": "Feature"}
{"geometry": {"coordinates": [-80.2445678, 40.171013], "type": "Point"}, "id": "8kO_VdiH5X3mnckfMpuGLkIsfhY=", "properties": {"@spider": "usps_collection_boxes", "addr:city": "WASHINGTON", "addr:country": "US", "addr:full": "26 E BEAU ST", "addr:postcode": "15301", "addr:state": "PA", "brand": "USPS", "collection_times": "Mo-Fr 17:00; Sa 13:30", "name": "USPS COLLECTION BOX - BLUE BOX", "note": "ON 12/24 AND 12/31, THIS BOX MAY BE COLLECTED AS EARLY AS 12 NOON.", "ref": "1530100076"}, "type": "Feature"}
{"geometry": {"coordinates": [-80.2222255185, 40.1866986349], "type": "Point"}, "id": "A6-WTnFS8_ovIzCT-S7HcUKyfNY=", "properties": {"@spider": "usps_collection_boxes", "addr:city": "WASHINGTON", "addr:country": "US", "addr:full": "331 WASHINGTON RD", "addr:postcode": "15301", "addr:state": "PA", "brand": "USPS", "collection_times": "Mo-Sa 12:45", "name": "USPS COLLECTION BOX - BLUE BOX", "note": "ON 12/24 AND 12/31, THIS BOX MAY BE COLLECTED AS EARLY AS 12 NOON.", "ref": "1530100077"}, "type": "Feature"}
{"geometry": {"coordinates": [-80.245497, 40.171188], "type": "Point"}, "id": "7ygCoyyHdDuwzzbPSVa0r61xMqw=", "properties": {"@spider": "usps_collection_boxes", "addr:city": "WASHINGTON", "addr:country": "US", "addr:full": "28 N MAIN ST LBBY", "addr:postcode": "15301", "addr:state": "PA", "brand": "USPS", "collection_times": "Mo-Fr 17:00", "name": "USPS COLLECTION BOX - PO LOBBY", "note": "ON 12/24 AND 12/31, THIS BOX MAY BE COLLECTED AS EARLY AS 12 NOON.", "ref": "1530100078"}, "type": "Feature"}
{"geometry": {"coordinates": [-80.252379, 40.172324], "type": "Point"}, "id": "if0v1rv2Y5xZLdXIFI461mmteEQ=", "properties": {"@spider": "usps_collection_boxes", "addr:city": "WASHINGTON", "addr:country": "US", "addr:full": "153 JEFFERSON AVE LBBY", "addr:postcode": "15301", "addr:state": "PA", "brand": "USPS", "collection_times": "Mo-Fr 18:30; Sa 17:00", "name": "USPS COLLECTION BOX - PO LOBBY", "note": "ON 12/24 AND 12/31, THIS BOX MAY BE COLLECTED AS EARLY AS 12 NOON.", "ref": "1530100079"}, "type": "Feature"}
{"geometry": {"coordinates": [-80.2477711, 40.17201], "type": "Point"}, "id": "J58PUdaFFxEtcQg8BOSiB2wn2AQ=", "properties": {"@spider": "usps_collection_boxes", "addr:city": "WASHINGTON", "addr:country": "US", "addr:full": "90 W CHESTNUT ST", "addr:postcode": "15301", "addr:state": "PA", "brand": "USPS", "collection_times": "Mo-Sa 11:45", "name": "USPS COLLECTION BOX - BLUE BOX", "ref": "1530100083"}, "type": "Feature"}
{"geometry": {"coordinates": [-80.2489204, 40.170067], "type": "Point"}, "id": "1CD_7xcZFq1h_sUxWiZa5yC5LgI=", "properties": {"@spider": "usps_collection_boxes", "addr:city": "WASHINGTON", "addr:country": "US", "addr:full": "150 W BEAU ST", "addr:postcode": "15301", "addr:state": "PA", "brand": "USPS", "collection_times": "Mo-Sa 09:00", "name": "USPS COLLECTION BOX - BLUE BOX", "ref": "1530100084"}, "type": "Feature"}
{"geometry": {"coordinates": [-80.2477904, 40.172019], "type": "Point"}, "id": "hIo-bGSlAcgpzABUvEpfwj8pFIM=", "properties": {"@spider": "usps_collection_boxes", "addr:city": "WASHINGTON", "addr:country": "US", "addr:full": "90 W CHESTNUT ST", "addr:postcode": "15301", "addr:state": "PA", "brand": "USPS", "collection_times": "Mo-Sa 11:45", "name": "USPS COLLECTION BOX - BLUE BOX", "ref": "1530100086"}, "type": "Feature"}
{"geometry": {"coordinates": [-80.2445535, 40.170976], "type": "Point"}, "id": "WZ509mevJw9ZJ9BuJzj-pzsbNUg=", "properties": {"@spider": "usps_collection_boxes", "addr:city": "WASHINGTON", "addr:country": "US", "addr:full": "26 E BEAU ST", "addr:postcode": "15301", "addr:state": "PA", "brand": "USPS", "collection_times": "Mo-Fr 17:00; Sa 13:30", "name": "USPS COLLECTION BOX - BLUE BOX", "note": "ON 12/24 AND 12/31, THIS BOX MAY BE COLLECTED AS EARLY AS 12 NOON.", "ref": "1530100087"}, "type": "Feature"}
{"geometry": {"coordinates": [-80.2468736, 40.183417], "type": "Point"}, "id": "5-B_xsoG8OO8C3iFHNMGcoW8cgI=", "properties": {"@spider": "usps_collection_boxes", "addr:city": "WASHINGTON", "addr:country": "US", "addr:full": "155 WILSON AVE", "addr:postcode": "15301", "addr:state": "PA", "brand": "USPS", "collection_times": "Mo-Sa 10:00", "name": "USPS COLLECTION BOX - BLUE BOX", "ref": "1530100089"}, "type": "Feature"}
{"geometry": {"coordinates": [-80.2046735, 40.220831], "type": "Point"}, "id": "s_PAefiGqjRADq6X8LkxzCNbbHs=", "properties": {"@spider": "usps_collection_boxes", "addr:city": "WASHINGTON", "addr:country": "US", "addr:full": "470 JOHNSON RD", "addr:postcode": "15301", "addr:state": "PA", "brand": "USPS", "collection_times": "Mo-Sa 10:30", "name": "USPS COLLECTION BOX - BLUE BOX", "ref": "1530100090"}, "type": "Feature"}
{"geometry": {"coordinates": [-80.2470149, 40.177981], "type": "Point"}, "id": "wNDAWGH0uNS3hnYsMOw5RJNwA04=", "properties": {"@spider": "usps_collection_boxes", "addr:city": "WASHINGTON", "addr:country": "US", "addr:full": "500 N MAIN ST", "addr:postcode": "15301", "addr:state": "PA", "brand": "USPS", "collection_times": "Mo-Sa 12:15", "name": "USPS COLLECTION BOX - BLUE BOX", "note": "ON 12/24 AND 12/31, THIS BOX MAY BE COLLECTED AS EARLY AS 12 NOON.", "ref": "1530100091"}, "type": "Feature"}
{"geometry": {"coordinates": [-80.2632233111, 40.1813254627], "type": "Point"}, "id": "pVerV53H2Tocfkt9f4L3qdzczvY=", "properties": {"@spider": "usps_collection_boxes", "addr:city": "WASHINGTON", "addr:country": "US", "addr:full": "940 JEFFERSON AVE", "addr:postcode": "15301", "addr:state": "PA", "brand": "USPS", "collection_times": "Mo-Sa 09:00", "name": "USPS COLLECTION BOX - BLUE BOX", "ref": "1530100094"}, "type": "Feature"}
{"geometry": {"coordinates": [-80.246236436, 40.169990355], "type": "Point"}, "id": "KGDFShi7bhIA8UwfuUOoZ2iHvbQ=", "properties": {"@spider": "usps_collection_boxes", "addr:city": "WASHINGTON", "addr:country": "US", "addr:full": "29 W CHERRY AVE", "addr:postcode": "15301", "addr:state": "PA", "brand": "USPS", "collection_times": "Mo-Fr 16:00; Sa 12:00", "name": "USPS COLLECTION BOX - BLUE BOX", "note": "ON 12/24 AND 12/31, THIS BOX MAY BE COLLECTED AS EARLY AS 12 NOON.", "ref": "1530100095"}, "type": "Feature"}
{"geometry": {"coordinates": [-80.2480433, 40.170779], "type": "Point"}, "id": "BfY5NhBssu5K2LD84ya0lbvZEEg=", "properties": {"@spider": "usps_collection_boxes", "addr:city": "WASHINGTON", "addr:country": "US", "addr:full": "95 W BEAU ST", "addr:postcode": "15301", "addr:state": "PA", "brand": "USPS", "collection_times": "Mo-Sa 09:15", "name": "USPS COLLECTION BOX - BLUE BOX", "ref": "1530100096"}, "type": "Feature"}
{"geometry": {"coordinates": [-80.2056183, 40.221302], "type": "Point"}, "id": "Z6-asKYAehtxupFVySENuEMrJok=", "properties": {"@spider": "usps_collection_boxes", "addr:city": "WASHINGTON", "addr:country": "US", "addr:full": "480 JOHNSON RD", "addr:postcode": "15301", "addr:state": "PA", "brand": "USPS", "collection_times": "Mo-Sa 10:30", "name": "USPS COLLECTION BOX - BLUE BOX", "ref": "1530100097"}, "type": "Feature"}
{"geometry": {"coordinates": [-80.252385251, 40.172264894], "type": "Point"}, "id": "R8cYTE5xtsODOvXgTD1HaWG0_ck=", "properties": {"@spider": "usps_collection_boxes", "addr:city": "WASHINGTON", "addr:country": "US", "addr:full": "153 JEFFERSON AVE", "addr:postcode": "15301", "addr:state": "PA", "brand": "USPS", "collection_times": "Mo-Fr 19:00; Sa 16:00", "name": "USPS COLLECTION BOX - PO LOBBY", "note": "ON 12/24 AND 12/31, THIS BOX MAY BE COLLECTED AS EARLY AS 12 NOON.", "ref": "1530100108"}, "type": "Feature"}
{"geometry": {"coordinates": [-80.245508414, 40.171214787], "type": "Point"}, "id": "vsomDdqvdYZpyp4rk4NI5AY-7sY=", "properties": {"@spider": "usps_collection_boxes", "addr:city": "WASHINGTON", "addr:country": "US", "addr:full": "28 N MAIN ST", "addr:postcode": "15301", "addr:state": "PA", "brand": "USPS", "collection_times": "Mo-Fr 17:00", "name": "USPS COLLECTION BOX - PO LOBBY", "note": "ON 12/24 AND 12/31, THIS BOX MAY BE COLLECTED AS EARLY AS 12 NOON.", "ref": "1530100109"}, "type": "Feature"}
{"geometry": {"coordinates": [-80.443354, 39.82191], "type": "Point"}, "id": "8h6hv6tpAIv6h6qd4pvbmojdxXc=", "properties": {"@spider": "usps_collection_boxes", "addr:city": "ALEPPO", "addr:country": "US", "addr:full": "1169 ALEPPO RD", "addr:postcode": "15310", "addr:state": "PA", "brand": "USPS", "collection_times": "Mo-Fr 10:50; Sa 11:45", "name": "USPS COLLECTION BOX - BLUE BOX", "ref": "1531000001"}, "type": "Feature"}
{"geometry": {"coordinates": [-80.443396497, 39.822150657], "type": "Point"}, "id": "chxIRmEKdeiAVfJrgdHOGkcNZj4=", "properties": {"@spider": "usps_collection_boxes", "addr:city": "ALEPPO", "addr:country": "US", "addr:full": "1169 ALEPPO RD", "addr:postcode": "15310", "addr:state": "PA", "brand": "USPS", "collection_times": "Mo-Fr 10:50; Sa 11:45", "name": "USPS COLLECTION BOX - PO LOBBY", "ref": "1531000003"}, "type": "Feature"}
{"geometry": {"coordinates": [-80.205007, 40.037125], "type": "Point"}, "id": "KFZXwXfd6hOOktgu97org9Fqu7g=", "properties": {"@spider": "usps_collection_boxes", "addr:city": "AMITY", "addr:country": "US", "addr:full": "630 AMITY RIDGE RD", "addr:postcode": "15311", "addr:state": "PA", "brand": "USPS", "collection_times": "Mo-Fr 12:30; Sa 11:45", "name": "USPS COLLECTION BOX - BLUE BOX", "note": "ON 12/24 AND 12/31, THIS BOX MAY BE COLLECTED AS EARLY AS 12 NOON.", "ref": "1531100001"}, "type": "Feature"}
{"geometry": {"coordinates": [-80.2051783, 40.03711], "type": "Point"}, "id": "UyAs4-9kzqKRrouoEruCwRHTE3k=", "properties": {"@spider": "usps_collection_boxes", "addr:city": "AMITY", "addr:country": "US", "addr:full": "630 AMITY RIDGE RD LBBY", "addr:postcode": "15311", "addr:state": "PA", "brand": "USPS", "collection_times": "Mo-Fr 12:30; Sa 11:45", "name": "USPS COLLECTION BOX - PO LOBBY", "note": "ON 12/24 AND 12/31, THIS BOX MAY BE COLLECTED AS EARLY AS 12 NOON.", "ref": "1531100002"}, "type": "Feature"}
{"geometry": {"coordinates": [-80.205360572, 40.037336509], "type": "Point"}, "id": "EfU5FbvQ4LXhdv-CZRWEbse2uoY=", "properties": {"@spider": "usps_collection_boxes", "addr:city": "AMITY", "addr:country": "US", "addr:full": "630 AMITY RIDGE RD", "addr:postcode": "15311", "addr:state": "PA", "brand": "USPS", "collection_times": "Mo-Fr 12:30; Sa 11:25", "name": "USPS COLLECTION BOX - PO LOBBY", "note": "ON 12/24 AND 12/31, THIS BOX MAY BE COLLECTED AS EARLY AS 12 NOON.", "ref": "1531100004"}, "type": "Feature"}
{"geometry": {"coordinates": [-80.460222, 40.275554], "type": "Point"}, "id": "dLAmwf3o2_1_0da_JzUKPByX5Yk=", "properties": {"@spider": "usps_collection_boxes", "addr:city": "AVELLA", "addr:country": "US", "addr:full": "17 CAMPBELL ST", "addr:postcode": "15312", "addr:state": "PA", "brand": "USPS", "collection_times": "Mo-Fr 16:30; Sa 12:00", "name": "USPS COLLECTION BOX - BLUE BOX", "note": "ON 12/24 AND 12/31, THIS BOX MAY BE COLLECTED AS EARLY AS 12 NOON.", "ref": "1531200001"}, "type": "Feature"}
{"geometry": {"coordinates": [-80.460222, 40.275554], "type": "Point"}, "id": "OYRcZhmC8l3Jl1jNU-s_maq3zl0=", "properties": {"@spider": "usps_collection_boxes", "addr:city": "AVELLA", "addr:country": "US", "addr:full": "17 CAMPBELL ST", "addr:postcode": "15312", "addr:state": "PA", "brand": "USPS", "collection_times": "Mo-Fr 16:30; Sa 12:00", "name": "USPS COLLECTION BOX - PO LOBBY", "note": "ON 12/24 AND 12/31, THIS BOX MAY BE COLLECTED AS EARLY AS 12 NOON.", "ref": "1531200002"}, "type": "Feature"}
{"geometry": {"coordinates": [-80.460110088, 40.275308369], "type": "Point"}, "id": "FpLGZ-lQRChjhGof-dBNS2h-xiU=", "properties": {"@spider": "usps_collection_boxes", "addr:city": "AVELLA", "addr:country": "US", "addr:full": "17 CAMPBELL ST", "addr:postcode": "15312", "addr:state": "PA", "brand": "USPS", "collection_times": "Mo-Fr 16:30; Sa 12:00", "name": "USPS COLLECTION BOX - PO LOBBY", "note": "ON 12/24 AND 12/31, THIS BOX MAY BE COLLECTED AS EARLY AS 12 NOON.", "ref": "1531200004"}, "type": "Feature"}
{"geometry": {"coordinates": [-80.022569, 40.06385], "type": "Point"}, "id": "RGvZiVtECtSIGwUQk-eZlIMYIeo=", "properties": {"@spider": "usps_collection_boxes", "addr:city": "BEALLSVILLE", "addr:country": "US", "addr:full": "82B SOUTH ST", "addr:postcode": "15313", "addr:state": "PA", "brand": "USPS", "collection_times": "Mo-Fr 11:55; Sa 11:30", "name": "USPS COLLECTION BOX - BLUE BOX", "ref": "1531300001"}, "type": "Feature"}
{"geometry": {"coordinates": [-80.022458, 40.063818], "type": "Point"}, "id": "R4wu70yocXf7_eiTp52-1F-cwUk=", "properties": {"@spider": "usps_collection_boxes", "addr:city": "BEALLSVILLE", "addr:country": "US", "addr:full": "82B SOUTH ST", "addr:postcode": "15313", "addr:state": "PA", "brand": "USPS", "collection_times": "Mo-Fr 11:55; Sa 11:30", "name": "USPS COLLECTION BOX - PO LOBBY", "ref": "1531300002"}, "type": "Feature"}
{"geometry": {"coordinates": [-80.022533981, 40.063775159], "type": "Point"}, "id": "hZsbeY8IfugQ8h4rY0o6RCt6Ato=", "properties": {"@spider": "usps_collection_boxes", "addr:city": "BEALLSVILLE", "addr:country": "US", "addr:full": "82B SOUTH ST", "addr:postcode": "15313", "addr:state": "PA", "brand": "USPS", "collection_times": "Mo-Fr 11:55; Sa 11:25", "name": "USPS COLLECTION BOX - PO LOBBY", "ref": "1531300004"}, "type": "Feature"}
{"geometry": {"coordinates": [-80.0027499, 40.129473], "type": "Point"}, "id": "3f1h0jWntw3SRSobGza06E-SDLQ=", "properties": {"@spider": "usps_collection_boxes", "addr:city": "BENTLEYVILLE", "addr:country": "US", "addr:full": "155 WILSON RD", "addr:postcode": "15314", "addr:state": "PA", "brand": "USPS", "collection_times": "Mo-Sa 09:30", "name": "USPS COLLECTION BOX - BLUE BOX", "ref": "1531400002"}, "type": "Feature"}
{"geometry": {"coordinates": [-80.0080483, 40.117196], "type": "Point"}, "id": "2wg_vsnyZ2GTIHxVW4c_2sHvk0Q=", "properties": {"@spider": "usps_collection_boxes", "addr:city": "BENTLEYVILLE", "addr:country": "US", "addr:full": "604 MAIN ST", "addr:postcode": "15314", "addr:state": "PA", "brand": "USPS", "collection_times": "Mo-Sa 13:45", "name": "USPS COLLECTION BOX - BLUE BOX", "note": "ON 12/24 AND 12/31, THIS BOX MAY BE COLLECTED AS EARLY AS 12 NOON.", "ref": "1531400003"}, "type": "Feature"}
{"geometry": {"coordinates": [-80.005949, 40.121516], "type": "Point"}, "id": "j5hq9YvE002C367B4CMpHmhQLTg=", "properties": {"@spider": "usps_collection_boxes", "addr:city": "BENTLEYVILLE", "addr:country": "US", "addr:full": "901 MAIN ST", "addr:postcode": "15314", "addr:state": "PA", "brand": "USPS", "collection_times": "Mo-Fr 16:30; Sa 15:00", "name": "USPS COLLECTION BOX - BLUE BOX", "note": "ON 12/24 AND 12/31, THIS BOX MAY BE COLLECTED AS EARLY AS 12 NOON.", "ref": "1531400005"}, "type": "Feature"}
{"geometry": {"coordinates": [-80.005949, 40.121516], "type": "Point"}, "id": "RaKWjjjNxi3fwySwpTsv3Y5Ez1U=", "properties": {"@spider": "usps_collection_boxes", "addr:city": "BENTLEYVILLE", "addr:country": "US", "addr:full": "901 MAIN ST LBBY", "addr:postcode": "15314", "addr:state": "PA", "brand": "USPS", "collection_times": "Mo-Fr 16:30; Sa 15:00", "name": "USPS COLLECTION BOX - PO LOBBY", "note": "ON 12/24 AND 12/31, THIS BOX MAY BE COLLECTED AS EARLY AS 12 NOON.", "ref": "1531400006"}, "type": "Feature"}
{"geometry": {"coordinates": [-80.005949, 40.121516], "type": "Point"}, "id": "UI8lMGz0x9NUsK8T5XYbdD7F1mQ=", "properties": {"@spider": "usps_collection_boxes", "addr:city": "BENTLEYVILLE", "addr:country": "US", "addr:full": "901 MAIN ST LBBY", "addr:postcode": "15314", "addr:state": "PA", "brand": "USPS", "collection_times": "Mo-Fr 16:30; Sa 15:00", "name": "USPS COLLECTION BOX - PO LOBBY", "note": "ON 12/24 AND 12/31, THIS BOX MAY BE COLLECTED AS EARLY AS 12 NOON.", "ref": "1531400007"}, "type": "Feature"}
{"geometry": {"coordinates": [-80.0008124, 40.131593], "type": "Point"}, "id": "yVREuMmuzBN6V5hT5PtRVBGR8Ug=", "properties": {"@spider": "usps_collection_boxes", "addr:city": "BENTLEYVILLE", "addr:country": "US", "addr:full": "205 WILSON RD", "addr:postcode": "15314", "addr:state": "PA", "brand": "USPS", "collection_times": "Mo-Sa 09:15", "name": "USPS COLLECTION BOX - BLUE BOX", "ref": "1531400008"}, "type": "Feature"}
{"geometry": {"coordinates": [-80.005950335, 40.121515917], "type": "Point"}, "id": "lRNsCrpUzA2IsCAU6D-HWGQ1S9g=", "properties": {"@spider": "usps_collection_boxes", "addr:city": "BENTLEYVILLE", "addr:country": "US", "addr:full": "901 MAIN ST", "addr:postcode": "15314", "addr:state": "PA", "brand": "USPS", "collection_times": "Mo-Fr 16:30; Sa 12:00", "name": "USPS COLLECTION BOX - PO LOBBY", "note": "ON 12/24 AND 12/31, THIS BOX MAY BE COLLECTED AS EARLY AS 12 NOON.", "ref": "1531400011"}, "type": "Feature"}
{"geometry": {"coordinates": [-79.985199, 39.7616], "type": "Point"}, "id": "eVTgKf0l9XHHLKy-vcty0iMT2tk=", "properties": {"@spider": "usps_collection_boxes", "addr:city": "BOBTOWN", "addr:country": "US", "addr:full": "778 LARIMER AVE", "addr:postcode": "15315", "addr:state": "PA", "brand": "USPS", "collection_times": "Mo-Fr 16:00; Sa 11:45", "name": "USPS COLLECTION BOX - BLUE BOX", "note": "ON 12/24 AND 12/31, THIS BOX MAY BE COLLECTED AS EARLY AS 12 NOON.", "ref": "1531500001"}, "type": "Feature"}
{"geometry": {"coordinates": [-79.985253, 39.761558], "type": "Point"}, "id": "cXNgWIfsxmmD0ZUGHS5Kv6gQHqs=", "properties": {"@spider": "usps_collection_boxes", "addr:city": "BOBTOWN", "addr:country": "US", "addr:full": "778 LARIMER AVE", "addr:postcode": "15315", "addr:state": "PA", "brand": "USPS", "collection_times": "Mo-Fr 16:00; Sa 11:45", "name": "USPS COLLECTION BOX - PO LOBBY", "note": "ON 12/24 AND 12/31, THIS BOX MAY BE COLLECTED AS EARLY AS 12 NOON.", "ref": "1531500002"}, "type": "Feature"}
{"geometry": {"coordinates": [-79.980481337, 39.759482921], "type": "Point"}, "id": "Hd0MAPpkEbWZZJwVS3KKvMLbwr4=", "properties": {"@spider": "usps_collection_boxes", "addr:city": "BOBTOWN", "addr:country": "US", "addr:full": "778 LARIMER AVE", "addr:postcode": "15315", "addr:state": "PA", "brand": "USPS", "collection_times": "Mo-Fr 16:30; Sa 11:30", "name": "USPS COLLECTION BOX - PO LOBBY", "note": "ON 12/24 AND 12/31, THIS BOX MAY BE COLLECTED AS EARLY AS 12 NOON.", "ref": "1531500004"}, "type": "Feature"}
{"geometry": {"coordinates": [-80.261119, 39.726418], "type": "Point"}, "id": "BRQyg3MsRcmN01OX3BuagziBWcg=", "properties": {"@spider": "usps_collection_boxes", "addr:city": "BRAVE", "addr:country": "US", "addr:full": "120 OAK FOREST RD", "addr:postcode": "15316", "addr:state": "PA", "brand": "USPS", "collection_times": "Mo-Fr 09:50; Sa 11:45", "name": "USPS COLLECTION BOX - BLUE BOX", "ref": "1531600001"}, "type": "Feature"}
{"geometry": {"coordinates": [-80.260141, 39.725864], "type": "Point"}, "id": "MehgX04Y6lu-SVVnurTkm5A4UyA=", "properties": {"@spider": "usps_collection_boxes", "addr:city": "BRAVE", "addr:country": "US", "addr:full": "120 OAK FOREST RD", "addr:postcode": "15316", "addr:state": "PA", "brand": "USPS", "collection_times": "Mo-Fr 09:50; Sa 11:45", "name": "USPS COLLECTION BOX - PO LOBBY", "ref": "1531600002"}, "type": "Feature"}
{"geometry": {"coordinates": [-80.260731593, 39.726091622], "type": "Point"}, "id": "qifY4-LZId0hbwskHcOEV59lgio=", "properties": {"@spider": "usps_collection_boxes", "addr:city": "BRAVE", "addr:country": "US", "addr:full": "120 OAK FOREST RD", "addr:postcode": "15316", "addr:state": "PA", "brand": "USPS", "collection_times": "Mo-Fr 09:50; Sa 11:20", "name": "USPS COLLECTION BOX - PO LOBBY", "ref": "1531600004"}, "type": "Feature"}
{"geometry": {"coordinates": [-80.189434, 40.258367], "type": "Point"}, "id": "s0XG395QKa0_MWGIdKLNJBPwAOQ=", "properties": {"@spider": "usps_collection_boxes", "addr:city": "CANONSBURG", "addr:country": "US", "addr:full": "120 W PIKE ST", "addr:postcode": "15317", "addr:state": "PA", "brand": "USPS", "collection_times": "Mo-Fr 17:00; Sa 14:30", "name": "USPS COLLECTION BOX - BLUE BOX", "note": "ON 12/24 AND 12/31, THIS BOX MAY BE COLLECTED AS EARLY AS 12 NOON.", "ref": "1531700001"}, "type": "Feature"}
{"geometry": {"coordinates": [-80.1863896, 40.258225], "type": "Point"}, "id": "QvL5EqnHrJ6T-cOyu0anAGjmoXg=", "properties": {"@spider": "usps_collection_boxes", "addr:city": "CANONSBURG", "addr:country": "US", "addr:full": "15 N CENTRAL AVE", "addr:postcode": "15317", "addr:state": "PA", "brand": "USPS", "collection_times": "Mo-Sa 13:00", "name": "USPS COLLECTION BOX - BLUE BOX", "note": "ON 12/24 AND 12/31, THIS BOX MAY BE COLLECTED AS EARLY AS 12 NOON.", "ref": "1531700003"}, "type": "Feature"}
{"geometry": {"coordinates": [-80.1846777, 40.259415], "type": "Point"}, "id": "UlUR-YNc7m0_qunw370S3KAXk1k=", "properties": {"@spider": "usps_collection_boxes", "addr:city": "CANONSBURG", "addr:country": "US", "addr:full": "69 E PIKE ST", "addr:postcode": "15317", "addr:state": "PA", "brand": "USPS", "collection_times": "Mo-Fr 15:00; Sa 13:00", "name": "USPS COLLECTION BOX - BLUE BOX", "note": "ON 12/24 AND 12/31, THIS BOX MAY BE COLLECTED AS EARLY AS 12 NOON.", "ref": "1531700005"}, "type": "Feature"}
{"geometry": {"coordinates": [-80.1855754, 40.256142], "type": "Point"}, "id": "q2FMkfBUaUXWfo7p5MR1LY9Bh7o=", "properties": {"@spider": "usps_collection_boxes", "addr:city": "CANONSBURG", "addr:country": "US", "addr:full": "101 MEADOW LN", "addr:postcode": "15317", "addr:state": "PA", "brand": "USPS", "collection_times": "Mo-Sa 13:00", "name": "USPS COLLECTION BOX - BLUE BOX", "note": "ON 12/24 AND 12/31, THIS BOX MAY BE COLLECTED AS EARLY AS 12 NOON.", "ref": "1531700007"}, "type": "Feature"}
{"geometry": {"coordinates": [-80.1741249, 40.267893], "type": "Point"}, "id": "xAa0wUbU5hE_NHsPE-rKHYycihc=", "properties": {"@spider": "usps_collection_boxes", "addr:city": "CANONSBURG", "addr:country": "US", "addr:full": "537 DUQUESNE AVE", "addr:postcode": "15317", "addr:state": "PA", "brand": "USPS", "collection_times": "Mo-Sa 11:00", "name": "USPS COLLECTION BOX - BLUE BOX", "ref": "1531700020"}, "type": "Feature"}
{"geometry": {"coordinates": [-80.1668099, 40.275271], "type": "Point"}, "id": "V9DIanp4JeTExeAENaGEQy_qqK4=", "properties": {"@spider": "usps_collection_boxes", "addr:city": "CANONSBURG", "addr:country": "US", "addr:full": "1900 MAIN ST", "addr:postcode": "15317", "addr:state": "PA", "brand": "USPS", "collection_times": "Mo-Fr 13:15; Sa 13:00", "name": "USPS COLLECTION BOX - BLUE BOX", "note": "ON 12/24 AND 12/31, THIS BOX MAY BE COLLECTED AS EARLY AS 12 NOON.", "ref": "1531700022"}, "type": "Feature"}
{"geometry": {"coordinates": [-80.1760971, 40.260974], "type": "Point"}, "id": "vOGEDKxRq_lCVf_hNo4tmt-d-7U=", "properties": {"@spider": "usps_collection_boxes", "addr:city": "CANONSBURG", "addr:country": "US", "addr:full": "1000 PHILADELPHIA ST", "addr:postcode": "15317", "addr:state": "PA", "brand": "USPS", "collection_times": "Mo-Sa 13:00", "name": "USPS COLLECTION BOX - BLUE BOX", "note": "ON 12/24 AND 12/31, THIS BOX MAY BE COLLECTED AS EARLY AS 12 NOON.", "ref": "1531700024"}, "type": "Feature"}
{"geometry": {"coordinates": [-80.1819049, 40.259763], "type": "Point"}, "id": "ctrnQiTJCYerCJ_Jk4vxnFy9Mh0=", "properties": {"@spider": "usps_collection_boxes", "addr:city": "CANONSBURG", "addr:country": "US", "addr:full": "163 E PIKE ST", "addr:postcode": "15317", "addr:state": "PA", "brand": "USPS", "collection_times": "Mo-Fr 15:00; Sa 13:00", "name": "USPS COLLECTION BOX - BLUE BOX", "note": "ON 12/24 AND 12/31, THIS BOX MAY BE COLLECTED AS EARLY AS 12 NOON.", "ref": "1531700027"}, "type": "Feature"}
{"geometry": {"coordinates": [-80.1907411, 40.245722], "type": "Point"}, "id": "TMqaUBi3OUOt7I_dmeZPNKIy-94=", "properties": {"@spider": "usps_collection_boxes", "addr:city": "CANONSBURG", "addr:country": "US", "addr:full": "100 MEDICAL BLVD", "addr:postcode": "15317", "addr:state": "PA", "brand": "USPS", "collection_times": "Mo-Fr 11:00", "name": "USPS COLLECTION BOX - BLUE BOX", "ref": "1531700032"}, "type": "Feature"}
{"geometry": {"coordinates": [-80.1357013, 40.262545], "type": "Point"}, "id": "CgIM9TB8VDKJE7lsAM6lVkL6Yvk=", "properties": {"@spider": "usps_collection_boxes", "addr:city": "CANONSBURG", "addr:country": "US", "addr:full": "1061 WATERDAM PLAZA DR", "addr:postcode": "15317", "addr:state": "PA", "brand": "USPS", "collection_times": "Mo-Fr 15:30; Sa 13:00", "name": "USPS COLLECTION BOX - BLUE BOX", "note": "ON 12/24 AND 12/31, THIS BOX MAY BE COLLECTED AS EARLY AS 12 NOON.", "ref": "1531700036"}, "type": "Feature"}
{"geometry": {"coordinates": [-80.1351958, 40.263681], "type": "Point"}, "id": "g0A4_mJ1Z_O3fuc_zKg_qhDgxuw=", "properties": {"@spider": "usps_collection_boxes", "addr:city": "CANONSBURG", "addr:country": "US", "addr:full": "2001 WATERDAM PLAZA DR", "addr:postcode": "15317", "addr:state": "PA", "brand": "USPS", "collection_times": "Mo-Fr 15:30; Sa 13:00", "name": "USPS COLLECTION BOX - BLUE BOX", "note": "ON 12/24 AND 12/31, THIS BOX MAY BE COLLECTED AS EARLY AS 12 NOON.", "ref": "1531700037"}, "type": "Feature"}
{"geometry": {"coordinates": [-80.127913, 40.271175], "type": "Point"}, "id": "WIe7bk-bXQVYxKUwY1eYmNUd7T0=", "properties": {"@spider": "usps_collection_boxes", "addr:city": "CANONSBURG", "addr:country": "US", "addr:full": "3935 WASHINGTON RD", "addr:postcode": "15317", "addr:state": "PA", "brand": "USPS", "collection_times": "Mo-Fr 17:00; Sa 13:30", "name": "USPS COLLECTION BOX - BLUE BOX", "note": "ON 12/24 AND 12/31, THIS BOX MAY BE COLLECTED AS EARLY AS 12 NOON.", "ref": "1531700040"}, "type": "Feature"}
{"geometry": {"coordinates": [-80.1195759, 40.284786], "type": "Point"}, "id": "sQtchsGQpUMUv3i_yylbakIHnwA=", "properties": {"@spider": "usps_collection_boxes", "addr:city": "CANONSBURG", "addr:country": "US", "addr:full": "3515 WASHINGTON RD", "addr:postcode": "15317", "addr:state": "PA", "brand": "USPS", "collection_times": "Mo-Sa 11:00", "name": "USPS COLLECTION BOX - BLUE BOX", "ref": "1531700042"}, "type": "Feature"}
{"geometry": {"coordinates": [-80.1292292, 40.267253], "type": "Point"}, "id": "5pGM5UjDYBDQ55RYOZzgPbLAsRM=", "properties": {"@spider": "usps_collection_boxes", "addr:city": "CANONSBURG", "addr:country": "US", "addr:full": "4050 WASHINGTON RD", "addr:postcode": "15317", "addr:state": "PA", "brand": "USPS", "collection_times": "Mo-Fr 15:30; Sa 13:00", "name": "USPS COLLECTION BOX - BLUE BOX", "note": "ON 12/24 AND 12/31, THIS BOX MAY BE COLLECTED AS EARLY AS 12 NOON.", "ref": "1531700043"}, "type": "Feature"}
{"geometry": {"coordinates": [-80.1312408, 40.264093], "type": "Point"}, "id": "98wIy5pO2zUZ28RQNKnX7d3V9Cs=", "properties": {"@spider": "usps_collection_boxes", "addr:city": "CANONSBURG", "addr:country": "US", "addr:full": "4150 WASHINGTON RD", "addr:postcode": "15317", "addr:state": "PA", "brand": "USPS", "collection_times": "Mo-Fr 15:30; Sa 13:00", "name": "USPS COLLECTION BOX - BLUE BOX", "note": "ON 12/24 AND 12/31, THIS BOX MAY BE COLLECTED AS EARLY AS 12 NOON.", "ref": "1531700044"}, "type": "Feature"}
{"geometry": {"coordinates": [-80.1320739, 40.261968], "type": "Point"}, "id": "c7232j2_FGbFtTvAD-aDVTpV70c=", "properties": {"@spider": "usps_collection_boxes", "addr:city": "CANONSBURG", "addr:country": "US", "addr:full": "157 WATERDAM RD", "addr:postcode": "15317", "addr:state": "PA", "brand": "USPS", "collection_times": "Mo-Fr 15:30; Sa 13:00", "name": "USPS COLLECTION BOX - BLUE BOX", "note": "ON 12/24 AND 12/31, THIS BOX MAY BE COLLECTED AS EARLY AS 12 NOON.", "ref": "1531700045"}, "type": "Feature"}
{"geometry": {"coordinates": [-80.0843745, 40.28], "type": "Point"}, "id": "-JXLdoHHJqWGJ9lDrlD1G_lABKg=", "properties": {"@spider": "usps_collection_boxes", "addr:city": "CANONSBURG", "addr:country": "US", "addr:full": "601 E MCMURRAY RD", "addr:postcode": "15317", "addr:state": "PA", "brand": "USPS", "collection_times": "Mo-Sa 11:00", "name": "USPS COLLECTION BOX - BLUE BOX", "ref": "1531700046"}, "type": "Feature"}
{"geometry": {"coordinates": [-80.081439, 40.279855], "type": "Point"}, "id": "sckDj54tEXdo1pW2U8JbzJf4cxA=", "properties": {"@spider": "usps_collection_boxes", "addr:city": "CANONSBURG", "addr:country": "US", "addr:full": "610 E MCMURRAY RD REAR", "addr:postcode": "15317", "addr:state": "PA", "brand": "USPS", "collection_times": "Mo-Sa 11:00", "name": "USPS COLLECTION BOX - BLUE BOX", "ref": "1531700047"}, "type": "Feature"}
{"geometry": {"coordinates": [-80.1020399, 40.293436], "type": "Point"}, "id": "VBH5g_N1rXjmObVzVQz_yqFZBtk=", "properties": {"@spider": "usps_collection_boxes", "addr:city": "CANONSBURG", "addr:country": "US", "addr:full": "3025 WASHINGTON RD", "addr:postcode": "15317", "addr:state": "PA", "brand": "USPS", "collection_times": "Mo-Sa 11:00", "name": "USPS COLLECTION BOX - BLUE BOX", "ref": "1531700048"}, "type": "Feature"}
{"geometry": {"coordinates": [-80.1128006, 40.290602], "type": "Point"}, "id": "Rw-0Qx0e5rxxZU_--LZ1A9vD-wU=", "properties": {"@spider": "usps_collection_boxes", "addr:city": "CANONSBURG", "addr:country": "US", "addr:full": "130 GALLERY DR", "addr:postcode": "15317", "addr:state": "PA", "brand": "USPS", "collection_times": "Mo-Fr 15:00; Sa 12:45", "name": "USPS COLLECTION BOX - BLUE BOX", "note": "ON 12/24 AND 12/31, THIS BOX MAY BE COLLECTED AS EARLY AS 12 NOON.", "ref": "1531700049"}, "type": "Feature"}
{"geometry": {"coordinates": [-80.1880469, 40.257588], "type": "Point"}, "id": "NNszOf3FZ8bqrgUBzrwuFN7hUPU=", "properties": {"@spider": "usps_collection_boxes", "addr:city": "CANONSBURG", "addr:country": "US", "addr:full": "12 N JEFFERSON AVE", "addr:postcode": "15317", "addr:state": "PA", "brand": "USPS", "collection_times": "Mo-Fr 15:00; Sa 13:00", "name": "USPS COLLECTION BOX - BLUE BOX", "note": "ON 12/24 AND 12/31, THIS BOX MAY BE COLLECTED AS EARLY AS 12 NOON.", "ref": "1531700050"}, "type": "Feature"}
{"geometry": {"coordinates": [-80.1732127, 40.255443], "type": "Point"}, "id": "35p77i-q8RHrqGLDRioDaj6V9n0=", "properties": {"@spider": "usps_collection_boxes", "addr:city": "CANONSBURG", "addr:country": "US", "addr:full": "102 GREENWOOD DR", "addr:postcode": "15317", "addr:state": "PA", "brand": "USPS", "collection_times": "Mo-Sa 13:00", "name": "USPS COLLECTION BOX - BLUE BOX", "note": "ON 12/24 AND 12/31, THIS BOX MAY BE COLLECTED AS EARLY AS 12 NOON.", "ref": "1531700051"}, "type": "Feature"}
{"geometry": {"coordinates": [-80.1282542, 40.265981], "type": "Point"}, "id": "AvbMBZzZVaxO4AZjAZRmfZm80mI=", "properties": {"@spider": "usps_collection_boxes", "addr:city": "CANONSBURG", "addr:country": "US", "addr:full": "4055 WASHINGTON RD", "addr:postcode": "15317", "addr:state": "PA", "brand": "USPS", "collection_times": "Mo-Fr 15:30; Sa 13:15", "name": "USPS COLLECTION BOX - BLUE BOX", "note": "ON 12/24 AND 12/31, THIS BOX MAY BE COLLECTED AS EARLY AS 12 NOON.", "ref": "1531700053"}, "type": "Feature"}
{"geometry": {"coordinates": [-80.189434, 40.258367], "type": "Point"}, "id": "RLgqylOIAgoB9DcNVsR3xUBAhyc=", "properties": {"@spider": "usps_collection_boxes", "addr:city": "CANONSBURG", "addr:country": "US", "addr:full": "120 W PIKE ST", "addr:postcode": "15317", "addr:state": "PA", "brand": "USPS", "collection_times": "Mo-Fr 17:00; Sa 14:30", "name": "USPS COLLECTION BOX - BLUE BOX", "note": "ON 12/24 AND 12/31, THIS BOX MAY BE COLLECTED AS EARLY AS 12 NOON.", "ref": "1531700058"}, "type": "Feature"}
{"geometry": {"coordinates": [-80.0974466, 40.303544], "type": "Point"}, "id": "NToLeL0PyKVOVRcCx5G1EM8xW-8=", "properties": {"@spider": "usps_collection_boxes", "addr:city": "CANONSBURG", "addr:country": "US", "addr:full": "2840 WASHINGTON RD", "addr:postcode": "15317", "addr:state": "PA", "brand": "USPS", "collection_times": "Mo-Fr 14:30; Sa 13:00", "name": "USPS COLLECTION BOX - BLUE BOX", "note": "ON 12/24 AND 12/31, THIS BOX MAY BE COLLECTED AS EARLY AS 12 NOON.", "ref": "1531700059"}, "type": "Feature"}
{"geometry": {"coordinates": [-80.1728987, 40.28694], "type": "Point"}, "id": "Y5xqc3_LGqM8yz6NIbQnCQhnxs8=", "properties": {"@spider": "usps_collection_boxes", "addr:city": "CANONSBURG", "addr:country": "US", "addr:full": "325 SOUTHPOINTE BLVD", "addr:postcode": "15317", "addr:state": "PA", "brand": "USPS", "collection_times": "Mo-Sa 10:00", "name": "USPS COLLECTION BOX - BLUE BOX", "ref": "1531700060"}, "type": "Feature"}
{"geometry": {"coordinates": [-80.1733709, 40.295275], "type": "Point"}, "id": "kt0jAulQfYQ5AraxHDYB4aKg3E0=", "properties": {"@spider": "usps_collection_boxes", "addr:city": "CANONSBURG", "addr:country": "US", "addr:full": "400 SOUTHPOINTE BLVD", "addr:postcode": "15317", "addr:state": "PA", "brand": "USPS", "collection_times": "Mo-Fr 16:30; Sa 11:00", "name": "USPS COLLECTION BOX - BLUE BOX", "note": "ON 12/24 AND 12/31, THIS BOX MAY BE COLLECTED AS EARLY AS 12 NOON.", "ref": "1531700061"}, "type": "Feature"}
{"geometry": {"coordinates": [-80.2044703, 40.256137], "type": "Point"}, "id": "1YG_WcOjPORIy1BA4vnIl-e_uPw=", "properties": {"@spider": "usps_collection_boxes", "addr:city": "CANONSBURG", "addr:country": "US", "addr:full": "617 W PIKE ST", "addr:postcode": "15317", "addr:state": "PA", "brand": "USPS", "collection_times": "Mo-Sa 11:00", "name": "USPS COLLECTION BOX - BLUE BOX", "ref": "1531700064"}, "type": "Feature"}
{"geometry": {"coordinates": [-80.1818006, 40.242902], "type": "Point"}, "id": "Nj1mhkbSrJVNhPyyc510o1d0mGw=", "properties": {"@spider": "usps_collection_boxes", "addr:city": "CANONSBURG", "addr:country": "US", "addr:full": "950 S CENTRAL AVE", "addr:postcode": "15317", "addr:state": "PA", "brand": "USPS", "collection_times": "Mo-Sa 11:00", "name": "USPS COLLECTION BOX - BLUE BOX", "ref": "1531700065"}, "type": "Feature"}
{"geometry": {"coordinates": [-80.1728963, 40.286936], "type": "Point"}, "id": "KznUhi_HbhBT0i_XAOrwP6n_xks=", "properties": {"@spider": "usps_collection_boxes", "addr:city": "CANONSBURG", "addr:country": "US", "addr:full": "325 SOUTHPOINTE BLVD", "addr:postcode": "15317", "addr:state": "PA", "brand": "USPS", "collection_times": "Mo-Sa 10:00", "name": "USPS COLLECTION BOX - BLUE BOX", "ref": "1531700069"}, "type": "Feature"}
{"geometry": {"coordinates": [-80.127913, 40.271175], "type": "Point"}, "id": "uoWn_KbW7TU6L7LsdZLAPir4Q_U=", "properties": {"@spider": "usps_collection_boxes", "addr:city": "CANONSBURG", "addr:country": "US", "addr:full": "3935 WASHINGTON RD LBBY", "addr:postcode": "15317", "addr:state": "PA", "brand": "USPS", "collection_times": "Mo-Fr 17:00; Sa 14:15", "name": "USPS COLLECTION BOX - PO LOBBY", "note": "ON 12/24 AND 12/31, THIS BOX MAY BE COLLECTED AS EARLY AS 12 NOON.", "ref": "1531700071"}, "type": "Feature"}
{"geometry": {"coordinates": [-80.127913, 40.271175], "type": "Point"}, "id": "VL7HeA8F4HFZ0mciIcRmXdMMOb0=", "properties": {"@spider": "usps_collection_boxes", "addr:city": "CANONSBURG", "addr:country": "US", "addr:full": "3935 WASHINGTON RD LBBY", "addr:postcode": "15317", "addr:state": "PA", "brand": "USPS", "collection_times": "Mo-Fr 17:00; Sa 14:15", "name": "USPS COLLECTION BOX - PO LOBBY", "note": "ON 12/24 AND 12/31, THIS BOX MAY BE COLLECTED AS EARLY AS 12 NOON.", "ref": "1531700072"}, "type": "Feature"}
{"geometry": {"coordinates": [-80.189434, 40.258367], "type": "Point"}, "id": "SosekNqVbNB968yRC1gtqSaLi1o=", "properties": {"@spider": "usps_collection_boxes", "addr:city": "CANONSBURG", "addr:country": "US", "addr:full": "120 W PIKE ST LBBY", "addr:postcode": "15317", "addr:state": "PA", "brand": "USPS", "collection_times": "Mo-Fr 17:00; Sa 14:30", "name": "USPS COLLECTION BOX - PO LOBBY", "note": "ON 12/24 AND 12/31, THIS BOX MAY BE COLLECTED AS EARLY AS 12 NOON.", "ref": "1531700073"}, "type": "Feature"}
{"geometry": {"coordinates": [-80.1760871, 40.260962], "type": "Point"}, "id": "khz5QdNh-5PUBXp3VsYs2BEy4b0=", "properties": {"@spider": "usps_collection_boxes", "addr:city": "CANONSBURG", "addr:country": "US", "addr:full": "1000 PHILADELPHIA ST", "addr:postcode": "15317", "addr:state": "PA", "brand": "USPS", "collection_times": "Mo-Sa 13:00", "name": "USPS COLLECTION BOX - BLUE BOX", "note": "ON 12/24 AND 12/31, THIS BOX MAY BE COLLECTED AS EARLY AS 12 NOON.", "ref": "1531700074"}, "type": "Feature"}
{"geometry": {"coordinates": [-80.1728973, 40.286916], "type": "Point"}, "id": "zWdxgmyZxaPbStsBHv9ChtTNT7I=", "properties": {"@spider": "usps_collection_boxes", "addr:city": "CANONSBURG", "addr:country": "US", "addr:full": "325 SOUTHPOINTE BLVD", "addr:postcode": "15317", "addr:state": "PA", "brand": "USPS", "collection_times": "Mo-Sa 10:00", "name": "USPS COLLECTION BOX - BLUE BOX", "ref": "1531700078"}, "type": "Feature"}
{"geometry": {"coordinates": [-80.127913, 40.271175], "type": "Point"}, "id": "aPPBCYedr-BcKq-x6lCMa36YUxs=", "properties": {"@spider": "usps_collection_boxes", "addr:city": "CANONSBURG", "addr:country": "US", "addr:full": "3935 WASHINGTON RD", "addr:postcode": "15317", "addr:state": "PA", "brand": "USPS", "collection_times": "Mo-Fr 17:00; Sa 14:15", "name": "USPS COLLECTION BOX - APC", "note": "ON 12/24 AND 12/31, THIS BOX MAY BE COLLECTED AS EARLY AS 12 NOON.", "ref": "1531700080"}, "type": "Feature"}
{"geometry": {"coordinates": [-80.1757521, 40.301065], "type": "Point"}, "id": "jtKDLteuG0MQTd1lqTqTNCSwApk=", "properties": {"@spider": "usps_collection_boxes", "addr:city": "CANONSBURG", "addr:country": "US", "addr:full": "2000 CORPORATE DR", "addr:postcode": "15317", "addr:state": "PA", "brand": "USPS", "collection_times": "Mo-Fr 16:30; Sa 11:00", "name": "USPS COLLECTION BOX - BLUE BOX", "note": "ON 12/24 AND 12/31, THIS BOX MAY BE COLLECTED AS EARLY AS 12 NOON.", "ref": "1531700084"}, "type": "Feature"}
{"geometry": {"coordinates": [-80.189432926, 40.258363388], "type": "Point"}, "id": "7JmXo79bvjcwhIGFAr9wXw4UA9Y=", "properties": {"@spider": "usps_collection_boxes", "addr:city": "CANONSBURG", "addr:country": "US", "addr:full": "120 W PIKE ST", "addr:postcode": "15317", "addr:state": "PA", "brand": "USPS", "collection_times": "Mo-Fr 17:00; Sa 14:00", "name": "USPS COLLECTION BOX - PO LOBBY", "note": "ON 12/24 AND 12/31, THIS BOX MAY BE COLLECTED AS EARLY AS 12 NOON.", "ref": "1531700087"}, "type": "Feature"}
{"geometry": {"coordinates": [-80.127897797, 40.271156259], "type": "Point"}, "id": "2rn8a_aZq90rZxohsv0Rk8vEhBs=", "properties": {"@spider": "usps_collection_boxes", "addr:city": "CANONSBURG", "addr:country": "US", "addr:full": "3935 WASHINGTON RD", "addr:postcode": "15317", "addr:state": "PA", "brand": "USPS", "collection_times": "Mo-Fr 18:00; Sa 14:00", "name": "USPS COLLECTION BOX - PO LOBBY", "note": "ON 12/24 AND 12/31, THIS BOX MAY BE COLLECTED AS EARLY AS 12 NOON.", "ref": "1531700088"}, "type": "Feature"}
{"geometry": {"coordinates": [-79.975272, 39.897029], "type": "Point"}, "id": "cTB-E7_RBrZe784JSeHhTsKBxVI=", "properties": {"@spider": "usps_collection_boxes", "addr:city": "CARMICHAELS", "addr:country": "US", "addr:full": "111 N MARKET ST", "addr:postcode": "15320", "addr:state": "PA", "brand": "USPS", "collection_times": "Mo-Fr 16:00; Sa 15:30", "name": "USPS COLLECTION BOX - BLUE BOX", "note": "ON 12/24 AND 12/31, THIS BOX MAY BE COLLECTED AS EARLY AS 12 NOON.", "ref": "1532000009"}, "type": "Feature"}
{"geometry": {"coordinates": [-79.975272, 39.897029], "type": "Point"}, "id": "1O0lLCOi-wTO4-dJTgb7d7m8QDg=", "properties": {"@spider": "usps_collection_boxes", "addr:city": "CARMICHAELS", "addr:country": "US", "addr:full": "111 N MARKET ST LBBY", "addr:postcode": "15320", "addr:state": "PA", "brand": "USPS", "collection_times": "Mo-Fr 16:45; Sa 15:30", "name": "USPS COLLECTION BOX - PO LOBBY", "note": "ON 12/24 AND 12/31, THIS BOX MAY BE COLLECTED AS EARLY AS 12 NOON.", "ref": "1532000012"}, "type": "Feature"}
{"geometry": {"coordinates": [-79.975271266, 39.896968894], "type": "Point"}, "id": "UOICEX5dk0mW0OyIkplpdpVb2R4=", "properties": {"@spider": "usps_collection_boxes", "addr:city": "CARMICHAELS", "addr:country": "US", "addr:full": "111 N MARKET ST", "addr:postcode": "15320", "addr:state": "PA", "brand": "USPS", "collection_times": "Mo-Fr 17:00; Sa 12:00", "name": "USPS COLLECTION BOX - PO LOBBY", "note": "ON 12/24 AND 12/31, THIS BOX MAY BE COLLECTED AS EARLY AS 12 NOON.", "ref": "1532000016"}, "type": "Feature"}
{"geometry": {"coordinates": [-80.197818, 40.323332], "type": "Point"}, "id": "_BPgLqLx5lGKwQGN5-9JrSzYfQ4=", "properties": {"@spider": "usps_collection_boxes", "addr:city": "CECIL", "addr:country": "US", "addr:full": "3333 MILLERS RUN RD", "addr:postcode": "15321", "addr:state": "PA", "brand": "USPS", "collection_times": "Mo-Fr 16:00; Sa 12:00", "name": "USPS COLLECTION BOX - BLUE BOX", "note": "ON 12/24 AND 12/31, THIS BOX MAY BE COLLECTED AS EARLY AS 12 NOON.", "ref": "1532100001"}, "type": "Feature"}
{"geometry": {"coordinates": [-80.197793, 40.323384], "type": "Point"}, "id": "VYBIOwbOtycgpMXNGCURcr-CEI8=", "properties": {"@spider": "usps_collection_boxes", "addr:city": "CECIL", "addr:country": "US", "addr:full": "3333 MILLERS RUN RD", "addr:postcode": "15321", "addr:state": "PA", "brand": "USPS", "collection_times": "Mo-Fr 16:00; Sa 12:00", "name": "USPS COLLECTION BOX - BLUE BOX", "note": "ON 12/24 AND 12/31, THIS BOX MAY BE COLLECTED AS EARLY AS 12 NOON.", "ref": "1532100002"}, "type": "Feature"}
{"geometry": {"coordinates": [-80.197793, 40.323384], "type": "Point"}, "id": "62YveHBp2T_BWClQZn568QnooRA=", "properties": {"@spider": "usps_collection_boxes", "addr:city": "CECIL", "addr:country": "US", "addr:full": "3333 MILLERS RUN RD", "addr:postcode": "15321", "addr:state": "PA", "brand": "USPS", "collection_times": "Mo-Fr 16:00; Sa 12:00", "name": "USPS COLLECTION BOX - PO LOBBY", "note": "ON 12/24 AND 12/31, THIS BOX MAY BE COLLECTED AS EARLY AS 12 NOON.", "ref": "1532100003"}, "type": "Feature"}
{"geometry": {"coordinates": [-80.2173386, 40.318925], "type": "Point"}, "id": "RpMVUlVNn0SMEQAOHDEaOEzZwP8=", "properties": {"@spider": "usps_collection_boxes", "addr:city": "CECIL", "addr:country": "US", "addr:full": "3599 MILLERS RUN RD", "addr:postcode": "15321", "addr:state": "PA", "brand": "USPS", "collection_times": "Mo-Sa 10:00", "name": "USPS COLLECTION BOX - BLUE BOX", "ref": "1532100004"}, "type": "Feature"}
{"geometry": {"coordinates": [-80.197915187, 40.323263492], "type": "Point"}, "id": "wJIeTGEfY4tKHyZC_7381g6l_mA=", "properties": {"@spider": "usps_collection_boxes", "addr:city": "CECIL", "addr:country": "US", "addr:full": "3333 MILLERS RUN RD", "addr:postcode": "15321", "addr:state": "PA", "brand": "USPS", "collection_times": "Mo-Fr 16:30; Sa 12:00", "name": "USPS COLLECTION BOX - PO LOBBY", "note": "ON 12/24 AND 12/31, THIS BOX MAY BE COLLECTED AS EARLY AS 12 NOON.", "ref": "1532100006"}, "type": "Feature"}
{"geometry": {"coordinates": [-80.045075, 39.973552], "type": "Point"}, "id": "3B5cnkZ8JKZks_rY3srZ4pVhvU4=", "properties": {"@spider": "usps_collection_boxes", "addr:city": "CLARKSVILLE", "addr:country": "US", "addr:full": "541 CENTER ST", "addr:postcode": "15322", "addr:state": "PA", "brand": "USPS", "collection_times": "Mo-Fr 16:30; Sa 12:15", "name": "USPS COLLECTION BOX - BLUE BOX", "note": "ON 12/24 AND 12/31, THIS BOX MAY BE COLLECTED AS EARLY AS 12 NOON.", "ref": "1532200001"}, "type": "Feature"}
{"geometry": {"coordinates": [-80.045078, 39.973584], "type": "Point"}, "id": "P8UBYxli0vdWbvoHEz-OW0L8OS0=", "properties": {"@spider": "usps_collection_boxes", "addr:city": "CLARKSVILLE", "addr:country": "US", "addr:full": "541 CENTER ST", "addr:postcode": "15322", "addr:state": "PA", "brand": "USPS", "collection_times": "Mo-Fr 16:45; Sa 12:15", "name": "USPS COLLECTION BOX - PO LOBBY", "note": "ON 12/24 AND 12/31, THIS BOX MAY BE COLLECTED AS EARLY AS 12 NOON.", "ref": "1532200002"}, "type": "Feature"}
{"geometry": {"coordinates": [-80.045010621, 39.973538166], "type": "Point"}, "id": "qlkvETLlLutceaxk3ycB4HZuFZw=", "properties": {"@spider": "usps_collection_boxes", "addr:city": "CLARKSVILLE", "addr:country": "US", "addr:full": "541 CENTER ST", "addr:postcode": "15322", "addr:state": "PA", "brand": "USPS", "collection_times": "Mo-Fr 16:30; Sa 12:00", "name": "USPS COLLECTION BOX - PO LOBBY", "note": "ON 12/24 AND 12/31, THIS BOX MAY BE COLLECTED AS EARLY AS 12 NOON.", "ref": "1532200007"}, "type": "Feature"}
{"geometry": {"coordinates": [-80.413022, 40.116973], "type": "Point"}, "id": "qF99NSP_dBmm2omr6twO81QjjXM=", "properties": {"@spider": "usps_collection_boxes", "addr:city": "CLAYSVILLE", "addr:country": "US", "addr:full": "146 MAIN ST", "addr:postcode": "15323", "addr:state": "PA", "brand": "USPS", "collection_times": "Mo-Fr 16:30; Sa 12:00", "name": "USPS COLLECTION BOX - BLUE BOX", "note": "ON 12/24 AND 12/31, THIS BOX MAY BE COLLECTED AS EARLY AS 12 NOON.", "ref": "1532300001"}, "type": "Feature"}
{"geometry": {"coordinates": [-80.413022, 40.116973], "type": "Point"}, "id": "dgOgPeepdNwwgRKUejuJtutyiRA=", "properties": {"@spider": "usps_collection_boxes", "addr:city": "CLAYSVILLE", "addr:country": "US", "addr:full": "146 MAIN ST LBBY", "addr:postcode": "15323", "addr:state": "PA", "brand": "USPS", "collection_times": "Mo-Fr 16:30; Sa 12:00", "name": "USPS COLLECTION BOX - PO LOBBY", "note": "ON 12/24 AND 12/31, THIS BOX MAY BE COLLECTED AS EARLY AS 12 NOON.", "ref": "1532300002"}, "type": "Feature"}
{"geometry": {"coordinates": [-80.413022, 40.116973], "type": "Point"}, "id": "ps3nmtMe-128vt7arqt8YPwPm_k=", "properties": {"@spider": "usps_collection_boxes", "addr:city": "CLAYSVILLE", "addr:country": "US", "addr:full": "146 MAIN ST LBBY", "addr:postcode": "15323", "addr:state": "PA", "brand": "USPS", "collection_times": "Mo-Fr 16:30; Sa 12:00", "name": "USPS COLLECTION BOX - PO LOBBY", "note": "ON 12/24 AND 12/31, THIS BOX MAY BE COLLECTED AS EARLY AS 12 NOON.", "ref": "1532300003"}, "type": "Feature"}
{"geometry": {"coordinates": [-80.413102468, 40.116942264], "type": "Point"}, "id": "LjH75Wk4o2m986VGUnEkGm4_iZQ=", "properties": {"@spider": "usps_collection_boxes", "addr:city": "CLAYSVILLE", "addr:country": "US", "addr:full": "146 MAIN ST", "addr:postcode": "15323", "addr:state": "PA", "brand": "USPS", "collection_times": "Mo-Fr 16:30; Sa 12:00", "name": "USPS COLLECTION BOX - PO LOBBY", "note": "ON 12/24 AND 12/31, THIS BOX MAY BE COLLECTED AS EARLY AS 12 NOON.", "ref": "1532300005"}, "type": "Feature"}
{"geometry": {"coordinates": [-80.064771, 40.100489], "type": "Point"}, "id": "Lwju9uh9NXv16dIAIHymqx3kQ_4=", "properties": {"@spider": "usps_collection_boxes", "addr:city": "COKEBURG", "addr:country": "US", "addr:full": "0 MADISON ST", "addr:postcode": "15324", "addr:state": "PA", "brand": "USPS", "collection_times": "Mo-Fr 11:55; Sa 11:15", "name": "USPS COLLECTION BOX - BLUE BOX", "ref": "1532400001"}, "type": "Feature"}
{"geometry": {"coordinates": [-80.065817, 40.100061], "type": "Point"}, "id": "oemwSLg6IvXq0-S15pheX6xKQ9w=", "properties": {"@spider": "usps_collection_boxes", "addr:city": "COKEBURG", "addr:country": "US", "addr:full": "0 MADISON ST", "addr:postcode": "15324", "addr:state": "PA", "brand": "USPS", "collection_times": "Mo-Fr 11:55; Sa 11:15", "name": "USPS COLLECTION BOX - PO LOBBY", "ref": "1532400002"}, "type": "Feature"}
{"geometry": {"coordinates": [-80.065817, 40.100061], "type": "Point"}, "id": "XFHqBT3AfhOaONS22rvuA40PsZM=", "properties": {"@spider": "usps_collection_boxes", "addr:city": "COKEBURG", "addr:country": "US", "addr:full": "0 MADISON ST", "addr:postcode": "15324", "addr:state": "PA", "brand": "USPS", "collection_times": "Mo-Fr 11:55; Sa 11:15", "name": "USPS COLLECTION BOX - PO LOBBY", "ref": "1532400003"}, "type": "Feature"}
{"geometry": {"coordinates": [-80.062267508, 40.101812828], "type": "Point"}, "id": "iJAvHMzvzeG7Y6VwbJxkDor3iDI=", "properties": {"@spider": "usps_collection_boxes", "addr:city": "COKEBURG", "addr:country": "US", "addr:full": "0 MADISON ST", "addr:postcode": "15324", "addr:state": "PA", "brand": "USPS", "collection_times": "Mo-Fr 11:55; Sa 10:55", "name": "USPS COLLECTION BOX - PO LOBBY", "ref": "1532400005"}, "type": "Feature"}
{"geometry": {"coordinates": [-79.96242, 39.945849], "type": "Point"}, "id": "l4I7CVApItXgJvBRDxJYTHFkxZI=", "properties": {"@spider": "usps_collection_boxes", "addr:city": "CRUCIBLE", "addr:country": "US", "addr:full": "103B CRUCIBLE CARMICHAELS RD", "addr:postcode": "15325", "addr:state": "PA", "brand": "USPS", "collection_times": "Mo-Fr 12:55; Sa 11:30", "name": "USPS COLLECTION BOX - BLUE BOX", "note": "ON 12/24 AND 12/31, THIS BOX MAY BE COLLECTED AS EARLY AS 12 NOON.", "ref": "1532500001"}, "type": "Feature"}
{"geometry": {"coordinates": [-79.962368, 39.945764], "type": "Point"}, "id": "AhxzC6ZWH7udoBiSdcQ6Fo3ozJo=", "properties": {"@spider": "usps_collection_boxes", "addr:city": "CRUCIBLE", "addr:country": "US", "addr:full": "103B CRUCIBLE CARMICHAELS RD", "addr:postcode": "15325", "addr:state": "PA", "brand": "USPS", "collection_times": "Mo-Fr 12:55; Sa 11:30", "name": "USPS COLLECTION BOX - PO LOBBY", "note": "ON 12/24 AND 12/31, THIS BOX MAY BE COLLECTED AS EARLY AS 12 NOON.", "ref": "1532500002"}, "type": "Feature"}
{"geometry": {"coordinates": [-79.9656649, 39.9492749], "type": "Point"}, "id": "XJNg_KellTBWXbAF9AAtG44syTA=", "properties": {"@spider": "usps_collection_boxes", "addr:city": "CRUCIBLE", "addr:country": "US", "addr:full": "103B CRUCIBLE CARMICHAELS RD", "addr:postcode": "15325", "addr:state": "PA", "brand": "USPS", "collection_times": "Mo-Fr 12:55; Sa 11:25", "name": "USPS COLLECTION BOX - PO LOBBY", "note": "ON 12/24 AND 12/31, THIS BOX MAY BE COLLECTED AS EARLY AS 12 NOON.", "ref": "1532500004"}, "type": "Feature"}
{"geometry": {"coordinates": [-79.923536, 39.751148], "type": "Point"}, "id": "9X45TOP_etr2niuCalAxduTORXs=", "properties": {"@spider": "usps_collection_boxes", "addr:city": "DILLINER", "addr:country": "US", "addr:full": "2854 STATE ROUTE 88", "addr:postcode": "15327", "addr:state": "PA", "brand": "USPS", "collection_times": "Mo-Fr 12:05; Sa 11:45", "name": "USPS COLLECTION BOX - BLUE BOX", "note": "ON 12/24 AND 12/31, THIS BOX MAY BE COLLECTED AS EARLY AS 12 NOON.", "ref": "1532700001"}, "type": "Feature"}
{"geometry": {"coordinates": [-79.922323, 39.750637], "type": "Point"}, "id": "K690fP8Wp37C4BBxBYRGnHgenew=", "properties": {"@spider": "usps_collection_boxes", "addr:city": "DILLINER", "addr:country": "US", "addr:full": "2854 STATE ROUTE 88", "addr:postcode": "15327", "addr:state": "PA", "brand": "USPS", "collection_times": "Mo-Fr 12:05; Sa 11:45", "name": "USPS COLLECTION BOX - PO LOBBY", "note": "ON 12/24 AND 12/31, THIS BOX MAY BE COLLECTED AS EARLY AS 12 NOON.", "ref": "1532700002"}, "type": "Feature"}
{"geometry": {"coordinates": [-79.923540904, 39.751092973], "type": "Point"}, "id": "ny8j8_HDkDFXHzwKJozkjzWYnqk=", "properties": {"@spider": "usps_collection_boxes", "addr:city": "DILLINER", "addr:country": "US", "addr:full": "2854 STATE ROUTE 88", "addr:postcode": "15327", "addr:state": "PA", "brand": "USPS", "collection_times": "Mo-Fr 11:55; Sa 11:40", "name": "USPS COLLECTION BOX - PO LOBBY", "ref": "1532700004"}, "type": "Feature"}
{"geometry": {"coordinates": [-80.292267, 40.046093], "type": "Point"}, "id": "3QKhbz0G6LaGnQa6n4HVZkuJK60=", "properties": {"@spider": "usps_collection_boxes", "addr:city": "PROSPERITY", "addr:country": "US", "addr:full": "4559 PROSPERITY PIKE", "addr:postcode": "15329", "addr:state": "PA", "brand": "USPS", "collection_times": "Mo-Fr 15:45; Sa 11:45", "name": "USPS COLLECTION BOX - BLUE BOX", "note": "ON 12/24 AND 12/31, THIS BOX MAY BE COLLECTED AS EARLY AS 12 NOON.", "ref": "1532900001"}, "type": "Feature"}
{"geometry": {"coordinates": [-80.1742063, 39.958833], "type": "Point"}, "id": "jy1HIFUIhgO1JDD4jxTNYySLcys=", "properties": {"@spider": "usps_collection_boxes", "addr:city": "PROSPERITY", "addr:country": "US", "addr:full": "720 WASHINGTON RD", "addr:postcode": "15329", "addr:state": "PA", "brand": "USPS", "collection_times": "Mo-Sa 10:00", "name": "USPS COLLECTION BOX - BLUE BOX", "ref": "1532900002"}, "type": "Feature"}
{"geometry": {"coordinates": [-80.292267, 40.046093], "type": "Point"}, "id": "Z3JHHgEVEOfzJH1s3L-drRZCi-Y=", "properties": {"@spider": "usps_collection_boxes", "addr:city": "PROSPERITY", "addr:country": "US", "addr:full": "4559 PROSPERITY PIKE LBBY", "addr:postcode": "15329", "addr:state": "PA", "brand": "USPS", "collection_times": "Mo-Fr 15:45; Sa 11:45", "name": "USPS COLLECTION BOX - PO LOBBY", "note": "ON 12/24 AND 12/31, THIS BOX MAY BE COLLECTED AS EARLY AS 12 NOON.", "ref": "1532900003"}, "type": "Feature"}
{"geometry": {"coordinates": [-80.292271997, 40.046092052], "type": "Point"}, "id": "BOmhPngMuUo2da0RfgBj4mlxN-U=", "properties": {"@spider": "usps_collection_boxes", "addr:city": "PROSPERITY", "addr:country": "US", "addr:full": "4559 PROSPERITY PIKE", "addr:postcode": "15329", "addr:state": "PA", "brand": "USPS", "collection_times": "Mo-Fr 16:00; Sa 12:00", "name": "USPS COLLECTION BOX - PO LOBBY", "note": "ON 12/24 AND 12/31, THIS BOX MAY BE COLLECTED AS EARLY AS 12 NOON.", "ref": "1532900005"}, "type": "Feature"}
{"geometry": {"coordinates": [-80.133818, 40.178598], "type": "Point"}, "id": "SEO67DTm8pYWjo69UgWr9B7-njU=", "properties": {"@spider": "usps_collection_boxes", "addr:city": "EIGHTY FOUR", "addr:country": "US", "addr:full": "812 ROUTE 519", "addr:postcode": "15330", "addr:state": "PA", "brand": "USPS", "collection_times": "Mo-Fr 16:45; Sa 12:00", "name": "USPS COLLECTION BOX - BLUE BOX", "note": "ON 12/24 AND 12/31, THIS BOX MAY BE COLLECTED AS EARLY AS 12 NOON.", "ref": "1533000001"}, "type": "Feature"}
{"geometry": {"coordinates": [-80.1307685, 40.154904], "type": "Point"}, "id": "Gz5r_fK1tcRdZEdZaiaayKZyVBQ=", "properties": {"@spider": "usps_collection_boxes", "addr:city": "EIGHTY FOUR", "addr:country": "US", "addr:full": "444 ROUTE 519", "addr:postcode": "15330", "addr:state": "PA", "brand": "USPS", "collection_times": "Mo-Sa 10:00", "name": "USPS COLLECTION BOX - BLUE BOX", "ref": "1533000002"}, "type": "Feature"}
{"geometry": {"coordinates": [-80.13382, 40.178692], "type": "Point"}, "id": "y2NhpBrEN5HcMZMfIv2EWtcvM_A=", "properties": {"@spider": "usps_collection_boxes", "addr:city": "EIGHTY FOUR", "addr:country": "US", "addr:full": "812 ROUTE 519", "addr:postcode": "15330", "addr:state": "PA", "brand": "USPS", "collection_times": "Mo-Fr 16:45; Sa 12:00", "name": "USPS COLLECTION BOX - PO LOBBY", "note": "ON 12/24 AND 12/31, THIS BOX MAY BE COLLECTED AS EARLY AS 12 NOON.", "ref": "1533000003"}, "type": "Feature"}
{"geometry": {"coordinates": [-80.133721588, 40.178785206], "type": "Point"}, "id": "qIojD5q6Pau8E4fc44ceu_2g08g=", "properties": {"@spider": "usps_collection_boxes", "addr:city": "EIGHTY FOUR", "addr:country": "US", "addr:full": "812 ROUTE 519", "addr:postcode": "15330", "addr:state": "PA", "brand": "USPS", "collection_times": "Mo-Fr 16:30; Sa 12:00", "name": "USPS COLLECTION BOX - PO LOBBY", "note": "ON 12/24 AND 12/31, THIS BOX MAY BE COLLECTED AS EARLY AS 12 NOON.", "ref": "1533000005"}, "type": "Feature"}
{"geometry": {"coordinates": [-80.021042, 40.108045], "type": "Point"}, "id": "55k9Fgpi5zOUbP1yJx1tZu30ANs=", "properties": {"@spider": "usps_collection_boxes", "addr:city": "ELLSWORTH", "addr:country": "US", "addr:full": "1002 ALMOND RD", "addr:postcode": "15331", "addr:state": "PA", "brand": "USPS", "collection_times": "Mo-Fr 16:30; Sa 12:00", "name": "USPS COLLECTION BOX - BLUE BOX", "note": "ON 12/24 AND 12/31, THIS BOX MAY BE COLLECTED AS EARLY AS 12 NOON.", "ref": "1533100001"}, "type": "Feature"}
{"geometry": {"coordinates": [-80.021038, 40.107985], "type": "Point"}, "id": "2lJY7Az5QZRzJMnkXudGihWFAzc=", "properties": {"@spider": "usps_collection_boxes", "addr:city": "ELLSWORTH", "addr:country": "US", "addr:full": "1002 ALMOND RD", "addr:postcode": "15331", "addr:state": "PA", "brand": "USPS", "collection_times": "Mo-Fr 16:30; Sa 12:00", "name": "USPS COLLECTION BOX - PO LOBBY", "note": "ON 12/24 AND 12/31, THIS BOX MAY BE COLLECTED AS EARLY AS 12 NOON.", "ref": "1533100002"}, "type": "Feature"}
{"geometry": {"coordinates": [-80.021290441, 40.108311116], "type": "Point"}, "id": "YxPFZUwBs0l9tqdEY8Zod7G_amg=", "properties": {"@spider": "usps_collection_boxes", "addr:city": "ELLSWORTH", "addr:country": "US", "addr:full": "1002 ALMOND RD", "addr:postcode": "15331", "addr:state": "PA", "brand": "USPS", "collection_times": "Mo-Fr 16:30; Sa 12:00", "name": "USPS COLLECTION BOX - PO LOBBY", "note": "ON 12/24 AND 12/31, THIS BOX MAY BE COLLECTED AS EARLY AS 12 NOON.", "ref": "1533100004"}, "type": "Feature"}
{"geometry": {"coordinates": [-80.0050938, 40.252188], "type": "Point"}, "id": "9kS4mGYHmzlp1sgSPExTsmjiz70=", "properties": {"@spider": "usps_collection_boxes", "addr:city": "FINLEYVILLE", "addr:country": "US", "addr:full": "3510 EXTENSION AVE", "addr:postcode": "15332", "addr:state": "PA", "brand": "USPS", "collection_times": "Mo-Fr 16:15; Sa 15:15", "name": "USPS COLLECTION BOX - BLUE BOX", "note": "ON 12/24 AND 12/31, THIS BOX MAY BE COLLECTED AS EARLY AS 12 NOON.", "ref": "1533200001"}, "type": "Feature"}
{"geometry": {"coordinates": [-80.0051148, 40.252219], "type": "Point"}, "id": "kw60xNTdD0WnRrlzMTHagXzLKps=", "properties": {"@spider": "usps_collection_boxes", "addr:city": "FINLEYVILLE", "addr:country": "US", "addr:full": "3510 EXTENSION AVE", "addr:postcode": "15332", "addr:state": "PA", "brand": "USPS", "collection_times": "Mo-Fr 16:15; Sa 15:15", "name": "USPS COLLECTION BOX - PO LOBBY", "note": "ON 12/24 AND 12/31, THIS BOX MAY BE COLLECTED AS EARLY AS 12 NOON.", "ref": "1533200004"}, "type": "Feature"}
{"geometry": {"coordinates": [-80.0047069, 40.248923], "type": "Point"}, "id": "zDkcJK_PSmnZacIdyXDdta64cjw=", "properties": {"@spider": "usps_collection_boxes", "addr:city": "FINLEYVILLE", "addr:country": "US", "addr:full": "3701 STATE ROUTE 88", "addr:postcode": "15332", "addr:state": "PA", "brand": "USPS", "collection_times": "Mo-Sa 10:00", "name": "USPS COLLECTION BOX - BLUE BOX", "ref": "1533200005"}, "type": "Feature"}
{"geometry": {"coordinates": [-80.005295729, 40.252598687], "type": "Point"}, "id": "IoN55pBPocv-ENI9HCt8ZqzL4EA=", "properties": {"@spider": "usps_collection_boxes", "addr:city": "FINLEYVILLE", "addr:country": "US", "addr:full": "3510 EXTENSION AVE", "addr:postcode": "15332", "addr:state": "PA", "brand": "USPS", "collection_times": "Mo-Fr 16:00; Sa 12:00", "name": "USPS COLLECTION BOX - PO LOBBY", "note": "ON 12/24 AND 12/31, THIS BOX MAY BE COLLECTED AS EARLY AS 12 NOON.", "ref": "1533200007"}, "type": "Feature"}
{"geometry": {"coordinates": [-79.99795, 40.001499], "type": "Point"}, "id": "_PuyPYSPzeig0IddzU73Hcrm1gc=", "properties": {"@spider": "usps_collection_boxes", "addr:city": "FREDERICKTOWN", "addr:country": "US", "addr:full": "531 FRONT ST", "addr:postcode": "15333", "addr:state": "PA", "brand": "USPS", "collection_times": "Mo-Fr 16:15; Sa 12:00", "name": "USPS COLLECTION BOX - BLUE BOX", "note": "ON 12/24 AND 12/31, THIS BOX MAY BE COLLECTED AS EARLY AS 12 NOON.", "ref": "1533300001"}, "type": "Feature"}
{"geometry": {"coordinates": [-79.99795, 40.001499], "type": "Point"}, "id": "d3TDWdLCrSppUfoNeIr4zNuYew0=", "properties": {"@spider": "usps_collection_boxes", "addr:city": "FREDERICKTOWN", "addr:country": "US", "addr:full": "531 FRONT ST", "addr:postcode": "15333", "addr:state": "PA", "brand": "USPS", "collection_times": "Mo-Fr 16:15; Sa 12:00", "name": "USPS COLLECTION BOX - PO LOBBY", "note": "ON 12/24 AND 12/31, THIS BOX MAY BE COLLECTED AS EARLY AS 12 NOON.", "ref": "1533300002"}, "type": "Feature"}
{"geometry": {"coordinates": [-79.997945337, 40.001458411], "type": "Point"}, "id": "QQ4lI2Yl8KJqkhmirvjytIzIiqc=", "properties": {"@spider": "usps_collection_boxes", "addr:city": "FREDERICKTOWN", "addr:country": "US", "addr:full": "531 FRONT ST", "addr:postcode": "15333", "addr:state": "PA", "brand": "USPS", "collection_times": "Mo-Fr 16:30; Sa 12:00", "name": "USPS COLLECTION BOX - PO LOBBY", "note": "ON 12/24 AND 12/31, THIS BOX MAY BE COLLECTED AS EARLY AS 12 NOON.", "ref": "1533300004"}, "type": "Feature"}
{"geometry": {"coordinates": [-80.025061, 39.815302], "type": "Point"}, "id": "l2nqDE3t2lGmkgr8HOxCcVsU_DI=", "properties": {"@spider": "usps_collection_boxes", "addr:city": "GARARDS FORT", "addr:country": "US", "addr:full": "288 GARARDS FORT RD", "addr:postcode": "15334", "addr:state": "PA", "brand": "USPS", "collection_times": "Mo-Sa 11:45", "name": "USPS COLLECTION BOX - BLUE BOX", "ref": "1533400001"}, "type": "Feature"}
{"geometry": {"coordinates": [-80.025148, 39.815308], "type": "Point"}, "id": "WyS8qv-LiLhtoPRtqFit9ba1N_A=", "properties": {"@spider": "usps_collection_boxes", "addr:city": "GARARDS FORT", "addr:country": "US", "addr:full": "288 GARARDS FORT RD", "addr:postcode": "15334", "addr:state": "PA", "brand": "USPS", "collection_times": "Mo-Sa 11:45", "name": "USPS COLLECTION BOX - PO LOBBY", "ref": "1533400002"}, "type": "Feature"}
{"geometry": {"coordinates": [-80.024461783, 39.815024989], "type": "Point"}, "id": "j38EWWVZ2rtPH6HsAat-fw0ppWY=", "properties": {"@spider": "usps_collection_boxes", "addr:city": "GARARDS FORT", "addr:country": "US", "addr:full": "288 GARARDS FORT RD", "addr:postcode": "15334", "addr:state": "PA", "brand": "USPS", "collection_times": "Mo-Sa 11:50", "name": "USPS COLLECTION BOX - PO LOBBY", "ref": "1533400004"}, "type": "Feature"}
{"geometry": {"coordinates": [-79.989194, 40.256352], "type": "Point"}, "id": "5iJ9vhsTmJj_WCLlwzdP0V4mqjg=", "properties": {"@spider": "usps_collection_boxes", "addr:city": "GASTONVILLE", "addr:country": "US", "addr:full": "3708 FINLEYVILLE ELRAMA RD", "addr:postcode": "15336", "addr:state": "PA", "brand": "USPS", "collection_times": "Mo-Fr 11:55; Sa 11:45", "name": "USPS COLLECTION BOX - BLUE BOX", "ref": "1533600001"}, "type": "Feature"}
{"geometry": {"coordinates": [-79.989194, 40.256352], "type": "Point"}, "id": "ZhD9597wnSzXIE9MJdbHP_Oy2ws=", "properties": {"@spider": "usps_collection_boxes", "addr:city": "GASTONVILLE", "addr:country": "US", "addr:full": "3708 FINLEYVILLE ELRAMA RD", "addr:postcode": "15336", "addr:state": "PA", "brand": "USPS", "collection_times": "Mo-Fr 11:55; Sa 11:45", "name": "USPS COLLECTION BOX - PO LOBBY", "ref": "1533600002"}, "type": "Feature"}
{"geometry": {"coordinates": [-79.989904494, 40.256083977], "type": "Point"}, "id": "94TGoaMe0RFPYpyrGEPsl1ji_bc=", "properties": {"@spider": "usps_collection_boxes", "addr:city": "GASTONVILLE", "addr:country": "US", "addr:full": "3708 FINLEYVILLE ELRAMA RD", "addr:postcode": "15336", "addr:state": "PA", "brand": "USPS", "collection_times": "Mo-Fr 11:55; Sa 11:40", "name": "USPS COLLECTION BOX - PO LOBBY", "ref": "1533600004"}, "type": "Feature"}
{"geometry": {"coordinates": [-80.387528, 39.931829], "type": "Point"}, "id": "bYCPJMUZo7XRSp8_t8pq0GSxgzw=", "properties": {"@spider": "usps_collection_boxes", "addr:city": "GRAYSVILLE", "addr:country": "US", "addr:full": "1167 W ROY FURMAN HWY", "addr:postcode": "15337", "addr:state": "PA", "brand": "USPS", "collection_times": "Mo-Fr 11:55; Sa 11:45", "name": "USPS COLLECTION BOX - BLUE BOX", "ref": "1533700001"}, "type": "Feature"}
{"geometry": {"coordinates": [-80.387528, 39.931829], "type": "Point"}, "id": "jscNscuqRlFtiBeIgjpvWLvtUz4=", "properties": {"@spider": "usps_collection_boxes", "addr:city": "GRAYSVILLE", "addr:country": "US", "addr:full": "1167 W ROY FURMAN HWY", "addr:postcode": "15337", "addr:state": "PA", "brand": "USPS", "collection_times": "Mo-Fr 11:55; Sa 11:45", "name": "USPS COLLECTION BOX - PO LOBBY", "ref": "1533700002"}, "type": "Feature"}
{"geometry": {"coordinates": [-80.387197959, 39.931797311], "type": "Point"}, "id": "KyhOnP2bxR339uQgARQ4k64BV2U=", "properties": {"@spider": "usps_collection_boxes", "addr:city": "GRAYSVILLE", "addr:country": "US", "addr:full": "1167 W ROY FURMAN HWY", "addr:postcode": "15337", "addr:state": "PA", "brand": "USPS", "collection_times": "Mo-Sa 11:55", "name": "USPS COLLECTION BOX - PO LOBBY", "ref": "1533700004"}, "type": "Feature"}
{"geometry": {"coordinates": [-79.912121, 39.792314], "type": "Point"}, "id": "iuFBaKcy6gUaChjOisvLiAKh98M=", "properties": {"@spider": "usps_collection_boxes", "addr:city": "GREENSBORO", "addr:country": "US", "addr:full": "304 FRONT ST", "addr:postcode": "15338", "addr:state": "PA", "brand": "USPS", "collection_times": "Mo-Sa 11:55", "name": "USPS COLLECTION BOX - BLUE BOX", "ref": "1533800001"}, "type": "Feature"}
{"geometry": {"coordinates": [-79.908949, 39.788744], "type": "Point"}, "id": "Ye487-h6-6m4Q42831UJRc7Kyqk=", "properties": {"@spider": "usps_collection_boxes", "addr:city": "GREENSBORO", "addr:country": "US", "addr:full": "304 FRONT ST", "addr:postcode": "15338", "addr:state": "PA", "brand": "USPS", "collection_times": "Mo-Sa 11:55", "name": "USPS COLLECTION BOX - PO LOBBY", "ref": "1533800002"}, "type": "Feature"}
{"geometry": {"coordinates": [-79.912059026, 39.792355848], "type": "Point"}, "id": "chT0gmxBPWIITTLprPkT-2yYm40=", "properties": {"@spider": "usps_collection_boxes", "addr:city": "GREENSBORO", "addr:country": "US", "addr:full": "304 FRONT ST", "addr:postcode": "15338", "addr:state": "PA", "brand": "USPS", "collection_times": "Mo-Sa 11:55", "name": "USPS COLLECTION BOX - PO LOBBY", "ref": "1533800004"}, "type": "Feature"}
{"geometry": {"coordinates": [-80.325398, 40.296174], "type": "Point"}, "id": "hqR5bTSTxi_XLzRqOAt33_ZBG28=", "properties": {"@spider": "usps_collection_boxes", "addr:city": "HICKORY", "addr:country": "US", "addr:full": "188 MAIN ST", "addr:postcode": "15340", "addr:state": "PA", "brand": "USPS", "collection_times": "Mo-Fr 16:00; Sa 12:15", "name": "USPS COLLECTION BOX - BLUE BOX", "note": "ON 12/24 AND 12/31, THIS BOX MAY BE COLLECTED AS EARLY AS 12 NOON.", "ref": "1534000001"}, "type": "Feature"}
{"geometry": {"coordinates": [-80.3081093, 40.299352], "type": "Point"}, "id": "QglKke4_iH8N69RLvFfUXjneb3w=", "properties": {"@spider": "usps_collection_boxes", "addr:city": "HICKORY", "addr:country": "US", "addr:full": "86 MAIN ST", "addr:postcode": "15340", "addr:state": "PA", "brand": "USPS", "collection_times": "Mo-Sa 09:00", "name": "USPS COLLECTION BOX - BLUE BOX", "ref": "1534000006"}, "type": "Feature"}
{"geometry": {"coordinates": [-80.325398, 40.296174], "type": "Point"}, "id": "hlS8bOIVJqn_01icn3RuUwlS910=", "properties": {"@spider": "usps_collection_boxes", "addr:city": "HICKORY", "addr:country": "US", "addr:full": "188 MAIN ST", "addr:postcode": "15340", "addr:state": "PA", "brand": "USPS", "collection_times": "Mo-Fr 16:00; Sa 12:15", "name": "USPS COLLECTION BOX - PO LOBBY", "note": "ON 12/24 AND 12/31, THIS BOX MAY BE COLLECTED AS EARLY AS 12 NOON.", "ref": "1534000007"}, "type": "Feature"}
{"geometry": {"coordinates": [-80.325398, 40.296174], "type": "Point"}, "id": "odBwA5b0LIQabCDxnh3-M_CeX7Y=", "properties": {"@spider": "usps_collection_boxes", "addr:city": "HICKORY", "addr:country": "US", "addr:full": "188 MAIN ST", "addr:postcode": "15340", "addr:state": "PA", "brand": "USPS", "collection_times": "Mo-Fr 16:00; Sa 12:15", "name": "USPS COLLECTION BOX - PO LOBBY", "note": "ON 12/24 AND 12/31, THIS BOX MAY BE COLLECTED AS EARLY AS 12 NOON.", "ref": "1534000008"}, "type": "Feature"}
{"geometry": {"coordinates": [-80.324944418, 40.296217472], "type": "Point"}, "id": "VM2gV5YBXz5gPJKc1rK137kMDdE=", "properties": {"@spider": "usps_collection_boxes", "addr:city": "HICKORY", "addr:country": "US", "addr:full": "188 MAIN ST", "addr:postcode": "15340", "addr:state": "PA", "brand": "USPS", "collection_times": "Mo-Fr 16:00; Sa 12:00", "name": "USPS COLLECTION BOX - PO LOBBY", "note": "ON 12/24 AND 12/31, THIS BOX MAY BE COLLECTED AS EARLY AS 12 NOON.", "ref": "1534000010"}, "type": "Feature"}
{"geometry": {"coordinates": [-80.313299, 39.85688], "type": "Point"}, "id": "FxBzVC-TiQb8qmiUaBZV5c0v0Y4=", "properties": {"@spider": "usps_collection_boxes", "addr:city": "HOLBROOK", "addr:country": "US", "addr:full": "2769 GOLDEN OAKS RD", "addr:postcode": "15341", "addr:state": "PA", "brand": "USPS", "collection_times": "Mo-Fr 11:55; Sa 11:15", "name": "USPS COLLECTION BOX - BLUE BOX", "ref": "1534100001"}, "type": "Feature"}
{"geometry": {"coordinates": [-80.31313, 39.856849], "type": "Point"}, "id": "KW_WZskCOrXlg1FuTJuj-7m-jDs=", "properties": {"@spider": "usps_collection_boxes", "addr:city": "HOLBROOK", "addr:country": "US", "addr:full": "2769 GOLDEN OAKS RD", "addr:postcode": "15341", "addr:state": "PA", "brand": "USPS", "collection_times": "Mo-Fr 11:55; Sa 11:15", "name": "USPS COLLECTION BOX - PO LOBBY", "ref": "1534100002"}, "type": "Feature"}
{"geometry": {"coordinates": [-80.313133545, 39.856935436], "type": "Point"}, "id": "5WT8ThmIK79Vr6J1-18foP7U0mc=", "properties": {"@spider": "usps_collection_boxes", "addr:city": "HOLBROOK", "addr:country": "US", "addr:full": "2769 GOLDEN OAKS RD", "addr:postcode": "15341", "addr:state": "PA", "brand": "USPS", "collection_times": "Mo-Fr 11:55; Sa 10:55", "name": "USPS COLLECTION BOX - PO LOBBY", "ref": "1534100004"}, "type": "Feature"}
{"geometry": {"coordinates": [-80.2110961, 40.247951], "type": "Point"}, "id": "KTlA2ySN-veor0mr4xY6Z9wjHAc=", "properties": {"@spider": "usps_collection_boxes", "addr:city": "HOUSTON", "addr:country": "US", "addr:full": "144 W PIKE ST", "addr:postcode": "15342", "addr:state": "PA", "brand": "USPS", "collection_times": "Mo-Sa 10:30", "name": "USPS COLLECTION BOX - BLUE BOX", "ref": "1534200002"}, "type": "Feature"}
{"geometry": {"coordinates": [-80.2112939, 40.24966], "type": "Point"}, "id": "uwd5vlBMUMT1e4YWwDzZfSfYfuM=", "properties": {"@spider": "usps_collection_boxes", "addr:city": "HOUSTON", "addr:country": "US", "addr:full": "1 W GRANT ST", "addr:postcode": "15342", "addr:state": "PA", "brand": "USPS", "collection_times": "Mo-Sa 09:00", "name": "USPS COLLECTION BOX - BLUE BOX", "ref": "1534200005"}, "type": "Feature"}
{"geometry": {"coordinates": [-80.2092473, 40.250541], "type": "Point"}, "id": "4pi7PUHpE3_VsPMogrtHRW3piRs=", "properties": {"@spider": "usps_collection_boxes", "addr:city": "HOUSTON", "addr:country": "US", "addr:full": "22 E PIKE ST", "addr:postcode": "15342", "addr:state": "PA", "brand": "USPS", "collection_times": "Mo-Sa 11:30", "name": "USPS COLLECTION BOX - BLUE BOX", "ref": "1534200010"}, "type": "Feature"}
{"geometry": {"coordinates": [-80.2072883, 40.249323], "type": "Point"}, "id": "jkBmfaTqNJXILc6aJXjADclu9Fg=", "properties": {"@spider": "usps_collection_boxes", "addr:city": "HOUSTON", "addr:country": "US", "addr:full": "123 S MAIN ST", "addr:postcode": "15342", "addr:state": "PA", "brand": "USPS", "collection_times": "Mo-Fr 16:30; Sa 15:45", "name": "USPS COLLECTION BOX - BLUE BOX", "note": "ON 12/24 AND 12/31, THIS BOX MAY BE COLLECTED AS EARLY AS 12 NOON.", "ref": "1534200016"}, "type": "Feature"}
{"geometry": {"coordinates": [-80.207284, 40.24918], "type": "Point"}, "id": "vNWoLUhjqjfDBu34AhJzphxmq80=", "properties": {"@spider": "usps_collection_boxes", "addr:city": "HOUSTON", "addr:country": "US", "addr:full": "123 S MAIN ST LBBY", "addr:postcode": "15342", "addr:state": "PA", "brand": "USPS", "collection_times": "Mo-Fr 16:30; Sa 12:00", "name": "USPS COLLECTION BOX - PO LOBBY", "note": "ON 12/24 AND 12/31, THIS BOX MAY BE COLLECTED AS EARLY AS 12 NOON.", "ref": "1534200017"}, "type": "Feature"}
{"geometry": {"coordinates": [-80.207402785, 40.249218404], "type": "Point"}, "id": "5f4oKXnyKCLnKxL1uogwNx61ztw=", "properties": {"@spider": "usps_collection_boxes", "addr:city": "HOUSTON", "addr:country": "US", "addr:full": "123 S MAIN ST", "addr:postcode": "15342", "addr:state": "PA", "brand": "USPS", "collection_times": "Mo-Fr 16:30; Sa 12:00", "name": "USPS COLLECTION BOX - PO LOBBY", "note": "ON 12/24 AND 12/31, THIS BOX MAY BE COLLECTED AS EARLY AS 12 NOON.", "ref": "1534200020"}, "type": "Feature"}
{"geometry": {"coordinates": [-80.059284, 39.930498], "type": "Point"}, "id": "p8OPxRYrGwufVfkPwjiy1FhxHbM=", "properties": {"@spider": "usps_collection_boxes", "addr:city": "JEFFERSON", "addr:country": "US", "addr:full": "1422 JEFFERSON RD", "addr:postcode": "15344", "addr:state": "PA", "brand": "USPS", "collection_times": "Mo-Fr 16:00; Sa 12:00", "name": "USPS COLLECTION BOX - BLUE BOX", "note": "ON 12/24 AND 12/31, THIS BOX MAY BE COLLECTED AS EARLY AS 12 NOON.", "ref": "1534400001"}, "type": "Feature"}
{"geometry": {"coordinates": [-80.059352, 39.93049], "type": "Point"}, "id": "i25kvtWgRGVJha0a70jNTHT8iYg=", "properties": {"@spider": "usps_collection_boxes", "addr:city": "JEFFERSON", "addr:country": "US", "addr:full": "1422 JEFFERSON RD", "addr:postcode": "15344", "addr:state": "PA", "brand": "USPS", "collection_times": "Mo-Fr 16:00; Sa 12:00", "name": "USPS COLLECTION BOX - PO LOBBY", "note": "ON 12/24 AND 12/31, THIS BOX MAY BE COLLECTED AS EARLY AS 12 NOON.", "ref": "1534400002"}, "type": "Feature"}
{"geometry": {"coordinates": [-80.059166796, 39.930564269], "type": "Point"}, "id": "ny3Fek6GygS_OBrKJ_ebvJOPJFA=", "properties": {"@spider": "usps_collection_boxes", "addr:city": "JEFFERSON", "addr:country": "US", "addr:full": "1422 JEFFERSON RD", "addr:postcode": "15344", "addr:state": "PA", "brand": "USPS", "collection_times": "Mo-Fr 16:00; Sa 12:00", "name": "USPS COLLECTION BOX - PO LOBBY", "note": "ON 12/24 AND 12/31, THIS BOX MAY BE COLLECTED AS EARLY AS 12 NOON.", "ref": "1534400004"}, "type": "Feature"}
{"geometry": {"coordinates": [-80.093278, 40.021762], "type": "Point"}, "id": "UcFV0jBABHnH31kx4PGSvMTtU6U=", "properties": {"@spider": "usps_collection_boxes", "addr:city": "MARIANNA", "addr:country": "US", "addr:full": "1742 MAIN ST", "addr:postcode": "15345", "addr:state": "PA", "brand": "USPS", "collection_times": "Mo-Fr 16:30; Sa 11:30", "name": "USPS COLLECTION BOX - BLUE BOX", "note": "ON 12/24 AND 12/31, THIS BOX MAY BE COLLECTED AS EARLY AS 12 NOON.", "ref": "1534500001"}, "type": "Feature"}
{"geometry": {"coordinates": [-80.093278, 40.021762], "type": "Point"}, "id": "-CHD3jJVep5hb37OcKL8MxHKCBs=", "properties": {"@spider": "usps_collection_boxes", "addr:city": "MARIANNA", "addr:country": "US", "addr:full": "1742 MAIN ST", "addr:postcode": "15345", "addr:state": "PA", "brand": "USPS", "collection_times": "Mo-Fr 16:30; Sa 11:30", "name": "USPS COLLECTION BOX - PO LOBBY", "note": "ON 12/24 AND 12/31, THIS BOX MAY BE COLLECTED AS EARLY AS 12 NOON.", "ref": "1534500002"}, "type": "Feature"}
{"geometry": {"coordinates": [-80.093118056, 40.021892205], "type": "Point"}, "id": "U9v655uLLfHL2GYbx0x9ARZjSC4=", "properties": {"@spider": "usps_collection_boxes", "addr:city": "MARIANNA", "addr:country": "US", "addr:full": "1742 MAIN ST", "addr:postcode": "15345", "addr:state": "PA", "brand": "USPS", "collection_times": "Mo-Fr 16:30; Sa 11:30", "name": "USPS COLLECTION BOX - PO LOBBY", "note": "ON 12/24 AND 12/31, THIS BOX MAY BE COLLECTED AS EARLY AS 12 NOON.", "ref": "1534500004"}, "type": "Feature"}
{"geometry": {"coordinates": [-80.073618, 39.934659], "type": "Point"}, "id": "8YLWdt2EWrQQMsKQgshI7nn7i7U=", "properties": {"@spider": "usps_collection_boxes", "addr:city": "MATHER", "addr:country": "US", "addr:full": "319 3RD ST", "addr:postcode": "15346", "addr:state": "PA", "brand": "USPS", "collection_times": "Mo-Fr 13:55; Sa 11:45", "name": "USPS COLLECTION BOX - BLUE BOX", "note": "ON 12/24 AND 12/31, THIS BOX MAY BE COLLECTED AS EARLY AS 12 NOON.", "ref": "1534600001"}, "type": "Feature"}
{"geometry": {"coordinates": [-80.07374, 39.934651], "type": "Point"}, "id": "YHkexreRy6Q2NwWpsoqrOYR3Bb8=", "properties": {"@spider": "usps_collection_boxes", "addr:city": "MATHER", "addr:country": "US", "addr:full": "319 3RD ST", "addr:postcode": "15346", "addr:state": "PA", "brand": "USPS", "collection_times": "Mo-Fr 13:55; Sa 11:45", "name": "USPS COLLECTION BOX - PO LOBBY", "note": "ON 12/24 AND 12/31, THIS BOX MAY BE COLLECTED AS EARLY AS 12 NOON.", "ref": "1534600002"}, "type": "Feature"}
{"geometry": {"coordinates": [-80.07374, 39.934651], "type": "Point"}, "id": "6vH7L8bW1gpCxQKN8GNaUZpt2YE=", "properties": {"@spider": "usps_collection_boxes", "addr:city": "MATHER", "addr:country": "US", "addr:full": "319 3RD ST", "addr:postcode": "15346", "addr:state": "PA", "brand": "USPS", "collection_times": "Mo-Fr 13:55; Sa 11:45", "name": "USPS COLLECTION BOX - PO LOBBY", "note": "ON 12/24 AND 12/31, THIS BOX MAY BE COLLECTED AS EARLY AS 12 NOON.", "ref": "1534600003"}, "type": "Feature"}
{"geometry": {"coordinates": [-80.073393114, 39.934746305], "type": "Point"}, "id": "N4-YhO-UwlE6W1AVdLbxpWQC7mM=", "properties": {"@spider": "usps_collection_boxes", "addr:city": "MATHER", "addr:country": "US", "addr:full": "319 3RD ST", "addr:postcode": "15346", "addr:state": "PA", "brand": "USPS", "collection_times": "Mo-Fr 13:45; Sa 11:55", "name": "USPS COLLECTION BOX - PO LOBBY", "note": "ON 12/24 AND 12/31, THIS BOX MAY BE COLLECTED AS EARLY AS 12 NOON.", "ref": "1534600005"}, "type": "Feature"}
{"geometry": {"coordinates": [-80.226529, 40.215137], "type": "Point"}, "id": "9kx3JBZflRt0QLxPq0N1wR9sJo0=", "properties": {"@spider": "usps_collection_boxes", "addr:city": "MEADOW LANDS", "addr:country": "US", "addr:full": "100 COUNTRY CLUB RD", "addr:postcode": "15347", "addr:state": "PA", "brand": "USPS", "collection_times": "Mo-Fr 17:00; Sa 12:00", "name": "USPS COLLECTION BOX - BLUE BOX", "note": "ON 12/24 AND 12/31, THIS BOX MAY BE COLLECTED AS EARLY AS 12 NOON.", "ref": "1534700001"}, "type": "Feature"}
{"geometry": {"coordinates": [-80.226479, 40.215116], "type": "Point"}, "id": "3C2CU74xroeRyBR0_8JQ4LrLY5Y=", "properties": {"@spider": "usps_collection_boxes", "addr:city": "MEADOW LANDS", "addr:country": "US", "addr:full": "100 COUNTRY CLUB RD", "addr:postcode": "15347", "addr:state": "PA", "brand": "USPS", "collection_times": "Mo-Fr 17:00; Sa 12:00", "name": "USPS COLLECTION BOX - PO LOBBY", "note": "ON 12/24 AND 12/31, THIS BOX MAY BE COLLECTED AS EARLY AS 12 NOON.", "ref": "1534700002"}, "type": "Feature"}
{"geometry": {"coordinates": [-80.225917543, 40.215206374], "type": "Point"}, "id": "hH3ZgJ49GnpDbYVVtNuN1DWshHQ=", "properties": {"@spider": "usps_collection_boxes", "addr:city": "MEADOW LANDS", "addr:country": "US", "addr:full": "100 COUNTRY CLUB RD", "addr:postcode": "15347", "addr:state": "PA", "brand": "USPS", "collection_times": "Mo-Fr 16:30; Sa 12:00", "name": "USPS COLLECTION BOX - PO LOBBY", "note": "ON 12/24 AND 12/31, THIS BOX MAY BE COLLECTED AS EARLY AS 12 NOON.", "ref": "1534700004"}, "type": "Feature"}
{"geometry": {"coordinates": [-79.994221, 39.986052], "type": "Point"}, "id": "zQIJKH_vYrSdIiKeGwnd8vJzcvI=", "properties": {"@spider": "usps_collection_boxes", "addr:city": "MILLSBORO", "addr:country": "US", "addr:full": "21 MILL ST", "addr:postcode": "15348", "addr:state": "PA", "brand": "USPS", "collection_times": "Mo-Fr 11:55; Sa 11:45", "name": "USPS COLLECTION BOX - BLUE BOX", "ref": "1534800001"}, "type": "Feature"}
{"geometry": {"coordinates": [-79.994241, 39.986144], "type": "Point"}, "id": "k8QfiO8Vd92i-IKppOZAJ8qs0UY=", "properties": {"@spider": "usps_collection_boxes", "addr:city": "MILLSBORO", "addr:country": "US", "addr:full": "21 MILL ST", "addr:postcode": "15348", "addr:state": "PA", "brand": "USPS", "collection_times": "Mo-Fr 11:55; Sa 11:45", "name": "USPS COLLECTION BOX - PO LOBBY", "ref": "1534800002"}, "type": "Feature"}
{"geometry": {"coordinates": [-79.994267559, 39.986104401], "type": "Point"}, "id": "Jgor8raOFthbs_7OFW-Rkp-2nJo=", "properties": {"@spider": "usps_collection_boxes", "addr:city": "MILLSBORO", "addr:country": "US", "addr:full": "21 MILL ST", "addr:postcode": "15348", "addr:state": "PA", "brand": "USPS", "collection_times": "Mo-Fr 11:55; Sa 11:25", "name": "USPS COLLECTION BOX - PO LOBBY", "ref": "1534800004"}, "type": "Feature"}
{"geometry": {"coordinates": [-80.071167, 39.732121], "type": "Point"}, "id": "wKQe0BB75i6iL96gd_Z5Q5o_4ZI=", "properties": {"@spider": "usps_collection_boxes", "addr:city": "MOUNT MORRIS", "addr:country": "US", "addr:full": "100 MAIN ST", "addr:postcode": "15349", "addr:state": "PA", "brand": "USPS", "collection_times": "Mo-Fr 16:15; Sa 11:45", "name": "USPS COLLECTION BOX - BLUE BOX", "note": "ON 12/24 AND 12/31, THIS BOX MAY BE COLLECTED AS EARLY AS 12 NOON.", "ref": "1534900001"}, "type": "Feature"}
{"geometry": {"coordinates": [-80.071167, 39.732121], "type": "Point"}, "id": "Gb7gi5NvbX57ow-Ge3QAyWDFeY8=", "properties": {"@spider": "usps_collection_boxes", "addr:city": "MOUNT MORRIS", "addr:country": "US", "addr:full": "100 MAIN ST", "addr:postcode": "15349", "addr:state": "PA", "brand": "USPS", "collection_times": "Mo-Fr 16:15; Sa 11:45", "name": "USPS COLLECTION BOX - PO LOBBY", "note": "ON 12/24 AND 12/31, THIS BOX MAY BE COLLECTED AS EARLY AS 12 NOON.", "ref": "1534900002"}, "type": "Feature"}
{"geometry": {"coordinates": [-80.071082856, 39.732089783], "type": "Point"}, "id": "qKmCCPCUcpyiC3tK3B2K_Hn0x9U=", "properties": {"@spider": "usps_collection_boxes", "addr:city": "MOUNT MORRIS", "addr:country": "US", "addr:full": "100 MAIN ST", "addr:postcode": "15349", "addr:state": "PA", "brand": "USPS", "collection_times": "Mo-Fr 16:30; Sa 11:45", "name": "USPS COLLECTION BOX - PO LOBBY", "note": "ON 12/24 AND 12/31, THIS BOX MAY BE COLLECTED AS EARLY AS 12 NOON.", "ref": "1534900005"}, "type": "Feature"}
{"geometry": {"coordinates": [-80.201299582, 40.294693286], "type": "Point"}, "id": "X3_rsICJklYwKGFnlCL9WijcooQ=", "properties": {"@spider": "usps_collection_boxes", "addr:city": "MUSE", "addr:country": "US", "addr:full": "240 MUSE BISHOP RD", "addr:postcode": "15350", "addr:state": "PA", "brand": "USPS", "collection_times": "Mo-Sa 12:00", "name": "USPS COLLECTION BOX - BLUE BOX", "ref": "1535000002"}, "type": "Feature"}
{"geometry": {"coordinates": [-79.922545, 39.878915], "type": "Point"}, "id": "-DStud91mU7rlmcaiimBpVnEPEM=", "properties": {"@spider": "usps_collection_boxes", "addr:city": "NEMACOLIN", "addr:country": "US", "addr:full": "1 PERSHING BLVD", "addr:postcode": "15351", "addr:state": "PA", "brand": "USPS", "collection_times": "Mo-Fr 16:00; Sa 11:30", "name": "USPS COLLECTION BOX - BLUE BOX", "note": "ON 12/24 AND 12/31, THIS BOX MAY BE COLLECTED AS EARLY AS 12 NOON.", "ref": "1535100001"}, "type": "Feature"}
{"geometry": {"coordinates": [-79.922429, 39.878884], "type": "Point"}, "id": "PcmGTXeuuOgf2t8w6DTbpaNLU0Y=", "properties": {"@spider": "usps_collection_boxes", "addr:city": "NEMACOLIN", "addr:country": "US", "addr:full": "1 PERSHING BLVD", "addr:postcode": "15351", "addr:state": "PA", "brand": "USPS", "collection_times": "Mo-Fr 16:15; Sa 11:30", "name": "USPS COLLECTION BOX - PO LOBBY", "note": "ON 12/24 AND 12/31, THIS BOX MAY BE COLLECTED AS EARLY AS 12 NOON.", "ref": "1535100002"}, "type": "Feature"}
{"geometry": {"coordinates": [-79.922506382, 39.878950926], "type": "Point"}, "id": "8LZpX-57UC2y7mvZMqpeF4d3rMM=", "properties": {"@spider": "usps_collection_boxes", "addr:city": "NEMACOLIN", "addr:country": "US", "addr:full": "1 PERSHING BLVD", "addr:postcode": "15351", "addr:state": "PA", "brand": "USPS", "collection_times": "Mo-Fr 16:15; Sa 11:30", "name": "USPS COLLECTION BOX - PO LOBBY", "note": "ON 12/24 AND 12/31, THIS BOX MAY BE COLLECTED AS EARLY AS 12 NOON.", "ref": "1535100004"}, "type": "Feature"}
{"geometry": {"coordinates": [-80.426348, 39.759637], "type": "Point"}, "id": "C3dM0wpzfOLGK6HRgiLcUM33yAw=", "properties": {"@spider": "usps_collection_boxes", "addr:city": "NEW FREEPORT", "addr:country": "US", "addr:full": "119 MAIN ST", "addr:postcode": "15352", "addr:state": "PA", "brand": "USPS", "collection_times": "Mo-Fr 15:00; Sa 11:00", "name": "USPS COLLECTION BOX - BLUE BOX", "note": "ON 12/24 AND 12/31, THIS BOX MAY BE COLLECTED AS EARLY AS 12 NOON.", "ref": "1535200001"}, "type": "Feature"}
{"geometry": {"coordinates": [-80.426286, 39.7597], "type": "Point"}, "id": "KDAXR7Sp41ennRIr4J7ZWQIpKW8=", "properties": {"@spider": "usps_collection_boxes", "addr:city": "NEW FREEPORT", "addr:country": "US", "addr:full": "119 MAIN ST", "addr:postcode": "15352", "addr:state": "PA", "brand": "USPS", "collection_times": "Mo-Fr 15:00; Sa 11:00", "name": "USPS COLLECTION BOX - PO LOBBY", "note": "ON 12/24 AND 12/31, THIS BOX MAY BE COLLECTED AS EARLY AS 12 NOON.", "ref": "1535200002"}, "type": "Feature"}
{"geometry": {"coordinates": [-80.423126533, 39.758088018], "type": "Point"}, "id": "WQz8sJtKgvjbHpwT0IObeMJfrvw=", "properties": {"@spider": "usps_collection_boxes", "addr:city": "NEW FREEPORT", "addr:country": "US", "addr:full": "735 GOLDEN OAKS RD", "addr:postcode": "15352", "addr:state": "PA", "brand": "USPS", "collection_times": "Mo-Fr 12:00; Sa 11:00", "name": "USPS COLLECTION BOX - BLUE BOX", "ref": "1535200003"}, "type": "Feature"}
{"geometry": {"coordinates": [-80.426695296, 39.759487126], "type": "Point"}, "id": "LA4AFvuh9VX5CJnYY9CgkW6gIjY=", "properties": {"@spider": "usps_collection_boxes", "addr:city": "NEW FREEPORT", "addr:country": "US", "addr:full": "119 MAIN ST", "addr:postcode": "15352", "addr:state": "PA", "brand": "USPS", "collection_times": "Mo-Fr 15:00; Sa 11:00", "name": "USPS COLLECTION BOX - PO LOBBY", "note": "ON 12/24 AND 12/31, THIS BOX MAY BE COLLECTED AS EARLY AS 12 NOON.", "ref": "1535200005"}, "type": "Feature"}
{"geometry": {"coordinates": [-80.294173, 40.006948], "type": "Point"}, "id": "giMOT0jB4oPw-qJUV_V0PXoL9UE=", "properties": {"@spider": "usps_collection_boxes", "addr:city": "NINEVEH", "addr:country": "US", "addr:full": "1750 BROWNS CREEK RD", "addr:postcode": "15353", "addr:state": "PA", "brand": "USPS", "collection_times": "Mo-Fr 10:50; Sa 13:00", "name": "USPS COLLECTION BOX - BLUE BOX", "note": "ON 12/24 AND 12/31, THIS BOX MAY BE COLLECTED AS EARLY AS 12 NOON.", "ref": "1535300001"}, "type": "Feature"}
{"geometry": {"coordinates": [-80.294173, 40.006948], "type": "Point"}, "id": "jQQJri4-zgvQgTqgT8LflJ2_NhY=", "properties": {"@spider": "usps_collection_boxes", "addr:city": "NINEVEH", "addr:country": "US", "addr:full": "1750 BROWNS CREEK RD", "addr:postcode": "15353", "addr:state": "PA", "brand": "USPS", "collection_times": "Mo-Fr 10:50; Sa 11:45", "name": "USPS COLLECTION BOX - PO LOBBY", "ref": "1535300002"}, "type": "Feature"}
{"geometry": {"coordinates": [-80.29604675, 40.010030918], "type": "Point"}, "id": "ACEbhmfASAcDpv_1B_9fykOQ454=", "properties": {"@spider": "usps_collection_boxes", "addr:city": "NINEVEH", "addr:country": "US", "addr:full": "1750 BROWNS CREEK RD", "addr:postcode": "15353", "addr:state": "PA", "brand": "USPS", "collection_times": "Mo-Fr 10:50; Sa 13:30", "name": "USPS COLLECTION BOX - PO LOBBY", "note": "ON 12/24 AND 12/31, THIS BOX MAY BE COLLECTED AS EARLY AS 12 NOON.", "ref": "1535300004"}, "type": "Feature"}
{"geometry": {"coordinates": [-80.011183, 39.939605], "type": "Point"}, "id": "qL5axcIg5ufAHyLoCJO1w70YlAw=", "properties": {"@spider": "usps_collection_boxes", "addr:city": "RICES LANDING", "addr:country": "US", "addr:full": "113 RICES LANDING RD", "addr:postcode": "15357", "addr:state": "PA", "brand": "USPS", "collection_times": "Mo-Fr 16:00; Sa 12:00", "name": "USPS COLLECTION BOX - BLUE BOX", "note": "ON 12/24 AND 12/31, THIS BOX MAY BE COLLECTED AS EARLY AS 12 NOON.", "ref": "1535700001"}, "type": "Feature"}
{"geometry": {"coordinates": [-80.011281, 39.939587], "type": "Point"}, "id": "uQ4Ig3KhgQaWPHyOa8H8ojo9yaA=", "properties": {"@spider": "usps_collection_boxes", "addr:city": "RICES LANDING", "addr:country": "US", "addr:full": "113 RICES LANDING RD", "addr:postcode": "15357", "addr:state": "PA", "brand": "USPS", "collection_times": "Mo-Fr 16:00; Sa 12:00", "name": "USPS COLLECTION BOX - PO LOBBY", "note": "ON 12/24 AND 12/31, THIS BOX MAY BE COLLECTED AS EARLY AS 12 NOON.", "ref": "1535700002"}, "type": "Feature"}
{"geometry": {"coordinates": [-80.010949909, 39.939570449], "type": "Point"}, "id": "a6HQPovsPmsE6aJirE6nb_wkfo0=", "properties": {"@spider": "usps_collection_boxes", "addr:city": "RICES LANDING", "addr:country": "US", "addr:full": "113 RICES LANDING RD", "addr:postcode": "15357", "addr:state": "PA", "brand": "USPS", "collection_times": "Mo-Fr 16:00; Sa 12:00", "name": "USPS COLLECTION BOX - PO LOBBY", "note": "ON 12/24 AND 12/31, THIS BOX MAY BE COLLECTED AS EARLY AS 12 NOON.", "ref": "1535700004"}, "type": "Feature"}
{"geometry": {"coordinates": [-80.0012666, 40.053046], "type": "Point"}, "id": "r4QqBYH13kRHUBYDPQXeU3UH71E=", "properties": {"@spider": "usps_collection_boxes", "addr:city": "RICHEYVILLE", "addr:country": "US", "addr:full": "3147 NATIONAL PIKE", "addr:postcode": "15358", "addr:state": "PA", "brand": "USPS", "collection_times": "Mo-Fr 16:30; Sa 12:15", "name": "USPS COLLECTION BOX - BLUE BOX", "note": "ON 12/24 AND 12/31, THIS BOX MAY BE COLLECTED AS EARLY AS 12 NOON.", "ref": "1535800001"}, "type": "Feature"}
{"geometry": {"coordinates": [-80.015537, 40.061082], "type": "Point"}, "id": "5CmglmWTl19xh3twdN--2mYrANI=", "properties": {"@spider": "usps_collection_boxes", "addr:city": "RICHEYVILLE", "addr:country": "US", "addr:full": "3147 NATIONAL PIKE", "addr:postcode": "15358", "addr:state": "PA", "brand": "USPS", "collection_times": "Mo-Fr 16:00; Sa 12:15", "name": "USPS COLLECTION BOX - PO LOBBY", "note": "ON 12/24 AND 12/31, THIS BOX MAY BE COLLECTED AS EARLY AS 12 NOON.", "ref": "1535800002"}, "type": "Feature"}
{"geometry": {"coordinates": [-80.001645428, 40.05297227], "type": "Point"}, "id": "vnGCPmGqOOd12fI6S_KEYkOeuIM=", "properties": {"@spider": "usps_collection_boxes", "addr:city": "RICHEYVILLE", "addr:country": "US", "addr:full": "3147 NATIONAL PIKE", "addr:postcode": "15358", "addr:state": "PA", "brand": "USPS", "collection_times": "Mo-Fr 16:00; Sa 12:00", "name": "USPS COLLECTION BOX - PO LOBBY", "note": "ON 12/24 AND 12/31, THIS BOX MAY BE COLLECTED AS EARLY AS 12 NOON.", "ref": "1535800004"}, "type": "Feature"}
{"geometry": {"coordinates": [-80.271781, 39.878847], "type": "Point"}, "id": "I-A8YfPu9A8kyjkFBVB3eZqeJIw=", "properties": {"@spider": "usps_collection_boxes", "addr:city": "ROGERSVILLE", "addr:country": "US", "addr:full": "140 CHURCH ST", "addr:postcode": "15359", "addr:state": "PA", "brand": "USPS", "collection_times": "Mo-Fr 11:55; Sa 11:00", "name": "USPS COLLECTION BOX - BLUE BOX", "ref": "1535900001"}, "type": "Feature"}
{"geometry": {"coordinates": [-80.271787, 39.878941], "type": "Point"}, "id": "RjwREnKTyTjETQzp18LKVYfqXCk=", "properties": {"@spider": "usps_collection_boxes", "addr:city": "ROGERSVILLE", "addr:country": "US", "addr:full": "140 CHURCH ST", "addr:postcode": "15359", "addr:state": "PA", "brand": "USPS", "collection_times": "Mo-Fr 11:55; Sa 11:00", "name": "USPS COLLECTION BOX - PO LOBBY", "ref": "1535900002"}, "type": "Feature"}
{"geometry": {"coordinates": [-80.2712801456, 39.8777687397], "type": "Point"}, "id": "zlGQFcg0p9OtdlMpUVdItKF_obQ=", "properties": {"@spider": "usps_collection_boxes", "addr:city": "ROGERSVILLE", "addr:country": "US", "addr:full": "140 CHURCH ST", "addr:postcode": "15359", "addr:state": "PA", "brand": "USPS", "collection_times": "Mo-Fr 11:55; Sa 10:55", "name": "USPS COLLECTION BOX - PO LOBBY", "ref": "1535900004"}, "type": "Feature"}
{"geometry": {"coordinates": [-80.088786, 40.096727], "type": "Point"}, "id": "UJIpFwAHPjW4N0wqp8FwCIme8nE=", "properties": {"@spider": "usps_collection_boxes", "addr:city": "SCENERY HILL", "addr:country": "US", "addr:full": "1908 E NATIONAL PIKE", "addr:postcode": "15360", "addr:state": "PA", "brand": "USPS", "collection_times": "Mo-Sa 16:25", "name": "USPS COLLECTION BOX - PO LOBBY", "note": "ON 12/24 AND 12/31, THIS BOX MAY BE COLLECTED AS EARLY AS 12 NOON.", "ref": "1536000001"}, "type": "Feature"}
{"geometry": {"coordinates": [-80.088786, 40.096727], "type": "Point"}, "id": "oB-52v6SHtxByYzwujd_Rac_20g=", "properties": {"@spider": "usps_collection_boxes", "addr:city": "SCENERY HILL", "addr:country": "US", "addr:full": "1908 E NATIONAL PIKE", "addr:postcode": "15360", "addr:state": "PA", "brand": "USPS", "collection_times": "Mo-Sa 16:25", "name": "USPS COLLECTION BOX - BLUE BOX", "note": "ON 12/24 AND 12/31, THIS BOX MAY BE COLLECTED AS EARLY AS 12 NOON.", "ref": "1536000002"}, "type": "Feature"}
{"geometry": {"coordinates": [-80.088834831, 40.096684775], "type": "Point"}, "id": "-9WyqyhYSfZBvHcmKGklafvrEfM=", "properties": {"@spider": "usps_collection_boxes", "addr:city": "SCENERY HILL", "addr:country": "US", "addr:full": "1908 E NATIONAL PIKE", "addr:postcode": "15360", "addr:state": "PA", "brand": "USPS", "collection_times": "Mo-Sa 16:25", "name": "USPS COLLECTION BOX - PO LOBBY", "note": "ON 12/24 AND 12/31, THIS BOX MAY BE COLLECTED AS EARLY AS 12 NOON.", "ref": "1536000004"}, "type": "Feature"}
{"geometry": {"coordinates": [-80.218193, 39.779971], "type": "Point"}, "id": "4ZPRMieeY9QrzZ3teaD4LT_V4WM=", "properties": {"@spider": "usps_collection_boxes", "addr:city": "SPRAGGS", "addr:country": "US", "addr:full": "115 SPRAGGS RD", "addr:postcode": "15362", "addr:state": "PA", "brand": "USPS", "collection_times": "Mo-Fr 11:00; Sa 10:45", "name": "USPS COLLECTION BOX - BLUE BOX", "ref": "1536200001"}, "type": "Feature"}
{"geometry": {"coordinates": [-80.217952, 39.780165], "type": "Point"}, "id": "xcDB0_67dfAC6hpoFPUBhAx3QDY=", "properties": {"@spider": "usps_collection_boxes", "addr:city": "SPRAGGS", "addr:country": "US", "addr:full": "115 SPRAGGS RD", "addr:postcode": "15362", "addr:state": "PA", "brand": "USPS", "collection_times": "Mo-Fr 11:00; Sa 10:45", "name": "USPS COLLECTION BOX - PO LOBBY", "ref": "1536200002"}, "type": "Feature"}
{"geometry": {"coordinates": [-80.2181011, 39.779964995], "type": "Point"}, "id": "PC8rArDhQQ9KEMg0qS4zFgD0Axw=", "properties": {"@spider": "usps_collection_boxes", "addr:city": "SPRAGGS", "addr:country": "US", "addr:full": "115 SPRAGGS RD", "addr:postcode": "15362", "addr:state": "PA", "brand": "USPS", "collection_times": "Mo-Fr 10:55; Sa 10:25", "name": "USPS COLLECTION BOX - PO LOBBY", "ref": "1536200004"}, "type": "Feature"}
{"geometry": {"coordinates": [-80.200269, 40.253537], "type": "Point"}, "id": "9xtA7HPPAG-SInCcHYYZJ9ETHT4=", "properties": {"@spider": "usps_collection_boxes", "addr:city": "STRABANE", "addr:country": "US", "addr:full": "218 LATIMER AVE", "addr:postcode": "15363", "addr:state": "PA", "brand": "USPS", "collection_times": "Mo-Fr 16:30; Sa 11:45", "name": "USPS COLLECTION BOX - BLUE BOX", "note": "ON 12/24 AND 12/31, THIS BOX MAY BE COLLECTED AS EARLY AS 12 NOON.", "ref": "1536300001"}, "type": "Feature"}
{"geometry": {"coordinates": [-80.200345, 40.253547], "type": "Point"}, "id": "q2d_qZvhvTlEyC3FbiI3CSI4A_M=", "properties": {"@spider": "usps_collection_boxes", "addr:city": "STRABANE", "addr:country": "US", "addr:full": "218 LATIMER AVE", "addr:postcode": "15363", "addr:state": "PA", "brand": "USPS", "collection_times": "Mo-Fr 16:30; Sa 11:45", "name": "USPS COLLECTION BOX - PO LOBBY", "note": "ON 12/24 AND 12/31, THIS BOX MAY BE COLLECTED AS EARLY AS 12 NOON.", "ref": "1536300002"}, "type": "Feature"}
{"geometry": {"coordinates": [-80.200345, 40.253547], "type": "Point"}, "id": "RNQYB5CTANOpNi3fwPJjCUB_jaY=", "properties": {"@spider": "usps_collection_boxes", "addr:city": "STRABANE", "addr:country": "US", "addr:full": "218 LATIMER AVE", "addr:postcode": "15363", "addr:state": "PA", "brand": "USPS", "collection_times": "Mo-Fr 16:30; Sa 11:45", "name": "USPS COLLECTION BOX - PO LOBBY", "note": "ON 12/24 AND 12/31, THIS BOX MAY BE COLLECTED AS EARLY AS 12 NOON.", "ref": "1536300003"}, "type": "Feature"}
{"geometry": {"coordinates": [-80.200289293, 40.253473731], "type": "Point"}, "id": "i8lfnCiRscisVHSDEg1sOucMltU=", "properties": {"@spider": "usps_collection_boxes", "addr:city": "STRABANE", "addr:country": "US", "addr:full": "218 LATIMER AVE", "addr:postcode": "15363", "addr:state": "PA", "brand": "USPS", "collection_times": "Mo-Fr 16:30; Sa 11:45", "name": "USPS COLLECTION BOX - PO LOBBY", "note": "ON 12/24 AND 12/31, THIS BOX MAY BE COLLECTED AS EARLY AS 12 NOON.", "ref": "1536300005"}, "type": "Feature"}
{"geometry": {"coordinates": [-80.244355, 39.928227], "type": "Point"}, "id": "avjLeNsHOEMHO4B1AjctyJkKD8M=", "properties": {"@spider": "usps_collection_boxes", "addr:city": "SYCAMORE", "addr:country": "US", "addr:full": "123 WW RAILROAD RD", "addr:postcode": "15364", "addr:state": "PA", "brand": "USPS", "collection_times": "Mo-Fr 11:55; Sa 10:45", "name": "USPS COLLECTION BOX - BLUE BOX", "ref": "1536400001"}, "type": "Feature"}
{"geometry": {"coordinates": [-80.244978, 39.927034], "type": "Point"}, "id": "jPJXLJS1e7whxGEUYHaH664fS5c=", "properties": {"@spider": "usps_collection_boxes", "addr:city": "SYCAMORE", "addr:country": "US", "addr:full": "123 WW RAILROAD RD", "addr:postcode": "15364", "addr:state": "PA", "brand": "USPS", "collection_times": "Mo-Fr 11:55; Sa 10:45", "name": "USPS COLLECTION BOX - PO LOBBY", "ref": "1536400002"}, "type": "Feature"}
{"geometry": {"coordinates": [-80.244273032, 39.928357351], "type": "Point"}, "id": "wCC-JyN6dbEvFDowv6geXrmZZRg=", "properties": {"@spider": "usps_collection_boxes", "addr:city": "SYCAMORE", "addr:country": "US", "addr:full": "123 WW RAILROAD RD", "addr:postcode": "15364", "addr:state": "PA", "brand": "USPS", "collection_times": "Mo-Fr 11:55; Sa 10:55", "name": "USPS COLLECTION BOX - PO LOBBY", "ref": "1536400004"}, "type": "Feature"}
{"geometry": {"coordinates": [-80.377572, 40.159964], "type": "Point"}, "id": "oxjmEk5uznFBI31lIf_HXoMymbM=", "properties": {"@spider": "usps_collection_boxes", "addr:city": "TAYLORSTOWN", "addr:country": "US", "addr:full": "56 MAIN ST", "addr:postcode": "15365", "addr:state": "PA", "brand": "USPS", "collection_times": "Mo-Fr 10:50; Sa 11:00", "name": "USPS COLLECTION BOX - BLUE BOX", "ref": "1536500001"}, "type": "Feature"}
{"geometry": {"coordinates": [-80.377659, 40.159971], "type": "Point"}, "id": "8_NfplcR0V98ccWMJu6HPb-4A20=", "properties": {"@spider": "usps_collection_boxes", "addr:city": "TAYLORSTOWN", "addr:country": "US", "addr:full": "56 MAIN ST", "addr:postcode": "15365", "addr:state": "PA", "brand": "USPS", "collection_times": "Mo-Fr 10:50; Sa 11:00", "name": "USPS COLLECTION BOX - PO LOBBY", "ref": "1536500002"}, "type": "Feature"}
{"geometry": {"coordinates": [-80.377811111, 40.159849821], "type": "Point"}, "id": "etxBXjqdzpgWUzUTn-rzlRXwVdM=", "properties": {"@spider": "usps_collection_boxes", "addr:city": "TAYLORSTOWN", "addr:country": "US", "addr:full": "56 MAIN ST", "addr:postcode": "15365", "addr:state": "PA", "brand": "USPS", "collection_times": "Mo-Fr 10:50; Sa 11:20", "name": "USPS COLLECTION BOX - PO LOBBY", "ref": "1536500004"}, "type": "Feature"}
{"geometry": {"coordinates": [-79.972658, 40.159128], "type": "Point"}, "id": "042J-gLBeRoohxSZMane14gdWSo=", "properties": {"@spider": "usps_collection_boxes", "addr:city": "VAN VOORHIS", "addr:country": "US", "addr:full": "1275 BENTLEYVILLE RD", "addr:postcode": "15366", "addr:state": "PA", "brand": "USPS", "collection_times": "Mo-Fr 10:50; Sa 12:00", "name": "USPS COLLECTION BOX - BLUE BOX", "ref": "1536600001"}, "type": "Feature"}
{"geometry": {"coordinates": [-79.972588, 40.158868], "type": "Point"}, "id": "nIIev3QFoYCC5rH7fDDeEilhYo8=", "properties": {"@spider": "usps_collection_boxes", "addr:city": "VAN VOORHIS", "addr:country": "US", "addr:full": "1275 BENTLEYVILLE RD", "addr:postcode": "15366", "addr:state": "PA", "brand": "USPS", "collection_times": "Mo-Fr 10:50; Sa 12:00", "name": "USPS COLLECTION BOX - PO LOBBY", "ref": "1536600002"}, "type": "Feature"}
{"geometry": {"coordinates": [-79.972375221, 40.159003127], "type": "Point"}, "id": "eVFI-3e0lBOhwRUY-BV_mcxMytw=", "properties": {"@spider": "usps_collection_boxes", "addr:city": "VAN VOORHIS", "addr:country": "US", "addr:full": "1275 BENTLEYVILLE RD", "addr:postcode": "15366", "addr:state": "PA", "brand": "USPS", "collection_times": "Mo-Fr 10:50; Sa 11:50", "name": "USPS COLLECTION BOX - PO LOBBY", "ref": "1536600004"}, "type": "Feature"}
{"geometry": {"coordinates": [-80.049606407, 40.245115456], "type": "Point"}, "id": "Jeo4kPHsrLmCypNKtjSU6xUEqSU=", "properties": {"@spider": "usps_collection_boxes", "addr:city": "VENETIA", "addr:country": "US", "addr:full": "500 VENETIA RD", "addr:postcode": "15367", "addr:state": "PA", "brand": "USPS", "collection_times": "Mo-Fr 16:30; Sa 12:00", "name": "USPS COLLECTION BOX - BLUE BOX", "note": "ON 12/24 AND 12/31, THIS BOX MAY BE COLLECTED AS EARLY AS 12 NOON.", "ref": "1536700001"}, "type": "Feature"}
{"geometry": {"coordinates": [-80.0614395, 40.285702], "type": "Point"}, "id": "QgTSs6yxeQ4eh-himnVQjbsXbwY=", "properties": {"@spider": "usps_collection_boxes", "addr:city": "VENETIA", "addr:country": "US", "addr:full": "199 QUAIL RUN RD", "addr:postcode": "15367", "addr:state": "PA", "brand": "USPS", "collection_times": "Mo-Sa 10:00", "name": "USPS COLLECTION BOX - BLUE BOX", "ref": "1536700002"}, "type": "Feature"}
{"geometry": {"coordinates": [-80.049606407, 40.245115456], "type": "Point"}, "id": "V0fkAdkDT8aCps2wtSvQtPQCfn4=", "properties": {"@spider": "usps_collection_boxes", "addr:city": "VENETIA", "addr:country": "US", "addr:full": "500 VENETIA RD", "addr:postcode": "15367", "addr:state": "PA", "brand": "USPS", "collection_times": "Mo-Fr 16:30; Sa 12:00", "name": "USPS COLLECTION BOX - PO LOBBY", "note": "ON 12/24 AND 12/31, THIS BOX MAY BE COLLECTED AS EARLY AS 12 NOON.", "ref": "1536700004"}, "type": "Feature"}
{"geometry": {"coordinates": [-80.049606407, 40.245115456], "type": "Point"}, "id": "nxtUVKJPSZsrqF2Fw2-LaZaFG2s=", "properties": {"@spider": "usps_collection_boxes", "addr:city": "VENETIA", "addr:country": "US", "addr:full": "500 VENETIA RD", "addr:postcode": "15367", "addr:state": "PA", "brand": "USPS", "collection_times": "Mo-Fr 16:30; Sa 12:00", "name": "USPS COLLECTION BOX - PO LOBBY", "note": "ON 12/24 AND 12/31, THIS BOX MAY BE COLLECTED AS EARLY AS 12 NOON.", "ref": "1536700005"}, "type": "Feature"}
{"geometry": {"coordinates": [-79.992046, 40.0145], "type": "Point"}, "id": "jFdrkKPcPheAH05rkqdDRU8HR9o=", "properties": {"@spider": "usps_collection_boxes", "addr:city": "VESTABURG", "addr:country": "US", "addr:full": "301 COMMUNITY ST", "addr:postcode": "15368", "addr:state": "PA", "brand": "USPS", "collection_times": "Mo-Fr 11:55; Sa 11:45", "name": "USPS COLLECTION BOX - BLUE BOX", "ref": "1536800001"}, "type": "Feature"}
{"geometry": {"coordinates": [-79.99196, 40.014433], "type": "Point"}, "id": "XRPTdYMHhjNXtGo3a21hNJyhHXw=", "properties": {"@spider": "usps_collection_boxes", "addr:city": "VESTABURG", "addr:country": "US", "addr:full": "301 COMMUNITY ST", "addr:postcode": "15368", "addr:state": "PA", "brand": "USPS", "collection_times": "Mo-Fr 11:55; Sa 11:45", "name": "USPS COLLECTION BOX - PO LOBBY", "ref": "1536800002"}, "type": "Feature"}
{"geometry": {"coordinates": [-79.992049802, 40.014438375], "type": "Point"}, "id": "ycY2laiRuuKiFdp9Kck_S2MKgr8=", "properties": {"@spider": "usps_collection_boxes", "addr:city": "VESTABURG", "addr:country": "US", "addr:full": "301 COMMUNITY ST", "addr:postcode": "15368", "addr:state": "PA", "brand": "USPS", "collection_times": "Mo-Fr 11:55; Sa 11:25", "name": "USPS COLLECTION BOX - PO LOBBY", "ref": "1536800004"}, "type": "Feature"}
{"geometry": {"coordinates": [-80.188456, 39.895094], "type": "Point"}, "id": "FXPTzclRZXtD2p4eCpIETCU7Cu4=", "properties": {"@spider": "usps_collection_boxes", "addr:city": "WAYNESBURG", "addr:country": "US", "addr:full": "120 S MORRIS ST", "addr:postcode": "15370", "addr:state": "PA", "brand": "USPS", "collection_times": "Mo-Fr 17:30; Sa 15:15", "name": "USPS COLLECTION BOX - BLUE BOX", "note": "ON 12/24 AND 12/31, THIS BOX MAY BE COLLECTED AS EARLY AS 12 NOON.", "ref": "1537000001"}, "type": "Feature"}
{"geometry": {"coordinates": [-80.1857768, 39.896472], "type": "Point"}, "id": "LeEHODg9bPD80Cp3w9BfiY62jb0=", "properties": {"@spider": "usps_collection_boxes", "addr:city": "WAYNESBURG", "addr:country": "US", "addr:full": "93 E HIGH ST", "addr:postcode": "15370", "addr:state": "PA", "brand": "USPS", "collection_times": "Mo-Fr 15:00; Sa 14:00", "name": "USPS COLLECTION BOX - BLUE BOX", "note": "ON 12/24 AND 12/31, THIS BOX MAY BE COLLECTED AS EARLY AS 12 NOON.", "ref": "1537000003"}, "type": "Feature"}
{"geometry": {"coordinates": [-80.1884121, 39.896612], "type": "Point"}, "id": "SRrlSeUi7c7wfQtag_9M8_8gdG4=", "properties": {"@spider": "usps_collection_boxes", "addr:city": "WAYNESBURG", "addr:country": "US", "addr:full": "77 W HIGH ST", "addr:postcode": "15370", "addr:state": "PA", "brand": "USPS", "collection_times": "Mo-Fr 15:00; Sa 14:00", "name": "USPS COLLECTION BOX - BLUE BOX", "note": "ON 12/24 AND 12/31, THIS BOX MAY BE COLLECTED AS EARLY AS 12 NOON.", "ref": "1537000005"}, "type": "Feature"}
{"geometry": {"coordinates": [-80.1685356, 39.896022], "type": "Point"}, "id": "iM_bZMTHxxMMDZdY5M-YHwqy4pc=", "properties": {"@spider": "usps_collection_boxes", "addr:city": "WAYNESBURG", "addr:country": "US", "addr:full": "1440 E HIGH ST", "addr:postcode": "15370", "addr:state": "PA", "brand": "USPS", "collection_times": "Mo-Sa 09:00", "name": "USPS COLLECTION BOX - BLUE BOX", "ref": "1537000007"}, "type": "Feature"}
{"geometry": {"coordinates": [-80.1466983, 39.897913], "type": "Point"}, "id": "n_Md6BcA0TWRXcbKAKD6-cXuR04=", "properties": {"@spider": "usps_collection_boxes", "addr:city": "WAYNESBURG", "addr:country": "US", "addr:full": "120 GREENE PLZ", "addr:postcode": "15370", "addr:state": "PA", "brand": "USPS", "collection_times": "Mo-Sa 10:00", "name": "USPS COLLECTION BOX - BLUE BOX", "ref": "1537000008"}, "type": "Feature"}
{"geometry": {"coordinates": [-80.1792437, 39.896443], "type": "Point"}, "id": "hSVBEltyZ3bL42pVM4azLUKzraE=", "properties": {"@spider": "usps_collection_boxes", "addr:city": "WAYNESBURG", "addr:country": "US", "addr:full": "595 E HIGH ST", "addr:postcode": "15370", "addr:state": "PA", "brand": "USPS", "collection_times": "Mo-Fr 15:00; Sa 14:00", "name": "USPS COLLECTION BOX - BLUE BOX", "note": "ON 12/24 AND 12/31, THIS BOX MAY BE COLLECTED AS EARLY AS 12 NOON.", "ref": "1537000009"}, "type": "Feature"}
{"geometry": {"coordinates": [-80.1869419, 39.896535], "type": "Point"}, "id": "vSykgJ9D5tpJSSmm-lSwiLyQxwo=", "properties": {"@spider": "usps_collection_boxes", "addr:city": "WAYNESBURG", "addr:country": "US", "addr:full": "1 W HIGH ST", "addr:postcode": "15370", "addr:state": "PA", "brand": "USPS", "collection_times": "Mo-Fr 15:00; Sa 14:00", "name": "USPS COLLECTION BOX - BLUE BOX", "note": "ON 12/24 AND 12/31, THIS BOX MAY BE COLLECTED AS EARLY AS 12 NOON.", "ref": "1537000010"}, "type": "Feature"}
{"geometry": {"coordinates": [-80.1683991, 39.894638], "type": "Point"}, "id": "PI4LKe-GQPs91QvxAe8nhcJ9LWQ=", "properties": {"@spider": "usps_collection_boxes", "addr:city": "WAYNESBURG", "addr:country": "US", "addr:full": "100 SUGAR RUN RD", "addr:postcode": "15370", "addr:state": "PA", "brand": "USPS", "collection_times": "Mo-Sa 09:00", "name": "USPS COLLECTION BOX - BLUE BOX", "ref": "1537000014"}, "type": "Feature"}
{"geometry": {"coordinates": [-80.1881427, 39.895052], "type": "Point"}, "id": "lgUOmpoYGTDgj1LpPvmJbcC7kN8=", "properties": {"@spider": "usps_collection_boxes", "addr:city": "WAYNESBURG", "addr:country": "US", "addr:full": "120 S MORRIS ST LBBY", "addr:postcode": "15370", "addr:state": "PA", "brand": "USPS", "collection_times": "Mo-Fr 17:30; Sa 15:15", "name": "USPS COLLECTION BOX - PO LOBBY", "note": "ON 12/24 AND 12/31, THIS BOX MAY BE COLLECTED AS EARLY AS 12 NOON.", "ref": "1537000022"}, "type": "Feature"}
{"geometry": {"coordinates": [-80.1381561, 39.90448], "type": "Point"}, "id": "8Q2kHsuXL9T3W21dzKAHKEUAEtA=", "properties": {"@spider": "usps_collection_boxes", "addr:city": "WAYNESBURG", "addr:country": "US", "addr:full": "175 PROGRESS DR", "addr:postcode": "15370", "addr:state": "PA", "brand": "USPS", "collection_times": "Mo-Sa 09:00", "name": "USPS COLLECTION BOX - BLUE BOX", "ref": "1537000024"}, "type": "Feature"}
{"geometry": {"coordinates": [-80.188445369, 39.895107402], "type": "Point"}, "id": "iaFe2bYh6n5ybjMZTuVQyogBCK4=", "properties": {"@spider": "usps_collection_boxes", "addr:city": "WAYNESBURG", "addr:country": "US", "addr:full": "120 S MORRIS ST", "addr:postcode": "15370", "addr:state": "PA", "brand": "USPS", "collection_times": "Mo-Fr 17:00; Sa 12:00", "name": "USPS COLLECTION BOX - PO LOBBY", "note": "ON 12/24 AND 12/31, THIS BOX MAY BE COLLECTED AS EARLY AS 12 NOON.", "ref": "1537000028"}, "type": "Feature"}
{"geometry": {"coordinates": [-80.508799, 40.106582], "type": "Point"}, "id": "DebCwVG4oMXOsDh86uK27oD7sMQ=", "properties": {"@spider": "usps_collection_boxes", "addr:city": "WEST ALEXANDER", "addr:country": "US", "addr:full": "35 N LIBERTY RD", "addr:postcode": "15376", "addr:state": "PA", "brand": "USPS", "collection_times": "Mo-Fr 16:30; Sa 12:00", "name": "USPS COLLECTION BOX - BLUE BOX", "note": "ON 12/24 AND 12/31, THIS BOX MAY BE COLLECTED AS EARLY AS 12 NOON.", "ref": "1537600001"}, "type": "Feature"}
{"geometry": {"coordinates": [-80.5056773506, 40.1303358559], "type": "Point"}, "id": "s6vWVmuaKQ5cPREMb9JeKnBlnGM=", "properties": {"@spider": "usps_collection_boxes", "addr:city": "WEST ALEXANDER", "addr:country": "US", "addr:full": "106 MAIN RD", "addr:postcode": "15376", "addr:state": "PA", "brand": "USPS", "collection_times": "Mo-Sa 09:00", "name": "USPS COLLECTION BOX - BLUE BOX", "ref": "1537600002"}, "type": "Feature"}
{"geometry": {"coordinates": [-80.50877, 40.106673], "type": "Point"}, "id": "bV6fWYn5E2wxjpPDqKCnfznNGbQ=", "properties": {"@spider": "usps_collection_boxes", "addr:city": "WEST ALEXANDER", "addr:country": "US", "addr:full": "35 N LIBERTY RD", "addr:postcode": "15376", "addr:state": "PA", "brand": "USPS", "collection_times": "Mo-Fr 16:30; Sa 12:00", "name": "USPS COLLECTION BOX - PO LOBBY", "note": "ON 12/24 AND 12/31, THIS BOX MAY BE COLLECTED AS EARLY AS 12 NOON.", "ref": "1537600007"}, "type": "Feature"}
{"geometry": {"coordinates": [-80.50877, 40.106673], "type": "Point"}, "id": "MoLS2Jb-xY2V-yjxEsSPLYxlrGY=", "properties": {"@spider": "usps_collection_boxes", "addr:city": "WEST ALEXANDER", "addr:country": "US", "addr:full": "35 N LIBERTY RD", "addr:postcode": "15376", "addr:state": "PA", "brand": "USPS", "collection_times": "Mo-Fr 16:30; Sa 12:00", "name": "USPS COLLECTION BOX - PO LOBBY", "note": "ON 12/24 AND 12/31, THIS BOX MAY BE COLLECTED AS EARLY AS 12 NOON.", "ref": "1537600008"}, "type": "Feature"}
{"geometry": {"coordinates": [-80.50879677, 40.10654766], "type": "Point"}, "id": "90XwfooU7f1_bl92MMomsmx8ePo=", "properties": {"@spider": "usps_collection_boxes", "addr:city": "WEST ALEXANDER", "addr:country": "US", "addr:full": "35 N LIBERTY RD", "addr:postcode": "15376", "addr:state": "PA", "brand": "USPS", "collection_times": "Mo-Fr 16:30; Sa 12:00", "name": "USPS COLLECTION BOX - PO LOBBY", "note": "ON 12/24 AND 12/31, THIS BOX MAY BE COLLECTED AS EARLY AS 12 NOON.", "ref": "1537600010"}, "type": "Feature"}
{"geometry": {"coordinates": [-80.46347, 39.99296], "type": "Point"}, "id": "CM7UGM8rIWNdh4GboBEyVe2GVOk=", "properties": {"@spider": "usps_collection_boxes", "addr:city": "WEST FINLEY", "addr:country": "US", "addr:full": "487 W FINLEY RD", "addr:postcode": "15377", "addr:state": "PA", "brand": "USPS", "collection_times": "Mo-Fr 16:00; Sa 11:45", "name": "USPS COLLECTION BOX - BLUE BOX", "note": "ON 12/24 AND 12/31, THIS BOX MAY BE COLLECTED AS EARLY AS 12 NOON.", "ref": "1537700001"}, "type": "Feature"}
{"geometry": {"coordinates": [-80.463489, 39.993053], "type": "Point"}, "id": "8oO3k0ksJx1v025z3dnhkBS8S54=", "properties": {"@spider": "usps_collection_boxes", "addr:city": "WEST FINLEY", "addr:country": "US", "addr:full": "487 W FINLEY RD", "addr:postcode": "15377", "addr:state": "PA", "brand": "USPS", "collection_times": "Mo-Fr 16:00; Sa 11:45", "name": "USPS COLLECTION BOX - PO LOBBY", "note": "ON 12/24 AND 12/31, THIS BOX MAY BE COLLECTED AS EARLY AS 12 NOON.", "ref": "1537700002"}, "type": "Feature"}
{"geometry": {"coordinates": [-80.46322631, 39.992590834], "type": "Point"}, "id": "ViUISFJQeHFVnijPySb2XnYNpEs=", "properties": {"@spider": "usps_collection_boxes", "addr:city": "WEST FINLEY", "addr:country": "US", "addr:full": "487 W FINLEY RD", "addr:postcode": "15377", "addr:state": "PA", "brand": "USPS", "collection_times": "Mo-Fr 16:10; Sa 11:55", "name": "USPS COLLECTION BOX - PO LOBBY", "note": "ON 12/24 AND 12/31, THIS BOX MAY BE COLLECTED AS EARLY AS 12 NOON.", "ref": "1537700004"}, "type": "Feature"}
{"geometry": {"coordinates": [-80.273854, 40.27847], "type": "Point"}, "id": "YYMGSkKD8yYpO-3JUBXdg2geYIQ=", "properties": {"@spider": "usps_collection_boxes", "addr:city": "WESTLAND", "addr:country": "US", "addr:full": "428 WESTLAND RD", "addr:postcode": "15378", "addr:state": "PA", "brand": "USPS", "collection_times": "Mo-Fr 10:50; Sa 11:30", "name": "USPS COLLECTION BOX - BLUE BOX", "ref": "1537800001"}, "type": "Feature"}
{"geometry": {"coordinates": [-80.27419, 40.278654], "type": "Point"}, "id": "RxvhPq9vVg6gNuzRbkWcpu9gu_Q=", "properties": {"@spider": "usps_collection_boxes", "addr:city": "WESTLAND", "addr:country": "US", "addr:full": "428 WESTLAND RD", "addr:postcode": "15378", "addr:state": "PA", "brand": "USPS", "collection_times": "Mo-Fr 10:50; Sa 11:30", "name": "USPS COLLECTION BOX - PO LOBBY", "ref": "1537800002"}, "type": "Feature"}
{"geometry": {"coordinates": [-80.273988945, 40.278486163], "type": "Point"}, "id": "qB412X459qNqdGAhFb-ladgsmwc=", "properties": {"@spider": "usps_collection_boxes", "addr:city": "WESTLAND", "addr:country": "US", "addr:full": "428 WESTLAND RD", "addr:postcode": "15378", "addr:state": "PA", "brand": "USPS", "collection_times": "Mo-Fr 10:50; Sa 11:20", "name": "USPS COLLECTION BOX - PO LOBBY", "ref": "1537800004"}, "type": "Feature"}
{"geometry": {"coordinates": [-80.420507, 40.242244], "type": "Point"}, "id": "-vkrikyKp3CVtYhkJeoIpxUQo_U=", "properties": {"@spider": "usps_collection_boxes", "addr:city": "WEST MIDDLETOWN", "addr:country": "US", "addr:full": "109 E MAIN ST", "addr:postcode": "15379", "addr:state": "PA", "brand": "USPS", "collection_times": "Mo-Fr 12:00; Sa 11:30", "name": "USPS COLLECTION BOX - BLUE BOX", "ref": "1537900001"}, "type": "Feature"}
{"geometry": {"coordinates": [-80.420507, 40.242244], "type": "Point"}, "id": "CwLQf5y3hpZJPWj1AHcmDFO0BDk=", "properties": {"@spider": "usps_collection_boxes", "addr:city": "WEST MIDDLETOWN", "addr:country": "US", "addr:full": "109 E MAIN ST", "addr:postcode": "15379", "addr:state": "PA", "brand": "USPS", "collection_times": "Mo-Fr 12:00; Sa 11:30", "name": "USPS COLLECTION BOX - PO LOBBY", "ref": "1537900002"}, "type": "Feature"}
{"geometry": {"coordinates": [-80.420553398, 40.242416587], "type": "Point"}, "id": "ewTPavpOuLo96lIW18FqkaLubEM=", "properties": {"@spider": "usps_collection_boxes", "addr:city": "WEST MIDDLETOWN", "addr:country": "US", "addr:full": "109 E MAIN ST", "addr:postcode": "15379", "addr:state": "PA", "brand": "USPS", "collection_times": "Mo-Fr 11:55; Sa 11:25", "name": "USPS COLLECTION BOX - PO LOBBY", "ref": "1537900004"}, "type": "Feature"}
{"geometry": {"coordinates": [-80.435478, 39.912537], "type": "Point"}, "id": "rdUOgMgTtYyabfxfbAu2eP-Vkgs=", "properties": {"@spider": "usps_collection_boxes", "addr:city": "WIND RIDGE", "addr:country": "US", "addr:full": "466 W ROY FURMAN HWY", "addr:postcode": "15380", "addr:state": "PA", "brand": "USPS", "collection_times": "Mo-Fr 12:55; Sa 12:00", "name": "USPS COLLECTION BOX - BLUE BOX", "note": "ON 12/24 AND 12/31, THIS BOX MAY BE COLLECTED AS EARLY AS 12 NOON.", "ref": "1538000001"}, "type": "Feature"}
{"geometry": {"coordinates": [-80.435478, 39.912537], "type": "Point"}, "id": "zvRaTuVCfzWi3SbwwiWPlfhA_2g=", "properties": {"@spider": "usps_collection_boxes", "addr:city": "WIND RIDGE", "addr:country": "US", "addr:full": "466 W ROY FURMAN HWY", "addr:postcode": "15380", "addr:state": "PA", "brand": "USPS", "collection_times": "Mo-Fr 12:55; Sa 12:00", "name": "USPS COLLECTION BOX - PO LOBBY", "note": "ON 12/24 AND 12/31, THIS BOX MAY BE COLLECTED AS EARLY AS 12 NOON.", "ref": "1538000004"}, "type": "Feature"}
{"geometry": {"coordinates": [-80.435477096, 39.912535321], "type": "Point"}, "id": "qmqMF1wYpMKoEn5j3bzuOzg4e5Y=", "properties": {"@spider": "usps_collection_boxes", "addr:city": "WIND RIDGE", "addr:country": "US", "addr:full": "466 W ROY FURMAN HWY", "addr:postcode": "15380", "addr:state": "PA", "brand": "USPS", "collection_times": "Mo-Fr 12:55; Sa 11:55", "name": "USPS COLLECTION BOX - PO LOBBY", "note": "ON 12/24 AND 12/31, THIS BOX MAY BE COLLECTED AS EARLY AS 12 NOON.", "ref": "1538000006"}, "type": "Feature"}
