{"geometry": {"coordinates": [-79.723775, 39.897738], "type": "Point"}, "id": "CD6VLVZmA-hjGf5XUOEg4oK4mJw=", "properties": {"@source_uri": "https://tools.usps.com/UspsToolsRestServices/rest/POLocator/findLocations", "@spider": "usps_collection_boxes", "addr:city": "UNIONTOWN", "addr:country": "US", "addr:postcode": "15401", "addr:state": "PA", "addr:street_address": "47 E FAYETTE ST", "amenity": "post_box", "collection_times": "Mo-Fr 18:00; Sa 17:00", "note": "ON 12/24 AND 12/31, THIS BOX MAY BE COLLECTED AS EARLY AS 12 NOON.", "nsi_id": "unitedstatespostalservice-a77078", "operator": "United States Postal Service", "operator:short": "USPS", "operator:type": "public", "operator:wikidata": "Q668687", "ref": "1540100002"}, "type": "Feature"}
{"geometry": {"coordinates": [-79.7112699, 39.911984], "type": "Point"}, "id": "VQIdrsHqMk-KUYWVIVo-r0zj3SY=", "properties": {"@source_uri": "https://tools.usps.com/UspsToolsRestServices/rest/POLocator/findLocations", "@spider": "usps_collection_boxes", "addr:city": "UNIONTOWN", "addr:country": "US", "addr:postcode": "15401", "addr:state": "PA", "addr:street_address": "450 N GALLATIN AVE", "amenity": "post_box", "collection_times": "Mo-Sa 12:00", "nsi_id": "unitedstatespostalservice-a77078", "operator": "United States Postal Service", "operator:short": "USPS", "operator:type": "public", "operator:wikidata": "Q668687", "ref": "1540100004"}, "type": "Feature"}
{"geometry": {"coordinates": [-79.7252852, 39.901156], "type": "Point"}, "id": "jsJl6YjxG-6hDwXpFeRyh7RrRAQ=", "properties": {"@source_uri": "https://tools.usps.com/UspsToolsRestServices/rest/POLocator/findLocations", "@spider": "usps_collection_boxes", "addr:city": "UNIONTOWN", "addr:country": "US", "addr:postcode": "15401", "addr:state": "PA", "addr:street_address": "2 E MAIN ST", "amenity": "post_box", "collection_times": "Mo-Fr 17:00; Sa 16:00", "note": "ON 12/24 AND 12/31, THIS BOX MAY BE COLLECTED AS EARLY AS 12 NOON.", "nsi_id": "unitedstatespostalservice-a77078", "operator": "United States Postal Service", "operator:short": "USPS", "operator:type": "public", "operator:wikidata": "Q668687", "ref": "1540100007"}, "type": "Feature"}
{"geometry": {"coordinates": [-79.7337676, 39.898929], "type": "Point"}, "id": "1KCnCg-dmhbmqxiTLsw7LAf5sFU=", "properties": {"@source_uri": "https://tools.usps.com/UspsToolsRestServices/rest/POLocator/findLocations", "@spider": "usps_collection_boxes", "addr:city": "UNIONTOWN", "addr:country": "US", "addr:postcode": "15401", "addr:state": "PA", "addr:street_address": "83 S MOUNT VERNON AVE", "amenity": "post_box", "collection_times": "Mo-Fr 13:00; Sa 15:00", "note": "ON 12/24 AND 12/31, THIS BOX MAY BE COLLECTED AS EARLY AS 12 NOON.", "nsi_id": "unitedstatespostalservice-a77078", "operator": "United States Postal Service", "operator:short": "USPS", "operator:type": "public", "operator:wikidata": "Q668687", "ref": "1540100010"}, "type": "Feature"}
{"geometry": {"coordinates": [-79.7225228, 39.900242], "type": "Point"}, "id": "jDX_er4KdSeNEhcukak6Bhotzy8=", "properties": {"@source_uri": "https://tools.usps.com/UspsToolsRestServices/rest/POLocator/findLocations", "@spider": "usps_collection_boxes", "addr:city": "UNIONTOWN", "addr:country": "US", "addr:postcode": "15401", "addr:state": "PA", "addr:street_address": "62 E CHURCH ST", "amenity": "post_box", "collection_times": "Mo-Fr 17:00; Sa 16:00", "note": "ON 12/24 AND 12/31, THIS BOX MAY BE COLLECTED AS EARLY AS 12 NOON.", "nsi_id": "unitedstatespostalservice-a77078", "operator": "United States Postal Service", "operator:short": "USPS", "operator:type": "public", "operator:wikidata": "Q668687", "ref": "1540100015"}, "type": "Feature"}
{"geometry": {"coordinates": [-79.7381742, 39.893834], "type": "Point"}, "id": "2tfJVwfjRPomtPYsh-CEc-tLFLc=", "properties": {"@source_uri": "https://tools.usps.com/UspsToolsRestServices/rest/POLocator/findLocations", "@spider": "usps_collection_boxes", "addr:city": "UNIONTOWN", "addr:country": "US", "addr:postcode": "15401", "addr:state": "PA", "addr:street_address": "66 LEBANON AVE", "amenity": "post_box", "collection_times": "Mo-Fr 17:00; Sa 16:45", "note": "ON 12/24 AND 12/31, THIS BOX MAY BE COLLECTED AS EARLY AS 12 NOON.", "nsi_id": "unitedstatespostalservice-a77078", "operator": "United States Postal Service", "operator:short": "USPS", "operator:type": "public", "operator:wikidata": "Q668687", "ref": "1540100017"}, "type": "Feature"}
{"geometry": {"coordinates": [-79.7417623, 39.901266], "type": "Point"}, "id": "RCjUh2MiPOdhIftcaEz6ezKZLvw=", "properties": {"@source_uri": "https://tools.usps.com/UspsToolsRestServices/rest/POLocator/findLocations", "@spider": "usps_collection_boxes", "addr:city": "UNIONTOWN", "addr:country": "US", "addr:postcode": "15401", "addr:state": "PA", "addr:street_address": "199 DELAWARE AVE", "amenity": "post_box", "collection_times": "Mo-Sa 12:45", "note": "ON 12/24 AND 12/31, THIS BOX MAY BE COLLECTED AS EARLY AS 12 NOON.", "nsi_id": "unitedstatespostalservice-a77078", "operator": "United States Postal Service", "operator:short": "USPS", "operator:type": "public", "operator:wikidata": "Q668687", "ref": "1540100018"}, "type": "Feature"}
{"geometry": {"coordinates": [-79.7378689, 39.900817], "type": "Point"}, "id": "zTcaxsP2H0pf9ZJhqlHlYZ5e4q8=", "properties": {"@source_uri": "https://tools.usps.com/UspsToolsRestServices/rest/POLocator/findLocations", "@spider": "usps_collection_boxes", "addr:city": "UNIONTOWN", "addr:country": "US", "addr:postcode": "15401", "addr:state": "PA", "addr:street_address": "100 WOODLAWN AVE", "amenity": "post_box", "collection_times": "Mo-Sa 12:45", "note": "ON 12/24 AND 12/31, THIS BOX MAY BE COLLECTED AS EARLY AS 12 NOON.", "nsi_id": "unitedstatespostalservice-a77078", "operator": "United States Postal Service", "operator:short": "USPS", "operator:type": "public", "operator:wikidata": "Q668687", "ref": "1540100019"}, "type": "Feature"}
{"geometry": {"coordinates": [-79.7406284, 39.894212], "type": "Point"}, "id": "Kh_1b0elxGoKAeBzH69dDUU5SAU=", "properties": {"@source_uri": "https://tools.usps.com/UspsToolsRestServices/rest/POLocator/findLocations", "@spider": "usps_collection_boxes", "addr:city": "UNIONTOWN", "addr:country": "US", "addr:postcode": "15401", "addr:state": "PA", "addr:street_address": "360 S MOUNT VERNON AVE", "amenity": "post_box", "collection_times": "Mo-Sa 12:30", "note": "ON 12/24 AND 12/31, THIS BOX MAY BE COLLECTED AS EARLY AS 12 NOON.", "nsi_id": "unitedstatespostalservice-a77078", "operator": "United States Postal Service", "operator:short": "USPS", "operator:type": "public", "operator:wikidata": "Q668687", "ref": "1540100021"}, "type": "Feature"}
{"geometry": {"coordinates": [-79.726774167, 39.9015579421], "type": "Point"}, "id": "UXyhHvb96bsSjpEDzglKxEv0EGw=", "properties": {"@source_uri": "https://tools.usps.com/UspsToolsRestServices/rest/POLocator/findLocations", "@spider": "usps_collection_boxes", "addr:city": "UNIONTOWN", "addr:country": "US", "addr:postcode": "15401", "addr:state": "PA", "addr:street_address": "35 W PETER ST", "amenity": "post_box", "collection_times": "Mo-Sa 16:30", "note": "ON 12/24 AND 12/31, THIS BOX MAY BE COLLECTED AS EARLY AS 12 NOON.", "nsi_id": "unitedstatespostalservice-a77078", "operator": "United States Postal Service", "operator:short": "USPS", "operator:type": "public", "operator:wikidata": "Q668687", "ref": "1540100025"}, "type": "Feature"}
{"geometry": {"coordinates": [-79.7274199, 39.898995], "type": "Point"}, "id": "zA6Sk9C24nfvY5-5JhyNkmE_Ca0=", "properties": {"@source_uri": "https://tools.usps.com/UspsToolsRestServices/rest/POLocator/findLocations", "@spider": "usps_collection_boxes", "addr:city": "UNIONTOWN", "addr:country": "US", "addr:postcode": "15401", "addr:state": "PA", "addr:street_address": "54 W FAYETTE ST", "amenity": "post_box", "collection_times": "Mo-Fr 17:00; Sa 16:45", "note": "ON 12/24 AND 12/31, THIS BOX MAY BE COLLECTED AS EARLY AS 12 NOON.", "nsi_id": "unitedstatespostalservice-a77078", "operator": "United States Postal Service", "operator:short": "USPS", "operator:type": "public", "operator:wikidata": "Q668687", "ref": "1540100027"}, "type": "Feature"}
{"geometry": {"coordinates": [-79.7301615, 39.900092], "type": "Point"}, "id": "IUOuXBqpC-ysMLoNAbO0fNvcOmc=", "properties": {"@source_uri": "https://tools.usps.com/UspsToolsRestServices/rest/POLocator/findLocations", "@spider": "usps_collection_boxes", "addr:city": "UNIONTOWN", "addr:country": "US", "addr:postcode": "15401", "addr:state": "PA", "addr:street_address": "120 W FAYETTE ST", "amenity": "post_box", "collection_times": "Mo-Fr 17:00; Sa 16:45", "note": "ON 12/24 AND 12/31, THIS BOX MAY BE COLLECTED AS EARLY AS 12 NOON.", "nsi_id": "unitedstatespostalservice-a77078", "operator": "United States Postal Service", "operator:short": "USPS", "operator:type": "public", "operator:wikidata": "Q668687", "ref": "1540100030"}, "type": "Feature"}
{"geometry": {"coordinates": [-79.7369499, 39.896847], "type": "Point"}, "id": "VVRZAfh5IR4R8zLxPrA3EF59AOA=", "properties": {"@source_uri": "https://tools.usps.com/UspsToolsRestServices/rest/POLocator/findLocations", "@spider": "usps_collection_boxes", "addr:city": "UNIONTOWN", "addr:country": "US", "addr:postcode": "15401", "addr:state": "PA", "addr:street_address": "172 S MOUNT VERNON AVE", "amenity": "post_box", "collection_times": "Mo-Fr 12:45; Sa 15:00", "note": "ON 12/24 AND 12/31, THIS BOX MAY BE COLLECTED AS EARLY AS 12 NOON.", "nsi_id": "unitedstatespostalservice-a77078", "operator": "United States Postal Service", "operator:short": "USPS", "operator:type": "public", "operator:wikidata": "Q668687", "ref": "1540100032"}, "type": "Feature"}
{"geometry": {"coordinates": [-79.7215816, 39.90698], "type": "Point"}, "id": "l-IYKiTkbsasnCI_npPHS6ufhfI=", "properties": {"@source_uri": "https://tools.usps.com/UspsToolsRestServices/rest/POLocator/findLocations", "@spider": "usps_collection_boxes", "addr:city": "UNIONTOWN", "addr:country": "US", "addr:postcode": "15401", "addr:state": "PA", "addr:street_address": "180 N GALLATIN AVE", "amenity": "post_box", "collection_times": "Mo-Sa 12:30", "note": "ON 12/24 AND 12/31, THIS BOX MAY BE COLLECTED AS EARLY AS 12 NOON.", "nsi_id": "unitedstatespostalservice-a77078", "operator": "United States Postal Service", "operator:short": "USPS", "operator:type": "public", "operator:wikidata": "Q668687", "ref": "1540100036"}, "type": "Feature"}
{"geometry": {"coordinates": [-79.7228639, 39.901264], "type": "Point"}, "id": "JfEPWKof4AbA0nLvbRr679cw7qE=", "properties": {"@source_uri": "https://tools.usps.com/UspsToolsRestServices/rest/POLocator/findLocations", "@spider": "usps_collection_boxes", "addr:city": "UNIONTOWN", "addr:country": "US", "addr:postcode": "15401", "addr:state": "PA", "addr:street_address": "61 E MAIN ST", "amenity": "post_box", "collection_times": "Mo-Sa 17:00", "note": "ON 12/24 AND 12/31, THIS BOX MAY BE COLLECTED AS EARLY AS 12 NOON.", "nsi_id": "unitedstatespostalservice-a77078", "operator": "United States Postal Service", "operator:short": "USPS", "operator:type": "public", "operator:wikidata": "Q668687", "ref": "1540100041"}, "type": "Feature"}
{"geometry": {"coordinates": [-79.7187634, 39.899412], "type": "Point"}, "id": "Lv2TrUN_zayZxv9uh4J73-TW2nk=", "properties": {"@source_uri": "https://tools.usps.com/UspsToolsRestServices/rest/POLocator/findLocations", "@spider": "usps_collection_boxes", "addr:city": "UNIONTOWN", "addr:country": "US", "addr:postcode": "15401", "addr:state": "PA", "addr:street_address": "176 E MAIN ST", "amenity": "post_box", "collection_times": "Mo-Sa 17:00", "note": "ON 12/24 AND 12/31, THIS BOX MAY BE COLLECTED AS EARLY AS 12 NOON.", "nsi_id": "unitedstatespostalservice-a77078", "operator": "United States Postal Service", "operator:short": "USPS", "operator:type": "public", "operator:wikidata": "Q668687", "ref": "1540100043"}, "type": "Feature"}
{"geometry": {"coordinates": [-79.7289769, 39.90092], "type": "Point"}, "id": "B1G6kFPcoJxFjr7T5Ws6UfUm8yA=", "properties": {"@source_uri": "https://tools.usps.com/UspsToolsRestServices/rest/POLocator/findLocations", "@spider": "usps_collection_boxes", "addr:city": "UNIONTOWN", "addr:country": "US", "addr:postcode": "15401", "addr:state": "PA", "addr:street_address": "107 W MAIN ST", "amenity": "post_box", "collection_times": "Mo-Sa 17:00", "note": "ON 12/24 AND 12/31, THIS BOX MAY BE COLLECTED AS EARLY AS 12 NOON.", "nsi_id": "unitedstatespostalservice-a77078", "operator": "United States Postal Service", "operator:short": "USPS", "operator:type": "public", "operator:wikidata": "Q668687", "ref": "1540100048"}, "type": "Feature"}
{"geometry": {"coordinates": [-79.7473554, 39.908265], "type": "Point"}, "id": "Y_p6FxEO8clSq3WZ4e4udbD9rGo=", "properties": {"@source_uri": "https://tools.usps.com/UspsToolsRestServices/rest/POLocator/findLocations", "@spider": "usps_collection_boxes", "addr:city": "UNIONTOWN", "addr:country": "US", "addr:postcode": "15401", "addr:state": "PA", "addr:street_address": "1366 MALL RUN RD", "amenity": "post_box", "collection_times": "Mo-Fr 17:00; Sa 16:00", "note": "ON 12/24 AND 12/31, THIS BOX MAY BE COLLECTED AS EARLY AS 12 NOON.", "nsi_id": "unitedstatespostalservice-a77078", "operator": "United States Postal Service", "operator:short": "USPS", "operator:type": "public", "operator:wikidata": "Q668687", "ref": "1540100051"}, "type": "Feature"}
{"geometry": {"coordinates": [-79.7346116, 39.90328], "type": "Point"}, "id": "YYFSA9frlIQ8Qnu3Bs8dVUFgf5g=", "properties": {"@source_uri": "https://tools.usps.com/UspsToolsRestServices/rest/POLocator/findLocations", "@spider": "usps_collection_boxes", "addr:city": "UNIONTOWN", "addr:country": "US", "addr:postcode": "15401", "addr:state": "PA", "addr:street_address": "264 W MAIN ST", "amenity": "post_box", "collection_times": "Mo-Fr 17:00; Sa 16:00", "note": "ON 12/24 AND 12/31, THIS BOX MAY BE COLLECTED AS EARLY AS 12 NOON.", "nsi_id": "unitedstatespostalservice-a77078", "operator": "United States Postal Service", "operator:short": "USPS", "operator:type": "public", "operator:wikidata": "Q668687", "ref": "1540100053"}, "type": "Feature"}
{"geometry": {"coordinates": [-79.7370658, 39.885892], "type": "Point"}, "id": "ABdiFCGdL8fUWmyg9tRFTFw3Br8=", "properties": {"@source_uri": "https://tools.usps.com/UspsToolsRestServices/rest/POLocator/findLocations", "@spider": "usps_collection_boxes", "addr:city": "UNIONTOWN", "addr:country": "US", "addr:postcode": "15401", "addr:state": "PA", "addr:street_address": "10 METRO PLZ", "amenity": "post_box", "collection_times": "Mo-Fr 17:00; Sa 16:30", "note": "ON 12/24 AND 12/31, THIS BOX MAY BE COLLECTED AS EARLY AS 12 NOON.", "nsi_id": "unitedstatespostalservice-a77078", "operator": "United States Postal Service", "operator:short": "USPS", "operator:type": "public", "operator:wikidata": "Q668687", "ref": "1540100055"}, "type": "Feature"}
{"geometry": {"coordinates": [-79.737835, 39.902281], "type": "Point"}, "id": "Hn_Q5snfGmWzOc_lSd-dM0Pffaw=", "properties": {"@source_uri": "https://tools.usps.com/UspsToolsRestServices/rest/POLocator/findLocations", "@spider": "usps_collection_boxes", "addr:city": "UNIONTOWN", "addr:country": "US", "addr:postcode": "15401", "addr:state": "PA", "addr:street_address": "500 W BERKELEY ST", "amenity": "post_box", "collection_times": "Mo-Fr 14:00; Sa 12:00", "note": "ON 12/24 AND 12/31, THIS BOX MAY BE COLLECTED AS EARLY AS 12 NOON.", "nsi_id": "unitedstatespostalservice-a77078", "operator": "United States Postal Service", "operator:short": "USPS", "operator:type": "public", "operator:wikidata": "Q668687", "ref": "1540100057"}, "type": "Feature"}
{"geometry": {"coordinates": [-79.7341564, 39.884111], "type": "Point"}, "id": "D5Wqz48QIhClr_6IncsyZx8Uyqs=", "properties": {"@source_uri": "https://tools.usps.com/UspsToolsRestServices/rest/POLocator/findLocations", "@spider": "usps_collection_boxes", "addr:city": "UNIONTOWN", "addr:country": "US", "addr:postcode": "15401", "addr:state": "PA", "addr:street_address": "946 MORGANTOWN RD", "amenity": "post_box", "collection_times": "Mo-Fr 17:30; Sa 16:30", "note": "ON 12/24 AND 12/31, THIS BOX MAY BE COLLECTED AS EARLY AS 12 NOON.", "nsi_id": "unitedstatespostalservice-a77078", "operator": "United States Postal Service", "operator:short": "USPS", "operator:type": "public", "operator:wikidata": "Q668687", "ref": "1540100058"}, "type": "Feature"}
{"geometry": {"coordinates": [-79.7333444, 39.892303], "type": "Point"}, "id": "e86popfzuVybgfqAT1voCvXLqGY=", "properties": {"@source_uri": "https://tools.usps.com/UspsToolsRestServices/rest/POLocator/findLocations", "@spider": "usps_collection_boxes", "addr:city": "UNIONTOWN", "addr:country": "US", "addr:postcode": "15401", "addr:state": "PA", "addr:street_address": "315 MORGANTOWN ST", "amenity": "post_box", "collection_times": "Mo-Sa 12:00", "nsi_id": "unitedstatespostalservice-a77078", "operator": "United States Postal Service", "operator:short": "USPS", "operator:type": "public", "operator:wikidata": "Q668687", "ref": "1540100059"}, "type": "Feature"}
{"geometry": {"coordinates": [-79.749996, 39.913467], "type": "Point"}, "id": "cgT60ppP3UBwoPlIPqnTmG_9Nrc=", "properties": {"@source_uri": "https://tools.usps.com/UspsToolsRestServices/rest/POLocator/findLocations", "@spider": "usps_collection_boxes", "addr:city": "UNIONTOWN", "addr:country": "US", "addr:postcode": "15401", "addr:state": "PA", "addr:street_address": "101 WAYLAND SMITH DR", "amenity": "post_box", "collection_times": "Mo-Fr 17:00; Sa 16:00", "note": "ON 12/24 AND 12/31, THIS BOX MAY BE COLLECTED AS EARLY AS 12 NOON.", "nsi_id": "unitedstatespostalservice-a77078", "operator": "United States Postal Service", "operator:short": "USPS", "operator:type": "public", "operator:wikidata": "Q668687", "ref": "1540100066"}, "type": "Feature"}
{"geometry": {"coordinates": [-79.6972318, 39.926018], "type": "Point"}, "id": "kQBAwYg1iQMeDF1qDFwc0qjicTU=", "properties": {"@source_uri": "https://tools.usps.com/UspsToolsRestServices/rest/POLocator/findLocations", "@spider": "usps_collection_boxes", "addr:city": "UNIONTOWN", "addr:country": "US", "addr:postcode": "15401", "addr:state": "PA", "addr:street_address": "825 N GALLATIN AVENUE EXT", "amenity": "post_box", "collection_times": "Mo-Sa 12:45", "note": "ON 12/24 AND 12/31, THIS BOX MAY BE COLLECTED AS EARLY AS 12 NOON.", "nsi_id": "unitedstatespostalservice-a77078", "operator": "United States Postal Service", "operator:short": "USPS", "operator:type": "public", "operator:wikidata": "Q668687", "ref": "1540100067"}, "type": "Feature"}
{"geometry": {"coordinates": [-79.725727088, 39.904905667], "type": "Point"}, "id": "-cd5ESpiyq7siwqZ9AyUTMXLZO8=", "properties": {"@source_uri": "https://tools.usps.com/UspsToolsRestServices/rest/POLocator/findLocations", "@spider": "usps_collection_boxes", "addr:city": "UNIONTOWN", "addr:country": "US", "addr:postcode": "15401", "addr:state": "PA", "addr:street_address": "119 N BEESON AVE", "amenity": "post_box", "collection_times": "Mo-Fr 17:00; Sa 16:00", "note": "ON 12/24 AND 12/31, THIS BOX MAY BE COLLECTED AS EARLY AS 12 NOON.", "nsi_id": "unitedstatespostalservice-a77078", "operator": "United States Postal Service", "operator:short": "USPS", "operator:type": "public", "operator:wikidata": "Q668687", "ref": "1540100068"}, "type": "Feature"}
{"geometry": {"coordinates": [-79.7557906, 39.914161], "type": "Point"}, "id": "z112rk8nBh8Z9gvX7EpZVoAgSp8=", "properties": {"@source_uri": "https://tools.usps.com/UspsToolsRestServices/rest/POLocator/findLocations", "@spider": "usps_collection_boxes", "addr:city": "UNIONTOWN", "addr:country": "US", "addr:postcode": "15401", "addr:state": "PA", "addr:street_address": "355 WALMART DR", "amenity": "post_box", "collection_times": "Mo-Fr 17:00; Sa 16:00", "note": "ON 12/24 AND 12/31, THIS BOX MAY BE COLLECTED AS EARLY AS 12 NOON.", "nsi_id": "unitedstatespostalservice-a77078", "operator": "United States Postal Service", "operator:short": "USPS", "operator:type": "public", "operator:wikidata": "Q668687", "ref": "1540100069"}, "type": "Feature"}
{"geometry": {"coordinates": [-79.7530599, 39.905638], "type": "Point"}, "id": "iAzDUfjGmWVT5fuNvhXpu6XLENs=", "properties": {"@source_uri": "https://tools.usps.com/UspsToolsRestServices/rest/POLocator/findLocations", "@spider": "usps_collection_boxes", "addr:city": "UNIONTOWN", "addr:country": "US", "addr:postcode": "15401", "addr:state": "PA", "addr:street_address": "99 MATTHEW DR", "amenity": "post_box", "collection_times": "Mo-Fr 17:00; Sa 16:15", "note": "ON 12/24 AND 12/31, THIS BOX MAY BE COLLECTED AS EARLY AS 12 NOON.", "nsi_id": "unitedstatespostalservice-a77078", "operator": "United States Postal Service", "operator:short": "USPS", "operator:type": "public", "operator:wikidata": "Q668687", "ref": "1540100072"}, "type": "Feature"}
{"geometry": {"coordinates": [-79.723775, 39.897738], "type": "Point"}, "id": "7uD9k8R7Qk31i3CzLHEErCgtTp4=", "properties": {"@source_uri": "https://tools.usps.com/UspsToolsRestServices/rest/POLocator/findLocations", "@spider": "usps_collection_boxes", "addr:city": "UNIONTOWN", "addr:country": "US", "addr:postcode": "15401", "addr:state": "PA", "addr:street_address": "47 E FAYETTE ST", "amenity": "post_box", "collection_times": "Mo-Fr 18:00; Sa 16:00", "note": "ON 12/24 AND 12/31, THIS BOX MAY BE COLLECTED AS EARLY AS 12 NOON.", "nsi_id": "unitedstatespostalservice-a77078", "operator": "United States Postal Service", "operator:short": "USPS", "operator:type": "public", "operator:wikidata": "Q668687", "ref": "1540100075"}, "type": "Feature"}
{"geometry": {"coordinates": [-79.7283131, 39.92317], "type": "Point"}, "id": "l5aqzgbnGByqq8A9W1IWjhXdy9o=", "properties": {"@source_uri": "https://tools.usps.com/UspsToolsRestServices/rest/POLocator/findLocations", "@spider": "usps_collection_boxes", "addr:city": "UNIONTOWN", "addr:country": "US", "addr:postcode": "15401", "addr:state": "PA", "addr:street_address": "581 PITTSBURGH RD", "amenity": "post_box", "collection_times": "Mo-Sa 13:00", "note": "ON 12/24 AND 12/31, THIS BOX MAY BE COLLECTED AS EARLY AS 12 NOON.", "nsi_id": "unitedstatespostalservice-a77078", "operator": "United States Postal Service", "operator:short": "USPS", "operator:type": "public", "operator:wikidata": "Q668687", "ref": "1540100076"}, "type": "Feature"}
{"geometry": {"coordinates": [-79.7496999, 39.911028], "type": "Point"}, "id": "IGlO2YWH183sXw4K_7HLON7ceXY=", "properties": {"@source_uri": "https://tools.usps.com/UspsToolsRestServices/rest/POLocator/findLocations", "@spider": "usps_collection_boxes", "addr:city": "UNIONTOWN", "addr:country": "US", "addr:postcode": "15401", "addr:state": "PA", "addr:street_address": "100 NEW SALEM RD", "amenity": "post_box", "collection_times": "Mo-Fr 17:00; Sa 16:00", "note": "ON 12/24 AND 12/31, THIS BOX MAY BE COLLECTED AS EARLY AS 12 NOON.", "nsi_id": "unitedstatespostalservice-a77078", "operator": "United States Postal Service", "operator:short": "USPS", "operator:type": "public", "operator:wikidata": "Q668687", "ref": "1540100081"}, "type": "Feature"}
{"geometry": {"coordinates": [-79.7218767, 39.900781], "type": "Point"}, "id": "QyS-KgdJlwGBEoD-XfGOQE1XwU8=", "properties": {"@source_uri": "https://tools.usps.com/UspsToolsRestServices/rest/POLocator/findLocations", "@spider": "usps_collection_boxes", "addr:city": "UNIONTOWN", "addr:country": "US", "addr:postcode": "15401", "addr:state": "PA", "addr:street_address": "112 E MAIN ST", "amenity": "post_box", "collection_times": "Mo-Sa 15:00", "note": "ON 12/24 AND 12/31, THIS BOX MAY BE COLLECTED AS EARLY AS 12 NOON.", "nsi_id": "unitedstatespostalservice-a77078", "operator": "United States Postal Service", "operator:short": "USPS", "operator:type": "public", "operator:wikidata": "Q668687", "ref": "1540100082"}, "type": "Feature"}
{"geometry": {"coordinates": [-79.723809921, 39.897782268], "type": "Point"}, "id": "l2WX2nLRDhGwXIxIZ9tbdZ1pLA8=", "properties": {"@source_uri": "https://tools.usps.com/UspsToolsRestServices/rest/POLocator/findLocations", "@spider": "usps_collection_boxes", "addr:city": "UNIONTOWN", "addr:country": "US", "addr:postcode": "15401", "addr:state": "PA", "addr:street_address": "47 E FAYETTE ST", "amenity": "post_box", "collection_times": "Mo-Fr 18:00; Sa 12:30", "indoor": "yes", "note": "ON 12/24 AND 12/31, THIS BOX MAY BE COLLECTED AS EARLY AS 12 NOON.", "nsi_id": "unitedstatespostalservice-a77078", "operator": "United States Postal Service", "operator:short": "USPS", "operator:type": "public", "operator:wikidata": "Q668687", "ref": "1540100089"}, "type": "Feature"}
{"geometry": {"coordinates": [-79.726754907, 39.901703977], "type": "Point"}, "id": "nF93KBEOXViJj4Hb_WHuNJFlEUk=", "properties": {"@source_uri": "https://tools.usps.com/UspsToolsRestServices/rest/POLocator/findLocations", "@spider": "usps_collection_boxes", "addr:city": "UNIONTOWN", "addr:country": "US", "addr:postcode": "15401", "addr:state": "PA", "addr:street_address": "34 W PETER ST", "amenity": "post_box", "collection_times": "Mo-Fr 16:30", "indoor": "yes", "note": "ON 12/24 AND 12/31, THIS BOX MAY BE COLLECTED AS EARLY AS 12 NOON.", "nsi_id": "unitedstatespostalservice-a77078", "operator": "United States Postal Service", "operator:short": "USPS", "operator:type": "public", "operator:wikidata": "Q668687", "ref": "1540100091"}, "type": "Feature"}
{"geometry": {"coordinates": [-79.3327545752, 39.7470441987], "type": "Point"}, "id": "4FwjBJObIjbDtnmjviygy_7y7y8=", "properties": {"@source_uri": "https://tools.usps.com/UspsToolsRestServices/rest/POLocator/findLocations", "@spider": "usps_collection_boxes", "addr:city": "ADDISON", "addr:country": "US", "addr:postcode": "15411", "addr:state": "PA", "addr:street_address": "7337 NATIONAL PIKE", "amenity": "post_box", "collection_times": "Mo-Sa 12:00", "nsi_id": "unitedstatespostalservice-a77078", "operator": "United States Postal Service", "operator:short": "USPS", "operator:type": "public", "operator:wikidata": "Q668687", "ref": "1541100001"}, "type": "Feature"}
{"geometry": {"coordinates": [-79.332933, 39.74717], "type": "Point"}, "id": "b2le5VnXsKali5CWkgITjVjuepg=", "properties": {"@source_uri": "https://tools.usps.com/UspsToolsRestServices/rest/POLocator/findLocations", "@spider": "usps_collection_boxes", "addr:city": "ADDISON", "addr:country": "US", "addr:postcode": "15411", "addr:state": "PA", "addr:street_address": "7337 NATIONAL PIKE", "amenity": "post_box", "collection_times": "Mo-Sa 12:00", "indoor": "yes", "nsi_id": "unitedstatespostalservice-a77078", "operator": "United States Postal Service", "operator:short": "USPS", "operator:type": "public", "operator:wikidata": "Q668687", "ref": "1541100002"}, "type": "Feature"}
{"geometry": {"coordinates": [-79.332263711, 39.746630679], "type": "Point"}, "id": "au2epbEIntiHufjIg1tmjAaMij4=", "properties": {"@source_uri": "https://tools.usps.com/UspsToolsRestServices/rest/POLocator/findLocations", "@spider": "usps_collection_boxes", "addr:city": "ADDISON", "addr:country": "US", "addr:postcode": "15411", "addr:state": "PA", "addr:street_address": "7337 NATIONAL PIKE", "amenity": "post_box", "collection_times": "Mo-Sa 11:55", "indoor": "yes", "nsi_id": "unitedstatespostalservice-a77078", "operator": "United States Postal Service", "operator:short": "USPS", "operator:type": "public", "operator:wikidata": "Q668687", "ref": "1541100004"}, "type": "Feature"}
{"geometry": {"coordinates": [-79.856991, 40.080624], "type": "Point"}, "id": "k5X9BEQBWpx4X8Y86H-4OjKed2g=", "properties": {"@source_uri": "https://tools.usps.com/UspsToolsRestServices/rest/POLocator/findLocations", "@spider": "usps_collection_boxes", "addr:city": "ALLENPORT", "addr:country": "US", "addr:postcode": "15412", "addr:state": "PA", "addr:street_address": "1908 MAIN ST", "amenity": "post_box", "collection_times": "Mo-Fr 11:55; Sa 11:45", "nsi_id": "unitedstatespostalservice-a77078", "operator": "United States Postal Service", "operator:short": "USPS", "operator:type": "public", "operator:wikidata": "Q668687", "ref": "1541200001"}, "type": "Feature"}
{"geometry": {"coordinates": [-79.856991, 40.080624], "type": "Point"}, "id": "UqcwXUbbUoBQeM_TMJXzU5kg-tQ=", "properties": {"@source_uri": "https://tools.usps.com/UspsToolsRestServices/rest/POLocator/findLocations", "@spider": "usps_collection_boxes", "addr:city": "ALLENPORT", "addr:country": "US", "addr:postcode": "15412", "addr:state": "PA", "addr:street_address": "1908 MAIN ST LBBY", "amenity": "post_box", "collection_times": "Mo-Fr 11:55; Sa 11:45", "indoor": "yes", "nsi_id": "unitedstatespostalservice-a77078", "operator": "United States Postal Service", "operator:short": "USPS", "operator:type": "public", "operator:wikidata": "Q668687", "ref": "1541200002"}, "type": "Feature"}
{"geometry": {"coordinates": [-79.84555446, 40.100488341], "type": "Point"}, "id": "IJDt5xG_pgTQi-G17Jv0vjME5mI=", "properties": {"@source_uri": "https://tools.usps.com/UspsToolsRestServices/rest/POLocator/findLocations", "@spider": "usps_collection_boxes", "addr:city": "ALLENPORT", "addr:country": "US", "addr:postcode": "15412", "addr:state": "PA", "addr:street_address": "1908 MAIN ST", "amenity": "post_box", "collection_times": "Mo-Fr 11:55; Sa 11:40", "indoor": "yes", "nsi_id": "unitedstatespostalservice-a77078", "operator": "United States Postal Service", "operator:short": "USPS", "operator:type": "public", "operator:wikidata": "Q668687", "ref": "1541200004"}, "type": "Feature"}
{"geometry": {"coordinates": [-79.877215, 39.982351], "type": "Point"}, "id": "uNDSTlkYgsbQfd2gZ3DHauHJQ5w=", "properties": {"@source_uri": "https://tools.usps.com/UspsToolsRestServices/rest/POLocator/findLocations", "@spider": "usps_collection_boxes", "addr:city": "ALLISON", "addr:country": "US", "addr:postcode": "15413", "addr:state": "PA", "addr:street_address": "575 ALLISON AVE", "amenity": "post_box", "collection_times": "Mo-Fr 12:25; Sa 11:45", "note": "ON 12/24 AND 12/31, THIS BOX MAY BE COLLECTED AS EARLY AS 12 NOON.", "nsi_id": "unitedstatespostalservice-a77078", "operator": "United States Postal Service", "operator:short": "USPS", "operator:type": "public", "operator:wikidata": "Q668687", "ref": "1541300001"}, "type": "Feature"}
{"geometry": {"coordinates": [-79.877215, 39.982351], "type": "Point"}, "id": "HUbUpQXYDKt7MxTFlOZsn04vaUI=", "properties": {"@source_uri": "https://tools.usps.com/UspsToolsRestServices/rest/POLocator/findLocations", "@spider": "usps_collection_boxes", "addr:city": "ALLISON", "addr:country": "US", "addr:postcode": "15413", "addr:state": "PA", "addr:street_address": "575 ALLISON AVE LBBY", "amenity": "post_box", "collection_times": "Mo-Fr 12:25; Sa 11:45", "indoor": "yes", "note": "ON 12/24 AND 12/31, THIS BOX MAY BE COLLECTED AS EARLY AS 12 NOON.", "nsi_id": "unitedstatespostalservice-a77078", "operator": "United States Postal Service", "operator:short": "USPS", "operator:type": "public", "operator:wikidata": "Q668687", "ref": "1541300002"}, "type": "Feature"}
{"geometry": {"coordinates": [-79.877236852, 39.982320967], "type": "Point"}, "id": "_lPsT2YTgDv7k3SjRLHsoN9DfzA=", "properties": {"@source_uri": "https://tools.usps.com/UspsToolsRestServices/rest/POLocator/findLocations", "@spider": "usps_collection_boxes", "addr:city": "ALLISON", "addr:country": "US", "addr:postcode": "15413", "addr:state": "PA", "addr:street_address": "575 ALLISON AVE", "amenity": "post_box", "collection_times": "Mo-Fr 12:25; Sa 11:40", "indoor": "yes", "note": "ON 12/24 AND 12/31, THIS BOX MAY BE COLLECTED AS EARLY AS 12 NOON.", "nsi_id": "unitedstatespostalservice-a77078", "operator": "United States Postal Service", "operator:short": "USPS", "operator:type": "public", "operator:wikidata": "Q668687", "ref": "1541300004"}, "type": "Feature"}
{"geometry": {"coordinates": [-79.830357, 39.979531], "type": "Point"}, "id": "Psv7xelH-YUyQH_Q_NXKmnJsh-k=", "properties": {"@source_uri": "https://tools.usps.com/UspsToolsRestServices/rest/POLocator/findLocations", "@spider": "usps_collection_boxes", "addr:city": "BRIER HILL", "addr:country": "US", "addr:postcode": "15415", "addr:state": "PA", "addr:street_address": "6608 NATIONAL PIKE", "amenity": "post_box", "collection_times": "Mo-Fr 11:55; Sa 11:45", "nsi_id": "unitedstatespostalservice-a77078", "operator": "United States Postal Service", "operator:short": "USPS", "operator:type": "public", "operator:wikidata": "Q668687", "ref": "1541500001"}, "type": "Feature"}
{"geometry": {"coordinates": [-79.8304079938, 39.9795190105], "type": "Point"}, "id": "GvMiZLvjbZP3PweP-KIGKdYpPNI=", "properties": {"@source_uri": "https://tools.usps.com/UspsToolsRestServices/rest/POLocator/findLocations", "@spider": "usps_collection_boxes", "addr:city": "BRIER HILL", "addr:country": "US", "addr:postcode": "15415", "addr:state": "PA", "addr:street_address": "6608 NATIONAL PIKE", "amenity": "post_box", "collection_times": "Mo-Fr 11:55; Sa 11:45", "indoor": "yes", "nsi_id": "unitedstatespostalservice-a77078", "operator": "United States Postal Service", "operator:short": "USPS", "operator:type": "public", "operator:wikidata": "Q668687", "ref": "1541500002"}, "type": "Feature"}
{"geometry": {"coordinates": [-79.8304079938, 39.9795190105], "type": "Point"}, "id": "me2HLuGeANEixEXB40dRE9XrIho=", "properties": {"@source_uri": "https://tools.usps.com/UspsToolsRestServices/rest/POLocator/findLocations", "@spider": "usps_collection_boxes", "addr:city": "BRIER HILL", "addr:country": "US", "addr:postcode": "15415", "addr:state": "PA", "addr:street_address": "6608 NATIONAL PIKE", "amenity": "post_box", "collection_times": "Mo-Fr 11:55; Sa 11:25", "indoor": "yes", "nsi_id": "unitedstatespostalservice-a77078", "operator": "United States Postal Service", "operator:short": "USPS", "operator:type": "public", "operator:wikidata": "Q668687", "ref": "1541500004"}, "type": "Feature"}
{"geometry": {"coordinates": [-79.717137, 39.857872], "type": "Point"}, "id": "nLPAxcF0bUVje11Rp8METUn8IdU=", "properties": {"@source_uri": "https://tools.usps.com/UspsToolsRestServices/rest/POLocator/findLocations", "@spider": "usps_collection_boxes", "addr:city": "BROWNFIELD", "addr:country": "US", "addr:postcode": "15416", "addr:state": "PA", "addr:street_address": "212 2ND ST", "amenity": "post_box", "collection_times": "Mo-Fr 11:55; Sa 11:45", "nsi_id": "unitedstatespostalservice-a77078", "operator": "United States Postal Service", "operator:short": "USPS", "operator:type": "public", "operator:wikidata": "Q668687", "ref": "1541600001"}, "type": "Feature"}
{"geometry": {"coordinates": [-79.717158, 39.857896], "type": "Point"}, "id": "yFRI7Vzs3FpVjRxKZsigR0I6QH0=", "properties": {"@source_uri": "https://tools.usps.com/UspsToolsRestServices/rest/POLocator/findLocations", "@spider": "usps_collection_boxes", "addr:city": "BROWNFIELD", "addr:country": "US", "addr:postcode": "15416", "addr:state": "PA", "addr:street_address": "212 2ND ST", "amenity": "post_box", "collection_times": "Mo-Fr 11:55; Sa 11:45", "indoor": "yes", "nsi_id": "unitedstatespostalservice-a77078", "operator": "United States Postal Service", "operator:short": "USPS", "operator:type": "public", "operator:wikidata": "Q668687", "ref": "1541600002"}, "type": "Feature"}
{"geometry": {"coordinates": [-79.717872033, 39.857778547], "type": "Point"}, "id": "7jwX0ZdMaXI2cQ3sbcf_P2yDZug=", "properties": {"@source_uri": "https://tools.usps.com/UspsToolsRestServices/rest/POLocator/findLocations", "@spider": "usps_collection_boxes", "addr:city": "BROWNFIELD", "addr:country": "US", "addr:postcode": "15416", "addr:state": "PA", "addr:street_address": "212 2ND ST", "amenity": "post_box", "collection_times": "Mo-Sa 11:55", "indoor": "yes", "nsi_id": "unitedstatespostalservice-a77078", "operator": "United States Postal Service", "operator:short": "USPS", "operator:type": "public", "operator:wikidata": "Q668687", "ref": "1541600004"}, "type": "Feature"}
{"geometry": {"coordinates": [-79.886801, 40.021534], "type": "Point"}, "id": "dBqwLN5vmBlAvtoT7MZ7bJg0cQg=", "properties": {"@source_uri": "https://tools.usps.com/UspsToolsRestServices/rest/POLocator/findLocations", "@spider": "usps_collection_boxes", "addr:city": "BROWNSVILLE", "addr:country": "US", "addr:postcode": "15417", "addr:state": "PA", "addr:street_address": "100 CHARLES ST", "amenity": "post_box", "collection_times": "Mo-Fr 17:00; Sa 15:00", "note": "ON 12/24 AND 12/31, THIS BOX MAY BE COLLECTED AS EARLY AS 12 NOON.", "nsi_id": "unitedstatespostalservice-a77078", "operator": "United States Postal Service", "operator:short": "USPS", "operator:type": "public", "operator:wikidata": "Q668687", "ref": "1541700001"}, "type": "Feature"}
{"geometry": {"coordinates": [-79.8692279, 40.011121], "type": "Point"}, "id": "WFO9zRgsTJrYFmXHPfWm5VSJVYM=", "properties": {"@source_uri": "https://tools.usps.com/UspsToolsRestServices/rest/POLocator/findLocations", "@spider": "usps_collection_boxes", "addr:city": "BROWNSVILLE", "addr:country": "US", "addr:postcode": "15417", "addr:state": "PA", "addr:street_address": "633 NATIONAL PIKE E", "amenity": "post_box", "collection_times": "Mo-Fr 10:00; Sa 09:00", "nsi_id": "unitedstatespostalservice-a77078", "operator": "United States Postal Service", "operator:short": "USPS", "operator:type": "public", "operator:wikidata": "Q668687", "ref": "1541700025"}, "type": "Feature"}
{"geometry": {"coordinates": [-79.886868, 40.021508], "type": "Point"}, "id": "7d44NvNR1qGahQpZgw0A2c6wJzk=", "properties": {"@source_uri": "https://tools.usps.com/UspsToolsRestServices/rest/POLocator/findLocations", "@spider": "usps_collection_boxes", "addr:city": "BROWNSVILLE", "addr:country": "US", "addr:postcode": "15417", "addr:state": "PA", "addr:street_address": "100 CHARLES ST", "amenity": "post_box", "collection_times": "Mo-Fr 17:00; Sa 15:00", "indoor": "yes", "note": "ON 12/24 AND 12/31, THIS BOX MAY BE COLLECTED AS EARLY AS 12 NOON.", "nsi_id": "unitedstatespostalservice-a77078", "operator": "United States Postal Service", "operator:short": "USPS", "operator:type": "public", "operator:wikidata": "Q668687", "ref": "1541700030"}, "type": "Feature"}
{"geometry": {"coordinates": [-79.886803376, 40.021532625], "type": "Point"}, "id": "-kTFCMsn_JF7W1VqlAD_oYhZ4pc=", "properties": {"@source_uri": "https://tools.usps.com/UspsToolsRestServices/rest/POLocator/findLocations", "@spider": "usps_collection_boxes", "addr:city": "BROWNSVILLE", "addr:country": "US", "addr:postcode": "15417", "addr:state": "PA", "addr:street_address": "100 CHARLES ST", "amenity": "post_box", "collection_times": "Mo-Fr 17:00; Sa 12:15", "indoor": "yes", "note": "ON 12/24 AND 12/31, THIS BOX MAY BE COLLECTED AS EARLY AS 12 NOON.", "nsi_id": "unitedstatespostalservice-a77078", "operator": "United States Postal Service", "operator:short": "USPS", "operator:type": "public", "operator:wikidata": "Q668687", "ref": "1541700032"}, "type": "Feature"}
{"geometry": {"coordinates": [-79.888958, 40.067416], "type": "Point"}, "id": "jskgAcxRC2X4VQTIZcakkoQQ2mc=", "properties": {"@source_uri": "https://tools.usps.com/UspsToolsRestServices/rest/POLocator/findLocations", "@spider": "usps_collection_boxes", "addr:city": "CALIFORNIA", "addr:country": "US", "addr:postcode": "15419", "addr:state": "PA", "addr:street_address": "430 2ND ST", "amenity": "post_box", "collection_times": "Mo-Fr 16:30; Sa 15:30", "note": "ON 12/24 AND 12/31, THIS BOX MAY BE COLLECTED AS EARLY AS 12 NOON.", "nsi_id": "unitedstatespostalservice-a77078", "operator": "United States Postal Service", "operator:short": "USPS", "operator:type": "public", "operator:wikidata": "Q668687", "ref": "1541900001"}, "type": "Feature"}
{"geometry": {"coordinates": [-79.8925076, 40.066857], "type": "Point"}, "id": "XfIgSmLJ021pcsA3bBLs3YPDl-8=", "properties": {"@source_uri": "https://tools.usps.com/UspsToolsRestServices/rest/POLocator/findLocations", "@spider": "usps_collection_boxes", "addr:city": "CALIFORNIA", "addr:country": "US", "addr:postcode": "15419", "addr:state": "PA", "addr:street_address": "200 3RD ST", "amenity": "post_box", "collection_times": "Mo-Sa 11:30", "nsi_id": "unitedstatespostalservice-a77078", "operator": "United States Postal Service", "operator:short": "USPS", "operator:type": "public", "operator:wikidata": "Q668687", "ref": "1541900002"}, "type": "Feature"}
{"geometry": {"coordinates": [-79.8898609, 40.066557], "type": "Point"}, "id": "z0iDLOupyJaEgvRZ4Hp5WIMW2gY=", "properties": {"@source_uri": "https://tools.usps.com/UspsToolsRestServices/rest/POLocator/findLocations", "@spider": "usps_collection_boxes", "addr:city": "CALIFORNIA", "addr:country": "US", "addr:postcode": "15419", "addr:state": "PA", "addr:street_address": "404 3RD ST", "amenity": "post_box", "collection_times": "Mo-Sa 11:30", "nsi_id": "unitedstatespostalservice-a77078", "operator": "United States Postal Service", "operator:short": "USPS", "operator:type": "public", "operator:wikidata": "Q668687", "ref": "1541900003"}, "type": "Feature"}
{"geometry": {"coordinates": [-79.8908857, 40.065589], "type": "Point"}, "id": "k4ww8PT65lJ8dCZQxNCNtutpq9w=", "properties": {"@source_uri": "https://tools.usps.com/UspsToolsRestServices/rest/POLocator/findLocations", "@spider": "usps_collection_boxes", "addr:city": "CALIFORNIA", "addr:country": "US", "addr:postcode": "15419", "addr:state": "PA", "addr:street_address": "316 4TH ST", "amenity": "post_box", "collection_times": "Mo-Sa 11:30", "nsi_id": "unitedstatespostalservice-a77078", "operator": "United States Postal Service", "operator:short": "USPS", "operator:type": "public", "operator:wikidata": "Q668687", "ref": "1541900005"}, "type": "Feature"}
{"geometry": {"coordinates": [-79.888958, 40.067416], "type": "Point"}, "id": "KWxDvgL3OLcAfhLN_ZobkVTdh6o=", "properties": {"@source_uri": "https://tools.usps.com/UspsToolsRestServices/rest/POLocator/findLocations", "@spider": "usps_collection_boxes", "addr:city": "CALIFORNIA", "addr:country": "US", "addr:postcode": "15419", "addr:state": "PA", "addr:street_address": "430 2ND ST LBBY", "amenity": "post_box", "collection_times": "Mo-Fr 16:30; Sa 15:30", "indoor": "yes", "note": "ON 12/24 AND 12/31, THIS BOX MAY BE COLLECTED AS EARLY AS 12 NOON.", "nsi_id": "unitedstatespostalservice-a77078", "operator": "United States Postal Service", "operator:short": "USPS", "operator:type": "public", "operator:wikidata": "Q668687", "ref": "1541900012"}, "type": "Feature"}
{"geometry": {"coordinates": [-79.888958, 40.067416], "type": "Point"}, "id": "_WF70Laf8-dZ-4MAMAAopOdpO1g=", "properties": {"@source_uri": "https://tools.usps.com/UspsToolsRestServices/rest/POLocator/findLocations", "@spider": "usps_collection_boxes", "addr:city": "CALIFORNIA", "addr:country": "US", "addr:postcode": "15419", "addr:state": "PA", "addr:street_address": "430 2ND ST LBBY", "amenity": "post_box", "collection_times": "Mo-Fr 16:30; Sa 15:30", "indoor": "yes", "note": "ON 12/24 AND 12/31, THIS BOX MAY BE COLLECTED AS EARLY AS 12 NOON.", "nsi_id": "unitedstatespostalservice-a77078", "operator": "United States Postal Service", "operator:short": "USPS", "operator:type": "public", "operator:wikidata": "Q668687", "ref": "1541900013"}, "type": "Feature"}
{"geometry": {"coordinates": [-79.8843631, 40.063501], "type": "Point"}, "id": "WP6Z-oUW-MR8FiEQGYdI0dhH10Q=", "properties": {"@source_uri": "https://tools.usps.com/UspsToolsRestServices/rest/POLocator/findLocations", "@spider": "usps_collection_boxes", "addr:city": "CALIFORNIA", "addr:country": "US", "addr:postcode": "15419", "addr:state": "PA", "addr:street_address": "250 UNIVERSITY AVE", "amenity": "post_box", "collection_times": "Mo-Fr 11:30", "nsi_id": "unitedstatespostalservice-a77078", "operator": "United States Postal Service", "operator:short": "USPS", "operator:type": "public", "operator:wikidata": "Q668687", "ref": "1541900014"}, "type": "Feature"}
{"geometry": {"coordinates": [-79.889259856, 40.067455304], "type": "Point"}, "id": "0PAFdgBltW7RValcVzanVxDG7Is=", "properties": {"@source_uri": "https://tools.usps.com/UspsToolsRestServices/rest/POLocator/findLocations", "@spider": "usps_collection_boxes", "addr:city": "CALIFORNIA", "addr:country": "US", "addr:postcode": "15419", "addr:state": "PA", "addr:street_address": "430 2ND ST", "amenity": "post_box", "collection_times": "Mo-Fr 16:30; Sa 12:00", "indoor": "yes", "note": "ON 12/24 AND 12/31, THIS BOX MAY BE COLLECTED AS EARLY AS 12 NOON.", "nsi_id": "unitedstatespostalservice-a77078", "operator": "United States Postal Service", "operator:short": "USPS", "operator:type": "public", "operator:wikidata": "Q668687", "ref": "1541900016"}, "type": "Feature"}
{"geometry": {"coordinates": [-79.866174, 39.957269], "type": "Point"}, "id": "S8m-S8HBe408rJcrLnGb5Cpzedg=", "properties": {"@source_uri": "https://tools.usps.com/UspsToolsRestServices/rest/POLocator/findLocations", "@spider": "usps_collection_boxes", "addr:city": "CARDALE", "addr:country": "US", "addr:postcode": "15420", "addr:state": "PA", "addr:street_address": "258 FILBERT ORIENT RD", "amenity": "post_box", "collection_times": "Mo-Fr 12:25; Sa 12:00", "note": "ON 12/24 AND 12/31, THIS BOX MAY BE COLLECTED AS EARLY AS 12 NOON.", "nsi_id": "unitedstatespostalservice-a77078", "operator": "United States Postal Service", "operator:short": "USPS", "operator:type": "public", "operator:wikidata": "Q668687", "ref": "1542000001"}, "type": "Feature"}
{"geometry": {"coordinates": [-79.866169, 39.957296], "type": "Point"}, "id": "c0J3bGPYGZcBn7BmcgWYcELhuR8=", "properties": {"@source_uri": "https://tools.usps.com/UspsToolsRestServices/rest/POLocator/findLocations", "@spider": "usps_collection_boxes", "addr:city": "CARDALE", "addr:country": "US", "addr:postcode": "15420", "addr:state": "PA", "addr:street_address": "258 FILBERT ORIENT RD", "amenity": "post_box", "collection_times": "Mo-Fr 12:25; Sa 12:00", "indoor": "yes", "note": "ON 12/24 AND 12/31, THIS BOX MAY BE COLLECTED AS EARLY AS 12 NOON.", "nsi_id": "unitedstatespostalservice-a77078", "operator": "United States Postal Service", "operator:short": "USPS", "operator:type": "public", "operator:wikidata": "Q668687", "ref": "1542000002"}, "type": "Feature"}
{"geometry": {"coordinates": [-79.864034919, 39.956994631], "type": "Point"}, "id": "qDF7iIQ6OQTGUUD8uowuTy5HT8k=", "properties": {"@source_uri": "https://tools.usps.com/UspsToolsRestServices/rest/POLocator/findLocations", "@spider": "usps_collection_boxes", "addr:city": "CARDALE", "addr:country": "US", "addr:postcode": "15420", "addr:state": "PA", "addr:street_address": "258 FILBERT ORIENT RD", "amenity": "post_box", "collection_times": "Mo-Fr 12:25; Sa 11:55", "indoor": "yes", "note": "ON 12/24 AND 12/31, THIS BOX MAY BE COLLECTED AS EARLY AS 12 NOON.", "nsi_id": "unitedstatespostalservice-a77078", "operator": "United States Postal Service", "operator:short": "USPS", "operator:type": "public", "operator:wikidata": "Q668687", "ref": "1542000004"}, "type": "Feature"}
{"geometry": {"coordinates": [-79.617972, 39.844292], "type": "Point"}, "id": "l_G_lllQ2dsf41VbfHOEi7C-BjA=", "properties": {"@source_uri": "https://tools.usps.com/UspsToolsRestServices/rest/POLocator/findLocations", "@spider": "usps_collection_boxes", "addr:city": "CHALKHILL", "addr:country": "US", "addr:postcode": "15421", "addr:state": "PA", "addr:street_address": "2963 NATIONAL PIKE", "amenity": "post_box", "collection_times": "Mo-Fr 16:45; Sa 12:00", "note": "ON 12/24 AND 12/31, THIS BOX MAY BE COLLECTED AS EARLY AS 12 NOON.", "nsi_id": "unitedstatespostalservice-a77078", "operator": "United States Postal Service", "operator:short": "USPS", "operator:type": "public", "operator:wikidata": "Q668687", "ref": "1542100001"}, "type": "Feature"}
{"geometry": {"coordinates": [-79.617972, 39.844292], "type": "Point"}, "id": "89EzytJxkMHEC8sKFJAv8n4vg0c=", "properties": {"@source_uri": "https://tools.usps.com/UspsToolsRestServices/rest/POLocator/findLocations", "@spider": "usps_collection_boxes", "addr:city": "CHALKHILL", "addr:country": "US", "addr:postcode": "15421", "addr:state": "PA", "addr:street_address": "2963 NATIONAL PIKE LBBY", "amenity": "post_box", "collection_times": "Mo-Fr 16:45; Sa 12:00", "indoor": "yes", "note": "ON 12/24 AND 12/31, THIS BOX MAY BE COLLECTED AS EARLY AS 12 NOON.", "nsi_id": "unitedstatespostalservice-a77078", "operator": "United States Postal Service", "operator:short": "USPS", "operator:type": "public", "operator:wikidata": "Q668687", "ref": "1542100002"}, "type": "Feature"}
{"geometry": {"coordinates": [-79.617858256, 39.844270402], "type": "Point"}, "id": "sM_MzGv_dgcGmVAAxpnnrIbEOT8=", "properties": {"@source_uri": "https://tools.usps.com/UspsToolsRestServices/rest/POLocator/findLocations", "@spider": "usps_collection_boxes", "addr:city": "CHALKHILL", "addr:country": "US", "addr:postcode": "15421", "addr:state": "PA", "addr:street_address": "2963 NATIONAL PIKE", "amenity": "post_box", "collection_times": "Mo-Fr 16:30; Sa 12:00", "indoor": "yes", "note": "ON 12/24 AND 12/31, THIS BOX MAY BE COLLECTED AS EARLY AS 12 NOON.", "nsi_id": "unitedstatespostalservice-a77078", "operator": "United States Postal Service", "operator:short": "USPS", "operator:type": "public", "operator:wikidata": "Q668687", "ref": "1542100005"}, "type": "Feature"}
{"geometry": {"coordinates": [-79.809475, 39.980911], "type": "Point"}, "id": "XIIAi7mzGpuAkgQZ9D24IwwgBgM=", "properties": {"@source_uri": "https://tools.usps.com/UspsToolsRestServices/rest/POLocator/findLocations", "@spider": "usps_collection_boxes", "addr:city": "CHESTNUT RIDGE", "addr:country": "US", "addr:postcode": "15422", "addr:state": "PA", "addr:street_address": "402 3RD ST", "amenity": "post_box", "collection_times": "Mo-Fr 10:50; Sa 11:45", "nsi_id": "unitedstatespostalservice-a77078", "operator": "United States Postal Service", "operator:short": "USPS", "operator:type": "public", "operator:wikidata": "Q668687", "ref": "1542200001"}, "type": "Feature"}
{"geometry": {"coordinates": [-79.809598, 39.980932], "type": "Point"}, "id": "K_cfFF2c6qjZny0fSEeHWn4mGJg=", "properties": {"@source_uri": "https://tools.usps.com/UspsToolsRestServices/rest/POLocator/findLocations", "@spider": "usps_collection_boxes", "addr:city": "CHESTNUT RIDGE", "addr:country": "US", "addr:postcode": "15422", "addr:state": "PA", "addr:street_address": "402 3RD ST", "amenity": "post_box", "collection_times": "Mo-Fr 10:50; Sa 11:45", "indoor": "yes", "nsi_id": "unitedstatespostalservice-a77078", "operator": "United States Postal Service", "operator:short": "USPS", "operator:type": "public", "operator:wikidata": "Q668687", "ref": "1542200002"}, "type": "Feature"}
{"geometry": {"coordinates": [-79.809425451, 39.980845058], "type": "Point"}, "id": "O96HsDjHj4u3cAc4Mc_TWqafVIQ=", "properties": {"@source_uri": "https://tools.usps.com/UspsToolsRestServices/rest/POLocator/findLocations", "@spider": "usps_collection_boxes", "addr:city": "CHESTNUT RIDGE", "addr:country": "US", "addr:postcode": "15422", "addr:state": "PA", "addr:street_address": "402 3RD ST", "amenity": "post_box", "collection_times": "Mo-Fr 10:50; Sa 11:20", "indoor": "yes", "nsi_id": "unitedstatespostalservice-a77078", "operator": "United States Postal Service", "operator:short": "USPS", "operator:type": "public", "operator:wikidata": "Q668687", "ref": "1542200004"}, "type": "Feature"}
{"geometry": {"coordinates": [-79.90021, 40.070021], "type": "Point"}, "id": "jt9howqgJ9fGpzVxEf_zs2bOrqo=", "properties": {"@source_uri": "https://tools.usps.com/UspsToolsRestServices/rest/POLocator/findLocations", "@spider": "usps_collection_boxes", "addr:city": "COAL CENTER", "addr:country": "US", "addr:postcode": "15423", "addr:state": "PA", "addr:street_address": "109 SPRING ST", "amenity": "post_box", "collection_times": "Mo-Fr 16:30; Sa 11:45", "note": "ON 12/24 AND 12/31, THIS BOX MAY BE COLLECTED AS EARLY AS 12 NOON.", "nsi_id": "unitedstatespostalservice-a77078", "operator": "United States Postal Service", "operator:short": "USPS", "operator:type": "public", "operator:wikidata": "Q668687", "ref": "1542300001"}, "type": "Feature"}
{"geometry": {"coordinates": [-79.900239, 40.070036], "type": "Point"}, "id": "qzgz-EP3vJV7VG-XYhd878bCC8A=", "properties": {"@source_uri": "https://tools.usps.com/UspsToolsRestServices/rest/POLocator/findLocations", "@spider": "usps_collection_boxes", "addr:city": "COAL CENTER", "addr:country": "US", "addr:postcode": "15423", "addr:state": "PA", "addr:street_address": "109 SPRING ST", "amenity": "post_box", "collection_times": "Mo-Fr 16:30; Sa 11:45", "indoor": "yes", "note": "ON 12/24 AND 12/31, THIS BOX MAY BE COLLECTED AS EARLY AS 12 NOON.", "nsi_id": "unitedstatespostalservice-a77078", "operator": "United States Postal Service", "operator:short": "USPS", "operator:type": "public", "operator:wikidata": "Q668687", "ref": "1542300002"}, "type": "Feature"}
{"geometry": {"coordinates": [-79.900187749, 40.070039366], "type": "Point"}, "id": "spMPobniB9AMyZ9WmEgNSfKpE5E=", "properties": {"@source_uri": "https://tools.usps.com/UspsToolsRestServices/rest/POLocator/findLocations", "@spider": "usps_collection_boxes", "addr:city": "COAL CENTER", "addr:country": "US", "addr:postcode": "15423", "addr:state": "PA", "addr:street_address": "109 SPRING ST", "amenity": "post_box", "collection_times": "Mo-Fr 16:30; Sa 12:00", "indoor": "yes", "note": "ON 12/24 AND 12/31, THIS BOX MAY BE COLLECTED AS EARLY AS 12 NOON.", "nsi_id": "unitedstatespostalservice-a77078", "operator": "United States Postal Service", "operator:short": "USPS", "operator:type": "public", "operator:wikidata": "Q668687", "ref": "1542300004"}, "type": "Feature"}
{"geometry": {"coordinates": [-79.359266, 39.811523], "type": "Point"}, "id": "L4Mn7DHQ8SEJSnZowHuoNIpwNQM=", "properties": {"@source_uri": "https://tools.usps.com/UspsToolsRestServices/rest/POLocator/findLocations", "@spider": "usps_collection_boxes", "addr:city": "CONFLUENCE", "addr:country": "US", "addr:postcode": "15424", "addr:state": "PA", "addr:street_address": "512 HUGART ST", "amenity": "post_box", "collection_times": "Mo-Fr 16:30; Sa 15:45", "note": "ON 12/24 AND 12/31, THIS BOX MAY BE COLLECTED AS EARLY AS 12 NOON.", "nsi_id": "unitedstatespostalservice-a77078", "operator": "United States Postal Service", "operator:short": "USPS", "operator:type": "public", "operator:wikidata": "Q668687", "ref": "1542400001"}, "type": "Feature"}
{"geometry": {"coordinates": [-79.356773, 39.806117], "type": "Point"}, "id": "1El5AUOAw1V9z1Zl0Cenhl6qxU4=", "properties": {"@source_uri": "https://tools.usps.com/UspsToolsRestServices/rest/POLocator/findLocations", "@spider": "usps_collection_boxes", "addr:city": "CONFLUENCE", "addr:country": "US", "addr:postcode": "15424", "addr:state": "PA", "addr:street_address": "821 ODEN ST", "amenity": "post_box", "collection_times": "Mo-Sa 09:30", "nsi_id": "unitedstatespostalservice-a77078", "operator": "United States Postal Service", "operator:short": "USPS", "operator:type": "public", "operator:wikidata": "Q668687", "ref": "1542400003"}, "type": "Feature"}
{"geometry": {"coordinates": [-79.363489, 39.811019], "type": "Point"}, "id": "mGvbh_jbddG4XWkrpDBBcptzdl4=", "properties": {"@source_uri": "https://tools.usps.com/UspsToolsRestServices/rest/POLocator/findLocations", "@spider": "usps_collection_boxes", "addr:city": "CONFLUENCE", "addr:country": "US", "addr:postcode": "15424", "addr:state": "PA", "addr:street_address": "303 YOUGH ST", "amenity": "post_box", "collection_times": "Mo-Sa 12:00", "nsi_id": "unitedstatespostalservice-a77078", "operator": "United States Postal Service", "operator:short": "USPS", "operator:type": "public", "operator:wikidata": "Q668687", "ref": "1542400007"}, "type": "Feature"}
{"geometry": {"coordinates": [-79.356864, 39.811782], "type": "Point"}, "id": "tdHHIq8VEZT-O0YALPcrnQkFavo=", "properties": {"@source_uri": "https://tools.usps.com/UspsToolsRestServices/rest/POLocator/findLocations", "@spider": "usps_collection_boxes", "addr:city": "CONFLUENCE", "addr:country": "US", "addr:postcode": "15424", "addr:state": "PA", "addr:street_address": "511 WILLIAMS ST", "amenity": "post_box", "collection_times": "Mo-Sa 12:00", "nsi_id": "unitedstatespostalservice-a77078", "operator": "United States Postal Service", "operator:short": "USPS", "operator:type": "public", "operator:wikidata": "Q668687", "ref": "1542400014"}, "type": "Feature"}
{"geometry": {"coordinates": [-79.5912705, 40.018081], "type": "Point"}, "id": "4LN4L4y4zg1ZYtMHQkD-OHnjNKM=", "properties": {"@source_uri": "https://tools.usps.com/UspsToolsRestServices/rest/POLocator/findLocations", "@spider": "usps_collection_boxes", "addr:city": "CONNELLSVILLE", "addr:country": "US", "addr:postcode": "15425", "addr:state": "PA", "addr:street_address": "115 N ARCH ST", "amenity": "post_box", "collection_times": "Mo-Fr 17:00; Sa 15:30", "note": "ON 12/24 AND 12/31, THIS BOX MAY BE COLLECTED AS EARLY AS 12 NOON.", "nsi_id": "unitedstatespostalservice-a77078", "operator": "United States Postal Service", "operator:short": "USPS", "operator:type": "public", "operator:wikidata": "Q668687", "ref": "1542500001"}, "type": "Feature"}
{"geometry": {"coordinates": [-79.5889787, 40.011999], "type": "Point"}, "id": "cteBKr5pimhgoFyx3pM3MvMBCm0=", "properties": {"@source_uri": "https://tools.usps.com/UspsToolsRestServices/rest/POLocator/findLocations", "@spider": "usps_collection_boxes", "addr:city": "CONNELLSVILLE", "addr:country": "US", "addr:postcode": "15425", "addr:state": "PA", "addr:street_address": "704 S PITTSBURGH ST", "amenity": "post_box", "collection_times": "Mo-Sa 11:00", "nsi_id": "unitedstatespostalservice-a77078", "operator": "United States Postal Service", "operator:short": "USPS", "operator:type": "public", "operator:wikidata": "Q668687", "ref": "1542500002"}, "type": "Feature"}
{"geometry": {"coordinates": [-79.6028133, 40.019404], "type": "Point"}, "id": "k9L__uDttK5ZKtnXeiPU3lxeLrM=", "properties": {"@source_uri": "https://tools.usps.com/UspsToolsRestServices/rest/POLocator/findLocations", "@spider": "usps_collection_boxes", "addr:city": "CONNELLSVILLE", "addr:country": "US", "addr:postcode": "15425", "addr:state": "PA", "addr:street_address": "818 VANDERBILT RD", "amenity": "post_box", "collection_times": "Mo-Fr 13:00; Sa 12:15", "note": "ON 12/24 AND 12/31, THIS BOX MAY BE COLLECTED AS EARLY AS 12 NOON.", "nsi_id": "unitedstatespostalservice-a77078", "operator": "United States Postal Service", "operator:short": "USPS", "operator:type": "public", "operator:wikidata": "Q668687", "ref": "1542500003"}, "type": "Feature"}
{"geometry": {"coordinates": [-79.5911134, 40.016517], "type": "Point"}, "id": "QEB42FwLYS5wZeiK41NOtICXY9Q=", "properties": {"@source_uri": "https://tools.usps.com/UspsToolsRestServices/rest/POLocator/findLocations", "@spider": "usps_collection_boxes", "addr:city": "CONNELLSVILLE", "addr:country": "US", "addr:postcode": "15425", "addr:state": "PA", "addr:street_address": "131 S ARCH ST", "amenity": "post_box", "collection_times": "Mo-Sa 14:15", "note": "ON 12/24 AND 12/31, THIS BOX MAY BE COLLECTED AS EARLY AS 12 NOON.", "nsi_id": "unitedstatespostalservice-a77078", "operator": "United States Postal Service", "operator:short": "USPS", "operator:type": "public", "operator:wikidata": "Q668687", "ref": "1542500006"}, "type": "Feature"}
{"geometry": {"coordinates": [-79.5887374, 40.002478], "type": "Point"}, "id": "WI2Xd7eLBKksZC9pJLYbxy48oBo=", "properties": {"@source_uri": "https://tools.usps.com/UspsToolsRestServices/rest/POLocator/findLocations", "@spider": "usps_collection_boxes", "addr:city": "CONNELLSVILLE", "addr:country": "US", "addr:postcode": "15425", "addr:state": "PA", "addr:street_address": "1411 S PITTSBURGH ST", "amenity": "post_box", "collection_times": "Mo-Sa 11:00", "nsi_id": "unitedstatespostalservice-a77078", "operator": "United States Postal Service", "operator:short": "USPS", "operator:type": "public", "operator:wikidata": "Q668687", "ref": "1542500007"}, "type": "Feature"}
{"geometry": {"coordinates": [-79.5893043, 40.018105], "type": "Point"}, "id": "O3NZuJE3I4pwQm92LM3aFsRnWc0=", "properties": {"@source_uri": "https://tools.usps.com/UspsToolsRestServices/rest/POLocator/findLocations", "@spider": "usps_collection_boxes", "addr:city": "CONNELLSVILLE", "addr:country": "US", "addr:postcode": "15425", "addr:state": "PA", "addr:street_address": "109 N PITTSBURGH ST", "amenity": "post_box", "collection_times": "Mo-Sa 14:00", "note": "ON 12/24 AND 12/31, THIS BOX MAY BE COLLECTED AS EARLY AS 12 NOON.", "nsi_id": "unitedstatespostalservice-a77078", "operator": "United States Postal Service", "operator:short": "USPS", "operator:type": "public", "operator:wikidata": "Q668687", "ref": "1542500008"}, "type": "Feature"}
{"geometry": {"coordinates": [-79.5953575, 40.022188], "type": "Point"}, "id": "iP0F_KcNkEl0D4k-Ra1VjUR4xjU=", "properties": {"@source_uri": "https://tools.usps.com/UspsToolsRestServices/rest/POLocator/findLocations", "@spider": "usps_collection_boxes", "addr:city": "CONNELLSVILLE", "addr:country": "US", "addr:postcode": "15425", "addr:state": "PA", "addr:street_address": "103 MEMORIAL BLVD", "amenity": "post_box", "collection_times": "Mo-Sa 13:45", "note": "ON 12/24 AND 12/31, THIS BOX MAY BE COLLECTED AS EARLY AS 12 NOON.", "nsi_id": "unitedstatespostalservice-a77078", "operator": "United States Postal Service", "operator:short": "USPS", "operator:type": "public", "operator:wikidata": "Q668687", "ref": "1542500013"}, "type": "Feature"}
{"geometry": {"coordinates": [-79.5861717, 40.01705], "type": "Point"}, "id": "Itjmmr0T0aXTbhK54AV15AcA6HQ=", "properties": {"@source_uri": "https://tools.usps.com/UspsToolsRestServices/rest/POLocator/findLocations", "@spider": "usps_collection_boxes", "addr:city": "CONNELLSVILLE", "addr:country": "US", "addr:postcode": "15425", "addr:state": "PA", "addr:street_address": "215 E FAIRVIEW AVE", "amenity": "post_box", "collection_times": "Mo-Fr 13:30; Sa 14:00", "note": "ON 12/24 AND 12/31, THIS BOX MAY BE COLLECTED AS EARLY AS 12 NOON.", "nsi_id": "unitedstatespostalservice-a77078", "operator": "United States Postal Service", "operator:short": "USPS", "operator:type": "public", "operator:wikidata": "Q668687", "ref": "1542500019"}, "type": "Feature"}
{"geometry": {"coordinates": [-79.5864334, 40.023315], "type": "Point"}, "id": "uDmASHDzkYX1nTC918Q6UtuNajM=", "properties": {"@source_uri": "https://tools.usps.com/UspsToolsRestServices/rest/POLocator/findLocations", "@spider": "usps_collection_boxes", "addr:city": "CONNELLSVILLE", "addr:country": "US", "addr:postcode": "15425", "addr:state": "PA", "addr:street_address": "401 E MURPHY AVE", "amenity": "post_box", "collection_times": "Mo-Sa 09:15", "nsi_id": "unitedstatespostalservice-a77078", "operator": "United States Postal Service", "operator:short": "USPS", "operator:type": "public", "operator:wikidata": "Q668687", "ref": "1542500022"}, "type": "Feature"}
{"geometry": {"coordinates": [-79.5948794, 40.017238], "type": "Point"}, "id": "GAywnEVpRPeVmigrRnzQoZIDGuw=", "properties": {"@source_uri": "https://tools.usps.com/UspsToolsRestServices/rest/POLocator/findLocations", "@spider": "usps_collection_boxes", "addr:city": "CONNELLSVILLE", "addr:country": "US", "addr:postcode": "15425", "addr:state": "PA", "addr:street_address": "401 W CRAWFORD AVE", "amenity": "post_box", "collection_times": "Mo-Sa 08:30", "nsi_id": "unitedstatespostalservice-a77078", "operator": "United States Postal Service", "operator:short": "USPS", "operator:type": "public", "operator:wikidata": "Q668687", "ref": "1542500027"}, "type": "Feature"}
{"geometry": {"coordinates": [-79.590790001, 40.017650006], "type": "Point"}, "id": "PGa5Bces4YdqnDKRdbAPWBsjHjs=", "properties": {"@source_uri": "https://tools.usps.com/UspsToolsRestServices/rest/POLocator/findLocations", "@spider": "usps_collection_boxes", "addr:city": "CONNELLSVILLE", "addr:country": "US", "addr:postcode": "15425", "addr:state": "PA", "addr:street_address": "150 W CRAWFORD AVE", "amenity": "post_box", "collection_times": "Mo-Fr 17:00; Sa 15:00", "note": "ON 12/24 AND 12/31, THIS BOX MAY BE COLLECTED AS EARLY AS 12 NOON.", "nsi_id": "unitedstatespostalservice-a77078", "operator": "United States Postal Service", "operator:short": "USPS", "operator:type": "public", "operator:wikidata": "Q668687", "ref": "1542500037"}, "type": "Feature"}
{"geometry": {"coordinates": [-79.5892482, 40.024722], "type": "Point"}, "id": "8RTxzqiEptnpX-vtLlb-lWecSlk=", "properties": {"@source_uri": "https://tools.usps.com/UspsToolsRestServices/rest/POLocator/findLocations", "@spider": "usps_collection_boxes", "addr:city": "CONNELLSVILLE", "addr:country": "US", "addr:postcode": "15425", "addr:state": "PA", "addr:street_address": "717 MCCORMICK AVE", "amenity": "post_box", "collection_times": "Mo-Sa 14:45", "note": "ON 12/24 AND 12/31, THIS BOX MAY BE COLLECTED AS EARLY AS 12 NOON.", "nsi_id": "unitedstatespostalservice-a77078", "operator": "United States Postal Service", "operator:short": "USPS", "operator:type": "public", "operator:wikidata": "Q668687", "ref": "1542500038"}, "type": "Feature"}
{"geometry": {"coordinates": [-79.5912759, 40.018303], "type": "Point"}, "id": "6dyfKZ-MBvX5nw1T842bQKvvCL0=", "properties": {"@source_uri": "https://tools.usps.com/UspsToolsRestServices/rest/POLocator/findLocations", "@spider": "usps_collection_boxes", "addr:city": "CONNELLSVILLE", "addr:country": "US", "addr:postcode": "15425", "addr:state": "PA", "addr:street_address": "115 N ARCH ST LBBY", "amenity": "post_box", "collection_times": "Mo-Fr 17:00; Sa 15:30", "indoor": "yes", "note": "ON 12/24 AND 12/31, THIS BOX MAY BE COLLECTED AS EARLY AS 12 NOON.", "nsi_id": "unitedstatespostalservice-a77078", "operator": "United States Postal Service", "operator:short": "USPS", "operator:type": "public", "operator:wikidata": "Q668687", "ref": "1542500045"}, "type": "Feature"}
{"geometry": {"coordinates": [-79.6487875, 39.958425], "type": "Point"}, "id": "qpSkV4fyoVphpI1TRW3PbkpS-Lg=", "properties": {"@source_uri": "https://tools.usps.com/UspsToolsRestServices/rest/POLocator/findLocations", "@spider": "usps_collection_boxes", "addr:city": "CONNELLSVILLE", "addr:country": "US", "addr:postcode": "15425", "addr:state": "PA", "addr:street_address": "300 LAUREL DR", "amenity": "post_box", "collection_times": "Mo-Sa 09:00", "nsi_id": "unitedstatespostalservice-a77078", "operator": "United States Postal Service", "operator:short": "USPS", "operator:type": "public", "operator:wikidata": "Q668687", "ref": "1542500047"}, "type": "Feature"}
{"geometry": {"coordinates": [-79.5845699, 40.019751], "type": "Point"}, "id": "GhYkroxsW3bMYqq2l0FJAMgU0Ig=", "properties": {"@source_uri": "https://tools.usps.com/UspsToolsRestServices/rest/POLocator/findLocations", "@spider": "usps_collection_boxes", "addr:city": "CONNELLSVILLE", "addr:country": "US", "addr:postcode": "15425", "addr:state": "PA", "addr:street_address": "302 E CRAWFORD AVE", "amenity": "post_box", "collection_times": "Mo-Fr 13:30; Sa 14:00", "note": "ON 12/24 AND 12/31, THIS BOX MAY BE COLLECTED AS EARLY AS 12 NOON.", "nsi_id": "unitedstatespostalservice-a77078", "operator": "United States Postal Service", "operator:short": "USPS", "operator:type": "public", "operator:wikidata": "Q668687", "ref": "1542500048"}, "type": "Feature"}
{"geometry": {"coordinates": [-79.59149863, 40.018259839], "type": "Point"}, "id": "CvHINBPtGx_MRVXZc5rSf2j3HYk=", "properties": {"@source_uri": "https://tools.usps.com/UspsToolsRestServices/rest/POLocator/findLocations", "@spider": "usps_collection_boxes", "addr:city": "CONNELLSVILLE", "addr:country": "US", "addr:postcode": "15425", "addr:state": "PA", "addr:street_address": "115 N ARCH ST", "amenity": "post_box", "collection_times": "Mo-Fr 17:00; Sa 13:00", "indoor": "yes", "note": "ON 12/24 AND 12/31, THIS BOX MAY BE COLLECTED AS EARLY AS 12 NOON.", "nsi_id": "unitedstatespostalservice-a77078", "operator": "United States Postal Service", "operator:short": "USPS", "operator:type": "public", "operator:wikidata": "Q668687", "ref": "1542500050"}, "type": "Feature"}
{"geometry": {"coordinates": [-79.932695492, 40.05404556], "type": "Point"}, "id": "doo-Vu5J_oQz9YalX6ZwBC7u0bk=", "properties": {"@source_uri": "https://tools.usps.com/UspsToolsRestServices/rest/POLocator/findLocations", "@spider": "usps_collection_boxes", "addr:city": "DAISYTOWN", "addr:country": "US", "addr:postcode": "15427", "addr:state": "PA", "addr:street_address": "545 PIKE RUN DR", "amenity": "post_box", "collection_times": "Mo-Fr 11:55; Sa 11:15", "nsi_id": "unitedstatespostalservice-a77078", "operator": "United States Postal Service", "operator:short": "USPS", "operator:type": "public", "operator:wikidata": "Q668687", "ref": "1542700001"}, "type": "Feature"}
{"geometry": {"coordinates": [-79.932695492, 40.05404556], "type": "Point"}, "id": "vxjP_j2dFSbqUnxZ4xbvNqF1nZk=", "properties": {"@source_uri": "https://tools.usps.com/UspsToolsRestServices/rest/POLocator/findLocations", "@spider": "usps_collection_boxes", "addr:city": "DAISYTOWN", "addr:country": "US", "addr:postcode": "15427", "addr:state": "PA", "addr:street_address": "545 PIKE RUN DR", "amenity": "post_box", "collection_times": "Mo-Fr 11:55; Sa 11:15", "indoor": "yes", "nsi_id": "unitedstatespostalservice-a77078", "operator": "United States Postal Service", "operator:short": "USPS", "operator:type": "public", "operator:wikidata": "Q668687", "ref": "1542700002"}, "type": "Feature"}
{"geometry": {"coordinates": [-79.932695492, 40.05404556], "type": "Point"}, "id": "37RQq15QnYFp-m90qHFVGnu7UdE=", "properties": {"@source_uri": "https://tools.usps.com/UspsToolsRestServices/rest/POLocator/findLocations", "@spider": "usps_collection_boxes", "addr:city": "DAISYTOWN", "addr:country": "US", "addr:postcode": "15427", "addr:state": "PA", "addr:street_address": "545 PIKE RUN DR", "amenity": "post_box", "collection_times": "Mo-Fr 11:55; Sa 11:10", "indoor": "yes", "nsi_id": "unitedstatespostalservice-a77078", "operator": "United States Postal Service", "operator:short": "USPS", "operator:type": "public", "operator:wikidata": "Q668687", "ref": "1542700004"}, "type": "Feature"}
{"geometry": {"coordinates": [-79.654329, 40.045662], "type": "Point"}, "id": "KmVj3_NFSpusG1dB3F9mbaT0c5U=", "properties": {"@source_uri": "https://tools.usps.com/UspsToolsRestServices/rest/POLocator/findLocations", "@spider": "usps_collection_boxes", "addr:city": "DAWSON", "addr:country": "US", "addr:postcode": "15428", "addr:state": "PA", "addr:street_address": "101 RAILROAD ST", "amenity": "post_box", "collection_times": "Mo-Fr 16:00; Sa 11:00", "note": "ON 12/24 AND 12/31, THIS BOX MAY BE COLLECTED AS EARLY AS 12 NOON.", "nsi_id": "unitedstatespostalservice-a77078", "operator": "United States Postal Service", "operator:short": "USPS", "operator:type": "public", "operator:wikidata": "Q668687", "ref": "1542800001"}, "type": "Feature"}
{"geometry": {"coordinates": [-79.654249, 40.045591], "type": "Point"}, "id": "49jR7cmfk1fYEknCt1lpOsXnPzM=", "properties": {"@source_uri": "https://tools.usps.com/UspsToolsRestServices/rest/POLocator/findLocations", "@spider": "usps_collection_boxes", "addr:city": "DAWSON", "addr:country": "US", "addr:postcode": "15428", "addr:state": "PA", "addr:street_address": "101 RAILROAD ST", "amenity": "post_box", "collection_times": "Mo-Fr 16:00; Sa 11:00", "indoor": "yes", "note": "ON 12/24 AND 12/31, THIS BOX MAY BE COLLECTED AS EARLY AS 12 NOON.", "nsi_id": "unitedstatespostalservice-a77078", "operator": "United States Postal Service", "operator:short": "USPS", "operator:type": "public", "operator:wikidata": "Q668687", "ref": "1542800002"}, "type": "Feature"}
{"geometry": {"coordinates": [-79.654285108, 40.045683749], "type": "Point"}, "id": "lpTAOKAUJg6ULqPAm7Fex4F40r0=", "properties": {"@source_uri": "https://tools.usps.com/UspsToolsRestServices/rest/POLocator/findLocations", "@spider": "usps_collection_boxes", "addr:city": "DAWSON", "addr:country": "US", "addr:postcode": "15428", "addr:state": "PA", "addr:street_address": "101 RAILROAD ST", "amenity": "post_box", "collection_times": "Mo-Fr 16:30; Sa 11:25", "indoor": "yes", "note": "ON 12/24 AND 12/31, THIS BOX MAY BE COLLECTED AS EARLY AS 12 NOON.", "nsi_id": "unitedstatespostalservice-a77078", "operator": "United States Postal Service", "operator:short": "USPS", "operator:type": "public", "operator:wikidata": "Q668687", "ref": "1542800006"}, "type": "Feature"}
{"geometry": {"coordinates": [-79.660813, 40.041769], "type": "Point"}, "id": "YxxfylEAIVyJu8ukTYEjAcxXiDY=", "properties": {"@source_uri": "https://tools.usps.com/UspsToolsRestServices/rest/POLocator/findLocations", "@spider": "usps_collection_boxes", "addr:city": "DICKERSON RUN", "addr:country": "US", "addr:postcode": "15430", "addr:state": "PA", "addr:street_address": "232 MAIN ST", "amenity": "post_box", "collection_times": "Mo-Fr 12:25; Sa 11:30", "note": "ON 12/24 AND 12/31, THIS BOX MAY BE COLLECTED AS EARLY AS 12 NOON.", "nsi_id": "unitedstatespostalservice-a77078", "operator": "United States Postal Service", "operator:short": "USPS", "operator:type": "public", "operator:wikidata": "Q668687", "ref": "1543000001"}, "type": "Feature"}
{"geometry": {"coordinates": [-79.660884, 40.041705], "type": "Point"}, "id": "-ETGNFZEJYyUv18OvfIG6tpz6Bw=", "properties": {"@source_uri": "https://tools.usps.com/UspsToolsRestServices/rest/POLocator/findLocations", "@spider": "usps_collection_boxes", "addr:city": "DICKERSON RUN", "addr:country": "US", "addr:postcode": "15430", "addr:state": "PA", "addr:street_address": "232 MAIN ST", "amenity": "post_box", "collection_times": "Mo-Fr 12:25; Sa 11:30", "indoor": "yes", "note": "ON 12/24 AND 12/31, THIS BOX MAY BE COLLECTED AS EARLY AS 12 NOON.", "nsi_id": "unitedstatespostalservice-a77078", "operator": "United States Postal Service", "operator:short": "USPS", "operator:type": "public", "operator:wikidata": "Q668687", "ref": "1543000002"}, "type": "Feature"}
{"geometry": {"coordinates": [-79.902265626, 39.736764985], "type": "Point"}, "id": "lNVNqGs3Wz0jZIsGlsNko9QAlM8=", "properties": {"@source_uri": "https://tools.usps.com/UspsToolsRestServices/rest/POLocator/findLocations", "@spider": "usps_collection_boxes", "addr:city": "DICKERSON RUN", "addr:country": "US", "addr:postcode": "15430", "addr:state": "PA", "addr:street_address": "232 MAIN ST", "amenity": "post_box", "collection_times": "Mo-Fr 12:25; Sa 11:25", "indoor": "yes", "note": "ON 12/24 AND 12/31, THIS BOX MAY BE COLLECTED AS EARLY AS 12 NOON.", "nsi_id": "unitedstatespostalservice-a77078", "operator": "United States Postal Service", "operator:short": "USPS", "operator:type": "public", "operator:wikidata": "Q668687", "ref": "1543000004"}, "type": "Feature"}
{"geometry": {"coordinates": [-79.616236, 39.975805], "type": "Point"}, "id": "bubonk1yrVtODZ6kRsDf_FjgCE8=", "properties": {"@source_uri": "https://tools.usps.com/UspsToolsRestServices/rest/POLocator/findLocations", "@spider": "usps_collection_boxes", "addr:city": "DUNBAR", "addr:country": "US", "addr:postcode": "15431", "addr:state": "PA", "addr:street_address": "27 CHURCH ST", "amenity": "post_box", "collection_times": "Mo-Fr 16:45; Sa 11:15", "note": "ON 12/24 AND 12/31, THIS BOX MAY BE COLLECTED AS EARLY AS 12 NOON.", "nsi_id": "unitedstatespostalservice-a77078", "operator": "United States Postal Service", "operator:short": "USPS", "operator:type": "public", "operator:wikidata": "Q668687", "ref": "1543100001"}, "type": "Feature"}
{"geometry": {"coordinates": [-79.616236, 39.975805], "type": "Point"}, "id": "HZgvzqpbf_clCUKcEDu5yeZLKx0=", "properties": {"@source_uri": "https://tools.usps.com/UspsToolsRestServices/rest/POLocator/findLocations", "@spider": "usps_collection_boxes", "addr:city": "DUNBAR", "addr:country": "US", "addr:postcode": "15431", "addr:state": "PA", "addr:street_address": "27 CHURCH ST", "amenity": "post_box", "collection_times": "Mo-Fr 16:45; Sa 11:15", "indoor": "yes", "note": "ON 12/24 AND 12/31, THIS BOX MAY BE COLLECTED AS EARLY AS 12 NOON.", "nsi_id": "unitedstatespostalservice-a77078", "operator": "United States Postal Service", "operator:short": "USPS", "operator:type": "public", "operator:wikidata": "Q668687", "ref": "1543100005"}, "type": "Feature"}
{"geometry": {"coordinates": [-79.616236, 39.975805], "type": "Point"}, "id": "ebrHShXFsQjLHL8A3oUBdt3fRig=", "properties": {"@source_uri": "https://tools.usps.com/UspsToolsRestServices/rest/POLocator/findLocations", "@spider": "usps_collection_boxes", "addr:city": "DUNBAR", "addr:country": "US", "addr:postcode": "15431", "addr:state": "PA", "addr:street_address": "27 CHURCH ST", "amenity": "post_box", "collection_times": "Mo-Fr 16:45; Sa 11:15", "indoor": "yes", "note": "ON 12/24 AND 12/31, THIS BOX MAY BE COLLECTED AS EARLY AS 12 NOON.", "nsi_id": "unitedstatespostalservice-a77078", "operator": "United States Postal Service", "operator:short": "USPS", "operator:type": "public", "operator:wikidata": "Q668687", "ref": "1543100006"}, "type": "Feature"}
{"geometry": {"coordinates": [-79.616232624, 39.975842809], "type": "Point"}, "id": "IORdvrlyqZLLVg17LUP3RCaP4A8=", "properties": {"@source_uri": "https://tools.usps.com/UspsToolsRestServices/rest/POLocator/findLocations", "@spider": "usps_collection_boxes", "addr:city": "DUNBAR", "addr:country": "US", "addr:postcode": "15431", "addr:state": "PA", "addr:street_address": "27 CHURCH ST", "amenity": "post_box", "collection_times": "Mo-Fr 16:45; Sa 11:15", "indoor": "yes", "note": "ON 12/24 AND 12/31, THIS BOX MAY BE COLLECTED AS EARLY AS 12 NOON.", "nsi_id": "unitedstatespostalservice-a77078", "operator": "United States Postal Service", "operator:short": "USPS", "operator:type": "public", "operator:wikidata": "Q668687", "ref": "1543100009"}, "type": "Feature"}
{"geometry": {"coordinates": [-79.857361, 40.113164], "type": "Point"}, "id": "PffAEGMDd5jkAp48WCRWTRqmRls=", "properties": {"@source_uri": "https://tools.usps.com/UspsToolsRestServices/rest/POLocator/findLocations", "@spider": "usps_collection_boxes", "addr:city": "DUNLEVY", "addr:country": "US", "addr:postcode": "15432", "addr:state": "PA", "addr:street_address": "2216 ROUTE 88", "amenity": "post_box", "collection_times": "Mo-Fr 15:30; Sa 11:45", "note": "ON 12/24 AND 12/31, THIS BOX MAY BE COLLECTED AS EARLY AS 12 NOON.", "nsi_id": "unitedstatespostalservice-a77078", "operator": "United States Postal Service", "operator:short": "USPS", "operator:type": "public", "operator:wikidata": "Q668687", "ref": "1543200001"}, "type": "Feature"}
{"geometry": {"coordinates": [-79.857278, 40.113094], "type": "Point"}, "id": "Ku_Kx_q1FdVW5td-8yqlFxOcPmw=", "properties": {"@source_uri": "https://tools.usps.com/UspsToolsRestServices/rest/POLocator/findLocations", "@spider": "usps_collection_boxes", "addr:city": "DUNLEVY", "addr:country": "US", "addr:postcode": "15432", "addr:state": "PA", "addr:street_address": "2216 ROUTE 88", "amenity": "post_box", "collection_times": "Mo-Fr 15:30; Sa 11:45", "indoor": "yes", "note": "ON 12/24 AND 12/31, THIS BOX MAY BE COLLECTED AS EARLY AS 12 NOON.", "nsi_id": "unitedstatespostalservice-a77078", "operator": "United States Postal Service", "operator:short": "USPS", "operator:type": "public", "operator:wikidata": "Q668687", "ref": "1543200002"}, "type": "Feature"}
{"geometry": {"coordinates": [-79.857221356, 40.113091014], "type": "Point"}, "id": "IXKphQmCyfv8aVhv51oKHypdSCY=", "properties": {"@source_uri": "https://tools.usps.com/UspsToolsRestServices/rest/POLocator/findLocations", "@spider": "usps_collection_boxes", "addr:city": "DUNLEVY", "addr:country": "US", "addr:postcode": "15432", "addr:state": "PA", "addr:street_address": "2216 ROUTE 88", "amenity": "post_box", "collection_times": "Mo-Fr 15:45; Sa 11:25", "indoor": "yes", "note": "ON 12/24 AND 12/31, THIS BOX MAY BE COLLECTED AS EARLY AS 12 NOON.", "nsi_id": "unitedstatespostalservice-a77078", "operator": "United States Postal Service", "operator:short": "USPS", "operator:type": "public", "operator:wikidata": "Q668687", "ref": "1543200004"}, "type": "Feature"}
{"geometry": {"coordinates": [-79.993669, 39.981098], "type": "Point"}, "id": "f3iPhbxs5YKcDXYTCMIxWUx-oyA=", "properties": {"@source_uri": "https://tools.usps.com/UspsToolsRestServices/rest/POLocator/findLocations", "@spider": "usps_collection_boxes", "addr:city": "EAST MILLSBORO", "addr:country": "US", "addr:postcode": "15433", "addr:state": "PA", "addr:street_address": "326 MILLSBORO RD", "amenity": "post_box", "collection_times": "Mo-Fr 13:50; Sa 11:30", "note": "ON 12/24 AND 12/31, THIS BOX MAY BE COLLECTED AS EARLY AS 12 NOON.", "nsi_id": "unitedstatespostalservice-a77078", "operator": "United States Postal Service", "operator:short": "USPS", "operator:type": "public", "operator:wikidata": "Q668687", "ref": "1543300001"}, "type": "Feature"}
{"geometry": {"coordinates": [-79.993621, 39.981012], "type": "Point"}, "id": "H6_6xAyw4hsdwuo-tWagroh5eEY=", "properties": {"@source_uri": "https://tools.usps.com/UspsToolsRestServices/rest/POLocator/findLocations", "@spider": "usps_collection_boxes", "addr:city": "EAST MILLSBORO", "addr:country": "US", "addr:postcode": "15433", "addr:state": "PA", "addr:street_address": "326 MILLSBORO RD", "amenity": "post_box", "collection_times": "Mo-Fr 13:50; Sa 11:30", "indoor": "yes", "note": "ON 12/24 AND 12/31, THIS BOX MAY BE COLLECTED AS EARLY AS 12 NOON.", "nsi_id": "unitedstatespostalservice-a77078", "operator": "United States Postal Service", "operator:short": "USPS", "operator:type": "public", "operator:wikidata": "Q668687", "ref": "1543300002"}, "type": "Feature"}
{"geometry": {"coordinates": [-79.994130529, 39.981506646], "type": "Point"}, "id": "y_Nc9JtWCMV10HTmNF4UU5LNd5M=", "properties": {"@source_uri": "https://tools.usps.com/UspsToolsRestServices/rest/POLocator/findLocations", "@spider": "usps_collection_boxes", "addr:city": "EAST MILLSBORO", "addr:country": "US", "addr:postcode": "15433", "addr:state": "PA", "addr:street_address": "326 MILLSBORO RD", "amenity": "post_box", "collection_times": "Mo-Fr 13:50; Sa 11:20", "indoor": "yes", "note": "ON 12/24 AND 12/31, THIS BOX MAY BE COLLECTED AS EARLY AS 12 NOON.", "nsi_id": "unitedstatespostalservice-a77078", "operator": "United States Postal Service", "operator:short": "USPS", "operator:type": "public", "operator:wikidata": "Q668687", "ref": "1543300004"}, "type": "Feature"}
{"geometry": {"coordinates": [-79.844759, 39.941162], "type": "Point"}, "id": "g4NcIZSKaueCvNhOUrfl8SCfUT4=", "properties": {"@source_uri": "https://tools.usps.com/UspsToolsRestServices/rest/POLocator/findLocations", "@spider": "usps_collection_boxes", "addr:city": "FAIRBANK", "addr:country": "US", "addr:postcode": "15435", "addr:state": "PA", "addr:street_address": "650 FAIRBANK HERBERT RD", "amenity": "post_box", "collection_times": "Mo-Fr 11:55; Sa 11:45", "nsi_id": "unitedstatespostalservice-a77078", "operator": "United States Postal Service", "operator:short": "USPS", "operator:type": "public", "operator:wikidata": "Q668687", "ref": "1543500001"}, "type": "Feature"}
{"geometry": {"coordinates": [-79.844713, 39.94115], "type": "Point"}, "id": "xyn3f8k2ChLvq2XWS5KyhSaM82w=", "properties": {"@source_uri": "https://tools.usps.com/UspsToolsRestServices/rest/POLocator/findLocations", "@spider": "usps_collection_boxes", "addr:city": "FAIRBANK", "addr:country": "US", "addr:postcode": "15435", "addr:state": "PA", "addr:street_address": "650 FAIRBANK HERBERT RD", "amenity": "post_box", "collection_times": "Mo-Fr 11:55; Sa 11:45", "indoor": "yes", "nsi_id": "unitedstatespostalservice-a77078", "operator": "United States Postal Service", "operator:short": "USPS", "operator:type": "public", "operator:wikidata": "Q668687", "ref": "1543500002"}, "type": "Feature"}
{"geometry": {"coordinates": [-79.846191925, 39.940640523], "type": "Point"}, "id": "HHwAXq5DYOBMzg7d013900K_ps4=", "properties": {"@source_uri": "https://tools.usps.com/UspsToolsRestServices/rest/POLocator/findLocations", "@spider": "usps_collection_boxes", "addr:city": "FAIRBANK", "addr:country": "US", "addr:postcode": "15435", "addr:state": "PA", "addr:street_address": "650 FAIRBANK HERBERT RD", "amenity": "post_box", "collection_times": "Mo-Fr 11:55; Sa 11:25", "indoor": "yes", "nsi_id": "unitedstatespostalservice-a77078", "operator": "United States Postal Service", "operator:short": "USPS", "operator:type": "public", "operator:wikidata": "Q668687", "ref": "1543500004"}, "type": "Feature"}
{"geometry": {"coordinates": [-79.7543, 39.820253], "type": "Point"}, "id": "s6TDBODvLrEhOXu38L18lX01Yq8=", "properties": {"@source_uri": "https://tools.usps.com/UspsToolsRestServices/rest/POLocator/findLocations", "@spider": "usps_collection_boxes", "addr:city": "FAIRCHANCE", "addr:country": "US", "addr:postcode": "15436", "addr:state": "PA", "addr:street_address": "50 W CHURCH ST", "amenity": "post_box", "collection_times": "Mo-Fr 16:30; Sa 15:30", "note": "ON 12/24 AND 12/31, THIS BOX MAY BE COLLECTED AS EARLY AS 12 NOON.", "nsi_id": "unitedstatespostalservice-a77078", "operator": "United States Postal Service", "operator:short": "USPS", "operator:type": "public", "operator:wikidata": "Q668687", "ref": "1543600001"}, "type": "Feature"}
{"geometry": {"coordinates": [-79.7522281, 39.819884], "type": "Point"}, "id": "_pQGitbVf8iPHm3go8SImP_ZmPs=", "properties": {"@source_uri": "https://tools.usps.com/UspsToolsRestServices/rest/POLocator/findLocations", "@spider": "usps_collection_boxes", "addr:city": "FAIRCHANCE", "addr:country": "US", "addr:postcode": "15436", "addr:state": "PA", "addr:street_address": "2 S MAIN ST", "amenity": "post_box", "collection_times": "Mo-Sa 10:15", "nsi_id": "unitedstatespostalservice-a77078", "operator": "United States Postal Service", "operator:short": "USPS", "operator:type": "public", "operator:wikidata": "Q668687", "ref": "1543600002"}, "type": "Feature"}
{"geometry": {"coordinates": [-79.7577307, 39.820542], "type": "Point"}, "id": "bbba9LEUc2QX3bfXdk5QUAQZuwQ=", "properties": {"@source_uri": "https://tools.usps.com/UspsToolsRestServices/rest/POLocator/findLocations", "@spider": "usps_collection_boxes", "addr:city": "FAIRCHANCE", "addr:country": "US", "addr:postcode": "15436", "addr:state": "PA", "addr:street_address": "125 W CHURCH ST", "amenity": "post_box", "collection_times": "Mo-Sa 12:30", "note": "ON 12/24 AND 12/31, THIS BOX MAY BE COLLECTED AS EARLY AS 12 NOON.", "nsi_id": "unitedstatespostalservice-a77078", "operator": "United States Postal Service", "operator:short": "USPS", "operator:type": "public", "operator:wikidata": "Q668687", "ref": "1543600004"}, "type": "Feature"}
{"geometry": {"coordinates": [-79.7535664, 39.826192], "type": "Point"}, "id": "PXpMgOPHlkW5I1B9HSU0r8U-Tg4=", "properties": {"@source_uri": "https://tools.usps.com/UspsToolsRestServices/rest/POLocator/findLocations", "@spider": "usps_collection_boxes", "addr:city": "FAIRCHANCE", "addr:country": "US", "addr:postcode": "15436", "addr:state": "PA", "addr:street_address": "89 N MORGANTOWN ST", "amenity": "post_box", "collection_times": "Mo-Sa 12:30", "note": "ON 12/24 AND 12/31, THIS BOX MAY BE COLLECTED AS EARLY AS 12 NOON.", "nsi_id": "unitedstatespostalservice-a77078", "operator": "United States Postal Service", "operator:short": "USPS", "operator:type": "public", "operator:wikidata": "Q668687", "ref": "1543600006"}, "type": "Feature"}
{"geometry": {"coordinates": [-79.7595304, 39.81822], "type": "Point"}, "id": "jH7ITvdp7icxkwOdSSNxc8uXp-w=", "properties": {"@source_uri": "https://tools.usps.com/UspsToolsRestServices/rest/POLocator/findLocations", "@spider": "usps_collection_boxes", "addr:city": "FAIRCHANCE", "addr:country": "US", "addr:postcode": "15436", "addr:state": "PA", "addr:street_address": "9 GUTHRIE AVE", "amenity": "post_box", "collection_times": "Mo-Sa 14:30", "note": "ON 12/24 AND 12/31, THIS BOX MAY BE COLLECTED AS EARLY AS 12 NOON.", "nsi_id": "unitedstatespostalservice-a77078", "operator": "United States Postal Service", "operator:short": "USPS", "operator:type": "public", "operator:wikidata": "Q668687", "ref": "1543600007"}, "type": "Feature"}
{"geometry": {"coordinates": [-79.7543, 39.820253], "type": "Point"}, "id": "lALBarT7p7FL3xBmL4G1-eBY8mg=", "properties": {"@source_uri": "https://tools.usps.com/UspsToolsRestServices/rest/POLocator/findLocations", "@spider": "usps_collection_boxes", "addr:city": "FAIRCHANCE", "addr:country": "US", "addr:postcode": "15436", "addr:state": "PA", "addr:street_address": "50 W CHURCH ST LBBY", "amenity": "post_box", "collection_times": "Mo-Fr 16:30; Sa 15:30", "indoor": "yes", "note": "ON 12/24 AND 12/31, THIS BOX MAY BE COLLECTED AS EARLY AS 12 NOON.", "nsi_id": "unitedstatespostalservice-a77078", "operator": "United States Postal Service", "operator:short": "USPS", "operator:type": "public", "operator:wikidata": "Q668687", "ref": "1543600012"}, "type": "Feature"}
{"geometry": {"coordinates": [-79.7543, 39.820253], "type": "Point"}, "id": "fDkPEMQ5NnMqyjGtKNrs-xUIpjE=", "properties": {"@source_uri": "https://tools.usps.com/UspsToolsRestServices/rest/POLocator/findLocations", "@spider": "usps_collection_boxes", "addr:city": "FAIRCHANCE", "addr:country": "US", "addr:postcode": "15436", "addr:state": "PA", "addr:street_address": "50 W CHURCH ST LBBY", "amenity": "post_box", "collection_times": "Mo-Fr 16:30; Sa 15:30", "indoor": "yes", "note": "ON 12/24 AND 12/31, THIS BOX MAY BE COLLECTED AS EARLY AS 12 NOON.", "nsi_id": "unitedstatespostalservice-a77078", "operator": "United States Postal Service", "operator:short": "USPS", "operator:type": "public", "operator:wikidata": "Q668687", "ref": "1543600013"}, "type": "Feature"}
{"geometry": {"coordinates": [-79.754300207, 39.820290595], "type": "Point"}, "id": "rrMukDa1mrIfRDa5DRdqmOzO10I=", "properties": {"@source_uri": "https://tools.usps.com/UspsToolsRestServices/rest/POLocator/findLocations", "@spider": "usps_collection_boxes", "addr:city": "FAIRCHANCE", "addr:country": "US", "addr:postcode": "15436", "addr:state": "PA", "addr:street_address": "50 W CHURCH ST", "amenity": "post_box", "collection_times": "Mo-Fr 16:30; Sa 12:00", "indoor": "yes", "note": "ON 12/24 AND 12/31, THIS BOX MAY BE COLLECTED AS EARLY AS 12 NOON.", "nsi_id": "unitedstatespostalservice-a77078", "operator": "United States Postal Service", "operator:short": "USPS", "operator:type": "public", "operator:wikidata": "Q668687", "ref": "1543600015"}, "type": "Feature"}
{"geometry": {"coordinates": [-79.565192, 39.807282], "type": "Point"}, "id": "cVIyV1nTQ8OzlPCsExXG3ThxfII=", "properties": {"@source_uri": "https://tools.usps.com/UspsToolsRestServices/rest/POLocator/findLocations", "@spider": "usps_collection_boxes", "addr:city": "FARMINGTON", "addr:country": "US", "addr:postcode": "15437", "addr:state": "PA", "addr:street_address": "103 FARMINGTON OHIOPYLE RD", "amenity": "post_box", "collection_times": "Mo-Fr 16:30; Sa 11:30", "note": "ON 12/24 AND 12/31, THIS BOX MAY BE COLLECTED AS EARLY AS 12 NOON.", "nsi_id": "unitedstatespostalservice-a77078", "operator": "United States Postal Service", "operator:short": "USPS", "operator:type": "public", "operator:wikidata": "Q668687", "ref": "1543700001"}, "type": "Feature"}
{"geometry": {"coordinates": [-79.565192, 39.807282], "type": "Point"}, "id": "p0d-okGJAyz3_8sfAnyDyED2TeU=", "properties": {"@source_uri": "https://tools.usps.com/UspsToolsRestServices/rest/POLocator/findLocations", "@spider": "usps_collection_boxes", "addr:city": "FARMINGTON", "addr:country": "US", "addr:postcode": "15437", "addr:state": "PA", "addr:street_address": "103 FARMINGTON OHIOPYLE RD", "amenity": "post_box", "collection_times": "Mo-Fr 16:30; Sa 11:30", "indoor": "yes", "note": "ON 12/24 AND 12/31, THIS BOX MAY BE COLLECTED AS EARLY AS 12 NOON.", "nsi_id": "unitedstatespostalservice-a77078", "operator": "United States Postal Service", "operator:short": "USPS", "operator:type": "public", "operator:wikidata": "Q668687", "ref": "1543700002"}, "type": "Feature"}
{"geometry": {"coordinates": [-79.565185801, 39.807270848], "type": "Point"}, "id": "AZYkPAnfSwV0rmYX2nMCS5PTOwg=", "properties": {"@source_uri": "https://tools.usps.com/UspsToolsRestServices/rest/POLocator/findLocations", "@spider": "usps_collection_boxes", "addr:city": "FARMINGTON", "addr:country": "US", "addr:postcode": "15437", "addr:state": "PA", "addr:street_address": "103 FARMINGTON OHIOPYLE RD", "amenity": "post_box", "collection_times": "Mo-Fr 16:30; Sa 11:30", "indoor": "yes", "note": "ON 12/24 AND 12/31, THIS BOX MAY BE COLLECTED AS EARLY AS 12 NOON.", "nsi_id": "unitedstatespostalservice-a77078", "operator": "United States Postal Service", "operator:short": "USPS", "operator:type": "public", "operator:wikidata": "Q668687", "ref": "1543700004"}, "type": "Feature"}
{"geometry": {"coordinates": [-79.840141, 40.102393], "type": "Point"}, "id": "fVfCuOCP035QqUuBqEbS6IUj9dY=", "properties": {"@source_uri": "https://tools.usps.com/UspsToolsRestServices/rest/POLocator/findLocations", "@spider": "usps_collection_boxes", "addr:city": "FAYETTE CITY", "addr:country": "US", "addr:postcode": "15438", "addr:state": "PA", "addr:street_address": "111 JOHNSON HOLLOW RD", "amenity": "post_box", "collection_times": "Mo-Fr 16:15; Sa 12:00", "note": "ON 12/24 AND 12/31, THIS BOX MAY BE COLLECTED AS EARLY AS 12 NOON.", "nsi_id": "unitedstatespostalservice-a77078", "operator": "United States Postal Service", "operator:short": "USPS", "operator:type": "public", "operator:wikidata": "Q668687", "ref": "1543800001"}, "type": "Feature"}
{"geometry": {"coordinates": [-79.840141, 40.102393], "type": "Point"}, "id": "zYWF8FQTHGoJi2G_tXyrydtxzBc=", "properties": {"@source_uri": "https://tools.usps.com/UspsToolsRestServices/rest/POLocator/findLocations", "@spider": "usps_collection_boxes", "addr:city": "FAYETTE CITY", "addr:country": "US", "addr:postcode": "15438", "addr:state": "PA", "addr:street_address": "111 JOHNSON HOLLOW RD", "amenity": "post_box", "collection_times": "Mo-Fr 16:15; Sa 12:00", "indoor": "yes", "note": "ON 12/24 AND 12/31, THIS BOX MAY BE COLLECTED AS EARLY AS 12 NOON.", "nsi_id": "unitedstatespostalservice-a77078", "operator": "United States Postal Service", "operator:short": "USPS", "operator:type": "public", "operator:wikidata": "Q668687", "ref": "1543800004"}, "type": "Feature"}
{"geometry": {"coordinates": [-79.8396247, 40.09949], "type": "Point"}, "id": "EvZBaDy_iKjoUcEByJyMR9zLFpk=", "properties": {"@source_uri": "https://tools.usps.com/UspsToolsRestServices/rest/POLocator/findLocations", "@spider": "usps_collection_boxes", "addr:city": "FAYETTE CITY", "addr:country": "US", "addr:postcode": "15438", "addr:state": "PA", "addr:street_address": "302 MAIN ST", "amenity": "post_box", "collection_times": "Mo-Fr 13:15; Sa 12:00", "note": "ON 12/24 AND 12/31, THIS BOX MAY BE COLLECTED AS EARLY AS 12 NOON.", "nsi_id": "unitedstatespostalservice-a77078", "operator": "United States Postal Service", "operator:short": "USPS", "operator:type": "public", "operator:wikidata": "Q668687", "ref": "1543800005"}, "type": "Feature"}
{"geometry": {"coordinates": [-79.839842305, 40.102878833], "type": "Point"}, "id": "oDqv5irrjKGDUg3EQjOJpnRaeus=", "properties": {"@source_uri": "https://tools.usps.com/UspsToolsRestServices/rest/POLocator/findLocations", "@spider": "usps_collection_boxes", "addr:city": "FAYETTE CITY", "addr:country": "US", "addr:postcode": "15438", "addr:state": "PA", "addr:street_address": "111 JOHNSON HOLLOW RD", "amenity": "post_box", "collection_times": "Mo-Fr 16:30", "indoor": "yes", "note": "ON 12/24 AND 12/31, THIS BOX MAY BE COLLECTED AS EARLY AS 12 NOON.", "nsi_id": "unitedstatespostalservice-a77078", "operator": "United States Postal Service", "operator:short": "USPS", "operator:type": "public", "operator:wikidata": "Q668687", "ref": "1543800007"}, "type": "Feature"}
{"geometry": {"coordinates": [-79.594397, 39.73979], "type": "Point"}, "id": "tZQNO5Qdhdmp8IIsd2TbbF02ncs=", "properties": {"@source_uri": "https://tools.usps.com/UspsToolsRestServices/rest/POLocator/findLocations", "@spider": "usps_collection_boxes", "addr:city": "GIBBON GLADE", "addr:country": "US", "addr:postcode": "15440", "addr:state": "PA", "addr:street_address": "872 GIBBON GLADE RD", "amenity": "post_box", "collection_times": "Mo-Fr 10:50; Sa 11:45", "nsi_id": "unitedstatespostalservice-a77078", "operator": "United States Postal Service", "operator:short": "USPS", "operator:type": "public", "operator:wikidata": "Q668687", "ref": "1544000001"}, "type": "Feature"}
{"geometry": {"coordinates": [-79.594445, 39.739863], "type": "Point"}, "id": "TogvY1Al7Y87P6xp1iypFrPuG0g=", "properties": {"@source_uri": "https://tools.usps.com/UspsToolsRestServices/rest/POLocator/findLocations", "@spider": "usps_collection_boxes", "addr:city": "GIBBON GLADE", "addr:country": "US", "addr:postcode": "15440", "addr:state": "PA", "addr:street_address": "872 GIBBON GLADE RD", "amenity": "post_box", "collection_times": "Mo-Fr 10:50; Sa 11:45", "indoor": "yes", "nsi_id": "unitedstatespostalservice-a77078", "operator": "United States Postal Service", "operator:short": "USPS", "operator:type": "public", "operator:wikidata": "Q668687", "ref": "1544000002"}, "type": "Feature"}
{"geometry": {"coordinates": [-79.594415968, 39.73991044], "type": "Point"}, "id": "WkljQVFZUVK6f4rhoVKK3fFMNX8=", "properties": {"@source_uri": "https://tools.usps.com/UspsToolsRestServices/rest/POLocator/findLocations", "@spider": "usps_collection_boxes", "addr:city": "GIBBON GLADE", "addr:country": "US", "addr:postcode": "15440", "addr:state": "PA", "addr:street_address": "872 GIBBON GLADE RD", "amenity": "post_box", "collection_times": "Mo-Fr 10:50; Sa 11:20", "indoor": "yes", "nsi_id": "unitedstatespostalservice-a77078", "operator": "United States Postal Service", "operator:short": "USPS", "operator:type": "public", "operator:wikidata": "Q668687", "ref": "1544000004"}, "type": "Feature"}
{"geometry": {"coordinates": [-79.830281, 40.013344], "type": "Point"}, "id": "rQAT6di2dFHTrYtu1kSgaQG9Cwc=", "properties": {"@source_uri": "https://tools.usps.com/UspsToolsRestServices/rest/POLocator/findLocations", "@spider": "usps_collection_boxes", "addr:city": "GRINDSTONE", "addr:country": "US", "addr:postcode": "15442", "addr:state": "PA", "addr:street_address": "563 GRINDSTONE RD", "amenity": "post_box", "collection_times": "Mo-Fr 11:55; Sa 11:45", "nsi_id": "unitedstatespostalservice-a77078", "operator": "United States Postal Service", "operator:short": "USPS", "operator:type": "public", "operator:wikidata": "Q668687", "ref": "1544200001"}, "type": "Feature"}
{"geometry": {"coordinates": [-79.836073, 40.032614], "type": "Point"}, "id": "QMKBXUuhz0EqulzRefT99Y6D5ok=", "properties": {"@source_uri": "https://tools.usps.com/UspsToolsRestServices/rest/POLocator/findLocations", "@spider": "usps_collection_boxes", "addr:city": "GRINDSTONE", "addr:country": "US", "addr:postcode": "15442", "addr:state": "PA", "addr:street_address": "563 GRINDSTONE RD", "amenity": "post_box", "collection_times": "Mo-Fr 11:55; Sa 11:45", "indoor": "yes", "nsi_id": "unitedstatespostalservice-a77078", "operator": "United States Postal Service", "operator:short": "USPS", "operator:type": "public", "operator:wikidata": "Q668687", "ref": "1544200003"}, "type": "Feature"}
{"geometry": {"coordinates": [-79.836051509, 40.032600504], "type": "Point"}, "id": "yHQGybNfxFXOb2fyi3kDKxutnlg=", "properties": {"@source_uri": "https://tools.usps.com/UspsToolsRestServices/rest/POLocator/findLocations", "@spider": "usps_collection_boxes", "addr:city": "GRINDSTONE", "addr:country": "US", "addr:postcode": "15442", "addr:state": "PA", "addr:street_address": "563 GRINDSTONE RD", "amenity": "post_box", "collection_times": "Mo-Sa 11:55", "indoor": "yes", "nsi_id": "unitedstatespostalservice-a77078", "operator": "United States Postal Service", "operator:short": "USPS", "operator:type": "public", "operator:wikidata": "Q668687", "ref": "1544200005"}, "type": "Feature"}
{"geometry": {"coordinates": [-79.881864, 39.928781], "type": "Point"}, "id": "JgzcXby9BEJXierSM2qp7HuMUqo=", "properties": {"@source_uri": "https://tools.usps.com/UspsToolsRestServices/rest/POLocator/findLocations", "@spider": "usps_collection_boxes", "addr:city": "HIBBS", "addr:country": "US", "addr:postcode": "15443", "addr:state": "PA", "addr:street_address": "1006 RALPH NEW SALEM RD", "amenity": "post_box", "collection_times": "Mo-Fr 11:55; Sa 11:45", "nsi_id": "unitedstatespostalservice-a77078", "operator": "United States Postal Service", "operator:short": "USPS", "operator:type": "public", "operator:wikidata": "Q668687", "ref": "1544300001"}, "type": "Feature"}
{"geometry": {"coordinates": [-79.881869174, 39.928723377], "type": "Point"}, "id": "Ci_PhD5NefG44I7-XHu5-32RFqk=", "properties": {"@source_uri": "https://tools.usps.com/UspsToolsRestServices/rest/POLocator/findLocations", "@spider": "usps_collection_boxes", "addr:city": "HIBBS", "addr:country": "US", "addr:postcode": "15443", "addr:state": "PA", "addr:street_address": "1006 RALPH NEW SALEM RD", "amenity": "post_box", "collection_times": "Mo-Fr 11:55; Sa 11:45", "indoor": "yes", "nsi_id": "unitedstatespostalservice-a77078", "operator": "United States Postal Service", "operator:short": "USPS", "operator:type": "public", "operator:wikidata": "Q668687", "ref": "1544300004"}, "type": "Feature"}
{"geometry": {"coordinates": [-79.881869174, 39.928723377], "type": "Point"}, "id": "iKaMUwVFJVGstkp4AJUonKcVh6w=", "properties": {"@source_uri": "https://tools.usps.com/UspsToolsRestServices/rest/POLocator/findLocations", "@spider": "usps_collection_boxes", "addr:city": "HIBBS", "addr:country": "US", "addr:postcode": "15443", "addr:state": "PA", "addr:street_address": "1006 RALPH NEW SALEM RD", "amenity": "post_box", "collection_times": "Mo-Sa 11:55", "indoor": "yes", "nsi_id": "unitedstatespostalservice-a77078", "operator": "United States Postal Service", "operator:short": "USPS", "operator:type": "public", "operator:wikidata": "Q668687", "ref": "1544300005"}, "type": "Feature"}
{"geometry": {"coordinates": [-79.90019, 40.011488], "type": "Point"}, "id": "iCGCdKaMH2jCbVRytFw-UrZ2S30=", "properties": {"@source_uri": "https://tools.usps.com/UspsToolsRestServices/rest/POLocator/findLocations", "@spider": "usps_collection_boxes", "addr:city": "HILLER", "addr:country": "US", "addr:postcode": "15444", "addr:state": "PA", "addr:street_address": "906 1ST ST", "amenity": "post_box", "collection_times": "Mo-Fr 16:00; Sa 12:00", "note": "ON 12/24 AND 12/31, THIS BOX MAY BE COLLECTED AS EARLY AS 12 NOON.", "nsi_id": "unitedstatespostalservice-a77078", "operator": "United States Postal Service", "operator:short": "USPS", "operator:type": "public", "operator:wikidata": "Q668687", "ref": "1544400001"}, "type": "Feature"}
{"geometry": {"coordinates": [-79.900141, 40.011415], "type": "Point"}, "id": "APUF2B3Qgxr9q3llhGrl76dlTTQ=", "properties": {"@source_uri": "https://tools.usps.com/UspsToolsRestServices/rest/POLocator/findLocations", "@spider": "usps_collection_boxes", "addr:city": "HILLER", "addr:country": "US", "addr:postcode": "15444", "addr:state": "PA", "addr:street_address": "906 1ST ST", "amenity": "post_box", "collection_times": "Mo-Fr 16:00; Sa 12:00", "indoor": "yes", "note": "ON 12/24 AND 12/31, THIS BOX MAY BE COLLECTED AS EARLY AS 12 NOON.", "nsi_id": "unitedstatespostalservice-a77078", "operator": "United States Postal Service", "operator:short": "USPS", "operator:type": "public", "operator:wikidata": "Q668687", "ref": "1544400002"}, "type": "Feature"}
{"geometry": {"coordinates": [-79.900155767, 40.011498256], "type": "Point"}, "id": "ZWV4oo22j2K_aPkbcETq42gDH8Y=", "properties": {"@source_uri": "https://tools.usps.com/UspsToolsRestServices/rest/POLocator/findLocations", "@spider": "usps_collection_boxes", "addr:city": "HILLER", "addr:country": "US", "addr:postcode": "15444", "addr:state": "PA", "addr:street_address": "906 1ST ST", "amenity": "post_box", "collection_times": "Mo-Fr 16:00; Sa 12:00", "indoor": "yes", "note": "ON 12/24 AND 12/31, THIS BOX MAY BE COLLECTED AS EARLY AS 12 NOON.", "nsi_id": "unitedstatespostalservice-a77078", "operator": "United States Postal Service", "operator:short": "USPS", "operator:type": "public", "operator:wikidata": "Q668687", "ref": "1544400004"}, "type": "Feature"}
{"geometry": {"coordinates": [-79.700039, 39.873361], "type": "Point"}, "id": "ZOiYMRz-vABe6PYTWfSdLNSZz8k=", "properties": {"@source_uri": "https://tools.usps.com/UspsToolsRestServices/rest/POLocator/findLocations", "@spider": "usps_collection_boxes", "addr:city": "HOPWOOD", "addr:country": "US", "addr:postcode": "15445", "addr:state": "PA", "addr:street_address": "108 PAULL ST", "amenity": "post_box", "collection_times": "Mo-Fr 16:30; Sa 12:00", "note": "ON 12/24 AND 12/31, THIS BOX MAY BE COLLECTED AS EARLY AS 12 NOON.", "nsi_id": "unitedstatespostalservice-a77078", "operator": "United States Postal Service", "operator:short": "USPS", "operator:type": "public", "operator:wikidata": "Q668687", "ref": "1544500001"}, "type": "Feature"}
{"geometry": {"coordinates": [-79.69842, 39.873669], "type": "Point"}, "id": "Bt44LAlLmA31_ySbBV9EQudYsw4=", "properties": {"@source_uri": "https://tools.usps.com/UspsToolsRestServices/rest/POLocator/findLocations", "@spider": "usps_collection_boxes", "addr:city": "HOPWOOD", "addr:country": "US", "addr:postcode": "15445", "addr:state": "PA", "addr:street_address": "108 PAULL ST", "amenity": "post_box", "collection_times": "Mo-Fr 16:30; Sa 12:00", "indoor": "yes", "note": "ON 12/24 AND 12/31, THIS BOX MAY BE COLLECTED AS EARLY AS 12 NOON.", "nsi_id": "unitedstatespostalservice-a77078", "operator": "United States Postal Service", "operator:short": "USPS", "operator:type": "public", "operator:wikidata": "Q668687", "ref": "1544500003"}, "type": "Feature"}
{"geometry": {"coordinates": [-79.69842, 39.873669], "type": "Point"}, "id": "XRV2GGM0EDW4xOHvhyubnOlBOm4=", "properties": {"@source_uri": "https://tools.usps.com/UspsToolsRestServices/rest/POLocator/findLocations", "@spider": "usps_collection_boxes", "addr:city": "HOPWOOD", "addr:country": "US", "addr:postcode": "15445", "addr:state": "PA", "addr:street_address": "108 PAULL ST", "amenity": "post_box", "collection_times": "Mo-Fr 16:30; Sa 12:00", "indoor": "yes", "note": "ON 12/24 AND 12/31, THIS BOX MAY BE COLLECTED AS EARLY AS 12 NOON.", "nsi_id": "unitedstatespostalservice-a77078", "operator": "United States Postal Service", "operator:short": "USPS", "operator:type": "public", "operator:wikidata": "Q668687", "ref": "1544500004"}, "type": "Feature"}
{"geometry": {"coordinates": [-79.698501556, 39.873786298], "type": "Point"}, "id": "3t3gxmm3BjBrXD2KNygcbu3uHSI=", "properties": {"@source_uri": "https://tools.usps.com/UspsToolsRestServices/rest/POLocator/findLocations", "@spider": "usps_collection_boxes", "addr:city": "HOPWOOD", "addr:country": "US", "addr:postcode": "15445", "addr:state": "PA", "addr:street_address": "108 PAULL ST", "amenity": "post_box", "collection_times": "Mo-Fr 16:30; Sa 12:00", "indoor": "yes", "note": "ON 12/24 AND 12/31, THIS BOX MAY BE COLLECTED AS EARLY AS 12 NOON.", "nsi_id": "unitedstatespostalservice-a77078", "operator": "United States Postal Service", "operator:short": "USPS", "operator:type": "public", "operator:wikidata": "Q668687", "ref": "1544500006"}, "type": "Feature"}
{"geometry": {"coordinates": [-79.39006, 40.024884], "type": "Point"}, "id": "etl8mE3dXf0TRj8L9Wbz7lcAxZY=", "properties": {"@source_uri": "https://tools.usps.com/UspsToolsRestServices/rest/POLocator/findLocations", "@spider": "usps_collection_boxes", "addr:city": "INDIAN HEAD", "addr:country": "US", "addr:postcode": "15446", "addr:state": "PA", "addr:street_address": "2072 INDIAN HEAD RD", "amenity": "post_box", "collection_times": "Mo-Fr 16:30; Sa 11:45", "note": "ON 12/24 AND 12/31, THIS BOX MAY BE COLLECTED AS EARLY AS 12 NOON.", "nsi_id": "unitedstatespostalservice-a77078", "operator": "United States Postal Service", "operator:short": "USPS", "operator:type": "public", "operator:wikidata": "Q668687", "ref": "1544600001"}, "type": "Feature"}
{"geometry": {"coordinates": [-79.390054, 40.024911], "type": "Point"}, "id": "LtGASlfBjuvpg8uGyHMm_Je-DTQ=", "properties": {"@source_uri": "https://tools.usps.com/UspsToolsRestServices/rest/POLocator/findLocations", "@spider": "usps_collection_boxes", "addr:city": "INDIAN HEAD", "addr:country": "US", "addr:postcode": "15446", "addr:state": "PA", "addr:street_address": "2072 INDIAN HEAD RD", "amenity": "post_box", "collection_times": "Mo-Fr 16:30; Sa 11:45", "indoor": "yes", "note": "ON 12/24 AND 12/31, THIS BOX MAY BE COLLECTED AS EARLY AS 12 NOON.", "nsi_id": "unitedstatespostalservice-a77078", "operator": "United States Postal Service", "operator:short": "USPS", "operator:type": "public", "operator:wikidata": "Q668687", "ref": "1544600002"}, "type": "Feature"}
{"geometry": {"coordinates": [-79.391550609, 40.024885507], "type": "Point"}, "id": "Z1Nq9tRi8_NQGW8kumvc9JM0ApY=", "properties": {"@source_uri": "https://tools.usps.com/UspsToolsRestServices/rest/POLocator/findLocations", "@spider": "usps_collection_boxes", "addr:city": "INDIAN HEAD", "addr:country": "US", "addr:postcode": "15446", "addr:state": "PA", "addr:street_address": "2072 INDIAN HEAD RD", "amenity": "post_box", "collection_times": "Mo-Fr 16:30; Sa 11:30", "indoor": "yes", "note": "ON 12/24 AND 12/31, THIS BOX MAY BE COLLECTED AS EARLY AS 12 NOON.", "nsi_id": "unitedstatespostalservice-a77078", "operator": "United States Postal Service", "operator:short": "USPS", "operator:type": "public", "operator:wikidata": "Q668687", "ref": "1544600004"}, "type": "Feature"}
{"geometry": {"coordinates": [-79.937735578, 39.94386869], "type": "Point"}, "id": "AndD4KJosSCaXDsEszg0s3XiQ5s=", "properties": {"@source_uri": "https://tools.usps.com/UspsToolsRestServices/rest/POLocator/findLocations", "@spider": "usps_collection_boxes", "addr:city": "ISABELLA", "addr:country": "US", "addr:postcode": "15447", "addr:state": "PA", "addr:street_address": "506 1ST ST", "amenity": "post_box", "collection_times": "Mo-Sa 10:55", "nsi_id": "unitedstatespostalservice-a77078", "operator": "United States Postal Service", "operator:short": "USPS", "operator:type": "public", "operator:wikidata": "Q668687", "ref": "1544700001"}, "type": "Feature"}
{"geometry": {"coordinates": [-79.937735578, 39.94386869], "type": "Point"}, "id": "QG3vYsl7LnM92sBGGyCvcAliY9c=", "properties": {"@source_uri": "https://tools.usps.com/UspsToolsRestServices/rest/POLocator/findLocations", "@spider": "usps_collection_boxes", "addr:city": "ISABELLA", "addr:country": "US", "addr:postcode": "15447", "addr:state": "PA", "addr:street_address": "506 1ST ST", "amenity": "post_box", "collection_times": "Mo-Sa 10:55", "indoor": "yes", "nsi_id": "unitedstatespostalservice-a77078", "operator": "United States Postal Service", "operator:short": "USPS", "operator:type": "public", "operator:wikidata": "Q668687", "ref": "1544700002"}, "type": "Feature"}
{"geometry": {"coordinates": [-79.937735578, 39.94386869], "type": "Point"}, "id": "JudJVUYEQSMphrDsrEL0XnEumNk=", "properties": {"@source_uri": "https://tools.usps.com/UspsToolsRestServices/rest/POLocator/findLocations", "@spider": "usps_collection_boxes", "addr:city": "ISABELLA", "addr:country": "US", "addr:postcode": "15447", "addr:state": "PA", "addr:street_address": "506 1ST ST", "amenity": "post_box", "collection_times": "Mo-Sa 10:50", "indoor": "yes", "nsi_id": "unitedstatespostalservice-a77078", "operator": "United States Postal Service", "operator:short": "USPS", "operator:type": "public", "operator:wikidata": "Q668687", "ref": "1544700004"}, "type": "Feature"}
{"geometry": {"coordinates": [-79.741727, 40.132311], "type": "Point"}, "id": "p9auMkymvIXoRfvcDI0G6ZsHei0=", "properties": {"@source_uri": "https://tools.usps.com/UspsToolsRestServices/rest/POLocator/findLocations", "@spider": "usps_collection_boxes", "addr:city": "JACOBS CREEK", "addr:country": "US", "addr:postcode": "15448", "addr:state": "PA", "addr:street_address": "178 MAIN ST", "amenity": "post_box", "collection_times": "Mo-Fr 10:50; Sa 11:45", "nsi_id": "unitedstatespostalservice-a77078", "operator": "United States Postal Service", "operator:short": "USPS", "operator:type": "public", "operator:wikidata": "Q668687", "ref": "1544800001"}, "type": "Feature"}
{"geometry": {"coordinates": [-79.741763, 40.132302], "type": "Point"}, "id": "JmYfD5_RMNfHwrV55TygZ-5rlJs=", "properties": {"@source_uri": "https://tools.usps.com/UspsToolsRestServices/rest/POLocator/findLocations", "@spider": "usps_collection_boxes", "addr:city": "JACOBS CREEK", "addr:country": "US", "addr:postcode": "15448", "addr:state": "PA", "addr:street_address": "178 MAIN ST", "amenity": "post_box", "collection_times": "Mo-Fr 10:50; Sa 11:45", "indoor": "yes", "nsi_id": "unitedstatespostalservice-a77078", "operator": "United States Postal Service", "operator:short": "USPS", "operator:type": "public", "operator:wikidata": "Q668687", "ref": "1544800002"}, "type": "Feature"}
{"geometry": {"coordinates": [-79.741667245, 40.133104931], "type": "Point"}, "id": "JJgfCJkR_LO8EdO7JmpP1NVUcA0=", "properties": {"@source_uri": "https://tools.usps.com/UspsToolsRestServices/rest/POLocator/findLocations", "@spider": "usps_collection_boxes", "addr:city": "JACOBS CREEK", "addr:country": "US", "addr:postcode": "15448", "addr:state": "PA", "addr:street_address": "178 MAIN ST", "amenity": "post_box", "collection_times": "Mo-Fr 10:50; Sa 11:35", "indoor": "yes", "nsi_id": "unitedstatespostalservice-a77078", "operator": "United States Postal Service", "operator:short": "USPS", "operator:type": "public", "operator:wikidata": "Q668687", "ref": "1544800004"}, "type": "Feature"}
{"geometry": {"coordinates": [-79.785663, 39.96326], "type": "Point"}, "id": "hf0xmQyr8ehI87L5BgWq1MmQzQA=", "properties": {"@source_uri": "https://tools.usps.com/UspsToolsRestServices/rest/POLocator/findLocations", "@spider": "usps_collection_boxes", "addr:city": "KEISTERVILLE", "addr:country": "US", "addr:postcode": "15449", "addr:state": "PA", "addr:street_address": "831 MAIN ST", "amenity": "post_box", "collection_times": "Mo-Fr 11:55; Sa 11:30", "nsi_id": "unitedstatespostalservice-a77078", "operator": "United States Postal Service", "operator:short": "USPS", "operator:type": "public", "operator:wikidata": "Q668687", "ref": "1544900001"}, "type": "Feature"}
{"geometry": {"coordinates": [-79.785675, 39.963234], "type": "Point"}, "id": "A6XuppqUGSVyk-LV4q-B2hXZY68=", "properties": {"@source_uri": "https://tools.usps.com/UspsToolsRestServices/rest/POLocator/findLocations", "@spider": "usps_collection_boxes", "addr:city": "KEISTERVILLE", "addr:country": "US", "addr:postcode": "15449", "addr:state": "PA", "addr:street_address": "831 MAIN ST", "amenity": "post_box", "collection_times": "Mo-Fr 11:55; Sa 11:30", "indoor": "yes", "nsi_id": "unitedstatespostalservice-a77078", "operator": "United States Postal Service", "operator:short": "USPS", "operator:type": "public", "operator:wikidata": "Q668687", "ref": "1544900002"}, "type": "Feature"}
{"geometry": {"coordinates": [-79.968803848, 40.006228483], "type": "Point"}, "id": "_LbbGP03BI3a6yIxLxMXT74ocfE=", "properties": {"@source_uri": "https://tools.usps.com/UspsToolsRestServices/rest/POLocator/findLocations", "@spider": "usps_collection_boxes", "addr:city": "KEISTERVILLE", "addr:country": "US", "addr:postcode": "15449", "addr:state": "PA", "addr:street_address": "831 MAIN ST", "amenity": "post_box", "collection_times": "Mo-Fr 11:55; Sa 11:25", "indoor": "yes", "nsi_id": "unitedstatespostalservice-a77078", "operator": "United States Postal Service", "operator:short": "USPS", "operator:type": "public", "operator:wikidata": "Q668687", "ref": "1544900004"}, "type": "Feature"}
{"geometry": {"coordinates": [-79.973919, 40.007138], "type": "Point"}, "id": "aD-X-YnRj6C_WxvCSfd76fEBy6M=", "properties": {"@source_uri": "https://tools.usps.com/UspsToolsRestServices/rest/POLocator/findLocations", "@spider": "usps_collection_boxes", "addr:city": "LA BELLE", "addr:country": "US", "addr:postcode": "15450", "addr:state": "PA", "addr:street_address": "1139 LABELLE RD", "amenity": "post_box", "collection_times": "Mo-Fr 12:55; Sa 11:45", "note": "ON 12/24 AND 12/31, THIS BOX MAY BE COLLECTED AS EARLY AS 12 NOON.", "nsi_id": "unitedstatespostalservice-a77078", "operator": "United States Postal Service", "operator:short": "USPS", "operator:type": "public", "operator:wikidata": "Q668687", "ref": "1545000001"}, "type": "Feature"}
{"geometry": {"coordinates": [-79.97393, 40.007112], "type": "Point"}, "id": "nVc1Nn7JXKhKppqqYRdYZ4yz3f8=", "properties": {"@source_uri": "https://tools.usps.com/UspsToolsRestServices/rest/POLocator/findLocations", "@spider": "usps_collection_boxes", "addr:city": "LA BELLE", "addr:country": "US", "addr:postcode": "15450", "addr:state": "PA", "addr:street_address": "1139 LABELLE RD", "amenity": "post_box", "collection_times": "Mo-Fr 12:55; Sa 11:45", "indoor": "yes", "note": "ON 12/24 AND 12/31, THIS BOX MAY BE COLLECTED AS EARLY AS 12 NOON.", "nsi_id": "unitedstatespostalservice-a77078", "operator": "United States Postal Service", "operator:short": "USPS", "operator:type": "public", "operator:wikidata": "Q668687", "ref": "1545000002"}, "type": "Feature"}
{"geometry": {"coordinates": [-79.973914883, 40.007172829], "type": "Point"}, "id": "FXerCf8ZO4eAoj6J3ohhPr7sUgU=", "properties": {"@source_uri": "https://tools.usps.com/UspsToolsRestServices/rest/POLocator/findLocations", "@spider": "usps_collection_boxes", "addr:city": "LA BELLE", "addr:country": "US", "addr:postcode": "15450", "addr:state": "PA", "addr:street_address": "1139 LABELLE RD", "amenity": "post_box", "collection_times": "Mo-Fr 12:55; Sa 11:40", "indoor": "yes", "note": "ON 12/24 AND 12/31, THIS BOX MAY BE COLLECTED AS EARLY AS 12 NOON.", "nsi_id": "unitedstatespostalservice-a77078", "operator": "United States Postal Service", "operator:short": "USPS", "operator:type": "public", "operator:wikidata": "Q668687", "ref": "1545000004"}, "type": "Feature"}
{"geometry": {"coordinates": [-79.855584, 39.86179], "type": "Point"}, "id": "gbHANrkkmK4VCQz7axnve0RzOyw=", "properties": {"@source_uri": "https://tools.usps.com/UspsToolsRestServices/rest/POLocator/findLocations", "@spider": "usps_collection_boxes", "addr:city": "LECKRONE", "addr:country": "US", "addr:postcode": "15454", "addr:state": "PA", "addr:street_address": "348 LECKRONE HIGH HOUSE RD", "amenity": "post_box", "collection_times": "Mo-Fr 11:55; Sa 11:45", "nsi_id": "unitedstatespostalservice-a77078", "operator": "United States Postal Service", "operator:short": "USPS", "operator:type": "public", "operator:wikidata": "Q668687", "ref": "1545400001"}, "type": "Feature"}
{"geometry": {"coordinates": [-79.855591, 39.861764], "type": "Point"}, "id": "FBAfNezU1L12b-wQc7OnwSxHvQQ=", "properties": {"@source_uri": "https://tools.usps.com/UspsToolsRestServices/rest/POLocator/findLocations", "@spider": "usps_collection_boxes", "addr:city": "LECKRONE", "addr:country": "US", "addr:postcode": "15454", "addr:state": "PA", "addr:street_address": "348 LECKRONE HIGH HOUSE RD", "amenity": "post_box", "collection_times": "Mo-Fr 11:55; Sa 11:45", "indoor": "yes", "nsi_id": "unitedstatespostalservice-a77078", "operator": "United States Postal Service", "operator:short": "USPS", "operator:type": "public", "operator:wikidata": "Q668687", "ref": "1545400002"}, "type": "Feature"}
{"geometry": {"coordinates": [-79.869037328, 39.863011682], "type": "Point"}, "id": "1v8PNTCBXq1rdRPC_Pu9rabg0aM=", "properties": {"@source_uri": "https://tools.usps.com/UspsToolsRestServices/rest/POLocator/findLocations", "@spider": "usps_collection_boxes", "addr:city": "LECKRONE", "addr:country": "US", "addr:postcode": "15454", "addr:state": "PA", "addr:street_address": "348 LECKRONE HIGH HOUSE RD", "amenity": "post_box", "collection_times": "Mo-Fr 11:55; Sa 11:40", "indoor": "yes", "nsi_id": "unitedstatespostalservice-a77078", "operator": "United States Postal Service", "operator:short": "USPS", "operator:type": "public", "operator:wikidata": "Q668687", "ref": "1545400004"}, "type": "Feature"}
{"geometry": {"coordinates": [-79.643641, 39.997665], "type": "Point"}, "id": "f98-8WLMb4IysT-ZigY9AMpuWwg=", "properties": {"@source_uri": "https://tools.usps.com/UspsToolsRestServices/rest/POLocator/findLocations", "@spider": "usps_collection_boxes", "addr:city": "LEISENRING", "addr:country": "US", "addr:postcode": "15455", "addr:state": "PA", "addr:street_address": "232 MAIN ST", "amenity": "post_box", "collection_times": "Mo-Fr 11:55; Sa 11:45", "nsi_id": "unitedstatespostalservice-a77078", "operator": "United States Postal Service", "operator:short": "USPS", "operator:type": "public", "operator:wikidata": "Q668687", "ref": "1545500001"}, "type": "Feature"}
{"geometry": {"coordinates": [-79.643641, 39.997665], "type": "Point"}, "id": "ykaf3kmnIJDVaBHPGIHOhLh1Ppw=", "properties": {"@source_uri": "https://tools.usps.com/UspsToolsRestServices/rest/POLocator/findLocations", "@spider": "usps_collection_boxes", "addr:city": "LEISENRING", "addr:country": "US", "addr:postcode": "15455", "addr:state": "PA", "addr:street_address": "232 MAIN ST", "amenity": "post_box", "collection_times": "Mo-Fr 11:55; Sa 11:45", "indoor": "yes", "nsi_id": "unitedstatespostalservice-a77078", "operator": "United States Postal Service", "operator:short": "USPS", "operator:type": "public", "operator:wikidata": "Q668687", "ref": "1545500002"}, "type": "Feature"}
{"geometry": {"coordinates": [-79.642658, 39.9985072], "type": "Point"}, "id": "7VnnZS__FeoJKpepPetycaDyfHg=", "properties": {"@source_uri": "https://tools.usps.com/UspsToolsRestServices/rest/POLocator/findLocations", "@spider": "usps_collection_boxes", "addr:city": "LEISENRING", "addr:country": "US", "addr:postcode": "15455", "addr:state": "PA", "addr:street_address": "232 MAIN ST", "amenity": "post_box", "collection_times": "Mo-Fr 11:55; Sa 11:40", "indoor": "yes", "nsi_id": "unitedstatespostalservice-a77078", "operator": "United States Postal Service", "operator:short": "USPS", "operator:type": "public", "operator:wikidata": "Q668687", "ref": "1545500004"}, "type": "Feature"}
{"geometry": {"coordinates": [-79.665835, 39.919241], "type": "Point"}, "id": "F2SZKNaXd3g8KO_aUHuwkl0HAsw=", "properties": {"@source_uri": "https://tools.usps.com/UspsToolsRestServices/rest/POLocator/findLocations", "@spider": "usps_collection_boxes", "addr:city": "LEMONT FURNACE", "addr:country": "US", "addr:postcode": "15456", "addr:state": "PA", "addr:street_address": "265 STARLITE RD", "amenity": "post_box", "collection_times": "Mo-Fr 16:30; Sa 12:00", "note": "ON 12/24 AND 12/31, THIS BOX MAY BE COLLECTED AS EARLY AS 12 NOON.", "nsi_id": "unitedstatespostalservice-a77078", "operator": "United States Postal Service", "operator:short": "USPS", "operator:type": "public", "operator:wikidata": "Q668687", "ref": "1545600001"}, "type": "Feature"}
{"geometry": {"coordinates": [-79.6763969, 39.922556], "type": "Point"}, "id": "rDNsDKtZBJpGiD0-uCIKEKnrxAU=", "properties": {"@source_uri": "https://tools.usps.com/UspsToolsRestServices/rest/POLocator/findLocations", "@spider": "usps_collection_boxes", "addr:city": "LEMONT FURNACE", "addr:country": "US", "addr:postcode": "15456", "addr:state": "PA", "addr:street_address": "3 NICKMAN PLZ", "amenity": "post_box", "collection_times": "Mo-Fr 13:00; Sa 12:00", "note": "ON 12/24 AND 12/31, THIS BOX MAY BE COLLECTED AS EARLY AS 12 NOON.", "nsi_id": "unitedstatespostalservice-a77078", "operator": "United States Postal Service", "operator:short": "USPS", "operator:type": "public", "operator:wikidata": "Q668687", "ref": "1545600002"}, "type": "Feature"}
{"geometry": {"coordinates": [-79.665718, 39.919213], "type": "Point"}, "id": "v9JEc5gWNBSY_MIpON-UhL3DdMk=", "properties": {"@source_uri": "https://tools.usps.com/UspsToolsRestServices/rest/POLocator/findLocations", "@spider": "usps_collection_boxes", "addr:city": "LEMONT FURNACE", "addr:country": "US", "addr:postcode": "15456", "addr:state": "PA", "addr:street_address": "265 STARLITE RD", "amenity": "post_box", "collection_times": "Mo-Fr 16:30; Sa 12:00", "indoor": "yes", "note": "ON 12/24 AND 12/31, THIS BOX MAY BE COLLECTED AS EARLY AS 12 NOON.", "nsi_id": "unitedstatespostalservice-a77078", "operator": "United States Postal Service", "operator:short": "USPS", "operator:type": "public", "operator:wikidata": "Q668687", "ref": "1545600003"}, "type": "Feature"}
{"geometry": {"coordinates": [-79.665816863, 39.919173271], "type": "Point"}, "id": "OIBU7GHMXDWtLFwoxlW_LkC_2Mw=", "properties": {"@source_uri": "https://tools.usps.com/UspsToolsRestServices/rest/POLocator/findLocations", "@spider": "usps_collection_boxes", "addr:city": "LEMONT FURNACE", "addr:country": "US", "addr:postcode": "15456", "addr:state": "PA", "addr:street_address": "265 STARLITE RD", "amenity": "post_box", "collection_times": "Mo-Fr 16:30; Sa 12:00", "indoor": "yes", "note": "ON 12/24 AND 12/31, THIS BOX MAY BE COLLECTED AS EARLY AS 12 NOON.", "nsi_id": "unitedstatespostalservice-a77078", "operator": "United States Postal Service", "operator:short": "USPS", "operator:type": "public", "operator:wikidata": "Q668687", "ref": "1545600005"}, "type": "Feature"}
{"geometry": {"coordinates": [-79.869, 39.885317], "type": "Point"}, "id": "khvYCb61J9DKGFKzf4NrjVrqV50=", "properties": {"@source_uri": "https://tools.usps.com/UspsToolsRestServices/rest/POLocator/findLocations", "@spider": "usps_collection_boxes", "addr:city": "MCCLELLANDTOWN", "addr:country": "US", "addr:postcode": "15458", "addr:state": "PA", "addr:street_address": "109 MCKINLEY ST", "amenity": "post_box", "collection_times": "Mo-Fr 16:00; Sa 12:00", "note": "ON 12/24 AND 12/31, THIS BOX MAY BE COLLECTED AS EARLY AS 12 NOON.", "nsi_id": "unitedstatespostalservice-a77078", "operator": "United States Postal Service", "operator:short": "USPS", "operator:type": "public", "operator:wikidata": "Q668687", "ref": "1545800001"}, "type": "Feature"}
{"geometry": {"coordinates": [-79.869, 39.885317], "type": "Point"}, "id": "mfzISMBlWeJ2oSgI4stkPdQhG7Y=", "properties": {"@source_uri": "https://tools.usps.com/UspsToolsRestServices/rest/POLocator/findLocations", "@spider": "usps_collection_boxes", "addr:city": "MCCLELLANDTOWN", "addr:country": "US", "addr:postcode": "15458", "addr:state": "PA", "addr:street_address": "109 MCKINLEY ST", "amenity": "post_box", "collection_times": "Mo-Fr 16:30; Sa 12:00", "indoor": "yes", "note": "ON 12/24 AND 12/31, THIS BOX MAY BE COLLECTED AS EARLY AS 12 NOON.", "nsi_id": "unitedstatespostalservice-a77078", "operator": "United States Postal Service", "operator:short": "USPS", "operator:type": "public", "operator:wikidata": "Q668687", "ref": "1545800003"}, "type": "Feature"}
{"geometry": {"coordinates": [-79.869001903, 39.885314626], "type": "Point"}, "id": "LCGl4Y8ySbgGm_UvjWKm4n8tijg=", "properties": {"@source_uri": "https://tools.usps.com/UspsToolsRestServices/rest/POLocator/findLocations", "@spider": "usps_collection_boxes", "addr:city": "MCCLELLANDTOWN", "addr:country": "US", "addr:postcode": "15458", "addr:state": "PA", "addr:street_address": "109 MCKINLEY ST", "amenity": "post_box", "collection_times": "Mo-Fr 16:30; Sa 12:00", "indoor": "yes", "note": "ON 12/24 AND 12/31, THIS BOX MAY BE COLLECTED AS EARLY AS 12 NOON.", "nsi_id": "unitedstatespostalservice-a77078", "operator": "United States Postal Service", "operator:short": "USPS", "operator:type": "public", "operator:wikidata": "Q668687", "ref": "1545800005"}, "type": "Feature"}
{"geometry": {"coordinates": [-79.450509, 39.737017], "type": "Point"}, "id": "toua3xY-R9UO4KFqI55YHmlIrTQ=", "properties": {"@source_uri": "https://tools.usps.com/UspsToolsRestServices/rest/POLocator/findLocations", "@spider": "usps_collection_boxes", "addr:city": "MARKLEYSBURG", "addr:country": "US", "addr:postcode": "15459", "addr:state": "PA", "addr:street_address": "173 MAIN ST", "amenity": "post_box", "collection_times": "Mo-Fr 16:00; Sa 12:00", "note": "ON 12/24 AND 12/31, THIS BOX MAY BE COLLECTED AS EARLY AS 12 NOON.", "nsi_id": "unitedstatespostalservice-a77078", "operator": "United States Postal Service", "operator:short": "USPS", "operator:type": "public", "operator:wikidata": "Q668687", "ref": "1545900001"}, "type": "Feature"}
{"geometry": {"coordinates": [-79.450511, 39.737066], "type": "Point"}, "id": "q_4s5OuR6LWl0VmJrNXz9EWsFG0=", "properties": {"@source_uri": "https://tools.usps.com/UspsToolsRestServices/rest/POLocator/findLocations", "@spider": "usps_collection_boxes", "addr:city": "MARKLEYSBURG", "addr:country": "US", "addr:postcode": "15459", "addr:state": "PA", "addr:street_address": "173 MAIN ST", "amenity": "post_box", "collection_times": "Mo-Fr 16:00; Sa 12:00", "indoor": "yes", "note": "ON 12/24 AND 12/31, THIS BOX MAY BE COLLECTED AS EARLY AS 12 NOON.", "nsi_id": "unitedstatespostalservice-a77078", "operator": "United States Postal Service", "operator:short": "USPS", "operator:type": "public", "operator:wikidata": "Q668687", "ref": "1545900002"}, "type": "Feature"}
{"geometry": {"coordinates": [-79.4984757, 39.776558], "type": "Point"}, "id": "wNFdwutwNI7vCW0ZQnapZO3QI48=", "properties": {"@source_uri": "https://tools.usps.com/UspsToolsRestServices/rest/POLocator/findLocations", "@spider": "usps_collection_boxes", "addr:city": "MARKLEYSBURG", "addr:country": "US", "addr:postcode": "15459", "addr:state": "PA", "addr:street_address": "4634 NATIONAL PIKE", "amenity": "post_box", "collection_times": "Mo-Fr 13:30; Sa 13:00", "note": "ON 12/24 AND 12/31, THIS BOX MAY BE COLLECTED AS EARLY AS 12 NOON.", "nsi_id": "unitedstatespostalservice-a77078", "operator": "United States Postal Service", "operator:short": "USPS", "operator:type": "public", "operator:wikidata": "Q668687", "ref": "1545900003"}, "type": "Feature"}
{"geometry": {"coordinates": [-79.450498407, 39.737026992], "type": "Point"}, "id": "ekIOWwYVeSoZkQdrB05iZc0E7Sc=", "properties": {"@source_uri": "https://tools.usps.com/UspsToolsRestServices/rest/POLocator/findLocations", "@spider": "usps_collection_boxes", "addr:city": "MARKLEYSBURG", "addr:country": "US", "addr:postcode": "15459", "addr:state": "PA", "addr:street_address": "173 MAIN ST", "amenity": "post_box", "collection_times": "Mo-Fr 16:00; Sa 12:00", "indoor": "yes", "note": "ON 12/24 AND 12/31, THIS BOX MAY BE COLLECTED AS EARLY AS 12 NOON.", "nsi_id": "unitedstatespostalservice-a77078", "operator": "United States Postal Service", "operator:short": "USPS", "operator:type": "public", "operator:wikidata": "Q668687", "ref": "1545900005"}, "type": "Feature"}
{"geometry": {"coordinates": [-79.91209, 39.807565], "type": "Point"}, "id": "Ma4JxZ0TGmS4Ojn9NJ5vgrn_lEA=", "properties": {"@source_uri": "https://tools.usps.com/UspsToolsRestServices/rest/POLocator/findLocations", "@spider": "usps_collection_boxes", "addr:city": "MARTIN", "addr:country": "US", "addr:postcode": "15460", "addr:state": "PA", "addr:street_address": "107 NICHOLSON ST", "amenity": "post_box", "collection_times": "Mo-Fr 10:50; Sa 12:00", "nsi_id": "unitedstatespostalservice-a77078", "operator": "United States Postal Service", "operator:short": "USPS", "operator:type": "public", "operator:wikidata": "Q668687", "ref": "1546000001"}, "type": "Feature"}
{"geometry": {"coordinates": [-79.912033, 39.807491], "type": "Point"}, "id": "m7GnTNvS3z2UQ4gA5GyprKLizSk=", "properties": {"@source_uri": "https://tools.usps.com/UspsToolsRestServices/rest/POLocator/findLocations", "@spider": "usps_collection_boxes", "addr:city": "MARTIN", "addr:country": "US", "addr:postcode": "15460", "addr:state": "PA", "addr:street_address": "107 NICHOLSON ST", "amenity": "post_box", "collection_times": "Mo-Fr 10:50; Sa 12:00", "indoor": "yes", "nsi_id": "unitedstatespostalservice-a77078", "operator": "United States Postal Service", "operator:short": "USPS", "operator:type": "public", "operator:wikidata": "Q668687", "ref": "1546000002"}, "type": "Feature"}
{"geometry": {"coordinates": [-79.9121547701, 39.8080853644], "type": "Point"}, "id": "dRP44lAnreg737lVn1sTFRG5j9U=", "properties": {"@source_uri": "https://tools.usps.com/UspsToolsRestServices/rest/POLocator/findLocations", "@spider": "usps_collection_boxes", "addr:city": "MARTIN", "addr:country": "US", "addr:postcode": "15460", "addr:state": "PA", "addr:street_address": "107 NICHOLSON ST", "amenity": "post_box", "collection_times": "Mo-Fr 10:50; Sa 11:50", "indoor": "yes", "nsi_id": "unitedstatespostalservice-a77078", "operator": "United States Postal Service", "operator:short": "USPS", "operator:type": "public", "operator:wikidata": "Q668687", "ref": "1546000004"}, "type": "Feature"}
{"geometry": {"coordinates": [-79.898754, 39.846876], "type": "Point"}, "id": "M4ku5VodFKm-t1SfkSi9i8ARHis=", "properties": {"@source_uri": "https://tools.usps.com/UspsToolsRestServices/rest/POLocator/findLocations", "@spider": "usps_collection_boxes", "addr:city": "MASONTOWN", "addr:country": "US", "addr:postcode": "15461", "addr:state": "PA", "addr:street_address": "11 E CHURCH AVE", "amenity": "post_box", "collection_times": "Mo-Fr 16:30; Sa 15:30", "note": "ON 12/24 AND 12/31, THIS BOX MAY BE COLLECTED AS EARLY AS 12 NOON.", "nsi_id": "unitedstatespostalservice-a77078", "operator": "United States Postal Service", "operator:short": "USPS", "operator:type": "public", "operator:wikidata": "Q668687", "ref": "1546100001"}, "type": "Feature"}
{"geometry": {"coordinates": [-79.9045533, 39.842887], "type": "Point"}, "id": "zyZATnjzMwK4vD7EFel0fDYrcRs=", "properties": {"@source_uri": "https://tools.usps.com/UspsToolsRestServices/rest/POLocator/findLocations", "@spider": "usps_collection_boxes", "addr:city": "MASONTOWN", "addr:country": "US", "addr:postcode": "15461", "addr:state": "PA", "addr:street_address": "301 JEFFERSON AVE", "amenity": "post_box", "collection_times": "Mo-Sa 13:00", "note": "ON 12/24 AND 12/31, THIS BOX MAY BE COLLECTED AS EARLY AS 12 NOON.", "nsi_id": "unitedstatespostalservice-a77078", "operator": "United States Postal Service", "operator:short": "USPS", "operator:type": "public", "operator:wikidata": "Q668687", "ref": "1546100003"}, "type": "Feature"}
{"geometry": {"coordinates": [-79.9049659, 39.845121], "type": "Point"}, "id": "41ECQkGQ1f3bdLSYnN03OgbI_Xc=", "properties": {"@source_uri": "https://tools.usps.com/UspsToolsRestServices/rest/POLocator/findLocations", "@spider": "usps_collection_boxes", "addr:city": "MASONTOWN", "addr:country": "US", "addr:postcode": "15461", "addr:state": "PA", "addr:street_address": "304 PROVINS AVE", "amenity": "post_box", "collection_times": "Mo-Sa 13:30", "note": "ON 12/24 AND 12/31, THIS BOX MAY BE COLLECTED AS EARLY AS 12 NOON.", "nsi_id": "unitedstatespostalservice-a77078", "operator": "United States Postal Service", "operator:short": "USPS", "operator:type": "public", "operator:wikidata": "Q668687", "ref": "1546100004"}, "type": "Feature"}
{"geometry": {"coordinates": [-79.9012982, 39.855635], "type": "Point"}, "id": "uB9oIhNTLOhhr2L6I-uomMmLDog=", "properties": {"@source_uri": "https://tools.usps.com/UspsToolsRestServices/rest/POLocator/findLocations", "@spider": "usps_collection_boxes", "addr:city": "MASONTOWN", "addr:country": "US", "addr:postcode": "15461", "addr:state": "PA", "addr:street_address": "610 N MAIN ST", "amenity": "post_box", "collection_times": "Mo-Sa 09:30", "nsi_id": "unitedstatespostalservice-a77078", "operator": "United States Postal Service", "operator:short": "USPS", "operator:type": "public", "operator:wikidata": "Q668687", "ref": "1546100009"}, "type": "Feature"}
{"geometry": {"coordinates": [-79.8995261, 39.845101], "type": "Point"}, "id": "sJ246kg_YXUYyKJy7411jT6nc8I=", "properties": {"@source_uri": "https://tools.usps.com/UspsToolsRestServices/rest/POLocator/findLocations", "@spider": "usps_collection_boxes", "addr:city": "MASONTOWN", "addr:country": "US", "addr:postcode": "15461", "addr:state": "PA", "addr:street_address": "202 S MAIN ST", "amenity": "post_box", "collection_times": "Mo-Sa 09:00", "nsi_id": "unitedstatespostalservice-a77078", "operator": "United States Postal Service", "operator:short": "USPS", "operator:type": "public", "operator:wikidata": "Q668687", "ref": "1546100010"}, "type": "Feature"}
{"geometry": {"coordinates": [-79.8998123, 39.846831], "type": "Point"}, "id": "k6f8WBXLXApJQZx6qF0vlu0Lkpw=", "properties": {"@source_uri": "https://tools.usps.com/UspsToolsRestServices/rest/POLocator/findLocations", "@spider": "usps_collection_boxes", "addr:city": "MASONTOWN", "addr:country": "US", "addr:postcode": "15461", "addr:state": "PA", "addr:street_address": "1 N MAIN ST", "amenity": "post_box", "collection_times": "Mo-Sa 09:30", "nsi_id": "unitedstatespostalservice-a77078", "operator": "United States Postal Service", "operator:short": "USPS", "operator:type": "public", "operator:wikidata": "Q668687", "ref": "1546100011"}, "type": "Feature"}
{"geometry": {"coordinates": [-79.9012399, 39.846662], "type": "Point"}, "id": "QZWsx1p8MFJOoaiMUzkGKz7UbHM=", "properties": {"@source_uri": "https://tools.usps.com/UspsToolsRestServices/rest/POLocator/findLocations", "@spider": "usps_collection_boxes", "addr:city": "MASONTOWN", "addr:country": "US", "addr:postcode": "15461", "addr:state": "PA", "addr:street_address": "102 W CHURCH AVE", "amenity": "post_box", "collection_times": "Mo-Sa 11:00", "nsi_id": "unitedstatespostalservice-a77078", "operator": "United States Postal Service", "operator:short": "USPS", "operator:type": "public", "operator:wikidata": "Q668687", "ref": "1546100013"}, "type": "Feature"}
{"geometry": {"coordinates": [-79.8949764, 39.847214], "type": "Point"}, "id": "FXcDMWg-p1De6Ht3PGNBpPXABs0=", "properties": {"@source_uri": "https://tools.usps.com/UspsToolsRestServices/rest/POLocator/findLocations", "@spider": "usps_collection_boxes", "addr:city": "MASONTOWN", "addr:country": "US", "addr:postcode": "15461", "addr:state": "PA", "addr:street_address": "308 E CHURCH AVE", "amenity": "post_box", "collection_times": "Mo-Sa 11:15", "nsi_id": "unitedstatespostalservice-a77078", "operator": "United States Postal Service", "operator:short": "USPS", "operator:type": "public", "operator:wikidata": "Q668687", "ref": "1546100014"}, "type": "Feature"}
{"geometry": {"coordinates": [-79.898823, 39.846874], "type": "Point"}, "id": "2uCashDWQdINd6fiHq7L5NJ607Q=", "properties": {"@source_uri": "https://tools.usps.com/UspsToolsRestServices/rest/POLocator/findLocations", "@spider": "usps_collection_boxes", "addr:city": "MASONTOWN", "addr:country": "US", "addr:postcode": "15461", "addr:state": "PA", "addr:street_address": "11 E CHURCH AVE", "amenity": "post_box", "collection_times": "Mo-Fr 16:30; Sa 15:30", "indoor": "yes", "note": "ON 12/24 AND 12/31, THIS BOX MAY BE COLLECTED AS EARLY AS 12 NOON.", "nsi_id": "unitedstatespostalservice-a77078", "operator": "United States Postal Service", "operator:short": "USPS", "operator:type": "public", "operator:wikidata": "Q668687", "ref": "1546100018"}, "type": "Feature"}
{"geometry": {"coordinates": [-79.9121849, 39.851502], "type": "Point"}, "id": "b03p6FRa54oP1PzItrV_puW5i9A=", "properties": {"@source_uri": "https://tools.usps.com/UspsToolsRestServices/rest/POLocator/findLocations", "@spider": "usps_collection_boxes", "addr:city": "MASONTOWN", "addr:country": "US", "addr:postcode": "15461", "addr:state": "PA", "addr:street_address": "200 N REDWOOD ST", "amenity": "post_box", "collection_times": "Mo-Sa 13:00", "note": "ON 12/24 AND 12/31, THIS BOX MAY BE COLLECTED AS EARLY AS 12 NOON.", "nsi_id": "unitedstatespostalservice-a77078", "operator": "United States Postal Service", "operator:short": "USPS", "operator:type": "public", "operator:wikidata": "Q668687", "ref": "1546100020"}, "type": "Feature"}
{"geometry": {"coordinates": [-79.898743671, 39.846879344], "type": "Point"}, "id": "bwUSbgz5cuBWdcmI5hk6VKmzSws=", "properties": {"@source_uri": "https://tools.usps.com/UspsToolsRestServices/rest/POLocator/findLocations", "@spider": "usps_collection_boxes", "addr:city": "MASONTOWN", "addr:country": "US", "addr:postcode": "15461", "addr:state": "PA", "addr:street_address": "11 E CHURCH AVE", "amenity": "post_box", "collection_times": "Mo-Fr 16:15; Sa 13:00", "indoor": "yes", "note": "ON 12/24 AND 12/31, THIS BOX MAY BE COLLECTED AS EARLY AS 12 NOON.", "nsi_id": "unitedstatespostalservice-a77078", "operator": "United States Postal Service", "operator:short": "USPS", "operator:type": "public", "operator:wikidata": "Q668687", "ref": "1546100022"}, "type": "Feature"}
{"geometry": {"coordinates": [-79.387182, 40.052375], "type": "Point"}, "id": "90lFt8GWc8C9-MrwVPxYxVqAJO0=", "properties": {"@source_uri": "https://tools.usps.com/UspsToolsRestServices/rest/POLocator/findLocations", "@spider": "usps_collection_boxes", "addr:city": "MELCROFT", "addr:country": "US", "addr:postcode": "15462", "addr:state": "PA", "addr:street_address": "1334 INDIAN CREEK VALLEY RD", "amenity": "post_box", "collection_times": "Mo-Fr 11:55; Sa 11:45", "nsi_id": "unitedstatespostalservice-a77078", "operator": "United States Postal Service", "operator:short": "USPS", "operator:type": "public", "operator:wikidata": "Q668687", "ref": "1546200001"}, "type": "Feature"}
{"geometry": {"coordinates": [-79.387283, 40.052373], "type": "Point"}, "id": "Z3yUTAGUUSVhgSQ_SO-XsRv_PiA=", "properties": {"@source_uri": "https://tools.usps.com/UspsToolsRestServices/rest/POLocator/findLocations", "@spider": "usps_collection_boxes", "addr:city": "MELCROFT", "addr:country": "US", "addr:postcode": "15462", "addr:state": "PA", "addr:street_address": "1334 INDIAN CREEK VALLEY RD", "amenity": "post_box", "collection_times": "Mo-Fr 11:55; Sa 11:45", "indoor": "yes", "nsi_id": "unitedstatespostalservice-a77078", "operator": "United States Postal Service", "operator:short": "USPS", "operator:type": "public", "operator:wikidata": "Q668687", "ref": "1546200002"}, "type": "Feature"}
{"geometry": {"coordinates": [-79.387320197, 40.052278583], "type": "Point"}, "id": "qZibbe5nryxRgpNe095OWI7uVkM=", "properties": {"@source_uri": "https://tools.usps.com/UspsToolsRestServices/rest/POLocator/findLocations", "@spider": "usps_collection_boxes", "addr:city": "MELCROFT", "addr:country": "US", "addr:postcode": "15462", "addr:state": "PA", "addr:street_address": "1334 INDIAN CREEK VALLEY RD", "amenity": "post_box", "collection_times": "Mo-Fr 11:55; Sa 11:25", "indoor": "yes", "nsi_id": "unitedstatespostalservice-a77078", "operator": "United States Postal Service", "operator:short": "USPS", "operator:type": "public", "operator:wikidata": "Q668687", "ref": "1546200005"}, "type": "Feature"}
{"geometry": {"coordinates": [-79.8819553165, 39.9729255872], "type": "Point"}, "id": "u5z1wuu0T625rvffFojzPS2ofHQ=", "properties": {"@source_uri": "https://tools.usps.com/UspsToolsRestServices/rest/POLocator/findLocations", "@spider": "usps_collection_boxes", "addr:city": "MERRITTSTOWN", "addr:country": "US", "addr:postcode": "15463", "addr:state": "PA", "addr:street_address": "200 ACADEMY RD", "amenity": "post_box", "collection_times": "Mo-Fr 11:55; Sa 11:45", "nsi_id": "unitedstatespostalservice-a77078", "operator": "United States Postal Service", "operator:short": "USPS", "operator:type": "public", "operator:wikidata": "Q668687", "ref": "1546300001"}, "type": "Feature"}
{"geometry": {"coordinates": [-79.881955316, 39.972925587], "type": "Point"}, "id": "SehjwvySSY9SPqKPyJY00kxogiM=", "properties": {"@source_uri": "https://tools.usps.com/UspsToolsRestServices/rest/POLocator/findLocations", "@spider": "usps_collection_boxes", "addr:city": "MERRITTSTOWN", "addr:country": "US", "addr:postcode": "15463", "addr:state": "PA", "addr:street_address": "200 ACADEMY RD", "amenity": "post_box", "collection_times": "Mo-Fr 11:55; Sa 11:45", "indoor": "yes", "nsi_id": "unitedstatespostalservice-a77078", "operator": "United States Postal Service", "operator:short": "USPS", "operator:type": "public", "operator:wikidata": "Q668687", "ref": "1546300002"}, "type": "Feature"}
{"geometry": {"coordinates": [-79.881955316, 39.972925587], "type": "Point"}, "id": "uqaeU-dWPyhL7y9ZCzcjEUXlOdY=", "properties": {"@source_uri": "https://tools.usps.com/UspsToolsRestServices/rest/POLocator/findLocations", "@spider": "usps_collection_boxes", "addr:city": "MERRITTSTOWN", "addr:country": "US", "addr:postcode": "15463", "addr:state": "PA", "addr:street_address": "200 ACADEMY RD", "amenity": "post_box", "collection_times": "Mo-Fr 11:55; Sa 11:25", "indoor": "yes", "nsi_id": "unitedstatespostalservice-a77078", "operator": "United States Postal Service", "operator:short": "USPS", "operator:type": "public", "operator:wikidata": "Q668687", "ref": "1546300004"}, "type": "Feature"}
{"geometry": {"coordinates": [-79.454627, 39.950871], "type": "Point"}, "id": "lqsxVJogjbMcmbhmG7SUmGXOAn4=", "properties": {"@source_uri": "https://tools.usps.com/UspsToolsRestServices/rest/POLocator/findLocations", "@spider": "usps_collection_boxes", "addr:city": "MILL RUN", "addr:country": "US", "addr:postcode": "15464", "addr:state": "PA", "addr:street_address": "105 STEWARTON RD", "amenity": "post_box", "collection_times": "Mo-Fr 16:30; Sa 11:30", "note": "ON 12/24 AND 12/31, THIS BOX MAY BE COLLECTED AS EARLY AS 12 NOON.", "nsi_id": "unitedstatespostalservice-a77078", "operator": "United States Postal Service", "operator:short": "USPS", "operator:type": "public", "operator:wikidata": "Q668687", "ref": "1546400001"}, "type": "Feature"}
{"geometry": {"coordinates": [-79.454526, 39.950899], "type": "Point"}, "id": "YSJmh8__sM0iAO9yQ_UyV7sa22s=", "properties": {"@source_uri": "https://tools.usps.com/UspsToolsRestServices/rest/POLocator/findLocations", "@spider": "usps_collection_boxes", "addr:city": "MILL RUN", "addr:country": "US", "addr:postcode": "15464", "addr:state": "PA", "addr:street_address": "105 STEWARTON RD", "amenity": "post_box", "collection_times": "Mo-Fr 16:30; Sa 11:30", "indoor": "yes", "note": "ON 12/24 AND 12/31, THIS BOX MAY BE COLLECTED AS EARLY AS 12 NOON.", "nsi_id": "unitedstatespostalservice-a77078", "operator": "United States Postal Service", "operator:short": "USPS", "operator:type": "public", "operator:wikidata": "Q668687", "ref": "1546400002"}, "type": "Feature"}
{"geometry": {"coordinates": [-79.454659537, 39.950856525], "type": "Point"}, "id": "79GWexZTGz8YLPdH0l0AmDmBiXs=", "properties": {"@source_uri": "https://tools.usps.com/UspsToolsRestServices/rest/POLocator/findLocations", "@spider": "usps_collection_boxes", "addr:city": "MILL RUN", "addr:country": "US", "addr:postcode": "15464", "addr:state": "PA", "addr:street_address": "105 STEWARTON RD", "amenity": "post_box", "collection_times": "Mo-Fr 16:30; Sa 11:30", "indoor": "yes", "note": "ON 12/24 AND 12/31, THIS BOX MAY BE COLLECTED AS EARLY AS 12 NOON.", "nsi_id": "unitedstatespostalservice-a77078", "operator": "United States Postal Service", "operator:short": "USPS", "operator:type": "public", "operator:wikidata": "Q668687", "ref": "1546400004"}, "type": "Feature"}
{"geometry": {"coordinates": [-79.645922, 39.941859], "type": "Point"}, "id": "663MaDINcneODElSsL3zAn3cYyA=", "properties": {"@source_uri": "https://tools.usps.com/UspsToolsRestServices/rest/POLocator/findLocations", "@spider": "usps_collection_boxes", "addr:city": "MOUNT BRADDOCK", "addr:country": "US", "addr:postcode": "15465", "addr:state": "PA", "addr:street_address": "5 FERGUSON RD", "amenity": "post_box", "collection_times": "Mo-Fr 11:55; Sa 11:45", "nsi_id": "unitedstatespostalservice-a77078", "operator": "United States Postal Service", "operator:short": "USPS", "operator:type": "public", "operator:wikidata": "Q668687", "ref": "1546500001"}, "type": "Feature"}
{"geometry": {"coordinates": [-79.645953, 39.941803], "type": "Point"}, "id": "1zawIh7W-FKrGM8anSdfNzvqF_Q=", "properties": {"@source_uri": "https://tools.usps.com/UspsToolsRestServices/rest/POLocator/findLocations", "@spider": "usps_collection_boxes", "addr:city": "MOUNT BRADDOCK", "addr:country": "US", "addr:postcode": "15465", "addr:state": "PA", "addr:street_address": "5 FERGUSON RD", "amenity": "post_box", "collection_times": "Mo-Fr 11:55; Sa 11:45", "indoor": "yes", "nsi_id": "unitedstatespostalservice-a77078", "operator": "United States Postal Service", "operator:short": "USPS", "operator:type": "public", "operator:wikidata": "Q668687", "ref": "1546500002"}, "type": "Feature"}
{"geometry": {"coordinates": [-79.645877375, 39.941879625], "type": "Point"}, "id": "vHcTL_0tTAuk5Dvhvm30EQ2qtzc=", "properties": {"@source_uri": "https://tools.usps.com/UspsToolsRestServices/rest/POLocator/findLocations", "@spider": "usps_collection_boxes", "addr:city": "MOUNT BRADDOCK", "addr:country": "US", "addr:postcode": "15465", "addr:state": "PA", "addr:street_address": "5 FERGUSON RD", "amenity": "post_box", "collection_times": "Mo-Sa 11:55", "indoor": "yes", "nsi_id": "unitedstatespostalservice-a77078", "operator": "United States Postal Service", "operator:short": "USPS", "operator:type": "public", "operator:wikidata": "Q668687", "ref": "1546500004"}, "type": "Feature"}
{"geometry": {"coordinates": [-79.897016, 40.075546], "type": "Point"}, "id": "MF8qtYrIYSt5V3KPy40KkEKTOsQ=", "properties": {"@source_uri": "https://tools.usps.com/UspsToolsRestServices/rest/POLocator/findLocations", "@spider": "usps_collection_boxes", "addr:city": "NEWELL", "addr:country": "US", "addr:postcode": "15466", "addr:state": "PA", "addr:street_address": "406 4TH ST", "amenity": "post_box", "collection_times": "Mo-Fr 16:40; Sa 11:25", "note": "ON 12/24 AND 12/31, THIS BOX MAY BE COLLECTED AS EARLY AS 12 NOON.", "nsi_id": "unitedstatespostalservice-a77078", "operator": "United States Postal Service", "operator:short": "USPS", "operator:type": "public", "operator:wikidata": "Q668687", "ref": "1546600001"}, "type": "Feature"}
{"geometry": {"coordinates": [-79.896906756, 40.075661997], "type": "Point"}, "id": "vVhDSQsz67D1VYF8tQtVRK4mvF8=", "properties": {"@source_uri": "https://tools.usps.com/UspsToolsRestServices/rest/POLocator/findLocations", "@spider": "usps_collection_boxes", "addr:city": "NEWELL", "addr:country": "US", "addr:postcode": "15466", "addr:state": "PA", "addr:street_address": "406 4TH ST", "amenity": "post_box", "collection_times": "Mo-Fr 16:40; Sa 11:25", "indoor": "yes", "note": "ON 12/24 AND 12/31, THIS BOX MAY BE COLLECTED AS EARLY AS 12 NOON.", "nsi_id": "unitedstatespostalservice-a77078", "operator": "United States Postal Service", "operator:short": "USPS", "operator:type": "public", "operator:wikidata": "Q668687", "ref": "1546600004"}, "type": "Feature"}
{"geometry": {"coordinates": [-79.896906756, 40.075661997], "type": "Point"}, "id": "T15vOsndIRttvJhvlNDLZs9p6gc=", "properties": {"@source_uri": "https://tools.usps.com/UspsToolsRestServices/rest/POLocator/findLocations", "@spider": "usps_collection_boxes", "addr:city": "NEWELL", "addr:country": "US", "addr:postcode": "15466", "addr:state": "PA", "addr:street_address": "406 4TH ST", "amenity": "post_box", "collection_times": "Mo-Fr 16:40; Sa 11:25", "indoor": "yes", "note": "ON 12/24 AND 12/31, THIS BOX MAY BE COLLECTED AS EARLY AS 12 NOON.", "nsi_id": "unitedstatespostalservice-a77078", "operator": "United States Postal Service", "operator:short": "USPS", "operator:type": "public", "operator:wikidata": "Q668687", "ref": "1546600005"}, "type": "Feature"}
{"geometry": {"coordinates": [-79.837337, 39.925142], "type": "Point"}, "id": "cL90fVmBkzC4JPfEgYNrY8fDB9E=", "properties": {"@source_uri": "https://tools.usps.com/UspsToolsRestServices/rest/POLocator/findLocations", "@spider": "usps_collection_boxes", "addr:city": "NEW SALEM", "addr:country": "US", "addr:postcode": "15468", "addr:state": "PA", "addr:street_address": "9 W MAIN ST", "amenity": "post_box", "collection_times": "Mo-Fr 16:30; Sa 11:30", "note": "ON 12/24 AND 12/31, THIS BOX MAY BE COLLECTED AS EARLY AS 12 NOON.", "nsi_id": "unitedstatespostalservice-a77078", "operator": "United States Postal Service", "operator:short": "USPS", "operator:type": "public", "operator:wikidata": "Q668687", "ref": "1546800001"}, "type": "Feature"}
{"geometry": {"coordinates": [-79.837337, 39.925142], "type": "Point"}, "id": "HUVXpApMgw08p6GOOfKkruzyPps=", "properties": {"@source_uri": "https://tools.usps.com/UspsToolsRestServices/rest/POLocator/findLocations", "@spider": "usps_collection_boxes", "addr:city": "NEW SALEM", "addr:country": "US", "addr:postcode": "15468", "addr:state": "PA", "addr:street_address": "9 W MAIN ST", "amenity": "post_box", "collection_times": "Mo-Fr 16:30; Sa 11:30", "indoor": "yes", "note": "ON 12/24 AND 12/31, THIS BOX MAY BE COLLECTED AS EARLY AS 12 NOON.", "nsi_id": "unitedstatespostalservice-a77078", "operator": "United States Postal Service", "operator:short": "USPS", "operator:type": "public", "operator:wikidata": "Q668687", "ref": "1546800002"}, "type": "Feature"}
{"geometry": {"coordinates": [-79.837627517, 39.925334146], "type": "Point"}, "id": "Z18FM3dCts2knKza79H_zicEAt4=", "properties": {"@source_uri": "https://tools.usps.com/UspsToolsRestServices/rest/POLocator/findLocations", "@spider": "usps_collection_boxes", "addr:city": "NEW SALEM", "addr:country": "US", "addr:postcode": "15468", "addr:state": "PA", "addr:street_address": "9 W MAIN ST", "amenity": "post_box", "collection_times": "Mo-Fr 16:30; Sa 12:00", "indoor": "yes", "note": "ON 12/24 AND 12/31, THIS BOX MAY BE COLLECTED AS EARLY AS 12 NOON.", "nsi_id": "unitedstatespostalservice-a77078", "operator": "United States Postal Service", "operator:short": "USPS", "operator:type": "public", "operator:wikidata": "Q668687", "ref": "1546800004"}, "type": "Feature"}
{"geometry": {"coordinates": [-79.452943, 40.001542], "type": "Point"}, "id": "bi4_zf24u4CRgEatAoKDKevptR0=", "properties": {"@source_uri": "https://tools.usps.com/UspsToolsRestServices/rest/POLocator/findLocations", "@spider": "usps_collection_boxes", "addr:city": "NORMALVILLE", "addr:country": "US", "addr:postcode": "15469", "addr:state": "PA", "addr:street_address": "3318 SPRINGFIELD PIKE", "amenity": "post_box", "collection_times": "Mo-Fr 16:45; Sa 11:45", "note": "ON 12/24 AND 12/31, THIS BOX MAY BE COLLECTED AS EARLY AS 12 NOON.", "nsi_id": "unitedstatespostalservice-a77078", "operator": "United States Postal Service", "operator:short": "USPS", "operator:type": "public", "operator:wikidata": "Q668687", "ref": "1546900001"}, "type": "Feature"}
{"geometry": {"coordinates": [-79.452969, 40.001594], "type": "Point"}, "id": "ucTrBgKiQyQ6yzP1JO1DNOUjtLM=", "properties": {"@source_uri": "https://tools.usps.com/UspsToolsRestServices/rest/POLocator/findLocations", "@spider": "usps_collection_boxes", "addr:city": "NORMALVILLE", "addr:country": "US", "addr:postcode": "15469", "addr:state": "PA", "addr:street_address": "3318 SPRINGFIELD PIKE", "amenity": "post_box", "collection_times": "Mo-Fr 16:45; Sa 11:45", "indoor": "yes", "note": "ON 12/24 AND 12/31, THIS BOX MAY BE COLLECTED AS EARLY AS 12 NOON.", "nsi_id": "unitedstatespostalservice-a77078", "operator": "United States Postal Service", "operator:short": "USPS", "operator:type": "public", "operator:wikidata": "Q668687", "ref": "1546900002"}, "type": "Feature"}
{"geometry": {"coordinates": [-79.452969, 40.001594], "type": "Point"}, "id": "Hj_CrlScZvveK0-NKJgVLpJrhJE=", "properties": {"@source_uri": "https://tools.usps.com/UspsToolsRestServices/rest/POLocator/findLocations", "@spider": "usps_collection_boxes", "addr:city": "NORMALVILLE", "addr:country": "US", "addr:postcode": "15469", "addr:state": "PA", "addr:street_address": "3318 SPRINGFIELD PIKE", "amenity": "post_box", "collection_times": "Mo-Fr 16:45; Sa 11:45", "indoor": "yes", "note": "ON 12/24 AND 12/31, THIS BOX MAY BE COLLECTED AS EARLY AS 12 NOON.", "nsi_id": "unitedstatespostalservice-a77078", "operator": "United States Postal Service", "operator:short": "USPS", "operator:type": "public", "operator:wikidata": "Q668687", "ref": "1546900003"}, "type": "Feature"}
{"geometry": {"coordinates": [-79.453316234, 40.001775258], "type": "Point"}, "id": "4kyTjBYADVov5NaLnarQzDS3slU=", "properties": {"@source_uri": "https://tools.usps.com/UspsToolsRestServices/rest/POLocator/findLocations", "@spider": "usps_collection_boxes", "addr:city": "NORMALVILLE", "addr:country": "US", "addr:postcode": "15469", "addr:state": "PA", "addr:street_address": "3318 SPRINGFIELD PIKE", "amenity": "post_box", "collection_times": "Mo-Fr 16:30; Sa 12:00", "indoor": "yes", "note": "ON 12/24 AND 12/31, THIS BOX MAY BE COLLECTED AS EARLY AS 12 NOON.", "nsi_id": "unitedstatespostalservice-a77078", "operator": "United States Postal Service", "operator:short": "USPS", "operator:type": "public", "operator:wikidata": "Q668687", "ref": "1546900005"}, "type": "Feature"}
{"geometry": {"coordinates": [-79.49265, 39.86784], "type": "Point"}, "id": "_eJsyM9nr_7gkyhweMBo3HQfJrA=", "properties": {"@source_uri": "https://tools.usps.com/UspsToolsRestServices/rest/POLocator/findLocations", "@spider": "usps_collection_boxes", "addr:city": "OHIOPYLE", "addr:country": "US", "addr:postcode": "15470", "addr:state": "PA", "addr:street_address": "122 GRANT ST", "amenity": "post_box", "collection_times": "Mo-Fr 11:55; Sa 11:25", "nsi_id": "unitedstatespostalservice-a77078", "operator": "United States Postal Service", "operator:short": "USPS", "operator:type": "public", "operator:wikidata": "Q668687", "ref": "1547000001"}, "type": "Feature"}
{"geometry": {"coordinates": [-79.492253, 39.868052], "type": "Point"}, "id": "57OcvAJsIttnzs1RrnhFiH4DHOA=", "properties": {"@source_uri": "https://tools.usps.com/UspsToolsRestServices/rest/POLocator/findLocations", "@spider": "usps_collection_boxes", "addr:city": "OHIOPYLE", "addr:country": "US", "addr:postcode": "15470", "addr:state": "PA", "addr:street_address": "122 GRANT ST", "amenity": "post_box", "collection_times": "Mo-Fr 11:55; Sa 11:25", "indoor": "yes", "nsi_id": "unitedstatespostalservice-a77078", "operator": "United States Postal Service", "operator:short": "USPS", "operator:type": "public", "operator:wikidata": "Q668687", "ref": "1547000002"}, "type": "Feature"}
{"geometry": {"coordinates": [-79.492891, 39.872343], "type": "Point"}, "id": "-Kam8zw6TWZY1yzb4AzFcgcPjuI=", "properties": {"@source_uri": "https://tools.usps.com/UspsToolsRestServices/rest/POLocator/findLocations", "@spider": "usps_collection_boxes", "addr:city": "OHIOPYLE", "addr:country": "US", "addr:postcode": "15470", "addr:state": "PA", "addr:street_address": "69 MAIN ST", "amenity": "post_box", "collection_times": "Mo-Sa 13:00", "note": "ON 12/24 AND 12/31, THIS BOX MAY BE COLLECTED AS EARLY AS 12 NOON.", "nsi_id": "unitedstatespostalservice-a77078", "operator": "United States Postal Service", "operator:short": "USPS", "operator:type": "public", "operator:wikidata": "Q668687", "ref": "1547000003"}, "type": "Feature"}
{"geometry": {"coordinates": [-79.492447863, 39.867875507], "type": "Point"}, "id": "E0B6ClXj3dHNChtEfhd5eqMyObg=", "properties": {"@source_uri": "https://tools.usps.com/UspsToolsRestServices/rest/POLocator/findLocations", "@spider": "usps_collection_boxes", "addr:city": "OHIOPYLE", "addr:country": "US", "addr:postcode": "15470", "addr:state": "PA", "addr:street_address": "122 GRANT ST", "amenity": "post_box", "collection_times": "Mo-Fr 11:55; Sa 11:25", "indoor": "yes", "nsi_id": "unitedstatespostalservice-a77078", "operator": "United States Postal Service", "operator:short": "USPS", "operator:type": "public", "operator:wikidata": "Q668687", "ref": "1547000005"}, "type": "Feature"}
{"geometry": {"coordinates": [-79.717291, 39.919855], "type": "Point"}, "id": "PGbmfikQ3nPX2OPqPXC_urVhTQw=", "properties": {"@source_uri": "https://tools.usps.com/UspsToolsRestServices/rest/POLocator/findLocations", "@spider": "usps_collection_boxes", "addr:city": "OLIVER", "addr:country": "US", "addr:postcode": "15472", "addr:state": "PA", "addr:street_address": "169 MAIN ST", "amenity": "post_box", "collection_times": "Mo-Fr 11:55; Sa 11:45", "nsi_id": "unitedstatespostalservice-a77078", "operator": "United States Postal Service", "operator:short": "USPS", "operator:type": "public", "operator:wikidata": "Q668687", "ref": "1547200001"}, "type": "Feature"}
{"geometry": {"coordinates": [-79.717319, 39.919895], "type": "Point"}, "id": "usz0vNjPZzn9rMe811SamKX0NYM=", "properties": {"@source_uri": "https://tools.usps.com/UspsToolsRestServices/rest/POLocator/findLocations", "@spider": "usps_collection_boxes", "addr:city": "OLIVER", "addr:country": "US", "addr:postcode": "15472", "addr:state": "PA", "addr:street_address": "169 MAIN ST", "amenity": "post_box", "collection_times": "Mo-Fr 11:55; Sa 11:45", "indoor": "yes", "nsi_id": "unitedstatespostalservice-a77078", "operator": "United States Postal Service", "operator:short": "USPS", "operator:type": "public", "operator:wikidata": "Q668687", "ref": "1547200003"}, "type": "Feature"}
{"geometry": {"coordinates": [-79.717608847, 39.9188421], "type": "Point"}, "id": "gZaKkRIhyHu1FNMknPGtk0nIwWc=", "properties": {"@source_uri": "https://tools.usps.com/UspsToolsRestServices/rest/POLocator/findLocations", "@spider": "usps_collection_boxes", "addr:city": "OLIVER", "addr:country": "US", "addr:postcode": "15472", "addr:state": "PA", "addr:street_address": "169 MAIN ST", "amenity": "post_box", "collection_times": "Mo-Fr 11:55; Sa 11:40", "indoor": "yes", "nsi_id": "unitedstatespostalservice-a77078", "operator": "United States Postal Service", "operator:short": "USPS", "operator:type": "public", "operator:wikidata": "Q668687", "ref": "1547200005"}, "type": "Feature"}
{"geometry": {"coordinates": [-79.748647, 40.086433], "type": "Point"}, "id": "rgo_1ICHEPFySBN_L-WU9LEfWhs=", "properties": {"@source_uri": "https://tools.usps.com/UspsToolsRestServices/rest/POLocator/findLocations", "@spider": "usps_collection_boxes", "addr:city": "PERRYOPOLIS", "addr:country": "US", "addr:postcode": "15473", "addr:state": "PA", "addr:street_address": "221 REPUBLICAN ST", "amenity": "post_box", "collection_times": "Mo-Fr 16:30; Sa 11:30", "note": "ON 12/24 AND 12/31, THIS BOX MAY BE COLLECTED AS EARLY AS 12 NOON.", "nsi_id": "unitedstatespostalservice-a77078", "operator": "United States Postal Service", "operator:short": "USPS", "operator:type": "public", "operator:wikidata": "Q668687", "ref": "1547300001"}, "type": "Feature"}
{"geometry": {"coordinates": [-79.7509989, 40.087174], "type": "Point"}, "id": "8t4bcQcScpQHVYl7310KMtJ615U=", "properties": {"@source_uri": "https://tools.usps.com/UspsToolsRestServices/rest/POLocator/findLocations", "@spider": "usps_collection_boxes", "addr:city": "PERRYOPOLIS", "addr:country": "US", "addr:postcode": "15473", "addr:state": "PA", "addr:street_address": "223 INDEPENDENCE ST", "amenity": "post_box", "collection_times": "Mo-Fr 13:00; Sa 11:30", "note": "ON 12/24 AND 12/31, THIS BOX MAY BE COLLECTED AS EARLY AS 12 NOON.", "nsi_id": "unitedstatespostalservice-a77078", "operator": "United States Postal Service", "operator:short": "USPS", "operator:type": "public", "operator:wikidata": "Q668687", "ref": "1547300002"}, "type": "Feature"}
{"geometry": {"coordinates": [-79.748647, 40.086433], "type": "Point"}, "id": "pc47P3HaLPU7viVztAv27vqvHFs=", "properties": {"@source_uri": "https://tools.usps.com/UspsToolsRestServices/rest/POLocator/findLocations", "@spider": "usps_collection_boxes", "addr:city": "PERRYOPOLIS", "addr:country": "US", "addr:postcode": "15473", "addr:state": "PA", "addr:street_address": "221 REPUBLICAN ST", "amenity": "post_box", "collection_times": "Mo-Fr 16:30; Sa 11:30", "indoor": "yes", "note": "ON 12/24 AND 12/31, THIS BOX MAY BE COLLECTED AS EARLY AS 12 NOON.", "nsi_id": "unitedstatespostalservice-a77078", "operator": "United States Postal Service", "operator:short": "USPS", "operator:type": "public", "operator:wikidata": "Q668687", "ref": "1547300003"}, "type": "Feature"}
{"geometry": {"coordinates": [-79.748648248, 40.086429642], "type": "Point"}, "id": "jlTgDXFG_jFG020d9VjXyTx4DcA=", "properties": {"@source_uri": "https://tools.usps.com/UspsToolsRestServices/rest/POLocator/findLocations", "@spider": "usps_collection_boxes", "addr:city": "PERRYOPOLIS", "addr:country": "US", "addr:postcode": "15473", "addr:state": "PA", "addr:street_address": "221 REPUBLICAN ST", "amenity": "post_box", "collection_times": "Mo-Fr 16:30; Sa 12:00", "indoor": "yes", "note": "ON 12/24 AND 12/31, THIS BOX MAY BE COLLECTED AS EARLY AS 12 NOON.", "nsi_id": "unitedstatespostalservice-a77078", "operator": "United States Postal Service", "operator:short": "USPS", "operator:type": "public", "operator:wikidata": "Q668687", "ref": "1547300005"}, "type": "Feature"}
{"geometry": {"coordinates": [-79.900581, 39.739503], "type": "Point"}, "id": "Q2EJhN9qisHj0FXPAav8h2pRoEM=", "properties": {"@source_uri": "https://tools.usps.com/UspsToolsRestServices/rest/POLocator/findLocations", "@spider": "usps_collection_boxes", "addr:city": "POINT MARION", "addr:country": "US", "addr:postcode": "15474", "addr:state": "PA", "addr:street_address": "100 PENN ST", "amenity": "post_box", "collection_times": "Mo-Fr 16:30; Sa 14:00", "note": "ON 12/24 AND 12/31, THIS BOX MAY BE COLLECTED AS EARLY AS 12 NOON.", "nsi_id": "unitedstatespostalservice-a77078", "operator": "United States Postal Service", "operator:short": "USPS", "operator:type": "public", "operator:wikidata": "Q668687", "ref": "1547400002"}, "type": "Feature"}
{"geometry": {"coordinates": [-79.8992805, 39.739078], "type": "Point"}, "id": "3gbZALTWWynZK0-hMYcnjOcB9jo=", "properties": {"@source_uri": "https://tools.usps.com/UspsToolsRestServices/rest/POLocator/findLocations", "@spider": "usps_collection_boxes", "addr:city": "POINT MARION", "addr:country": "US", "addr:postcode": "15474", "addr:state": "PA", "addr:street_address": "200 PENN ST", "amenity": "post_box", "collection_times": "Mo-Fr 14:15; Sa 14:00", "note": "ON 12/24 AND 12/31, THIS BOX MAY BE COLLECTED AS EARLY AS 12 NOON.", "nsi_id": "unitedstatespostalservice-a77078", "operator": "United States Postal Service", "operator:short": "USPS", "operator:type": "public", "operator:wikidata": "Q668687", "ref": "1547400003"}, "type": "Feature"}
{"geometry": {"coordinates": [-79.900581, 39.739503], "type": "Point"}, "id": "o8MKQQQfxmy0z80sSl5gi5NB6a4=", "properties": {"@source_uri": "https://tools.usps.com/UspsToolsRestServices/rest/POLocator/findLocations", "@spider": "usps_collection_boxes", "addr:city": "POINT MARION", "addr:country": "US", "addr:postcode": "15474", "addr:state": "PA", "addr:street_address": "100 PENN ST", "amenity": "post_box", "collection_times": "Mo-Fr 16:30; Sa 14:00", "indoor": "yes", "note": "ON 12/24 AND 12/31, THIS BOX MAY BE COLLECTED AS EARLY AS 12 NOON.", "nsi_id": "unitedstatespostalservice-a77078", "operator": "United States Postal Service", "operator:short": "USPS", "operator:type": "public", "operator:wikidata": "Q668687", "ref": "1547400006"}, "type": "Feature"}
{"geometry": {"coordinates": [-79.900580529, 39.739495622], "type": "Point"}, "id": "-82fWlwbt3U3Nep3iUSWrA6zeyw=", "properties": {"@source_uri": "https://tools.usps.com/UspsToolsRestServices/rest/POLocator/findLocations", "@spider": "usps_collection_boxes", "addr:city": "POINT MARION", "addr:country": "US", "addr:postcode": "15474", "addr:state": "PA", "addr:street_address": "100 PENN ST", "amenity": "post_box", "collection_times": "Mo-Fr 16:30; Sa 12:00", "indoor": "yes", "note": "ON 12/24 AND 12/31, THIS BOX MAY BE COLLECTED AS EARLY AS 12 NOON.", "nsi_id": "unitedstatespostalservice-a77078", "operator": "United States Postal Service", "operator:short": "USPS", "operator:type": "public", "operator:wikidata": "Q668687", "ref": "1547400010"}, "type": "Feature"}
{"geometry": {"coordinates": [-79.879844, 39.962388], "type": "Point"}, "id": "1v8UGN9oJXjthr1qbJemohgtFRc=", "properties": {"@source_uri": "https://tools.usps.com/UspsToolsRestServices/rest/POLocator/findLocations", "@spider": "usps_collection_boxes", "addr:city": "REPUBLIC", "addr:country": "US", "addr:postcode": "15475", "addr:state": "PA", "addr:street_address": "26 VAN KIRK ST", "amenity": "post_box", "collection_times": "Mo-Fr 16:30; Sa 11:30", "note": "ON 12/24 AND 12/31, THIS BOX MAY BE COLLECTED AS EARLY AS 12 NOON.", "nsi_id": "unitedstatespostalservice-a77078", "operator": "United States Postal Service", "operator:short": "USPS", "operator:type": "public", "operator:wikidata": "Q668687", "ref": "1547500001"}, "type": "Feature"}
{"geometry": {"coordinates": [-79.87984, 39.962336], "type": "Point"}, "id": "ZFoU0T7lCqqVk1Kzb6uQZQuP9zc=", "properties": {"@source_uri": "https://tools.usps.com/UspsToolsRestServices/rest/POLocator/findLocations", "@spider": "usps_collection_boxes", "addr:city": "REPUBLIC", "addr:country": "US", "addr:postcode": "15475", "addr:state": "PA", "addr:street_address": "26 VAN KIRK ST", "amenity": "post_box", "collection_times": "Mo-Fr 16:30; Sa 11:30", "indoor": "yes", "note": "ON 12/24 AND 12/31, THIS BOX MAY BE COLLECTED AS EARLY AS 12 NOON.", "nsi_id": "unitedstatespostalservice-a77078", "operator": "United States Postal Service", "operator:short": "USPS", "operator:type": "public", "operator:wikidata": "Q668687", "ref": "1547500002"}, "type": "Feature"}
{"geometry": {"coordinates": [-79.879457681, 39.96294236], "type": "Point"}, "id": "LbRDVsE8qvTs2WPZO6GW2HLBBaM=", "properties": {"@source_uri": "https://tools.usps.com/UspsToolsRestServices/rest/POLocator/findLocations", "@spider": "usps_collection_boxes", "addr:city": "REPUBLIC", "addr:country": "US", "addr:postcode": "15475", "addr:state": "PA", "addr:street_address": "26 VAN KIRK ST", "amenity": "post_box", "collection_times": "Mo-Fr 16:30; Sa 12:00", "indoor": "yes", "note": "ON 12/24 AND 12/31, THIS BOX MAY BE COLLECTED AS EARLY AS 12 NOON.", "nsi_id": "unitedstatespostalservice-a77078", "operator": "United States Postal Service", "operator:short": "USPS", "operator:type": "public", "operator:wikidata": "Q668687", "ref": "1547500005"}, "type": "Feature"}
{"geometry": {"coordinates": [-79.923107, 39.86977], "type": "Point"}, "id": "VG7DjS24yRYxoKteK4KtiF3bNUo=", "properties": {"@source_uri": "https://tools.usps.com/UspsToolsRestServices/rest/POLocator/findLocations", "@spider": "usps_collection_boxes", "addr:city": "RONCO", "addr:country": "US", "addr:postcode": "15476", "addr:state": "PA", "addr:street_address": "639 STEVENSON ST", "amenity": "post_box", "collection_times": "Mo-Fr 10:50; Sa 11:30", "nsi_id": "unitedstatespostalservice-a77078", "operator": "United States Postal Service", "operator:short": "USPS", "operator:type": "public", "operator:wikidata": "Q668687", "ref": "1547600001"}, "type": "Feature"}
{"geometry": {"coordinates": [-79.923559747, 39.869544176], "type": "Point"}, "id": "scIreGinG1cSR_UYTNTpefYNXyM=", "properties": {"@source_uri": "https://tools.usps.com/UspsToolsRestServices/rest/POLocator/findLocations", "@spider": "usps_collection_boxes", "addr:city": "RONCO", "addr:country": "US", "addr:postcode": "15476", "addr:state": "PA", "addr:street_address": "639 STEVENSON ST", "amenity": "post_box", "collection_times": "Mo-Fr 10:50; Sa 11:20", "indoor": "yes", "nsi_id": "unitedstatespostalservice-a77078", "operator": "United States Postal Service", "operator:short": "USPS", "operator:type": "public", "operator:wikidata": "Q668687", "ref": "1547600003"}, "type": "Feature"}
{"geometry": {"coordinates": [-79.863679, 40.079515], "type": "Point"}, "id": "2pm0I6G__6Vpg9xjal7FZBVhtLU=", "properties": {"@source_uri": "https://tools.usps.com/UspsToolsRestServices/rest/POLocator/findLocations", "@spider": "usps_collection_boxes", "addr:city": "ROSCOE", "addr:country": "US", "addr:postcode": "15477", "addr:state": "PA", "addr:street_address": "500 FURLONG AVE", "amenity": "post_box", "collection_times": "Mo-Fr 15:30; Sa 11:30", "note": "ON 12/24 AND 12/31, THIS BOX MAY BE COLLECTED AS EARLY AS 12 NOON.", "nsi_id": "unitedstatespostalservice-a77078", "operator": "United States Postal Service", "operator:short": "USPS", "operator:type": "public", "operator:wikidata": "Q668687", "ref": "1547700001"}, "type": "Feature"}
{"geometry": {"coordinates": [-79.863567, 40.079553], "type": "Point"}, "id": "xSqpqTzREco8nKya7X3Cbg6P8lA=", "properties": {"@source_uri": "https://tools.usps.com/UspsToolsRestServices/rest/POLocator/findLocations", "@spider": "usps_collection_boxes", "addr:city": "ROSCOE", "addr:country": "US", "addr:postcode": "15477", "addr:state": "PA", "addr:street_address": "500 FURLONG AVE", "amenity": "post_box", "collection_times": "Mo-Fr 15:30; Sa 11:30", "indoor": "yes", "note": "ON 12/24 AND 12/31, THIS BOX MAY BE COLLECTED AS EARLY AS 12 NOON.", "nsi_id": "unitedstatespostalservice-a77078", "operator": "United States Postal Service", "operator:short": "USPS", "operator:type": "public", "operator:wikidata": "Q668687", "ref": "1547700002"}, "type": "Feature"}
{"geometry": {"coordinates": [-79.863678241, 40.079510594], "type": "Point"}, "id": "-uD-VZeT1FGEUHyu7NEsvEL0VKw=", "properties": {"@source_uri": "https://tools.usps.com/UspsToolsRestServices/rest/POLocator/findLocations", "@spider": "usps_collection_boxes", "addr:city": "ROSCOE", "addr:country": "US", "addr:postcode": "15477", "addr:state": "PA", "addr:street_address": "500 FURLONG AVE", "amenity": "post_box", "collection_times": "Mo-Fr 16:30; Sa 12:00", "indoor": "yes", "note": "ON 12/24 AND 12/31, THIS BOX MAY BE COLLECTED AS EARLY AS 12 NOON.", "nsi_id": "unitedstatespostalservice-a77078", "operator": "United States Postal Service", "operator:short": "USPS", "operator:type": "public", "operator:wikidata": "Q668687", "ref": "1547700004"}, "type": "Feature"}
{"geometry": {"coordinates": [-79.810415, 39.801859], "type": "Point"}, "id": "DhxpESYO_2f9TSRdQiXZdduRrYg=", "properties": {"@source_uri": "https://tools.usps.com/UspsToolsRestServices/rest/POLocator/findLocations", "@spider": "usps_collection_boxes", "addr:city": "SMITHFIELD", "addr:country": "US", "addr:postcode": "15478", "addr:state": "PA", "addr:street_address": "91 MAIN ST", "amenity": "post_box", "collection_times": "Mo-Fr 17:00; Sa 12:00", "note": "ON 12/24 AND 12/31, THIS BOX MAY BE COLLECTED AS EARLY AS 12 NOON.", "nsi_id": "unitedstatespostalservice-a77078", "operator": "United States Postal Service", "operator:short": "USPS", "operator:type": "public", "operator:wikidata": "Q668687", "ref": "1547800001"}, "type": "Feature"}
{"geometry": {"coordinates": [-79.810415, 39.801859], "type": "Point"}, "id": "bpkW1LROFNh-L4AYvNAEha1e7XU=", "properties": {"@source_uri": "https://tools.usps.com/UspsToolsRestServices/rest/POLocator/findLocations", "@spider": "usps_collection_boxes", "addr:city": "SMITHFIELD", "addr:country": "US", "addr:postcode": "15478", "addr:state": "PA", "addr:street_address": "91 MAIN ST", "amenity": "post_box", "collection_times": "Mo-Fr 16:30; Sa 12:00", "indoor": "yes", "note": "ON 12/24 AND 12/31, THIS BOX MAY BE COLLECTED AS EARLY AS 12 NOON.", "nsi_id": "unitedstatespostalservice-a77078", "operator": "United States Postal Service", "operator:short": "USPS", "operator:type": "public", "operator:wikidata": "Q668687", "ref": "1547800002"}, "type": "Feature"}
{"geometry": {"coordinates": [-79.8053344, 39.804376], "type": "Point"}, "id": "e4-l7Ww1y575dT1Qp-z7ojiDK0Y=", "properties": {"@source_uri": "https://tools.usps.com/UspsToolsRestServices/rest/POLocator/findLocations", "@spider": "usps_collection_boxes", "addr:city": "SMITHFIELD", "addr:country": "US", "addr:postcode": "15478", "addr:state": "PA", "addr:street_address": "25 MAIN ST", "amenity": "post_box", "collection_times": "Mo-Sa 10:30", "nsi_id": "unitedstatespostalservice-a77078", "operator": "United States Postal Service", "operator:short": "USPS", "operator:type": "public", "operator:wikidata": "Q668687", "ref": "1547800003"}, "type": "Feature"}
{"geometry": {"coordinates": [-79.810375571, 39.801821396], "type": "Point"}, "id": "kyJFJN29bSZmxt5MCu6Ud72y7Xk=", "properties": {"@source_uri": "https://tools.usps.com/UspsToolsRestServices/rest/POLocator/findLocations", "@spider": "usps_collection_boxes", "addr:city": "SMITHFIELD", "addr:country": "US", "addr:postcode": "15478", "addr:state": "PA", "addr:street_address": "91 MAIN ST", "amenity": "post_box", "collection_times": "Mo-Fr 16:30; Sa 12:00", "indoor": "yes", "note": "ON 12/24 AND 12/31, THIS BOX MAY BE COLLECTED AS EARLY AS 12 NOON.", "nsi_id": "unitedstatespostalservice-a77078", "operator": "United States Postal Service", "operator:short": "USPS", "operator:type": "public", "operator:wikidata": "Q668687", "ref": "1547800005"}, "type": "Feature"}
{"geometry": {"coordinates": [-79.740768, 40.154391], "type": "Point"}, "id": "jpeJVyPpR7LYdRk98RU5W-o7fm0=", "properties": {"@source_uri": "https://tools.usps.com/UspsToolsRestServices/rest/POLocator/findLocations", "@spider": "usps_collection_boxes", "addr:city": "SMITHTON", "addr:country": "US", "addr:postcode": "15479", "addr:state": "PA", "addr:street_address": "222 2ND ST", "amenity": "post_box", "collection_times": "Mo-Fr 16:15; Sa 11:45", "note": "ON 12/24 AND 12/31, THIS BOX MAY BE COLLECTED AS EARLY AS 12 NOON.", "nsi_id": "unitedstatespostalservice-a77078", "operator": "United States Postal Service", "operator:short": "USPS", "operator:type": "public", "operator:wikidata": "Q668687", "ref": "1547900001"}, "type": "Feature"}
{"geometry": {"coordinates": [-79.7319269, 40.170039], "type": "Point"}, "id": "sMIi9LUS6IA_XHOrmh6hw7fA-3Y=", "properties": {"@source_uri": "https://tools.usps.com/UspsToolsRestServices/rest/POLocator/findLocations", "@spider": "usps_collection_boxes", "addr:city": "SMITHTON", "addr:country": "US", "addr:postcode": "15479", "addr:state": "PA", "addr:street_address": "122 FITZ HENRY RD", "amenity": "post_box", "collection_times": "Mo-Sa 10:00", "nsi_id": "unitedstatespostalservice-a77078", "operator": "United States Postal Service", "operator:short": "USPS", "operator:type": "public", "operator:wikidata": "Q668687", "ref": "1547900002"}, "type": "Feature"}
{"geometry": {"coordinates": [-79.74073, 40.154376], "type": "Point"}, "id": "IMlMrFlXHMPSXPrMAlsJmGYW-p0=", "properties": {"@source_uri": "https://tools.usps.com/UspsToolsRestServices/rest/POLocator/findLocations", "@spider": "usps_collection_boxes", "addr:city": "SMITHTON", "addr:country": "US", "addr:postcode": "15479", "addr:state": "PA", "addr:street_address": "222 2ND ST", "amenity": "post_box", "collection_times": "Mo-Fr 16:15; Sa 11:45", "indoor": "yes", "note": "ON 12/24 AND 12/31, THIS BOX MAY BE COLLECTED AS EARLY AS 12 NOON.", "nsi_id": "unitedstatespostalservice-a77078", "operator": "United States Postal Service", "operator:short": "USPS", "operator:type": "public", "operator:wikidata": "Q668687", "ref": "1547900003"}, "type": "Feature"}
{"geometry": {"coordinates": [-79.740771743, 40.154432828], "type": "Point"}, "id": "oECFusDP4MswFvLiUcKNZDkjHJs=", "properties": {"@source_uri": "https://tools.usps.com/UspsToolsRestServices/rest/POLocator/findLocations", "@spider": "usps_collection_boxes", "addr:city": "SMITHTON", "addr:country": "US", "addr:postcode": "15479", "addr:state": "PA", "addr:street_address": "222 2ND ST", "amenity": "post_box", "collection_times": "Mo-Fr 16:00; Sa 11:30", "indoor": "yes", "note": "ON 12/24 AND 12/31, THIS BOX MAY BE COLLECTED AS EARLY AS 12 NOON.", "nsi_id": "unitedstatespostalservice-a77078", "operator": "United States Postal Service", "operator:short": "USPS", "operator:type": "public", "operator:wikidata": "Q668687", "ref": "1547900006"}, "type": "Feature"}
{"geometry": {"coordinates": [-79.785983, 39.99797], "type": "Point"}, "id": "1dk5p1n79AkiQl2_NxG1JGP_jcw=", "properties": {"@source_uri": "https://tools.usps.com/UspsToolsRestServices/rest/POLocator/findLocations", "@spider": "usps_collection_boxes", "addr:city": "SMOCK", "addr:country": "US", "addr:postcode": "15480", "addr:state": "PA", "addr:street_address": "105 MAIN ST", "amenity": "post_box", "collection_times": "Mo-Fr 15:00; Sa 11:45", "note": "ON 12/24 AND 12/31, THIS BOX MAY BE COLLECTED AS EARLY AS 12 NOON.", "nsi_id": "unitedstatespostalservice-a77078", "operator": "United States Postal Service", "operator:short": "USPS", "operator:type": "public", "operator:wikidata": "Q668687", "ref": "1548000001"}, "type": "Feature"}
{"geometry": {"coordinates": [-79.78595, 39.998002], "type": "Point"}, "id": "MRNckOfBu4TkU4eFxaSjV-zrGRI=", "properties": {"@source_uri": "https://tools.usps.com/UspsToolsRestServices/rest/POLocator/findLocations", "@spider": "usps_collection_boxes", "addr:city": "SMOCK", "addr:country": "US", "addr:postcode": "15480", "addr:state": "PA", "addr:street_address": "105 MAIN ST", "amenity": "post_box", "collection_times": "Mo-Fr 15:00; Sa 11:45", "indoor": "yes", "note": "ON 12/24 AND 12/31, THIS BOX MAY BE COLLECTED AS EARLY AS 12 NOON.", "nsi_id": "unitedstatespostalservice-a77078", "operator": "United States Postal Service", "operator:short": "USPS", "operator:type": "public", "operator:wikidata": "Q668687", "ref": "1548000002"}, "type": "Feature"}
{"geometry": {"coordinates": [-79.786006157, 39.997967767], "type": "Point"}, "id": "E7kTts2xS2TTBoALHI-7aP_TsQw=", "properties": {"@source_uri": "https://tools.usps.com/UspsToolsRestServices/rest/POLocator/findLocations", "@spider": "usps_collection_boxes", "addr:city": "SMOCK", "addr:country": "US", "addr:postcode": "15480", "addr:state": "PA", "addr:street_address": "105 MAIN ST", "amenity": "post_box", "collection_times": "Mo-Fr 15:00; Sa 11:00", "indoor": "yes", "note": "ON 12/24 AND 12/31, THIS BOX MAY BE COLLECTED AS EARLY AS 12 NOON.", "nsi_id": "unitedstatespostalservice-a77078", "operator": "United States Postal Service", "operator:short": "USPS", "operator:type": "public", "operator:wikidata": "Q668687", "ref": "1548000004"}, "type": "Feature"}
{"geometry": {"coordinates": [-79.76561, 40.063473], "type": "Point"}, "id": "8EtU-8F_mYuX1kyS8kBSck1OXjI=", "properties": {"@source_uri": "https://tools.usps.com/UspsToolsRestServices/rest/POLocator/findLocations", "@spider": "usps_collection_boxes", "addr:city": "STAR JUNCTION", "addr:country": "US", "addr:postcode": "15482", "addr:state": "PA", "addr:street_address": "115 TONY ROW RD", "amenity": "post_box", "collection_times": "Mo-Fr 16:45; Sa 11:45", "note": "ON 12/24 AND 12/31, THIS BOX MAY BE COLLECTED AS EARLY AS 12 NOON.", "nsi_id": "unitedstatespostalservice-a77078", "operator": "United States Postal Service", "operator:short": "USPS", "operator:type": "public", "operator:wikidata": "Q668687", "ref": "1548200001"}, "type": "Feature"}
{"geometry": {"coordinates": [-79.76561, 40.063473], "type": "Point"}, "id": "yRot-GMgptRDS7AEuqM4WajoZSQ=", "properties": {"@source_uri": "https://tools.usps.com/UspsToolsRestServices/rest/POLocator/findLocations", "@spider": "usps_collection_boxes", "addr:city": "STAR JUNCTION", "addr:country": "US", "addr:postcode": "15482", "addr:state": "PA", "addr:street_address": "115 TONY ROW RD", "amenity": "post_box", "collection_times": "Mo-Fr 16:45; Sa 11:45", "indoor": "yes", "note": "ON 12/24 AND 12/31, THIS BOX MAY BE COLLECTED AS EARLY AS 12 NOON.", "nsi_id": "unitedstatespostalservice-a77078", "operator": "United States Postal Service", "operator:short": "USPS", "operator:type": "public", "operator:wikidata": "Q668687", "ref": "1548200002"}, "type": "Feature"}
{"geometry": {"coordinates": [-79.765189251, 40.063426268], "type": "Point"}, "id": "ra3LSsk5RsXdfzTpQUeKkZyc0Pk=", "properties": {"@source_uri": "https://tools.usps.com/UspsToolsRestServices/rest/POLocator/findLocations", "@spider": "usps_collection_boxes", "addr:city": "STAR JUNCTION", "addr:country": "US", "addr:postcode": "15482", "addr:state": "PA", "addr:street_address": "115 TONY ROW RD", "amenity": "post_box", "collection_times": "Mo-Fr 16:45; Sa 11:45", "indoor": "yes", "note": "ON 12/24 AND 12/31, THIS BOX MAY BE COLLECTED AS EARLY AS 12 NOON.", "nsi_id": "unitedstatespostalservice-a77078", "operator": "United States Postal Service", "operator:short": "USPS", "operator:type": "public", "operator:wikidata": "Q668687", "ref": "1548200004"}, "type": "Feature"}
{"geometry": {"coordinates": [-79.854298, 40.080913], "type": "Point"}, "id": "_uDo9RUDJWGwJUVj4uw6-MQHCHU=", "properties": {"@source_uri": "https://tools.usps.com/UspsToolsRestServices/rest/POLocator/findLocations", "@spider": "usps_collection_boxes", "addr:city": "STOCKDALE", "addr:country": "US", "addr:postcode": "15483", "addr:state": "PA", "addr:street_address": "398 RAILROAD ST", "amenity": "post_box", "collection_times": "Mo-Fr 11:55; Sa 11:45", "nsi_id": "unitedstatespostalservice-a77078", "operator": "United States Postal Service", "operator:short": "USPS", "operator:type": "public", "operator:wikidata": "Q668687", "ref": "1548300001"}, "type": "Feature"}
{"geometry": {"coordinates": [-79.854298, 40.080913], "type": "Point"}, "id": "B5vYZWaKWFuJjOcDmrw2EIu_gac=", "properties": {"@source_uri": "https://tools.usps.com/UspsToolsRestServices/rest/POLocator/findLocations", "@spider": "usps_collection_boxes", "addr:city": "STOCKDALE", "addr:country": "US", "addr:postcode": "15483", "addr:state": "PA", "addr:street_address": "398 RAILROAD ST", "amenity": "post_box", "collection_times": "Mo-Fr 11:55; Sa 11:45", "indoor": "yes", "nsi_id": "unitedstatespostalservice-a77078", "operator": "United States Postal Service", "operator:short": "USPS", "operator:type": "public", "operator:wikidata": "Q668687", "ref": "1548300002"}, "type": "Feature"}
{"geometry": {"coordinates": [-79.848238078, 40.083361713], "type": "Point"}, "id": "c327OVbunhiC70DEg8EgwMrL2Nk=", "properties": {"@source_uri": "https://tools.usps.com/UspsToolsRestServices/rest/POLocator/findLocations", "@spider": "usps_collection_boxes", "addr:city": "STOCKDALE", "addr:country": "US", "addr:postcode": "15483", "addr:state": "PA", "addr:street_address": "398 RAILROAD ST", "amenity": "post_box", "collection_times": "Mo-Fr 11:55; Sa 11:40", "indoor": "yes", "nsi_id": "unitedstatespostalservice-a77078", "operator": "United States Postal Service", "operator:short": "USPS", "operator:type": "public", "operator:wikidata": "Q668687", "ref": "1548300004"}, "type": "Feature"}
{"geometry": {"coordinates": [-79.789224, 39.896119], "type": "Point"}, "id": "bDsk5jnh1ouahvb77jzOi9Iawrc=", "properties": {"@source_uri": "https://tools.usps.com/UspsToolsRestServices/rest/POLocator/findLocations", "@spider": "usps_collection_boxes", "addr:city": "ULEDI", "addr:country": "US", "addr:postcode": "15484", "addr:state": "PA", "addr:street_address": "100 RAINEY RD", "amenity": "post_box", "collection_times": "Mo-Fr 11:55; Sa 11:45", "nsi_id": "unitedstatespostalservice-a77078", "operator": "United States Postal Service", "operator:short": "USPS", "operator:type": "public", "operator:wikidata": "Q668687", "ref": "1548400001"}, "type": "Feature"}
{"geometry": {"coordinates": [-79.789224, 39.896119], "type": "Point"}, "id": "RuTKlsMmrgLNjR_YyGOiudcYpI4=", "properties": {"@source_uri": "https://tools.usps.com/UspsToolsRestServices/rest/POLocator/findLocations", "@spider": "usps_collection_boxes", "addr:city": "ULEDI", "addr:country": "US", "addr:postcode": "15484", "addr:state": "PA", "addr:street_address": "100 RAINEY RD", "amenity": "post_box", "collection_times": "Mo-Fr 11:55; Sa 11:45", "indoor": "yes", "nsi_id": "unitedstatespostalservice-a77078", "operator": "United States Postal Service", "operator:short": "USPS", "operator:type": "public", "operator:wikidata": "Q668687", "ref": "1548400002"}, "type": "Feature"}
{"geometry": {"coordinates": [-79.788967757, 39.895622627], "type": "Point"}, "id": "MjP1_RHmoyO_TJwgZyng2AzzPUc=", "properties": {"@source_uri": "https://tools.usps.com/UspsToolsRestServices/rest/POLocator/findLocations", "@spider": "usps_collection_boxes", "addr:city": "ULEDI", "addr:country": "US", "addr:postcode": "15484", "addr:state": "PA", "addr:street_address": "100 RAINEY RD", "amenity": "post_box", "collection_times": "Mo-Sa 11:55", "indoor": "yes", "nsi_id": "unitedstatespostalservice-a77078", "operator": "United States Postal Service", "operator:short": "USPS", "operator:type": "public", "operator:wikidata": "Q668687", "ref": "1548400004"}, "type": "Feature"}
{"geometry": {"coordinates": [-79.764322, 39.981742], "type": "Point"}, "id": "vHaFqJEQL9aDRGVkFcOg4O_8CY8=", "properties": {"@source_uri": "https://tools.usps.com/UspsToolsRestServices/rest/POLocator/findLocations", "@spider": "usps_collection_boxes", "addr:city": "WALTERSBURG", "addr:country": "US", "addr:postcode": "15488", "addr:state": "PA", "addr:street_address": "1829 PITTSBURGH RD", "amenity": "post_box", "collection_times": "Mo-Sa 12:00", "nsi_id": "unitedstatespostalservice-a77078", "operator": "United States Postal Service", "operator:short": "USPS", "operator:type": "public", "operator:wikidata": "Q668687", "ref": "1548800001"}, "type": "Feature"}
{"geometry": {"coordinates": [-79.764271, 39.981681], "type": "Point"}, "id": "xaPvwnY-THbR8hcqfVv7ZmmHwjA=", "properties": {"@source_uri": "https://tools.usps.com/UspsToolsRestServices/rest/POLocator/findLocations", "@spider": "usps_collection_boxes", "addr:city": "WALTERSBURG", "addr:country": "US", "addr:postcode": "15488", "addr:state": "PA", "addr:street_address": "1829 PITTSBURGH RD", "amenity": "post_box", "collection_times": "Mo-Sa 12:00", "indoor": "yes", "nsi_id": "unitedstatespostalservice-a77078", "operator": "United States Postal Service", "operator:short": "USPS", "operator:type": "public", "operator:wikidata": "Q668687", "ref": "1548800002"}, "type": "Feature"}
{"geometry": {"coordinates": [-79.763863216, 39.980296666], "type": "Point"}, "id": "07UJI-cvbPFq0vcCrpPDWEwHh2M=", "properties": {"@source_uri": "https://tools.usps.com/UspsToolsRestServices/rest/POLocator/findLocations", "@spider": "usps_collection_boxes", "addr:city": "WALTERSBURG", "addr:country": "US", "addr:postcode": "15488", "addr:state": "PA", "addr:street_address": "1829 PITTSBURGH RD", "amenity": "post_box", "collection_times": "Mo-Sa 11:55", "indoor": "yes", "nsi_id": "unitedstatespostalservice-a77078", "operator": "United States Postal Service", "operator:short": "USPS", "operator:type": "public", "operator:wikidata": "Q668687", "ref": "1548800004"}, "type": "Feature"}
{"geometry": {"coordinates": [-79.69891, 39.959138], "type": "Point"}, "id": "7nXFEmg66_-KgwbLaKs8-5hJaII=", "properties": {"@source_uri": "https://tools.usps.com/UspsToolsRestServices/rest/POLocator/findLocations", "@spider": "usps_collection_boxes", "addr:city": "WEST LEISENRING", "addr:country": "US", "addr:postcode": "15489", "addr:state": "PA", "addr:street_address": "114 POSTAL WAY", "amenity": "post_box", "collection_times": "Mo-Fr 11:55; Sa 11:45", "nsi_id": "unitedstatespostalservice-a77078", "operator": "United States Postal Service", "operator:short": "USPS", "operator:type": "public", "operator:wikidata": "Q668687", "ref": "1548900001"}, "type": "Feature"}
{"geometry": {"coordinates": [-79.69891, 39.959138], "type": "Point"}, "id": "boyxC0mUgZ7ZYshFUA62qJH4EOQ=", "properties": {"@source_uri": "https://tools.usps.com/UspsToolsRestServices/rest/POLocator/findLocations", "@spider": "usps_collection_boxes", "addr:city": "WEST LEISENRING", "addr:country": "US", "addr:postcode": "15489", "addr:state": "PA", "addr:street_address": "114 POSTAL WAY", "amenity": "post_box", "collection_times": "Mo-Fr 11:55; Sa 11:45", "indoor": "yes", "nsi_id": "unitedstatespostalservice-a77078", "operator": "United States Postal Service", "operator:short": "USPS", "operator:type": "public", "operator:wikidata": "Q668687", "ref": "1548900002"}, "type": "Feature"}
{"geometry": {"coordinates": [-79.69891, 39.959138], "type": "Point"}, "id": "ogzMzs1yl3tRBhBdoYEN-WjraBM=", "properties": {"@source_uri": "https://tools.usps.com/UspsToolsRestServices/rest/POLocator/findLocations", "@spider": "usps_collection_boxes", "addr:city": "WEST LEISENRING", "addr:country": "US", "addr:postcode": "15489", "addr:state": "PA", "addr:street_address": "114 POSTAL WAY", "amenity": "post_box", "collection_times": "Mo-Fr 11:55; Sa 11:45", "indoor": "yes", "nsi_id": "unitedstatespostalservice-a77078", "operator": "United States Postal Service", "operator:short": "USPS", "operator:type": "public", "operator:wikidata": "Q668687", "ref": "1548900003"}, "type": "Feature"}
{"geometry": {"coordinates": [-79.66556, 40.0347], "type": "Point"}, "id": "__VKpkhr7O15R3pRjkRep4oVV9E=", "properties": {"@source_uri": "https://tools.usps.com/UspsToolsRestServices/rest/POLocator/findLocations", "@spider": "usps_collection_boxes", "addr:city": "WEST LEISENRING", "addr:country": "US", "addr:postcode": "15489", "addr:state": "PA", "addr:street_address": "114 POSTAL WAY", "amenity": "post_box", "collection_times": "Mo-Fr 11:55; Sa 11:25", "indoor": "yes", "nsi_id": "unitedstatespostalservice-a77078", "operator": "United States Postal Service", "operator:short": "USPS", "operator:type": "public", "operator:wikidata": "Q668687", "ref": "1548900005"}, "type": "Feature"}
{"geometry": {"coordinates": [-79.435211, 40.07034], "type": "Point"}, "id": "Jel4GJ3xAOhdEm9n9VPCB3oCS6U=", "properties": {"@source_uri": "https://tools.usps.com/UspsToolsRestServices/rest/POLocator/findLocations", "@spider": "usps_collection_boxes", "addr:city": "WHITE", "addr:country": "US", "addr:postcode": "15490", "addr:state": "PA", "addr:street_address": "881 BUCHANAN RD", "amenity": "post_box", "collection_times": "Mo-Fr 12:05; Sa 11:45", "note": "ON 12/24 AND 12/31, THIS BOX MAY BE COLLECTED AS EARLY AS 12 NOON.", "nsi_id": "unitedstatespostalservice-a77078", "operator": "United States Postal Service", "operator:short": "USPS", "operator:type": "public", "operator:wikidata": "Q668687", "ref": "1549000001"}, "type": "Feature"}
{"geometry": {"coordinates": [-79.435968748, 40.070194787], "type": "Point"}, "id": "P-z18U0LehGtCFQpQRAmjAOyDcE=", "properties": {"@source_uri": "https://tools.usps.com/UspsToolsRestServices/rest/POLocator/findLocations", "@spider": "usps_collection_boxes", "addr:city": "WHITE", "addr:country": "US", "addr:postcode": "15490", "addr:state": "PA", "addr:street_address": "881 BUCHANAN RD", "amenity": "post_box", "collection_times": "Mo-Fr 11:55; Sa 11:25", "indoor": "yes", "nsi_id": "unitedstatespostalservice-a77078", "operator": "United States Postal Service", "operator:short": "USPS", "operator:type": "public", "operator:wikidata": "Q668687", "ref": "1549000003"}, "type": "Feature"}
