{"geometry": {"coordinates": [-79.078624, 40.009444], "type": "Point"}, "id": "GD2kTg0_WQiuf5mRAAO0KD44Tfo=", "properties": {"@source_uri": "https://tools.usps.com/UspsToolsRestServices/rest/POLocator/findLocations", "@spider": "usps_collection_boxes", "addr:city": "SOMERSET", "addr:country": "US", "addr:postcode": "15501", "addr:state": "PA", "addr:street_address": "201 N CENTER AVE", "amenity": "post_box", "collection_times": "Mo-Sa 17:30", "note": "ON 12/24 AND 12/31, THIS BOX MAY BE COLLECTED AS EARLY AS 12 NOON.", "nsi_id": "unitedstatespostalservice-a77078", "operator": "United States Postal Service", "operator:short": "USPS", "operator:type": "public", "operator:wikidata": "Q668687", "ref": "1550100002"}, "type": "Feature"}
{"geometry": {"coordinates": [-79.0842066, 40.009458], "type": "Point"}, "id": "v208iu8wtio7xlXBR99Js_FfiLg=", "properties": {"@source_uri": "https://tools.usps.com/UspsToolsRestServices/rest/POLocator/findLocations", "@spider": "usps_collection_boxes", "addr:city": "SOMERSET", "addr:country": "US", "addr:postcode": "15501", "addr:state": "PA", "addr:street_address": "340 W UNION ST", "amenity": "post_box", "collection_times": "Mo-Sa 09:15", "nsi_id": "unitedstatespostalservice-a77078", "operator": "United States Postal Service", "operator:short": "USPS", "operator:type": "public", "operator:wikidata": "Q668687", "ref": "1550100005"}, "type": "Feature"}
{"geometry": {"coordinates": [-79.0707838, 40.006947], "type": "Point"}, "id": "i3xniverKLn_8o3NZSlwohf9VZA=", "properties": {"@source_uri": "https://tools.usps.com/UspsToolsRestServices/rest/POLocator/findLocations", "@spider": "usps_collection_boxes", "addr:city": "SOMERSET", "addr:country": "US", "addr:postcode": "15501", "addr:state": "PA", "addr:street_address": "450 E MAIN ST", "amenity": "post_box", "collection_times": "Mo-Sa 09:30", "nsi_id": "unitedstatespostalservice-a77078", "operator": "United States Postal Service", "operator:short": "USPS", "operator:type": "public", "operator:wikidata": "Q668687", "ref": "1550100009"}, "type": "Feature"}
{"geometry": {"coordinates": [-79.0741515, 40.0064], "type": "Point"}, "id": "vyKIrULujAc9EYn5YmaBMX8sG5g=", "properties": {"@source_uri": "https://tools.usps.com/UspsToolsRestServices/rest/POLocator/findLocations", "@spider": "usps_collection_boxes", "addr:city": "SOMERSET", "addr:country": "US", "addr:postcode": "15501", "addr:state": "PA", "addr:street_address": "223 S PLEASANT AVE", "amenity": "post_box", "collection_times": "Mo-Sa 08:45", "nsi_id": "unitedstatespostalservice-a77078", "operator": "United States Postal Service", "operator:short": "USPS", "operator:type": "public", "operator:wikidata": "Q668687", "ref": "1550100015"}, "type": "Feature"}
{"geometry": {"coordinates": [-79.0784795, 40.00281], "type": "Point"}, "id": "b7Nu2Xl_O-pKApW5PTO779i51Ws=", "properties": {"@source_uri": "https://tools.usps.com/UspsToolsRestServices/rest/POLocator/findLocations", "@spider": "usps_collection_boxes", "addr:city": "SOMERSET", "addr:country": "US", "addr:postcode": "15501", "addr:state": "PA", "addr:street_address": "651 S CENTER AVE", "amenity": "post_box", "collection_times": "Mo-Sa 14:30", "note": "ON 12/24 AND 12/31, THIS BOX MAY BE COLLECTED AS EARLY AS 12 NOON.", "nsi_id": "unitedstatespostalservice-a77078", "operator": "United States Postal Service", "operator:short": "USPS", "operator:type": "public", "operator:wikidata": "Q668687", "ref": "1550100016"}, "type": "Feature"}
{"geometry": {"coordinates": [-79.08074, 40.008915], "type": "Point"}, "id": "OQT1FNCHZbrWYxI3oQ9iD9tfC5s=", "properties": {"@source_uri": "https://tools.usps.com/UspsToolsRestServices/rest/POLocator/findLocations", "@spider": "usps_collection_boxes", "addr:city": "SOMERSET", "addr:country": "US", "addr:postcode": "15501", "addr:state": "PA", "addr:street_address": "133 W MAIN ST", "amenity": "post_box", "collection_times": "Mo-Sa 10:00", "nsi_id": "unitedstatespostalservice-a77078", "operator": "United States Postal Service", "operator:short": "USPS", "operator:type": "public", "operator:wikidata": "Q668687", "ref": "1550100021"}, "type": "Feature"}
{"geometry": {"coordinates": [-79.0628799, 40.002833], "type": "Point"}, "id": "svVk-Su9pyw3eWQQqElPs5Pcck8=", "properties": {"@source_uri": "https://tools.usps.com/UspsToolsRestServices/rest/POLocator/findLocations", "@spider": "usps_collection_boxes", "addr:city": "SOMERSET", "addr:country": "US", "addr:postcode": "15501", "addr:state": "PA", "addr:street_address": "327 PLANK RD", "amenity": "post_box", "collection_times": "Mo-Sa 14:15", "note": "ON 12/24 AND 12/31, THIS BOX MAY BE COLLECTED AS EARLY AS 12 NOON.", "nsi_id": "unitedstatespostalservice-a77078", "operator": "United States Postal Service", "operator:short": "USPS", "operator:type": "public", "operator:wikidata": "Q668687", "ref": "1550100033"}, "type": "Feature"}
{"geometry": {"coordinates": [-79.0765977, 40.009273], "type": "Point"}, "id": "gw_EZcD50_XliJqkaHMKyaatqyw=", "properties": {"@source_uri": "https://tools.usps.com/UspsToolsRestServices/rest/POLocator/findLocations", "@spider": "usps_collection_boxes", "addr:city": "SOMERSET", "addr:country": "US", "addr:postcode": "15501", "addr:state": "PA", "addr:street_address": "166 E UNION ST", "amenity": "post_box", "collection_times": "Mo-Fr 09:00; Sa 09:30", "nsi_id": "unitedstatespostalservice-a77078", "operator": "United States Postal Service", "operator:short": "USPS", "operator:type": "public", "operator:wikidata": "Q668687", "ref": "1550100035"}, "type": "Feature"}
{"geometry": {"coordinates": [-79.0786891, 40.01256], "type": "Point"}, "id": "iTVlHtHqOSgwbdF9DgLE3AmYV2k=", "properties": {"@source_uri": "https://tools.usps.com/UspsToolsRestServices/rest/POLocator/findLocations", "@spider": "usps_collection_boxes", "addr:city": "SOMERSET", "addr:country": "US", "addr:postcode": "15501", "addr:state": "PA", "addr:street_address": "101 HOUSTON ST", "amenity": "post_box", "collection_times": "Mo-Sa 10:30", "nsi_id": "unitedstatespostalservice-a77078", "operator": "United States Postal Service", "operator:short": "USPS", "operator:type": "public", "operator:wikidata": "Q668687", "ref": "1550100036"}, "type": "Feature"}
{"geometry": {"coordinates": [-79.08074, 40.008915], "type": "Point"}, "id": "jbN6_Q32uM35-0_k3gLIk-Q5YHI=", "properties": {"@source_uri": "https://tools.usps.com/UspsToolsRestServices/rest/POLocator/findLocations", "@spider": "usps_collection_boxes", "addr:city": "SOMERSET", "addr:country": "US", "addr:postcode": "15501", "addr:state": "PA", "addr:street_address": "225 S CENTER AVE", "amenity": "post_box", "collection_times": "Mo-Sa 15:15", "note": "ON 12/24 AND 12/31, THIS BOX MAY BE COLLECTED AS EARLY AS 12 NOON.", "nsi_id": "unitedstatespostalservice-a77078", "operator": "United States Postal Service", "operator:short": "USPS", "operator:type": "public", "operator:wikidata": "Q668687", "ref": "1550100049"}, "type": "Feature"}
{"geometry": {"coordinates": [-79.07859, 40.009354], "type": "Point"}, "id": "LigoNogAkOPA-PNQPbG5r8BPOoM=", "properties": {"@source_uri": "https://tools.usps.com/UspsToolsRestServices/rest/POLocator/findLocations", "@spider": "usps_collection_boxes", "addr:city": "SOMERSET", "addr:country": "US", "addr:postcode": "15501", "addr:state": "PA", "addr:street_address": "201 N CENTER AVE", "amenity": "post_box", "collection_times": "Mo-Sa 17:45", "indoor": "yes", "note": "ON 12/24 AND 12/31, THIS BOX MAY BE COLLECTED AS EARLY AS 12 NOON.", "nsi_id": "unitedstatespostalservice-a77078", "operator": "United States Postal Service", "operator:short": "USPS", "operator:type": "public", "operator:wikidata": "Q668687", "ref": "1550100050"}, "type": "Feature"}
{"geometry": {"coordinates": [-79.07862635, 40.009554335], "type": "Point"}, "id": "DpikZjVPs0uaPMK8QVfmIxNle_4=", "properties": {"@source_uri": "https://tools.usps.com/UspsToolsRestServices/rest/POLocator/findLocations", "@spider": "usps_collection_boxes", "addr:city": "SOMERSET", "addr:country": "US", "addr:postcode": "15501", "addr:state": "PA", "addr:street_address": "201 N CENTER AVE", "amenity": "post_box", "collection_times": "Mo-Fr 17:00; Sa 12:00", "indoor": "yes", "note": "ON 12/24 AND 12/31, THIS BOX MAY BE COLLECTED AS EARLY AS 12 NOON.", "nsi_id": "unitedstatespostalservice-a77078", "operator": "United States Postal Service", "operator:short": "USPS", "operator:type": "public", "operator:wikidata": "Q668687", "ref": "1550100057"}, "type": "Feature"}
{"geometry": {"coordinates": [-79.069961, 40.108594], "type": "Point"}, "id": "AnSqw2bXym236W4DcRtzrVIS4YU=", "properties": {"@source_uri": "https://tools.usps.com/UspsToolsRestServices/rest/POLocator/findLocations", "@spider": "usps_collection_boxes", "addr:city": "ACOSTA", "addr:country": "US", "addr:postcode": "15520", "addr:state": "PA", "addr:street_address": "121 5TH ST", "amenity": "post_box", "collection_times": "Mo-Fr 16:15; Sa 10:45", "note": "ON 12/24 AND 12/31, THIS BOX MAY BE COLLECTED AS EARLY AS 12 NOON.", "nsi_id": "unitedstatespostalservice-a77078", "operator": "United States Postal Service", "operator:short": "USPS", "operator:type": "public", "operator:wikidata": "Q668687", "ref": "1552000000"}, "type": "Feature"}
{"geometry": {"coordinates": [-79.070027, 40.108626], "type": "Point"}, "id": "Z137dHP6qAxOZ5Pq6RplGGWpowY=", "properties": {"@source_uri": "https://tools.usps.com/UspsToolsRestServices/rest/POLocator/findLocations", "@spider": "usps_collection_boxes", "addr:city": "ACOSTA", "addr:country": "US", "addr:postcode": "15520", "addr:state": "PA", "addr:street_address": "121 5TH ST", "amenity": "post_box", "collection_times": "Mo-Fr 16:15; Sa 10:45", "indoor": "yes", "note": "ON 12/24 AND 12/31, THIS BOX MAY BE COLLECTED AS EARLY AS 12 NOON.", "nsi_id": "unitedstatespostalservice-a77078", "operator": "United States Postal Service", "operator:short": "USPS", "operator:type": "public", "operator:wikidata": "Q668687", "ref": "1552000001"}, "type": "Feature"}
{"geometry": {"coordinates": [-79.069742895, 40.108569518], "type": "Point"}, "id": "s8Cqw-FG8eem2tD6VkAwQmPTA-Q=", "properties": {"@source_uri": "https://tools.usps.com/UspsToolsRestServices/rest/POLocator/findLocations", "@spider": "usps_collection_boxes", "addr:city": "ACOSTA", "addr:country": "US", "addr:postcode": "15520", "addr:state": "PA", "addr:street_address": "121 5TH ST", "amenity": "post_box", "collection_times": "Mo-Fr 16:20; Sa 10:40", "indoor": "yes", "note": "ON 12/24 AND 12/31, THIS BOX MAY BE COLLECTED AS EARLY AS 12 NOON.", "nsi_id": "unitedstatespostalservice-a77078", "operator": "United States Postal Service", "operator:short": "USPS", "operator:type": "public", "operator:wikidata": "Q668687", "ref": "1552000003"}, "type": "Feature"}
{"geometry": {"coordinates": [-78.607311, 40.175857], "type": "Point"}, "id": "B1sRsfmPS_5V4A6atRQVGFalSuo=", "properties": {"@source_uri": "https://tools.usps.com/UspsToolsRestServices/rest/POLocator/findLocations", "@spider": "usps_collection_boxes", "addr:city": "ALUM BANK", "addr:country": "US", "addr:postcode": "15521", "addr:state": "PA", "addr:street_address": "113 FOLLMAR LN", "amenity": "post_box", "collection_times": "Mo-Fr 15:00; Sa 11:45", "note": "ON 12/24 AND 12/31, THIS BOX MAY BE COLLECTED AS EARLY AS 12 NOON.", "nsi_id": "unitedstatespostalservice-a77078", "operator": "United States Postal Service", "operator:short": "USPS", "operator:type": "public", "operator:wikidata": "Q668687", "ref": "1552100000"}, "type": "Feature"}
{"geometry": {"coordinates": [-78.607365, 40.175838], "type": "Point"}, "id": "uLMQG6KQmtqoAnmItwHgg5xa8x4=", "properties": {"@source_uri": "https://tools.usps.com/UspsToolsRestServices/rest/POLocator/findLocations", "@spider": "usps_collection_boxes", "addr:city": "ALUM BANK", "addr:country": "US", "addr:postcode": "15521", "addr:state": "PA", "addr:street_address": "113 FOLLMAR LN", "amenity": "post_box", "collection_times": "Mo-Fr 15:00; Sa 11:45", "indoor": "yes", "note": "ON 12/24 AND 12/31, THIS BOX MAY BE COLLECTED AS EARLY AS 12 NOON.", "nsi_id": "unitedstatespostalservice-a77078", "operator": "United States Postal Service", "operator:short": "USPS", "operator:type": "public", "operator:wikidata": "Q668687", "ref": "1552100001"}, "type": "Feature"}
{"geometry": {"coordinates": [-78.607099815, 40.17626214], "type": "Point"}, "id": "OJlhAakuBd2azc1a_3pPETIUOng=", "properties": {"@source_uri": "https://tools.usps.com/UspsToolsRestServices/rest/POLocator/findLocations", "@spider": "usps_collection_boxes", "addr:city": "ALUM BANK", "addr:country": "US", "addr:postcode": "15521", "addr:state": "PA", "addr:street_address": "113 FOLLMAR LN", "amenity": "post_box", "collection_times": "Mo-Fr 15:00; Sa 11:45", "indoor": "yes", "note": "ON 12/24 AND 12/31, THIS BOX MAY BE COLLECTED AS EARLY AS 12 NOON.", "nsi_id": "unitedstatespostalservice-a77078", "operator": "United States Postal Service", "operator:short": "USPS", "operator:type": "public", "operator:wikidata": "Q668687", "ref": "1552100003"}, "type": "Feature"}
{"geometry": {"coordinates": [-78.5022144, 40.02211], "type": "Point"}, "id": "LAKDmZ48Ek7dC-gi0fCxyjDqME0=", "properties": {"@source_uri": "https://tools.usps.com/UspsToolsRestServices/rest/POLocator/findLocations", "@spider": "usps_collection_boxes", "addr:city": "BEDFORD", "addr:country": "US", "addr:postcode": "15522", "addr:state": "PA", "addr:street_address": "201 N RICHARD ST", "amenity": "post_box", "collection_times": "Mo-Sa 10:45", "nsi_id": "unitedstatespostalservice-a77078", "operator": "United States Postal Service", "operator:short": "USPS", "operator:type": "public", "operator:wikidata": "Q668687", "ref": "1552200005"}, "type": "Feature"}
{"geometry": {"coordinates": [-78.5056131, 40.017434], "type": "Point"}, "id": "5RWBzcCcFGiU_g-ZEac4lNsX0DM=", "properties": {"@source_uri": "https://tools.usps.com/UspsToolsRestServices/rest/POLocator/findLocations", "@spider": "usps_collection_boxes", "addr:city": "BEDFORD", "addr:country": "US", "addr:postcode": "15522", "addr:state": "PA", "addr:street_address": "130 W PENN ST", "amenity": "post_box", "collection_times": "Mo-Sa 15:00", "note": "ON 12/24 AND 12/31, THIS BOX MAY BE COLLECTED AS EARLY AS 12 NOON.", "nsi_id": "unitedstatespostalservice-a77078", "operator": "United States Postal Service", "operator:short": "USPS", "operator:type": "public", "operator:wikidata": "Q668687", "ref": "1552200007"}, "type": "Feature"}
{"geometry": {"coordinates": [-78.5037263, 40.018922], "type": "Point"}, "id": "eDBNW1SxXeVmGwswebimiLME64E=", "properties": {"@source_uri": "https://tools.usps.com/UspsToolsRestServices/rest/POLocator/findLocations", "@spider": "usps_collection_boxes", "addr:city": "BEDFORD", "addr:country": "US", "addr:postcode": "15522", "addr:state": "PA", "addr:street_address": "100 S JULIANA ST", "amenity": "post_box", "collection_times": "Mo-Sa 09:30", "nsi_id": "unitedstatespostalservice-a77078", "operator": "United States Postal Service", "operator:short": "USPS", "operator:type": "public", "operator:wikidata": "Q668687", "ref": "1552200010"}, "type": "Feature"}
{"geometry": {"coordinates": [-78.5025996078, 40.0174574996], "type": "Point"}, "id": "N8O7jeIimkHBPzpbhs_kqodWYR4=", "properties": {"@source_uri": "https://tools.usps.com/UspsToolsRestServices/rest/POLocator/findLocations", "@spider": "usps_collection_boxes", "addr:city": "BEDFORD", "addr:country": "US", "addr:postcode": "15522", "addr:state": "PA", "addr:street_address": "112 E PENN ST", "amenity": "post_box", "collection_times": "Mo-Fr 17:00; Sa 15:30", "note": "ON 12/24 AND 12/31, THIS BOX MAY BE COLLECTED AS EARLY AS 12 NOON.", "nsi_id": "unitedstatespostalservice-a77078", "operator": "United States Postal Service", "operator:short": "USPS", "operator:type": "public", "operator:wikidata": "Q668687", "ref": "1552200011"}, "type": "Feature"}
{"geometry": {"coordinates": [-78.5025996078, 40.0174574996], "type": "Point"}, "id": "AHXgUFFOQzx9pv91JITapTRaFnA=", "properties": {"@source_uri": "https://tools.usps.com/UspsToolsRestServices/rest/POLocator/findLocations", "@spider": "usps_collection_boxes", "addr:city": "BEDFORD", "addr:country": "US", "addr:postcode": "15522", "addr:state": "PA", "addr:street_address": "112 E PENN ST", "amenity": "post_box", "collection_times": "Mo-Fr 17:00; Sa 15:30", "note": "ON 12/24 AND 12/31, THIS BOX MAY BE COLLECTED AS EARLY AS 12 NOON.", "nsi_id": "unitedstatespostalservice-a77078", "operator": "United States Postal Service", "operator:short": "USPS", "operator:type": "public", "operator:wikidata": "Q668687", "ref": "1552200013"}, "type": "Feature"}
{"geometry": {"coordinates": [-78.503644, 40.017344], "type": "Point"}, "id": "6DgG7n4ahPMZc_1ZVUJqK2077M0=", "properties": {"@source_uri": "https://tools.usps.com/UspsToolsRestServices/rest/POLocator/findLocations", "@spider": "usps_collection_boxes", "addr:city": "BEDFORD", "addr:country": "US", "addr:postcode": "15522", "addr:state": "PA", "addr:street_address": "201 S JULIANA ST", "amenity": "post_box", "collection_times": "Mo-Fr 17:00; Sa 15:30", "indoor": "yes", "note": "ON 12/24 AND 12/31, THIS BOX MAY BE COLLECTED AS EARLY AS 12 NOON.", "nsi_id": "unitedstatespostalservice-a77078", "operator": "United States Postal Service", "operator:short": "USPS", "operator:type": "public", "operator:wikidata": "Q668687", "ref": "1552200016"}, "type": "Feature"}
{"geometry": {"coordinates": [-78.503667726, 40.017211281], "type": "Point"}, "id": "vqBAwP-oYfInw-yKZna-gJHWs_U=", "properties": {"@source_uri": "https://tools.usps.com/UspsToolsRestServices/rest/POLocator/findLocations", "@spider": "usps_collection_boxes", "addr:city": "BEDFORD", "addr:country": "US", "addr:postcode": "15522", "addr:state": "PA", "addr:street_address": "201 S JULIANA ST", "amenity": "post_box", "collection_times": "Mo-Fr 17:00; Sa 12:00", "indoor": "yes", "note": "ON 12/24 AND 12/31, THIS BOX MAY BE COLLECTED AS EARLY AS 12 NOON.", "nsi_id": "unitedstatespostalservice-a77078", "operator": "United States Postal Service", "operator:short": "USPS", "operator:type": "public", "operator:wikidata": "Q668687", "ref": "1552200020"}, "type": "Feature"}
{"geometry": {"coordinates": [-78.95769, 39.92087], "type": "Point"}, "id": "ACnlpgZtFM1Gckh63JeYaY469n8=", "properties": {"@source_uri": "https://tools.usps.com/UspsToolsRestServices/rest/POLocator/findLocations", "@spider": "usps_collection_boxes", "addr:city": "BERLIN", "addr:country": "US", "addr:postcode": "15530", "addr:state": "PA", "addr:street_address": "531 MAIN ST", "amenity": "post_box", "collection_times": "Mo-Fr 16:45; Sa 12:00", "indoor": "yes", "note": "ON 12/24 AND 12/31, THIS BOX MAY BE COLLECTED AS EARLY AS 12 NOON.", "nsi_id": "unitedstatespostalservice-a77078", "operator": "United States Postal Service", "operator:short": "USPS", "operator:type": "public", "operator:wikidata": "Q668687", "ref": "1553000004"}, "type": "Feature"}
{"geometry": {"coordinates": [-78.9575624578, 39.9206646783], "type": "Point"}, "id": "tRM-IlNvHJsEjCD6qundNf4Wvzc=", "properties": {"@source_uri": "https://tools.usps.com/UspsToolsRestServices/rest/POLocator/findLocations", "@spider": "usps_collection_boxes", "addr:city": "BERLIN", "addr:country": "US", "addr:postcode": "15530", "addr:state": "PA", "addr:street_address": "534 MAIN ST", "amenity": "post_box", "collection_times": "Mo-Fr 16:30; Sa 12:00", "note": "ON 12/24 AND 12/31, THIS BOX MAY BE COLLECTED AS EARLY AS 12 NOON.", "nsi_id": "unitedstatespostalservice-a77078", "operator": "United States Postal Service", "operator:short": "USPS", "operator:type": "public", "operator:wikidata": "Q668687", "ref": "1553000005"}, "type": "Feature"}
{"geometry": {"coordinates": [-78.9609489, 39.921957], "type": "Point"}, "id": "NYEcyDVqwJlkwYDJJ71CrSumIlE=", "properties": {"@source_uri": "https://tools.usps.com/UspsToolsRestServices/rest/POLocator/findLocations", "@spider": "usps_collection_boxes", "addr:city": "BERLIN", "addr:country": "US", "addr:postcode": "15530", "addr:state": "PA", "addr:street_address": "413 BROADWAY ST", "amenity": "post_box", "collection_times": "Mo-Sa 11:00", "nsi_id": "unitedstatespostalservice-a77078", "operator": "United States Postal Service", "operator:short": "USPS", "operator:type": "public", "operator:wikidata": "Q668687", "ref": "1553000007"}, "type": "Feature"}
{"geometry": {"coordinates": [-78.957699057, 39.920730315], "type": "Point"}, "id": "ksYi324XiRkKvxbYod-qdewzo3c=", "properties": {"@source_uri": "https://tools.usps.com/UspsToolsRestServices/rest/POLocator/findLocations", "@spider": "usps_collection_boxes", "addr:city": "BERLIN", "addr:country": "US", "addr:postcode": "15530", "addr:state": "PA", "addr:street_address": "531 MAIN ST", "amenity": "post_box", "collection_times": "Mo-Fr 16:45; Sa 12:00", "indoor": "yes", "note": "ON 12/24 AND 12/31, THIS BOX MAY BE COLLECTED AS EARLY AS 12 NOON.", "nsi_id": "unitedstatespostalservice-a77078", "operator": "United States Postal Service", "operator:short": "USPS", "operator:type": "public", "operator:wikidata": "Q668687", "ref": "1553000008"}, "type": "Feature"}
{"geometry": {"coordinates": [-78.9576945566, 39.920739315], "type": "Point"}, "id": "s94t7H_75OlGfwOYc8MLC8e8CMI=", "properties": {"@source_uri": "https://tools.usps.com/UspsToolsRestServices/rest/POLocator/findLocations", "@spider": "usps_collection_boxes", "addr:city": "BERLIN", "addr:country": "US", "addr:postcode": "15530", "addr:state": "PA", "addr:street_address": "531 MAIN ST", "amenity": "post_box", "collection_times": "Mo-Fr 16:45; Sa 12:00", "note": "ON 12/24 AND 12/31, THIS BOX MAY BE COLLECTED AS EARLY AS 12 NOON.", "nsi_id": "unitedstatespostalservice-a77078", "operator": "United States Postal Service", "operator:short": "USPS", "operator:type": "public", "operator:wikidata": "Q668687", "ref": "1553000009"}, "type": "Feature"}
{"geometry": {"coordinates": [-79.032806, 40.161131], "type": "Point"}, "id": "yVtCrwfcXdh4qyrn4LI3vfKY65A=", "properties": {"@source_uri": "https://tools.usps.com/UspsToolsRestServices/rest/POLocator/findLocations", "@spider": "usps_collection_boxes", "addr:city": "BOSWELL", "addr:country": "US", "addr:postcode": "15531", "addr:state": "PA", "addr:street_address": "908 ATKINSON WAY", "amenity": "post_box", "collection_times": "Mo-Fr 17:00; Sa 12:00", "note": "ON 12/24 AND 12/31, THIS BOX MAY BE COLLECTED AS EARLY AS 12 NOON.", "nsi_id": "unitedstatespostalservice-a77078", "operator": "United States Postal Service", "operator:short": "USPS", "operator:type": "public", "operator:wikidata": "Q668687", "ref": "1553100000"}, "type": "Feature"}
{"geometry": {"coordinates": [-79.032702, 40.161167], "type": "Point"}, "id": "7j_NIdTqgenlFa5ajY4Y2o_v8UI=", "properties": {"@source_uri": "https://tools.usps.com/UspsToolsRestServices/rest/POLocator/findLocations", "@spider": "usps_collection_boxes", "addr:city": "BOSWELL", "addr:country": "US", "addr:postcode": "15531", "addr:state": "PA", "addr:street_address": "908 ATKINSON WAY", "amenity": "post_box", "collection_times": "Mo-Fr 17:00; Sa 12:00", "indoor": "yes", "note": "ON 12/24 AND 12/31, THIS BOX MAY BE COLLECTED AS EARLY AS 12 NOON.", "nsi_id": "unitedstatespostalservice-a77078", "operator": "United States Postal Service", "operator:short": "USPS", "operator:type": "public", "operator:wikidata": "Q668687", "ref": "1553100004"}, "type": "Feature"}
{"geometry": {"coordinates": [-79.033019058, 40.161023831], "type": "Point"}, "id": "oC3kE86xxja0MILZEfVBTcAv8s4=", "properties": {"@source_uri": "https://tools.usps.com/UspsToolsRestServices/rest/POLocator/findLocations", "@spider": "usps_collection_boxes", "addr:city": "BOSWELL", "addr:country": "US", "addr:postcode": "15531", "addr:state": "PA", "addr:street_address": "908 ATKINSON WAY", "amenity": "post_box", "collection_times": "Mo-Fr 16:45; Sa 12:00", "indoor": "yes", "note": "ON 12/24 AND 12/31, THIS BOX MAY BE COLLECTED AS EARLY AS 12 NOON.", "nsi_id": "unitedstatespostalservice-a77078", "operator": "United States Postal Service", "operator:short": "USPS", "operator:type": "public", "operator:wikidata": "Q668687", "ref": "1553100006"}, "type": "Feature"}
{"geometry": {"coordinates": [-79.067701, 39.767448], "type": "Point"}, "id": "CzQDAVEuay4sgyyuhPuOxECm7Iw=", "properties": {"@source_uri": "https://tools.usps.com/UspsToolsRestServices/rest/POLocator/findLocations", "@spider": "usps_collection_boxes", "addr:city": "BOYNTON", "addr:country": "US", "addr:postcode": "15532", "addr:state": "PA", "addr:street_address": "102 POST OFFICE ST", "amenity": "post_box", "collection_times": "Mo-Fr 16:00; Sa 11:00", "note": "ON 12/24 AND 12/31, THIS BOX MAY BE COLLECTED AS EARLY AS 12 NOON.", "nsi_id": "unitedstatespostalservice-a77078", "operator": "United States Postal Service", "operator:short": "USPS", "operator:type": "public", "operator:wikidata": "Q668687", "ref": "1553200000"}, "type": "Feature"}
{"geometry": {"coordinates": [-79.067666, 39.76745], "type": "Point"}, "id": "3QkwkcLbkh4oZLj7-SkF3dAewf0=", "properties": {"@source_uri": "https://tools.usps.com/UspsToolsRestServices/rest/POLocator/findLocations", "@spider": "usps_collection_boxes", "addr:city": "BOYNTON", "addr:country": "US", "addr:postcode": "15532", "addr:state": "PA", "addr:street_address": "102 POST OFFICE ST", "amenity": "post_box", "collection_times": "Mo-Fr 16:00; Sa 11:00", "indoor": "yes", "note": "ON 12/24 AND 12/31, THIS BOX MAY BE COLLECTED AS EARLY AS 12 NOON.", "nsi_id": "unitedstatespostalservice-a77078", "operator": "United States Postal Service", "operator:short": "USPS", "operator:type": "public", "operator:wikidata": "Q668687", "ref": "1553200001"}, "type": "Feature"}
{"geometry": {"coordinates": [-79.067548716, 39.76699286], "type": "Point"}, "id": "Vt41NLRIb1s-j2Chd9XWvp8zzOs=", "properties": {"@source_uri": "https://tools.usps.com/UspsToolsRestServices/rest/POLocator/findLocations", "@spider": "usps_collection_boxes", "addr:city": "BOYNTON", "addr:country": "US", "addr:postcode": "15532", "addr:state": "PA", "addr:street_address": "102 POST OFFICE ST", "amenity": "post_box", "collection_times": "Mo-Fr 15:50; Sa 10:50", "indoor": "yes", "note": "ON 12/24 AND 12/31, THIS BOX MAY BE COLLECTED AS EARLY AS 12 NOON.", "nsi_id": "unitedstatespostalservice-a77078", "operator": "United States Postal Service", "operator:short": "USPS", "operator:type": "public", "operator:wikidata": "Q668687", "ref": "1553200003"}, "type": "Feature"}
{"geometry": {"coordinates": [-78.242688, 39.996569], "type": "Point"}, "id": "cVgicCiT3YJlEuqdlJU-iPGm_vY=", "properties": {"@source_uri": "https://tools.usps.com/UspsToolsRestServices/rest/POLocator/findLocations", "@spider": "usps_collection_boxes", "addr:city": "BREEZEWOOD", "addr:country": "US", "addr:postcode": "15533", "addr:state": "PA", "addr:street_address": "166 N MAIN ST", "amenity": "post_box", "collection_times": "Mo-Fr 15:45; Sa 11:45", "note": "ON 12/24 AND 12/31, THIS BOX MAY BE COLLECTED AS EARLY AS 12 NOON.", "nsi_id": "unitedstatespostalservice-a77078", "operator": "United States Postal Service", "operator:short": "USPS", "operator:type": "public", "operator:wikidata": "Q668687", "ref": "1553300001"}, "type": "Feature"}
{"geometry": {"coordinates": [-78.242688, 39.996569], "type": "Point"}, "id": "qNp4ESpGIYOrcBq95ETLbgF9Ay8=", "properties": {"@source_uri": "https://tools.usps.com/UspsToolsRestServices/rest/POLocator/findLocations", "@spider": "usps_collection_boxes", "addr:city": "BREEZEWOOD", "addr:country": "US", "addr:postcode": "15533", "addr:state": "PA", "addr:street_address": "166 N MAIN ST", "amenity": "post_box", "collection_times": "Mo-Fr 15:45; Sa 11:45", "indoor": "yes", "note": "ON 12/24 AND 12/31, THIS BOX MAY BE COLLECTED AS EARLY AS 12 NOON.", "nsi_id": "unitedstatespostalservice-a77078", "operator": "United States Postal Service", "operator:short": "USPS", "operator:type": "public", "operator:wikidata": "Q668687", "ref": "1553300004"}, "type": "Feature"}
{"geometry": {"coordinates": [-78.243328091, 39.998110337], "type": "Point"}, "id": "byoYR2ZA_8JF20yAVc38ax1ZOkw=", "properties": {"@source_uri": "https://tools.usps.com/UspsToolsRestServices/rest/POLocator/findLocations", "@spider": "usps_collection_boxes", "addr:city": "BREEZEWOOD", "addr:country": "US", "addr:postcode": "15533", "addr:state": "PA", "addr:street_address": "166 N MAIN ST", "amenity": "post_box", "collection_times": "Mo-Fr 15:45; Sa 11:45", "indoor": "yes", "note": "ON 12/24 AND 12/31, THIS BOX MAY BE COLLECTED AS EARLY AS 12 NOON.", "nsi_id": "unitedstatespostalservice-a77078", "operator": "United States Postal Service", "operator:short": "USPS", "operator:type": "public", "operator:wikidata": "Q668687", "ref": "1553300006"}, "type": "Feature"}
{"geometry": {"coordinates": [-78.648814, 39.942995], "type": "Point"}, "id": "BxfvCFC0TO1seBXGw6zl9Xp5iHI=", "properties": {"@source_uri": "https://tools.usps.com/UspsToolsRestServices/rest/POLocator/findLocations", "@spider": "usps_collection_boxes", "addr:city": "BUFFALO MILLS", "addr:country": "US", "addr:postcode": "15534", "addr:state": "PA", "addr:street_address": "8862 HYNDMAN RD", "amenity": "post_box", "collection_times": "Mo-Fr 11:55; Sa 10:45", "nsi_id": "unitedstatespostalservice-a77078", "operator": "United States Postal Service", "operator:short": "USPS", "operator:type": "public", "operator:wikidata": "Q668687", "ref": "1553400000"}, "type": "Feature"}
{"geometry": {"coordinates": [-78.648798, 39.943057], "type": "Point"}, "id": "8e1Z3yBX9tfdxKxhE64aSIV4tqY=", "properties": {"@source_uri": "https://tools.usps.com/UspsToolsRestServices/rest/POLocator/findLocations", "@spider": "usps_collection_boxes", "addr:city": "BUFFALO MILLS", "addr:country": "US", "addr:postcode": "15534", "addr:state": "PA", "addr:street_address": "8862 HYNDMAN RD", "amenity": "post_box", "collection_times": "Mo-Fr 11:55; Sa 10:45", "indoor": "yes", "nsi_id": "unitedstatespostalservice-a77078", "operator": "United States Postal Service", "operator:short": "USPS", "operator:type": "public", "operator:wikidata": "Q668687", "ref": "1553400001"}, "type": "Feature"}
{"geometry": {"coordinates": [-78.646231846, 39.94627016], "type": "Point"}, "id": "RhLBHvIR8My8sPp5FYzb6j60LzI=", "properties": {"@source_uri": "https://tools.usps.com/UspsToolsRestServices/rest/POLocator/findLocations", "@spider": "usps_collection_boxes", "addr:city": "BUFFALO MILLS", "addr:country": "US", "addr:postcode": "15534", "addr:state": "PA", "addr:street_address": "8862 HYNDMAN RD", "amenity": "post_box", "collection_times": "Mo-Fr 11:55; Sa 10:55", "indoor": "yes", "nsi_id": "unitedstatespostalservice-a77078", "operator": "United States Postal Service", "operator:short": "USPS", "operator:type": "public", "operator:wikidata": "Q668687", "ref": "1553400003"}, "type": "Feature"}
{"geometry": {"coordinates": [-78.3843435, 39.916812], "type": "Point"}, "id": "1Gl_qw9DZiKsDlJRi2kqjVv99Rg=", "properties": {"@source_uri": "https://tools.usps.com/UspsToolsRestServices/rest/POLocator/findLocations", "@spider": "usps_collection_boxes", "addr:city": "CLEARVILLE", "addr:country": "US", "addr:postcode": "15535", "addr:state": "PA", "addr:street_address": "8156 CLEAR RIDGE RD", "amenity": "post_box", "collection_times": "Mo-Fr 15:30; Sa 11:15", "note": "ON 12/24 AND 12/31, THIS BOX MAY BE COLLECTED AS EARLY AS 12 NOON.", "nsi_id": "unitedstatespostalservice-a77078", "operator": "United States Postal Service", "operator:short": "USPS", "operator:type": "public", "operator:wikidata": "Q668687", "ref": "1553500000"}, "type": "Feature"}
{"geometry": {"coordinates": [-78.384245, 39.916729], "type": "Point"}, "id": "WcRA6Bo9Yif2Tu7DwExtgzZrWtk=", "properties": {"@source_uri": "https://tools.usps.com/UspsToolsRestServices/rest/POLocator/findLocations", "@spider": "usps_collection_boxes", "addr:city": "CLEARVILLE", "addr:country": "US", "addr:postcode": "15535", "addr:state": "PA", "addr:street_address": "8156 CLEAR RIDGE RD", "amenity": "post_box", "collection_times": "Mo-Fr 15:30; Sa 11:15", "indoor": "yes", "note": "ON 12/24 AND 12/31, THIS BOX MAY BE COLLECTED AS EARLY AS 12 NOON.", "nsi_id": "unitedstatespostalservice-a77078", "operator": "United States Postal Service", "operator:short": "USPS", "operator:type": "public", "operator:wikidata": "Q668687", "ref": "1553500001"}, "type": "Feature"}
{"geometry": {"coordinates": [-78.384329912, 39.916795766], "type": "Point"}, "id": "s5CCK09fhna3Uuf8DzuFAPeOIzA=", "properties": {"@source_uri": "https://tools.usps.com/UspsToolsRestServices/rest/POLocator/findLocations", "@spider": "usps_collection_boxes", "addr:city": "CLEARVILLE", "addr:country": "US", "addr:postcode": "15535", "addr:state": "PA", "addr:street_address": "8156 CLEAR RIDGE RD", "amenity": "post_box", "collection_times": "Mo-Fr 15:30; Sa 11:15", "indoor": "yes", "note": "ON 12/24 AND 12/31, THIS BOX MAY BE COLLECTED AS EARLY AS 12 NOON.", "nsi_id": "unitedstatespostalservice-a77078", "operator": "United States Postal Service", "operator:short": "USPS", "operator:type": "public", "operator:wikidata": "Q668687", "ref": "1553500003"}, "type": "Feature"}
{"geometry": {"coordinates": [-78.231825, 39.946857], "type": "Point"}, "id": "2K92AUYDfbUDRROV7G0luD797MA=", "properties": {"@source_uri": "https://tools.usps.com/UspsToolsRestServices/rest/POLocator/findLocations", "@spider": "usps_collection_boxes", "addr:city": "CRYSTAL SPRING", "addr:country": "US", "addr:postcode": "15536", "addr:state": "PA", "addr:street_address": "14457 OLD 126 STE B", "amenity": "post_box", "collection_times": "Mo-Fr 11:55; Sa 11:45", "nsi_id": "unitedstatespostalservice-a77078", "operator": "United States Postal Service", "operator:short": "USPS", "operator:type": "public", "operator:wikidata": "Q668687", "ref": "1553600000"}, "type": "Feature"}
{"geometry": {"coordinates": [-78.231825, 39.946857], "type": "Point"}, "id": "6pK5HXHPV0-KYI2fxj4wL6VEEvw=", "properties": {"@source_uri": "https://tools.usps.com/UspsToolsRestServices/rest/POLocator/findLocations", "@spider": "usps_collection_boxes", "addr:city": "CRYSTAL SPRING", "addr:country": "US", "addr:postcode": "15536", "addr:state": "PA", "addr:street_address": "14457 OLD 126 STE B", "amenity": "post_box", "collection_times": "Mo-Fr 11:55; Sa 11:45", "indoor": "yes", "nsi_id": "unitedstatespostalservice-a77078", "operator": "United States Postal Service", "operator:short": "USPS", "operator:type": "public", "operator:wikidata": "Q668687", "ref": "1553600001"}, "type": "Feature"}
{"geometry": {"coordinates": [-78.231827928, 39.946856679], "type": "Point"}, "id": "goP-PtD0FrycfcTYmrKSfXXd9w8=", "properties": {"@source_uri": "https://tools.usps.com/UspsToolsRestServices/rest/POLocator/findLocations", "@spider": "usps_collection_boxes", "addr:city": "CRYSTAL SPRING", "addr:country": "US", "addr:postcode": "15536", "addr:state": "PA", "addr:street_address": "14457 OLD 126 STE B", "amenity": "post_box", "collection_times": "Mo-Fr 11:55", "indoor": "yes", "nsi_id": "unitedstatespostalservice-a77078", "operator": "United States Postal Service", "operator:short": "USPS", "operator:type": "public", "operator:wikidata": "Q668687", "ref": "1553600003"}, "type": "Feature"}
{"geometry": {"coordinates": [-78.428819, 40.02364], "type": "Point"}, "id": "seT6IU5AZw7SGGN69aTplrA43HE=", "properties": {"@source_uri": "https://tools.usps.com/UspsToolsRestServices/rest/POLocator/findLocations", "@spider": "usps_collection_boxes", "addr:city": "EVERETT", "addr:country": "US", "addr:postcode": "15537", "addr:state": "PA", "addr:street_address": "10455 LINCOLN HWY", "amenity": "post_box", "collection_times": "Mo-Sa 08:30", "nsi_id": "unitedstatespostalservice-a77078", "operator": "United States Postal Service", "operator:short": "USPS", "operator:type": "public", "operator:wikidata": "Q668687", "ref": "1553700000"}, "type": "Feature"}
{"geometry": {"coordinates": [-78.3735147, 40.020726], "type": "Point"}, "id": "ho580rsHdTyCaeqzTsTu02ylm9Y=", "properties": {"@source_uri": "https://tools.usps.com/UspsToolsRestServices/rest/POLocator/findLocations", "@spider": "usps_collection_boxes", "addr:city": "EVERETT", "addr:country": "US", "addr:postcode": "15537", "addr:state": "PA", "addr:street_address": "734 N SPRING ST", "amenity": "post_box", "collection_times": "Mo-Sa 11:30", "nsi_id": "unitedstatespostalservice-a77078", "operator": "United States Postal Service", "operator:short": "USPS", "operator:type": "public", "operator:wikidata": "Q668687", "ref": "1553700002"}, "type": "Feature"}
{"geometry": {"coordinates": [-78.3760733, 40.010126], "type": "Point"}, "id": "hAjHaWRh6BHZ5BOlJuMO2UG2tx0=", "properties": {"@source_uri": "https://tools.usps.com/UspsToolsRestServices/rest/POLocator/findLocations", "@spider": "usps_collection_boxes", "addr:city": "EVERETT", "addr:country": "US", "addr:postcode": "15537", "addr:state": "PA", "addr:street_address": "203 W MAIN ST", "amenity": "post_box", "collection_times": "Mo-Sa 10:00", "nsi_id": "unitedstatespostalservice-a77078", "operator": "United States Postal Service", "operator:short": "USPS", "operator:type": "public", "operator:wikidata": "Q668687", "ref": "1553700003"}, "type": "Feature"}
{"geometry": {"coordinates": [-78.3826923, 40.009075], "type": "Point"}, "id": "BUwFhef9Xlhhl3LC-lGfrMldaYo=", "properties": {"@source_uri": "https://tools.usps.com/UspsToolsRestServices/rest/POLocator/findLocations", "@spider": "usps_collection_boxes", "addr:city": "EVERETT", "addr:country": "US", "addr:postcode": "15537", "addr:state": "PA", "addr:street_address": "523 W MAIN ST", "amenity": "post_box", "collection_times": "Mo-Sa 10:00", "nsi_id": "unitedstatespostalservice-a77078", "operator": "United States Postal Service", "operator:short": "USPS", "operator:type": "public", "operator:wikidata": "Q668687", "ref": "1553700004"}, "type": "Feature"}
{"geometry": {"coordinates": [-78.3678335, 40.012104], "type": "Point"}, "id": "9zy-4XyTsbH0Yis8an4XeNgPEkM=", "properties": {"@source_uri": "https://tools.usps.com/UspsToolsRestServices/rest/POLocator/findLocations", "@spider": "usps_collection_boxes", "addr:city": "EVERETT", "addr:country": "US", "addr:postcode": "15537", "addr:state": "PA", "addr:street_address": "259 E MAIN ST", "amenity": "post_box", "collection_times": "Mo-Sa 09:30", "nsi_id": "unitedstatespostalservice-a77078", "operator": "United States Postal Service", "operator:short": "USPS", "operator:type": "public", "operator:wikidata": "Q668687", "ref": "1553700006"}, "type": "Feature"}
{"geometry": {"coordinates": [-78.372743, 40.011454], "type": "Point"}, "id": "obQ1M59jPKq5i7yyE_xwmImkmaM=", "properties": {"@source_uri": "https://tools.usps.com/UspsToolsRestServices/rest/POLocator/findLocations", "@spider": "usps_collection_boxes", "addr:city": "EVERETT", "addr:country": "US", "addr:postcode": "15537", "addr:state": "PA", "addr:street_address": "17 E MAIN ST", "amenity": "post_box", "collection_times": "Mo-Fr 16:45; Sa 11:30", "note": "ON 12/24 AND 12/31, THIS BOX MAY BE COLLECTED AS EARLY AS 12 NOON.", "nsi_id": "unitedstatespostalservice-a77078", "operator": "United States Postal Service", "operator:short": "USPS", "operator:type": "public", "operator:wikidata": "Q668687", "ref": "1553700007"}, "type": "Feature"}
{"geometry": {"coordinates": [-78.372664, 40.011453], "type": "Point"}, "id": "CC9laCSRJUHzL_Pr2zlxtdcg1yg=", "properties": {"@source_uri": "https://tools.usps.com/UspsToolsRestServices/rest/POLocator/findLocations", "@spider": "usps_collection_boxes", "addr:city": "EVERETT", "addr:country": "US", "addr:postcode": "15537", "addr:state": "PA", "addr:street_address": "17 E MAIN ST", "amenity": "post_box", "collection_times": "Mo-Fr 16:45; Sa 11:30", "note": "ON 12/24 AND 12/31, THIS BOX MAY BE COLLECTED AS EARLY AS 12 NOON.", "nsi_id": "unitedstatespostalservice-a77078", "operator": "United States Postal Service", "operator:short": "USPS", "operator:type": "public", "operator:wikidata": "Q668687", "ref": "1553700008"}, "type": "Feature"}
{"geometry": {"coordinates": [-78.3709328, 40.011734], "type": "Point"}, "id": "BGO9fLNWKHgSkneNvNfQ-FaFOJU=", "properties": {"@source_uri": "https://tools.usps.com/UspsToolsRestServices/rest/POLocator/findLocations", "@spider": "usps_collection_boxes", "addr:city": "EVERETT", "addr:country": "US", "addr:postcode": "15537", "addr:state": "PA", "addr:street_address": "140 E MAIN ST", "amenity": "post_box", "collection_times": "Mo-Sa 10:00", "nsi_id": "unitedstatespostalservice-a77078", "operator": "United States Postal Service", "operator:short": "USPS", "operator:type": "public", "operator:wikidata": "Q668687", "ref": "1553700009"}, "type": "Feature"}
{"geometry": {"coordinates": [-78.4481886, 40.023783], "type": "Point"}, "id": "LCAJDlmYFTkownvHIld4ncmzoZ8=", "properties": {"@source_uri": "https://tools.usps.com/UspsToolsRestServices/rest/POLocator/findLocations", "@spider": "usps_collection_boxes", "addr:city": "EVERETT", "addr:country": "US", "addr:postcode": "15537", "addr:state": "PA", "addr:street_address": "72 BEDFORD SQ", "amenity": "post_box", "collection_times": "Mo-Sa 09:30", "nsi_id": "unitedstatespostalservice-a77078", "operator": "United States Postal Service", "operator:short": "USPS", "operator:type": "public", "operator:wikidata": "Q668687", "ref": "1553700010"}, "type": "Feature"}
{"geometry": {"coordinates": [-78.372664, 40.011453], "type": "Point"}, "id": "3Tm5i4w2296fBhJ2ZZMIm0LgPy8=", "properties": {"@source_uri": "https://tools.usps.com/UspsToolsRestServices/rest/POLocator/findLocations", "@spider": "usps_collection_boxes", "addr:city": "EVERETT", "addr:country": "US", "addr:postcode": "15537", "addr:state": "PA", "addr:street_address": "17 E MAIN ST", "amenity": "post_box", "collection_times": "Mo-Fr 16:45; Sa 11:30", "indoor": "yes", "note": "ON 12/24 AND 12/31, THIS BOX MAY BE COLLECTED AS EARLY AS 12 NOON.", "nsi_id": "unitedstatespostalservice-a77078", "operator": "United States Postal Service", "operator:short": "USPS", "operator:type": "public", "operator:wikidata": "Q668687", "ref": "1553700011"}, "type": "Feature"}
{"geometry": {"coordinates": [-78.372700212, 40.011464513], "type": "Point"}, "id": "IKOpPSaf84ztFTjsjO-lb80aofo=", "properties": {"@source_uri": "https://tools.usps.com/UspsToolsRestServices/rest/POLocator/findLocations", "@spider": "usps_collection_boxes", "addr:city": "EVERETT", "addr:country": "US", "addr:postcode": "15537", "addr:state": "PA", "addr:street_address": "17 E MAIN ST", "amenity": "post_box", "collection_times": "Mo-Fr 16:45; Sa 11:30", "indoor": "yes", "note": "ON 12/24 AND 12/31, THIS BOX MAY BE COLLECTED AS EARLY AS 12 NOON.", "nsi_id": "unitedstatespostalservice-a77078", "operator": "United States Postal Service", "operator:short": "USPS", "operator:type": "public", "operator:wikidata": "Q668687", "ref": "1553700013"}, "type": "Feature"}
{"geometry": {"coordinates": [-78.792923, 39.841228], "type": "Point"}, "id": "CzRXcA183qdsF7689KOk3YO8hnk=", "properties": {"@source_uri": "https://tools.usps.com/UspsToolsRestServices/rest/POLocator/findLocations", "@spider": "usps_collection_boxes", "addr:city": "FAIRHOPE", "addr:country": "US", "addr:postcode": "15538", "addr:state": "PA", "addr:street_address": "1172 FAIRHOPE RD", "amenity": "post_box", "collection_times": "Mo-Fr 09:50; Sa 11:00", "nsi_id": "unitedstatespostalservice-a77078", "operator": "United States Postal Service", "operator:short": "USPS", "operator:type": "public", "operator:wikidata": "Q668687", "ref": "1553800000"}, "type": "Feature"}
{"geometry": {"coordinates": [-78.792945, 39.841181], "type": "Point"}, "id": "m5gX6hpMiqMJNpRTantpv4aV-qw=", "properties": {"@source_uri": "https://tools.usps.com/UspsToolsRestServices/rest/POLocator/findLocations", "@spider": "usps_collection_boxes", "addr:city": "FAIRHOPE", "addr:country": "US", "addr:postcode": "15538", "addr:state": "PA", "addr:street_address": "1172 FAIRHOPE RD", "amenity": "post_box", "collection_times": "Mo-Fr 09:50; Sa 11:00", "indoor": "yes", "nsi_id": "unitedstatespostalservice-a77078", "operator": "United States Postal Service", "operator:short": "USPS", "operator:type": "public", "operator:wikidata": "Q668687", "ref": "1553800001"}, "type": "Feature"}
{"geometry": {"coordinates": [-78.793248919, 39.841602904], "type": "Point"}, "id": "eumgpi1WaBRmy4P5pMibPfEfzA0=", "properties": {"@source_uri": "https://tools.usps.com/UspsToolsRestServices/rest/POLocator/findLocations", "@spider": "usps_collection_boxes", "addr:city": "FAIRHOPE", "addr:country": "US", "addr:postcode": "15538", "addr:state": "PA", "addr:street_address": "1172 FAIRHOPE RD", "amenity": "post_box", "collection_times": "Mo-Fr 09:50; Sa 10:50", "indoor": "yes", "nsi_id": "unitedstatespostalservice-a77078", "operator": "United States Postal Service", "operator:short": "USPS", "operator:type": "public", "operator:wikidata": "Q668687", "ref": "1553800003"}, "type": "Feature"}
{"geometry": {"coordinates": [-78.582318, 40.131792], "type": "Point"}, "id": "WR4ZpvVwmeiCl4OND-5BuF8-_U0=", "properties": {"@source_uri": "https://tools.usps.com/UspsToolsRestServices/rest/POLocator/findLocations", "@spider": "usps_collection_boxes", "addr:city": "FISHERTOWN", "addr:country": "US", "addr:postcode": "15539", "addr:state": "PA", "addr:street_address": "2240 QUAKER VALLEY RD", "amenity": "post_box", "collection_times": "Mo-Fr 16:30; Sa 10:30", "note": "ON 12/24 AND 12/31, THIS BOX MAY BE COLLECTED AS EARLY AS 12 NOON.", "nsi_id": "unitedstatespostalservice-a77078", "operator": "United States Postal Service", "operator:short": "USPS", "operator:type": "public", "operator:wikidata": "Q668687", "ref": "1553900000"}, "type": "Feature"}
{"geometry": {"coordinates": [-78.582365, 40.131822], "type": "Point"}, "id": "xr23KA_KNdsHtqKJXJJqqxJsnIg=", "properties": {"@source_uri": "https://tools.usps.com/UspsToolsRestServices/rest/POLocator/findLocations", "@spider": "usps_collection_boxes", "addr:city": "FISHERTOWN", "addr:country": "US", "addr:postcode": "15539", "addr:state": "PA", "addr:street_address": "2240 QUAKER VALLEY RD", "amenity": "post_box", "collection_times": "Mo-Fr 16:30; Sa 10:30", "indoor": "yes", "note": "ON 12/24 AND 12/31, THIS BOX MAY BE COLLECTED AS EARLY AS 12 NOON.", "nsi_id": "unitedstatespostalservice-a77078", "operator": "United States Postal Service", "operator:short": "USPS", "operator:type": "public", "operator:wikidata": "Q668687", "ref": "1553900001"}, "type": "Feature"}
{"geometry": {"coordinates": [-78.582487968, 40.132293831], "type": "Point"}, "id": "9RcIwBh-Wn_xa8hXW11uJoCHbp0=", "properties": {"@source_uri": "https://tools.usps.com/UspsToolsRestServices/rest/POLocator/findLocations", "@spider": "usps_collection_boxes", "addr:city": "FISHERTOWN", "addr:country": "US", "addr:postcode": "15539", "addr:state": "PA", "addr:street_address": "2240 QUAKER VALLEY RD", "amenity": "post_box", "collection_times": "Mo-Fr 16:30; Sa 10:45", "indoor": "yes", "note": "ON 12/24 AND 12/31, THIS BOX MAY BE COLLECTED AS EARLY AS 12 NOON.", "nsi_id": "unitedstatespostalservice-a77078", "operator": "United States Postal Service", "operator:short": "USPS", "operator:type": "public", "operator:wikidata": "Q668687", "ref": "1553900003"}, "type": "Feature"}
{"geometry": {"coordinates": [-79.274884, 39.832403], "type": "Point"}, "id": "dSEFCT0qlFbmgBX7_tqKhnaDkDM=", "properties": {"@source_uri": "https://tools.usps.com/UspsToolsRestServices/rest/POLocator/findLocations", "@spider": "usps_collection_boxes", "addr:city": "FORT HILL", "addr:country": "US", "addr:postcode": "15540", "addr:state": "PA", "addr:street_address": "414 FORT HILL RD", "amenity": "post_box", "collection_times": "Mo-Fr 10:50; Sa 11:45", "nsi_id": "unitedstatespostalservice-a77078", "operator": "United States Postal Service", "operator:short": "USPS", "operator:type": "public", "operator:wikidata": "Q668687", "ref": "1554000000"}, "type": "Feature"}
{"geometry": {"coordinates": [-79.274884, 39.832403], "type": "Point"}, "id": "DdgLXJiI-R-XA0Be4FnAFFPol-0=", "properties": {"@source_uri": "https://tools.usps.com/UspsToolsRestServices/rest/POLocator/findLocations", "@spider": "usps_collection_boxes", "addr:city": "FORT HILL", "addr:country": "US", "addr:postcode": "15540", "addr:state": "PA", "addr:street_address": "414 FORT HILL RD", "amenity": "post_box", "collection_times": "Mo-Fr 10:50; Sa 11:45", "indoor": "yes", "nsi_id": "unitedstatespostalservice-a77078", "operator": "United States Postal Service", "operator:short": "USPS", "operator:type": "public", "operator:wikidata": "Q668687", "ref": "1554000001"}, "type": "Feature"}
{"geometry": {"coordinates": [-79.274458185, 39.83198883], "type": "Point"}, "id": "Kdu59PqQZDp9nr2Fs0sSD0T_SoU=", "properties": {"@source_uri": "https://tools.usps.com/UspsToolsRestServices/rest/POLocator/findLocations", "@spider": "usps_collection_boxes", "addr:city": "FORT HILL", "addr:country": "US", "addr:postcode": "15540", "addr:state": "PA", "addr:street_address": "414 FORT HILL RD", "amenity": "post_box", "collection_times": "Mo-Fr 10:50; Sa 11:50", "indoor": "yes", "nsi_id": "unitedstatespostalservice-a77078", "operator": "United States Postal Service", "operator:short": "USPS", "operator:type": "public", "operator:wikidata": "Q668687", "ref": "1554000003"}, "type": "Feature"}
{"geometry": {"coordinates": [-78.992831, 40.052133], "type": "Point"}, "id": "BA5DWD20cy_pFOt7I4DPppL5kc4=", "properties": {"@source_uri": "https://tools.usps.com/UspsToolsRestServices/rest/POLocator/findLocations", "@spider": "usps_collection_boxes", "addr:city": "FRIEDENS", "addr:country": "US", "addr:postcode": "15541", "addr:state": "PA", "addr:street_address": "2247 STOYSTOWN RD", "amenity": "post_box", "collection_times": "Mo-Fr 16:00; Sa 11:15", "note": "ON 12/24 AND 12/31, THIS BOX MAY BE COLLECTED AS EARLY AS 12 NOON.", "nsi_id": "unitedstatespostalservice-a77078", "operator": "United States Postal Service", "operator:short": "USPS", "operator:type": "public", "operator:wikidata": "Q668687", "ref": "1554100000"}, "type": "Feature"}
{"geometry": {"coordinates": [-78.992772, 40.052134], "type": "Point"}, "id": "U0J-fSdNlSEP-WkXUpFTH7rIsw8=", "properties": {"@source_uri": "https://tools.usps.com/UspsToolsRestServices/rest/POLocator/findLocations", "@spider": "usps_collection_boxes", "addr:city": "FRIEDENS", "addr:country": "US", "addr:postcode": "15541", "addr:state": "PA", "addr:street_address": "2247 STOYSTOWN RD", "amenity": "post_box", "collection_times": "Mo-Fr 16:00; Sa 11:30", "indoor": "yes", "note": "ON 12/24 AND 12/31, THIS BOX MAY BE COLLECTED AS EARLY AS 12 NOON.", "nsi_id": "unitedstatespostalservice-a77078", "operator": "United States Postal Service", "operator:short": "USPS", "operator:type": "public", "operator:wikidata": "Q668687", "ref": "1554100001"}, "type": "Feature"}
{"geometry": {"coordinates": [-78.992848979, 40.052119011], "type": "Point"}, "id": "O7pwE__yMuYspUMnBB5i3J24QEc=", "properties": {"@source_uri": "https://tools.usps.com/UspsToolsRestServices/rest/POLocator/findLocations", "@spider": "usps_collection_boxes", "addr:city": "FRIEDENS", "addr:country": "US", "addr:postcode": "15541", "addr:state": "PA", "addr:street_address": "2247 STOYSTOWN RD", "amenity": "post_box", "collection_times": "Mo-Fr 16:20; Sa 11:15", "indoor": "yes", "note": "ON 12/24 AND 12/31, THIS BOX MAY BE COLLECTED AS EARLY AS 12 NOON.", "nsi_id": "unitedstatespostalservice-a77078", "operator": "United States Postal Service", "operator:short": "USPS", "operator:type": "public", "operator:wikidata": "Q668687", "ref": "1554100004"}, "type": "Feature"}
{"geometry": {"coordinates": [-79.060177, 39.863224], "type": "Point"}, "id": "qPiGK2hndMyS_LpG7YdZp_ttQYU=", "properties": {"@source_uri": "https://tools.usps.com/UspsToolsRestServices/rest/POLocator/findLocations", "@spider": "usps_collection_boxes", "addr:city": "GARRETT", "addr:country": "US", "addr:postcode": "15542", "addr:state": "PA", "addr:street_address": "419 JACKSON ST", "amenity": "post_box", "collection_times": "Mo-Fr 11:55; Sa 10:15", "nsi_id": "unitedstatespostalservice-a77078", "operator": "United States Postal Service", "operator:short": "USPS", "operator:type": "public", "operator:wikidata": "Q668687", "ref": "1554200000"}, "type": "Feature"}
{"geometry": {"coordinates": [-79.060227, 39.863274], "type": "Point"}, "id": "KU6iO7FpAiVFBFxAmZhP4wtPRy4=", "properties": {"@source_uri": "https://tools.usps.com/UspsToolsRestServices/rest/POLocator/findLocations", "@spider": "usps_collection_boxes", "addr:city": "GARRETT", "addr:country": "US", "addr:postcode": "15542", "addr:state": "PA", "addr:street_address": "419 JACKSON ST", "amenity": "post_box", "collection_times": "Mo-Fr 11:55; Sa 10:15", "indoor": "yes", "nsi_id": "unitedstatespostalservice-a77078", "operator": "United States Postal Service", "operator:short": "USPS", "operator:type": "public", "operator:wikidata": "Q668687", "ref": "1554200001"}, "type": "Feature"}
{"geometry": {"coordinates": [-79.060209849, 39.863179474], "type": "Point"}, "id": "T168tp-NjB4CiZp4M3ozPmOfUGY=", "properties": {"@source_uri": "https://tools.usps.com/UspsToolsRestServices/rest/POLocator/findLocations", "@spider": "usps_collection_boxes", "addr:city": "GARRETT", "addr:country": "US", "addr:postcode": "15542", "addr:state": "PA", "addr:street_address": "419 JACKSON ST", "amenity": "post_box", "collection_times": "Mo-Fr 11:55; Sa 10:10", "indoor": "yes", "nsi_id": "unitedstatespostalservice-a77078", "operator": "United States Postal Service", "operator:short": "USPS", "operator:type": "public", "operator:wikidata": "Q668687", "ref": "1554200003"}, "type": "Feature"}
{"geometry": {"coordinates": [-79.093084849, 40.134205819], "type": "Point"}, "id": "LeBZNEVYffkdso060wNS3Gva8ko=", "properties": {"@source_uri": "https://tools.usps.com/UspsToolsRestServices/rest/POLocator/findLocations", "@spider": "usps_collection_boxes", "addr:city": "GRAY", "addr:country": "US", "addr:postcode": "15544", "addr:state": "PA", "addr:street_address": "129 E 1ST ST", "amenity": "post_box", "collection_times": "Mo-Fr 09:50; Sa 10:50", "nsi_id": "unitedstatespostalservice-a77078", "operator": "United States Postal Service", "operator:short": "USPS", "operator:type": "public", "operator:wikidata": "Q668687", "ref": "1554400000"}, "type": "Feature"}
{"geometry": {"coordinates": [-79.093084849, 40.134205819], "type": "Point"}, "id": "JALpstTn3Vj-x3WcEG0F_zR6Mko=", "properties": {"@source_uri": "https://tools.usps.com/UspsToolsRestServices/rest/POLocator/findLocations", "@spider": "usps_collection_boxes", "addr:city": "GRAY", "addr:country": "US", "addr:postcode": "15544", "addr:state": "PA", "addr:street_address": "129 E 1ST ST", "amenity": "post_box", "collection_times": "Mo-Fr 09:50; Sa 10:50", "indoor": "yes", "nsi_id": "unitedstatespostalservice-a77078", "operator": "United States Postal Service", "operator:short": "USPS", "operator:type": "public", "operator:wikidata": "Q668687", "ref": "1554400003"}, "type": "Feature"}
{"geometry": {"coordinates": [-78.720051105, 39.819883998], "type": "Point"}, "id": "E29-8TGt9OdMz96jKFdAPPTi6P0=", "properties": {"@source_uri": "https://tools.usps.com/UspsToolsRestServices/rest/POLocator/findLocations", "@spider": "usps_collection_boxes", "addr:city": "HYNDMAN", "addr:country": "US", "addr:postcode": "15545", "addr:state": "PA", "addr:street_address": "129 WASHINGTON ST", "amenity": "post_box", "collection_times": "Mo-Fr 16:15; Sa 11:30", "note": "ON 12/24 AND 12/31, THIS BOX MAY BE COLLECTED AS EARLY AS 12 NOON.", "nsi_id": "unitedstatespostalservice-a77078", "operator": "United States Postal Service", "operator:short": "USPS", "operator:type": "public", "operator:wikidata": "Q668687", "ref": "1554500000"}, "type": "Feature"}
{"geometry": {"coordinates": [-78.720051105, 39.819883998], "type": "Point"}, "id": "Cgh1QMT7duFk0NV2tfw1_iaOGek=", "properties": {"@source_uri": "https://tools.usps.com/UspsToolsRestServices/rest/POLocator/findLocations", "@spider": "usps_collection_boxes", "addr:city": "HYNDMAN", "addr:country": "US", "addr:postcode": "15545", "addr:state": "PA", "addr:street_address": "129 WASHINGTON ST", "amenity": "post_box", "collection_times": "Mo-Fr 16:15; Sa 11:30", "indoor": "yes", "note": "ON 12/24 AND 12/31, THIS BOX MAY BE COLLECTED AS EARLY AS 12 NOON.", "nsi_id": "unitedstatespostalservice-a77078", "operator": "United States Postal Service", "operator:short": "USPS", "operator:type": "public", "operator:wikidata": "Q668687", "ref": "1554500006"}, "type": "Feature"}
{"geometry": {"coordinates": [-78.720051105, 39.819883998], "type": "Point"}, "id": "XY0vOMw_8QCyvUZiAWvG54p4Q20=", "properties": {"@source_uri": "https://tools.usps.com/UspsToolsRestServices/rest/POLocator/findLocations", "@spider": "usps_collection_boxes", "addr:city": "HYNDMAN", "addr:country": "US", "addr:postcode": "15545", "addr:state": "PA", "addr:street_address": "129 WASHINGTON ST", "amenity": "post_box", "collection_times": "Mo-Fr 16:15; Sa 11:30", "indoor": "yes", "note": "ON 12/24 AND 12/31, THIS BOX MAY BE COLLECTED AS EARLY AS 12 NOON.", "nsi_id": "unitedstatespostalservice-a77078", "operator": "United States Postal Service", "operator:short": "USPS", "operator:type": "public", "operator:wikidata": "Q668687", "ref": "1554500007"}, "type": "Feature"}
{"geometry": {"coordinates": [-79.080029, 40.163711], "type": "Point"}, "id": "yLO9Zkd_WTyCtiyNoXDZX3U2Aio=", "properties": {"@source_uri": "https://tools.usps.com/UspsToolsRestServices/rest/POLocator/findLocations", "@spider": "usps_collection_boxes", "addr:city": "JENNERSTOWN", "addr:country": "US", "addr:postcode": "15547", "addr:state": "PA", "addr:street_address": "1596 PITT ST", "amenity": "post_box", "collection_times": "Mo-Fr 16:30; Sa 11:00", "note": "ON 12/24 AND 12/31, THIS BOX MAY BE COLLECTED AS EARLY AS 12 NOON.", "nsi_id": "unitedstatespostalservice-a77078", "operator": "United States Postal Service", "operator:short": "USPS", "operator:type": "public", "operator:wikidata": "Q668687", "ref": "1554700000"}, "type": "Feature"}
{"geometry": {"coordinates": [-79.080029, 40.163711], "type": "Point"}, "id": "cu_QbFCmbzDlwaD16P6_JboHMPw=", "properties": {"@source_uri": "https://tools.usps.com/UspsToolsRestServices/rest/POLocator/findLocations", "@spider": "usps_collection_boxes", "addr:city": "JENNERSTOWN", "addr:country": "US", "addr:postcode": "15547", "addr:state": "PA", "addr:street_address": "1596 PITT ST", "amenity": "post_box", "collection_times": "Mo-Fr 16:30; Sa 11:00", "indoor": "yes", "note": "ON 12/24 AND 12/31, THIS BOX MAY BE COLLECTED AS EARLY AS 12 NOON.", "nsi_id": "unitedstatespostalservice-a77078", "operator": "United States Postal Service", "operator:short": "USPS", "operator:type": "public", "operator:wikidata": "Q668687", "ref": "1554700001"}, "type": "Feature"}
{"geometry": {"coordinates": [-79.067580014, 40.160310432], "type": "Point"}, "id": "q8CE64DIz8AOR3PwfPkV4tpTNj0=", "properties": {"@source_uri": "https://tools.usps.com/UspsToolsRestServices/rest/POLocator/findLocations", "@spider": "usps_collection_boxes", "addr:city": "JENNERSTOWN", "addr:country": "US", "addr:postcode": "15547", "addr:state": "PA", "addr:street_address": "1596 PITT ST", "amenity": "post_box", "collection_times": "Mo-Fr 16:30; Sa 11:00", "indoor": "yes", "note": "ON 12/24 AND 12/31, THIS BOX MAY BE COLLECTED AS EARLY AS 12 NOON.", "nsi_id": "unitedstatespostalservice-a77078", "operator": "United States Postal Service", "operator:short": "USPS", "operator:type": "public", "operator:wikidata": "Q668687", "ref": "1554700003"}, "type": "Feature"}
{"geometry": {"coordinates": [-78.59015, 40.005115], "type": "Point"}, "id": "2Kg40U78qiSclGRqUCAvlMLTkDU=", "properties": {"@source_uri": "https://tools.usps.com/UspsToolsRestServices/rest/POLocator/findLocations", "@spider": "usps_collection_boxes", "addr:city": "MANNS CHOICE", "addr:country": "US", "addr:postcode": "15550", "addr:state": "PA", "addr:street_address": "1 DOGWOOD LN", "amenity": "post_box", "collection_times": "Mo-Fr 15:00; Sa 11:00", "note": "ON 12/24 AND 12/31, THIS BOX MAY BE COLLECTED AS EARLY AS 12 NOON.", "nsi_id": "unitedstatespostalservice-a77078", "operator": "United States Postal Service", "operator:short": "USPS", "operator:type": "public", "operator:wikidata": "Q668687", "ref": "1555000000"}, "type": "Feature"}
{"geometry": {"coordinates": [-78.590171, 40.005023], "type": "Point"}, "id": "jRY0j-2Qwax_AXZkm2g878QxAyU=", "properties": {"@source_uri": "https://tools.usps.com/UspsToolsRestServices/rest/POLocator/findLocations", "@spider": "usps_collection_boxes", "addr:city": "MANNS CHOICE", "addr:country": "US", "addr:postcode": "15550", "addr:state": "PA", "addr:street_address": "1 DOGWOOD LN", "amenity": "post_box", "collection_times": "Mo-Fr 15:00; Sa 11:00", "indoor": "yes", "note": "ON 12/24 AND 12/31, THIS BOX MAY BE COLLECTED AS EARLY AS 12 NOON.", "nsi_id": "unitedstatespostalservice-a77078", "operator": "United States Postal Service", "operator:short": "USPS", "operator:type": "public", "operator:wikidata": "Q668687", "ref": "1555000001"}, "type": "Feature"}
{"geometry": {"coordinates": [-78.590531107, 40.005999626], "type": "Point"}, "id": "GjhBtacBbOnPrb6gmjh6GtbqZAA=", "properties": {"@source_uri": "https://tools.usps.com/UspsToolsRestServices/rest/POLocator/findLocations", "@spider": "usps_collection_boxes", "addr:city": "MANNS CHOICE", "addr:country": "US", "addr:postcode": "15550", "addr:state": "PA", "addr:street_address": "1 DOGWOOD LN", "amenity": "post_box", "collection_times": "Mo-Fr 15:00; Sa 11:00", "indoor": "yes", "note": "ON 12/24 AND 12/31, THIS BOX MAY BE COLLECTED AS EARLY AS 12 NOON.", "nsi_id": "unitedstatespostalservice-a77078", "operator": "United States Postal Service", "operator:short": "USPS", "operator:type": "public", "operator:wikidata": "Q668687", "ref": "1555000003"}, "type": "Feature"}
{"geometry": {"coordinates": [-79.22904, 39.859924], "type": "Point"}, "id": "938T20MdwzDgF7zWpJkiMNsBnEk=", "properties": {"@source_uri": "https://tools.usps.com/UspsToolsRestServices/rest/POLocator/findLocations", "@spider": "usps_collection_boxes", "addr:city": "MARKLETON", "addr:country": "US", "addr:postcode": "15551", "addr:state": "PA", "addr:street_address": "1099 MARKLETON SCHOOL RD", "amenity": "post_box", "collection_times": "Mo-Fr 11:55; Sa 10:45", "nsi_id": "unitedstatespostalservice-a77078", "operator": "United States Postal Service", "operator:short": "USPS", "operator:type": "public", "operator:wikidata": "Q668687", "ref": "1555100000"}, "type": "Feature"}
{"geometry": {"coordinates": [-79.22904, 39.859924], "type": "Point"}, "id": "nWOhexOWNnM8vda4ewSKUNrIBfc=", "properties": {"@source_uri": "https://tools.usps.com/UspsToolsRestServices/rest/POLocator/findLocations", "@spider": "usps_collection_boxes", "addr:city": "MARKLETON", "addr:country": "US", "addr:postcode": "15551", "addr:state": "PA", "addr:street_address": "1099 MARKLETON SCHOOL RD", "amenity": "post_box", "collection_times": "Mo-Fr 11:55; Sa 10:45", "indoor": "yes", "nsi_id": "unitedstatespostalservice-a77078", "operator": "United States Postal Service", "operator:short": "USPS", "operator:type": "public", "operator:wikidata": "Q668687", "ref": "1555100001"}, "type": "Feature"}
{"geometry": {"coordinates": [-79.229089175, 39.859891974], "type": "Point"}, "id": "Hu0Y3grojp-b7uZyuiuq9EZ0wd0=", "properties": {"@source_uri": "https://tools.usps.com/UspsToolsRestServices/rest/POLocator/findLocations", "@spider": "usps_collection_boxes", "addr:city": "MARKLETON", "addr:country": "US", "addr:postcode": "15551", "addr:state": "PA", "addr:street_address": "1099 MARKLETON SCHOOL RD", "amenity": "post_box", "collection_times": "Mo-Fr 11:55; Sa 10:55", "indoor": "yes", "nsi_id": "unitedstatespostalservice-a77078", "operator": "United States Postal Service", "operator:short": "USPS", "operator:type": "public", "operator:wikidata": "Q668687", "ref": "1555100003"}, "type": "Feature"}
{"geometry": {"coordinates": [-79.026042, 39.815547], "type": "Point"}, "id": "30rxgF5lvHn_EsePuqBqeMMG3XY=", "properties": {"@source_uri": "https://tools.usps.com/UspsToolsRestServices/rest/POLocator/findLocations", "@spider": "usps_collection_boxes", "addr:city": "MEYERSDALE", "addr:country": "US", "addr:postcode": "15552", "addr:state": "PA", "addr:street_address": "239 CENTER ST", "amenity": "post_box", "collection_times": "Mo-Fr 16:30; Sa 15:45", "note": "ON 12/24 AND 12/31, THIS BOX MAY BE COLLECTED AS EARLY AS 12 NOON.", "nsi_id": "unitedstatespostalservice-a77078", "operator": "United States Postal Service", "operator:short": "USPS", "operator:type": "public", "operator:wikidata": "Q668687", "ref": "1555200012"}, "type": "Feature"}
{"geometry": {"coordinates": [-79.025983, 39.815499], "type": "Point"}, "id": "K1RsEEaFI_h-yCSlNh6Af19Bsd0=", "properties": {"@source_uri": "https://tools.usps.com/UspsToolsRestServices/rest/POLocator/findLocations", "@spider": "usps_collection_boxes", "addr:city": "MEYERSDALE", "addr:country": "US", "addr:postcode": "15552", "addr:state": "PA", "addr:street_address": "239 CENTER ST", "amenity": "post_box", "collection_times": "Mo-Fr 16:45; Sa 15:45", "indoor": "yes", "note": "ON 12/24 AND 12/31, THIS BOX MAY BE COLLECTED AS EARLY AS 12 NOON.", "nsi_id": "unitedstatespostalservice-a77078", "operator": "United States Postal Service", "operator:short": "USPS", "operator:type": "public", "operator:wikidata": "Q668687", "ref": "1555200016"}, "type": "Feature"}
{"geometry": {"coordinates": [-79.026152897, 39.8157851], "type": "Point"}, "id": "xkNcT6BP06LUHk-3eqoRr4z9m5s=", "properties": {"@source_uri": "https://tools.usps.com/UspsToolsRestServices/rest/POLocator/findLocations", "@spider": "usps_collection_boxes", "addr:city": "MEYERSDALE", "addr:country": "US", "addr:postcode": "15552", "addr:state": "PA", "addr:street_address": "239 CENTER ST", "amenity": "post_box", "collection_times": "Mo-Fr 16:30; Sa 12:00", "indoor": "yes", "note": "ON 12/24 AND 12/31, THIS BOX MAY BE COLLECTED AS EARLY AS 12 NOON.", "nsi_id": "unitedstatespostalservice-a77078", "operator": "United States Postal Service", "operator:short": "USPS", "operator:type": "public", "operator:wikidata": "Q668687", "ref": "1555200018"}, "type": "Feature"}
{"geometry": {"coordinates": [-78.7650039786, 39.9797599902], "type": "Point"}, "id": "RSopEsokkW0d9GM5XzSe_cxVeQ0=", "properties": {"@source_uri": "https://tools.usps.com/UspsToolsRestServices/rest/POLocator/findLocations", "@spider": "usps_collection_boxes", "addr:city": "NEW BALTIMORE", "addr:country": "US", "addr:postcode": "15553", "addr:state": "PA", "addr:street_address": "526 JUNIATA ST", "amenity": "post_box", "collection_times": "Mo-Sa 10:30", "nsi_id": "unitedstatespostalservice-a77078", "operator": "United States Postal Service", "operator:short": "USPS", "operator:type": "public", "operator:wikidata": "Q668687", "ref": "1555300000"}, "type": "Feature"}
{"geometry": {"coordinates": [-78.646955, 40.102902], "type": "Point"}, "id": "mpQVCUErpsxli62MCl3coEMXcbg=", "properties": {"@source_uri": "https://tools.usps.com/UspsToolsRestServices/rest/POLocator/findLocations", "@spider": "usps_collection_boxes", "addr:city": "NEW PARIS", "addr:country": "US", "addr:postcode": "15554", "addr:state": "PA", "addr:street_address": "3822 CORTLAND RD", "amenity": "post_box", "collection_times": "Mo-Fr 11:55; Sa 11:30", "nsi_id": "unitedstatespostalservice-a77078", "operator": "United States Postal Service", "operator:short": "USPS", "operator:type": "public", "operator:wikidata": "Q668687", "ref": "1555400000"}, "type": "Feature"}
{"geometry": {"coordinates": [-78.646999, 40.10289], "type": "Point"}, "id": "KLcjLgSlh8QA0L02WhpEW0x2Bnw=", "properties": {"@source_uri": "https://tools.usps.com/UspsToolsRestServices/rest/POLocator/findLocations", "@spider": "usps_collection_boxes", "addr:city": "NEW PARIS", "addr:country": "US", "addr:postcode": "15554", "addr:state": "PA", "addr:street_address": "3822 CORTLAND RD", "amenity": "post_box", "collection_times": "Mo-Fr 11:55; Sa 11:30", "indoor": "yes", "nsi_id": "unitedstatespostalservice-a77078", "operator": "United States Postal Service", "operator:short": "USPS", "operator:type": "public", "operator:wikidata": "Q668687", "ref": "1555400001"}, "type": "Feature"}
{"geometry": {"coordinates": [-78.646545929, 40.103681522], "type": "Point"}, "id": "z5T8V85lyueJuDGS5dGBkmdA4uk=", "properties": {"@source_uri": "https://tools.usps.com/UspsToolsRestServices/rest/POLocator/findLocations", "@spider": "usps_collection_boxes", "addr:city": "NEW PARIS", "addr:country": "US", "addr:postcode": "15554", "addr:state": "PA", "addr:street_address": "3822 CORTLAND RD", "amenity": "post_box", "collection_times": "Mo-Fr 11:55; Sa 11:25", "indoor": "yes", "nsi_id": "unitedstatespostalservice-a77078", "operator": "United States Postal Service", "operator:short": "USPS", "operator:type": "public", "operator:wikidata": "Q668687", "ref": "1555400003"}, "type": "Feature"}
{"geometry": {"coordinates": [-79.152609, 39.915375], "type": "Point"}, "id": "zgl142PM3PQ-fh0aWQpPQAn14Ic=", "properties": {"@source_uri": "https://tools.usps.com/UspsToolsRestServices/rest/POLocator/findLocations", "@spider": "usps_collection_boxes", "addr:city": "ROCKWOOD", "addr:country": "US", "addr:postcode": "15557", "addr:state": "PA", "addr:street_address": "690 MAIN ST", "amenity": "post_box", "collection_times": "Mo-Fr 16:45; Sa 15:45", "note": "ON 12/24 AND 12/31, THIS BOX MAY BE COLLECTED AS EARLY AS 12 NOON.", "nsi_id": "unitedstatespostalservice-a77078", "operator": "United States Postal Service", "operator:short": "USPS", "operator:type": "public", "operator:wikidata": "Q668687", "ref": "1555700000"}, "type": "Feature"}
{"geometry": {"coordinates": [-79.152578, 39.915451], "type": "Point"}, "id": "5pML3xr8mDD9ry3hKWkbzvqIZnI=", "properties": {"@source_uri": "https://tools.usps.com/UspsToolsRestServices/rest/POLocator/findLocations", "@spider": "usps_collection_boxes", "addr:city": "ROCKWOOD", "addr:country": "US", "addr:postcode": "15557", "addr:state": "PA", "addr:street_address": "690 MAIN ST", "amenity": "post_box", "collection_times": "Mo-Fr 16:45; Sa 15:45", "indoor": "yes", "note": "ON 12/24 AND 12/31, THIS BOX MAY BE COLLECTED AS EARLY AS 12 NOON.", "nsi_id": "unitedstatespostalservice-a77078", "operator": "United States Postal Service", "operator:short": "USPS", "operator:type": "public", "operator:wikidata": "Q668687", "ref": "1555700001"}, "type": "Feature"}
{"geometry": {"coordinates": [-79.152578152, 39.915407138], "type": "Point"}, "id": "OV3f28x_2rwZ2CYtBnGotVtAuoY=", "properties": {"@source_uri": "https://tools.usps.com/UspsToolsRestServices/rest/POLocator/findLocations", "@spider": "usps_collection_boxes", "addr:city": "ROCKWOOD", "addr:country": "US", "addr:postcode": "15557", "addr:state": "PA", "addr:street_address": "690 MAIN ST", "amenity": "post_box", "collection_times": "Mo-Fr 16:45; Sa 12:00", "indoor": "yes", "note": "ON 12/24 AND 12/31, THIS BOX MAY BE COLLECTED AS EARLY AS 12 NOON.", "nsi_id": "unitedstatespostalservice-a77078", "operator": "United States Postal Service", "operator:short": "USPS", "operator:type": "public", "operator:wikidata": "Q668687", "ref": "1555700003"}, "type": "Feature"}
{"geometry": {"coordinates": [-79.081456, 39.75305], "type": "Point"}, "id": "q9svpy9iBKQowRGUSqmZRuTL0Og=", "properties": {"@source_uri": "https://tools.usps.com/UspsToolsRestServices/rest/POLocator/findLocations", "@spider": "usps_collection_boxes", "addr:city": "SALISBURY", "addr:country": "US", "addr:postcode": "15558", "addr:state": "PA", "addr:street_address": "96 GRANT ST", "amenity": "post_box", "collection_times": "Mo-Fr 16:00; Sa 12:00", "note": "ON 12/24 AND 12/31, THIS BOX MAY BE COLLECTED AS EARLY AS 12 NOON.", "nsi_id": "unitedstatespostalservice-a77078", "operator": "United States Postal Service", "operator:short": "USPS", "operator:type": "public", "operator:wikidata": "Q668687", "ref": "1555800000"}, "type": "Feature"}
{"geometry": {"coordinates": [-79.08162, 39.752969], "type": "Point"}, "id": "FE7RcYSJVjja0eGbaX1CMKe-jfw=", "properties": {"@source_uri": "https://tools.usps.com/UspsToolsRestServices/rest/POLocator/findLocations", "@spider": "usps_collection_boxes", "addr:city": "SALISBURY", "addr:country": "US", "addr:postcode": "15558", "addr:state": "PA", "addr:street_address": "96 GRANT ST", "amenity": "post_box", "collection_times": "Mo-Fr 16:00; Sa 12:00", "indoor": "yes", "note": "ON 12/24 AND 12/31, THIS BOX MAY BE COLLECTED AS EARLY AS 12 NOON.", "nsi_id": "unitedstatespostalservice-a77078", "operator": "United States Postal Service", "operator:short": "USPS", "operator:type": "public", "operator:wikidata": "Q668687", "ref": "1555800001"}, "type": "Feature"}
{"geometry": {"coordinates": [-79.081495679, 39.752945141], "type": "Point"}, "id": "tVSrWw8g3O11jGWkdzGdoHlt-Gs=", "properties": {"@source_uri": "https://tools.usps.com/UspsToolsRestServices/rest/POLocator/findLocations", "@spider": "usps_collection_boxes", "addr:city": "SALISBURY", "addr:country": "US", "addr:postcode": "15558", "addr:state": "PA", "addr:street_address": "96 GRANT ST", "amenity": "post_box", "collection_times": "Mo-Fr 16:00; Sa 12:00", "indoor": "yes", "note": "ON 12/24 AND 12/31, THIS BOX MAY BE COLLECTED AS EARLY AS 12 NOON.", "nsi_id": "unitedstatespostalservice-a77078", "operator": "United States Postal Service", "operator:short": "USPS", "operator:type": "public", "operator:wikidata": "Q668687", "ref": "1555800003"}, "type": "Feature"}
{"geometry": {"coordinates": [-78.6353399598, 40.048771007], "type": "Point"}, "id": "PU_3yDNtTwyPRVChMZ6Iy-iowTs=", "properties": {"@source_uri": "https://tools.usps.com/UspsToolsRestServices/rest/POLocator/findLocations", "@spider": "usps_collection_boxes", "addr:city": "SCHELLSBURG", "addr:country": "US", "addr:postcode": "15559", "addr:state": "PA", "addr:street_address": "3966 LINCOLN HWY", "amenity": "post_box", "collection_times": "Mo-Fr 12:00; Sa 11:00", "nsi_id": "unitedstatespostalservice-a77078", "operator": "United States Postal Service", "operator:short": "USPS", "operator:type": "public", "operator:wikidata": "Q668687", "ref": "1555900000"}, "type": "Feature"}
{"geometry": {"coordinates": [-78.908818, 40.016835], "type": "Point"}, "id": "EuFjzmEOiNsP1SH1jtMl2hs3dxA=", "properties": {"@source_uri": "https://tools.usps.com/UspsToolsRestServices/rest/POLocator/findLocations", "@spider": "usps_collection_boxes", "addr:city": "SHANKSVILLE", "addr:country": "US", "addr:postcode": "15560", "addr:state": "PA", "addr:street_address": "442 STUTZMANTOWN RD", "amenity": "post_box", "collection_times": "Mo-Fr 11:55; Sa 10:30", "nsi_id": "unitedstatespostalservice-a77078", "operator": "United States Postal Service", "operator:short": "USPS", "operator:type": "public", "operator:wikidata": "Q668687", "ref": "1556000000"}, "type": "Feature"}
{"geometry": {"coordinates": [-78.908793, 40.016858], "type": "Point"}, "id": "t0hGewDuQQzCqZI3MTeZav2S8Vw=", "properties": {"@source_uri": "https://tools.usps.com/UspsToolsRestServices/rest/POLocator/findLocations", "@spider": "usps_collection_boxes", "addr:city": "SHANKSVILLE", "addr:country": "US", "addr:postcode": "15560", "addr:state": "PA", "addr:street_address": "442 STUTZMANTOWN RD", "amenity": "post_box", "collection_times": "Mo-Fr 11:55; Sa 10:30", "indoor": "yes", "nsi_id": "unitedstatespostalservice-a77078", "operator": "United States Postal Service", "operator:short": "USPS", "operator:type": "public", "operator:wikidata": "Q668687", "ref": "1556000001"}, "type": "Feature"}
{"geometry": {"coordinates": [-78.909407533, 40.016937805], "type": "Point"}, "id": "GoMP6M8aLuZ2vQR7pDLi7mARedA=", "properties": {"@source_uri": "https://tools.usps.com/UspsToolsRestServices/rest/POLocator/findLocations", "@spider": "usps_collection_boxes", "addr:city": "SHANKSVILLE", "addr:country": "US", "addr:postcode": "15560", "addr:state": "PA", "addr:street_address": "442 STUTZMANTOWN RD", "amenity": "post_box", "collection_times": "Mo-Fr 11:55; Sa 10:25", "indoor": "yes", "nsi_id": "unitedstatespostalservice-a77078", "operator": "United States Postal Service", "operator:short": "USPS", "operator:type": "public", "operator:wikidata": "Q668687", "ref": "1556000003"}, "type": "Feature"}
{"geometry": {"coordinates": [-79.092128, 40.098193], "type": "Point"}, "id": "FWim8r0rgj9z-vOkQhCJVA9Tzqo=", "properties": {"@source_uri": "https://tools.usps.com/UspsToolsRestServices/rest/POLocator/findLocations", "@spider": "usps_collection_boxes", "addr:city": "SIPESVILLE", "addr:country": "US", "addr:postcode": "15561", "addr:state": "PA", "addr:street_address": "601 SIPESVILLE RD", "amenity": "post_box", "collection_times": "Mo-Fr 12:55; Sa 10:45", "note": "ON 12/24 AND 12/31, THIS BOX MAY BE COLLECTED AS EARLY AS 12 NOON.", "nsi_id": "unitedstatespostalservice-a77078", "operator": "United States Postal Service", "operator:short": "USPS", "operator:type": "public", "operator:wikidata": "Q668687", "ref": "1556100000"}, "type": "Feature"}
{"geometry": {"coordinates": [-79.092059, 40.09824], "type": "Point"}, "id": "EiabbuxheGiIJdPJiOS9-gS_XKo=", "properties": {"@source_uri": "https://tools.usps.com/UspsToolsRestServices/rest/POLocator/findLocations", "@spider": "usps_collection_boxes", "addr:city": "SIPESVILLE", "addr:country": "US", "addr:postcode": "15561", "addr:state": "PA", "addr:street_address": "601 SIPESVILLE RD", "amenity": "post_box", "collection_times": "Mo-Fr 12:55; Sa 10:45", "indoor": "yes", "note": "ON 12/24 AND 12/31, THIS BOX MAY BE COLLECTED AS EARLY AS 12 NOON.", "nsi_id": "unitedstatespostalservice-a77078", "operator": "United States Postal Service", "operator:short": "USPS", "operator:type": "public", "operator:wikidata": "Q668687", "ref": "1556100001"}, "type": "Feature"}
{"geometry": {"coordinates": [-79.091979091, 40.098422588], "type": "Point"}, "id": "6_lUd5Nnu003_u6Zkzcwn9lEXJg=", "properties": {"@source_uri": "https://tools.usps.com/UspsToolsRestServices/rest/POLocator/findLocations", "@spider": "usps_collection_boxes", "addr:city": "SIPESVILLE", "addr:country": "US", "addr:postcode": "15561", "addr:state": "PA", "addr:street_address": "601 SIPESVILLE RD", "amenity": "post_box", "collection_times": "Mo-Fr 12:55; Sa 10:40", "indoor": "yes", "note": "ON 12/24 AND 12/31, THIS BOX MAY BE COLLECTED AS EARLY AS 12 NOON.", "nsi_id": "unitedstatespostalservice-a77078", "operator": "United States Postal Service", "operator:short": "USPS", "operator:type": "public", "operator:wikidata": "Q668687", "ref": "1556100003"}, "type": "Feature"}
{"geometry": {"coordinates": [-79.150039, 39.732845], "type": "Point"}, "id": "4uNXoKYoTiVU-DewUKA83Zx--G8=", "properties": {"@source_uri": "https://tools.usps.com/UspsToolsRestServices/rest/POLocator/findLocations", "@spider": "usps_collection_boxes", "addr:city": "SPRINGS", "addr:country": "US", "addr:postcode": "15562", "addr:state": "PA", "addr:street_address": "1740 SPRINGS RD", "amenity": "post_box", "collection_times": "Mo-Fr 12:25; Sa 10:30", "note": "ON 12/24 AND 12/31, THIS BOX MAY BE COLLECTED AS EARLY AS 12 NOON.", "nsi_id": "unitedstatespostalservice-a77078", "operator": "United States Postal Service", "operator:short": "USPS", "operator:type": "public", "operator:wikidata": "Q668687", "ref": "1556200000"}, "type": "Feature"}
{"geometry": {"coordinates": [-79.149968, 39.732851], "type": "Point"}, "id": "52QygGYVVLkl4vnveBJLSAdBGfI=", "properties": {"@source_uri": "https://tools.usps.com/UspsToolsRestServices/rest/POLocator/findLocations", "@spider": "usps_collection_boxes", "addr:city": "SPRINGS", "addr:country": "US", "addr:postcode": "15562", "addr:state": "PA", "addr:street_address": "1740 SPRINGS RD", "amenity": "post_box", "collection_times": "Mo-Fr 12:25; Sa 10:30", "indoor": "yes", "note": "ON 12/24 AND 12/31, THIS BOX MAY BE COLLECTED AS EARLY AS 12 NOON.", "nsi_id": "unitedstatespostalservice-a77078", "operator": "United States Postal Service", "operator:short": "USPS", "operator:type": "public", "operator:wikidata": "Q668687", "ref": "1556200001"}, "type": "Feature"}
{"geometry": {"coordinates": [-79.149596547, 39.733085587], "type": "Point"}, "id": "EHP4np-I56PDN60FxmATK3oZH-8=", "properties": {"@source_uri": "https://tools.usps.com/UspsToolsRestServices/rest/POLocator/findLocations", "@spider": "usps_collection_boxes", "addr:city": "SPRINGS", "addr:country": "US", "addr:postcode": "15562", "addr:state": "PA", "addr:street_address": "1740 SPRINGS RD", "amenity": "post_box", "collection_times": "Mo-Fr 12:25; Sa 10:25", "indoor": "yes", "note": "ON 12/24 AND 12/31, THIS BOX MAY BE COLLECTED AS EARLY AS 12 NOON.", "nsi_id": "unitedstatespostalservice-a77078", "operator": "United States Postal Service", "operator:short": "USPS", "operator:type": "public", "operator:wikidata": "Q668687", "ref": "1556200003"}, "type": "Feature"}
{"geometry": {"coordinates": [-78.955406, 40.104077], "type": "Point"}, "id": "87vbqMgfGUABokkgYlTr5RfcU4c=", "properties": {"@source_uri": "https://tools.usps.com/UspsToolsRestServices/rest/POLocator/findLocations", "@spider": "usps_collection_boxes", "addr:city": "STOYSTOWN", "addr:country": "US", "addr:postcode": "15563", "addr:state": "PA", "addr:street_address": "209 W MAIN ST", "amenity": "post_box", "collection_times": "Mo-Fr 15:00; Sa 11:30", "note": "ON 12/24 AND 12/31, THIS BOX MAY BE COLLECTED AS EARLY AS 12 NOON.", "nsi_id": "unitedstatespostalservice-a77078", "operator": "United States Postal Service", "operator:short": "USPS", "operator:type": "public", "operator:wikidata": "Q668687", "ref": "1556300000"}, "type": "Feature"}
{"geometry": {"coordinates": [-78.955351, 40.104009], "type": "Point"}, "id": "-kXoYQLn2uPuKEO11GImsDsFpnA=", "properties": {"@source_uri": "https://tools.usps.com/UspsToolsRestServices/rest/POLocator/findLocations", "@spider": "usps_collection_boxes", "addr:city": "STOYSTOWN", "addr:country": "US", "addr:postcode": "15563", "addr:state": "PA", "addr:street_address": "209 W MAIN ST", "amenity": "post_box", "collection_times": "Mo-Fr 15:00; Sa 11:30", "indoor": "yes", "note": "ON 12/24 AND 12/31, THIS BOX MAY BE COLLECTED AS EARLY AS 12 NOON.", "nsi_id": "unitedstatespostalservice-a77078", "operator": "United States Postal Service", "operator:short": "USPS", "operator:type": "public", "operator:wikidata": "Q668687", "ref": "1556300001"}, "type": "Feature"}
{"geometry": {"coordinates": [-78.955606981, 40.104188968], "type": "Point"}, "id": "rfZjAdBRebNddo98F8XXEx953Ko=", "properties": {"@source_uri": "https://tools.usps.com/UspsToolsRestServices/rest/POLocator/findLocations", "@spider": "usps_collection_boxes", "addr:city": "STOYSTOWN", "addr:country": "US", "addr:postcode": "15563", "addr:state": "PA", "addr:street_address": "209 W MAIN ST", "amenity": "post_box", "collection_times": "Mo-Fr 15:00; Sa 11:15", "indoor": "yes", "note": "ON 12/24 AND 12/31, THIS BOX MAY BE COLLECTED AS EARLY AS 12 NOON.", "nsi_id": "unitedstatespostalservice-a77078", "operator": "United States Postal Service", "operator:short": "USPS", "operator:type": "public", "operator:wikidata": "Q668687", "ref": "1556300003"}, "type": "Feature"}
