{"dataset_attributes": {"@spider": "usps_collection_boxes"}, "geometry": {"coordinates": [-76.414676, 40.096837], "type": "Point"}, "id": "0N9evkj6o4taqYX-94-PdosQplQ=", "properties": {"@spider": "usps_collection_boxes", "addr:city": "SALINA", "addr:country": "US", "addr:full": "194 MAIN ST", "addr:postcode": "15680", "addr:state": "PA", "amenity": "post_box", "brand": "United States Postal Service", "brand:wikidata": "Q668687", "collection_times": "Mo-Fr 11:55; Sa 11:30", "name": "USPS COLLECTION BOX - BLUE BOX", "nsi_id": "unitedstatespostalservice-a77078", "operator": "United States Postal Service", "operator:short": "USPS", "operator:type": "public", "operator:wikidata": "Q668687", "ref": "1568000001"}, "type": "Feature"}
{"dataset_attributes": {"@spider": "usps_collection_boxes"}, "geometry": {"coordinates": [-76.414676, 40.096837], "type": "Point"}, "id": "CZS8ztpHqr1v6Nrhml0ece5d_Z8=", "properties": {"@spider": "usps_collection_boxes", "addr:city": "SALINA", "addr:country": "US", "addr:full": "194 MAIN ST LBBY", "addr:postcode": "15680", "addr:state": "PA", "amenity": "post_box", "brand": "United States Postal Service", "brand:wikidata": "Q668687", "collection_times": "Mo-Fr 11:55; Sa 11:30", "name": "USPS COLLECTION BOX - PO LOBBY", "nsi_id": "unitedstatespostalservice-a77078", "operator": "United States Postal Service", "operator:short": "USPS", "operator:type": "public", "operator:wikidata": "Q668687", "ref": "1568000002"}, "type": "Feature"}
