{"dataset_attributes": {"@spider": "usps_collection_boxes", "spider:collection_time": "2024-01-04T08:25:05.301423"}, "geometry": {"coordinates": [-79.15331, 40.622024], "type": "Point"}, "id": "x0laf8xs1O4Qe-IObQ-LHewUd_s=", "properties": {"@spider": "usps_collection_boxes", "addr:city": "INDIANA", "addr:country": "US", "addr:full": "47 S 7TH ST", "addr:postcode": "15701", "addr:state": "PA", "amenity": "post_box", "brand": "United States Postal Service", "brand:wikidata": "Q668687", "collection_times": "Mo-Sa 17:15", "name": "USPS COLLECTION BOX - BLUE BOX", "note": "ON 12/24 AND 12/31, THIS BOX MAY BE COLLECTED AS EARLY AS 12 NOON.", "nsi_id": "unitedstatespostalservice-a77078", "operator": "United States Postal Service", "operator:short": "USPS", "operator:type": "public", "operator:wikidata": "Q668687", "ref": "1570100001"}, "type": "Feature"}
{"dataset_attributes": {"@spider": "usps_collection_boxes", "spider:collection_time": "2024-01-04T08:25:05.301423"}, "geometry": {"coordinates": [-79.153458, 40.62223], "type": "Point"}, "id": "JW4JcTYcYamLJbsEZBRD1FPZbXE=", "properties": {"@spider": "usps_collection_boxes", "addr:city": "INDIANA", "addr:country": "US", "addr:full": "700 GOMPERS AVE", "addr:postcode": "15701", "addr:state": "PA", "amenity": "post_box", "brand": "United States Postal Service", "brand:wikidata": "Q668687", "collection_times": "Mo-Sa 17:15", "name": "USPS COLLECTION BOX - BLUE BOX", "note": "ON 12/24 AND 12/31, THIS BOX MAY BE COLLECTED AS EARLY AS 12 NOON.", "nsi_id": "unitedstatespostalservice-a77078", "operator": "United States Postal Service", "operator:short": "USPS", "operator:type": "public", "operator:wikidata": "Q668687", "ref": "1570100002"}, "type": "Feature"}
{"dataset_attributes": {"@spider": "usps_collection_boxes", "spider:collection_time": "2024-01-04T08:25:05.301423"}, "geometry": {"coordinates": [-79.153458, 40.622231], "type": "Point"}, "id": "w3cSXvJg2m7zQ-U7yA35lbmAiTE=", "properties": {"@spider": "usps_collection_boxes", "addr:city": "INDIANA", "addr:country": "US", "addr:full": "700 GOMPERS AVE", "addr:postcode": "15701", "addr:state": "PA", "amenity": "post_box", "brand": "United States Postal Service", "brand:wikidata": "Q668687", "collection_times": "Mo-Sa 17:15", "name": "USPS COLLECTION BOX - BLUE BOX", "note": "ON 12/24 AND 12/31, THIS BOX MAY BE COLLECTED AS EARLY AS 12 NOON.", "nsi_id": "unitedstatespostalservice-a77078", "operator": "United States Postal Service", "operator:short": "USPS", "operator:type": "public", "operator:wikidata": "Q668687", "ref": "1570100003"}, "type": "Feature"}
{"dataset_attributes": {"@spider": "usps_collection_boxes", "spider:collection_time": "2024-01-04T08:25:05.301423"}, "geometry": {"coordinates": [-79.153458, 40.622231], "type": "Point"}, "id": "pkWsEcvkYZywgK9F14kIDwJV-0k=", "properties": {"@spider": "usps_collection_boxes", "addr:city": "INDIANA", "addr:country": "US", "addr:full": "700 GOMPERS AVE", "addr:postcode": "15701", "addr:state": "PA", "amenity": "post_box", "brand": "United States Postal Service", "brand:wikidata": "Q668687", "collection_times": "Mo-Sa 17:15", "name": "USPS COLLECTION BOX - BLUE BOX", "note": "ON 12/24 AND 12/31, THIS BOX MAY BE COLLECTED AS EARLY AS 12 NOON.", "nsi_id": "unitedstatespostalservice-a77078", "operator": "United States Postal Service", "operator:short": "USPS", "operator:type": "public", "operator:wikidata": "Q668687", "ref": "1570100004"}, "type": "Feature"}
{"dataset_attributes": {"@spider": "usps_collection_boxes", "spider:collection_time": "2024-01-04T08:25:05.301423"}, "geometry": {"coordinates": [-79.153458, 40.622231], "type": "Point"}, "id": "R458CDaw58D0albLDazcp9e64sU=", "properties": {"@spider": "usps_collection_boxes", "addr:city": "INDIANA", "addr:country": "US", "addr:full": "700 GOMPERS AVE", "addr:postcode": "15701", "addr:state": "PA", "amenity": "post_box", "brand": "United States Postal Service", "brand:wikidata": "Q668687", "collection_times": "Mo-Sa 17:15", "name": "USPS COLLECTION BOX - BLUE BOX", "note": "ON 12/24 AND 12/31, THIS BOX MAY BE COLLECTED AS EARLY AS 12 NOON.", "nsi_id": "unitedstatespostalservice-a77078", "operator": "United States Postal Service", "operator:short": "USPS", "operator:type": "public", "operator:wikidata": "Q668687", "ref": "1570100005"}, "type": "Feature"}
{"dataset_attributes": {"@spider": "usps_collection_boxes", "spider:collection_time": "2024-01-04T08:25:05.301423"}, "geometry": {"coordinates": [-79.1509494, 40.622864], "type": "Point"}, "id": "G54gD0_SESpsUDYRyhViEl0XyRE=", "properties": {"@spider": "usps_collection_boxes", "addr:city": "INDIANA", "addr:country": "US", "addr:full": "600 PHILADELPHIA ST", "addr:postcode": "15701", "addr:state": "PA", "amenity": "post_box", "brand": "United States Postal Service", "brand:wikidata": "Q668687", "collection_times": "Mo-Fr 16:45; Sa 14:15", "name": "USPS COLLECTION BOX - BLUE BOX", "note": "ON 12/24 AND 12/31, THIS BOX MAY BE COLLECTED AS EARLY AS 12 NOON.", "nsi_id": "unitedstatespostalservice-a77078", "operator": "United States Postal Service", "operator:short": "USPS", "operator:type": "public", "operator:wikidata": "Q668687", "ref": "1570100010"}, "type": "Feature"}
{"dataset_attributes": {"@spider": "usps_collection_boxes", "spider:collection_time": "2024-01-04T08:25:05.301423"}, "geometry": {"coordinates": [-79.1457149, 40.630732], "type": "Point"}, "id": "kA1kMY35CLzuUFfdXDOqu8YCIjM=", "properties": {"@spider": "usps_collection_boxes", "addr:city": "INDIANA", "addr:country": "US", "addr:full": "420 N 4TH ST", "addr:postcode": "15701", "addr:state": "PA", "amenity": "post_box", "brand": "United States Postal Service", "brand:wikidata": "Q668687", "collection_times": "Mo-Fr 15:45; Sa 14:15", "name": "USPS COLLECTION BOX - BLUE BOX", "note": "ON 12/24 AND 12/31, THIS BOX MAY BE COLLECTED AS EARLY AS 12 NOON.", "nsi_id": "unitedstatespostalservice-a77078", "operator": "United States Postal Service", "operator:short": "USPS", "operator:type": "public", "operator:wikidata": "Q668687", "ref": "1570100014"}, "type": "Feature"}
{"dataset_attributes": {"@spider": "usps_collection_boxes", "spider:collection_time": "2024-01-04T08:25:05.301423"}, "geometry": {"coordinates": [-79.153371, 40.617282], "type": "Point"}, "id": "lq3r2p0T1Fw3eWXeG8gdapuUO74=", "properties": {"@spider": "usps_collection_boxes", "addr:city": "INDIANA", "addr:country": "US", "addr:full": "435 S 7TH ST", "addr:postcode": "15701", "addr:state": "PA", "amenity": "post_box", "brand": "United States Postal Service", "brand:wikidata": "Q668687", "collection_times": "Mo-Fr 14:30; Sa 13:15", "name": "USPS COLLECTION BOX - BLUE BOX", "note": "ON 12/24 AND 12/31, THIS BOX MAY BE COLLECTED AS EARLY AS 12 NOON.", "nsi_id": "unitedstatespostalservice-a77078", "operator": "United States Postal Service", "operator:short": "USPS", "operator:type": "public", "operator:wikidata": "Q668687", "ref": "1570100019"}, "type": "Feature"}
{"dataset_attributes": {"@spider": "usps_collection_boxes", "spider:collection_time": "2024-01-04T08:25:05.301423"}, "geometry": {"coordinates": [-79.1625212, 40.616625], "type": "Point"}, "id": "243iJPu8MlGic-X13DFgKZJuAAk=", "properties": {"@spider": "usps_collection_boxes", "addr:city": "INDIANA", "addr:country": "US", "addr:full": "1156 GRANT ST", "addr:postcode": "15701", "addr:state": "PA", "amenity": "post_box", "brand": "United States Postal Service", "brand:wikidata": "Q668687", "collection_times": "Mo-Sa 10:30", "name": "USPS COLLECTION BOX - BLUE BOX", "nsi_id": "unitedstatespostalservice-a77078", "operator": "United States Postal Service", "operator:short": "USPS", "operator:type": "public", "operator:wikidata": "Q668687", "ref": "1570100020"}, "type": "Feature"}
{"dataset_attributes": {"@spider": "usps_collection_boxes", "spider:collection_time": "2024-01-04T08:25:05.301423"}, "geometry": {"coordinates": [-79.1715433, 40.615555], "type": "Point"}, "id": "tL1O7Vn_VZhpK8dkmP3lrhrBObk=", "properties": {"@spider": "usps_collection_boxes", "addr:city": "INDIANA", "addr:country": "US", "addr:full": "1544 OAKLAND AVE", "addr:postcode": "15701", "addr:state": "PA", "amenity": "post_box", "brand": "United States Postal Service", "brand:wikidata": "Q668687", "collection_times": "Mo-Fr 15:00; Sa 14:00", "name": "USPS COLLECTION BOX - BLUE BOX", "note": "ON 12/24 AND 12/31, THIS BOX MAY BE COLLECTED AS EARLY AS 12 NOON.", "nsi_id": "unitedstatespostalservice-a77078", "operator": "United States Postal Service", "operator:short": "USPS", "operator:type": "public", "operator:wikidata": "Q668687", "ref": "1570100024"}, "type": "Feature"}
{"dataset_attributes": {"@spider": "usps_collection_boxes", "spider:collection_time": "2024-01-04T08:25:05.301423"}, "geometry": {"coordinates": [-79.1831247, 40.608272], "type": "Point"}, "id": "USvG-DMyNRDSz9DAQ8YzgWga_mw=", "properties": {"@spider": "usps_collection_boxes", "addr:city": "INDIANA", "addr:country": "US", "addr:full": "2334 OAKLAND AVE", "addr:postcode": "15701", "addr:state": "PA", "amenity": "post_box", "brand": "United States Postal Service", "brand:wikidata": "Q668687", "collection_times": "Mo-Fr 15:15; Sa 13:45", "name": "USPS COLLECTION BOX - BLUE BOX", "note": "ON 12/24 AND 12/31, THIS BOX MAY BE COLLECTED AS EARLY AS 12 NOON.", "nsi_id": "unitedstatespostalservice-a77078", "operator": "United States Postal Service", "operator:short": "USPS", "operator:type": "public", "operator:wikidata": "Q668687", "ref": "1570100027"}, "type": "Feature"}
{"dataset_attributes": {"@spider": "usps_collection_boxes", "spider:collection_time": "2024-01-04T08:25:05.301423"}, "geometry": {"coordinates": [-79.1606455, 40.622927], "type": "Point"}, "id": "DLzfqGWOgn3Z7tfuEWj8NQnUEp4=", "properties": {"@spider": "usps_collection_boxes", "addr:city": "INDIANA", "addr:country": "US", "addr:full": "1102 PHILADELPHIA ST", "addr:postcode": "15701", "addr:state": "PA", "amenity": "post_box", "brand": "United States Postal Service", "brand:wikidata": "Q668687", "collection_times": "Mo-Sa 14:00", "name": "USPS COLLECTION BOX - BLUE BOX", "note": "ON 12/24 AND 12/31, THIS BOX MAY BE COLLECTED AS EARLY AS 12 NOON.", "nsi_id": "unitedstatespostalservice-a77078", "operator": "United States Postal Service", "operator:short": "USPS", "operator:type": "public", "operator:wikidata": "Q668687", "ref": "1570100033"}, "type": "Feature"}
{"dataset_attributes": {"@spider": "usps_collection_boxes", "spider:collection_time": "2024-01-04T08:25:05.301423"}, "geometry": {"coordinates": [-79.1571545, 40.622923], "type": "Point"}, "id": "rPfhJCCDEqXX9SASGKSqd_s4J-w=", "properties": {"@spider": "usps_collection_boxes", "addr:city": "INDIANA", "addr:country": "US", "addr:full": "942 PHILADELPHIA ST", "addr:postcode": "15701", "addr:state": "PA", "amenity": "post_box", "brand": "United States Postal Service", "brand:wikidata": "Q668687", "collection_times": "Mo-Fr 16:45; Sa 14:00", "name": "USPS COLLECTION BOX - BLUE BOX", "note": "ON 12/24 AND 12/31, THIS BOX MAY BE COLLECTED AS EARLY AS 12 NOON.", "nsi_id": "unitedstatespostalservice-a77078", "operator": "United States Postal Service", "operator:short": "USPS", "operator:type": "public", "operator:wikidata": "Q668687", "ref": "1570100034"}, "type": "Feature"}
{"dataset_attributes": {"@spider": "usps_collection_boxes", "spider:collection_time": "2024-01-04T08:25:05.301423"}, "geometry": {"coordinates": [-79.1551376, 40.607542], "type": "Point"}, "id": "WW2d6E0aYaxAzq3IupqARrf1HO8=", "properties": {"@spider": "usps_collection_boxes", "addr:city": "INDIANA", "addr:country": "US", "addr:full": "835 HOSPITAL RD", "addr:postcode": "15701", "addr:state": "PA", "amenity": "post_box", "brand": "United States Postal Service", "brand:wikidata": "Q668687", "collection_times": "Mo-Sa 10:30", "name": "USPS COLLECTION BOX - BLUE BOX", "nsi_id": "unitedstatespostalservice-a77078", "operator": "United States Postal Service", "operator:short": "USPS", "operator:type": "public", "operator:wikidata": "Q668687", "ref": "1570100035"}, "type": "Feature"}
{"dataset_attributes": {"@spider": "usps_collection_boxes", "spider:collection_time": "2024-01-04T08:25:05.301423"}, "geometry": {"coordinates": [-79.1629943, 40.602858], "type": "Point"}, "id": "gp7aaZBW-6ErG0lc1dz-xFl9Nbs=", "properties": {"@spider": "usps_collection_boxes", "addr:city": "INDIANA", "addr:country": "US", "addr:full": "1265 WAYNE AVE", "addr:postcode": "15701", "addr:state": "PA", "amenity": "post_box", "brand": "United States Postal Service", "brand:wikidata": "Q668687", "collection_times": "Mo-Sa 15:00", "name": "USPS COLLECTION BOX - BLUE BOX", "note": "ON 12/24 AND 12/31, THIS BOX MAY BE COLLECTED AS EARLY AS 12 NOON.", "nsi_id": "unitedstatespostalservice-a77078", "operator": "United States Postal Service", "operator:short": "USPS", "operator:type": "public", "operator:wikidata": "Q668687", "ref": "1570100036"}, "type": "Feature"}
{"dataset_attributes": {"@spider": "usps_collection_boxes", "spider:collection_time": "2024-01-04T08:25:05.301423"}, "geometry": {"coordinates": [-79.1942279, 40.602852], "type": "Point"}, "id": "pfCC0UNef43NQK4f8IQgiFko4i8=", "properties": {"@spider": "usps_collection_boxes", "addr:city": "INDIANA", "addr:country": "US", "addr:full": "3100 OAKLAND AVE", "addr:postcode": "15701", "addr:state": "PA", "amenity": "post_box", "brand": "United States Postal Service", "brand:wikidata": "Q668687", "collection_times": "Mo-Sa 10:00", "name": "USPS COLLECTION BOX - BLUE BOX", "nsi_id": "unitedstatespostalservice-a77078", "operator": "United States Postal Service", "operator:short": "USPS", "operator:type": "public", "operator:wikidata": "Q668687", "ref": "1570100042"}, "type": "Feature"}
{"dataset_attributes": {"@spider": "usps_collection_boxes", "spider:collection_time": "2024-01-04T08:25:05.301423"}, "geometry": {"coordinates": [-79.1589592, 40.625433], "type": "Point"}, "id": "ggNHWe6JHGNgxVBhav9_FP3puhY=", "properties": {"@spider": "usps_collection_boxes", "addr:city": "INDIANA", "addr:country": "US", "addr:full": "160 N 10TH ST", "addr:postcode": "15701", "addr:state": "PA", "amenity": "post_box", "brand": "United States Postal Service", "brand:wikidata": "Q668687", "collection_times": "Mo-Sa 11:30", "name": "USPS COLLECTION BOX - BLUE BOX", "nsi_id": "unitedstatespostalservice-a77078", "operator": "United States Postal Service", "operator:short": "USPS", "operator:type": "public", "operator:wikidata": "Q668687", "ref": "1570100043"}, "type": "Feature"}
{"dataset_attributes": {"@spider": "usps_collection_boxes", "spider:collection_time": "2024-01-04T08:25:05.301423"}, "geometry": {"coordinates": [-79.1548226, 40.624288], "type": "Point"}, "id": "EFFJ_aJBx9XhvpOtJeO7yKfgog4=", "properties": {"@spider": "usps_collection_boxes", "addr:city": "INDIANA", "addr:country": "US", "addr:full": "80 N 8TH ST", "addr:postcode": "15701", "addr:state": "PA", "amenity": "post_box", "brand": "United States Postal Service", "brand:wikidata": "Q668687", "collection_times": "Mo-Fr 16:00; Sa 14:30", "name": "USPS COLLECTION BOX - BLUE BOX", "note": "ON 12/24 AND 12/31, THIS BOX MAY BE COLLECTED AS EARLY AS 12 NOON.", "nsi_id": "unitedstatespostalservice-a77078", "operator": "United States Postal Service", "operator:short": "USPS", "operator:type": "public", "operator:wikidata": "Q668687", "ref": "1570100045"}, "type": "Feature"}
{"dataset_attributes": {"@spider": "usps_collection_boxes", "spider:collection_time": "2024-01-04T08:25:05.301423"}, "geometry": {"coordinates": [-79.1531733, 40.622953], "type": "Point"}, "id": "skny6n3cstb16McdFJyQ_bK4vgs=", "properties": {"@spider": "usps_collection_boxes", "addr:city": "INDIANA", "addr:country": "US", "addr:full": "682 PHILADELPHIA ST", "addr:postcode": "15701", "addr:state": "PA", "amenity": "post_box", "brand": "United States Postal Service", "brand:wikidata": "Q668687", "collection_times": "Mo-Fr 16:45; Sa 14:00", "name": "USPS COLLECTION BOX - BLUE BOX", "note": "ON 12/24 AND 12/31, THIS BOX MAY BE COLLECTED AS EARLY AS 12 NOON.", "nsi_id": "unitedstatespostalservice-a77078", "operator": "United States Postal Service", "operator:short": "USPS", "operator:type": "public", "operator:wikidata": "Q668687", "ref": "1570100051"}, "type": "Feature"}
{"dataset_attributes": {"@spider": "usps_collection_boxes", "spider:collection_time": "2024-01-04T08:25:05.301423"}, "geometry": {"coordinates": [-79.154857, 40.623033], "type": "Point"}, "id": "3yoCyj73qREXK3pfUH4AOSrrvPs=", "properties": {"@spider": "usps_collection_boxes", "addr:city": "INDIANA", "addr:country": "US", "addr:full": "825 PHILADELPHIA ST", "addr:postcode": "15701", "addr:state": "PA", "amenity": "post_box", "brand": "United States Postal Service", "brand:wikidata": "Q668687", "collection_times": "Mo-Fr 16:45; Sa 14:30", "name": "USPS COLLECTION BOX - BLUE BOX", "note": "ON 12/24 AND 12/31, THIS BOX MAY BE COLLECTED AS EARLY AS 12 NOON.", "nsi_id": "unitedstatespostalservice-a77078", "operator": "United States Postal Service", "operator:short": "USPS", "operator:type": "public", "operator:wikidata": "Q668687", "ref": "1570100052"}, "type": "Feature"}
{"dataset_attributes": {"@spider": "usps_collection_boxes", "spider:collection_time": "2024-01-04T08:25:05.301423"}, "geometry": {"coordinates": [-79.1554059, 40.622969], "type": "Point"}, "id": "WbiL1aSZidE8EDJEU-2y6AT9BD0=", "properties": {"@spider": "usps_collection_boxes", "addr:city": "INDIANA", "addr:country": "US", "addr:full": "840 PHILADELPHIA ST", "addr:postcode": "15701", "addr:state": "PA", "amenity": "post_box", "brand": "United States Postal Service", "brand:wikidata": "Q668687", "collection_times": "Mo-Fr 16:45; Sa 14:00", "name": "USPS COLLECTION BOX - BLUE BOX", "note": "ON 12/24 AND 12/31, THIS BOX MAY BE COLLECTED AS EARLY AS 12 NOON.", "nsi_id": "unitedstatespostalservice-a77078", "operator": "United States Postal Service", "operator:short": "USPS", "operator:type": "public", "operator:wikidata": "Q668687", "ref": "1570100053"}, "type": "Feature"}
{"dataset_attributes": {"@spider": "usps_collection_boxes", "spider:collection_time": "2024-01-04T08:25:05.301423"}, "geometry": {"coordinates": [-79.1483593, 40.622971], "type": "Point"}, "id": "s0awGW8XCS7F6E82fyZQw4s906c=", "properties": {"@spider": "usps_collection_boxes", "addr:city": "INDIANA", "addr:country": "US", "addr:full": "501 PHILADELPHIA ST", "addr:postcode": "15701", "addr:state": "PA", "amenity": "post_box", "brand": "United States Postal Service", "brand:wikidata": "Q668687", "collection_times": "Mo-Fr 16:30; Sa 14:30", "name": "USPS COLLECTION BOX - BLUE BOX", "note": "ON 12/24 AND 12/31, THIS BOX MAY BE COLLECTED AS EARLY AS 12 NOON.", "nsi_id": "unitedstatespostalservice-a77078", "operator": "United States Postal Service", "operator:short": "USPS", "operator:type": "public", "operator:wikidata": "Q668687", "ref": "1570100060"}, "type": "Feature"}
{"dataset_attributes": {"@spider": "usps_collection_boxes", "spider:collection_time": "2024-01-04T08:25:05.301423"}, "geometry": {"coordinates": [-79.1893749, 40.614116], "type": "Point"}, "id": "hnzJGcPykCLVxWZi6JaW6v25P20=", "properties": {"@spider": "usps_collection_boxes", "addr:city": "INDIANA", "addr:country": "US", "addr:full": "525 BEN FRANKLIN RD", "addr:postcode": "15701", "addr:state": "PA", "amenity": "post_box", "brand": "United States Postal Service", "brand:wikidata": "Q668687", "collection_times": "Mo-Fr 15:30; Sa 14:00", "name": "USPS COLLECTION BOX - BLUE BOX", "note": "ON 12/24 AND 12/31, THIS BOX MAY BE COLLECTED AS EARLY AS 12 NOON.", "nsi_id": "unitedstatespostalservice-a77078", "operator": "United States Postal Service", "operator:short": "USPS", "operator:type": "public", "operator:wikidata": "Q668687", "ref": "1570100063"}, "type": "Feature"}
{"dataset_attributes": {"@spider": "usps_collection_boxes", "spider:collection_time": "2024-01-04T08:25:05.301423"}, "geometry": {"coordinates": [-79.153344, 40.622058], "type": "Point"}, "id": "_wSsG_waIKvowmloG4wUVjZv1vI=", "properties": {"@spider": "usps_collection_boxes", "addr:city": "INDIANA", "addr:country": "US", "addr:full": "47 S 7TH ST", "addr:postcode": "15701", "addr:state": "PA", "amenity": "post_box", "brand": "United States Postal Service", "brand:wikidata": "Q668687", "collection_times": "Mo-Sa 17:15", "name": "USPS COLLECTION BOX - PO LOBBY", "note": "ON 12/24 AND 12/31, THIS BOX MAY BE COLLECTED AS EARLY AS 12 NOON.", "nsi_id": "unitedstatespostalservice-a77078", "operator": "United States Postal Service", "operator:short": "USPS", "operator:type": "public", "operator:wikidata": "Q668687", "ref": "1570100064"}, "type": "Feature"}
{"dataset_attributes": {"@spider": "usps_collection_boxes", "spider:collection_time": "2024-01-04T08:25:05.301423"}, "geometry": {"coordinates": [-79.153344, 40.622058], "type": "Point"}, "id": "7PBUon1yPgnn3jBzt9jMwtODeTw=", "properties": {"@spider": "usps_collection_boxes", "addr:city": "INDIANA", "addr:country": "US", "addr:full": "47 S 7TH ST", "addr:postcode": "15701", "addr:state": "PA", "amenity": "post_box", "brand": "United States Postal Service", "brand:wikidata": "Q668687", "collection_times": "Mo-Sa 17:15", "name": "USPS COLLECTION BOX - APC", "note": "ON 12/24 AND 12/31, THIS BOX MAY BE COLLECTED AS EARLY AS 12 NOON.", "nsi_id": "unitedstatespostalservice-a77078", "operator": "United States Postal Service", "operator:short": "USPS", "operator:type": "public", "operator:wikidata": "Q668687", "ref": "1570100066"}, "type": "Feature"}
{"dataset_attributes": {"@spider": "usps_collection_boxes", "spider:collection_time": "2024-01-04T08:25:05.301423"}, "geometry": {"coordinates": [-79.15331387, 40.621868801], "type": "Point"}, "id": "jNyJpg-3MHZBJs5CmTVrq4btQVA=", "properties": {"@spider": "usps_collection_boxes", "addr:city": "INDIANA", "addr:country": "US", "addr:full": "47 S 7TH ST", "addr:postcode": "15701", "addr:state": "PA", "amenity": "post_box", "brand": "United States Postal Service", "brand:wikidata": "Q668687", "collection_times": "Mo-Fr 17:00; Sa 12:00", "name": "USPS COLLECTION BOX - PO LOBBY", "note": "ON 12/24 AND 12/31, THIS BOX MAY BE COLLECTED AS EARLY AS 12 NOON.", "nsi_id": "unitedstatespostalservice-a77078", "operator": "United States Postal Service", "operator:short": "USPS", "operator:type": "public", "operator:wikidata": "Q668687", "ref": "1570100071"}, "type": "Feature"}
{"dataset_attributes": {"@spider": "usps_collection_boxes", "spider:collection_time": "2024-01-04T08:25:05.301423"}, "geometry": {"coordinates": [-78.864555, 40.631911], "type": "Point"}, "id": "AQlSBnnTuzJWNnK-MWMP00HQ460=", "properties": {"@spider": "usps_collection_boxes", "addr:city": "ALVERDA", "addr:country": "US", "addr:full": "11089 ROUTE 553 HWY", "addr:postcode": "15710", "addr:state": "PA", "amenity": "post_box", "brand": "United States Postal Service", "brand:wikidata": "Q668687", "collection_times": "Mo-Fr 10:50; Sa 11:30", "name": "USPS COLLECTION BOX - BLUE BOX", "nsi_id": "unitedstatespostalservice-a77078", "operator": "United States Postal Service", "operator:short": "USPS", "operator:type": "public", "operator:wikidata": "Q668687", "ref": "1571000000"}, "type": "Feature"}
{"dataset_attributes": {"@spider": "usps_collection_boxes", "spider:collection_time": "2024-01-04T08:25:05.301423"}, "geometry": {"coordinates": [-78.864615, 40.631907], "type": "Point"}, "id": "seRqJgMcTSReA079xSMrtcRmtMA=", "properties": {"@spider": "usps_collection_boxes", "addr:city": "ALVERDA", "addr:country": "US", "addr:full": "11089 ROUTE 553 HWY", "addr:postcode": "15710", "addr:state": "PA", "amenity": "post_box", "brand": "United States Postal Service", "brand:wikidata": "Q668687", "collection_times": "Mo-Fr 10:50; Sa 11:30", "name": "USPS COLLECTION BOX - PO LOBBY", "nsi_id": "unitedstatespostalservice-a77078", "operator": "United States Postal Service", "operator:short": "USPS", "operator:type": "public", "operator:wikidata": "Q668687", "ref": "1571000001"}, "type": "Feature"}
{"dataset_attributes": {"@spider": "usps_collection_boxes", "spider:collection_time": "2024-01-04T08:25:05.301423"}, "geometry": {"coordinates": [-78.864613116, 40.631971142], "type": "Point"}, "id": "8GmbE_rydVTYIARL5KIUsScdMGM=", "properties": {"@spider": "usps_collection_boxes", "addr:city": "ALVERDA", "addr:country": "US", "addr:full": "11089 ROUTE 553 HWY", "addr:postcode": "15710", "addr:state": "PA", "amenity": "post_box", "brand": "United States Postal Service", "brand:wikidata": "Q668687", "collection_times": "Mo-Fr 10:50; Sa 11:20", "name": "USPS COLLECTION BOX - PO LOBBY", "nsi_id": "unitedstatespostalservice-a77078", "operator": "United States Postal Service", "operator:short": "USPS", "operator:type": "public", "operator:wikidata": "Q668687", "ref": "1571000003"}, "type": "Feature"}
{"dataset_attributes": {"@spider": "usps_collection_boxes", "spider:collection_time": "2024-01-04T08:25:05.301423"}, "geometry": {"coordinates": [-78.968536, 40.997211], "type": "Point"}, "id": "anueUcdJJLJynRrdTL6j5UGoH2k=", "properties": {"@spider": "usps_collection_boxes", "addr:city": "ANITA", "addr:country": "US", "addr:full": "222 MAIN ST", "addr:postcode": "15711", "addr:state": "PA", "amenity": "post_box", "brand": "United States Postal Service", "brand:wikidata": "Q668687", "collection_times": "Mo-Fr 13:00; Sa 12:15", "name": "USPS COLLECTION BOX - BLUE BOX", "note": "ON 12/24 AND 12/31, THIS BOX MAY BE COLLECTED AS EARLY AS 12 NOON.", "nsi_id": "unitedstatespostalservice-a77078", "operator": "United States Postal Service", "operator:short": "USPS", "operator:type": "public", "operator:wikidata": "Q668687", "ref": "1571100000"}, "type": "Feature"}
{"dataset_attributes": {"@spider": "usps_collection_boxes", "spider:collection_time": "2024-01-04T08:25:05.301423"}, "geometry": {"coordinates": [-78.968536, 40.997211], "type": "Point"}, "id": "L0J_Z1jJ_W5wZnMK8qIOHkqDKC0=", "properties": {"@spider": "usps_collection_boxes", "addr:city": "ANITA", "addr:country": "US", "addr:full": "222 MAIN ST", "addr:postcode": "15711", "addr:state": "PA", "amenity": "post_box", "brand": "United States Postal Service", "brand:wikidata": "Q668687", "collection_times": "Mo-Fr 13:00; Sa 12:15", "name": "USPS COLLECTION BOX - PO LOBBY", "note": "ON 12/24 AND 12/31, THIS BOX MAY BE COLLECTED AS EARLY AS 12 NOON.", "nsi_id": "unitedstatespostalservice-a77078", "operator": "United States Postal Service", "operator:short": "USPS", "operator:type": "public", "operator:wikidata": "Q668687", "ref": "1571100001"}, "type": "Feature"}
{"dataset_attributes": {"@spider": "usps_collection_boxes", "spider:collection_time": "2024-01-04T08:25:05.301423"}, "geometry": {"coordinates": [-78.968164591, 40.997378087], "type": "Point"}, "id": "lJuitdgLjD5hSb-SvONy8rOBhGI=", "properties": {"@spider": "usps_collection_boxes", "addr:city": "ANITA", "addr:country": "US", "addr:full": "222 MAIN ST", "addr:postcode": "15711", "addr:state": "PA", "amenity": "post_box", "brand": "United States Postal Service", "brand:wikidata": "Q668687", "collection_times": "Mo-Fr 13:25; Sa 12:25", "name": "USPS COLLECTION BOX - PO LOBBY", "note": "ON 12/24 AND 12/31, THIS BOX MAY BE COLLECTED AS EARLY AS 12 NOON.", "nsi_id": "unitedstatespostalservice-a77078", "operator": "United States Postal Service", "operator:short": "USPS", "operator:type": "public", "operator:wikidata": "Q668687", "ref": "1571100003"}, "type": "Feature"}
{"dataset_attributes": {"@spider": "usps_collection_boxes", "spider:collection_time": "2024-01-04T08:25:05.301423"}, "geometry": {"coordinates": [-78.854633, 40.782256], "type": "Point"}, "id": "H2KUlq4GUywPh8NiVrjSAnjmcvQ=", "properties": {"@spider": "usps_collection_boxes", "addr:city": "ARCADIA", "addr:country": "US", "addr:full": "21832 ROUTE 286 HWY E", "addr:postcode": "15712", "addr:state": "PA", "amenity": "post_box", "brand": "United States Postal Service", "brand:wikidata": "Q668687", "collection_times": "Mo-Fr 10:50; Sa 11:15", "name": "USPS COLLECTION BOX - BLUE BOX", "nsi_id": "unitedstatespostalservice-a77078", "operator": "United States Postal Service", "operator:short": "USPS", "operator:type": "public", "operator:wikidata": "Q668687", "ref": "1571200000"}, "type": "Feature"}
{"dataset_attributes": {"@spider": "usps_collection_boxes", "spider:collection_time": "2024-01-04T08:25:05.301423"}, "geometry": {"coordinates": [-78.854633, 40.782256], "type": "Point"}, "id": "4Xk6-yP-9gHtGZtAHIotdoxpcgw=", "properties": {"@spider": "usps_collection_boxes", "addr:city": "ARCADIA", "addr:country": "US", "addr:full": "21832 ROUTE 286 HWY E", "addr:postcode": "15712", "addr:state": "PA", "amenity": "post_box", "brand": "United States Postal Service", "brand:wikidata": "Q668687", "collection_times": "Mo-Fr 10:50; Sa 11:15", "name": "USPS COLLECTION BOX - PO LOBBY", "nsi_id": "unitedstatespostalservice-a77078", "operator": "United States Postal Service", "operator:short": "USPS", "operator:type": "public", "operator:wikidata": "Q668687", "ref": "1571200001"}, "type": "Feature"}
{"dataset_attributes": {"@spider": "usps_collection_boxes", "spider:collection_time": "2024-01-04T08:25:05.301423"}, "geometry": {"coordinates": [-78.855081712, 40.781668317], "type": "Point"}, "id": "7PMAM00DfNDv2myaav6QW2DDTPc=", "properties": {"@spider": "usps_collection_boxes", "addr:city": "ARCADIA", "addr:country": "US", "addr:full": "21832 ROUTE 286 HWY E", "addr:postcode": "15712", "addr:state": "PA", "amenity": "post_box", "brand": "United States Postal Service", "brand:wikidata": "Q668687", "collection_times": "Mo-Fr 10:50; Sa 11:05", "name": "USPS COLLECTION BOX - PO LOBBY", "nsi_id": "unitedstatespostalservice-a77078", "operator": "United States Postal Service", "operator:short": "USPS", "operator:type": "public", "operator:wikidata": "Q668687", "ref": "1571200003"}, "type": "Feature"}
{"dataset_attributes": {"@spider": "usps_collection_boxes", "spider:collection_time": "2024-01-04T08:25:05.301423"}, "geometry": {"coordinates": [-78.780081, 40.662963], "type": "Point"}, "id": "_NxWQaAyopzx3JwphIzAnLFu5_Y=", "properties": {"@spider": "usps_collection_boxes", "addr:city": "N CAMBRIA", "addr:country": "US", "addr:full": "4310 CRAWFORD AVE", "addr:postcode": "15714", "addr:state": "PA", "amenity": "post_box", "brand": "United States Postal Service", "brand:wikidata": "Q668687", "collection_times": "Mo-Sa 16:30", "name": "USPS COLLECTION BOX - BLUE BOX", "note": "ON 12/24 AND 12/31, THIS BOX MAY BE COLLECTED AS EARLY AS 12 NOON.", "nsi_id": "unitedstatespostalservice-a77078", "operator": "United States Postal Service", "operator:short": "USPS", "operator:type": "public", "operator:wikidata": "Q668687", "ref": "1571400000"}, "type": "Feature"}
{"dataset_attributes": {"@spider": "usps_collection_boxes", "spider:collection_time": "2024-01-04T08:25:05.301423"}, "geometry": {"coordinates": [-78.7811254, 40.660831], "type": "Point"}, "id": "64LWyiNfKnpok9DM7rsg-HV3eXA=", "properties": {"@spider": "usps_collection_boxes", "addr:city": "N CAMBRIA", "addr:country": "US", "addr:full": "4025 CRAWFORD AVE", "addr:postcode": "15714", "addr:state": "PA", "amenity": "post_box", "brand": "United States Postal Service", "brand:wikidata": "Q668687", "collection_times": "Mo-Sa 10:00", "name": "USPS COLLECTION BOX - BLUE BOX", "nsi_id": "unitedstatespostalservice-a77078", "operator": "United States Postal Service", "operator:short": "USPS", "operator:type": "public", "operator:wikidata": "Q668687", "ref": "1571400003"}, "type": "Feature"}
{"dataset_attributes": {"@spider": "usps_collection_boxes", "spider:collection_time": "2024-01-04T08:25:05.301423"}, "geometry": {"coordinates": [-78.7830131, 40.661278], "type": "Point"}, "id": "8VjNHCNaJ5pwsCE8ujrtunO57LI=", "properties": {"@spider": "usps_collection_boxes", "addr:city": "N CAMBRIA", "addr:country": "US", "addr:full": "7 COTTONWOOD ST", "addr:postcode": "15714", "addr:state": "PA", "amenity": "post_box", "brand": "United States Postal Service", "brand:wikidata": "Q668687", "collection_times": "Mo-Sa 09:30", "name": "USPS COLLECTION BOX - BLUE BOX", "nsi_id": "unitedstatespostalservice-a77078", "operator": "United States Postal Service", "operator:short": "USPS", "operator:type": "public", "operator:wikidata": "Q668687", "ref": "1571400004"}, "type": "Feature"}
{"dataset_attributes": {"@spider": "usps_collection_boxes", "spider:collection_time": "2024-01-04T08:25:05.301423"}, "geometry": {"coordinates": [-78.780006, 40.662997], "type": "Point"}, "id": "C5Km4ImrIkDJjm354Hq9l5QH5sw=", "properties": {"@spider": "usps_collection_boxes", "addr:city": "N CAMBRIA", "addr:country": "US", "addr:full": "4310 CRAWFORD AVE", "addr:postcode": "15714", "addr:state": "PA", "amenity": "post_box", "brand": "United States Postal Service", "brand:wikidata": "Q668687", "collection_times": "Mo-Sa 16:45", "name": "USPS COLLECTION BOX - PO LOBBY", "note": "ON 12/24 AND 12/31, THIS BOX MAY BE COLLECTED AS EARLY AS 12 NOON.", "nsi_id": "unitedstatespostalservice-a77078", "operator": "United States Postal Service", "operator:short": "USPS", "operator:type": "public", "operator:wikidata": "Q668687", "ref": "1571400005"}, "type": "Feature"}
{"dataset_attributes": {"@spider": "usps_collection_boxes", "spider:collection_time": "2024-01-04T08:25:05.301423"}, "geometry": {"coordinates": [-78.780037306, 40.663013134], "type": "Point"}, "id": "jExk5CL3FpEEBHGpybgz9iYvVVw=", "properties": {"@spider": "usps_collection_boxes", "addr:city": "N CAMBRIA", "addr:country": "US", "addr:full": "4310 CRAWFORD AVE", "addr:postcode": "15714", "addr:state": "PA", "amenity": "post_box", "brand": "United States Postal Service", "brand:wikidata": "Q668687", "collection_times": "Mo-Fr 16:45; Sa 12:00", "name": "USPS COLLECTION BOX - PO LOBBY", "note": "ON 12/24 AND 12/31, THIS BOX MAY BE COLLECTED AS EARLY AS 12 NOON.", "nsi_id": "unitedstatespostalservice-a77078", "operator": "United States Postal Service", "operator:short": "USPS", "operator:type": "public", "operator:wikidata": "Q668687", "ref": "1571400007"}, "type": "Feature"}
{"dataset_attributes": {"@spider": "usps_collection_boxes", "spider:collection_time": "2024-01-04T08:25:05.301423"}, "geometry": {"coordinates": [-78.870352, 40.968739], "type": "Point"}, "id": "-74JphMiYasCbAK-XY4QcqL0fCw=", "properties": {"@spider": "usps_collection_boxes", "addr:city": "BIG RUN", "addr:country": "US", "addr:full": "401 E MAIN ST", "addr:postcode": "15715", "addr:state": "PA", "amenity": "post_box", "brand": "United States Postal Service", "brand:wikidata": "Q668687", "collection_times": "Mo-Fr 16:45; Sa 12:00", "name": "USPS COLLECTION BOX - BLUE BOX", "note": "ON 12/24 AND 12/31, THIS BOX MAY BE COLLECTED AS EARLY AS 12 NOON.", "nsi_id": "unitedstatespostalservice-a77078", "operator": "United States Postal Service", "operator:short": "USPS", "operator:type": "public", "operator:wikidata": "Q668687", "ref": "1571500000"}, "type": "Feature"}
{"dataset_attributes": {"@spider": "usps_collection_boxes", "spider:collection_time": "2024-01-04T08:25:05.301423"}, "geometry": {"coordinates": [-78.870441, 40.968673], "type": "Point"}, "id": "J-XKajYU26s5XqFRYf6E5on8wy4=", "properties": {"@spider": "usps_collection_boxes", "addr:city": "BIG RUN", "addr:country": "US", "addr:full": "401 E MAIN ST", "addr:postcode": "15715", "addr:state": "PA", "amenity": "post_box", "brand": "United States Postal Service", "brand:wikidata": "Q668687", "collection_times": "Mo-Fr 16:45; Sa 12:00", "name": "USPS COLLECTION BOX - PO LOBBY", "note": "ON 12/24 AND 12/31, THIS BOX MAY BE COLLECTED AS EARLY AS 12 NOON.", "nsi_id": "unitedstatespostalservice-a77078", "operator": "United States Postal Service", "operator:short": "USPS", "operator:type": "public", "operator:wikidata": "Q668687", "ref": "1571500001"}, "type": "Feature"}
{"dataset_attributes": {"@spider": "usps_collection_boxes", "spider:collection_time": "2024-01-04T08:25:05.301423"}, "geometry": {"coordinates": [-78.87012093, 40.968823316], "type": "Point"}, "id": "y4HFLAzmSo09uGOa1Bf6Sxb5iZ4=", "properties": {"@spider": "usps_collection_boxes", "addr:city": "BIG RUN", "addr:country": "US", "addr:full": "401 E MAIN ST", "addr:postcode": "15715", "addr:state": "PA", "amenity": "post_box", "brand": "United States Postal Service", "brand:wikidata": "Q668687", "collection_times": "Mo-Fr 16:45; Sa 12:00", "name": "USPS COLLECTION BOX - PO LOBBY", "note": "ON 12/24 AND 12/31, THIS BOX MAY BE COLLECTED AS EARLY AS 12 NOON.", "nsi_id": "unitedstatespostalservice-a77078", "operator": "United States Postal Service", "operator:short": "USPS", "operator:type": "public", "operator:wikidata": "Q668687", "ref": "1571500003"}, "type": "Feature"}
{"dataset_attributes": {"@spider": "usps_collection_boxes", "spider:collection_time": "2024-01-04T08:25:05.301423"}, "geometry": {"coordinates": [-79.19759, 40.471954], "type": "Point"}, "id": "s3sbeEo1OJUQxnDw9e1ob378x50=", "properties": {"@spider": "usps_collection_boxes", "addr:city": "BLACK LICK", "addr:country": "US", "addr:full": "50 MAIN ST", "addr:postcode": "15716", "addr:state": "PA", "amenity": "post_box", "brand": "United States Postal Service", "brand:wikidata": "Q668687", "collection_times": "Mo-Fr 16:30; Sa 12:00", "name": "USPS COLLECTION BOX - BLUE BOX", "note": "ON 12/24 AND 12/31, THIS BOX MAY BE COLLECTED AS EARLY AS 12 NOON.", "nsi_id": "unitedstatespostalservice-a77078", "operator": "United States Postal Service", "operator:short": "USPS", "operator:type": "public", "operator:wikidata": "Q668687", "ref": "1571600000"}, "type": "Feature"}
{"dataset_attributes": {"@spider": "usps_collection_boxes", "spider:collection_time": "2024-01-04T08:25:05.301423"}, "geometry": {"coordinates": [-79.19759, 40.471954], "type": "Point"}, "id": "QtM-KVRe7Ojy31kOcFuM69xmaTk=", "properties": {"@spider": "usps_collection_boxes", "addr:city": "BLACK LICK", "addr:country": "US", "addr:full": "50 MAIN ST", "addr:postcode": "15716", "addr:state": "PA", "amenity": "post_box", "brand": "United States Postal Service", "brand:wikidata": "Q668687", "collection_times": "Mo-Fr 16:30; Sa 12:00", "name": "USPS COLLECTION BOX - PO LOBBY", "note": "ON 12/24 AND 12/31, THIS BOX MAY BE COLLECTED AS EARLY AS 12 NOON.", "nsi_id": "unitedstatespostalservice-a77078", "operator": "United States Postal Service", "operator:short": "USPS", "operator:type": "public", "operator:wikidata": "Q668687", "ref": "1571600001"}, "type": "Feature"}
{"dataset_attributes": {"@spider": "usps_collection_boxes", "spider:collection_time": "2024-01-04T08:25:05.301423"}, "geometry": {"coordinates": [-79.168229798, 40.794501235], "type": "Point"}, "id": "oJklC9pfVWmScsmqSdv0cFuRDgU=", "properties": {"@spider": "usps_collection_boxes", "addr:city": "BLACK LICK", "addr:country": "US", "addr:full": "50 MAIN ST", "addr:postcode": "15716", "addr:state": "PA", "amenity": "post_box", "brand": "United States Postal Service", "brand:wikidata": "Q668687", "collection_times": "Mo-Fr 16:30; Sa 12:00", "name": "USPS COLLECTION BOX - PO LOBBY", "note": "ON 12/24 AND 12/31, THIS BOX MAY BE COLLECTED AS EARLY AS 12 NOON.", "nsi_id": "unitedstatespostalservice-a77078", "operator": "United States Postal Service", "operator:short": "USPS", "operator:type": "public", "operator:wikidata": "Q668687", "ref": "1571600003"}, "type": "Feature"}
{"dataset_attributes": {"@spider": "usps_collection_boxes", "spider:collection_time": "2024-01-04T08:25:05.301423"}, "geometry": {"coordinates": [-79.264388922, 40.4308909948], "type": "Point"}, "id": "S0KohsF1xSzIYryFgyQrh4mR0rM=", "properties": {"@spider": "usps_collection_boxes", "addr:city": "BLAIRSVILLE", "addr:country": "US", "addr:full": "5 E MARKET ST", "addr:postcode": "15717", "addr:state": "PA", "amenity": "post_box", "brand": "United States Postal Service", "brand:wikidata": "Q668687", "collection_times": "Mo-Sa 09:00", "name": "USPS COLLECTION BOX - BLUE BOX", "nsi_id": "unitedstatespostalservice-a77078", "operator": "United States Postal Service", "operator:short": "USPS", "operator:type": "public", "operator:wikidata": "Q668687", "ref": "1571700004"}, "type": "Feature"}
{"dataset_attributes": {"@spider": "usps_collection_boxes", "spider:collection_time": "2024-01-04T08:25:05.301423"}, "geometry": {"coordinates": [-79.2609399, 40.438452], "type": "Point"}, "id": "jT39zPK4_J9Po00wY6RHeuY6Fkk=", "properties": {"@spider": "usps_collection_boxes", "addr:city": "BLAIRSVILLE", "addr:country": "US", "addr:full": "223 E CHESTNUT ST", "addr:postcode": "15717", "addr:state": "PA", "amenity": "post_box", "brand": "United States Postal Service", "brand:wikidata": "Q668687", "collection_times": "Mo-Sa 12:00", "name": "USPS COLLECTION BOX - BLUE BOX", "nsi_id": "unitedstatespostalservice-a77078", "operator": "United States Postal Service", "operator:short": "USPS", "operator:type": "public", "operator:wikidata": "Q668687", "ref": "1571700005"}, "type": "Feature"}
{"dataset_attributes": {"@spider": "usps_collection_boxes", "spider:collection_time": "2024-01-04T08:25:05.301423"}, "geometry": {"coordinates": [-79.2661764, 40.430789], "type": "Point"}, "id": "dVo5cJtk-sxSOAx8AGhNx-ggsEg=", "properties": {"@spider": "usps_collection_boxes", "addr:city": "BLAIRSVILLE", "addr:country": "US", "addr:full": "100 W MARKET ST", "addr:postcode": "15717", "addr:state": "PA", "amenity": "post_box", "brand": "United States Postal Service", "brand:wikidata": "Q668687", "collection_times": "Mo-Sa 08:30", "name": "USPS COLLECTION BOX - BLUE BOX", "nsi_id": "unitedstatespostalservice-a77078", "operator": "United States Postal Service", "operator:short": "USPS", "operator:type": "public", "operator:wikidata": "Q668687", "ref": "1571700009"}, "type": "Feature"}
{"dataset_attributes": {"@spider": "usps_collection_boxes", "spider:collection_time": "2024-01-04T08:25:05.301423"}, "geometry": {"coordinates": [-79.264534, 40.430398], "type": "Point"}, "id": "jiQRmogjP9X1Yjw-Oa857tOnYis=", "properties": {"@spider": "usps_collection_boxes", "addr:city": "BLAIRSVILLE", "addr:country": "US", "addr:full": "24 S WALNUT ST", "addr:postcode": "15717", "addr:state": "PA", "amenity": "post_box", "brand": "United States Postal Service", "brand:wikidata": "Q668687", "collection_times": "Mo-Fr 17:00; Sa 15:45", "name": "USPS COLLECTION BOX - BLUE BOX", "note": "ON 12/24 AND 12/31, THIS BOX MAY BE COLLECTED AS EARLY AS 12 NOON.", "nsi_id": "unitedstatespostalservice-a77078", "operator": "United States Postal Service", "operator:short": "USPS", "operator:type": "public", "operator:wikidata": "Q668687", "ref": "1571700013"}, "type": "Feature"}
{"dataset_attributes": {"@spider": "usps_collection_boxes", "spider:collection_time": "2024-01-04T08:25:05.301423"}, "geometry": {"coordinates": [-79.26449, 40.43031], "type": "Point"}, "id": "nrrc4pfUbUVdM0ZFTknCL0uKnCA=", "properties": {"@spider": "usps_collection_boxes", "addr:city": "BLAIRSVILLE", "addr:country": "US", "addr:full": "24 S WALNUT ST", "addr:postcode": "15717", "addr:state": "PA", "amenity": "post_box", "brand": "United States Postal Service", "brand:wikidata": "Q668687", "collection_times": "Mo-Fr 17:00; Sa 15:45", "name": "USPS COLLECTION BOX - BLUE BOX", "note": "ON 12/24 AND 12/31, THIS BOX MAY BE COLLECTED AS EARLY AS 12 NOON.", "nsi_id": "unitedstatespostalservice-a77078", "operator": "United States Postal Service", "operator:short": "USPS", "operator:type": "public", "operator:wikidata": "Q668687", "ref": "1571700014"}, "type": "Feature"}
{"dataset_attributes": {"@spider": "usps_collection_boxes", "spider:collection_time": "2024-01-04T08:25:05.301423"}, "geometry": {"coordinates": [-79.2620443, 40.431068], "type": "Point"}, "id": "eyHRGNjA-KY2rM6zIwbOMaOXhZI=", "properties": {"@spider": "usps_collection_boxes", "addr:city": "BLAIRSVILLE", "addr:country": "US", "addr:full": "135 E MARKET ST", "addr:postcode": "15717", "addr:state": "PA", "amenity": "post_box", "brand": "United States Postal Service", "brand:wikidata": "Q668687", "collection_times": "Mo-Sa 09:00", "name": "USPS COLLECTION BOX - BLUE BOX", "nsi_id": "unitedstatespostalservice-a77078", "operator": "United States Postal Service", "operator:short": "USPS", "operator:type": "public", "operator:wikidata": "Q668687", "ref": "1571700016"}, "type": "Feature"}
{"dataset_attributes": {"@spider": "usps_collection_boxes", "spider:collection_time": "2024-01-04T08:25:05.301423"}, "geometry": {"coordinates": [-79.2650333, 40.437217], "type": "Point"}, "id": "gtDhveUoMUVjSJBdL9MMeHUmRVM=", "properties": {"@spider": "usps_collection_boxes", "addr:city": "BLAIRSVILLE", "addr:country": "US", "addr:full": "9 E BURRELL ST", "addr:postcode": "15717", "addr:state": "PA", "amenity": "post_box", "brand": "United States Postal Service", "brand:wikidata": "Q668687", "collection_times": "Mo-Sa 14:30", "name": "USPS COLLECTION BOX - BLUE BOX", "note": "ON 12/24 AND 12/31, THIS BOX MAY BE COLLECTED AS EARLY AS 12 NOON.", "nsi_id": "unitedstatespostalservice-a77078", "operator": "United States Postal Service", "operator:short": "USPS", "operator:type": "public", "operator:wikidata": "Q668687", "ref": "1571700017"}, "type": "Feature"}
{"dataset_attributes": {"@spider": "usps_collection_boxes", "spider:collection_time": "2024-01-04T08:25:05.301423"}, "geometry": {"coordinates": [-79.2647653, 40.432278], "type": "Point"}, "id": "NNOKBucaw3r3321SR3enb9iqeU0=", "properties": {"@spider": "usps_collection_boxes", "addr:city": "BLAIRSVILLE", "addr:country": "US", "addr:full": "119 N WALNUT ST", "addr:postcode": "15717", "addr:state": "PA", "amenity": "post_box", "brand": "United States Postal Service", "brand:wikidata": "Q668687", "collection_times": "Mo-Sa 15:00", "name": "USPS COLLECTION BOX - BLUE BOX", "note": "ON 12/24 AND 12/31, THIS BOX MAY BE COLLECTED AS EARLY AS 12 NOON.", "nsi_id": "unitedstatespostalservice-a77078", "operator": "United States Postal Service", "operator:short": "USPS", "operator:type": "public", "operator:wikidata": "Q668687", "ref": "1571700018"}, "type": "Feature"}
{"dataset_attributes": {"@spider": "usps_collection_boxes", "spider:collection_time": "2024-01-04T08:25:05.301423"}, "geometry": {"coordinates": [-79.2597289, 40.431152], "type": "Point"}, "id": "mgJIHeBrY84CSYIf1UQjPQmf1KA=", "properties": {"@spider": "usps_collection_boxes", "addr:city": "BLAIRSVILLE", "addr:country": "US", "addr:full": "231 E MARKET ST", "addr:postcode": "15717", "addr:state": "PA", "amenity": "post_box", "brand": "United States Postal Service", "brand:wikidata": "Q668687", "collection_times": "Mo-Sa 08:30", "name": "USPS COLLECTION BOX - BLUE BOX", "nsi_id": "unitedstatespostalservice-a77078", "operator": "United States Postal Service", "operator:short": "USPS", "operator:type": "public", "operator:wikidata": "Q668687", "ref": "1571700019"}, "type": "Feature"}
{"dataset_attributes": {"@spider": "usps_collection_boxes", "spider:collection_time": "2024-01-04T08:25:05.301423"}, "geometry": {"coordinates": [-79.26449, 40.43031], "type": "Point"}, "id": "hIbX_yyz2PvPR-NLSwxxXsTW5HM=", "properties": {"@spider": "usps_collection_boxes", "addr:city": "BLAIRSVILLE", "addr:country": "US", "addr:full": "24 S WALNUT ST", "addr:postcode": "15717", "addr:state": "PA", "amenity": "post_box", "brand": "United States Postal Service", "brand:wikidata": "Q668687", "collection_times": "Mo-Fr 17:00; Sa 15:45", "name": "USPS COLLECTION BOX - PO LOBBY", "note": "ON 12/24 AND 12/31, THIS BOX MAY BE COLLECTED AS EARLY AS 12 NOON.", "nsi_id": "unitedstatespostalservice-a77078", "operator": "United States Postal Service", "operator:short": "USPS", "operator:type": "public", "operator:wikidata": "Q668687", "ref": "1571700020"}, "type": "Feature"}
{"dataset_attributes": {"@spider": "usps_collection_boxes", "spider:collection_time": "2024-01-04T08:25:05.301423"}, "geometry": {"coordinates": [-79.2276771, 40.442727], "type": "Point"}, "id": "FqUCG8ERZ7lBlvbwzm0pm5U6Yl8=", "properties": {"@spider": "usps_collection_boxes", "addr:city": "BLAIRSVILLE", "addr:country": "US", "addr:full": "210 RESORT PLAZA DR", "addr:postcode": "15717", "addr:state": "PA", "amenity": "post_box", "brand": "United States Postal Service", "brand:wikidata": "Q668687", "collection_times": "Mo-Sa 10:00", "name": "USPS COLLECTION BOX - BLUE BOX", "nsi_id": "unitedstatespostalservice-a77078", "operator": "United States Postal Service", "operator:short": "USPS", "operator:type": "public", "operator:wikidata": "Q668687", "ref": "1571700021"}, "type": "Feature"}
{"dataset_attributes": {"@spider": "usps_collection_boxes", "spider:collection_time": "2024-01-04T08:25:05.301423"}, "geometry": {"coordinates": [-79.264535824, 40.430428429], "type": "Point"}, "id": "6sqW5P7utAHJJIcvPIi8Kk1wlR8=", "properties": {"@spider": "usps_collection_boxes", "addr:city": "BLAIRSVILLE", "addr:country": "US", "addr:full": "24 S WALNUT ST", "addr:postcode": "15717", "addr:state": "PA", "amenity": "post_box", "brand": "United States Postal Service", "brand:wikidata": "Q668687", "collection_times": "Mo-Fr 17:00; Sa 12:00", "name": "USPS COLLECTION BOX - PO LOBBY", "note": "ON 12/24 AND 12/31, THIS BOX MAY BE COLLECTED AS EARLY AS 12 NOON.", "nsi_id": "unitedstatespostalservice-a77078", "operator": "United States Postal Service", "operator:short": "USPS", "operator:type": "public", "operator:wikidata": "Q668687", "ref": "1571700023"}, "type": "Feature"}
{"dataset_attributes": {"@spider": "usps_collection_boxes", "spider:collection_time": "2024-01-04T08:25:05.301423"}, "geometry": {"coordinates": [-79.065164, 40.536447], "type": "Point"}, "id": "j9ZlpkJgPiqYCTQqjl4W56ROYqk=", "properties": {"@spider": "usps_collection_boxes", "addr:city": "BRUSH VALLEY", "addr:country": "US", "addr:full": "5515 ROUTE 56 HWY E", "addr:postcode": "15720", "addr:state": "PA", "amenity": "post_box", "brand": "United States Postal Service", "brand:wikidata": "Q668687", "collection_times": "Mo-Fr 11:55; Sa 11:45", "name": "USPS COLLECTION BOX - BLUE BOX", "nsi_id": "unitedstatespostalservice-a77078", "operator": "United States Postal Service", "operator:short": "USPS", "operator:type": "public", "operator:wikidata": "Q668687", "ref": "1572000000"}, "type": "Feature"}
{"dataset_attributes": {"@spider": "usps_collection_boxes", "spider:collection_time": "2024-01-04T08:25:05.301423"}, "geometry": {"coordinates": [-79.065218, 40.536482], "type": "Point"}, "id": "55WA28yb6W7aOfOsV_8tc90LW2o=", "properties": {"@spider": "usps_collection_boxes", "addr:city": "BRUSH VALLEY", "addr:country": "US", "addr:full": "5515 ROUTE 56 HWY E", "addr:postcode": "15720", "addr:state": "PA", "amenity": "post_box", "brand": "United States Postal Service", "brand:wikidata": "Q668687", "collection_times": "Mo-Fr 11:55; Sa 11:45", "name": "USPS COLLECTION BOX - PO LOBBY", "nsi_id": "unitedstatespostalservice-a77078", "operator": "United States Postal Service", "operator:short": "USPS", "operator:type": "public", "operator:wikidata": "Q668687", "ref": "1572000001"}, "type": "Feature"}
{"dataset_attributes": {"@spider": "usps_collection_boxes", "spider:collection_time": "2024-01-04T08:25:05.301423"}, "geometry": {"coordinates": [-79.065149756, 40.536474057], "type": "Point"}, "id": "-flvuoKPG6yB0WAXGE3oFv2H9ZI=", "properties": {"@spider": "usps_collection_boxes", "addr:city": "BRUSH VALLEY", "addr:country": "US", "addr:full": "5515 ROUTE 56 HWY E", "addr:postcode": "15720", "addr:state": "PA", "amenity": "post_box", "brand": "United States Postal Service", "brand:wikidata": "Q668687", "collection_times": "Mo-Fr 11:55; Sa 11:40", "name": "USPS COLLECTION BOX - PO LOBBY", "nsi_id": "unitedstatespostalservice-a77078", "operator": "United States Postal Service", "operator:short": "USPS", "operator:type": "public", "operator:wikidata": "Q668687", "ref": "1572000003"}, "type": "Feature"}
{"dataset_attributes": {"@spider": "usps_collection_boxes", "spider:collection_time": "2024-01-04T08:25:05.301423"}, "geometry": {"coordinates": [-78.7839599, 40.812907], "type": "Point"}, "id": "z-NADHtcM54JyuJn0Aqhv3_Cn-4=", "properties": {"@spider": "usps_collection_boxes", "addr:city": "BURNSIDE", "addr:country": "US", "addr:full": "124 PINE ST", "addr:postcode": "15721", "addr:state": "PA", "amenity": "post_box", "brand": "United States Postal Service", "brand:wikidata": "Q668687", "collection_times": "Mo-Sa 10:00", "name": "USPS COLLECTION BOX - BLUE BOX", "nsi_id": "unitedstatespostalservice-a77078", "operator": "United States Postal Service", "operator:short": "USPS", "operator:type": "public", "operator:wikidata": "Q668687", "ref": "1572100000"}, "type": "Feature"}
{"dataset_attributes": {"@spider": "usps_collection_boxes", "spider:collection_time": "2024-01-04T08:25:05.301423"}, "geometry": {"coordinates": [-78.708977, 40.604115], "type": "Point"}, "id": "eYAYa593PXAHF5AFe1XofBoJ63c=", "properties": {"@spider": "usps_collection_boxes", "addr:city": "CARROLLTOWN", "addr:country": "US", "addr:full": "130 N MAIN ST", "addr:postcode": "15722", "addr:state": "PA", "amenity": "post_box", "brand": "United States Postal Service", "brand:wikidata": "Q668687", "collection_times": "Mo-Fr 16:30; Sa 12:00", "name": "USPS COLLECTION BOX - BLUE BOX", "note": "ON 12/24 AND 12/31, THIS BOX MAY BE COLLECTED AS EARLY AS 12 NOON.", "nsi_id": "unitedstatespostalservice-a77078", "operator": "United States Postal Service", "operator:short": "USPS", "operator:type": "public", "operator:wikidata": "Q668687", "ref": "1572200000"}, "type": "Feature"}
{"dataset_attributes": {"@spider": "usps_collection_boxes", "spider:collection_time": "2024-01-04T08:25:05.301423"}, "geometry": {"coordinates": [-78.708977, 40.604115], "type": "Point"}, "id": "wxU1juKxGXpG4ybwVJcMicF2fm4=", "properties": {"@spider": "usps_collection_boxes", "addr:city": "CARROLLTOWN", "addr:country": "US", "addr:full": "130 N MAIN ST", "addr:postcode": "15722", "addr:state": "PA", "amenity": "post_box", "brand": "United States Postal Service", "brand:wikidata": "Q668687", "collection_times": "Mo-Fr 16:30; Sa 12:00", "name": "USPS COLLECTION BOX - PO LOBBY", "note": "ON 12/24 AND 12/31, THIS BOX MAY BE COLLECTED AS EARLY AS 12 NOON.", "nsi_id": "unitedstatespostalservice-a77078", "operator": "United States Postal Service", "operator:short": "USPS", "operator:type": "public", "operator:wikidata": "Q668687", "ref": "1572200001"}, "type": "Feature"}
{"dataset_attributes": {"@spider": "usps_collection_boxes", "spider:collection_time": "2024-01-04T08:25:05.301423"}, "geometry": {"coordinates": [-78.709018664, 40.603968], "type": "Point"}, "id": "zm0ABuy3jwKwVE9RUUm5cj4KU7M=", "properties": {"@spider": "usps_collection_boxes", "addr:city": "CARROLLTOWN", "addr:country": "US", "addr:full": "130 N MAIN ST", "addr:postcode": "15722", "addr:state": "PA", "amenity": "post_box", "brand": "United States Postal Service", "brand:wikidata": "Q668687", "collection_times": "Mo-Fr 16:30; Sa 12:00", "name": "USPS COLLECTION BOX - PO LOBBY", "note": "ON 12/24 AND 12/31, THIS BOX MAY BE COLLECTED AS EARLY AS 12 NOON.", "nsi_id": "unitedstatespostalservice-a77078", "operator": "United States Postal Service", "operator:short": "USPS", "operator:type": "public", "operator:wikidata": "Q668687", "ref": "1572200003"}, "type": "Feature"}
{"dataset_attributes": {"@spider": "usps_collection_boxes", "spider:collection_time": "2024-01-04T08:25:05.301423"}, "geometry": {"coordinates": [-78.800935, 40.720712], "type": "Point"}, "id": "HFtN9e7_4aktHtB6onzMbZSaj7c=", "properties": {"@spider": "usps_collection_boxes", "addr:city": "CHERRY TREE", "addr:country": "US", "addr:full": "550 S MAIN ST", "addr:postcode": "15724", "addr:state": "PA", "amenity": "post_box", "brand": "United States Postal Service", "brand:wikidata": "Q668687", "collection_times": "Mo-Fr 16:30; Sa 11:30", "name": "USPS COLLECTION BOX - BLUE BOX", "note": "ON 12/24 AND 12/31, THIS BOX MAY BE COLLECTED AS EARLY AS 12 NOON.", "nsi_id": "unitedstatespostalservice-a77078", "operator": "United States Postal Service", "operator:short": "USPS", "operator:type": "public", "operator:wikidata": "Q668687", "ref": "1572400000"}, "type": "Feature"}
{"dataset_attributes": {"@spider": "usps_collection_boxes", "spider:collection_time": "2024-01-04T08:25:05.301423"}, "geometry": {"coordinates": [-78.800968, 40.720701], "type": "Point"}, "id": "VCF_oZHevf3NGKfmq1ovYpqYEh8=", "properties": {"@spider": "usps_collection_boxes", "addr:city": "CHERRY TREE", "addr:country": "US", "addr:full": "550 S MAIN ST", "addr:postcode": "15724", "addr:state": "PA", "amenity": "post_box", "brand": "United States Postal Service", "brand:wikidata": "Q668687", "collection_times": "Mo-Fr 16:30; Sa 11:30", "name": "USPS COLLECTION BOX - PO LOBBY", "note": "ON 12/24 AND 12/31, THIS BOX MAY BE COLLECTED AS EARLY AS 12 NOON.", "nsi_id": "unitedstatespostalservice-a77078", "operator": "United States Postal Service", "operator:short": "USPS", "operator:type": "public", "operator:wikidata": "Q668687", "ref": "1572400001"}, "type": "Feature"}
{"dataset_attributes": {"@spider": "usps_collection_boxes", "spider:collection_time": "2024-01-04T08:25:05.301423"}, "geometry": {"coordinates": [-78.801068898, 40.72101039], "type": "Point"}, "id": "33b9BriO-nUqGDdrmNXRJ8bBb0Y=", "properties": {"@spider": "usps_collection_boxes", "addr:city": "CHERRY TREE", "addr:country": "US", "addr:full": "550 S MAIN ST", "addr:postcode": "15724", "addr:state": "PA", "amenity": "post_box", "brand": "United States Postal Service", "brand:wikidata": "Q668687", "collection_times": "Mo-Fr 16:15; Sa 11:30", "name": "USPS COLLECTION BOX - PO LOBBY", "note": "ON 12/24 AND 12/31, THIS BOX MAY BE COLLECTED AS EARLY AS 12 NOON.", "nsi_id": "unitedstatespostalservice-a77078", "operator": "United States Postal Service", "operator:short": "USPS", "operator:type": "public", "operator:wikidata": "Q668687", "ref": "1572400003"}, "type": "Feature"}
{"dataset_attributes": {"@spider": "usps_collection_boxes", "spider:collection_time": "2024-01-04T08:25:05.301423"}, "geometry": {"coordinates": [-79.379171, 40.534177], "type": "Point"}, "id": "duYZfvDu-T4qLTvC0RfNt88S5uU=", "properties": {"@spider": "usps_collection_boxes", "addr:city": "CLARKSBURG", "addr:country": "US", "addr:full": "15555 ROUTE 286 HWY W", "addr:postcode": "15725", "addr:state": "PA", "amenity": "post_box", "brand": "United States Postal Service", "brand:wikidata": "Q668687", "collection_times": "Mo-Fr 15:00; Sa 11:00", "name": "USPS COLLECTION BOX - BLUE BOX", "note": "ON 12/24 AND 12/31, THIS BOX MAY BE COLLECTED AS EARLY AS 12 NOON.", "nsi_id": "unitedstatespostalservice-a77078", "operator": "United States Postal Service", "operator:short": "USPS", "operator:type": "public", "operator:wikidata": "Q668687", "ref": "1572500000"}, "type": "Feature"}
{"dataset_attributes": {"@spider": "usps_collection_boxes", "spider:collection_time": "2024-01-04T08:25:05.301423"}, "geometry": {"coordinates": [-79.379242, 40.534154], "type": "Point"}, "id": "o-ZEmJtha0ZbljwKlVEaXub1Q40=", "properties": {"@spider": "usps_collection_boxes", "addr:city": "CLARKSBURG", "addr:country": "US", "addr:full": "15555 ROUTE 286 HWY W", "addr:postcode": "15725", "addr:state": "PA", "amenity": "post_box", "brand": "United States Postal Service", "brand:wikidata": "Q668687", "collection_times": "Mo-Fr 15:00; Sa 11:00", "name": "USPS COLLECTION BOX - PO LOBBY", "note": "ON 12/24 AND 12/31, THIS BOX MAY BE COLLECTED AS EARLY AS 12 NOON.", "nsi_id": "unitedstatespostalservice-a77078", "operator": "United States Postal Service", "operator:short": "USPS", "operator:type": "public", "operator:wikidata": "Q668687", "ref": "1572500001"}, "type": "Feature"}
{"dataset_attributes": {"@spider": "usps_collection_boxes", "spider:collection_time": "2024-01-04T08:25:05.301423"}, "geometry": {"coordinates": [-79.37920409, 40.534093616], "type": "Point"}, "id": "gqrt2qDKp3oCVerEqwf5ZvD5vqg=", "properties": {"@spider": "usps_collection_boxes", "addr:city": "CLARKSBURG", "addr:country": "US", "addr:full": "15555 ROUTE 286 HWY W", "addr:postcode": "15725", "addr:state": "PA", "amenity": "post_box", "brand": "United States Postal Service", "brand:wikidata": "Q668687", "collection_times": "Mo-Fr 15:00; Sa 11:00", "name": "USPS COLLECTION BOX - PO LOBBY", "note": "ON 12/24 AND 12/31, THIS BOX MAY BE COLLECTED AS EARLY AS 12 NOON.", "nsi_id": "unitedstatespostalservice-a77078", "operator": "United States Postal Service", "operator:short": "USPS", "operator:type": "public", "operator:wikidata": "Q668687", "ref": "1572500003"}, "type": "Feature"}
{"dataset_attributes": {"@spider": "usps_collection_boxes", "spider:collection_time": "2024-01-04T08:25:05.301423"}, "geometry": {"coordinates": [-79.304071, 40.557805], "type": "Point"}, "id": "C6zO6GhsSQywRZ8hDAkWJCCaxb0=", "properties": {"@spider": "usps_collection_boxes", "addr:city": "CLUNE", "addr:country": "US", "addr:full": "2021 COAL RUN RD", "addr:postcode": "15727", "addr:state": "PA", "amenity": "post_box", "brand": "United States Postal Service", "brand:wikidata": "Q668687", "collection_times": "Mo-Fr 13:50; Sa 11:15", "name": "USPS COLLECTION BOX - BLUE BOX", "note": "ON 12/24 AND 12/31, THIS BOX MAY BE COLLECTED AS EARLY AS 12 NOON.", "nsi_id": "unitedstatespostalservice-a77078", "operator": "United States Postal Service", "operator:short": "USPS", "operator:type": "public", "operator:wikidata": "Q668687", "ref": "1572700000"}, "type": "Feature"}
{"dataset_attributes": {"@spider": "usps_collection_boxes", "spider:collection_time": "2024-01-04T08:25:05.301423"}, "geometry": {"coordinates": [-79.304071, 40.557805], "type": "Point"}, "id": "oPU66i5Tve54P1n7PyqX5WOmpyc=", "properties": {"@spider": "usps_collection_boxes", "addr:city": "CLUNE", "addr:country": "US", "addr:full": "2021 COAL RUN RD", "addr:postcode": "15727", "addr:state": "PA", "amenity": "post_box", "brand": "United States Postal Service", "brand:wikidata": "Q668687", "collection_times": "Mo-Fr 13:50; Sa 11:15", "name": "USPS COLLECTION BOX - PO LOBBY", "note": "ON 12/24 AND 12/31, THIS BOX MAY BE COLLECTED AS EARLY AS 12 NOON.", "nsi_id": "unitedstatespostalservice-a77078", "operator": "United States Postal Service", "operator:short": "USPS", "operator:type": "public", "operator:wikidata": "Q668687", "ref": "1572700001"}, "type": "Feature"}
{"dataset_attributes": {"@spider": "usps_collection_boxes", "spider:collection_time": "2024-01-04T08:25:05.301423"}, "geometry": {"coordinates": [-79.304012333, 40.557726639], "type": "Point"}, "id": "QZDHx4UaJNq3gI3FFQzboJo38es=", "properties": {"@spider": "usps_collection_boxes", "addr:city": "CLUNE", "addr:country": "US", "addr:full": "2021 COAL RUN RD", "addr:postcode": "15727", "addr:state": "PA", "amenity": "post_box", "brand": "United States Postal Service", "brand:wikidata": "Q668687", "collection_times": "Mo-Fr 13:50; Sa 11:05", "name": "USPS COLLECTION BOX - PO LOBBY", "note": "ON 12/24 AND 12/31, THIS BOX MAY BE COLLECTED AS EARLY AS 12 NOON.", "nsi_id": "unitedstatespostalservice-a77078", "operator": "United States Postal Service", "operator:short": "USPS", "operator:type": "public", "operator:wikidata": "Q668687", "ref": "1572700003"}, "type": "Feature"}
{"dataset_attributes": {"@spider": "usps_collection_boxes", "spider:collection_time": "2024-01-04T08:25:05.301423"}, "geometry": {"coordinates": [-79.013433, 40.666645], "type": "Point"}, "id": "7Z9EJN_R2bRSElvPJX-Nv5w3cz0=", "properties": {"@spider": "usps_collection_boxes", "addr:city": "CLYMER", "addr:country": "US", "addr:full": "735 FRANKLIN ST", "addr:postcode": "15728", "addr:state": "PA", "amenity": "post_box", "brand": "United States Postal Service", "brand:wikidata": "Q668687", "collection_times": "Mo-Fr 16:30; Sa 13:00", "name": "USPS COLLECTION BOX - BLUE BOX", "note": "ON 12/24 AND 12/31, THIS BOX MAY BE COLLECTED AS EARLY AS 12 NOON.", "nsi_id": "unitedstatespostalservice-a77078", "operator": "United States Postal Service", "operator:short": "USPS", "operator:type": "public", "operator:wikidata": "Q668687", "ref": "1572800000"}, "type": "Feature"}
{"dataset_attributes": {"@spider": "usps_collection_boxes", "spider:collection_time": "2024-01-04T08:25:05.301423"}, "geometry": {"coordinates": [-79.0136366, 40.670554], "type": "Point"}, "id": "t0LqMOi2f7GGX6_vrf44sTWG6Lw=", "properties": {"@spider": "usps_collection_boxes", "addr:city": "CLYMER", "addr:country": "US", "addr:full": "576 ADAMS ST", "addr:postcode": "15728", "addr:state": "PA", "amenity": "post_box", "brand": "United States Postal Service", "brand:wikidata": "Q668687", "collection_times": "Mo-Sa 09:30", "name": "USPS COLLECTION BOX - BLUE BOX", "nsi_id": "unitedstatespostalservice-a77078", "operator": "United States Postal Service", "operator:short": "USPS", "operator:type": "public", "operator:wikidata": "Q668687", "ref": "1572800001"}, "type": "Feature"}
{"dataset_attributes": {"@spider": "usps_collection_boxes", "spider:collection_time": "2024-01-04T08:25:05.301423"}, "geometry": {"coordinates": [-79.0105004, 40.67075], "type": "Point"}, "id": "CNI9U2-bGoBlRuhftGFjAFrGqKk=", "properties": {"@spider": "usps_collection_boxes", "addr:city": "CLYMER", "addr:country": "US", "addr:full": "120 4TH ST", "addr:postcode": "15728", "addr:state": "PA", "amenity": "post_box", "brand": "United States Postal Service", "brand:wikidata": "Q668687", "collection_times": "Mo-Sa 13:00", "name": "USPS COLLECTION BOX - BLUE BOX", "note": "ON 12/24 AND 12/31, THIS BOX MAY BE COLLECTED AS EARLY AS 12 NOON.", "nsi_id": "unitedstatespostalservice-a77078", "operator": "United States Postal Service", "operator:short": "USPS", "operator:type": "public", "operator:wikidata": "Q668687", "ref": "1572800004"}, "type": "Feature"}
{"dataset_attributes": {"@spider": "usps_collection_boxes", "spider:collection_time": "2024-01-04T08:25:05.301423"}, "geometry": {"coordinates": [-79.0109553, 40.668985], "type": "Point"}, "id": "MkinvJdKCx-XUyn4qWkeEgKsVPU=", "properties": {"@spider": "usps_collection_boxes", "addr:city": "CLYMER", "addr:country": "US", "addr:full": "530 FRANKLIN ST", "addr:postcode": "15728", "addr:state": "PA", "amenity": "post_box", "brand": "United States Postal Service", "brand:wikidata": "Q668687", "collection_times": "Mo-Sa 13:00", "name": "USPS COLLECTION BOX - BLUE BOX", "note": "ON 12/24 AND 12/31, THIS BOX MAY BE COLLECTED AS EARLY AS 12 NOON.", "nsi_id": "unitedstatespostalservice-a77078", "operator": "United States Postal Service", "operator:short": "USPS", "operator:type": "public", "operator:wikidata": "Q668687", "ref": "1572800007"}, "type": "Feature"}
{"dataset_attributes": {"@spider": "usps_collection_boxes", "spider:collection_time": "2024-01-04T08:25:05.301423"}, "geometry": {"coordinates": [-79.013402, 40.666717], "type": "Point"}, "id": "zmC7UDAW__9TaC4kQRYr82HVDrw=", "properties": {"@spider": "usps_collection_boxes", "addr:city": "CLYMER", "addr:country": "US", "addr:full": "735 FRANKLIN ST", "addr:postcode": "15728", "addr:state": "PA", "amenity": "post_box", "brand": "United States Postal Service", "brand:wikidata": "Q668687", "collection_times": "Mo-Fr 16:30; Sa 13:00", "name": "USPS COLLECTION BOX - PO LOBBY", "note": "ON 12/24 AND 12/31, THIS BOX MAY BE COLLECTED AS EARLY AS 12 NOON.", "nsi_id": "unitedstatespostalservice-a77078", "operator": "United States Postal Service", "operator:short": "USPS", "operator:type": "public", "operator:wikidata": "Q668687", "ref": "1572800011"}, "type": "Feature"}
{"dataset_attributes": {"@spider": "usps_collection_boxes", "spider:collection_time": "2024-01-04T08:25:05.301423"}, "geometry": {"coordinates": [-78.8833361, 40.637424], "type": "Point"}, "id": "sxKcwY33r0KBTZagLeCyAZBG7uI=", "properties": {"@spider": "usps_collection_boxes", "addr:city": "CLYMER", "addr:country": "US", "addr:full": "9999 ROUTE 553", "addr:postcode": "15728", "addr:state": "PA", "amenity": "post_box", "brand": "United States Postal Service", "brand:wikidata": "Q668687", "collection_times": "Mo-Sa 09:00", "name": "USPS COLLECTION BOX - BLUE BOX", "nsi_id": "unitedstatespostalservice-a77078", "operator": "United States Postal Service", "operator:short": "USPS", "operator:type": "public", "operator:wikidata": "Q668687", "ref": "1572800012"}, "type": "Feature"}
{"dataset_attributes": {"@spider": "usps_collection_boxes", "spider:collection_time": "2024-01-04T08:25:05.301423"}, "geometry": {"coordinates": [-79.013402368, 40.666621333], "type": "Point"}, "id": "ARNw7bdf1AZ6f-yQeP8b85bqOtE=", "properties": {"@spider": "usps_collection_boxes", "addr:city": "CLYMER", "addr:country": "US", "addr:full": "735 FRANKLIN ST", "addr:postcode": "15728", "addr:state": "PA", "amenity": "post_box", "brand": "United States Postal Service", "brand:wikidata": "Q668687", "collection_times": "Mo-Fr 16:30; Sa 12:00", "name": "USPS COLLECTION BOX - PO LOBBY", "note": "ON 12/24 AND 12/31, THIS BOX MAY BE COLLECTED AS EARLY AS 12 NOON.", "nsi_id": "unitedstatespostalservice-a77078", "operator": "United States Postal Service", "operator:short": "USPS", "operator:type": "public", "operator:wikidata": "Q668687", "ref": "1572800014"}, "type": "Feature"}
{"dataset_attributes": {"@spider": "usps_collection_boxes", "spider:collection_time": "2024-01-04T08:25:05.301423"}, "geometry": {"coordinates": [-78.94383, 40.712652], "type": "Point"}, "id": "W1n7-WVKOJIGm99Pj7LUevZgOto=", "properties": {"@spider": "usps_collection_boxes", "addr:city": "COMMODORE", "addr:country": "US", "addr:full": "5 VANDERBILT ST", "addr:postcode": "15729", "addr:state": "PA", "amenity": "post_box", "brand": "United States Postal Service", "brand:wikidata": "Q668687", "collection_times": "Mo-Fr 15:45; Sa 10:30", "name": "USPS COLLECTION BOX - PO LOBBY", "note": "ON 12/24 AND 12/31, THIS BOX MAY BE COLLECTED AS EARLY AS 12 NOON.", "nsi_id": "unitedstatespostalservice-a77078", "operator": "United States Postal Service", "operator:short": "USPS", "operator:type": "public", "operator:wikidata": "Q668687", "ref": "1572900000"}, "type": "Feature"}
{"dataset_attributes": {"@spider": "usps_collection_boxes", "spider:collection_time": "2024-01-04T08:25:05.301423"}, "geometry": {"coordinates": [-78.943939, 40.712641], "type": "Point"}, "id": "SOWie_od6i75K2tI85e2wdKap2o=", "properties": {"@spider": "usps_collection_boxes", "addr:city": "COMMODORE", "addr:country": "US", "addr:full": "5 VANDERBILT ST", "addr:postcode": "15729", "addr:state": "PA", "amenity": "post_box", "brand": "United States Postal Service", "brand:wikidata": "Q668687", "collection_times": "Mo-Fr 15:45; Sa 10:30", "name": "USPS COLLECTION BOX - BLUE BOX", "note": "ON 12/24 AND 12/31, THIS BOX MAY BE COLLECTED AS EARLY AS 12 NOON.", "nsi_id": "unitedstatespostalservice-a77078", "operator": "United States Postal Service", "operator:short": "USPS", "operator:type": "public", "operator:wikidata": "Q668687", "ref": "1572900001"}, "type": "Feature"}
{"dataset_attributes": {"@spider": "usps_collection_boxes", "spider:collection_time": "2024-01-04T08:25:05.301423"}, "geometry": {"coordinates": [-78.943866419, 40.712695622], "type": "Point"}, "id": "iBWTs00PMG3ue1KtqZbR9QzcGNc=", "properties": {"@spider": "usps_collection_boxes", "addr:city": "COMMODORE", "addr:country": "US", "addr:full": "5 VANDERBILT ST", "addr:postcode": "15729", "addr:state": "PA", "amenity": "post_box", "brand": "United States Postal Service", "brand:wikidata": "Q668687", "collection_times": "Mo-Fr 15:45; Sa 10:45", "name": "USPS COLLECTION BOX - PO LOBBY", "note": "ON 12/24 AND 12/31, THIS BOX MAY BE COLLECTED AS EARLY AS 12 NOON.", "nsi_id": "unitedstatespostalservice-a77078", "operator": "United States Postal Service", "operator:short": "USPS", "operator:type": "public", "operator:wikidata": "Q668687", "ref": "1572900003"}, "type": "Feature"}
{"dataset_attributes": {"@spider": "usps_collection_boxes", "spider:collection_time": "2024-01-04T08:25:05.301423"}, "geometry": {"coordinates": [-79.1728964224, 40.5004690311], "type": "Point"}, "id": "sloTqARocdKqQ8pyX3wTOox-c-Q=", "properties": {"@spider": "usps_collection_boxes", "addr:city": "CORAL", "addr:country": "US", "addr:full": "525 1ST ST", "addr:postcode": "15731", "addr:state": "PA", "amenity": "post_box", "brand": "United States Postal Service", "brand:wikidata": "Q668687", "collection_times": "Mo-Fr 11:55; Sa 11:25", "name": "USPS COLLECTION BOX - BLUE BOX", "nsi_id": "unitedstatespostalservice-a77078", "operator": "United States Postal Service", "operator:short": "USPS", "operator:type": "public", "operator:wikidata": "Q668687", "ref": "1573100003"}, "type": "Feature"}
{"dataset_attributes": {"@spider": "usps_collection_boxes", "spider:collection_time": "2024-01-04T08:25:05.301423"}, "geometry": {"coordinates": [-79.1737035165, 40.4998127328], "type": "Point"}, "id": "5TW1N5Bj2kdHRUmOeXPr-EfNwuo=", "properties": {"@spider": "usps_collection_boxes", "addr:city": "CORAL", "addr:country": "US", "addr:full": "627 1ST AVE", "addr:postcode": "15731", "addr:state": "PA", "amenity": "post_box", "brand": "United States Postal Service", "brand:wikidata": "Q668687", "collection_times": "Mo-Fr 11:55; Sa 11:25", "name": "USPS COLLECTION BOX - PO LOBBY", "nsi_id": "unitedstatespostalservice-a77078", "operator": "United States Postal Service", "operator:short": "USPS", "operator:type": "public", "operator:wikidata": "Q668687", "ref": "1573100004"}, "type": "Feature"}
{"dataset_attributes": {"@spider": "usps_collection_boxes", "spider:collection_time": "2024-01-04T08:25:05.301423"}, "geometry": {"coordinates": [-79.193086, 40.682196], "type": "Point"}, "id": "QkhnjTP563gJVV50bhdTZrtMfqE=", "properties": {"@spider": "usps_collection_boxes", "addr:city": "CREEKSIDE", "addr:country": "US", "addr:full": "435 INDIANA RD", "addr:postcode": "15732", "addr:state": "PA", "amenity": "post_box", "brand": "United States Postal Service", "brand:wikidata": "Q668687", "collection_times": "Mo-Fr 15:30; Sa 11:30", "name": "USPS COLLECTION BOX - BLUE BOX", "note": "ON 12/24 AND 12/31, THIS BOX MAY BE COLLECTED AS EARLY AS 12 NOON.", "nsi_id": "unitedstatespostalservice-a77078", "operator": "United States Postal Service", "operator:short": "USPS", "operator:type": "public", "operator:wikidata": "Q668687", "ref": "1573200000"}, "type": "Feature"}
{"dataset_attributes": {"@spider": "usps_collection_boxes", "spider:collection_time": "2024-01-04T08:25:05.301423"}, "geometry": {"coordinates": [-79.192991, 40.682178], "type": "Point"}, "id": "FdS0N4ym_d1zRmQqXyHNtauqpfU=", "properties": {"@spider": "usps_collection_boxes", "addr:city": "CREEKSIDE", "addr:country": "US", "addr:full": "435 INDIANA RD", "addr:postcode": "15732", "addr:state": "PA", "amenity": "post_box", "brand": "United States Postal Service", "brand:wikidata": "Q668687", "collection_times": "Mo-Fr 15:45; Sa 11:45", "name": "USPS COLLECTION BOX - PO LOBBY", "note": "ON 12/24 AND 12/31, THIS BOX MAY BE COLLECTED AS EARLY AS 12 NOON.", "nsi_id": "unitedstatespostalservice-a77078", "operator": "United States Postal Service", "operator:short": "USPS", "operator:type": "public", "operator:wikidata": "Q668687", "ref": "1573200001"}, "type": "Feature"}
{"dataset_attributes": {"@spider": "usps_collection_boxes", "spider:collection_time": "2024-01-04T08:25:05.301423"}, "geometry": {"coordinates": [-79.193080986, 40.682135449], "type": "Point"}, "id": "h8Dh8bTQXuV-Lc1MAhju_0lNUgY=", "properties": {"@spider": "usps_collection_boxes", "addr:city": "CREEKSIDE", "addr:country": "US", "addr:full": "435 INDIANA RD", "addr:postcode": "15732", "addr:state": "PA", "amenity": "post_box", "brand": "United States Postal Service", "brand:wikidata": "Q668687", "collection_times": "Mo-Fr 15:40; Sa 11:55", "name": "USPS COLLECTION BOX - PO LOBBY", "note": "ON 12/24 AND 12/31, THIS BOX MAY BE COLLECTED AS EARLY AS 12 NOON.", "nsi_id": "unitedstatespostalservice-a77078", "operator": "United States Postal Service", "operator:short": "USPS", "operator:type": "public", "operator:wikidata": "Q668687", "ref": "1573200003"}, "type": "Feature"}
{"dataset_attributes": {"@spider": "usps_collection_boxes", "spider:collection_time": "2024-01-04T08:25:05.301423"}, "geometry": {"coordinates": [-78.960902, 40.984582], "type": "Point"}, "id": "oz8m-7dQNW_ySIAKXBL9edm3_Tw=", "properties": {"@spider": "usps_collection_boxes", "addr:city": "DELANCEY", "addr:country": "US", "addr:full": "493 ADRIAN RD", "addr:postcode": "15733", "addr:state": "PA", "amenity": "post_box", "brand": "United States Postal Service", "brand:wikidata": "Q668687", "collection_times": "Mo-Sa 09:15", "name": "USPS COLLECTION BOX - BLUE BOX", "nsi_id": "unitedstatespostalservice-a77078", "operator": "United States Postal Service", "operator:short": "USPS", "operator:type": "public", "operator:wikidata": "Q668687", "ref": "1573300000"}, "type": "Feature"}
{"dataset_attributes": {"@spider": "usps_collection_boxes", "spider:collection_time": "2024-01-04T08:25:05.301423"}, "geometry": {"coordinates": [-78.960957, 40.984497], "type": "Point"}, "id": "Q-Yuwd6g8ctxD3_3J5DBokMLSqo=", "properties": {"@spider": "usps_collection_boxes", "addr:city": "DELANCEY", "addr:country": "US", "addr:full": "493 ADRIAN RD", "addr:postcode": "15733", "addr:state": "PA", "amenity": "post_box", "brand": "United States Postal Service", "brand:wikidata": "Q668687", "collection_times": "Mo-Sa 09:15", "name": "USPS COLLECTION BOX - PO LOBBY", "nsi_id": "unitedstatespostalservice-a77078", "operator": "United States Postal Service", "operator:short": "USPS", "operator:type": "public", "operator:wikidata": "Q668687", "ref": "1573300001"}, "type": "Feature"}
{"dataset_attributes": {"@spider": "usps_collection_boxes", "spider:collection_time": "2024-01-04T08:25:05.301423"}, "geometry": {"coordinates": [-78.961222878, 40.984342851], "type": "Point"}, "id": "fmo0oqZR76fs0EQjTD6RlR-hLkI=", "properties": {"@spider": "usps_collection_boxes", "addr:city": "DELANCEY", "addr:country": "US", "addr:full": "493 ADRIAN RD", "addr:postcode": "15733", "addr:state": "PA", "amenity": "post_box", "brand": "United States Postal Service", "brand:wikidata": "Q668687", "collection_times": "Mo-Sa 09:45", "name": "USPS COLLECTION BOX - PO LOBBY", "nsi_id": "unitedstatespostalservice-a77078", "operator": "United States Postal Service", "operator:short": "USPS", "operator:type": "public", "operator:wikidata": "Q668687", "ref": "1573300003"}, "type": "Feature"}
{"dataset_attributes": {"@spider": "usps_collection_boxes", "spider:collection_time": "2024-01-04T08:25:05.301423"}, "geometry": {"coordinates": [-79.006669, 40.717846], "type": "Point"}, "id": "PpZCS0SzBOjongf_4HWJNufxftw=", "properties": {"@spider": "usps_collection_boxes", "addr:city": "DIXONVILLE", "addr:country": "US", "addr:full": "18050 ROUTE 403 HWY N", "addr:postcode": "15734", "addr:state": "PA", "amenity": "post_box", "brand": "United States Postal Service", "brand:wikidata": "Q668687", "collection_times": "Mo-Fr 11:55; Sa 10:30", "name": "USPS COLLECTION BOX - BLUE BOX", "nsi_id": "unitedstatespostalservice-a77078", "operator": "United States Postal Service", "operator:short": "USPS", "operator:type": "public", "operator:wikidata": "Q668687", "ref": "1573400000"}, "type": "Feature"}
{"dataset_attributes": {"@spider": "usps_collection_boxes", "spider:collection_time": "2024-01-04T08:25:05.301423"}, "geometry": {"coordinates": [-79.0067, 40.717887], "type": "Point"}, "id": "OmExe4TKjf76zH2G9tDHDzANfIA=", "properties": {"@spider": "usps_collection_boxes", "addr:city": "DIXONVILLE", "addr:country": "US", "addr:full": "18050 ROUTE 403 HWY N", "addr:postcode": "15734", "addr:state": "PA", "amenity": "post_box", "brand": "United States Postal Service", "brand:wikidata": "Q668687", "collection_times": "Mo-Fr 11:55; Sa 10:30", "name": "USPS COLLECTION BOX - PO LOBBY", "nsi_id": "unitedstatespostalservice-a77078", "operator": "United States Postal Service", "operator:short": "USPS", "operator:type": "public", "operator:wikidata": "Q668687", "ref": "1573400001"}, "type": "Feature"}
{"dataset_attributes": {"@spider": "usps_collection_boxes", "spider:collection_time": "2024-01-04T08:25:05.301423"}, "geometry": {"coordinates": [-79.00664973, 40.71784325], "type": "Point"}, "id": "drjRfy48_tpzM2fU418ez-eHyG8=", "properties": {"@spider": "usps_collection_boxes", "addr:city": "DIXONVILLE", "addr:country": "US", "addr:full": "18050 ROUTE 403 HWY N", "addr:postcode": "15734", "addr:state": "PA", "amenity": "post_box", "brand": "United States Postal Service", "brand:wikidata": "Q668687", "collection_times": "Mo-Fr 11:55; Sa 10:25", "name": "USPS COLLECTION BOX - PO LOBBY", "nsi_id": "unitedstatespostalservice-a77078", "operator": "United States Postal Service", "operator:short": "USPS", "operator:type": "public", "operator:wikidata": "Q668687", "ref": "1573400003"}, "type": "Feature"}
{"dataset_attributes": {"@spider": "usps_collection_boxes", "spider:collection_time": "2024-01-04T08:25:05.301423"}, "geometry": {"coordinates": [-79.342431, 40.69493], "type": "Point"}, "id": "WzCzyVxaLeRLI5_xXmKHn6ZB8yE=", "properties": {"@spider": "usps_collection_boxes", "addr:city": "ELDERTON", "addr:country": "US", "addr:full": "201 E SALTWORK ST", "addr:postcode": "15736", "addr:state": "PA", "amenity": "post_box", "brand": "United States Postal Service", "brand:wikidata": "Q668687", "collection_times": "Mo-Fr 16:15; Sa 11:15", "name": "USPS COLLECTION BOX - PO LOBBY", "note": "ON 12/24 AND 12/31, THIS BOX MAY BE COLLECTED AS EARLY AS 12 NOON.", "nsi_id": "unitedstatespostalservice-a77078", "operator": "United States Postal Service", "operator:short": "USPS", "operator:type": "public", "operator:wikidata": "Q668687", "ref": "1573600000"}, "type": "Feature"}
{"dataset_attributes": {"@spider": "usps_collection_boxes", "spider:collection_time": "2024-01-04T08:25:05.301423"}, "geometry": {"coordinates": [-79.342431, 40.69493], "type": "Point"}, "id": "DtqdZF-8H9ZtWwFrAvO8EwTaCrk=", "properties": {"@spider": "usps_collection_boxes", "addr:city": "ELDERTON", "addr:country": "US", "addr:full": "201 E SALTWORK ST", "addr:postcode": "15736", "addr:state": "PA", "amenity": "post_box", "brand": "United States Postal Service", "brand:wikidata": "Q668687", "collection_times": "Mo-Fr 16:15; Sa 11:15", "name": "USPS COLLECTION BOX - BLUE BOX", "note": "ON 12/24 AND 12/31, THIS BOX MAY BE COLLECTED AS EARLY AS 12 NOON.", "nsi_id": "unitedstatespostalservice-a77078", "operator": "United States Postal Service", "operator:short": "USPS", "operator:type": "public", "operator:wikidata": "Q668687", "ref": "1573600001"}, "type": "Feature"}
{"dataset_attributes": {"@spider": "usps_collection_boxes", "spider:collection_time": "2024-01-04T08:25:05.301423"}, "geometry": {"coordinates": [-79.342970238, 40.694818965], "type": "Point"}, "id": "031wCldKIXgTb_krd-V5iyLwtrQ=", "properties": {"@spider": "usps_collection_boxes", "addr:city": "ELDERTON", "addr:country": "US", "addr:full": "201 E SALTWORK ST", "addr:postcode": "15736", "addr:state": "PA", "amenity": "post_box", "brand": "United States Postal Service", "brand:wikidata": "Q668687", "collection_times": "Mo-Fr 16:00; Sa 11:00", "name": "USPS COLLECTION BOX - PO LOBBY", "note": "ON 12/24 AND 12/31, THIS BOX MAY BE COLLECTED AS EARLY AS 12 NOON.", "nsi_id": "unitedstatespostalservice-a77078", "operator": "United States Postal Service", "operator:short": "USPS", "operator:type": "public", "operator:wikidata": "Q668687", "ref": "1573600003"}, "type": "Feature"}
{"dataset_attributes": {"@spider": "usps_collection_boxes", "spider:collection_time": "2024-01-04T08:25:05.301423"}, "geometry": {"coordinates": [-78.744849, 40.601629], "type": "Point"}, "id": "Ij6Yp3G953bf936z90eTGmEl9rI=", "properties": {"@spider": "usps_collection_boxes", "addr:city": "ELMORA", "addr:country": "US", "addr:full": "990 DEVEAUX ST", "addr:postcode": "15737", "addr:state": "PA", "amenity": "post_box", "brand": "United States Postal Service", "brand:wikidata": "Q668687", "collection_times": "Mo-Fr 11:55; Sa 11:45", "name": "USPS COLLECTION BOX - BLUE BOX", "nsi_id": "unitedstatespostalservice-a77078", "operator": "United States Postal Service", "operator:short": "USPS", "operator:type": "public", "operator:wikidata": "Q668687", "ref": "1573700000"}, "type": "Feature"}
{"dataset_attributes": {"@spider": "usps_collection_boxes", "spider:collection_time": "2024-01-04T08:25:05.301423"}, "geometry": {"coordinates": [-78.744849, 40.601629], "type": "Point"}, "id": "lYXBvQ5wkx24fPb_-LWUP0ynDEk=", "properties": {"@spider": "usps_collection_boxes", "addr:city": "ELMORA", "addr:country": "US", "addr:full": "990 DEVEAUX ST", "addr:postcode": "15737", "addr:state": "PA", "amenity": "post_box", "brand": "United States Postal Service", "brand:wikidata": "Q668687", "collection_times": "Mo-Fr 11:55; Sa 11:45", "name": "USPS COLLECTION BOX - PO LOBBY", "nsi_id": "unitedstatespostalservice-a77078", "operator": "United States Postal Service", "operator:short": "USPS", "operator:type": "public", "operator:wikidata": "Q668687", "ref": "1573700001"}, "type": "Feature"}
{"dataset_attributes": {"@spider": "usps_collection_boxes", "spider:collection_time": "2024-01-04T08:25:05.301423"}, "geometry": {"coordinates": [-78.744984822, 40.601451812], "type": "Point"}, "id": "Oc-YYF03Ttw7COGE61D5AzD0gm0=", "properties": {"@spider": "usps_collection_boxes", "addr:city": "ELMORA", "addr:country": "US", "addr:full": "990 DEVEAUX ST", "addr:postcode": "15737", "addr:state": "PA", "amenity": "post_box", "brand": "United States Postal Service", "brand:wikidata": "Q668687", "collection_times": "Mo-Fr 11:55; Sa 11:40", "name": "USPS COLLECTION BOX - PO LOBBY", "nsi_id": "unitedstatespostalservice-a77078", "operator": "United States Postal Service", "operator:short": "USPS", "operator:type": "public", "operator:wikidata": "Q668687", "ref": "1573700003"}, "type": "Feature"}
{"dataset_attributes": {"@spider": "usps_collection_boxes", "spider:collection_time": "2024-01-04T08:25:05.301423"}, "geometry": {"coordinates": [-78.790628, 40.696177], "type": "Point"}, "id": "nYy6KwheosYseUiPBKuskFIlgEU=", "properties": {"@spider": "usps_collection_boxes", "addr:city": "EMEIGH", "addr:country": "US", "addr:full": "871 MAIN ST", "addr:postcode": "15738", "addr:state": "PA", "amenity": "post_box", "brand": "United States Postal Service", "brand:wikidata": "Q668687", "collection_times": "Mo-Fr 12:55; Sa 11:45", "name": "USPS COLLECTION BOX - BLUE BOX", "note": "ON 12/24 AND 12/31, THIS BOX MAY BE COLLECTED AS EARLY AS 12 NOON.", "nsi_id": "unitedstatespostalservice-a77078", "operator": "United States Postal Service", "operator:short": "USPS", "operator:type": "public", "operator:wikidata": "Q668687", "ref": "1573800000"}, "type": "Feature"}
{"dataset_attributes": {"@spider": "usps_collection_boxes", "spider:collection_time": "2024-01-04T08:25:05.301423"}, "geometry": {"coordinates": [-78.790563, 40.696194], "type": "Point"}, "id": "vJ-p0j0mZsoS7O_fU769wXLevD8=", "properties": {"@spider": "usps_collection_boxes", "addr:city": "EMEIGH", "addr:country": "US", "addr:full": "871 MAIN ST", "addr:postcode": "15738", "addr:state": "PA", "amenity": "post_box", "brand": "United States Postal Service", "brand:wikidata": "Q668687", "collection_times": "Mo-Fr 12:55; Sa 11:45", "name": "USPS COLLECTION BOX - PO LOBBY", "note": "ON 12/24 AND 12/31, THIS BOX MAY BE COLLECTED AS EARLY AS 12 NOON.", "nsi_id": "unitedstatespostalservice-a77078", "operator": "United States Postal Service", "operator:short": "USPS", "operator:type": "public", "operator:wikidata": "Q668687", "ref": "1573800001"}, "type": "Feature"}
{"dataset_attributes": {"@spider": "usps_collection_boxes", "spider:collection_time": "2024-01-04T08:25:05.301423"}, "geometry": {"coordinates": [-78.791249201, 40.696251342], "type": "Point"}, "id": "FDRnhxrGb8GRlGkCanSbukfKp8I=", "properties": {"@spider": "usps_collection_boxes", "addr:city": "EMEIGH", "addr:country": "US", "addr:full": "871 MAIN ST", "addr:postcode": "15738", "addr:state": "PA", "amenity": "post_box", "brand": "United States Postal Service", "brand:wikidata": "Q668687", "collection_times": "Mo-Fr 12:55; Sa 11:55", "name": "USPS COLLECTION BOX - PO LOBBY", "note": "ON 12/24 AND 12/31, THIS BOX MAY BE COLLECTED AS EARLY AS 12 NOON.", "nsi_id": "unitedstatespostalservice-a77078", "operator": "United States Postal Service", "operator:short": "USPS", "operator:type": "public", "operator:wikidata": "Q668687", "ref": "1573800003"}, "type": "Feature"}
{"dataset_attributes": {"@spider": "usps_collection_boxes", "spider:collection_time": "2024-01-04T08:25:05.301423"}, "geometry": {"coordinates": [-78.876479, 40.807463], "type": "Point"}, "id": "2YiJ07mjt1EvGSV28pppaVbfLT0=", "properties": {"@spider": "usps_collection_boxes", "addr:city": "GIPSY", "addr:country": "US", "addr:full": "3885 GIPSY RD", "addr:postcode": "15741", "addr:state": "PA", "amenity": "post_box", "brand": "United States Postal Service", "brand:wikidata": "Q668687", "collection_times": "Mo-Fr 15:15; Sa 11:00", "name": "USPS COLLECTION BOX - BLUE BOX", "note": "ON 12/24 AND 12/31, THIS BOX MAY BE COLLECTED AS EARLY AS 12 NOON.", "nsi_id": "unitedstatespostalservice-a77078", "operator": "United States Postal Service", "operator:short": "USPS", "operator:type": "public", "operator:wikidata": "Q668687", "ref": "1574100000"}, "type": "Feature"}
{"dataset_attributes": {"@spider": "usps_collection_boxes", "spider:collection_time": "2024-01-04T08:25:05.301423"}, "geometry": {"coordinates": [-78.876473, 40.807545], "type": "Point"}, "id": "tnvkom3oJdoFW1tRXnp4rM2qlqg=", "properties": {"@spider": "usps_collection_boxes", "addr:city": "GIPSY", "addr:country": "US", "addr:full": "3885 GIPSY RD", "addr:postcode": "15741", "addr:state": "PA", "amenity": "post_box", "brand": "United States Postal Service", "brand:wikidata": "Q668687", "collection_times": "Mo-Fr 15:15; Sa 11:00", "name": "USPS COLLECTION BOX - PO LOBBY", "note": "ON 12/24 AND 12/31, THIS BOX MAY BE COLLECTED AS EARLY AS 12 NOON.", "nsi_id": "unitedstatespostalservice-a77078", "operator": "United States Postal Service", "operator:short": "USPS", "operator:type": "public", "operator:wikidata": "Q668687", "ref": "1574100001"}, "type": "Feature"}
{"dataset_attributes": {"@spider": "usps_collection_boxes", "spider:collection_time": "2024-01-04T08:25:05.301423"}, "geometry": {"coordinates": [-78.876514525, 40.80747221], "type": "Point"}, "id": "XLWhELCVi7V6hkIu88kbZ43G_i8=", "properties": {"@spider": "usps_collection_boxes", "addr:city": "GIPSY", "addr:country": "US", "addr:full": "3885 GIPSY RD", "addr:postcode": "15741", "addr:state": "PA", "amenity": "post_box", "brand": "United States Postal Service", "brand:wikidata": "Q668687", "collection_times": "Mo-Fr 15:15; Sa 11:10", "name": "USPS COLLECTION BOX - PO LOBBY", "note": "ON 12/24 AND 12/31, THIS BOX MAY BE COLLECTED AS EARLY AS 12 NOON.", "nsi_id": "unitedstatespostalservice-a77078", "operator": "United States Postal Service", "operator:short": "USPS", "operator:type": "public", "operator:wikidata": "Q668687", "ref": "1574100003"}, "type": "Feature"}
{"dataset_attributes": {"@spider": "usps_collection_boxes", "spider:collection_time": "2024-01-04T08:25:05.301423"}, "geometry": {"coordinates": [-78.827133, 40.821052], "type": "Point"}, "id": "Rg3JpFXcqbhaOi9G-gukbd7Xe24=", "properties": {"@spider": "usps_collection_boxes", "addr:city": "GLEN CAMPBELL", "addr:country": "US", "addr:full": "455 GLENWOOD AVE", "addr:postcode": "15742", "addr:state": "PA", "amenity": "post_box", "brand": "United States Postal Service", "brand:wikidata": "Q668687", "collection_times": "Mo-Fr 11:55; Sa 11:00", "name": "USPS COLLECTION BOX - BLUE BOX", "nsi_id": "unitedstatespostalservice-a77078", "operator": "United States Postal Service", "operator:short": "USPS", "operator:type": "public", "operator:wikidata": "Q668687", "ref": "1574200000"}, "type": "Feature"}
{"dataset_attributes": {"@spider": "usps_collection_boxes", "spider:collection_time": "2024-01-04T08:25:05.301423"}, "geometry": {"coordinates": [-78.827037, 40.82104], "type": "Point"}, "id": "EiAb_3QlMrL_D6t9XTaA9IL12jU=", "properties": {"@spider": "usps_collection_boxes", "addr:city": "GLEN CAMPBELL", "addr:country": "US", "addr:full": "455 GLENWOOD AVE", "addr:postcode": "15742", "addr:state": "PA", "amenity": "post_box", "brand": "United States Postal Service", "brand:wikidata": "Q668687", "collection_times": "Mo-Fr 11:55; Sa 11:00", "name": "USPS COLLECTION BOX - PO LOBBY", "nsi_id": "unitedstatespostalservice-a77078", "operator": "United States Postal Service", "operator:short": "USPS", "operator:type": "public", "operator:wikidata": "Q668687", "ref": "1574200001"}, "type": "Feature"}
{"dataset_attributes": {"@spider": "usps_collection_boxes", "spider:collection_time": "2024-01-04T08:25:05.301423"}, "geometry": {"coordinates": [-78.827003873, 40.820990994], "type": "Point"}, "id": "LGrsiFgym7SnD3NEb3iGgF5pXOY=", "properties": {"@spider": "usps_collection_boxes", "addr:city": "GLEN CAMPBELL", "addr:country": "US", "addr:full": "455 GLENWOOD AVE", "addr:postcode": "15742", "addr:state": "PA", "amenity": "post_box", "brand": "United States Postal Service", "brand:wikidata": "Q668687", "collection_times": "Mo-Fr 11:55; Sa 11:10", "name": "USPS COLLECTION BOX - PO LOBBY", "nsi_id": "unitedstatespostalservice-a77078", "operator": "United States Postal Service", "operator:short": "USPS", "operator:type": "public", "operator:wikidata": "Q668687", "ref": "1574200003"}, "type": "Feature"}
{"dataset_attributes": {"@spider": "usps_collection_boxes", "spider:collection_time": "2024-01-04T08:25:05.301423"}, "geometry": {"coordinates": [-79.081185, 40.923922], "type": "Point"}, "id": "HFf275-2CJ6hMX3eghVcQapvRq8=", "properties": {"@spider": "usps_collection_boxes", "addr:city": "HAMILTON", "addr:country": "US", "addr:full": "23 HAMILTON MARKTON RD", "addr:postcode": "15744", "addr:state": "PA", "amenity": "post_box", "brand": "United States Postal Service", "brand:wikidata": "Q668687", "collection_times": "Mo-Fr 10:45; Sa 10:15", "name": "USPS COLLECTION BOX - BLUE BOX", "nsi_id": "unitedstatespostalservice-a77078", "operator": "United States Postal Service", "operator:short": "USPS", "operator:type": "public", "operator:wikidata": "Q668687", "ref": "1574400000"}, "type": "Feature"}
{"dataset_attributes": {"@spider": "usps_collection_boxes", "spider:collection_time": "2024-01-04T08:25:05.301423"}, "geometry": {"coordinates": [-79.081149, 40.923922], "type": "Point"}, "id": "3lhb-05i8DE-FXL8eCJtLmo6lSI=", "properties": {"@spider": "usps_collection_boxes", "addr:city": "HAMILTON", "addr:country": "US", "addr:full": "23 HAMILTON MARKTON RD", "addr:postcode": "15744", "addr:state": "PA", "amenity": "post_box", "brand": "United States Postal Service", "brand:wikidata": "Q668687", "collection_times": "Mo-Fr 10:45; Sa 10:15", "name": "USPS COLLECTION BOX - PO LOBBY", "nsi_id": "unitedstatespostalservice-a77078", "operator": "United States Postal Service", "operator:short": "USPS", "operator:type": "public", "operator:wikidata": "Q668687", "ref": "1574400001"}, "type": "Feature"}
{"dataset_attributes": {"@spider": "usps_collection_boxes", "spider:collection_time": "2024-01-04T08:25:05.301423"}, "geometry": {"coordinates": [-79.081188907, 40.923927974], "type": "Point"}, "id": "8eNkfbJ7cFxBLKd2UeuccAIIE8M=", "properties": {"@spider": "usps_collection_boxes", "addr:city": "HAMILTON", "addr:country": "US", "addr:full": "23 HAMILTON MARKTON RD", "addr:postcode": "15744", "addr:state": "PA", "amenity": "post_box", "brand": "United States Postal Service", "brand:wikidata": "Q668687", "collection_times": "Mo-Sa 11:00", "name": "USPS COLLECTION BOX - PO LOBBY", "nsi_id": "unitedstatespostalservice-a77078", "operator": "United States Postal Service", "operator:short": "USPS", "operator:type": "public", "operator:wikidata": "Q668687", "ref": "1574400003"}, "type": "Feature"}
{"dataset_attributes": {"@spider": "usps_collection_boxes", "spider:collection_time": "2024-01-04T08:25:05.301423"}, "geometry": {"coordinates": [-78.91535, 40.621752], "type": "Point"}, "id": "DZ6uQ2Zrtx8VzRWcIv1XIHVHDN8=", "properties": {"@spider": "usps_collection_boxes", "addr:city": "HEILWOOD", "addr:country": "US", "addr:full": "6521 ROUTE 403 HWY N", "addr:postcode": "15745", "addr:state": "PA", "amenity": "post_box", "brand": "United States Postal Service", "brand:wikidata": "Q668687", "collection_times": "Mo-Fr 11:55; Sa 12:00", "name": "USPS COLLECTION BOX - BLUE BOX", "nsi_id": "unitedstatespostalservice-a77078", "operator": "United States Postal Service", "operator:short": "USPS", "operator:type": "public", "operator:wikidata": "Q668687", "ref": "1574500000"}, "type": "Feature"}
{"dataset_attributes": {"@spider": "usps_collection_boxes", "spider:collection_time": "2024-01-04T08:25:05.301423"}, "geometry": {"coordinates": [-78.915298, 40.62176], "type": "Point"}, "id": "CDaImw5AFvMHfNWR0jwbMKw67pU=", "properties": {"@spider": "usps_collection_boxes", "addr:city": "HEILWOOD", "addr:country": "US", "addr:full": "6521 ROUTE 403 HWY N", "addr:postcode": "15745", "addr:state": "PA", "amenity": "post_box", "brand": "United States Postal Service", "brand:wikidata": "Q668687", "collection_times": "Mo-Fr 11:55; Sa 12:00", "name": "USPS COLLECTION BOX - PO LOBBY", "nsi_id": "unitedstatespostalservice-a77078", "operator": "United States Postal Service", "operator:short": "USPS", "operator:type": "public", "operator:wikidata": "Q668687", "ref": "1574500002"}, "type": "Feature"}
{"dataset_attributes": {"@spider": "usps_collection_boxes", "spider:collection_time": "2024-01-04T08:25:05.301423"}, "geometry": {"coordinates": [-78.915396256, 40.621694699], "type": "Point"}, "id": "9Zu7DlbIAUhr2pWGhqTpCgIgZJM=", "properties": {"@spider": "usps_collection_boxes", "addr:city": "HEILWOOD", "addr:country": "US", "addr:full": "6521 ROUTE 403 HWY N", "addr:postcode": "15745", "addr:state": "PA", "amenity": "post_box", "brand": "United States Postal Service", "brand:wikidata": "Q668687", "collection_times": "Mo-Sa 11:55", "name": "USPS COLLECTION BOX - PO LOBBY", "nsi_id": "unitedstatespostalservice-a77078", "operator": "United States Postal Service", "operator:short": "USPS", "operator:type": "public", "operator:wikidata": "Q668687", "ref": "1574500004"}, "type": "Feature"}
{"dataset_attributes": {"@spider": "usps_collection_boxes", "spider:collection_time": "2024-01-04T08:25:05.301423"}, "geometry": {"coordinates": [-78.879885, 40.752372], "type": "Point"}, "id": "EUNxz9tB5Ph89gwg5zTSsTUddws=", "properties": {"@spider": "usps_collection_boxes", "addr:city": "HILLSDALE", "addr:country": "US", "addr:full": "14 WILGUS RD", "addr:postcode": "15746", "addr:state": "PA", "amenity": "post_box", "brand": "United States Postal Service", "brand:wikidata": "Q668687", "collection_times": "Mo-Fr 11:55; Sa 11:45", "name": "USPS COLLECTION BOX - BLUE BOX", "nsi_id": "unitedstatespostalservice-a77078", "operator": "United States Postal Service", "operator:short": "USPS", "operator:type": "public", "operator:wikidata": "Q668687", "ref": "1574600000"}, "type": "Feature"}
{"dataset_attributes": {"@spider": "usps_collection_boxes", "spider:collection_time": "2024-01-04T08:25:05.301423"}, "geometry": {"coordinates": [-78.879914, 40.752286], "type": "Point"}, "id": "nOC2ge7HZTgtpTtaBznIFY6mJ4o=", "properties": {"@spider": "usps_collection_boxes", "addr:city": "HILLSDALE", "addr:country": "US", "addr:full": "14 WILGUS RD", "addr:postcode": "15746", "addr:state": "PA", "amenity": "post_box", "brand": "United States Postal Service", "brand:wikidata": "Q668687", "collection_times": "Mo-Fr 11:55; Sa 11:45", "name": "USPS COLLECTION BOX - PO LOBBY", "nsi_id": "unitedstatespostalservice-a77078", "operator": "United States Postal Service", "operator:short": "USPS", "operator:type": "public", "operator:wikidata": "Q668687", "ref": "1574600001"}, "type": "Feature"}
{"dataset_attributes": {"@spider": "usps_collection_boxes", "spider:collection_time": "2024-01-04T08:25:05.301423"}, "geometry": {"coordinates": [-78.879861969, 40.752341798], "type": "Point"}, "id": "RlJYXYALd97JooIhM-7xy-GESlA=", "properties": {"@spider": "usps_collection_boxes", "addr:city": "HILLSDALE", "addr:country": "US", "addr:full": "14 WILGUS RD", "addr:postcode": "15746", "addr:state": "PA", "amenity": "post_box", "brand": "United States Postal Service", "brand:wikidata": "Q668687", "collection_times": "Mo-Fr 11:55; Sa 11:45", "name": "USPS COLLECTION BOX - PO LOBBY", "nsi_id": "unitedstatespostalservice-a77078", "operator": "United States Postal Service", "operator:short": "USPS", "operator:type": "public", "operator:wikidata": "Q668687", "ref": "1574600003"}, "type": "Feature"}
{"dataset_attributes": {"@spider": "usps_collection_boxes", "spider:collection_time": "2024-01-04T08:25:05.301423"}, "geometry": {"coordinates": [-79.105673919, 40.739318497], "type": "Point"}, "id": "BK95LkS_KQrHXCDX2I9HRb-p9Og=", "properties": {"@spider": "usps_collection_boxes", "addr:city": "HOME", "addr:country": "US", "addr:full": "51 ROUTE 85 HWY", "addr:postcode": "15747", "addr:state": "PA", "amenity": "post_box", "brand": "United States Postal Service", "brand:wikidata": "Q668687", "collection_times": "Mo-Fr 16:00; Sa 11:15", "name": "USPS COLLECTION BOX - BLUE BOX", "note": "ON 12/24 AND 12/31, THIS BOX MAY BE COLLECTED AS EARLY AS 12 NOON.", "nsi_id": "unitedstatespostalservice-a77078", "operator": "United States Postal Service", "operator:short": "USPS", "operator:type": "public", "operator:wikidata": "Q668687", "ref": "1574700000"}, "type": "Feature"}
{"dataset_attributes": {"@spider": "usps_collection_boxes", "spider:collection_time": "2024-01-04T08:25:05.301423"}, "geometry": {"coordinates": [-79.105673919, 40.739318497], "type": "Point"}, "id": "osBCeHdNIPN54FrFmdfoNuJwnhI=", "properties": {"@spider": "usps_collection_boxes", "addr:city": "HOME", "addr:country": "US", "addr:full": "51 ROUTE 85 HWY", "addr:postcode": "15747", "addr:state": "PA", "amenity": "post_box", "brand": "United States Postal Service", "brand:wikidata": "Q668687", "collection_times": "Mo-Fr 16:00; Sa 11:15", "name": "USPS COLLECTION BOX - PO LOBBY", "note": "ON 12/24 AND 12/31, THIS BOX MAY BE COLLECTED AS EARLY AS 12 NOON.", "nsi_id": "unitedstatespostalservice-a77078", "operator": "United States Postal Service", "operator:short": "USPS", "operator:type": "public", "operator:wikidata": "Q668687", "ref": "1574700001"}, "type": "Feature"}
{"dataset_attributes": {"@spider": "usps_collection_boxes", "spider:collection_time": "2024-01-04T08:25:05.301423"}, "geometry": {"coordinates": [-79.105673919, 40.739318497], "type": "Point"}, "id": "HvH9IwXR5WsJkgInBuhs5XTPZxc=", "properties": {"@spider": "usps_collection_boxes", "addr:city": "HOME", "addr:country": "US", "addr:full": "51 ROUTE 85 HWY", "addr:postcode": "15747", "addr:state": "PA", "amenity": "post_box", "brand": "United States Postal Service", "brand:wikidata": "Q668687", "collection_times": "Mo-Fr 16:00; Sa 11:00", "name": "USPS COLLECTION BOX - PO LOBBY", "note": "ON 12/24 AND 12/31, THIS BOX MAY BE COLLECTED AS EARLY AS 12 NOON.", "nsi_id": "unitedstatespostalservice-a77078", "operator": "United States Postal Service", "operator:short": "USPS", "operator:type": "public", "operator:wikidata": "Q668687", "ref": "1574700003"}, "type": "Feature"}
{"dataset_attributes": {"@spider": "usps_collection_boxes", "spider:collection_time": "2024-01-04T08:25:05.301423"}, "geometry": {"coordinates": [-79.161383, 40.542443], "type": "Point"}, "id": "N2-lufEy1wk-CK5QiV-7sf2EwcI=", "properties": {"@spider": "usps_collection_boxes", "addr:city": "HOMER CITY", "addr:country": "US", "addr:full": "25 N MAIN ST", "addr:postcode": "15748", "addr:state": "PA", "amenity": "post_box", "brand": "United States Postal Service", "brand:wikidata": "Q668687", "collection_times": "Mo-Fr 16:30; Sa 12:15", "name": "USPS COLLECTION BOX - BLUE BOX", "note": "ON 12/24 AND 12/31, THIS BOX MAY BE COLLECTED AS EARLY AS 12 NOON.", "nsi_id": "unitedstatespostalservice-a77078", "operator": "United States Postal Service", "operator:short": "USPS", "operator:type": "public", "operator:wikidata": "Q668687", "ref": "1574800001"}, "type": "Feature"}
{"dataset_attributes": {"@spider": "usps_collection_boxes", "spider:collection_time": "2024-01-04T08:25:05.301423"}, "geometry": {"coordinates": [-79.163724, 40.540902], "type": "Point"}, "id": "mpw99pKra9xO1GaaP5i3ey1141c=", "properties": {"@spider": "usps_collection_boxes", "addr:city": "HOMER CITY", "addr:country": "US", "addr:full": "125 W ELM ST", "addr:postcode": "15748", "addr:state": "PA", "amenity": "post_box", "brand": "United States Postal Service", "brand:wikidata": "Q668687", "collection_times": "Mo-Sa 08:30", "name": "USPS COLLECTION BOX - BLUE BOX", "nsi_id": "unitedstatespostalservice-a77078", "operator": "United States Postal Service", "operator:short": "USPS", "operator:type": "public", "operator:wikidata": "Q668687", "ref": "1574800013"}, "type": "Feature"}
{"dataset_attributes": {"@spider": "usps_collection_boxes", "spider:collection_time": "2024-01-04T08:25:05.301423"}, "geometry": {"coordinates": [-79.161324, 40.542416], "type": "Point"}, "id": "319RHqb3oxmb6bS6FvRQl7n_yZI=", "properties": {"@spider": "usps_collection_boxes", "addr:city": "HOMER CITY", "addr:country": "US", "addr:full": "25 N MAIN ST", "addr:postcode": "15748", "addr:state": "PA", "amenity": "post_box", "brand": "United States Postal Service", "brand:wikidata": "Q668687", "collection_times": "Mo-Fr 16:30; Sa 12:15", "name": "USPS COLLECTION BOX - PO LOBBY", "note": "ON 12/24 AND 12/31, THIS BOX MAY BE COLLECTED AS EARLY AS 12 NOON.", "nsi_id": "unitedstatespostalservice-a77078", "operator": "United States Postal Service", "operator:short": "USPS", "operator:type": "public", "operator:wikidata": "Q668687", "ref": "1574800015"}, "type": "Feature"}
{"dataset_attributes": {"@spider": "usps_collection_boxes", "spider:collection_time": "2024-01-04T08:25:05.301423"}, "geometry": {"coordinates": [-79.16139461, 40.542402147], "type": "Point"}, "id": "c3aBYixbVwkQkwHgcpOICCGcTdk=", "properties": {"@spider": "usps_collection_boxes", "addr:city": "HOMER CITY", "addr:country": "US", "addr:full": "25 N MAIN ST", "addr:postcode": "15748", "addr:state": "PA", "amenity": "post_box", "brand": "United States Postal Service", "brand:wikidata": "Q668687", "collection_times": "Mo-Fr 16:30; Sa 12:00", "name": "USPS COLLECTION BOX - PO LOBBY", "note": "ON 12/24 AND 12/31, THIS BOX MAY BE COLLECTED AS EARLY AS 12 NOON.", "nsi_id": "unitedstatespostalservice-a77078", "operator": "United States Postal Service", "operator:short": "USPS", "operator:type": "public", "operator:wikidata": "Q668687", "ref": "1574800017"}, "type": "Feature"}
{"dataset_attributes": {"@spider": "usps_collection_boxes", "spider:collection_time": "2024-01-04T08:25:05.301423"}, "geometry": {"coordinates": [-79.280795, 40.541839], "type": "Point"}, "id": "7qZg8v1gcfuV1YoJU9w1WxQks_o=", "properties": {"@spider": "usps_collection_boxes", "addr:city": "KENT", "addr:country": "US", "addr:full": "90 E JACKSON ST", "addr:postcode": "15752", "addr:state": "PA", "amenity": "post_box", "brand": "United States Postal Service", "brand:wikidata": "Q668687", "collection_times": "Mo-Fr 09:50; Sa 11:15", "name": "USPS COLLECTION BOX - BLUE BOX", "nsi_id": "unitedstatespostalservice-a77078", "operator": "United States Postal Service", "operator:short": "USPS", "operator:type": "public", "operator:wikidata": "Q668687", "ref": "1575200000"}, "type": "Feature"}
{"dataset_attributes": {"@spider": "usps_collection_boxes", "spider:collection_time": "2024-01-04T08:25:05.301423"}, "geometry": {"coordinates": [-79.280874, 40.541901], "type": "Point"}, "id": "C9vSUe1El2q7emu4tzyDsm4QOSY=", "properties": {"@spider": "usps_collection_boxes", "addr:city": "KENT", "addr:country": "US", "addr:full": "90 E JACKSON ST", "addr:postcode": "15752", "addr:state": "PA", "amenity": "post_box", "brand": "United States Postal Service", "brand:wikidata": "Q668687", "collection_times": "Mo-Fr 09:50; Sa 11:15", "name": "USPS COLLECTION BOX - PO LOBBY", "nsi_id": "unitedstatespostalservice-a77078", "operator": "United States Postal Service", "operator:short": "USPS", "operator:type": "public", "operator:wikidata": "Q668687", "ref": "1575200001"}, "type": "Feature"}
{"dataset_attributes": {"@spider": "usps_collection_boxes", "spider:collection_time": "2024-01-04T08:25:05.301423"}, "geometry": {"coordinates": [-79.280796027, 40.541876638], "type": "Point"}, "id": "bhedSvfeKqpV9iknnGdnTCiXti8=", "properties": {"@spider": "usps_collection_boxes", "addr:city": "KENT", "addr:country": "US", "addr:full": "90 E JACKSON ST", "addr:postcode": "15752", "addr:state": "PA", "amenity": "post_box", "brand": "United States Postal Service", "brand:wikidata": "Q668687", "collection_times": "Mo-Fr 09:50; Sa 11:05", "name": "USPS COLLECTION BOX - PO LOBBY", "nsi_id": "unitedstatespostalservice-a77078", "operator": "United States Postal Service", "operator:short": "USPS", "operator:type": "public", "operator:wikidata": "Q668687", "ref": "1575200003"}, "type": "Feature"}
{"dataset_attributes": {"@spider": "usps_collection_boxes", "spider:collection_time": "2024-01-04T08:25:05.301423"}, "geometry": {"coordinates": [-78.677485, 40.83572], "type": "Point"}, "id": "C7pj5weGKd8KYn5_IjMiqJEfV5M=", "properties": {"@spider": "usps_collection_boxes", "addr:city": "LA JOSE", "addr:country": "US", "addr:full": "33 CECIL HURD HWY", "addr:postcode": "15753", "addr:state": "PA", "amenity": "post_box", "brand": "United States Postal Service", "brand:wikidata": "Q668687", "collection_times": "Mo-Fr 09:50; Sa 11:00", "name": "USPS COLLECTION BOX - BLUE BOX", "nsi_id": "unitedstatespostalservice-a77078", "operator": "United States Postal Service", "operator:short": "USPS", "operator:type": "public", "operator:wikidata": "Q668687", "ref": "1575300000"}, "type": "Feature"}
{"dataset_attributes": {"@spider": "usps_collection_boxes", "spider:collection_time": "2024-01-04T08:25:05.301423"}, "geometry": {"coordinates": [-78.67792, 40.83587], "type": "Point"}, "id": "7GHCNA3xUKda9-rE-r3JNU6k1Ro=", "properties": {"@spider": "usps_collection_boxes", "addr:city": "LA JOSE", "addr:country": "US", "addr:full": "33 CECIL HURD HWY", "addr:postcode": "15753", "addr:state": "PA", "amenity": "post_box", "brand": "United States Postal Service", "brand:wikidata": "Q668687", "collection_times": "Mo-Fr 09:50; Sa 11:00", "name": "USPS COLLECTION BOX - PO LOBBY", "nsi_id": "unitedstatespostalservice-a77078", "operator": "United States Postal Service", "operator:short": "USPS", "operator:type": "public", "operator:wikidata": "Q668687", "ref": "1575300001"}, "type": "Feature"}
{"dataset_attributes": {"@spider": "usps_collection_boxes", "spider:collection_time": "2024-01-04T08:25:05.301423"}, "geometry": {"coordinates": [-78.677810501, 40.835999044], "type": "Point"}, "id": "Y0lDKZnxXvkjTbQkjgR-si2Nm-Q=", "properties": {"@spider": "usps_collection_boxes", "addr:city": "LA JOSE", "addr:country": "US", "addr:full": "33 CECIL HURD HWY", "addr:postcode": "15753", "addr:state": "PA", "amenity": "post_box", "brand": "United States Postal Service", "brand:wikidata": "Q668687", "collection_times": "Mo-Fr 09:50; Sa 11:05", "name": "USPS COLLECTION BOX - PO LOBBY", "nsi_id": "unitedstatespostalservice-a77078", "operator": "United States Postal Service", "operator:short": "USPS", "operator:type": "public", "operator:wikidata": "Q668687", "ref": "1575300003"}, "type": "Feature"}
{"dataset_attributes": {"@spider": "usps_collection_boxes", "spider:collection_time": "2024-01-04T08:25:05.301423"}, "geometry": {"coordinates": [-79.150922, 40.557905], "type": "Point"}, "id": "gO3AtRJwARYQSDIeSQgmL40Gl2w=", "properties": {"@spider": "usps_collection_boxes", "addr:city": "LUCERNEMINES", "addr:country": "US", "addr:full": "161 6TH ST", "addr:postcode": "15754", "addr:state": "PA", "amenity": "post_box", "brand": "United States Postal Service", "brand:wikidata": "Q668687", "collection_times": "Mo-Fr 11:55; Sa 11:45", "name": "USPS COLLECTION BOX - PO LOBBY", "nsi_id": "unitedstatespostalservice-a77078", "operator": "United States Postal Service", "operator:short": "USPS", "operator:type": "public", "operator:wikidata": "Q668687", "ref": "1575400000"}, "type": "Feature"}
{"dataset_attributes": {"@spider": "usps_collection_boxes", "spider:collection_time": "2024-01-04T08:25:05.301423"}, "geometry": {"coordinates": [-79.150903, 40.557844], "type": "Point"}, "id": "ftnLxEyhPn9RI9_51fXXucwYSH8=", "properties": {"@spider": "usps_collection_boxes", "addr:city": "LUCERNEMINES", "addr:country": "US", "addr:full": "161 6TH ST", "addr:postcode": "15754", "addr:state": "PA", "amenity": "post_box", "brand": "United States Postal Service", "brand:wikidata": "Q668687", "collection_times": "Mo-Fr 11:55; Sa 11:45", "name": "USPS COLLECTION BOX - BLUE BOX", "nsi_id": "unitedstatespostalservice-a77078", "operator": "United States Postal Service", "operator:short": "USPS", "operator:type": "public", "operator:wikidata": "Q668687", "ref": "1575400001"}, "type": "Feature"}
{"dataset_attributes": {"@spider": "usps_collection_boxes", "spider:collection_time": "2024-01-04T08:25:05.301423"}, "geometry": {"coordinates": [-79.150979256, 40.557819867], "type": "Point"}, "id": "B4q22k6ieinGMXcjwWdhdIWdPI4=", "properties": {"@spider": "usps_collection_boxes", "addr:city": "LUCERNEMINES", "addr:country": "US", "addr:full": "161 6TH ST", "addr:postcode": "15754", "addr:state": "PA", "amenity": "post_box", "brand": "United States Postal Service", "brand:wikidata": "Q668687", "collection_times": "Mo-Fr 11:55; Sa 11:40", "name": "USPS COLLECTION BOX - PO LOBBY", "nsi_id": "unitedstatespostalservice-a77078", "operator": "United States Postal Service", "operator:short": "USPS", "operator:type": "public", "operator:wikidata": "Q668687", "ref": "1575400003"}, "type": "Feature"}
{"dataset_attributes": {"@spider": "usps_collection_boxes", "spider:collection_time": "2024-01-04T08:25:05.301423"}, "geometry": {"coordinates": [-79.296192, 40.564534], "type": "Point"}, "id": "Jm951czJZuH5xFs0Atv1AoO7RQQ=", "properties": {"@spider": "usps_collection_boxes", "addr:city": "MCINTYRE", "addr:country": "US", "addr:full": "2576 MCINTYRE RD", "addr:postcode": "15756", "addr:state": "PA", "amenity": "post_box", "brand": "United States Postal Service", "brand:wikidata": "Q668687", "collection_times": "Mo-Fr 10:50; Sa 11:15", "name": "USPS COLLECTION BOX - BLUE BOX", "nsi_id": "unitedstatespostalservice-a77078", "operator": "United States Postal Service", "operator:short": "USPS", "operator:type": "public", "operator:wikidata": "Q668687", "ref": "1575600000"}, "type": "Feature"}
{"dataset_attributes": {"@spider": "usps_collection_boxes", "spider:collection_time": "2024-01-04T08:25:05.301423"}, "geometry": {"coordinates": [-79.29616, 40.564512], "type": "Point"}, "id": "85dFkhW0kC2nnJvCptgsCsD9wdc=", "properties": {"@spider": "usps_collection_boxes", "addr:city": "MCINTYRE", "addr:country": "US", "addr:full": "2576 MCINTYRE RD", "addr:postcode": "15756", "addr:state": "PA", "amenity": "post_box", "brand": "United States Postal Service", "brand:wikidata": "Q668687", "collection_times": "Mo-Fr 10:50; Sa 11:15", "name": "USPS COLLECTION BOX - PO LOBBY", "nsi_id": "unitedstatespostalservice-a77078", "operator": "United States Postal Service", "operator:short": "USPS", "operator:type": "public", "operator:wikidata": "Q668687", "ref": "1575600001"}, "type": "Feature"}
{"dataset_attributes": {"@spider": "usps_collection_boxes", "spider:collection_time": "2024-01-04T08:25:05.301423"}, "geometry": {"coordinates": [-79.296091683, 40.565466197], "type": "Point"}, "id": "TVm3ggafGcX_X15KO1rwjgW6W2I=", "properties": {"@spider": "usps_collection_boxes", "addr:city": "MCINTYRE", "addr:country": "US", "addr:full": "2576 MCINTYRE RD", "addr:postcode": "15756", "addr:state": "PA", "amenity": "post_box", "brand": "United States Postal Service", "brand:wikidata": "Q668687", "collection_times": "Mo-Fr 10:50; Sa 11:05", "name": "USPS COLLECTION BOX - PO LOBBY", "nsi_id": "unitedstatespostalservice-a77078", "operator": "United States Postal Service", "operator:short": "USPS", "operator:type": "public", "operator:wikidata": "Q668687", "ref": "1575600003"}, "type": "Feature"}
{"dataset_attributes": {"@spider": "usps_collection_boxes", "spider:collection_time": "2024-01-04T08:25:05.301423"}, "geometry": {"coordinates": [-78.719237, 40.869434], "type": "Point"}, "id": "arwTM228Ii6EeyDrdbKNzXSUahI=", "properties": {"@spider": "usps_collection_boxes", "addr:city": "MAHAFFEY", "addr:country": "US", "addr:full": "10 E MAIN ST", "addr:postcode": "15757", "addr:state": "PA", "amenity": "post_box", "brand": "United States Postal Service", "brand:wikidata": "Q668687", "collection_times": "Mo-Fr 15:45; Sa 11:30", "name": "USPS COLLECTION BOX - BLUE BOX", "note": "ON 12/24 AND 12/31, THIS BOX MAY BE COLLECTED AS EARLY AS 12 NOON.", "nsi_id": "unitedstatespostalservice-a77078", "operator": "United States Postal Service", "operator:short": "USPS", "operator:type": "public", "operator:wikidata": "Q668687", "ref": "1575700000"}, "type": "Feature"}
{"dataset_attributes": {"@spider": "usps_collection_boxes", "spider:collection_time": "2024-01-04T08:25:05.301423"}, "geometry": {"coordinates": [-78.719237, 40.869434], "type": "Point"}, "id": "QynLSGbt_P48LdvuiGb47svtMOY=", "properties": {"@spider": "usps_collection_boxes", "addr:city": "MAHAFFEY", "addr:country": "US", "addr:full": "10 E MAIN ST", "addr:postcode": "15757", "addr:state": "PA", "amenity": "post_box", "brand": "United States Postal Service", "brand:wikidata": "Q668687", "collection_times": "Mo-Fr 15:45; Sa 11:30", "name": "USPS COLLECTION BOX - PO LOBBY", "note": "ON 12/24 AND 12/31, THIS BOX MAY BE COLLECTED AS EARLY AS 12 NOON.", "nsi_id": "unitedstatespostalservice-a77078", "operator": "United States Postal Service", "operator:short": "USPS", "operator:type": "public", "operator:wikidata": "Q668687", "ref": "1575700001"}, "type": "Feature"}
{"dataset_attributes": {"@spider": "usps_collection_boxes", "spider:collection_time": "2024-01-04T08:25:05.301423"}, "geometry": {"coordinates": [-78.719361896, 40.869571368], "type": "Point"}, "id": "syiNpv57RmnIfCJvces1Z55WN18=", "properties": {"@spider": "usps_collection_boxes", "addr:city": "MAHAFFEY", "addr:country": "US", "addr:full": "10 E MAIN ST", "addr:postcode": "15757", "addr:state": "PA", "amenity": "post_box", "brand": "United States Postal Service", "brand:wikidata": "Q668687", "collection_times": "Mo-Fr 16:00; Sa 11:30", "name": "USPS COLLECTION BOX - PO LOBBY", "note": "ON 12/24 AND 12/31, THIS BOX MAY BE COLLECTED AS EARLY AS 12 NOON.", "nsi_id": "unitedstatespostalservice-a77078", "operator": "United States Postal Service", "operator:short": "USPS", "operator:type": "public", "operator:wikidata": "Q668687", "ref": "1575700003"}, "type": "Feature"}
{"dataset_attributes": {"@spider": "usps_collection_boxes", "spider:collection_time": "2024-01-04T08:25:05.301423"}, "geometry": {"coordinates": [-79.049052, 40.76853], "type": "Point"}, "id": "cZHr4me1CV3koqmURwU-J60NvA4=", "properties": {"@spider": "usps_collection_boxes", "addr:city": "MARION CENTER", "addr:country": "US", "addr:full": "204 MANOR ST", "addr:postcode": "15759", "addr:state": "PA", "amenity": "post_box", "brand": "United States Postal Service", "brand:wikidata": "Q668687", "collection_times": "Mo-Fr 15:00; Sa 11:45", "name": "USPS COLLECTION BOX - BLUE BOX", "note": "ON 12/24 AND 12/31, THIS BOX MAY BE COLLECTED AS EARLY AS 12 NOON.", "nsi_id": "unitedstatespostalservice-a77078", "operator": "United States Postal Service", "operator:short": "USPS", "operator:type": "public", "operator:wikidata": "Q668687", "ref": "1575900000"}, "type": "Feature"}
{"dataset_attributes": {"@spider": "usps_collection_boxes", "spider:collection_time": "2024-01-04T08:25:05.301423"}, "geometry": {"coordinates": [-79.049057, 40.768624], "type": "Point"}, "id": "4D1r5C0ce1I76JQtFUAAhsMUwkg=", "properties": {"@spider": "usps_collection_boxes", "addr:city": "MARION CENTER", "addr:country": "US", "addr:full": "204 MANOR ST", "addr:postcode": "15759", "addr:state": "PA", "amenity": "post_box", "brand": "United States Postal Service", "brand:wikidata": "Q668687", "collection_times": "Mo-Fr 15:00; Sa 11:45", "name": "USPS COLLECTION BOX - PO LOBBY", "note": "ON 12/24 AND 12/31, THIS BOX MAY BE COLLECTED AS EARLY AS 12 NOON.", "nsi_id": "unitedstatespostalservice-a77078", "operator": "United States Postal Service", "operator:short": "USPS", "operator:type": "public", "operator:wikidata": "Q668687", "ref": "1575900001"}, "type": "Feature"}
{"dataset_attributes": {"@spider": "usps_collection_boxes", "spider:collection_time": "2024-01-04T08:25:05.301423"}, "geometry": {"coordinates": [-79.049090549, 40.768535112], "type": "Point"}, "id": "zkBqIqKU3GULarzEzAlBDEF1OSc=", "properties": {"@spider": "usps_collection_boxes", "addr:city": "MARION CENTER", "addr:country": "US", "addr:full": "204 MANOR ST", "addr:postcode": "15759", "addr:state": "PA", "amenity": "post_box", "brand": "United States Postal Service", "brand:wikidata": "Q668687", "collection_times": "Mo-Fr 15:00; Sa 11:45", "name": "USPS COLLECTION BOX - PO LOBBY", "note": "ON 12/24 AND 12/31, THIS BOX MAY BE COLLECTED AS EARLY AS 12 NOON.", "nsi_id": "unitedstatespostalservice-a77078", "operator": "United States Postal Service", "operator:short": "USPS", "operator:type": "public", "operator:wikidata": "Q668687", "ref": "1575900003"}, "type": "Feature"}
{"dataset_attributes": {"@spider": "usps_collection_boxes", "spider:collection_time": "2024-01-04T08:25:05.301423"}, "geometry": {"coordinates": [-78.806825, 40.612233], "type": "Point"}, "id": "iQVgYjP8-GqsDKT4bKk-snObJdU=", "properties": {"@spider": "usps_collection_boxes", "addr:city": "NICKTOWN", "addr:country": "US", "addr:full": "3281 BLUE GOOSE RD", "addr:postcode": "15762", "addr:state": "PA", "amenity": "post_box", "brand": "United States Postal Service", "brand:wikidata": "Q668687", "collection_times": "Mo-Fr 16:00; Sa 11:45", "name": "USPS COLLECTION BOX - BLUE BOX", "note": "ON 12/24 AND 12/31, THIS BOX MAY BE COLLECTED AS EARLY AS 12 NOON.", "nsi_id": "unitedstatespostalservice-a77078", "operator": "United States Postal Service", "operator:short": "USPS", "operator:type": "public", "operator:wikidata": "Q668687", "ref": "1576200000"}, "type": "Feature"}
{"dataset_attributes": {"@spider": "usps_collection_boxes", "spider:collection_time": "2024-01-04T08:25:05.301423"}, "geometry": {"coordinates": [-78.806831, 40.612268], "type": "Point"}, "id": "Ki4A9Gi8dgA-ylfcUzYIWljqGrg=", "properties": {"@spider": "usps_collection_boxes", "addr:city": "NICKTOWN", "addr:country": "US", "addr:full": "3281 BLUE GOOSE RD", "addr:postcode": "15762", "addr:state": "PA", "amenity": "post_box", "brand": "United States Postal Service", "brand:wikidata": "Q668687", "collection_times": "Mo-Fr 16:00; Sa 11:45", "name": "USPS COLLECTION BOX - PO LOBBY", "note": "ON 12/24 AND 12/31, THIS BOX MAY BE COLLECTED AS EARLY AS 12 NOON.", "nsi_id": "unitedstatespostalservice-a77078", "operator": "United States Postal Service", "operator:short": "USPS", "operator:type": "public", "operator:wikidata": "Q668687", "ref": "1576200001"}, "type": "Feature"}
{"dataset_attributes": {"@spider": "usps_collection_boxes", "spider:collection_time": "2024-01-04T08:25:05.301423"}, "geometry": {"coordinates": [-78.80522233, 40.613563709], "type": "Point"}, "id": "DDGHKGQMLY3V4mKc14t9jcDIpv4=", "properties": {"@spider": "usps_collection_boxes", "addr:city": "NICKTOWN", "addr:country": "US", "addr:full": "3281 BLUE GOOSE RD", "addr:postcode": "15762", "addr:state": "PA", "amenity": "post_box", "brand": "United States Postal Service", "brand:wikidata": "Q668687", "collection_times": "Mo-Fr 16:00; Sa 11:45", "name": "USPS COLLECTION BOX - PO LOBBY", "note": "ON 12/24 AND 12/31, THIS BOX MAY BE COLLECTED AS EARLY AS 12 NOON.", "nsi_id": "unitedstatespostalservice-a77078", "operator": "United States Postal Service", "operator:short": "USPS", "operator:type": "public", "operator:wikidata": "Q668687", "ref": "1576200003"}, "type": "Feature"}
{"dataset_attributes": {"@spider": "usps_collection_boxes", "spider:collection_time": "2024-01-04T08:25:05.301423"}, "geometry": {"coordinates": [-79.009974, 40.61751], "type": "Point"}, "id": "mOJVmKbsxbetVL0m7iF-GubGAPU=", "properties": {"@spider": "usps_collection_boxes", "addr:city": "PENN RUN", "addr:country": "US", "addr:full": "1417 N HARMONY RD", "addr:postcode": "15765", "addr:state": "PA", "amenity": "post_box", "brand": "United States Postal Service", "brand:wikidata": "Q668687", "collection_times": "Mo-Fr 15:45; Sa 11:15", "name": "USPS COLLECTION BOX - BLUE BOX", "note": "ON 12/24 AND 12/31, THIS BOX MAY BE COLLECTED AS EARLY AS 12 NOON.", "nsi_id": "unitedstatespostalservice-a77078", "operator": "United States Postal Service", "operator:short": "USPS", "operator:type": "public", "operator:wikidata": "Q668687", "ref": "1576500000"}, "type": "Feature"}
{"dataset_attributes": {"@spider": "usps_collection_boxes", "spider:collection_time": "2024-01-04T08:25:05.301423"}, "geometry": {"coordinates": [-79.009943, 40.617524], "type": "Point"}, "id": "ko2BpkQtdEg5voBHPi3ZpUGku1U=", "properties": {"@spider": "usps_collection_boxes", "addr:city": "PENN RUN", "addr:country": "US", "addr:full": "1417 N HARMONY RD", "addr:postcode": "15765", "addr:state": "PA", "amenity": "post_box", "brand": "United States Postal Service", "brand:wikidata": "Q668687", "collection_times": "Mo-Fr 15:45; Sa 11:15", "name": "USPS COLLECTION BOX - PO LOBBY", "note": "ON 12/24 AND 12/31, THIS BOX MAY BE COLLECTED AS EARLY AS 12 NOON.", "nsi_id": "unitedstatespostalservice-a77078", "operator": "United States Postal Service", "operator:short": "USPS", "operator:type": "public", "operator:wikidata": "Q668687", "ref": "1576500001"}, "type": "Feature"}
{"dataset_attributes": {"@spider": "usps_collection_boxes", "spider:collection_time": "2024-01-04T08:25:05.301423"}, "geometry": {"coordinates": [-79.009993183, 40.617464668], "type": "Point"}, "id": "B4pHJ8k1zpJkKFm36z6Ti9nlvfk=", "properties": {"@spider": "usps_collection_boxes", "addr:city": "PENN RUN", "addr:country": "US", "addr:full": "1417 N HARMONY RD", "addr:postcode": "15765", "addr:state": "PA", "amenity": "post_box", "brand": "United States Postal Service", "brand:wikidata": "Q668687", "collection_times": "Mo-Fr 15:45; Sa 11:15", "name": "USPS COLLECTION BOX - PO LOBBY", "note": "ON 12/24 AND 12/31, THIS BOX MAY BE COLLECTED AS EARLY AS 12 NOON.", "nsi_id": "unitedstatespostalservice-a77078", "operator": "United States Postal Service", "operator:short": "USPS", "operator:type": "public", "operator:wikidata": "Q668687", "ref": "1576500003"}, "type": "Feature"}
{"dataset_attributes": {"@spider": "usps_collection_boxes", "spider:collection_time": "2024-01-04T08:25:05.301423"}, "geometry": {"coordinates": [-78.9706257, 40.94264], "type": "Point"}, "id": "x-WDn13lVYk39jcELUZQEYo-C3w=", "properties": {"@spider": "usps_collection_boxes", "addr:city": "PUNXSUTAWNEY", "addr:country": "US", "addr:full": "200 S FINDLEY ST", "addr:postcode": "15767", "addr:state": "PA", "amenity": "post_box", "brand": "United States Postal Service", "brand:wikidata": "Q668687", "collection_times": "Mo-Fr 15:00; Sa 12:30", "name": "USPS COLLECTION BOX - BLUE BOX", "note": "ON 12/24 AND 12/31, THIS BOX MAY BE COLLECTED AS EARLY AS 12 NOON.", "nsi_id": "unitedstatespostalservice-a77078", "operator": "United States Postal Service", "operator:short": "USPS", "operator:type": "public", "operator:wikidata": "Q668687", "ref": "1576700002"}, "type": "Feature"}
{"dataset_attributes": {"@spider": "usps_collection_boxes", "spider:collection_time": "2024-01-04T08:25:05.301423"}, "geometry": {"coordinates": [-78.9676211, 40.943743], "type": "Point"}, "id": "2EXHWvxcTFcmC0lPaX95RK-xFj4=", "properties": {"@spider": "usps_collection_boxes", "addr:city": "PUNXSUTAWNEY", "addr:country": "US", "addr:full": "301 E MAHONING ST", "addr:postcode": "15767", "addr:state": "PA", "amenity": "post_box", "brand": "United States Postal Service", "brand:wikidata": "Q668687", "collection_times": "Mo-Fr 15:15; Sa 12:30", "name": "USPS COLLECTION BOX - BLUE BOX", "note": "ON 12/24 AND 12/31, THIS BOX MAY BE COLLECTED AS EARLY AS 12 NOON.", "nsi_id": "unitedstatespostalservice-a77078", "operator": "United States Postal Service", "operator:short": "USPS", "operator:type": "public", "operator:wikidata": "Q668687", "ref": "1576700003"}, "type": "Feature"}
{"dataset_attributes": {"@spider": "usps_collection_boxes", "spider:collection_time": "2024-01-04T08:25:05.301423"}, "geometry": {"coordinates": [-78.9899361, 40.94322], "type": "Point"}, "id": "Qfw-58OgL5zurprMZQ-r1YRWipU=", "properties": {"@spider": "usps_collection_boxes", "addr:city": "PUNXSUTAWNEY", "addr:country": "US", "addr:full": "1028 W MAHONING ST", "addr:postcode": "15767", "addr:state": "PA", "amenity": "post_box", "brand": "United States Postal Service", "brand:wikidata": "Q668687", "collection_times": "Mo-Fr 14:00; Sa 12:00", "name": "USPS COLLECTION BOX - BLUE BOX", "note": "ON 12/24 AND 12/31, THIS BOX MAY BE COLLECTED AS EARLY AS 12 NOON.", "nsi_id": "unitedstatespostalservice-a77078", "operator": "United States Postal Service", "operator:short": "USPS", "operator:type": "public", "operator:wikidata": "Q668687", "ref": "1576700004"}, "type": "Feature"}
{"dataset_attributes": {"@spider": "usps_collection_boxes", "spider:collection_time": "2024-01-04T08:25:05.301423"}, "geometry": {"coordinates": [-78.9710147, 40.943632], "type": "Point"}, "id": "2F_OwaJfO0W0HKOb8Ja1OZooIxU=", "properties": {"@spider": "usps_collection_boxes", "addr:city": "PUNXSUTAWNEY", "addr:country": "US", "addr:full": "102 N FINDLEY ST", "addr:postcode": "15767", "addr:state": "PA", "amenity": "post_box", "brand": "United States Postal Service", "brand:wikidata": "Q668687", "collection_times": "Mo-Fr 14:30; Sa 12:30", "name": "USPS COLLECTION BOX - BLUE BOX", "note": "ON 12/24 AND 12/31, THIS BOX MAY BE COLLECTED AS EARLY AS 12 NOON.", "nsi_id": "unitedstatespostalservice-a77078", "operator": "United States Postal Service", "operator:short": "USPS", "operator:type": "public", "operator:wikidata": "Q668687", "ref": "1576700007"}, "type": "Feature"}
{"dataset_attributes": {"@spider": "usps_collection_boxes", "spider:collection_time": "2024-01-04T08:25:05.301423"}, "geometry": {"coordinates": [-78.9685234, 40.945909], "type": "Point"}, "id": "UegHZ3eOXWzqBD37vw4sQ1TwTmw=", "properties": {"@spider": "usps_collection_boxes", "addr:city": "PUNXSUTAWNEY", "addr:country": "US", "addr:full": "201 HAMPTON AVE", "addr:postcode": "15767", "addr:state": "PA", "amenity": "post_box", "brand": "United States Postal Service", "brand:wikidata": "Q668687", "collection_times": "Mo-Fr 14:45; Sa 12:30", "name": "USPS COLLECTION BOX - BLUE BOX", "note": "ON 12/24 AND 12/31, THIS BOX MAY BE COLLECTED AS EARLY AS 12 NOON.", "nsi_id": "unitedstatespostalservice-a77078", "operator": "United States Postal Service", "operator:short": "USPS", "operator:type": "public", "operator:wikidata": "Q668687", "ref": "1576700014"}, "type": "Feature"}
{"dataset_attributes": {"@spider": "usps_collection_boxes", "spider:collection_time": "2024-01-04T08:25:05.301423"}, "geometry": {"coordinates": [-78.9999789, 40.960599], "type": "Point"}, "id": "zTA4FmeMM8yluoZ7HCPEzaNBrdk=", "properties": {"@spider": "usps_collection_boxes", "addr:city": "PUNXSUTAWNEY", "addr:country": "US", "addr:full": "81 HILLCREST DR", "addr:postcode": "15767", "addr:state": "PA", "amenity": "post_box", "brand": "United States Postal Service", "brand:wikidata": "Q668687", "collection_times": "Mo-Fr 15:00; Sa 12:00", "name": "USPS COLLECTION BOX - BLUE BOX", "note": "ON 12/24 AND 12/31, THIS BOX MAY BE COLLECTED AS EARLY AS 12 NOON.", "nsi_id": "unitedstatespostalservice-a77078", "operator": "United States Postal Service", "operator:short": "USPS", "operator:type": "public", "operator:wikidata": "Q668687", "ref": "1576700021"}, "type": "Feature"}
{"dataset_attributes": {"@spider": "usps_collection_boxes", "spider:collection_time": "2024-01-04T08:25:05.301423"}, "geometry": {"coordinates": [-78.9741465, 40.94288], "type": "Point"}, "id": "VhAfqI3VNphmw1yh2aCfKeoEqMA=", "properties": {"@spider": "usps_collection_boxes", "addr:city": "PUNXSUTAWNEY", "addr:country": "US", "addr:full": "300 W MAHONING ST", "addr:postcode": "15767", "addr:state": "PA", "amenity": "post_box", "brand": "United States Postal Service", "brand:wikidata": "Q668687", "collection_times": "Mo-Fr 15:00; Sa 12:15", "name": "USPS COLLECTION BOX - BLUE BOX", "note": "ON 12/24 AND 12/31, THIS BOX MAY BE COLLECTED AS EARLY AS 12 NOON.", "nsi_id": "unitedstatespostalservice-a77078", "operator": "United States Postal Service", "operator:short": "USPS", "operator:type": "public", "operator:wikidata": "Q668687", "ref": "1576700023"}, "type": "Feature"}
{"dataset_attributes": {"@spider": "usps_collection_boxes", "spider:collection_time": "2024-01-04T08:25:05.301423"}, "geometry": {"coordinates": [-78.9641206, 40.950427], "type": "Point"}, "id": "KnxZvvNnqv7j4Ghs7FHzBK3k0pg=", "properties": {"@spider": "usps_collection_boxes", "addr:city": "PUNXSUTAWNEY", "addr:country": "US", "addr:full": "100 ELK RUN AVE", "addr:postcode": "15767", "addr:state": "PA", "amenity": "post_box", "brand": "United States Postal Service", "brand:wikidata": "Q668687", "collection_times": "Mo-Sa 12:00", "name": "USPS COLLECTION BOX - BLUE BOX", "nsi_id": "unitedstatespostalservice-a77078", "operator": "United States Postal Service", "operator:short": "USPS", "operator:type": "public", "operator:wikidata": "Q668687", "ref": "1576700032"}, "type": "Feature"}
{"dataset_attributes": {"@spider": "usps_collection_boxes", "spider:collection_time": "2024-01-04T08:25:05.301423"}, "geometry": {"coordinates": [-78.963091, 40.944409], "type": "Point"}, "id": "cRkGTfY_CcwPhKCMsMilsvBefYo=", "properties": {"@spider": "usps_collection_boxes", "addr:city": "PUNXSUTAWNEY", "addr:country": "US", "addr:full": "553 E MAHONING ST", "addr:postcode": "15767", "addr:state": "PA", "amenity": "post_box", "brand": "United States Postal Service", "brand:wikidata": "Q668687", "collection_times": "Mo-Fr 16:45; Sa 16:30", "name": "USPS COLLECTION BOX - BLUE BOX", "note": "ON 12/24 AND 12/31, THIS BOX MAY BE COLLECTED AS EARLY AS 12 NOON.", "nsi_id": "unitedstatespostalservice-a77078", "operator": "United States Postal Service", "operator:short": "USPS", "operator:type": "public", "operator:wikidata": "Q668687", "ref": "1576700039"}, "type": "Feature"}
{"dataset_attributes": {"@spider": "usps_collection_boxes", "spider:collection_time": "2024-01-04T08:25:05.301423"}, "geometry": {"coordinates": [-78.9820379, 40.941355], "type": "Point"}, "id": "S1dug7SkibM8czUAizzRsvY_OZA=", "properties": {"@spider": "usps_collection_boxes", "addr:city": "PUNXSUTAWNEY", "addr:country": "US", "addr:full": "555 W MAHONING ST", "addr:postcode": "15767", "addr:state": "PA", "amenity": "post_box", "brand": "United States Postal Service", "brand:wikidata": "Q668687", "collection_times": "Mo-Fr 15:00; Sa 12:00", "name": "USPS COLLECTION BOX - BLUE BOX", "note": "ON 12/24 AND 12/31, THIS BOX MAY BE COLLECTED AS EARLY AS 12 NOON.", "nsi_id": "unitedstatespostalservice-a77078", "operator": "United States Postal Service", "operator:short": "USPS", "operator:type": "public", "operator:wikidata": "Q668687", "ref": "1576700041"}, "type": "Feature"}
{"dataset_attributes": {"@spider": "usps_collection_boxes", "spider:collection_time": "2024-01-04T08:25:05.301423"}, "geometry": {"coordinates": [-78.963091, 40.944409], "type": "Point"}, "id": "521WJ0QSM3PcRhdqdAv7UuWiMQg=", "properties": {"@spider": "usps_collection_boxes", "addr:city": "PUNXSUTAWNEY", "addr:country": "US", "addr:full": "553 E MAHONING ST", "addr:postcode": "15767", "addr:state": "PA", "amenity": "post_box", "brand": "United States Postal Service", "brand:wikidata": "Q668687", "collection_times": "Mo-Fr 16:45; Sa 16:30", "name": "USPS COLLECTION BOX - PO LOBBY", "note": "ON 12/24 AND 12/31, THIS BOX MAY BE COLLECTED AS EARLY AS 12 NOON.", "nsi_id": "unitedstatespostalservice-a77078", "operator": "United States Postal Service", "operator:short": "USPS", "operator:type": "public", "operator:wikidata": "Q668687", "ref": "1576700042"}, "type": "Feature"}
{"dataset_attributes": {"@spider": "usps_collection_boxes", "spider:collection_time": "2024-01-04T08:25:05.301423"}, "geometry": {"coordinates": [-78.9815343, 40.927411], "type": "Point"}, "id": "nCMWAFetKP4G5l8sJf5a7jyqBm0=", "properties": {"@spider": "usps_collection_boxes", "addr:city": "PUNXSUTAWNEY", "addr:country": "US", "addr:full": "21920 ROUTE 119", "addr:postcode": "15767", "addr:state": "PA", "amenity": "post_box", "brand": "United States Postal Service", "brand:wikidata": "Q668687", "collection_times": "Mo-Sa 10:30", "name": "USPS COLLECTION BOX - BLUE BOX", "nsi_id": "unitedstatespostalservice-a77078", "operator": "United States Postal Service", "operator:short": "USPS", "operator:type": "public", "operator:wikidata": "Q668687", "ref": "1576700043"}, "type": "Feature"}
{"dataset_attributes": {"@spider": "usps_collection_boxes", "spider:collection_time": "2024-01-04T08:25:05.301423"}, "geometry": {"coordinates": [-78.963137995, 40.94434997], "type": "Point"}, "id": "MApn6TL_ewXsYmJ7JKMWC-fBcos=", "properties": {"@spider": "usps_collection_boxes", "addr:city": "PUNXSUTAWNEY", "addr:country": "US", "addr:full": "553 E MAHONING ST", "addr:postcode": "15767", "addr:state": "PA", "amenity": "post_box", "brand": "United States Postal Service", "brand:wikidata": "Q668687", "collection_times": "Mo-Fr 17:00; Sa 12:00", "name": "USPS COLLECTION BOX - PO LOBBY", "note": "ON 12/24 AND 12/31, THIS BOX MAY BE COLLECTED AS EARLY AS 12 NOON.", "nsi_id": "unitedstatespostalservice-a77078", "operator": "United States Postal Service", "operator:short": "USPS", "operator:type": "public", "operator:wikidata": "Q668687", "ref": "1576700045"}, "type": "Feature"}
{"dataset_attributes": {"@spider": "usps_collection_boxes", "spider:collection_time": "2024-01-04T08:25:05.301423"}, "geometry": {"coordinates": [-78.986163, 40.818556], "type": "Point"}, "id": "Xgg-xYn_wm4dRFBeMvCf8ikBc3Q=", "properties": {"@spider": "usps_collection_boxes", "addr:city": "ROCHESTER MILLS", "addr:country": "US", "addr:full": "4941 RICHMOND RD", "addr:postcode": "15771", "addr:state": "PA", "amenity": "post_box", "brand": "United States Postal Service", "brand:wikidata": "Q668687", "collection_times": "Mo-Fr 11:55; Sa 10:45", "name": "USPS COLLECTION BOX - BLUE BOX", "nsi_id": "unitedstatespostalservice-a77078", "operator": "United States Postal Service", "operator:short": "USPS", "operator:type": "public", "operator:wikidata": "Q668687", "ref": "1577100000"}, "type": "Feature"}
{"dataset_attributes": {"@spider": "usps_collection_boxes", "spider:collection_time": "2024-01-04T08:25:05.301423"}, "geometry": {"coordinates": [-78.986102, 40.818551], "type": "Point"}, "id": "QGPlCHAHlRx-pfX4uqibwpb8oF0=", "properties": {"@spider": "usps_collection_boxes", "addr:city": "ROCHESTER MILLS", "addr:country": "US", "addr:full": "4941 RICHMOND RD", "addr:postcode": "15771", "addr:state": "PA", "amenity": "post_box", "brand": "United States Postal Service", "brand:wikidata": "Q668687", "collection_times": "Mo-Fr 11:55; Sa 10:45", "name": "USPS COLLECTION BOX - PO LOBBY", "nsi_id": "unitedstatespostalservice-a77078", "operator": "United States Postal Service", "operator:short": "USPS", "operator:type": "public", "operator:wikidata": "Q668687", "ref": "1577100001"}, "type": "Feature"}
{"dataset_attributes": {"@spider": "usps_collection_boxes", "spider:collection_time": "2024-01-04T08:25:05.301423"}, "geometry": {"coordinates": [-78.986161649, 40.818595494], "type": "Point"}, "id": "nxB3d7CiFiaVpV2eIxtRhq5_2O8=", "properties": {"@spider": "usps_collection_boxes", "addr:city": "ROCHESTER MILLS", "addr:country": "US", "addr:full": "4941 RICHMOND RD", "addr:postcode": "15771", "addr:state": "PA", "amenity": "post_box", "brand": "United States Postal Service", "brand:wikidata": "Q668687", "collection_times": "Mo-Fr 11:55; Sa 10:55", "name": "USPS COLLECTION BOX - PO LOBBY", "nsi_id": "unitedstatespostalservice-a77078", "operator": "United States Postal Service", "operator:short": "USPS", "operator:type": "public", "operator:wikidata": "Q668687", "ref": "1577100003"}, "type": "Feature"}
{"dataset_attributes": {"@spider": "usps_collection_boxes", "spider:collection_time": "2024-01-04T08:25:05.301423"}, "geometry": {"coordinates": [-78.933467, 40.894109], "type": "Point"}, "id": "cyVEBjVB36BX6BeSISFBgPRxyYw=", "properties": {"@spider": "usps_collection_boxes", "addr:city": "ROSSITER", "addr:country": "US", "addr:full": "384 CENTRAL ST", "addr:postcode": "15772", "addr:state": "PA", "amenity": "post_box", "brand": "United States Postal Service", "brand:wikidata": "Q668687", "collection_times": "Mo-Fr 16:15; Sa 11:00", "name": "USPS COLLECTION BOX - BLUE BOX", "note": "ON 12/24 AND 12/31, THIS BOX MAY BE COLLECTED AS EARLY AS 12 NOON.", "nsi_id": "unitedstatespostalservice-a77078", "operator": "United States Postal Service", "operator:short": "USPS", "operator:type": "public", "operator:wikidata": "Q668687", "ref": "1577200000"}, "type": "Feature"}
{"dataset_attributes": {"@spider": "usps_collection_boxes", "spider:collection_time": "2024-01-04T08:25:05.301423"}, "geometry": {"coordinates": [-78.933426, 40.894121], "type": "Point"}, "id": "46BnYOubsPis4FjaseP1LUthC8w=", "properties": {"@spider": "usps_collection_boxes", "addr:city": "ROSSITER", "addr:country": "US", "addr:full": "384 CENTRAL ST", "addr:postcode": "15772", "addr:state": "PA", "amenity": "post_box", "brand": "United States Postal Service", "brand:wikidata": "Q668687", "collection_times": "Mo-Fr 16:30; Sa 11:15", "name": "USPS COLLECTION BOX - PO LOBBY", "note": "ON 12/24 AND 12/31, THIS BOX MAY BE COLLECTED AS EARLY AS 12 NOON.", "nsi_id": "unitedstatespostalservice-a77078", "operator": "United States Postal Service", "operator:short": "USPS", "operator:type": "public", "operator:wikidata": "Q668687", "ref": "1577200001"}, "type": "Feature"}
{"dataset_attributes": {"@spider": "usps_collection_boxes", "spider:collection_time": "2024-01-04T08:25:05.301423"}, "geometry": {"coordinates": [-78.933475125, 40.89405415], "type": "Point"}, "id": "xJvrVev2MbeYxefCfj9EqnfaodU=", "properties": {"@spider": "usps_collection_boxes", "addr:city": "ROSSITER", "addr:country": "US", "addr:full": "384 CENTRAL ST", "addr:postcode": "15772", "addr:state": "PA", "amenity": "post_box", "brand": "United States Postal Service", "brand:wikidata": "Q668687", "collection_times": "Mo-Fr 16:30; Sa 11:00", "name": "USPS COLLECTION BOX - PO LOBBY", "note": "ON 12/24 AND 12/31, THIS BOX MAY BE COLLECTED AS EARLY AS 12 NOON.", "nsi_id": "unitedstatespostalservice-a77078", "operator": "United States Postal Service", "operator:short": "USPS", "operator:type": "public", "operator:wikidata": "Q668687", "ref": "1577200003"}, "type": "Feature"}
{"dataset_attributes": {"@spider": "usps_collection_boxes", "spider:collection_time": "2024-01-04T08:25:05.301423"}, "geometry": {"coordinates": [-78.730658, 40.627259], "type": "Point"}, "id": "aOiSnxSS4OI3aLsNxAngNtcgXHE=", "properties": {"@spider": "usps_collection_boxes", "addr:city": "SAINT BENEDICT", "addr:country": "US", "addr:full": "125 POST OFFICE RD", "addr:postcode": "15773", "addr:state": "PA", "amenity": "post_box", "brand": "United States Postal Service", "brand:wikidata": "Q668687", "collection_times": "Mo-Fr 12:50; Sa 11:00", "name": "USPS COLLECTION BOX - BLUE BOX", "note": "ON 12/24 AND 12/31, THIS BOX MAY BE COLLECTED AS EARLY AS 12 NOON.", "nsi_id": "unitedstatespostalservice-a77078", "operator": "United States Postal Service", "operator:short": "USPS", "operator:type": "public", "operator:wikidata": "Q668687", "ref": "1577300000"}, "type": "Feature"}
{"dataset_attributes": {"@spider": "usps_collection_boxes", "spider:collection_time": "2024-01-04T08:25:05.301423"}, "geometry": {"coordinates": [-78.730562, 40.627206], "type": "Point"}, "id": "h1s0HTcyFnTuoY_NARAoAU8bFXk=", "properties": {"@spider": "usps_collection_boxes", "addr:city": "SAINT BENEDICT", "addr:country": "US", "addr:full": "125 POST OFFICE RD", "addr:postcode": "15773", "addr:state": "PA", "amenity": "post_box", "brand": "United States Postal Service", "brand:wikidata": "Q668687", "collection_times": "Mo-Fr 12:55; Sa 11:10", "name": "USPS COLLECTION BOX - PO LOBBY", "note": "ON 12/24 AND 12/31, THIS BOX MAY BE COLLECTED AS EARLY AS 12 NOON.", "nsi_id": "unitedstatespostalservice-a77078", "operator": "United States Postal Service", "operator:short": "USPS", "operator:type": "public", "operator:wikidata": "Q668687", "ref": "1577300001"}, "type": "Feature"}
{"dataset_attributes": {"@spider": "usps_collection_boxes", "spider:collection_time": "2024-01-04T08:25:05.301423"}, "geometry": {"coordinates": [-78.730765322, 40.627356371], "type": "Point"}, "id": "gMI5yGITK3zDrfFMZ6nXe0jaXZ4=", "properties": {"@spider": "usps_collection_boxes", "addr:city": "SAINT BENEDICT", "addr:country": "US", "addr:full": "125 POST OFFICE RD", "addr:postcode": "15773", "addr:state": "PA", "amenity": "post_box", "brand": "United States Postal Service", "brand:wikidata": "Q668687", "collection_times": "Mo-Fr 12:50", "name": "USPS COLLECTION BOX - PO LOBBY", "note": "ON 12/24 AND 12/31, THIS BOX MAY BE COLLECTED AS EARLY AS 12 NOON.", "nsi_id": "unitedstatespostalservice-a77078", "operator": "United States Postal Service", "operator:short": "USPS", "operator:type": "public", "operator:wikidata": "Q668687", "ref": "1577300003"}, "type": "Feature"}
{"dataset_attributes": {"@spider": "usps_collection_boxes", "spider:collection_time": "2024-01-04T08:25:05.301423"}, "geometry": {"coordinates": [-79.2991716, 40.654396], "type": "Point"}, "id": "B1pC3FuJK6lEvhkXFks5Pua9Fn0=", "properties": {"@spider": "usps_collection_boxes", "addr:city": "SHELOCTA", "addr:country": "US", "addr:full": "30 MAIN ST", "addr:postcode": "15774", "addr:state": "PA", "amenity": "post_box", "brand": "United States Postal Service", "brand:wikidata": "Q668687", "collection_times": "Mo-Fr 16:15; Sa 13:00", "name": "USPS COLLECTION BOX - BLUE BOX", "note": "ON 12/24 AND 12/31, THIS BOX MAY BE COLLECTED AS EARLY AS 12 NOON.", "nsi_id": "unitedstatespostalservice-a77078", "operator": "United States Postal Service", "operator:short": "USPS", "operator:type": "public", "operator:wikidata": "Q668687", "ref": "1577400000"}, "type": "Feature"}
{"dataset_attributes": {"@spider": "usps_collection_boxes", "spider:collection_time": "2024-01-04T08:25:05.301423"}, "geometry": {"coordinates": [-79.3377292, 40.68827], "type": "Point"}, "id": "yHUmojbfMGyMr6q13SwznIMKx24=", "properties": {"@spider": "usps_collection_boxes", "addr:city": "SHELOCTA", "addr:country": "US", "addr:full": "11134 US ROUTE 422", "addr:postcode": "15774", "addr:state": "PA", "amenity": "post_box", "brand": "United States Postal Service", "brand:wikidata": "Q668687", "collection_times": "Mo-Sa 10:00", "name": "USPS COLLECTION BOX - BLUE BOX", "nsi_id": "unitedstatespostalservice-a77078", "operator": "United States Postal Service", "operator:short": "USPS", "operator:type": "public", "operator:wikidata": "Q668687", "ref": "1577400001"}, "type": "Feature"}
{"dataset_attributes": {"@spider": "usps_collection_boxes", "spider:collection_time": "2024-01-04T08:25:05.301423"}, "geometry": {"coordinates": [-79.299008, 40.654322], "type": "Point"}, "id": "bkvv901bSAVGWqGdUci3qzy4N8I=", "properties": {"@spider": "usps_collection_boxes", "addr:city": "SHELOCTA", "addr:country": "US", "addr:full": "30 MAIN ST", "addr:postcode": "15774", "addr:state": "PA", "amenity": "post_box", "brand": "United States Postal Service", "brand:wikidata": "Q668687", "collection_times": "Mo-Fr 16:15; Sa 11:00", "name": "USPS COLLECTION BOX - PO LOBBY", "note": "ON 12/24 AND 12/31, THIS BOX MAY BE COLLECTED AS EARLY AS 12 NOON.", "nsi_id": "unitedstatespostalservice-a77078", "operator": "United States Postal Service", "operator:short": "USPS", "operator:type": "public", "operator:wikidata": "Q668687", "ref": "1577400002"}, "type": "Feature"}
{"dataset_attributes": {"@spider": "usps_collection_boxes", "spider:collection_time": "2024-01-04T08:25:05.301423"}, "geometry": {"coordinates": [-79.2989737009, 40.6567651147], "type": "Point"}, "id": "uKRoxKuIsd7WV2963PTvPDBJMpY=", "properties": {"@spider": "usps_collection_boxes", "addr:city": "SHELOCTA", "addr:country": "US", "addr:full": "9639 US ROUTE 422", "addr:postcode": "15774", "addr:state": "PA", "amenity": "post_box", "brand": "United States Postal Service", "brand:wikidata": "Q668687", "collection_times": "Mo-Sa 10:00", "name": "USPS COLLECTION BOX - BLUE BOX", "nsi_id": "unitedstatespostalservice-a77078", "operator": "United States Postal Service", "operator:short": "USPS", "operator:type": "public", "operator:wikidata": "Q668687", "ref": "1577400003"}, "type": "Feature"}
{"dataset_attributes": {"@spider": "usps_collection_boxes", "spider:collection_time": "2024-01-04T08:25:05.301423"}, "geometry": {"coordinates": [-79.299025847, 40.654395267], "type": "Point"}, "id": "iP1wGuya_k8aI9SuAHIs1GVwkmg=", "properties": {"@spider": "usps_collection_boxes", "addr:city": "SHELOCTA", "addr:country": "US", "addr:full": "30 MAIN ST", "addr:postcode": "15774", "addr:state": "PA", "amenity": "post_box", "brand": "United States Postal Service", "brand:wikidata": "Q668687", "collection_times": "Mo-Fr 16:15; Sa 11:00", "name": "USPS COLLECTION BOX - PO LOBBY", "note": "ON 12/24 AND 12/31, THIS BOX MAY BE COLLECTED AS EARLY AS 12 NOON.", "nsi_id": "unitedstatespostalservice-a77078", "operator": "United States Postal Service", "operator:short": "USPS", "operator:type": "public", "operator:wikidata": "Q668687", "ref": "1577400005"}, "type": "Feature"}
{"dataset_attributes": {"@spider": "usps_collection_boxes", "spider:collection_time": "2024-01-04T08:25:05.301423"}, "geometry": {"coordinates": [-78.77271, 40.642329], "type": "Point"}, "id": "6NeG20Q9r4IDh-sHO8tSwH-9QnA=", "properties": {"@spider": "usps_collection_boxes", "addr:city": "SPANGLER", "addr:country": "US", "addr:full": "1904 BIGLER AVE", "addr:postcode": "15775", "addr:state": "PA", "amenity": "post_box", "brand": "United States Postal Service", "brand:wikidata": "Q668687", "collection_times": "Mo-Fr 16:30; Sa 11:30", "name": "USPS COLLECTION BOX - BLUE BOX", "note": "ON 12/24 AND 12/31, THIS BOX MAY BE COLLECTED AS EARLY AS 12 NOON.", "nsi_id": "unitedstatespostalservice-a77078", "operator": "United States Postal Service", "operator:short": "USPS", "operator:type": "public", "operator:wikidata": "Q668687", "ref": "1577500000"}, "type": "Feature"}
{"dataset_attributes": {"@spider": "usps_collection_boxes", "spider:collection_time": "2024-01-04T08:25:05.301423"}, "geometry": {"coordinates": [-78.77271, 40.642329], "type": "Point"}, "id": "-bZ8U0fZtNQcFj3NcVr4CnCZPG8=", "properties": {"@spider": "usps_collection_boxes", "addr:city": "SPANGLER", "addr:country": "US", "addr:full": "1904 BIGLER AVE", "addr:postcode": "15775", "addr:state": "PA", "amenity": "post_box", "brand": "United States Postal Service", "brand:wikidata": "Q668687", "collection_times": "Mo-Fr 16:30; Sa 11:30", "name": "USPS COLLECTION BOX - PO LOBBY", "note": "ON 12/24 AND 12/31, THIS BOX MAY BE COLLECTED AS EARLY AS 12 NOON.", "nsi_id": "unitedstatespostalservice-a77078", "operator": "United States Postal Service", "operator:short": "USPS", "operator:type": "public", "operator:wikidata": "Q668687", "ref": "1577500001"}, "type": "Feature"}
{"dataset_attributes": {"@spider": "usps_collection_boxes", "spider:collection_time": "2024-01-04T08:25:05.301423"}, "geometry": {"coordinates": [-78.79364, 40.61097], "type": "Point"}, "id": "ViZ7U-fbTzJ1tQWW6ZVKpWFQ64c=", "properties": {"@spider": "usps_collection_boxes", "addr:city": "SPANGLER", "addr:country": "US", "addr:full": "1904 BIGLER AVE", "addr:postcode": "15775", "addr:state": "PA", "amenity": "post_box", "brand": "United States Postal Service", "brand:wikidata": "Q668687", "collection_times": "Mo-Fr 16:30; Sa 11:30", "name": "USPS COLLECTION BOX - PO LOBBY", "note": "ON 12/24 AND 12/31, THIS BOX MAY BE COLLECTED AS EARLY AS 12 NOON.", "nsi_id": "unitedstatespostalservice-a77078", "operator": "United States Postal Service", "operator:short": "USPS", "operator:type": "public", "operator:wikidata": "Q668687", "ref": "1577500003"}, "type": "Feature"}
{"dataset_attributes": {"@spider": "usps_collection_boxes", "spider:collection_time": "2024-01-04T08:25:05.301423"}, "geometry": {"coordinates": [-78.957591, 40.706807], "type": "Point"}, "id": "6t966goCB_f4LtOD4d6XpHxFrRI=", "properties": {"@spider": "usps_collection_boxes", "addr:city": "STARFORD", "addr:country": "US", "addr:full": "4218 STARFORD RD", "addr:postcode": "15777", "addr:state": "PA", "amenity": "post_box", "brand": "United States Postal Service", "brand:wikidata": "Q668687", "collection_times": "Mo-Fr 14:15; Sa 11:45", "name": "USPS COLLECTION BOX - BLUE BOX", "note": "ON 12/24 AND 12/31, THIS BOX MAY BE COLLECTED AS EARLY AS 12 NOON.", "nsi_id": "unitedstatespostalservice-a77078", "operator": "United States Postal Service", "operator:short": "USPS", "operator:type": "public", "operator:wikidata": "Q668687", "ref": "1577700000"}, "type": "Feature"}
{"dataset_attributes": {"@spider": "usps_collection_boxes", "spider:collection_time": "2024-01-04T08:25:05.301423"}, "geometry": {"coordinates": [-78.95771, 40.706818], "type": "Point"}, "id": "oxAK4fsLGexhRrIO5DPM8hB-800=", "properties": {"@spider": "usps_collection_boxes", "addr:city": "STARFORD", "addr:country": "US", "addr:full": "4218 STARFORD RD", "addr:postcode": "15777", "addr:state": "PA", "amenity": "post_box", "brand": "United States Postal Service", "brand:wikidata": "Q668687", "collection_times": "Mo-Fr 14:15; Sa 11:45", "name": "USPS COLLECTION BOX - PO LOBBY", "note": "ON 12/24 AND 12/31, THIS BOX MAY BE COLLECTED AS EARLY AS 12 NOON.", "nsi_id": "unitedstatespostalservice-a77078", "operator": "United States Postal Service", "operator:short": "USPS", "operator:type": "public", "operator:wikidata": "Q668687", "ref": "1577700001"}, "type": "Feature"}
{"dataset_attributes": {"@spider": "usps_collection_boxes", "spider:collection_time": "2024-01-04T08:25:05.301423"}, "geometry": {"coordinates": [-78.957621037, 40.706859962], "type": "Point"}, "id": "n1nr-lPCb1hCM2Equ3elHqaA6p8=", "properties": {"@spider": "usps_collection_boxes", "addr:city": "STARFORD", "addr:country": "US", "addr:full": "4218 STARFORD RD", "addr:postcode": "15777", "addr:state": "PA", "amenity": "post_box", "brand": "United States Postal Service", "brand:wikidata": "Q668687", "collection_times": "Mo-Fr 14:05; Sa 11:35", "name": "USPS COLLECTION BOX - PO LOBBY", "note": "ON 12/24 AND 12/31, THIS BOX MAY BE COLLECTED AS EARLY AS 12 NOON.", "nsi_id": "unitedstatespostalservice-a77078", "operator": "United States Postal Service", "operator:short": "USPS", "operator:type": "public", "operator:wikidata": "Q668687", "ref": "1577700003"}, "type": "Feature"}
{"dataset_attributes": {"@spider": "usps_collection_boxes", "spider:collection_time": "2024-01-04T08:25:05.301423"}, "geometry": {"coordinates": [-79.198444, 40.966294], "type": "Point"}, "id": "BgW0fYiMqknwkxVv6zdnobTxI_Y=", "properties": {"@spider": "usps_collection_boxes", "addr:city": "TIMBLIN", "addr:country": "US", "addr:full": "9 E MARKET ST", "addr:postcode": "15778", "addr:state": "PA", "amenity": "post_box", "brand": "United States Postal Service", "brand:wikidata": "Q668687", "collection_times": "Mo-Fr 11:50; Sa 11:15", "name": "USPS COLLECTION BOX - BLUE BOX", "nsi_id": "unitedstatespostalservice-a77078", "operator": "United States Postal Service", "operator:short": "USPS", "operator:type": "public", "operator:wikidata": "Q668687", "ref": "1577800000"}, "type": "Feature"}
{"dataset_attributes": {"@spider": "usps_collection_boxes", "spider:collection_time": "2024-01-04T08:25:05.301423"}, "geometry": {"coordinates": [-79.198454, 40.966269], "type": "Point"}, "id": "ax7belZkgnbnKRAVn17a10x6tYY=", "properties": {"@spider": "usps_collection_boxes", "addr:city": "TIMBLIN", "addr:country": "US", "addr:full": "9 E MARKET ST", "addr:postcode": "15778", "addr:state": "PA", "amenity": "post_box", "brand": "United States Postal Service", "brand:wikidata": "Q668687", "collection_times": "Mo-Fr 11:50; Sa 11:15", "name": "USPS COLLECTION BOX - PO LOBBY", "nsi_id": "unitedstatespostalservice-a77078", "operator": "United States Postal Service", "operator:short": "USPS", "operator:type": "public", "operator:wikidata": "Q668687", "ref": "1577800001"}, "type": "Feature"}
{"dataset_attributes": {"@spider": "usps_collection_boxes", "spider:collection_time": "2024-01-04T08:25:05.301423"}, "geometry": {"coordinates": [-79.198408205, 40.966282172], "type": "Point"}, "id": "PKcYQpJlNvkdRsO53h6J9nUj7do=", "properties": {"@spider": "usps_collection_boxes", "addr:city": "TIMBLIN", "addr:country": "US", "addr:full": "9 E MARKET ST", "addr:postcode": "15778", "addr:state": "PA", "amenity": "post_box", "brand": "United States Postal Service", "brand:wikidata": "Q668687", "collection_times": "Mo-Sa 12:05", "name": "USPS COLLECTION BOX - PO LOBBY", "note": "ON 12/24 AND 12/31, THIS BOX MAY BE COLLECTED AS EARLY AS 12 NOON.", "nsi_id": "unitedstatespostalservice-a77078", "operator": "United States Postal Service", "operator:short": "USPS", "operator:type": "public", "operator:wikidata": "Q668687", "ref": "1577800003"}, "type": "Feature"}
{"dataset_attributes": {"@spider": "usps_collection_boxes", "spider:collection_time": "2024-01-04T08:25:05.301423"}, "geometry": {"coordinates": [-79.224438, 40.416868], "type": "Point"}, "id": "pNKuAuBkPeA8bTpY_xUVPBqvY9Q=", "properties": {"@spider": "usps_collection_boxes", "addr:city": "TORRANCE", "addr:country": "US", "addr:full": "565 TORRANCE RD", "addr:postcode": "15779", "addr:state": "PA", "amenity": "post_box", "brand": "United States Postal Service", "brand:wikidata": "Q668687", "collection_times": "Mo-Fr 11:55; Sa 11:45", "name": "USPS COLLECTION BOX - BLUE BOX", "nsi_id": "unitedstatespostalservice-a77078", "operator": "United States Postal Service", "operator:short": "USPS", "operator:type": "public", "operator:wikidata": "Q668687", "ref": "1577900000"}, "type": "Feature"}
{"dataset_attributes": {"@spider": "usps_collection_boxes", "spider:collection_time": "2024-01-04T08:25:05.301423"}, "geometry": {"coordinates": [-79.224338, 40.416923], "type": "Point"}, "id": "QdCAbmivsEUM2mkK7UMOcLLDv5Y=", "properties": {"@spider": "usps_collection_boxes", "addr:city": "TORRANCE", "addr:country": "US", "addr:full": "565 TORRANCE RD", "addr:postcode": "15779", "addr:state": "PA", "amenity": "post_box", "brand": "United States Postal Service", "brand:wikidata": "Q668687", "collection_times": "Mo-Fr 11:55; Sa 11:45", "name": "USPS COLLECTION BOX - PO LOBBY", "nsi_id": "unitedstatespostalservice-a77078", "operator": "United States Postal Service", "operator:short": "USPS", "operator:type": "public", "operator:wikidata": "Q668687", "ref": "1577900001"}, "type": "Feature"}
{"dataset_attributes": {"@spider": "usps_collection_boxes", "spider:collection_time": "2024-01-04T08:25:05.301423"}, "geometry": {"coordinates": [-79.22471314, 40.416603338], "type": "Point"}, "id": "QERxv5xt8ez9-KS2xfE2NrkEY7w=", "properties": {"@spider": "usps_collection_boxes", "addr:city": "TORRANCE", "addr:country": "US", "addr:full": "565 TORRANCE RD", "addr:postcode": "15779", "addr:state": "PA", "amenity": "post_box", "brand": "United States Postal Service", "brand:wikidata": "Q668687", "collection_times": "Mo-Sa 11:55", "name": "USPS COLLECTION BOX - PO LOBBY", "nsi_id": "unitedstatespostalservice-a77078", "operator": "United States Postal Service", "operator:short": "USPS", "operator:type": "public", "operator:wikidata": "Q668687", "ref": "1577900003"}, "type": "Feature"}
{"dataset_attributes": {"@spider": "usps_collection_boxes", "spider:collection_time": "2024-01-04T08:25:05.301423"}, "geometry": {"coordinates": [-78.992581, 40.963209], "type": "Point"}, "id": "xuvgvy-yMFO3mFp7xv4Zg4tsIx8=", "properties": {"@spider": "usps_collection_boxes", "addr:city": "WALSTON", "addr:country": "US", "addr:full": "1716 WALSTON RD", "addr:postcode": "15781", "addr:state": "PA", "amenity": "post_box", "brand": "United States Postal Service", "brand:wikidata": "Q668687", "collection_times": "Mo-Fr 13:25; Sa 12:15", "name": "USPS COLLECTION BOX - BLUE BOX", "note": "ON 12/24 AND 12/31, THIS BOX MAY BE COLLECTED AS EARLY AS 12 NOON.", "nsi_id": "unitedstatespostalservice-a77078", "operator": "United States Postal Service", "operator:short": "USPS", "operator:type": "public", "operator:wikidata": "Q668687", "ref": "1578100000"}, "type": "Feature"}
{"dataset_attributes": {"@spider": "usps_collection_boxes", "spider:collection_time": "2024-01-04T08:25:05.301423"}, "geometry": {"coordinates": [-78.992658, 40.96323], "type": "Point"}, "id": "K8RRGgsIsRcfecTeya7b2xNmCHU=", "properties": {"@spider": "usps_collection_boxes", "addr:city": "WALSTON", "addr:country": "US", "addr:full": "1716 WALSTON RD", "addr:postcode": "15781", "addr:state": "PA", "amenity": "post_box", "brand": "United States Postal Service", "brand:wikidata": "Q668687", "collection_times": "Mo-Fr 13:25; Sa 12:15", "name": "USPS COLLECTION BOX - PO LOBBY", "note": "ON 12/24 AND 12/31, THIS BOX MAY BE COLLECTED AS EARLY AS 12 NOON.", "nsi_id": "unitedstatespostalservice-a77078", "operator": "United States Postal Service", "operator:short": "USPS", "operator:type": "public", "operator:wikidata": "Q668687", "ref": "1578100001"}, "type": "Feature"}
{"dataset_attributes": {"@spider": "usps_collection_boxes", "spider:collection_time": "2024-01-04T08:25:05.301423"}, "geometry": {"coordinates": [-78.992775059, 40.963353736], "type": "Point"}, "id": "9xZuxNCoVMZEK8JYYKgKoc3Tlio=", "properties": {"@spider": "usps_collection_boxes", "addr:city": "WALSTON", "addr:country": "US", "addr:full": "1716 WALSTON RD", "addr:postcode": "15781", "addr:state": "PA", "amenity": "post_box", "brand": "United States Postal Service", "brand:wikidata": "Q668687", "collection_times": "Mo-Fr 13:25; Sa 12:15", "name": "USPS COLLECTION BOX - PO LOBBY", "note": "ON 12/24 AND 12/31, THIS BOX MAY BE COLLECTED AS EARLY AS 12 NOON.", "nsi_id": "unitedstatespostalservice-a77078", "operator": "United States Postal Service", "operator:short": "USPS", "operator:type": "public", "operator:wikidata": "Q668687", "ref": "1578100003"}, "type": "Feature"}
