{"dataset_attributes": {"@spider": "usps_collection_boxes"}, "geometry": {"coordinates": [-78.134482, 41.339638], "type": "Point"}, "id": "yqze6t34pzGPJIGov_xWsv9L8qM=", "properties": {"@spider": "usps_collection_boxes", "addr:city": "DRIFTWOOD", "addr:country": "US", "addr:full": "7298 3RD ST", "addr:postcode": "15832", "addr:state": "PA", "amenity": "post_box", "brand": "United States Postal Service", "brand:wikidata": "Q668687", "collection_times": "Mo-Fr 11:55; Sa 11:45", "name": "USPS COLLECTION BOX - BLUE BOX", "nsi_id": "unitedstatespostalservice-a77078", "operator": "United States Postal Service", "operator:short": "USPS", "operator:type": "public", "operator:wikidata": "Q668687", "ref": "1583200000"}, "type": "Feature"}
{"dataset_attributes": {"@spider": "usps_collection_boxes"}, "geometry": {"coordinates": [-78.134358, 41.339624], "type": "Point"}, "id": "fsoogrqzT4GEBCWt2I_iX9Ce1XI=", "properties": {"@spider": "usps_collection_boxes", "addr:city": "DRIFTWOOD", "addr:country": "US", "addr:full": "7298 3RD ST", "addr:postcode": "15832", "addr:state": "PA", "amenity": "post_box", "brand": "United States Postal Service", "brand:wikidata": "Q668687", "collection_times": "Mo-Fr 11:55; Sa 11:45", "name": "USPS COLLECTION BOX - PO LOBBY", "nsi_id": "unitedstatespostalservice-a77078", "operator": "United States Postal Service", "operator:short": "USPS", "operator:type": "public", "operator:wikidata": "Q668687", "ref": "1583200001"}, "type": "Feature"}
{"dataset_attributes": {"@spider": "usps_collection_boxes"}, "geometry": {"coordinates": [-78.133730486, 41.339327319], "type": "Point"}, "id": "NmlEyYEaH3grBScxjBVSOENuxPA=", "properties": {"@spider": "usps_collection_boxes", "addr:city": "DRIFTWOOD", "addr:country": "US", "addr:full": "7298 3RD ST", "addr:postcode": "15832", "addr:state": "PA", "amenity": "post_box", "brand": "United States Postal Service", "brand:wikidata": "Q668687", "collection_times": "Mo-Fr 11:55; Sa 11:40", "name": "USPS COLLECTION BOX - PO LOBBY", "nsi_id": "unitedstatespostalservice-a77078", "operator": "United States Postal Service", "operator:short": "USPS", "operator:type": "public", "operator:wikidata": "Q668687", "ref": "1583200003"}, "type": "Feature"}
{"dataset_attributes": {"@spider": "usps_collection_boxes"}, "geometry": {"coordinates": [-78.093997, 41.318285], "type": "Point"}, "id": "owVLQOVA9iMmUH89164qJ2J33k0=", "properties": {"@spider": "usps_collection_boxes", "addr:city": "SINNAMAHONING", "addr:country": "US", "addr:full": "186 RAILROAD ST UNIT 2", "addr:postcode": "15861", "addr:state": "PA", "amenity": "post_box", "brand": "United States Postal Service", "brand:wikidata": "Q668687", "collection_times": "Mo-Fr 10:50; Sa 11:35", "name": "USPS COLLECTION BOX - BLUE BOX", "nsi_id": "unitedstatespostalservice-a77078", "operator": "United States Postal Service", "operator:short": "USPS", "operator:type": "public", "operator:wikidata": "Q668687", "ref": "1586100000"}, "type": "Feature"}
{"dataset_attributes": {"@spider": "usps_collection_boxes"}, "geometry": {"coordinates": [-78.093997, 41.318285], "type": "Point"}, "id": "O7RFOMvZwzK2hiYyeOwCh47-RtY=", "properties": {"@spider": "usps_collection_boxes", "addr:city": "SINNAMAHONING", "addr:country": "US", "addr:full": "186 RAILROAD ST UNIT 2", "addr:postcode": "15861", "addr:state": "PA", "amenity": "post_box", "brand": "United States Postal Service", "brand:wikidata": "Q668687", "collection_times": "Mo-Fr 10:50; Sa 11:35", "name": "USPS COLLECTION BOX - PO LOBBY", "nsi_id": "unitedstatespostalservice-a77078", "operator": "United States Postal Service", "operator:short": "USPS", "operator:type": "public", "operator:wikidata": "Q668687", "ref": "1586100001"}, "type": "Feature"}
{"dataset_attributes": {"@spider": "usps_collection_boxes"}, "geometry": {"coordinates": [-78.093998267, 41.318215576], "type": "Point"}, "id": "Kxti3CKlThSdt-eIoqQyJh2C47s=", "properties": {"@spider": "usps_collection_boxes", "addr:city": "SINNAMAHONING", "addr:country": "US", "addr:full": "186 RAILROAD ST", "addr:postcode": "15861", "addr:state": "PA", "amenity": "post_box", "brand": "United States Postal Service", "brand:wikidata": "Q668687", "collection_times": "Mo-Fr 10:50; Sa 11:35", "name": "USPS COLLECTION BOX - PO LOBBY", "nsi_id": "unitedstatespostalservice-a77078", "operator": "United States Postal Service", "operator:short": "USPS", "operator:type": "public", "operator:wikidata": "Q668687", "ref": "1586100003"}, "type": "Feature"}
