{"geometry": {"coordinates": [-78.9184517, 40.326357], "type": "Point"}, "id": "6v48FmBep5acGrTswS0XtJAg_Vw=", "properties": {"@source_uri": "https://tools.usps.com/UspsToolsRestServices/rest/POLocator/findLocations", "@spider": "usps_collection_boxes", "addr:city": "JOHNSTOWN", "addr:country": "US", "addr:postcode": "15901", "addr:state": "PA", "addr:street_address": "422 LOCUST ST", "amenity": "post_box", "collection_times": "Mo-Fr 17:00; Sa 15:15", "note": "ON 12/24 AND 12/31, THIS BOX MAY BE COLLECTED AS EARLY AS 12 NOON.", "nsi_id": "unitedstatespostalservice-a77078", "operator": "United States Postal Service", "operator:short": "USPS", "operator:type": "public", "operator:wikidata": "Q668687", "ref": "1590100001"}, "type": "Feature"}
{"geometry": {"coordinates": [-78.916184405, 40.31791641], "type": "Point"}, "id": "C9IaUSb9cE6GKIoB8zTf3I4Xkow=", "properties": {"@source_uri": "https://tools.usps.com/UspsToolsRestServices/rest/POLocator/findLocations", "@spider": "usps_collection_boxes", "addr:city": "JOHNSTOWN", "addr:country": "US", "addr:postcode": "15901", "addr:state": "PA", "addr:street_address": "709 FRANKLIN ST", "amenity": "post_box", "collection_times": "Mo-Sa 15:15", "note": "ON 12/24 AND 12/31, THIS BOX MAY BE COLLECTED AS EARLY AS 12 NOON.", "nsi_id": "unitedstatespostalservice-a77078", "operator": "United States Postal Service", "operator:short": "USPS", "operator:type": "public", "operator:wikidata": "Q668687", "ref": "1590100005"}, "type": "Feature"}
{"geometry": {"coordinates": [-78.9181585, 40.325252], "type": "Point"}, "id": "YdZy2mI-hIElxl0cHMiVgak8ndE=", "properties": {"@source_uri": "https://tools.usps.com/UspsToolsRestServices/rest/POLocator/findLocations", "@spider": "usps_collection_boxes", "addr:city": "JOHNSTOWN", "addr:country": "US", "addr:postcode": "15901", "addr:state": "PA", "addr:street_address": "498 MAIN ST", "amenity": "post_box", "collection_times": "Mo-Fr 17:00; Sa 15:15", "note": "ON 12/24 AND 12/31, THIS BOX MAY BE COLLECTED AS EARLY AS 12 NOON.", "nsi_id": "unitedstatespostalservice-a77078", "operator": "United States Postal Service", "operator:short": "USPS", "operator:type": "public", "operator:wikidata": "Q668687", "ref": "1590100006"}, "type": "Feature"}
{"geometry": {"coordinates": [-78.9197683, 40.325857], "type": "Point"}, "id": "F2D--iSUxUOWviICc8UkGL1fReA=", "properties": {"@source_uri": "https://tools.usps.com/UspsToolsRestServices/rest/POLocator/findLocations", "@spider": "usps_collection_boxes", "addr:city": "JOHNSTOWN", "addr:country": "US", "addr:postcode": "15901", "addr:state": "PA", "addr:street_address": "406 MAIN ST", "amenity": "post_box", "collection_times": "Mo-Fr 17:00; Sa 15:15", "note": "ON 12/24 AND 12/31, THIS BOX MAY BE COLLECTED AS EARLY AS 12 NOON.", "nsi_id": "unitedstatespostalservice-a77078", "operator": "United States Postal Service", "operator:short": "USPS", "operator:type": "public", "operator:wikidata": "Q668687", "ref": "1590100011"}, "type": "Feature"}
{"geometry": {"coordinates": [-78.9235114, 40.32743], "type": "Point"}, "id": "A3d3BV0Mr_gouUYn0XPF2YjaTb0=", "properties": {"@source_uri": "https://tools.usps.com/UspsToolsRestServices/rest/POLocator/findLocations", "@spider": "usps_collection_boxes", "addr:city": "JOHNSTOWN", "addr:country": "US", "addr:postcode": "15901", "addr:state": "PA", "addr:street_address": "206 MAIN ST", "amenity": "post_box", "collection_times": "Mo-Fr 17:00; Sa 15:15", "note": "ON 12/24 AND 12/31, THIS BOX MAY BE COLLECTED AS EARLY AS 12 NOON.", "nsi_id": "unitedstatespostalservice-a77078", "operator": "United States Postal Service", "operator:short": "USPS", "operator:type": "public", "operator:wikidata": "Q668687", "ref": "1590100013"}, "type": "Feature"}
{"geometry": {"coordinates": [-78.9215271, 40.326597], "type": "Point"}, "id": "MHl6aPIiBTAyojFzFia2rIviH4Q=", "properties": {"@source_uri": "https://tools.usps.com/UspsToolsRestServices/rest/POLocator/findLocations", "@spider": "usps_collection_boxes", "addr:city": "JOHNSTOWN", "addr:country": "US", "addr:postcode": "15901", "addr:state": "PA", "addr:street_address": "302 MAIN ST", "amenity": "post_box", "collection_times": "Mo-Fr 17:00; Sa 15:15", "note": "ON 12/24 AND 12/31, THIS BOX MAY BE COLLECTED AS EARLY AS 12 NOON.", "nsi_id": "unitedstatespostalservice-a77078", "operator": "United States Postal Service", "operator:short": "USPS", "operator:type": "public", "operator:wikidata": "Q668687", "ref": "1590100014"}, "type": "Feature"}
{"geometry": {"coordinates": [-78.9208304, 40.324582], "type": "Point"}, "id": "5KFTmPuFRkngzvRS9CpKSrjel64=", "properties": {"@source_uri": "https://tools.usps.com/UspsToolsRestServices/rest/POLocator/findLocations", "@spider": "usps_collection_boxes", "addr:city": "JOHNSTOWN", "addr:country": "US", "addr:postcode": "15901", "addr:state": "PA", "addr:street_address": "299 MARKET ST", "amenity": "post_box", "collection_times": "Mo-Sa 15:15", "note": "ON 12/24 AND 12/31, THIS BOX MAY BE COLLECTED AS EARLY AS 12 NOON.", "nsi_id": "unitedstatespostalservice-a77078", "operator": "United States Postal Service", "operator:short": "USPS", "operator:type": "public", "operator:wikidata": "Q668687", "ref": "1590100017"}, "type": "Feature"}
{"geometry": {"coordinates": [-78.8546571, 40.403995], "type": "Point"}, "id": "790tmVQUwwPvoxa5uxPebpVJH88=", "properties": {"@source_uri": "https://tools.usps.com/UspsToolsRestServices/rest/POLocator/findLocations", "@spider": "usps_collection_boxes", "addr:city": "JOHNSTOWN", "addr:country": "US", "addr:postcode": "15901", "addr:state": "PA", "addr:street_address": "2690 WILLIAM PENN AVE", "amenity": "post_box", "collection_times": "Mo-Sa 10:00", "nsi_id": "unitedstatespostalservice-a77078", "operator": "United States Postal Service", "operator:short": "USPS", "operator:type": "public", "operator:wikidata": "Q668687", "ref": "1590100021"}, "type": "Feature"}
{"geometry": {"coordinates": [-78.917143457, 40.326269409], "type": "Point"}, "id": "ooID0d135U_afj-sL4zpk9bC7p0=", "properties": {"@source_uri": "https://tools.usps.com/UspsToolsRestServices/rest/POLocator/findLocations", "@spider": "usps_collection_boxes", "addr:city": "JOHNSTOWN", "addr:country": "US", "addr:postcode": "15901", "addr:state": "PA", "addr:street_address": "111 FRANKLIN ST", "amenity": "post_box", "collection_times": "Mo-Sa 17:15", "note": "ON 12/24 AND 12/31, THIS BOX MAY BE COLLECTED AS EARLY AS 12 NOON.", "nsi_id": "unitedstatespostalservice-a77078", "operator": "United States Postal Service", "operator:short": "USPS", "operator:type": "public", "operator:wikidata": "Q668687", "ref": "1590100028"}, "type": "Feature"}
{"geometry": {"coordinates": [-78.917143457, 40.326269409], "type": "Point"}, "id": "FBKw5gGep29di4qic_olvKzeRa0=", "properties": {"@source_uri": "https://tools.usps.com/UspsToolsRestServices/rest/POLocator/findLocations", "@spider": "usps_collection_boxes", "addr:city": "JOHNSTOWN", "addr:country": "US", "addr:postcode": "15901", "addr:state": "PA", "addr:street_address": "111 FRANKLIN ST", "amenity": "post_box", "collection_times": "Mo-Sa 17:15", "note": "ON 12/24 AND 12/31, THIS BOX MAY BE COLLECTED AS EARLY AS 12 NOON.", "nsi_id": "unitedstatespostalservice-a77078", "operator": "United States Postal Service", "operator:short": "USPS", "operator:type": "public", "operator:wikidata": "Q668687", "ref": "1590100029"}, "type": "Feature"}
{"geometry": {"coordinates": [-78.9188106115, 40.3273921502], "type": "Point"}, "id": "siudLH6zp8ZJVUFDkZcGty1lQ3k=", "properties": {"@source_uri": "https://tools.usps.com/UspsToolsRestServices/rest/POLocator/findLocations", "@spider": "usps_collection_boxes", "addr:city": "JOHNSTOWN", "addr:country": "US", "addr:postcode": "15901", "addr:state": "PA", "addr:street_address": "101 MARKET ST", "amenity": "post_box", "collection_times": "Mo-Fr 17:00; Sa 15:15", "note": "ON 12/24 AND 12/31, THIS BOX MAY BE COLLECTED AS EARLY AS 12 NOON.", "nsi_id": "unitedstatespostalservice-a77078", "operator": "United States Postal Service", "operator:short": "USPS", "operator:type": "public", "operator:wikidata": "Q668687", "ref": "1590100042"}, "type": "Feature"}
{"geometry": {"coordinates": [-78.917143457, 40.326269409], "type": "Point"}, "id": "iQGXJAlb8pSUb-3l0q0BxnSNrSc=", "properties": {"@source_uri": "https://tools.usps.com/UspsToolsRestServices/rest/POLocator/findLocations", "@spider": "usps_collection_boxes", "addr:city": "JOHNSTOWN", "addr:country": "US", "addr:postcode": "15901", "addr:state": "PA", "addr:street_address": "111 FRANKLIN ST", "amenity": "post_box", "collection_times": "Mo-Sa 17:00", "indoor": "yes", "note": "ON 12/24 AND 12/31, THIS BOX MAY BE COLLECTED AS EARLY AS 12 NOON.", "nsi_id": "unitedstatespostalservice-a77078", "operator": "United States Postal Service", "operator:short": "USPS", "operator:type": "public", "operator:wikidata": "Q668687", "ref": "1590100050"}, "type": "Feature"}
{"geometry": {"coordinates": [-78.9159475, 40.324296], "type": "Point"}, "id": "wygbix0hkCGp3xIqWCQjMLHOEPg=", "properties": {"@source_uri": "https://tools.usps.com/UspsToolsRestServices/rest/POLocator/findLocations", "@spider": "usps_collection_boxes", "addr:city": "JOHNSTOWN", "addr:country": "US", "addr:postcode": "15901", "addr:state": "PA", "addr:street_address": "602 MAIN ST", "amenity": "post_box", "collection_times": "Mo-Fr 17:00; Sa 15:15", "note": "ON 12/24 AND 12/31, THIS BOX MAY BE COLLECTED AS EARLY AS 12 NOON.", "nsi_id": "unitedstatespostalservice-a77078", "operator": "United States Postal Service", "operator:short": "USPS", "operator:type": "public", "operator:wikidata": "Q668687", "ref": "1590100051"}, "type": "Feature"}
{"geometry": {"coordinates": [-78.9169286, 40.325776], "type": "Point"}, "id": "JZhmpDiBsYAFuZGh__m6ZMEmh9E=", "properties": {"@source_uri": "https://tools.usps.com/UspsToolsRestServices/rest/POLocator/findLocations", "@spider": "usps_collection_boxes", "addr:city": "JOHNSTOWN", "addr:country": "US", "addr:postcode": "15901", "addr:state": "PA", "addr:street_address": "516 LOCUST ST", "amenity": "post_box", "collection_times": "Mo-Fr 17:00; Sa 15:15", "note": "ON 12/24 AND 12/31, THIS BOX MAY BE COLLECTED AS EARLY AS 12 NOON.", "nsi_id": "unitedstatespostalservice-a77078", "operator": "United States Postal Service", "operator:short": "USPS", "operator:type": "public", "operator:wikidata": "Q668687", "ref": "1590100053"}, "type": "Feature"}
{"geometry": {"coordinates": [-78.917143457, 40.326269409], "type": "Point"}, "id": "ALkitVpHfAcdcEYOtor8HvFidyY=", "properties": {"@source_uri": "https://tools.usps.com/UspsToolsRestServices/rest/POLocator/findLocations", "@spider": "usps_collection_boxes", "addr:city": "JOHNSTOWN", "addr:country": "US", "addr:postcode": "15901", "addr:state": "PA", "addr:street_address": "111 FRANKLIN ST", "amenity": "post_box", "collection_times": "Mo-Fr 17:00; Sa 12:00", "indoor": "yes", "note": "ON 12/24 AND 12/31, THIS BOX MAY BE COLLECTED AS EARLY AS 12 NOON.", "nsi_id": "unitedstatespostalservice-a77078", "operator": "United States Postal Service", "operator:short": "USPS", "operator:type": "public", "operator:wikidata": "Q668687", "ref": "1590100056"}, "type": "Feature"}
{"geometry": {"coordinates": [-78.9129605, 40.297583], "type": "Point"}, "id": "HKuby97IjQr4fWvKIQ068_m94e8=", "properties": {"@source_uri": "https://tools.usps.com/UspsToolsRestServices/rest/POLocator/findLocations", "@spider": "usps_collection_boxes", "addr:city": "JOHNSTOWN", "addr:country": "US", "addr:postcode": "15902", "addr:state": "PA", "addr:street_address": "570 CENTRAL AVE", "amenity": "post_box", "collection_times": "Mo-Sa 12:45", "note": "ON 12/24 AND 12/31, THIS BOX MAY BE COLLECTED AS EARLY AS 12 NOON.", "nsi_id": "unitedstatespostalservice-a77078", "operator": "United States Postal Service", "operator:short": "USPS", "operator:type": "public", "operator:wikidata": "Q668687", "ref": "1590200005"}, "type": "Feature"}
{"geometry": {"coordinates": [-78.9087272, 40.298209], "type": "Point"}, "id": "MCz3t4bFct19dVdGSEn9Pr43FxY=", "properties": {"@source_uri": "https://tools.usps.com/UspsToolsRestServices/rest/POLocator/findLocations", "@spider": "usps_collection_boxes", "addr:city": "JOHNSTOWN", "addr:country": "US", "addr:postcode": "15902", "addr:state": "PA", "addr:street_address": "175 OHIO ST", "amenity": "post_box", "collection_times": "Mo-Sa 09:00", "nsi_id": "unitedstatespostalservice-a77078", "operator": "United States Postal Service", "operator:short": "USPS", "operator:type": "public", "operator:wikidata": "Q668687", "ref": "1590200010"}, "type": "Feature"}
{"geometry": {"coordinates": [-78.9123171, 40.30958], "type": "Point"}, "id": "WeucAQcnORMrvwpzkyZc2UB7cW0=", "properties": {"@source_uri": "https://tools.usps.com/UspsToolsRestServices/rest/POLocator/findLocations", "@spider": "usps_collection_boxes", "addr:city": "JOHNSTOWN", "addr:country": "US", "addr:postcode": "15902", "addr:state": "PA", "addr:street_address": "645 HORNER ST", "amenity": "post_box", "collection_times": "Mo-Sa 09:00", "nsi_id": "unitedstatespostalservice-a77078", "operator": "United States Postal Service", "operator:short": "USPS", "operator:type": "public", "operator:wikidata": "Q668687", "ref": "1590200012"}, "type": "Feature"}
{"geometry": {"coordinates": [-78.9060050244, 40.2971099924], "type": "Point"}, "id": "E-iHpED1W3_xn7oBE5wuZKNFrw4=", "properties": {"@source_uri": "https://tools.usps.com/UspsToolsRestServices/rest/POLocator/findLocations", "@spider": "usps_collection_boxes", "addr:city": "JOHNSTOWN", "addr:country": "US", "addr:postcode": "15902", "addr:state": "PA", "addr:street_address": "245 OHIO ST", "amenity": "post_box", "collection_times": "Mo-Sa 09:00", "nsi_id": "unitedstatespostalservice-a77078", "operator": "United States Postal Service", "operator:short": "USPS", "operator:type": "public", "operator:wikidata": "Q668687", "ref": "1590200015"}, "type": "Feature"}
{"geometry": {"coordinates": [-78.8670137, 40.286156], "type": "Point"}, "id": "fK8ZOeUdeQCaVNI5gFHTrO3pKMY=", "properties": {"@source_uri": "https://tools.usps.com/UspsToolsRestServices/rest/POLocator/findLocations", "@spider": "usps_collection_boxes", "addr:city": "JOHNSTOWN", "addr:country": "US", "addr:postcode": "15904", "addr:state": "PA", "addr:street_address": "856 SCALP AVE", "amenity": "post_box", "collection_times": "Mo-Fr 16:45; Sa 15:30", "note": "ON 12/24 AND 12/31, THIS BOX MAY BE COLLECTED AS EARLY AS 12 NOON.", "nsi_id": "unitedstatespostalservice-a77078", "operator": "United States Postal Service", "operator:short": "USPS", "operator:type": "public", "operator:wikidata": "Q668687", "ref": "1590400000"}, "type": "Feature"}
{"geometry": {"coordinates": [-78.8716339, 40.295508], "type": "Point"}, "id": "8pifSxpWvdHsFn7j7Rmqj63fbNE=", "properties": {"@source_uri": "https://tools.usps.com/UspsToolsRestServices/rest/POLocator/findLocations", "@spider": "usps_collection_boxes", "addr:city": "JOHNSTOWN", "addr:country": "US", "addr:postcode": "15904", "addr:state": "PA", "addr:street_address": "2449 BEDFORD ST", "amenity": "post_box", "collection_times": "Mo-Sa 12:30", "note": "ON 12/24 AND 12/31, THIS BOX MAY BE COLLECTED AS EARLY AS 12 NOON.", "nsi_id": "unitedstatespostalservice-a77078", "operator": "United States Postal Service", "operator:short": "USPS", "operator:type": "public", "operator:wikidata": "Q668687", "ref": "1590400005"}, "type": "Feature"}
{"geometry": {"coordinates": [-78.8486595, 40.278148], "type": "Point"}, "id": "vJo8xLoVEO6RFQLSJtWeLHGsi7Q=", "properties": {"@source_uri": "https://tools.usps.com/UspsToolsRestServices/rest/POLocator/findLocations", "@spider": "usps_collection_boxes", "addr:city": "JOHNSTOWN", "addr:country": "US", "addr:postcode": "15904", "addr:state": "PA", "addr:street_address": "111 COLLEGE PARK PLZ", "amenity": "post_box", "collection_times": "Mo-Sa 16:00", "note": "ON 12/24 AND 12/31, THIS BOX MAY BE COLLECTED AS EARLY AS 12 NOON.", "nsi_id": "unitedstatespostalservice-a77078", "operator": "United States Postal Service", "operator:short": "USPS", "operator:type": "public", "operator:wikidata": "Q668687", "ref": "1590400006"}, "type": "Feature"}
{"geometry": {"coordinates": [-78.847881642, 40.272319332], "type": "Point"}, "id": "Q1fmOKOEBUAqmUTSkp3G9fG_EF0=", "properties": {"@source_uri": "https://tools.usps.com/UspsToolsRestServices/rest/POLocator/findLocations", "@spider": "usps_collection_boxes", "addr:city": "JOHNSTOWN", "addr:country": "US", "addr:postcode": "15904", "addr:state": "PA", "addr:street_address": "1401 EISENHOWER BLVD", "amenity": "post_box", "collection_times": "Mo-Sa 16:00", "note": "ON 12/24 AND 12/31, THIS BOX MAY BE COLLECTED AS EARLY AS 12 NOON.", "nsi_id": "unitedstatespostalservice-a77078", "operator": "United States Postal Service", "operator:short": "USPS", "operator:type": "public", "operator:wikidata": "Q668687", "ref": "1590400020"}, "type": "Feature"}
{"geometry": {"coordinates": [-78.8551927, 40.271649], "type": "Point"}, "id": "tGhSsDFiEKg71xDZoW-SBoVO0UA=", "properties": {"@source_uri": "https://tools.usps.com/UspsToolsRestServices/rest/POLocator/findLocations", "@spider": "usps_collection_boxes", "addr:city": "JOHNSTOWN", "addr:country": "US", "addr:postcode": "15904", "addr:state": "PA", "addr:street_address": "1449 SCALP AVE", "amenity": "post_box", "collection_times": "Mo-Sa 16:00", "note": "ON 12/24 AND 12/31, THIS BOX MAY BE COLLECTED AS EARLY AS 12 NOON.", "nsi_id": "unitedstatespostalservice-a77078", "operator": "United States Postal Service", "operator:short": "USPS", "operator:type": "public", "operator:wikidata": "Q668687", "ref": "1590400026"}, "type": "Feature"}
{"geometry": {"coordinates": [-78.82777837, 40.283573994], "type": "Point"}, "id": "rKGu4IXzeyKe6nK96EEpXepEvog=", "properties": {"@source_uri": "https://tools.usps.com/UspsToolsRestServices/rest/POLocator/findLocations", "@spider": "usps_collection_boxes", "addr:city": "JOHNSTOWN", "addr:country": "US", "addr:postcode": "15904", "addr:state": "PA", "addr:street_address": "235 JARI DR", "amenity": "post_box", "collection_times": "Mo-Sa 18:00", "note": "ON 12/24 AND 12/31, THIS BOX MAY BE COLLECTED AS EARLY AS 12 NOON.", "nsi_id": "unitedstatespostalservice-a77078", "operator": "United States Postal Service", "operator:short": "USPS", "operator:type": "public", "operator:wikidata": "Q668687", "ref": "1590400029"}, "type": "Feature"}
{"geometry": {"coordinates": [-78.8609747, 40.267856], "type": "Point"}, "id": "OsKTcdBDbuep8mIFl9Gv5KQgl48=", "properties": {"@source_uri": "https://tools.usps.com/UspsToolsRestServices/rest/POLocator/findLocations", "@spider": "usps_collection_boxes", "addr:city": "JOHNSTOWN", "addr:country": "US", "addr:postcode": "15904", "addr:state": "PA", "addr:street_address": "969 EISENHOWER BLVD", "amenity": "post_box", "collection_times": "Mo-Sa 16:15", "note": "ON 12/24 AND 12/31, THIS BOX MAY BE COLLECTED AS EARLY AS 12 NOON.", "nsi_id": "unitedstatespostalservice-a77078", "operator": "United States Postal Service", "operator:short": "USPS", "operator:type": "public", "operator:wikidata": "Q668687", "ref": "1590400036"}, "type": "Feature"}
{"geometry": {"coordinates": [-78.8350463, 40.296379], "type": "Point"}, "id": "rLVJmbSNWZ32GMze0fGtZXdo_No=", "properties": {"@source_uri": "https://tools.usps.com/UspsToolsRestServices/rest/POLocator/findLocations", "@spider": "usps_collection_boxes", "addr:city": "JOHNSTOWN", "addr:country": "US", "addr:postcode": "15904", "addr:state": "PA", "addr:street_address": "510 GALLERIA DR", "amenity": "post_box", "collection_times": "Mo-Sa 15:45", "note": "ON 12/24 AND 12/31, THIS BOX MAY BE COLLECTED AS EARLY AS 12 NOON.", "nsi_id": "unitedstatespostalservice-a77078", "operator": "United States Postal Service", "operator:short": "USPS", "operator:type": "public", "operator:wikidata": "Q668687", "ref": "1590400037"}, "type": "Feature"}
{"geometry": {"coordinates": [-78.82777837, 40.283573994], "type": "Point"}, "id": "5jrutQkuMbnNOKbN6rf3SqpkCh8=", "properties": {"@source_uri": "https://tools.usps.com/UspsToolsRestServices/rest/POLocator/findLocations", "@spider": "usps_collection_boxes", "addr:city": "JOHNSTOWN", "addr:country": "US", "addr:postcode": "15904", "addr:state": "PA", "addr:street_address": "235 JARI DR", "amenity": "post_box", "collection_times": "Mo-Fr 18:00; Sa 12:00", "indoor": "yes", "note": "ON 12/24 AND 12/31, THIS BOX MAY BE COLLECTED AS EARLY AS 12 NOON.", "nsi_id": "unitedstatespostalservice-a77078", "operator": "United States Postal Service", "operator:short": "USPS", "operator:type": "public", "operator:wikidata": "Q668687", "ref": "1590400046"}, "type": "Feature"}
{"geometry": {"coordinates": [-78.82777837, 40.283573994], "type": "Point"}, "id": "NoIjA_nv6dI5nzT9W3AWfIqNzto=", "properties": {"@source_uri": "https://tools.usps.com/UspsToolsRestServices/rest/POLocator/findLocations", "@spider": "usps_collection_boxes", "addr:city": "JOHNSTOWN", "addr:country": "US", "addr:postcode": "15904", "addr:state": "PA", "addr:street_address": "235 JARI DR", "amenity": "post_box", "collection_times": "Mo-Fr 18:00; Sa 12:00", "indoor": "yes", "note": "ON 12/24 AND 12/31, THIS BOX MAY BE COLLECTED AS EARLY AS 12 NOON.", "nsi_id": "unitedstatespostalservice-a77078", "operator": "United States Postal Service", "operator:short": "USPS", "operator:type": "public", "operator:wikidata": "Q668687", "ref": "1590400055"}, "type": "Feature"}
{"geometry": {"coordinates": [-78.9286849, 40.286643], "type": "Point"}, "id": "1cYzhBItRY54If9sZ-Fsm4TXExU=", "properties": {"@source_uri": "https://tools.usps.com/UspsToolsRestServices/rest/POLocator/findLocations", "@spider": "usps_collection_boxes", "addr:city": "JOHNSTOWN", "addr:country": "US", "addr:postcode": "15905", "addr:state": "PA", "addr:street_address": "1601 FERNDALE AVE", "amenity": "post_box", "collection_times": "Mo-Sa 09:00", "nsi_id": "unitedstatespostalservice-a77078", "operator": "United States Postal Service", "operator:short": "USPS", "operator:type": "public", "operator:wikidata": "Q668687", "ref": "1590500000"}, "type": "Feature"}
{"geometry": {"coordinates": [-78.9170029, 40.306134], "type": "Point"}, "id": "bD3-pwunaH1r6cy3FTI_UNuVuno=", "properties": {"@source_uri": "https://tools.usps.com/UspsToolsRestServices/rest/POLocator/findLocations", "@spider": "usps_collection_boxes", "addr:city": "JOHNSTOWN", "addr:country": "US", "addr:postcode": "15905", "addr:state": "PA", "addr:street_address": "1029 FRANKLIN ST", "amenity": "post_box", "collection_times": "Mo-Sa 15:00", "note": "ON 12/24 AND 12/31, THIS BOX MAY BE COLLECTED AS EARLY AS 12 NOON.", "nsi_id": "unitedstatespostalservice-a77078", "operator": "United States Postal Service", "operator:short": "USPS", "operator:type": "public", "operator:wikidata": "Q668687", "ref": "1590500001"}, "type": "Feature"}
{"geometry": {"coordinates": [-78.9318069, 40.292534], "type": "Point"}, "id": "ByzhW9Rnd0ot2lCCpll7rmEk1UY=", "properties": {"@source_uri": "https://tools.usps.com/UspsToolsRestServices/rest/POLocator/findLocations", "@spider": "usps_collection_boxes", "addr:city": "JOHNSTOWN", "addr:country": "US", "addr:postcode": "15905", "addr:state": "PA", "addr:street_address": "344 GOUCHER ST", "amenity": "post_box", "collection_times": "Mo-Sa 09:00", "nsi_id": "unitedstatespostalservice-a77078", "operator": "United States Postal Service", "operator:short": "USPS", "operator:type": "public", "operator:wikidata": "Q668687", "ref": "1590500002"}, "type": "Feature"}
{"geometry": {"coordinates": [-78.9153246, 40.289193], "type": "Point"}, "id": "n1W-49gGVnKGYKOOjZ3U9HuS2PI=", "properties": {"@source_uri": "https://tools.usps.com/UspsToolsRestServices/rest/POLocator/findLocations", "@spider": "usps_collection_boxes", "addr:city": "JOHNSTOWN", "addr:country": "US", "addr:postcode": "15905", "addr:state": "PA", "addr:street_address": "561 FERNDALE AVE", "amenity": "post_box", "collection_times": "Mo-Sa 09:00", "nsi_id": "unitedstatespostalservice-a77078", "operator": "United States Postal Service", "operator:short": "USPS", "operator:type": "public", "operator:wikidata": "Q668687", "ref": "1590500004"}, "type": "Feature"}
{"geometry": {"coordinates": [-78.9196790098, 40.3041030142], "type": "Point"}, "id": "WZwcpL4wHRgkSUl8LGjHOV8vcjg=", "properties": {"@source_uri": "https://tools.usps.com/UspsToolsRestServices/rest/POLocator/findLocations", "@spider": "usps_collection_boxes", "addr:city": "JOHNSTOWN", "addr:country": "US", "addr:postcode": "15905", "addr:state": "PA", "addr:street_address": "1111 FRANKLIN ST", "amenity": "post_box", "collection_times": "Mo-Sa 15:00", "note": "ON 12/24 AND 12/31, THIS BOX MAY BE COLLECTED AS EARLY AS 12 NOON.", "nsi_id": "unitedstatespostalservice-a77078", "operator": "United States Postal Service", "operator:short": "USPS", "operator:type": "public", "operator:wikidata": "Q668687", "ref": "1590500005"}, "type": "Feature"}
{"geometry": {"coordinates": [-78.9236859, 40.295302], "type": "Point"}, "id": "YYJ5IkokThOVgA_YQRJjLNLJXqU=", "properties": {"@source_uri": "https://tools.usps.com/UspsToolsRestServices/rest/POLocator/findLocations", "@spider": "usps_collection_boxes", "addr:city": "JOHNSTOWN", "addr:country": "US", "addr:postcode": "15905", "addr:state": "PA", "addr:street_address": "1429 FRANKLIN ST", "amenity": "post_box", "collection_times": "Mo-Sa 09:00", "nsi_id": "unitedstatespostalservice-a77078", "operator": "United States Postal Service", "operator:short": "USPS", "operator:type": "public", "operator:wikidata": "Q668687", "ref": "1590500006"}, "type": "Feature"}
{"geometry": {"coordinates": [-78.9188345525, 40.3048162301], "type": "Point"}, "id": "8jZJ5rpcOYZab34-PtiuvkH05D8=", "properties": {"@source_uri": "https://tools.usps.com/UspsToolsRestServices/rest/POLocator/findLocations", "@spider": "usps_collection_boxes", "addr:city": "JOHNSTOWN", "addr:country": "US", "addr:postcode": "15905", "addr:state": "PA", "addr:street_address": "1093 FRANKLIN ST", "amenity": "post_box", "collection_times": "Mo-Sa 15:00", "note": "ON 12/24 AND 12/31, THIS BOX MAY BE COLLECTED AS EARLY AS 12 NOON.", "nsi_id": "unitedstatespostalservice-a77078", "operator": "United States Postal Service", "operator:short": "USPS", "operator:type": "public", "operator:wikidata": "Q668687", "ref": "1590500008"}, "type": "Feature"}
{"geometry": {"coordinates": [-78.9562558, 40.32175], "type": "Point"}, "id": "XuL1l3IP6pDBF0jAZj0WBl_XIag=", "properties": {"@source_uri": "https://tools.usps.com/UspsToolsRestServices/rest/POLocator/findLocations", "@spider": "usps_collection_boxes", "addr:city": "JOHNSTOWN", "addr:country": "US", "addr:postcode": "15905", "addr:state": "PA", "addr:street_address": "1739 LYTER DR", "amenity": "post_box", "collection_times": "Mo-Sa 13:45", "note": "ON 12/24 AND 12/31, THIS BOX MAY BE COLLECTED AS EARLY AS 12 NOON.", "nsi_id": "unitedstatespostalservice-a77078", "operator": "United States Postal Service", "operator:short": "USPS", "operator:type": "public", "operator:wikidata": "Q668687", "ref": "1590500025"}, "type": "Feature"}
{"geometry": {"coordinates": [-78.9469215, 40.302102], "type": "Point"}, "id": "eIKhNYCQnE9e5d8h_py7_bNJK2c=", "properties": {"@source_uri": "https://tools.usps.com/UspsToolsRestServices/rest/POLocator/findLocations", "@spider": "usps_collection_boxes", "addr:city": "JOHNSTOWN", "addr:country": "US", "addr:postcode": "15905", "addr:state": "PA", "addr:street_address": "727 GOUCHER ST", "amenity": "post_box", "collection_times": "Mo-Sa 14:30", "note": "ON 12/24 AND 12/31, THIS BOX MAY BE COLLECTED AS EARLY AS 12 NOON.", "nsi_id": "unitedstatespostalservice-a77078", "operator": "United States Postal Service", "operator:short": "USPS", "operator:type": "public", "operator:wikidata": "Q668687", "ref": "1590500032"}, "type": "Feature"}
{"geometry": {"coordinates": [-78.9416158, 40.308685], "type": "Point"}, "id": "PbRj9fbtZlXV5YgGX8vQSjkbacg=", "properties": {"@source_uri": "https://tools.usps.com/UspsToolsRestServices/rest/POLocator/findLocations", "@spider": "usps_collection_boxes", "addr:city": "JOHNSTOWN", "addr:country": "US", "addr:postcode": "15905", "addr:state": "PA", "addr:street_address": "316 STATE ST", "amenity": "post_box", "collection_times": "Mo-Sa 14:30", "note": "ON 12/24 AND 12/31, THIS BOX MAY BE COLLECTED AS EARLY AS 12 NOON.", "nsi_id": "unitedstatespostalservice-a77078", "operator": "United States Postal Service", "operator:short": "USPS", "operator:type": "public", "operator:wikidata": "Q668687", "ref": "1590500035"}, "type": "Feature"}
{"geometry": {"coordinates": [-78.9536655, 40.315686], "type": "Point"}, "id": "nVSKbvxoEop_DcPq3ZcNR-hPyBM=", "properties": {"@source_uri": "https://tools.usps.com/UspsToolsRestServices/rest/POLocator/findLocations", "@spider": "usps_collection_boxes", "addr:city": "JOHNSTOWN", "addr:country": "US", "addr:postcode": "15905", "addr:state": "PA", "addr:street_address": "1541 MENOHER BLVD", "amenity": "post_box", "collection_times": "Mo-Sa 14:00", "note": "ON 12/24 AND 12/31, THIS BOX MAY BE COLLECTED AS EARLY AS 12 NOON.", "nsi_id": "unitedstatespostalservice-a77078", "operator": "United States Postal Service", "operator:short": "USPS", "operator:type": "public", "operator:wikidata": "Q668687", "ref": "1590500037"}, "type": "Feature"}
{"geometry": {"coordinates": [-78.9401194, 40.315328], "type": "Point"}, "id": "yYXOwilAhRKt2LoJIrFFRxYZQUY=", "properties": {"@source_uri": "https://tools.usps.com/UspsToolsRestServices/rest/POLocator/findLocations", "@spider": "usps_collection_boxes", "addr:city": "JOHNSTOWN", "addr:country": "US", "addr:postcode": "15905", "addr:state": "PA", "addr:street_address": "1003 MENOHER BLVD", "amenity": "post_box", "collection_times": "Mo-Sa 09:00", "nsi_id": "unitedstatespostalservice-a77078", "operator": "United States Postal Service", "operator:short": "USPS", "operator:type": "public", "operator:wikidata": "Q668687", "ref": "1590500040"}, "type": "Feature"}
{"geometry": {"coordinates": [-78.9568052, 40.322395], "type": "Point"}, "id": "Mfg4KiqAS0IRXyXN9E11pG0jEuw=", "properties": {"@source_uri": "https://tools.usps.com/UspsToolsRestServices/rest/POLocator/findLocations", "@spider": "usps_collection_boxes", "addr:city": "JOHNSTOWN", "addr:country": "US", "addr:postcode": "15905", "addr:state": "PA", "addr:street_address": "1910 MINNO DR STE 350", "amenity": "post_box", "collection_times": "Mo-Sa 14:00", "note": "ON 12/24 AND 12/31, THIS BOX MAY BE COLLECTED AS EARLY AS 12 NOON.", "nsi_id": "unitedstatespostalservice-a77078", "operator": "United States Postal Service", "operator:short": "USPS", "operator:type": "public", "operator:wikidata": "Q668687", "ref": "1590500041"}, "type": "Feature"}
{"geometry": {"coordinates": [-78.9436761, 40.350365], "type": "Point"}, "id": "ovbv0HK1URby3oB1M09CzV_GQcs=", "properties": {"@source_uri": "https://tools.usps.com/UspsToolsRestServices/rest/POLocator/findLocations", "@spider": "usps_collection_boxes", "addr:city": "JOHNSTOWN", "addr:country": "US", "addr:postcode": "15906", "addr:state": "PA", "addr:street_address": "350 SHERIDAN ST", "amenity": "post_box", "collection_times": "Mo-Sa 09:00", "nsi_id": "unitedstatespostalservice-a77078", "operator": "United States Postal Service", "operator:short": "USPS", "operator:type": "public", "operator:wikidata": "Q668687", "ref": "1590600004"}, "type": "Feature"}
{"geometry": {"coordinates": [-78.9373073898, 40.3538595931], "type": "Point"}, "id": "bSlVncgT1Cm8AN0IxJQw96ntqHA=", "properties": {"@source_uri": "https://tools.usps.com/UspsToolsRestServices/rest/POLocator/findLocations", "@spider": "usps_collection_boxes", "addr:city": "JOHNSTOWN", "addr:country": "US", "addr:postcode": "15906", "addr:state": "PA", "addr:street_address": "200 COOPER AVE", "amenity": "post_box", "collection_times": "Mo-Sa 09:00", "nsi_id": "unitedstatespostalservice-a77078", "operator": "United States Postal Service", "operator:short": "USPS", "operator:type": "public", "operator:wikidata": "Q668687", "ref": "1590600009"}, "type": "Feature"}
{"geometry": {"coordinates": [-78.9340545, 40.343122], "type": "Point"}, "id": "NzaLJTePupxqQvFPixPPoAXXPss=", "properties": {"@source_uri": "https://tools.usps.com/UspsToolsRestServices/rest/POLocator/findLocations", "@spider": "usps_collection_boxes", "addr:city": "JOHNSTOWN", "addr:country": "US", "addr:postcode": "15906", "addr:state": "PA", "addr:street_address": "1000 BROAD ST", "amenity": "post_box", "collection_times": "Mo-Sa 13:00", "note": "ON 12/24 AND 12/31, THIS BOX MAY BE COLLECTED AS EARLY AS 12 NOON.", "nsi_id": "unitedstatespostalservice-a77078", "operator": "United States Postal Service", "operator:short": "USPS", "operator:type": "public", "operator:wikidata": "Q668687", "ref": "1590600010"}, "type": "Feature"}
{"geometry": {"coordinates": [-78.8868293, 40.346396], "type": "Point"}, "id": "PXE8-yDd9suw6aAbSbHl7pa3KYA=", "properties": {"@source_uri": "https://tools.usps.com/UspsToolsRestServices/rest/POLocator/findLocations", "@spider": "usps_collection_boxes", "addr:city": "JOHNSTOWN", "addr:country": "US", "addr:postcode": "15909", "addr:state": "PA", "addr:street_address": "50 MAIN ST", "amenity": "post_box", "collection_times": "Mo-Sa 13:00", "note": "ON 12/24 AND 12/31, THIS BOX MAY BE COLLECTED AS EARLY AS 12 NOON.", "nsi_id": "unitedstatespostalservice-a77078", "operator": "United States Postal Service", "operator:short": "USPS", "operator:type": "public", "operator:wikidata": "Q668687", "ref": "1590900002"}, "type": "Feature"}
{"geometry": {"coordinates": [-78.8839723, 40.342918], "type": "Point"}, "id": "oavfmBMc2mk8kghOJeHXZZUxTFs=", "properties": {"@source_uri": "https://tools.usps.com/UspsToolsRestServices/rest/POLocator/findLocations", "@spider": "usps_collection_boxes", "addr:city": "JOHNSTOWN", "addr:country": "US", "addr:postcode": "15909", "addr:state": "PA", "addr:street_address": "1125 MAIN ST", "amenity": "post_box", "collection_times": "Mo-Sa 09:00", "nsi_id": "unitedstatespostalservice-a77078", "operator": "United States Postal Service", "operator:short": "USPS", "operator:type": "public", "operator:wikidata": "Q668687", "ref": "1590900003"}, "type": "Feature"}
{"geometry": {"coordinates": [-79.031206556, 40.453877678], "type": "Point"}, "id": "rSSz0issI2wns2CfBpinMl6G_tU=", "properties": {"@source_uri": "https://tools.usps.com/UspsToolsRestServices/rest/POLocator/findLocations", "@spider": "usps_collection_boxes", "addr:city": "ARMAGH", "addr:country": "US", "addr:postcode": "15920", "addr:state": "PA", "addr:street_address": "35 E PHILADELPHIA ST", "amenity": "post_box", "collection_times": "Mo-Fr 15:45; Sa 10:45", "note": "ON 12/24 AND 12/31, THIS BOX MAY BE COLLECTED AS EARLY AS 12 NOON.", "nsi_id": "unitedstatespostalservice-a77078", "operator": "United States Postal Service", "operator:short": "USPS", "operator:type": "public", "operator:wikidata": "Q668687", "ref": "1592000000"}, "type": "Feature"}
{"geometry": {"coordinates": [-79.03120846, 40.453884806], "type": "Point"}, "id": "fGVjJRXsBNHrzD6n7w62yV4-vpQ=", "properties": {"@source_uri": "https://tools.usps.com/UspsToolsRestServices/rest/POLocator/findLocations", "@spider": "usps_collection_boxes", "addr:city": "ARMAGH", "addr:country": "US", "addr:postcode": "15920", "addr:state": "PA", "addr:street_address": "35 E PHILADELPHIA ST", "amenity": "post_box", "collection_times": "Mo-Fr 15:45; Sa 10:45", "indoor": "yes", "note": "ON 12/24 AND 12/31, THIS BOX MAY BE COLLECTED AS EARLY AS 12 NOON.", "nsi_id": "unitedstatespostalservice-a77078", "operator": "United States Postal Service", "operator:short": "USPS", "operator:type": "public", "operator:wikidata": "Q668687", "ref": "1592000001"}, "type": "Feature"}
{"geometry": {"coordinates": [-79.03120846, 40.453884806], "type": "Point"}, "id": "uxQafDxhkEwazw1lz-6xG5UQJdw=", "properties": {"@source_uri": "https://tools.usps.com/UspsToolsRestServices/rest/POLocator/findLocations", "@spider": "usps_collection_boxes", "addr:city": "ARMAGH", "addr:country": "US", "addr:postcode": "15920", "addr:state": "PA", "addr:street_address": "35 E PHILADELPHIA ST", "amenity": "post_box", "collection_times": "Mo-Fr 15:45; Sa 10:45", "indoor": "yes", "note": "ON 12/24 AND 12/31, THIS BOX MAY BE COLLECTED AS EARLY AS 12 NOON.", "nsi_id": "unitedstatespostalservice-a77078", "operator": "United States Postal Service", "operator:short": "USPS", "operator:type": "public", "operator:wikidata": "Q668687", "ref": "1592000009"}, "type": "Feature"}
{"geometry": {"coordinates": [-78.6985222651, 40.3193941021], "type": "Point"}, "id": "wXtS4t2VCvDdkBHIxC7uHdvmUU4=", "properties": {"@source_uri": "https://tools.usps.com/UspsToolsRestServices/rest/POLocator/findLocations", "@spider": "usps_collection_boxes", "addr:city": "BEAVERDALE", "addr:country": "US", "addr:postcode": "15921", "addr:state": "PA", "addr:street_address": "316 CEDAR ST", "amenity": "post_box", "collection_times": "Mo-Fr 16:30; Sa 11:30", "note": "ON 12/24 AND 12/31, THIS BOX MAY BE COLLECTED AS EARLY AS 12 NOON.", "nsi_id": "unitedstatespostalservice-a77078", "operator": "United States Postal Service", "operator:short": "USPS", "operator:type": "public", "operator:wikidata": "Q668687", "ref": "1592100000"}, "type": "Feature"}
{"geometry": {"coordinates": [-78.6985222651, 40.3193941021], "type": "Point"}, "id": "OXQ1c_6EYWT6bVGmyXknLR4Eqi8=", "properties": {"@source_uri": "https://tools.usps.com/UspsToolsRestServices/rest/POLocator/findLocations", "@spider": "usps_collection_boxes", "addr:city": "BEAVERDALE", "addr:country": "US", "addr:postcode": "15921", "addr:state": "PA", "addr:street_address": "316 CEDAR ST", "amenity": "post_box", "collection_times": "Mo-Fr 16:30; Sa 11:30", "indoor": "yes", "note": "ON 12/24 AND 12/31, THIS BOX MAY BE COLLECTED AS EARLY AS 12 NOON.", "nsi_id": "unitedstatespostalservice-a77078", "operator": "United States Postal Service", "operator:short": "USPS", "operator:type": "public", "operator:wikidata": "Q668687", "ref": "1592100001"}, "type": "Feature"}
{"geometry": {"coordinates": [-78.6985222651, 40.3193941021], "type": "Point"}, "id": "takH0aZJvH0Ds2Y1ZxwNznAvi3w=", "properties": {"@source_uri": "https://tools.usps.com/UspsToolsRestServices/rest/POLocator/findLocations", "@spider": "usps_collection_boxes", "addr:city": "BEAVERDALE", "addr:country": "US", "addr:postcode": "15921", "addr:state": "PA", "addr:street_address": "316 CEDAR ST", "amenity": "post_box", "collection_times": "Mo-Fr 16:30; Sa 11:30", "indoor": "yes", "note": "ON 12/24 AND 12/31, THIS BOX MAY BE COLLECTED AS EARLY AS 12 NOON.", "nsi_id": "unitedstatespostalservice-a77078", "operator": "United States Postal Service", "operator:short": "USPS", "operator:type": "public", "operator:wikidata": "Q668687", "ref": "1592100003"}, "type": "Feature"}
{"geometry": {"coordinates": [-78.8707431, 40.519345692], "type": "Point"}, "id": "kTxYdidI09pN6C6FjwS_E0VM5Mo=", "properties": {"@source_uri": "https://tools.usps.com/UspsToolsRestServices/rest/POLocator/findLocations", "@spider": "usps_collection_boxes", "addr:city": "BELSANO", "addr:country": "US", "addr:postcode": "15922", "addr:state": "PA", "addr:street_address": "3806 BEN FRANKLIN HWY", "amenity": "post_box", "collection_times": "Mo-Fr 11:55; Sa 11:45", "nsi_id": "unitedstatespostalservice-a77078", "operator": "United States Postal Service", "operator:short": "USPS", "operator:type": "public", "operator:wikidata": "Q668687", "ref": "1592200000"}, "type": "Feature"}
{"geometry": {"coordinates": [-78.8707431, 40.519345692], "type": "Point"}, "id": "9l_q13HhS6BQM4b3le4i6PC5-2k=", "properties": {"@source_uri": "https://tools.usps.com/UspsToolsRestServices/rest/POLocator/findLocations", "@spider": "usps_collection_boxes", "addr:city": "BELSANO", "addr:country": "US", "addr:postcode": "15922", "addr:state": "PA", "addr:street_address": "3806 BEN FRANKLIN HWY", "amenity": "post_box", "collection_times": "Mo-Fr 11:55; Sa 11:45", "indoor": "yes", "nsi_id": "unitedstatespostalservice-a77078", "operator": "United States Postal Service", "operator:short": "USPS", "operator:type": "public", "operator:wikidata": "Q668687", "ref": "1592200001"}, "type": "Feature"}
{"geometry": {"coordinates": [-78.8707431, 40.519345692], "type": "Point"}, "id": "czry51YjEFkxWfXDrlUFk7KkLH4=", "properties": {"@source_uri": "https://tools.usps.com/UspsToolsRestServices/rest/POLocator/findLocations", "@spider": "usps_collection_boxes", "addr:city": "BELSANO", "addr:country": "US", "addr:postcode": "15922", "addr:state": "PA", "addr:street_address": "3806 BEN FRANKLIN HWY", "amenity": "post_box", "collection_times": "Mo-Fr 11:55; Sa 11:45", "indoor": "yes", "nsi_id": "unitedstatespostalservice-a77078", "operator": "United States Postal Service", "operator:short": "USPS", "operator:type": "public", "operator:wikidata": "Q668687", "ref": "1592200003"}, "type": "Feature"}
{"geometry": {"coordinates": [-79.152198158, 40.395550194], "type": "Point"}, "id": "4AWC4IC2pMRTJg_BDVJcspahtLQ=", "properties": {"@source_uri": "https://tools.usps.com/UspsToolsRestServices/rest/POLocator/findLocations", "@spider": "usps_collection_boxes", "addr:city": "BOLIVAR", "addr:country": "US", "addr:postcode": "15923", "addr:state": "PA", "addr:street_address": "308 4TH ST", "amenity": "post_box", "collection_times": "Mo-Fr 11:55; Sa 11:45", "nsi_id": "unitedstatespostalservice-a77078", "operator": "United States Postal Service", "operator:short": "USPS", "operator:type": "public", "operator:wikidata": "Q668687", "ref": "1592300000"}, "type": "Feature"}
{"geometry": {"coordinates": [-79.152198158, 40.395550194], "type": "Point"}, "id": "UdGUbxSVFnKmeU3dNFLIQe2PyYw=", "properties": {"@source_uri": "https://tools.usps.com/UspsToolsRestServices/rest/POLocator/findLocations", "@spider": "usps_collection_boxes", "addr:city": "BOLIVAR", "addr:country": "US", "addr:postcode": "15923", "addr:state": "PA", "addr:street_address": "308 4TH ST", "amenity": "post_box", "collection_times": "Mo-Fr 11:55; Sa 11:45", "indoor": "yes", "nsi_id": "unitedstatespostalservice-a77078", "operator": "United States Postal Service", "operator:short": "USPS", "operator:type": "public", "operator:wikidata": "Q668687", "ref": "1592300001"}, "type": "Feature"}
{"geometry": {"coordinates": [-79.152198158, 40.395550194], "type": "Point"}, "id": "8vyDVcVgsHA_t9U-KImU7MqqfMk=", "properties": {"@source_uri": "https://tools.usps.com/UspsToolsRestServices/rest/POLocator/findLocations", "@spider": "usps_collection_boxes", "addr:city": "BOLIVAR", "addr:country": "US", "addr:postcode": "15923", "addr:state": "PA", "addr:street_address": "308 4TH ST", "amenity": "post_box", "collection_times": "Mo-Fr 11:55; Sa 11:40", "indoor": "yes", "nsi_id": "unitedstatespostalservice-a77078", "operator": "United States Postal Service", "operator:short": "USPS", "operator:type": "public", "operator:wikidata": "Q668687", "ref": "1592300003"}, "type": "Feature"}
{"geometry": {"coordinates": [-78.813983889, 40.121737018], "type": "Point"}, "id": "ON7s8O4QP0AfXQih6U18niXob_g=", "properties": {"@source_uri": "https://tools.usps.com/UspsToolsRestServices/rest/POLocator/findLocations", "@spider": "usps_collection_boxes", "addr:city": "CAIRNBROOK", "addr:country": "US", "addr:postcode": "15924", "addr:state": "PA", "addr:street_address": "1 2ND ST", "amenity": "post_box", "collection_times": "Mo-Fr 11:30; Sa 10:30", "nsi_id": "unitedstatespostalservice-a77078", "operator": "United States Postal Service", "operator:short": "USPS", "operator:type": "public", "operator:wikidata": "Q668687", "ref": "1592400000"}, "type": "Feature"}
{"geometry": {"coordinates": [-78.813983889, 40.121737018], "type": "Point"}, "id": "mIWp0hsdQrr3GQdLWvvHbOoN_V0=", "properties": {"@source_uri": "https://tools.usps.com/UspsToolsRestServices/rest/POLocator/findLocations", "@spider": "usps_collection_boxes", "addr:city": "CAIRNBROOK", "addr:country": "US", "addr:postcode": "15924", "addr:state": "PA", "addr:street_address": "1 2ND ST", "amenity": "post_box", "collection_times": "Mo-Fr 11:30; Sa 10:30", "indoor": "yes", "nsi_id": "unitedstatespostalservice-a77078", "operator": "United States Postal Service", "operator:short": "USPS", "operator:type": "public", "operator:wikidata": "Q668687", "ref": "1592400001"}, "type": "Feature"}
{"geometry": {"coordinates": [-78.8109667, 40.122386], "type": "Point"}, "id": "9oM__8sfeCF1d_iktmXFjFI1LEU=", "properties": {"@source_uri": "https://tools.usps.com/UspsToolsRestServices/rest/POLocator/findLocations", "@spider": "usps_collection_boxes", "addr:city": "CAIRNBROOK", "addr:country": "US", "addr:postcode": "15924", "addr:state": "PA", "addr:street_address": "5338 DARK SHADE DR", "amenity": "post_box", "collection_times": "Mo-Sa 14:00", "note": "ON 12/24 AND 12/31, THIS BOX MAY BE COLLECTED AS EARLY AS 12 NOON.", "nsi_id": "unitedstatespostalservice-a77078", "operator": "United States Postal Service", "operator:short": "USPS", "operator:type": "public", "operator:wikidata": "Q668687", "ref": "1592400003"}, "type": "Feature"}
{"geometry": {"coordinates": [-78.813983889, 40.121737018], "type": "Point"}, "id": "YhBNemZ2TWLDTo4yednIj2SDzYw=", "properties": {"@source_uri": "https://tools.usps.com/UspsToolsRestServices/rest/POLocator/findLocations", "@spider": "usps_collection_boxes", "addr:city": "CAIRNBROOK", "addr:country": "US", "addr:postcode": "15924", "addr:state": "PA", "addr:street_address": "1 2ND ST", "amenity": "post_box", "collection_times": "Mo-Fr 11:30; Sa 10:30", "indoor": "yes", "nsi_id": "unitedstatespostalservice-a77078", "operator": "United States Postal Service", "operator:short": "USPS", "operator:type": "public", "operator:wikidata": "Q668687", "ref": "1592400004"}, "type": "Feature"}
{"geometry": {"coordinates": [-78.640206749, 40.408349573], "type": "Point"}, "id": "o2yGdkczRSvg9p5YWTZuVtDTkRU=", "properties": {"@source_uri": "https://tools.usps.com/UspsToolsRestServices/rest/POLocator/findLocations", "@spider": "usps_collection_boxes", "addr:city": "CASSANDRA", "addr:country": "US", "addr:postcode": "15925", "addr:state": "PA", "addr:street_address": "156 MAIN ST", "amenity": "post_box", "collection_times": "Mo-Fr 09:50; Sa 12:00", "nsi_id": "unitedstatespostalservice-a77078", "operator": "United States Postal Service", "operator:short": "USPS", "operator:type": "public", "operator:wikidata": "Q668687", "ref": "1592500000"}, "type": "Feature"}
{"geometry": {"coordinates": [-78.640206749, 40.408349573], "type": "Point"}, "id": "dBEpU_ZkFToHi76DKLqirTv2MhI=", "properties": {"@source_uri": "https://tools.usps.com/UspsToolsRestServices/rest/POLocator/findLocations", "@spider": "usps_collection_boxes", "addr:city": "CASSANDRA", "addr:country": "US", "addr:postcode": "15925", "addr:state": "PA", "addr:street_address": "156 MAIN ST", "amenity": "post_box", "collection_times": "Mo-Fr 09:50; Sa 12:00", "indoor": "yes", "nsi_id": "unitedstatespostalservice-a77078", "operator": "United States Postal Service", "operator:short": "USPS", "operator:type": "public", "operator:wikidata": "Q668687", "ref": "1592500001"}, "type": "Feature"}
{"geometry": {"coordinates": [-78.640206749, 40.408349573], "type": "Point"}, "id": "YaRP-Zd7_2NGwnhcnDdc_WlKH60=", "properties": {"@source_uri": "https://tools.usps.com/UspsToolsRestServices/rest/POLocator/findLocations", "@spider": "usps_collection_boxes", "addr:city": "CASSANDRA", "addr:country": "US", "addr:postcode": "15925", "addr:state": "PA", "addr:street_address": "156 MAIN ST", "amenity": "post_box", "collection_times": "Mo-Fr 09:50; Sa 11:50", "indoor": "yes", "nsi_id": "unitedstatespostalservice-a77078", "operator": "United States Postal Service", "operator:short": "USPS", "operator:type": "public", "operator:wikidata": "Q668687", "ref": "1592500003"}, "type": "Feature"}
{"geometry": {"coordinates": [-78.807392488, 40.107175953], "type": "Point"}, "id": "ly87ryd4_O53QfLoZMK8luGYCxY=", "properties": {"@source_uri": "https://tools.usps.com/UspsToolsRestServices/rest/POLocator/findLocations", "@spider": "usps_collection_boxes", "addr:city": "CENTRAL CITY", "addr:country": "US", "addr:postcode": "15926", "addr:state": "PA", "addr:street_address": "1 SUNSHINE AVE", "amenity": "post_box", "collection_times": "Mo-Fr 16:30; Sa 12:30", "note": "ON 12/24 AND 12/31, THIS BOX MAY BE COLLECTED AS EARLY AS 12 NOON.", "nsi_id": "unitedstatespostalservice-a77078", "operator": "United States Postal Service", "operator:short": "USPS", "operator:type": "public", "operator:wikidata": "Q668687", "ref": "1592600006"}, "type": "Feature"}
{"geometry": {"coordinates": [-78.807392488, 40.107175953], "type": "Point"}, "id": "mBBAwv_UeV4185YMwCjXIJKRqUY=", "properties": {"@source_uri": "https://tools.usps.com/UspsToolsRestServices/rest/POLocator/findLocations", "@spider": "usps_collection_boxes", "addr:city": "CENTRAL CITY", "addr:country": "US", "addr:postcode": "15926", "addr:state": "PA", "addr:street_address": "1 SUNSHINE AVE", "amenity": "post_box", "collection_times": "Mo-Fr 16:30; Sa 12:30", "indoor": "yes", "note": "ON 12/24 AND 12/31, THIS BOX MAY BE COLLECTED AS EARLY AS 12 NOON.", "nsi_id": "unitedstatespostalservice-a77078", "operator": "United States Postal Service", "operator:short": "USPS", "operator:type": "public", "operator:wikidata": "Q668687", "ref": "1592600007"}, "type": "Feature"}
{"geometry": {"coordinates": [-78.807392488, 40.107175953], "type": "Point"}, "id": "33q-YUWacmV_bhXvTWAfI553jik=", "properties": {"@source_uri": "https://tools.usps.com/UspsToolsRestServices/rest/POLocator/findLocations", "@spider": "usps_collection_boxes", "addr:city": "CENTRAL CITY", "addr:country": "US", "addr:postcode": "15926", "addr:state": "PA", "addr:street_address": "1 SUNSHINE AVE", "amenity": "post_box", "collection_times": "Mo-Fr 16:30; Sa 12:30", "indoor": "yes", "note": "ON 12/24 AND 12/31, THIS BOX MAY BE COLLECTED AS EARLY AS 12 NOON.", "nsi_id": "unitedstatespostalservice-a77078", "operator": "United States Postal Service", "operator:short": "USPS", "operator:type": "public", "operator:wikidata": "Q668687", "ref": "1592600009"}, "type": "Feature"}
{"geometry": {"coordinates": [-78.790045442, 40.542330183], "type": "Point"}, "id": "Zzo3kzBOTilBzXHOWQInHBTQIsA=", "properties": {"@source_uri": "https://tools.usps.com/UspsToolsRestServices/rest/POLocator/findLocations", "@spider": "usps_collection_boxes", "addr:city": "COLVER", "addr:country": "US", "addr:postcode": "15927", "addr:state": "PA", "addr:street_address": "43 REESE AVE", "amenity": "post_box", "collection_times": "Mo-Fr 15:45; Sa 11:45", "note": "ON 12/24 AND 12/31, THIS BOX MAY BE COLLECTED AS EARLY AS 12 NOON.", "nsi_id": "unitedstatespostalservice-a77078", "operator": "United States Postal Service", "operator:short": "USPS", "operator:type": "public", "operator:wikidata": "Q668687", "ref": "1592700000"}, "type": "Feature"}
{"geometry": {"coordinates": [-78.790045442, 40.542330183], "type": "Point"}, "id": "2MAO7-5wh33GJJ-Ga0-tt3NUNXU=", "properties": {"@source_uri": "https://tools.usps.com/UspsToolsRestServices/rest/POLocator/findLocations", "@spider": "usps_collection_boxes", "addr:city": "COLVER", "addr:country": "US", "addr:postcode": "15927", "addr:state": "PA", "addr:street_address": "43 REESE AVE", "amenity": "post_box", "collection_times": "Mo-Fr 16:00; Sa 11:45", "indoor": "yes", "note": "ON 12/24 AND 12/31, THIS BOX MAY BE COLLECTED AS EARLY AS 12 NOON.", "nsi_id": "unitedstatespostalservice-a77078", "operator": "United States Postal Service", "operator:short": "USPS", "operator:type": "public", "operator:wikidata": "Q668687", "ref": "1592700001"}, "type": "Feature"}
{"geometry": {"coordinates": [-78.790045442, 40.542330183], "type": "Point"}, "id": "Nk3wX_MxOU-G6r2sjlLzvZoODiU=", "properties": {"@source_uri": "https://tools.usps.com/UspsToolsRestServices/rest/POLocator/findLocations", "@spider": "usps_collection_boxes", "addr:city": "COLVER", "addr:country": "US", "addr:postcode": "15927", "addr:state": "PA", "addr:street_address": "43 REESE AVE", "amenity": "post_box", "collection_times": "Mo-Fr 16:15; Sa 11:45", "indoor": "yes", "note": "ON 12/24 AND 12/31, THIS BOX MAY BE COLLECTED AS EARLY AS 12 NOON.", "nsi_id": "unitedstatespostalservice-a77078", "operator": "United States Postal Service", "operator:short": "USPS", "operator:type": "public", "operator:wikidata": "Q668687", "ref": "1592700003"}, "type": "Feature"}
{"geometry": {"coordinates": [-78.93710523, 40.226441708], "type": "Point"}, "id": "n3uzgO0rK1nQ1WtpR5T3kLjslAE=", "properties": {"@source_uri": "https://tools.usps.com/UspsToolsRestServices/rest/POLocator/findLocations", "@spider": "usps_collection_boxes", "addr:city": "DAVIDSVILLE", "addr:country": "US", "addr:postcode": "15928", "addr:state": "PA", "addr:street_address": "113 S MAIN ST", "amenity": "post_box", "collection_times": "Mo-Fr 16:30; Sa 11:30", "note": "ON 12/24 AND 12/31, THIS BOX MAY BE COLLECTED AS EARLY AS 12 NOON.", "nsi_id": "unitedstatespostalservice-a77078", "operator": "United States Postal Service", "operator:short": "USPS", "operator:type": "public", "operator:wikidata": "Q668687", "ref": "1592800000"}, "type": "Feature"}
{"geometry": {"coordinates": [-78.93710523, 40.226441708], "type": "Point"}, "id": "p2sB6XAvVqVldsR3coKDLQYeUug=", "properties": {"@source_uri": "https://tools.usps.com/UspsToolsRestServices/rest/POLocator/findLocations", "@spider": "usps_collection_boxes", "addr:city": "DAVIDSVILLE", "addr:country": "US", "addr:postcode": "15928", "addr:state": "PA", "addr:street_address": "113 S MAIN ST", "amenity": "post_box", "collection_times": "Mo-Fr 16:45; Sa 11:45", "indoor": "yes", "note": "ON 12/24 AND 12/31, THIS BOX MAY BE COLLECTED AS EARLY AS 12 NOON.", "nsi_id": "unitedstatespostalservice-a77078", "operator": "United States Postal Service", "operator:short": "USPS", "operator:type": "public", "operator:wikidata": "Q668687", "ref": "1592800001"}, "type": "Feature"}
{"geometry": {"coordinates": [-78.93710523, 40.226441708], "type": "Point"}, "id": "A_gqm3dtNhRDeaoCPCtzPByjq88=", "properties": {"@source_uri": "https://tools.usps.com/UspsToolsRestServices/rest/POLocator/findLocations", "@spider": "usps_collection_boxes", "addr:city": "DAVIDSVILLE", "addr:country": "US", "addr:postcode": "15928", "addr:state": "PA", "addr:street_address": "113 S MAIN ST", "amenity": "post_box", "collection_times": "Mo-Fr 16:30; Sa 11:30", "indoor": "yes", "note": "ON 12/24 AND 12/31, THIS BOX MAY BE COLLECTED AS EARLY AS 12 NOON.", "nsi_id": "unitedstatespostalservice-a77078", "operator": "United States Postal Service", "operator:short": "USPS", "operator:type": "public", "operator:wikidata": "Q668687", "ref": "1592800003"}, "type": "Feature"}
{"geometry": {"coordinates": [-79.000888227, 40.467688468], "type": "Point"}, "id": "oznG9xZ-lGavOJjXMqNCfnintm0=", "properties": {"@source_uri": "https://tools.usps.com/UspsToolsRestServices/rest/POLocator/findLocations", "@spider": "usps_collection_boxes", "addr:city": "DILLTOWN", "addr:country": "US", "addr:postcode": "15929", "addr:state": "PA", "addr:street_address": "7491 ROUTE 403 HWY S", "amenity": "post_box", "collection_times": "Mo-Fr 10:50; Sa 11:45", "nsi_id": "unitedstatespostalservice-a77078", "operator": "United States Postal Service", "operator:short": "USPS", "operator:type": "public", "operator:wikidata": "Q668687", "ref": "1592900000"}, "type": "Feature"}
{"geometry": {"coordinates": [-79.000888227, 40.467688468], "type": "Point"}, "id": "FOeXluwqdfOhuskvpbfiI8M0tmg=", "properties": {"@source_uri": "https://tools.usps.com/UspsToolsRestServices/rest/POLocator/findLocations", "@spider": "usps_collection_boxes", "addr:city": "DILLTOWN", "addr:country": "US", "addr:postcode": "15929", "addr:state": "PA", "addr:street_address": "7491 ROUTE 403 HWY S", "amenity": "post_box", "collection_times": "Mo-Fr 10:50; Sa 11:45", "indoor": "yes", "nsi_id": "unitedstatespostalservice-a77078", "operator": "United States Postal Service", "operator:short": "USPS", "operator:type": "public", "operator:wikidata": "Q668687", "ref": "1592900001"}, "type": "Feature"}
{"geometry": {"coordinates": [-79.000888227, 40.467688468], "type": "Point"}, "id": "tLz3GuWCl8S7XD4wN0UI7ZT03OI=", "properties": {"@source_uri": "https://tools.usps.com/UspsToolsRestServices/rest/POLocator/findLocations", "@spider": "usps_collection_boxes", "addr:city": "DILLTOWN", "addr:country": "US", "addr:postcode": "15929", "addr:state": "PA", "addr:street_address": "7491 ROUTE 403 HWY S", "amenity": "post_box", "collection_times": "Mo-Fr 10:50; Sa 11:35", "indoor": "yes", "nsi_id": "unitedstatespostalservice-a77078", "operator": "United States Postal Service", "operator:short": "USPS", "operator:type": "public", "operator:wikidata": "Q668687", "ref": "1592900003"}, "type": "Feature"}
{"geometry": {"coordinates": [-78.72137574, 40.293577395], "type": "Point"}, "id": "MwafeVYepV_VCd9dWE2ebE038J4=", "properties": {"@source_uri": "https://tools.usps.com/UspsToolsRestServices/rest/POLocator/findLocations", "@spider": "usps_collection_boxes", "addr:city": "DUNLO", "addr:country": "US", "addr:postcode": "15930", "addr:state": "PA", "addr:street_address": "207 HUFF ST", "amenity": "post_box", "collection_times": "Mo-Fr 11:55; Sa 11:30", "nsi_id": "unitedstatespostalservice-a77078", "operator": "United States Postal Service", "operator:short": "USPS", "operator:type": "public", "operator:wikidata": "Q668687", "ref": "1593000000"}, "type": "Feature"}
{"geometry": {"coordinates": [-78.72137574, 40.293577395], "type": "Point"}, "id": "waJqD8q61I636DXd3iZQhAT91LE=", "properties": {"@source_uri": "https://tools.usps.com/UspsToolsRestServices/rest/POLocator/findLocations", "@spider": "usps_collection_boxes", "addr:city": "DUNLO", "addr:country": "US", "addr:postcode": "15930", "addr:state": "PA", "addr:street_address": "207 HUFF ST", "amenity": "post_box", "collection_times": "Mo-Fr 11:55; Sa 11:30", "indoor": "yes", "nsi_id": "unitedstatespostalservice-a77078", "operator": "United States Postal Service", "operator:short": "USPS", "operator:type": "public", "operator:wikidata": "Q668687", "ref": "1593000001"}, "type": "Feature"}
{"geometry": {"coordinates": [-78.72137574, 40.293577395], "type": "Point"}, "id": "SOS2nM6ngM4Sl42wQjzhcYdOhpI=", "properties": {"@source_uri": "https://tools.usps.com/UspsToolsRestServices/rest/POLocator/findLocations", "@spider": "usps_collection_boxes", "addr:city": "DUNLO", "addr:country": "US", "addr:postcode": "15930", "addr:state": "PA", "addr:street_address": "207 HUFF ST", "amenity": "post_box", "collection_times": "Mo-Sa 11:55", "indoor": "yes", "nsi_id": "unitedstatespostalservice-a77078", "operator": "United States Postal Service", "operator:short": "USPS", "operator:type": "public", "operator:wikidata": "Q668687", "ref": "1593000003"}, "type": "Feature"}
{"geometry": {"coordinates": [-78.7280919, 40.48969], "type": "Point"}, "id": "AYamnhT4W_lhQJedXr4yAq7ljSk=", "properties": {"@source_uri": "https://tools.usps.com/UspsToolsRestServices/rest/POLocator/findLocations", "@spider": "usps_collection_boxes", "addr:city": "EBENSBURG", "addr:country": "US", "addr:postcode": "15931", "addr:state": "PA", "addr:street_address": "320 W HIGHLAND AVE", "amenity": "post_box", "collection_times": "Mo-Sa 14:30", "note": "ON 12/24 AND 12/31, THIS BOX MAY BE COLLECTED AS EARLY AS 12 NOON.", "nsi_id": "unitedstatespostalservice-a77078", "operator": "United States Postal Service", "operator:short": "USPS", "operator:type": "public", "operator:wikidata": "Q668687", "ref": "1593100007"}, "type": "Feature"}
{"geometry": {"coordinates": [-78.7243479, 40.484212], "type": "Point"}, "id": "Jr_8pAtfJpHkxRiw2Ue2QdVv9us=", "properties": {"@source_uri": "https://tools.usps.com/UspsToolsRestServices/rest/POLocator/findLocations", "@spider": "usps_collection_boxes", "addr:city": "EBENSBURG", "addr:country": "US", "addr:postcode": "15931", "addr:state": "PA", "addr:street_address": "100 E LLOYD ST", "amenity": "post_box", "collection_times": "Mo-Sa 14:30", "note": "ON 12/24 AND 12/31, THIS BOX MAY BE COLLECTED AS EARLY AS 12 NOON.", "nsi_id": "unitedstatespostalservice-a77078", "operator": "United States Postal Service", "operator:short": "USPS", "operator:type": "public", "operator:wikidata": "Q668687", "ref": "1593100018"}, "type": "Feature"}
{"geometry": {"coordinates": [-78.7271199, 40.48508], "type": "Point"}, "id": "UM9OQmwnXhCbp57hwkhtTp95Hcs=", "properties": {"@source_uri": "https://tools.usps.com/UspsToolsRestServices/rest/POLocator/findLocations", "@spider": "usps_collection_boxes", "addr:city": "EBENSBURG", "addr:country": "US", "addr:postcode": "15931", "addr:state": "PA", "addr:street_address": "300 W HIGH ST", "amenity": "post_box", "collection_times": "Mo-Sa 14:30", "note": "ON 12/24 AND 12/31, THIS BOX MAY BE COLLECTED AS EARLY AS 12 NOON.", "nsi_id": "unitedstatespostalservice-a77078", "operator": "United States Postal Service", "operator:short": "USPS", "operator:type": "public", "operator:wikidata": "Q668687", "ref": "1593100019"}, "type": "Feature"}
{"geometry": {"coordinates": [-78.7250489, 40.485095], "type": "Point"}, "id": "SxpnEM_IKuP3bn005nW_OvGbiVg=", "properties": {"@source_uri": "https://tools.usps.com/UspsToolsRestServices/rest/POLocator/findLocations", "@spider": "usps_collection_boxes", "addr:city": "EBENSBURG", "addr:country": "US", "addr:postcode": "15931", "addr:state": "PA", "addr:street_address": "100 W HIGH ST", "amenity": "post_box", "collection_times": "Mo-Sa 14:30", "note": "ON 12/24 AND 12/31, THIS BOX MAY BE COLLECTED AS EARLY AS 12 NOON.", "nsi_id": "unitedstatespostalservice-a77078", "operator": "United States Postal Service", "operator:short": "USPS", "operator:type": "public", "operator:wikidata": "Q668687", "ref": "1593100020"}, "type": "Feature"}
{"geometry": {"coordinates": [-78.7594037, 40.469422], "type": "Point"}, "id": "K0-SPdnO5HSCYi3KAuXqOnx2bWw=", "properties": {"@source_uri": "https://tools.usps.com/UspsToolsRestServices/rest/POLocator/findLocations", "@spider": "usps_collection_boxes", "addr:city": "EBENSBURG", "addr:country": "US", "addr:postcode": "15931", "addr:state": "PA", "addr:street_address": "881 HILLS PLZ", "amenity": "post_box", "collection_times": "Mo-Sa 09:30", "nsi_id": "unitedstatespostalservice-a77078", "operator": "United States Postal Service", "operator:short": "USPS", "operator:type": "public", "operator:wikidata": "Q668687", "ref": "1593100022"}, "type": "Feature"}
{"geometry": {"coordinates": [-78.725077, 40.486064], "type": "Point"}, "id": "BEk4VVgC6-ogyXXnRPnt-gcmFzs=", "properties": {"@source_uri": "https://tools.usps.com/UspsToolsRestServices/rest/POLocator/findLocations", "@spider": "usps_collection_boxes", "addr:city": "EBENSBURG", "addr:country": "US", "addr:postcode": "15931", "addr:state": "PA", "addr:street_address": "100 W SAMPLE ST", "amenity": "post_box", "collection_times": "Mo-Fr 16:30; Sa 15:30", "note": "ON 12/24 AND 12/31, THIS BOX MAY BE COLLECTED AS EARLY AS 12 NOON.", "nsi_id": "unitedstatespostalservice-a77078", "operator": "United States Postal Service", "operator:short": "USPS", "operator:type": "public", "operator:wikidata": "Q668687", "ref": "1593100025"}, "type": "Feature"}
{"geometry": {"coordinates": [-78.725008638, 40.485832805], "type": "Point"}, "id": "FMB8TDDNaKEzcSoIrXaReay4ZZI=", "properties": {"@source_uri": "https://tools.usps.com/UspsToolsRestServices/rest/POLocator/findLocations", "@spider": "usps_collection_boxes", "addr:city": "EBENSBURG", "addr:country": "US", "addr:postcode": "15931", "addr:state": "PA", "addr:street_address": "121 N CENTER ST", "amenity": "post_box", "collection_times": "Mo-Fr 16:30; Sa 15:30", "note": "ON 12/24 AND 12/31, THIS BOX MAY BE COLLECTED AS EARLY AS 12 NOON.", "nsi_id": "unitedstatespostalservice-a77078", "operator": "United States Postal Service", "operator:short": "USPS", "operator:type": "public", "operator:wikidata": "Q668687", "ref": "1593100026"}, "type": "Feature"}
{"geometry": {"coordinates": [-78.7511449, 40.46212], "type": "Point"}, "id": "7L1-RAuvv4tQYAjPKz92F55K7ko=", "properties": {"@source_uri": "https://tools.usps.com/UspsToolsRestServices/rest/POLocator/findLocations", "@spider": "usps_collection_boxes", "addr:city": "EBENSBURG", "addr:country": "US", "addr:postcode": "15931", "addr:state": "PA", "addr:street_address": "3133 NEW GERMANY RD", "amenity": "post_box", "collection_times": "Mo-Sa 09:30", "nsi_id": "unitedstatespostalservice-a77078", "operator": "United States Postal Service", "operator:short": "USPS", "operator:type": "public", "operator:wikidata": "Q668687", "ref": "1593100028"}, "type": "Feature"}
{"geometry": {"coordinates": [-78.7550299, 40.462864], "type": "Point"}, "id": "CwXKB4Mb0tuzgNy04CZLJAIY_vo=", "properties": {"@source_uri": "https://tools.usps.com/UspsToolsRestServices/rest/POLocator/findLocations", "@spider": "usps_collection_boxes", "addr:city": "EBENSBURG", "addr:country": "US", "addr:postcode": "15931", "addr:state": "PA", "addr:street_address": "325 INDUSTRIAL PARK RD", "amenity": "post_box", "collection_times": "Mo-Sa 10:00", "nsi_id": "unitedstatespostalservice-a77078", "operator": "United States Postal Service", "operator:short": "USPS", "operator:type": "public", "operator:wikidata": "Q668687", "ref": "1593100029"}, "type": "Feature"}
{"geometry": {"coordinates": [-78.725008638, 40.485832805], "type": "Point"}, "id": "98i3I7-Yq_10mmsF2Wdw6f9zrMk=", "properties": {"@source_uri": "https://tools.usps.com/UspsToolsRestServices/rest/POLocator/findLocations", "@spider": "usps_collection_boxes", "addr:city": "EBENSBURG", "addr:country": "US", "addr:postcode": "15931", "addr:state": "PA", "addr:street_address": "121 N CENTER ST", "amenity": "post_box", "collection_times": "Mo-Fr 16:30; Sa 15:30", "indoor": "yes", "note": "ON 12/24 AND 12/31, THIS BOX MAY BE COLLECTED AS EARLY AS 12 NOON.", "nsi_id": "unitedstatespostalservice-a77078", "operator": "United States Postal Service", "operator:short": "USPS", "operator:type": "public", "operator:wikidata": "Q668687", "ref": "1593100033"}, "type": "Feature"}
{"geometry": {"coordinates": [-78.7510133, 40.46433], "type": "Point"}, "id": "iJ7E2kCGC-2Fxbjng7_wgJmATjU=", "properties": {"@source_uri": "https://tools.usps.com/UspsToolsRestServices/rest/POLocator/findLocations", "@spider": "usps_collection_boxes", "addr:city": "EBENSBURG", "addr:country": "US", "addr:postcode": "15931", "addr:state": "PA", "addr:street_address": "3135 NEW GERMANY RD", "amenity": "post_box", "collection_times": "Mo-Sa 09:30", "nsi_id": "unitedstatespostalservice-a77078", "operator": "United States Postal Service", "operator:short": "USPS", "operator:type": "public", "operator:wikidata": "Q668687", "ref": "1593100034"}, "type": "Feature"}
{"geometry": {"coordinates": [-78.7496119, 40.475095], "type": "Point"}, "id": "thDabMQZs_gyMsOWVNwTQNthxf0=", "properties": {"@source_uri": "https://tools.usps.com/UspsToolsRestServices/rest/POLocator/findLocations", "@spider": "usps_collection_boxes", "addr:city": "EBENSBURG", "addr:country": "US", "addr:postcode": "15931", "addr:state": "PA", "addr:street_address": "300 WALMART DR", "amenity": "post_box", "collection_times": "Mo-Sa 10:00", "nsi_id": "unitedstatespostalservice-a77078", "operator": "United States Postal Service", "operator:short": "USPS", "operator:type": "public", "operator:wikidata": "Q668687", "ref": "1593100035"}, "type": "Feature"}
{"geometry": {"coordinates": [-78.725008638, 40.485832805], "type": "Point"}, "id": "snFp_kwiLUkcVIqJguAKqo-7mPo=", "properties": {"@source_uri": "https://tools.usps.com/UspsToolsRestServices/rest/POLocator/findLocations", "@spider": "usps_collection_boxes", "addr:city": "EBENSBURG", "addr:country": "US", "addr:postcode": "15931", "addr:state": "PA", "addr:street_address": "121 N CENTER ST", "amenity": "post_box", "collection_times": "Mo-Fr 16:30; Sa 12:00", "indoor": "yes", "note": "ON 12/24 AND 12/31, THIS BOX MAY BE COLLECTED AS EARLY AS 12 NOON.", "nsi_id": "unitedstatespostalservice-a77078", "operator": "United States Postal Service", "operator:short": "USPS", "operator:type": "public", "operator:wikidata": "Q668687", "ref": "1593100037"}, "type": "Feature"}
{"geometry": {"coordinates": [-78.804048018, 40.279282974], "type": "Point"}, "id": "qa6QijMHA-qam5FUV384xXrV98g=", "properties": {"@source_uri": "https://tools.usps.com/UspsToolsRestServices/rest/POLocator/findLocations", "@spider": "usps_collection_boxes", "addr:city": "ELTON", "addr:country": "US", "addr:postcode": "15934", "addr:state": "PA", "addr:street_address": "4690 ELTON RD", "amenity": "post_box", "collection_times": "Mo-Fr 16:30; Sa 11:00", "note": "ON 12/24 AND 12/31, THIS BOX MAY BE COLLECTED AS EARLY AS 12 NOON.", "nsi_id": "unitedstatespostalservice-a77078", "operator": "United States Postal Service", "operator:short": "USPS", "operator:type": "public", "operator:wikidata": "Q668687", "ref": "1593400000"}, "type": "Feature"}
{"geometry": {"coordinates": [-78.804048018, 40.279282974], "type": "Point"}, "id": "QuvSX_mkmqWsILFxwvDyZ_Lt8uM=", "properties": {"@source_uri": "https://tools.usps.com/UspsToolsRestServices/rest/POLocator/findLocations", "@spider": "usps_collection_boxes", "addr:city": "ELTON", "addr:country": "US", "addr:postcode": "15934", "addr:state": "PA", "addr:street_address": "4690 ELTON RD", "amenity": "post_box", "collection_times": "Mo-Fr 16:30; Sa 11:00", "indoor": "yes", "note": "ON 12/24 AND 12/31, THIS BOX MAY BE COLLECTED AS EARLY AS 12 NOON.", "nsi_id": "unitedstatespostalservice-a77078", "operator": "United States Postal Service", "operator:short": "USPS", "operator:type": "public", "operator:wikidata": "Q668687", "ref": "1593400001"}, "type": "Feature"}
{"geometry": {"coordinates": [-78.804048018, 40.279282974], "type": "Point"}, "id": "LvNlEYa4EQQyl2GvVyWqUldptK8=", "properties": {"@source_uri": "https://tools.usps.com/UspsToolsRestServices/rest/POLocator/findLocations", "@spider": "usps_collection_boxes", "addr:city": "ELTON", "addr:country": "US", "addr:postcode": "15934", "addr:state": "PA", "addr:street_address": "4690 ELTON RD", "amenity": "post_box", "collection_times": "Mo-Fr 16:30; Sa 11:00", "indoor": "yes", "note": "ON 12/24 AND 12/31, THIS BOX MAY BE COLLECTED AS EARLY AS 12 NOON.", "nsi_id": "unitedstatespostalservice-a77078", "operator": "United States Postal Service", "operator:short": "USPS", "operator:type": "public", "operator:wikidata": "Q668687", "ref": "1593400003"}, "type": "Feature"}
{"geometry": {"coordinates": [-78.927052833, 40.208046466], "type": "Point"}, "id": "egwPR7dFdsARVJsvsWRkOT1PaTI=", "properties": {"@source_uri": "https://tools.usps.com/UspsToolsRestServices/rest/POLocator/findLocations", "@spider": "usps_collection_boxes", "addr:city": "HOLLSOPPLE", "addr:country": "US", "addr:postcode": "15935", "addr:state": "PA", "addr:street_address": "121 MAIN ST", "amenity": "post_box", "collection_times": "Mo-Fr 16:15; Sa 11:45", "note": "ON 12/24 AND 12/31, THIS BOX MAY BE COLLECTED AS EARLY AS 12 NOON.", "nsi_id": "unitedstatespostalservice-a77078", "operator": "United States Postal Service", "operator:short": "USPS", "operator:type": "public", "operator:wikidata": "Q668687", "ref": "1593500000"}, "type": "Feature"}
{"geometry": {"coordinates": [-78.927052833, 40.208046466], "type": "Point"}, "id": "Y2g6iL1Ab3oZfxv7dD0qrOl83_s=", "properties": {"@source_uri": "https://tools.usps.com/UspsToolsRestServices/rest/POLocator/findLocations", "@spider": "usps_collection_boxes", "addr:city": "HOLLSOPPLE", "addr:country": "US", "addr:postcode": "15935", "addr:state": "PA", "addr:street_address": "121 MAIN ST", "amenity": "post_box", "collection_times": "Mo-Fr 16:15; Sa 11:45", "indoor": "yes", "note": "ON 12/24 AND 12/31, THIS BOX MAY BE COLLECTED AS EARLY AS 12 NOON.", "nsi_id": "unitedstatespostalservice-a77078", "operator": "United States Postal Service", "operator:short": "USPS", "operator:type": "public", "operator:wikidata": "Q668687", "ref": "1593500001"}, "type": "Feature"}
{"geometry": {"coordinates": [-78.927052833, 40.208046466], "type": "Point"}, "id": "OMFFYo-YAD947Jhrc_3N87COgqo=", "properties": {"@source_uri": "https://tools.usps.com/UspsToolsRestServices/rest/POLocator/findLocations", "@spider": "usps_collection_boxes", "addr:city": "HOLLSOPPLE", "addr:country": "US", "addr:postcode": "15935", "addr:state": "PA", "addr:street_address": "121 MAIN ST", "amenity": "post_box", "collection_times": "Mo-Fr 16:00; Sa 12:00", "indoor": "yes", "note": "ON 12/24 AND 12/31, THIS BOX MAY BE COLLECTED AS EARLY AS 12 NOON.", "nsi_id": "unitedstatespostalservice-a77078", "operator": "United States Postal Service", "operator:short": "USPS", "operator:type": "public", "operator:wikidata": "Q668687", "ref": "1593500003"}, "type": "Feature"}
{"geometry": {"coordinates": [-78.913209031, 40.145298579], "type": "Point"}, "id": "ZHnVcR6fNMWSwssm0NYBld7JhSE=", "properties": {"@source_uri": "https://tools.usps.com/UspsToolsRestServices/rest/POLocator/findLocations", "@spider": "usps_collection_boxes", "addr:city": "HOOVERSVILLE", "addr:country": "US", "addr:postcode": "15936", "addr:state": "PA", "addr:street_address": "964 BARN ST", "amenity": "post_box", "collection_times": "Mo-Fr 15:15; Sa 11:00", "indoor": "yes", "note": "ON 12/24 AND 12/31, THIS BOX MAY BE COLLECTED AS EARLY AS 12 NOON.", "nsi_id": "unitedstatespostalservice-a77078", "operator": "United States Postal Service", "operator:short": "USPS", "operator:type": "public", "operator:wikidata": "Q668687", "ref": "1593600002"}, "type": "Feature"}
{"geometry": {"coordinates": [-78.9131344802, 40.1453985534], "type": "Point"}, "id": "wxv-mG2UBgzsIJJ9WDFq3Wjr84w=", "properties": {"@source_uri": "https://tools.usps.com/UspsToolsRestServices/rest/POLocator/findLocations", "@spider": "usps_collection_boxes", "addr:city": "HOOVERSVILLE", "addr:country": "US", "addr:postcode": "15936", "addr:state": "PA", "addr:street_address": "964 BARN ST", "amenity": "post_box", "collection_times": "Mo-Fr 15:15; Sa 11:00", "note": "ON 12/24 AND 12/31, THIS BOX MAY BE COLLECTED AS EARLY AS 12 NOON.", "nsi_id": "unitedstatespostalservice-a77078", "operator": "United States Postal Service", "operator:short": "USPS", "operator:type": "public", "operator:wikidata": "Q668687", "ref": "1593600004"}, "type": "Feature"}
{"geometry": {"coordinates": [-78.913209031, 40.145298579], "type": "Point"}, "id": "h-JOkfVle0BNsD4eO5KY0pqJ-uw=", "properties": {"@source_uri": "https://tools.usps.com/UspsToolsRestServices/rest/POLocator/findLocations", "@spider": "usps_collection_boxes", "addr:city": "HOOVERSVILLE", "addr:country": "US", "addr:postcode": "15936", "addr:state": "PA", "addr:street_address": "964 BARN ST", "amenity": "post_box", "collection_times": "Mo-Fr 15:15; Sa 11:00", "indoor": "yes", "note": "ON 12/24 AND 12/31, THIS BOX MAY BE COLLECTED AS EARLY AS 12 NOON.", "nsi_id": "unitedstatespostalservice-a77078", "operator": "United States Postal Service", "operator:short": "USPS", "operator:type": "public", "operator:wikidata": "Q668687", "ref": "1593600005"}, "type": "Feature"}
{"geometry": {"coordinates": [-78.990467051, 40.208306754], "type": "Point"}, "id": "DA2ovL7VT9slTK4bEy2IjOs3yus=", "properties": {"@source_uri": "https://tools.usps.com/UspsToolsRestServices/rest/POLocator/findLocations", "@spider": "usps_collection_boxes", "addr:city": "JEROME", "addr:country": "US", "addr:postcode": "15937", "addr:state": "PA", "addr:street_address": "1901 PENN AVE", "amenity": "post_box", "collection_times": "Mo-Fr 16:30; Sa 11:30", "note": "ON 12/24 AND 12/31, THIS BOX MAY BE COLLECTED AS EARLY AS 12 NOON.", "nsi_id": "unitedstatespostalservice-a77078", "operator": "United States Postal Service", "operator:short": "USPS", "operator:type": "public", "operator:wikidata": "Q668687", "ref": "1593700000"}, "type": "Feature"}
{"geometry": {"coordinates": [-78.990467051, 40.208306754], "type": "Point"}, "id": "tGwctszD3qXDRhQc9MFDIsgV2NQ=", "properties": {"@source_uri": "https://tools.usps.com/UspsToolsRestServices/rest/POLocator/findLocations", "@spider": "usps_collection_boxes", "addr:city": "JEROME", "addr:country": "US", "addr:postcode": "15937", "addr:state": "PA", "addr:street_address": "1901 PENN AVE", "amenity": "post_box", "collection_times": "Mo-Fr 16:30; Sa 11:30", "indoor": "yes", "note": "ON 12/24 AND 12/31, THIS BOX MAY BE COLLECTED AS EARLY AS 12 NOON.", "nsi_id": "unitedstatespostalservice-a77078", "operator": "United States Postal Service", "operator:short": "USPS", "operator:type": "public", "operator:wikidata": "Q668687", "ref": "1593700001"}, "type": "Feature"}
{"geometry": {"coordinates": [-78.990467051, 40.208306754], "type": "Point"}, "id": "AuNYYna8qNHtlYRX6_UDjii4NL4=", "properties": {"@source_uri": "https://tools.usps.com/UspsToolsRestServices/rest/POLocator/findLocations", "@spider": "usps_collection_boxes", "addr:city": "JEROME", "addr:country": "US", "addr:postcode": "15937", "addr:state": "PA", "addr:street_address": "1901 PENN AVE", "amenity": "post_box", "collection_times": "Mo-Fr 16:30; Sa 11:30", "indoor": "yes", "note": "ON 12/24 AND 12/31, THIS BOX MAY BE COLLECTED AS EARLY AS 12 NOON.", "nsi_id": "unitedstatespostalservice-a77078", "operator": "United States Postal Service", "operator:short": "USPS", "operator:type": "public", "operator:wikidata": "Q668687", "ref": "1593700003"}, "type": "Feature"}
{"geometry": {"coordinates": [-78.620034397, 40.425386125], "type": "Point"}, "id": "iXmkQeY99M2S7EhJ3tOWWwJdfvQ=", "properties": {"@source_uri": "https://tools.usps.com/UspsToolsRestServices/rest/POLocator/findLocations", "@spider": "usps_collection_boxes", "addr:city": "LILLY", "addr:country": "US", "addr:postcode": "15938", "addr:state": "PA", "addr:street_address": "513 CLEVELAND ST", "amenity": "post_box", "collection_times": "Mo-Fr 16:15; Sa 12:30", "note": "ON 12/24 AND 12/31, THIS BOX MAY BE COLLECTED AS EARLY AS 12 NOON.", "nsi_id": "unitedstatespostalservice-a77078", "operator": "United States Postal Service", "operator:short": "USPS", "operator:type": "public", "operator:wikidata": "Q668687", "ref": "1593800000"}, "type": "Feature"}
{"geometry": {"coordinates": [-78.6202261, 40.425289], "type": "Point"}, "id": "1zeLBa3PZZn4s6lMoLja81jBv-0=", "properties": {"@source_uri": "https://tools.usps.com/UspsToolsRestServices/rest/POLocator/findLocations", "@spider": "usps_collection_boxes", "addr:city": "LILLY", "addr:country": "US", "addr:postcode": "15938", "addr:state": "PA", "addr:street_address": "500 MAIN ST", "amenity": "post_box", "collection_times": "Mo-Sa 13:45", "note": "ON 12/24 AND 12/31, THIS BOX MAY BE COLLECTED AS EARLY AS 12 NOON.", "nsi_id": "unitedstatespostalservice-a77078", "operator": "United States Postal Service", "operator:short": "USPS", "operator:type": "public", "operator:wikidata": "Q668687", "ref": "1593800003"}, "type": "Feature"}
{"geometry": {"coordinates": [-78.620034397, 40.425386125], "type": "Point"}, "id": "8_C07RVe1WvFyGLqUiU21dzrUGA=", "properties": {"@source_uri": "https://tools.usps.com/UspsToolsRestServices/rest/POLocator/findLocations", "@spider": "usps_collection_boxes", "addr:city": "LILLY", "addr:country": "US", "addr:postcode": "15938", "addr:state": "PA", "addr:street_address": "513 CLEVELAND ST", "amenity": "post_box", "collection_times": "Mo-Fr 16:15; Sa 12:30", "indoor": "yes", "note": "ON 12/24 AND 12/31, THIS BOX MAY BE COLLECTED AS EARLY AS 12 NOON.", "nsi_id": "unitedstatespostalservice-a77078", "operator": "United States Postal Service", "operator:short": "USPS", "operator:type": "public", "operator:wikidata": "Q668687", "ref": "1593800006"}, "type": "Feature"}
{"geometry": {"coordinates": [-78.620034397, 40.425386125], "type": "Point"}, "id": "BFOzss5_5EMx50VDgpda0aSVT58=", "properties": {"@source_uri": "https://tools.usps.com/UspsToolsRestServices/rest/POLocator/findLocations", "@spider": "usps_collection_boxes", "addr:city": "LILLY", "addr:country": "US", "addr:postcode": "15938", "addr:state": "PA", "addr:street_address": "513 CLEVELAND ST", "amenity": "post_box", "collection_times": "Mo-Fr 16:00; Sa 12:30", "indoor": "yes", "note": "ON 12/24 AND 12/31, THIS BOX MAY BE COLLECTED AS EARLY AS 12 NOON.", "nsi_id": "unitedstatespostalservice-a77078", "operator": "United States Postal Service", "operator:short": "USPS", "operator:type": "public", "operator:wikidata": "Q668687", "ref": "1593800008"}, "type": "Feature"}
{"geometry": {"coordinates": [-78.632827524, 40.504402266], "type": "Point"}, "id": "pggCKYVnMfN_H7WKbtn5JoIGA8Q=", "properties": {"@source_uri": "https://tools.usps.com/UspsToolsRestServices/rest/POLocator/findLocations", "@spider": "usps_collection_boxes", "addr:city": "LORETTO", "addr:country": "US", "addr:postcode": "15940", "addr:state": "PA", "addr:street_address": "245 SAINT MARY ST", "amenity": "post_box", "collection_times": "Mo-Fr 15:00; Sa 11:30", "note": "ON 12/24 AND 12/31, THIS BOX MAY BE COLLECTED AS EARLY AS 12 NOON.", "nsi_id": "unitedstatespostalservice-a77078", "operator": "United States Postal Service", "operator:short": "USPS", "operator:type": "public", "operator:wikidata": "Q668687", "ref": "1594000000"}, "type": "Feature"}
{"geometry": {"coordinates": [-78.632827524, 40.504402266], "type": "Point"}, "id": "s8guwE7-AUxt1Ka9YTCQQZxKUEo=", "properties": {"@source_uri": "https://tools.usps.com/UspsToolsRestServices/rest/POLocator/findLocations", "@spider": "usps_collection_boxes", "addr:city": "LORETTO", "addr:country": "US", "addr:postcode": "15940", "addr:state": "PA", "addr:street_address": "245 SAINT MARY ST", "amenity": "post_box", "collection_times": "Mo-Fr 15:00; Sa 11:30", "indoor": "yes", "note": "ON 12/24 AND 12/31, THIS BOX MAY BE COLLECTED AS EARLY AS 12 NOON.", "nsi_id": "unitedstatespostalservice-a77078", "operator": "United States Postal Service", "operator:short": "USPS", "operator:type": "public", "operator:wikidata": "Q668687", "ref": "1594000001"}, "type": "Feature"}
{"geometry": {"coordinates": [-78.632827524, 40.504402266], "type": "Point"}, "id": "_f7UqfpFlLBpEqDpNsbdqbKYIxo=", "properties": {"@source_uri": "https://tools.usps.com/UspsToolsRestServices/rest/POLocator/findLocations", "@spider": "usps_collection_boxes", "addr:city": "LORETTO", "addr:country": "US", "addr:postcode": "15940", "addr:state": "PA", "addr:street_address": "245 SAINT MARY ST", "amenity": "post_box", "collection_times": "Mo-Fr 15:00; Sa 11:30", "indoor": "yes", "note": "ON 12/24 AND 12/31, THIS BOX MAY BE COLLECTED AS EARLY AS 12 NOON.", "nsi_id": "unitedstatespostalservice-a77078", "operator": "United States Postal Service", "operator:short": "USPS", "operator:type": "public", "operator:wikidata": "Q668687", "ref": "1594000003"}, "type": "Feature"}
{"geometry": {"coordinates": [-78.834733145, 40.379370442], "type": "Point"}, "id": "wMCJqvoZmnIkaIlKi2n9-1HhnLg=", "properties": {"@source_uri": "https://tools.usps.com/UspsToolsRestServices/rest/POLocator/findLocations", "@spider": "usps_collection_boxes", "addr:city": "MINERAL POINT", "addr:country": "US", "addr:postcode": "15942", "addr:state": "PA", "addr:street_address": "784 MINERAL POINT RD", "amenity": "post_box", "collection_times": "Mo-Fr 11:55; Sa 12:00", "nsi_id": "unitedstatespostalservice-a77078", "operator": "United States Postal Service", "operator:short": "USPS", "operator:type": "public", "operator:wikidata": "Q668687", "ref": "1594200000"}, "type": "Feature"}
{"geometry": {"coordinates": [-78.834733145, 40.379370442], "type": "Point"}, "id": "hdTDP9zqM0NhO1xJEy6GDTN1x_w=", "properties": {"@source_uri": "https://tools.usps.com/UspsToolsRestServices/rest/POLocator/findLocations", "@spider": "usps_collection_boxes", "addr:city": "MINERAL POINT", "addr:country": "US", "addr:postcode": "15942", "addr:state": "PA", "addr:street_address": "784 MINERAL POINT RD", "amenity": "post_box", "collection_times": "Mo-Fr 11:55; Sa 12:00", "indoor": "yes", "nsi_id": "unitedstatespostalservice-a77078", "operator": "United States Postal Service", "operator:short": "USPS", "operator:type": "public", "operator:wikidata": "Q668687", "ref": "1594200001"}, "type": "Feature"}
{"geometry": {"coordinates": [-78.834733145, 40.379370442], "type": "Point"}, "id": "Txf2_wMR0yv2ESttDxRCofZjILU=", "properties": {"@source_uri": "https://tools.usps.com/UspsToolsRestServices/rest/POLocator/findLocations", "@spider": "usps_collection_boxes", "addr:city": "MINERAL POINT", "addr:country": "US", "addr:postcode": "15942", "addr:state": "PA", "addr:street_address": "784 MINERAL POINT RD", "amenity": "post_box", "collection_times": "Mo-Sa 11:55", "indoor": "yes", "nsi_id": "unitedstatespostalservice-a77078", "operator": "United States Postal Service", "operator:short": "USPS", "operator:type": "public", "operator:wikidata": "Q668687", "ref": "1594200003"}, "type": "Feature"}
{"geometry": {"coordinates": [-78.83437876, 40.471591337], "type": "Point"}, "id": "kRC9aqxdxUmUhlZiolMlqTa402E=", "properties": {"@source_uri": "https://tools.usps.com/UspsToolsRestServices/rest/POLocator/findLocations", "@spider": "usps_collection_boxes", "addr:city": "NANTY GLO", "addr:country": "US", "addr:postcode": "15943", "addr:state": "PA", "addr:street_address": "950 CHESTNUT ST", "amenity": "post_box", "collection_times": "Mo-Sa 16:45", "note": "ON 12/24 AND 12/31, THIS BOX MAY BE COLLECTED AS EARLY AS 12 NOON.", "nsi_id": "unitedstatespostalservice-a77078", "operator": "United States Postal Service", "operator:short": "USPS", "operator:type": "public", "operator:wikidata": "Q668687", "ref": "1594300000"}, "type": "Feature"}
{"geometry": {"coordinates": [-78.8363128, 40.466835], "type": "Point"}, "id": "6NugK6tE9uMmKUqHSJPfM8tW1cc=", "properties": {"@source_uri": "https://tools.usps.com/UspsToolsRestServices/rest/POLocator/findLocations", "@spider": "usps_collection_boxes", "addr:city": "NANTY GLO", "addr:country": "US", "addr:postcode": "15943", "addr:state": "PA", "addr:street_address": "1309 SHOEMAKER ST", "amenity": "post_box", "collection_times": "Mo-Sa 09:30", "nsi_id": "unitedstatespostalservice-a77078", "operator": "United States Postal Service", "operator:short": "USPS", "operator:type": "public", "operator:wikidata": "Q668687", "ref": "1594300003"}, "type": "Feature"}
{"geometry": {"coordinates": [-78.8379638, 40.450422], "type": "Point"}, "id": "A1rs8BpDMW-X0yzFFuUbxRs9QT0=", "properties": {"@source_uri": "https://tools.usps.com/UspsToolsRestServices/rest/POLocator/findLocations", "@spider": "usps_collection_boxes", "addr:city": "NANTY GLO", "addr:country": "US", "addr:postcode": "15943", "addr:state": "PA", "addr:street_address": "115 PACE ST", "amenity": "post_box", "collection_times": "Mo-Sa 12:00", "nsi_id": "unitedstatespostalservice-a77078", "operator": "United States Postal Service", "operator:short": "USPS", "operator:type": "public", "operator:wikidata": "Q668687", "ref": "1594300012"}, "type": "Feature"}
{"geometry": {"coordinates": [-78.83437876, 40.471591337], "type": "Point"}, "id": "ww93XBwxxhL_9oylU6tMYTiRjE8=", "properties": {"@source_uri": "https://tools.usps.com/UspsToolsRestServices/rest/POLocator/findLocations", "@spider": "usps_collection_boxes", "addr:city": "NANTY GLO", "addr:country": "US", "addr:postcode": "15943", "addr:state": "PA", "addr:street_address": "950 CHESTNUT ST", "amenity": "post_box", "collection_times": "Mo-Sa 16:45", "indoor": "yes", "note": "ON 12/24 AND 12/31, THIS BOX MAY BE COLLECTED AS EARLY AS 12 NOON.", "nsi_id": "unitedstatespostalservice-a77078", "operator": "United States Postal Service", "operator:short": "USPS", "operator:type": "public", "operator:wikidata": "Q668687", "ref": "1594300013"}, "type": "Feature"}
{"geometry": {"coordinates": [-78.83437876, 40.471591337], "type": "Point"}, "id": "qf-kkP7Ieetyr1hESIrVjGCupWc=", "properties": {"@source_uri": "https://tools.usps.com/UspsToolsRestServices/rest/POLocator/findLocations", "@spider": "usps_collection_boxes", "addr:city": "NANTY GLO", "addr:country": "US", "addr:postcode": "15943", "addr:state": "PA", "addr:street_address": "950 CHESTNUT ST", "amenity": "post_box", "collection_times": "Mo-Fr 16:45; Sa 12:00", "indoor": "yes", "note": "ON 12/24 AND 12/31, THIS BOX MAY BE COLLECTED AS EARLY AS 12 NOON.", "nsi_id": "unitedstatespostalservice-a77078", "operator": "United States Postal Service", "operator:short": "USPS", "operator:type": "public", "operator:wikidata": "Q668687", "ref": "1594300015"}, "type": "Feature"}
{"geometry": {"coordinates": [-79.075777325, 40.378344151], "type": "Point"}, "id": "eLBDrixg9TTGFe7zuuJg6guMXh8=", "properties": {"@source_uri": "https://tools.usps.com/UspsToolsRestServices/rest/POLocator/findLocations", "@spider": "usps_collection_boxes", "addr:city": "NEW FLORENCE", "addr:country": "US", "addr:postcode": "15944", "addr:state": "PA", "addr:street_address": "185 LIGONIER ST", "amenity": "post_box", "collection_times": "Mo-Fr 16:30; Sa 11:45", "note": "ON 12/24 AND 12/31, THIS BOX MAY BE COLLECTED AS EARLY AS 12 NOON.", "nsi_id": "unitedstatespostalservice-a77078", "operator": "United States Postal Service", "operator:short": "USPS", "operator:type": "public", "operator:wikidata": "Q668687", "ref": "1594400000"}, "type": "Feature"}
{"geometry": {"coordinates": [-79.075777325, 40.378344151], "type": "Point"}, "id": "74VOwcXFvXM6MIumWXbs7dNpLqw=", "properties": {"@source_uri": "https://tools.usps.com/UspsToolsRestServices/rest/POLocator/findLocations", "@spider": "usps_collection_boxes", "addr:city": "NEW FLORENCE", "addr:country": "US", "addr:postcode": "15944", "addr:state": "PA", "addr:street_address": "185 LIGONIER ST", "amenity": "post_box", "collection_times": "Mo-Fr 16:30; Sa 11:45", "indoor": "yes", "note": "ON 12/24 AND 12/31, THIS BOX MAY BE COLLECTED AS EARLY AS 12 NOON.", "nsi_id": "unitedstatespostalservice-a77078", "operator": "United States Postal Service", "operator:short": "USPS", "operator:type": "public", "operator:wikidata": "Q668687", "ref": "1594400001"}, "type": "Feature"}
{"geometry": {"coordinates": [-79.075777325, 40.378344151], "type": "Point"}, "id": "ScsLV_jtoTVlyXsTgmCCJUO6o9w=", "properties": {"@source_uri": "https://tools.usps.com/UspsToolsRestServices/rest/POLocator/findLocations", "@spider": "usps_collection_boxes", "addr:city": "NEW FLORENCE", "addr:country": "US", "addr:postcode": "15944", "addr:state": "PA", "addr:street_address": "185 LIGONIER ST", "amenity": "post_box", "collection_times": "Mo-Fr 16:30; Sa 12:00", "indoor": "yes", "note": "ON 12/24 AND 12/31, THIS BOX MAY BE COLLECTED AS EARLY AS 12 NOON.", "nsi_id": "unitedstatespostalservice-a77078", "operator": "United States Postal Service", "operator:short": "USPS", "operator:type": "public", "operator:wikidata": "Q668687", "ref": "1594400003"}, "type": "Feature"}
{"geometry": {"coordinates": [-78.6736447, 40.386638], "type": "Point"}, "id": "IvIu2dMKoNxQbklHP260Eghhzn8=", "properties": {"@source_uri": "https://tools.usps.com/UspsToolsRestServices/rest/POLocator/findLocations", "@spider": "usps_collection_boxes", "addr:city": "PORTAGE", "addr:country": "US", "addr:postcode": "15946", "addr:state": "PA", "addr:street_address": "816 GILLESPIE AVE", "amenity": "post_box", "collection_times": "Mo-Sa 09:00", "nsi_id": "unitedstatespostalservice-a77078", "operator": "United States Postal Service", "operator:short": "USPS", "operator:type": "public", "operator:wikidata": "Q668687", "ref": "1594600001"}, "type": "Feature"}
{"geometry": {"coordinates": [-78.6781792, 40.38298], "type": "Point"}, "id": "TwX0jydXgpwYH7baItDmJrTmCtE=", "properties": {"@source_uri": "https://tools.usps.com/UspsToolsRestServices/rest/POLocator/findLocations", "@spider": "usps_collection_boxes", "addr:city": "PORTAGE", "addr:country": "US", "addr:postcode": "15946", "addr:state": "PA", "addr:street_address": "1100 JOHNSON AVE", "amenity": "post_box", "collection_times": "Mo-Sa 10:00", "nsi_id": "unitedstatespostalservice-a77078", "operator": "United States Postal Service", "operator:short": "USPS", "operator:type": "public", "operator:wikidata": "Q668687", "ref": "1594600004"}, "type": "Feature"}
{"geometry": {"coordinates": [-78.672845559, 40.387298563], "type": "Point"}, "id": "gJbMmYMzJ2ZKzRL6QYoFz7tyT2s=", "properties": {"@source_uri": "https://tools.usps.com/UspsToolsRestServices/rest/POLocator/findLocations", "@spider": "usps_collection_boxes", "addr:city": "PORTAGE", "addr:country": "US", "addr:postcode": "15946", "addr:state": "PA", "addr:street_address": "600 MAIN ST", "amenity": "post_box", "collection_times": "Mo-Fr 16:30; Sa 15:30", "note": "ON 12/24 AND 12/31, THIS BOX MAY BE COLLECTED AS EARLY AS 12 NOON.", "nsi_id": "unitedstatespostalservice-a77078", "operator": "United States Postal Service", "operator:short": "USPS", "operator:type": "public", "operator:wikidata": "Q668687", "ref": "1594600010"}, "type": "Feature"}
{"geometry": {"coordinates": [-78.6802069, 40.39033], "type": "Point"}, "id": "qmsmxix1uHOb25u8_K475gh4MvU=", "properties": {"@source_uri": "https://tools.usps.com/UspsToolsRestServices/rest/POLocator/findLocations", "@spider": "usps_collection_boxes", "addr:city": "PORTAGE", "addr:country": "US", "addr:postcode": "15946", "addr:state": "PA", "addr:street_address": "1046 WASHINGTON AVE", "amenity": "post_box", "collection_times": "Mo-Sa 13:45", "note": "ON 12/24 AND 12/31, THIS BOX MAY BE COLLECTED AS EARLY AS 12 NOON.", "nsi_id": "unitedstatespostalservice-a77078", "operator": "United States Postal Service", "operator:short": "USPS", "operator:type": "public", "operator:wikidata": "Q668687", "ref": "1594600015"}, "type": "Feature"}
{"geometry": {"coordinates": [-78.672845559, 40.387298563], "type": "Point"}, "id": "8CnweHcp2un_icwtD8TBVSvpXuo=", "properties": {"@source_uri": "https://tools.usps.com/UspsToolsRestServices/rest/POLocator/findLocations", "@spider": "usps_collection_boxes", "addr:city": "PORTAGE", "addr:country": "US", "addr:postcode": "15946", "addr:state": "PA", "addr:street_address": "600 MAIN ST", "amenity": "post_box", "collection_times": "Mo-Fr 16:30; Sa 15:30", "indoor": "yes", "note": "ON 12/24 AND 12/31, THIS BOX MAY BE COLLECTED AS EARLY AS 12 NOON.", "nsi_id": "unitedstatespostalservice-a77078", "operator": "United States Postal Service", "operator:short": "USPS", "operator:type": "public", "operator:wikidata": "Q668687", "ref": "1594600016"}, "type": "Feature"}
{"geometry": {"coordinates": [-78.672845559, 40.387298563], "type": "Point"}, "id": "GRFMeg5PgqruaZ8nkMyx_NqRJYk=", "properties": {"@source_uri": "https://tools.usps.com/UspsToolsRestServices/rest/POLocator/findLocations", "@spider": "usps_collection_boxes", "addr:city": "PORTAGE", "addr:country": "US", "addr:postcode": "15946", "addr:state": "PA", "addr:street_address": "600 MAIN ST", "amenity": "post_box", "collection_times": "Mo-Fr 16:30; Sa 12:00", "indoor": "yes", "note": "ON 12/24 AND 12/31, THIS BOX MAY BE COLLECTED AS EARLY AS 12 NOON.", "nsi_id": "unitedstatespostalservice-a77078", "operator": "United States Postal Service", "operator:short": "USPS", "operator:type": "public", "operator:wikidata": "Q668687", "ref": "1594600018"}, "type": "Feature"}
{"geometry": {"coordinates": [-78.76527762, 40.491982133], "type": "Point"}, "id": "3ZxPUlVXsbhzKt9LxwvfyLRjlBQ=", "properties": {"@source_uri": "https://tools.usps.com/UspsToolsRestServices/rest/POLocator/findLocations", "@spider": "usps_collection_boxes", "addr:city": "REVLOC", "addr:country": "US", "addr:postcode": "15948", "addr:state": "PA", "addr:street_address": "552 CAMBRIA AVE", "amenity": "post_box", "collection_times": "Mo-Fr 11:25; Sa 10:45", "nsi_id": "unitedstatespostalservice-a77078", "operator": "United States Postal Service", "operator:short": "USPS", "operator:type": "public", "operator:wikidata": "Q668687", "ref": "1594800000"}, "type": "Feature"}
{"geometry": {"coordinates": [-78.76527762, 40.491982133], "type": "Point"}, "id": "wndFO__BE6RDfQLRyUezkv66EV4=", "properties": {"@source_uri": "https://tools.usps.com/UspsToolsRestServices/rest/POLocator/findLocations", "@spider": "usps_collection_boxes", "addr:city": "REVLOC", "addr:country": "US", "addr:postcode": "15948", "addr:state": "PA", "addr:street_address": "552 CAMBRIA AVE", "amenity": "post_box", "collection_times": "Mo-Fr 11:25; Sa 10:45", "indoor": "yes", "nsi_id": "unitedstatespostalservice-a77078", "operator": "United States Postal Service", "operator:short": "USPS", "operator:type": "public", "operator:wikidata": "Q668687", "ref": "1594800001"}, "type": "Feature"}
{"geometry": {"coordinates": [-78.76527762, 40.491982133], "type": "Point"}, "id": "Ld4l18VulBos-j0S00uY8X45QNE=", "properties": {"@source_uri": "https://tools.usps.com/UspsToolsRestServices/rest/POLocator/findLocations", "@spider": "usps_collection_boxes", "addr:city": "REVLOC", "addr:country": "US", "addr:postcode": "15948", "addr:state": "PA", "addr:street_address": "552 CAMBRIA AVE", "amenity": "post_box", "collection_times": "Mo-Fr 11:25; Sa 10:40", "indoor": "yes", "nsi_id": "unitedstatespostalservice-a77078", "operator": "United States Postal Service", "operator:short": "USPS", "operator:type": "public", "operator:wikidata": "Q668687", "ref": "1594800003"}, "type": "Feature"}
{"geometry": {"coordinates": [-79.144114206, 40.39891334], "type": "Point"}, "id": "9onw661UJ24f0_U_hee2lBP5gh0=", "properties": {"@source_uri": "https://tools.usps.com/UspsToolsRestServices/rest/POLocator/findLocations", "@spider": "usps_collection_boxes", "addr:city": "ROBINSON", "addr:country": "US", "addr:postcode": "15949", "addr:state": "PA", "addr:street_address": "45 FRONT ST", "amenity": "post_box", "collection_times": "Mo-Fr 11:55; Sa 11:45", "nsi_id": "unitedstatespostalservice-a77078", "operator": "United States Postal Service", "operator:short": "USPS", "operator:type": "public", "operator:wikidata": "Q668687", "ref": "1594900000"}, "type": "Feature"}
{"geometry": {"coordinates": [-79.144114206, 40.39891334], "type": "Point"}, "id": "nBIDT2iVD_uskaEvPlu9VQxZEq4=", "properties": {"@source_uri": "https://tools.usps.com/UspsToolsRestServices/rest/POLocator/findLocations", "@spider": "usps_collection_boxes", "addr:city": "ROBINSON", "addr:country": "US", "addr:postcode": "15949", "addr:state": "PA", "addr:street_address": "45 FRONT ST", "amenity": "post_box", "collection_times": "Mo-Fr 11:55; Sa 11:45", "indoor": "yes", "nsi_id": "unitedstatespostalservice-a77078", "operator": "United States Postal Service", "operator:short": "USPS", "operator:type": "public", "operator:wikidata": "Q668687", "ref": "1594900001"}, "type": "Feature"}
{"geometry": {"coordinates": [-79.144114206, 40.39891334], "type": "Point"}, "id": "z3hfnr0PY7OpR6nk8Ol1iHRzE9Q=", "properties": {"@source_uri": "https://tools.usps.com/UspsToolsRestServices/rest/POLocator/findLocations", "@spider": "usps_collection_boxes", "addr:city": "ROBINSON", "addr:country": "US", "addr:postcode": "15949", "addr:state": "PA", "addr:street_address": "45 FRONT ST", "amenity": "post_box", "collection_times": "Mo-Fr 11:55; Sa 11:40", "indoor": "yes", "nsi_id": "unitedstatespostalservice-a77078", "operator": "United States Postal Service", "operator:short": "USPS", "operator:type": "public", "operator:wikidata": "Q668687", "ref": "1594900003"}, "type": "Feature"}
{"geometry": {"coordinates": [-78.771636103, 40.338127269], "type": "Point"}, "id": "WJn7ZgFEVEFb9twnz_BjB7E9ITM=", "properties": {"@source_uri": "https://tools.usps.com/UspsToolsRestServices/rest/POLocator/findLocations", "@spider": "usps_collection_boxes", "addr:city": "SAINT MICHAEL", "addr:country": "US", "addr:postcode": "15951", "addr:state": "PA", "addr:street_address": "983 LOCUST ST", "amenity": "post_box", "collection_times": "Mo-Fr 16:30; Sa 11:45", "note": "ON 12/24 AND 12/31, THIS BOX MAY BE COLLECTED AS EARLY AS 12 NOON.", "nsi_id": "unitedstatespostalservice-a77078", "operator": "United States Postal Service", "operator:short": "USPS", "operator:type": "public", "operator:wikidata": "Q668687", "ref": "1595100000"}, "type": "Feature"}
{"geometry": {"coordinates": [-78.771636103, 40.338127269], "type": "Point"}, "id": "1haBjquvZ9Qe6avq1dS8U7H1RPg=", "properties": {"@source_uri": "https://tools.usps.com/UspsToolsRestServices/rest/POLocator/findLocations", "@spider": "usps_collection_boxes", "addr:city": "SAINT MICHAEL", "addr:country": "US", "addr:postcode": "15951", "addr:state": "PA", "addr:street_address": "983 LOCUST ST", "amenity": "post_box", "collection_times": "Mo-Fr 16:30; Sa 11:45", "indoor": "yes", "note": "ON 12/24 AND 12/31, THIS BOX MAY BE COLLECTED AS EARLY AS 12 NOON.", "nsi_id": "unitedstatespostalservice-a77078", "operator": "United States Postal Service", "operator:short": "USPS", "operator:type": "public", "operator:wikidata": "Q668687", "ref": "1595100001"}, "type": "Feature"}
{"geometry": {"coordinates": [-78.771636103, 40.338127269], "type": "Point"}, "id": "1ldpiur2z6XPS7-TrbZeKQ8IIgA=", "properties": {"@source_uri": "https://tools.usps.com/UspsToolsRestServices/rest/POLocator/findLocations", "@spider": "usps_collection_boxes", "addr:city": "SAINT MICHAEL", "addr:country": "US", "addr:postcode": "15951", "addr:state": "PA", "addr:street_address": "983 LOCUST ST", "amenity": "post_box", "collection_times": "Mo-Fr 16:30; Sa 11:45", "indoor": "yes", "note": "ON 12/24 AND 12/31, THIS BOX MAY BE COLLECTED AS EARLY AS 12 NOON.", "nsi_id": "unitedstatespostalservice-a77078", "operator": "United States Postal Service", "operator:short": "USPS", "operator:type": "public", "operator:wikidata": "Q668687", "ref": "1595100003"}, "type": "Feature"}
{"geometry": {"coordinates": [-78.765297562, 40.299705095], "type": "Point"}, "id": "prl0hItz7f73PbViLnqWIyM66wE=", "properties": {"@source_uri": "https://tools.usps.com/UspsToolsRestServices/rest/POLocator/findLocations", "@spider": "usps_collection_boxes", "addr:city": "SALIX", "addr:country": "US", "addr:postcode": "15952", "addr:state": "PA", "addr:street_address": "1108 FOREST HILLS DR", "amenity": "post_box", "collection_times": "Mo-Fr 16:45; Sa 12:00", "note": "ON 12/24 AND 12/31, THIS BOX MAY BE COLLECTED AS EARLY AS 12 NOON.", "nsi_id": "unitedstatespostalservice-a77078", "operator": "United States Postal Service", "operator:short": "USPS", "operator:type": "public", "operator:wikidata": "Q668687", "ref": "1595200000"}, "type": "Feature"}
{"geometry": {"coordinates": [-78.765297562, 40.299705095], "type": "Point"}, "id": "a1MPHc2lJqbyBWHmAz1705DamXc=", "properties": {"@source_uri": "https://tools.usps.com/UspsToolsRestServices/rest/POLocator/findLocations", "@spider": "usps_collection_boxes", "addr:city": "SALIX", "addr:country": "US", "addr:postcode": "15952", "addr:state": "PA", "addr:street_address": "1108 FOREST HILLS DR", "amenity": "post_box", "collection_times": "Mo-Fr 17:00; Sa 12:00", "indoor": "yes", "note": "ON 12/24 AND 12/31, THIS BOX MAY BE COLLECTED AS EARLY AS 12 NOON.", "nsi_id": "unitedstatespostalservice-a77078", "operator": "United States Postal Service", "operator:short": "USPS", "operator:type": "public", "operator:wikidata": "Q668687", "ref": "1595200001"}, "type": "Feature"}
{"geometry": {"coordinates": [-78.7527695, 40.299513], "type": "Point"}, "id": "nQCW4HSgrQjKKPFDDvxDfyqhSUw=", "properties": {"@source_uri": "https://tools.usps.com/UspsToolsRestServices/rest/POLocator/findLocations", "@spider": "usps_collection_boxes", "addr:city": "SALIX", "addr:country": "US", "addr:postcode": "15952", "addr:state": "PA", "addr:street_address": "120 TAYLOR LN", "amenity": "post_box", "collection_times": "Mo-Sa 10:00", "nsi_id": "unitedstatespostalservice-a77078", "operator": "United States Postal Service", "operator:short": "USPS", "operator:type": "public", "operator:wikidata": "Q668687", "ref": "1595200002"}, "type": "Feature"}
{"geometry": {"coordinates": [-78.765297562, 40.299705095], "type": "Point"}, "id": "p5rV1pt13O4j3pFAv8ae0Z5QSxs=", "properties": {"@source_uri": "https://tools.usps.com/UspsToolsRestServices/rest/POLocator/findLocations", "@spider": "usps_collection_boxes", "addr:city": "SALIX", "addr:country": "US", "addr:postcode": "15952", "addr:state": "PA", "addr:street_address": "1108 FOREST HILLS DR", "amenity": "post_box", "collection_times": "Mo-Fr 17:00; Sa 12:00", "indoor": "yes", "note": "ON 12/24 AND 12/31, THIS BOX MAY BE COLLECTED AS EARLY AS 12 NOON.", "nsi_id": "unitedstatespostalservice-a77078", "operator": "United States Postal Service", "operator:short": "USPS", "operator:type": "public", "operator:wikidata": "Q668687", "ref": "1595200004"}, "type": "Feature"}
{"geometry": {"coordinates": [-79.024120317, 40.415427159], "type": "Point"}, "id": "eePRI6gmrfY1aww1TVS0VumtBZA=", "properties": {"@source_uri": "https://tools.usps.com/UspsToolsRestServices/rest/POLocator/findLocations", "@spider": "usps_collection_boxes", "addr:city": "SEWARD", "addr:country": "US", "addr:postcode": "15954", "addr:state": "PA", "addr:street_address": "224 INDIANA ST", "amenity": "post_box", "collection_times": "Mo-Fr 16:45; Sa 11:45", "note": "ON 12/24 AND 12/31, THIS BOX MAY BE COLLECTED AS EARLY AS 12 NOON.", "nsi_id": "unitedstatespostalservice-a77078", "operator": "United States Postal Service", "operator:short": "USPS", "operator:type": "public", "operator:wikidata": "Q668687", "ref": "1595400000"}, "type": "Feature"}
{"geometry": {"coordinates": [-79.024120317, 40.415427159], "type": "Point"}, "id": "CqN7Fv55BH8IYAcCq9nSdqgd03U=", "properties": {"@source_uri": "https://tools.usps.com/UspsToolsRestServices/rest/POLocator/findLocations", "@spider": "usps_collection_boxes", "addr:city": "SEWARD", "addr:country": "US", "addr:postcode": "15954", "addr:state": "PA", "addr:street_address": "224 INDIANA ST", "amenity": "post_box", "collection_times": "Mo-Fr 16:45; Sa 11:45", "indoor": "yes", "note": "ON 12/24 AND 12/31, THIS BOX MAY BE COLLECTED AS EARLY AS 12 NOON.", "nsi_id": "unitedstatespostalservice-a77078", "operator": "United States Postal Service", "operator:short": "USPS", "operator:type": "public", "operator:wikidata": "Q668687", "ref": "1595400001"}, "type": "Feature"}
{"geometry": {"coordinates": [-79.0219037, 40.405354], "type": "Point"}, "id": "6xNKNW_M2cBbQNci98vYeOPhI_4=", "properties": {"@source_uri": "https://tools.usps.com/UspsToolsRestServices/rest/POLocator/findLocations", "@spider": "usps_collection_boxes", "addr:city": "SEWARD", "addr:country": "US", "addr:postcode": "15954", "addr:state": "PA", "addr:street_address": "6858 ROUTE 711", "amenity": "post_box", "collection_times": "Mo-Sa 09:30", "nsi_id": "unitedstatespostalservice-a77078", "operator": "United States Postal Service", "operator:short": "USPS", "operator:type": "public", "operator:wikidata": "Q668687", "ref": "1595400002"}, "type": "Feature"}
{"geometry": {"coordinates": [-79.024120317, 40.415427159], "type": "Point"}, "id": "FCs_k113hyody7lb_2HmQNfCaRs=", "properties": {"@source_uri": "https://tools.usps.com/UspsToolsRestServices/rest/POLocator/findLocations", "@spider": "usps_collection_boxes", "addr:city": "SEWARD", "addr:country": "US", "addr:postcode": "15954", "addr:state": "PA", "addr:street_address": "224 INDIANA ST", "amenity": "post_box", "collection_times": "Mo-Fr 16:30; Sa 11:30", "indoor": "yes", "note": "ON 12/24 AND 12/31, THIS BOX MAY BE COLLECTED AS EARLY AS 12 NOON.", "nsi_id": "unitedstatespostalservice-a77078", "operator": "United States Postal Service", "operator:short": "USPS", "operator:type": "public", "operator:wikidata": "Q668687", "ref": "1595400004"}, "type": "Feature"}
{"geometry": {"coordinates": [-78.747526032, 40.329984533], "type": "Point"}, "id": "4Ey_bgftmRTTU2J6dYwQd05LVmg=", "properties": {"@source_uri": "https://tools.usps.com/UspsToolsRestServices/rest/POLocator/findLocations", "@spider": "usps_collection_boxes", "addr:city": "SIDMAN", "addr:country": "US", "addr:postcode": "15955", "addr:state": "PA", "addr:street_address": "367 LOCUST ST", "amenity": "post_box", "collection_times": "Mo-Fr 16:00; Sa 12:30", "note": "ON 12/24 AND 12/31, THIS BOX MAY BE COLLECTED AS EARLY AS 12 NOON.", "nsi_id": "unitedstatespostalservice-a77078", "operator": "United States Postal Service", "operator:short": "USPS", "operator:type": "public", "operator:wikidata": "Q668687", "ref": "1595500000"}, "type": "Feature"}
{"geometry": {"coordinates": [-78.747526032, 40.329984533], "type": "Point"}, "id": "r14mpD-wxaflpovZ8gdpSUfWgk4=", "properties": {"@source_uri": "https://tools.usps.com/UspsToolsRestServices/rest/POLocator/findLocations", "@spider": "usps_collection_boxes", "addr:city": "SIDMAN", "addr:country": "US", "addr:postcode": "15955", "addr:state": "PA", "addr:street_address": "367 LOCUST ST", "amenity": "post_box", "collection_times": "Mo-Fr 16:00; Sa 12:30", "indoor": "yes", "note": "ON 12/24 AND 12/31, THIS BOX MAY BE COLLECTED AS EARLY AS 12 NOON.", "nsi_id": "unitedstatespostalservice-a77078", "operator": "United States Postal Service", "operator:short": "USPS", "operator:type": "public", "operator:wikidata": "Q668687", "ref": "1595500001"}, "type": "Feature"}
{"geometry": {"coordinates": [-78.747526032, 40.329984533], "type": "Point"}, "id": "9CUVKVAIh9XKH2hf8E7pr7yH5kM=", "properties": {"@source_uri": "https://tools.usps.com/UspsToolsRestServices/rest/POLocator/findLocations", "@spider": "usps_collection_boxes", "addr:city": "SIDMAN", "addr:country": "US", "addr:postcode": "15955", "addr:state": "PA", "addr:street_address": "367 LOCUST ST", "amenity": "post_box", "collection_times": "Mo-Fr 16:00; Sa 12:30", "indoor": "yes", "note": "ON 12/24 AND 12/31, THIS BOX MAY BE COLLECTED AS EARLY AS 12 NOON.", "nsi_id": "unitedstatespostalservice-a77078", "operator": "United States Postal Service", "operator:short": "USPS", "operator:type": "public", "operator:wikidata": "Q668687", "ref": "1595500003"}, "type": "Feature"}
{"geometry": {"coordinates": [-78.794432019, 40.364642513], "type": "Point"}, "id": "MbRhyLqb9kn8vArWyCq5i0Rlkno=", "properties": {"@source_uri": "https://tools.usps.com/UspsToolsRestServices/rest/POLocator/findLocations", "@spider": "usps_collection_boxes", "addr:city": "SOUTH FORK", "addr:country": "US", "addr:postcode": "15956", "addr:state": "PA", "addr:street_address": "331 MAPLE ST", "amenity": "post_box", "collection_times": "Mo-Fr 15:30; Sa 12:15", "note": "ON 12/24 AND 12/31, THIS BOX MAY BE COLLECTED AS EARLY AS 12 NOON.", "nsi_id": "unitedstatespostalservice-a77078", "operator": "United States Postal Service", "operator:short": "USPS", "operator:type": "public", "operator:wikidata": "Q668687", "ref": "1595600000"}, "type": "Feature"}
{"geometry": {"coordinates": [-78.7921271, 40.365453], "type": "Point"}, "id": "GdhdHnX7KZwkSHy-8ENxkXgxl_Q=", "properties": {"@source_uri": "https://tools.usps.com/UspsToolsRestServices/rest/POLocator/findLocations", "@spider": "usps_collection_boxes", "addr:city": "SOUTH FORK", "addr:country": "US", "addr:postcode": "15956", "addr:state": "PA", "addr:street_address": "427 MAPLE ST", "amenity": "post_box", "collection_times": "Mo-Fr 14:15; Sa 14:00", "note": "ON 12/24 AND 12/31, THIS BOX MAY BE COLLECTED AS EARLY AS 12 NOON.", "nsi_id": "unitedstatespostalservice-a77078", "operator": "United States Postal Service", "operator:short": "USPS", "operator:type": "public", "operator:wikidata": "Q668687", "ref": "1595600001"}, "type": "Feature"}
{"geometry": {"coordinates": [-78.7911044, 40.364694], "type": "Point"}, "id": "df5RzWGI-Nnt9sd5jcZyiFvYPaE=", "properties": {"@source_uri": "https://tools.usps.com/UspsToolsRestServices/rest/POLocator/findLocations", "@spider": "usps_collection_boxes", "addr:city": "SOUTH FORK", "addr:country": "US", "addr:postcode": "15956", "addr:state": "PA", "addr:street_address": "329 MAIN ST", "amenity": "post_box", "collection_times": "Mo-Fr 14:15; Sa 14:00", "note": "ON 12/24 AND 12/31, THIS BOX MAY BE COLLECTED AS EARLY AS 12 NOON.", "nsi_id": "unitedstatespostalservice-a77078", "operator": "United States Postal Service", "operator:short": "USPS", "operator:type": "public", "operator:wikidata": "Q668687", "ref": "1595600003"}, "type": "Feature"}
{"geometry": {"coordinates": [-78.794432019, 40.364642513], "type": "Point"}, "id": "4DAOplC2MG0-jtE2V3gBJTzhBKk=", "properties": {"@source_uri": "https://tools.usps.com/UspsToolsRestServices/rest/POLocator/findLocations", "@spider": "usps_collection_boxes", "addr:city": "SOUTH FORK", "addr:country": "US", "addr:postcode": "15956", "addr:state": "PA", "addr:street_address": "331 MAPLE ST", "amenity": "post_box", "collection_times": "Mo-Fr 15:30; Sa 12:15", "indoor": "yes", "note": "ON 12/24 AND 12/31, THIS BOX MAY BE COLLECTED AS EARLY AS 12 NOON.", "nsi_id": "unitedstatespostalservice-a77078", "operator": "United States Postal Service", "operator:short": "USPS", "operator:type": "public", "operator:wikidata": "Q668687", "ref": "1595600009"}, "type": "Feature"}
{"geometry": {"coordinates": [-78.794432019, 40.364642513], "type": "Point"}, "id": "Db69EByKa0yeVwhkryvEY6iAn0k=", "properties": {"@source_uri": "https://tools.usps.com/UspsToolsRestServices/rest/POLocator/findLocations", "@spider": "usps_collection_boxes", "addr:city": "SOUTH FORK", "addr:country": "US", "addr:postcode": "15956", "addr:state": "PA", "addr:street_address": "331 MAPLE ST", "amenity": "post_box", "collection_times": "Mo-Fr 15:30; Sa 12:15", "indoor": "yes", "note": "ON 12/24 AND 12/31, THIS BOX MAY BE COLLECTED AS EARLY AS 12 NOON.", "nsi_id": "unitedstatespostalservice-a77078", "operator": "United States Postal Service", "operator:short": "USPS", "operator:type": "public", "operator:wikidata": "Q668687", "ref": "1595600011"}, "type": "Feature"}
{"geometry": {"coordinates": [-78.921676, 40.552543], "type": "Point"}, "id": "pA9WxweZBipLaF-iLc703N3ewAU=", "properties": {"@source_uri": "https://tools.usps.com/UspsToolsRestServices/rest/POLocator/findLocations", "@spider": "usps_collection_boxes", "addr:city": "STRONGSTOWN", "addr:country": "US", "addr:postcode": "15957", "addr:state": "PA", "addr:street_address": "14510 ROUTE 422 HWY E", "amenity": "post_box", "collection_times": "Mo-Sa 09:00", "nsi_id": "unitedstatespostalservice-a77078", "operator": "United States Postal Service", "operator:short": "USPS", "operator:type": "public", "operator:wikidata": "Q668687", "ref": "1595700000"}, "type": "Feature"}
{"geometry": {"coordinates": [-78.763398951, 40.371960973], "type": "Point"}, "id": "kxhuTHfi13PcrcpRMvBUMb_sDn0=", "properties": {"@source_uri": "https://tools.usps.com/UspsToolsRestServices/rest/POLocator/findLocations", "@spider": "usps_collection_boxes", "addr:city": "SUMMERHILL", "addr:country": "US", "addr:postcode": "15958", "addr:state": "PA", "addr:street_address": "1314 RAILROAD ST", "amenity": "post_box", "collection_times": "Mo-Fr 16:30; Sa 11:45", "note": "ON 12/24 AND 12/31, THIS BOX MAY BE COLLECTED AS EARLY AS 12 NOON.", "nsi_id": "unitedstatespostalservice-a77078", "operator": "United States Postal Service", "operator:short": "USPS", "operator:type": "public", "operator:wikidata": "Q668687", "ref": "1595800000"}, "type": "Feature"}
{"geometry": {"coordinates": [-78.763398951, 40.371960973], "type": "Point"}, "id": "FfljFx1SMcz_3KnZevDIyGfJpuI=", "properties": {"@source_uri": "https://tools.usps.com/UspsToolsRestServices/rest/POLocator/findLocations", "@spider": "usps_collection_boxes", "addr:city": "SUMMERHILL", "addr:country": "US", "addr:postcode": "15958", "addr:state": "PA", "addr:street_address": "1314 RAILROAD ST", "amenity": "post_box", "collection_times": "Mo-Fr 16:30; Sa 11:45", "indoor": "yes", "note": "ON 12/24 AND 12/31, THIS BOX MAY BE COLLECTED AS EARLY AS 12 NOON.", "nsi_id": "unitedstatespostalservice-a77078", "operator": "United States Postal Service", "operator:short": "USPS", "operator:type": "public", "operator:wikidata": "Q668687", "ref": "1595800001"}, "type": "Feature"}
{"geometry": {"coordinates": [-78.763398951, 40.371960973], "type": "Point"}, "id": "P_QO-H62w47Q_3qFM2P2LGVfXKQ=", "properties": {"@source_uri": "https://tools.usps.com/UspsToolsRestServices/rest/POLocator/findLocations", "@spider": "usps_collection_boxes", "addr:city": "SUMMERHILL", "addr:country": "US", "addr:postcode": "15958", "addr:state": "PA", "addr:street_address": "1314 RAILROAD ST", "amenity": "post_box", "collection_times": "Mo-Fr 16:30; Sa 11:30", "indoor": "yes", "note": "ON 12/24 AND 12/31, THIS BOX MAY BE COLLECTED AS EARLY AS 12 NOON.", "nsi_id": "unitedstatespostalservice-a77078", "operator": "United States Postal Service", "operator:short": "USPS", "operator:type": "public", "operator:wikidata": "Q668687", "ref": "1595800003"}, "type": "Feature"}
{"geometry": {"coordinates": [-78.914490733, 40.269763688], "type": "Point"}, "id": "2BTsbpU10Vy3M3JTMBP6M-nf3Us=", "properties": {"@source_uri": "https://tools.usps.com/UspsToolsRestServices/rest/POLocator/findLocations", "@spider": "usps_collection_boxes", "addr:city": "TIRE HILL", "addr:country": "US", "addr:postcode": "15959", "addr:state": "PA", "addr:street_address": "1969 KRING ST", "amenity": "post_box", "collection_times": "Mo-Fr 16:30; Sa 11:30", "note": "ON 12/24 AND 12/31, THIS BOX MAY BE COLLECTED AS EARLY AS 12 NOON.", "nsi_id": "unitedstatespostalservice-a77078", "operator": "United States Postal Service", "operator:short": "USPS", "operator:type": "public", "operator:wikidata": "Q668687", "ref": "1595900000"}, "type": "Feature"}
{"geometry": {"coordinates": [-78.914490733, 40.269763688], "type": "Point"}, "id": "EcMkja2-uTKYKTtesQhD6omceMk=", "properties": {"@source_uri": "https://tools.usps.com/UspsToolsRestServices/rest/POLocator/findLocations", "@spider": "usps_collection_boxes", "addr:city": "TIRE HILL", "addr:country": "US", "addr:postcode": "15959", "addr:state": "PA", "addr:street_address": "1969 KRING ST", "amenity": "post_box", "collection_times": "Mo-Fr 16:30; Sa 11:30", "indoor": "yes", "note": "ON 12/24 AND 12/31, THIS BOX MAY BE COLLECTED AS EARLY AS 12 NOON.", "nsi_id": "unitedstatespostalservice-a77078", "operator": "United States Postal Service", "operator:short": "USPS", "operator:type": "public", "operator:wikidata": "Q668687", "ref": "1595900001"}, "type": "Feature"}
{"geometry": {"coordinates": [-78.914490733, 40.269763688], "type": "Point"}, "id": "sir6zflaS7PZ2P0Ia8RRRvtqvVU=", "properties": {"@source_uri": "https://tools.usps.com/UspsToolsRestServices/rest/POLocator/findLocations", "@spider": "usps_collection_boxes", "addr:city": "TIRE HILL", "addr:country": "US", "addr:postcode": "15959", "addr:state": "PA", "addr:street_address": "1969 KRING ST", "amenity": "post_box", "collection_times": "Mo-Fr 16:30; Sa 11:30", "indoor": "yes", "note": "ON 12/24 AND 12/31, THIS BOX MAY BE COLLECTED AS EARLY AS 12 NOON.", "nsi_id": "unitedstatespostalservice-a77078", "operator": "United States Postal Service", "operator:short": "USPS", "operator:type": "public", "operator:wikidata": "Q668687", "ref": "1595900003"}, "type": "Feature"}
{"geometry": {"coordinates": [-78.866157151, 40.498855356], "type": "Point"}, "id": "TyXy5wID7b_qXpG-9rgBM5Vvhj8=", "properties": {"@source_uri": "https://tools.usps.com/UspsToolsRestServices/rest/POLocator/findLocations", "@spider": "usps_collection_boxes", "addr:city": "TWIN ROCKS", "addr:country": "US", "addr:postcode": "15960", "addr:state": "PA", "addr:street_address": "997 STATION RD", "amenity": "post_box", "collection_times": "Mo-Fr 12:55; Sa 11:45", "indoor": "yes", "note": "ON 12/24 AND 12/31, THIS BOX MAY BE COLLECTED AS EARLY AS 12 NOON.", "nsi_id": "unitedstatespostalservice-a77078", "operator": "United States Postal Service", "operator:short": "USPS", "operator:type": "public", "operator:wikidata": "Q668687", "ref": "1596000001"}, "type": "Feature"}
{"geometry": {"coordinates": [-78.866157151, 40.498855356], "type": "Point"}, "id": "cXBfLIObp_yzX1JzGUeb3P_Dk7s=", "properties": {"@source_uri": "https://tools.usps.com/UspsToolsRestServices/rest/POLocator/findLocations", "@spider": "usps_collection_boxes", "addr:city": "TWIN ROCKS", "addr:country": "US", "addr:postcode": "15960", "addr:state": "PA", "addr:street_address": "997 STATION RD", "amenity": "post_box", "collection_times": "Mo-Fr 12:55; Sa 11:45", "indoor": "yes", "note": "ON 12/24 AND 12/31, THIS BOX MAY BE COLLECTED AS EARLY AS 12 NOON.", "nsi_id": "unitedstatespostalservice-a77078", "operator": "United States Postal Service", "operator:short": "USPS", "operator:type": "public", "operator:wikidata": "Q668687", "ref": "1596000003"}, "type": "Feature"}
{"geometry": {"coordinates": [-78.911777888, 40.478020522], "type": "Point"}, "id": "ppmL9Flf1Px32DQeT01Y3StHYIY=", "properties": {"@source_uri": "https://tools.usps.com/UspsToolsRestServices/rest/POLocator/findLocations", "@spider": "usps_collection_boxes", "addr:city": "VINTONDALE", "addr:country": "US", "addr:postcode": "15961", "addr:state": "PA", "addr:street_address": "195 MAIN ST", "amenity": "post_box", "collection_times": "Mo-Fr 15:00; Sa 11:00", "note": "ON 12/24 AND 12/31, THIS BOX MAY BE COLLECTED AS EARLY AS 12 NOON.", "nsi_id": "unitedstatespostalservice-a77078", "operator": "United States Postal Service", "operator:short": "USPS", "operator:type": "public", "operator:wikidata": "Q668687", "ref": "1596100000"}, "type": "Feature"}
{"geometry": {"coordinates": [-78.911777888, 40.478020522], "type": "Point"}, "id": "c_tfcgZHFXMpe_3A5g7bnmC14HA=", "properties": {"@source_uri": "https://tools.usps.com/UspsToolsRestServices/rest/POLocator/findLocations", "@spider": "usps_collection_boxes", "addr:city": "VINTONDALE", "addr:country": "US", "addr:postcode": "15961", "addr:state": "PA", "addr:street_address": "195 MAIN ST", "amenity": "post_box", "collection_times": "Mo-Fr 15:00; Sa 11:00", "indoor": "yes", "note": "ON 12/24 AND 12/31, THIS BOX MAY BE COLLECTED AS EARLY AS 12 NOON.", "nsi_id": "unitedstatespostalservice-a77078", "operator": "United States Postal Service", "operator:short": "USPS", "operator:type": "public", "operator:wikidata": "Q668687", "ref": "1596100001"}, "type": "Feature"}
{"geometry": {"coordinates": [-78.911777888, 40.478020522], "type": "Point"}, "id": "pFbZPBlFkoPzT7-fHm6DIWFY65w=", "properties": {"@source_uri": "https://tools.usps.com/UspsToolsRestServices/rest/POLocator/findLocations", "@spider": "usps_collection_boxes", "addr:city": "VINTONDALE", "addr:country": "US", "addr:postcode": "15961", "addr:state": "PA", "addr:street_address": "195 MAIN ST", "amenity": "post_box", "collection_times": "Mo-Fr 15:00; Sa 11:00", "indoor": "yes", "note": "ON 12/24 AND 12/31, THIS BOX MAY BE COLLECTED AS EARLY AS 12 NOON.", "nsi_id": "unitedstatespostalservice-a77078", "operator": "United States Postal Service", "operator:short": "USPS", "operator:type": "public", "operator:wikidata": "Q668687", "ref": "1596100003"}, "type": "Feature"}
{"geometry": {"coordinates": [-78.718569177, 40.387350374], "type": "Point"}, "id": "_jQm6_mwf_E4XewY_ASYqFZRj9I=", "properties": {"@source_uri": "https://tools.usps.com/UspsToolsRestServices/rest/POLocator/findLocations", "@spider": "usps_collection_boxes", "addr:city": "WILMORE", "addr:country": "US", "addr:postcode": "15962", "addr:state": "PA", "addr:street_address": "885 MAIN ST", "amenity": "post_box", "collection_times": "Mo-Fr 11:55; Sa 11:45", "nsi_id": "unitedstatespostalservice-a77078", "operator": "United States Postal Service", "operator:short": "USPS", "operator:type": "public", "operator:wikidata": "Q668687", "ref": "1596200000"}, "type": "Feature"}
{"geometry": {"coordinates": [-78.718569177, 40.387350374], "type": "Point"}, "id": "9a3AGAsSqJ3ajZURG9KJlQWPCzU=", "properties": {"@source_uri": "https://tools.usps.com/UspsToolsRestServices/rest/POLocator/findLocations", "@spider": "usps_collection_boxes", "addr:city": "WILMORE", "addr:country": "US", "addr:postcode": "15962", "addr:state": "PA", "addr:street_address": "885 MAIN ST", "amenity": "post_box", "collection_times": "Mo-Fr 11:55; Sa 11:45", "indoor": "yes", "nsi_id": "unitedstatespostalservice-a77078", "operator": "United States Postal Service", "operator:short": "USPS", "operator:type": "public", "operator:wikidata": "Q668687", "ref": "1596200001"}, "type": "Feature"}
{"geometry": {"coordinates": [-78.718569177, 40.387350374], "type": "Point"}, "id": "DyMl29TmDGBqT4t1592XWQ1Sqjw=", "properties": {"@source_uri": "https://tools.usps.com/UspsToolsRestServices/rest/POLocator/findLocations", "@spider": "usps_collection_boxes", "addr:city": "WILMORE", "addr:country": "US", "addr:postcode": "15962", "addr:state": "PA", "addr:street_address": "885 MAIN ST", "amenity": "post_box", "collection_times": "Mo-Fr 11:55; Sa 11:40", "indoor": "yes", "nsi_id": "unitedstatespostalservice-a77078", "operator": "United States Postal Service", "operator:short": "USPS", "operator:type": "public", "operator:wikidata": "Q668687", "ref": "1596200003"}, "type": "Feature"}
{"geometry": {"coordinates": [-78.830117956, 40.234713162], "type": "Point"}, "id": "jYy7PBnbAeUGdV_fgvQRVfftMuI=", "properties": {"@source_uri": "https://tools.usps.com/UspsToolsRestServices/rest/POLocator/findLocations", "@spider": "usps_collection_boxes", "addr:city": "WINDBER", "addr:country": "US", "addr:postcode": "15963", "addr:state": "PA", "addr:street_address": "1600 GRAHAM AVE", "amenity": "post_box", "collection_times": "Mo-Fr 17:15; Sa 16:15", "note": "ON 12/24 AND 12/31, THIS BOX MAY BE COLLECTED AS EARLY AS 12 NOON.", "nsi_id": "unitedstatespostalservice-a77078", "operator": "United States Postal Service", "operator:short": "USPS", "operator:type": "public", "operator:wikidata": "Q668687", "ref": "1596300002"}, "type": "Feature"}
{"geometry": {"coordinates": [-78.83038, 40.235755], "type": "Point"}, "id": "TlMWJM4z_NdaXPSv7yjdExuRMo8=", "properties": {"@source_uri": "https://tools.usps.com/UspsToolsRestServices/rest/POLocator/findLocations", "@spider": "usps_collection_boxes", "addr:city": "WINDBER", "addr:country": "US", "addr:postcode": "15963", "addr:state": "PA", "addr:street_address": "1600 GRAHAM AVE", "amenity": "post_box", "collection_times": "Mo-Fr 17:15; Sa 16:15", "indoor": "yes", "note": "ON 12/24 AND 12/31, THIS BOX MAY BE COLLECTED AS EARLY AS 12 NOON.", "nsi_id": "unitedstatespostalservice-a77078", "operator": "United States Postal Service", "operator:short": "USPS", "operator:type": "public", "operator:wikidata": "Q668687", "ref": "1596300018"}, "type": "Feature"}
{"geometry": {"coordinates": [-78.83038, 40.235755], "type": "Point"}, "id": "NL43C77lvDBTaQv_IVe6hQTZZFI=", "properties": {"@source_uri": "https://tools.usps.com/UspsToolsRestServices/rest/POLocator/findLocations", "@spider": "usps_collection_boxes", "addr:city": "WINDBER", "addr:country": "US", "addr:postcode": "15963", "addr:state": "PA", "addr:street_address": "1600 GRAHAM AVE", "amenity": "post_box", "collection_times": "Mo-Fr 17:00; Sa 16:15", "indoor": "yes", "note": "ON 12/24 AND 12/31, THIS BOX MAY BE COLLECTED AS EARLY AS 12 NOON.", "nsi_id": "unitedstatespostalservice-a77078", "operator": "United States Postal Service", "operator:short": "USPS", "operator:type": "public", "operator:wikidata": "Q668687", "ref": "1596300020"}, "type": "Feature"}
