{"dataset_attributes": {"@spider": "usps_collection_boxes", "spider:collection_time": "2023-12-28T08:25:01.581378"}, "geometry": {"coordinates": [-79.8952219, 40.860781], "type": "Point"}, "id": "PT7Gd_qzZvTnqCG-PONQmd5Sh1w=", "properties": {"@spider": "usps_collection_boxes", "addr:city": "BUTLER", "addr:country": "US", "addr:full": "106 S MAIN ST", "addr:postcode": "16001", "addr:state": "PA", "amenity": "post_box", "brand": "United States Postal Service", "brand:wikidata": "Q668687", "collection_times": "Mo-Sa 14:30", "name": "USPS COLLECTION BOX - BLUE BOX", "note": "ON 12/24 AND 12/31, THIS BOX MAY BE COLLECTED AS EARLY AS 12 NOON.", "nsi_id": "unitedstatespostalservice-a77078", "operator": "United States Postal Service", "operator:short": "USPS", "operator:type": "public", "operator:wikidata": "Q668687", "ref": "1600100000"}, "type": "Feature"}
{"dataset_attributes": {"@spider": "usps_collection_boxes", "spider:collection_time": "2023-12-28T08:25:01.581378"}, "geometry": {"coordinates": [-79.895291, 40.861125], "type": "Point"}, "id": "0U1cw4PGSiv5jJcnN6FLsZvG9tI=", "properties": {"@spider": "usps_collection_boxes", "addr:city": "BUTLER", "addr:country": "US", "addr:full": "101 N MAIN ST", "addr:postcode": "16001", "addr:state": "PA", "amenity": "post_box", "brand": "United States Postal Service", "brand:wikidata": "Q668687", "collection_times": "Mo-Sa 09:00", "name": "USPS COLLECTION BOX - BLUE BOX", "nsi_id": "unitedstatespostalservice-a77078", "operator": "United States Postal Service", "operator:short": "USPS", "operator:type": "public", "operator:wikidata": "Q668687", "ref": "1600100002"}, "type": "Feature"}
{"dataset_attributes": {"@spider": "usps_collection_boxes", "spider:collection_time": "2023-12-28T08:25:01.581378"}, "geometry": {"coordinates": [-79.8859147, 40.855792], "type": "Point"}, "id": "_gpbteDmDsaaoKXfNOaXYi75Scc=", "properties": {"@spider": "usps_collection_boxes", "addr:city": "BUTLER", "addr:country": "US", "addr:full": "200 LINCOLN AVE", "addr:postcode": "16001", "addr:state": "PA", "amenity": "post_box", "brand": "United States Postal Service", "brand:wikidata": "Q668687", "collection_times": "Mo-Sa 11:00", "name": "USPS COLLECTION BOX - BLUE BOX", "nsi_id": "unitedstatespostalservice-a77078", "operator": "United States Postal Service", "operator:short": "USPS", "operator:type": "public", "operator:wikidata": "Q668687", "ref": "1600100004"}, "type": "Feature"}
{"dataset_attributes": {"@spider": "usps_collection_boxes", "spider:collection_time": "2023-12-28T08:25:01.581378"}, "geometry": {"coordinates": [-79.8952699, 40.865118], "type": "Point"}, "id": "IrdAp5eMbFJQ-FuhcAbX6wdK6x4=", "properties": {"@spider": "usps_collection_boxes", "addr:city": "BUTLER", "addr:country": "US", "addr:full": "400 N MAIN ST", "addr:postcode": "16001", "addr:state": "PA", "amenity": "post_box", "brand": "United States Postal Service", "brand:wikidata": "Q668687", "collection_times": "Mo-Sa 13:00", "name": "USPS COLLECTION BOX - BLUE BOX", "note": "ON 12/24 AND 12/31, THIS BOX MAY BE COLLECTED AS EARLY AS 12 NOON.", "nsi_id": "unitedstatespostalservice-a77078", "operator": "United States Postal Service", "operator:short": "USPS", "operator:type": "public", "operator:wikidata": "Q668687", "ref": "1600100005"}, "type": "Feature"}
{"dataset_attributes": {"@spider": "usps_collection_boxes", "spider:collection_time": "2023-12-28T08:25:01.581378"}, "geometry": {"coordinates": [-79.895290275, 40.857560816], "type": "Point"}, "id": "Piq52m7OBvSZB13A3ipXYGM8ZOw=", "properties": {"@spider": "usps_collection_boxes", "addr:city": "BUTLER", "addr:country": "US", "addr:full": "345 S MAIN ST", "addr:postcode": "16001", "addr:state": "PA", "amenity": "post_box", "brand": "United States Postal Service", "brand:wikidata": "Q668687", "collection_times": "Mo-Fr 17:30; Sa 17:00", "name": "USPS COLLECTION BOX - BLUE BOX", "note": "ON 12/24 AND 12/31, THIS BOX MAY BE COLLECTED AS EARLY AS 12 NOON.", "nsi_id": "unitedstatespostalservice-a77078", "operator": "United States Postal Service", "operator:short": "USPS", "operator:type": "public", "operator:wikidata": "Q668687", "ref": "1600100009"}, "type": "Feature"}
{"dataset_attributes": {"@spider": "usps_collection_boxes", "spider:collection_time": "2023-12-28T08:25:01.581378"}, "geometry": {"coordinates": [-79.895290275, 40.857560816], "type": "Point"}, "id": "mujzJkkRZjkP16BWyXM4NNvO3ik=", "properties": {"@spider": "usps_collection_boxes", "addr:city": "BUTLER", "addr:country": "US", "addr:full": "345 S MAIN ST", "addr:postcode": "16001", "addr:state": "PA", "amenity": "post_box", "brand": "United States Postal Service", "brand:wikidata": "Q668687", "collection_times": "Mo-Fr 17:30; Sa 17:00", "name": "USPS COLLECTION BOX - BLUE BOX", "note": "ON 12/24 AND 12/31, THIS BOX MAY BE COLLECTED AS EARLY AS 12 NOON.", "nsi_id": "unitedstatespostalservice-a77078", "operator": "United States Postal Service", "operator:short": "USPS", "operator:type": "public", "operator:wikidata": "Q668687", "ref": "1600100010"}, "type": "Feature"}
{"dataset_attributes": {"@spider": "usps_collection_boxes", "spider:collection_time": "2023-12-28T08:25:01.581378"}, "geometry": {"coordinates": [-79.895290361, 40.857569246], "type": "Point"}, "id": "Z2bE_iQZDEJQYFKHtlQevaA6u68=", "properties": {"@spider": "usps_collection_boxes", "addr:city": "BUTLER", "addr:country": "US", "addr:full": "345 S MAIN ST", "addr:postcode": "16001", "addr:state": "PA", "amenity": "post_box", "brand": "United States Postal Service", "brand:wikidata": "Q668687", "collection_times": "Mo-Fr 17:30; Sa 17:00", "name": "USPS COLLECTION BOX - BLUE BOX", "note": "ON 12/24 AND 12/31, THIS BOX MAY BE COLLECTED AS EARLY AS 12 NOON.", "nsi_id": "unitedstatespostalservice-a77078", "operator": "United States Postal Service", "operator:short": "USPS", "operator:type": "public", "operator:wikidata": "Q668687", "ref": "1600100012"}, "type": "Feature"}
{"dataset_attributes": {"@spider": "usps_collection_boxes", "spider:collection_time": "2023-12-28T08:25:01.581378"}, "geometry": {"coordinates": [-79.895290361, 40.857569246], "type": "Point"}, "id": "kkF6oHsLtgwt4vMN-p3dG6burac=", "properties": {"@spider": "usps_collection_boxes", "addr:city": "BUTLER", "addr:country": "US", "addr:full": "345 S MAIN ST", "addr:postcode": "16001", "addr:state": "PA", "amenity": "post_box", "brand": "United States Postal Service", "brand:wikidata": "Q668687", "collection_times": "Mo-Fr 17:30; Sa 17:00", "name": "USPS COLLECTION BOX - BLUE BOX", "note": "ON 12/24 AND 12/31, THIS BOX MAY BE COLLECTED AS EARLY AS 12 NOON.", "nsi_id": "unitedstatespostalservice-a77078", "operator": "United States Postal Service", "operator:short": "USPS", "operator:type": "public", "operator:wikidata": "Q668687", "ref": "1600100013"}, "type": "Feature"}
{"dataset_attributes": {"@spider": "usps_collection_boxes", "spider:collection_time": "2023-12-28T08:25:01.581378"}, "geometry": {"coordinates": [-79.895174, 40.858619], "type": "Point"}, "id": "puVtUKQdHVqsxWrJ0cONxOjX3lU=", "properties": {"@spider": "usps_collection_boxes", "addr:city": "BUTLER", "addr:country": "US", "addr:full": "259 S MAIN ST", "addr:postcode": "16001", "addr:state": "PA", "amenity": "post_box", "brand": "United States Postal Service", "brand:wikidata": "Q668687", "collection_times": "Mo-Fr 16:30; Sa 15:30", "name": "USPS COLLECTION BOX - BLUE BOX", "note": "ON 12/24 AND 12/31, THIS BOX MAY BE COLLECTED AS EARLY AS 12 NOON.", "nsi_id": "unitedstatespostalservice-a77078", "operator": "United States Postal Service", "operator:short": "USPS", "operator:type": "public", "operator:wikidata": "Q668687", "ref": "1600100014"}, "type": "Feature"}
{"dataset_attributes": {"@spider": "usps_collection_boxes", "spider:collection_time": "2023-12-28T08:25:01.581378"}, "geometry": {"coordinates": [-79.8936799, 40.860322], "type": "Point"}, "id": "SwkYojK-zhWJOtjn7uAy79IsohQ=", "properties": {"@spider": "usps_collection_boxes", "addr:city": "BUTLER", "addr:country": "US", "addr:full": "114 S MCKEAN ST", "addr:postcode": "16001", "addr:state": "PA", "amenity": "post_box", "brand": "United States Postal Service", "brand:wikidata": "Q668687", "collection_times": "Mo-Sa 16:30", "name": "USPS COLLECTION BOX - BLUE BOX", "note": "ON 12/24 AND 12/31, THIS BOX MAY BE COLLECTED AS EARLY AS 12 NOON.", "nsi_id": "unitedstatespostalservice-a77078", "operator": "United States Postal Service", "operator:short": "USPS", "operator:type": "public", "operator:wikidata": "Q668687", "ref": "1600100016"}, "type": "Feature"}
{"dataset_attributes": {"@spider": "usps_collection_boxes", "spider:collection_time": "2023-12-28T08:25:01.581378"}, "geometry": {"coordinates": [-79.8949432, 40.857688], "type": "Point"}, "id": "z2CV0GpEbhPup1Ff1frT2Ff7VRM=", "properties": {"@spider": "usps_collection_boxes", "addr:city": "BUTLER", "addr:country": "US", "addr:full": "101 E DIAMOND ST", "addr:postcode": "16001", "addr:state": "PA", "amenity": "post_box", "brand": "United States Postal Service", "brand:wikidata": "Q668687", "collection_times": "Mo-Sa 09:30", "name": "USPS COLLECTION BOX - BLUE BOX", "nsi_id": "unitedstatespostalservice-a77078", "operator": "United States Postal Service", "operator:short": "USPS", "operator:type": "public", "operator:wikidata": "Q668687", "ref": "1600100020"}, "type": "Feature"}
{"dataset_attributes": {"@spider": "usps_collection_boxes", "spider:collection_time": "2023-12-28T08:25:01.581378"}, "geometry": {"coordinates": [-79.8818458, 40.867089], "type": "Point"}, "id": "BGabCHxzdOpLQf7EnqH6K7Ms0YM=", "properties": {"@spider": "usps_collection_boxes", "addr:city": "BUTLER", "addr:country": "US", "addr:full": "1 HOSPITAL WAY", "addr:postcode": "16001", "addr:state": "PA", "amenity": "post_box", "brand": "United States Postal Service", "brand:wikidata": "Q668687", "collection_times": "Mo-Sa 14:30", "name": "USPS COLLECTION BOX - BLUE BOX", "note": "ON 12/24 AND 12/31, THIS BOX MAY BE COLLECTED AS EARLY AS 12 NOON.", "nsi_id": "unitedstatespostalservice-a77078", "operator": "United States Postal Service", "operator:short": "USPS", "operator:type": "public", "operator:wikidata": "Q668687", "ref": "1600100023"}, "type": "Feature"}
{"dataset_attributes": {"@spider": "usps_collection_boxes", "spider:collection_time": "2023-12-28T08:25:01.581378"}, "geometry": {"coordinates": [-79.8955676, 40.858306], "type": "Point"}, "id": "Vi2gNMxhhAom_M6qGiAESIdnXWY=", "properties": {"@spider": "usps_collection_boxes", "addr:city": "BUTLER", "addr:country": "US", "addr:full": "300 S MAIN ST", "addr:postcode": "16001", "addr:state": "PA", "amenity": "post_box", "brand": "United States Postal Service", "brand:wikidata": "Q668687", "collection_times": "Mo-Sa 16:30", "name": "USPS COLLECTION BOX - BLUE BOX", "note": "ON 12/24 AND 12/31, THIS BOX MAY BE COLLECTED AS EARLY AS 12 NOON.", "nsi_id": "unitedstatespostalservice-a77078", "operator": "United States Postal Service", "operator:short": "USPS", "operator:type": "public", "operator:wikidata": "Q668687", "ref": "1600100024"}, "type": "Feature"}
{"dataset_attributes": {"@spider": "usps_collection_boxes", "spider:collection_time": "2023-12-28T08:25:01.581378"}, "geometry": {"coordinates": [-79.8968219, 40.861421], "type": "Point"}, "id": "2WCG_AkeEHj54O0OYFLdXLZaPcs=", "properties": {"@spider": "usps_collection_boxes", "addr:city": "BUTLER", "addr:country": "US", "addr:full": "101 N WASHINGTON ST", "addr:postcode": "16001", "addr:state": "PA", "amenity": "post_box", "brand": "United States Postal Service", "brand:wikidata": "Q668687", "collection_times": "Mo-Fr 16:30; Sa 16:00", "name": "USPS COLLECTION BOX - BLUE BOX", "note": "ON 12/24 AND 12/31, THIS BOX MAY BE COLLECTED AS EARLY AS 12 NOON.", "nsi_id": "unitedstatespostalservice-a77078", "operator": "United States Postal Service", "operator:short": "USPS", "operator:type": "public", "operator:wikidata": "Q668687", "ref": "1600100027"}, "type": "Feature"}
{"dataset_attributes": {"@spider": "usps_collection_boxes", "spider:collection_time": "2023-12-28T08:25:01.581378"}, "geometry": {"coordinates": [-79.8970766, 40.861093], "type": "Point"}, "id": "RBKHWalAupPSVnS-kTi-h5YYSME=", "properties": {"@spider": "usps_collection_boxes", "addr:city": "BUTLER", "addr:country": "US", "addr:full": "201 W JEFFERSON ST", "addr:postcode": "16001", "addr:state": "PA", "amenity": "post_box", "brand": "United States Postal Service", "brand:wikidata": "Q668687", "collection_times": "Mo-Fr 16:30; Sa 16:00", "name": "USPS COLLECTION BOX - BLUE BOX", "note": "ON 12/24 AND 12/31, THIS BOX MAY BE COLLECTED AS EARLY AS 12 NOON.", "nsi_id": "unitedstatespostalservice-a77078", "operator": "United States Postal Service", "operator:short": "USPS", "operator:type": "public", "operator:wikidata": "Q668687", "ref": "1600100045"}, "type": "Feature"}
{"dataset_attributes": {"@spider": "usps_collection_boxes", "spider:collection_time": "2023-12-28T08:25:01.581378"}, "geometry": {"coordinates": [-79.9290392, 40.869166], "type": "Point"}, "id": "aVU5dYMK0piPNs2CoSkrSmFDwb4=", "properties": {"@spider": "usps_collection_boxes", "addr:city": "BUTLER", "addr:country": "US", "addr:full": "150 POINT PLZ", "addr:postcode": "16001", "addr:state": "PA", "amenity": "post_box", "brand": "United States Postal Service", "brand:wikidata": "Q668687", "collection_times": "Mo-Sa 09:00", "name": "USPS COLLECTION BOX - BLUE BOX", "nsi_id": "unitedstatespostalservice-a77078", "operator": "United States Postal Service", "operator:short": "USPS", "operator:type": "public", "operator:wikidata": "Q668687", "ref": "1600100054"}, "type": "Feature"}
{"dataset_attributes": {"@spider": "usps_collection_boxes", "spider:collection_time": "2023-12-28T08:25:01.581378"}, "geometry": {"coordinates": [-79.9427743, 40.876112], "type": "Point"}, "id": "MVEYkjusqFgrdOdNIX7SlwJs9Vg=", "properties": {"@spider": "usps_collection_boxes", "addr:city": "BUTLER", "addr:country": "US", "addr:full": "270 BUTLER CMNS", "addr:postcode": "16001", "addr:state": "PA", "amenity": "post_box", "brand": "United States Postal Service", "brand:wikidata": "Q668687", "collection_times": "Mo-Sa 10:00", "name": "USPS COLLECTION BOX - BLUE BOX", "nsi_id": "unitedstatespostalservice-a77078", "operator": "United States Postal Service", "operator:short": "USPS", "operator:type": "public", "operator:wikidata": "Q668687", "ref": "1600100056"}, "type": "Feature"}
{"dataset_attributes": {"@spider": "usps_collection_boxes", "spider:collection_time": "2023-12-28T08:25:01.581378"}, "geometry": {"coordinates": [-79.9503081, 40.874845], "type": "Point"}, "id": "ENfDYMX4pxJAK1Axk-04EG5PRLg=", "properties": {"@spider": "usps_collection_boxes", "addr:city": "BUTLER", "addr:country": "US", "addr:full": "700 MORAINE POINTE PLZ", "addr:postcode": "16001", "addr:state": "PA", "amenity": "post_box", "brand": "United States Postal Service", "brand:wikidata": "Q668687", "collection_times": "Mo-Sa 10:00", "name": "USPS COLLECTION BOX - BLUE BOX", "nsi_id": "unitedstatespostalservice-a77078", "operator": "United States Postal Service", "operator:short": "USPS", "operator:type": "public", "operator:wikidata": "Q668687", "ref": "1600100057"}, "type": "Feature"}
{"dataset_attributes": {"@spider": "usps_collection_boxes", "spider:collection_time": "2023-12-28T08:25:01.581378"}, "geometry": {"coordinates": [-79.9520424, 40.866324], "type": "Point"}, "id": "qEMbxqX2j3SkyDwVe_5s0fQCe6U=", "properties": {"@spider": "usps_collection_boxes", "addr:city": "BUTLER", "addr:country": "US", "addr:full": "500 STIRLING VLG", "addr:postcode": "16001", "addr:state": "PA", "amenity": "post_box", "brand": "United States Postal Service", "brand:wikidata": "Q668687", "collection_times": "Mo-Sa 13:30", "name": "USPS COLLECTION BOX - BLUE BOX", "note": "ON 12/24 AND 12/31, THIS BOX MAY BE COLLECTED AS EARLY AS 12 NOON.", "nsi_id": "unitedstatespostalservice-a77078", "operator": "United States Postal Service", "operator:short": "USPS", "operator:type": "public", "operator:wikidata": "Q668687", "ref": "1600100060"}, "type": "Feature"}
{"dataset_attributes": {"@spider": "usps_collection_boxes", "spider:collection_time": "2023-12-28T08:25:01.581378"}, "geometry": {"coordinates": [-79.8985549, 40.881635], "type": "Point"}, "id": "YQk3DFap2SSY8tk-hL9645AXQGM=", "properties": {"@spider": "usps_collection_boxes", "addr:city": "BUTLER", "addr:country": "US", "addr:full": "1 ARMSTRONG PL", "addr:postcode": "16001", "addr:state": "PA", "amenity": "post_box", "brand": "United States Postal Service", "brand:wikidata": "Q668687", "collection_times": "Mo-Sa 14:30", "name": "USPS COLLECTION BOX - BLUE BOX", "note": "ON 12/24 AND 12/31, THIS BOX MAY BE COLLECTED AS EARLY AS 12 NOON.", "nsi_id": "unitedstatespostalservice-a77078", "operator": "United States Postal Service", "operator:short": "USPS", "operator:type": "public", "operator:wikidata": "Q668687", "ref": "1600100061"}, "type": "Feature"}
{"dataset_attributes": {"@spider": "usps_collection_boxes", "spider:collection_time": "2023-12-28T08:25:01.581378"}, "geometry": {"coordinates": [-79.8928279, 40.860386], "type": "Point"}, "id": "QkVGF5boeVv4A_pdesBCISTV3qM=", "properties": {"@spider": "usps_collection_boxes", "addr:city": "BUTLER", "addr:country": "US", "addr:full": "111 S CLIFF ST", "addr:postcode": "16001", "addr:state": "PA", "amenity": "post_box", "brand": "United States Postal Service", "brand:wikidata": "Q668687", "collection_times": "Mo-Sa 10:00", "name": "USPS COLLECTION BOX - BLUE BOX", "nsi_id": "unitedstatespostalservice-a77078", "operator": "United States Postal Service", "operator:short": "USPS", "operator:type": "public", "operator:wikidata": "Q668687", "ref": "1600100062"}, "type": "Feature"}
{"dataset_attributes": {"@spider": "usps_collection_boxes", "spider:collection_time": "2023-12-28T08:25:01.581378"}, "geometry": {"coordinates": [-79.9049811, 40.895223], "type": "Point"}, "id": "8jEOEnrKP1Z_Zr9SbYERKD93Plo=", "properties": {"@spider": "usps_collection_boxes", "addr:city": "BUTLER", "addr:country": "US", "addr:full": "101 CLEARVIEW CIR", "addr:postcode": "16001", "addr:state": "PA", "amenity": "post_box", "brand": "United States Postal Service", "brand:wikidata": "Q668687", "collection_times": "Mo-Sa 14:00", "name": "USPS COLLECTION BOX - BLUE BOX", "note": "ON 12/24 AND 12/31, THIS BOX MAY BE COLLECTED AS EARLY AS 12 NOON.", "nsi_id": "unitedstatespostalservice-a77078", "operator": "United States Postal Service", "operator:short": "USPS", "operator:type": "public", "operator:wikidata": "Q668687", "ref": "1600100063"}, "type": "Feature"}
{"dataset_attributes": {"@spider": "usps_collection_boxes", "spider:collection_time": "2023-12-28T08:25:01.581378"}, "geometry": {"coordinates": [-79.8978103, 40.881577], "type": "Point"}, "id": "6Stbr3dvfHuof4LHsP2xTDL88cI=", "properties": {"@spider": "usps_collection_boxes", "addr:city": "BUTLER", "addr:country": "US", "addr:full": "160 BON AIRE PLZ", "addr:postcode": "16001", "addr:state": "PA", "amenity": "post_box", "brand": "United States Postal Service", "brand:wikidata": "Q668687", "collection_times": "Mo-Sa 13:30", "name": "USPS COLLECTION BOX - BLUE BOX", "note": "ON 12/24 AND 12/31, THIS BOX MAY BE COLLECTED AS EARLY AS 12 NOON.", "nsi_id": "unitedstatespostalservice-a77078", "operator": "United States Postal Service", "operator:short": "USPS", "operator:type": "public", "operator:wikidata": "Q668687", "ref": "1600100070"}, "type": "Feature"}
{"dataset_attributes": {"@spider": "usps_collection_boxes", "spider:collection_time": "2023-12-28T08:25:01.581378"}, "geometry": {"coordinates": [-79.8999806, 40.851378], "type": "Point"}, "id": "vdl67vHzqcnzbvOQDiMn56CSvME=", "properties": {"@spider": "usps_collection_boxes", "addr:city": "BUTLER", "addr:country": "US", "addr:full": "105 GREENVIEW DR", "addr:postcode": "16001", "addr:state": "PA", "amenity": "post_box", "brand": "United States Postal Service", "brand:wikidata": "Q668687", "collection_times": "Mo-Sa 11:00", "name": "USPS COLLECTION BOX - BLUE BOX", "nsi_id": "unitedstatespostalservice-a77078", "operator": "United States Postal Service", "operator:short": "USPS", "operator:type": "public", "operator:wikidata": "Q668687", "ref": "1600100071"}, "type": "Feature"}
{"dataset_attributes": {"@spider": "usps_collection_boxes", "spider:collection_time": "2023-12-28T08:25:01.581378"}, "geometry": {"coordinates": [-79.8936845, 40.857473], "type": "Point"}, "id": "9Dj7N3R11jSEe_XG7jMENKNm5HE=", "properties": {"@spider": "usps_collection_boxes", "addr:city": "BUTLER", "addr:country": "US", "addr:full": "325 S MCKEAN ST", "addr:postcode": "16001", "addr:state": "PA", "amenity": "post_box", "brand": "United States Postal Service", "brand:wikidata": "Q668687", "collection_times": "Mo-Sa 09:00", "name": "USPS COLLECTION BOX - BLUE BOX", "nsi_id": "unitedstatespostalservice-a77078", "operator": "United States Postal Service", "operator:short": "USPS", "operator:type": "public", "operator:wikidata": "Q668687", "ref": "1600100072"}, "type": "Feature"}
{"dataset_attributes": {"@spider": "usps_collection_boxes", "spider:collection_time": "2023-12-28T08:25:01.581378"}, "geometry": {"coordinates": [-79.908559, 40.858004], "type": "Point"}, "id": "5xRQdy6Nvl8ydGabbtxNpciotLY=", "properties": {"@spider": "usps_collection_boxes", "addr:city": "BUTLER", "addr:country": "US", "addr:full": "235 PULLMAN SQ", "addr:postcode": "16001", "addr:state": "PA", "amenity": "post_box", "brand": "United States Postal Service", "brand:wikidata": "Q668687", "collection_times": "Mo-Sa 09:00", "name": "USPS COLLECTION BOX - BLUE BOX", "nsi_id": "unitedstatespostalservice-a77078", "operator": "United States Postal Service", "operator:short": "USPS", "operator:type": "public", "operator:wikidata": "Q668687", "ref": "1600100073"}, "type": "Feature"}
{"dataset_attributes": {"@spider": "usps_collection_boxes", "spider:collection_time": "2023-12-28T08:25:01.581378"}, "geometry": {"coordinates": [-79.9320411, 40.873076], "type": "Point"}, "id": "BYec7H7jyQ6suhbP-hqDW3E13JA=", "properties": {"@spider": "usps_collection_boxes", "addr:city": "BUTLER", "addr:country": "US", "addr:full": "190 ALAMEDA RD", "addr:postcode": "16001", "addr:state": "PA", "amenity": "post_box", "brand": "United States Postal Service", "brand:wikidata": "Q668687", "collection_times": "Mo-Sa 11:00", "name": "USPS COLLECTION BOX - BLUE BOX", "nsi_id": "unitedstatespostalservice-a77078", "operator": "United States Postal Service", "operator:short": "USPS", "operator:type": "public", "operator:wikidata": "Q668687", "ref": "1600100076"}, "type": "Feature"}
{"dataset_attributes": {"@spider": "usps_collection_boxes", "spider:collection_time": "2023-12-28T08:25:01.581378"}, "geometry": {"coordinates": [-79.9055223, 40.896888], "type": "Point"}, "id": "XiqATJbrspgLsm-SkT7Yh82qAU0=", "properties": {"@spider": "usps_collection_boxes", "addr:city": "BUTLER", "addr:country": "US", "addr:full": "101 CLEARVIEW CIR", "addr:postcode": "16001", "addr:state": "PA", "amenity": "post_box", "brand": "United States Postal Service", "brand:wikidata": "Q668687", "collection_times": "Mo-Sa 14:00", "name": "USPS COLLECTION BOX - BLUE BOX", "note": "ON 12/24 AND 12/31, THIS BOX MAY BE COLLECTED AS EARLY AS 12 NOON.", "nsi_id": "unitedstatespostalservice-a77078", "operator": "United States Postal Service", "operator:short": "USPS", "operator:type": "public", "operator:wikidata": "Q668687", "ref": "1600100079"}, "type": "Feature"}
{"dataset_attributes": {"@spider": "usps_collection_boxes", "spider:collection_time": "2023-12-28T08:25:01.581378"}, "geometry": {"coordinates": [-79.9163708, 40.843269], "type": "Point"}, "id": "_FPGyMUWM0z6TYprC1uXNquAjWY=", "properties": {"@spider": "usps_collection_boxes", "addr:city": "BUTLER", "addr:country": "US", "addr:full": "220 GREATER BUTLER MART", "addr:postcode": "16001", "addr:state": "PA", "amenity": "post_box", "brand": "United States Postal Service", "brand:wikidata": "Q668687", "collection_times": "Mo-Sa 13:00", "name": "USPS COLLECTION BOX - BLUE BOX", "note": "ON 12/24 AND 12/31, THIS BOX MAY BE COLLECTED AS EARLY AS 12 NOON.", "nsi_id": "unitedstatespostalservice-a77078", "operator": "United States Postal Service", "operator:short": "USPS", "operator:type": "public", "operator:wikidata": "Q668687", "ref": "1600100082"}, "type": "Feature"}
{"dataset_attributes": {"@spider": "usps_collection_boxes", "spider:collection_time": "2023-12-28T08:25:01.581378"}, "geometry": {"coordinates": [-79.8894714, 40.85529], "type": "Point"}, "id": "gI4tzWcbIwJGM8_HHQrfLKqcjPA=", "properties": {"@spider": "usps_collection_boxes", "addr:city": "BUTLER", "addr:country": "US", "addr:full": "329 CENTER AVE", "addr:postcode": "16001", "addr:state": "PA", "amenity": "post_box", "brand": "United States Postal Service", "brand:wikidata": "Q668687", "collection_times": "Mo-Sa 14:30", "name": "USPS COLLECTION BOX - BLUE BOX", "note": "ON 12/24 AND 12/31, THIS BOX MAY BE COLLECTED AS EARLY AS 12 NOON.", "nsi_id": "unitedstatespostalservice-a77078", "operator": "United States Postal Service", "operator:short": "USPS", "operator:type": "public", "operator:wikidata": "Q668687", "ref": "1600100083"}, "type": "Feature"}
{"dataset_attributes": {"@spider": "usps_collection_boxes", "spider:collection_time": "2023-12-28T08:25:01.581378"}, "geometry": {"coordinates": [-79.895290275, 40.857560816], "type": "Point"}, "id": "4I0UEULklKuSixXv78hRZVPA_u0=", "properties": {"@spider": "usps_collection_boxes", "addr:city": "BUTLER", "addr:country": "US", "addr:full": "345 S MAIN ST", "addr:postcode": "16001", "addr:state": "PA", "amenity": "post_box", "brand": "United States Postal Service", "brand:wikidata": "Q668687", "collection_times": "Mo-Fr 17:30; Sa 17:15", "name": "USPS COLLECTION BOX - PO LOBBY", "note": "ON 12/24 AND 12/31, THIS BOX MAY BE COLLECTED AS EARLY AS 12 NOON.", "nsi_id": "unitedstatespostalservice-a77078", "operator": "United States Postal Service", "operator:short": "USPS", "operator:type": "public", "operator:wikidata": "Q668687", "ref": "1600100084"}, "type": "Feature"}
{"dataset_attributes": {"@spider": "usps_collection_boxes", "spider:collection_time": "2023-12-28T08:25:01.581378"}, "geometry": {"coordinates": [-79.9085386, 40.854664], "type": "Point"}, "id": "2fBg9NgW-vJji8evmfELQJJDZZQ=", "properties": {"@spider": "usps_collection_boxes", "addr:city": "BUTLER", "addr:country": "US", "addr:full": "112 WOODY DR", "addr:postcode": "16001", "addr:state": "PA", "amenity": "post_box", "brand": "United States Postal Service", "brand:wikidata": "Q668687", "collection_times": "Mo-Sa 09:00", "name": "USPS COLLECTION BOX - BLUE BOX", "nsi_id": "unitedstatespostalservice-a77078", "operator": "United States Postal Service", "operator:short": "USPS", "operator:type": "public", "operator:wikidata": "Q668687", "ref": "1600100085"}, "type": "Feature"}
{"dataset_attributes": {"@spider": "usps_collection_boxes", "spider:collection_time": "2023-12-28T08:25:01.581378"}, "geometry": {"coordinates": [-79.9100160412, 40.8533930177], "type": "Point"}, "id": "977eaVvguoeRqXPfPuQDMl3jaB8=", "properties": {"@spider": "usps_collection_boxes", "addr:city": "BUTLER", "addr:country": "US", "addr:full": "120 HOLLYWOOD DR", "addr:postcode": "16001", "addr:state": "PA", "amenity": "post_box", "brand": "United States Postal Service", "brand:wikidata": "Q668687", "collection_times": "Mo-Sa 09:00", "name": "USPS COLLECTION BOX - BLUE BOX", "nsi_id": "unitedstatespostalservice-a77078", "operator": "United States Postal Service", "operator:short": "USPS", "operator:type": "public", "operator:wikidata": "Q668687", "ref": "1600100086"}, "type": "Feature"}
{"dataset_attributes": {"@spider": "usps_collection_boxes", "spider:collection_time": "2023-12-28T08:25:01.581378"}, "geometry": {"coordinates": [-79.8961379, 40.858529], "type": "Point"}, "id": "DyvcfY0NJsGWDXMGHvR2hFTFdfQ=", "properties": {"@spider": "usps_collection_boxes", "addr:city": "BUTLER", "addr:country": "US", "addr:full": "124 W DIAMOND ST", "addr:postcode": "16001", "addr:state": "PA", "amenity": "post_box", "brand": "United States Postal Service", "brand:wikidata": "Q668687", "collection_times": "Mo-Sa 16:30", "name": "USPS COLLECTION BOX - BLUE BOX", "note": "ON 12/24 AND 12/31, THIS BOX MAY BE COLLECTED AS EARLY AS 12 NOON.", "nsi_id": "unitedstatespostalservice-a77078", "operator": "United States Postal Service", "operator:short": "USPS", "operator:type": "public", "operator:wikidata": "Q668687", "ref": "1600100089"}, "type": "Feature"}
{"dataset_attributes": {"@spider": "usps_collection_boxes", "spider:collection_time": "2023-12-28T08:25:01.581378"}, "geometry": {"coordinates": [-79.895290275, 40.857560816], "type": "Point"}, "id": "XSommVYjCJTZ8rFvg8EX2K4sc8M=", "properties": {"@spider": "usps_collection_boxes", "addr:city": "BUTLER", "addr:country": "US", "addr:full": "345 S MAIN ST", "addr:postcode": "16001", "addr:state": "PA", "amenity": "post_box", "brand": "United States Postal Service", "brand:wikidata": "Q668687", "collection_times": "Mo-Fr 17:00; Sa 12:00", "name": "USPS COLLECTION BOX - PO LOBBY", "note": "ON 12/24 AND 12/31, THIS BOX MAY BE COLLECTED AS EARLY AS 12 NOON.", "nsi_id": "unitedstatespostalservice-a77078", "operator": "United States Postal Service", "operator:short": "USPS", "operator:type": "public", "operator:wikidata": "Q668687", "ref": "1600100094"}, "type": "Feature"}
{"dataset_attributes": {"@spider": "usps_collection_boxes", "spider:collection_time": "2023-12-28T08:25:01.581378"}, "geometry": {"coordinates": [-79.901091477, 41.108482478], "type": "Point"}, "id": "Eagf_Vxci8LWaK49kxPtbtJxenM=", "properties": {"@spider": "usps_collection_boxes", "addr:city": "BOYERS", "addr:country": "US", "addr:full": "1188 BOYERS RD", "addr:postcode": "16020", "addr:state": "PA", "amenity": "post_box", "brand": "United States Postal Service", "brand:wikidata": "Q668687", "collection_times": "Mo-Fr 16:00; Sa 12:00", "name": "USPS COLLECTION BOX - BLUE BOX", "note": "ON 12/24 AND 12/31, THIS BOX MAY BE COLLECTED AS EARLY AS 12 NOON.", "nsi_id": "unitedstatespostalservice-a77078", "operator": "United States Postal Service", "operator:short": "USPS", "operator:type": "public", "operator:wikidata": "Q668687", "ref": "1602000000"}, "type": "Feature"}
{"dataset_attributes": {"@spider": "usps_collection_boxes", "spider:collection_time": "2023-12-28T08:25:01.581378"}, "geometry": {"coordinates": [-79.901091477, 41.108482478], "type": "Point"}, "id": "6aV9a81rOTPVrn5Bgj2v18irUzg=", "properties": {"@spider": "usps_collection_boxes", "addr:city": "BOYERS", "addr:country": "US", "addr:full": "1188 BOYERS RD", "addr:postcode": "16020", "addr:state": "PA", "amenity": "post_box", "brand": "United States Postal Service", "brand:wikidata": "Q668687", "collection_times": "Mo-Fr 16:15; Sa 12:00", "name": "USPS COLLECTION BOX - PO LOBBY", "note": "ON 12/24 AND 12/31, THIS BOX MAY BE COLLECTED AS EARLY AS 12 NOON.", "nsi_id": "unitedstatespostalservice-a77078", "operator": "United States Postal Service", "operator:short": "USPS", "operator:type": "public", "operator:wikidata": "Q668687", "ref": "1602000001"}, "type": "Feature"}
{"dataset_attributes": {"@spider": "usps_collection_boxes", "spider:collection_time": "2023-12-28T08:25:01.581378"}, "geometry": {"coordinates": [-79.901091477, 41.108482478], "type": "Point"}, "id": "R23fpBvZOjiiQD1X4yHCoV73Ba8=", "properties": {"@spider": "usps_collection_boxes", "addr:city": "BOYERS", "addr:country": "US", "addr:full": "1188 BOYERS RD", "addr:postcode": "16020", "addr:state": "PA", "amenity": "post_box", "brand": "United States Postal Service", "brand:wikidata": "Q668687", "collection_times": "Mo-Fr 16:15; Sa 12:00", "name": "USPS COLLECTION BOX - PO LOBBY", "note": "ON 12/24 AND 12/31, THIS BOX MAY BE COLLECTED AS EARLY AS 12 NOON.", "nsi_id": "unitedstatespostalservice-a77078", "operator": "United States Postal Service", "operator:short": "USPS", "operator:type": "public", "operator:wikidata": "Q668687", "ref": "1602000003"}, "type": "Feature"}
{"dataset_attributes": {"@spider": "usps_collection_boxes", "spider:collection_time": "2023-12-28T08:25:01.581378"}, "geometry": {"coordinates": [-79.727489847, 41.057993932], "type": "Point"}, "id": "fDn_-rQ_6Kdd8bApI72jE3ZXEyg=", "properties": {"@spider": "usps_collection_boxes", "addr:city": "BRUIN", "addr:country": "US", "addr:full": "105 WASHINGTON ST", "addr:postcode": "16022", "addr:state": "PA", "amenity": "post_box", "brand": "United States Postal Service", "brand:wikidata": "Q668687", "collection_times": "Mo-Fr 11:55; Sa 11:45", "name": "USPS COLLECTION BOX - BLUE BOX", "nsi_id": "unitedstatespostalservice-a77078", "operator": "United States Postal Service", "operator:short": "USPS", "operator:type": "public", "operator:wikidata": "Q668687", "ref": "1602200000"}, "type": "Feature"}
{"dataset_attributes": {"@spider": "usps_collection_boxes", "spider:collection_time": "2023-12-28T08:25:01.581378"}, "geometry": {"coordinates": [-79.727489847, 41.057993932], "type": "Point"}, "id": "vLJ6T0drO-rq_ZPp5wVOegTDbR8=", "properties": {"@spider": "usps_collection_boxes", "addr:city": "BRUIN", "addr:country": "US", "addr:full": "105 WASHINGTON ST", "addr:postcode": "16022", "addr:state": "PA", "amenity": "post_box", "brand": "United States Postal Service", "brand:wikidata": "Q668687", "collection_times": "Mo-Fr 11:55; Sa 11:45", "name": "USPS COLLECTION BOX - PO LOBBY", "nsi_id": "unitedstatespostalservice-a77078", "operator": "United States Postal Service", "operator:short": "USPS", "operator:type": "public", "operator:wikidata": "Q668687", "ref": "1602200001"}, "type": "Feature"}
{"dataset_attributes": {"@spider": "usps_collection_boxes", "spider:collection_time": "2023-12-28T08:25:01.581378"}, "geometry": {"coordinates": [-79.727489847, 41.057993932], "type": "Point"}, "id": "49iI_uOoG215QWUSyeLQrNVfxAI=", "properties": {"@spider": "usps_collection_boxes", "addr:city": "BRUIN", "addr:country": "US", "addr:full": "105 WASHINGTON ST", "addr:postcode": "16022", "addr:state": "PA", "amenity": "post_box", "brand": "United States Postal Service", "brand:wikidata": "Q668687", "collection_times": "Mo-Fr 11:55; Sa 11:40", "name": "USPS COLLECTION BOX - PO LOBBY", "nsi_id": "unitedstatespostalservice-a77078", "operator": "United States Postal Service", "operator:short": "USPS", "operator:type": "public", "operator:wikidata": "Q668687", "ref": "1602200003"}, "type": "Feature"}
{"dataset_attributes": {"@spider": "usps_collection_boxes", "spider:collection_time": "2023-12-28T08:25:01.581378"}, "geometry": {"coordinates": [-79.766987011, 40.764033291], "type": "Point"}, "id": "PxA3Mkhildzl4aRZnAyz0wMhQmg=", "properties": {"@spider": "usps_collection_boxes", "addr:city": "CABOT", "addr:country": "US", "addr:full": "452 WINFIELD RD", "addr:postcode": "16023", "addr:state": "PA", "amenity": "post_box", "brand": "United States Postal Service", "brand:wikidata": "Q668687", "collection_times": "Mo-Fr 16:30; Sa 11:30", "name": "USPS COLLECTION BOX - BLUE BOX", "note": "ON 12/24 AND 12/31, THIS BOX MAY BE COLLECTED AS EARLY AS 12 NOON.", "nsi_id": "unitedstatespostalservice-a77078", "operator": "United States Postal Service", "operator:short": "USPS", "operator:type": "public", "operator:wikidata": "Q668687", "ref": "1602300004"}, "type": "Feature"}
{"dataset_attributes": {"@spider": "usps_collection_boxes", "spider:collection_time": "2023-12-28T08:25:01.581378"}, "geometry": {"coordinates": [-79.766987011, 40.764033291], "type": "Point"}, "id": "2lERXwU0RRrEWt4ioS9Y-FfV5LI=", "properties": {"@spider": "usps_collection_boxes", "addr:city": "CABOT", "addr:country": "US", "addr:full": "452 WINFIELD RD", "addr:postcode": "16023", "addr:state": "PA", "amenity": "post_box", "brand": "United States Postal Service", "brand:wikidata": "Q668687", "collection_times": "Mo-Fr 16:30; Sa 11:30", "name": "USPS COLLECTION BOX - PO LOBBY", "note": "ON 12/24 AND 12/31, THIS BOX MAY BE COLLECTED AS EARLY AS 12 NOON.", "nsi_id": "unitedstatespostalservice-a77078", "operator": "United States Postal Service", "operator:short": "USPS", "operator:type": "public", "operator:wikidata": "Q668687", "ref": "1602300005"}, "type": "Feature"}
{"dataset_attributes": {"@spider": "usps_collection_boxes", "spider:collection_time": "2023-12-28T08:25:01.581378"}, "geometry": {"coordinates": [-79.766987011, 40.764033291], "type": "Point"}, "id": "OmEwi3voByT7pNbMhY9m0Q6cW-4=", "properties": {"@spider": "usps_collection_boxes", "addr:city": "CABOT", "addr:country": "US", "addr:full": "452 WINFIELD RD", "addr:postcode": "16023", "addr:state": "PA", "amenity": "post_box", "brand": "United States Postal Service", "brand:wikidata": "Q668687", "collection_times": "Mo-Fr 16:30; Sa 12:00", "name": "USPS COLLECTION BOX - PO LOBBY", "note": "ON 12/24 AND 12/31, THIS BOX MAY BE COLLECTED AS EARLY AS 12 NOON.", "nsi_id": "unitedstatespostalservice-a77078", "operator": "United States Postal Service", "operator:short": "USPS", "operator:type": "public", "operator:wikidata": "Q668687", "ref": "1602300007"}, "type": "Feature"}
{"dataset_attributes": {"@spider": "usps_collection_boxes", "spider:collection_time": "2023-12-28T08:25:01.581378"}, "geometry": {"coordinates": [-80.035856781, 40.738166056], "type": "Point"}, "id": "Lz-RPnH2UlOQHEgLVyHu3Lf9qhk=", "properties": {"@spider": "usps_collection_boxes", "addr:city": "CALLERY", "addr:country": "US", "addr:full": "172 RAILROAD ST", "addr:postcode": "16024", "addr:state": "PA", "amenity": "post_box", "brand": "United States Postal Service", "brand:wikidata": "Q668687", "collection_times": "Mo-Fr 11:55; Sa 12:00", "name": "USPS COLLECTION BOX - BLUE BOX", "nsi_id": "unitedstatespostalservice-a77078", "operator": "United States Postal Service", "operator:short": "USPS", "operator:type": "public", "operator:wikidata": "Q668687", "ref": "1602400000"}, "type": "Feature"}
{"dataset_attributes": {"@spider": "usps_collection_boxes", "spider:collection_time": "2023-12-28T08:25:01.581378"}, "geometry": {"coordinates": [-80.035856781, 40.738166056], "type": "Point"}, "id": "5-2q1k1AVQ4S6dlRzraIju4gWFg=", "properties": {"@spider": "usps_collection_boxes", "addr:city": "CALLERY", "addr:country": "US", "addr:full": "172 RAILROAD ST", "addr:postcode": "16024", "addr:state": "PA", "amenity": "post_box", "brand": "United States Postal Service", "brand:wikidata": "Q668687", "collection_times": "Mo-Fr 11:55; Sa 12:00", "name": "USPS COLLECTION BOX - PO LOBBY", "nsi_id": "unitedstatespostalservice-a77078", "operator": "United States Postal Service", "operator:short": "USPS", "operator:type": "public", "operator:wikidata": "Q668687", "ref": "1602400001"}, "type": "Feature"}
{"dataset_attributes": {"@spider": "usps_collection_boxes", "spider:collection_time": "2023-12-28T08:25:01.581378"}, "geometry": {"coordinates": [-80.035856781, 40.738166056], "type": "Point"}, "id": "xE5Gcpma3vU7jx-VniwD7EonGOI=", "properties": {"@spider": "usps_collection_boxes", "addr:city": "CALLERY", "addr:country": "US", "addr:full": "172 RAILROAD ST", "addr:postcode": "16024", "addr:state": "PA", "amenity": "post_box", "brand": "United States Postal Service", "brand:wikidata": "Q668687", "collection_times": "Mo-Sa 11:55", "name": "USPS COLLECTION BOX - PO LOBBY", "nsi_id": "unitedstatespostalservice-a77078", "operator": "United States Postal Service", "operator:short": "USPS", "operator:type": "public", "operator:wikidata": "Q668687", "ref": "1602400003"}, "type": "Feature"}
{"dataset_attributes": {"@spider": "usps_collection_boxes", "spider:collection_time": "2023-12-28T08:25:01.581378"}, "geometry": {"coordinates": [-79.745302882, 40.949196177], "type": "Point"}, "id": "nl5AxNpRzYl6_tfO7x6xyvhL6kc=", "properties": {"@spider": "usps_collection_boxes", "addr:city": "CHICORA", "addr:country": "US", "addr:full": "132 W SLIPPERY ROCK ST", "addr:postcode": "16025", "addr:state": "PA", "amenity": "post_box", "brand": "United States Postal Service", "brand:wikidata": "Q668687", "collection_times": "Mo-Fr 16:45; Sa 11:45", "name": "USPS COLLECTION BOX - BLUE BOX", "note": "ON 12/24 AND 12/31, THIS BOX MAY BE COLLECTED AS EARLY AS 12 NOON.", "nsi_id": "unitedstatespostalservice-a77078", "operator": "United States Postal Service", "operator:short": "USPS", "operator:type": "public", "operator:wikidata": "Q668687", "ref": "1602500000"}, "type": "Feature"}
{"dataset_attributes": {"@spider": "usps_collection_boxes", "spider:collection_time": "2023-12-28T08:25:01.581378"}, "geometry": {"coordinates": [-79.745302882, 40.949196177], "type": "Point"}, "id": "E7EQaiHW2cW0NmHpxsKhyPjXyWM=", "properties": {"@spider": "usps_collection_boxes", "addr:city": "CHICORA", "addr:country": "US", "addr:full": "132 W SLIPPERY ROCK ST", "addr:postcode": "16025", "addr:state": "PA", "amenity": "post_box", "brand": "United States Postal Service", "brand:wikidata": "Q668687", "collection_times": "Mo-Fr 16:45; Sa 11:45", "name": "USPS COLLECTION BOX - PO LOBBY", "note": "ON 12/24 AND 12/31, THIS BOX MAY BE COLLECTED AS EARLY AS 12 NOON.", "nsi_id": "unitedstatespostalservice-a77078", "operator": "United States Postal Service", "operator:short": "USPS", "operator:type": "public", "operator:wikidata": "Q668687", "ref": "1602500001"}, "type": "Feature"}
{"dataset_attributes": {"@spider": "usps_collection_boxes", "spider:collection_time": "2023-12-28T08:25:01.581378"}, "geometry": {"coordinates": [-79.745302882, 40.949196177], "type": "Point"}, "id": "5ECWTPWFLZ9h96a3Bs36lZOIdWc=", "properties": {"@spider": "usps_collection_boxes", "addr:city": "CHICORA", "addr:country": "US", "addr:full": "132 W SLIPPERY ROCK ST", "addr:postcode": "16025", "addr:state": "PA", "amenity": "post_box", "brand": "United States Postal Service", "brand:wikidata": "Q668687", "collection_times": "Mo-Fr 16:30; Sa 11:45", "name": "USPS COLLECTION BOX - PO LOBBY", "note": "ON 12/24 AND 12/31, THIS BOX MAY BE COLLECTED AS EARLY AS 12 NOON.", "nsi_id": "unitedstatespostalservice-a77078", "operator": "United States Postal Service", "operator:short": "USPS", "operator:type": "public", "operator:wikidata": "Q668687", "ref": "1602500003"}, "type": "Feature"}
{"dataset_attributes": {"@spider": "usps_collection_boxes", "spider:collection_time": "2023-12-28T08:25:01.581378"}, "geometry": {"coordinates": [-80.01423378, 40.817593525], "type": "Point"}, "id": "3H4NUlAZ5z4NGwTjYD5TEAYiWQA=", "properties": {"@spider": "usps_collection_boxes", "addr:city": "CONNOQUENESSING", "addr:country": "US", "addr:full": "175 CONNOQUENESSING MAIN ST", "addr:postcode": "16027", "addr:state": "PA", "amenity": "post_box", "brand": "United States Postal Service", "brand:wikidata": "Q668687", "collection_times": "Mo-Fr 16:45; Sa 11:15", "name": "USPS COLLECTION BOX - BLUE BOX", "note": "ON 12/24 AND 12/31, THIS BOX MAY BE COLLECTED AS EARLY AS 12 NOON.", "nsi_id": "unitedstatespostalservice-a77078", "operator": "United States Postal Service", "operator:short": "USPS", "operator:type": "public", "operator:wikidata": "Q668687", "ref": "1602700000"}, "type": "Feature"}
{"dataset_attributes": {"@spider": "usps_collection_boxes", "spider:collection_time": "2023-12-28T08:25:01.581378"}, "geometry": {"coordinates": [-80.01423378, 40.817593525], "type": "Point"}, "id": "GF7hgL1zeTUDrWu2dGYA1nuxrWM=", "properties": {"@spider": "usps_collection_boxes", "addr:city": "CONNOQUENESSING", "addr:country": "US", "addr:full": "175 CONNOQUENESSING MAIN ST", "addr:postcode": "16027", "addr:state": "PA", "amenity": "post_box", "brand": "United States Postal Service", "brand:wikidata": "Q668687", "collection_times": "Mo-Fr 16:45; Sa 11:30", "name": "USPS COLLECTION BOX - PO LOBBY", "note": "ON 12/24 AND 12/31, THIS BOX MAY BE COLLECTED AS EARLY AS 12 NOON.", "nsi_id": "unitedstatespostalservice-a77078", "operator": "United States Postal Service", "operator:short": "USPS", "operator:type": "public", "operator:wikidata": "Q668687", "ref": "1602700001"}, "type": "Feature"}
{"dataset_attributes": {"@spider": "usps_collection_boxes", "spider:collection_time": "2023-12-28T08:25:01.581378"}, "geometry": {"coordinates": [-80.01423378, 40.817593525], "type": "Point"}, "id": "GXVdHLxg4wRvt_wFFS3xuVDdE0A=", "properties": {"@spider": "usps_collection_boxes", "addr:city": "CONNOQUENESSING", "addr:country": "US", "addr:full": "175 CONNOQUENESSING MAIN ST", "addr:postcode": "16027", "addr:state": "PA", "amenity": "post_box", "brand": "United States Postal Service", "brand:wikidata": "Q668687", "collection_times": "Mo-Fr 16:45; Sa 11:30", "name": "USPS COLLECTION BOX - PO LOBBY", "note": "ON 12/24 AND 12/31, THIS BOX MAY BE COLLECTED AS EARLY AS 12 NOON.", "nsi_id": "unitedstatespostalservice-a77078", "operator": "United States Postal Service", "operator:short": "USPS", "operator:type": "public", "operator:wikidata": "Q668687", "ref": "1602700003"}, "type": "Feature"}
{"dataset_attributes": {"@spider": "usps_collection_boxes", "spider:collection_time": "2023-12-28T08:25:01.581378"}, "geometry": {"coordinates": [-79.616161204, 40.987163776], "type": "Point"}, "id": "1vh7fpzJq33K4xSw_eIhOzx_3u8=", "properties": {"@spider": "usps_collection_boxes", "addr:city": "EAST BRADY", "addr:country": "US", "addr:full": "422 KELLYS WAY", "addr:postcode": "16028", "addr:state": "PA", "amenity": "post_box", "brand": "United States Postal Service", "brand:wikidata": "Q668687", "collection_times": "Mo-Fr 16:00; Sa 12:00", "name": "USPS COLLECTION BOX - BLUE BOX", "note": "ON 12/24 AND 12/31, THIS BOX MAY BE COLLECTED AS EARLY AS 12 NOON.", "nsi_id": "unitedstatespostalservice-a77078", "operator": "United States Postal Service", "operator:short": "USPS", "operator:type": "public", "operator:wikidata": "Q668687", "ref": "1602800000"}, "type": "Feature"}
{"dataset_attributes": {"@spider": "usps_collection_boxes", "spider:collection_time": "2023-12-28T08:25:01.581378"}, "geometry": {"coordinates": [-79.616161204, 40.987163776], "type": "Point"}, "id": "N_r1j7bP082ABHmdBNQoqcyEPrY=", "properties": {"@spider": "usps_collection_boxes", "addr:city": "EAST BRADY", "addr:country": "US", "addr:full": "422 KELLYS WAY", "addr:postcode": "16028", "addr:state": "PA", "amenity": "post_box", "brand": "United States Postal Service", "brand:wikidata": "Q668687", "collection_times": "Mo-Fr 16:00; Sa 12:00", "name": "USPS COLLECTION BOX - PO LOBBY", "note": "ON 12/24 AND 12/31, THIS BOX MAY BE COLLECTED AS EARLY AS 12 NOON.", "nsi_id": "unitedstatespostalservice-a77078", "operator": "United States Postal Service", "operator:short": "USPS", "operator:type": "public", "operator:wikidata": "Q668687", "ref": "1602800001"}, "type": "Feature"}
{"dataset_attributes": {"@spider": "usps_collection_boxes", "spider:collection_time": "2023-12-28T08:25:01.581378"}, "geometry": {"coordinates": [-79.6137852, 40.988256], "type": "Point"}, "id": "QvqZz3GmdmLm5njlrsbpMjR_3S8=", "properties": {"@spider": "usps_collection_boxes", "addr:city": "EAST BRADY", "addr:country": "US", "addr:full": "323 KELLYS WAY", "addr:postcode": "16028", "addr:state": "PA", "amenity": "post_box", "brand": "United States Postal Service", "brand:wikidata": "Q668687", "collection_times": "Mo-Sa 12:00", "name": "USPS COLLECTION BOX - BLUE BOX", "nsi_id": "unitedstatespostalservice-a77078", "operator": "United States Postal Service", "operator:short": "USPS", "operator:type": "public", "operator:wikidata": "Q668687", "ref": "1602800002"}, "type": "Feature"}
{"dataset_attributes": {"@spider": "usps_collection_boxes", "spider:collection_time": "2023-12-28T08:25:01.581378"}, "geometry": {"coordinates": [-79.616161204, 40.987163776], "type": "Point"}, "id": "Lwu_aQODO6FbtYEBOi1Zho8sZRk=", "properties": {"@spider": "usps_collection_boxes", "addr:city": "EAST BRADY", "addr:country": "US", "addr:full": "422 KELLYS WAY", "addr:postcode": "16028", "addr:state": "PA", "amenity": "post_box", "brand": "United States Postal Service", "brand:wikidata": "Q668687", "collection_times": "Mo-Fr 16:00; Sa 12:00", "name": "USPS COLLECTION BOX - PO LOBBY", "note": "ON 12/24 AND 12/31, THIS BOX MAY BE COLLECTED AS EARLY AS 12 NOON.", "nsi_id": "unitedstatespostalservice-a77078", "operator": "United States Postal Service", "operator:short": "USPS", "operator:type": "public", "operator:wikidata": "Q668687", "ref": "1602800004"}, "type": "Feature"}
{"dataset_attributes": {"@spider": "usps_collection_boxes", "spider:collection_time": "2023-12-28T08:25:01.581378"}, "geometry": {"coordinates": [-79.843149229, 40.876260841], "type": "Point"}, "id": "xraao0VhtziL6ummF-8K7lzTIdU=", "properties": {"@spider": "usps_collection_boxes", "addr:city": "EAST BUTLER", "addr:country": "US", "addr:full": "720 GRANT AVE", "addr:postcode": "16029", "addr:state": "PA", "amenity": "post_box", "brand": "United States Postal Service", "brand:wikidata": "Q668687", "collection_times": "Mo-Fr 16:00; Sa 12:00", "name": "USPS COLLECTION BOX - BLUE BOX", "note": "ON 12/24 AND 12/31, THIS BOX MAY BE COLLECTED AS EARLY AS 12 NOON.", "nsi_id": "unitedstatespostalservice-a77078", "operator": "United States Postal Service", "operator:short": "USPS", "operator:type": "public", "operator:wikidata": "Q668687", "ref": "1602900000"}, "type": "Feature"}
{"dataset_attributes": {"@spider": "usps_collection_boxes", "spider:collection_time": "2023-12-28T08:25:01.581378"}, "geometry": {"coordinates": [-79.843149229, 40.876260841], "type": "Point"}, "id": "AuFB68HY36ohhT0HStSZfZ58Adg=", "properties": {"@spider": "usps_collection_boxes", "addr:city": "EAST BUTLER", "addr:country": "US", "addr:full": "720 GRANT AVE", "addr:postcode": "16029", "addr:state": "PA", "amenity": "post_box", "brand": "United States Postal Service", "brand:wikidata": "Q668687", "collection_times": "Mo-Fr 16:00; Sa 12:00", "name": "USPS COLLECTION BOX - PO LOBBY", "note": "ON 12/24 AND 12/31, THIS BOX MAY BE COLLECTED AS EARLY AS 12 NOON.", "nsi_id": "unitedstatespostalservice-a77078", "operator": "United States Postal Service", "operator:short": "USPS", "operator:type": "public", "operator:wikidata": "Q668687", "ref": "1602900001"}, "type": "Feature"}
{"dataset_attributes": {"@spider": "usps_collection_boxes", "spider:collection_time": "2023-12-28T08:25:01.581378"}, "geometry": {"coordinates": [-79.843149229, 40.876260841], "type": "Point"}, "id": "DjFRo-G_lSfiIyaAfmPBOUrUUSk=", "properties": {"@spider": "usps_collection_boxes", "addr:city": "EAST BUTLER", "addr:country": "US", "addr:full": "720 GRANT AVE", "addr:postcode": "16029", "addr:state": "PA", "amenity": "post_box", "brand": "United States Postal Service", "brand:wikidata": "Q668687", "collection_times": "Mo-Fr 16:00; Sa 12:00", "name": "USPS COLLECTION BOX - PO LOBBY", "note": "ON 12/24 AND 12/31, THIS BOX MAY BE COLLECTED AS EARLY AS 12 NOON.", "nsi_id": "unitedstatespostalservice-a77078", "operator": "United States Postal Service", "operator:short": "USPS", "operator:type": "public", "operator:wikidata": "Q668687", "ref": "1602900003"}, "type": "Feature"}
{"dataset_attributes": {"@spider": "usps_collection_boxes", "spider:collection_time": "2023-12-28T08:25:01.581378"}, "geometry": {"coordinates": [-79.798489867, 41.135424275], "type": "Point"}, "id": "IBFOtV8c2jWkjku8miNbUE7-RYE=", "properties": {"@spider": "usps_collection_boxes", "addr:city": "EAU CLAIRE", "addr:country": "US", "addr:full": "205 S WASHINGTON ST", "addr:postcode": "16030", "addr:state": "PA", "amenity": "post_box", "brand": "United States Postal Service", "brand:wikidata": "Q668687", "collection_times": "Mo-Fr 16:55; Sa 14:55", "name": "USPS COLLECTION BOX - BLUE BOX", "note": "ON 12/24 AND 12/31, THIS BOX MAY BE COLLECTED AS EARLY AS 12 NOON.", "nsi_id": "unitedstatespostalservice-a77078", "operator": "United States Postal Service", "operator:short": "USPS", "operator:type": "public", "operator:wikidata": "Q668687", "ref": "1603000000"}, "type": "Feature"}
{"dataset_attributes": {"@spider": "usps_collection_boxes", "spider:collection_time": "2023-12-28T08:25:01.581378"}, "geometry": {"coordinates": [-79.798489867, 41.135424275], "type": "Point"}, "id": "V3lGLsKdZrbC_2dkENKhef70mcQ=", "properties": {"@spider": "usps_collection_boxes", "addr:city": "EAU CLAIRE", "addr:country": "US", "addr:full": "205 S WASHINGTON ST", "addr:postcode": "16030", "addr:state": "PA", "amenity": "post_box", "brand": "United States Postal Service", "brand:wikidata": "Q668687", "collection_times": "Mo-Fr 16:55; Sa 14:55", "name": "USPS COLLECTION BOX - PO LOBBY", "note": "ON 12/24 AND 12/31, THIS BOX MAY BE COLLECTED AS EARLY AS 12 NOON.", "nsi_id": "unitedstatespostalservice-a77078", "operator": "United States Postal Service", "operator:short": "USPS", "operator:type": "public", "operator:wikidata": "Q668687", "ref": "1603000001"}, "type": "Feature"}
{"dataset_attributes": {"@spider": "usps_collection_boxes", "spider:collection_time": "2023-12-28T08:25:01.581378"}, "geometry": {"coordinates": [-79.798489867, 41.135424275], "type": "Point"}, "id": "UjIzidvrK6ctacrT6hKqxGHdtpo=", "properties": {"@spider": "usps_collection_boxes", "addr:city": "EAU CLAIRE", "addr:country": "US", "addr:full": "205 S WASHINGTON ST", "addr:postcode": "16030", "addr:state": "PA", "amenity": "post_box", "brand": "United States Postal Service", "brand:wikidata": "Q668687", "collection_times": "Mo-Fr 16:55; Sa 14:55", "name": "USPS COLLECTION BOX - PO LOBBY", "note": "ON 12/24 AND 12/31, THIS BOX MAY BE COLLECTED AS EARLY AS 12 NOON.", "nsi_id": "unitedstatespostalservice-a77078", "operator": "United States Postal Service", "operator:short": "USPS", "operator:type": "public", "operator:wikidata": "Q668687", "ref": "1603000003"}, "type": "Feature"}
{"dataset_attributes": {"@spider": "usps_collection_boxes", "spider:collection_time": "2023-12-28T08:25:01.581378"}, "geometry": {"coordinates": [-80.0665472, 40.769118], "type": "Point"}, "id": "qRUqo2rCpez_NsJGBkEBWg1qqNs=", "properties": {"@spider": "usps_collection_boxes", "addr:city": "EVANS CITY", "addr:country": "US", "addr:full": "169 W MAIN ST", "addr:postcode": "16033", "addr:state": "PA", "amenity": "post_box", "brand": "United States Postal Service", "brand:wikidata": "Q668687", "collection_times": "Mo-Sa 11:00", "name": "USPS COLLECTION BOX - BLUE BOX", "nsi_id": "unitedstatespostalservice-a77078", "operator": "United States Postal Service", "operator:short": "USPS", "operator:type": "public", "operator:wikidata": "Q668687", "ref": "1603300004"}, "type": "Feature"}
{"dataset_attributes": {"@spider": "usps_collection_boxes", "spider:collection_time": "2023-12-28T08:25:01.581378"}, "geometry": {"coordinates": [-80.0629749, 40.769216], "type": "Point"}, "id": "fLCvjFNhc7D5j3AylLORpvp_ss0=", "properties": {"@spider": "usps_collection_boxes", "addr:city": "EVANS CITY", "addr:country": "US", "addr:full": "201 E MAIN ST", "addr:postcode": "16033", "addr:state": "PA", "amenity": "post_box", "brand": "United States Postal Service", "brand:wikidata": "Q668687", "collection_times": "Mo-Fr 13:45; Sa 13:00", "name": "USPS COLLECTION BOX - BLUE BOX", "note": "ON 12/24 AND 12/31, THIS BOX MAY BE COLLECTED AS EARLY AS 12 NOON.", "nsi_id": "unitedstatespostalservice-a77078", "operator": "United States Postal Service", "operator:short": "USPS", "operator:type": "public", "operator:wikidata": "Q668687", "ref": "1603300006"}, "type": "Feature"}
{"dataset_attributes": {"@spider": "usps_collection_boxes", "spider:collection_time": "2023-12-28T08:25:01.581378"}, "geometry": {"coordinates": [-80.0603313, 40.768084], "type": "Point"}, "id": "JLA8lqFjtON6bOTMACltAq9KDRI=", "properties": {"@spider": "usps_collection_boxes", "addr:city": "EVANS CITY", "addr:country": "US", "addr:full": "200 JEFFERSON ST", "addr:postcode": "16033", "addr:state": "PA", "amenity": "post_box", "brand": "United States Postal Service", "brand:wikidata": "Q668687", "collection_times": "Mo-Sa 11:30", "name": "USPS COLLECTION BOX - BLUE BOX", "nsi_id": "unitedstatespostalservice-a77078", "operator": "United States Postal Service", "operator:short": "USPS", "operator:type": "public", "operator:wikidata": "Q668687", "ref": "1603300007"}, "type": "Feature"}
{"dataset_attributes": {"@spider": "usps_collection_boxes", "spider:collection_time": "2023-12-28T08:25:01.581378"}, "geometry": {"coordinates": [-80.06129855, 40.768736318], "type": "Point"}, "id": "0y8vWzM6XgdbXU-iWDolvHH9Yxc=", "properties": {"@spider": "usps_collection_boxes", "addr:city": "EVANS CITY", "addr:country": "US", "addr:full": "126 S JACKSON ST", "addr:postcode": "16033", "addr:state": "PA", "amenity": "post_box", "brand": "United States Postal Service", "brand:wikidata": "Q668687", "collection_times": "Mo-Fr 16:30; Sa 12:00", "name": "USPS COLLECTION BOX - BLUE BOX", "note": "ON 12/24 AND 12/31, THIS BOX MAY BE COLLECTED AS EARLY AS 12 NOON.", "nsi_id": "unitedstatespostalservice-a77078", "operator": "United States Postal Service", "operator:short": "USPS", "operator:type": "public", "operator:wikidata": "Q668687", "ref": "1603300008"}, "type": "Feature"}
{"dataset_attributes": {"@spider": "usps_collection_boxes", "spider:collection_time": "2023-12-28T08:25:01.581378"}, "geometry": {"coordinates": [-80.06129855, 40.768736318], "type": "Point"}, "id": "UUEZaavUNOCiVjn24QBpF9hxoic=", "properties": {"@spider": "usps_collection_boxes", "addr:city": "EVANS CITY", "addr:country": "US", "addr:full": "126 S JACKSON ST", "addr:postcode": "16033", "addr:state": "PA", "amenity": "post_box", "brand": "United States Postal Service", "brand:wikidata": "Q668687", "collection_times": "Mo-Fr 16:30; Sa 12:00", "name": "USPS COLLECTION BOX - PO LOBBY", "note": "ON 12/24 AND 12/31, THIS BOX MAY BE COLLECTED AS EARLY AS 12 NOON.", "nsi_id": "unitedstatespostalservice-a77078", "operator": "United States Postal Service", "operator:short": "USPS", "operator:type": "public", "operator:wikidata": "Q668687", "ref": "1603300009"}, "type": "Feature"}
{"dataset_attributes": {"@spider": "usps_collection_boxes", "spider:collection_time": "2023-12-28T08:25:01.581378"}, "geometry": {"coordinates": [-80.06129855, 40.768736318], "type": "Point"}, "id": "Ez46ecNHqcEH6AHRqZe_WdZdRTk=", "properties": {"@spider": "usps_collection_boxes", "addr:city": "EVANS CITY", "addr:country": "US", "addr:full": "126 S JACKSON ST", "addr:postcode": "16033", "addr:state": "PA", "amenity": "post_box", "brand": "United States Postal Service", "brand:wikidata": "Q668687", "collection_times": "Mo-Fr 17:00; Sa 12:00", "name": "USPS COLLECTION BOX - PO LOBBY", "note": "ON 12/24 AND 12/31, THIS BOX MAY BE COLLECTED AS EARLY AS 12 NOON.", "nsi_id": "unitedstatespostalservice-a77078", "operator": "United States Postal Service", "operator:short": "USPS", "operator:type": "public", "operator:wikidata": "Q668687", "ref": "1603300011"}, "type": "Feature"}
{"dataset_attributes": {"@spider": "usps_collection_boxes", "spider:collection_time": "2023-12-28T08:25:01.581378"}, "geometry": {"coordinates": [-79.726265046, 40.869893679], "type": "Point"}, "id": "GPeltOGDy0H8hzkH3ZWyrmNrjgE=", "properties": {"@spider": "usps_collection_boxes", "addr:city": "FENELTON", "addr:country": "US", "addr:full": "811 CLEARFIELD RD", "addr:postcode": "16034", "addr:state": "PA", "amenity": "post_box", "brand": "United States Postal Service", "brand:wikidata": "Q668687", "collection_times": "Mo-Sa 17:25", "name": "USPS COLLECTION BOX - BLUE BOX", "note": "ON 12/24 AND 12/31, THIS BOX MAY BE COLLECTED AS EARLY AS 12 NOON.", "nsi_id": "unitedstatespostalservice-a77078", "operator": "United States Postal Service", "operator:short": "USPS", "operator:type": "public", "operator:wikidata": "Q668687", "ref": "1603400000"}, "type": "Feature"}
{"dataset_attributes": {"@spider": "usps_collection_boxes", "spider:collection_time": "2023-12-28T08:25:01.581378"}, "geometry": {"coordinates": [-79.726265046, 40.869893679], "type": "Point"}, "id": "xgx_rymZVI3IfpBMWNYr3YfKV3o=", "properties": {"@spider": "usps_collection_boxes", "addr:city": "FENELTON", "addr:country": "US", "addr:full": "811 CLEARFIELD RD", "addr:postcode": "16034", "addr:state": "PA", "amenity": "post_box", "brand": "United States Postal Service", "brand:wikidata": "Q668687", "collection_times": "Mo-Sa 17:25", "name": "USPS COLLECTION BOX - PO LOBBY", "note": "ON 12/24 AND 12/31, THIS BOX MAY BE COLLECTED AS EARLY AS 12 NOON.", "nsi_id": "unitedstatespostalservice-a77078", "operator": "United States Postal Service", "operator:short": "USPS", "operator:type": "public", "operator:wikidata": "Q668687", "ref": "1603400001"}, "type": "Feature"}
{"dataset_attributes": {"@spider": "usps_collection_boxes", "spider:collection_time": "2023-12-28T08:25:01.581378"}, "geometry": {"coordinates": [-79.726265046, 40.869893679], "type": "Point"}, "id": "2dU5iU04Tl_sPrCdABg1BuadLIY=", "properties": {"@spider": "usps_collection_boxes", "addr:city": "FENELTON", "addr:country": "US", "addr:full": "811 CLEARFIELD RD", "addr:postcode": "16034", "addr:state": "PA", "amenity": "post_box", "brand": "United States Postal Service", "brand:wikidata": "Q668687", "collection_times": "Mo-Sa 17:25", "name": "USPS COLLECTION BOX - PO LOBBY", "note": "ON 12/24 AND 12/31, THIS BOX MAY BE COLLECTED AS EARLY AS 12 NOON.", "nsi_id": "unitedstatespostalservice-a77078", "operator": "United States Postal Service", "operator:short": "USPS", "operator:type": "public", "operator:wikidata": "Q668687", "ref": "1603400003"}, "type": "Feature"}
{"dataset_attributes": {"@spider": "usps_collection_boxes", "spider:collection_time": "2023-12-28T08:25:01.581378"}, "geometry": {"coordinates": [-80.006124962, 41.106781327], "type": "Point"}, "id": "ciYjG01c1QPj-WPvCHpJk8P8B1A=", "properties": {"@spider": "usps_collection_boxes", "addr:city": "FORESTVILLE", "addr:country": "US", "addr:full": "4114 WILLIAM FLYNN HWY", "addr:postcode": "16035", "addr:state": "PA", "amenity": "post_box", "brand": "United States Postal Service", "brand:wikidata": "Q668687", "collection_times": "Mo-Fr 11:55; Sa 11:45", "name": "USPS COLLECTION BOX - BLUE BOX", "nsi_id": "unitedstatespostalservice-a77078", "operator": "United States Postal Service", "operator:short": "USPS", "operator:type": "public", "operator:wikidata": "Q668687", "ref": "1603500000"}, "type": "Feature"}
{"dataset_attributes": {"@spider": "usps_collection_boxes", "spider:collection_time": "2023-12-28T08:25:01.581378"}, "geometry": {"coordinates": [-80.006124962, 41.106781327], "type": "Point"}, "id": "FLudHgvpsjOtyJuldsp5R_r23FE=", "properties": {"@spider": "usps_collection_boxes", "addr:city": "FORESTVILLE", "addr:country": "US", "addr:full": "4114 WILLIAM FLYNN HWY", "addr:postcode": "16035", "addr:state": "PA", "amenity": "post_box", "brand": "United States Postal Service", "brand:wikidata": "Q668687", "collection_times": "Mo-Fr 11:55; Sa 11:45", "name": "USPS COLLECTION BOX - PO LOBBY", "nsi_id": "unitedstatespostalservice-a77078", "operator": "United States Postal Service", "operator:short": "USPS", "operator:type": "public", "operator:wikidata": "Q668687", "ref": "1603500001"}, "type": "Feature"}
{"dataset_attributes": {"@spider": "usps_collection_boxes", "spider:collection_time": "2023-12-28T08:25:01.581378"}, "geometry": {"coordinates": [-80.006124962, 41.106781327], "type": "Point"}, "id": "YDLLet7CkZQDN9iPhzNv0sIxt8s=", "properties": {"@spider": "usps_collection_boxes", "addr:city": "FORESTVILLE", "addr:country": "US", "addr:full": "4114 WILLIAM FLYNN HWY", "addr:postcode": "16035", "addr:state": "PA", "amenity": "post_box", "brand": "United States Postal Service", "brand:wikidata": "Q668687", "collection_times": "Mo-Fr 11:55; Sa 11:40", "name": "USPS COLLECTION BOX - PO LOBBY", "nsi_id": "unitedstatespostalservice-a77078", "operator": "United States Postal Service", "operator:short": "USPS", "operator:type": "public", "operator:wikidata": "Q668687", "ref": "1603500003"}, "type": "Feature"}
{"dataset_attributes": {"@spider": "usps_collection_boxes", "spider:collection_time": "2023-12-28T08:25:01.581378"}, "geometry": {"coordinates": [-79.679611, 41.140788], "type": "Point"}, "id": "uQuwcGTp8B19vhn9tMsN8IF5A6Y=", "properties": {"@spider": "usps_collection_boxes", "addr:city": "FOXBURG", "addr:country": "US", "addr:full": "105 RAILROAD ST", "addr:postcode": "16036", "addr:state": "PA", "amenity": "post_box", "brand": "United States Postal Service", "brand:wikidata": "Q668687", "collection_times": "Mo-Sa 10:55", "name": "USPS COLLECTION BOX - BLUE BOX", "nsi_id": "unitedstatespostalservice-a77078", "operator": "United States Postal Service", "operator:short": "USPS", "operator:type": "public", "operator:wikidata": "Q668687", "ref": "1603600000"}, "type": "Feature"}
{"dataset_attributes": {"@spider": "usps_collection_boxes", "spider:collection_time": "2023-12-28T08:25:01.581378"}, "geometry": {"coordinates": [-79.679611, 41.140788], "type": "Point"}, "id": "cjqU98zDED2dSGZj_J6qrYF9ZJs=", "properties": {"@spider": "usps_collection_boxes", "addr:city": "FOXBURG", "addr:country": "US", "addr:full": "105 RAILROAD ST", "addr:postcode": "16036", "addr:state": "PA", "amenity": "post_box", "brand": "United States Postal Service", "brand:wikidata": "Q668687", "collection_times": "Mo-Sa 10:55", "name": "USPS COLLECTION BOX - PO LOBBY", "nsi_id": "unitedstatespostalservice-a77078", "operator": "United States Postal Service", "operator:short": "USPS", "operator:type": "public", "operator:wikidata": "Q668687", "ref": "1603600001"}, "type": "Feature"}
{"dataset_attributes": {"@spider": "usps_collection_boxes", "spider:collection_time": "2023-12-28T08:25:01.581378"}, "geometry": {"coordinates": [-79.680665535, 41.141704859], "type": "Point"}, "id": "7G9iJA8MARUDhMjMcANf1OAdk3Y=", "properties": {"@spider": "usps_collection_boxes", "addr:city": "FOXBURG", "addr:country": "US", "addr:full": "105 RAILROAD ST", "addr:postcode": "16036", "addr:state": "PA", "amenity": "post_box", "brand": "United States Postal Service", "brand:wikidata": "Q668687", "collection_times": "Mo-Sa 10:55", "name": "USPS COLLECTION BOX - PO LOBBY", "nsi_id": "unitedstatespostalservice-a77078", "operator": "United States Postal Service", "operator:short": "USPS", "operator:type": "public", "operator:wikidata": "Q668687", "ref": "1603600003"}, "type": "Feature"}
{"dataset_attributes": {"@spider": "usps_collection_boxes", "spider:collection_time": "2023-12-28T08:25:01.581378"}, "geometry": {"coordinates": [-80.1372811748, 40.8031310957], "type": "Point"}, "id": "NCeribCn3GPXHC8vrcUlxcbbJ0M=", "properties": {"@spider": "usps_collection_boxes", "addr:city": "HARMONY", "addr:country": "US", "addr:full": "13 NORTHGATE PLZ", "addr:postcode": "16037", "addr:state": "PA", "amenity": "post_box", "brand": "United States Postal Service", "brand:wikidata": "Q668687", "collection_times": "Mo-Sa 12:30", "name": "USPS COLLECTION BOX - BLUE BOX", "note": "ON 12/24 AND 12/31, THIS BOX MAY BE COLLECTED AS EARLY AS 12 NOON.", "nsi_id": "unitedstatespostalservice-a77078", "operator": "United States Postal Service", "operator:short": "USPS", "operator:type": "public", "operator:wikidata": "Q668687", "ref": "1603700000"}, "type": "Feature"}
{"dataset_attributes": {"@spider": "usps_collection_boxes", "spider:collection_time": "2023-12-28T08:25:01.581378"}, "geometry": {"coordinates": [-80.1274578, 40.802906], "type": "Point"}, "id": "F1pKkqzXyNeTiwzoSAbM19YTC3Y=", "properties": {"@spider": "usps_collection_boxes", "addr:city": "HARMONY", "addr:country": "US", "addr:full": "222 MERCER ST", "addr:postcode": "16037", "addr:state": "PA", "amenity": "post_box", "brand": "United States Postal Service", "brand:wikidata": "Q668687", "collection_times": "Mo-Sa 09:15", "name": "USPS COLLECTION BOX - BLUE BOX", "nsi_id": "unitedstatespostalservice-a77078", "operator": "United States Postal Service", "operator:short": "USPS", "operator:type": "public", "operator:wikidata": "Q668687", "ref": "1603700001"}, "type": "Feature"}
{"dataset_attributes": {"@spider": "usps_collection_boxes", "spider:collection_time": "2023-12-28T08:25:01.581378"}, "geometry": {"coordinates": [-80.0092193, 41.136543234], "type": "Point"}, "id": "KDuenvxZQ98xNvhr6VaxIbeG7gk=", "properties": {"@spider": "usps_collection_boxes", "addr:city": "HARRISVILLE", "addr:country": "US", "addr:full": "115 S MAIN ST", "addr:postcode": "16038", "addr:state": "PA", "amenity": "post_box", "brand": "United States Postal Service", "brand:wikidata": "Q668687", "collection_times": "Mo-Fr 16:45; Sa 12:00", "name": "USPS COLLECTION BOX - BLUE BOX", "note": "ON 12/24 AND 12/31, THIS BOX MAY BE COLLECTED AS EARLY AS 12 NOON.", "nsi_id": "unitedstatespostalservice-a77078", "operator": "United States Postal Service", "operator:short": "USPS", "operator:type": "public", "operator:wikidata": "Q668687", "ref": "1603800000"}, "type": "Feature"}
{"dataset_attributes": {"@spider": "usps_collection_boxes", "spider:collection_time": "2023-12-28T08:25:01.581378"}, "geometry": {"coordinates": [-79.9756049, 41.19919], "type": "Point"}, "id": "4krAZh0wXBNc2QSqp70QwRfR9oA=", "properties": {"@spider": "usps_collection_boxes", "addr:city": "HARRISVILLE", "addr:country": "US", "addr:full": "5618 STATE ROUTE 8", "addr:postcode": "16038", "addr:state": "PA", "amenity": "post_box", "brand": "United States Postal Service", "brand:wikidata": "Q668687", "collection_times": "Mo-Sa 12:15", "name": "USPS COLLECTION BOX - BLUE BOX", "note": "ON 12/24 AND 12/31, THIS BOX MAY BE COLLECTED AS EARLY AS 12 NOON.", "nsi_id": "unitedstatespostalservice-a77078", "operator": "United States Postal Service", "operator:short": "USPS", "operator:type": "public", "operator:wikidata": "Q668687", "ref": "1603800002"}, "type": "Feature"}
{"dataset_attributes": {"@spider": "usps_collection_boxes", "spider:collection_time": "2023-12-28T08:25:01.581378"}, "geometry": {"coordinates": [-80.0092193, 41.136543234], "type": "Point"}, "id": "NZqALQGxO26Kes-v1L0alU2sGTI=", "properties": {"@spider": "usps_collection_boxes", "addr:city": "HARRISVILLE", "addr:country": "US", "addr:full": "115 S MAIN ST", "addr:postcode": "16038", "addr:state": "PA", "amenity": "post_box", "brand": "United States Postal Service", "brand:wikidata": "Q668687", "collection_times": "Mo-Fr 16:45; Sa 12:00", "name": "USPS COLLECTION BOX - PO LOBBY", "note": "ON 12/24 AND 12/31, THIS BOX MAY BE COLLECTED AS EARLY AS 12 NOON.", "nsi_id": "unitedstatespostalservice-a77078", "operator": "United States Postal Service", "operator:short": "USPS", "operator:type": "public", "operator:wikidata": "Q668687", "ref": "1603800004"}, "type": "Feature"}
{"dataset_attributes": {"@spider": "usps_collection_boxes", "spider:collection_time": "2023-12-28T08:25:01.581378"}, "geometry": {"coordinates": [-80.0092193, 41.136543234], "type": "Point"}, "id": "IChJHNOHkZzBpBfGXGx6mTYSgzU=", "properties": {"@spider": "usps_collection_boxes", "addr:city": "HARRISVILLE", "addr:country": "US", "addr:full": "115 S MAIN ST", "addr:postcode": "16038", "addr:state": "PA", "amenity": "post_box", "brand": "United States Postal Service", "brand:wikidata": "Q668687", "collection_times": "Mo-Fr 16:30; Sa 12:00", "name": "USPS COLLECTION BOX - PO LOBBY", "note": "ON 12/24 AND 12/31, THIS BOX MAY BE COLLECTED AS EARLY AS 12 NOON.", "nsi_id": "unitedstatespostalservice-a77078", "operator": "United States Postal Service", "operator:short": "USPS", "operator:type": "public", "operator:wikidata": "Q668687", "ref": "1603800006"}, "type": "Feature"}
{"dataset_attributes": {"@spider": "usps_collection_boxes", "spider:collection_time": "2023-12-28T08:25:01.581378"}, "geometry": {"coordinates": [-79.811095306, 40.830300863], "type": "Point"}, "id": "IvUj_wyQq4zhCq4Cmn2JwEgE4yM=", "properties": {"@spider": "usps_collection_boxes", "addr:city": "HERMAN", "addr:country": "US", "addr:full": "102 GEIBEL RD", "addr:postcode": "16039", "addr:state": "PA", "amenity": "post_box", "brand": "United States Postal Service", "brand:wikidata": "Q668687", "collection_times": "Mo-Sa 11:55", "name": "USPS COLLECTION BOX - BLUE BOX", "nsi_id": "unitedstatespostalservice-a77078", "operator": "United States Postal Service", "operator:short": "USPS", "operator:type": "public", "operator:wikidata": "Q668687", "ref": "1603900000"}, "type": "Feature"}
{"dataset_attributes": {"@spider": "usps_collection_boxes", "spider:collection_time": "2023-12-28T08:25:01.581378"}, "geometry": {"coordinates": [-79.811095306, 40.830300863], "type": "Point"}, "id": "9U6Mlkd2HT5KRrkJeCYDRHXEb1E=", "properties": {"@spider": "usps_collection_boxes", "addr:city": "HERMAN", "addr:country": "US", "addr:full": "102 GEIBEL RD", "addr:postcode": "16039", "addr:state": "PA", "amenity": "post_box", "brand": "United States Postal Service", "brand:wikidata": "Q668687", "collection_times": "Mo-Sa 11:55", "name": "USPS COLLECTION BOX - PO LOBBY", "nsi_id": "unitedstatespostalservice-a77078", "operator": "United States Postal Service", "operator:short": "USPS", "operator:type": "public", "operator:wikidata": "Q668687", "ref": "1603900001"}, "type": "Feature"}
{"dataset_attributes": {"@spider": "usps_collection_boxes", "spider:collection_time": "2023-12-28T08:25:01.581378"}, "geometry": {"coordinates": [-79.811095306, 40.830300863], "type": "Point"}, "id": "5H99bt83ZQw980B94iuWcd0uq9o=", "properties": {"@spider": "usps_collection_boxes", "addr:city": "HERMAN", "addr:country": "US", "addr:full": "102 GEIBEL RD", "addr:postcode": "16039", "addr:state": "PA", "amenity": "post_box", "brand": "United States Postal Service", "brand:wikidata": "Q668687", "collection_times": "Mo-Fr 11:55; Sa 11:40", "name": "USPS COLLECTION BOX - PO LOBBY", "nsi_id": "unitedstatespostalservice-a77078", "operator": "United States Postal Service", "operator:short": "USPS", "operator:type": "public", "operator:wikidata": "Q668687", "ref": "1603900003"}, "type": "Feature"}
{"dataset_attributes": {"@spider": "usps_collection_boxes", "spider:collection_time": "2023-12-28T08:25:01.581378"}, "geometry": {"coordinates": [-79.725621116, 40.994729685], "type": "Point"}, "id": "1SPhG8a5oVN_Ep-MCcdH-xTpj3Q=", "properties": {"@spider": "usps_collection_boxes", "addr:city": "KARNS CITY", "addr:country": "US", "addr:full": "108 PETROLIA ST", "addr:postcode": "16041", "addr:state": "PA", "amenity": "post_box", "brand": "United States Postal Service", "brand:wikidata": "Q668687", "collection_times": "Mo-Fr 15:00; Sa 11:00", "name": "USPS COLLECTION BOX - BLUE BOX", "note": "ON 12/24 AND 12/31, THIS BOX MAY BE COLLECTED AS EARLY AS 12 NOON.", "nsi_id": "unitedstatespostalservice-a77078", "operator": "United States Postal Service", "operator:short": "USPS", "operator:type": "public", "operator:wikidata": "Q668687", "ref": "1604100000"}, "type": "Feature"}
{"dataset_attributes": {"@spider": "usps_collection_boxes", "spider:collection_time": "2023-12-28T08:25:01.581378"}, "geometry": {"coordinates": [-79.725621116, 40.994729685], "type": "Point"}, "id": "Jzo7V2MwGUUWIJOltO3NEv6AqII=", "properties": {"@spider": "usps_collection_boxes", "addr:city": "KARNS CITY", "addr:country": "US", "addr:full": "108 PETROLIA ST", "addr:postcode": "16041", "addr:state": "PA", "amenity": "post_box", "brand": "United States Postal Service", "brand:wikidata": "Q668687", "collection_times": "Mo-Fr 15:00; Sa 11:00", "name": "USPS COLLECTION BOX - PO LOBBY", "note": "ON 12/24 AND 12/31, THIS BOX MAY BE COLLECTED AS EARLY AS 12 NOON.", "nsi_id": "unitedstatespostalservice-a77078", "operator": "United States Postal Service", "operator:short": "USPS", "operator:type": "public", "operator:wikidata": "Q668687", "ref": "1604100001"}, "type": "Feature"}
{"dataset_attributes": {"@spider": "usps_collection_boxes", "spider:collection_time": "2023-12-28T08:25:01.581378"}, "geometry": {"coordinates": [-79.725621116, 40.994729685], "type": "Point"}, "id": "RkD9oa5_53SLa8YI88vEan2hOJ0=", "properties": {"@spider": "usps_collection_boxes", "addr:city": "KARNS CITY", "addr:country": "US", "addr:full": "108 PETROLIA ST", "addr:postcode": "16041", "addr:state": "PA", "amenity": "post_box", "brand": "United States Postal Service", "brand:wikidata": "Q668687", "collection_times": "Mo-Fr 15:00; Sa 11:00", "name": "USPS COLLECTION BOX - PO LOBBY", "note": "ON 12/24 AND 12/31, THIS BOX MAY BE COLLECTED AS EARLY AS 12 NOON.", "nsi_id": "unitedstatespostalservice-a77078", "operator": "United States Postal Service", "operator:short": "USPS", "operator:type": "public", "operator:wikidata": "Q668687", "ref": "1604100003"}, "type": "Feature"}
{"dataset_attributes": {"@spider": "usps_collection_boxes", "spider:collection_time": "2023-12-28T08:25:01.581378"}, "geometry": {"coordinates": [-79.913786093, 40.851425187], "type": "Point"}, "id": "sZQ85g_Tm2WvPy1cIbpB8uzXsxo=", "properties": {"@spider": "usps_collection_boxes", "addr:city": "LYNDORA", "addr:country": "US", "addr:full": "110 WHITESTOWN RD", "addr:postcode": "16045", "addr:state": "PA", "amenity": "post_box", "brand": "United States Postal Service", "brand:wikidata": "Q668687", "collection_times": "Mo-Fr 16:45; Sa 12:00", "name": "USPS COLLECTION BOX - BLUE BOX", "note": "ON 12/24 AND 12/31, THIS BOX MAY BE COLLECTED AS EARLY AS 12 NOON.", "nsi_id": "unitedstatespostalservice-a77078", "operator": "United States Postal Service", "operator:short": "USPS", "operator:type": "public", "operator:wikidata": "Q668687", "ref": "1604500000"}, "type": "Feature"}
{"dataset_attributes": {"@spider": "usps_collection_boxes", "spider:collection_time": "2023-12-28T08:25:01.581378"}, "geometry": {"coordinates": [-79.9201323, 40.84803], "type": "Point"}, "id": "mQIkxXaeVhM7qNK5GnbBUWt7tDo=", "properties": {"@spider": "usps_collection_boxes", "addr:city": "LYNDORA", "addr:country": "US", "addr:full": "1 ARMCO DR", "addr:postcode": "16045", "addr:state": "PA", "amenity": "post_box", "brand": "United States Postal Service", "brand:wikidata": "Q668687", "collection_times": "Mo-Sa 09:30", "name": "USPS COLLECTION BOX - BLUE BOX", "nsi_id": "unitedstatespostalservice-a77078", "operator": "United States Postal Service", "operator:short": "USPS", "operator:type": "public", "operator:wikidata": "Q668687", "ref": "1604500001"}, "type": "Feature"}
{"dataset_attributes": {"@spider": "usps_collection_boxes", "spider:collection_time": "2023-12-28T08:25:01.581378"}, "geometry": {"coordinates": [-79.9169211, 40.849778], "type": "Point"}, "id": "jaZP-nJbcXM6K_NkEH2uS5YAgRQ=", "properties": {"@spider": "usps_collection_boxes", "addr:city": "LYNDORA", "addr:country": "US", "addr:full": "219 PENN AVE", "addr:postcode": "16045", "addr:state": "PA", "amenity": "post_box", "brand": "United States Postal Service", "brand:wikidata": "Q668687", "collection_times": "Mo-Sa 10:00", "name": "USPS COLLECTION BOX - BLUE BOX", "nsi_id": "unitedstatespostalservice-a77078", "operator": "United States Postal Service", "operator:short": "USPS", "operator:type": "public", "operator:wikidata": "Q668687", "ref": "1604500002"}, "type": "Feature"}
{"dataset_attributes": {"@spider": "usps_collection_boxes", "spider:collection_time": "2023-12-28T08:25:01.581378"}, "geometry": {"coordinates": [-79.9117026, 40.855352], "type": "Point"}, "id": "moKYg6hZJXpdMtyDvr3TbPTmYfs=", "properties": {"@spider": "usps_collection_boxes", "addr:city": "LYNDORA", "addr:country": "US", "addr:full": "554 HANSEN AVE", "addr:postcode": "16045", "addr:state": "PA", "amenity": "post_box", "brand": "United States Postal Service", "brand:wikidata": "Q668687", "collection_times": "Mo-Sa 12:00", "name": "USPS COLLECTION BOX - BLUE BOX", "nsi_id": "unitedstatespostalservice-a77078", "operator": "United States Postal Service", "operator:short": "USPS", "operator:type": "public", "operator:wikidata": "Q668687", "ref": "1604500004"}, "type": "Feature"}
{"dataset_attributes": {"@spider": "usps_collection_boxes", "spider:collection_time": "2023-12-28T08:25:01.581378"}, "geometry": {"coordinates": [-79.913786093, 40.851425187], "type": "Point"}, "id": "sdP7MvV2VZhY_K3sahmzx_-LVd8=", "properties": {"@spider": "usps_collection_boxes", "addr:city": "LYNDORA", "addr:country": "US", "addr:full": "110 WHITESTOWN RD", "addr:postcode": "16045", "addr:state": "PA", "amenity": "post_box", "brand": "United States Postal Service", "brand:wikidata": "Q668687", "collection_times": "Mo-Fr 17:00; Sa 12:00", "name": "USPS COLLECTION BOX - PO LOBBY", "note": "ON 12/24 AND 12/31, THIS BOX MAY BE COLLECTED AS EARLY AS 12 NOON.", "nsi_id": "unitedstatespostalservice-a77078", "operator": "United States Postal Service", "operator:short": "USPS", "operator:type": "public", "operator:wikidata": "Q668687", "ref": "1604500007"}, "type": "Feature"}
{"dataset_attributes": {"@spider": "usps_collection_boxes", "spider:collection_time": "2023-12-28T08:25:01.581378"}, "geometry": {"coordinates": [-79.913786093, 40.851425187], "type": "Point"}, "id": "fzME9mWxEkxFMaHeQOUmT5To3ZA=", "properties": {"@spider": "usps_collection_boxes", "addr:city": "LYNDORA", "addr:country": "US", "addr:full": "110 WHITESTOWN RD", "addr:postcode": "16045", "addr:state": "PA", "amenity": "post_box", "brand": "United States Postal Service", "brand:wikidata": "Q668687", "collection_times": "Mo-Fr 17:30; Sa 13:00", "name": "USPS COLLECTION BOX - PO LOBBY", "note": "ON 12/24 AND 12/31, THIS BOX MAY BE COLLECTED AS EARLY AS 12 NOON.", "nsi_id": "unitedstatespostalservice-a77078", "operator": "United States Postal Service", "operator:short": "USPS", "operator:type": "public", "operator:wikidata": "Q668687", "ref": "1604500009"}, "type": "Feature"}
{"dataset_attributes": {"@spider": "usps_collection_boxes", "spider:collection_time": "2023-12-28T08:25:01.581378"}, "geometry": {"coordinates": [-80.010878889, 40.697968698], "type": "Point"}, "id": "BExXGCZGF6fR1SubgzfrqokKCDk=", "properties": {"@spider": "usps_collection_boxes", "addr:city": "MARS", "addr:country": "US", "addr:full": "111 GRAND AVE", "addr:postcode": "16046", "addr:state": "PA", "amenity": "post_box", "brand": "United States Postal Service", "brand:wikidata": "Q668687", "collection_times": "Mo-Fr 16:45; Sa 13:30", "name": "USPS COLLECTION BOX - BLUE BOX", "note": "ON 12/24 AND 12/31, THIS BOX MAY BE COLLECTED AS EARLY AS 12 NOON.", "nsi_id": "unitedstatespostalservice-a77078", "operator": "United States Postal Service", "operator:short": "USPS", "operator:type": "public", "operator:wikidata": "Q668687", "ref": "1604600000"}, "type": "Feature"}
{"dataset_attributes": {"@spider": "usps_collection_boxes", "spider:collection_time": "2023-12-28T08:25:01.581378"}, "geometry": {"coordinates": [-80.010878889, 40.697968698], "type": "Point"}, "id": "_LbP72nKSLfHLjwcgeHWfQvF9DY=", "properties": {"@spider": "usps_collection_boxes", "addr:city": "MARS", "addr:country": "US", "addr:full": "111 GRAND AVE", "addr:postcode": "16046", "addr:state": "PA", "amenity": "post_box", "brand": "United States Postal Service", "brand:wikidata": "Q668687", "collection_times": "Mo-Fr 16:45; Sa 13:30", "name": "USPS COLLECTION BOX - PO LOBBY", "note": "ON 12/24 AND 12/31, THIS BOX MAY BE COLLECTED AS EARLY AS 12 NOON.", "nsi_id": "unitedstatespostalservice-a77078", "operator": "United States Postal Service", "operator:short": "USPS", "operator:type": "public", "operator:wikidata": "Q668687", "ref": "1604600002"}, "type": "Feature"}
{"dataset_attributes": {"@spider": "usps_collection_boxes", "spider:collection_time": "2023-12-28T08:25:01.581378"}, "geometry": {"coordinates": [-80.0577431, 40.686247], "type": "Point"}, "id": "HRm0ZROS5DMG1AA7yovbGyccKlk=", "properties": {"@spider": "usps_collection_boxes", "addr:city": "MARS", "addr:country": "US", "addr:full": "2200 GARDEN DR", "addr:postcode": "16046", "addr:state": "PA", "amenity": "post_box", "brand": "United States Postal Service", "brand:wikidata": "Q668687", "collection_times": "Mo-Sa 11:00", "name": "USPS COLLECTION BOX - BLUE BOX", "nsi_id": "unitedstatespostalservice-a77078", "operator": "United States Postal Service", "operator:short": "USPS", "operator:type": "public", "operator:wikidata": "Q668687", "ref": "1604600003"}, "type": "Feature"}
{"dataset_attributes": {"@spider": "usps_collection_boxes", "spider:collection_time": "2023-12-28T08:25:01.581378"}, "geometry": {"coordinates": [-80.0586254, 40.68971], "type": "Point"}, "id": "UIHEvYfbJpPCjdY-IjEyIiaF170=", "properties": {"@spider": "usps_collection_boxes", "addr:city": "MARS", "addr:country": "US", "addr:full": "206 SEVEN FIELDS BLVD", "addr:postcode": "16046", "addr:state": "PA", "amenity": "post_box", "brand": "United States Postal Service", "brand:wikidata": "Q668687", "collection_times": "Mo-Fr 16:00; Sa 14:00", "name": "USPS COLLECTION BOX - BLUE BOX", "note": "ON 12/24 AND 12/31, THIS BOX MAY BE COLLECTED AS EARLY AS 12 NOON.", "nsi_id": "unitedstatespostalservice-a77078", "operator": "United States Postal Service", "operator:short": "USPS", "operator:type": "public", "operator:wikidata": "Q668687", "ref": "1604600006"}, "type": "Feature"}
{"dataset_attributes": {"@spider": "usps_collection_boxes", "spider:collection_time": "2023-12-28T08:25:01.581378"}, "geometry": {"coordinates": [-80.010878889, 40.697968698], "type": "Point"}, "id": "yyf4pQy_HLfIvQQuMZELnWNEbvE=", "properties": {"@spider": "usps_collection_boxes", "addr:city": "MARS", "addr:country": "US", "addr:full": "111 GRAND AVE", "addr:postcode": "16046", "addr:state": "PA", "amenity": "post_box", "brand": "United States Postal Service", "brand:wikidata": "Q668687", "collection_times": "Mo-Fr 17:00; Sa 12:00", "name": "USPS COLLECTION BOX - PO LOBBY", "note": "ON 12/24 AND 12/31, THIS BOX MAY BE COLLECTED AS EARLY AS 12 NOON.", "nsi_id": "unitedstatespostalservice-a77078", "operator": "United States Postal Service", "operator:short": "USPS", "operator:type": "public", "operator:wikidata": "Q668687", "ref": "1604600008"}, "type": "Feature"}
{"dataset_attributes": {"@spider": "usps_collection_boxes", "spider:collection_time": "2023-12-28T08:25:01.581378"}, "geometry": {"coordinates": [-79.810698174, 41.047948626], "type": "Point"}, "id": "wFMSNhYeR8ax5mFrJPZxYpYSANE=", "properties": {"@spider": "usps_collection_boxes", "addr:city": "N WASHINGTON", "addr:country": "US", "addr:full": "739 FAIRVIEW RD", "addr:postcode": "16048", "addr:state": "PA", "amenity": "post_box", "brand": "United States Postal Service", "brand:wikidata": "Q668687", "collection_times": "Mo-Fr 11:55; Sa 10:30", "name": "USPS COLLECTION BOX - BLUE BOX", "nsi_id": "unitedstatespostalservice-a77078", "operator": "United States Postal Service", "operator:short": "USPS", "operator:type": "public", "operator:wikidata": "Q668687", "ref": "1604800000"}, "type": "Feature"}
{"dataset_attributes": {"@spider": "usps_collection_boxes", "spider:collection_time": "2023-12-28T08:25:01.581378"}, "geometry": {"coordinates": [-79.810698174, 41.047948626], "type": "Point"}, "id": "jvpzyPzU37D06Z7Sx20uCB8NhbM=", "properties": {"@spider": "usps_collection_boxes", "addr:city": "N WASHINGTON", "addr:country": "US", "addr:full": "739 FAIRVIEW RD", "addr:postcode": "16048", "addr:state": "PA", "amenity": "post_box", "brand": "United States Postal Service", "brand:wikidata": "Q668687", "collection_times": "Mo-Fr 11:55; Sa 10:30", "name": "USPS COLLECTION BOX - PO LOBBY", "nsi_id": "unitedstatespostalservice-a77078", "operator": "United States Postal Service", "operator:short": "USPS", "operator:type": "public", "operator:wikidata": "Q668687", "ref": "1604800001"}, "type": "Feature"}
{"dataset_attributes": {"@spider": "usps_collection_boxes", "spider:collection_time": "2023-12-28T08:25:01.581378"}, "geometry": {"coordinates": [-79.810698174, 41.047948626], "type": "Point"}, "id": "QXCA5exRPIhPuOnrZeQBlN7mtFg=", "properties": {"@spider": "usps_collection_boxes", "addr:city": "N WASHINGTON", "addr:country": "US", "addr:full": "739 FAIRVIEW RD", "addr:postcode": "16048", "addr:state": "PA", "amenity": "post_box", "brand": "United States Postal Service", "brand:wikidata": "Q668687", "collection_times": "Mo-Fr 11:55; Sa 10:25", "name": "USPS COLLECTION BOX - PO LOBBY", "nsi_id": "unitedstatespostalservice-a77078", "operator": "United States Postal Service", "operator:short": "USPS", "operator:type": "public", "operator:wikidata": "Q668687", "ref": "1604800003"}, "type": "Feature"}
{"dataset_attributes": {"@spider": "usps_collection_boxes", "spider:collection_time": "2023-12-28T08:25:01.581378"}, "geometry": {"coordinates": [-79.68251581, 41.091729169], "type": "Point"}, "id": "uRVtxB_Jzv3s713xR2glxJA8Csk=", "properties": {"@spider": "usps_collection_boxes", "addr:city": "PARKER", "addr:country": "US", "addr:full": "208 WASHINGTON ST", "addr:postcode": "16049", "addr:state": "PA", "amenity": "post_box", "brand": "United States Postal Service", "brand:wikidata": "Q668687", "collection_times": "Mo-Fr 15:00; Sa 12:00", "name": "USPS COLLECTION BOX - BLUE BOX", "note": "ON 12/24 AND 12/31, THIS BOX MAY BE COLLECTED AS EARLY AS 12 NOON.", "nsi_id": "unitedstatespostalservice-a77078", "operator": "United States Postal Service", "operator:short": "USPS", "operator:type": "public", "operator:wikidata": "Q668687", "ref": "1604900000"}, "type": "Feature"}
{"dataset_attributes": {"@spider": "usps_collection_boxes", "spider:collection_time": "2023-12-28T08:25:01.581378"}, "geometry": {"coordinates": [-79.68251581, 41.091729169], "type": "Point"}, "id": "buy0GSLzKxxHkWFn5ZkJqaYtywU=", "properties": {"@spider": "usps_collection_boxes", "addr:city": "PARKER", "addr:country": "US", "addr:full": "208 WASHINGTON ST", "addr:postcode": "16049", "addr:state": "PA", "amenity": "post_box", "brand": "United States Postal Service", "brand:wikidata": "Q668687", "collection_times": "Mo-Fr 15:00; Sa 12:00", "name": "USPS COLLECTION BOX - PO LOBBY", "note": "ON 12/24 AND 12/31, THIS BOX MAY BE COLLECTED AS EARLY AS 12 NOON.", "nsi_id": "unitedstatespostalservice-a77078", "operator": "United States Postal Service", "operator:short": "USPS", "operator:type": "public", "operator:wikidata": "Q668687", "ref": "1604900001"}, "type": "Feature"}
{"dataset_attributes": {"@spider": "usps_collection_boxes", "spider:collection_time": "2023-12-28T08:25:01.581378"}, "geometry": {"coordinates": [-79.68251581, 41.091729169], "type": "Point"}, "id": "FcK55VBkdSa8YmJzdaayXiPbAZc=", "properties": {"@spider": "usps_collection_boxes", "addr:city": "PARKER", "addr:country": "US", "addr:full": "208 WASHINGTON ST", "addr:postcode": "16049", "addr:state": "PA", "amenity": "post_box", "brand": "United States Postal Service", "brand:wikidata": "Q668687", "collection_times": "Mo-Fr 15:00; Sa 12:00", "name": "USPS COLLECTION BOX - PO LOBBY", "note": "ON 12/24 AND 12/31, THIS BOX MAY BE COLLECTED AS EARLY AS 12 NOON.", "nsi_id": "unitedstatespostalservice-a77078", "operator": "United States Postal Service", "operator:short": "USPS", "operator:type": "public", "operator:wikidata": "Q668687", "ref": "1604900003"}, "type": "Feature"}
{"dataset_attributes": {"@spider": "usps_collection_boxes", "spider:collection_time": "2023-12-28T08:25:01.581378"}, "geometry": {"coordinates": [-79.717632191, 41.016718147], "type": "Point"}, "id": "bvnT_hZwpaSyE4L8z4xEfUZxgBs=", "properties": {"@spider": "usps_collection_boxes", "addr:city": "PETROLIA", "addr:country": "US", "addr:full": "115 MAIN ST", "addr:postcode": "16050", "addr:state": "PA", "amenity": "post_box", "brand": "United States Postal Service", "brand:wikidata": "Q668687", "collection_times": "Mo-Fr 15:00; Sa 11:00", "name": "USPS COLLECTION BOX - BLUE BOX", "note": "ON 12/24 AND 12/31, THIS BOX MAY BE COLLECTED AS EARLY AS 12 NOON.", "nsi_id": "unitedstatespostalservice-a77078", "operator": "United States Postal Service", "operator:short": "USPS", "operator:type": "public", "operator:wikidata": "Q668687", "ref": "1605000000"}, "type": "Feature"}
{"dataset_attributes": {"@spider": "usps_collection_boxes", "spider:collection_time": "2023-12-28T08:25:01.581378"}, "geometry": {"coordinates": [-79.717632191, 41.016718147], "type": "Point"}, "id": "ERX8n_jQKJ-wrDUe287ezUjb5wk=", "properties": {"@spider": "usps_collection_boxes", "addr:city": "PETROLIA", "addr:country": "US", "addr:full": "115 MAIN ST", "addr:postcode": "16050", "addr:state": "PA", "amenity": "post_box", "brand": "United States Postal Service", "brand:wikidata": "Q668687", "collection_times": "Mo-Fr 15:00; Sa 11:00", "name": "USPS COLLECTION BOX - PO LOBBY", "note": "ON 12/24 AND 12/31, THIS BOX MAY BE COLLECTED AS EARLY AS 12 NOON.", "nsi_id": "unitedstatespostalservice-a77078", "operator": "United States Postal Service", "operator:short": "USPS", "operator:type": "public", "operator:wikidata": "Q668687", "ref": "1605000001"}, "type": "Feature"}
{"dataset_attributes": {"@spider": "usps_collection_boxes", "spider:collection_time": "2023-12-28T08:25:01.581378"}, "geometry": {"coordinates": [-79.717632191, 41.016718147], "type": "Point"}, "id": "b-9KbQvk_2e_-kFvaeinx9nDo6s=", "properties": {"@spider": "usps_collection_boxes", "addr:city": "PETROLIA", "addr:country": "US", "addr:full": "115 MAIN ST", "addr:postcode": "16050", "addr:state": "PA", "amenity": "post_box", "brand": "United States Postal Service", "brand:wikidata": "Q668687", "collection_times": "Mo-Fr 15:00; Sa 11:00", "name": "USPS COLLECTION BOX - PO LOBBY", "note": "ON 12/24 AND 12/31, THIS BOX MAY BE COLLECTED AS EARLY AS 12 NOON.", "nsi_id": "unitedstatespostalservice-a77078", "operator": "United States Postal Service", "operator:short": "USPS", "operator:type": "public", "operator:wikidata": "Q668687", "ref": "1605000003"}, "type": "Feature"}
{"dataset_attributes": {"@spider": "usps_collection_boxes", "spider:collection_time": "2023-12-28T08:25:01.581378"}, "geometry": {"coordinates": [-80.143212487, 40.92422392], "type": "Point"}, "id": "_xb7KNT38DR5mTnE1p0_ouzSJ9o=", "properties": {"@spider": "usps_collection_boxes", "addr:city": "PORTERSVILLE", "addr:country": "US", "addr:full": "1272 PERRY HWY", "addr:postcode": "16051", "addr:state": "PA", "amenity": "post_box", "brand": "United States Postal Service", "brand:wikidata": "Q668687", "collection_times": "Mo-Fr 16:30; Sa 11:30", "name": "USPS COLLECTION BOX - BLUE BOX", "note": "ON 12/24 AND 12/31, THIS BOX MAY BE COLLECTED AS EARLY AS 12 NOON.", "nsi_id": "unitedstatespostalservice-a77078", "operator": "United States Postal Service", "operator:short": "USPS", "operator:type": "public", "operator:wikidata": "Q668687", "ref": "1605100000"}, "type": "Feature"}
{"dataset_attributes": {"@spider": "usps_collection_boxes", "spider:collection_time": "2023-12-28T08:25:01.581378"}, "geometry": {"coordinates": [-80.143212487, 40.92422392], "type": "Point"}, "id": "kTejLKZ13YHhdBPI3UP80L8Iri8=", "properties": {"@spider": "usps_collection_boxes", "addr:city": "PORTERSVILLE", "addr:country": "US", "addr:full": "1272 PERRY HWY", "addr:postcode": "16051", "addr:state": "PA", "amenity": "post_box", "brand": "United States Postal Service", "brand:wikidata": "Q668687", "collection_times": "Mo-Fr 16:45; Sa 11:45", "name": "USPS COLLECTION BOX - PO LOBBY", "note": "ON 12/24 AND 12/31, THIS BOX MAY BE COLLECTED AS EARLY AS 12 NOON.", "nsi_id": "unitedstatespostalservice-a77078", "operator": "United States Postal Service", "operator:short": "USPS", "operator:type": "public", "operator:wikidata": "Q668687", "ref": "1605100001"}, "type": "Feature"}
{"dataset_attributes": {"@spider": "usps_collection_boxes", "spider:collection_time": "2023-12-28T08:25:01.581378"}, "geometry": {"coordinates": [-80.1398361, 40.96497], "type": "Point"}, "id": "Tk-ik-Wid_UBWmjmFdH7klogNsQ=", "properties": {"@spider": "usps_collection_boxes", "addr:city": "PORTERSVILLE", "addr:country": "US", "addr:full": "2010 NEW CASTLE RD", "addr:postcode": "16051", "addr:state": "PA", "amenity": "post_box", "brand": "United States Postal Service", "brand:wikidata": "Q668687", "collection_times": "Mo-Sa 10:00", "name": "USPS COLLECTION BOX - BLUE BOX", "nsi_id": "unitedstatespostalservice-a77078", "operator": "United States Postal Service", "operator:short": "USPS", "operator:type": "public", "operator:wikidata": "Q668687", "ref": "1605100002"}, "type": "Feature"}
{"dataset_attributes": {"@spider": "usps_collection_boxes", "spider:collection_time": "2023-12-28T08:25:01.581378"}, "geometry": {"coordinates": [-80.143212487, 40.92422392], "type": "Point"}, "id": "K5VNkjPdUnmcN2wDpatVJKkwJoo=", "properties": {"@spider": "usps_collection_boxes", "addr:city": "PORTERSVILLE", "addr:country": "US", "addr:full": "1272 PERRY HWY", "addr:postcode": "16051", "addr:state": "PA", "amenity": "post_box", "brand": "United States Postal Service", "brand:wikidata": "Q668687", "collection_times": "Mo-Fr 16:45", "name": "USPS COLLECTION BOX - PO LOBBY", "note": "ON 12/24 AND 12/31, THIS BOX MAY BE COLLECTED AS EARLY AS 12 NOON.", "nsi_id": "unitedstatespostalservice-a77078", "operator": "United States Postal Service", "operator:short": "USPS", "operator:type": "public", "operator:wikidata": "Q668687", "ref": "1605100004"}, "type": "Feature"}
{"dataset_attributes": {"@spider": "usps_collection_boxes", "spider:collection_time": "2023-12-28T08:25:01.581378"}, "geometry": {"coordinates": [-80.046775456, 40.903968134], "type": "Point"}, "id": "ZiFWX-NyCOnQAPPhuaAdrl2XR9w=", "properties": {"@spider": "usps_collection_boxes", "addr:city": "PROSPECT", "addr:country": "US", "addr:full": "106 S FRANKLIN ST", "addr:postcode": "16052", "addr:state": "PA", "amenity": "post_box", "brand": "United States Postal Service", "brand:wikidata": "Q668687", "collection_times": "Mo-Fr 16:30; Sa 12:00", "name": "USPS COLLECTION BOX - BLUE BOX", "note": "ON 12/24 AND 12/31, THIS BOX MAY BE COLLECTED AS EARLY AS 12 NOON.", "nsi_id": "unitedstatespostalservice-a77078", "operator": "United States Postal Service", "operator:short": "USPS", "operator:type": "public", "operator:wikidata": "Q668687", "ref": "1605200000"}, "type": "Feature"}
{"dataset_attributes": {"@spider": "usps_collection_boxes", "spider:collection_time": "2023-12-28T08:25:01.581378"}, "geometry": {"coordinates": [-80.046775456, 40.903968134], "type": "Point"}, "id": "uOkWPJOQ4WuWLcxvC7XC5QyLuzA=", "properties": {"@spider": "usps_collection_boxes", "addr:city": "PROSPECT", "addr:country": "US", "addr:full": "106 S FRANKLIN ST", "addr:postcode": "16052", "addr:state": "PA", "amenity": "post_box", "brand": "United States Postal Service", "brand:wikidata": "Q668687", "collection_times": "Mo-Fr 16:45; Sa 12:00", "name": "USPS COLLECTION BOX - PO LOBBY", "note": "ON 12/24 AND 12/31, THIS BOX MAY BE COLLECTED AS EARLY AS 12 NOON.", "nsi_id": "unitedstatespostalservice-a77078", "operator": "United States Postal Service", "operator:short": "USPS", "operator:type": "public", "operator:wikidata": "Q668687", "ref": "1605200001"}, "type": "Feature"}
{"dataset_attributes": {"@spider": "usps_collection_boxes", "spider:collection_time": "2023-12-28T08:25:01.581378"}, "geometry": {"coordinates": [-80.046775456, 40.903968134], "type": "Point"}, "id": "vRC9jotZD5NJ22Jy6I4VOiTrTTk=", "properties": {"@spider": "usps_collection_boxes", "addr:city": "PROSPECT", "addr:country": "US", "addr:full": "106 S FRANKLIN ST", "addr:postcode": "16052", "addr:state": "PA", "amenity": "post_box", "brand": "United States Postal Service", "brand:wikidata": "Q668687", "collection_times": "Mo-Fr 16:30; Sa 12:00", "name": "USPS COLLECTION BOX - PO LOBBY", "note": "ON 12/24 AND 12/31, THIS BOX MAY BE COLLECTED AS EARLY AS 12 NOON.", "nsi_id": "unitedstatespostalservice-a77078", "operator": "United States Postal Service", "operator:short": "USPS", "operator:type": "public", "operator:wikidata": "Q668687", "ref": "1605200003"}, "type": "Feature"}
{"dataset_attributes": {"@spider": "usps_collection_boxes", "spider:collection_time": "2023-12-28T08:25:01.581378"}, "geometry": {"coordinates": [-79.964468404, 40.806226057], "type": "Point"}, "id": "3mZ3OPY79mXl_1WEtgJVRWjxP3g=", "properties": {"@spider": "usps_collection_boxes", "addr:city": "RENFREW", "addr:country": "US", "addr:full": "102 E MAIN ST", "addr:postcode": "16053", "addr:state": "PA", "amenity": "post_box", "brand": "United States Postal Service", "brand:wikidata": "Q668687", "collection_times": "Mo-Fr 16:30; Sa 11:45", "name": "USPS COLLECTION BOX - BLUE BOX", "note": "ON 12/24 AND 12/31, THIS BOX MAY BE COLLECTED AS EARLY AS 12 NOON.", "nsi_id": "unitedstatespostalservice-a77078", "operator": "United States Postal Service", "operator:short": "USPS", "operator:type": "public", "operator:wikidata": "Q668687", "ref": "1605300002"}, "type": "Feature"}
{"dataset_attributes": {"@spider": "usps_collection_boxes", "spider:collection_time": "2023-12-28T08:25:01.581378"}, "geometry": {"coordinates": [-79.964379, 40.806369], "type": "Point"}, "id": "ZFAKIJy283EDhfxC5j0Uu6QwBC8=", "properties": {"@spider": "usps_collection_boxes", "addr:city": "RENFREW", "addr:country": "US", "addr:full": "102 E MAIN ST", "addr:postcode": "16053", "addr:state": "PA", "amenity": "post_box", "brand": "United States Postal Service", "brand:wikidata": "Q668687", "collection_times": "Mo-Fr 16:30; Sa 11:45", "name": "USPS COLLECTION BOX - PO LOBBY", "note": "ON 12/24 AND 12/31, THIS BOX MAY BE COLLECTED AS EARLY AS 12 NOON.", "nsi_id": "unitedstatespostalservice-a77078", "operator": "United States Postal Service", "operator:short": "USPS", "operator:type": "public", "operator:wikidata": "Q668687", "ref": "1605300003"}, "type": "Feature"}
{"dataset_attributes": {"@spider": "usps_collection_boxes", "spider:collection_time": "2023-12-28T08:25:01.581378"}, "geometry": {"coordinates": [-79.964379, 40.806369], "type": "Point"}, "id": "eLrja-cMrc1Z9tcTWsf7WW6VdUI=", "properties": {"@spider": "usps_collection_boxes", "addr:city": "RENFREW", "addr:country": "US", "addr:full": "102 E MAIN ST", "addr:postcode": "16053", "addr:state": "PA", "amenity": "post_box", "brand": "United States Postal Service", "brand:wikidata": "Q668687", "collection_times": "Mo-Fr 16:15; Sa 11:45", "name": "USPS COLLECTION BOX - PO LOBBY", "note": "ON 12/24 AND 12/31, THIS BOX MAY BE COLLECTED AS EARLY AS 12 NOON.", "nsi_id": "unitedstatespostalservice-a77078", "operator": "United States Postal Service", "operator:short": "USPS", "operator:type": "public", "operator:wikidata": "Q668687", "ref": "1605300005"}, "type": "Feature"}
{"dataset_attributes": {"@spider": "usps_collection_boxes", "spider:collection_time": "2023-12-28T08:25:01.581378"}, "geometry": {"coordinates": [-79.652448, 41.161869], "type": "Point"}, "id": "qkHxxri7VVvbF5jqkNj7mWcwtog=", "properties": {"@spider": "usps_collection_boxes", "addr:city": "ST PETERSBURG", "addr:country": "US", "addr:full": "711 MAIN ST", "addr:postcode": "16054", "addr:state": "PA", "amenity": "post_box", "brand": "United States Postal Service", "brand:wikidata": "Q668687", "collection_times": "Mo-Fr 15:55; Sa 14:55", "name": "USPS COLLECTION BOX - BLUE BOX", "note": "ON 12/24 AND 12/31, THIS BOX MAY BE COLLECTED AS EARLY AS 12 NOON.", "nsi_id": "unitedstatespostalservice-a77078", "operator": "United States Postal Service", "operator:short": "USPS", "operator:type": "public", "operator:wikidata": "Q668687", "ref": "1605400000"}, "type": "Feature"}
{"dataset_attributes": {"@spider": "usps_collection_boxes", "spider:collection_time": "2023-12-28T08:25:01.581378"}, "geometry": {"coordinates": [-79.652489, 41.161838], "type": "Point"}, "id": "xdml2LFFS_Hcr06Tskliw_w7G-Y=", "properties": {"@spider": "usps_collection_boxes", "addr:city": "ST PETERSBURG", "addr:country": "US", "addr:full": "711 MAIN ST", "addr:postcode": "16054", "addr:state": "PA", "amenity": "post_box", "brand": "United States Postal Service", "brand:wikidata": "Q668687", "collection_times": "Mo-Fr 15:55; Sa 14:55", "name": "USPS COLLECTION BOX - PO LOBBY", "note": "ON 12/24 AND 12/31, THIS BOX MAY BE COLLECTED AS EARLY AS 12 NOON.", "nsi_id": "unitedstatespostalservice-a77078", "operator": "United States Postal Service", "operator:short": "USPS", "operator:type": "public", "operator:wikidata": "Q668687", "ref": "1605400001"}, "type": "Feature"}
{"dataset_attributes": {"@spider": "usps_collection_boxes", "spider:collection_time": "2023-12-28T08:25:01.581378"}, "geometry": {"coordinates": [-79.6526959818, 41.1618294055], "type": "Point"}, "id": "LQaeUMy-Tl8fVTwLnDhiWxknmlw=", "properties": {"@spider": "usps_collection_boxes", "addr:city": "ST PETERSBURG", "addr:country": "US", "addr:full": "711 MAIN ST", "addr:postcode": "16054", "addr:state": "PA", "amenity": "post_box", "brand": "United States Postal Service", "brand:wikidata": "Q668687", "collection_times": "Mo-Fr 15:55; Sa 14:55", "name": "USPS COLLECTION BOX - PO LOBBY", "note": "ON 12/24 AND 12/31, THIS BOX MAY BE COLLECTED AS EARLY AS 12 NOON.", "nsi_id": "unitedstatespostalservice-a77078", "operator": "United States Postal Service", "operator:short": "USPS", "operator:type": "public", "operator:wikidata": "Q668687", "ref": "1605400003"}, "type": "Feature"}
{"dataset_attributes": {"@spider": "usps_collection_boxes", "spider:collection_time": "2023-12-28T08:25:01.581378"}, "geometry": {"coordinates": [-79.777343353, 40.711462113], "type": "Point"}, "id": "CRA-f0QGneUypraZPUv8JUQqZUw=", "properties": {"@spider": "usps_collection_boxes", "addr:city": "SARVER", "addr:country": "US", "addr:full": "705 EKASTOWN RD", "addr:postcode": "16055", "addr:state": "PA", "amenity": "post_box", "brand": "United States Postal Service", "brand:wikidata": "Q668687", "collection_times": "Mo-Fr 16:00; Sa 12:00", "name": "USPS COLLECTION BOX - BLUE BOX", "note": "ON 12/24 AND 12/31, THIS BOX MAY BE COLLECTED AS EARLY AS 12 NOON.", "nsi_id": "unitedstatespostalservice-a77078", "operator": "United States Postal Service", "operator:short": "USPS", "operator:type": "public", "operator:wikidata": "Q668687", "ref": "1605500000"}, "type": "Feature"}
{"dataset_attributes": {"@spider": "usps_collection_boxes", "spider:collection_time": "2023-12-28T08:25:01.581378"}, "geometry": {"coordinates": [-79.7255199, 40.70775], "type": "Point"}, "id": "XDW66jO9wC37T9VWDOeIa8lZAq0=", "properties": {"@spider": "usps_collection_boxes", "addr:city": "SARVER", "addr:country": "US", "addr:full": "551 S PIKE RD", "addr:postcode": "16055", "addr:state": "PA", "amenity": "post_box", "brand": "United States Postal Service", "brand:wikidata": "Q668687", "collection_times": "Mo-Sa 10:30", "name": "USPS COLLECTION BOX - BLUE BOX", "nsi_id": "unitedstatespostalservice-a77078", "operator": "United States Postal Service", "operator:short": "USPS", "operator:type": "public", "operator:wikidata": "Q668687", "ref": "1605500002"}, "type": "Feature"}
{"dataset_attributes": {"@spider": "usps_collection_boxes", "spider:collection_time": "2023-12-28T08:25:01.581378"}, "geometry": {"coordinates": [-79.777343353, 40.711462113], "type": "Point"}, "id": "Ag8Alk1BubmX_tMHFfESUIOC0uw=", "properties": {"@spider": "usps_collection_boxes", "addr:city": "SARVER", "addr:country": "US", "addr:full": "705 EKASTOWN RD", "addr:postcode": "16055", "addr:state": "PA", "amenity": "post_box", "brand": "United States Postal Service", "brand:wikidata": "Q668687", "collection_times": "Mo-Fr 16:30; Sa 12:00", "name": "USPS COLLECTION BOX - PO LOBBY", "note": "ON 12/24 AND 12/31, THIS BOX MAY BE COLLECTED AS EARLY AS 12 NOON.", "nsi_id": "unitedstatespostalservice-a77078", "operator": "United States Postal Service", "operator:short": "USPS", "operator:type": "public", "operator:wikidata": "Q668687", "ref": "1605500003"}, "type": "Feature"}
{"dataset_attributes": {"@spider": "usps_collection_boxes", "spider:collection_time": "2023-12-28T08:25:01.581378"}, "geometry": {"coordinates": [-79.7259033, 40.70691], "type": "Point"}, "id": "QBOG1TxB4X4H_K8W1fJCYnr4XbM=", "properties": {"@spider": "usps_collection_boxes", "addr:city": "SARVER", "addr:country": "US", "addr:full": "100 BUFFALO PLZ", "addr:postcode": "16055", "addr:state": "PA", "amenity": "post_box", "brand": "United States Postal Service", "brand:wikidata": "Q668687", "collection_times": "Mo-Sa 09:30", "name": "USPS COLLECTION BOX - BLUE BOX", "nsi_id": "unitedstatespostalservice-a77078", "operator": "United States Postal Service", "operator:short": "USPS", "operator:type": "public", "operator:wikidata": "Q668687", "ref": "1605500004"}, "type": "Feature"}
{"dataset_attributes": {"@spider": "usps_collection_boxes", "spider:collection_time": "2023-12-28T08:25:01.581378"}, "geometry": {"coordinates": [-79.777343353, 40.711462113], "type": "Point"}, "id": "qKrYWHYdylguhy_On-69_gHFPaE=", "properties": {"@spider": "usps_collection_boxes", "addr:city": "SARVER", "addr:country": "US", "addr:full": "705 EKASTOWN RD", "addr:postcode": "16055", "addr:state": "PA", "amenity": "post_box", "brand": "United States Postal Service", "brand:wikidata": "Q668687", "collection_times": "Mo-Fr 17:00; Sa 12:00", "name": "USPS COLLECTION BOX - PO LOBBY", "note": "ON 12/24 AND 12/31, THIS BOX MAY BE COLLECTED AS EARLY AS 12 NOON.", "nsi_id": "unitedstatespostalservice-a77078", "operator": "United States Postal Service", "operator:short": "USPS", "operator:type": "public", "operator:wikidata": "Q668687", "ref": "1605500006"}, "type": "Feature"}
{"dataset_attributes": {"@spider": "usps_collection_boxes", "spider:collection_time": "2023-12-28T08:25:01.581378"}, "geometry": {"coordinates": [-79.814196179, 40.749927885], "type": "Point"}, "id": "MG0L1mufyc8I4hqSXpA0fir0b7M=", "properties": {"@spider": "usps_collection_boxes", "addr:city": "SAXONBURG", "addr:country": "US", "addr:full": "120 PITTSBURGH ST", "addr:postcode": "16056", "addr:state": "PA", "amenity": "post_box", "brand": "United States Postal Service", "brand:wikidata": "Q668687", "collection_times": "Mo-Fr 16:30; Sa 11:30", "name": "USPS COLLECTION BOX - BLUE BOX", "note": "ON 12/24 AND 12/31, THIS BOX MAY BE COLLECTED AS EARLY AS 12 NOON.", "nsi_id": "unitedstatespostalservice-a77078", "operator": "United States Postal Service", "operator:short": "USPS", "operator:type": "public", "operator:wikidata": "Q668687", "ref": "1605600001"}, "type": "Feature"}
{"dataset_attributes": {"@spider": "usps_collection_boxes", "spider:collection_time": "2023-12-28T08:25:01.581378"}, "geometry": {"coordinates": [-79.814196179, 40.749927885], "type": "Point"}, "id": "drmHXbfyiY6U_TBBf9M6pRCRRbw=", "properties": {"@spider": "usps_collection_boxes", "addr:city": "SAXONBURG", "addr:country": "US", "addr:full": "120 PITTSBURGH ST", "addr:postcode": "16056", "addr:state": "PA", "amenity": "post_box", "brand": "United States Postal Service", "brand:wikidata": "Q668687", "collection_times": "Mo-Fr 16:30; Sa 11:30", "name": "USPS COLLECTION BOX - PO LOBBY", "note": "ON 12/24 AND 12/31, THIS BOX MAY BE COLLECTED AS EARLY AS 12 NOON.", "nsi_id": "unitedstatespostalservice-a77078", "operator": "United States Postal Service", "operator:short": "USPS", "operator:type": "public", "operator:wikidata": "Q668687", "ref": "1605600002"}, "type": "Feature"}
{"dataset_attributes": {"@spider": "usps_collection_boxes", "spider:collection_time": "2023-12-28T08:25:01.581378"}, "geometry": {"coordinates": [-79.814196179, 40.749927885], "type": "Point"}, "id": "Kb-oZLvLmNZU1jzdoJx-_waLX2w=", "properties": {"@spider": "usps_collection_boxes", "addr:city": "SAXONBURG", "addr:country": "US", "addr:full": "120 PITTSBURGH ST", "addr:postcode": "16056", "addr:state": "PA", "amenity": "post_box", "brand": "United States Postal Service", "brand:wikidata": "Q668687", "collection_times": "Mo-Fr 17:00; Sa 12:00", "name": "USPS COLLECTION BOX - PO LOBBY", "note": "ON 12/24 AND 12/31, THIS BOX MAY BE COLLECTED AS EARLY AS 12 NOON.", "nsi_id": "unitedstatespostalservice-a77078", "operator": "United States Postal Service", "operator:short": "USPS", "operator:type": "public", "operator:wikidata": "Q668687", "ref": "1605600004"}, "type": "Feature"}
{"dataset_attributes": {"@spider": "usps_collection_boxes", "spider:collection_time": "2023-12-28T08:25:01.581378"}, "geometry": {"coordinates": [-80.052962603, 41.060795418], "type": "Point"}, "id": "eQj4UjZ1NmS_A1P7svmmPKnn120=", "properties": {"@spider": "usps_collection_boxes", "addr:city": "SLIPPERY ROCK", "addr:country": "US", "addr:full": "400 S MAIN ST", "addr:postcode": "16057", "addr:state": "PA", "amenity": "post_box", "brand": "United States Postal Service", "brand:wikidata": "Q668687", "collection_times": "Mo-Fr 17:00; Sa 15:15", "name": "USPS COLLECTION BOX - BLUE BOX", "note": "ON 12/24 AND 12/31, THIS BOX MAY BE COLLECTED AS EARLY AS 12 NOON.", "nsi_id": "unitedstatespostalservice-a77078", "operator": "United States Postal Service", "operator:short": "USPS", "operator:type": "public", "operator:wikidata": "Q668687", "ref": "1605700000"}, "type": "Feature"}
{"dataset_attributes": {"@spider": "usps_collection_boxes", "spider:collection_time": "2023-12-28T08:25:01.581378"}, "geometry": {"coordinates": [-80.0532855, 41.060637], "type": "Point"}, "id": "0H6Y2_F3TdbddlVW4I0GMytO8-o=", "properties": {"@spider": "usps_collection_boxes", "addr:city": "SLIPPERY ROCK", "addr:country": "US", "addr:full": "400 S MAIN ST", "addr:postcode": "16057", "addr:state": "PA", "amenity": "post_box", "brand": "United States Postal Service", "brand:wikidata": "Q668687", "collection_times": "Mo-Fr 17:00; Sa 15:15", "name": "USPS COLLECTION BOX - BLUE BOX", "note": "ON 12/24 AND 12/31, THIS BOX MAY BE COLLECTED AS EARLY AS 12 NOON.", "nsi_id": "unitedstatespostalservice-a77078", "operator": "United States Postal Service", "operator:short": "USPS", "operator:type": "public", "operator:wikidata": "Q668687", "ref": "1605700001"}, "type": "Feature"}
{"dataset_attributes": {"@spider": "usps_collection_boxes", "spider:collection_time": "2023-12-28T08:25:01.581378"}, "geometry": {"coordinates": [-80.0560442, 41.06361], "type": "Point"}, "id": "7LMB-D_skS-88rT3xk7cBV_xRt0=", "properties": {"@spider": "usps_collection_boxes", "addr:city": "SLIPPERY ROCK", "addr:country": "US", "addr:full": "140 S MAIN ST", "addr:postcode": "16057", "addr:state": "PA", "amenity": "post_box", "brand": "United States Postal Service", "brand:wikidata": "Q668687", "collection_times": "Mo-Sa 15:00", "name": "USPS COLLECTION BOX - BLUE BOX", "note": "ON 12/24 AND 12/31, THIS BOX MAY BE COLLECTED AS EARLY AS 12 NOON.", "nsi_id": "unitedstatespostalservice-a77078", "operator": "United States Postal Service", "operator:short": "USPS", "operator:type": "public", "operator:wikidata": "Q668687", "ref": "1605700003"}, "type": "Feature"}
{"dataset_attributes": {"@spider": "usps_collection_boxes", "spider:collection_time": "2023-12-28T08:25:01.581378"}, "geometry": {"coordinates": [-80.0524152158, 41.0603597726], "type": "Point"}, "id": "7CkSJufOI_x8iRXIKZ97M4H3r_0=", "properties": {"@spider": "usps_collection_boxes", "addr:city": "SLIPPERY ROCK", "addr:country": "US", "addr:full": "1 MORROW WAY", "addr:postcode": "16057", "addr:state": "PA", "amenity": "post_box", "brand": "United States Postal Service", "brand:wikidata": "Q668687", "collection_times": "Mo-Sa 09:00", "name": "USPS COLLECTION BOX - BLUE BOX", "nsi_id": "unitedstatespostalservice-a77078", "operator": "United States Postal Service", "operator:short": "USPS", "operator:type": "public", "operator:wikidata": "Q668687", "ref": "1605700006"}, "type": "Feature"}
{"dataset_attributes": {"@spider": "usps_collection_boxes", "spider:collection_time": "2023-12-28T08:25:01.581378"}, "geometry": {"coordinates": [-80.0515049, 41.061577], "type": "Point"}, "id": "kdUlE3AgAGiD5hVE9Eqgi3fTLvI=", "properties": {"@spider": "usps_collection_boxes", "addr:city": "SLIPPERY ROCK", "addr:country": "US", "addr:full": "14 MALTBY AVE", "addr:postcode": "16057", "addr:state": "PA", "amenity": "post_box", "brand": "United States Postal Service", "brand:wikidata": "Q668687", "collection_times": "Mo-Sa 12:30", "name": "USPS COLLECTION BOX - BLUE BOX", "note": "ON 12/24 AND 12/31, THIS BOX MAY BE COLLECTED AS EARLY AS 12 NOON.", "nsi_id": "unitedstatespostalservice-a77078", "operator": "United States Postal Service", "operator:short": "USPS", "operator:type": "public", "operator:wikidata": "Q668687", "ref": "1605700007"}, "type": "Feature"}
{"dataset_attributes": {"@spider": "usps_collection_boxes", "spider:collection_time": "2023-12-28T08:25:01.581378"}, "geometry": {"coordinates": [-80.052962603, 41.060795418], "type": "Point"}, "id": "7qpPlt9ZuLgfmjaaaRpdgnIr4kI=", "properties": {"@spider": "usps_collection_boxes", "addr:city": "SLIPPERY ROCK", "addr:country": "US", "addr:full": "400 S MAIN ST", "addr:postcode": "16057", "addr:state": "PA", "amenity": "post_box", "brand": "United States Postal Service", "brand:wikidata": "Q668687", "collection_times": "Mo-Fr 17:00; Sa 15:15", "name": "USPS COLLECTION BOX - BLUE BOX", "note": "ON 12/24 AND 12/31, THIS BOX MAY BE COLLECTED AS EARLY AS 12 NOON.", "nsi_id": "unitedstatespostalservice-a77078", "operator": "United States Postal Service", "operator:short": "USPS", "operator:type": "public", "operator:wikidata": "Q668687", "ref": "1605700010"}, "type": "Feature"}
{"dataset_attributes": {"@spider": "usps_collection_boxes", "spider:collection_time": "2023-12-28T08:25:01.581378"}, "geometry": {"coordinates": [-80.0539833, 41.070584], "type": "Point"}, "id": "EHUUDVT9Pdbuze-00wyhfL1Vmqc=", "properties": {"@spider": "usps_collection_boxes", "addr:city": "SLIPPERY ROCK", "addr:country": "US", "addr:full": "223 GROVE CITY RD", "addr:postcode": "16057", "addr:state": "PA", "amenity": "post_box", "brand": "United States Postal Service", "brand:wikidata": "Q668687", "collection_times": "Mo-Sa 09:00", "name": "USPS COLLECTION BOX - BLUE BOX", "nsi_id": "unitedstatespostalservice-a77078", "operator": "United States Postal Service", "operator:short": "USPS", "operator:type": "public", "operator:wikidata": "Q668687", "ref": "1605700011"}, "type": "Feature"}
{"dataset_attributes": {"@spider": "usps_collection_boxes", "spider:collection_time": "2023-12-28T08:25:01.581378"}, "geometry": {"coordinates": [-79.9824294, 40.997843], "type": "Point"}, "id": "2w-y1BMhY6BT8zHGawc7M7afvTs=", "properties": {"@spider": "usps_collection_boxes", "addr:city": "SLIPPERY ROCK", "addr:country": "US", "addr:full": "300 ORCHID LN", "addr:postcode": "16057", "addr:state": "PA", "amenity": "post_box", "brand": "United States Postal Service", "brand:wikidata": "Q668687", "collection_times": "Mo-Sa 09:00", "name": "USPS COLLECTION BOX - BLUE BOX", "nsi_id": "unitedstatespostalservice-a77078", "operator": "United States Postal Service", "operator:short": "USPS", "operator:type": "public", "operator:wikidata": "Q668687", "ref": "1605700012"}, "type": "Feature"}
{"dataset_attributes": {"@spider": "usps_collection_boxes", "spider:collection_time": "2023-12-28T08:25:01.581378"}, "geometry": {"coordinates": [-80.0382919, 41.056658], "type": "Point"}, "id": "BgEk6rI8OJU2wxNtfdjjNIjMqjM=", "properties": {"@spider": "usps_collection_boxes", "addr:city": "SLIPPERY ROCK", "addr:country": "US", "addr:full": "278 CAMERON DR", "addr:postcode": "16057", "addr:state": "PA", "amenity": "post_box", "brand": "United States Postal Service", "brand:wikidata": "Q668687", "collection_times": "Mo-Sa 09:00", "name": "USPS COLLECTION BOX - BLUE BOX", "nsi_id": "unitedstatespostalservice-a77078", "operator": "United States Postal Service", "operator:short": "USPS", "operator:type": "public", "operator:wikidata": "Q668687", "ref": "1605700013"}, "type": "Feature"}
{"dataset_attributes": {"@spider": "usps_collection_boxes", "spider:collection_time": "2023-12-28T08:25:01.581378"}, "geometry": {"coordinates": [-80.052962603, 41.060795418], "type": "Point"}, "id": "a2YCGyi01_uLxpMjQAugOMODW1k=", "properties": {"@spider": "usps_collection_boxes", "addr:city": "SLIPPERY ROCK", "addr:country": "US", "addr:full": "400 S MAIN ST", "addr:postcode": "16057", "addr:state": "PA", "amenity": "post_box", "brand": "United States Postal Service", "brand:wikidata": "Q668687", "collection_times": "Mo-Fr 17:00; Sa 15:15", "name": "USPS COLLECTION BOX - PO LOBBY", "note": "ON 12/24 AND 12/31, THIS BOX MAY BE COLLECTED AS EARLY AS 12 NOON.", "nsi_id": "unitedstatespostalservice-a77078", "operator": "United States Postal Service", "operator:short": "USPS", "operator:type": "public", "operator:wikidata": "Q668687", "ref": "1605700014"}, "type": "Feature"}
{"dataset_attributes": {"@spider": "usps_collection_boxes", "spider:collection_time": "2023-12-28T08:25:01.581378"}, "geometry": {"coordinates": [-80.052962603, 41.060795418], "type": "Point"}, "id": "Q0pbqZ1u1RhgTCilGoQiDeRkMFw=", "properties": {"@spider": "usps_collection_boxes", "addr:city": "SLIPPERY ROCK", "addr:country": "US", "addr:full": "400 S MAIN ST", "addr:postcode": "16057", "addr:state": "PA", "amenity": "post_box", "brand": "United States Postal Service", "brand:wikidata": "Q668687", "collection_times": "Mo-Fr 17:00; Sa 12:00", "name": "USPS COLLECTION BOX - PO LOBBY", "note": "ON 12/24 AND 12/31, THIS BOX MAY BE COLLECTED AS EARLY AS 12 NOON.", "nsi_id": "unitedstatespostalservice-a77078", "operator": "United States Postal Service", "operator:short": "USPS", "operator:type": "public", "operator:wikidata": "Q668687", "ref": "1605700017"}, "type": "Feature"}
{"dataset_attributes": {"@spider": "usps_collection_boxes", "spider:collection_time": "2023-12-28T08:25:01.581378"}, "geometry": {"coordinates": [-79.614473379, 41.183715729], "type": "Point"}, "id": "Ge0-_8x9dI4qta6diH47Gnp-9lY=", "properties": {"@spider": "usps_collection_boxes", "addr:city": "TURKEY CITY", "addr:country": "US", "addr:full": "1245 ROUTE 338 STE 2", "addr:postcode": "16058", "addr:state": "PA", "amenity": "post_box", "brand": "United States Postal Service", "brand:wikidata": "Q668687", "collection_times": "Mo-Sa 10:45", "name": "USPS COLLECTION BOX - BLUE BOX", "nsi_id": "unitedstatespostalservice-a77078", "operator": "United States Postal Service", "operator:short": "USPS", "operator:type": "public", "operator:wikidata": "Q668687", "ref": "1605800000"}, "type": "Feature"}
{"dataset_attributes": {"@spider": "usps_collection_boxes", "spider:collection_time": "2023-12-28T08:25:01.581378"}, "geometry": {"coordinates": [-79.614473379, 41.183715729], "type": "Point"}, "id": "o5aRO5JggmclTmuzh6qVutcsfQ4=", "properties": {"@spider": "usps_collection_boxes", "addr:city": "TURKEY CITY", "addr:country": "US", "addr:full": "1245 ROUTE 338 STE 2", "addr:postcode": "16058", "addr:state": "PA", "amenity": "post_box", "brand": "United States Postal Service", "brand:wikidata": "Q668687", "collection_times": "Mo-Sa 10:45", "name": "USPS COLLECTION BOX - PO LOBBY", "nsi_id": "unitedstatespostalservice-a77078", "operator": "United States Postal Service", "operator:short": "USPS", "operator:type": "public", "operator:wikidata": "Q668687", "ref": "1605800001"}, "type": "Feature"}
{"dataset_attributes": {"@spider": "usps_collection_boxes", "spider:collection_time": "2023-12-28T08:25:01.581378"}, "geometry": {"coordinates": [-79.614473379, 41.183715729], "type": "Point"}, "id": "QHidMHsAcHZVrac_C3WLNlh_klk=", "properties": {"@spider": "usps_collection_boxes", "addr:city": "TURKEY CITY", "addr:country": "US", "addr:full": "1245 ROUTE 338 STE 2", "addr:postcode": "16058", "addr:state": "PA", "amenity": "post_box", "brand": "United States Postal Service", "brand:wikidata": "Q668687", "collection_times": "Mo-Sa 10:45", "name": "USPS COLLECTION BOX - PO LOBBY", "nsi_id": "unitedstatespostalservice-a77078", "operator": "United States Postal Service", "operator:short": "USPS", "operator:type": "public", "operator:wikidata": "Q668687", "ref": "1605800003"}, "type": "Feature"}
{"dataset_attributes": {"@spider": "usps_collection_boxes", "spider:collection_time": "2023-12-28T08:25:01.581378"}, "geometry": {"coordinates": [-79.937071997, 40.688516861], "type": "Point"}, "id": "OJ-3xybGJVstd98bbZ3c0Ax4_Ag=", "properties": {"@spider": "usps_collection_boxes", "addr:city": "VALENCIA", "addr:country": "US", "addr:full": "1324 PITTSBURGH RD", "addr:postcode": "16059", "addr:state": "PA", "amenity": "post_box", "brand": "United States Postal Service", "brand:wikidata": "Q668687", "collection_times": "Mo-Fr 16:30; Sa 12:00", "name": "USPS COLLECTION BOX - BLUE BOX", "note": "ON 12/24 AND 12/31, THIS BOX MAY BE COLLECTED AS EARLY AS 12 NOON.", "nsi_id": "unitedstatespostalservice-a77078", "operator": "United States Postal Service", "operator:short": "USPS", "operator:type": "public", "operator:wikidata": "Q668687", "ref": "1605900000"}, "type": "Feature"}
{"dataset_attributes": {"@spider": "usps_collection_boxes", "spider:collection_time": "2023-12-28T08:25:01.581378"}, "geometry": {"coordinates": [-79.937071997, 40.688516861], "type": "Point"}, "id": "RFNIdYfpo2x3JZ-k-D2OOZnvw5Q=", "properties": {"@spider": "usps_collection_boxes", "addr:city": "VALENCIA", "addr:country": "US", "addr:full": "1324 PITTSBURGH RD", "addr:postcode": "16059", "addr:state": "PA", "amenity": "post_box", "brand": "United States Postal Service", "brand:wikidata": "Q668687", "collection_times": "Mo-Fr 16:30; Sa 12:00", "name": "USPS COLLECTION BOX - BLUE BOX", "note": "ON 12/24 AND 12/31, THIS BOX MAY BE COLLECTED AS EARLY AS 12 NOON.", "nsi_id": "unitedstatespostalservice-a77078", "operator": "United States Postal Service", "operator:short": "USPS", "operator:type": "public", "operator:wikidata": "Q668687", "ref": "1605900001"}, "type": "Feature"}
{"dataset_attributes": {"@spider": "usps_collection_boxes", "spider:collection_time": "2023-12-28T08:25:01.581378"}, "geometry": {"coordinates": [-79.937071997, 40.688516861], "type": "Point"}, "id": "Rr7r8k1Dpuv_mZK4xHkUmP8l0EQ=", "properties": {"@spider": "usps_collection_boxes", "addr:city": "VALENCIA", "addr:country": "US", "addr:full": "1324 PITTSBURGH RD", "addr:postcode": "16059", "addr:state": "PA", "amenity": "post_box", "brand": "United States Postal Service", "brand:wikidata": "Q668687", "collection_times": "Mo-Fr 16:30; Sa 12:00", "name": "USPS COLLECTION BOX - PO LOBBY", "note": "ON 12/24 AND 12/31, THIS BOX MAY BE COLLECTED AS EARLY AS 12 NOON.", "nsi_id": "unitedstatespostalservice-a77078", "operator": "United States Postal Service", "operator:short": "USPS", "operator:type": "public", "operator:wikidata": "Q668687", "ref": "1605900002"}, "type": "Feature"}
{"dataset_attributes": {"@spider": "usps_collection_boxes", "spider:collection_time": "2023-12-28T08:25:01.581378"}, "geometry": {"coordinates": [-79.937071997, 40.688516861], "type": "Point"}, "id": "zB5BUiLhTEzEZ8zu8PovCiSMHms=", "properties": {"@spider": "usps_collection_boxes", "addr:city": "VALENCIA", "addr:country": "US", "addr:full": "1324 PITTSBURGH RD", "addr:postcode": "16059", "addr:state": "PA", "amenity": "post_box", "brand": "United States Postal Service", "brand:wikidata": "Q668687", "collection_times": "Mo-Fr 17:00; Sa 12:00", "name": "USPS COLLECTION BOX - PO LOBBY", "note": "ON 12/24 AND 12/31, THIS BOX MAY BE COLLECTED AS EARLY AS 12 NOON.", "nsi_id": "unitedstatespostalservice-a77078", "operator": "United States Postal Service", "operator:short": "USPS", "operator:type": "public", "operator:wikidata": "Q668687", "ref": "1605900004"}, "type": "Feature"}
{"dataset_attributes": {"@spider": "usps_collection_boxes", "spider:collection_time": "2023-12-28T08:25:01.581378"}, "geometry": {"coordinates": [-79.89732251, 41.006096781], "type": "Point"}, "id": "OA5rh9q0imuIaWjZ8X6DuAQhBeE=", "properties": {"@spider": "usps_collection_boxes", "addr:city": "WEST SUNBURY", "addr:country": "US", "addr:full": "201 W STATE ST", "addr:postcode": "16061", "addr:state": "PA", "amenity": "post_box", "brand": "United States Postal Service", "brand:wikidata": "Q668687", "collection_times": "Mo-Fr 16:45; Sa 12:00", "name": "USPS COLLECTION BOX - BLUE BOX", "note": "ON 12/24 AND 12/31, THIS BOX MAY BE COLLECTED AS EARLY AS 12 NOON.", "nsi_id": "unitedstatespostalservice-a77078", "operator": "United States Postal Service", "operator:short": "USPS", "operator:type": "public", "operator:wikidata": "Q668687", "ref": "1606100000"}, "type": "Feature"}
{"dataset_attributes": {"@spider": "usps_collection_boxes", "spider:collection_time": "2023-12-28T08:25:01.581378"}, "geometry": {"coordinates": [-79.89732251, 41.006096781], "type": "Point"}, "id": "98PCsPzIgQhiPCY--LtxZs67x_c=", "properties": {"@spider": "usps_collection_boxes", "addr:city": "WEST SUNBURY", "addr:country": "US", "addr:full": "201 W STATE ST", "addr:postcode": "16061", "addr:state": "PA", "amenity": "post_box", "brand": "United States Postal Service", "brand:wikidata": "Q668687", "collection_times": "Mo-Fr 16:45; Sa 12:00", "name": "USPS COLLECTION BOX - PO LOBBY", "note": "ON 12/24 AND 12/31, THIS BOX MAY BE COLLECTED AS EARLY AS 12 NOON.", "nsi_id": "unitedstatespostalservice-a77078", "operator": "United States Postal Service", "operator:short": "USPS", "operator:type": "public", "operator:wikidata": "Q668687", "ref": "1606100001"}, "type": "Feature"}
{"dataset_attributes": {"@spider": "usps_collection_boxes", "spider:collection_time": "2023-12-28T08:25:01.581378"}, "geometry": {"coordinates": [-79.89732251, 41.006096781], "type": "Point"}, "id": "uBsO9wrc-a_BvOgJkC7LmKvHtWA=", "properties": {"@spider": "usps_collection_boxes", "addr:city": "WEST SUNBURY", "addr:country": "US", "addr:full": "201 W STATE ST", "addr:postcode": "16061", "addr:state": "PA", "amenity": "post_box", "brand": "United States Postal Service", "brand:wikidata": "Q668687", "collection_times": "Mo-Fr 16:30; Sa 12:00", "name": "USPS COLLECTION BOX - PO LOBBY", "note": "ON 12/24 AND 12/31, THIS BOX MAY BE COLLECTED AS EARLY AS 12 NOON.", "nsi_id": "unitedstatespostalservice-a77078", "operator": "United States Postal Service", "operator:short": "USPS", "operator:type": "public", "operator:wikidata": "Q668687", "ref": "1606100003"}, "type": "Feature"}
{"dataset_attributes": {"@spider": "usps_collection_boxes", "spider:collection_time": "2023-12-28T08:25:01.581378"}, "geometry": {"coordinates": [-80.1353693, 40.794078], "type": "Point"}, "id": "Gc2TnZL16gr_Z2NV9LZPnYJUZJU=", "properties": {"@spider": "usps_collection_boxes", "addr:city": "ZELIENOPLE", "addr:country": "US", "addr:full": "214 S HIGH ST", "addr:postcode": "16063", "addr:state": "PA", "amenity": "post_box", "brand": "United States Postal Service", "brand:wikidata": "Q668687", "collection_times": "Mo-Sa 09:00", "name": "USPS COLLECTION BOX - BLUE BOX", "nsi_id": "unitedstatespostalservice-a77078", "operator": "United States Postal Service", "operator:short": "USPS", "operator:type": "public", "operator:wikidata": "Q668687", "ref": "1606300002"}, "type": "Feature"}
{"dataset_attributes": {"@spider": "usps_collection_boxes", "spider:collection_time": "2023-12-28T08:25:01.581378"}, "geometry": {"coordinates": [-80.1446553, 40.793326], "type": "Point"}, "id": "F8k46hithe6F9bsjcFGdYO-6GBU=", "properties": {"@spider": "usps_collection_boxes", "addr:city": "ZELIENOPLE", "addr:country": "US", "addr:full": "251 WALNUT ST", "addr:postcode": "16063", "addr:state": "PA", "amenity": "post_box", "brand": "United States Postal Service", "brand:wikidata": "Q668687", "collection_times": "Mo-Sa 11:15", "name": "USPS COLLECTION BOX - BLUE BOX", "nsi_id": "unitedstatespostalservice-a77078", "operator": "United States Postal Service", "operator:short": "USPS", "operator:type": "public", "operator:wikidata": "Q668687", "ref": "1606300004"}, "type": "Feature"}
{"dataset_attributes": {"@spider": "usps_collection_boxes", "spider:collection_time": "2023-12-28T08:25:01.581378"}, "geometry": {"coordinates": [-80.1408794, 40.795436], "type": "Point"}, "id": "tx9a8j_eWvXXL0UsTvazGY54LsE=", "properties": {"@spider": "usps_collection_boxes", "addr:city": "ZELIENOPLE", "addr:country": "US", "addr:full": "319 W NEW CASTLE ST", "addr:postcode": "16063", "addr:state": "PA", "amenity": "post_box", "brand": "United States Postal Service", "brand:wikidata": "Q668687", "collection_times": "Mo-Sa 12:00", "name": "USPS COLLECTION BOX - BLUE BOX", "nsi_id": "unitedstatespostalservice-a77078", "operator": "United States Postal Service", "operator:short": "USPS", "operator:type": "public", "operator:wikidata": "Q668687", "ref": "1606300005"}, "type": "Feature"}
{"dataset_attributes": {"@spider": "usps_collection_boxes", "spider:collection_time": "2023-12-28T08:25:01.581378"}, "geometry": {"coordinates": [-80.1416376, 40.796539], "type": "Point"}, "id": "hJM2cQtTgYv8fCx836WV2OFk8nM=", "properties": {"@spider": "usps_collection_boxes", "addr:city": "ZELIENOPLE", "addr:country": "US", "addr:full": "400 W GRANDVIEW AVE", "addr:postcode": "16063", "addr:state": "PA", "amenity": "post_box", "brand": "United States Postal Service", "brand:wikidata": "Q668687", "collection_times": "Mo-Sa 12:00", "name": "USPS COLLECTION BOX - BLUE BOX", "nsi_id": "unitedstatespostalservice-a77078", "operator": "United States Postal Service", "operator:short": "USPS", "operator:type": "public", "operator:wikidata": "Q668687", "ref": "1606300006"}, "type": "Feature"}
{"dataset_attributes": {"@spider": "usps_collection_boxes", "spider:collection_time": "2023-12-28T08:25:01.581378"}, "geometry": {"coordinates": [-80.1420471, 40.794175], "type": "Point"}, "id": "lwrtNRRi_llujS51TiNQkiWhDWs=", "properties": {"@spider": "usps_collection_boxes", "addr:city": "ZELIENOPLE", "addr:country": "US", "addr:full": "202 ARTHUR ST", "addr:postcode": "16063", "addr:state": "PA", "amenity": "post_box", "brand": "United States Postal Service", "brand:wikidata": "Q668687", "collection_times": "Mo-Sa 12:00", "name": "USPS COLLECTION BOX - BLUE BOX", "nsi_id": "unitedstatespostalservice-a77078", "operator": "United States Postal Service", "operator:short": "USPS", "operator:type": "public", "operator:wikidata": "Q668687", "ref": "1606300007"}, "type": "Feature"}
{"dataset_attributes": {"@spider": "usps_collection_boxes", "spider:collection_time": "2023-12-28T08:25:01.581378"}, "geometry": {"coordinates": [-80.1402083, 40.791659], "type": "Point"}, "id": "Bhskktqkd8s_eGgX40BBxoAqLXI=", "properties": {"@spider": "usps_collection_boxes", "addr:city": "ZELIENOPLE", "addr:country": "US", "addr:full": "100 MCKIM ST", "addr:postcode": "16063", "addr:state": "PA", "amenity": "post_box", "brand": "United States Postal Service", "brand:wikidata": "Q668687", "collection_times": "Mo-Sa 09:30", "name": "USPS COLLECTION BOX - BLUE BOX", "nsi_id": "unitedstatespostalservice-a77078", "operator": "United States Postal Service", "operator:short": "USPS", "operator:type": "public", "operator:wikidata": "Q668687", "ref": "1606300009"}, "type": "Feature"}
{"dataset_attributes": {"@spider": "usps_collection_boxes", "spider:collection_time": "2023-12-28T08:25:01.581378"}, "geometry": {"coordinates": [-80.1334977383, 40.7904836345], "type": "Point"}, "id": "vbKCicBQ62yOiF3jj0GB_i-n9xU=", "properties": {"@spider": "usps_collection_boxes", "addr:city": "ZELIENOPLE", "addr:country": "US", "addr:full": "218 TERRACE AVE", "addr:postcode": "16063", "addr:state": "PA", "amenity": "post_box", "brand": "United States Postal Service", "brand:wikidata": "Q668687", "collection_times": "Mo-Sa 09:30", "name": "USPS COLLECTION BOX - BLUE BOX", "nsi_id": "unitedstatespostalservice-a77078", "operator": "United States Postal Service", "operator:short": "USPS", "operator:type": "public", "operator:wikidata": "Q668687", "ref": "1606300014"}, "type": "Feature"}
{"dataset_attributes": {"@spider": "usps_collection_boxes", "spider:collection_time": "2023-12-28T08:25:01.581378"}, "geometry": {"coordinates": [-80.1386051, 40.789217], "type": "Point"}, "id": "homUoSMIrwt_xU92moSliZGYn90=", "properties": {"@spider": "usps_collection_boxes", "addr:city": "ZELIENOPLE", "addr:country": "US", "addr:full": "101 BURGESS DR", "addr:postcode": "16063", "addr:state": "PA", "amenity": "post_box", "brand": "United States Postal Service", "brand:wikidata": "Q668687", "collection_times": "Mo-Sa 11:00", "name": "USPS COLLECTION BOX - BLUE BOX", "nsi_id": "unitedstatespostalservice-a77078", "operator": "United States Postal Service", "operator:short": "USPS", "operator:type": "public", "operator:wikidata": "Q668687", "ref": "1606300016"}, "type": "Feature"}
{"dataset_attributes": {"@spider": "usps_collection_boxes", "spider:collection_time": "2023-12-28T08:25:01.581378"}, "geometry": {"coordinates": [-80.1346687, 40.786526], "type": "Point"}, "id": "zsH-56OXoemccGqVMp2Fad8Ejgo=", "properties": {"@spider": "usps_collection_boxes", "addr:city": "ZELIENOPLE", "addr:country": "US", "addr:full": "502 S MAIN ST", "addr:postcode": "16063", "addr:state": "PA", "amenity": "post_box", "brand": "United States Postal Service", "brand:wikidata": "Q668687", "collection_times": "Mo-Sa 10:00", "name": "USPS COLLECTION BOX - BLUE BOX", "nsi_id": "unitedstatespostalservice-a77078", "operator": "United States Postal Service", "operator:short": "USPS", "operator:type": "public", "operator:wikidata": "Q668687", "ref": "1606300017"}, "type": "Feature"}
{"dataset_attributes": {"@spider": "usps_collection_boxes", "spider:collection_time": "2023-12-28T08:25:01.581378"}, "geometry": {"coordinates": [-80.1368166, 40.797065], "type": "Point"}, "id": "W6Jm_FxUG70mcKvf769v5BLGn_k=", "properties": {"@spider": "usps_collection_boxes", "addr:city": "ZELIENOPLE", "addr:country": "US", "addr:full": "108 E GRANDVIEW AVE", "addr:postcode": "16063", "addr:state": "PA", "amenity": "post_box", "brand": "United States Postal Service", "brand:wikidata": "Q668687", "collection_times": "Mo-Sa 09:30", "name": "USPS COLLECTION BOX - BLUE BOX", "nsi_id": "unitedstatespostalservice-a77078", "operator": "United States Postal Service", "operator:short": "USPS", "operator:type": "public", "operator:wikidata": "Q668687", "ref": "1606300018"}, "type": "Feature"}
{"dataset_attributes": {"@spider": "usps_collection_boxes", "spider:collection_time": "2023-12-28T08:25:01.581378"}, "geometry": {"coordinates": [-80.1368686, 40.794498], "type": "Point"}, "id": "h7fBrocQurQDBkhDnOrrDMLgT6k=", "properties": {"@spider": "usps_collection_boxes", "addr:city": "ZELIENOPLE", "addr:country": "US", "addr:full": "147 S MAIN ST", "addr:postcode": "16063", "addr:state": "PA", "amenity": "post_box", "brand": "United States Postal Service", "brand:wikidata": "Q668687", "collection_times": "Mo-Sa 09:00", "name": "USPS COLLECTION BOX - BLUE BOX", "nsi_id": "unitedstatespostalservice-a77078", "operator": "United States Postal Service", "operator:short": "USPS", "operator:type": "public", "operator:wikidata": "Q668687", "ref": "1606300023"}, "type": "Feature"}
{"dataset_attributes": {"@spider": "usps_collection_boxes", "spider:collection_time": "2023-12-28T08:25:01.581378"}, "geometry": {"coordinates": [-80.136496374, 40.792840387], "type": "Point"}, "id": "DuFgjwHJYvLQtnHXkXHNEi1SKC0=", "properties": {"@spider": "usps_collection_boxes", "addr:city": "ZELIENOPLE", "addr:country": "US", "addr:full": "249 S MAIN ST", "addr:postcode": "16063", "addr:state": "PA", "amenity": "post_box", "brand": "United States Postal Service", "brand:wikidata": "Q668687", "collection_times": "Mo-Fr 17:00; Sa 11:30", "name": "USPS COLLECTION BOX - BLUE BOX", "note": "ON 12/24 AND 12/31, THIS BOX MAY BE COLLECTED AS EARLY AS 12 NOON.", "nsi_id": "unitedstatespostalservice-a77078", "operator": "United States Postal Service", "operator:short": "USPS", "operator:type": "public", "operator:wikidata": "Q668687", "ref": "1606300024"}, "type": "Feature"}
{"dataset_attributes": {"@spider": "usps_collection_boxes", "spider:collection_time": "2023-12-28T08:25:01.581378"}, "geometry": {"coordinates": [-80.1375077, 40.792651], "type": "Point"}, "id": "in0GdC8hrWSHyn7tQ3bVdjLrEA4=", "properties": {"@spider": "usps_collection_boxes", "addr:city": "ZELIENOPLE", "addr:country": "US", "addr:full": "234 S CLAY ST", "addr:postcode": "16063", "addr:state": "PA", "amenity": "post_box", "brand": "United States Postal Service", "brand:wikidata": "Q668687", "collection_times": "Mo-Fr 16:45; Sa 13:45", "name": "USPS COLLECTION BOX - BLUE BOX", "note": "ON 12/24 AND 12/31, THIS BOX MAY BE COLLECTED AS EARLY AS 12 NOON.", "nsi_id": "unitedstatespostalservice-a77078", "operator": "United States Postal Service", "operator:short": "USPS", "operator:type": "public", "operator:wikidata": "Q668687", "ref": "1606300025"}, "type": "Feature"}
{"dataset_attributes": {"@spider": "usps_collection_boxes", "spider:collection_time": "2023-12-28T08:25:01.581378"}, "geometry": {"coordinates": [-80.122026, 40.756963], "type": "Point"}, "id": "YAHrSzB7_rEeKchEHJSXK6BeBvE=", "properties": {"@spider": "usps_collection_boxes", "addr:city": "ZELIENOPLE", "addr:country": "US", "addr:full": "1010 JACKSONS POINTE CT", "addr:postcode": "16063", "addr:state": "PA", "amenity": "post_box", "brand": "United States Postal Service", "brand:wikidata": "Q668687", "collection_times": "Mo-Sa 09:30", "name": "USPS COLLECTION BOX - BLUE BOX", "nsi_id": "unitedstatespostalservice-a77078", "operator": "United States Postal Service", "operator:short": "USPS", "operator:type": "public", "operator:wikidata": "Q668687", "ref": "1606300026"}, "type": "Feature"}
{"dataset_attributes": {"@spider": "usps_collection_boxes", "spider:collection_time": "2023-12-28T08:25:01.581378"}, "geometry": {"coordinates": [-80.136496374, 40.792840387], "type": "Point"}, "id": "mgs6GAQ_4yBu5cMl_w3IudVqfAw=", "properties": {"@spider": "usps_collection_boxes", "addr:city": "ZELIENOPLE", "addr:country": "US", "addr:full": "249 S MAIN ST", "addr:postcode": "16063", "addr:state": "PA", "amenity": "post_box", "brand": "United States Postal Service", "brand:wikidata": "Q668687", "collection_times": "Mo-Fr 17:15; Sa 14:00", "name": "USPS COLLECTION BOX - PO LOBBY", "note": "ON 12/24 AND 12/31, THIS BOX MAY BE COLLECTED AS EARLY AS 12 NOON.", "nsi_id": "unitedstatespostalservice-a77078", "operator": "United States Postal Service", "operator:short": "USPS", "operator:type": "public", "operator:wikidata": "Q668687", "ref": "1606300027"}, "type": "Feature"}
{"dataset_attributes": {"@spider": "usps_collection_boxes", "spider:collection_time": "2023-12-28T08:25:01.581378"}, "geometry": {"coordinates": [-80.136496374, 40.792840387], "type": "Point"}, "id": "ysUoKhEJqtIPWLt6PswjMAkxMLQ=", "properties": {"@spider": "usps_collection_boxes", "addr:city": "ZELIENOPLE", "addr:country": "US", "addr:full": "249 S MAIN ST", "addr:postcode": "16063", "addr:state": "PA", "amenity": "post_box", "brand": "United States Postal Service", "brand:wikidata": "Q668687", "collection_times": "Mo-Fr 17:00; Sa 12:00", "name": "USPS COLLECTION BOX - PO LOBBY", "note": "ON 12/24 AND 12/31, THIS BOX MAY BE COLLECTED AS EARLY AS 12 NOON.", "nsi_id": "unitedstatespostalservice-a77078", "operator": "United States Postal Service", "operator:short": "USPS", "operator:type": "public", "operator:wikidata": "Q668687", "ref": "1606300029"}, "type": "Feature"}
{"dataset_attributes": {"@spider": "usps_collection_boxes", "spider:collection_time": "2023-12-28T08:25:01.581378"}, "geometry": {"coordinates": [-80.108520151, 40.689738169], "type": "Point"}, "id": "LxNo5iayi9xg9dXI1R6xbfGBTVU=", "properties": {"@spider": "usps_collection_boxes", "addr:city": "CRANBERRY TWP", "addr:country": "US", "addr:full": "240 EXECUTIVE DR", "addr:postcode": "16066", "addr:state": "PA", "amenity": "post_box", "brand": "United States Postal Service", "brand:wikidata": "Q668687", "collection_times": "Mo-Fr 17:30; Sa 15:00", "name": "USPS COLLECTION BOX - BLUE BOX", "note": "ON 12/24 AND 12/31, THIS BOX MAY BE COLLECTED AS EARLY AS 12 NOON.", "nsi_id": "unitedstatespostalservice-a77078", "operator": "United States Postal Service", "operator:short": "USPS", "operator:type": "public", "operator:wikidata": "Q668687", "ref": "1606600006"}, "type": "Feature"}
{"dataset_attributes": {"@spider": "usps_collection_boxes", "spider:collection_time": "2023-12-28T08:25:01.581378"}, "geometry": {"coordinates": [-80.108520151, 40.689738169], "type": "Point"}, "id": "jA202HOjx7q47M4-N35U5WZcrrs=", "properties": {"@spider": "usps_collection_boxes", "addr:city": "CRANBERRY TWP", "addr:country": "US", "addr:full": "240 EXECUTIVE DR", "addr:postcode": "16066", "addr:state": "PA", "amenity": "post_box", "brand": "United States Postal Service", "brand:wikidata": "Q668687", "collection_times": "Mo-Fr 17:30; Sa 15:00", "name": "USPS COLLECTION BOX - BLUE BOX", "note": "ON 12/24 AND 12/31, THIS BOX MAY BE COLLECTED AS EARLY AS 12 NOON.", "nsi_id": "unitedstatespostalservice-a77078", "operator": "United States Postal Service", "operator:short": "USPS", "operator:type": "public", "operator:wikidata": "Q668687", "ref": "1606600007"}, "type": "Feature"}
{"dataset_attributes": {"@spider": "usps_collection_boxes", "spider:collection_time": "2023-12-28T08:25:01.581378"}, "geometry": {"coordinates": [-80.108520151, 40.689738169], "type": "Point"}, "id": "l3odra_B8lsqNTYS0ee6X4MMK_Q=", "properties": {"@spider": "usps_collection_boxes", "addr:city": "CRANBERRY TWP", "addr:country": "US", "addr:full": "240 EXECUTIVE DR", "addr:postcode": "16066", "addr:state": "PA", "amenity": "post_box", "brand": "United States Postal Service", "brand:wikidata": "Q668687", "collection_times": "Mo-Fr 17:30; Sa 15:00", "name": "USPS COLLECTION BOX - BLUE BOX", "note": "ON 12/24 AND 12/31, THIS BOX MAY BE COLLECTED AS EARLY AS 12 NOON.", "nsi_id": "unitedstatespostalservice-a77078", "operator": "United States Postal Service", "operator:short": "USPS", "operator:type": "public", "operator:wikidata": "Q668687", "ref": "1606600008"}, "type": "Feature"}
{"dataset_attributes": {"@spider": "usps_collection_boxes", "spider:collection_time": "2023-12-28T08:25:01.581378"}, "geometry": {"coordinates": [-80.108520151, 40.689738169], "type": "Point"}, "id": "-if4BU5hMofLjkS7FNbOjYEvXQc=", "properties": {"@spider": "usps_collection_boxes", "addr:city": "CRANBERRY TWP", "addr:country": "US", "addr:full": "240 EXECUTIVE DR", "addr:postcode": "16066", "addr:state": "PA", "amenity": "post_box", "brand": "United States Postal Service", "brand:wikidata": "Q668687", "collection_times": "Mo-Fr 17:30; Sa 15:00", "name": "USPS COLLECTION BOX - PO LOBBY", "note": "ON 12/24 AND 12/31, THIS BOX MAY BE COLLECTED AS EARLY AS 12 NOON.", "nsi_id": "unitedstatespostalservice-a77078", "operator": "United States Postal Service", "operator:short": "USPS", "operator:type": "public", "operator:wikidata": "Q668687", "ref": "1606600012"}, "type": "Feature"}
{"dataset_attributes": {"@spider": "usps_collection_boxes", "spider:collection_time": "2023-12-28T08:25:01.581378"}, "geometry": {"coordinates": [-80.1061290224, 40.6837000049], "type": "Point"}, "id": "DqXV8p-A_gsDF0FGU2TEgn7sQzU=", "properties": {"@spider": "usps_collection_boxes", "addr:city": "CRANBERRY TWP", "addr:country": "US", "addr:full": "20111 ROUTE 19", "addr:postcode": "16066", "addr:state": "PA", "amenity": "post_box", "brand": "United States Postal Service", "brand:wikidata": "Q668687", "collection_times": "Mo-Sa 10:00", "name": "USPS COLLECTION BOX - BLUE BOX", "nsi_id": "unitedstatespostalservice-a77078", "operator": "United States Postal Service", "operator:short": "USPS", "operator:type": "public", "operator:wikidata": "Q668687", "ref": "1606600013"}, "type": "Feature"}
{"dataset_attributes": {"@spider": "usps_collection_boxes", "spider:collection_time": "2023-12-28T08:25:01.581378"}, "geometry": {"coordinates": [-80.1132333, 40.708494], "type": "Point"}, "id": "lbDTGzMKdDexqe8jFISPWi10dto=", "properties": {"@spider": "usps_collection_boxes", "addr:city": "CRANBERRY TWP", "addr:country": "US", "addr:full": "3104 UNIONVILLE RD", "addr:postcode": "16066", "addr:state": "PA", "amenity": "post_box", "brand": "United States Postal Service", "brand:wikidata": "Q668687", "collection_times": "Mo-Sa 11:00", "name": "USPS COLLECTION BOX - BLUE BOX", "nsi_id": "unitedstatespostalservice-a77078", "operator": "United States Postal Service", "operator:short": "USPS", "operator:type": "public", "operator:wikidata": "Q668687", "ref": "1606600014"}, "type": "Feature"}
{"dataset_attributes": {"@spider": "usps_collection_boxes", "spider:collection_time": "2023-12-28T08:25:01.581378"}, "geometry": {"coordinates": [-80.1018799, 40.697568], "type": "Point"}, "id": "PcKcvbEhzgpZEACRIpAdvb7MSf8=", "properties": {"@spider": "usps_collection_boxes", "addr:city": "CRANBERRY TWP", "addr:country": "US", "addr:full": "401 SMITH DR", "addr:postcode": "16066", "addr:state": "PA", "amenity": "post_box", "brand": "United States Postal Service", "brand:wikidata": "Q668687", "collection_times": "Mo-Sa 11:00", "name": "USPS COLLECTION BOX - BLUE BOX", "nsi_id": "unitedstatespostalservice-a77078", "operator": "United States Postal Service", "operator:short": "USPS", "operator:type": "public", "operator:wikidata": "Q668687", "ref": "1606600017"}, "type": "Feature"}
{"dataset_attributes": {"@spider": "usps_collection_boxes", "spider:collection_time": "2023-12-28T08:25:01.581378"}, "geometry": {"coordinates": [-80.1084431, 40.687324], "type": "Point"}, "id": "VVIcZQqjeig5qEPEtUHERwKQUC0=", "properties": {"@spider": "usps_collection_boxes", "addr:city": "CRANBERRY TWP", "addr:country": "US", "addr:full": "220 EXECUTIVE DR", "addr:postcode": "16066", "addr:state": "PA", "amenity": "post_box", "brand": "United States Postal Service", "brand:wikidata": "Q668687", "collection_times": "Mo-Sa 11:00", "name": "USPS COLLECTION BOX - BLUE BOX", "nsi_id": "unitedstatespostalservice-a77078", "operator": "United States Postal Service", "operator:short": "USPS", "operator:type": "public", "operator:wikidata": "Q668687", "ref": "1606600018"}, "type": "Feature"}
{"dataset_attributes": {"@spider": "usps_collection_boxes", "spider:collection_time": "2023-12-28T08:25:01.581378"}, "geometry": {"coordinates": [-80.0845035, 40.688112], "type": "Point"}, "id": "wtUXmhC9OWp4cmTe68VOTz4yxxk=", "properties": {"@spider": "usps_collection_boxes", "addr:city": "CRANBERRY TWP", "addr:country": "US", "addr:full": "1717 ROUTE 228", "addr:postcode": "16066", "addr:state": "PA", "amenity": "post_box", "brand": "United States Postal Service", "brand:wikidata": "Q668687", "collection_times": "Mo-Sa 10:00", "name": "USPS COLLECTION BOX - BLUE BOX", "nsi_id": "unitedstatespostalservice-a77078", "operator": "United States Postal Service", "operator:short": "USPS", "operator:type": "public", "operator:wikidata": "Q668687", "ref": "1606600019"}, "type": "Feature"}
{"dataset_attributes": {"@spider": "usps_collection_boxes", "spider:collection_time": "2023-12-28T08:25:01.581378"}, "geometry": {"coordinates": [-80.108520151, 40.689738169], "type": "Point"}, "id": "mpctUYpt7m3m0812K07xZGwPHNY=", "properties": {"@spider": "usps_collection_boxes", "addr:city": "CRANBERRY TWP", "addr:country": "US", "addr:full": "240 EXECUTIVE DR", "addr:postcode": "16066", "addr:state": "PA", "amenity": "post_box", "brand": "United States Postal Service", "brand:wikidata": "Q668687", "collection_times": "Mo-Fr 17:00; Sa 15:00", "name": "USPS COLLECTION BOX - APC", "note": "ON 12/24 AND 12/31, THIS BOX MAY BE COLLECTED AS EARLY AS 12 NOON.", "nsi_id": "unitedstatespostalservice-a77078", "operator": "United States Postal Service", "operator:short": "USPS", "operator:type": "public", "operator:wikidata": "Q668687", "ref": "1606600020"}, "type": "Feature"}
{"dataset_attributes": {"@spider": "usps_collection_boxes", "spider:collection_time": "2023-12-28T08:25:01.581378"}, "geometry": {"coordinates": [-80.108520151, 40.689738169], "type": "Point"}, "id": "KQwIMa5LxJiNskMo9U4zLxKAxDg=", "properties": {"@spider": "usps_collection_boxes", "addr:city": "CRANBERRY TWP", "addr:country": "US", "addr:full": "240 EXECUTIVE DR", "addr:postcode": "16066", "addr:state": "PA", "amenity": "post_box", "brand": "United States Postal Service", "brand:wikidata": "Q668687", "collection_times": "Mo-Fr 17:30; Sa 15:00", "name": "USPS COLLECTION BOX - PO LOBBY", "note": "ON 12/24 AND 12/31, THIS BOX MAY BE COLLECTED AS EARLY AS 12 NOON.", "nsi_id": "unitedstatespostalservice-a77078", "operator": "United States Postal Service", "operator:short": "USPS", "operator:type": "public", "operator:wikidata": "Q668687", "ref": "1606600021"}, "type": "Feature"}
{"dataset_attributes": {"@spider": "usps_collection_boxes", "spider:collection_time": "2023-12-28T08:25:01.581378"}, "geometry": {"coordinates": [-80.0953507, 40.668131], "type": "Point"}, "id": "1GsC0hYEG8yk2be9osJfHywSJZo=", "properties": {"@spider": "usps_collection_boxes", "addr:city": "CRANBERRY TWP", "addr:country": "US", "addr:full": "910 SHERATON DR", "addr:postcode": "16066", "addr:state": "PA", "amenity": "post_box", "brand": "United States Postal Service", "brand:wikidata": "Q668687", "collection_times": "Mo-Fr 10:00", "name": "USPS COLLECTION BOX - BLUE BOX", "nsi_id": "unitedstatespostalservice-a77078", "operator": "United States Postal Service", "operator:short": "USPS", "operator:type": "public", "operator:wikidata": "Q668687", "ref": "1606600022"}, "type": "Feature"}
{"dataset_attributes": {"@spider": "usps_collection_boxes", "spider:collection_time": "2023-12-28T08:25:01.581378"}, "geometry": {"coordinates": [-80.1083179, 40.698409], "type": "Point"}, "id": "tbDmnMrfIXgn_aopKzAZIkJdwgc=", "properties": {"@spider": "usps_collection_boxes", "addr:city": "CRANBERRY TWP", "addr:country": "US", "addr:full": "2525 ROCHESTER RD", "addr:postcode": "16066", "addr:state": "PA", "amenity": "post_box", "brand": "United States Postal Service", "brand:wikidata": "Q668687", "collection_times": "Mo-Fr 10:00", "name": "USPS COLLECTION BOX - BLUE BOX", "nsi_id": "unitedstatespostalservice-a77078", "operator": "United States Postal Service", "operator:short": "USPS", "operator:type": "public", "operator:wikidata": "Q668687", "ref": "1606600023"}, "type": "Feature"}
{"dataset_attributes": {"@spider": "usps_collection_boxes", "spider:collection_time": "2023-12-28T08:25:01.581378"}, "geometry": {"coordinates": [-80.121640204, 40.682251823], "type": "Point"}, "id": "WQ-gO5ptMpycd9yEFXJSXbUtQPk=", "properties": {"@spider": "usps_collection_boxes", "addr:city": "CRANBERRY TWP", "addr:country": "US", "addr:full": "1197 FREEDOM RD", "addr:postcode": "16066", "addr:state": "PA", "amenity": "post_box", "brand": "United States Postal Service", "brand:wikidata": "Q668687", "collection_times": "Mo-Fr 16:00; Sa 14:00", "name": "USPS COLLECTION BOX - BLUE BOX", "note": "ON 12/24 AND 12/31, THIS BOX MAY BE COLLECTED AS EARLY AS 12 NOON.", "nsi_id": "unitedstatespostalservice-a77078", "operator": "United States Postal Service", "operator:short": "USPS", "operator:type": "public", "operator:wikidata": "Q668687", "ref": "1606600028"}, "type": "Feature"}
{"dataset_attributes": {"@spider": "usps_collection_boxes", "spider:collection_time": "2023-12-28T08:25:01.581378"}, "geometry": {"coordinates": [-80.108520151, 40.689738169], "type": "Point"}, "id": "RzwH1vewHVZ8I28PRz_2vdcM1mU=", "properties": {"@spider": "usps_collection_boxes", "addr:city": "CRANBERRY TWP", "addr:country": "US", "addr:full": "240 EXECUTIVE DR", "addr:postcode": "16066", "addr:state": "PA", "amenity": "post_box", "brand": "United States Postal Service", "brand:wikidata": "Q668687", "collection_times": "Mo-Fr 18:00; Sa 15:00", "name": "USPS COLLECTION BOX - PO LOBBY", "note": "ON 12/24 AND 12/31, THIS BOX MAY BE COLLECTED AS EARLY AS 12 NOON.", "nsi_id": "unitedstatespostalservice-a77078", "operator": "United States Postal Service", "operator:short": "USPS", "operator:type": "public", "operator:wikidata": "Q668687", "ref": "1606600034"}, "type": "Feature"}
