{"dataset_attributes": {"@spider": "usps_collection_boxes", "spider:collection_time": "2023-11-07T08:25:32.615229"}, "geometry": {"coordinates": [-80.344266158, 41.0007063666], "type": "Point"}, "id": "cJmcFHP9hejDkmHelnnj10ZtNVo=", "properties": {"@spider": "usps_collection_boxes", "addr:city": "NEW CASTLE", "addr:country": "US", "addr:full": "18 N MILL ST", "addr:postcode": "16101", "addr:state": "PA", "amenity": "post_box", "brand": "United States Postal Service", "brand:wikidata": "Q668687", "collection_times": "Mo-Fr 17:30", "name": "USPS COLLECTION BOX - BLUE BOX", "note": "ON 12/24 AND 12/31, THIS BOX MAY BE COLLECTED AS EARLY AS 12 NOON.", "nsi_id": "unitedstatespostalservice-a77078", "operator": "United States Postal Service", "operator:short": "USPS", "operator:type": "public", "operator:wikidata": "Q668687", "ref": "1610100001"}, "type": "Feature"}
{"dataset_attributes": {"@spider": "usps_collection_boxes", "spider:collection_time": "2023-11-07T08:25:32.615229"}, "geometry": {"coordinates": [-80.3478734, 40.997731], "type": "Point"}, "id": "vVT-hBLTJdOyaGH47_bEzLHS8HU=", "properties": {"@spider": "usps_collection_boxes", "addr:city": "NEW CASTLE", "addr:country": "US", "addr:full": "100 S JEFFERSON ST", "addr:postcode": "16101", "addr:state": "PA", "amenity": "post_box", "brand": "United States Postal Service", "brand:wikidata": "Q668687", "collection_times": "Mo-Fr 17:30; Sa 15:00", "name": "USPS COLLECTION BOX - BLUE BOX", "note": "ON 12/24 AND 12/31, THIS BOX MAY BE COLLECTED AS EARLY AS 12 NOON.", "nsi_id": "unitedstatespostalservice-a77078", "operator": "United States Postal Service", "operator:short": "USPS", "operator:type": "public", "operator:wikidata": "Q668687", "ref": "1610100012"}, "type": "Feature"}
{"dataset_attributes": {"@spider": "usps_collection_boxes", "spider:collection_time": "2023-11-07T08:25:32.615229"}, "geometry": {"coordinates": [-80.3456108, 40.998548], "type": "Point"}, "id": "DYYt8eltYfDXyPDYr-g2atZhsRA=", "properties": {"@spider": "usps_collection_boxes", "addr:city": "NEW CASTLE", "addr:country": "US", "addr:full": "41 S MERCER ST", "addr:postcode": "16101", "addr:state": "PA", "amenity": "post_box", "brand": "United States Postal Service", "brand:wikidata": "Q668687", "collection_times": "Mo-Fr 17:30; Sa 15:00", "name": "USPS COLLECTION BOX - BLUE BOX", "note": "ON 12/24 AND 12/31, THIS BOX MAY BE COLLECTED AS EARLY AS 12 NOON.", "nsi_id": "unitedstatespostalservice-a77078", "operator": "United States Postal Service", "operator:short": "USPS", "operator:type": "public", "operator:wikidata": "Q668687", "ref": "1610100015"}, "type": "Feature"}
{"dataset_attributes": {"@spider": "usps_collection_boxes", "spider:collection_time": "2023-11-07T08:25:32.615229"}, "geometry": {"coordinates": [-80.348304119, 41.008892102], "type": "Point"}, "id": "UpXwSvvTrCSFwMpPjISHuY2NZYw=", "properties": {"@spider": "usps_collection_boxes", "addr:city": "NEW CASTLE", "addr:country": "US", "addr:full": "704 WILMINGTON AVE", "addr:postcode": "16101", "addr:state": "PA", "amenity": "post_box", "brand": "United States Postal Service", "brand:wikidata": "Q668687", "collection_times": "Mo-Sa 15:00", "name": "USPS COLLECTION BOX - BLUE BOX", "note": "ON 12/24 AND 12/31, THIS BOX MAY BE COLLECTED AS EARLY AS 12 NOON.", "nsi_id": "unitedstatespostalservice-a77078", "operator": "United States Postal Service", "operator:short": "USPS", "operator:type": "public", "operator:wikidata": "Q668687", "ref": "1610100016"}, "type": "Feature"}
{"dataset_attributes": {"@spider": "usps_collection_boxes", "spider:collection_time": "2023-11-07T08:25:32.615229"}, "geometry": {"coordinates": [-80.3072304, 40.963604], "type": "Point"}, "id": "Di15E486GswaGWE-h9SJzT8QD0Y=", "properties": {"@spider": "usps_collection_boxes", "addr:city": "NEW CASTLE", "addr:country": "US", "addr:full": "2650 ELLWOOD RD", "addr:postcode": "16101", "addr:state": "PA", "amenity": "post_box", "brand": "United States Postal Service", "brand:wikidata": "Q668687", "collection_times": "Mo-Fr 14:30; Sa 13:30", "name": "USPS COLLECTION BOX - BLUE BOX", "note": "ON 12/24 AND 12/31, THIS BOX MAY BE COLLECTED AS EARLY AS 12 NOON.", "nsi_id": "unitedstatespostalservice-a77078", "operator": "United States Postal Service", "operator:short": "USPS", "operator:type": "public", "operator:wikidata": "Q668687", "ref": "1610100034"}, "type": "Feature"}
{"dataset_attributes": {"@spider": "usps_collection_boxes", "spider:collection_time": "2023-11-07T08:25:32.615229"}, "geometry": {"coordinates": [-80.3132126, 40.984877], "type": "Point"}, "id": "S18jhoMocQkUfsvdIcmSGqlrX6E=", "properties": {"@spider": "usps_collection_boxes", "addr:city": "NEW CASTLE", "addr:country": "US", "addr:full": "1700 NEW BUTLER RD", "addr:postcode": "16101", "addr:state": "PA", "amenity": "post_box", "brand": "United States Postal Service", "brand:wikidata": "Q668687", "collection_times": "Mo-Fr 14:30; Sa 13:30", "name": "USPS COLLECTION BOX - BLUE BOX", "note": "ON 12/24 AND 12/31, THIS BOX MAY BE COLLECTED AS EARLY AS 12 NOON.", "nsi_id": "unitedstatespostalservice-a77078", "operator": "United States Postal Service", "operator:short": "USPS", "operator:type": "public", "operator:wikidata": "Q668687", "ref": "1610100035"}, "type": "Feature"}
{"dataset_attributes": {"@spider": "usps_collection_boxes", "spider:collection_time": "2023-11-07T08:25:32.615229"}, "geometry": {"coordinates": [-80.3386803, 40.998459], "type": "Point"}, "id": "DFc3Kx9ea5yN24TaFabLkmzixkU=", "properties": {"@spider": "usps_collection_boxes", "addr:city": "NEW CASTLE", "addr:country": "US", "addr:full": "430 COURT ST", "addr:postcode": "16101", "addr:state": "PA", "amenity": "post_box", "brand": "United States Postal Service", "brand:wikidata": "Q668687", "collection_times": "Mo-Fr 17:30; Sa 15:00", "name": "USPS COLLECTION BOX - BLUE BOX", "note": "ON 12/24 AND 12/31, THIS BOX MAY BE COLLECTED AS EARLY AS 12 NOON.", "nsi_id": "unitedstatespostalservice-a77078", "operator": "United States Postal Service", "operator:short": "USPS", "operator:type": "public", "operator:wikidata": "Q668687", "ref": "1610100037"}, "type": "Feature"}
{"dataset_attributes": {"@spider": "usps_collection_boxes", "spider:collection_time": "2023-11-07T08:25:32.615229"}, "geometry": {"coordinates": [-80.3959149, 41.010009], "type": "Point"}, "id": "Hj8kuYeP5RQx7LabUe1AsdIXSZQ=", "properties": {"@spider": "usps_collection_boxes", "addr:city": "NEW CASTLE", "addr:country": "US", "addr:full": "2515 W STATE ST", "addr:postcode": "16101", "addr:state": "PA", "amenity": "post_box", "brand": "United States Postal Service", "brand:wikidata": "Q668687", "collection_times": "Mo-Fr 15:00; Sa 13:45", "name": "USPS COLLECTION BOX - BLUE BOX", "note": "ON 12/24 AND 12/31, THIS BOX MAY BE COLLECTED AS EARLY AS 12 NOON.", "nsi_id": "unitedstatespostalservice-a77078", "operator": "United States Postal Service", "operator:short": "USPS", "operator:type": "public", "operator:wikidata": "Q668687", "ref": "1610100039"}, "type": "Feature"}
{"dataset_attributes": {"@spider": "usps_collection_boxes", "spider:collection_time": "2023-11-07T08:25:32.615229"}, "geometry": {"coordinates": [-80.38004035, 41.00728821], "type": "Point"}, "id": "JsGTJu43YC5SnA_KuLFe_9TGImo=", "properties": {"@spider": "usps_collection_boxes", "addr:city": "NEW CASTLE", "addr:country": "US", "addr:full": "2050 W STATE ST", "addr:postcode": "16101", "addr:state": "PA", "amenity": "post_box", "brand": "United States Postal Service", "brand:wikidata": "Q668687", "collection_times": "Mo-Fr 15:00; Sa 13:45", "name": "USPS COLLECTION BOX - BLUE BOX", "note": "ON 12/24 AND 12/31, THIS BOX MAY BE COLLECTED AS EARLY AS 12 NOON.", "nsi_id": "unitedstatespostalservice-a77078", "operator": "United States Postal Service", "operator:short": "USPS", "operator:type": "public", "operator:wikidata": "Q668687", "ref": "1610100051"}, "type": "Feature"}
{"dataset_attributes": {"@spider": "usps_collection_boxes", "spider:collection_time": "2023-11-07T08:25:32.615229"}, "geometry": {"coordinates": [-80.3386704, 40.998465], "type": "Point"}, "id": "KyGjA4f5UCTWxX32Cam5MnK2C9w=", "properties": {"@spider": "usps_collection_boxes", "addr:city": "NEW CASTLE", "addr:country": "US", "addr:full": "430 COURT ST", "addr:postcode": "16101", "addr:state": "PA", "amenity": "post_box", "brand": "United States Postal Service", "brand:wikidata": "Q668687", "collection_times": "Mo-Fr 17:30; Sa 15:00", "name": "USPS COLLECTION BOX - BLUE BOX", "note": "ON 12/24 AND 12/31, THIS BOX MAY BE COLLECTED AS EARLY AS 12 NOON.", "nsi_id": "unitedstatespostalservice-a77078", "operator": "United States Postal Service", "operator:short": "USPS", "operator:type": "public", "operator:wikidata": "Q668687", "ref": "1610100055"}, "type": "Feature"}
{"dataset_attributes": {"@spider": "usps_collection_boxes", "spider:collection_time": "2023-11-07T08:25:32.615229"}, "geometry": {"coordinates": [-80.3386889, 40.998454], "type": "Point"}, "id": "mB1i7ThqF69Qcj72CxUnuOeDYQ4=", "properties": {"@spider": "usps_collection_boxes", "addr:city": "NEW CASTLE", "addr:country": "US", "addr:full": "430 COURT ST", "addr:postcode": "16101", "addr:state": "PA", "amenity": "post_box", "brand": "United States Postal Service", "brand:wikidata": "Q668687", "collection_times": "Mo-Fr 17:30; Sa 15:00", "name": "USPS COLLECTION BOX - BLUE BOX", "note": "ON 12/24 AND 12/31, THIS BOX MAY BE COLLECTED AS EARLY AS 12 NOON.", "nsi_id": "unitedstatespostalservice-a77078", "operator": "United States Postal Service", "operator:short": "USPS", "operator:type": "public", "operator:wikidata": "Q668687", "ref": "1610100056"}, "type": "Feature"}
{"dataset_attributes": {"@spider": "usps_collection_boxes", "spider:collection_time": "2023-11-07T08:25:32.615229"}, "geometry": {"coordinates": [-80.3448867, 40.986685], "type": "Point"}, "id": "kxZ8bKyy-gVcidEuM4rBSRoSj9s=", "properties": {"@spider": "usps_collection_boxes", "addr:city": "NEW CASTLE", "addr:country": "US", "addr:full": "104 PLAZA ST S", "addr:postcode": "16101", "addr:state": "PA", "amenity": "post_box", "brand": "United States Postal Service", "brand:wikidata": "Q668687", "collection_times": "Mo-Sa 09:00", "name": "USPS COLLECTION BOX - BLUE BOX", "nsi_id": "unitedstatespostalservice-a77078", "operator": "United States Postal Service", "operator:short": "USPS", "operator:type": "public", "operator:wikidata": "Q668687", "ref": "1610100058"}, "type": "Feature"}
{"dataset_attributes": {"@spider": "usps_collection_boxes", "spider:collection_time": "2023-11-07T08:25:32.615229"}, "geometry": {"coordinates": [-80.320094389, 40.994681846], "type": "Point"}, "id": "p4OWED0ziLbIWV80CHeAVQu-NLk=", "properties": {"@spider": "usps_collection_boxes", "addr:city": "NEW CASTLE", "addr:country": "US", "addr:full": "435 S CASCADE ST", "addr:postcode": "16101", "addr:state": "PA", "amenity": "post_box", "brand": "United States Postal Service", "brand:wikidata": "Q668687", "collection_times": "Mo-Sa 18:00", "name": "USPS COLLECTION BOX - BLUE BOX", "note": "ON 12/24 AND 12/31, THIS BOX MAY BE COLLECTED AS EARLY AS 12 NOON.", "nsi_id": "unitedstatespostalservice-a77078", "operator": "United States Postal Service", "operator:short": "USPS", "operator:type": "public", "operator:wikidata": "Q668687", "ref": "1610100059"}, "type": "Feature"}
{"dataset_attributes": {"@spider": "usps_collection_boxes", "spider:collection_time": "2023-11-07T08:25:32.615229"}, "geometry": {"coordinates": [-80.320094389, 40.994681846], "type": "Point"}, "id": "61ekAzSBfb_tyj0XzlZAhSZssX8=", "properties": {"@spider": "usps_collection_boxes", "addr:city": "NEW CASTLE", "addr:country": "US", "addr:full": "435 S CASCADE ST", "addr:postcode": "16101", "addr:state": "PA", "amenity": "post_box", "brand": "United States Postal Service", "brand:wikidata": "Q668687", "collection_times": "Mo-Sa 18:00", "name": "USPS COLLECTION BOX - BLUE BOX", "note": "ON 12/24 AND 12/31, THIS BOX MAY BE COLLECTED AS EARLY AS 12 NOON.", "nsi_id": "unitedstatespostalservice-a77078", "operator": "United States Postal Service", "operator:short": "USPS", "operator:type": "public", "operator:wikidata": "Q668687", "ref": "1610100060"}, "type": "Feature"}
{"dataset_attributes": {"@spider": "usps_collection_boxes", "spider:collection_time": "2023-11-07T08:25:32.615229"}, "geometry": {"coordinates": [-80.320094389, 40.994681846], "type": "Point"}, "id": "8aJ0VGRroPKBCM5gn4khH3N1MC0=", "properties": {"@spider": "usps_collection_boxes", "addr:city": "NEW CASTLE", "addr:country": "US", "addr:full": "435 S CASCADE ST", "addr:postcode": "16101", "addr:state": "PA", "amenity": "post_box", "brand": "United States Postal Service", "brand:wikidata": "Q668687", "collection_times": "Mo-Sa 18:00", "name": "USPS COLLECTION BOX - BLUE BOX", "note": "ON 12/24 AND 12/31, THIS BOX MAY BE COLLECTED AS EARLY AS 12 NOON.", "nsi_id": "unitedstatespostalservice-a77078", "operator": "United States Postal Service", "operator:short": "USPS", "operator:type": "public", "operator:wikidata": "Q668687", "ref": "1610100061"}, "type": "Feature"}
{"dataset_attributes": {"@spider": "usps_collection_boxes", "spider:collection_time": "2023-11-07T08:25:32.615229"}, "geometry": {"coordinates": [-80.3478896, 40.999628], "type": "Point"}, "id": "_lWbWyuZZaiVFPzOesT879Fw_ro=", "properties": {"@spider": "usps_collection_boxes", "addr:city": "NEW CASTLE", "addr:country": "US", "addr:full": "15 W WASHINGTON ST", "addr:postcode": "16101", "addr:state": "PA", "amenity": "post_box", "brand": "United States Postal Service", "brand:wikidata": "Q668687", "collection_times": "Mo-Fr 15:00; Sa 13:45", "name": "USPS COLLECTION BOX - BLUE BOX", "note": "ON 12/24 AND 12/31, THIS BOX MAY BE COLLECTED AS EARLY AS 12 NOON.", "nsi_id": "unitedstatespostalservice-a77078", "operator": "United States Postal Service", "operator:short": "USPS", "operator:type": "public", "operator:wikidata": "Q668687", "ref": "1610100069"}, "type": "Feature"}
{"dataset_attributes": {"@spider": "usps_collection_boxes", "spider:collection_time": "2023-11-07T08:25:32.615229"}, "geometry": {"coordinates": [-80.3939113, 41.009394], "type": "Point"}, "id": "-Nxn-Fa4puEXOugRhw8frHv1xHc=", "properties": {"@spider": "usps_collection_boxes", "addr:city": "NEW CASTLE", "addr:country": "US", "addr:full": "2501 W STATE ST", "addr:postcode": "16101", "addr:state": "PA", "amenity": "post_box", "brand": "United States Postal Service", "brand:wikidata": "Q668687", "collection_times": "Mo-Fr 15:00; Sa 13:45", "name": "USPS COLLECTION BOX - BLUE BOX", "note": "ON 12/24 AND 12/31, THIS BOX MAY BE COLLECTED AS EARLY AS 12 NOON.", "nsi_id": "unitedstatespostalservice-a77078", "operator": "United States Postal Service", "operator:short": "USPS", "operator:type": "public", "operator:wikidata": "Q668687", "ref": "1610100070"}, "type": "Feature"}
{"dataset_attributes": {"@spider": "usps_collection_boxes", "spider:collection_time": "2023-11-07T08:25:32.615229"}, "geometry": {"coordinates": [-80.3488536, 40.994865], "type": "Point"}, "id": "ANCtd0L3a0i4xjSiyJHbJXy3qms=", "properties": {"@spider": "usps_collection_boxes", "addr:city": "NEW CASTLE", "addr:country": "US", "addr:full": "104 MARGARET ST", "addr:postcode": "16101", "addr:state": "PA", "amenity": "post_box", "brand": "United States Postal Service", "brand:wikidata": "Q668687", "collection_times": "Mo-Fr 15:00; Sa 14:00", "name": "USPS COLLECTION BOX - BLUE BOX", "note": "ON 12/24 AND 12/31, THIS BOX MAY BE COLLECTED AS EARLY AS 12 NOON.", "nsi_id": "unitedstatespostalservice-a77078", "operator": "United States Postal Service", "operator:short": "USPS", "operator:type": "public", "operator:wikidata": "Q668687", "ref": "1610100071"}, "type": "Feature"}
{"dataset_attributes": {"@spider": "usps_collection_boxes", "spider:collection_time": "2023-11-07T08:25:32.615229"}, "geometry": {"coordinates": [-80.3449386, 40.99993], "type": "Point"}, "id": "aJIKmlDdGkyuNXNPKUz5KOnadeI=", "properties": {"@spider": "usps_collection_boxes", "addr:city": "NEW CASTLE", "addr:country": "US", "addr:full": "120 E WASHINGTON ST", "addr:postcode": "16101", "addr:state": "PA", "amenity": "post_box", "brand": "United States Postal Service", "brand:wikidata": "Q668687", "collection_times": "Mo-Fr 17:30; Sa 15:00", "name": "USPS COLLECTION BOX - BLUE BOX", "note": "ON 12/24 AND 12/31, THIS BOX MAY BE COLLECTED AS EARLY AS 12 NOON.", "nsi_id": "unitedstatespostalservice-a77078", "operator": "United States Postal Service", "operator:short": "USPS", "operator:type": "public", "operator:wikidata": "Q668687", "ref": "1610100074"}, "type": "Feature"}
{"dataset_attributes": {"@spider": "usps_collection_boxes", "spider:collection_time": "2023-11-07T08:25:32.615229"}, "geometry": {"coordinates": [-80.320094389, 40.994681846], "type": "Point"}, "id": "phcBJvl3UFBTvA8G2j1sKe9nTEk=", "properties": {"@spider": "usps_collection_boxes", "addr:city": "NEW CASTLE", "addr:country": "US", "addr:full": "435 S CASCADE ST", "addr:postcode": "16101", "addr:state": "PA", "amenity": "post_box", "brand": "United States Postal Service", "brand:wikidata": "Q668687", "collection_times": "Mo-Sa 18:00", "name": "USPS COLLECTION BOX - PO LOBBY", "note": "ON 12/24 AND 12/31, THIS BOX MAY BE COLLECTED AS EARLY AS 12 NOON.", "nsi_id": "unitedstatespostalservice-a77078", "operator": "United States Postal Service", "operator:short": "USPS", "operator:type": "public", "operator:wikidata": "Q668687", "ref": "1610100075"}, "type": "Feature"}
{"dataset_attributes": {"@spider": "usps_collection_boxes", "spider:collection_time": "2023-11-07T08:25:32.615229"}, "geometry": {"coordinates": [-80.3457769, 41.000694], "type": "Point"}, "id": "2SBnYut9vDi3Ghj4ncBQY2VfsLU=", "properties": {"@spider": "usps_collection_boxes", "addr:city": "NEW CASTLE", "addr:country": "US", "addr:full": "18 N MERCER ST", "addr:postcode": "16101", "addr:state": "PA", "amenity": "post_box", "brand": "United States Postal Service", "brand:wikidata": "Q668687", "collection_times": "Mo-Fr 17:30; Sa 15:00", "name": "USPS COLLECTION BOX - BLUE BOX", "note": "ON 12/24 AND 12/31, THIS BOX MAY BE COLLECTED AS EARLY AS 12 NOON.", "nsi_id": "unitedstatespostalservice-a77078", "operator": "United States Postal Service", "operator:short": "USPS", "operator:type": "public", "operator:wikidata": "Q668687", "ref": "1610100076"}, "type": "Feature"}
{"dataset_attributes": {"@spider": "usps_collection_boxes", "spider:collection_time": "2023-11-07T08:25:32.615229"}, "geometry": {"coordinates": [-80.3457557, 41.000702], "type": "Point"}, "id": "7bTH10LVRRlSGWaEgFSEvbizWfA=", "properties": {"@spider": "usps_collection_boxes", "addr:city": "NEW CASTLE", "addr:country": "US", "addr:full": "18 N MERCER ST", "addr:postcode": "16101", "addr:state": "PA", "amenity": "post_box", "brand": "United States Postal Service", "brand:wikidata": "Q668687", "collection_times": "Mo-Fr 17:30; Sa 15:00", "name": "USPS COLLECTION BOX - BLUE BOX", "note": "ON 12/24 AND 12/31, THIS BOX MAY BE COLLECTED AS EARLY AS 12 NOON.", "nsi_id": "unitedstatespostalservice-a77078", "operator": "United States Postal Service", "operator:short": "USPS", "operator:type": "public", "operator:wikidata": "Q668687", "ref": "1610100077"}, "type": "Feature"}
{"dataset_attributes": {"@spider": "usps_collection_boxes", "spider:collection_time": "2023-11-07T08:25:32.615229"}, "geometry": {"coordinates": [-80.3457514, 41.000706], "type": "Point"}, "id": "XloNnlQGZpXQzmtdFq11Qd1t92A=", "properties": {"@spider": "usps_collection_boxes", "addr:city": "NEW CASTLE", "addr:country": "US", "addr:full": "18 N MERCER ST", "addr:postcode": "16101", "addr:state": "PA", "amenity": "post_box", "brand": "United States Postal Service", "brand:wikidata": "Q668687", "collection_times": "Mo-Fr 17:30; Sa 15:00", "name": "USPS COLLECTION BOX - BLUE BOX", "note": "ON 12/24 AND 12/31, THIS BOX MAY BE COLLECTED AS EARLY AS 12 NOON.", "nsi_id": "unitedstatespostalservice-a77078", "operator": "United States Postal Service", "operator:short": "USPS", "operator:type": "public", "operator:wikidata": "Q668687", "ref": "1610100078"}, "type": "Feature"}
{"dataset_attributes": {"@spider": "usps_collection_boxes", "spider:collection_time": "2023-11-07T08:25:32.615229"}, "geometry": {"coordinates": [-80.320094389, 40.994681846], "type": "Point"}, "id": "a8vznRZmqX8JxjSZON1N-WfPns4=", "properties": {"@spider": "usps_collection_boxes", "addr:city": "NEW CASTLE", "addr:country": "US", "addr:full": "435 S CASCADE ST", "addr:postcode": "16101", "addr:state": "PA", "amenity": "post_box", "brand": "United States Postal Service", "brand:wikidata": "Q668687", "collection_times": "Mo-Fr 17:00; Sa 13:00", "name": "USPS COLLECTION BOX - PO LOBBY", "note": "ON 12/24 AND 12/31, THIS BOX MAY BE COLLECTED AS EARLY AS 12 NOON.", "nsi_id": "unitedstatespostalservice-a77078", "operator": "United States Postal Service", "operator:short": "USPS", "operator:type": "public", "operator:wikidata": "Q668687", "ref": "1610100084"}, "type": "Feature"}
{"dataset_attributes": {"@spider": "usps_collection_boxes", "spider:collection_time": "2023-11-07T08:25:32.615229"}, "geometry": {"coordinates": [-80.349030676, 40.996767332], "type": "Point"}, "id": "p61zNxHQCf7Zp9bHmNOqSX_Xofg=", "properties": {"@spider": "usps_collection_boxes", "addr:city": "NEW CASTLE", "addr:country": "US", "addr:full": "151 CASCADE GALLERIA", "addr:postcode": "16101", "addr:state": "PA", "amenity": "post_box", "brand": "United States Postal Service", "brand:wikidata": "Q668687", "collection_times": "Mo-Fr 17:00; Sa 13:00", "name": "USPS COLLECTION BOX - PO LOBBY", "note": "ON 12/24 AND 12/31, THIS BOX MAY BE COLLECTED AS EARLY AS 12 NOON.", "nsi_id": "unitedstatespostalservice-a77078", "operator": "United States Postal Service", "operator:short": "USPS", "operator:type": "public", "operator:wikidata": "Q668687", "ref": "1610100085"}, "type": "Feature"}
{"dataset_attributes": {"@spider": "usps_collection_boxes", "spider:collection_time": "2023-11-07T08:25:32.615229"}, "geometry": {"coordinates": [-80.3739582, 40.97357], "type": "Point"}, "id": "g5GZpchaifXjzE11hMOamBwYk6U=", "properties": {"@spider": "usps_collection_boxes", "addr:city": "NEW CASTLE", "addr:country": "US", "addr:full": "202 N LIBERTY ST", "addr:postcode": "16102", "addr:state": "PA", "amenity": "post_box", "brand": "United States Postal Service", "brand:wikidata": "Q668687", "collection_times": "Mo-Sa 14:00", "name": "USPS COLLECTION BOX - BLUE BOX", "note": "ON 12/24 AND 12/31, THIS BOX MAY BE COLLECTED AS EARLY AS 12 NOON.", "nsi_id": "unitedstatespostalservice-a77078", "operator": "United States Postal Service", "operator:short": "USPS", "operator:type": "public", "operator:wikidata": "Q668687", "ref": "1610200007"}, "type": "Feature"}
{"dataset_attributes": {"@spider": "usps_collection_boxes", "spider:collection_time": "2023-11-07T08:25:32.615229"}, "geometry": {"coordinates": [-80.355277305, 41.03642871], "type": "Point"}, "id": "sM4_ts_cdc_OMW-8VNwOiNZ4Hwc=", "properties": {"@spider": "usps_collection_boxes", "addr:city": "NEW CASTLE", "addr:country": "US", "addr:full": "4 E MAITLAND LN", "addr:postcode": "16105", "addr:state": "PA", "amenity": "post_box", "brand": "United States Postal Service", "brand:wikidata": "Q668687", "collection_times": "Mo-Fr 17:00; Sa 14:45", "name": "USPS COLLECTION BOX - BLUE BOX", "note": "ON 12/24 AND 12/31, THIS BOX MAY BE COLLECTED AS EARLY AS 12 NOON.", "nsi_id": "unitedstatespostalservice-a77078", "operator": "United States Postal Service", "operator:short": "USPS", "operator:type": "public", "operator:wikidata": "Q668687", "ref": "1610500003"}, "type": "Feature"}
{"dataset_attributes": {"@spider": "usps_collection_boxes", "spider:collection_time": "2023-11-07T08:25:32.615229"}, "geometry": {"coordinates": [-80.355277305, 41.03642871], "type": "Point"}, "id": "8NoBohW0WMDGlFDM-oA74tH9fH8=", "properties": {"@spider": "usps_collection_boxes", "addr:city": "NEW CASTLE", "addr:country": "US", "addr:full": "4 E MAITLAND LN", "addr:postcode": "16105", "addr:state": "PA", "amenity": "post_box", "brand": "United States Postal Service", "brand:wikidata": "Q668687", "collection_times": "Mo-Fr 17:00; Sa 14:45", "name": "USPS COLLECTION BOX - BLUE BOX", "note": "ON 12/24 AND 12/31, THIS BOX MAY BE COLLECTED AS EARLY AS 12 NOON.", "nsi_id": "unitedstatespostalservice-a77078", "operator": "United States Postal Service", "operator:short": "USPS", "operator:type": "public", "operator:wikidata": "Q668687", "ref": "1610500004"}, "type": "Feature"}
{"dataset_attributes": {"@spider": "usps_collection_boxes", "spider:collection_time": "2023-11-07T08:25:32.615229"}, "geometry": {"coordinates": [-80.3544243, 41.018391], "type": "Point"}, "id": "JrVrenlkkPba_75qjkXk16csdpU=", "properties": {"@spider": "usps_collection_boxes", "addr:city": "NEW CASTLE", "addr:country": "US", "addr:full": "1707 WILMINGTON RD", "addr:postcode": "16105", "addr:state": "PA", "amenity": "post_box", "brand": "United States Postal Service", "brand:wikidata": "Q668687", "collection_times": "Mo-Fr 16:30; Sa 14:45", "name": "USPS COLLECTION BOX - BLUE BOX", "note": "ON 12/24 AND 12/31, THIS BOX MAY BE COLLECTED AS EARLY AS 12 NOON.", "nsi_id": "unitedstatespostalservice-a77078", "operator": "United States Postal Service", "operator:short": "USPS", "operator:type": "public", "operator:wikidata": "Q668687", "ref": "1610500007"}, "type": "Feature"}
{"dataset_attributes": {"@spider": "usps_collection_boxes", "spider:collection_time": "2023-11-07T08:25:32.615229"}, "geometry": {"coordinates": [-80.3532453, 41.018291], "type": "Point"}, "id": "t8GfzpUjdl_-Kh_altbX5R2WHWY=", "properties": {"@spider": "usps_collection_boxes", "addr:city": "NEW CASTLE", "addr:country": "US", "addr:full": "1700 WILMINGTON RD", "addr:postcode": "16105", "addr:state": "PA", "amenity": "post_box", "brand": "United States Postal Service", "brand:wikidata": "Q668687", "collection_times": "Mo-Fr 16:45; Sa 14:45", "name": "USPS COLLECTION BOX - BLUE BOX", "note": "ON 12/24 AND 12/31, THIS BOX MAY BE COLLECTED AS EARLY AS 12 NOON.", "nsi_id": "unitedstatespostalservice-a77078", "operator": "United States Postal Service", "operator:short": "USPS", "operator:type": "public", "operator:wikidata": "Q668687", "ref": "1610500008"}, "type": "Feature"}
{"dataset_attributes": {"@spider": "usps_collection_boxes", "spider:collection_time": "2023-11-07T08:25:32.615229"}, "geometry": {"coordinates": [-80.3572400288, 41.0559450188], "type": "Point"}, "id": "A75A_rVYPxlz4BsbO1-kERumBbA=", "properties": {"@spider": "usps_collection_boxes", "addr:city": "NEW CASTLE", "addr:country": "US", "addr:full": "3300 WILMINGTON RD", "addr:postcode": "16105", "addr:state": "PA", "amenity": "post_box", "brand": "United States Postal Service", "brand:wikidata": "Q668687", "collection_times": "Mo-Fr 16:15; Sa 14:30", "name": "USPS COLLECTION BOX - BLUE BOX", "note": "ON 12/24 AND 12/31, THIS BOX MAY BE COLLECTED AS EARLY AS 12 NOON.", "nsi_id": "unitedstatespostalservice-a77078", "operator": "United States Postal Service", "operator:short": "USPS", "operator:type": "public", "operator:wikidata": "Q668687", "ref": "1610500010"}, "type": "Feature"}
{"dataset_attributes": {"@spider": "usps_collection_boxes", "spider:collection_time": "2023-11-07T08:25:32.615229"}, "geometry": {"coordinates": [-80.3602723, 41.063969], "type": "Point"}, "id": "1JVXovOeUXAvauWt1CoRb1QDNeo=", "properties": {"@spider": "usps_collection_boxes", "addr:city": "NEW CASTLE", "addr:country": "US", "addr:full": "3443 WILMINGTON RD", "addr:postcode": "16105", "addr:state": "PA", "amenity": "post_box", "brand": "United States Postal Service", "brand:wikidata": "Q668687", "collection_times": "Mo-Fr 16:15; Sa 14:30", "name": "USPS COLLECTION BOX - BLUE BOX", "note": "ON 12/24 AND 12/31, THIS BOX MAY BE COLLECTED AS EARLY AS 12 NOON.", "nsi_id": "unitedstatespostalservice-a77078", "operator": "United States Postal Service", "operator:short": "USPS", "operator:type": "public", "operator:wikidata": "Q668687", "ref": "1610500011"}, "type": "Feature"}
{"dataset_attributes": {"@spider": "usps_collection_boxes", "spider:collection_time": "2023-11-07T08:25:32.615229"}, "geometry": {"coordinates": [-80.3572402804, 41.0431417333], "type": "Point"}, "id": "q9dyrzEBQY8eIrFclOuG4NtxwhQ=", "properties": {"@spider": "usps_collection_boxes", "addr:city": "NEW CASTLE", "addr:country": "US", "addr:full": "3009 WILMINGTON RD", "addr:postcode": "16105", "addr:state": "PA", "amenity": "post_box", "brand": "United States Postal Service", "brand:wikidata": "Q668687", "collection_times": "Mo-Fr 16:30; Sa 14:30", "name": "USPS COLLECTION BOX - BLUE BOX", "note": "ON 12/24 AND 12/31, THIS BOX MAY BE COLLECTED AS EARLY AS 12 NOON.", "nsi_id": "unitedstatespostalservice-a77078", "operator": "United States Postal Service", "operator:short": "USPS", "operator:type": "public", "operator:wikidata": "Q668687", "ref": "1610500012"}, "type": "Feature"}
{"dataset_attributes": {"@spider": "usps_collection_boxes", "spider:collection_time": "2023-11-07T08:25:32.615229"}, "geometry": {"coordinates": [-80.3532891, 41.013268], "type": "Point"}, "id": "wxp0QCmf007lzH8H16T2fRQmWzU=", "properties": {"@spider": "usps_collection_boxes", "addr:city": "NEW CASTLE", "addr:country": "US", "addr:full": "1211 WILMINGTON AVE", "addr:postcode": "16105", "addr:state": "PA", "amenity": "post_box", "brand": "United States Postal Service", "brand:wikidata": "Q668687", "collection_times": "Mo-Fr 16:30; Sa 14:45", "name": "USPS COLLECTION BOX - BLUE BOX", "note": "ON 12/24 AND 12/31, THIS BOX MAY BE COLLECTED AS EARLY AS 12 NOON.", "nsi_id": "unitedstatespostalservice-a77078", "operator": "United States Postal Service", "operator:short": "USPS", "operator:type": "public", "operator:wikidata": "Q668687", "ref": "1610500013"}, "type": "Feature"}
{"dataset_attributes": {"@spider": "usps_collection_boxes", "spider:collection_time": "2023-11-07T08:25:32.615229"}, "geometry": {"coordinates": [-80.3554629, 41.053858], "type": "Point"}, "id": "OZ0oxG5Zpc1EQfbsXaVLFn3Q97Y=", "properties": {"@spider": "usps_collection_boxes", "addr:city": "NEW CASTLE", "addr:country": "US", "addr:full": "3230 WILMINGTON RD", "addr:postcode": "16105", "addr:state": "PA", "amenity": "post_box", "brand": "United States Postal Service", "brand:wikidata": "Q668687", "collection_times": "Mo-Fr 16:15; Sa 14:30", "name": "USPS COLLECTION BOX - BLUE BOX", "note": "ON 12/24 AND 12/31, THIS BOX MAY BE COLLECTED AS EARLY AS 12 NOON.", "nsi_id": "unitedstatespostalservice-a77078", "operator": "United States Postal Service", "operator:short": "USPS", "operator:type": "public", "operator:wikidata": "Q668687", "ref": "1610500014"}, "type": "Feature"}
{"dataset_attributes": {"@spider": "usps_collection_boxes", "spider:collection_time": "2023-11-07T08:25:32.615229"}, "geometry": {"coordinates": [-80.3572243, 41.056871], "type": "Point"}, "id": "a2-yQ47o-0xSIe_9UD2AedWGKUY=", "properties": {"@spider": "usps_collection_boxes", "addr:city": "NEW CASTLE", "addr:country": "US", "addr:full": "3300 WILMINGTON RD", "addr:postcode": "16105", "addr:state": "PA", "amenity": "post_box", "brand": "United States Postal Service", "brand:wikidata": "Q668687", "collection_times": "Mo-Fr 16:15; Sa 14:30", "name": "USPS COLLECTION BOX - BLUE BOX", "note": "ON 12/24 AND 12/31, THIS BOX MAY BE COLLECTED AS EARLY AS 12 NOON.", "nsi_id": "unitedstatespostalservice-a77078", "operator": "United States Postal Service", "operator:short": "USPS", "operator:type": "public", "operator:wikidata": "Q668687", "ref": "1610500016"}, "type": "Feature"}
{"dataset_attributes": {"@spider": "usps_collection_boxes", "spider:collection_time": "2023-11-07T08:25:32.615229"}, "geometry": {"coordinates": [-80.355277305, 41.03642871], "type": "Point"}, "id": "xCVscMo5nm2t9C8-W09sck15404=", "properties": {"@spider": "usps_collection_boxes", "addr:city": "NEW CASTLE", "addr:country": "US", "addr:full": "4 E MAITLAND LN", "addr:postcode": "16105", "addr:state": "PA", "amenity": "post_box", "brand": "United States Postal Service", "brand:wikidata": "Q668687", "collection_times": "Mo-Fr 16:45; Sa 13:00", "name": "USPS COLLECTION BOX - PO LOBBY", "note": "ON 12/24 AND 12/31, THIS BOX MAY BE COLLECTED AS EARLY AS 12 NOON.", "nsi_id": "unitedstatespostalservice-a77078", "operator": "United States Postal Service", "operator:short": "USPS", "operator:type": "public", "operator:wikidata": "Q668687", "ref": "1610500018"}, "type": "Feature"}
{"dataset_attributes": {"@spider": "usps_collection_boxes", "spider:collection_time": "2023-11-07T08:25:32.615229"}, "geometry": {"coordinates": [-80.369696642, 41.511355607], "type": "Point"}, "id": "fu3_pLiBiq8ZsowEfjrTUEcRtU4=", "properties": {"@spider": "usps_collection_boxes", "addr:city": "ADAMSVILLE", "addr:country": "US", "addr:full": "3935 MAIN ST", "addr:postcode": "16110", "addr:state": "PA", "amenity": "post_box", "brand": "United States Postal Service", "brand:wikidata": "Q668687", "collection_times": "Mo-Sa 09:50", "name": "USPS COLLECTION BOX - BLUE BOX", "nsi_id": "unitedstatespostalservice-a77078", "operator": "United States Postal Service", "operator:short": "USPS", "operator:type": "public", "operator:wikidata": "Q668687", "ref": "1611000000"}, "type": "Feature"}
{"dataset_attributes": {"@spider": "usps_collection_boxes", "spider:collection_time": "2023-11-07T08:25:32.615229"}, "geometry": {"coordinates": [-80.369696642, 41.511355607], "type": "Point"}, "id": "QpHGXWbu9H5CSdXVOzxDAFhMK2s=", "properties": {"@spider": "usps_collection_boxes", "addr:city": "ADAMSVILLE", "addr:country": "US", "addr:full": "3935 MAIN ST", "addr:postcode": "16110", "addr:state": "PA", "amenity": "post_box", "brand": "United States Postal Service", "brand:wikidata": "Q668687", "collection_times": "Mo-Sa 09:50", "name": "USPS COLLECTION BOX - PO LOBBY", "nsi_id": "unitedstatespostalservice-a77078", "operator": "United States Postal Service", "operator:short": "USPS", "operator:type": "public", "operator:wikidata": "Q668687", "ref": "1611000003"}, "type": "Feature"}
{"dataset_attributes": {"@spider": "usps_collection_boxes", "spider:collection_time": "2023-11-07T08:25:32.615229"}, "geometry": {"coordinates": [-80.337798694, 41.505194377], "type": "Point"}, "id": "jeutj1UxONLTBAdP8SbJGguqRlE=", "properties": {"@spider": "usps_collection_boxes", "addr:city": "ATLANTIC", "addr:country": "US", "addr:full": "3498 ATLANTIC LAKE RD", "addr:postcode": "16111", "addr:state": "PA", "amenity": "post_box", "brand": "United States Postal Service", "brand:wikidata": "Q668687", "collection_times": "Mo-Fr 11:55; Sa 10:15", "name": "USPS COLLECTION BOX - BLUE BOX", "nsi_id": "unitedstatespostalservice-a77078", "operator": "United States Postal Service", "operator:short": "USPS", "operator:type": "public", "operator:wikidata": "Q668687", "ref": "1611100000"}, "type": "Feature"}
{"dataset_attributes": {"@spider": "usps_collection_boxes", "spider:collection_time": "2023-11-07T08:25:32.615229"}, "geometry": {"coordinates": [-80.337798694, 41.505194377], "type": "Point"}, "id": "deAjBD5z-I1ws-JWLUr-lnH5EI4=", "properties": {"@spider": "usps_collection_boxes", "addr:city": "ATLANTIC", "addr:country": "US", "addr:full": "3498 ATLANTIC LAKE RD", "addr:postcode": "16111", "addr:state": "PA", "amenity": "post_box", "brand": "United States Postal Service", "brand:wikidata": "Q668687", "collection_times": "Mo-Fr 11:55; Sa 10:15", "name": "USPS COLLECTION BOX - PO LOBBY", "nsi_id": "unitedstatespostalservice-a77078", "operator": "United States Postal Service", "operator:short": "USPS", "operator:type": "public", "operator:wikidata": "Q668687", "ref": "1611100001"}, "type": "Feature"}
{"dataset_attributes": {"@spider": "usps_collection_boxes", "spider:collection_time": "2023-11-07T08:25:32.615229"}, "geometry": {"coordinates": [-80.337798694, 41.505194377], "type": "Point"}, "id": "Sq97r_KQonnnm_7EcHFq3m4rrN4=", "properties": {"@spider": "usps_collection_boxes", "addr:city": "ATLANTIC", "addr:country": "US", "addr:full": "3498 ATLANTIC LAKE RD", "addr:postcode": "16111", "addr:state": "PA", "amenity": "post_box", "brand": "United States Postal Service", "brand:wikidata": "Q668687", "collection_times": "Mo-Fr 11:55; Sa 10:10", "name": "USPS COLLECTION BOX - PO LOBBY", "nsi_id": "unitedstatespostalservice-a77078", "operator": "United States Postal Service", "operator:short": "USPS", "operator:type": "public", "operator:wikidata": "Q668687", "ref": "1611100003"}, "type": "Feature"}
{"dataset_attributes": {"@spider": "usps_collection_boxes", "spider:collection_time": "2023-11-07T08:25:32.615229"}, "geometry": {"coordinates": [-80.491805141, 40.975152442], "type": "Point"}, "id": "eC4dm7zKM3VW63mQEOV2rjIU8OY=", "properties": {"@spider": "usps_collection_boxes", "addr:city": "BESSEMER", "addr:country": "US", "addr:full": "201 E POLAND AVE", "addr:postcode": "16112", "addr:state": "PA", "amenity": "post_box", "brand": "United States Postal Service", "brand:wikidata": "Q668687", "collection_times": "Mo-Fr 16:00; Sa 12:00", "name": "USPS COLLECTION BOX - BLUE BOX", "note": "ON 12/24 AND 12/31, THIS BOX MAY BE COLLECTED AS EARLY AS 12 NOON.", "nsi_id": "unitedstatespostalservice-a77078", "operator": "United States Postal Service", "operator:short": "USPS", "operator:type": "public", "operator:wikidata": "Q668687", "ref": "1611200000"}, "type": "Feature"}
{"dataset_attributes": {"@spider": "usps_collection_boxes", "spider:collection_time": "2023-11-07T08:25:32.615229"}, "geometry": {"coordinates": [-80.491805141, 40.975152442], "type": "Point"}, "id": "SecDsX2puqhOBZNun5FvUPUu9s8=", "properties": {"@spider": "usps_collection_boxes", "addr:city": "BESSEMER", "addr:country": "US", "addr:full": "201 E POLAND AVE", "addr:postcode": "16112", "addr:state": "PA", "amenity": "post_box", "brand": "United States Postal Service", "brand:wikidata": "Q668687", "collection_times": "Mo-Fr 16:00; Sa 12:00", "name": "USPS COLLECTION BOX - PO LOBBY", "note": "ON 12/24 AND 12/31, THIS BOX MAY BE COLLECTED AS EARLY AS 12 NOON.", "nsi_id": "unitedstatespostalservice-a77078", "operator": "United States Postal Service", "operator:short": "USPS", "operator:type": "public", "operator:wikidata": "Q668687", "ref": "1611200001"}, "type": "Feature"}
{"dataset_attributes": {"@spider": "usps_collection_boxes", "spider:collection_time": "2023-11-07T08:25:32.615229"}, "geometry": {"coordinates": [-80.491805141, 40.975152442], "type": "Point"}, "id": "hGrCGXxiHEF0gyVNFn8huUayXIU=", "properties": {"@spider": "usps_collection_boxes", "addr:city": "BESSEMER", "addr:country": "US", "addr:full": "201 E POLAND AVE", "addr:postcode": "16112", "addr:state": "PA", "amenity": "post_box", "brand": "United States Postal Service", "brand:wikidata": "Q668687", "collection_times": "Mo-Fr 16:00; Sa 12:00", "name": "USPS COLLECTION BOX - PO LOBBY", "note": "ON 12/24 AND 12/31, THIS BOX MAY BE COLLECTED AS EARLY AS 12 NOON.", "nsi_id": "unitedstatespostalservice-a77078", "operator": "United States Postal Service", "operator:short": "USPS", "operator:type": "public", "operator:wikidata": "Q668687", "ref": "1611200003"}, "type": "Feature"}
{"dataset_attributes": {"@spider": "usps_collection_boxes", "spider:collection_time": "2023-11-07T08:25:32.615229"}, "geometry": {"coordinates": [-80.425966325, 41.283249832], "type": "Point"}, "id": "VVZOXC0hNFFbHAWg8INPM-RDLi8=", "properties": {"@spider": "usps_collection_boxes", "addr:city": "CLARK", "addr:country": "US", "addr:full": "6 CHARLES ST", "addr:postcode": "16113", "addr:state": "PA", "amenity": "post_box", "brand": "United States Postal Service", "brand:wikidata": "Q668687", "collection_times": "Mo-Fr 16:30; Sa 12:00", "name": "USPS COLLECTION BOX - BLUE BOX", "note": "ON 12/24 AND 12/31, THIS BOX MAY BE COLLECTED AS EARLY AS 12 NOON.", "nsi_id": "unitedstatespostalservice-a77078", "operator": "United States Postal Service", "operator:short": "USPS", "operator:type": "public", "operator:wikidata": "Q668687", "ref": "1611300000"}, "type": "Feature"}
{"dataset_attributes": {"@spider": "usps_collection_boxes", "spider:collection_time": "2023-11-07T08:25:32.615229"}, "geometry": {"coordinates": [-80.425966325, 41.283249832], "type": "Point"}, "id": "XazbrVKZ7SVBh1d062th9LZVjs8=", "properties": {"@spider": "usps_collection_boxes", "addr:city": "CLARK", "addr:country": "US", "addr:full": "6 CHARLES ST", "addr:postcode": "16113", "addr:state": "PA", "amenity": "post_box", "brand": "United States Postal Service", "brand:wikidata": "Q668687", "collection_times": "Mo-Fr 16:30; Sa 12:00", "name": "USPS COLLECTION BOX - PO LOBBY", "note": "ON 12/24 AND 12/31, THIS BOX MAY BE COLLECTED AS EARLY AS 12 NOON.", "nsi_id": "unitedstatespostalservice-a77078", "operator": "United States Postal Service", "operator:short": "USPS", "operator:type": "public", "operator:wikidata": "Q668687", "ref": "1611300001"}, "type": "Feature"}
{"dataset_attributes": {"@spider": "usps_collection_boxes", "spider:collection_time": "2023-11-07T08:25:32.615229"}, "geometry": {"coordinates": [-80.425966325, 41.283249832], "type": "Point"}, "id": "BojgQA1RfeAGQkNlos0uLGhX7Cw=", "properties": {"@spider": "usps_collection_boxes", "addr:city": "CLARK", "addr:country": "US", "addr:full": "6 CHARLES ST", "addr:postcode": "16113", "addr:state": "PA", "amenity": "post_box", "brand": "United States Postal Service", "brand:wikidata": "Q668687", "collection_times": "Mo-Fr 16:30; Sa 12:00", "name": "USPS COLLECTION BOX - PO LOBBY", "note": "ON 12/24 AND 12/31, THIS BOX MAY BE COLLECTED AS EARLY AS 12 NOON.", "nsi_id": "unitedstatespostalservice-a77078", "operator": "United States Postal Service", "operator:short": "USPS", "operator:type": "public", "operator:wikidata": "Q668687", "ref": "1611300003"}, "type": "Feature"}
{"dataset_attributes": {"@spider": "usps_collection_boxes", "spider:collection_time": "2023-11-07T08:25:32.615229"}, "geometry": {"coordinates": [-80.184295143, 41.394186428], "type": "Point"}, "id": "8IPNMYDNKECc_jWcRgQIybSHyaM=", "properties": {"@spider": "usps_collection_boxes", "addr:city": "CLARKS MILLS", "addr:country": "US", "addr:full": "21 LAKE WILHELM RD", "addr:postcode": "16114", "addr:state": "PA", "amenity": "post_box", "brand": "United States Postal Service", "brand:wikidata": "Q668687", "collection_times": "Mo-Sa 11:15", "name": "USPS COLLECTION BOX - BLUE BOX", "nsi_id": "unitedstatespostalservice-a77078", "operator": "United States Postal Service", "operator:short": "USPS", "operator:type": "public", "operator:wikidata": "Q668687", "ref": "1611400000"}, "type": "Feature"}
{"dataset_attributes": {"@spider": "usps_collection_boxes", "spider:collection_time": "2023-11-07T08:25:32.615229"}, "geometry": {"coordinates": [-80.184295143, 41.394186428], "type": "Point"}, "id": "7_hD5fjINhB_9Kjfjb8EX9nOImg=", "properties": {"@spider": "usps_collection_boxes", "addr:city": "CLARKS MILLS", "addr:country": "US", "addr:full": "21 LAKE WILHELM RD", "addr:postcode": "16114", "addr:state": "PA", "amenity": "post_box", "brand": "United States Postal Service", "brand:wikidata": "Q668687", "collection_times": "Mo-Sa 11:15", "name": "USPS COLLECTION BOX - PO LOBBY", "nsi_id": "unitedstatespostalservice-a77078", "operator": "United States Postal Service", "operator:short": "USPS", "operator:type": "public", "operator:wikidata": "Q668687", "ref": "1611400002"}, "type": "Feature"}
{"dataset_attributes": {"@spider": "usps_collection_boxes", "spider:collection_time": "2023-11-07T08:25:32.615229"}, "geometry": {"coordinates": [-80.2146142, 41.396728], "type": "Point"}, "id": "iaAwKvkAz2s7R3GZ6OW6o6NDViI=", "properties": {"@spider": "usps_collection_boxes", "addr:city": "CLARKS MILLS", "addr:country": "US", "addr:full": "2560 PERRY HWY", "addr:postcode": "16114", "addr:state": "PA", "amenity": "post_box", "brand": "United States Postal Service", "brand:wikidata": "Q668687", "collection_times": "Mo-Sa 12:00", "name": "USPS COLLECTION BOX - BLUE BOX", "nsi_id": "unitedstatespostalservice-a77078", "operator": "United States Postal Service", "operator:short": "USPS", "operator:type": "public", "operator:wikidata": "Q668687", "ref": "1611400004"}, "type": "Feature"}
{"dataset_attributes": {"@spider": "usps_collection_boxes", "spider:collection_time": "2023-11-07T08:25:32.615229"}, "geometry": {"coordinates": [-80.184295143, 41.394186428], "type": "Point"}, "id": "KXptvPQ3inZ008HlJcw675fIYlE=", "properties": {"@spider": "usps_collection_boxes", "addr:city": "CLARKS MILLS", "addr:country": "US", "addr:full": "21 LAKE WILHELM RD", "addr:postcode": "16114", "addr:state": "PA", "amenity": "post_box", "brand": "United States Postal Service", "brand:wikidata": "Q668687", "collection_times": "Mo-Sa 11:10", "name": "USPS COLLECTION BOX - PO LOBBY", "nsi_id": "unitedstatespostalservice-a77078", "operator": "United States Postal Service", "operator:short": "USPS", "operator:type": "public", "operator:wikidata": "Q668687", "ref": "1611400005"}, "type": "Feature"}
{"dataset_attributes": {"@spider": "usps_collection_boxes", "spider:collection_time": "2023-11-07T08:25:32.615229"}, "geometry": {"coordinates": [-80.423209653, 40.809893836], "type": "Point"}, "id": "bo1Wy16hiYwKcyj4LNzYX-Rbr9w=", "properties": {"@spider": "usps_collection_boxes", "addr:city": "DARLINGTON", "addr:country": "US", "addr:full": "708 MARKET ST", "addr:postcode": "16115", "addr:state": "PA", "amenity": "post_box", "brand": "United States Postal Service", "brand:wikidata": "Q668687", "collection_times": "Mo-Fr 16:45; Sa 12:00", "name": "USPS COLLECTION BOX - BLUE BOX", "note": "ON 12/24 AND 12/31, THIS BOX MAY BE COLLECTED AS EARLY AS 12 NOON.", "nsi_id": "unitedstatespostalservice-a77078", "operator": "United States Postal Service", "operator:short": "USPS", "operator:type": "public", "operator:wikidata": "Q668687", "ref": "1611500000"}, "type": "Feature"}
{"dataset_attributes": {"@spider": "usps_collection_boxes", "spider:collection_time": "2023-11-07T08:25:32.615229"}, "geometry": {"coordinates": [-80.423209653, 40.809893836], "type": "Point"}, "id": "Pko7z633QHJ0PWSKAhHV3YAGAcY=", "properties": {"@spider": "usps_collection_boxes", "addr:city": "DARLINGTON", "addr:country": "US", "addr:full": "708 MARKET ST", "addr:postcode": "16115", "addr:state": "PA", "amenity": "post_box", "brand": "United States Postal Service", "brand:wikidata": "Q668687", "collection_times": "Mo-Fr 16:30; Sa 12:00", "name": "USPS COLLECTION BOX - PO LOBBY", "note": "ON 12/24 AND 12/31, THIS BOX MAY BE COLLECTED AS EARLY AS 12 NOON.", "nsi_id": "unitedstatespostalservice-a77078", "operator": "United States Postal Service", "operator:short": "USPS", "operator:type": "public", "operator:wikidata": "Q668687", "ref": "1611500001"}, "type": "Feature"}
{"dataset_attributes": {"@spider": "usps_collection_boxes", "spider:collection_time": "2023-11-07T08:25:32.615229"}, "geometry": {"coordinates": [-80.423209653, 40.809893836], "type": "Point"}, "id": "UH7OF-hfx6RIfNDVyF2IRbkbPpY=", "properties": {"@spider": "usps_collection_boxes", "addr:city": "DARLINGTON", "addr:country": "US", "addr:full": "708 MARKET ST", "addr:postcode": "16115", "addr:state": "PA", "amenity": "post_box", "brand": "United States Postal Service", "brand:wikidata": "Q668687", "collection_times": "Mo-Fr 16:30; Sa 12:00", "name": "USPS COLLECTION BOX - PO LOBBY", "note": "ON 12/24 AND 12/31, THIS BOX MAY BE COLLECTED AS EARLY AS 12 NOON.", "nsi_id": "unitedstatespostalservice-a77078", "operator": "United States Postal Service", "operator:short": "USPS", "operator:type": "public", "operator:wikidata": "Q668687", "ref": "1611500003"}, "type": "Feature"}
{"dataset_attributes": {"@spider": "usps_collection_boxes", "spider:collection_time": "2023-11-07T08:25:32.615229"}, "geometry": {"coordinates": [-80.4642294, 41.007722], "type": "Point"}, "id": "GG24ZHo8-Ss8Mb8jtdHslWslyu8=", "properties": {"@spider": "usps_collection_boxes", "addr:city": "EDINBURG", "addr:country": "US", "addr:full": "4118 W STATE ST", "addr:postcode": "16116", "addr:state": "PA", "amenity": "post_box", "brand": "United States Postal Service", "brand:wikidata": "Q668687", "collection_times": "Mo-Sa 10:00", "name": "USPS COLLECTION BOX - BLUE BOX", "nsi_id": "unitedstatespostalservice-a77078", "operator": "United States Postal Service", "operator:short": "USPS", "operator:type": "public", "operator:wikidata": "Q668687", "ref": "1611600000"}, "type": "Feature"}
{"dataset_attributes": {"@spider": "usps_collection_boxes", "spider:collection_time": "2023-11-07T08:25:32.615229"}, "geometry": {"coordinates": [-80.436774129, 41.014305702], "type": "Point"}, "id": "sdaC-eVLWJ41ywSLiJkdc4OlytM=", "properties": {"@spider": "usps_collection_boxes", "addr:city": "EDINBURG", "addr:country": "US", "addr:full": "5412 ERIE ST", "addr:postcode": "16116", "addr:state": "PA", "amenity": "post_box", "brand": "United States Postal Service", "brand:wikidata": "Q668687", "collection_times": "Mo-Fr 15:00; Sa 12:00", "name": "USPS COLLECTION BOX - BLUE BOX", "note": "ON 12/24 AND 12/31, THIS BOX MAY BE COLLECTED AS EARLY AS 12 NOON.", "nsi_id": "unitedstatespostalservice-a77078", "operator": "United States Postal Service", "operator:short": "USPS", "operator:type": "public", "operator:wikidata": "Q668687", "ref": "1611600001"}, "type": "Feature"}
{"dataset_attributes": {"@spider": "usps_collection_boxes", "spider:collection_time": "2023-11-07T08:25:32.615229"}, "geometry": {"coordinates": [-80.4151031, 41.038359], "type": "Point"}, "id": "UX7kE_ei-S8Fbf3sKMNheIY6TTY=", "properties": {"@spider": "usps_collection_boxes", "addr:city": "EDINBURG", "addr:country": "US", "addr:full": "199 HARBOR VILLAGE DR", "addr:postcode": "16116", "addr:state": "PA", "amenity": "post_box", "brand": "United States Postal Service", "brand:wikidata": "Q668687", "collection_times": "Mo-Sa 10:00", "name": "USPS COLLECTION BOX - BLUE BOX", "nsi_id": "unitedstatespostalservice-a77078", "operator": "United States Postal Service", "operator:short": "USPS", "operator:type": "public", "operator:wikidata": "Q668687", "ref": "1611600002"}, "type": "Feature"}
{"dataset_attributes": {"@spider": "usps_collection_boxes", "spider:collection_time": "2023-11-07T08:25:32.615229"}, "geometry": {"coordinates": [-80.436774129, 41.014305702], "type": "Point"}, "id": "m2gKGASPCgzAMxKelbtlkl7_lug=", "properties": {"@spider": "usps_collection_boxes", "addr:city": "EDINBURG", "addr:country": "US", "addr:full": "5412 ERIE ST", "addr:postcode": "16116", "addr:state": "PA", "amenity": "post_box", "brand": "United States Postal Service", "brand:wikidata": "Q668687", "collection_times": "Mo-Fr 15:00; Sa 12:00", "name": "USPS COLLECTION BOX - PO LOBBY", "note": "ON 12/24 AND 12/31, THIS BOX MAY BE COLLECTED AS EARLY AS 12 NOON.", "nsi_id": "unitedstatespostalservice-a77078", "operator": "United States Postal Service", "operator:short": "USPS", "operator:type": "public", "operator:wikidata": "Q668687", "ref": "1611600003"}, "type": "Feature"}
{"dataset_attributes": {"@spider": "usps_collection_boxes", "spider:collection_time": "2023-11-07T08:25:32.615229"}, "geometry": {"coordinates": [-80.436774129, 41.014305702], "type": "Point"}, "id": "FpAcSl-UPUgDAzpKxvRvZ02lNDM=", "properties": {"@spider": "usps_collection_boxes", "addr:city": "EDINBURG", "addr:country": "US", "addr:full": "5412 ERIE ST", "addr:postcode": "16116", "addr:state": "PA", "amenity": "post_box", "brand": "United States Postal Service", "brand:wikidata": "Q668687", "collection_times": "Mo-Fr 15:00; Sa 12:00", "name": "USPS COLLECTION BOX - PO LOBBY", "note": "ON 12/24 AND 12/31, THIS BOX MAY BE COLLECTED AS EARLY AS 12 NOON.", "nsi_id": "unitedstatespostalservice-a77078", "operator": "United States Postal Service", "operator:short": "USPS", "operator:type": "public", "operator:wikidata": "Q668687", "ref": "1611600005"}, "type": "Feature"}
{"dataset_attributes": {"@spider": "usps_collection_boxes", "spider:collection_time": "2023-11-07T08:25:32.615229"}, "geometry": {"coordinates": [-80.290576265, 40.857650633], "type": "Point"}, "id": "khSPJUxnJIowx4L6QMPz1C8IY74=", "properties": {"@spider": "usps_collection_boxes", "addr:city": "ELLWOOD CITY", "addr:country": "US", "addr:full": "320 7TH ST", "addr:postcode": "16117", "addr:state": "PA", "amenity": "post_box", "brand": "United States Postal Service", "brand:wikidata": "Q668687", "collection_times": "Mo-Sa 15:00", "name": "USPS COLLECTION BOX - BLUE BOX", "note": "ON 12/24 AND 12/31, THIS BOX MAY BE COLLECTED AS EARLY AS 12 NOON.", "nsi_id": "unitedstatespostalservice-a77078", "operator": "United States Postal Service", "operator:short": "USPS", "operator:type": "public", "operator:wikidata": "Q668687", "ref": "1611700000"}, "type": "Feature"}
{"dataset_attributes": {"@spider": "usps_collection_boxes", "spider:collection_time": "2023-11-07T08:25:32.615229"}, "geometry": {"coordinates": [-80.290576265, 40.857650633], "type": "Point"}, "id": "dKKLIhKHgKRmCDAKjMMo4E3UTx4=", "properties": {"@spider": "usps_collection_boxes", "addr:city": "ELLWOOD CITY", "addr:country": "US", "addr:full": "320 7TH ST", "addr:postcode": "16117", "addr:state": "PA", "amenity": "post_box", "brand": "United States Postal Service", "brand:wikidata": "Q668687", "collection_times": "Mo-Sa 15:00", "name": "USPS COLLECTION BOX - BLUE BOX", "note": "ON 12/24 AND 12/31, THIS BOX MAY BE COLLECTED AS EARLY AS 12 NOON.", "nsi_id": "unitedstatespostalservice-a77078", "operator": "United States Postal Service", "operator:short": "USPS", "operator:type": "public", "operator:wikidata": "Q668687", "ref": "1611700001"}, "type": "Feature"}
{"dataset_attributes": {"@spider": "usps_collection_boxes", "spider:collection_time": "2023-11-07T08:25:32.615229"}, "geometry": {"coordinates": [-80.290576265, 40.857650633], "type": "Point"}, "id": "Ws7EqJzVVIFIFe0LFnamRtHcsrU=", "properties": {"@spider": "usps_collection_boxes", "addr:city": "ELLWOOD CITY", "addr:country": "US", "addr:full": "320 7TH ST", "addr:postcode": "16117", "addr:state": "PA", "amenity": "post_box", "brand": "United States Postal Service", "brand:wikidata": "Q668687", "collection_times": "Mo-Sa 15:00", "name": "USPS COLLECTION BOX - BLUE BOX", "note": "ON 12/24 AND 12/31, THIS BOX MAY BE COLLECTED AS EARLY AS 12 NOON.", "nsi_id": "unitedstatespostalservice-a77078", "operator": "United States Postal Service", "operator:short": "USPS", "operator:type": "public", "operator:wikidata": "Q668687", "ref": "1611700002"}, "type": "Feature"}
{"dataset_attributes": {"@spider": "usps_collection_boxes", "spider:collection_time": "2023-11-07T08:25:32.615229"}, "geometry": {"coordinates": [-80.2768193, 40.841848], "type": "Point"}, "id": "E_UwF8GruA63JVQeLTGRXj33-ro=", "properties": {"@spider": "usps_collection_boxes", "addr:city": "ELLWOOD CITY", "addr:country": "US", "addr:full": "1660 ROUTE 65", "addr:postcode": "16117", "addr:state": "PA", "amenity": "post_box", "brand": "United States Postal Service", "brand:wikidata": "Q668687", "collection_times": "Mo-Sa 12:00", "name": "USPS COLLECTION BOX - BLUE BOX", "nsi_id": "unitedstatespostalservice-a77078", "operator": "United States Postal Service", "operator:short": "USPS", "operator:type": "public", "operator:wikidata": "Q668687", "ref": "1611700003"}, "type": "Feature"}
{"dataset_attributes": {"@spider": "usps_collection_boxes", "spider:collection_time": "2023-11-07T08:25:32.615229"}, "geometry": {"coordinates": [-80.2601559, 40.847499], "type": "Point"}, "id": "5sQ1ZsNt4muQR4mdj1WIYFWZDz4=", "properties": {"@spider": "usps_collection_boxes", "addr:city": "ELLWOOD CITY", "addr:country": "US", "addr:full": "267 ROUTE 288", "addr:postcode": "16117", "addr:state": "PA", "amenity": "post_box", "brand": "United States Postal Service", "brand:wikidata": "Q668687", "collection_times": "Mo-Sa 12:00", "name": "USPS COLLECTION BOX - BLUE BOX", "nsi_id": "unitedstatespostalservice-a77078", "operator": "United States Postal Service", "operator:short": "USPS", "operator:type": "public", "operator:wikidata": "Q668687", "ref": "1611700004"}, "type": "Feature"}
{"dataset_attributes": {"@spider": "usps_collection_boxes", "spider:collection_time": "2023-11-07T08:25:32.615229"}, "geometry": {"coordinates": [-80.2855564, 40.855315], "type": "Point"}, "id": "EopUh-Z9o9qzroOt0aGlUyNGX4Q=", "properties": {"@spider": "usps_collection_boxes", "addr:city": "ELLWOOD CITY", "addr:country": "US", "addr:full": "401 WAYNE AVE", "addr:postcode": "16117", "addr:state": "PA", "amenity": "post_box", "brand": "United States Postal Service", "brand:wikidata": "Q668687", "collection_times": "Mo-Sa 12:00", "name": "USPS COLLECTION BOX - BLUE BOX", "nsi_id": "unitedstatespostalservice-a77078", "operator": "United States Postal Service", "operator:short": "USPS", "operator:type": "public", "operator:wikidata": "Q668687", "ref": "1611700005"}, "type": "Feature"}
{"dataset_attributes": {"@spider": "usps_collection_boxes", "spider:collection_time": "2023-11-07T08:25:32.615229"}, "geometry": {"coordinates": [-80.2750355, 40.870022], "type": "Point"}, "id": "LamyafvTOChqsRpw937dzRTKNIs=", "properties": {"@spider": "usps_collection_boxes", "addr:city": "ELLWOOD CITY", "addr:country": "US", "addr:full": "724 PERSHING ST", "addr:postcode": "16117", "addr:state": "PA", "amenity": "post_box", "brand": "United States Postal Service", "brand:wikidata": "Q668687", "collection_times": "Mo-Sa 15:00", "name": "USPS COLLECTION BOX - BLUE BOX", "note": "ON 12/24 AND 12/31, THIS BOX MAY BE COLLECTED AS EARLY AS 12 NOON.", "nsi_id": "unitedstatespostalservice-a77078", "operator": "United States Postal Service", "operator:short": "USPS", "operator:type": "public", "operator:wikidata": "Q668687", "ref": "1611700007"}, "type": "Feature"}
{"dataset_attributes": {"@spider": "usps_collection_boxes", "spider:collection_time": "2023-11-07T08:25:32.615229"}, "geometry": {"coordinates": [-80.2678739, 40.858623], "type": "Point"}, "id": "wcDos1yCu8HRJhX6bE6OMnHgF9g=", "properties": {"@spider": "usps_collection_boxes", "addr:city": "ELLWOOD CITY", "addr:country": "US", "addr:full": "212 PORTERSVILLE RD", "addr:postcode": "16117", "addr:state": "PA", "amenity": "post_box", "brand": "United States Postal Service", "brand:wikidata": "Q668687", "collection_times": "Mo-Sa 15:00", "name": "USPS COLLECTION BOX - BLUE BOX", "note": "ON 12/24 AND 12/31, THIS BOX MAY BE COLLECTED AS EARLY AS 12 NOON.", "nsi_id": "unitedstatespostalservice-a77078", "operator": "United States Postal Service", "operator:short": "USPS", "operator:type": "public", "operator:wikidata": "Q668687", "ref": "1611700014"}, "type": "Feature"}
{"dataset_attributes": {"@spider": "usps_collection_boxes", "spider:collection_time": "2023-11-07T08:25:32.615229"}, "geometry": {"coordinates": [-80.2745911, 40.864055], "type": "Point"}, "id": "KMRHx5LP2gxahid79trK1J2z3iY=", "properties": {"@spider": "usps_collection_boxes", "addr:city": "ELLWOOD CITY", "addr:country": "US", "addr:full": "324 SIMS ST", "addr:postcode": "16117", "addr:state": "PA", "amenity": "post_box", "brand": "United States Postal Service", "brand:wikidata": "Q668687", "collection_times": "Mo-Sa 12:00", "name": "USPS COLLECTION BOX - BLUE BOX", "nsi_id": "unitedstatespostalservice-a77078", "operator": "United States Postal Service", "operator:short": "USPS", "operator:type": "public", "operator:wikidata": "Q668687", "ref": "1611700015"}, "type": "Feature"}
{"dataset_attributes": {"@spider": "usps_collection_boxes", "spider:collection_time": "2023-11-07T08:25:32.615229"}, "geometry": {"coordinates": [-80.2821431, 40.854588], "type": "Point"}, "id": "aPMn4rn1T3trS_mlKj4ZUlyxTJ8=", "properties": {"@spider": "usps_collection_boxes", "addr:city": "ELLWOOD CITY", "addr:country": "US", "addr:full": "129 FRANKLIN AVE", "addr:postcode": "16117", "addr:state": "PA", "amenity": "post_box", "brand": "United States Postal Service", "brand:wikidata": "Q668687", "collection_times": "Mo-Sa 12:00", "name": "USPS COLLECTION BOX - BLUE BOX", "nsi_id": "unitedstatespostalservice-a77078", "operator": "United States Postal Service", "operator:short": "USPS", "operator:type": "public", "operator:wikidata": "Q668687", "ref": "1611700022"}, "type": "Feature"}
{"dataset_attributes": {"@spider": "usps_collection_boxes", "spider:collection_time": "2023-11-07T08:25:32.615229"}, "geometry": {"coordinates": [-80.2868899, 40.867247], "type": "Point"}, "id": "6khxXUH4NydiMIO0VfpiZeDS4Pg=", "properties": {"@spider": "usps_collection_boxes", "addr:city": "ELLWOOD CITY", "addr:country": "US", "addr:full": "438 LINE AVE", "addr:postcode": "16117", "addr:state": "PA", "amenity": "post_box", "brand": "United States Postal Service", "brand:wikidata": "Q668687", "collection_times": "Mo-Sa 15:00", "name": "USPS COLLECTION BOX - BLUE BOX", "note": "ON 12/24 AND 12/31, THIS BOX MAY BE COLLECTED AS EARLY AS 12 NOON.", "nsi_id": "unitedstatespostalservice-a77078", "operator": "United States Postal Service", "operator:short": "USPS", "operator:type": "public", "operator:wikidata": "Q668687", "ref": "1611700027"}, "type": "Feature"}
{"dataset_attributes": {"@spider": "usps_collection_boxes", "spider:collection_time": "2023-11-07T08:25:32.615229"}, "geometry": {"coordinates": [-80.2825759, 40.859428], "type": "Point"}, "id": "3aFHPEaDT9rHAf8ZtVr-YTvf7Y8=", "properties": {"@spider": "usps_collection_boxes", "addr:city": "ELLWOOD CITY", "addr:country": "US", "addr:full": "324 2ND ST", "addr:postcode": "16117", "addr:state": "PA", "amenity": "post_box", "brand": "United States Postal Service", "brand:wikidata": "Q668687", "collection_times": "Mo-Sa 15:00", "name": "USPS COLLECTION BOX - BLUE BOX", "note": "ON 12/24 AND 12/31, THIS BOX MAY BE COLLECTED AS EARLY AS 12 NOON.", "nsi_id": "unitedstatespostalservice-a77078", "operator": "United States Postal Service", "operator:short": "USPS", "operator:type": "public", "operator:wikidata": "Q668687", "ref": "1611700029"}, "type": "Feature"}
{"dataset_attributes": {"@spider": "usps_collection_boxes", "spider:collection_time": "2023-11-07T08:25:32.615229"}, "geometry": {"coordinates": [-80.2827011, 40.862763], "type": "Point"}, "id": "oFYp2CwEawmhAqR52YseGJXz6WA=", "properties": {"@spider": "usps_collection_boxes", "addr:city": "ELLWOOD CITY", "addr:country": "US", "addr:full": "201 GLEN AVE", "addr:postcode": "16117", "addr:state": "PA", "amenity": "post_box", "brand": "United States Postal Service", "brand:wikidata": "Q668687", "collection_times": "Mo-Sa 12:00", "name": "USPS COLLECTION BOX - BLUE BOX", "nsi_id": "unitedstatespostalservice-a77078", "operator": "United States Postal Service", "operator:short": "USPS", "operator:type": "public", "operator:wikidata": "Q668687", "ref": "1611700031"}, "type": "Feature"}
{"dataset_attributes": {"@spider": "usps_collection_boxes", "spider:collection_time": "2023-11-07T08:25:32.615229"}, "geometry": {"coordinates": [-80.2855535, 40.860574], "type": "Point"}, "id": "VOTkb1WQOYy-gYrhnKN4Mh9O4WM=", "properties": {"@spider": "usps_collection_boxes", "addr:city": "ELLWOOD CITY", "addr:country": "US", "addr:full": "135 4TH ST", "addr:postcode": "16117", "addr:state": "PA", "amenity": "post_box", "brand": "United States Postal Service", "brand:wikidata": "Q668687", "collection_times": "Mo-Sa 12:00", "name": "USPS COLLECTION BOX - BLUE BOX", "nsi_id": "unitedstatespostalservice-a77078", "operator": "United States Postal Service", "operator:short": "USPS", "operator:type": "public", "operator:wikidata": "Q668687", "ref": "1611700033"}, "type": "Feature"}
{"dataset_attributes": {"@spider": "usps_collection_boxes", "spider:collection_time": "2023-11-07T08:25:32.615229"}, "geometry": {"coordinates": [-80.2874038, 40.860402], "type": "Point"}, "id": "KQIr1MUX3fZ-BsHCPPQrrXbEPHo=", "properties": {"@spider": "usps_collection_boxes", "addr:city": "ELLWOOD CITY", "addr:country": "US", "addr:full": "202 5TH ST", "addr:postcode": "16117", "addr:state": "PA", "amenity": "post_box", "brand": "United States Postal Service", "brand:wikidata": "Q668687", "collection_times": "Mo-Sa 15:00", "name": "USPS COLLECTION BOX - BLUE BOX", "note": "ON 12/24 AND 12/31, THIS BOX MAY BE COLLECTED AS EARLY AS 12 NOON.", "nsi_id": "unitedstatespostalservice-a77078", "operator": "United States Postal Service", "operator:short": "USPS", "operator:type": "public", "operator:wikidata": "Q668687", "ref": "1611700034"}, "type": "Feature"}
{"dataset_attributes": {"@spider": "usps_collection_boxes", "spider:collection_time": "2023-11-07T08:25:32.615229"}, "geometry": {"coordinates": [-80.2855413, 40.858428], "type": "Point"}, "id": "EnwA5iO7hPZrJI40JzkmBj-8ZCw=", "properties": {"@spider": "usps_collection_boxes", "addr:city": "ELLWOOD CITY", "addr:country": "US", "addr:full": "327 LAWRENCE AVE", "addr:postcode": "16117", "addr:state": "PA", "amenity": "post_box", "brand": "United States Postal Service", "brand:wikidata": "Q668687", "collection_times": "Mo-Sa 12:00", "name": "USPS COLLECTION BOX - BLUE BOX", "nsi_id": "unitedstatespostalservice-a77078", "operator": "United States Postal Service", "operator:short": "USPS", "operator:type": "public", "operator:wikidata": "Q668687", "ref": "1611700035"}, "type": "Feature"}
{"dataset_attributes": {"@spider": "usps_collection_boxes", "spider:collection_time": "2023-11-07T08:25:32.615229"}, "geometry": {"coordinates": [-80.2874658, 40.85847], "type": "Point"}, "id": "n_mE8hmHPTodPx1O3qHZUAnUb2g=", "properties": {"@spider": "usps_collection_boxes", "addr:city": "ELLWOOD CITY", "addr:country": "US", "addr:full": "505 LAWRENCE AVE", "addr:postcode": "16117", "addr:state": "PA", "amenity": "post_box", "brand": "United States Postal Service", "brand:wikidata": "Q668687", "collection_times": "Mo-Sa 15:00", "name": "USPS COLLECTION BOX - BLUE BOX", "note": "ON 12/24 AND 12/31, THIS BOX MAY BE COLLECTED AS EARLY AS 12 NOON.", "nsi_id": "unitedstatespostalservice-a77078", "operator": "United States Postal Service", "operator:short": "USPS", "operator:type": "public", "operator:wikidata": "Q668687", "ref": "1611700036"}, "type": "Feature"}
{"dataset_attributes": {"@spider": "usps_collection_boxes", "spider:collection_time": "2023-11-07T08:25:32.615229"}, "geometry": {"coordinates": [-80.2889919, 40.858326], "type": "Point"}, "id": "OHOYKcvpyiml3uHwx3NGbCUOpM4=", "properties": {"@spider": "usps_collection_boxes", "addr:city": "ELLWOOD CITY", "addr:country": "US", "addr:full": "601 LAWRENCE AVE", "addr:postcode": "16117", "addr:state": "PA", "amenity": "post_box", "brand": "United States Postal Service", "brand:wikidata": "Q668687", "collection_times": "Mo-Sa 15:00", "name": "USPS COLLECTION BOX - BLUE BOX", "note": "ON 12/24 AND 12/31, THIS BOX MAY BE COLLECTED AS EARLY AS 12 NOON.", "nsi_id": "unitedstatespostalservice-a77078", "operator": "United States Postal Service", "operator:short": "USPS", "operator:type": "public", "operator:wikidata": "Q668687", "ref": "1611700037"}, "type": "Feature"}
{"dataset_attributes": {"@spider": "usps_collection_boxes", "spider:collection_time": "2023-11-07T08:25:32.615229"}, "geometry": {"coordinates": [-80.2630365, 40.85846], "type": "Point"}, "id": "64yJemQlyZdxcj7iK-xxJy1MXaI=", "properties": {"@spider": "usps_collection_boxes", "addr:city": "ELLWOOD CITY", "addr:country": "US", "addr:full": "229 PORTERSVILLE RD", "addr:postcode": "16117", "addr:state": "PA", "amenity": "post_box", "brand": "United States Postal Service", "brand:wikidata": "Q668687", "collection_times": "Mo-Sa 12:00", "name": "USPS COLLECTION BOX - BLUE BOX", "nsi_id": "unitedstatespostalservice-a77078", "operator": "United States Postal Service", "operator:short": "USPS", "operator:type": "public", "operator:wikidata": "Q668687", "ref": "1611700038"}, "type": "Feature"}
{"dataset_attributes": {"@spider": "usps_collection_boxes", "spider:collection_time": "2023-11-07T08:25:32.615229"}, "geometry": {"coordinates": [-80.290576265, 40.857650633], "type": "Point"}, "id": "HpLVZ7pYwtOyZaJe1AIe1qWOFk8=", "properties": {"@spider": "usps_collection_boxes", "addr:city": "ELLWOOD CITY", "addr:country": "US", "addr:full": "320 7TH ST", "addr:postcode": "16117", "addr:state": "PA", "amenity": "post_box", "brand": "United States Postal Service", "brand:wikidata": "Q668687", "collection_times": "Mo-Fr 17:00; Sa 16:00", "name": "USPS COLLECTION BOX - PO LOBBY", "note": "ON 12/24 AND 12/31, THIS BOX MAY BE COLLECTED AS EARLY AS 12 NOON.", "nsi_id": "unitedstatespostalservice-a77078", "operator": "United States Postal Service", "operator:short": "USPS", "operator:type": "public", "operator:wikidata": "Q668687", "ref": "1611700039"}, "type": "Feature"}
{"dataset_attributes": {"@spider": "usps_collection_boxes", "spider:collection_time": "2023-11-07T08:25:32.615229"}, "geometry": {"coordinates": [-80.290576265, 40.857650633], "type": "Point"}, "id": "GQPFTp3SlXoAImleXrF4Zv3yieg=", "properties": {"@spider": "usps_collection_boxes", "addr:city": "ELLWOOD CITY", "addr:country": "US", "addr:full": "320 7TH ST", "addr:postcode": "16117", "addr:state": "PA", "amenity": "post_box", "brand": "United States Postal Service", "brand:wikidata": "Q668687", "collection_times": "Mo-Fr 17:00; Sa 12:00", "name": "USPS COLLECTION BOX - PO LOBBY", "note": "ON 12/24 AND 12/31, THIS BOX MAY BE COLLECTED AS EARLY AS 12 NOON.", "nsi_id": "unitedstatespostalservice-a77078", "operator": "United States Postal Service", "operator:short": "USPS", "operator:type": "public", "operator:wikidata": "Q668687", "ref": "1611700042"}, "type": "Feature"}
{"dataset_attributes": {"@spider": "usps_collection_boxes", "spider:collection_time": "2023-11-07T08:25:32.615229"}, "geometry": {"coordinates": [-80.457041191, 40.855011717], "type": "Point"}, "id": "P3l9NgSxr7Djtknz52iBLLm8mIw=", "properties": {"@spider": "usps_collection_boxes", "addr:city": "ENON VALLEY", "addr:country": "US", "addr:full": "7150 VINE ST", "addr:postcode": "16120", "addr:state": "PA", "amenity": "post_box", "brand": "United States Postal Service", "brand:wikidata": "Q668687", "collection_times": "Mo-Fr 16:00; Sa 11:30", "name": "USPS COLLECTION BOX - BLUE BOX", "note": "ON 12/24 AND 12/31, THIS BOX MAY BE COLLECTED AS EARLY AS 12 NOON.", "nsi_id": "unitedstatespostalservice-a77078", "operator": "United States Postal Service", "operator:short": "USPS", "operator:type": "public", "operator:wikidata": "Q668687", "ref": "1612000000"}, "type": "Feature"}
{"dataset_attributes": {"@spider": "usps_collection_boxes", "spider:collection_time": "2023-11-07T08:25:32.615229"}, "geometry": {"coordinates": [-80.457041191, 40.855011717], "type": "Point"}, "id": "gHrUpSvRF1JaWLYYxe7MxKCOziA=", "properties": {"@spider": "usps_collection_boxes", "addr:city": "ENON VALLEY", "addr:country": "US", "addr:full": "7150 VINE ST", "addr:postcode": "16120", "addr:state": "PA", "amenity": "post_box", "brand": "United States Postal Service", "brand:wikidata": "Q668687", "collection_times": "Mo-Fr 16:00; Sa 11:30", "name": "USPS COLLECTION BOX - PO LOBBY", "note": "ON 12/24 AND 12/31, THIS BOX MAY BE COLLECTED AS EARLY AS 12 NOON.", "nsi_id": "unitedstatespostalservice-a77078", "operator": "United States Postal Service", "operator:short": "USPS", "operator:type": "public", "operator:wikidata": "Q668687", "ref": "1612000001"}, "type": "Feature"}
{"dataset_attributes": {"@spider": "usps_collection_boxes", "spider:collection_time": "2023-11-07T08:25:32.615229"}, "geometry": {"coordinates": [-80.457041191, 40.855011717], "type": "Point"}, "id": "xWyKdrf1Xo3rpTSt7W75e-DHnQw=", "properties": {"@spider": "usps_collection_boxes", "addr:city": "ENON VALLEY", "addr:country": "US", "addr:full": "7150 VINE ST", "addr:postcode": "16120", "addr:state": "PA", "amenity": "post_box", "brand": "United States Postal Service", "brand:wikidata": "Q668687", "collection_times": "Mo-Fr 16:00; Sa 11:30", "name": "USPS COLLECTION BOX - PO LOBBY", "note": "ON 12/24 AND 12/31, THIS BOX MAY BE COLLECTED AS EARLY AS 12 NOON.", "nsi_id": "unitedstatespostalservice-a77078", "operator": "United States Postal Service", "operator:short": "USPS", "operator:type": "public", "operator:wikidata": "Q668687", "ref": "1612000003"}, "type": "Feature"}
{"dataset_attributes": {"@spider": "usps_collection_boxes", "spider:collection_time": "2023-11-07T08:25:32.615229"}, "geometry": {"coordinates": [-80.503505, 41.211949], "type": "Point"}, "id": "K4SKf7FC3JeKK6hjGmKhDZ3r3W4=", "properties": {"@spider": "usps_collection_boxes", "addr:city": "FARRELL", "addr:country": "US", "addr:full": "410 ROEMER BLVD", "addr:postcode": "16121", "addr:state": "PA", "amenity": "post_box", "brand": "United States Postal Service", "brand:wikidata": "Q668687", "collection_times": "Mo-Fr 16:15; Sa 12:00", "name": "USPS COLLECTION BOX - BLUE BOX", "note": "ON 12/24 AND 12/31, THIS BOX MAY BE COLLECTED AS EARLY AS 12 NOON.", "nsi_id": "unitedstatespostalservice-a77078", "operator": "United States Postal Service", "operator:short": "USPS", "operator:type": "public", "operator:wikidata": "Q668687", "ref": "1612100000"}, "type": "Feature"}
{"dataset_attributes": {"@spider": "usps_collection_boxes", "spider:collection_time": "2023-11-07T08:25:32.615229"}, "geometry": {"coordinates": [-80.502628302, 41.211974422], "type": "Point"}, "id": "QY88Ja1lAU7GTNFDNRTTjV8D8U8=", "properties": {"@spider": "usps_collection_boxes", "addr:city": "FARRELL", "addr:country": "US", "addr:full": "700 SPEARMAN AVE", "addr:postcode": "16121", "addr:state": "PA", "amenity": "post_box", "brand": "United States Postal Service", "brand:wikidata": "Q668687", "collection_times": "Mo-Fr 16:15; Sa 12:00", "name": "USPS COLLECTION BOX - BLUE BOX", "note": "ON 12/24 AND 12/31, THIS BOX MAY BE COLLECTED AS EARLY AS 12 NOON.", "nsi_id": "unitedstatespostalservice-a77078", "operator": "United States Postal Service", "operator:short": "USPS", "operator:type": "public", "operator:wikidata": "Q668687", "ref": "1612100001"}, "type": "Feature"}
{"dataset_attributes": {"@spider": "usps_collection_boxes", "spider:collection_time": "2023-11-07T08:25:32.615229"}, "geometry": {"coordinates": [-80.4919846, 41.214747], "type": "Point"}, "id": "YbB4lTEFInJciq4DDUJEIu9OOeU=", "properties": {"@spider": "usps_collection_boxes", "addr:city": "FARRELL", "addr:country": "US", "addr:full": "1225 UNION ST", "addr:postcode": "16121", "addr:state": "PA", "amenity": "post_box", "brand": "United States Postal Service", "brand:wikidata": "Q668687", "collection_times": "Mo-Sa 14:00", "name": "USPS COLLECTION BOX - BLUE BOX", "note": "ON 12/24 AND 12/31, THIS BOX MAY BE COLLECTED AS EARLY AS 12 NOON.", "nsi_id": "unitedstatespostalservice-a77078", "operator": "United States Postal Service", "operator:short": "USPS", "operator:type": "public", "operator:wikidata": "Q668687", "ref": "1612100004"}, "type": "Feature"}
{"dataset_attributes": {"@spider": "usps_collection_boxes", "spider:collection_time": "2023-11-07T08:25:32.615229"}, "geometry": {"coordinates": [-80.469076, 41.210591], "type": "Point"}, "id": "O7gmScYo2Tx3V7JgDD6T_iz-goU=", "properties": {"@spider": "usps_collection_boxes", "addr:city": "FARRELL", "addr:country": "US", "addr:full": "2200 MEMORIAL DR", "addr:postcode": "16121", "addr:state": "PA", "amenity": "post_box", "brand": "United States Postal Service", "brand:wikidata": "Q668687", "collection_times": "Mo-Sa 10:00", "name": "USPS COLLECTION BOX - BLUE BOX", "nsi_id": "unitedstatespostalservice-a77078", "operator": "United States Postal Service", "operator:short": "USPS", "operator:type": "public", "operator:wikidata": "Q668687", "ref": "1612100006"}, "type": "Feature"}
{"dataset_attributes": {"@spider": "usps_collection_boxes", "spider:collection_time": "2023-11-07T08:25:32.615229"}, "geometry": {"coordinates": [-80.479764, 41.2128], "type": "Point"}, "id": "XELeLr8OUrF-EM72MC0ZYeq3Dyo=", "properties": {"@spider": "usps_collection_boxes", "addr:city": "FARRELL", "addr:country": "US", "addr:full": "707 SHARON NEW CASTLE RD", "addr:postcode": "16121", "addr:state": "PA", "amenity": "post_box", "brand": "United States Postal Service", "brand:wikidata": "Q668687", "collection_times": "Mo-Sa 10:00", "name": "USPS COLLECTION BOX - BLUE BOX", "nsi_id": "unitedstatespostalservice-a77078", "operator": "United States Postal Service", "operator:short": "USPS", "operator:type": "public", "operator:wikidata": "Q668687", "ref": "1612100007"}, "type": "Feature"}
{"dataset_attributes": {"@spider": "usps_collection_boxes", "spider:collection_time": "2023-11-07T08:25:32.615229"}, "geometry": {"coordinates": [-80.4912261, 41.218209], "type": "Point"}, "id": "NqAqWN90Rq1IVyCe5qLn2uRhRhw=", "properties": {"@spider": "usps_collection_boxes", "addr:city": "FARRELL", "addr:country": "US", "addr:full": "1030 INDIANA AVE", "addr:postcode": "16121", "addr:state": "PA", "amenity": "post_box", "brand": "United States Postal Service", "brand:wikidata": "Q668687", "collection_times": "Mo-Sa 09:00", "name": "USPS COLLECTION BOX - BLUE BOX", "nsi_id": "unitedstatespostalservice-a77078", "operator": "United States Postal Service", "operator:short": "USPS", "operator:type": "public", "operator:wikidata": "Q668687", "ref": "1612100008"}, "type": "Feature"}
{"dataset_attributes": {"@spider": "usps_collection_boxes", "spider:collection_time": "2023-11-07T08:25:32.615229"}, "geometry": {"coordinates": [-80.502628302, 41.211974422], "type": "Point"}, "id": "qEM6TjnOw6hfdMJp0I3_eErw7a4=", "properties": {"@spider": "usps_collection_boxes", "addr:city": "FARRELL", "addr:country": "US", "addr:full": "700 SPEARMAN AVE", "addr:postcode": "16121", "addr:state": "PA", "amenity": "post_box", "brand": "United States Postal Service", "brand:wikidata": "Q668687", "collection_times": "Mo-Fr 16:15; Sa 12:00", "name": "USPS COLLECTION BOX - PO LOBBY", "note": "ON 12/24 AND 12/31, THIS BOX MAY BE COLLECTED AS EARLY AS 12 NOON.", "nsi_id": "unitedstatespostalservice-a77078", "operator": "United States Postal Service", "operator:short": "USPS", "operator:type": "public", "operator:wikidata": "Q668687", "ref": "1612100029"}, "type": "Feature"}
{"dataset_attributes": {"@spider": "usps_collection_boxes", "spider:collection_time": "2023-11-07T08:25:32.615229"}, "geometry": {"coordinates": [-80.502628302, 41.211974422], "type": "Point"}, "id": "APUImy0ATkdoNqzBLm4IgA6MoHU=", "properties": {"@spider": "usps_collection_boxes", "addr:city": "FARRELL", "addr:country": "US", "addr:full": "700 SPEARMAN AVE", "addr:postcode": "16121", "addr:state": "PA", "amenity": "post_box", "brand": "United States Postal Service", "brand:wikidata": "Q668687", "collection_times": "Mo-Fr 16:30; Sa 12:00", "name": "USPS COLLECTION BOX - PO LOBBY", "note": "ON 12/24 AND 12/31, THIS BOX MAY BE COLLECTED AS EARLY AS 12 NOON.", "nsi_id": "unitedstatespostalservice-a77078", "operator": "United States Postal Service", "operator:short": "USPS", "operator:type": "public", "operator:wikidata": "Q668687", "ref": "1612100031"}, "type": "Feature"}
{"dataset_attributes": {"@spider": "usps_collection_boxes", "spider:collection_time": "2023-11-07T08:25:32.615229"}, "geometry": {"coordinates": [-80.1959066, 40.830072], "type": "Point"}, "id": "Mr2B7kmhXaM7EOA5r0D_bhqTP4w=", "properties": {"@spider": "usps_collection_boxes", "addr:city": "FOMBELL", "addr:country": "US", "addr:full": "1015 ROUTE 288", "addr:postcode": "16123", "addr:state": "PA", "amenity": "post_box", "brand": "United States Postal Service", "brand:wikidata": "Q668687", "collection_times": "Mo-Sa 12:00", "name": "USPS COLLECTION BOX - BLUE BOX", "nsi_id": "unitedstatespostalservice-a77078", "operator": "United States Postal Service", "operator:short": "USPS", "operator:type": "public", "operator:wikidata": "Q668687", "ref": "1612300002"}, "type": "Feature"}
{"dataset_attributes": {"@spider": "usps_collection_boxes", "spider:collection_time": "2023-11-07T08:25:32.615229"}, "geometry": {"coordinates": [-80.259089538, 41.322044602], "type": "Point"}, "id": "-exHOYdKOaVSPNna5cSR2zVw1j8=", "properties": {"@spider": "usps_collection_boxes", "addr:city": "FREDONIA", "addr:country": "US", "addr:full": "161 2ND ST", "addr:postcode": "16124", "addr:state": "PA", "amenity": "post_box", "brand": "United States Postal Service", "brand:wikidata": "Q668687", "collection_times": "Mo-Fr 15:45; Sa 11:00", "name": "USPS COLLECTION BOX - BLUE BOX", "note": "ON 12/24 AND 12/31, THIS BOX MAY BE COLLECTED AS EARLY AS 12 NOON.", "nsi_id": "unitedstatespostalservice-a77078", "operator": "United States Postal Service", "operator:short": "USPS", "operator:type": "public", "operator:wikidata": "Q668687", "ref": "1612400001"}, "type": "Feature"}
{"dataset_attributes": {"@spider": "usps_collection_boxes", "spider:collection_time": "2023-11-07T08:25:32.615229"}, "geometry": {"coordinates": [-80.259089538, 41.322044602], "type": "Point"}, "id": "i8m-9F8AgXLBbSnf_VNJFsyNtwA=", "properties": {"@spider": "usps_collection_boxes", "addr:city": "FREDONIA", "addr:country": "US", "addr:full": "161 2ND ST", "addr:postcode": "16124", "addr:state": "PA", "amenity": "post_box", "brand": "United States Postal Service", "brand:wikidata": "Q668687", "collection_times": "Mo-Fr 15:45; Sa 11:00", "name": "USPS COLLECTION BOX - PO LOBBY", "note": "ON 12/24 AND 12/31, THIS BOX MAY BE COLLECTED AS EARLY AS 12 NOON.", "nsi_id": "unitedstatespostalservice-a77078", "operator": "United States Postal Service", "operator:short": "USPS", "operator:type": "public", "operator:wikidata": "Q668687", "ref": "1612400002"}, "type": "Feature"}
{"dataset_attributes": {"@spider": "usps_collection_boxes", "spider:collection_time": "2023-11-07T08:25:32.615229"}, "geometry": {"coordinates": [-80.259089538, 41.322044602], "type": "Point"}, "id": "ndGYoAPLtxkLnMAY4Hk0eshUvtU=", "properties": {"@spider": "usps_collection_boxes", "addr:city": "FREDONIA", "addr:country": "US", "addr:full": "161 2ND ST", "addr:postcode": "16124", "addr:state": "PA", "amenity": "post_box", "brand": "United States Postal Service", "brand:wikidata": "Q668687", "collection_times": "Mo-Fr 15:50; Sa 11:00", "name": "USPS COLLECTION BOX - PO LOBBY", "note": "ON 12/24 AND 12/31, THIS BOX MAY BE COLLECTED AS EARLY AS 12 NOON.", "nsi_id": "unitedstatespostalservice-a77078", "operator": "United States Postal Service", "operator:short": "USPS", "operator:type": "public", "operator:wikidata": "Q668687", "ref": "1612400004"}, "type": "Feature"}
{"dataset_attributes": {"@spider": "usps_collection_boxes", "spider:collection_time": "2023-11-07T08:25:32.615229"}, "geometry": {"coordinates": [-80.3543013, 41.414016], "type": "Point"}, "id": "B7Kvq4XGtRu6nX8Cd0aTVqpjZP8=", "properties": {"@spider": "usps_collection_boxes", "addr:city": "GREENVILLE", "addr:country": "US", "addr:full": "100 HADLEY RD UNIT 1", "addr:postcode": "16125", "addr:state": "PA", "amenity": "post_box", "brand": "United States Postal Service", "brand:wikidata": "Q668687", "collection_times": "Mo-Sa 10:00", "name": "USPS COLLECTION BOX - BLUE BOX", "nsi_id": "unitedstatespostalservice-a77078", "operator": "United States Postal Service", "operator:short": "USPS", "operator:type": "public", "operator:wikidata": "Q668687", "ref": "1612500004"}, "type": "Feature"}
{"dataset_attributes": {"@spider": "usps_collection_boxes", "spider:collection_time": "2023-11-07T08:25:32.615229"}, "geometry": {"coordinates": [-80.4095681, 41.351986], "type": "Point"}, "id": "UbnJ7OtEy1z9kbXEgFt69IxA-FY=", "properties": {"@spider": "usps_collection_boxes", "addr:city": "GREENVILLE", "addr:country": "US", "addr:full": "301 ARLINGTON DR", "addr:postcode": "16125", "addr:state": "PA", "amenity": "post_box", "brand": "United States Postal Service", "brand:wikidata": "Q668687", "collection_times": "Mo-Fr 09:15", "name": "USPS COLLECTION BOX - BLUE BOX", "nsi_id": "unitedstatespostalservice-a77078", "operator": "United States Postal Service", "operator:short": "USPS", "operator:type": "public", "operator:wikidata": "Q668687", "ref": "1612500006"}, "type": "Feature"}
{"dataset_attributes": {"@spider": "usps_collection_boxes", "spider:collection_time": "2023-11-07T08:25:32.615229"}, "geometry": {"coordinates": [-80.3914027, 41.4042204], "type": "Point"}, "id": "N4jXAVfaO4OcyU7LU1q_gPG0-fQ=", "properties": {"@spider": "usps_collection_boxes", "addr:city": "GREENVILLE", "addr:country": "US", "addr:full": "341 E JAMESTOWN RD", "addr:postcode": "16125", "addr:state": "PA", "amenity": "post_box", "brand": "United States Postal Service", "brand:wikidata": "Q668687", "collection_times": "Mo-Sa 09:15", "name": "USPS COLLECTION BOX - BLUE BOX", "nsi_id": "unitedstatespostalservice-a77078", "operator": "United States Postal Service", "operator:short": "USPS", "operator:type": "public", "operator:wikidata": "Q668687", "ref": "1612500007"}, "type": "Feature"}
{"dataset_attributes": {"@spider": "usps_collection_boxes", "spider:collection_time": "2023-11-07T08:25:32.615229"}, "geometry": {"coordinates": [-80.3667319, 41.411769], "type": "Point"}, "id": "cFqAhe8oNyRpqEs0jieYekigurM=", "properties": {"@spider": "usps_collection_boxes", "addr:city": "GREENVILLE", "addr:country": "US", "addr:full": "2 HADLEY RD", "addr:postcode": "16125", "addr:state": "PA", "amenity": "post_box", "brand": "United States Postal Service", "brand:wikidata": "Q668687", "collection_times": "Mo-Sa 09:15", "name": "USPS COLLECTION BOX - BLUE BOX", "nsi_id": "unitedstatespostalservice-a77078", "operator": "United States Postal Service", "operator:short": "USPS", "operator:type": "public", "operator:wikidata": "Q668687", "ref": "1612500011"}, "type": "Feature"}
{"dataset_attributes": {"@spider": "usps_collection_boxes", "spider:collection_time": "2023-11-07T08:25:32.615229"}, "geometry": {"coordinates": [-80.3853811, 41.407088], "type": "Point"}, "id": "-kvvUZ3mFCUqO6R3eDqbrXzcXfQ=", "properties": {"@spider": "usps_collection_boxes", "addr:city": "GREENVILLE", "addr:country": "US", "addr:full": "83 SHENANGO ST", "addr:postcode": "16125", "addr:state": "PA", "amenity": "post_box", "brand": "United States Postal Service", "brand:wikidata": "Q668687", "collection_times": "Mo-Sa 09:00", "name": "USPS COLLECTION BOX - BLUE BOX", "nsi_id": "unitedstatespostalservice-a77078", "operator": "United States Postal Service", "operator:short": "USPS", "operator:type": "public", "operator:wikidata": "Q668687", "ref": "1612500019"}, "type": "Feature"}
{"dataset_attributes": {"@spider": "usps_collection_boxes", "spider:collection_time": "2023-11-07T08:25:32.615229"}, "geometry": {"coordinates": [-80.388381498, 41.404252902], "type": "Point"}, "id": "tdgCtFEN9WsPdxGoYhBNZI-eNzA=", "properties": {"@spider": "usps_collection_boxes", "addr:city": "GREENVILLE", "addr:country": "US", "addr:full": "55 CLINTON ST", "addr:postcode": "16125", "addr:state": "PA", "amenity": "post_box", "brand": "United States Postal Service", "brand:wikidata": "Q668687", "collection_times": "Mo-Fr 16:45; Sa 16:00", "name": "USPS COLLECTION BOX - BLUE BOX", "note": "ON 12/24 AND 12/31, THIS BOX MAY BE COLLECTED AS EARLY AS 12 NOON.", "nsi_id": "unitedstatespostalservice-a77078", "operator": "United States Postal Service", "operator:short": "USPS", "operator:type": "public", "operator:wikidata": "Q668687", "ref": "1612500022"}, "type": "Feature"}
{"dataset_attributes": {"@spider": "usps_collection_boxes", "spider:collection_time": "2023-11-07T08:25:32.615229"}, "geometry": {"coordinates": [-80.388582, 41.404406], "type": "Point"}, "id": "d6K0Xvodev3rU-A6DxB_t2KjMtE=", "properties": {"@spider": "usps_collection_boxes", "addr:city": "GREENVILLE", "addr:country": "US", "addr:full": "24 CANAL ST", "addr:postcode": "16125", "addr:state": "PA", "amenity": "post_box", "brand": "United States Postal Service", "brand:wikidata": "Q668687", "collection_times": "Mo-Fr 16:45; Sa 16:00", "name": "USPS COLLECTION BOX - BLUE BOX", "note": "ON 12/24 AND 12/31, THIS BOX MAY BE COLLECTED AS EARLY AS 12 NOON.", "nsi_id": "unitedstatespostalservice-a77078", "operator": "United States Postal Service", "operator:short": "USPS", "operator:type": "public", "operator:wikidata": "Q668687", "ref": "1612500024"}, "type": "Feature"}
{"dataset_attributes": {"@spider": "usps_collection_boxes", "spider:collection_time": "2023-11-07T08:25:32.615229"}, "geometry": {"coordinates": [-80.3875499, 41.405696], "type": "Point"}, "id": "guwLtuKujc9fgAIflDDqTOLUW7I=", "properties": {"@spider": "usps_collection_boxes", "addr:city": "GREENVILLE", "addr:country": "US", "addr:full": "222 MAIN ST", "addr:postcode": "16125", "addr:state": "PA", "amenity": "post_box", "brand": "United States Postal Service", "brand:wikidata": "Q668687", "collection_times": "Mo-Sa 09:00", "name": "USPS COLLECTION BOX - BLUE BOX", "nsi_id": "unitedstatespostalservice-a77078", "operator": "United States Postal Service", "operator:short": "USPS", "operator:type": "public", "operator:wikidata": "Q668687", "ref": "1612500027"}, "type": "Feature"}
{"dataset_attributes": {"@spider": "usps_collection_boxes", "spider:collection_time": "2023-11-07T08:25:32.615229"}, "geometry": {"coordinates": [-80.3723231, 41.411389], "type": "Point"}, "id": "Jjh4YptZEmdRHyB_5JupeDEi63M=", "properties": {"@spider": "usps_collection_boxes", "addr:city": "GREENVILLE", "addr:country": "US", "addr:full": "110 N MAIN ST", "addr:postcode": "16125", "addr:state": "PA", "amenity": "post_box", "brand": "United States Postal Service", "brand:wikidata": "Q668687", "collection_times": "Mo-Sa 13:00", "name": "USPS COLLECTION BOX - BLUE BOX", "note": "ON 12/24 AND 12/31, THIS BOX MAY BE COLLECTED AS EARLY AS 12 NOON.", "nsi_id": "unitedstatespostalservice-a77078", "operator": "United States Postal Service", "operator:short": "USPS", "operator:type": "public", "operator:wikidata": "Q668687", "ref": "1612500031"}, "type": "Feature"}
{"dataset_attributes": {"@spider": "usps_collection_boxes", "spider:collection_time": "2023-11-07T08:25:32.615229"}, "geometry": {"coordinates": [-80.388381498, 41.404252902], "type": "Point"}, "id": "kjkgu2HrGbU_hXoGaaeKyyBGCGw=", "properties": {"@spider": "usps_collection_boxes", "addr:city": "GREENVILLE", "addr:country": "US", "addr:full": "55 CLINTON ST", "addr:postcode": "16125", "addr:state": "PA", "amenity": "post_box", "brand": "United States Postal Service", "brand:wikidata": "Q668687", "collection_times": "Mo-Fr 17:00; Sa 16:15", "name": "USPS COLLECTION BOX - PO LOBBY", "note": "ON 12/24 AND 12/31, THIS BOX MAY BE COLLECTED AS EARLY AS 12 NOON.", "nsi_id": "unitedstatespostalservice-a77078", "operator": "United States Postal Service", "operator:short": "USPS", "operator:type": "public", "operator:wikidata": "Q668687", "ref": "1612500037"}, "type": "Feature"}
{"dataset_attributes": {"@spider": "usps_collection_boxes", "spider:collection_time": "2023-11-07T08:25:32.615229"}, "geometry": {"coordinates": [-80.3588538, 41.414971], "type": "Point"}, "id": "pXA_xmWrkZCemE3RoxFkyROFy9g=", "properties": {"@spider": "usps_collection_boxes", "addr:city": "GREENVILLE", "addr:country": "US", "addr:full": "45 WILLIAMSON RD", "addr:postcode": "16125", "addr:state": "PA", "amenity": "post_box", "brand": "United States Postal Service", "brand:wikidata": "Q668687", "collection_times": "Mo-Sa 11:15", "name": "USPS COLLECTION BOX - BLUE BOX", "nsi_id": "unitedstatespostalservice-a77078", "operator": "United States Postal Service", "operator:short": "USPS", "operator:type": "public", "operator:wikidata": "Q668687", "ref": "1612500039"}, "type": "Feature"}
{"dataset_attributes": {"@spider": "usps_collection_boxes", "spider:collection_time": "2023-11-07T08:25:32.615229"}, "geometry": {"coordinates": [-80.3425841, 41.415605], "type": "Point"}, "id": "5TGDvRpY-ZpoKCmCpOgGmZpH31I=", "properties": {"@spider": "usps_collection_boxes", "addr:city": "GREENVILLE", "addr:country": "US", "addr:full": "181 HADLEY RD", "addr:postcode": "16125", "addr:state": "PA", "amenity": "post_box", "brand": "United States Postal Service", "brand:wikidata": "Q668687", "collection_times": "Mo-Sa 12:00", "name": "USPS COLLECTION BOX - BLUE BOX", "nsi_id": "unitedstatespostalservice-a77078", "operator": "United States Postal Service", "operator:short": "USPS", "operator:type": "public", "operator:wikidata": "Q668687", "ref": "1612500041"}, "type": "Feature"}
{"dataset_attributes": {"@spider": "usps_collection_boxes", "spider:collection_time": "2023-11-07T08:25:32.615229"}, "geometry": {"coordinates": [-80.388381498, 41.404252902], "type": "Point"}, "id": "aB6Cn1bbkvFs34BeagqmolBznSY=", "properties": {"@spider": "usps_collection_boxes", "addr:city": "GREENVILLE", "addr:country": "US", "addr:full": "55 CLINTON ST", "addr:postcode": "16125", "addr:state": "PA", "amenity": "post_box", "brand": "United States Postal Service", "brand:wikidata": "Q668687", "collection_times": "Mo-Fr 17:00; Sa 12:30", "name": "USPS COLLECTION BOX - PO LOBBY", "note": "ON 12/24 AND 12/31, THIS BOX MAY BE COLLECTED AS EARLY AS 12 NOON.", "nsi_id": "unitedstatespostalservice-a77078", "operator": "United States Postal Service", "operator:short": "USPS", "operator:type": "public", "operator:wikidata": "Q668687", "ref": "1612500042"}, "type": "Feature"}
{"dataset_attributes": {"@spider": "usps_collection_boxes", "spider:collection_time": "2023-11-07T08:25:32.615229"}, "geometry": {"coordinates": [-80.112688, 41.167218], "type": "Point"}, "id": "A5oy_sNBwUb12sQsyb-9UCkJaKo=", "properties": {"@spider": "usps_collection_boxes", "addr:city": "GROVE CITY", "addr:country": "US", "addr:full": "27 PINE GROVE SQ", "addr:postcode": "16127", "addr:state": "PA", "amenity": "post_box", "brand": "United States Postal Service", "brand:wikidata": "Q668687", "collection_times": "Mo-Sa 11:00", "name": "USPS COLLECTION BOX - BLUE BOX", "nsi_id": "unitedstatespostalservice-a77078", "operator": "United States Postal Service", "operator:short": "USPS", "operator:type": "public", "operator:wikidata": "Q668687", "ref": "1612700000"}, "type": "Feature"}
{"dataset_attributes": {"@spider": "usps_collection_boxes", "spider:collection_time": "2023-11-07T08:25:32.615229"}, "geometry": {"coordinates": [-80.0870229, 41.157935], "type": "Point"}, "id": "KEWZWRwsWUNH-S3roAMyHPtkBbU=", "properties": {"@spider": "usps_collection_boxes", "addr:city": "GROVE CITY", "addr:country": "US", "addr:full": "301 S BROAD ST", "addr:postcode": "16127", "addr:state": "PA", "amenity": "post_box", "brand": "United States Postal Service", "brand:wikidata": "Q668687", "collection_times": "Mo-Sa 15:00", "name": "USPS COLLECTION BOX - BLUE BOX", "note": "ON 12/24 AND 12/31, THIS BOX MAY BE COLLECTED AS EARLY AS 12 NOON.", "nsi_id": "unitedstatespostalservice-a77078", "operator": "United States Postal Service", "operator:short": "USPS", "operator:type": "public", "operator:wikidata": "Q668687", "ref": "1612700001"}, "type": "Feature"}
{"dataset_attributes": {"@spider": "usps_collection_boxes", "spider:collection_time": "2023-11-07T08:25:32.615229"}, "geometry": {"coordinates": [-80.0873780344, 41.1593520134], "type": "Point"}, "id": "PkKz3lAUs4PFHWIL2Blk8usmWkA=", "properties": {"@spider": "usps_collection_boxes", "addr:city": "GROVE CITY", "addr:country": "US", "addr:full": "200 S CENTER ST", "addr:postcode": "16127", "addr:state": "PA", "amenity": "post_box", "brand": "United States Postal Service", "brand:wikidata": "Q668687", "collection_times": "Mo-Sa 15:00", "name": "USPS COLLECTION BOX - BLUE BOX", "note": "ON 12/24 AND 12/31, THIS BOX MAY BE COLLECTED AS EARLY AS 12 NOON.", "nsi_id": "unitedstatespostalservice-a77078", "operator": "United States Postal Service", "operator:short": "USPS", "operator:type": "public", "operator:wikidata": "Q668687", "ref": "1612700002"}, "type": "Feature"}
{"dataset_attributes": {"@spider": "usps_collection_boxes", "spider:collection_time": "2023-11-07T08:25:32.615229"}, "geometry": {"coordinates": [-80.0777361, 41.155467], "type": "Point"}, "id": "KMt75ii6fd3eBSiPIXT5cUaKlCI=", "properties": {"@spider": "usps_collection_boxes", "addr:city": "GROVE CITY", "addr:country": "US", "addr:full": "100 CAMPUS DR", "addr:postcode": "16127", "addr:state": "PA", "amenity": "post_box", "brand": "United States Postal Service", "brand:wikidata": "Q668687", "collection_times": "Mo-Sa 12:00", "name": "USPS COLLECTION BOX - BLUE BOX", "nsi_id": "unitedstatespostalservice-a77078", "operator": "United States Postal Service", "operator:short": "USPS", "operator:type": "public", "operator:wikidata": "Q668687", "ref": "1612700005"}, "type": "Feature"}
{"dataset_attributes": {"@spider": "usps_collection_boxes", "spider:collection_time": "2023-11-07T08:25:32.615229"}, "geometry": {"coordinates": [-80.085012, 41.159492], "type": "Point"}, "id": "8-joIh7rGudM_1bFMitMiK4F5DY=", "properties": {"@spider": "usps_collection_boxes", "addr:city": "GROVE CITY", "addr:country": "US", "addr:full": "118 E PINE ST", "addr:postcode": "16127", "addr:state": "PA", "amenity": "post_box", "brand": "United States Postal Service", "brand:wikidata": "Q668687", "collection_times": "Mo-Sa 15:00", "name": "USPS COLLECTION BOX - BLUE BOX", "note": "ON 12/24 AND 12/31, THIS BOX MAY BE COLLECTED AS EARLY AS 12 NOON.", "nsi_id": "unitedstatespostalservice-a77078", "operator": "United States Postal Service", "operator:short": "USPS", "operator:type": "public", "operator:wikidata": "Q668687", "ref": "1612700006"}, "type": "Feature"}
{"dataset_attributes": {"@spider": "usps_collection_boxes", "spider:collection_time": "2023-11-07T08:25:32.615229"}, "geometry": {"coordinates": [-80.084809347, 41.159573805], "type": "Point"}, "id": "azvlyHXS3hRvkX3FgnxmTRdOye0=", "properties": {"@spider": "usps_collection_boxes", "addr:city": "GROVE CITY", "addr:country": "US", "addr:full": "117 E PINE ST", "addr:postcode": "16127", "addr:state": "PA", "amenity": "post_box", "brand": "United States Postal Service", "brand:wikidata": "Q668687", "collection_times": "Mo-Fr 17:00; Sa 16:00", "name": "USPS COLLECTION BOX - BLUE BOX", "note": "ON 12/24 AND 12/31, THIS BOX MAY BE COLLECTED AS EARLY AS 12 NOON.", "nsi_id": "unitedstatespostalservice-a77078", "operator": "United States Postal Service", "operator:short": "USPS", "operator:type": "public", "operator:wikidata": "Q668687", "ref": "1612700007"}, "type": "Feature"}
{"dataset_attributes": {"@spider": "usps_collection_boxes", "spider:collection_time": "2023-11-07T08:25:32.615229"}, "geometry": {"coordinates": [-80.0827688, 41.164667], "type": "Point"}, "id": "PouwCB09yJlLEejII8ptwAFRvw0=", "properties": {"@spider": "usps_collection_boxes", "addr:city": "GROVE CITY", "addr:country": "US", "addr:full": "330 N BROAD ST", "addr:postcode": "16127", "addr:state": "PA", "amenity": "post_box", "brand": "United States Postal Service", "brand:wikidata": "Q668687", "collection_times": "Mo-Sa 10:00", "name": "USPS COLLECTION BOX - BLUE BOX", "nsi_id": "unitedstatespostalservice-a77078", "operator": "United States Postal Service", "operator:short": "USPS", "operator:type": "public", "operator:wikidata": "Q668687", "ref": "1612700009"}, "type": "Feature"}
{"dataset_attributes": {"@spider": "usps_collection_boxes", "spider:collection_time": "2023-11-07T08:25:32.615229"}, "geometry": {"coordinates": [-80.0862414, 41.161157], "type": "Point"}, "id": "xXjHSbXlNS3JX63Fhtw-unNzfJE=", "properties": {"@spider": "usps_collection_boxes", "addr:city": "GROVE CITY", "addr:country": "US", "addr:full": "109 S BROAD ST", "addr:postcode": "16127", "addr:state": "PA", "amenity": "post_box", "brand": "United States Postal Service", "brand:wikidata": "Q668687", "collection_times": "Mo-Sa 15:00", "name": "USPS COLLECTION BOX - BLUE BOX", "note": "ON 12/24 AND 12/31, THIS BOX MAY BE COLLECTED AS EARLY AS 12 NOON.", "nsi_id": "unitedstatespostalservice-a77078", "operator": "United States Postal Service", "operator:short": "USPS", "operator:type": "public", "operator:wikidata": "Q668687", "ref": "1612700010"}, "type": "Feature"}
{"dataset_attributes": {"@spider": "usps_collection_boxes", "spider:collection_time": "2023-11-07T08:25:32.615229"}, "geometry": {"coordinates": [-80.084653, 41.166925], "type": "Point"}, "id": "RWJ2ntbVByLg8UTVzA9VZMYI3wU=", "properties": {"@spider": "usps_collection_boxes", "addr:city": "GROVE CITY", "addr:country": "US", "addr:full": "304 HILLCREST CIR", "addr:postcode": "16127", "addr:state": "PA", "amenity": "post_box", "brand": "United States Postal Service", "brand:wikidata": "Q668687", "collection_times": "Mo-Sa 09:00", "name": "USPS COLLECTION BOX - BLUE BOX", "nsi_id": "unitedstatespostalservice-a77078", "operator": "United States Postal Service", "operator:short": "USPS", "operator:type": "public", "operator:wikidata": "Q668687", "ref": "1612700011"}, "type": "Feature"}
{"dataset_attributes": {"@spider": "usps_collection_boxes", "spider:collection_time": "2023-11-07T08:25:32.615229"}, "geometry": {"coordinates": [-80.0870184, 41.157944], "type": "Point"}, "id": "o3tuo2AJyjycwHgWRpvskUQtDK4=", "properties": {"@spider": "usps_collection_boxes", "addr:city": "GROVE CITY", "addr:country": "US", "addr:full": "301 S BROAD ST", "addr:postcode": "16127", "addr:state": "PA", "amenity": "post_box", "brand": "United States Postal Service", "brand:wikidata": "Q668687", "collection_times": "Mo-Sa 15:00", "name": "USPS COLLECTION BOX - BLUE BOX", "note": "ON 12/24 AND 12/31, THIS BOX MAY BE COLLECTED AS EARLY AS 12 NOON.", "nsi_id": "unitedstatespostalservice-a77078", "operator": "United States Postal Service", "operator:short": "USPS", "operator:type": "public", "operator:wikidata": "Q668687", "ref": "1612700012"}, "type": "Feature"}
{"dataset_attributes": {"@spider": "usps_collection_boxes", "spider:collection_time": "2023-11-07T08:25:32.615229"}, "geometry": {"coordinates": [-80.084809347, 41.159573805], "type": "Point"}, "id": "tXJ9-CQE0I_1UoL6xN5Who6XEGU=", "properties": {"@spider": "usps_collection_boxes", "addr:city": "GROVE CITY", "addr:country": "US", "addr:full": "117 E PINE ST", "addr:postcode": "16127", "addr:state": "PA", "amenity": "post_box", "brand": "United States Postal Service", "brand:wikidata": "Q668687", "collection_times": "Mo-Fr 17:15; Sa 16:00", "name": "USPS COLLECTION BOX - PO LOBBY", "note": "ON 12/24 AND 12/31, THIS BOX MAY BE COLLECTED AS EARLY AS 12 NOON.", "nsi_id": "unitedstatespostalservice-a77078", "operator": "United States Postal Service", "operator:short": "USPS", "operator:type": "public", "operator:wikidata": "Q668687", "ref": "1612700016"}, "type": "Feature"}
{"dataset_attributes": {"@spider": "usps_collection_boxes", "spider:collection_time": "2023-11-07T08:25:32.615229"}, "geometry": {"coordinates": [-80.089696507, 41.158482131], "type": "Point"}, "id": "Q8ncjg2JkYs7RASgd_0T1r5KwDI=", "properties": {"@spider": "usps_collection_boxes", "addr:city": "GROVE CITY", "addr:country": "US", "addr:full": "228 W MAIN ST", "addr:postcode": "16127", "addr:state": "PA", "amenity": "post_box", "brand": "United States Postal Service", "brand:wikidata": "Q668687", "collection_times": "Mo-Sa 12:00", "name": "USPS COLLECTION BOX - BLUE BOX", "nsi_id": "unitedstatespostalservice-a77078", "operator": "United States Postal Service", "operator:short": "USPS", "operator:type": "public", "operator:wikidata": "Q668687", "ref": "1612700017"}, "type": "Feature"}
{"dataset_attributes": {"@spider": "usps_collection_boxes", "spider:collection_time": "2023-11-07T08:25:32.615229"}, "geometry": {"coordinates": [-80.085012, 41.159493], "type": "Point"}, "id": "MRfcVRG8c_Y_SJOEkxRrHLFnGg0=", "properties": {"@spider": "usps_collection_boxes", "addr:city": "GROVE CITY", "addr:country": "US", "addr:full": "118 E PINE ST", "addr:postcode": "16127", "addr:state": "PA", "amenity": "post_box", "brand": "United States Postal Service", "brand:wikidata": "Q668687", "collection_times": "Mo-Sa 15:00", "name": "USPS COLLECTION BOX - BLUE BOX", "note": "ON 12/24 AND 12/31, THIS BOX MAY BE COLLECTED AS EARLY AS 12 NOON.", "nsi_id": "unitedstatespostalservice-a77078", "operator": "United States Postal Service", "operator:short": "USPS", "operator:type": "public", "operator:wikidata": "Q668687", "ref": "1612700018"}, "type": "Feature"}
{"dataset_attributes": {"@spider": "usps_collection_boxes", "spider:collection_time": "2023-11-07T08:25:32.615229"}, "geometry": {"coordinates": [-80.158095, 41.1433519167], "type": "Point"}, "id": "kE6AzTdMykwvy-3EOANZ1VXl9xs=", "properties": {"@spider": "usps_collection_boxes", "addr:city": "GROVE CITY", "addr:country": "US", "addr:full": "1911 LEESBURG GROVE CITY RD", "addr:postcode": "16127", "addr:state": "PA", "amenity": "post_box", "brand": "United States Postal Service", "brand:wikidata": "Q668687", "collection_times": "Mo-Sa 17:45", "name": "USPS COLLECTION BOX - PO LOBBY", "note": "ON 12/24 AND 12/31, THIS BOX MAY BE COLLECTED AS EARLY AS 12 NOON.", "nsi_id": "unitedstatespostalservice-a77078", "operator": "United States Postal Service", "operator:short": "USPS", "operator:type": "public", "operator:wikidata": "Q668687", "ref": "1612700019"}, "type": "Feature"}
{"dataset_attributes": {"@spider": "usps_collection_boxes", "spider:collection_time": "2023-11-07T08:25:32.615229"}, "geometry": {"coordinates": [-80.084809347, 41.159573805], "type": "Point"}, "id": "2co3evdRPrSadqrXdrkgzpJ4yt0=", "properties": {"@spider": "usps_collection_boxes", "addr:city": "GROVE CITY", "addr:country": "US", "addr:full": "117 E PINE ST", "addr:postcode": "16127", "addr:state": "PA", "amenity": "post_box", "brand": "United States Postal Service", "brand:wikidata": "Q668687", "collection_times": "Mo-Fr 17:00; Sa 12:00", "name": "USPS COLLECTION BOX - PO LOBBY", "note": "ON 12/24 AND 12/31, THIS BOX MAY BE COLLECTED AS EARLY AS 12 NOON.", "nsi_id": "unitedstatespostalservice-a77078", "operator": "United States Postal Service", "operator:short": "USPS", "operator:type": "public", "operator:wikidata": "Q668687", "ref": "1612700022"}, "type": "Feature"}
{"dataset_attributes": {"@spider": "usps_collection_boxes", "spider:collection_time": "2023-11-07T08:25:32.615229"}, "geometry": {"coordinates": [-80.158095, 41.1433519167], "type": "Point"}, "id": "lswjbhs3j-d_LkXXJIviOUCGp-E=", "properties": {"@spider": "usps_collection_boxes", "addr:city": "GROVE CITY", "addr:country": "US", "addr:full": "1911 LEESBURG GROVE CITY RD", "addr:postcode": "16127", "addr:state": "PA", "amenity": "post_box", "brand": "United States Postal Service", "brand:wikidata": "Q668687", "collection_times": "Mo-Sa 17:45", "name": "USPS COLLECTION BOX - PO LOBBY", "note": "ON 12/24 AND 12/31, THIS BOX MAY BE COLLECTED AS EARLY AS 12 NOON.", "nsi_id": "unitedstatespostalservice-a77078", "operator": "United States Postal Service", "operator:short": "USPS", "operator:type": "public", "operator:wikidata": "Q668687", "ref": "1612700023"}, "type": "Feature"}
{"dataset_attributes": {"@spider": "usps_collection_boxes", "spider:collection_time": "2023-11-07T08:25:32.615229"}, "geometry": {"coordinates": [-80.231777199, 41.414049376], "type": "Point"}, "id": "F2r7QwgUy9NnGUaYcCmzEM12h30=", "properties": {"@spider": "usps_collection_boxes", "addr:city": "HADLEY", "addr:country": "US", "addr:full": "1133 FREDONIA RD", "addr:postcode": "16130", "addr:state": "PA", "amenity": "post_box", "brand": "United States Postal Service", "brand:wikidata": "Q668687", "collection_times": "Mo-Fr 16:00; Sa 10:30", "name": "USPS COLLECTION BOX - BLUE BOX", "note": "ON 12/24 AND 12/31, THIS BOX MAY BE COLLECTED AS EARLY AS 12 NOON.", "nsi_id": "unitedstatespostalservice-a77078", "operator": "United States Postal Service", "operator:short": "USPS", "operator:type": "public", "operator:wikidata": "Q668687", "ref": "1613000000"}, "type": "Feature"}
{"dataset_attributes": {"@spider": "usps_collection_boxes", "spider:collection_time": "2023-11-07T08:25:32.615229"}, "geometry": {"coordinates": [-80.231777199, 41.414049376], "type": "Point"}, "id": "_1fyZKS1WqrxhsJ2_rUX6Iom--A=", "properties": {"@spider": "usps_collection_boxes", "addr:city": "HADLEY", "addr:country": "US", "addr:full": "1133 FREDONIA RD", "addr:postcode": "16130", "addr:state": "PA", "amenity": "post_box", "brand": "United States Postal Service", "brand:wikidata": "Q668687", "collection_times": "Mo-Fr 16:00; Sa 10:45", "name": "USPS COLLECTION BOX - PO LOBBY", "note": "ON 12/24 AND 12/31, THIS BOX MAY BE COLLECTED AS EARLY AS 12 NOON.", "nsi_id": "unitedstatespostalservice-a77078", "operator": "United States Postal Service", "operator:short": "USPS", "operator:type": "public", "operator:wikidata": "Q668687", "ref": "1613000001"}, "type": "Feature"}
{"dataset_attributes": {"@spider": "usps_collection_boxes", "spider:collection_time": "2023-11-07T08:25:32.615229"}, "geometry": {"coordinates": [-80.231777199, 41.414049376], "type": "Point"}, "id": "Po-bAZXD-9DE2wv0H5b73pUPcFo=", "properties": {"@spider": "usps_collection_boxes", "addr:city": "HADLEY", "addr:country": "US", "addr:full": "1133 FREDONIA RD", "addr:postcode": "16130", "addr:state": "PA", "amenity": "post_box", "brand": "United States Postal Service", "brand:wikidata": "Q668687", "collection_times": "Mo-Fr 16:00; Sa 11:00", "name": "USPS COLLECTION BOX - PO LOBBY", "note": "ON 12/24 AND 12/31, THIS BOX MAY BE COLLECTED AS EARLY AS 12 NOON.", "nsi_id": "unitedstatespostalservice-a77078", "operator": "United States Postal Service", "operator:short": "USPS", "operator:type": "public", "operator:wikidata": "Q668687", "ref": "1613000003"}, "type": "Feature"}
{"dataset_attributes": {"@spider": "usps_collection_boxes", "spider:collection_time": "2023-11-07T08:25:32.615229"}, "geometry": {"coordinates": [-80.378026063, 41.552248863], "type": "Point"}, "id": "tzBMYUGn5D95tGDehkqkGFb8jsY=", "properties": {"@spider": "usps_collection_boxes", "addr:city": "HARTSTOWN", "addr:country": "US", "addr:full": "6768 CENTER ST", "addr:postcode": "16131", "addr:state": "PA", "amenity": "post_box", "brand": "United States Postal Service", "brand:wikidata": "Q668687", "collection_times": "Mo-Fr 11:55; Sa 10:15", "name": "USPS COLLECTION BOX - BLUE BOX", "nsi_id": "unitedstatespostalservice-a77078", "operator": "United States Postal Service", "operator:short": "USPS", "operator:type": "public", "operator:wikidata": "Q668687", "ref": "1613100000"}, "type": "Feature"}
{"dataset_attributes": {"@spider": "usps_collection_boxes", "spider:collection_time": "2023-11-07T08:25:32.615229"}, "geometry": {"coordinates": [-80.378026063, 41.552248863], "type": "Point"}, "id": "9rIAal4tgD7W_HBOpgsMyn8VnNs=", "properties": {"@spider": "usps_collection_boxes", "addr:city": "HARTSTOWN", "addr:country": "US", "addr:full": "6768 CENTER ST", "addr:postcode": "16131", "addr:state": "PA", "amenity": "post_box", "brand": "United States Postal Service", "brand:wikidata": "Q668687", "collection_times": "Mo-Fr 11:55; Sa 10:15", "name": "USPS COLLECTION BOX - PO LOBBY", "nsi_id": "unitedstatespostalservice-a77078", "operator": "United States Postal Service", "operator:short": "USPS", "operator:type": "public", "operator:wikidata": "Q668687", "ref": "1613100001"}, "type": "Feature"}
{"dataset_attributes": {"@spider": "usps_collection_boxes", "spider:collection_time": "2023-11-07T08:25:32.615229"}, "geometry": {"coordinates": [-80.378026063, 41.552248863], "type": "Point"}, "id": "xveypbQ65zWqntIUulrklqbz_UU=", "properties": {"@spider": "usps_collection_boxes", "addr:city": "HARTSTOWN", "addr:country": "US", "addr:full": "6768 CENTER ST", "addr:postcode": "16131", "addr:state": "PA", "amenity": "post_box", "brand": "United States Postal Service", "brand:wikidata": "Q668687", "collection_times": "Mo-Fr 11:55; Sa 10:15", "name": "USPS COLLECTION BOX - PO LOBBY", "nsi_id": "unitedstatespostalservice-a77078", "operator": "United States Postal Service", "operator:short": "USPS", "operator:type": "public", "operator:wikidata": "Q668687", "ref": "1613100003"}, "type": "Feature"}
{"dataset_attributes": {"@spider": "usps_collection_boxes", "spider:collection_time": "2023-11-07T08:25:32.615229"}, "geometry": {"coordinates": [-80.496555906, 41.007470082], "type": "Point"}, "id": "M6ILLUij2PWRojL69VR-1N_FlWY=", "properties": {"@spider": "usps_collection_boxes", "addr:city": "HILLSVILLE", "addr:country": "US", "addr:full": "2562 CHURCHILL RD", "addr:postcode": "16132", "addr:state": "PA", "amenity": "post_box", "brand": "United States Postal Service", "brand:wikidata": "Q668687", "collection_times": "Mo-Sa 11:25", "name": "USPS COLLECTION BOX - BLUE BOX", "nsi_id": "unitedstatespostalservice-a77078", "operator": "United States Postal Service", "operator:short": "USPS", "operator:type": "public", "operator:wikidata": "Q668687", "ref": "1613200000"}, "type": "Feature"}
{"dataset_attributes": {"@spider": "usps_collection_boxes", "spider:collection_time": "2023-11-07T08:25:32.615229"}, "geometry": {"coordinates": [-80.496555906, 41.007470082], "type": "Point"}, "id": "cujYyrxtkGCR3wiXgvqQte8mt1A=", "properties": {"@spider": "usps_collection_boxes", "addr:city": "HILLSVILLE", "addr:country": "US", "addr:full": "2562 CHURCHILL RD", "addr:postcode": "16132", "addr:state": "PA", "amenity": "post_box", "brand": "United States Postal Service", "brand:wikidata": "Q668687", "collection_times": "Mo-Sa 11:25", "name": "USPS COLLECTION BOX - PO LOBBY", "nsi_id": "unitedstatespostalservice-a77078", "operator": "United States Postal Service", "operator:short": "USPS", "operator:type": "public", "operator:wikidata": "Q668687", "ref": "1613200001"}, "type": "Feature"}
{"dataset_attributes": {"@spider": "usps_collection_boxes", "spider:collection_time": "2023-11-07T08:25:32.615229"}, "geometry": {"coordinates": [-80.496555906, 41.007470082], "type": "Point"}, "id": "Pcw9aRV5C-hQQwFkUC2PwnQlQCU=", "properties": {"@spider": "usps_collection_boxes", "addr:city": "HILLSVILLE", "addr:country": "US", "addr:full": "2562 CHURCHILL RD", "addr:postcode": "16132", "addr:state": "PA", "amenity": "post_box", "brand": "United States Postal Service", "brand:wikidata": "Q668687", "collection_times": "Mo-Sa 11:25", "name": "USPS COLLECTION BOX - PO LOBBY", "nsi_id": "unitedstatespostalservice-a77078", "operator": "United States Postal Service", "operator:short": "USPS", "operator:type": "public", "operator:wikidata": "Q668687", "ref": "1613200003"}, "type": "Feature"}
{"dataset_attributes": {"@spider": "usps_collection_boxes", "spider:collection_time": "2023-11-07T08:25:32.615229"}, "geometry": {"coordinates": [-80.143720616, 41.271365743], "type": "Point"}, "id": "tG_c9pHAqS9jpta--6gSNspaYH4=", "properties": {"@spider": "usps_collection_boxes", "addr:city": "JACKSON CENTER", "addr:country": "US", "addr:full": "1163 FRANKLIN RD", "addr:postcode": "16133", "addr:state": "PA", "amenity": "post_box", "brand": "United States Postal Service", "brand:wikidata": "Q668687", "collection_times": "Mo-Fr 16:00; Sa 11:30", "name": "USPS COLLECTION BOX - BLUE BOX", "note": "ON 12/24 AND 12/31, THIS BOX MAY BE COLLECTED AS EARLY AS 12 NOON.", "nsi_id": "unitedstatespostalservice-a77078", "operator": "United States Postal Service", "operator:short": "USPS", "operator:type": "public", "operator:wikidata": "Q668687", "ref": "1613300000"}, "type": "Feature"}
{"dataset_attributes": {"@spider": "usps_collection_boxes", "spider:collection_time": "2023-11-07T08:25:32.615229"}, "geometry": {"coordinates": [-80.143720616, 41.271365743], "type": "Point"}, "id": "Qqu77yYisFlvwPUG8_IY0Vv4I6A=", "properties": {"@spider": "usps_collection_boxes", "addr:city": "JACKSON CENTER", "addr:country": "US", "addr:full": "1163 FRANKLIN RD", "addr:postcode": "16133", "addr:state": "PA", "amenity": "post_box", "brand": "United States Postal Service", "brand:wikidata": "Q668687", "collection_times": "Mo-Fr 16:00; Sa 11:30", "name": "USPS COLLECTION BOX - PO LOBBY", "note": "ON 12/24 AND 12/31, THIS BOX MAY BE COLLECTED AS EARLY AS 12 NOON.", "nsi_id": "unitedstatespostalservice-a77078", "operator": "United States Postal Service", "operator:short": "USPS", "operator:type": "public", "operator:wikidata": "Q668687", "ref": "1613300001"}, "type": "Feature"}
{"dataset_attributes": {"@spider": "usps_collection_boxes", "spider:collection_time": "2023-11-07T08:25:32.615229"}, "geometry": {"coordinates": [-80.143720616, 41.271365743], "type": "Point"}, "id": "01Cn0rHSPKb6GM7fOepZI50hdEc=", "properties": {"@spider": "usps_collection_boxes", "addr:city": "JACKSON CENTER", "addr:country": "US", "addr:full": "1163 FRANKLIN RD", "addr:postcode": "16133", "addr:state": "PA", "amenity": "post_box", "brand": "United States Postal Service", "brand:wikidata": "Q668687", "collection_times": "Mo-Fr 16:00; Sa 11:30", "name": "USPS COLLECTION BOX - PO LOBBY", "note": "ON 12/24 AND 12/31, THIS BOX MAY BE COLLECTED AS EARLY AS 12 NOON.", "nsi_id": "unitedstatespostalservice-a77078", "operator": "United States Postal Service", "operator:short": "USPS", "operator:type": "public", "operator:wikidata": "Q668687", "ref": "1613300003"}, "type": "Feature"}
{"dataset_attributes": {"@spider": "usps_collection_boxes", "spider:collection_time": "2023-11-07T08:25:32.615229"}, "geometry": {"coordinates": [-80.441113285, 41.484541715], "type": "Point"}, "id": "sJ3AVYk6AUWVHTNQESjDqWRHYmo=", "properties": {"@spider": "usps_collection_boxes", "addr:city": "JAMESTOWN", "addr:country": "US", "addr:full": "119 LIBERTY ST", "addr:postcode": "16134", "addr:state": "PA", "amenity": "post_box", "brand": "United States Postal Service", "brand:wikidata": "Q668687", "collection_times": "Mo-Fr 16:00; Sa 11:30", "name": "USPS COLLECTION BOX - BLUE BOX", "note": "ON 12/24 AND 12/31, THIS BOX MAY BE COLLECTED AS EARLY AS 12 NOON.", "nsi_id": "unitedstatespostalservice-a77078", "operator": "United States Postal Service", "operator:short": "USPS", "operator:type": "public", "operator:wikidata": "Q668687", "ref": "1613400000"}, "type": "Feature"}
{"dataset_attributes": {"@spider": "usps_collection_boxes", "spider:collection_time": "2023-11-07T08:25:32.615229"}, "geometry": {"coordinates": [-80.441113285, 41.484541715], "type": "Point"}, "id": "7p-tPLiL4WyWlVrl--5dFBnTfoo=", "properties": {"@spider": "usps_collection_boxes", "addr:city": "JAMESTOWN", "addr:country": "US", "addr:full": "119 LIBERTY ST", "addr:postcode": "16134", "addr:state": "PA", "amenity": "post_box", "brand": "United States Postal Service", "brand:wikidata": "Q668687", "collection_times": "Mo-Fr 16:00; Sa 11:30", "name": "USPS COLLECTION BOX - BLUE BOX", "note": "ON 12/24 AND 12/31, THIS BOX MAY BE COLLECTED AS EARLY AS 12 NOON.", "nsi_id": "unitedstatespostalservice-a77078", "operator": "United States Postal Service", "operator:short": "USPS", "operator:type": "public", "operator:wikidata": "Q668687", "ref": "1613400001"}, "type": "Feature"}
{"dataset_attributes": {"@spider": "usps_collection_boxes", "spider:collection_time": "2023-11-07T08:25:32.615229"}, "geometry": {"coordinates": [-80.441113285, 41.484541715], "type": "Point"}, "id": "0w7Uj5H-zyeQvU3Uc7lKxtGJDwQ=", "properties": {"@spider": "usps_collection_boxes", "addr:city": "JAMESTOWN", "addr:country": "US", "addr:full": "119 LIBERTY ST", "addr:postcode": "16134", "addr:state": "PA", "amenity": "post_box", "brand": "United States Postal Service", "brand:wikidata": "Q668687", "collection_times": "Mo-Fr 16:30; Sa 11:30", "name": "USPS COLLECTION BOX - PO LOBBY", "note": "ON 12/24 AND 12/31, THIS BOX MAY BE COLLECTED AS EARLY AS 12 NOON.", "nsi_id": "unitedstatespostalservice-a77078", "operator": "United States Postal Service", "operator:short": "USPS", "operator:type": "public", "operator:wikidata": "Q668687", "ref": "1613400002"}, "type": "Feature"}
{"dataset_attributes": {"@spider": "usps_collection_boxes", "spider:collection_time": "2023-11-07T08:25:32.615229"}, "geometry": {"coordinates": [-80.441113285, 41.484541715], "type": "Point"}, "id": "IG4Is3zD4LOzXLcW3MNIe-jieVQ=", "properties": {"@spider": "usps_collection_boxes", "addr:city": "JAMESTOWN", "addr:country": "US", "addr:full": "119 LIBERTY ST", "addr:postcode": "16134", "addr:state": "PA", "amenity": "post_box", "brand": "United States Postal Service", "brand:wikidata": "Q668687", "collection_times": "Mo-Fr 16:30; Sa 11:30", "name": "USPS COLLECTION BOX - PO LOBBY", "note": "ON 12/24 AND 12/31, THIS BOX MAY BE COLLECTED AS EARLY AS 12 NOON.", "nsi_id": "unitedstatespostalservice-a77078", "operator": "United States Postal Service", "operator:short": "USPS", "operator:type": "public", "operator:wikidata": "Q668687", "ref": "1613400004"}, "type": "Feature"}
{"dataset_attributes": {"@spider": "usps_collection_boxes", "spider:collection_time": "2023-11-07T08:25:32.615229"}, "geometry": {"coordinates": [-80.323098138, 40.833928708], "type": "Point"}, "id": "oDEyV9jQ64csQel0D4Qc9Ig1_B4=", "properties": {"@spider": "usps_collection_boxes", "addr:city": "KOPPEL", "addr:country": "US", "addr:full": "5502 5TH AVE", "addr:postcode": "16136", "addr:state": "PA", "amenity": "post_box", "brand": "United States Postal Service", "brand:wikidata": "Q668687", "collection_times": "Mo-Fr 16:30; Sa 11:30", "name": "USPS COLLECTION BOX - BLUE BOX", "note": "ON 12/24 AND 12/31, THIS BOX MAY BE COLLECTED AS EARLY AS 12 NOON.", "nsi_id": "unitedstatespostalservice-a77078", "operator": "United States Postal Service", "operator:short": "USPS", "operator:type": "public", "operator:wikidata": "Q668687", "ref": "1613600000"}, "type": "Feature"}
{"dataset_attributes": {"@spider": "usps_collection_boxes", "spider:collection_time": "2023-11-07T08:25:32.615229"}, "geometry": {"coordinates": [-80.323098138, 40.833928708], "type": "Point"}, "id": "qjNd97ZU9KLCUOLAnEpG5w82bMI=", "properties": {"@spider": "usps_collection_boxes", "addr:city": "KOPPEL", "addr:country": "US", "addr:full": "5502 5TH AVE", "addr:postcode": "16136", "addr:state": "PA", "amenity": "post_box", "brand": "United States Postal Service", "brand:wikidata": "Q668687", "collection_times": "Mo-Fr 16:30; Sa 11:30", "name": "USPS COLLECTION BOX - PO LOBBY", "note": "ON 12/24 AND 12/31, THIS BOX MAY BE COLLECTED AS EARLY AS 12 NOON.", "nsi_id": "unitedstatespostalservice-a77078", "operator": "United States Postal Service", "operator:short": "USPS", "operator:type": "public", "operator:wikidata": "Q668687", "ref": "1613600001"}, "type": "Feature"}
{"dataset_attributes": {"@spider": "usps_collection_boxes", "spider:collection_time": "2023-11-07T08:25:32.615229"}, "geometry": {"coordinates": [-80.323098138, 40.833928708], "type": "Point"}, "id": "7PJ_8--kCQeM61aMnWtD-2-zHUU=", "properties": {"@spider": "usps_collection_boxes", "addr:city": "KOPPEL", "addr:country": "US", "addr:full": "5502 5TH AVE", "addr:postcode": "16136", "addr:state": "PA", "amenity": "post_box", "brand": "United States Postal Service", "brand:wikidata": "Q668687", "collection_times": "Mo-Fr 16:30; Sa 11:30", "name": "USPS COLLECTION BOX - PO LOBBY", "note": "ON 12/24 AND 12/31, THIS BOX MAY BE COLLECTED AS EARLY AS 12 NOON.", "nsi_id": "unitedstatespostalservice-a77078", "operator": "United States Postal Service", "operator:short": "USPS", "operator:type": "public", "operator:wikidata": "Q668687", "ref": "1613600003"}, "type": "Feature"}
{"dataset_attributes": {"@spider": "usps_collection_boxes", "spider:collection_time": "2023-11-07T08:25:32.615229"}, "geometry": {"coordinates": [-80.238814014, 41.22859255], "type": "Point"}, "id": "6ANhq87QFvzqMkAyOPFrtY0jAqg=", "properties": {"@spider": "usps_collection_boxes", "addr:city": "MERCER", "addr:country": "US", "addr:full": "109 E VENANGO ST", "addr:postcode": "16137", "addr:state": "PA", "amenity": "post_box", "brand": "United States Postal Service", "brand:wikidata": "Q668687", "collection_times": "Mo-Fr 16:45; Sa 15:30", "name": "USPS COLLECTION BOX - BLUE BOX", "note": "ON 12/24 AND 12/31, THIS BOX MAY BE COLLECTED AS EARLY AS 12 NOON.", "nsi_id": "unitedstatespostalservice-a77078", "operator": "United States Postal Service", "operator:short": "USPS", "operator:type": "public", "operator:wikidata": "Q668687", "ref": "1613700000"}, "type": "Feature"}
{"dataset_attributes": {"@spider": "usps_collection_boxes", "spider:collection_time": "2023-11-07T08:25:32.615229"}, "geometry": {"coordinates": [-80.238814014, 41.22859255], "type": "Point"}, "id": "3vXmKS50tmsjV7U1hJucEEJfbQQ=", "properties": {"@spider": "usps_collection_boxes", "addr:city": "MERCER", "addr:country": "US", "addr:full": "109 E VENANGO ST", "addr:postcode": "16137", "addr:state": "PA", "amenity": "post_box", "brand": "United States Postal Service", "brand:wikidata": "Q668687", "collection_times": "Mo-Fr 16:45; Sa 15:30", "name": "USPS COLLECTION BOX - BLUE BOX", "note": "ON 12/24 AND 12/31, THIS BOX MAY BE COLLECTED AS EARLY AS 12 NOON.", "nsi_id": "unitedstatespostalservice-a77078", "operator": "United States Postal Service", "operator:short": "USPS", "operator:type": "public", "operator:wikidata": "Q668687", "ref": "1613700002"}, "type": "Feature"}
{"dataset_attributes": {"@spider": "usps_collection_boxes", "spider:collection_time": "2023-11-07T08:25:32.615229"}, "geometry": {"coordinates": [-80.2356331, 41.223663], "type": "Point"}, "id": "Tp5Ki2o1sUJxOiWZUn6dmgw5BxQ=", "properties": {"@spider": "usps_collection_boxes", "addr:city": "MERCER", "addr:country": "US", "addr:full": "308 E BEAVER ST", "addr:postcode": "16137", "addr:state": "PA", "amenity": "post_box", "brand": "United States Postal Service", "brand:wikidata": "Q668687", "collection_times": "Mo-Sa 12:00", "name": "USPS COLLECTION BOX - BLUE BOX", "nsi_id": "unitedstatespostalservice-a77078", "operator": "United States Postal Service", "operator:short": "USPS", "operator:type": "public", "operator:wikidata": "Q668687", "ref": "1613700005"}, "type": "Feature"}
{"dataset_attributes": {"@spider": "usps_collection_boxes", "spider:collection_time": "2023-11-07T08:25:32.615229"}, "geometry": {"coordinates": [-80.238965, 41.227785], "type": "Point"}, "id": "xCgjdVn82-KWrKg-ZBJHH_-uCi0=", "properties": {"@spider": "usps_collection_boxes", "addr:city": "MERCER", "addr:country": "US", "addr:full": "111 STRAWBERRY ST", "addr:postcode": "16137", "addr:state": "PA", "amenity": "post_box", "brand": "United States Postal Service", "brand:wikidata": "Q668687", "collection_times": "Mo-Fr 16:45; Sa 15:30", "name": "USPS COLLECTION BOX - BLUE BOX", "note": "ON 12/24 AND 12/31, THIS BOX MAY BE COLLECTED AS EARLY AS 12 NOON.", "nsi_id": "unitedstatespostalservice-a77078", "operator": "United States Postal Service", "operator:short": "USPS", "operator:type": "public", "operator:wikidata": "Q668687", "ref": "1613700010"}, "type": "Feature"}
{"dataset_attributes": {"@spider": "usps_collection_boxes", "spider:collection_time": "2023-11-07T08:25:32.615229"}, "geometry": {"coordinates": [-80.238814014, 41.22859255], "type": "Point"}, "id": "E3KNYQOnK0HMHersj-YOTV3kSF8=", "properties": {"@spider": "usps_collection_boxes", "addr:city": "MERCER", "addr:country": "US", "addr:full": "109 E VENANGO ST", "addr:postcode": "16137", "addr:state": "PA", "amenity": "post_box", "brand": "United States Postal Service", "brand:wikidata": "Q668687", "collection_times": "Mo-Fr 17:00; Sa 15:45", "name": "USPS COLLECTION BOX - PO LOBBY", "note": "ON 12/24 AND 12/31, THIS BOX MAY BE COLLECTED AS EARLY AS 12 NOON.", "nsi_id": "unitedstatespostalservice-a77078", "operator": "United States Postal Service", "operator:short": "USPS", "operator:type": "public", "operator:wikidata": "Q668687", "ref": "1613700011"}, "type": "Feature"}
{"dataset_attributes": {"@spider": "usps_collection_boxes", "spider:collection_time": "2023-11-07T08:25:32.615229"}, "geometry": {"coordinates": [-80.3518538, 41.236369], "type": "Point"}, "id": "W-0mQk3nDhRFSXJxS_BN7NOKRIs=", "properties": {"@spider": "usps_collection_boxes", "addr:city": "MERCER", "addr:country": "US", "addr:full": "7266 W MARKET ST", "addr:postcode": "16137", "addr:state": "PA", "amenity": "post_box", "brand": "United States Postal Service", "brand:wikidata": "Q668687", "collection_times": "Mo-Sa 09:30", "name": "USPS COLLECTION BOX - BLUE BOX", "nsi_id": "unitedstatespostalservice-a77078", "operator": "United States Postal Service", "operator:short": "USPS", "operator:type": "public", "operator:wikidata": "Q668687", "ref": "1613700012"}, "type": "Feature"}
{"dataset_attributes": {"@spider": "usps_collection_boxes", "spider:collection_time": "2023-11-07T08:25:32.615229"}, "geometry": {"coordinates": [-80.238814014, 41.22859255], "type": "Point"}, "id": "Qqf0_f9fIpqX_siwN9UvcVaNztc=", "properties": {"@spider": "usps_collection_boxes", "addr:city": "MERCER", "addr:country": "US", "addr:full": "109 E VENANGO ST", "addr:postcode": "16137", "addr:state": "PA", "amenity": "post_box", "brand": "United States Postal Service", "brand:wikidata": "Q668687", "collection_times": "Mo-Fr 17:00; Sa 12:00", "name": "USPS COLLECTION BOX - PO LOBBY", "note": "ON 12/24 AND 12/31, THIS BOX MAY BE COLLECTED AS EARLY AS 12 NOON.", "nsi_id": "unitedstatespostalservice-a77078", "operator": "United States Postal Service", "operator:short": "USPS", "operator:type": "public", "operator:wikidata": "Q668687", "ref": "1613700014"}, "type": "Feature"}
{"dataset_attributes": {"@spider": "usps_collection_boxes", "spider:collection_time": "2023-11-07T08:25:32.615229"}, "geometry": {"coordinates": [-80.503861615, 41.097682644], "type": "Point"}, "id": "Z2sXJJJwarvYo1Wi7OiK-_qaHKA=", "properties": {"@spider": "usps_collection_boxes", "addr:city": "NEW BEDFORD", "addr:country": "US", "addr:full": "425 STATE ROUTE 208", "addr:postcode": "16140", "addr:state": "PA", "amenity": "post_box", "brand": "United States Postal Service", "brand:wikidata": "Q668687", "collection_times": "Mo-Fr 11:55; Sa 10:55", "name": "USPS COLLECTION BOX - BLUE BOX", "nsi_id": "unitedstatespostalservice-a77078", "operator": "United States Postal Service", "operator:short": "USPS", "operator:type": "public", "operator:wikidata": "Q668687", "ref": "1614000000"}, "type": "Feature"}
{"dataset_attributes": {"@spider": "usps_collection_boxes", "spider:collection_time": "2023-11-07T08:25:32.615229"}, "geometry": {"coordinates": [-80.503861615, 41.097682644], "type": "Point"}, "id": "nPwD3Do4LUGaxl1A1Qg2FVTmlX0=", "properties": {"@spider": "usps_collection_boxes", "addr:city": "NEW BEDFORD", "addr:country": "US", "addr:full": "425 STATE ROUTE 208", "addr:postcode": "16140", "addr:state": "PA", "amenity": "post_box", "brand": "United States Postal Service", "brand:wikidata": "Q668687", "collection_times": "Mo-Fr 11:55; Sa 10:55", "name": "USPS COLLECTION BOX - PO LOBBY", "nsi_id": "unitedstatespostalservice-a77078", "operator": "United States Postal Service", "operator:short": "USPS", "operator:type": "public", "operator:wikidata": "Q668687", "ref": "1614000001"}, "type": "Feature"}
{"dataset_attributes": {"@spider": "usps_collection_boxes", "spider:collection_time": "2023-11-07T08:25:32.615229"}, "geometry": {"coordinates": [-80.503861615, 41.097682644], "type": "Point"}, "id": "SgZxYmnQIeH_tNSYU0zgxZs_pWE=", "properties": {"@spider": "usps_collection_boxes", "addr:city": "NEW BEDFORD", "addr:country": "US", "addr:full": "425 STATE ROUTE 208", "addr:postcode": "16140", "addr:state": "PA", "amenity": "post_box", "brand": "United States Postal Service", "brand:wikidata": "Q668687", "collection_times": "Mo-Fr 11:55; Sa 10:55", "name": "USPS COLLECTION BOX - PO LOBBY", "nsi_id": "unitedstatespostalservice-a77078", "operator": "United States Postal Service", "operator:short": "USPS", "operator:type": "public", "operator:wikidata": "Q668687", "ref": "1614000004"}, "type": "Feature"}
{"dataset_attributes": {"@spider": "usps_collection_boxes", "spider:collection_time": "2023-11-07T08:25:32.615229"}, "geometry": {"coordinates": [-80.400822028, 40.834712326], "type": "Point"}, "id": "bVgWgWFbbDVoHqgFPIV3j1D6UvM=", "properties": {"@spider": "usps_collection_boxes", "addr:city": "NEW GALILEE", "addr:country": "US", "addr:full": "801 WASHINGTON AVE", "addr:postcode": "16141", "addr:state": "PA", "amenity": "post_box", "brand": "United States Postal Service", "brand:wikidata": "Q668687", "collection_times": "Mo-Fr 16:15; Sa 12:00", "name": "USPS COLLECTION BOX - BLUE BOX", "note": "ON 12/24 AND 12/31, THIS BOX MAY BE COLLECTED AS EARLY AS 12 NOON.", "nsi_id": "unitedstatespostalservice-a77078", "operator": "United States Postal Service", "operator:short": "USPS", "operator:type": "public", "operator:wikidata": "Q668687", "ref": "1614100000"}, "type": "Feature"}
{"dataset_attributes": {"@spider": "usps_collection_boxes", "spider:collection_time": "2023-11-07T08:25:32.615229"}, "geometry": {"coordinates": [-80.400822028, 40.834712326], "type": "Point"}, "id": "NZ0cP2lulbyX311NpsRhFunHXLk=", "properties": {"@spider": "usps_collection_boxes", "addr:city": "NEW GALILEE", "addr:country": "US", "addr:full": "801 WASHINGTON AVE", "addr:postcode": "16141", "addr:state": "PA", "amenity": "post_box", "brand": "United States Postal Service", "brand:wikidata": "Q668687", "collection_times": "Mo-Fr 16:00; Sa 12:00", "name": "USPS COLLECTION BOX - PO LOBBY", "note": "ON 12/24 AND 12/31, THIS BOX MAY BE COLLECTED AS EARLY AS 12 NOON.", "nsi_id": "unitedstatespostalservice-a77078", "operator": "United States Postal Service", "operator:short": "USPS", "operator:type": "public", "operator:wikidata": "Q668687", "ref": "1614100001"}, "type": "Feature"}
{"dataset_attributes": {"@spider": "usps_collection_boxes", "spider:collection_time": "2023-11-07T08:25:32.615229"}, "geometry": {"coordinates": [-80.400822028, 40.834712326], "type": "Point"}, "id": "VDqzGCboKWHDLhdezcDIeoi7clg=", "properties": {"@spider": "usps_collection_boxes", "addr:city": "NEW GALILEE", "addr:country": "US", "addr:full": "801 WASHINGTON AVE", "addr:postcode": "16141", "addr:state": "PA", "amenity": "post_box", "brand": "United States Postal Service", "brand:wikidata": "Q668687", "collection_times": "Mo-Fr 16:00; Sa 12:00", "name": "USPS COLLECTION BOX - PO LOBBY", "note": "ON 12/24 AND 12/31, THIS BOX MAY BE COLLECTED AS EARLY AS 12 NOON.", "nsi_id": "unitedstatespostalservice-a77078", "operator": "United States Postal Service", "operator:short": "USPS", "operator:type": "public", "operator:wikidata": "Q668687", "ref": "1614100003"}, "type": "Feature"}
{"dataset_attributes": {"@spider": "usps_collection_boxes", "spider:collection_time": "2023-11-07T08:25:32.615229"}, "geometry": {"coordinates": [-80.334440665, 41.122424517], "type": "Point"}, "id": "hYwZ_0d2RbmMbHp0mD2v2t9_iz0=", "properties": {"@spider": "usps_collection_boxes", "addr:city": "NEW WILMINGTON", "addr:country": "US", "addr:full": "143 W NESHANNOCK AVE", "addr:postcode": "16142", "addr:state": "PA", "amenity": "post_box", "brand": "United States Postal Service", "brand:wikidata": "Q668687", "collection_times": "Mo-Fr 17:00; Sa 15:15", "name": "USPS COLLECTION BOX - PO LOBBY", "note": "ON 12/24 AND 12/31, THIS BOX MAY BE COLLECTED AS EARLY AS 12 NOON.", "nsi_id": "unitedstatespostalservice-a77078", "operator": "United States Postal Service", "operator:short": "USPS", "operator:type": "public", "operator:wikidata": "Q668687", "ref": "1614200012"}, "type": "Feature"}
{"dataset_attributes": {"@spider": "usps_collection_boxes", "spider:collection_time": "2023-11-07T08:25:32.615229"}, "geometry": {"coordinates": [-80.334440665, 41.122424517], "type": "Point"}, "id": "GnrMd8OpwP7pNL5sY04mN7Gv62Y=", "properties": {"@spider": "usps_collection_boxes", "addr:city": "NEW WILMINGTON", "addr:country": "US", "addr:full": "143 W NESHANNOCK AVE", "addr:postcode": "16142", "addr:state": "PA", "amenity": "post_box", "brand": "United States Postal Service", "brand:wikidata": "Q668687", "collection_times": "Mo-Fr 17:00; Sa 15:15", "name": "USPS COLLECTION BOX - BLUE BOX", "note": "ON 12/24 AND 12/31, THIS BOX MAY BE COLLECTED AS EARLY AS 12 NOON.", "nsi_id": "unitedstatespostalservice-a77078", "operator": "United States Postal Service", "operator:short": "USPS", "operator:type": "public", "operator:wikidata": "Q668687", "ref": "1614200013"}, "type": "Feature"}
{"dataset_attributes": {"@spider": "usps_collection_boxes", "spider:collection_time": "2023-11-07T08:25:32.615229"}, "geometry": {"coordinates": [-80.334440665, 41.122424517], "type": "Point"}, "id": "5ET72crsdWglhAtFe9v9zto--DU=", "properties": {"@spider": "usps_collection_boxes", "addr:city": "NEW WILMINGTON", "addr:country": "US", "addr:full": "143 W NESHANNOCK AVE", "addr:postcode": "16142", "addr:state": "PA", "amenity": "post_box", "brand": "United States Postal Service", "brand:wikidata": "Q668687", "collection_times": "Mo-Fr 17:00; Sa 12:00", "name": "USPS COLLECTION BOX - PO LOBBY", "note": "ON 12/24 AND 12/31, THIS BOX MAY BE COLLECTED AS EARLY AS 12 NOON.", "nsi_id": "unitedstatespostalservice-a77078", "operator": "United States Postal Service", "operator:short": "USPS", "operator:type": "public", "operator:wikidata": "Q668687", "ref": "1614200015"}, "type": "Feature"}
{"dataset_attributes": {"@spider": "usps_collection_boxes", "spider:collection_time": "2023-11-07T08:25:32.615229"}, "geometry": {"coordinates": [-80.433760835, 41.113419518], "type": "Point"}, "id": "1gDP_wSEF02Gb6cfL9QVBrx2hIs=", "properties": {"@spider": "usps_collection_boxes", "addr:city": "PULASKI", "addr:country": "US", "addr:full": "1930 STATE ROUTE 208", "addr:postcode": "16143", "addr:state": "PA", "amenity": "post_box", "brand": "United States Postal Service", "brand:wikidata": "Q668687", "collection_times": "Mo-Fr 11:55; Sa 11:45", "name": "USPS COLLECTION BOX - BLUE BOX", "nsi_id": "unitedstatespostalservice-a77078", "operator": "United States Postal Service", "operator:short": "USPS", "operator:type": "public", "operator:wikidata": "Q668687", "ref": "1614300000"}, "type": "Feature"}
{"dataset_attributes": {"@spider": "usps_collection_boxes", "spider:collection_time": "2023-11-07T08:25:32.615229"}, "geometry": {"coordinates": [-80.433760835, 41.113419518], "type": "Point"}, "id": "q34Qssotm0utCIW6-2FxR86tHlY=", "properties": {"@spider": "usps_collection_boxes", "addr:city": "PULASKI", "addr:country": "US", "addr:full": "1930 STATE ROUTE 208", "addr:postcode": "16143", "addr:state": "PA", "amenity": "post_box", "brand": "United States Postal Service", "brand:wikidata": "Q668687", "collection_times": "Mo-Fr 11:55; Sa 11:45", "name": "USPS COLLECTION BOX - PO LOBBY", "nsi_id": "unitedstatespostalservice-a77078", "operator": "United States Postal Service", "operator:short": "USPS", "operator:type": "public", "operator:wikidata": "Q668687", "ref": "1614300001"}, "type": "Feature"}
{"dataset_attributes": {"@spider": "usps_collection_boxes", "spider:collection_time": "2023-11-07T08:25:32.615229"}, "geometry": {"coordinates": [-80.433760835, 41.113419518], "type": "Point"}, "id": "y9AiJLG3NwTxiNETDi8NKaMGsZ0=", "properties": {"@spider": "usps_collection_boxes", "addr:city": "PULASKI", "addr:country": "US", "addr:full": "1930 STATE ROUTE 208", "addr:postcode": "16143", "addr:state": "PA", "amenity": "post_box", "brand": "United States Postal Service", "brand:wikidata": "Q668687", "collection_times": "Mo-Sa 11:55", "name": "USPS COLLECTION BOX - PO LOBBY", "nsi_id": "unitedstatespostalservice-a77078", "operator": "United States Postal Service", "operator:short": "USPS", "operator:type": "public", "operator:wikidata": "Q668687", "ref": "1614300003"}, "type": "Feature"}
{"dataset_attributes": {"@spider": "usps_collection_boxes", "spider:collection_time": "2023-11-07T08:25:32.615229"}, "geometry": {"coordinates": [-80.082060613, 41.349510194], "type": "Point"}, "id": "0T-kd97-FhaIBOMx1CHaMN3rEsE=", "properties": {"@spider": "usps_collection_boxes", "addr:city": "SANDY LAKE", "addr:country": "US", "addr:full": "3267 S MAIN ST", "addr:postcode": "16145", "addr:state": "PA", "amenity": "post_box", "brand": "United States Postal Service", "brand:wikidata": "Q668687", "collection_times": "Mo-Fr 16:15; Sa 12:00", "name": "USPS COLLECTION BOX - BLUE BOX", "note": "ON 12/24 AND 12/31, THIS BOX MAY BE COLLECTED AS EARLY AS 12 NOON.", "nsi_id": "unitedstatespostalservice-a77078", "operator": "United States Postal Service", "operator:short": "USPS", "operator:type": "public", "operator:wikidata": "Q668687", "ref": "1614500000"}, "type": "Feature"}
{"dataset_attributes": {"@spider": "usps_collection_boxes", "spider:collection_time": "2023-11-07T08:25:32.615229"}, "geometry": {"coordinates": [-80.082060613, 41.349510194], "type": "Point"}, "id": "LzZaOC8vhaUv6Ain3Sr0lKQKirk=", "properties": {"@spider": "usps_collection_boxes", "addr:city": "SANDY LAKE", "addr:country": "US", "addr:full": "3267 S MAIN ST", "addr:postcode": "16145", "addr:state": "PA", "amenity": "post_box", "brand": "United States Postal Service", "brand:wikidata": "Q668687", "collection_times": "Mo-Fr 16:15; Sa 12:00", "name": "USPS COLLECTION BOX - PO LOBBY", "note": "ON 12/24 AND 12/31, THIS BOX MAY BE COLLECTED AS EARLY AS 12 NOON.", "nsi_id": "unitedstatespostalservice-a77078", "operator": "United States Postal Service", "operator:short": "USPS", "operator:type": "public", "operator:wikidata": "Q668687", "ref": "1614500001"}, "type": "Feature"}
{"dataset_attributes": {"@spider": "usps_collection_boxes", "spider:collection_time": "2023-11-07T08:25:32.615229"}, "geometry": {"coordinates": [-80.082060613, 41.349510194], "type": "Point"}, "id": "J9OTVCoifzC136YCpFX2iJ30d4s=", "properties": {"@spider": "usps_collection_boxes", "addr:city": "SANDY LAKE", "addr:country": "US", "addr:full": "3267 S MAIN ST", "addr:postcode": "16145", "addr:state": "PA", "amenity": "post_box", "brand": "United States Postal Service", "brand:wikidata": "Q668687", "collection_times": "Mo-Fr 16:30; Sa 12:00", "name": "USPS COLLECTION BOX - PO LOBBY", "note": "ON 12/24 AND 12/31, THIS BOX MAY BE COLLECTED AS EARLY AS 12 NOON.", "nsi_id": "unitedstatespostalservice-a77078", "operator": "United States Postal Service", "operator:short": "USPS", "operator:type": "public", "operator:wikidata": "Q668687", "ref": "1614500003"}, "type": "Feature"}
{"dataset_attributes": {"@spider": "usps_collection_boxes", "spider:collection_time": "2023-11-07T08:25:32.615229"}, "geometry": {"coordinates": [-80.5079121, 41.232922], "type": "Point"}, "id": "d77p2SN9rKwAtr5pMA4QvcOqWqg=", "properties": {"@spider": "usps_collection_boxes", "addr:city": "SHARON", "addr:country": "US", "addr:full": "66 E STATE ST", "addr:postcode": "16146", "addr:state": "PA", "amenity": "post_box", "brand": "United States Postal Service", "brand:wikidata": "Q668687", "collection_times": "Mo-Sa 16:30", "name": "USPS COLLECTION BOX - BLUE BOX", "note": "ON 12/24 AND 12/31, THIS BOX MAY BE COLLECTED AS EARLY AS 12 NOON.", "nsi_id": "unitedstatespostalservice-a77078", "operator": "United States Postal Service", "operator:short": "USPS", "operator:type": "public", "operator:wikidata": "Q668687", "ref": "1614600000"}, "type": "Feature"}
{"dataset_attributes": {"@spider": "usps_collection_boxes", "spider:collection_time": "2023-11-07T08:25:32.615229"}, "geometry": {"coordinates": [-80.507810448, 41.233792188], "type": "Point"}, "id": "0_5rVyV1lpOl8OM0vwTuxNxFa_k=", "properties": {"@spider": "usps_collection_boxes", "addr:city": "SHARON", "addr:country": "US", "addr:full": "55 PITT ST", "addr:postcode": "16146", "addr:state": "PA", "amenity": "post_box", "brand": "United States Postal Service", "brand:wikidata": "Q668687", "collection_times": "Mo-Sa 16:30", "name": "USPS COLLECTION BOX - BLUE BOX", "note": "ON 12/24 AND 12/31, THIS BOX MAY BE COLLECTED AS EARLY AS 12 NOON.", "nsi_id": "unitedstatespostalservice-a77078", "operator": "United States Postal Service", "operator:short": "USPS", "operator:type": "public", "operator:wikidata": "Q668687", "ref": "1614600003"}, "type": "Feature"}
{"dataset_attributes": {"@spider": "usps_collection_boxes", "spider:collection_time": "2023-11-07T08:25:32.615229"}, "geometry": {"coordinates": [-80.5093894, 41.232818], "type": "Point"}, "id": "DznCNGaYe0B-qHHoykl7NTXVLWw=", "properties": {"@spider": "usps_collection_boxes", "addr:city": "SHARON", "addr:country": "US", "addr:full": "7 W STATE ST", "addr:postcode": "16146", "addr:state": "PA", "amenity": "post_box", "brand": "United States Postal Service", "brand:wikidata": "Q668687", "collection_times": "Mo-Sa 16:30", "name": "USPS COLLECTION BOX - BLUE BOX", "note": "ON 12/24 AND 12/31, THIS BOX MAY BE COLLECTED AS EARLY AS 12 NOON.", "nsi_id": "unitedstatespostalservice-a77078", "operator": "United States Postal Service", "operator:short": "USPS", "operator:type": "public", "operator:wikidata": "Q668687", "ref": "1614600007"}, "type": "Feature"}
{"dataset_attributes": {"@spider": "usps_collection_boxes", "spider:collection_time": "2023-11-07T08:25:32.615229"}, "geometry": {"coordinates": [-80.5118818, 41.229993], "type": "Point"}, "id": "lFAQePbsjjnjWj9B-2rwQd7ism4=", "properties": {"@spider": "usps_collection_boxes", "addr:city": "SHARON", "addr:country": "US", "addr:full": "155 W CONNELLY BLVD", "addr:postcode": "16146", "addr:state": "PA", "amenity": "post_box", "brand": "United States Postal Service", "brand:wikidata": "Q668687", "collection_times": "Mo-Sa 16:30", "name": "USPS COLLECTION BOX - BLUE BOX", "note": "ON 12/24 AND 12/31, THIS BOX MAY BE COLLECTED AS EARLY AS 12 NOON.", "nsi_id": "unitedstatespostalservice-a77078", "operator": "United States Postal Service", "operator:short": "USPS", "operator:type": "public", "operator:wikidata": "Q668687", "ref": "1614600008"}, "type": "Feature"}
{"dataset_attributes": {"@spider": "usps_collection_boxes", "spider:collection_time": "2023-11-07T08:25:32.615229"}, "geometry": {"coordinates": [-80.4932074, 41.231981], "type": "Point"}, "id": "N1yfCSnVwgZE_fh49y4MGhcWCuE=", "properties": {"@spider": "usps_collection_boxes", "addr:city": "SHARON", "addr:country": "US", "addr:full": "87 STAMBAUGH AVE", "addr:postcode": "16146", "addr:state": "PA", "amenity": "post_box", "brand": "United States Postal Service", "brand:wikidata": "Q668687", "collection_times": "Mo-Sa 16:30", "name": "USPS COLLECTION BOX - BLUE BOX", "note": "ON 12/24 AND 12/31, THIS BOX MAY BE COLLECTED AS EARLY AS 12 NOON.", "nsi_id": "unitedstatespostalservice-a77078", "operator": "United States Postal Service", "operator:short": "USPS", "operator:type": "public", "operator:wikidata": "Q668687", "ref": "1614600014"}, "type": "Feature"}
{"dataset_attributes": {"@spider": "usps_collection_boxes", "spider:collection_time": "2023-11-07T08:25:32.615229"}, "geometry": {"coordinates": [-80.4883186, 41.221145], "type": "Point"}, "id": "peqa0xeo8kDHIQhQ4uyjbWeA7jo=", "properties": {"@spider": "usps_collection_boxes", "addr:city": "SHARON", "addr:country": "US", "addr:full": "1149 GEORGE ST", "addr:postcode": "16146", "addr:state": "PA", "amenity": "post_box", "brand": "United States Postal Service", "brand:wikidata": "Q668687", "collection_times": "Mo-Sa 15:00", "name": "USPS COLLECTION BOX - BLUE BOX", "note": "ON 12/24 AND 12/31, THIS BOX MAY BE COLLECTED AS EARLY AS 12 NOON.", "nsi_id": "unitedstatespostalservice-a77078", "operator": "United States Postal Service", "operator:short": "USPS", "operator:type": "public", "operator:wikidata": "Q668687", "ref": "1614600018"}, "type": "Feature"}
{"dataset_attributes": {"@spider": "usps_collection_boxes", "spider:collection_time": "2023-11-07T08:25:32.615229"}, "geometry": {"coordinates": [-80.4977066, 41.249454], "type": "Point"}, "id": "bCaTceIWjTDSgqXefalNbhO4C30=", "properties": {"@spider": "usps_collection_boxes", "addr:city": "SHARON", "addr:country": "US", "addr:full": "1208 HALL AVE", "addr:postcode": "16146", "addr:state": "PA", "amenity": "post_box", "brand": "United States Postal Service", "brand:wikidata": "Q668687", "collection_times": "Mo-Sa 15:00", "name": "USPS COLLECTION BOX - BLUE BOX", "note": "ON 12/24 AND 12/31, THIS BOX MAY BE COLLECTED AS EARLY AS 12 NOON.", "nsi_id": "unitedstatespostalservice-a77078", "operator": "United States Postal Service", "operator:short": "USPS", "operator:type": "public", "operator:wikidata": "Q668687", "ref": "1614600023"}, "type": "Feature"}
{"dataset_attributes": {"@spider": "usps_collection_boxes", "spider:collection_time": "2023-11-07T08:25:32.615229"}, "geometry": {"coordinates": [-80.4826829, 41.236502], "type": "Point"}, "id": "7FQUuXn7ZRVrxvMKVjoIIhv9D6o=", "properties": {"@spider": "usps_collection_boxes", "addr:city": "SHARON", "addr:country": "US", "addr:full": "229 BUHL BLVD", "addr:postcode": "16146", "addr:state": "PA", "amenity": "post_box", "brand": "United States Postal Service", "brand:wikidata": "Q668687", "collection_times": "Mo-Sa 15:00", "name": "USPS COLLECTION BOX - BLUE BOX", "note": "ON 12/24 AND 12/31, THIS BOX MAY BE COLLECTED AS EARLY AS 12 NOON.", "nsi_id": "unitedstatespostalservice-a77078", "operator": "United States Postal Service", "operator:short": "USPS", "operator:type": "public", "operator:wikidata": "Q668687", "ref": "1614600026"}, "type": "Feature"}
{"dataset_attributes": {"@spider": "usps_collection_boxes", "spider:collection_time": "2023-11-07T08:25:32.615229"}, "geometry": {"coordinates": [-80.508392301, 41.234838547], "type": "Point"}, "id": "EG_G9TPIVAjNhnhjA2F9STxBkAw=", "properties": {"@spider": "usps_collection_boxes", "addr:city": "SHARON", "addr:country": "US", "addr:full": "120 SHENANGO AVE", "addr:postcode": "16146", "addr:state": "PA", "amenity": "post_box", "brand": "United States Postal Service", "brand:wikidata": "Q668687", "collection_times": "Mo-Sa 17:30", "name": "USPS COLLECTION BOX - BLUE BOX", "note": "ON 12/24 AND 12/31, THIS BOX MAY BE COLLECTED AS EARLY AS 12 NOON.", "nsi_id": "unitedstatespostalservice-a77078", "operator": "United States Postal Service", "operator:short": "USPS", "operator:type": "public", "operator:wikidata": "Q668687", "ref": "1614600032"}, "type": "Feature"}
{"dataset_attributes": {"@spider": "usps_collection_boxes", "spider:collection_time": "2023-11-07T08:25:32.615229"}, "geometry": {"coordinates": [-80.508392301, 41.234838547], "type": "Point"}, "id": "eYbVWuMTO2MeT6Kmhzsmwi1BnIE=", "properties": {"@spider": "usps_collection_boxes", "addr:city": "SHARON", "addr:country": "US", "addr:full": "120 SHENANGO AVE", "addr:postcode": "16146", "addr:state": "PA", "amenity": "post_box", "brand": "United States Postal Service", "brand:wikidata": "Q668687", "collection_times": "Mo-Sa 17:30", "name": "USPS COLLECTION BOX - PO LOBBY", "note": "ON 12/24 AND 12/31, THIS BOX MAY BE COLLECTED AS EARLY AS 12 NOON.", "nsi_id": "unitedstatespostalservice-a77078", "operator": "United States Postal Service", "operator:short": "USPS", "operator:type": "public", "operator:wikidata": "Q668687", "ref": "1614600036"}, "type": "Feature"}
{"dataset_attributes": {"@spider": "usps_collection_boxes", "spider:collection_time": "2023-11-07T08:25:32.615229"}, "geometry": {"coordinates": [-80.5050987, 41.233247], "type": "Point"}, "id": "qLhgFwqnoNFAoYdKFuSxOIuKcAA=", "properties": {"@spider": "usps_collection_boxes", "addr:city": "SHARON", "addr:country": "US", "addr:full": "11 N SHARPSVILLE AVE", "addr:postcode": "16146", "addr:state": "PA", "amenity": "post_box", "brand": "United States Postal Service", "brand:wikidata": "Q668687", "collection_times": "Mo-Sa 16:00", "name": "USPS COLLECTION BOX - BLUE BOX", "note": "ON 12/24 AND 12/31, THIS BOX MAY BE COLLECTED AS EARLY AS 12 NOON.", "nsi_id": "unitedstatespostalservice-a77078", "operator": "United States Postal Service", "operator:short": "USPS", "operator:type": "public", "operator:wikidata": "Q668687", "ref": "1614600039"}, "type": "Feature"}
{"dataset_attributes": {"@spider": "usps_collection_boxes", "spider:collection_time": "2023-11-07T08:25:32.615229"}, "geometry": {"coordinates": [-80.508392301, 41.234838547], "type": "Point"}, "id": "4FQAynude2pc8m9XSUkYWg8jGtA=", "properties": {"@spider": "usps_collection_boxes", "addr:city": "SHARON", "addr:country": "US", "addr:full": "120 SHENANGO AVE", "addr:postcode": "16146", "addr:state": "PA", "amenity": "post_box", "brand": "United States Postal Service", "brand:wikidata": "Q668687", "collection_times": "Mo-Fr 17:00; Sa 13:00", "name": "USPS COLLECTION BOX - PO LOBBY", "note": "ON 12/24 AND 12/31, THIS BOX MAY BE COLLECTED AS EARLY AS 12 NOON.", "nsi_id": "unitedstatespostalservice-a77078", "operator": "United States Postal Service", "operator:short": "USPS", "operator:type": "public", "operator:wikidata": "Q668687", "ref": "1614600040"}, "type": "Feature"}
{"dataset_attributes": {"@spider": "usps_collection_boxes", "spider:collection_time": "2023-11-07T08:25:32.615229"}, "geometry": {"coordinates": [-80.4636981, 41.233018], "type": "Point"}, "id": "o4AUclC9dNBHbFb3Iq_QERI0Uq4=", "properties": {"@spider": "usps_collection_boxes", "addr:city": "HERMITAGE", "addr:country": "US", "addr:full": "2470 E STATE ST", "addr:postcode": "16148", "addr:state": "PA", "amenity": "post_box", "brand": "United States Postal Service", "brand:wikidata": "Q668687", "collection_times": "Mo-Sa 15:30", "name": "USPS COLLECTION BOX - BLUE BOX", "note": "ON 12/24 AND 12/31, THIS BOX MAY BE COLLECTED AS EARLY AS 12 NOON.", "nsi_id": "unitedstatespostalservice-a77078", "operator": "United States Postal Service", "operator:short": "USPS", "operator:type": "public", "operator:wikidata": "Q668687", "ref": "1614800003"}, "type": "Feature"}
{"dataset_attributes": {"@spider": "usps_collection_boxes", "spider:collection_time": "2023-11-07T08:25:32.615229"}, "geometry": {"coordinates": [-80.4642953, 41.238756], "type": "Point"}, "id": "wJ4qF-xXe23cpiY8fYo_k66YAYw=", "properties": {"@spider": "usps_collection_boxes", "addr:city": "HERMITAGE", "addr:country": "US", "addr:full": "2500 HIGHLAND RD", "addr:postcode": "16148", "addr:state": "PA", "amenity": "post_box", "brand": "United States Postal Service", "brand:wikidata": "Q668687", "collection_times": "Mo-Sa 16:00", "name": "USPS COLLECTION BOX - BLUE BOX", "note": "ON 12/24 AND 12/31, THIS BOX MAY BE COLLECTED AS EARLY AS 12 NOON.", "nsi_id": "unitedstatespostalservice-a77078", "operator": "United States Postal Service", "operator:short": "USPS", "operator:type": "public", "operator:wikidata": "Q668687", "ref": "1614800004"}, "type": "Feature"}
{"dataset_attributes": {"@spider": "usps_collection_boxes", "spider:collection_time": "2023-11-07T08:25:32.615229"}, "geometry": {"coordinates": [-80.4661595, 41.234741], "type": "Point"}, "id": "EKesPmvo1q-LLFFg6pBrzgQHTW8=", "properties": {"@spider": "usps_collection_boxes", "addr:city": "HERMITAGE", "addr:country": "US", "addr:full": "2365 E STATE ST", "addr:postcode": "16148", "addr:state": "PA", "amenity": "post_box", "brand": "United States Postal Service", "brand:wikidata": "Q668687", "collection_times": "Mo-Sa 16:00", "name": "USPS COLLECTION BOX - BLUE BOX", "note": "ON 12/24 AND 12/31, THIS BOX MAY BE COLLECTED AS EARLY AS 12 NOON.", "nsi_id": "unitedstatespostalservice-a77078", "operator": "United States Postal Service", "operator:short": "USPS", "operator:type": "public", "operator:wikidata": "Q668687", "ref": "1614800005"}, "type": "Feature"}
{"dataset_attributes": {"@spider": "usps_collection_boxes", "spider:collection_time": "2023-11-07T08:25:32.615229"}, "geometry": {"coordinates": [-80.4555814, 41.232837], "type": "Point"}, "id": "mGBqhJ-biQwUCWv0PAp2EFgg8Rw=", "properties": {"@spider": "usps_collection_boxes", "addr:city": "HERMITAGE", "addr:country": "US", "addr:full": "2948 E STATE ST", "addr:postcode": "16148", "addr:state": "PA", "amenity": "post_box", "brand": "United States Postal Service", "brand:wikidata": "Q668687", "collection_times": "Mo-Sa 15:30", "name": "USPS COLLECTION BOX - BLUE BOX", "note": "ON 12/24 AND 12/31, THIS BOX MAY BE COLLECTED AS EARLY AS 12 NOON.", "nsi_id": "unitedstatespostalservice-a77078", "operator": "United States Postal Service", "operator:short": "USPS", "operator:type": "public", "operator:wikidata": "Q668687", "ref": "1614800006"}, "type": "Feature"}
{"dataset_attributes": {"@spider": "usps_collection_boxes", "spider:collection_time": "2023-11-07T08:25:32.615229"}, "geometry": {"coordinates": [-80.4462018, 41.234841], "type": "Point"}, "id": "8sL0k3B-pFeVoktRGnsgLgSSKh8=", "properties": {"@spider": "usps_collection_boxes", "addr:city": "HERMITAGE", "addr:country": "US", "addr:full": "3405 E STATE ST", "addr:postcode": "16148", "addr:state": "PA", "amenity": "post_box", "brand": "United States Postal Service", "brand:wikidata": "Q668687", "collection_times": "Mo-Sa 16:00", "name": "USPS COLLECTION BOX - BLUE BOX", "note": "ON 12/24 AND 12/31, THIS BOX MAY BE COLLECTED AS EARLY AS 12 NOON.", "nsi_id": "unitedstatespostalservice-a77078", "operator": "United States Postal Service", "operator:short": "USPS", "operator:type": "public", "operator:wikidata": "Q668687", "ref": "1614800008"}, "type": "Feature"}
{"dataset_attributes": {"@spider": "usps_collection_boxes", "spider:collection_time": "2023-11-07T08:25:32.615229"}, "geometry": {"coordinates": [-80.447520079, 41.233358574], "type": "Point"}, "id": "sHA77ISeVkm9iPEIsk0M0FUJRpM=", "properties": {"@spider": "usps_collection_boxes", "addr:city": "HERMITAGE", "addr:country": "US", "addr:full": "3386 E STATE ST", "addr:postcode": "16148", "addr:state": "PA", "amenity": "post_box", "brand": "United States Postal Service", "brand:wikidata": "Q668687", "collection_times": "Mo-Sa 17:00", "name": "USPS COLLECTION BOX - BLUE BOX", "note": "ON 12/24 AND 12/31, THIS BOX MAY BE COLLECTED AS EARLY AS 12 NOON.", "nsi_id": "unitedstatespostalservice-a77078", "operator": "United States Postal Service", "operator:short": "USPS", "operator:type": "public", "operator:wikidata": "Q668687", "ref": "1614800015"}, "type": "Feature"}
{"dataset_attributes": {"@spider": "usps_collection_boxes", "spider:collection_time": "2023-11-07T08:25:32.615229"}, "geometry": {"coordinates": [-80.447520079, 41.233358574], "type": "Point"}, "id": "uBUcwhvPLTLYeejuMddyfySOvsI=", "properties": {"@spider": "usps_collection_boxes", "addr:city": "HERMITAGE", "addr:country": "US", "addr:full": "3386 E STATE ST", "addr:postcode": "16148", "addr:state": "PA", "amenity": "post_box", "brand": "United States Postal Service", "brand:wikidata": "Q668687", "collection_times": "Mo-Fr 17:15; Sa 16:00", "name": "USPS COLLECTION BOX - PO LOBBY", "note": "ON 12/24 AND 12/31, THIS BOX MAY BE COLLECTED AS EARLY AS 12 NOON.", "nsi_id": "unitedstatespostalservice-a77078", "operator": "United States Postal Service", "operator:short": "USPS", "operator:type": "public", "operator:wikidata": "Q668687", "ref": "1614800019"}, "type": "Feature"}
{"dataset_attributes": {"@spider": "usps_collection_boxes", "spider:collection_time": "2023-11-07T08:25:32.615229"}, "geometry": {"coordinates": [-80.4758049, 41.233091], "type": "Point"}, "id": "aozAXe1Q-PVTEKGOPDSWE6ls5wc=", "properties": {"@spider": "usps_collection_boxes", "addr:city": "HERMITAGE", "addr:country": "US", "addr:full": "1818 E STATE ST", "addr:postcode": "16148", "addr:state": "PA", "amenity": "post_box", "brand": "United States Postal Service", "brand:wikidata": "Q668687", "collection_times": "Mo-Sa 15:30", "name": "USPS COLLECTION BOX - BLUE BOX", "note": "ON 12/24 AND 12/31, THIS BOX MAY BE COLLECTED AS EARLY AS 12 NOON.", "nsi_id": "unitedstatespostalservice-a77078", "operator": "United States Postal Service", "operator:short": "USPS", "operator:type": "public", "operator:wikidata": "Q668687", "ref": "1614800020"}, "type": "Feature"}
{"dataset_attributes": {"@spider": "usps_collection_boxes", "spider:collection_time": "2023-11-07T08:25:32.615229"}, "geometry": {"coordinates": [-80.4808622, 41.232955], "type": "Point"}, "id": "HZcQiN5pgO1D-zzCw5hZjkr6frs=", "properties": {"@spider": "usps_collection_boxes", "addr:city": "HERMITAGE", "addr:country": "US", "addr:full": "1534 E STATE ST", "addr:postcode": "16148", "addr:state": "PA", "amenity": "post_box", "brand": "United States Postal Service", "brand:wikidata": "Q668687", "collection_times": "Mo-Sa 15:30", "name": "USPS COLLECTION BOX - BLUE BOX", "note": "ON 12/24 AND 12/31, THIS BOX MAY BE COLLECTED AS EARLY AS 12 NOON.", "nsi_id": "unitedstatespostalservice-a77078", "operator": "United States Postal Service", "operator:short": "USPS", "operator:type": "public", "operator:wikidata": "Q668687", "ref": "1614800021"}, "type": "Feature"}
{"dataset_attributes": {"@spider": "usps_collection_boxes", "spider:collection_time": "2023-11-07T08:25:32.615229"}, "geometry": {"coordinates": [-80.447520079, 41.233358574], "type": "Point"}, "id": "1ZoPQMkmTtKaqgV4g_0kXT7wotc=", "properties": {"@spider": "usps_collection_boxes", "addr:city": "HERMITAGE", "addr:country": "US", "addr:full": "3386 E STATE ST", "addr:postcode": "16148", "addr:state": "PA", "amenity": "post_box", "brand": "United States Postal Service", "brand:wikidata": "Q668687", "collection_times": "Mo-Fr 17:15; Sa 16:00", "name": "USPS COLLECTION BOX - APC", "note": "ON 12/24 AND 12/31, THIS BOX MAY BE COLLECTED AS EARLY AS 12 NOON.", "nsi_id": "unitedstatespostalservice-a77078", "operator": "United States Postal Service", "operator:short": "USPS", "operator:type": "public", "operator:wikidata": "Q668687", "ref": "1614800023"}, "type": "Feature"}
{"dataset_attributes": {"@spider": "usps_collection_boxes", "spider:collection_time": "2023-11-07T08:25:32.615229"}, "geometry": {"coordinates": [-80.447520079, 41.233358574], "type": "Point"}, "id": "45ZyCIkzUAZWjeIzofXdvrR9gPg=", "properties": {"@spider": "usps_collection_boxes", "addr:city": "HERMITAGE", "addr:country": "US", "addr:full": "3386 E STATE ST", "addr:postcode": "16148", "addr:state": "PA", "amenity": "post_box", "brand": "United States Postal Service", "brand:wikidata": "Q668687", "collection_times": "Mo-Fr 17:00; Sa 13:00", "name": "USPS COLLECTION BOX - PO LOBBY", "note": "ON 12/24 AND 12/31, THIS BOX MAY BE COLLECTED AS EARLY AS 12 NOON.", "nsi_id": "unitedstatespostalservice-a77078", "operator": "United States Postal Service", "operator:short": "USPS", "operator:type": "public", "operator:wikidata": "Q668687", "ref": "1614800026"}, "type": "Feature"}
{"dataset_attributes": {"@spider": "usps_collection_boxes", "spider:collection_time": "2023-11-07T08:25:32.615229"}, "geometry": {"coordinates": [-80.4762876, 41.263397], "type": "Point"}, "id": "ycKu77Kcmw8gV9oyuZRLM8RA0bg=", "properties": {"@spider": "usps_collection_boxes", "addr:city": "SHARPSVILLE", "addr:country": "US", "addr:full": "9 W MAIN ST", "addr:postcode": "16150", "addr:state": "PA", "amenity": "post_box", "brand": "United States Postal Service", "brand:wikidata": "Q668687", "collection_times": "Mo-Sa 12:00", "name": "USPS COLLECTION BOX - BLUE BOX", "nsi_id": "unitedstatespostalservice-a77078", "operator": "United States Postal Service", "operator:short": "USPS", "operator:type": "public", "operator:wikidata": "Q668687", "ref": "1615000000"}, "type": "Feature"}
{"dataset_attributes": {"@spider": "usps_collection_boxes", "spider:collection_time": "2023-11-07T08:25:32.615229"}, "geometry": {"coordinates": [-80.4834857, 41.26037], "type": "Point"}, "id": "FVt2_-dRnUc-Ni0MDcyn6Y_Dhtg=", "properties": {"@spider": "usps_collection_boxes", "addr:city": "SHARPSVILLE", "addr:country": "US", "addr:full": "707 W RIDGE AVE", "addr:postcode": "16150", "addr:state": "PA", "amenity": "post_box", "brand": "United States Postal Service", "brand:wikidata": "Q668687", "collection_times": "Mo-Sa 12:00", "name": "USPS COLLECTION BOX - BLUE BOX", "nsi_id": "unitedstatespostalservice-a77078", "operator": "United States Postal Service", "operator:short": "USPS", "operator:type": "public", "operator:wikidata": "Q668687", "ref": "1615000004"}, "type": "Feature"}
{"dataset_attributes": {"@spider": "usps_collection_boxes", "spider:collection_time": "2023-11-07T08:25:32.615229"}, "geometry": {"coordinates": [-80.474243945, 41.266055647], "type": "Point"}, "id": "VjpYZZQycpQDfpFiuFNrTFjJm28=", "properties": {"@spider": "usps_collection_boxes", "addr:city": "SHARPSVILLE", "addr:country": "US", "addr:full": "108 E SHENANGO ST", "addr:postcode": "16150", "addr:state": "PA", "amenity": "post_box", "brand": "United States Postal Service", "brand:wikidata": "Q668687", "collection_times": "Mo-Fr 16:15; Sa 12:00", "name": "USPS COLLECTION BOX - BLUE BOX", "note": "ON 12/24 AND 12/31, THIS BOX MAY BE COLLECTED AS EARLY AS 12 NOON.", "nsi_id": "unitedstatespostalservice-a77078", "operator": "United States Postal Service", "operator:short": "USPS", "operator:type": "public", "operator:wikidata": "Q668687", "ref": "1615000006"}, "type": "Feature"}
{"dataset_attributes": {"@spider": "usps_collection_boxes", "spider:collection_time": "2023-11-07T08:25:32.615229"}, "geometry": {"coordinates": [-80.4823738, 41.254613], "type": "Point"}, "id": "TgLJGir4OhpFmygVsct7EaXbzPs=", "properties": {"@spider": "usps_collection_boxes", "addr:city": "SHARPSVILLE", "addr:country": "US", "addr:full": "470 S 7TH ST", "addr:postcode": "16150", "addr:state": "PA", "amenity": "post_box", "brand": "United States Postal Service", "brand:wikidata": "Q668687", "collection_times": "Mo-Sa 12:00", "name": "USPS COLLECTION BOX - BLUE BOX", "nsi_id": "unitedstatespostalservice-a77078", "operator": "United States Postal Service", "operator:short": "USPS", "operator:type": "public", "operator:wikidata": "Q668687", "ref": "1615000008"}, "type": "Feature"}
{"dataset_attributes": {"@spider": "usps_collection_boxes", "spider:collection_time": "2023-11-07T08:25:32.615229"}, "geometry": {"coordinates": [-80.474243945, 41.266055647], "type": "Point"}, "id": "CU-3DTis5ScXSs6QE54fa42KjWY=", "properties": {"@spider": "usps_collection_boxes", "addr:city": "SHARPSVILLE", "addr:country": "US", "addr:full": "108 E SHENANGO ST", "addr:postcode": "16150", "addr:state": "PA", "amenity": "post_box", "brand": "United States Postal Service", "brand:wikidata": "Q668687", "collection_times": "Mo-Fr 16:15; Sa 12:00", "name": "USPS COLLECTION BOX - PO LOBBY", "note": "ON 12/24 AND 12/31, THIS BOX MAY BE COLLECTED AS EARLY AS 12 NOON.", "nsi_id": "unitedstatespostalservice-a77078", "operator": "United States Postal Service", "operator:short": "USPS", "operator:type": "public", "operator:wikidata": "Q668687", "ref": "1615000009"}, "type": "Feature"}
{"dataset_attributes": {"@spider": "usps_collection_boxes", "spider:collection_time": "2023-11-07T08:25:32.615229"}, "geometry": {"coordinates": [-80.474243945, 41.266055647], "type": "Point"}, "id": "2SBjZaUslakki5wNillQVC4rtrQ=", "properties": {"@spider": "usps_collection_boxes", "addr:city": "SHARPSVILLE", "addr:country": "US", "addr:full": "108 E SHENANGO ST", "addr:postcode": "16150", "addr:state": "PA", "amenity": "post_box", "brand": "United States Postal Service", "brand:wikidata": "Q668687", "collection_times": "Mo-Fr 16:30; Sa 12:00", "name": "USPS COLLECTION BOX - PO LOBBY", "note": "ON 12/24 AND 12/31, THIS BOX MAY BE COLLECTED AS EARLY AS 12 NOON.", "nsi_id": "unitedstatespostalservice-a77078", "operator": "United States Postal Service", "operator:short": "USPS", "operator:type": "public", "operator:wikidata": "Q668687", "ref": "1615000011"}, "type": "Feature"}
{"dataset_attributes": {"@spider": "usps_collection_boxes", "spider:collection_time": "2023-11-07T08:25:32.615229"}, "geometry": {"coordinates": [-80.20819174, 41.442048453], "type": "Point"}, "id": "nD6XGEKUeQXrGYKiW5-ubLFM5EQ=", "properties": {"@spider": "usps_collection_boxes", "addr:city": "SHEAKLEYVILLE", "addr:country": "US", "addr:full": "3216 PERRY HWY", "addr:postcode": "16151", "addr:state": "PA", "amenity": "post_box", "brand": "United States Postal Service", "brand:wikidata": "Q668687", "collection_times": "Mo-Fr 16:15; Sa 14:55", "name": "USPS COLLECTION BOX - BLUE BOX", "note": "ON 12/24 AND 12/31, THIS BOX MAY BE COLLECTED AS EARLY AS 12 NOON.", "nsi_id": "unitedstatespostalservice-a77078", "operator": "United States Postal Service", "operator:short": "USPS", "operator:type": "public", "operator:wikidata": "Q668687", "ref": "1615100000"}, "type": "Feature"}
{"dataset_attributes": {"@spider": "usps_collection_boxes", "spider:collection_time": "2023-11-07T08:25:32.615229"}, "geometry": {"coordinates": [-80.20819174, 41.442048453], "type": "Point"}, "id": "44XE4vuAQ-JVQu8aOY4r0coi_VE=", "properties": {"@spider": "usps_collection_boxes", "addr:city": "SHEAKLEYVILLE", "addr:country": "US", "addr:full": "3216 PERRY HWY", "addr:postcode": "16151", "addr:state": "PA", "amenity": "post_box", "brand": "United States Postal Service", "brand:wikidata": "Q668687", "collection_times": "Mo-Fr 16:15; Sa 14:55", "name": "USPS COLLECTION BOX - PO LOBBY", "note": "ON 12/24 AND 12/31, THIS BOX MAY BE COLLECTED AS EARLY AS 12 NOON.", "nsi_id": "unitedstatespostalservice-a77078", "operator": "United States Postal Service", "operator:short": "USPS", "operator:type": "public", "operator:wikidata": "Q668687", "ref": "1615100001"}, "type": "Feature"}
{"dataset_attributes": {"@spider": "usps_collection_boxes", "spider:collection_time": "2023-11-07T08:25:32.615229"}, "geometry": {"coordinates": [-80.20819174, 41.442048453], "type": "Point"}, "id": "A85aRYkgw0OKSBY9EvHt14NRqxs=", "properties": {"@spider": "usps_collection_boxes", "addr:city": "SHEAKLEYVILLE", "addr:country": "US", "addr:full": "3216 PERRY HWY", "addr:postcode": "16151", "addr:state": "PA", "amenity": "post_box", "brand": "United States Postal Service", "brand:wikidata": "Q668687", "collection_times": "Mo-Fr 16:10; Sa 14:55", "name": "USPS COLLECTION BOX - PO LOBBY", "note": "ON 12/24 AND 12/31, THIS BOX MAY BE COLLECTED AS EARLY AS 12 NOON.", "nsi_id": "unitedstatespostalservice-a77078", "operator": "United States Postal Service", "operator:short": "USPS", "operator:type": "public", "operator:wikidata": "Q668687", "ref": "1615100003"}, "type": "Feature"}
{"dataset_attributes": {"@spider": "usps_collection_boxes", "spider:collection_time": "2023-11-07T08:25:32.615229"}, "geometry": {"coordinates": [-80.108856904, 41.339884136], "type": "Point"}, "id": "dkclx4QN9jTjOXLEd7YlQI0O20s=", "properties": {"@spider": "usps_collection_boxes", "addr:city": "STONEBORO", "addr:country": "US", "addr:full": "40 LINDEN ST", "addr:postcode": "16153", "addr:state": "PA", "amenity": "post_box", "brand": "United States Postal Service", "brand:wikidata": "Q668687", "collection_times": "Mo-Fr 16:15; Sa 12:00", "name": "USPS COLLECTION BOX - BLUE BOX", "note": "ON 12/24 AND 12/31, THIS BOX MAY BE COLLECTED AS EARLY AS 12 NOON.", "nsi_id": "unitedstatespostalservice-a77078", "operator": "United States Postal Service", "operator:short": "USPS", "operator:type": "public", "operator:wikidata": "Q668687", "ref": "1615300000"}, "type": "Feature"}
{"dataset_attributes": {"@spider": "usps_collection_boxes", "spider:collection_time": "2023-11-07T08:25:32.615229"}, "geometry": {"coordinates": [-80.108856904, 41.339884136], "type": "Point"}, "id": "H0MNo_6bfGHbcdPZ0afAQzOhEoQ=", "properties": {"@spider": "usps_collection_boxes", "addr:city": "STONEBORO", "addr:country": "US", "addr:full": "40 LINDEN ST", "addr:postcode": "16153", "addr:state": "PA", "amenity": "post_box", "brand": "United States Postal Service", "brand:wikidata": "Q668687", "collection_times": "Mo-Fr 16:15; Sa 12:00", "name": "USPS COLLECTION BOX - PO LOBBY", "note": "ON 12/24 AND 12/31, THIS BOX MAY BE COLLECTED AS EARLY AS 12 NOON.", "nsi_id": "unitedstatespostalservice-a77078", "operator": "United States Postal Service", "operator:short": "USPS", "operator:type": "public", "operator:wikidata": "Q668687", "ref": "1615300001"}, "type": "Feature"}
{"dataset_attributes": {"@spider": "usps_collection_boxes", "spider:collection_time": "2023-11-07T08:25:32.615229"}, "geometry": {"coordinates": [-80.108856904, 41.339884136], "type": "Point"}, "id": "SlX5m2fV-wPvpzV-Uxy-nBuLyO8=", "properties": {"@spider": "usps_collection_boxes", "addr:city": "STONEBORO", "addr:country": "US", "addr:full": "40 LINDEN ST", "addr:postcode": "16153", "addr:state": "PA", "amenity": "post_box", "brand": "United States Postal Service", "brand:wikidata": "Q668687", "collection_times": "Mo-Fr 16:15; Sa 12:00", "name": "USPS COLLECTION BOX - PO LOBBY", "note": "ON 12/24 AND 12/31, THIS BOX MAY BE COLLECTED AS EARLY AS 12 NOON.", "nsi_id": "unitedstatespostalservice-a77078", "operator": "United States Postal Service", "operator:short": "USPS", "operator:type": "public", "operator:wikidata": "Q668687", "ref": "1615300003"}, "type": "Feature"}
{"dataset_attributes": {"@spider": "usps_collection_boxes", "spider:collection_time": "2023-11-07T08:25:32.615229"}, "geometry": {"coordinates": [-80.41341568, 41.33187992], "type": "Point"}, "id": "2DBcsjlCFMwm5sfWQFDOQANJl7I=", "properties": {"@spider": "usps_collection_boxes", "addr:city": "TRANSFER", "addr:country": "US", "addr:full": "3676 N HERMITAGE RD", "addr:postcode": "16154", "addr:state": "PA", "amenity": "post_box", "brand": "United States Postal Service", "brand:wikidata": "Q668687", "collection_times": "Mo-Fr 16:00; Sa 11:30", "name": "USPS COLLECTION BOX - BLUE BOX", "note": "ON 12/24 AND 12/31, THIS BOX MAY BE COLLECTED AS EARLY AS 12 NOON.", "nsi_id": "unitedstatespostalservice-a77078", "operator": "United States Postal Service", "operator:short": "USPS", "operator:type": "public", "operator:wikidata": "Q668687", "ref": "1615400000"}, "type": "Feature"}
{"dataset_attributes": {"@spider": "usps_collection_boxes", "spider:collection_time": "2023-11-07T08:25:32.615229"}, "geometry": {"coordinates": [-80.41341568, 41.33187992], "type": "Point"}, "id": "dGFFCPOqAai3AUX9IcCaXG1Cj7E=", "properties": {"@spider": "usps_collection_boxes", "addr:city": "TRANSFER", "addr:country": "US", "addr:full": "3676 N HERMITAGE RD", "addr:postcode": "16154", "addr:state": "PA", "amenity": "post_box", "brand": "United States Postal Service", "brand:wikidata": "Q668687", "collection_times": "Mo-Fr 16:00; Sa 11:30", "name": "USPS COLLECTION BOX - PO LOBBY", "note": "ON 12/24 AND 12/31, THIS BOX MAY BE COLLECTED AS EARLY AS 12 NOON.", "nsi_id": "unitedstatespostalservice-a77078", "operator": "United States Postal Service", "operator:short": "USPS", "operator:type": "public", "operator:wikidata": "Q668687", "ref": "1615400001"}, "type": "Feature"}
{"dataset_attributes": {"@spider": "usps_collection_boxes", "spider:collection_time": "2023-11-07T08:25:32.615229"}, "geometry": {"coordinates": [-80.41341568, 41.33187992], "type": "Point"}, "id": "80gRLl6hZsNR8T2l-tuSmSyIj9k=", "properties": {"@spider": "usps_collection_boxes", "addr:city": "TRANSFER", "addr:country": "US", "addr:full": "3676 N HERMITAGE RD", "addr:postcode": "16154", "addr:state": "PA", "amenity": "post_box", "brand": "United States Postal Service", "brand:wikidata": "Q668687", "collection_times": "Mo-Fr 16:00; Sa 11:30", "name": "USPS COLLECTION BOX - PO LOBBY", "note": "ON 12/24 AND 12/31, THIS BOX MAY BE COLLECTED AS EARLY AS 12 NOON.", "nsi_id": "unitedstatespostalservice-a77078", "operator": "United States Postal Service", "operator:short": "USPS", "operator:type": "public", "operator:wikidata": "Q668687", "ref": "1615400003"}, "type": "Feature"}
{"dataset_attributes": {"@spider": "usps_collection_boxes", "spider:collection_time": "2023-11-07T08:25:32.615229"}, "geometry": {"coordinates": [-80.50772647, 41.072293443], "type": "Point"}, "id": "6bqXPwhDuoWDoYVKgBvVy-5MsSk=", "properties": {"@spider": "usps_collection_boxes", "addr:city": "VILLA MARIA", "addr:country": "US", "addr:full": "288 VILLA DR", "addr:postcode": "16155", "addr:state": "PA", "amenity": "post_box", "brand": "United States Postal Service", "brand:wikidata": "Q668687", "collection_times": "Mo-Fr 16:55; Sa 15:40", "name": "USPS COLLECTION BOX - PO LOBBY", "note": "ON 12/24 AND 12/31, THIS BOX MAY BE COLLECTED AS EARLY AS 12 NOON.", "nsi_id": "unitedstatespostalservice-a77078", "operator": "United States Postal Service", "operator:short": "USPS", "operator:type": "public", "operator:wikidata": "Q668687", "ref": "1615500001"}, "type": "Feature"}
{"dataset_attributes": {"@spider": "usps_collection_boxes", "spider:collection_time": "2023-11-07T08:25:32.615229"}, "geometry": {"coordinates": [-80.50772647, 41.072293443], "type": "Point"}, "id": "k1q0mAJchjtWahYEk8vG-8CYOa0=", "properties": {"@spider": "usps_collection_boxes", "addr:city": "VILLA MARIA", "addr:country": "US", "addr:full": "288 VILLA DR", "addr:postcode": "16155", "addr:state": "PA", "amenity": "post_box", "brand": "United States Postal Service", "brand:wikidata": "Q668687", "collection_times": "Mo-Fr 16:55; Sa 15:40", "name": "USPS COLLECTION BOX - BLUE BOX", "note": "ON 12/24 AND 12/31, THIS BOX MAY BE COLLECTED AS EARLY AS 12 NOON.", "nsi_id": "unitedstatespostalservice-a77078", "operator": "United States Postal Service", "operator:short": "USPS", "operator:type": "public", "operator:wikidata": "Q668687", "ref": "1615500002"}, "type": "Feature"}
{"dataset_attributes": {"@spider": "usps_collection_boxes", "spider:collection_time": "2023-11-07T08:25:32.615229"}, "geometry": {"coordinates": [-80.50772647, 41.072293443], "type": "Point"}, "id": "Lo5WcOCLr_8yZLSvsXQ0FQFnGJk=", "properties": {"@spider": "usps_collection_boxes", "addr:city": "VILLA MARIA", "addr:country": "US", "addr:full": "288 VILLA DR", "addr:postcode": "16155", "addr:state": "PA", "amenity": "post_box", "brand": "United States Postal Service", "brand:wikidata": "Q668687", "collection_times": "Mo-Fr 16:55; Sa 15:40", "name": "USPS COLLECTION BOX - PO LOBBY", "note": "ON 12/24 AND 12/31, THIS BOX MAY BE COLLECTED AS EARLY AS 12 NOON.", "nsi_id": "unitedstatespostalservice-a77078", "operator": "United States Postal Service", "operator:short": "USPS", "operator:type": "public", "operator:wikidata": "Q668687", "ref": "1615500004"}, "type": "Feature"}
{"dataset_attributes": {"@spider": "usps_collection_boxes", "spider:collection_time": "2023-11-07T08:25:32.615229"}, "geometry": {"coordinates": [-80.256066207, 41.111075513], "type": "Point"}, "id": "8WpTdIB6O6M7D8n2tg8HwQvtrlc=", "properties": {"@spider": "usps_collection_boxes", "addr:city": "VOLANT", "addr:country": "US", "addr:full": "100 HIGH ST", "addr:postcode": "16156", "addr:state": "PA", "amenity": "post_box", "brand": "United States Postal Service", "brand:wikidata": "Q668687", "collection_times": "Mo-Fr 16:00; Sa 11:30", "name": "USPS COLLECTION BOX - BLUE BOX", "note": "ON 12/24 AND 12/31, THIS BOX MAY BE COLLECTED AS EARLY AS 12 NOON.", "nsi_id": "unitedstatespostalservice-a77078", "operator": "United States Postal Service", "operator:short": "USPS", "operator:type": "public", "operator:wikidata": "Q668687", "ref": "1615600000"}, "type": "Feature"}
{"dataset_attributes": {"@spider": "usps_collection_boxes", "spider:collection_time": "2023-11-07T08:25:32.615229"}, "geometry": {"coordinates": [-80.256066207, 41.111075513], "type": "Point"}, "id": "TKtqdRMM9gxqzoUmbfWCDtx5P4Q=", "properties": {"@spider": "usps_collection_boxes", "addr:city": "VOLANT", "addr:country": "US", "addr:full": "100 HIGH ST", "addr:postcode": "16156", "addr:state": "PA", "amenity": "post_box", "brand": "United States Postal Service", "brand:wikidata": "Q668687", "collection_times": "Mo-Fr 16:15; Sa 11:30", "name": "USPS COLLECTION BOX - PO LOBBY", "note": "ON 12/24 AND 12/31, THIS BOX MAY BE COLLECTED AS EARLY AS 12 NOON.", "nsi_id": "unitedstatespostalservice-a77078", "operator": "United States Postal Service", "operator:short": "USPS", "operator:type": "public", "operator:wikidata": "Q668687", "ref": "1615600001"}, "type": "Feature"}
{"dataset_attributes": {"@spider": "usps_collection_boxes", "spider:collection_time": "2023-11-07T08:25:32.615229"}, "geometry": {"coordinates": [-80.256066207, 41.111075513], "type": "Point"}, "id": "vhGFBlZSaR8qLKq9sKIbSShX20E=", "properties": {"@spider": "usps_collection_boxes", "addr:city": "VOLANT", "addr:country": "US", "addr:full": "100 HIGH ST", "addr:postcode": "16156", "addr:state": "PA", "amenity": "post_box", "brand": "United States Postal Service", "brand:wikidata": "Q668687", "collection_times": "Mo-Fr 16:15; Sa 11:30", "name": "USPS COLLECTION BOX - PO LOBBY", "note": "ON 12/24 AND 12/31, THIS BOX MAY BE COLLECTED AS EARLY AS 12 NOON.", "nsi_id": "unitedstatespostalservice-a77078", "operator": "United States Postal Service", "operator:short": "USPS", "operator:type": "public", "operator:wikidata": "Q668687", "ref": "1615600003"}, "type": "Feature"}
{"dataset_attributes": {"@spider": "usps_collection_boxes", "spider:collection_time": "2023-11-07T08:25:32.615229"}, "geometry": {"coordinates": [-80.34025656, 40.888653528], "type": "Point"}, "id": "SCULobYA5ViiNpjE-PJoBOnsCqg=", "properties": {"@spider": "usps_collection_boxes", "addr:city": "WAMPUM", "addr:country": "US", "addr:full": "414 BEAVER ST", "addr:postcode": "16157", "addr:state": "PA", "amenity": "post_box", "brand": "United States Postal Service", "brand:wikidata": "Q668687", "collection_times": "Mo-Fr 16:30; Sa 12:00", "name": "USPS COLLECTION BOX - BLUE BOX", "note": "ON 12/24 AND 12/31, THIS BOX MAY BE COLLECTED AS EARLY AS 12 NOON.", "nsi_id": "unitedstatespostalservice-a77078", "operator": "United States Postal Service", "operator:short": "USPS", "operator:type": "public", "operator:wikidata": "Q668687", "ref": "1615700000"}, "type": "Feature"}
{"dataset_attributes": {"@spider": "usps_collection_boxes", "spider:collection_time": "2023-11-07T08:25:32.615229"}, "geometry": {"coordinates": [-80.34025656, 40.888653528], "type": "Point"}, "id": "8ztSSSdeOTcIUsPh8-h2tIHPWxw=", "properties": {"@spider": "usps_collection_boxes", "addr:city": "WAMPUM", "addr:country": "US", "addr:full": "414 BEAVER ST", "addr:postcode": "16157", "addr:state": "PA", "amenity": "post_box", "brand": "United States Postal Service", "brand:wikidata": "Q668687", "collection_times": "Mo-Fr 16:30; Sa 12:00", "name": "USPS COLLECTION BOX - PO LOBBY", "note": "ON 12/24 AND 12/31, THIS BOX MAY BE COLLECTED AS EARLY AS 12 NOON.", "nsi_id": "unitedstatespostalservice-a77078", "operator": "United States Postal Service", "operator:short": "USPS", "operator:type": "public", "operator:wikidata": "Q668687", "ref": "1615700001"}, "type": "Feature"}
{"dataset_attributes": {"@spider": "usps_collection_boxes", "spider:collection_time": "2023-11-07T08:25:32.615229"}, "geometry": {"coordinates": [-80.3507214, 40.896107], "type": "Point"}, "id": "48NQlcE4fE1QzYi9LOfINzxgafI=", "properties": {"@spider": "usps_collection_boxes", "addr:city": "WAMPUM", "addr:country": "US", "addr:full": "3384 STATE ROUTE 18", "addr:postcode": "16157", "addr:state": "PA", "amenity": "post_box", "brand": "United States Postal Service", "brand:wikidata": "Q668687", "collection_times": "Mo-Sa 11:00", "name": "USPS COLLECTION BOX - BLUE BOX", "nsi_id": "unitedstatespostalservice-a77078", "operator": "United States Postal Service", "operator:short": "USPS", "operator:type": "public", "operator:wikidata": "Q668687", "ref": "1615700003"}, "type": "Feature"}
{"dataset_attributes": {"@spider": "usps_collection_boxes", "spider:collection_time": "2023-11-07T08:25:32.615229"}, "geometry": {"coordinates": [-80.34025656, 40.888653528], "type": "Point"}, "id": "OHzg2VPR4txDVTKtMXn0zCtZD-o=", "properties": {"@spider": "usps_collection_boxes", "addr:city": "WAMPUM", "addr:country": "US", "addr:full": "414 BEAVER ST", "addr:postcode": "16157", "addr:state": "PA", "amenity": "post_box", "brand": "United States Postal Service", "brand:wikidata": "Q668687", "collection_times": "Mo-Fr 16:30; Sa 12:00", "name": "USPS COLLECTION BOX - PO LOBBY", "note": "ON 12/24 AND 12/31, THIS BOX MAY BE COLLECTED AS EARLY AS 12 NOON.", "nsi_id": "unitedstatespostalservice-a77078", "operator": "United States Postal Service", "operator:short": "USPS", "operator:type": "public", "operator:wikidata": "Q668687", "ref": "1615700004"}, "type": "Feature"}
{"dataset_attributes": {"@spider": "usps_collection_boxes", "spider:collection_time": "2023-11-07T08:25:32.615229"}, "geometry": {"coordinates": [-80.457157123, 41.172465443], "type": "Point"}, "id": "RykNc-T46HmXprMe3C4uZyVu7xY=", "properties": {"@spider": "usps_collection_boxes", "addr:city": "WEST MIDDLESEX", "addr:country": "US", "addr:full": "39 FAIR ST", "addr:postcode": "16159", "addr:state": "PA", "amenity": "post_box", "brand": "United States Postal Service", "brand:wikidata": "Q668687", "collection_times": "Mo-Fr 17:00; Sa 12:00", "name": "USPS COLLECTION BOX - BLUE BOX", "note": "ON 12/24 AND 12/31, THIS BOX MAY BE COLLECTED AS EARLY AS 12 NOON.", "nsi_id": "unitedstatespostalservice-a77078", "operator": "United States Postal Service", "operator:short": "USPS", "operator:type": "public", "operator:wikidata": "Q668687", "ref": "1615900000"}, "type": "Feature"}
{"dataset_attributes": {"@spider": "usps_collection_boxes", "spider:collection_time": "2023-11-07T08:25:32.615229"}, "geometry": {"coordinates": [-80.457157123, 41.172465443], "type": "Point"}, "id": "8e__JsHPLz05d_8bxeHjzTCKdHk=", "properties": {"@spider": "usps_collection_boxes", "addr:city": "WEST MIDDLESEX", "addr:country": "US", "addr:full": "39 FAIR ST", "addr:postcode": "16159", "addr:state": "PA", "amenity": "post_box", "brand": "United States Postal Service", "brand:wikidata": "Q668687", "collection_times": "Mo-Fr 17:00; Sa 12:00", "name": "USPS COLLECTION BOX - PO LOBBY", "note": "ON 12/24 AND 12/31, THIS BOX MAY BE COLLECTED AS EARLY AS 12 NOON.", "nsi_id": "unitedstatespostalservice-a77078", "operator": "United States Postal Service", "operator:short": "USPS", "operator:type": "public", "operator:wikidata": "Q668687", "ref": "1615900001"}, "type": "Feature"}
{"dataset_attributes": {"@spider": "usps_collection_boxes", "spider:collection_time": "2023-11-07T08:25:32.615229"}, "geometry": {"coordinates": [-80.457157123, 41.172465443], "type": "Point"}, "id": "swIG88_ncD7smNZsZ4qSjOwdNu8=", "properties": {"@spider": "usps_collection_boxes", "addr:city": "WEST MIDDLESEX", "addr:country": "US", "addr:full": "39 FAIR ST", "addr:postcode": "16159", "addr:state": "PA", "amenity": "post_box", "brand": "United States Postal Service", "brand:wikidata": "Q668687", "collection_times": "Mo-Fr 17:00; Sa 12:00", "name": "USPS COLLECTION BOX - PO LOBBY", "note": "ON 12/24 AND 12/31, THIS BOX MAY BE COLLECTED AS EARLY AS 12 NOON.", "nsi_id": "unitedstatespostalservice-a77078", "operator": "United States Postal Service", "operator:short": "USPS", "operator:type": "public", "operator:wikidata": "Q668687", "ref": "1615900003"}, "type": "Feature"}
{"dataset_attributes": {"@spider": "usps_collection_boxes", "spider:collection_time": "2023-11-07T08:25:32.615229"}, "geometry": {"coordinates": [-80.363557889, 40.935212329], "type": "Point"}, "id": "Ck0FObIU8YBtX6NhzJA2-V9A8PE=", "properties": {"@spider": "usps_collection_boxes", "addr:city": "WEST PITTSBURG", "addr:country": "US", "addr:full": "341 CENTER AVE", "addr:postcode": "16160", "addr:state": "PA", "amenity": "post_box", "brand": "United States Postal Service", "brand:wikidata": "Q668687", "collection_times": "Mo-Fr 16:00; Sa 11:30", "name": "USPS COLLECTION BOX - BLUE BOX", "note": "ON 12/24 AND 12/31, THIS BOX MAY BE COLLECTED AS EARLY AS 12 NOON.", "nsi_id": "unitedstatespostalservice-a77078", "operator": "United States Postal Service", "operator:short": "USPS", "operator:type": "public", "operator:wikidata": "Q668687", "ref": "1616000000"}, "type": "Feature"}
{"dataset_attributes": {"@spider": "usps_collection_boxes", "spider:collection_time": "2023-11-07T08:25:32.615229"}, "geometry": {"coordinates": [-80.363557889, 40.935212329], "type": "Point"}, "id": "S0v3w3CkavgtVIGVOLiEmo4co6Y=", "properties": {"@spider": "usps_collection_boxes", "addr:city": "WEST PITTSBURG", "addr:country": "US", "addr:full": "341 CENTER AVE", "addr:postcode": "16160", "addr:state": "PA", "amenity": "post_box", "brand": "United States Postal Service", "brand:wikidata": "Q668687", "collection_times": "Mo-Fr 16:00; Sa 11:30", "name": "USPS COLLECTION BOX - PO LOBBY", "note": "ON 12/24 AND 12/31, THIS BOX MAY BE COLLECTED AS EARLY AS 12 NOON.", "nsi_id": "unitedstatespostalservice-a77078", "operator": "United States Postal Service", "operator:short": "USPS", "operator:type": "public", "operator:wikidata": "Q668687", "ref": "1616000001"}, "type": "Feature"}
{"dataset_attributes": {"@spider": "usps_collection_boxes", "spider:collection_time": "2023-11-07T08:25:32.615229"}, "geometry": {"coordinates": [-80.363557889, 40.935212329], "type": "Point"}, "id": "fHIxyO0y5YE8kLXm3kvxyp757S0=", "properties": {"@spider": "usps_collection_boxes", "addr:city": "WEST PITTSBURG", "addr:country": "US", "addr:full": "341 CENTER AVE", "addr:postcode": "16160", "addr:state": "PA", "amenity": "post_box", "brand": "United States Postal Service", "brand:wikidata": "Q668687", "collection_times": "Mo-Fr 16:00; Sa 11:30", "name": "USPS COLLECTION BOX - PO LOBBY", "note": "ON 12/24 AND 12/31, THIS BOX MAY BE COLLECTED AS EARLY AS 12 NOON.", "nsi_id": "unitedstatespostalservice-a77078", "operator": "United States Postal Service", "operator:short": "USPS", "operator:type": "public", "operator:wikidata": "Q668687", "ref": "1616000003"}, "type": "Feature"}
{"dataset_attributes": {"@spider": "usps_collection_boxes", "spider:collection_time": "2023-11-07T08:25:32.615229"}, "geometry": {"coordinates": [-80.492378002, 41.20083], "type": "Point"}, "id": "3h5Mn4XoA1j8TucRsoSlsuwLNvY=", "properties": {"@spider": "usps_collection_boxes", "addr:city": "WHEATLAND", "addr:country": "US", "addr:full": "101 COUNCIL AVE", "addr:postcode": "16161", "addr:state": "PA", "amenity": "post_box", "brand": "United States Postal Service", "brand:wikidata": "Q668687", "collection_times": "Mo-Fr 16:30; Sa 11:45", "name": "USPS COLLECTION BOX - BLUE BOX", "note": "ON 12/24 AND 12/31, THIS BOX MAY BE COLLECTED AS EARLY AS 12 NOON.", "nsi_id": "unitedstatespostalservice-a77078", "operator": "United States Postal Service", "operator:short": "USPS", "operator:type": "public", "operator:wikidata": "Q668687", "ref": "1616100000"}, "type": "Feature"}
{"dataset_attributes": {"@spider": "usps_collection_boxes", "spider:collection_time": "2023-11-07T08:25:32.615229"}, "geometry": {"coordinates": [-80.492378002, 41.20083], "type": "Point"}, "id": "IAZVfp2Z7AfMGIUXbMF9Gzz_QIo=", "properties": {"@spider": "usps_collection_boxes", "addr:city": "WHEATLAND", "addr:country": "US", "addr:full": "101 COUNCIL AVE", "addr:postcode": "16161", "addr:state": "PA", "amenity": "post_box", "brand": "United States Postal Service", "brand:wikidata": "Q668687", "collection_times": "Mo-Fr 16:30; Sa 11:45", "name": "USPS COLLECTION BOX - PO LOBBY", "note": "ON 12/24 AND 12/31, THIS BOX MAY BE COLLECTED AS EARLY AS 12 NOON.", "nsi_id": "unitedstatespostalservice-a77078", "operator": "United States Postal Service", "operator:short": "USPS", "operator:type": "public", "operator:wikidata": "Q668687", "ref": "1616100001"}, "type": "Feature"}
{"dataset_attributes": {"@spider": "usps_collection_boxes", "spider:collection_time": "2023-11-07T08:25:32.615229"}, "geometry": {"coordinates": [-80.492378002, 41.20083], "type": "Point"}, "id": "Oeb0Q9muU9tTY47iUABxEAd-piI=", "properties": {"@spider": "usps_collection_boxes", "addr:city": "WHEATLAND", "addr:country": "US", "addr:full": "101 COUNCIL AVE", "addr:postcode": "16161", "addr:state": "PA", "amenity": "post_box", "brand": "United States Postal Service", "brand:wikidata": "Q668687", "collection_times": "Mo-Fr 16:30; Sa 11:30", "name": "USPS COLLECTION BOX - PO LOBBY", "note": "ON 12/24 AND 12/31, THIS BOX MAY BE COLLECTED AS EARLY AS 12 NOON.", "nsi_id": "unitedstatespostalservice-a77078", "operator": "United States Postal Service", "operator:short": "USPS", "operator:type": "public", "operator:wikidata": "Q668687", "ref": "1616100003"}, "type": "Feature"}
