{"geometry": {"coordinates": [-79.5512254, 40.813364], "type": "Point"}, "id": "zGdRbP_J1msUTo64Cb6f4aM9WPs=", "properties": {"@spider": "usps_collection_boxes", "addr:city": "KITTANNING", "addr:country": "US", "addr:full": "1 FRANKLIN VILLAGE MALL", "addr:postcode": "16201", "addr:state": "PA", "brand": "USPS", "brand:wikidata": "Q668687", "collection_times": "Mo-Fr 16:00; Sa 15:30", "name": "USPS COLLECTION BOX - BLUE BOX", "note": "ON 12/24 AND 12/31, THIS BOX MAY BE COLLECTED AS EARLY AS 12 NOON.", "ref": "1620100000"}, "type": "Feature"}
{"geometry": {"coordinates": [-79.5618199, 40.808304], "type": "Point"}, "id": "EotGru8JXTFAX-oRj10H7eIVJYM=", "properties": {"@spider": "usps_collection_boxes", "addr:city": "KITTANNING", "addr:country": "US", "addr:full": "1 NOLTE DR", "addr:postcode": "16201", "addr:state": "PA", "brand": "USPS", "brand:wikidata": "Q668687", "collection_times": "Mo-Fr 15:30", "name": "USPS COLLECTION BOX - BLUE BOX", "note": "ON 12/24 AND 12/31, THIS BOX MAY BE COLLECTED AS EARLY AS 12 NOON.", "ref": "1620100002"}, "type": "Feature"}
{"geometry": {"coordinates": [-79.5428757, 40.814263], "type": "Point"}, "id": "4m6pGV-2iML2wkc2zC6L70nCa8o=", "properties": {"@spider": "usps_collection_boxes", "addr:city": "KITTANNING", "addr:country": "US", "addr:full": "1 HILLTOP PLZ", "addr:postcode": "16201", "addr:state": "PA", "brand": "USPS", "brand:wikidata": "Q668687", "collection_times": "Mo-Sa 11:00", "name": "USPS COLLECTION BOX - BLUE BOX", "ref": "1620100003"}, "type": "Feature"}
{"geometry": {"coordinates": [-79.516447, 40.816058], "type": "Point"}, "id": "7heZGIDvy6ZDoJeO8ytiVSMp9ZQ=", "properties": {"@spider": "usps_collection_boxes", "addr:city": "KITTANNING", "addr:country": "US", "addr:full": "500 E MARKET ST", "addr:postcode": "16201", "addr:state": "PA", "brand": "USPS", "brand:wikidata": "Q668687", "collection_times": "Mo-Fr 15:30", "name": "USPS COLLECTION BOX - BLUE BOX", "note": "ON 12/24 AND 12/31, THIS BOX MAY BE COLLECTED AS EARLY AS 12 NOON.", "ref": "1620100008"}, "type": "Feature"}
{"geometry": {"coordinates": [-79.5166814, 40.81604], "type": "Point"}, "id": "Cq3tghnV-05tgpndNU6E0vlvHn8=", "properties": {"@spider": "usps_collection_boxes", "addr:city": "KITTANNING", "addr:country": "US", "addr:full": "450 E MARKET ST", "addr:postcode": "16201", "addr:state": "PA", "brand": "USPS", "brand:wikidata": "Q668687", "collection_times": "Mo-Fr 15:30", "name": "USPS COLLECTION BOX - BLUE BOX", "note": "ON 12/24 AND 12/31, THIS BOX MAY BE COLLECTED AS EARLY AS 12 NOON.", "ref": "1620100009"}, "type": "Feature"}
{"geometry": {"coordinates": [-79.5197055, 40.814324], "type": "Point"}, "id": "52UXbJ2U4sBQZVYXEIqfYOj7RdA=", "properties": {"@spider": "usps_collection_boxes", "addr:city": "KITTANNING", "addr:country": "US", "addr:full": "201 MARKET ST", "addr:postcode": "16201", "addr:state": "PA", "brand": "USPS", "brand:wikidata": "Q668687", "collection_times": "Mo-Fr 16:05; Sa 14:30", "name": "USPS COLLECTION BOX - BLUE BOX", "note": "ON 12/24 AND 12/31, THIS BOX MAY BE COLLECTED AS EARLY AS 12 NOON.", "ref": "1620100013"}, "type": "Feature"}
{"geometry": {"coordinates": [-79.5160209, 40.812299], "type": "Point"}, "id": "MvcMGuMY54OdYOU282l1Ad0vKrY=", "properties": {"@spider": "usps_collection_boxes", "addr:city": "KITTANNING", "addr:country": "US", "addr:full": "265 S MCKEAN ST", "addr:postcode": "16201", "addr:state": "PA", "brand": "USPS", "brand:wikidata": "Q668687", "collection_times": "Mo-Fr 15:30; Sa 14:00", "name": "USPS COLLECTION BOX - BLUE BOX", "note": "ON 12/24 AND 12/31, THIS BOX MAY BE COLLECTED AS EARLY AS 12 NOON.", "ref": "1620100022"}, "type": "Feature"}
{"geometry": {"coordinates": [-79.5172276, 40.811538], "type": "Point"}, "id": "KZ-EoT11xNh4c5FOWIS_SMGpu_U=", "properties": {"@spider": "usps_collection_boxes", "addr:city": "KITTANNING", "addr:country": "US", "addr:full": "271 S JEFFERSON ST", "addr:postcode": "16201", "addr:state": "PA", "brand": "USPS", "brand:wikidata": "Q668687", "collection_times": "Mo-Fr 15:30; Sa 14:15", "name": "USPS COLLECTION BOX - BLUE BOX", "note": "ON 12/24 AND 12/31, THIS BOX MAY BE COLLECTED AS EARLY AS 12 NOON.", "ref": "1620100023"}, "type": "Feature"}
{"geometry": {"coordinates": [-79.5618036, 40.8083], "type": "Point"}, "id": "8yiyEOksZpUyDlGCD6r3XumYZoY=", "properties": {"@spider": "usps_collection_boxes", "addr:city": "KITTANNING", "addr:country": "US", "addr:full": "1 NOLTE DR", "addr:postcode": "16201", "addr:state": "PA", "brand": "USPS", "brand:wikidata": "Q668687", "collection_times": "Mo-Fr 15:30", "name": "USPS COLLECTION BOX - BLUE BOX", "note": "ON 12/24 AND 12/31, THIS BOX MAY BE COLLECTED AS EARLY AS 12 NOON.", "ref": "1620100024"}, "type": "Feature"}
{"geometry": {"coordinates": [-79.52011, 40.816462], "type": "Point"}, "id": "0NKU-6frscbs2dzsmm_MjchtNW8=", "properties": {"@spider": "usps_collection_boxes", "addr:city": "KITTANNING", "addr:country": "US", "addr:full": "210 N MCKEAN ST", "addr:postcode": "16201", "addr:state": "PA", "brand": "USPS", "brand:wikidata": "Q668687", "collection_times": "Mo-Fr 16:10; Sa 15:30", "name": "USPS COLLECTION BOX - BLUE BOX", "note": "ON 12/24 AND 12/31, THIS BOX MAY BE COLLECTED AS EARLY AS 12 NOON.", "ref": "1620100038"}, "type": "Feature"}
{"geometry": {"coordinates": [-79.52069, 40.816982], "type": "Point"}, "id": "z6mOgRZNRSzMl9Mg6_4JDUKkNto=", "properties": {"@spider": "usps_collection_boxes", "addr:city": "KITTANNING", "addr:country": "US", "addr:full": "210 N MCKEAN ST", "addr:postcode": "16201", "addr:state": "PA", "brand": "USPS", "brand:wikidata": "Q668687", "collection_times": "Mo-Fr 16:10; Sa 15:30", "name": "USPS COLLECTION BOX - BLUE BOX", "note": "ON 12/24 AND 12/31, THIS BOX MAY BE COLLECTED AS EARLY AS 12 NOON.", "ref": "1620100039"}, "type": "Feature"}
{"geometry": {"coordinates": [-79.520162273, 40.816389438], "type": "Point"}, "id": "siIr7H3mZKX3juD-UJiuEpb3jGs=", "properties": {"@spider": "usps_collection_boxes", "addr:city": "KITTANNING", "addr:country": "US", "addr:full": "201 N MCKEAN ST", "addr:postcode": "16201", "addr:state": "PA", "brand": "USPS", "brand:wikidata": "Q668687", "collection_times": "Mo-Sa 17:00", "name": "USPS COLLECTION BOX - BLUE BOX", "note": "ON 12/24 AND 12/31, THIS BOX MAY BE COLLECTED AS EARLY AS 12 NOON.", "ref": "1620100040"}, "type": "Feature"}
{"geometry": {"coordinates": [-79.5261033, 40.804813], "type": "Point"}, "id": "Zc05qnu1mYiMnolCcspx0psVU4Q=", "properties": {"@spider": "usps_collection_boxes", "addr:city": "KITTANNING", "addr:country": "US", "addr:full": "159 BUTLER RD", "addr:postcode": "16201", "addr:state": "PA", "brand": "USPS", "brand:wikidata": "Q668687", "collection_times": "Mo-Sa 13:00", "name": "USPS COLLECTION BOX - BLUE BOX", "note": "ON 12/24 AND 12/31, THIS BOX MAY BE COLLECTED AS EARLY AS 12 NOON.", "ref": "1620100044"}, "type": "Feature"}
{"geometry": {"coordinates": [-79.4936664, 40.807004], "type": "Point"}, "id": "ap13H0-fU_ip3zNaU-6akjN3j1Q=", "properties": {"@spider": "usps_collection_boxes", "addr:city": "KITTANNING", "addr:country": "US", "addr:full": "13607 STATE ROUTE 422", "addr:postcode": "16201", "addr:state": "PA", "brand": "USPS", "brand:wikidata": "Q668687", "collection_times": "Mo-Sa 12:00", "name": "USPS COLLECTION BOX - BLUE BOX", "ref": "1620100045"}, "type": "Feature"}
{"geometry": {"coordinates": [-79.520162273, 40.816389438], "type": "Point"}, "id": "hs8mLOd0m3z1VKMjJbYOoRUY9O0=", "properties": {"@spider": "usps_collection_boxes", "addr:city": "KITTANNING", "addr:country": "US", "addr:full": "201 N MCKEAN ST", "addr:postcode": "16201", "addr:state": "PA", "brand": "USPS", "brand:wikidata": "Q668687", "collection_times": "Mo-Sa 17:00", "name": "USPS COLLECTION BOX - BLUE BOX", "note": "ON 12/24 AND 12/31, THIS BOX MAY BE COLLECTED AS EARLY AS 12 NOON.", "ref": "1620100046"}, "type": "Feature"}
{"geometry": {"coordinates": [-79.520162273, 40.816389438], "type": "Point"}, "id": "q8b2HKszdvR3eFypJYMaj0QF0IE=", "properties": {"@spider": "usps_collection_boxes", "addr:city": "KITTANNING", "addr:country": "US", "addr:full": "201 N MCKEAN ST", "addr:postcode": "16201", "addr:state": "PA", "brand": "USPS", "brand:wikidata": "Q668687", "collection_times": "Mo-Sa 17:00", "name": "USPS COLLECTION BOX - PO LOBBY", "note": "ON 12/24 AND 12/31, THIS BOX MAY BE COLLECTED AS EARLY AS 12 NOON.", "ref": "1620100048"}, "type": "Feature"}
{"geometry": {"coordinates": [-79.5294153, 40.808016], "type": "Point"}, "id": "Fw3XRxymFOm6X7kLZiqOv3TZinE=", "properties": {"@spider": "usps_collection_boxes", "addr:city": "KITTANNING", "addr:country": "US", "addr:full": "316 1ST AVE", "addr:postcode": "16201", "addr:state": "PA", "brand": "USPS", "brand:wikidata": "Q668687", "collection_times": "Mo-Sa 15:15", "name": "USPS COLLECTION BOX - BLUE BOX", "note": "ON 12/24 AND 12/31, THIS BOX MAY BE COLLECTED AS EARLY AS 12 NOON.", "ref": "1620100049"}, "type": "Feature"}
{"geometry": {"coordinates": [-79.520162273, 40.816389438], "type": "Point"}, "id": "mfB-I6n5Z96hyMVSb21puaQWUh0=", "properties": {"@spider": "usps_collection_boxes", "addr:city": "KITTANNING", "addr:country": "US", "addr:full": "201 N MCKEAN ST", "addr:postcode": "16201", "addr:state": "PA", "brand": "USPS", "brand:wikidata": "Q668687", "collection_times": "Mo-Fr 17:00; Sa 12:00", "name": "USPS COLLECTION BOX - PO LOBBY", "note": "ON 12/24 AND 12/31, THIS BOX MAY BE COLLECTED AS EARLY AS 12 NOON.", "ref": "1620100051"}, "type": "Feature"}
{"geometry": {"coordinates": [-79.541786, 40.884711231], "type": "Point"}, "id": "A59IAEL9u8DWFXC_3hknQHw44l4=", "properties": {"@spider": "usps_collection_boxes", "addr:city": "ADRIAN", "addr:country": "US", "addr:full": "593 REESEDALE RD", "addr:postcode": "16210", "addr:state": "PA", "brand": "USPS", "brand:wikidata": "Q668687", "collection_times": "Mo-Fr 11:55; Sa 10:55", "name": "USPS COLLECTION BOX - BLUE BOX", "ref": "1621000000"}, "type": "Feature"}
{"geometry": {"coordinates": [-79.541786, 40.884711231], "type": "Point"}, "id": "_9bTldoEtROlFRdPdxxeCK8LiSc=", "properties": {"@spider": "usps_collection_boxes", "addr:city": "ADRIAN", "addr:country": "US", "addr:full": "593 REESEDALE RD", "addr:postcode": "16210", "addr:state": "PA", "brand": "USPS", "brand:wikidata": "Q668687", "collection_times": "Mo-Fr 11:55; Sa 10:55", "name": "USPS COLLECTION BOX - PO LOBBY", "ref": "1621000001"}, "type": "Feature"}
{"geometry": {"coordinates": [-79.541786, 40.884711231], "type": "Point"}, "id": "ENugW1xMu2GJ1JEKFpvFTwYXcLM=", "properties": {"@spider": "usps_collection_boxes", "addr:city": "ADRIAN", "addr:country": "US", "addr:full": "593 REESEDALE RD", "addr:postcode": "16210", "addr:state": "PA", "brand": "USPS", "brand:wikidata": "Q668687", "collection_times": "Mo-Fr 11:55; Sa 10:55", "name": "USPS COLLECTION BOX - PO LOBBY", "ref": "1621000003"}, "type": "Feature"}
{"geometry": {"coordinates": [-79.200572779, 40.786575062], "type": "Point"}, "id": "VezcGu_RsexH4-RkRoJ3QXEHfU4=", "properties": {"@spider": "usps_collection_boxes", "addr:city": "BEYER", "addr:country": "US", "addr:full": "7389 ROUTE 85 NORTH HWY", "addr:postcode": "16211", "addr:state": "PA", "brand": "USPS", "brand:wikidata": "Q668687", "collection_times": "Mo-Fr 10:50; Sa 11:45", "name": "USPS COLLECTION BOX - BLUE BOX", "ref": "1621100000"}, "type": "Feature"}
{"geometry": {"coordinates": [-79.200572779, 40.786575062], "type": "Point"}, "id": "_2DoXU1Z6EjW-16cLc-PJCZUtzk=", "properties": {"@spider": "usps_collection_boxes", "addr:city": "BEYER", "addr:country": "US", "addr:full": "7389 ROUTE 85 NORTH HWY", "addr:postcode": "16211", "addr:state": "PA", "brand": "USPS", "brand:wikidata": "Q668687", "collection_times": "Mo-Fr 10:50; Sa 11:45", "name": "USPS COLLECTION BOX - PO LOBBY", "ref": "1621100001"}, "type": "Feature"}
{"geometry": {"coordinates": [-79.200572779, 40.786575062], "type": "Point"}, "id": "0vk2OHCv0_tRG9SEYumWSsu3mTw=", "properties": {"@spider": "usps_collection_boxes", "addr:city": "BEYER", "addr:country": "US", "addr:full": "7389 ROUTE 85 NORTH HWY", "addr:postcode": "16211", "addr:state": "PA", "brand": "USPS", "brand:wikidata": "Q668687", "collection_times": "Mo-Fr 10:50; Sa 11:45", "name": "USPS COLLECTION BOX - PO LOBBY", "ref": "1621100003"}, "type": "Feature"}
{"geometry": {"coordinates": [-79.581426047, 40.753484004], "type": "Point"}, "id": "dtCM3GFHiZiY7NRjSWGuX8VWzGQ=", "properties": {"@spider": "usps_collection_boxes", "addr:city": "CADOGAN", "addr:country": "US", "addr:full": "106 MAIN ST", "addr:postcode": "16212", "addr:state": "PA", "brand": "USPS", "brand:wikidata": "Q668687", "collection_times": "Mo-Fr 16:25; Sa 15:15", "name": "USPS COLLECTION BOX - BLUE BOX", "note": "ON 12/24 AND 12/31, THIS BOX MAY BE COLLECTED AS EARLY AS 12 NOON.", "ref": "1621200000"}, "type": "Feature"}
{"geometry": {"coordinates": [-79.581426047, 40.753484004], "type": "Point"}, "id": "uRS4o9plZmNd1ICwKefiHI98SxU=", "properties": {"@spider": "usps_collection_boxes", "addr:city": "CADOGAN", "addr:country": "US", "addr:full": "106 MAIN ST", "addr:postcode": "16212", "addr:state": "PA", "brand": "USPS", "brand:wikidata": "Q668687", "collection_times": "Mo-Fr 16:25; Sa 15:15", "name": "USPS COLLECTION BOX - PO LOBBY", "note": "ON 12/24 AND 12/31, THIS BOX MAY BE COLLECTED AS EARLY AS 12 NOON.", "ref": "1621200001"}, "type": "Feature"}
{"geometry": {"coordinates": [-79.581426047, 40.753484004], "type": "Point"}, "id": "zVbt6CL08jhGuLdeFVi65_UxIc4=", "properties": {"@spider": "usps_collection_boxes", "addr:city": "CADOGAN", "addr:country": "US", "addr:full": "106 MAIN ST", "addr:postcode": "16212", "addr:state": "PA", "brand": "USPS", "brand:wikidata": "Q668687", "collection_times": "Mo-Fr 16:25; Sa 15:15", "name": "USPS COLLECTION BOX - PO LOBBY", "note": "ON 12/24 AND 12/31, THIS BOX MAY BE COLLECTED AS EARLY AS 12 NOON.", "ref": "1621200003"}, "type": "Feature"}
{"geometry": {"coordinates": [-79.55768253, 41.125856192], "type": "Point"}, "id": "_8UYJk3ynNt-FdpFvr5RhRioOxU=", "properties": {"@spider": "usps_collection_boxes", "addr:city": "CALLENSBURG", "addr:country": "US", "addr:full": "450A MAIN ST", "addr:postcode": "16213", "addr:state": "PA", "brand": "USPS", "brand:wikidata": "Q668687", "collection_times": "Mo-Fr 12:10; Sa 11:30", "name": "USPS COLLECTION BOX - BLUE BOX", "note": "ON 12/24 AND 12/31, THIS BOX MAY BE COLLECTED AS EARLY AS 12 NOON.", "ref": "1621300000"}, "type": "Feature"}
{"geometry": {"coordinates": [-79.55768253, 41.125856192], "type": "Point"}, "id": "OrVj1iceHtywtEKiPONaz9KevEI=", "properties": {"@spider": "usps_collection_boxes", "addr:city": "CALLENSBURG", "addr:country": "US", "addr:full": "450A MAIN ST", "addr:postcode": "16213", "addr:state": "PA", "brand": "USPS", "brand:wikidata": "Q668687", "collection_times": "Mo-Fr 12:10; Sa 11:30", "name": "USPS COLLECTION BOX - PO LOBBY", "note": "ON 12/24 AND 12/31, THIS BOX MAY BE COLLECTED AS EARLY AS 12 NOON.", "ref": "1621300001"}, "type": "Feature"}
{"geometry": {"coordinates": [-79.55768253, 41.125856192], "type": "Point"}, "id": "MII-RkHmUZr9qL8ZUuS4hLM8-jY=", "properties": {"@spider": "usps_collection_boxes", "addr:city": "CALLENSBURG", "addr:country": "US", "addr:full": "450A MAIN ST", "addr:postcode": "16213", "addr:state": "PA", "brand": "USPS", "brand:wikidata": "Q668687", "collection_times": "Mo-Fr 12:10; Sa 11:25", "name": "USPS COLLECTION BOX - PO LOBBY", "note": "ON 12/24 AND 12/31, THIS BOX MAY BE COLLECTED AS EARLY AS 12 NOON.", "ref": "1621300003"}, "type": "Feature"}
{"geometry": {"coordinates": [-79.382941113, 41.213619556], "type": "Point"}, "id": "t9XsHNKNgHb1YCjg3YS4L45sWm8=", "properties": {"@spider": "usps_collection_boxes", "addr:city": "CLARION", "addr:country": "US", "addr:full": "626 MAIN ST", "addr:postcode": "16214", "addr:state": "PA", "brand": "USPS", "brand:wikidata": "Q668687", "collection_times": "Mo-Fr 17:00; Sa 14:30", "name": "USPS COLLECTION BOX - BLUE BOX", "note": "ON 12/24 AND 12/31, THIS BOX MAY BE COLLECTED AS EARLY AS 12 NOON.", "ref": "1621400003"}, "type": "Feature"}
{"geometry": {"coordinates": [-79.382941113, 41.213619556], "type": "Point"}, "id": "OCdYT2P9_ehDwZmP5XZmKBx2MdY=", "properties": {"@spider": "usps_collection_boxes", "addr:city": "CLARION", "addr:country": "US", "addr:full": "626 MAIN ST", "addr:postcode": "16214", "addr:state": "PA", "brand": "USPS", "brand:wikidata": "Q668687", "collection_times": "Mo-Fr 17:00; Sa 14:30", "name": "USPS COLLECTION BOX - BLUE BOX", "note": "ON 12/24 AND 12/31, THIS BOX MAY BE COLLECTED AS EARLY AS 12 NOON.", "ref": "1621400004"}, "type": "Feature"}
{"geometry": {"coordinates": [-79.382941113, 41.213619556], "type": "Point"}, "id": "6IeU56ej1c99pmXwjsk3fOEvBYE=", "properties": {"@spider": "usps_collection_boxes", "addr:city": "CLARION", "addr:country": "US", "addr:full": "626 MAIN ST", "addr:postcode": "16214", "addr:state": "PA", "brand": "USPS", "brand:wikidata": "Q668687", "collection_times": "Mo-Fr 17:00; Sa 14:30", "name": "USPS COLLECTION BOX - BLUE BOX", "note": "ON 12/24 AND 12/31, THIS BOX MAY BE COLLECTED AS EARLY AS 12 NOON.", "ref": "1621400005"}, "type": "Feature"}
{"geometry": {"coordinates": [-79.3874814, 41.21535], "type": "Point"}, "id": "0-G_941uCnxHZk-dYyFxD4mBgwo=", "properties": {"@spider": "usps_collection_boxes", "addr:city": "CLARION", "addr:country": "US", "addr:full": "340 MAIN ST", "addr:postcode": "16214", "addr:state": "PA", "brand": "USPS", "brand:wikidata": "Q668687", "collection_times": "Mo-Fr 14:30; Sa 12:30", "name": "USPS COLLECTION BOX - BLUE BOX", "note": "ON 12/24 AND 12/31, THIS BOX MAY BE COLLECTED AS EARLY AS 12 NOON.", "ref": "1621400009"}, "type": "Feature"}
{"geometry": {"coordinates": [-79.3890482, 41.215972], "type": "Point"}, "id": "RaQ5hPDW1TMxFriB_26kvoM8ue0=", "properties": {"@spider": "usps_collection_boxes", "addr:city": "CLARION", "addr:country": "US", "addr:full": "306 MAIN ST", "addr:postcode": "16214", "addr:state": "PA", "brand": "USPS", "brand:wikidata": "Q668687", "collection_times": "Mo-Fr 14:30; Sa 12:00", "name": "USPS COLLECTION BOX - BLUE BOX", "note": "ON 12/24 AND 12/31, THIS BOX MAY BE COLLECTED AS EARLY AS 12 NOON.", "ref": "1621400010"}, "type": "Feature"}
{"geometry": {"coordinates": [-79.3946563, 41.194042], "type": "Point"}, "id": "bFPl3cfF_Asne66CAy6VFk5txKc=", "properties": {"@spider": "usps_collection_boxes", "addr:city": "CLARION", "addr:country": "US", "addr:full": "22631 ROUTE 68", "addr:postcode": "16214", "addr:state": "PA", "brand": "USPS", "brand:wikidata": "Q668687", "collection_times": "Mo-Fr 09:45; Sa 09:30", "name": "USPS COLLECTION BOX - BLUE BOX", "ref": "1621400013"}, "type": "Feature"}
{"geometry": {"coordinates": [-79.3788366, 41.2123], "type": "Point"}, "id": "ZMmrK6imzc7syvDB0y2OH6AqXcU=", "properties": {"@spider": "usps_collection_boxes", "addr:city": "CLARION", "addr:country": "US", "addr:full": "849 E MAIN ST", "addr:postcode": "16214", "addr:state": "PA", "brand": "USPS", "brand:wikidata": "Q668687", "collection_times": "Mo-Fr 13:15; Sa 12:30", "name": "USPS COLLECTION BOX - BLUE BOX", "note": "ON 12/24 AND 12/31, THIS BOX MAY BE COLLECTED AS EARLY AS 12 NOON.", "ref": "1621400014"}, "type": "Feature"}
{"geometry": {"coordinates": [-79.3818139, 41.210368], "type": "Point"}, "id": "nm774iB-Svb8Mncqi_2sedTRugs=", "properties": {"@spider": "usps_collection_boxes", "addr:city": "CLARION", "addr:country": "US", "addr:full": "744 SOUTH ST", "addr:postcode": "16214", "addr:state": "PA", "brand": "USPS", "brand:wikidata": "Q668687", "collection_times": "Mo-Fr 14:00; Sa 13:00", "name": "USPS COLLECTION BOX - BLUE BOX", "note": "ON 12/24 AND 12/31, THIS BOX MAY BE COLLECTED AS EARLY AS 12 NOON.", "ref": "1621400019"}, "type": "Feature"}
{"geometry": {"coordinates": [-79.3866436, 41.207527], "type": "Point"}, "id": "-GdRC1N1-XS08aHTdaN1fhLBVBE=", "properties": {"@spider": "usps_collection_boxes", "addr:city": "CLARION", "addr:country": "US", "addr:full": "214 S 7TH AVE", "addr:postcode": "16214", "addr:state": "PA", "brand": "USPS", "brand:wikidata": "Q668687", "collection_times": "Mo-Fr 13:30; Sa 12:00", "name": "USPS COLLECTION BOX - BLUE BOX", "note": "ON 12/24 AND 12/31, THIS BOX MAY BE COLLECTED AS EARLY AS 12 NOON.", "ref": "1621400020"}, "type": "Feature"}
{"geometry": {"coordinates": [-79.3839468, 41.213968], "type": "Point"}, "id": "w_ymKW5LlXuGdFTCN_EAzK7BLPE=", "properties": {"@spider": "usps_collection_boxes", "addr:city": "CLARION", "addr:country": "US", "addr:full": "600 MAIN ST", "addr:postcode": "16214", "addr:state": "PA", "brand": "USPS", "brand:wikidata": "Q668687", "collection_times": "Mo-Fr 14:30; Sa 12:30", "name": "USPS COLLECTION BOX - BLUE BOX", "note": "ON 12/24 AND 12/31, THIS BOX MAY BE COLLECTED AS EARLY AS 12 NOON.", "ref": "1621400024"}, "type": "Feature"}
{"geometry": {"coordinates": [-79.3855859, 41.214626], "type": "Point"}, "id": "_Gco_gepH_ZVD7nGrSslIfLXJEU=", "properties": {"@spider": "usps_collection_boxes", "addr:city": "CLARION", "addr:country": "US", "addr:full": "500 MAIN ST", "addr:postcode": "16214", "addr:state": "PA", "brand": "USPS", "brand:wikidata": "Q668687", "collection_times": "Mo-Fr 14:30; Sa 12:30", "name": "USPS COLLECTION BOX - BLUE BOX", "note": "ON 12/24 AND 12/31, THIS BOX MAY BE COLLECTED AS EARLY AS 12 NOON.", "ref": "1621400025"}, "type": "Feature"}
{"geometry": {"coordinates": [-79.3916921, 41.215815], "type": "Point"}, "id": "dkW6gQbpo1JMmr5RFU7rwe2Z7MU=", "properties": {"@spider": "usps_collection_boxes", "addr:city": "CLARION", "addr:country": "US", "addr:full": "36 S 2ND AVE", "addr:postcode": "16214", "addr:state": "PA", "brand": "USPS", "brand:wikidata": "Q668687", "collection_times": "Mo-Sa 10:45", "name": "USPS COLLECTION BOX - BLUE BOX", "ref": "1621400026"}, "type": "Feature"}
{"geometry": {"coordinates": [-79.3954555, 41.188443], "type": "Point"}, "id": "9XREfVE4VuFfiZKJHUxdjdIxDhU=", "properties": {"@spider": "usps_collection_boxes", "addr:city": "CLARION", "addr:country": "US", "addr:full": "63 PERKINS RD", "addr:postcode": "16214", "addr:state": "PA", "brand": "USPS", "brand:wikidata": "Q668687", "collection_times": "Mo-Sa 08:30", "name": "USPS COLLECTION BOX - BLUE BOX", "ref": "1621400027"}, "type": "Feature"}
{"geometry": {"coordinates": [-79.382941113, 41.213619556], "type": "Point"}, "id": "H8DFV8cDg1IyTAP4ljo7OZKYgIM=", "properties": {"@spider": "usps_collection_boxes", "addr:city": "CLARION", "addr:country": "US", "addr:full": "626 MAIN ST", "addr:postcode": "16214", "addr:state": "PA", "brand": "USPS", "brand:wikidata": "Q668687", "collection_times": "Mo-Fr 17:00; Sa 14:30", "name": "USPS COLLECTION BOX - PO LOBBY", "note": "ON 12/24 AND 12/31, THIS BOX MAY BE COLLECTED AS EARLY AS 12 NOON.", "ref": "1621400028"}, "type": "Feature"}
{"geometry": {"coordinates": [-79.3771458, 41.201276], "type": "Point"}, "id": "4KqswZrJfk5h7BUZeG1qcov4Tks=", "properties": {"@spider": "usps_collection_boxes", "addr:city": "CLARION", "addr:country": "US", "addr:full": "301 GRAND AVENUE EXT", "addr:postcode": "16214", "addr:state": "PA", "brand": "USPS", "brand:wikidata": "Q668687", "collection_times": "Mo-Fr 12:00; Sa 10:00", "name": "USPS COLLECTION BOX - BLUE BOX", "ref": "1621400029"}, "type": "Feature"}
{"geometry": {"coordinates": [-79.3791444, 41.211355], "type": "Point"}, "id": "sGtcRFyFbI2-79kmmuFd5DNdWTQ=", "properties": {"@spider": "usps_collection_boxes", "addr:city": "CLARION", "addr:country": "US", "addr:full": "29 S ARNOLD AVE", "addr:postcode": "16214", "addr:state": "PA", "brand": "USPS", "brand:wikidata": "Q668687", "collection_times": "Mo-Sa 13:15", "name": "USPS COLLECTION BOX - BLUE BOX", "note": "ON 12/24 AND 12/31, THIS BOX MAY BE COLLECTED AS EARLY AS 12 NOON.", "ref": "1621400030"}, "type": "Feature"}
{"geometry": {"coordinates": [-79.382941113, 41.213619556], "type": "Point"}, "id": "9uE1XE6JTTTVf2T5RwC66vjl_nA=", "properties": {"@spider": "usps_collection_boxes", "addr:city": "CLARION", "addr:country": "US", "addr:full": "626 MAIN ST", "addr:postcode": "16214", "addr:state": "PA", "brand": "USPS", "brand:wikidata": "Q668687", "collection_times": "Mo-Fr 17:00; Sa 12:00", "name": "USPS COLLECTION BOX - PO LOBBY", "note": "ON 12/24 AND 12/31, THIS BOX MAY BE COLLECTED AS EARLY AS 12 NOON.", "ref": "1621400034"}, "type": "Feature"}
{"geometry": {"coordinates": [-79.203921915, 41.328953214], "type": "Point"}, "id": "i_328zIKZGfKo8maktk-n6-og4U=", "properties": {"@spider": "usps_collection_boxes", "addr:city": "COOKSBURG", "addr:country": "US", "addr:full": "115 RIVERSIDE DR", "addr:postcode": "16217", "addr:state": "PA", "brand": "USPS", "brand:wikidata": "Q668687", "collection_times": "Mo-Fr 11:55; Sa 11:15", "name": "USPS COLLECTION BOX - BLUE BOX", "ref": "1621700000"}, "type": "Feature"}
{"geometry": {"coordinates": [-79.203921915, 41.328953214], "type": "Point"}, "id": "GlJ0AmB2uv1FpICiDm0Htf3EdbU=", "properties": {"@spider": "usps_collection_boxes", "addr:city": "COOKSBURG", "addr:country": "US", "addr:full": "115 RIVERSIDE DR", "addr:postcode": "16217", "addr:state": "PA", "brand": "USPS", "brand:wikidata": "Q668687", "collection_times": "Mo-Fr 11:55; Sa 11:15", "name": "USPS COLLECTION BOX - PO LOBBY", "ref": "1621700001"}, "type": "Feature"}
{"geometry": {"coordinates": [-79.203921915, 41.328953214], "type": "Point"}, "id": "5KgY6bpQ64tvXAWs5Hpu69aXyOI=", "properties": {"@spider": "usps_collection_boxes", "addr:city": "COOKSBURG", "addr:country": "US", "addr:full": "115 RIVERSIDE DR", "addr:postcode": "16217", "addr:state": "PA", "brand": "USPS", "brand:wikidata": "Q668687", "collection_times": "Mo-Fr 11:55; Sa 11:15", "name": "USPS COLLECTION BOX - PO LOBBY", "ref": "1621700004"}, "type": "Feature"}
{"geometry": {"coordinates": [-79.588724843, 40.888131583], "type": "Point"}, "id": "eLQKe3lKDm0cQZXJz_oVxoXxMus=", "properties": {"@spider": "usps_collection_boxes", "addr:city": "COWANSVILLE", "addr:country": "US", "addr:full": "827 STATE ROUTE 268", "addr:postcode": "16218", "addr:state": "PA", "brand": "USPS", "brand:wikidata": "Q668687", "collection_times": "Mo-Fr 16:00; Sa 12:00", "name": "USPS COLLECTION BOX - BLUE BOX", "note": "ON 12/24 AND 12/31, THIS BOX MAY BE COLLECTED AS EARLY AS 12 NOON.", "ref": "1621800000"}, "type": "Feature"}
{"geometry": {"coordinates": [-79.588724843, 40.888131583], "type": "Point"}, "id": "GjDNDd9kswLhj5CPaiP-HnIYUQY=", "properties": {"@spider": "usps_collection_boxes", "addr:city": "COWANSVILLE", "addr:country": "US", "addr:full": "827 STATE ROUTE 268", "addr:postcode": "16218", "addr:state": "PA", "brand": "USPS", "brand:wikidata": "Q668687", "collection_times": "Mo-Fr 16:00; Sa 12:00", "name": "USPS COLLECTION BOX - PO LOBBY", "note": "ON 12/24 AND 12/31, THIS BOX MAY BE COLLECTED AS EARLY AS 12 NOON.", "ref": "1621800001"}, "type": "Feature"}
{"geometry": {"coordinates": [-79.588724843, 40.888131583], "type": "Point"}, "id": "UtiXeg9TKDTiGIzh7k_qFwcHDtU=", "properties": {"@spider": "usps_collection_boxes", "addr:city": "COWANSVILLE", "addr:country": "US", "addr:full": "827 STATE ROUTE 268", "addr:postcode": "16218", "addr:state": "PA", "brand": "USPS", "brand:wikidata": "Q668687", "collection_times": "Mo-Fr 16:00; Sa 12:00", "name": "USPS COLLECTION BOX - PO LOBBY", "note": "ON 12/24 AND 12/31, THIS BOX MAY BE COLLECTED AS EARLY AS 12 NOON.", "ref": "1621800003"}, "type": "Feature"}
{"geometry": {"coordinates": [-79.257819171, 41.397443236], "type": "Point"}, "id": "D_rdYLeBHbYzdufDejpLCYEuVlI=", "properties": {"@spider": "usps_collection_boxes", "addr:city": "CROWN", "addr:country": "US", "addr:full": "36044 ROUTE 66", "addr:postcode": "16220", "addr:state": "PA", "brand": "USPS", "brand:wikidata": "Q668687", "collection_times": "Mo-Fr 10:50; Sa 11:45", "name": "USPS COLLECTION BOX - BLUE BOX", "ref": "1622000000"}, "type": "Feature"}
{"geometry": {"coordinates": [-79.257819171, 41.397443236], "type": "Point"}, "id": "p1dy2Eew6KlWORBKh2_8oxvCrZc=", "properties": {"@spider": "usps_collection_boxes", "addr:city": "CROWN", "addr:country": "US", "addr:full": "36044 ROUTE 66", "addr:postcode": "16220", "addr:state": "PA", "brand": "USPS", "brand:wikidata": "Q668687", "collection_times": "Mo-Fr 10:50; Sa 11:45", "name": "USPS COLLECTION BOX - PO LOBBY", "ref": "1622000001"}, "type": "Feature"}
{"geometry": {"coordinates": [-79.257819171, 41.397443236], "type": "Point"}, "id": "z75wfsiBA5neXhcwopg3V4tj77Q=", "properties": {"@spider": "usps_collection_boxes", "addr:city": "CROWN", "addr:country": "US", "addr:full": "36044 ROUTE 66", "addr:postcode": "16220", "addr:state": "PA", "brand": "USPS", "brand:wikidata": "Q668687", "collection_times": "Mo-Fr 10:50; Sa 11:50", "name": "USPS COLLECTION BOX - PO LOBBY", "ref": "1622000003"}, "type": "Feature"}
{"geometry": {"coordinates": [-79.242419731, 40.880095713], "type": "Point"}, "id": "CCdStbnfcksVrOy7tPznnfZzJPU=", "properties": {"@spider": "usps_collection_boxes", "addr:city": "DAYTON", "addr:country": "US", "addr:full": "107 W MAIN ST", "addr:postcode": "16222", "addr:state": "PA", "brand": "USPS", "brand:wikidata": "Q668687", "collection_times": "Mo-Fr 16:30; Sa 11:45", "name": "USPS COLLECTION BOX - BLUE BOX", "note": "ON 12/24 AND 12/31, THIS BOX MAY BE COLLECTED AS EARLY AS 12 NOON.", "ref": "1622200000"}, "type": "Feature"}
{"geometry": {"coordinates": [-79.242419731, 40.880095713], "type": "Point"}, "id": "KvMBIhpJqywU8atBBe_EChLOdvI=", "properties": {"@spider": "usps_collection_boxes", "addr:city": "DAYTON", "addr:country": "US", "addr:full": "107 W MAIN ST", "addr:postcode": "16222", "addr:state": "PA", "brand": "USPS", "brand:wikidata": "Q668687", "collection_times": "Mo-Fr 16:30; Sa 11:45", "name": "USPS COLLECTION BOX - PO LOBBY", "note": "ON 12/24 AND 12/31, THIS BOX MAY BE COLLECTED AS EARLY AS 12 NOON.", "ref": "1622200001"}, "type": "Feature"}
{"geometry": {"coordinates": [-79.242419731, 40.880095713], "type": "Point"}, "id": "90SZAXbCa_CCp8JL2dwXsFdcv7c=", "properties": {"@spider": "usps_collection_boxes", "addr:city": "DAYTON", "addr:country": "US", "addr:full": "107 W MAIN ST", "addr:postcode": "16222", "addr:state": "PA", "brand": "USPS", "brand:wikidata": "Q668687", "collection_times": "Mo-Fr 16:15; Sa 11:30", "name": "USPS COLLECTION BOX - PO LOBBY", "note": "ON 12/24 AND 12/31, THIS BOX MAY BE COLLECTED AS EARLY AS 12 NOON.", "ref": "1622200003"}, "type": "Feature"}
{"geometry": {"coordinates": [-79.370648565, 40.902506292], "type": "Point"}, "id": "7Tn5zRqq789BUac6vaAU3qt6Gic=", "properties": {"@spider": "usps_collection_boxes", "addr:city": "DISTANT", "addr:country": "US", "addr:full": "3273 STATE ROUTE 28 AND 66", "addr:postcode": "16223", "addr:state": "PA", "brand": "USPS", "brand:wikidata": "Q668687", "collection_times": "Mo-Fr 16:40; Sa 14:55", "name": "USPS COLLECTION BOX - BLUE BOX", "note": "ON 12/24 AND 12/31, THIS BOX MAY BE COLLECTED AS EARLY AS 12 NOON.", "ref": "1622300000"}, "type": "Feature"}
{"geometry": {"coordinates": [-79.370648565, 40.902506292], "type": "Point"}, "id": "Ftk0haFQOoYz0MJuo15ssgwOHqk=", "properties": {"@spider": "usps_collection_boxes", "addr:city": "DISTANT", "addr:country": "US", "addr:full": "3273 STATE ROUTE 28 AND 66", "addr:postcode": "16223", "addr:state": "PA", "brand": "USPS", "brand:wikidata": "Q668687", "collection_times": "Mo-Fr 16:40; Sa 14:55", "name": "USPS COLLECTION BOX - PO LOBBY", "note": "ON 12/24 AND 12/31, THIS BOX MAY BE COLLECTED AS EARLY AS 12 NOON.", "ref": "1622300001"}, "type": "Feature"}
{"geometry": {"coordinates": [-79.370648565, 40.902506292], "type": "Point"}, "id": "BCvrNSTCWZVMzHr7vMkdVzc0MH4=", "properties": {"@spider": "usps_collection_boxes", "addr:city": "DISTANT", "addr:country": "US", "addr:full": "3273 STATE ROUTE 28 AND 66", "addr:postcode": "16223", "addr:state": "PA", "brand": "USPS", "brand:wikidata": "Q668687", "collection_times": "Mo-Fr 16:40; Sa 14:55", "name": "USPS COLLECTION BOX - PO LOBBY", "note": "ON 12/24 AND 12/31, THIS BOX MAY BE COLLECTED AS EARLY AS 12 NOON.", "ref": "1622300003"}, "type": "Feature"}
{"geometry": {"coordinates": [-79.314549131, 41.00716012], "type": "Point"}, "id": "ThzeBy9HTX6FZ_ZT3KmHDo5yeSA=", "properties": {"@spider": "usps_collection_boxes", "addr:city": "FAIRMOUNT CITY", "addr:country": "US", "addr:full": "54 MAPLE AVE", "addr:postcode": "16224", "addr:state": "PA", "brand": "USPS", "brand:wikidata": "Q668687", "collection_times": "Mo-Fr 16:00; Sa 10:15", "name": "USPS COLLECTION BOX - BLUE BOX", "note": "ON 12/24 AND 12/31, THIS BOX MAY BE COLLECTED AS EARLY AS 12 NOON.", "ref": "1622400000"}, "type": "Feature"}
{"geometry": {"coordinates": [-79.314549131, 41.00716012], "type": "Point"}, "id": "joXRV4zO4GwH-Wv0HOpekbaCsMM=", "properties": {"@spider": "usps_collection_boxes", "addr:city": "FAIRMOUNT CITY", "addr:country": "US", "addr:full": "54 MAPLE AVE", "addr:postcode": "16224", "addr:state": "PA", "brand": "USPS", "brand:wikidata": "Q668687", "collection_times": "Mo-Fr 16:00; Sa 10:15", "name": "USPS COLLECTION BOX - PO LOBBY", "note": "ON 12/24 AND 12/31, THIS BOX MAY BE COLLECTED AS EARLY AS 12 NOON.", "ref": "1622400001"}, "type": "Feature"}
{"geometry": {"coordinates": [-79.314549131, 41.00716012], "type": "Point"}, "id": "Rub4AXCy4VJ05y0HSEnkhR_yuQA=", "properties": {"@spider": "usps_collection_boxes", "addr:city": "FAIRMOUNT CITY", "addr:country": "US", "addr:full": "54 MAPLE AVE", "addr:postcode": "16224", "addr:state": "PA", "brand": "USPS", "brand:wikidata": "Q668687", "collection_times": "Mo-Fr 16:00; Sa 10:15", "name": "USPS COLLECTION BOX - PO LOBBY", "note": "ON 12/24 AND 12/31, THIS BOX MAY BE COLLECTED AS EARLY AS 12 NOON.", "ref": "1622400003"}, "type": "Feature"}
{"geometry": {"coordinates": [-79.532358907, 40.769454417], "type": "Point"}, "id": "etK3FEL7-NEY1ZGCB97AL4226q0=", "properties": {"@spider": "usps_collection_boxes", "addr:city": "FORD CITY", "addr:country": "US", "addr:full": "824 4TH AVE", "addr:postcode": "16226", "addr:state": "PA", "brand": "USPS", "brand:wikidata": "Q668687", "collection_times": "Mo-Fr 17:00; Sa 15:00", "name": "USPS COLLECTION BOX - PO LOBBY", "note": "ON 12/24 AND 12/31, THIS BOX MAY BE COLLECTED AS EARLY AS 12 NOON.", "ref": "1622600000"}, "type": "Feature"}
{"geometry": {"coordinates": [-79.5371658, 40.765291], "type": "Point"}, "id": "Rqkz1R6EsaLjgJtK4TdtB96SDm4=", "properties": {"@spider": "usps_collection_boxes", "addr:city": "FORD CITY", "addr:country": "US", "addr:full": "436 3RD AVE", "addr:postcode": "16226", "addr:state": "PA", "brand": "USPS", "brand:wikidata": "Q668687", "collection_times": "Mo-Sa 11:00", "name": "USPS COLLECTION BOX - BLUE BOX", "ref": "1622600003"}, "type": "Feature"}
{"geometry": {"coordinates": [-79.5255895, 40.777376], "type": "Point"}, "id": "LwCjGJ0Wo6AKGJUfCLKTWZLavKs=", "properties": {"@spider": "usps_collection_boxes", "addr:city": "FORD CITY", "addr:country": "US", "addr:full": "1427 4TH AVE", "addr:postcode": "16226", "addr:state": "PA", "brand": "USPS", "brand:wikidata": "Q668687", "collection_times": "Mo-Sa 10:00", "name": "USPS COLLECTION BOX - BLUE BOX", "ref": "1622600007"}, "type": "Feature"}
{"geometry": {"coordinates": [-79.5268486, 40.76479], "type": "Point"}, "id": "XOnlMHpRVsXI94gfvzznsIFvz-4=", "properties": {"@spider": "usps_collection_boxes", "addr:city": "FORD CITY", "addr:country": "US", "addr:full": "410 MAIN ST", "addr:postcode": "16226", "addr:state": "PA", "brand": "USPS", "brand:wikidata": "Q668687", "collection_times": "Mo-Sa 09:00", "name": "USPS COLLECTION BOX - BLUE BOX", "ref": "1622600013"}, "type": "Feature"}
{"geometry": {"coordinates": [-79.5209219, 40.779146], "type": "Point"}, "id": "4SABuUD_8YlR9D7HnJ_LQAWqDwc=", "properties": {"@spider": "usps_collection_boxes", "addr:city": "FORD CITY", "addr:country": "US", "addr:full": "25 MANOR PLZ", "addr:postcode": "16226", "addr:state": "PA", "brand": "USPS", "brand:wikidata": "Q668687", "collection_times": "Mo-Sa 08:30", "name": "USPS COLLECTION BOX - BLUE BOX", "ref": "1622600018"}, "type": "Feature"}
{"geometry": {"coordinates": [-79.5308441, 40.76934], "type": "Point"}, "id": "GNL5uDMqhG3qFv8ssZJi1K5lyKQ=", "properties": {"@spider": "usps_collection_boxes", "addr:city": "FORD CITY", "addr:country": "US", "addr:full": "838 5TH AVE", "addr:postcode": "16226", "addr:state": "PA", "brand": "USPS", "brand:wikidata": "Q668687", "collection_times": "Mo-Sa 10:00", "name": "USPS COLLECTION BOX - BLUE BOX", "ref": "1622600020"}, "type": "Feature"}
{"geometry": {"coordinates": [-79.5296386, 40.77063], "type": "Point"}, "id": "ilZHMyop60Xk4snvJVi8GzVyR5A=", "properties": {"@spider": "usps_collection_boxes", "addr:city": "FORD CITY", "addr:country": "US", "addr:full": "938 5TH AVE", "addr:postcode": "16226", "addr:state": "PA", "brand": "USPS", "brand:wikidata": "Q668687", "collection_times": "Mo-Sa 09:30", "name": "USPS COLLECTION BOX - BLUE BOX", "ref": "1622600022"}, "type": "Feature"}
{"geometry": {"coordinates": [-79.531487, 40.770507], "type": "Point"}, "id": "JJKjCc5PII30GSmZY6uBfLRVsxo=", "properties": {"@spider": "usps_collection_boxes", "addr:city": "FORD CITY", "addr:country": "US", "addr:full": "400 FORD ST", "addr:postcode": "16226", "addr:state": "PA", "brand": "USPS", "brand:wikidata": "Q668687", "collection_times": "Mo-Fr 15:00; Sa 09:00", "name": "USPS COLLECTION BOX - BLUE BOX", "note": "ON 12/24 AND 12/31, THIS BOX MAY BE COLLECTED AS EARLY AS 12 NOON.", "ref": "1622600023"}, "type": "Feature"}
{"geometry": {"coordinates": [-79.532358907, 40.769454417], "type": "Point"}, "id": "Fe9QBVqRdFTfrmh3piAZ0LZhlSs=", "properties": {"@spider": "usps_collection_boxes", "addr:city": "FORD CITY", "addr:country": "US", "addr:full": "824 4TH AVE", "addr:postcode": "16226", "addr:state": "PA", "brand": "USPS", "brand:wikidata": "Q668687", "collection_times": "Mo-Sa 15:00", "name": "USPS COLLECTION BOX - BLUE BOX", "note": "ON 12/24 AND 12/31, THIS BOX MAY BE COLLECTED AS EARLY AS 12 NOON.", "ref": "1622600026"}, "type": "Feature"}
{"geometry": {"coordinates": [-79.532358907, 40.769454417], "type": "Point"}, "id": "B-LEQzBwakck7vyE9gPQ2S8AUVU=", "properties": {"@spider": "usps_collection_boxes", "addr:city": "FORD CITY", "addr:country": "US", "addr:full": "824 4TH AVE", "addr:postcode": "16226", "addr:state": "PA", "brand": "USPS", "brand:wikidata": "Q668687", "collection_times": "Mo-Fr 17:00; Sa 12:00", "name": "USPS COLLECTION BOX - PO LOBBY", "note": "ON 12/24 AND 12/31, THIS BOX MAY BE COLLECTED AS EARLY AS 12 NOON.", "ref": "1622600028"}, "type": "Feature"}
{"geometry": {"coordinates": [-79.685889013, 40.673693125], "type": "Point"}, "id": "2cK6MQKUuA7vvuoDPTFsOHLPVZk=", "properties": {"@spider": "usps_collection_boxes", "addr:city": "FREEPORT", "addr:country": "US", "addr:full": "415 HIGH ST", "addr:postcode": "16229", "addr:state": "PA", "brand": "USPS", "brand:wikidata": "Q668687", "collection_times": "Mo-Fr 16:15; Sa 12:15", "name": "USPS COLLECTION BOX - BLUE BOX", "note": "ON 12/24 AND 12/31, THIS BOX MAY BE COLLECTED AS EARLY AS 12 NOON.", "ref": "1622900000"}, "type": "Feature"}
{"geometry": {"coordinates": [-79.6894373, 40.672781], "type": "Point"}, "id": "bysr2uGXFEf5IxhHi2YVx6BDThs=", "properties": {"@spider": "usps_collection_boxes", "addr:city": "FREEPORT", "addr:country": "US", "addr:full": "202 HIGH ST", "addr:postcode": "16229", "addr:state": "PA", "brand": "USPS", "brand:wikidata": "Q668687", "collection_times": "Mo-Sa 13:00", "name": "USPS COLLECTION BOX - BLUE BOX", "note": "ON 12/24 AND 12/31, THIS BOX MAY BE COLLECTED AS EARLY AS 12 NOON.", "ref": "1622900004"}, "type": "Feature"}
{"geometry": {"coordinates": [-79.6851845, 40.672755], "type": "Point"}, "id": "yz_qDf9AXyx-6PptPBFMs072tuc=", "properties": {"@spider": "usps_collection_boxes", "addr:city": "FREEPORT", "addr:country": "US", "addr:full": "201 5TH ST", "addr:postcode": "16229", "addr:state": "PA", "brand": "USPS", "brand:wikidata": "Q668687", "collection_times": "Mo-Sa 09:30", "name": "USPS COLLECTION BOX - BLUE BOX", "ref": "1622900005"}, "type": "Feature"}
{"geometry": {"coordinates": [-79.6869571, 40.676497], "type": "Point"}, "id": "70TWUvLCmLMa3ylS26M-9XnDHH8=", "properties": {"@spider": "usps_collection_boxes", "addr:city": "FREEPORT", "addr:country": "US", "addr:full": "129 STEWART ST", "addr:postcode": "16229", "addr:state": "PA", "brand": "USPS", "brand:wikidata": "Q668687", "collection_times": "Mo-Sa 09:00", "name": "USPS COLLECTION BOX - BLUE BOX", "ref": "1622900006"}, "type": "Feature"}
{"geometry": {"coordinates": [-79.6823443, 40.674425], "type": "Point"}, "id": "IWPc1Lyxp_3EIcT0RwhuvLgic88=", "properties": {"@spider": "usps_collection_boxes", "addr:city": "FREEPORT", "addr:country": "US", "addr:full": "614 HIGH ST", "addr:postcode": "16229", "addr:state": "PA", "brand": "USPS", "brand:wikidata": "Q668687", "collection_times": "Mo-Sa 11:00", "name": "USPS COLLECTION BOX - BLUE BOX", "ref": "1622900009"}, "type": "Feature"}
{"geometry": {"coordinates": [-79.6878279, 40.672172], "type": "Point"}, "id": "u1_Xw_zxiVjCwq98x1Dc2P8hGTY=", "properties": {"@spider": "usps_collection_boxes", "addr:city": "FREEPORT", "addr:country": "US", "addr:full": "223 MARKET ST", "addr:postcode": "16229", "addr:state": "PA", "brand": "USPS", "brand:wikidata": "Q668687", "collection_times": "Mo-Sa 13:00", "name": "USPS COLLECTION BOX - BLUE BOX", "note": "ON 12/24 AND 12/31, THIS BOX MAY BE COLLECTED AS EARLY AS 12 NOON.", "ref": "1622900011"}, "type": "Feature"}
{"geometry": {"coordinates": [-79.6893261, 40.676289], "type": "Point"}, "id": "6fa26FJ_JU8MCjINSRkrIOqMlnE=", "properties": {"@spider": "usps_collection_boxes", "addr:city": "FREEPORT", "addr:country": "US", "addr:full": "222 BUFFALO ST", "addr:postcode": "16229", "addr:state": "PA", "brand": "USPS", "brand:wikidata": "Q668687", "collection_times": "Mo-Sa 13:00", "name": "USPS COLLECTION BOX - BLUE BOX", "note": "ON 12/24 AND 12/31, THIS BOX MAY BE COLLECTED AS EARLY AS 12 NOON.", "ref": "1622900012"}, "type": "Feature"}
{"geometry": {"coordinates": [-79.685889013, 40.673693125], "type": "Point"}, "id": "Wye1mXGsR1_tVRbhzJ_pdCbI7IE=", "properties": {"@spider": "usps_collection_boxes", "addr:city": "FREEPORT", "addr:country": "US", "addr:full": "415 HIGH ST", "addr:postcode": "16229", "addr:state": "PA", "brand": "USPS", "brand:wikidata": "Q668687", "collection_times": "Mo-Fr 16:15; Sa 12:15", "name": "USPS COLLECTION BOX - PO LOBBY", "note": "ON 12/24 AND 12/31, THIS BOX MAY BE COLLECTED AS EARLY AS 12 NOON.", "ref": "1622900015"}, "type": "Feature"}
{"geometry": {"coordinates": [-79.685706, 40.674512], "type": "Point"}, "id": "EpUIPjQYnCLf0oOZDfrvOtRJRs4=", "properties": {"@spider": "usps_collection_boxes", "addr:city": "FREEPORT", "addr:country": "US", "addr:full": "500 FRANKLIN ST", "addr:postcode": "16229", "addr:state": "PA", "brand": "USPS", "brand:wikidata": "Q668687", "collection_times": "Mo-Sa 09:15", "name": "USPS COLLECTION BOX - BLUE BOX", "ref": "1622900016"}, "type": "Feature"}
{"geometry": {"coordinates": [-79.685889013, 40.673693125], "type": "Point"}, "id": "1joAsGZdC0rM5G4oXCKnjBIWKxA=", "properties": {"@spider": "usps_collection_boxes", "addr:city": "FREEPORT", "addr:country": "US", "addr:full": "415 HIGH ST", "addr:postcode": "16229", "addr:state": "PA", "brand": "USPS", "brand:wikidata": "Q668687", "collection_times": "Mo-Fr 16:30; Sa 12:00", "name": "USPS COLLECTION BOX - PO LOBBY", "note": "ON 12/24 AND 12/31, THIS BOX MAY BE COLLECTED AS EARLY AS 12 NOON.", "ref": "1622900018"}, "type": "Feature"}
{"geometry": {"coordinates": [-79.273747042, 41.019161479], "type": "Point"}, "id": "kpUnWRuUObXaB495zFG4DtT2zHU=", "properties": {"@spider": "usps_collection_boxes", "addr:city": "HAWTHORN", "addr:country": "US", "addr:full": "3977 BROOKVILLE ST", "addr:postcode": "16230", "addr:state": "PA", "brand": "USPS", "brand:wikidata": "Q668687", "collection_times": "Mo-Fr 11:55; Sa 10:45", "name": "USPS COLLECTION BOX - BLUE BOX", "ref": "1623000000"}, "type": "Feature"}
{"geometry": {"coordinates": [-79.273747042, 41.019161479], "type": "Point"}, "id": "6Wnvp_Zq9pcUHYL_IBckF_ZM9FQ=", "properties": {"@spider": "usps_collection_boxes", "addr:city": "HAWTHORN", "addr:country": "US", "addr:full": "3977 BROOKVILLE ST", "addr:postcode": "16230", "addr:state": "PA", "brand": "USPS", "brand:wikidata": "Q668687", "collection_times": "Mo-Fr 11:55; Sa 10:45", "name": "USPS COLLECTION BOX - PO LOBBY", "ref": "1623000001"}, "type": "Feature"}
{"geometry": {"coordinates": [-79.273747042, 41.019161479], "type": "Point"}, "id": "Sr5exCzRvSB7jUPYPaenuorBvDc=", "properties": {"@spider": "usps_collection_boxes", "addr:city": "HAWTHORN", "addr:country": "US", "addr:full": "3977 BROOKVILLE ST", "addr:postcode": "16230", "addr:state": "PA", "brand": "USPS", "brand:wikidata": "Q668687", "collection_times": "Mo-Fr 11:55; Sa 10:40", "name": "USPS COLLECTION BOX - PO LOBBY", "ref": "1623000003"}, "type": "Feature"}
{"geometry": {"coordinates": [-79.5365415, 41.236324492], "type": "Point"}, "id": "o2IzCtNUreg8mmPJckbR6xQzoV0=", "properties": {"@spider": "usps_collection_boxes", "addr:city": "KNOX", "addr:country": "US", "addr:full": "523 E RAILROAD ST", "addr:postcode": "16232", "addr:state": "PA", "brand": "USPS", "brand:wikidata": "Q668687", "collection_times": "Mo-Fr 16:30; Sa 11:45", "name": "USPS COLLECTION BOX - BLUE BOX", "note": "ON 12/24 AND 12/31, THIS BOX MAY BE COLLECTED AS EARLY AS 12 NOON.", "ref": "1623200000"}, "type": "Feature"}
{"geometry": {"coordinates": [-79.5365415, 41.236324492], "type": "Point"}, "id": "kkKMVZw7HsyBCKy03OKKRNEz1lQ=", "properties": {"@spider": "usps_collection_boxes", "addr:city": "KNOX", "addr:country": "US", "addr:full": "523 E RAILROAD ST", "addr:postcode": "16232", "addr:state": "PA", "brand": "USPS", "brand:wikidata": "Q668687", "collection_times": "Mo-Fr 16:30; Sa 12:15", "name": "USPS COLLECTION BOX - PO LOBBY", "note": "ON 12/24 AND 12/31, THIS BOX MAY BE COLLECTED AS EARLY AS 12 NOON.", "ref": "1623200002"}, "type": "Feature"}
{"geometry": {"coordinates": [-79.5280312, 41.229908], "type": "Point"}, "id": "fppX2oE176FDVRJYoPwzzFfFtSk=", "properties": {"@spider": "usps_collection_boxes", "addr:city": "KNOX", "addr:country": "US", "addr:full": "8868 ROUTE 338", "addr:postcode": "16232", "addr:state": "PA", "brand": "USPS", "brand:wikidata": "Q668687", "collection_times": "Mo-Sa 12:00", "name": "USPS COLLECTION BOX - BLUE BOX", "ref": "1623200003"}, "type": "Feature"}
{"geometry": {"coordinates": [-79.5365415, 41.236324492], "type": "Point"}, "id": "A4BZSByy5LPd_a2iWW_VWiVmE0Y=", "properties": {"@spider": "usps_collection_boxes", "addr:city": "KNOX", "addr:country": "US", "addr:full": "523 E RAILROAD ST", "addr:postcode": "16232", "addr:state": "PA", "brand": "USPS", "brand:wikidata": "Q668687", "collection_times": "Mo-Fr 17:00; Sa 12:00", "name": "USPS COLLECTION BOX - PO LOBBY", "note": "ON 12/24 AND 12/31, THIS BOX MAY BE COLLECTED AS EARLY AS 12 NOON.", "ref": "1623200005"}, "type": "Feature"}
{"geometry": {"coordinates": [-79.305122126, 41.371025585], "type": "Point"}, "id": "x7KPN3WxwrEfRZlAJKmqrnh6SOE=", "properties": {"@spider": "usps_collection_boxes", "addr:city": "LEEPER", "addr:country": "US", "addr:full": "6815 ROUTE 36", "addr:postcode": "16233", "addr:state": "PA", "brand": "USPS", "brand:wikidata": "Q668687", "collection_times": "Mo-Fr 15:30; Sa 11:30", "name": "USPS COLLECTION BOX - BLUE BOX", "note": "ON 12/24 AND 12/31, THIS BOX MAY BE COLLECTED AS EARLY AS 12 NOON.", "ref": "1623300000"}, "type": "Feature"}
{"geometry": {"coordinates": [-79.305122126, 41.371025585], "type": "Point"}, "id": "grw0YqGDNQHxGhoulvXCYs6Dpi0=", "properties": {"@spider": "usps_collection_boxes", "addr:city": "LEEPER", "addr:country": "US", "addr:full": "6815 ROUTE 36", "addr:postcode": "16233", "addr:state": "PA", "brand": "USPS", "brand:wikidata": "Q668687", "collection_times": "Mo-Fr 15:30; Sa 11:30", "name": "USPS COLLECTION BOX - PO LOBBY", "note": "ON 12/24 AND 12/31, THIS BOX MAY BE COLLECTED AS EARLY AS 12 NOON.", "ref": "1623300001"}, "type": "Feature"}
{"geometry": {"coordinates": [-79.305122126, 41.371025585], "type": "Point"}, "id": "WT2Cu2QDiN1Jzc3hFvO89ybncFk=", "properties": {"@spider": "usps_collection_boxes", "addr:city": "LEEPER", "addr:country": "US", "addr:full": "6815 ROUTE 36", "addr:postcode": "16233", "addr:state": "PA", "brand": "USPS", "brand:wikidata": "Q668687", "collection_times": "Mo-Fr 15:30; Sa 11:30", "name": "USPS COLLECTION BOX - PO LOBBY", "note": "ON 12/24 AND 12/31, THIS BOX MAY BE COLLECTED AS EARLY AS 12 NOON.", "ref": "1623300003"}, "type": "Feature"}
{"geometry": {"coordinates": [-79.325447967, 41.128069431], "type": "Point"}, "id": "EqL7oC73w9QeN9Ogf6cqkGp8NGE=", "properties": {"@spider": "usps_collection_boxes", "addr:city": "LIMESTONE", "addr:country": "US", "addr:full": "97 LIMESTONE RD", "addr:postcode": "16234", "addr:state": "PA", "brand": "USPS", "brand:wikidata": "Q668687", "collection_times": "Mo-Sa 09:30", "name": "USPS COLLECTION BOX - BLUE BOX", "ref": "1623400000"}, "type": "Feature"}
{"geometry": {"coordinates": [-79.325447967, 41.128069431], "type": "Point"}, "id": "J5TLTo3bPZMpTn5C_5Kn8VYSM60=", "properties": {"@spider": "usps_collection_boxes", "addr:city": "LIMESTONE", "addr:country": "US", "addr:full": "97 LIMESTONE RD", "addr:postcode": "16234", "addr:state": "PA", "brand": "USPS", "brand:wikidata": "Q668687", "collection_times": "Mo-Sa 09:30", "name": "USPS COLLECTION BOX - PO LOBBY", "ref": "1623400001"}, "type": "Feature"}
{"geometry": {"coordinates": [-79.325447967, 41.128069431], "type": "Point"}, "id": "aNumAmxaBdH_xw_BdlPeyAngTNs=", "properties": {"@spider": "usps_collection_boxes", "addr:city": "LIMESTONE", "addr:country": "US", "addr:full": "97 LIMESTONE RD", "addr:postcode": "16234", "addr:state": "PA", "brand": "USPS", "brand:wikidata": "Q668687", "collection_times": "Mo-Sa 10:15", "name": "USPS COLLECTION BOX - PO LOBBY", "ref": "1623400003"}, "type": "Feature"}
{"geometry": {"coordinates": [-79.367700526, 41.313035474], "type": "Point"}, "id": "at1svoOs-oOcKAD_XvUjzmZigKc=", "properties": {"@spider": "usps_collection_boxes", "addr:city": "LUCINDA", "addr:country": "US", "addr:full": "454 MAPLE DR", "addr:postcode": "16235", "addr:state": "PA", "brand": "USPS", "brand:wikidata": "Q668687", "collection_times": "Mo-Fr 14:45; Sa 10:45", "name": "USPS COLLECTION BOX - BLUE BOX", "note": "ON 12/24 AND 12/31, THIS BOX MAY BE COLLECTED AS EARLY AS 12 NOON.", "ref": "1623500000"}, "type": "Feature"}
{"geometry": {"coordinates": [-79.367700526, 41.313035474], "type": "Point"}, "id": "O7hVZxOheW53G0yfO3ftACz-6Zg=", "properties": {"@spider": "usps_collection_boxes", "addr:city": "LUCINDA", "addr:country": "US", "addr:full": "454 MAPLE DR", "addr:postcode": "16235", "addr:state": "PA", "brand": "USPS", "brand:wikidata": "Q668687", "collection_times": "Mo-Fr 14:45; Sa 10:45", "name": "USPS COLLECTION BOX - PO LOBBY", "note": "ON 12/24 AND 12/31, THIS BOX MAY BE COLLECTED AS EARLY AS 12 NOON.", "ref": "1623500001"}, "type": "Feature"}
{"geometry": {"coordinates": [-79.3698989, 41.30751], "type": "Point"}, "id": "m_8YU0PdG6k9i81Lx-JK9fPRU6g=", "properties": {"@spider": "usps_collection_boxes", "addr:city": "LUCINDA", "addr:country": "US", "addr:full": "27110 ROUTE 66", "addr:postcode": "16235", "addr:state": "PA", "brand": "USPS", "brand:wikidata": "Q668687", "collection_times": "Mo-Sa 10:30", "name": "USPS COLLECTION BOX - BLUE BOX", "ref": "1623500002"}, "type": "Feature"}
{"geometry": {"coordinates": [-79.367700526, 41.313035474], "type": "Point"}, "id": "21HJKXAD7Ed34zul-PeoKlkTnVU=", "properties": {"@spider": "usps_collection_boxes", "addr:city": "LUCINDA", "addr:country": "US", "addr:full": "454 MAPLE DR", "addr:postcode": "16235", "addr:state": "PA", "brand": "USPS", "brand:wikidata": "Q668687", "collection_times": "Mo-Fr 14:45; Sa 10:45", "name": "USPS COLLECTION BOX - PO LOBBY", "note": "ON 12/24 AND 12/31, THIS BOX MAY BE COLLECTED AS EARLY AS 12 NOON.", "ref": "1623500004"}, "type": "Feature"}
{"geometry": {"coordinates": [-79.522747862, 40.780723097], "type": "Point"}, "id": "ExEBQnCFjKZKmpc9U3F7zxz1kBU=", "properties": {"@spider": "usps_collection_boxes", "addr:city": "MC GRANN", "addr:country": "US", "addr:full": "207 BYRON ST", "addr:postcode": "16236", "addr:state": "PA", "brand": "USPS", "brand:wikidata": "Q668687", "collection_times": "Mo-Fr 11:25; Sa 11:15", "name": "USPS COLLECTION BOX - BLUE BOX", "ref": "1623600000"}, "type": "Feature"}
{"geometry": {"coordinates": [-79.522747862, 40.780723097], "type": "Point"}, "id": "CEIv-QsOheEd20HwIAsHmErN_Vg=", "properties": {"@spider": "usps_collection_boxes", "addr:city": "MC GRANN", "addr:country": "US", "addr:full": "207 BYRON ST", "addr:postcode": "16236", "addr:state": "PA", "brand": "USPS", "brand:wikidata": "Q668687", "collection_times": "Mo-Fr 11:25; Sa 11:15", "name": "USPS COLLECTION BOX - PO LOBBY", "ref": "1623600001"}, "type": "Feature"}
{"geometry": {"coordinates": [-79.522747862, 40.780723097], "type": "Point"}, "id": "8EA7Sw7YQUq_DEUlyQufl19mgNk=", "properties": {"@spider": "usps_collection_boxes", "addr:city": "MC GRANN", "addr:country": "US", "addr:full": "207 BYRON ST", "addr:postcode": "16236", "addr:state": "PA", "brand": "USPS", "brand:wikidata": "Q668687", "collection_times": "Mo-Fr 11:25; Sa 11:10", "name": "USPS COLLECTION BOX - PO LOBBY", "ref": "1623600003"}, "type": "Feature"}
{"geometry": {"coordinates": [-79.522340937, 40.785840063], "type": "Point"}, "id": "qk9zhrBVSfaFmNoaoEa-0kVUfMc=", "properties": {"@spider": "usps_collection_boxes", "addr:city": "MANORVILLE", "addr:country": "US", "addr:full": "500 WATER ST", "addr:postcode": "16238", "addr:state": "PA", "brand": "USPS", "brand:wikidata": "Q668687", "collection_times": "Mo-Fr 11:25; Sa 11:15", "name": "USPS COLLECTION BOX - BLUE BOX", "ref": "1623800000"}, "type": "Feature"}
{"geometry": {"coordinates": [-79.522340937, 40.785840063], "type": "Point"}, "id": "Xn1n1_kPgrvxH4zTtDxX3k1b1Cw=", "properties": {"@spider": "usps_collection_boxes", "addr:city": "MANORVILLE", "addr:country": "US", "addr:full": "500 WATER ST", "addr:postcode": "16238", "addr:state": "PA", "brand": "USPS", "brand:wikidata": "Q668687", "collection_times": "Mo-Fr 11:25; Sa 11:15", "name": "USPS COLLECTION BOX - PO LOBBY", "ref": "1623800001"}, "type": "Feature"}
{"geometry": {"coordinates": [-79.522340937, 40.785840063], "type": "Point"}, "id": "Wf6Co-fvOUZd9Tw9nGDKiRnH90U=", "properties": {"@spider": "usps_collection_boxes", "addr:city": "MANORVILLE", "addr:country": "US", "addr:full": "500 WATER ST", "addr:postcode": "16238", "addr:state": "PA", "brand": "USPS", "brand:wikidata": "Q668687", "collection_times": "Mo-Fr 11:25; Sa 11:15", "name": "USPS COLLECTION BOX - PO LOBBY", "ref": "1623800003"}, "type": "Feature"}
{"geometry": {"coordinates": [-79.123435793, 41.467747556], "type": "Point"}, "id": "Jm4-idYoVQzvrl1rOuaV4GN9ZRQ=", "properties": {"@spider": "usps_collection_boxes", "addr:city": "MARIENVILLE", "addr:country": "US", "addr:full": "107 S FOREST ST", "addr:postcode": "16239", "addr:state": "PA", "brand": "USPS", "brand:wikidata": "Q668687", "collection_times": "Mo-Fr 15:15; Sa 12:00", "name": "USPS COLLECTION BOX - BLUE BOX", "note": "ON 12/24 AND 12/31, THIS BOX MAY BE COLLECTED AS EARLY AS 12 NOON.", "ref": "1623900000"}, "type": "Feature"}
{"geometry": {"coordinates": [-79.123435793, 41.467747556], "type": "Point"}, "id": "8mom7vypvT8MwZSC_pdBIoLn-R8=", "properties": {"@spider": "usps_collection_boxes", "addr:city": "MARIENVILLE", "addr:country": "US", "addr:full": "107 S FOREST ST", "addr:postcode": "16239", "addr:state": "PA", "brand": "USPS", "brand:wikidata": "Q668687", "collection_times": "Mo-Fr 15:15; Sa 12:30", "name": "USPS COLLECTION BOX - PO LOBBY", "note": "ON 12/24 AND 12/31, THIS BOX MAY BE COLLECTED AS EARLY AS 12 NOON.", "ref": "1623900001"}, "type": "Feature"}
{"geometry": {"coordinates": [-79.123435793, 41.467747556], "type": "Point"}, "id": "uk43QFZyHxBrfux5oJ6FKo8ycNY=", "properties": {"@spider": "usps_collection_boxes", "addr:city": "MARIENVILLE", "addr:country": "US", "addr:full": "107 S FOREST ST", "addr:postcode": "16239", "addr:state": "PA", "brand": "USPS", "brand:wikidata": "Q668687", "collection_times": "Mo-Fr 15:15; Sa 12:00", "name": "USPS COLLECTION BOX - PO LOBBY", "note": "ON 12/24 AND 12/31, THIS BOX MAY BE COLLECTED AS EARLY AS 12 NOON.", "ref": "1623900003"}, "type": "Feature"}
{"geometry": {"coordinates": [-79.255897316, 41.034260451], "type": "Point"}, "id": "eQXQQpL4VV2P7jBgpI8z9Em8KBk=", "properties": {"@spider": "usps_collection_boxes", "addr:city": "MAYPORT", "addr:country": "US", "addr:full": "395 MAYPORT RD", "addr:postcode": "16240", "addr:state": "PA", "brand": "USPS", "brand:wikidata": "Q668687", "collection_times": "Mo-Fr 11:25; Sa 10:25", "name": "USPS COLLECTION BOX - BLUE BOX", "ref": "1624000000"}, "type": "Feature"}
{"geometry": {"coordinates": [-79.255897316, 41.034260451], "type": "Point"}, "id": "Xz8Aba-2B22ibQ7wvcqBDdQxS4U=", "properties": {"@spider": "usps_collection_boxes", "addr:city": "MAYPORT", "addr:country": "US", "addr:full": "395 MAYPORT RD", "addr:postcode": "16240", "addr:state": "PA", "brand": "USPS", "brand:wikidata": "Q668687", "collection_times": "Mo-Fr 11:25; Sa 10:25", "name": "USPS COLLECTION BOX - PO LOBBY", "ref": "1624000001"}, "type": "Feature"}
{"geometry": {"coordinates": [-79.255897316, 41.034260451], "type": "Point"}, "id": "K05M5YuYtVOOCZFDEb8_FP3waWE=", "properties": {"@spider": "usps_collection_boxes", "addr:city": "MAYPORT", "addr:country": "US", "addr:full": "395 MAYPORT RD", "addr:postcode": "16240", "addr:state": "PA", "brand": "USPS", "brand:wikidata": "Q668687", "collection_times": "Mo-Fr 11:25; Sa 10:10", "name": "USPS COLLECTION BOX - PO LOBBY", "ref": "1624000003"}, "type": "Feature"}
{"geometry": {"coordinates": [-79.329848731, 41.001725293], "type": "Point"}, "id": "OuwPTGYIIj632as97X0Y2B9Q8rc=", "properties": {"@spider": "usps_collection_boxes", "addr:city": "NEW BETHLEHEM", "addr:country": "US", "addr:full": "451 BROAD ST", "addr:postcode": "16242", "addr:state": "PA", "brand": "USPS", "brand:wikidata": "Q668687", "collection_times": "Mo-Sa 15:00", "name": "USPS COLLECTION BOX - BLUE BOX", "note": "ON 12/24 AND 12/31, THIS BOX MAY BE COLLECTED AS EARLY AS 12 NOON.", "ref": "1624200001"}, "type": "Feature"}
{"geometry": {"coordinates": [-79.3267847, 41.003576], "type": "Point"}, "id": "nWVr0yuoj9h3VLSpslIXuQYIasE=", "properties": {"@spider": "usps_collection_boxes", "addr:city": "NEW BETHLEHEM", "addr:country": "US", "addr:full": "600 PENN ST", "addr:postcode": "16242", "addr:state": "PA", "brand": "USPS", "brand:wikidata": "Q668687", "collection_times": "Mo-Fr 11:30; Sa 11:00", "name": "USPS COLLECTION BOX - BLUE BOX", "ref": "1624200002"}, "type": "Feature"}
{"geometry": {"coordinates": [-79.3313483, 41.00461], "type": "Point"}, "id": "TAuanbJjK6aY_G7QqP847kCL2L8=", "properties": {"@spider": "usps_collection_boxes", "addr:city": "NEW BETHLEHEM", "addr:country": "US", "addr:full": "412 WASHINGTON ST", "addr:postcode": "16242", "addr:state": "PA", "brand": "USPS", "brand:wikidata": "Q668687", "collection_times": "Mo-Fr 13:00; Sa 12:00", "name": "USPS COLLECTION BOX - BLUE BOX", "note": "ON 12/24 AND 12/31, THIS BOX MAY BE COLLECTED AS EARLY AS 12 NOON.", "ref": "1624200003"}, "type": "Feature"}
{"geometry": {"coordinates": [-79.3331622, 41.003667], "type": "Point"}, "id": "wHO1xGoPzvBktFI9DT9_d6moGbM=", "properties": {"@spider": "usps_collection_boxes", "addr:city": "NEW BETHLEHEM", "addr:country": "US", "addr:full": "233 PENN ST", "addr:postcode": "16242", "addr:state": "PA", "brand": "USPS", "brand:wikidata": "Q668687", "collection_times": "Mo-Fr 12:00; Sa 11:00", "name": "USPS COLLECTION BOX - BLUE BOX", "ref": "1624200004"}, "type": "Feature"}
{"geometry": {"coordinates": [-79.3412915, 40.999786], "type": "Point"}, "id": "Px7bNT8csBxQ50yTGHDYSHIgfhg=", "properties": {"@spider": "usps_collection_boxes", "addr:city": "NEW BETHLEHEM", "addr:country": "US", "addr:full": "117 W BROAD ST", "addr:postcode": "16242", "addr:state": "PA", "brand": "USPS", "brand:wikidata": "Q668687", "collection_times": "Mo-Sa 09:00", "name": "USPS COLLECTION BOX - BLUE BOX", "ref": "1624200006"}, "type": "Feature"}
{"geometry": {"coordinates": [-79.3331673, 41.001315], "type": "Point"}, "id": "jTpWsEvrPZFu85eLVwYCfODl0ak=", "properties": {"@spider": "usps_collection_boxes", "addr:city": "NEW BETHLEHEM", "addr:country": "US", "addr:full": "246 BROAD ST", "addr:postcode": "16242", "addr:state": "PA", "brand": "USPS", "brand:wikidata": "Q668687", "collection_times": "Mo-Sa 09:15", "name": "USPS COLLECTION BOX - BLUE BOX", "ref": "1624200007"}, "type": "Feature"}
{"geometry": {"coordinates": [-79.329848731, 41.001725293], "type": "Point"}, "id": "p-6DtYZ2wgRd58erEN6gmbBC1S4=", "properties": {"@spider": "usps_collection_boxes", "addr:city": "NEW BETHLEHEM", "addr:country": "US", "addr:full": "451 BROAD ST", "addr:postcode": "16242", "addr:state": "PA", "brand": "USPS", "brand:wikidata": "Q668687", "collection_times": "Mo-Fr 16:15; Sa 15:00", "name": "USPS COLLECTION BOX - PO LOBBY", "note": "ON 12/24 AND 12/31, THIS BOX MAY BE COLLECTED AS EARLY AS 12 NOON.", "ref": "1624200008"}, "type": "Feature"}
{"geometry": {"coordinates": [-79.329848731, 41.001725293], "type": "Point"}, "id": "QjyK3K0Tz3HtdSkoZKsPb4oZ8vI=", "properties": {"@spider": "usps_collection_boxes", "addr:city": "NEW BETHLEHEM", "addr:country": "US", "addr:full": "451 BROAD ST", "addr:postcode": "16242", "addr:state": "PA", "brand": "USPS", "brand:wikidata": "Q668687", "collection_times": "Mo-Fr 17:00; Sa 12:00", "name": "USPS COLLECTION BOX - PO LOBBY", "note": "ON 12/24 AND 12/31, THIS BOX MAY BE COLLECTED AS EARLY AS 12 NOON.", "ref": "1624200010"}, "type": "Feature"}
{"geometry": {"coordinates": [-79.28197245, 40.796362508], "type": "Point"}, "id": "oK_lO4AF_thjRlCFT4FKErUIULc=", "properties": {"@spider": "usps_collection_boxes", "addr:city": "NUMINE", "addr:country": "US", "addr:full": "1409 STATE ROUTE 1042", "addr:postcode": "16244", "addr:state": "PA", "brand": "USPS", "brand:wikidata": "Q668687", "collection_times": "Mo-Fr 10:50; Sa 10:15", "name": "USPS COLLECTION BOX - BLUE BOX", "ref": "1624400000"}, "type": "Feature"}
{"geometry": {"coordinates": [-79.28197245, 40.796362508], "type": "Point"}, "id": "D3R-CUDDmCXMBiMUwdRBlqxRQbM=", "properties": {"@spider": "usps_collection_boxes", "addr:city": "NUMINE", "addr:country": "US", "addr:full": "1409 STATE ROUTE 1042", "addr:postcode": "16244", "addr:state": "PA", "brand": "USPS", "brand:wikidata": "Q668687", "collection_times": "Mo-Fr 10:50; Sa 10:15", "name": "USPS COLLECTION BOX - PO LOBBY", "ref": "1624400001"}, "type": "Feature"}
{"geometry": {"coordinates": [-79.2823874, 40.794441], "type": "Point"}, "id": "lo1m8g990eI_a2WxbB10nAM12Gc=", "properties": {"@spider": "usps_collection_boxes", "addr:city": "NUMINE", "addr:country": "US", "addr:full": "4077 3RD ST", "addr:postcode": "16244", "addr:state": "PA", "brand": "USPS", "brand:wikidata": "Q668687", "collection_times": "Mo-Sa 10:30", "name": "USPS COLLECTION BOX - BLUE BOX", "ref": "1624400002"}, "type": "Feature"}
{"geometry": {"coordinates": [-79.28197245, 40.796362508], "type": "Point"}, "id": "QhsQqTqh-2fnvhBPjX0QcBIBBuA=", "properties": {"@spider": "usps_collection_boxes", "addr:city": "NUMINE", "addr:country": "US", "addr:full": "1409 STATE ROUTE 1042", "addr:postcode": "16244", "addr:state": "PA", "brand": "USPS", "brand:wikidata": "Q668687", "collection_times": "Mo-Fr 10:50; Sa 10:15", "name": "USPS COLLECTION BOX - PO LOBBY", "ref": "1624400004"}, "type": "Feature"}
{"geometry": {"coordinates": [-79.523375848, 40.773729594], "type": "Point"}, "id": "De56V2As2l5LJT2Gbwmbx88XvSQ=", "properties": {"@spider": "usps_collection_boxes", "addr:city": "OAK RIDGE", "addr:country": "US", "addr:full": "120 MAIN ST", "addr:postcode": "16245", "addr:state": "PA", "brand": "USPS", "brand:wikidata": "Q668687", "collection_times": "Mo-Fr 10:50; Sa 11:20", "name": "USPS COLLECTION BOX - BLUE BOX", "ref": "1624500000"}, "type": "Feature"}
{"geometry": {"coordinates": [-79.523375848, 40.773729594], "type": "Point"}, "id": "pR947nuLjGKeigY3fsxV4S67yIU=", "properties": {"@spider": "usps_collection_boxes", "addr:city": "OAK RIDGE", "addr:country": "US", "addr:full": "120 MAIN ST", "addr:postcode": "16245", "addr:state": "PA", "brand": "USPS", "brand:wikidata": "Q668687", "collection_times": "Mo-Fr 10:50; Sa 11:20", "name": "USPS COLLECTION BOX - PO LOBBY", "ref": "1624500001"}, "type": "Feature"}
{"geometry": {"coordinates": [-79.523375848, 40.773729594], "type": "Point"}, "id": "XdjFMWr-srvGLXrn78kPmYvQ3x0=", "properties": {"@spider": "usps_collection_boxes", "addr:city": "OAK RIDGE", "addr:country": "US", "addr:full": "120 MAIN ST", "addr:postcode": "16245", "addr:state": "PA", "brand": "USPS", "brand:wikidata": "Q668687", "collection_times": "Mo-Fr 10:50; Sa 11:20", "name": "USPS COLLECTION BOX - PO LOBBY", "ref": "1624500003"}, "type": "Feature"}
{"geometry": {"coordinates": [-79.17991882, 40.793546807], "type": "Point"}, "id": "N7YPgSnmNVz-NcWQ6480zO5DjJs=", "properties": {"@spider": "usps_collection_boxes", "addr:city": "PLUMVILLE", "addr:country": "US", "addr:full": "225 MAIN ST", "addr:postcode": "16246", "addr:state": "PA", "brand": "USPS", "brand:wikidata": "Q668687", "collection_times": "Mo-Fr 15:55; Sa 14:00", "name": "USPS COLLECTION BOX - BLUE BOX", "note": "ON 12/24 AND 12/31, THIS BOX MAY BE COLLECTED AS EARLY AS 12 NOON.", "ref": "1624600000"}, "type": "Feature"}
{"geometry": {"coordinates": [-79.17991882, 40.793546807], "type": "Point"}, "id": "xHm8usK_7XEy-TMHIuzduqCam4E=", "properties": {"@spider": "usps_collection_boxes", "addr:city": "PLUMVILLE", "addr:country": "US", "addr:full": "225 MAIN ST", "addr:postcode": "16246", "addr:state": "PA", "brand": "USPS", "brand:wikidata": "Q668687", "collection_times": "Mo-Fr 15:55; Sa 14:00", "name": "USPS COLLECTION BOX - PO LOBBY", "note": "ON 12/24 AND 12/31, THIS BOX MAY BE COLLECTED AS EARLY AS 12 NOON.", "ref": "1624600001"}, "type": "Feature"}
{"geometry": {"coordinates": [-79.17991882, 40.793546807], "type": "Point"}, "id": "kSOk-SUmeo9iYdG1kK4Whs5C_PY=", "properties": {"@spider": "usps_collection_boxes", "addr:city": "PLUMVILLE", "addr:country": "US", "addr:full": "225 MAIN ST", "addr:postcode": "16246", "addr:state": "PA", "brand": "USPS", "brand:wikidata": "Q668687", "collection_times": "Mo-Fr 15:55; Sa 14:00", "name": "USPS COLLECTION BOX - PO LOBBY", "note": "ON 12/24 AND 12/31, THIS BOX MAY BE COLLECTED AS EARLY AS 12 NOON.", "ref": "1624600003"}, "type": "Feature"}
{"geometry": {"coordinates": [-79.501628382, 41.043484424], "type": "Point"}, "id": "xHRlkSaV0JstlxLbMklBr2af6Nc=", "properties": {"@spider": "usps_collection_boxes", "addr:city": "RIMERSBURG", "addr:country": "US", "addr:full": "689 MAIN ST", "addr:postcode": "16248", "addr:state": "PA", "brand": "USPS", "brand:wikidata": "Q668687", "collection_times": "Mo-Fr 16:30; Sa 12:00", "name": "USPS COLLECTION BOX - BLUE BOX", "note": "ON 12/24 AND 12/31, THIS BOX MAY BE COLLECTED AS EARLY AS 12 NOON.", "ref": "1624800000"}, "type": "Feature"}
{"geometry": {"coordinates": [-79.501628382, 41.043484424], "type": "Point"}, "id": "Wibpt1eTTbKKbcHokMl74h_dkkU=", "properties": {"@spider": "usps_collection_boxes", "addr:city": "RIMERSBURG", "addr:country": "US", "addr:full": "689 MAIN ST", "addr:postcode": "16248", "addr:state": "PA", "brand": "USPS", "brand:wikidata": "Q668687", "collection_times": "Mo-Fr 16:45; Sa 12:00", "name": "USPS COLLECTION BOX - PO LOBBY", "note": "ON 12/24 AND 12/31, THIS BOX MAY BE COLLECTED AS EARLY AS 12 NOON.", "ref": "1624800001"}, "type": "Feature"}
{"geometry": {"coordinates": [-79.501628382, 41.043484424], "type": "Point"}, "id": "5ckEGNnwnyM1mLE0skUYSDb3Nx4=", "properties": {"@spider": "usps_collection_boxes", "addr:city": "RIMERSBURG", "addr:country": "US", "addr:full": "689 MAIN ST", "addr:postcode": "16248", "addr:state": "PA", "brand": "USPS", "brand:wikidata": "Q668687", "collection_times": "Mo-Fr 16:30; Sa 12:00", "name": "USPS COLLECTION BOX - PO LOBBY", "note": "ON 12/24 AND 12/31, THIS BOX MAY BE COLLECTED AS EARLY AS 12 NOON.", "ref": "1624800003"}, "type": "Feature"}
{"geometry": {"coordinates": [-79.316203448, 40.8002325], "type": "Point"}, "id": "qwyCkM2Dg7k8MWNYhJpfvzoEFig=", "properties": {"@spider": "usps_collection_boxes", "addr:city": "RURAL VALLEY", "addr:country": "US", "addr:full": "700 MIDDLE 1ST ST", "addr:postcode": "16249", "addr:state": "PA", "brand": "USPS", "brand:wikidata": "Q668687", "collection_times": "Mo-Fr 16:45; Sa 11:45", "name": "USPS COLLECTION BOX - BLUE BOX", "note": "ON 12/24 AND 12/31, THIS BOX MAY BE COLLECTED AS EARLY AS 12 NOON.", "ref": "1624900000"}, "type": "Feature"}
{"geometry": {"coordinates": [-79.316203448, 40.8002325], "type": "Point"}, "id": "0u8n6IovNGgJnb9mYLvM6F-BUV4=", "properties": {"@spider": "usps_collection_boxes", "addr:city": "RURAL VALLEY", "addr:country": "US", "addr:full": "700 MIDDLE 1ST ST", "addr:postcode": "16249", "addr:state": "PA", "brand": "USPS", "brand:wikidata": "Q668687", "collection_times": "Mo-Fr 16:30; Sa 11:45", "name": "USPS COLLECTION BOX - PO LOBBY", "note": "ON 12/24 AND 12/31, THIS BOX MAY BE COLLECTED AS EARLY AS 12 NOON.", "ref": "1624900001"}, "type": "Feature"}
{"geometry": {"coordinates": [-79.2398781, 40.77095], "type": "Point"}, "id": "v9jCbwxFhjbSbB8d89587u6wRCc=", "properties": {"@spider": "usps_collection_boxes", "addr:city": "RURAL VALLEY", "addr:country": "US", "addr:full": "140 SILVER CANOE CAMPGROUND RD", "addr:postcode": "16249", "addr:state": "PA", "brand": "USPS", "brand:wikidata": "Q668687", "collection_times": "Mo-Sa 10:00", "name": "USPS COLLECTION BOX - BLUE BOX", "ref": "1624900002"}, "type": "Feature"}
{"geometry": {"coordinates": [-79.316203448, 40.8002325], "type": "Point"}, "id": "SDIt9dbgOmHTkEnTxNbAtzI0CTQ=", "properties": {"@spider": "usps_collection_boxes", "addr:city": "RURAL VALLEY", "addr:country": "US", "addr:full": "700 MIDDLE 1ST ST", "addr:postcode": "16249", "addr:state": "PA", "brand": "USPS", "brand:wikidata": "Q668687", "collection_times": "Mo-Fr 16:30; Sa 11:30", "name": "USPS COLLECTION BOX - PO LOBBY", "note": "ON 12/24 AND 12/31, THIS BOX MAY BE COLLECTED AS EARLY AS 12 NOON.", "ref": "1624900004"}, "type": "Feature"}
{"geometry": {"coordinates": [-79.229540261, 40.777825433], "type": "Point"}, "id": "KETwwU-YwvxOyFrjfvKx2EmIc24=", "properties": {"@spider": "usps_collection_boxes", "addr:city": "SAGAMORE", "addr:country": "US", "addr:full": "333 POST OFFICE RD", "addr:postcode": "16250", "addr:state": "PA", "brand": "USPS", "brand:wikidata": "Q668687", "collection_times": "Mo-Fr 10:50; Sa 11:45", "name": "USPS COLLECTION BOX - BLUE BOX", "ref": "1625000000"}, "type": "Feature"}
{"geometry": {"coordinates": [-79.229540261, 40.777825433], "type": "Point"}, "id": "TdiZvVosz3q4t3G0UJOznDtlY08=", "properties": {"@spider": "usps_collection_boxes", "addr:city": "SAGAMORE", "addr:country": "US", "addr:full": "333 POST OFFICE RD", "addr:postcode": "16250", "addr:state": "PA", "brand": "USPS", "brand:wikidata": "Q668687", "collection_times": "Mo-Fr 10:50; Sa 11:45", "name": "USPS COLLECTION BOX - PO LOBBY", "ref": "1625000001"}, "type": "Feature"}
{"geometry": {"coordinates": [-79.229540261, 40.777825433], "type": "Point"}, "id": "DIFTA-w0cxDUQ9tcS4mMrRJbmbc=", "properties": {"@spider": "usps_collection_boxes", "addr:city": "SAGAMORE", "addr:country": "US", "addr:full": "333 POST OFFICE RD", "addr:postcode": "16250", "addr:state": "PA", "brand": "USPS", "brand:wikidata": "Q668687", "collection_times": "Mo-Fr 10:50; Sa 11:35", "name": "USPS COLLECTION BOX - PO LOBBY", "ref": "1625000003"}, "type": "Feature"}
{"geometry": {"coordinates": [-79.462909629, 41.251169002], "type": "Point"}, "id": "SPVo3crHJ6xFx2vJV2O8bD7Gq2g=", "properties": {"@spider": "usps_collection_boxes", "addr:city": "SHIPPENVILLE", "addr:country": "US", "addr:full": "305 MAIN ST", "addr:postcode": "16254", "addr:state": "PA", "brand": "USPS", "brand:wikidata": "Q668687", "collection_times": "Mo-Fr 16:15; Sa 12:00", "name": "USPS COLLECTION BOX - BLUE BOX", "note": "ON 12/24 AND 12/31, THIS BOX MAY BE COLLECTED AS EARLY AS 12 NOON.", "ref": "1625400000"}, "type": "Feature"}
{"geometry": {"coordinates": [-79.462909629, 41.251169002], "type": "Point"}, "id": "SigxmipLoLGY-riAyICNyVkSgWM=", "properties": {"@spider": "usps_collection_boxes", "addr:city": "SHIPPENVILLE", "addr:country": "US", "addr:full": "305 MAIN ST", "addr:postcode": "16254", "addr:state": "PA", "brand": "USPS", "brand:wikidata": "Q668687", "collection_times": "Mo-Fr 16:15; Sa 12:00", "name": "USPS COLLECTION BOX - PO LOBBY", "note": "ON 12/24 AND 12/31, THIS BOX MAY BE COLLECTED AS EARLY AS 12 NOON.", "ref": "1625400003"}, "type": "Feature"}
{"geometry": {"coordinates": [-79.462909629, 41.251169002], "type": "Point"}, "id": "IO1DmjWym5tm-5I3GLEYmwKPSXw=", "properties": {"@spider": "usps_collection_boxes", "addr:city": "SHIPPENVILLE", "addr:country": "US", "addr:full": "305 MAIN ST", "addr:postcode": "16254", "addr:state": "PA", "brand": "USPS", "brand:wikidata": "Q668687", "collection_times": "Mo-Fr 16:15; Sa 12:00", "name": "USPS COLLECTION BOX - PO LOBBY", "note": "ON 12/24 AND 12/31, THIS BOX MAY BE COLLECTED AS EARLY AS 12 NOON.", "ref": "1625400005"}, "type": "Feature"}
{"geometry": {"coordinates": [-79.491199514, 41.10790983], "type": "Point"}, "id": "ZULT3M0Oy4fDTOwce1uvjH2pQTw=", "properties": {"@spider": "usps_collection_boxes", "addr:city": "SLIGO", "addr:country": "US", "addr:full": "312 MADISON ST", "addr:postcode": "16255", "addr:state": "PA", "brand": "USPS", "brand:wikidata": "Q668687", "collection_times": "Mo-Fr 16:30; Sa 12:00", "name": "USPS COLLECTION BOX - BLUE BOX", "note": "ON 12/24 AND 12/31, THIS BOX MAY BE COLLECTED AS EARLY AS 12 NOON.", "ref": "1625500000"}, "type": "Feature"}
{"geometry": {"coordinates": [-79.491199514, 41.10790983], "type": "Point"}, "id": "3U5ur71ZiqiBz5CEDb5LP1ixJW0=", "properties": {"@spider": "usps_collection_boxes", "addr:city": "SLIGO", "addr:country": "US", "addr:full": "312 MADISON ST", "addr:postcode": "16255", "addr:state": "PA", "brand": "USPS", "brand:wikidata": "Q668687", "collection_times": "Mo-Fr 16:30; Sa 12:00", "name": "USPS COLLECTION BOX - PO LOBBY", "note": "ON 12/24 AND 12/31, THIS BOX MAY BE COLLECTED AS EARLY AS 12 NOON.", "ref": "1625500001"}, "type": "Feature"}
{"geometry": {"coordinates": [-79.491199514, 41.10790983], "type": "Point"}, "id": "i41hH-EOFB8yOrt5w9t26gAJ1iM=", "properties": {"@spider": "usps_collection_boxes", "addr:city": "SLIGO", "addr:country": "US", "addr:full": "312 MADISON ST", "addr:postcode": "16255", "addr:state": "PA", "brand": "USPS", "brand:wikidata": "Q668687", "collection_times": "Mo-Fr 16:30; Sa 12:00", "name": "USPS COLLECTION BOX - PO LOBBY", "note": "ON 12/24 AND 12/31, THIS BOX MAY BE COLLECTED AS EARLY AS 12 NOON.", "ref": "1625500003"}, "type": "Feature"}
{"geometry": {"coordinates": [-79.169657963, 40.87008393], "type": "Point"}, "id": "C0N_1XWfEhxZwWRZlEvUu_bqsqc=", "properties": {"@spider": "usps_collection_boxes", "addr:city": "SMICKSBURG", "addr:country": "US", "addr:full": "148 MILL ST", "addr:postcode": "16256", "addr:state": "PA", "brand": "USPS", "brand:wikidata": "Q668687", "collection_times": "Mo-Fr 16:00; Sa 11:45", "name": "USPS COLLECTION BOX - BLUE BOX", "note": "ON 12/24 AND 12/31, THIS BOX MAY BE COLLECTED AS EARLY AS 12 NOON.", "ref": "1625600000"}, "type": "Feature"}
{"geometry": {"coordinates": [-79.169657963, 40.87008393], "type": "Point"}, "id": "vpsBAi4AscfGp2TKUDAwFBvpUwg=", "properties": {"@spider": "usps_collection_boxes", "addr:city": "SMICKSBURG", "addr:country": "US", "addr:full": "148 MILL ST", "addr:postcode": "16256", "addr:state": "PA", "brand": "USPS", "brand:wikidata": "Q668687", "collection_times": "Mo-Fr 16:00; Sa 11:45", "name": "USPS COLLECTION BOX - PO LOBBY", "note": "ON 12/24 AND 12/31, THIS BOX MAY BE COLLECTED AS EARLY AS 12 NOON.", "ref": "1625600001"}, "type": "Feature"}
{"geometry": {"coordinates": [-79.169657963, 40.87008393], "type": "Point"}, "id": "Pwx91t1R8ubtS-OkQmkFO4aDCdE=", "properties": {"@spider": "usps_collection_boxes", "addr:city": "SMICKSBURG", "addr:country": "US", "addr:full": "148 MILL ST", "addr:postcode": "16256", "addr:state": "PA", "brand": "USPS", "brand:wikidata": "Q668687", "collection_times": "Mo-Fr 16:00; Sa 11:30", "name": "USPS COLLECTION BOX - PO LOBBY", "note": "ON 12/24 AND 12/31, THIS BOX MAY BE COLLECTED AS EARLY AS 12 NOON.", "ref": "1625600003"}, "type": "Feature"}
{"geometry": {"coordinates": [-79.325843012, 41.203269872], "type": "Point"}, "id": "TxY9B5R8mMYqJ0P8crO9bh029Bo=", "properties": {"@spider": "usps_collection_boxes", "addr:city": "STRATTANVILLE", "addr:country": "US", "addr:full": "361 WASHINGTON ST", "addr:postcode": "16258", "addr:state": "PA", "brand": "USPS", "brand:wikidata": "Q668687", "collection_times": "Mo-Fr 16:30; Sa 11:30", "name": "USPS COLLECTION BOX - BLUE BOX", "note": "ON 12/24 AND 12/31, THIS BOX MAY BE COLLECTED AS EARLY AS 12 NOON.", "ref": "1625800000"}, "type": "Feature"}
{"geometry": {"coordinates": [-79.325843012, 41.203269872], "type": "Point"}, "id": "8Hdhs9bb9TuH1obtQmrmQT8KJZE=", "properties": {"@spider": "usps_collection_boxes", "addr:city": "STRATTANVILLE", "addr:country": "US", "addr:full": "361 WASHINGTON ST", "addr:postcode": "16258", "addr:state": "PA", "brand": "USPS", "brand:wikidata": "Q668687", "collection_times": "Mo-Fr 16:30; Sa 11:30", "name": "USPS COLLECTION BOX - PO LOBBY", "note": "ON 12/24 AND 12/31, THIS BOX MAY BE COLLECTED AS EARLY AS 12 NOON.", "ref": "1625800001"}, "type": "Feature"}
{"geometry": {"coordinates": [-79.325843012, 41.203269872], "type": "Point"}, "id": "8Ld0Bc4qQS-LH-tnUI3PRCzvXuI=", "properties": {"@spider": "usps_collection_boxes", "addr:city": "STRATTANVILLE", "addr:country": "US", "addr:full": "361 WASHINGTON ST", "addr:postcode": "16258", "addr:state": "PA", "brand": "USPS", "brand:wikidata": "Q668687", "collection_times": "Mo-Fr 16:15; Sa 11:30", "name": "USPS COLLECTION BOX - PO LOBBY", "note": "ON 12/24 AND 12/31, THIS BOX MAY BE COLLECTED AS EARLY AS 12 NOON.", "ref": "1625800003"}, "type": "Feature"}
{"geometry": {"coordinates": [-79.461502701, 40.916975384], "type": "Point"}, "id": "TrsoSf_SSQrGlYJgyfyx9RP_ZQ0=", "properties": {"@spider": "usps_collection_boxes", "addr:city": "TEMPLETON", "addr:country": "US", "addr:full": "232 3RD ST STE 1", "addr:postcode": "16259", "addr:state": "PA", "brand": "USPS", "brand:wikidata": "Q668687", "collection_times": "Mo-Fr 15:00; Sa 11:45", "name": "USPS COLLECTION BOX - BLUE BOX", "note": "ON 12/24 AND 12/31, THIS BOX MAY BE COLLECTED AS EARLY AS 12 NOON.", "ref": "1625900000"}, "type": "Feature"}
{"geometry": {"coordinates": [-79.461502701, 40.916975384], "type": "Point"}, "id": "lEEa4HOTbk8D__3rbrf8gR0tukE=", "properties": {"@spider": "usps_collection_boxes", "addr:city": "TEMPLETON", "addr:country": "US", "addr:full": "232 3RD ST STE 1", "addr:postcode": "16259", "addr:state": "PA", "brand": "USPS", "brand:wikidata": "Q668687", "collection_times": "Mo-Fr 15:00; Sa 11:45", "name": "USPS COLLECTION BOX - PO LOBBY", "note": "ON 12/24 AND 12/31, THIS BOX MAY BE COLLECTED AS EARLY AS 12 NOON.", "ref": "1625900001"}, "type": "Feature"}
{"geometry": {"coordinates": [-79.461502701, 40.916975384], "type": "Point"}, "id": "z1sf-O1l9aQ9W42nNB1Pna0oy0Y=", "properties": {"@spider": "usps_collection_boxes", "addr:city": "TEMPLETON", "addr:country": "US", "addr:full": "232 3RD ST STE 1", "addr:postcode": "16259", "addr:state": "PA", "brand": "USPS", "brand:wikidata": "Q668687", "collection_times": "Mo-Fr 15:00; Sa 11:45", "name": "USPS COLLECTION BOX - PO LOBBY", "note": "ON 12/24 AND 12/31, THIS BOX MAY BE COLLECTED AS EARLY AS 12 NOON.", "ref": "1625900003"}, "type": "Feature"}
{"geometry": {"coordinates": [-79.627415008, 40.83695074], "type": "Point"}, "id": "DP4dgrYZJBk1hnjz2Wo1FzA6t_E=", "properties": {"@spider": "usps_collection_boxes", "addr:city": "WORTHINGTON", "addr:country": "US", "addr:full": "199 E MAIN ST", "addr:postcode": "16262", "addr:state": "PA", "brand": "USPS", "brand:wikidata": "Q668687", "collection_times": "Mo-Fr 16:45; Sa 12:15", "name": "USPS COLLECTION BOX - BLUE BOX", "note": "ON 12/24 AND 12/31, THIS BOX MAY BE COLLECTED AS EARLY AS 12 NOON.", "ref": "1626200000"}, "type": "Feature"}
{"geometry": {"coordinates": [-79.627415008, 40.83695074], "type": "Point"}, "id": "F2MzpQxwoTN_FAGUsP2ZwXuE-wg=", "properties": {"@spider": "usps_collection_boxes", "addr:city": "WORTHINGTON", "addr:country": "US", "addr:full": "199 E MAIN ST", "addr:postcode": "16262", "addr:state": "PA", "brand": "USPS", "brand:wikidata": "Q668687", "collection_times": "Mo-Fr 16:45; Sa 12:15", "name": "USPS COLLECTION BOX - PO LOBBY", "note": "ON 12/24 AND 12/31, THIS BOX MAY BE COLLECTED AS EARLY AS 12 NOON.", "ref": "1626200001"}, "type": "Feature"}
{"geometry": {"coordinates": [-79.627415008, 40.83695074], "type": "Point"}, "id": "Sz4H1evVtnOTecAd8SPzJ1dXsr8=", "properties": {"@spider": "usps_collection_boxes", "addr:city": "WORTHINGTON", "addr:country": "US", "addr:full": "199 E MAIN ST", "addr:postcode": "16262", "addr:state": "PA", "brand": "USPS", "brand:wikidata": "Q668687", "collection_times": "Mo-Fr 16:30; Sa 12:00", "name": "USPS COLLECTION BOX - PO LOBBY", "note": "ON 12/24 AND 12/31, THIS BOX MAY BE COLLECTED AS EARLY AS 12 NOON.", "ref": "1626200003"}, "type": "Feature"}
{"geometry": {"coordinates": [-79.34262, 40.95277], "type": "Point"}, "id": "XcXkSHqEn0sMQFr6XDVT1BhBjds=", "properties": {"@spider": "usps_collection_boxes", "addr:city": "YATESBORO", "addr:country": "US", "addr:full": "52 W MAIN ST", "addr:postcode": "16263", "addr:state": "PA", "brand": "USPS", "brand:wikidata": "Q668687", "collection_times": "Mo-Fr 11:55; Sa 11:45", "name": "USPS COLLECTION BOX - BLUE BOX", "ref": "1626300000"}, "type": "Feature"}
{"geometry": {"coordinates": [-79.34262, 40.95277], "type": "Point"}, "id": "i9Vjqf87axLO5Nmo2tHK3ChjPyg=", "properties": {"@spider": "usps_collection_boxes", "addr:city": "YATESBORO", "addr:country": "US", "addr:full": "52 W MAIN ST", "addr:postcode": "16263", "addr:state": "PA", "brand": "USPS", "brand:wikidata": "Q668687", "collection_times": "Mo-Fr 11:55; Sa 11:45", "name": "USPS COLLECTION BOX - PO LOBBY", "ref": "1626300001"}, "type": "Feature"}
{"geometry": {"coordinates": [-79.34262, 40.95277], "type": "Point"}, "id": "NhzH7VX6ePRrECbAC_5ja5wA-6c=", "properties": {"@spider": "usps_collection_boxes", "addr:city": "YATESBORO", "addr:country": "US", "addr:full": "52 W MAIN ST", "addr:postcode": "16263", "addr:state": "PA", "brand": "USPS", "brand:wikidata": "Q668687", "collection_times": "Mo-Fr 11:55; Sa 11:40", "name": "USPS COLLECTION BOX - PO LOBBY", "ref": "1626300003"}, "type": "Feature"}
