{"geometry": {"coordinates": [-79.706917799, 41.427871814], "type": "Point"}, "id": "3PYvGE4w3OLpm27QCpMXD1dFBIg=", "properties": {"@source_uri": "https://tools.usps.com/UspsToolsRestServices/rest/POLocator/findLocations", "@spider": "usps_collection_boxes", "addr:city": "OIL CITY", "addr:country": "US", "addr:postcode": "16301", "addr:state": "PA", "addr:street_address": "302 E 2ND ST", "amenity": "post_box", "collection_times": "Mo-Sa 17:15", "note": "ON 12/24 AND 12/31, THIS BOX MAY BE COLLECTED AS EARLY AS 12 NOON.", "nsi_id": "unitedstatespostalservice-a77078", "operator": "United States Postal Service", "operator:short": "USPS", "operator:type": "public", "operator:wikidata": "Q668687", "ref": "1630100004"}, "type": "Feature"}
{"geometry": {"coordinates": [-79.709029, 41.436341], "type": "Point"}, "id": "NuhFVYQYczebR7J_qXthN65Uc28=", "properties": {"@source_uri": "https://tools.usps.com/UspsToolsRestServices/rest/POLocator/findLocations", "@spider": "usps_collection_boxes", "addr:city": "OIL CITY", "addr:country": "US", "addr:postcode": "16301", "addr:state": "PA", "addr:street_address": "245 SENECA ST", "amenity": "post_box", "collection_times": "Mo-Sa 17:00", "note": "ON 12/24 AND 12/31, THIS BOX MAY BE COLLECTED AS EARLY AS 12 NOON.", "nsi_id": "unitedstatespostalservice-a77078", "operator": "United States Postal Service", "operator:short": "USPS", "operator:type": "public", "operator:wikidata": "Q668687", "ref": "1630100010"}, "type": "Feature"}
{"geometry": {"coordinates": [-79.709029, 41.436342], "type": "Point"}, "id": "tt-rSl8pXAujQwckebzF-mBfWkc=", "properties": {"@source_uri": "https://tools.usps.com/UspsToolsRestServices/rest/POLocator/findLocations", "@spider": "usps_collection_boxes", "addr:city": "OIL CITY", "addr:country": "US", "addr:postcode": "16301", "addr:state": "PA", "addr:street_address": "250 ELM ST", "amenity": "post_box", "collection_times": "Mo-Sa 17:00", "note": "ON 12/24 AND 12/31, THIS BOX MAY BE COLLECTED AS EARLY AS 12 NOON.", "nsi_id": "unitedstatespostalservice-a77078", "operator": "United States Postal Service", "operator:short": "USPS", "operator:type": "public", "operator:wikidata": "Q668687", "ref": "1630100012"}, "type": "Feature"}
{"geometry": {"coordinates": [-79.6887699, 41.441189], "type": "Point"}, "id": "okwZN8xNNtKr7wuy2fjjMPCWomA=", "properties": {"@source_uri": "https://tools.usps.com/UspsToolsRestServices/rest/POLocator/findLocations", "@spider": "usps_collection_boxes", "addr:city": "OIL CITY", "addr:country": "US", "addr:postcode": "16301", "addr:state": "PA", "addr:street_address": "809 GRANDVIEW RD", "amenity": "post_box", "collection_times": "Mo-Fr 14:15", "note": "ON 12/24 AND 12/31, THIS BOX MAY BE COLLECTED AS EARLY AS 12 NOON.", "nsi_id": "unitedstatespostalservice-a77078", "operator": "United States Postal Service", "operator:short": "USPS", "operator:type": "public", "operator:wikidata": "Q668687", "ref": "1630100023"}, "type": "Feature"}
{"geometry": {"coordinates": [-79.7083207, 41.43303], "type": "Point"}, "id": "hDhmeNnjm_hjcrCTUWjJ9mxeqFk=", "properties": {"@source_uri": "https://tools.usps.com/UspsToolsRestServices/rest/POLocator/findLocations", "@spider": "usps_collection_boxes", "addr:city": "OIL CITY", "addr:country": "US", "addr:postcode": "16301", "addr:state": "PA", "addr:street_address": "36 SENECA ST", "amenity": "post_box", "collection_times": "Mo-Fr 15:00", "note": "ON 12/24 AND 12/31, THIS BOX MAY BE COLLECTED AS EARLY AS 12 NOON.", "nsi_id": "unitedstatespostalservice-a77078", "operator": "United States Postal Service", "operator:short": "USPS", "operator:type": "public", "operator:wikidata": "Q668687", "ref": "1630100026"}, "type": "Feature"}
{"geometry": {"coordinates": [-79.7098962, 41.428458], "type": "Point"}, "id": "m11lwYaLK2WTIzPKl706uZY9g_g=", "properties": {"@source_uri": "https://tools.usps.com/UspsToolsRestServices/rest/POLocator/findLocations", "@spider": "usps_collection_boxes", "addr:city": "OIL CITY", "addr:country": "US", "addr:postcode": "16301", "addr:state": "PA", "addr:street_address": "24 E 1ST ST", "amenity": "post_box", "collection_times": "Mo-Sa 15:00", "note": "ON 12/24 AND 12/31, THIS BOX MAY BE COLLECTED AS EARLY AS 12 NOON.", "nsi_id": "unitedstatespostalservice-a77078", "operator": "United States Postal Service", "operator:short": "USPS", "operator:type": "public", "operator:wikidata": "Q668687", "ref": "1630100036"}, "type": "Feature"}
{"geometry": {"coordinates": [-79.706917799, 41.427871814], "type": "Point"}, "id": "q5nSwsYn1Vfn-QYsvJhJjd03nBA=", "properties": {"@source_uri": "https://tools.usps.com/UspsToolsRestServices/rest/POLocator/findLocations", "@spider": "usps_collection_boxes", "addr:city": "OIL CITY", "addr:country": "US", "addr:postcode": "16301", "addr:state": "PA", "addr:street_address": "302 E 2ND ST", "amenity": "post_box", "collection_times": "Mo-Sa 17:30", "indoor": "yes", "note": "ON 12/24 AND 12/31, THIS BOX MAY BE COLLECTED AS EARLY AS 12 NOON.", "nsi_id": "unitedstatespostalservice-a77078", "operator": "United States Postal Service", "operator:short": "USPS", "operator:type": "public", "operator:wikidata": "Q668687", "ref": "1630100038"}, "type": "Feature"}
{"geometry": {"coordinates": [-79.706917799, 41.427871814], "type": "Point"}, "id": "YQmqUpGmxWT35vu3rZwNJHInZP0=", "properties": {"@source_uri": "https://tools.usps.com/UspsToolsRestServices/rest/POLocator/findLocations", "@spider": "usps_collection_boxes", "addr:city": "OIL CITY", "addr:country": "US", "addr:postcode": "16301", "addr:state": "PA", "addr:street_address": "302 E 2ND ST", "amenity": "post_box", "collection_times": "Mo-Fr 17:00; Sa 12:00", "indoor": "yes", "note": "ON 12/24 AND 12/31, THIS BOX MAY BE COLLECTED AS EARLY AS 12 NOON.", "nsi_id": "unitedstatespostalservice-a77078", "operator": "United States Postal Service", "operator:short": "USPS", "operator:type": "public", "operator:wikidata": "Q668687", "ref": "1630100045"}, "type": "Feature"}
{"geometry": {"coordinates": [-80.020317039, 41.477156459], "type": "Point"}, "id": "NtMJBxv9k0PhLp_93m4B8u0jxrE=", "properties": {"@source_uri": "https://tools.usps.com/UspsToolsRestServices/rest/POLocator/findLocations", "@spider": "usps_collection_boxes", "addr:city": "CARLTON", "addr:country": "US", "addr:postcode": "16311", "addr:state": "PA", "addr:street_address": "1333 COCHRANTON RD", "amenity": "post_box", "collection_times": "Mo-Fr 10:50; Sa 11:45", "nsi_id": "unitedstatespostalservice-a77078", "operator": "United States Postal Service", "operator:short": "USPS", "operator:type": "public", "operator:wikidata": "Q668687", "ref": "1631100000"}, "type": "Feature"}
{"geometry": {"coordinates": [-80.020317039, 41.477156459], "type": "Point"}, "id": "1vUmucrkKLdZkfsctJKR1cqxzj0=", "properties": {"@source_uri": "https://tools.usps.com/UspsToolsRestServices/rest/POLocator/findLocations", "@spider": "usps_collection_boxes", "addr:city": "CARLTON", "addr:country": "US", "addr:postcode": "16311", "addr:state": "PA", "addr:street_address": "1333 COCHRANTON RD", "amenity": "post_box", "collection_times": "Mo-Fr 10:50; Sa 11:35", "indoor": "yes", "nsi_id": "unitedstatespostalservice-a77078", "operator": "United States Postal Service", "operator:short": "USPS", "operator:type": "public", "operator:wikidata": "Q668687", "ref": "1631100002"}, "type": "Feature"}
{"geometry": {"coordinates": [-79.302268073, 41.932657761], "type": "Point"}, "id": "1O4cMa6COwAUexbqn92E3-pLqTQ=", "properties": {"@source_uri": "https://tools.usps.com/UspsToolsRestServices/rest/POLocator/findLocations", "@spider": "usps_collection_boxes", "addr:city": "CHANDLRS VLY", "addr:country": "US", "addr:postcode": "16312", "addr:state": "PA", "addr:street_address": "9243 JACKSON RUN RD", "amenity": "post_box", "collection_times": "Mo-Sa 11:15", "nsi_id": "unitedstatespostalservice-a77078", "operator": "United States Postal Service", "operator:short": "USPS", "operator:type": "public", "operator:wikidata": "Q668687", "ref": "1631200000"}, "type": "Feature"}
{"geometry": {"coordinates": [-79.302268073, 41.932657761], "type": "Point"}, "id": "WWgnQM7xjIx_deJ1YjSwHI_Mvsc=", "properties": {"@source_uri": "https://tools.usps.com/UspsToolsRestServices/rest/POLocator/findLocations", "@spider": "usps_collection_boxes", "addr:city": "CHANDLRS VLY", "addr:country": "US", "addr:postcode": "16312", "addr:state": "PA", "addr:street_address": "9243 JACKSON RUN RD", "amenity": "post_box", "collection_times": "Mo-Sa 11:30", "indoor": "yes", "nsi_id": "unitedstatespostalservice-a77078", "operator": "United States Postal Service", "operator:short": "USPS", "operator:type": "public", "operator:wikidata": "Q668687", "ref": "1631200001"}, "type": "Feature"}
{"geometry": {"coordinates": [-79.302268073, 41.932657761], "type": "Point"}, "id": "-K2PCYE_nZEdMrhiryHaKyzA16M=", "properties": {"@source_uri": "https://tools.usps.com/UspsToolsRestServices/rest/POLocator/findLocations", "@spider": "usps_collection_boxes", "addr:city": "CHANDLRS VLY", "addr:country": "US", "addr:postcode": "16312", "addr:state": "PA", "addr:street_address": "9243 JACKSON RUN RD", "amenity": "post_box", "collection_times": "Mo-Sa 11:20", "indoor": "yes", "nsi_id": "unitedstatespostalservice-a77078", "operator": "United States Postal Service", "operator:short": "USPS", "operator:type": "public", "operator:wikidata": "Q668687", "ref": "1631200003"}, "type": "Feature"}
{"geometry": {"coordinates": [-79.093582064, 41.780236619], "type": "Point"}, "id": "zmwdi8tUN-PvxtqTGkGJLFhKrLA=", "properties": {"@source_uri": "https://tools.usps.com/UspsToolsRestServices/rest/POLocator/findLocations", "@spider": "usps_collection_boxes", "addr:city": "CLARENDON", "addr:country": "US", "addr:postcode": "16313", "addr:state": "PA", "addr:street_address": "11 S MAIN ST", "amenity": "post_box", "collection_times": "Mo-Fr 15:30; Sa 11:45", "note": "ON 12/24 AND 12/31, THIS BOX MAY BE COLLECTED AS EARLY AS 12 NOON.", "nsi_id": "unitedstatespostalservice-a77078", "operator": "United States Postal Service", "operator:short": "USPS", "operator:type": "public", "operator:wikidata": "Q668687", "ref": "1631300000"}, "type": "Feature"}
{"geometry": {"coordinates": [-79.093582064, 41.780236619], "type": "Point"}, "id": "TLR4l_dMrJJzWpxv0jD5VArBnyE=", "properties": {"@source_uri": "https://tools.usps.com/UspsToolsRestServices/rest/POLocator/findLocations", "@spider": "usps_collection_boxes", "addr:city": "CLARENDON", "addr:country": "US", "addr:postcode": "16313", "addr:state": "PA", "addr:street_address": "11 S MAIN ST", "amenity": "post_box", "collection_times": "Mo-Fr 15:30; Sa 12:00", "indoor": "yes", "note": "ON 12/24 AND 12/31, THIS BOX MAY BE COLLECTED AS EARLY AS 12 NOON.", "nsi_id": "unitedstatespostalservice-a77078", "operator": "United States Postal Service", "operator:short": "USPS", "operator:type": "public", "operator:wikidata": "Q668687", "ref": "1631300001"}, "type": "Feature"}
{"geometry": {"coordinates": [-79.093582064, 41.780236619], "type": "Point"}, "id": "63jjjc-uWUge8Rh4wnx8glh5f-o=", "properties": {"@source_uri": "https://tools.usps.com/UspsToolsRestServices/rest/POLocator/findLocations", "@spider": "usps_collection_boxes", "addr:city": "CLARENDON", "addr:country": "US", "addr:postcode": "16313", "addr:state": "PA", "addr:street_address": "11 S MAIN ST", "amenity": "post_box", "collection_times": "Mo-Fr 15:30; Sa 12:00", "indoor": "yes", "note": "ON 12/24 AND 12/31, THIS BOX MAY BE COLLECTED AS EARLY AS 12 NOON.", "nsi_id": "unitedstatespostalservice-a77078", "operator": "United States Postal Service", "operator:short": "USPS", "operator:type": "public", "operator:wikidata": "Q668687", "ref": "1631300003"}, "type": "Feature"}
{"geometry": {"coordinates": [-80.048700702, 41.520584637], "type": "Point"}, "id": "tFj5LEOCGvYrBIl-OUSCuz2YHg4=", "properties": {"@source_uri": "https://tools.usps.com/UspsToolsRestServices/rest/POLocator/findLocations", "@spider": "usps_collection_boxes", "addr:city": "COCHRANTON", "addr:country": "US", "addr:postcode": "16314", "addr:state": "PA", "addr:street_address": "107 N FRANKLIN ST", "amenity": "post_box", "collection_times": "Mo-Fr 16:00; Sa 12:00", "note": "ON 12/24 AND 12/31, THIS BOX MAY BE COLLECTED AS EARLY AS 12 NOON.", "nsi_id": "unitedstatespostalservice-a77078", "operator": "United States Postal Service", "operator:short": "USPS", "operator:type": "public", "operator:wikidata": "Q668687", "ref": "1631400000"}, "type": "Feature"}
{"geometry": {"coordinates": [-80.048700702, 41.520584637], "type": "Point"}, "id": "9eeRM_Dc2PCkG28GJ34kbL11nFA=", "properties": {"@source_uri": "https://tools.usps.com/UspsToolsRestServices/rest/POLocator/findLocations", "@spider": "usps_collection_boxes", "addr:city": "COCHRANTON", "addr:country": "US", "addr:postcode": "16314", "addr:state": "PA", "addr:street_address": "107 N FRANKLIN ST", "amenity": "post_box", "collection_times": "Mo-Fr 17:00; Sa 12:00", "indoor": "yes", "note": "ON 12/24 AND 12/31, THIS BOX MAY BE COLLECTED AS EARLY AS 12 NOON.", "nsi_id": "unitedstatespostalservice-a77078", "operator": "United States Postal Service", "operator:short": "USPS", "operator:type": "public", "operator:wikidata": "Q668687", "ref": "1631400001"}, "type": "Feature"}
{"geometry": {"coordinates": [-80.048700702, 41.520584637], "type": "Point"}, "id": "dlFeAAwIDwh9OfpbUPSnAtlLFcU=", "properties": {"@source_uri": "https://tools.usps.com/UspsToolsRestServices/rest/POLocator/findLocations", "@spider": "usps_collection_boxes", "addr:city": "COCHRANTON", "addr:country": "US", "addr:postcode": "16314", "addr:state": "PA", "addr:street_address": "107 N FRANKLIN ST", "amenity": "post_box", "collection_times": "Mo-Fr 17:00; Sa 12:00", "indoor": "yes", "note": "ON 12/24 AND 12/31, THIS BOX MAY BE COLLECTED AS EARLY AS 12 NOON.", "nsi_id": "unitedstatespostalservice-a77078", "operator": "United States Postal Service", "operator:short": "USPS", "operator:type": "public", "operator:wikidata": "Q668687", "ref": "1631400003"}, "type": "Feature"}
{"geometry": {"coordinates": [-80.305837862, 41.604384748], "type": "Point"}, "id": "jNnm28ypjaglc3Ig3RTMO2kB6Tc=", "properties": {"@source_uri": "https://tools.usps.com/UspsToolsRestServices/rest/POLocator/findLocations", "@spider": "usps_collection_boxes", "addr:city": "CONNEAUT LAKE", "addr:country": "US", "addr:postcode": "16316", "addr:state": "PA", "addr:street_address": "170 N 4TH ST", "amenity": "post_box", "collection_times": "Mo-Fr 15:30; Sa 12:00", "note": "ON 12/24 AND 12/31, THIS BOX MAY BE COLLECTED AS EARLY AS 12 NOON.", "nsi_id": "unitedstatespostalservice-a77078", "operator": "United States Postal Service", "operator:short": "USPS", "operator:type": "public", "operator:wikidata": "Q668687", "ref": "1631600000"}, "type": "Feature"}
{"geometry": {"coordinates": [-80.288587, 41.615222], "type": "Point"}, "id": "rcbpjaPKgYdqsZfWtAtdnHJW7DM=", "properties": {"@source_uri": "https://tools.usps.com/UspsToolsRestServices/rest/POLocator/findLocations", "@spider": "usps_collection_boxes", "addr:city": "CONNEAUT LAKE", "addr:country": "US", "addr:postcode": "16316", "addr:state": "PA", "addr:street_address": "12211 LAKESIDE DR", "amenity": "post_box", "collection_times": "Mo-Sa 09:00", "nsi_id": "unitedstatespostalservice-a77078", "operator": "United States Postal Service", "operator:short": "USPS", "operator:type": "public", "operator:wikidata": "Q668687", "ref": "1631600002"}, "type": "Feature"}
{"geometry": {"coordinates": [-80.305837862, 41.604384748], "type": "Point"}, "id": "hCXxk631Hv23xcNbzZ033nLqxUM=", "properties": {"@source_uri": "https://tools.usps.com/UspsToolsRestServices/rest/POLocator/findLocations", "@spider": "usps_collection_boxes", "addr:city": "CONNEAUT LAKE", "addr:country": "US", "addr:postcode": "16316", "addr:state": "PA", "addr:street_address": "170 N 4TH ST", "amenity": "post_box", "collection_times": "Mo-Fr 16:00; Sa 12:00", "indoor": "yes", "note": "ON 12/24 AND 12/31, THIS BOX MAY BE COLLECTED AS EARLY AS 12 NOON.", "nsi_id": "unitedstatespostalservice-a77078", "operator": "United States Postal Service", "operator:short": "USPS", "operator:type": "public", "operator:wikidata": "Q668687", "ref": "1631600003"}, "type": "Feature"}
{"geometry": {"coordinates": [-80.305837862, 41.604384748], "type": "Point"}, "id": "tMKk7oMyYe7zHNGL2Ssy4tKl7gk=", "properties": {"@source_uri": "https://tools.usps.com/UspsToolsRestServices/rest/POLocator/findLocations", "@spider": "usps_collection_boxes", "addr:city": "CONNEAUT LAKE", "addr:country": "US", "addr:postcode": "16316", "addr:state": "PA", "addr:street_address": "170 N 4TH ST", "amenity": "post_box", "collection_times": "Mo-Fr 16:00; Sa 12:00", "indoor": "yes", "note": "ON 12/24 AND 12/31, THIS BOX MAY BE COLLECTED AS EARLY AS 12 NOON.", "nsi_id": "unitedstatespostalservice-a77078", "operator": "United States Postal Service", "operator:short": "USPS", "operator:type": "public", "operator:wikidata": "Q668687", "ref": "1631600005"}, "type": "Feature"}
{"geometry": {"coordinates": [-79.871813014, 41.500709738], "type": "Point"}, "id": "oJWAqWY5vhMF9Ur2ICLAyZDyXNM=", "properties": {"@source_uri": "https://tools.usps.com/UspsToolsRestServices/rest/POLocator/findLocations", "@spider": "usps_collection_boxes", "addr:city": "COOPERSTOWN", "addr:country": "US", "addr:postcode": "16317", "addr:state": "PA", "addr:street_address": "137 BRADLEYTOWN RD", "amenity": "post_box", "collection_times": "Mo-Fr 16:45; Sa 12:00", "note": "ON 12/24 AND 12/31, THIS BOX MAY BE COLLECTED AS EARLY AS 12 NOON.", "nsi_id": "unitedstatespostalservice-a77078", "operator": "United States Postal Service", "operator:short": "USPS", "operator:type": "public", "operator:wikidata": "Q668687", "ref": "1631700000"}, "type": "Feature"}
{"geometry": {"coordinates": [-79.871813014, 41.500709738], "type": "Point"}, "id": "hRt7rjvGtWW02HRsvjPA3T9v6d8=", "properties": {"@source_uri": "https://tools.usps.com/UspsToolsRestServices/rest/POLocator/findLocations", "@spider": "usps_collection_boxes", "addr:city": "COOPERSTOWN", "addr:country": "US", "addr:postcode": "16317", "addr:state": "PA", "addr:street_address": "137 BRADLEYTOWN RD", "amenity": "post_box", "collection_times": "Mo-Fr 16:45; Sa 12:00", "indoor": "yes", "note": "ON 12/24 AND 12/31, THIS BOX MAY BE COLLECTED AS EARLY AS 12 NOON.", "nsi_id": "unitedstatespostalservice-a77078", "operator": "United States Postal Service", "operator:short": "USPS", "operator:type": "public", "operator:wikidata": "Q668687", "ref": "1631700001"}, "type": "Feature"}
{"geometry": {"coordinates": [-79.871813014, 41.500709738], "type": "Point"}, "id": "4WG8k6a_aXEX-h1ceysjyAXh_qc=", "properties": {"@source_uri": "https://tools.usps.com/UspsToolsRestServices/rest/POLocator/findLocations", "@spider": "usps_collection_boxes", "addr:city": "COOPERSTOWN", "addr:country": "US", "addr:postcode": "16317", "addr:state": "PA", "addr:street_address": "137 BRADLEYTOWN RD", "amenity": "post_box", "collection_times": "Mo-Fr 16:30; Sa 12:00", "indoor": "yes", "note": "ON 12/24 AND 12/31, THIS BOX MAY BE COLLECTED AS EARLY AS 12 NOON.", "nsi_id": "unitedstatespostalservice-a77078", "operator": "United States Postal Service", "operator:short": "USPS", "operator:type": "public", "operator:wikidata": "Q668687", "ref": "1631700003"}, "type": "Feature"}
{"geometry": {"coordinates": [-79.7182273, 41.349608], "type": "Point"}, "id": "jAixcaeSy5TelKsfZowvXiQsP-g=", "properties": {"@source_uri": "https://tools.usps.com/UspsToolsRestServices/rest/POLocator/findLocations", "@spider": "usps_collection_boxes", "addr:city": "CRANBERRY", "addr:country": "US", "addr:postcode": "16319", "addr:state": "PA", "addr:street_address": "10 KIMBERLY LN", "amenity": "post_box", "collection_times": "Mo-Sa 08:30", "nsi_id": "unitedstatespostalservice-a77078", "operator": "United States Postal Service", "operator:short": "USPS", "operator:type": "public", "operator:wikidata": "Q668687", "ref": "1631900003"}, "type": "Feature"}
{"geometry": {"coordinates": [-79.390051722, 41.589290523], "type": "Point"}, "id": "lYfTtwB6SsI7-rwUgdXudNKvv9w=", "properties": {"@source_uri": "https://tools.usps.com/UspsToolsRestServices/rest/POLocator/findLocations", "@spider": "usps_collection_boxes", "addr:city": "ENDEAVOR", "addr:country": "US", "addr:postcode": "16322", "addr:state": "PA", "addr:street_address": "17520 ROUTE 666", "amenity": "post_box", "collection_times": "Mo-Fr 16:35; Sa 13:15", "note": "ON 12/24 AND 12/31, THIS BOX MAY BE COLLECTED AS EARLY AS 12 NOON.", "nsi_id": "unitedstatespostalservice-a77078", "operator": "United States Postal Service", "operator:short": "USPS", "operator:type": "public", "operator:wikidata": "Q668687", "ref": "1632200000"}, "type": "Feature"}
{"geometry": {"coordinates": [-79.390051722, 41.589290523], "type": "Point"}, "id": "WARO36DIfwtUZXth_-vvPoS-_2E=", "properties": {"@source_uri": "https://tools.usps.com/UspsToolsRestServices/rest/POLocator/findLocations", "@spider": "usps_collection_boxes", "addr:city": "ENDEAVOR", "addr:country": "US", "addr:postcode": "16322", "addr:state": "PA", "addr:street_address": "17520 ROUTE 666", "amenity": "post_box", "collection_times": "Mo-Fr 16:35; Sa 13:15", "indoor": "yes", "note": "ON 12/24 AND 12/31, THIS BOX MAY BE COLLECTED AS EARLY AS 12 NOON.", "nsi_id": "unitedstatespostalservice-a77078", "operator": "United States Postal Service", "operator:short": "USPS", "operator:type": "public", "operator:wikidata": "Q668687", "ref": "1632200001"}, "type": "Feature"}
{"geometry": {"coordinates": [-79.390051722, 41.589290523], "type": "Point"}, "id": "h7urCooqXcl3jtwOT0EoEPmD0v8=", "properties": {"@source_uri": "https://tools.usps.com/UspsToolsRestServices/rest/POLocator/findLocations", "@spider": "usps_collection_boxes", "addr:city": "ENDEAVOR", "addr:country": "US", "addr:postcode": "16322", "addr:state": "PA", "addr:street_address": "17520 ROUTE 666", "amenity": "post_box", "collection_times": "Mo-Fr 16:35; Sa 13:10", "indoor": "yes", "note": "ON 12/24 AND 12/31, THIS BOX MAY BE COLLECTED AS EARLY AS 12 NOON.", "nsi_id": "unitedstatespostalservice-a77078", "operator": "United States Postal Service", "operator:short": "USPS", "operator:type": "public", "operator:wikidata": "Q668687", "ref": "1632200003"}, "type": "Feature"}
{"geometry": {"coordinates": [-79.8263258, 41.410383], "type": "Point"}, "id": "BV2A0ysdlrJKVmO4Er8vD29DFpk=", "properties": {"@source_uri": "https://tools.usps.com/UspsToolsRestServices/rest/POLocator/findLocations", "@spider": "usps_collection_boxes", "addr:city": "FRANKLIN", "addr:country": "US", "addr:postcode": "16323", "addr:state": "PA", "addr:street_address": "321 ROCKY GROVE AVE", "amenity": "post_box", "collection_times": "Mo-Sa 14:30", "note": "ON 12/24 AND 12/31, THIS BOX MAY BE COLLECTED AS EARLY AS 12 NOON.", "nsi_id": "unitedstatespostalservice-a77078", "operator": "United States Postal Service", "operator:short": "USPS", "operator:type": "public", "operator:wikidata": "Q668687", "ref": "1632300000"}, "type": "Feature"}
{"geometry": {"coordinates": [-79.8506999, 41.3819], "type": "Point"}, "id": "Ejj3Rew7YhyQ4hn97xU2pTnov2M=", "properties": {"@source_uri": "https://tools.usps.com/UspsToolsRestServices/rest/POLocator/findLocations", "@spider": "usps_collection_boxes", "addr:city": "FRANKLIN", "addr:country": "US", "addr:postcode": "16323", "addr:state": "PA", "addr:street_address": "1218 15TH ST", "amenity": "post_box", "collection_times": "Mo-Sa 08:45", "nsi_id": "unitedstatespostalservice-a77078", "operator": "United States Postal Service", "operator:short": "USPS", "operator:type": "public", "operator:wikidata": "Q668687", "ref": "1632300006"}, "type": "Feature"}
{"geometry": {"coordinates": [-79.8338853, 41.409261], "type": "Point"}, "id": "1gD7gjXB8ctFoMhei8aKOdyd4CQ=", "properties": {"@source_uri": "https://tools.usps.com/UspsToolsRestServices/rest/POLocator/findLocations", "@spider": "usps_collection_boxes", "addr:city": "FRANKLIN", "addr:country": "US", "addr:postcode": "16323", "addr:state": "PA", "addr:street_address": "150 PROSPECT AVE", "amenity": "post_box", "collection_times": "Mo-Fr 09:00", "nsi_id": "unitedstatespostalservice-a77078", "operator": "United States Postal Service", "operator:short": "USPS", "operator:type": "public", "operator:wikidata": "Q668687", "ref": "1632300007"}, "type": "Feature"}
{"geometry": {"coordinates": [-79.8347229975, 41.4065570111], "type": "Point"}, "id": "aK-pDPN_qUe7u4-7hy_-m1avRVU=", "properties": {"@source_uri": "https://tools.usps.com/UspsToolsRestServices/rest/POLocator/findLocations", "@spider": "usps_collection_boxes", "addr:city": "FRANKLIN", "addr:country": "US", "addr:postcode": "16323", "addr:state": "PA", "addr:street_address": "1 DALE AVE", "amenity": "post_box", "collection_times": "Mo-Sa 10:00", "nsi_id": "unitedstatespostalservice-a77078", "operator": "United States Postal Service", "operator:short": "USPS", "operator:type": "public", "operator:wikidata": "Q668687", "ref": "1632300011"}, "type": "Feature"}
{"geometry": {"coordinates": [-79.8318097966, 41.3980013911], "type": "Point"}, "id": "JmqJoHK_24pV9P3UDV4zuhglDX4=", "properties": {"@source_uri": "https://tools.usps.com/UspsToolsRestServices/rest/POLocator/findLocations", "@spider": "usps_collection_boxes", "addr:city": "FRANKLIN", "addr:country": "US", "addr:postcode": "16323", "addr:state": "PA", "addr:street_address": "1310 LIBERTY ST", "amenity": "post_box", "collection_times": "Mo-Fr 15:00; Sa 14:15", "note": "ON 12/24 AND 12/31, THIS BOX MAY BE COLLECTED AS EARLY AS 12 NOON.", "nsi_id": "unitedstatespostalservice-a77078", "operator": "United States Postal Service", "operator:short": "USPS", "operator:type": "public", "operator:wikidata": "Q668687", "ref": "1632300016"}, "type": "Feature"}
{"geometry": {"coordinates": [-79.8297718, 41.397707], "type": "Point"}, "id": "WwEjM_x7tS8O2y35OUjctPY5cRQ=", "properties": {"@source_uri": "https://tools.usps.com/UspsToolsRestServices/rest/POLocator/findLocations", "@spider": "usps_collection_boxes", "addr:city": "FRANKLIN", "addr:country": "US", "addr:postcode": "16323", "addr:state": "PA", "addr:street_address": "1243 LIBERTY ST", "amenity": "post_box", "collection_times": "Mo-Fr 15:00; Sa 14:15", "note": "ON 12/24 AND 12/31, THIS BOX MAY BE COLLECTED AS EARLY AS 12 NOON.", "nsi_id": "unitedstatespostalservice-a77078", "operator": "United States Postal Service", "operator:short": "USPS", "operator:type": "public", "operator:wikidata": "Q668687", "ref": "1632300018"}, "type": "Feature"}
{"geometry": {"coordinates": [-79.8267254, 41.394816], "type": "Point"}, "id": "atPXH9Y-8CIqrv5CWX39bGzeHIc=", "properties": {"@source_uri": "https://tools.usps.com/UspsToolsRestServices/rest/POLocator/findLocations", "@spider": "usps_collection_boxes", "addr:city": "FRANKLIN", "addr:country": "US", "addr:postcode": "16323", "addr:state": "PA", "addr:street_address": "1051 LIBERTY ST", "amenity": "post_box", "collection_times": "Mo-Sa 10:00", "nsi_id": "unitedstatespostalservice-a77078", "operator": "United States Postal Service", "operator:short": "USPS", "operator:type": "public", "operator:wikidata": "Q668687", "ref": "1632300020"}, "type": "Feature"}
{"geometry": {"coordinates": [-79.8241533, 41.391336], "type": "Point"}, "id": "X0pCZOZvKGs_cTsT5-HAEL5Esl4=", "properties": {"@source_uri": "https://tools.usps.com/UspsToolsRestServices/rest/POLocator/findLocations", "@spider": "usps_collection_boxes", "addr:city": "FRANKLIN", "addr:country": "US", "addr:postcode": "16323", "addr:state": "PA", "addr:street_address": "902 LIBERTY ST", "amenity": "post_box", "collection_times": "Mo-Sa 10:30", "nsi_id": "unitedstatespostalservice-a77078", "operator": "United States Postal Service", "operator:short": "USPS", "operator:type": "public", "operator:wikidata": "Q668687", "ref": "1632300021"}, "type": "Feature"}
{"geometry": {"coordinates": [-79.83113, 41.399455], "type": "Point"}, "id": "53NWxv3L-CJZtQvTaqDuWA8Fg8Y=", "properties": {"@source_uri": "https://tools.usps.com/UspsToolsRestServices/rest/POLocator/findLocations", "@spider": "usps_collection_boxes", "addr:city": "FRANKLIN", "addr:country": "US", "addr:postcode": "16323", "addr:state": "PA", "addr:street_address": "1202 ELK ST", "amenity": "post_box", "collection_times": "Mo-Fr 17:00; Sa 16:30", "note": "ON 12/24 AND 12/31, THIS BOX MAY BE COLLECTED AS EARLY AS 12 NOON.", "nsi_id": "unitedstatespostalservice-a77078", "operator": "United States Postal Service", "operator:short": "USPS", "operator:type": "public", "operator:wikidata": "Q668687", "ref": "1632300024"}, "type": "Feature"}
{"geometry": {"coordinates": [-79.83113, 41.399455], "type": "Point"}, "id": "A6z_N41kHDwRUfDT7gOU6TME3rQ=", "properties": {"@source_uri": "https://tools.usps.com/UspsToolsRestServices/rest/POLocator/findLocations", "@spider": "usps_collection_boxes", "addr:city": "FRANKLIN", "addr:country": "US", "addr:postcode": "16323", "addr:state": "PA", "addr:street_address": "1202 ELK ST", "amenity": "post_box", "collection_times": "Mo-Fr 17:00; Sa 16:30", "note": "ON 12/24 AND 12/31, THIS BOX MAY BE COLLECTED AS EARLY AS 12 NOON.", "nsi_id": "unitedstatespostalservice-a77078", "operator": "United States Postal Service", "operator:short": "USPS", "operator:type": "public", "operator:wikidata": "Q668687", "ref": "1632300025"}, "type": "Feature"}
{"geometry": {"coordinates": [-79.827313743, 41.398497009], "type": "Point"}, "id": "VXb1hNZZoWfxQ39jPLL4expS0v8=", "properties": {"@source_uri": "https://tools.usps.com/UspsToolsRestServices/rest/POLocator/findLocations", "@spider": "usps_collection_boxes", "addr:city": "FRANKLIN", "addr:country": "US", "addr:postcode": "16323", "addr:state": "PA", "addr:street_address": "1202 ELK ST", "amenity": "post_box", "collection_times": "Mo-Fr 17:00; Sa 16:30", "indoor": "yes", "note": "ON 12/24 AND 12/31, THIS BOX MAY BE COLLECTED AS EARLY AS 12 NOON.", "nsi_id": "unitedstatespostalservice-a77078", "operator": "United States Postal Service", "operator:short": "USPS", "operator:type": "public", "operator:wikidata": "Q668687", "ref": "1632300026"}, "type": "Feature"}
{"geometry": {"coordinates": [-79.827313743, 41.398497009], "type": "Point"}, "id": "X8pqXWuXGcbmw1Eqk8exiOzkCJQ=", "properties": {"@source_uri": "https://tools.usps.com/UspsToolsRestServices/rest/POLocator/findLocations", "@spider": "usps_collection_boxes", "addr:city": "FRANKLIN", "addr:country": "US", "addr:postcode": "16323", "addr:state": "PA", "addr:street_address": "1202 ELK ST", "amenity": "post_box", "collection_times": "Mo-Fr 17:00; Sa 12:00", "indoor": "yes", "note": "ON 12/24 AND 12/31, THIS BOX MAY BE COLLECTED AS EARLY AS 12 NOON.", "nsi_id": "unitedstatespostalservice-a77078", "operator": "United States Postal Service", "operator:short": "USPS", "operator:type": "public", "operator:wikidata": "Q668687", "ref": "1632300028"}, "type": "Feature"}
{"geometry": {"coordinates": [-79.436968171, 41.353490148], "type": "Point"}, "id": "cEUXBkIK5o6upZO_NQrTqvIng8Y=", "properties": {"@source_uri": "https://tools.usps.com/UspsToolsRestServices/rest/POLocator/findLocations", "@spider": "usps_collection_boxes", "addr:city": "FRYBURG", "addr:country": "US", "addr:postcode": "16326", "addr:state": "PA", "addr:street_address": "5383 OLD FRYBURG RD", "amenity": "post_box", "collection_times": "Mo-Fr 11:55; Sa 11:45", "nsi_id": "unitedstatespostalservice-a77078", "operator": "United States Postal Service", "operator:short": "USPS", "operator:type": "public", "operator:wikidata": "Q668687", "ref": "1632600000"}, "type": "Feature"}
{"geometry": {"coordinates": [-79.436968171, 41.353490148], "type": "Point"}, "id": "IfBYpkWl9pCn_vEfEoYx9sNXonA=", "properties": {"@source_uri": "https://tools.usps.com/UspsToolsRestServices/rest/POLocator/findLocations", "@spider": "usps_collection_boxes", "addr:city": "FRYBURG", "addr:country": "US", "addr:postcode": "16326", "addr:state": "PA", "addr:street_address": "5383 OLD FRYBURG RD", "amenity": "post_box", "collection_times": "Mo-Fr 11:55; Sa 11:45", "indoor": "yes", "nsi_id": "unitedstatespostalservice-a77078", "operator": "United States Postal Service", "operator:short": "USPS", "operator:type": "public", "operator:wikidata": "Q668687", "ref": "1632600001"}, "type": "Feature"}
{"geometry": {"coordinates": [-79.436968171, 41.353490148], "type": "Point"}, "id": "Qva_m6KVuuc-5aUMIgqTRmDeous=", "properties": {"@source_uri": "https://tools.usps.com/UspsToolsRestServices/rest/POLocator/findLocations", "@spider": "usps_collection_boxes", "addr:city": "FRYBURG", "addr:country": "US", "addr:postcode": "16326", "addr:state": "PA", "addr:street_address": "5383 OLD FRYBURG RD", "amenity": "post_box", "collection_times": "Mo-Fr 11:55; Sa 11:40", "indoor": "yes", "nsi_id": "unitedstatespostalservice-a77078", "operator": "United States Postal Service", "operator:short": "USPS", "operator:type": "public", "operator:wikidata": "Q668687", "ref": "1632600003"}, "type": "Feature"}
{"geometry": {"coordinates": [-79.976767095, 41.631983245], "type": "Point"}, "id": "pScu3smn0TdEa2epQ1pGzqXXEvs=", "properties": {"@source_uri": "https://tools.usps.com/UspsToolsRestServices/rest/POLocator/findLocations", "@spider": "usps_collection_boxes", "addr:city": "GUYS MILLS", "addr:country": "US", "addr:postcode": "16327", "addr:state": "PA", "addr:street_address": "11522 STATE HIGHWAY 198", "amenity": "post_box", "collection_times": "Mo-Fr 15:00; Sa 12:00", "note": "ON 12/24 AND 12/31, THIS BOX MAY BE COLLECTED AS EARLY AS 12 NOON.", "nsi_id": "unitedstatespostalservice-a77078", "operator": "United States Postal Service", "operator:short": "USPS", "operator:type": "public", "operator:wikidata": "Q668687", "ref": "1632700000"}, "type": "Feature"}
{"geometry": {"coordinates": [-79.976767095, 41.631983245], "type": "Point"}, "id": "5fkG6Bc3cbe-C9gq_p-4ZbcXsW4=", "properties": {"@source_uri": "https://tools.usps.com/UspsToolsRestServices/rest/POLocator/findLocations", "@spider": "usps_collection_boxes", "addr:city": "GUYS MILLS", "addr:country": "US", "addr:postcode": "16327", "addr:state": "PA", "addr:street_address": "11522 STATE HIGHWAY 198", "amenity": "post_box", "collection_times": "Mo-Fr 15:00; Sa 12:00", "indoor": "yes", "note": "ON 12/24 AND 12/31, THIS BOX MAY BE COLLECTED AS EARLY AS 12 NOON.", "nsi_id": "unitedstatespostalservice-a77078", "operator": "United States Postal Service", "operator:short": "USPS", "operator:type": "public", "operator:wikidata": "Q668687", "ref": "1632700001"}, "type": "Feature"}
{"geometry": {"coordinates": [-79.976767095, 41.631983245], "type": "Point"}, "id": "MF3RuMmnFraLOgyqSvg_E5APYhE=", "properties": {"@source_uri": "https://tools.usps.com/UspsToolsRestServices/rest/POLocator/findLocations", "@spider": "usps_collection_boxes", "addr:city": "GUYS MILLS", "addr:country": "US", "addr:postcode": "16327", "addr:state": "PA", "addr:street_address": "11522 STATE HIGHWAY 198", "amenity": "post_box", "collection_times": "Mo-Fr 15:00; Sa 12:00", "indoor": "yes", "note": "ON 12/24 AND 12/31, THIS BOX MAY BE COLLECTED AS EARLY AS 12 NOON.", "nsi_id": "unitedstatespostalservice-a77078", "operator": "United States Postal Service", "operator:short": "USPS", "operator:type": "public", "operator:wikidata": "Q668687", "ref": "1632700003"}, "type": "Feature"}
{"geometry": {"coordinates": [-79.7236831, 41.650566], "type": "Point"}, "id": "kVUnL5R9Seh8Uyl9_dH4edeSp4M=", "properties": {"@source_uri": "https://tools.usps.com/UspsToolsRestServices/rest/POLocator/findLocations", "@spider": "usps_collection_boxes", "addr:city": "HYDETOWN", "addr:country": "US", "addr:postcode": "16328", "addr:state": "PA", "addr:street_address": "12638 MAIN ST", "amenity": "post_box", "collection_times": "Mo-Sa 10:30", "nsi_id": "unitedstatespostalservice-a77078", "operator": "United States Postal Service", "operator:short": "USPS", "operator:type": "public", "operator:wikidata": "Q668687", "ref": "1632800002"}, "type": "Feature"}
{"geometry": {"coordinates": [-79.269733183, 41.838146604], "type": "Point"}, "id": "YMiN-mqei8yT_Elf6XPH6dEfssE=", "properties": {"@source_uri": "https://tools.usps.com/UspsToolsRestServices/rest/POLocator/findLocations", "@spider": "usps_collection_boxes", "addr:city": "IRVINE", "addr:country": "US", "addr:postcode": "16329", "addr:state": "PA", "addr:street_address": "853 NATIONAL FORGE RD", "amenity": "post_box", "collection_times": "Mo-Fr 11:55; Sa 10:45", "nsi_id": "unitedstatespostalservice-a77078", "operator": "United States Postal Service", "operator:short": "USPS", "operator:type": "public", "operator:wikidata": "Q668687", "ref": "1632900000"}, "type": "Feature"}
{"geometry": {"coordinates": [-79.269733183, 41.838146604], "type": "Point"}, "id": "ecVOnuv1KjOYtTsQ1oUcp5u8PZ0=", "properties": {"@source_uri": "https://tools.usps.com/UspsToolsRestServices/rest/POLocator/findLocations", "@spider": "usps_collection_boxes", "addr:city": "IRVINE", "addr:country": "US", "addr:postcode": "16329", "addr:state": "PA", "addr:street_address": "853 NATIONAL FORGE RD", "amenity": "post_box", "collection_times": "Mo-Fr 11:55; Sa 10:45", "indoor": "yes", "nsi_id": "unitedstatespostalservice-a77078", "operator": "United States Postal Service", "operator:short": "USPS", "operator:type": "public", "operator:wikidata": "Q668687", "ref": "1632900001"}, "type": "Feature"}
{"geometry": {"coordinates": [-79.269733183, 41.838146604], "type": "Point"}, "id": "P6g0_WUhPdb83IXnj7jhReELRGo=", "properties": {"@source_uri": "https://tools.usps.com/UspsToolsRestServices/rest/POLocator/findLocations", "@spider": "usps_collection_boxes", "addr:city": "IRVINE", "addr:country": "US", "addr:postcode": "16329", "addr:state": "PA", "addr:street_address": "853 NATIONAL FORGE RD", "amenity": "post_box", "collection_times": "Mo-Fr 11:55; Sa 10:40", "indoor": "yes", "nsi_id": "unitedstatespostalservice-a77078", "operator": "United States Postal Service", "operator:short": "USPS", "operator:type": "public", "operator:wikidata": "Q668687", "ref": "1632900003"}, "type": "Feature"}
{"geometry": {"coordinates": [-79.574838901, 41.285165802], "type": "Point"}, "id": "-kSSyWJjsPtZ57-ZlLEWG6SQ3ac=", "properties": {"@source_uri": "https://tools.usps.com/UspsToolsRestServices/rest/POLocator/findLocations", "@spider": "usps_collection_boxes", "addr:city": "KOSSUTH", "addr:country": "US", "addr:postcode": "16331", "addr:state": "PA", "addr:street_address": "1787 ROUTE 322 STE 1", "amenity": "post_box", "collection_times": "Mo-Fr 10:50; Sa 12:00", "nsi_id": "unitedstatespostalservice-a77078", "operator": "United States Postal Service", "operator:short": "USPS", "operator:type": "public", "operator:wikidata": "Q668687", "ref": "1633100001"}, "type": "Feature"}
{"geometry": {"coordinates": [-79.574838901, 41.285165802], "type": "Point"}, "id": "VC8gfvYV7L6JgfrLJEOKqe0TZ1E=", "properties": {"@source_uri": "https://tools.usps.com/UspsToolsRestServices/rest/POLocator/findLocations", "@spider": "usps_collection_boxes", "addr:city": "KOSSUTH", "addr:country": "US", "addr:postcode": "16331", "addr:state": "PA", "addr:street_address": "1787 ROUTE 322 STE 1", "amenity": "post_box", "collection_times": "Mo-Fr 10:50; Sa 12:15", "indoor": "yes", "note": "ON 12/24 AND 12/31, THIS BOX MAY BE COLLECTED AS EARLY AS 12 NOON.", "nsi_id": "unitedstatespostalservice-a77078", "operator": "United States Postal Service", "operator:short": "USPS", "operator:type": "public", "operator:wikidata": "Q668687", "ref": "1633100003"}, "type": "Feature"}
{"geometry": {"coordinates": [-78.94777522, 41.733104218], "type": "Point"}, "id": "Wsb20bgLy478yj7obcDBjpJueb0=", "properties": {"@source_uri": "https://tools.usps.com/UspsToolsRestServices/rest/POLocator/findLocations", "@spider": "usps_collection_boxes", "addr:city": "LUDLOW", "addr:country": "US", "addr:postcode": "16333", "addr:state": "PA", "addr:street_address": "1 LINCOLN AVE", "amenity": "post_box", "collection_times": "Mo-Fr 11:25; Sa 10:25", "nsi_id": "unitedstatespostalservice-a77078", "operator": "United States Postal Service", "operator:short": "USPS", "operator:type": "public", "operator:wikidata": "Q668687", "ref": "1633300000"}, "type": "Feature"}
{"geometry": {"coordinates": [-78.94777522, 41.733104218], "type": "Point"}, "id": "FOqH8cJ914fwt7rahYX87nCQsiM=", "properties": {"@source_uri": "https://tools.usps.com/UspsToolsRestServices/rest/POLocator/findLocations", "@spider": "usps_collection_boxes", "addr:city": "LUDLOW", "addr:country": "US", "addr:postcode": "16333", "addr:state": "PA", "addr:street_address": "1 LINCOLN AVE", "amenity": "post_box", "collection_times": "Mo-Fr 11:25; Sa 10:25", "indoor": "yes", "nsi_id": "unitedstatespostalservice-a77078", "operator": "United States Postal Service", "operator:short": "USPS", "operator:type": "public", "operator:wikidata": "Q668687", "ref": "1633300001"}, "type": "Feature"}
{"geometry": {"coordinates": [-78.94777522, 41.733104218], "type": "Point"}, "id": "zyzanm5Y8dOcjG2tuOU7FuSwoVQ=", "properties": {"@source_uri": "https://tools.usps.com/UspsToolsRestServices/rest/POLocator/findLocations", "@spider": "usps_collection_boxes", "addr:city": "LUDLOW", "addr:country": "US", "addr:postcode": "16333", "addr:state": "PA", "addr:street_address": "1 LINCOLN AVE", "amenity": "post_box", "collection_times": "Mo-Fr 11:25; Sa 10:25", "indoor": "yes", "nsi_id": "unitedstatespostalservice-a77078", "operator": "United States Postal Service", "operator:short": "USPS", "operator:type": "public", "operator:wikidata": "Q668687", "ref": "1633300003"}, "type": "Feature"}
{"geometry": {"coordinates": [-79.439355259, 41.336321522], "type": "Point"}, "id": "tregCgLkgQcR_OoLmM3m30va8AE=", "properties": {"@source_uri": "https://tools.usps.com/UspsToolsRestServices/rest/POLocator/findLocations", "@spider": "usps_collection_boxes", "addr:city": "MARBLE", "addr:country": "US", "addr:postcode": "16334", "addr:state": "PA", "addr:street_address": "18104 ROUTE 208", "amenity": "post_box", "collection_times": "Mo-Fr 16:55; Sa 11:45", "note": "ON 12/24 AND 12/31, THIS BOX MAY BE COLLECTED AS EARLY AS 12 NOON.", "nsi_id": "unitedstatespostalservice-a77078", "operator": "United States Postal Service", "operator:short": "USPS", "operator:type": "public", "operator:wikidata": "Q668687", "ref": "1633400000"}, "type": "Feature"}
{"geometry": {"coordinates": [-79.439355259, 41.336321522], "type": "Point"}, "id": "0xU1XhFlOwyuJder3RbQtKP1uuY=", "properties": {"@source_uri": "https://tools.usps.com/UspsToolsRestServices/rest/POLocator/findLocations", "@spider": "usps_collection_boxes", "addr:city": "MARBLE", "addr:country": "US", "addr:postcode": "16334", "addr:state": "PA", "addr:street_address": "18104 ROUTE 208", "amenity": "post_box", "collection_times": "Mo-Fr 16:55; Sa 11:45", "indoor": "yes", "note": "ON 12/24 AND 12/31, THIS BOX MAY BE COLLECTED AS EARLY AS 12 NOON.", "nsi_id": "unitedstatespostalservice-a77078", "operator": "United States Postal Service", "operator:short": "USPS", "operator:type": "public", "operator:wikidata": "Q668687", "ref": "1633400001"}, "type": "Feature"}
{"geometry": {"coordinates": [-79.439355259, 41.336321522], "type": "Point"}, "id": "Z7OjIl1bRLPIj2eFAr9yx39wMeY=", "properties": {"@source_uri": "https://tools.usps.com/UspsToolsRestServices/rest/POLocator/findLocations", "@spider": "usps_collection_boxes", "addr:city": "MARBLE", "addr:country": "US", "addr:postcode": "16334", "addr:state": "PA", "addr:street_address": "18104 ROUTE 208", "amenity": "post_box", "collection_times": "Mo-Fr 16:55; Sa 11:45", "indoor": "yes", "note": "ON 12/24 AND 12/31, THIS BOX MAY BE COLLECTED AS EARLY AS 12 NOON.", "nsi_id": "unitedstatespostalservice-a77078", "operator": "United States Postal Service", "operator:short": "USPS", "operator:type": "public", "operator:wikidata": "Q668687", "ref": "1633400003"}, "type": "Feature"}
{"geometry": {"coordinates": [-80.1523731828, 41.6389736678], "type": "Point"}, "id": "27atFBNmVFL5JlAd8UN3YsMvfAk=", "properties": {"@source_uri": "https://tools.usps.com/UspsToolsRestServices/rest/POLocator/findLocations", "@spider": "usps_collection_boxes", "addr:city": "MEADVILLE", "addr:country": "US", "addr:postcode": "16335", "addr:state": "PA", "addr:street_address": "898 PARK AVE SUITE 15", "amenity": "post_box", "collection_times": "Mo-Fr 11:00; Sa 09:00", "nsi_id": "unitedstatespostalservice-a77078", "operator": "United States Postal Service", "operator:short": "USPS", "operator:type": "public", "operator:wikidata": "Q668687", "ref": "1633500001"}, "type": "Feature"}
{"geometry": {"coordinates": [-80.1537204, 41.638209], "type": "Point"}, "id": "-zxP_P2HJ3kThnfUjNP_TBcCXxs=", "properties": {"@source_uri": "https://tools.usps.com/UspsToolsRestServices/rest/POLocator/findLocations", "@spider": "usps_collection_boxes", "addr:city": "MEADVILLE", "addr:country": "US", "addr:postcode": "16335", "addr:state": "PA", "addr:street_address": "230 CHESTNUT ST", "amenity": "post_box", "collection_times": "Mo-Sa 09:00", "nsi_id": "unitedstatespostalservice-a77078", "operator": "United States Postal Service", "operator:short": "USPS", "operator:type": "public", "operator:wikidata": "Q668687", "ref": "1633500002"}, "type": "Feature"}
{"geometry": {"coordinates": [-80.1512128, 41.637747], "type": "Point"}, "id": "45FbSNY60a3gHn1cCHFBWxFU6kw=", "properties": {"@source_uri": "https://tools.usps.com/UspsToolsRestServices/rest/POLocator/findLocations", "@spider": "usps_collection_boxes", "addr:city": "MEADVILLE", "addr:country": "US", "addr:postcode": "16335", "addr:state": "PA", "addr:street_address": "296 CHESTNUT ST", "amenity": "post_box", "collection_times": "Mo-Sa 09:00", "nsi_id": "unitedstatespostalservice-a77078", "operator": "United States Postal Service", "operator:short": "USPS", "operator:type": "public", "operator:wikidata": "Q668687", "ref": "1633500005"}, "type": "Feature"}
{"geometry": {"coordinates": [-80.146389, 41.641838], "type": "Point"}, "id": "Mvx1WiUu4gRzEe3x1QLOpF6MnqM=", "properties": {"@source_uri": "https://tools.usps.com/UspsToolsRestServices/rest/POLocator/findLocations", "@spider": "usps_collection_boxes", "addr:city": "MEADVILLE", "addr:country": "US", "addr:postcode": "16335", "addr:state": "PA", "addr:street_address": "751 LIBERTY ST", "amenity": "post_box", "collection_times": "Mo-Sa 09:00", "nsi_id": "unitedstatespostalservice-a77078", "operator": "United States Postal Service", "operator:short": "USPS", "operator:type": "public", "operator:wikidata": "Q668687", "ref": "1633500019"}, "type": "Feature"}
{"geometry": {"coordinates": [-80.1448716, 41.641318], "type": "Point"}, "id": "lwpc7pehuHDfwsoN8hcMICRtAV8=", "properties": {"@source_uri": "https://tools.usps.com/UspsToolsRestServices/rest/POLocator/findLocations", "@spider": "usps_collection_boxes", "addr:city": "MEADVILLE", "addr:country": "US", "addr:postcode": "16335", "addr:state": "PA", "addr:street_address": "764 KENNEDY ST", "amenity": "post_box", "collection_times": "Mo-Sa 09:00", "nsi_id": "unitedstatespostalservice-a77078", "operator": "United States Postal Service", "operator:short": "USPS", "operator:type": "public", "operator:wikidata": "Q668687", "ref": "1633500020"}, "type": "Feature"}
{"geometry": {"coordinates": [-80.1454291, 41.633523], "type": "Point"}, "id": "werX2u_iWmLw5QeJq8jI5_4Xdzg=", "properties": {"@source_uri": "https://tools.usps.com/UspsToolsRestServices/rest/POLocator/findLocations", "@spider": "usps_collection_boxes", "addr:city": "MEADVILLE", "addr:country": "US", "addr:postcode": "16335", "addr:state": "PA", "addr:street_address": "1034 GROVE ST", "amenity": "post_box", "collection_times": "Mo-Sa 09:00", "nsi_id": "unitedstatespostalservice-a77078", "operator": "United States Postal Service", "operator:short": "USPS", "operator:type": "public", "operator:wikidata": "Q668687", "ref": "1633500026"}, "type": "Feature"}
{"geometry": {"coordinates": [-80.1608784, 41.62343], "type": "Point"}, "id": "jlbR2-xE80knbJekB1EkHiUVksU=", "properties": {"@source_uri": "https://tools.usps.com/UspsToolsRestServices/rest/POLocator/findLocations", "@spider": "usps_collection_boxes", "addr:city": "MEADVILLE", "addr:country": "US", "addr:postcode": "16335", "addr:state": "PA", "addr:street_address": "19017 PARK AVENUE PLZ", "amenity": "post_box", "collection_times": "Mo-Sa 09:00", "nsi_id": "unitedstatespostalservice-a77078", "operator": "United States Postal Service", "operator:short": "USPS", "operator:type": "public", "operator:wikidata": "Q668687", "ref": "1633500030"}, "type": "Feature"}
{"geometry": {"coordinates": [-80.1559024, 41.636845], "type": "Point"}, "id": "Euz9NtjF0HggP5aUKW-tvUcorsk=", "properties": {"@source_uri": "https://tools.usps.com/UspsToolsRestServices/rest/POLocator/findLocations", "@spider": "usps_collection_boxes", "addr:city": "MEADVILLE", "addr:country": "US", "addr:postcode": "16335", "addr:state": "PA", "addr:street_address": "984 WATER ST", "amenity": "post_box", "collection_times": "Mo-Sa 09:00", "nsi_id": "unitedstatespostalservice-a77078", "operator": "United States Postal Service", "operator:short": "USPS", "operator:type": "public", "operator:wikidata": "Q668687", "ref": "1633500034"}, "type": "Feature"}
{"geometry": {"coordinates": [-80.1479819, 41.631353], "type": "Point"}, "id": "-NItj7DZrMQaSGQ2nhg5_7_DNiQ=", "properties": {"@source_uri": "https://tools.usps.com/UspsToolsRestServices/rest/POLocator/findLocations", "@spider": "usps_collection_boxes", "addr:city": "MEADVILLE", "addr:country": "US", "addr:postcode": "16335", "addr:state": "PA", "addr:street_address": "422 FAIRMONT AVE", "amenity": "post_box", "collection_times": "Mo-Sa 09:00", "nsi_id": "unitedstatespostalservice-a77078", "operator": "United States Postal Service", "operator:short": "USPS", "operator:type": "public", "operator:wikidata": "Q668687", "ref": "1633500036"}, "type": "Feature"}
{"geometry": {"coordinates": [-80.154777363, 41.637071116], "type": "Point"}, "id": "bDh_4Mm_SO7CeBoLoBoJWIOHo3I=", "properties": {"@source_uri": "https://tools.usps.com/UspsToolsRestServices/rest/POLocator/findLocations", "@spider": "usps_collection_boxes", "addr:city": "MEADVILLE", "addr:country": "US", "addr:postcode": "16335", "addr:state": "PA", "addr:street_address": "212 ARCH ST", "amenity": "post_box", "collection_times": "Mo-Fr 17:15; Sa 15:00", "note": "ON 12/24 AND 12/31, THIS BOX MAY BE COLLECTED AS EARLY AS 12 NOON.", "nsi_id": "unitedstatespostalservice-a77078", "operator": "United States Postal Service", "operator:short": "USPS", "operator:type": "public", "operator:wikidata": "Q668687", "ref": "1633500043"}, "type": "Feature"}
{"geometry": {"coordinates": [-80.2145128083, 41.6203656801], "type": "Point"}, "id": "L8cQMf13GITrsq-Nb0R3ZdhoOE0=", "properties": {"@source_uri": "https://tools.usps.com/UspsToolsRestServices/rest/POLocator/findLocations", "@spider": "usps_collection_boxes", "addr:city": "MEADVILLE", "addr:country": "US", "addr:postcode": "16335", "addr:state": "PA", "addr:street_address": "16086 CONNEAUT LAKE RD", "amenity": "post_box", "collection_times": "Mo-Sa 09:00", "nsi_id": "unitedstatespostalservice-a77078", "operator": "United States Postal Service", "operator:short": "USPS", "operator:type": "public", "operator:wikidata": "Q668687", "ref": "1633500045"}, "type": "Feature"}
{"geometry": {"coordinates": [-80.154777363, 41.637071116], "type": "Point"}, "id": "n66m8O_fs3fvFjgJV_2R4WtU0p0=", "properties": {"@source_uri": "https://tools.usps.com/UspsToolsRestServices/rest/POLocator/findLocations", "@spider": "usps_collection_boxes", "addr:city": "MEADVILLE", "addr:country": "US", "addr:postcode": "16335", "addr:state": "PA", "addr:street_address": "212 ARCH ST", "amenity": "post_box", "collection_times": "Mo-Fr 17:15; Sa 15:00", "note": "ON 12/24 AND 12/31, THIS BOX MAY BE COLLECTED AS EARLY AS 12 NOON.", "nsi_id": "unitedstatespostalservice-a77078", "operator": "United States Postal Service", "operator:short": "USPS", "operator:type": "public", "operator:wikidata": "Q668687", "ref": "1633500048"}, "type": "Feature"}
{"geometry": {"coordinates": [-80.1497033, 41.63834], "type": "Point"}, "id": "hlacZQY8w6T9Wpeyx4RPyeHgIKQ=", "properties": {"@source_uri": "https://tools.usps.com/UspsToolsRestServices/rest/POLocator/findLocations", "@spider": "usps_collection_boxes", "addr:city": "MEADVILLE", "addr:country": "US", "addr:postcode": "16335", "addr:state": "PA", "addr:street_address": "903 DIAMOND PARK", "amenity": "post_box", "collection_times": "Mo-Sa 09:00", "nsi_id": "unitedstatespostalservice-a77078", "operator": "United States Postal Service", "operator:short": "USPS", "operator:type": "public", "operator:wikidata": "Q668687", "ref": "1633500050"}, "type": "Feature"}
{"geometry": {"coordinates": [-80.155028, 41.638871], "type": "Point"}, "id": "d9PoY3wk6IPOEoYPTOh5vQ2NcuU=", "properties": {"@source_uri": "https://tools.usps.com/UspsToolsRestServices/rest/POLocator/findLocations", "@spider": "usps_collection_boxes", "addr:city": "MEADVILLE", "addr:country": "US", "addr:postcode": "16335", "addr:state": "PA", "addr:street_address": "900 WATER ST", "amenity": "post_box", "collection_times": "Mo-Fr 12:00; Sa 09:00", "nsi_id": "unitedstatespostalservice-a77078", "operator": "United States Postal Service", "operator:short": "USPS", "operator:type": "public", "operator:wikidata": "Q668687", "ref": "1633500051"}, "type": "Feature"}
{"geometry": {"coordinates": [-80.154777363, 41.637071116], "type": "Point"}, "id": "Rjj8pNTUP8iMeJLK38gY-6ye06o=", "properties": {"@source_uri": "https://tools.usps.com/UspsToolsRestServices/rest/POLocator/findLocations", "@spider": "usps_collection_boxes", "addr:city": "MEADVILLE", "addr:country": "US", "addr:postcode": "16335", "addr:state": "PA", "addr:street_address": "212 ARCH ST", "amenity": "post_box", "collection_times": "Mo-Fr 17:15; Sa 15:00", "indoor": "yes", "note": "ON 12/24 AND 12/31, THIS BOX MAY BE COLLECTED AS EARLY AS 12 NOON.", "nsi_id": "unitedstatespostalservice-a77078", "operator": "United States Postal Service", "operator:short": "USPS", "operator:type": "public", "operator:wikidata": "Q668687", "ref": "1633500052"}, "type": "Feature"}
{"geometry": {"coordinates": [-80.154777363, 41.637071116], "type": "Point"}, "id": "mXXSZ_ng2aoyIMpxuoL0TXs2eWQ=", "properties": {"@source_uri": "https://tools.usps.com/UspsToolsRestServices/rest/POLocator/findLocations", "@spider": "usps_collection_boxes", "addr:city": "MEADVILLE", "addr:country": "US", "addr:postcode": "16335", "addr:state": "PA", "addr:street_address": "212 ARCH ST", "amenity": "post_box", "collection_times": "Mo-Fr 17:15; Sa 15:00", "name": "USPS COLLECTION BOX - APC", "note": "ON 12/24 AND 12/31, THIS BOX MAY BE COLLECTED AS EARLY AS 12 NOON.", "nsi_id": "unitedstatespostalservice-a77078", "operator": "United States Postal Service", "operator:short": "USPS", "operator:type": "public", "operator:wikidata": "Q668687", "ref": "1633500053"}, "type": "Feature"}
{"geometry": {"coordinates": [-80.154777363, 41.637071116], "type": "Point"}, "id": "T38hMzyBfydRyInoG_ff7QokY8A=", "properties": {"@source_uri": "https://tools.usps.com/UspsToolsRestServices/rest/POLocator/findLocations", "@spider": "usps_collection_boxes", "addr:city": "MEADVILLE", "addr:country": "US", "addr:postcode": "16335", "addr:state": "PA", "addr:street_address": "212 ARCH ST", "amenity": "post_box", "collection_times": "Mo-Fr 17:00; Sa 12:00", "indoor": "yes", "note": "ON 12/24 AND 12/31, THIS BOX MAY BE COLLECTED AS EARLY AS 12 NOON.", "nsi_id": "unitedstatespostalservice-a77078", "operator": "United States Postal Service", "operator:short": "USPS", "operator:type": "public", "operator:wikidata": "Q668687", "ref": "1633500056"}, "type": "Feature"}
{"geometry": {"coordinates": [-79.381335, 41.834925], "type": "Point"}, "id": "-hWhzOeSLFTWsfLTSt7LzTLIHbk=", "properties": {"@source_uri": "https://tools.usps.com/UspsToolsRestServices/rest/POLocator/findLocations", "@spider": "usps_collection_boxes", "addr:city": "PITTSFIELD", "addr:country": "US", "addr:postcode": "16340", "addr:state": "PA", "addr:street_address": "128 DALRYMPLE ST", "amenity": "post_box", "collection_times": "Mo-Fr 16:45; Sa 11:45", "indoor": "yes", "note": "ON 12/24 AND 12/31, THIS BOX MAY BE COLLECTED AS EARLY AS 12 NOON.", "nsi_id": "unitedstatespostalservice-a77078", "operator": "United States Postal Service", "operator:short": "USPS", "operator:type": "public", "operator:wikidata": "Q668687", "ref": "1634000003"}, "type": "Feature"}
{"geometry": {"coordinates": [-79.381335, 41.834925], "type": "Point"}, "id": "xmKpcYNM7TBbYh6zfFkFh_wTimo=", "properties": {"@source_uri": "https://tools.usps.com/UspsToolsRestServices/rest/POLocator/findLocations", "@spider": "usps_collection_boxes", "addr:city": "PITTSFIELD", "addr:country": "US", "addr:postcode": "16340", "addr:state": "PA", "addr:street_address": "128 DALRYMPLE ST", "amenity": "post_box", "collection_times": "Mo-Fr 16:45; Sa 11:45", "note": "ON 12/24 AND 12/31, THIS BOX MAY BE COLLECTED AS EARLY AS 12 NOON.", "nsi_id": "unitedstatespostalservice-a77078", "operator": "United States Postal Service", "operator:short": "USPS", "operator:type": "public", "operator:wikidata": "Q668687", "ref": "1634000004"}, "type": "Feature"}
{"geometry": {"coordinates": [-79.580719768, 41.591376671], "type": "Point"}, "id": "VyjpgAwZe2iWUTFZJSc075x0-gM=", "properties": {"@source_uri": "https://tools.usps.com/UspsToolsRestServices/rest/POLocator/findLocations", "@spider": "usps_collection_boxes", "addr:city": "PLEASANTVILLE", "addr:country": "US", "addr:postcode": "16341", "addr:state": "PA", "addr:street_address": "125 S MAIN ST", "amenity": "post_box", "collection_times": "Mo-Fr 16:45; Sa 12:00", "note": "ON 12/24 AND 12/31, THIS BOX MAY BE COLLECTED AS EARLY AS 12 NOON.", "nsi_id": "unitedstatespostalservice-a77078", "operator": "United States Postal Service", "operator:short": "USPS", "operator:type": "public", "operator:wikidata": "Q668687", "ref": "1634100000"}, "type": "Feature"}
{"geometry": {"coordinates": [-79.580719768, 41.591376671], "type": "Point"}, "id": "f-v5LZC0iG2vyJPLN2BnCtd0HL0=", "properties": {"@source_uri": "https://tools.usps.com/UspsToolsRestServices/rest/POLocator/findLocations", "@spider": "usps_collection_boxes", "addr:city": "PLEASANTVILLE", "addr:country": "US", "addr:postcode": "16341", "addr:state": "PA", "addr:street_address": "125 S MAIN ST", "amenity": "post_box", "collection_times": "Mo-Fr 16:45; Sa 12:00", "indoor": "yes", "note": "ON 12/24 AND 12/31, THIS BOX MAY BE COLLECTED AS EARLY AS 12 NOON.", "nsi_id": "unitedstatespostalservice-a77078", "operator": "United States Postal Service", "operator:short": "USPS", "operator:type": "public", "operator:wikidata": "Q668687", "ref": "1634100001"}, "type": "Feature"}
{"geometry": {"coordinates": [-79.580719768, 41.591376671], "type": "Point"}, "id": "hHseRnt8SCOuTUBQiDJBdkHLARQ=", "properties": {"@source_uri": "https://tools.usps.com/UspsToolsRestServices/rest/POLocator/findLocations", "@spider": "usps_collection_boxes", "addr:city": "PLEASANTVILLE", "addr:country": "US", "addr:postcode": "16341", "addr:state": "PA", "addr:street_address": "125 S MAIN ST", "amenity": "post_box", "collection_times": "Mo-Fr 16:30; Sa 12:00", "indoor": "yes", "note": "ON 12/24 AND 12/31, THIS BOX MAY BE COLLECTED AS EARLY AS 12 NOON.", "nsi_id": "unitedstatespostalservice-a77078", "operator": "United States Postal Service", "operator:short": "USPS", "operator:type": "public", "operator:wikidata": "Q668687", "ref": "1634100003"}, "type": "Feature"}
{"geometry": {"coordinates": [-79.928995, 41.367255], "type": "Point"}, "id": "QCt1YMfP5FPn3HHe-RJULmeOAuk=", "properties": {"@source_uri": "https://tools.usps.com/UspsToolsRestServices/rest/POLocator/findLocations", "@spider": "usps_collection_boxes", "addr:city": "POLK", "addr:country": "US", "addr:postcode": "16342", "addr:state": "PA", "addr:street_address": "710 MAIN ST", "amenity": "post_box", "collection_times": "Mo-Fr 16:00; Sa 12:00", "note": "ON 12/24 AND 12/31, THIS BOX MAY BE COLLECTED AS EARLY AS 12 NOON.", "nsi_id": "unitedstatespostalservice-a77078", "operator": "United States Postal Service", "operator:short": "USPS", "operator:type": "public", "operator:wikidata": "Q668687", "ref": "1634200000"}, "type": "Feature"}
{"geometry": {"coordinates": [-79.928016127, 41.367813693], "type": "Point"}, "id": "N9w4tKuVE-b4kMPZS9jRmm6ZhGw=", "properties": {"@source_uri": "https://tools.usps.com/UspsToolsRestServices/rest/POLocator/findLocations", "@spider": "usps_collection_boxes", "addr:city": "POLK", "addr:country": "US", "addr:postcode": "16342", "addr:state": "PA", "addr:street_address": "710 MAIN ST", "amenity": "post_box", "collection_times": "Mo-Fr 16:00; Sa 12:00", "indoor": "yes", "note": "ON 12/24 AND 12/31, THIS BOX MAY BE COLLECTED AS EARLY AS 12 NOON.", "nsi_id": "unitedstatespostalservice-a77078", "operator": "United States Postal Service", "operator:short": "USPS", "operator:type": "public", "operator:wikidata": "Q668687", "ref": "1634200001"}, "type": "Feature"}
{"geometry": {"coordinates": [-79.928016127, 41.367813693], "type": "Point"}, "id": "tioRxwf-I9yVnoFjgmISMnoaEns=", "properties": {"@source_uri": "https://tools.usps.com/UspsToolsRestServices/rest/POLocator/findLocations", "@spider": "usps_collection_boxes", "addr:city": "POLK", "addr:country": "US", "addr:postcode": "16342", "addr:state": "PA", "addr:street_address": "710 MAIN ST", "amenity": "post_box", "collection_times": "Mo-Fr 16:00; Sa 12:00", "indoor": "yes", "note": "ON 12/24 AND 12/31, THIS BOX MAY BE COLLECTED AS EARLY AS 12 NOON.", "nsi_id": "unitedstatespostalservice-a77078", "operator": "United States Postal Service", "operator:short": "USPS", "operator:type": "public", "operator:wikidata": "Q668687", "ref": "1634200003"}, "type": "Feature"}
{"geometry": {"coordinates": [-79.752025358, 41.409433026], "type": "Point"}, "id": "8Jf_S7zzrd-n0fqQ6lh_8luOj8Q=", "properties": {"@source_uri": "https://tools.usps.com/UspsToolsRestServices/rest/POLocator/findLocations", "@spider": "usps_collection_boxes", "addr:city": "RENO", "addr:country": "US", "addr:postcode": "16343", "addr:state": "PA", "addr:street_address": "1891 ALLEGHENY BLVD", "amenity": "post_box", "collection_times": "Mo-Fr 11:55; Sa 12:00", "nsi_id": "unitedstatespostalservice-a77078", "operator": "United States Postal Service", "operator:short": "USPS", "operator:type": "public", "operator:wikidata": "Q668687", "ref": "1634300000"}, "type": "Feature"}
{"geometry": {"coordinates": [-79.74875, 41.41017], "type": "Point"}, "id": "oaHVNQUrq1JKQVF-Rrz9FokryzI=", "properties": {"@source_uri": "https://tools.usps.com/UspsToolsRestServices/rest/POLocator/findLocations", "@spider": "usps_collection_boxes", "addr:city": "RENO", "addr:country": "US", "addr:postcode": "16343", "addr:state": "PA", "addr:street_address": "1891 ALLEGHENY BLVD", "amenity": "post_box", "collection_times": "Mo-Fr 11:55; Sa 12:00", "indoor": "yes", "nsi_id": "unitedstatespostalservice-a77078", "operator": "United States Postal Service", "operator:short": "USPS", "operator:type": "public", "operator:wikidata": "Q668687", "ref": "1634300001"}, "type": "Feature"}
{"geometry": {"coordinates": [-79.74875, 41.41017], "type": "Point"}, "id": "Q2BuIaPC9TjOto_4ItEZ-4jSIe4=", "properties": {"@source_uri": "https://tools.usps.com/UspsToolsRestServices/rest/POLocator/findLocations", "@spider": "usps_collection_boxes", "addr:city": "RENO", "addr:country": "US", "addr:postcode": "16343", "addr:state": "PA", "addr:street_address": "1891 ALLEGHENY BLVD", "amenity": "post_box", "collection_times": "Mo-Sa 11:55", "indoor": "yes", "nsi_id": "unitedstatespostalservice-a77078", "operator": "United States Postal Service", "operator:short": "USPS", "operator:type": "public", "operator:wikidata": "Q668687", "ref": "1634300003"}, "type": "Feature"}
{"geometry": {"coordinates": [-79.690510007, 41.469448318], "type": "Point"}, "id": "jcBYc0YpBvCfc4Yvme7exwlpfts=", "properties": {"@source_uri": "https://tools.usps.com/UspsToolsRestServices/rest/POLocator/findLocations", "@spider": "usps_collection_boxes", "addr:city": "ROUSEVILLE", "addr:country": "US", "addr:postcode": "16344", "addr:state": "PA", "addr:street_address": "114 CHERRY RUN RD", "amenity": "post_box", "collection_times": "Mo-Fr 12:25; Sa 12:00", "note": "ON 12/24 AND 12/31, THIS BOX MAY BE COLLECTED AS EARLY AS 12 NOON.", "nsi_id": "unitedstatespostalservice-a77078", "operator": "United States Postal Service", "operator:short": "USPS", "operator:type": "public", "operator:wikidata": "Q668687", "ref": "1634400000"}, "type": "Feature"}
{"geometry": {"coordinates": [-79.6907324, 41.4725805], "type": "Point"}, "id": "jHlbffy77Fa1WKDsUbJwmywtyzw=", "properties": {"@source_uri": "https://tools.usps.com/UspsToolsRestServices/rest/POLocator/findLocations", "@spider": "usps_collection_boxes", "addr:city": "ROUSEVILLE", "addr:country": "US", "addr:postcode": "16344", "addr:state": "PA", "addr:street_address": "114 CHERRY RUN RD", "amenity": "post_box", "collection_times": "Mo-Fr 12:25; Sa 12:00", "indoor": "yes", "note": "ON 12/24 AND 12/31, THIS BOX MAY BE COLLECTED AS EARLY AS 12 NOON.", "nsi_id": "unitedstatespostalservice-a77078", "operator": "United States Postal Service", "operator:short": "USPS", "operator:type": "public", "operator:wikidata": "Q668687", "ref": "1634400001"}, "type": "Feature"}
{"geometry": {"coordinates": [-79.690510007, 41.469448318], "type": "Point"}, "id": "Fp0aC1D-AcTQ5bNyZa43obMsG88=", "properties": {"@source_uri": "https://tools.usps.com/UspsToolsRestServices/rest/POLocator/findLocations", "@spider": "usps_collection_boxes", "addr:city": "ROUSEVILLE", "addr:country": "US", "addr:postcode": "16344", "addr:state": "PA", "addr:street_address": "114 CHERRY RUN RD", "amenity": "post_box", "collection_times": "Mo-Fr 12:25; Sa 11:55", "indoor": "yes", "note": "ON 12/24 AND 12/31, THIS BOX MAY BE COLLECTED AS EARLY AS 12 NOON.", "nsi_id": "unitedstatespostalservice-a77078", "operator": "United States Postal Service", "operator:short": "USPS", "operator:type": "public", "operator:wikidata": "Q668687", "ref": "1634400003"}, "type": "Feature"}
{"geometry": {"coordinates": [-79.134316837, 41.939491074], "type": "Point"}, "id": "Hb5J-5Z_yjq5vZ5NbEqDEkqiDok=", "properties": {"@source_uri": "https://tools.usps.com/UspsToolsRestServices/rest/POLocator/findLocations", "@spider": "usps_collection_boxes", "addr:city": "RUSSELL", "addr:country": "US", "addr:postcode": "16345", "addr:state": "PA", "addr:street_address": "102 LIBERTY ST", "amenity": "post_box", "collection_times": "Mo-Fr 16:15; Sa 12:00", "note": "ON 12/24 AND 12/31, THIS BOX MAY BE COLLECTED AS EARLY AS 12 NOON.", "nsi_id": "unitedstatespostalservice-a77078", "operator": "United States Postal Service", "operator:short": "USPS", "operator:type": "public", "operator:wikidata": "Q668687", "ref": "1634500000"}, "type": "Feature"}
{"geometry": {"coordinates": [-79.134316837, 41.939491074], "type": "Point"}, "id": "PVBoD5O-snabuCZALlwwx4Dh9gQ=", "properties": {"@source_uri": "https://tools.usps.com/UspsToolsRestServices/rest/POLocator/findLocations", "@spider": "usps_collection_boxes", "addr:city": "RUSSELL", "addr:country": "US", "addr:postcode": "16345", "addr:state": "PA", "addr:street_address": "102 LIBERTY ST", "amenity": "post_box", "collection_times": "Mo-Fr 16:15; Sa 12:00", "indoor": "yes", "note": "ON 12/24 AND 12/31, THIS BOX MAY BE COLLECTED AS EARLY AS 12 NOON.", "nsi_id": "unitedstatespostalservice-a77078", "operator": "United States Postal Service", "operator:short": "USPS", "operator:type": "public", "operator:wikidata": "Q668687", "ref": "1634500001"}, "type": "Feature"}
{"geometry": {"coordinates": [-79.134316837, 41.939491074], "type": "Point"}, "id": "do-3iu8rdOWZ-AvGWGOU93GG-AY=", "properties": {"@source_uri": "https://tools.usps.com/UspsToolsRestServices/rest/POLocator/findLocations", "@spider": "usps_collection_boxes", "addr:city": "RUSSELL", "addr:country": "US", "addr:postcode": "16345", "addr:state": "PA", "addr:street_address": "102 LIBERTY ST", "amenity": "post_box", "collection_times": "Mo-Fr 16:15; Sa 12:00", "indoor": "yes", "note": "ON 12/24 AND 12/31, THIS BOX MAY BE COLLECTED AS EARLY AS 12 NOON.", "nsi_id": "unitedstatespostalservice-a77078", "operator": "United States Postal Service", "operator:short": "USPS", "operator:type": "public", "operator:wikidata": "Q668687", "ref": "1634500003"}, "type": "Feature"}
{"geometry": {"coordinates": [-79.701454, 41.377947], "type": "Point"}, "id": "PL-a0X0lNnMvRBdkTsGcHH0Qtts=", "properties": {"@source_uri": "https://tools.usps.com/UspsToolsRestServices/rest/POLocator/findLocations", "@spider": "usps_collection_boxes", "addr:city": "SENECA", "addr:country": "US", "addr:postcode": "16346", "addr:state": "PA", "addr:street_address": "130 MEADOW RD", "amenity": "post_box", "collection_times": "Mo-Fr 17:00; Sa 12:00", "note": "ON 12/24 AND 12/31, THIS BOX MAY BE COLLECTED AS EARLY AS 12 NOON.", "nsi_id": "unitedstatespostalservice-a77078", "operator": "United States Postal Service", "operator:short": "USPS", "operator:type": "public", "operator:wikidata": "Q668687", "ref": "1634600000"}, "type": "Feature"}
{"geometry": {"coordinates": [-79.701497, 41.377929], "type": "Point"}, "id": "kngOUrirQnpbujqKTFnKVEmJh6I=", "properties": {"@source_uri": "https://tools.usps.com/UspsToolsRestServices/rest/POLocator/findLocations", "@spider": "usps_collection_boxes", "addr:city": "SENECA", "addr:country": "US", "addr:postcode": "16346", "addr:state": "PA", "addr:street_address": "130 MEADOW RD", "amenity": "post_box", "collection_times": "Mo-Fr 17:00; Sa 12:00", "note": "ON 12/24 AND 12/31, THIS BOX MAY BE COLLECTED AS EARLY AS 12 NOON.", "nsi_id": "unitedstatespostalservice-a77078", "operator": "United States Postal Service", "operator:short": "USPS", "operator:type": "public", "operator:wikidata": "Q668687", "ref": "1634600001"}, "type": "Feature"}
{"geometry": {"coordinates": [-79.701497, 41.377929], "type": "Point"}, "id": "s3kYAE9nsF5r6fCASllB82DZAeA=", "properties": {"@source_uri": "https://tools.usps.com/UspsToolsRestServices/rest/POLocator/findLocations", "@spider": "usps_collection_boxes", "addr:city": "SENECA", "addr:country": "US", "addr:postcode": "16346", "addr:state": "PA", "addr:street_address": "130 MEADOW RD", "amenity": "post_box", "collection_times": "Mo-Fr 17:00; Sa 12:00", "indoor": "yes", "note": "ON 12/24 AND 12/31, THIS BOX MAY BE COLLECTED AS EARLY AS 12 NOON.", "nsi_id": "unitedstatespostalservice-a77078", "operator": "United States Postal Service", "operator:short": "USPS", "operator:type": "public", "operator:wikidata": "Q668687", "ref": "1634600002"}, "type": "Feature"}
{"geometry": {"coordinates": [-79.7013242329, 41.3779089903], "type": "Point"}, "id": "KRNyahmEopOc_Q0ku4LPm2z_Dmc=", "properties": {"@source_uri": "https://tools.usps.com/UspsToolsRestServices/rest/POLocator/findLocations", "@spider": "usps_collection_boxes", "addr:city": "SENECA", "addr:country": "US", "addr:postcode": "16346", "addr:state": "PA", "addr:street_address": "130 MEADOW RD", "amenity": "post_box", "collection_times": "Mo-Fr 17:00; Sa 12:00", "indoor": "yes", "note": "ON 12/24 AND 12/31, THIS BOX MAY BE COLLECTED AS EARLY AS 12 NOON.", "nsi_id": "unitedstatespostalservice-a77078", "operator": "United States Postal Service", "operator:short": "USPS", "operator:type": "public", "operator:wikidata": "Q668687", "ref": "1634600004"}, "type": "Feature"}
{"geometry": {"coordinates": [-79.033858, 41.702319], "type": "Point"}, "id": "AGc9xjurIg5cJzVf-74LYzezhT0=", "properties": {"@source_uri": "https://tools.usps.com/UspsToolsRestServices/rest/POLocator/findLocations", "@spider": "usps_collection_boxes", "addr:city": "SHEFFIELD", "addr:country": "US", "addr:postcode": "16347", "addr:state": "PA", "addr:street_address": "90 S MAIN ST", "amenity": "post_box", "collection_times": "Mo-Fr 16:15; Sa 11:45", "note": "ON 12/24 AND 12/31, THIS BOX MAY BE COLLECTED AS EARLY AS 12 NOON.", "nsi_id": "unitedstatespostalservice-a77078", "operator": "United States Postal Service", "operator:short": "USPS", "operator:type": "public", "operator:wikidata": "Q668687", "ref": "1634700000"}, "type": "Feature"}
{"geometry": {"coordinates": [-79.033858, 41.702319], "type": "Point"}, "id": "uPMs3r-EOJ-pJ2hzXnymUaMQ1Vc=", "properties": {"@source_uri": "https://tools.usps.com/UspsToolsRestServices/rest/POLocator/findLocations", "@spider": "usps_collection_boxes", "addr:city": "SHEFFIELD", "addr:country": "US", "addr:postcode": "16347", "addr:state": "PA", "addr:street_address": "90 S MAIN ST", "amenity": "post_box", "collection_times": "Mo-Fr 16:15; Sa 11:45", "indoor": "yes", "note": "ON 12/24 AND 12/31, THIS BOX MAY BE COLLECTED AS EARLY AS 12 NOON.", "nsi_id": "unitedstatespostalservice-a77078", "operator": "United States Postal Service", "operator:short": "USPS", "operator:type": "public", "operator:wikidata": "Q668687", "ref": "1634700001"}, "type": "Feature"}
{"geometry": {"coordinates": [-79.033858, 41.702319], "type": "Point"}, "id": "FpjLjk5a6t7yMLBndqBtbtLkOXk=", "properties": {"@source_uri": "https://tools.usps.com/UspsToolsRestServices/rest/POLocator/findLocations", "@spider": "usps_collection_boxes", "addr:city": "SHEFFIELD", "addr:country": "US", "addr:postcode": "16347", "addr:state": "PA", "addr:street_address": "90 S MAIN ST", "amenity": "post_box", "collection_times": "Mo-Fr 16:15; Sa 11:45", "indoor": "yes", "note": "ON 12/24 AND 12/31, THIS BOX MAY BE COLLECTED AS EARLY AS 12 NOON.", "nsi_id": "unitedstatespostalservice-a77078", "operator": "United States Postal Service", "operator:short": "USPS", "operator:type": "public", "operator:wikidata": "Q668687", "ref": "1634700002"}, "type": "Feature"}
{"geometry": {"coordinates": [-79.0340014056, 41.7023898909], "type": "Point"}, "id": "8-SJXBnNgOWQHeAEF1aQmj4JYXA=", "properties": {"@source_uri": "https://tools.usps.com/UspsToolsRestServices/rest/POLocator/findLocations", "@spider": "usps_collection_boxes", "addr:city": "SHEFFIELD", "addr:country": "US", "addr:postcode": "16347", "addr:state": "PA", "addr:street_address": "90 S MAIN ST", "amenity": "post_box", "collection_times": "Mo-Fr 16:15; Sa 11:30", "indoor": "yes", "note": "ON 12/24 AND 12/31, THIS BOX MAY BE COLLECTED AS EARLY AS 12 NOON.", "nsi_id": "unitedstatespostalservice-a77078", "operator": "United States Postal Service", "operator:short": "USPS", "operator:type": "public", "operator:wikidata": "Q668687", "ref": "1634700004"}, "type": "Feature"}
{"geometry": {"coordinates": [-79.340281, 41.981808], "type": "Point"}, "id": "m8J32w1SxGSZzWCOjOVD8Cb2FEs=", "properties": {"@source_uri": "https://tools.usps.com/UspsToolsRestServices/rest/POLocator/findLocations", "@spider": "usps_collection_boxes", "addr:city": "SUGARGROVE", "addr:country": "US", "addr:postcode": "16350", "addr:state": "PA", "addr:street_address": "14 ABBOTT ST", "amenity": "post_box", "collection_times": "Mo-Fr 15:45; Sa 12:00", "note": "ON 12/24 AND 12/31, THIS BOX MAY BE COLLECTED AS EARLY AS 12 NOON.", "nsi_id": "unitedstatespostalservice-a77078", "operator": "United States Postal Service", "operator:short": "USPS", "operator:type": "public", "operator:wikidata": "Q668687", "ref": "1635000000"}, "type": "Feature"}
{"geometry": {"coordinates": [-79.340318, 41.981814], "type": "Point"}, "id": "u5gODL5HSC2MjvfRcwWzXECepsE=", "properties": {"@source_uri": "https://tools.usps.com/UspsToolsRestServices/rest/POLocator/findLocations", "@spider": "usps_collection_boxes", "addr:city": "SUGARGROVE", "addr:country": "US", "addr:postcode": "16350", "addr:state": "PA", "addr:street_address": "14 ABBOTT ST", "amenity": "post_box", "collection_times": "Mo-Fr 16:00; Sa 12:00", "indoor": "yes", "note": "ON 12/24 AND 12/31, THIS BOX MAY BE COLLECTED AS EARLY AS 12 NOON.", "nsi_id": "unitedstatespostalservice-a77078", "operator": "United States Postal Service", "operator:short": "USPS", "operator:type": "public", "operator:wikidata": "Q668687", "ref": "1635000001"}, "type": "Feature"}
{"geometry": {"coordinates": [-79.3402898588, 41.9818640822], "type": "Point"}, "id": "QLRBZ-j7PYmraLWHVGtlkSPXu3c=", "properties": {"@source_uri": "https://tools.usps.com/UspsToolsRestServices/rest/POLocator/findLocations", "@spider": "usps_collection_boxes", "addr:city": "SUGARGROVE", "addr:country": "US", "addr:postcode": "16350", "addr:state": "PA", "addr:street_address": "14 ABBOTT ST", "amenity": "post_box", "collection_times": "Mo-Fr 16:30; Sa 12:00", "indoor": "yes", "note": "ON 12/24 AND 12/31, THIS BOX MAY BE COLLECTED AS EARLY AS 12 NOON.", "nsi_id": "unitedstatespostalservice-a77078", "operator": "United States Postal Service", "operator:short": "USPS", "operator:type": "public", "operator:wikidata": "Q668687", "ref": "1635000003"}, "type": "Feature"}
{"geometry": {"coordinates": [-79.410895, 41.683368], "type": "Point"}, "id": "nH7np9YO6lVcIPAYy3ifFmgko0s=", "properties": {"@source_uri": "https://tools.usps.com/UspsToolsRestServices/rest/POLocator/findLocations", "@spider": "usps_collection_boxes", "addr:city": "TIDIOUTE", "addr:country": "US", "addr:postcode": "16351", "addr:state": "PA", "addr:street_address": "160 MAIN ST", "amenity": "post_box", "collection_times": "Mo-Fr 15:00; Sa 12:15", "note": "ON 12/24 AND 12/31, THIS BOX MAY BE COLLECTED AS EARLY AS 12 NOON.", "nsi_id": "unitedstatespostalservice-a77078", "operator": "United States Postal Service", "operator:short": "USPS", "operator:type": "public", "operator:wikidata": "Q668687", "ref": "1635100000"}, "type": "Feature"}
{"geometry": {"coordinates": [-79.4160072, 41.678425], "type": "Point"}, "id": "2eoV7rP2gyKMhM19QFdqKDJGEh4=", "properties": {"@source_uri": "https://tools.usps.com/UspsToolsRestServices/rest/POLocator/findLocations", "@spider": "usps_collection_boxes", "addr:city": "TIDIOUTE", "addr:country": "US", "addr:postcode": "16351", "addr:state": "PA", "addr:street_address": "15910 ROUTE 62", "amenity": "post_box", "collection_times": "Mo-Sa 10:00", "nsi_id": "unitedstatespostalservice-a77078", "operator": "United States Postal Service", "operator:short": "USPS", "operator:type": "public", "operator:wikidata": "Q668687", "ref": "1635100004"}, "type": "Feature"}
{"geometry": {"coordinates": [-79.410826, 41.683406], "type": "Point"}, "id": "swAZb6mAwtvjWda6mDxjzB46OfY=", "properties": {"@source_uri": "https://tools.usps.com/UspsToolsRestServices/rest/POLocator/findLocations", "@spider": "usps_collection_boxes", "addr:city": "TIDIOUTE", "addr:country": "US", "addr:postcode": "16351", "addr:state": "PA", "addr:street_address": "160 MAIN ST", "amenity": "post_box", "collection_times": "Mo-Fr 15:00; Sa 12:15", "indoor": "yes", "note": "ON 12/24 AND 12/31, THIS BOX MAY BE COLLECTED AS EARLY AS 12 NOON.", "nsi_id": "unitedstatespostalservice-a77078", "operator": "United States Postal Service", "operator:short": "USPS", "operator:type": "public", "operator:wikidata": "Q668687", "ref": "1635100005"}, "type": "Feature"}
{"geometry": {"coordinates": [-79.4107370749, 41.6833826561], "type": "Point"}, "id": "GHIZwu5Mhh1a63ESTrBSrwLloYw=", "properties": {"@source_uri": "https://tools.usps.com/UspsToolsRestServices/rest/POLocator/findLocations", "@spider": "usps_collection_boxes", "addr:city": "TIDIOUTE", "addr:country": "US", "addr:postcode": "16351", "addr:state": "PA", "addr:street_address": "160 MAIN ST", "amenity": "post_box", "collection_times": "Mo-Fr 15:00; Sa 12:00", "indoor": "yes", "note": "ON 12/24 AND 12/31, THIS BOX MAY BE COLLECTED AS EARLY AS 12 NOON.", "nsi_id": "unitedstatespostalservice-a77078", "operator": "United States Postal Service", "operator:short": "USPS", "operator:type": "public", "operator:wikidata": "Q668687", "ref": "1635100007"}, "type": "Feature"}
{"geometry": {"coordinates": [-79.067436898, 41.747197986], "type": "Point"}, "id": "4m-SGgTHiqLUz800aipD93bXbiI=", "properties": {"@source_uri": "https://tools.usps.com/UspsToolsRestServices/rest/POLocator/findLocations", "@spider": "usps_collection_boxes", "addr:city": "TIONA", "addr:country": "US", "addr:postcode": "16352", "addr:state": "PA", "addr:street_address": "25 SIX MILE RD", "amenity": "post_box", "collection_times": "Mo-Fr 16:25; Sa 14:25", "note": "ON 12/24 AND 12/31, THIS BOX MAY BE COLLECTED AS EARLY AS 12 NOON.", "nsi_id": "unitedstatespostalservice-a77078", "operator": "United States Postal Service", "operator:short": "USPS", "operator:type": "public", "operator:wikidata": "Q668687", "ref": "1635200000"}, "type": "Feature"}
{"geometry": {"coordinates": [-79.067436898, 41.747197986], "type": "Point"}, "id": "kISPUGn3ZK3XVsx0pMfgNN917_o=", "properties": {"@source_uri": "https://tools.usps.com/UspsToolsRestServices/rest/POLocator/findLocations", "@spider": "usps_collection_boxes", "addr:city": "TIONA", "addr:country": "US", "addr:postcode": "16352", "addr:state": "PA", "addr:street_address": "25 SIX MILE RD", "amenity": "post_box", "collection_times": "Mo-Fr 16:25; Sa 14:25", "indoor": "yes", "note": "ON 12/24 AND 12/31, THIS BOX MAY BE COLLECTED AS EARLY AS 12 NOON.", "nsi_id": "unitedstatespostalservice-a77078", "operator": "United States Postal Service", "operator:short": "USPS", "operator:type": "public", "operator:wikidata": "Q668687", "ref": "1635200001"}, "type": "Feature"}
{"geometry": {"coordinates": [-79.067436898, 41.747197986], "type": "Point"}, "id": "rLnGn22no3JRRALU4YPDROvGq2o=", "properties": {"@source_uri": "https://tools.usps.com/UspsToolsRestServices/rest/POLocator/findLocations", "@spider": "usps_collection_boxes", "addr:city": "TIONA", "addr:country": "US", "addr:postcode": "16352", "addr:state": "PA", "addr:street_address": "25 SIX MILE RD", "amenity": "post_box", "collection_times": "Mo-Fr 16:25; Sa 14:25", "indoor": "yes", "note": "ON 12/24 AND 12/31, THIS BOX MAY BE COLLECTED AS EARLY AS 12 NOON.", "nsi_id": "unitedstatespostalservice-a77078", "operator": "United States Postal Service", "operator:short": "USPS", "operator:type": "public", "operator:wikidata": "Q668687", "ref": "1635200003"}, "type": "Feature"}
{"geometry": {"coordinates": [-79.4564278, 41.493212], "type": "Point"}, "id": "Rd_2j3Ok7cTcwllrVq02HM5eUz4=", "properties": {"@source_uri": "https://tools.usps.com/UspsToolsRestServices/rest/POLocator/findLocations", "@spider": "usps_collection_boxes", "addr:city": "TIONESTA", "addr:country": "US", "addr:postcode": "16353", "addr:state": "PA", "addr:street_address": "220 ELM ST", "amenity": "post_box", "collection_times": "Mo-Sa 12:00", "nsi_id": "unitedstatespostalservice-a77078", "operator": "United States Postal Service", "operator:short": "USPS", "operator:type": "public", "operator:wikidata": "Q668687", "ref": "1635300000"}, "type": "Feature"}
{"geometry": {"coordinates": [-79.4572081, 41.494549], "type": "Point"}, "id": "OWyJ3L6V3ZEV4OnEY7YQg5Ouv3w=", "properties": {"@source_uri": "https://tools.usps.com/UspsToolsRestServices/rest/POLocator/findLocations", "@spider": "usps_collection_boxes", "addr:city": "TIONESTA", "addr:country": "US", "addr:postcode": "16353", "addr:state": "PA", "addr:street_address": "407 ELM ST REAR", "amenity": "post_box", "collection_times": "Mo-Sa 12:00", "nsi_id": "unitedstatespostalservice-a77078", "operator": "United States Postal Service", "operator:short": "USPS", "operator:type": "public", "operator:wikidata": "Q668687", "ref": "1635300001"}, "type": "Feature"}
{"geometry": {"coordinates": [-79.457897, 41.494491], "type": "Point"}, "id": "kjjAattaaOvKC4BAb-Ujgs0O3SU=", "properties": {"@source_uri": "https://tools.usps.com/UspsToolsRestServices/rest/POLocator/findLocations", "@spider": "usps_collection_boxes", "addr:city": "TIONESTA", "addr:country": "US", "addr:postcode": "16353", "addr:state": "PA", "addr:street_address": "115 FAULKNER DR", "amenity": "post_box", "collection_times": "Mo-Fr 16:15; Sa 11:30", "note": "ON 12/24 AND 12/31, THIS BOX MAY BE COLLECTED AS EARLY AS 12 NOON.", "nsi_id": "unitedstatespostalservice-a77078", "operator": "United States Postal Service", "operator:short": "USPS", "operator:type": "public", "operator:wikidata": "Q668687", "ref": "1635300002"}, "type": "Feature"}
{"geometry": {"coordinates": [-79.457807, 41.494519], "type": "Point"}, "id": "9HvwM28BeqnoNhbOb1WrOxhLm4Q=", "properties": {"@source_uri": "https://tools.usps.com/UspsToolsRestServices/rest/POLocator/findLocations", "@spider": "usps_collection_boxes", "addr:city": "TIONESTA", "addr:country": "US", "addr:postcode": "16353", "addr:state": "PA", "addr:street_address": "115 FAULKNER DR", "amenity": "post_box", "collection_times": "Mo-Fr 16:15; Sa 12:00", "indoor": "yes", "note": "ON 12/24 AND 12/31, THIS BOX MAY BE COLLECTED AS EARLY AS 12 NOON.", "nsi_id": "unitedstatespostalservice-a77078", "operator": "United States Postal Service", "operator:short": "USPS", "operator:type": "public", "operator:wikidata": "Q668687", "ref": "1635300003"}, "type": "Feature"}
{"geometry": {"coordinates": [-79.4585875274, 41.4949401829], "type": "Point"}, "id": "W1f7CQvO0KWKCikGd5nCrD96GP0=", "properties": {"@source_uri": "https://tools.usps.com/UspsToolsRestServices/rest/POLocator/findLocations", "@spider": "usps_collection_boxes", "addr:city": "TIONESTA", "addr:country": "US", "addr:postcode": "16353", "addr:state": "PA", "addr:street_address": "115 FAULKNER DR", "amenity": "post_box", "collection_times": "Mo-Fr 16:15; Sa 12:00", "indoor": "yes", "note": "ON 12/24 AND 12/31, THIS BOX MAY BE COLLECTED AS EARLY AS 12 NOON.", "nsi_id": "unitedstatespostalservice-a77078", "operator": "United States Postal Service", "operator:short": "USPS", "operator:type": "public", "operator:wikidata": "Q668687", "ref": "1635300005"}, "type": "Feature"}
{"geometry": {"coordinates": [-79.674471222, 41.626381548], "type": "Point"}, "id": "NbcPTzpJcwbbpvljBL2yLAIAyV0=", "properties": {"@source_uri": "https://tools.usps.com/UspsToolsRestServices/rest/POLocator/findLocations", "@spider": "usps_collection_boxes", "addr:city": "TITUSVILLE", "addr:country": "US", "addr:postcode": "16354", "addr:state": "PA", "addr:street_address": "135 W SPRING ST", "amenity": "post_box", "collection_times": "Mo-Fr 17:00; Sa 15:45", "note": "ON 12/24 AND 12/31, THIS BOX MAY BE COLLECTED AS EARLY AS 12 NOON.", "nsi_id": "unitedstatespostalservice-a77078", "operator": "United States Postal Service", "operator:short": "USPS", "operator:type": "public", "operator:wikidata": "Q668687", "ref": "1635400001"}, "type": "Feature"}
{"geometry": {"coordinates": [-79.6748941, 41.62649], "type": "Point"}, "id": "mwUagxsJqtF5gHgyFZOzN-GFVWE=", "properties": {"@source_uri": "https://tools.usps.com/UspsToolsRestServices/rest/POLocator/findLocations", "@spider": "usps_collection_boxes", "addr:city": "TITUSVILLE", "addr:country": "US", "addr:postcode": "16354", "addr:state": "PA", "addr:street_address": "128 W SPRING ST", "amenity": "post_box", "collection_times": "Mo-Fr 17:00; Sa 15:45", "note": "ON 12/24 AND 12/31, THIS BOX MAY BE COLLECTED AS EARLY AS 12 NOON.", "nsi_id": "unitedstatespostalservice-a77078", "operator": "United States Postal Service", "operator:short": "USPS", "operator:type": "public", "operator:wikidata": "Q668687", "ref": "1635400003"}, "type": "Feature"}
{"geometry": {"coordinates": [-79.6749549, 41.626513], "type": "Point"}, "id": "M5dRtOnR27HDEgZQ4hYe34n_mUs=", "properties": {"@source_uri": "https://tools.usps.com/UspsToolsRestServices/rest/POLocator/findLocations", "@spider": "usps_collection_boxes", "addr:city": "TITUSVILLE", "addr:country": "US", "addr:postcode": "16354", "addr:state": "PA", "addr:street_address": "128 W SPRING ST", "amenity": "post_box", "collection_times": "Mo-Fr 17:00; Sa 15:45", "note": "ON 12/24 AND 12/31, THIS BOX MAY BE COLLECTED AS EARLY AS 12 NOON.", "nsi_id": "unitedstatespostalservice-a77078", "operator": "United States Postal Service", "operator:short": "USPS", "operator:type": "public", "operator:wikidata": "Q668687", "ref": "1635400004"}, "type": "Feature"}
{"geometry": {"coordinates": [-79.6754799, 41.627003], "type": "Point"}, "id": "6TonT16WNEAKcAdKzZaAMkFP6OU=", "properties": {"@source_uri": "https://tools.usps.com/UspsToolsRestServices/rest/POLocator/findLocations", "@spider": "usps_collection_boxes", "addr:city": "TITUSVILLE", "addr:country": "US", "addr:postcode": "16354", "addr:state": "PA", "addr:street_address": "201 W CENTRAL AVE", "amenity": "post_box", "collection_times": "Mo-Fr 17:00; Sa 15:45", "note": "ON 12/24 AND 12/31, THIS BOX MAY BE COLLECTED AS EARLY AS 12 NOON.", "nsi_id": "unitedstatespostalservice-a77078", "operator": "United States Postal Service", "operator:short": "USPS", "operator:type": "public", "operator:wikidata": "Q668687", "ref": "1635400005"}, "type": "Feature"}
{"geometry": {"coordinates": [-79.6732924, 41.628188], "type": "Point"}, "id": "A0bVRkYWg5sYV6ayTCvQX_qP0ls=", "properties": {"@source_uri": "https://tools.usps.com/UspsToolsRestServices/rest/POLocator/findLocations", "@spider": "usps_collection_boxes", "addr:city": "TITUSVILLE", "addr:country": "US", "addr:postcode": "16354", "addr:state": "PA", "addr:street_address": "101 E MAIN ST", "amenity": "post_box", "collection_times": "Mo-Sa 14:30", "note": "ON 12/24 AND 12/31, THIS BOX MAY BE COLLECTED AS EARLY AS 12 NOON.", "nsi_id": "unitedstatespostalservice-a77078", "operator": "United States Postal Service", "operator:short": "USPS", "operator:type": "public", "operator:wikidata": "Q668687", "ref": "1635400007"}, "type": "Feature"}
{"geometry": {"coordinates": [-79.6706042, 41.625554], "type": "Point"}, "id": "jm-PrlWhdU2EjOnOFPDt3jNaCDs=", "properties": {"@source_uri": "https://tools.usps.com/UspsToolsRestServices/rest/POLocator/findLocations", "@spider": "usps_collection_boxes", "addr:city": "TITUSVILLE", "addr:country": "US", "addr:postcode": "16354", "addr:state": "PA", "addr:street_address": "120 S MARTIN ST", "amenity": "post_box", "collection_times": "Mo-Sa 14:15", "note": "ON 12/24 AND 12/31, THIS BOX MAY BE COLLECTED AS EARLY AS 12 NOON.", "nsi_id": "unitedstatespostalservice-a77078", "operator": "United States Postal Service", "operator:short": "USPS", "operator:type": "public", "operator:wikidata": "Q668687", "ref": "1635400010"}, "type": "Feature"}
{"geometry": {"coordinates": [-79.6707117, 41.626835], "type": "Point"}, "id": "RAZc0kIZoi6tJqbueHVPXjxhvV4=", "properties": {"@source_uri": "https://tools.usps.com/UspsToolsRestServices/rest/POLocator/findLocations", "@spider": "usps_collection_boxes", "addr:city": "TITUSVILLE", "addr:country": "US", "addr:postcode": "16354", "addr:state": "PA", "addr:street_address": "217 E CENTRAL AVE", "amenity": "post_box", "collection_times": "Mo-Sa 14:15", "note": "ON 12/24 AND 12/31, THIS BOX MAY BE COLLECTED AS EARLY AS 12 NOON.", "nsi_id": "unitedstatespostalservice-a77078", "operator": "United States Postal Service", "operator:short": "USPS", "operator:type": "public", "operator:wikidata": "Q668687", "ref": "1635400012"}, "type": "Feature"}
{"geometry": {"coordinates": [-79.6842173, 41.637495], "type": "Point"}, "id": "gLMKy8KWIduAfiJk7zWaBw00BHA=", "properties": {"@source_uri": "https://tools.usps.com/UspsToolsRestServices/rest/POLocator/findLocations", "@spider": "usps_collection_boxes", "addr:city": "TITUSVILLE", "addr:country": "US", "addr:postcode": "16354", "addr:state": "PA", "addr:street_address": "7 JACKSON WAY", "amenity": "post_box", "collection_times": "Mo-Sa 12:30", "note": "ON 12/24 AND 12/31, THIS BOX MAY BE COLLECTED AS EARLY AS 12 NOON.", "nsi_id": "unitedstatespostalservice-a77078", "operator": "United States Postal Service", "operator:short": "USPS", "operator:type": "public", "operator:wikidata": "Q668687", "ref": "1635400013"}, "type": "Feature"}
{"geometry": {"coordinates": [-79.6787821, 41.627025], "type": "Point"}, "id": "Biau_9OcrmQ3r6ig4kH_VWAlaiU=", "properties": {"@source_uri": "https://tools.usps.com/UspsToolsRestServices/rest/POLocator/findLocations", "@spider": "usps_collection_boxes", "addr:city": "TITUSVILLE", "addr:country": "US", "addr:postcode": "16354", "addr:state": "PA", "addr:street_address": "329 W CENTRAL AVE", "amenity": "post_box", "collection_times": "Mo-Sa 14:30", "note": "ON 12/24 AND 12/31, THIS BOX MAY BE COLLECTED AS EARLY AS 12 NOON.", "nsi_id": "unitedstatespostalservice-a77078", "operator": "United States Postal Service", "operator:short": "USPS", "operator:type": "public", "operator:wikidata": "Q668687", "ref": "1635400016"}, "type": "Feature"}
{"geometry": {"coordinates": [-79.6824212, 41.628241], "type": "Point"}, "id": "TFpclSy_04z9alaXpibe4CoOalU=", "properties": {"@source_uri": "https://tools.usps.com/UspsToolsRestServices/rest/POLocator/findLocations", "@spider": "usps_collection_boxes", "addr:city": "TITUSVILLE", "addr:country": "US", "addr:postcode": "16354", "addr:state": "PA", "addr:street_address": "533 W MAIN ST", "amenity": "post_box", "collection_times": "Mo-Sa 14:15", "note": "ON 12/24 AND 12/31, THIS BOX MAY BE COLLECTED AS EARLY AS 12 NOON.", "nsi_id": "unitedstatespostalservice-a77078", "operator": "United States Postal Service", "operator:short": "USPS", "operator:type": "public", "operator:wikidata": "Q668687", "ref": "1635400026"}, "type": "Feature"}
{"geometry": {"coordinates": [-79.674471222, 41.626381548], "type": "Point"}, "id": "-f61S17yPWZQKU76ekFu18GJSz0=", "properties": {"@source_uri": "https://tools.usps.com/UspsToolsRestServices/rest/POLocator/findLocations", "@spider": "usps_collection_boxes", "addr:city": "TITUSVILLE", "addr:country": "US", "addr:postcode": "16354", "addr:state": "PA", "addr:street_address": "135 W SPRING ST", "amenity": "post_box", "collection_times": "Mo-Fr 17:00; Sa 15:45", "indoor": "yes", "note": "ON 12/24 AND 12/31, THIS BOX MAY BE COLLECTED AS EARLY AS 12 NOON.", "nsi_id": "unitedstatespostalservice-a77078", "operator": "United States Postal Service", "operator:short": "USPS", "operator:type": "public", "operator:wikidata": "Q668687", "ref": "1635400034"}, "type": "Feature"}
{"geometry": {"coordinates": [-79.674471222, 41.626381548], "type": "Point"}, "id": "X4pqlzw89eyYB4lRWZNfdFnxUOo=", "properties": {"@source_uri": "https://tools.usps.com/UspsToolsRestServices/rest/POLocator/findLocations", "@spider": "usps_collection_boxes", "addr:city": "TITUSVILLE", "addr:country": "US", "addr:postcode": "16354", "addr:state": "PA", "addr:street_address": "135 W SPRING ST", "amenity": "post_box", "collection_times": "Mo-Fr 17:00; Sa 12:00", "indoor": "yes", "note": "ON 12/24 AND 12/31, THIS BOX MAY BE COLLECTED AS EARLY AS 12 NOON.", "nsi_id": "unitedstatespostalservice-a77078", "operator": "United States Postal Service", "operator:short": "USPS", "operator:type": "public", "operator:wikidata": "Q668687", "ref": "1635400037"}, "type": "Feature"}
{"geometry": {"coordinates": [-79.880547, 41.678159], "type": "Point"}, "id": "lpEoIVkXJylnxeGByeYV35ESR6g=", "properties": {"@source_uri": "https://tools.usps.com/UspsToolsRestServices/rest/POLocator/findLocations", "@spider": "usps_collection_boxes", "addr:city": "TOWNVILLE", "addr:country": "US", "addr:postcode": "16360", "addr:state": "PA", "addr:street_address": "33432 N MAIN ST", "amenity": "post_box", "collection_times": "Mo-Fr 15:00; Sa 10:45", "note": "ON 12/24 AND 12/31, THIS BOX MAY BE COLLECTED AS EARLY AS 12 NOON.", "nsi_id": "unitedstatespostalservice-a77078", "operator": "United States Postal Service", "operator:short": "USPS", "operator:type": "public", "operator:wikidata": "Q668687", "ref": "1636000000"}, "type": "Feature"}
{"geometry": {"coordinates": [-79.8806733, 41.678473], "type": "Point"}, "id": "wuvPpdydTjj5-wOBMXLzW_8bFt4=", "properties": {"@source_uri": "https://tools.usps.com/UspsToolsRestServices/rest/POLocator/findLocations", "@spider": "usps_collection_boxes", "addr:city": "TOWNVILLE", "addr:country": "US", "addr:postcode": "16360", "addr:state": "PA", "addr:street_address": "33432 N MAIN ST", "amenity": "post_box", "collection_times": "Mo-Fr 15:00; Sa 10:45", "indoor": "yes", "note": "ON 12/24 AND 12/31, THIS BOX MAY BE COLLECTED AS EARLY AS 12 NOON.", "nsi_id": "unitedstatespostalservice-a77078", "operator": "United States Postal Service", "operator:short": "USPS", "operator:type": "public", "operator:wikidata": "Q668687", "ref": "1636000001"}, "type": "Feature"}
{"geometry": {"coordinates": [-79.8805206055, 41.6781790647], "type": "Point"}, "id": "zYv39AWo9tmA41m-2itseS643L4=", "properties": {"@source_uri": "https://tools.usps.com/UspsToolsRestServices/rest/POLocator/findLocations", "@spider": "usps_collection_boxes", "addr:city": "TOWNVILLE", "addr:country": "US", "addr:postcode": "16360", "addr:state": "PA", "addr:street_address": "33432 N MAIN ST", "amenity": "post_box", "collection_times": "Mo-Fr 15:00; Sa 11:00", "indoor": "yes", "note": "ON 12/24 AND 12/31, THIS BOX MAY BE COLLECTED AS EARLY AS 12 NOON.", "nsi_id": "unitedstatespostalservice-a77078", "operator": "United States Postal Service", "operator:short": "USPS", "operator:type": "public", "operator:wikidata": "Q668687", "ref": "1636000003"}, "type": "Feature"}
{"geometry": {"coordinates": [-79.321834407, 41.385366], "type": "Point"}, "id": "L1XsGkutsJGQQ4T9Dq9KHDoHHu0=", "properties": {"@source_uri": "https://tools.usps.com/UspsToolsRestServices/rest/POLocator/findLocations", "@spider": "usps_collection_boxes", "addr:city": "TYLERSBURG", "addr:country": "US", "addr:postcode": "16361", "addr:state": "PA", "addr:street_address": "8206 ROUTE 36", "amenity": "post_box", "collection_times": "Mo-Fr 12:25; Sa 12:15", "note": "ON 12/24 AND 12/31, THIS BOX MAY BE COLLECTED AS EARLY AS 12 NOON.", "nsi_id": "unitedstatespostalservice-a77078", "operator": "United States Postal Service", "operator:short": "USPS", "operator:type": "public", "operator:wikidata": "Q668687", "ref": "1636100000"}, "type": "Feature"}
{"geometry": {"coordinates": [-79.321834407, 41.385366], "type": "Point"}, "id": "0TLInWo-5AFVyE5WPnk977LdDAw=", "properties": {"@source_uri": "https://tools.usps.com/UspsToolsRestServices/rest/POLocator/findLocations", "@spider": "usps_collection_boxes", "addr:city": "TYLERSBURG", "addr:country": "US", "addr:postcode": "16361", "addr:state": "PA", "addr:street_address": "8206 ROUTE 36", "amenity": "post_box", "collection_times": "Mo-Fr 12:25; Sa 12:15", "indoor": "yes", "note": "ON 12/24 AND 12/31, THIS BOX MAY BE COLLECTED AS EARLY AS 12 NOON.", "nsi_id": "unitedstatespostalservice-a77078", "operator": "United States Postal Service", "operator:short": "USPS", "operator:type": "public", "operator:wikidata": "Q668687", "ref": "1636100001"}, "type": "Feature"}
{"geometry": {"coordinates": [-79.321834407, 41.385366], "type": "Point"}, "id": "muAjRPIH01EtemBM0eB5woARnA8=", "properties": {"@source_uri": "https://tools.usps.com/UspsToolsRestServices/rest/POLocator/findLocations", "@spider": "usps_collection_boxes", "addr:city": "TYLERSBURG", "addr:country": "US", "addr:postcode": "16361", "addr:state": "PA", "addr:street_address": "8206 ROUTE 36", "amenity": "post_box", "collection_times": "Mo-Fr 12:25; Sa 12:10", "indoor": "yes", "note": "ON 12/24 AND 12/31, THIS BOX MAY BE COLLECTED AS EARLY AS 12 NOON.", "nsi_id": "unitedstatespostalservice-a77078", "operator": "United States Postal Service", "operator:short": "USPS", "operator:type": "public", "operator:wikidata": "Q668687", "ref": "1636100003"}, "type": "Feature"}
{"geometry": {"coordinates": [-79.957768623, 41.434796077], "type": "Point"}, "id": "rIHzJA02M58oEjZFDBJTbNwRj-M=", "properties": {"@source_uri": "https://tools.usps.com/UspsToolsRestServices/rest/POLocator/findLocations", "@spider": "usps_collection_boxes", "addr:city": "UTICA", "addr:country": "US", "addr:postcode": "16362", "addr:state": "PA", "addr:street_address": "3838 ACADEMY ST", "amenity": "post_box", "collection_times": "Mo-Fr 11:55; Sa 10:30", "nsi_id": "unitedstatespostalservice-a77078", "operator": "United States Postal Service", "operator:short": "USPS", "operator:type": "public", "operator:wikidata": "Q668687", "ref": "1636200000"}, "type": "Feature"}
{"geometry": {"coordinates": [-79.957768623, 41.434796077], "type": "Point"}, "id": "60a6obJxcNUwetUDXfXPb8hYWeE=", "properties": {"@source_uri": "https://tools.usps.com/UspsToolsRestServices/rest/POLocator/findLocations", "@spider": "usps_collection_boxes", "addr:city": "UTICA", "addr:country": "US", "addr:postcode": "16362", "addr:state": "PA", "addr:street_address": "3838 ACADEMY ST", "amenity": "post_box", "collection_times": "Mo-Fr 11:55; Sa 10:30", "indoor": "yes", "nsi_id": "unitedstatespostalservice-a77078", "operator": "United States Postal Service", "operator:short": "USPS", "operator:type": "public", "operator:wikidata": "Q668687", "ref": "1636200001"}, "type": "Feature"}
{"geometry": {"coordinates": [-79.957768623, 41.434796077], "type": "Point"}, "id": "cJh-eGnlb_ooOeVxkdpYBPT0Bp0=", "properties": {"@source_uri": "https://tools.usps.com/UspsToolsRestServices/rest/POLocator/findLocations", "@spider": "usps_collection_boxes", "addr:city": "UTICA", "addr:country": "US", "addr:postcode": "16362", "addr:state": "PA", "addr:street_address": "3838 ACADEMY ST", "amenity": "post_box", "collection_times": "Mo-Fr 11:55; Sa 10:40", "indoor": "yes", "nsi_id": "unitedstatespostalservice-a77078", "operator": "United States Postal Service", "operator:short": "USPS", "operator:type": "public", "operator:wikidata": "Q668687", "ref": "1636200003"}, "type": "Feature"}
{"geometry": {"coordinates": [-79.478494677, 41.367173839], "type": "Point"}, "id": "UbbZmp6kdSsoIFNJVDs8tsdAXDE=", "properties": {"@source_uri": "https://tools.usps.com/UspsToolsRestServices/rest/POLocator/findLocations", "@spider": "usps_collection_boxes", "addr:city": "VENUS", "addr:country": "US", "addr:postcode": "16364", "addr:state": "PA", "addr:street_address": "4650 STATE ROUTE 157", "amenity": "post_box", "collection_times": "Mo-Fr 10:55; Sa 10:45", "nsi_id": "unitedstatespostalservice-a77078", "operator": "United States Postal Service", "operator:short": "USPS", "operator:type": "public", "operator:wikidata": "Q668687", "ref": "1636400000"}, "type": "Feature"}
{"geometry": {"coordinates": [-79.478494677, 41.367173839], "type": "Point"}, "id": "ByPvZrB3ufNh_F5r-6NrbORPER4=", "properties": {"@source_uri": "https://tools.usps.com/UspsToolsRestServices/rest/POLocator/findLocations", "@spider": "usps_collection_boxes", "addr:city": "VENUS", "addr:country": "US", "addr:postcode": "16364", "addr:state": "PA", "addr:street_address": "4650 STATE ROUTE 157", "amenity": "post_box", "collection_times": "Mo-Fr 10:55; Sa 10:45", "indoor": "yes", "nsi_id": "unitedstatespostalservice-a77078", "operator": "United States Postal Service", "operator:short": "USPS", "operator:type": "public", "operator:wikidata": "Q668687", "ref": "1636400001"}, "type": "Feature"}
{"geometry": {"coordinates": [-79.478494677, 41.367173839], "type": "Point"}, "id": "2kDxF8w6Da5wn6fjPMJGFcdXVvc=", "properties": {"@source_uri": "https://tools.usps.com/UspsToolsRestServices/rest/POLocator/findLocations", "@spider": "usps_collection_boxes", "addr:city": "VENUS", "addr:country": "US", "addr:postcode": "16364", "addr:state": "PA", "addr:street_address": "4650 STATE ROUTE 157", "amenity": "post_box", "collection_times": "Mo-Fr 10:55; Sa 10:45", "indoor": "yes", "nsi_id": "unitedstatespostalservice-a77078", "operator": "United States Postal Service", "operator:short": "USPS", "operator:type": "public", "operator:wikidata": "Q668687", "ref": "1636400003"}, "type": "Feature"}
{"geometry": {"coordinates": [-79.147224644, 41.846444286], "type": "Point"}, "id": "birktqVEFUpucZXfStxfXCVn4Vg=", "properties": {"@source_uri": "https://tools.usps.com/UspsToolsRestServices/rest/POLocator/findLocations", "@spider": "usps_collection_boxes", "addr:city": "WARREN", "addr:country": "US", "addr:postcode": "16365", "addr:state": "PA", "addr:street_address": "210 W 3RD AVE", "amenity": "post_box", "collection_times": "Mo-Fr 17:00; Sa 13:30", "note": "ON 12/24 AND 12/31, THIS BOX MAY BE COLLECTED AS EARLY AS 12 NOON.", "nsi_id": "unitedstatespostalservice-a77078", "operator": "United States Postal Service", "operator:short": "USPS", "operator:type": "public", "operator:wikidata": "Q668687", "ref": "1636500003"}, "type": "Feature"}
{"geometry": {"coordinates": [-79.147224644, 41.846444286], "type": "Point"}, "id": "dtqBsTrWXc2MD4jN0KxLcyz8Uwk=", "properties": {"@source_uri": "https://tools.usps.com/UspsToolsRestServices/rest/POLocator/findLocations", "@spider": "usps_collection_boxes", "addr:city": "WARREN", "addr:country": "US", "addr:postcode": "16365", "addr:state": "PA", "addr:street_address": "210 W 3RD AVE", "amenity": "post_box", "collection_times": "Mo-Fr 17:00; Sa 13:30", "note": "ON 12/24 AND 12/31, THIS BOX MAY BE COLLECTED AS EARLY AS 12 NOON.", "nsi_id": "unitedstatespostalservice-a77078", "operator": "United States Postal Service", "operator:short": "USPS", "operator:type": "public", "operator:wikidata": "Q668687", "ref": "1636500004"}, "type": "Feature"}
{"geometry": {"coordinates": [-79.147224644, 41.846444286], "type": "Point"}, "id": "Yn_l5bUJHKTwptcY4xCAWnrft8I=", "properties": {"@source_uri": "https://tools.usps.com/UspsToolsRestServices/rest/POLocator/findLocations", "@spider": "usps_collection_boxes", "addr:city": "WARREN", "addr:country": "US", "addr:postcode": "16365", "addr:state": "PA", "addr:street_address": "210 W 3RD AVE", "amenity": "post_box", "collection_times": "Mo-Fr 17:00; Sa 13:30", "note": "ON 12/24 AND 12/31, THIS BOX MAY BE COLLECTED AS EARLY AS 12 NOON.", "nsi_id": "unitedstatespostalservice-a77078", "operator": "United States Postal Service", "operator:short": "USPS", "operator:type": "public", "operator:wikidata": "Q668687", "ref": "1636500005"}, "type": "Feature"}
{"geometry": {"coordinates": [-79.1445249, 41.842104], "type": "Point"}, "id": "h-M83O8ala0wA1B2DqfP2BFA3YI=", "properties": {"@source_uri": "https://tools.usps.com/UspsToolsRestServices/rest/POLocator/findLocations", "@spider": "usps_collection_boxes", "addr:city": "WARREN", "addr:country": "US", "addr:postcode": "16365", "addr:state": "PA", "addr:street_address": "24 MARKET ST", "amenity": "post_box", "collection_times": "Mo-Fr 15:00; Sa 12:00", "note": "ON 12/24 AND 12/31, THIS BOX MAY BE COLLECTED AS EARLY AS 12 NOON.", "nsi_id": "unitedstatespostalservice-a77078", "operator": "United States Postal Service", "operator:short": "USPS", "operator:type": "public", "operator:wikidata": "Q668687", "ref": "1636500018"}, "type": "Feature"}
{"geometry": {"coordinates": [-79.1493971, 41.873921], "type": "Point"}, "id": "cA5P-JoBDkKEByvRXmpdCNv_uvs=", "properties": {"@source_uri": "https://tools.usps.com/UspsToolsRestServices/rest/POLocator/findLocations", "@spider": "usps_collection_boxes", "addr:city": "WARREN", "addr:country": "US", "addr:postcode": "16365", "addr:state": "PA", "addr:street_address": "23 JACKSON RUN RD", "amenity": "post_box", "collection_times": "Mo-Sa 14:00", "note": "ON 12/24 AND 12/31, THIS BOX MAY BE COLLECTED AS EARLY AS 12 NOON.", "nsi_id": "unitedstatespostalservice-a77078", "operator": "United States Postal Service", "operator:short": "USPS", "operator:type": "public", "operator:wikidata": "Q668687", "ref": "1636500020"}, "type": "Feature"}
{"geometry": {"coordinates": [-79.1490528, 41.899433], "type": "Point"}, "id": "S_cOaOdJpkhApUJMBXHY2CmwOlo=", "properties": {"@source_uri": "https://tools.usps.com/UspsToolsRestServices/rest/POLocator/findLocations", "@spider": "usps_collection_boxes", "addr:city": "WARREN", "addr:country": "US", "addr:postcode": "16365", "addr:state": "PA", "addr:street_address": "4210 MARKET ST", "amenity": "post_box", "collection_times": "Mo-Sa 09:00", "nsi_id": "unitedstatespostalservice-a77078", "operator": "United States Postal Service", "operator:short": "USPS", "operator:type": "public", "operator:wikidata": "Q668687", "ref": "1636500021"}, "type": "Feature"}
{"geometry": {"coordinates": [-79.1478127, 41.89691], "type": "Point"}, "id": "j18emRvC6iMEcgUurBq55PL8pbA=", "properties": {"@source_uri": "https://tools.usps.com/UspsToolsRestServices/rest/POLocator/findLocations", "@spider": "usps_collection_boxes", "addr:city": "WARREN", "addr:country": "US", "addr:postcode": "16365", "addr:state": "PA", "addr:street_address": "4000 MARKET ST", "amenity": "post_box", "collection_times": "Mo-Sa 09:00", "nsi_id": "unitedstatespostalservice-a77078", "operator": "United States Postal Service", "operator:short": "USPS", "operator:type": "public", "operator:wikidata": "Q668687", "ref": "1636500022"}, "type": "Feature"}
{"geometry": {"coordinates": [-79.1526129, 41.880555], "type": "Point"}, "id": "wzHG5z1uEFh9w199LXy88fKZVOU=", "properties": {"@source_uri": "https://tools.usps.com/UspsToolsRestServices/rest/POLocator/findLocations", "@spider": "usps_collection_boxes", "addr:city": "WARREN", "addr:country": "US", "addr:postcode": "16365", "addr:state": "PA", "addr:street_address": "2771 MARKET ST", "amenity": "post_box", "collection_times": "Mo-Sa 12:30", "note": "ON 12/24 AND 12/31, THIS BOX MAY BE COLLECTED AS EARLY AS 12 NOON.", "nsi_id": "unitedstatespostalservice-a77078", "operator": "United States Postal Service", "operator:short": "USPS", "operator:type": "public", "operator:wikidata": "Q668687", "ref": "1636500023"}, "type": "Feature"}
{"geometry": {"coordinates": [-79.1539847, 41.8342], "type": "Point"}, "id": "TeEyDckbmtg36v_dFIw7k6zI9nk=", "properties": {"@source_uri": "https://tools.usps.com/UspsToolsRestServices/rest/POLocator/findLocations", "@spider": "usps_collection_boxes", "addr:city": "WARREN", "addr:country": "US", "addr:postcode": "16365", "addr:state": "PA", "addr:street_address": "161 PLEASANT DR", "amenity": "post_box", "collection_times": "Mo-Sa 14:30", "note": "ON 12/24 AND 12/31, THIS BOX MAY BE COLLECTED AS EARLY AS 12 NOON.", "nsi_id": "unitedstatespostalservice-a77078", "operator": "United States Postal Service", "operator:short": "USPS", "operator:type": "public", "operator:wikidata": "Q668687", "ref": "1636500025"}, "type": "Feature"}
{"geometry": {"coordinates": [-79.1252836, 41.832456], "type": "Point"}, "id": "tGebKFJT6MgnsD7mBKX36e3kz9A=", "properties": {"@source_uri": "https://tools.usps.com/UspsToolsRestServices/rest/POLocator/findLocations", "@spider": "usps_collection_boxes", "addr:city": "WARREN", "addr:country": "US", "addr:postcode": "16365", "addr:state": "PA", "addr:street_address": "1613 PENNSYLVANIA AVE E", "amenity": "post_box", "collection_times": "Mo-Sa 15:00", "note": "ON 12/24 AND 12/31, THIS BOX MAY BE COLLECTED AS EARLY AS 12 NOON.", "nsi_id": "unitedstatespostalservice-a77078", "operator": "United States Postal Service", "operator:short": "USPS", "operator:type": "public", "operator:wikidata": "Q668687", "ref": "1636500033"}, "type": "Feature"}
{"geometry": {"coordinates": [-79.1343517, 41.840416], "type": "Point"}, "id": "PTedWtDbnmCFaZPHT_glErCaXd0=", "properties": {"@source_uri": "https://tools.usps.com/UspsToolsRestServices/rest/POLocator/findLocations", "@spider": "usps_collection_boxes", "addr:city": "WARREN", "addr:country": "US", "addr:postcode": "16365", "addr:state": "PA", "addr:street_address": "621 PENNSYLVANIA AVE E", "amenity": "post_box", "collection_times": "Mo-Sa 13:00", "note": "ON 12/24 AND 12/31, THIS BOX MAY BE COLLECTED AS EARLY AS 12 NOON.", "nsi_id": "unitedstatespostalservice-a77078", "operator": "United States Postal Service", "operator:short": "USPS", "operator:type": "public", "operator:wikidata": "Q668687", "ref": "1636500036"}, "type": "Feature"}
{"geometry": {"coordinates": [-79.1363073, 41.841722], "type": "Point"}, "id": "Qfn2biev8AZZY9cAQZ_MvICK1_E=", "properties": {"@source_uri": "https://tools.usps.com/UspsToolsRestServices/rest/POLocator/findLocations", "@spider": "usps_collection_boxes", "addr:city": "WARREN", "addr:country": "US", "addr:postcode": "16365", "addr:state": "PA", "addr:street_address": "404 PENNSYLVANIA AVE E", "amenity": "post_box", "collection_times": "Mo-Sa 15:00", "note": "ON 12/24 AND 12/31, THIS BOX MAY BE COLLECTED AS EARLY AS 12 NOON.", "nsi_id": "unitedstatespostalservice-a77078", "operator": "United States Postal Service", "operator:short": "USPS", "operator:type": "public", "operator:wikidata": "Q668687", "ref": "1636500037"}, "type": "Feature"}
{"geometry": {"coordinates": [-79.1462823, 41.85967], "type": "Point"}, "id": "QL0_aiVyY06M29Qx1wf12TwG6u4=", "properties": {"@source_uri": "https://tools.usps.com/UspsToolsRestServices/rest/POLocator/findLocations", "@spider": "usps_collection_boxes", "addr:city": "WARREN", "addr:country": "US", "addr:postcode": "16365", "addr:state": "PA", "addr:street_address": "800 CONEWANGO AVE", "amenity": "post_box", "collection_times": "Mo-Sa 12:30", "note": "ON 12/24 AND 12/31, THIS BOX MAY BE COLLECTED AS EARLY AS 12 NOON.", "nsi_id": "unitedstatespostalservice-a77078", "operator": "United States Postal Service", "operator:short": "USPS", "operator:type": "public", "operator:wikidata": "Q668687", "ref": "1636500040"}, "type": "Feature"}
{"geometry": {"coordinates": [-79.1555678, 41.842874], "type": "Point"}, "id": "ibpO6_t4myOGhzYsYluJynICoOE=", "properties": {"@source_uri": "https://tools.usps.com/UspsToolsRestServices/rest/POLocator/findLocations", "@spider": "usps_collection_boxes", "addr:city": "WARREN", "addr:country": "US", "addr:postcode": "16365", "addr:state": "PA", "addr:street_address": "103 W SAINT CLAIR ST", "amenity": "post_box", "collection_times": "Mo-Sa 14:30", "note": "ON 12/24 AND 12/31, THIS BOX MAY BE COLLECTED AS EARLY AS 12 NOON.", "nsi_id": "unitedstatespostalservice-a77078", "operator": "United States Postal Service", "operator:short": "USPS", "operator:type": "public", "operator:wikidata": "Q668687", "ref": "1636500043"}, "type": "Feature"}
{"geometry": {"coordinates": [-79.1475168, 41.844933], "type": "Point"}, "id": "jLRbV_3Sb1MPsjM_Zswe3SNQPKU=", "properties": {"@source_uri": "https://tools.usps.com/UspsToolsRestServices/rest/POLocator/findLocations", "@spider": "usps_collection_boxes", "addr:city": "WARREN", "addr:country": "US", "addr:postcode": "16365", "addr:state": "PA", "addr:street_address": "301 2ND AVE", "amenity": "post_box", "collection_times": "Mo-Fr 15:00; Sa 12:00", "note": "ON 12/24 AND 12/31, THIS BOX MAY BE COLLECTED AS EARLY AS 12 NOON.", "nsi_id": "unitedstatespostalservice-a77078", "operator": "United States Postal Service", "operator:short": "USPS", "operator:type": "public", "operator:wikidata": "Q668687", "ref": "1636500044"}, "type": "Feature"}
{"geometry": {"coordinates": [-79.1478941, 41.844937], "type": "Point"}, "id": "t_xdsKN4F7lPL4tHO6G_KBjLkUY=", "properties": {"@source_uri": "https://tools.usps.com/UspsToolsRestServices/rest/POLocator/findLocations", "@spider": "usps_collection_boxes", "addr:city": "WARREN", "addr:country": "US", "addr:postcode": "16365", "addr:state": "PA", "addr:street_address": "315 2ND AVE", "amenity": "post_box", "collection_times": "Mo-Fr 15:00; Sa 12:00", "note": "ON 12/24 AND 12/31, THIS BOX MAY BE COLLECTED AS EARLY AS 12 NOON.", "nsi_id": "unitedstatespostalservice-a77078", "operator": "United States Postal Service", "operator:short": "USPS", "operator:type": "public", "operator:wikidata": "Q668687", "ref": "1636500045"}, "type": "Feature"}
{"geometry": {"coordinates": [-79.147224644, 41.846444286], "type": "Point"}, "id": "fri0VEIoEynBWadM-luWYABqylo=", "properties": {"@source_uri": "https://tools.usps.com/UspsToolsRestServices/rest/POLocator/findLocations", "@spider": "usps_collection_boxes", "addr:city": "WARREN", "addr:country": "US", "addr:postcode": "16365", "addr:state": "PA", "addr:street_address": "210 W 3RD AVE", "amenity": "post_box", "collection_times": "Mo-Fr 17:00; Sa 16:00", "indoor": "yes", "note": "ON 12/24 AND 12/31, THIS BOX MAY BE COLLECTED AS EARLY AS 12 NOON.", "nsi_id": "unitedstatespostalservice-a77078", "operator": "United States Postal Service", "operator:short": "USPS", "operator:type": "public", "operator:wikidata": "Q668687", "ref": "1636500048"}, "type": "Feature"}
{"geometry": {"coordinates": [-79.147224644, 41.846444286], "type": "Point"}, "id": "uSUpe4BlW3yA-avd1139N5m3NHk=", "properties": {"@source_uri": "https://tools.usps.com/UspsToolsRestServices/rest/POLocator/findLocations", "@spider": "usps_collection_boxes", "addr:city": "WARREN", "addr:country": "US", "addr:postcode": "16365", "addr:state": "PA", "addr:street_address": "210 W 3RD AVE", "amenity": "post_box", "collection_times": "Mo-Fr 17:00; Sa 12:00", "indoor": "yes", "note": "ON 12/24 AND 12/31, THIS BOX MAY BE COLLECTED AS EARLY AS 12 NOON.", "nsi_id": "unitedstatespostalservice-a77078", "operator": "United States Postal Service", "operator:short": "USPS", "operator:type": "public", "operator:wikidata": "Q668687", "ref": "1636500051"}, "type": "Feature"}
{"geometry": {"coordinates": [-79.409160689, 41.567576983], "type": "Point"}, "id": "v2S-0fARV-ExX7CqN8LoZalUHp8=", "properties": {"@source_uri": "https://tools.usps.com/UspsToolsRestServices/rest/POLocator/findLocations", "@spider": "usps_collection_boxes", "addr:city": "WEST HICKORY", "addr:country": "US", "addr:postcode": "16370", "addr:state": "PA", "addr:street_address": "3518 MAIN ST", "amenity": "post_box", "collection_times": "Mo-Fr 11:40; Sa 09:35", "nsi_id": "unitedstatespostalservice-a77078", "operator": "United States Postal Service", "operator:short": "USPS", "operator:type": "public", "operator:wikidata": "Q668687", "ref": "1637000000"}, "type": "Feature"}
{"geometry": {"coordinates": [-79.409160689, 41.567576983], "type": "Point"}, "id": "ERTePW0DMxoe2SQT2NeikWjP5VU=", "properties": {"@source_uri": "https://tools.usps.com/UspsToolsRestServices/rest/POLocator/findLocations", "@spider": "usps_collection_boxes", "addr:city": "WEST HICKORY", "addr:country": "US", "addr:postcode": "16370", "addr:state": "PA", "addr:street_address": "3518 MAIN ST", "amenity": "post_box", "collection_times": "Mo-Fr 11:40; Sa 09:35", "indoor": "yes", "nsi_id": "unitedstatespostalservice-a77078", "operator": "United States Postal Service", "operator:short": "USPS", "operator:type": "public", "operator:wikidata": "Q668687", "ref": "1637000001"}, "type": "Feature"}
{"geometry": {"coordinates": [-79.409160689, 41.567576983], "type": "Point"}, "id": "mKrn54vHgBLiJ-wTkTO215V3Gl8=", "properties": {"@source_uri": "https://tools.usps.com/UspsToolsRestServices/rest/POLocator/findLocations", "@spider": "usps_collection_boxes", "addr:city": "WEST HICKORY", "addr:country": "US", "addr:postcode": "16370", "addr:state": "PA", "addr:street_address": "3518 MAIN ST", "amenity": "post_box", "collection_times": "Mo-Fr 11:40; Sa 09:25", "indoor": "yes", "nsi_id": "unitedstatespostalservice-a77078", "operator": "United States Postal Service", "operator:short": "USPS", "operator:type": "public", "operator:wikidata": "Q668687", "ref": "1637000003"}, "type": "Feature"}
{"geometry": {"coordinates": [-79.317213, 41.85034], "type": "Point"}, "id": "vc-WI7nc0GpFQImN5Z_KXNYkGps=", "properties": {"@source_uri": "https://tools.usps.com/UspsToolsRestServices/rest/POLocator/findLocations", "@spider": "usps_collection_boxes", "addr:city": "YOUNGSVILLE", "addr:country": "US", "addr:postcode": "16371", "addr:state": "PA", "addr:street_address": "39 RAILROAD ST", "amenity": "post_box", "collection_times": "Mo-Fr 16:30; Sa 15:30", "note": "ON 12/24 AND 12/31, THIS BOX MAY BE COLLECTED AS EARLY AS 12 NOON.", "nsi_id": "unitedstatespostalservice-a77078", "operator": "United States Postal Service", "operator:short": "USPS", "operator:type": "public", "operator:wikidata": "Q668687", "ref": "1637100000"}, "type": "Feature"}
{"geometry": {"coordinates": [-79.3162621, 41.851508], "type": "Point"}, "id": "MgnKIBmN9C9g3ti38BOUiXgSmbQ=", "properties": {"@source_uri": "https://tools.usps.com/UspsToolsRestServices/rest/POLocator/findLocations", "@spider": "usps_collection_boxes", "addr:city": "YOUNGSVILLE", "addr:country": "US", "addr:postcode": "16371", "addr:state": "PA", "addr:street_address": "202 E MAIN ST", "amenity": "post_box", "collection_times": "Mo-Sa 15:30", "note": "ON 12/24 AND 12/31, THIS BOX MAY BE COLLECTED AS EARLY AS 12 NOON.", "nsi_id": "unitedstatespostalservice-a77078", "operator": "United States Postal Service", "operator:short": "USPS", "operator:type": "public", "operator:wikidata": "Q668687", "ref": "1637100007"}, "type": "Feature"}
{"geometry": {"coordinates": [-79.317237, 41.85037], "type": "Point"}, "id": "blZooJNVj7qR1910XmXWtBnPmKQ=", "properties": {"@source_uri": "https://tools.usps.com/UspsToolsRestServices/rest/POLocator/findLocations", "@spider": "usps_collection_boxes", "addr:city": "YOUNGSVILLE", "addr:country": "US", "addr:postcode": "16371", "addr:state": "PA", "addr:street_address": "39 RAILROAD ST", "amenity": "post_box", "collection_times": "Mo-Fr 16:30; Sa 15:30", "indoor": "yes", "note": "ON 12/24 AND 12/31, THIS BOX MAY BE COLLECTED AS EARLY AS 12 NOON.", "nsi_id": "unitedstatespostalservice-a77078", "operator": "United States Postal Service", "operator:short": "USPS", "operator:type": "public", "operator:wikidata": "Q668687", "ref": "1637100008"}, "type": "Feature"}
{"geometry": {"coordinates": [-79.3171702051, 41.8504167666], "type": "Point"}, "id": "wUNbdMd9hGgXKFwkX8n7987ksv4=", "properties": {"@source_uri": "https://tools.usps.com/UspsToolsRestServices/rest/POLocator/findLocations", "@spider": "usps_collection_boxes", "addr:city": "YOUNGSVILLE", "addr:country": "US", "addr:postcode": "16371", "addr:state": "PA", "addr:street_address": "39 RAILROAD ST", "amenity": "post_box", "collection_times": "Mo-Fr 16:15; Sa 12:00", "indoor": "yes", "note": "ON 12/24 AND 12/31, THIS BOX MAY BE COLLECTED AS EARLY AS 12 NOON.", "nsi_id": "unitedstatespostalservice-a77078", "operator": "United States Postal Service", "operator:short": "USPS", "operator:type": "public", "operator:wikidata": "Q668687", "ref": "1637100010"}, "type": "Feature"}
{"geometry": {"coordinates": [-79.872398191, 41.20061271], "type": "Point"}, "id": "7HVtNqxMQH9_qj6pr1ZX3O1kjQ4=", "properties": {"@source_uri": "https://tools.usps.com/UspsToolsRestServices/rest/POLocator/findLocations", "@spider": "usps_collection_boxes", "addr:city": "CLINTONVILLE", "addr:country": "US", "addr:postcode": "16372", "addr:state": "PA", "addr:street_address": "201 IRWIN ST", "amenity": "post_box", "collection_times": "Mo-Fr 15:00; Sa 12:00", "note": "ON 12/24 AND 12/31, THIS BOX MAY BE COLLECTED AS EARLY AS 12 NOON.", "nsi_id": "unitedstatespostalservice-a77078", "operator": "United States Postal Service", "operator:short": "USPS", "operator:type": "public", "operator:wikidata": "Q668687", "ref": "1637200000"}, "type": "Feature"}
{"geometry": {"coordinates": [-79.872398191, 41.20061271], "type": "Point"}, "id": "C7EpLQSTBcpzXQCZCV2CKV0zkDo=", "properties": {"@source_uri": "https://tools.usps.com/UspsToolsRestServices/rest/POLocator/findLocations", "@spider": "usps_collection_boxes", "addr:city": "CLINTONVILLE", "addr:country": "US", "addr:postcode": "16372", "addr:state": "PA", "addr:street_address": "201 IRWIN ST", "amenity": "post_box", "collection_times": "Mo-Fr 15:00; Sa 12:00", "indoor": "yes", "note": "ON 12/24 AND 12/31, THIS BOX MAY BE COLLECTED AS EARLY AS 12 NOON.", "nsi_id": "unitedstatespostalservice-a77078", "operator": "United States Postal Service", "operator:short": "USPS", "operator:type": "public", "operator:wikidata": "Q668687", "ref": "1637200001"}, "type": "Feature"}
{"geometry": {"coordinates": [-79.872398191, 41.20061271], "type": "Point"}, "id": "jZIDdU17crDX5jCkJtxisTGJXQU=", "properties": {"@source_uri": "https://tools.usps.com/UspsToolsRestServices/rest/POLocator/findLocations", "@spider": "usps_collection_boxes", "addr:city": "CLINTONVILLE", "addr:country": "US", "addr:postcode": "16372", "addr:state": "PA", "addr:street_address": "201 IRWIN ST", "amenity": "post_box", "collection_times": "Mo-Fr 15:00; Sa 11:45", "indoor": "yes", "note": "ON 12/24 AND 12/31, THIS BOX MAY BE COLLECTED AS EARLY AS 12 NOON.", "nsi_id": "unitedstatespostalservice-a77078", "operator": "United States Postal Service", "operator:short": "USPS", "operator:type": "public", "operator:wikidata": "Q668687", "ref": "1637200003"}, "type": "Feature"}
{"geometry": {"coordinates": [-79.712002949, 41.177182797], "type": "Point"}, "id": "RL1iKN1371SjtuMgE3jvMEQrGvk=", "properties": {"@source_uri": "https://tools.usps.com/UspsToolsRestServices/rest/POLocator/findLocations", "@spider": "usps_collection_boxes", "addr:city": "EMLENTON", "addr:country": "US", "addr:postcode": "16373", "addr:state": "PA", "addr:street_address": "714 MAIN ST", "amenity": "post_box", "collection_times": "Mo-Fr 16:45; Sa 12:00", "note": "ON 12/24 AND 12/31, THIS BOX MAY BE COLLECTED AS EARLY AS 12 NOON.", "nsi_id": "unitedstatespostalservice-a77078", "operator": "United States Postal Service", "operator:short": "USPS", "operator:type": "public", "operator:wikidata": "Q668687", "ref": "1637300000"}, "type": "Feature"}
{"geometry": {"coordinates": [-79.7397779, 41.175349], "type": "Point"}, "id": "L_C67g41SUpN20qNd2iORul_e6s=", "properties": {"@source_uri": "https://tools.usps.com/UspsToolsRestServices/rest/POLocator/findLocations", "@spider": "usps_collection_boxes", "addr:city": "EMLENTON", "addr:country": "US", "addr:postcode": "16373", "addr:state": "PA", "addr:street_address": "6406 EMLENTON CLINTONVILLE RD", "amenity": "post_box", "collection_times": "Mo-Sa 09:00", "nsi_id": "unitedstatespostalservice-a77078", "operator": "United States Postal Service", "operator:short": "USPS", "operator:type": "public", "operator:wikidata": "Q668687", "ref": "1637300001"}, "type": "Feature"}
{"geometry": {"coordinates": [-79.712002949, 41.177182797], "type": "Point"}, "id": "WpiX4CY-sUCfeJjmbg5qGa7o7dw=", "properties": {"@source_uri": "https://tools.usps.com/UspsToolsRestServices/rest/POLocator/findLocations", "@spider": "usps_collection_boxes", "addr:city": "EMLENTON", "addr:country": "US", "addr:postcode": "16373", "addr:state": "PA", "addr:street_address": "714 MAIN ST", "amenity": "post_box", "collection_times": "Mo-Fr 16:45; Sa 12:00", "indoor": "yes", "note": "ON 12/24 AND 12/31, THIS BOX MAY BE COLLECTED AS EARLY AS 12 NOON.", "nsi_id": "unitedstatespostalservice-a77078", "operator": "United States Postal Service", "operator:short": "USPS", "operator:type": "public", "operator:wikidata": "Q668687", "ref": "1637300002"}, "type": "Feature"}
{"geometry": {"coordinates": [-79.712002949, 41.177182797], "type": "Point"}, "id": "7xsA49SXiR9lfkqX_IkAI3kyN4I=", "properties": {"@source_uri": "https://tools.usps.com/UspsToolsRestServices/rest/POLocator/findLocations", "@spider": "usps_collection_boxes", "addr:city": "EMLENTON", "addr:country": "US", "addr:postcode": "16373", "addr:state": "PA", "addr:street_address": "714 MAIN ST", "amenity": "post_box", "collection_times": "Mo-Fr 16:45; Sa 12:00", "indoor": "yes", "note": "ON 12/24 AND 12/31, THIS BOX MAY BE COLLECTED AS EARLY AS 12 NOON.", "nsi_id": "unitedstatespostalservice-a77078", "operator": "United States Postal Service", "operator:short": "USPS", "operator:type": "public", "operator:wikidata": "Q668687", "ref": "1637300004"}, "type": "Feature"}
{"geometry": {"coordinates": [-79.84373441, 41.268557168], "type": "Point"}, "id": "XDkLQRFe-RjdJyaitGEUCyOB9eY=", "properties": {"@source_uri": "https://tools.usps.com/UspsToolsRestServices/rest/POLocator/findLocations", "@spider": "usps_collection_boxes", "addr:city": "KENNERDELL", "addr:country": "US", "addr:postcode": "16374", "addr:state": "PA", "addr:street_address": "240 MAIN ST", "amenity": "post_box", "collection_times": "Mo-Fr 15:00; Sa 10:15", "note": "ON 12/24 AND 12/31, THIS BOX MAY BE COLLECTED AS EARLY AS 12 NOON.", "nsi_id": "unitedstatespostalservice-a77078", "operator": "United States Postal Service", "operator:short": "USPS", "operator:type": "public", "operator:wikidata": "Q668687", "ref": "1637400000"}, "type": "Feature"}
{"geometry": {"coordinates": [-79.84373441, 41.268557168], "type": "Point"}, "id": "8Syrz0iVW1zniFvjJVpT36SSQLw=", "properties": {"@source_uri": "https://tools.usps.com/UspsToolsRestServices/rest/POLocator/findLocations", "@spider": "usps_collection_boxes", "addr:city": "KENNERDELL", "addr:country": "US", "addr:postcode": "16374", "addr:state": "PA", "addr:street_address": "240 MAIN ST", "amenity": "post_box", "collection_times": "Mo-Fr 15:00; Sa 10:15", "indoor": "yes", "note": "ON 12/24 AND 12/31, THIS BOX MAY BE COLLECTED AS EARLY AS 12 NOON.", "nsi_id": "unitedstatespostalservice-a77078", "operator": "United States Postal Service", "operator:short": "USPS", "operator:type": "public", "operator:wikidata": "Q668687", "ref": "1637400001"}, "type": "Feature"}
{"geometry": {"coordinates": [-79.84373441, 41.268557168], "type": "Point"}, "id": "yEBFl98HJU7J2h8Y6112qmcmvZU=", "properties": {"@source_uri": "https://tools.usps.com/UspsToolsRestServices/rest/POLocator/findLocations", "@spider": "usps_collection_boxes", "addr:city": "KENNERDELL", "addr:country": "US", "addr:postcode": "16374", "addr:state": "PA", "addr:street_address": "240 MAIN ST", "amenity": "post_box", "collection_times": "Mo-Fr 15:00; Sa 10:00", "indoor": "yes", "note": "ON 12/24 AND 12/31, THIS BOX MAY BE COLLECTED AS EARLY AS 12 NOON.", "nsi_id": "unitedstatespostalservice-a77078", "operator": "United States Postal Service", "operator:short": "USPS", "operator:type": "public", "operator:wikidata": "Q668687", "ref": "1637400003"}, "type": "Feature"}
{"geometry": {"coordinates": [-79.63550329, 41.22216041], "type": "Point"}, "id": "0iLyZtIIM7SyZZY1gjArhqRPC6g=", "properties": {"@source_uri": "https://tools.usps.com/UspsToolsRestServices/rest/POLocator/findLocations", "@spider": "usps_collection_boxes", "addr:city": "LAMARTINE", "addr:country": "US", "addr:postcode": "16375", "addr:state": "PA", "addr:street_address": "1710 ROUTE 208", "amenity": "post_box", "collection_times": "Mo-Sa 12:45", "note": "ON 12/24 AND 12/31, THIS BOX MAY BE COLLECTED AS EARLY AS 12 NOON.", "nsi_id": "unitedstatespostalservice-a77078", "operator": "United States Postal Service", "operator:short": "USPS", "operator:type": "public", "operator:wikidata": "Q668687", "ref": "1637500000"}, "type": "Feature"}
{"geometry": {"coordinates": [-79.63550329, 41.22216041], "type": "Point"}, "id": "puz8Dtl2sYRfUuZxRIrtUfZOsfU=", "properties": {"@source_uri": "https://tools.usps.com/UspsToolsRestServices/rest/POLocator/findLocations", "@spider": "usps_collection_boxes", "addr:city": "LAMARTINE", "addr:country": "US", "addr:postcode": "16375", "addr:state": "PA", "addr:street_address": "1710 ROUTE 208", "amenity": "post_box", "collection_times": "Mo-Sa 12:45", "indoor": "yes", "note": "ON 12/24 AND 12/31, THIS BOX MAY BE COLLECTED AS EARLY AS 12 NOON.", "nsi_id": "unitedstatespostalservice-a77078", "operator": "United States Postal Service", "operator:short": "USPS", "operator:type": "public", "operator:wikidata": "Q668687", "ref": "1637500001"}, "type": "Feature"}
{"geometry": {"coordinates": [-79.63550329, 41.22216041], "type": "Point"}, "id": "5VJy61XEPnuhMkmc2HinKhcH0vo=", "properties": {"@source_uri": "https://tools.usps.com/UspsToolsRestServices/rest/POLocator/findLocations", "@spider": "usps_collection_boxes", "addr:city": "LAMARTINE", "addr:country": "US", "addr:postcode": "16375", "addr:state": "PA", "addr:street_address": "1710 ROUTE 208", "amenity": "post_box", "collection_times": "Mo-Sa 12:50", "indoor": "yes", "note": "ON 12/24 AND 12/31, THIS BOX MAY BE COLLECTED AS EARLY AS 12 NOON.", "nsi_id": "unitedstatespostalservice-a77078", "operator": "United States Postal Service", "operator:short": "USPS", "operator:type": "public", "operator:wikidata": "Q668687", "ref": "1637500003"}, "type": "Feature"}
